"Station Name","TORONTO INTL A"
"Province","ONTARIO"
"Latitude","43.68"
"Longitude","-79.63"
"Elevation","173.40"
"Climate Identifier","6158731"
"WMO Identifier","71624"
"TC Identifier","YYZ"
"All times are specified in Local Standard Time (LST). Add 1 hour to adjust for Daylight Saving Time where and when it is observed."

"Legend"
"E","Estimated"
"M","Missing"
"NA","Not Available"

"Date/Time","Year","Month","Day","Time","Temp (°C)","Temp Flag","Dew Point Temp (°C)","Dew Point Temp Flag","Rel Hum (%)","Rel Hum Flag","Wind Dir (10s deg)","Wind Dir Flag","Wind Spd (km/h)","Wind Spd Flag","Visibility (km)","Visibility Flag","Stn Press (kPa)","Stn Press Flag","Hmdx","Hmdx Flag","Wind Chill","Wind Chill Flag","Weather"
"2014-06-01 00:00","2014","06","01","00:00","15.1","","3.3","","45","","3","","6","","24.1","","100.45","","","","","","NA"
"2014-06-01 01:00","2014","06","01","01:00","13.6","","4.3","","53","","16","","7","","24.1","","100.45","","","","","","Mainly Clear"
"2014-06-01 02:00","2014","06","01","02:00","13.3","","4.5","","55","","36","","2","","24.1","","100.41","","","","","","NA"
"2014-06-01 03:00","2014","06","01","03:00","12.5","","4.3","","57","","8","","4","","24.1","","100.41","","","","","","NA"
"2014-06-01 04:00","2014","06","01","04:00","12.2","","4.7","","60","","14","","3","","24.1","","100.38","","","","","","Mainly Clear"
"2014-06-01 05:00","2014","06","01","05:00","11.5","","4.5","","62","","11","","7","","24.1","","100.36","","","","","","NA"
"2014-06-01 06:00","2014","06","01","06:00","12.2","","5.2","","62","","9","","7","","24.1","","100.36","","","","","","NA"
"2014-06-01 07:00","2014","06","01","07:00","14.3","","6.7","","60","","8","","6","","24.1","","100.35","","","","","","Mainly Clear"
"2014-06-01 08:00","2014","06","01","08:00","17.0","","8.3","","56","","14","","10","","24.1","","100.36","","","","","","NA"
"2014-06-01 09:00","2014","06","01","09:00","18.1","","6.4","","46","","15","","9","","24.1","","100.31","","","","","","NA"
"2014-06-01 10:00","2014","06","01","10:00","19.3","","7.8","","47","","16","","11","","24.1","","100.28","","","","","","Mostly Cloudy"
"2014-06-01 11:00","2014","06","01","11:00","20.6","","9.3","","48","","18","","11","","24.1","","100.25","","","","","","NA"
"2014-06-01 12:00","2014","06","01","12:00","21.5","","9.9","","47","","15","","17","","24.1","","100.20","","","","","","NA"
"2014-06-01 13:00","2014","06","01","13:00","21.3","","9.4","","46","","15","","19","","24.1","","100.13","","","","","","Mostly Cloudy"
"2014-06-01 14:00","2014","06","01","14:00","21.6","","9.6","","46","","17","","19","","24.1","","100.09","","","","","","NA"
"2014-06-01 15:00","2014","06","01","15:00","21.1","","9.5","","47","","12","","15","","24.1","","100.04","","","","","","NA"
"2014-06-01 16:00","2014","06","01","16:00","19.9","","8.7","","48","","15","","18","","24.1","","99.99","","","","","","Mostly Cloudy"
"2014-06-01 17:00","2014","06","01","17:00","20.3","","9.4","","49","","15","","14","","24.1","","99.93","","","","","","NA"
"2014-06-01 18:00","2014","06","01","18:00","20.5","","7.0","","41","","13","","17","","24.1","","99.83","","","","","","NA"
"2014-06-01 19:00","2014","06","01","19:00","19.6","","7.2","","44","","14","","12","","24.1","","99.82","","","","","","Mostly Cloudy"
"2014-06-01 20:00","2014","06","01","20:00","18.3","","6.6","","46","","14","","9","","24.1","","99.78","","","","","","NA"
"2014-06-01 21:00","2014","06","01","21:00","17.4","","6.4","","48","","15","","7","","24.1","","99.80","","","","","","NA"
"2014-06-01 22:00","2014","06","01","22:00","17.5","","6.2","","47","","13","","7","","24.1","","99.80","","","","","","Clear"
"2014-06-01 23:00","2014","06","01","23:00","17.1","","6.7","","50","","11","","6","","24.1","","99.75","","","","","","NA"
"2014-06-02 00:00","2014","06","02","00:00","15.3","","6.7","","56","","26","","4","","24.1","","99.73","","","","","","NA"
"2014-06-02 01:00","2014","06","02","01:00","15.5","","7.1","","57","","25","","4","","24.1","","99.70","","","","","","Clear"
"2014-06-02 02:00","2014","06","02","02:00","14.6","","7.2","","61","","15","","8","","24.1","","99.67","","","","","","NA"
"2014-06-02 03:00","2014","06","02","03:00","13.9","","7.5","","65","","15","","4","","24.1","","99.63","","","","","","NA"
"2014-06-02 04:00","2014","06","02","04:00","13.3","","8.2","","71","","11","","4","","24.1","","99.63","","","","","","Clear"
"2014-06-02 05:00","2014","06","02","05:00","14.3","","8.7","","69","","7","","3","","24.1","","99.63","","","","","","NA"
"2014-06-02 06:00","2014","06","02","06:00","15.8","","9.8","","67","","11","","7","","24.1","","99.64","","","","","","NA"
"2014-06-02 07:00","2014","06","02","07:00","17.9","","11.8","","67","","16","","8","","24.1","","99.62","","","","","","Mainly Clear"
"2014-06-02 08:00","2014","06","02","08:00","19.6","","13.4","","67","","17","","11","","24.1","","99.60","","","","","","NA"
"2014-06-02 09:00","2014","06","02","09:00","21.1","","14.4","","65","","14","","12","","24.1","","99.56","","25","","","","NA"
"2014-06-02 10:00","2014","06","02","10:00","23.4","","15.6","","61","","14","","11","","24.1","","99.51","","28","","","","Mostly Cloudy"
"2014-06-02 11:00","2014","06","02","11:00","23.8","","15.7","","60","","15","","15","","24.1","","99.48","","28","","","","NA"
"2014-06-02 12:00","2014","06","02","12:00","22.9","","16.1","","65","","16","","15","","19.3","","99.43","","28","","","","NA"
"2014-06-02 13:00","2014","06","02","13:00","27.1","","18.6","","59","","15","","13","","19.3","","99.37","","34","","","","Mostly Cloudy"
"2014-06-02 14:00","2014","06","02","14:00","26.9","","18.9","","61","","16","","24","","19.3","","99.32","","34","","","","NA"
"2014-06-02 15:00","2014","06","02","15:00","27.0","","19.3","","62","","17","","21","","24.1","","99.24","","34","","","","NA"
"2014-06-02 16:00","2014","06","02","16:00","29.1","","18.8","","53","","20","","33","","24.1","","99.18","","36","","","","Mostly Cloudy"
"2014-06-02 17:00","2014","06","02","17:00","28.0","","18.9","","57","","22","","32","","24.1","","99.18","","35","","","","NA"
"2014-06-02 18:00","2014","06","02","18:00","27.5","","19.2","","60","","21","","35","","24.1","","99.12","","34","","","","NA"
"2014-06-02 19:00","2014","06","02","19:00","26.1","","19.4","","66","","21","","23","","24.1","","99.11","","33","","","","Mostly Cloudy"
"2014-06-02 20:00","2014","06","02","20:00","25.4","","19.4","","69","","21","","31","","24.1","","99.10","","32","","","","NA"
"2014-06-02 21:00","2014","06","02","21:00","24.8","","19.5","","72","","20","","26","","24.1","","99.09","","32","","","","NA"
"2014-06-02 22:00","2014","06","02","22:00","24.1","","18.8","","72","","22","","26","","19.3","","99.11","","31","","","","Rain Showers"
"2014-06-02 23:00","2014","06","02","23:00","22.8","","19.0","","79","","22","","28","","24.1","","99.10","","30","","","","Rain Showers"
"2014-06-03 00:00","2014","06","03","00:00","21.2","","19.2","","88","","22","","17","","24.1","","99.07","","28","","","","Rain Showers"
"2014-06-03 01:00","2014","06","03","01:00","20.1","","18.4","","90","","21","","19","","19.3","","99.02","","26","","","","Rain Showers"
"2014-06-03 02:00","2014","06","03","02:00","20.0","","18.5","","91","","21","","14","","19.3","","98.99","","26","","","","Rain Showers"
"2014-06-03 03:00","2014","06","03","03:00","19.9","","18.8","","93","","21","","14","","19.3","","98.97","","","","","","Rain Showers"
"2014-06-03 04:00","2014","06","03","04:00","19.6","","18.6","","94","","16","","10","","19.3","","98.93","","","","","","Rain Showers"
"2014-06-03 05:00","2014","06","03","05:00","18.9","","18.3","","96","","16","","9","","4.0","","98.93","","","","","","Rain Showers,Fog"
"2014-06-03 06:00","2014","06","03","06:00","18.7","","18.1","","96","","14","","8","","4.8","","98.90","","","","","","Rain Showers,Fog"
"2014-06-03 07:00","2014","06","03","07:00","20.8","","19.7","","93","","19","","10","","12.9","","98.90","","28","","","","Mostly Cloudy"
"2014-06-03 08:00","2014","06","03","08:00","21.4","","19.5","","89","","21","","17","","24.1","","98.93","","29","","","","NA"
"2014-06-03 09:00","2014","06","03","09:00","23.4","","20.0","","81","","21","","17","","24.1","","98.85","","31","","","","NA"
"2014-06-03 10:00","2014","06","03","10:00","22.5","","19.9","","85","","21","","21","","9.7","","98.86","","30","","","","Moderate Rain Showers,Fog"
"2014-06-03 11:00","2014","06","03","11:00","25.8","","20.5","","72","","22","","13","","24.1","","98.81","","34","","","","NA"
"2014-06-03 12:00","2014","06","03","12:00","26.4","","19.4","","65","","20","","21","","24.1","","98.75","","33","","","","NA"
"2014-06-03 13:00","2014","06","03","13:00","26.8","","17.7","","57","","21","","23","","24.1","","98.65","","33","","","","Mostly Cloudy"
"2014-06-03 14:00","2014","06","03","14:00","27.2","","18.1","","57","","22","","35","","24.1","","98.59","","33","","","","NA"
"2014-06-03 15:00","2014","06","03","15:00","26.7","","16.8","","54","","26","","35","","24.1","","98.54","","32","","","","Rain Showers"
"2014-06-03 16:00","2014","06","03","16:00","26.9","","13.1","","42","","27","","43","","24.1","","98.59","","30","","","","Mostly Cloudy"
"2014-06-03 17:00","2014","06","03","17:00","25.8","","13.8","","47","","31","","35","","24.1","","98.65","","29","","","","NA"
"2014-06-03 18:00","2014","06","03","18:00","22.7","","12.2","","51","","31","","38","","24.1","","98.83","","25","","","","NA"
"2014-06-03 19:00","2014","06","03","19:00","19.7","","10.5","","55","","31","","38","","24.1","","98.97","","","","","","Mainly Clear"
"2014-06-03 20:00","2014","06","03","20:00","17.6","","9.1","","57","","31","","33","","24.1","","99.09","","","","","","NA"
"2014-06-03 21:00","2014","06","03","21:00","16.4","","9.2","","62","","32","","22","","24.1","","99.18","","","","","","NA"
"2014-06-03 22:00","2014","06","03","22:00","15.0","","9.0","","67","","27","","9","","24.1","","99.14","","","","","","Clear"
"2014-06-03 23:00","2014","06","03","23:00","14.3","","9.4","","72","","24","","8","","24.1","","99.13","","","","","","NA"
"2014-06-04 00:00","2014","06","04","00:00","14.0","","9.1","","72","","23","","11","","24.1","","99.12","","","","","","NA"
"2014-06-04 01:00","2014","06","04","01:00","13.3","","9.0","","75","","24","","12","","24.1","","99.10","","","","","","Clear"
"2014-06-04 02:00","2014","06","04","02:00","14.3","","9.4","","72","","21","","13","","24.1","","99.08","","","","","","NA"
"2014-06-04 03:00","2014","06","04","03:00","13.8","","9.5","","75","","22","","11","","24.1","","99.05","","","","","","NA"
"2014-06-04 04:00","2014","06","04","04:00","12.6","","9.5","","81","","25","","13","","24.1","","99.07","","","","","","Clear"
"2014-06-04 05:00","2014","06","04","05:00","13.8","","9.5","","75","","26","","17","","24.1","","99.12","","","","","","NA"
"2014-06-04 06:00","2014","06","04","06:00","15.1","","10.4","","73","","27","","15","","24.1","","99.17","","","","","","NA"
"2014-06-04 07:00","2014","06","04","07:00","17.2","","7.4","","52","","31","","22","","24.1","","99.18","","","","","","Mainly Clear"
"2014-06-04 08:00","2014","06","04","08:00","18.4","","7.3","","48","","30","","14","","24.1","","99.15","","","","","","NA"
"2014-06-04 09:00","2014","06","04","09:00","19.8","","8.3","","47","","28","","14","","24.1","","99.13","","","","","","NA"
"2014-06-04 10:00","2014","06","04","10:00","21.1","","7.5","","41","","30","","23","","24.1","","99.07","","","","","","Mostly Cloudy"
"2014-06-04 11:00","2014","06","04","11:00","22.0","","8.0","","40","","23","","16","","24.1","","99.02","","","","","","NA"
"2014-06-04 12:00","2014","06","04","12:00","21.8","","7.4","","39","","28","","29","","24.1","","99.02","","","","","","NA"
"2014-06-04 13:00","2014","06","04","13:00","21.8","","7.4","","39","","28","","34","","24.1","","98.93","","","","","","Mostly Cloudy"
"2014-06-04 14:00","2014","06","04","14:00","21.9","","7.1","","38","","27","","29","","24.1","","98.90","","","","","","NA"
"2014-06-04 15:00","2014","06","04","15:00","21.4","","7.0","","39","","27","","28","","24.1","","98.84","","","","","","NA"
"2014-06-04 16:00","2014","06","04","16:00","21.5","","7.9","","41","","28","","25","","24.1","","98.84","","","","","","Mostly Cloudy"
"2014-06-04 17:00","2014","06","04","17:00","20.9","","7.0","","40","","32","","30","","24.1","","98.82","","","","","","NA"
"2014-06-04 18:00","2014","06","04","18:00","19.6","","4.3","","36","","31","","30","","24.1","","98.85","","","","","","NA"
"2014-06-04 19:00","2014","06","04","19:00","19.1","","5.7","","41","","30","","27","","24.1","","98.85","","","","","","Mostly Cloudy"
"2014-06-04 20:00","2014","06","04","20:00","17.5","","5.6","","45","","31","","18","","24.1","","98.87","","","","","","NA"
"2014-06-04 21:00","2014","06","04","21:00","16.1","","6.9","","54","","1","","15","","24.1","","98.90","","","","","","NA"
"2014-06-04 22:00","2014","06","04","22:00","14.6","","7.0","","60","","2","","9","","24.1","","98.86","","","","","","Mainly Clear"
"2014-06-04 23:00","2014","06","04","23:00","14.9","","7.0","","59","","32","","11","","24.1","","98.83","","","","","","NA"
"2014-06-05 00:00","2014","06","05","00:00","13.3","","7.4","","67","","29","","9","","24.1","","98.83","","","","","","NA"
"2014-06-05 01:00","2014","06","05","01:00","13.1","","7.6","","69","","32","","11","","24.1","","98.80","","","","","","Clear"
"2014-06-05 02:00","2014","06","05","02:00","12.1","","7.2","","72","","32","","13","","24.1","","98.77","","","","","","NA"
"2014-06-05 03:00","2014","06","05","03:00","11.2","","7.4","","77","","32","","13","","24.1","","98.76","","","","","","NA"
"2014-06-05 04:00","2014","06","05","04:00","11.2","","7.7","","79","","34","","23","","24.1","","98.80","","","","","","Mainly Clear"
"2014-06-05 05:00","2014","06","05","05:00","11.6","","8.3","","80","","33","","18","","24.1","","98.84","","","","","","NA"
"2014-06-05 06:00","2014","06","05","06:00","12.7","","8.2","","74","","34","","34","","24.1","","98.86","","","","","","NA"
"2014-06-05 07:00","2014","06","05","07:00","12.4","","7.5","","72","","34","","27","","24.1","","98.92","","","","","","Mostly Cloudy"
"2014-06-05 08:00","2014","06","05","08:00","14.3","","7.2","","62","","33","","18","","24.1","","98.92","","","","","","NA"
"2014-06-05 09:00","2014","06","05","09:00","15.6","","7.7","","59","","29","","17","","24.1","","98.87","","","","","","NA"
"2014-06-05 10:00","2014","06","05","10:00","16.5","","7.8","","56","","34","","21","","24.1","","98.84","","","","","","Mostly Cloudy"
"2014-06-05 11:00","2014","06","05","11:00","17.2","","8.2","","55","","32","","17","","24.1","","98.87","","","","","","NA"
"2014-06-05 12:00","2014","06","05","12:00","16.9","","8.2","","56","","33","","22","","24.1","","98.90","","","","","","NA"
"2014-06-05 13:00","2014","06","05","13:00","17.0","","8.3","","56","","36","","25","","24.1","","98.92","","","","","","Mostly Cloudy"
"2014-06-05 14:00","2014","06","05","14:00","17.2","","7.6","","53","","36","","32","","24.1","","98.96","","","","","","NA"
"2014-06-05 15:00","2014","06","05","15:00","17.0","","7.5","","53","","36","","32","","24.1","","99.03","","","","","","NA"
"2014-06-05 16:00","2014","06","05","16:00","16.9","","7.4","","53","","36","","33","","24.1","","99.02","","","","","","Mainly Clear"
"2014-06-05 17:00","2014","06","05","17:00","16.5","","6.7","","52","","35","","28","","24.1","","99.09","","","","","","NA"
"2014-06-05 18:00","2014","06","05","18:00","16.5","","6.7","","52","","34","","28","","24.1","","99.16","","","","","","NA"
"2014-06-05 19:00","2014","06","05","19:00","15.8","","6.3","","53","","35","","31","","24.1","","99.16","","","","","","Clear"
"2014-06-05 20:00","2014","06","05","20:00","14.8","","6.7","","58","","36","","18","","24.1","","99.18","","","","","","NA"
"2014-06-05 21:00","2014","06","05","21:00","13.8","","6.7","","62","","36","","12","","24.1","","99.22","","","","","","NA"
"2014-06-05 22:00","2014","06","05","22:00","13.4","","6.8","","64","","35","","16","","24.1","","99.26","","","","","","Clear"
"2014-06-05 23:00","2014","06","05","23:00","12.4","","6.9","","69","","29","","13","","24.1","","99.34","","","","","","NA"
"2014-06-06 00:00","2014","06","06","00:00","13.0","","7.1","","67","","31","","16","","24.1","","99.34","","","","","","NA"
"2014-06-06 01:00","2014","06","06","01:00","12.9","","7.0","","67","","34","","12","","24.1","","99.35","","","","","","Clear"
"2014-06-06 02:00","2014","06","06","02:00","11.3","","7.3","","76","","31","","12","","24.1","","99.37","","","","","","NA"
"2014-06-06 03:00","2014","06","06","03:00","11.4","","7.2","","75","","33","","9","","24.1","","99.38","","","","","","NA"
"2014-06-06 04:00","2014","06","06","04:00","10.7","","6.9","","77","","36","","2","","24.1","","99.36","","","","","","Mainly Clear"
"2014-06-06 05:00","2014","06","06","05:00","11.6","","7.2","","74","","32","","7","","24.1","","99.37","","","","","","NA"
"2014-06-06 06:00","2014","06","06","06:00","13.2","","7.7","","69","","31","","10","","24.1","","99.43","","","","","","NA"
"2014-06-06 07:00","2014","06","06","07:00","16.9","","4.4","","43","","32","","18","","24.1","","99.49","","","","","","Mostly Cloudy"
"2014-06-06 08:00","2014","06","06","08:00","18.1","","7.0","","48","","32","","18","","24.1","","99.53","","","","","","NA"
"2014-06-06 09:00","2014","06","06","09:00","19.3","","7.5","","46","","36","","19","","24.1","","99.51","","","","","","NA"
"2014-06-06 10:00","2014","06","06","10:00","20.1","","7.6","","44","","34","","11","","24.1","","99.48","","","","","","Mostly Cloudy"
"2014-06-06 11:00","2014","06","06","11:00","21.7","","6.2","","36","","33","","14","","24.1","","99.46","","","","","","NA"
"2014-06-06 12:00","2014","06","06","12:00","23.1","","4.8","","30","","34","","12","","24.1","","99.43","","","","","","NA"
"2014-06-06 13:00","2014","06","06","13:00","23.9","","6.9","","33","","34","","12","","24.1","","99.42","","","","","","Mostly Cloudy"
"2014-06-06 14:00","2014","06","06","14:00","24.2","","5.8","","30","","31","","16","","24.1","","99.41","","","","","","NA"
"2014-06-06 15:00","2014","06","06","15:00","24.6","","6.1","","30","","34","","16","","24.1","","99.39","","","","","","NA"
"2014-06-06 16:00","2014","06","06","16:00","24.6","","6.1","","30","","35","","17","","24.1","","99.38","","","","","","Mostly Cloudy"
"2014-06-06 17:00","2014","06","06","17:00","24.1","","5.7","","30","","36","","9","","24.1","","99.37","","","","","","NA"
"2014-06-06 18:00","2014","06","06","18:00","23.2","","4.9","","30","","5","","10","","24.1","","99.40","","","","","","NA"
"2014-06-06 19:00","2014","06","06","19:00","21.5","","4.7","","33","","2","","17","","24.1","","99.44","","","","","","Mainly Clear"
"2014-06-06 20:00","2014","06","06","20:00","19.4","","4.9","","38","","3","","10","","24.1","","99.46","","","","","","NA"
"2014-06-06 21:00","2014","06","06","21:00","18.6","","3.0","","35","","1","","8","","24.1","","99.52","","","","","","NA"
"2014-06-06 22:00","2014","06","06","22:00","17.9","","2.7","","36","","1","","10","","24.1","","99.56","","","","","","Mainly Clear"
"2014-06-06 23:00","2014","06","06","23:00","17.5","","4.2","","41","","35","","13","","24.1","","99.57","","","","","","NA"
"2014-06-07 00:00","2014","06","07","00:00","16.0","","4.8","","47","","35","","13","","24.1","","99.59","","","","","","NA"
"2014-06-07 01:00","2014","06","07","01:00","14.8","","5.4","","53","","35","","7","","24.1","","99.60","","","","","","Clear"
"2014-06-07 02:00","2014","06","07","02:00","13.9","","5.6","","57","","33","","13","","24.1","","99.60","","","","","","NA"
"2014-06-07 03:00","2014","06","07","03:00","13.9","","5.3","","56","","34","","11","","24.1","","99.59","","","","","","NA"
"2014-06-07 04:00","2014","06","07","04:00","13.6","","5.3","","57","","35","","7","","24.1","","99.60","","","","","","Clear"
"2014-06-07 05:00","2014","06","07","05:00","13.1","","5.6","","60","","32","","5","","24.1","","99.65","","","","","","NA"
"2014-06-07 06:00","2014","06","07","06:00","13.8","","6.5","","61","","36","","2","","24.1","","99.66","","","","","","NA"
"2014-06-07 07:00","2014","06","07","07:00","16.7","","6.6","","51","","31","","7","","24.1","","99.73","","","","","","Clear"
"2014-06-07 08:00","2014","06","07","08:00","19.2","","6.5","","43","","32","","6","","24.1","","99.77","","","","","","NA"
"2014-06-07 09:00","2014","06","07","09:00","21.4","","6.7","","38","","27","","7","","24.1","","99.84","","","","","","NA"
"2014-06-07 10:00","2014","06","07","10:00","22.9","","5.1","","31","","34","","7","","24.1","","99.80","","","","","","Clear"
"2014-06-07 11:00","2014","06","07","11:00","23.5","","4.2","","28","","33","","4","","24.1","","99.76","","","","","","NA"
"2014-06-07 12:00","2014","06","07","12:00","23.8","","6.8","","33","","14","","18","","24.1","","99.66","","","","","","NA"
"2014-06-07 13:00","2014","06","07","13:00","23.9","","6.4","","32","","15","","14","","24.1","","99.58","","","","","","Mainly Clear"
"2014-06-07 14:00","2014","06","07","14:00","24.4","","5.9","","30","","18","","14","","24.1","","99.56","","","","","","NA"
"2014-06-07 15:00","2014","06","07","15:00","25.0","","4.9","","27","","12","","14","","24.1","","99.48","","","","","","NA"
"2014-06-07 16:00","2014","06","07","16:00","24.8","","3.7","","25","","15","","17","","24.1","","99.49","","","","","","Mainly Clear"
"2014-06-07 17:00","2014","06","07","17:00","25.0","","-1.5","","17","","16","","15","","24.1","","99.42","","","","","","NA"
"2014-06-07 18:00","2014","06","07","18:00","24.1","","-4.9","","14","","17","","12","","24.1","","99.41","","","","","","NA"
"2014-06-07 19:00","2014","06","07","19:00","22.6","","3.4","","28","","17","","10","","24.1","","99.43","","","","","","Mostly Cloudy"
"2014-06-07 20:00","2014","06","07","20:00","21.1","","4.8","","34","","14","","7","","24.1","","99.39","","","","","","NA"
"2014-06-07 21:00","2014","06","07","21:00","20.5","","2.5","","30","","15","","5","","24.1","","99.39","","","","","","NA"
"2014-06-07 22:00","2014","06","07","22:00","19.0","","0.2","","28","","16","","3","","24.1","","99.36","","","","","","Mostly Cloudy"
"2014-06-07 23:00","2014","06","07","23:00","18.4","","1.5","","32","","15","","4","","24.1","","99.35","","","","","","NA"
"2014-06-08 00:00","2014","06","08","00:00","17.3","","4.4","","42","","15","","7","","24.1","","99.31","","","","","","NA"
"2014-06-08 01:00","2014","06","08","01:00","17.2","","5.3","","45","","11","","6","","24.1","","99.29","","","","","","Cloudy"
"2014-06-08 02:00","2014","06","08","02:00","17.1","","6.1","","48","","11","","4","","24.1","","99.24","","","","","","NA"
"2014-06-08 03:00","2014","06","08","03:00","16.7","","6.3","","50","","5","","5","","24.1","","99.23","","","","","","NA"
"2014-06-08 04:00","2014","06","08","04:00","14.5","","7.1","","61","","2","","10","","24.1","","99.21","","","","","","Cloudy"
"2014-06-08 05:00","2014","06","08","05:00","14.0","","8.0","","67","","3","","10","","24.1","","99.18","","","","","","NA"
"2014-06-08 06:00","2014","06","08","06:00","15.5","","7.6","","59","","4","","8","","24.1","","99.18","","","","","","NA"
"2014-06-08 07:00","2014","06","08","07:00","18.4","","8.5","","52","","7","","9","","24.1","","99.20","","","","","","Mostly Cloudy"
"2014-06-08 08:00","2014","06","08","08:00","19.4","","8.2","","48","","8","","7","","24.1","","99.21","","","","","","NA"
"2014-06-08 09:00","2014","06","08","09:00","19.7","","8.8","","49","","7","","10","","24.1","","99.16","","","","","","NA"
"2014-06-08 10:00","2014","06","08","10:00","19.2","","8.9","","51","","10","","9","","24.1","","99.16","","","","","","Cloudy"
"2014-06-08 11:00","2014","06","08","11:00","19.8","","9.5","","51","","4","","17","","24.1","","99.12","","","","","","NA"
"2014-06-08 12:00","2014","06","08","12:00","19.5","","9.5","","52","","6","","10","","24.1","","99.11","","","","","","NA"
"2014-06-08 13:00","2014","06","08","13:00","19.6","","10.4","","55","","1","","10","","19.3","","99.13","","","","","","Rain Showers"
"2014-06-08 14:00","2014","06","08","14:00","17.5","","14.3","","81","","1","","24","","24.1","","99.02","","","","","","NA"
"2014-06-08 15:00","2014","06","08","15:00","17.2","","13.8","","80","","34","","17","","19.3","","99.15","","","","","","Rain Showers"
"2014-06-08 16:00","2014","06","08","16:00","17.0","","14.1","","83","","34","","21","","16.1","","99.17","","","","","","Rain Showers"
"2014-06-08 17:00","2014","06","08","17:00","16.8","","13.8","","82","","36","","18","","19.3","","99.18","","","","","","Rain Showers"
"2014-06-08 18:00","2014","06","08","18:00","17.2","","14.5","","84","","1","","17","","19.3","","99.17","","","","","","Rain"
"2014-06-08 19:00","2014","06","08","19:00","17.7","","14.4","","81","","4","","13","","24.1","","99.16","","","","","","Mostly Cloudy"
"2014-06-08 20:00","2014","06","08","20:00","17.6","","13.6","","77","","1","","13","","24.1","","99.21","","","","","","NA"
"2014-06-08 21:00","2014","06","08","21:00","16.2","","13.5","","84","","36","","11","","24.1","","99.27","","","","","","NA"
"2014-06-08 22:00","2014","06","08","22:00","16.9","","14.2","","84","","35","","19","","24.1","","99.27","","","","","","Clear"
"2014-06-08 23:00","2014","06","08","23:00","15.0","","10.3","","73","","36","","21","","24.1","","99.31","","","","","","NA"
"2014-06-09 00:00","2014","06","09","00:00","14.3","","9.4","","72","","35","","27","","24.1","","99.33","","","","","","NA"
"2014-06-09 01:00","2014","06","09","01:00","14.1","","9.8","","75","","35","","23","","24.1","","99.33","","","","","","Clear"
"2014-06-09 02:00","2014","06","09","02:00","13.6","","10.3","","80","","35","","22","","24.1","","99.36","","","","","","NA"
"2014-06-09 03:00","2014","06","09","03:00","13.5","","11.2","","86","","35","","23","","24.1","","99.37","","","","","","NA"
"2014-06-09 04:00","2014","06","09","04:00","13.2","","11.5","","89","","1","","22","","24.1","","99.36","","","","","","Clear"
"2014-06-09 05:00","2014","06","09","05:00","13.6","","11.8","","89","","35","","21","","24.1","","99.42","","","","","","NA"
"2014-06-09 06:00","2014","06","09","06:00","14.8","","12.7","","87","","35","","22","","24.1","","99.47","","","","","","NA"
"2014-06-09 07:00","2014","06","09","07:00","16.5","","13.3","","81","","35","","27","","24.1","","99.48","","","","","","Mostly Cloudy"
"2014-06-09 08:00","2014","06","09","08:00","18.4","","14.0","","75","","34","","14","","24.1","","99.52","","","","","","NA"
"2014-06-09 09:00","2014","06","09","09:00","19.6","","14.5","","72","","34","","15","","24.1","","99.51","","","","","","NA"
"2014-06-09 10:00","2014","06","09","10:00","21.4","","15.1","","67","","35","","14","","24.1","","99.56","","25","","","","Mostly Cloudy"
"2014-06-09 11:00","2014","06","09","11:00","22.8","","12.9","","53","","15","","6","","24.1","","99.55","","26","","","","NA"
"2014-06-09 12:00","2014","06","09","12:00","24.5","","13.6","","50","","13","","17","","24.1","","99.50","","28","","","","NA"
"2014-06-09 13:00","2014","06","09","13:00","24.6","","13.7","","50","","14","","12","","24.1","","99.47","","28","","","","Mostly Cloudy"
"2014-06-09 14:00","2014","06","09","14:00","25.4","","14.1","","49","","13","","16","","24.1","","99.43","","29","","","","NA"
"2014-06-09 15:00","2014","06","09","15:00","25.8","","13.2","","45","","13","","15","","24.1","","99.35","","29","","","","NA"
"2014-06-09 16:00","2014","06","09","16:00","25.3","","13.4","","47","","15","","21","","24.1","","99.35","","28","","","","Mostly Cloudy"
"2014-06-09 17:00","2014","06","09","17:00","24.5","","13.9","","51","","14","","16","","24.1","","99.32","","28","","","","NA"
"2014-06-09 18:00","2014","06","09","18:00","22.4","","13.1","","55","","15","","13","","24.1","","99.34","","25","","","","NA"
"2014-06-09 19:00","2014","06","09","19:00","21.8","","13.0","","57","","17","","6","","24.1","","99.33","","25","","","","Mainly Clear"
"2014-06-09 20:00","2014","06","09","20:00","22.1","","13.1","","56","","22","","5","","24.1","","99.43","","25","","","","NA"
"2014-06-09 21:00","2014","06","09","21:00","21.8","","12.8","","56","","5","","4","","24.1","","99.39","","","","","","NA"
"2014-06-09 22:00","2014","06","09","22:00","20.0","","13.1","","64","","31","","3","","24.1","","99.40","","","","","","Mainly Clear"
"2014-06-09 23:00","2014","06","09","23:00","19.3","","10.7","","57","","2","","9","","24.1","","99.36","","","","","","NA"
"2014-06-10 00:00","2014","06","10","00:00","18.7","","9.9","","56","","34","","15","","24.1","","99.37","","","","","","NA"
"2014-06-10 01:00","2014","06","10","01:00","17.3","","8.5","","56","","35","","9","","24.1","","99.35","","","","","","Mostly Cloudy"
"2014-06-10 02:00","2014","06","10","02:00","16.6","","7.6","","55","","2","","13","","24.1","","99.34","","","","","","NA"
"2014-06-10 03:00","2014","06","10","03:00","16.3","","7.1","","54","","34","","10","","24.1","","99.35","","","","","","NA"
"2014-06-10 04:00","2014","06","10","04:00","15.6","","7.2","","57","","36","","13","","24.1","","99.34","","","","","","Mainly Clear"
"2014-06-10 05:00","2014","06","10","05:00","15.1","","8.4","","64","","32","","11","","24.1","","99.40","","","","","","NA"
"2014-06-10 06:00","2014","06","10","06:00","16.9","","9.4","","61","","34","","11","","24.1","","99.42","","","","","","NA"
"2014-06-10 07:00","2014","06","10","07:00","18.0","","10.2","","60","","36","","12","","24.1","","99.41","","","","","","Mostly Cloudy"
"2014-06-10 08:00","2014","06","10","08:00","20.2","","11.0","","55","","8","","5","","24.1","","99.45","","","","","","NA"
"2014-06-10 09:00","2014","06","10","09:00","22.5","","12.3","","52","","5","","4","","24.1","","99.47","","25","","","","NA"
"2014-06-10 10:00","2014","06","10","10:00","22.8","","11.7","","49","","14","","14","","24.1","","99.47","","25","","","","Mostly Cloudy"
"2014-06-10 11:00","2014","06","10","11:00","21.8","","13.6","","59","","13","","17","","24.1","","99.49","","25","","","","NA"
"2014-06-10 12:00","2014","06","10","12:00","23.2","","15.6","","62","","13","","14","","24.1","","99.49","","28","","","","NA"
"2014-06-10 13:00","2014","06","10","13:00","23.2","","15.6","","62","","14","","16","","24.1","","99.46","","28","","","","Mostly Cloudy"
"2014-06-10 14:00","2014","06","10","14:00","22.9","","15.1","","61","","13","","15","","24.1","","99.44","","27","","","","NA"
"2014-06-10 15:00","2014","06","10","15:00","22.9","","15.6","","63","","14","","14","","24.1","","99.48","","27","","","","NA"
"2014-06-10 16:00","2014","06","10","16:00","22.9","","15.6","","63","","13","","11","","24.1","","99.47","","27","","","","Cloudy"
"2014-06-10 17:00","2014","06","10","17:00","23.3","","15.5","","61","","12","","12","","24.1","","99.45","","28","","","","NA"
"2014-06-10 18:00","2014","06","10","18:00","23.2","","14.6","","58","","9","","13","","24.1","","99.46","","27","","","","NA"
"2014-06-10 19:00","2014","06","10","19:00","21.8","","14.1","","61","","12","","10","","24.1","","99.46","","25","","","","Cloudy"
"2014-06-10 20:00","2014","06","10","20:00","21.2","","13.0","","59","","8","","9","","24.1","","99.44","","","","","","NA"
"2014-06-10 21:00","2014","06","10","21:00","20.5","","12.6","","60","","9","","10","","24.1","","99.45","","","","","","NA"
"2014-06-10 22:00","2014","06","10","22:00","19.8","","11.9","","60","","9","","8","","24.1","","99.46","","","","","","Mainly Clear"
"2014-06-10 23:00","2014","06","10","23:00","19.4","","12.5","","64","","9","","7","","24.1","","99.44","","","","","","NA"
"2014-06-11 00:00","2014","06","11","00:00","19.0","","12.1","","64","","9","","11","","24.1","","99.40","","","","","","NA"
"2014-06-11 01:00","2014","06","11","01:00","19.5","","11.6","","60","","8","","12","","24.1","","99.37","","","","","","Cloudy"
"2014-06-11 02:00","2014","06","11","02:00","19.8","","10.6","","55","","9","","19","","24.1","","99.28","","","","","","NA"
"2014-06-11 03:00","2014","06","11","03:00","19.1","","11.7","","62","","9","","21","","24.1","","99.19","","","","","","NA"
"2014-06-11 04:00","2014","06","11","04:00","18.7","","12.3","","66","","8","","18","","24.1","","99.14","","","","","","Cloudy"
"2014-06-11 05:00","2014","06","11","05:00","18.1","","13.7","","75","","8","","21","","24.1","","99.12","","","","","","NA"
"2014-06-11 06:00","2014","06","11","06:00","16.1","","15.0","","93","","8","","5","","9.7","","99.21","","","","","","Rain Showers,Fog"
"2014-06-11 07:00","2014","06","11","07:00","16.2","","15.1","","93","","8","","17","","9.7","","99.18","","","","","","Rain Showers,Fog"
"2014-06-11 08:00","2014","06","11","08:00","16.6","","15.6","","94","","8","","14","","9.7","","99.17","","","","","","Fog"
"2014-06-11 09:00","2014","06","11","09:00","16.8","","15.8","","94","","9","","13","","9.7","","99.12","","","","","","Rain Showers,Fog"
"2014-06-11 10:00","2014","06","11","10:00","17.1","","16.3","","95","","8","","8","","8.1","","99.12","","","","","","Fog"
"2014-06-11 11:00","2014","06","11","11:00","18.0","","16.7","","92","","12","","14","","8.1","","99.14","","","","","","Fog"
"2014-06-11 12:00","2014","06","11","12:00","18.5","","16.2","","86","","15","","13","","9.7","","99.12","","","","","","Fog"
"2014-06-11 13:00","2014","06","11","13:00","18.7","","17.1","","90","","13","","8","","9.7","","99.07","","","","","","Rain Showers,Fog"
"2014-06-11 14:00","2014","06","11","14:00","21.5","","18.0","","80","","14","","9","","16.1","","99.01","","28","","","","NA"
"2014-06-11 15:00","2014","06","11","15:00","23.0","","18.6","","76","","17","","13","","19.3","","98.99","","29","","","","NA"
"2014-06-11 16:00","2014","06","11","16:00","23.0","","18.0","","73","","14","","11","","19.3","","98.93","","29","","","","Mostly Cloudy"
"2014-06-11 17:00","2014","06","11","17:00","21.9","","17.1","","74","","15","","15","","24.1","","98.89","","27","","","","NA"
"2014-06-11 18:00","2014","06","11","18:00","19.5","","16.2","","81","","14","","19","","24.1","","98.89","","","","","","NA"
"2014-06-11 19:00","2014","06","11","19:00","18.8","","16.1","","84","","10","","12","","24.1","","98.91","","","","","","Cloudy"
"2014-06-11 20:00","2014","06","11","20:00","18.5","","16.7","","89","","9","","11","","19.3","","98.89","","","","","","NA"
"2014-06-11 21:00","2014","06","11","21:00","18.2","","16.6","","90","","11","","10","","24.1","","98.93","","","","","","NA"
"2014-06-11 22:00","2014","06","11","22:00","17.8","","16.8","","94","","11","","12","","16.1","","98.91","","","","","","Thunderstorms,Rain Showers"
"2014-06-11 23:00","2014","06","11","23:00","17.4","","16.4","","94","","10","","10","","12.9","","98.91","","","","","","NA"
"2014-06-12 00:00","2014","06","12","00:00","17.0","","15.9","","93","","15","","9","","9.7","","98.94","","","","","","Thunderstorms,Rain Showers,Fog"
"2014-06-12 01:00","2014","06","12","01:00","17.2","","16.6","","96","","12","","10","","2.4","","98.90","","","","","","Thunderstorms,Moderate Rain Showers,Fog"
"2014-06-12 02:00","2014","06","12","02:00","17.7","","16.9","","95","","14","","9","","16.1","","98.86","","","","","","NA"
"2014-06-12 03:00","2014","06","12","03:00","17.6","","16.8","","95","","14","","8","","24.1","","98.83","","","","","","NA"
"2014-06-12 04:00","2014","06","12","04:00","17.1","","16.3","","95","","15","","3","","16.1","","98.82","","","","","","Cloudy"
"2014-06-12 05:00","2014","06","12","05:00","16.8","","16.0","","95","","15","","8","","19.3","","98.84","","","","","","NA"
"2014-06-12 06:00","2014","06","12","06:00","16.7","","15.7","","94","","14","","8","","12.9","","98.86","","","","","","NA"
"2014-06-12 07:00","2014","06","12","07:00","17.1","","16.0","","93","","14","","8","","12.9","","98.86","","","","","","Mostly Cloudy"
"2014-06-12 08:00","2014","06","12","08:00","17.7","","16.4","","92","","14","","8","","16.1","","98.88","","","","","","NA"
"2014-06-12 09:00","2014","06","12","09:00","20.1","","17.7","","86","","18","","14","","19.3","","98.84","","26","","","","NA"
"2014-06-12 10:00","2014","06","12","10:00","21.9","","18.2","","79","","16","","19","","24.1","","98.85","","28","","","","Mostly Cloudy"
"2014-06-12 11:00","2014","06","12","11:00","23.2","","18.4","","74","","17","","16","","24.1","","98.89","","30","","","","NA"
"2014-06-12 12:00","2014","06","12","12:00","23.3","","18.5","","74","","16","","13","","24.1","","98.86","","30","","","","NA"
"2014-06-12 13:00","2014","06","12","13:00","24.4","","19.1","","72","","17","","23","","24.1","","98.82","","31","","","","Mainly Clear"
"2014-06-12 14:00","2014","06","12","14:00","25.4","","19.0","","67","","16","","29","","24.1","","98.76","","32","","","","NA"
"2014-06-12 15:00","2014","06","12","15:00","25.7","","18.8","","65","","17","","22","","24.1","","98.71","","32","","","","NA"
"2014-06-12 16:00","2014","06","12","16:00","26.2","","18.7","","63","","16","","21","","24.1","","98.66","","33","","","","Mostly Cloudy"
"2014-06-12 17:00","2014","06","12","17:00","26.3","","18.8","","63","","15","","23","","24.1","","98.62","","33","","","","NA"
"2014-06-12 18:00","2014","06","12","18:00","24.9","","18.7","","68","","16","","17","","24.1","","98.65","","31","","","","NA"
"2014-06-12 19:00","2014","06","12","19:00","23.0","","17.8","","72","","14","","15","","24.1","","98.64","","29","","","","Mostly Cloudy"
"2014-06-12 20:00","2014","06","12","20:00","19.8","","16.1","","79","","14","","12","","24.1","","98.68","","","","","","NA"
"2014-06-12 21:00","2014","06","12","21:00","18.9","","16.4","","85","","16","","9","","24.1","","98.71","","","","","","NA"
"2014-06-12 22:00","2014","06","12","22:00","18.8","","16.4","","86","","14","","9","","24.1","","98.73","","","","","","Mostly Cloudy"
"2014-06-12 23:00","2014","06","12","23:00","18.4","","16.6","","89","","15","","8","","24.1","","98.71","","","","","","NA"
"2014-06-13 00:00","2014","06","13","00:00","18.1","","16.3","","89","","15","","9","","24.1","","98.70","","","","","","NA"
"2014-06-13 01:00","2014","06","13","01:00","17.9","","16.1","","89","","15","","9","","24.1","","98.65","","","","","","Mostly Cloudy"
"2014-06-13 02:00","2014","06","13","02:00","18.8","","16.6","","87","","16","","6","","24.1","","98.65","","","","","","NA"
"2014-06-13 03:00","2014","06","13","03:00","18.6","","16.8","","89","","16","","5","","24.1","","98.60","","","","","","NA"
"2014-06-13 04:00","2014","06","13","04:00","18.7","","16.7","","88","","17","","5","","24.1","","98.58","","","","","","Mostly Cloudy"
"2014-06-13 05:00","2014","06","13","05:00","19.0","","16.8","","87","","23","","9","","24.1","","98.61","","","","","","NA"
"2014-06-13 06:00","2014","06","13","06:00","19.3","","16.9","","86","","20","","6","","24.1","","98.64","","","","","","NA"
"2014-06-13 07:00","2014","06","13","07:00","20.1","","17.4","","84","","24","","11","","16.1","","98.68","","26","","","","Mostly Cloudy"
"2014-06-13 08:00","2014","06","13","08:00","20.2","","17.1","","82","","28","","7","","16.1","","98.65","","26","","","","Rain Showers"
"2014-06-13 09:00","2014","06","13","09:00","20.7","","17.6","","82","","27","","19","","16.1","","98.68","","26","","","","NA"
"2014-06-13 10:00","2014","06","13","10:00","19.8","","15.5","","76","","35","","30","","19.3","","98.71","","","","","","Cloudy"
"2014-06-13 11:00","2014","06","13","11:00","20.7","","15.3","","71","","35","","11","","24.1","","98.73","","25","","","","NA"
"2014-06-13 12:00","2014","06","13","12:00","21.7","","13.5","","59","","29","","12","","24.1","","98.74","","25","","","","NA"
"2014-06-13 13:00","2014","06","13","13:00","23.2","","10.8","","45","","27","","26","","24.1","","98.71","","25","","","","Mostly Cloudy"
"2014-06-13 14:00","2014","06","13","14:00","23.5","","12.3","","49","","29","","17","","24.1","","98.70","","26","","","","NA"
"2014-06-13 15:00","2014","06","13","15:00","22.4","","10.1","","45","","28","","29","","24.1","","98.74","","","","","","NA"
"2014-06-13 16:00","2014","06","13","16:00","21.2","","11.4","","53","","28","","29","","24.1","","98.78","","","","","","Mostly Cloudy"
"2014-06-13 17:00","2014","06","13","17:00","20.7","","10.6","","52","","30","","23","","24.1","","98.82","","","","","","NA"
"2014-06-13 18:00","2014","06","13","18:00","18.6","","9.8","","56","","30","","35","","24.1","","98.92","","","","","","NA"
"2014-06-13 19:00","2014","06","13","19:00","16.7","","8.7","","59","","31","","28","","24.1","","99.01","","","","","","Mostly Cloudy"
"2014-06-13 20:00","2014","06","13","20:00","14.8","","7.7","","62","","31","","28","","24.1","","99.11","","","","","","NA"
"2014-06-13 21:00","2014","06","13","21:00","14.5","","7.6","","63","","31","","28","","24.1","","99.17","","","","","","NA"
"2014-06-13 22:00","2014","06","13","22:00","13.7","","7.1","","64","","31","","22","","24.1","","99.24","","","","","","Mostly Cloudy"
"2014-06-13 23:00","2014","06","13","23:00","12.9","","6.5","","65","","31","","31","","24.1","","99.31","","","","","","NA"
"2014-06-14 00:00","2014","06","14","00:00","12.1","","6.6","","69","","30","","25","","40.2","","99.34","","","","","","NA"
"2014-06-14 01:00","2014","06","14","01:00","11.6","","5.9","","68","","30","","22","","24.1","","99.39","","","","","","Mostly Cloudy"
"2014-06-14 02:00","2014","06","14","02:00","11.2","","6.0","","70","","29","","21","","24.1","","99.42","","","","","","NA"
"2014-06-14 03:00","2014","06","14","03:00","11.0","","5.6","","69","","28","","25","","24.1","","99.41","","","","","","NA"
"2014-06-14 04:00","2014","06","14","04:00","10.9","","5.9","","71","","29","","19","","24.1","","99.46","","","","","","Mostly Cloudy"
"2014-06-14 05:00","2014","06","14","05:00","10.8","","5.6","","70","","28","","20","","24.1","","99.50","","","","","","NA"
"2014-06-14 06:00","2014","06","14","06:00","10.9","","6.1","","72","","29","","26","","24.1","","99.56","","","","","","NA"
"2014-06-14 07:00","2014","06","14","07:00","11.4","","6.8","","73","","30","","20","","24.1","","99.62","","","","","","Mostly Cloudy"
"2014-06-14 08:00","2014","06","14","08:00","12.5","","7.4","","71","","31","","18","","24.1","","99.65","","","","","","NA"
"2014-06-14 09:00","2014","06","14","09:00","14.5","","8.7","","68","","32","","12","","24.1","","99.62","","","","","","NA"
"2014-06-14 10:00","2014","06","14","10:00","15.7","","8.8","","63","","32","","21","","24.1","","99.71","","","","","","Mostly Cloudy"
"2014-06-14 11:00","2014","06","14","11:00","17.3","","9.1","","58","","30","","18","","24.1","","99.70","","","","","","NA"
"2014-06-14 12:00","2014","06","14","12:00","18.1","","8.5","","53","","33","","21","","24.1","","99.70","","","","","","NA"
"2014-06-14 13:00","2014","06","14","13:00","17.8","","8.7","","55","","28","","17","","24.1","","99.74","","","","","","Mostly Cloudy"
"2014-06-14 14:00","2014","06","14","14:00","18.6","","8.7","","52","","29","","16","","24.1","","99.75","","","","","","NA"
"2014-06-14 15:00","2014","06","14","15:00","18.5","","9.1","","54","","29","","17","","24.1","","99.79","","","","","","NA"
"2014-06-14 16:00","2014","06","14","16:00","18.7","","9.6","","55","","29","","13","","24.1","","99.81","","","","","","Mostly Cloudy"
"2014-06-14 17:00","2014","06","14","17:00","18.9","","9.8","","55","","2","","7","","24.1","","99.78","","","","","","NA"
"2014-06-14 18:00","2014","06","14","18:00","18.8","","9.7","","55","","35","","10","","24.1","","99.79","","","","","","NA"
"2014-06-14 19:00","2014","06","14","19:00","17.3","","9.6","","60","","1","","19","","24.1","","99.83","","","","","","Clear"
"2014-06-14 20:00","2014","06","14","20:00","15.4","","8.5","","63","","36","","18","","24.1","","99.87","","","","","","NA"
"2014-06-14 21:00","2014","06","14","21:00","14.0","","7.6","","65","","1","","15","","24.1","","99.93","","","","","","NA"
"2014-06-14 22:00","2014","06","14","22:00","13.1","","7.4","","68","","36","","15","","24.1","","99.97","","","","","","Clear"
"2014-06-14 23:00","2014","06","14","23:00","12.0","","7.4","","73","","34","","12","","24.1","","100.00","","","","","","NA"
"2014-06-15 00:00","2014","06","15","00:00","11.5","","7.3","","75","","35","","17","","24.1","","100.03","","","","","","NA"
"2014-06-15 01:00","2014","06","15","01:00","10.8","","7.2","","78","","36","","14","","24.1","","100.05","","","","","","Clear"
"2014-06-15 02:00","2014","06","15","02:00","10.5","","7.0","","79","","33","","16","","24.1","","100.08","","","","","","NA"
"2014-06-15 03:00","2014","06","15","03:00","10.3","","7.2","","81","","35","","12","","24.1","","100.13","","","","","","NA"
"2014-06-15 04:00","2014","06","15","04:00","10.2","","7.3","","82","","1","","11","","24.1","","100.14","","","","","","Mostly Cloudy"
"2014-06-15 05:00","2014","06","15","05:00","9.8","","7.2","","84","","1","","11","","24.1","","100.18","","","","","","NA"
"2014-06-15 06:00","2014","06","15","06:00","10.7","","7.8","","82","","1","","10","","24.1","","100.25","","","","","","NA"
"2014-06-15 07:00","2014","06","15","07:00","13.1","","8.4","","73","","5","","5","","24.1","","100.24","","","","","","Mainly Clear"
"2014-06-15 08:00","2014","06","15","08:00","15.5","","9.2","","66","","13","","9","","24.1","","100.21","","","","","","NA"
"2014-06-15 09:00","2014","06","15","09:00","16.6","","10.1","","65","","14","","8","","24.1","","100.18","","","","","","NA"
"2014-06-15 10:00","2014","06","15","10:00","17.4","","9.6","","60","","17","","12","","24.1","","100.16","","","","","","Mainly Clear"
"2014-06-15 11:00","2014","06","15","11:00","17.4","","8.9","","57","","15","","11","","24.1","","100.14","","","","","","NA"
"2014-06-15 12:00","2014","06","15","12:00","18.2","","10.2","","59","","14","","12","","24.1","","100.12","","","","","","NA"
"2014-06-15 13:00","2014","06","15","13:00","18.4","","10.6","","60","","16","","9","","24.1","","100.12","","","","","","Mostly Cloudy"
"2014-06-15 14:00","2014","06","15","14:00","19.2","","9.5","","53","","14","","14","","24.1","","100.03","","","","","","NA"
"2014-06-15 15:00","2014","06","15","15:00","19.9","","9.9","","52","","13","","11","","24.1","","99.98","","","","","","NA"
"2014-06-15 16:00","2014","06","15","16:00","20.6","","9.0","","47","","10","","16","","24.1","","99.97","","","","","","Mainly Clear"
"2014-06-15 17:00","2014","06","15","17:00","20.8","","9.5","","48","","15","","11","","24.1","","99.95","","","","","","NA"
"2014-06-15 18:00","2014","06","15","18:00","19.8","","9.2","","50","","14","","17","","24.1","","99.87","","","","","","NA"
"2014-06-15 19:00","2014","06","15","19:00","17.6","","9.3","","58","","14","","15","","24.1","","99.87","","","","","","Mostly Cloudy"
"2014-06-15 20:00","2014","06","15","20:00","16.4","","9.4","","63","","12","","12","","24.1","","99.84","","","","","","NA"
"2014-06-15 21:00","2014","06","15","21:00","15.7","","9.2","","65","","11","","7","","24.1","","99.92","","","","","","NA"
"2014-06-15 22:00","2014","06","15","22:00","14.7","","8.9","","68","","8","","7","","24.1","","99.92","","","","","","Clear"
"2014-06-15 23:00","2014","06","15","23:00","14.0","","9.1","","72","","7","","7","","24.1","","99.93","","","","","","NA"
"2014-06-16 00:00","2014","06","16","00:00","13.9","","9.0","","72","","8","","6","","24.1","","99.91","","","","","","NA"
"2014-06-16 01:00","2014","06","16","01:00","13.5","","9.0","","74","","8","","8","","24.1","","99.85","","","","","","Mainly Clear"
"2014-06-16 02:00","2014","06","16","02:00","13.1","","9.0","","76","","7","","3","","24.1","","99.80","","","","","","NA"
"2014-06-16 03:00","2014","06","16","03:00","13.7","","9.2","","74","","7","","4","","24.1","","99.77","","","","","","NA"
"2014-06-16 04:00","2014","06","16","04:00","13.9","","9.6","","75","","7","","8","","24.1","","99.72","","","","","","Mostly Cloudy"
"2014-06-16 05:00","2014","06","16","05:00","14.1","","9.8","","75","","9","","8","","24.1","","99.72","","","","","","NA"
"2014-06-16 06:00","2014","06","16","06:00","14.3","","10.4","","77","","10","","9","","24.1","","99.70","","","","","","NA"
"2014-06-16 07:00","2014","06","16","07:00","14.7","","11.3","","80","","9","","8","","9.7","","99.73","","","","","","Rain Showers"
"2014-06-16 08:00","2014","06","16","08:00","15.1","","12.8","","86","","9","","9","","24.1","","99.71","","","","","","NA"
"2014-06-16 09:00","2014","06","16","09:00","16.7","","12.7","","77","","10","","5","","24.1","","99.69","","","","","","NA"
"2014-06-16 10:00","2014","06","16","10:00","18.9","","13.4","","70","","15","","9","","24.1","","99.67","","","","","","Cloudy"
"2014-06-16 11:00","2014","06","16","11:00","19.8","","14.0","","69","","15","","9","","24.1","","99.64","","","","","","NA"
"2014-06-16 12:00","2014","06","16","12:00","21.1","","14.4","","65","","13","","12","","24.1","","99.63","","25","","","","NA"
"2014-06-16 13:00","2014","06","16","13:00","22.8","","16.0","","65","","13","","5","","24.1","","99.59","","27","","","","Mainly Clear"
"2014-06-16 14:00","2014","06","16","14:00","22.8","","15.5","","63","","14","","15","","24.1","","99.50","","27","","","","NA"
"2014-06-16 15:00","2014","06","16","15:00","22.2","","14.9","","63","","16","","16","","24.1","","99.46","","26","","","","NA"
"2014-06-16 16:00","2014","06","16","16:00","21.0","","14.0","","64","","17","","19","","24.1","","99.49","","","","","","Mainly Clear"
"2014-06-16 17:00","2014","06","16","17:00","20.3","","13.6","","65","","14","","12","","24.1","","99.46","","","","","","NA"
"2014-06-16 18:00","2014","06","16","18:00","22.4","","14.9","","62","","15","","5","","24.1","","99.46","","26","","","","NA"
"2014-06-16 19:00","2014","06","16","19:00","23.4","","15.1","","59","","36","","2","","24.1","","99.52","","27","","","","Mainly Clear"
"2014-06-16 20:00","2014","06","16","20:00","21.8","","14.8","","64","","13","","4","","24.1","","99.56","","26","","","","NA"
"2014-06-16 21:00","2014","06","16","21:00","19.0","","13.9","","72","","17","","5","","24.1","","99.61","","","","","","NA"
"2014-06-16 22:00","2014","06","16","22:00","18.3","","14.1","","76","","19","","6","","24.1","","99.63","","","","","","Mainly Clear"
"2014-06-16 23:00","2014","06","16","23:00","18.1","","14.1","","77","","20","","3","","24.1","","99.62","","","","","","NA"
"2014-06-17 00:00","2014","06","17","00:00","16.8","","13.8","","82","","15","","5","","24.1","","99.60","","","","","","NA"
"2014-06-17 01:00","2014","06","17","01:00","17.2","","13.8","","80","","36","","3","","24.1","","99.61","","","","","","Clear"
"2014-06-17 02:00","2014","06","17","02:00","17.5","","13.9","","79","","24","","4","","24.1","","99.56","","","","","","NA"
"2014-06-17 03:00","2014","06","17","03:00","16.6","","13.7","","83","","15","","5","","24.1","","99.57","","","","","","NA"
"2014-06-17 04:00","2014","06","17","04:00","17.1","","13.9","","81","","36","","1","","24.1","","99.58","","","","","","Mainly Clear"
"2014-06-17 05:00","2014","06","17","05:00","18.0","","14.7","","81","","33","","8","","24.1","","99.62","","","","","","NA"
"2014-06-17 06:00","2014","06","17","06:00","18.5","","15.4","","82","","31","","4","","24.1","","99.67","","","","","","NA"
"2014-06-17 07:00","2014","06","17","07:00","20.4","","16.1","","76","","13","","10","","24.1","","99.62","","25","","","","Mostly Cloudy"
"2014-06-17 08:00","2014","06","17","08:00","19.1","","15.4","","79","","12","","10","","19.3","","99.56","","","","","","NA"
"2014-06-17 09:00","2014","06","17","09:00","19.4","","15.5","","78","","14","","13","","16.1","","99.49","","","","","","NA"
"2014-06-17 10:00","2014","06","17","10:00","20.6","","16.5","","77","","15","","11","","16.1","","99.45","","26","","","","Mostly Cloudy"
"2014-06-17 11:00","2014","06","17","11:00","22.4","","18.8","","80","","16","","13","","16.1","","99.37","","29","","","","NA"
"2014-06-17 12:00","2014","06","17","12:00","23.1","","18.7","","76","","12","","16","","16.1","","99.25","","30","","","","NA"
"2014-06-17 13:00","2014","06","17","13:00","24.4","","19.8","","75","","13","","18","","16.1","","99.08","","32","","","","Mostly Cloudy"
"2014-06-17 14:00","2014","06","17","14:00","25.2","","19.9","","72","","16","","23","","16.1","","98.94","","33","","","","NA"
"2014-06-17 15:00","2014","06","17","15:00","25.0","","19.0","","69","","14","","21","","19.3","","98.79","","32","","","","NA"
"2014-06-17 16:00","2014","06","17","16:00","31.2","","19.1","","48","","21","","40","","16.1","","98.58","","38","","","","Mostly Cloudy"
"2014-06-17 17:00","2014","06","17","17:00","27.4","","20.1","","64","","21","","44","","12.9","","98.46","","35","","","","Moderate Rain Showers"
"2014-06-17 18:00","2014","06","17","18:00","21.0","","20.0","","94","","26","","34","","16.1","","98.74","","29","","","","Thunderstorms,Rain Showers"
"2014-06-17 19:00","2014","06","17","19:00","23.1","","20.7","","86","","28","","13","","24.1","","98.81","","31","","","","Mostly Cloudy"
"2014-06-17 20:00","2014","06","17","20:00","24.0","","19.0","","73","","31","","29","","24.1","","98.84","","31","","","","NA"
"2014-06-17 21:00","2014","06","17","21:00","22.0","","17.7","","76","","31","","22","","24.1","","98.91","","28","","","","NA"
"2014-06-17 22:00","2014","06","17","22:00","20.8","","16.5","","76","","29","","32","","24.1","","98.97","","26","","","","Mostly Cloudy"
"2014-06-17 23:00","2014","06","17","23:00","19.2","","15.9","","81","","32","","40","","24.1","","99.02","","","","","","NA"
"2014-06-18 00:00","2014","06","18","00:00","19.1","","15.6","","80","","30","","28","","24.1","","99.10","","","","","","NA"
"2014-06-18 01:00","2014","06","18","01:00","19.5","","15.8","","79","","30","","24","","24.1","","99.18","","","","","","Mostly Cloudy"
"2014-06-18 02:00","2014","06","18","02:00","19.1","","15.6","","80","","32","","28","","24.1","","99.28","","","","","","NA"
"2014-06-18 03:00","2014","06","18","03:00","19.0","","15.5","","80","","30","","19","","24.1","","99.36","","","","","","NA"
"2014-06-18 04:00","2014","06","18","04:00","18.5","","15.4","","82","","30","","15","","24.1","","99.39","","","","","","Mostly Cloudy"
"2014-06-18 05:00","2014","06","18","05:00","17.9","","15.2","","84","","31","","11","","24.1","","99.37","","","","","","NA"
"2014-06-18 06:00","2014","06","18","06:00","19.0","","15.3","","79","","30","","22","","24.1","","99.46","","","","","","NA"
"2014-06-18 07:00","2014","06","18","07:00","19.8","","15.3","","75","","32","","12","","24.1","","99.58","","","","","","Cloudy"
"2014-06-18 08:00","2014","06","18","08:00","20.7","","15.6","","72","","29","","10","","24.1","","99.61","","25","","","","NA"
"2014-06-18 09:00","2014","06","18","09:00","21.3","","16.8","","75","","24","","18","","24.1","","99.68","","26","","","","NA"
"2014-06-18 10:00","2014","06","18","10:00","21.9","","17.1","","74","","27","","12","","24.1","","99.58","","27","","","","Cloudy"
"2014-06-18 11:00","2014","06","18","11:00","22.5","","16.6","","69","","33","","4","","24.1","","99.50","","28","","","","NA"
"2014-06-18 12:00","2014","06","18","12:00","23.1","","17.7","","71","","16","","9","","24.1","","99.55","","29","","","","Rain"
"2014-06-18 13:00","2014","06","18","13:00","22.4","","17.6","","74","","14","","9","","24.1","","99.54","","28","","","","Mostly Cloudy"
"2014-06-18 14:00","2014","06","18","14:00","24.0","","17.8","","68","","21","","5","","24.1","","99.57","","30","","","","NA"
"2014-06-18 15:00","2014","06","18","15:00","24.6","","17.9","","66","","27","","7","","24.1","","99.52","","31","","","","NA"
"2014-06-18 16:00","2014","06","18","16:00","23.3","","18.1","","72","","35","","26","","24.1","","99.51","","29","","","","Mostly Cloudy"
"2014-06-18 17:00","2014","06","18","17:00","22.6","","17.4","","72","","36","","23","","24.1","","99.54","","28","","","","NA"
"2014-06-18 18:00","2014","06","18","18:00","21.1","","17.8","","81","","35","","20","","16.1","","99.63","","27","","","","Rain"
"2014-06-18 19:00","2014","06","18","19:00","20.0","","17.4","","85","","2","","13","","24.1","","99.55","","26","","","","Cloudy"
"2014-06-18 20:00","2014","06","18","20:00","20.3","","17.4","","83","","4","","5","","24.1","","99.52","","26","","","","NA"
"2014-06-18 21:00","2014","06","18","21:00","20.5","","17.0","","80","","5","","5","","24.1","","99.59","","26","","","","NA"
"2014-06-18 22:00","2014","06","18","22:00","19.4","","16.7","","84","","35","","21","","24.1","","99.66","","","","","","Cloudy"
"2014-06-18 23:00","2014","06","18","23:00","18.5","","16.2","","86","","35","","12","","24.1","","99.69","","","","","","NA"
"2014-06-19 00:00","2014","06","19","00:00","17.5","","15.7","","89","","36","","17","","24.1","","99.69","","","","","","NA"
"2014-06-19 01:00","2014","06","19","01:00","17.2","","15.4","","89","","1","","19","","24.1","","99.70","","","","","","Cloudy"
"2014-06-19 02:00","2014","06","19","02:00","17.0","","15.0","","88","","36","","15","","24.1","","99.76","","","","","","NA"
"2014-06-19 03:00","2014","06","19","03:00","17.0","","15.0","","88","","36","","10","","24.1","","99.73","","","","","","NA"
"2014-06-19 04:00","2014","06","19","04:00","17.0","","14.7","","86","","36","","13","","24.1","","99.75","","","","","","Cloudy"
"2014-06-19 05:00","2014","06","19","05:00","16.7","","14.2","","85","","35","","15","","24.1","","99.86","","","","","","NA"
"2014-06-19 06:00","2014","06","19","06:00","16.9","","13.9","","82","","1","","17","","24.1","","99.94","","","","","","NA"
"2014-06-19 07:00","2014","06","19","07:00","18.6","","12.4","","67","","2","","18","","24.1","","99.98","","","","","","Mainly Clear"
"2014-06-19 08:00","2014","06","19","08:00","19.8","","11.7","","59","","4","","16","","24.1","","100.03","","","","","","NA"
"2014-06-19 09:00","2014","06","19","09:00","20.9","","9.9","","49","","5","","15","","24.1","","100.04","","","","","","NA"
"2014-06-19 10:00","2014","06","19","10:00","21.6","","9.0","","44","","5","","13","","24.1","","100.06","","","","","","Clear"
"2014-06-19 11:00","2014","06","19","11:00","22.4","","10.7","","47","","5","","9","","24.1","","100.02","","","","","","NA"
"2014-06-19 12:00","2014","06","19","12:00","22.9","","8.8","","40","","1","","7","","24.1","","100.01","","","","","","NA"
"2014-06-19 13:00","2014","06","19","13:00","22.9","","10.2","","44","","19","","11","","24.1","","100.02","","","","","","Mostly Cloudy"
"2014-06-19 14:00","2014","06","19","14:00","24.0","","8.6","","37","","2","","12","","24.1","","99.97","","25","","","","NA"
"2014-06-19 15:00","2014","06","19","15:00","24.3","","7.7","","34","","2","","10","","24.1","","99.98","","25","","","","NA"
"2014-06-19 16:00","2014","06","19","16:00","23.2","","8.7","","39","","15","","7","","24.1","","99.97","","","","","","Mostly Cloudy"
"2014-06-19 17:00","2014","06","19","17:00","24.1","","6.6","","32","","5","","12","","24.1","","99.94","","","","","","NA"
"2014-06-19 18:00","2014","06","19","18:00","23.4","","5.0","","30","","36","","19","","24.1","","99.85","","","","","","NA"
"2014-06-19 19:00","2014","06","19","19:00","22.5","","3.3","","28","","35","","16","","24.1","","99.89","","","","","","Mainly Clear"
"2014-06-19 20:00","2014","06","19","20:00","20.2","","7.7","","44","","36","","22","","24.1","","99.91","","","","","","NA"
"2014-06-19 21:00","2014","06","19","21:00","19.1","","4.6","","38","","33","","26","","24.1","","100.03","","","","","","NA"
"2014-06-19 22:00","2014","06","19","22:00","17.8","","4.8","","42","","35","","26","","24.1","","100.02","","","","","","Clear"
"2014-06-19 23:00","2014","06","19","23:00","16.1","","5.5","","49","","34","","17","","24.1","","100.03","","","","","","NA"
"2014-06-20 00:00","2014","06","20","00:00","15.3","","5.0","","50","","36","","21","","24.1","","99.98","","","","","","NA"
"2014-06-20 01:00","2014","06","20","01:00","14.4","","5.8","","56","","36","","21","","24.1","","99.95","","","","","","Clear"
"2014-06-20 02:00","2014","06","20","02:00","13.6","","6.0","","60","","34","","18","","24.1","","99.95","","","","","","NA"
"2014-06-20 03:00","2014","06","20","03:00","12.9","","6.5","","65","","36","","18","","24.1","","99.89","","","","","","NA"
"2014-06-20 04:00","2014","06","20","04:00","12.2","","6.9","","70","","36","","18","","24.1","","99.90","","","","","","Mainly Clear"
"2014-06-20 05:00","2014","06","20","05:00","12.7","","7.2","","69","","35","","12","","24.1","","99.94","","","","","","NA"
"2014-06-20 06:00","2014","06","20","06:00","13.8","","7.8","","67","","36","","15","","24.1","","99.96","","","","","","NA"
"2014-06-20 07:00","2014","06","20","07:00","15.5","","8.6","","63","","36","","12","","24.1","","99.98","","","","","","Mostly Cloudy"
"2014-06-20 08:00","2014","06","20","08:00","18.3","","10.5","","60","","3","","10","","24.1","","99.98","","","","","","NA"
"2014-06-20 09:00","2014","06","20","09:00","19.8","","7.3","","44","","8","","9","","24.1","","99.96","","","","","","NA"
"2014-06-20 10:00","2014","06","20","10:00","20.3","","7.5","","43","","11","","8","","24.1","","99.93","","","","","","Mostly Cloudy"
"2014-06-20 11:00","2014","06","20","11:00","19.7","","5.5","","39","","12","","18","","24.1","","99.88","","","","","","NA"
"2014-06-20 12:00","2014","06","20","12:00","19.5","","6.0","","41","","13","","18","","24.1","","99.84","","","","","","NA"
"2014-06-20 13:00","2014","06","20","13:00","20.8","","6.9","","40","","14","","14","","24.1","","99.80","","","","","","Mostly Cloudy"
"2014-06-20 14:00","2014","06","20","14:00","20.5","","5.1","","36","","14","","12","","24.1","","99.77","","","","","","NA"
"2014-06-20 15:00","2014","06","20","15:00","20.5","","5.5","","37","","15","","12","","24.1","","99.71","","","","","","NA"
"2014-06-20 16:00","2014","06","20","16:00","20.4","","5.0","","36","","15","","17","","24.1","","99.67","","","","","","Cloudy"
"2014-06-20 17:00","2014","06","20","17:00","19.1","","4.6","","38","","15","","11","","24.1","","99.65","","","","","","NA"
"2014-06-20 18:00","2014","06","20","18:00","18.4","","5.7","","43","","11","","7","","24.1","","99.58","","","","","","NA"
"2014-06-20 19:00","2014","06","20","19:00","18.0","","5.7","","44","","14","","11","","24.1","","99.53","","","","","","Cloudy"
"2014-06-20 20:00","2014","06","20","20:00","17.3","","4.0","","41","","15","","7","","24.1","","99.57","","","","","","NA"
"2014-06-20 21:00","2014","06","20","21:00","16.7","","4.5","","44","","36","","1","","24.1","","99.59","","","","","","NA"
"2014-06-20 22:00","2014","06","20","22:00","17.3","","4.4","","42","","13","","3","","24.1","","99.59","","","","","","Mostly Cloudy"
"2014-06-20 23:00","2014","06","20","23:00","16.9","","4.4","","43","","6","","6","","24.1","","99.53","","","","","","NA"
"2014-06-21 00:00","2014","06","21","00:00","17.2","","4.3","","42","","4","","4","","24.1","","99.53","","","","","","NA"
"2014-06-21 01:00","2014","06","21","01:00","17.4","","5.1","","44","","2","","5","","24.1","","99.55","","","","","","Mostly Cloudy"
"2014-06-21 02:00","2014","06","21","02:00","15.7","","7.5","","58","","4","","13","","24.1","","99.49","","","","","","NA"
"2014-06-21 03:00","2014","06","21","03:00","16.7","","6.0","","49","","3","","4","","24.1","","99.51","","","","","","NA"
"2014-06-21 04:00","2014","06","21","04:00","16.5","","6.7","","52","","7","","8","","24.1","","99.48","","","","","","Mostly Cloudy"
"2014-06-21 05:00","2014","06","21","05:00","16.2","","6.1","","51","","9","","4","","24.1","","99.52","","","","","","NA"
"2014-06-21 06:00","2014","06","21","06:00","16.4","","6.3","","51","","11","","5","","24.1","","99.56","","","","","","NA"
"2014-06-21 07:00","2014","06","21","07:00","17.3","","6.6","","49","","9","","7","","19.3","","99.58","","","","","","Mostly Cloudy"
"2014-06-21 08:00","2014","06","21","08:00","18.8","","8.3","","50","","10","","9","","24.1","","99.58","","","","","","NA"
"2014-06-21 09:00","2014","06","21","09:00","20.4","","7.6","","43","","18","","7","","24.1","","99.55","","","","","","NA"
"2014-06-21 10:00","2014","06","21","10:00","20.5","","8.0","","44","","11","","9","","24.1","","99.51","","","","","","Mostly Cloudy"
"2014-06-21 11:00","2014","06","21","11:00","21.2","","7.6","","41","","14","","7","","24.1","","99.52","","","","","","NA"
"2014-06-21 12:00","2014","06","21","12:00","22.1","","6.9","","37","","17","","13","","24.1","","99.48","","","","","","NA"
"2014-06-21 13:00","2014","06","21","13:00","21.9","","7.9","","40","","16","","10","","24.1","","99.45","","","","","","Mostly Cloudy"
"2014-06-21 14:00","2014","06","21","14:00","22.3","","6.3","","35","","15","","17","","24.1","","99.44","","","","","","NA"
"2014-06-21 15:00","2014","06","21","15:00","22.3","","7.1","","37","","16","","20","","24.1","","99.40","","","","","","NA"
"2014-06-21 16:00","2014","06","21","16:00","22.2","","5.8","","34","","14","","16","","24.1","","99.37","","","","","","Mostly Cloudy"
"2014-06-21 17:00","2014","06","21","17:00","22.4","","6.0","","34","","15","","14","","24.1","","99.33","","","","","","NA"
"2014-06-21 18:00","2014","06","21","18:00","21.5","","6.0","","36","","17","","17","","24.1","","99.33","","","","","","NA"
"2014-06-21 19:00","2014","06","21","19:00","20.5","","6.2","","39","","15","","10","","24.1","","99.31","","","","","","Mainly Clear"
"2014-06-21 20:00","2014","06","21","20:00","19.8","","6.3","","41","","15","","9","","24.1","","99.32","","","","","","NA"
"2014-06-21 21:00","2014","06","21","21:00","18.9","","6.8","","45","","24","","5","","24.1","","99.37","","","","","","NA"
"2014-06-21 22:00","2014","06","21","22:00","18.2","","6.8","","47","","31","","5","","24.1","","99.39","","","","","","Mainly Clear"
"2014-06-21 23:00","2014","06","21","23:00","18.0","","7.5","","50","","30","","8","","24.1","","99.41","","","","","","NA"
"2014-06-22 00:00","2014","06","22","00:00","17.3","","8.0","","54","","33","","8","","24.1","","99.44","","","","","","NA"
"2014-06-22 01:00","2014","06","22","01:00","17.5","","7.6","","52","","1","","8","","24.1","","99.44","","","","","","Mainly Clear"
"2014-06-22 02:00","2014","06","22","02:00","16.5","","8.0","","57","","1","","5","","24.1","","99.44","","","","","","NA"
"2014-06-22 03:00","2014","06","22","03:00","15.5","","7.6","","59","","27","","5","","24.1","","99.45","","","","","","NA"
"2014-06-22 04:00","2014","06","22","04:00","14.7","","7.6","","62","","1","","7","","24.1","","99.44","","","","","","Mainly Clear"
"2014-06-22 05:00","2014","06","22","05:00","14.7","","7.6","","62","","36","","5","","24.1","","99.44","","","","","","NA"
"2014-06-22 06:00","2014","06","22","06:00","16.6","","9.1","","61","","36","","3","","24.1","","99.48","","","","","","NA"
"2014-06-22 07:00","2014","06","22","07:00","18.3","","8.7","","53","","3","","7","","19.3","","99.51","","","","","","Mainly Clear"
"2014-06-22 08:00","2014","06","22","08:00","20.2","","9.0","","48","","17","","5","","24.1","","99.51","","","","","","NA"
"2014-06-22 09:00","2014","06","22","09:00","21.7","","9.4","","45","","16","","5","","24.1","","99.54","","","","","","NA"
"2014-06-22 10:00","2014","06","22","10:00","22.8","","9.7","","43","","18","","7","","24.1","","99.53","","","","","","Mainly Clear"
"2014-06-22 11:00","2014","06","22","11:00","23.7","","9.9","","41","","17","","10","","24.1","","99.53","","25","","","","NA"
"2014-06-22 12:00","2014","06","22","12:00","23.9","","10.0","","41","","18","","11","","24.1","","99.51","","25","","","","NA"
"2014-06-22 13:00","2014","06","22","13:00","24.9","","9.8","","38","","15","","15","","24.1","","99.52","","26","","","","Mainly Clear"
"2014-06-22 14:00","2014","06","22","14:00","25.0","","9.1","","36","","14","","17","","24.1","","99.51","","26","","","","NA"
"2014-06-22 15:00","2014","06","22","15:00","25.1","","8.4","","34","","13","","21","","24.1","","99.48","","26","","","","NA"
"2014-06-22 16:00","2014","06","22","16:00","24.2","","9.6","","39","","15","","19","","24.1","","99.44","","25","","","","Mainly Clear"
"2014-06-22 17:00","2014","06","22","17:00","23.6","","9.8","","41","","13","","14","","24.1","","99.42","","25","","","","NA"
"2014-06-22 18:00","2014","06","22","18:00","22.8","","9.7","","43","","15","","14","","24.1","","99.44","","","","","","NA"
"2014-06-22 19:00","2014","06","22","19:00","21.6","","10.0","","47","","12","","11","","24.1","","99.46","","","","","","Mainly Clear"
"2014-06-22 20:00","2014","06","22","20:00","20.6","","9.3","","48","","11","","11","","24.1","","99.43","","","","","","NA"
"2014-06-22 21:00","2014","06","22","21:00","20.1","","9.5","","50","","12","","8","","24.1","","99.46","","","","","","NA"
"2014-06-22 22:00","2014","06","22","22:00","19.2","","9.2","","52","","9","","10","","24.1","","99.48","","","","","","Clear"
"2014-06-22 23:00","2014","06","22","23:00","18.6","","8.4","","51","","8","","7","","24.1","","99.52","","","","","","NA"
"2014-06-23 00:00","2014","06","23","00:00","18.4","","8.5","","52","","8","","8","","24.1","","99.52","","","","","","NA"
"2014-06-23 01:00","2014","06","23","01:00","17.7","","8.9","","56","","12","","5","","24.1","","99.53","","","","","","Clear"
"2014-06-23 02:00","2014","06","23","02:00","17.5","","8.7","","56","","8","","7","","24.1","","99.50","","","","","","NA"
"2014-06-23 03:00","2014","06","23","03:00","17.0","","8.8","","58","","6","","4","","24.1","","99.51","","","","","","NA"
"2014-06-23 04:00","2014","06","23","04:00","15.5","","9.5","","67","","4","","11","","24.1","","99.51","","","","","","Clear"
"2014-06-23 05:00","2014","06","23","05:00","15.5","","9.5","","67","","4","","7","","24.1","","99.52","","","","","","NA"
"2014-06-23 06:00","2014","06","23","06:00","17.7","","10.7","","63","","4","","7","","24.1","","99.57","","","","","","NA"
"2014-06-23 07:00","2014","06","23","07:00","19.5","","11.6","","60","","8","","8","","24.1","","99.59","","","","","","Mostly Cloudy"
"2014-06-23 08:00","2014","06","23","08:00","20.7","","11.5","","55","","10","","13","","24.1","","99.55","","","","","","NA"
"2014-06-23 09:00","2014","06","23","09:00","21.5","","11.7","","53","","9","","14","","24.1","","99.55","","","","","","NA"
"2014-06-23 10:00","2014","06","23","10:00","22.0","","12.4","","54","","12","","14","","24.1","","99.52","","","","","","Cloudy"
"2014-06-23 11:00","2014","06","23","11:00","21.8","","12.5","","55","","11","","17","","24.1","","99.51","","","","","","NA"
"2014-06-23 12:00","2014","06","23","12:00","21.7","","12.9","","57","","11","","10","","24.1","","99.51","","","","","","NA"
"2014-06-23 13:00","2014","06","23","13:00","23.3","","15.5","","61","","9","","8","","24.1","","99.50","","28","","","","Cloudy"
"2014-06-23 14:00","2014","06","23","14:00","24.4","","15.5","","57","","11","","10","","24.1","","99.49","","29","","","","NA"
"2014-06-23 15:00","2014","06","23","15:00","24.8","","16.7","","60","","10","","10","","24.1","","99.44","","30","","","","NA"
"2014-06-23 16:00","2014","06","23","16:00","23.4","","15.3","","60","","16","","10","","24.1","","99.39","","28","","","","Cloudy"
"2014-06-23 17:00","2014","06","23","17:00","19.9","","14.8","","72","","22","","20","","12.9","","99.46","","","","","","Rain Showers"
"2014-06-23 18:00","2014","06","23","18:00","18.3","","15.8","","85","","14","","7","","24.1","","99.35","","","","","","NA"
"2014-06-23 19:00","2014","06","23","19:00","18.9","","15.4","","80","","12","","9","","24.1","","99.31","","","","","","Cloudy"
"2014-06-23 20:00","2014","06","23","20:00","19.0","","15.9","","82","","7","","5","","16.1","","99.32","","","","","","NA"
"2014-06-23 21:00","2014","06","23","21:00","19.5","","16.2","","81","","36","","9","","24.1","","99.38","","","","","","NA"
"2014-06-23 22:00","2014","06","23","22:00","19.2","","17.2","","88","","3","","12","","24.1","","99.35","","","","","","Rain Showers"
"2014-06-23 23:00","2014","06","23","23:00","19.6","","16.7","","83","","9","","5","","24.1","","99.30","","","","","","NA"
"2014-06-24 00:00","2014","06","24","00:00","20.1","","16.4","","79","","17","","4","","24.1","","99.32","","25","","","","NA"
"2014-06-24 01:00","2014","06","24","01:00","19.7","","16.2","","80","","14","","7","","24.1","","99.26","","","","","","Cloudy"
"2014-06-24 02:00","2014","06","24","02:00","19.0","","15.9","","82","","36","","3","","24.1","","99.28","","","","","","NA"
"2014-06-24 03:00","2014","06","24","03:00","18.7","","16.0","","84","","16","","5","","24.1","","99.26","","","","","","NA"
"2014-06-24 04:00","2014","06","24","04:00","18.0","","16.4","","90","","15","","6","","24.1","","99.24","","","","","","Cloudy"
"2014-06-24 05:00","2014","06","24","05:00","17.5","","16.4","","93","","14","","8","","6.4","","99.26","","","","","","Rain,Fog"
"2014-06-24 06:00","2014","06","24","06:00","17.8","","16.8","","94","","13","","9","","6.4","","99.23","","","","","","Fog"
"2014-06-24 07:00","2014","06","24","07:00","18.5","","17.4","","93","","14","","8","","6.4","","99.21","","","","","","Fog"
"2014-06-24 08:00","2014","06","24","08:00","20.1","","18.4","","90","","16","","7","","8.1","","99.24","","26","","","","Fog"
"2014-06-24 09:00","2014","06","24","09:00","21.3","","19.1","","87","","14","","7","","14.5","","99.22","","28","","","","NA"
"2014-06-24 10:00","2014","06","24","10:00","23.9","","19.9","","78","","23","","14","","24.1","","99.17","","31","","","","Mostly Cloudy"
"2014-06-24 11:00","2014","06","24","11:00","25.2","","20.1","","73","","22","","16","","24.1","","99.17","","33","","","","NA"
"2014-06-24 12:00","2014","06","24","12:00","25.4","","20.7","","75","","13","","12","","24.1","","99.14","","34","","","","NA"
"2014-06-24 13:00","2014","06","24","13:00","27.3","","20.3","","65","","20","","16","","24.1","","99.07","","35","","","","Cloudy"
"2014-06-24 14:00","2014","06","24","14:00","27.8","","20.8","","65","","21","","14","","24.1","","98.98","","36","","","","NA"
"2014-06-24 15:00","2014","06","24","15:00","27.9","","20.4","","63","","24","","34","","24.1","","98.97","","36","","","","NA"
"2014-06-24 16:00","2014","06","24","16:00","21.8","","20.1","","90","","30","","21","","24.1","","99.02","","29","","","","Rain Showers"
"2014-06-24 17:00","2014","06","24","17:00","23.2","","20.0","","82","","28","","8","","24.1","","99.00","","31","","","","NA"
"2014-06-24 18:00","2014","06","24","18:00","22.9","","20.5","","86","","28","","10","","16.1","","99.01","","31","","","","NA"
"2014-06-24 19:00","2014","06","24","19:00","22.0","","20.7","","92","","27","","9","","12.9","","99.04","","30","","","","Rain Showers"
"2014-06-24 20:00","2014","06","24","20:00","21.9","","20.7","","93","","27","","8","","19.3","","99.03","","30","","","","Rain Showers"
"2014-06-24 21:00","2014","06","24","21:00","21.9","","20.7","","93","","21","","5","","24.1","","99.08","","30","","","","NA"
"2014-06-24 22:00","2014","06","24","22:00","21.3","","20.1","","93","","22","","6","","24.1","","99.12","","29","","","","Mainly Clear"
"2014-06-24 23:00","2014","06","24","23:00","20.7","","19.9","","95","","28","","7","","24.1","","99.10","","28","","","","NA"
"2014-06-25 00:00","2014","06","25","00:00","20.7","","19.6","","93","","35","","8","","16.1","","99.11","","28","","","","NA"
"2014-06-25 01:00","2014","06","25","01:00","20.4","","19.1","","92","","35","","6","","24.1","","99.07","","27","","","","Mostly Cloudy"
"2014-06-25 02:00","2014","06","25","02:00","20.1","","19.1","","94","","33","","12","","24.1","","99.09","","27","","","","NA"
"2014-06-25 03:00","2014","06","25","03:00","19.6","","18.6","","94","","35","","13","","24.1","","99.11","","","","","","NA"
"2014-06-25 04:00","2014","06","25","04:00","19.0","","18.2","","95","","34","","11","","9.7","","99.13","","","","","","Fog"
"2014-06-25 05:00","2014","06","25","05:00","19.1","","18.0","","93","","35","","10","","8.1","","99.18","","","","","","Fog"
"2014-06-25 06:00","2014","06","25","06:00","19.3","","18.0","","92","","34","","12","","16.1","","99.19","","","","","","NA"
"2014-06-25 07:00","2014","06","25","07:00","19.7","","17.9","","89","","1","","9","","19.3","","99.20","","","","","","Cloudy"
"2014-06-25 08:00","2014","06","25","08:00","19.9","","18.1","","89","","3","","11","","24.1","","99.23","","","","","","NA"
"2014-06-25 09:00","2014","06","25","09:00","20.1","","17.7","","86","","1","","8","","24.1","","99.27","","26","","","","NA"
"2014-06-25 10:00","2014","06","25","10:00","20.6","","18.2","","86","","35","","9","","24.1","","99.27","","27","","","","Cloudy"
"2014-06-25 11:00","2014","06","25","11:00","21.4","","18.6","","84","","3","","10","","24.1","","99.29","","28","","","","NA"
"2014-06-25 12:00","2014","06","25","12:00","22.7","","19.1","","80","","1","","12","","24.1","","99.26","","30","","","","NA"
"2014-06-25 13:00","2014","06","25","13:00","22.0","","19.0","","83","","15","","10","","24.1","","99.24","","29","","","","Rain Showers"
"2014-06-25 14:00","2014","06","25","14:00","22.0","","18.8","","82","","15","","10","","19.3","","99.22","","29","","","","NA"
"2014-06-25 15:00","2014","06","25","15:00","22.5","","19.3","","82","","17","","16","","24.1","","99.25","","30","","","","NA"
"2014-06-25 16:00","2014","06","25","16:00","22.3","","18.7","","80","","16","","10","","24.1","","99.25","","29","","","","Cloudy"
"2014-06-25 17:00","2014","06","25","17:00","21.0","","18.6","","86","","14","","9","","6.4","","99.26","","27","","","","Moderate Rain Showers"
"2014-06-25 18:00","2014","06","25","18:00","20.0","","19.2","","95","","13","","5","","3.2","","99.25","","27","","","","Heavy Rain Showers,Fog"
"2014-06-25 19:00","2014","06","25","19:00","19.9","","18.8","","93","","7","","9","","8.1","","99.31","","","","","","Rain Showers,Fog"
"2014-06-25 20:00","2014","06","25","20:00","19.8","","18.7","","93","","36","","3","","9.7","","99.33","","","","","","Rain Showers,Fog"
"2014-06-25 21:00","2014","06","25","21:00","19.5","","17.7","","89","","1","","16","","9.7","","99.37","","","","","","Fog"
"2014-06-25 22:00","2014","06","25","22:00","19.2","","18.1","","93","","5","","7","","12.9","","99.38","","","","","","Cloudy"
"2014-06-25 23:00","2014","06","25","23:00","19.2","","17.7","","91","","31","","7","","24.1","","99.39","","","","","","NA"
"2014-06-26 00:00","2014","06","26","00:00","18.6","","17.3","","92","","34","","13","","24.1","","99.40","","","","","","NA"
"2014-06-26 01:00","2014","06","26","01:00","18.4","","16.9","","91","","34","","15","","24.1","","99.41","","","","","","Mostly Cloudy"
"2014-06-26 02:00","2014","06","26","02:00","18.5","","16.9","","90","","36","","18","","24.1","","99.42","","","","","","NA"
"2014-06-26 03:00","2014","06","26","03:00","18.5","","16.7","","89","","35","","17","","24.1","","99.43","","","","","","NA"
"2014-06-26 04:00","2014","06","26","04:00","18.3","","16.5","","89","","1","","13","","24.1","","99.44","","","","","","Mostly Cloudy"
"2014-06-26 05:00","2014","06","26","05:00","18.2","","16.2","","88","","34","","14","","24.1","","99.48","","","","","","NA"
"2014-06-26 06:00","2014","06","26","06:00","18.2","","15.9","","86","","35","","18","","24.1","","99.51","","","","","","NA"
"2014-06-26 07:00","2014","06","26","07:00","19.2","","15.9","","81","","35","","19","","24.1","","99.58","","","","","","Mostly Cloudy"
"2014-06-26 08:00","2014","06","26","08:00","20.8","","15.9","","73","","35","","17","","24.1","","99.58","","25","","","","NA"
"2014-06-26 09:00","2014","06","26","09:00","22.5","","15.9","","66","","2","","13","","24.1","","99.57","","27","","","","NA"
"2014-06-26 10:00","2014","06","26","10:00","24.1","","15.5","","58","","3","","10","","24.1","","99.57","","28","","","","Mainly Clear"
"2014-06-26 11:00","2014","06","26","11:00","25.0","","13.4","","48","","34","","15","","24.1","","99.58","","28","","","","NA"
"2014-06-26 12:00","2014","06","26","12:00","25.6","","14.6","","50","","34","","15","","24.1","","99.57","","29","","","","NA"
"2014-06-26 13:00","2014","06","26","13:00","26.2","","14.5","","48","","2","","14","","24.1","","99.56","","30","","","","Mostly Cloudy"
"2014-06-26 14:00","2014","06","26","14:00","25.0","","15.2","","54","","15","","14","","24.1","","99.53","","29","","","","NA"
"2014-06-26 15:00","2014","06","26","15:00","25.5","","14.5","","50","","18","","7","","24.1","","99.54","","29","","","","NA"
"2014-06-26 16:00","2014","06","26","16:00","25.3","","14.3","","50","","17","","9","","24.1","","99.52","","29","","","","Mainly Clear"
"2014-06-26 17:00","2014","06","26","17:00","24.9","","13.0","","47","","16","","12","","24.1","","99.52","","28","","","","NA"
"2014-06-26 18:00","2014","06","26","18:00","24.6","","12.4","","46","","20","","7","","24.1","","99.53","","27","","","","NA"
"2014-06-26 19:00","2014","06","26","19:00","24.2","","12.4","","47","","16","","7","","24.1","","99.57","","27","","","","Mostly Cloudy"
"2014-06-26 20:00","2014","06","26","20:00","23.9","","12.7","","49","","8","","3","","24.1","","99.60","","27","","","","NA"
"2014-06-26 21:00","2014","06","26","21:00","21.9","","12.3","","54","","1","","16","","24.1","","99.65","","","","","","NA"
"2014-06-26 22:00","2014","06","26","22:00","20.7","","11.7","","56","","36","","14","","24.1","","99.72","","","","","","Clear"
"2014-06-26 23:00","2014","06","26","23:00","19.3","","10.4","","56","","36","","12","","24.1","","99.74","","","","","","NA"
"2014-06-27 00:00","2014","06","27","00:00","19.0","","9.9","","55","","33","","11","","24.1","","99.79","","","","","","NA"
"2014-06-27 01:00","2014","06","27","01:00","18.4","","9.8","","57","","34","","11","","24.1","","99.78","","","","","","Clear"
"2014-06-27 02:00","2014","06","27","02:00","17.7","","10.4","","62","","36","","8","","24.1","","99.78","","","","","","NA"
"2014-06-27 03:00","2014","06","27","03:00","17.1","","9.6","","61","","34","","6","","24.1","","99.79","","","","","","NA"
"2014-06-27 04:00","2014","06","27","04:00","17.2","","9.2","","59","","34","","12","","24.1","","99.81","","","","","","Clear"
"2014-06-27 05:00","2014","06","27","05:00","16.6","","8.9","","60","","33","","9","","24.1","","99.88","","","","","","NA"
"2014-06-27 06:00","2014","06","27","06:00","18.2","","9.4","","56","","35","","9","","24.1","","99.94","","","","","","NA"
"2014-06-27 07:00","2014","06","27","07:00","19.9","","10.4","","54","","35","","7","","24.1","","100.00","","","","","","Clear"
"2014-06-27 08:00","2014","06","27","08:00","22.1","","11.6","","51","","14","","4","","24.1","","100.00","","","","","","NA"
"2014-06-27 09:00","2014","06","27","09:00","23.6","","13.0","","51","","15","","7","","24.1","","100.02","","26","","","","NA"
"2014-06-27 10:00","2014","06","27","10:00","24.3","","14.6","","54","","9","","10","","24.1","","100.03","","28","","","","Clear"
"2014-06-27 11:00","2014","06","27","11:00","25.5","","16.5","","57","","17","","9","","24.1","","100.04","","30","","","","NA"
"2014-06-27 12:00","2014","06","27","12:00","25.8","","14.2","","48","","14","","16","","24.1","","100.03","","29","","","","NA"
"2014-06-27 13:00","2014","06","27","13:00","26.0","","14.0","","47","","15","","12","","24.1","","100.02","","29","","","","Mainly Clear"
"2014-06-27 14:00","2014","06","27","14:00","26.4","","15.0","","49","","15","","18","","24.1","","100.01","","30","","","","NA"
"2014-06-27 15:00","2014","06","27","15:00","26.8","","15.4","","49","","15","","11","","24.1","","99.99","","31","","","","NA"
"2014-06-27 16:00","2014","06","27","16:00","27.0","","14.3","","45","","15","","15","","24.1","","99.98","","31","","","","Clear"
"2014-06-27 17:00","2014","06","27","17:00","26.5","","13.5","","44","","14","","15","","24.1","","99.97","","30","","","","NA"
"2014-06-27 18:00","2014","06","27","18:00","25.2","","13.6","","48","","12","","17","","24.1","","99.95","","28","","","","NA"
"2014-06-27 19:00","2014","06","27","19:00","24.6","","13.4","","49","","13","","10","","24.1","","99.96","","28","","","","Mainly Clear"
"2014-06-27 20:00","2014","06","27","20:00","23.3","","12.8","","51","","11","","10","","24.1","","99.95","","26","","","","NA"
"2014-06-27 21:00","2014","06","27","21:00","22.5","","12.6","","53","","10","","8","","24.1","","100.01","","25","","","","NA"
"2014-06-27 22:00","2014","06","27","22:00","22.2","","9.5","","44","","12","","11","","24.1","","100.06","","","","","","Mainly Clear"
"2014-06-27 23:00","2014","06","27","23:00","21.5","","10.8","","50","","9","","6","","24.1","","100.08","","","","","","NA"
"2014-06-28 00:00","2014","06","28","00:00","21.1","","11.8","","55","","7","","4","","24.1","","100.06","","","","","","NA"
"2014-06-28 01:00","2014","06","28","01:00","20.8","","12.6","","59","","5","","6","","24.1","","100.06","","","","","","Clear"
"2014-06-28 02:00","2014","06","28","02:00","19.4","","13.0","","66","","5","","9","","24.1","","100.04","","","","","","NA"
"2014-06-28 03:00","2014","06","28","03:00","18.9","","13.4","","70","","3","","9","","24.1","","100.03","","","","","","NA"
"2014-06-28 04:00","2014","06","28","04:00","19.1","","13.1","","68","","4","","7","","24.1","","100.04","","","","","","Mainly Clear"
"2014-06-28 05:00","2014","06","28","05:00","19.1","","12.9","","67","","5","","4","","24.1","","100.07","","","","","","NA"
"2014-06-28 06:00","2014","06","28","06:00","20.0","","13.6","","66","","10","","7","","24.1","","100.13","","","","","","NA"
"2014-06-28 07:00","2014","06","28","07:00","21.5","","14.0","","62","","10","","8","","24.1","","100.16","","25","","","","Clear"
"2014-06-28 08:00","2014","06","28","08:00","23.2","","15.6","","62","","9","","6","","24.1","","100.20","","28","","","","NA"
"2014-06-28 09:00","2014","06","28","09:00","24.3","","17.2","","64","","14","","9","","24.1","","100.18","","30","","","","NA"
"2014-06-28 10:00","2014","06","28","10:00","24.7","","17.6","","64","","15","","11","","24.1","","100.15","","30","","","","Mostly Cloudy"
"2014-06-28 11:00","2014","06","28","11:00","25.3","","18.1","","64","","15","","14","","24.1","","100.14","","31","","","","NA"
"2014-06-28 12:00","2014","06","28","12:00","26.3","","19.1","","64","","14","","12","","24.1","","100.15","","33","","","","NA"
"2014-06-28 13:00","2014","06","28","13:00","27.2","","20.2","","65","","15","","9","","24.1","","100.10","","35","","","","Mostly Cloudy"
"2014-06-28 14:00","2014","06","28","14:00","28.1","","20.3","","62","","15","","15","","24.1","","100.07","","36","","","","NA"
"2014-06-28 15:00","2014","06","28","15:00","28.2","","19.9","","60","","13","","16","","24.1","","100.02","","36","","","","NA"
"2014-06-28 16:00","2014","06","28","16:00","27.5","","19.5","","61","","16","","16","","24.1","","99.97","","35","","","","Mostly Cloudy"
"2014-06-28 17:00","2014","06","28","17:00","27.0","","19.5","","63","","14","","19","","24.1","","99.96","","34","","","","NA"
"2014-06-28 18:00","2014","06","28","18:00","26.3","","19.1","","64","","13","","15","","24.1","","99.97","","33","","","","NA"
"2014-06-28 19:00","2014","06","28","19:00","25.5","","17.8","","62","","13","","14","","24.1","","99.95","","31","","","","Mostly Cloudy"
"2014-06-28 20:00","2014","06","28","20:00","24.7","","17.3","","63","","10","","11","","24.1","","99.95","","30","","","","NA"
"2014-06-28 21:00","2014","06","28","21:00","23.8","","17.4","","67","","11","","8","","24.1","","99.95","","29","","","","NA"
"2014-06-28 22:00","2014","06","28","22:00","23.0","","17.6","","71","","8","","5","","24.1","","99.92","","29","","","","Clear"
"2014-06-28 23:00","2014","06","28","23:00","22.6","","17.6","","73","","5","","5","","24.1","","99.93","","28","","","","NA"
"2014-06-29 00:00","2014","06","29","00:00","21.5","","17.6","","78","","5","","9","","24.1","","99.92","","27","","","","NA"
"2014-06-29 01:00","2014","06","29","01:00","21.9","","17.8","","77","","36","","3","","24.1","","99.93","","28","","","","Clear"
"2014-06-29 02:00","2014","06","29","02:00","21.3","","17.8","","80","","15","","6","","24.1","","99.93","","27","","","","NA"
"2014-06-29 03:00","2014","06","29","03:00","20.5","","17.6","","83","","14","","5","","24.1","","99.91","","26","","","","NA"
"2014-06-29 04:00","2014","06","29","04:00","20.4","","17.8","","85","","12","","6","","24.1","","99.88","","26","","","","Mostly Cloudy"
"2014-06-29 05:00","2014","06","29","05:00","20.5","","18.1","","86","","17","","5","","24.1","","99.87","","27","","","","NA"
"2014-06-29 06:00","2014","06","29","06:00","21.0","","18.8","","87","","15","","7","","24.1","","99.87","","28","","","","NA"
"2014-06-29 07:00","2014","06","29","07:00","22.9","","19.7","","82","","17","","9","","24.1","","99.87","","30","","","","Mostly Cloudy"
"2014-06-29 08:00","2014","06","29","08:00","24.3","","20.7","","80","","19","","10","","24.1","","99.84","","32","","","","NA"
"2014-06-29 09:00","2014","06","29","09:00","26.5","","21.2","","72","","19","","13","","24.1","","99.80","","35","","","","NA"
"2014-06-29 10:00","2014","06","29","10:00","27.6","","22.0","","71","","13","","16","","24.1","","99.75","","37","","","","Mainly Clear"
"2014-06-29 11:00","2014","06","29","11:00","27.4","","21.1","","68","","15","","21","","24.1","","99.69","","36","","","","NA"
"2014-06-29 12:00","2014","06","29","12:00","28.5","","21.4","","65","","17","","22","","24.1","","99.64","","37","","","","NA"
"2014-06-29 13:00","2014","06","29","13:00","28.5","","21.4","","65","","17","","22","","24.1","","99.59","","37","","","","Mainly Clear"
"2014-06-29 14:00","2014","06","29","14:00","28.8","","21.0","","62","","18","","21","","24.1","","99.52","","37","","","","NA"
"2014-06-29 15:00","2014","06","29","15:00","28.4","","21.8","","67","","17","","13","","24.1","","99.47","","38","","","","NA"
"2014-06-29 16:00","2014","06","29","16:00","29.5","","21.4","","61","","17","","21","","24.1","","99.40","","38","","","","Mostly Cloudy"
"2014-06-29 17:00","2014","06","29","17:00","30.2","","20.7","","56","","23","","25","","24.1","","99.39","","38","","","","NA"
"2014-06-29 18:00","2014","06","29","18:00","28.5","","20.7","","62","","21","","19","","24.1","","99.37","","37","","","","NA"
"2014-06-29 19:00","2014","06","29","19:00","28.1","","20.8","","64","","22","","22","","24.1","","99.35","","36","","","","Cloudy"
"2014-06-29 20:00","2014","06","29","20:00","26.0","","20.7","","72","","18","","10","","24.1","","99.39","","34","","","","NA"
"2014-06-29 21:00","2014","06","29","21:00","24.2","","19.6","","75","","21","","14","","24.1","","99.43","","31","","","","NA"
"2014-06-29 22:00","2014","06","29","22:00","23.3","","19.9","","81","","20","","13","","24.1","","99.41","","31","","","","Mostly Cloudy"
"2014-06-29 23:00","2014","06","29","23:00","23.0","","20.6","","86","","20","","13","","24.1","","99.38","","31","","","","NA"
"2014-06-30 00:00","2014","06","30","00:00","22.4","","20.7","","90","","23","","13","","24.1","","99.37","","31","","","","NA"
"2014-06-30 01:00","2014","06","30","01:00","22.2","","20.5","","90","","22","","9","","24.1","","99.33","","30","","","","Mainly Clear"
"2014-06-30 02:00","2014","06","30","02:00","22.2","","20.5","","90","","24","","14","","24.1","","99.31","","30","","","","NA"
"2014-06-30 03:00","2014","06","30","03:00","21.9","","20.2","","90","","25","","10","","24.1","","99.31","","30","","","","NA"
"2014-06-30 04:00","2014","06","30","04:00","21.8","","20.3","","91","","23","","9","","16.1","","99.36","","30","","","","Mostly Cloudy"
"2014-06-30 05:00","2014","06","30","05:00","21.8","","20.1","","90","","21","","9","","16.1","","99.40","","29","","","","NA"
"2014-06-30 06:00","2014","06","30","06:00","22.2","","20.2","","88","","19","","8","","19.3","","99.41","","30","","","","NA"
"2014-06-30 07:00","2014","06","30","07:00","22.8","","20.6","","87","","15","","10","","16.1","","99.43","","31","","","","Mostly Cloudy"
"2014-06-30 08:00","2014","06","30","08:00","23.4","","20.8","","85","","15","","13","","16.1","","99.37","","32","","","","NA"
"2014-06-30 09:00","2014","06","30","09:00","24.3","","21.5","","84","","15","","8","","19.3","","99.33","","33","","","","NA"
"2014-06-30 10:00","2014","06","30","10:00","25.6","","21.8","","79","","14","","16","","24.1","","99.31","","35","","","","Mostly Cloudy"
"2014-06-30 11:00","2014","06","30","11:00","27.7","","22.8","","74","","15","","21","","19.3","","99.26","","38","","","","NA"
"2014-06-30 12:00","2014","06","30","12:00","28.4","","22.3","","69","","16","","27","","24.1","","99.21","","38","","","","NA"
"2014-06-30 13:00","2014","06","30","13:00","28.6","","21.8","","66","","17","","24","","24.1","","99.14","","38","","","","Mostly Cloudy"
"2014-06-30 14:00","2014","06","30","14:00","30.3","","21.0","","57","","21","","27","","24.1","","99.07","","39","","","","NA"
"2014-06-30 15:00","2014","06","30","15:00","29.5","","20.8","","59","","20","","27","","24.1","","99.03","","38","","","","NA"
"2014-06-30 16:00","2014","06","30","16:00","29.4","","21.0","","60","","22","","29","","24.1","","98.99","","38","","","","Mostly Cloudy"
"2014-06-30 17:00","2014","06","30","17:00","30.3","","20.5","","55","","23","","31","","24.1","","98.92","","38","","","","NA"
"2014-06-30 18:00","2014","06","30","18:00","29.2","","20.8","","60","","21","","29","","24.1","","98.90","","37","","","","NA"
"2014-06-30 19:00","2014","06","30","19:00","29.0","","20.9","","61","","22","","28","","24.1","","98.94","","37","","","","Mostly Cloudy"
"2014-06-30 20:00","2014","06","30","20:00","28.3","","21.0","","64","","21","","18","","24.1","","98.92","","37","","","","NA"
"2014-06-30 21:00","2014","06","30","21:00","27.6","","20.8","","66","","20","","14","","24.1","","98.90","","36","","","","NA"
"2014-06-30 22:00","2014","06","30","22:00","27.2","","20.7","","67","","21","","19","","24.1","","98.88","","35","","","","Mainly Clear"
"2014-06-30 23:00","2014","06","30","23:00","26.5","","20.7","","70","","20","","18","","24.1","","98.82","","35","","","","NA"
