"Station Name","TORONTO LESTER B. PEARSON INT'L A"
"Province","ONTARIO"
"Latitude","43.68"
"Longitude","-79.63"
"Elevation","173.40"
"Climate Identifier","6158733"
"WMO Identifier","71624"
"TC Identifier","YYZ"
"All times are specified in Local Standard Time (LST). Add 1 hour to adjust for Daylight Saving Time where and when it is observed."

"Legend"
"E","Estimated"
"M","Missing"
"NA","Not Available"

"Date/Time","Year","Month","Day","Time","Temp (°C)","Temp Flag","Dew Point Temp (°C)","Dew Point Temp Flag","Rel Hum (%)","Rel Hum Flag","Wind Dir (10s deg)","Wind Dir Flag","Wind Spd (km/h)","Wind Spd Flag","Visibility (km)","Visibility Flag","Stn Press (kPa)","Stn Press Flag","Hmdx","Hmdx Flag","Wind Chill","Wind Chill Flag","Weather"
"1983-04-01 00:00","1983","04","01","00:00","-2.3","","-4.8","","83","","36","","6","","24.1","","99.49","","","","-5","","Clear"
"1983-04-01 01:00","1983","04","01","01:00","-2.9","","-5.7","","81","","1","","2","","24.1","","99.49","","","","-4","","Clear"
"1983-04-01 02:00","1983","04","01","02:00","-3.3","","-5.7","","83","","2","","6","","25.0","","99.49","","","","-6","","Clear"
"1983-04-01 03:00","1983","04","01","03:00","-4.3","","-6.6","","84","","2","","7","","25.0","","99.46","","","","-7","","Clear"
"1983-04-01 04:00","1983","04","01","04:00","-4.7","","-6.9","","85","","3","","13","","25.0","","99.46","","","","-10","","Clear"
"1983-04-01 05:00","1983","04","01","05:00","-3.4","","-7.0","","76","","3","","4","","25.0","","99.46","","","","-5","","Clear"
"1983-04-01 06:00","1983","04","01","06:00","-3.9","","-7.6","","75","","3","","6","","32.2","","99.49","","","","-7","","Mainly Clear"
"1983-04-01 07:00","1983","04","01","07:00","-2.7","","-4.8","","86","","34","","6","","32.2","","99.59","","","","-5","","Mostly Cloudy"
"1983-04-01 08:00","1983","04","01","08:00","-0.8","","-5.7","","69","","2","","7","","32.2","","99.62","","","","-3","","Mostly Cloudy"
"1983-04-01 09:00","1983","04","01","09:00","2.0","","-6.7","","52","","7","","4","","40.2","","99.62","","","","","","Cloudy"
"1983-04-01 10:00","1983","04","01","10:00","3.8","","-7.9","","42","","8","","2","","40.2","","99.62","","","","","","Cloudy"
"1983-04-01 11:00","1983","04","01","11:00","5.4","","-10.0","","32","","16","","7","","40.2","","99.59","","","","","","Cloudy"
"1983-04-01 12:00","1983","04","01","12:00","6.0","","-9.0","","33","","10","","6","","40.2","","99.56","","","","","","Mostly Cloudy"
"1983-04-01 13:00","1983","04","01","13:00","7.0","","-6.3","","38","","15","","13","","40.2","","99.66","","","","","","Mostly Cloudy"
"1983-04-01 14:00","1983","04","01","14:00","6.6","","-5.6","","41","","12","","11","","40.2","","99.66","","","","","","Mostly Cloudy"
"1983-04-01 15:00","1983","04","01","15:00","6.8","","-6.3","","39","","13","","11","","40.2","","99.56","","","","","","Mainly Clear"
"1983-04-01 16:00","1983","04","01","16:00","7.4","","-5.5","","39","","14","","7","","40.2","","99.52","","","","","","Mainly Clear"
"1983-04-01 17:00","1983","04","01","17:00","6.8","","-5.6","","41","","15","","11","","40.2","","99.56","","","","","","Mainly Clear"
"1983-04-01 18:00","1983","04","01","18:00","5.2","","-5.1","","47","","17","","9","","40.2","","99.59","","","","","","Mostly Cloudy"
"1983-04-01 19:00","1983","04","01","19:00","3.9","","-5.9","","49","","19","","6","","25.0","","99.62","","","","","","Mostly Cloudy"
"1983-04-01 20:00","1983","04","01","20:00","3.0","","-8.1","","44","","","","0","","25.0","","99.69","","","","","","Cloudy"
"1983-04-01 21:00","1983","04","01","21:00","1.9","","-7.5","","50","","","","0","","25.0","","99.76","","","","","","Mostly Cloudy"
"1983-04-01 22:00","1983","04","01","22:00","1.1","","-9.2","","46","","4","","11","","25.0","","99.66","","","","","","Mainly Clear"
"1983-04-01 23:00","1983","04","01","23:00","0.7","","-7.7","","53","","4","","7","","25.0","","99.62","","","","","","Mostly Cloudy"
"1983-04-02 00:00","1983","04","02","00:00","1.6","","-6.8","","54","","7","","9","","25.0","","99.59","","","","","","Mostly Cloudy"
"1983-04-02 01:00","1983","04","02","01:00","2.1","","-9.1","","43","","10","","4","","24.1","","99.62","","","","","","Mostly Cloudy"
"1983-04-02 02:00","1983","04","02","02:00","1.8","","-6.7","","53","","5","","9","","24.1","","99.56","","","","","","Cloudy"
"1983-04-02 03:00","1983","04","02","03:00","-0.6","","-7.0","","62","","5","","9","","25.0","","99.56","","","","-4","","Cloudy"
"1983-04-02 04:00","1983","04","02","04:00","0.1","","-7.9","","55","","6","","9","","25.0","","99.46","","","","","","Cloudy"
"1983-04-02 05:00","1983","04","02","05:00","0.2","","-7.8","","55","","8","","6","","25.0","","99.56","","","","","","Cloudy"
"1983-04-02 06:00","1983","04","02","06:00","0.5","","-7.7","","54","","8","","11","","32.2","","99.56","","","","","","Cloudy"
"1983-04-02 07:00","1983","04","02","07:00","2.5","","-4.6","","59","","9","","19","","32.2","","99.56","","","","","","Cloudy"
"1983-04-02 08:00","1983","04","02","08:00","4.1","","-5.9","","48","","10","","24","","32.2","","99.52","","","","","","Mostly Cloudy"
"1983-04-02 09:00","1983","04","02","09:00","5.0","","-2.4","","59","","10","","33","","32.2","","99.46","","","","","","Cloudy"
"1983-04-02 10:00","1983","04","02","10:00","5.7","","-4.3","","48","","10","","39","","32.2","","99.46","","","","","","Cloudy"
"1983-04-02 11:00","1983","04","02","11:00","5.4","","-6.5","","42","","10","","43","","32.2","","99.36","","","","","","Cloudy"
"1983-04-02 12:00","1983","04","02","12:00","5.1","","-6.6","","42","","9","","37","","32.2","","99.22","","","","","","Cloudy"
"1983-04-02 13:00","1983","04","02","13:00","5.4","","-9.0","","34","","9","","44","","32.2","","99.12","","","","","","Cloudy"
"1983-04-02 14:00","1983","04","02","14:00","4.6","","-7.7","","40","","8","","44","","32.2","","98.89","","","","","","Cloudy"
"1983-04-02 15:00","1983","04","02","15:00","4.8","","-7.4","","41","","9","","37","","32.2","","98.86","","","","","","Cloudy"
"1983-04-02 16:00","1983","04","02","16:00","5.7","","-5.8","","43","","9","","41","","32.2","","98.72","","","","","","Cloudy"
"1983-04-02 17:00","1983","04","02","17:00","6.0","","-5.0","","45","","9","","35","","32.2","","98.62","","","","","","Cloudy"
"1983-04-02 18:00","1983","04","02","18:00","5.0","","-3.7","","53","","9","","35","","19.3","","98.69","","","","","","Rain Showers,Snow Showers"
"1983-04-02 19:00","1983","04","02","19:00","5.5","","-2.4","","57","","9","","43","","25.0","","98.59","","","","","","Cloudy"
"1983-04-02 20:00","1983","04","02","20:00","2.9","","1.6","","91","","9","","46","","12.9","","98.66","","","","","","Rain Showers"
"1983-04-02 21:00","1983","04","02","21:00","3.0","","1.6","","91","","7","","26","","9.7","","98.49","","","","","","Rain Showers,Ice Pellet Showers,Fog"
"1983-04-02 22:00","1983","04","02","22:00","4.8","","-0.2","","70","","9","","46","","12.9","","98.49","","","","","","Rain Showers"
"1983-04-02 23:00","1983","04","02","23:00","3.8","","1.7","","86","","9","","41","","12.9","","98.42","","","","","","Rain Showers"
"1983-04-03 00:00","1983","04","03","00:00","2.6","","1.1","","90","","9","","41","","8.0","","98.36","","","","","","Rain,Fog"
"1983-04-03 01:00","1983","04","03","01:00","2.4","","1.6","","95","","9","","48","","6.4","","98.22","","","","","","Rain,Fog"
"1983-04-03 02:00","1983","04","03","02:00","1.6","","1.0","","96","","9","","37","","4.8","","98.12","","","","","","Rain,Fog"
"1983-04-03 03:00","1983","04","03","03:00","2.1","","1.5","","96","","9","","37","","6.4","","97.99","","","","","","Rain,Fog"
"1983-04-03 04:00","1983","04","03","04:00","1.3","","1.0","","98","","9","","44","","4.8","","98.02","","","","","","Rain,Snow,Fog"
"1983-04-03 05:00","1983","04","03","05:00","2.1","","1.5","","96","","9","","39","","8.0","","97.99","","","","","","Rain,Fog"
"1983-04-03 06:00","1983","04","03","06:00","2.7","","2.0","","95","","10","","24","","12.9","","97.99","","","","","","Cloudy"
"1983-04-03 07:00","1983","04","03","07:00","3.1","","2.1","","93","","10","","26","","19.3","","97.99","","","","","","Cloudy"
"1983-04-03 08:00","1983","04","03","08:00","3.5","","2.2","","91","","9","","26","","19.3","","97.99","","","","","","Cloudy"
"1983-04-03 09:00","1983","04","03","09:00","3.9","","2.7","","92","","9","","22","","16.1","","97.99","","","","","","Cloudy"
"1983-04-03 10:00","1983","04","03","10:00","4.4","","2.7","","89","","9","","22","","16.1","","97.99","","","","","","Cloudy"
"1983-04-03 11:00","1983","04","03","11:00","5.2","","3.7","","90","","9","","17","","16.1","","97.99","","","","","","Cloudy"
"1983-04-03 12:00","1983","04","03","12:00","5.9","","3.9","","87","","9","","19","","16.1","","97.99","","","","","","Cloudy"
"1983-04-03 13:00","1983","04","03","13:00","5.7","","3.8","","87","","9","","19","","16.1","","98.02","","","","","","Cloudy"
"1983-04-03 14:00","1983","04","03","14:00","5.4","","4.2","","92","","7","","15","","16.1","","97.99","","","","","","Cloudy"
"1983-04-03 15:00","1983","04","03","15:00","4.7","","3.2","","90","","8","","11","","6.4","","98.02","","","","","","Rain,Fog"
"1983-04-03 16:00","1983","04","03","16:00","4.8","","4.2","","96","","6","","11","","9.7","","97.99","","","","","","Rain,Fog"
"1983-04-03 17:00","1983","04","03","17:00","5.0","","4.2","","95","","9","","9","","11.3","","98.06","","","","","","Rain"
"1983-04-03 18:00","1983","04","03","18:00","4.9","","4.6","","98","","13","","6","","8.0","","98.16","","","","","","Rain,Fog"
"1983-04-03 19:00","1983","04","03","19:00","4.9","","4.6","","98","","","","0","","6.4","","98.19","","","","","","Rain,Drizzle,Fog"
"1983-04-03 20:00","1983","04","03","20:00","4.6","","4.6","","100","","17","","2","","6.4","","98.29","","","","","","Rain,Fog"
"1983-04-03 21:00","1983","04","03","21:00","4.1","","4.1","","100","","16","","4","","4.8","","98.32","","","","","","Fog"
"1983-04-03 22:00","1983","04","03","22:00","3.7","","3.7","","100","","","","0","","0.4","","98.32","","","","","","Fog"
"1983-04-03 23:00","1983","04","03","23:00","3.3","","3.3","","100","","21","","4","","0.2","","98.39","","","","","","Fog"
"1983-04-04 00:00","1983","04","04","00:00","2.6","","2.6","","100","","","","0","","0.4","","98.46","","","","","","Fog"
"1983-04-04 01:00","1983","04","04","01:00","3.3","","3.3","","100","","15","","4","","0.2","","98.49","","","","","","Fog"
"1983-04-04 02:00","1983","04","04","02:00","3.6","","3.6","","100","","20","","6","","1.2","","98.52","","","","","","Rain,Fog"
"1983-04-04 03:00","1983","04","04","03:00","3.9","","3.9","","100","","18","","6","","4.0","","98.59","","","","","","Rain,Drizzle,Fog"
"1983-04-04 04:00","1983","04","04","04:00","3.7","","3.1","","96","","18","","4","","4.0","","98.59","","","","","","Rain,Fog"
"1983-04-04 05:00","1983","04","04","05:00","4.0","","4.0","","100","","19","","4","","4.0","","98.69","","","","","","Rain,Fog"
"1983-04-04 06:00","1983","04","04","06:00","4.2","","3.6","","96","","23","","2","","4.0","","98.79","","","","","","Fog"
"1983-04-04 07:00","1983","04","04","07:00","4.6","","4.1","","97","","22","","7","","4.0","","98.86","","","","","","Fog"
"1983-04-04 08:00","1983","04","04","08:00","5.9","","4.3","","89","","25","","13","","4.8","","98.92","","","","","","Fog"
"1983-04-04 09:00","1983","04","04","09:00","6.4","","5.3","","93","","25","","15","","6.4","","99.02","","","","","","Fog"
"1983-04-04 10:00","1983","04","04","10:00","6.2","","4.3","","87","","26","","19","","4.8","","99.09","","","","","","Rain Showers,Fog"
"1983-04-04 11:00","1983","04","04","11:00","5.8","","3.9","","88","","26","","22","","11.3","","99.16","","","","","","Rain Showers"
"1983-04-04 12:00","1983","04","04","12:00","5.0","","2.8","","86","","26","","22","","11.3","","99.26","","","","","","Cloudy"
"1983-04-04 13:00","1983","04","04","13:00","5.0","","1.9","","80","","26","","24","","16.1","","99.29","","","","","","Cloudy"
"1983-04-04 14:00","1983","04","04","14:00","4.8","","1.9","","82","","27","","28","","16.1","","99.39","","","","","","Cloudy"
"1983-04-04 15:00","1983","04","04","15:00","5.1","","1.4","","77","","27","","20","","16.1","","99.42","","","","","","Cloudy"
"1983-04-04 16:00","1983","04","04","16:00","5.3","","1.5","","77","","26","","20","","24.1","","99.52","","","","","","Cloudy"
"1983-04-04 17:00","1983","04","04","17:00","5.6","","1.0","","72","","27","","17","","24.1","","99.56","","","","","","Cloudy"
"1983-04-04 18:00","1983","04","04","18:00","5.3","","1.5","","77","","26","","9","","24.1","","99.59","","","","","","Cloudy"
"1983-04-04 19:00","1983","04","04","19:00","5.1","","0.9","","74","","25","","9","","25.0","","99.62","","","","","","Cloudy"
"1983-04-04 20:00","1983","04","04","20:00","4.8","","1.4","","79","","26","","9","","25.0","","99.69","","","","","","Cloudy"
"1983-04-04 21:00","1983","04","04","21:00","4.6","","1.3","","79","","25","","15","","25.0","","99.76","","","","","","Cloudy"
"1983-04-04 22:00","1983","04","04","22:00","4.5","","1.3","","80","","26","","11","","25.0","","99.76","","","","","","Cloudy"
"1983-04-04 23:00","1983","04","04","23:00","4.3","","1.3","","81","","24","","11","","25.0","","99.72","","","","","","Cloudy"
"1983-04-05 00:00","1983","04","05","00:00","4.1","","1.3","","82","","24","","11","","25.0","","99.76","","","","","","Cloudy"
"1983-04-05 01:00","1983","04","05","01:00","3.9","","1.3","","83","","24","","13","","25.0","","99.76","","","","","","Cloudy"
"1983-04-05 02:00","1983","04","05","02:00","3.6","","1.2","","84","","25","","7","","25.0","","99.76","","","","","","Cloudy"
"1983-04-05 03:00","1983","04","05","03:00","2.6","","0.6","","87","","25","","7","","25.0","","99.76","","","","","","Mostly Cloudy"
"1983-04-05 04:00","1983","04","05","04:00","2.8","","1.1","","89","","24","","9","","24.1","","99.79","","","","","","Cloudy"
"1983-04-05 05:00","1983","04","05","05:00","2.8","","0.2","","83","","25","","13","","25.0","","99.82","","","","","","Cloudy"
"1983-04-05 06:00","1983","04","05","06:00","2.3","","0.6","","89","","29","","7","","25.0","","99.86","","","","","","Mostly Cloudy"
"1983-04-05 07:00","1983","04","05","07:00","2.8","","0.7","","86","","29","","19","","24.1","","99.89","","","","","","Mostly Cloudy"
"1983-04-05 08:00","1983","04","05","08:00","3.8","","1.7","","86","","30","","24","","32.2","","99.89","","","","","","Mostly Cloudy"
"1983-04-05 09:00","1983","04","05","09:00","4.5","","1.8","","82","","27","","15","","32.2","","99.89","","","","","","Mostly Cloudy"
"1983-04-05 10:00","1983","04","05","10:00","5.5","","2.0","","78","","28","","19","","32.2","","99.96","","","","","","Cloudy"
"1983-04-05 11:00","1983","04","05","11:00","6.8","","3.2","","78","","28","","22","","40.2","","99.99","","","","","","Mostly Cloudy"
"1983-04-05 12:00","1983","04","05","12:00","6.4","","2.1","","74","","31","","15","","40.2","","99.99","","","","","","Cloudy"
"1983-04-05 13:00","1983","04","05","13:00","6.4","","2.1","","74","","31","","15","","40.2","","100.06","","","","","","Cloudy"
"1983-04-05 14:00","1983","04","05","14:00","6.8","","2.7","","75","","30","","13","","40.2","","100.02","","","","","","Cloudy"
"1983-04-05 15:00","1983","04","05","15:00","7.2","","2.7","","73","","33","","11","","40.2","","100.02","","","","","","Mostly Cloudy"
"1983-04-05 16:00","1983","04","05","16:00","7.0","","2.7","","74","","31","","9","","40.2","","100.06","","","","","","Cloudy"
"1983-04-05 17:00","1983","04","05","17:00","6.6","","2.1","","73","","36","","11","","32.2","","99.99","","","","","","Cloudy"
"1983-04-05 18:00","1983","04","05","18:00","6.0","","2.5","","78","","36","","11","","32.2","","100.06","","","","","","Mostly Cloudy"
"1983-04-05 19:00","1983","04","05","19:00","5.2","","2.4","","82","","1","","19","","12.9","","100.06","","","","","","Cloudy"
"1983-04-05 20:00","1983","04","05","20:00","4.2","","1.7","","84","","1","","15","","16.1","","100.06","","","","","","Cloudy"
"1983-04-05 21:00","1983","04","05","21:00","3.8","","1.7","","86","","36","","13","","16.1","","100.09","","","","","","Cloudy"
"1983-04-05 22:00","1983","04","05","22:00","3.0","","1.1","","87","","36","","13","","25.0","","100.02","","","","","","Mostly Cloudy"
"1983-04-05 23:00","1983","04","05","23:00","2.6","","1.1","","90","","36","","11","","25.0","","99.96","","","","","","Mostly Cloudy"
"1983-04-06 00:00","1983","04","06","00:00","2.6","","1.1","","90","","36","","13","","25.0","","100.02","","","","","","Cloudy"
"1983-04-06 01:00","1983","04","06","01:00","2.5","","1.1","","91","","36","","7","","25.0","","100.06","","","","","","Cloudy"
"1983-04-06 02:00","1983","04","06","02:00","2.5","","1.1","","91","","35","","7","","25.0","","100.09","","","","","","Cloudy"
"1983-04-06 03:00","1983","04","06","03:00","2.2","","0.6","","89","","35","","9","","25.0","","100.06","","","","","","Cloudy"
"1983-04-06 04:00","1983","04","06","04:00","2.1","","0.1","","87","","36","","9","","19.3","","100.06","","","","","","Rain Showers"
"1983-04-06 05:00","1983","04","06","05:00","2.2","","0.1","","86","","36","","11","","19.3","","100.06","","","","","","Rain Showers"
"1983-04-06 06:00","1983","04","06","06:00","2.0","","-0.4","","84","","2","","9","","19.3","","99.99","","","","","","Cloudy"
"1983-04-06 07:00","1983","04","06","07:00","2.4","","0.1","","85","","4","","7","","24.1","","99.96","","","","","","Mostly Cloudy"
"1983-04-06 08:00","1983","04","06","08:00","4.3","","0.3","","75","","9","","15","","32.2","","99.96","","","","","","Cloudy"
"1983-04-06 09:00","1983","04","06","09:00","5.3","","1.5","","77","","9","","20","","32.2","","99.96","","","","","","Cloudy"
"1983-04-06 10:00","1983","04","06","10:00","5.2","","0.9","","74","","9","","22","","32.2","","99.99","","","","","","Cloudy"
"1983-04-06 11:00","1983","04","06","11:00","6.0","","0.0","","65","","9","","24","","40.2","","99.99","","","","","","Cloudy"
"1983-04-06 12:00","1983","04","06","12:00","5.8","","-1.1","","61","","10","","22","","40.2","","99.96","","","","","","Cloudy"
"1983-04-06 13:00","1983","04","06","13:00","6.0","","-0.6","","62","","8","","22","","40.2","","99.89","","","","","","Cloudy"
"1983-04-06 14:00","1983","04","06","14:00","6.4","","-0.5","","61","","10","","19","","40.2","","99.86","","","","","","Cloudy"
"1983-04-06 15:00","1983","04","06","15:00","7.7","","0.3","","59","","9","","15","","40.2","","99.82","","","","","","Cloudy"
"1983-04-06 16:00","1983","04","06","16:00","8.2","","1.4","","62","","8","","20","","16.1","","99.76","","","","","","Mostly Cloudy"
"1983-04-06 17:00","1983","04","06","17:00","8.0","","1.4","","63","","8","","19","","16.1","","99.79","","","","","","Mostly Cloudy"
"1983-04-06 18:00","1983","04","06","18:00","7.2","","0.2","","61","","10","","19","","16.1","","99.76","","","","","","Mostly Cloudy"
"1983-04-06 19:00","1983","04","06","19:00","7.0","","0.2","","62","","10","","17","","16.1","","99.79","","","","","","Cloudy"
"1983-04-06 20:00","1983","04","06","20:00","6.5","","0.6","","66","","11","","13","","25.0","","99.79","","","","","","Cloudy"
"1983-04-06 21:00","1983","04","06","21:00","6.5","","0.6","","66","","9","","15","","25.0","","99.79","","","","","","Cloudy"
"1983-04-06 22:00","1983","04","06","22:00","6.6","","0.6","","65","","10","","13","","25.0","","99.76","","","","","","Cloudy"
"1983-04-06 23:00","1983","04","06","23:00","6.5","","0.6","","66","","10","","22","","25.0","","99.66","","","","","","Cloudy"
"1983-04-07 00:00","1983","04","07","00:00","6.7","","0.1","","63","","11","","15","","25.0","","99.62","","","","","","Cloudy"
"1983-04-07 01:00","1983","04","07","01:00","6.5","","1.1","","68","","8","","17","","25.0","","99.59","","","","","","Cloudy"
"1983-04-07 02:00","1983","04","07","02:00","6.1","","1.0","","70","","10","","19","","25.0","","99.42","","","","","","Cloudy"
"1983-04-07 03:00","1983","04","07","03:00","6.0","","1.5","","73","","10","","11","","16.1","","99.42","","","","","","Rain Showers"
"1983-04-07 04:00","1983","04","07","04:00","4.8","","3.3","","90","","9","","11","","9.7","","99.29","","","","","","Rain Showers,Fog"
"1983-04-07 05:00","1983","04","07","05:00","4.5","","3.2","","91","","10","","11","","9.7","","99.26","","","","","","Fog"
"1983-04-07 06:00","1983","04","07","06:00","4.4","","3.6","","95","","10","","11","","6.4","","99.19","","","","","","Rain,Fog"
"1983-04-07 07:00","1983","04","07","07:00","4.5","","4.1","","97","","9","","17","","6.4","","99.06","","","","","","Rain,Fog"
"1983-04-07 08:00","1983","04","07","08:00","4.8","","4.8","","100","","10","","9","","4.8","","99.02","","","","","","Rain,Fog"
"1983-04-07 09:00","1983","04","07","09:00","5.1","","5.1","","100","","11","","11","","0.6","","98.96","","","","","","Rain,Drizzle,Fog"
"1983-04-07 10:00","1983","04","07","10:00","5.5","","5.5","","100","","","","0","","1.6","","98.96","","","","","","Rain,Drizzle,Fog"
"1983-04-07 11:00","1983","04","07","11:00","6.0","","6.0","","100","","33","","7","","2.8","","98.92","","","","","","Drizzle,Fog"
"1983-04-07 12:00","1983","04","07","12:00","6.4","","6.4","","100","","33","","9","","3.2","","98.92","","","","","","Drizzle,Fog"
"1983-04-07 13:00","1983","04","07","13:00","7.1","","7.1","","100","","","","0","","6.4","","98.89","","","","","","Rain,Fog"
"1983-04-07 14:00","1983","04","07","14:00","10.5","","9.4","","93","","21","","9","","11.3","","98.79","","","","","","Mostly Cloudy"
"1983-04-07 15:00","1983","04","07","15:00","12.8","","10.6","","87","","24","","9","","12.9","","98.89","","","","","","Mostly Cloudy"
"1983-04-07 16:00","1983","04","07","16:00","15.4","","10.3","","72","","27","","19","","16.1","","98.89","","","","","","Mostly Cloudy"
"1983-04-07 17:00","1983","04","07","17:00","15.1","","9.8","","70","","26","","19","","16.1","","98.89","","","","","","Mostly Cloudy"
"1983-04-07 18:00","1983","04","07","18:00","13.9","","8.6","","70","","26","","17","","11.3","","98.96","","","","","","Mostly Cloudy"
"1983-04-07 19:00","1983","04","07","19:00","12.0","","8.3","","78","","28","","20","","11.3","","99.12","","","","","","Cloudy"
"1983-04-07 20:00","1983","04","07","20:00","10.9","","9.2","","89","","29","","17","","16.1","","99.19","","","","","","Cloudy"
"1983-04-07 21:00","1983","04","07","21:00","8.8","","6.3","","84","","30","","20","","16.1","","99.26","","","","","","Cloudy"
"1983-04-07 22:00","1983","04","07","22:00","8.0","","6.0","","87","","29","","11","","16.1","","99.32","","","","","","Cloudy"
"1983-04-07 23:00","1983","04","07","23:00","7.6","","5.5","","86","","27","","9","","25.0","","99.32","","","","","","Cloudy"
"1983-04-08 00:00","1983","04","08","00:00","6.5","","3.5","","81","","26","","11","","24.1","","99.32","","","","","","Mainly Clear"
"1983-04-08 01:00","1983","04","08","01:00","5.3","","2.9","","85","","26","","24","","16.1","","99.39","","","","","","Clear"
"1983-04-08 02:00","1983","04","08","02:00","4.4","","1.8","","83","","29","","11","","16.1","","99.36","","","","","","Mostly Cloudy"
"1983-04-08 03:00","1983","04","08","03:00","3.7","","1.7","","87","","29","","9","","12.9","","99.46","","","","","","Mainly Clear"
"1983-04-08 04:00","1983","04","08","04:00","3.5","","0.7","","82","","30","","11","","24.1","","99.49","","","","","","Mainly Clear"
"1983-04-08 05:00","1983","04","08","05:00","2.4","","1.1","","91","","28","","9","","25.0","","99.56","","","","","","Mainly Clear"
"1983-04-08 06:00","1983","04","08","06:00","1.0","","-0.5","","90","","29","","7","","24.1","","99.56","","","","","","Mainly Clear"
"1983-04-08 07:00","1983","04","08","07:00","2.3","","0.1","","86","","28","","4","","24.1","","99.62","","","","","","Mainly Clear"
"1983-04-08 08:00","1983","04","08","08:00","4.0","","0.3","","77","","30","","9","","32.2","","99.69","","","","","","Mostly Cloudy"
"1983-04-08 09:00","1983","04","08","09:00","4.5","","-0.2","","71","","34","","11","","32.2","","99.69","","","","","","Cloudy"
"1983-04-08 10:00","1983","04","08","10:00","5.1","","-0.7","","66","","29","","9","","40.2","","99.69","","","","","","Mostly Cloudy"
"1983-04-08 11:00","1983","04","08","11:00","6.4","","0.6","","66","","35","","6","","40.2","","99.69","","","","","","Cloudy"
"1983-04-08 12:00","1983","04","08","12:00","6.3","","2.1","","75","","34","","9","","40.2","","99.69","","","","","","Cloudy"
"1983-04-08 13:00","1983","04","08","13:00","7.1","","0.2","","62","","1","","11","","40.2","","99.69","","","","","","Cloudy"
"1983-04-08 14:00","1983","04","08","14:00","7.1","","1.2","","66","","3","","15","","32.2","","99.69","","","","","","Cloudy"
"1983-04-08 15:00","1983","04","08","15:00","7.7","","1.3","","64","","34","","13","","32.2","","99.69","","","","","","Mostly Cloudy"
"1983-04-08 16:00","1983","04","08","16:00","7.5","","1.8","","67","","1","","13","","32.2","","99.66","","","","","","Mostly Cloudy"
"1983-04-08 17:00","1983","04","08","17:00","7.4","","0.8","","63","","36","","17","","32.2","","99.69","","","","","","Mostly Cloudy"
"1983-04-08 18:00","1983","04","08","18:00","6.4","","1.1","","69","","2","","20","","32.2","","99.72","","","","","","Mostly Cloudy"
"1983-04-08 19:00","1983","04","08","19:00","5.0","","-0.2","","69","","3","","24","","25.0","","99.79","","","","","","Mostly Cloudy"
"1983-04-08 20:00","1983","04","08","20:00","4.0","","-0.8","","71","","1","","20","","25.0","","99.86","","","","","","Mostly Cloudy"
"1983-04-08 21:00","1983","04","08","21:00","3.3","","-0.3","","77","","36","","11","","25.0","","99.89","","","","","","Clear"
"1983-04-08 22:00","1983","04","08","22:00","2.6","","-0.4","","81","","36","","19","","25.0","","99.92","","","","","","Clear"
"1983-04-08 23:00","1983","04","08","23:00","1.8","","0.1","","89","","35","","20","","25.0","","99.96","","","","","","Clear"
"1983-04-09 00:00","1983","04","09","00:00","1.4","","-0.5","","87","","36","","15","","25.0","","99.99","","","","","","Clear"
"1983-04-09 01:00","1983","04","09","01:00","0.9","","-0.5","","90","","36","","13","","25.0","","99.96","","","","","","Clear"
"1983-04-09 02:00","1983","04","09","02:00","0.2","","-0.8","","93","","36","","11","","25.0","","99.92","","","","","","Clear"
"1983-04-09 03:00","1983","04","09","03:00","0.5","","-0.9","","90","","1","","11","","25.0","","99.92","","","","","","Clear"
"1983-04-09 04:00","1983","04","09","04:00","1.7","","-1.5","","79","","6","","17","","25.0","","99.92","","","","","","Clear"
"1983-04-09 05:00","1983","04","09","05:00","1.4","","-2.1","","77","","6","","15","","25.0","","99.99","","","","","","Clear"
"1983-04-09 06:00","1983","04","09","06:00","1.4","","-2.4","","76","","7","","15","","32.2","","100.06","","","","","","Mostly Cloudy"
"1983-04-09 07:00","1983","04","09","07:00","1.8","","-2.1","","75","","8","","19","","40.2","","100.06","","","","","","Cloudy"
"1983-04-09 08:00","1983","04","09","08:00","2.4","","0.1","","85","","9","","26","","40.2","","100.06","","","","","","Cloudy"
"1983-04-09 09:00","1983","04","09","09:00","4.1","","-0.8","","70","","9","","26","","40.2","","100.06","","","","","","Cloudy"
"1983-04-09 10:00","1983","04","09","10:00","5.2","","-0.7","","65","","9","","35","","40.2","","100.06","","","","","","Cloudy"
"1983-04-09 11:00","1983","04","09","11:00","6.5","","-0.5","","61","","8","","39","","40.2","","99.89","","","","","","Cloudy"
"1983-04-09 12:00","1983","04","09","12:00","7.4","","-0.9","","56","","9","","33","","40.2","","99.89","","","","","","Cloudy"
"1983-04-09 13:00","1983","04","09","13:00","7.4","","-0.9","","56","","9","","41","","40.2","","99.86","","","","","","Cloudy"
"1983-04-09 14:00","1983","04","09","14:00","7.5","","-2.1","","50","","9","","30","","40.2","","99.76","","","","","","Cloudy"
"1983-04-09 15:00","1983","04","09","15:00","7.1","","-1.5","","54","","9","","31","","40.2","","99.66","","","","","","Cloudy"
"1983-04-09 16:00","1983","04","09","16:00","7.3","","-0.9","","56","","9","","22","","40.2","","99.56","","","","","","Cloudy"
"1983-04-09 17:00","1983","04","09","17:00","8.0","","-1.4","","51","","9","","24","","32.2","","99.42","","","","","","Rain Showers"
"1983-04-09 18:00","1983","04","09","18:00","8.8","","-1.1","","50","","9","","37","","32.2","","99.32","","","","","","Rain Showers"
"1983-04-09 19:00","1983","04","09","19:00","8.4","","0.5","","58","","9","","35","","9.7","","99.32","","","","","","Rain,Fog"
"1983-04-09 20:00","1983","04","09","20:00","6.8","","2.2","","73","","9","","31","","16.1","","99.29","","","","","","Rain"
"1983-04-09 21:00","1983","04","09","21:00","6.5","","1.1","","68","","9","","44","","8.0","","99.22","","","","","","Rain,Fog"
"1983-04-09 22:00","1983","04","09","22:00","5.6","","2.0","","78","","9","","41","","25.0","","99.12","","","","","","Rain"
"1983-04-09 23:00","1983","04","09","23:00","6.1","","3.0","","80","","9","","41","","25.0","","99.02","","","","","","Rain"
"1983-04-10 00:00","1983","04","10","00:00","6.4","","4.9","","90","","9","","35","","8.0","","98.92","","","","","","Rain,Fog"
"1983-04-10 01:00","1983","04","10","01:00","6.4","","5.7","","95","","9","","30","","8.0","","98.89","","","","","","Rain,Fog"
"1983-04-10 02:00","1983","04","10","02:00","6.3","","6.1","","99","","9","","19","","8.0","","98.86","","","","","","Rain,Fog"
"1983-04-10 03:00","1983","04","10","03:00","6.2","","6.2","","100","","9","","20","","6.4","","98.82","","","","","","Moderate Rain,Fog"
"1983-04-10 04:00","1983","04","10","04:00","6.4","","6.4","","100","","9","","20","","6.4","","98.82","","","","","","Rain,Fog"
"1983-04-10 05:00","1983","04","10","05:00","6.8","","6.8","","100","","13","","24","","4.8","","98.86","","","","","","Moderate Rain,Fog"
"1983-04-10 06:00","1983","04","10","06:00","6.2","","6.2","","100","","14","","19","","4.0","","98.89","","","","","","Rain,Fog"
"1983-04-10 07:00","1983","04","10","07:00","6.3","","6.3","","100","","14","","15","","1.2","","98.92","","","","","","Rain,Fog"
"1983-04-10 08:00","1983","04","10","08:00","6.5","","6.5","","100","","15","","13","","3.2","","98.92","","","","","","Rain,Fog"
"1983-04-10 09:00","1983","04","10","09:00","6.5","","6.5","","100","","15","","17","","3.2","","98.92","","","","","","Fog"
"1983-04-10 10:00","1983","04","10","10:00","6.6","","6.1","","97","","16","","15","","6.4","","98.92","","","","","","Fog"
"1983-04-10 11:00","1983","04","10","11:00","6.8","","6.2","","96","","16","","15","","16.1","","98.89","","","","","","Mostly Cloudy"
"1983-04-10 12:00","1983","04","10","12:00","8.6","","6.6","","87","","15","","20","","19.3","","98.86","","","","","","Mostly Cloudy"
"1983-04-10 13:00","1983","04","10","13:00","9.9","","7.4","","84","","15","","19","","24.1","","98.79","","","","","","Mostly Cloudy"
"1983-04-10 14:00","1983","04","10","14:00","9.7","","6.4","","80","","13","","15","","24.1","","98.72","","","","","","Mostly Cloudy"
"1983-04-10 15:00","1983","04","10","15:00","9.0","","6.3","","83","","12","","15","","24.1","","98.69","","","","","","Mostly Cloudy"
"1983-04-10 16:00","1983","04","10","16:00","8.1","","6.4","","89","","9","","15","","19.3","","98.69","","","","","","Rain Showers"
"1983-04-10 17:00","1983","04","10","17:00","6.9","","5.8","","93","","10","","15","","12.9","","98.69","","","","","","Rain Showers"
"1983-04-10 18:00","1983","04","10","18:00","6.5","","5.7","","95","","10","","19","","11.3","","98.69","","","","","","Rain Showers"
"1983-04-10 19:00","1983","04","10","19:00","5.6","","5.1","","97","","11","","15","","8.0","","98.69","","","","","","Rain Showers,Fog"
"1983-04-10 20:00","1983","04","10","20:00","5.2","","4.6","","96","","10","","11","","4.8","","98.69","","","","","","Fog"
"1983-04-10 21:00","1983","04","10","21:00","5.3","","5.1","","99","","10","","7","","6.4","","98.66","","","","","","Fog"
"1983-04-10 22:00","1983","04","10","22:00","5.0","","5.0","","100","","","","0","","4.8","","98.59","","","","","","Fog"
"1983-04-10 23:00","1983","04","10","23:00","5.0","","5.0","","100","","","","0","","4.8","","98.56","","","","","","Fog"
"1983-04-11 00:00","1983","04","11","00:00","4.9","","4.9","","100","","","","0","","6.4","","98.52","","","","","","Fog"
"1983-04-11 01:00","1983","04","11","01:00","4.8","","4.8","","100","","13","","4","","6.4","","98.52","","","","","","Fog"
"1983-04-11 02:00","1983","04","11","02:00","4.8","","4.8","","100","","","","0","","8.0","","98.42","","","","","","Fog"
"1983-04-11 03:00","1983","04","11","03:00","4.7","","4.1","","96","","28","","4","","11.3","","98.42","","","","","","Cloudy"
"1983-04-11 04:00","1983","04","11","04:00","4.4","","3.6","","95","","24","","6","","12.9","","98.42","","","","","","Cloudy"
"1983-04-11 05:00","1983","04","11","05:00","4.3","","3.6","","95","","","","0","","6.4","","98.42","","","","","","Fog"
"1983-04-11 06:00","1983","04","11","06:00","4.5","","4.1","","97","","24","","4","","3.2","","98.46","","","","","","Fog"
"1983-04-11 07:00","1983","04","11","07:00","4.6","","4.1","","97","","","","0","","3.2","","98.46","","","","","","Fog"
"1983-04-11 08:00","1983","04","11","08:00","5.1","","3.7","","91","","29","","4","","4.8","","98.49","","","","","","Fog"
"1983-04-11 09:00","1983","04","11","09:00","7.8","","4.3","","79","","31","","6","","12.9","","98.49","","","","","","Cloudy"
"1983-04-11 10:00","1983","04","11","10:00","9.1","","2.7","","64","","27","","6","","16.1","","98.49","","","","","","Cloudy"
"1983-04-11 11:00","1983","04","11","11:00","8.2","","3.4","","72","","36","","11","","19.3","","98.52","","","","","","Rain Showers"
"1983-04-11 12:00","1983","04","11","12:00","7.8","","3.9","","76","","25","","17","","19.3","","98.49","","","","","","Rain Showers"
"1983-04-11 13:00","1983","04","11","13:00","8.2","","3.9","","74","","26","","15","","12.9","","98.52","","","","","","Rain Showers"
"1983-04-11 14:00","1983","04","11","14:00","6.7","","4.0","","83","","5","","11","","19.3","","98.56","","","","","","Rain Showers"
"1983-04-11 15:00","1983","04","11","15:00","7.6","","4.2","","79","","","","0","","24.1","","98.59","","","","","","Cloudy"
"1983-04-11 16:00","1983","04","11","16:00","8.2","","2.9","","69","","29","","26","","16.1","","98.59","","","","","","Mostly Cloudy"
"1983-04-11 17:00","1983","04","11","17:00","9.2","","1.7","","59","","29","","33","","24.1","","98.62","","","","","","Mostly Cloudy"
"1983-04-11 18:00","1983","04","11","18:00","7.0","","1.2","","67","","31","","24","","24.1","","98.72","","","","","","Mainly Clear"
"1983-04-11 19:00","1983","04","11","19:00","5.6","","2.0","","78","","32","","17","","25.0","","98.82","","","","","","Mainly Clear"
"1983-04-11 20:00","1983","04","11","20:00","5.1","","1.4","","77","","30","","11","","25.0","","98.89","","","","","","Mostly Cloudy"
"1983-04-11 21:00","1983","04","11","21:00","4.5","","0.8","","77","","30","","17","","25.0","","98.96","","","","","","Mainly Clear"
"1983-04-11 22:00","1983","04","11","22:00","3.3","","1.2","","86","","28","","11","","25.0","","98.99","","","","","","Mostly Cloudy"
"1983-04-11 23:00","1983","04","11","23:00","3.5","","1.2","","85","","29","","20","","25.0","","99.02","","","","","","Mainly Clear"
"1983-04-12 00:00","1983","04","12","00:00","3.1","","1.1","","87","","29","","19","","25.0","","99.09","","","","","","Mainly Clear"
"1983-04-12 01:00","1983","04","12","01:00","2.5","","1.1","","91","","29","","17","","25.0","","99.09","","","","","","Mainly Clear"
"1983-04-12 02:00","1983","04","12","02:00","2.6","","1.1","","90","","28","","15","","25.0","","99.12","","","","","","Mostly Cloudy"
"1983-04-12 03:00","1983","04","12","03:00","2.2","","0.6","","89","","30","","15","","25.0","","99.19","","","","","","Mostly Cloudy"
"1983-04-12 04:00","1983","04","12","04:00","1.7","","0.0","","88","","32","","17","","16.1","","99.26","","","","","","Cloudy"
"1983-04-12 05:00","1983","04","12","05:00","1.7","","0.0","","88","","32","","19","","16.1","","99.32","","","","","","Cloudy"
"1983-04-12 06:00","1983","04","12","06:00","1.5","","-0.5","","87","","33","","20","","32.2","","99.39","","","","","","Mostly Cloudy"
"1983-04-12 07:00","1983","04","12","07:00","2.7","","0.1","","83","","33","","24","","32.2","","99.49","","","","","","Mostly Cloudy"
"1983-04-12 08:00","1983","04","12","08:00","2.6","","0.1","","84","","33","","26","","40.2","","99.59","","","","","","Cloudy"
"1983-04-12 09:00","1983","04","12","09:00","3.2","","0.2","","81","","36","","28","","40.2","","99.69","","","","","","Mostly Cloudy"
"1983-04-12 10:00","1983","04","12","10:00","4.1","","0.3","","76","","33","","24","","40.2","","99.72","","","","","","Mostly Cloudy"
"1983-04-12 11:00","1983","04","12","11:00","5.2","","0.4","","71","","1","","20","","40.2","","99.82","","","","","","Mainly Clear"
"1983-04-12 12:00","1983","04","12","12:00","6.5","","1.1","","68","","1","","22","","40.2","","99.86","","","","","","Mainly Clear"
"1983-04-12 13:00","1983","04","12","13:00","8.1","","1.4","","62","","34","","13","","40.2","","99.89","","","","","","Mainly Clear"
"1983-04-12 14:00","1983","04","12","14:00","9.0","","1.7","","60","","33","","13","","40.2","","99.89","","","","","","Mainly Clear"
"1983-04-12 15:00","1983","04","12","15:00","9.8","","1.9","","58","","4","","7","","40.2","","99.89","","","","","","Mainly Clear"
"1983-04-12 16:00","1983","04","12","16:00","10.1","","1.4","","55","","36","","13","","40.2","","99.86","","","","","","Mainly Clear"
"1983-04-12 17:00","1983","04","12","17:00","10.3","","1.5","","54","","32","","9","","40.2","","99.89","","","","","","Mainly Clear"
"1983-04-12 18:00","1983","04","12","18:00","9.5","","1.8","","59","","13","","6","","40.2","","99.92","","","","","","Mainly Clear"
"1983-04-12 19:00","1983","04","12","19:00","7.2","","1.7","","68","","14","","7","","25.0","","99.96","","","","","","Mainly Clear"
"1983-04-12 20:00","1983","04","12","20:00","6.3","","0.6","","67","","","","0","","25.0","","100.02","","","","","","Mainly Clear"
"1983-04-12 21:00","1983","04","12","21:00","4.6","","0.3","","73","","","","0","","25.0","","100.09","","","","","","Clear"
"1983-04-12 22:00","1983","04","12","22:00","3.8","","1.3","","84","","33","","6","","25.0","","100.12","","","","","","Clear"
"1983-04-12 23:00","1983","04","12","23:00","3.5","","1.2","","85","","35","","11","","25.0","","100.12","","","","","","Clear"
"1983-04-13 00:00","1983","04","13","00:00","3.1","","1.6","","90","","3","","9","","25.0","","100.12","","","","","","Clear"
"1983-04-13 01:00","1983","04","13","01:00","2.2","","0.1","","86","","4","","9","","25.0","","100.16","","","","","","Clear"
"1983-04-13 02:00","1983","04","13","02:00","1.4","","0.0","","90","","","","0","","25.0","","100.16","","","","","","Clear"
"1983-04-13 03:00","1983","04","13","03:00","1.2","","-0.5","","88","","9","","15","","25.0","","100.16","","","","","","Clear"
"1983-04-13 04:00","1983","04","13","04:00","1.6","","0.0","","89","","9","","17","","25.0","","100.16","","","","","","Clear"
"1983-04-13 05:00","1983","04","13","05:00","1.7","","0.0","","88","","10","","9","","25.0","","100.16","","","","","","Clear"
"1983-04-13 06:00","1983","04","13","06:00","2.2","","0.6","","89","","9","","17","","12.9","","100.12","","","","","","Mainly Clear"
"1983-04-13 07:00","1983","04","13","07:00","3.2","","1.6","","89","","12","","19","","4.8","","100.09","","","","","","Fog"
"1983-04-13 08:00","1983","04","13","08:00","4.6","","1.8","","82","","12","","31","","32.2","","100.09","","","","","","Cloudy"
"1983-04-13 09:00","1983","04","13","09:00","5.8","","0.5","","69","","12","","30","","32.2","","99.99","","","","","","Cloudy"
"1983-04-13 10:00","1983","04","13","10:00","7.1","","0.2","","62","","11","","33","","40.2","","99.99","","","","","","Cloudy"
"1983-04-13 11:00","1983","04","13","11:00","6.7","","0.6","","65","","12","","31","","32.2","","99.96","","","","","","Cloudy"
"1983-04-13 12:00","1983","04","13","12:00","6.9","","0.7","","65","","11","","17","","32.2","","99.96","","","","","","Cloudy"
"1983-04-13 13:00","1983","04","13","13:00","7.0","","0.7","","64","","9","","28","","32.2","","99.82","","","","","","Cloudy"
"1983-04-13 14:00","1983","04","13","14:00","9.0","","1.1","","58","","10","","26","","32.2","","99.76","","","","","","Cloudy"
"1983-04-13 15:00","1983","04","13","15:00","8.5","","1.0","","59","","10","","24","","32.2","","99.72","","","","","","Cloudy"
"1983-04-13 16:00","1983","04","13","16:00","7.8","","2.4","","69","","10","","28","","32.2","","99.59","","","","","","Mostly Cloudy"
"1983-04-13 17:00","1983","04","13","17:00","8.7","","2.0","","63","","10","","30","","32.2","","99.56","","","","","","Mostly Cloudy"
"1983-04-13 18:00","1983","04","13","18:00","8.5","","2.0","","64","","10","","19","","32.2","","99.56","","","","","","Mostly Cloudy"
"1983-04-13 19:00","1983","04","13","19:00","8.0","","2.4","","68","","10","","17","","25.0","","99.52","","","","","","Mostly Cloudy"
"1983-04-13 20:00","1983","04","13","20:00","8.0","","2.4","","68","","11","","6","","25.0","","99.52","","","","","","Cloudy"
"1983-04-13 21:00","1983","04","13","21:00","8.4","","3.5","","71","","6","","4","","25.0","","99.49","","","","","","Cloudy"
"1983-04-13 22:00","1983","04","13","22:00","7.8","","5.2","","84","","36","","2","","25.0","","99.46","","","","","","Cloudy"
"1983-04-13 23:00","1983","04","13","23:00","7.6","","5.1","","84","","","","0","","25.0","","99.49","","","","","","Rain Showers"
"1983-04-14 00:00","1983","04","14","00:00","7.7","","4.6","","81","","","","0","","25.0","","99.46","","","","","","Cloudy"
"1983-04-14 01:00","1983","04","14","01:00","7.3","","5.5","","88","","","","0","","25.0","","99.46","","","","","","Cloudy"
"1983-04-14 02:00","1983","04","14","02:00","7.1","","4.5","","83","","15","","7","","25.0","","99.39","","","","","","Cloudy"
"1983-04-14 03:00","1983","04","14","03:00","6.4","","5.3","","93","","18","","11","","19.3","","99.49","","","","","","Rain"
"1983-04-14 04:00","1983","04","14","04:00","6.0","","4.8","","92","","14","","13","","12.9","","99.46","","","","","","Rain"
"1983-04-14 05:00","1983","04","14","05:00","5.7","","4.2","","90","","11","","11","","11.3","","99.29","","","","","","Rain"
"1983-04-14 06:00","1983","04","14","06:00","5.7","","4.2","","90","","13","","17","","4.8","","99.36","","","","","","Rain,Fog"
"1983-04-14 07:00","1983","04","14","07:00","6.4","","4.9","","90","","13","","22","","4.8","","99.32","","","","","","Rain,Fog"
"1983-04-14 08:00","1983","04","14","08:00","8.3","","6.1","","86","","13","","15","","11.3","","99.26","","","","","","Cloudy"
"1983-04-14 09:00","1983","04","14","09:00","9.2","","5.4","","77","","13","","22","","19.3","","99.16","","","","","","Cloudy"
"1983-04-14 10:00","1983","04","14","10:00","9.8","","5.7","","76","","13","","22","","19.3","","99.09","","","","","","Cloudy"
"1983-04-14 11:00","1983","04","14","11:00","9.6","","4.7","","72","","14","","22","","24.1","","99.06","","","","","","Cloudy"
"1983-04-14 12:00","1983","04","14","12:00","9.2","","5.4","","77","","13","","17","","11.3","","98.92","","","","","","Rain"
"1983-04-14 13:00","1983","04","14","13:00","8.8","","6.7","","87","","12","","22","","9.7","","98.79","","","","","","Rain,Fog"
"1983-04-14 14:00","1983","04","14","14:00","8.4","","7.0","","91","","11","","28","","8.0","","98.66","","","","","","Rain,Fog"
"1983-04-14 15:00","1983","04","14","15:00","9.6","","6.8","","82","","12","","24","","12.9","","98.59","","","","","","Cloudy"
"1983-04-14 16:00","1983","04","14","16:00","9.9","","7.4","","84","","11","","26","","19.3","","98.49","","","","","","Cloudy"
"1983-04-14 17:00","1983","04","14","17:00","11.6","","5.7","","67","","14","","24","","19.3","","98.42","","","","","","Cloudy"
"1983-04-14 18:00","1983","04","14","18:00","11.1","","6.0","","71","","23","","6","","19.3","","98.59","","","","","","Cloudy"
"1983-04-14 19:00","1983","04","14","19:00","9.6","","7.6","","87","","","","0","","4.0","","98.62","","","","","","Rain Showers,Fog"
"1983-04-14 20:00","1983","04","14","20:00","10.6","","9.8","","95","","18","","15","","4.0","","98.69","","","","","","Moderate Rain Showers,Fog"
"1983-04-14 21:00","1983","04","14","21:00","11.2","","9.9","","91","","17","","15","","9.7","","98.72","","","","","","Rain Showers,Fog"
"1983-04-14 22:00","1983","04","14","22:00","10.3","","10.1","","99","","15","","26","","4.0","","98.69","","","","","","Rain Showers,Fog"
"1983-04-14 23:00","1983","04","14","23:00","9.7","","8.4","","91","","17","","26","","12.9","","98.62","","","","","","Rain Showers"
"1983-04-15 00:00","1983","04","15","00:00","10.2","","8.9","","91","","16","","19","","12.9","","98.69","","","","","","Rain Showers"
"1983-04-15 01:00","1983","04","15","01:00","9.8","","8.5","","92","","18","","15","","19.3","","98.69","","","","","","Cloudy"
"1983-04-15 02:00","1983","04","15","02:00","9.9","","8.5","","91","","20","","19","","24.1","","98.72","","","","","","Cloudy"
"1983-04-15 03:00","1983","04","15","03:00","8.3","","4.9","","79","","20","","17","","24.1","","98.72","","","","","","Cloudy"
"1983-04-15 04:00","1983","04","15","04:00","7.6","","3.7","","76","","19","","15","","24.1","","98.76","","","","","","Cloudy"
"1983-04-15 05:00","1983","04","15","05:00","6.7","","1.6","","70","","21","","17","","24.1","","98.82","","","","","","Cloudy"
"1983-04-15 06:00","1983","04","15","06:00","6.1","","2.0","","75","","22","","17","","32.2","","98.89","","","","","","Cloudy"
"1983-04-15 07:00","1983","04","15","07:00","6.1","","1.5","","72","","22","","17","","32.2","","98.99","","","","","","Cloudy"
"1983-04-15 08:00","1983","04","15","08:00","5.9","","1.5","","73","","25","","19","","32.2","","98.92","","","","","","Cloudy"
"1983-04-15 09:00","1983","04","15","09:00","6.1","","1.5","","72","","25","","24","","32.2","","99.02","","","","","","Cloudy"
"1983-04-15 10:00","1983","04","15","10:00","6.1","","1.5","","72","","23","","24","","32.2","","99.06","","","","","","Cloudy"
"1983-04-15 11:00","1983","04","15","11:00","6.4","","1.1","","69","","23","","30","","32.2","","99.09","","","","","","Cloudy"
"1983-04-15 12:00","1983","04","15","12:00","6.0","","1.0","","70","","24","","28","","32.2","","99.12","","","","","","Cloudy"
"1983-04-15 13:00","1983","04","15","13:00","5.4","","-0.1","","68","","23","","22","","32.2","","99.12","","","","","","Cloudy"
"1983-04-15 14:00","1983","04","15","14:00","5.1","","-0.2","","68","","24","","11","","24.1","","99.19","","","","","","Cloudy"
"1983-04-15 15:00","1983","04","15","15:00","5.4","","-0.1","","68","","22","","26","","24.1","","99.19","","","","","","Cloudy"
"1983-04-15 16:00","1983","04","15","16:00","5.2","","-0.2","","68","","26","","20","","32.2","","99.22","","","","","","Cloudy"
"1983-04-15 17:00","1983","04","15","17:00","4.9","","-0.7","","67","","27","","15","","32.2","","99.29","","","","","","Cloudy"
"1983-04-15 18:00","1983","04","15","18:00","4.0","","-0.8","","71","","27","","11","","32.2","","99.32","","","","","","Cloudy"
"1983-04-15 19:00","1983","04","15","19:00","3.7","","-1.4","","69","","25","","17","","24.1","","99.39","","","","","","Cloudy"
"1983-04-15 20:00","1983","04","15","20:00","3.0","","-1.5","","72","","29","","9","","24.1","","99.46","","","","","","Cloudy"
"1983-04-15 21:00","1983","04","15","21:00","2.8","","-0.9","","77","","26","","7","","24.1","","99.46","","","","","","Cloudy"
"1983-04-15 22:00","1983","04","15","22:00","2.7","","-1.5","","74","","28","","11","","24.1","","99.49","","","","","","Cloudy"
"1983-04-15 23:00","1983","04","15","23:00","2.4","","-2.6","","69","","28","","9","","24.1","","99.49","","","","","","Cloudy"
"1983-04-16 00:00","1983","04","16","00:00","2.0","","-2.1","","74","","25","","6","","24.1","","99.49","","","","","","Cloudy"
"1983-04-16 01:00","1983","04","16","01:00","2.0","","-2.1","","74","","30","","13","","24.1","","99.46","","","","","","Cloudy"
"1983-04-16 02:00","1983","04","16","02:00","1.8","","-2.6","","73","","28","","13","","24.1","","99.46","","","","","","Cloudy"
"1983-04-16 03:00","1983","04","16","03:00","1.5","","-2.4","","75","","27","","9","","24.1","","99.46","","","","","","Cloudy"
"1983-04-16 04:00","1983","04","16","04:00","1.5","","-2.1","","77","","24","","7","","24.1","","99.46","","","","","","Cloudy"
"1983-04-16 05:00","1983","04","16","05:00","1.4","","-1.5","","81","","25","","7","","24.1","","99.46","","","","","","Cloudy"
"1983-04-16 06:00","1983","04","16","06:00","1.0","","-1.5","","83","","31","","11","","24.1","","99.49","","","","","","Mostly Cloudy"
"1983-04-16 07:00","1983","04","16","07:00","1.1","","-1.5","","83","","26","","6","","32.2","","99.52","","","","","","Mostly Cloudy"
"1983-04-16 08:00","1983","04","16","08:00","2.3","","-1.5","","76","","26","","15","","24.1","","99.52","","","","","","Mainly Clear"
"1983-04-16 09:00","1983","04","16","09:00","3.0","","-3.8","","61","","27","","11","","32.2","","99.49","","","","","","Mainly Clear"
"1983-04-16 10:00","1983","04","16","10:00","3.9","","-3.2","","60","","25","","15","","40.2","","99.49","","","","","","Mostly Cloudy"
"1983-04-16 11:00","1983","04","16","11:00","4.8","","-3.1","","57","","27","","15","","40.2","","99.46","","","","","","Mostly Cloudy"
"1983-04-16 12:00","1983","04","16","12:00","4.6","","-3.1","","57","","28","","19","","40.2","","99.42","","","","","","Snow Showers"
"1983-04-16 13:00","1983","04","16","13:00","4.3","","-0.8","","70","","27","","17","","40.2","","99.42","","","","","","Mostly Cloudy"
"1983-04-16 14:00","1983","04","16","14:00","4.7","","-4.4","","52","","25","","20","","40.2","","99.39","","","","","","Mostly Cloudy"
"1983-04-16 15:00","1983","04","16","15:00","5.3","","-3.7","","52","","29","","22","","32.2","","99.39","","","","","","Mostly Cloudy"
"1983-04-16 16:00","1983","04","16","16:00","4.6","","-4.4","","52","","29","","24","","40.2","","99.42","","","","","","Mostly Cloudy"
"1983-04-16 17:00","1983","04","16","17:00","4.4","","-4.4","","53","","31","","22","","40.2","","99.49","","","","","","Mostly Cloudy"
"1983-04-16 18:00","1983","04","16","18:00","3.7","","-5.9","","49","","29","","24","","40.2","","99.49","","","","","","Mainly Clear"
"1983-04-16 19:00","1983","04","16","19:00","2.5","","-6.6","","51","","30","","22","","40.2","","99.56","","","","","","Mainly Clear"
"1983-04-16 20:00","1983","04","16","20:00","0.4","","-4.4","","70","","32","","9","","25.0","","99.56","","","","","","Clear"
"1983-04-16 21:00","1983","04","16","21:00","-0.7","","-5.3","","71","","3","","9","","25.0","","99.56","","","","-4","","Clear"
"1983-04-16 22:00","1983","04","16","22:00","-0.9","","-5.4","","71","","5","","7","","25.0","","99.49","","","","-3","","Clear"
"1983-04-16 23:00","1983","04","16","23:00","-1.0","","-5.4","","72","","4","","6","","25.0","","99.49","","","","-3","","Clear"
"1983-04-17 00:00","1983","04","17","00:00","-1.2","","-4.4","","79","","33","","2","","25.0","","99.49","","","","-2","","Clear"
"1983-04-17 01:00","1983","04","17","01:00","-1.7","","-4.5","","81","","35","","6","","25.0","","99.46","","","","-4","","Clear"
"1983-04-17 02:00","1983","04","17","02:00","-2.4","","-4.8","","84","","3","","4","","25.0","","99.32","","","","-4","","Clear"
"1983-04-17 03:00","1983","04","17","03:00","-2.5","","-4.5","","86","","3","","2","","25.0","","99.22","","","","-3","","Clear"
"1983-04-17 04:00","1983","04","17","04:00","-2.8","","-4.8","","86","","33","","6","","25.0","","99.19","","","","-5","","Clear"
"1983-04-17 05:00","1983","04","17","05:00","-3.0","","-4.5","","89","","31","","2","","25.0","","99.12","","","","-4","","Mainly Clear"
"1983-04-17 06:00","1983","04","17","06:00","-3.1","","-4.8","","88","","34","","6","","32.2","","99.16","","","","-6","","Mainly Clear"
"1983-04-17 07:00","1983","04","17","07:00","-1.6","","-3.9","","84","","4","","9","","40.2","","99.12","","","","-5","","Mainly Clear"
"1983-04-17 08:00","1983","04","17","08:00","0.5","","-4.9","","67","","5","","17","","40.2","","99.09","","","","","","Mainly Clear"
"1983-04-17 09:00","1983","04","17","09:00","1.9","","-5.3","","59","","6","","13","","40.2","","99.09","","","","","","Cloudy"
"1983-04-17 10:00","1983","04","17","10:00","2.5","","-3.9","","63","","6","","13","","40.2","","99.02","","","","","","Cloudy"
"1983-04-17 11:00","1983","04","17","11:00","3.9","","-5.1","","52","","3","","20","","40.2","","98.99","","","","","","Cloudy"
"1983-04-17 12:00","1983","04","17","12:00","4.2","","-3.2","","58","","35","","17","","40.2","","98.92","","","","","","Cloudy"
"1983-04-17 13:00","1983","04","17","13:00","4.8","","-1.8","","62","","35","","17","","40.2","","98.86","","","","","","Cloudy"
"1983-04-17 14:00","1983","04","17","14:00","5.3","","-1.8","","60","","4","","15","","40.2","","98.82","","","","","","Mostly Cloudy"
"1983-04-17 15:00","1983","04","17","15:00","5.1","","-1.8","","61","","2","","15","","40.2","","98.82","","","","","","Cloudy"
"1983-04-17 16:00","1983","04","17","16:00","4.7","","-0.8","","67","","36","","19","","40.2","","98.82","","","","","","Cloudy"
"1983-04-17 17:00","1983","04","17","17:00","3.9","","-0.3","","74","","34","","30","","40.2","","98.82","","","","","","Cloudy"
"1983-04-17 18:00","1983","04","17","18:00","2.2","","-1.5","","76","","33","","30","","40.2","","98.86","","","","","","Cloudy"
"1983-04-17 19:00","1983","04","17","19:00","1.5","","-1.5","","80","","33","","28","","40.2","","98.86","","","","","","Cloudy"
"1983-04-17 20:00","1983","04","17","20:00","1.1","","0.0","","92","","33","","24","","25.0","","98.89","","","","","","Cloudy"
"1983-04-17 21:00","1983","04","17","21:00","0.4","","-2.4","","82","","32","","33","","25.0","","98.89","","","","","","Cloudy"
"1983-04-17 22:00","1983","04","17","22:00","-0.1","","-3.0","","81","","33","","39","","25.0","","98.82","","","","-7","","Cloudy"
"1983-04-17 23:00","1983","04","17","23:00","-0.4","","-2.0","","89","","33","","33","","19.3","","98.79","","","","-7","","Snow Showers"
"1983-04-18 00:00","1983","04","18","00:00","-0.4","","-2.5","","86","","33","","28","","25.0","","98.79","","","","-7","","Cloudy"
"1983-04-18 01:00","1983","04","18","01:00","-0.4","","-2.3","","87","","32","","22","","25.0","","98.72","","","","-6","","Snow Showers"
"1983-04-18 02:00","1983","04","18","02:00","-0.4","","-2.8","","84","","32","","22","","25.0","","98.69","","","","-6","","Cloudy"
"1983-04-18 03:00","1983","04","18","03:00","-0.5","","-2.4","","87","","32","","20","","4.8","","98.62","","","","-6","","Snow Showers"
"1983-04-18 04:00","1983","04","18","04:00","-0.9","","-2.7","","87","","33","","26","","4.8","","98.59","","","","-7","","Snow Showers"
"1983-04-18 05:00","1983","04","18","05:00","-1.2","","-3.6","","84","","36","","19","","6.4","","98.59","","","","-7","","Snow Showers"
"1983-04-18 06:00","1983","04","18","06:00","-1.4","","-4.2","","81","","34","","17","","16.1","","98.59","","","","-7","","Snow"
"1983-04-18 07:00","1983","04","18","07:00","-1.3","","-4.2","","80","","34","","24","","16.1","","98.59","","","","-7","","Snow"
"1983-04-18 08:00","1983","04","18","08:00","-1.5","","-3.3","","88","","34","","28","","12.9","","98.59","","","","-8","","Snow"
"1983-04-18 09:00","1983","04","18","09:00","-1.0","","-3.8","","81","","33","","30","","16.1","","98.59","","","","-8","","Snow"
"1983-04-18 10:00","1983","04","18","10:00","-0.6","","-3.2","","82","","34","","28","","16.1","","98.59","","","","-7","","Snow"
"1983-04-18 11:00","1983","04","18","11:00","0.1","","-3.0","","80","","35","","28","","24.1","","98.59","","","","","","Mostly Cloudy"
"1983-04-18 12:00","1983","04","18","12:00","0.9","","-2.4","","79","","34","","30","","32.2","","98.56","","","","","","Cloudy"
"1983-04-18 13:00","1983","04","18","13:00","1.5","","-2.4","","75","","32","","28","","32.2","","98.52","","","","","","Cloudy"
"1983-04-18 14:00","1983","04","18","14:00","1.7","","-2.4","","74","","30","","22","","32.2","","98.49","","","","","","Cloudy"
"1983-04-18 15:00","1983","04","18","15:00","1.9","","-2.6","","72","","33","","24","","32.2","","98.46","","","","","","Cloudy"
"1983-04-18 16:00","1983","04","18","16:00","1.5","","-2.4","","75","","32","","22","","32.2","","98.49","","","","","","Mostly Cloudy"
"1983-04-18 17:00","1983","04","18","17:00","0.7","","-3.1","","75","","34","","26","","32.2","","98.49","","","","","","Mostly Cloudy"
"1983-04-18 18:00","1983","04","18","18:00","0.6","","-4.3","","70","","34","","19","","32.2","","98.52","","","","","","Cloudy"
"1983-04-18 19:00","1983","04","18","19:00","0.2","","-5.0","","68","","33","","20","","32.2","","98.52","","","","","","Cloudy"
"1983-04-18 20:00","1983","04","18","20:00","-0.5","","-4.7","","73","","32","","15","","25.0","","98.56","","","","-5","","Mostly Cloudy"
"1983-04-18 21:00","1983","04","18","21:00","-0.7","","-5.3","","71","","31","","13","","25.0","","98.56","","","","-5","","Mostly Cloudy"
"1983-04-18 22:00","1983","04","18","22:00","-1.0","","-5.7","","70","","29","","13","","25.0","","98.52","","","","-5","","Cloudy"
"1983-04-18 23:00","1983","04","18","23:00","-0.4","","-3.7","","78","","31","","17","","25.0","","98.56","","","","-5","","Cloudy"
"1983-04-19 00:00","1983","04","19","00:00","-0.5","","-4.7","","73","","33","","13","","25.0","","98.56","","","","-5","","Cloudy"
"1983-04-19 01:00","1983","04","19","01:00","-0.3","","-4.7","","72","","34","","9","","25.0","","98.59","","","","-3","","Cloudy"
"1983-04-19 02:00","1983","04","19","02:00","-0.5","","-4.7","","73","","35","","7","","25.0","","98.62","","","","-3","","Mostly Cloudy"
"1983-04-19 03:00","1983","04","19","03:00","-0.9","","-5.4","","71","","1","","11","","25.0","","98.62","","","","-5","","Mostly Cloudy"
"1983-04-19 04:00","1983","04","19","04:00","-1.6","","-8.5","","59","","2","","6","","25.0","","98.66","","","","-4","","Mostly Cloudy"
"1983-04-19 05:00","1983","04","19","05:00","-2.5","","-7.0","","71","","36","","7","","25.0","","98.72","","","","-5","","Mostly Cloudy"
"1983-04-19 06:00","1983","04","19","06:00","-2.9","","-5.4","","83","","35","","9","","24.1","","98.76","","","","-6","","Mainly Clear"
"1983-04-19 07:00","1983","04","19","07:00","-1.2","","-4.1","","81","","3","","9","","32.2","","98.82","","","","-4","","Mainly Clear"
"1983-04-19 08:00","1983","04","19","08:00","0.1","","-4.2","","73","","1","","6","","32.2","","98.86","","","","","","Clear"
"1983-04-19 09:00","1983","04","19","09:00","1.1","","-4.8","","65","","1","","6","","32.2","","98.86","","","","","","Mostly Cloudy"
"1983-04-19 10:00","1983","04","19","10:00","1.0","","-5.5","","62","","3","","7","","32.2","","98.89","","","","","","Mostly Cloudy"
"1983-04-19 11:00","1983","04","19","11:00","2.0","","-4.7","","61","","36","","7","","32.2","","98.86","","","","","","Mostly Cloudy"
"1983-04-19 12:00","1983","04","19","12:00","2.8","","-5.2","","56","","1","","11","","32.2","","98.82","","","","","","Mostly Cloudy"
"1983-04-19 13:00","1983","04","19","13:00","3.5","","-5.9","","50","","3","","15","","32.2","","98.82","","","","","","Cloudy"
"1983-04-19 14:00","1983","04","19","14:00","3.8","","-4.5","","55","","34","","15","","32.2","","98.79","","","","","","Cloudy"
"1983-04-19 15:00","1983","04","19","15:00","3.7","","-5.9","","49","","36","","22","","32.2","","98.72","","","","","","Cloudy"
"1983-04-19 16:00","1983","04","19","16:00","3.0","","-5.2","","55","","35","","31","","40.2","","98.76","","","","","","Cloudy"
"1983-04-19 17:00","1983","04","19","17:00","2.0","","-6.0","","55","","34","","28","","40.2","","98.76","","","","","","Cloudy"
"1983-04-19 18:00","1983","04","19","18:00","1.0","","-6.2","","58","","33","","31","","32.2","","98.72","","","","","","Cloudy"
"1983-04-19 19:00","1983","04","19","19:00","0.3","","-7.2","","57","","32","","26","","32.2","","98.72","","","","","","Cloudy"
"1983-04-19 20:00","1983","04","19","20:00","-0.2","","-5.2","","69","","32","","28","","25.0","","98.72","","","","-7","","Cloudy"
"1983-04-19 21:00","1983","04","19","21:00","-0.1","","-5.4","","67","","32","","33","","25.0","","98.69","","","","-7","","Cloudy"
"1983-04-19 22:00","1983","04","19","22:00","0.4","","-3.5","","75","","33","","30","","25.0","","98.56","","","","","","Cloudy"
"1983-04-19 23:00","1983","04","19","23:00","0.3","","-6.2","","62","","34","","33","","25.0","","98.49","","","","","","Cloudy"
"1983-04-20 00:00","1983","04","20","00:00","0.3","","-6.5","","60","","34","","35","","25.0","","98.49","","","","","","Cloudy"
"1983-04-20 01:00","1983","04","20","01:00","0.0","","-5.0","","69","","35","","41","","16.1","","98.46","","","","-7","","Snow Showers"
"1983-04-20 02:00","1983","04","20","02:00","-1.7","","-3.3","","89","","35","","30","","4.8","","98.42","","","","-9","","Snow Showers"
"1983-04-20 03:00","1983","04","20","03:00","-2.1","","-2.8","","95","","34","","31","","4.8","","98.39","","","","-9","","Snow Showers"
"1983-04-20 04:00","1983","04","20","04:00","-1.8","","-3.9","","85","","34","","37","","25.0","","98.32","","","","-10","","Snow Showers"
"1983-04-20 05:00","1983","04","20","05:00","-1.5","","-3.6","","85","","34","","35","","25.0","","98.29","","","","-9","","Cloudy"
"1983-04-20 06:00","1983","04","20","06:00","-1.5","","-3.6","","85","","35","","35","","24.1","","98.36","","","","-9","","Cloudy"
"1983-04-20 07:00","1983","04","20","07:00","-1.0","","-3.6","","82","","33","","35","","24.1","","98.39","","","","-8","","Mainly Clear"
"1983-04-20 08:00","1983","04","20","08:00","0.0","","-3.7","","76","","33","","31","","40.2","","98.39","","","","-7","","Mainly Clear"
"1983-04-20 09:00","1983","04","20","09:00","1.4","","-2.9","","73","","33","","33","","40.2","","98.39","","","","","","Mostly Cloudy"
"1983-04-20 10:00","1983","04","20","10:00","2.1","","-3.2","","68","","33","","31","","40.2","","98.36","","","","","","Mostly Cloudy"
"1983-04-20 11:00","1983","04","20","11:00","3.8","","-2.5","","63","","34","","28","","40.2","","98.32","","","","","","Mostly Cloudy"
"1983-04-20 12:00","1983","04","20","12:00","5.4","","-1.2","","62","","33","","26","","40.2","","98.29","","","","","","Cloudy"
"1983-04-20 13:00","1983","04","20","13:00","5.1","","-1.8","","61","","35","","20","","40.2","","98.29","","","","","","Cloudy"
"1983-04-20 14:00","1983","04","20","14:00","6.2","","-1.1","","59","","29","","28","","40.2","","98.22","","","","","","Cloudy"
"1983-04-20 15:00","1983","04","20","15:00","6.3","","-1.0","","60","","32","","24","","40.2","","98.22","","","","","","Cloudy"
"1983-04-20 16:00","1983","04","20","16:00","6.5","","-1.6","","56","","31","","37","","32.2","","98.19","","","","","","Cloudy"
"1983-04-20 17:00","1983","04","20","17:00","5.9","","-1.7","","58","","30","","39","","32.2","","98.22","","","","","","Cloudy"
"1983-04-20 18:00","1983","04","20","18:00","4.5","","-3.1","","58","","29","","31","","32.2","","98.29","","","","","","Cloudy"
"1983-04-20 19:00","1983","04","20","19:00","3.1","","-3.2","","63","","30","","30","","32.2","","98.36","","","","","","Cloudy"
"1983-04-20 20:00","1983","04","20","20:00","2.4","","-3.9","","63","","29","","30","","25.0","","98.42","","","","","","Cloudy"
"1983-04-20 21:00","1983","04","20","21:00","2.4","","-3.9","","63","","28","","31","","25.0","","98.39","","","","","","Cloudy"
"1983-04-20 22:00","1983","04","20","22:00","2.6","","-3.9","","62","","29","","35","","25.0","","98.36","","","","","","Cloudy"
"1983-04-20 23:00","1983","04","20","23:00","2.9","","-4.5","","58","","28","","26","","25.0","","98.36","","","","","","Cloudy"
"1983-04-21 00:00","1983","04","21","00:00","2.4","","-3.9","","63","","28","","19","","25.0","","98.32","","","","","","Cloudy"
"1983-04-21 01:00","1983","04","21","01:00","2.3","","-3.9","","64","","29","","19","","25.0","","98.32","","","","","","Cloudy"
"1983-04-21 02:00","1983","04","21","02:00","2.3","","-3.2","","67","","30","","19","","25.0","","98.29","","","","","","Cloudy"
"1983-04-21 03:00","1983","04","21","03:00","1.4","","-1.5","","81","","34","","9","","25.0","","98.32","","","","","","Cloudy"
"1983-04-21 04:00","1983","04","21","04:00","1.0","","-1.0","","86","","25","","4","","25.0","","98.32","","","","","","Cloudy"
"1983-04-21 05:00","1983","04","21","05:00","1.3","","-1.0","","85","","26","","7","","25.0","","98.32","","","","","","Cloudy"
"1983-04-21 06:00","1983","04","21","06:00","1.7","","-1.5","","79","","27","","13","","24.1","","98.36","","","","","","Cloudy"
"1983-04-21 07:00","1983","04","21","07:00","2.2","","-1.5","","76","","27","","17","","24.1","","98.39","","","","","","Cloudy"
"1983-04-21 08:00","1983","04","21","08:00","2.9","","-0.9","","76","","27","","20","","32.2","","98.42","","","","","","Cloudy"
"1983-04-21 09:00","1983","04","21","09:00","3.3","","-0.9","","74","","28","","17","","32.2","","98.46","","","","","","Cloudy"
"1983-04-21 10:00","1983","04","21","10:00","3.6","","-1.4","","70","","29","","24","","32.2","","98.49","","","","","","Cloudy"
"1983-04-21 11:00","1983","04","21","11:00","3.6","","-1.4","","70","","28","","24","","32.2","","98.49","","","","","","Rain Showers"
"1983-04-21 12:00","1983","04","21","12:00","3.6","","-0.9","","72","","27","","28","","19.3","","98.52","","","","","","Rain Showers"
"1983-04-21 13:00","1983","04","21","13:00","3.6","","0.2","","78","","33","","22","","24.1","","98.59","","","","","","Rain Showers,Snow Showers"
"1983-04-21 14:00","1983","04","21","14:00","3.9","","0.8","","80","","31","","24","","32.2","","98.59","","","","","","Cloudy"
"1983-04-21 15:00","1983","04","21","15:00","3.7","","0.7","","81","","2","","19","","32.2","","98.66","","","","","","Cloudy"
"1983-04-21 16:00","1983","04","21","16:00","3.0","","0.7","","85","","36","","20","","32.2","","98.72","","","","","","Cloudy"
"1983-04-21 17:00","1983","04","21","17:00","2.6","","-0.4","","81","","35","","15","","32.2","","98.79","","","","","","Cloudy"
"1983-04-21 18:00","1983","04","21","18:00","2.1","","-1.5","","77","","36","","9","","32.2","","98.86","","","","","","Cloudy"
"1983-04-21 19:00","1983","04","21","19:00","1.8","","-1.5","","79","","36","","24","","32.2","","98.96","","","","","","Cloudy"
"1983-04-21 20:00","1983","04","21","20:00","1.2","","-2.4","","77","","33","","13","","25.0","","99.06","","","","","","Cloudy"
"1983-04-21 21:00","1983","04","21","21:00","0.5","","-2.0","","83","","36","","15","","25.0","","99.06","","","","","","Mostly Cloudy"
"1983-04-21 22:00","1983","04","21","22:00","0.4","","-2.1","","83","","35","","11","","25.0","","99.09","","","","","","Mostly Cloudy"
"1983-04-21 23:00","1983","04","21","23:00","-0.6","","-2.9","","85","","34","","11","","25.0","","99.09","","","","-4","","Mostly Cloudy"
"1983-04-22 00:00","1983","04","22","00:00","-1.0","","-3.0","","86","","33","","11","","25.0","","99.12","","","","-5","","Mostly Cloudy"
"1983-04-22 01:00","1983","04","22","01:00","-1.6","","-2.5","","94","","34","","9","","25.0","","99.16","","","","-5","","Mostly Cloudy"
"1983-04-22 02:00","1983","04","22","02:00","-2.1","","-3.1","","93","","33","","7","","25.0","","99.19","","","","-5","","Mostly Cloudy"
"1983-04-22 03:00","1983","04","22","03:00","-2.5","","-3.7","","91","","30","","4","","25.0","","99.19","","","","-4","","Mainly Clear"
"1983-04-22 04:00","1983","04","22","04:00","-2.7","","-3.9","","92","","30","","4","","25.0","","99.22","","","","-4","","Mainly Clear"
"1983-04-22 05:00","1983","04","22","05:00","-2.5","","-3.7","","91","","27","","2","","25.0","","99.29","","","","-3","","Mostly Cloudy"
"1983-04-22 06:00","1983","04","22","06:00","-1.9","","-2.5","","96","","32","","2","","19.3","","99.39","","","","-3","","Mostly Cloudy"
"1983-04-22 07:00","1983","04","22","07:00","-0.4","","-1.5","","92","","","","0","","24.1","","99.42","","","","","","Mostly Cloudy"
"1983-04-22 08:00","1983","04","22","08:00","1.1","","-2.4","","77","","","","0","","40.2","","99.46","","","","","","Mostly Cloudy"
"1983-04-22 09:00","1983","04","22","09:00","1.6","","-2.4","","75","","24","","4","","40.2","","99.49","","","","","","Mostly Cloudy"
"1983-04-22 10:00","1983","04","22","10:00","3.0","","-2.0","","70","","30","","9","","40.2","","99.49","","","","","","Mostly Cloudy"
"1983-04-22 11:00","1983","04","22","11:00","4.6","","-1.3","","66","","27","","11","","40.2","","99.46","","","","","","Mainly Clear"
"1983-04-22 12:00","1983","04","22","12:00","5.5","","-1.8","","59","","32","","6","","32.2","","99.39","","","","","","Clear"
"1983-04-22 13:00","1983","04","22","13:00","7.4","","-0.9","","56","","32","","4","","32.2","","99.32","","","","","","Mainly Clear"
"1983-04-22 14:00","1983","04","22","14:00","8.6","","-0.7","","52","","16","","9","","32.2","","99.29","","","","","","Mainly Clear"
"1983-04-22 15:00","1983","04","22","15:00","9.5","","0.2","","52","","17","","9","","32.2","","99.22","","","","","","Mainly Clear"
"1983-04-22 16:00","1983","04","22","16:00","10.5","","0.4","","50","","17","","7","","32.2","","99.19","","","","","","Mainly Clear"
"1983-04-22 17:00","1983","04","22","17:00","9.5","","0.2","","52","","16","","9","","32.2","","99.22","","","","","","Mainly Clear"
"1983-04-22 18:00","1983","04","22","18:00","8.1","","0.9","","60","","16","","11","","24.1","","99.22","","","","","","Mostly Cloudy"
"1983-04-22 19:00","1983","04","22","19:00","7.4","","0.8","","63","","15","","6","","24.1","","99.26","","","","","","Mostly Cloudy"
"1983-04-22 20:00","1983","04","22","20:00","6.9","","1.2","","67","","31","","6","","25.0","","99.32","","","","","","Mostly Cloudy"
"1983-04-22 21:00","1983","04","22","21:00","5.2","","0.4","","71","","35","","13","","25.0","","99.39","","","","","","Mainly Clear"
"1983-04-22 22:00","1983","04","22","22:00","4.0","","0.3","","77","","35","","7","","25.0","","99.39","","","","","","Mainly Clear"
"1983-04-22 23:00","1983","04","22","23:00","2.2","","-0.4","","83","","33","","11","","25.0","","99.39","","","","","","Mainly Clear"
"1983-04-23 00:00","1983","04","23","00:00","1.7","","-1.5","","79","","33","","11","","25.0","","99.39","","","","","","Clear"
"1983-04-23 01:00","1983","04","23","01:00","0.9","","-1.5","","84","","34","","11","","25.0","","99.39","","","","","","Clear"
"1983-04-23 02:00","1983","04","23","02:00","0.4","","-2.1","","83","","32","","7","","25.0","","99.39","","","","","","Clear"
"1983-04-23 03:00","1983","04","23","03:00","0.2","","-2.1","","84","","33","","9","","25.0","","99.32","","","","","","Clear"
"1983-04-23 04:00","1983","04","23","04:00","0.1","","-1.9","","86","","34","","9","","25.0","","99.29","","","","","","Clear"
"1983-04-23 05:00","1983","04","23","05:00","-0.6","","-2.1","","90","","28","","6","","25.0","","99.36","","","","-3","","Clear"
"1983-04-23 06:00","1983","04","23","06:00","-1.0","","-2.7","","88","","27","","4","","32.2","","99.42","","","","-2","","Clear"
"1983-04-23 07:00","1983","04","23","07:00","0.9","","-1.0","","87","","","","0","","32.2","","99.49","","","","","","Clear"
"1983-04-23 08:00","1983","04","23","08:00","2.1","","-0.4","","83","","","","0","","32.2","","99.52","","","","","","Clear"
"1983-04-23 09:00","1983","04","23","09:00","5.1","","0.4","","71","","","","0","","32.2","","99.46","","","","","","Clear"
"1983-04-23 10:00","1983","04","23","10:00","8.4","","-0.7","","53","","","","0","","32.2","","99.42","","","","","","Mainly Clear"
"1983-04-23 11:00","1983","04","23","11:00","10.0","","-1.5","","45","","12","","4","","32.2","","99.42","","","","","","Mainly Clear"
"1983-04-23 12:00","1983","04","23","12:00","10.6","","-0.8","","45","","27","","4","","32.2","","99.29","","","","","","Mainly Clear"
"1983-04-23 13:00","1983","04","23","13:00","10.4","","-0.8","","46","","14","","17","","32.2","","99.29","","","","","","Mainly Clear"
"1983-04-23 14:00","1983","04","23","14:00","10.1","","-1.5","","44","","15","","15","","32.2","","99.22","","","","","","Mainly Clear"
"1983-04-23 15:00","1983","04","23","15:00","11.0","","0.0","","47","","15","","17","","32.2","","99.19","","","","","","Mainly Clear"
"1983-04-23 16:00","1983","04","23","16:00","10.2","","-1.5","","44","","15","","15","","32.2","","99.12","","","","","","Mostly Cloudy"
"1983-04-23 17:00","1983","04","23","17:00","10.1","","-0.9","","46","","14","","13","","32.2","","99.12","","","","","","Mostly Cloudy"
"1983-04-23 18:00","1983","04","23","18:00","10.0","","-0.3","","49","","13","","13","","32.2","","99.09","","","","","","Mostly Cloudy"
"1983-04-23 19:00","1983","04","23","19:00","8.5","","-1.3","","50","","12","","9","","32.2","","99.12","","","","","","Mostly Cloudy"
"1983-04-23 20:00","1983","04","23","20:00","7.5","","-0.9","","55","","11","","6","","25.0","","99.12","","","","","","Mostly Cloudy"
"1983-04-23 21:00","1983","04","23","21:00","7.0","","-1.0","","57","","2","","4","","25.0","","99.09","","","","","","Mostly Cloudy"
"1983-04-23 22:00","1983","04","23","22:00","5.6","","-1.8","","59","","34","","13","","25.0","","99.02","","","","","","Cloudy"
"1983-04-23 23:00","1983","04","23","23:00","3.9","","-1.4","","68","","35","","11","","25.0","","99.02","","","","","","Cloudy"
"1983-04-24 00:00","1983","04","24","00:00","3.3","","0.2","","80","","35","","19","","25.0","","98.99","","","","","","Mostly Cloudy"
"1983-04-24 01:00","1983","04","24","01:00","3.4","","0.7","","83","","36","","13","","25.0","","98.92","","","","","","Mostly Cloudy"
"1983-04-24 02:00","1983","04","24","02:00","3.4","","0.7","","83","","36","","11","","25.0","","98.92","","","","","","Cloudy"
"1983-04-24 03:00","1983","04","24","03:00","3.2","","0.7","","84","","36","","15","","25.0","","98.89","","","","","","Cloudy"
"1983-04-24 04:00","1983","04","24","04:00","2.7","","0.1","","83","","1","","11","","24.1","","98.82","","","","","","Cloudy"
"1983-04-24 05:00","1983","04","24","05:00","3.5","","0.7","","82","","3","","13","","19.3","","98.86","","","","","","Cloudy"
"1983-04-24 06:00","1983","04","24","06:00","3.8","","0.3","","78","","1","","19","","32.2","","98.86","","","","","","Cloudy"
"1983-04-24 07:00","1983","04","24","07:00","4.3","","-0.2","","72","","3","","20","","32.2","","98.89","","","","","","Mostly Cloudy"
"1983-04-24 08:00","1983","04","24","08:00","5.1","","-0.2","","68","","3","","24","","32.2","","98.82","","","","","","Mostly Cloudy"
"1983-04-24 09:00","1983","04","24","09:00","7.0","","-0.4","","59","","4","","22","","40.2","","98.76","","","","","","Mostly Cloudy"
"1983-04-24 10:00","1983","04","24","10:00","8.3","","-0.7","","53","","1","","24","","40.2","","98.76","","","","","","Mostly Cloudy"
"1983-04-24 11:00","1983","04","24","11:00","9.0","","0.0","","53","","2","","26","","40.2","","98.69","","","","","","Mostly Cloudy"
"1983-04-24 12:00","1983","04","24","12:00","9.2","","-0.5","","51","","1","","28","","40.2","","98.62","","","","","","Cloudy"
"1983-04-24 13:00","1983","04","24","13:00","10.6","","-2.7","","39","","1","","30","","40.2","","98.59","","","","","","Cloudy"
"1983-04-24 14:00","1983","04","24","14:00","10.5","","-4.1","","35","","36","","35","","40.2","","98.49","","","","","","Cloudy"
"1983-04-24 15:00","1983","04","24","15:00","10.6","","-8.2","","26","","1","","37","","40.2","","98.39","","","","","","Cloudy"
"1983-04-24 16:00","1983","04","24","16:00","10.9","","-7.1","","27","","2","","35","","40.2","","98.32","","","","","","Cloudy"
"1983-04-24 17:00","1983","04","24","17:00","10.1","","-2.8","","40","","35","","35","","40.2","","98.32","","","","","","Cloudy"
"1983-04-24 18:00","1983","04","24","18:00","8.3","","-2.5","","46","","34","","37","","40.2","","98.32","","","","","","Cloudy"
"1983-04-24 19:00","1983","04","24","19:00","6.7","","-3.5","","48","","34","","31","","40.2","","98.36","","","","","","Cloudy"
"1983-04-24 20:00","1983","04","24","20:00","4.9","","-3.1","","56","","34","","28","","25.0","","98.39","","","","","","Cloudy"
"1983-04-24 21:00","1983","04","24","21:00","3.7","","-3.2","","60","","35","","24","","25.0","","98.39","","","","","","Mostly Cloudy"
"1983-04-24 22:00","1983","04","24","22:00","3.6","","-3.2","","61","","34","","26","","25.0","","98.39","","","","","","Mostly Cloudy"
"1983-04-24 23:00","1983","04","24","23:00","2.9","","-2.6","","67","","34","","26","","25.0","","98.36","","","","","","Mainly Clear"
"1983-04-25 00:00","1983","04","25","00:00","2.2","","-3.2","","67","","34","","20","","25.0","","98.32","","","","","","Mainly Clear"
"1983-04-25 01:00","1983","04","25","01:00","2.0","","-3.2","","68","","34","","22","","25.0","","98.26","","","","","","Mainly Clear"
"1983-04-25 02:00","1983","04","25","02:00","1.2","","-3.6","","70","","34","","30","","25.0","","98.19","","","","","","Mostly Cloudy"
"1983-04-25 03:00","1983","04","25","03:00","1.0","","-4.2","","68","","34","","24","","19.3","","98.19","","","","","","Mostly Cloudy"
"1983-04-25 04:00","1983","04","25","04:00","0.4","","-4.1","","72","","34","","26","","19.3","","98.16","","","","","","Mostly Cloudy"
"1983-04-25 05:00","1983","04","25","05:00","0.0","","-4.3","","73","","33","","28","","25.0","","98.12","","","","-6","","Mostly Cloudy"
"1983-04-25 06:00","1983","04","25","06:00","-0.2","","-4.6","","72","","34","","37","","32.2","","98.16","","","","-7","","Mostly Cloudy"
"1983-04-25 07:00","1983","04","25","07:00","0.0","","-5.0","","69","","33","","39","","32.2","","98.16","","","","-7","","Mostly Cloudy"
"1983-04-25 08:00","1983","04","25","08:00","0.9","","-3.6","","72","","34","","35","","32.2","","98.19","","","","","","Cloudy"
"1983-04-25 09:00","1983","04","25","09:00","1.7","","-3.5","","68","","34","","39","","32.2","","98.19","","","","","","Cloudy"
"1983-04-25 10:00","1983","04","25","10:00","3.0","","-0.4","","78","","34","","35","","32.2","","98.19","","","","","","Cloudy"
"1983-04-25 11:00","1983","04","25","11:00","4.0","","-0.8","","71","","34","","43","","32.2","","98.19","","","","","","Cloudy"
"1983-04-25 12:00","1983","04","25","12:00","5.6","","1.0","","72","","34","","35","","32.2","","98.19","","","","","","Cloudy"
"1983-04-25 13:00","1983","04","25","13:00","6.8","","1.7","","70","","35","","37","","32.2","","98.19","","","","","","Cloudy"
"1983-04-25 14:00","1983","04","25","14:00","7.5","","1.3","","65","","33","","39","","32.2","","98.19","","","","","","Cloudy"
"1983-04-25 15:00","1983","04","25","15:00","8.3","","2.0","","65","","34","","39","","40.2","","98.19","","","","","","Cloudy"
"1983-04-25 16:00","1983","04","25","16:00","8.9","","-3.0","","43","","34","","39","","40.2","","98.19","","","","","","Cloudy"
"1983-04-25 17:00","1983","04","25","17:00","8.1","","-5.4","","38","","34","","30","","40.2","","98.26","","","","","","Mostly Cloudy"
"1983-04-25 18:00","1983","04","25","18:00","8.8","","-4.4","","39","","34","","31","","40.2","","98.29","","","","","","Mostly Cloudy"
"1983-04-25 19:00","1983","04","25","19:00","7.9","","-4.7","","40","","33","","26","","40.2","","98.29","","","","","","Mostly Cloudy"
"1983-04-25 20:00","1983","04","25","20:00","6.1","","-5.0","","45","","31","","20","","25.0","","98.36","","","","","","Mostly Cloudy"
"1983-04-25 21:00","1983","04","25","21:00","4.9","","-4.4","","51","","30","","20","","25.0","","98.39","","","","","","Mainly Clear"
"1983-04-25 22:00","1983","04","25","22:00","2.5","","-3.9","","63","","30","","13","","25.0","","98.46","","","","","","Mainly Clear"
"1983-04-25 23:00","1983","04","25","23:00","2.5","","-3.9","","63","","32","","15","","25.0","","98.46","","","","","","Mainly Clear"
"1983-04-26 00:00","1983","04","26","00:00","2.0","","-4.7","","61","","27","","7","","25.0","","98.52","","","","","","Mainly Clear"
"1983-04-26 01:00","1983","04","26","01:00","2.5","","-4.6","","59","","24","","7","","25.0","","98.59","","","","","","Clear"
"1983-04-26 02:00","1983","04","26","02:00","1.4","","-4.1","","67","","34","","9","","25.0","","98.59","","","","","","Clear"
"1983-04-26 03:00","1983","04","26","03:00","0.8","","-3.6","","72","","33","","15","","25.0","","98.62","","","","","","Clear"
"1983-04-26 04:00","1983","04","26","04:00","0.7","","-4.9","","66","","34","","11","","25.0","","98.69","","","","","","Clear"
"1983-04-26 05:00","1983","04","26","05:00","-0.2","","-3.7","","77","","34","","11","","25.0","","98.76","","","","-4","","Clear"
"1983-04-26 06:00","1983","04","26","06:00","-0.7","","-3.5","","81","","32","","9","","32.2","","98.82","","","","-4","","Clear"
"1983-04-26 07:00","1983","04","26","07:00","3.1","","-1.5","","72","","29","","7","","40.2","","98.92","","","","","","Clear"
"1983-04-26 08:00","1983","04","26","08:00","7.6","","-3.4","","46","","33","","15","","40.2","","98.96","","","","","","Clear"
"1983-04-26 09:00","1983","04","26","09:00","10.4","","-4.1","","36","","31","","13","","40.2","","98.99","","","","","","Clear"
"1983-04-26 10:00","1983","04","26","10:00","12.9","","-3.3","","32","","34","","17","","40.2","","98.96","","","","","","Clear"
"1983-04-26 11:00","1983","04","26","11:00","15.3","","-1.6","","31","","32","","13","","40.2","","98.96","","","","","","Clear"
"1983-04-26 12:00","1983","04","26","12:00","16.8","","-0.9","","30","","33","","7","","40.2","","98.89","","","","","","Clear"
"1983-04-26 13:00","1983","04","26","13:00","20.1","","1.8","","30","","31","","17","","40.2","","98.82","","","","","","Clear"
"1983-04-26 14:00","1983","04","26","14:00","17.9","","0.8","","32","","20","","15","","40.2","","98.79","","","","","","Clear"
"1983-04-26 15:00","1983","04","26","15:00","21.7","","3.8","","31","","30","","26","","40.2","","98.72","","","","","","Clear"
"1983-04-26 16:00","1983","04","26","16:00","21.4","","2.6","","29","","29","","33","","40.2","","98.69","","","","","","Mainly Clear"
"1983-04-26 17:00","1983","04","26","17:00","21.0","","2.9","","30","","31","","31","","40.2","","98.72","","","","","","Mostly Cloudy"
"1983-04-26 18:00","1983","04","26","18:00","19.9","","3.0","","33","","29","","20","","40.2","","98.79","","","","","","Mostly Cloudy"
"1983-04-26 19:00","1983","04","26","19:00","18.1","","2.6","","36","","28","","17","","40.2","","98.82","","","","","","Mostly Cloudy"
"1983-04-26 20:00","1983","04","26","20:00","13.4","","3.5","","51","","31","","6","","25.0","","98.89","","","","","","Mostly Cloudy"
"1983-04-26 21:00","1983","04","26","21:00","14.9","","1.3","","40","","32","","4","","25.0","","98.89","","","","","","Mostly Cloudy"
"1983-04-26 22:00","1983","04","26","22:00","14.0","","1.5","","43","","23","","4","","25.0","","98.89","","","","","","Mainly Clear"
"1983-04-26 23:00","1983","04","26","23:00","11.6","","3.3","","57","","28","","4","","25.0","","98.89","","","","","","Mostly Cloudy"
"1983-04-27 00:00","1983","04","27","00:00","11.5","","3.3","","57","","27","","9","","25.0","","98.89","","","","","","Cloudy"
"1983-04-27 01:00","1983","04","27","01:00","11.1","","4.2","","63","","27","","6","","19.3","","98.89","","","","","","Cloudy"
"1983-04-27 02:00","1983","04","27","02:00","13.8","","6.1","","60","","26","","20","","16.1","","98.89","","","","","","Cloudy"
"1983-04-27 03:00","1983","04","27","03:00","13.1","","10.2","","83","","31","","22","","12.9","","98.89","","","","","","Rain Showers"
"1983-04-27 04:00","1983","04","27","04:00","11.9","","9.9","","88","","23","","4","","25.0","","98.82","","","","","","Cloudy"
"1983-04-27 05:00","1983","04","27","05:00","11.4","","9.7","","89","","22","","11","","25.0","","98.76","","","","","","Mostly Cloudy"
"1983-04-27 06:00","1983","04","27","06:00","10.7","","9.0","","89","","21","","7","","24.1","","98.79","","","","","","Mostly Cloudy"
"1983-04-27 07:00","1983","04","27","07:00","13.4","","9.6","","78","","18","","7","","24.1","","98.79","","","","","","Mostly Cloudy"
"1983-04-27 08:00","1983","04","27","08:00","15.0","","9.8","","71","","16","","13","","24.1","","98.72","","","","","","Mostly Cloudy"
"1983-04-27 09:00","1983","04","27","09:00","16.1","","9.7","","66","","20","","13","","32.2","","98.69","","","","","","Mostly Cloudy"
"1983-04-27 10:00","1983","04","27","10:00","17.5","","9.5","","59","","21","","11","","32.2","","98.66","","","","","","Mainly Clear"
"1983-04-27 11:00","1983","04","27","11:00","19.1","","8.0","","49","","21","","13","","24.1","","98.62","","","","","","Cloudy"
"1983-04-27 12:00","1983","04","27","12:00","20.9","","8.9","","46","","22","","15","","24.1","","98.59","","","","","","Cloudy"
"1983-04-27 13:00","1983","04","27","13:00","22.8","","10.3","","45","","23","","19","","24.1","","98.56","","","","","","Mostly Cloudy"
"1983-04-27 14:00","1983","04","27","14:00","23.2","","9.5","","42","","21","","13","","24.1","","98.52","","","","","","Clear"
"1983-04-27 15:00","1983","04","27","15:00","23.9","","11.3","","45","","25","","28","","24.1","","98.52","","26","","","","Mostly Cloudy"
"1983-04-27 16:00","1983","04","27","16:00","24.7","","11.9","","45","","26","","28","","24.1","","98.49","","27","","","","Mainly Clear"
"1983-04-27 17:00","1983","04","27","17:00","23.3","","11.8","","48","","28","","31","","24.1","","98.59","","25","","","","Mainly Clear"
"1983-04-27 18:00","1983","04","27","18:00","22.6","","8.3","","40","","28","","30","","32.2","","98.62","","","","","","Mainly Clear"
"1983-04-27 19:00","1983","04","27","19:00","20.3","","9.6","","50","","27","","17","","32.2","","98.76","","","","","","Mainly Clear"
"1983-04-27 20:00","1983","04","27","20:00","17.5","","8.7","","56","","35","","9","","25.0","","98.89","","","","","","Mainly Clear"
"1983-04-27 21:00","1983","04","27","21:00","14.1","","8.2","","68","","32","","7","","25.0","","98.96","","","","","","Clear"
"1983-04-27 22:00","1983","04","27","22:00","15.0","","7.7","","62","","","","0","","25.0","","98.99","","","","","","Clear"
"1983-04-27 23:00","1983","04","27","23:00","11.4","","8.6","","83","","29","","7","","19.3","","99.02","","","","","","Clear"
"1983-04-28 00:00","1983","04","28","00:00","11.0","","7.2","","78","","34","","17","","25.0","","99.09","","","","","","Clear"
"1983-04-28 01:00","1983","04","28","01:00","9.5","","5.1","","74","","35","","13","","25.0","","99.09","","","","","","Clear"
"1983-04-28 02:00","1983","04","28","02:00","7.1","","3.2","","76","","33","","11","","25.0","","99.12","","","","","","Mainly Clear"
"1983-04-28 03:00","1983","04","28","03:00","7.2","","1.7","","68","","34","","11","","25.0","","99.12","","","","","","Mostly Cloudy"
"1983-04-28 04:00","1983","04","28","04:00","6.5","","1.6","","71","","32","","6","","19.3","","99.19","","","","","","Mostly Cloudy"
"1983-04-28 05:00","1983","04","28","05:00","5.2","","1.9","","79","","33","","7","","25.0","","99.19","","","","","","Cloudy"
"1983-04-28 06:00","1983","04","28","06:00","6.7","","1.1","","67","","","","0","","32.2","","99.26","","","","","","Mostly Cloudy"
"1983-04-28 07:00","1983","04","28","07:00","8.3","","3.5","","72","","35","","11","","32.2","","99.32","","","","","","Mostly Cloudy"
"1983-04-28 08:00","1983","04","28","08:00","10.5","","4.0","","64","","35","","13","","32.2","","99.32","","","","","","Cloudy"
"1983-04-28 09:00","1983","04","28","09:00","11.0","","4.2","","63","","34","","7","","32.2","","99.42","","","","","","Cloudy"
"1983-04-28 10:00","1983","04","28","10:00","11.9","","5.4","","64","","5","","7","","24.1","","99.32","","","","","","Rain Showers"
"1983-04-28 11:00","1983","04","28","11:00","12.9","","4.8","","58","","5","","6","","24.1","","99.26","","","","","","Cloudy"
"1983-04-28 12:00","1983","04","28","12:00","14.8","","4.5","","50","","11","","9","","19.3","","99.09","","","","","","Cloudy"
"1983-04-28 13:00","1983","04","28","13:00","16.1","","2.9","","41","","10","","13","","24.1","","98.99","","","","","","Mostly Cloudy"
"1983-04-28 14:00","1983","04","28","14:00","16.3","","2.5","","40","","13","","22","","32.2","","98.89","","","","","","Cloudy"
"1983-04-28 15:00","1983","04","28","15:00","14.8","","1.9","","42","","8","","24","","32.2","","98.72","","","","","","Cloudy"
"1983-04-28 16:00","1983","04","28","16:00","14.0","","1.0","","41","","28","","20","","8.0","","99.02","","","","","","Thunderstorms,Rain Showers,Haze"
"1983-04-28 17:00","1983","04","28","17:00","10.0","","7.7","","86","","6","","9","","9.7","","98.86","","","","","","Moderate Rain Showers,Fog"
"1983-04-28 18:00","1983","04","28","18:00","10.2","","7.7","","84","","9","","11","","19.3","","98.76","","","","","","Rain"
"1983-04-28 19:00","1983","04","28","19:00","9.9","","8.5","","91","","34","","11","","24.1","","98.82","","","","","","Cloudy"
"1983-04-28 20:00","1983","04","28","20:00","7.0","","6.6","","97","","33","","19","","4.0","","98.92","","","","","","Drizzle,Fog"
"1983-04-28 21:00","1983","04","28","21:00","6.5","","6.1","","97","","33","","22","","11.3","","99.02","","","","","","Drizzle"
"1983-04-28 22:00","1983","04","28","22:00","6.6","","5.7","","94","","32","","24","","19.3","","99.09","","","","","","Cloudy"
"1983-04-28 23:00","1983","04","28","23:00","7.0","","5.4","","89","","31","","19","","24.1","","99.19","","","","","","Cloudy"
"1983-04-29 00:00","1983","04","29","00:00","6.5","","4.4","","86","","31","","28","","24.1","","99.29","","","","","","Cloudy"
"1983-04-29 01:00","1983","04","29","01:00","5.6","","4.2","","91","","30","","17","","25.0","","99.32","","","","","","Mostly Cloudy"
"1983-04-29 02:00","1983","04","29","02:00","4.9","","3.3","","89","","28","","11","","25.0","","99.39","","","","","","Mainly Clear"
"1983-04-29 03:00","1983","04","29","03:00","4.4","","2.7","","89","","29","","13","","25.0","","99.46","","","","","","Mainly Clear"
"1983-04-29 04:00","1983","04","29","04:00","4.1","","2.7","","91","","27","","9","","25.0","","99.52","","","","","","Clear"
"1983-04-29 05:00","1983","04","29","05:00","4.1","","2.7","","91","","25","","6","","24.1","","99.62","","","","","","Mainly Clear"
"1983-04-29 06:00","1983","04","29","06:00","4.0","","2.7","","91","","23","","7","","24.1","","99.66","","","","","","Clear"
"1983-04-29 07:00","1983","04","29","07:00","5.5","","3.8","","89","","23","","11","","24.1","","99.76","","","","","","Mainly Clear"
"1983-04-29 08:00","1983","04","29","08:00","6.6","","4.4","","86","","25","","7","","24.1","","99.76","","","","","","Mainly Clear"
"1983-04-29 09:00","1983","04","29","09:00","9.2","","5.0","","75","","28","","4","","24.1","","99.79","","","","","","Mainly Clear"
"1983-04-29 10:00","1983","04","29","10:00","10.6","","4.5","","66","","25","","4","","24.1","","99.79","","","","","","Mainly Clear"
"1983-04-29 11:00","1983","04","29","11:00","12.4","","5.1","","61","","","","0","","24.1","","99.79","","","","","","Mostly Cloudy"
"1983-04-29 12:00","1983","04","29","12:00","12.9","","3.8","","54","","15","","19","","32.2","","99.86","","","","","","Cloudy"
"1983-04-29 13:00","1983","04","29","13:00","13.1","","3.8","","53","","16","","15","","32.2","","99.79","","","","","","Cloudy"
"1983-04-29 14:00","1983","04","29","14:00","12.8","","1.7","","47","","17","","15","","32.2","","99.79","","","","","","Mostly Cloudy"
"1983-04-29 15:00","1983","04","29","15:00","13.0","","3.8","","53","","18","","15","","24.1","","99.76","","","","","","Cloudy"
"1983-04-29 16:00","1983","04","29","16:00","13.5","","4.5","","54","","13","","11","","24.1","","99.69","","","","","","Cloudy"
"1983-04-29 17:00","1983","04","29","17:00","13.5","","3.5","","51","","12","","9","","24.1","","99.62","","","","","","Cloudy"
"1983-04-29 18:00","1983","04","29","18:00","13.7","","1.4","","43","","13","","11","","24.1","","99.59","","","","","","Cloudy"
"1983-04-29 19:00","1983","04","29","19:00","13.1","","3.8","","53","","13","","7","","24.1","","99.62","","","","","","Cloudy"
"1983-04-29 20:00","1983","04","29","20:00","11.5","","4.3","","61","","14","","7","","24.1","","99.66","","","","","","Cloudy"
"1983-04-29 21:00","1983","04","29","21:00","11.1","","4.6","","64","","15","","11","","24.1","","99.66","","","","","","Cloudy"
"1983-04-29 22:00","1983","04","29","22:00","10.8","","4.2","","64","","11","","9","","24.1","","99.62","","","","","","Mostly Cloudy"
"1983-04-29 23:00","1983","04","29","23:00","9.3","","3.3","","66","","6","","7","","24.1","","99.59","","","","","","Mostly Cloudy"
"1983-04-30 00:00","1983","04","30","00:00","8.6","","3.0","","68","","8","","9","","25.0","","99.56","","","","","","Mostly Cloudy"
"1983-04-30 01:00","1983","04","30","01:00","8.6","","3.0","","68","","","","0","","25.0","","99.56","","","","","","Mostly Cloudy"
"1983-04-30 02:00","1983","04","30","02:00","7.6","","3.7","","76","","1","","4","","24.1","","99.52","","","","","","Mostly Cloudy"
"1983-04-30 03:00","1983","04","30","03:00","6.1","","3.0","","80","","","","0","","24.1","","99.52","","","","","","Mainly Clear"
"1983-04-30 04:00","1983","04","30","04:00","6.8","","3.6","","80","","","","0","","24.1","","99.49","","","","","","Mostly Cloudy"
"1983-04-30 05:00","1983","04","30","05:00","8.0","","5.2","","83","","5","","6","","19.3","","99.42","","","","","","Mostly Cloudy"
"1983-04-30 06:00","1983","04","30","06:00","8.0","","5.2","","83","","3","","4","","16.1","","99.42","","","","","","Cloudy"
"1983-04-30 07:00","1983","04","30","07:00","8.7","","6.1","","84","","9","","9","","16.1","","99.32","","","","","","Cloudy"
"1983-04-30 08:00","1983","04","30","08:00","9.8","","7.7","","87","","9","","7","","14.5","","99.29","","","","","","Cloudy"
"1983-04-30 09:00","1983","04","30","09:00","9.4","","7.2","","86","","11","","15","","11.3","","99.29","","","","","","Cloudy"
"1983-04-30 10:00","1983","04","30","10:00","9.5","","8.4","","93","","10","","19","","8.0","","99.19","","","","","","Rain,Drizzle,Fog"
"1983-04-30 11:00","1983","04","30","11:00","10.0","","9.3","","95","","12","","17","","4.8","","99.12","","","","","","Rain Showers,Fog"
"1983-04-30 12:00","1983","04","30","12:00","9.6","","9.6","","100","","11","","22","","4.0","","98.92","","","","","","Rain Showers,Fog"
"1983-04-30 13:00","1983","04","30","13:00","10.0","","10.0","","100","","15","","17","","2.0","","98.79","","","","","","Heavy Rain Showers,Fog"
"1983-04-30 14:00","1983","04","30","14:00","10.9","","10.9","","100","","14","","17","","3.2","","98.59","","","","","","Moderate Rain Showers,Fog"
"1983-04-30 15:00","1983","04","30","15:00","12.3","","12.2","","100","","18","","17","","8.0","","98.46","","","","","","Rain,Fog"
"1983-04-30 16:00","1983","04","30","16:00","14.9","","13.7","","93","","22","","30","","9.7","","98.46","","","","","","Rain,Fog"
"1983-04-30 17:00","1983","04","30","17:00","15.5","","13.9","","90","","23","","30","","16.1","","98.52","","","","","","Rain"
"1983-04-30 18:00","1983","04","30","18:00","15.3","","13.9","","91","","22","","24","","12.9","","98.52","","","","","","Cloudy"
"1983-04-30 19:00","1983","04","30","19:00","15.1","","13.4","","89","","27","","15","","12.9","","98.62","","","","","","Cloudy"
"1983-04-30 20:00","1983","04","30","20:00","13.0","","10.6","","85","","30","","26","","19.3","","98.82","","","","","","Mostly Cloudy"
"1983-04-30 21:00","1983","04","30","21:00","10.9","","8.4","","85","","31","","19","","24.1","","98.96","","","","","","Mainly Clear"
"1983-04-30 22:00","1983","04","30","22:00","9.6","","7.2","","85","","29","","11","","25.0","","99.06","","","","","","Mostly Cloudy"
"1983-04-30 23:00","1983","04","30","23:00","8.5","","6.6","","88","","30","","15","","25.0","","99.12","","","","","","Mainly Clear"
