"Station Name","TORONTO LESTER B. PEARSON INT'L A"
"Province","ONTARIO"
"Latitude","43.68"
"Longitude","-79.63"
"Elevation","173.40"
"Climate Identifier","6158733"
"WMO Identifier","71624"
"TC Identifier","YYZ"
"All times are specified in Local Standard Time (LST). Add 1 hour to adjust for Daylight Saving Time where and when it is observed."

"Legend"
"E","Estimated"
"M","Missing"
"NA","Not Available"

"Date/Time","Year","Month","Day","Time","Temp (°C)","Temp Flag","Dew Point Temp (°C)","Dew Point Temp Flag","Rel Hum (%)","Rel Hum Flag","Wind Dir (10s deg)","Wind Dir Flag","Wind Spd (km/h)","Wind Spd Flag","Visibility (km)","Visibility Flag","Stn Press (kPa)","Stn Press Flag","Hmdx","Hmdx Flag","Wind Chill","Wind Chill Flag","Weather"
"1973-07-01 00:00","1973","07","01","00:00","18.9","","14.4","","74","","20","","10","","16.1","","99.13","","","","","","Mostly Cloudy"
"1973-07-01 01:00","1973","07","01","01:00","17.2","","14.4","","85","","21","","3","","12.9","","99.16","","","","","","Mostly Cloudy"
"1973-07-01 02:00","1973","07","01","02:00","17.2","","15.0","","89","","25","","6","","12.9","","99.16","","","","","","Mostly Cloudy"
"1973-07-01 03:00","1973","07","01","03:00","16.7","","15.0","","90","","","","0","","11.3","","99.18","","","","","","Mostly Cloudy"
"1973-07-01 04:00","1973","07","01","04:00","16.7","","15.0","","90","","","","0","","9.7","","99.21","","","","","","Fog"
"1973-07-01 05:00","1973","07","01","05:00","16.7","","15.6","","92","","19","","6","","3.6","","99.26","","","","","","Fog"
"1973-07-01 06:00","1973","07","01","06:00","17.2","","15.6","","92","","21","","3","","3.6","","99.28","","","","","","Fog"
"1973-07-01 07:00","1973","07","01","07:00","18.3","","16.1","","88","","","","0","","6.4","","99.31","","","","","","Fog"
"1973-07-01 08:00","1973","07","01","08:00","19.4","","16.1","","79","","25","","5","","11.3","","99.32","","","","","","Mainly Clear"
"1973-07-01 09:00","1973","07","01","09:00","21.1","","16.1","","75","","28","","10","","12.9","","99.33","","26","","","","Mainly Clear"
"1973-07-01 10:00","1973","07","01","10:00","21.7","","16.1","","71","","32","","10","","16.1","","99.40","","26","","","","Mainly Clear"
"1973-07-01 11:00","1973","07","01","11:00","22.8","","15.0","","61","","26","","3","","19.3","","99.43","","27","","","","Mainly Clear"
"1973-07-01 12:00","1973","07","01","12:00","24.4","","16.1","","59","","24","","13","","19.3","","99.44","","29","","","","Mostly Cloudy"
"1973-07-01 13:00","1973","07","01","13:00","23.3","","15.0","","61","","22","","6","","19.3","","99.45","","27","","","","Rain Showers"
"1973-07-01 14:00","1973","07","01","14:00","23.9","","16.7","","64","","18","","10","","16.1","","99.43","","29","","","","Mostly Cloudy"
"1973-07-01 15:00","1973","07","01","15:00","25.6","","17.8","","61","","20","","13","","19.3","","99.43","","31","","","","Mainly Clear"
"1973-07-01 16:00","1973","07","01","16:00","23.9","","16.7","","63","","15","","11","","24.1","","99.41","","29","","","","Mainly Clear"
"1973-07-01 17:00","1973","07","01","17:00","25.0","","16.1","","57","","15","","10","","24.1","","99.42","","30","","","","Mainly Clear"
"1973-07-01 18:00","1973","07","01","18:00","23.9","","15.6","","60","","15","","13","","24.1","","99.41","","28","","","","Mainly Clear"
"1973-07-01 19:00","1973","07","01","19:00","23.3","","16.7","","66","","16","","8","","32.2","","99.44","","28","","","","Mainly Clear"
"1973-07-01 20:00","1973","07","01","20:00","21.1","","16.1","","74","","15","","11","","32.2","","99.43","","26","","","","Mainly Clear"
"1973-07-01 21:00","1973","07","01","21:00","20.0","","16.1","","77","","15","","10","","25.0","","99.46","","25","","","","Clear"
"1973-07-01 22:00","1973","07","01","22:00","19.4","","16.1","","82","","16","","10","","25.0","","99.52","","","","","","Clear"
"1973-07-01 23:00","1973","07","01","23:00","19.4","","16.1","","83","","13","","3","","25.0","","99.55","","","","","","Clear"
"1973-07-02 00:00","1973","07","02","00:00","16.7","","13.9","","83","","","","0","","24.1","","99.57","","","","","","Clear"
"1973-07-02 01:00","1973","07","02","01:00","15.6","","14.4","","96","","","","0","","24.1","","99.58","","","","","","Clear"
"1973-07-02 02:00","1973","07","02","02:00","14.4","","14.4","","97","","","","0","","9.7","","99.60","","","","","","Fog"
"1973-07-02 03:00","1973","07","02","03:00","13.9","","13.3","","97","","32","","8","","6.4","","99.60","","","","","","Fog"
"1973-07-02 04:00","1973","07","02","04:00","14.4","","13.9","","97","","","","0","","4.8","","99.56","","","","","","Fog"
"1973-07-02 05:00","1973","07","02","05:00","12.8","","12.8","","98","","","","0","","2.4","","99.60","","","","","","Fog"
"1973-07-02 06:00","1973","07","02","06:00","15.6","","15.6","","99","","36","","8","","3.2","","99.69","","","","","","Fog"
"1973-07-02 07:00","1973","07","02","07:00","17.8","","16.7","","93","","","","0","","4.8","","99.70","","","","","","Fog"
"1973-07-02 08:00","1973","07","02","08:00","20.0","","16.7","","79","","20","","5","","9.7","","99.72","","25","","","","Haze"
"1973-07-02 09:00","1973","07","02","09:00","22.8","","15.0","","62","","19","","3","","16.1","","99.66","","27","","","","Mainly Clear"
"1973-07-02 10:00","1973","07","02","10:00","24.4","","15.0","","54","","17","","11","","19.3","","99.62","","28","","","","Mainly Clear"
"1973-07-02 11:00","1973","07","02","11:00","26.1","","16.7","","55","","18","","13","","19.3","","99.61","","31","","","","Mainly Clear"
"1973-07-02 12:00","1973","07","02","12:00","26.1","","16.7","","56","","16","","14","","16.1","","99.59","","31","","","","Mainly Clear"
"1973-07-02 13:00","1973","07","02","13:00","26.7","","16.1","","52","","18","","18","","16.1","","99.57","","31","","","","Mainly Clear"
"1973-07-02 14:00","1973","07","02","14:00","27.2","","19.4","","62","","17","","21","","8.0","","99.52","","34","","","","Haze"
"1973-07-02 15:00","1973","07","02","15:00","26.7","","19.4","","64","","17","","23","","8.0","","99.44","","34","","","","Haze"
"1973-07-02 16:00","1973","07","02","16:00","25.6","","19.4","","67","","16","","19","","8.0","","99.38","","33","","","","Haze"
"1973-07-02 17:00","1973","07","02","17:00","25.0","","19.4","","71","","15","","21","","8.0","","99.33","","32","","","","Haze"
"1973-07-02 18:00","1973","07","02","18:00","24.4","","19.4","","73","","15","","13","","8.0","","99.33","","31","","","","Haze"
"1973-07-02 19:00","1973","07","02","19:00","25.0","","20.0","","75","","14","","11","","8.0","","99.34","","33","","","","Haze"
"1973-07-02 20:00","1973","07","02","20:00","23.9","","20.0","","79","","15","","10","","6.4","","99.32","","31","","","","Haze"
"1973-07-02 21:00","1973","07","02","21:00","23.3","","19.4","","81","","15","","13","","4.8","","99.34","","30","","","","Haze"
"1973-07-02 22:00","1973","07","02","22:00","22.2","","19.4","","85","","16","","11","","4.8","","99.32","","29","","","","Haze"
"1973-07-02 23:00","1973","07","02","23:00","22.2","","19.4","","86","","15","","10","","4.8","","99.30","","29","","","","Haze"
"1973-07-03 00:00","1973","07","03","00:00","22.2","","19.4","","86","","15","","10","","4.8","","99.28","","29","","","","Haze"
"1973-07-03 01:00","1973","07","03","01:00","22.2","","19.4","","86","","15","","11","","4.8","","99.24","","29","","","","Haze"
"1973-07-03 02:00","1973","07","03","02:00","21.7","","19.4","","88","","9","","3","","4.0","","99.24","","29","","","","Fog"
"1973-07-03 03:00","1973","07","03","03:00","22.8","","19.4","","84","","","","0","","4.0","","99.23","","30","","","","Haze"
"1973-07-03 04:00","1973","07","03","04:00","22.2","","19.4","","85","","18","","3","","4.8","","99.26","","29","","","","Haze"
"1973-07-03 05:00","1973","07","03","05:00","22.2","","20.0","","88","","20","","6","","3.2","","99.26","","30","","","","Fog"
"1973-07-03 06:00","1973","07","03","06:00","21.7","","20.0","","91","","27","","6","","2.8","","99.32","","29","","","","Fog"
"1973-07-03 07:00","1973","07","03","07:00","22.8","","20.6","","89","","","","0","","2.4","","99.33","","31","","","","Fog"
"1973-07-03 08:00","1973","07","03","08:00","24.4","","20.6","","79","","34","","10","","4.8","","99.34","","32","","","","Haze"
"1973-07-03 09:00","1973","07","03","09:00","24.4","","20.6","","77","","29","","3","","6.4","","99.36","","32","","","","Haze"
"1973-07-03 10:00","1973","07","03","10:00","25.0","","20.6","","75","","34","","11","","9.7","","99.36","","33","","","","Haze"
"1973-07-03 11:00","1973","07","03","11:00","26.1","","20.6","","71","","34","","6","","12.9","","99.37","","34","","","","Mostly Cloudy"
"1973-07-03 12:00","1973","07","03","12:00","27.8","","19.4","","60","","1","","8","","16.1","","99.37","","35","","","","Mainly Clear"
"1973-07-03 13:00","1973","07","03","13:00","28.3","","18.9","","55","","7","","6","","16.1","","99.35","","35","","","","Mainly Clear"
"1973-07-03 14:00","1973","07","03","14:00","28.9","","17.2","","49","","30","","5","","19.3","","99.30","","34","","","","Mainly Clear"
"1973-07-03 15:00","1973","07","03","15:00","30.0","","19.4","","54","","28","","3","","24.1","","99.24","","37","","","","Mainly Clear"
"1973-07-03 16:00","1973","07","03","16:00","27.8","","20.6","","63","","15","","14","","19.3","","99.22","","36","","","","Mainly Clear"
"1973-07-03 17:00","1973","07","03","17:00","28.3","","20.0","","61","","21","","5","","19.3","","99.20","","36","","","","Mainly Clear"
"1973-07-03 18:00","1973","07","03","18:00","27.8","","20.0","","62","","21","","5","","24.1","","99.20","","35","","","","Mostly Cloudy"
"1973-07-03 19:00","1973","07","03","19:00","25.6","","16.7","","58","","35","","16","","24.1","","99.24","","31","","","","Mostly Cloudy"
"1973-07-03 20:00","1973","07","03","20:00","23.9","","16.1","","61","","36","","18","","24.1","","99.23","","29","","","","Mostly Cloudy"
"1973-07-03 21:00","1973","07","03","21:00","21.7","","16.1","","71","","1","","10","","25.0","","99.23","","26","","","","Mainly Clear"
"1973-07-03 22:00","1973","07","03","22:00","20.0","","16.1","","80","","32","","3","","25.0","","99.28","","25","","","","Mainly Clear"
"1973-07-03 23:00","1973","07","03","23:00","18.3","","16.1","","87","","29","","3","","25.0","","99.28","","","","","","Mainly Clear"
"1973-07-04 00:00","1973","07","04","00:00","17.2","","15.6","","90","","","","0","","24.1","","99.26","","","","","","Mainly Clear"
"1973-07-04 01:00","1973","07","04","01:00","17.2","","15.0","","89","","","","0","","19.3","","99.27","","","","","","Mainly Clear"
"1973-07-04 02:00","1973","07","04","02:00","16.7","","15.0","","89","","","","0","","19.3","","99.26","","","","","","Mainly Clear"
"1973-07-04 03:00","1973","07","04","03:00","15.6","","14.4","","93","","","","0","","19.3","","99.16","","","","","","Mainly Clear"
"1973-07-04 04:00","1973","07","04","04:00","15.6","","14.4","","95","","36","","3","","9.7","","99.16","","","","","","Fog"
"1973-07-04 05:00","1973","07","04","05:00","15.0","","14.4","","97","","","","0","","4.8","","99.16","","","","","","Fog"
"1973-07-04 06:00","1973","07","04","06:00","16.7","","16.1","","97","","35","","3","","4.8","","99.15","","","","","","Fog"
"1973-07-04 07:00","1973","07","04","07:00","18.9","","17.8","","92","","","","0","","4.8","","99.09","","","","","","Fog"
"1973-07-04 08:00","1973","07","04","08:00","22.2","","17.2","","73","","15","","5","","9.7","","99.05","","28","","","","Haze"
"1973-07-04 09:00","1973","07","04","09:00","23.3","","17.8","","69","","17","","10","","12.9","","98.97","","29","","","","Mostly Cloudy"
"1973-07-04 10:00","1973","07","04","10:00","25.0","","17.2","","63","","17","","18","","12.9","","98.94","","30","","","","Mainly Clear"
"1973-07-04 11:00","1973","07","04","11:00","25.6","","18.3","","64","","16","","19","","12.9","","98.89","","32","","","","Mainly Clear"
"1973-07-04 12:00","1973","07","04","12:00","26.7","","19.4","","64","","18","","18","","12.9","","98.82","","34","","","","Mostly Cloudy"
"1973-07-04 13:00","1973","07","04","13:00","27.8","","17.2","","53","","19","","19","","16.1","","98.69","","33","","","","Mostly Cloudy"
"1973-07-04 14:00","1973","07","04","14:00","25.6","","18.3","","64","","21","","13","","16.1","","98.68","","32","","","","Rain"
"1973-07-04 15:00","1973","07","04","15:00","22.2","","18.3","","78","","27","","11","","9.7","","98.68","","28","","","","Thunderstorms,Rain,Haze"
"1973-07-04 16:00","1973","07","04","16:00","22.8","","18.3","","75","","23","","8","","16.1","","98.63","","29","","","","Cloudy"
"1973-07-04 17:00","1973","07","04","17:00","21.1","","19.4","","90","","21","","8","","6.4","","98.64","","28","","","","Thunderstorms,Rain Showers,Fog"
"1973-07-04 18:00","1973","07","04","18:00","21.1","","20.0","","95","","21","","13","","4.0","","98.65","","29","","","","Rain Showers,Fog"
"1973-07-04 19:00","1973","07","04","19:00","20.6","","18.9","","93","","23","","13","","16.1","","98.66","","27","","","","Mostly Cloudy"
"1973-07-04 20:00","1973","07","04","20:00","20.0","","18.3","","93","","25","","10","","12.9","","98.64","","26","","","","Mainly Clear"
"1973-07-04 21:00","1973","07","04","21:00","18.3","","16.1","","87","","32","","16","","19.3","","98.70","","","","","","Mainly Clear"
"1973-07-04 22:00","1973","07","04","22:00","16.1","","13.9","","87","","30","","10","","25.0","","98.73","","","","","","Clear"
"1973-07-04 23:00","1973","07","04","23:00","15.0","","12.8","","86","","29","","10","","24.1","","98.73","","","","","","Clear"
"1973-07-05 00:00","1973","07","05","00:00","14.4","","11.7","","86","","28","","10","","24.1","","98.73","","","","","","Clear"
"1973-07-05 01:00","1973","07","05","01:00","13.9","","11.7","","85","","31","","10","","25.0","","98.75","","","","","","Clear"
"1973-07-05 02:00","1973","07","05","02:00","13.9","","11.7","","87","","31","","10","","25.0","","98.76","","","","","","Mainly Clear"
"1973-07-05 03:00","1973","07","05","03:00","14.4","","11.7","","84","","32","","13","","25.0","","98.76","","","","","","Mainly Clear"
"1973-07-05 04:00","1973","07","05","04:00","12.8","","11.1","","89","","29","","11","","25.0","","98.78","","","","","","Mainly Clear"
"1973-07-05 05:00","1973","07","05","05:00","12.2","","10.6","","90","","31","","10","","25.0","","98.85","","","","","","Mainly Clear"
"1973-07-05 06:00","1973","07","05","06:00","13.9","","11.7","","87","","33","","10","","40.2","","98.87","","","","","","Mainly Clear"
"1973-07-05 07:00","1973","07","05","07:00","16.1","","11.7","","75","","31","","18","","40.2","","98.89","","","","","","Mainly Clear"
"1973-07-05 08:00","1973","07","05","08:00","17.8","","12.2","","70","","29","","23","","40.2","","98.92","","","","","","Mainly Clear"
"1973-07-05 09:00","1973","07","05","09:00","19.4","","12.8","","66","","30","","24","","40.2","","98.91","","","","","","Mainly Clear"
"1973-07-05 10:00","1973","07","05","10:00","20.0","","12.8","","63","","30","","27","","40.2","","98.92","","","","","","Mainly Clear"
"1973-07-05 11:00","1973","07","05","11:00","20.0","","12.8","","62","","31","","26","","40.2","","98.93","","","","","","Mainly Clear"
"1973-07-05 12:00","1973","07","05","12:00","21.1","","12.2","","57","","31","","26","","40.2","","98.98","","","","","","Mostly Cloudy"
"1973-07-05 13:00","1973","07","05","13:00","23.3","","12.8","","53","","30","","23","","40.2","","98.96","","26","","","","Mostly Cloudy"
"1973-07-05 14:00","1973","07","05","14:00","24.4","","12.2","","47","","29","","26","","40.2","","98.95","","27","","","","Mostly Cloudy"
"1973-07-05 15:00","1973","07","05","15:00","23.3","","12.2","","49","","29","","32","","40.2","","98.95","","26","","","","Mostly Cloudy"
"1973-07-05 16:00","1973","07","05","16:00","22.2","","12.2","","53","","30","","23","","40.2","","98.97","","25","","","","Mostly Cloudy"
"1973-07-05 17:00","1973","07","05","17:00","22.8","","12.8","","54","","29","","26","","40.2","","98.98","","25","","","","Mostly Cloudy"
"1973-07-05 18:00","1973","07","05","18:00","21.7","","13.3","","60","","28","","21","","40.2","","99.01","","25","","","","Mostly Cloudy"
"1973-07-05 19:00","1973","07","05","19:00","21.1","","12.2","","57","","30","","16","","40.2","","99.04","","","","","","Mainly Clear"
"1973-07-05 20:00","1973","07","05","20:00","17.8","","12.8","","72","","28","","11","","40.2","","99.07","","","","","","Mainly Clear"
"1973-07-05 21:00","1973","07","05","21:00","16.1","","12.2","","79","","29","","10","","25.0","","99.10","","","","","","Mainly Clear"
"1973-07-05 22:00","1973","07","05","22:00","15.0","","11.7","","82","","28","","10","","25.0","","99.11","","","","","","Clear"
"1973-07-05 23:00","1973","07","05","23:00","14.4","","11.7","","85","","28","","5","","25.0","","99.15","","","","","","Clear"
"1973-07-06 00:00","1973","07","06","00:00","13.3","","11.7","","88","","28","","10","","25.0","","99.17","","","","","","Clear"
"1973-07-06 01:00","1973","07","06","01:00","13.9","","11.7","","87","","","","0","","24.1","","99.19","","","","","","Clear"
"1973-07-06 02:00","1973","07","06","02:00","13.3","","11.7","","88","","","","0","","24.1","","99.21","","","","","","Clear"
"1973-07-06 03:00","1973","07","06","03:00","13.3","","11.7","","88","","25","","6","","25.0","","99.20","","","","","","Clear"
"1973-07-06 04:00","1973","07","06","04:00","12.2","","11.1","","93","","32","","8","","25.0","","99.26","","","","","","Clear"
"1973-07-06 05:00","1973","07","06","05:00","13.3","","11.7","","88","","","","0","","32.2","","99.31","","","","","","Mainly Clear"
"1973-07-06 06:00","1973","07","06","06:00","15.6","","13.3","","85","","","","0","","32.2","","99.32","","","","","","Mainly Clear"
"1973-07-06 07:00","1973","07","06","07:00","17.2","","15.0","","87","","30","","3","","32.2","","99.40","","","","","","Clear"
"1973-07-06 08:00","1973","07","06","08:00","20.6","","13.9","","65","","27","","6","","32.2","","99.36","","","","","","Mainly Clear"
"1973-07-06 09:00","1973","07","06","09:00","23.3","","15.0","","59","","27","","13","","32.2","","99.35","","27","","","","Mainly Clear"
"1973-07-06 10:00","1973","07","06","10:00","25.0","","14.4","","52","","28","","16","","32.2","","99.35","","29","","","","Mainly Clear"
"1973-07-06 11:00","1973","07","06","11:00","26.7","","13.9","","45","","31","","19","","32.2","","99.34","","30","","","","Mainly Clear"
"1973-07-06 12:00","1973","07","06","12:00","26.7","","12.2","","41","","30","","24","","32.2","","99.33","","29","","","","Mainly Clear"
"1973-07-06 13:00","1973","07","06","13:00","26.7","","12.2","","41","","28","","13","","24.1","","99.32","","29","","","","Mainly Clear"
"1973-07-06 14:00","1973","07","06","14:00","26.7","","12.8","","41","","29","","16","","24.1","","99.31","","29","","","","Mostly Cloudy"
"1973-07-06 15:00","1973","07","06","15:00","27.2","","13.3","","43","","28","","16","","32.2","","99.30","","30","","","","Mainly Clear"
"1973-07-06 16:00","1973","07","06","16:00","27.8","","13.3","","41","","24","","11","","40.2","","99.25","","31","","","","Mostly Cloudy"
"1973-07-06 17:00","1973","07","06","17:00","26.7","","13.3","","44","","22","","13","","40.2","","99.22","","30","","","","Mainly Clear"
"1973-07-06 18:00","1973","07","06","18:00","26.7","","14.4","","47","","20","","19","","32.2","","99.16","","30","","","","Mainly Clear"
"1973-07-06 19:00","1973","07","06","19:00","25.6","","16.7","","58","","21","","19","","32.2","","99.17","","31","","","","Mainly Clear"
"1973-07-06 20:00","1973","07","06","20:00","23.3","","16.7","","66","","21","","14","","24.1","","99.18","","28","","","","Mainly Clear"
"1973-07-06 21:00","1973","07","06","21:00","21.1","","16.7","","77","","23","","13","","16.1","","99.23","","26","","","","Mainly Clear"
"1973-07-06 22:00","1973","07","06","22:00","21.1","","16.1","","73","","20","","8","","16.1","","99.26","","26","","","","Mainly Clear"
"1973-07-06 23:00","1973","07","06","23:00","21.1","","15.0","","67","","19","","8","","19.3","","99.28","","25","","","","Mainly Clear"
"1973-07-07 00:00","1973","07","07","00:00","20.6","","14.4","","69","","18","","8","","16.1","","99.34","","","","","","Mainly Clear"
"1973-07-07 01:00","1973","07","07","01:00","19.4","","15.0","","77","","18","","3","","12.9","","99.34","","","","","","Mainly Clear"
"1973-07-07 02:00","1973","07","07","02:00","17.8","","15.0","","84","","17","","11","","12.9","","99.30","","","","","","Mainly Clear"
"1973-07-07 03:00","1973","07","07","03:00","18.3","","15.0","","81","","19","","5","","9.7","","99.32","","","","","","Haze"
"1973-07-07 04:00","1973","07","07","04:00","17.2","","15.0","","85","","25","","10","","9.7","","99.32","","","","","","Haze"
"1973-07-07 05:00","1973","07","07","05:00","18.3","","15.0","","80","","19","","8","","6.4","","99.35","","","","","","Haze"
"1973-07-07 06:00","1973","07","07","06:00","18.9","","15.6","","81","","21","","8","","9.7","","99.36","","","","","","Haze"
"1973-07-07 07:00","1973","07","07","07:00","20.6","","17.2","","79","","24","","8","","9.7","","99.36","","26","","","","Haze"
"1973-07-07 08:00","1973","07","07","08:00","24.4","","17.8","","67","","26","","13","","12.9","","99.36","","30","","","","Clear"
"1973-07-07 09:00","1973","07","07","09:00","27.2","","18.3","","58","","26","","21","","12.9","","99.33","","33","","","","Mainly Clear"
"1973-07-07 10:00","1973","07","07","10:00","28.3","","18.9","","55","","26","","18","","12.9","","99.31","","35","","","","Mainly Clear"
"1973-07-07 11:00","1973","07","07","11:00","29.4","","20.0","","57","","26","","18","","12.9","","99.32","","37","","","","Mainly Clear"
"1973-07-07 12:00","1973","07","07","12:00","30.6","","20.6","","55","","24","","24","","12.9","","99.32","","39","","","","Mainly Clear"
"1973-07-07 13:00","1973","07","07","13:00","31.1","","20.6","","53","","27","","26","","12.9","","99.33","","39","","","","Mainly Clear"
"1973-07-07 14:00","1973","07","07","14:00","31.7","","20.0","","50","","25","","27","","12.9","","99.29","","39","","","","Mainly Clear"
"1973-07-07 15:00","1973","07","07","15:00","32.2","","18.9","","46","","27","","27","","12.9","","99.32","","39","","","","Mainly Clear"
"1973-07-07 16:00","1973","07","07","16:00","31.7","","18.3","","46","","25","","31","","32.2","","99.30","","38","","","","Mostly Cloudy"
"1973-07-07 17:00","1973","07","07","17:00","30.6","","19.4","","51","","24","","19","","32.2","","99.28","","38","","","","Mostly Cloudy"
"1973-07-07 18:00","1973","07","07","18:00","29.4","","20.0","","57","","22","","23","","16.1","","99.32","","37","","","","Mostly Cloudy"
"1973-07-07 19:00","1973","07","07","19:00","27.8","","20.0","","62","","22","","19","","9.7","","99.35","","35","","","","Haze"
"1973-07-07 20:00","1973","07","07","20:00","26.7","","19.4","","64","","22","","18","","8.0","","99.36","","34","","","","Haze"
"1973-07-07 21:00","1973","07","07","21:00","24.4","","18.9","","72","","23","","13","","8.0","","99.42","","31","","","","Haze"
"1973-07-07 22:00","1973","07","07","22:00","23.3","","18.9","","75","","22","","13","","8.0","","99.44","","30","","","","Haze"
"1973-07-07 23:00","1973","07","07","23:00","22.2","","18.9","","81","","21","","13","","8.0","","99.42","","29","","","","Haze"
"1973-07-08 00:00","1973","07","08","00:00","21.7","","18.3","","82","","22","","13","","8.0","","99.40","","28","","","","Haze"
"1973-07-08 01:00","1973","07","08","01:00","22.2","","18.3","","79","","24","","10","","8.0","","99.37","","28","","","","Haze"
"1973-07-08 02:00","1973","07","08","02:00","22.2","","18.3","","78","","23","","18","","9.7","","99.32","","28","","","","Haze"
"1973-07-08 03:00","1973","07","08","03:00","21.1","","17.8","","81","","24","","10","","9.7","","99.36","","27","","","","Haze"
"1973-07-08 04:00","1973","07","08","04:00","21.1","","17.8","","81","","26","","6","","9.7","","99.41","","27","","","","Haze"
"1973-07-08 05:00","1973","07","08","05:00","20.6","","17.2","","83","","24","","10","","4.8","","99.47","","26","","","","Haze"
"1973-07-08 06:00","1973","07","08","06:00","21.1","","17.2","","78","","21","","6","","4.8","","99.48","","27","","","","Haze"
"1973-07-08 07:00","1973","07","08","07:00","22.8","","18.9","","78","","21","","8","","4.8","","99.48","","29","","","","Haze"
"1973-07-08 08:00","1973","07","08","08:00","25.0","","18.9","","68","","22","","16","","8.0","","99.49","","32","","","","Haze"
"1973-07-08 09:00","1973","07","08","09:00","26.7","","19.4","","65","","25","","18","","8.0","","99.44","","34","","","","Haze"
"1973-07-08 10:00","1973","07","08","10:00","28.9","","20.0","","59","","24","","18","","8.0","","99.42","","36","","","","Haze"
"1973-07-08 11:00","1973","07","08","11:00","30.6","","20.0","","54","","25","","27","","9.7","","99.41","","38","","","","Haze"
"1973-07-08 12:00","1973","07","08","12:00","31.1","","20.0","","51","","27","","24","","9.7","","99.38","","39","","","","Haze"
"1973-07-08 13:00","1973","07","08","13:00","31.7","","20.6","","51","","25","","26","","9.7","","99.33","","40","","","","Haze"
"1973-07-08 14:00","1973","07","08","14:00","32.2","","19.4","","47","","25","","29","","9.7","","99.32","","39","","","","Haze"
"1973-07-08 15:00","1973","07","08","15:00","32.2","","19.4","","47","","24","","24","","9.7","","99.29","","39","","","","Haze"
"1973-07-08 16:00","1973","07","08","16:00","32.2","","18.9","","45","","25","","24","","12.9","","99.31","","39","","","","Mainly Clear"
"1973-07-08 17:00","1973","07","08","17:00","31.1","","18.3","","46","","27","","26","","12.9","","99.30","","37","","","","Mainly Clear"
"1973-07-08 18:00","1973","07","08","18:00","30.0","","17.8","","48","","27","","26","","16.1","","99.31","","36","","","","Mostly Cloudy"
"1973-07-08 19:00","1973","07","08","19:00","29.4","","19.4","","55","","26","","14","","9.7","","99.32","","36","","","","Haze"
"1973-07-08 20:00","1973","07","08","20:00","27.8","","20.0","","63","","24","","10","","9.7","","99.31","","35","","","","Haze"
"1973-07-08 21:00","1973","07","08","21:00","26.7","","21.1","","72","","21","","8","","8.0","","99.36","","35","","","","Haze"
"1973-07-08 22:00","1973","07","08","22:00","25.6","","21.1","","77","","22","","5","","8.0","","99.37","","34","","","","Haze"
"1973-07-08 23:00","1973","07","08","23:00","25.0","","21.1","","79","","23","","8","","6.4","","99.41","","34","","","","Haze"
"1973-07-09 00:00","1973","07","09","00:00","23.9","","20.6","","82","","27","","6","","4.8","","99.41","","32","","","","Haze"
"1973-07-09 01:00","1973","07","09","01:00","24.4","","20.6","","79","","30","","13","","6.4","","99.44","","32","","","","Haze"
"1973-07-09 02:00","1973","07","09","02:00","22.8","","18.3","","77","","28","","10","","9.7","","99.42","","29","","","","Haze"
"1973-07-09 03:00","1973","07","09","03:00","21.1","","16.1","","74","","29","","13","","16.1","","99.39","","26","","","","Mainly Clear"
"1973-07-09 04:00","1973","07","09","04:00","18.9","","13.9","","73","","31","","13","","19.3","","99.41","","","","","","Mainly Clear"
"1973-07-09 05:00","1973","07","09","05:00","18.3","","12.2","","67","","31","","14","","32.2","","99.45","","","","","","Mainly Clear"
"1973-07-09 06:00","1973","07","09","06:00","18.3","","12.2","","69","","31","","13","","32.2","","99.48","","","","","","Mainly Clear"
"1973-07-09 07:00","1973","07","09","07:00","20.0","","12.2","","60","","31","","16","","32.2","","99.51","","","","","","Mainly Clear"
"1973-07-09 08:00","1973","07","09","08:00","22.2","","11.1","","50","","33","","19","","40.2","","99.51","","","","","","Mainly Clear"
"1973-07-09 09:00","1973","07","09","09:00","23.9","","12.2","","48","","33","","23","","40.2","","99.49","","26","","","","Mainly Clear"
"1973-07-09 10:00","1973","07","09","10:00","25.6","","13.3","","47","","33","","23","","40.2","","99.49","","29","","","","Mainly Clear"
"1973-07-09 11:00","1973","07","09","11:00","27.8","","11.7","","38","","32","","23","","40.2","","99.52","","30","","","","Mainly Clear"
"1973-07-09 12:00","1973","07","09","12:00","28.3","","11.7","","36","","32","","18","","40.2","","99.41","","30","","","","Mainly Clear"
"1973-07-09 13:00","1973","07","09","13:00","28.3","","11.1","","34","","3","","18","","40.2","","99.41","","30","","","","Mainly Clear"
"1973-07-09 14:00","1973","07","09","14:00","28.3","","11.1","","34","","1","","14","","40.2","","99.37","","30","","","","Mainly Clear"
"1973-07-09 15:00","1973","07","09","15:00","29.4","","13.3","","38","","36","","19","","40.2","","99.34","","32","","","","Mainly Clear"
"1973-07-09 16:00","1973","07","09","16:00","28.9","","11.7","","34","","36","","21","","40.2","","99.31","","31","","","","Mainly Clear"
"1973-07-09 17:00","1973","07","09","17:00","28.3","","11.7","","35","","36","","26","","40.2","","99.29","","30","","","","Mainly Clear"
"1973-07-09 18:00","1973","07","09","18:00","26.7","","11.7","","39","","36","","21","","40.2","","99.29","","29","","","","Mostly Cloudy"
"1973-07-09 19:00","1973","07","09","19:00","25.0","","12.2","","45","","1","","16","","40.2","","99.28","","27","","","","Mostly Cloudy"
"1973-07-09 20:00","1973","07","09","20:00","22.8","","12.2","","50","","36","","18","","40.2","","99.28","","25","","","","Mostly Cloudy"
"1973-07-09 21:00","1973","07","09","21:00","22.2","","12.8","","54","","34","","16","","25.0","","99.32","","25","","","","Mostly Cloudy"
"1973-07-09 22:00","1973","07","09","22:00","21.1","","11.7","","55","","35","","18","","25.0","","99.30","","","","","","Mostly Cloudy"
"1973-07-09 23:00","1973","07","09","23:00","20.6","","12.2","","58","","34","","18","","25.0","","99.27","","","","","","Mainly Clear"
"1973-07-10 00:00","1973","07","10","00:00","18.9","","12.8","","69","","33","","13","","25.0","","99.26","","","","","","Mainly Clear"
"1973-07-10 01:00","1973","07","10","01:00","17.8","","13.9","","78","","31","","11","","25.0","","99.23","","","","","","Mostly Cloudy"
"1973-07-10 02:00","1973","07","10","02:00","18.3","","14.4","","77","","32","","13","","25.0","","99.24","","","","","","Cloudy"
"1973-07-10 03:00","1973","07","10","03:00","18.3","","14.4","","78","","33","","10","","25.0","","99.20","","","","","","Mostly Cloudy"
"1973-07-10 04:00","1973","07","10","04:00","18.9","","13.9","","71","","1","","11","","25.0","","99.09","","","","","","Mostly Cloudy"
"1973-07-10 05:00","1973","07","10","05:00","17.8","","13.9","","80","","32","","13","","32.2","","99.17","","","","","","Mostly Cloudy"
"1973-07-10 06:00","1973","07","10","06:00","18.9","","13.3","","71","","35","","10","","32.2","","99.16","","","","","","Cloudy"
"1973-07-10 07:00","1973","07","10","07:00","19.4","","13.3","","69","","32","","10","","32.2","","99.16","","","","","","Rain"
"1973-07-10 08:00","1973","07","10","08:00","19.4","","14.4","","73","","33","","10","","32.2","","99.13","","","","","","Cloudy"
"1973-07-10 09:00","1973","07","10","09:00","19.4","","15.6","","78","","30","","8","","40.2","","99.15","","","","","","Cloudy"
"1973-07-10 10:00","1973","07","10","10:00","20.6","","15.0","","69","","34","","10","","40.2","","99.11","","25","","","","Mostly Cloudy"
"1973-07-10 11:00","1973","07","10","11:00","22.8","","16.1","","66","","2","","10","","40.2","","99.03","","27","","","","Mostly Cloudy"
"1973-07-10 12:00","1973","07","10","12:00","25.0","","15.6","","56","","27","","13","","40.2","","98.95","","29","","","","Mainly Clear"
"1973-07-10 13:00","1973","07","10","13:00","26.1","","15.0","","49","","30","","8","","40.2","","98.88","","30","","","","Mainly Clear"
"1973-07-10 14:00","1973","07","10","14:00","26.7","","15.6","","49","","27","","10","","40.2","","98.83","","31","","","","Mostly Cloudy"
"1973-07-10 15:00","1973","07","10","15:00","27.2","","14.4","","46","","29","","19","","40.2","","98.80","","31","","","","Mostly Cloudy"
"1973-07-10 16:00","1973","07","10","16:00","27.2","","15.0","","47","","36","","19","","40.2","","98.78","","31","","","","Mostly Cloudy"
"1973-07-10 17:00","1973","07","10","17:00","25.6","","13.3","","47","","35","","19","","40.2","","98.77","","29","","","","Mostly Cloudy"
"1973-07-10 18:00","1973","07","10","18:00","24.4","","12.8","","50","","36","","23","","40.2","","98.77","","27","","","","Mainly Clear"
"1973-07-10 19:00","1973","07","10","19:00","23.3","","12.8","","52","","36","","23","","40.2","","98.81","","26","","","","Mainly Clear"
"1973-07-10 20:00","1973","07","10","20:00","20.6","","13.3","","63","","35","","19","","40.2","","98.84","","","","","","Mainly Clear"
"1973-07-10 21:00","1973","07","10","21:00","20.0","","13.9","","68","","35","","16","","40.2","","98.86","","","","","","Mainly Clear"
"1973-07-10 22:00","1973","07","10","22:00","18.3","","13.9","","75","","34","","16","","40.2","","98.88","","","","","","Mainly Clear"
"1973-07-10 23:00","1973","07","10","23:00","16.7","","13.9","","84","","32","","13","","25.0","","98.94","","","","","","Mainly Clear"
"1973-07-11 00:00","1973","07","11","00:00","16.1","","14.4","","91","","33","","14","","24.1","","98.94","","","","","","Mainly Clear"
"1973-07-11 01:00","1973","07","11","01:00","16.1","","15.0","","93","","35","","19","","24.1","","98.91","","","","","","Mainly Clear"
"1973-07-11 02:00","1973","07","11","02:00","15.0","","14.4","","95","","32","","13","","25.0","","98.93","","","","","","Clear"
"1973-07-11 03:00","1973","07","11","03:00","15.0","","13.9","","92","","35","","19","","25.0","","98.95","","","","","","Clear"
"1973-07-11 04:00","1973","07","11","04:00","14.4","","12.8","","89","","35","","19","","25.0","","99.01","","","","","","Mainly Clear"
"1973-07-11 05:00","1973","07","11","05:00","13.9","","12.2","","88","","35","","21","","40.2","","99.10","","","","","","Mainly Clear"
"1973-07-11 06:00","1973","07","11","06:00","13.9","","11.7","","86","","35","","21","","40.2","","99.17","","","","","","Mainly Clear"
"1973-07-11 07:00","1973","07","11","07:00","15.0","","10.6","","75","","36","","27","","40.2","","99.25","","","","","","Mainly Clear"
"1973-07-11 08:00","1973","07","11","08:00","15.6","","9.4","","67","","35","","29","","40.2","","99.30","","","","","","Mainly Clear"
"1973-07-11 09:00","1973","07","11","09:00","16.7","","8.9","","59","","34","","24","","40.2","","99.31","","","","","","Mainly Clear"
"1973-07-11 10:00","1973","07","11","10:00","17.8","","7.8","","52","","36","","27","","40.2","","99.31","","","","","","Mainly Clear"
"1973-07-11 11:00","1973","07","11","11:00","19.4","","8.3","","48","","34","","26","","40.2","","99.30","","","","","","Mainly Clear"
"1973-07-11 12:00","1973","07","11","12:00","19.4","","7.8","","48","","34","","27","","40.2","","99.30","","","","","","Mainly Clear"
"1973-07-11 13:00","1973","07","11","13:00","20.0","","6.7","","42","","33","","29","","40.2","","99.32","","","","","","Mainly Clear"
"1973-07-11 14:00","1973","07","11","14:00","20.0","","5.6","","40","","34","","31","","40.2","","99.32","","","","","","Mainly Clear"
"1973-07-11 15:00","1973","07","11","15:00","19.4","","6.1","","42","","33","","31","","40.2","","99.33","","","","","","Mainly Clear"
"1973-07-11 16:00","1973","07","11","16:00","19.4","","6.1","","42","","34","","29","","40.2","","99.38","","","","","","Mainly Clear"
"1973-07-11 17:00","1973","07","11","17:00","18.3","","6.7","","47","","34","","31","","40.2","","99.39","","","","","","Mainly Clear"
"1973-07-11 18:00","1973","07","11","18:00","17.8","","6.1","","47","","33","","34","","40.2","","99.42","","","","","","Mainly Clear"
"1973-07-11 19:00","1973","07","11","19:00","16.1","","6.7","","53","","33","","23","","40.2","","99.40","","","","","","Mainly Clear"
"1973-07-11 20:00","1973","07","11","20:00","14.4","","6.1","","59","","32","","14","","40.2","","99.45","","","","","","Mainly Clear"
"1973-07-11 21:00","1973","07","11","21:00","12.2","","6.7","","69","","31","","13","","25.0","","99.49","","","","","","Mainly Clear"
"1973-07-11 22:00","1973","07","11","22:00","10.0","","6.7","","79","","31","","11","","25.0","","99.51","","","","","","Clear"
"1973-07-11 23:00","1973","07","11","23:00","10.0","","6.7","","78","","26","","6","","25.0","","99.51","","","","","","Clear"
"1973-07-12 00:00","1973","07","12","00:00","10.6","","6.7","","76","","26","","5","","25.0","","99.51","","","","","","Clear"
"1973-07-12 01:00","1973","07","12","01:00","10.0","","7.2","","83","","28","","8","","25.0","","99.48","","","","","","Clear"
"1973-07-12 02:00","1973","07","12","02:00","9.4","","7.2","","87","","27","","10","","25.0","","99.42","","","","","","Clear"
"1973-07-12 03:00","1973","07","12","03:00","7.8","","6.7","","93","","30","","10","","25.0","","99.44","","","","","","Mainly Clear"
"1973-07-12 04:00","1973","07","12","04:00","8.9","","6.7","","87","","28","","13","","25.0","","99.42","","","","","","Mainly Clear"
"1973-07-12 05:00","1973","07","12","05:00","10.0","","6.7","","81","","28","","8","","40.2","","99.43","","","","","","Mainly Clear"
"1973-07-12 06:00","1973","07","12","06:00","12.2","","9.4","","82","","27","","14","","40.2","","99.48","","","","","","Mainly Clear"
"1973-07-12 07:00","1973","07","12","07:00","14.4","","10.0","","73","","28","","14","","40.2","","99.45","","","","","","Mainly Clear"
"1973-07-12 08:00","1973","07","12","08:00","18.3","","11.7","","65","","31","","18","","40.2","","99.43","","","","","","Mainly Clear"
"1973-07-12 09:00","1973","07","12","09:00","19.4","","12.2","","62","","32","","19","","40.2","","99.41","","","","","","Mainly Clear"
"1973-07-12 10:00","1973","07","12","10:00","21.1","","10.0","","50","","31","","19","","40.2","","99.40","","","","","","Mainly Clear"
"1973-07-12 11:00","1973","07","12","11:00","22.2","","9.4","","45","","31","","16","","40.2","","99.38","","","","","","Mostly Cloudy"
"1973-07-12 12:00","1973","07","12","12:00","22.8","","9.4","","42","","31","","16","","40.2","","99.34","","","","","","Mostly Cloudy"
"1973-07-12 13:00","1973","07","12","13:00","21.7","","10.0","","47","","29","","16","","40.2","","99.31","","","","","","Mostly Cloudy"
"1973-07-12 14:00","1973","07","12","14:00","22.2","","10.6","","48","","29","","23","","40.2","","99.27","","","","","","Mostly Cloudy"
"1973-07-12 15:00","1973","07","12","15:00","22.2","","11.7","","51","","29","","24","","40.2","","99.22","","","","","","Mostly Cloudy"
"1973-07-12 16:00","1973","07","12","16:00","22.2","","10.0","","47","","28","","19","","40.2","","99.19","","","","","","Mostly Cloudy"
"1973-07-12 17:00","1973","07","12","17:00","21.7","","8.9","","44","","24","","21","","40.2","","99.16","","","","","","Mostly Cloudy"
"1973-07-12 18:00","1973","07","12","18:00","20.6","","10.6","","52","","25","","13","","40.2","","99.16","","","","","","Mostly Cloudy"
"1973-07-12 19:00","1973","07","12","19:00","20.0","","10.6","","55","","23","","14","","32.2","","99.14","","","","","","Mostly Cloudy"
"1973-07-12 20:00","1973","07","12","20:00","18.9","","10.6","","58","","24","","11","","25.0","","99.11","","","","","","Cloudy"
"1973-07-12 21:00","1973","07","12","21:00","17.8","","11.7","","66","","24","","14","","25.0","","99.19","","","","","","Cloudy"
"1973-07-12 22:00","1973","07","12","22:00","17.2","","11.1","","67","","21","","10","","24.1","","99.13","","","","","","Cloudy"
"1973-07-12 23:00","1973","07","12","23:00","17.2","","11.1","","67","","19","","14","","24.1","","99.03","","","","","","Cloudy"
"1973-07-13 00:00","1973","07","13","00:00","15.6","","13.3","","88","","13","","11","","24.1","","98.91","","","","","","Cloudy"
"1973-07-13 01:00","1973","07","13","01:00","16.1","","14.4","","91","","15","","13","","19.3","","98.78","","","","","","Mostly Cloudy"
"1973-07-13 02:00","1973","07","13","02:00","15.6","","14.4","","93","","15","","11","","19.3","","98.67","","","","","","Mainly Clear"
"1973-07-13 03:00","1973","07","13","03:00","17.2","","13.3","","80","","19","","8","","19.3","","98.61","","","","","","Cloudy"
"1973-07-13 04:00","1973","07","13","04:00","18.3","","15.6","","83","","22","","10","","19.3","","98.57","","","","","","Mostly Cloudy"
"1973-07-13 05:00","1973","07","13","05:00","18.3","","16.1","","87","","23","","11","","19.3","","98.54","","","","","","Mostly Cloudy"
"1973-07-13 06:00","1973","07","13","06:00","19.4","","16.7","","84","","24","","18","","16.1","","98.54","","","","","","Mostly Cloudy"
"1973-07-13 07:00","1973","07","13","07:00","20.6","","17.8","","83","","25","","18","","16.1","","98.56","","26","","","","Cloudy"
"1973-07-13 08:00","1973","07","13","08:00","22.2","","18.3","","77","","25","","24","","12.9","","98.54","","28","","","","Mostly Cloudy"
"1973-07-13 09:00","1973","07","13","09:00","23.9","","19.4","","74","","25","","23","","12.9","","98.49","","31","","","","Mostly Cloudy"
"1973-07-13 10:00","1973","07","13","10:00","25.6","","20.0","","70","","23","","14","","12.9","","98.51","","33","","","","Mostly Cloudy"
"1973-07-13 11:00","1973","07","13","11:00","27.2","","21.1","","69","","23","","19","","12.9","","98.50","","36","","","","Mostly Cloudy"
"1973-07-13 12:00","1973","07","13","12:00","26.7","","21.1","","72","","24","","19","","12.9","","98.53","","35","","","","Cloudy"
"1973-07-13 13:00","1973","07","13","13:00","27.2","","21.7","","71","","24","","24","","12.9","","98.44","","36","","","","Mostly Cloudy"
"1973-07-13 14:00","1973","07","13","14:00","28.9","","21.7","","66","","23","","27","","12.9","","98.40","","38","","","","Mostly Cloudy"
"1973-07-13 15:00","1973","07","13","15:00","30.6","","21.7","","59","","24","","27","","12.9","","98.36","","40","","","","Mostly Cloudy"
"1973-07-13 16:00","1973","07","13","16:00","31.1","","21.1","","54","","24","","34","","12.9","","98.30","","40","","","","Mainly Clear"
"1973-07-13 17:00","1973","07","13","17:00","31.1","","19.4","","50","","24","","34","","16.1","","98.24","","38","","","","Mostly Cloudy"
"1973-07-13 18:00","1973","07","13","18:00","31.1","","19.4","","49","","23","","26","","16.1","","98.20","","38","","","","Mainly Clear"
"1973-07-13 19:00","1973","07","13","19:00","28.9","","18.9","","55","","22","","27","","16.1","","98.22","","36","","","","Mainly Clear"
"1973-07-13 20:00","1973","07","13","20:00","28.3","","18.9","","56","","22","","26","","12.9","","98.22","","35","","","","Rain Showers"
"1973-07-13 21:00","1973","07","13","21:00","26.7","","18.9","","61","","24","","14","","12.9","","98.24","","33","","","","Mostly Cloudy"
"1973-07-13 22:00","1973","07","13","22:00","25.0","","18.9","","69","","25","","27","","16.1","","98.28","","32","","","","Mainly Clear"
"1973-07-13 23:00","1973","07","13","23:00","23.9","","18.9","","74","","25","","21","","16.1","","98.34","","31","","","","Mainly Clear"
"1973-07-14 00:00","1973","07","14","00:00","22.8","","18.3","","77","","30","","16","","12.9","","98.41","","29","","","","Rain Showers"
"1973-07-14 01:00","1973","07","14","01:00","19.4","","16.7","","85","","26","","10","","16.1","","98.48","","","","","","Thunderstorms,Rain Showers"
"1973-07-14 02:00","1973","07","14","02:00","18.3","","16.7","","90","","28","","8","","24.1","","98.50","","","","","","Mostly Cloudy"
"1973-07-14 03:00","1973","07","14","03:00","18.9","","16.1","","84","","27","","13","","24.1","","98.58","","","","","","Thunderstorms"
"1973-07-14 04:00","1973","07","14","04:00","17.2","","14.4","","86","","28","","11","","25.0","","98.56","","","","","","Mostly Cloudy"
"1973-07-14 05:00","1973","07","14","05:00","16.1","","13.9","","88","","25","","8","","32.2","","98.61","","","","","","Mostly Cloudy"
"1973-07-14 06:00","1973","07","14","06:00","16.1","","13.9","","87","","22","","8","","32.2","","98.66","","","","","","Mostly Cloudy"
"1973-07-14 07:00","1973","07","14","07:00","18.3","","13.9","","75","","27","","14","","32.2","","98.71","","","","","","Mostly Cloudy"
"1973-07-14 08:00","1973","07","14","08:00","20.0","","12.8","","65","","27","","16","","40.2","","98.77","","","","","","Mostly Cloudy"
"1973-07-14 09:00","1973","07","14","09:00","21.7","","13.3","","59","","27","","18","","40.2","","98.78","","25","","","","Mostly Cloudy"
"1973-07-14 10:00","1973","07","14","10:00","22.2","","12.8","","55","","29","","24","","40.2","","98.81","","25","","","","Mostly Cloudy"
"1973-07-14 11:00","1973","07","14","11:00","22.2","","13.3","","57","","28","","24","","40.2","","98.89","","25","","","","Mostly Cloudy"
"1973-07-14 12:00","1973","07","14","12:00","22.8","","12.2","","52","","28","","24","","40.2","","98.89","","25","","","","Mostly Cloudy"
"1973-07-14 13:00","1973","07","14","13:00","23.3","","12.8","","51","","27","","23","","40.2","","98.90","","26","","","","Mostly Cloudy"
"1973-07-14 14:00","1973","07","14","14:00","23.9","","12.2","","48","","29","","19","","40.2","","98.89","","26","","","","Mostly Cloudy"
"1973-07-14 15:00","1973","07","14","15:00","23.3","","13.3","","52","","29","","21","","40.2","","98.89","","26","","","","Mostly Cloudy"
"1973-07-14 16:00","1973","07","14","16:00","23.3","","13.9","","55","","28","","13","","40.2","","98.88","","27","","","","Mostly Cloudy"
"1973-07-14 17:00","1973","07","14","17:00","22.8","","12.2","","52","","25","","16","","40.2","","98.88","","25","","","","Mostly Cloudy"
"1973-07-14 18:00","1973","07","14","18:00","21.7","","13.9","","60","","24","","14","","40.2","","98.92","","25","","","","Cloudy"
"1973-07-14 19:00","1973","07","14","19:00","21.1","","12.2","","57","","24","","13","","40.2","","98.92","","","","","","Cloudy"
"1973-07-14 20:00","1973","07","14","20:00","19.4","","14.4","","71","","24","","10","","40.2","","98.95","","","","","","Mostly Cloudy"
"1973-07-14 21:00","1973","07","14","21:00","18.9","","15.0","","77","","21","","10","","25.0","","98.95","","","","","","Mostly Cloudy"
"1973-07-14 22:00","1973","07","14","22:00","18.3","","15.0","","81","","33","","6","","24.1","","99.00","","","","","","Rain"
"1973-07-14 23:00","1973","07","14","23:00","17.8","","15.0","","85","","","","0","","25.0","","98.99","","","","","","Mostly Cloudy"
"1973-07-15 00:00","1973","07","15","00:00","16.7","","15.0","","89","","","","0","","25.0","","98.98","","","","","","Mainly Clear"
"1973-07-15 01:00","1973","07","15","01:00","14.4","","13.3","","93","","34","","11","","25.0","","98.98","","","","","","Mainly Clear"
"1973-07-15 02:00","1973","07","15","02:00","14.4","","12.8","","88","","35","","11","","25.0","","98.98","","","","","","Mainly Clear"
"1973-07-15 03:00","1973","07","15","03:00","13.3","","12.2","","94","","28","","6","","25.0","","98.97","","","","","","Mainly Clear"
"1973-07-15 04:00","1973","07","15","04:00","12.8","","11.7","","95","","29","","8","","25.0","","98.96","","","","","","Mainly Clear"
"1973-07-15 05:00","1973","07","15","05:00","13.3","","12.2","","94","","36","","11","","40.2","","98.99","","","","","","Mainly Clear"
"1973-07-15 06:00","1973","07","15","06:00","15.0","","13.3","","91","","1","","5","","40.2","","99.02","","","","","","Mainly Clear"
"1973-07-15 07:00","1973","07","15","07:00","15.6","","13.3","","87","","31","","2","","40.2","","99.05","","","","","","Mainly Clear"
"1973-07-15 08:00","1973","07","15","08:00","18.3","","13.3","","72","","32","","13","","40.2","","99.09","","","","","","Mostly Cloudy"
"1973-07-15 09:00","1973","07","15","09:00","21.1","","13.3","","62","","34","","13","","40.2","","99.08","","","","","","Mainly Clear"
"1973-07-15 10:00","1973","07","15","10:00","21.1","","11.1","","54","","33","","5","","40.2","","99.08","","","","","","Mainly Clear"
"1973-07-15 11:00","1973","07","15","11:00","23.3","","11.7","","48","","2","","5","","40.2","","99.06","","25","","","","Mainly Clear"
"1973-07-15 12:00","1973","07","15","12:00","23.3","","9.4","","41","","35","","8","","40.2","","99.06","","","","","","Mainly Clear"
"1973-07-15 13:00","1973","07","15","13:00","23.3","","11.7","","47","","30","","14","","40.2","","99.06","","25","","","","Mainly Clear"
"1973-07-15 14:00","1973","07","15","14:00","25.0","","10.0","","40","","30","","19","","40.2","","99.05","","26","","","","Mainly Clear"
"1973-07-15 15:00","1973","07","15","15:00","23.9","","11.7","","46","","29","","24","","40.2","","99.03","","26","","","","Mainly Clear"
"1973-07-15 16:00","1973","07","15","16:00","22.8","","12.2","","51","","1","","21","","40.2","","99.07","","25","","","","Mainly Clear"
"1973-07-15 17:00","1973","07","15","17:00","22.8","","12.8","","52","","34","","27","","40.2","","99.10","","25","","","","Mainly Clear"
"1973-07-15 18:00","1973","07","15","18:00","22.2","","10.6","","49","","1","","24","","40.2","","99.16","","","","","","Mainly Clear"
"1973-07-15 19:00","1973","07","15","19:00","20.6","","11.7","","57","","1","","18","","40.2","","99.23","","","","","","Mainly Clear"
"1973-07-15 20:00","1973","07","15","20:00","18.3","","11.1","","62","","1","","16","","40.2","","99.29","","","","","","Mainly Clear"
"1973-07-15 21:00","1973","07","15","21:00","16.1","","10.6","","68","","2","","8","","25.0","","99.38","","","","","","Mainly Clear"
"1973-07-15 22:00","1973","07","15","22:00","14.4","","11.1","","81","","33","","13","","25.0","","99.42","","","","","","Mainly Clear"
"1973-07-15 23:00","1973","07","15","23:00","12.2","","9.4","","83","","33","","13","","25.0","","99.46","","","","","","Mainly Clear"
"1973-07-16 00:00","1973","07","16","00:00","11.1","","8.9","","87","","33","","13","","25.0","","99.48","","","","","","Clear"
"1973-07-16 01:00","1973","07","16","01:00","11.1","","8.3","","86","","31","","6","","25.0","","99.49","","","","","","Clear"
"1973-07-16 02:00","1973","07","16","02:00","10.6","","8.9","","90","","33","","10","","25.0","","99.49","","","","","","Clear"
"1973-07-16 03:00","1973","07","16","03:00","10.0","","8.9","","90","","32","","8","","25.0","","99.51","","","","","","Clear"
"1973-07-16 04:00","1973","07","16","04:00","10.6","","8.3","","88","","33","","8","","25.0","","99.54","","","","","","Clear"
"1973-07-16 05:00","1973","07","16","05:00","10.0","","8.9","","92","","33","","8","","40.2","","99.58","","","","","","Mainly Clear"
"1973-07-16 06:00","1973","07","16","06:00","12.2","","10.0","","88","","35","","11","","40.2","","99.62","","","","","","Mainly Clear"
"1973-07-16 07:00","1973","07","16","07:00","15.6","","11.1","","73","","34","","13","","40.2","","99.68","","","","","","Mainly Clear"
"1973-07-16 08:00","1973","07","16","08:00","18.9","","12.8","","68","","3","","8","","40.2","","99.74","","","","","","Clear"
"1973-07-16 09:00","1973","07","16","09:00","20.6","","12.2","","60","","4","","3","","40.2","","99.78","","","","","","Mainly Clear"
"1973-07-16 10:00","1973","07","16","10:00","22.2","","11.1","","49","","18","","6","","40.2","","99.80","","","","","","Mainly Clear"
"1973-07-16 11:00","1973","07","16","11:00","22.8","","8.9","","41","","16","","14","","40.2","","99.79","","","","","","Mainly Clear"
"1973-07-16 12:00","1973","07","16","12:00","23.9","","10.0","","41","","15","","16","","40.2","","99.79","","25","","","","Mainly Clear"
"1973-07-16 13:00","1973","07","16","13:00","22.8","","8.9","","42","","12","","14","","40.2","","99.78","","","","","","Mostly Cloudy"
"1973-07-16 14:00","1973","07","16","14:00","23.9","","8.3","","38","","16","","10","","40.2","","99.76","","","","","","Mostly Cloudy"
"1973-07-16 15:00","1973","07","16","15:00","24.4","","7.8","","35","","4","","3","","40.2","","99.75","","25","","","","Mainly Clear"
"1973-07-16 16:00","1973","07","16","16:00","25.0","","6.7","","31","","13","","11","","40.2","","99.72","","25","","","","Mainly Clear"
"1973-07-16 17:00","1973","07","16","17:00","23.9","","7.2","","35","","14","","16","","40.2","","99.73","","","","","","Mainly Clear"
"1973-07-16 18:00","1973","07","16","18:00","22.2","","9.4","","44","","16","","14","","40.2","","99.75","","","","","","Mainly Clear"
"1973-07-16 19:00","1973","07","16","19:00","20.0","","10.6","","55","","16","","11","","40.2","","99.78","","","","","","Mainly Clear"
"1973-07-16 20:00","1973","07","16","20:00","19.4","","11.1","","58","","15","","3","","40.2","","99.80","","","","","","Mainly Clear"
"1973-07-16 21:00","1973","07","16","21:00","16.7","","12.2","","73","","","","0","","25.0","","99.85","","","","","","Mainly Clear"
"1973-07-16 22:00","1973","07","16","22:00","15.0","","11.1","","77","","34","","8","","24.1","","99.89","","","","","","Mainly Clear"
"1973-07-16 23:00","1973","07","16","23:00","14.4","","11.1","","80","","","","0","","24.1","","99.91","","","","","","Mainly Clear"
"1973-07-17 00:00","1973","07","17","00:00","14.4","","10.6","","77","","","","0","","25.0","","99.95","","","","","","Mainly Clear"
"1973-07-17 01:00","1973","07","17","01:00","12.2","","10.0","","87","","34","","8","","25.0","","99.95","","","","","","Clear"
"1973-07-17 02:00","1973","07","17","02:00","11.7","","9.4","","86","","33","","6","","25.0","","99.96","","","","","","Clear"
"1973-07-17 03:00","1973","07","17","03:00","12.2","","9.4","","83","","35","","14","","25.0","","99.96","","","","","","Clear"
"1973-07-17 04:00","1973","07","17","04:00","11.1","","8.9","","87","","35","","11","","25.0","","99.98","","","","","","Clear"
"1973-07-17 05:00","1973","07","17","05:00","10.6","","8.9","","88","","33","","10","","32.2","","100.05","","","","","","Mainly Clear"
"1973-07-17 06:00","1973","07","17","06:00","12.2","","10.0","","86","","34","","10","","32.2","","100.07","","","","","","Mainly Clear"
"1973-07-17 07:00","1973","07","17","07:00","15.6","","11.7","","77","","33","","10","","24.1","","100.15","","","","","","Mainly Clear"
"1973-07-17 08:00","1973","07","17","08:00","18.9","","11.1","","59","","1","","3","","24.1","","100.15","","","","","","Clear"
"1973-07-17 09:00","1973","07","17","09:00","22.8","","8.9","","42","","14","","14","","24.1","","100.16","","","","","","Clear"
"1973-07-17 10:00","1973","07","17","10:00","23.3","","7.2","","36","","14","","14","","32.2","","100.18","","","","","","Mainly Clear"
"1973-07-17 11:00","1973","07","17","11:00","23.3","","8.9","","39","","16","","16","","40.2","","100.20","","","","","","Mainly Clear"
"1973-07-17 12:00","1973","07","17","12:00","25.0","","7.8","","34","","14","","16","","40.2","","100.20","","25","","","","Mainly Clear"
"1973-07-17 13:00","1973","07","17","13:00","25.0","","7.2","","33","","14","","18","","40.2","","100.17","","25","","","","Mainly Clear"
"1973-07-17 14:00","1973","07","17","14:00","25.0","","5.6","","29","","12","","18","","40.2","","100.17","","","","","","Mainly Clear"
"1973-07-17 15:00","1973","07","17","15:00","25.0","","5.6","","29","","13","","18","","40.2","","100.14","","","","","","Mainly Clear"
"1973-07-17 16:00","1973","07","17","16:00","25.6","","6.1","","29","","11","","14","","40.2","","100.12","","25","","","","Mainly Clear"
"1973-07-17 17:00","1973","07","17","17:00","25.0","","5.6","","30","","13","","13","","40.2","","100.10","","","","","","Mainly Clear"
"1973-07-17 18:00","1973","07","17","18:00","24.4","","6.7","","32","","12","","11","","40.2","","100.08","","","","","","Mainly Clear"
"1973-07-17 19:00","1973","07","17","19:00","23.3","","7.8","","37","","13","","10","","40.2","","100.10","","","","","","Mainly Clear"
"1973-07-17 20:00","1973","07","17","20:00","22.2","","5.6","","35","","13","","6","","32.2","","100.09","","","","","","Mainly Clear"
"1973-07-17 21:00","1973","07","17","21:00","18.9","","8.3","","52","","23","","3","","24.1","","100.12","","","","","","Mainly Clear"
"1973-07-17 22:00","1973","07","17","22:00","15.0","","10.0","","73","","","","0","","24.1","","100.14","","","","","","Mainly Clear"
"1973-07-17 23:00","1973","07","17","23:00","16.7","","9.4","","62","","36","","5","","24.1","","100.18","","","","","","Mainly Clear"
"1973-07-18 00:00","1973","07","18","00:00","13.3","","10.0","","79","","34","","10","","25.0","","100.16","","","","","","Mainly Clear"
"1973-07-18 01:00","1973","07","18","01:00","12.2","","9.4","","83","","34","","6","","25.0","","100.15","","","","","","Clear"
"1973-07-18 02:00","1973","07","18","02:00","12.2","","9.4","","84","","33","","6","","25.0","","100.15","","","","","","Clear"
"1973-07-18 03:00","1973","07","18","03:00","11.1","","8.3","","84","","35","","11","","25.0","","100.14","","","","","","Mainly Clear"
"1973-07-18 04:00","1973","07","18","04:00","11.1","","8.3","","82","","36","","8","","25.0","","100.16","","","","","","Clear"
"1973-07-18 05:00","1973","07","18","05:00","10.6","","7.8","","84","","34","","5","","40.2","","100.20","","","","","","Mainly Clear"
"1973-07-18 06:00","1973","07","18","06:00","12.2","","9.4","","82","","35","","8","","40.2","","100.21","","","","","","Mainly Clear"
"1973-07-18 07:00","1973","07","18","07:00","15.6","","10.6","","72","","35","","2","","24.1","","100.20","","","","","","Mainly Clear"
"1973-07-18 08:00","1973","07","18","08:00","21.1","","11.7","","56","","","","0","","24.1","","100.23","","","","","","Mainly Clear"
"1973-07-18 09:00","1973","07","18","09:00","22.8","","8.3","","39","","13","","13","","32.2","","100.25","","","","","","Clear"
"1973-07-18 10:00","1973","07","18","10:00","23.9","","3.3","","27","","13","","14","","32.2","","100.21","","","","","","Clear"
"1973-07-18 11:00","1973","07","18","11:00","24.4","","3.3","","25","","12","","16","","32.2","","100.20","","","","","","Mainly Clear"
"1973-07-18 12:00","1973","07","18","12:00","25.6","","3.3","","24","","13","","16","","40.2","","100.17","","","","","","Mainly Clear"
"1973-07-18 13:00","1973","07","18","13:00","26.1","","4.4","","25","","16","","19","","40.2","","100.12","","25","","","","Mainly Clear"
"1973-07-18 14:00","1973","07","18","14:00","26.1","","2.8","","22","","14","","16","","40.2","","100.03","","25","","","","Mainly Clear"
"1973-07-18 15:00","1973","07","18","15:00","26.7","","7.2","","30","","15","","14","","40.2","","99.98","","27","","","","Mainly Clear"
"1973-07-18 16:00","1973","07","18","16:00","26.7","","8.9","","33","","15","","11","","32.2","","99.94","","27","","","","Mainly Clear"
"1973-07-18 17:00","1973","07","18","17:00","26.7","","10.0","","36","","15","","13","","32.2","","99.87","","28","","","","Mainly Clear"
"1973-07-18 18:00","1973","07","18","18:00","24.4","","8.3","","36","","16","","16","","32.2","","99.88","","25","","","","Clear"
"1973-07-18 19:00","1973","07","18","19:00","22.8","","8.3","","40","","16","","11","","32.2","","99.86","","","","","","Mainly Clear"
"1973-07-18 20:00","1973","07","18","20:00","20.6","","10.0","","51","","17","","8","","24.1","","99.83","","","","","","Mainly Clear"
"1973-07-18 21:00","1973","07","18","21:00","18.9","","14.4","","74","","25","","5","","24.1","","99.89","","","","","","Mainly Clear"
"1973-07-18 22:00","1973","07","18","22:00","18.3","","16.1","","86","","20","","6","","24.1","","99.88","","","","","","Mainly Clear"
"1973-07-18 23:00","1973","07","18","23:00","16.7","","15.0","","90","","30","","3","","24.1","","99.86","","","","","","Mainly Clear"
"1973-07-19 00:00","1973","07","19","00:00","16.7","","13.9","","85","","34","","6","","19.3","","99.87","","","","","","Mainly Clear"
"1973-07-19 01:00","1973","07","19","01:00","17.2","","12.8","","76","","3","","8","","17.7","","99.84","","","","","","Mainly Clear"
"1973-07-19 02:00","1973","07","19","02:00","14.4","","12.8","","88","","","","0","","16.1","","99.82","","","","","","Mainly Clear"
"1973-07-19 03:00","1973","07","19","03:00","13.3","","11.7","","89","","28","","6","","16.1","","99.79","","","","","","Clear"
"1973-07-19 04:00","1973","07","19","04:00","15.0","","12.2","","83","","","","0","","12.9","","99.79","","","","","","Clear"
"1973-07-19 05:00","1973","07","19","05:00","13.3","","11.7","","88","","","","0","","8.0","","99.79","","","","","","Fog"
"1973-07-19 06:00","1973","07","19","06:00","13.9","","12.2","","91","","31","","8","","6.4","","99.81","","","","","","Fog"
"1973-07-19 07:00","1973","07","19","07:00","17.8","","14.4","","80","","30","","2","","8.0","","99.80","","","","","","Haze"
"1973-07-19 08:00","1973","07","19","08:00","22.2","","14.4","","61","","25","","6","","12.9","","99.78","","26","","","","Mainly Clear"
"1973-07-19 09:00","1973","07","19","09:00","25.0","","14.4","","53","","23","","14","","16.1","","99.73","","29","","","","Clear"
"1973-07-19 10:00","1973","07","19","10:00","26.7","","13.9","","45","","24","","14","","16.1","","99.74","","30","","","","Clear"
"1973-07-19 11:00","1973","07","19","11:00","27.8","","12.8","","39","","22","","16","","16.1","","99.71","","30","","","","Mainly Clear"
"1973-07-19 12:00","1973","07","19","12:00","28.3","","12.2","","38","","22","","19","","16.1","","99.70","","31","","","","Mostly Cloudy"
"1973-07-19 13:00","1973","07","19","13:00","28.9","","12.2","","36","","23","","23","","12.9","","99.66","","31","","","","Mostly Cloudy"
"1973-07-19 14:00","1973","07","19","14:00","28.3","","12.8","","38","","25","","18","","11.3","","99.60","","31","","","","Mostly Cloudy"
"1973-07-19 15:00","1973","07","19","15:00","29.4","","12.8","","37","","25","","11","","9.7","","99.57","","32","","","","Haze"
"1973-07-19 16:00","1973","07","19","16:00","29.4","","13.9","","39","","25","","18","","9.7","","99.53","","33","","","","Haze"
"1973-07-19 17:00","1973","07","19","17:00","28.9","","14.4","","41","","23","","19","","9.7","","99.49","","33","","","","Haze"
"1973-07-19 18:00","1973","07","19","18:00","28.3","","14.4","","44","","23","","14","","11.3","","99.48","","32","","","","Mostly Cloudy"
"1973-07-19 19:00","1973","07","19","19:00","26.7","","15.0","","49","","24","","16","","9.7","","99.48","","31","","","","Haze"
"1973-07-19 20:00","1973","07","19","20:00","25.0","","15.6","","55","","23","","14","","9.7","","99.47","","29","","","","Haze"
"1973-07-19 21:00","1973","07","19","21:00","23.3","","14.4","","57","","23","","14","","12.9","","99.48","","27","","","","Mostly Cloudy"
"1973-07-19 22:00","1973","07","19","22:00","22.2","","13.9","","58","","23","","13","","12.9","","99.45","","26","","","","Mainly Clear"
"1973-07-19 23:00","1973","07","19","23:00","21.1","","13.9","","63","","21","","10","","12.9","","99.41","","","","","","Mostly Cloudy"
"1973-07-20 00:00","1973","07","20","00:00","21.7","","13.9","","63","","24","","11","","12.9","","99.40","","25","","","","Cloudy"
"1973-07-20 01:00","1973","07","20","01:00","21.7","","13.9","","59","","27","","10","","12.9","","99.39","","25","","","","Mostly Cloudy"
"1973-07-20 02:00","1973","07","20","02:00","20.6","","14.4","","67","","23","","10","","11.3","","99.35","","","","","","Cloudy"
"1973-07-20 03:00","1973","07","20","03:00","20.6","","14.4","","67","","31","","8","","9.7","","99.36","","","","","","Haze"
"1973-07-20 04:00","1973","07","20","04:00","21.1","","14.4","","67","","","","0","","9.7","","99.33","","25","","","","Haze"
"1973-07-20 05:00","1973","07","20","05:00","20.0","","15.0","","72","","","","0","","4.8","","99.38","","","","","","Haze"
"1973-07-20 06:00","1973","07","20","06:00","19.4","","15.0","","75","","","","0","","4.8","","99.39","","","","","","Haze"
"1973-07-20 07:00","1973","07","20","07:00","21.1","","17.2","","79","","33","","8","","4.0","","99.38","","27","","","","Haze"
"1973-07-20 08:00","1973","07","20","08:00","22.2","","18.3","","78","","34","","11","","4.8","","99.38","","28","","","","Haze"
"1973-07-20 09:00","1973","07","20","09:00","22.8","","17.8","","74","","36","","13","","4.8","","99.39","","29","","","","Haze"
"1973-07-20 10:00","1973","07","20","10:00","23.3","","18.9","","75","","2","","14","","4.8","","99.36","","30","","","","Haze"
"1973-07-20 11:00","1973","07","20","11:00","23.3","","17.8","","70","","35","","18","","4.8","","99.37","","29","","","","Haze"
"1973-07-20 12:00","1973","07","20","12:00","23.9","","17.8","","70","","2","","6","","4.8","","99.32","","30","","","","Haze"
"1973-07-20 13:00","1973","07","20","13:00","23.3","","17.8","","70","","35","","14","","4.8","","99.35","","29","","","","Haze"
"1973-07-20 14:00","1973","07","20","14:00","23.3","","17.8","","72","","34","","5","","6.4","","99.36","","29","","","","Haze"
"1973-07-20 15:00","1973","07","20","15:00","23.3","","18.3","","73","","35","","6","","4.8","","99.32","","30","","","","Haze"
"1973-07-20 16:00","1973","07","20","16:00","23.3","","18.3","","74","","31","","6","","6.4","","99.35","","30","","","","Haze"
"1973-07-20 17:00","1973","07","20","17:00","23.9","","17.8","","69","","34","","10","","4.8","","99.23","","30","","","","Haze"
"1973-07-20 18:00","1973","07","20","18:00","22.8","","18.3","","75","","1","","19","","4.8","","99.25","","29","","","","Haze"
"1973-07-20 19:00","1973","07","20","19:00","22.2","","17.8","","78","","36","","16","","4.8","","99.24","","28","","","","Haze"
"1973-07-20 20:00","1973","07","20","20:00","21.7","","17.2","","77","","2","","5","","4.8","","99.25","","27","","","","Haze"
"1973-07-20 21:00","1973","07","20","21:00","21.1","","18.3","","82","","8","","14","","4.8","","99.26","","27","","","","Haze"
"1973-07-20 22:00","1973","07","20","22:00","21.1","","16.7","","76","","6","","14","","6.4","","99.26","","26","","","","Haze"
"1973-07-20 23:00","1973","07","20","23:00","21.1","","16.7","","78","","7","","14","","6.4","","99.20","","26","","","","Rain,Haze"
"1973-07-21 00:00","1973","07","21","00:00","20.6","","17.2","","81","","36","","8","","6.4","","99.23","","26","","","","Haze"
"1973-07-21 01:00","1973","07","21","01:00","20.0","","17.2","","84","","3","","11","","6.4","","99.24","","25","","","","Rain,Haze"
"1973-07-21 02:00","1973","07","21","02:00","19.4","","16.7","","85","","36","","11","","6.4","","99.24","","","","","","Haze"
"1973-07-21 03:00","1973","07","21","03:00","19.4","","16.7","","85","","2","","16","","6.4","","99.22","","","","","","Haze"
"1973-07-21 04:00","1973","07","21","04:00","18.3","","16.1","","87","","36","","14","","8.0","","99.26","","","","","","Fog"
"1973-07-21 05:00","1973","07","21","05:00","17.8","","15.6","","87","","1","","16","","4.8","","99.29","","","","","","Fog"
"1973-07-21 06:00","1973","07","21","06:00","17.2","","15.6","","90","","36","","18","","4.8","","99.31","","","","","","Fog"
"1973-07-21 07:00","1973","07","21","07:00","18.3","","15.6","","86","","2","","14","","4.8","","99.34","","","","","","Fog"
"1973-07-21 08:00","1973","07","21","08:00","21.1","","16.1","","72","","6","","16","","8.0","","99.35","","26","","","","Haze"
"1973-07-21 09:00","1973","07","21","09:00","23.3","","13.9","","55","","5","","21","","24.1","","99.38","","27","","","","Mostly Cloudy"
"1973-07-21 10:00","1973","07","21","10:00","23.9","","12.2","","48","","16","","18","","32.2","","99.40","","26","","","","Mostly Cloudy"
"1973-07-21 11:00","1973","07","21","11:00","25.6","","13.9","","48","","7","","14","","32.2","","99.40","","29","","","","Mostly Cloudy"
"1973-07-21 12:00","1973","07","21","12:00","24.4","","13.3","","50","","14","","14","","32.2","","99.39","","27","","","","Mostly Cloudy"
"1973-07-21 13:00","1973","07","21","13:00","25.0","","12.8","","46","","15","","18","","40.2","","99.37","","28","","","","Mostly Cloudy"
"1973-07-21 14:00","1973","07","21","14:00","25.0","","13.3","","49","","15","","16","","40.2","","99.36","","28","","","","Mostly Cloudy"
"1973-07-21 15:00","1973","07","21","15:00","24.4","","11.7","","46","","15","","11","","40.2","","99.35","","27","","","","Mostly Cloudy"
"1973-07-21 16:00","1973","07","21","16:00","25.0","","12.2","","45","","16","","13","","40.2","","99.33","","27","","","","Mostly Cloudy"
"1973-07-21 17:00","1973","07","21","17:00","25.0","","12.2","","45","","17","","13","","40.2","","99.31","","27","","","","Mainly Clear"
"1973-07-21 18:00","1973","07","21","18:00","25.0","","11.7","","44","","18","","13","","40.2","","99.35","","27","","","","Mainly Clear"
"1973-07-21 19:00","1973","07","21","19:00","23.9","","11.1","","45","","21","","5","","40.2","","99.41","","26","","","","Mainly Clear"
"1973-07-21 20:00","1973","07","21","20:00","21.1","","13.3","","60","","23","","5","","40.2","","99.44","","","","","","Mostly Cloudy"
"1973-07-21 21:00","1973","07","21","21:00","19.4","","13.3","","69","","32","","10","","25.0","","99.47","","","","","","Mostly Cloudy"
"1973-07-21 22:00","1973","07","21","22:00","18.3","","12.8","","70","","34","","19","","25.0","","99.51","","","","","","Mainly Clear"
"1973-07-21 23:00","1973","07","21","23:00","17.2","","12.8","","76","","34","","19","","25.0","","99.55","","","","","","Mainly Clear"
"1973-07-22 00:00","1973","07","22","00:00","16.1","","12.8","","81","","35","","14","","25.0","","99.57","","","","","","Mainly Clear"
"1973-07-22 01:00","1973","07","22","01:00","16.7","","13.3","","82","","36","","16","","25.0","","99.59","","","","","","Clear"
"1973-07-22 02:00","1973","07","22","02:00","14.4","","12.8","","88","","34","","10","","25.0","","99.64","","","","","","Clear"
"1973-07-22 03:00","1973","07","22","03:00","15.0","","12.8","","86","","35","","13","","25.0","","99.67","","","","","","Mainly Clear"
"1973-07-22 04:00","1973","07","22","04:00","15.6","","12.8","","85","","36","","13","","25.0","","99.70","","","","","","Mostly Cloudy"
"1973-07-22 05:00","1973","07","22","05:00","13.9","","12.2","","88","","33","","8","","40.2","","99.76","","","","","","Mostly Cloudy"
"1973-07-22 06:00","1973","07","22","06:00","14.4","","12.8","","89","","34","","10","","40.2","","99.79","","","","","","Mostly Cloudy"
"1973-07-22 07:00","1973","07","22","07:00","17.2","","12.8","","74","","1","","8","","40.2","","99.85","","","","","","Mostly Cloudy"
"1973-07-22 08:00","1973","07","22","08:00","19.4","","12.8","","65","","36","","5","","40.2","","99.91","","","","","","Mostly Cloudy"
"1973-07-22 09:00","1973","07","22","09:00","21.7","","11.1","","51","","8","","6","","40.2","","99.94","","","","","","Mostly Cloudy"
"1973-07-22 10:00","1973","07","22","10:00","24.4","","11.1","","44","","9","","13","","40.2","","99.93","","26","","","","Mostly Cloudy"
"1973-07-22 11:00","1973","07","22","11:00","24.4","","9.4","","38","","11","","18","","40.2","","100.00","","25","","","","Mostly Cloudy"
"1973-07-22 12:00","1973","07","22","12:00","25.6","","8.9","","35","","13","","18","","40.2","","100.00","","26","","","","Mostly Cloudy"
"1973-07-22 13:00","1973","07","22","13:00","26.1","","8.3","","33","","13","","19","","40.2","","99.98","","27","","","","Mostly Cloudy"
"1973-07-22 14:00","1973","07","22","14:00","25.6","","8.3","","35","","13","","21","","40.2","","100.01","","26","","","","Mostly Cloudy"
"1973-07-22 15:00","1973","07","22","15:00","25.0","","8.9","","36","","14","","19","","40.2","","100.04","","26","","","","Mostly Cloudy"
"1973-07-22 16:00","1973","07","22","16:00","25.0","","8.3","","35","","15","","16","","40.2","","100.04","","26","","","","Mostly Cloudy"
"1973-07-22 17:00","1973","07","22","17:00","25.0","","8.9","","37","","15","","13","","40.2","","100.02","","26","","","","Mostly Cloudy"
"1973-07-22 18:00","1973","07","22","18:00","24.4","","8.3","","37","","17","","6","","40.2","","100.03","","25","","","","Mainly Clear"
"1973-07-22 19:00","1973","07","22","19:00","23.9","","8.9","","39","","15","","5","","40.2","","100.02","","25","","","","Mainly Clear"
"1973-07-22 20:00","1973","07","22","20:00","22.2","","9.4","","44","","","","0","","40.2","","100.11","","","","","","Mainly Clear"
"1973-07-22 21:00","1973","07","22","21:00","19.4","","10.0","","54","","","","0","","25.0","","100.15","","","","","","Mainly Clear"
"1973-07-22 22:00","1973","07","22","22:00","18.9","","11.1","","60","","","","0","","25.0","","100.22","","","","","","Mainly Clear"
"1973-07-22 23:00","1973","07","22","23:00","17.2","","12.8","","74","","30","","8","","25.0","","100.27","","","","","","Mostly Cloudy"
"1973-07-23 00:00","1973","07","23","00:00","15.6","","11.7","","77","","34","","10","","25.0","","100.31","","","","","","Mainly Clear"
"1973-07-23 01:00","1973","07","23","01:00","15.0","","11.1","","78","","4","","13","","25.0","","100.34","","","","","","Mainly Clear"
"1973-07-23 02:00","1973","07","23","02:00","15.6","","10.0","","67","","3","","10","","25.0","","100.38","","","","","","Clear"
"1973-07-23 03:00","1973","07","23","03:00","12.8","","8.9","","79","","36","","3","","25.0","","100.41","","","","","","Clear"
"1973-07-23 04:00","1973","07","23","04:00","11.1","","8.3","","83","","36","","3","","25.0","","100.45","","","","","","Clear"
"1973-07-23 05:00","1973","07","23","05:00","11.7","","7.8","","76","","2","","10","","40.2","","100.50","","","","","","Mainly Clear"
"1973-07-23 06:00","1973","07","23","06:00","13.3","","9.4","","75","","30","","3","","40.2","","100.55","","","","","","Mainly Clear"
"1973-07-23 07:00","1973","07","23","07:00","17.2","","11.7","","69","","1","","3","","32.2","","100.63","","","","","","Mainly Clear"
"1973-07-23 08:00","1973","07","23","08:00","22.2","","10.6","","48","","8","","13","","32.2","","100.64","","","","","","Mainly Clear"
"1973-07-23 09:00","1973","07","23","09:00","23.9","","8.3","","37","","9","","18","","40.2","","100.68","","","","","","Mainly Clear"
"1973-07-23 10:00","1973","07","23","10:00","26.1","","7.8","","33","","9","","19","","40.2","","100.66","","26","","","","Mainly Clear"
"1973-07-23 11:00","1973","07","23","11:00","26.1","","8.3","","33","","10","","21","","40.2","","100.66","","27","","","","Mainly Clear"
"1973-07-23 12:00","1973","07","23","12:00","26.1","","8.3","","33","","10","","21","","40.2","","100.67","","27","","","","Mainly Clear"
"1973-07-23 13:00","1973","07","23","13:00","26.7","","8.3","","32","","9","","24","","40.2","","100.67","","27","","","","Mostly Cloudy"
"1973-07-23 14:00","1973","07","23","14:00","26.7","","8.3","","31","","8","","21","","40.2","","100.64","","27","","","","Mostly Cloudy"
"1973-07-23 15:00","1973","07","23","15:00","26.7","","7.8","","30","","8","","24","","40.2","","100.63","","27","","","","Mainly Clear"
"1973-07-23 16:00","1973","07","23","16:00","26.7","","7.2","","30","","10","","23","","40.2","","100.62","","27","","","","Mostly Cloudy"
"1973-07-23 17:00","1973","07","23","17:00","25.0","","9.4","","37","","12","","16","","40.2","","100.60","","26","","","","Mostly Cloudy"
"1973-07-23 18:00","1973","07","23","18:00","25.0","","6.7","","31","","10","","23","","40.2","","100.56","","25","","","","Mostly Cloudy"
"1973-07-23 19:00","1973","07","23","19:00","23.9","","6.1","","32","","8","","18","","40.2","","100.52","","","","","","Mostly Cloudy"
"1973-07-23 20:00","1973","07","23","20:00","22.8","","6.1","","35","","8","","11","","40.2","","100.53","","","","","","Mainly Clear"
"1973-07-23 21:00","1973","07","23","21:00","21.1","","5.6","","36","","9","","5","","25.0","","100.56","","","","","","Mainly Clear"
"1973-07-23 22:00","1973","07","23","22:00","15.0","","8.9","","66","","","","0","","25.0","","100.57","","","","","","Clear"
"1973-07-23 23:00","1973","07","23","23:00","14.4","","8.9","","69","","36","","5","","25.0","","100.58","","","","","","Clear"
"1973-07-24 00:00","1973","07","24","00:00","13.3","","9.4","","77","","36","","8","","25.0","","100.59","","","","","","Clear"
"1973-07-24 01:00","1973","07","24","01:00","13.3","","9.4","","76","","2","","10","","25.0","","100.56","","","","","","Clear"
"1973-07-24 02:00","1973","07","24","02:00","11.7","","9.4","","85","","34","","10","","25.0","","100.53","","","","","","Mainly Clear"
"1973-07-24 03:00","1973","07","24","03:00","12.2","","9.4","","83","","35","","11","","25.0","","100.54","","","","","","Mainly Clear"
"1973-07-24 04:00","1973","07","24","04:00","14.4","","10.6","","79","","1","","13","","25.0","","100.53","","","","","","Mainly Clear"
"1973-07-24 05:00","1973","07","24","05:00","12.2","","10.6","","88","","36","","10","","40.2","","100.53","","","","","","Mainly Clear"
"1973-07-24 06:00","1973","07","24","06:00","13.9","","11.7","","88","","33","","10","","40.2","","100.57","","","","","","Mainly Clear"
"1973-07-24 07:00","1973","07","24","07:00","17.8","","13.3","","74","","35","","3","","32.2","","100.58","","","","","","Mainly Clear"
"1973-07-24 08:00","1973","07","24","08:00","21.7","","15.6","","67","","9","","3","","24.1","","100.57","","26","","","","Mainly Clear"
"1973-07-24 09:00","1973","07","24","09:00","23.3","","12.2","","49","","12","","11","","24.1","","100.53","","26","","","","Mostly Cloudy"
"1973-07-24 10:00","1973","07","24","10:00","24.4","","17.2","","64","","13","","13","","24.1","","100.47","","30","","","","Mainly Clear"
"1973-07-24 11:00","1973","07","24","11:00","25.6","","17.2","","60","","13","","14","","19.3","","100.42","","31","","","","Mostly Cloudy"
"1973-07-24 12:00","1973","07","24","12:00","26.7","","15.0","","48","","15","","16","","19.3","","100.35","","31","","","","Mostly Cloudy"
"1973-07-24 13:00","1973","07","24","13:00","27.8","","14.4","","45","","15","","16","","19.3","","100.29","","31","","","","Mostly Cloudy"
"1973-07-24 14:00","1973","07","24","14:00","28.3","","15.0","","44","","13","","14","","19.3","","100.22","","32","","","","Mostly Cloudy"
"1973-07-24 15:00","1973","07","24","15:00","28.3","","15.0","","44","","13","","14","","12.9","","100.16","","32","","","","Mostly Cloudy"
"1973-07-24 16:00","1973","07","24","16:00","27.2","","15.6","","49","","14","","19","","12.9","","100.11","","32","","","","Mostly Cloudy"
"1973-07-24 17:00","1973","07","24","17:00","25.6","","16.1","","56","","14","","18","","19.3","","100.04","","30","","","","Mostly Cloudy"
"1973-07-24 18:00","1973","07","24","18:00","25.6","","14.4","","49","","12","","16","","24.1","","100.00","","29","","","","Mostly Cloudy"
"1973-07-24 19:00","1973","07","24","19:00","23.9","","13.9","","53","","14","","8","","32.2","","99.98","","27","","","","Mostly Cloudy"
"1973-07-24 20:00","1973","07","24","20:00","22.2","","13.3","","57","","16","","5","","25.0","","99.98","","25","","","","Mostly Cloudy"
"1973-07-24 21:00","1973","07","24","21:00","22.2","","13.9","","60","","12","","8","","25.0","","99.98","","26","","","","Cloudy"
"1973-07-24 22:00","1973","07","24","22:00","22.8","","13.9","","57","","11","","11","","25.0","","99.92","","26","","","","Mostly Cloudy"
"1973-07-24 23:00","1973","07","24","23:00","22.8","","12.2","","50","","5","","8","","25.0","","99.90","","25","","","","Cloudy"
"1973-07-25 00:00","1973","07","25","00:00","21.1","","14.4","","65","","4","","3","","25.0","","99.86","","25","","","","Mostly Cloudy"
"1973-07-25 01:00","1973","07","25","01:00","22.2","","11.7","","51","","11","","8","","25.0","","99.78","","","","","","Cloudy"
"1973-07-25 02:00","1973","07","25","02:00","20.0","","15.6","","76","","","","0","","24.1","","99.72","","","","","","Cloudy"
"1973-07-25 03:00","1973","07","25","03:00","20.6","","15.0","","70","","21","","5","","24.1","","99.72","","25","","","","Cloudy"
"1973-07-25 04:00","1973","07","25","04:00","19.4","","17.2","","88","","15","","3","","4.8","","99.71","","","","","","Heavy Rain,Fog"
"1973-07-25 05:00","1973","07","25","05:00","20.0","","20.0","","99","","15","","6","","2.4","","99.67","","28","","","","Rain,Fog"
"1973-07-25 06:00","1973","07","25","06:00","20.6","","20.6","","100","","31","","3","","1.2","","99.67","","29","","","","Moderate Rain,Fog"
"1973-07-25 07:00","1973","07","25","07:00","20.6","","20.0","","98","","","","0","","2.4","","99.67","","28","","","","Rain,Fog"
"1973-07-25 08:00","1973","07","25","08:00","20.6","","20.6","","100","","14","","10","","1.6","","99.63","","29","","","","Rain,Fog"
"1973-07-25 09:00","1973","07","25","09:00","21.1","","20.6","","99","","16","","11","","2.0","","99.61","","29","","","","Rain,Fog"
"1973-07-25 10:00","1973","07","25","10:00","21.1","","20.6","","97","","17","","11","","2.8","","99.58","","29","","","","Fog"
"1973-07-25 11:00","1973","07","25","11:00","21.7","","21.1","","97","","16","","14","","2.8","","99.55","","30","","","","Fog"
"1973-07-25 12:00","1973","07","25","12:00","22.2","","21.1","","94","","17","","10","","4.0","","99.51","","31","","","","Fog"
"1973-07-25 13:00","1973","07","25","13:00","23.3","","21.1","","89","","14","","14","","4.0","","99.44","","32","","","","Fog"
"1973-07-25 14:00","1973","07","25","14:00","23.9","","21.1","","83","","14","","11","","4.0","","99.40","","32","","","","Haze"
"1973-07-25 15:00","1973","07","25","15:00","23.9","","21.1","","86","","13","","18","","4.8","","99.32","","32","","","","Haze"
"1973-07-25 16:00","1973","07","25","16:00","22.2","","21.7","","98","","15","","11","","2.0","","99.30","","31","","","","Moderate Rain Showers,Fog"
"1973-07-25 17:00","1973","07","25","17:00","23.3","","22.8","","96","","15","","18","","2.4","","99.23","","33","","","","Fog"
"1973-07-25 18:00","1973","07","25","18:00","23.3","","21.7","","93","","15","","16","","3.6","","99.22","","32","","","","Fog"
"1973-07-25 19:00","1973","07","25","19:00","22.8","","22.2","","95","","14","","11","","3.6","","99.21","","32","","","","Fog"
"1973-07-25 20:00","1973","07","25","20:00","22.2","","21.7","","97","","12","","13","","2.0","","99.19","","31","","","","Fog"
"1973-07-25 21:00","1973","07","25","21:00","21.7","","21.1","","96","","","","0","","4.0","","99.24","","30","","","","Fog"
"1973-07-25 22:00","1973","07","25","22:00","21.7","","21.1","","97","","","","0","","2.4","","99.23","","30","","","","Fog"
"1973-07-25 23:00","1973","07","25","23:00","21.1","","21.1","","100","","19","","2","","1.6","","99.17","","30","","","","Fog"
"1973-07-26 00:00","1973","07","26","00:00","21.1","","20.6","","97","","","","0","","2.0","","99.16","","29","","","","Fog"
"1973-07-26 01:00","1973","07","26","01:00","20.0","","20.0","","100","","","","0","","0.8","","99.12","","28","","","","Fog"
"1973-07-26 02:00","1973","07","26","02:00","20.0","","20.0","","100","","","","0","","1.2","","99.10","","28","","","","Fog"
"1973-07-26 03:00","1973","07","26","03:00","19.4","","19.4","","99","","","","0","","0.8","","99.06","","","","","","Fog"
"1973-07-26 04:00","1973","07","26","04:00","19.4","","19.4","","100","","","","0","","0.2","","99.04","","","","","","Fog"
"1973-07-26 05:00","1973","07","26","05:00","19.4","","19.4","","100","","","","0","","0.0","","99.02","","","","","","Fog"
"1973-07-26 06:00","1973","07","26","06:00","19.4","","19.4","","100","","","","0","","0.2","","99.01","","","","","","Fog"
"1973-07-26 07:00","1973","07","26","07:00","20.0","","20.0","","100","","","","0","","1.2","","99.01","","28","","","","Fog"
"1973-07-26 08:00","1973","07","26","08:00","21.1","","21.1","","100","","24","","5","","0.4","","98.98","","30","","","","Fog"
"1973-07-26 09:00","1973","07","26","09:00","22.2","","22.2","","99","","19","","11","","1.2","","98.94","","32","","","","Fog"
"1973-07-26 10:00","1973","07","26","10:00","22.8","","21.7","","96","","16","","13","","1.6","","98.91","","32","","","","Fog"
"1973-07-26 11:00","1973","07","26","11:00","23.3","","22.8","","95","","17","","11","","1.6","","98.90","","33","","","","Fog"
"1973-07-26 12:00","1973","07","26","12:00","25.6","","22.8","","86","","16","","13","","3.6","","98.84","","36","","","","Fog"
"1973-07-26 13:00","1973","07","26","13:00","25.0","","22.2","","83","","17","","18","","4.8","","98.79","","35","","","","Haze"
"1973-07-26 14:00","1973","07","26","14:00","25.6","","22.2","","81","","17","","13","","4.8","","98.71","","35","","","","Rain Showers,Haze"
"1973-07-26 15:00","1973","07","26","15:00","25.0","","22.2","","85","","19","","27","","3.2","","98.66","","35","","","","Rain Showers,Haze"
"1973-07-26 16:00","1973","07","26","16:00","23.9","","22.2","","90","","17","","13","","4.8","","98.60","","33","","","","Fog,Haze"
"1973-07-26 17:00","1973","07","26","17:00","25.0","","22.2","","85","","18","","18","","4.8","","98.52","","35","","","","Haze"
"1973-07-26 18:00","1973","07","26","18:00","23.3","","21.7","","90","","16","","14","","4.8","","98.51","","32","","","","Fog,Haze"
"1973-07-26 19:00","1973","07","26","19:00","23.3","","21.7","","93","","17","","16","","3.2","","98.46","","32","","","","Fog"
"1973-07-26 20:00","1973","07","26","20:00","22.8","","21.7","","94","","18","","16","","3.2","","98.47","","32","","","","Fog"
"1973-07-26 21:00","1973","07","26","21:00","22.2","","22.2","","99","","19","","14","","4.0","","98.46","","32","","","","Rain Showers,Fog"
"1973-07-26 22:00","1973","07","26","22:00","22.2","","21.7","","96","","19","","14","","4.0","","98.45","","31","","","","Fog"
"1973-07-26 23:00","1973","07","26","23:00","21.7","","21.1","","96","","20","","11","","4.8","","98.42","","30","","","","Fog"
"1973-07-27 00:00","1973","07","27","00:00","22.2","","21.1","","94","","22","","14","","6.4","","98.42","","31","","","","Fog"
"1973-07-27 01:00","1973","07","27","01:00","21.1","","20.6","","96","","21","","14","","4.0","","98.42","","29","","","","Fog"
"1973-07-27 02:00","1973","07","27","02:00","20.6","","19.4","","95","","21","","11","","8.0","","98.40","","28","","","","Fog"
"1973-07-27 03:00","1973","07","27","03:00","20.0","","19.4","","95","","21","","10","","8.0","","98.38","","27","","","","Fog"
"1973-07-27 04:00","1973","07","27","04:00","19.4","","18.9","","95","","23","","11","","8.0","","98.36","","","","","","Fog"
"1973-07-27 05:00","1973","07","27","05:00","19.4","","18.3","","95","","21","","10","","4.8","","98.37","","","","","","Fog"
"1973-07-27 06:00","1973","07","27","06:00","20.0","","19.4","","96","","23","","14","","4.8","","98.37","","27","","","","Fog"
"1973-07-27 07:00","1973","07","27","07:00","21.1","","20.0","","94","","23","","16","","4.8","","98.39","","29","","","","Fog"
"1973-07-27 08:00","1973","07","27","08:00","22.2","","19.4","","83","","24","","23","","9.7","","98.40","","29","","","","Haze"
"1973-07-27 09:00","1973","07","27","09:00","23.9","","18.9","","73","","24","","24","","9.7","","98.41","","31","","","","Haze"
"1973-07-27 10:00","1973","07","27","10:00","23.9","","17.2","","65","","23","","26","","12.9","","98.41","","29","","","","Mostly Cloudy"
"1973-07-27 11:00","1973","07","27","11:00","25.6","","18.3","","65","","24","","32","","12.9","","98.41","","32","","","","Mostly Cloudy"
"1973-07-27 12:00","1973","07","27","12:00","25.6","","18.3","","64","","23","","32","","12.9","","98.38","","32","","","","Mostly Cloudy"
"1973-07-27 13:00","1973","07","27","13:00","25.0","","18.3","","66","","24","","26","","16.1","","98.36","","31","","","","Mostly Cloudy"
"1973-07-27 14:00","1973","07","27","14:00","25.6","","18.9","","65","","24","","35","","16.1","","98.35","","32","","","","Mostly Cloudy"
"1973-07-27 15:00","1973","07","27","15:00","25.0","","18.9","","68","","23","","23","","12.9","","98.34","","32","","","","Rain Showers"
"1973-07-27 16:00","1973","07","27","16:00","23.3","","18.9","","76","","24","","19","","12.9","","98.36","","30","","","","Rain Showers"
"1973-07-27 17:00","1973","07","27","17:00","24.4","","20.0","","76","","22","","23","","11.3","","98.35","","32","","","","Rain Showers"
"1973-07-27 18:00","1973","07","27","18:00","25.0","","19.4","","71","","22","","27","","16.1","","98.36","","32","","","","Mainly Clear"
"1973-07-27 19:00","1973","07","27","19:00","24.4","","18.9","","72","","23","","16","","14.5","","98.37","","31","","","","Mainly Clear"
"1973-07-27 20:00","1973","07","27","20:00","23.3","","18.9","","77","","22","","14","","12.9","","98.40","","30","","","","Mainly Clear"
"1973-07-27 21:00","1973","07","27","21:00","22.8","","18.3","","75","","20","","16","","19.3","","98.44","","29","","","","Mostly Cloudy"
"1973-07-27 22:00","1973","07","27","22:00","21.7","","17.8","","79","","23","","16","","19.3","","98.46","","28","","","","Mainly Clear"
"1973-07-27 23:00","1973","07","27","23:00","21.1","","17.8","","79","","21","","13","","19.3","","98.50","","27","","","","Mainly Clear"
"1973-07-28 00:00","1973","07","28","00:00","20.6","","17.2","","82","","21","","13","","19.3","","98.53","","26","","","","Mainly Clear"
"1973-07-28 01:00","1973","07","28","01:00","20.0","","16.7","","80","","20","","11","","19.3","","98.55","","25","","","","Mainly Clear"
"1973-07-28 02:00","1973","07","28","02:00","19.4","","16.7","","84","","20","","10","","12.9","","98.61","","","","","","Mainly Clear"
"1973-07-28 03:00","1973","07","28","03:00","19.4","","17.2","","87","","21","","6","","12.9","","98.62","","","","","","Mostly Cloudy"
"1973-07-28 04:00","1973","07","28","04:00","18.9","","17.8","","92","","22","","10","","12.9","","98.62","","","","","","Mostly Cloudy"
"1973-07-28 05:00","1973","07","28","05:00","20.0","","18.3","","91","","24","","11","","6.4","","98.65","","26","","","","Fog"
"1973-07-28 06:00","1973","07","28","06:00","20.6","","18.9","","89","","22","","13","","6.4","","98.65","","27","","","","Fog"
"1973-07-28 07:00","1973","07","28","07:00","20.6","","18.3","","87","","23","","13","","16.1","","98.67","","27","","","","Mostly Cloudy"
"1973-07-28 08:00","1973","07","28","08:00","21.7","","17.8","","81","","23","","16","","16.1","","98.69","","28","","","","Mainly Clear"
"1973-07-28 09:00","1973","07","28","09:00","22.8","","18.3","","76","","23","","14","","19.3","","98.69","","29","","","","Mostly Cloudy"
"1973-07-28 10:00","1973","07","28","10:00","25.6","","19.4","","69","","25","","21","","24.1","","98.70","","33","","","","Mostly Cloudy"
"1973-07-28 11:00","1973","07","28","11:00","23.9","","17.8","","70","","28","","18","","32.2","","98.66","","30","","","","Mostly Cloudy"
"1973-07-28 12:00","1973","07","28","12:00","22.2","","18.3","","78","","27","","14","","32.2","","98.65","","28","","","","Thunderstorms,Rain Showers"
"1973-07-28 13:00","1973","07","28","13:00","25.0","","17.8","","64","","26","","11","","32.2","","98.64","","31","","","","Mainly Clear"
"1973-07-28 14:00","1973","07","28","14:00","25.6","","16.7","","58","","15","","13","","24.1","","98.59","","31","","","","Mainly Clear"
"1973-07-28 15:00","1973","07","28","15:00","23.9","","20.0","","77","","14","","16","","19.3","","98.61","","31","","","","Mainly Clear"
"1973-07-28 16:00","1973","07","28","16:00","23.9","","18.9","","73","","15","","16","","19.3","","98.56","","31","","","","Mainly Clear"
"1973-07-28 17:00","1973","07","28","17:00","21.1","","15.0","","68","","28","","35","","32.2","","98.67","","25","","","","Mostly Cloudy"
"1973-07-28 18:00","1973","07","28","18:00","21.1","","14.4","","64","","31","","24","","32.2","","98.71","","25","","","","Mostly Cloudy"
"1973-07-28 19:00","1973","07","28","19:00","20.6","","13.9","","67","","31","","19","","32.2","","98.78","","","","","","Mostly Cloudy"
"1973-07-28 20:00","1973","07","28","20:00","19.4","","15.0","","76","","29","","18","","24.1","","98.84","","","","","","Mostly Cloudy"
"1973-07-28 21:00","1973","07","28","21:00","18.3","","15.0","","82","","21","","8","","25.0","","98.92","","","","","","Mostly Cloudy"
"1973-07-28 22:00","1973","07","28","22:00","18.3","","15.6","","85","","26","","10","","25.0","","98.94","","","","","","Mostly Cloudy"
"1973-07-28 23:00","1973","07","28","23:00","18.9","","15.6","","82","","27","","14","","25.0","","98.95","","","","","","Cloudy"
"1973-07-29 00:00","1973","07","29","00:00","16.7","","14.4","","88","","27","","13","","25.0","","98.99","","","","","","Mainly Clear"
"1973-07-29 01:00","1973","07","29","01:00","16.7","","14.4","","87","","26","","6","","25.0","","99.05","","","","","","Mostly Cloudy"
"1973-07-29 02:00","1973","07","29","02:00","16.1","","14.4","","88","","28","","13","","25.0","","99.05","","","","","","Mainly Clear"
"1973-07-29 03:00","1973","07","29","03:00","16.1","","14.4","","89","","30","","13","","25.0","","99.07","","","","","","Mainly Clear"
"1973-07-29 04:00","1973","07","29","04:00","15.6","","14.4","","92","","29","","14","","25.0","","99.06","","","","","","Mainly Clear"
"1973-07-29 05:00","1973","07","29","05:00","15.6","","14.4","","92","","29","","16","","25.0","","99.15","","","","","","Mainly Clear"
"1973-07-29 06:00","1973","07","29","06:00","16.1","","15.0","","91","","29","","14","","32.2","","99.20","","","","","","Mainly Clear"
"1973-07-29 07:00","1973","07","29","07:00","18.3","","15.6","","85","","33","","14","","32.2","","99.23","","","","","","Mainly Clear"
"1973-07-29 08:00","1973","07","29","08:00","19.4","","16.1","","81","","33","","23","","32.2","","99.27","","","","","","Mainly Clear"
"1973-07-29 09:00","1973","07","29","09:00","21.7","","16.1","","72","","35","","21","","32.2","","99.31","","26","","","","Mainly Clear"
"1973-07-29 10:00","1973","07","29","10:00","21.1","","15.6","","69","","35","","23","","32.2","","99.34","","25","","","","Mainly Clear"
"1973-07-29 11:00","1973","07","29","11:00","22.8","","15.0","","61","","33","","19","","32.2","","99.38","","27","","","","Mainly Clear"
"1973-07-29 12:00","1973","07","29","12:00","23.9","","14.4","","56","","32","","18","","32.2","","99.37","","28","","","","Mainly Clear"
"1973-07-29 13:00","1973","07","29","13:00","24.4","","13.3","","49","","34","","16","","32.2","","99.38","","27","","","","Mainly Clear"
"1973-07-29 14:00","1973","07","29","14:00","25.0","","12.8","","46","","33","","10","","40.2","","99.37","","28","","","","Mainly Clear"
"1973-07-29 15:00","1973","07","29","15:00","26.1","","13.9","","47","","30","","16","","40.2","","99.39","","29","","","","Mainly Clear"
"1973-07-29 16:00","1973","07","29","16:00","25.6","","11.7","","42","","34","","6","","40.2","","99.39","","28","","","","Mainly Clear"
"1973-07-29 17:00","1973","07","29","17:00","25.0","","11.7","","44","","32","","10","","40.2","","99.37","","27","","","","Mainly Clear"
"1973-07-29 18:00","1973","07","29","18:00","24.4","","13.9","","52","","18","","11","","40.2","","99.33","","28","","","","Mainly Clear"
"1973-07-29 19:00","1973","07","29","19:00","23.3","","13.9","","55","","18","","10","","32.2","","99.35","","27","","","","Mainly Clear"
"1973-07-29 20:00","1973","07","29","20:00","20.0","","15.0","","72","","33","","13","","25.0","","99.37","","","","","","Mainly Clear"
"1973-07-29 21:00","1973","07","29","21:00","17.8","","13.9","","78","","34","","13","","25.0","","99.42","","","","","","Mainly Clear"
"1973-07-29 22:00","1973","07","29","22:00","17.8","","13.3","","75","","33","","14","","25.0","","99.47","","","","","","Mainly Clear"
"1973-07-29 23:00","1973","07","29","23:00","16.7","","13.3","","80","","34","","5","","25.0","","99.47","","","","","","Clear"
"1973-07-30 00:00","1973","07","30","00:00","15.0","","13.3","","89","","35","","6","","25.0","","99.48","","","","","","Mainly Clear"
"1973-07-30 01:00","1973","07","30","01:00","13.9","","12.2","","89","","30","","6","","25.0","","99.49","","","","","","Mainly Clear"
"1973-07-30 02:00","1973","07","30","02:00","13.3","","12.2","","92","","25","","6","","25.0","","99.54","","","","","","Mainly Clear"
"1973-07-30 03:00","1973","07","30","03:00","13.3","","12.2","","92","","","","0","","25.0","","99.55","","","","","","Mainly Clear"
"1973-07-30 04:00","1973","07","30","04:00","13.9","","12.2","","89","","","","0","","25.0","","99.55","","","","","","Mainly Clear"
"1973-07-30 05:00","1973","07","30","05:00","12.8","","11.7","","92","","","","0","","25.0","","99.56","","","","","","Mainly Clear"
"1973-07-30 06:00","1973","07","30","06:00","13.9","","12.2","","90","","","","0","","32.2","","99.59","","","","","","Mostly Cloudy"
"1973-07-30 07:00","1973","07","30","07:00","16.7","","13.9","","86","","","","0","","32.2","","99.61","","","","","","Mostly Cloudy"
"1973-07-30 08:00","1973","07","30","08:00","19.4","","12.8","","66","","19","","5","","16.1","","99.62","","","","","","Mostly Cloudy"
"1973-07-30 09:00","1973","07","30","09:00","21.7","","16.1","","70","","21","","14","","32.2","","99.63","","26","","","","Mostly Cloudy"
"1973-07-30 10:00","1973","07","30","10:00","22.8","","16.1","","65","","21","","16","","40.2","","99.63","","27","","","","Mostly Cloudy"
"1973-07-30 11:00","1973","07","30","11:00","22.8","","16.1","","66","","15","","16","","40.2","","99.60","","27","","","","Mostly Cloudy"
"1973-07-30 12:00","1973","07","30","12:00","23.9","","16.7","","62","","17","","23","","24.1","","99.58","","29","","","","Mostly Cloudy"
"1973-07-30 13:00","1973","07","30","13:00","23.3","","16.1","","64","","15","","23","","32.2","","99.58","","28","","","","Mostly Cloudy"
"1973-07-30 14:00","1973","07","30","14:00","24.4","","14.4","","54","","15","","23","","32.2","","99.55","","28","","","","Mostly Cloudy"
"1973-07-30 15:00","1973","07","30","15:00","24.4","","12.8","","49","","15","","19","","32.2","","99.51","","27","","","","Mostly Cloudy"
"1973-07-30 16:00","1973","07","30","16:00","23.9","","15.0","","58","","15","","19","","24.1","","99.50","","28","","","","Mostly Cloudy"
"1973-07-30 17:00","1973","07","30","17:00","23.3","","15.6","","62","","15","","16","","24.1","","99.51","","28","","","","Mostly Cloudy"
"1973-07-30 18:00","1973","07","30","18:00","23.3","","17.8","","71","","14","","19","","12.9","","99.45","","29","","","","Mostly Cloudy"
"1973-07-30 19:00","1973","07","30","19:00","22.2","","17.2","","72","","14","","11","","12.9","","99.51","","28","","","","Mostly Cloudy"
"1973-07-30 20:00","1973","07","30","20:00","21.7","","17.8","","79","","13","","11","","9.7","","99.51","","28","","","","Haze"
"1973-07-30 21:00","1973","07","30","21:00","21.1","","17.8","","82","","13","","11","","19.3","","99.53","","27","","","","Mostly Cloudy"
"1973-07-30 22:00","1973","07","30","22:00","20.6","","18.3","","86","","14","","10","","16.1","","99.52","","27","","","","Mostly Cloudy"
"1973-07-30 23:00","1973","07","30","23:00","20.0","","17.8","","87","","14","","8","","12.9","","99.52","","26","","","","Mostly Cloudy"
"1973-07-31 00:00","1973","07","31","00:00","19.4","","17.8","","91","","15","","8","","12.9","","99.51","","","","","","Mainly Clear"
"1973-07-31 01:00","1973","07","31","01:00","19.4","","18.3","","94","","14","","6","","9.7","","99.50","","","","","","Fog"
"1973-07-31 02:00","1973","07","31","02:00","18.3","","17.8","","97","","","","0","","6.4","","99.47","","","","","","Fog"
"1973-07-31 03:00","1973","07","31","03:00","17.8","","17.2","","96","","","","0","","4.8","","99.44","","","","","","Fog"
"1973-07-31 04:00","1973","07","31","04:00","19.4","","18.9","","95","","","","0","","6.4","","99.45","","","","","","Fog"
"1973-07-31 05:00","1973","07","31","05:00","17.8","","16.7","","94","","","","0","","4.8","","99.45","","","","","","Fog"
"1973-07-31 06:00","1973","07","31","06:00","17.2","","16.7","","97","","32","","5","","4.0","","99.46","","","","","","Fog"
"1973-07-31 07:00","1973","07","31","07:00","18.9","","17.8","","94","","","","0","","4.0","","99.48","","","","","","Fog"
"1973-07-31 08:00","1973","07","31","08:00","20.0","","18.9","","95","","","","0","","4.0","","99.49","","27","","","","Fog"
"1973-07-31 09:00","1973","07","31","09:00","21.1","","18.9","","86","","19","","8","","4.0","","99.51","","28","","","","Rain Showers,Fog"
"1973-07-31 10:00","1973","07","31","10:00","21.1","","19.4","","89","","20","","8","","4.8","","99.51","","28","","","","Rain Showers,Fog"
"1973-07-31 11:00","1973","07","31","11:00","21.7","","20.0","","91","","21","","13","","4.8","","99.52","","29","","","","Rain Showers,Fog"
"1973-07-31 12:00","1973","07","31","12:00","21.7","","20.0","","91","","21","","8","","6.4","","99.54","","29","","","","Rain Showers,Fog"
"1973-07-31 13:00","1973","07","31","13:00","22.2","","20.0","","88","","19","","11","","4.8","","99.48","","30","","","","Rain Showers,Haze"
"1973-07-31 14:00","1973","07","31","14:00","22.8","","20.0","","85","","18","","5","","8.0","","99.45","","30","","","","Rain Showers,Haze"
"1973-07-31 15:00","1973","07","31","15:00","22.8","","20.0","","83","","14","","5","","8.0","","99.40","","30","","","","Haze"
"1973-07-31 16:00","1973","07","31","16:00","23.9","","19.4","","75","","14","","6","","8.0","","99.36","","31","","","","Haze"
"1973-07-31 17:00","1973","07","31","17:00","23.9","","18.9","","75","","17","","10","","8.0","","99.33","","31","","","","Haze"
"1973-07-31 18:00","1973","07","31","18:00","23.9","","18.9","","74","","14","","6","","9.7","","99.30","","31","","","","Haze"
"1973-07-31 19:00","1973","07","31","19:00","23.3","","19.4","","80","","14","","8","","8.0","","99.32","","30","","","","Haze"
"1973-07-31 20:00","1973","07","31","20:00","21.7","","19.4","","85","","14","","11","","6.4","","99.30","","29","","","","Haze"
"1973-07-31 21:00","1973","07","31","21:00","22.2","","18.3","","79","","8","","11","","9.7","","99.33","","28","","","","Rain Showers,Haze"
"1973-07-31 22:00","1973","07","31","22:00","21.7","","18.3","","80","","8","","10","","8.0","","99.31","","28","","","","Haze"
"1973-07-31 23:00","1973","07","31","23:00","21.7","","18.3","","83","","4","","13","","8.0","","99.24","","28","","","","Haze"
