"Station Name","TORONTO LESTER B. PEARSON INT'L A"
"Province","ONTARIO"
"Latitude","43.68"
"Longitude","-79.63"
"Elevation","173.40"
"Climate Identifier","6158733"
"WMO Identifier","71624"
"TC Identifier","YYZ"
"All times are specified in Local Standard Time (LST). Add 1 hour to adjust for Daylight Saving Time where and when it is observed."

"Legend"
"E","Estimated"
"M","Missing"
"NA","Not Available"

"Date/Time","Year","Month","Day","Time","Temp (°C)","Temp Flag","Dew Point Temp (°C)","Dew Point Temp Flag","Rel Hum (%)","Rel Hum Flag","Wind Dir (10s deg)","Wind Dir Flag","Wind Spd (km/h)","Wind Spd Flag","Visibility (km)","Visibility Flag","Stn Press (kPa)","Stn Press Flag","Hmdx","Hmdx Flag","Wind Chill","Wind Chill Flag","Weather"
"1996-03-01 00:00","1996","03","01","00:00","-7.4","","-11.8","","71","","20","","15","","25.0","","99.35","","","","-14","","Mainly Clear"
"1996-03-01 01:00","1996","03","01","01:00","-7.1","","-11.6","","70","","21","","17","","25.0","","99.32","","","","-14","","Mainly Clear"
"1996-03-01 02:00","1996","03","01","02:00","-7.1","","-12.4","","66","","24","","19","","25.0","","99.32","","","","-14","","Mostly Cloudy"
"1996-03-01 03:00","1996","03","01","03:00","-7.6","","-13.6","","62","","25","","17","","25.0","","99.26","","","","-14","","Mainly Clear"
"1996-03-01 04:00","1996","03","01","04:00","-8.5","","-13.2","","69","","22","","9","","25.0","","99.22","","","","-13","","Clear"
"1996-03-01 05:00","1996","03","01","05:00","-8.4","","-13.6","","66","","21","","13","","25.0","","99.19","","","","-14","","Clear"
"1996-03-01 06:00","1996","03","01","06:00","-8.6","","-13.6","","67","","21","","20","","25.0","","99.19","","","","-16","","Clear"
"1996-03-01 07:00","1996","03","01","07:00","-9.0","","-14.3","","65","","22","","17","","24.1","","99.16","","","","-16","","Mostly Cloudy"
"1996-03-01 08:00","1996","03","01","08:00","-7.9","","-13.4","","65","","23","","15","","24.1","","99.19","","","","-14","","Mostly Cloudy"
"1996-03-01 09:00","1996","03","01","09:00","-6.2","","-12.3","","62","","23","","22","","24.1","","99.16","","","","-13","","Mostly Cloudy"
"1996-03-01 10:00","1996","03","01","10:00","-5.3","","-12.5","","57","","22","","28","","24.1","","99.09","","","","-13","","Mainly Clear"
"1996-03-01 11:00","1996","03","01","11:00","-4.3","","-11.9","","55","","22","","37","","24.1","","99.06","","","","-13","","Snow Showers"
"1996-03-01 12:00","1996","03","01","12:00","-4.0","","-11.5","","56","","22","","30","","24.1","","99.02","","","","-12","","Mostly Cloudy"
"1996-03-01 13:00","1996","03","01","13:00","-2.5","","-11.8","","49","","23","","28","","32.2","","98.99","","","","-10","","Mostly Cloudy"
"1996-03-01 14:00","1996","03","01","14:00","-3.4","","-10.7","","57","","23","","30","","24.1","","98.96","","","","-11","","Mostly Cloudy"
"1996-03-01 15:00","1996","03","01","15:00","-3.0","","-10.0","","58","","23","","26","","24.1","","98.92","","","","-10","","Snow Showers"
"1996-03-01 16:00","1996","03","01","16:00","-3.0","","-11.2","","53","","21","","26","","24.1","","98.92","","","","-10","","Mainly Clear"
"1996-03-01 17:00","1996","03","01","17:00","-3.0","","-10.0","","58","","21","","24","","24.1","","98.92","","","","-10","","Mainly Clear"
"1996-03-01 18:00","1996","03","01","18:00","-3.5","","-10.3","","59","","20","","26","","24.1","","98.96","","","","-11","","Mainly Clear"
"1996-03-01 19:00","1996","03","01","19:00","-4.0","","-9.9","","63","","21","","15","","24.1","","98.96","","","","-9","","Clear"
"1996-03-01 20:00","1996","03","01","20:00","-4.4","","-10.2","","64","","19","","9","","24.1","","98.92","","","","-8","","Mostly Cloudy"
"1996-03-01 21:00","1996","03","01","21:00","-4.5","","-10.2","","64","","21","","7","","24.1","","98.89","","","","-8","","Mostly Cloudy"
"1996-03-01 22:00","1996","03","01","22:00","-4.3","","-11.0","","60","","19","","6","","24.1","","98.86","","","","-7","","Mostly Cloudy"
"1996-03-01 23:00","1996","03","01","23:00","-3.6","","-8.8","","67","","17","","11","","25.0","","98.82","","","","-8","","Mostly Cloudy"
"1996-03-02 00:00","1996","03","02","00:00","-4.2","","-7.6","","77","","15","","11","","25.0","","98.76","","","","-9","","Mainly Clear"
"1996-03-02 01:00","1996","03","02","01:00","-4.2","","-7.0","","81","","13","","11","","25.0","","98.66","","","","-9","","Mostly Cloudy"
"1996-03-02 02:00","1996","03","02","02:00","-4.1","","-7.3","","78","","13","","13","","25.0","","98.56","","","","-9","","Mostly Cloudy"
"1996-03-02 03:00","1996","03","02","03:00","-3.7","","-7.0","","78","","14","","15","","24.1","","98.42","","","","-9","","Mostly Cloudy"
"1996-03-02 04:00","1996","03","02","04:00","-1.9","","-6.4","","71","","16","","22","","24.1","","98.32","","","","-8","","Cloudy"
"1996-03-02 05:00","1996","03","02","05:00","-1.6","","-6.4","","70","","17","","22","","24.1","","98.26","","","","-8","","Cloudy"
"1996-03-02 06:00","1996","03","02","06:00","-1.5","","-6.7","","68","","17","","24","","24.1","","98.22","","","","-8","","Cloudy"
"1996-03-02 07:00","1996","03","02","07:00","-1.5","","-7.7","","63","","17","","22","","19.3","","98.16","","","","-7","","Mostly Cloudy"
"1996-03-02 08:00","1996","03","02","08:00","-0.9","","-7.4","","61","","19","","26","","19.3","","98.09","","","","-7","","Snow Showers"
"1996-03-02 09:00","1996","03","02","09:00","-1.5","","-4.2","","82","","20","","32","","6.4","","98.09","","","","-9","","Snow"
"1996-03-02 10:00","1996","03","02","10:00","-1.0","","-2.7","","88","","19","","30","","3.2","","98.06","","","","-8","","Snow"
"1996-03-02 11:00","1996","03","02","11:00","0.4","","-3.5","","75","","20","","30","","24.1","","97.99","","","","","","Mostly Cloudy"
"1996-03-02 12:00","1996","03","02","12:00","0.9","","-3.6","","72","","20","","43","","12.9","","97.99","","","","","","Snow Showers"
"1996-03-02 13:00","1996","03","02","13:00","0.0","","-4.3","","73","","25","","24","","9.7","","98.02","","","","-6","","Snow Showers"
"1996-03-02 14:00","1996","03","02","14:00"
"1996-03-02 15:00","1996","03","02","15:00","1.5","","-5.4","","60","","24","","22","","32.2","","97.99","","","","","","Mostly Cloudy"
"1996-03-02 16:00","1996","03","02","16:00","1.7","","-6.8","","53","","22","","28","","24.1","","97.96","","","","","","Mostly Cloudy"
"1996-03-02 17:00","1996","03","02","17:00","0.8","","-5.5","","63","","24","","33","","24.1","","98.02","","","","","","Snow Showers"
"1996-03-02 18:00","1996","03","02","18:00","-1.0","","-5.7","","70","","24","","20","","24.1","","98.09","","","","-7","","Mostly Cloudy"
"1996-03-02 19:00","1996","03","02","19:00","-2.0","","-3.9","","87","","27","","11","","19.3","","98.16","","","","-6","","Snow Showers"
"1996-03-02 20:00","1996","03","02","20:00","-3.0","","-5.4","","83","","29","","11","","19.3","","98.16","","","","-7","","Mostly Cloudy"
"1996-03-02 21:00","1996","03","02","21:00","-3.2","","-5.4","","85","","32","","6","","19.3","","98.09","","","","-6","","Cloudy"
"1996-03-02 22:00","1996","03","02","22:00","-3.3","","-6.7","","77","","19","","2","","19.3","","98.06","","","","-4","","Cloudy"
"1996-03-02 23:00","1996","03","02","23:00","-2.7","","-5.7","","80","","20","","4","","19.3","","98.06","","","","-4","","Snow Showers"
"1996-03-03 00:00","1996","03","03","00:00","-3.2","","-4.2","","93","","19","","24","","1.2","","97.96","","","","-10","","Snow Showers"
"1996-03-03 01:00","1996","03","03","01:00","-5.1","","-8.6","","76","","27","","28","","16.1","","98.06","","","","-13","","Snow Showers"
"1996-03-03 02:00","1996","03","03","02:00","-6.4","","-11.3","","68","","26","","37","","24.1","","98.12","","","","-16","","Mainly Clear"
"1996-03-03 03:00","1996","03","03","03:00","-7.4","","-11.8","","71","","26","","35","","24.1","","98.16","","","","-17","","Mainly Clear"
"1996-03-03 04:00","1996","03","03","04:00","-8.0","","-13.4","","65","","25","","44","","24.1","","98.19","","","","-18","","Mainly Clear"
"1996-03-03 05:00","1996","03","03","05:00","-8.6","","-13.6","","67","","26","","48","","24.1","","98.29","","","","-20","","Mostly Cloudy"
"1996-03-03 06:00","1996","03","03","06:00","-9.8","","-15.7","","62","","26","","43","","24.1","","98.39","","","","-21","","Mainly Clear"
"1996-03-03 07:00","1996","03","03","07:00","-10.8","","-17.2","","59","","26","","41","","24.1","","98.56","","","","-22","","Mostly Cloudy"
"1996-03-03 08:00","1996","03","03","08:00","-10.8","","-15.5","","68","","26","","41","","11.3","","98.66","","","","-22","","Mostly Cloudy"
"1996-03-03 09:00","1996","03","03","09:00","-9.7","","-14.0","","71","","26","","33","","19.3","","98.76","","","","-20","","Mostly Cloudy"
"1996-03-03 10:00","1996","03","03","10:00","-8.5","","-12.7","","72","","27","","37","","16.1","","98.89","","","","-18","","Mostly Cloudy"
"1996-03-03 11:00","1996","03","03","11:00","-7.5","","-14.1","","59","","29","","52","","24.1","","99.02","","","","-19","","Mainly Clear"
"1996-03-03 12:00","1996","03","03","12:00","-6.3","","-13.5","","57","","29","","52","","32.2","","99.16","","","","-17","","Mainly Clear"
"1996-03-03 13:00","1996","03","03","13:00","-5.5","","-11.6","","62","","28","","56","","24.1","","99.22","","","","-16","","Mostly Cloudy"
"1996-03-03 14:00","1996","03","03","14:00","-5.2","","-10.5","","66","","31","","52","","12.9","","99.39","","","","-15","","Snow Showers"
"1996-03-03 15:00","1996","03","03","15:00","-6.7","","-13.1","","60","","28","","52","","16.1","","99.59","","","","-17","","Snow Showers"
"1996-03-03 16:00","1996","03","03","16:00","-6.5","","-16.2","","46","","29","","56","","32.2","","99.72","","","","-17","","Mainly Clear"
"1996-03-03 17:00","1996","03","03","17:00","-8.0","","-15.9","","53","","30","","52","","40.2","","99.85","","","","-19","","Mainly Clear"
"1996-03-03 18:00","1996","03","03","18:00","-8.5","","-16.7","","52","","29","","44","","40.2","","99.99","","","","-19","","Clear"
"1996-03-03 19:00","1996","03","03","19:00","-9.3","","-16.6","","55","","29","","24","","25.0","","100.05","","","","-18","","Clear"
"1996-03-03 20:00","1996","03","03","20:00","-9.5","","-15.5","","62","","28","","22","","25.0","","100.12","","","","-18","","Clear"
"1996-03-03 21:00","1996","03","03","21:00","-10.1","","-15.2","","66","","26","","11","","25.0","","100.19","","","","-16","","Clear"
"1996-03-03 22:00","1996","03","03","22:00","-9.7","","-14.5","","68","","26","","19","","25.0","","100.22","","","","-17","","Clear"
"1996-03-03 23:00","1996","03","03","23:00","-9.4","","-13.1","","74","","26","","19","","25.0","","100.29","","","","-17","","Clear"
"1996-03-04 00:00","1996","03","04","00:00","-9.5","","-14.0","","70","","26","","24","","25.0","","100.35","","","","-18","","Clear"
"1996-03-04 01:00","1996","03","04","01:00","-9.9","","-14.2","","71","","26","","19","","25.0","","100.35","","","","-18","","Clear"
"1996-03-04 02:00","1996","03","04","02:00","-10.0","","-13.8","","74","","26","","11","","25.0","","100.39","","","","-16","","Clear"
"1996-03-04 03:00","1996","03","04","03:00","-10.0","","-14.2","","71","","25","","11","","25.0","","100.35","","","","-16","","Clear"
"1996-03-04 04:00","1996","03","04","04:00","-10.5","","-14.4","","73","","23","","11","","25.0","","100.42","","","","-16","","Clear"
"1996-03-04 05:00","1996","03","04","05:00","-10.9","","-14.1","","77","","24","","11","","25.0","","100.45","","","","-17","","Clear"
"1996-03-04 06:00","1996","03","04","06:00","-10.7","","-13.5","","80","","24","","15","","25.0","","100.52","","","","-18","","Clear"
"1996-03-04 07:00","1996","03","04","07:00","-10.8","","-14.1","","77","","26","","11","","24.1","","100.55","","","","-17","","Clear"
"1996-03-04 08:00","1996","03","04","08:00","-9.5","","-12.7","","77","","27","","19","","32.2","","100.62","","","","-17","","Clear"
"1996-03-04 09:00","1996","03","04","09:00","-7.5","","-12.7","","66","","28","","22","","32.2","","100.65","","","","-15","","Clear"
"1996-03-04 10:00","1996","03","04","10:00","-6.8","","-13.8","","57","","27","","30","","32.2","","100.69","","","","-15","","Mainly Clear"
"1996-03-04 11:00","1996","03","04","11:00","-5.2","","-11.3","","62","","26","","30","","32.2","","100.69","","","","-13","","Mainly Clear"
"1996-03-04 12:00","1996","03","04","12:00","-4.5","","-12.3","","54","","27","","26","","32.2","","100.69","","","","-12","","Mainly Clear"
"1996-03-04 13:00","1996","03","04","13:00","-4.0","","-11.5","","56","","26","","30","","32.2","","100.62","","","","-12","","Mainly Clear"
"1996-03-04 14:00","1996","03","04","14:00","-3.9","","-11.5","","55","","27","","30","","32.2","","100.65","","","","-12","","Mostly Cloudy"
"1996-03-04 15:00","1996","03","04","15:00","-4.4","","-11.4","","58","","26","","33","","32.2","","100.59","","","","-13","","Mostly Cloudy"
"1996-03-04 16:00","1996","03","04","16:00","-3.5","","-10.7","","57","","28","","33","","32.2","","100.55","","","","-11","","Mostly Cloudy"
"1996-03-04 17:00","1996","03","04","17:00","-3.5","","-12.1","","51","","25","","19","","32.2","","100.49","","","","-9","","Mostly Cloudy"
"1996-03-04 18:00","1996","03","04","18:00","-3.6","","-10.7","","58","","26","","7","","32.2","","100.45","","","","-7","","Cloudy"
"1996-03-04 19:00","1996","03","04","19:00","-3.8","","-10.7","","59","","23","","7","","25.0","","100.39","","","","-7","","Cloudy"
"1996-03-04 20:00","1996","03","04","20:00","-3.6","","-9.9","","62","","22","","11","","25.0","","100.35","","","","-8","","Cloudy"
"1996-03-04 21:00","1996","03","04","21:00","-3.5","","-10.3","","59","","21","","9","","25.0","","100.25","","","","-7","","Cloudy"
"1996-03-04 22:00","1996","03","04","22:00","-3.5","","-10.3","","59","","22","","9","","25.0","","100.22","","","","-7","","Cloudy"
"1996-03-04 23:00","1996","03","04","23:00","-4.3","","-8.7","","71","","21","","13","","6.4","","100.19","","","","-9","","Snow"
"1996-03-05 00:00","1996","03","05","00:00","-5.3","","-6.8","","89","","19","","7","","2.4","","100.09","","","","-9","","Snow"
"1996-03-05 01:00","1996","03","05","01:00","-5.6","","-6.2","","96","","13","","4","","4.0","","99.95","","","","-7","","Snow"
"1996-03-05 02:00","1996","03","05","02:00","-5.3","","-6.2","","93","","9","","6","","2.4","","99.75","","","","-8","","Snow"
"1996-03-05 03:00","1996","03","05","03:00","-4.4","","-5.1","","95","","14","","13","","4.0","","99.55","","","","-9","","Snow"
"1996-03-05 04:00","1996","03","05","04:00","-4.0","","-4.5","","96","","13","","11","","4.0","","99.45","","","","-8","","Snow"
"1996-03-05 05:00","1996","03","05","05:00","-3.6","","-4.2","","96","","11","","9","","4.8","","99.35","","","","-7","","Snow"
"1996-03-05 06:00","1996","03","05","06:00","-3.7","","-4.0","","98","","9","","11","","1.6","","99.22","","","","-8","","Snow"
"1996-03-05 07:00","1996","03","05","07:00","-3.5","","-4.2","","95","","7","","4","","1.0","","99.16","","","","-5","","Snow"
"1996-03-05 08:00","1996","03","05","08:00","-3.2","","-3.7","","96","","3","","9","","1.0","","99.12","","","","-7","","Snow"
"1996-03-05 09:00","1996","03","05","09:00","-3.3","","-4.2","","93","","36","","11","","1.0","","99.06","","","","-8","","Snow"
"1996-03-05 10:00","1996","03","05","10:00","-3.2","","-3.7","","96","","1","","13","","1.0","","99.02","","","","-8","","Snow"
"1996-03-05 11:00","1996","03","05","11:00","-2.7","","-3.4","","95","","2","","15","","1.2","","99.02","","","","-8","","Snow"
"1996-03-05 12:00","1996","03","05","12:00","-3.0","","-3.9","","93","","3","","11","","3.2","","99.06","","","","-7","","Snow"
"1996-03-05 13:00","1996","03","05","13:00","-2.3","","-3.9","","89","","3","","15","","4.8","","99.06","","","","-7","","Snow"
"1996-03-05 14:00","1996","03","05","14:00","-1.8","","-3.9","","86","","2","","11","","12.9","","98.99","","","","-6","","Cloudy"
"1996-03-05 15:00","1996","03","05","15:00","-1.4","","-3.3","","87","","5","","13","","11.3","","98.99","","","","-6","","Cloudy"
"1996-03-05 16:00","1996","03","05","16:00","-1.1","","-4.1","","80","","3","","15","","12.9","","99.02","","","","-6","","Cloudy"
"1996-03-05 17:00","1996","03","05","17:00","-1.1","","-4.1","","80","","1","","15","","16.1","","99.06","","","","-6","","Cloudy"
"1996-03-05 18:00","1996","03","05","18:00","-1.4","","-5.4","","74","","1","","20","","19.3","","99.06","","","","-7","","Cloudy"
"1996-03-05 19:00","1996","03","05","19:00","-2.4","","-6.4","","74","","2","","15","","24.1","","99.09","","","","-7","","Mostly Cloudy"
"1996-03-05 20:00","1996","03","05","20:00","-3.1","","-6.4","","78","","1","","15","","24.1","","99.19","","","","-8","","Mainly Clear"
"1996-03-05 21:00","1996","03","05","21:00","-4.1","","-7.0","","80","","35","","19","","24.1","","99.29","","","","-10","","Cloudy"
"1996-03-05 22:00","1996","03","05","22:00","-5.0","","-7.5","","83","","35","","20","","25.0","","99.26","","","","-12","","Cloudy"
"1996-03-05 23:00","1996","03","05","23:00","-5.7","","-8.2","","82","","35","","19","","25.0","","99.29","","","","-12","","Cloudy"
"1996-03-06 00:00","1996","03","06","00:00","-6.7","","-9.0","","84","","35","","19","","25.0","","99.35","","","","-14","","Mainly Clear"
"1996-03-06 01:00","1996","03","06","01:00","-7.0","","-9.3","","84","","36","","19","","25.0","","99.26","","","","-14","","Cloudy"
"1996-03-06 02:00","1996","03","06","02:00","-7.0","","-9.6","","82","","1","","20","","24.1","","99.26","","","","-14","","Mostly Cloudy"
"1996-03-06 03:00","1996","03","06","03:00"
"1996-03-06 04:00","1996","03","06","04:00","-8.0","","-10.5","","82","","35","","22","","24.1","","99.29","","","","-16","","Mostly Cloudy"
"1996-03-06 05:00","1996","03","06","05:00","-8.4","","-10.7","","83","","35","","22","","19.3","","99.32","","","","-16","","Cloudy"
"1996-03-06 06:00","1996","03","06","06:00","-7.6","","-10.2","","82","","36","","22","","19.3","","99.42","","","","-15","","Cloudy"
"1996-03-06 07:00","1996","03","06","07:00","-7.4","","-9.9","","82","","36","","19","","19.3","","99.39","","","","-14","","Cloudy"
"1996-03-06 08:00","1996","03","06","08:00","-6.6","","-9.7","","79","","2","","22","","19.3","","99.52","","","","-14","","Cloudy"
"1996-03-06 09:00","1996","03","06","09:00","-6.8","","-10.4","","75","","3","","22","","16.1","","99.59","","","","-14","","Snow Showers"
"1996-03-06 10:00","1996","03","06","10:00","-6.5","","-10.1","","76","","36","","22","","24.1","","99.59","","","","-14","","Mostly Cloudy"
"1996-03-06 11:00","1996","03","06","11:00","-7.0","","-11.6","","70","","2","","26","","24.1","","99.59","","","","-15","","Cloudy"
"1996-03-06 12:00","1996","03","06","12:00","-7.0","","-11.6","","70","","2","","22","","24.1","","99.59","","","","-14","","Mostly Cloudy"
"1996-03-06 13:00","1996","03","06","13:00","-6.5","","-11.3","","69","","36","","19","","32.2","","99.55","","","","-13","","Mostly Cloudy"
"1996-03-06 14:00","1996","03","06","14:00","-6.7","","-12.2","","65","","36","","22","","32.2","","99.52","","","","-14","","Cloudy"
"1996-03-06 15:00","1996","03","06","15:00","-6.6","","-12.6","","62","","35","","26","","32.2","","99.55","","","","-15","","Cloudy"
"1996-03-06 16:00","1996","03","06","16:00","-6.6","","-12.2","","64","","36","","26","","32.2","","99.55","","","","-15","","Mostly Cloudy"
"1996-03-06 17:00","1996","03","06","17:00","-7.3","","-13.6","","61","","2","","30","","32.2","","99.55","","","","-16","","Cloudy"
"1996-03-06 18:00","1996","03","06","18:00","-7.5","","-14.6","","57","","36","","28","","32.2","","99.62","","","","-16","","Cloudy"
"1996-03-06 19:00","1996","03","06","19:00","-8.0","","-14.8","","58","","35","","24","","25.0","","99.69","","","","-16","","Cloudy"
"1996-03-06 20:00","1996","03","06","20:00","-8.5","","-16.2","","54","","1","","37","","25.0","","99.75","","","","-18","","Snow Showers"
"1996-03-06 21:00","1996","03","06","21:00","-9.7","","-12.3","","81","","36","","30","","3.2","","99.79","","","","-19","","Snow Showers"
"1996-03-06 22:00","1996","03","06","22:00","-10.1","","-12.4","","83","","36","","28","","2.0","","99.75","","","","-19","","Snow Showers"
"1996-03-06 23:00","1996","03","06","23:00","-11.0","","-12.3","","90","","1","","28","","2.0","","99.75","","","","-21","","Snow"
"1996-03-07 00:00","1996","03","07","00:00","-11.5","","-13.3","","86","","2","","19","","3.2","","99.79","","","","-20","","Snow"
"1996-03-07 01:00","1996","03","07","01:00","-11.6","","-14.7","","78","","2","","22","","4.8","","99.82","","","","-20","","Snow"
"1996-03-07 02:00","1996","03","07","02:00","-12.0","","-14.8","","80","","1","","22","","4.8","","99.79","","","","-21","","Snow"
"1996-03-07 03:00","1996","03","07","03:00","-12.6","","-15.9","","76","","2","","22","","6.4","","99.75","","","","-22","","Snow"
"1996-03-07 04:00","1996","03","07","04:00","-12.8","","-17.1","","70","","1","","22","","19.3","","99.79","","","","-22","","Snow"
"1996-03-07 05:00","1996","03","07","05:00","-13.6","","-17.2","","74","","36","","15","","25.0","","99.79","","","","-21","","Snow"
"1996-03-07 06:00","1996","03","07","06:00","-14.0","","-18.4","","69","","1","","24","","25.0","","99.85","","","","-24","","Mostly Cloudy"
"1996-03-07 07:00","1996","03","07","07:00","-14.5","","-17.3","","79","","36","","20","","32.2","","99.85","","","","-24","","Mostly Cloudy"
"1996-03-07 08:00","1996","03","07","08:00","-15.6","","-17.9","","82","","36","","20","","40.2","","99.89","","","","-25","","Mostly Cloudy"
"1996-03-07 09:00","1996","03","07","09:00","-15.4","","-19.0","","74","","36","","20","","40.2","","99.89","","","","-25","","Mostly Cloudy"
"1996-03-07 10:00","1996","03","07","10:00","-14.3","","-19.0","","67","","35","","28","","40.2","","99.85","","","","-25","","Mostly Cloudy"
"1996-03-07 11:00","1996","03","07","11:00","-13.6","","-17.7","","71","","35","","26","","40.2","","99.85","","","","-24","","Mostly Cloudy"
"1996-03-07 12:00","1996","03","07","12:00","-13.0","","-17.1","","71","","35","","22","","40.2","","99.85","","","","-22","","Mainly Clear"
"1996-03-07 13:00","1996","03","07","13:00","-12.6","","-15.9","","76","","35","","20","","40.2","","99.82","","","","-21","","Mostly Cloudy"
"1996-03-07 14:00","1996","03","07","14:00","-12.3","","-15.9","","74","","34","","26","","40.2","","99.75","","","","-22","","Mostly Cloudy"
"1996-03-07 15:00","1996","03","07","15:00","-12.0","","-15.0","","78","","34","","28","","40.2","","99.69","","","","-22","","NA"
"1996-03-07 16:00","1996","03","07","16:00","-11.4","","-17.9","","59","","34","","28","","32.2","","99.65","","","","-21","","Mainly Clear"
"1996-03-07 17:00","1996","03","07","17:00","-11.5","","-18.5","","56","","35","","26","","32.2","","99.62","","","","-21","","Mainly Clear"
"1996-03-07 18:00","1996","03","07","18:00","-13.0","","-18.8","","62","","33","","26","","32.2","","99.65","","","","-23","","Mostly Cloudy"
"1996-03-07 19:00","1996","03","07","19:00","-13.2","","-18.2","","66","","33","","26","","25.0","","99.69","","","","-23","","Mainly Clear"
"1996-03-07 20:00","1996","03","07","20:00","-13.6","","-18.3","","68","","33","","26","","25.0","","99.69","","","","-24","","Mainly Clear"
"1996-03-07 21:00","1996","03","07","21:00","-13.9","","-19.6","","62","","33","","28","","25.0","","99.65","","","","-24","","Mainly Clear"
"1996-03-07 22:00","1996","03","07","22:00","-14.2","","-19.6","","64","","34","","28","","25.0","","99.62","","","","-25","","Clear"
"1996-03-07 23:00","1996","03","07","23:00","-14.4","","-19.6","","65","","34","","24","","25.0","","99.59","","","","-24","","Clear"
"1996-03-08 00:00","1996","03","08","00:00","-15.0","","-21.0","","60","","35","","22","","25.0","","99.62","","","","-25","","Clear"
"1996-03-08 01:00","1996","03","08","01:00","-15.6","","-21.8","","59","","35","","22","","25.0","","99.55","","","","-25","","Clear"
"1996-03-08 02:00","1996","03","08","02:00","-16.0","","-21.7","","61","","35","","28","","25.0","","99.49","","","","-27","","Mostly Cloudy"
"1996-03-08 03:00","1996","03","08","03:00","-15.0","","-20.3","","64","","35","","28","","25.0","","99.42","","","","-26","","Cloudy"
"1996-03-08 04:00","1996","03","08","04:00","-15.6","","-22.5","","55","","35","","26","","25.0","","99.49","","","","-26","","Mostly Cloudy"
"1996-03-08 05:00","1996","03","08","05:00","-16.0","","-22.5","","57","","34","","24","","25.0","","99.52","","","","-26","","Mostly Cloudy"
"1996-03-08 06:00","1996","03","08","06:00","-16.2","","-22.5","","58","","33","","26","","25.0","","99.45","","","","-27","","Cloudy"
"1996-03-08 07:00","1996","03","08","07:00","-16.0","","-21.7","","61","","33","","28","","40.2","","99.49","","","","-27","","Cloudy"
"1996-03-08 08:00","1996","03","08","08:00","-16.0","","-20.3","","69","","33","","26","","40.2","","99.52","","","","-27","","Cloudy"
"1996-03-08 09:00","1996","03","08","09:00","-15.5","","-19.7","","70","","34","","30","","40.2","","99.52","","","","-27","","Cloudy"
"1996-03-08 10:00","1996","03","08","10:00","-14.2","","-18.4","","70","","34","","33","","40.2","","99.49","","","","-25","","Cloudy"
"1996-03-08 11:00","1996","03","08","11:00","-13.5","","-17.7","","71","","33","","33","","40.2","","99.49","","","","-25","","Cloudy"
"1996-03-08 12:00","1996","03","08","12:00","-13.0","","-19.5","","58","","33","","30","","40.2","","99.49","","","","-23","","Cloudy"
"1996-03-08 13:00","1996","03","08","13:00","-12.0","","-18.0","","61","","32","","19","","40.2","","99.45","","","","-20","","Cloudy"
"1996-03-08 14:00","1996","03","08","14:00","-11.5","","-15.2","","74","","32","","28","","40.2","","99.45","","","","-21","","Mostly Cloudy"
"1996-03-08 15:00","1996","03","08","15:00","-11.3","","-18.5","","55","","29","","30","","40.2","","99.49","","","","-21","","Mostly Cloudy"
"1996-03-08 16:00","1996","03","08","16:00","-12.3","","-17.5","","65","","32","","33","","32.2","","99.49","","","","-23","","Mostly Cloudy"
"1996-03-08 17:00","1996","03","08","17:00","-11.5","","-18.5","","56","","30","","28","","32.2","","99.55","","","","-21","","Mostly Cloudy"
"1996-03-08 18:00","1996","03","08","18:00","-12.0","","-18.6","","58","","30","","32","","24.1","","99.62","","","","-22","","Mostly Cloudy"
"1996-03-08 19:00","1996","03","08","19:00","-12.4","","-18.1","","62","","28","","28","","25.0","","99.69","","","","-22","","Mostly Cloudy"
"1996-03-08 20:00","1996","03","08","20:00","-12.9","","-17.1","","71","","28","","26","","25.0","","99.79","","","","-23","","Mainly Clear"
"1996-03-08 21:00","1996","03","08","21:00","-13.9","","-18.4","","69","","27","","22","","25.0","","99.85","","","","-23","","Mainly Clear"
"1996-03-08 22:00","1996","03","08","22:00","-15.3","","-19.0","","73","","25","","15","","25.0","","99.89","","","","-23","","Mainly Clear"
"1996-03-08 23:00","1996","03","08","23:00","-16.0","","-19.7","","73","","25","","15","","25.0","","99.92","","","","-24","","Mainly Clear"
"1996-03-09 00:00","1996","03","09","00:00","-16.2","","-19.7","","74","","25","","11","","25.0","","99.95","","","","-23","","Clear"
"1996-03-09 01:00","1996","03","09","01:00","-16.6","","-20.3","","73","","26","","11","","25.0","","99.99","","","","-24","","Mainly Clear"
"1996-03-09 02:00","1996","03","09","02:00","-16.3","","-19.6","","76","","26","","11","","25.0","","100.05","","","","-23","","Mostly Cloudy"
"1996-03-09 03:00","1996","03","09","03:00","-16.1","","-19.7","","74","","25","","15","","25.0","","100.05","","","","-24","","Mostly Cloudy"
"1996-03-09 04:00","1996","03","09","04:00","-15.9","","-19.0","","77","","26","","17","","25.0","","100.09","","","","-25","","Mostly Cloudy"
"1996-03-09 05:00","1996","03","09","05:00","-15.3","","-19.0","","73","","27","","22","","25.0","","100.15","","","","-25","","Mostly Cloudy"
"1996-03-09 06:00","1996","03","09","06:00","-15.8","","-19.0","","76","","27","","19","","25.0","","100.29","","","","-25","","Mainly Clear"
"1996-03-09 07:00","1996","03","09","07:00","-16.8","","-20.9","","70","","28","","19","","24.1","","100.35","","","","-26","","Clear"
"1996-03-09 08:00","1996","03","09","08:00","-17.0","","-20.9","","72","","27","","20","","32.2","","100.45","","","","-27","","Clear"
"1996-03-09 09:00","1996","03","09","09:00","-14.0","","-19.0","","66","","27","","17","","32.2","","100.55","","","","-22","","Clear"
"1996-03-09 10:00","1996","03","09","10:00","-11.9","","-16.9","","66","","28","","20","","32.2","","100.65","","","","-20","","Clear"
"1996-03-09 11:00","1996","03","09","11:00","-10.4","","-15.9","","64","","28","","22","","40.2","","100.72","","","","-19","","Mostly Cloudy"
"1996-03-09 12:00","1996","03","09","12:00","-8.6","","-13.6","","67","","31","","24","","40.2","","100.79","","","","-17","","Mostly Cloudy"
"1996-03-09 13:00","1996","03","09","13:00","-7.6","","-14.1","","60","","31","","26","","32.2","","100.79","","","","-16","","Mostly Cloudy"
"1996-03-09 14:00","1996","03","09","14:00","-7.0","","-13.8","","58","","28","","24","","24.1","","100.75","","","","-15","","Snow Showers"
"1996-03-09 15:00","1996","03","09","15:00","-6.9","","-13.4","","60","","27","","24","","32.2","","100.85","","","","-15","","Mostly Cloudy"
"1996-03-09 16:00","1996","03","09","16:00","-6.6","","-12.2","","64","","27","","28","","32.2","","100.95","","","","-15","","Mostly Cloudy"
"1996-03-09 17:00","1996","03","09","17:00","-7.4","","-13.1","","64","","28","","22","","32.2","","100.99","","","","-15","","Clear"
"1996-03-09 18:00","1996","03","09","18:00","-8.4","","-14.1","","63","","28","","24","","32.2","","101.12","","","","-17","","Clear"
"1996-03-09 19:00","1996","03","09","19:00","-9.5","","-15.0","","64","","27","","19","","25.0","","101.22","","","","-17","","Clear"
"1996-03-09 20:00","1996","03","09","20:00","-10.6","","-14.9","","71","","26","","13","","25.0","","101.32","","","","-17","","Clear"
"1996-03-09 21:00","1996","03","09","21:00","-11.0","","-14.1","","78","","24","","11","","25.0","","101.39","","","","-17","","Clear"
"1996-03-09 22:00","1996","03","09","22:00","-11.5","","-15.2","","74","","24","","13","","25.0","","101.45","","","","-18","","Clear"
"1996-03-09 23:00","1996","03","09","23:00","-11.9","","-14.8","","79","","24","","11","","25.0","","101.45","","","","-18","","Clear"
"1996-03-10 00:00","1996","03","10","00:00","-12.4","","-16.4","","72","","24","","7","","25.0","","101.52","","","","-17","","Clear"
"1996-03-10 01:00","1996","03","10","01:00","-13.3","","-17.7","","69","","26","","4","","25.0","","101.55","","","","-16","","Clear"
"1996-03-10 02:00","1996","03","10","02:00","-13.4","","-17.2","","73","","24","","7","","25.0","","101.62","","","","-18","","Clear"
"1996-03-10 03:00","1996","03","10","03:00","-14.2","","-17.2","","78","","27","","4","","25.0","","101.65","","","","-17","","Clear"
"1996-03-10 04:00","1996","03","10","04:00","-14.8","","-18.4","","74","","30","","7","","25.0","","101.72","","","","-20","","Clear"
"1996-03-10 05:00","1996","03","10","05:00","-12.8","","-17.1","","70","","26","","6","","25.0","","101.79","","","","-17","","Clear"
"1996-03-10 06:00","1996","03","10","06:00","-12.2","","-15.3","","78","","","","0","","25.0","","101.89","","","","","","Clear"
"1996-03-10 07:00","1996","03","10","07:00","-12.5","","-15.4","","79","","25","","7","","24.1","","101.95","","","","-17","","Clear"
"1996-03-10 08:00","1996","03","10","08:00","-11.5","","-15.7","","71","","28","","9","","19.3","","102.05","","","","-17","","Clear"
"1996-03-10 09:00","1996","03","10","09:00","-8.7","","-13.6","","68","","25","","9","","19.3","","102.12","","","","-13","","Clear"
"1996-03-10 10:00","1996","03","10","10:00","-6.0","","-12.8","","59","","24","","17","","24.1","","102.15","","","","-12","","Clear"
"1996-03-10 11:00","1996","03","10","11:00","-4.1","","-11.5","","56","","24","","13","","32.2","","102.15","","","","-9","","Clear"
"1996-03-10 12:00","1996","03","10","12:00","-3.1","","-10.4","","57","","21","","15","","32.2","","102.15","","","","-8","","Clear"
"1996-03-10 13:00","1996","03","10","13:00","-2.6","","-11.3","","51","","23","","24","","32.2","","102.12","","","","-9","","Clear"
"1996-03-10 14:00","1996","03","10","14:00","-2.2","","-10.1","","55","","20","","22","","32.2","","102.05","","","","-8","","Clear"
"1996-03-10 15:00","1996","03","10","15:00","-2.2","","-10.1","","55","","22","","24","","32.2","","102.05","","","","-9","","Clear"
"1996-03-10 16:00","1996","03","10","16:00","-2.1","","-9.6","","56","","20","","9","","32.2","","102.02","","","","-6","","Mainly Clear"
"1996-03-10 17:00","1996","03","10","17:00","-2.7","","-10.0","","57","","20","","17","","32.2","","102.02","","","","-8","","Mostly Cloudy"
"1996-03-10 18:00","1996","03","10","18:00","-3.3","","-11.6","","53","","21","","11","","32.2","","101.99","","","","-8","","Mostly Cloudy"
"1996-03-10 19:00","1996","03","10","19:00","-4.3","","-11.4","","58","","21","","20","","25.0","","101.99","","","","-11","","Mostly Cloudy"
"1996-03-10 20:00","1996","03","10","20:00","-4.7","","-9.4","","70","","20","","11","","25.0","","101.99","","","","-9","","Mostly Cloudy"
"1996-03-10 21:00","1996","03","10","21:00","-5.2","","-10.9","","64","","21","","9","","25.0","","101.99","","","","-9","","Mostly Cloudy"
"1996-03-10 22:00","1996","03","10","22:00","-6.6","","-11.7","","67","","23","","4","","25.0","","101.95","","","","-9","","Mainly Clear"
"1996-03-10 23:00","1996","03","10","23:00","-8.0","","-12.9","","68","","22","","6","","25.0","","101.95","","","","-11","","Mainly Clear"
"1996-03-11 00:00","1996","03","11","00:00","-6.5","","-10.9","","71","","18","","7","","25.0","","101.92","","","","-10","","Mostly Cloudy"
"1996-03-11 01:00","1996","03","11","01:00","-7.0","","-12.0","","67","","20","","6","","25.0","","101.92","","","","-10","","Mostly Cloudy"
"1996-03-11 02:00","1996","03","11","02:00","-8.1","","-11.6","","76","","21","","4","","25.0","","101.92","","","","-10","","Mostly Cloudy"
"1996-03-11 03:00","1996","03","11","03:00","-7.5","","-10.6","","78","","25","","9","","25.0","","101.89","","","","-12","","Mostly Cloudy"
"1996-03-11 04:00","1996","03","11","04:00","-7.5","","-10.6","","78","","23","","7","","25.0","","101.85","","","","-11","","Mostly Cloudy"
"1996-03-11 05:00","1996","03","11","05:00","-9.4","","-12.3","","79","","24","","4","","25.0","","101.85","","","","-12","","Mostly Cloudy"
"1996-03-11 06:00","1996","03","11","06:00","-9.4","","-12.3","","79","","22","","4","","19.3","","101.89","","","","-12","","Mostly Cloudy"
"1996-03-11 07:00","1996","03","11","07:00","-8.4","","-11.1","","81","","26","","4","","12.9","","101.85","","","","-11","","Mostly Cloudy"
"1996-03-11 08:00","1996","03","11","08:00","-7.5","","-10.2","","81","","","","0","","12.9","","101.85","","","","","","Mostly Cloudy"
"1996-03-11 09:00","1996","03","11","09:00","-5.5","","-9.6","","73","","","","0","","9.7","","101.85","","","","","","Haze"
"1996-03-11 10:00","1996","03","11","10:00","-2.5","","-7.4","","69","","18","","6","","11.3","","101.79","","","","-5","","Mainly Clear"
"1996-03-11 11:00","1996","03","11","11:00","-0.9","","-7.0","","63","","21","","6","","12.9","","101.72","","","","-3","","Clear"
"1996-03-11 12:00","1996","03","11","12:00","0.6","","-5.5","","64","","20","","11","","14.5","","101.65","","","","","","Clear"
"1996-03-11 13:00","1996","03","11","13:00","0.8","","-4.2","","69","","13","","17","","12.9","","101.55","","","","","","Clear"
"1996-03-11 14:00","1996","03","11","14:00","1.5","","-4.1","","66","","23","","17","","14.5","","101.45","","","","","","Clear"
"1996-03-11 15:00","1996","03","11","15:00","2.3","","-3.9","","64","","22","","17","","19.3","","101.39","","","","","","Clear"
"1996-03-11 16:00","1996","03","11","16:00","2.7","","-3.9","","62","","20","","9","","19.3","","101.29","","","","","","Clear"
"1996-03-11 17:00","1996","03","11","17:00","1.5","","-6.8","","54","","16","","17","","24.1","","101.19","","","","","","Mainly Clear"
"1996-03-11 18:00","1996","03","11","18:00","0.7","","-7.7","","53","","17","","15","","24.1","","101.15","","","","","","Mainly Clear"
"1996-03-11 19:00","1996","03","11","19:00","-0.2","","-5.9","","65","","16","","11","","24.1","","101.12","","","","-4","","Mainly Clear"
"1996-03-11 20:00","1996","03","11","20:00","-1.2","","-7.0","","65","","17","","7","","25.0","","101.09","","","","-4","","Mainly Clear"
"1996-03-11 21:00","1996","03","11","21:00","-1.7","","-7.4","","65","","17","","6","","25.0","","101.02","","","","-4","","Clear"
"1996-03-11 22:00","1996","03","11","22:00","-1.8","","-8.1","","62","","19","","9","","25.0","","100.95","","","","-5","","Clear"
"1996-03-11 23:00","1996","03","11","23:00","-2.2","","-6.4","","73","","","","0","","25.0","","100.92","","","","","","Clear"
"1996-03-12 00:00","1996","03","12","00:00","-3.1","","-7.4","","72","","","","0","","25.0","","100.89","","","","","","Clear"
"1996-03-12 01:00","1996","03","12","01:00","-4.7","","-7.3","","82","","","","0","","25.0","","100.85","","","","","","Clear"
"1996-03-12 02:00","1996","03","12","02:00","-5.4","","-8.2","","81","","","","0","","16.1","","100.79","","","","","","Clear"
"1996-03-12 03:00","1996","03","12","03:00","-4.2","","-6.3","","85","","","","0","","16.1","","100.75","","","","","","Clear"
"1996-03-12 04:00","1996","03","12","04:00","-7.9","","-9.7","","87","","","","0","","12.9","","100.75","","","","","","Clear"
"1996-03-12 05:00","1996","03","12","05:00","-8.2","","-9.7","","89","","33","","4","","12.9","","100.72","","","","-10","","Clear"
"1996-03-12 06:00","1996","03","12","06:00","-8.4","","-10.3","","86","","33","","4","","12.9","","100.69","","","","-11","","Mainly Clear"
"1996-03-12 07:00","1996","03","12","07:00","-6.0","","-8.4","","83","","","","0","","11.3","","100.65","","","","","","Mainly Clear"
"1996-03-12 08:00","1996","03","12","08:00","-4.5","","-8.3","","75","","","","0","","12.9","","100.62","","","","","","Mainly Clear"
"1996-03-12 09:00","1996","03","12","09:00","-0.6","","-7.0","","62","","28","","4","","9.7","","100.62","","","","-2","","Haze"
"1996-03-12 10:00","1996","03","12","10:00","1.9","","-5.3","","59","","28","","6","","12.9","","100.55","","","","","","Mostly Cloudy"
"1996-03-12 11:00","1996","03","12","11:00","3.4","","-5.7","","51","","27","","7","","12.9","","100.49","","","","","","Mostly Cloudy"
"1996-03-12 12:00","1996","03","12","12:00","5.1","","-5.8","","45","","","","0","","12.9","","100.45","","","","","","Mostly Cloudy"
"1996-03-12 13:00","1996","03","12","13:00","5.1","","-5.8","","45","","27","","11","","12.9","","100.39","","","","","","Mostly Cloudy"
"1996-03-12 14:00","1996","03","12","14:00","5.0","","-4.4","","51","","12","","6","","12.9","","100.29","","","","","","Mostly Cloudy"
"1996-03-12 15:00","1996","03","12","15:00","5.0","","-5.8","","45","","14","","11","","19.3","","100.22","","","","","","Mostly Cloudy"
"1996-03-12 16:00","1996","03","12","16:00","5.5","","-5.8","","44","","16","","9","","19.3","","100.19","","","","","","Mostly Cloudy"
"1996-03-12 17:00","1996","03","12","17:00","4.9","","-5.8","","46","","15","","11","","24.1","","100.15","","","","","","Mostly Cloudy"
"1996-03-12 18:00","1996","03","12","18:00","3.0","","-5.2","","55","","14","","9","","24.1","","100.15","","","","","","Mainly Clear"
"1996-03-12 19:00","1996","03","12","19:00","1.9","","-6.0","","56","","15","","7","","24.1","","100.12","","","","","","Mainly Clear"
"1996-03-12 20:00","1996","03","12","20:00","1.7","","-6.8","","53","","15","","7","","25.0","","100.09","","","","","","Mainly Clear"
"1996-03-12 21:00","1996","03","12","21:00","1.8","","-6.0","","56","","19","","4","","25.0","","100.09","","","","","","Mostly Cloudy"
"1996-03-12 22:00","1996","03","12","22:00","1.7","","-6.1","","56","","","","0","","25.0","","100.05","","","","","","Mostly Cloudy"
"1996-03-12 23:00","1996","03","12","23:00","2.0","","-4.7","","61","","15","","4","","25.0","","100.02","","","","","","Mostly Cloudy"
"1996-03-13 00:00","1996","03","13","00:00","0.8","","-4.2","","69","","","","0","","19.3","","100.02","","","","","","Mainly Clear"
"1996-03-13 01:00","1996","03","13","01:00","0.1","","-4.2","","73","","13","","6","","19.3","","99.99","","","","","","Mainly Clear"
"1996-03-13 02:00","1996","03","13","02:00","-0.7","","-3.8","","79","","20","","4","","19.3","","99.95","","","","-2","","Mainly Clear"
"1996-03-13 03:00","1996","03","13","03:00","-1.5","","-3.9","","84","","","","0","","16.1","","99.92","","","","","","Mainly Clear"
"1996-03-13 04:00","1996","03","13","04:00","-0.7","","-4.7","","74","","","","0","","19.3","","99.89","","","","","","Clear"
"1996-03-13 05:00","1996","03","13","05:00","-1.0","","-3.8","","81","","31","","6","","24.1","","99.92","","","","-3","","Clear"
"1996-03-13 06:00","1996","03","13","06:00","-0.4","","-6.5","","63","","21","","2","","19.3","","99.95","","","","-1","","Mainly Clear"
"1996-03-13 07:00","1996","03","13","07:00","-0.5","","-7.0","","61","","","","0","","16.1","","99.95","","","","","","Mostly Cloudy"
"1996-03-13 08:00","1996","03","13","08:00","1.3","","-5.4","","61","","15","","4","","11.3","","99.92","","","","","","Mostly Cloudy"
"1996-03-13 09:00","1996","03","13","09:00","2.5","","-3.2","","66","","19","","4","","11.3","","99.89","","","","","","Mostly Cloudy"
"1996-03-13 10:00","1996","03","13","10:00","5.4","","-4.3","","50","","23","","7","","12.9","","99.89","","","","","","Mostly Cloudy"
"1996-03-13 11:00","1996","03","13","11:00","6.7","","-5.6","","41","","18","","9","","14.5","","99.79","","","","","","Mostly Cloudy"
"1996-03-13 12:00","1996","03","13","12:00","7.3","","-5.0","","41","","16","","9","","14.5","","99.75","","","","","","Cloudy"
"1996-03-13 13:00","1996","03","13","13:00","6.5","","-3.5","","49","","15","","15","","12.9","","99.69","","","","","","Cloudy"
"1996-03-13 14:00","1996","03","13","14:00","7.1","","-3.4","","47","","15","","11","","14.5","","99.59","","","","","","Cloudy"
"1996-03-13 15:00","1996","03","13","15:00","7.0","","-5.6","","40","","16","","15","","14.5","","99.59","","","","","","Cloudy"
"1996-03-13 16:00","1996","03","13","16:00","6.5","","-6.4","","39","","15","","9","","12.9","","99.55","","","","","","Cloudy"
"1996-03-13 17:00","1996","03","13","17:00","5.5","","-4.3","","49","","14","","11","","16.1","","99.52","","","","","","Cloudy"
"1996-03-13 18:00","1996","03","13","18:00","4.4","","-5.1","","50","","15","","11","","12.9","","99.52","","","","","","Cloudy"
"1996-03-13 19:00","1996","03","13","19:00","3.0","","-4.5","","58","","15","","11","","12.9","","99.52","","","","","","Cloudy"
"1996-03-13 20:00","1996","03","13","20:00","3.0","","-4.5","","58","","15","","7","","12.9","","99.49","","","","","","Mostly Cloudy"
"1996-03-13 21:00","1996","03","13","21:00","2.6","","-3.9","","62","","14","","4","","14.5","","99.45","","","","","","Mostly Cloudy"
"1996-03-13 22:00","1996","03","13","22:00","2.2","","-3.4","","66","","14","","4","","14.5","","99.42","","","","","","Mostly Cloudy"
"1996-03-13 23:00","1996","03","13","23:00","1.5","","-2.9","","72","","14","","6","","19.3","","99.39","","","","","","Mainly Clear"
"1996-03-14 00:00","1996","03","14","00:00","1.5","","-2.9","","72","","12","","4","","19.3","","99.29","","","","","","Mainly Clear"
"1996-03-14 01:00","1996","03","14","01:00","1.0","","-3.6","","71","","","","0","","16.1","","99.26","","","","","","Mainly Clear"
"1996-03-14 02:00","1996","03","14","02:00","0.0","","-2.6","","83","","","","0","","16.1","","99.26","","","","","","Mainly Clear"
"1996-03-14 03:00","1996","03","14","03:00","-0.6","","-2.7","","86","","","","0","","16.1","","99.16","","","","","","Mainly Clear"
"1996-03-14 04:00","1996","03","14","04:00","-0.6","","-2.4","","88","","","","0","","16.1","","99.09","","","","","","Mainly Clear"
"1996-03-14 05:00","1996","03","14","05:00","-1.0","","-3.0","","86","","","","0","","12.9","","99.06","","","","","","Clear"
"1996-03-14 06:00","1996","03","14","06:00","0.6","","-2.5","","80","","16","","2","","12.9","","99.06","","","","","","Mainly Clear"
"1996-03-14 07:00","1996","03","14","07:00","0.6","","-3.1","","76","","14","","4","","9.7","","99.02","","","","","","Haze"
"1996-03-14 08:00","1996","03","14","08:00","2.0","","-2.1","","74","","12","","4","","6.4","","98.96","","","","","","Haze"
"1996-03-14 09:00","1996","03","14","09:00","3.2","","-2.0","","69","","16","","4","","8.0","","98.92","","","","","","Haze"
"1996-03-14 10:00","1996","03","14","10:00","5.8","","-0.6","","63","","17","","6","","8.0","","98.86","","","","","","Haze"
"1996-03-14 11:00","1996","03","14","11:00","7.9","","-0.2","","57","","17","","11","","11.3","","98.76","","","","","","Mostly Cloudy"
"1996-03-14 12:00","1996","03","14","12:00","8.1","","0.2","","57","","17","","11","","11.3","","98.69","","","","","","Mainly Clear"
"1996-03-14 13:00","1996","03","14","13:00","12.1","","3.0","","54","","20","","17","","11.3","","98.62","","","","","","Mostly Cloudy"
"1996-03-14 14:00","1996","03","14","14:00","13.5","","4.5","","54","","24","","26","","9.7","","98.52","","","","","","Haze"
"1996-03-14 15:00","1996","03","14","15:00","13.8","","4.7","","54","","24","","28","","9.7","","98.49","","","","","","Haze"
"1996-03-14 16:00","1996","03","14","16:00","13.0","","4.8","","57","","29","","41","","9.7","","98.59","","","","","","Haze"
"1996-03-14 17:00","1996","03","14","17:00","10.0","","3.8","","65","","30","","22","","9.7","","98.62","","","","","","Haze"
"1996-03-14 18:00","1996","03","14","18:00","8.0","","2.4","","68","","32","","26","","8.0","","98.69","","","","","","Rain Showers,Haze"
"1996-03-14 19:00","1996","03","14","19:00","7.0","","1.7","","69","","31","","19","","9.7","","98.72","","","","","","Haze"
"1996-03-14 20:00","1996","03","14","20:00","5.6","","2.0","","78","","31","","15","","12.9","","98.72","","","","","","Mainly Clear"
"1996-03-14 21:00","1996","03","14","21:00","4.0","","1.7","","85","","30","","15","","12.9","","98.86","","","","","","Mostly Cloudy"
"1996-03-14 22:00","1996","03","14","22:00","3.0","","0.7","","85","","31","","15","","11.3","","98.79","","","","","","Mainly Clear"
"1996-03-14 23:00","1996","03","14","23:00","1.7","","-0.5","","85","","30","","11","","11.3","","98.76","","","","","","Mainly Clear"
"1996-03-15 00:00","1996","03","15","00:00","0.9","","-0.5","","90","","29","","4","","9.7","","98.76","","","","","","Fog"
"1996-03-15 01:00","1996","03","15","01:00","0.9","","-0.5","","90","","33","","9","","9.7","","98.76","","","","","","Fog"
"1996-03-15 02:00","1996","03","15","02:00","0.5","","-0.5","","93","","31","","4","","8.0","","98.76","","","","","","Fog"
"1996-03-15 03:00","1996","03","15","03:00"
"1996-03-15 04:00","1996","03","15","04:00","1.1","","0.0","","92","","36","","6","","9.7","","98.66","","","","","","Fog"
"1996-03-15 05:00","1996","03","15","05:00","1.0","","0.0","","93","","34","","6","","9.7","","98.59","","","","","","Fog"
"1996-03-15 06:00","1996","03","15","06:00","0.9","","0.0","","94","","3","","9","","9.7","","98.56","","","","","","Fog"
"1996-03-15 07:00","1996","03","15","07:00","1.0","","-0.5","","90","","2","","4","","9.7","","98.56","","","","","","Fog"
"1996-03-15 08:00","1996","03","15","08:00","1.0","","-1.0","","86","","35","","11","","12.9","","98.56","","","","","","Cloudy"
"1996-03-15 09:00","1996","03","15","09:00","0.8","","-1.0","","88","","1","","15","","19.3","","98.49","","","","","","Cloudy"
"1996-03-15 10:00","1996","03","15","10:00","0.6","","-1.4","","86","","35","","9","","19.3","","98.49","","","","","","Cloudy"
"1996-03-15 11:00","1996","03","15","11:00","0.8","","-1.0","","88","","33","","11","","19.3","","98.42","","","","","","Drizzle"
"1996-03-15 12:00","1996","03","15","12:00","1.0","","-1.0","","86","","35","","13","","16.1","","98.39","","","","","","Cloudy"
"1996-03-15 13:00","1996","03","15","13:00","1.4","","-1.0","","84","","34","","13","","16.1","","98.39","","","","","","Snow Showers"
"1996-03-15 14:00","1996","03","15","14:00","1.5","","-1.5","","80","","35","","15","","19.3","","98.29","","","","","","Snow Showers"
"1996-03-15 15:00","1996","03","15","15:00","1.6","","-1.5","","80","","36","","19","","19.3","","98.29","","","","","","Snow Showers"
"1996-03-15 16:00","1996","03","15","16:00","0.5","","-2.5","","80","","35","","30","","16.1","","98.32","","","","","","Snow Showers"
"1996-03-15 17:00","1996","03","15","17:00","-0.3","","-3.5","","79","","35","","30","","19.3","","98.42","","","","-7","","Cloudy"
"1996-03-15 18:00","1996","03","15","18:00","-1.0","","-5.4","","72","","35","","30","","32.2","","98.52","","","","-8","","Mostly Cloudy"
"1996-03-15 19:00","1996","03","15","19:00","-1.5","","-6.0","","71","","35","","26","","25.0","","98.62","","","","-8","","Mostly Cloudy"
"1996-03-15 20:00","1996","03","15","20:00","-2.4","","-7.7","","67","","34","","30","","25.0","","98.72","","","","-10","","Clear"
"1996-03-15 21:00","1996","03","15","21:00","-3.0","","-8.8","","64","","34","","33","","25.0","","98.82","","","","-11","","Clear"
"1996-03-15 22:00","1996","03","15","22:00","-3.4","","-8.8","","66","","34","","28","","25.0","","98.89","","","","-11","","Clear"
"1996-03-15 23:00","1996","03","15","23:00","-4.0","","-9.9","","63","","34","","28","","25.0","","98.92","","","","-11","","Clear"
"1996-03-16 00:00","1996","03","16","00:00","-4.0","","-10.7","","60","","34","","22","","25.0","","98.99","","","","-11","","Clear"
"1996-03-16 01:00","1996","03","16","01:00","-4.6","","-11.0","","61","","35","","19","","25.0","","99.12","","","","-11","","Clear"
"1996-03-16 02:00","1996","03","16","02:00","-4.8","","-11.3","","60","","35","","20","","25.0","","99.19","","","","-11","","Clear"
"1996-03-16 03:00","1996","03","16","03:00","-5.3","","-10.4","","67","","35","","19","","25.0","","99.22","","","","-12","","Clear"
"1996-03-16 04:00","1996","03","16","04:00","-6.0","","-11.1","","67","","35","","15","","25.0","","99.29","","","","-12","","Clear"
"1996-03-16 05:00","1996","03","16","05:00","-6.4","","-11.3","","68","","35","","13","","25.0","","99.35","","","","-12","","Clear"
"1996-03-16 06:00","1996","03","16","06:00","-6.7","","-11.3","","70","","35","","17","","25.0","","99.45","","","","-13","","Clear"
"1996-03-16 07:00","1996","03","16","07:00","-7.0","","-11.2","","72","","35","","13","","40.2","","99.55","","","","-13","","Clear"
"1996-03-16 08:00","1996","03","16","08:00","-6.4","","-12.2","","63","","2","","19","","40.2","","99.62","","","","-13","","Clear"
"1996-03-16 09:00","1996","03","16","09:00","-5.4","","-12.0","","60","","1","","17","","40.2","","99.65","","","","-11","","Clear"
"1996-03-16 10:00","1996","03","16","10:00","-3.9","","-12.4","","52","","35","","11","","40.2","","99.69","","","","-8","","Clear"
"1996-03-16 11:00","1996","03","16","11:00","-2.5","","-12.7","","45","","34","","4","","40.2","","99.69","","","","-4","","Clear"
"1996-03-16 12:00","1996","03","16","12:00","-0.7","","-10.5","","47","","2","","11","","40.2","","99.62","","","","-4","","Clear"
"1996-03-16 13:00","1996","03","16","13:00","0.3","","-10.0","","46","","36","","7","","40.2","","99.65","","","","","","Clear"
"1996-03-16 14:00","1996","03","16","14:00","1.0","","-7.6","","53","","16","","11","","40.2","","99.59","","","","","","Mainly Clear"
"1996-03-16 15:00","1996","03","16","15:00","0.5","","-6.9","","58","","16","","15","","40.2","","99.62","","","","","","Mainly Clear"
"1996-03-16 16:00","1996","03","16","16:00","0.6","","-7.7","","54","","15","","11","","40.2","","99.62","","","","","","Clear"
"1996-03-16 17:00","1996","03","16","17:00","0.2","","-7.8","","55","","17","","15","","40.2","","99.62","","","","","","Clear"
"1996-03-16 18:00","1996","03","16","18:00","-0.5","","-8.9","","53","","16","","11","","32.2","","99.62","","","","-4","","Clear"
"1996-03-16 19:00","1996","03","16","19:00","-2.3","","-8.5","","62","","16","","9","","25.0","","99.62","","","","-6","","Mainly Clear"
"1996-03-16 20:00","1996","03","16","20:00","-2.5","","-9.2","","60","","12","","4","","25.0","","99.59","","","","-4","","Clear"
"1996-03-16 21:00","1996","03","16","21:00","-3.4","","-9.5","","63","","4","","11","","25.0","","99.55","","","","-8","","Clear"
"1996-03-16 22:00","1996","03","16","22:00","-3.5","","-9.1","","65","","5","","11","","25.0","","99.52","","","","-8","","Clear"
"1996-03-16 23:00","1996","03","16","23:00","-3.1","","-10.0","","59","","10","","22","","25.0","","99.55","","","","-9","","Clear"
"1996-03-17 00:00","1996","03","17","00:00","-3.6","","-9.9","","62","","7","","11","","25.0","","99.55","","","","-8","","Clear"
"1996-03-17 01:00","1996","03","17","01:00","-4.4","","-9.8","","66","","5","","13","","25.0","","99.49","","","","-9","","Clear"
"1996-03-17 02:00","1996","03","17","02:00","-5.2","","-7.9","","81","","32","","7","","25.0","","99.45","","","","-8","","Clear"
"1996-03-17 03:00","1996","03","17","03:00","-5.6","","-8.2","","82","","2","","9","","25.0","","99.39","","","","-10","","Clear"
"1996-03-17 04:00","1996","03","17","04:00","-5.6","","-8.9","","78","","1","","11","","25.0","","99.35","","","","-10","","Clear"
"1996-03-17 05:00","1996","03","17","05:00","-6.0","","-8.4","","83","","2","","7","","25.0","","99.35","","","","-9","","Clear"
"1996-03-17 06:00","1996","03","17","06:00","-6.1","","-8.4","","84","","35","","6","","25.0","","99.35","","","","-9","","Mainly Clear"
"1996-03-17 07:00","1996","03","17","07:00","-6.1","","-8.8","","81","","3","","9","","32.2","","99.35","","","","-10","","Mostly Cloudy"
"1996-03-17 08:00","1996","03","17","08:00","-3.0","","-7.0","","74","","4","","7","","24.1","","99.35","","","","-6","","Mostly Cloudy"
"1996-03-17 09:00","1996","03","17","09:00","0.1","","-6.1","","63","","12","","22","","24.1","","99.32","","","","","","Mostly Cloudy"
"1996-03-17 10:00","1996","03","17","10:00","0.8","","-5.5","","63","","10","","28","","32.2","","99.29","","","","","","Mostly Cloudy"
"1996-03-17 11:00","1996","03","17","11:00","1.5","","-5.4","","60","","9","","32","","40.2","","99.19","","","","","","Mostly Cloudy"
"1996-03-17 12:00","1996","03","17","12:00","3.0","","-8.9","","41","","10","","24","","40.2","","99.16","","","","","","Mainly Clear"
"1996-03-17 13:00","1996","03","17","13:00","3.0","","-9.8","","38","","10","","22","","40.2","","99.06","","","","","","Mainly Clear"
"1996-03-17 14:00","1996","03","17","14:00","3.4","","-11.6","","32","","12","","24","","40.2","","99.09","","","","","","Mainly Clear"
"1996-03-17 15:00","1996","03","17","15:00","3.7","","-11.6","","32","","9","","30","","40.2","","99.06","","","","","","Mostly Cloudy"
"1996-03-17 16:00","1996","03","17","16:00","4.3","","-13.5","","26","","9","","22","","40.2","","98.99","","","","","","Mostly Cloudy"
"1996-03-17 17:00","1996","03","17","17:00","3.6","","-16.3","","22","","9","","19","","40.2","","98.99","","","","","","Mostly Cloudy"
"1996-03-17 18:00","1996","03","17","18:00","2.4","","-16.4","","23","","10","","15","","40.2","","98.99","","","","","","Mainly Clear"
"1996-03-17 19:00","1996","03","17","19:00","1.5","","-16.5","","25","","10","","9","","25.0","","99.06","","","","","","Mainly Clear"
"1996-03-17 20:00","1996","03","17","20:00","0.7","","-15.2","","29","","8","","9","","25.0","","99.02","","","","","","Mainly Clear"
"1996-03-17 21:00","1996","03","17","21:00","0.0","","-12.4","","39","","9","","4","","25.0","","99.06","","","","-1","","Mainly Clear"
"1996-03-17 22:00","1996","03","17","22:00","-0.4","","-10.8","","45","","","","0","","25.0","","99.06","","","","","","Mainly Clear"
"1996-03-17 23:00","1996","03","17","23:00","-0.2","","-8.0","","56","","6","","4","","25.0","","99.06","","","","-1","","Clear"
"1996-03-18 00:00","1996","03","18","00:00","-1.8","","-7.7","","64","","5","","4","","25.0","","99.02","","","","-3","","Clear"
"1996-03-18 01:00","1996","03","18","01:00","-1.7","","-4.5","","81","","30","","9","","25.0","","99.06","","","","-5","","Mostly Cloudy"
"1996-03-18 02:00","1996","03","18","02:00","-2.5","","-7.4","","69","","3","","9","","24.1","","98.99","","","","-6","","Mainly Clear"
"1996-03-18 03:00","1996","03","18","03:00","-2.9","","-4.8","","87","","32","","6","","25.0","","98.99","","","","-5","","Mainly Clear"
"1996-03-18 04:00","1996","03","18","04:00","-2.3","","-6.4","","73","","1","","6","","25.0","","98.99","","","","-5","","Mainly Clear"
"1996-03-18 05:00","1996","03","18","05:00","-3.0","","-6.4","","77","","1","","4","","25.0","","98.99","","","","-5","","Mainly Clear"
"1996-03-18 06:00","1996","03","18","06:00","-2.4","","-5.4","","80","","28","","4","","25.0","","99.02","","","","-4","","Mostly Cloudy"
"1996-03-18 07:00","1996","03","18","07:00","-2.0","","-7.0","","69","","","","0","","24.1","","98.99","","","","","","Mostly Cloudy"
"1996-03-18 08:00","1996","03","18","08:00","0.4","","-5.4","","65","","","","0","","24.1","","99.06","","","","","","Mainly Clear"
"1996-03-18 09:00","1996","03","18","09:00","2.3","","-5.9","","55","","20","","6","","19.3","","99.06","","","","","","Mostly Cloudy"
"1996-03-18 10:00","1996","03","18","10:00","3.5","","-5.2","","53","","17","","6","","19.3","","99.06","","","","","","Mostly Cloudy"
"1996-03-18 11:00","1996","03","18","11:00","5.4","","-3.7","","52","","23","","4","","24.1","","99.06","","","","","","Mostly Cloudy"
"1996-03-18 12:00","1996","03","18","12:00","6.8","","-2.2","","53","","23","","4","","19.3","","98.99","","","","","","Mostly Cloudy"
"1996-03-18 13:00","1996","03","18","13:00","7.8","","-2.0","","50","","14","","9","","19.3","","98.96","","","","","","Mostly Cloudy"
"1996-03-18 14:00","1996","03","18","14:00","7.6","","-1.5","","52","","19","","9","","19.3","","98.96","","","","","","Mostly Cloudy"
"1996-03-18 15:00","1996","03","18","15:00","7.8","","0.4","","59","","15","","15","","19.3","","98.96","","","","","","Mostly Cloudy"
"1996-03-18 16:00","1996","03","18","16:00","7.5","","-0.3","","58","","15","","7","","19.3","","98.89","","","","","","Mostly Cloudy"
"1996-03-18 17:00","1996","03","18","17:00","7.4","","0.3","","61","","17","","9","","19.3","","98.92","","","","","","Mostly Cloudy"
"1996-03-18 18:00","1996","03","18","18:00","7.0","","0.2","","62","","17","","9","","16.1","","98.99","","","","","","Mostly Cloudy"
"1996-03-18 19:00","1996","03","18","19:00","4.5","","-0.2","","71","","14","","9","","12.9","","98.99","","","","","","Cloudy"
"1996-03-18 20:00","1996","03","18","20:00","2.9","","-0.4","","79","","14","","6","","12.9","","99.02","","","","","","Cloudy"
"1996-03-18 21:00","1996","03","18","21:00","2.6","","-0.4","","81","","","","0","","12.9","","99.06","","","","","","Cloudy"
"1996-03-18 22:00","1996","03","18","22:00","2.7","","-2.6","","68","","36","","13","","12.9","","99.06","","","","","","Mostly Cloudy"
"1996-03-18 23:00","1996","03","18","23:00","1.9","","-2.1","","75","","35","","20","","16.1","","98.99","","","","","","Mostly Cloudy"
"1996-03-19 00:00","1996","03","19","00:00","1.3","","-2.1","","78","","36","","13","","19.3","","98.99","","","","","","Mostly Cloudy"
"1996-03-19 01:00","1996","03","19","01:00","1.1","","-1.9","","80","","33","","7","","19.3","","98.99","","","","","","Cloudy"
"1996-03-19 02:00","1996","03","19","02:00","1.2","","-1.9","","80","","35","","17","","16.1","","98.96","","","","","","Mostly Cloudy"
"1996-03-19 03:00","1996","03","19","03:00","0.9","","-1.5","","84","","34","","4","","16.1","","98.99","","","","","","Mostly Cloudy"
"1996-03-19 04:00","1996","03","19","04:00","0.9","","-1.0","","87","","35","","11","","16.1","","98.96","","","","","","Mostly Cloudy"
"1996-03-19 05:00","1996","03","19","05:00","1.0","","-1.5","","83","","34","","11","","19.3","","98.96","","","","","","Mostly Cloudy"
"1996-03-19 06:00","1996","03","19","06:00","1.4","","-2.1","","77","","1","","15","","16.1","","98.89","","","","","","Mostly Cloudy"
"1996-03-19 07:00","1996","03","19","07:00","1.0","","-1.9","","81","","35","","11","","12.9","","98.92","","","","","","Mostly Cloudy"
"1996-03-19 08:00","1996","03","19","08:00","2.8","","-1.5","","73","","2","","7","","12.9","","98.92","","","","","","Mostly Cloudy"
"1996-03-19 09:00","1996","03","19","09:00","5.4","","-2.4","","57","","8","","26","","16.1","","98.82","","","","","","Mostly Cloudy"
"1996-03-19 10:00","1996","03","19","10:00","7.0","","-2.2","","52","","8","","26","","24.1","","98.82","","","","","","Cloudy"
"1996-03-19 11:00","1996","03","19","11:00","8.1","","-2.0","","49","","9","","30","","24.1","","98.72","","","","","","Mostly Cloudy"
"1996-03-19 12:00","1996","03","19","12:00","9.8","","-2.1","","43","","8","","33","","24.1","","98.59","","","","","","Mostly Cloudy"
"1996-03-19 13:00","1996","03","19","13:00","11.0","","-2.5","","39","","8","","37","","24.1","","98.46","","","","","","Mostly Cloudy"
"1996-03-19 14:00","1996","03","19","14:00","12.0","","-2.9","","35","","8","","41","","24.1","","98.36","","","","","","Mostly Cloudy"
"1996-03-19 15:00","1996","03","19","15:00","12.2","","-4.4","","31","","7","","46","","24.1","","98.29","","","","","","Mostly Cloudy"
"1996-03-19 16:00","1996","03","19","16:00","12.4","","-2.7","","35","","6","","33","","24.1","","98.19","","","","","","Mostly Cloudy"
"1996-03-19 17:00","1996","03","19","17:00","10.9","","-4.7","","33","","5","","37","","24.1","","98.16","","","","","","Mostly Cloudy"
"1996-03-19 18:00","1996","03","19","18:00","10.0","","-3.5","","38","","5","","30","","24.1","","98.09","","","","","","Mostly Cloudy"
"1996-03-19 19:00","1996","03","19","19:00","9.4","","-5.1","","35","","4","","32","","19.3","","98.06","","","","","","Cloudy"
"1996-03-19 20:00","1996","03","19","20:00","8.3","","-7.8","","31","","5","","37","","19.3","","98.06","","","","","","Cloudy"
"1996-03-19 21:00","1996","03","19","21:00","7.6","","-10.8","","26","","4","","41","","19.3","","97.92","","","","","","Rain"
"1996-03-19 22:00","1996","03","19","22:00","7.0","","-8.9","","31","","5","","44","","19.3","","97.79","","","","","","Rain"
"1996-03-19 23:00","1996","03","19","23:00","6.3","","-7.2","","37","","5","","37","","25.0","","97.79","","","","","","Cloudy"
"1996-03-20 00:00","1996","03","20","00:00","4.9","","-4.4","","51","","7","","52","","11.3","","97.82","","","","","","Rain"
"1996-03-20 01:00","1996","03","20","01:00","2.1","","-1.5","","77","","5","","44","","9.7","","97.72","","","","","","Rain,Snow"
"1996-03-20 02:00","1996","03","20","02:00","0.6","","0.0","","96","","4","","37","","1.2","","97.66","","","","","","Snow"
"1996-03-20 03:00","1996","03","20","03:00","0.1","","0.1","","100","","3","","28","","1.6","","97.56","","","","","","Snow"
"1996-03-20 04:00","1996","03","20","04:00","0.2","","0.2","","100","","3","","28","","2.4","","97.46","","","","","","Snow"
"1996-03-20 05:00","1996","03","20","05:00","0.3","","0.3","","100","","3","","33","","4.0","","97.42","","","","","","Snow"
"1996-03-20 06:00","1996","03","20","06:00","0.4","","0.2","","99","","3","","32","","3.2","","97.42","","","","","","Snow"
"1996-03-20 07:00","1996","03","20","07:00","0.4","","0.2","","99","","3","","37","","3.2","","97.42","","","","","","Snow"
"1996-03-20 08:00","1996","03","20","08:00","0.4","","-0.1","","96","","3","","33","","1.0","","97.46","","","","","","Snow"
"1996-03-20 09:00","1996","03","20","09:00","0.4","","-0.1","","96","","4","","33","","1.0","","97.42","","","","","","Snow"
"1996-03-20 10:00","1996","03","20","10:00","0.6","","0.0","","96","","3","","30","","2.4","","97.42","","","","","","Snow"
"1996-03-20 11:00","1996","03","20","11:00","0.6","","0.0","","96","","3","","26","","2.0","","97.46","","","","","","Snow"
"1996-03-20 12:00","1996","03","20","12:00","0.4","","-0.1","","96","","3","","26","","1.2","","97.46","","","","","","Snow"
"1996-03-20 13:00","1996","03","20","13:00","0.4","","0.2","","99","","2","","24","","1.0","","97.46","","","","","","Snow"
"1996-03-20 14:00","1996","03","20","14:00","0.7","","0.0","","95","","2","","22","","1.0","","97.49","","","","","","Snow"
"1996-03-20 15:00","1996","03","20","15:00","0.5","","0.5","","100","","1","","24","","2.4","","97.49","","","","","","Snow"
"1996-03-20 16:00","1996","03","20","16:00","0.6","","0.0","","96","","1","","26","","3.2","","97.56","","","","","","Snow"
"1996-03-20 17:00","1996","03","20","17:00","0.7","","-0.5","","92","","36","","26","","4.8","","97.62","","","","","","Snow"
"1996-03-20 18:00","1996","03","20","18:00","0.5","","-0.5","","93","","36","","32","","3.6","","97.66","","","","","","Snow"
"1996-03-20 19:00","1996","03","20","19:00","0.4","","-0.3","","95","","36","","33","","6.4","","97.72","","","","","","Snow"
"1996-03-20 20:00","1996","03","20","20:00","0.1","","0.1","","100","","36","","28","","4.0","","97.76","","","","","","Snow"
"1996-03-20 21:00","1996","03","20","21:00","0.1","","-0.1","","99","","35","","30","","4.8","","97.79","","","","","","Snow"
"1996-03-20 22:00","1996","03","20","22:00","0.0","","-0.2","","99","","36","","22","","4.8","","97.82","","","","-6","","Snow"
"1996-03-20 23:00","1996","03","20","23:00","-0.6","","-0.8","","99","","35","","30","","4.8","","97.82","","","","-7","","Snow"
"1996-03-21 00:00","1996","03","21","00:00","-1.1","","-2.4","","91","","36","","33","","8.0","","97.86","","","","-8","","Snow"
"1996-03-21 01:00","1996","03","21","01:00","-1.6","","-3.0","","90","","35","","37","","8.0","","97.89","","","","-9","","Snow"
"1996-03-21 02:00","1996","03","21","02:00","-2.1","","-3.6","","89","","35","","30","","11.3","","97.89","","","","-9","","Snow"
"1996-03-21 03:00","1996","03","21","03:00","-3.5","","-6.7","","78","","34","","48","","16.1","","97.92","","","","-13","","Snow"
"1996-03-21 04:00","1996","03","21","04:00","-4.5","","-9.0","","71","","35","","41","","25.0","","97.92","","","","-14","","Snow"
"1996-03-21 05:00","1996","03","21","05:00","-4.9","","-7.9","","79","","34","","41","","19.3","","97.96","","","","-14","","Snow"
"1996-03-21 06:00","1996","03","21","06:00","-5.6","","-8.5","","80","","35","","43","","19.3","","97.99","","","","-15","","Snow"
"1996-03-21 07:00","1996","03","21","07:00","-5.9","","-8.4","","82","","35","","44","","4.8","","98.02","","","","-16","","Snow"
"1996-03-21 08:00","1996","03","21","08:00","-6.4","","-8.7","","84","","35","","43","","1.6","","98.06","","","","-16","","Snow"
"1996-03-21 09:00","1996","03","21","09:00","-6.3","","-8.3","","86","","35","","37","","16.1","","98.06","","","","-16","","Snow"
"1996-03-21 10:00","1996","03","21","10:00","-5.5","","-8.5","","79","","35","","30","","24.1","","98.12","","","","-14","","Snow"
"1996-03-21 11:00","1996","03","21","11:00","-5.4","","-8.2","","81","","34","","33","","32.2","","98.16","","","","-14","","Mostly Cloudy"
"1996-03-21 12:00","1996","03","21","12:00","-5.3","","-8.5","","78","","34","","32","","32.2","","98.19","","","","-14","","Mostly Cloudy"
"1996-03-21 13:00","1996","03","21","13:00","-5.2","","-8.2","","79","","33","","33","","24.1","","98.19","","","","-14","","Snow"
"1996-03-21 14:00","1996","03","21","14:00","-4.6","","-7.9","","78","","35","","26","","32.2","","98.19","","","","-12","","Cloudy"
"1996-03-21 15:00","1996","03","21","15:00","-4.4","","-7.6","","78","","33","","24","","32.2","","98.19","","","","-11","","Cloudy"
"1996-03-21 16:00","1996","03","21","16:00","-4.4","","-7.9","","77","","34","","26","","32.2","","98.26","","","","-12","","Snow"
"1996-03-21 17:00","1996","03","21","17:00","-4.5","","-7.3","","81","","34","","24","","12.9","","98.29","","","","-12","","Snow"
"1996-03-21 18:00","1996","03","21","18:00","-5.1","","-8.6","","76","","33","","22","","12.9","","98.39","","","","-12","","Snow"
"1996-03-21 19:00","1996","03","21","19:00","-5.5","","-8.9","","77","","31","","22","","16.1","","98.42","","","","-13","","Snow"
"1996-03-21 20:00","1996","03","21","20:00","-5.4","","-9.2","","75","","30","","15","","11.3","","98.46","","","","-11","","Snow"
"1996-03-21 21:00","1996","03","21","21:00","-5.8","","-8.8","","79","","29","","17","","4.8","","98.49","","","","-12","","Snow"
"1996-03-21 22:00","1996","03","21","22:00","-6.2","","-8.1","","86","","29","","19","","4.8","","98.46","","","","-13","","Snow"
"1996-03-21 23:00","1996","03","21","23:00","-7.0","","-10.0","","79","","29","","19","","25.0","","98.49","","","","-14","","Snow"
"1996-03-22 00:00","1996","03","22","00:00","-7.5","","-10.6","","78","","28","","19","","25.0","","98.46","","","","-15","","Snow"
"1996-03-22 01:00","1996","03","22","01:00","-8.0","","-10.8","","80","","29","","20","","25.0","","98.46","","","","-15","","Snow"
"1996-03-22 02:00","1996","03","22","02:00","-7.2","","-10.0","","80","","30","","20","","25.0","","98.42","","","","-14","","Mostly Cloudy"
"1996-03-22 03:00","1996","03","22","03:00","-6.6","","-9.4","","80","","30","","22","","25.0","","98.39","","","","-14","","Cloudy"
"1996-03-22 04:00","1996","03","22","04:00","-6.6","","-10.1","","76","","30","","20","","25.0","","98.39","","","","-14","","Snow"
"1996-03-22 05:00","1996","03","22","05:00","-7.1","","-9.6","","82","","31","","22","","19.3","","98.39","","","","-15","","Snow"
"1996-03-22 06:00","1996","03","22","06:00","-7.7","","-11.0","","77","","30","","15","","16.1","","98.39","","","","-14","","Snow"
"1996-03-22 07:00","1996","03","22","07:00","-8.2","","-11.2","","79","","28","","15","","19.3","","98.42","","","","-15","","Snow"
"1996-03-22 08:00","1996","03","22","08:00","-7.3","","-11.0","","75","","30","","19","","19.3","","98.42","","","","-14","","Mostly Cloudy"
"1996-03-22 09:00","1996","03","22","09:00","-6.7","","-10.1","","77","","31","","22","","19.3","","98.42","","","","-14","","Snow"
"1996-03-22 10:00","1996","03","22","10:00","-6.0","","-10.3","","72","","29","","19","","6.4","","98.42","","","","-13","","Snow Showers"
"1996-03-22 11:00","1996","03","22","11:00","-4.8","","-9.7","","69","","31","","22","","16.1","","98.42","","","","-12","","Snow Showers"
"1996-03-22 12:00","1996","03","22","12:00","-4.0","","-9.1","","68","","28","","26","","24.1","","98.39","","","","-11","","Snow Showers"
"1996-03-22 13:00","1996","03","22","13:00","-3.0","","-8.1","","68","","29","","22","","32.2","","98.36","","","","-9","","Cloudy"
"1996-03-22 14:00","1996","03","22","14:00","-2.2","","-7.0","","70","","30","","30","","24.1","","98.36","","","","-9","","Snow Showers"
"1996-03-22 15:00","1996","03","22","15:00","-1.8","","-6.4","","71","","27","","22","","14.5","","98.32","","","","-8","","Snow Showers"
"1996-03-22 16:00","1996","03","22","16:00","-2.4","","-4.8","","84","","27","","22","","4.8","","98.32","","","","-9","","Snow Showers"
"1996-03-22 17:00","1996","03","22","17:00","-2.6","","-5.1","","83","","29","","30","","3.2","","98.36","","","","-10","","Snow Showers"
"1996-03-22 18:00","1996","03","22","18:00","-3.0","","-4.9","","87","","26","","24","","4.8","","98.39","","","","-10","","Snow Showers"
"1996-03-22 19:00","1996","03","22","19:00","-3.7","","-4.8","","92","","27","","19","","2.4","","98.46","","","","-10","","Snow Showers"
"1996-03-22 20:00","1996","03","22","20:00","-3.6","","-7.3","","75","","31","","33","","9.7","","98.49","","","","-12","","Snow Showers"
"1996-03-22 21:00","1996","03","22","21:00","-4.8","","-6.9","","85","","35","","9","","19.3","","98.59","","","","-9","","Snow Showers"
"1996-03-22 22:00","1996","03","22","22:00","-4.8","","-6.6","","87","","","","0","","12.9","","98.62","","","","","","Snow Showers"
"1996-03-22 23:00","1996","03","22","23:00","-4.6","","-6.6","","86","","","","0","","9.7","","98.66","","","","","","Snow"
"1996-03-23 00:00","1996","03","23","00:00","-4.8","","-6.6","","87","","33","","6","","4.8","","98.69","","","","-8","","Snow"
"1996-03-23 01:00","1996","03","23","01:00","-4.6","","-6.6","","86","","27","","11","","25.0","","98.72","","","","-9","","Snow"
"1996-03-23 02:00","1996","03","23","02:00","-3.7","","-8.8","","68","","32","","24","","25.0","","98.76","","","","-11","","Snow"
"1996-03-23 03:00","1996","03","23","03:00","-4.1","","-9.5","","66","","32","","26","","25.0","","98.79","","","","-11","","Snow"
"1996-03-23 04:00","1996","03","23","04:00","-4.4","","-9.8","","66","","30","","24","","25.0","","98.89","","","","-11","","Cloudy"
"1996-03-23 05:00","1996","03","23","05:00","-4.6","","-10.2","","65","","31","","24","","25.0","","98.99","","","","-12","","Cloudy"
"1996-03-23 06:00","1996","03","23","06:00","-5.9","","-11.1","","67","","29","","22","","25.0","","99.09","","","","-13","","Mainly Clear"
"1996-03-23 07:00","1996","03","23","07:00","-5.9","","-10.3","","71","","30","","22","","40.2","","99.19","","","","-13","","Mainly Clear"
"1996-03-23 08:00","1996","03","23","08:00","-4.8","","-9.3","","71","","30","","26","","40.2","","99.26","","","","-12","","Mainly Clear"
"1996-03-23 09:00","1996","03","23","09:00","-3.7","","-8.8","","68","","31","","22","","40.2","","99.29","","","","-10","","Mainly Clear"
"1996-03-23 10:00","1996","03","23","10:00","-2.9","","-8.4","","66","","31","","20","","40.2","","99.32","","","","-9","","Mainly Clear"
"1996-03-23 11:00","1996","03","23","11:00","-1.9","","-7.7","","64","","30","","30","","40.2","","99.35","","","","-9","","Mainly Clear"
"1996-03-23 12:00","1996","03","23","12:00","-0.7","","-6.0","","67","","28","","32","","40.2","","99.35","","","","-8","","Mostly Cloudy"
"1996-03-23 13:00","1996","03","23","13:00","0.1","","-5.8","","64","","29","","37","","40.2","","99.35","","","","","","Clear"
"1996-03-23 14:00","1996","03","23","14:00","1.0","","-5.5","","62","","30","","37","","40.2","","99.39","","","","","","Clear"
"1996-03-23 15:00","1996","03","23","15:00","1.5","","-5.4","","60","","30","","39","","40.2","","99.45","","","","","","Clear"
"1996-03-23 16:00","1996","03","23","16:00","1.5","","-5.4","","60","","30","","39","","40.2","","99.45","","","","","","Clear"
"1996-03-23 17:00","1996","03","23","17:00","0.6","","-4.9","","67","","29","","30","","40.2","","99.55","","","","","","Clear"
"1996-03-23 18:00","1996","03","23","18:00","0.0","","-5.6","","66","","29","","30","","40.2","","99.65","","","","-6","","Clear"
"1996-03-23 19:00","1996","03","23","19:00","-1.0","","-6.0","","69","","29","","26","","25.0","","99.79","","","","-7","","Clear"
"1996-03-23 20:00","1996","03","23","20:00","-1.4","","-6.7","","67","","29","","28","","25.0","","99.89","","","","-8","","Clear"
"1996-03-23 21:00","1996","03","23","21:00","-2.5","","-7.0","","71","","28","","24","","25.0","","99.99","","","","-9","","Clear"
"1996-03-23 22:00","1996","03","23","22:00","-3.0","","-8.4","","66","","28","","22","","25.0","","100.09","","","","-9","","Clear"
"1996-03-23 23:00","1996","03","23","23:00","-3.8","","-9.5","","65","","30","","11","","25.0","","100.09","","","","-8","","Clear"
"1996-03-24 00:00","1996","03","24","00:00","-4.7","","-10.2","","65","","31","","9","","25.0","","100.12","","","","-9","","Mainly Clear"
"1996-03-24 01:00","1996","03","24","01:00","-4.7","","-9.8","","67","","25","","6","","25.0","","100.15","","","","-7","","Clear"
"1996-03-24 02:00","1996","03","24","02:00","-5.6","","-10.8","","67","","","","0","","25.0","","100.15","","","","","","Clear"
"1996-03-24 03:00","1996","03","24","03:00","-6.2","","-11.1","","68","","30","","7","","25.0","","100.15","","","","-10","","Clear"
"1996-03-24 04:00","1996","03","24","04:00","-6.6","","-10.9","","71","","27","","6","","25.0","","100.19","","","","-10","","Clear"
"1996-03-24 05:00","1996","03","24","05:00","-7.0","","-11.6","","70","","29","","6","","25.0","","100.25","","","","-10","","Clear"
"1996-03-24 06:00","1996","03","24","06:00","-7.3","","-11.4","","72","","30","","7","","25.0","","100.32","","","","-11","","Clear"
"1996-03-24 07:00","1996","03","24","07:00","-7.4","","-9.5","","85","","33","","4","","40.2","","100.42","","","","-9","","Mainly Clear"
"1996-03-24 08:00","1996","03","24","08:00","-4.2","","-7.0","","81","","36","","7","","40.2","","100.45","","","","-7","","Mostly Cloudy"
"1996-03-24 09:00","1996","03","24","09:00","-1.2","","-6.3","","68","","","","0","","40.2","","100.45","","","","","","Cloudy"
"1996-03-24 10:00","1996","03","24","10:00","0.2","","-4.4","","71","","13","","13","","40.2","","100.35","","","","","","Cloudy"
"1996-03-24 11:00","1996","03","24","11:00","0.2","","-4.4","","71","","14","","15","","40.2","","100.29","","","","","","Cloudy"
"1996-03-24 12:00","1996","03","24","12:00","1.1","","-3.6","","71","","15","","15","","40.2","","100.22","","","","","","Cloudy"
"1996-03-24 13:00","1996","03","24","13:00","1.2","","-1.9","","80","","14","","17","","32.2","","100.15","","","","","","Mostly Cloudy"
"1996-03-24 14:00","1996","03","24","14:00","1.3","","-2.9","","74","","15","","13","","24.1","","100.12","","","","","","Cloudy"
"1996-03-24 15:00","1996","03","24","15:00","1.6","","-4.1","","66","","13","","11","","19.3","","99.99","","","","","","Cloudy"
"1996-03-24 16:00","1996","03","24","16:00","1.7","","-4.1","","65","","12","","20","","24.1","","99.82","","","","","","Cloudy"
"1996-03-24 17:00","1996","03","24","17:00","1.9","","-3.4","","68","","12","","24","","19.3","","99.65","","","","","","Cloudy"
"1996-03-24 18:00","1996","03","24","18:00","1.9","","-3.2","","69","","12","","24","","19.3","","99.59","","","","","","Mostly Cloudy"
"1996-03-24 19:00","1996","03","24","19:00","1.7","","-2.9","","71","","11","","19","","19.3","","99.49","","","","","","Cloudy"
"1996-03-24 20:00","1996","03","24","20:00","1.4","","-2.1","","77","","10","","13","","25.0","","99.45","","","","","","Mostly Cloudy"
"1996-03-24 21:00","1996","03","24","21:00","1.5","","-1.5","","80","","9","","17","","25.0","","99.39","","","","","","Mostly Cloudy"
"1996-03-24 22:00","1996","03","24","22:00","2.0","","-1.0","","80","","10","","17","","25.0","","99.29","","","","","","Mostly Cloudy"
"1996-03-24 23:00","1996","03","24","23:00","2.2","","-1.0","","79","","11","","15","","25.0","","99.16","","","","","","Cloudy"
"1996-03-25 00:00","1996","03","25","00:00","2.5","","-0.9","","78","","10","","11","","25.0","","99.02","","","","","","Cloudy"
"1996-03-25 01:00","1996","03","25","01:00","2.4","","-0.4","","82","","10","","9","","25.0","","98.96","","","","","","Mostly Cloudy"
"1996-03-25 02:00","1996","03","25","02:00","2.6","","-0.9","","78","","10","","11","","25.0","","98.86","","","","","","Cloudy"
"1996-03-25 03:00","1996","03","25","03:00","2.6","","-0.9","","78","","10","","7","","25.0","","98.76","","","","","","Mostly Cloudy"
"1996-03-25 04:00","1996","03","25","04:00","1.6","","-1.0","","83","","","","0","","25.0","","98.72","","","","","","Mostly Cloudy"
"1996-03-25 05:00","1996","03","25","05:00","2.8","","-0.4","","79","","13","","4","","16.1","","98.69","","","","","","Rain Showers"
"1996-03-25 06:00","1996","03","25","06:00","3.0","","-0.4","","78","","10","","9","","16.1","","98.56","","","","","","Rain Showers"
"1996-03-25 07:00","1996","03","25","07:00","3.3","","0.2","","80","","12","","9","","24.1","","98.56","","","","","","Mostly Cloudy"
"1996-03-25 08:00","1996","03","25","08:00","5.7","","-0.1","","66","","13","","19","","24.1","","98.36","","","","","","Cloudy"
"1996-03-25 09:00","1996","03","25","09:00","6.9","","0.2","","62","","14","","20","","24.1","","98.26","","","","","","Cloudy"
"1996-03-25 10:00","1996","03","25","10:00","9.9","","0.8","","53","","18","","22","","24.1","","98.19","","","","","","Mostly Cloudy"
"1996-03-25 11:00","1996","03","25","11:00","13.9","","1.8","","44","","20","","33","","32.2","","98.06","","","","","","Mostly Cloudy"
"1996-03-25 12:00","1996","03","25","12:00","11.9","","4.9","","62","","22","","44","","19.3","","98.09","","","","","","Rain Showers"
"1996-03-25 13:00","1996","03","25","13:00","9.9","","6.9","","82","","20","","44","","12.9","","98.09","","","","","","Rain"
"1996-03-25 14:00","1996","03","25","14:00","10.8","","6.8","","76","","20","","41","","32.2","","98.02","","","","","","Cloudy"
"1996-03-25 15:00","1996","03","25","15:00","12.2","","6.3","","67","","20","","48","","32.2","","97.92","","","","","","Mostly Cloudy"
"1996-03-25 16:00","1996","03","25","16:00","12.9","","6.6","","66","","20","","41","","24.1","","97.86","","","","","","Rain Showers"
"1996-03-25 17:00","1996","03","25","17:00","11.0","","7.2","","77","","23","","30","","32.2","","97.89","","","","","","Rain Showers"
"1996-03-25 18:00","1996","03","25","18:00","8.3","","3.5","","72","","25","","41","","40.2","","98.16","","","","","","Mostly Cloudy"
"1996-03-25 19:00","1996","03","25","19:00","5.8","","-2.3","","56","","24","","44","","32.2","","98.29","","","","","","Mainly Clear"
"1996-03-25 20:00","1996","03","25","20:00","3.0","","-3.2","","64","","25","","48","","25.0","","98.56","","","","","","Mostly Cloudy"
"1996-03-25 21:00","1996","03","25","21:00","1.5","","-5.4","","60","","25","","46","","25.0","","98.79","","","","","","Cloudy"
"1996-03-25 22:00","1996","03","25","22:00","0.7","","-1.4","","86","","25","","44","","25.0","","98.92","","","","","","Snow Showers"
"1996-03-25 23:00","1996","03","25","23:00","0.0","","-4.3","","73","","25","","41","","19.3","","99.12","","","","-7","","Snow Showers"
"1996-03-26 00:00","1996","03","26","00:00","-0.7","","-5.6","","69","","26","","37","","25.0","","99.22","","","","-8","","Mostly Cloudy"
"1996-03-26 01:00","1996","03","26","01:00","-2.0","","-6.7","","70","","27","","30","","25.0","","99.39","","","","-9","","Cloudy"
"1996-03-26 02:00","1996","03","26","02:00","-2.2","","-6.4","","73","","28","","41","","19.3","","99.52","","","","-10","","Cloudy"
"1996-03-26 03:00","1996","03","26","03:00","-2.6","","-7.0","","72","","27","","30","","19.3","","99.62","","","","-10","","Snow Showers"
"1996-03-26 04:00","1996","03","26","04:00","-3.0","","-7.4","","72","","27","","32","","19.3","","99.72","","","","-11","","Snow Showers"
"1996-03-26 05:00","1996","03","26","05:00","-3.6","","-7.7","","73","","26","","15","","19.3","","99.75","","","","-9","","Mainly Clear"
"1996-03-26 06:00","1996","03","26","06:00","-3.5","","-7.7","","73","","24","","15","","24.1","","99.85","","","","-9","","Cloudy"
"1996-03-26 07:00","1996","03","26","07:00","-3.6","","-7.0","","77","","27","","22","","3.2","","99.95","","","","-10","","Snow Showers"
"1996-03-26 08:00","1996","03","26","08:00","-3.5","","-9.1","","65","","28","","33","","40.2","","99.99","","","","-11","","Mostly Cloudy"
"1996-03-26 09:00","1996","03","26","09:00","-3.4","","-9.9","","61","","28","","26","","40.2","","100.02","","","","-10","","Mostly Cloudy"
"1996-03-26 10:00","1996","03","26","10:00","-2.8","","-6.4","","76","","27","","28","","24.1","","100.05","","","","-10","","Snow Showers"
"1996-03-26 11:00","1996","03","26","11:00","-5.0","","-5.9","","93","","26","","22","","8.0","","100.09","","","","-12","","Snow Showers"
"1996-03-26 12:00","1996","03","26","12:00","-2.1","","-8.1","","63","","28","","37","","19.3","","100.09","","","","-10","","Snow Showers"
"1996-03-26 13:00","1996","03","26","13:00","-2.1","","-8.1","","63","","28","","41","","19.3","","100.19","","","","-10","","Mostly Cloudy"
"1996-03-26 14:00","1996","03","26","14:00","-3.1","","-9.6","","61","","30","","41","","24.1","","100.25","","","","-12","","Mostly Cloudy"
"1996-03-26 15:00","1996","03","26","15:00","-4.5","","-10.6","","62","","30","","50","","32.2","","100.35","","","","-14","","Mostly Cloudy"
"1996-03-26 16:00","1996","03","26","16:00","-3.5","","-11.6","","53","","26","","32","","32.2","","100.42","","","","-11","","Mostly Cloudy"
"1996-03-26 17:00","1996","03","26","17:00","-5.6","","-7.8","","84","","28","","41","","0.8","","100.55","","","","-15","","Moderate Snow Showers"
"1996-03-26 18:00","1996","03","26","18:00","-5.6","","-10.0","","71","","29","","41","","19.3","","100.59","","","","-15","","Snow Showers"
"1996-03-26 19:00","1996","03","26","19:00","-6.5","","-11.3","","69","","30","","30","","16.1","","100.75","","","","-15","","Snow Showers"
"1996-03-26 20:00","1996","03","26","20:00","-7.0","","-13.8","","58","","29","","35","","25.0","","100.89","","","","-16","","Clear"
"1996-03-26 21:00","1996","03","26","21:00","-8.2","","-15.4","","56","","28","","41","","25.0","","100.99","","","","-18","","Clear"
"1996-03-26 22:00","1996","03","26","22:00","-9.0","","-17.0","","52","","28","","26","","25.0","","101.05","","","","-18","","Clear"
"1996-03-26 23:00","1996","03","26","23:00","-9.1","","-15.3","","61","","28","","24","","25.0","","101.12","","","","-17","","Clear"
"1996-03-27 00:00","1996","03","27","00:00","-9.2","","-14.8","","64","","28","","22","","25.0","","101.22","","","","-17","","Clear"
"1996-03-27 01:00","1996","03","27","01:00","-9.1","","-14.3","","66","","29","","22","","25.0","","101.29","","","","-17","","Clear"
"1996-03-27 02:00","1996","03","27","02:00","-9.1","","-13.8","","69","","32","","15","","25.0","","101.32","","","","-16","","Clear"
"1996-03-27 03:00","1996","03","27","03:00","-9.2","","-12.9","","74","","31","","13","","25.0","","101.42","","","","-15","","Clear"
"1996-03-27 04:00","1996","03","27","04:00","-9.3","","-13.6","","71","","30","","13","","25.0","","101.49","","","","-15","","Clear"
"1996-03-27 05:00","1996","03","27","05:00","-9.4","","-14.0","","69","","34","","22","","25.0","","101.42","","","","-17","","Clear"
"1996-03-27 06:00","1996","03","27","06:00","-9.8","","-13.8","","73","","35","","15","","25.0","","101.52","","","","-16","","Clear"
"1996-03-27 07:00","1996","03","27","07:00","-9.5","","-13.6","","72","","2","","19","","40.2","","101.59","","","","-17","","Clear"
"1996-03-27 08:00","1996","03","27","08:00","-9.9","","-16.2","","60","","34","","11","","40.2","","101.69","","","","-15","","Clear"
"1996-03-27 09:00","1996","03","27","09:00","-9.3","","-15.5","","61","","1","","6","","40.2","","101.79","","","","-13","","Clear"
"1996-03-27 10:00","1996","03","27","10:00","-7.9","","-14.3","","60","","26","","7","","40.2","","101.85","","","","-12","","Clear"
"1996-03-27 11:00","1996","03","27","11:00","-6.9","","-12.9","","62","","14","","6","","40.2","","101.82","","","","-10","","Mainly Clear"
"1996-03-27 12:00","1996","03","27","12:00","-6.0","","-13.3","","56","","21","","15","","32.2","","101.75","","","","-12","","Mainly Clear"
"1996-03-27 13:00","1996","03","27","13:00","-4.5","","-10.3","","64","","24","","7","","32.2","","101.69","","","","-8","","Mainly Clear"
"1996-03-27 14:00","1996","03","27","14:00","-3.9","","-9.9","","63","","26","","6","","40.2","","101.62","","","","-7","","Mainly Clear"
"1996-03-27 15:00","1996","03","27","15:00","-3.5","","-11.2","","55","","25","","9","","40.2","","101.55","","","","-7","","Mainly Clear"
"1996-03-27 16:00","1996","03","27","16:00","-2.5","","-11.3","","51","","16","","6","","32.2","","101.45","","","","-5","","Clear"
"1996-03-27 17:00","1996","03","27","17:00","-3.5","","-10.7","","57","","16","","15","","32.2","","101.45","","","","-9","","Clear"
"1996-03-27 18:00","1996","03","27","18:00","-4.0","","-9.9","","63","","16","","15","","32.2","","101.45","","","","-9","","Clear"
"1996-03-27 19:00","1996","03","27","19:00","-4.2","","-10.3","","62","","17","","11","","32.2","","101.39","","","","-9","","Mainly Clear"
"1996-03-27 20:00","1996","03","27","20:00","-4.5","","-10.2","","64","","14","","4","","25.0","","101.39","","","","-6","","Mainly Clear"
"1996-03-27 21:00","1996","03","27","21:00","-4.8","","-10.1","","66","","","","0","","25.0","","101.42","","","","","","Clear"
"1996-03-27 22:00","1996","03","27","22:00","-5.0","","-10.1","","67","","","","0","","25.0","","101.35","","","","","","Clear"
"1996-03-27 23:00","1996","03","27","23:00","-4.6","","-8.7","","73","","","","0","","25.0","","101.32","","","","","","Clear"
"1996-03-28 00:00","1996","03","28","00:00","-4.6","","-8.7","","73","","10","","4","","25.0","","101.29","","","","-6","","Clear"
"1996-03-28 01:00","1996","03","28","01:00","-5.8","","-9.5","","75","","6","","7","","25.0","","101.25","","","","-9","","Clear"
"1996-03-28 02:00","1996","03","28","02:00","-5.5","","-9.2","","75","","9","","7","","19.3","","101.19","","","","-9","","Mainly Clear"
"1996-03-28 03:00","1996","03","28","03:00","-6.5","","-9.0","","82","","6","","4","","19.3","","101.15","","","","-8","","Mainly Clear"
"1996-03-28 04:00","1996","03","28","04:00","-6.0","","-8.8","","81","","6","","9","","19.3","","101.09","","","","-10","","Mainly Clear"
"1996-03-28 05:00","1996","03","28","05:00","-6.7","","-8.7","","86","","5","","4","","19.3","","101.05","","","","-9","","Mainly Clear"
"1996-03-28 06:00","1996","03","28","06:00","-6.2","","-8.1","","86","","3","","11","","24.1","","101.05","","","","-11","","Mainly Clear"
"1996-03-28 07:00","1996","03","28","07:00","-5.2","","-7.2","","86","","3","","13","","19.3","","101.09","","","","-10","","Mainly Clear"
"1996-03-28 08:00","1996","03","28","08:00","-2.8","","-5.4","","82","","6","","11","","19.3","","101.02","","","","-7","","Mainly Clear"
"1996-03-28 09:00","1996","03","28","09:00","-1.4","","-5.1","","76","","6","","17","","19.3","","100.99","","","","-7","","Mainly Clear"
"1996-03-28 10:00","1996","03","28","10:00","0.2","","-4.7","","70","","8","","22","","19.3","","100.92","","","","","","Mainly Clear"
"1996-03-28 11:00","1996","03","28","11:00","0.7","","-4.9","","66","","10","","20","","24.1","","100.85","","","","","","Mainly Clear"
"1996-03-28 12:00","1996","03","28","12:00","2.0","","-3.4","","67","","8","","22","","24.1","","100.75","","","","","","Mostly Cloudy"
"1996-03-28 13:00","1996","03","28","13:00","2.0","","-4.0","","64","","8","","26","","24.1","","100.59","","","","","","Mostly Cloudy"
"1996-03-28 14:00","1996","03","28","14:00","3.0","","-5.2","","55","","6","","20","","24.1","","100.45","","","","","","Mostly Cloudy"
"1996-03-28 15:00","1996","03","28","15:00","3.8","","-7.4","","44","","7","","24","","32.2","","100.35","","","","","","Mostly Cloudy"
"1996-03-28 16:00","1996","03","28","16:00","3.0","","-8.1","","44","","8","","22","","32.2","","100.29","","","","","","Mostly Cloudy"
"1996-03-28 17:00","1996","03","28","17:00","2.3","","-8.2","","46","","7","","17","","32.2","","100.25","","","","","","Cloudy"
"1996-03-28 18:00","1996","03","28","18:00","1.6","","-7.5","","51","","9","","17","","32.2","","100.22","","","","","","Mostly Cloudy"
"1996-03-28 19:00","1996","03","28","19:00","0.8","","-9.2","","47","","8","","20","","32.2","","100.19","","","","","","Mostly Cloudy"
"1996-03-28 20:00","1996","03","28","20:00","0.5","","-10.1","","45","","7","","20","","25.0","","100.19","","","","","","Mostly Cloudy"
"1996-03-28 21:00","1996","03","28","21:00","0.3","","-10.0","","46","","8","","11","","25.0","","100.15","","","","","","Mostly Cloudy"
"1996-03-28 22:00","1996","03","28","22:00","-0.4","","-9.1","","52","","6","","9","","25.0","","100.09","","","","-4","","Mostly Cloudy"
"1996-03-28 23:00","1996","03","28","23:00","-0.5","","-9.3","","51","","5","","9","","25.0","","99.99","","","","-4","","Mostly Cloudy"
"1996-03-29 00:00","1996","03","29","00:00","0.0","","-9.2","","50","","7","","9","","25.0","","99.92","","","","-3","","Mainly Clear"
"1996-03-29 01:00","1996","03","29","01:00","0.1","","-7.5","","57","","6","","6","","25.0","","99.89","","","","","","Clear"
"1996-03-29 02:00","1996","03","29","02:00","-0.4","","-7.2","","60","","6","","9","","25.0","","99.85","","","","-4","","Mostly Cloudy"
"1996-03-29 03:00","1996","03","29","03:00","-1.0","","-6.0","","69","","6","","9","","25.0","","99.79","","","","-4","","Mostly Cloudy"
"1996-03-29 04:00","1996","03","29","04:00","-0.7","","-7.0","","62","","4","","7","","25.0","","99.82","","","","-3","","Mostly Cloudy"
"1996-03-29 05:00","1996","03","29","05:00","-2.5","","-6.0","","77","","34","","6","","25.0","","99.85","","","","-5","","Mostly Cloudy"
"1996-03-29 06:00","1996","03","29","06:00","-1.9","","-7.0","","68","","36","","9","","25.0","","99.89","","","","-5","","Mostly Cloudy"
"1996-03-29 07:00","1996","03","29","07:00","-1.5","","-4.8","","78","","33","","7","","32.2","","99.89","","","","-4","","Mostly Cloudy"
"1996-03-29 08:00","1996","03","29","08:00","-0.3","","-5.1","","70","","34","","9","","24.1","","99.92","","","","-3","","Mostly Cloudy"
"1996-03-29 09:00","1996","03","29","09:00","1.4","","-4.1","","67","","","","0","","24.1","","99.92","","","","","","Mostly Cloudy"
"1996-03-29 10:00","1996","03","29","10:00","2.9","","-4.5","","58","","2","","4","","24.1","","99.95","","","","","","Mostly Cloudy"
"1996-03-29 11:00","1996","03","29","11:00","4.8","","-5.1","","49","","4","","4","","24.1","","99.89","","","","","","Mostly Cloudy"
"1996-03-29 12:00","1996","03","29","12:00","5.7","","-3.0","","54","","","","0","","24.1","","99.89","","","","","","Mainly Clear"
"1996-03-29 13:00","1996","03","29","13:00","7.5","","-0.3","","58","","35","","19","","24.1","","99.89","","","","","","Clear"
"1996-03-29 14:00","1996","03","29","14:00","8.3","","-1.3","","51","","34","","13","","24.1","","99.85","","","","","","Clear"
"1996-03-29 15:00","1996","03","29","15:00","8.8","","-2.4","","45","","34","","19","","24.1","","99.85","","","","","","Clear"
"1996-03-29 16:00","1996","03","29","16:00","8.3","","-3.8","","42","","33","","19","","24.1","","99.85","","","","","","Clear"
"1996-03-29 17:00","1996","03","29","17:00","8.0","","-3.9","","43","","35","","26","","24.1","","99.92","","","","","","Clear"
"1996-03-29 18:00","1996","03","29","18:00","6.0","","-4.3","","48","","34","","26","","24.1","","99.99","","","","","","Clear"
"1996-03-29 19:00","1996","03","29","19:00","3.6","","-4.5","","55","","34","","19","","24.1","","100.05","","","","","","Clear"
"1996-03-29 20:00","1996","03","29","20:00","2.8","","-5.2","","56","","35","","22","","25.0","","100.12","","","","","","Clear"
"1996-03-29 21:00","1996","03","29","21:00","1.6","","-5.4","","60","","35","","17","","25.0","","100.15","","","","","","Mainly Clear"
"1996-03-29 22:00","1996","03","29","22:00","1.0","","-6.2","","59","","34","","24","","25.0","","100.19","","","","","","Clear"
"1996-03-29 23:00","1996","03","29","23:00","0.7","","-4.9","","66","","35","","22","","25.0","","100.22","","","","","","Clear"
"1996-03-30 00:00","1996","03","30","00:00","0.4","","-4.1","","72","","35","","19","","25.0","","100.22","","","","","","Clear"
"1996-03-30 01:00","1996","03","30","01:00","-0.2","","-3.7","","77","","35","","19","","25.0","","100.19","","","","-5","","Clear"
"1996-03-30 02:00","1996","03","30","02:00","-0.4","","-3.7","","78","","35","","15","","25.0","","100.22","","","","-5","","Clear"
"1996-03-30 03:00","1996","03","30","03:00","-0.7","","-4.1","","78","","35","","20","","25.0","","100.25","","","","-6","","Clear"
"1996-03-30 04:00","1996","03","30","04:00","-1.5","","-5.4","","75","","34","","17","","25.0","","100.25","","","","-7","","Clear"
"1996-03-30 05:00","1996","03","30","05:00","-1.6","","-4.8","","79","","34","","15","","25.0","","100.25","","","","-6","","Clear"
"1996-03-30 06:00","1996","03","30","06:00","-2.0","","-5.1","","79","","36","","19","","25.0","","100.29","","","","-8","","Clear"
"1996-03-30 07:00","1996","03","30","07:00","-1.4","","-5.1","","76","","36","","19","","24.1","","100.35","","","","-7","","Clear"
"1996-03-30 08:00","1996","03","30","08:00","0.4","","-5.4","","65","","36","","17","","19.3","","100.35","","","","","","Clear"
"1996-03-30 09:00","1996","03","30","09:00","1.8","","-3.2","","69","","36","","7","","19.3","","100.39","","","","","","Clear"
"1996-03-30 10:00","1996","03","30","10:00","4.5","","-3.8","","55","","1","","6","","19.3","","100.35","","","","","","Clear"
"1996-03-30 11:00","1996","03","30","11:00","5.2","","-1.8","","61","","","","0","","19.3","","100.35","","","","","","Clear"
"1996-03-30 12:00","1996","03","30","12:00","6.7","","-1.0","","58","","16","","9","","19.3","","100.29","","","","","","Clear"
"1996-03-30 13:00","1996","03","30","13:00","6.9","","-0.4","","60","","13","","11","","19.3","","100.25","","","","","","Clear"
"1996-03-30 14:00","1996","03","30","14:00","6.3","","-1.6","","57","","15","","15","","19.3","","100.22","","","","","","Clear"
"1996-03-30 15:00","1996","03","30","15:00","6.6","","-2.2","","53","","15","","19","","19.3","","100.15","","","","","","Mainly Clear"
"1996-03-30 16:00","1996","03","30","16:00","6.2","","-2.3","","54","","14","","19","","19.3","","100.09","","","","","","Mainly Clear"
"1996-03-30 17:00","1996","03","30","17:00","5.6","","-2.4","","56","","14","","19","","19.3","","100.02","","","","","","Mainly Clear"
"1996-03-30 18:00","1996","03","30","18:00","4.0","","-0.8","","71","","15","","13","","19.3","","99.95","","","","","","Mostly Cloudy"
"1996-03-30 19:00","1996","03","30","19:00","2.5","","-2.0","","72","","13","","11","","19.3","","99.95","","","","","","Mostly Cloudy"
"1996-03-30 20:00","1996","03","30","20:00","2.3","","-2.6","","70","","11","","9","","19.3","","99.95","","","","","","Mainly Clear"
"1996-03-30 21:00","1996","03","30","21:00","2.0","","-4.7","","61","","9","","9","","19.3","","99.89","","","","","","Mainly Clear"
"1996-03-30 22:00","1996","03","30","22:00","1.6","","-5.4","","60","","7","","7","","25.0","","99.89","","","","","","Mainly Clear"
"1996-03-30 23:00","1996","03","30","23:00","0.7","","-6.2","","60","","4","","7","","25.0","","99.85","","","","","","Mostly Cloudy"
"1996-03-31 00:00","1996","03","31","00:00","0.0","","-5.3","","67","","3","","7","","25.0","","99.79","","","","-2","","Mainly Clear"
"1996-03-31 01:00","1996","03","31","01:00","0.3","","-4.9","","68","","","","0","","25.0","","99.75","","","","","","Mostly Cloudy"
"1996-03-31 02:00","1996","03","31","02:00","0.3","","-5.2","","67","","6","","9","","25.0","","99.69","","","","","","Clear"
"1996-03-31 03:00","1996","03","31","03:00","-0.3","","-5.1","","70","","7","","6","","25.0","","99.65","","","","-2","","Clear"
"1996-03-31 04:00","1996","03","31","04:00","1.0","","-4.2","","68","","9","","15","","25.0","","99.59","","","","","","Clear"
"1996-03-31 05:00","1996","03","31","05:00","0.5","","-4.3","","70","","6","","7","","25.0","","99.55","","","","","","Clear"
"1996-03-31 06:00","1996","03","31","06:00","-1.7","","-3.9","","85","","4","","7","","25.0","","99.55","","","","-4","","Mainly Clear"
"1996-03-31 07:00","1996","03","31","07:00","-0.3","","-3.8","","77","","1","","7","","24.1","","99.55","","","","-3","","Mostly Cloudy"
"1996-03-31 08:00","1996","03","31","08:00","3.4","","-4.5","","56","","7","","9","","24.1","","99.55","","","","","","Mostly Cloudy"
"1996-03-31 09:00","1996","03","31","09:00","5.4","","-6.5","","42","","10","","28","","24.1","","99.55","","","","","","Mainly Clear"
"1996-03-31 10:00","1996","03","31","10:00","6.4","","-5.6","","42","","8","","20","","32.2","","99.49","","","","","","Mainly Clear"
"1996-03-31 11:00","1996","03","31","11:00","7.6","","-4.7","","41","","9","","20","","32.2","","99.49","","","","","","Mainly Clear"
"1996-03-31 12:00","1996","03","31","12:00","8.0","","-5.4","","38","","10","","20","","32.2","","99.39","","","","","","Mainly Clear"
"1996-03-31 13:00","1996","03","31","13:00","8.6","","-5.3","","37","","10","","28","","32.2","","99.35","","","","","","Mainly Clear"
"1996-03-31 14:00","1996","03","31","14:00","8.5","","-7.8","","31","","9","","30","","32.2","","99.26","","","","","","Mostly Cloudy"
"1996-03-31 15:00","1996","03","31","15:00","8.7","","-7.8","","30","","10","","19","","32.2","","99.19","","","","","","Mostly Cloudy"
"1996-03-31 16:00","1996","03","31","16:00","8.8","","-7.6","","31","","5","","11","","32.2","","99.22","","","","","","Mostly Cloudy"
"1996-03-31 17:00","1996","03","31","17:00","8.4","","-7.8","","31","","4","","15","","32.2","","99.19","","","","","","Cloudy"
"1996-03-31 18:00","1996","03","31","18:00","7.6","","-7.9","","32","","5","","15","","24.1","","99.19","","","","","","Cloudy"
"1996-03-31 19:00","1996","03","31","19:00","7.6","","-7.9","","32","","4","","7","","25.0","","99.22","","","","","","Cloudy"
"1996-03-31 20:00","1996","03","31","20:00","7.0","","-8.0","","33","","3","","6","","25.0","","99.22","","","","","","Mostly Cloudy"
"1996-03-31 21:00","1996","03","31","21:00","4.8","","-3.1","","57","","35","","22","","25.0","","99.32","","","","","","Mostly Cloudy"
"1996-03-31 22:00","1996","03","31","22:00","3.5","","-3.2","","61","","34","","15","","25.0","","99.35","","","","","","Mostly Cloudy"
"1996-03-31 23:00","1996","03","31","23:00","3.5","","-1.4","","70","","35","","19","","25.0","","99.35","","","","","","Cloudy"
