"Station Name","TORONTO LESTER B. PEARSON INT'L A"
"Province","ONTARIO"
"Latitude","43.68"
"Longitude","-79.63"
"Elevation","173.40"
"Climate Identifier","6158733"
"WMO Identifier","71624"
"TC Identifier","YYZ"
"All times are specified in Local Standard Time (LST). Add 1 hour to adjust for Daylight Saving Time where and when it is observed."

"Legend"
"E","Estimated"
"M","Missing"
"NA","Not Available"

"Date/Time","Year","Month","Day","Time","Temp (°C)","Temp Flag","Dew Point Temp (°C)","Dew Point Temp Flag","Rel Hum (%)","Rel Hum Flag","Wind Dir (10s deg)","Wind Dir Flag","Wind Spd (km/h)","Wind Spd Flag","Visibility (km)","Visibility Flag","Stn Press (kPa)","Stn Press Flag","Hmdx","Hmdx Flag","Wind Chill","Wind Chill Flag","Weather"
"1955-05-01 00:00","1955","05","01","00:00","11.1","","3.3","","59","","32","","8","","25.0","","100.03","","","","","","Mainly Clear"
"1955-05-01 01:00","1955","05","01","01:00","10.0","","3.3","","63","","29","","13","","25.0","","100.02","","","","","","Clear"
"1955-05-01 02:00","1955","05","01","02:00","9.4","","2.2","","61","","29","","8","","25.0","","100.01","","","","","","Clear"
"1955-05-01 03:00","1955","05","01","03:00","8.9","","2.2","","63","","","","0","","25.0","","100.04","","","","","","Mainly Clear"
"1955-05-01 04:00","1955","05","01","04:00","8.3","","2.8","","68","","32","","6","","25.0","","100.05","","","","","","Mainly Clear"
"1955-05-01 05:00","1955","05","01","05:00","7.8","","2.2","","68","","27","","2","","25.0","","100.08","","","","","","Mainly Clear"
"1955-05-01 06:00","1955","05","01","06:00","8.9","","2.8","","66","","14","","5","","25.0","","100.11","","","","","","Mainly Clear"
"1955-05-01 07:00","1955","05","01","07:00","11.1","","2.8","","56","","","","0","","25.0","","100.17","","","","","","Mainly Clear"
"1955-05-01 08:00","1955","05","01","08:00","13.9","","4.4","","53","","","","0","","25.0","","100.17","","","","","","Mainly Clear"
"1955-05-01 09:00","1955","05","01","09:00","16.7","","5.0","","46","","","","0","","25.0","","100.17","","","","","","Mainly Clear"
"1955-05-01 10:00","1955","05","01","10:00","17.8","","6.7","","48","","","","0","","25.0","","100.15","","","","","","Mainly Clear"
"1955-05-01 11:00","1955","05","01","11:00","19.4","","7.8","","47","","","","0","","25.0","","100.13","","","","","","Mainly Clear"
"1955-05-01 12:00","1955","05","01","12:00","20.0","","6.7","","42","","18","","6","","25.0","","100.08","","","","","","Mainly Clear"
"1955-05-01 13:00","1955","05","01","13:00","20.6","","7.2","","42","","18","","10","","25.0","","100.05","","","","","","Mainly Clear"
"1955-05-01 14:00","1955","05","01","14:00","22.2","","6.7","","37","","16","","10","","25.0","","100.04","","","","","","Mostly Cloudy"
"1955-05-01 15:00","1955","05","01","15:00","21.7","","7.2","","39","","16","","11","","24.1","","99.95","","","","","","Mostly Cloudy"
"1955-05-01 16:00","1955","05","01","16:00","21.7","","10.0","","48","","16","","10","","24.1","","99.92","","","","","","Mostly Cloudy"
"1955-05-01 17:00","1955","05","01","17:00","20.6","","3.3","","32","","16","","11","","24.1","","99.92","","","","","","Mostly Cloudy"
"1955-05-01 18:00","1955","05","01","18:00","18.9","","6.7","","45","","16","","2","","24.1","","99.93","","","","","","Mostly Cloudy"
"1955-05-01 19:00","1955","05","01","19:00","18.3","","5.0","","41","","9","","3","","16.1","","99.97","","","","","","Mostly Cloudy"
"1955-05-01 20:00","1955","05","01","20:00","16.7","","5.6","","48","","11","","3","","16.1","","99.99","","","","","","Mostly Cloudy"
"1955-05-01 21:00","1955","05","01","21:00","16.1","","6.1","","51","","11","","3","","16.1","","100.00","","","","","","Mostly Cloudy"
"1955-05-01 22:00","1955","05","01","22:00","15.6","","10.0","","70","","18","","3","","16.1","","99.99","","","","","","Mostly Cloudy"
"1955-05-01 23:00","1955","05","01","23:00","13.3","","7.8","","69","","","","0","","16.1","","100.00","","","","","","Mostly Cloudy"
"1955-05-02 00:00","1955","05","02","00:00","13.3","","8.3","","72","","","","0","","16.1","","100.02","","","","","","Cloudy"
"1955-05-02 01:00","1955","05","02","01:00","13.3","","8.9","","74","","","","0","","16.1","","99.98","","","","","","Cloudy"
"1955-05-02 02:00","1955","05","02","02:00","12.2","","8.9","","80","","","","0","","16.1","","99.97","","","","","","Cloudy"
"1955-05-02 03:00","1955","05","02","03:00","13.9","","5.6","","57","","14","","3","","16.1","","99.95","","","","","","Cloudy"
"1955-05-02 04:00","1955","05","02","04:00","12.2","","8.9","","80","","","","0","","16.1","","100.03","","","","","","Cloudy"
"1955-05-02 05:00","1955","05","02","05:00","12.2","","7.2","","71","","","","0","","4.8","","100.05","","","","","","Haze"
"1955-05-02 06:00","1955","05","02","06:00","11.7","","7.2","","74","","9","","5","","4.0","","100.05","","","","","","Smoke,Haze"
"1955-05-02 07:00","1955","05","02","07:00","12.2","","8.3","","77","","","","0","","2.4","","100.14","","","","","","Smoke,Haze"
"1955-05-02 08:00","1955","05","02","08:00","16.1","","10.0","","67","","","","0","","2.4","","100.16","","","","","","Smoke,Haze"
"1955-05-02 09:00","1955","05","02","09:00","17.2","","11.1","","67","","14","","6","","2.4","","100.18","","","","","","Smoke,Haze"
"1955-05-02 10:00","1955","05","02","10:00","16.7","","10.0","","65","","18","","3","","2.4","","100.22","","","","","","Smoke,Haze"
"1955-05-02 11:00","1955","05","02","11:00","17.8","","11.7","","68","","14","","6","","3.2","","100.17","","","","","","Smoke,Haze"
"1955-05-02 12:00","1955","05","02","12:00","19.4","","11.1","","59","","18","","10","","4.0","","100.09","","","","","","Smoke,Haze"
"1955-05-02 13:00","1955","05","02","13:00","20.0","","10.6","","55","","18","","11","","6.4","","100.05","","","","","","Haze"
"1955-05-02 14:00","1955","05","02","14:00","19.4","","10.0","","54","","14","","13","","4.0","","100.01","","","","","","Smoke,Haze"
"1955-05-02 15:00","1955","05","02","15:00","17.8","","8.3","","54","","14","","8","","4.0","","99.99","","","","","","Smoke,Haze"
"1955-05-02 16:00","1955","05","02","16:00","17.8","","8.9","","56","","14","","10","","4.8","","99.88","","","","","","Smoke,Haze"
"1955-05-02 17:00","1955","05","02","17:00","17.2","","8.3","","56","","16","","11","","6.4","","99.86","","","","","","Smoke,Haze"
"1955-05-02 18:00","1955","05","02","18:00","15.0","","7.2","","60","","14","","6","","4.8","","99.82","","","","","","Smoke,Haze"
"1955-05-02 19:00","1955","05","02","19:00","14.4","","6.7","","60","","14","","14","","6.4","","99.78","","","","","","Smoke,Haze"
"1955-05-02 20:00","1955","05","02","20:00","12.2","","6.1","","66","","16","","5","","19.3","","99.75","","","","","","Mostly Cloudy"
"1955-05-02 21:00","1955","05","02","21:00","11.1","","8.3","","83","","7","","13","","19.3","","99.75","","","","","","Thunderstorms,Rain Showers"
"1955-05-02 22:00","1955","05","02","22:00","11.1","","8.3","","83","","16","","3","","16.1","","99.74","","","","","","Thunderstorms,Rain Showers"
"1955-05-02 23:00","1955","05","02","23:00","11.7","","10.6","","93","","11","","6","","4.8","","99.80","","","","","","Rain Showers"
"1955-05-03 00:00","1955","05","03","00:00","12.2","","10.6","","90","","14","","2","","4.8","","99.83","","","","","","Rain Showers"
"1955-05-03 01:00","1955","05","03","01:00","11.1","","10.0","","93","","23","","2","","4.8","","99.78","","","","","","Fog"
"1955-05-03 02:00","1955","05","03","02:00","10.6","","9.4","","93","","18","","3","","3.2","","99.72","","","","","","Fog"
"1955-05-03 03:00","1955","05","03","03:00","10.6","","8.9","","89","","","","0","","6.4","","99.64","","","","","","Fog"
"1955-05-03 04:00","1955","05","03","04:00","10.6","","10.0","","96","","5","","3","","4.8","","99.63","","","","","","Fog"
"1955-05-03 05:00","1955","05","03","05:00","10.0","","9.4","","96","","5","","3","","4.8","","99.63","","","","","","Fog"
"1955-05-03 06:00","1955","05","03","06:00","10.6","","10.0","","96","","","","0","","4.8","","99.67","","","","","","Fog"
"1955-05-03 07:00","1955","05","03","07:00","12.2","","10.6","","90","","","","0","","4.8","","99.68","","","","","","Fog"
"1955-05-03 08:00","1955","05","03","08:00","15.0","","11.1","","78","","","","0","","4.8","","99.65","","","","","","Fog"
"1955-05-03 09:00","1955","05","03","09:00","17.8","","11.7","","68","","","","0","","4.8","","99.66","","","","","","Haze"
"1955-05-03 10:00","1955","05","03","10:00","20.0","","14.4","","70","","14","","3","","4.8","","99.65","","","","","","Haze"
"1955-05-03 11:00","1955","05","03","11:00","20.6","","13.9","","66","","18","","3","","4.8","","99.60","","","","","","Haze"
"1955-05-03 12:00","1955","05","03","12:00","22.2","","16.1","","68","","18","","8","","4.8","","99.57","","27","","","","Haze"
"1955-05-03 13:00","1955","05","03","13:00","23.3","","15.0","","60","","14","","3","","4.8","","99.56","","27","","","","Haze"
"1955-05-03 14:00","1955","05","03","14:00","23.9","","14.4","","56","","14","","16","","6.4","","99.55","","28","","","","Haze"
"1955-05-03 15:00","1955","05","03","15:00","23.9","","15.6","","60","","14","","13","","8.0","","99.44","","28","","","","Haze"
"1955-05-03 16:00","1955","05","03","16:00","21.7","","14.4","","64","","14","","16","","8.0","","99.42","","25","","","","Haze"
"1955-05-03 17:00","1955","05","03","17:00","20.0","","12.8","","63","","16","","13","","4.8","","99.43","","","","","","Haze"
"1955-05-03 18:00","1955","05","03","18:00","18.9","","12.8","","68","","18","","6","","6.4","","99.41","","","","","","Haze"
"1955-05-03 19:00","1955","05","03","19:00","17.2","","12.2","","72","","18","","6","","6.4","","99.42","","","","","","Haze"
"1955-05-03 20:00","1955","05","03","20:00","16.7","","11.7","","72","","","","0","","4.8","","99.44","","","","","","Haze"
"1955-05-03 21:00","1955","05","03","21:00","15.6","","11.7","","78","","","","0","","4.8","","99.45","","","","","","Haze"
"1955-05-03 22:00","1955","05","03","22:00","15.0","","11.7","","81","","","","0","","6.4","","99.43","","","","","","Haze"
"1955-05-03 23:00","1955","05","03","23:00","14.4","","11.1","","81","","","","0","","6.4","","99.40","","","","","","Haze"
"1955-05-04 00:00","1955","05","04","00:00","13.9","","11.7","","87","","","","0","","6.4","","99.40","","","","","","Haze"
"1955-05-04 01:00","1955","05","04","01:00","13.3","","11.7","","90","","","","0","","4.8","","99.42","","","","","","Haze"
"1955-05-04 02:00","1955","05","04","02:00","13.9","","11.7","","87","","","","0","","4.8","","99.40","","","","","","Haze"
"1955-05-04 03:00","1955","05","04","03:00","12.8","","11.1","","90","","","","0","","6.4","","99.35","","","","","","Haze"
"1955-05-04 04:00","1955","05","04","04:00","12.8","","11.7","","93","","","","0","","4.8","","99.32","","","","","","Fog,Haze"
"1955-05-04 05:00","1955","05","04","05:00","13.3","","11.7","","90","","","","0","","3.2","","99.30","","","","","","Fog"
"1955-05-04 06:00","1955","05","04","06:00","13.9","","11.1","","83","","23","","5","","3.2","","99.27","","","","","","Fog,Haze"
"1955-05-04 07:00","1955","05","04","07:00","17.2","","13.9","","81","","","","0","","3.2","","99.27","","","","","","Haze"
"1955-05-04 08:00","1955","05","04","08:00","22.8","","17.2","","71","","23","","3","","6.4","","99.22","","28","","","","Haze"
"1955-05-04 09:00","1955","05","04","09:00","25.0","","15.0","","54","","23","","6","","6.4","","99.15","","29","","","","Haze"
"1955-05-04 10:00","1955","05","04","10:00","26.7","","16.7","","54","","25","","13","","8.0","","99.15","","32","","","","Haze"
"1955-05-04 11:00","1955","05","04","11:00","28.3","","16.7","","49","","27","","13","","8.0","","99.14","","33","","","","Haze"
"1955-05-04 12:00","1955","05","04","12:00","29.4","","17.2","","48","","25","","16","","8.0","","99.09","","35","","","","Haze"
"1955-05-04 13:00","1955","05","04","13:00","30.0","","16.1","","43","","25","","19","","8.0","","99.04","","35","","","","Haze"
"1955-05-04 14:00","1955","05","04","14:00","30.0","","16.1","","43","","25","","26","","8.0","","99.04","","35","","","","Haze"
"1955-05-04 15:00","1955","05","04","15:00","29.4","","11.7","","34","","25","","19","","12.9","","98.90","","32","","","","Mostly Cloudy"
"1955-05-04 16:00","1955","05","04","16:00","28.9","","15.0","","43","","25","","16","","12.9","","98.86","","33","","","","Mostly Cloudy"
"1955-05-04 17:00","1955","05","04","17:00","26.7","","17.8","","58","","27","","18","","8.0","","98.87","","33","","","","Haze"
"1955-05-04 18:00","1955","05","04","18:00","25.6","","17.2","","60","","25","","6","","8.0","","98.81","","31","","","","Haze"
"1955-05-04 19:00","1955","05","04","19:00","25.0","","16.7","","60","","23","","11","","8.0","","98.85","","30","","","","Haze"
"1955-05-04 20:00","1955","05","04","20:00","19.4","","15.6","","78","","27","","32","","6.4","","98.99","","","","","","Thunderstorms,Moderate Rain Showers,Haze"
"1955-05-04 21:00","1955","05","04","21:00","17.8","","16.1","","90","","2","","11","","8.0","","98.84","","","","","","Thunderstorms,Rain Showers"
"1955-05-04 22:00","1955","05","04","22:00","17.2","","16.1","","93","","27","","3","","24.1","","98.86","","","","","","Mostly Cloudy"
"1955-05-04 23:00","1955","05","04","23:00","16.7","","15.0","","90","","23","","8","","25.0","","98.81","","","","","","Mostly Cloudy"
"1955-05-05 00:00","1955","05","05","00:00","16.7","","13.9","","84","","25","","18","","25.0","","98.77","","","","","","Mostly Cloudy"
"1955-05-05 01:00","1955","05","05","01:00","17.2","","13.9","","84","","25","","18","","25.0","","98.74","","","","","","Mostly Cloudy"
"1955-05-05 02:00","1955","05","05","02:00","16.7","","14.4","","87","","27","","16","","25.0","","98.72","","","","","","Mainly Clear"
"1955-05-05 03:00","1955","05","05","03:00","15.0","","13.3","","90","","25","","8","","25.0","","98.73","","","","","","Clear"
"1955-05-05 04:00","1955","05","05","04:00","14.4","","12.2","","87","","25","","6","","25.0","","98.73","","","","","","Clear"
"1955-05-05 05:00","1955","05","05","05:00","13.9","","11.1","","83","","27","","5","","25.0","","98.74","","","","","","Clear"
"1955-05-05 06:00","1955","05","05","06:00","14.4","","11.7","","84","","25","","5","","25.0","","98.76","","","","","","Clear"
"1955-05-05 07:00","1955","05","05","07:00","16.1","","11.7","","75","","27","","6","","25.0","","98.79","","","","","","Clear"
"1955-05-05 08:00","1955","05","05","08:00","18.3","","9.4","","56","","29","","16","","25.0","","98.80","","","","","","Clear"
"1955-05-05 09:00","1955","05","05","09:00","19.4","","6.7","","43","","27","","26","","25.0","","98.78","","","","","","Clear"
"1955-05-05 10:00","1955","05","05","10:00","20.0","","6.1","","40","","27","","24","","25.0","","98.72","","","","","","Clear"
"1955-05-05 11:00","1955","05","05","11:00","20.6","","6.1","","39","","25","","35","","25.0","","98.66","","","","","","Mainly Clear"
"1955-05-05 12:00","1955","05","05","12:00","20.6","","6.1","","39","","25","","35","","25.0","","98.63","","","","","","Mainly Clear"
"1955-05-05 13:00","1955","05","05","13:00","21.1","","7.2","","41","","27","","39","","25.0","","98.60","","","","","","Mainly Clear"
"1955-05-05 14:00","1955","05","05","14:00","19.4","","6.1","","42","","25","","40","","25.0","","98.52","","","","","","Mostly Cloudy"
"1955-05-05 15:00","1955","05","05","15:00","19.4","","5.6","","40","","29","","39","","16.1","","98.58","","","","","","Mainly Clear"
"1955-05-05 16:00","1955","05","05","16:00","18.3","","5.0","","41","","29","","24","","8.0","","98.60","","","","","","Dust"
"1955-05-05 17:00","1955","05","05","17:00","17.2","","6.1","","48","","29","","26","","8.0","","98.63","","","","","","Dust"
"1955-05-05 18:00","1955","05","05","18:00","15.6","","6.1","","53","","32","","19","","9.7","","98.67","","","","","","Dust"
"1955-05-05 19:00","1955","05","05","19:00","14.4","","5.0","","53","","32","","26","","11.3","","98.76","","","","","","Mostly Cloudy"
"1955-05-05 20:00","1955","05","05","20:00","13.3","","3.9","","53","","32","","21","","12.9","","98.88","","","","","","Mostly Cloudy"
"1955-05-05 21:00","1955","05","05","21:00","12.2","","5.0","","61","","27","","16","","12.9","","98.95","","","","","","Mostly Cloudy"
"1955-05-05 22:00","1955","05","05","22:00","11.1","","5.0","","66","","27","","13","","25.0","","98.98","","","","","","Cloudy"
"1955-05-05 23:00","1955","05","05","23:00","9.4","","3.3","","66","","32","","16","","25.0","","98.99","","","","","","Mostly Cloudy"
"1955-05-06 00:00","1955","05","06","00:00","8.9","","4.4","","74","","29","","8","","25.0","","98.99","","","","","","Mainly Clear"
"1955-05-06 01:00","1955","05","06","01:00","8.9","","3.9","","71","","29","","21","","25.0","","99.02","","","","","","Mainly Clear"
"1955-05-06 02:00","1955","05","06","02:00","7.2","","2.8","","73","","27","","8","","25.0","","99.03","","","","","","Mostly Cloudy"
"1955-05-06 03:00","1955","05","06","03:00","7.2","","2.2","","70","","27","","13","","25.0","","99.03","","","","","","Mainly Clear"
"1955-05-06 04:00","1955","05","06","04:00","6.1","","1.1","","70","","27","","18","","25.0","","99.03","","","","","","Mainly Clear"
"1955-05-06 05:00","1955","05","06","05:00","5.6","","1.1","","73","","27","","19","","25.0","","99.05","","","","","","Mainly Clear"
"1955-05-06 06:00","1955","05","06","06:00","6.7","","1.7","","70","","29","","19","","25.0","","99.11","","","","","","Mainly Clear"
"1955-05-06 07:00","1955","05","06","07:00","8.3","","1.7","","63","","29","","26","","25.0","","99.16","","","","","","Mainly Clear"
"1955-05-06 08:00","1955","05","06","08:00","8.3","","2.2","","65","","32","","29","","25.0","","99.25","","","","","","Mostly Cloudy"
"1955-05-06 09:00","1955","05","06","09:00","9.4","","1.7","","58","","29","","26","","25.0","","99.28","","","","","","Mostly Cloudy"
"1955-05-06 10:00","1955","05","06","10:00","11.1","","1.1","","50","","32","","26","","25.0","","99.28","","","","","","Mostly Cloudy"
"1955-05-06 11:00","1955","05","06","11:00","12.2","","1.1","","47","","34","","26","","25.0","","99.31","","","","","","Mostly Cloudy"
"1955-05-06 12:00","1955","05","06","12:00","12.8","","1.7","","47","","32","","23","","25.0","","99.30","","","","","","Mostly Cloudy"
"1955-05-06 13:00","1955","05","06","13:00","14.4","","1.7","","42","","32","","29","","25.0","","99.29","","","","","","Mostly Cloudy"
"1955-05-06 14:00","1955","05","06","14:00","14.4","","2.2","","44","","27","","29","","25.0","","99.29","","","","","","Mainly Clear"
"1955-05-06 15:00","1955","05","06","15:00","15.0","","1.7","","40","","29","","32","","25.0","","99.26","","","","","","Mainly Clear"
"1955-05-06 16:00","1955","05","06","16:00","15.0","","0.0","","36","","29","","32","","25.0","","99.26","","","","","","Mainly Clear"
"1955-05-06 17:00","1955","05","06","17:00","13.9","","2.8","","47","","34","","16","","25.0","","99.30","","","","","","Mainly Clear"
"1955-05-06 18:00","1955","05","06","18:00","13.3","","0.0","","40","","32","","19","","25.0","","99.34","","","","","","Mainly Clear"
"1955-05-06 19:00","1955","05","06","19:00","12.2","","1.1","","47","","29","","16","","25.0","","99.36","","","","","","Mainly Clear"
"1955-05-06 20:00","1955","05","06","20:00","8.3","","1.7","","63","","27","","10","","25.0","","99.42","","","","","","Mainly Clear"
"1955-05-06 21:00","1955","05","06","21:00","8.3","","0.6","","58","","23","","3","","25.0","","99.45","","","","","","Mainly Clear"
"1955-05-06 22:00","1955","05","06","22:00","7.8","","1.7","","65","","23","","3","","25.0","","99.38","","","","","","Clear"
"1955-05-06 23:00","1955","05","06","23:00","6.1","","1.1","","70","","25","","3","","25.0","","99.36","","","","","","Clear"
"1955-05-07 00:00","1955","05","07","00:00","5.0","","1.7","","79","","23","","2","","25.0","","99.35","","","","","","Mainly Clear"
"1955-05-07 01:00","1955","05","07","01:00","3.3","","0.6","","82","","","","0","","25.0","","99.33","","","","","","Mainly Clear"
"1955-05-07 02:00","1955","05","07","02:00","3.3","","1.1","","85","","","","0","","25.0","","99.32","","","","","","Mostly Cloudy"
"1955-05-07 03:00","1955","05","07","03:00","2.2","","1.1","","92","","","","0","","25.0","","99.25","","","","","","Mostly Cloudy"
"1955-05-07 04:00","1955","05","07","04:00","3.3","","2.2","","92","","11","","3","","24.1","","99.20","","","","","","Mostly Cloudy"
"1955-05-07 05:00","1955","05","07","05:00","5.6","","4.4","","93","","18","","10","","6.4","","99.12","","","","","","Fog"
"1955-05-07 06:00","1955","05","07","06:00","6.1","","4.4","","89","","11","","6","","12.9","","99.12","","","","","","Mostly Cloudy"
"1955-05-07 07:00","1955","05","07","07:00","7.2","","5.6","","89","","16","","23","","12.9","","98.97","","","","","","Mostly Cloudy"
"1955-05-07 08:00","1955","05","07","08:00","10.6","","5.0","","68","","16","","16","","16.1","","98.89","","","","","","Mostly Cloudy"
"1955-05-07 09:00","1955","05","07","09:00","11.1","","4.4","","64","","16","","16","","16.1","","98.74","","","","","","Mostly Cloudy"
"1955-05-07 10:00","1955","05","07","10:00","12.2","","5.0","","61","","14","","16","","12.9","","98.70","","","","","","Mostly Cloudy"
"1955-05-07 11:00","1955","05","07","11:00","12.8","","5.6","","61","","14","","13","","12.9","","98.61","","","","","","Rain Showers"
"1955-05-07 12:00","1955","05","07","12:00","13.3","","5.6","","59","","14","","10","","6.4","","98.57","","","","","","Rain Showers,Haze"
"1955-05-07 13:00","1955","05","07","13:00","13.9","","7.2","","64","","","","0","","12.9","","98.50","","","","","","Cloudy"
"1955-05-07 14:00","1955","05","07","14:00","15.6","","10.0","","70","","14","","6","","9.7","","98.46","","","","","","Haze"
"1955-05-07 15:00","1955","05","07","15:00","19.4","","11.1","","59","","14","","11","","4.8","","98.34","","","","","","Haze"
"1955-05-07 16:00","1955","05","07","16:00","18.9","","11.7","","63","","18","","6","","8.0","","98.35","","","","","","Haze"
"1955-05-07 17:00","1955","05","07","17:00","20.0","","10.6","","55","","25","","23","","16.1","","98.35","","","","","","Cloudy"
"1955-05-07 18:00","1955","05","07","18:00","16.1","","5.6","","50","","32","","51","","25.0","","98.41","","","","","","Cloudy"
"1955-05-07 19:00","1955","05","07","19:00","13.9","","8.3","","69","","29","","32","","24.1","","98.43","","","","","","Rain Showers"
"1955-05-07 20:00","1955","05","07","20:00","11.7","","8.9","","83","","27","","23","","25.0","","98.50","","","","","","Rain Showers"
"1955-05-07 21:00","1955","05","07","21:00","11.7","","8.3","","80","","23","","16","","25.0","","98.54","","","","","","Cloudy"
"1955-05-07 22:00","1955","05","07","22:00","10.6","","8.9","","89","","20","","8","","25.0","","98.51","","","","","","Mainly Clear"
"1955-05-07 23:00","1955","05","07","23:00","8.9","","8.3","","96","","23","","11","","25.0","","98.48","","","","","","Mainly Clear"
"1955-05-08 00:00","1955","05","08","00:00","8.9","","7.8","","93","","23","","13","","25.0","","98.48","","","","","","Clear"
"1955-05-08 01:00","1955","05","08","01:00","7.8","","7.2","","96","","25","","6","","25.0","","98.47","","","","","","Clear"
"1955-05-08 02:00","1955","05","08","02:00","7.8","","6.7","","93","","25","","18","","25.0","","98.46","","","","","","Clear"
"1955-05-08 03:00","1955","05","08","03:00","7.8","","5.6","","86","","25","","16","","25.0","","98.45","","","","","","Clear"
"1955-05-08 04:00","1955","05","08","04:00","7.2","","5.0","","86","","25","","18","","25.0","","98.47","","","","","","Mainly Clear"
"1955-05-08 05:00","1955","05","08","05:00","6.7","","5.0","","89","","25","","11","","25.0","","98.52","","","","","","Mostly Cloudy"
"1955-05-08 06:00","1955","05","08","06:00","7.8","","6.1","","89","","27","","8","","25.0","","98.58","","","","","","Rain Showers"
"1955-05-08 07:00","1955","05","08","07:00","8.3","","6.1","","86","","27","","5","","25.0","","98.60","","","","","","Mostly Cloudy"
"1955-05-08 08:00","1955","05","08","08:00","10.0","","5.6","","74","","32","","16","","25.0","","98.70","","","","","","Mostly Cloudy"
"1955-05-08 09:00","1955","05","08","09:00","10.6","","5.0","","68","","29","","19","","25.0","","98.78","","","","","","Cloudy"
"1955-05-08 10:00","1955","05","08","10:00","10.0","","5.0","","71","","29","","16","","25.0","","98.90","","","","","","Cloudy"
"1955-05-08 11:00","1955","05","08","11:00","10.0","","3.3","","63","","29","","32","","25.0","","98.93","","","","","","Cloudy"
"1955-05-08 12:00","1955","05","08","12:00","10.0","","2.8","","61","","32","","35","","25.0","","99.00","","","","","","Mostly Cloudy"
"1955-05-08 13:00","1955","05","08","13:00","9.4","","2.8","","63","","29","","42","","25.0","","99.08","","","","","","Mostly Cloudy"
"1955-05-08 14:00","1955","05","08","14:00","9.4","","1.1","","56","","29","","48","","25.0","","99.12","","","","","","Mainly Clear"
"1955-05-08 15:00","1955","05","08","15:00","8.3","","1.1","","60","","29","","45","","25.0","","99.23","","","","","","Mostly Cloudy"
"1955-05-08 16:00","1955","05","08","16:00","7.8","","0.6","","60","","29","","42","","25.0","","99.32","","","","","","Mainly Clear"
"1955-05-08 17:00","1955","05","08","17:00","6.7","","-1.1","","58","","29","","37","","25.0","","99.40","","","","","","Mostly Cloudy"
"1955-05-08 18:00","1955","05","08","18:00","5.6","","-1.7","","60","","29","","40","","25.0","","99.45","","","","","","Mostly Cloudy"
"1955-05-08 19:00","1955","05","08","19:00","4.4","","0.0","","73","","29","","21","","25.0","","99.51","","","","","","Mostly Cloudy"
"1955-05-08 20:00","1955","05","08","20:00","4.4","","0.0","","73","","29","","24","","25.0","","99.60","","","","","","Cloudy"
"1955-05-08 21:00","1955","05","08","21:00","4.4","","0.6","","76","","29","","23","","25.0","","99.67","","","","","","Cloudy"
"1955-05-08 22:00","1955","05","08","22:00","4.4","","0.6","","76","","29","","19","","25.0","","99.70","","","","","","Cloudy"
"1955-05-08 23:00","1955","05","08","23:00","4.4","","0.6","","76","","29","","19","","25.0","","99.77","","","","","","Cloudy"
"1955-05-09 00:00","1955","05","09","00:00","4.4","","0.6","","76","","29","","19","","25.0","","99.78","","","","","","Cloudy"
"1955-05-09 01:00","1955","05","09","01:00","4.4","","0.6","","76","","32","","16","","25.0","","99.82","","","","","","Cloudy"
"1955-05-09 02:00","1955","05","09","02:00","4.4","","0.6","","76","","32","","24","","25.0","","99.87","","","","","","Cloudy"
"1955-05-09 03:00","1955","05","09","03:00","3.3","","-2.8","","64","","32","","24","","25.0","","99.96","","","","","","Cloudy"
"1955-05-09 04:00","1955","05","09","04:00","2.8","","-2.2","","70","","32","","19","","25.0","","99.97","","","","","","Mostly Cloudy"
"1955-05-09 05:00","1955","05","09","05:00","2.2","","-1.1","","78","","34","","16","","25.0","","100.04","","","","","","Mostly Cloudy"
"1955-05-09 06:00","1955","05","09","06:00","2.2","","-2.8","","69","","34","","13","","25.0","","100.11","","","","","","Mostly Cloudy"
"1955-05-09 07:00","1955","05","09","07:00","2.2","","-3.3","","67","","34","","24","","25.0","","100.14","","","","","","Mostly Cloudy"
"1955-05-09 08:00","1955","05","09","08:00","3.9","","-2.2","","64","","34","","21","","25.0","","100.19","","","","","","Mainly Clear"
"1955-05-09 09:00","1955","05","09","09:00","5.6","","-1.7","","60","","34","","19","","25.0","","100.23","","","","","","Mainly Clear"
"1955-05-09 10:00","1955","05","09","10:00","6.7","","-1.7","","55","","32","","18","","25.0","","100.29","","","","","","Mainly Clear"
"1955-05-09 11:00","1955","05","09","11:00","8.9","","0.6","","56","","32","","16","","25.0","","100.25","","","","","","Mainly Clear"
"1955-05-09 12:00","1955","05","09","12:00","10.6","","1.1","","52","","32","","13","","25.0","","100.19","","","","","","Mainly Clear"
"1955-05-09 13:00","1955","05","09","13:00","11.1","","0.6","","48","","32","","13","","25.0","","100.14","","","","","","Mostly Cloudy"
"1955-05-09 14:00","1955","05","09","14:00","11.1","","0.6","","48","","34","","13","","25.0","","100.11","","","","","","Mostly Cloudy"
"1955-05-09 15:00","1955","05","09","15:00","11.1","","2.2","","54","","2","","18","","25.0","","100.09","","","","","","Mostly Cloudy"
"1955-05-09 16:00","1955","05","09","16:00","11.1","","2.8","","56","","7","","8","","25.0","","100.12","","","","","","Mostly Cloudy"
"1955-05-09 17:00","1955","05","09","17:00","10.0","","1.1","","54","","7","","13","","25.0","","100.15","","","","","","Mostly Cloudy"
"1955-05-09 18:00","1955","05","09","18:00","8.9","","0.6","","56","","7","","13","","25.0","","100.16","","","","","","Mostly Cloudy"
"1955-05-09 19:00","1955","05","09","19:00","7.8","","-1.1","","53","","9","","11","","25.0","","100.22","","","","","","Mostly Cloudy"
"1955-05-09 20:00","1955","05","09","20:00","6.7","","-1.7","","55","","9","","10","","25.0","","100.20","","","","","","Mostly Cloudy"
"1955-05-09 21:00","1955","05","09","21:00","6.1","","-1.7","","57","","9","","11","","25.0","","100.22","","","","","","Mainly Clear"
"1955-05-09 22:00","1955","05","09","22:00","5.6","","-0.6","","65","","9","","8","","25.0","","100.17","","","","","","Mostly Cloudy"
"1955-05-09 23:00","1955","05","09","23:00","4.4","","0.0","","73","","9","","8","","25.0","","100.10","","","","","","Mostly Cloudy"
"1955-05-10 00:00","1955","05","10","00:00","4.4","","0.0","","73","","9","","6","","25.0","","100.12","","","","","","Mostly Cloudy"
"1955-05-10 01:00","1955","05","10","01:00","4.4","","0.6","","76","","9","","5","","25.0","","100.08","","","","","","Mostly Cloudy"
"1955-05-10 02:00","1955","05","10","02:00","4.4","","0.6","","76","","9","","5","","25.0","","100.10","","","","","","Mostly Cloudy"
"1955-05-10 03:00","1955","05","10","03:00","4.4","","1.1","","79","","","","0","","25.0","","100.08","","","","","","Cloudy"
"1955-05-10 04:00","1955","05","10","04:00","4.4","","1.1","","79","","","","0","","25.0","","100.09","","","","","","Mostly Cloudy"
"1955-05-10 05:00","1955","05","10","05:00","4.4","","1.7","","82","","","","0","","24.1","","100.04","","","","","","Mostly Cloudy"
"1955-05-10 06:00","1955","05","10","06:00","5.6","","0.6","","70","","","","0","","19.3","","100.03","","","","","","Mostly Cloudy"
"1955-05-10 07:00","1955","05","10","07:00","6.7","","1.1","","68","","","","0","","19.3","","100.02","","","","","","Cloudy"
"1955-05-10 08:00","1955","05","10","08:00","7.2","","-2.2","","51","","","","0","","16.1","","99.98","","","","","","Cloudy"
"1955-05-10 09:00","1955","05","10","09:00","8.3","","-3.3","","44","","23","","8","","12.9","","99.91","","","","","","Cloudy"
"1955-05-10 10:00","1955","05","10","10:00","8.9","","-2.8","","44","","23","","10","","11.3","","99.84","","","","","","Cloudy"
"1955-05-10 11:00","1955","05","10","11:00","8.3","","0.6","","58","","25","","14","","11.3","","99.79","","","","","","Rain Showers"
"1955-05-10 12:00","1955","05","10","12:00","7.8","","3.9","","76","","25","","10","","11.3","","99.77","","","","","","Rain Showers"
"1955-05-10 13:00","1955","05","10","13:00","8.3","","4.4","","76","","23","","10","","11.3","","99.71","","","","","","Rain Showers"
"1955-05-10 14:00","1955","05","10","14:00","8.3","","5.0","","80","","23","","8","","8.0","","99.68","","","","","","Rain Showers,Haze"
"1955-05-10 15:00","1955","05","10","15:00","7.8","","6.7","","93","","25","","8","","6.4","","99.66","","","","","","Rain Showers,Fog"
"1955-05-10 16:00","1955","05","10","16:00","8.3","","7.2","","93","","25","","5","","6.4","","99.68","","","","","","Rain Showers,Fog"
"1955-05-10 17:00","1955","05","10","17:00","8.3","","7.8","","96","","27","","10","","4.8","","99.64","","","","","","Rain Showers,Fog"
"1955-05-10 18:00","1955","05","10","18:00","8.3","","7.2","","93","","27","","6","","4.8","","99.67","","","","","","Rain Showers,Fog"
"1955-05-10 19:00","1955","05","10","19:00","7.8","","7.8","","100","","27","","6","","2.4","","99.72","","","","","","Drizzle,Fog"
"1955-05-10 20:00","1955","05","10","20:00","7.2","","6.7","","96","","27","","6","","2.4","","99.70","","","","","","Fog"
"1955-05-10 21:00","1955","05","10","21:00","7.2","","7.2","","100","","27","","5","","4.0","","99.73","","","","","","Fog"
"1955-05-10 22:00","1955","05","10","22:00","7.2","","6.7","","96","","27","","6","","4.0","","99.74","","","","","","Fog"
"1955-05-10 23:00","1955","05","10","23:00","6.7","","6.7","","100","","27","","6","","2.0","","99.79","","","","","","Fog"
"1955-05-11 00:00","1955","05","11","00:00","7.2","","6.7","","96","","","","0","","2.0","","99.82","","","","","","Fog"
"1955-05-11 01:00","1955","05","11","01:00","7.8","","7.8","","100","","5","","8","","4.0","","99.83","","","","","","Fog"
"1955-05-11 02:00","1955","05","11","02:00","8.3","","7.8","","96","","5","","8","","8.0","","99.84","","","","","","Fog"
"1955-05-11 03:00","1955","05","11","03:00","8.3","","6.7","","89","","7","","13","","16.1","","99.91","","","","","","Cloudy"
"1955-05-11 04:00","1955","05","11","04:00","7.8","","6.1","","89","","36","","16","","19.3","","99.92","","","","","","Mostly Cloudy"
"1955-05-11 05:00","1955","05","11","05:00","6.1","","4.4","","89","","34","","11","","19.3","","100.00","","","","","","Clear"
"1955-05-11 06:00","1955","05","11","06:00","6.7","","5.0","","89","","32","","8","","12.9","","100.08","","","","","","Clear"
"1955-05-11 07:00","1955","05","11","07:00","7.2","","5.0","","86","","36","","5","","12.9","","100.12","","","","","","Mostly Cloudy"
"1955-05-11 08:00","1955","05","11","08:00","9.4","","5.0","","74","","27","","3","","19.3","","100.17","","","","","","Mainly Clear"
"1955-05-11 09:00","1955","05","11","09:00","11.7","","6.1","","69","","20","","5","","19.3","","100.14","","","","","","Mainly Clear"
"1955-05-11 10:00","1955","05","11","10:00","13.3","","6.7","","64","","18","","10","","19.3","","100.14","","","","","","Clear"
"1955-05-11 11:00","1955","05","11","11:00","14.4","","5.6","","55","","18","","18","","24.1","","100.13","","","","","","Mainly Clear"
"1955-05-11 12:00","1955","05","11","12:00","16.1","","7.8","","58","","18","","19","","24.1","","100.08","","","","","","Mainly Clear"
"1955-05-11 13:00","1955","05","11","13:00","17.2","","7.2","","52","","20","","26","","24.1","","100.02","","","","","","Mainly Clear"
"1955-05-11 14:00","1955","05","11","14:00","17.2","","5.6","","46","","20","","27","","19.3","","99.98","","","","","","Mainly Clear"
"1955-05-11 15:00","1955","05","11","15:00","17.2","","6.1","","48","","18","","16","","24.1","","99.95","","","","","","Mostly Cloudy"
"1955-05-11 16:00","1955","05","11","16:00","20.0","","7.8","","45","","25","","27","","25.0","","99.93","","","","","","Mainly Clear"
"1955-05-11 17:00","1955","05","11","17:00","19.4","","6.1","","42","","27","","32","","25.0","","99.92","","","","","","Mostly Cloudy"
"1955-05-11 18:00","1955","05","11","18:00","18.3","","5.0","","41","","27","","29","","25.0","","99.93","","","","","","Mostly Cloudy"
"1955-05-11 19:00","1955","05","11","19:00","16.7","","7.2","","54","","27","","16","","25.0","","99.96","","","","","","Mostly Cloudy"
"1955-05-11 20:00","1955","05","11","20:00","14.4","","7.2","","62","","27","","8","","25.0","","100.01","","","","","","Mostly Cloudy"
"1955-05-11 21:00","1955","05","11","21:00","13.3","","7.8","","69","","25","","16","","25.0","","100.06","","","","","","Mainly Clear"
"1955-05-11 22:00","1955","05","11","22:00","13.3","","8.9","","74","","27","","8","","25.0","","100.06","","","","","","Mostly Cloudy"
"1955-05-11 23:00","1955","05","11","23:00","12.8","","8.9","","77","","25","","11","","16.1","","100.08","","","","","","Mostly Cloudy"
"1955-05-12 00:00","1955","05","12","00:00","13.3","","8.3","","72","","29","","13","","19.3","","100.09","","","","","","Mostly Cloudy"
"1955-05-12 01:00","1955","05","12","01:00","11.1","","8.9","","86","","27","","6","","19.3","","100.12","","","","","","Mostly Cloudy"
"1955-05-12 02:00","1955","05","12","02:00","10.0","","7.8","","86","","23","","10","","19.3","","100.10","","","","","","Mainly Clear"
"1955-05-12 03:00","1955","05","12","03:00","8.3","","6.7","","89","","29","","6","","19.3","","100.13","","","","","","Mainly Clear"
"1955-05-12 04:00","1955","05","12","04:00","7.2","","6.7","","96","","25","","8","","19.3","","100.12","","","","","","Mainly Clear"
"1955-05-12 05:00","1955","05","12","05:00","8.3","","6.7","","89","","25","","6","","19.3","","100.19","","","","","","Mainly Clear"
"1955-05-12 06:00","1955","05","12","06:00","10.0","","8.3","","89","","29","","3","","9.7","","100.22","","","","","","Smoke,Haze"
"1955-05-12 07:00","1955","05","12","07:00","11.1","","8.3","","83","","29","","3","","9.7","","100.24","","","","","","Smoke,Haze"
"1955-05-12 08:00","1955","05","12","08:00","14.4","","10.0","","75","","23","","6","","11.3","","100.21","","","","","","Clear"
"1955-05-12 09:00","1955","05","12","09:00","17.8","","9.4","","58","","18","","10","","11.3","","100.18","","","","","","Clear"
"1955-05-12 10:00","1955","05","12","10:00","18.9","","9.4","","54","","18","","16","","11.3","","100.13","","","","","","Clear"
"1955-05-12 11:00","1955","05","12","11:00","20.0","","11.1","","57","","16","","16","","11.3","","100.10","","","","","","Mainly Clear"
"1955-05-12 12:00","1955","05","12","12:00","20.6","","11.1","","55","","16","","21","","11.3","","100.01","","","","","","Mainly Clear"
"1955-05-12 13:00","1955","05","12","13:00","22.2","","6.7","","37","","20","","23","","11.3","","99.95","","","","","","Mainly Clear"
"1955-05-12 14:00","1955","05","12","14:00","23.3","","7.8","","37","","20","","26","","16.1","","99.87","","","","","","Mainly Clear"
"1955-05-12 15:00","1955","05","12","15:00","23.3","","7.8","","37","","23","","19","","16.1","","99.83","","","","","","Mainly Clear"
"1955-05-12 16:00","1955","05","12","16:00","22.2","","8.9","","43","","23","","24","","16.1","","99.80","","","","","","Mostly Cloudy"
"1955-05-12 17:00","1955","05","12","17:00","21.1","","10.0","","49","","23","","24","","16.1","","99.80","","","","","","Mostly Cloudy"
"1955-05-12 18:00","1955","05","12","18:00","20.0","","10.6","","55","","23","","19","","16.1","","99.77","","","","","","Cloudy"
"1955-05-12 19:00","1955","05","12","19:00","18.9","","11.7","","63","","23","","13","","16.1","","99.79","","","","","","Cloudy"
"1955-05-12 20:00","1955","05","12","20:00","17.2","","11.1","","67","","23","","10","","16.1","","99.82","","","","","","Mostly Cloudy"
"1955-05-12 21:00","1955","05","12","21:00","17.2","","12.2","","72","","23","","10","","16.1","","99.85","","","","","","Mostly Cloudy"
"1955-05-12 22:00","1955","05","12","22:00","13.9","","10.0","","77","","23","","10","","16.1","","99.86","","","","","","Clear"
"1955-05-12 23:00","1955","05","12","23:00","14.4","","10.6","","78","","25","","8","","19.3","","99.87","","","","","","Clear"
"1955-05-13 00:00","1955","05","13","00:00","12.2","","9.4","","83","","23","","8","","16.1","","99.86","","","","","","Clear"
"1955-05-13 01:00","1955","05","13","01:00","11.1","","9.4","","90","","23","","6","","16.1","","99.80","","","","","","Clear"
"1955-05-13 02:00","1955","05","13","02:00","11.1","","9.4","","90","","23","","6","","12.9","","99.79","","","","","","Mainly Clear"
"1955-05-13 03:00","1955","05","13","03:00","10.6","","8.9","","89","","25","","5","","12.9","","99.80","","","","","","Mainly Clear"
"1955-05-13 04:00","1955","05","13","04:00","10.0","","8.3","","89","","32","","3","","8.0","","99.82","","","","","","Smoke,Haze"
"1955-05-13 05:00","1955","05","13","05:00","9.4","","8.3","","93","","32","","5","","8.0","","99.81","","","","","","Smoke,Haze"
"1955-05-13 06:00","1955","05","13","06:00","10.6","","8.9","","89","","32","","5","","9.7","","99.82","","","","","","Smoke,Haze"
"1955-05-13 07:00","1955","05","13","07:00","13.9","","10.6","","80","","32","","8","","16.1","","99.86","","","","","","Mostly Cloudy"
"1955-05-13 08:00","1955","05","13","08:00","17.8","","9.4","","58","","36","","11","","24.1","","99.85","","","","","","Mostly Cloudy"
"1955-05-13 09:00","1955","05","13","09:00","18.9","","8.9","","52","","36","","8","","25.0","","99.85","","","","","","Mostly Cloudy"
"1955-05-13 10:00","1955","05","13","10:00","20.0","","10.0","","53","","2","","13","","25.0","","99.86","","","","","","Mostly Cloudy"
"1955-05-13 11:00","1955","05","13","11:00","20.6","","8.9","","47","","36","","11","","25.0","","99.84","","","","","","Mostly Cloudy"
"1955-05-13 12:00","1955","05","13","12:00","22.2","","7.8","","39","","34","","16","","25.0","","99.77","","","","","","Mostly Cloudy"
"1955-05-13 13:00","1955","05","13","13:00","23.3","","9.4","","41","","32","","10","","25.0","","99.73","","","","","","Mainly Clear"
"1955-05-13 14:00","1955","05","13","14:00","23.9","","7.8","","36","","36","","16","","25.0","","99.66","","","","","","Mostly Cloudy"
"1955-05-13 15:00","1955","05","13","15:00","23.3","","7.8","","37","","34","","16","","25.0","","99.63","","","","","","Mostly Cloudy"
"1955-05-13 16:00","1955","05","13","16:00","23.3","","5.0","","30","","36","","19","","25.0","","99.63","","","","","","Mostly Cloudy"
"1955-05-13 17:00","1955","05","13","17:00","22.8","","8.3","","40","","34","","19","","25.0","","99.62","","","","","","Mostly Cloudy"
"1955-05-13 18:00","1955","05","13","18:00","21.1","","9.4","","47","","36","","16","","25.0","","99.62","","","","","","Mostly Cloudy"
"1955-05-13 19:00","1955","05","13","19:00","19.4","","8.9","","50","","36","","18","","25.0","","99.69","","","","","","Mostly Cloudy"
"1955-05-13 20:00","1955","05","13","20:00","16.7","","5.6","","48","","34","","18","","25.0","","99.74","","","","","","Mostly Cloudy"
"1955-05-13 21:00","1955","05","13","21:00","15.0","","3.9","","47","","34","","19","","25.0","","99.77","","","","","","Mainly Clear"
"1955-05-13 22:00","1955","05","13","22:00","14.4","","6.7","","60","","34","","16","","25.0","","99.79","","","","","","Mainly Clear"
"1955-05-13 23:00","1955","05","13","23:00","12.8","","3.9","","55","","36","","23","","25.0","","99.84","","","","","","Mainly Clear"
"1955-05-14 00:00","1955","05","14","00:00","12.8","","1.1","","45","","36","","19","","25.0","","99.91","","","","","","Clear"
"1955-05-14 01:00","1955","05","14","01:00","11.1","","4.4","","64","","36","","18","","25.0","","99.96","","","","","","Clear"
"1955-05-14 02:00","1955","05","14","02:00","10.6","","4.4","","66","","36","","14","","25.0","","100.06","","","","","","Mainly Clear"
"1955-05-14 03:00","1955","05","14","03:00","10.0","","3.3","","63","","36","","11","","25.0","","100.13","","","","","","Mainly Clear"
"1955-05-14 04:00","1955","05","14","04:00","8.3","","1.7","","63","","36","","11","","25.0","","100.20","","","","","","Mostly Cloudy"
"1955-05-14 05:00","1955","05","14","05:00","7.8","","1.1","","63","","36","","13","","25.0","","100.23","","","","","","Mainly Clear"
"1955-05-14 06:00","1955","05","14","06:00","9.4","","2.2","","61","","36","","13","","25.0","","100.29","","","","","","Mainly Clear"
"1955-05-14 07:00","1955","05","14","07:00","11.1","","2.2","","54","","36","","16","","25.0","","100.31","","","","","","Mainly Clear"
"1955-05-14 08:00","1955","05","14","08:00","13.9","","1.7","","43","","7","","18","","25.0","","100.38","","","","","","Mainly Clear"
"1955-05-14 09:00","1955","05","14","09:00","15.0","","2.2","","42","","2","","24","","25.0","","100.36","","","","","","Mainly Clear"
"1955-05-14 10:00","1955","05","14","10:00","15.6","","0.6","","36","","5","","19","","25.0","","100.36","","","","","","Mainly Clear"
"1955-05-14 11:00","1955","05","14","11:00","16.1","","0.6","","35","","5","","26","","25.0","","100.32","","","","","","Clear"
"1955-05-14 12:00","1955","05","14","12:00","17.8","","2.8","","37","","5","","13","","25.0","","100.30","","","","","","Clear"
"1955-05-14 13:00","1955","05","14","13:00","17.8","","3.9","","41","","5","","18","","25.0","","100.24","","","","","","Clear"
"1955-05-14 14:00","1955","05","14","14:00","17.2","","3.3","","40","","16","","18","","25.0","","100.23","","","","","","Clear"
"1955-05-14 15:00","1955","05","14","15:00","17.2","","5.0","","44","","18","","16","","25.0","","100.20","","","","","","Clear"
"1955-05-14 16:00","1955","05","14","16:00","17.8","","3.9","","40","","18","","16","","25.0","","100.18","","","","","","Clear"
"1955-05-14 17:00","1955","05","14","17:00","17.2","","3.9","","41","","18","","13","","25.0","","100.18","","","","","","Clear"
"1955-05-14 18:00","1955","05","14","18:00","16.7","","3.3","","41","","18","","8","","25.0","","100.18","","","","","","Mainly Clear"
"1955-05-14 19:00","1955","05","14","19:00","16.1","","2.2","","39","","36","","13","","25.0","","100.18","","","","","","Clear"
"1955-05-14 20:00","1955","05","14","20:00","13.9","","3.9","","51","","36","","6","","25.0","","100.24","","","","","","Clear"
"1955-05-14 21:00","1955","05","14","21:00","11.7","","2.8","","54","","36","","16","","25.0","","100.28","","","","","","Clear"
"1955-05-14 22:00","1955","05","14","22:00","10.6","","3.3","","61","","36","","13","","25.0","","100.28","","","","","","Clear"
"1955-05-14 23:00","1955","05","14","23:00","9.4","","2.2","","61","","36","","19","","25.0","","100.26","","","","","","Clear"
"1955-05-15 00:00","1955","05","15","00:00","8.9","","1.7","","61","","36","","23","","25.0","","100.28","","","","","","Clear"
"1955-05-15 01:00","1955","05","15","01:00","7.8","","2.8","","71","","36","","19","","25.0","","100.27","","","","","","Clear"
"1955-05-15 02:00","1955","05","15","02:00","6.7","","2.8","","76","","2","","13","","22.5","","100.33","","","","","","Clear"
"1955-05-15 03:00","1955","05","15","03:00","6.7","","2.2","","73","","36","","16","","19.3","","100.31","","","","","","Clear"
"1955-05-15 04:00","1955","05","15","04:00","6.1","","2.2","","76","","32","","11","","25.0","","100.35","","","","","","Mainly Clear"
"1955-05-15 05:00","1955","05","15","05:00","6.1","","2.2","","76","","36","","13","","25.0","","100.34","","","","","","Mainly Clear"
"1955-05-15 06:00","1955","05","15","06:00","8.3","","2.8","","68","","36","","13","","25.0","","100.35","","","","","","Mainly Clear"
"1955-05-15 07:00","1955","05","15","07:00","10.0","","2.8","","56","","36","","13","","25.0","","100.39","","","","","","Mainly Clear"
"1955-05-15 08:00","1955","05","15","08:00","15.0","","6.7","","57","","34","","3","","25.0","","100.41","","","","","","Mainly Clear"
"1955-05-15 09:00","1955","05","15","09:00","16.7","","5.6","","48","","23","","6","","25.0","","100.42","","","","","","Mainly Clear"
"1955-05-15 10:00","1955","05","15","10:00","18.9","","4.4","","38","","23","","8","","25.0","","100.40","","","","","","Mainly Clear"
"1955-05-15 11:00","1955","05","15","11:00","19.4","","2.2","","32","","20","","8","","25.0","","100.40","","","","","","Mainly Clear"
"1955-05-15 12:00","1955","05","15","12:00","21.7","","5.6","","35","","16","","11","","25.0","","100.34","","","","","","Mainly Clear"
"1955-05-15 13:00","1955","05","15","13:00","21.1","","6.7","","39","","16","","19","","25.0","","100.29","","","","","","Mainly Clear"
"1955-05-15 14:00","1955","05","15","14:00","21.7","","5.6","","35","","16","","19","","25.0","","100.21","","","","","","Mainly Clear"
"1955-05-15 15:00","1955","05","15","15:00","22.2","","5.0","","33","","16","","19","","25.0","","100.12","","","","","","Mainly Clear"
"1955-05-15 16:00","1955","05","15","16:00","21.7","","6.1","","36","","16","","19","","25.0","","100.08","","","","","","Mainly Clear"
"1955-05-15 17:00","1955","05","15","17:00","20.6","","5.6","","38","","16","","19","","25.0","","100.01","","","","","","Mainly Clear"
"1955-05-15 18:00","1955","05","15","18:00","20.6","","5.6","","38","","16","","16","","25.0","","99.98","","","","","","Mainly Clear"
"1955-05-15 19:00","1955","05","15","19:00","17.8","","3.9","","40","","16","","13","","24.1","","99.96","","","","","","Mainly Clear"
"1955-05-15 20:00","1955","05","15","20:00","16.7","","3.9","","43","","16","","8","","24.1","","99.93","","","","","","Mainly Clear"
"1955-05-15 21:00","1955","05","15","21:00","16.1","","6.7","","53","","18","","8","","24.1","","99.91","","","","","","Clear"
"1955-05-15 22:00","1955","05","15","22:00","15.0","","8.3","","64","","18","","8","","24.1","","99.88","","","","","","Clear"
"1955-05-15 23:00","1955","05","15","23:00","14.4","","8.3","","67","","25","","8","","25.0","","99.84","","","","","","Clear"
"1955-05-16 00:00","1955","05","16","00:00","13.9","","8.3","","69","","25","","8","","25.0","","99.83","","","","","","Clear"
"1955-05-16 01:00","1955","05","16","01:00","13.9","","7.2","","64","","23","","10","","25.0","","99.79","","","","","","Clear"
"1955-05-16 02:00","1955","05","16","02:00","13.9","","6.1","","59","","25","","8","","25.0","","99.76","","","","","","Clear"
"1955-05-16 03:00","1955","05","16","03:00","13.9","","6.7","","62","","23","","13","","25.0","","99.70","","","","","","Mainly Clear"
"1955-05-16 04:00","1955","05","16","04:00","12.8","","6.7","","66","","25","","11","","25.0","","99.64","","","","","","Mainly Clear"
"1955-05-16 05:00","1955","05","16","05:00","13.3","","6.7","","64","","25","","11","","24.1","","99.64","","","","","","Mostly Cloudy"
"1955-05-16 06:00","1955","05","16","06:00","15.6","","7.2","","58","","27","","19","","24.1","","99.60","","","","","","Mostly Cloudy"
"1955-05-16 07:00","1955","05","16","07:00","17.2","","7.8","","54","","29","","13","","24.1","","99.64","","","","","","Mainly Clear"
"1955-05-16 08:00","1955","05","16","08:00","20.6","","9.4","","49","","27","","10","","24.1","","99.58","","","","","","Mostly Cloudy"
"1955-05-16 09:00","1955","05","16","09:00","21.7","","8.3","","42","","29","","21","","24.1","","99.54","","","","","","Mostly Cloudy"
"1955-05-16 10:00","1955","05","16","10:00","23.3","","9.4","","41","","29","","32","","24.1","","99.49","","","","","","Mostly Cloudy"
"1955-05-16 11:00","1955","05","16","11:00","16.7","","10.0","","65","","36","","37","","24.1","","99.59","","","","","","Mostly Cloudy"
"1955-05-16 12:00","1955","05","16","12:00","15.0","","8.3","","64","","34","","43","","24.1","","99.64","","","","","","Mostly Cloudy"
"1955-05-16 13:00","1955","05","16","13:00","15.0","","7.8","","62","","34","","40","","24.1","","99.63","","","","","","Mostly Cloudy"
"1955-05-16 14:00","1955","05","16","14:00","13.3","","6.7","","64","","34","","32","","24.1","","99.62","","","","","","Cloudy"
"1955-05-16 15:00","1955","05","16","15:00","13.3","","0.0","","40","","36","","35","","25.0","","99.66","","","","","","Cloudy"
"1955-05-16 16:00","1955","05","16","16:00","10.6","","4.4","","66","","36","","32","","25.0","","99.72","","","","","","Mostly Cloudy"
"1955-05-16 17:00","1955","05","16","17:00","8.9","","4.4","","74","","36","","35","","25.0","","99.78","","","","","","Mostly Cloudy"
"1955-05-16 18:00","1955","05","16","18:00","8.3","","2.8","","68","","36","","29","","25.0","","99.84","","","","","","Mostly Cloudy"
"1955-05-16 19:00","1955","05","16","19:00","8.3","","2.8","","68","","36","","16","","32.2","","99.89","","","","","","Mainly Clear"
"1955-05-16 20:00","1955","05","16","20:00","6.7","","2.2","","73","","36","","16","","25.0","","99.97","","","","","","Clear"
"1955-05-16 21:00","1955","05","16","21:00","6.1","","1.7","","73","","36","","16","","25.0","","100.04","","","","","","Clear"
"1955-05-16 22:00","1955","05","16","22:00","5.0","","1.1","","76","","36","","19","","25.0","","100.07","","","","","","Clear"
"1955-05-16 23:00","1955","05","16","23:00","3.9","","1.1","","82","","36","","14","","25.0","","100.10","","","","","","Clear"
"1955-05-17 00:00","1955","05","17","00:00","2.8","","0.6","","85","","36","","11","","25.0","","100.09","","","","","","Clear"
"1955-05-17 01:00","1955","05","17","01:00","2.2","","0.0","","85","","34","","13","","25.0","","100.07","","","","","","Clear"
"1955-05-17 02:00","1955","05","17","02:00","2.2","","0.6","","89","","34","","13","","25.0","","100.05","","","","","","Clear"
"1955-05-17 03:00","1955","05","17","03:00","1.7","","0.0","","89","","32","","10","","25.0","","100.05","","","","","","Clear"
"1955-05-17 04:00","1955","05","17","04:00","1.7","","-0.6","","85","","32","","10","","25.0","","100.07","","","","","","Mostly Cloudy"
"1955-05-17 05:00","1955","05","17","05:00","1.1","","-1.7","","82","","34","","8","","25.0","","100.10","","","","","","Cloudy"
"1955-05-17 06:00","1955","05","17","06:00","4.4","","0.0","","73","","34","","10","","25.0","","100.14","","","","","","Mostly Cloudy"
"1955-05-17 07:00","1955","05","17","07:00","6.1","","0.6","","68","","34","","6","","25.0","","100.15","","","","","","Mostly Cloudy"
"1955-05-17 08:00","1955","05","17","08:00","8.3","","1.1","","60","","29","","10","","25.0","","100.18","","","","","","Mostly Cloudy"
"1955-05-17 09:00","1955","05","17","09:00","10.6","","0.6","","50","","32","","13","","25.0","","100.15","","","","","","Mostly Cloudy"
"1955-05-17 10:00","1955","05","17","10:00","12.2","","1.1","","47","","32","","26","","25.0","","100.10","","","","","","Mostly Cloudy"
"1955-05-17 11:00","1955","05","17","11:00","13.3","","1.1","","43","","32","","23","","25.0","","100.05","","","","","","Mostly Cloudy"
"1955-05-17 12:00","1955","05","17","12:00","14.4","","2.2","","44","","32","","26","","25.0","","99.94","","","","","","Mostly Cloudy"
"1955-05-17 13:00","1955","05","17","13:00","15.6","","2.2","","41","","34","","19","","25.0","","99.86","","","","","","Mainly Clear"
"1955-05-17 14:00","1955","05","17","14:00","16.7","","2.2","","38","","32","","24","","25.0","","99.78","","","","","","Mainly Clear"
"1955-05-17 15:00","1955","05","17","15:00","16.1","","2.8","","41","","34","","23","","25.0","","99.67","","","","","","Mainly Clear"
"1955-05-17 16:00","1955","05","17","16:00","16.1","","2.2","","39","","29","","26","","25.0","","99.61","","","","","","Mainly Clear"
"1955-05-17 17:00","1955","05","17","17:00","15.6","","1.7","","39","","32","","27","","25.0","","99.61","","","","","","Mainly Clear"
"1955-05-17 18:00","1955","05","17","18:00","15.0","","1.7","","40","","29","","27","","25.0","","99.61","","","","","","Mainly Clear"
"1955-05-17 19:00","1955","05","17","19:00","13.3","","1.7","","45","","29","","24","","25.0","","99.61","","","","","","Mainly Clear"
"1955-05-17 20:00","1955","05","17","20:00","10.6","","2.2","","56","","29","","14","","25.0","","99.64","","","","","","Clear"
"1955-05-17 21:00","1955","05","17","21:00","10.0","","0.0","","50","","23","","6","","25.0","","99.64","","","","","","Clear"
"1955-05-17 22:00","1955","05","17","22:00","7.8","","1.7","","65","","23","","10","","25.0","","99.62","","","","","","Clear"
"1955-05-17 23:00","1955","05","17","23:00","7.2","","2.8","","73","","23","","8","","19.3","","99.56","","","","","","Clear"
"1955-05-18 00:00","1955","05","18","00:00","9.4","","-2.8","","42","","34","","16","","19.3","","99.52","","","","","","Clear"
"1955-05-18 01:00","1955","05","18","01:00","7.2","","1.7","","68","","29","","26","","19.3","","99.44","","","","","","Clear"
"1955-05-18 02:00","1955","05","18","02:00","7.2","","1.1","","65","","32","","13","","19.3","","99.44","","","","","","Clear"
"1955-05-18 03:00","1955","05","18","03:00","6.7","","3.9","","82","","23","","10","","24.1","","99.43","","","","","","Clear"
"1955-05-18 04:00","1955","05","18","04:00","5.0","","0.6","","73","","27","","19","","25.0","","99.39","","","","","","Mainly Clear"
"1955-05-18 05:00","1955","05","18","05:00","6.1","","2.8","","79","","23","","6","","25.0","","99.40","","","","","","Mainly Clear"
"1955-05-18 06:00","1955","05","18","06:00","7.2","","2.2","","70","","27","","10","","25.0","","99.44","","","","","","Mostly Cloudy"
"1955-05-18 07:00","1955","05","18","07:00","8.9","","2.2","","63","","27","","8","","25.0","","99.47","","","","","","Mostly Cloudy"
"1955-05-18 08:00","1955","05","18","08:00","13.3","","3.9","","53","","29","","29","","25.0","","99.45","","","","","","Mostly Cloudy"
"1955-05-18 09:00","1955","05","18","09:00","15.6","","2.8","","42","","29","","32","","25.0","","99.38","","","","","","Mostly Cloudy"
"1955-05-18 10:00","1955","05","18","10:00","16.1","","3.3","","42","","29","","40","","25.0","","99.32","","","","","","Mostly Cloudy"
"1955-05-18 11:00","1955","05","18","11:00","17.8","","2.2","","35","","29","","39","","25.0","","99.26","","","","","","Mostly Cloudy"
"1955-05-18 12:00","1955","05","18","12:00","19.4","","3.9","","36","","29","","40","","25.0","","99.14","","","","","","Mostly Cloudy"
"1955-05-18 13:00","1955","05","18","13:00","20.6","","4.4","","35","","29","","42","","25.0","","99.08","","","","","","Mostly Cloudy"
"1955-05-18 14:00","1955","05","18","14:00","21.1","","4.4","","34","","29","","42","","25.0","","98.96","","","","","","Mostly Cloudy"
"1955-05-18 15:00","1955","05","18","15:00","21.1","","2.8","","30","","27","","45","","25.0","","98.86","","","","","","Mainly Clear"
"1955-05-18 16:00","1955","05","18","16:00","21.1","","2.2","","29","","27","","42","","25.0","","98.78","","","","","","Mainly Clear"
"1955-05-18 17:00","1955","05","18","17:00","21.1","","1.7","","28","","27","","45","","25.0","","98.72","","","","","","Mainly Clear"
"1955-05-18 18:00","1955","05","18","18:00","20.0","","3.9","","35","","27","","32","","25.0","","98.69","","","","","","Mainly Clear"
"1955-05-18 19:00","1955","05","18","19:00","17.8","","4.4","","41","","25","","19","","25.0","","98.67","","","","","","Mainly Clear"
"1955-05-18 20:00","1955","05","18","20:00","15.6","","4.4","","49","","23","","16","","25.0","","98.61","","","","","","Mainly Clear"
"1955-05-18 21:00","1955","05","18","21:00","15.0","","2.8","","44","","23","","23","","25.0","","98.60","","","","","","Mainly Clear"
"1955-05-18 22:00","1955","05","18","22:00","13.3","","3.9","","53","","23","","19","","25.0","","98.60","","","","","","Clear"
"1955-05-18 23:00","1955","05","18","23:00","11.7","","4.4","","61","","25","","19","","25.0","","98.51","","","","","","Clear"
"1955-05-19 00:00","1955","05","19","00:00","13.3","","3.9","","53","","25","","24","","25.0","","98.48","","","","","","Clear"
"1955-05-19 01:00","1955","05","19","01:00","13.3","","3.3","","51","","25","","26","","25.0","","98.46","","","","","","Mainly Clear"
"1955-05-19 02:00","1955","05","19","02:00","12.8","","3.9","","55","","27","","27","","25.0","","98.36","","","","","","Mainly Clear"
"1955-05-19 03:00","1955","05","19","03:00","11.7","","3.9","","59","","25","","29","","25.0","","98.31","","","","","","Clear"
"1955-05-19 04:00","1955","05","19","04:00","11.1","","5.0","","66","","25","","27","","25.0","","98.31","","","","","","Mainly Clear"
"1955-05-19 05:00","1955","05","19","05:00","12.2","","5.6","","64","","29","","26","","25.0","","98.40","","","","","","Mainly Clear"
"1955-05-19 06:00","1955","05","19","06:00","13.3","","6.7","","64","","29","","26","","25.0","","98.50","","","","","","Mainly Clear"
"1955-05-19 07:00","1955","05","19","07:00","13.9","","5.6","","57","","32","","23","","25.0","","98.59","","","","","","Mainly Clear"
"1955-05-19 08:00","1955","05","19","08:00","15.6","","3.3","","44","","36","","19","","25.0","","98.67","","","","","","Mainly Clear"
"1955-05-19 09:00","1955","05","19","09:00","15.6","","4.4","","48","","36","","26","","25.0","","98.77","","","","","","Mainly Clear"
"1955-05-19 10:00","1955","05","19","10:00","15.6","","4.4","","48","","36","","29","","25.0","","98.83","","","","","","Mainly Clear"
"1955-05-19 11:00","1955","05","19","11:00","16.1","","3.9","","44","","36","","26","","25.0","","98.90","","","","","","Mainly Clear"
"1955-05-19 12:00","1955","05","19","12:00","16.7","","1.1","","35","","36","","29","","25.0","","98.94","","","","","","Clear"
"1955-05-19 13:00","1955","05","19","13:00","16.7","","1.1","","35","","36","","32","","25.0","","98.93","","","","","","Clear"
"1955-05-19 14:00","1955","05","19","14:00","17.2","","1.1","","34","","36","","29","","25.0","","98.94","","","","","","Clear"
"1955-05-19 15:00","1955","05","19","15:00","18.3","","1.1","","31","","36","","26","","25.0","","98.93","","","","","","Clear"
"1955-05-19 16:00","1955","05","19","16:00","17.8","","1.1","","33","","36","","24","","25.0","","98.95","","","","","","Clear"
"1955-05-19 17:00","1955","05","19","17:00","16.7","","0.6","","34","","36","","26","","25.0","","98.97","","","","","","Clear"
"1955-05-19 18:00","1955","05","19","18:00","15.6","","0.6","","36","","36","","24","","25.0","","99.02","","","","","","Clear"
"1955-05-19 19:00","1955","05","19","19:00","13.9","","0.0","","39","","36","","19","","25.0","","99.04","","","","","","Clear"
"1955-05-19 20:00","1955","05","19","20:00","11.1","","2.2","","54","","36","","16","","25.0","","99.14","","","","","","Clear"
"1955-05-19 21:00","1955","05","19","21:00","9.4","","1.1","","56","","36","","19","","25.0","","99.19","","","","","","Clear"
"1955-05-19 22:00","1955","05","19","22:00","7.8","","1.7","","65","","36","","16","","25.0","","99.22","","","","","","Clear"
"1955-05-19 23:00","1955","05","19","23:00","6.7","","2.2","","73","","34","","13","","25.0","","99.24","","","","","","Clear"
"1955-05-20 00:00","1955","05","20","00:00","6.7","","1.7","","70","","36","","16","","25.0","","99.23","","","","","","Clear"
"1955-05-20 01:00","1955","05","20","01:00","5.6","","1.1","","73","","36","","16","","25.0","","99.24","","","","","","Clear"
"1955-05-20 02:00","1955","05","20","02:00","5.6","","0.6","","70","","34","","10","","9.7","","99.24","","","","","","Smoke"
"1955-05-20 03:00","1955","05","20","03:00","5.6","","1.1","","73","","34","","16","","25.0","","99.26","","","","","","Clear"
"1955-05-20 04:00","1955","05","20","04:00","5.0","","0.0","","70","","34","","14","","25.0","","99.28","","","","","","Clear"
"1955-05-20 05:00","1955","05","20","05:00","5.6","","1.1","","73","","36","","14","","25.0","","99.34","","","","","","Mainly Clear"
"1955-05-20 06:00","1955","05","20","06:00","7.8","","1.7","","65","","34","","13","","25.0","","99.38","","","","","","Mainly Clear"
"1955-05-20 07:00","1955","05","20","07:00","9.4","","2.8","","63","","34","","14","","25.0","","99.43","","","","","","Mainly Clear"
"1955-05-20 08:00","1955","05","20","08:00","13.9","","2.8","","47","","36","","10","","25.0","","99.52","","","","","","Mainly Clear"
"1955-05-20 09:00","1955","05","20","09:00","16.1","","4.4","","46","","2","","6","","25.0","","99.52","","","","","","Mainly Clear"
"1955-05-20 10:00","1955","05","20","10:00","16.7","","3.9","","43","","2","","6","","25.0","","99.51","","","","","","Mainly Clear"
"1955-05-20 11:00","1955","05","20","11:00","18.3","","5.0","","41","","36","","6","","25.0","","99.48","","","","","","Mainly Clear"
"1955-05-20 12:00","1955","05","20","12:00","18.9","","6.7","","45","","2","","16","","25.0","","99.43","","","","","","Mainly Clear"
"1955-05-20 13:00","1955","05","20","13:00","20.0","","9.4","","51","","36","","16","","25.0","","99.42","","","","","","Mainly Clear"
"1955-05-20 14:00","1955","05","20","14:00","20.6","","7.8","","44","","27","","19","","25.0","","99.41","","","","","","Mainly Clear"
"1955-05-20 15:00","1955","05","20","15:00","20.0","","6.1","","40","","23","","18","","25.0","","99.37","","","","","","Mainly Clear"
"1955-05-20 16:00","1955","05","20","16:00","19.4","","5.6","","40","","23","","18","","25.0","","99.38","","","","","","Mainly Clear"
"1955-05-20 17:00","1955","05","20","17:00","18.9","","5.6","","42","","20","","11","","25.0","","99.42","","","","","","Mainly Clear"
"1955-05-20 18:00","1955","05","20","18:00","18.9","","6.7","","45","","18","","10","","24.1","","99.44","","","","","","Clear"
"1955-05-20 19:00","1955","05","20","19:00","17.8","","5.0","","43","","34","","10","","24.1","","99.49","","","","","","Clear"
"1955-05-20 20:00","1955","05","20","20:00","16.1","","4.4","","46","","36","","6","","24.1","","99.57","","","","","","Clear"
"1955-05-20 21:00","1955","05","20","21:00","12.8","","5.0","","59","","36","","5","","25.0","","99.66","","","","","","Clear"
"1955-05-20 22:00","1955","05","20","22:00","12.8","","2.8","","51","","36","","14","","25.0","","99.71","","","","","","Clear"
"1955-05-20 23:00","1955","05","20","23:00","11.1","","3.3","","59","","36","","13","","25.0","","99.72","","","","","","Clear"
"1955-05-21 00:00","1955","05","21","00:00","8.9","","3.3","","68","","36","","13","","25.0","","99.72","","","","","","Clear"
"1955-05-21 01:00","1955","05","21","01:00","7.2","","2.8","","73","","36","","8","","25.0","","99.74","","","","","","Clear"
"1955-05-21 02:00","1955","05","21","02:00","6.7","","2.8","","76","","36","","3","","25.0","","99.73","","","","","","Clear"
"1955-05-21 03:00","1955","05","21","03:00","6.1","","2.8","","79","","36","","8","","25.0","","99.75","","","","","","Clear"
"1955-05-21 04:00","1955","05","21","04:00","6.1","","3.3","","82","","34","","5","","25.0","","99.79","","","","","","Clear"
"1955-05-21 05:00","1955","05","21","05:00","6.1","","2.8","","79","","23","","3","","25.0","","99.89","","","","","","Clear"
"1955-05-21 06:00","1955","05","21","06:00","8.9","","4.4","","74","","","","0","","25.0","","99.93","","","","","","Clear"
"1955-05-21 07:00","1955","05","21","07:00","11.7","","5.0","","64","","36","","3","","25.0","","99.96","","","","","","Clear"
"1955-05-21 08:00","1955","05","21","08:00","16.1","","6.1","","51","","","","0","","24.1","","99.98","","","","","","Clear"
"1955-05-21 09:00","1955","05","21","09:00","18.9","","6.7","","45","","18","","6","","24.1","","99.99","","","","","","Clear"
"1955-05-21 10:00","1955","05","21","10:00","19.4","","8.3","","49","","18","","11","","19.3","","99.99","","","","","","Clear"
"1955-05-21 11:00","1955","05","21","11:00","21.1","","10.0","","49","","18","","11","","19.3","","100.00","","","","","","Clear"
"1955-05-21 12:00","1955","05","21","12:00","22.2","","14.4","","61","","20","","8","","24.1","","99.95","","26","","","","Clear"
"1955-05-21 13:00","1955","05","21","13:00","22.8","","7.2","","37","","20","","13","","24.1","","99.91","","","","","","Clear"
"1955-05-21 14:00","1955","05","21","14:00","22.2","","5.6","","34","","16","","11","","25.0","","99.84","","","","","","Clear"
"1955-05-21 15:00","1955","05","21","15:00","22.8","","7.8","","38","","18","","10","","25.0","","99.79","","","","","","Clear"
"1955-05-21 16:00","1955","05","21","16:00","23.3","","5.0","","30","","23","","14","","25.0","","99.74","","","","","","Clear"
"1955-05-21 17:00","1955","05","21","17:00","23.3","","7.8","","37","","18","","13","","25.0","","99.75","","","","","","Clear"
"1955-05-21 18:00","1955","05","21","18:00","21.1","","7.8","","42","","23","","10","","24.1","","99.72","","","","","","Clear"
"1955-05-21 19:00","1955","05","21","19:00","19.4","","6.7","","43","","16","","8","","19.3","","99.69","","","","","","Clear"
"1955-05-21 20:00","1955","05","21","20:00","15.6","","6.1","","53","","16","","5","","19.3","","99.70","","","","","","Clear"
"1955-05-21 21:00","1955","05","21","21:00","13.9","","6.7","","62","","18","","6","","19.3","","99.75","","","","","","Clear"
"1955-05-21 22:00","1955","05","21","22:00","12.8","","4.4","","57","","18","","5","","19.3","","99.76","","","","","","Clear"
"1955-05-21 23:00","1955","05","21","23:00","11.1","","5.6","","69","","18","","3","","16.1","","99.79","","","","","","Clear"
"1955-05-22 00:00","1955","05","22","00:00","9.4","","4.4","","71","","18","","2","","16.1","","99.79","","","","","","Clear"
"1955-05-22 01:00","1955","05","22","01:00","8.9","","5.0","","77","","34","","8","","16.1","","99.77","","","","","","Clear"
"1955-05-22 02:00","1955","05","22","02:00","8.9","","5.0","","77","","34","","10","","16.1","","99.73","","","","","","Clear"
"1955-05-22 03:00","1955","05","22","03:00","8.9","","5.0","","77","","34","","6","","16.1","","99.68","","","","","","Clear"
"1955-05-22 04:00","1955","05","22","04:00","8.9","","5.0","","77","","34","","3","","16.1","","99.64","","","","","","Mainly Clear"
"1955-05-22 05:00","1955","05","22","05:00","9.4","","5.6","","77","","34","","6","","12.9","","99.65","","","","","","Mostly Cloudy"
"1955-05-22 06:00","1955","05","22","06:00","11.1","","6.1","","71","","34","","5","","12.9","","99.67","","","","","","Mostly Cloudy"
"1955-05-22 07:00","1955","05","22","07:00","12.8","","6.1","","64","","34","","2","","12.9","","99.67","","","","","","Mostly Cloudy"
"1955-05-22 08:00","1955","05","22","08:00","16.1","","7.8","","58","","","","0","","6.4","","99.67","","","","","","Smoke,Haze"
"1955-05-22 09:00","1955","05","22","09:00","17.8","","8.3","","54","","18","","6","","6.4","","99.65","","","","","","Smoke,Haze"
"1955-05-22 10:00","1955","05","22","10:00","19.4","","10.0","","54","","16","","13","","6.4","","99.60","","","","","","Smoke,Haze"
"1955-05-22 11:00","1955","05","22","11:00","20.6","","11.7","","57","","16","","8","","8.0","","99.55","","","","","","Smoke,Haze"
"1955-05-22 12:00","1955","05","22","12:00","21.7","","12.8","","57","","14","","16","","8.0","","99.52","","","","","","Smoke,Haze"
"1955-05-22 13:00","1955","05","22","13:00","23.3","","14.4","","58","","14","","19","","8.0","","99.43","","27","","","","Smoke,Haze"
"1955-05-22 14:00","1955","05","22","14:00","24.4","","15.0","","56","","14","","24","","9.7","","99.38","","28","","","","Smoke,Haze"
"1955-05-22 15:00","1955","05","22","15:00","24.4","","15.6","","58","","14","","16","","9.7","","99.27","","29","","","","Smoke,Haze"
"1955-05-22 16:00","1955","05","22","16:00","24.4","","16.1","","60","","9","","16","","9.7","","99.19","","29","","","","Smoke,Haze"
"1955-05-22 17:00","1955","05","22","17:00","23.9","","16.1","","62","","9","","18","","8.0","","99.11","","29","","","","Smoke,Haze"
"1955-05-22 18:00","1955","05","22","18:00","22.2","","16.1","","68","","9","","24","","8.0","","99.06","","27","","","","Smoke,Haze"
"1955-05-22 19:00","1955","05","22","19:00","21.1","","15.6","","71","","9","","16","","8.0","","99.06","","25","","","","Smoke,Haze"
"1955-05-22 20:00","1955","05","22","20:00","19.4","","15.0","","76","","9","","8","","12.9","","99.05","","","","","","Cloudy"
"1955-05-22 21:00","1955","05","22","21:00","17.8","","16.1","","90","","18","","5","","4.8","","99.07","","","","","","Rain Showers,Fog"
"1955-05-22 22:00","1955","05","22","22:00","17.2","","16.1","","93","","14","","3","","4.8","","99.03","","","","","","Rain Showers,Fog"
"1955-05-22 23:00","1955","05","22","23:00","17.2","","16.1","","93","","14","","6","","4.8","","98.96","","","","","","Fog"
"1955-05-23 00:00","1955","05","23","00:00","16.7","","16.1","","97","","14","","8","","4.8","","98.93","","","","","","Fog"
"1955-05-23 01:00","1955","05","23","01:00","16.7","","16.1","","97","","14","","10","","3.2","","98.91","","","","","","Rain Showers,Fog"
"1955-05-23 02:00","1955","05","23","02:00","16.1","","15.0","","93","","14","","10","","3.2","","98.84","","","","","","Fog"
"1955-05-23 03:00","1955","05","23","03:00","16.1","","15.6","","97","","14","","8","","3.2","","98.76","","","","","","Fog"
"1955-05-23 04:00","1955","05","23","04:00","15.6","","15.0","","97","","14","","8","","1.6","","98.74","","","","","","Rain Showers,Fog"
"1955-05-23 05:00","1955","05","23","05:00","15.0","","14.4","","97","","16","","11","","0.8","","98.80","","","","","","Fog"
"1955-05-23 06:00","1955","05","23","06:00","15.6","","14.4","","93","","18","","10","","1.2","","98.82","","","","","","Fog"
"1955-05-23 07:00","1955","05","23","07:00","16.1","","15.6","","97","","18","","6","","1.6","","98.83","","","","","","Fog"
"1955-05-23 08:00","1955","05","23","08:00","18.9","","17.2","","90","","18","","10","","3.2","","98.83","","","","","","Fog"
"1955-05-23 09:00","1955","05","23","09:00","22.2","","18.3","","79","","20","","24","","12.9","","98.82","","28","","","","Mostly Cloudy"
"1955-05-23 10:00","1955","05","23","10:00","22.2","","18.3","","79","","20","","23","","11.3","","98.82","","28","","","","Mostly Cloudy"
"1955-05-23 11:00","1955","05","23","11:00","24.4","","18.9","","71","","23","","29","","11.3","","98.76","","31","","","","Mostly Cloudy"
"1955-05-23 12:00","1955","05","23","12:00","25.0","","18.3","","67","","23","","32","","11.3","","98.69","","31","","","","Mostly Cloudy"
"1955-05-23 13:00","1955","05","23","13:00","25.6","","18.3","","64","","23","","39","","11.3","","98.65","","32","","","","Rain Showers"
"1955-05-23 14:00","1955","05","23","14:00","25.0","","17.8","","64","","23","","26","","11.3","","98.61","","31","","","","Mostly Cloudy"
"1955-05-23 15:00","1955","05","23","15:00","23.3","","18.9","","76","","23","","23","","16.1","","98.59","","30","","","","Mostly Cloudy"
"1955-05-23 16:00","1955","05","23","16:00","23.3","","18.9","","76","","23","","24","","12.9","","98.59","","30","","","","Rain Showers"
"1955-05-23 17:00","1955","05","23","17:00","23.9","","20.0","","79","","23","","14","","16.1","","98.58","","31","","","","Mostly Cloudy"
"1955-05-23 18:00","1955","05","23","18:00","23.9","","20.0","","79","","27","","21","","19.3","","98.62","","31","","","","Mostly Cloudy"
"1955-05-23 19:00","1955","05","23","19:00","23.3","","21.1","","88","","27","","6","","24.1","","98.63","","32","","","","Mostly Cloudy"
"1955-05-23 20:00","1955","05","23","20:00","22.2","","19.4","","84","","29","","14","","24.1","","98.67","","29","","","","Mostly Cloudy"
"1955-05-23 21:00","1955","05","23","21:00","21.1","","18.9","","87","","29","","6","","25.0","","98.65","","28","","","","Mainly Clear"
"1955-05-23 22:00","1955","05","23","22:00","18.9","","17.2","","90","","23","","5","","25.0","","98.67","","","","","","Clear"
"1955-05-23 23:00","1955","05","23","23:00","18.3","","17.2","","93","","23","","6","","25.0","","98.75","","","","","","Clear"
"1955-05-24 00:00","1955","05","24","00:00","18.9","","16.7","","87","","27","","5","","24.1","","98.73","","","","","","Mostly Cloudy"
"1955-05-24 01:00","1955","05","24","01:00","17.8","","16.1","","90","","27","","6","","24.1","","98.66","","","","","","Clear"
"1955-05-24 02:00","1955","05","24","02:00","17.2","","16.1","","93","","23","","8","","24.1","","98.67","","","","","","Mainly Clear"
"1955-05-24 03:00","1955","05","24","03:00","17.2","","16.1","","93","","23","","5","","16.1","","98.62","","","","","","Cloudy"
"1955-05-24 04:00","1955","05","24","04:00","18.3","","16.7","","90","","","","0","","4.8","","98.60","","","","","","Fog"
"1955-05-24 05:00","1955","05","24","05:00","16.7","","15.0","","90","","","","0","","3.2","","98.67","","","","","","Fog"
"1955-05-24 06:00","1955","05","24","06:00","18.9","","17.2","","90","","","","0","","4.8","","98.67","","","","","","Fog"
"1955-05-24 07:00","1955","05","24","07:00","20.6","","17.8","","84","","25","","6","","9.7","","98.69","","26","","","","Haze"
"1955-05-24 08:00","1955","05","24","08:00","21.1","","17.2","","79","","20","","8","","9.7","","98.70","","27","","","","Haze"
"1955-05-24 09:00","1955","05","24","09:00","23.3","","18.3","","74","","23","","10","","11.3","","98.64","","30","","","","Mostly Cloudy"
"1955-05-24 10:00","1955","05","24","10:00","24.4","","18.3","","69","","18","","19","","11.3","","98.58","","31","","","","Mostly Cloudy"
"1955-05-24 11:00","1955","05","24","11:00","24.4","","18.9","","71","","18","","14","","11.3","","98.56","","31","","","","Mostly Cloudy"
"1955-05-24 12:00","1955","05","24","12:00","26.1","","18.9","","65","","20","","13","","12.9","","98.55","","33","","","","Mostly Cloudy"
"1955-05-24 13:00","1955","05","24","13:00","26.7","","18.9","","63","","20","","13","","11.3","","98.51","","33","","","","Mostly Cloudy"
"1955-05-24 14:00","1955","05","24","14:00","26.7","","19.4","","65","","16","","18","","9.7","","98.44","","34","","","","Haze"
"1955-05-24 15:00","1955","05","24","15:00","26.7","","20.0","","67","","14","","14","","9.7","","98.35","","34","","","","Haze"
"1955-05-24 16:00","1955","05","24","16:00","27.8","","20.6","","67","","20","","16","","9.7","","98.30","","36","","","","Haze"
"1955-05-24 17:00","1955","05","24","17:00","27.8","","20.0","","63","","20","","18","","9.7","","98.27","","35","","","","Haze"
"1955-05-24 18:00","1955","05","24","18:00","26.7","","20.6","","69","","20","","14","","9.7","","98.32","","35","","","","Haze"
"1955-05-24 19:00","1955","05","24","19:00","25.6","","20.0","","72","","20","","13","","9.7","","98.32","","33","","","","Haze"
"1955-05-24 20:00","1955","05","24","20:00","23.9","","19.4","","76","","27","","19","","12.9","","98.37","","31","","","","Cloudy"
"1955-05-24 21:00","1955","05","24","21:00","20.6","","15.6","","73","","27","","21","","16.1","","98.45","","25","","","","Thunderstorms,Heavy Rain Showers"
"1955-05-24 22:00","1955","05","24","22:00","18.9","","16.7","","87","","27","","11","","16.1","","98.56","","","","","","Rain Showers"
"1955-05-24 23:00","1955","05","24","23:00","18.3","","17.2","","93","","5","","13","","16.1","","98.42","","","","","","Rain Showers"
"1955-05-25 00:00","1955","05","25","00:00","17.8","","16.7","","93","","5","","3","","16.1","","98.42","","","","","","Cloudy"
"1955-05-25 01:00","1955","05","25","01:00","18.3","","17.2","","93","","16","","10","","12.9","","98.42","","","","","","Cloudy"
"1955-05-25 02:00","1955","05","25","02:00","17.8","","16.7","","93","","16","","11","","3.2","","98.41","","","","","","Fog"
"1955-05-25 03:00","1955","05","25","03:00","17.2","","16.1","","93","","16","","3","","4.0","","98.35","","","","","","Fog"
"1955-05-25 04:00","1955","05","25","04:00","16.7","","15.6","","93","","","","0","","2.4","","98.29","","","","","","Fog"
"1955-05-25 05:00","1955","05","25","05:00","17.2","","16.1","","93","","","","0","","2.4","","98.36","","","","","","Fog"
"1955-05-25 06:00","1955","05","25","06:00","17.8","","16.7","","93","","7","","8","","1.6","","98.33","","","","","","Rain Showers,Fog"
"1955-05-25 07:00","1955","05","25","07:00","17.8","","16.7","","93","","9","","8","","1.2","","98.34","","","","","","Moderate Rain Showers,Fog"
"1955-05-25 08:00","1955","05","25","08:00","17.8","","17.2","","97","","9","","6","","1.2","","98.33","","","","","","Rain Showers,Fog"
"1955-05-25 09:00","1955","05","25","09:00","17.8","","17.2","","97","","11","","8","","0.8","","98.33","","","","","","Rain Showers,Fog"
"1955-05-25 10:00","1955","05","25","10:00","18.3","","17.8","","97","","11","","6","","1.2","","98.31","","","","","","Fog"
"1955-05-25 11:00","1955","05","25","11:00","20.6","","18.3","","87","","11","","5","","3.2","","98.30","","27","","","","Fog"
"1955-05-25 12:00","1955","05","25","12:00","20.6","","17.8","","84","","11","","3","","6.4","","98.29","","26","","","","Smoke,Haze"
"1955-05-25 13:00","1955","05","25","13:00","20.0","","18.3","","90","","34","","29","","11.3","","98.32","","26","","","","Rain Showers"
"1955-05-25 14:00","1955","05","25","14:00","14.4","","13.9","","96","","36","","29","","9.7","","98.43","","","","","","Rain Showers"
"1955-05-25 15:00","1955","05","25","15:00","13.3","","12.2","","93","","34","","32","","19.3","","98.50","","","","","","Rain Showers"
"1955-05-25 16:00","1955","05","25","16:00","12.8","","11.7","","93","","36","","39","","16.1","","98.53","","","","","","Rain Showers"
"1955-05-25 17:00","1955","05","25","17:00","12.2","","11.1","","93","","34","","32","","19.3","","98.63","","","","","","Rain Showers"
"1955-05-25 18:00","1955","05","25","18:00","11.1","","10.6","","96","","34","","39","","19.3","","98.76","","","","","","Rain Showers"
"1955-05-25 19:00","1955","05","25","19:00","11.1","","10.0","","93","","34","","35","","19.3","","98.86","","","","","","Rain Showers"
"1955-05-25 20:00","1955","05","25","20:00","10.6","","10.0","","96","","34","","32","","16.1","","98.98","","","","","","Rain Showers"
"1955-05-25 21:00","1955","05","25","21:00","11.1","","10.0","","93","","34","","37","","24.1","","99.07","","","","","","Cloudy"
"1955-05-25 22:00","1955","05","25","22:00","11.1","","9.4","","90","","36","","29","","24.1","","99.10","","","","","","Mostly Cloudy"
"1955-05-25 23:00","1955","05","25","23:00","11.7","","8.9","","83","","36","","29","","25.0","","99.15","","","","","","Cloudy"
"1955-05-26 00:00","1955","05","26","00:00","11.7","","8.9","","83","","36","","19","","24.1","","99.20","","","","","","Cloudy"
"1955-05-26 01:00","1955","05","26","01:00","11.1","","8.9","","86","","36","","23","","24.1","","99.21","","","","","","Cloudy"
"1955-05-26 02:00","1955","05","26","02:00","10.6","","8.3","","86","","32","","16","","24.1","","99.27","","","","","","Cloudy"
"1955-05-26 03:00","1955","05","26","03:00","10.6","","8.3","","86","","32","","23","","24.1","","99.33","","","","","","Cloudy"
"1955-05-26 04:00","1955","05","26","04:00","10.6","","8.3","","86","","32","","23","","24.1","","99.35","","","","","","Mostly Cloudy"
"1955-05-26 05:00","1955","05","26","05:00","10.6","","7.8","","83","","36","","19","","24.1","","99.37","","","","","","Mostly Cloudy"
"1955-05-26 06:00","1955","05","26","06:00","11.1","","8.3","","83","","36","","13","","24.1","","99.51","","","","","","Mostly Cloudy"
"1955-05-26 07:00","1955","05","26","07:00","11.1","","8.9","","86","","36","","13","","24.1","","99.63","","","","","","Cloudy"
"1955-05-26 08:00","1955","05","26","08:00","11.7","","9.4","","86","","36","","16","","16.1","","99.69","","","","","","Cloudy"
"1955-05-26 09:00","1955","05","26","09:00","12.2","","8.9","","80","","36","","13","","19.3","","99.73","","","","","","Cloudy"
"1955-05-26 10:00","1955","05","26","10:00","12.8","","8.3","","74","","36","","13","","19.3","","99.76","","","","","","Cloudy"
"1955-05-26 11:00","1955","05","26","11:00","13.3","","8.9","","74","","36","","19","","19.3","","99.72","","","","","","Cloudy"
"1955-05-26 12:00","1955","05","26","12:00","13.9","","8.3","","69","","36","","19","","19.3","","99.63","","","","","","Mostly Cloudy"
"1955-05-26 13:00","1955","05","26","13:00","14.4","","9.4","","72","","36","","13","","19.3","","99.66","","","","","","Mostly Cloudy"
"1955-05-26 14:00","1955","05","26","14:00","15.6","","8.9","","65","","5","","10","","24.1","","99.64","","","","","","Mostly Cloudy"
"1955-05-26 15:00","1955","05","26","15:00","16.7","","10.0","","65","","18","","6","","24.1","","99.67","","","","","","Mostly Cloudy"
"1955-05-26 16:00","1955","05","26","16:00","16.7","","10.0","","65","","5","","8","","24.1","","99.70","","","","","","Mainly Clear"
"1955-05-26 17:00","1955","05","26","17:00","16.7","","10.6","","67","","16","","19","","16.1","","99.70","","","","","","Mainly Clear"
"1955-05-26 18:00","1955","05","26","18:00","15.6","","10.0","","70","","14","","19","","12.9","","99.70","","","","","","Mainly Clear"
"1955-05-26 19:00","1955","05","26","19:00","13.9","","9.4","","75","","14","","21","","12.9","","99.71","","","","","","Mainly Clear"
"1955-05-26 20:00","1955","05","26","20:00","12.2","","7.8","","74","","16","","8","","12.9","","99.79","","","","","","Mainly Clear"
"1955-05-26 21:00","1955","05","26","21:00","12.2","","8.9","","80","","16","","6","","12.9","","99.81","","","","","","Mainly Clear"
"1955-05-26 22:00","1955","05","26","22:00","11.7","","8.9","","83","","16","","5","","12.9","","99.74","","","","","","Mainly Clear"
"1955-05-26 23:00","1955","05","26","23:00","10.6","","9.4","","93","","20","","6","","12.9","","99.72","","","","","","Mainly Clear"
"1955-05-27 00:00","1955","05","27","00:00","9.4","","8.3","","93","","11","","5","","12.9","","99.63","","","","","","Clear"
"1955-05-27 01:00","1955","05","27","01:00","9.4","","8.9","","96","","9","","3","","12.9","","99.64","","","","","","Clear"
"1955-05-27 02:00","1955","05","27","02:00","9.4","","8.9","","96","","9","","5","","8.0","","99.61","","","","","","Fog"
"1955-05-27 03:00","1955","05","27","03:00","9.4","","8.9","","96","","9","","3","","4.8","","99.63","","","","","","Fog"
"1955-05-27 04:00","1955","05","27","04:00","9.4","","8.9","","96","","9","","5","","2.4","","99.62","","","","","","Fog"
"1955-05-27 05:00","1955","05","27","05:00","9.4","","8.9","","96","","","","0","","2.4","","99.63","","","","","","Fog"
"1955-05-27 06:00","1955","05","27","06:00","10.6","","10.0","","96","","","","0","","3.2","","99.62","","","","","","Fog"
"1955-05-27 07:00","1955","05","27","07:00","12.2","","11.1","","90","","11","","6","","4.0","","99.62","","","","","","Fog"
"1955-05-27 08:00","1955","05","27","08:00","14.4","","11.1","","81","","11","","6","","4.0","","99.61","","","","","","Haze"
"1955-05-27 09:00","1955","05","27","09:00","15.6","","11.7","","78","","7","","10","","3.2","","99.53","","","","","","Haze"
"1955-05-27 10:00","1955","05","27","10:00","17.2","","11.7","","70","","11","","13","","4.8","","99.50","","","","","","Haze"
"1955-05-27 11:00","1955","05","27","11:00","18.3","","12.8","","70","","11","","14","","4.8","","99.45","","","","","","Haze"
"1955-05-27 12:00","1955","05","27","12:00","19.4","","12.2","","63","","11","","18","","4.8","","99.40","","","","","","Haze"
"1955-05-27 13:00","1955","05","27","13:00","20.6","","13.9","","66","","11","","21","","2.4","","99.30","","","","","","Haze"
"1955-05-27 14:00","1955","05","27","14:00","21.7","","13.9","","61","","11","","21","","4.8","","99.24","","25","","","","Haze"
"1955-05-27 15:00","1955","05","27","15:00","22.2","","15.0","","64","","14","","19","","4.8","","99.17","","26","","","","Haze"
"1955-05-27 16:00","1955","05","27","16:00","22.2","","15.0","","64","","16","","16","","4.8","","99.13","","26","","","","Haze"
"1955-05-27 17:00","1955","05","27","17:00","21.1","","15.6","","71","","16","","13","","4.8","","99.04","","25","","","","Haze"
"1955-05-27 18:00","1955","05","27","18:00","18.9","","13.3","","70","","18","","13","","9.7","","99.03","","","","","","Haze"
"1955-05-27 19:00","1955","05","27","19:00","17.8","","13.3","","75","","18","","10","","8.0","","99.00","","","","","","Haze"
"1955-05-27 20:00","1955","05","27","20:00","15.6","","12.2","","81","","20","","5","","11.3","","99.01","","","","","","Mainly Clear"
"1955-05-27 21:00","1955","05","27","21:00","15.0","","12.2","","84","","18","","5","","12.9","","99.04","","","","","","Mainly Clear"
"1955-05-27 22:00","1955","05","27","22:00","15.0","","12.2","","84","","18","","5","","11.3","","99.08","","","","","","Mainly Clear"
"1955-05-27 23:00","1955","05","27","23:00","15.0","","12.8","","87","","20","","10","","12.9","","99.09","","","","","","Clear"
"1955-05-28 00:00","1955","05","28","00:00","18.3","","14.4","","78","","20","","16","","16.1","","99.06","","","","","","Clear"
"1955-05-28 01:00","1955","05","28","01:00","19.4","","14.4","","73","","20","","19","","19.3","","99.09","","","","","","Clear"
"1955-05-28 02:00","1955","05","28","02:00","20.0","","15.6","","76","","23","","24","","19.3","","99.12","","","","","","Clear"
"1955-05-28 03:00","1955","05","28","03:00","19.4","","15.6","","78","","23","","16","","19.3","","99.14","","","","","","Clear"
"1955-05-28 04:00","1955","05","28","04:00","18.9","","15.6","","81","","20","","10","","16.1","","99.14","","","","","","Clear"
"1955-05-28 05:00","1955","05","28","05:00","17.8","","15.6","","87","","20","","8","","16.1","","99.16","","","","","","Mainly Clear"
"1955-05-28 06:00","1955","05","28","06:00","20.0","","16.1","","78","","23","","18","","16.1","","99.20","","25","","","","Mostly Cloudy"
"1955-05-28 07:00","1955","05","28","07:00","21.1","","17.2","","79","","20","","19","","19.3","","99.20","","27","","","","Cloudy"
"1955-05-28 08:00","1955","05","28","08:00","22.8","","14.4","","59","","20","","24","","19.3","","99.20","","26","","","","Cloudy"
"1955-05-28 09:00","1955","05","28","09:00","25.0","","19.4","","71","","23","","23","","19.3","","99.09","","32","","","","Cloudy"
"1955-05-28 10:00","1955","05","28","10:00","25.6","","19.4","","69","","20","","21","","19.3","","99.05","","33","","","","Mostly Cloudy"
"1955-05-28 11:00","1955","05","28","11:00","26.7","","20.0","","67","","18","","24","","19.3","","99.00","","34","","","","Mostly Cloudy"
"1955-05-28 12:00","1955","05","28","12:00","25.6","","20.0","","72","","18","","29","","16.1","","98.94","","33","","","","Cloudy"
"1955-05-28 13:00","1955","05","28","13:00","26.7","","20.0","","67","","20","","27","","14.5","","98.84","","34","","","","Cloudy"
"1955-05-28 14:00","1955","05","28","14:00","25.6","","19.4","","69","","16","","24","","14.5","","98.78","","33","","","","Rain Showers"
"1955-05-28 15:00","1955","05","28","15:00","25.0","","20.0","","74","","16","","29","","12.9","","98.68","","33","","","","Cloudy"
"1955-05-28 16:00","1955","05","28","16:00","22.8","","19.4","","82","","14","","24","","6.4","","98.48","","30","","","","Thunderstorms,Rain Showers"
"1955-05-28 17:00","1955","05","28","17:00","22.2","","19.4","","84","","18","","29","","25.0","","98.64","","29","","","","Cloudy"
"1955-05-28 18:00","1955","05","28","18:00","21.7","","18.9","","84","","20","","23","","25.0","","98.52","","28","","","","Cloudy"
"1955-05-28 19:00","1955","05","28","19:00","20.6","","16.7","","79","","18","","29","","25.0","","98.48","","26","","","","Mostly Cloudy"
"1955-05-28 20:00","1955","05","28","20:00","19.4","","16.1","","81","","23","","23","","25.0","","98.52","","","","","","Mostly Cloudy"
"1955-05-28 21:00","1955","05","28","21:00","17.8","","16.1","","90","","18","","13","","25.0","","98.52","","","","","","Mostly Cloudy"
"1955-05-28 22:00","1955","05","28","22:00","18.3","","16.7","","90","","23","","13","","25.0","","98.48","","","","","","Mostly Cloudy"
"1955-05-28 23:00","1955","05","28","23:00","20.0","","17.2","","84","","20","","14","","25.0","","98.42","","25","","","","Cloudy"
"1955-05-29 00:00","1955","05","29","00:00","18.3","","16.7","","90","","20","","13","","25.0","","98.40","","","","","","Mostly Cloudy"
"1955-05-29 01:00","1955","05","29","01:00","18.3","","16.7","","90","","20","","13","","25.0","","98.37","","","","","","Mainly Clear"
"1955-05-29 02:00","1955","05","29","02:00","19.4","","17.2","","87","","20","","21","","25.0","","98.36","","","","","","Mostly Cloudy"
"1955-05-29 03:00","1955","05","29","03:00","18.9","","16.7","","87","","23","","18","","25.0","","98.36","","","","","","Mostly Cloudy"
"1955-05-29 04:00","1955","05","29","04:00","18.3","","16.7","","90","","20","","10","","25.0","","98.36","","","","","","Mostly Cloudy"
"1955-05-29 05:00","1955","05","29","05:00","18.3","","16.7","","90","","20","","10","","24.1","","98.40","","","","","","Rain Showers"
"1955-05-29 06:00","1955","05","29","06:00","17.8","","16.1","","90","","20","","13","","24.1","","98.45","","","","","","Rain Showers"
"1955-05-29 07:00","1955","05","29","07:00","18.3","","16.7","","90","","20","","16","","16.1","","98.43","","","","","","Mostly Cloudy"
"1955-05-29 08:00","1955","05","29","08:00","19.4","","15.6","","78","","20","","13","","16.1","","98.38","","","","","","Mostly Cloudy"
"1955-05-29 09:00","1955","05","29","09:00","20.6","","16.1","","76","","18","","19","","16.1","","98.33","","25","","","","Mostly Cloudy"
"1955-05-29 10:00","1955","05","29","10:00","22.2","","15.0","","64","","20","","24","","16.1","","98.30","","26","","","","Mostly Cloudy"
"1955-05-29 11:00","1955","05","29","11:00","22.8","","13.9","","57","","20","","32","","24.1","","98.29","","26","","","","Mostly Cloudy"
"1955-05-29 12:00","1955","05","29","12:00","23.3","","11.1","","46","","20","","40","","24.1","","98.24","","25","","","","Mostly Cloudy"
"1955-05-29 13:00","1955","05","29","13:00","23.3","","9.4","","41","","20","","40","","24.1","","98.23","","","","","","Mainly Clear"
"1955-05-29 14:00","1955","05","29","14:00","21.7","","11.7","","53","","23","","24","","24.1","","98.23","","","","","","Mostly Cloudy"
"1955-05-29 15:00","1955","05","29","15:00","20.6","","11.7","","57","","23","","29","","24.1","","98.26","","","","","","Mostly Cloudy"
"1955-05-29 16:00","1955","05","29","16:00","20.6","","11.7","","57","","25","","32","","24.1","","98.25","","","","","","Mostly Cloudy"
"1955-05-29 17:00","1955","05","29","17:00","21.1","","11.1","","53","","27","","29","","24.1","","98.25","","","","","","Mostly Cloudy"
"1955-05-29 18:00","1955","05","29","18:00","20.0","","11.7","","59","","25","","16","","24.1","","98.25","","","","","","Mostly Cloudy"
"1955-05-29 19:00","1955","05","29","19:00","18.9","","10.6","","58","","27","","29","","24.1","","98.32","","","","","","Mostly Cloudy"
"1955-05-29 20:00","1955","05","29","20:00","17.2","","10.0","","63","","27","","19","","24.1","","98.40","","","","","","Mostly Cloudy"
"1955-05-29 21:00","1955","05","29","21:00","16.7","","10.0","","65","","25","","26","","24.1","","98.47","","","","","","Cloudy"
"1955-05-29 22:00","1955","05","29","22:00","16.1","","10.6","","70","","25","","24","","24.1","","98.46","","","","","","Cloudy"
"1955-05-29 23:00","1955","05","29","23:00","15.6","","10.6","","72","","25","","26","","24.1","","98.45","","","","","","Cloudy"
"1955-05-30 00:00","1955","05","30","00:00","15.6","","11.7","","78","","25","","19","","24.1","","98.42","","","","","","Cloudy"
"1955-05-30 01:00","1955","05","30","01:00","15.0","","10.0","","72","","25","","19","","24.1","","98.40","","","","","","Cloudy"
"1955-05-30 02:00","1955","05","30","02:00","13.9","","10.0","","77","","25","","16","","24.1","","98.40","","","","","","Cloudy"
"1955-05-30 03:00","1955","05","30","03:00","13.3","","10.6","","83","","25","","13","","24.1","","98.38","","","","","","Cloudy"
"1955-05-30 04:00","1955","05","30","04:00","13.3","","10.6","","83","","23","","16","","24.1","","98.42","","","","","","Cloudy"
"1955-05-30 05:00","1955","05","30","05:00","13.3","","10.6","","83","","23","","11","","24.1","","98.47","","","","","","Cloudy"
"1955-05-30 06:00","1955","05","30","06:00","13.3","","10.6","","83","","25","","11","","24.1","","98.53","","","","","","Cloudy"
"1955-05-30 07:00","1955","05","30","07:00","13.9","","11.1","","83","","25","","16","","24.1","","98.59","","","","","","Mostly Cloudy"
"1955-05-30 08:00","1955","05","30","08:00","14.4","","10.6","","78","","25","","19","","25.0","","98.61","","","","","","Mostly Cloudy"
"1955-05-30 09:00","1955","05","30","09:00","15.6","","10.0","","70","","27","","23","","25.0","","98.65","","","","","","Mostly Cloudy"
"1955-05-30 10:00","1955","05","30","10:00","16.7","","10.0","","65","","25","","23","","25.0","","98.67","","","","","","Mostly Cloudy"
"1955-05-30 11:00","1955","05","30","11:00","17.8","","10.6","","63","","23","","16","","25.0","","98.67","","","","","","Mostly Cloudy"
"1955-05-30 12:00","1955","05","30","12:00","16.7","","12.2","","75","","27","","23","","25.0","","98.69","","","","","","Rain Showers"
"1955-05-30 13:00","1955","05","30","13:00","16.7","","11.7","","72","","36","","16","","25.0","","98.73","","","","","","Rain Showers"
"1955-05-30 14:00","1955","05","30","14:00","15.0","","12.8","","87","","2","","13","","19.3","","98.80","","","","","","Rain Showers"
"1955-05-30 15:00","1955","05","30","15:00","15.6","","12.2","","81","","5","","21","","25.0","","98.86","","","","","","Cloudy"
"1955-05-30 16:00","1955","05","30","16:00","15.6","","11.1","","75","","36","","13","","25.0","","98.91","","","","","","Cloudy"
"1955-05-30 17:00","1955","05","30","17:00","13.9","","11.1","","83","","36","","11","","25.0","","98.97","","","","","","Cloudy"
"1955-05-30 18:00","1955","05","30","18:00","13.3","","10.0","","80","","36","","16","","19.3","","99.02","","","","","","Cloudy"
"1955-05-30 19:00","1955","05","30","19:00","12.2","","9.4","","83","","36","","11","","19.3","","99.10","","","","","","Cloudy"
"1955-05-30 20:00","1955","05","30","20:00","12.2","","9.4","","83","","32","","14","","25.0","","99.14","","","","","","Cloudy"
"1955-05-30 21:00","1955","05","30","21:00","12.2","","9.4","","83","","34","","13","","25.0","","99.22","","","","","","Cloudy"
"1955-05-30 22:00","1955","05","30","22:00","12.2","","9.4","","83","","34","","6","","25.0","","99.24","","","","","","Cloudy"
"1955-05-30 23:00","1955","05","30","23:00","11.7","","8.3","","80","","32","","8","","25.0","","99.23","","","","","","Cloudy"
"1955-05-31 00:00","1955","05","31","00:00","11.7","","8.9","","83","","32","","11","","25.0","","99.25","","","","","","Cloudy"
"1955-05-31 01:00","1955","05","31","01:00","11.7","","9.4","","90","","34","","8","","25.0","","99.25","","","","","","Mostly Cloudy"
"1955-05-31 02:00","1955","05","31","02:00","11.1","","9.4","","90","","32","","11","","25.0","","99.26","","","","","","Mostly Cloudy"
"1955-05-31 03:00","1955","05","31","03:00","11.1","","9.4","","90","","32","","10","","25.0","","99.29","","","","","","Mostly Cloudy"
"1955-05-31 04:00","1955","05","31","04:00","10.6","","8.9","","89","","29","","11","","25.0","","99.33","","","","","","Mostly Cloudy"
"1955-05-31 05:00","1955","05","31","05:00","10.6","","8.9","","89","","29","","11","","25.0","","99.39","","","","","","Mostly Cloudy"
"1955-05-31 06:00","1955","05","31","06:00","11.7","","8.9","","83","","27","","8","","24.1","","99.43","","","","","","Mostly Cloudy"
"1955-05-31 07:00","1955","05","31","07:00","12.2","","8.9","","80","","27","","11","","24.1","","99.45","","","","","","Mostly Cloudy"
"1955-05-31 08:00","1955","05","31","08:00","15.0","","7.2","","60","","32","","23","","24.1","","99.50","","","","","","Mostly Cloudy"
"1955-05-31 09:00","1955","05","31","09:00","15.6","","7.8","","60","","32","","29","","25.0","","99.50","","","","","","Mostly Cloudy"
"1955-05-31 10:00","1955","05","31","10:00","15.6","","7.8","","60","","32","","29","","25.0","","99.52","","","","","","Mostly Cloudy"
"1955-05-31 11:00","1955","05","31","11:00","15.6","","6.1","","53","","34","","24","","25.0","","99.52","","","","","","Mostly Cloudy"
"1955-05-31 12:00","1955","05","31","12:00","15.0","","6.7","","57","","32","","29","","25.0","","99.52","","","","","","Mostly Cloudy"
"1955-05-31 13:00","1955","05","31","13:00","15.0","","7.2","","60","","34","","29","","32.2","","99.55","","","","","","Mostly Cloudy"
"1955-05-31 14:00","1955","05","31","14:00","15.0","","7.2","","60","","36","","26","","25.0","","99.56","","","","","","Cloudy"
"1955-05-31 15:00","1955","05","31","15:00","16.1","","6.7","","53","","34","","29","","25.0","","99.53","","","","","","Mostly Cloudy"
"1955-05-31 16:00","1955","05","31","16:00","15.6","","6.7","","55","","36","","32","","25.0","","99.55","","","","","","Mostly Cloudy"
"1955-05-31 17:00","1955","05","31","17:00","15.6","","6.1","","53","","34","","24","","25.0","","99.59","","","","","","Cloudy"
"1955-05-31 18:00","1955","05","31","18:00","15.0","","5.0","","51","","36","","16","","25.0","","99.60","","","","","","Cloudy"
"1955-05-31 19:00","1955","05","31","19:00","14.4","","5.6","","55","","32","","16","","25.0","","99.61","","","","","","Cloudy"
"1955-05-31 20:00","1955","05","31","20:00","14.4","","5.6","","55","","29","","10","","25.0","","99.63","","","","","","Cloudy"
"1955-05-31 21:00","1955","05","31","21:00","12.8","","6.1","","64","","34","","16","","25.0","","99.66","","","","","","Mostly Cloudy"
"1955-05-31 22:00","1955","05","31","22:00","12.2","","6.1","","66","","34","","19","","25.0","","99.70","","","","","","Mainly Clear"
"1955-05-31 23:00","1955","05","31","23:00","10.0","","6.7","","80","","34","","13","","25.0","","99.75","","","","","","Mainly Clear"
