"Station Name","TORONTO LESTER B. PEARSON INT'L A"
"Province","ONTARIO"
"Latitude","43.68"
"Longitude","-79.63"
"Elevation","173.40"
"Climate Identifier","6158733"
"WMO Identifier","71624"
"TC Identifier","YYZ"
"All times are specified in Local Standard Time (LST). Add 1 hour to adjust for Daylight Saving Time where and when it is observed."

"Legend"
"E","Estimated"
"M","Missing"
"NA","Not Available"

"Date/Time","Year","Month","Day","Time","Temp (°C)","Temp Flag","Dew Point Temp (°C)","Dew Point Temp Flag","Rel Hum (%)","Rel Hum Flag","Wind Dir (10s deg)","Wind Dir Flag","Wind Spd (km/h)","Wind Spd Flag","Visibility (km)","Visibility Flag","Stn Press (kPa)","Stn Press Flag","Hmdx","Hmdx Flag","Wind Chill","Wind Chill Flag","Weather"
"1954-01-01 00:00","1954","01","01","00:00","-8.3","","-11.1","","80","","14","","16","","2.4","","98.79","","","","-15","","Snow Showers"
"1954-01-01 01:00","1954","01","01","01:00","-8.3","","-11.7","","77","","14","","13","","1.6","","98.61","","","","-14","","Snow"
"1954-01-01 02:00","1954","01","01","02:00","-5.0","","-6.1","","92","","14","","16","","1.6","","98.44","","","","-11","","Snow"
"1954-01-01 03:00","1954","01","01","03:00","-3.3","","-5.0","","88","","14","","26","","1.6","","98.25","","","","-10","","Snow"
"1954-01-01 04:00","1954","01","01","04:00","-1.7","","-2.8","","92","","16","","26","","8.0","","98.05","","","","-8","","Snow"
"1954-01-01 05:00","1954","01","01","05:00","-1.7","","-2.8","","92","","18","","13","","12.9","","97.91","","","","-6","","Snow"
"1954-01-01 06:00","1954","01","01","06:00","-1.1","","-2.2","","92","","20","","16","","24.1","","97.83","","","","-6","","Cloudy"
"1954-01-01 07:00","1954","01","01","07:00","0.0","","-2.8","","82","","27","","32","","24.1","","97.85","","","","-7","","Cloudy"
"1954-01-01 08:00","1954","01","01","08:00","1.1","","-1.7","","82","","29","","29","","24.1","","97.94","","","","","","Cloudy"
"1954-01-01 09:00","1954","01","01","09:00","1.7","","-1.7","","78","","29","","55","","24.1","","98.05","","","","","","Snow Showers"
"1954-01-01 10:00","1954","01","01","10:00","1.1","","-2.8","","75","","29","","51","","25.0","","98.18","","","","","","Mostly Cloudy"
"1954-01-01 11:00","1954","01","01","11:00","2.2","","-2.8","","69","","29","","47","","25.0","","98.22","","","","","","Mainly Clear"
"1954-01-01 12:00","1954","01","01","12:00","1.7","","-3.3","","69","","29","","51","","25.0","","98.30","","","","","","Mainly Clear"
"1954-01-01 13:00","1954","01","01","13:00","2.2","","-1.7","","75","","29","","55","","25.0","","98.38","","","","","","Mainly Clear"
"1954-01-01 14:00","1954","01","01","14:00","0.6","","-3.3","","75","","32","","58","","25.0","","98.66","","","","","","Mainly Clear"
"1954-01-01 15:00","1954","01","01","15:00","-0.6","","-5.6","","69","","29","","56","","25.0","","98.87","","","","-9","","Mainly Clear"
"1954-01-01 16:00","1954","01","01","16:00","-1.7","","-6.1","","75","","29","","45","","25.0","","99.08","","","","-10","","Mainly Clear"
"1954-01-01 17:00","1954","01","01","17:00","-3.3","","-6.1","","81","","29","","31","","25.0","","99.26","","","","-11","","Mainly Clear"
"1954-01-01 18:00","1954","01","01","18:00","-3.9","","-6.7","","81","","27","","21","","25.0","","99.40","","","","-10","","Mainly Clear"
"1954-01-01 19:00","1954","01","01","19:00","-3.3","","-5.6","","85","","27","","21","","25.0","","99.50","","","","-10","","Mostly Cloudy"
"1954-01-01 20:00","1954","01","01","20:00","-3.3","","-6.1","","81","","29","","14","","25.0","","99.64","","","","-8","","Mostly Cloudy"
"1954-01-01 21:00","1954","01","01","21:00","-3.3","","-7.8","","71","","32","","24","","25.0","","99.72","","","","-10","","Mainly Clear"
"1954-01-01 22:00","1954","01","01","22:00","-4.4","","-7.8","","78","","34","","14","","25.0","","99.74","","","","-10","","Mainly Clear"
"1954-01-01 23:00","1954","01","01","23:00","-4.4","","-8.3","","74","","32","","16","","25.0","","99.75","","","","-10","","Mainly Clear"
"1954-01-02 00:00","1954","01","02","00:00","-6.7","","-9.4","","81","","27","","10","","25.0","","99.84","","","","-11","","Mainly Clear"
"1954-01-02 01:00","1954","01","02","01:00","-5.6","","-8.9","","77","","27","","10","","25.0","","99.80","","","","-10","","Mainly Clear"
"1954-01-02 02:00","1954","01","02","02:00","-6.1","","-8.9","","81","","9","","8","","25.0","","99.82","","","","-10","","Clear"
"1954-01-02 03:00","1954","01","02","03:00","-6.1","","-8.9","","81","","9","","11","","25.0","","99.83","","","","-11","","Mostly Cloudy"
"1954-01-02 04:00","1954","01","02","04:00","-5.6","","-8.3","","81","","9","","11","","24.1","","99.70","","","","-10","","Snow Showers"
"1954-01-02 05:00","1954","01","02","05:00","-5.6","","-8.3","","81","","5","","23","","25.0","","99.63","","","","-13","","Cloudy"
"1954-01-02 06:00","1954","01","02","06:00","-5.6","","-8.3","","81","","9","","13","","25.0","","99.69","","","","-11","","Cloudy"
"1954-01-02 07:00","1954","01","02","07:00","-5.0","","-7.2","","84","","7","","16","","25.0","","99.61","","","","-11","","Cloudy"
"1954-01-02 08:00","1954","01","02","08:00","-1.7","","-6.1","","72","","14","","29","","25.0","","99.53","","","","-9","","Cloudy"
"1954-01-02 09:00","1954","01","02","09:00","-1.1","","-5.6","","72","","11","","32","","24.1","","99.40","","","","-8","","Cloudy"
"1954-01-02 10:00","1954","01","02","10:00","-0.6","","-3.9","","78","","11","","32","","19.3","","99.27","","","","-7","","Mostly Cloudy"
"1954-01-02 11:00","1954","01","02","11:00","0.6","","-2.8","","78","","11","","35","","19.3","","99.10","","","","","","Cloudy"
"1954-01-02 12:00","1954","01","02","12:00","1.1","","-2.8","","75","","14","","32","","19.3","","98.93","","","","","","Cloudy"
"1954-01-02 13:00","1954","01","02","13:00","1.7","","-1.7","","78","","14","","26","","16.1","","98.81","","","","","","Cloudy"
"1954-01-02 14:00","1954","01","02","14:00","2.2","","-1.7","","75","","14","","24","","14.5","","98.72","","","","","","Cloudy"
"1954-01-02 15:00","1954","01","02","15:00","2.8","","-1.1","","75","","14","","23","","14.5","","98.66","","","","","","Cloudy"
"1954-01-02 16:00","1954","01","02","16:00","2.8","","-0.6","","79","","14","","21","","12.9","","98.57","","","","","","Mostly Cloudy"
"1954-01-02 17:00","1954","01","02","17:00","2.2","","-0.6","","82","","14","","19","","8.0","","98.56","","","","","","Smoke,Haze"
"1954-01-02 18:00","1954","01","02","18:00","2.2","","0.0","","85","","14","","19","","9.7","","98.56","","","","","","Haze"
"1954-01-02 19:00","1954","01","02","19:00","3.9","","-0.6","","73","","16","","14","","9.7","","98.56","","","","","","Haze"
"1954-01-02 20:00","1954","01","02","20:00","4.4","","-0.6","","70","","16","","18","","24.1","","98.51","","","","","","Cloudy"
"1954-01-02 21:00","1954","01","02","21:00","5.0","","-0.6","","67","","18","","21","","24.1","","98.46","","","","","","Cloudy"
"1954-01-02 22:00","1954","01","02","22:00","4.4","","0.0","","73","","18","","16","","25.0","","98.44","","","","","","Cloudy"
"1954-01-02 23:00","1954","01","02","23:00","3.9","","-1.7","","67","","5","","8","","25.0","","98.44","","","","","","Cloudy"
"1954-01-03 00:00","1954","01","03","00:00","2.8","","-1.1","","75","","18","","3","","25.0","","98.43","","","","","","Cloudy"
"1954-01-03 01:00","1954","01","03","01:00","5.0","","-1.7","","62","","18","","3","","25.0","","98.40","","","","","","Cloudy"
"1954-01-03 02:00","1954","01","03","02:00","2.2","","-2.2","","72","","23","","6","","25.0","","98.40","","","","","","Mostly Cloudy"
"1954-01-03 03:00","1954","01","03","03:00","2.2","","-1.1","","78","","18","","6","","25.0","","98.47","","","","","","Cloudy"
"1954-01-03 04:00","1954","01","03","04:00","2.2","","-0.6","","82","","32","","3","","25.0","","98.44","","","","","","Cloudy"
"1954-01-03 05:00","1954","01","03","05:00","2.8","","-1.1","","75","","32","","6","","25.0","","98.48","","","","","","Cloudy"
"1954-01-03 06:00","1954","01","03","06:00","2.2","","0.0","","85","","34","","11","","19.3","","98.61","","","","","","Rain Showers"
"1954-01-03 07:00","1954","01","03","07:00","2.2","","1.1","","92","","34","","29","","16.1","","98.63","","","","","","Rain Showers"
"1954-01-03 08:00","1954","01","03","08:00","-1.1","","-2.8","","88","","36","","35","","11.3","","99.00","","","","-8","","Cloudy"
"1954-01-03 09:00","1954","01","03","09:00","-4.4","","-6.7","","84","","36","","42","","16.1","","99.28","","","","-13","","Mostly Cloudy"
"1954-01-03 10:00","1954","01","03","10:00","-6.1","","-10.0","","74","","36","","42","","16.1","","99.47","","","","-16","","Mostly Cloudy"
"1954-01-03 11:00","1954","01","03","11:00","-7.2","","-10.0","","81","","36","","39","","25.0","","99.61","","","","-17","","Mostly Cloudy"
"1954-01-03 12:00","1954","01","03","12:00","-5.6","","-8.3","","81","","36","","29","","25.0","","99.67","","","","-14","","Mainly Clear"
"1954-01-03 13:00","1954","01","03","13:00","-5.0","","-8.3","","77","","36","","32","","25.0","","99.70","","","","-13","","Mainly Clear"
"1954-01-03 14:00","1954","01","03","14:00","-5.0","","-7.2","","84","","36","","32","","25.0","","99.83","","","","-13","","Clear"
"1954-01-03 15:00","1954","01","03","15:00","-4.4","","-7.2","","81","","36","","35","","25.0","","100.01","","","","-13","","Clear"
"1954-01-03 16:00","1954","01","03","16:00","-5.6","","-9.4","","74","","36","","32","","25.0","","100.15","","","","-14","","Mainly Clear"
"1954-01-03 17:00","1954","01","03","17:00","-5.6","","-10.0","","71","","36","","23","","25.0","","100.26","","","","-13","","Mainly Clear"
"1954-01-03 18:00","1954","01","03","18:00","-6.1","","-10.6","","71","","36","","19","","25.0","","100.37","","","","-13","","Mainly Clear"
"1954-01-03 19:00","1954","01","03","19:00","-6.7","","-8.9","","84","","36","","23","","25.0","","100.49","","","","-14","","Mainly Clear"
"1954-01-03 20:00","1954","01","03","20:00","-6.7","","-8.9","","84","","36","","19","","25.0","","100.56","","","","-14","","Mainly Clear"
"1954-01-03 21:00","1954","01","03","21:00","-7.2","","-10.0","","81","","36","","16","","25.0","","100.57","","","","-14","","Mainly Clear"
"1954-01-03 22:00","1954","01","03","22:00","-8.3","","-12.8","","70","","36","","18","","25.0","","100.56","","","","-15","","Clear"
"1954-01-03 23:00","1954","01","03","23:00","-8.9","","-12.2","","77","","34","","18","","25.0","","100.59","","","","-16","","Clear"
"1954-01-04 00:00","1954","01","04","00:00","-9.4","","-13.9","","70","","36","","13","","25.0","","100.52","","","","-15","","Clear"
"1954-01-04 01:00","1954","01","04","01:00","-10.0","","-13.3","","77","","36","","13","","25.0","","100.59","","","","-16","","Clear"
"1954-01-04 02:00","1954","01","04","02:00","-10.6","","-13.3","","80","","36","","18","","25.0","","100.57","","","","-18","","Clear"
"1954-01-04 03:00","1954","01","04","03:00","-11.1","","-13.9","","80","","36","","10","","25.0","","100.59","","","","-17","","Clear"
"1954-01-04 04:00","1954","01","04","04:00","-11.7","","-14.4","","80","","32","","18","","25.0","","100.62","","","","-20","","Clear"
"1954-01-04 05:00","1954","01","04","05:00","-11.7","","-13.9","","84","","34","","13","","25.0","","100.61","","","","-18","","Clear"
"1954-01-04 06:00","1954","01","04","06:00","-11.7","","-13.9","","84","","34","","14","","25.0","","100.66","","","","-19","","Clear"
"1954-01-04 07:00","1954","01","04","07:00","-11.7","","-13.9","","84","","36","","16","","25.0","","100.63","","","","-19","","Clear"
"1954-01-04 08:00","1954","01","04","08:00","-11.7","","-13.9","","84","","36","","10","","25.0","","100.58","","","","-17","","Mostly Cloudy"
"1954-01-04 09:00","1954","01","04","09:00","-10.0","","-13.3","","77","","34","","8","","25.0","","100.54","","","","-14","","Cloudy"
"1954-01-04 10:00","1954","01","04","10:00","-8.3","","-11.7","","77","","5","","8","","24.1","","100.44","","","","-12","","Cloudy"
"1954-01-04 11:00","1954","01","04","11:00","-6.7","","-10.0","","77","","27","","8","","19.3","","100.39","","","","-11","","Snow Grains"
"1954-01-04 12:00","1954","01","04","12:00","-5.6","","-8.3","","81","","27","","8","","8.0","","100.30","","","","-9","","Snow Grains,Haze"
"1954-01-04 13:00","1954","01","04","13:00","-4.4","","-6.7","","84","","25","","6","","12.9","","100.23","","","","-7","","Snow Grains"
"1954-01-04 14:00","1954","01","04","14:00","-2.8","","-6.1","","78","","25","","23","","16.1","","100.12","","","","-9","","Cloudy"
"1954-01-04 15:00","1954","01","04","15:00","-2.8","","-6.1","","78","","23","","10","","16.1","","100.08","","","","-7","","Cloudy"
"1954-01-04 16:00","1954","01","04","16:00","-3.3","","-5.6","","85","","11","","13","","11.3","","100.00","","","","-8","","Cloudy"
"1954-01-04 17:00","1954","01","04","17:00","-3.3","","-6.7","","78","","9","","6","","6.4","","100.02","","","","-6","","Haze"
"1954-01-04 18:00","1954","01","04","18:00","-3.3","","-6.1","","81","","11","","8","","6.4","","99.99","","","","-7","","Haze"
"1954-01-04 19:00","1954","01","04","19:00","-3.3","","-6.1","","81","","11","","8","","6.4","","99.96","","","","-7","","Haze"
"1954-01-04 20:00","1954","01","04","20:00","-3.3","","-5.6","","85","","11","","10","","4.8","","99.81","","","","-7","","Haze"
"1954-01-04 21:00","1954","01","04","21:00","-3.3","","-5.6","","85","","5","","10","","6.4","","99.73","","","","-7","","Haze"
"1954-01-04 22:00","1954","01","04","22:00","-3.9","","-6.1","","85","","5","","8","","8.0","","99.65","","","","-7","","Snow,Haze"
"1954-01-04 23:00","1954","01","04","23:00","-3.3","","-5.6","","85","","36","","8","","6.4","","99.62","","","","-7","","Smoke,Haze"
"1954-01-05 00:00","1954","01","05","00:00","-3.9","","-5.6","","88","","36","","11","","11.3","","99.49","","","","-8","","Cloudy"
"1954-01-05 01:00","1954","01","05","01:00","-3.9","","-5.6","","88","","36","","13","","12.9","","99.43","","","","-9","","Snow Showers"
"1954-01-05 02:00","1954","01","05","02:00","-3.9","","-5.0","","92","","2","","10","","11.3","","99.52","","","","-8","","Snow"
"1954-01-05 03:00","1954","01","05","03:00","-3.9","","-5.0","","92","","5","","13","","12.9","","99.44","","","","-9","","Snow"
"1954-01-05 04:00","1954","01","05","04:00","-3.3","","-5.0","","88","","5","","14","","12.9","","99.31","","","","-8","","Cloudy"
"1954-01-05 05:00","1954","01","05","05:00","-3.3","","-5.0","","88","","5","","16","","12.9","","99.28","","","","-9","","Cloudy"
"1954-01-05 06:00","1954","01","05","06:00","-3.9","","-5.0","","92","","5","","16","","8.0","","99.26","","","","-9","","Snow"
"1954-01-05 07:00","1954","01","05","07:00","-3.3","","-5.0","","88","","5","","18","","9.7","","99.25","","","","-9","","Snow"
"1954-01-05 08:00","1954","01","05","08:00","-3.9","","-5.0","","92","","5","","23","","6.4","","99.24","","","","-11","","Snow"
"1954-01-05 09:00","1954","01","05","09:00","-3.9","","-4.4","","96","","2","","16","","6.4","","99.25","","","","-9","","Snow"
"1954-01-05 10:00","1954","01","05","10:00","-4.4","","-5.6","","92","","2","","23","","4.8","","99.19","","","","-11","","Snow,Fog"
"1954-01-05 11:00","1954","01","05","11:00","-4.4","","-5.6","","92","","7","","19","","6.4","","99.08","","","","-11","","Snow,Fog"
"1954-01-05 12:00","1954","01","05","12:00","-3.9","","-5.0","","92","","7","","23","","6.4","","99.00","","","","-11","","Snow,Fog"
"1954-01-05 13:00","1954","01","05","13:00","-3.9","","-6.1","","85","","5","","21","","9.7","","99.03","","","","-10","","Haze"
"1954-01-05 14:00","1954","01","05","14:00","-3.9","","-5.6","","88","","5","","19","","9.7","","98.84","","","","-10","","Haze"
"1954-01-05 15:00","1954","01","05","15:00","-3.9","","-5.0","","92","","5","","19","","9.7","","98.79","","","","-10","","Haze"
"1954-01-05 16:00","1954","01","05","16:00","-3.9","","-5.6","","88","","7","","18","","11.3","","98.80","","","","-10","","Cloudy"
"1954-01-05 17:00","1954","01","05","17:00","-5.0","","-6.7","","88","","5","","18","","8.0","","98.84","","","","-11","","Haze"
"1954-01-05 18:00","1954","01","05","18:00","-5.0","","-6.7","","88","","5","","16","","11.3","","98.91","","","","-11","","Cloudy"
"1954-01-05 19:00","1954","01","05","19:00","-5.0","","-6.7","","88","","2","","13","","11.3","","98.86","","","","-10","","Cloudy"
"1954-01-05 20:00","1954","01","05","20:00","-5.6","","-7.2","","88","","36","","16","","11.3","","98.86","","","","-12","","Cloudy"
"1954-01-05 21:00","1954","01","05","21:00","-5.6","","-7.2","","88","","36","","16","","8.0","","98.83","","","","-12","","Snow Grains,Haze"
"1954-01-05 22:00","1954","01","05","22:00","-5.6","","-6.1","","96","","5","","16","","4.8","","98.78","","","","-12","","Freezing Drizzle"
"1954-01-05 23:00","1954","01","05","23:00","-5.6","","-6.7","","92","","2","","16","","4.0","","98.73","","","","-12","","Freezing Drizzle,Snow,Fog"
"1954-01-06 00:00","1954","01","06","00:00","-6.1","","-6.7","","96","","2","","19","","6.4","","98.70","","","","-13","","Freezing Drizzle,Snow,Fog"
"1954-01-06 01:00","1954","01","06","01:00","-6.1","","-7.8","","88","","36","","19","","8.0","","98.71","","","","-13","","Freezing Drizzle,Snow"
"1954-01-06 02:00","1954","01","06","02:00","-6.7","","-8.9","","84","","36","","19","","6.4","","98.75","","","","-14","","Snow"
"1954-01-06 03:00","1954","01","06","03:00","-6.7","","-8.9","","84","","36","","23","","4.0","","98.79","","","","-14","","Snow"
"1954-01-06 04:00","1954","01","06","04:00","-7.2","","-8.9","","88","","2","","23","","4.8","","98.77","","","","-15","","Snow"
"1954-01-06 05:00","1954","01","06","05:00","-7.2","","-8.9","","88","","36","","24","","4.8","","98.76","","","","-15","","Snow"
"1954-01-06 06:00","1954","01","06","06:00","-7.2","","-8.9","","88","","36","","24","","8.0","","98.76","","","","-15","","Snow"
"1954-01-06 07:00","1954","01","06","07:00","-6.7","","-8.3","","88","","36","","23","","6.4","","98.79","","","","-14","","Snow"
"1954-01-06 08:00","1954","01","06","08:00","-7.2","","-8.9","","88","","36","","19","","4.8","","98.81","","","","-14","","Snow"
"1954-01-06 09:00","1954","01","06","09:00","-6.1","","-7.8","","88","","36","","24","","8.0","","98.85","","","","-14","","Snow,Haze"
"1954-01-06 10:00","1954","01","06","10:00","-6.1","","-7.8","","88","","36","","29","","4.0","","98.88","","","","-14","","Snow,Haze"
"1954-01-06 11:00","1954","01","06","11:00","-5.6","","-7.8","","84","","36","","29","","12.9","","98.79","","","","-14","","Snow"
"1954-01-06 12:00","1954","01","06","12:00","-5.6","","-7.8","","84","","36","","29","","24.1","","98.74","","","","-14","","Snow"
"1954-01-06 13:00","1954","01","06","13:00","-4.4","","-6.7","","84","","36","","29","","24.1","","98.70","","","","-12","","Ice Pellets"
"1954-01-06 14:00","1954","01","06","14:00","-4.4","","-6.7","","84","","36","","29","","24.1","","98.75","","","","-12","","Mostly Cloudy"
"1954-01-06 15:00","1954","01","06","15:00","-4.4","","-6.1","","88","","36","","26","","24.1","","98.75","","","","-12","","Cloudy"
"1954-01-06 16:00","1954","01","06","16:00","-4.4","","-6.1","","88","","34","","32","","19.3","","98.78","","","","-12","","Snow"
"1954-01-06 17:00","1954","01","06","17:00","-4.4","","-7.2","","81","","34","","35","","24.1","","98.84","","","","-13","","Snow"
"1954-01-06 18:00","1954","01","06","18:00","-4.4","","-6.7","","84","","34","","34","","11.3","","98.86","","","","-13","","Snow"
"1954-01-06 19:00","1954","01","06","19:00","-5.0","","-6.7","","88","","34","","26","","12.9","","98.88","","","","-12","","Snow"
"1954-01-06 20:00","1954","01","06","20:00","-4.4","","-6.7","","84","","34","","24","","19.3","","98.90","","","","-11","","Snow"
"1954-01-06 21:00","1954","01","06","21:00","-4.4","","-6.7","","84","","34","","27","","19.3","","98.91","","","","-12","","Snow"
"1954-01-06 22:00","1954","01","06","22:00","-4.4","","-6.7","","84","","34","","29","","19.3","","98.91","","","","-12","","Snow"
"1954-01-06 23:00","1954","01","06","23:00","-4.4","","-5.6","","92","","34","","26","","19.3","","98.91","","","","-12","","Snow"
"1954-01-07 00:00","1954","01","07","00:00","-4.4","","-7.8","","78","","32","","29","","19.3","","98.92","","","","-12","","Snow"
"1954-01-07 01:00","1954","01","07","01:00","-4.4","","-6.1","","88","","32","","37","","19.3","","98.94","","","","-13","","Mostly Cloudy"
"1954-01-07 02:00","1954","01","07","02:00","-5.0","","-8.3","","77","","32","","39","","19.3","","99.06","","","","-14","","Cloudy"
"1954-01-07 03:00","1954","01","07","03:00","-5.6","","-7.2","","88","","32","","29","","19.3","","99.11","","","","-14","","Snow"
"1954-01-07 04:00","1954","01","07","04:00","-6.1","","-6.7","","96","","29","","29","","12.9","","99.11","","","","-14","","Snow"
"1954-01-07 05:00","1954","01","07","05:00","-8.3","","-9.4","","92","","36","","23","","12.9","","99.19","","","","-16","","Snow"
"1954-01-07 06:00","1954","01","07","06:00","-8.3","","-9.4","","92","","36","","14","","12.9","","99.24","","","","-14","","Snow"
"1954-01-07 07:00","1954","01","07","07:00","-7.8","","-10.0","","84","","34","","11","","16.1","","99.26","","","","-13","","Snow"
"1954-01-07 08:00","1954","01","07","08:00","-6.7","","-8.9","","84","","32","","35","","25.0","","99.31","","","","-16","","Mostly Cloudy"
"1954-01-07 09:00","1954","01","07","09:00","-6.1","","-9.4","","77","","29","","26","","24.1","","99.35","","","","-14","","Mostly Cloudy"
"1954-01-07 10:00","1954","01","07","10:00","-5.6","","-9.4","","74","","32","","26","","24.1","","99.40","","","","-13","","Snow"
"1954-01-07 11:00","1954","01","07","11:00","-5.6","","-7.8","","84","","32","","13","","19.3","","99.42","","","","-11","","Snow"
"1954-01-07 12:00","1954","01","07","12:00","-6.7","","-8.3","","88","","32","","29","","24.1","","99.41","","","","-15","","Mainly Clear"
"1954-01-07 13:00","1954","01","07","13:00","-6.7","","-10.6","","71","","32","","29","","25.0","","99.40","","","","-15","","Mainly Clear"
"1954-01-07 14:00","1954","01","07","14:00","-6.1","","-8.3","","84","","36","","19","","25.0","","99.49","","","","-13","","Clear"
"1954-01-07 15:00","1954","01","07","15:00","-6.7","","-8.9","","84","","36","","24","","25.0","","99.54","","","","-14","","Clear"
"1954-01-07 16:00","1954","01","07","16:00","-8.3","","-10.0","","88","","34","","29","","25.0","","99.63","","","","-17","","Mainly Clear"
"1954-01-07 17:00","1954","01","07","17:00","-8.9","","-12.2","","77","","34","","29","","25.0","","99.73","","","","-18","","Clear"
"1954-01-07 18:00","1954","01","07","18:00","-8.9","","-12.8","","73","","34","","27","","25.0","","99.80","","","","-18","","Clear"
"1954-01-07 19:00","1954","01","07","19:00","-10.0","","-12.2","","84","","34","","26","","25.0","","99.91","","","","-19","","Clear"
"1954-01-07 20:00","1954","01","07","20:00","-10.6","","-14.4","","73","","36","","27","","25.0","","100.07","","","","-20","","Clear"
"1954-01-07 21:00","1954","01","07","21:00","-12.2","","-16.1","","73","","2","","19","","25.0","","100.10","","","","-20","","Clear"
"1954-01-07 22:00","1954","01","07","22:00","-12.8","","-17.2","","69","","36","","19","","25.0","","100.18","","","","-21","","Clear"
"1954-01-07 23:00","1954","01","07","23:00","-12.8","","-17.2","","69","","34","","19","","25.0","","100.19","","","","-21","","Mainly Clear"
"1954-01-08 00:00","1954","01","08","00:00","-13.3","","-16.7","","76","","34","","19","","25.0","","100.17","","","","-22","","Mainly Clear"
"1954-01-08 01:00","1954","01","08","01:00","-13.9","","-16.7","","80","","36","","16","","25.0","","100.16","","","","-22","","Mainly Clear"
"1954-01-08 02:00","1954","01","08","02:00","-14.4","","-18.3","","72","","36","","19","","25.0","","100.32","","","","-23","","Clear"
"1954-01-08 03:00","1954","01","08","03:00","-15.0","","-17.8","","79","","36","","16","","25.0","","100.38","","","","-23","","Clear"
"1954-01-08 04:00","1954","01","08","04:00","-15.6","","-18.3","","79","","34","","16","","25.0","","100.40","","","","-24","","Clear"
"1954-01-08 05:00","1954","01","08","05:00","-16.7","","-19.4","","79","","36","","14","","25.0","","100.45","","","","-25","","Clear"
"1954-01-08 06:00","1954","01","08","06:00","-16.1","","-19.4","","75","","34","","16","","25.0","","100.52","","","","-25","","Clear"
"1954-01-08 07:00","1954","01","08","07:00","-16.7","","-20.0","","75","","34","","16","","25.0","","100.56","","","","-25","","Mainly Clear"
"1954-01-08 08:00","1954","01","08","08:00","-16.7","","-20.6","","72","","34","","16","","25.0","","100.70","","","","-25","","Mostly Cloudy"
"1954-01-08 09:00","1954","01","08","09:00","-16.1","","-21.7","","62","","34","","16","","25.0","","100.77","","","","-25","","Mostly Cloudy"
"1954-01-08 10:00","1954","01","08","10:00","-15.6","","-18.3","","79","","36","","13","","25.0","","100.82","","","","-23","","Mainly Clear"
"1954-01-08 11:00","1954","01","08","11:00","-13.9","","-18.9","","66","","34","","13","","25.0","","100.78","","","","-21","","Mainly Clear"
"1954-01-08 12:00","1954","01","08","12:00","-12.8","","-17.8","","66","","34","","16","","25.0","","100.69","","","","-20","","Mainly Clear"
"1954-01-08 13:00","1954","01","08","13:00","-12.2","","-17.8","","63","","36","","16","","25.0","","100.58","","","","-20","","Mainly Clear"
"1954-01-08 14:00","1954","01","08","14:00","-10.6","","-17.8","","55","","5","","16","","25.0","","100.53","","","","-18","","Mainly Clear"
"1954-01-08 15:00","1954","01","08","15:00","-10.0","","-17.8","","53","","7","","16","","25.0","","100.46","","","","-17","","Mostly Cloudy"
"1954-01-08 16:00","1954","01","08","16:00","-10.6","","-14.4","","73","","5","","13","","25.0","","100.51","","","","-17","","Mostly Cloudy"
"1954-01-08 17:00","1954","01","08","17:00","-11.1","","-15.6","","70","","7","","14","","25.0","","100.50","","","","-18","","Cloudy"
"1954-01-08 18:00","1954","01","08","18:00","-11.1","","-15.6","","70","","7","","16","","25.0","","100.46","","","","-18","","Cloudy"
"1954-01-08 19:00","1954","01","08","19:00","-11.1","","-15.0","","73","","7","","16","","19.3","","100.43","","","","-18","","Snow Showers"
"1954-01-08 20:00","1954","01","08","20:00","-11.1","","-14.4","","76","","7","","19","","25.0","","100.33","","","","-19","","Snow Showers"
"1954-01-08 21:00","1954","01","08","21:00","-10.0","","-13.3","","77","","7","","21","","19.3","","100.22","","","","-18","","Snow Showers"
"1954-01-08 22:00","1954","01","08","22:00","-10.0","","-13.3","","77","","7","","19","","12.9","","100.15","","","","-18","","Snow Showers"
"1954-01-08 23:00","1954","01","08","23:00","-10.0","","-11.7","","88","","7","","19","","3.2","","100.06","","","","-18","","Snow Showers"
"1954-01-09 00:00","1954","01","09","00:00","-9.4","","-11.7","","84","","7","","16","","8.0","","99.91","","","","-16","","Snow Showers"
"1954-01-09 01:00","1954","01","09","01:00","-10.0","","-11.7","","88","","7","","19","","16.1","","99.83","","","","-18","","Cloudy"
"1954-01-09 02:00","1954","01","09","02:00","-6.1","","-8.9","","81","","9","","39","","12.9","","99.56","","","","-15","","Snow"
"1954-01-09 03:00","1954","01","09","03:00","-10.6","","-11.7","","91","","7","","23","","8.0","","99.47","","","","-19","","Snow"
"1954-01-09 04:00","1954","01","09","04:00","-10.6","","-13.3","","80","","7","","16","","9.7","","99.28","","","","-18","","Snow"
"1954-01-09 05:00","1954","01","09","05:00","-10.6","","-12.2","","87","","2","","19","","4.8","","99.14","","","","-18","","Snow"
"1954-01-09 06:00","1954","01","09","06:00","-10.6","","-11.7","","91","","5","","19","","1.2","","98.98","","","","-18","","Freezing Rain,Snow Grains"
"1954-01-09 07:00","1954","01","09","07:00","-10.0","","-11.1","","92","","7","","23","","0.8","","98.92","","","","-18","","Moderate Snow Grains"
"1954-01-09 08:00","1954","01","09","08:00","-10.0","","-11.7","","88","","5","","8","","0.8","","98.86","","","","-14","","Snow Grains,Fog"
"1954-01-09 09:00","1954","01","09","09:00","-11.1","","-12.2","","91","","5","","18","","2.4","","98.80","","","","-19","","Snow,Fog"
"1954-01-09 10:00","1954","01","09","10:00","-11.7","","-13.3","","87","","5","","16","","1.6","","98.73","","","","-19","","Snow,Fog"
"1954-01-09 11:00","1954","01","09","11:00","-11.7","","-13.3","","87","","2","","16","","1.6","","98.63","","","","-19","","Snow,Fog"
"1954-01-09 12:00","1954","01","09","12:00","-11.1","","-12.2","","91","","2","","16","","4.8","","98.58","","","","-18","","Snow,Fog"
"1954-01-09 13:00","1954","01","09","13:00","-10.0","","-12.8","","80","","36","","11","","24.1","","98.55","","","","-16","","Cloudy"
"1954-01-09 14:00","1954","01","09","14:00","-11.1","","-12.2","","91","","36","","16","","16.1","","98.64","","","","-18","","Cloudy"
"1954-01-09 15:00","1954","01","09","15:00","-11.7","","-13.3","","87","","36","","16","","16.1","","98.68","","","","-19","","Cloudy"
"1954-01-09 16:00","1954","01","09","16:00","-11.7","","-15.6","","73","","34","","10","","14.5","","98.80","","","","-17","","Snow Grains"
"1954-01-09 17:00","1954","01","09","17:00","-12.2","","-15.0","","80","","36","","11","","9.7","","98.91","","","","-18","","Snow Grains"
"1954-01-09 18:00","1954","01","09","18:00","-12.2","","-13.9","","87","","36","","11","","11.3","","99.00","","","","-18","","Snow"
"1954-01-09 19:00","1954","01","09","19:00","-12.8","","-14.4","","87","","36","","23","","6.4","","99.09","","","","-22","","Snow"
"1954-01-09 20:00","1954","01","09","20:00","-12.8","","-14.4","","87","","36","","19","","6.4","","99.17","","","","-21","","Snow"
"1954-01-09 21:00","1954","01","09","21:00","-12.8","","-14.4","","87","","36","","23","","6.4","","99.28","","","","-22","","Snow"
"1954-01-09 22:00","1954","01","09","22:00","-12.2","","-14.4","","84","","36","","19","","4.8","","99.37","","","","-20","","Snow,Blowing Snow"
"1954-01-09 23:00","1954","01","09","23:00","-12.2","","-14.4","","84","","36","","19","","4.8","","99.46","","","","-20","","Snow,Blowing Snow"
"1954-01-10 00:00","1954","01","10","00:00","-13.3","","-16.1","","80","","36","","19","","12.9","","99.52","","","","-22","","Snow"
"1954-01-10 01:00","1954","01","10","01:00","-14.4","","-20.6","","60","","36","","26","","16.1","","99.64","","","","-25","","Mostly Cloudy"
"1954-01-10 02:00","1954","01","10","02:00","-15.0","","-17.8","","79","","36","","26","","12.9","","99.84","","","","-25","","Mostly Cloudy"
"1954-01-10 03:00","1954","01","10","03:00","-16.1","","-18.3","","83","","36","","21","","16.1","","100.00","","","","-26","","Cloudy"
"1954-01-10 04:00","1954","01","10","04:00","-16.7","","-18.9","","83","","36","","16","","16.1","","100.00","","","","-25","","Cloudy"
"1954-01-10 05:00","1954","01","10","05:00","-16.7","","-20.6","","72","","36","","16","","24.1","","100.07","","","","-25","","Snow"
"1954-01-10 06:00","1954","01","10","06:00","-16.7","","-20.6","","72","","36","","18","","24.1","","100.18","","","","-26","","Snow"
"1954-01-10 07:00","1954","01","10","07:00","-17.2","","-21.1","","72","","36","","13","","25.0","","100.25","","","","-25","","Cloudy"
"1954-01-10 08:00","1954","01","10","08:00","-17.8","","-24.4","","56","","2","","21","","25.0","","100.32","","","","-28","","Cloudy"
"1954-01-10 09:00","1954","01","10","09:00","-18.9","","-23.3","","65","","36","","23","","25.0","","100.41","","","","-30","","Cloudy"
"1954-01-10 10:00","1954","01","10","10:00","-19.4","","-22.2","","79","","2","","19","","25.0","","100.51","","","","-29","","Mostly Cloudy"
"1954-01-10 11:00","1954","01","10","11:00","-18.9","","-23.3","","68","","36","","19","","25.0","","100.49","","","","-29","","Mostly Cloudy"
"1954-01-10 12:00","1954","01","10","12:00","-18.9","","-24.4","","62","","36","","14","","25.0","","100.45","","","","-27","","Mostly Cloudy"
"1954-01-10 13:00","1954","01","10","13:00","-18.9","","-23.3","","68","","32","","16","","25.0","","100.43","","","","-28","","Mainly Clear"
"1954-01-10 14:00","1954","01","10","14:00","-17.8","","-23.3","","62","","36","","14","","25.0","","100.39","","","","-26","","Mainly Clear"
"1954-01-10 15:00","1954","01","10","15:00","-17.2","","-22.2","","65","","36","","14","","25.0","","100.43","","","","-25","","Mainly Clear"
"1954-01-10 16:00","1954","01","10","16:00","-17.2","","-22.2","","65","","36","","16","","25.0","","100.41","","","","-26","","Mainly Clear"
"1954-01-10 17:00","1954","01","10","17:00","-18.9","","-22.2","","75","","36","","16","","25.0","","100.37","","","","-28","","Mainly Clear"
"1954-01-10 18:00","1954","01","10","18:00","-19.4","","-22.8","","75","","36","","14","","25.0","","100.37","","","","-28","","Mainly Clear"
"1954-01-10 19:00","1954","01","10","19:00","-20.0","","-22.8","","82","","36","","11","","25.0","","100.37","","","","-28","","Mainly Clear"
"1954-01-10 20:00","1954","01","10","20:00","-20.6","","-22.8","","82","","36","","10","","25.0","","100.31","","","","-28","","Mainly Clear"
"1954-01-10 21:00","1954","01","10","21:00","-21.1","","-23.3","","78","","36","","11","","25.0","","100.31","","","","-29","","Mainly Clear"
"1954-01-10 22:00","1954","01","10","22:00","-20.6","","-22.8","","82","","36","","16","","25.0","","100.23","","","","-30","","Mostly Cloudy"
"1954-01-10 23:00","1954","01","10","23:00","-18.3","","-21.7","","75","","2","","18","","25.0","","100.20","","","","-28","","Snow Showers"
"1954-01-11 00:00","1954","01","11","00:00","-16.7","","-21.1","","72","","5","","21","","25.0","","100.03","","","","-27","","Snow Showers"
"1954-01-11 01:00","1954","01","11","01:00","-17.2","","-20.6","","75","","5","","23","","25.0","","99.94","","","","-28","","Snow Showers"
"1954-01-11 02:00","1954","01","11","02:00","-17.8","","-20.0","","83","","5","","24","","25.0","","99.91","","","","-29","","Snow Showers"
"1954-01-11 03:00","1954","01","11","03:00","-17.8","","-20.0","","83","","5","","21","","24.1","","99.88","","","","-28","","Snow Showers"
"1954-01-11 04:00","1954","01","11","04:00","-17.8","","-23.3","","62","","5","","21","","24.1","","99.80","","","","-28","","Snow Showers"
"1954-01-11 05:00","1954","01","11","05:00","-17.2","","-22.2","","65","","5","","21","","24.1","","99.71","","","","-27","","Snow Showers"
"1954-01-11 06:00","1954","01","11","06:00","-16.7","","-21.1","","68","","5","","19","","16.1","","99.70","","","","-26","","Snow"
"1954-01-11 07:00","1954","01","11","07:00","-17.2","","-21.1","","72","","5","","21","","16.1","","99.71","","","","-27","","Snow"
"1954-01-11 08:00","1954","01","11","08:00","-17.8","","-24.4","","56","","5","","19","","8.0","","99.68","","","","-27","","Snow"
"1954-01-11 09:00","1954","01","11","09:00","-17.2","","-20.0","","79","","5","","21","","8.0","","99.67","","","","-27","","Snow"
"1954-01-11 10:00","1954","01","11","10:00","-16.1","","-20.0","","72","","5","","23","","24.1","","99.63","","","","-26","","Mostly Cloudy"
"1954-01-11 11:00","1954","01","11","11:00","-16.1","","-18.9","","79","","5","","23","","24.1","","99.53","","","","-26","","Cloudy"
"1954-01-11 12:00","1954","01","11","12:00","-15.6","","-17.8","","79","","5","","19","","25.0","","99.36","","","","-25","","Cloudy"
"1954-01-11 13:00","1954","01","11","13:00","-14.4","","-16.7","","83","","5","","19","","24.1","","99.26","","","","-23","","Cloudy"
"1954-01-11 14:00","1954","01","11","14:00","-12.2","","-15.0","","80","","5","","26","","11.3","","99.13","","","","-22","","Snow"
"1954-01-11 15:00","1954","01","11","15:00","-13.3","","-15.0","","87","","5","","19","","3.2","","99.07","","","","-22","","Snow"
"1954-01-11 16:00","1954","01","11","16:00","-12.8","","-13.3","","96","","36","","19","","1.6","","99.08","","","","-21","","Snow"
"1954-01-11 17:00","1954","01","11","17:00","-13.3","","-14.4","","91","","5","","16","","2.0","","99.05","","","","-21","","Snow"
"1954-01-11 18:00","1954","01","11","18:00","-13.9","","-16.7","","80","","2","","16","","16.1","","99.02","","","","-22","","Snow"
"1954-01-11 19:00","1954","01","11","19:00","-14.4","","-16.7","","83","","36","","19","","25.0","","99.01","","","","-23","","Cloudy"
"1954-01-11 20:00","1954","01","11","20:00","-14.4","","-16.7","","87","","36","","19","","25.0","","99.01","","","","-23","","Cloudy"
"1954-01-11 21:00","1954","01","11","21:00","-13.9","","-16.1","","83","","36","","16","","25.0","","99.03","","","","-22","","Snow"
"1954-01-11 22:00","1954","01","11","22:00","-14.4","","-15.0","","96","","36","","16","","4.8","","99.02","","","","-22","","Snow"
"1954-01-11 23:00","1954","01","11","23:00","-15.0","","-16.1","","91","","36","","19","","4.0","","98.92","","","","-24","","Snow"
"1954-01-12 00:00","1954","01","12","00:00","-15.6","","-16.1","","95","","36","","14","","2.8","","98.84","","","","-23","","Ice Crystals"
"1954-01-12 01:00","1954","01","12","01:00","-16.1","","-16.7","","95","","36","","23","","2.8","","98.82","","","","-26","","Ice Crystals"
"1954-01-12 02:00","1954","01","12","02:00","-17.2","","-18.9","","87","","36","","21","","25.0","","98.85","","","","-27","","Clear"
"1954-01-12 03:00","1954","01","12","03:00","-17.2","","-19.4","","83","","36","","24","","25.0","","98.86","","","","-28","","Ice Crystals"
"1954-01-12 04:00","1954","01","12","04:00","-17.8","","-19.4","","87","","36","","16","","25.0","","98.90","","","","-27","","Cloudy"
"1954-01-12 05:00","1954","01","12","05:00","-17.8","","-18.9","","91","","36","","29","","25.0","","98.92","","","","-30","","Ice Crystals"
"1954-01-12 06:00","1954","01","12","06:00","-18.3","","-20.6","","83","","36","","23","","25.0","","98.96","","","","-29","","Ice Crystals"
"1954-01-12 07:00","1954","01","12","07:00","-18.9","","-21.1","","72","","36","","23","","25.0","","98.99","","","","-30","","Mainly Clear"
"1954-01-12 08:00","1954","01","12","08:00","-18.9","","-21.1","","83","","36","","24","","25.0","","99.05","","","","-30","","Mostly Cloudy"
"1954-01-12 09:00","1954","01","12","09:00","-17.8","","-22.2","","68","","34","","29","","24.1","","99.14","","","","-30","","Mostly Cloudy"
"1954-01-12 10:00","1954","01","12","10:00","-17.2","","-20.0","","79","","34","","29","","24.1","","99.26","","","","-29","","Mostly Cloudy"
"1954-01-12 11:00","1954","01","12","11:00","-15.6","","-19.4","","72","","34","","27","","25.0","","99.31","","","","-26","","Mostly Cloudy"
"1954-01-12 12:00","1954","01","12","12:00","-13.3","","-15.6","","83","","34","","39","","16.1","","99.29","","","","-25","","Mostly Cloudy"
"1954-01-12 13:00","1954","01","12","13:00","-12.8","","-14.4","","87","","32","","45","","16.1","","99.33","","","","-25","","Cloudy"
"1954-01-12 14:00","1954","01","12","14:00","-12.2","","-13.9","","87","","34","","23","","16.1","","99.42","","","","-21","","Mostly Cloudy"
"1954-01-12 15:00","1954","01","12","15:00","-12.2","","-13.9","","87","","34","","29","","16.1","","99.57","","","","-22","","Mostly Cloudy"
"1954-01-12 16:00","1954","01","12","16:00","-12.8","","-14.4","","87","","34","","39","","16.1","","99.77","","","","-24","","Mostly Cloudy"
"1954-01-12 17:00","1954","01","12","17:00","-12.8","","-14.4","","87","","34","","32","","12.9","","99.88","","","","-23","","Mostly Cloudy"
"1954-01-12 18:00","1954","01","12","18:00","-13.9","","-16.1","","83","","32","","24","","25.0","","100.02","","","","-24","","Mainly Clear"
"1954-01-12 19:00","1954","01","12","19:00","-14.4","","-16.7","","83","","32","","19","","25.0","","100.12","","","","-23","","Mainly Clear"
"1954-01-12 20:00","1954","01","12","20:00","-14.4","","-16.7","","83","","34","","23","","25.0","","100.24","","","","-24","","Mainly Clear"
"1954-01-12 21:00","1954","01","12","21:00","-14.4","","-18.3","","72","","36","","11","","25.0","","100.34","","","","-21","","Mainly Clear"
"1954-01-12 22:00","1954","01","12","22:00","-18.3","","-20.0","","87","","2","","8","","25.0","","100.36","","","","-24","","Mainly Clear"
"1954-01-12 23:00","1954","01","12","23:00","-17.2","","-18.3","","95","","36","","13","","25.0","","100.45","","","","-25","","Mainly Clear"
"1954-01-13 00:00","1954","01","13","00:00","-16.1","","-17.8","","87","","34","","8","","25.0","","100.47","","","","-22","","Mostly Cloudy"
"1954-01-13 01:00","1954","01","13","01:00","-16.7","","-20.0","","75","","34","","6","","25.0","","100.49","","","","-21","","Mainly Clear"
"1954-01-13 02:00","1954","01","13","02:00","-17.8","","-19.4","","87","","34","","10","","25.0","","100.55","","","","-25","","Clear"
"1954-01-13 03:00","1954","01","13","03:00","-18.3","","-20.6","","83","","34","","10","","25.0","","100.62","","","","-25","","Clear"
"1954-01-13 04:00","1954","01","13","04:00","-20.0","","-21.7","","87","","36","","13","","25.0","","100.66","","","","-28","","Clear"
"1954-01-13 05:00","1954","01","13","05:00","-20.0","","-20.6","","95","","36","","19","","25.0","","100.70","","","","-30","","Clear"
"1954-01-13 06:00","1954","01","13","06:00","-20.6","","-21.7","","91","","25","","8","","25.0","","100.81","","","","-27","","Mainly Clear"
"1954-01-13 07:00","1954","01","13","07:00","-18.3","","-20.0","","87","","25","","5","","25.0","","100.85","","","","-22","","Mostly Cloudy"
"1954-01-13 08:00","1954","01","13","08:00","-15.0","","-16.7","","87","","25","","10","","19.3","","100.91","","","","-21","","Cloudy"
"1954-01-13 09:00","1954","01","13","09:00","-13.9","","-15.6","","87","","25","","14","","25.0","","100.94","","","","-21","","Mostly Cloudy"
"1954-01-13 10:00","1954","01","13","10:00","-12.2","","-15.6","","76","","23","","19","","25.0","","100.94","","","","-20","","Mainly Clear"
"1954-01-13 11:00","1954","01","13","11:00","-10.6","","-13.3","","80","","23","","24","","25.0","","100.94","","","","-19","","Mainly Clear"
"1954-01-13 12:00","1954","01","13","12:00","-8.9","","-11.7","","80","","23","","26","","25.0","","100.86","","","","-18","","Mainly Clear"
"1954-01-13 13:00","1954","01","13","13:00","-7.8","","-11.7","","74","","23","","29","","25.0","","100.80","","","","-17","","Mainly Clear"
"1954-01-13 14:00","1954","01","13","14:00","-7.8","","-10.0","","84","","23","","29","","25.0","","100.81","","","","-17","","Mainly Clear"
"1954-01-13 15:00","1954","01","13","15:00","-8.3","","-9.4","","92","","23","","26","","25.0","","100.82","","","","-17","","Mainly Clear"
"1954-01-13 16:00","1954","01","13","16:00","-8.9","","-11.1","","84","","23","","19","","25.0","","100.84","","","","-16","","Mainly Clear"
"1954-01-13 17:00","1954","01","13","17:00","-10.6","","-12.2","","87","","23","","14","","25.0","","100.86","","","","-17","","Mainly Clear"
"1954-01-13 18:00","1954","01","13","18:00","-11.1","","-12.2","","91","","23","","10","","25.0","","100.88","","","","-17","","Mainly Clear"
"1954-01-13 19:00","1954","01","13","19:00","-12.2","","-13.9","","87","","23","","3","","25.0","","100.85","","","","-14","","Mainly Clear"
"1954-01-13 20:00","1954","01","13","20:00","-14.4","","-16.1","","87","","18","","3","","25.0","","100.80","","","","-17","","Mostly Cloudy"
"1954-01-13 21:00","1954","01","13","21:00","-15.0","","-15.6","","95","","18","","3","","25.0","","100.79","","","","-17","","Snow"
"1954-01-13 22:00","1954","01","13","22:00","-13.3","","-15.0","","87","","18","","3","","25.0","","100.76","","","","-15","","Snow"
"1954-01-13 23:00","1954","01","13","23:00","-14.4","","-17.2","","79","","","","0","","16.1","","100.70","","","","","","Snow"
"1954-01-14 00:00","1954","01","14","00:00","-16.1","","-18.3","","83","","18","","3","","24.1","","100.62","","","","-18","","Mostly Cloudy"
"1954-01-14 01:00","1954","01","14","01:00","-16.1","","-17.8","","87","","14","","2","","16.1","","100.56","","","","-18","","Mainly Clear"
"1954-01-14 02:00","1954","01","14","02:00","-16.1","","-17.2","","91","","","","0","","12.9","","100.56","","","","","","Mostly Cloudy"
"1954-01-14 03:00","1954","01","14","03:00","-13.9","","-15.6","","87","","","","0","","9.7","","100.55","","","","","","Haze"
"1954-01-14 04:00","1954","01","14","04:00","-13.3","","-15.6","","83","","14","","2","","8.0","","100.44","","","","-15","","Haze"
"1954-01-14 05:00","1954","01","14","05:00","-10.6","","-13.3","","80","","18","","10","","11.3","","100.34","","","","-16","","Cloudy"
"1954-01-14 06:00","1954","01","14","06:00","-8.3","","-11.1","","84","","18","","14","","11.3","","100.30","","","","-14","","Cloudy"
"1954-01-14 07:00","1954","01","14","07:00","-7.8","","-10.6","","81","","18","","13","","6.4","","100.23","","","","-14","","Smoke,Haze"
"1954-01-14 08:00","1954","01","14","08:00","-6.7","","-9.4","","81","","18","","21","","8.0","","100.17","","","","-14","","Smoke,Haze"
"1954-01-14 09:00","1954","01","14","09:00","-5.6","","-8.3","","81","","18","","18","","8.0","","100.11","","","","-12","","Haze"
"1954-01-14 10:00","1954","01","14","10:00","-4.4","","-5.0","","96","","20","","34","","9.7","","100.08","","","","-13","","Haze"
"1954-01-14 11:00","1954","01","14","11:00","-3.9","","-5.0","","92","","20","","27","","8.0","","99.99","","","","-11","","Haze"
"1954-01-14 12:00","1954","01","14","12:00","-2.8","","-3.3","","96","","20","","19","","8.0","","99.86","","","","-9","","Snow Showers,Haze"
"1954-01-14 13:00","1954","01","14","13:00","-1.7","","-2.8","","92","","20","","24","","8.0","","99.69","","","","-8","","Snow Showers,Haze"
"1954-01-14 14:00","1954","01","14","14:00","-1.7","","-2.2","","96","","20","","24","","8.0","","99.55","","","","-8","","Snow Showers"
"1954-01-14 15:00","1954","01","14","15:00","-1.1","","-2.2","","96","","20","","27","","6.4","","99.46","","","","-8","","Snow"
"1954-01-14 16:00","1954","01","14","16:00","-1.1","","-2.2","","92","","20","","19","","12.9","","99.44","","","","-6","","Snow"
"1954-01-14 17:00","1954","01","14","17:00","-1.1","","-1.1","","96","","20","","19","","12.9","","99.53","","","","-6","","Snow"
"1954-01-14 18:00","1954","01","14","18:00","-1.1","","-1.1","","96","","20","","16","","12.9","","99.39","","","","-6","","Snow"
"1954-01-14 19:00","1954","01","14","19:00","-0.6","","-1.1","","96","","20","","10","","12.9","","99.39","","","","-4","","Snow"
"1954-01-14 20:00","1954","01","14","20:00","-0.6","","-1.1","","96","","20","","13","","16.1","","99.38","","","","-5","","Snow"
"1954-01-14 21:00","1954","01","14","21:00","-0.6","","-0.6","","100","","23","","23","","25.0","","99.43","","","","-6","","Cloudy"
"1954-01-14 22:00","1954","01","14","22:00","-0.6","","-0.6","","100","","25","","26","","25.0","","99.48","","","","-7","","Cloudy"
"1954-01-14 23:00","1954","01","14","23:00","0.0","","-1.1","","92","","27","","35","","24.1","","99.51","","","","-7","","Snow"
"1954-01-15 00:00","1954","01","15","00:00","-0.6","","-2.2","","88","","25","","27","","24.1","","99.48","","","","-7","","Cloudy"
"1954-01-15 01:00","1954","01","15","01:00","0.0","","-3.3","","78","","25","","24","","25.0","","99.50","","","","-6","","Cloudy"
"1954-01-15 02:00","1954","01","15","02:00","0.0","","-3.9","","75","","25","","24","","25.0","","99.60","","","","-6","","Mostly Cloudy"
"1954-01-15 03:00","1954","01","15","03:00","-1.1","","-5.0","","75","","23","","19","","25.0","","99.66","","","","-6","","Mostly Cloudy"
"1954-01-15 04:00","1954","01","15","04:00","-1.1","","-4.4","","78","","27","","23","","25.0","","99.72","","","","-7","","Cloudy"
"1954-01-15 05:00","1954","01","15","05:00","-1.1","","-4.4","","78","","23","","21","","25.0","","99.69","","","","-7","","Cloudy"
"1954-01-15 06:00","1954","01","15","06:00","-1.1","","-4.4","","78","","23","","21","","24.1","","99.76","","","","-7","","Cloudy"
"1954-01-15 07:00","1954","01","15","07:00","-1.1","","-4.4","","78","","25","","16","","24.1","","99.81","","","","-6","","Cloudy"
"1954-01-15 08:00","1954","01","15","08:00","-1.1","","-4.4","","78","","23","","16","","8.0","","99.85","","","","-6","","Smoke,Haze"
"1954-01-15 09:00","1954","01","15","09:00","0.0","","-4.4","","72","","23","","23","","8.0","","99.90","","","","-6","","Haze"
"1954-01-15 10:00","1954","01","15","10:00","0.0","","-3.3","","78","","23","","23","","8.0","","99.95","","","","-6","","Haze"
"1954-01-15 11:00","1954","01","15","11:00","0.6","","-3.9","","72","","27","","16","","12.9","","99.90","","","","","","Mostly Cloudy"
"1954-01-15 12:00","1954","01","15","12:00","2.2","","-3.3","","67","","23","","14","","14.5","","99.91","","","","","","Mainly Clear"
"1954-01-15 13:00","1954","01","15","13:00","2.2","","-3.9","","64","","23","","13","","19.3","","99.72","","","","","","Mainly Clear"
"1954-01-15 14:00","1954","01","15","14:00","3.3","","-2.2","","67","","23","","10","","19.3","","99.65","","","","","","Mainly Clear"
"1954-01-15 15:00","1954","01","15","15:00","2.2","","-5.0","","59","","23","","13","","19.3","","99.58","","","","","","Mostly Cloudy"
"1954-01-15 16:00","1954","01","15","16:00","0.6","","-4.4","","69","","16","","10","","19.3","","99.57","","","","","","Mostly Cloudy"
"1954-01-15 17:00","1954","01","15","17:00","0.0","","-3.9","","75","","16","","10","","16.1","","99.47","","","","-3","","Mostly Cloudy"
"1954-01-15 18:00","1954","01","15","18:00","-0.6","","-3.3","","81","","18","","10","","12.9","","99.45","","","","-4","","Mostly Cloudy"
"1954-01-15 19:00","1954","01","15","19:00","-0.6","","-3.3","","81","","18","","6","","12.9","","99.36","","","","-3","","Mostly Cloudy"
"1954-01-15 20:00","1954","01","15","20:00","-1.1","","-3.9","","81","","20","","5","","16.1","","99.33","","","","-3","","Mostly Cloudy"
"1954-01-15 21:00","1954","01","15","21:00","-3.9","","-6.1","","85","","","","0","","12.9","","99.20","","","","","","Mainly Clear"
"1954-01-15 22:00","1954","01","15","22:00","-3.9","","-5.6","","88","","","","0","","8.0","","99.05","","","","","","Haze"
"1954-01-15 23:00","1954","01","15","23:00","-5.6","","-7.2","","88","","","","0","","8.0","","98.97","","","","","","Haze"
"1954-01-16 00:00","1954","01","16","00:00","-6.7","","-7.8","","92","","36","","10","","4.0","","98.90","","","","-11","","Fog"
"1954-01-16 01:00","1954","01","16","01:00","-6.1","","-7.2","","92","","36","","8","","4.0","","98.82","","","","-10","","Fog"
"1954-01-16 02:00","1954","01","16","02:00","-6.1","","-7.2","","92","","34","","13","","4.8","","98.76","","","","-11","","Fog"
"1954-01-16 03:00","1954","01","16","03:00","-6.1","","-7.2","","92","","36","","11","","4.8","","98.66","","","","-11","","Fog"
"1954-01-16 04:00","1954","01","16","04:00","-6.1","","-7.2","","92","","34","","14","","4.8","","98.62","","","","-12","","Fog"
"1954-01-16 05:00","1954","01","16","05:00","-4.4","","-6.1","","88","","36","","13","","4.8","","98.55","","","","-9","","Fog"
"1954-01-16 06:00","1954","01","16","06:00","-5.0","","-6.1","","92","","34","","13","","6.4","","98.56","","","","-10","","Fog"
"1954-01-16 07:00","1954","01","16","07:00","-4.4","","-6.1","","88","","34","","19","","4.8","","98.62","","","","-11","","Fog"
"1954-01-16 08:00","1954","01","16","08:00","-5.6","","-7.2","","88","","34","","10","","4.8","","98.58","","","","-10","","Fog"
"1954-01-16 09:00","1954","01","16","09:00","-4.4","","-5.6","","92","","34","","6","","4.8","","98.61","","","","-7","","Fog"
"1954-01-16 10:00","1954","01","16","10:00","-1.7","","-5.6","","75","","27","","6","","8.0","","98.66","","","","-4","","Haze"
"1954-01-16 11:00","1954","01","16","11:00","0.0","","-1.7","","88","","32","","14","","6.4","","98.65","","","","-4","","Haze"
"1954-01-16 12:00","1954","01","16","12:00","0.0","","-3.3","","78","","23","","21","","6.4","","98.56","","","","-5","","Haze"
"1954-01-16 13:00","1954","01","16","13:00","0.0","","-2.8","","82","","23","","24","","6.4","","98.56","","","","-6","","Haze"
"1954-01-16 14:00","1954","01","16","14:00","1.1","","-2.2","","78","","27","","29","","6.4","","98.49","","","","","","Haze"
"1954-01-16 15:00","1954","01","16","15:00","0.0","","-4.4","","72","","32","","23","","24.1","","98.49","","","","-6","","Cloudy"
"1954-01-16 16:00","1954","01","16","16:00","-2.8","","-4.4","","88","","34","","23","","12.9","","98.54","","","","-9","","Snow Grains"
"1954-01-16 17:00","1954","01","16","17:00","-3.3","","-6.1","","92","","32","","26","","12.9","","98.55","","","","-10","","Snow Showers"
"1954-01-16 18:00","1954","01","16","18:00","-5.6","","-8.9","","77","","32","","26","","12.9","","98.67","","","","-13","","Snow Showers"
"1954-01-16 19:00","1954","01","16","19:00","-7.8","","-10.0","","84","","34","","35","","4.0","","98.70","","","","-17","","Snow Showers"
"1954-01-16 20:00","1954","01","16","20:00","-9.4","","-12.2","","80","","32","","29","","4.0","","98.82","","","","-19","","Snow Showers"
"1954-01-16 21:00","1954","01","16","21:00","-9.4","","-11.7","","84","","32","","29","","25.0","","98.86","","","","-19","","Cloudy"
"1954-01-16 22:00","1954","01","16","22:00","-12.2","","-15.6","","76","","36","","29","","12.9","","99.05","","","","-22","","Snow Showers"
"1954-01-16 23:00","1954","01","16","23:00","-13.9","","-16.1","","83","","34","","23","","19.3","","99.22","","","","-23","","Snow Showers"
"1954-01-17 00:00","1954","01","17","00:00","-16.1","","-18.3","","83","","36","","29","","8.0","","99.39","","","","-27","","Snow Showers"
"1954-01-17 01:00","1954","01","17","01:00","-16.7","","-17.8","","91","","36","","16","","25.0","","99.48","","","","-25","","Snow Showers"
"1954-01-17 02:00","1954","01","17","02:00","-17.2","","-18.9","","87","","36","","16","","25.0","","99.65","","","","-26","","Snow Showers"
"1954-01-17 03:00","1954","01","17","03:00","-17.8","","-20.0","","83","","36","","14","","25.0","","99.81","","","","-26","","Snow Showers"
"1954-01-17 04:00","1954","01","17","04:00","-18.9","","-22.2","","75","","36","","19","","25.0","","99.92","","","","-29","","Clear"
"1954-01-17 05:00","1954","01","17","05:00","-20.6","","-22.8","","82","","36","","16","","25.0","","100.02","","","","-30","","Clear"
"1954-01-17 06:00","1954","01","17","06:00","-21.7","","-23.9","","82","","36","","16","","25.0","","100.17","","","","-31","","Clear"
"1954-01-17 07:00","1954","01","17","07:00","-21.7","","-23.3","","86","","36","","16","","25.0","","100.28","","","","-31","","Clear"
"1954-01-17 08:00","1954","01","17","08:00","-22.2","","-25.0","","78","","34","","11","","25.0","","100.38","","","","-30","","Mainly Clear"
"1954-01-17 09:00","1954","01","17","09:00","-21.7","","-23.9","","82","","32","","13","","25.0","","100.50","","","","-30","","Mainly Clear"
"1954-01-17 10:00","1954","01","17","10:00","-20.0","","-22.8","","78","","34","","13","","25.0","","100.57","","","","-28","","Mainly Clear"
"1954-01-17 11:00","1954","01","17","11:00","-18.9","","-21.7","","79","","36","","11","","25.0","","100.59","","","","-26","","Mainly Clear"
"1954-01-17 12:00","1954","01","17","12:00","-16.1","","-21.1","","65","","29","","8","","25.0","","100.52","","","","-22","","Mainly Clear"
"1954-01-17 13:00","1954","01","17","13:00","-14.4","","-20.0","","63","","27","","8","","25.0","","100.51","","","","-20","","Mainly Clear"
"1954-01-17 14:00","1954","01","17","14:00","-11.7","","-16.1","","70","","25","","10","","25.0","","100.51","","","","-17","","Mainly Clear"
"1954-01-17 15:00","1954","01","17","15:00","-10.6","","-16.7","","61","","20","","10","","25.0","","100.51","","","","-16","","Mainly Clear"
"1954-01-17 16:00","1954","01","17","16:00","-10.6","","-16.7","","61","","20","","8","","25.0","","100.48","","","","-15","","Mainly Clear"
"1954-01-17 17:00","1954","01","17","17:00","-11.7","","-16.1","","70","","20","","6","","25.0","","100.50","","","","-15","","Mainly Clear"
"1954-01-17 18:00","1954","01","17","18:00","-13.3","","-17.2","","73","","23","","5","","25.0","","100.55","","","","-17","","Mainly Clear"
"1954-01-17 19:00","1954","01","17","19:00","-12.8","","-16.1","","76","","29","","6","","25.0","","100.59","","","","-17","","Snow Showers"
"1954-01-17 20:00","1954","01","17","20:00","-13.3","","-16.1","","80","","23","","5","","25.0","","100.56","","","","-17","","Mainly Clear"
"1954-01-17 21:00","1954","01","17","21:00","-15.0","","-17.8","","79","","23","","13","","25.0","","100.55","","","","-22","","Mainly Clear"
"1954-01-17 22:00","1954","01","17","22:00","-12.8","","-15.6","","80","","25","","29","","25.0","","100.62","","","","-23","","Mostly Cloudy"
"1954-01-17 23:00","1954","01","17","23:00","-14.4","","-17.2","","79","","23","","16","","25.0","","100.67","","","","-22","","Mainly Clear"
"1954-01-18 00:00","1954","01","18","00:00","-15.6","","-17.8","","83","","25","","14","","25.0","","100.59","","","","-23","","Mainly Clear"
"1954-01-18 01:00","1954","01","18","01:00","-15.6","","-18.3","","79","","25","","14","","25.0","","100.56","","","","-23","","Cloudy"
"1954-01-18 02:00","1954","01","18","02:00","-15.6","","-18.3","","79","","23","","14","","25.0","","100.53","","","","-23","","Cloudy"
"1954-01-18 03:00","1954","01","18","03:00","-15.6","","-17.8","","83","","23","","8","","25.0","","100.60","","","","-21","","Cloudy"
"1954-01-18 04:00","1954","01","18","04:00","-15.0","","-17.2","","83","","18","","10","","25.0","","100.59","","","","-21","","Cloudy"
"1954-01-18 05:00","1954","01","18","05:00","-14.4","","-17.2","","79","","18","","16","","25.0","","100.47","","","","-22","","Cloudy"
"1954-01-18 06:00","1954","01","18","06:00","-13.3","","-17.8","","69","","20","","5","","25.0","","100.45","","","","-17","","Cloudy"
"1954-01-18 07:00","1954","01","18","07:00","-12.8","","-17.2","","69","","18","","5","","24.1","","100.40","","","","-16","","Cloudy"
"1954-01-18 08:00","1954","01","18","08:00","-12.8","","-16.7","","73","","18","","8","","19.3","","100.38","","","","-18","","Cloudy"
"1954-01-18 09:00","1954","01","18","09:00","-12.8","","-14.4","","87","","16","","8","","4.0","","100.24","","","","-18","","Snow"
"1954-01-18 10:00","1954","01","18","10:00","-11.1","","-12.2","","91","","16","","6","","9.7","","100.19","","","","-15","","Snow"
"1954-01-18 11:00","1954","01","18","11:00","-10.0","","-12.2","","84","","16","","10","","9.7","","100.03","","","","-15","","Haze"
"1954-01-18 12:00","1954","01","18","12:00","-8.3","","-8.9","","96","","11","","10","","4.8","","99.78","","","","-13","","Snow,Haze"
"1954-01-18 13:00","1954","01","18","13:00","-6.1","","-11.1","","68","","16","","23","","9.7","","99.66","","","","-13","","Haze"
"1954-01-18 14:00","1954","01","18","14:00","-6.1","","-8.3","","84","","16","","26","","9.7","","99.48","","","","-14","","Haze"
"1954-01-18 15:00","1954","01","18","15:00","-6.1","","-10.0","","74","","16","","26","","12.9","","99.42","","","","-14","","Cloudy"
"1954-01-18 16:00","1954","01","18","16:00","-5.6","","-8.3","","81","","18","","10","","12.9","","99.38","","","","-10","","Cloudy"
"1954-01-18 17:00","1954","01","18","17:00","-5.6","","-9.4","","74","","18","","10","","12.9","","99.41","","","","-10","","Cloudy"
"1954-01-18 18:00","1954","01","18","18:00","-5.6","","-9.4","","74","","18","","11","","16.1","","99.46","","","","-10","","Cloudy"
"1954-01-18 19:00","1954","01","18","19:00","-4.4","","-8.9","","71","","18","","16","","16.1","","99.47","","","","-10","","Cloudy"
"1954-01-18 20:00","1954","01","18","20:00","-4.4","","-6.7","","84","","23","","19","","16.1","","99.50","","","","-11","","Cloudy"
"1954-01-18 21:00","1954","01","18","21:00","-3.9","","-5.6","","88","","23","","13","","16.1","","99.52","","","","-9","","Cloudy"
"1954-01-18 22:00","1954","01","18","22:00","-3.3","","-5.6","","85","","23","","11","","16.1","","99.57","","","","-8","","Snow Showers"
"1954-01-18 23:00","1954","01","18","23:00","-2.8","","-5.6","","81","","23","","14","","16.1","","99.66","","","","-8","","Cloudy"
"1954-01-19 00:00","1954","01","19","00:00","-3.3","","-5.6","","85","","23","","16","","16.1","","99.70","","","","-9","","Cloudy"
"1954-01-19 01:00","1954","01","19","01:00","-2.8","","-5.0","","85","","20","","10","","16.1","","99.74","","","","-7","","Cloudy"
"1954-01-19 02:00","1954","01","19","02:00","-2.8","","-5.0","","85","","23","","10","","16.1","","99.80","","","","-7","","Cloudy"
"1954-01-19 03:00","1954","01","19","03:00","-2.8","","-5.6","","81","","23","","6","","16.1","","99.81","","","","-5","","Cloudy"
"1954-01-19 04:00","1954","01","19","04:00","-2.8","","-5.0","","85","","23","","8","","16.1","","99.84","","","","-6","","Cloudy"
"1954-01-19 05:00","1954","01","19","05:00","-2.8","","-5.0","","85","","23","","6","","16.1","","99.90","","","","-5","","Cloudy"
"1954-01-19 06:00","1954","01","19","06:00","-2.2","","-4.4","","85","","23","","3","","16.1","","99.92","","","","-3","","Cloudy"
"1954-01-19 07:00","1954","01","19","07:00","-2.2","","-3.9","","88","","","","0","","16.1","","100.01","","","","","","Cloudy"
"1954-01-19 08:00","1954","01","19","08:00","-1.7","","-3.3","","88","","","","0","","16.1","","100.13","","","","","","Cloudy"
"1954-01-19 09:00","1954","01","19","09:00","-1.7","","-6.1","","72","","9","","5","","9.7","","100.12","","","","-4","","Haze"
"1954-01-19 10:00","1954","01","19","10:00","-1.7","","-4.4","","81","","11","","5","","6.4","","100.21","","","","-4","","Snow Grains,Haze"
"1954-01-19 11:00","1954","01","19","11:00","-1.1","","-2.8","","88","","16","","3","","3.2","","100.24","","","","-2","","Snow Grains,Haze"
"1954-01-19 12:00","1954","01","19","12:00","-1.1","","-2.8","","88","","16","","13","","3.2","","100.10","","","","-5","","Haze"
"1954-01-19 13:00","1954","01","19","13:00","-0.6","","-2.8","","85","","16","","13","","4.8","","100.02","","","","-5","","Haze"
"1954-01-19 14:00","1954","01","19","14:00","0.0","","-3.3","","78","","16","","11","","6.4","","99.96","","","","-4","","Haze"
"1954-01-19 15:00","1954","01","19","15:00","-0.6","","-2.8","","85","","14","","10","","6.4","","99.96","","","","-4","","Haze"
"1954-01-19 16:00","1954","01","19","16:00","0.0","","-1.7","","88","","14","","13","","6.4","","99.93","","","","-4","","Haze"
"1954-01-19 17:00","1954","01","19","17:00","0.0","","-2.2","","85","","14","","13","","6.4","","99.92","","","","-4","","Haze"
"1954-01-19 18:00","1954","01","19","18:00","0.0","","-1.7","","88","","14","","11","","6.4","","99.91","","","","-4","","Haze"
"1954-01-19 19:00","1954","01","19","19:00","1.1","","-1.7","","82","","11","","10","","6.4","","99.90","","","","","","Haze"
"1954-01-19 20:00","1954","01","19","20:00","1.1","","-1.1","","85","","14","","11","","8.0","","99.86","","","","","","Haze"
"1954-01-19 21:00","1954","01","19","21:00","1.7","","-0.6","","85","","14","","11","","8.0","","99.84","","","","","","Haze"
"1954-01-19 22:00","1954","01","19","22:00","1.7","","0.0","","89","","14","","11","","8.0","","99.82","","","","","","Haze"
"1954-01-19 23:00","1954","01","19","23:00","1.7","","-1.1","","82","","9","","8","","6.4","","99.78","","","","","","Haze"
"1954-01-20 00:00","1954","01","20","00:00","0.6","","-1.1","","88","","9","","6","","6.4","","99.67","","","","","","Haze"
"1954-01-20 01:00","1954","01","20","01:00","0.6","","-0.6","","92","","5","","5","","6.4","","99.62","","","","","","Haze"
"1954-01-20 02:00","1954","01","20","02:00","1.1","","0.0","","92","","11","","10","","1.6","","99.60","","","","","","Drizzle,Fog"
"1954-01-20 03:00","1954","01","20","03:00","1.1","","0.0","","92","","5","","10","","0.6","","99.52","","","","","","Drizzle,Fog"
"1954-01-20 04:00","1954","01","20","04:00","1.1","","0.6","","96","","5","","10","","0.2","","99.44","","","","","","Rain,Drizzle,Fog"
"1954-01-20 05:00","1954","01","20","05:00","1.7","","1.1","","96","","5","","10","","0.2","","99.39","","","","","","Rain,Drizzle,Fog"
"1954-01-20 06:00","1954","01","20","06:00","1.7","","1.1","","96","","7","","13","","0.2","","99.30","","","","","","Fog"
"1954-01-20 07:00","1954","01","20","07:00","2.2","","1.7","","96","","7","","5","","0.0","","99.26","","","","","","Rain,Fog"
"1954-01-20 08:00","1954","01","20","08:00","2.2","","1.7","","96","","11","","6","","0.0","","99.18","","","","","","Drizzle,Fog"
"1954-01-20 09:00","1954","01","20","09:00","2.8","","2.8","","100","","11","","6","","0.0","","99.07","","","","","","Drizzle,Fog"
"1954-01-20 10:00","1954","01","20","10:00","3.3","","2.8","","96","","11","","6","","0.0","","98.99","","","","","","Drizzle,Fog"
"1954-01-20 11:00","1954","01","20","11:00","3.9","","3.9","","100","","14","","13","","0.0","","98.83","","","","","","Rain,Fog"
"1954-01-20 12:00","1954","01","20","12:00","4.4","","3.9","","96","","16","","13","","0.2","","98.70","","","","","","Moderate Rain,Fog"
"1954-01-20 13:00","1954","01","20","13:00","4.4","","3.9","","96","","14","","14","","0.2","","98.46","","","","","","Rain,Fog"
"1954-01-20 14:00","1954","01","20","14:00","5.0","","4.4","","96","","16","","11","","0.0","","98.30","","","","","","Drizzle,Fog"
"1954-01-20 15:00","1954","01","20","15:00","3.3","","2.8","","96","","32","","8","","0.0","","98.28","","","","","","Drizzle,Fog"
"1954-01-20 16:00","1954","01","20","16:00","3.3","","2.2","","92","","23","","8","","0.4","","98.32","","","","","","Drizzle,Fog"
"1954-01-20 17:00","1954","01","20","17:00","3.3","","2.8","","96","","18","","6","","0.8","","98.31","","","","","","Fog"
"1954-01-20 18:00","1954","01","20","18:00","3.9","","3.9","","100","","23","","11","","3.2","","98.45","","","","","","Fog"
"1954-01-20 19:00","1954","01","20","19:00","5.6","","5.0","","96","","23","","16","","8.0","","98.56","","","","","","Fog"
"1954-01-20 20:00","1954","01","20","20:00","6.1","","5.0","","93","","27","","24","","12.9","","98.71","","","","","","Cloudy"
"1954-01-20 21:00","1954","01","20","21:00","5.0","","2.2","","82","","32","","29","","24.1","","98.80","","","","","","Cloudy"
"1954-01-20 22:00","1954","01","20","22:00","3.9","","1.1","","82","","32","","24","","24.1","","99.03","","","","","","Cloudy"
"1954-01-20 23:00","1954","01","20","23:00","2.8","","0.6","","85","","34","","26","","16.1","","99.00","","","","","","Rain,Ice Pellets"
"1954-01-21 00:00","1954","01","21","00:00","2.2","","-0.6","","82","","32","","26","","25.0","","99.05","","","","","","Snow Showers"
"1954-01-21 01:00","1954","01","21","01:00","1.1","","-1.1","","85","","32","","29","","25.0","","99.09","","","","","","Snow Showers"
"1954-01-21 02:00","1954","01","21","02:00","-1.1","","-4.4","","78","","36","","42","","25.0","","99.28","","","","-9","","Cloudy"
"1954-01-21 03:00","1954","01","21","03:00","-5.6","","-10.0","","71","","34","","42","","25.0","","99.60","","","","-15","","Mostly Cloudy"
"1954-01-21 04:00","1954","01","21","04:00","-8.3","","-11.7","","77","","34","","45","","25.0","","99.80","","","","-19","","Snow Showers"
"1954-01-21 05:00","1954","01","21","05:00","-10.0","","-12.8","","80","","34","","42","","25.0","","100.03","","","","-21","","Mainly Clear"
"1954-01-21 06:00","1954","01","21","06:00","-11.1","","-15.6","","73","","34","","42","","25.0","","100.24","","","","-22","","Mainly Clear"
"1954-01-21 07:00","1954","01","21","07:00","-11.7","","-14.4","","80","","34","","42","","25.0","","100.31","","","","-23","","Mainly Clear"
"1954-01-21 08:00","1954","01","21","08:00","-13.3","","-16.1","","80","","34","","42","","25.0","","100.61","","","","-25","","Clear"
"1954-01-21 09:00","1954","01","21","09:00","-14.4","","-20.0","","63","","34","","39","","25.0","","100.81","","","","-27","","Mainly Clear"
"1954-01-21 10:00","1954","01","21","10:00","-14.4","","-20.0","","63","","36","","32","","25.0","","100.92","","","","-26","","Mainly Clear"
"1954-01-21 11:00","1954","01","21","11:00","-13.9","","-18.9","","66","","36","","32","","25.0","","101.04","","","","-25","","Mainly Clear"
"1954-01-21 12:00","1954","01","21","12:00","-12.8","","-18.3","","66","","36","","32","","25.0","","101.06","","","","-23","","Mainly Clear"
"1954-01-21 13:00","1954","01","21","13:00","-12.2","","-18.9","","58","","36","","29","","25.0","","101.07","","","","-22","","Mainly Clear"
"1954-01-21 14:00","1954","01","21","14:00","-11.7","","-12.2","","96","","36","","32","","25.0","","100.97","","","","-22","","Mainly Clear"
"1954-01-21 15:00","1954","01","21","15:00","-11.7","","-16.7","","70","","2","","32","","25.0","","101.05","","","","-22","","Mainly Clear"
"1954-01-21 16:00","1954","01","21","16:00","-12.2","","-16.1","","73","","36","","26","","25.0","","101.14","","","","-22","","Mainly Clear"
"1954-01-21 17:00","1954","01","21","17:00","-12.8","","-14.4","","90","","36","","26","","25.0","","101.23","","","","-23","","Mainly Clear"
"1954-01-21 18:00","1954","01","21","18:00","-13.3","","-16.1","","80","","36","","29","","25.0","","101.30","","","","-24","","Mainly Clear"
"1954-01-21 19:00","1954","01","21","19:00","-13.3","","-17.2","","73","","36","","29","","25.0","","101.34","","","","-24","","Mainly Clear"
"1954-01-21 20:00","1954","01","21","20:00","-13.9","","-16.7","","80","","36","","24","","25.0","","101.42","","","","-24","","Mainly Clear"
"1954-01-21 21:00","1954","01","21","21:00","-14.4","","-18.3","","72","","36","","24","","25.0","","101.39","","","","-24","","Mainly Clear"
"1954-01-21 22:00","1954","01","21","22:00","-15.0","","-18.3","","76","","2","","24","","25.0","","101.37","","","","-25","","Mainly Clear"
"1954-01-21 23:00","1954","01","21","23:00","-15.6","","-18.9","","77","","36","","24","","25.0","","101.39","","","","-26","","Clear"
"1954-01-22 00:00","1954","01","22","00:00","-16.7","","-21.7","","65","","2","","24","","25.0","","101.38","","","","-27","","Clear"
"1954-01-22 01:00","1954","01","22","01:00","-17.2","","-20.6","","75","","2","","29","","25.0","","101.34","","","","-29","","Mostly Cloudy"
"1954-01-22 02:00","1954","01","22","02:00","-17.8","","-20.6","","79","","2","","29","","25.0","","101.34","","","","-30","","Mainly Clear"
"1954-01-22 03:00","1954","01","22","03:00","-17.2","","-20.6","","75","","2","","19","","25.0","","101.35","","","","-27","","Mainly Clear"
"1954-01-22 04:00","1954","01","22","04:00","-17.8","","-20.6","","79","","2","","16","","25.0","","101.35","","","","-27","","Clear"
"1954-01-22 05:00","1954","01","22","05:00","-18.3","","-21.1","","79","","5","","16","","25.0","","101.36","","","","-27","","Clear"
"1954-01-22 06:00","1954","01","22","06:00","-18.3","","-21.1","","79","","5","","16","","25.0","","101.36","","","","-27","","Clear"
"1954-01-22 07:00","1954","01","22","07:00","-18.3","","-21.1","","79","","5","","16","","25.0","","101.32","","","","-27","","Clear"
"1954-01-22 08:00","1954","01","22","08:00","-18.3","","-21.1","","79","","36","","19","","25.0","","101.44","","","","-28","","Clear"
"1954-01-22 09:00","1954","01","22","09:00","-17.2","","-19.4","","83","","7","","13","","25.0","","101.47","","","","-25","","Mainly Clear"
"1954-01-22 10:00","1954","01","22","10:00","-16.1","","-18.9","","79","","2","","19","","25.0","","101.58","","","","-25","","Mainly Clear"
"1954-01-22 11:00","1954","01","22","11:00","-15.0","","-17.2","","83","","2","","19","","25.0","","101.48","","","","-24","","Mainly Clear"
"1954-01-22 12:00","1954","01","22","12:00","-12.8","","-18.3","","63","","2","","13","","25.0","","101.44","","","","-20","","Mainly Clear"
"1954-01-22 13:00","1954","01","22","13:00","-12.8","","-15.6","","76","","2","","13","","25.0","","101.43","","","","-20","","Mainly Clear"
"1954-01-22 14:00","1954","01","22","14:00","-12.2","","-14.4","","84","","2","","19","","25.0","","101.33","","","","-20","","Mainly Clear"
"1954-01-22 15:00","1954","01","22","15:00","-12.2","","-14.4","","84","","2","","19","","25.0","","101.34","","","","-20","","Mainly Clear"
"1954-01-22 16:00","1954","01","22","16:00","-12.2","","-15.0","","80","","2","","19","","25.0","","101.47","","","","-20","","Mainly Clear"
"1954-01-22 17:00","1954","01","22","17:00","-12.8","","-23.9","","39","","2","","16","","25.0","","101.49","","","","-20","","Mainly Clear"
"1954-01-22 18:00","1954","01","22","18:00","-14.4","","-20.6","","60","","2","","18","","25.0","","101.51","","","","-23","","Clear"
"1954-01-22 19:00","1954","01","22","19:00","-15.0","","-21.1","","60","","2","","16","","25.0","","101.50","","","","-23","","Clear"
"1954-01-22 20:00","1954","01","22","20:00","-15.6","","-21.1","","62","","2","","14","","25.0","","101.51","","","","-23","","Clear"
"1954-01-22 21:00","1954","01","22","21:00","-16.1","","-20.0","","72","","2","","11","","25.0","","101.46","","","","-23","","Clear"
"1954-01-22 22:00","1954","01","22","22:00","-16.1","","-20.0","","72","","2","","11","","25.0","","101.44","","","","-23","","Clear"
"1954-01-22 23:00","1954","01","22","23:00","-16.1","","-18.9","","79","","2","","13","","25.0","","101.44","","","","-24","","Clear"
"1954-01-23 00:00","1954","01","23","00:00","-16.1","","-21.1","","65","","5","","16","","25.0","","101.37","","","","-25","","Clear"
"1954-01-23 01:00","1954","01","23","01:00","-16.1","","-21.1","","65","","5","","16","","25.0","","101.36","","","","-25","","Clear"
"1954-01-23 02:00","1954","01","23","02:00","-15.6","","-19.4","","72","","5","","16","","16.1","","101.30","","","","-24","","Snow"
"1954-01-23 03:00","1954","01","23","03:00","-15.6","","-19.4","","72","","5","","19","","2.4","","101.30","","","","-25","","Snow"
"1954-01-23 04:00","1954","01","23","04:00","-15.0","","-17.8","","79","","7","","26","","3.2","","101.26","","","","-25","","Snow"
"1954-01-23 05:00","1954","01","23","05:00","-15.0","","-17.8","","79","","7","","19","","12.9","","101.26","","","","-24","","Snow"
"1954-01-23 06:00","1954","01","23","06:00","-15.6","","-18.3","","79","","5","","19","","12.9","","101.24","","","","-25","","Snow"
"1954-01-23 07:00","1954","01","23","07:00","-15.6","","-17.8","","83","","5","","19","","8.0","","101.23","","","","-25","","Snow"
"1954-01-23 08:00","1954","01","23","08:00","-15.0","","-17.8","","79","","7","","23","","1.2","","101.20","","","","-25","","Snow"
"1954-01-23 09:00","1954","01","23","09:00","-15.0","","-16.7","","87","","7","","16","","1.6","","101.21","","","","-23","","Snow"
"1954-01-23 10:00","1954","01","23","10:00","-13.9","","-16.1","","83","","5","","8","","1.6","","101.28","","","","-19","","Snow"
"1954-01-23 11:00","1954","01","23","11:00","-13.3","","-14.4","","91","","5","","13","","2.4","","101.29","","","","-20","","Snow"
"1954-01-23 12:00","1954","01","23","12:00","-12.2","","-14.4","","84","","7","","19","","9.7","","101.16","","","","-20","","Haze"
"1954-01-23 13:00","1954","01","23","13:00","-10.0","","-12.8","","80","","7","","13","","16.1","","101.05","","","","-16","","Mostly Cloudy"
"1954-01-23 14:00","1954","01","23","14:00","-8.3","","-10.6","","84","","7","","13","","24.1","","100.87","","","","-14","","Mostly Cloudy"
"1954-01-23 15:00","1954","01","23","15:00","-7.2","","-12.2","","68","","11","","13","","24.1","","100.78","","","","-13","","Mostly Cloudy"
"1954-01-23 16:00","1954","01","23","16:00","-6.7","","-13.3","","59","","14","","10","","24.1","","100.79","","","","-11","","Mostly Cloudy"
"1954-01-23 17:00","1954","01","23","17:00","-6.7","","-11.7","","68","","11","","8","","24.1","","100.74","","","","-11","","Mostly Cloudy"
"1954-01-23 18:00","1954","01","23","18:00","-6.7","","-13.3","","59","","11","","8","","16.1","","100.68","","","","-11","","Mostly Cloudy"
"1954-01-23 19:00","1954","01","23","19:00","-9.4","","-12.8","","77","","9","","6","","12.9","","100.67","","","","-13","","Mainly Clear"
"1954-01-23 20:00","1954","01","23","20:00","-13.3","","-15.6","","83","","16","","6","","12.9","","100.60","","","","-17","","Mainly Clear"
"1954-01-23 21:00","1954","01","23","21:00","-11.1","","-12.8","","87","","18","","2","","12.9","","100.54","","","","-12","","Mainly Clear"
"1954-01-23 22:00","1954","01","23","22:00","-10.6","","-16.1","","67","","","","0","","9.7","","100.47","","","","","","Haze"
"1954-01-23 23:00","1954","01","23","23:00","-13.3","","-15.0","","87","","","","0","","9.7","","100.39","","","","","","Haze"
"1954-01-24 00:00","1954","01","24","00:00","-12.8","","-14.4","","87","","","","0","","9.7","","100.35","","","","","","Haze"
"1954-01-24 01:00","1954","01","24","01:00","-13.3","","-15.6","","83","","","","0","","9.7","","100.27","","","","","","Haze"
"1954-01-24 02:00","1954","01","24","02:00","-12.2","","-14.4","","84","","","","0","","9.7","","100.27","","","","","","Haze"
"1954-01-24 03:00","1954","01","24","03:00","-13.9","","-16.1","","83","","","","0","","9.7","","100.19","","","","","","Haze"
"1954-01-24 04:00","1954","01","24","04:00","-12.8","","-15.0","","84","","9","","3","","9.7","","100.14","","","","-15","","Haze"
"1954-01-24 05:00","1954","01","24","05:00","-13.9","","-16.1","","83","","14","","3","","9.7","","100.09","","","","-16","","Haze"
"1954-01-24 06:00","1954","01","24","06:00","-13.3","","-15.6","","83","","14","","10","","9.7","","100.04","","","","-19","","Haze"
"1954-01-24 07:00","1954","01","24","07:00","-9.4","","-13.3","","73","","14","","10","","6.4","","99.99","","","","-15","","Haze"
"1954-01-24 08:00","1954","01","24","08:00","-5.0","","-7.8","","81","","14","","16","","6.4","","99.97","","","","-11","","Haze"
"1954-01-24 09:00","1954","01","24","09:00","-5.6","","-8.3","","81","","16","","13","","6.4","","99.97","","","","-11","","Haze"
"1954-01-24 10:00","1954","01","24","10:00","-1.7","","-3.9","","85","","18","","19","","12.9","","99.96","","","","-7","","Mostly Cloudy"
"1954-01-24 11:00","1954","01","24","11:00","0.0","","-1.7","","88","","23","","39","","9.7","","99.92","","","","-7","","Haze"
"1954-01-24 12:00","1954","01","24","12:00","1.1","","0.0","","92","","20","","26","","12.9","","99.83","","","","","","Cloudy"
"1954-01-24 13:00","1954","01","24","13:00","1.7","","0.6","","92","","18","","24","","12.9","","99.74","","","","","","Cloudy"
"1954-01-24 14:00","1954","01","24","14:00","2.2","","1.1","","92","","20","","29","","12.9","","99.71","","","","","","Cloudy"
"1954-01-24 15:00","1954","01","24","15:00","2.2","","0.6","","89","","18","","23","","9.7","","99.69","","","","","","Haze"
"1954-01-24 16:00","1954","01","24","16:00","1.1","","0.0","","92","","20","","21","","6.4","","99.72","","","","","","Fog"
"1954-01-24 17:00","1954","01","24","17:00","2.2","","1.1","","92","","20","","19","","4.8","","99.72","","","","","","Drizzle,Fog"
"1954-01-24 18:00","1954","01","24","18:00","2.2","","1.7","","96","","18","","18","","4.0","","99.72","","","","","","Fog"
"1954-01-24 19:00","1954","01","24","19:00","2.2","","1.1","","92","","20","","24","","4.0","","99.72","","","","","","Drizzle,Fog"
"1954-01-24 20:00","1954","01","24","20:00","2.2","","1.1","","92","","20","","24","","4.8","","99.75","","","","","","Haze"
"1954-01-24 21:00","1954","01","24","21:00","2.2","","0.6","","89","","20","","16","","12.9","","99.78","","","","","","Cloudy"
"1954-01-24 22:00","1954","01","24","22:00","2.2","","0.0","","85","","23","","10","","24.1","","99.82","","","","","","Cloudy"
"1954-01-24 23:00","1954","01","24","23:00","1.7","","0.6","","92","","23","","8","","24.1","","99.85","","","","","","Cloudy"
"1954-01-25 00:00","1954","01","25","00:00","1.7","","0.0","","89","","25","","19","","24.1","","99.89","","","","","","Cloudy"
"1954-01-25 01:00","1954","01","25","01:00","1.1","","0.0","","92","","25","","16","","24.1","","99.85","","","","","","Cloudy"
"1954-01-25 02:00","1954","01","25","02:00","1.1","","-1.1","","85","","25","","18","","24.1","","100.00","","","","","","Cloudy"
"1954-01-25 03:00","1954","01","25","03:00","0.6","","-1.1","","88","","23","","11","","24.1","","99.92","","","","","","Cloudy"
"1954-01-25 04:00","1954","01","25","04:00","1.1","","-1.1","","85","","25","","14","","24.1","","100.03","","","","","","Cloudy"
"1954-01-25 05:00","1954","01","25","05:00","0.6","","-1.1","","88","","23","","11","","19.3","","100.05","","","","","","Cloudy"
"1954-01-25 06:00","1954","01","25","06:00","0.0","","-1.1","","92","","23","","11","","19.3","","100.06","","","","-4","","Cloudy"
"1954-01-25 07:00","1954","01","25","07:00","1.1","","-0.6","","89","","20","","8","","19.3","","100.15","","","","","","Cloudy"
"1954-01-25 08:00","1954","01","25","08:00","0.6","","-1.1","","88","","23","","14","","9.7","","100.32","","","","","","Drizzle,Haze"
"1954-01-25 09:00","1954","01","25","09:00","1.1","","-0.6","","89","","23","","8","","9.7","","100.47","","","","","","Drizzle,Haze"
"1954-01-25 10:00","1954","01","25","10:00","1.1","","0.0","","92","","20","","13","","6.4","","100.40","","","","","","Drizzle,Haze"
"1954-01-25 11:00","1954","01","25","11:00","1.7","","0.0","","92","","20","","13","","8.0","","100.43","","","","","","Haze"
"1954-01-25 12:00","1954","01","25","12:00","1.7","","0.0","","89","","20","","13","","8.0","","100.40","","","","","","Haze"
"1954-01-25 13:00","1954","01","25","13:00","1.7","","1.1","","89","","20","","13","","8.0","","100.37","","","","","","Haze"
"1954-01-25 14:00","1954","01","25","14:00","1.7","","0.0","","89","","20","","10","","8.0","","100.39","","","","","","Drizzle,Haze"
"1954-01-25 15:00","1954","01","25","15:00","1.7","","0.6","","92","","20","","11","","3.2","","100.40","","","","","","Drizzle,Haze"
"1954-01-25 16:00","1954","01","25","16:00","1.7","","0.0","","89","","20","","10","","3.2","","100.44","","","","","","Drizzle,Haze"
"1954-01-25 17:00","1954","01","25","17:00","1.7","","0.0","","89","","20","","8","","3.2","","100.47","","","","","","Drizzle,Haze"
"1954-01-25 18:00","1954","01","25","18:00","1.1","","0.0","","92","","20","","11","","6.4","","100.43","","","","","","Rain,Snow,Haze"
"1954-01-25 19:00","1954","01","25","19:00","1.1","","0.0","","92","","18","","14","","6.4","","100.40","","","","","","Haze"
"1954-01-25 20:00","1954","01","25","20:00","1.1","","0.0","","92","","18","","14","","6.4","","100.36","","","","","","Haze"
"1954-01-25 21:00","1954","01","25","21:00","1.1","","0.0","","92","","18","","16","","6.4","","100.33","","","","","","Haze"
"1954-01-25 22:00","1954","01","25","22:00","1.1","","0.0","","92","","18","","14","","6.4","","100.18","","","","","","Haze"
"1954-01-25 23:00","1954","01","25","23:00","0.6","","0.6","","100","","18","","16","","6.4","","100.10","","","","","","Fog"
"1954-01-26 00:00","1954","01","26","00:00","1.1","","0.0","","92","","16","","13","","3.2","","100.04","","","","","","Fog"
"1954-01-26 01:00","1954","01","26","01:00","1.1","","0.0","","92","","14","","13","","3.2","","99.91","","","","","","Fog"
"1954-01-26 02:00","1954","01","26","02:00","1.1","","0.6","","96","","14","","8","","3.2","","99.84","","","","","","Drizzle,Fog"
"1954-01-26 03:00","1954","01","26","03:00","1.1","","1.1","","100","","14","","11","","3.2","","99.74","","","","","","Drizzle,Fog"
"1954-01-26 04:00","1954","01","26","04:00","1.1","","1.1","","100","","14","","13","","1.2","","99.60","","","","","","Drizzle,Fog"
"1954-01-26 05:00","1954","01","26","05:00","1.7","","1.1","","96","","14","","13","","0.4","","99.49","","","","","","Drizzle,Fog"
"1954-01-26 06:00","1954","01","26","06:00","2.2","","1.7","","96","","11","","8","","0.2","","99.42","","","","","","Drizzle,Fog"
"1954-01-26 07:00","1954","01","26","07:00","2.8","","2.2","","96","","14","","6","","0.2","","99.42","","","","","","Drizzle,Fog"
"1954-01-26 08:00","1954","01","26","08:00","2.8","","2.8","","100","","18","","11","","0.2","","99.43","","","","","","Drizzle,Fog"
"1954-01-26 09:00","1954","01","26","09:00","5.6","","5.0","","96","","18","","11","","1.6","","99.42","","","","","","Drizzle,Fog"
"1954-01-26 10:00","1954","01","26","10:00","6.7","","6.7","","100","","23","","19","","2.4","","99.39","","","","","","Rain,Fog"
"1954-01-26 11:00","1954","01","26","11:00","6.7","","6.1","","96","","18","","16","","3.2","","99.42","","","","","","Fog"
"1954-01-26 12:00","1954","01","26","12:00","7.2","","6.7","","96","","23","","13","","1.6","","99.38","","","","","","Fog"
"1954-01-26 13:00","1954","01","26","13:00","6.7","","6.1","","96","","23","","13","","0.2","","99.39","","","","","","Drizzle,Fog"
"1954-01-26 14:00","1954","01","26","14:00","6.7","","5.0","","89","","34","","16","","6.4","","99.52","","","","","","Rain,Fog"
"1954-01-26 15:00","1954","01","26","15:00","3.3","","2.8","","92","","36","","24","","16.1","","99.59","","","","","","Cloudy"
"1954-01-26 16:00","1954","01","26","16:00","2.8","","0.0","","82","","36","","23","","8.0","","99.73","","","","","","Rain,Fog"
"1954-01-26 17:00","1954","01","26","17:00","1.7","","1.1","","96","","36","","19","","8.0","","99.79","","","","","","Fog"
"1954-01-26 18:00","1954","01","26","18:00","2.2","","0.6","","89","","36","","16","","12.9","","99.88","","","","","","Cloudy"
"1954-01-26 19:00","1954","01","26","19:00","1.7","","0.0","","89","","36","","13","","12.9","","99.98","","","","","","Snow"
"1954-01-26 20:00","1954","01","26","20:00","1.1","","-0.6","","89","","2","","14","","16.1","","99.93","","","","","","Cloudy"
"1954-01-26 21:00","1954","01","26","21:00","0.6","","-1.1","","88","","36","","16","","16.1","","99.91","","","","","","Cloudy"
"1954-01-26 22:00","1954","01","26","22:00","0.6","","-1.1","","88","","2","","24","","16.1","","99.92","","","","","","Cloudy"
"1954-01-26 23:00","1954","01","26","23:00","0.6","","-1.7","","85","","2","","21","","6.4","","99.75","","","","","","Snow"
"1954-01-27 00:00","1954","01","27","00:00","0.0","","-0.6","","96","","2","","19","","1.6","","99.70","","","","-5","","Snow"
"1954-01-27 01:00","1954","01","27","01:00","0.0","","-0.6","","96","","2","","21","","1.6","","99.62","","","","-5","","Snow"
"1954-01-27 02:00","1954","01","27","02:00","0.0","","-0.6","","96","","5","","21","","1.6","","99.57","","","","-5","","Snow"
"1954-01-27 03:00","1954","01","27","03:00","-2.2","","-2.8","","96","","5","","32","","1.6","","99.43","","","","-10","","Snow"
"1954-01-27 04:00","1954","01","27","04:00","-3.3","","-4.4","","92","","5","","32","","1.6","","99.35","","","","-11","","Snow,Blowing Snow"
"1954-01-27 05:00","1954","01","27","05:00","-4.4","","-5.0","","96","","2","","32","","2.4","","99.22","","","","-12","","Snow"
"1954-01-27 06:00","1954","01","27","06:00","-5.0","","-5.6","","96","","2","","32","","1.6","","99.29","","","","-13","","Snow"
"1954-01-27 07:00","1954","01","27","07:00","-5.0","","-5.6","","96","","2","","32","","1.6","","99.29","","","","-13","","Snow"
"1954-01-27 08:00","1954","01","27","08:00","-5.6","","-6.1","","96","","2","","21","","1.6","","99.27","","","","-12","","Snow"
"1954-01-27 09:00","1954","01","27","09:00","-6.1","","-6.7","","96","","2","","19","","1.2","","99.28","","","","-13","","Snow"
"1954-01-27 10:00","1954","01","27","10:00","-6.7","","-7.8","","92","","2","","23","","1.2","","99.27","","","","-14","","Snow"
"1954-01-27 11:00","1954","01","27","11:00","-7.2","","-8.3","","92","","5","","32","","1.2","","99.14","","","","-16","","Snow"
"1954-01-27 12:00","1954","01","27","12:00","-6.7","","-7.2","","96","","5","","26","","1.2","","99.06","","","","-15","","Snow"
"1954-01-27 13:00","1954","01","27","13:00","-7.2","","-8.3","","92","","2","","26","","1.2","","99.00","","","","-15","","Snow"
"1954-01-27 14:00","1954","01","27","14:00","-7.2","","-8.9","","88","","2","","26","","1.2","","99.02","","","","-15","","Snow"
"1954-01-27 15:00","1954","01","27","15:00","-7.2","","-8.3","","92","","2","","29","","2.4","","99.04","","","","-16","","Snow"
"1954-01-27 16:00","1954","01","27","16:00","-7.8","","-9.4","","92","","2","","32","","0.8","","99.05","","","","-17","","Moderate Snow"
"1954-01-27 17:00","1954","01","27","17:00","-8.3","","-10.0","","88","","2","","39","","1.6","","99.10","","","","-18","","Snow"
"1954-01-27 18:00","1954","01","27","18:00","-8.9","","-10.6","","88","","2","","32","","1.6","","99.21","","","","-18","","Snow"
"1954-01-27 19:00","1954","01","27","19:00","-9.4","","-10.6","","92","","36","","32","","0.8","","99.30","","","","-19","","Snow,Blowing Snow"
"1954-01-27 20:00","1954","01","27","20:00","-9.4","","-11.1","","88","","36","","37","","3.2","","99.37","","","","-20","","Snow,Blowing Snow"
"1954-01-27 21:00","1954","01","27","21:00","-10.6","","-12.2","","87","","34","","29","","25.0","","99.44","","","","-20","","Snow"
"1954-01-27 22:00","1954","01","27","22:00","-11.1","","-12.2","","91","","34","","35","","9.7","","99.52","","","","-22","","Snow"
"1954-01-27 23:00","1954","01","27","23:00","-10.6","","-12.2","","87","","34","","35","","3.2","","99.74","","","","-21","","Snow,Blowing Snow"
"1954-01-28 00:00","1954","01","28","00:00","-11.1","","-13.3","","84","","36","","39","","12.9","","99.75","","","","-22","","Snow"
"1954-01-28 01:00","1954","01","28","01:00","-11.1","","-15.0","","73","","36","","32","","19.3","","99.79","","","","-21","","Snow"
"1954-01-28 02:00","1954","01","28","02:00","-11.7","","-15.6","","73","","36","","37","","12.9","","99.91","","","","-23","","Snow"
"1954-01-28 03:00","1954","01","28","03:00","-12.2","","-17.8","","63","","36","","39","","25.0","","100.03","","","","-24","","Cloudy"
"1954-01-28 04:00","1954","01","28","04:00","-13.3","","-17.2","","73","","36","","40","","25.0","","100.13","","","","-25","","Cloudy"
"1954-01-28 05:00","1954","01","28","05:00","-14.4","","-19.4","","66","","36","","34","","25.0","","100.24","","","","-26","","Clear"
"1954-01-28 06:00","1954","01","28","06:00","-15.0","","-20.0","","66","","34","","29","","25.0","","100.36","","","","-26","","Clear"
"1954-01-28 07:00","1954","01","28","07:00","-15.6","","-21.1","","62","","34","","34","","25.0","","100.43","","","","-27","","Mainly Clear"
"1954-01-28 08:00","1954","01","28","08:00","-15.6","","-20.6","","65","","34","","27","","25.0","","100.58","","","","-26","","Mainly Clear"
"1954-01-28 09:00","1954","01","28","09:00","-15.6","","-20.6","","65","","36","","26","","25.0","","100.79","","","","-26","","Mainly Clear"
"1954-01-28 10:00","1954","01","28","10:00","-14.4","","-19.4","","66","","2","","29","","25.0","","100.74","","","","-25","","Mainly Clear"
"1954-01-28 11:00","1954","01","28","11:00","-12.8","","-22.2","","45","","36","","29","","25.0","","100.77","","","","-23","","Mainly Clear"
"1954-01-28 12:00","1954","01","28","12:00","-12.2","","-14.4","","84","","36","","26","","25.0","","100.76","","","","-22","","Clear"
"1954-01-28 13:00","1954","01","28","13:00","-10.6","","-16.7","","61","","36","","23","","25.0","","100.75","","","","-19","","Clear"
"1954-01-28 14:00","1954","01","28","14:00","-10.0","","-15.0","","64","","36","","19","","25.0","","100.78","","","","-18","","Clear"
"1954-01-28 15:00","1954","01","28","15:00","-9.4","","-13.3","","73","","34","","16","","25.0","","100.76","","","","-16","","Clear"
"1954-01-28 16:00","1954","01","28","16:00","-10.0","","-12.8","","80","","34","","16","","25.0","","100.81","","","","-17","","Clear"
"1954-01-28 17:00","1954","01","28","17:00","-11.1","","-13.3","","84","","36","","8","","25.0","","100.84","","","","-16","","Clear"
"1954-01-28 18:00","1954","01","28","18:00","-11.7","","-15.6","","73","","34","","6","","25.0","","100.90","","","","-15","","Clear"
"1954-01-28 19:00","1954","01","28","19:00","-13.9","","-19.4","","63","","36","","6","","25.0","","100.91","","","","-18","","Clear"
"1954-01-28 20:00","1954","01","28","20:00","-15.0","","-17.8","","79","","36","","6","","25.0","","100.89","","","","-19","","Clear"
"1954-01-28 21:00","1954","01","28","21:00","-17.8","","-20.6","","79","","34","","11","","25.0","","100.85","","","","-25","","Clear"
"1954-01-28 22:00","1954","01","28","22:00","-17.2","","-17.8","","91","","32","","13","","25.0","","100.83","","","","-25","","Clear"
"1954-01-28 23:00","1954","01","28","23:00","-17.8","","-20.0","","83","","34","","10","","25.0","","100.79","","","","-25","","Clear"
"1954-01-29 00:00","1954","01","29","00:00","-19.4","","-21.7","","83","","36","","6","","25.0","","100.77","","","","-24","","Clear"
"1954-01-29 01:00","1954","01","29","01:00","-20.6","","-23.3","","78","","32","","8","","25.0","","100.73","","","","-27","","Clear"
"1954-01-29 02:00","1954","01","29","02:00","-20.0","","-22.2","","82","","32","","6","","25.0","","100.72","","","","-25","","Clear"
"1954-01-29 03:00","1954","01","29","03:00","-20.0","","-22.8","","78","","34","","3","","25.0","","100.67","","","","-23","","Clear"
"1954-01-29 04:00","1954","01","29","04:00","-19.4","","-21.7","","83","","34","","5","","25.0","","100.67","","","","-24","","Clear"
"1954-01-29 05:00","1954","01","29","05:00","-19.4","","-21.7","","83","","2","","6","","25.0","","100.64","","","","-24","","Clear"
"1954-01-29 06:00","1954","01","29","06:00","-20.0","","-21.1","","91","","34","","3","","25.0","","100.64","","","","-23","","Clear"
"1954-01-29 07:00","1954","01","29","07:00","-19.4","","-20.0","","95","","34","","3","","25.0","","100.64","","","","-22","","Mainly Clear"
"1954-01-29 08:00","1954","01","29","08:00","-17.2","","-19.4","","83","","","","0","","4.8","","100.64","","","","","","Smoke,Haze"
"1954-01-29 09:00","1954","01","29","09:00","-15.6","","-17.8","","83","","","","0","","4.8","","100.59","","","","","","Smoke,Haze"
"1954-01-29 10:00","1954","01","29","10:00","-13.9","","-16.7","","80","","2","","6","","16.1","","100.50","","","","-18","","Mostly Cloudy"
"1954-01-29 11:00","1954","01","29","11:00","-11.1","","-13.3","","84","","2","","5","","16.1","","100.42","","","","-14","","Cloudy"
"1954-01-29 12:00","1954","01","29","12:00","-8.3","","-11.7","","77","","","","0","","4.8","","100.31","","","","","","Snow Showers,Haze"
"1954-01-29 13:00","1954","01","29","13:00","-7.2","","-9.4","","84","","18","","3","","4.8","","100.21","","","","-9","","Snow Showers,Haze"
"1954-01-29 14:00","1954","01","29","14:00","-6.1","","-8.9","","81","","16","","11","","2.4","","100.09","","","","-11","","Snow Showers,Haze"
"1954-01-29 15:00","1954","01","29","15:00","-5.6","","-7.2","","88","","16","","14","","2.4","","100.02","","","","-11","","Snow Showers,Haze"
"1954-01-29 16:00","1954","01","29","16:00","-5.0","","-6.7","","88","","16","","16","","1.2","","99.91","","","","-11","","Snow,Haze"
"1954-01-29 17:00","1954","01","29","17:00","-5.0","","-6.1","","92","","16","","13","","2.0","","99.83","","","","-10","","Snow,Haze"
"1954-01-29 18:00","1954","01","29","18:00","-3.3","","-4.4","","92","","16","","14","","1.6","","99.72","","","","-8","","Snow,Haze"
"1954-01-29 19:00","1954","01","29","19:00","-2.8","","-3.3","","96","","16","","23","","3.2","","99.69","","","","-9","","Snow,Haze"
"1954-01-29 20:00","1954","01","29","20:00","-2.2","","-3.3","","92","","16","","19","","2.4","","99.56","","","","-8","","Freezing Drizzle,Fog"
"1954-01-29 21:00","1954","01","29","21:00","-1.1","","-2.8","","88","","18","","18","","2.4","","99.44","","","","-6","","Freezing Drizzle,Fog"
"1954-01-29 22:00","1954","01","29","22:00","-1.1","","-1.7","","96","","18","","16","","2.4","","99.29","","","","-6","","Fog"
"1954-01-29 23:00","1954","01","29","23:00","0.0","","-0.6","","96","","20","","26","","12.9","","99.17","","","","-6","","Cloudy"
"1954-01-30 00:00","1954","01","30","00:00","0.6","","-0.6","","92","","20","","27","","8.0","","98.95","","","","","","Snow,Haze"
"1954-01-30 01:00","1954","01","30","01:00","0.6","","-0.6","","92","","23","","39","","1.2","","98.89","","","","","","Snow"
"1954-01-30 02:00","1954","01","30","02:00","0.6","","-0.6","","92","","23","","35","","4.8","","98.76","","","","","","Snow"
"1954-01-30 03:00","1954","01","30","03:00","0.0","","-0.6","","96","","23","","32","","12.9","","98.64","","","","-7","","Snow"
"1954-01-30 04:00","1954","01","30","04:00","0.6","","-0.6","","92","","25","","43","","12.9","","98.59","","","","","","Snow"
"1954-01-30 05:00","1954","01","30","05:00","0.0","","-1.7","","88","","27","","48","","25.0","","98.55","","","","-8","","Mostly Cloudy"
"1954-01-30 06:00","1954","01","30","06:00","-2.2","","-3.9","","88","","29","","45","","25.0","","98.67","","","","-11","","Mainly Clear"
"1954-01-30 07:00","1954","01","30","07:00","-2.2","","-5.0","","81","","27","","40","","19.3","","98.70","","","","-10","","Mainly Clear"
"1954-01-30 08:00","1954","01","30","08:00","-3.9","","-5.6","","88","","27","","45","","0.2","","98.84","","","","-13","","Heavy Snow,Blowing Snow"
"1954-01-30 09:00","1954","01","30","09:00","-4.4","","-5.0","","96","","29","","39","","16.1","","98.94","","","","-13","","Snow"
"1954-01-30 10:00","1954","01","30","10:00","-4.4","","-7.8","","78","","29","","42","","25.0","","99.06","","","","-13","","Mostly Cloudy"
"1954-01-30 11:00","1954","01","30","11:00","-5.0","","-8.3","","77","","29","","40","","16.1","","99.17","","","","-14","","Mostly Cloudy"
"1954-01-30 12:00","1954","01","30","12:00","-6.1","","-8.9","","81","","29","","42","","16.1","","99.24","","","","-16","","Mostly Cloudy"
"1954-01-30 13:00","1954","01","30","13:00","-6.7","","-10.0","","77","","29","","35","","19.3","","99.28","","","","-16","","Mainly Clear"
"1954-01-30 14:00","1954","01","30","14:00","-7.8","","-10.6","","81","","29","","53","","19.3","","99.30","","","","-19","","Mainly Clear"
"1954-01-30 15:00","1954","01","30","15:00","-7.8","","-10.6","","81","","27","","53","","19.3","","99.37","","","","-19","","Mainly Clear"
"1954-01-30 16:00","1954","01","30","16:00","-7.8","","-11.1","","77","","27","","55","","25.0","","99.49","","","","-19","","Mainly Clear"
"1954-01-30 17:00","1954","01","30","17:00","-8.9","","-11.7","","84","","27","","39","","25.0","","99.56","","","","-19","","Mainly Clear"
"1954-01-30 18:00","1954","01","30","18:00","-8.9","","-11.7","","80","","27","","43","","25.0","","99.66","","","","-20","","Mainly Clear"
"1954-01-30 19:00","1954","01","30","19:00","-8.9","","-11.7","","80","","25","","34","","25.0","","99.68","","","","-19","","Mainly Clear"
"1954-01-30 20:00","1954","01","30","20:00","-8.3","","-10.0","","88","","25","","29","","12.9","","99.71","","","","-17","","Snow"
"1954-01-30 21:00","1954","01","30","21:00","-7.2","","-8.9","","88","","27","","31","","11.3","","99.85","","","","-16","","Snow"
"1954-01-30 22:00","1954","01","30","22:00","-7.2","","-10.0","","81","","29","","27","","6.4","","99.81","","","","-15","","Snow Showers"
"1954-01-30 23:00","1954","01","30","23:00","-7.2","","-10.0","","81","","32","","23","","25.0","","99.89","","","","-15","","Mostly Cloudy"
"1954-01-31 00:00","1954","01","31","00:00","-7.8","","-9.4","","88","","32","","29","","25.0","","99.98","","","","-17","","Mostly Cloudy"
"1954-01-31 01:00","1954","01","31","01:00","-9.4","","-12.8","","77","","29","","16","","25.0","","100.01","","","","-16","","Clear"
"1954-01-31 02:00","1954","01","31","02:00","-9.4","","-12.8","","77","","29","","26","","25.0","","100.11","","","","-18","","Clear"
"1954-01-31 03:00","1954","01","31","03:00","-11.1","","-13.9","","80","","29","","23","","25.0","","100.18","","","","-20","","Clear"
"1954-01-31 04:00","1954","01","31","04:00","-12.2","","-13.9","","87","","27","","29","","25.0","","100.18","","","","-22","","Clear"
"1954-01-31 05:00","1954","01","31","05:00","-12.8","","-14.4","","87","","27","","24","","25.0","","100.30","","","","-22","","Clear"
"1954-01-31 06:00","1954","01","31","06:00","-13.3","","-15.6","","83","","32","","16","","25.0","","100.38","","","","-21","","Clear"
"1954-01-31 07:00","1954","01","31","07:00","-13.9","","-16.7","","80","","32","","13","","25.0","","100.44","","","","-21","","Mainly Clear"
"1954-01-31 08:00","1954","01","31","08:00","-15.6","","-17.2","","87","","29","","14","","25.0","","100.52","","","","-23","","Mainly Clear"
"1954-01-31 09:00","1954","01","31","09:00","-12.8","","-16.1","","76","","29","","14","","25.0","","100.53","","","","-20","","Mainly Clear"
"1954-01-31 10:00","1954","01","31","10:00","-11.1","","-14.4","","76","","27","","16","","25.0","","100.57","","","","-18","","Mainly Clear"
"1954-01-31 11:00","1954","01","31","11:00","-10.0","","-12.8","","80","","27","","18","","25.0","","100.64","","","","-17","","Clear"
"1954-01-31 12:00","1954","01","31","12:00","-7.2","","-9.4","","84","","27","","16","","25.0","","100.60","","","","-14","","Clear"
"1954-01-31 13:00","1954","01","31","13:00","-7.2","","-8.9","","88","","29","","23","","25.0","","100.58","","","","-15","","Clear"
"1954-01-31 14:00","1954","01","31","14:00","-6.7","","-10.0","","77","","29","","23","","25.0","","100.59","","","","-14","","Clear"
"1954-01-31 15:00","1954","01","31","15:00","-6.1","","-8.3","","84","","29","","16","","25.0","","100.60","","","","-12","","Mainly Clear"
"1954-01-31 16:00","1954","01","31","16:00","-6.7","","-8.9","","84","","29","","11","","25.0","","100.59","","","","-12","","Mostly Cloudy"
"1954-01-31 17:00","1954","01","31","17:00","-10.0","","-13.3","","77","","27","","13","","24.1","","100.64","","","","-16","","Mostly Cloudy"
"1954-01-31 18:00","1954","01","31","18:00","-11.1","","-14.4","","76","","25","","13","","25.0","","100.63","","","","-18","","Mostly Cloudy"
"1954-01-31 19:00","1954","01","31","19:00","-11.7","","-13.3","","87","","25","","14","","25.0","","100.62","","","","-19","","Mostly Cloudy"
"1954-01-31 20:00","1954","01","31","20:00","-11.1","","-13.3","","84","","23","","10","","25.0","","100.57","","","","-17","","Mostly Cloudy"
"1954-01-31 21:00","1954","01","31","21:00","-11.7","","-13.9","","84","","25","","8","","25.0","","100.57","","","","-16","","Mostly Cloudy"
"1954-01-31 22:00","1954","01","31","22:00","-12.2","","-14.4","","84","","25","","6","","25.0","","100.54","","","","-16","","Mostly Cloudy"
"1954-01-31 23:00","1954","01","31","23:00","-11.7","","-13.3","","87","","23","","5","","25.0","","100.47","","","","-15","","Mostly Cloudy"
