"Station Name","TORONTO LESTER B. PEARSON INT'L A"
"Province","ONTARIO"
"Latitude","43.68"
"Longitude","-79.63"
"Elevation","173.40"
"Climate Identifier","6158733"
"WMO Identifier","71624"
"TC Identifier","YYZ"
"All times are specified in Local Standard Time (LST). Add 1 hour to adjust for Daylight Saving Time where and when it is observed."

"Legend"
"E","Estimated"
"M","Missing"
"NA","Not Available"

"Date/Time","Year","Month","Day","Time","Temp (°C)","Temp Flag","Dew Point Temp (°C)","Dew Point Temp Flag","Rel Hum (%)","Rel Hum Flag","Wind Dir (10s deg)","Wind Dir Flag","Wind Spd (km/h)","Wind Spd Flag","Visibility (km)","Visibility Flag","Stn Press (kPa)","Stn Press Flag","Hmdx","Hmdx Flag","Wind Chill","Wind Chill Flag","Weather"
"2003-04-01 00:00","2003","04","01","00:00","-5.2","","-12.4","","57","","","","0","","24.1","","99.68","","","","","","Mainly Clear"
"2003-04-01 01:00","2003","04","01","01:00","-5.1","","-12.2","","57","","15","","6","","24.1","","99.65","","","","-8","","Mainly Clear"
"2003-04-01 02:00","2003","04","01","02:00","-4.5","","-11.7","","57","","14","","4","","24.1","","99.58","","","","-6","","Mostly Cloudy"
"2003-04-01 03:00","2003","04","01","03:00","-3.8","","-10.2","","61","","17","","6","","24.1","","99.47","","","","-6","","Mostly Cloudy"
"2003-04-01 04:00","2003","04","01","04:00","-3.2","","-9.6","","61","","14","","6","","24.1","","99.38","","","","-6","","Cloudy"
"2003-04-01 05:00","2003","04","01","05:00","-2.5","","-7.2","","70","","14","","20","","4.8","","99.21","","","","-8","","Snow Showers"
"2003-04-01 06:00","2003","04","01","06:00","-2.5","","-6.7","","73","","14","","20","","3.2","","99.09","","","","-8","","Ice Pellet Showers,Snow Showers"
"2003-04-01 07:00","2003","04","01","07:00","-2.8","","-4.7","","87","","14","","22","","6.4","","98.97","","","","-9","","Snow Showers"
"2003-04-01 08:00","2003","04","01","08:00","-2.6","","-4.5","","87","","13","","20","","4.0","","98.88","","","","-9","","Snow,Fog"
"2003-04-01 09:00","2003","04","01","09:00","-2.1","","-3.8","","88","","13","","17","","8.0","","98.75","","","","-7","","Snow,Fog"
"2003-04-01 10:00","2003","04","01","10:00","-1.3","","-2.8","","90","","12","","19","","8.0","","98.66","","","","-7","","Fog"
"2003-04-01 11:00","2003","04","01","11:00","-0.3","","-1.9","","89","","11","","11","","8.0","","98.60","","","","-4","","Fog"
"2003-04-01 12:00","2003","04","01","12:00","0.7","","-1.1","","88","","7","","9","","8.0","","98.57","","","","","","Fog"
"2003-04-01 13:00","2003","04","01","13:00","2.0","","0.2","","88","","14","","7","","8.0","","98.52","","","","","","Fog"
"2003-04-01 14:00","2003","04","01","14:00","3.3","","0.6","","82","","1","","4","","8.0","","98.57","","","","","","Haze"
"2003-04-01 15:00","2003","04","01","15:00","4.5","","1.2","","79","","","","0","","8.0","","98.60","","","","","","Haze"
"2003-04-01 16:00","2003","04","01","16:00","4.6","","0.8","","76","","16","","11","","9.7","","98.63","","","","","","Haze"
"2003-04-01 17:00","2003","04","01","17:00","3.9","","0.3","","77","","14","","7","","12.9","","98.70","","","","","","Mostly Cloudy"
"2003-04-01 18:00","2003","04","01","18:00","3.7","","0.0","","77","","16","","6","","9.7","","98.78","","","","","","Haze"
"2003-04-01 19:00","2003","04","01","19:00","1.8","","-0.9","","82","","18","","15","","9.7","","98.87","","","","","","Haze"
"2003-04-01 20:00","2003","04","01","20:00","0.9","","-0.9","","88","","15","","9","","9.7","","99.02","","","","","","Fog"
"2003-04-01 21:00","2003","04","01","21:00","0.9","","-0.8","","88","","13","","4","","9.7","","99.13","","","","","","Fog"
"2003-04-01 22:00","2003","04","01","22:00","0.8","","-0.6","","90","","13","","6","","9.7","","99.18","","","","","","Fog"
"2003-04-01 23:00","2003","04","01","23:00","0.9","","-0.5","","90","","17","","4","","8.0","","99.23","","","","","","Fog"
"2003-04-02 00:00","2003","04","02","00:00","0.7","","-0.6","","91","","7","","6","","8.0","","99.22","","","","","","Fog"
"2003-04-02 01:00","2003","04","02","01:00","0.7","","-0.8","","90","","8","","6","","8.0","","99.25","","","","","","Fog"
"2003-04-02 02:00","2003","04","02","02:00","0.9","","-0.7","","89","","5","","11","","9.7","","99.25","","","","","","Fog"
"2003-04-02 03:00","2003","04","02","03:00","0.8","","-0.8","","89","","","","0","","9.7","","99.34","","","","","","Fog"
"2003-04-02 04:00","2003","04","02","04:00","1.1","","-0.7","","88","","","","0","","8.0","","99.37","","","","","","Fog"
"2003-04-02 05:00","2003","04","02","05:00","1.2","","-0.7","","87","","5","","7","","9.7","","99.42","","","","","","Rain Showers,Fog"
"2003-04-02 06:00","2003","04","02","06:00","1.4","","-0.6","","87","","5","","9","","8.0","","99.44","","","","","","Fog"
"2003-04-02 07:00","2003","04","02","07:00","2.0","","-0.5","","83","","6","","9","","6.4","","99.42","","","","","","Haze"
"2003-04-02 08:00","2003","04","02","08:00","2.3","","-0.5","","82","","6","","7","","6.4","","99.43","","","","","","Haze"
"2003-04-02 09:00","2003","04","02","09:00","2.5","","-0.1","","83","","7","","9","","6.4","","99.45","","","","","","Haze"
"2003-04-02 10:00","2003","04","02","10:00","3.1","","0.3","","82","","9","","11","","6.4","","99.48","","","","","","Haze"
"2003-04-02 11:00","2003","04","02","11:00","2.8","","0.0","","82","","9","","20","","8.0","","99.53","","","","","","Haze"
"2003-04-02 12:00","2003","04","02","12:00","3.6","","0.0","","77","","6","","17","","6.4","","99.55","","","","","","Haze"
"2003-04-02 13:00","2003","04","02","13:00","3.7","","-0.4","","75","","7","","13","","8.0","","99.51","","","","","","Haze"
"2003-04-02 14:00","2003","04","02","14:00","4.2","","0.0","","74","","9","","17","","9.7","","99.41","","","","","","Haze"
"2003-04-02 15:00","2003","04","02","15:00","4.0","","-0.4","","73","","4","","17","","9.7","","99.56","","","","","","Haze"
"2003-04-02 16:00","2003","04","02","16:00","3.6","","-0.5","","75","","5","","17","","9.7","","99.56","","","","","","Haze"
"2003-04-02 17:00","2003","04","02","17:00","3.6","","-0.6","","74","","9","","9","","16.1","","99.57","","","","","","Cloudy"
"2003-04-02 18:00","2003","04","02","18:00","2.9","","-0.5","","78","","5","","11","","14.5","","99.64","","","","","","Cloudy"
"2003-04-02 19:00","2003","04","02","19:00","2.4","","-0.5","","81","","4","","13","","14.5","","99.68","","","","","","Cloudy"
"2003-04-02 20:00","2003","04","02","20:00","2.0","","-0.4","","84","","7","","17","","16.1","","99.69","","","","","","Cloudy"
"2003-04-02 21:00","2003","04","02","21:00","2.0","","-0.8","","82","","7","","19","","16.1","","99.74","","","","","","Cloudy"
"2003-04-02 22:00","2003","04","02","22:00","1.9","","-1.1","","80","","8","","15","","19.3","","99.72","","","","","","Cloudy"
"2003-04-02 23:00","2003","04","02","23:00","1.7","","-1.1","","82","","7","","15","","19.3","","99.72","","","","","","Cloudy"
"2003-04-03 00:00","2003","04","03","00:00","1.6","","-1.2","","82","","5","","13","","19.3","","99.76","","","","","","Cloudy"
"2003-04-03 01:00","2003","04","03","01:00","1.4","","-1.3","","82","","7","","15","","19.3","","99.73","","","","","","Cloudy"
"2003-04-03 02:00","2003","04","03","02:00","1.1","","-1.6","","82","","6","","19","","24.1","","99.71","","","","","","Cloudy"
"2003-04-03 03:00","2003","04","03","03:00","0.9","","-2.0","","81","","7","","13","","24.1","","99.63","","","","","","Cloudy"
"2003-04-03 04:00","2003","04","03","04:00","0.6","","-2.2","","81","","7","","22","","24.1","","99.68","","","","","","Cloudy"
"2003-04-03 05:00","2003","04","03","05:00","0.3","","-2.5","","81","","7","","11","","24.1","","99.67","","","","","","Cloudy"
"2003-04-03 06:00","2003","04","03","06:00","-0.4","","-3.0","","83","","5","","19","","8.0","","99.72","","","","-6","","Drizzle"
"2003-04-03 07:00","2003","04","03","07:00","-0.9","","-2.3","","90","","5","","15","","3.6","","99.82","","","","-6","","Freezing Drizzle"
"2003-04-03 08:00","2003","04","03","08:00","-1.0","","-2.4","","90","","6","","17","","4.0","","99.81","","","","-6","","Freezing Drizzle"
"2003-04-03 09:00","2003","04","03","09:00","-1.4","","-2.9","","89","","7","","24","","4.0","","99.86","","","","-8","","Freezing Drizzle,Fog"
"2003-04-03 10:00","2003","04","03","10:00","-1.8","","-3.2","","90","","5","","17","","3.2","","99.94","","","","-7","","Freezing Drizzle,Fog"
"2003-04-03 11:00","2003","04","03","11:00","-1.8","","-3.2","","90","","7","","17","","3.2","","99.91","","","","-7","","Freezing Drizzle,Fog"
"2003-04-03 12:00","2003","04","03","12:00","-2.0","","-3.7","","88","","7","","17","","4.8","","99.96","","","","-7","","Freezing Drizzle"
"2003-04-03 13:00","2003","04","03","13:00","-2.0","","-3.7","","88","","5","","19","","4.8","","99.91","","","","-8","","Freezing Drizzle"
"2003-04-03 14:00","2003","04","03","14:00","-1.9","","-3.7","","87","","5","","17","","6.4","","99.89","","","","-7","","Freezing Drizzle"
"2003-04-03 15:00","2003","04","03","15:00","-2.2","","-3.9","","88","","5","","20","","4.8","","99.82","","","","-8","","Freezing Drizzle"
"2003-04-03 16:00","2003","04","03","16:00","-2.5","","-4.6","","85","","5","","15","","4.0","","99.87","","","","-7","","Ice Pellets"
"2003-04-03 17:00","2003","04","03","17:00","-2.6","","-4.2","","89","","7","","17","","2.4","","99.77","","","","-8","","Snow Grains,Fog"
"2003-04-03 18:00","2003","04","03","18:00","-2.6","","-4.4","","87","","6","","17","","8.0","","99.70","","","","-8","","Freezing Rain,Ice Pellets"
"2003-04-03 19:00","2003","04","03","19:00","-2.4","","-4.5","","85","","7","","11","","4.0","","99.82","","","","-6","","Ice Pellets"
"2003-04-03 20:00","2003","04","03","20:00","-2.8","","-4.8","","86","","4","","19","","3.6","","99.82","","","","-9","","Freezing Rain,Ice Pellets"
"2003-04-03 21:00","2003","04","03","21:00","-2.8","","-4.4","","89","","6","","17","","1.6","","99.70","","","","-8","","Ice Pellets"
"2003-04-03 22:00","2003","04","03","22:00","-2.7","","-4.0","","91","","6","","19","","3.2","","99.69","","","","-8","","Ice Pellets"
"2003-04-03 23:00","2003","04","03","23:00","-3.2","","-4.9","","88","","8","","19","","4.8","","99.65","","","","-9","","Freezing Rain,Ice Pellets"
"2003-04-04 00:00","2003","04","04","00:00","-3.0","","-5.0","","86","","5","","17","","4.8","","99.68","","","","-9","","Freezing Rain,Ice Pellets"
"2003-04-04 01:00","2003","04","04","01:00","-3.3","","-5.0","","88","","6","","13","","4.0","","99.61","","","","-8","","Ice Pellets,Fog"
"2003-04-04 02:00","2003","04","04","02:00","-3.5","","-5.4","","87","","4","","24","","8.0","","99.55","","","","-10","","Ice Pellets"
"2003-04-04 03:00","2003","04","04","03:00","-3.6","","-5.4","","87","","4","","24","","4.0","","99.58","","","","-10","","Ice Pellets"
"2003-04-04 04:00","2003","04","04","04:00","-3.8","","-5.7","","87","","6","","17","","4.8","","99.55","","","","-10","","Ice Pellets,Fog"
"2003-04-04 05:00","2003","04","04","05:00","-3.8","","-5.8","","86","","5","","11","","4.8","","99.58","","","","-8","","Ice Pellets,Fog"
"2003-04-04 06:00","2003","04","04","06:00","-3.9","","-5.8","","87","","7","","15","","3.2","","99.57","","","","-9","","Ice Pellets,Fog"
"2003-04-04 07:00","2003","04","04","07:00","-3.9","","-6.4","","83","","8","","28","","19.3","","99.52","","","","-11","","Cloudy"
"2003-04-04 08:00","2003","04","04","08:00","-3.6","","-6.7","","79","","7","","19","","19.3","","99.60","","","","-10","","Freezing Rain"
"2003-04-04 09:00","2003","04","04","09:00","-3.6","","-7.4","","75","","7","","26","","19.3","","99.61","","","","-11","","Cloudy"
"2003-04-04 10:00","2003","04","04","10:00","-3.5","","-7.8","","72","","5","","24","","6.4","","99.62","","","","-10","","Freezing Rain,Ice Pellets"
"2003-04-04 11:00","2003","04","04","11:00","-3.8","","-7.5","","75","","7","","28","","4.8","","99.57","","","","-11","","Ice Pellets"
"2003-04-04 12:00","2003","04","04","12:00","-4.0","","-7.5","","77","","7","","30","","6.4","","99.50","","","","-12","","Ice Pellets"
"2003-04-04 13:00","2003","04","04","13:00","-3.6","","-6.8","","78","","5","","20","","4.8","","99.49","","","","-10","","Ice Pellets"
"2003-04-04 14:00","2003","04","04","14:00","-3.3","","-7.2","","74","","6","","24","","6.4","","99.43","","","","-10","","Ice Pellets"
"2003-04-04 15:00","2003","04","04","15:00","-3.3","","-8.6","","67","","7","","30","","16.1","","99.48","","","","-11","","Freezing Rain,Ice Pellets"
"2003-04-04 16:00","2003","04","04","16:00","-3.2","","-8.7","","66","","7","","22","","19.3","","99.48","","","","-10","","Freezing Rain,Ice Pellets"
"2003-04-04 17:00","2003","04","04","17:00","-3.4","","-8.4","","68","","8","","22","","19.3","","99.34","","","","-10","","Freezing Rain,Ice Pellets"
"2003-04-04 18:00","2003","04","04","18:00","-3.9","","-8.4","","71","","6","","19","","24.1","","99.38","","","","-10","","Cloudy"
"2003-04-04 19:00","2003","04","04","19:00","-4.2","","-8.3","","73","","8","","22","","24.1","","99.32","","","","-11","","Cloudy"
"2003-04-04 20:00","2003","04","04","20:00","-4.4","","-8.4","","74","","7","","26","","24.1","","99.28","","","","-12","","Cloudy"
"2003-04-04 21:00","2003","04","04","21:00","-4.5","","-8.9","","71","","8","","20","","24.1","","99.21","","","","-11","","Freezing Rain"
"2003-04-04 22:00","2003","04","04","22:00","-4.2","","-9.1","","69","","7","","20","","24.1","","99.12","","","","-11","","Cloudy"
"2003-04-04 23:00","2003","04","04","23:00","-4.4","","-8.5","","73","","7","","22","","16.1","","99.02","","","","-11","","Freezing Rain"
"2003-04-05 00:00","2003","04","05","00:00","-4.7","","-7.2","","83","","7","","22","","4.0","","98.83","","","","-12","","Freezing Rain,Haze"
"2003-04-05 01:00","2003","04","05","01:00","-4.3","","-6.1","","87","","8","","19","","4.8","","98.68","","","","-10","","Freezing Rain,Ice Pellets,Fog"
"2003-04-05 02:00","2003","04","05","02:00","-4.3","","-5.9","","89","","5","","13","","2.0","","98.48","","","","-9","","Snow"
"2003-04-05 03:00","2003","04","05","03:00","-4.2","","-5.5","","91","","5","","17","","3.2","","98.34","","","","-10","","Ice Pellets,Fog"
"2003-04-05 04:00","2003","04","05","04:00","-3.0","","-4.2","","91","","4","","13","","4.0","","98.29","","","","-8","","Freezing Rain,Ice Pellets,Fog"
"2003-04-05 05:00","2003","04","05","05:00","-2.5","","-3.7","","91","","4","","19","","8.0","","98.22","","","","-8","","Snow"
"2003-04-05 06:00","2003","04","05","06:00","-2.0","","-3.3","","91","","6","","11","","4.0","","98.16","","","","-6","","Freezing Rain,Fog"
"2003-04-05 07:00","2003","04","05","07:00","-2.1","","-3.1","","93","","4","","9","","3.2","","98.18","","","","-6","","Freezing Drizzle,Fog"
"2003-04-05 08:00","2003","04","05","08:00","-1.9","","-2.8","","94","","4","","7","","2.4","","98.10","","","","-5","","Freezing Drizzle,Fog"
"2003-04-05 09:00","2003","04","05","09:00","-1.6","","-2.4","","94","","1","","13","","2.8","","98.15","","","","-6","","Freezing Rain,Freezing Drizzle,Fog"
"2003-04-05 10:00","2003","04","05","10:00","-1.4","","-2.3","","94","","34","","7","","4.0","","98.20","","","","-4","","Fog"
"2003-04-05 11:00","2003","04","05","11:00","-1.3","","-2.0","","95","","27","","9","","2.4","","98.28","","","","-5","","Ice Pellets,Fog"
"2003-04-05 12:00","2003","04","05","12:00","-0.8","","-1.7","","94","","26","","7","","8.0","","98.33","","","","-3","","Fog"
"2003-04-05 13:00","2003","04","05","13:00","0.7","","-1.5","","85","","27","","44","","19.3","","98.46","","","","","","Cloudy"
"2003-04-05 14:00","2003","04","05","14:00","-0.2","","-3.8","","77","","27","","48","","24.1","","98.60","","","","-8","","Cloudy"
"2003-04-05 15:00","2003","04","05","15:00","-0.2","","-5.0","","70","","29","","37","","24.1","","98.74","","","","-7","","Cloudy"
"2003-04-05 16:00","2003","04","05","16:00","-0.8","","-6.7","","64","","30","","41","","24.1","","98.93","","","","-9","","Cloudy"
"2003-04-05 17:00","2003","04","05","17:00","-1.8","","-6.5","","70","","30","","46","","19.3","","99.12","","","","-10","","Snow Showers"
"2003-04-05 18:00","2003","04","05","18:00","-2.8","","-8.7","","64","","30","","52","","16.1","","99.34","","","","-12","","Snow Showers"
"2003-04-05 19:00","2003","04","05","19:00","-3.8","","-9.1","","67","","29","","33","","24.1","","99.54","","","","-12","","Mainly Clear"
"2003-04-05 20:00","2003","04","05","20:00","-4.3","","-10.2","","63","","29","","30","","24.1","","99.69","","","","-12","","Mainly Clear"
"2003-04-05 21:00","2003","04","05","21:00","-4.7","","-10.5","","64","","30","","35","","24.1","","99.83","","","","-13","","Mainly Clear"
"2003-04-05 22:00","2003","04","05","22:00","-5.1","","-11.4","","61","","32","","32","","24.1","","99.97","","","","-13","","Clear"
"2003-04-05 23:00","2003","04","05","23:00","-5.7","","-11.6","","63","","29","","24","","24.1","","100.08","","","","-13","","Clear"
"2003-04-06 00:00","2003","04","06","00:00","-6.3","","-11.3","","68","","29","","20","","24.1","","100.23","","","","-13","","Mainly Clear"
"2003-04-06 01:00","2003","04","06","01:00","-6.4","","-11.1","","69","","29","","28","","24.1","","100.32","","","","-15","","Clear"
"2003-04-06 02:00","2003","04","06","02:00","-6.9","","-10.8","","74","","33","","22","","24.1","","100.44","","","","-14","","Snow Showers"
"2003-04-06 03:00","2003","04","06","03:00","-7.5","","-11.3","","74","","34","","19","","24.1","","100.51","","","","-15","","Mainly Clear"
"2003-04-06 04:00","2003","04","06","04:00","-7.8","","-11.4","","75","","33","","20","","24.1","","100.60","","","","-15","","Mainly Clear"
"2003-04-06 05:00","2003","04","06","05:00","-7.9","","-11.3","","77","","32","","20","","24.1","","100.68","","","","-15","","Clear"
"2003-04-06 06:00","2003","04","06","06:00","-8.1","","-11.6","","76","","32","","19","","24.1","","100.80","","","","-15","","Clear"
"2003-04-06 07:00","2003","04","06","07:00","-8.2","","-11.8","","75","","34","","19","","24.1","","100.94","","","","-15","","Clear"
"2003-04-06 08:00","2003","04","06","08:00","-7.6","","-12.7","","67","","33","","19","","24.1","","101.04","","","","-15","","Clear"
"2003-04-06 09:00","2003","04","06","09:00","-6.9","","-12.3","","65","","32","","20","","24.1","","101.10","","","","-14","","Clear"
"2003-04-06 10:00","2003","04","06","10:00","-5.5","","-11.2","","64","","34","","19","","24.1","","101.12","","","","-12","","Clear"
"2003-04-06 11:00","2003","04","06","11:00","-4.3","","-10.6","","61","","34","","17","","24.1","","101.18","","","","-10","","Clear"
"2003-04-06 12:00","2003","04","06","12:00","-3.6","","-10.4","","59","","34","","6","","24.1","","101.15","","","","-6","","Mainly Clear"
"2003-04-06 13:00","2003","04","06","13:00","-3.2","","-11.0","","55","","34","","9","","24.1","","101.18","","","","-7","","Mainly Clear"
"2003-04-06 14:00","2003","04","06","14:00","-2.3","","-10.7","","52","","32","","4","","24.1","","101.15","","","","-4","","Mainly Clear"
"2003-04-06 15:00","2003","04","06","15:00","-1.7","","-11.3","","48","","2","","7","","24.1","","101.14","","","","-4","","Mainly Clear"
"2003-04-06 16:00","2003","04","06","16:00","-1.3","","-11.6","","45","","1","","4","","24.1","","101.18","","","","-3","","Mainly Clear"
"2003-04-06 17:00","2003","04","06","17:00","-1.1","","-10.6","","48","","34","","13","","24.1","","101.16","","","","-5","","Mainly Clear"
"2003-04-06 18:00","2003","04","06","18:00","-1.6","","-11.1","","48","","36","","17","","24.1","","101.18","","","","-7","","Mainly Clear"
"2003-04-06 19:00","2003","04","06","19:00","-2.0","","-11.1","","50","","36","","15","","24.1","","101.25","","","","-7","","Mainly Clear"
"2003-04-06 20:00","2003","04","06","20:00","-2.9","","-10.9","","54","","36","","17","","24.1","","101.34","","","","-8","","Mostly Cloudy"
"2003-04-06 21:00","2003","04","06","21:00","-3.6","","-10.3","","60","","1","","9","","24.1","","101.30","","","","-7","","Mainly Clear"
"2003-04-06 22:00","2003","04","06","22:00","-3.9","","-10.6","","60","","1","","15","","24.1","","101.28","","","","-9","","Clear"
"2003-04-06 23:00","2003","04","06","23:00","-4.7","","-10.1","","66","","2","","13","","24.1","","101.32","","","","-10","","Mostly Cloudy"
"2003-04-07 00:00","2003","04","07","00:00","-4.8","","-10.1","","66","","2","","15","","24.1","","101.32","","","","-10","","Mostly Cloudy"
"2003-04-07 01:00","2003","04","07","01:00","-4.7","","-10.1","","66","","2","","11","","24.1","","101.37","","","","-9","","Mostly Cloudy"
"2003-04-07 02:00","2003","04","07","02:00","-4.3","","-10.7","","61","","4","","13","","24.1","","101.32","","","","-9","","Mostly Cloudy"
"2003-04-07 03:00","2003","04","07","03:00","-3.8","","-11.6","","55","","5","","15","","24.1","","101.26","","","","-9","","Cloudy"
"2003-04-07 04:00","2003","04","07","04:00","-3.6","","-11.2","","56","","7","","15","","24.1","","101.21","","","","-9","","Cloudy"
"2003-04-07 05:00","2003","04","07","05:00","-3.4","","-10.7","","57","","7","","22","","24.1","","101.17","","","","-10","","Mostly Cloudy"
"2003-04-07 06:00","2003","04","07","06:00","-3.2","","-9.1","","64","","8","","20","","24.1","","101.15","","","","-9","","Cloudy"
"2003-04-07 07:00","2003","04","07","07:00","-3.0","","-9.4","","61","","7","","22","","24.1","","101.23","","","","-9","","Mostly Cloudy"
"2003-04-07 08:00","2003","04","07","08:00","-2.8","","-9.3","","61","","9","","30","","24.1","","101.25","","","","-10","","Cloudy"
"2003-04-07 09:00","2003","04","07","09:00","-2.6","","-8.4","","64","","8","","30","","24.1","","101.18","","","","-10","","Cloudy"
"2003-04-07 10:00","2003","04","07","10:00","-2.7","","-9.6","","59","","9","","41","","24.1","","101.18","","","","-11","","Cloudy"
"2003-04-07 11:00","2003","04","07","11:00","-2.6","","-9.4","","59","","9","","37","","24.1","","101.24","","","","-11","","Cloudy"
"2003-04-07 12:00","2003","04","07","12:00","-2.4","","-9.4","","59","","8","","37","","24.1","","101.15","","","","-10","","Cloudy"
"2003-04-07 13:00","2003","04","07","13:00","-2.0","","-10.1","","54","","10","","41","","19.3","","101.01","","","","-10","","Snow Showers"
"2003-04-07 14:00","2003","04","07","14:00","-2.0","","-10.8","","51","","8","","24","","24.1","","101.10","","","","-8","","Snow Showers"
"2003-04-07 15:00","2003","04","07","15:00","-3.9","","-7.7","","75","","9","","37","","1.0","","100.95","","","","-12","","Snow"
"2003-04-07 16:00","2003","04","07","16:00","-3.6","","-6.1","","83","","8","","37","","2.4","","100.89","","","","-12","","Snow"
"2003-04-07 17:00","2003","04","07","17:00","-2.9","","-6.4","","77","","8","","35","","3.6","","100.74","","","","-11","","Snow"
"2003-04-07 18:00","2003","04","07","18:00","-2.2","","-7.2","","69","","8","","37","","19.3","","100.79","","","","-10","","Snow"
"2003-04-07 19:00","2003","04","07","19:00","-2.3","","-6.3","","74","","8","","33","","16.1","","100.79","","","","-10","","Snow"
"2003-04-07 20:00","2003","04","07","20:00","-2.5","","-5.4","","80","","7","","32","","9.7","","100.78","","","","-10","","Snow"
"2003-04-07 21:00","2003","04","07","21:00","-3.3","","-5.2","","87","","7","","24","","4.8","","100.81","","","","-10","","Snow,Fog"
"2003-04-07 22:00","2003","04","07","22:00","-3.9","","-5.6","","88","","6","","28","","3.6","","100.77","","","","-11","","Snow,Fog"
"2003-04-07 23:00","2003","04","07","23:00","-3.6","","-5.9","","84","","7","","24","","11.3","","100.72","","","","-10","","Snow"
"2003-04-08 00:00","2003","04","08","00:00","-3.3","","-6.1","","81","","6","","22","","19.3","","100.67","","","","-10","","Cloudy"
"2003-04-08 01:00","2003","04","08","01:00","-3.2","","-6.3","","79","","7","","20","","19.3","","100.65","","","","-9","","Snow"
"2003-04-08 02:00","2003","04","08","02:00","-3.1","","-6.5","","77","","7","","19","","24.1","","100.59","","","","-9","","Cloudy"
"2003-04-08 03:00","2003","04","08","03:00","-3.2","","-6.1","","80","","7","","19","","24.1","","100.61","","","","-9","","Cloudy"
"2003-04-08 04:00","2003","04","08","04:00","-3.0","","-5.2","","85","","7","","17","","16.1","","100.58","","","","-9","","Cloudy"
"2003-04-08 05:00","2003","04","08","05:00","-2.8","","-4.4","","89","","7","","19","","4.0","","100.55","","","","-9","","Freezing Drizzle,Snow Grains,Fog"
"2003-04-08 06:00","2003","04","08","06:00","-3.1","","-4.9","","87","","6","","17","","3.6","","100.57","","","","-9","","Snow"
"2003-04-08 07:00","2003","04","08","07:00","-3.4","","-5.6","","85","","5","","26","","11.3","","100.57","","","","-10","","Cloudy"
"2003-04-08 08:00","2003","04","08","08:00","-2.9","","-5.5","","82","","6","","22","","9.7","","100.58","","","","-9","","Snow Grains"
"2003-04-08 09:00","2003","04","08","09:00","-2.7","","-5.2","","83","","7","","20","","9.7","","100.60","","","","-9","","Snow Grains"
"2003-04-08 10:00","2003","04","08","10:00","-2.0","","-4.7","","82","","6","","19","","9.7","","100.64","","","","-8","","Snow Grains"
"2003-04-08 11:00","2003","04","08","11:00","-1.7","","-4.5","","81","","5","","17","","12.9","","100.62","","","","-7","","Snow Grains"
"2003-04-08 12:00","2003","04","08","12:00","-1.2","","-4.2","","80","","4","","20","","14.5","","100.53","","","","-7","","Cloudy"
"2003-04-08 13:00","2003","04","08","13:00","-0.8","","-4.2","","78","","4","","19","","19.3","","100.53","","","","-6","","Cloudy"
"2003-04-08 14:00","2003","04","08","14:00","-0.6","","-4.3","","76","","4","","19","","19.3","","100.51","","","","-6","","Cloudy"
"2003-04-08 15:00","2003","04","08","15:00","-0.4","","-4.4","","74","","4","","15","","19.3","","100.54","","","","-5","","Cloudy"
"2003-04-08 16:00","2003","04","08","16:00","-0.2","","-4.4","","73","","5","","13","","19.3","","100.52","","","","-4","","Cloudy"
"2003-04-08 17:00","2003","04","08","17:00","-0.2","","-4.6","","72","","5","","13","","16.1","","100.53","","","","-4","","Cloudy"
"2003-04-08 18:00","2003","04","08","18:00","-0.3","","-4.4","","74","","6","","9","","16.1","","100.58","","","","-3","","Cloudy"
"2003-04-08 19:00","2003","04","08","19:00","-0.6","","-4.8","","73","","6","","9","","19.3","","100.62","","","","-4","","Cloudy"
"2003-04-08 20:00","2003","04","08","20:00","-0.6","","-5.1","","72","","6","","11","","24.1","","100.60","","","","-4","","Cloudy"
"2003-04-08 21:00","2003","04","08","21:00","-0.7","","-5.4","","70","","6","","17","","24.1","","100.59","","","","-6","","Cloudy"
"2003-04-08 22:00","2003","04","08","22:00","-0.8","","-5.4","","71","","6","","11","","24.1","","100.56","","","","-5","","Cloudy"
"2003-04-08 23:00","2003","04","08","23:00","-0.8","","-5.6","","70","","6","","15","","24.1","","100.51","","","","-5","","Cloudy"
"2003-04-09 00:00","2003","04","09","00:00","-1.1","","-5.6","","71","","4","","11","","24.1","","100.49","","","","-5","","Mostly Cloudy"
"2003-04-09 01:00","2003","04","09","01:00","-1.3","","-5.6","","73","","4","","7","","24.1","","100.48","","","","-4","","Cloudy"
"2003-04-09 02:00","2003","04","09","02:00","-1.3","","-5.6","","73","","4","","9","","24.1","","100.45","","","","-5","","Cloudy"
"2003-04-09 03:00","2003","04","09","03:00","-1.9","","-5.7","","75","","36","","15","","24.1","","100.45","","","","-7","","Cloudy"
"2003-04-09 04:00","2003","04","09","04:00","-3.4","","-6.5","","79","","36","","11","","24.1","","100.49","","","","-8","","Mostly Cloudy"
"2003-04-09 05:00","2003","04","09","05:00","-3.9","","-6.9","","80","","1","","13","","24.1","","100.46","","","","-9","","Mostly Cloudy"
"2003-04-09 06:00","2003","04","09","06:00","-4.2","","-7.1","","80","","36","","9","","19.3","","100.44","","","","-8","","Mainly Clear"
"2003-04-09 07:00","2003","04","09","07:00","-3.3","","-6.8","","77","","36","","9","","19.3","","100.50","","","","-7","","Clear"
"2003-04-09 08:00","2003","04","09","08:00","-2.0","","-6.0","","74","","36","","7","","24.1","","100.55","","","","-5","","Clear"
"2003-04-09 09:00","2003","04","09","09:00","-0.2","","-5.3","","68","","4","","19","","24.1","","100.49","","","","-5","","Clear"
"2003-04-09 10:00","2003","04","09","10:00","1.4","","-4.8","","63","","7","","11","","24.1","","100.50","","","","","","Mainly Clear"
"2003-04-09 11:00","2003","04","09","11:00","2.0","","-4.6","","62","","3","","9","","24.1","","100.45","","","","","","Clear"
"2003-04-09 12:00","2003","04","09","12:00","2.1","","-3.5","","66","","15","","11","","24.1","","100.44","","","","","","Clear"
"2003-04-09 13:00","2003","04","09","13:00","2.1","","-2.8","","70","","13","","11","","24.1","","100.40","","","","","","Clear"
"2003-04-09 14:00","2003","04","09","14:00","2.6","","-2.5","","69","","16","","11","","24.1","","100.34","","","","","","Clear"
"2003-04-09 15:00","2003","04","09","15:00","2.9","","-2.0","","70","","16","","9","","24.1","","100.32","","","","","","Clear"
"2003-04-09 16:00","2003","04","09","16:00","2.3","","-1.9","","74","","14","","9","","16.1","","100.31","","","","","","Clear"
"2003-04-09 17:00","2003","04","09","17:00","1.8","","-2.0","","76","","15","","11","","19.3","","100.31","","","","","","Clear"
"2003-04-09 18:00","2003","04","09","18:00","1.6","","-2.4","","75","","14","","7","","19.3","","100.28","","","","","","Clear"
"2003-04-09 19:00","2003","04","09","19:00","1.0","","-3.2","","73","","15","","7","","19.3","","100.26","","","","","","Clear"
"2003-04-09 20:00","2003","04","09","20:00","0.4","","-2.9","","78","","15","","6","","19.3","","100.29","","","","","","Clear"
"2003-04-09 21:00","2003","04","09","21:00","0.2","","-3.4","","77","","","","0","","19.3","","100.33","","","","","","Clear"
"2003-04-09 22:00","2003","04","09","22:00","0.1","","-3.3","","78","","29","","4","","19.3","","100.34","","","","","","Clear"
"2003-04-09 23:00","2003","04","09","23:00","-1.2","","-3.5","","84","","29","","4","","19.3","","100.32","","","","-3","","Clear"
"2003-04-10 00:00","2003","04","10","00:00","-0.7","","-3.4","","82","","32","","4","","19.3","","100.31","","","","-2","","Clear"
"2003-04-10 01:00","2003","04","10","01:00","-2.0","","-4.4","","84","","32","","9","","24.1","","100.33","","","","-5","","Clear"
"2003-04-10 02:00","2003","04","10","02:00","-1.6","","-3.4","","87","","32","","7","","19.3","","100.34","","","","-4","","Clear"
"2003-04-10 03:00","2003","04","10","03:00","-2.0","","-3.8","","87","","","","0","","19.3","","100.31","","","","","","Clear"
"2003-04-10 04:00","2003","04","10","04:00","-2.8","","-4.6","","87","","","","0","","16.1","","100.29","","","","","","Clear"
"2003-04-10 05:00","2003","04","10","05:00","-2.9","","-4.6","","88","","","","0","","12.9","","100.28","","","","","","Clear"
"2003-04-10 06:00","2003","04","10","06:00","-2.5","","-4.5","","86","","4","","4","","12.9","","100.31","","","","-4","","Clear"
"2003-04-10 07:00","2003","04","10","07:00","-1.2","","-4.3","","79","","36","","7","","12.9","","100.32","","","","-4","","Clear"
"2003-04-10 08:00","2003","04","10","08:00","1.5","","-4.1","","66","","2","","6","","12.9","","100.36","","","","","","Clear"
"2003-04-10 09:00","2003","04","10","09:00","4.5","","-3.8","","55","","19","","4","","16.1","","100.41","","","","","","Clear"
"2003-04-10 10:00","2003","04","10","10:00","5.5","","-3.1","","54","","","","0","","16.1","","100.36","","","","","","Clear"
"2003-04-10 11:00","2003","04","10","11:00","6.3","","-3.0","","51","","","","0","","16.1","","100.30","","","","","","Clear"
"2003-04-10 12:00","2003","04","10","12:00","6.8","","-2.3","","52","","16","","7","","19.3","","100.24","","","","","","Clear"
"2003-04-10 13:00","2003","04","10","13:00","7.6","","-2.8","","48","","16","","7","","19.3","","100.22","","","","","","Clear"
"2003-04-10 14:00","2003","04","10","14:00","8.1","","-4.1","","42","","16","","9","","24.1","","100.12","","","","","","Clear"
"2003-04-10 15:00","2003","04","10","15:00","8.8","","-5.5","","36","","17","","6","","24.1","","100.04","","","","","","Clear"
"2003-04-10 16:00","2003","04","10","16:00","8.5","","-4.9","","38","","17","","9","","24.1","","100.01","","","","","","Clear"
"2003-04-10 17:00","2003","04","10","17:00","7.6","","-5.2","","40","","15","","11","","24.1","","99.98","","","","","","Clear"
"2003-04-10 18:00","2003","04","10","18:00","7.2","","-7.3","","35","","13","","6","","24.1","","99.92","","","","","","Clear"
"2003-04-10 19:00","2003","04","10","19:00","6.6","","-7.5","","36","","17","","4","","24.1","","99.88","","","","","","Clear"
"2003-04-10 20:00","2003","04","10","20:00","5.9","","-7.6","","37","","","","0","","24.1","","99.83","","","","","","Clear"
"2003-04-10 21:00","2003","04","10","21:00","5.1","","-6.2","","44","","36","","4","","24.1","","99.78","","","","","","Clear"
"2003-04-10 22:00","2003","04","10","22:00","4.3","","-5.1","","50","","8","","4","","24.1","","99.73","","","","","","Clear"
"2003-04-10 23:00","2003","04","10","23:00","3.2","","-5.4","","53","","16","","7","","24.1","","99.69","","","","","","Clear"
"2003-04-11 00:00","2003","04","11","00:00","2.4","","-5.2","","57","","","","0","","24.1","","99.69","","","","","","Clear"
"2003-04-11 01:00","2003","04","11","01:00","1.8","","-5.3","","59","","32","","9","","24.1","","99.68","","","","","","Clear"
"2003-04-11 02:00","2003","04","11","02:00","0.4","","-4.3","","71","","2","","4","","19.3","","99.61","","","","","","Mainly Clear"
"2003-04-11 03:00","2003","04","11","03:00","-0.6","","-4.7","","74","","32","","11","","19.3","","99.60","","","","-4","","Mainly Clear"
"2003-04-11 04:00","2003","04","11","04:00","-0.1","","-4.8","","71","","","","0","","19.3","","99.54","","","","","","Mainly Clear"
"2003-04-11 05:00","2003","04","11","05:00","-0.6","","-5.0","","72","","","","0","","19.3","","99.52","","","","","","Clear"
"2003-04-11 06:00","2003","04","11","06:00","0.2","","-4.7","","70","","35","","4","","19.3","","99.49","","","","","","Mainly Clear"
"2003-04-11 07:00","2003","04","11","07:00","2.0","","-3.7","","66","","2","","7","","19.3","","99.51","","","","","","Mainly Clear"
"2003-04-11 08:00","2003","04","11","08:00","5.5","","-5.7","","44","","9","","7","","19.3","","99.52","","","","","","Mainly Clear"
"2003-04-11 09:00","2003","04","11","09:00","6.5","","-4.0","","47","","2","","6","","16.1","","99.42","","","","","","Clear"
"2003-04-11 10:00","2003","04","11","10:00","8.7","","-2.2","","46","","34","","6","","19.3","","99.33","","","","","","Mainly Clear"
"2003-04-11 11:00","2003","04","11","11:00","10.4","","0.7","","51","","15","","15","","19.3","","99.31","","","","","","Mainly Clear"
"2003-04-11 12:00","2003","04","11","12:00","11.4","","1.1","","49","","7","","6","","19.3","","99.23","","","","","","Mainly Clear"
"2003-04-11 13:00","2003","04","11","13:00","13.0","","2.2","","48","","17","","11","","19.3","","99.16","","","","","","Mainly Clear"
"2003-04-11 14:00","2003","04","11","14:00","12.1","","0.2","","44","","16","","11","","24.1","","99.11","","","","","","Mainly Clear"
"2003-04-11 15:00","2003","04","11","15:00","11.4","","2.0","","52","","18","","11","","24.1","","99.03","","","","","","Mostly Cloudy"
"2003-04-11 16:00","2003","04","11","16:00","10.6","","0.4","","49","","18","","9","","24.1","","98.99","","","","","","Mostly Cloudy"
"2003-04-11 17:00","2003","04","11","17:00","10.1","","-0.1","","49","","16","","13","","24.1","","98.98","","","","","","Mostly Cloudy"
"2003-04-11 18:00","2003","04","11","18:00","8.0","","-1.5","","51","","16","","7","","24.1","","98.95","","","","","","Mostly Cloudy"
"2003-04-11 19:00","2003","04","11","19:00","6.8","","-2.5","","51","","17","","7","","24.1","","98.93","","","","","","Mainly Clear"
"2003-04-11 20:00","2003","04","11","20:00","6.7","","-2.7","","51","","","","0","","24.1","","98.94","","","","","","Mainly Clear"
"2003-04-11 21:00","2003","04","11","21:00","5.7","","-2.2","","57","","31","","6","","24.1","","98.94","","","","","","Mostly Cloudy"
"2003-04-11 22:00","2003","04","11","22:00","5.5","","-1.8","","59","","36","","13","","24.1","","98.91","","","","","","Mainly Clear"
"2003-04-11 23:00","2003","04","11","23:00","5.5","","-1.8","","59","","31","","6","","24.1","","98.85","","","","","","Clear"
"2003-04-12 00:00","2003","04","12","00:00","5.1","","-2.0","","60","","32","","4","","24.1","","98.82","","","","","","Clear"
"2003-04-12 01:00","2003","04","12","01:00","3.0","","-2.4","","68","","32","","15","","24.1","","98.78","","","","","","Clear"
"2003-04-12 02:00","2003","04","12","02:00","3.4","","-2.8","","64","","36","","13","","24.1","","98.75","","","","","","Clear"
"2003-04-12 03:00","2003","04","12","03:00","2.6","","-3.2","","66","","35","","15","","24.1","","98.72","","","","","","Clear"
"2003-04-12 04:00","2003","04","12","04:00","2.6","","-3.1","","66","","34","","20","","24.1","","98.71","","","","","","Clear"
"2003-04-12 05:00","2003","04","12","05:00","2.6","","-3.0","","67","","35","","22","","24.1","","98.72","","","","","","Clear"
"2003-04-12 06:00","2003","04","12","06:00","2.3","","-3.1","","67","","35","","26","","24.1","","98.79","","","","","","Mainly Clear"
"2003-04-12 07:00","2003","04","12","07:00","3.1","","-2.8","","65","","36","","30","","24.1","","98.89","","","","","","Mainly Clear"
"2003-04-12 08:00","2003","04","12","08:00","5.1","","-1.5","","62","","35","","32","","24.1","","98.91","","","","","","Clear"
"2003-04-12 09:00","2003","04","12","09:00","7.2","","-0.2","","59","","1","","33","","24.1","","98.95","","","","","","Clear"
"2003-04-12 10:00","2003","04","12","10:00","8.6","","1.0","","59","","36","","26","","24.1","","99.04","","","","","","Mainly Clear"
"2003-04-12 11:00","2003","04","12","11:00","10.0","","1.9","","57","","36","","28","","24.1","","99.08","","","","","","Mainly Clear"
"2003-04-12 12:00","2003","04","12","12:00","10.8","","2.7","","57","","36","","26","","24.1","","99.12","","","","","","Mainly Clear"
"2003-04-12 13:00","2003","04","12","13:00","11.2","","3.2","","58","","36","","33","","24.1","","99.16","","","","","","Mainly Clear"
"2003-04-12 14:00","2003","04","12","14:00","10.7","","2.9","","58","","34","","39","","24.1","","99.21","","","","","","Mainly Clear"
"2003-04-12 15:00","2003","04","12","15:00","10.2","","2.5","","59","","36","","39","","24.1","","99.25","","","","","","Clear"
"2003-04-12 16:00","2003","04","12","16:00","9.2","","2.4","","62","","33","","33","","24.1","","99.28","","","","","","Clear"
"2003-04-12 17:00","2003","04","12","17:00","8.1","","1.0","","61","","35","","39","","24.1","","99.36","","","","","","Clear"
"2003-04-12 18:00","2003","04","12","18:00","6.3","","-1.0","","60","","34","","35","","24.1","","99.46","","","","","","Clear"
"2003-04-12 19:00","2003","04","12","19:00","4.7","","-2.2","","61","","33","","33","","24.1","","99.55","","","","","","Clear"
"2003-04-12 20:00","2003","04","12","20:00","3.6","","-3.2","","61","","34","","26","","24.1","","99.64","","","","","","Clear"
"2003-04-12 21:00","2003","04","12","21:00","2.8","","-3.9","","61","","35","","28","","24.1","","99.73","","","","","","Clear"
"2003-04-12 22:00","2003","04","12","22:00","2.0","","-4.0","","64","","35","","24","","24.1","","99.79","","","","","","Clear"
"2003-04-12 23:00","2003","04","12","23:00","1.6","","-4.4","","64","","36","","24","","24.1","","99.84","","","","","","Clear"
"2003-04-13 00:00","2003","04","13","00:00","1.4","","-5.6","","60","","1","","15","","24.1","","99.92","","","","","","Clear"
"2003-04-13 01:00","2003","04","13","01:00","1.0","","-6.2","","59","","1","","19","","24.1","","99.97","","","","","","Clear"
"2003-04-13 02:00","2003","04","13","02:00","0.5","","-6.4","","60","","36","","11","","24.1","","100.01","","","","","","Clear"
"2003-04-13 03:00","2003","04","13","03:00","-0.5","","-6.1","","66","","35","","15","","24.1","","100.05","","","","-5","","Clear"
"2003-04-13 04:00","2003","04","13","04:00","-1.0","","-6.3","","67","","35","","17","","24.1","","100.07","","","","-6","","Clear"
"2003-04-13 05:00","2003","04","13","05:00","-1.1","","-6.7","","66","","35","","13","","24.1","","100.16","","","","-5","","Clear"
"2003-04-13 06:00","2003","04","13","06:00","-1.1","","-7.2","","63","","36","","17","","24.1","","100.25","","","","-6","","Clear"
"2003-04-13 07:00","2003","04","13","07:00","-0.3","","-7.0","","61","","35","","15","","24.1","","100.32","","","","-5","","Mainly Clear"
"2003-04-13 08:00","2003","04","13","08:00","0.9","","-7.2","","55","","36","","17","","24.1","","100.36","","","","","","Mainly Clear"
"2003-04-13 09:00","2003","04","13","09:00","2.4","","-6.7","","51","","34","","6","","24.1","","100.42","","","","","","Mainly Clear"
"2003-04-13 10:00","2003","04","13","10:00","4.3","","-7.0","","44","","32","","9","","24.1","","100.45","","","","","","Mainly Clear"
"2003-04-13 11:00","2003","04","13","11:00","5.5","","-8.3","","36","","27","","6","","24.1","","100.45","","","","","","Mainly Clear"
"2003-04-13 12:00","2003","04","13","12:00","7.1","","-9.1","","30","","32","","11","","24.1","","100.43","","","","","","Mainly Clear"
"2003-04-13 13:00","2003","04","13","13:00","8.4","","-8.2","","30","","32","","9","","24.1","","100.42","","","","","","Mainly Clear"
"2003-04-13 14:00","2003","04","13","14:00","10.1","","-8.8","","25","","31","","6","","24.1","","100.40","","","","","","Mostly Cloudy"
"2003-04-13 15:00","2003","04","13","15:00","10.8","","-3.3","","37","","16","","15","","24.1","","100.35","","","","","","Mainly Clear"
"2003-04-13 16:00","2003","04","13","16:00","9.5","","-4.7","","36","","16","","11","","24.1","","100.34","","","","","","Mainly Clear"
"2003-04-13 17:00","2003","04","13","17:00","9.5","","-4.8","","36","","14","","11","","24.1","","100.34","","","","","","Mainly Clear"
"2003-04-13 18:00","2003","04","13","18:00","8.4","","-5.3","","37","","17","","9","","24.1","","100.36","","","","","","Clear"
"2003-04-13 19:00","2003","04","13","19:00","6.8","","-6.3","","39","","16","","6","","24.1","","100.37","","","","","","Mainly Clear"
"2003-04-13 20:00","2003","04","13","20:00","6.4","","-4.4","","46","","7","","4","","24.1","","100.46","","","","","","Mainly Clear"
"2003-04-13 21:00","2003","04","13","21:00","4.7","","-4.7","","50","","36","","11","","24.1","","100.49","","","","","","Mainly Clear"
"2003-04-13 22:00","2003","04","13","22:00","3.4","","-5.6","","52","","36","","13","","24.1","","100.50","","","","","","Clear"
"2003-04-13 23:00","2003","04","13","23:00","2.7","","-6.8","","50","","36","","9","","24.1","","100.51","","","","","","Mainly Clear"
"2003-04-14 00:00","2003","04","14","00:00","2.1","","-7.9","","47","","36","","6","","24.1","","100.54","","","","","","Clear"
"2003-04-14 01:00","2003","04","14","01:00","1.8","","-8.5","","46","","36","","7","","24.1","","100.50","","","","","","Mainly Clear"
"2003-04-14 02:00","2003","04","14","02:00","2.0","","-8.4","","46","","","","0","","24.1","","100.44","","","","","","Mainly Clear"
"2003-04-14 03:00","2003","04","14","03:00","1.6","","-10.7","","40","","","","0","","24.1","","100.44","","","","","","Mostly Cloudy"
"2003-04-14 04:00","2003","04","14","04:00","2.5","","-8.9","","43","","17","","6","","24.1","","100.40","","","","","","Cloudy"
"2003-04-14 05:00","2003","04","14","05:00","2.8","","-7.2","","48","","18","","4","","24.1","","100.39","","","","","","Mostly Cloudy"
"2003-04-14 06:00","2003","04","14","06:00","3.1","","-5.4","","54","","","","0","","24.1","","100.43","","","","","","Mainly Clear"
"2003-04-14 07:00","2003","04","14","07:00","4.3","","-4.2","","54","","19","","6","","24.1","","100.44","","","","","","Mainly Clear"
"2003-04-14 08:00","2003","04","14","08:00","7.2","","-3.3","","47","","16","","7","","24.1","","100.42","","","","","","Mainly Clear"
"2003-04-14 09:00","2003","04","14","09:00","7.8","","-1.8","","51","","14","","9","","24.1","","100.36","","","","","","Mainly Clear"
"2003-04-14 10:00","2003","04","14","10:00","9.3","","-1.3","","47","","14","","17","","24.1","","100.29","","","","","","Mostly Cloudy"
"2003-04-14 11:00","2003","04","14","11:00","10.1","","-2.5","","41","","17","","15","","24.1","","100.23","","","","","","Mostly Cloudy"
"2003-04-14 12:00","2003","04","14","12:00","13.0","","-0.9","","38","","15","","13","","24.1","","100.10","","","","","","Mainly Clear"
"2003-04-14 13:00","2003","04","14","13:00","15.3","","-0.2","","35","","14","","22","","24.1","","99.96","","","","","","Mainly Clear"
"2003-04-14 14:00","2003","04","14","14:00","16.2","","0.7","","35","","15","","15","","24.1","","99.87","","","","","","Mainly Clear"
"2003-04-14 15:00","2003","04","14","15:00","20.3","","0.9","","27","","22","","30","","24.1","","99.74","","","","","","Mostly Cloudy"
"2003-04-14 16:00","2003","04","14","16:00","21.3","","0.4","","25","","22","","28","","24.1","","99.65","","","","","","Mostly Cloudy"
"2003-04-14 17:00","2003","04","14","17:00","19.7","","0.0","","27","","21","","24","","24.1","","99.59","","","","","","Mostly Cloudy"
"2003-04-14 18:00","2003","04","14","18:00","18.6","","0.5","","30","","22","","26","","24.1","","99.57","","","","","","Mostly Cloudy"
"2003-04-14 19:00","2003","04","14","19:00","17.7","","1.4","","33","","22","","26","","24.1","","99.52","","","","","","Mostly Cloudy"
"2003-04-14 20:00","2003","04","14","20:00","17.1","","2.3","","37","","21","","7","","24.1","","99.53","","","","","","Mostly Cloudy"
"2003-04-14 21:00","2003","04","14","21:00","17.0","","3.6","","41","","24","","28","","24.1","","99.50","","","","","","Mostly Cloudy"
"2003-04-14 22:00","2003","04","14","22:00","17.6","","3.4","","39","","24","","24","","24.1","","99.47","","","","","","Mostly Cloudy"
"2003-04-14 23:00","2003","04","14","23:00","17.4","","3.7","","40","","23","","26","","24.1","","99.41","","","","","","Mostly Cloudy"
"2003-04-15 00:00","2003","04","15","00:00","17.3","","3.6","","40","","23","","32","","24.1","","99.35","","","","","","Mainly Clear"
"2003-04-15 01:00","2003","04","15","01:00","16.4","","3.4","","42","","24","","33","","24.1","","99.36","","","","","","Mainly Clear"
"2003-04-15 02:00","2003","04","15","02:00","15.1","","3.3","","45","","23","","15","","24.1","","99.35","","","","","","Mainly Clear"
"2003-04-15 03:00","2003","04","15","03:00","15.0","","3.1","","45","","22","","19","","24.1","","99.35","","","","","","Mostly Cloudy"
"2003-04-15 04:00","2003","04","15","04:00","13.7","","3.0","","48","","21","","17","","24.1","","99.33","","","","","","Mostly Cloudy"
"2003-04-15 05:00","2003","04","15","05:00","13.6","","3.2","","49","","21","","17","","24.1","","99.26","","","","","","Mostly Cloudy"
"2003-04-15 06:00","2003","04","15","06:00","13.8","","4.1","","52","","21","","13","","24.1","","99.28","","","","","","Cloudy"
"2003-04-15 07:00","2003","04","15","07:00","14.9","","5.2","","52","","21","","15","","24.1","","99.25","","","","","","Cloudy"
"2003-04-15 08:00","2003","04","15","08:00","16.7","","6.9","","52","","24","","33","","24.1","","99.17","","","","","","Cloudy"
"2003-04-15 09:00","2003","04","15","09:00","18.1","","8.0","","52","","24","","39","","24.1","","99.10","","","","","","Mostly Cloudy"
"2003-04-15 10:00","2003","04","15","10:00","21.1","","9.3","","47","","24","","39","","24.1","","99.03","","","","","","Mostly Cloudy"
"2003-04-15 11:00","2003","04","15","11:00","24.0","","10.5","","43","","24","","37","","24.1","","98.99","","26","","","","Mostly Cloudy"
"2003-04-15 12:00","2003","04","15","12:00","25.8","","11.3","","40","","23","","39","","24.1","","98.88","","28","","","","Mostly Cloudy"
"2003-04-15 13:00","2003","04","15","13:00","26.9","","11.6","","39","","24","","50","","24.1","","98.76","","29","","","","Mostly Cloudy"
"2003-04-15 14:00","2003","04","15","14:00","26.6","","12.1","","41","","22","","48","","24.1","","98.65","","29","","","","Mainly Clear"
"2003-04-15 15:00","2003","04","15","15:00","26.6","","9.7","","35","","23","","44","","24.1","","98.60","","28","","","","Mostly Cloudy"
"2003-04-15 16:00","2003","04","15","16:00","26.2","","9.0","","34","","24","","56","","24.1","","98.58","","27","","","","Mainly Clear"
"2003-04-15 17:00","2003","04","15","17:00","25.8","","7.4","","31","","23","","43","","24.1","","98.60","","26","","","","Mainly Clear"
"2003-04-15 18:00","2003","04","15","18:00","24.8","","6.4","","31","","23","","37","","24.1","","98.58","","25","","","","Mostly Cloudy"
"2003-04-15 19:00","2003","04","15","19:00","23.3","","6.1","","33","","23","","33","","24.1","","98.60","","","","","","Mostly Cloudy"
"2003-04-15 20:00","2003","04","15","20:00","21.8","","5.8","","35","","24","","32","","24.1","","98.61","","","","","","Mainly Clear"
"2003-04-15 21:00","2003","04","15","21:00","22.0","","5.6","","34","","24","","30","","24.1","","98.60","","","","","","Mainly Clear"
"2003-04-15 22:00","2003","04","15","22:00","21.0","","5.8","","37","","25","","41","","24.1","","98.60","","","","","","Mainly Clear"
"2003-04-15 23:00","2003","04","15","23:00","19.8","","6.3","","41","","27","","28","","24.1","","98.70","","","","","","Mostly Cloudy"
"2003-04-16 00:00","2003","04","16","00:00","17.8","","7.4","","51","","33","","19","","24.1","","98.74","","","","","","Mostly Cloudy"
"2003-04-16 01:00","2003","04","16","01:00","13.9","","7.8","","67","","33","","15","","24.1","","98.70","","","","","","Mostly Cloudy"
"2003-04-16 02:00","2003","04","16","02:00","11.8","","7.2","","73","","36","","20","","24.1","","98.72","","","","","","Mostly Cloudy"
"2003-04-16 03:00","2003","04","16","03:00","9.3","","5.5","","77","","36","","20","","24.1","","98.81","","","","","","Mostly Cloudy"
"2003-04-16 04:00","2003","04","16","04:00","8.0","","5.0","","81","","36","","24","","24.1","","98.88","","","","","","Cloudy"
"2003-04-16 05:00","2003","04","16","05:00","6.6","","4.2","","85","","35","","24","","24.1","","98.94","","","","","","Cloudy"
"2003-04-16 06:00","2003","04","16","06:00","6.1","","4.3","","88","","36","","20","","19.3","","99.08","","","","","","Cloudy"
"2003-04-16 07:00","2003","04","16","07:00","6.5","","4.6","","88","","2","","17","","19.3","","99.16","","","","","","Cloudy"
"2003-04-16 08:00","2003","04","16","08:00","6.8","","3.9","","82","","2","","28","","24.1","","99.31","","","","","","Mostly Cloudy"
"2003-04-16 09:00","2003","04","16","09:00","6.9","","2.2","","72","","4","","30","","24.1","","99.42","","","","","","Cloudy"
"2003-04-16 10:00","2003","04","16","10:00","7.9","","0.6","","60","","5","","22","","24.1","","99.53","","","","","","Cloudy"
"2003-04-16 11:00","2003","04","16","11:00","7.9","","-0.1","","57","","5","","22","","24.1","","99.69","","","","","","Cloudy"
"2003-04-16 12:00","2003","04","16","12:00","7.2","","-1.0","","56","","4","","22","","24.1","","99.73","","","","","","Cloudy"
"2003-04-16 13:00","2003","04","16","13:00","7.4","","-2.3","","50","","7","","13","","24.1","","99.84","","","","","","Cloudy"
"2003-04-16 14:00","2003","04","16","14:00","6.5","","-1.2","","58","","4","","26","","24.1","","99.87","","","","","","Cloudy"
"2003-04-16 15:00","2003","04","16","15:00","4.5","","-0.9","","68","","4","","32","","24.1","","99.95","","","","","","Cloudy"
"2003-04-16 16:00","2003","04","16","16:00","2.7","","-4.4","","59","","5","","30","","24.1","","100.08","","","","","","Cloudy"
"2003-04-16 17:00","2003","04","16","17:00","2.4","","-5.2","","57","","6","","26","","24.1","","100.10","","","","","","Cloudy"
"2003-04-16 18:00","2003","04","16","18:00","1.8","","-4.9","","61","","6","","19","","24.1","","100.16","","","","","","Rain Showers"
"2003-04-16 19:00","2003","04","16","19:00","1.7","","-5.9","","57","","6","","22","","24.1","","100.19","","","","","","Cloudy"
"2003-04-16 20:00","2003","04","16","20:00","2.0","","-5.0","","60","","6","","19","","24.1","","100.28","","","","","","Cloudy"
"2003-04-16 21:00","2003","04","16","21:00","2.2","","-8.1","","46","","6","","32","","24.1","","100.31","","","","","","Cloudy"
"2003-04-16 22:00","2003","04","16","22:00","2.1","","-8.3","","46","","8","","28","","24.1","","100.37","","","","","","Cloudy"
"2003-04-16 23:00","2003","04","16","23:00","1.5","","-9.2","","45","","6","","20","","24.1","","100.36","","","","","","Mostly Cloudy"
"2003-04-17 00:00","2003","04","17","00:00","0.9","","-12.0","","37","","7","","24","","24.1","","100.42","","","","","","Cloudy"
"2003-04-17 01:00","2003","04","17","01:00","0.4","","-12.2","","38","","8","","20","","24.1","","100.46","","","","","","Cloudy"
"2003-04-17 02:00","2003","04","17","02:00","-0.1","","-13.6","","35","","8","","22","","24.1","","100.47","","","","-6","","Mostly Cloudy"
"2003-04-17 03:00","2003","04","17","03:00","-0.8","","-13.6","","37","","8","","24","","24.1","","100.48","","","","-7","","Cloudy"
"2003-04-17 04:00","2003","04","17","04:00","-1.3","","-13.4","","39","","8","","32","","24.1","","100.49","","","","-8","","Cloudy"
"2003-04-17 05:00","2003","04","17","05:00","-1.5","","-13.0","","41","","9","","28","","24.1","","100.56","","","","-8","","Snow"
"2003-04-17 06:00","2003","04","17","06:00","-2.0","","-12.2","","46","","9","","32","","24.1","","100.59","","","","-9","","Cloudy"
"2003-04-17 07:00","2003","04","17","07:00","-2.0","","-12.3","","45","","9","","24","","24.1","","100.62","","","","-8","","Cloudy"
"2003-04-17 08:00","2003","04","17","08:00","-1.9","","-12.2","","45","","9","","33","","24.1","","100.60","","","","-9","","Mostly Cloudy"
"2003-04-17 09:00","2003","04","17","09:00","-1.3","","-12.1","","44","","9","","39","","24.1","","100.58","","","","-9","","Mostly Cloudy"
"2003-04-17 10:00","2003","04","17","10:00","-0.2","","-11.5","","42","","9","","41","","24.1","","100.55","","","","-8","","Mostly Cloudy"
"2003-04-17 11:00","2003","04","17","11:00","0.7","","-10.6","","42","","10","","37","","24.1","","100.53","","","","","","Cloudy"
"2003-04-17 12:00","2003","04","17","12:00","0.8","","-10.1","","44","","9","","39","","24.1","","100.46","","","","","","Cloudy"
"2003-04-17 13:00","2003","04","17","13:00","2.0","","-9.4","","43","","9","","41","","24.1","","100.43","","","","","","Cloudy"
"2003-04-17 14:00","2003","04","17","14:00","2.7","","-9.6","","40","","10","","32","","24.1","","100.39","","","","","","Mostly Cloudy"
"2003-04-17 15:00","2003","04","17","15:00","2.4","","-9.9","","40","","10","","39","","24.1","","100.33","","","","","","Cloudy"
"2003-04-17 16:00","2003","04","17","16:00","2.6","","-10.0","","39","","9","","43","","24.1","","100.28","","","","","","Cloudy"
"2003-04-17 17:00","2003","04","17","17:00","3.9","","-10.1","","35","","9","","32","","24.1","","100.24","","","","","","Cloudy"
"2003-04-17 18:00","2003","04","17","18:00","4.0","","-10.2","","35","","9","","30","","24.1","","100.16","","","","","","Mostly Cloudy"
"2003-04-17 19:00","2003","04","17","19:00","4.1","","-9.8","","36","","9","","28","","24.1","","100.10","","","","","","Mostly Cloudy"
"2003-04-17 20:00","2003","04","17","20:00","4.1","","-9.0","","38","","9","","35","","24.1","","100.07","","","","","","Mostly Cloudy"
"2003-04-17 21:00","2003","04","17","21:00","4.0","","-8.3","","40","","9","","32","","24.1","","100.06","","","","","","Mostly Cloudy"
"2003-04-17 22:00","2003","04","17","22:00","3.5","","-6.9","","46","","10","","33","","24.1","","100.05","","","","","","Mainly Clear"
"2003-04-17 23:00","2003","04","17","23:00","3.1","","-5.2","","54","","9","","28","","24.1","","100.00","","","","","","Mostly Cloudy"
"2003-04-18 00:00","2003","04","18","00:00","3.0","","-3.8","","61","","10","","26","","24.1","","99.97","","","","","","Mostly Cloudy"
"2003-04-18 01:00","2003","04","18","01:00","3.0","","-2.6","","67","","9","","22","","24.1","","99.94","","","","","","Mainly Clear"
"2003-04-18 02:00","2003","04","18","02:00","2.9","","-1.6","","72","","9","","13","","24.1","","99.92","","","","","","Mostly Cloudy"
"2003-04-18 03:00","2003","04","18","03:00","3.2","","-0.6","","76","","9","","9","","24.1","","99.92","","","","","","Mostly Cloudy"
"2003-04-18 04:00","2003","04","18","04:00","4.1","","0.1","","75","","12","","11","","24.1","","99.93","","","","","","Mainly Clear"
"2003-04-18 05:00","2003","04","18","05:00","4.3","","0.5","","76","","13","","11","","24.1","","99.93","","","","","","Mainly Clear"
"2003-04-18 06:00","2003","04","18","06:00","4.7","","1.0","","77","","12","","13","","14.5","","99.99","","","","","","Mostly Cloudy"
"2003-04-18 07:00","2003","04","18","07:00","5.5","","1.4","","75","","12","","11","","16.1","","100.04","","","","","","Mostly Cloudy"
"2003-04-18 08:00","2003","04","18","08:00","5.4","","1.5","","76","","13","","13","","16.1","","100.10","","","","","","Rain Showers"
"2003-04-18 09:00","2003","04","18","09:00","5.9","","3.0","","82","","13","","7","","16.1","","100.12","","","","","","Cloudy"
"2003-04-18 10:00","2003","04","18","10:00","6.8","","3.1","","77","","13","","11","","14.5","","100.13","","","","","","Cloudy"
"2003-04-18 11:00","2003","04","18","11:00","6.8","","4.4","","85","","11","","11","","14.5","","100.17","","","","","","Cloudy"
"2003-04-18 12:00","2003","04","18","12:00","10.0","","4.6","","69","","13","","11","","12.9","","100.19","","","","","","Cloudy"
"2003-04-18 13:00","2003","04","18","13:00","10.2","","4.0","","65","","10","","11","","16.1","","100.21","","","","","","Cloudy"
"2003-04-18 14:00","2003","04","18","14:00","10.0","","3.5","","64","","9","","13","","16.1","","100.19","","","","","","Cloudy"
"2003-04-18 15:00","2003","04","18","15:00","10.4","","3.3","","61","","8","","13","","16.1","","100.13","","","","","","Cloudy"
"2003-04-18 16:00","2003","04","18","16:00","10.6","","3.5","","61","","9","","15","","16.1","","100.17","","","","","","Cloudy"
"2003-04-18 17:00","2003","04","18","17:00","10.2","","3.4","","63","","10","","13","","16.1","","100.20","","","","","","Rain Showers"
"2003-04-18 18:00","2003","04","18","18:00","9.6","","5.2","","74","","6","","6","","19.3","","100.23","","","","","","Rain Showers"
"2003-04-18 19:00","2003","04","18","19:00","10.2","","5.4","","72","","4","","6","","19.3","","100.20","","","","","","Cloudy"
"2003-04-18 20:00","2003","04","18","20:00","10.3","","6.3","","76","","11","","7","","19.3","","100.24","","","","","","Cloudy"
"2003-04-18 21:00","2003","04","18","21:00","7.9","","4.9","","81","","22","","4","","19.3","","100.31","","","","","","Cloudy"
"2003-04-18 22:00","2003","04","18","22:00","8.6","","5.4","","80","","14","","6","","19.3","","100.31","","","","","","Cloudy"
"2003-04-18 23:00","2003","04","18","23:00","8.2","","5.2","","81","","13","","7","","19.3","","100.32","","","","","","Cloudy"
"2003-04-19 00:00","2003","04","19","00:00","8.3","","5.4","","82","","12","","4","","24.1","","100.36","","","","","","Cloudy"
"2003-04-19 01:00","2003","04","19","01:00","8.0","","5.1","","82","","14","","6","","24.1","","100.33","","","","","","Cloudy"
"2003-04-19 02:00","2003","04","19","02:00","7.9","","5.0","","82","","15","","6","","24.1","","100.37","","","","","","Cloudy"
"2003-04-19 03:00","2003","04","19","03:00","7.8","","4.9","","82","","14","","6","","24.1","","100.39","","","","","","Cloudy"
"2003-04-19 04:00","2003","04","19","04:00","8.1","","5.1","","81","","12","","4","","24.1","","100.43","","","","","","Cloudy"
"2003-04-19 05:00","2003","04","19","05:00","8.6","","5.3","","80","","10","","6","","19.3","","100.43","","","","","","Mostly Cloudy"
"2003-04-19 06:00","2003","04","19","06:00","8.9","","5.6","","80","","11","","6","","16.1","","100.48","","","","","","Cloudy"
"2003-04-19 07:00","2003","04","19","07:00","8.9","","5.6","","80","","7","","6","","16.1","","100.54","","","","","","Cloudy"
"2003-04-19 08:00","2003","04","19","08:00","9.8","","6.0","","77","","11","","7","","14.5","","100.55","","","","","","Mostly Cloudy"
"2003-04-19 09:00","2003","04","19","09:00","11.4","","6.4","","71","","14","","15","","14.5","","100.49","","","","","","Mostly Cloudy"
"2003-04-19 10:00","2003","04","19","10:00","12.3","","6.5","","68","","14","","17","","19.3","","100.48","","","","","","Mostly Cloudy"
"2003-04-19 11:00","2003","04","19","11:00","12.6","","6.6","","67","","11","","13","","19.3","","100.48","","","","","","Mostly Cloudy"
"2003-04-19 12:00","2003","04","19","12:00","13.8","","7.0","","63","","11","","15","","16.1","","100.45","","","","","","Mostly Cloudy"
"2003-04-19 13:00","2003","04","19","13:00","14.7","","7.5","","62","","13","","15","","19.3","","100.42","","","","","","Mostly Cloudy"
"2003-04-19 14:00","2003","04","19","14:00","14.9","","7.6","","62","","13","","13","","19.3","","100.34","","","","","","Cloudy"
"2003-04-19 15:00","2003","04","19","15:00","16.3","","7.8","","57","","14","","13","","19.3","","100.25","","","","","","Cloudy"
"2003-04-19 16:00","2003","04","19","16:00","16.3","","7.6","","56","","10","","20","","24.1","","100.16","","","","","","Mostly Cloudy"
"2003-04-19 17:00","2003","04","19","17:00","15.4","","7.3","","58","","10","","15","","19.3","","100.15","","","","","","Mostly Cloudy"
"2003-04-19 18:00","2003","04","19","18:00","13.0","","6.4","","64","","10","","17","","24.1","","100.24","","","","","","Mostly Cloudy"
"2003-04-19 19:00","2003","04","19","19:00","11.5","","6.3","","70","","10","","17","","24.1","","100.23","","","","","","Mostly Cloudy"
"2003-04-19 20:00","2003","04","19","20:00","11.0","","6.5","","74","","9","","11","","19.3","","100.23","","","","","","Mainly Clear"
"2003-04-19 21:00","2003","04","19","21:00","10.7","","6.8","","77","","9","","4","","19.3","","100.28","","","","","","Mainly Clear"
"2003-04-19 22:00","2003","04","19","22:00","11.0","","7.2","","77","","8","","9","","19.3","","100.20","","","","","","Mainly Clear"
"2003-04-19 23:00","2003","04","19","23:00","10.8","","7.3","","79","","","","0","","24.1","","100.13","","","","","","Mostly Cloudy"
"2003-04-20 00:00","2003","04","20","00:00","11.2","","7.4","","77","","10","","9","","24.1","","100.05","","","","","","Mostly Cloudy"
"2003-04-20 01:00","2003","04","20","01:00","9.6","","6.5","","81","","18","","7","","24.1","","100.01","","","","","","Mainly Clear"
"2003-04-20 02:00","2003","04","20","02:00","7.7","","5.8","","88","","16","","6","","16.1","","99.96","","","","","","Mostly Cloudy"
"2003-04-20 03:00","2003","04","20","03:00","7.0","","5.4","","90","","26","","9","","16.1","","99.97","","","","","","Mostly Cloudy"
"2003-04-20 04:00","2003","04","20","04:00","7.3","","5.6","","89","","11","","7","","16.1","","99.78","","","","","","Mainly Clear"
"2003-04-20 05:00","2003","04","20","05:00","6.8","","5.6","","92","","","","0","","16.1","","99.87","","","","","","Mostly Cloudy"
"2003-04-20 06:00","2003","04","20","06:00","7.6","","5.9","","89","","10","","9","","8.0","","99.81","","","","","","Fog"
"2003-04-20 07:00","2003","04","20","07:00","7.7","","6.0","","89","","","","0","","11.3","","99.86","","","","","","Mainly Clear"
"2003-04-20 08:00","2003","04","20","08:00","10.4","","6.9","","79","","12","","9","","12.9","","99.83","","","","","","Mainly Clear"
"2003-04-20 09:00","2003","04","20","09:00","12.8","","8.0","","73","","14","","11","","12.9","","99.80","","","","","","Mainly Clear"
"2003-04-20 10:00","2003","04","20","10:00","13.2","","7.8","","70","","14","","15","","12.9","","99.75","","","","","","Mostly Cloudy"
"2003-04-20 11:00","2003","04","20","11:00","14.7","","8.1","","65","","15","","15","","12.9","","99.70","","","","","","Mostly Cloudy"
"2003-04-20 12:00","2003","04","20","12:00","16.7","","9.2","","61","","15","","17","","14.5","","99.60","","","","","","Mostly Cloudy"
"2003-04-20 13:00","2003","04","20","13:00","17.2","","8.9","","58","","15","","19","","14.5","","99.51","","","","","","Mostly Cloudy"
"2003-04-20 14:00","2003","04","20","14:00","18.3","","9.2","","55","","16","","20","","16.1","","99.42","","","","","","Mostly Cloudy"
"2003-04-20 15:00","2003","04","20","15:00","18.9","","9.4","","54","","14","","15","","19.3","","99.32","","","","","","Mostly Cloudy"
"2003-04-20 16:00","2003","04","20","16:00","19.2","","9.2","","52","","12","","22","","19.3","","99.19","","","","","","Mostly Cloudy"
"2003-04-20 17:00","2003","04","20","17:00","18.8","","9.3","","54","","13","","17","","19.3","","99.10","","","","","","Mostly Cloudy"
"2003-04-20 18:00","2003","04","20","18:00","18.3","","8.7","","53","","12","","11","","19.3","","99.02","","","","","","Mostly Cloudy"
"2003-04-20 19:00","2003","04","20","19:00","18.0","","8.3","","53","","11","","9","","24.1","","98.91","","","","","","Mostly Cloudy"
"2003-04-20 20:00","2003","04","20","20:00","15.1","","13.2","","88","","23","","35","","9.7","","99.08","","","","","","Thunderstorms,Heavy Rain Showers"
"2003-04-20 21:00","2003","04","20","21:00","15.3","","14.3","","94","","15","","13","","24.1","","98.93","","","","","","Cloudy"
"2003-04-20 22:00","2003","04","20","22:00","16.3","","15.0","","92","","20","","11","","24.1","","98.97","","","","","","Rain Showers"
"2003-04-20 23:00","2003","04","20","23:00","14.2","","13.9","","98","","17","","19","","4.0","","98.91","","","","","","Rain Showers,Fog"
"2003-04-21 00:00","2003","04","21","00:00","14.1","","13.8","","98","","16","","11","","11.3","","98.84","","","","","","Cloudy"
"2003-04-21 01:00","2003","04","21","01:00","13.6","","13.2","","97","","18","","19","","16.1","","98.85","","","","","","Cloudy"
"2003-04-21 02:00","2003","04","21","02:00","13.8","","12.5","","92","","19","","15","","24.1","","98.79","","","","","","Mostly Cloudy"
"2003-04-21 03:00","2003","04","21","03:00","13.7","","12.5","","92","","22","","19","","24.1","","98.79","","","","","","Cloudy"
"2003-04-21 04:00","2003","04","21","04:00","13.9","","12.6","","92","","19","","17","","24.1","","98.75","","","","","","Cloudy"
"2003-04-21 05:00","2003","04","21","05:00","13.5","","11.9","","90","","19","","13","","24.1","","98.71","","","","","","Mostly Cloudy"
"2003-04-21 06:00","2003","04","21","06:00","13.2","","11.8","","91","","17","","9","","12.9","","98.68","","","","","","Cloudy"
"2003-04-21 07:00","2003","04","21","07:00","12.3","","11.3","","94","","15","","6","","9.7","","98.68","","","","","","Fog"
"2003-04-21 08:00","2003","04","21","08:00","14.3","","12.9","","91","","22","","17","","8.0","","98.65","","","","","","Fog"
"2003-04-21 09:00","2003","04","21","09:00","15.0","","13.0","","88","","22","","19","","9.7","","98.64","","","","","","Fog"
"2003-04-21 10:00","2003","04","21","10:00","16.4","","11.6","","73","","22","","17","","11.3","","98.59","","","","","","Mostly Cloudy"
"2003-04-21 11:00","2003","04","21","11:00","16.7","","11.8","","73","","20","","15","","16.1","","98.52","","","","","","Mostly Cloudy"
"2003-04-21 12:00","2003","04","21","12:00","16.9","","11.0","","68","","21","","19","","16.1","","98.48","","","","","","Cloudy"
"2003-04-21 13:00","2003","04","21","13:00","17.9","","9.7","","59","","22","","32","","19.3","","98.41","","","","","","Mainly Clear"
"2003-04-21 14:00","2003","04","21","14:00","18.6","","7.4","","48","","23","","41","","24.1","","98.36","","","","","","Mostly Cloudy"
"2003-04-21 15:00","2003","04","21","15:00","17.4","","6.3","","48","","27","","30","","24.1","","98.42","","","","","","Mainly Clear"
"2003-04-21 16:00","2003","04","21","16:00","16.0","","5.6","","50","","26","","22","","24.1","","98.42","","","","","","Mostly Cloudy"
"2003-04-21 17:00","2003","04","21","17:00","14.9","","6.1","","56","","29","","20","","24.1","","98.43","","","","","","Mostly Cloudy"
"2003-04-21 18:00","2003","04","21","18:00","14.2","","6.6","","60","","29","","15","","24.1","","98.42","","","","","","Cloudy"
"2003-04-21 19:00","2003","04","21","19:00","13.7","","6.3","","61","","31","","9","","19.3","","98.44","","","","","","Mostly Cloudy"
"2003-04-21 20:00","2003","04","21","20:00","13.4","","5.9","","60","","","","0","","19.3","","98.47","","","","","","Cloudy"
"2003-04-21 21:00","2003","04","21","21:00","12.5","","7.7","","73","","29","","20","","19.3","","98.48","","","","","","Cloudy"
"2003-04-21 22:00","2003","04","21","22:00","11.8","","7.9","","77","","28","","9","","19.3","","98.47","","","","","","Cloudy"
"2003-04-21 23:00","2003","04","21","23:00","9.7","","8.2","","90","","28","","24","","11.3","","98.49","","","","","","Rain"
"2003-04-22 00:00","2003","04","22","00:00","9.5","","7.8","","89","","30","","15","","19.3","","98.50","","","","","","Rain"
"2003-04-22 01:00","2003","04","22","01:00","9.1","","7.6","","90","","27","","6","","24.1","","98.46","","","","","","Cloudy"
"2003-04-22 02:00","2003","04","22","02:00","8.8","","7.5","","92","","26","","9","","24.1","","98.42","","","","","","Rain"
"2003-04-22 03:00","2003","04","22","03:00","8.6","","7.1","","90","","25","","15","","19.3","","98.42","","","","","","Cloudy"
"2003-04-22 04:00","2003","04","22","04:00","8.3","","7.2","","93","","24","","9","","19.3","","98.41","","","","","","Rain"
"2003-04-22 05:00","2003","04","22","05:00","8.5","","7.2","","92","","23","","7","","19.3","","98.42","","","","","","Cloudy"
"2003-04-22 06:00","2003","04","22","06:00","8.4","","7.5","","94","","25","","13","","11.3","","98.43","","","","","","Rain"
"2003-04-22 07:00","2003","04","22","07:00","7.6","","6.8","","95","","28","","17","","19.3","","98.47","","","","","","Rain"
"2003-04-22 08:00","2003","04","22","08:00","7.5","","5.2","","85","","28","","20","","24.1","","98.49","","","","","","Rain Showers"
"2003-04-22 09:00","2003","04","22","09:00","6.9","","4.9","","87","","27","","26","","16.1","","98.54","","","","","","Rain Showers"
"2003-04-22 10:00","2003","04","22","10:00","6.9","","4.7","","86","","28","","24","","19.3","","98.57","","","","","","Rain Showers"
"2003-04-22 11:00","2003","04","22","11:00","7.0","","4.1","","82","","27","","19","","19.3","","98.57","","","","","","Rain Showers"
"2003-04-22 12:00","2003","04","22","12:00","7.0","","3.4","","78","","25","","20","","19.3","","98.59","","","","","","Rain Showers"
"2003-04-22 13:00","2003","04","22","13:00","6.6","","4.2","","85","","26","","22","","16.1","","98.59","","","","","","Rain Showers"
"2003-04-22 14:00","2003","04","22","14:00","7.1","","5.2","","88","","27","","15","","12.9","","98.60","","","","","","Rain Showers"
"2003-04-22 15:00","2003","04","22","15:00","5.3","","4.0","","91","","35","","26","","19.3","","98.66","","","","","","Rain Showers"
"2003-04-22 16:00","2003","04","22","16:00","4.7","","1.6","","80","","32","","32","","24.1","","98.73","","","","","","Cloudy"
"2003-04-22 17:00","2003","04","22","17:00","4.1","","0.5","","77","","32","","37","","24.1","","98.81","","","","","","Cloudy"
"2003-04-22 18:00","2003","04","22","18:00","3.1","","-1.1","","74","","33","","33","","24.1","","98.88","","","","","","Mostly Cloudy"
"2003-04-22 19:00","2003","04","22","19:00","2.6","","-1.0","","77","","33","","32","","16.1","","98.93","","","","","","Rain"
"2003-04-22 20:00","2003","04","22","20:00","2.3","","-0.6","","81","","32","","32","","16.1","","99.00","","","","","","Snow"
"2003-04-22 21:00","2003","04","22","21:00","2.0","","-0.8","","82","","33","","33","","24.1","","99.08","","","","","","Cloudy"
"2003-04-22 22:00","2003","04","22","22:00","2.1","","-0.9","","80","","34","","37","","24.1","","99.10","","","","","","Cloudy"
"2003-04-22 23:00","2003","04","22","23:00","2.0","","-1.6","","77","","32","","33","","24.1","","99.16","","","","","","Cloudy"
"2003-04-23 00:00","2003","04","23","00:00","1.1","","-3.1","","74","","33","","35","","24.1","","99.18","","","","","","Mostly Cloudy"
"2003-04-23 01:00","2003","04","23","01:00","0.7","","-3.5","","73","","34","","30","","24.1","","99.21","","","","","","Mostly Cloudy"
"2003-04-23 02:00","2003","04","23","02:00","0.3","","-3.9","","73","","34","","32","","24.1","","99.23","","","","","","Mostly Cloudy"
"2003-04-23 03:00","2003","04","23","03:00","0.1","","-3.7","","76","","34","","33","","24.1","","99.24","","","","","","Cloudy"
"2003-04-23 04:00","2003","04","23","04:00","-0.1","","-3.8","","76","","33","","32","","24.1","","99.26","","","","-7","","Cloudy"
"2003-04-23 05:00","2003","04","23","05:00","-0.6","","-5.0","","72","","34","","26","","24.1","","99.32","","","","-7","","Cloudy"
"2003-04-23 06:00","2003","04","23","06:00","-1.5","","-6.5","","69","","34","","37","","24.1","","99.42","","","","-9","","Mostly Cloudy"
"2003-04-23 07:00","2003","04","23","07:00","-1.4","","-5.4","","74","","34","","28","","24.1","","99.46","","","","-8","","Mostly Cloudy"
"2003-04-23 08:00","2003","04","23","08:00","-1.0","","-5.6","","71","","34","","33","","24.1","","99.53","","","","-8","","Mostly Cloudy"
"2003-04-23 09:00","2003","04","23","09:00","-0.2","","-5.8","","66","","33","","28","","24.1","","99.59","","","","-7","","Mostly Cloudy"
"2003-04-23 10:00","2003","04","23","10:00","1.3","","-4.9","","63","","32","","33","","24.1","","99.58","","","","","","Mainly Clear"
"2003-04-23 11:00","2003","04","23","11:00","2.5","","-4.8","","59","","34","","30","","24.1","","99.59","","","","","","Mainly Clear"
"2003-04-23 12:00","2003","04","23","12:00","2.6","","-4.0","","62","","34","","39","","24.1","","99.59","","","","","","Mainly Clear"
"2003-04-23 13:00","2003","04","23","13:00","3.8","","-3.4","","59","","35","","32","","24.1","","99.61","","","","","","Mainly Clear"
"2003-04-23 14:00","2003","04","23","14:00","5.0","","-2.3","","59","","36","","28","","24.1","","99.60","","","","","","Clear"
"2003-04-23 15:00","2003","04","23","15:00","6.3","","-1.7","","57","","35","","26","","24.1","","99.57","","","","","","Clear"
"2003-04-23 16:00","2003","04","23","16:00","5.9","","-1.6","","59","","35","","30","","24.1","","99.59","","","","","","Clear"
"2003-04-23 17:00","2003","04","23","17:00","6.6","","-1.4","","57","","36","","32","","24.1","","99.62","","","","","","Clear"
"2003-04-23 18:00","2003","04","23","18:00","5.4","","-6.1","","43","","35","","30","","24.1","","99.67","","","","","","Clear"
"2003-04-23 19:00","2003","04","23","19:00","4.4","","-7.5","","42","","33","","26","","24.1","","99.69","","","","","","Clear"
"2003-04-23 20:00","2003","04","23","20:00","3.4","","-7.8","","44","","33","","17","","24.1","","99.76","","","","","","Clear"
"2003-04-23 21:00","2003","04","23","21:00","2.3","","-6.9","","51","","27","","7","","24.1","","99.82","","","","","","Clear"
"2003-04-23 22:00","2003","04","23","22:00","3.0","","-5.7","","53","","30","","17","","24.1","","99.85","","","","","","Clear"
"2003-04-23 23:00","2003","04","23","23:00","1.9","","-5.9","","56","","31","","15","","24.1","","99.85","","","","","","Clear"
"2003-04-24 00:00","2003","04","24","00:00","1.0","","-5.8","","60","","33","","13","","24.1","","99.82","","","","","","Clear"
"2003-04-24 01:00","2003","04","24","01:00","0.9","","-5.9","","60","","34","","9","","24.1","","99.79","","","","","","Clear"
"2003-04-24 02:00","2003","04","24","02:00","1.1","","-5.9","","60","","34","","13","","24.1","","99.75","","","","","","Clear"
"2003-04-24 03:00","2003","04","24","03:00","0.4","","-5.0","","67","","35","","20","","24.1","","99.76","","","","","","Clear"
"2003-04-24 04:00","2003","04","24","04:00","0.6","","-4.5","","69","","34","","22","","24.1","","99.78","","","","","","Clear"
"2003-04-24 05:00","2003","04","24","05:00","0.3","","-4.7","","69","","35","","26","","24.1","","99.76","","","","","","Clear"
"2003-04-24 06:00","2003","04","24","06:00","0.8","","-5.3","","64","","34","","26","","24.1","","99.78","","","","","","Clear"
"2003-04-24 07:00","2003","04","24","07:00","1.8","","-5.5","","58","","33","","26","","24.1","","99.83","","","","","","Clear"
"2003-04-24 08:00","2003","04","24","08:00","4.1","","-6.5","","46","","33","","17","","24.1","","99.84","","","","","","Clear"
"2003-04-24 09:00","2003","04","24","09:00","6.8","","-8.8","","32","","33","","24","","24.1","","99.83","","","","","","Clear"
"2003-04-24 10:00","2003","04","24","10:00","8.5","","-7.8","","31","","32","","17","","24.1","","99.82","","","","","","Clear"
"2003-04-24 11:00","2003","04","24","11:00","10.1","","-8.8","","25","","34","","20","","24.1","","99.77","","","","","","Clear"
"2003-04-24 12:00","2003","04","24","12:00","11.9","","-9.6","","21","","36","","32","","24.1","","99.70","","","","","","Clear"
"2003-04-24 13:00","2003","04","24","13:00","13.4","","-7.4","","23","","36","","19","","24.1","","99.66","","","","","","Mainly Clear"
"2003-04-24 14:00","2003","04","24","14:00","13.5","","-8.0","","22","","2","","28","","24.1","","99.59","","","","","","Mainly Clear"
"2003-04-24 15:00","2003","04","24","15:00","14.2","","-5.3","","25","","36","","19","","24.1","","99.51","","","","","","Clear"
"2003-04-24 16:00","2003","04","24","16:00","13.5","","-5.6","","26","","4","","17","","24.1","","99.47","","","","","","Clear"
"2003-04-24 17:00","2003","04","24","17:00","13.0","","-6.0","","26","","1","","22","","24.1","","99.42","","","","","","Mainly Clear"
"2003-04-24 18:00","2003","04","24","18:00","11.5","","-7.0","","27","","35","","6","","24.1","","99.42","","","","","","Mostly Cloudy"
"2003-04-24 19:00","2003","04","24","19:00","10.4","","-6.7","","29","","35","","9","","24.1","","99.41","","","","","","Mostly Cloudy"
"2003-04-24 20:00","2003","04","24","20:00","8.4","","-5.6","","37","","2","","9","","24.1","","99.39","","","","","","Mainly Clear"
"2003-04-24 21:00","2003","04","24","21:00","7.7","","-5.8","","38","","36","","15","","24.1","","99.41","","","","","","Clear"
"2003-04-24 22:00","2003","04","24","22:00","6.2","","-6.4","","40","","35","","11","","24.1","","99.40","","","","","","Clear"
"2003-04-24 23:00","2003","04","24","23:00","5.7","","-6.7","","40","","33","","11","","24.1","","99.36","","","","","","Clear"
"2003-04-25 00:00","2003","04","25","00:00","5.2","","-6.7","","42","","36","","7","","24.1","","99.31","","","","","","Mainly Clear"
"2003-04-25 01:00","2003","04","25","01:00","3.1","","-6.6","","49","","33","","9","","24.1","","99.32","","","","","","Clear"
"2003-04-25 02:00","2003","04","25","02:00","3.5","","-6.6","","48","","1","","9","","24.1","","99.20","","","","","","Clear"
"2003-04-25 03:00","2003","04","25","03:00","2.2","","-7.5","","49","","32","","7","","24.1","","99.21","","","","","","Clear"
"2003-04-25 04:00","2003","04","25","04:00","1.3","","-7.8","","51","","29","","6","","24.1","","99.20","","","","","","Clear"
"2003-04-25 05:00","2003","04","25","05:00","2.0","","-6.8","","52","","32","","9","","24.1","","99.23","","","","","","Mainly Clear"
"2003-04-25 06:00","2003","04","25","06:00","2.7","","-6.4","","51","","36","","9","","24.1","","99.25","","","","","","Clear"
"2003-04-25 07:00","2003","04","25","07:00","5.1","","-6.0","","44","","36","","4","","24.1","","99.26","","","","","","Clear"
"2003-04-25 08:00","2003","04","25","08:00","7.7","","-3.8","","44","","3","","4","","24.1","","99.27","","","","","","Mainly Clear"
"2003-04-25 09:00","2003","04","25","09:00","9.5","","-4.0","","38","","13","","4","","24.1","","99.26","","","","","","Mainly Clear"
"2003-04-25 10:00","2003","04","25","10:00","9.6","","-3.8","","39","","13","","17","","24.1","","99.26","","","","","","Mainly Clear"
"2003-04-25 11:00","2003","04","25","11:00","10.2","","-4.2","","36","","12","","15","","24.1","","99.23","","","","","","Mainly Clear"
"2003-04-25 12:00","2003","04","25","12:00","10.6","","-4.4","","35","","7","","15","","24.1","","99.14","","","","","","Mostly Cloudy"
"2003-04-25 13:00","2003","04","25","13:00","11.8","","-0.7","","42","","16","","15","","24.1","","99.12","","","","","","Mostly Cloudy"
"2003-04-25 14:00","2003","04","25","14:00","10.4","","-1.1","","45","","13","","17","","24.1","","99.09","","","","","","Mostly Cloudy"
"2003-04-25 15:00","2003","04","25","15:00","11.9","","-2.2","","37","","11","","13","","24.1","","99.00","","","","","","Mostly Cloudy"
"2003-04-25 16:00","2003","04","25","16:00","10.6","","-1.2","","44","","14","","13","","24.1","","98.97","","","","","","Cloudy"
"2003-04-25 17:00","2003","04","25","17:00","10.0","","-1.5","","45","","14","","15","","24.1","","98.97","","","","","","Cloudy"
"2003-04-25 18:00","2003","04","25","18:00","8.6","","-2.2","","47","","14","","7","","24.1","","98.97","","","","","","Mostly Cloudy"
"2003-04-25 19:00","2003","04","25","19:00","8.6","","-3.7","","42","","9","","9","","24.1","","98.95","","","","","","Mostly Cloudy"
"2003-04-25 20:00","2003","04","25","20:00","8.4","","-4.0","","41","","6","","11","","24.1","","98.95","","","","","","Mostly Cloudy"
"2003-04-25 21:00","2003","04","25","21:00","7.6","","-4.0","","44","","7","","11","","24.1","","98.97","","","","","","Mostly Cloudy"
"2003-04-25 22:00","2003","04","25","22:00","7.1","","-4.3","","44","","7","","6","","24.1","","98.95","","","","","","Mostly Cloudy"
"2003-04-25 23:00","2003","04","25","23:00","5.5","","-2.7","","55","","3","","9","","24.1","","98.91","","","","","","Mainly Clear"
"2003-04-26 00:00","2003","04","26","00:00","5.7","","-2.4","","56","","2","","6","","24.1","","98.90","","","","","","Clear"
"2003-04-26 01:00","2003","04","26","01:00","4.9","","-2.1","","60","","1","","6","","24.1","","98.87","","","","","","Clear"
"2003-04-26 02:00","2003","04","26","02:00","4.7","","-1.9","","62","","35","","7","","24.1","","98.84","","","","","","Mainly Clear"
"2003-04-26 03:00","2003","04","26","03:00","3.9","","-1.4","","68","","35","","4","","24.1","","98.77","","","","","","Clear"
"2003-04-26 04:00","2003","04","26","04:00","2.7","","-1.6","","73","","33","","11","","24.1","","98.78","","","","","","Clear"
"2003-04-26 05:00","2003","04","26","05:00","2.4","","-1.9","","73","","35","","15","","24.1","","98.82","","","","","","Mainly Clear"
"2003-04-26 06:00","2003","04","26","06:00","2.3","","-2.2","","72","","34","","22","","24.1","","98.88","","","","","","Clear"
"2003-04-26 07:00","2003","04","26","07:00","3.4","","-1.1","","72","","35","","24","","24.1","","98.93","","","","","","Clear"
"2003-04-26 08:00","2003","04","26","08:00","6.0","","0.1","","66","","35","","17","","24.1","","98.93","","","","","","Clear"
"2003-04-26 09:00","2003","04","26","09:00","9.0","","0.8","","56","","36","","19","","24.1","","98.94","","","","","","Clear"
"2003-04-26 10:00","2003","04","26","10:00","10.7","","0.3","","49","","35","","17","","24.1","","98.94","","","","","","Clear"
"2003-04-26 11:00","2003","04","26","11:00","13.1","","1.4","","45","","34","","15","","24.1","","98.93","","","","","","Clear"
"2003-04-26 12:00","2003","04","26","12:00","13.5","","-1.2","","36","","32","","15","","24.1","","98.90","","","","","","Clear"
"2003-04-26 13:00","2003","04","26","13:00","14.9","","0.0","","36","","35","","22","","24.1","","98.89","","","","","","Clear"
"2003-04-26 14:00","2003","04","26","14:00","15.2","","-2.3","","30","","36","","28","","24.1","","98.87","","","","","","Clear"
"2003-04-26 15:00","2003","04","26","15:00","15.7","","-2.7","","28","","35","","28","","24.1","","98.87","","","","","","Clear"
"2003-04-26 16:00","2003","04","26","16:00","14.8","","-3.6","","28","","1","","30","","24.1","","98.90","","","","","","Clear"
"2003-04-26 17:00","2003","04","26","17:00","13.9","","-4.0","","29","","2","","24","","24.1","","98.97","","","","","","Clear"
"2003-04-26 18:00","2003","04","26","18:00","12.4","","-5.9","","27","","1","","26","","24.1","","99.01","","","","","","Clear"
"2003-04-26 19:00","2003","04","26","19:00","10.5","","-5.6","","32","","3","","26","","24.1","","99.08","","","","","","Clear"
"2003-04-26 20:00","2003","04","26","20:00","8.0","","-5.5","","38","","35","","17","","24.1","","99.17","","","","","","Clear"
"2003-04-26 21:00","2003","04","26","21:00","7.2","","-4.9","","42","","35","","19","","24.1","","99.21","","","","","","Clear"
"2003-04-26 22:00","2003","04","26","22:00","5.8","","-3.5","","51","","34","","19","","24.1","","99.24","","","","","","Clear"
"2003-04-26 23:00","2003","04","26","23:00","5.0","","-3.1","","56","","34","","22","","24.1","","99.26","","","","","","Clear"
"2003-04-27 00:00","2003","04","27","00:00","4.0","","-2.9","","61","","34","","17","","24.1","","99.29","","","","","","Clear"
"2003-04-27 01:00","2003","04","27","01:00","2.8","","-2.6","","68","","32","","15","","24.1","","99.31","","","","","","Clear"
"2003-04-27 02:00","2003","04","27","02:00","2.5","","-2.8","","68","","34","","13","","24.1","","99.33","","","","","","Clear"
"2003-04-27 03:00","2003","04","27","03:00","1.1","","-3.3","","72","","32","","13","","24.1","","99.37","","","","","","Clear"
"2003-04-27 04:00","2003","04","27","04:00","1.7","","-4.5","","63","","29","","13","","24.1","","99.39","","","","","","Clear"
"2003-04-27 05:00","2003","04","27","05:00","1.3","","-4.6","","65","","31","","7","","24.1","","99.44","","","","","","Clear"
"2003-04-27 06:00","2003","04","27","06:00","2.4","","-3.7","","64","","29","","9","","24.1","","99.52","","","","","","Clear"
"2003-04-27 07:00","2003","04","27","07:00","5.0","","-3.3","","55","","29","","7","","24.1","","99.59","","","","","","Clear"
"2003-04-27 08:00","2003","04","27","08:00","8.6","","-4.4","","39","","34","","22","","24.1","","99.62","","","","","","Mainly Clear"
"2003-04-27 09:00","2003","04","27","09:00","10.2","","-5.2","","33","","34","","11","","24.1","","99.64","","","","","","Mainly Clear"
"2003-04-27 10:00","2003","04","27","10:00","11.9","","-4.3","","32","","36","","9","","24.1","","99.65","","","","","","Mainly Clear"
"2003-04-27 11:00","2003","04","27","11:00","13.0","","-4.7","","29","","22","","6","","24.1","","99.65","","","","","","Clear"
"2003-04-27 12:00","2003","04","27","12:00","15.4","","-3.6","","27","","24","","15","","24.1","","99.59","","","","","","Clear"
"2003-04-27 13:00","2003","04","27","13:00","14.7","","-3.2","","29","","16","","17","","24.1","","99.54","","","","","","Clear"
"2003-04-27 14:00","2003","04","27","14:00","16.8","","-2.2","","27","","17","","20","","24.1","","99.49","","","","","","Clear"
"2003-04-27 15:00","2003","04","27","15:00","16.3","","-1.5","","30","","16","","17","","24.1","","99.40","","","","","","Clear"
"2003-04-27 16:00","2003","04","27","16:00","17.7","","1.4","","33","","16","","17","","24.1","","99.34","","","","","","Clear"
"2003-04-27 17:00","2003","04","27","17:00","17.7","","1.3","","33","","18","","26","","24.1","","99.32","","","","","","Clear"
"2003-04-27 18:00","2003","04","27","18:00","16.9","","0.6","","33","","18","","19","","24.1","","99.29","","","","","","Clear"
"2003-04-27 19:00","2003","04","27","19:00","15.3","","-0.4","","34","","18","","15","","24.1","","99.28","","","","","","Clear"
"2003-04-27 20:00","2003","04","27","20:00","14.0","","-1.5","","34","","19","","11","","24.1","","99.32","","","","","","Clear"
"2003-04-27 21:00","2003","04","27","21:00","13.8","","-5.3","","26","","21","","17","","24.1","","99.36","","","","","","Mainly Clear"
"2003-04-27 22:00","2003","04","27","22:00","12.0","","-4.9","","30","","20","","13","","24.1","","99.34","","","","","","Clear"
"2003-04-27 23:00","2003","04","27","23:00","12.0","","-5.8","","28","","21","","17","","24.1","","99.29","","","","","","Mainly Clear"
"2003-04-28 00:00","2003","04","28","00:00","10.7","","-5.4","","32","","20","","13","","24.1","","99.26","","","","","","Clear"
"2003-04-28 01:00","2003","04","28","01:00","10.2","","-5.5","","33","","17","","4","","24.1","","99.24","","","","","","Clear"
"2003-04-28 02:00","2003","04","28","02:00","9.0","","-3.7","","41","","","","0","","24.1","","99.19","","","","","","Clear"
"2003-04-28 03:00","2003","04","28","03:00","9.9","","-3.8","","38","","20","","4","","24.1","","99.16","","","","","","Clear"
"2003-04-28 04:00","2003","04","28","04:00","9.6","","-1.8","","45","","18","","9","","24.1","","99.11","","","","","","Clear"
"2003-04-28 05:00","2003","04","28","05:00","9.8","","-0.8","","48","","18","","7","","24.1","","99.09","","","","","","Clear"
"2003-04-28 06:00","2003","04","28","06:00","11.1","","1.0","","50","","24","","17","","19.3","","99.10","","","","","","Clear"
"2003-04-28 07:00","2003","04","28","07:00","13.1","","2.3","","48","","24","","26","","19.3","","99.08","","","","","","Clear"
"2003-04-28 08:00","2003","04","28","08:00","16.2","","4.0","","44","","24","","24","","16.1","","99.07","","","","","","Clear"
"2003-04-28 09:00","2003","04","28","09:00","19.7","","6.2","","41","","23","","22","","16.1","","98.99","","","","","","Clear"
"2003-04-28 10:00","2003","04","28","10:00","21.5","","7.4","","40","","24","","33","","16.1","","98.94","","","","","","Mainly Clear"
"2003-04-28 11:00","2003","04","28","11:00","23.9","","9.0","","39","","24","","33","","16.1","","98.87","","25","","","","Mainly Clear"
"2003-04-28 12:00","2003","04","28","12:00","24.6","","9.4","","38","","24","","39","","16.1","","98.81","","26","","","","Mainly Clear"
"2003-04-28 13:00","2003","04","28","13:00","25.4","","10.0","","38","","25","","37","","19.3","","98.75","","27","","","","Mainly Clear"
"2003-04-28 14:00","2003","04","28","14:00","24.7","","9.8","","39","","24","","33","","19.3","","98.70","","26","","","","Mostly Cloudy"
"2003-04-28 15:00","2003","04","28","15:00","25.1","","9.6","","38","","23","","41","","16.1","","98.66","","26","","","","Mostly Cloudy"
"2003-04-28 16:00","2003","04","28","16:00","25.1","","9.3","","37","","24","","43","","16.1","","98.66","","26","","","","Mostly Cloudy"
"2003-04-28 17:00","2003","04","28","17:00","22.9","","9.2","","42","","23","","35","","19.3","","98.66","","","","","","Mostly Cloudy"
"2003-04-28 18:00","2003","04","28","18:00","22.7","","8.7","","41","","25","","32","","16.1","","98.66","","","","","","Mainly Clear"
"2003-04-28 19:00","2003","04","28","19:00","21.6","","8.9","","44","","25","","28","","19.3","","98.67","","","","","","Mostly Cloudy"
"2003-04-28 20:00","2003","04","28","20:00","16.1","","5.2","","48","","35","","33","","19.3","","98.80","","","","","","Mostly Cloudy"
"2003-04-28 21:00","2003","04","28","21:00","13.5","","3.7","","51","","36","","30","","19.3","","98.93","","","","","","Mainly Clear"
"2003-04-28 22:00","2003","04","28","22:00","11.9","","3.1","","55","","34","","30","","24.1","","98.99","","","","","","Mainly Clear"
"2003-04-28 23:00","2003","04","28","23:00","10.0","","3.0","","62","","35","","32","","24.1","","99.02","","","","","","Clear"
"2003-04-29 00:00","2003","04","29","00:00","9.0","","3.2","","67","","31","","19","","24.1","","99.06","","","","","","Clear"
"2003-04-29 01:00","2003","04","29","01:00","9.3","","1.7","","59","","33","","28","","24.1","","99.07","","","","","","Clear"
"2003-04-29 02:00","2003","04","29","02:00","7.2","","2.1","","70","","33","","22","","24.1","","99.14","","","","","","Clear"
"2003-04-29 03:00","2003","04","29","03:00","6.3","","1.4","","71","","32","","22","","24.1","","99.21","","","","","","Clear"
"2003-04-29 04:00","2003","04","29","04:00","5.7","","1.4","","74","","32","","19","","24.1","","99.29","","","","","","Clear"
"2003-04-29 05:00","2003","04","29","05:00","5.1","","1.3","","76","","32","","19","","24.1","","99.39","","","","","","Clear"
"2003-04-29 06:00","2003","04","29","06:00","5.3","","1.6","","77","","33","","19","","24.1","","99.46","","","","","","Mainly Clear"
"2003-04-29 07:00","2003","04","29","07:00","6.3","","1.6","","72","","34","","19","","24.1","","99.58","","","","","","Mostly Cloudy"
"2003-04-29 08:00","2003","04","29","08:00","7.9","","0.9","","61","","1","","19","","24.1","","99.64","","","","","","Mostly Cloudy"
"2003-04-29 09:00","2003","04","29","09:00","9.1","","0.2","","54","","36","","20","","24.1","","99.68","","","","","","Mostly Cloudy"
"2003-04-29 10:00","2003","04","29","10:00","9.7","","0.3","","52","","36","","9","","24.1","","99.68","","","","","","Mostly Cloudy"
"2003-04-29 11:00","2003","04","29","11:00","12.0","","0.9","","47","","30","","17","","24.1","","99.67","","","","","","Mainly Clear"
"2003-04-29 12:00","2003","04","29","12:00","12.7","","-0.7","","40","","33","","15","","24.1","","99.64","","","","","","Mainly Clear"
"2003-04-29 13:00","2003","04","29","13:00","13.9","","-1.1","","36","","34","","15","","24.1","","99.59","","","","","","Mostly Cloudy"
"2003-04-29 14:00","2003","04","29","14:00","14.8","","-0.4","","35","","28","","15","","24.1","","99.55","","","","","","Mainly Clear"
"2003-04-29 15:00","2003","04","29","15:00","16.3","","-0.2","","32","","30","","11","","24.1","","99.50","","","","","","Clear"
"2003-04-29 16:00","2003","04","29","16:00","16.0","","-0.7","","32","","28","","19","","24.1","","99.48","","","","","","Mainly Clear"
"2003-04-29 17:00","2003","04","29","17:00","15.6","","-1.0","","32","","31","","19","","24.1","","99.48","","","","","","Mainly Clear"
"2003-04-29 18:00","2003","04","29","18:00","13.5","","1.0","","42","","36","","20","","24.1","","99.55","","","","","","Mostly Cloudy"
"2003-04-29 19:00","2003","04","29","19:00","11.6","","0.8","","47","","36","","20","","24.1","","99.61","","","","","","Mostly Cloudy"
"2003-04-29 20:00","2003","04","29","20:00","9.4","","0.1","","52","","35","","19","","24.1","","99.65","","","","","","Mostly Cloudy"
"2003-04-29 21:00","2003","04","29","21:00","7.6","","0.0","","59","","35","","19","","24.1","","99.73","","","","","","Mainly Clear"
"2003-04-29 22:00","2003","04","29","22:00","6.7","","-0.4","","60","","36","","17","","24.1","","99.73","","","","","","Mostly Cloudy"
"2003-04-29 23:00","2003","04","29","23:00","6.2","","-0.3","","63","","36","","11","","24.1","","99.76","","","","","","Mostly Cloudy"
"2003-04-30 00:00","2003","04","30","00:00","6.0","","0.0","","65","","2","","9","","24.1","","99.79","","","","","","Cloudy"
"2003-04-30 01:00","2003","04","30","01:00","6.1","","-0.3","","63","","2","","9","","24.1","","99.81","","","","","","Cloudy"
"2003-04-30 02:00","2003","04","30","02:00","6.3","","-1.0","","60","","","","0","","24.1","","99.83","","","","","","Cloudy"
"2003-04-30 03:00","2003","04","30","03:00","5.1","","0.1","","70","","28","","7","","24.1","","99.89","","","","","","Mostly Cloudy"
"2003-04-30 04:00","2003","04","30","04:00","5.0","","-0.6","","67","","29","","6","","24.1","","99.86","","","","","","Mostly Cloudy"
"2003-04-30 05:00","2003","04","30","05:00","4.0","","-0.4","","73","","29","","7","","24.1","","99.89","","","","","","Mainly Clear"
"2003-04-30 06:00","2003","04","30","06:00","5.7","","0.9","","71","","1","","7","","24.1","","99.90","","","","","","Mostly Cloudy"
"2003-04-30 07:00","2003","04","30","07:00","6.9","","0.2","","62","","2","","6","","24.1","","100.00","","","","","","Mainly Clear"
"2003-04-30 08:00","2003","04","30","08:00","9.5","","-0.8","","49","","6","","7","","24.1","","100.01","","","","","","Mainly Clear"
"2003-04-30 09:00","2003","04","30","09:00","10.7","","-1.0","","44","","14","","9","","24.1","","99.97","","","","","","Mostly Cloudy"
"2003-04-30 10:00","2003","04","30","10:00","11.2","","-1.4","","41","","13","","11","","24.1","","100.03","","","","","","Mostly Cloudy"
"2003-04-30 11:00","2003","04","30","11:00","10.7","","-0.8","","45","","14","","13","","24.1","","100.04","","","","","","Cloudy"
"2003-04-30 12:00","2003","04","30","12:00","11.4","","-0.7","","43","","14","","19","","24.1","","99.96","","","","","","Cloudy"
"2003-04-30 13:00","2003","04","30","13:00","12.3","","-1.1","","39","","13","","15","","24.1","","99.91","","","","","","Cloudy"
"2003-04-30 14:00","2003","04","30","14:00","12.8","","-0.6","","40","","16","","20","","24.1","","99.82","","","","","","Cloudy"
"2003-04-30 15:00","2003","04","30","15:00","11.3","","-1.0","","42","","12","","9","","24.1","","99.75","","","","","","Cloudy"
"2003-04-30 16:00","2003","04","30","16:00","10.7","","-1.2","","44","","15","","11","","19.3","","99.76","","","","","","Rain Showers"
"2003-04-30 17:00","2003","04","30","17:00","10.0","","1.6","","56","","12","","17","","19.3","","99.57","","","","","","Rain Showers"
"2003-04-30 18:00","2003","04","30","18:00","10.0","","-0.3","","49","","9","","11","","24.1","","99.49","","","","","","Cloudy"
"2003-04-30 19:00","2003","04","30","19:00","9.6","","-1.5","","46","","10","","13","","24.1","","99.44","","","","","","Rain"
"2003-04-30 20:00","2003","04","30","20:00","8.7","","-4.0","","40","","10","","11","","24.1","","99.38","","","","","","Cloudy"
"2003-04-30 21:00","2003","04","30","21:00","8.0","","1.0","","61","","11","","9","","19.3","","99.40","","","","","","Rain"
"2003-04-30 22:00","2003","04","30","22:00","7.7","","2.9","","72","","5","","7","","16.1","","99.31","","","","","","Rain"
"2003-04-30 23:00","2003","04","30","23:00","7.6","","3.0","","73","","5","","9","","24.1","","99.25","","","","","","Cloudy"
