"Station Name","TORONTO INTL A"
"Province","ONTARIO"
"Latitude","43.68"
"Longitude","-79.63"
"Elevation","173.40"
"Climate Identifier","6158731"
"WMO Identifier","71624"
"TC Identifier","YYZ"
"All times are specified in Local Standard Time (LST). Add 1 hour to adjust for Daylight Saving Time where and when it is observed."

"Legend"
"E","Estimated"
"M","Missing"
"NA","Not Available"

"Date/Time","Year","Month","Day","Time","Temp (°C)","Temp Flag","Dew Point Temp (°C)","Dew Point Temp Flag","Rel Hum (%)","Rel Hum Flag","Wind Dir (10s deg)","Wind Dir Flag","Wind Spd (km/h)","Wind Spd Flag","Visibility (km)","Visibility Flag","Stn Press (kPa)","Stn Press Flag","Hmdx","Hmdx Flag","Wind Chill","Wind Chill Flag","Weather"
"2018-02-01 00:00","2018","02","01","00:00","0.8","","-4.5","","68","","21","","9","","24.1","","98.53","","","","","","NA"
"2018-02-01 01:00","2018","02","01","01:00","0.0","","-4.8","","70","","21","","7","","24.1","","98.49","","","","-2","","Mostly Cloudy"
"2018-02-01 02:00","2018","02","01","02:00","-0.4","","-4.8","","72","","19","","8","","24.1","","98.51","","","","-3","","NA"
"2018-02-01 03:00","2018","02","01","03:00","-1.0","","-5.2","","73","","22","","8","","24.1","","98.55","","","","-4","","NA"
"2018-02-01 04:00","2018","02","01","04:00","-1.2","","-5.0","","75","","20","","5","","24.1","","98.53","","","","-3","","Mostly Cloudy"
"2018-02-01 05:00","2018","02","01","05:00","-0.8","","-4.4","","76","","19","","12","","24.1","","98.53","","","","-5","","NA"
"2018-02-01 06:00","2018","02","01","06:00","-0.2","","-4.0","","76","","19","","16","","24.1","","98.50","","","","-5","","NA"
"2018-02-01 07:00","2018","02","01","07:00","0.0","","-3.6","","77","","21","","19","","24.1","","98.46","","","","-5","","Mostly Cloudy"
"2018-02-01 08:00","2018","02","01","08:00","0.2","","-3.3","","77","","25","","23","","24.1","","98.46","","","","","","NA"
"2018-02-01 09:00","2018","02","01","09:00","1.0","","-2.8","","76","","24","","28","","24.1","","98.49","","","","","","NA"
"2018-02-01 10:00","2018","02","01","10:00","3.1","","-2.3","","68","","23","","27","","24.1","","98.45","","","","","","Mostly Cloudy"
"2018-02-01 11:00","2018","02","01","11:00","4.1","","-3.2","","59","","23","","26","","24.1","","98.44","","","","","","NA"
"2018-02-01 12:00","2018","02","01","12:00","4.0","","-3.3","","59","","27","","43","","24.1","","98.44","","","","","","NA"
"2018-02-01 13:00","2018","02","01","13:00","2.6","","-4.2","","61","","27","","34","","24.1","","98.47","","","","","","Mostly Cloudy"
"2018-02-01 14:00","2018","02","01","14:00","2.2","","-4.4","","62","","27","","33","","24.1","","98.52","","","","","","NA"
"2018-02-01 15:00","2018","02","01","15:00","-0.6","","-6.4","","65","","30","","30","","24.1","","98.66","","","","-7","","NA"
"2018-02-01 16:00","2018","02","01","16:00","-2.9","","-8.8","","64","","33","","39","","24.1","","98.88","","","","-11","","Snow Showers"
"2018-02-01 17:00","2018","02","01","17:00","-4.0","","-11.2","","58","","32","","36","","24.1","","98.98","","","","-12","","NA"
"2018-02-01 18:00","2018","02","01","18:00","-5.6","","-12.5","","58","","31","","35","","24.1","","99.12","","","","-14","","NA"
"2018-02-01 19:00","2018","02","01","19:00","-7.1","","-14.2","","57","","31","","35","","24.1","","99.28","","","","-16","","Mainly Clear"
"2018-02-01 20:00","2018","02","01","20:00","-7.8","","-14.6","","58","","31","","32","","24.1","","99.40","","","","-17","","NA"
"2018-02-01 21:00","2018","02","01","21:00","-8.7","","-15.1","","60","","29","","21","","24.1","","99.49","","","","-16","","NA"
"2018-02-01 22:00","2018","02","01","22:00","-9.2","","-15.1","","62","","29","","25","","24.1","","99.55","","","","-18","","Clear"
"2018-02-01 23:00","2018","02","01","23:00","-9.7","","-15.4","","63","","28","","24","","24.1","","99.63","","","","-18","","NA"
"2018-02-02 00:00","2018","02","02","00:00","-10.0","","-15.2","","66","","28","","23","","24.1","","99.66","","","","-18","","NA"
"2018-02-02 01:00","2018","02","02","01:00","-10.3","","-15.3","","67","","27","","27","","24.1","","99.68","","","","-19","","Mainly Clear"
"2018-02-02 02:00","2018","02","02","02:00","-10.3","","-15.4","","67","","27","","21","","24.1","","99.70","","","","-18","","Snow"
"2018-02-02 03:00","2018","02","02","03:00","-10.5","","-15.6","","67","","27","","24","","24.1","","99.76","","","","-19","","Snow"
"2018-02-02 04:00","2018","02","02","04:00","-10.6","","-15.2","","69","","29","","30","","24.1","","99.79","","","","-20","","Mainly Clear"
"2018-02-02 05:00","2018","02","02","05:00","-12.2","","-17.5","","65","","33","","28","","24.1","","99.92","","","","-22","","NA"
"2018-02-02 06:00","2018","02","02","06:00","-13.0","","-18.2","","66","","34","","25","","24.1","","100.01","","","","-23","","NA"
"2018-02-02 07:00","2018","02","02","07:00","-13.7","","-18.4","","68","","34","","18","","24.1","","100.11","","","","-22","","Mostly Cloudy"
"2018-02-02 08:00","2018","02","02","08:00","-15.2","","-19.4","","70","","1","","21","","4.0","","100.25","","","","-25","","Snow Showers"
"2018-02-02 09:00","2018","02","02","09:00","-15.6","","-19.8","","70","","35","","21","","24.1","","100.37","","","","-25","","NA"
"2018-02-02 10:00","2018","02","02","10:00","-15.2","","-20.4","","65","","36","","20","","24.1","","100.45","","","","-24","","Mainly Clear"
"2018-02-02 11:00","2018","02","02","11:00","-14.5","","-20.5","","61","","35","","10","","24.1","","100.49","","","","-21","","NA"
"2018-02-02 12:00","2018","02","02","12:00","-12.8","","-19.7","","57","","34","","10","","24.1","","100.51","","","","-19","","NA"
"2018-02-02 13:00","2018","02","02","13:00","-11.9","","-19.4","","54","","32","","18","","24.1","","100.50","","","","-20","","Mostly Cloudy"
"2018-02-02 14:00","2018","02","02","14:00","-10.1","","-19.7","","46","","32","","34","","24.1","","100.45","","","","-20","","NA"
"2018-02-02 15:00","2018","02","02","15:00","-9.9","","-20.8","","41","","32","","32","","24.1","","100.45","","","","-20","","NA"
"2018-02-02 16:00","2018","02","02","16:00","-10.4","","-22.1","","38","","32","","22","","24.1","","100.46","","","","-19","","Mainly Clear"
"2018-02-02 17:00","2018","02","02","17:00","-10.5","","-21.4","","41","","29","","16","","24.1","","100.49","","","","-18","","NA"
"2018-02-02 18:00","2018","02","02","18:00","-10.6","","-19.7","","48","","26","","21","","24.1","","100.51","","","","-19","","NA"
"2018-02-02 19:00","2018","02","02","19:00","-10.8","","-18.0","","56","","25","","23","","24.1","","100.51","","","","-19","","Mostly Cloudy"
"2018-02-02 20:00","2018","02","02","20:00","-10.5","","-16.6","","61","","23","","18","","24.1","","100.47","","","","-18","","NA"
"2018-02-02 21:00","2018","02","02","21:00","-10.6","","-15.8","","66","","22","","22","","19.3","","100.42","","","","-19","","Snow"
"2018-02-02 22:00","2018","02","02","22:00","-10.2","","-14.7","","70","","22","","23","","19.3","","100.39","","","","-19","","Snow"
"2018-02-02 23:00","2018","02","02","23:00","-9.8","","-14.6","","68","","23","","23","","19.3","","100.33","","","","-18","","Snow"
"2018-02-03 00:00","2018","02","03","00:00","-9.7","","-15.2","","64","","23","","25","","24.1","","100.30","","","","-18","","NA"
"2018-02-03 01:00","2018","02","03","01:00","-9.6","","-14.9","","65","","24","","21","","19.3","","100.28","","","","-18","","Snow"
"2018-02-03 02:00","2018","02","03","02:00","-9.4","","-14.5","","67","","24","","21","","19.3","","100.26","","","","-17","","Snow"
"2018-02-03 03:00","2018","02","03","03:00","-9.4","","-15.0","","64","","27","","23","","16.1","","100.25","","","","-18","","Snow"
"2018-02-03 04:00","2018","02","03","04:00","-9.7","","-15.0","","65","","25","","14","","24.1","","100.21","","","","-16","","Cloudy"
"2018-02-03 05:00","2018","02","03","05:00","-9.6","","-15.5","","63","","22","","20","","24.1","","100.21","","","","-17","","NA"
"2018-02-03 06:00","2018","02","03","06:00","-10.1","","-15.4","","66","","23","","21","","19.3","","100.21","","","","-18","","Snow"
"2018-02-03 07:00","2018","02","03","07:00","-10.7","","-15.4","","69","","22","","21","","19.3","","100.22","","","","-19","","Snow"
"2018-02-03 08:00","2018","02","03","08:00","-10.6","","-15.0","","70","","22","","22","","24.1","","100.22","","","","-19","","NA"
"2018-02-03 09:00","2018","02","03","09:00","-9.3","","-13.6","","71","","23","","19","","24.1","","100.22","","","","-17","","NA"
"2018-02-03 10:00","2018","02","03","10:00","-8.5","","-13.1","","69","","23","","20","","16.1","","100.22","","","","-16","","Snow"
"2018-02-03 11:00","2018","02","03","11:00","-7.2","","-11.8","","70","","23","","25","","19.3","","100.17","","","","-15","","Snow"
"2018-02-03 12:00","2018","02","03","12:00","-6.4","","-11.6","","66","","23","","27","","19.3","","100.11","","","","-14","","Snow"
"2018-02-03 13:00","2018","02","03","13:00","-5.7","","-11.5","","63","","23","","25","","9.7","","100.00","","","","-13","","Snow"
"2018-02-03 14:00","2018","02","03","14:00","-5.4","","-10.1","","70","","24","","20","","2.4","","99.90","","","","-12","","Snow"
"2018-02-03 15:00","2018","02","03","15:00","-4.6","","-9.6","","68","","22","","25","","4.8","","99.81","","","","-12","","Snow"
"2018-02-03 16:00","2018","02","03","16:00","-4.7","","-9.4","","70","","21","","24","","9.7","","99.74","","","","-12","","Snow"
"2018-02-03 17:00","2018","02","03","17:00","-4.9","","-9.1","","72","","19","","12","","9.7","","99.66","","","","-10","","Snow"
"2018-02-03 18:00","2018","02","03","18:00","-5.0","","-8.5","","77","","18","","14","","4.0","","99.59","","","","-10","","Snow"
"2018-02-03 19:00","2018","02","03","19:00","-4.7","","-7.3","","82","","18","","17","","6.4","","99.52","","","","-11","","Snow"
"2018-02-03 20:00","2018","02","03","20:00","-4.4","","-6.9","","83","","18","","9","","6.4","","99.44","","","","-8","","Snow"
"2018-02-03 21:00","2018","02","03","21:00","-4.0","","-6.2","","85","","17","","16","","4.0","","99.30","","","","-10","","Snow"
"2018-02-03 22:00","2018","02","03","22:00","-3.3","","-5.3","","86","","19","","22","","4.0","","99.21","","","","-10","","Snow"
"2018-02-03 23:00","2018","02","03","23:00","-2.8","","-4.7","","87","","20","","27","","8.1","","99.12","","","","-10","","Snow"
"2018-02-04 00:00","2018","02","04","00:00","-2.4","","-5.3","","80","","19","","8","","24.1","","99.05","","","","-6","","NA"
"2018-02-04 01:00","2018","02","04","01:00","-2.5","","-6.3","","75","","21","","4","","24.1","","99.04","","","","-4","","Cloudy"
"2018-02-04 02:00","2018","02","04","02:00","-1.6","","-7.6","","64","","23","","15","","24.1","","99.01","","","","-6","","NA"
"2018-02-04 03:00","2018","02","04","03:00","-0.9","","-8.4","","57","","23","","27","","24.1","","98.95","","","","-7","","NA"
"2018-02-04 04:00","2018","02","04","04:00","-1.1","","-7.9","","60","","24","","22","","12.9","","98.93","","","","-7","","Snow"
"2018-02-04 05:00","2018","02","04","05:00","-2.2","","-5.1","","80","","21","","8","","4.0","","98.90","","","","-5","","Snow"
"2018-02-04 06:00","2018","02","04","06:00","-2.0","","-4.0","","86","","21","","8","","4.0","","98.90","","","","-5","","Snow"
"2018-02-04 07:00","2018","02","04","07:00","-1.7","","-3.4","","88","","22","","9","","4.0","","98.91","","","","-5","","Snow"
"2018-02-04 08:00","2018","02","04","08:00","-1.5","","-2.9","","90","","20","","5","","2.0","","98.89","","","","-3","","Snow"
"2018-02-04 09:00","2018","02","04","09:00","-1.0","","-2.3","","91","","19","","8","","6.4","","98.87","","","","-4","","Snow"
"2018-02-04 10:00","2018","02","04","10:00","-0.6","","-1.9","","91","","16","","7","","2.4","","98.83","","","","-3","","Snow"
"2018-02-04 11:00","2018","02","04","11:00","-0.1","","-1.3","","92","","15","","7","","1.2","","98.81","","","","-3","","Snow"
"2018-02-04 12:00","2018","02","04","12:00","0.7","","-0.4","","92","","18","","9","","6.4","","98.71","","","","","","Rain,Snow"
"2018-02-04 13:00","2018","02","04","13:00","1.2","","0.0","","92","","21","","15","","9.7","","98.60","","","","","","Rain,Snow"
"2018-02-04 14:00","2018","02","04","14:00","1.4","","-0.2","","90","","22","","13","","9.7","","98.53","","","","","","Drizzle,Ice Pellets"
"2018-02-04 15:00","2018","02","04","15:00","1.3","","-0.4","","89","","21","","11","","9.7","","98.48","","","","","","Drizzle,Snow,Fog"
"2018-02-04 16:00","2018","02","04","16:00","1.3","","-0.6","","87","","21","","8","","9.7","","98.51","","","","","","Snow"
"2018-02-04 17:00","2018","02","04","17:00","1.0","","-0.8","","88","","25","","8","","9.7","","98.50","","","","","","Snow"
"2018-02-04 18:00","2018","02","04","18:00","-4.0","","-5.9","","87","","34","","26","","12.9","","98.56","","","","-11","","Snow"
"2018-02-04 19:00","2018","02","04","19:00","-6.2","","-8.4","","84","","34","","36","","6.4","","98.64","","","","-15","","Snow"
"2018-02-04 20:00","2018","02","04","20:00","-6.9","","-9.4","","82","","35","","34","","6.4","","98.70","","","","-16","","Snow"
"2018-02-04 21:00","2018","02","04","21:00","-7.5","","-10.1","","81","","34","","40","","1.6","","98.77","","","","-17","","Snow,Blowing Snow"
"2018-02-04 22:00","2018","02","04","22:00","-8.3","","-11.1","","81","","33","","49","","2.4","","98.84","","","","-19","","Snow,Blowing Snow"
"2018-02-04 23:00","2018","02","04","23:00","-8.6","","-11.8","","77","","33","","38","","9.7","","98.92","","","","-19","","Snow"
"2018-02-05 00:00","2018","02","05","00:00","-8.7","","-12.3","","75","","33","","37","","12.9","","99.00","","","","-19","","Snow"
"2018-02-05 01:00","2018","02","05","01:00","-9.0","","-13.3","","71","","32","","34","","24.1","","99.16","","","","-19","","Snow"
"2018-02-05 02:00","2018","02","05","02:00","-10.0","","-14.9","","68","","31","","36","","24.1","","99.31","","","","-20","","NA"
"2018-02-05 03:00","2018","02","05","03:00","-11.7","","-16.9","","66","","32","","33","","24.1","","99.42","","","","-22","","NA"
"2018-02-05 04:00","2018","02","05","04:00","-12.1","","-17.8","","63","","30","","22","","24.1","","99.52","","","","-21","","Mainly Clear"
"2018-02-05 05:00","2018","02","05","05:00","-12.5","","-19.9","","55","","31","","26","","24.1","","99.66","","","","-22","","NA"
"2018-02-05 06:00","2018","02","05","06:00","-13.9","","-20.3","","59","","26","","16","","24.1","","99.80","","","","-22","","NA"
"2018-02-05 07:00","2018","02","05","07:00","-12.9","","-18.6","","63","","25","","21","","24.1","","99.89","","","","-22","","Mostly Cloudy"
"2018-02-05 08:00","2018","02","05","08:00","-12.5","","-17.7","","65","","25","","17","","24.1","","99.97","","","","-20","","NA"
"2018-02-05 09:00","2018","02","05","09:00","-11.5","","-16.6","","67","","24","","19","","24.1","","100.08","","","","-20","","NA"
"2018-02-05 10:00","2018","02","05","10:00","-10.2","","-15.3","","67","","21","","17","","24.1","","100.10","","","","-17","","Mostly Cloudy"
"2018-02-05 11:00","2018","02","05","11:00","-9.1","","-14.8","","64","","25","","28","","24.1","","100.17","","","","-18","","NA"
"2018-02-05 12:00","2018","02","05","12:00","-8.8","","-15.3","","59","","25","","25","","24.1","","100.14","","","","-17","","NA"
"2018-02-05 13:00","2018","02","05","13:00","-9.5","","-16.1","","59","","26","","27","","24.1","","100.08","","","","-18","","Mainly Clear"
"2018-02-05 14:00","2018","02","05","14:00","-8.4","","-15.5","","57","","24","","29","","24.1","","99.99","","","","-17","","NA"
"2018-02-05 15:00","2018","02","05","15:00","-8.3","","-15.7","","55","","25","","31","","24.1","","99.97","","","","-17","","NA"
"2018-02-05 16:00","2018","02","05","16:00","-8.2","","-15.6","","55","","25","","29","","24.1","","100.00","","","","-17","","Mostly Cloudy"
"2018-02-05 17:00","2018","02","05","17:00","-8.4","","-15.9","","55","","24","","26","","24.1","","100.00","","","","-17","","NA"
"2018-02-05 18:00","2018","02","05","18:00","-8.6","","-15.1","","60","","24","","22","","24.1","","100.00","","","","-16","","NA"
"2018-02-05 19:00","2018","02","05","19:00","-8.2","","-13.8","","64","","24","","23","","24.1","","100.06","","","","-16","","Mostly Cloudy"
"2018-02-05 20:00","2018","02","05","20:00","-7.9","","-13.2","","66","","22","","19","","24.1","","100.03","","","","-15","","NA"
"2018-02-05 21:00","2018","02","05","21:00","-8.0","","-12.8","","68","","24","","23","","24.1","","100.06","","","","-16","","NA"
"2018-02-05 22:00","2018","02","05","22:00","-8.3","","-14.3","","62","","24","","26","","24.1","","100.04","","","","-17","","Cloudy"
"2018-02-05 23:00","2018","02","05","23:00","-8.7","","-15.1","","60","","24","","15","","24.1","","100.02","","","","-15","","NA"
"2018-02-06 00:00","2018","02","06","00:00","-8.4","","-14.8","","60","","24","","15","","24.1","","100.01","","","","-15","","NA"
"2018-02-06 01:00","2018","02","06","01:00","-8.5","","-14.6","","62","","25","","23","","24.1","","99.99","","","","-17","","Cloudy"
"2018-02-06 02:00","2018","02","06","02:00","-8.8","","-13.7","","68","","24","","20","","19.3","","99.98","","","","-16","","Snow"
"2018-02-06 03:00","2018","02","06","03:00","-9.0","","-13.2","","72","","26","","17","","8.1","","100.00","","","","-16","","Snow"
"2018-02-06 04:00","2018","02","06","04:00","-9.1","","-12.6","","76","","25","","12","","9.7","","99.99","","","","-15","","Snow"
"2018-02-06 05:00","2018","02","06","05:00","-9.1","","-12.5","","77","","25","","16","","16.1","","100.07","","","","-16","","Snow"
"2018-02-06 06:00","2018","02","06","06:00","-9.1","","-12.7","","75","","24","","17","","16.1","","100.12","","","","-16","","Snow"
"2018-02-06 07:00","2018","02","06","07:00","-9.2","","-13.0","","74","","24","","17","","16.1","","100.18","","","","-16","","Snow"
"2018-02-06 08:00","2018","02","06","08:00","-9.0","","-13.0","","73","","24","","23","","19.3","","100.28","","","","-17","","NA"
"2018-02-06 09:00","2018","02","06","09:00","-8.6","","-12.7","","73","","27","","21","","24.1","","100.38","","","","-16","","NA"
"2018-02-06 10:00","2018","02","06","10:00","-7.3","","-11.9","","70","","26","","23","","24.1","","100.40","","","","-15","","Mostly Cloudy"
"2018-02-06 11:00","2018","02","06","11:00","-6.8","","-11.9","","68","","25","","34","","24.1","","100.54","","","","-16","","NA"
"2018-02-06 12:00","2018","02","06","12:00","-5.8","","-11.7","","64","","26","","27","","24.1","","100.59","","","","-14","","NA"
"2018-02-06 13:00","2018","02","06","13:00","-5.0","","-11.9","","59","","26","","25","","24.1","","100.61","","","","-12","","Mostly Cloudy"
"2018-02-06 14:00","2018","02","06","14:00","-5.3","","-12.9","","55","","27","","27","","24.1","","100.63","","","","-13","","NA"
"2018-02-06 15:00","2018","02","06","15:00","-4.9","","-12.8","","54","","28","","27","","24.1","","100.70","","","","-12","","NA"
"2018-02-06 16:00","2018","02","06","16:00","-5.7","","-13.8","","53","","28","","22","","24.1","","100.75","","","","-13","","Mostly Cloudy"
"2018-02-06 17:00","2018","02","06","17:00","-6.4","","-14.7","","52","","27","","17","","24.1","","100.82","","","","-13","","NA"
"2018-02-06 18:00","2018","02","06","18:00","-7.7","","-15.1","","56","","26","","17","","24.1","","100.92","","","","-14","","NA"
"2018-02-06 19:00","2018","02","06","19:00","-8.8","","-15.1","","60","","25","","14","","24.1","","100.98","","","","-15","","Mainly Clear"
"2018-02-06 20:00","2018","02","06","20:00","-9.3","","-15.0","","64","","26","","15","","24.1","","101.06","","","","-16","","NA"
"2018-02-06 21:00","2018","02","06","21:00","-9.9","","-15.6","","63","","28","","12","","24.1","","101.02","","","","-16","","NA"
"2018-02-06 22:00","2018","02","06","22:00","-10.3","","-16.1","","63","","28","","10","","24.1","","101.01","","","","-16","","Mostly Cloudy"
"2018-02-06 23:00","2018","02","06","23:00","-10.1","","-15.7","","64","","28","","10","","24.1","","101.05","","","","-15","","NA"
"2018-02-07 00:00","2018","02","07","00:00","-10.5","","-15.9","","65","","28","","5","","24.1","","100.98","","","","-14","","NA"
"2018-02-07 01:00","2018","02","07","01:00","-9.7","","-15.0","","66","","5","","7","","24.1","","100.86","","","","-14","","Cloudy"
"2018-02-07 02:00","2018","02","07","02:00","-9.6","","-14.6","","67","","1","","7","","24.1","","100.83","","","","-14","","NA"
"2018-02-07 03:00","2018","02","07","03:00","-9.3","","-14.4","","67","","2","","6","","24.1","","100.77","","","","-13","","NA"
"2018-02-07 04:00","2018","02","07","04:00","-8.9","","-13.6","","69","","4","","9","","24.1","","100.63","","","","-14","","Cloudy"
"2018-02-07 05:00","2018","02","07","05:00","-8.3","","-13.1","","69","","1","","6","","24.1","","100.57","","","","-12","","Snow"
"2018-02-07 06:00","2018","02","07","06:00","-8.8","","-12.5","","75","","1","","11","","4.0","","100.37","","","","-14","","Snow"
"2018-02-07 07:00","2018","02","07","07:00","-8.3","","-11.0","","81","","3","","10","","1.2","","100.26","","","","-13","","Snow"
"2018-02-07 08:00","2018","02","07","08:00","-7.8","","-10.1","","83","","36","","10","","1.2","","100.25","","","","-13","","Snow"
"2018-02-07 09:00","2018","02","07","09:00","-8.0","","-10.2","","85","","1","","13","","0.8","","100.11","","","","-14","","Moderate Snow"
"2018-02-07 10:00","2018","02","07","10:00","-8.0","","-10.1","","85","","35","","16","","0.8","","99.97","","","","-15","","Moderate Snow"
"2018-02-07 11:00","2018","02","07","11:00","-8.8","","-10.9","","85","","35","","23","","1.2","","99.87","","","","-17","","Snow"
"2018-02-07 12:00","2018","02","07","12:00","-8.1","","-10.5","","83","","35","","27","","1.6","","99.79","","","","-17","","Snow"
"2018-02-07 13:00","2018","02","07","13:00","-7.4","","-10.1","","82","","36","","27","","2.8","","99.64","","","","-16","","Snow"
"2018-02-07 14:00","2018","02","07","14:00","-6.2","","-9.5","","78","","34","","27","","12.9","","99.68","","","","-14","","NA"
"2018-02-07 15:00","2018","02","07","15:00","-6.0","","-10.0","","74","","35","","22","","12.9","","99.69","","","","-13","","Snow"
"2018-02-07 16:00","2018","02","07","16:00","-5.1","","-9.9","","69","","34","","23","","24.1","","99.76","","","","-12","","Mostly Cloudy"
"2018-02-07 17:00","2018","02","07","17:00","-5.4","","-10.8","","66","","33","","21","","24.1","","99.85","","","","-12","","NA"
"2018-02-07 18:00","2018","02","07","18:00","-6.0","","-11.8","","63","","30","","22","","24.1","","99.98","","","","-13","","NA"
"2018-02-07 19:00","2018","02","07","19:00","-7.6","","-12.7","","67","","29","","14","","24.1","","100.11","","","","-14","","Mainly Clear"
"2018-02-07 20:00","2018","02","07","20:00","-8.5","","-12.8","","72","","27","","16","","24.1","","100.23","","","","-15","","NA"
"2018-02-07 21:00","2018","02","07","21:00","-9.2","","-12.9","","75","","28","","17","","24.1","","100.31","","","","-16","","NA"
"2018-02-07 22:00","2018","02","07","22:00","-9.6","","-13.1","","76","","28","","14","","24.1","","100.39","","","","-16","","Mainly Clear"
"2018-02-07 23:00","2018","02","07","23:00","-10.4","","-13.6","","78","","27","","11","","24.1","","100.47","","","","-16","","NA"
"2018-02-08 00:00","2018","02","08","00:00","-11.6","","-14.4","","80","","26","","9","","24.1","","100.49","","","","-17","","NA"
"2018-02-08 01:00","2018","02","08","01:00","-12.4","","-15.0","","81","","27","","15","","24.1","","100.49","","","","-20","","Mainly Clear"
"2018-02-08 02:00","2018","02","08","02:00","-12.2","","-14.9","","81","","27","","16","","24.1","","100.50","","","","-20","","NA"
"2018-02-08 03:00","2018","02","08","03:00","-12.6","","-15.4","","80","","26","","13","","24.1","","100.51","","","","-19","","NA"
"2018-02-08 04:00","2018","02","08","04:00","-12.6","","-15.4","","79","","24","","14","","24.1","","100.50","","","","-20","","Mainly Clear"
"2018-02-08 05:00","2018","02","08","05:00","-11.5","","-14.4","","80","","25","","15","","24.1","","100.54","","","","-19","","NA"
"2018-02-08 06:00","2018","02","08","06:00","-10.6","","-13.6","","79","","28","","9","","19.3","","100.58","","","","-16","","Snow"
"2018-02-08 07:00","2018","02","08","07:00","-9.9","","-13.0","","78","","28","","10","","24.1","","100.58","","","","-15","","Snow"
"2018-02-08 08:00","2018","02","08","08:00","-10.0","","-13.3","","77","","28","","10","","16.1","","100.64","","","","-15","","Snow"
"2018-02-08 09:00","2018","02","08","09:00","-9.8","","-13.3","","75","","27","","11","","24.1","","100.64","","","","-15","","NA"
"2018-02-08 10:00","2018","02","08","10:00","-8.8","","-13.3","","70","","27","","28","","24.1","","100.67","","","","-18","","Mostly Cloudy"
"2018-02-08 11:00","2018","02","08","11:00","-7.8","","-14.2","","60","","26","","22","","24.1","","100.63","","","","-15","","NA"
"2018-02-08 12:00","2018","02","08","12:00","-7.0","","-14.0","","58","","23","","18","","24.1","","100.54","","","","-14","","NA"
"2018-02-08 13:00","2018","02","08","13:00","-7.1","","-14.3","","57","","25","","30","","24.1","","100.45","","","","-16","","Cloudy"
"2018-02-08 14:00","2018","02","08","14:00","-7.8","","-14.1","","61","","25","","29","","24.1","","100.44","","","","-17","","NA"
"2018-02-08 15:00","2018","02","08","15:00","-7.2","","-14.7","","56","","27","","40","","24.1","","100.44","","","","-17","","Blowing Snow"
"2018-02-08 16:00","2018","02","08","16:00","-7.0","","-14.7","","55","","25","","29","","24.1","","100.50","","","","-15","","Blowing Snow"
"2018-02-08 17:00","2018","02","08","17:00","-7.5","","-13.9","","60","","26","","31","","24.1","","100.55","","","","-16","","Blowing Snow"
"2018-02-08 18:00","2018","02","08","18:00","-8.0","","-13.8","","64","","24","","19","","24.1","","100.55","","","","-15","","NA"
"2018-02-08 19:00","2018","02","08","19:00","-8.2","","-12.5","","71","","22","","17","","24.1","","100.60","","","","-15","","Mostly Cloudy"
"2018-02-08 20:00","2018","02","08","20:00","-8.6","","-12.3","","74","","23","","15","","24.1","","100.66","","","","-15","","NA"
"2018-02-08 21:00","2018","02","08","21:00","-8.9","","-12.4","","76","","23","","16","","19.3","","100.72","","","","-16","","Snow Showers"
"2018-02-08 22:00","2018","02","08","22:00","-9.0","","-12.3","","77","","22","","16","","24.1","","100.75","","","","-16","","Mainly Clear"
"2018-02-08 23:00","2018","02","08","23:00","-9.0","","-12.2","","78","","23","","18","","12.9","","100.81","","","","-16","","Snow Showers"
"2018-02-09 00:00","2018","02","09","00:00","-9.6","","-12.8","","78","","23","","14","","24.1","","100.79","","","","-16","","NA"
"2018-02-09 01:00","2018","02","09","01:00","-9.6","","-12.8","","78","","23","","18","","24.1","","100.82","","","","-17","","Mostly Cloudy"
"2018-02-09 02:00","2018","02","09","02:00","-10.1","","-13.4","","78","","24","","16","","24.1","","100.81","","","","-17","","NA"
"2018-02-09 03:00","2018","02","09","03:00","-9.9","","-13.0","","78","","24","","14","","24.1","","100.84","","","","-16","","NA"
"2018-02-09 04:00","2018","02","09","04:00","-9.6","","-12.8","","78","","23","","15","","24.1","","100.78","","","","-16","","Mostly Cloudy"
"2018-02-09 05:00","2018","02","09","05:00","-9.5","","-12.8","","77","","23","","16","","24.1","","100.78","","","","-16","","NA"
"2018-02-09 06:00","2018","02","09","06:00","-9.2","","-12.7","","76","","24","","15","","24.1","","100.80","","","","-16","","NA"
"2018-02-09 07:00","2018","02","09","07:00","-8.9","","-12.5","","75","","24","","12","","24.1","","100.80","","","","-15","","Cloudy"
"2018-02-09 08:00","2018","02","09","08:00","-8.6","","-12.4","","74","","21","","10","","17.7","","100.81","","","","-14","","NA"
"2018-02-09 09:00","2018","02","09","09:00","-8.6","","-12.3","","75","","21","","7","","4.8","","100.78","","","","-12","","Snow"
"2018-02-09 10:00","2018","02","09","10:00","-7.9","","-11.3","","77","","18","","7","","9.7","","100.74","","","","-12","","Snow"
"2018-02-09 11:00","2018","02","09","11:00","-7.3","","-10.5","","78","","21","","12","","4.8","","100.73","","","","-13","","Snow"
"2018-02-09 12:00","2018","02","09","12:00","-6.6","","-9.9","","77","","17","","11","","3.2","","100.66","","","","-12","","Snow"
"2018-02-09 13:00","2018","02","09","13:00","-6.3","","-9.3","","80","","16","","9","","2.0","","100.54","","","","-11","","Snow"
"2018-02-09 14:00","2018","02","09","14:00","-6.3","","-9.1","","81","","14","","14","","2.0","","100.42","","","","-12","","Snow"
"2018-02-09 15:00","2018","02","09","15:00","-6.1","","-8.8","","81","","11","","10","","2.4","","100.28","","","","-11","","Snow"
"2018-02-09 16:00","2018","02","09","16:00","-6.0","","-8.6","","82","","9","","12","","1.6","","100.16","","","","-11","","Snow"
"2018-02-09 17:00","2018","02","09","17:00","-5.9","","-8.1","","84","","9","","6","","1.0","","100.13","","","","-9","","Snow"
"2018-02-09 18:00","2018","02","09","18:00","-5.7","","-7.7","","86","","7","","10","","1.2","","100.12","","","","-10","","Snow"
"2018-02-09 19:00","2018","02","09","19:00","-5.5","","-7.4","","87","","4","","10","","4.8","","100.12","","","","-10","","Snow"
"2018-02-09 20:00","2018","02","09","20:00","-5.5","","-7.2","","87","","2","","13","","6.4","","100.06","","","","-11","","Snow"
"2018-02-09 21:00","2018","02","09","21:00","-5.4","","-7.2","","87","","1","","11","","12.9","","100.04","","","","-10","","Snow"
"2018-02-09 22:00","2018","02","09","22:00","-5.5","","-7.3","","87","","36","","13","","12.9","","100.01","","","","-11","","Snow"
"2018-02-09 23:00","2018","02","09","23:00","-5.7","","-7.6","","86","","36","","16","","12.9","","100.01","","","","-12","","Snow"
"2018-02-10 00:00","2018","02","10","00:00","-5.9","","-7.9","","86","","34","","13","","12.9","","100.02","","","","-11","","NA"
"2018-02-10 01:00","2018","02","10","01:00","-5.9","","-8.1","","85","","35","","15","","12.9","","100.03","","","","-12","","Cloudy"
"2018-02-10 02:00","2018","02","10","02:00","-5.9","","-8.1","","84","","34","","11","","12.9","","100.04","","","","-11","","NA"
"2018-02-10 03:00","2018","02","10","03:00","-6.1","","-8.2","","85","","35","","14","","12.9","","100.04","","","","-12","","NA"
"2018-02-10 04:00","2018","02","10","04:00","-6.2","","-8.2","","85","","34","","10","","16.1","","100.02","","","","-11","","Mostly Cloudy"
"2018-02-10 05:00","2018","02","10","05:00","-6.4","","-8.6","","85","","36","","13","","12.9","","100.03","","","","-12","","NA"
"2018-02-10 06:00","2018","02","10","06:00","-6.4","","-8.6","","84","","34","","9","","12.9","","100.06","","","","-11","","NA"
"2018-02-10 07:00","2018","02","10","07:00","-6.5","","-8.8","","84","","36","","16","","16.1","","100.04","","","","-13","","Cloudy"
"2018-02-10 08:00","2018","02","10","08:00","-6.4","","-8.6","","85","","36","","12","","6.4","","100.09","","","","-12","","Snow"
"2018-02-10 09:00","2018","02","10","09:00","-6.0","","-8.2","","85","","35","","13","","4.8","","100.11","","","","-11","","Snow"
"2018-02-10 10:00","2018","02","10","10:00","-5.9","","-8.2","","84","","35","","8","","6.4","","100.07","","","","-10","","Snow"
"2018-02-10 11:00","2018","02","10","11:00","-5.5","","-7.8","","84","","36","","10","","3.2","","100.05","","","","-10","","Snow"
"2018-02-10 12:00","2018","02","10","12:00","-4.9","","-7.1","","85","","1","","13","","2.4","","99.99","","","","-10","","Snow"
"2018-02-10 13:00","2018","02","10","13:00","-4.5","","-6.6","","85","","1","","17","","2.0","","99.93","","","","-10","","Snow"
"2018-02-10 14:00","2018","02","10","14:00","-4.6","","-6.7","","85","","1","","17","","1.2","","99.88","","","","-10","","Snow"
"2018-02-10 15:00","2018","02","10","15:00","-4.9","","-6.9","","86","","36","","16","","1.2","","99.87","","","","-11","","Snow"
"2018-02-10 16:00","2018","02","10","16:00","-5.2","","-7.1","","86","","36","","17","","1.2","","99.88","","","","-11","","Snow"
"2018-02-10 17:00","2018","02","10","17:00","-5.1","","-7.0","","87","","1","","14","","8.1","","99.91","","","","-10","","Snow"
"2018-02-10 18:00","2018","02","10","18:00","-5.0","","-7.2","","85","","3","","15","","9.7","","99.97","","","","-11","","Snow"
"2018-02-10 19:00","2018","02","10","19:00","-5.2","","-7.9","","82","","2","","15","","16.1","","100.00","","","","-11","","Cloudy"
"2018-02-10 20:00","2018","02","10","20:00","-5.3","","-8.1","","80","","36","","14","","24.1","","100.06","","","","-11","","NA"
"2018-02-10 21:00","2018","02","10","21:00","-5.4","","-8.4","","79","","1","","13","","24.1","","100.02","","","","-11","","NA"
"2018-02-10 22:00","2018","02","10","22:00","-5.6","","-8.6","","80","","36","","13","","24.1","","100.05","","","","-11","","Cloudy"
"2018-02-10 23:00","2018","02","10","23:00","-6.0","","-8.8","","80","","36","","16","","24.1","","100.06","","","","-12","","NA"
"2018-02-11 00:00","2018","02","11","00:00","-6.4","","-9.1","","81","","1","","15","","24.1","","100.05","","","","-12","","NA"
"2018-02-11 01:00","2018","02","11","01:00","-6.7","","-9.3","","81","","36","","15","","24.1","","100.04","","","","-13","","Cloudy"
"2018-02-11 02:00","2018","02","11","02:00","-7.1","","-9.7","","82","","36","","17","","24.1","","100.02","","","","-14","","NA"
"2018-02-11 03:00","2018","02","11","03:00","-7.0","","-9.6","","82","","3","","12","","24.1","","99.92","","","","-12","","NA"
"2018-02-11 04:00","2018","02","11","04:00","-6.2","","-9.0","","81","","4","","12","","24.1","","99.81","","","","-11","","Cloudy"
"2018-02-11 05:00","2018","02","11","05:00","-5.8","","-8.9","","79","","4","","10","","24.1","","99.74","","","","-10","","NA"
"2018-02-11 06:00","2018","02","11","06:00","-5.3","","-8.1","","81","","6","","14","","16.1","","99.63","","","","-11","","NA"
"2018-02-11 07:00","2018","02","11","07:00","-4.9","","-7.4","","83","","6","","10","","24.1","","99.58","","","","-9","","Cloudy"
"2018-02-11 08:00","2018","02","11","08:00","-4.7","","-7.0","","84","","6","","12","","19.3","","99.48","","","","-9","","NA"
"2018-02-11 09:00","2018","02","11","09:00","-3.1","","-5.3","","85","","9","","20","","16.1","","99.35","","","","-9","","NA"
"2018-02-11 10:00","2018","02","11","10:00","-3.2","","-5.3","","86","","9","","25","","11.3","","99.16","","","","-10","","Cloudy"
"2018-02-11 11:00","2018","02","11","11:00","-3.7","","-5.6","","87","","8","","17","","11.3","","99.07","","","","-9","","Snow"
"2018-02-11 12:00","2018","02","11","12:00","-4.3","","-6.1","","87","","7","","16","","6.4","","98.77","","","","-10","","Freezing Drizzle,Snow"
"2018-02-11 13:00","2018","02","11","13:00","-3.0","","-4.7","","88","","7","","16","","6.4","","98.62","","","","-8","","Freezing Drizzle,Snow"
"2018-02-11 14:00","2018","02","11","14:00","-3.0","","-4.5","","89","","11","","7","","6.4","","98.46","","","","-6","","Snow,Snow Grains"
"2018-02-11 15:00","2018","02","11","15:00","-3.0","","-4.5","","89","","36","","8","","11.3","","98.44","","","","-6","","Freezing Drizzle"
"2018-02-11 16:00","2018","02","11","16:00","-2.8","","-4.3","","89","","31","","10","","12.9","","98.48","","","","-7","","Freezing Drizzle"
"2018-02-11 17:00","2018","02","11","17:00","-2.9","","-4.5","","88","","32","","18","","12.9","","98.62","","","","-9","","Freezing Drizzle"
"2018-02-11 18:00","2018","02","11","18:00","-2.6","","-4.2","","89","","31","","9","","12.9","","98.78","","","","-6","","Freezing Rain,Ice Pellets"
"2018-02-11 19:00","2018","02","11","19:00","-1.9","","-3.4","","89","","28","","13","","12.9","","98.93","","","","-6","","Cloudy"
"2018-02-11 20:00","2018","02","11","20:00","-2.1","","-4.2","","86","","28","","32","","24.1","","99.20","","","","-9","","NA"
"2018-02-11 21:00","2018","02","11","21:00","-2.8","","-5.7","","80","","29","","33","","24.1","","99.32","","","","-10","","NA"
"2018-02-11 22:00","2018","02","11","22:00","-3.1","","-6.6","","77","","30","","25","","24.1","","99.55","","","","-10","","Mostly Cloudy"
"2018-02-11 23:00","2018","02","11","23:00","-3.0","","-6.5","","77","","28","","23","","24.1","","99.72","","","","-9","","NA"
"2018-02-12 00:00","2018","02","12","00:00","-2.9","","-6.7","","75","","28","","20","","24.1","","99.88","","","","-9","","NA"
"2018-02-12 01:00","2018","02","12","01:00","-3.4","","-8.1","","70","","27","","27","","24.1","","100.03","","","","-11","","Mainly Clear"
"2018-02-12 02:00","2018","02","12","02:00","-4.1","","-9.2","","68","","28","","27","","24.1","","100.15","","","","-11","","NA"
"2018-02-12 03:00","2018","02","12","03:00","-5.1","","-9.7","","70","","28","","25","","24.1","","100.28","","","","-12","","NA"
"2018-02-12 04:00","2018","02","12","04:00","-6.1","","-10.4","","71","","28","","21","","24.1","","100.38","","","","-13","","Mainly Clear"
"2018-02-12 05:00","2018","02","12","05:00","-7.1","","-11.2","","72","","27","","19","","24.1","","100.50","","","","-14","","NA"
"2018-02-12 06:00","2018","02","12","06:00","-7.3","","-11.3","","73","","25","","17","","24.1","","100.67","","","","-14","","NA"
"2018-02-12 07:00","2018","02","12","07:00","-8.6","","-12.3","","75","","26","","20","","24.1","","100.78","","","","-16","","Mainly Clear"
"2018-02-12 08:00","2018","02","12","08:00","-9.0","","-12.7","","75","","26","","19","","24.1","","100.95","","","","-16","","NA"
"2018-02-12 09:00","2018","02","12","09:00","-7.6","","-11.5","","74","","27","","22","","24.1","","101.06","","","","-15","","NA"
"2018-02-12 10:00","2018","02","12","10:00","-5.9","","-10.3","","71","","27","","19","","24.1","","101.19","","","","-13","","Mainly Clear"
"2018-02-12 11:00","2018","02","12","11:00","-4.4","","-9.7","","66","","28","","16","","24.1","","101.25","","","","-10","","NA"
"2018-02-12 12:00","2018","02","12","12:00","-4.0","","-10.8","","59","","32","","27","","24.1","","101.31","","","","-11","","NA"
"2018-02-12 13:00","2018","02","12","13:00","-3.7","","-12.0","","53","","31","","14","","24.1","","101.35","","","","-9","","Mostly Cloudy"
"2018-02-12 14:00","2018","02","12","14:00","-3.8","","-12.5","","51","","30","","21","","24.1","","101.42","","","","-10","","NA"
"2018-02-12 15:00","2018","02","12","15:00","-3.1","","-12.3","","49","","30","","26","","24.1","","101.48","","","","-10","","NA"
"2018-02-12 16:00","2018","02","12","16:00","-3.9","","-12.9","","50","","30","","23","","24.1","","101.56","","","","-11","","Mostly Cloudy"
"2018-02-12 17:00","2018","02","12","17:00","-4.4","","-13.1","","51","","31","","19","","24.1","","101.67","","","","-11","","NA"
"2018-02-12 18:00","2018","02","12","18:00","-5.4","","-12.8","","56","","29","","22","","24.1","","101.76","","","","-12","","NA"
"2018-02-12 19:00","2018","02","12","19:00","-6.0","","-11.6","","65","","30","","24","","24.1","","101.83","","","","-13","","Mostly Cloudy"
"2018-02-12 20:00","2018","02","12","20:00","-7.5","","-13.0","","65","","29","","14","","24.1","","101.91","","","","-13","","NA"
"2018-02-12 21:00","2018","02","12","21:00","-8.8","","-14.0","","66","","28","","10","","24.1","","101.98","","","","-14","","NA"
"2018-02-12 22:00","2018","02","12","22:00","-9.6","","-14.4","","68","","25","","12","","24.1","","102.02","","","","-15","","Clear"
"2018-02-12 23:00","2018","02","12","23:00","-11.1","","-15.5","","71","","26","","9","","24.1","","102.08","","","","-16","","NA"
"2018-02-13 00:00","2018","02","13","00:00","-11.4","","-15.2","","74","","26","","13","","24.1","","102.15","","","","-18","","NA"
"2018-02-13 01:00","2018","02","13","01:00","-11.5","","-15.3","","74","","27","","16","","24.1","","102.19","","","","-19","","Mainly Clear"
"2018-02-13 02:00","2018","02","13","02:00","-11.2","","-14.9","","74","","30","","9","","24.1","","102.20","","","","-16","","NA"
"2018-02-13 03:00","2018","02","13","03:00","-12.4","","-16.2","","73","","29","","5","","24.1","","102.18","","","","-16","","NA"
"2018-02-13 04:00","2018","02","13","04:00","-12.5","","-16.1","","75","","29","","7","","24.1","","102.20","","","","-17","","Mainly Clear"
"2018-02-13 05:00","2018","02","13","05:00","-12.1","","-15.6","","75","","29","","6","","24.1","","102.17","","","","-16","","NA"
"2018-02-13 06:00","2018","02","13","06:00","-12.2","","-15.8","","75","","1","","12","","24.1","","102.17","","","","-19","","NA"
"2018-02-13 07:00","2018","02","13","07:00","-12.4","","-16.2","","74","","33","","9","","24.1","","102.21","","","","-18","","Mainly Clear"
"2018-02-13 08:00","2018","02","13","08:00","-12.2","","-16.0","","74","","36","","3","","24.1","","102.20","","","","-14","","NA"
"2018-02-13 09:00","2018","02","13","09:00","-10.6","","-14.6","","73","","3","","5","","24.1","","102.18","","","","-14","","NA"
"2018-02-13 10:00","2018","02","13","10:00","-8.1","","-12.5","","71","","2","","3","","19.3","","102.11","","","","-10","","Mostly Cloudy"
"2018-02-13 11:00","2018","02","13","11:00","-5.4","","-10.8","","66","","12","","14","","19.3","","102.01","","","","-11","","NA"
"2018-02-13 12:00","2018","02","13","12:00","-4.7","","-8.6","","74","","14","","13","","19.3","","101.91","","","","-10","","NA"
"2018-02-13 13:00","2018","02","13","13:00","-4.3","","-9.9","","65","","14","","11","","24.1","","101.82","","","","-9","","Mostly Cloudy"
"2018-02-13 14:00","2018","02","13","14:00","-4.1","","-10.5","","61","","16","","12","","24.1","","101.68","","","","-9","","NA"
"2018-02-13 15:00","2018","02","13","15:00","-4.2","","-10.5","","62","","12","","9","","24.1","","101.53","","","","-8","","NA"
"2018-02-13 16:00","2018","02","13","16:00","-4.4","","-10.8","","61","","13","","12","","24.1","","101.42","","","","-9","","Mostly Cloudy"
"2018-02-13 17:00","2018","02","13","17:00","-4.4","","-10.3","","63","","12","","13","","24.1","","101.32","","","","-9","","NA"
"2018-02-13 18:00","2018","02","13","18:00","-4.2","","-10.2","","63","","11","","13","","24.1","","101.18","","","","-9","","NA"
"2018-02-13 19:00","2018","02","13","19:00","-3.7","","-9.6","","64","","12","","9","","24.1","","101.11","","","","-7","","Mostly Cloudy"
"2018-02-13 20:00","2018","02","13","20:00","-3.1","","-8.6","","66","","14","","9","","24.1","","100.94","","","","-7","","NA"
"2018-02-13 21:00","2018","02","13","21:00","-2.9","","-8.2","","67","","11","","8","","24.1","","100.82","","","","-6","","NA"
"2018-02-13 22:00","2018","02","13","22:00","-2.6","","-7.6","","68","","16","","6","","24.1","","100.69","","","","-5","","Mostly Cloudy"
"2018-02-13 23:00","2018","02","13","23:00","-2.3","","-7.3","","69","","19","","8","","24.1","","100.53","","","","-5","","NA"
"2018-02-14 00:00","2018","02","14","00:00","-2.3","","-7.2","","69","","36","","2","","24.1","","100.41","","","","-3","","NA"
"2018-02-14 01:00","2018","02","14","01:00","-2.6","","-7.2","","71","","36","","2","","24.1","","100.35","","","","-3","","Mostly Cloudy"
"2018-02-14 02:00","2018","02","14","02:00","-3.2","","-7.2","","74","","25","","5","","24.1","","100.26","","","","-5","","NA"
"2018-02-14 03:00","2018","02","14","03:00","-3.5","","-7.0","","77","","19","","7","","24.1","","100.18","","","","-6","","NA"
"2018-02-14 04:00","2018","02","14","04:00","-2.2","","-7.3","","68","","21","","11","","24.1","","100.09","","","","-6","","Cloudy"
"2018-02-14 05:00","2018","02","14","05:00","-1.2","","-5.8","","71","","21","","19","","24.1","","99.98","","","","-7","","NA"
"2018-02-14 06:00","2018","02","14","06:00","-1.8","","-5.0","","79","","20","","9","","12.9","","99.96","","","","-5","","NA"
"2018-02-14 07:00","2018","02","14","07:00","-1.7","","-4.7","","80","","22","","18","","24.1","","99.96","","","","-7","","Clear"
"2018-02-14 08:00","2018","02","14","08:00","-1.1","","-4.0","","81","","22","","17","","16.1","","99.94","","","","-6","","NA"
"2018-02-14 09:00","2018","02","14","09:00","0.0","","-3.4","","78","","24","","16","","24.1","","99.95","","","","-5","","NA"
"2018-02-14 10:00","2018","02","14","10:00","1.0","","-3.0","","75","","23","","21","","24.1","","99.95","","","","","","Clear"
"2018-02-14 11:00","2018","02","14","11:00","2.1","","-2.9","","69","","24","","26","","24.1","","99.91","","","","","","NA"
"2018-02-14 12:00","2018","02","14","12:00","3.2","","-2.8","","64","","26","","20","","24.1","","99.87","","","","","","NA"
"2018-02-14 13:00","2018","02","14","13:00","4.5","","-2.6","","60","","24","","18","","24.1","","99.78","","","","","","Clear"
"2018-02-14 14:00","2018","02","14","14:00","4.5","","-2.4","","61","","22","","25","","24.1","","99.69","","","","","","NA"
"2018-02-14 15:00","2018","02","14","15:00","4.6","","-2.1","","62","","22","","23","","24.1","","99.62","","","","","","NA"
"2018-02-14 16:00","2018","02","14","16:00","5.0","","-2.3","","59","","21","","22","","24.1","","99.55","","","","","","Clear"
"2018-02-14 17:00","2018","02","14","17:00","4.7","","-2.7","","59","","23","","22","","24.1","","99.48","","","","","","NA"
"2018-02-14 18:00","2018","02","14","18:00","4.2","","-1.7","","65","","23","","23","","24.1","","99.36","","","","","","NA"
"2018-02-14 19:00","2018","02","14","19:00","3.8","","-1.5","","68","","23","","21","","24.1","","99.36","","","","","","Clear"
"2018-02-14 20:00","2018","02","14","20:00","3.6","","-1.2","","71","","22","","18","","24.1","","99.32","","","","","","NA"
"2018-02-14 21:00","2018","02","14","21:00","3.4","","-1.1","","73","","22","","15","","24.1","","99.27","","","","","","NA"
"2018-02-14 22:00","2018","02","14","22:00","3.3","","-0.5","","76","","21","","10","","24.1","","99.18","","","","","","Mainly Clear"
"2018-02-14 23:00","2018","02","14","23:00","2.9","","-0.3","","79","","17","","10","","24.1","","99.11","","","","","","NA"
"2018-02-15 00:00","2018","02","15","00:00","2.7","","0.1","","83","","21","","15","","19.3","","99.08","","","","","","NA"
"2018-02-15 01:00","2018","02","15","01:00","3.1","","1.2","","87","","21","","9","","19.3","","99.01","","","","","","Cloudy"
"2018-02-15 02:00","2018","02","15","02:00","3.4","","1.8","","90","","21","","11","","9.7","","98.90","","","","","","Fog"
"2018-02-15 03:00","2018","02","15","03:00","3.4","","2.1","","91","","21","","12","","6.4","","98.80","","","","","","Fog"
"2018-02-15 04:00","2018","02","15","04:00","3.6","","2.5","","93","","18","","6","","2.0","","98.69","","","","","","Fog"
"2018-02-15 05:00","2018","02","15","05:00","4.4","","3.4","","94","","20","","12","","6.4","","98.61","","","","","","Fog"
"2018-02-15 06:00","2018","02","15","06:00","3.7","","2.8","","94","","17","","9","","1.6","","98.55","","","","","","Fog"
"2018-02-15 07:00","2018","02","15","07:00","4.5","","3.7","","94","","19","","10","","9.7","","98.48","","","","","","Fog"
"2018-02-15 08:00","2018","02","15","08:00","5.4","","4.4","","93","","19","","14","","9.7","","98.49","","","","","","Fog"
"2018-02-15 09:00","2018","02","15","09:00","5.5","","4.3","","92","","23","","18","","14.5","","98.52","","","","","","NA"
"2018-02-15 10:00","2018","02","15","10:00","5.5","","4.0","","90","","24","","21","","16.1","","98.53","","","","","","Cloudy"
"2018-02-15 11:00","2018","02","15","11:00","5.8","","4.0","","88","","25","","20","","24.1","","98.50","","","","","","NA"
"2018-02-15 12:00","2018","02","15","12:00","6.2","","3.9","","85","","25","","23","","24.1","","98.49","","","","","","NA"
"2018-02-15 13:00","2018","02","15","13:00","6.6","","3.9","","83","","25","","26","","24.1","","98.38","","","","","","Cloudy"
"2018-02-15 14:00","2018","02","15","14:00","7.0","","3.8","","80","","25","","26","","24.1","","98.31","","","","","","NA"
"2018-02-15 15:00","2018","02","15","15:00","7.5","","3.8","","77","","26","","18","","24.1","","98.28","","","","","","NA"
"2018-02-15 16:00","2018","02","15","16:00","7.6","","4.0","","78","","26","","19","","24.1","","98.30","","","","","","Cloudy"
"2018-02-15 17:00","2018","02","15","17:00","7.0","","4.0","","81","","29","","12","","24.1","","98.28","","","","","","NA"
"2018-02-15 18:00","2018","02","15","18:00","5.9","","2.8","","81","","28","","12","","16.1","","98.29","","","","","","NA"
"2018-02-15 19:00","2018","02","15","19:00","4.3","","1.9","","85","","26","","10","","24.1","","98.30","","","","","","Mostly Cloudy"
"2018-02-15 20:00","2018","02","15","20:00","4.7","","2.8","","87","","32","","12","","12.9","","98.24","","","","","","NA"
"2018-02-15 21:00","2018","02","15","21:00","4.7","","3.0","","89","","31","","16","","12.9","","98.35","","","","","","NA"
"2018-02-15 22:00","2018","02","15","22:00","4.3","","2.7","","89","","32","","15","","12.9","","98.32","","","","","","Cloudy"
"2018-02-15 23:00","2018","02","15","23:00","4.6","","2.8","","88","","34","","17","","12.9","","98.34","","","","","","NA"
"2018-02-16 00:00","2018","02","16","00:00","3.5","","1.4","","87","","35","","10","","12.9","","98.40","","","","","","NA"
"2018-02-16 01:00","2018","02","16","01:00","3.0","","1.0","","87","","35","","8","","12.9","","98.44","","","","","","Cloudy"
"2018-02-16 02:00","2018","02","16","02:00","2.2","","0.0","","85","","33","","8","","12.9","","98.43","","","","","","NA"
"2018-02-16 03:00","2018","02","16","03:00","1.1","","-0.9","","87","","31","","8","","12.9","","98.47","","","","","","NA"
"2018-02-16 04:00","2018","02","16","04:00","1.6","","-0.4","","86","","31","","13","","16.1","","98.46","","","","","","Cloudy"
"2018-02-16 05:00","2018","02","16","05:00","1.3","","-0.8","","86","","29","","14","","16.1","","98.51","","","","","","NA"
"2018-02-16 06:00","2018","02","16","06:00","1.2","","-1.4","","83","","30","","23","","16.1","","98.56","","","","","","NA"
"2018-02-16 07:00","2018","02","16","07:00","0.9","","-1.8","","82","","30","","22","","19.3","","98.59","","","","","","Mostly Cloudy"
"2018-02-16 08:00","2018","02","16","08:00","0.9","","-1.8","","82","","31","","26","","24.1","","98.72","","","","","","NA"
"2018-02-16 09:00","2018","02","16","09:00","0.3","","-2.3","","83","","34","","27","","19.3","","98.83","","","","","","NA"
"2018-02-16 10:00","2018","02","16","10:00","0.4","","-2.6","","80","","30","","34","","24.1","","98.93","","","","","","Mostly Cloudy"
"2018-02-16 11:00","2018","02","16","11:00","-0.1","","-4.5","","72","","31","","31","","24.1","","99.04","","","","-7","","NA"
"2018-02-16 12:00","2018","02","16","12:00","0.4","","-5.9","","62","","32","","32","","24.1","","99.15","","","","","","NA"
"2018-02-16 13:00","2018","02","16","13:00","1.0","","-7.1","","55","","31","","31","","24.1","","99.28","","","","","","Mainly Clear"
"2018-02-16 14:00","2018","02","16","14:00","-1.1","","-9.4","","53","","34","","38","","24.1","","99.39","","","","-9","","NA"
"2018-02-16 15:00","2018","02","16","15:00","-0.9","","-10.0","","50","","31","","43","","24.1","","99.53","","","","-9","","NA"
"2018-02-16 16:00","2018","02","16","16:00","-2.2","","-11.3","","50","","29","","34","","24.1","","99.74","","","","-10","","Mainly Clear"
"2018-02-16 17:00","2018","02","16","17:00","-3.0","","-13.4","","45","","31","","39","","24.1","","99.88","","","","-11","","NA"
"2018-02-16 18:00","2018","02","16","18:00","-4.0","","-12.5","","52","","30","","25","","24.1","","100.03","","","","-11","","NA"
"2018-02-16 19:00","2018","02","16","19:00","-4.6","","-12.2","","55","","30","","29","","24.1","","100.17","","","","-12","","Clear"
"2018-02-16 20:00","2018","02","16","20:00","-5.1","","-12.3","","57","","31","","21","","24.1","","100.22","","","","-12","","NA"
"2018-02-16 21:00","2018","02","16","21:00","-6.6","","-12.8","","62","","27","","9","","24.1","","100.25","","","","-11","","NA"
"2018-02-16 22:00","2018","02","16","22:00","-7.1","","-12.4","","66","","25","","14","","24.1","","100.31","","","","-13","","Clear"
"2018-02-16 23:00","2018","02","16","23:00","-6.2","","-11.2","","68","","20","","9","","24.1","","100.37","","","","-10","","NA"
"2018-02-17 00:00","2018","02","17","00:00","-6.4","","-11.4","","68","","21","","7","","24.1","","100.35","","","","-10","","NA"
"2018-02-17 01:00","2018","02","17","01:00","-6.9","","-11.6","","70","","23","","7","","24.1","","100.37","","","","-10","","Clear"
"2018-02-17 02:00","2018","02","17","02:00","-7.1","","-11.4","","72","","24","","8","","24.1","","100.38","","","","-11","","NA"
"2018-02-17 03:00","2018","02","17","03:00","-6.7","","-10.7","","73","","19","","6","","24.1","","100.42","","","","-10","","NA"
"2018-02-17 04:00","2018","02","17","04:00","-6.5","","-10.4","","74","","22","","13","","24.1","","100.35","","","","-12","","Clear"
"2018-02-17 05:00","2018","02","17","05:00","-6.7","","-10.4","","75","","19","","8","","24.1","","100.33","","","","-11","","NA"
"2018-02-17 06:00","2018","02","17","06:00","-6.4","","-10.1","","75","","19","","9","","24.1","","100.36","","","","-11","","NA"
"2018-02-17 07:00","2018","02","17","07:00","-5.7","","-9.5","","75","","20","","11","","24.1","","100.35","","","","-10","","Mainly Clear"
"2018-02-17 08:00","2018","02","17","08:00","-4.9","","-8.5","","76","","21","","14","","24.1","","100.34","","","","-10","","NA"
"2018-02-17 09:00","2018","02","17","09:00","-3.5","","-7.3","","75","","20","","13","","24.1","","100.29","","","","-8","","NA"
"2018-02-17 10:00","2018","02","17","10:00","-2.2","","-6.8","","71","","19","","17","","24.1","","100.22","","","","-8","","Cloudy"
"2018-02-17 11:00","2018","02","17","11:00","-1.2","","-6.7","","66","","20","","15","","24.1","","100.15","","","","-6","","NA"
"2018-02-17 12:00","2018","02","17","12:00","-1.0","","-7.5","","61","","21","","10","","24.1","","100.02","","","","-5","","NA"
"2018-02-17 13:00","2018","02","17","13:00","-0.9","","-7.9","","59","","18","","18","","24.1","","99.86","","","","-6","","Cloudy"
"2018-02-17 14:00","2018","02","17","14:00","-1.3","","-8.1","","60","","18","","19","","24.1","","99.69","","","","-7","","NA"
"2018-02-17 15:00","2018","02","17","15:00","-1.4","","-7.8","","62","","18","","15","","24.1","","99.66","","","","-6","","NA"
"2018-02-17 16:00","2018","02","17","16:00","-1.4","","-7.9","","62","","19","","14","","24.1","","99.58","","","","-6","","Cloudy"
"2018-02-17 17:00","2018","02","17","17:00","-1.6","","-7.8","","63","","18","","23","","24.1","","99.49","","","","-8","","NA"
"2018-02-17 18:00","2018","02","17","18:00","-1.6","","-7.8","","63","","21","","15","","24.1","","99.56","","","","-6","","NA"
"2018-02-17 19:00","2018","02","17","19:00","-1.6","","-7.6","","64","","21","","15","","24.1","","99.55","","","","-6","","Cloudy"
"2018-02-17 20:00","2018","02","17","20:00","-1.7","","-7.3","","66","","20","","11","","24.1","","99.43","","","","-6","","NA"
"2018-02-17 21:00","2018","02","17","21:00","-1.7","","-7.2","","67","","21","","14","","24.1","","99.37","","","","-6","","NA"
"2018-02-17 22:00","2018","02","17","22:00","-1.9","","-7.0","","68","","22","","17","","24.1","","99.36","","","","-7","","Cloudy"
"2018-02-17 23:00","2018","02","17","23:00","-2.0","","-6.8","","70","","24","","18","","24.1","","99.36","","","","-7","","NA"
"2018-02-18 00:00","2018","02","18","00:00","-2.1","","-6.4","","72","","25","","17","","24.1","","99.36","","","","-7","","NA"
"2018-02-18 01:00","2018","02","18","01:00","-2.0","","-6.0","","74","","26","","17","","24.1","","99.41","","","","-7","","Cloudy"
"2018-02-18 02:00","2018","02","18","02:00","-2.0","","-5.8","","76","","25","","16","","24.1","","99.50","","","","-7","","NA"
"2018-02-18 03:00","2018","02","18","03:00","-2.8","","-6.0","","79","","26","","16","","24.1","","99.57","","","","-8","","NA"
"2018-02-18 04:00","2018","02","18","04:00","-2.5","","-5.3","","81","","25","","12","","24.1","","99.70","","","","-7","","Mostly Cloudy"
"2018-02-18 05:00","2018","02","18","05:00","-1.4","","-4.5","","80","","23","","12","","24.1","","99.87","","","","-5","","NA"
"2018-02-18 06:00","2018","02","18","06:00","-0.5","","-4.3","","75","","28","","15","","24.1","","100.04","","","","-5","","NA"
"2018-02-18 07:00","2018","02","18","07:00","-0.2","","-5.1","","70","","29","","16","","24.1","","100.13","","","","-5","","Cloudy"
"2018-02-18 08:00","2018","02","18","08:00","0.0","","-5.1","","69","","25","","13","","24.1","","100.29","","","","-4","","NA"
"2018-02-18 09:00","2018","02","18","09:00","0.6","","-4.4","","69","","24","","19","","24.1","","100.41","","","","","","NA"
"2018-02-18 10:00","2018","02","18","10:00","1.3","","-4.4","","66","","27","","21","","24.1","","100.45","","","","","","Mostly Cloudy"
"2018-02-18 11:00","2018","02","18","11:00","1.4","","-5.9","","58","","28","","17","","24.1","","100.53","","","","","","NA"
"2018-02-18 12:00","2018","02","18","12:00","2.3","","-6.4","","53","","26","","19","","24.1","","100.57","","","","","","NA"
"2018-02-18 13:00","2018","02","18","13:00","4.2","","-5.8","","48","","25","","16","","24.1","","100.49","","","","","","Mostly Cloudy"
"2018-02-18 14:00","2018","02","18","14:00","3.7","","-6.3","","48","","28","","9","","24.1","","100.46","","","","","","NA"
"2018-02-18 15:00","2018","02","18","15:00","4.0","","-7.3","","44","","21","","14","","24.1","","100.47","","","","","","NA"
"2018-02-18 16:00","2018","02","18","16:00","3.1","","-7.4","","46","","20","","14","","24.1","","100.60","","","","","","Mostly Cloudy"
"2018-02-18 17:00","2018","02","18","17:00","2.2","","-7.3","","49","","21","","17","","24.1","","100.64","","","","","","NA"
"2018-02-18 18:00","2018","02","18","18:00","1.3","","-7.0","","54","","21","","13","","24.1","","100.65","","","","","","NA"
"2018-02-18 19:00","2018","02","18","19:00","0.4","","-5.8","","63","","18","","15","","24.1","","100.61","","","","","","Mostly Cloudy"
"2018-02-18 20:00","2018","02","18","20:00","-0.1","","-5.6","","66","","17","","7","","24.1","","100.57","","","","-3","","NA"
"2018-02-18 21:00","2018","02","18","21:00","-0.5","","-5.5","","69","","15","","7","","24.1","","100.48","","","","-3","","NA"
"2018-02-18 22:00","2018","02","18","22:00","-0.4","","-4.8","","72","","15","","10","","24.1","","100.40","","","","-4","","Mostly Cloudy"
"2018-02-18 23:00","2018","02","18","23:00","-0.5","","-4.4","","75","","14","","14","","24.1","","100.31","","","","-5","","NA"
"2018-02-19 00:00","2018","02","19","00:00","-0.8","","-4.6","","76","","14","","9","","24.1","","100.25","","","","-4","","NA"
"2018-02-19 01:00","2018","02","19","01:00","-0.9","","-4.4","","78","","11","","8","","24.1","","100.16","","","","-4","","Mostly Cloudy"
"2018-02-19 02:00","2018","02","19","02:00","-0.8","","-3.9","","80","","14","","11","","24.1","","100.04","","","","-5","","NA"
"2018-02-19 03:00","2018","02","19","03:00","-0.5","","-3.4","","81","","14","","10","","24.1","","99.94","","","","-4","","NA"
"2018-02-19 04:00","2018","02","19","04:00","-0.6","","-3.3","","82","","12","","5","","24.1","","99.91","","","","-2","","Mostly Cloudy"
"2018-02-19 05:00","2018","02","19","05:00","-0.7","","-3.4","","82","","13","","7","","24.1","","99.86","","","","-3","","NA"
"2018-02-19 06:00","2018","02","19","06:00","-2.6","","-5.3","","82","","35","","4","","24.1","","99.91","","","","-4","","NA"
"2018-02-19 07:00","2018","02","19","07:00","-0.9","","-3.3","","84","","10","","5","","24.1","","99.86","","","","-3","","Mostly Cloudy"
"2018-02-19 08:00","2018","02","19","08:00","-0.1","","-2.7","","82","","14","","7","","24.1","","99.85","","","","-3","","NA"
"2018-02-19 09:00","2018","02","19","09:00","1.5","","-1.7","","79","","11","","8","","6.4","","99.74","","","","","","NA"
"2018-02-19 10:00","2018","02","19","10:00","3.3","","-1.5","","71","","15","","11","","24.1","","99.74","","","","","","Cloudy"
"2018-02-19 11:00","2018","02","19","11:00","3.8","","-1.1","","70","","15","","9","","24.1","","99.73","","","","","","Rain"
"2018-02-19 12:00","2018","02","19","12:00","3.6","","-0.5","","74","","11","","8","","16.1","","99.69","","","","","","Drizzle"
"2018-02-19 13:00","2018","02","19","13:00","2.9","","0.3","","83","","13","","10","","8.1","","99.60","","","","","","Drizzle,Fog"
"2018-02-19 14:00","2018","02","19","14:00","2.8","","1.0","","88","","14","","12","","2.0","","99.59","","","","","","Drizzle,Fog"
"2018-02-19 15:00","2018","02","19","15:00","3.1","","1.8","","91","","12","","9","","0.8","","99.57","","","","","","Drizzle,Fog"
"2018-02-19 16:00","2018","02","19","16:00","3.5","","2.4","","93","","14","","11","","0.8","","99.58","","","","","","Drizzle,Fog"
"2018-02-19 17:00","2018","02","19","17:00","3.9","","3.0","","94","","10","","9","","0.6","","99.57","","","","","","Drizzle,Fog"
"2018-02-19 18:00","2018","02","19","18:00","4.0","","3.2","","94","","9","","8","","0.4","","99.54","","","","","","Drizzle,Fog"
"2018-02-19 19:00","2018","02","19","19:00","3.8","","3.0","","95","","9","","14","","6.4","","99.50","","","","","","Drizzle,Fog"
"2018-02-19 20:00","2018","02","19","20:00","3.4","","2.7","","95","","5","","6","","9.7","","99.52","","","","","","Rain,Fog"
"2018-02-19 21:00","2018","02","19","21:00","3.2","","2.5","","95","","6","","4","","9.7","","99.53","","","","","","Rain,Fog"
"2018-02-19 22:00","2018","02","19","22:00","3.2","","2.5","","95","","32","","4","","6.4","","99.54","","","","","","Rain,Fog"
"2018-02-19 23:00","2018","02","19","23:00","3.5","","2.9","","95","","36","","12","","9.7","","99.57","","","","","","Rain,Fog"
"2018-02-20 00:00","2018","02","20","00:00","3.6","","3.0","","96","","8","","5","","9.7","","99.58","","","","","","Rain,Fog"
"2018-02-20 01:00","2018","02","20","01:00","3.6","","3.0","","96","","36","","3","","6.4","","99.53","","","","","","Rain,Fog"
"2018-02-20 02:00","2018","02","20","02:00","3.4","","2.7","","96","","26","","3","","9.7","","99.57","","","","","","Rain,Fog"
"2018-02-20 03:00","2018","02","20","03:00","3.9","","3.3","","96","","13","","4","","0.2","","99.52","","","","","","Fog"
"2018-02-20 04:00","2018","02","20","04:00","3.3","","2.7","","96","","36","","2","","0.2","","99.52","","","","","","Fog"
"2018-02-20 05:00","2018","02","20","05:00","2.8","","2.2","","96","","0","","1","","0.2","","99.53","","","","","","Fog"
"2018-02-20 06:00","2018","02","20","06:00","3.4","","2.8","","96","","36","","2","","0.4","","99.52","","","","","","Rain,Fog"
"2018-02-20 07:00","2018","02","20","07:00","4.5","","4.0","","96","","15","","10","","1.6","","99.49","","","","","","Rain,Fog"
"2018-02-20 08:00","2018","02","20","08:00","4.9","","4.4","","96","","16","","7","","0.4","","99.56","","","","","","Rain,Fog"
"2018-02-20 09:00","2018","02","20","09:00","6.0","","5.5","","97","","14","","8","","0.6","","99.56","","","","","","Rain,Fog"
"2018-02-20 10:00","2018","02","20","10:00","8.1","","7.6","","97","","12","","8","","9.7","","99.59","","","","","","Rain,Fog"
"2018-02-20 11:00","2018","02","20","11:00","9.8","","9.4","","97","","16","","7","","9.7","","99.53","","","","","","Rain,Fog"
"2018-02-20 12:00","2018","02","20","12:00","12.2","","11.7","","97","","21","","15","","19.3","","99.51","","","","","","Rain"
"2018-02-20 13:00","2018","02","20","13:00","12.9","","12.4","","97","","21","","24","","19.3","","99.47","","","","","","Rain"
"2018-02-20 14:00","2018","02","20","14:00","14.0","","13.4","","96","","22","","29","","19.3","","99.45","","","","","","Rain"
"2018-02-20 15:00","2018","02","20","15:00","14.8","","14.1","","95","","23","","31","","24.1","","99.46","","","","","","Rain"
"2018-02-20 16:00","2018","02","20","16:00","15.5","","14.4","","93","","24","","27","","24.1","","99.51","","","","","","Cloudy"
"2018-02-20 17:00","2018","02","20","17:00","15.6","","13.9","","89","","24","","34","","24.1","","99.58","","","","","","NA"
"2018-02-20 18:00","2018","02","20","18:00","15.3","","13.2","","87","","21","","15","","24.1","","99.57","","","","","","Rain"
"2018-02-20 19:00","2018","02","20","19:00","14.7","","12.9","","89","","22","","27","","24.1","","99.66","","","","","","Mostly Cloudy"
"2018-02-20 20:00","2018","02","20","20:00","14.5","","12.8","","89","","18","","8","","24.1","","99.59","","","","","","NA"
"2018-02-20 21:00","2018","02","20","21:00","14.4","","12.8","","90","","17","","9","","24.1","","99.54","","","","","","NA"
"2018-02-20 22:00","2018","02","20","22:00","12.8","","11.5","","92","","16","","10","","24.1","","99.50","","","","","","Mostly Cloudy"
"2018-02-20 23:00","2018","02","20","23:00","13.3","","11.9","","91","","16","","10","","24.1","","99.47","","","","","","NA"
"2018-02-21 00:00","2018","02","21","00:00","14.2","","12.0","","86","","18","","13","","24.1","","99.46","","","","","","NA"
"2018-02-21 01:00","2018","02","21","01:00","14.3","","10.7","","79","","24","","16","","24.1","","99.55","","","","","","Mostly Cloudy"
"2018-02-21 02:00","2018","02","21","02:00","13.3","","10.3","","82","","24","","10","","24.1","","99.60","","","","","","NA"
"2018-02-21 03:00","2018","02","21","03:00","13.3","","10.4","","83","","22","","9","","24.1","","99.60","","","","","","NA"
"2018-02-21 04:00","2018","02","21","04:00","12.4","","10.2","","86","","36","","2","","80.5","","99.52","","","","","","Mostly Cloudy"
"2018-02-21 05:00","2018","02","21","05:00","9.0","","7.4","","90","","33","","7","","24.1","","99.53","","","","","","NA"
"2018-02-21 06:00","2018","02","21","06:00","10.4","","9.3","","93","","30","","8","","12.9","","99.62","","","","","","Rain"
"2018-02-21 07:00","2018","02","21","07:00","4.3","","3.2","","93","","34","","35","","8.1","","99.83","","","","","","Rain,Fog"
"2018-02-21 08:00","2018","02","21","08:00","3.2","","2.2","","93","","34","","30","","19.3","","100.03","","","","","","Rain"
"2018-02-21 09:00","2018","02","21","09:00","2.7","","1.5","","92","","34","","33","","19.3","","100.14","","","","","","Rain"
"2018-02-21 10:00","2018","02","21","10:00","2.3","","0.9","","91","","33","","35","","16.1","","100.34","","","","","","Rain"
"2018-02-21 11:00","2018","02","21","11:00","3.2","","1.7","","90","","32","","33","","19.3","","100.43","","","","","","Rain"
"2018-02-21 12:00","2018","02","21","12:00","2.2","","0.0","","85","","30","","36","","24.1","","100.63","","","","","","Rain"
"2018-02-21 13:00","2018","02","21","13:00","2.3","","-1.2","","78","","33","","33","","24.1","","100.71","","","","","","Rain"
"2018-02-21 14:00","2018","02","21","14:00","2.5","","-2.1","","71","","34","","29","","24.1","","100.83","","","","","","NA"
"2018-02-21 15:00","2018","02","21","15:00","3.6","","-2.6","","64","","34","","26","","24.1","","100.95","","","","","","NA"
"2018-02-21 16:00","2018","02","21","16:00","2.9","","-4.6","","58","","35","","17","","24.1","","101.11","","","","","","Mostly Cloudy"
"2018-02-21 17:00","2018","02","21","17:00","2.5","","-4.3","","61","","33","","13","","24.1","","101.20","","","","","","NA"
"2018-02-21 18:00","2018","02","21","18:00","1.1","","-4.6","","65","","2","","12","","24.1","","101.29","","","","","","NA"
"2018-02-21 19:00","2018","02","21","19:00","0.7","","-4.3","","69","","2","","9","","24.1","","101.41","","","","","","Mostly Cloudy"
"2018-02-21 20:00","2018","02","21","20:00","0.0","","-4.6","","71","","1","","14","","24.1","","101.45","","","","-4","","NA"
"2018-02-21 21:00","2018","02","21","21:00","-0.7","","-4.9","","74","","1","","12","","24.1","","101.54","","","","-5","","NA"
"2018-02-21 22:00","2018","02","21","22:00","-0.9","","-5.0","","74","","1","","13","","24.1","","101.61","","","","-5","","Mostly Cloudy"
"2018-02-21 23:00","2018","02","21","23:00","-1.2","","-5.2","","74","","34","","17","","24.1","","101.66","","","","-6","","NA"
"2018-02-22 00:00","2018","02","22","00:00","-1.8","","-5.7","","75","","36","","22","","24.1","","101.70","","","","-8","","NA"
"2018-02-22 01:00","2018","02","22","01:00","-2.3","","-6.2","","75","","36","","17","","24.1","","101.73","","","","-8","","Cloudy"
"2018-02-22 02:00","2018","02","22","02:00","-2.9","","-6.8","","74","","36","","23","","24.1","","101.77","","","","-9","","NA"
"2018-02-22 03:00","2018","02","22","03:00","-2.9","","-7.1","","73","","35","","26","","24.1","","101.71","","","","-10","","NA"
"2018-02-22 04:00","2018","02","22","04:00","-3.1","","-7.0","","74","","36","","17","","24.1","","101.67","","","","-9","","Cloudy"
"2018-02-22 05:00","2018","02","22","05:00","-3.1","","-6.8","","76","","1","","14","","24.1","","101.64","","","","-8","","NA"
"2018-02-22 06:00","2018","02","22","06:00","-2.8","","-6.4","","77","","1","","14","","24.1","","101.67","","","","-8","","NA"
"2018-02-22 07:00","2018","02","22","07:00","-2.7","","-6.5","","75","","3","","13","","24.1","","101.64","","","","-7","","Mostly Cloudy"
"2018-02-22 08:00","2018","02","22","08:00","-2.3","","-6.7","","72","","3","","13","","24.1","","101.66","","","","-7","","NA"
"2018-02-22 09:00","2018","02","22","09:00","-1.8","","-6.5","","70","","3","","15","","24.1","","101.70","","","","-7","","NA"
"2018-02-22 10:00","2018","02","22","10:00","-1.2","","-6.1","","70","","7","","13","","24.1","","101.70","","","","-5","","Cloudy"
"2018-02-22 11:00","2018","02","22","11:00","-0.7","","-5.3","","71","","9","","11","","24.1","","101.77","","","","-4","","NA"
"2018-02-22 12:00","2018","02","22","12:00","-0.1","","-4.8","","70","","6","","10","","24.1","","101.82","","","","-3","","NA"
"2018-02-22 13:00","2018","02","22","13:00","0.7","","-4.7","","67","","8","","12","","24.1","","101.75","","","","","","Mostly Cloudy"
"2018-02-22 14:00","2018","02","22","14:00","0.7","","-5.5","","63","","8","","13","","24.1","","101.71","","","","","","NA"
"2018-02-22 15:00","2018","02","22","15:00","1.4","","-5.6","","60","","9","","16","","24.1","","101.62","","","","","","NA"
"2018-02-22 16:00","2018","02","22","16:00","1.4","","-6.1","","57","","8","","8","","24.1","","101.61","","","","","","Mostly Cloudy"
"2018-02-22 17:00","2018","02","22","17:00","0.8","","-6.6","","58","","10","","14","","24.1","","101.65","","","","","","NA"
"2018-02-22 18:00","2018","02","22","18:00","-0.2","","-6.9","","61","","8","","14","","24.1","","101.59","","","","-4","","NA"
"2018-02-22 19:00","2018","02","22","19:00","-0.8","","-6.7","","64","","10","","12","","24.1","","101.69","","","","-5","","Clear"
"2018-02-22 20:00","2018","02","22","20:00","-1.1","","-6.4","","67","","8","","10","","24.1","","101.64","","","","-5","","NA"
"2018-02-22 21:00","2018","02","22","21:00","-1.1","","-5.9","","70","","9","","9","","24.1","","101.66","","","","-4","","NA"
"2018-02-22 22:00","2018","02","22","22:00","-0.9","","-5.5","","71","","9","","10","","24.1","","101.66","","","","-4","","Mostly Cloudy"
"2018-02-22 23:00","2018","02","22","23:00","-0.8","","-5.6","","70","","9","","21","","24.1","","101.57","","","","-6","","NA"
"2018-02-23 00:00","2018","02","23","00:00","-0.6","","-5.3","","70","","10","","19","","24.1","","101.53","","","","-6","","NA"
"2018-02-23 01:00","2018","02","23","01:00","-0.7","","-5.0","","73","","9","","15","","24.1","","101.47","","","","-5","","Cloudy"
"2018-02-23 02:00","2018","02","23","02:00","-1.0","","-5.0","","75","","9","","12","","24.1","","101.39","","","","-5","","NA"
"2018-02-23 03:00","2018","02","23","03:00","-1.0","","-4.6","","76","","9","","17","","24.1","","101.25","","","","-6","","NA"
"2018-02-23 04:00","2018","02","23","04:00","-0.7","","-3.8","","79","","10","","18","","24.1","","101.12","","","","-6","","Cloudy"
"2018-02-23 05:00","2018","02","23","05:00","-0.6","","-3.4","","81","","10","","19","","16.1","","100.97","","","","-6","","NA"
"2018-02-23 06:00","2018","02","23","06:00","0.0","","-2.2","","85","","10","","18","","16.1","","100.86","","","","-5","","NA"
"2018-02-23 07:00","2018","02","23","07:00","0.4","","-1.4","","87","","10","","19","","12.9","","100.75","","","","","","Cloudy"
"2018-02-23 08:00","2018","02","23","08:00","0.9","","-0.8","","88","","10","","18","","6.4","","100.57","","","","","","Fog"
"2018-02-23 09:00","2018","02","23","09:00","1.1","","-0.4","","90","","12","","16","","4.0","","100.36","","","","","","Drizzle,Fog"
"2018-02-23 10:00","2018","02","23","10:00","1.4","","0.0","","90","","10","","15","","9.7","","100.27","","","","","","Drizzle,Fog"
"2018-02-23 11:00","2018","02","23","11:00","2.2","","0.8","","90","","12","","14","","9.7","","100.06","","","","","","Rain,Fog"
"2018-02-23 12:00","2018","02","23","12:00","2.6","","1.2","","90","","13","","11","","4.8","","99.93","","","","","","Rain,Fog"
"2018-02-23 13:00","2018","02","23","13:00","2.6","","1.3","","91","","11","","5","","6.4","","99.80","","","","","","Rain,Fog"
"2018-02-23 14:00","2018","02","23","14:00","3.0","","1.8","","92","","0","","1","","2.0","","99.69","","","","","","Rain,Fog"
"2018-02-23 15:00","2018","02","23","15:00","3.4","","2.4","","93","","16","","6","","2.8","","99.60","","","","","","Rain,Fog"
"2018-02-23 16:00","2018","02","23","16:00","3.7","","2.7","","93","","21","","8","","1.6","","99.56","","","","","","Drizzle,Fog"
"2018-02-23 17:00","2018","02","23","17:00","4.1","","3.2","","94","","20","","4","","6.4","","99.62","","","","","","Fog"
"2018-02-23 18:00","2018","02","23","18:00","4.8","","3.9","","94","","21","","10","","9.7","","99.62","","","","","","Fog"
"2018-02-23 19:00","2018","02","23","19:00","6.1","","5.2","","94","","26","","17","","24.1","","99.71","","","","","","Cloudy"
"2018-02-23 20:00","2018","02","23","20:00","5.9","","4.8","","93","","27","","20","","16.1","","99.77","","","","","","NA"
"2018-02-23 21:00","2018","02","23","21:00","5.9","","4.7","","92","","28","","24","","24.1","","99.84","","","","","","NA"
"2018-02-23 22:00","2018","02","23","22:00","5.7","","4.1","","90","","28","","14","","24.1","","99.87","","","","","","Cloudy"
"2018-02-23 23:00","2018","02","23","23:00","5.6","","3.8","","88","","28","","16","","24.1","","99.91","","","","","","Drizzle"
"2018-02-24 00:00","2018","02","24","00:00","5.4","","3.1","","85","","29","","36","","24.1","","99.96","","","","","","NA"
"2018-02-24 01:00","2018","02","24","01:00","4.8","","1.6","","80","","29","","23","","24.1","","100.01","","","","","","Cloudy"
"2018-02-24 02:00","2018","02","24","02:00","4.0","","0.5","","78","","31","","22","","24.1","","100.10","","","","","","NA"
"2018-02-24 03:00","2018","02","24","03:00","2.8","","-0.9","","77","","28","","14","","24.1","","100.14","","","","","","NA"
"2018-02-24 04:00","2018","02","24","04:00","2.4","","-0.6","","80","","26","","13","","24.1","","100.14","","","","","","Cloudy"
"2018-02-24 05:00","2018","02","24","05:00","2.4","","-0.6","","81","","27","","14","","24.1","","100.16","","","","","","NA"
"2018-02-24 06:00","2018","02","24","06:00","2.6","","-0.6","","79","","30","","17","","24.1","","100.23","","","","","","NA"
"2018-02-24 07:00","2018","02","24","07:00","2.6","","-1.7","","73","","31","","16","","24.1","","100.25","","","","","","Mostly Cloudy"
"2018-02-24 08:00","2018","02","24","08:00","1.9","","-2.4","","73","","3","","14","","24.1","","100.30","","","","","","NA"
"2018-02-24 09:00","2018","02","24","09:00","1.0","","-2.8","","75","","36","","18","","24.1","","100.35","","","","","","NA"
"2018-02-24 10:00","2018","02","24","10:00","1.5","","-3.0","","72","","1","","17","","24.1","","100.39","","","","","","Mostly Cloudy"
"2018-02-24 11:00","2018","02","24","11:00","2.0","","-3.0","","70","","36","","15","","24.1","","100.35","","","","","","NA"
"2018-02-24 12:00","2018","02","24","12:00","2.3","","-3.3","","66","","35","","13","","24.1","","100.35","","","","","","NA"
"2018-02-24 13:00","2018","02","24","13:00","2.6","","-3.9","","62","","36","","9","","24.1","","100.25","","","","","","Mostly Cloudy"
"2018-02-24 14:00","2018","02","24","14:00","3.0","","-4.0","","60","","5","","9","","24.1","","100.20","","","","","","NA"
"2018-02-24 15:00","2018","02","24","15:00","3.6","","-3.6","","59","","7","","7","","24.1","","100.16","","","","","","NA"
"2018-02-24 16:00","2018","02","24","16:00","4.0","","-3.6","","58","","9","","7","","24.1","","100.08","","","","","","Mostly Cloudy"
"2018-02-24 17:00","2018","02","24","17:00","2.9","","-3.9","","61","","14","","10","","24.1","","100.08","","","","","","NA"
"2018-02-24 18:00","2018","02","24","18:00","2.0","","-3.7","","66","","14","","8","","24.1","","100.07","","","","","","NA"
"2018-02-24 19:00","2018","02","24","19:00","1.5","","-3.4","","70","","12","","13","","24.1","","100.15","","","","","","Mainly Clear"
"2018-02-24 20:00","2018","02","24","20:00","1.2","","-3.7","","70","","10","","13","","24.1","","100.06","","","","","","NA"
"2018-02-24 21:00","2018","02","24","21:00","1.2","","-3.6","","70","","11","","14","","24.1","","99.95","","","","","","NA"
"2018-02-24 22:00","2018","02","24","22:00","1.7","","-3.7","","68","","10","","18","","24.1","","99.83","","","","","","Cloudy"
"2018-02-24 23:00","2018","02","24","23:00","2.0","","-4.0","","65","","10","","16","","24.1","","99.74","","","","","","NA"
"2018-02-25 00:00","2018","02","25","00:00","2.2","","-3.2","","67","","10","","26","","24.1","","99.70","","","","","","NA"
"2018-02-25 01:00","2018","02","25","01:00","1.4","","-3.1","","72","","9","","25","","24.1","","99.45","","","","","","Rain"
"2018-02-25 02:00","2018","02","25","02:00","1.1","","-2.2","","79","","10","","29","","24.1","","99.25","","","","","","Rain"
"2018-02-25 03:00","2018","02","25","03:00","1.1","","-1.2","","85","","9","","44","","9.7","","98.78","","","","","","Rain"
"2018-02-25 04:00","2018","02","25","04:00","1.3","","-0.5","","88","","10","","29","","9.7","","98.63","","","","","","Rain"
"2018-02-25 05:00","2018","02","25","05:00","1.8","","0.3","","90","","9","","35","","9.7","","98.45","","","","","","Rain"
"2018-02-25 06:00","2018","02","25","06:00","1.9","","0.6","","91","","9","","26","","8.1","","98.24","","","","","","Rain"
"2018-02-25 07:00","2018","02","25","07:00","2.3","","1.1","","92","","11","","20","","6.4","","98.12","","","","","","Rain,Fog"
"2018-02-25 08:00","2018","02","25","08:00","3.0","","1.9","","93","","14","","17","","2.0","","98.05","","","","","","Rain,Fog"
"2018-02-25 09:00","2018","02","25","09:00","4.2","","3.2","","94","","19","","10","","9.7","","98.07","","","","","","Drizzle,Fog"
"2018-02-25 10:00","2018","02","25","10:00","7.0","","6.2","","95","","23","","20","","12.9","","98.19","","","","","","Mostly Cloudy"
"2018-02-25 11:00","2018","02","25","11:00","10.9","","9.2","","89","","25","","39","","24.1","","98.26","","","","","","NA"
"2018-02-25 12:00","2018","02","25","12:00","11.3","","5.2","","66","","25","","40","","24.1","","98.38","","","","","","NA"
"2018-02-25 13:00","2018","02","25","13:00","11.5","","2.4","","54","","24","","40","","24.1","","98.44","","","","","","Mainly Clear"
"2018-02-25 14:00","2018","02","25","14:00","11.4","","1.7","","51","","25","","32","","24.1","","98.54","","","","","","NA"
"2018-02-25 15:00","2018","02","25","15:00","10.4","","-0.5","","47","","25","","36","","24.1","","98.64","","","","","","NA"
"2018-02-25 16:00","2018","02","25","16:00","9.7","","-0.4","","50","","25","","37","","24.1","","98.69","","","","","","Mainly Clear"
"2018-02-25 17:00","2018","02","25","17:00","8.1","","-2.3","","48","","25","","34","","24.1","","98.80","","","","","","NA"
"2018-02-25 18:00","2018","02","25","18:00","6.1","","-2.7","","53","","25","","27","","24.1","","98.91","","","","","","NA"
"2018-02-25 19:00","2018","02","25","19:00","5.0","","-2.5","","58","","24","","23","","24.1","","99.10","","","","","","Mainly Clear"
"2018-02-25 20:00","2018","02","25","20:00","4.4","","-2.5","","61","","24","","21","","24.1","","99.16","","","","","","NA"
"2018-02-25 21:00","2018","02","25","21:00","3.7","","-2.7","","63","","24","","26","","24.1","","99.21","","","","","","NA"
"2018-02-25 22:00","2018","02","25","22:00","3.0","","-3.0","","65","","25","","26","","24.1","","99.32","","","","","","Clear"
"2018-02-25 23:00","2018","02","25","23:00","2.7","","-2.8","","67","","26","","26","","24.1","","99.39","","","","","","NA"
"2018-02-26 00:00","2018","02","26","00:00","2.7","","-4.4","","60","","26","","31","","24.1","","99.42","","","","","","NA"
"2018-02-26 01:00","2018","02","26","01:00","2.2","","-5.8","","56","","25","","26","","24.1","","99.46","","","","","","Mainly Clear"
"2018-02-26 02:00","2018","02","26","02:00","1.8","","-5.3","","59","","25","","22","","24.1","","99.53","","","","","","NA"
"2018-02-26 03:00","2018","02","26","03:00","0.7","","-5.6","","63","","22","","15","","24.1","","99.52","","","","","","NA"
"2018-02-26 04:00","2018","02","26","04:00","0.3","","-4.7","","69","","23","","17","","24.1","","99.58","","","","","","Mostly Cloudy"
"2018-02-26 05:00","2018","02","26","05:00","0.0","","-4.5","","72","","24","","18","","24.1","","99.65","","","","-5","","NA"
"2018-02-26 06:00","2018","02","26","06:00","0.0","","-4.2","","74","","24","","17","","24.1","","99.70","","","","-5","","NA"
"2018-02-26 07:00","2018","02","26","07:00","-0.2","","-4.1","","75","","26","","4","","24.1","","99.80","","","","-1","","Mainly Clear"
"2018-02-26 08:00","2018","02","26","08:00","1.4","","-3.2","","72","","30","","7","","24.1","","99.90","","","","","","NA"
"2018-02-26 09:00","2018","02","26","09:00","2.9","","-3.1","","65","","28","","19","","24.1","","100.00","","","","","","NA"
"2018-02-26 10:00","2018","02","26","10:00","3.7","","-3.6","","59","","27","","28","","24.1","","100.03","","","","","","Mostly Cloudy"
"2018-02-26 11:00","2018","02","26","11:00","5.0","","-3.5","","54","","26","","22","","24.1","","100.08","","","","","","NA"
"2018-02-26 12:00","2018","02","26","12:00","5.8","","-3.7","","50","","28","","28","","24.1","","100.11","","","","","","NA"
"2018-02-26 13:00","2018","02","26","13:00","6.4","","-3.4","","50","","26","","25","","24.1","","100.09","","","","","","Mostly Cloudy"
"2018-02-26 14:00","2018","02","26","14:00","7.0","","-3.7","","47","","27","","27","","24.1","","100.09","","","","","","NA"
"2018-02-26 15:00","2018","02","26","15:00","7.0","","-4.5","","44","","27","","35","","24.1","","100.10","","","","","","NA"
"2018-02-26 16:00","2018","02","26","16:00","7.0","","-5.2","","42","","28","","29","","24.1","","100.11","","","","","","Mainly Clear"
"2018-02-26 17:00","2018","02","26","17:00","6.2","","-6.3","","40","","26","","30","","24.1","","100.16","","","","","","NA"
"2018-02-26 18:00","2018","02","26","18:00","4.6","","-5.7","","47","","28","","24","","24.1","","100.22","","","","","","NA"
"2018-02-26 19:00","2018","02","26","19:00","3.4","","-5.7","","51","","27","","14","","24.1","","100.29","","","","","","Clear"
"2018-02-26 20:00","2018","02","26","20:00","1.8","","-6.8","","53","","28","","11","","24.1","","100.31","","","","","","NA"
"2018-02-26 21:00","2018","02","26","21:00","2.2","","-6.4","","53","","26","","6","","24.1","","100.35","","","","","","NA"
"2018-02-26 22:00","2018","02","26","22:00","2.0","","-6.0","","55","","22","","7","","24.1","","100.37","","","","","","Clear"
"2018-02-26 23:00","2018","02","26","23:00","2.1","","-5.7","","56","","24","","5","","24.1","","100.38","","","","","","NA"
"2018-02-27 00:00","2018","02","27","00:00","-0.2","","-6.3","","63","","24","","12","","24.1","","100.38","","","","-4","","NA"
"2018-02-27 01:00","2018","02","27","01:00","-1.0","","-6.4","","67","","25","","12","","24.1","","100.40","","","","-5","","Clear"
"2018-02-27 02:00","2018","02","27","02:00","-0.7","","-5.6","","69","","25","","9","","24.1","","100.41","","","","-4","","NA"
"2018-02-27 03:00","2018","02","27","03:00","-0.3","","-5.2","","69","","23","","9","","24.1","","100.37","","","","-3","","NA"
"2018-02-27 04:00","2018","02","27","04:00","-0.3","","-4.7","","72","","36","","1","","24.1","","100.37","","","","-1","","Clear"
"2018-02-27 05:00","2018","02","27","05:00","0.0","","-4.4","","72","","26","","5","","24.1","","100.38","","","","-2","","NA"
"2018-02-27 06:00","2018","02","27","06:00","0.0","","-4.3","","73","","24","","6","","24.1","","100.37","","","","-2","","NA"
"2018-02-27 07:00","2018","02","27","07:00","-0.2","","-4.1","","75","","26","","9","","24.1","","100.41","","","","-3","","Mostly Cloudy"
"2018-02-27 08:00","2018","02","27","08:00","2.3","","-2.3","","72","","23","","7","","24.1","","100.41","","","","","","NA"
"2018-02-27 09:00","2018","02","27","09:00","4.7","","-0.8","","68","","24","","22","","24.1","","100.39","","","","","","NA"
"2018-02-27 10:00","2018","02","27","10:00","7.6","","-0.5","","56","","24","","22","","24.1","","100.37","","","","","","Mainly Clear"
"2018-02-27 11:00","2018","02","27","11:00","9.9","","-0.1","","50","","26","","27","","24.1","","100.32","","","","","","NA"
"2018-02-27 12:00","2018","02","27","12:00","11.7","","-0.3","","43","","24","","31","","24.1","","100.25","","","","","","NA"
"2018-02-27 13:00","2018","02","27","13:00","13.2","","0.2","","41","","24","","31","","24.1","","100.11","","","","","","Mainly Clear"
"2018-02-27 14:00","2018","02","27","14:00","13.1","","-3.6","","31","","22","","39","","24.1","","99.99","","","","","","NA"
"2018-02-27 15:00","2018","02","27","15:00","12.9","","-5.4","","27","","23","","42","","24.1","","99.90","","","","","","NA"
"2018-02-27 16:00","2018","02","27","16:00","12.7","","-4.1","","31","","23","","35","","24.1","","99.81","","","","","","Mostly Cloudy"
"2018-02-27 17:00","2018","02","27","17:00","11.2","","-3.6","","35","","22","","28","","24.1","","99.80","","","","","","NA"
"2018-02-27 18:00","2018","02","27","18:00","10.1","","-3.7","","38","","22","","27","","24.1","","99.78","","","","","","NA"
"2018-02-27 19:00","2018","02","27","19:00","9.3","","-3.3","","41","","22","","23","","24.1","","99.78","","","","","","Mostly Cloudy"
"2018-02-27 20:00","2018","02","27","20:00","8.4","","-2.7","","45","","22","","25","","24.1","","99.70","","","","","","NA"
"2018-02-27 21:00","2018","02","27","21:00","7.9","","-2.5","","48","","23","","29","","24.1","","99.62","","","","","","NA"
"2018-02-27 22:00","2018","02","27","22:00","7.4","","-2.6","","49","","23","","17","","24.1","","99.58","","","","","","Mostly Cloudy"
"2018-02-27 23:00","2018","02","27","23:00","7.4","","-2.2","","51","","24","","22","","24.1","","99.57","","","","","","NA"
"2018-02-28 00:00","2018","02","28","00:00","7.4","","-2.5","","50","","24","","17","","24.1","","99.56","","","","","","NA"
"2018-02-28 01:00","2018","02","28","01:00","6.7","","-2.7","","51","","24","","13","","24.1","","99.53","","","","","","Mostly Cloudy"
"2018-02-28 02:00","2018","02","28","02:00","6.6","","-2.2","","53","","21","","13","","24.1","","99.50","","","","","","NA"
"2018-02-28 03:00","2018","02","28","03:00","6.2","","-2.7","","53","","21","","11","","24.1","","99.42","","","","","","NA"
"2018-02-28 04:00","2018","02","28","04:00","4.9","","-3.5","","54","","23","","8","","24.1","","99.35","","","","","","Mainly Clear"
"2018-02-28 05:00","2018","02","28","05:00","5.3","","-3.4","","53","","21","","7","","24.1","","99.27","","","","","","NA"
"2018-02-28 06:00","2018","02","28","06:00","5.3","","-3.4","","53","","11","","5","","24.1","","99.19","","","","","","NA"
"2018-02-28 07:00","2018","02","28","07:00","5.4","","-3.3","","54","","20","","10","","24.1","","99.12","","","","","","Mostly Cloudy"
"2018-02-28 08:00","2018","02","28","08:00","5.5","","-3.2","","53","","17","","5","","24.1","","99.09","","","","","","NA"
"2018-02-28 09:00","2018","02","28","09:00","6.7","","-2.8","","51","","16","","6","","24.1","","99.01","","","","","","NA"
"2018-02-28 10:00","2018","02","28","10:00","8.2","","-2.9","","45","","15","","5","","24.1","","98.95","","","","","","Mostly Cloudy"
"2018-02-28 11:00","2018","02","28","11:00","12.9","","-0.5","","40","","21","","24","","24.1","","98.86","","","","","","NA"
"2018-02-28 12:00","2018","02","28","12:00","11.4","","-0.9","","42","","14","","13","","24.1","","98.77","","","","","","NA"
"2018-02-28 13:00","2018","02","28","13:00","15.7","","1.8","","39","","23","","22","","24.1","","98.65","","","","","","Mostly Cloudy"
"2018-02-28 14:00","2018","02","28","14:00","15.5","","2.0","","40","","23","","28","","24.1","","98.60","","","","","","NA"
"2018-02-28 15:00","2018","02","28","15:00","16.2","","3.4","","42","","23","","22","","24.1","","98.58","","","","","","NA"
"2018-02-28 16:00","2018","02","28","16:00","15.0","","3.6","","46","","26","","24","","24.1","","98.60","","","","","","Mostly Cloudy"
"2018-02-28 17:00","2018","02","28","17:00","13.5","","3.3","","50","","30","","31","","24.1","","98.67","","","","","","NA"
"2018-02-28 18:00","2018","02","28","18:00","12.1","","2.6","","52","","31","","27","","24.1","","98.80","","","","","","NA"
"2018-02-28 19:00","2018","02","28","19:00","6.1","","-0.4","","63","","36","","30","","24.1","","98.93","","","","","","Mainly Clear"
"2018-02-28 20:00","2018","02","28","20:00","4.7","","-0.7","","68","","36","","23","","24.1","","99.00","","","","","","NA"
"2018-02-28 21:00","2018","02","28","21:00","2.4","","-1.4","","76","","34","","30","","24.1","","99.09","","","","","","NA"
"2018-02-28 22:00","2018","02","28","22:00","2.1","","-0.6","","82","","35","","34","","16.1","","99.12","","","","","","Cloudy"
"2018-02-28 23:00","2018","02","28","23:00","2.1","","-0.3","","84","","36","","25","","24.1","","99.20","","","","","","NA"
