"Station Name","TORONTO LESTER B. PEARSON INT'L A"
"Province","ONTARIO"
"Latitude","43.68"
"Longitude","-79.63"
"Elevation","173.40"
"Climate Identifier","6158733"
"WMO Identifier","71624"
"TC Identifier","YYZ"
"All times are specified in Local Standard Time (LST). Add 1 hour to adjust for Daylight Saving Time where and when it is observed."

"Legend"
"E","Estimated"
"M","Missing"
"NA","Not Available"

"Date/Time","Year","Month","Day","Time","Temp (°C)","Temp Flag","Dew Point Temp (°C)","Dew Point Temp Flag","Rel Hum (%)","Rel Hum Flag","Wind Dir (10s deg)","Wind Dir Flag","Wind Spd (km/h)","Wind Spd Flag","Visibility (km)","Visibility Flag","Stn Press (kPa)","Stn Press Flag","Hmdx","Hmdx Flag","Wind Chill","Wind Chill Flag","Weather"
"1962-05-01 00:00","1962","05","01","00:00","10.6","","10.0","","96","","11","","26","","0.8","","99.00","","","","","","Rain Showers,Fog"
"1962-05-01 01:00","1962","05","01","01:00","9.4","","8.9","","98","","9","","26","","0.4","","98.85","","","","","","Rain Showers,Fog"
"1962-05-01 02:00","1962","05","01","02:00","10.0","","9.4","","98","","9","","24","","1.2","","98.82","","","","","","Fog"
"1962-05-01 03:00","1962","05","01","03:00","10.0","","9.4","","98","","9","","23","","1.2","","98.88","","","","","","Fog"
"1962-05-01 04:00","1962","05","01","04:00","9.4","","8.9","","98","","9","","19","","1.6","","98.85","","","","","","Fog"
"1962-05-01 05:00","1962","05","01","05:00","9.4","","8.9","","98","","9","","16","","0.8","","98.86","","","","","","Fog"
"1962-05-01 06:00","1962","05","01","06:00","9.4","","9.4","","100","","14","","11","","0.2","","98.94","","","","","","Drizzle,Fog"
"1962-05-01 07:00","1962","05","01","07:00","10.0","","10.0","","100","","9","","10","","0.4","","98.95","","","","","","Drizzle,Fog"
"1962-05-01 08:00","1962","05","01","08:00","9.4","","9.4","","100","","16","","6","","0.0","","98.99","","","","","","Drizzle,Fog"
"1962-05-01 09:00","1962","05","01","09:00","9.4","","8.9","","98","","","","0","","0.4","","98.96","","","","","","Fog"
"1962-05-01 10:00","1962","05","01","10:00","10.6","","10.0","","96","","9","","8","","1.2","","98.91","","","","","","Fog"
"1962-05-01 11:00","1962","05","01","11:00","12.2","","11.1","","93","","16","","11","","1.6","","98.92","","","","","","Fog"
"1962-05-01 12:00","1962","05","01","12:00","12.8","","10.6","","86","","9","","6","","3.2","","98.81","","","","","","Fog"
"1962-05-01 13:00","1962","05","01","13:00","14.4","","11.7","","85","","14","","6","","3.2","","98.69","","","","","","Haze"
"1962-05-01 14:00","1962","05","01","14:00","16.1","","12.2","","79","","11","","6","","4.8","","98.66","","","","","","Haze"
"1962-05-01 15:00","1962","05","01","15:00","16.7","","13.3","","81","","14","","6","","4.8","","98.58","","","","","","Haze"
"1962-05-01 16:00","1962","05","01","16:00","17.2","","13.9","","79","","16","","13","","3.2","","98.60","","","","","","Haze"
"1962-05-01 17:00","1962","05","01","17:00","11.1","","8.9","","85","","25","","11","","3.2","","98.65","","","","","","Rain Showers,Haze"
"1962-05-01 18:00","1962","05","01","18:00","12.2","","11.1","","93","","","","0","","3.2","","98.58","","","","","","Rain Showers,Fog"
"1962-05-01 19:00","1962","05","01","19:00","11.7","","10.6","","94","","","","0","","1.2","","98.56","","","","","","Rain Showers,Fog"
"1962-05-01 20:00","1962","05","01","20:00","11.1","","10.6","","96","","","","0","","1.2","","98.54","","","","","","Fog"
"1962-05-01 21:00","1962","05","01","21:00","12.2","","11.7","","96","","25","","6","","1.2","","98.58","","","","","","Fog"
"1962-05-01 22:00","1962","05","01","22:00","12.2","","11.7","","98","","18","","8","","0.6","","98.57","","","","","","Fog"
"1962-05-01 23:00","1962","05","01","23:00","11.7","","11.7","","100","","14","","10","","0.0","","98.60","","","","","","Fog"
"1962-05-02 00:00","1962","05","02","00:00","11.1","","11.1","","100","","9","","3","","0.0","","98.55","","","","","","Fog"
"1962-05-02 01:00","1962","05","02","01:00","11.7","","11.7","","100","","5","","3","","0.4","","98.55","","","","","","Fog"
"1962-05-02 02:00","1962","05","02","02:00","11.7","","11.7","","100","","","","0","","0.4","","98.52","","","","","","Fog"
"1962-05-02 03:00","1962","05","02","03:00","11.7","","11.7","","100","","18","","6","","0.0","","98.50","","","","","","Fog"
"1962-05-02 04:00","1962","05","02","04:00","12.2","","12.2","","100","","20","","8","","0.2","","98.52","","","","","","Fog"
"1962-05-02 05:00","1962","05","02","05:00","13.3","","13.3","","98","","27","","8","","3.2","","98.53","","","","","","Fog"
"1962-05-02 06:00","1962","05","02","06:00","13.3","","12.2","","95","","27","","8","","8.0","","98.57","","","","","","Fog"
"1962-05-02 07:00","1962","05","02","07:00","13.9","","13.3","","95","","","","0","","6.4","","98.59","","","","","","Fog"
"1962-05-02 08:00","1962","05","02","08:00","15.0","","13.3","","88","","27","","5","","16.1","","98.61","","","","","","Mainly Clear"
"1962-05-02 09:00","1962","05","02","09:00","16.7","","13.9","","83","","20","","6","","19.3","","98.63","","","","","","Mostly Cloudy"
"1962-05-02 10:00","1962","05","02","10:00","17.8","","14.4","","80","","18","","8","","12.9","","98.63","","","","","","Mostly Cloudy"
"1962-05-02 11:00","1962","05","02","11:00","17.2","","13.9","","79","","16","","11","","4.8","","98.63","","","","","","Haze"
"1962-05-02 12:00","1962","05","02","12:00","16.1","","13.3","","83","","16","","8","","6.4","","98.60","","","","","","Rain Showers,Haze"
"1962-05-02 13:00","1962","05","02","13:00","15.6","","14.4","","92","","14","","6","","4.0","","98.58","","","","","","Rain Showers,Fog"
"1962-05-02 14:00","1962","05","02","14:00","16.7","","15.0","","89","","11","","11","","3.2","","98.54","","","","","","Fog"
"1962-05-02 15:00","1962","05","02","15:00","16.1","","13.9","","87","","23","","18","","4.0","","98.55","","","","","","Rain Showers,Fog"
"1962-05-02 16:00","1962","05","02","16:00","11.7","","11.1","","96","","14","","16","","1.2","","98.57","","","","","","Fog"
"1962-05-02 17:00","1962","05","02","17:00","13.9","","13.3","","95","","14","","16","","2.0","","98.55","","","","","","Fog"
"1962-05-02 18:00","1962","05","02","18:00","14.4","","12.8","","90","","16","","21","","2.4","","98.58","","","","","","Fog"
"1962-05-02 19:00","1962","05","02","19:00","13.3","","11.7","","89","","20","","11","","9.7","","98.64","","","","","","Fog"
"1962-05-02 20:00","1962","05","02","20:00","11.7","","7.8","","76","","23","","29","","24.1","","98.70","","","","","","Mainly Clear"
"1962-05-02 21:00","1962","05","02","21:00","11.1","","6.1","","72","","23","","27","","25.0","","98.76","","","","","","Mostly Cloudy"
"1962-05-02 22:00","1962","05","02","22:00","10.6","","5.6","","70","","20","","26","","25.0","","98.70","","","","","","Cloudy"
"1962-05-02 23:00","1962","05","02","23:00","10.0","","5.0","","71","","20","","24","","25.0","","98.64","","","","","","Mostly Cloudy"
"1962-05-03 00:00","1962","05","03","00:00","10.0","","5.6","","75","","18","","26","","25.0","","98.59","","","","","","Cloudy"
"1962-05-03 01:00","1962","05","03","01:00","9.4","","5.6","","76","","20","","24","","25.0","","98.55","","","","","","Cloudy"
"1962-05-03 02:00","1962","05","03","02:00","9.4","","6.1","","78","","20","","23","","25.0","","98.50","","","","","","Cloudy"
"1962-05-03 03:00","1962","05","03","03:00","8.9","","5.6","","80","","18","","24","","25.0","","98.46","","","","","","Cloudy"
"1962-05-03 04:00","1962","05","03","04:00","8.9","","6.1","","84","","20","","23","","24.1","","98.44","","","","","","Cloudy"
"1962-05-03 05:00","1962","05","03","05:00","8.9","","6.1","","84","","20","","27","","19.3","","98.43","","","","","","Cloudy"
"1962-05-03 06:00","1962","05","03","06:00","8.9","","6.7","","86","","20","","23","","16.1","","98.44","","","","","","Cloudy"
"1962-05-03 07:00","1962","05","03","07:00","9.4","","6.7","","82","","23","","23","","19.3","","98.45","","","","","","Cloudy"
"1962-05-03 08:00","1962","05","03","08:00","10.0","","5.6","","75","","23","","24","","25.0","","98.50","","","","","","Mostly Cloudy"
"1962-05-03 09:00","1962","05","03","09:00","10.6","","5.6","","72","","25","","27","","25.0","","98.52","","","","","","Cloudy"
"1962-05-03 10:00","1962","05","03","10:00","10.0","","5.6","","73","","25","","32","","25.0","","98.57","","","","","","Mostly Cloudy"
"1962-05-03 11:00","1962","05","03","11:00","10.6","","5.0","","68","","25","","39","","25.0","","98.63","","","","","","Cloudy"
"1962-05-03 12:00","1962","05","03","12:00","10.6","","5.0","","68","","25","","40","","25.0","","98.66","","","","","","Cloudy"
"1962-05-03 13:00","1962","05","03","13:00","11.1","","5.0","","65","","25","","35","","25.0","","98.68","","","","","","Cloudy"
"1962-05-03 14:00","1962","05","03","14:00","10.0","","4.4","","68","","25","","32","","25.0","","98.75","","","","","","Cloudy"
"1962-05-03 15:00","1962","05","03","15:00","10.0","","5.0","","71","","27","","32","","25.0","","98.74","","","","","","Cloudy"
"1962-05-03 16:00","1962","05","03","16:00","10.0","","4.4","","68","","27","","32","","25.0","","98.75","","","","","","Cloudy"
"1962-05-03 17:00","1962","05","03","17:00","8.9","","3.9","","70","","27","","29","","25.0","","98.82","","","","","","Mostly Cloudy"
"1962-05-03 18:00","1962","05","03","18:00","8.3","","3.9","","73","","27","","29","","25.0","","98.86","","","","","","Rain Showers"
"1962-05-03 19:00","1962","05","03","19:00","8.3","","3.9","","73","","27","","29","","25.0","","98.92","","","","","","Rain Showers"
"1962-05-03 20:00","1962","05","03","20:00","8.3","","3.9","","73","","29","","24","","25.0","","98.99","","","","","","Rain Showers"
"1962-05-03 21:00","1962","05","03","21:00","8.3","","3.9","","73","","29","","23","","25.0","","99.05","","","","","","Rain Showers"
"1962-05-03 22:00","1962","05","03","22:00","8.3","","3.9","","73","","32","","27","","25.0","","99.06","","","","","","Cloudy"
"1962-05-03 23:00","1962","05","03","23:00","7.8","","3.3","","75","","29","","21","","25.0","","99.09","","","","","","Mostly Cloudy"
"1962-05-04 00:00","1962","05","04","00:00","7.8","","3.9","","77","","29","","19","","25.0","","99.13","","","","","","Mostly Cloudy"
"1962-05-04 01:00","1962","05","04","01:00","6.7","","4.4","","87","","27","","16","","25.0","","99.15","","","","","","Mainly Clear"
"1962-05-04 02:00","1962","05","04","02:00","5.6","","2.8","","84","","27","","13","","25.0","","99.19","","","","","","Mainly Clear"
"1962-05-04 03:00","1962","05","04","03:00","5.0","","2.8","","86","","27","","11","","25.0","","99.23","","","","","","Clear"
"1962-05-04 04:00","1962","05","04","04:00","5.0","","2.2","","83","","32","","16","","25.0","","99.25","","","","","","Mainly Clear"
"1962-05-04 05:00","1962","05","04","05:00","5.0","","2.2","","83","","25","","6","","25.0","","99.35","","","","","","Mainly Clear"
"1962-05-04 06:00","1962","05","04","06:00","5.6","","2.8","","84","","27","","16","","25.0","","99.39","","","","","","Mainly Clear"
"1962-05-04 07:00","1962","05","04","07:00","7.2","","2.8","","74","","27","","24","","25.0","","99.43","","","","","","Mainly Clear"
"1962-05-04 08:00","1962","05","04","08:00","10.6","","2.8","","59","","29","","26","","25.0","","99.48","","","","","","Mainly Clear"
"1962-05-04 09:00","1962","05","04","09:00","12.8","","2.2","","48","","29","","19","","25.0","","99.49","","","","","","Mainly Clear"
"1962-05-04 10:00","1962","05","04","10:00","15.6","","1.1","","37","","32","","23","","25.0","","99.52","","","","","","Clear"
"1962-05-04 11:00","1962","05","04","11:00","17.2","","-0.6","","30","","29","","29","","25.0","","99.51","","","","","","Clear"
"1962-05-04 12:00","1962","05","04","12:00","18.9","","-1.1","","25","","32","","29","","25.0","","99.47","","","","","","Clear"
"1962-05-04 13:00","1962","05","04","13:00","20.0","","0.0","","26","","32","","26","","25.0","","99.48","","","","","","Clear"
"1962-05-04 14:00","1962","05","04","14:00","21.7","","0.0","","24","","32","","32","","25.0","","99.47","","","","","","Clear"
"1962-05-04 15:00","1962","05","04","15:00","21.7","","0.0","","24","","29","","32","","25.0","","99.43","","","","","","Mainly Clear"
"1962-05-04 16:00","1962","05","04","16:00","21.7","","1.7","","27","","29","","29","","25.0","","99.46","","","","","","Clear"
"1962-05-04 17:00","1962","05","04","17:00","21.1","","1.1","","27","","29","","32","","25.0","","99.51","","","","","","Clear"
"1962-05-04 18:00","1962","05","04","18:00","21.1","","1.1","","27","","29","","27","","25.0","","99.53","","","","","","Clear"
"1962-05-04 19:00","1962","05","04","19:00","19.4","","2.2","","32","","29","","16","","25.0","","99.54","","","","","","Clear"
"1962-05-04 20:00","1962","05","04","20:00","15.6","","2.8","","43","","27","","11","","25.0","","99.57","","","","","","Clear"
"1962-05-04 21:00","1962","05","04","21:00","15.0","","2.2","","42","","27","","10","","25.0","","99.64","","","","","","Clear"
"1962-05-04 22:00","1962","05","04","22:00","13.3","","2.2","","47","","","","0","","25.0","","99.65","","","","","","Clear"
"1962-05-04 23:00","1962","05","04","23:00","11.7","","2.2","","53","","","","0","","25.0","","99.68","","","","","","Clear"
"1962-05-05 00:00","1962","05","05","00:00","10.0","","2.8","","60","","","","0","","25.0","","99.68","","","","","","Clear"
"1962-05-05 01:00","1962","05","05","01:00","9.4","","2.8","","63","","","","0","","25.0","","99.65","","","","","","Clear"
"1962-05-05 02:00","1962","05","05","02:00","7.2","","1.7","","68","","5","","5","","25.0","","99.62","","","","","","Clear"
"1962-05-05 03:00","1962","05","05","03:00","6.1","","1.7","","73","","","","0","","25.0","","99.59","","","","","","Clear"
"1962-05-05 04:00","1962","05","05","04:00","5.6","","1.7","","77","","7","","8","","24.1","","99.59","","","","","","Clear"
"1962-05-05 05:00","1962","05","05","05:00","6.1","","1.7","","73","","","","0","","16.1","","99.61","","","","","","Mainly Clear"
"1962-05-05 06:00","1962","05","05","06:00","6.7","","3.3","","78","","34","","5","","12.9","","99.67","","","","","","Mainly Clear"
"1962-05-05 07:00","1962","05","05","07:00","9.4","","3.3","","65","","36","","5","","16.1","","99.68","","","","","","Mainly Clear"
"1962-05-05 08:00","1962","05","05","08:00","11.7","","3.9","","59","","","","0","","16.1","","99.68","","","","","","Mainly Clear"
"1962-05-05 09:00","1962","05","05","09:00","16.1","","5.6","","50","","","","0","","16.1","","99.63","","","","","","Mainly Clear"
"1962-05-05 10:00","1962","05","05","10:00","20.0","","6.7","","42","","14","","3","","16.1","","99.61","","","","","","Mostly Cloudy"
"1962-05-05 11:00","1962","05","05","11:00","20.6","","7.8","","43","","16","","16","","12.9","","99.61","","","","","","Mostly Cloudy"
"1962-05-05 12:00","1962","05","05","12:00","18.3","","6.7","","46","","14","","24","","12.9","","99.55","","","","","","Mostly Cloudy"
"1962-05-05 13:00","1962","05","05","13:00","17.2","","5.0","","44","","14","","19","","6.4","","99.49","","","","","","Haze"
"1962-05-05 14:00","1962","05","05","14:00","17.2","","4.4","","43","","14","","16","","8.0","","99.48","","","","","","Haze"
"1962-05-05 15:00","1962","05","05","15:00","19.4","","5.0","","38","","16","","16","","9.7","","99.41","","","","","","Haze"
"1962-05-05 16:00","1962","05","05","16:00","19.4","","5.0","","38","","14","","16","","9.7","","99.32","","","","","","Haze"
"1962-05-05 17:00","1962","05","05","17:00","18.9","","5.0","","41","","14","","13","","12.9","","99.29","","","","","","Mostly Cloudy"
"1962-05-05 18:00","1962","05","05","18:00","17.2","","4.4","","43","","14","","13","","12.9","","99.26","","","","","","Mainly Clear"
"1962-05-05 19:00","1962","05","05","19:00","16.1","","5.6","","50","","18","","8","","9.7","","99.23","","","","","","Haze"
"1962-05-05 20:00","1962","05","05","20:00","11.7","","4.4","","61","","20","","16","","12.9","","99.22","","","","","","Mainly Clear"
"1962-05-05 21:00","1962","05","05","21:00","10.6","","3.9","","63","","","","0","","12.9","","99.14","","","","","","Mostly Cloudy"
"1962-05-05 22:00","1962","05","05","22:00","9.4","","3.3","","65","","","","0","","12.9","","99.13","","","","","","Mainly Clear"
"1962-05-05 23:00","1962","05","05","23:00","10.0","","3.9","","66","","29","","5","","12.9","","99.09","","","","","","Mainly Clear"
"1962-05-06 00:00","1962","05","06","00:00","10.0","","4.4","","68","","","","0","","12.9","","98.97","","","","","","Mostly Cloudy"
"1962-05-06 01:00","1962","05","06","01:00","10.0","","5.0","","71","","","","0","","11.3","","98.92","","","","","","Mostly Cloudy"
"1962-05-06 02:00","1962","05","06","02:00","10.0","","5.0","","71","","14","","5","","12.9","","98.81","","","","","","Cloudy"
"1962-05-06 03:00","1962","05","06","03:00","11.1","","6.1","","70","","","","0","","12.9","","98.79","","","","","","Cloudy"
"1962-05-06 04:00","1962","05","06","04:00","17.2","","12.2","","72","","27","","26","","19.3","","98.74","","","","","","Cloudy"
"1962-05-06 05:00","1962","05","06","05:00","17.2","","12.2","","74","","25","","26","","19.3","","98.69","","","","","","Cloudy"
"1962-05-06 06:00","1962","05","06","06:00","16.7","","12.2","","75","","23","","14","","19.3","","98.70","","","","","","Cloudy"
"1962-05-06 07:00","1962","05","06","07:00","16.7","","12.8","","79","","23","","10","","16.1","","98.77","","","","","","Rain Showers"
"1962-05-06 08:00","1962","05","06","08:00","17.2","","13.9","","81","","25","","13","","16.1","","98.73","","","","","","Cloudy"
"1962-05-06 09:00","1962","05","06","09:00","17.8","","13.3","","74","","27","","26","","19.3","","98.75","","","","","","Cloudy"
"1962-05-06 10:00","1962","05","06","10:00","17.8","","13.3","","76","","27","","26","","19.3","","98.76","","","","","","Cloudy"
"1962-05-06 11:00","1962","05","06","11:00","19.4","","12.8","","66","","27","","13","","24.1","","98.76","","","","","","Mostly Cloudy"
"1962-05-06 12:00","1962","05","06","12:00","21.7","","4.4","","32","","32","","32","","24.1","","98.76","","","","","","Cloudy"
"1962-05-06 13:00","1962","05","06","13:00","21.1","","2.2","","28","","29","","35","","24.1","","98.77","","","","","","Cloudy"
"1962-05-06 14:00","1962","05","06","14:00","21.1","","-2.8","","20","","29","","35","","24.1","","98.78","","","","","","Mostly Cloudy"
"1962-05-06 15:00","1962","05","06","15:00","20.6","","-2.2","","22","","27","","29","","24.1","","98.83","","","","","","Mainly Clear"
"1962-05-06 16:00","1962","05","06","16:00","17.2","","-2.2","","26","","29","","45","","24.1","","98.90","","","","","","Mainly Clear"
"1962-05-06 17:00","1962","05","06","17:00","15.6","","-3.3","","27","","29","","45","","25.0","","99.00","","","","","","Mainly Clear"
"1962-05-06 18:00","1962","05","06","18:00","14.4","","-2.8","","30","","29","","45","","25.0","","99.04","","","","","","Mainly Clear"
"1962-05-06 19:00","1962","05","06","19:00","13.9","","-3.3","","30","","27","","29","","25.0","","99.06","","","","","","Mostly Cloudy"
"1962-05-06 20:00","1962","05","06","20:00","10.0","","-3.9","","38","","29","","29","","25.0","","99.20","","","","","","Mainly Clear"
"1962-05-06 21:00","1962","05","06","21:00","8.3","","-3.3","","43","","29","","23","","25.0","","99.29","","","","","","Mainly Clear"
"1962-05-06 22:00","1962","05","06","22:00","6.1","","-2.8","","52","","29","","19","","25.0","","99.29","","","","","","Clear"
"1962-05-06 23:00","1962","05","06","23:00","6.1","","-0.6","","62","","29","","23","","25.0","","99.34","","","","","","Clear"
"1962-05-07 00:00","1962","05","07","00:00","5.6","","-0.6","","64","","29","","14","","25.0","","99.35","","","","","","Clear"
"1962-05-07 01:00","1962","05","07","01:00","5.6","","-0.6","","64","","29","","14","","25.0","","99.38","","","","","","Clear"
"1962-05-07 02:00","1962","05","07","02:00","3.9","","-1.1","","71","","29","","14","","25.0","","99.40","","","","","","Clear"
"1962-05-07 03:00","1962","05","07","03:00","4.4","","-1.7","","64","","32","","14","","25.0","","99.51","","","","","","Clear"
"1962-05-07 04:00","1962","05","07","04:00","3.9","","-2.2","","64","","32","","21","","25.0","","99.58","","","","","","Clear"
"1962-05-07 05:00","1962","05","07","05:00","2.8","","-2.8","","67","","34","","19","","25.0","","99.66","","","","","","Mainly Clear"
"1962-05-07 06:00","1962","05","07","06:00","3.3","","-1.7","","70","","34","","16","","25.0","","99.78","","","","","","Mostly Cloudy"
"1962-05-07 07:00","1962","05","07","07:00","3.3","","-2.2","","68","","36","","27","","25.0","","99.87","","","","","","Mainly Clear"
"1962-05-07 08:00","1962","05","07","08:00","3.9","","-4.4","","54","","36","","23","","25.0","","99.93","","","","","","Mostly Cloudy"
"1962-05-07 09:00","1962","05","07","09:00","4.4","","-4.4","","53","","34","","23","","25.0","","100.00","","","","","","Mostly Cloudy"
"1962-05-07 10:00","1962","05","07","10:00","6.1","","-3.9","","48","","34","","23","","25.0","","100.04","","","","","","Mostly Cloudy"
"1962-05-07 11:00","1962","05","07","11:00","7.2","","-4.4","","42","","32","","16","","25.0","","100.05","","","","","","Mainly Clear"
"1962-05-07 12:00","1962","05","07","12:00","8.9","","-5.0","","37","","32","","23","","25.0","","100.02","","","","","","Mainly Clear"
"1962-05-07 13:00","1962","05","07","13:00","9.4","","-4.4","","37","","34","","19","","25.0","","99.97","","","","","","Mainly Clear"
"1962-05-07 14:00","1962","05","07","14:00","11.1","","-5.0","","32","","34","","24","","25.0","","99.99","","","","","","Mainly Clear"
"1962-05-07 15:00","1962","05","07","15:00","11.7","","-4.4","","32","","2","","19","","25.0","","99.92","","","","","","Mainly Clear"
"1962-05-07 16:00","1962","05","07","16:00","11.1","","-5.6","","31","","36","","18","","25.0","","99.92","","","","","","Mostly Cloudy"
"1962-05-07 17:00","1962","05","07","17:00","10.0","","-6.1","","31","","36","","19","","25.0","","99.89","","","","","","Mostly Cloudy"
"1962-05-07 18:00","1962","05","07","18:00","9.4","","-6.1","","33","","36","","18","","25.0","","99.90","","","","","","Mostly Cloudy"
"1962-05-07 19:00","1962","05","07","19:00","8.3","","-6.7","","34","","36","","16","","25.0","","99.92","","","","","","Mostly Cloudy"
"1962-05-07 20:00","1962","05","07","20:00","6.7","","-10.6","","28","","36","","16","","25.0","","99.92","","","","","","Cloudy"
"1962-05-07 21:00","1962","05","07","21:00","5.6","","-11.7","","28","","36","","10","","25.0","","99.95","","","","","","Cloudy"
"1962-05-07 22:00","1962","05","07","22:00","4.4","","-8.3","","40","","36","","10","","25.0","","99.95","","","","","","Cloudy"
"1962-05-07 23:00","1962","05","07","23:00","3.9","","-7.8","","42","","36","","13","","25.0","","99.90","","","","","","Cloudy"
"1962-05-08 00:00","1962","05","08","00:00","3.9","","-7.2","","44","","36","","10","","25.0","","99.88","","","","","","Cloudy"
"1962-05-08 01:00","1962","05","08","01:00","3.9","","-6.7","","47","","36","","16","","25.0","","99.89","","","","","","Cloudy"
"1962-05-08 02:00","1962","05","08","02:00","3.9","","-5.6","","50","","36","","11","","25.0","","99.84","","","","","","Cloudy"
"1962-05-08 03:00","1962","05","08","03:00","3.9","","-4.4","","54","","2","","6","","25.0","","99.82","","","","","","Cloudy"
"1962-05-08 04:00","1962","05","08","04:00","4.4","","-5.0","","51","","","","0","","25.0","","99.76","","","","","","Cloudy"
"1962-05-08 05:00","1962","05","08","05:00","4.4","","-3.3","","58","","5","","5","","25.0","","99.73","","","","","","Cloudy"
"1962-05-08 06:00","1962","05","08","06:00","5.6","","-0.6","","64","","7","","6","","24.1","","99.70","","","","","","Cloudy"
"1962-05-08 07:00","1962","05","08","07:00","7.2","","-2.2","","50","","11","","16","","16.1","","99.71","","","","","","Cloudy"
"1962-05-08 08:00","1962","05","08","08:00","7.8","","-0.6","","55","","5","","19","","16.1","","99.66","","","","","","Cloudy"
"1962-05-08 09:00","1962","05","08","09:00","6.1","","0.0","","65","","11","","24","","12.9","","99.64","","","","","","Cloudy"
"1962-05-08 10:00","1962","05","08","10:00","4.4","","1.7","","83","","7","","23","","12.9","","99.62","","","","","","Rain"
"1962-05-08 11:00","1962","05","08","11:00","4.4","","1.7","","83","","7","","26","","16.1","","99.53","","","","","","Rain"
"1962-05-08 12:00","1962","05","08","12:00","3.9","","0.6","","78","","7","","29","","19.3","","99.54","","","","","","Rain"
"1962-05-08 13:00","1962","05","08","13:00","3.9","","0.0","","75","","7","","24","","19.3","","99.46","","","","","","Rain"
"1962-05-08 14:00","1962","05","08","14:00","4.4","","0.0","","74","","7","","29","","19.3","","99.45","","","","","","Rain"
"1962-05-08 15:00","1962","05","08","15:00","4.4","","0.6","","76","","5","","27","","24.1","","99.44","","","","","","Cloudy"
"1962-05-08 16:00","1962","05","08","16:00","5.0","","-1.7","","63","","7","","26","","25.0","","99.47","","","","","","Cloudy"
"1962-05-08 17:00","1962","05","08","17:00","5.0","","-1.7","","63","","7","","19","","25.0","","99.53","","","","","","Cloudy"
"1962-05-08 18:00","1962","05","08","18:00","4.4","","-1.1","","67","","5","","13","","25.0","","99.60","","","","","","Cloudy"
"1962-05-08 19:00","1962","05","08","19:00","4.4","","-2.8","","60","","5","","13","","25.0","","99.64","","","","","","Cloudy"
"1962-05-08 20:00","1962","05","08","20:00","4.4","","-1.7","","64","","2","","10","","25.0","","99.72","","","","","","Cloudy"
"1962-05-08 21:00","1962","05","08","21:00","4.4","","-1.7","","64","","36","","13","","25.0","","99.83","","","","","","Cloudy"
"1962-05-08 22:00","1962","05","08","22:00","4.4","","-0.6","","69","","36","","8","","25.0","","99.83","","","","","","Cloudy"
"1962-05-08 23:00","1962","05","08","23:00","2.8","","-1.7","","72","","36","","13","","25.0","","99.86","","","","","","Mainly Clear"
"1962-05-09 00:00","1962","05","09","00:00","2.2","","-2.2","","74","","34","","13","","25.0","","99.91","","","","","","Mainly Clear"
"1962-05-09 01:00","1962","05","09","01:00","1.1","","-1.7","","82","","34","","13","","25.0","","99.96","","","","","","Clear"
"1962-05-09 02:00","1962","05","09","02:00","1.1","","-1.1","","86","","34","","13","","25.0","","100.03","","","","","","Clear"
"1962-05-09 03:00","1962","05","09","03:00","0.6","","-1.7","","86","","36","","19","","25.0","","100.08","","","","","","Clear"
"1962-05-09 04:00","1962","05","09","04:00","0.6","","-1.7","","84","","34","","19","","25.0","","100.15","","","","","","Mainly Clear"
"1962-05-09 05:00","1962","05","09","05:00","0.6","","-2.2","","81","","36","","18","","25.0","","100.20","","","","","","Mainly Clear"
"1962-05-09 06:00","1962","05","09","06:00","0.6","","-2.8","","78","","34","","19","","25.0","","100.28","","","","","","Mainly Clear"
"1962-05-09 07:00","1962","05","09","07:00","2.8","","-2.2","","69","","36","","18","","25.0","","100.34","","","","","","Mainly Clear"
"1962-05-09 08:00","1962","05","09","08:00","6.7","","-3.3","","49","","36","","16","","25.0","","100.40","","","","","","Clear"
"1962-05-09 09:00","1962","05","09","09:00","8.9","","-4.4","","39","","2","","8","","25.0","","100.43","","","","","","Mainly Clear"
"1962-05-09 10:00","1962","05","09","10:00","10.0","","-5.6","","33","","7","","10","","25.0","","100.43","","","","","","Mainly Clear"
"1962-05-09 11:00","1962","05","09","11:00","11.1","","-7.8","","26","","34","","8","","25.0","","100.42","","","","","","Mainly Clear"
"1962-05-09 12:00","1962","05","09","12:00","11.7","","-7.8","","24","","11","","10","","25.0","","100.40","","","","","","Mainly Clear"
"1962-05-09 13:00","1962","05","09","13:00","12.2","","-6.7","","26","","","","0","","25.0","","100.32","","","","","","Mainly Clear"
"1962-05-09 14:00","1962","05","09","14:00","12.8","","-12.2","","16","","36","","16","","25.0","","100.31","","","","","","Clear"
"1962-05-09 15:00","1962","05","09","15:00","13.9","","-11.1","","16","","2","","19","","25.0","","100.25","","","","","","Mainly Clear"
"1962-05-09 16:00","1962","05","09","16:00","13.9","","-9.4","","19","","36","","11","","25.0","","100.20","","","","","","Mainly Clear"
"1962-05-09 17:00","1962","05","09","17:00","13.3","","-8.3","","22","","36","","16","","25.0","","100.20","","","","","","Mainly Clear"
"1962-05-09 18:00","1962","05","09","18:00","13.3","","-7.2","","23","","36","","18","","25.0","","100.19","","","","","","Mostly Cloudy"
"1962-05-09 19:00","1962","05","09","19:00","12.2","","-6.7","","26","","36","","16","","25.0","","100.24","","","","","","Mainly Clear"
"1962-05-09 20:00","1962","05","09","20:00","8.3","","-6.7","","34","","36","","13","","25.0","","100.29","","","","","","Mainly Clear"
"1962-05-09 21:00","1962","05","09","21:00","6.1","","-6.7","","40","","36","","14","","25.0","","100.30","","","","","","Mainly Clear"
"1962-05-09 22:00","1962","05","09","22:00","4.4","","-6.7","","44","","34","","14","","25.0","","100.31","","","","","","Clear"
"1962-05-09 23:00","1962","05","09","23:00","3.9","","-6.7","","45","","34","","16","","25.0","","100.30","","","","","","Mainly Clear"
"1962-05-10 00:00","1962","05","10","00:00","2.8","","-5.0","","57","","34","","10","","25.0","","100.28","","","","","","Clear"
"1962-05-10 01:00","1962","05","10","01:00","2.2","","-5.6","","56","","32","","10","","25.0","","100.28","","","","","","Clear"
"1962-05-10 02:00","1962","05","10","02:00","1.7","","-6.1","","57","","36","","8","","25.0","","100.23","","","","","","Clear"
"1962-05-10 03:00","1962","05","10","03:00","0.6","","-6.7","","59","","34","","10","","25.0","","100.23","","","","","","Clear"
"1962-05-10 04:00","1962","05","10","04:00","0.6","","-7.8","","54","","36","","13","","25.0","","100.25","","","","","","Clear"
"1962-05-10 05:00","1962","05","10","05:00","0.0","","-6.1","","63","","34","","13","","25.0","","100.30","","","","-4","","Mainly Clear"
"1962-05-10 06:00","1962","05","10","06:00","1.7","","-6.1","","57","","34","","14","","25.0","","100.28","","","","","","Mostly Cloudy"
"1962-05-10 07:00","1962","05","10","07:00","4.4","","-5.6","","49","","34","","11","","25.0","","100.30","","","","","","Mostly Cloudy"
"1962-05-10 08:00","1962","05","10","08:00","8.9","","-6.1","","34","","36","","16","","25.0","","100.28","","","","","","Mostly Cloudy"
"1962-05-10 09:00","1962","05","10","09:00","12.2","","-7.8","","24","","36","","16","","25.0","","100.27","","","","","","Mostly Cloudy"
"1962-05-10 10:00","1962","05","10","10:00","13.3","","-8.3","","22","","5","","6","","25.0","","100.21","","","","","","Mainly Clear"
"1962-05-10 11:00","1962","05","10","11:00","15.0","","-11.1","","16","","32","","3","","25.0","","100.15","","","","","","Mainly Clear"
"1962-05-10 12:00","1962","05","10","12:00","16.1","","-10.0","","16","","23","","3","","25.0","","100.06","","","","","","Mainly Clear"
"1962-05-10 13:00","1962","05","10","13:00","15.0","","-8.9","","18","","18","","18","","25.0","","99.99","","","","","","Mostly Cloudy"
"1962-05-10 14:00","1962","05","10","14:00","16.1","","-7.2","","19","","18","","19","","25.0","","99.93","","","","","","Mostly Cloudy"
"1962-05-10 15:00","1962","05","10","15:00","16.1","","-8.3","","18","","18","","19","","25.0","","99.85","","","","","","Mostly Cloudy"
"1962-05-10 16:00","1962","05","10","16:00","16.7","","-7.2","","19","","14","","24","","25.0","","99.73","","","","","","Mainly Clear"
"1962-05-10 17:00","1962","05","10","17:00","16.1","","-7.2","","19","","16","","21","","25.0","","99.73","","","","","","Mostly Cloudy"
"1962-05-10 18:00","1962","05","10","18:00","14.4","","-5.0","","26","","16","","19","","25.0","","99.72","","","","","","Mostly Cloudy"
"1962-05-10 19:00","1962","05","10","19:00","14.4","","-3.9","","28","","18","","16","","25.0","","99.67","","","","","","Mostly Cloudy"
"1962-05-10 20:00","1962","05","10","20:00","12.8","","-3.9","","32","","18","","10","","25.0","","99.65","","","","","","Mostly Cloudy"
"1962-05-10 21:00","1962","05","10","21:00","11.1","","-4.4","","34","","7","","6","","25.0","","99.66","","","","","","Mostly Cloudy"
"1962-05-10 22:00","1962","05","10","22:00","10.6","","-3.9","","36","","36","","8","","24.1","","99.66","","","","","","Mostly Cloudy"
"1962-05-10 23:00","1962","05","10","23:00","10.0","","-3.9","","38","","36","","11","","24.1","","99.67","","","","","","Cloudy"
"1962-05-11 00:00","1962","05","11","00:00","9.4","","-3.9","","38","","32","","8","","24.1","","99.62","","","","","","Cloudy"
"1962-05-11 01:00","1962","05","11","01:00","8.9","","-3.3","","42","","36","","13","","24.1","","99.62","","","","","","Cloudy"
"1962-05-11 02:00","1962","05","11","02:00","8.3","","-2.8","","45","","36","","14","","25.0","","99.62","","","","","","Cloudy"
"1962-05-11 03:00","1962","05","11","03:00","7.8","","-2.2","","49","","36","","6","","25.0","","99.64","","","","","","Cloudy"
"1962-05-11 04:00","1962","05","11","04:00","7.2","","-2.2","","50","","34","","8","","25.0","","99.70","","","","","","Mostly Cloudy"
"1962-05-11 05:00","1962","05","11","05:00","6.7","","-5.0","","43","","34","","13","","25.0","","99.72","","","","","","Mainly Clear"
"1962-05-11 06:00","1962","05","11","06:00","6.7","","-5.0","","43","","34","","8","","25.0","","99.76","","","","","","Mainly Clear"
"1962-05-11 07:00","1962","05","11","07:00","8.3","","-3.9","","41","","34","","13","","25.0","","99.78","","","","","","Mainly Clear"
"1962-05-11 08:00","1962","05","11","08:00","11.7","","-2.2","","38","","36","","10","","25.0","","99.85","","","","","","Clear"
"1962-05-11 09:00","1962","05","11","09:00","14.4","","-1.1","","34","","2","","8","","25.0","","99.87","","","","","","Clear"
"1962-05-11 10:00","1962","05","11","10:00","16.1","","-1.7","","28","","5","","16","","25.0","","99.89","","","","","","Mainly Clear"
"1962-05-11 11:00","1962","05","11","11:00","17.2","","-5.0","","22","","2","","19","","25.0","","99.84","","","","","","Mainly Clear"
"1962-05-11 12:00","1962","05","11","12:00","18.3","","-2.2","","24","","16","","10","","25.0","","99.79","","","","","","Mainly Clear"
"1962-05-11 13:00","1962","05","11","13:00","18.9","","-3.9","","21","","14","","19","","25.0","","99.77","","","","","","Mainly Clear"
"1962-05-11 14:00","1962","05","11","14:00","18.9","","-5.0","","20","","14","","23","","25.0","","99.79","","","","","","Mainly Clear"
"1962-05-11 15:00","1962","05","11","15:00","18.9","","-5.0","","20","","18","","23","","25.0","","99.82","","","","","","Mainly Clear"
"1962-05-11 16:00","1962","05","11","16:00","18.3","","-3.3","","23","","14","","16","","25.0","","99.77","","","","","","Mainly Clear"
"1962-05-11 17:00","1962","05","11","17:00","18.3","","-6.1","","18","","16","","16","","25.0","","99.77","","","","","","Mainly Clear"
"1962-05-11 18:00","1962","05","11","18:00","17.8","","-3.9","","23","","18","","16","","25.0","","99.81","","","","","","Mainly Clear"
"1962-05-11 19:00","1962","05","11","19:00","16.7","","-1.7","","28","","16","","8","","25.0","","99.87","","","","","","Mainly Clear"
"1962-05-11 20:00","1962","05","11","20:00","13.9","","-2.8","","31","","","","0","","24.1","","99.89","","","","","","Mainly Clear"
"1962-05-11 21:00","1962","05","11","21:00","11.7","","-2.8","","37","","36","","5","","24.1","","99.94","","","","","","Clear"
"1962-05-11 22:00","1962","05","11","22:00","9.4","","-1.7","","45","","34","","13","","24.1","","99.98","","","","","","Mainly Clear"
"1962-05-11 23:00","1962","05","11","23:00","8.9","","-1.7","","48","","34","","18","","24.1","","99.99","","","","","","Mainly Clear"
"1962-05-12 00:00","1962","05","12","00:00","7.8","","-1.7","","51","","34","","14","","25.0","","100.00","","","","","","Clear"
"1962-05-12 01:00","1962","05","12","01:00","7.2","","-2.2","","50","","32","","11","","25.0","","100.05","","","","","","Mainly Clear"
"1962-05-12 02:00","1962","05","12","02:00","6.7","","-3.3","","49","","36","","10","","25.0","","100.07","","","","","","Mainly Clear"
"1962-05-12 03:00","1962","05","12","03:00","6.1","","-3.3","","50","","","","0","","25.0","","100.14","","","","","","Mainly Clear"
"1962-05-12 04:00","1962","05","12","04:00","6.1","","-2.2","","54","","34","","5","","25.0","","100.15","","","","","","Mainly Clear"
"1962-05-12 05:00","1962","05","12","05:00","2.8","","-3.3","","64","","36","","14","","24.1","","100.01","","","","","","Mainly Clear"
"1962-05-12 06:00","1962","05","12","06:00","4.4","","-2.8","","60","","2","","6","","24.1","","100.21","","","","","","Mainly Clear"
"1962-05-12 07:00","1962","05","12","07:00","6.7","","0.0","","63","","36","","6","","16.1","","100.25","","","","","","Mostly Cloudy"
"1962-05-12 08:00","1962","05","12","08:00","11.1","","-0.6","","45","","5","","6","","16.1","","100.27","","","","","","Mostly Cloudy"
"1962-05-12 09:00","1962","05","12","09:00","15.6","","-2.8","","28","","11","","14","","16.1","","100.21","","","","","","Mostly Cloudy"
"1962-05-12 10:00","1962","05","12","10:00","17.2","","-5.6","","20","","14","","19","","25.0","","100.26","","","","","","Mostly Cloudy"
"1962-05-12 11:00","1962","05","12","11:00","17.2","","-2.8","","25","","14","","13","","25.0","","100.28","","","","","","Mostly Cloudy"
"1962-05-12 12:00","1962","05","12","12:00","17.2","","-3.9","","23","","11","","19","","25.0","","100.20","","","","","","Cloudy"
"1962-05-12 13:00","1962","05","12","13:00","17.8","","-1.7","","26","","9","","14","","25.0","","100.15","","","","","","Cloudy"
"1962-05-12 14:00","1962","05","12","14:00","17.8","","-2.8","","25","","7","","16","","25.0","","100.11","","","","","","Mostly Cloudy"
"1962-05-12 15:00","1962","05","12","15:00","17.2","","-3.9","","23","","7","","23","","25.0","","100.05","","","","","","Mostly Cloudy"
"1962-05-12 16:00","1962","05","12","16:00","16.7","","-6.1","","20","","7","","23","","25.0","","100.02","","","","","","Mostly Cloudy"
"1962-05-12 17:00","1962","05","12","17:00","15.0","","-6.7","","22","","9","","23","","25.0","","100.02","","","","","","Cloudy"
"1962-05-12 18:00","1962","05","12","18:00","15.0","","-8.3","","19","","9","","18","","25.0","","100.00","","","","","","Mostly Cloudy"
"1962-05-12 19:00","1962","05","12","19:00","14.4","","-9.4","","18","","7","","14","","25.0","","100.05","","","","","","Mostly Cloudy"
"1962-05-12 20:00","1962","05","12","20:00","13.3","","-6.7","","24","","7","","10","","25.0","","100.07","","","","","","Mostly Cloudy"
"1962-05-12 21:00","1962","05","12","21:00","11.7","","-7.8","","24","","7","","8","","25.0","","100.14","","","","","","Mainly Clear"
"1962-05-12 22:00","1962","05","12","22:00","11.1","","-10.0","","21","","9","","6","","25.0","","100.13","","","","","","Mainly Clear"
"1962-05-12 23:00","1962","05","12","23:00","10.0","","-8.3","","26","","7","","5","","25.0","","100.12","","","","","","Mainly Clear"
"1962-05-13 00:00","1962","05","13","00:00","7.8","","-5.0","","40","","5","","3","","25.0","","100.06","","","","","","Mainly Clear"
"1962-05-13 01:00","1962","05","13","01:00","7.8","","-5.0","","40","","36","","5","","24.1","","100.06","","","","","","Mainly Clear"
"1962-05-13 02:00","1962","05","13","02:00","6.7","","-3.9","","47","","36","","11","","24.1","","100.00","","","","","","Mainly Clear"
"1962-05-13 03:00","1962","05","13","03:00","6.1","","-2.2","","54","","5","","11","","24.1","","100.00","","","","","","Mainly Clear"
"1962-05-13 04:00","1962","05","13","04:00","6.7","","-2.8","","51","","5","","11","","24.1","","100.00","","","","","","Mainly Clear"
"1962-05-13 05:00","1962","05","13","05:00","6.7","","-1.1","","57","","5","","8","","24.1","","100.00","","","","","","Clear"
"1962-05-13 06:00","1962","05","13","06:00","7.2","","-0.6","","58","","2","","6","","24.1","","100.00","","","","","","Clear"
"1962-05-13 07:00","1962","05","13","07:00","9.4","","1.7","","58","","5","","3","","16.1","","100.04","","","","","","Clear"
"1962-05-13 08:00","1962","05","13","08:00","11.7","","2.8","","54","","14","","3","","11.3","","100.10","","","","","","Mainly Clear"
"1962-05-13 09:00","1962","05","13","09:00","15.6","","6.7","","55","","14","","11","","8.0","","100.10","","","","","","Haze"
"1962-05-13 10:00","1962","05","13","10:00","16.7","","7.8","","56","","16","","18","","9.7","","100.06","","","","","","Haze"
"1962-05-13 11:00","1962","05","13","11:00","17.8","","9.4","","57","","14","","21","","9.7","","99.98","","","","","","Haze"
"1962-05-13 12:00","1962","05","13","12:00","18.9","","9.4","","54","","14","","21","","9.7","","99.98","","","","","","Haze"
"1962-05-13 13:00","1962","05","13","13:00","19.4","","9.4","","53","","14","","18","","9.7","","99.92","","","","","","Haze"
"1962-05-13 14:00","1962","05","13","14:00","20.0","","10.0","","52","","11","","24","","9.7","","99.78","","","","","","Haze"
"1962-05-13 15:00","1962","05","13","15:00","18.3","","10.0","","58","","11","","14","","9.7","","99.80","","","","","","Rain Showers,Haze"
"1962-05-13 16:00","1962","05","13","16:00","17.8","","12.2","","70","","11","","13","","8.0","","99.74","","","","","","Rain Showers,Haze"
"1962-05-13 17:00","1962","05","13","17:00","16.7","","11.1","","69","","14","","19","","8.0","","99.46","","","","","","Haze"
"1962-05-13 18:00","1962","05","13","18:00","15.0","","10.6","","74","","14","","6","","8.0","","99.59","","","","","","Rain Showers,Haze"
"1962-05-13 19:00","1962","05","13","19:00","13.9","","10.6","","81","","14","","6","","8.0","","99.49","","","","","","Rain Showers,Haze"
"1962-05-13 20:00","1962","05","13","20:00","13.9","","10.6","","81","","5","","19","","8.0","","99.53","","","","","","Haze"
"1962-05-13 21:00","1962","05","13","21:00","16.7","","11.7","","73","","14","","16","","11.3","","99.48","","","","","","Cloudy"
"1962-05-13 22:00","1962","05","13","22:00","15.6","","8.9","","65","","16","","24","","16.1","","99.44","","","","","","Cloudy"
"1962-05-13 23:00","1962","05","13","23:00","14.4","","8.9","","69","","18","","14","","16.1","","99.45","","","","","","Mostly Cloudy"
"1962-05-14 00:00","1962","05","14","00:00","13.3","","8.3","","71","","18","","14","","12.9","","99.41","","","","","","Mostly Cloudy"
"1962-05-14 01:00","1962","05","14","01:00","13.3","","9.4","","76","","18","","14","","11.3","","99.37","","","","","","Mainly Clear"
"1962-05-14 02:00","1962","05","14","02:00","13.9","","10.0","","78","","16","","14","","11.3","","99.33","","","","","","Mainly Clear"
"1962-05-14 03:00","1962","05","14","03:00","13.3","","9.4","","78","","14","","10","","11.3","","99.31","","","","","","Mainly Clear"
"1962-05-14 04:00","1962","05","14","04:00","12.2","","9.4","","82","","18","","13","","11.3","","99.27","","","","","","Mainly Clear"
"1962-05-14 05:00","1962","05","14","05:00","12.8","","9.4","","81","","18","","10","","11.3","","99.31","","","","","","Mainly Clear"
"1962-05-14 06:00","1962","05","14","06:00","12.8","","10.0","","84","","18","","14","","9.7","","99.36","","","","","","Haze"
"1962-05-14 07:00","1962","05","14","07:00","15.6","","11.7","","79","","20","","16","","9.7","","99.37","","","","","","Haze"
"1962-05-14 08:00","1962","05","14","08:00","20.0","","14.4","","70","","23","","24","","11.3","","99.39","","","","","","Mostly Cloudy"
"1962-05-14 09:00","1962","05","14","09:00","21.7","","15.0","","66","","23","","26","","12.9","","99.37","","26","","","","Mostly Cloudy"
"1962-05-14 10:00","1962","05","14","10:00","22.8","","15.0","","62","","25","","16","","12.9","","99.44","","27","","","","Mostly Cloudy"
"1962-05-14 11:00","1962","05","14","11:00","25.0","","14.4","","53","","27","","16","","16.1","","99.49","","29","","","","Mostly Cloudy"
"1962-05-14 12:00","1962","05","14","12:00","26.1","","15.0","","50","","23","","16","","16.1","","99.51","","30","","","","Mostly Cloudy"
"1962-05-14 13:00","1962","05","14","13:00","28.3","","15.0","","45","","25","","19","","16.1","","99.45","","32","","","","Mostly Cloudy"
"1962-05-14 14:00","1962","05","14","14:00","28.9","","15.0","","43","","23","","26","","16.1","","99.37","","33","","","","Mostly Cloudy"
"1962-05-14 15:00","1962","05","14","15:00","27.2","","14.4","","45","","25","","23","","16.1","","99.44","","31","","","","Mostly Cloudy"
"1962-05-14 16:00","1962","05","14","16:00","27.8","","15.0","","45","","25","","16","","16.1","","99.43","","32","","","","Cloudy"
"1962-05-14 17:00","1962","05","14","17:00","27.8","","15.6","","47","","27","","19","","16.1","","99.45","","32","","","","Cloudy"
"1962-05-14 18:00","1962","05","14","18:00","27.8","","15.6","","48","","27","","13","","19.3","","99.48","","32","","","","Cloudy"
"1962-05-14 19:00","1962","05","14","19:00","26.7","","16.1","","52","","29","","13","","19.3","","99.52","","31","","","","Cloudy"
"1962-05-14 20:00","1962","05","14","20:00","24.4","","16.7","","61","","32","","5","","16.1","","99.62","","29","","","","Mainly Clear"
"1962-05-14 21:00","1962","05","14","21:00","22.2","","16.1","","68","","36","","13","","16.1","","99.72","","27","","","","Mainly Clear"
"1962-05-14 22:00","1962","05","14","22:00","20.6","","15.6","","72","","","","0","","16.1","","99.72","","25","","","","Clear"
"1962-05-14 23:00","1962","05","14","23:00","18.3","","15.0","","80","","","","0","","16.1","","99.74","","","","","","Clear"
"1962-05-15 00:00","1962","05","15","00:00","18.9","","13.3","","71","","","","0","","19.3","","99.74","","","","","","Mainly Clear"
"1962-05-15 01:00","1962","05","15","01:00","18.3","","13.9","","76","","","","0","","19.3","","99.74","","","","","","Mainly Clear"
"1962-05-15 02:00","1962","05","15","02:00","18.3","","13.9","","76","","18","","5","","19.3","","99.73","","","","","","Mostly Cloudy"
"1962-05-15 03:00","1962","05","15","03:00","18.3","","14.4","","78","","11","","6","","16.1","","99.77","","","","","","Mostly Cloudy"
"1962-05-15 04:00","1962","05","15","04:00","15.6","","13.3","","87","","16","","5","","12.9","","99.84","","","","","","Mostly Cloudy"
"1962-05-15 05:00","1962","05","15","05:00","15.0","","12.8","","87","","","","0","","4.0","","99.90","","","","","","Fog"
"1962-05-15 06:00","1962","05","15","06:00","15.0","","11.7","","82","","16","","6","","4.8","","99.97","","","","","","Haze"
"1962-05-15 07:00","1962","05","15","07:00","15.6","","12.8","","82","","16","","6","","6.4","","100.05","","","","","","Haze"
"1962-05-15 08:00","1962","05","15","08:00","21.7","","15.0","","66","","14","","6","","4.0","","100.08","","26","","","","Haze"
"1962-05-15 09:00","1962","05","15","09:00","23.3","","14.4","","58","","14","","8","","4.0","","100.10","","27","","","","Haze"
"1962-05-15 10:00","1962","05","15","10:00","27.2","","16.1","","50","","14","","8","","6.4","","100.11","","32","","","","Haze"
"1962-05-15 11:00","1962","05","15","11:00","30.0","","14.4","","39","","29","","26","","19.3","","100.09","","34","","","","Mostly Cloudy"
"1962-05-15 12:00","1962","05","15","12:00","30.6","","15.0","","39","","32","","16","","19.3","","100.05","","35","","","","Mostly Cloudy"
"1962-05-15 13:00","1962","05","15","13:00","31.7","","15.6","","37","","32","","10","","16.1","","100.02","","36","","","","Mainly Clear"
"1962-05-15 14:00","1962","05","15","14:00","31.1","","17.2","","43","","20","","14","","12.9","","100.01","","37","","","","Mainly Clear"
"1962-05-15 15:00","1962","05","15","15:00","31.1","","17.2","","43","","18","","23","","12.9","","99.98","","37","","","","Mainly Clear"
"1962-05-15 16:00","1962","05","15","16:00","30.0","","19.4","","54","","16","","14","","12.9","","99.98","","37","","","","Mostly Cloudy"
"1962-05-15 17:00","1962","05","15","17:00","31.7","","22.8","","60","","27","","24","","19.3","","99.99","","42","","","","Mainly Clear"
"1962-05-15 18:00","1962","05","15","18:00","31.1","","15.0","","36","","27","","19","","19.3","","100.01","","35","","","","Mainly Clear"
"1962-05-15 19:00","1962","05","15","19:00","27.8","","15.6","","48","","18","","5","","16.1","","100.03","","32","","","","Mainly Clear"
"1962-05-15 20:00","1962","05","15","20:00","21.7","","14.4","","63","","16","","6","","8.0","","100.07","","25","","","","Haze"
"1962-05-15 21:00","1962","05","15","21:00","18.9","","13.3","","71","","18","","13","","9.7","","100.15","","","","","","Haze"
"1962-05-15 22:00","1962","05","15","22:00","17.2","","13.3","","77","","","","0","","6.4","","100.16","","","","","","Haze"
"1962-05-15 23:00","1962","05","15","23:00","17.8","","13.3","","76","","","","0","","8.0","","100.17","","","","","","Haze"
"1962-05-16 00:00","1962","05","16","00:00","17.8","","13.3","","74","","","","0","","8.0","","100.16","","","","","","Haze"
"1962-05-16 01:00","1962","05","16","01:00","17.2","","13.3","","77","","","","0","","8.0","","100.18","","","","","","Haze"
"1962-05-16 02:00","1962","05","16","02:00","16.1","","13.3","","83","","","","0","","8.0","","100.16","","","","","","Haze"
"1962-05-16 03:00","1962","05","16","03:00","16.1","","13.3","","83","","18","","6","","6.4","","100.20","","","","","","Haze"
"1962-05-16 04:00","1962","05","16","04:00","16.1","","13.3","","83","","","","0","","6.4","","100.23","","","","","","Haze"
"1962-05-16 05:00","1962","05","16","05:00","15.6","","13.3","","85","","34","","8","","4.0","","100.28","","","","","","Fog"
"1962-05-16 06:00","1962","05","16","06:00","16.7","","13.9","","83","","34","","8","","4.0","","100.32","","","","","","Smoke,Haze"
"1962-05-16 07:00","1962","05","16","07:00","17.8","","15.0","","84","","34","","8","","4.0","","100.36","","","","","","Smoke,Haze"
"1962-05-16 08:00","1962","05","16","08:00","24.4","","17.8","","65","","","","0","","6.4","","100.31","","30","","","","Haze"
"1962-05-16 09:00","1962","05","16","09:00","27.8","","16.7","","52","","23","","5","","9.7","","100.36","","33","","","","Haze"
"1962-05-16 10:00","1962","05","16","10:00","29.4","","16.1","","45","","27","","11","","11.3","","100.36","","34","","","","Mainly Clear"
"1962-05-16 11:00","1962","05","16","11:00","31.1","","15.6","","39","","27","","21","","16.1","","100.36","","35","","","","Mainly Clear"
"1962-05-16 12:00","1962","05","16","12:00","31.7","","15.6","","38","","25","","19","","16.1","","100.32","","36","","","","Mainly Clear"
"1962-05-16 13:00","1962","05","16","13:00","31.7","","15.6","","37","","25","","23","","16.1","","100.25","","36","","","","Mainly Clear"
"1962-05-16 14:00","1962","05","16","14:00","32.8","","16.1","","36","","29","","21","","19.3","","100.22","","37","","","","Mainly Clear"
"1962-05-16 15:00","1962","05","16","15:00","32.2","","14.4","","34","","29","","18","","19.3","","100.22","","36","","","","Mainly Clear"
"1962-05-16 16:00","1962","05","16","16:00","32.2","","14.4","","34","","27","","21","","19.3","","100.19","","36","","","","Mainly Clear"
"1962-05-16 17:00","1962","05","16","17:00","31.7","","13.9","","34","","27","","21","","19.3","","100.19","","35","","","","Mainly Clear"
"1962-05-16 18:00","1962","05","16","18:00","31.1","","13.9","","35","","27","","21","","19.3","","100.16","","34","","","","Mainly Clear"
"1962-05-16 19:00","1962","05","16","19:00","30.0","","14.4","","39","","29","","10","","19.3","","100.15","","34","","","","Mainly Clear"
"1962-05-16 20:00","1962","05","16","20:00","26.1","","15.0","","51","","27","","6","","19.3","","100.15","","30","","","","Mainly Clear"
"1962-05-16 21:00","1962","05","16","21:00","23.9","","14.4","","56","","27","","6","","19.3","","100.22","","28","","","","Clear"
"1962-05-16 22:00","1962","05","16","22:00","23.9","","15.6","","59","","27","","3","","19.3","","100.24","","28","","","","Clear"
"1962-05-16 23:00","1962","05","16","23:00","21.7","","14.4","","63","","27","","3","","19.3","","100.21","","25","","","","Clear"
"1962-05-17 00:00","1962","05","17","00:00","21.1","","15.0","","68","","27","","6","","19.3","","100.26","","25","","","","Mainly Clear"
"1962-05-17 01:00","1962","05","17","01:00","21.7","","15.6","","68","","32","","5","","19.3","","100.26","","26","","","","Mainly Clear"
"1962-05-17 02:00","1962","05","17","02:00","20.0","","15.0","","72","","","","0","","19.3","","100.27","","","","","","Mostly Cloudy"
"1962-05-17 03:00","1962","05","17","03:00","18.3","","15.0","","80","","34","","5","","24.1","","100.24","","","","","","Mainly Clear"
"1962-05-17 04:00","1962","05","17","04:00","18.9","","15.0","","78","","2","","6","","19.3","","100.24","","","","","","Mainly Clear"
"1962-05-17 05:00","1962","05","17","05:00","18.3","","15.0","","82","","32","","8","","9.7","","100.27","","","","","","Haze"
"1962-05-17 06:00","1962","05","17","06:00","20.6","","16.1","","76","","29","","5","","8.0","","100.28","","25","","","","Haze"
"1962-05-17 07:00","1962","05","17","07:00","22.2","","17.2","","73","","36","","10","","8.0","","100.29","","28","","","","Haze"
"1962-05-17 08:00","1962","05","17","08:00","25.6","","17.8","","62","","34","","8","","11.3","","100.33","","31","","","","Mainly Clear"
"1962-05-17 09:00","1962","05","17","09:00","27.8","","16.7","","52","","36","","14","","16.1","","100.33","","33","","","","Mainly Clear"
"1962-05-17 10:00","1962","05","17","10:00","30.0","","15.6","","42","","36","","21","","19.3","","100.33","","34","","","","Clear"
"1962-05-17 11:00","1962","05","17","11:00","30.6","","15.6","","40","","36","","18","","19.3","","100.32","","35","","","","Clear"
"1962-05-17 12:00","1962","05","17","12:00","31.1","","15.6","","39","","2","","13","","19.3","","100.25","","35","","","","Mainly Clear"
"1962-05-17 13:00","1962","05","17","13:00","31.1","","15.6","","39","","29","","8","","19.3","","100.18","","35","","","","Mainly Clear"
"1962-05-17 14:00","1962","05","17","14:00","32.2","","15.6","","37","","27","","19","","19.3","","100.15","","37","","","","Mainly Clear"
"1962-05-17 15:00","1962","05","17","15:00","33.3","","13.9","","31","","29","","10","","19.3","","100.11","","37","","","","Mainly Clear"
"1962-05-17 16:00","1962","05","17","16:00","32.2","","15.0","","35","","14","","13","","19.3","","100.06","","36","","","","Mainly Clear"
"1962-05-17 17:00","1962","05","17","17:00","31.7","","15.6","","38","","9","","5","","19.3","","100.05","","36","","","","Mainly Clear"
"1962-05-17 18:00","1962","05","17","18:00","31.1","","17.2","","43","","5","","6","","19.3","","100.04","","37","","","","Mainly Clear"
"1962-05-17 19:00","1962","05","17","19:00","30.0","","17.2","","47","","2","","5","","19.3","","100.03","","35","","","","Clear"
"1962-05-17 20:00","1962","05","17","20:00","27.2","","17.2","","55","","","","0","","19.3","","100.05","","33","","","","Clear"
"1962-05-17 21:00","1962","05","17","21:00","26.1","","15.6","","53","","29","","6","","19.3","","100.05","","30","","","","Clear"
"1962-05-17 22:00","1962","05","17","22:00","23.9","","17.2","","66","","36","","5","","19.3","","100.08","","29","","","","Clear"
"1962-05-17 23:00","1962","05","17","23:00","21.7","","15.0","","65","","29","","5","","19.3","","100.07","","26","","","","Clear"
"1962-05-18 00:00","1962","05","18","00:00","21.1","","14.4","","66","","","","0","","19.3","","100.05","","25","","","","Clear"
"1962-05-18 01:00","1962","05","18","01:00","20.6","","14.4","","69","","32","","5","","19.3","","100.04","","","","","","Clear"
"1962-05-18 02:00","1962","05","18","02:00","20.0","","14.4","","70","","27","","8","","19.3","","100.03","","","","","","Clear"
"1962-05-18 03:00","1962","05","18","03:00","20.0","","14.4","","70","","","","0","","19.3","","100.00","","","","","","Clear"
"1962-05-18 04:00","1962","05","18","04:00","18.3","","14.4","","78","","34","","5","","19.3","","100.00","","","","","","Clear"
"1962-05-18 05:00","1962","05","18","05:00","18.3","","14.4","","78","","34","","6","","12.9","","100.04","","","","","","Mainly Clear"
"1962-05-18 06:00","1962","05","18","06:00","20.0","","14.4","","70","","27","","13","","9.7","","100.06","","","","","","Haze"
"1962-05-18 07:00","1962","05","18","07:00","23.9","","15.6","","60","","29","","13","","12.9","","100.06","","28","","","","Mainly Clear"
"1962-05-18 08:00","1962","05","18","08:00","27.2","","16.1","","51","","32","","19","","11.3","","100.10","","32","","","","Clear"
"1962-05-18 09:00","1962","05","18","09:00","29.4","","16.7","","46","","29","","19","","14.5","","100.07","","34","","","","Clear"
"1962-05-18 10:00","1962","05","18","10:00","31.1","","16.1","","41","","32","","24","","14.5","","100.06","","36","","","","Mainly Clear"
"1962-05-18 11:00","1962","05","18","11:00","31.1","","16.1","","41","","29","","21","","14.5","","100.04","","36","","","","Mainly Clear"
"1962-05-18 12:00","1962","05","18","12:00","31.7","","15.0","","36","","29","","19","","16.1","","100.00","","36","","","","Mainly Clear"
"1962-05-18 13:00","1962","05","18","13:00","31.7","","15.6","","38","","29","","19","","16.1","","99.95","","36","","","","Mainly Clear"
"1962-05-18 14:00","1962","05","18","14:00","32.8","","15.6","","35","","27","","26","","12.9","","99.90","","37","","","","Mainly Clear"
"1962-05-18 15:00","1962","05","18","15:00","32.8","","17.2","","39","","29","","27","","12.9","","99.88","","38","","","","Mainly Clear"
"1962-05-18 16:00","1962","05","18","16:00","33.3","","16.1","","36","","29","","23","","12.9","","99.83","","38","","","","Mainly Clear"
"1962-05-18 17:00","1962","05","18","17:00","32.8","","14.4","","33","","27","","16","","12.9","","99.79","","36","","","","Mainly Clear"
"1962-05-18 18:00","1962","05","18","18:00","32.2","","13.9","","33","","27","","19","","16.1","","99.76","","36","","","","Mainly Clear"
"1962-05-18 19:00","1962","05","18","19:00","30.0","","13.3","","37","","27","","16","","16.1","","99.74","","33","","","","Clear"
"1962-05-18 20:00","1962","05","18","20:00","27.2","","16.1","","50","","29","","11","","16.1","","99.82","","32","","","","Mainly Clear"
"1962-05-18 21:00","1962","05","18","21:00","25.6","","16.1","","56","","32","","8","","16.1","","99.83","","30","","","","Mainly Clear"
"1962-05-18 22:00","1962","05","18","22:00","23.9","","16.7","","63","","29","","13","","16.1","","99.84","","29","","","","Mainly Clear"
"1962-05-18 23:00","1962","05","18","23:00","22.8","","16.1","","67","","29","","10","","19.3","","99.85","","27","","","","Mainly Clear"
"1962-05-19 00:00","1962","05","19","00:00","21.7","","17.2","","75","","29","","10","","19.3","","99.84","","27","","","","Clear"
"1962-05-19 01:00","1962","05","19","01:00","21.1","","16.7","","76","","29","","5","","19.3","","99.84","","26","","","","Clear"
"1962-05-19 02:00","1962","05","19","02:00","20.6","","16.7","","78","","36","","8","","19.3","","99.85","","26","","","","Clear"
"1962-05-19 03:00","1962","05","19","03:00","19.4","","16.1","","81","","36","","8","","19.3","","99.88","","","","","","Clear"
"1962-05-19 04:00","1962","05","19","04:00","19.4","","16.1","","81","","36","","16","","19.3","","99.89","","","","","","Mainly Clear"
"1962-05-19 05:00","1962","05","19","05:00","18.9","","15.0","","78","","32","","11","","16.1","","99.92","","","","","","Mainly Clear"
"1962-05-19 06:00","1962","05","19","06:00","19.4","","15.6","","79","","34","","11","","19.3","","99.90","","","","","","Mainly Clear"
"1962-05-19 07:00","1962","05","19","07:00","20.6","","16.1","","76","","32","","6","","19.3","","99.92","","25","","","","Mainly Clear"
"1962-05-19 08:00","1962","05","19","08:00","23.9","","17.2","","66","","36","","13","","19.3","","99.93","","29","","","","Mainly Clear"
"1962-05-19 09:00","1962","05","19","09:00","26.7","","16.7","","54","","34","","8","","19.3","","99.91","","32","","","","Mainly Clear"
"1962-05-19 10:00","1962","05","19","10:00","27.8","","16.7","","50","","32","","8","","24.1","","99.86","","33","","","","Mainly Clear"
"1962-05-19 11:00","1962","05","19","11:00","28.9","","15.0","","43","","32","","8","","24.1","","99.85","","33","","","","Mainly Clear"
"1962-05-19 12:00","1962","05","19","12:00","29.4","","14.4","","40","","32","","8","","19.3","","99.83","","33","","","","Mainly Clear"
"1962-05-19 13:00","1962","05","19","13:00","30.0","","15.0","","41","","36","","6","","19.3","","99.73","","34","","","","Mainly Clear"
"1962-05-19 14:00","1962","05","19","14:00","31.1","","16.7","","42","","20","","24","","19.3","","99.65","","36","","","","Mainly Clear"
"1962-05-19 15:00","1962","05","19","15:00","30.0","","17.8","","48","","20","","16","","19.3","","99.54","","36","","","","Rain Showers"
"1962-05-19 16:00","1962","05","19","16:00","31.7","","16.1","","39","","20","","13","","19.3","","99.48","","36","","","","Mainly Clear"
"1962-05-19 17:00","1962","05","19","17:00","26.7","","16.7","","54","","23","","27","","19.3","","99.48","","32","","","","Mostly Cloudy"
"1962-05-19 18:00","1962","05","19","18:00","25.0","","17.2","","61","","25","","11","","19.3","","99.48","","30","","","","Thunderstorms,Rain Showers"
"1962-05-19 19:00","1962","05","19","19:00","25.6","","17.2","","59","","36","","3","","16.1","","99.48","","31","","","","Mostly Cloudy"
"1962-05-19 20:00","1962","05","19","20:00","23.3","","17.8","","71","","2","","3","","16.1","","99.46","","29","","","","Mostly Cloudy"
"1962-05-19 21:00","1962","05","19","21:00","23.3","","17.8","","71","","20","","6","","16.1","","99.44","","29","","","","Mostly Cloudy"
"1962-05-19 22:00","1962","05","19","22:00","21.7","","16.1","","71","","34","","11","","16.1","","99.48","","26","","","","Mainly Clear"
"1962-05-19 23:00","1962","05","19","23:00","18.9","","15.0","","78","","32","","6","","16.1","","99.49","","","","","","Mostly Cloudy"
"1962-05-20 00:00","1962","05","20","00:00","19.4","","15.6","","79","","29","","6","","16.1","","99.41","","","","","","Mostly Cloudy"
"1962-05-20 01:00","1962","05","20","01:00","18.9","","15.6","","80","","29","","3","","16.1","","99.31","","","","","","Mostly Cloudy"
"1962-05-20 02:00","1962","05","20","02:00","17.8","","15.0","","84","","36","","10","","19.3","","99.26","","","","","","Mainly Clear"
"1962-05-20 03:00","1962","05","20","03:00","17.2","","15.0","","85","","","","0","","19.3","","99.17","","","","","","Mainly Clear"
"1962-05-20 04:00","1962","05","20","04:00","17.8","","15.0","","84","","23","","5","","19.3","","99.17","","","","","","Mainly Clear"
"1962-05-20 05:00","1962","05","20","05:00","17.8","","16.1","","90","","18","","10","","8.0","","99.10","","","","","","Fog"
"1962-05-20 06:00","1962","05","20","06:00","17.8","","15.6","","88","","","","0","","8.0","","99.08","","","","","","Fog"
"1962-05-20 07:00","1962","05","20","07:00","18.3","","16.1","","86","","36","","11","","6.4","","99.18","","","","","","Thunderstorms,Fog"
"1962-05-20 08:00","1962","05","20","08:00","20.6","","16.7","","78","","14","","8","","6.4","","99.09","","26","","","","Haze"
"1962-05-20 09:00","1962","05","20","09:00","22.2","","16.1","","68","","11","","16","","6.4","","99.02","","27","","","","Haze"
"1962-05-20 10:00","1962","05","20","10:00","22.2","","15.6","","67","","16","","16","","8.0","","98.92","","27","","","","Haze"
"1962-05-20 11:00","1962","05","20","11:00","25.0","","18.3","","66","","18","","19","","8.0","","98.85","","31","","","","Haze"
"1962-05-20 12:00","1962","05","20","12:00","27.8","","18.9","","58","","18","","23","","6.4","","98.76","","34","","","","Haze"
"1962-05-20 13:00","1962","05","20","13:00","28.9","","20.6","","62","","23","","29","","12.9","","98.62","","37","","","","Mostly Cloudy"
"1962-05-20 14:00","1962","05","20","14:00","26.1","","15.0","","50","","20","","24","","19.3","","98.58","","30","","","","Mostly Cloudy"
"1962-05-20 15:00","1962","05","20","15:00","28.3","","18.3","","55","","20","","24","","16.1","","98.51","","35","","","","Mostly Cloudy"
"1962-05-20 16:00","1962","05","20","16:00","29.4","","20.0","","57","","25","","29","","11.3","","98.48","","37","","","","Mainly Clear"
"1962-05-20 17:00","1962","05","20","17:00","30.0","","11.7","","32","","27","","29","","25.0","","98.47","","32","","","","Mainly Clear"
"1962-05-20 18:00","1962","05","20","18:00","25.6","","16.7","","58","","36","","26","","24.1","","98.54","","31","","","","Mainly Clear"
"1962-05-20 19:00","1962","05","20","19:00","23.9","","16.1","","62","","34","","16","","24.1","","98.64","","29","","","","Mainly Clear"
"1962-05-20 20:00","1962","05","20","20:00","21.7","","15.0","","65","","34","","19","","25.0","","98.70","","26","","","","Mainly Clear"
"1962-05-20 21:00","1962","05","20","21:00","20.0","","14.4","","70","","32","","11","","25.0","","98.76","","","","","","Mainly Clear"
"1962-05-20 22:00","1962","05","20","22:00","19.4","","13.9","","71","","29","","11","","25.0","","98.81","","","","","","Clear"
"1962-05-20 23:00","1962","05","20","23:00","18.3","","13.9","","74","","27","","11","","25.0","","98.85","","","","","","Mainly Clear"
"1962-05-21 00:00","1962","05","21","00:00","18.3","","13.9","","76","","29","","13","","25.0","","98.89","","","","","","Mostly Cloudy"
"1962-05-21 01:00","1962","05","21","01:00","17.8","","13.9","","78","","34","","11","","25.0","","98.90","","","","","","Mostly Cloudy"
"1962-05-21 02:00","1962","05","21","02:00","16.1","","13.3","","83","","34","","26","","25.0","","98.91","","","","","","Cloudy"
"1962-05-21 03:00","1962","05","21","03:00","14.4","","11.7","","83","","34","","23","","25.0","","99.01","","","","","","Cloudy"
"1962-05-21 04:00","1962","05","21","04:00","13.9","","11.1","","85","","34","","16","","25.0","","99.04","","","","","","Mostly Cloudy"
"1962-05-21 05:00","1962","05","21","05:00","13.9","","11.1","","83","","36","","14","","25.0","","99.07","","","","","","Mostly Cloudy"
"1962-05-21 06:00","1962","05","21","06:00","13.9","","10.6","","80","","34","","16","","25.0","","99.23","","","","","","Mostly Cloudy"
"1962-05-21 07:00","1962","05","21","07:00","13.9","","10.0","","76","","2","","16","","25.0","","99.28","","","","","","Mostly Cloudy"
"1962-05-21 08:00","1962","05","21","08:00","15.0","","9.4","","69","","2","","19","","25.0","","99.26","","","","","","Mostly Cloudy"
"1962-05-21 09:00","1962","05","21","09:00","16.1","","8.3","","59","","2","","23","","25.0","","99.28","","","","","","Mostly Cloudy"
"1962-05-21 10:00","1962","05","21","10:00","17.2","","8.3","","55","","36","","16","","25.0","","99.31","","","","","","Mostly Cloudy"
"1962-05-21 11:00","1962","05","21","11:00","18.9","","10.0","","55","","36","","24","","25.0","","99.33","","","","","","Mainly Clear"
"1962-05-21 12:00","1962","05","21","12:00","19.4","","8.9","","51","","2","","21","","25.0","","99.34","","","","","","Mainly Clear"
"1962-05-21 13:00","1962","05","21","13:00","21.1","","8.3","","44","","5","","18","","25.0","","99.39","","","","","","Mainly Clear"
"1962-05-21 14:00","1962","05","21","14:00","21.1","","3.9","","32","","2","","24","","25.0","","99.37","","","","","","Mainly Clear"
"1962-05-21 15:00","1962","05","21","15:00","22.2","","5.0","","33","","2","","19","","25.0","","99.38","","","","","","Mainly Clear"
"1962-05-21 16:00","1962","05","21","16:00","22.2","","7.2","","38","","2","","8","","25.0","","99.38","","","","","","Mainly Clear"
"1962-05-21 17:00","1962","05","21","17:00","21.7","","7.2","","39","","36","","13","","25.0","","99.39","","","","","","Mainly Clear"
"1962-05-21 18:00","1962","05","21","18:00","20.6","","6.1","","39","","36","","18","","25.0","","99.44","","","","","","Mainly Clear"
"1962-05-21 19:00","1962","05","21","19:00","18.9","","5.0","","41","","36","","14","","25.0","","99.45","","","","","","Mainly Clear"
"1962-05-21 20:00","1962","05","21","20:00","16.7","","3.3","","40","","36","","14","","25.0","","99.47","","","","","","Mainly Clear"
"1962-05-21 21:00","1962","05","21","21:00","14.4","","2.2","","43","","34","","13","","25.0","","99.55","","","","","","Mainly Clear"
"1962-05-21 22:00","1962","05","21","22:00","12.8","","1.7","","46","","34","","21","","25.0","","99.60","","","","","","Mainly Clear"
"1962-05-21 23:00","1962","05","21","23:00","11.7","","0.6","","46","","34","","18","","25.0","","99.65","","","","","","Mainly Clear"
"1962-05-22 00:00","1962","05","22","00:00","10.6","","1.1","","52","","34","","23","","25.0","","99.66","","","","","","Clear"
"1962-05-22 01:00","1962","05","22","01:00","10.0","","1.7","","57","","36","","16","","25.0","","99.70","","","","","","Clear"
"1962-05-22 02:00","1962","05","22","02:00","9.4","","2.2","","61","","34","","19","","25.0","","99.75","","","","","","Clear"
"1962-05-22 03:00","1962","05","22","03:00","8.3","","2.8","","67","","36","","13","","25.0","","99.78","","","","","","Clear"
"1962-05-22 04:00","1962","05","22","04:00","7.8","","2.8","","71","","34","","10","","25.0","","99.77","","","","","","Mainly Clear"
"1962-05-22 05:00","1962","05","22","05:00","7.2","","2.2","","70","","36","","8","","25.0","","99.76","","","","","","Mainly Clear"
"1962-05-22 06:00","1962","05","22","06:00","8.9","","2.8","","64","","36","","14","","25.0","","99.85","","","","","","Mainly Clear"
"1962-05-22 07:00","1962","05","22","07:00","11.7","","2.8","","54","","2","","8","","25.0","","99.93","","","","","","Mainly Clear"
"1962-05-22 08:00","1962","05","22","08:00","16.1","","1.1","","36","","7","","8","","25.0","","99.91","","","","","","Mainly Clear"
"1962-05-22 09:00","1962","05","22","09:00","18.3","","0.0","","29","","11","","14","","25.0","","99.90","","","","","","Mostly Cloudy"
"1962-05-22 10:00","1962","05","22","10:00","17.8","","-1.1","","28","","11","","10","","25.0","","99.93","","","","","","Mostly Cloudy"
"1962-05-22 11:00","1962","05","22","11:00","18.9","","0.0","","28","","14","","8","","25.0","","99.91","","","","","","Mostly Cloudy"
"1962-05-22 12:00","1962","05","22","12:00","18.9","","0.0","","28","","","","0","","25.0","","99.90","","","","","","Mostly Cloudy"
"1962-05-22 13:00","1962","05","22","13:00","19.4","","0.6","","28","","14","","6","","25.0","","99.84","","","","","","Mostly Cloudy"
"1962-05-22 14:00","1962","05","22","14:00","20.6","","0.6","","26","","","","0","","25.0","","99.78","","","","","","Mostly Cloudy"
"1962-05-22 15:00","1962","05","22","15:00","21.7","","1.1","","25","","16","","19","","25.0","","99.77","","","","","","Mainly Clear"
"1962-05-22 16:00","1962","05","22","16:00","20.0","","0.0","","26","","14","","16","","24.1","","99.75","","","","","","Cloudy"
"1962-05-22 17:00","1962","05","22","17:00","20.6","","1.1","","27","","16","","11","","24.1","","99.73","","","","","","Cloudy"
"1962-05-22 18:00","1962","05","22","18:00","18.9","","-0.6","","27","","16","","13","","24.1","","99.69","","","","","","Mostly Cloudy"
"1962-05-22 19:00","1962","05","22","19:00","17.8","","-0.6","","29","","16","","10","","24.1","","99.69","","","","","","Mostly Cloudy"
"1962-05-22 20:00","1962","05","22","20:00","15.0","","0.0","","36","","16","","6","","24.1","","99.67","","","","","","Mainly Clear"
"1962-05-22 21:00","1962","05","22","21:00","13.9","","1.1","","41","","","","0","","24.1","","99.65","","","","","","Clear"
"1962-05-22 22:00","1962","05","22","22:00","11.7","","1.7","","51","","","","0","","24.1","","99.58","","","","","","Mainly Clear"
"1962-05-22 23:00","1962","05","22","23:00","11.1","","1.7","","52","","2","","5","","19.3","","99.53","","","","","","Mainly Clear"
"1962-05-23 00:00","1962","05","23","00:00","9.4","","2.2","","60","","36","","5","","19.3","","99.56","","","","","","Mainly Clear"
"1962-05-23 01:00","1962","05","23","01:00","8.3","","2.2","","66","","36","","8","","24.1","","99.58","","","","","","Mainly Clear"
"1962-05-23 02:00","1962","05","23","02:00","7.8","","1.1","","63","","2","","10","","24.1","","99.50","","","","","","Mainly Clear"
"1962-05-23 03:00","1962","05","23","03:00","6.7","","0.6","","65","","36","","10","","24.1","","99.48","","","","","","Clear"
"1962-05-23 04:00","1962","05","23","04:00","6.7","","1.1","","67","","2","","11","","24.1","","99.40","","","","","","Mainly Clear"
"1962-05-23 05:00","1962","05","23","05:00","7.2","","1.1","","66","","2","","10","","25.0","","99.40","","","","","","Mainly Clear"
"1962-05-23 06:00","1962","05","23","06:00","11.1","","3.3","","58","","7","","8","","24.1","","99.34","","","","","","Mostly Cloudy"
"1962-05-23 07:00","1962","05","23","07:00","13.3","","5.0","","57","","7","","13","","19.3","","99.32","","","","","","Mostly Cloudy"
"1962-05-23 08:00","1962","05","23","08:00","16.1","","3.3","","43","","9","","19","","19.3","","99.28","","","","","","Mostly Cloudy"
"1962-05-23 09:00","1962","05","23","09:00","17.8","","4.4","","42","","9","","18","","16.1","","99.21","","","","","","Mostly Cloudy"
"1962-05-23 10:00","1962","05","23","10:00","17.8","","6.7","","49","","11","","16","","12.9","","99.10","","","","","","Mostly Cloudy"
"1962-05-23 11:00","1962","05","23","11:00","18.9","","7.2","","47","","9","","16","","12.9","","99.02","","","","","","Mostly Cloudy"
"1962-05-23 12:00","1962","05","23","12:00","18.3","","8.3","","51","","9","","24","","12.9","","98.99","","","","","","Mostly Cloudy"
"1962-05-23 13:00","1962","05","23","13:00","19.4","","9.4","","53","","9","","24","","12.9","","98.71","","","","","","Mostly Cloudy"
"1962-05-23 14:00","1962","05","23","14:00","19.4","","9.4","","53","","7","","14","","11.3","","98.74","","","","","","Thunderstorms,Rain Showers"
"1962-05-23 15:00","1962","05","23","15:00","15.6","","11.1","","74","","7","","23","","11.3","","98.67","","","","","","Thunderstorms,Rain Showers"
"1962-05-23 16:00","1962","05","23","16:00","15.0","","11.7","","80","","7","","19","","19.3","","98.52","","","","","","Cloudy"
"1962-05-23 17:00","1962","05","23","17:00","17.2","","13.3","","77","","11","","19","","12.9","","98.40","","","","","","Mostly Cloudy"
"1962-05-23 18:00","1962","05","23","18:00","16.7","","12.8","","79","","14","","23","","19.3","","98.50","","","","","","Thunderstorms"
"1962-05-23 19:00","1962","05","23","19:00","13.9","","11.7","","88","","11","","8","","6.4","","98.34","","","","","","Haze"
"1962-05-23 20:00","1962","05","23","20:00","15.0","","12.8","","87","","9","","16","","4.0","","98.35","","","","","","Haze"
"1962-05-23 21:00","1962","05","23","21:00","15.6","","13.9","","88","","5","","19","","11.3","","98.35","","","","","","Cloudy"
"1962-05-23 22:00","1962","05","23","22:00","15.6","","13.9","","90","","7","","13","","11.3","","98.22","","","","","","Mostly Cloudy"
"1962-05-23 23:00","1962","05","23","23:00","15.6","","14.4","","92","","9","","16","","6.4","","98.12","","","","","","Thunderstorms,Rain Showers,Fog"
"1962-05-24 00:00","1962","05","24","00:00","15.0","","13.9","","93","","27","","5","","6.4","","98.21","","","","","","Fog"
"1962-05-24 01:00","1962","05","24","01:00","15.0","","14.4","","95","","","","0","","3.2","","98.20","","","","","","Fog"
"1962-05-24 02:00","1962","05","24","02:00","13.9","","13.3","","96","","18","","5","","0.8","","98.15","","","","","","Fog"
"1962-05-24 03:00","1962","05","24","03:00","13.3","","13.3","","98","","","","0","","0.2","","98.15","","","","","","Fog"
"1962-05-24 04:00","1962","05","24","04:00","12.2","","12.2","","100","","20","","5","","0.0","","98.14","","","","","","Fog"
"1962-05-24 05:00","1962","05","24","05:00","11.7","","11.7","","100","","18","","8","","0.2","","98.15","","","","","","Fog"
"1962-05-24 06:00","1962","05","24","06:00","11.7","","11.1","","98","","18","","6","","0.6","","98.15","","","","","","Fog"
"1962-05-24 07:00","1962","05","24","07:00","12.8","","12.2","","98","","18","","11","","1.6","","98.12","","","","","","Fog"
"1962-05-24 08:00","1962","05","24","08:00","17.2","","14.4","","83","","16","","18","","11.3","","98.04","","","","","","Mostly Cloudy"
"1962-05-24 09:00","1962","05","24","09:00","20.6","","13.9","","65","","20","","31","","19.3","","97.97","","","","","","Mostly Cloudy"
"1962-05-24 10:00","1962","05","24","10:00","20.0","","12.2","","60","","23","","29","","19.3","","97.94","","","","","","Rain Showers"
"1962-05-24 11:00","1962","05","24","11:00","20.0","","11.1","","57","","23","","40","","24.1","","97.91","","","","","","Rain Showers"
"1962-05-24 12:00","1962","05","24","12:00","18.3","","11.7","","65","","23","","35","","24.1","","97.98","","","","","","Cloudy"
"1962-05-24 13:00","1962","05","24","13:00","17.8","","11.1","","65","","25","","32","","24.1","","98.06","","","","","","Rain Showers"
"1962-05-24 14:00","1962","05","24","14:00","17.8","","11.1","","65","","23","","26","","24.1","","98.07","","","","","","Cloudy"
"1962-05-24 15:00","1962","05","24","15:00","18.9","","10.0","","57","","25","","39","","24.1","","98.10","","","","","","Cloudy"
"1962-05-24 16:00","1962","05","24","16:00","18.9","","9.4","","54","","27","","48","","24.1","","98.10","","","","","","Mostly Cloudy"
"1962-05-24 17:00","1962","05","24","17:00","17.2","","9.4","","60","","27","","42","","24.1","","98.22","","","","","","Cloudy"
"1962-05-24 18:00","1962","05","24","18:00","16.1","","9.4","","65","","27","","40","","24.1","","98.30","","","","","","Cloudy"
"1962-05-24 19:00","1962","05","24","19:00","16.1","","8.9","","63","","27","","42","","24.1","","98.40","","","","","","Mostly Cloudy"
"1962-05-24 20:00","1962","05","24","20:00","15.0","","9.4","","69","","27","","37","","24.1","","98.43","","","","","","Mostly Cloudy"
"1962-05-24 21:00","1962","05","24","21:00","15.6","","10.6","","73","","27","","29","","24.1","","98.54","","","","","","Cloudy"
"1962-05-24 22:00","1962","05","24","22:00","15.0","","10.6","","75","","27","","21","","24.1","","98.61","","","","","","Cloudy"
"1962-05-24 23:00","1962","05","24","23:00","15.6","","10.6","","73","","27","","23","","24.1","","98.62","","","","","","Cloudy"
"1962-05-25 00:00","1962","05","25","00:00","14.4","","11.1","","80","","29","","18","","24.1","","98.72","","","","","","Cloudy"
"1962-05-25 01:00","1962","05","25","01:00","13.9","","10.0","","76","","32","","26","","24.1","","98.73","","","","","","Cloudy"
"1962-05-25 02:00","1962","05","25","02:00","12.2","","7.8","","75","","27","","18","","24.1","","98.73","","","","","","Cloudy"
"1962-05-25 03:00","1962","05","25","03:00","11.1","","6.1","","70","","27","","21","","24.1","","98.84","","","","","","Mostly Cloudy"
"1962-05-25 04:00","1962","05","25","04:00","10.6","","5.6","","72","","27","","16","","25.0","","98.90","","","","","","Mainly Clear"
"1962-05-25 05:00","1962","05","25","05:00","9.4","","5.0","","74","","23","","5","","25.0","","99.01","","","","","","Mainly Clear"
"1962-05-25 06:00","1962","05","25","06:00","10.0","","5.6","","75","","20","","14","","25.0","","99.09","","","","","","Mainly Clear"
"1962-05-25 07:00","1962","05","25","07:00","11.1","","6.7","","74","","25","","14","","25.0","","99.10","","","","","","Mainly Clear"
"1962-05-25 08:00","1962","05","25","08:00","13.9","","6.1","","60","","29","","24","","25.0","","99.14","","","","","","Mainly Clear"
"1962-05-25 09:00","1962","05","25","09:00","15.0","","5.0","","52","","27","","29","","25.0","","99.21","","","","","","Mainly Clear"
"1962-05-25 10:00","1962","05","25","10:00","16.7","","6.1","","49","","27","","19","","25.0","","99.24","","","","","","Mostly Cloudy"
"1962-05-25 11:00","1962","05","25","11:00","17.8","","5.6","","45","","27","","24","","25.0","","99.22","","","","","","Mainly Clear"
"1962-05-25 12:00","1962","05","25","12:00","18.9","","6.7","","45","","27","","18","","25.0","","99.19","","","","","","Mostly Cloudy"
"1962-05-25 13:00","1962","05","25","13:00","20.6","","7.2","","42","","23","","24","","25.0","","99.14","","","","","","Mostly Cloudy"
"1962-05-25 14:00","1962","05","25","14:00","21.7","","7.8","","40","","23","","24","","25.0","","99.11","","","","","","Mostly Cloudy"
"1962-05-25 15:00","1962","05","25","15:00","21.7","","8.3","","42","","25","","24","","25.0","","99.00","","","","","","Mostly Cloudy"
"1962-05-25 16:00","1962","05","25","16:00","22.8","","7.8","","38","","25","","26","","25.0","","98.98","","","","","","Mainly Clear"
"1962-05-25 17:00","1962","05","25","17:00","22.8","","8.3","","39","","25","","26","","25.0","","98.95","","","","","","Mainly Clear"
"1962-05-25 18:00","1962","05","25","18:00","21.7","","8.9","","45","","25","","19","","25.0","","98.98","","","","","","Mainly Clear"
"1962-05-25 19:00","1962","05","25","19:00","22.2","","11.7","","51","","25","","14","","25.0","","98.98","","","","","","Mainly Clear"
"1962-05-25 20:00","1962","05","25","20:00","19.4","","8.9","","51","","25","","13","","25.0","","98.98","","","","","","Mainly Clear"
"1962-05-25 21:00","1962","05","25","21:00","17.8","","8.9","","56","","25","","10","","25.0","","99.02","","","","","","Mainly Clear"
"1962-05-25 22:00","1962","05","25","22:00","16.7","","8.3","","58","","36","","16","","25.0","","99.08","","","","","","Mainly Clear"
"1962-05-25 23:00","1962","05","25","23:00","13.3","","8.3","","71","","34","","16","","25.0","","99.14","","","","","","Mainly Clear"
"1962-05-26 00:00","1962","05","26","00:00","11.7","","7.8","","76","","34","","19","","25.0","","99.16","","","","","","Mainly Clear"
"1962-05-26 01:00","1962","05","26","01:00","12.2","","5.6","","65","","34","","18","","25.0","","99.15","","","","","","Mainly Clear"
"1962-05-26 02:00","1962","05","26","02:00","11.1","","3.9","","62","","34","","18","","25.0","","99.15","","","","","","Clear"
"1962-05-26 03:00","1962","05","26","03:00","10.0","","3.3","","64","","32","","8","","25.0","","99.21","","","","","","Mainly Clear"
"1962-05-26 04:00","1962","05","26","04:00","10.0","","3.3","","64","","","","0","","25.0","","99.25","","","","","","Mostly Cloudy"
"1962-05-26 05:00","1962","05","26","05:00","11.1","","3.3","","58","","32","","16","","25.0","","99.30","","","","","","Mostly Cloudy"
"1962-05-26 06:00","1962","05","26","06:00","11.1","","2.2","","53","","32","","10","","25.0","","99.41","","","","","","Mainly Clear"
"1962-05-26 07:00","1962","05","26","07:00","11.1","","2.8","","57","","32","","16","","25.0","","99.49","","","","","","Mainly Clear"
"1962-05-26 08:00","1962","05","26","08:00","12.8","","4.4","","56","","34","","8","","25.0","","99.54","","","","","","Mostly Cloudy"
"1962-05-26 09:00","1962","05","26","09:00","15.0","","4.4","","49","","32","","13","","25.0","","99.55","","","","","","Mostly Cloudy"
"1962-05-26 10:00","1962","05","26","10:00","16.1","","3.9","","44","","34","","16","","25.0","","99.55","","","","","","Mainly Clear"
"1962-05-26 11:00","1962","05","26","11:00","17.2","","3.3","","39","","32","","19","","25.0","","99.53","","","","","","Mainly Clear"
"1962-05-26 12:00","1962","05","26","12:00","17.8","","2.8","","37","","32","","16","","25.0","","99.52","","","","","","Mostly Cloudy"
"1962-05-26 13:00","1962","05","26","13:00","18.3","","3.3","","36","","32","","16","","25.0","","99.47","","","","","","Mostly Cloudy"
"1962-05-26 14:00","1962","05","26","14:00","20.0","","3.9","","35","","36","","16","","25.0","","99.46","","","","","","Mostly Cloudy"
"1962-05-26 15:00","1962","05","26","15:00","19.4","","3.9","","35","","32","","14","","25.0","","99.44","","","","","","Mostly Cloudy"
"1962-05-26 16:00","1962","05","26","16:00","18.9","","5.0","","41","","36","","16","","25.0","","99.41","","","","","","Mostly Cloudy"
"1962-05-26 17:00","1962","05","26","17:00","18.9","","4.4","","39","","2","","19","","25.0","","99.44","","","","","","Mostly Cloudy"
"1962-05-26 18:00","1962","05","26","18:00","16.7","","3.9","","42","","36","","24","","25.0","","99.47","","","","","","Mostly Cloudy"
"1962-05-26 19:00","1962","05","26","19:00","16.1","","4.4","","46","","36","","14","","25.0","","99.49","","","","","","Mostly Cloudy"
"1962-05-26 20:00","1962","05","26","20:00","13.9","","3.3","","48","","36","","8","","25.0","","99.53","","","","","","Mainly Clear"
"1962-05-26 21:00","1962","05","26","21:00","11.7","","3.3","","56","","36","","10","","25.0","","99.57","","","","","","Mainly Clear"
"1962-05-26 22:00","1962","05","26","22:00","11.7","","2.8","","54","","36","","13","","25.0","","99.61","","","","","","Mainly Clear"
"1962-05-26 23:00","1962","05","26","23:00","10.0","","3.3","","64","","36","","10","","25.0","","99.64","","","","","","Mainly Clear"
"1962-05-27 00:00","1962","05","27","00:00","8.9","","2.8","","66","","36","","11","","25.0","","99.64","","","","","","Mainly Clear"
"1962-05-27 01:00","1962","05","27","01:00","8.9","","3.9","","72","","34","","16","","25.0","","99.62","","","","","","Mainly Clear"
"1962-05-27 02:00","1962","05","27","02:00","7.8","","3.3","","75","","34","","16","","25.0","","99.68","","","","","","Mainly Clear"
"1962-05-27 03:00","1962","05","27","03:00","6.7","","2.8","","76","","34","","11","","25.0","","99.75","","","","","","Mainly Clear"
"1962-05-27 04:00","1962","05","27","04:00","6.1","","4.4","","89","","36","","14","","25.0","","99.79","","","","","","Mainly Clear"
"1962-05-27 05:00","1962","05","27","05:00","5.6","","2.8","","84","","36","","8","","25.0","","99.78","","","","","","Mainly Clear"
"1962-05-27 06:00","1962","05","27","06:00","7.8","","3.9","","77","","32","","6","","25.0","","99.91","","","","","","Mainly Clear"
"1962-05-27 07:00","1962","05","27","07:00","9.4","","5.0","","73","","34","","5","","25.0","","99.99","","","","","","Mainly Clear"
"1962-05-27 08:00","1962","05","27","08:00","13.3","","3.3","","50","","7","","14","","25.0","","99.99","","","","","","Mainly Clear"
"1962-05-27 09:00","1962","05","27","09:00","15.0","","1.1","","39","","14","","18","","25.0","","99.97","","","","","","Mainly Clear"
"1962-05-27 10:00","1962","05","27","10:00","15.6","","3.3","","44","","11","","16","","25.0","","99.93","","","","","","Mostly Cloudy"
"1962-05-27 11:00","1962","05","27","11:00","16.7","","0.6","","33","","11","","16","","25.0","","99.94","","","","","","Mostly Cloudy"
"1962-05-27 12:00","1962","05","27","12:00","16.7","","0.6","","33","","11","","19","","25.0","","99.90","","","","","","Cloudy"
"1962-05-27 13:00","1962","05","27","13:00","17.2","","0.6","","33","","14","","21","","25.0","","99.89","","","","","","Cloudy"
"1962-05-27 14:00","1962","05","27","14:00","17.2","","0.6","","33","","14","","23","","25.0","","99.90","","","","","","Cloudy"
"1962-05-27 15:00","1962","05","27","15:00","17.8","","0.6","","31","","14","","19","","25.0","","99.90","","","","","","Cloudy"
"1962-05-27 16:00","1962","05","27","16:00","17.8","","1.1","","32","","16","","19","","25.0","","99.82","","","","","","Cloudy"
"1962-05-27 17:00","1962","05","27","17:00","16.1","","-0.6","","32","","14","","19","","25.0","","99.80","","","","","","Cloudy"
"1962-05-27 18:00","1962","05","27","18:00","15.6","","0.6","","36","","16","","16","","25.0","","99.83","","","","","","Cloudy"
"1962-05-27 19:00","1962","05","27","19:00","15.6","","1.1","","37","","9","","6","","25.0","","99.77","","","","","","Cloudy"
"1962-05-27 20:00","1962","05","27","20:00","13.9","","1.7","","44","","9","","6","","25.0","","99.77","","","","","","Mostly Cloudy"
"1962-05-27 21:00","1962","05","27","21:00","13.3","","2.2","","47","","5","","5","","25.0","","99.75","","","","","","Mostly Cloudy"
"1962-05-27 22:00","1962","05","27","22:00","12.8","","2.2","","48","","5","","5","","25.0","","99.77","","","","","","Mostly Cloudy"
"1962-05-27 23:00","1962","05","27","23:00","11.1","","3.3","","58","","5","","6","","24.1","","99.80","","","","","","Cloudy"
"1962-05-28 00:00","1962","05","28","00:00","9.4","","2.8","","63","","5","","3","","24.1","","99.80","","","","","","Mostly Cloudy"
"1962-05-28 01:00","1962","05","28","01:00","8.9","","3.3","","68","","36","","10","","25.0","","99.80","","","","","","Mainly Clear"
"1962-05-28 02:00","1962","05","28","02:00","8.3","","3.3","","69","","36","","13","","25.0","","99.82","","","","","","Mostly Cloudy"
"1962-05-28 03:00","1962","05","28","03:00","9.4","","3.9","","69","","36","","11","","25.0","","99.84","","","","","","Mostly Cloudy"
"1962-05-28 04:00","1962","05","28","04:00","8.9","","3.3","","68","","9","","6","","25.0","","99.81","","","","","","Mostly Cloudy"
"1962-05-28 05:00","1962","05","28","05:00","11.1","","4.4","","64","","5","","6","","25.0","","99.90","","","","","","Mostly Cloudy"
"1962-05-28 06:00","1962","05","28","06:00","11.7","","4.4","","61","","14","","3","","25.0","","99.97","","","","","","Mostly Cloudy"
"1962-05-28 07:00","1962","05","28","07:00","12.2","","5.6","","65","","9","","13","","25.0","","100.00","","","","","","Mostly Cloudy"
"1962-05-28 08:00","1962","05","28","08:00","15.6","","5.6","","51","","9","","11","","25.0","","99.91","","","","","","Mainly Clear"
"1962-05-28 09:00","1962","05","28","09:00","17.2","","5.0","","44","","9","","21","","25.0","","99.89","","","","","","Mainly Clear"
"1962-05-28 10:00","1962","05","28","10:00","18.3","","3.9","","38","","11","","24","","25.0","","99.94","","","","","","Mostly Cloudy"
"1962-05-28 11:00","1962","05","28","11:00","19.4","","5.0","","38","","11","","19","","25.0","","99.93","","","","","","Mostly Cloudy"
"1962-05-28 12:00","1962","05","28","12:00","20.6","","6.7","","40","","11","","16","","25.0","","99.92","","","","","","Mostly Cloudy"
"1962-05-28 13:00","1962","05","28","13:00","21.7","","6.7","","37","","11","","16","","25.0","","99.91","","","","","","Mostly Cloudy"
"1962-05-28 14:00","1962","05","28","14:00","21.7","","8.3","","42","","11","","19","","19.3","","99.89","","","","","","Mostly Cloudy"
"1962-05-28 15:00","1962","05","28","15:00","22.8","","9.4","","42","","11","","16","","19.3","","99.86","","","","","","Mostly Cloudy"
"1962-05-28 16:00","1962","05","28","16:00","21.7","","8.9","","43","","11","","23","","19.3","","99.93","","","","","","Mostly Cloudy"
"1962-05-28 17:00","1962","05","28","17:00","20.0","","9.4","","50","","16","","19","","19.3","","99.96","","","","","","Mostly Cloudy"
"1962-05-28 18:00","1962","05","28","18:00","18.9","","10.0","","55","","16","","18","","19.3","","99.95","","","","","","Mostly Cloudy"
"1962-05-28 19:00","1962","05","28","19:00","17.8","","10.0","","61","","18","","16","","19.3","","99.99","","","","","","Mainly Clear"
"1962-05-28 20:00","1962","05","28","20:00","17.2","","10.6","","64","","18","","16","","19.3","","100.02","","","","","","Mostly Cloudy"
"1962-05-28 21:00","1962","05","28","21:00","16.1","","10.0","","67","","18","","16","","16.1","","100.07","","","","","","Mostly Cloudy"
"1962-05-28 22:00","1962","05","28","22:00","14.4","","9.4","","72","","18","","13","","16.1","","100.06","","","","","","Mainly Clear"
"1962-05-28 23:00","1962","05","28","23:00","12.8","","8.3","","75","","18","","14","","16.1","","100.08","","","","","","Mainly Clear"
"1962-05-29 00:00","1962","05","29","00:00","12.2","","8.3","","77","","16","","11","","12.9","","100.08","","","","","","Mainly Clear"
"1962-05-29 01:00","1962","05","29","01:00","12.2","","9.4","","84","","14","","6","","8.0","","100.04","","","","","","Haze"
"1962-05-29 02:00","1962","05","29","02:00","11.7","","8.9","","82","","16","","6","","8.0","","100.04","","","","","","Haze"
"1962-05-29 03:00","1962","05","29","03:00","12.2","","8.9","","80","","14","","8","","8.0","","100.08","","","","","","Haze"
"1962-05-29 04:00","1962","05","29","04:00","13.3","","8.9","","74","","14","","11","","9.7","","100.10","","","","","","Haze"
"1962-05-29 05:00","1962","05","29","05:00","12.8","","8.9","","77","","14","","13","","6.4","","100.16","","","","","","Haze"
"1962-05-29 06:00","1962","05","29","06:00","13.3","","8.9","","74","","14","","14","","8.0","","100.15","","","","","","Haze"
"1962-05-29 07:00","1962","05","29","07:00","13.3","","8.9","","74","","14","","14","","11.3","","100.19","","","","","","Cloudy"
"1962-05-29 08:00","1962","05","29","08:00","15.6","","8.9","","65","","14","","14","","11.3","","100.23","","","","","","Cloudy"
"1962-05-29 09:00","1962","05","29","09:00","17.2","","9.4","","60","","16","","19","","16.1","","100.18","","","","","","Mainly Clear"
"1962-05-29 10:00","1962","05","29","10:00","18.3","","9.4","","56","","16","","19","","19.3","","100.14","","","","","","Mainly Clear"
"1962-05-29 11:00","1962","05","29","11:00","20.0","","10.6","","55","","16","","21","","19.3","","100.10","","","","","","Mainly Clear"
"1962-05-29 12:00","1962","05","29","12:00","21.1","","11.1","","53","","16","","24","","19.3","","100.09","","","","","","Mainly Clear"
"1962-05-29 13:00","1962","05","29","13:00","22.8","","11.7","","49","","16","","19","","16.1","","100.07","","25","","","","Mainly Clear"
"1962-05-29 14:00","1962","05","29","14:00","24.4","","13.3","","49","","16","","19","","12.9","","99.99","","27","","","","Mainly Clear"
"1962-05-29 15:00","1962","05","29","15:00","24.4","","12.8","","48","","16","","23","","12.9","","99.96","","27","","","","Mainly Clear"
"1962-05-29 16:00","1962","05","29","16:00","23.9","","12.8","","50","","16","","18","","12.9","","99.93","","27","","","","Mainly Clear"
"1962-05-29 17:00","1962","05","29","17:00","23.3","","13.3","","53","","14","","16","","12.9","","99.90","","26","","","","Mainly Clear"
"1962-05-29 18:00","1962","05","29","18:00","22.8","","12.8","","53","","11","","13","","12.9","","99.89","","25","","","","Mostly Cloudy"
"1962-05-29 19:00","1962","05","29","19:00","21.7","","12.2","","55","","11","","18","","11.3","","99.86","","","","","","Mostly Cloudy"
"1962-05-29 20:00","1962","05","29","20:00","20.0","","11.7","","58","","11","","6","","11.3","","99.85","","","","","","Mainly Clear"
"1962-05-29 21:00","1962","05","29","21:00","17.2","","10.6","","64","","16","","3","","12.9","","99.91","","","","","","Mainly Clear"
"1962-05-29 22:00","1962","05","29","22:00","17.2","","10.6","","66","","14","","5","","12.9","","99.89","","","","","","Mainly Clear"
"1962-05-29 23:00","1962","05","29","23:00","15.6","","10.6","","71","","18","","5","","12.9","","99.89","","","","","","Mainly Clear"
"1962-05-30 00:00","1962","05","30","00:00","16.1","","11.1","","73","","","","0","","12.9","","99.88","","","","","","Mainly Clear"
"1962-05-30 01:00","1962","05","30","01:00","16.1","","10.6","","71","","","","0","","12.9","","99.87","","","","","","Mainly Clear"
"1962-05-30 02:00","1962","05","30","02:00","16.1","","12.2","","77","","16","","6","","12.9","","99.83","","","","","","Mainly Clear"
"1962-05-30 03:00","1962","05","30","03:00","15.6","","11.7","","79","","16","","8","","9.7","","99.79","","","","","","Haze"
"1962-05-30 04:00","1962","05","30","04:00","15.6","","12.2","","81","","16","","10","","9.7","","99.82","","","","","","Haze"
"1962-05-30 05:00","1962","05","30","05:00","15.0","","12.2","","83","","14","","5","","4.8","","99.84","","","","","","Haze"
"1962-05-30 06:00","1962","05","30","06:00","15.6","","12.8","","84","","14","","8","","4.0","","99.84","","","","","","Haze"
"1962-05-30 07:00","1962","05","30","07:00","17.8","","14.4","","80","","14","","10","","4.0","","99.81","","","","","","Haze"
"1962-05-30 08:00","1962","05","30","08:00","20.6","","15.6","","74","","20","","18","","6.4","","99.87","","25","","","","Haze"
"1962-05-30 09:00","1962","05","30","09:00","22.8","","16.1","","66","","20","","19","","9.7","","99.86","","27","","","","Haze"
"1962-05-30 10:00","1962","05","30","10:00","25.6","","17.2","","60","","25","","16","","11.3","","99.80","","31","","","","Mainly Clear"
"1962-05-30 11:00","1962","05","30","11:00","26.7","","17.8","","59","","16","","19","","11.3","","99.75","","33","","","","Mainly Clear"
"1962-05-30 12:00","1962","05","30","12:00","27.2","","16.7","","52","","16","","26","","9.7","","99.68","","32","","","","Haze"
"1962-05-30 13:00","1962","05","30","13:00","27.2","","17.2","","55","","16","","26","","9.7","","99.65","","33","","","","Haze"
"1962-05-30 14:00","1962","05","30","14:00","27.8","","17.2","","53","","16","","26","","8.0","","99.58","","33","","","","Haze"
"1962-05-30 15:00","1962","05","30","15:00","27.2","","17.8","","56","","16","","26","","11.3","","99.54","","33","","","","Mostly Cloudy"
"1962-05-30 16:00","1962","05","30","16:00","28.9","","16.1","","45","","23","","26","","16.1","","99.51","","34","","","","Mostly Cloudy"
"1962-05-30 17:00","1962","05","30","17:00","27.8","","17.2","","53","","23","","26","","19.3","","99.45","","33","","","","Mostly Cloudy"
"1962-05-30 18:00","1962","05","30","18:00","27.8","","15.0","","45","","23","","19","","25.0","","99.44","","32","","","","Mainly Clear"
"1962-05-30 19:00","1962","05","30","19:00","26.1","","15.0","","51","","25","","16","","25.0","","99.42","","30","","","","Mainly Clear"
"1962-05-30 20:00","1962","05","30","20:00","24.4","","15.6","","58","","20","","14","","19.3","","99.42","","29","","","","Mostly Cloudy"
"1962-05-30 21:00","1962","05","30","21:00","23.9","","16.7","","63","","20","","14","","19.3","","99.44","","29","","","","Mostly Cloudy"
"1962-05-30 22:00","1962","05","30","22:00","23.3","","16.7","","66","","18","","13","","24.1","","99.41","","28","","","","Mostly Cloudy"
"1962-05-30 23:00","1962","05","30","23:00","22.8","","17.2","","70","","20","","14","","24.1","","99.41","","28","","","","Mostly Cloudy"
"1962-05-31 00:00","1962","05","31","00:00","21.1","","16.7","","76","","18","","16","","16.1","","99.41","","26","","","","Mainly Clear"
"1962-05-31 01:00","1962","05","31","01:00","20.0","","17.2","","85","","18","","14","","12.9","","99.38","","25","","","","Mainly Clear"
"1962-05-31 02:00","1962","05","31","02:00","18.9","","16.7","","86","","20","","13","","8.0","","99.36","","","","","","Haze"
"1962-05-31 03:00","1962","05","31","03:00","18.9","","16.7","","86","","20","","13","","8.0","","99.34","","","","","","Haze"
"1962-05-31 04:00","1962","05","31","04:00","18.3","","16.7","","90","","18","","11","","6.4","","99.32","","","","","","Fog"
"1962-05-31 05:00","1962","05","31","05:00","18.3","","16.1","","88","","18","","11","","4.8","","99.33","","","","","","Fog"
"1962-05-31 06:00","1962","05","31","06:00","18.9","","16.1","","84","","23","","14","","6.4","","99.33","","","","","","Haze"
"1962-05-31 07:00","1962","05","31","07:00","19.4","","17.2","","88","","23","","19","","9.7","","99.32","","","","","","Haze"
"1962-05-31 08:00","1962","05","31","08:00","21.1","","18.3","","83","","23","","23","","8.0","","99.31","","27","","","","Haze"
"1962-05-31 09:00","1962","05","31","09:00","20.0","","17.8","","86","","23","","34","","11.3","","99.34","","26","","","","Thunderstorms,Rain Showers"
"1962-05-31 10:00","1962","05","31","10:00","20.0","","17.8","","86","","20","","16","","12.9","","99.32","","26","","","","Mostly Cloudy"
"1962-05-31 11:00","1962","05","31","11:00","20.6","","18.3","","87","","23","","3","","11.3","","99.37","","27","","","","Rain Showers"
"1962-05-31 12:00","1962","05","31","12:00","21.7","","17.8","","78","","18","","6","","19.3","","99.22","","28","","","","Mostly Cloudy"
"1962-05-31 13:00","1962","05","31","13:00","23.9","","17.2","","66","","18","","24","","19.3","","99.15","","29","","","","Mostly Cloudy"
"1962-05-31 14:00","1962","05","31","14:00","26.1","","17.8","","61","","20","","31","","16.1","","99.09","","32","","","","Mostly Cloudy"
"1962-05-31 15:00","1962","05","31","15:00","27.2","","17.2","","54","","20","","29","","16.1","","99.05","","33","","","","Mainly Clear"
"1962-05-31 16:00","1962","05","31","16:00","27.8","","16.7","","52","","23","","27","","16.1","","98.96","","33","","","","Mainly Clear"
"1962-05-31 17:00","1962","05","31","17:00","25.0","","18.3","","66","","23","","23","","16.1","","99.00","","31","","","","Thunderstorms,Rain Showers"
"1962-05-31 18:00","1962","05","31","18:00","21.7","","15.0","","66","","27","","18","","16.1","","99.07","","26","","","","Mostly Cloudy"
"1962-05-31 19:00","1962","05","31","19:00","21.7","","13.3","","58","","25","","32","","24.1","","98.99","","25","","","","Mostly Cloudy"
"1962-05-31 20:00","1962","05","31","20:00","18.9","","13.3","","71","","18","","16","","25.0","","99.06","","","","","","Mostly Cloudy"
"1962-05-31 21:00","1962","05","31","21:00","18.3","","12.8","","71","","23","","14","","25.0","","99.05","","","","","","Mostly Cloudy"
"1962-05-31 22:00","1962","05","31","22:00","18.3","","12.8","","71","","25","","19","","25.0","","99.07","","","","","","Mainly Clear"
"1962-05-31 23:00","1962","05","31","23:00","16.7","","12.8","","79","","23","","16","","24.1","","99.08","","","","","","Clear"
