"Station Name","TORONTO LESTER B. PEARSON INT'L A"
"Province","ONTARIO"
"Latitude","43.68"
"Longitude","-79.63"
"Elevation","173.40"
"Climate Identifier","6158733"
"WMO Identifier","71624"
"TC Identifier","YYZ"
"All times are specified in Local Standard Time (LST). Add 1 hour to adjust for Daylight Saving Time where and when it is observed."

"Legend"
"E","Estimated"
"M","Missing"
"NA","Not Available"

"Date/Time","Year","Month","Day","Time","Temp (°C)","Temp Flag","Dew Point Temp (°C)","Dew Point Temp Flag","Rel Hum (%)","Rel Hum Flag","Wind Dir (10s deg)","Wind Dir Flag","Wind Spd (km/h)","Wind Spd Flag","Visibility (km)","Visibility Flag","Stn Press (kPa)","Stn Press Flag","Hmdx","Hmdx Flag","Wind Chill","Wind Chill Flag","Weather"
"1956-09-01 00:00","1956","09","01","00:00","17.2","","17.2","","100","","","","0","","0.2","","99.34","","","","","","Fog"
"1956-09-01 01:00","1956","09","01","01:00","16.7","","16.7","","100","","","","0","","0.0","","99.34","","","","","","Fog"
"1956-09-01 02:00","1956","09","01","02:00","17.2","","17.2","","100","","","","0","","0.0","","99.33","","","","","","Fog"
"1956-09-01 03:00","1956","09","01","03:00","17.8","","17.8","","100","","9","","2","","0.0","","99.28","","","","","","Fog"
"1956-09-01 04:00","1956","09","01","04:00","17.8","","17.8","","100","","5","","5","","0.0","","99.22","","","","","","Fog"
"1956-09-01 05:00","1956","09","01","05:00","17.8","","17.8","","100","","14","","6","","0.4","","99.27","","","","","","Fog"
"1956-09-01 06:00","1956","09","01","06:00","18.3","","18.3","","100","","11","","10","","0.2","","99.37","","","","","","Rain Showers,Fog"
"1956-09-01 07:00","1956","09","01","07:00","18.9","","18.9","","100","","23","","6","","0.8","","99.39","","","","","","Rain Showers,Fog"
"1956-09-01 08:00","1956","09","01","08:00","18.9","","18.9","","100","","23","","5","","2.8","","99.37","","","","","","Fog"
"1956-09-01 09:00","1956","09","01","09:00","21.1","","19.4","","90","","14","","6","","4.8","","99.36","","28","","","","Fog"
"1956-09-01 10:00","1956","09","01","10:00","22.8","","20.6","","87","","18","","13","","6.4","","99.34","","31","","","","Fog"
"1956-09-01 11:00","1956","09","01","11:00","25.0","","20.0","","74","","18","","14","","9.7","","99.35","","33","","","","Haze"
"1956-09-01 12:00","1956","09","01","12:00","25.6","","20.0","","72","","18","","18","","12.9","","99.35","","33","","","","Mostly Cloudy"
"1956-09-01 13:00","1956","09","01","13:00","25.6","","20.0","","72","","16","","21","","12.9","","99.34","","33","","","","Mostly Cloudy"
"1956-09-01 14:00","1956","09","01","14:00","26.1","","20.0","","69","","16","","23","","12.9","","99.27","","34","","","","Mainly Clear"
"1956-09-01 15:00","1956","09","01","15:00","25.6","","20.0","","72","","14","","21","","16.1","","99.19","","33","","","","Mainly Clear"
"1956-09-01 16:00","1956","09","01","16:00","24.4","","20.0","","76","","14","","19","","16.1","","99.14","","32","","","","Mainly Clear"
"1956-09-01 17:00","1956","09","01","17:00","23.3","","19.4","","79","","14","","16","","16.1","","99.17","","30","","","","Mostly Cloudy"
"1956-09-01 18:00","1956","09","01","18:00","22.2","","19.4","","84","","11","","10","","16.1","","99.24","","29","","","","Cloudy"
"1956-09-01 19:00","1956","09","01","19:00","21.1","","18.9","","87","","9","","8","","9.7","","99.24","","28","","","","Smoke,Haze"
"1956-09-01 20:00","1956","09","01","20:00","21.1","","19.4","","90","","25","","3","","11.3","","99.28","","28","","","","Rain Showers"
"1956-09-01 21:00","1956","09","01","21:00","20.0","","19.4","","97","","36","","5","","6.4","","99.25","","27","","","","Rain Showers,Fog"
"1956-09-01 22:00","1956","09","01","22:00","20.0","","19.4","","97","","7","","5","","6.4","","99.25","","27","","","","Rain Showers,Fog"
"1956-09-01 23:00","1956","09","01","23:00","20.0","","20.0","","100","","23","","3","","2.8","","99.29","","28","","","","Rain Showers,Fog"
"1956-09-02 00:00","1956","09","02","00:00","17.8","","15.6","","87","","29","","23","","19.3","","99.32","","","","","","Mostly Cloudy"
"1956-09-02 01:00","1956","09","02","01:00","17.8","","16.1","","90","","32","","13","","24.1","","99.32","","","","","","Mostly Cloudy"
"1956-09-02 02:00","1956","09","02","02:00","17.2","","15.6","","90","","32","","13","","24.1","","99.36","","","","","","Mostly Cloudy"
"1956-09-02 03:00","1956","09","02","03:00","17.2","","15.0","","87","","32","","8","","24.1","","99.37","","","","","","Rain Showers"
"1956-09-02 04:00","1956","09","02","04:00","16.7","","15.0","","90","","27","","6","","25.0","","99.43","","","","","","Mostly Cloudy"
"1956-09-02 05:00","1956","09","02","05:00","16.1","","15.0","","93","","18","","6","","25.0","","99.50","","","","","","Mostly Cloudy"
"1956-09-02 06:00","1956","09","02","06:00","16.7","","15.6","","93","","18","","6","","25.0","","99.65","","","","","","Mostly Cloudy"
"1956-09-02 07:00","1956","09","02","07:00","17.8","","15.6","","87","","23","","13","","25.0","","99.67","","","","","","Mostly Cloudy"
"1956-09-02 08:00","1956","09","02","08:00","19.4","","15.6","","78","","27","","19","","25.0","","99.74","","","","","","Mainly Clear"
"1956-09-02 09:00","1956","09","02","09:00","20.0","","13.9","","68","","29","","16","","25.0","","99.78","","","","","","Mainly Clear"
"1956-09-02 10:00","1956","09","02","10:00","21.7","","13.3","","59","","27","","23","","25.0","","99.80","","25","","","","Mostly Cloudy"
"1956-09-02 11:00","1956","09","02","11:00","22.2","","13.3","","57","","23","","16","","25.0","","99.81","","25","","","","Mostly Cloudy"
"1956-09-02 12:00","1956","09","02","12:00","20.6","","12.8","","61","","23","","23","","25.0","","99.82","","","","","","Mostly Cloudy"
"1956-09-02 13:00","1956","09","02","13:00","21.1","","14.4","","66","","23","","19","","25.0","","99.83","","25","","","","Mostly Cloudy"
"1956-09-02 14:00","1956","09","02","14:00","21.1","","13.3","","61","","27","","16","","25.0","","99.83","","","","","","Mostly Cloudy"
"1956-09-02 15:00","1956","09","02","15:00","22.8","","12.8","","53","","29","","26","","32.2","","99.81","","25","","","","Mostly Cloudy"
"1956-09-02 16:00","1956","09","02","16:00","23.3","","12.8","","52","","29","","26","","32.2","","99.81","","26","","","","Mostly Cloudy"
"1956-09-02 17:00","1956","09","02","17:00","23.3","","12.8","","52","","29","","16","","48.3","","99.85","","26","","","","Mainly Clear"
"1956-09-02 18:00","1956","09","02","18:00","21.7","","12.8","","57","","29","","10","","32.2","","99.91","","","","","","Mainly Clear"
"1956-09-02 19:00","1956","09","02","19:00","20.6","","12.2","","59","","29","","10","","32.2","","99.96","","","","","","Clear"
"1956-09-02 20:00","1956","09","02","20:00","17.2","","12.8","","75","","29","","6","","25.0","","100.07","","","","","","Clear"
"1956-09-02 21:00","1956","09","02","21:00","16.1","","12.8","","81","","","","0","","25.0","","100.12","","","","","","Clear"
"1956-09-02 22:00","1956","09","02","22:00","15.6","","12.2","","81","","27","","5","","25.0","","100.17","","","","","","Clear"
"1956-09-02 23:00","1956","09","02","23:00","14.4","","12.2","","87","","27","","3","","25.0","","100.18","","","","","","Clear"
"1956-09-03 00:00","1956","09","03","00:00","13.9","","11.7","","87","","27","","5","","25.0","","100.20","","","","","","Clear"
"1956-09-03 01:00","1956","09","03","01:00","13.3","","11.7","","90","","29","","5","","25.0","","100.21","","","","","","Clear"
"1956-09-03 02:00","1956","09","03","02:00","12.8","","11.7","","93","","36","","3","","25.0","","100.22","","","","","","Clear"
"1956-09-03 03:00","1956","09","03","03:00","12.2","","11.1","","93","","","","0","","25.0","","100.25","","","","","","Clear"
"1956-09-03 04:00","1956","09","03","04:00","12.2","","11.1","","93","","","","0","","25.0","","100.26","","","","","","Clear"
"1956-09-03 05:00","1956","09","03","05:00","11.7","","10.6","","93","","32","","3","","25.0","","100.32","","","","","","Clear"
"1956-09-03 06:00","1956","09","03","06:00","12.2","","11.1","","93","","","","0","","25.0","","100.36","","","","","","Clear"
"1956-09-03 07:00","1956","09","03","07:00","13.9","","12.2","","90","","","","0","","25.0","","100.39","","","","","","Clear"
"1956-09-03 08:00","1956","09","03","08:00","18.9","","15.0","","78","","18","","3","","24.1","","100.42","","","","","","Clear"
"1956-09-03 09:00","1956","09","03","09:00","20.6","","13.9","","66","","18","","5","","24.1","","100.42","","","","","","Clear"
"1956-09-03 10:00","1956","09","03","10:00","22.8","","14.4","","59","","20","","11","","25.0","","100.41","","26","","","","Mainly Clear"
"1956-09-03 11:00","1956","09","03","11:00","22.8","","15.6","","64","","16","","10","","24.1","","100.39","","27","","","","Mainly Clear"
"1956-09-03 12:00","1956","09","03","12:00","23.3","","13.9","","56","","16","","16","","19.3","","100.36","","27","","","","Mainly Clear"
"1956-09-03 13:00","1956","09","03","13:00","24.4","","14.4","","54","","16","","16","","25.0","","100.34","","28","","","","Mainly Clear"
"1956-09-03 14:00","1956","09","03","14:00","23.9","","14.4","","56","","18","","21","","25.0","","100.28","","28","","","","Mainly Clear"
"1956-09-03 15:00","1956","09","03","15:00","23.9","","15.0","","58","","18","","23","","25.0","","100.23","","28","","","","Mainly Clear"
"1956-09-03 16:00","1956","09","03","16:00","22.8","","15.0","","62","","16","","14","","25.0","","100.19","","27","","","","Mainly Clear"
"1956-09-03 17:00","1956","09","03","17:00","22.8","","15.0","","62","","14","","16","","24.1","","100.15","","27","","","","Clear"
"1956-09-03 18:00","1956","09","03","18:00","20.6","","16.1","","76","","14","","13","","24.1","","100.13","","25","","","","Clear"
"1956-09-03 19:00","1956","09","03","19:00","18.9","","15.0","","78","","16","","8","","24.1","","100.10","","","","","","Clear"
"1956-09-03 20:00","1956","09","03","20:00","17.8","","15.0","","84","","16","","8","","24.1","","100.07","","","","","","Clear"
"1956-09-03 21:00","1956","09","03","21:00","16.1","","13.3","","84","","18","","5","","24.1","","100.11","","","","","","Clear"
"1956-09-03 22:00","1956","09","03","22:00","16.1","","13.9","","87","","23","","5","","24.1","","100.12","","","","","","Clear"
"1956-09-03 23:00","1956","09","03","23:00","15.6","","13.9","","90","","25","","3","","24.1","","100.17","","","","","","Clear"
"1956-09-04 00:00","1956","09","04","00:00","13.9","","12.8","","93","","27","","3","","16.1","","100.15","","","","","","Clear"
"1956-09-04 01:00","1956","09","04","01:00","13.3","","12.8","","96","","36","","3","","4.8","","100.12","","","","","","Fog"
"1956-09-04 02:00","1956","09","04","02:00","12.8","","12.8","","100","","32","","3","","3.2","","100.10","","","","","","Fog"
"1956-09-04 03:00","1956","09","04","03:00","12.8","","12.8","","100","","32","","5","","4.0","","100.08","","","","","","Fog"
"1956-09-04 04:00","1956","09","04","04:00","12.2","","11.7","","96","","34","","5","","2.4","","100.09","","","","","","Fog"
"1956-09-04 05:00","1956","09","04","05:00","11.7","","11.1","","96","","","","0","","2.4","","100.08","","","","","","Fog"
"1956-09-04 06:00","1956","09","04","06:00","12.2","","11.7","","96","","27","","2","","1.2","","100.16","","","","","","Fog"
"1956-09-04 07:00","1956","09","04","07:00","13.9","","13.3","","96","","","","0","","4.0","","100.16","","","","","","Fog"
"1956-09-04 08:00","1956","09","04","08:00","18.3","","14.4","","78","","18","","8","","6.4","","100.12","","","","","","Haze"
"1956-09-04 09:00","1956","09","04","09:00","20.6","","16.1","","76","","18","","13","","11.3","","100.09","","25","","","","Mainly Clear"
"1956-09-04 10:00","1956","09","04","10:00","23.9","","17.8","","69","","20","","19","","12.9","","100.05","","30","","","","Mainly Clear"
"1956-09-04 11:00","1956","09","04","11:00","26.1","","17.8","","60","","20","","21","","16.1","","100.05","","32","","","","Mainly Clear"
"1956-09-04 12:00","1956","09","04","12:00","26.7","","17.2","","56","","20","","23","","16.1","","100.05","","32","","","","Mainly Clear"
"1956-09-04 13:00","1956","09","04","13:00","27.2","","17.8","","56","","20","","21","","16.1","","100.05","","33","","","","Mainly Clear"
"1956-09-04 14:00","1956","09","04","14:00","28.3","","17.8","","53","","23","","19","","16.1","","99.97","","34","","","","Mainly Clear"
"1956-09-04 15:00","1956","09","04","15:00","28.3","","18.3","","55","","20","","21","","19.3","","99.92","","35","","","","Mainly Clear"
"1956-09-04 16:00","1956","09","04","16:00","28.3","","18.3","","55","","23","","11","","19.3","","99.92","","35","","","","Mostly Cloudy"
"1956-09-04 17:00","1956","09","04","17:00","27.2","","19.4","","63","","23","","10","","19.3","","99.95","","34","","","","Mainly Clear"
"1956-09-04 18:00","1956","09","04","18:00","25.6","","19.4","","69","","23","","6","","19.3","","99.99","","33","","","","Mostly Cloudy"
"1956-09-04 19:00","1956","09","04","19:00","22.2","","18.9","","82","","36","","10","","19.3","","100.06","","29","","","","Mostly Cloudy"
"1956-09-04 20:00","1956","09","04","20:00","21.1","","18.9","","87","","36","","5","","19.3","","100.15","","28","","","","Cloudy"
"1956-09-04 21:00","1956","09","04","21:00","20.6","","18.3","","87","","36","","13","","19.3","","100.15","","27","","","","Cloudy"
"1956-09-04 22:00","1956","09","04","22:00","20.0","","17.8","","87","","36","","10","","16.1","","100.15","","26","","","","Mainly Clear"
"1956-09-04 23:00","1956","09","04","23:00","18.9","","17.2","","90","","34","","8","","16.1","","100.21","","","","","","Clear"
"1956-09-05 00:00","1956","09","05","00:00","18.3","","16.1","","87","","36","","11","","25.0","","100.21","","","","","","Clear"
"1956-09-05 01:00","1956","09","05","01:00","17.8","","16.1","","90","","36","","6","","25.0","","100.20","","","","","","Mostly Cloudy"
"1956-09-05 02:00","1956","09","05","02:00","17.2","","15.6","","90","","34","","3","","25.0","","100.19","","","","","","Clear"
"1956-09-05 03:00","1956","09","05","03:00","16.7","","15.6","","93","","36","","5","","25.0","","100.20","","","","","","Clear"
"1956-09-05 04:00","1956","09","05","04:00","16.1","","15.0","","93","","34","","5","","25.0","","100.21","","","","","","Clear"
"1956-09-05 05:00","1956","09","05","05:00","15.6","","15.0","","97","","36","","6","","16.1","","100.21","","","","","","Mainly Clear"
"1956-09-05 06:00","1956","09","05","06:00","15.6","","15.0","","97","","36","","8","","12.9","","100.27","","","","","","Clear"
"1956-09-05 07:00","1956","09","05","07:00","16.7","","15.6","","93","","2","","6","","16.1","","100.29","","","","","","Clear"
"1956-09-05 08:00","1956","09","05","08:00","18.9","","16.1","","84","","5","","3","","16.1","","100.25","","","","","","Clear"
"1956-09-05 09:00","1956","09","05","09:00","21.7","","17.2","","76","","14","","5","","12.9","","100.21","","27","","","","Clear"
"1956-09-05 10:00","1956","09","05","10:00","23.3","","17.2","","69","","18","","6","","4.0","","100.18","","29","","","","Haze"
"1956-09-05 11:00","1956","09","05","11:00","24.4","","16.7","","62","","18","","6","","6.4","","100.17","","29","","","","Haze"
"1956-09-05 12:00","1956","09","05","12:00","25.6","","15.0","","52","","18","","11","","6.4","","100.13","","30","","","","Haze"
"1956-09-05 13:00","1956","09","05","13:00","26.1","","17.2","","58","","20","","10","","6.4","","100.08","","32","","","","Haze"
"1956-09-05 14:00","1956","09","05","14:00","26.7","","15.6","","51","","20","","11","","6.4","","99.99","","31","","","","Haze"
"1956-09-05 15:00","1956","09","05","15:00","26.7","","16.1","","52","","14","","11","","4.8","","99.85","","31","","","","Haze"
"1956-09-05 16:00","1956","09","05","16:00","25.0","","18.3","","67","","14","","13","","4.8","","99.80","","31","","","","Haze"
"1956-09-05 17:00","1956","09","05","17:00","23.3","","18.3","","74","","14","","11","","4.8","","99.77","","30","","","","Haze"
"1956-09-05 18:00","1956","09","05","18:00","22.2","","17.8","","76","","14","","11","","4.0","","99.69","","28","","","","Haze"
"1956-09-05 19:00","1956","09","05","19:00","22.2","","16.7","","71","","14","","8","","4.0","","99.68","","27","","","","Haze"
"1956-09-05 20:00","1956","09","05","20:00","21.1","","17.8","","81","","14","","6","","4.8","","99.72","","27","","","","Haze"
"1956-09-05 21:00","1956","09","05","21:00","20.6","","18.9","","90","","14","","8","","4.8","","99.68","","27","","","","Haze"
"1956-09-05 22:00","1956","09","05","22:00","19.4","","17.8","","90","","16","","13","","4.8","","99.60","","","","","","Haze"
"1956-09-05 23:00","1956","09","05","23:00","18.9","","17.8","","93","","18","","11","","2.4","","99.57","","","","","","Fog"
"1956-09-06 00:00","1956","09","06","00:00","19.4","","17.8","","90","","18","","14","","3.2","","99.49","","","","","","Fog"
"1956-09-06 01:00","1956","09","06","01:00","20.0","","17.8","","87","","20","","6","","6.4","","99.46","","26","","","","Fog"
"1956-09-06 02:00","1956","09","06","02:00","20.0","","17.8","","87","","20","","10","","11.3","","99.36","","26","","","","Mainly Clear"
"1956-09-06 03:00","1956","09","06","03:00","20.0","","18.3","","90","","20","","11","","12.9","","99.30","","26","","","","Mainly Clear"
"1956-09-06 04:00","1956","09","06","04:00","20.0","","18.3","","90","","18","","10","","11.3","","99.28","","26","","","","Clear"
"1956-09-06 05:00","1956","09","06","05:00","19.4","","18.3","","93","","16","","16","","4.8","","99.22","","","","","","Fog"
"1956-09-06 06:00","1956","09","06","06:00","20.0","","18.9","","93","","23","","11","","4.0","","99.26","","27","","","","Fog"
"1956-09-06 07:00","1956","09","06","07:00","20.6","","19.4","","93","","25","","16","","4.0","","99.26","","28","","","","Fog"
"1956-09-06 08:00","1956","09","06","08:00","21.7","","17.2","","76","","27","","27","","11.3","","99.29","","27","","","","Mostly Cloudy"
"1956-09-06 09:00","1956","09","06","09:00","21.1","","16.1","","73","","29","","40","","19.3","","99.34","","26","","","","Mostly Cloudy"
"1956-09-06 10:00","1956","09","06","10:00","20.0","","14.4","","70","","29","","34","","25.0","","99.49","","","","","","Mostly Cloudy"
"1956-09-06 11:00","1956","09","06","11:00","20.0","","12.8","","63","","29","","24","","25.0","","99.55","","","","","","Mostly Cloudy"
"1956-09-06 12:00","1956","09","06","12:00","20.0","","11.1","","57","","29","","27","","25.0","","99.57","","","","","","Mostly Cloudy"
"1956-09-06 13:00","1956","09","06","13:00","21.7","","10.6","","49","","29","","27","","25.0","","99.55","","","","","","Mostly Cloudy"
"1956-09-06 14:00","1956","09","06","14:00","21.7","","10.6","","49","","29","","29","","25.0","","99.56","","","","","","Mainly Clear"
"1956-09-06 15:00","1956","09","06","15:00","21.1","","8.9","","46","","27","","35","","25.0","","99.58","","","","","","Mainly Clear"
"1956-09-06 16:00","1956","09","06","16:00","19.4","","10.0","","54","","27","","32","","25.0","","99.64","","","","","","Mainly Clear"
"1956-09-06 17:00","1956","09","06","17:00","18.3","","8.3","","52","","29","","29","","25.0","","99.70","","","","","","Mainly Clear"
"1956-09-06 18:00","1956","09","06","18:00","16.1","","7.8","","58","","29","","35","","25.0","","99.78","","","","","","Mainly Clear"
"1956-09-06 19:00","1956","09","06","19:00","15.0","","7.8","","62","","32","","19","","25.0","","99.85","","","","","","Mainly Clear"
"1956-09-06 20:00","1956","09","06","20:00","13.3","","7.2","","66","","29","","13","","25.0","","99.99","","","","","","Clear"
"1956-09-06 21:00","1956","09","06","21:00","12.2","","6.7","","69","","27","","10","","25.0","","100.02","","","","","","Clear"
"1956-09-06 22:00","1956","09","06","22:00","11.7","","7.2","","74","","27","","10","","25.0","","100.07","","","","","","Clear"
"1956-09-06 23:00","1956","09","06","23:00","10.6","","7.2","","80","","27","","11","","25.0","","100.07","","","","","","Clear"
"1956-09-07 00:00","1956","09","07","00:00","9.4","","6.7","","83","","27","","11","","25.0","","100.06","","","","","","Clear"
"1956-09-07 01:00","1956","09","07","01:00","9.4","","6.7","","83","","27","","11","","25.0","","100.03","","","","","","Clear"
"1956-09-07 02:00","1956","09","07","02:00","8.9","","6.7","","86","","27","","11","","25.0","","100.06","","","","","","Clear"
"1956-09-07 03:00","1956","09","07","03:00","8.3","","6.7","","89","","27","","13","","25.0","","100.11","","","","","","Mainly Clear"
"1956-09-07 04:00","1956","09","07","04:00","8.3","","6.7","","89","","27","","14","","25.0","","100.14","","","","","","Clear"
"1956-09-07 05:00","1956","09","07","05:00","7.8","","6.1","","89","","25","","10","","25.0","","100.19","","","","","","Mainly Clear"
"1956-09-07 06:00","1956","09","07","06:00","8.3","","6.1","","86","","27","","10","","25.0","","100.24","","","","","","Mainly Clear"
"1956-09-07 07:00","1956","09","07","07:00","11.1","","7.2","","77","","32","","10","","25.0","","100.26","","","","","","Mostly Cloudy"
"1956-09-07 08:00","1956","09","07","08:00","12.8","","7.8","","72","","32","","13","","25.0","","100.32","","","","","","Mostly Cloudy"
"1956-09-07 09:00","1956","09","07","09:00","15.0","","7.2","","60","","32","","14","","25.0","","100.35","","","","","","Mainly Clear"
"1956-09-07 10:00","1956","09","07","10:00","15.0","","5.6","","53","","32","","18","","25.0","","100.37","","","","","","Mostly Cloudy"
"1956-09-07 11:00","1956","09","07","11:00","16.1","","5.6","","50","","29","","21","","25.0","","100.32","","","","","","Mostly Cloudy"
"1956-09-07 12:00","1956","09","07","12:00","16.7","","4.4","","44","","34","","19","","25.0","","100.32","","","","","","Mostly Cloudy"
"1956-09-07 13:00","1956","09","07","13:00","16.7","","4.4","","44","","34","","26","","25.0","","100.34","","","","","","Mostly Cloudy"
"1956-09-07 14:00","1956","09","07","14:00","16.7","","3.3","","41","","29","","26","","25.0","","100.33","","","","","","Mostly Cloudy"
"1956-09-07 15:00","1956","09","07","15:00","15.6","","6.1","","53","","32","","19","","25.0","","100.31","","","","","","Mostly Cloudy"
"1956-09-07 16:00","1956","09","07","16:00","13.9","","5.6","","57","","34","","26","","25.0","","100.31","","","","","","Mostly Cloudy"
"1956-09-07 17:00","1956","09","07","17:00","13.3","","6.1","","62","","36","","13","","25.0","","100.30","","","","","","Mostly Cloudy"
"1956-09-07 18:00","1956","09","07","18:00","13.3","","6.7","","64","","36","","6","","25.0","","100.35","","","","","","Mostly Cloudy"
"1956-09-07 19:00","1956","09","07","19:00","13.3","","6.1","","62","","36","","6","","25.0","","100.38","","","","","","Mainly Clear"
"1956-09-07 20:00","1956","09","07","20:00","12.8","","6.1","","64","","27","","6","","25.0","","100.43","","","","","","Clear"
"1956-09-07 21:00","1956","09","07","21:00","10.6","","4.4","","66","","29","","10","","25.0","","100.43","","","","","","Clear"
"1956-09-07 22:00","1956","09","07","22:00","8.3","","5.0","","80","","23","","10","","25.0","","100.43","","","","","","Clear"
"1956-09-07 23:00","1956","09","07","23:00","9.4","","5.6","","77","","27","","6","","25.0","","100.46","","","","","","Mostly Cloudy"
"1956-09-08 00:00","1956","09","08","00:00","8.9","","5.6","","80","","27","","5","","25.0","","100.50","","","","","","Mainly Clear"
"1956-09-08 01:00","1956","09","08","01:00","8.3","","6.1","","86","","27","","8","","25.0","","100.51","","","","","","Mainly Clear"
"1956-09-08 02:00","1956","09","08","02:00","8.9","","6.1","","83","","27","","6","","25.0","","100.49","","","","","","Mostly Cloudy"
"1956-09-08 03:00","1956","09","08","03:00","8.9","","6.7","","86","","27","","10","","25.0","","100.50","","","","","","Rain Showers"
"1956-09-08 04:00","1956","09","08","04:00","8.9","","6.7","","86","","27","","16","","25.0","","100.53","","","","","","Mostly Cloudy"
"1956-09-08 05:00","1956","09","08","05:00","8.9","","6.1","","83","","27","","13","","25.0","","100.58","","","","","","Mostly Cloudy"
"1956-09-08 06:00","1956","09","08","06:00","9.4","","5.6","","77","","29","","13","","25.0","","100.63","","","","","","Mostly Cloudy"
"1956-09-08 07:00","1956","09","08","07:00","10.0","","5.6","","74","","29","","18","","25.0","","100.70","","","","","","Mainly Clear"
"1956-09-08 08:00","1956","09","08","08:00","11.7","","4.4","","61","","32","","13","","25.0","","100.72","","","","","","Mainly Clear"
"1956-09-08 09:00","1956","09","08","09:00","13.9","","2.2","","45","","34","","19","","25.0","","100.78","","","","","","Mainly Clear"
"1956-09-08 10:00","1956","09","08","10:00","14.4","","2.2","","44","","32","","26","","25.0","","100.80","","","","","","Mainly Clear"
"1956-09-08 11:00","1956","09","08","11:00","15.0","","1.7","","40","","34","","24","","25.0","","100.81","","","","","","Mainly Clear"
"1956-09-08 12:00","1956","09","08","12:00","15.6","","1.7","","39","","34","","18","","25.0","","100.78","","","","","","Mostly Cloudy"
"1956-09-08 13:00","1956","09","08","13:00","15.6","","1.7","","39","","36","","19","","25.0","","100.78","","","","","","Mostly Cloudy"
"1956-09-08 14:00","1956","09","08","14:00","16.1","","2.2","","39","","34","","16","","25.0","","100.77","","","","","","Mostly Cloudy"
"1956-09-08 15:00","1956","09","08","15:00","15.6","","1.7","","39","","32","","23","","25.0","","100.74","","","","","","Mostly Cloudy"
"1956-09-08 16:00","1956","09","08","16:00","15.0","","2.8","","44","","29","","16","","25.0","","100.78","","","","","","Mostly Cloudy"
"1956-09-08 17:00","1956","09","08","17:00","13.3","","4.4","","55","","34","","19","","25.0","","100.81","","","","","","Mostly Cloudy"
"1956-09-08 18:00","1956","09","08","18:00","12.2","","4.4","","59","","34","","19","","25.0","","100.82","","","","","","Mostly Cloudy"
"1956-09-08 19:00","1956","09","08","19:00","11.7","","4.4","","61","","32","","10","","25.0","","100.85","","","","","","Mostly Cloudy"
"1956-09-08 20:00","1956","09","08","20:00","10.0","","4.4","","68","","32","","13","","24.1","","100.90","","","","","","Mainly Clear"
"1956-09-08 21:00","1956","09","08","21:00","9.4","","5.0","","74","","32","","8","","24.1","","100.93","","","","","","Mainly Clear"
"1956-09-08 22:00","1956","09","08","22:00","8.3","","4.4","","76","","32","","8","","24.1","","100.95","","","","","","Mainly Clear"
"1956-09-08 23:00","1956","09","08","23:00","8.3","","5.0","","80","","29","","10","","25.0","","101.00","","","","","","Mostly Cloudy"
"1956-09-09 00:00","1956","09","09","00:00","8.3","","5.6","","83","","32","","8","","25.0","","101.02","","","","","","Mainly Clear"
"1956-09-09 01:00","1956","09","09","01:00","6.7","","4.4","","86","","36","","11","","25.0","","101.04","","","","","","Clear"
"1956-09-09 02:00","1956","09","09","02:00","6.7","","4.4","","86","","32","","10","","25.0","","101.05","","","","","","Clear"
"1956-09-09 03:00","1956","09","09","03:00","5.6","","3.3","","86","","29","","10","","25.0","","101.06","","","","","","Clear"
"1956-09-09 04:00","1956","09","09","04:00","5.0","","2.8","","86","","29","","5","","25.0","","101.08","","","","","","Clear"
"1956-09-09 05:00","1956","09","09","05:00","5.0","","3.3","","89","","34","","6","","25.0","","101.13","","","","","","Mainly Clear"
"1956-09-09 06:00","1956","09","09","06:00","5.6","","3.9","","89","","34","","13","","25.0","","101.16","","","","","","Mainly Clear"
"1956-09-09 07:00","1956","09","09","07:00","6.7","","4.4","","86","","36","","11","","25.0","","101.19","","","","","","Clear"
"1956-09-09 08:00","1956","09","09","08:00","10.6","","6.1","","74","","36","","8","","48.3","","101.22","","","","","","Clear"
"1956-09-09 09:00","1956","09","09","09:00","13.3","","4.4","","55","","36","","8","","48.3","","101.26","","","","","","Mainly Clear"
"1956-09-09 10:00","1956","09","09","10:00","13.3","","3.3","","51","","5","","6","","48.3","","101.26","","","","","","Mostly Cloudy"
"1956-09-09 11:00","1956","09","09","11:00","15.0","","2.8","","44","","","","0","","48.3","","101.21","","","","","","Mostly Cloudy"
"1956-09-09 12:00","1956","09","09","12:00","15.6","","2.2","","41","","14","","5","","48.3","","101.14","","","","","","Mostly Cloudy"
"1956-09-09 13:00","1956","09","09","13:00","15.0","","3.9","","47","","14","","11","","48.3","","101.09","","","","","","Mostly Cloudy"
"1956-09-09 14:00","1956","09","09","14:00","15.6","","3.3","","44","","14","","6","","32.2","","101.04","","","","","","Mostly Cloudy"
"1956-09-09 15:00","1956","09","09","15:00","16.1","","5.0","","48","","14","","11","","32.2","","100.96","","","","","","Mostly Cloudy"
"1956-09-09 16:00","1956","09","09","16:00","15.6","","5.0","","49","","18","","13","","25.0","","100.91","","","","","","Mostly Cloudy"
"1956-09-09 17:00","1956","09","09","17:00","15.6","","5.0","","49","","18","","16","","25.0","","100.87","","","","","","Mainly Clear"
"1956-09-09 18:00","1956","09","09","18:00","13.3","","6.1","","62","","18","","8","","25.0","","100.87","","","","","","Mainly Clear"
"1956-09-09 19:00","1956","09","09","19:00","12.8","","4.4","","57","","18","","13","","24.1","","100.79","","","","","","Mainly Clear"
"1956-09-09 20:00","1956","09","09","20:00","11.7","","4.4","","61","","18","","6","","24.1","","100.76","","","","","","Clear"
"1956-09-09 21:00","1956","09","09","21:00","10.0","","4.4","","68","","18","","5","","24.1","","100.75","","","","","","Clear"
"1956-09-09 22:00","1956","09","09","22:00","8.9","","4.4","","74","","20","","5","","24.1","","100.75","","","","","","Clear"
"1956-09-09 23:00","1956","09","09","23:00","8.3","","3.9","","74","","20","","5","","25.0","","100.75","","","","","","Clear"
"1956-09-10 00:00","1956","09","10","00:00","8.3","","3.9","","74","","23","","6","","25.0","","100.76","","","","","","Clear"
"1956-09-10 01:00","1956","09","10","01:00","7.8","","3.9","","76","","20","","6","","25.0","","100.69","","","","","","Clear"
"1956-09-10 02:00","1956","09","10","02:00","6.7","","3.9","","82","","20","","8","","25.0","","100.60","","","","","","Clear"
"1956-09-10 03:00","1956","09","10","03:00","5.0","","3.9","","93","","27","","5","","25.0","","100.60","","","","","","Clear"
"1956-09-10 04:00","1956","09","10","04:00","5.0","","3.9","","93","","","","0","","25.0","","100.58","","","","","","Clear"
"1956-09-10 05:00","1956","09","10","05:00","5.0","","2.8","","86","","23","","5","","25.0","","100.50","","","","","","Mainly Clear"
"1956-09-10 06:00","1956","09","10","06:00","6.1","","3.9","","86","","23","","6","","19.3","","100.46","","","","","","Mostly Cloudy"
"1956-09-10 07:00","1956","09","10","07:00","8.3","","5.0","","80","","23","","5","","16.1","","100.46","","","","","","Mostly Cloudy"
"1956-09-10 08:00","1956","09","10","08:00","12.8","","6.1","","64","","23","","13","","16.1","","100.36","","","","","","Mostly Cloudy"
"1956-09-10 09:00","1956","09","10","09:00","15.0","","6.7","","57","","20","","21","","19.3","","100.33","","","","","","Mostly Cloudy"
"1956-09-10 10:00","1956","09","10","10:00","17.2","","7.2","","52","","23","","31","","24.1","","100.25","","","","","","Mostly Cloudy"
"1956-09-10 11:00","1956","09","10","11:00","18.3","","9.4","","56","","23","","21","","24.1","","100.17","","","","","","Mostly Cloudy"
"1956-09-10 12:00","1956","09","10","12:00","19.4","","10.0","","54","","23","","24","","19.3","","100.05","","","","","","Mostly Cloudy"
"1956-09-10 13:00","1956","09","10","13:00","20.0","","10.6","","55","","23","","26","","16.1","","99.99","","","","","","Mostly Cloudy"
"1956-09-10 14:00","1956","09","10","14:00","18.9","","11.1","","61","","23","","18","","16.1","","99.87","","","","","","Cloudy"
"1956-09-10 15:00","1956","09","10","15:00","18.3","","11.1","","63","","23","","21","","16.1","","99.84","","","","","","Rain Showers"
"1956-09-10 16:00","1956","09","10","16:00","17.2","","11.7","","70","","23","","13","","16.1","","99.80","","","","","","Rain Showers"
"1956-09-10 17:00","1956","09","10","17:00","16.1","","12.2","","78","","20","","6","","16.1","","99.75","","","","","","Rain Showers"
"1956-09-10 18:00","1956","09","10","18:00","16.1","","13.9","","87","","18","","10","","12.9","","99.69","","","","","","Cloudy"
"1956-09-10 19:00","1956","09","10","19:00","15.6","","13.9","","90","","20","","6","","12.9","","99.68","","","","","","Rain Showers"
"1956-09-10 20:00","1956","09","10","20:00","15.0","","13.3","","90","","16","","6","","12.9","","99.67","","","","","","Rain Showers"
"1956-09-10 21:00","1956","09","10","21:00","15.0","","13.3","","90","","18","","6","","11.3","","99.63","","","","","","Rain Showers"
"1956-09-10 22:00","1956","09","10","22:00","15.0","","13.3","","90","","18","","6","","11.3","","99.62","","","","","","Rain Showers"
"1956-09-10 23:00","1956","09","10","23:00","14.4","","13.3","","93","","23","","6","","6.4","","99.57","","","","","","Rain,Fog"
"1956-09-11 00:00","1956","09","11","00:00","14.4","","13.9","","96","","23","","10","","6.4","","99.55","","","","","","Rain,Fog"
"1956-09-11 01:00","1956","09","11","01:00","14.4","","13.9","","96","","23","","10","","4.8","","99.50","","","","","","Rain,Fog"
"1956-09-11 02:00","1956","09","11","02:00","14.4","","13.9","","96","","23","","11","","3.2","","99.46","","","","","","Rain,Fog"
"1956-09-11 03:00","1956","09","11","03:00","15.0","","13.9","","93","","23","","11","","6.4","","99.42","","","","","","Rain,Fog"
"1956-09-11 04:00","1956","09","11","04:00","15.0","","13.9","","93","","20","","6","","6.4","","99.40","","","","","","Rain,Fog"
"1956-09-11 05:00","1956","09","11","05:00","14.4","","13.9","","96","","18","","5","","3.2","","99.37","","","","","","Fog"
"1956-09-11 06:00","1956","09","11","06:00","13.9","","13.3","","96","","18","","10","","4.0","","99.40","","","","","","Fog"
"1956-09-11 07:00","1956","09","11","07:00","13.9","","13.3","","96","","18","","6","","3.2","","99.42","","","","","","Rain,Fog"
"1956-09-11 08:00","1956","09","11","08:00","13.9","","13.3","","96","","","","0","","3.2","","99.39","","","","","","Rain,Fog"
"1956-09-11 09:00","1956","09","11","09:00","14.4","","13.3","","93","","23","","8","","3.2","","99.40","","","","","","Rain,Fog"
"1956-09-11 10:00","1956","09","11","10:00","14.4","","13.3","","93","","23","","6","","4.8","","99.38","","","","","","Fog"
"1956-09-11 11:00","1956","09","11","11:00","16.7","","15.0","","90","","20","","11","","8.0","","99.33","","","","","","Fog"
"1956-09-11 12:00","1956","09","11","12:00","17.8","","14.4","","81","","20","","14","","9.7","","99.27","","","","","","Haze"
"1956-09-11 13:00","1956","09","11","13:00","19.4","","13.9","","70","","20","","8","","9.7","","99.27","","","","","","Haze"
"1956-09-11 14:00","1956","09","11","14:00","20.6","","13.9","","66","","18","","13","","11.3","","99.22","","","","","","Mostly Cloudy"
"1956-09-11 15:00","1956","09","11","15:00","20.6","","15.0","","71","","18","","13","","11.3","","99.21","","25","","","","Mostly Cloudy"
"1956-09-11 16:00","1956","09","11","16:00","20.0","","15.6","","76","","18","","13","","12.9","","99.17","","","","","","Mainly Clear"
"1956-09-11 17:00","1956","09","11","17:00","18.9","","15.0","","78","","18","","13","","19.3","","99.19","","","","","","Mainly Clear"
"1956-09-11 18:00","1956","09","11","18:00","18.3","","15.0","","81","","18","","8","","16.1","","99.20","","","","","","Mostly Cloudy"
"1956-09-11 19:00","1956","09","11","19:00","17.8","","15.6","","87","","18","","6","","12.9","","99.22","","","","","","Rain Showers"
"1956-09-11 20:00","1956","09","11","20:00","16.7","","14.4","","87","","36","","13","","19.3","","99.33","","","","","","Cloudy"
"1956-09-11 21:00","1956","09","11","21:00","15.0","","13.9","","93","","36","","8","","19.3","","99.36","","","","","","Mainly Clear"
"1956-09-11 22:00","1956","09","11","22:00","15.0","","13.9","","93","","36","","8","","19.3","","99.39","","","","","","Mainly Clear"
"1956-09-11 23:00","1956","09","11","23:00","13.9","","12.8","","93","","34","","8","","19.3","","99.38","","","","","","Clear"
"1956-09-12 00:00","1956","09","12","00:00","13.3","","12.8","","96","","32","","6","","8.0","","99.39","","","","","","Fog"
"1956-09-12 01:00","1956","09","12","01:00","11.7","","11.1","","96","","32","","6","","4.8","","99.37","","","","","","Fog"
"1956-09-12 02:00","1956","09","12","02:00","11.7","","11.1","","96","","34","","8","","4.8","","99.37","","","","","","Fog"
"1956-09-12 03:00","1956","09","12","03:00","10.6","","10.0","","96","","34","","6","","4.8","","99.39","","","","","","Fog"
"1956-09-12 04:00","1956","09","12","04:00","10.0","","9.4","","96","","32","","6","","19.3","","99.41","","","","","","Clear"
"1956-09-12 05:00","1956","09","12","05:00","9.4","","9.4","","100","","34","","3","","19.3","","99.44","","","","","","Mainly Clear"
"1956-09-12 06:00","1956","09","12","06:00","8.9","","8.3","","96","","29","","3","","11.3","","99.48","","","","","","Mostly Cloudy"
"1956-09-12 07:00","1956","09","12","07:00","11.1","","10.0","","93","","","","0","","11.3","","99.51","","","","","","Mostly Cloudy"
"1956-09-12 08:00","1956","09","12","08:00","13.3","","11.1","","86","","36","","3","","12.9","","99.54","","","","","","Mainly Clear"
"1956-09-12 09:00","1956","09","12","09:00","17.2","","11.7","","70","","","","0","","12.9","","99.52","","","","","","Mainly Clear"
"1956-09-12 10:00","1956","09","12","10:00","18.9","","13.3","","70","","18","","11","","12.9","","99.52","","","","","","Mainly Clear"
"1956-09-12 11:00","1956","09","12","11:00","21.1","","14.4","","66","","18","","16","","12.9","","99.49","","25","","","","Mainly Clear"
"1956-09-12 12:00","1956","09","12","12:00","21.1","","15.0","","68","","18","","19","","8.0","","99.41","","25","","","","Haze"
"1956-09-12 13:00","1956","09","12","13:00","20.6","","16.1","","76","","16","","16","","8.0","","99.30","","25","","","","Haze"
"1956-09-12 14:00","1956","09","12","14:00","21.7","","16.7","","73","","16","","16","","8.0","","99.30","","27","","","","Haze"
"1956-09-12 15:00","1956","09","12","15:00","22.2","","16.1","","68","","16","","19","","8.0","","99.27","","27","","","","Haze"
"1956-09-12 16:00","1956","09","12","16:00","21.1","","15.6","","71","","16","","16","","9.7","","99.27","","25","","","","Haze"
"1956-09-12 17:00","1956","09","12","17:00","20.6","","16.1","","76","","16","","8","","6.4","","99.28","","25","","","","Haze"
"1956-09-12 18:00","1956","09","12","18:00","20.0","","16.7","","81","","14","","6","","4.0","","99.24","","25","","","","Smoke,Haze"
"1956-09-12 19:00","1956","09","12","19:00","19.4","","16.7","","84","","16","","10","","4.0","","99.24","","","","","","Smoke,Haze"
"1956-09-12 20:00","1956","09","12","20:00","18.9","","16.1","","84","","18","","11","","4.0","","99.26","","","","","","Smoke,Haze"
"1956-09-12 21:00","1956","09","12","21:00","17.8","","15.6","","87","","18","","11","","4.0","","99.25","","","","","","Smoke,Haze"
"1956-09-12 22:00","1956","09","12","22:00","16.7","","15.0","","90","","14","","6","","3.2","","99.24","","","","","","Fog,Smoke"
"1956-09-12 23:00","1956","09","12","23:00","16.1","","15.0","","93","","18","","8","","2.4","","99.20","","","","","","Fog,Smoke"
"1956-09-13 00:00","1956","09","13","00:00","14.4","","13.9","","96","","36","","5","","2.0","","99.20","","","","","","Fog"
"1956-09-13 01:00","1956","09","13","01:00","14.4","","13.3","","93","","36","","2","","1.2","","99.16","","","","","","Fog"
"1956-09-13 02:00","1956","09","13","02:00","13.3","","12.8","","96","","36","","3","","0.4","","99.09","","","","","","Fog"
"1956-09-13 03:00","1956","09","13","03:00","13.3","","12.8","","96","","20","","10","","1.6","","99.03","","","","","","Fog"
"1956-09-13 04:00","1956","09","13","04:00","13.3","","12.8","","96","","18","","6","","2.0","","99.03","","","","","","Fog"
"1956-09-13 05:00","1956","09","13","05:00","13.9","","12.8","","93","","","","0","","1.6","","99.02","","","","","","Fog"
"1956-09-13 06:00","1956","09","13","06:00","13.3","","12.8","","96","","2","","5","","0.8","","99.08","","","","","","Fog"
"1956-09-13 07:00","1956","09","13","07:00","13.9","","13.3","","96","","18","","3","","1.2","","99.09","","","","","","Fog"
"1956-09-13 08:00","1956","09","13","08:00","17.8","","16.7","","93","","18","","8","","2.0","","99.03","","","","","","Fog"
"1956-09-13 09:00","1956","09","13","09:00","20.0","","17.8","","87","","18","","6","","4.0","","99.03","","26","","","","Fog"
"1956-09-13 10:00","1956","09","13","10:00","22.2","","18.9","","82","","18","","11","","4.8","","98.95","","29","","","","Haze"
"1956-09-13 11:00","1956","09","13","11:00","23.9","","18.9","","74","","18","","11","","3.2","","98.90","","31","","","","Haze"
"1956-09-13 12:00","1956","09","13","12:00","24.4","","18.9","","71","","16","","21","","4.8","","98.81","","31","","","","Haze"
"1956-09-13 13:00","1956","09","13","13:00","25.0","","18.9","","69","","16","","24","","4.8","","98.75","","32","","","","Haze"
"1956-09-13 14:00","1956","09","13","14:00","26.1","","19.4","","67","","16","","16","","4.8","","98.66","","33","","","","Haze"
"1956-09-13 15:00","1956","09","13","15:00","25.0","","18.9","","69","","16","","23","","4.8","","98.55","","32","","","","Haze"
"1956-09-13 16:00","1956","09","13","16:00","24.4","","18.3","","69","","16","","21","","4.8","","98.51","","31","","","","Haze"
"1956-09-13 17:00","1956","09","13","17:00","23.9","","18.9","","74","","16","","16","","8.0","","98.47","","31","","","","Haze"
"1956-09-13 18:00","1956","09","13","18:00","23.9","","18.3","","71","","20","","24","","11.3","","98.37","","30","","","","Cloudy"
"1956-09-13 19:00","1956","09","13","19:00","23.3","","19.4","","79","","18","","26","","16.1","","98.23","","30","","","","Cloudy"
"1956-09-13 20:00","1956","09","13","20:00","23.3","","18.3","","74","","20","","23","","16.1","","98.21","","30","","","","Mostly Cloudy"
"1956-09-13 21:00","1956","09","13","21:00","23.3","","18.3","","74","","20","","26","","16.1","","98.10","","30","","","","Mainly Clear"
"1956-09-13 22:00","1956","09","13","22:00","23.9","","18.3","","71","","20","","24","","16.1","","98.02","","30","","","","Mainly Clear"
"1956-09-13 23:00","1956","09","13","23:00","24.4","","17.8","","67","","23","","31","","24.1","","97.97","","30","","","","Mainly Clear"
"1956-09-14 00:00","1956","09","14","00:00","24.4","","17.2","","64","","25","","32","","24.1","","98.05","","30","","","","Clear"
"1956-09-14 01:00","1956","09","14","01:00","23.3","","16.7","","66","","27","","26","","24.1","","98.09","","28","","","","Mostly Cloudy"
"1956-09-14 02:00","1956","09","14","02:00","22.2","","16.7","","71","","27","","24","","24.1","","98.13","","27","","","","Cloudy"
"1956-09-14 03:00","1956","09","14","03:00","21.1","","16.7","","76","","25","","19","","24.1","","98.19","","26","","","","Cloudy"
"1956-09-14 04:00","1956","09","14","04:00","21.1","","16.7","","76","","25","","14","","19.3","","98.26","","26","","","","Cloudy"
"1956-09-14 05:00","1956","09","14","05:00","20.6","","16.7","","79","","27","","21","","19.3","","98.34","","26","","","","Cloudy"
"1956-09-14 06:00","1956","09","14","06:00","20.0","","15.6","","76","","29","","29","","12.9","","98.54","","","","","","Mostly Cloudy"
"1956-09-14 07:00","1956","09","14","07:00","18.3","","12.8","","70","","32","","24","","25.0","","98.53","","","","","","Mostly Cloudy"
"1956-09-14 08:00","1956","09","14","08:00","18.3","","12.8","","70","","32","","23","","25.0","","98.62","","","","","","Mostly Cloudy"
"1956-09-14 09:00","1956","09","14","09:00","19.4","","13.3","","68","","27","","23","","25.0","","98.65","","","","","","Mostly Cloudy"
"1956-09-14 10:00","1956","09","14","10:00","18.3","","12.2","","68","","29","","32","","25.0","","98.79","","","","","","Cloudy"
"1956-09-14 11:00","1956","09","14","11:00","18.9","","12.2","","65","","29","","27","","25.0","","98.83","","","","","","Mostly Cloudy"
"1956-09-14 12:00","1956","09","14","12:00","17.8","","12.2","","70","","34","","29","","25.0","","98.86","","","","","","Mostly Cloudy"
"1956-09-14 13:00","1956","09","14","13:00","18.3","","11.7","","65","","32","","24","","25.0","","98.94","","","","","","Mostly Cloudy"
"1956-09-14 14:00","1956","09","14","14:00","15.0","","9.4","","69","","34","","32","","25.0","","99.01","","","","","","Mostly Cloudy"
"1956-09-14 15:00","1956","09","14","15:00","14.4","","8.9","","69","","36","","29","","25.0","","99.06","","","","","","Mostly Cloudy"
"1956-09-14 16:00","1956","09","14","16:00","13.9","","7.2","","64","","34","","24","","25.0","","99.16","","","","","","Mostly Cloudy"
"1956-09-14 17:00","1956","09","14","17:00","12.8","","6.1","","64","","36","","23","","25.0","","99.25","","","","","","Mostly Cloudy"
"1956-09-14 18:00","1956","09","14","18:00","11.1","","5.6","","69","","36","","19","","25.0","","99.30","","","","","","Mostly Cloudy"
"1956-09-14 19:00","1956","09","14","19:00","10.0","","5.0","","71","","36","","13","","25.0","","99.38","","","","","","Mainly Clear"
"1956-09-14 20:00","1956","09","14","20:00","9.4","","5.0","","74","","32","","13","","25.0","","99.34","","","","","","Clear"
"1956-09-14 21:00","1956","09","14","21:00","8.3","","4.4","","76","","32","","6","","25.0","","99.53","","","","","","Clear"
"1956-09-14 22:00","1956","09","14","22:00","7.8","","4.4","","79","","27","","5","","25.0","","99.57","","","","","","Mainly Clear"
"1956-09-14 23:00","1956","09","14","23:00","6.7","","3.3","","79","","29","","6","","25.0","","99.61","","","","","","Mainly Clear"
"1956-09-15 00:00","1956","09","15","00:00","6.7","","4.4","","86","","5","","6","","25.0","","99.63","","","","","","Mainly Clear"
"1956-09-15 01:00","1956","09","15","01:00","7.2","","4.4","","82","","2","","5","","25.0","","99.65","","","","","","Cloudy"
"1956-09-15 02:00","1956","09","15","02:00","7.2","","5.0","","86","","2","","5","","25.0","","99.64","","","","","","Mostly Cloudy"
"1956-09-15 03:00","1956","09","15","03:00","6.7","","4.4","","86","","2","","6","","25.0","","99.62","","","","","","Mostly Cloudy"
"1956-09-15 04:00","1956","09","15","04:00","6.7","","3.9","","82","","36","","6","","25.0","","99.61","","","","","","Mostly Cloudy"
"1956-09-15 05:00","1956","09","15","05:00","4.4","","3.3","","93","","2","","8","","25.0","","99.54","","","","","","Mainly Clear"
"1956-09-15 06:00","1956","09","15","06:00","4.4","","2.8","","89","","34","","5","","25.0","","99.65","","","","","","Mainly Clear"
"1956-09-15 07:00","1956","09","15","07:00","5.0","","3.3","","89","","2","","6","","25.0","","99.64","","","","","","Mostly Cloudy"
"1956-09-15 08:00","1956","09","15","08:00","7.8","","2.8","","71","","2","","14","","25.0","","99.59","","","","","","Mostly Cloudy"
"1956-09-15 09:00","1956","09","15","09:00","8.3","","0.6","","58","","5","","6","","25.0","","99.66","","","","","","Cloudy"
"1956-09-15 10:00","1956","09","15","10:00","8.3","","-0.6","","53","","5","","6","","25.0","","99.70","","","","","","Cloudy"
"1956-09-15 11:00","1956","09","15","11:00","9.4","","-1.1","","48","","7","","10","","25.0","","99.63","","","","","","Cloudy"
"1956-09-15 12:00","1956","09","15","12:00","8.9","","-1.1","","49","","7","","10","","25.0","","99.58","","","","","","Cloudy"
"1956-09-15 13:00","1956","09","15","13:00","8.9","","0.0","","54","","5","","10","","25.0","","99.52","","","","","","Cloudy"
"1956-09-15 14:00","1956","09","15","14:00","9.4","","-1.1","","48","","5","","13","","25.0","","99.42","","","","","","Cloudy"
"1956-09-15 15:00","1956","09","15","15:00","10.0","","-0.6","","48","","9","","13","","25.0","","99.44","","","","","","Cloudy"
"1956-09-15 16:00","1956","09","15","16:00","10.0","","0.0","","50","","7","","10","","25.0","","99.39","","","","","","Cloudy"
"1956-09-15 17:00","1956","09","15","17:00","10.0","","0.6","","52","","9","","8","","25.0","","99.40","","","","","","Mostly Cloudy"
"1956-09-15 18:00","1956","09","15","18:00","8.9","","0.6","","56","","5","","8","","25.0","","99.34","","","","","","Mostly Cloudy"
"1956-09-15 19:00","1956","09","15","19:00","7.8","","1.7","","65","","5","","8","","25.0","","99.37","","","","","","Mostly Cloudy"
"1956-09-15 20:00","1956","09","15","20:00","7.8","","2.8","","71","","5","","8","","25.0","","99.42","","","","","","Mostly Cloudy"
"1956-09-15 21:00","1956","09","15","21:00","7.8","","2.8","","71","","5","","13","","24.1","","99.35","","","","","","Cloudy"
"1956-09-15 22:00","1956","09","15","22:00","7.2","","2.2","","70","","5","","11","","24.1","","99.24","","","","","","Cloudy"
"1956-09-15 23:00","1956","09","15","23:00","7.2","","2.2","","70","","36","","10","","25.0","","99.17","","","","","","Mostly Cloudy"
"1956-09-16 00:00","1956","09","16","00:00","7.2","","2.2","","70","","5","","8","","25.0","","99.12","","","","","","Cloudy"
"1956-09-16 01:00","1956","09","16","01:00","7.8","","2.2","","68","","5","","8","","25.0","","99.06","","","","","","Cloudy"
"1956-09-16 02:00","1956","09","16","02:00","7.2","","3.9","","79","","5","","13","","16.1","","99.02","","","","","","Rain Showers"
"1956-09-16 03:00","1956","09","16","03:00","7.2","","5.0","","86","","5","","10","","19.3","","98.94","","","","","","Rain Showers"
"1956-09-16 04:00","1956","09","16","04:00","7.2","","5.6","","89","","5","","8","","16.1","","98.90","","","","","","Rain"
"1956-09-16 05:00","1956","09","16","05:00","7.8","","6.7","","93","","36","","10","","16.1","","98.88","","","","","","Rain"
"1956-09-16 06:00","1956","09","16","06:00","7.2","","5.6","","89","","36","","8","","16.1","","98.95","","","","","","Rain"
"1956-09-16 07:00","1956","09","16","07:00","7.8","","7.2","","96","","36","","10","","16.1","","98.94","","","","","","Cloudy"
"1956-09-16 08:00","1956","09","16","08:00","9.4","","7.8","","89","","5","","10","","16.1","","98.99","","","","","","Cloudy"
"1956-09-16 09:00","1956","09","16","09:00","10.6","","8.3","","86","","9","","8","","16.1","","99.02","","","","","","Cloudy"
"1956-09-16 10:00","1956","09","16","10:00","12.2","","8.9","","80","","5","","6","","19.3","","99.00","","","","","","Cloudy"
"1956-09-16 11:00","1956","09","16","11:00","12.8","","10.6","","86","","14","","8","","19.3","","99.02","","","","","","Cloudy"
"1956-09-16 12:00","1956","09","16","12:00","13.3","","10.0","","80","","14","","8","","16.1","","99.00","","","","","","Cloudy"
"1956-09-16 13:00","1956","09","16","13:00","13.9","","10.6","","80","","11","","13","","16.1","","99.03","","","","","","Cloudy"
"1956-09-16 14:00","1956","09","16","14:00","13.9","","10.6","","80","","14","","10","","16.1","","98.99","","","","","","Cloudy"
"1956-09-16 15:00","1956","09","16","15:00","13.9","","11.1","","83","","14","","6","","19.3","","98.99","","","","","","Rain Showers"
"1956-09-16 16:00","1956","09","16","16:00","13.9","","11.7","","87","","14","","8","","11.3","","98.96","","","","","","Rain Showers"
"1956-09-16 17:00","1956","09","16","17:00","13.9","","12.2","","90","","14","","16","","11.3","","98.88","","","","","","Cloudy"
"1956-09-16 18:00","1956","09","16","18:00","13.9","","12.2","","90","","14","","6","","11.3","","98.94","","","","","","Cloudy"
"1956-09-16 19:00","1956","09","16","19:00","13.9","","12.8","","93","","11","","6","","8.0","","98.94","","","","","","Fog"
"1956-09-16 20:00","1956","09","16","20:00","13.9","","12.8","","93","","9","","5","","8.0","","98.94","","","","","","Fog"
"1956-09-16 21:00","1956","09","16","21:00","13.9","","12.8","","93","","11","","5","","4.8","","98.92","","","","","","Fog"
"1956-09-16 22:00","1956","09","16","22:00","13.9","","13.3","","96","","11","","5","","4.8","","98.90","","","","","","Rain Showers,Fog"
"1956-09-16 23:00","1956","09","16","23:00","12.8","","12.8","","100","","16","","3","","4.0","","98.80","","","","","","Rain Showers,Fog"
"1956-09-17 00:00","1956","09","17","00:00","13.3","","12.8","","96","","11","","3","","3.2","","98.71","","","","","","Rain,Fog"
"1956-09-17 01:00","1956","09","17","01:00","13.3","","12.8","","96","","14","","3","","2.0","","98.71","","","","","","Rain,Fog"
"1956-09-17 02:00","1956","09","17","02:00","13.3","","12.8","","96","","32","","3","","1.6","","98.62","","","","","","Fog"
"1956-09-17 03:00","1956","09","17","03:00","13.3","","12.8","","96","","32","","3","","0.4","","98.63","","","","","","Fog"
"1956-09-17 04:00","1956","09","17","04:00","12.8","","12.8","","100","","23","","3","","0.2","","98.59","","","","","","Fog"
"1956-09-17 05:00","1956","09","17","05:00","12.2","","12.2","","100","","23","","3","","0.2","","98.60","","","","","","Fog"
"1956-09-17 06:00","1956","09","17","06:00","11.7","","11.1","","96","","23","","5","","2.4","","98.66","","","","","","Fog"
"1956-09-17 07:00","1956","09","17","07:00","11.7","","11.1","","96","","27","","10","","19.3","","98.69","","","","","","Mainly Clear"
"1956-09-17 08:00","1956","09","17","08:00","16.1","","13.9","","87","","27","","24","","24.1","","98.68","","","","","","Mainly Clear"
"1956-09-17 09:00","1956","09","17","09:00","17.2","","12.8","","75","","27","","26","","24.1","","98.72","","","","","","Mainly Clear"
"1956-09-17 10:00","1956","09","17","10:00","18.3","","11.7","","65","","27","","32","","25.0","","98.69","","","","","","Mainly Clear"
"1956-09-17 11:00","1956","09","17","11:00","18.3","","10.0","","58","","29","","34","","25.0","","98.69","","","","","","Mainly Clear"
"1956-09-17 12:00","1956","09","17","12:00","17.2","","10.0","","63","","27","","23","","25.0","","98.71","","","","","","Mostly Cloudy"
"1956-09-17 13:00","1956","09","17","13:00","17.2","","9.4","","60","","29","","32","","25.0","","98.70","","","","","","Mostly Cloudy"
"1956-09-17 14:00","1956","09","17","14:00","18.9","","5.6","","42","","29","","35","","25.0","","98.74","","","","","","Mainly Clear"
"1956-09-17 15:00","1956","09","17","15:00","18.9","","6.7","","45","","29","","40","","25.0","","98.79","","","","","","Mainly Clear"
"1956-09-17 16:00","1956","09","17","16:00","16.1","","7.2","","56","","32","","37","","25.0","","98.85","","","","","","Mainly Clear"
"1956-09-17 17:00","1956","09","17","17:00","14.4","","6.7","","60","","29","","29","","25.0","","98.98","","","","","","Mainly Clear"
"1956-09-17 18:00","1956","09","17","18:00","12.8","","5.6","","61","","29","","32","","25.0","","98.99","","","","","","Mainly Clear"
"1956-09-17 19:00","1956","09","17","19:00","12.2","","5.0","","61","","32","","24","","25.0","","99.04","","","","","","Mainly Clear"
"1956-09-17 20:00","1956","09","17","20:00","11.1","","5.0","","66","","32","","16","","24.1","","99.10","","","","","","Mainly Clear"
"1956-09-17 21:00","1956","09","17","21:00","10.0","","5.0","","71","","29","","19","","24.1","","99.15","","","","","","Clear"
"1956-09-17 22:00","1956","09","17","22:00","9.4","","5.0","","74","","29","","19","","24.1","","99.20","","","","","","Clear"
"1956-09-17 23:00","1956","09","17","23:00","8.9","","4.4","","74","","27","","24","","25.0","","99.22","","","","","","Clear"
"1956-09-18 00:00","1956","09","18","00:00","8.3","","3.9","","74","","29","","13","","25.0","","99.28","","","","","","Clear"
"1956-09-18 01:00","1956","09","18","01:00","7.8","","4.4","","79","","34","","10","","25.0","","99.31","","","","","","Mainly Clear"
"1956-09-18 02:00","1956","09","18","02:00","6.1","","3.3","","82","","29","","8","","25.0","","99.31","","","","","","Mainly Clear"
"1956-09-18 03:00","1956","09","18","03:00","5.0","","2.8","","86","","29","","11","","25.0","","99.32","","","","","","Mainly Clear"
"1956-09-18 04:00","1956","09","18","04:00","6.1","","4.4","","89","","29","","16","","25.0","","99.37","","","","","","Mainly Clear"
"1956-09-18 05:00","1956","09","18","05:00","5.6","","3.9","","89","","32","","13","","25.0","","99.42","","","","","","Mainly Clear"
"1956-09-18 06:00","1956","09","18","06:00","5.0","","3.3","","89","","34","","10","","25.0","","99.50","","","","","","Mainly Clear"
"1956-09-18 07:00","1956","09","18","07:00","6.7","","3.9","","82","","29","","13","","25.0","","99.58","","","","","","Mostly Cloudy"
"1956-09-18 08:00","1956","09","18","08:00","8.9","","1.7","","61","","34","","16","","25.0","","99.64","","","","","","Mainly Clear"
"1956-09-18 09:00","1956","09","18","09:00","9.4","","0.6","","54","","34","","11","","25.0","","99.68","","","","","","Mainly Clear"
"1956-09-18 10:00","1956","09","18","10:00","10.6","","1.1","","52","","34","","23","","25.0","","99.69","","","","","","Mostly Cloudy"
"1956-09-18 11:00","1956","09","18","11:00","11.7","","0.6","","46","","32","","29","","25.0","","99.66","","","","","","Mostly Cloudy"
"1956-09-18 12:00","1956","09","18","12:00","13.3","","0.0","","40","","32","","23","","25.0","","99.61","","","","","","Mostly Cloudy"
"1956-09-18 13:00","1956","09","18","13:00","13.9","","0.0","","40","","32","","23","","25.0","","99.52","","","","","","Mostly Cloudy"
"1956-09-18 14:00","1956","09","18","14:00","12.8","","1.7","","47","","32","","13","","25.0","","99.48","","","","","","Mostly Cloudy"
"1956-09-18 15:00","1956","09","18","15:00","13.3","","1.7","","45","","29","","23","","25.0","","99.42","","","","","","Mostly Cloudy"
"1956-09-18 16:00","1956","09","18","16:00","13.9","","1.7","","43","","29","","24","","25.0","","99.38","","","","","","Mostly Cloudy"
"1956-09-18 17:00","1956","09","18","17:00","13.3","","1.7","","45","","29","","16","","25.0","","99.37","","","","","","Mostly Cloudy"
"1956-09-18 18:00","1956","09","18","18:00","11.7","","2.8","","54","","29","","10","","25.0","","99.39","","","","","","Mainly Clear"
"1956-09-18 19:00","1956","09","18","19:00","10.0","","2.8","","61","","25","","6","","25.0","","99.41","","","","","","Mostly Cloudy"
"1956-09-18 20:00","1956","09","18","20:00","8.3","","3.9","","74","","25","","10","","25.0","","99.40","","","","","","Mostly Cloudy"
"1956-09-18 21:00","1956","09","18","21:00","8.9","","4.4","","74","","20","","8","","25.0","","99.34","","","","","","Mainly Clear"
"1956-09-18 22:00","1956","09","18","22:00","7.8","","2.8","","71","","20","","11","","25.0","","99.30","","","","","","Mostly Cloudy"
"1956-09-18 23:00","1956","09","18","23:00","7.8","","2.2","","68","","23","","10","","25.0","","99.23","","","","","","Clear"
"1956-09-19 00:00","1956","09","19","00:00","7.8","","2.8","","71","","18","","6","","25.0","","99.17","","","","","","Mainly Clear"
"1956-09-19 01:00","1956","09","19","01:00","6.7","","3.3","","79","","18","","11","","25.0","","99.10","","","","","","Mainly Clear"
"1956-09-19 02:00","1956","09","19","02:00","7.8","","3.3","","73","","18","","13","","25.0","","98.95","","","","","","Clear"
"1956-09-19 03:00","1956","09","19","03:00","7.8","","3.3","","73","","18","","13","","25.0","","98.82","","","","","","Clear"
"1956-09-19 04:00","1956","09","19","04:00","8.9","","5.6","","80","","18","","16","","25.0","","98.70","","","","","","Mainly Clear"
"1956-09-19 05:00","1956","09","19","05:00","9.4","","7.2","","86","","18","","19","","25.0","","98.60","","","","","","Mainly Clear"
"1956-09-19 06:00","1956","09","19","06:00","11.1","","7.8","","80","","18","","23","","25.0","","98.51","","","","","","Mostly Cloudy"
"1956-09-19 07:00","1956","09","19","07:00","12.2","","8.9","","80","","18","","26","","19.3","","98.47","","","","","","Mostly Cloudy"
"1956-09-19 08:00","1956","09","19","08:00","14.4","","10.0","","75","","20","","29","","16.1","","98.35","","","","","","Cloudy"
"1956-09-19 09:00","1956","09","19","09:00","13.9","","10.6","","80","","20","","23","","12.9","","98.27","","","","","","Rain Showers"
"1956-09-19 10:00","1956","09","19","10:00","13.3","","11.7","","90","","20","","23","","12.9","","98.19","","","","","","Cloudy"
"1956-09-19 11:00","1956","09","19","11:00","13.3","","12.8","","96","","23","","26","","8.0","","98.14","","","","","","Rain Showers,Fog"
"1956-09-19 12:00","1956","09","19","12:00","13.9","","11.1","","87","","25","","29","","19.3","","98.07","","","","","","Cloudy"
"1956-09-19 13:00","1956","09","19","13:00","13.9","","11.1","","83","","25","","32","","19.3","","98.03","","","","","","Cloudy"
"1956-09-19 14:00","1956","09","19","14:00","12.8","","11.1","","90","","29","","16","","19.3","","98.02","","","","","","Rain Showers"
"1956-09-19 15:00","1956","09","19","15:00","12.2","","10.0","","86","","29","","21","","24.1","","98.08","","","","","","Rain Showers"
"1956-09-19 16:00","1956","09","19","16:00","11.7","","8.3","","80","","29","","21","","25.0","","98.09","","","","","","Cloudy"
"1956-09-19 17:00","1956","09","19","17:00","11.1","","6.7","","74","","32","","19","","25.0","","98.12","","","","","","Cloudy"
"1956-09-19 18:00","1956","09","19","18:00","9.4","","5.6","","77","","34","","29","","25.0","","98.22","","","","","","Mostly Cloudy"
"1956-09-19 19:00","1956","09","19","19:00","8.3","","4.4","","76","","34","","27","","25.0","","98.29","","","","","","Mostly Cloudy"
"1956-09-19 20:00","1956","09","19","20:00","7.2","","3.3","","76","","32","","26","","25.0","","98.32","","","","","","Mostly Cloudy"
"1956-09-19 21:00","1956","09","19","21:00","6.1","","2.8","","79","","32","","24","","25.0","","98.50","","","","","","Mainly Clear"
"1956-09-19 22:00","1956","09","19","22:00","5.0","","1.7","","79","","34","","23","","25.0","","98.62","","","","","","Mostly Cloudy"
"1956-09-19 23:00","1956","09","19","23:00","4.4","","0.0","","73","","32","","13","","25.0","","98.63","","","","","","Mainly Clear"
"1956-09-20 00:00","1956","09","20","00:00","2.8","","0.6","","85","","29","","10","","25.0","","98.68","","","","","","Clear"
"1956-09-20 01:00","1956","09","20","01:00","1.7","","0.0","","89","","29","","11","","25.0","","98.71","","","","","","Clear"
"1956-09-20 02:00","1956","09","20","02:00","1.7","","0.0","","89","","29","","10","","25.0","","98.76","","","","","","Clear"
"1956-09-20 03:00","1956","09","20","03:00","1.1","","-0.6","","89","","27","","10","","25.0","","98.77","","","","","","Mainly Clear"
"1956-09-20 04:00","1956","09","20","04:00","1.1","","-1.1","","85","","29","","8","","25.0","","98.84","","","","","","Mostly Cloudy"
"1956-09-20 05:00","1956","09","20","05:00","1.1","","0.0","","92","","29","","8","","25.0","","98.89","","","","","","Mostly Cloudy"
"1956-09-20 06:00","1956","09","20","06:00","2.2","","1.1","","92","","29","","6","","25.0","","98.94","","","","","","Mostly Cloudy"
"1956-09-20 07:00","1956","09","20","07:00","2.8","","1.1","","89","","29","","6","","25.0","","98.96","","","","","","Mostly Cloudy"
"1956-09-20 08:00","1956","09","20","08:00","4.4","","2.2","","85","","34","","13","","25.0","","99.07","","","","","","Cloudy"
"1956-09-20 09:00","1956","09","20","09:00","3.3","","1.7","","89","","34","","16","","11.3","","99.17","","","","","","Rain,Drizzle,Snow"
"1956-09-20 10:00","1956","09","20","10:00","2.8","","2.2","","96","","36","","19","","12.9","","99.24","","","","","","Rain"
"1956-09-20 11:00","1956","09","20","11:00","3.9","","2.2","","89","","2","","13","","25.0","","99.29","","","","","","Mostly Cloudy"
"1956-09-20 12:00","1956","09","20","12:00","5.6","","0.6","","70","","34","","23","","25.0","","99.34","","","","","","Mostly Cloudy"
"1956-09-20 13:00","1956","09","20","13:00","6.7","","1.1","","68","","36","","16","","25.0","","99.35","","","","","","Mostly Cloudy"
"1956-09-20 14:00","1956","09","20","14:00","6.1","","3.3","","82","","34","","23","","25.0","","99.38","","","","","","Mainly Clear"
"1956-09-20 15:00","1956","09","20","15:00","5.6","","2.2","","79","","27","","16","","25.0","","99.39","","","","","","Mostly Cloudy"
"1956-09-20 16:00","1956","09","20","16:00","7.8","","-0.6","","56","","29","","32","","25.0","","99.42","","","","","","Mainly Clear"
"1956-09-20 17:00","1956","09","20","17:00","7.2","","-0.6","","58","","29","","26","","25.0","","99.49","","","","","","Mainly Clear"
"1956-09-20 18:00","1956","09","20","18:00","6.1","","1.1","","70","","27","","23","","24.1","","99.54","","","","","","Snow Showers"
"1956-09-20 19:00","1956","09","20","19:00","4.4","","2.2","","85","","25","","14","","25.0","","99.60","","","","","","Mainly Clear"
"1956-09-20 20:00","1956","09","20","20:00","3.9","","1.1","","82","","23","","11","","25.0","","99.64","","","","","","Mainly Clear"
"1956-09-20 21:00","1956","09","20","21:00","2.8","","0.6","","85","","23","","13","","25.0","","99.67","","","","","","Mainly Clear"
"1956-09-20 22:00","1956","09","20","22:00","2.2","","0.6","","89","","23","","13","","25.0","","99.70","","","","","","Clear"
"1956-09-20 23:00","1956","09","20","23:00","1.7","","1.1","","96","","23","","16","","25.0","","99.68","","","","","","Clear"
"1956-09-21 00:00","1956","09","21","00:00","1.1","","0.6","","96","","23","","11","","25.0","","99.69","","","","","","Mainly Clear"
"1956-09-21 01:00","1956","09","21","01:00","0.6","","0.6","","100","","23","","8","","25.0","","99.70","","","","","","Mainly Clear"
"1956-09-21 02:00","1956","09","21","02:00","0.6","","0.6","","100","","23","","13","","25.0","","99.70","","","","","","Mainly Clear"
"1956-09-21 03:00","1956","09","21","03:00","3.3","","2.2","","92","","23","","5","","25.0","","99.70","","","","","","Clear"
"1956-09-21 04:00","1956","09","21","04:00","2.2","","1.1","","92","","25","","8","","25.0","","99.71","","","","","","Clear"
"1956-09-21 05:00","1956","09","21","05:00","1.7","","0.0","","89","","25","","13","","25.0","","99.77","","","","","","Mainly Clear"
"1956-09-21 06:00","1956","09","21","06:00","1.7","","0.6","","92","","23","","14","","24.1","","99.80","","","","","","Mainly Clear"
"1956-09-21 07:00","1956","09","21","07:00","4.4","","1.7","","82","","23","","16","","24.1","","99.82","","","","","","Mainly Clear"
"1956-09-21 08:00","1956","09","21","08:00","8.3","","2.8","","68","","23","","19","","24.1","","99.89","","","","","","Mainly Clear"
"1956-09-21 09:00","1956","09","21","09:00","10.6","","2.8","","59","","25","","35","","24.1","","99.89","","","","","","Mainly Clear"
"1956-09-21 10:00","1956","09","21","10:00","12.8","","2.2","","49","","25","","35","","24.1","","99.89","","","","","","Mainly Clear"
"1956-09-21 11:00","1956","09","21","11:00","13.9","","1.7","","43","","25","","32","","24.1","","99.84","","","","","","Mainly Clear"
"1956-09-21 12:00","1956","09","21","12:00","14.4","","1.7","","42","","25","","32","","24.1","","99.78","","","","","","Mostly Cloudy"
"1956-09-21 13:00","1956","09","21","13:00","14.4","","1.7","","42","","25","","29","","24.1","","99.72","","","","","","Mostly Cloudy"
"1956-09-21 14:00","1956","09","21","14:00","15.0","","1.1","","39","","25","","32","","24.1","","99.71","","","","","","Mostly Cloudy"
"1956-09-21 15:00","1956","09","21","15:00","15.0","","1.7","","40","","25","","31","","25.0","","99.66","","","","","","Mostly Cloudy"
"1956-09-21 16:00","1956","09","21","16:00","15.0","","1.7","","40","","25","","27","","25.0","","99.66","","","","","","Mainly Clear"
"1956-09-21 17:00","1956","09","21","17:00","14.4","","1.7","","42","","25","","24","","25.0","","99.64","","","","","","Mainly Clear"
"1956-09-21 18:00","1956","09","21","18:00","10.6","","2.8","","59","","25","","10","","25.0","","99.65","","","","","","Mainly Clear"
"1956-09-21 19:00","1956","09","21","19:00","10.0","","3.3","","63","","23","","10","","25.0","","99.65","","","","","","Mainly Clear"
"1956-09-21 20:00","1956","09","21","20:00","9.4","","4.4","","71","","23","","8","","25.0","","99.68","","","","","","Mainly Clear"
"1956-09-21 21:00","1956","09","21","21:00","7.8","","4.4","","79","","25","","10","","25.0","","99.74","","","","","","Mainly Clear"
"1956-09-21 22:00","1956","09","21","22:00","7.2","","3.9","","79","","25","","16","","25.0","","99.75","","","","","","Mainly Clear"
"1956-09-21 23:00","1956","09","21","23:00","8.3","","4.4","","76","","25","","18","","25.0","","99.72","","","","","","Mainly Clear"
"1956-09-22 00:00","1956","09","22","00:00","6.1","","3.3","","82","","25","","11","","25.0","","99.73","","","","","","Mainly Clear"
"1956-09-22 01:00","1956","09","22","01:00","6.1","","3.3","","82","","25","","14","","25.0","","99.72","","","","","","Mainly Clear"
"1956-09-22 02:00","1956","09","22","02:00","6.1","","3.3","","82","","36","","8","","25.0","","99.68","","","","","","Mainly Clear"
"1956-09-22 03:00","1956","09","22","03:00","6.1","","2.2","","76","","18","","6","","25.0","","99.68","","","","","","Mainly Clear"
"1956-09-22 04:00","1956","09","22","04:00","5.6","","1.7","","76","","18","","6","","25.0","","99.66","","","","","","Mainly Clear"
"1956-09-22 05:00","1956","09","22","05:00","4.4","","2.8","","89","","23","","6","","25.0","","99.61","","","","","","Mainly Clear"
"1956-09-22 06:00","1956","09","22","06:00","4.4","","2.8","","89","","36","","6","","12.9","","99.58","","","","","","Mainly Clear"
"1956-09-22 07:00","1956","09","22","07:00","5.6","","3.9","","89","","36","","6","","11.3","","99.58","","","","","","Clear"
"1956-09-22 08:00","1956","09","22","08:00","8.3","","6.1","","86","","36","","5","","12.9","","99.61","","","","","","Clear"
"1956-09-22 09:00","1956","09","22","09:00","12.8","","7.8","","72","","16","","6","","12.9","","99.58","","","","","","Clear"
"1956-09-22 10:00","1956","09","22","10:00","13.9","","8.9","","69","","16","","13","","12.9","","99.51","","","","","","Mainly Clear"
"1956-09-22 11:00","1956","09","22","11:00","15.0","","8.9","","67","","9","","11","","11.3","","99.47","","","","","","Mainly Clear"
"1956-09-22 12:00","1956","09","22","12:00","16.1","","8.9","","62","","18","","14","","9.7","","99.44","","","","","","Haze"
"1956-09-22 13:00","1956","09","22","13:00","16.1","","8.3","","60","","14","","13","","9.7","","99.35","","","","","","Haze"
"1956-09-22 14:00","1956","09","22","14:00","17.2","","8.9","","58","","16","","11","","9.7","","99.20","","","","","","Haze"
"1956-09-22 15:00","1956","09","22","15:00","16.1","","7.2","","56","","20","","6","","11.3","","99.28","","","","","","Cloudy"
"1956-09-22 16:00","1956","09","22","16:00","13.3","","10.0","","80","","18","","11","","11.3","","99.24","","","","","","Rain Showers"
"1956-09-22 17:00","1956","09","22","17:00","12.8","","8.9","","77","","23","","6","","8.0","","99.25","","","","","","Haze"
"1956-09-22 18:00","1956","09","22","18:00","12.8","","8.9","","77","","20","","8","","9.7","","99.27","","","","","","Haze"
"1956-09-22 19:00","1956","09","22","19:00","12.2","","9.4","","83","","18","","3","","12.9","","99.23","","","","","","Mostly Cloudy"
"1956-09-22 20:00","1956","09","22","20:00","11.1","","8.9","","86","","5","","6","","11.3","","99.10","","","","","","Mostly Cloudy"
"1956-09-22 21:00","1956","09","22","21:00","11.1","","9.4","","90","","23","","5","","6.4","","99.21","","","","","","Fog"
"1956-09-22 22:00","1956","09","22","22:00","10.6","","9.4","","93","","36","","5","","4.8","","99.23","","","","","","Rain Showers,Fog"
"1956-09-22 23:00","1956","09","22","23:00","10.6","","9.4","","93","","2","","6","","6.4","","99.12","","","","","","Fog"
"1956-09-23 00:00","1956","09","23","00:00","11.1","","9.4","","90","","2","","3","","4.8","","99.18","","","","","","Rain Showers,Fog"
"1956-09-23 01:00","1956","09","23","01:00","10.6","","8.9","","89","","7","","6","","3.2","","99.10","","","","","","Thunderstorms,Rain Showers,Fog"
"1956-09-23 02:00","1956","09","23","02:00","10.0","","9.4","","96","","5","","6","","3.2","","99.03","","","","","","Thunderstorms,Rain Showers,Fog"
"1956-09-23 03:00","1956","09","23","03:00","11.1","","11.1","","100","","14","","6","","3.2","","98.98","","","","","","Thunderstorms,Rain Showers,Fog"
"1956-09-23 04:00","1956","09","23","04:00","11.1","","11.1","","100","","9","","8","","2.4","","98.93","","","","","","Fog"
"1956-09-23 05:00","1956","09","23","05:00","10.6","","10.0","","96","","7","","13","","2.4","","98.93","","","","","","Fog"
"1956-09-23 06:00","1956","09","23","06:00","10.6","","10.6","","100","","7","","8","","1.6","","98.83","","","","","","Fog"
"1956-09-23 07:00","1956","09","23","07:00","11.1","","11.1","","100","","9","","16","","0.2","","98.82","","","","","","Fog"
"1956-09-23 08:00","1956","09","23","08:00","11.7","","11.7","","100","","9","","8","","0.2","","98.91","","","","","","Fog"
"1956-09-23 09:00","1956","09","23","09:00","11.7","","11.7","","100","","9","","6","","0.4","","98.88","","","","","","Drizzle,Fog"
"1956-09-23 10:00","1956","09","23","10:00","12.2","","12.2","","100","","36","","5","","1.2","","98.88","","","","","","Drizzle,Fog"
"1956-09-23 11:00","1956","09","23","11:00","12.8","","12.2","","96","","","","0","","1.6","","98.90","","","","","","Drizzle,Fog"
"1956-09-23 12:00","1956","09","23","12:00","13.3","","12.2","","93","","14","","3","","2.4","","98.90","","","","","","Fog"
"1956-09-23 13:00","1956","09","23","13:00","13.9","","12.8","","93","","18","","3","","3.2","","98.90","","","","","","Fog"
"1956-09-23 14:00","1956","09","23","14:00","15.6","","12.8","","84","","27","","16","","12.9","","98.90","","","","","","Cloudy"
"1956-09-23 15:00","1956","09","23","15:00","15.6","","12.8","","84","","25","","14","","11.3","","98.91","","","","","","Cloudy"
"1956-09-23 16:00","1956","09","23","16:00","15.0","","11.7","","81","","29","","19","","12.9","","98.94","","","","","","Cloudy"
"1956-09-23 17:00","1956","09","23","17:00","13.9","","11.1","","83","","29","","23","","19.3","","99.00","","","","","","Cloudy"
"1956-09-23 18:00","1956","09","23","18:00","13.3","","10.6","","83","","27","","10","","19.3","","99.03","","","","","","Cloudy"
"1956-09-23 19:00","1956","09","23","19:00","13.3","","10.6","","83","","27","","5","","24.1","","99.07","","","","","","Cloudy"
"1956-09-23 20:00","1956","09","23","20:00","12.8","","10.0","","83","","29","","13","","24.1","","99.15","","","","","","Cloudy"
"1956-09-23 21:00","1956","09","23","21:00","12.8","","9.4","","80","","27","","18","","25.0","","99.17","","","","","","Cloudy"
"1956-09-23 22:00","1956","09","23","22:00","12.2","","9.4","","83","","27","","11","","25.0","","99.20","","","","","","Cloudy"
"1956-09-23 23:00","1956","09","23","23:00","11.7","","8.9","","83","","29","","11","","25.0","","99.18","","","","","","Cloudy"
"1956-09-24 00:00","1956","09","24","00:00","11.7","","8.9","","83","","25","","10","","25.0","","99.20","","","","","","Mostly Cloudy"
"1956-09-24 01:00","1956","09","24","01:00","11.1","","8.3","","83","","25","","13","","25.0","","99.27","","","","","","Cloudy"
"1956-09-24 02:00","1956","09","24","02:00","11.1","","8.3","","83","","29","","16","","25.0","","99.25","","","","","","Cloudy"
"1956-09-24 03:00","1956","09","24","03:00","10.6","","6.1","","74","","27","","13","","25.0","","99.25","","","","","","Cloudy"
"1956-09-24 04:00","1956","09","24","04:00","10.6","","6.7","","77","","23","","16","","24.1","","99.25","","","","","","Cloudy"
"1956-09-24 05:00","1956","09","24","05:00","7.2","","6.1","","93","","23","","13","","24.1","","99.30","","","","","","Mainly Clear"
"1956-09-24 06:00","1956","09","24","06:00","7.2","","6.1","","93","","23","","6","","9.7","","99.35","","","","","","Fog"
"1956-09-24 07:00","1956","09","24","07:00","7.8","","6.7","","93","","32","","6","","9.7","","99.39","","","","","","Fog"
"1956-09-24 08:00","1956","09","24","08:00","10.6","","7.2","","80","","29","","13","","16.1","","99.43","","","","","","Mainly Clear"
"1956-09-24 09:00","1956","09","24","09:00","13.3","","9.4","","74","","27","","19","","16.1","","99.39","","","","","","Mainly Clear"
"1956-09-24 10:00","1956","09","24","10:00","15.0","","10.6","","75","","27","","23","","24.1","","99.37","","","","","","Mainly Clear"
"1956-09-24 11:00","1956","09","24","11:00","16.1","","10.0","","67","","27","","16","","24.1","","99.35","","","","","","Mostly Cloudy"
"1956-09-24 12:00","1956","09","24","12:00","17.2","","9.4","","60","","27","","23","","24.1","","99.34","","","","","","Mostly Cloudy"
"1956-09-24 13:00","1956","09","24","13:00","17.2","","9.4","","60","","27","","16","","24.1","","99.31","","","","","","Mostly Cloudy"
"1956-09-24 14:00","1956","09","24","14:00","13.3","","8.9","","74","","32","","8","","24.1","","99.32","","","","","","Moderate Rain Showers"
"1956-09-24 15:00","1956","09","24","15:00","15.0","","10.0","","72","","29","","5","","25.0","","99.35","","","","","","Mostly Cloudy"
"1956-09-24 16:00","1956","09","24","16:00","15.6","","10.0","","70","","36","","11","","25.0","","99.39","","","","","","Mostly Cloudy"
"1956-09-24 17:00","1956","09","24","17:00","14.4","","10.0","","75","","2","","10","","25.0","","99.44","","","","","","Mostly Cloudy"
"1956-09-24 18:00","1956","09","24","18:00","12.8","","9.4","","80","","34","","8","","25.0","","99.49","","","","","","Mainly Clear"
"1956-09-24 19:00","1956","09","24","19:00","11.1","","8.3","","83","","2","","13","","25.0","","99.53","","","","","","Clear"
"1956-09-24 20:00","1956","09","24","20:00","9.4","","7.8","","89","","34","","5","","19.3","","99.60","","","","","","Clear"
"1956-09-24 21:00","1956","09","24","21:00","8.3","","7.2","","93","","32","","3","","19.3","","99.66","","","","","","Clear"
"1956-09-24 22:00","1956","09","24","22:00","7.8","","6.7","","93","","34","","3","","24.1","","99.72","","","","","","Clear"
"1956-09-24 23:00","1956","09","24","23:00","7.2","","6.1","","93","","36","","10","","19.3","","99.73","","","","","","Clear"
"1956-09-25 00:00","1956","09","25","00:00","6.1","","5.0","","93","","29","","6","","19.3","","99.76","","","","","","Clear"
"1956-09-25 01:00","1956","09","25","01:00","6.7","","5.6","","93","","34","","10","","19.3","","99.76","","","","","","Clear"
"1956-09-25 02:00","1956","09","25","02:00","6.1","","4.4","","89","","36","","6","","25.0","","99.79","","","","","","Clear"
"1956-09-25 03:00","1956","09","25","03:00","5.0","","3.9","","93","","32","","8","","25.0","","99.84","","","","","","Clear"
"1956-09-25 04:00","1956","09","25","04:00","5.0","","3.3","","89","","32","","8","","25.0","","99.88","","","","","","Clear"
"1956-09-25 05:00","1956","09","25","05:00","4.4","","3.3","","93","","32","","10","","25.0","","99.93","","","","","","Clear"
"1956-09-25 06:00","1956","09","25","06:00","2.8","","2.2","","96","","32","","6","","25.0","","100.00","","","","","","Clear"
"1956-09-25 07:00","1956","09","25","07:00","4.4","","3.3","","93","","32","","6","","25.0","","100.05","","","","","","Clear"
"1956-09-25 08:00","1956","09","25","08:00","7.8","","5.0","","82","","2","","10","","25.0","","100.08","","","","","","Clear"
"1956-09-25 09:00","1956","09","25","09:00","9.4","","4.4","","71","","36","","8","","25.0","","100.10","","","","","","Mainly Clear"
"1956-09-25 10:00","1956","09","25","10:00","11.1","","3.9","","61","","5","","13","","25.0","","100.10","","","","","","Mainly Clear"
"1956-09-25 11:00","1956","09","25","11:00","12.2","","4.4","","59","","5","","11","","25.0","","100.10","","","","","","Mainly Clear"
"1956-09-25 12:00","1956","09","25","12:00","12.8","","3.9","","55","","34","","6","","25.0","","100.10","","","","","","Mostly Cloudy"
"1956-09-25 13:00","1956","09","25","13:00","13.3","","3.9","","53","","2","","11","","25.0","","100.07","","","","","","Mostly Cloudy"
"1956-09-25 14:00","1956","09","25","14:00","13.3","","3.9","","53","","2","","6","","25.0","","100.02","","","","","","Mostly Cloudy"
"1956-09-25 15:00","1956","09","25","15:00","14.4","","4.4","","51","","9","","8","","32.2","","100.01","","","","","","Mostly Cloudy"
"1956-09-25 16:00","1956","09","25","16:00","13.9","","6.1","","59","","18","","8","","32.2","","100.02","","","","","","Mostly Cloudy"
"1956-09-25 17:00","1956","09","25","17:00","12.8","","7.2","","69","","18","","10","","24.1","","100.04","","","","","","Mainly Clear"
"1956-09-25 18:00","1956","09","25","18:00","10.6","","6.7","","77","","18","","10","","19.3","","100.08","","","","","","Clear"
"1956-09-25 19:00","1956","09","25","19:00","10.0","","6.7","","80","","18","","10","","19.3","","100.11","","","","","","Clear"
"1956-09-25 20:00","1956","09","25","20:00","7.8","","5.6","","86","","18","","3","","19.3","","100.18","","","","","","Clear"
"1956-09-25 21:00","1956","09","25","21:00","6.7","","5.0","","89","","","","0","","19.3","","100.18","","","","","","Clear"
"1956-09-25 22:00","1956","09","25","22:00","5.6","","3.9","","89","","32","","5","","24.1","","100.21","","","","","","Clear"
"1956-09-25 23:00","1956","09","25","23:00","6.7","","5.0","","89","","36","","10","","24.1","","100.22","","","","","","Clear"
"1956-09-26 00:00","1956","09","26","00:00","5.6","","4.4","","93","","36","","5","","19.3","","100.24","","","","","","Clear"
"1956-09-26 01:00","1956","09","26","01:00","5.6","","4.4","","93","","32","","6","","16.1","","100.26","","","","","","Clear"
"1956-09-26 02:00","1956","09","26","02:00","5.0","","3.9","","93","","36","","8","","25.0","","100.28","","","","","","Clear"
"1956-09-26 03:00","1956","09","26","03:00","5.0","","3.9","","93","","36","","6","","25.0","","100.29","","","","","","Clear"
"1956-09-26 04:00","1956","09","26","04:00","5.0","","3.9","","93","","36","","8","","25.0","","100.30","","","","","","Clear"
"1956-09-26 05:00","1956","09","26","05:00","4.4","","4.4","","100","","36","","8","","25.0","","100.37","","","","","","Mainly Clear"
"1956-09-26 06:00","1956","09","26","06:00","4.4","","3.3","","93","","36","","8","","24.1","","100.42","","","","","","Mainly Clear"
"1956-09-26 07:00","1956","09","26","07:00","4.4","","3.9","","96","","36","","10","","24.1","","100.45","","","","","","Mainly Clear"
"1956-09-26 08:00","1956","09","26","08:00","8.9","","6.7","","86","","5","","6","","19.3","","100.53","","","","","","Mainly Clear"
"1956-09-26 09:00","1956","09","26","09:00","12.2","","7.8","","74","","7","","6","","24.1","","100.55","","","","","","Mainly Clear"
"1956-09-26 10:00","1956","09","26","10:00","13.9","","5.0","","55","","14","","14","","24.1","","100.54","","","","","","Mainly Clear"
"1956-09-26 11:00","1956","09","26","11:00","15.0","","5.0","","51","","14","","14","","25.0","","100.55","","","","","","Mainly Clear"
"1956-09-26 12:00","1956","09","26","12:00","15.0","","3.3","","46","","7","","14","","25.0","","100.54","","","","","","Mainly Clear"
"1956-09-26 13:00","1956","09","26","13:00","15.6","","4.4","","48","","14","","24","","25.0","","100.54","","","","","","Mainly Clear"
"1956-09-26 14:00","1956","09","26","14:00","15.6","","4.4","","48","","14","","19","","25.0","","100.49","","","","","","Mainly Clear"
"1956-09-26 15:00","1956","09","26","15:00","15.0","","3.3","","46","","11","","19","","25.0","","100.48","","","","","","Mainly Clear"
"1956-09-26 16:00","1956","09","26","16:00","14.4","","5.0","","53","","11","","21","","25.0","","100.49","","","","","","Mainly Clear"
"1956-09-26 17:00","1956","09","26","17:00","13.9","","5.0","","55","","11","","16","","25.0","","100.52","","","","","","Mainly Clear"
"1956-09-26 18:00","1956","09","26","18:00","11.7","","6.1","","69","","7","","8","","25.0","","100.57","","","","","","Mainly Clear"
"1956-09-26 19:00","1956","09","26","19:00","10.6","","6.7","","77","","7","","8","","25.0","","100.57","","","","","","Clear"
"1956-09-26 20:00","1956","09","26","20:00","8.9","","7.2","","89","","5","","6","","25.0","","100.59","","","","","","Clear"
"1956-09-26 21:00","1956","09","26","21:00","8.3","","6.7","","89","","2","","8","","24.1","","100.61","","","","","","Clear"
"1956-09-26 22:00","1956","09","26","22:00","8.3","","7.2","","93","","5","","8","","24.1","","100.61","","","","","","Clear"
"1956-09-26 23:00","1956","09","26","23:00","6.7","","5.6","","93","","5","","10","","24.1","","100.66","","","","","","Clear"
"1956-09-27 00:00","1956","09","27","00:00","7.8","","5.0","","82","","7","","10","","24.1","","100.66","","","","","","Clear"
"1956-09-27 01:00","1956","09","27","01:00","7.2","","3.9","","79","","7","","10","","24.1","","100.67","","","","","","Clear"
"1956-09-27 02:00","1956","09","27","02:00","5.6","","3.3","","86","","5","","10","","24.1","","100.64","","","","","","Clear"
"1956-09-27 03:00","1956","09","27","03:00","5.6","","3.3","","86","","5","","10","","24.1","","100.66","","","","","","Clear"
"1956-09-27 04:00","1956","09","27","04:00","4.4","","2.2","","85","","5","","8","","24.1","","100.68","","","","","","Clear"
"1956-09-27 05:00","1956","09","27","05:00","4.4","","2.8","","89","","5","","8","","24.1","","100.72","","","","","","Clear"
"1956-09-27 06:00","1956","09","27","06:00","4.4","","2.8","","89","","5","","10","","25.0","","100.77","","","","","","Clear"
"1956-09-27 07:00","1956","09","27","07:00","6.1","","5.0","","93","","5","","10","","24.1","","100.79","","","","","","Clear"
"1956-09-27 08:00","1956","09","27","08:00","10.0","","7.2","","83","","7","","13","","16.1","","100.77","","","","","","Clear"
"1956-09-27 09:00","1956","09","27","09:00","12.2","","6.1","","66","","11","","21","","19.3","","100.80","","","","","","Mainly Clear"
"1956-09-27 10:00","1956","09","27","10:00","12.8","","5.6","","61","","9","","21","","25.0","","100.80","","","","","","Mainly Clear"
"1956-09-27 11:00","1956","09","27","11:00","13.3","","3.3","","51","","9","","23","","25.0","","100.79","","","","","","Mainly Clear"
"1956-09-27 12:00","1956","09","27","12:00","13.3","","0.0","","40","","9","","23","","25.0","","100.75","","","","","","Clear"
"1956-09-27 13:00","1956","09","27","13:00","13.9","","2.8","","47","","9","","21","","25.0","","100.70","","","","","","Clear"
"1956-09-27 14:00","1956","09","27","14:00","13.9","","1.7","","43","","9","","23","","25.0","","100.65","","","","","","Clear"
"1956-09-27 15:00","1956","09","27","15:00","13.9","","3.3","","49","","11","","23","","25.0","","100.60","","","","","","Clear"
"1956-09-27 16:00","1956","09","27","16:00","12.8","","2.8","","51","","9","","19","","25.0","","100.59","","","","","","Clear"
"1956-09-27 17:00","1956","09","27","17:00","12.2","","3.3","","55","","9","","13","","25.0","","100.54","","","","","","Clear"
"1956-09-27 18:00","1956","09","27","18:00","10.0","","3.3","","63","","7","","6","","25.0","","100.53","","","","","","Clear"
"1956-09-27 19:00","1956","09","27","19:00","8.9","","3.3","","68","","5","","6","","25.0","","100.53","","","","","","Clear"
"1956-09-27 20:00","1956","09","27","20:00","7.2","","3.3","","76","","5","","6","","25.0","","100.54","","","","","","Clear"
"1956-09-27 21:00","1956","09","27","21:00","6.1","","3.3","","82","","5","","6","","25.0","","100.51","","","","","","Clear"
"1956-09-27 22:00","1956","09","27","22:00","5.6","","3.3","","86","","5","","5","","24.1","","100.49","","","","","","Clear"
"1956-09-27 23:00","1956","09","27","23:00","4.4","","2.8","","89","","36","","6","","24.1","","100.47","","","","","","Clear"
"1956-09-28 00:00","1956","09","28","00:00","4.4","","2.2","","85","","2","","6","","24.1","","100.45","","","","","","Clear"
"1956-09-28 01:00","1956","09","28","01:00","3.9","","2.2","","89","","2","","6","","24.1","","100.43","","","","","","Clear"
"1956-09-28 02:00","1956","09","28","02:00","3.3","","1.7","","89","","2","","5","","25.0","","100.39","","","","","","Clear"
"1956-09-28 03:00","1956","09","28","03:00","2.8","","1.7","","92","","2","","3","","25.0","","100.38","","","","","","Clear"
"1956-09-28 04:00","1956","09","28","04:00","2.2","","1.1","","92","","36","","5","","25.0","","100.37","","","","","","Clear"
"1956-09-28 05:00","1956","09","28","05:00","3.3","","1.7","","89","","34","","10","","25.0","","100.42","","","","","","Clear"
"1956-09-28 06:00","1956","09","28","06:00","3.3","","2.2","","92","","34","","6","","24.1","","100.45","","","","","","Mainly Clear"
"1956-09-28 07:00","1956","09","28","07:00","3.9","","2.2","","89","","34","","8","","24.1","","100.46","","","","","","Mainly Clear"
"1956-09-28 08:00","1956","09","28","08:00","8.3","","5.6","","83","","2","","6","","16.1","","100.46","","","","","","Mainly Clear"
"1956-09-28 09:00","1956","09","28","09:00","11.7","","6.7","","71","","7","","6","","12.9","","100.47","","","","","","Mainly Clear"
"1956-09-28 10:00","1956","09","28","10:00","12.8","","6.7","","66","","7","","8","","8.0","","100.47","","","","","","Smoke,Haze"
"1956-09-28 11:00","1956","09","28","11:00","14.4","","7.2","","62","","9","","6","","11.3","","100.43","","","","","","Clear"
"1956-09-28 12:00","1956","09","28","12:00","15.6","","8.3","","62","","14","","11","","12.9","","100.36","","","","","","Clear"
"1956-09-28 13:00","1956","09","28","13:00","15.6","","7.8","","60","","14","","13","","16.1","","100.28","","","","","","Clear"
"1956-09-28 14:00","1956","09","28","14:00","16.1","","8.3","","60","","16","","14","","12.9","","100.26","","","","","","Clear"
"1956-09-28 15:00","1956","09","28","15:00","15.6","","7.2","","58","","16","","19","","16.1","","100.18","","","","","","Clear"
"1956-09-28 16:00","1956","09","28","16:00","14.4","","7.2","","62","","16","","16","","16.1","","100.18","","","","","","Clear"
"1956-09-28 17:00","1956","09","28","17:00","13.3","","7.2","","66","","16","","10","","16.1","","100.18","","","","","","Clear"
"1956-09-28 18:00","1956","09","28","18:00","11.7","","6.7","","71","","18","","8","","12.9","","100.16","","","","","","Clear"
"1956-09-28 19:00","1956","09","28","19:00","10.0","","6.7","","80","","18","","6","","12.9","","100.16","","","","","","Clear"
"1956-09-28 20:00","1956","09","28","20:00","8.3","","6.7","","89","","18","","5","","16.1","","100.14","","","","","","Clear"
"1956-09-28 21:00","1956","09","28","21:00","8.3","","6.7","","89","","18","","5","","16.1","","100.14","","","","","","Clear"
"1956-09-28 22:00","1956","09","28","22:00","7.2","","5.6","","89","","","","0","","19.3","","100.15","","","","","","Clear"
"1956-09-28 23:00","1956","09","28","23:00","6.7","","5.6","","93","","34","","8","","3.2","","100.13","","","","","","Fog"
"1956-09-29 00:00","1956","09","29","00:00","5.6","","5.6","","100","","34","","5","","0.4","","100.11","","","","","","Fog"
"1956-09-29 01:00","1956","09","29","01:00","5.6","","5.0","","96","","36","","5","","2.0","","100.09","","","","","","Fog"
"1956-09-29 02:00","1956","09","29","02:00","6.1","","6.1","","100","","36","","3","","0.0","","100.08","","","","","","Fog"
"1956-09-29 03:00","1956","09","29","03:00","7.2","","7.2","","100","","36","","3","","0.0","","100.08","","","","","","Fog"
"1956-09-29 04:00","1956","09","29","04:00","7.2","","7.2","","100","","36","","5","","0.4","","100.08","","","","","","Fog"
"1956-09-29 05:00","1956","09","29","05:00","7.2","","7.2","","100","","36","","2","","0.2","","100.09","","","","","","Fog"
"1956-09-29 06:00","1956","09","29","06:00","7.8","","7.8","","100","","34","","2","","0.0","","100.12","","","","","","Fog"
"1956-09-29 07:00","1956","09","29","07:00","7.8","","7.8","","100","","2","","3","","0.2","","100.13","","","","","","Fog"
"1956-09-29 08:00","1956","09","29","08:00","8.9","","8.9","","100","","","","0","","0.2","","100.16","","","","","","Fog"
"1956-09-29 09:00","1956","09","29","09:00","10.0","","10.0","","100","","","","0","","0.2","","100.16","","","","","","Fog"
"1956-09-29 10:00","1956","09","29","10:00","10.0","","10.0","","100","","23","","8","","0.8","","100.15","","","","","","Fog"
"1956-09-29 11:00","1956","09","29","11:00","12.8","","11.1","","90","","23","","13","","2.4","","100.09","","","","","","Fog"
"1956-09-29 12:00","1956","09","29","12:00","17.2","","15.0","","87","","18","","10","","4.8","","100.00","","","","","","Haze"
"1956-09-29 13:00","1956","09","29","13:00","18.9","","13.9","","73","","18","","19","","4.8","","99.93","","","","","","Haze"
"1956-09-29 14:00","1956","09","29","14:00","18.9","","13.9","","73","","18","","16","","4.8","","99.85","","","","","","Haze"
"1956-09-29 15:00","1956","09","29","15:00","18.9","","13.9","","73","","18","","19","","4.8","","99.81","","","","","","Haze"
"1956-09-29 16:00","1956","09","29","16:00","17.2","","12.8","","75","","14","","16","","4.8","","99.79","","","","","","Haze"
"1956-09-29 17:00","1956","09","29","17:00","17.2","","12.8","","75","","16","","13","","4.8","","99.78","","","","","","Haze"
"1956-09-29 18:00","1956","09","29","18:00","13.9","","12.2","","90","","16","","10","","4.8","","99.76","","","","","","Haze"
"1956-09-29 19:00","1956","09","29","19:00","13.3","","11.7","","90","","16","","8","","4.8","","99.77","","","","","","Haze"
"1956-09-29 20:00","1956","09","29","20:00","12.2","","11.1","","93","","16","","10","","4.8","","99.75","","","","","","Fog"
"1956-09-29 21:00","1956","09","29","21:00","11.7","","10.0","","90","","16","","5","","1.2","","99.73","","","","","","Fog"
"1956-09-29 22:00","1956","09","29","22:00","11.1","","10.6","","96","","16","","6","","1.2","","99.65","","","","","","Fog"
"1956-09-29 23:00","1956","09","29","23:00","10.0","","10.0","","100","","18","","6","","0.0","","99.61","","","","","","Fog"
"1956-09-30 00:00","1956","09","30","00:00","10.0","","10.0","","100","","","","0","","0.0","","99.59","","","","","","Fog"
"1956-09-30 01:00","1956","09","30","01:00","10.0","","10.0","","100","","","","0","","0.0","","99.52","","","","","","Fog"
"1956-09-30 02:00","1956","09","30","02:00","10.0","","10.0","","100","","","","0","","0.0","","99.43","","","","","","Fog"
"1956-09-30 03:00","1956","09","30","03:00","10.0","","10.0","","100","","","","0","","0.0","","99.31","","","","","","Fog"
"1956-09-30 04:00","1956","09","30","04:00","9.4","","9.4","","100","","","","0","","0.0","","99.25","","","","","","Fog"
"1956-09-30 05:00","1956","09","30","05:00","10.0","","10.0","","100","","11","","3","","0.0","","99.20","","","","","","Fog"
"1956-09-30 06:00","1956","09","30","06:00","10.0","","10.0","","100","","14","","5","","0.0","","99.18","","","","","","Fog"
"1956-09-30 07:00","1956","09","30","07:00","12.2","","11.7","","96","","18","","8","","0.8","","99.13","","","","","","Fog"
"1956-09-30 08:00","1956","09","30","08:00","12.2","","11.7","","96","","25","","29","","4.8","","99.22","","","","","","Fog"
"1956-09-30 09:00","1956","09","30","09:00","12.2","","11.1","","93","","9","","16","","19.3","","99.06","","","","","","Rain Showers"
"1956-09-30 10:00","1956","09","30","10:00","13.3","","11.7","","90","","25","","13","","25.0","","99.15","","","","","","Mostly Cloudy"
"1956-09-30 11:00","1956","09","30","11:00","15.6","","11.7","","78","","27","","26","","25.0","","99.21","","","","","","Mostly Cloudy"
"1956-09-30 12:00","1956","09","30","12:00","13.3","","10.6","","83","","27","","32","","25.0","","99.26","","","","","","Cloudy"
"1956-09-30 13:00","1956","09","30","13:00","13.3","","8.9","","74","","27","","32","","25.0","","99.34","","","","","","Mostly Cloudy"
"1956-09-30 14:00","1956","09","30","14:00","12.2","","8.9","","80","","29","","35","","25.0","","99.41","","","","","","Rain Showers"
"1956-09-30 15:00","1956","09","30","15:00","12.8","","7.8","","72","","27","","39","","25.0","","99.46","","","","","","Mostly Cloudy"
"1956-09-30 16:00","1956","09","30","16:00","11.7","","6.7","","71","","27","","35","","25.0","","99.56","","","","","","Mostly Cloudy"
"1956-09-30 17:00","1956","09","30","17:00","10.0","","5.0","","71","","27","","32","","25.0","","99.66","","","","","","Cloudy"
"1956-09-30 18:00","1956","09","30","18:00","9.4","","4.4","","71","","27","","32","","25.0","","99.75","","","","","","Cloudy"
"1956-09-30 19:00","1956","09","30","19:00","8.9","","3.3","","68","","29","","26","","25.0","","99.82","","","","","","Cloudy"
"1956-09-30 20:00","1956","09","30","20:00","7.8","","2.8","","71","","29","","23","","25.0","","99.93","","","","","","Cloudy"
"1956-09-30 21:00","1956","09","30","21:00","9.4","","2.2","","61","","29","","19","","25.0","","99.96","","","","","","Cloudy"
"1956-09-30 22:00","1956","09","30","22:00","8.9","","3.3","","71","","29","","19","","25.0","","99.98","","","","","","Cloudy"
"1956-09-30 23:00","1956","09","30","23:00","8.3","","2.8","","68","","32","","13","","25.0","","100.05","","","","","","Cloudy"
