"Station Name","TORONTO LESTER B. PEARSON INT'L A"
"Province","ONTARIO"
"Latitude","43.68"
"Longitude","-79.63"
"Elevation","173.40"
"Climate Identifier","6158733"
"WMO Identifier","71624"
"TC Identifier","YYZ"
"All times are specified in Local Standard Time (LST). Add 1 hour to adjust for Daylight Saving Time where and when it is observed."

"Legend"
"E","Estimated"
"M","Missing"
"NA","Not Available"

"Date/Time","Year","Month","Day","Time","Temp (°C)","Temp Flag","Dew Point Temp (°C)","Dew Point Temp Flag","Rel Hum (%)","Rel Hum Flag","Wind Dir (10s deg)","Wind Dir Flag","Wind Spd (km/h)","Wind Spd Flag","Visibility (km)","Visibility Flag","Stn Press (kPa)","Stn Press Flag","Hmdx","Hmdx Flag","Wind Chill","Wind Chill Flag","Weather"
"2001-02-01 00:00","2001","02","01","00:00","-0.2","","-2.8","","83","","30","","13","","19.3","","98.72","","","","-4","","Snow Showers"
"2001-02-01 01:00","2001","02","01","01:00","-0.1","","-4.0","","75","","31","","15","","24.1","","98.76","","","","-5","","Snow Showers"
"2001-02-01 02:00","2001","02","01","02:00","-0.6","","-3.8","","79","","31","","13","","16.1","","98.86","","","","-5","","Snow"
"2001-02-01 03:00","2001","02","01","03:00","-0.6","","-4.3","","76","","29","","17","","16.1","","98.96","","","","-6","","Cloudy"
"2001-02-01 04:00","2001","02","01","04:00","-0.7","","-4.6","","75","","28","","19","","19.3","","99.02","","","","-6","","Cloudy"
"2001-02-01 05:00","2001","02","01","05:00","-1.0","","-5.5","","71","","28","","20","","19.3","","99.12","","","","-7","","Mainly Clear"
"2001-02-01 06:00","2001","02","01","06:00","-1.5","","-6.0","","71","","30","","20","","24.1","","99.22","","","","-7","","Mostly Cloudy"
"2001-02-01 07:00","2001","02","01","07:00","-2.0","","-6.3","","72","","27","","9","","24.1","","99.32","","","","-5","","Mainly Clear"
"2001-02-01 08:00","2001","02","01","08:00","-1.2","","-5.6","","72","","28","","9","","24.1","","99.42","","","","-4","","Mostly Cloudy"
"2001-02-01 09:00","2001","02","01","09:00","-0.9","","-4.7","","75","","27","","17","","19.3","","99.55","","","","-6","","Snow Showers"
"2001-02-01 10:00","2001","02","01","10:00","-0.6","","-5.1","","72","","26","","20","","24.1","","99.65","","","","-6","","Cloudy"
"2001-02-01 11:00","2001","02","01","11:00","-0.2","","-4.5","","73","","25","","17","","24.1","","99.69","","","","-5","","Mostly Cloudy"
"2001-02-01 12:00","2001","02","01","12:00","0.4","","-4.4","","70","","25","","17","","24.1","","99.65","","","","","","Mostly Cloudy"
"2001-02-01 13:00","2001","02","01","13:00","1.4","","-4.1","","67","","25","","15","","24.1","","99.62","","","","","","Mostly Cloudy"
"2001-02-01 14:00","2001","02","01","14:00","1.5","","-4.2","","66","","22","","15","","24.1","","99.62","","","","","","Mostly Cloudy"
"2001-02-01 15:00","2001","02","01","15:00","2.0","","-4.7","","61","","24","","15","","24.1","","99.62","","","","","","Mostly Cloudy"
"2001-02-01 16:00","2001","02","01","16:00","2.4","","-4.5","","60","","22","","15","","24.1","","99.65","","","","","","Mostly Cloudy"
"2001-02-01 17:00","2001","02","01","17:00","2.3","","-3.8","","64","","20","","13","","24.1","","99.69","","","","","","Mostly Cloudy"
"2001-02-01 18:00","2001","02","01","18:00","1.8","","-3.5","","68","","29","","13","","24.1","","99.72","","","","","","Cloudy"
"2001-02-01 19:00","2001","02","01","19:00","0.7","","-4.0","","71","","30","","13","","24.1","","99.75","","","","","","Cloudy"
"2001-02-01 20:00","2001","02","01","20:00","1.1","","-3.3","","72","","22","","20","","19.3","","99.72","","","","","","Mostly Cloudy"
"2001-02-01 21:00","2001","02","01","21:00","0.3","","-4.5","","70","","22","","15","","24.1","","99.75","","","","","","Mostly Cloudy"
"2001-02-01 22:00","2001","02","01","22:00","0.2","","-4.9","","69","","21","","11","","24.1","","99.69","","","","","","Cloudy"
"2001-02-01 23:00","2001","02","01","23:00","0.2","","-4.8","","69","","23","","19","","24.1","","99.62","","","","","","Cloudy"
"2001-02-02 00:00","2001","02","02","00:00","0.2","","-4.6","","70","","22","","11","","24.1","","99.55","","","","","","Cloudy"
"2001-02-02 01:00","2001","02","02","01:00","0.1","","-4.6","","71","","20","","7","","24.1","","99.49","","","","","","Cloudy"
"2001-02-02 02:00","2001","02","02","02:00","0.1","","-4.3","","72","","20","","9","","16.1","","99.42","","","","","","Cloudy"
"2001-02-02 03:00","2001","02","02","03:00","-0.2","","-4.3","","74","","19","","7","","12.9","","99.35","","","","-3","","Cloudy"
"2001-02-02 04:00","2001","02","02","04:00","-0.2","","-4.1","","75","","18","","7","","12.9","","99.26","","","","-3","","Cloudy"
"2001-02-02 05:00","2001","02","02","05:00","-0.1","","-4.0","","75","","18","","9","","12.9","","99.12","","","","-3","","Cloudy"
"2001-02-02 06:00","2001","02","02","06:00","-0.9","","-3.2","","84","","20","","13","","2.4","","99.06","","","","-5","","Snow"
"2001-02-02 07:00","2001","02","02","07:00","-0.9","","-2.6","","88","","20","","11","","3.2","","98.99","","","","-5","","Snow"
"2001-02-02 08:00","2001","02","02","08:00","-0.9","","-2.6","","88","","22","","17","","3.2","","98.92","","","","-6","","Snow"
"2001-02-02 09:00","2001","02","02","09:00","-1.5","","-3.4","","87","","25","","20","","9.7","","98.92","","","","-7","","Fog"
"2001-02-02 10:00","2001","02","02","10:00","-3.0","","-5.6","","82","","27","","33","","8.0","","98.96","","","","-11","","Snow"
"2001-02-02 11:00","2001","02","02","11:00","-4.5","","-9.7","","67","","29","","33","","19.3","","99.02","","","","-13","","Mainly Clear"
"2001-02-02 12:00","2001","02","02","12:00","-6.5","","-11.8","","66","","28","","41","","19.3","","99.06","","","","-16","","Mainly Clear"
"2001-02-02 13:00","2001","02","02","13:00","-7.9","","-12.7","","68","","29","","39","","16.1","","99.06","","","","-18","","Snow Showers"
"2001-02-02 14:00","2001","02","02","14:00","-7.1","","-14.4","","56","","27","","37","","24.1","","99.09","","","","-17","","Mainly Clear"
"2001-02-02 15:00","2001","02","02","15:00","-6.3","","-13.5","","57","","26","","43","","24.1","","99.09","","","","-16","","Mainly Clear"
"2001-02-02 16:00","2001","02","02","16:00","-6.0","","-12.8","","59","","27","","48","","24.1","","99.12","","","","-16","","Mainly Clear"
"2001-02-02 17:00","2001","02","02","17:00","-5.7","","-12.0","","61","","27","","41","","24.1","","99.19","","","","-15","","Mainly Clear"
"2001-02-02 18:00","2001","02","02","18:00","-6.5","","-9.8","","77","","29","","37","","4.8","","99.32","","","","-16","","Snow Showers"
"2001-02-02 19:00","2001","02","02","19:00","-6.6","","-12.6","","62","","29","","41","","24.1","","99.42","","","","-16","","Clear"
"2001-02-02 20:00","2001","02","02","20:00","-7.0","","-13.1","","62","","30","","32","","24.1","","99.49","","","","-16","","Clear"
"2001-02-02 21:00","2001","02","02","21:00","-7.6","","-12.7","","67","","29","","30","","24.1","","99.62","","","","-16","","Mainly Clear"
"2001-02-02 22:00","2001","02","02","22:00","-8.0","","-13.8","","63","","31","","28","","24.1","","99.72","","","","-17","","Mainly Clear"
"2001-02-02 23:00","2001","02","02","23:00","-9.4","","-14.7","","65","","31","","33","","24.1","","99.79","","","","-19","","Clear"
"2001-02-03 00:00","2001","02","03","00:00","-9.9","","-15.1","","66","","29","","22","","24.1","","99.85","","","","-18","","Clear"
"2001-02-03 01:00","2001","02","03","01:00","-10.3","","-15.5","","66","","30","","22","","24.1","","99.89","","","","-19","","Clear"
"2001-02-03 02:00","2001","02","03","02:00","-10.7","","-15.8","","66","","29","","24","","24.1","","99.95","","","","-19","","Clear"
"2001-02-03 03:00","2001","02","03","03:00","-11.1","","-16.0","","67","","29","","19","","24.1","","100.02","","","","-19","","Clear"
"2001-02-03 04:00","2001","02","03","04:00","-11.4","","-16.2","","68","","29","","22","","24.1","","100.05","","","","-20","","Clear"
"2001-02-03 05:00","2001","02","03","05:00","-12.0","","-16.6","","69","","29","","15","","24.1","","100.09","","","","-19","","Clear"
"2001-02-03 06:00","2001","02","03","06:00","-12.6","","-17.2","","68","","32","","17","","24.1","","100.15","","","","-20","","Mainly Clear"
"2001-02-03 07:00","2001","02","03","07:00","-13.0","","-17.3","","70","","32","","11","","24.1","","100.22","","","","-19","","Mainly Clear"
"2001-02-03 08:00","2001","02","03","08:00","-13.5","","-17.5","","72","","3","","6","","24.1","","100.32","","","","-18","","Mostly Cloudy"
"2001-02-03 09:00","2001","02","03","09:00","-12.4","","-16.8","","70","","6","","6","","24.1","","100.42","","","","-16","","Mainly Clear"
"2001-02-03 10:00","2001","02","03","10:00","-11.5","","-16.5","","66","","34","","4","","24.1","","100.45","","","","-14","","Mostly Cloudy"
"2001-02-03 11:00","2001","02","03","11:00","-9.5","","-15.5","","62","","","","0","","24.1","","100.49","","","","","","Mostly Cloudy"
"2001-02-03 12:00","2001","02","03","12:00","-7.9","","-14.7","","58","","23","","9","","24.1","","100.42","","","","-12","","Mostly Cloudy"
"2001-02-03 13:00","2001","02","03","13:00","-6.7","","-13.2","","60","","25","","15","","24.1","","100.39","","","","-13","","Mostly Cloudy"
"2001-02-03 14:00","2001","02","03","14:00","-6.6","","-12.9","","61","","25","","13","","24.1","","100.35","","","","-12","","Mostly Cloudy"
"2001-02-03 15:00","2001","02","03","15:00","-6.1","","-13.2","","57","","23","","9","","24.1","","100.32","","","","-10","","Snow Showers"
"2001-02-03 16:00","2001","02","03","16:00","-5.7","","-11.7","","63","","21","","11","","24.1","","100.35","","","","-10","","Snow Showers"
"2001-02-03 17:00","2001","02","03","17:00","-6.2","","-13.5","","56","","23","","13","","19.3","","100.35","","","","-12","","Mostly Cloudy"
"2001-02-03 18:00","2001","02","03","18:00","-6.0","","-13.3","","56","","23","","9","","24.1","","100.39","","","","-10","","Mostly Cloudy"
"2001-02-03 19:00","2001","02","03","19:00","-6.4","","-13.6","","57","","20","","7","","24.1","","100.42","","","","-10","","Mainly Clear"
"2001-02-03 20:00","2001","02","03","20:00","-6.3","","-13.5","","57","","18","","7","","24.1","","100.35","","","","-10","","Mostly Cloudy"
"2001-02-03 21:00","2001","02","03","21:00","-6.5","","-13.1","","59","","17","","6","","24.1","","100.32","","","","-9","","Mainly Clear"
"2001-02-03 22:00","2001","02","03","22:00","-6.0","","-12.1","","62","","18","","4","","24.1","","100.25","","","","-8","","Mostly Cloudy"
"2001-02-03 23:00","2001","02","03","23:00","-5.3","","-10.3","","68","","19","","9","","24.1","","100.25","","","","-9","","Cloudy"
"2001-02-04 00:00","2001","02","04","00:00","-4.3","","-10.1","","64","","17","","11","","24.1","","100.19","","","","-9","","Cloudy"
"2001-02-04 01:00","2001","02","04","01:00","-4.2","","-10.0","","64","","18","","15","","24.1","","100.15","","","","-10","","Cloudy"
"2001-02-04 02:00","2001","02","04","02:00","-3.9","","-9.9","","63","","18","","9","","24.1","","100.09","","","","-8","","Cloudy"
"2001-02-04 03:00","2001","02","04","03:00","-3.9","","-9.4","","66","","17","","7","","24.1","","100.09","","","","-7","","Cloudy"
"2001-02-04 04:00","2001","02","04","04:00","-3.6","","-8.9","","67","","19","","9","","24.1","","100.05","","","","-7","","Cloudy"
"2001-02-04 05:00","2001","02","04","05:00","-3.1","","-9.1","","63","","16","","11","","24.1","","100.02","","","","-7","","Cloudy"
"2001-02-04 06:00","2001","02","04","06:00","-2.8","","-8.3","","66","","18","","6","","24.1","","100.02","","","","-5","","Cloudy"
"2001-02-04 07:00","2001","02","04","07:00","-2.5","","-8.0","","66","","15","","6","","16.1","","99.99","","","","-5","","Snow Showers"
"2001-02-04 08:00","2001","02","04","08:00","-2.1","","-7.9","","64","","14","","9","","19.3","","99.95","","","","-6","","Cloudy"
"2001-02-04 09:00","2001","02","04","09:00","-1.8","","-7.9","","63","","16","","13","","19.3","","99.95","","","","-6","","Cloudy"
"2001-02-04 10:00","2001","02","04","10:00","-1.5","","-6.9","","67","","16","","11","","14.5","","99.92","","","","-5","","Snow Showers"
"2001-02-04 11:00","2001","02","04","11:00","-1.8","","-5.3","","77","","18","","13","","3.6","","99.89","","","","-6","","Snow"
"2001-02-04 12:00","2001","02","04","12:00","-1.0","","-3.8","","81","","16","","13","","6.4","","99.82","","","","-5","","Snow"
"2001-02-04 13:00","2001","02","04","13:00","-0.4","","-3.2","","81","","18","","17","","4.8","","99.75","","","","-5","","Snow"
"2001-02-04 14:00","2001","02","04","14:00","-0.3","","-2.6","","84","","16","","13","","2.8","","99.69","","","","-4","","Snow"
"2001-02-04 15:00","2001","02","04","15:00","-0.6","","-2.6","","86","","16","","15","","3.2","","99.65","","","","-5","","Snow"
"2001-02-04 16:00","2001","02","04","16:00","0.2","","-2.4","","83","","16","","11","","8.0","","99.62","","","","","","Haze"
"2001-02-04 17:00","2001","02","04","17:00","0.3","","-2.5","","81","","13","","11","","11.3","","99.62","","","","","","Mostly Cloudy"
"2001-02-04 18:00","2001","02","04","18:00","0.3","","-2.2","","83","","13","","9","","9.7","","99.62","","","","","","Haze"
"2001-02-04 19:00","2001","02","04","19:00","0.9","","-1.7","","83","","12","","11","","14.5","","99.65","","","","","","Cloudy"
"2001-02-04 20:00","2001","02","04","20:00","0.9","","-1.5","","84","","11","","11","","16.1","","99.62","","","","","","Cloudy"
"2001-02-04 21:00","2001","02","04","21:00","1.0","","-1.1","","86","","10","","11","","14.5","","99.59","","","","","","Cloudy"
"2001-02-04 22:00","2001","02","04","22:00","1.5","","-0.9","","84","","18","","7","","11.3","","99.62","","","","","","Rain"
"2001-02-04 23:00","2001","02","04","23:00","1.6","","-0.2","","88","","14","","7","","9.7","","99.55","","","","","","Rain,Fog"
"2001-02-05 00:00","2001","02","05","00:00","1.4","","-0.3","","88","","18","","7","","8.0","","99.52","","","","","","Rain,Fog"
"2001-02-05 01:00","2001","02","05","01:00","1.4","","-0.3","","88","","17","","4","","19.3","","99.42","","","","","","Cloudy"
"2001-02-05 02:00","2001","02","05","02:00","1.3","","-0.4","","88","","16","","11","","12.9","","99.42","","","","","","Rain"
"2001-02-05 03:00","2001","02","05","03:00","1.5","","-0.2","","88","","16","","11","","11.3","","99.39","","","","","","Rain"
"2001-02-05 04:00","2001","02","05","04:00","1.6","","-0.3","","87","","18","","13","","11.3","","99.35","","","","","","Rain"
"2001-02-05 05:00","2001","02","05","05:00","1.2","","-0.4","","89","","18","","11","","8.0","","99.32","","","","","","Rain,Snow,Fog"
"2001-02-05 06:00","2001","02","05","06:00","1.2","","-0.4","","89","","18","","9","","6.4","","99.26","","","","","","Rain,Fog"
"2001-02-05 07:00","2001","02","05","07:00","1.2","","-0.3","","90","","19","","9","","8.0","","99.26","","","","","","Rain,Snow,Fog"
"2001-02-05 08:00","2001","02","05","08:00","1.2","","-0.2","","90","","19","","9","","1.2","","99.26","","","","","","Rain,Fog"
"2001-02-05 09:00","2001","02","05","09:00","1.3","","-0.1","","90","","20","","7","","2.4","","99.26","","","","","","Fog"
"2001-02-05 10:00","2001","02","05","10:00","1.4","","0.0","","90","","20","","9","","2.8","","99.19","","","","","","Fog"
"2001-02-05 11:00","2001","02","05","11:00","1.4","","0.0","","90","","21","","7","","3.6","","99.19","","","","","","Fog"
"2001-02-05 12:00","2001","02","05","12:00","1.7","","-0.1","","88","","23","","6","","4.8","","99.16","","","","","","Fog"
"2001-02-05 13:00","2001","02","05","13:00","1.9","","0.0","","87","","19","","6","","6.4","","99.09","","","","","","Fog"
"2001-02-05 14:00","2001","02","05","14:00","2.1","","0.2","","87","","20","","6","","6.4","","99.06","","","","","","Fog"
"2001-02-05 15:00","2001","02","05","15:00","2.0","","0.2","","88","","16","","7","","4.8","","98.99","","","","","","Rain,Snow,Fog"
"2001-02-05 16:00","2001","02","05","16:00","2.0","","0.2","","88","","20","","11","","6.4","","98.96","","","","","","Rain,Snow,Fog"
"2001-02-05 17:00","2001","02","05","17:00","1.8","","-0.1","","87","","22","","11","","6.4","","98.96","","","","","","Fog"
"2001-02-05 18:00","2001","02","05","18:00","1.6","","-0.3","","87","","24","","17","","4.8","","98.96","","","","","","Rain,Fog"
"2001-02-05 19:00","2001","02","05","19:00","1.5","","-0.4","","87","","22","","13","","4.8","","98.96","","","","","","Rain,Snow,Fog"
"2001-02-05 20:00","2001","02","05","20:00","1.3","","-0.8","","86","","22","","11","","9.7","","98.92","","","","","","Haze"
"2001-02-05 21:00","2001","02","05","21:00","1.3","","-0.9","","85","","22","","11","","9.7","","98.89","","","","","","Haze"
"2001-02-05 22:00","2001","02","05","22:00","1.1","","-1.0","","86","","24","","11","","9.7","","98.86","","","","","","Haze"
"2001-02-05 23:00","2001","02","05","23:00","1.1","","-1.3","","84","","27","","17","","12.9","","98.89","","","","","","Mostly Cloudy"
"2001-02-06 00:00","2001","02","06","00:00","0.6","","-3.3","","75","","29","","19","","24.1","","98.92","","","","","","Cloudy"
"2001-02-06 01:00","2001","02","06","01:00","0.3","","-2.9","","79","","27","","15","","24.1","","98.92","","","","","","Cloudy"
"2001-02-06 02:00","2001","02","06","02:00","0.5","","-2.7","","79","","27","","17","","19.3","","98.96","","","","","","Cloudy"
"2001-02-06 03:00","2001","02","06","03:00","0.6","","-3.2","","76","","27","","22","","16.1","","98.99","","","","","","Snow Grains"
"2001-02-06 04:00","2001","02","06","04:00","0.4","","-3.2","","77","","26","","22","","16.1","","98.99","","","","","","Snow Grains"
"2001-02-06 05:00","2001","02","06","05:00","0.2","","-3.4","","77","","26","","15","","16.1","","98.99","","","","","","Cloudy"
"2001-02-06 06:00","2001","02","06","06:00","-0.3","","-4.4","","74","","27","","28","","16.1","","99.06","","","","-7","","Cloudy"
"2001-02-06 07:00","2001","02","06","07:00","-0.6","","-4.3","","76","","26","","22","","16.1","","99.06","","","","-6","","Cloudy"
"2001-02-06 08:00","2001","02","06","08:00","-0.5","","-5.1","","71","","28","","15","","16.1","","99.09","","","","-5","","Cloudy"
"2001-02-06 09:00","2001","02","06","09:00","-0.5","","-4.5","","74","","26","","13","","4.8","","99.06","","","","-5","","Snow"
"2001-02-06 10:00","2001","02","06","10:00","-0.8","","-3.5","","82","","24","","7","","2.4","","99.06","","","","-3","","Snow"
"2001-02-06 11:00","2001","02","06","11:00","-0.8","","-2.9","","86","","23","","13","","2.8","","99.06","","","","-5","","Snow"
"2001-02-06 12:00","2001","02","06","12:00","-0.3","","-2.5","","85","","25","","7","","1.6","","99.02","","","","-3","","Snow"
"2001-02-06 13:00","2001","02","06","13:00","0.2","","-2.8","","80","","27","","9","","2.4","","98.96","","","","","","Snow"
"2001-02-06 14:00","2001","02","06","14:00","1.0","","-2.5","","77","","29","","13","","8.0","","98.96","","","","","","Snow"
"2001-02-06 15:00","2001","02","06","15:00","1.1","","-3.8","","70","","28","","13","","9.7","","98.96","","","","","","Haze"
"2001-02-06 16:00","2001","02","06","16:00","1.2","","-3.6","","70","","29","","24","","14.5","","99.06","","","","","","Cloudy"
"2001-02-06 17:00","2001","02","06","17:00","1.0","","-4.5","","67","","29","","17","","16.1","","99.16","","","","","","Cloudy"
"2001-02-06 18:00","2001","02","06","18:00","0.8","","-3.6","","72","","28","","19","","16.1","","99.26","","","","","","Cloudy"
"2001-02-06 19:00","2001","02","06","19:00","0.7","","-3.6","","73","","27","","17","","19.3","","99.35","","","","","","Cloudy"
"2001-02-06 20:00","2001","02","06","20:00","0.6","","-3.6","","73","","27","","15","","19.3","","99.45","","","","","","Cloudy"
"2001-02-06 21:00","2001","02","06","21:00","0.8","","-3.8","","71","","27","","22","","19.3","","99.55","","","","","","Cloudy"
"2001-02-06 22:00","2001","02","06","22:00","0.3","","-3.8","","74","","29","","20","","19.3","","99.62","","","","","","Snow Showers"
"2001-02-06 23:00","2001","02","06","23:00","0.2","","-5.3","","66","","31","","26","","24.1","","99.72","","","","","","Cloudy"
"2001-02-07 00:00","2001","02","07","00:00","-0.6","","-6.0","","67","","32","","17","","24.1","","99.79","","","","-6","","Mostly Cloudy"
"2001-02-07 01:00","2001","02","07","01:00","-0.7","","-5.5","","70","","28","","17","","24.1","","99.85","","","","-6","","Mostly Cloudy"
"2001-02-07 02:00","2001","02","07","02:00","-0.7","","-5.5","","70","","27","","15","","24.1","","99.92","","","","-5","","Mostly Cloudy"
"2001-02-07 03:00","2001","02","07","03:00","-0.7","","-4.7","","74","","26","","13","","24.1","","99.95","","","","-5","","Cloudy"
"2001-02-07 04:00","2001","02","07","04:00","-0.6","","-5.3","","70","","27","","17","","24.1","","99.99","","","","-6","","Cloudy"
"2001-02-07 05:00","2001","02","07","05:00","-0.6","","-6.3","","65","","26","","22","","24.1","","100.05","","","","-6","","Cloudy"
"2001-02-07 06:00","2001","02","07","06:00","-0.7","","-5.9","","68","","26","","15","","24.1","","100.12","","","","-5","","Cloudy"
"2001-02-07 07:00","2001","02","07","07:00","-0.6","","-5.8","","68","","26","","17","","24.1","","100.15","","","","-6","","Cloudy"
"2001-02-07 08:00","2001","02","07","08:00","-0.7","","-5.5","","70","","26","","20","","19.3","","100.22","","","","-6","","Cloudy"
"2001-02-07 09:00","2001","02","07","09:00","-0.6","","-5.5","","69","","26","","24","","19.3","","100.32","","","","-7","","Snow Showers"
"2001-02-07 10:00","2001","02","07","10:00","-0.1","","-5.4","","67","","27","","32","","24.1","","100.35","","","","-7","","Mostly Cloudy"
"2001-02-07 11:00","2001","02","07","11:00","0.1","","-5.5","","66","","29","","35","","24.1","","100.42","","","","","","Mostly Cloudy"
"2001-02-07 12:00","2001","02","07","12:00","1.3","","-5.1","","62","","28","","22","","24.1","","100.45","","","","","","Mostly Cloudy"
"2001-02-07 13:00","2001","02","07","13:00","1.0","","-5.2","","63","","27","","32","","24.1","","100.45","","","","","","Mostly Cloudy"
"2001-02-07 14:00","2001","02","07","14:00","1.3","","-5.3","","61","","28","","32","","24.1","","100.49","","","","","","Mostly Cloudy"
"2001-02-07 15:00","2001","02","07","15:00","1.6","","-5.4","","60","","28","","32","","24.1","","100.59","","","","","","Mainly Clear"
"2001-02-07 16:00","2001","02","07","16:00","1.2","","-6.6","","56","","27","","26","","24.1","","100.65","","","","","","Mainly Clear"
"2001-02-07 17:00","2001","02","07","17:00","0.6","","-5.9","","62","","27","","20","","24.1","","100.69","","","","","","Mostly Cloudy"
"2001-02-07 18:00","2001","02","07","18:00","0.2","","-5.8","","64","","26","","19","","24.1","","100.72","","","","","","Cloudy"
"2001-02-07 19:00","2001","02","07","19:00","-0.8","","-5.2","","72","","26","","11","","24.1","","100.79","","","","-5","","Mostly Cloudy"
"2001-02-07 20:00","2001","02","07","20:00","-0.8","","-5.1","","73","","26","","11","","24.1","","100.82","","","","-5","","Mostly Cloudy"
"2001-02-07 21:00","2001","02","07","21:00","-1.0","","-5.4","","72","","27","","15","","24.1","","100.85","","","","-6","","Mostly Cloudy"
"2001-02-07 22:00","2001","02","07","22:00","-1.9","","-5.5","","76","","26","","11","","19.3","","100.85","","","","-6","","Mostly Cloudy"
"2001-02-07 23:00","2001","02","07","23:00","-1.6","","-5.7","","74","","25","","9","","24.1","","100.85","","","","-5","","Mostly Cloudy"
"2001-02-08 00:00","2001","02","08","00:00","-2.1","","-5.8","","76","","28","","7","","24.1","","100.85","","","","-5","","Mostly Cloudy"
"2001-02-08 01:00","2001","02","08","01:00","-1.9","","-5.8","","75","","","","0","","24.1","","100.79","","","","","","Cloudy"
"2001-02-08 02:00","2001","02","08","02:00","-1.5","","-5.4","","75","","32","","4","","19.3","","100.82","","","","-3","","Cloudy"
"2001-02-08 03:00","2001","02","08","03:00","-1.5","","-5.4","","75","","","","0","","11.3","","100.82","","","","","","Snow"
"2001-02-08 04:00","2001","02","08","04:00","-1.7","","-4.1","","84","","32","","4","","4.8","","100.92","","","","-3","","Snow"
"2001-02-08 05:00","2001","02","08","05:00","-1.9","","-3.7","","87","","9","","7","","1.6","","100.82","","","","-5","","Snow"
"2001-02-08 06:00","2001","02","08","06:00","-1.9","","-3.5","","89","","11","","7","","1.2","","100.85","","","","-5","","Snow"
"2001-02-08 07:00","2001","02","08","07:00","-1.7","","-3.2","","89","","12","","11","","1.2","","100.72","","","","-6","","Snow"
"2001-02-08 08:00","2001","02","08","08:00","-1.3","","-2.8","","90","","10","","17","","0.6","","100.65","","","","-6","","Moderate Snow"
"2001-02-08 09:00","2001","02","08","09:00","-1.0","","-2.4","","90","","12","","20","","0.4","","100.59","","","","-7","","Heavy Snow"
"2001-02-08 10:00","2001","02","08","10:00","-0.9","","-2.2","","91","","10","","15","","1.0","","100.55","","","","-6","","Snow,Ice Pellets"
"2001-02-08 11:00","2001","02","08","11:00","-0.7","","-2.0","","91","","11","","19","","1.0","","100.45","","","","-6","","Snow,Ice Pellets"
"2001-02-08 12:00","2001","02","08","12:00","-0.5","","-1.8","","91","","12","","24","","4.8","","100.42","","","","-6","","Ice Pellets"
"2001-02-08 13:00","2001","02","08","13:00","-0.5","","-1.9","","90","","9","","20","","3.6","","100.32","","","","-6","","Ice Pellets"
"2001-02-08 14:00","2001","02","08","14:00","-0.2","","-1.7","","90","","10","","17","","6.4","","100.22","","","","-5","","Freezing Rain,Fog"
"2001-02-08 15:00","2001","02","08","15:00","-0.1","","-1.6","","90","","9","","20","","4.8","","100.19","","","","-5","","Freezing Rain,Ice Pellets"
"2001-02-08 16:00","2001","02","08","16:00","0.0","","-1.5","","90","","9","","17","","4.0","","100.22","","","","-5","","Rain,Fog"
"2001-02-08 17:00","2001","02","08","17:00","0.1","","-1.4","","90","","10","","15","","4.8","","100.15","","","","","","Rain,Fog"
"2001-02-08 18:00","2001","02","08","18:00","0.1","","-1.2","","91","","8","","13","","4.0","","100.22","","","","","","Rain,Fog"
"2001-02-08 19:00","2001","02","08","19:00","0.2","","-1.2","","90","","9","","19","","6.4","","100.19","","","","","","Rain,Fog"
"2001-02-08 20:00","2001","02","08","20:00","0.1","","-1.3","","90","","9","","26","","6.4","","100.19","","","","","","Rain,Fog"
"2001-02-08 21:00","2001","02","08","21:00","-0.1","","-1.4","","91","","10","","13","","4.0","","100.15","","","","-4","","Fog"
"2001-02-08 22:00","2001","02","08","22:00","-0.2","","-1.3","","92","","9","","19","","2.4","","100.09","","","","-5","","Freezing Rain,Fog"
"2001-02-08 23:00","2001","02","08","23:00","0.0","","-1.2","","92","","9","","15","","4.8","","99.99","","","","-4","","Freezing Rain,Fog"
"2001-02-09 00:00","2001","02","09","00:00","0.2","","-1.0","","92","","11","","17","","4.8","","99.85","","","","","","Freezing Rain,Fog"
"2001-02-09 01:00","2001","02","09","01:00","0.5","","-0.7","","92","","10","","15","","4.8","","99.69","","","","","","Rain,Fog"
"2001-02-09 02:00","2001","02","09","02:00","0.6","","-0.5","","92","","11","","11","","2.8","","99.52","","","","","","Rain,Fog"
"2001-02-09 03:00","2001","02","09","03:00","0.7","","-0.4","","92","","12","","15","","2.4","","99.45","","","","","","Rain,Fog"
"2001-02-09 04:00","2001","02","09","04:00","1.1","","0.0","","92","","14","","9","","1.6","","99.32","","","","","","Rain,Fog"
"2001-02-09 05:00","2001","02","09","05:00","1.1","","0.3","","94","","14","","11","","2.0","","99.16","","","","","","Rain,Fog"
"2001-02-09 06:00","2001","02","09","06:00","1.4","","0.7","","95","","15","","6","","0.6","","99.06","","","","","","Rain,Fog"
"2001-02-09 07:00","2001","02","09","07:00","1.7","","0.9","","94","","15","","7","","0.6","","98.96","","","","","","Rain,Fog"
"2001-02-09 08:00","2001","02","09","08:00","2.1","","1.4","","95","","14","","4","","0.2","","98.89","","","","","","Fog"
"2001-02-09 09:00","2001","02","09","09:00","2.8","","2.0","","94","","14","","6","","0.6","","98.76","","","","","","Fog"
"2001-02-09 10:00","2001","02","09","10:00","3.4","","2.7","","95","","16","","4","","2.4","","98.79","","","","","","Rain,Fog"
"2001-02-09 11:00","2001","02","09","11:00","5.0","","4.3","","95","","17","","15","","2.8","","98.56","","","","","","Rain,Fog"
"2001-02-09 12:00","2001","02","09","12:00","6.6","","5.9","","95","","","","0","","4.0","","98.49","","","","","","Rain,Fog"
"2001-02-09 13:00","2001","02","09","13:00","7.6","","6.3","","91","","16","","7","","4.8","","98.32","","","","","","Fog"
"2001-02-09 14:00","2001","02","09","14:00","7.6","","6.0","","90","","21","","7","","4.0","","98.19","","","","","","Rain Showers,Fog"
"2001-02-09 15:00","2001","02","09","15:00","8.1","","6.3","","88","","22","","26","","4.0","","98.02","","","","","","Rain Showers,Fog"
"2001-02-09 16:00","2001","02","09","16:00","8.0","","6.7","","91","","22","","24","","4.0","","97.99","","","","","","Rain Showers,Fog"
"2001-02-09 17:00","2001","02","09","17:00","8.6","","6.8","","88","","21","","32","","4.8","","97.86","","","","","","Rain Showers,Fog"
"2001-02-09 18:00","2001","02","09","18:00","8.8","","6.9","","88","","22","","33","","4.8","","97.79","","","","","","Rain Showers,Fog"
"2001-02-09 19:00","2001","02","09","19:00","8.3","","7.2","","93","","21","","32","","4.8","","97.66","","","","","","Rain,Fog"
"2001-02-09 20:00","2001","02","09","20:00","8.5","","7.0","","90","","21","","20","","4.8","","97.46","","","","","","Rain,Fog"
"2001-02-09 21:00","2001","02","09","21:00","8.9","","6.6","","85","","21","","30","","8.0","","97.29","","","","","","Rain,Fog"
"2001-02-09 22:00","2001","02","09","22:00","9.5","","7.5","","87","","22","","37","","8.0","","97.19","","","","","","Rain,Fog"
"2001-02-09 23:00","2001","02","09","23:00","8.8","","7.4","","91","","22","","33","","8.0","","97.06","","","","","","Rain,Fog"
"2001-02-10 00:00","2001","02","10","00:00","9.6","","7.3","","86","","23","","65","","12.9","","97.02","","","","","","Rain"
"2001-02-10 01:00","2001","02","10","01:00","2.2","","-2.6","","71","","29","","65","","24.1","","97.42","","","","","","Mostly Cloudy"
"2001-02-10 02:00","2001","02","10","02:00","0.1","","-4.8","","70","","29","","59","","24.1","","97.82","","","","","","Mostly Cloudy"
"2001-02-10 03:00","2001","02","10","03:00","-1.5","","-7.1","","66","","29","","65","","24.1","","98.22","","","","-11","","Mainly Clear"
"2001-02-10 04:00","2001","02","10","04:00","-2.8","","-7.2","","72","","28","","39","","12.9","","98.52","","","","-11","","Cloudy"
"2001-02-10 05:00","2001","02","10","05:00","-4.3","","-11.0","","60","","29","","44","","24.1","","98.82","","","","-14","","Mainly Clear"
"2001-02-10 06:00","2001","02","10","06:00","-5.1","","-10.5","","66","","29","","35","","24.1","","99.06","","","","-14","","Snow Showers"
"2001-02-10 07:00","2001","02","10","07:00","-5.4","","-9.7","","72","","29","","41","","24.1","","99.22","","","","-15","","Snow Showers"
"2001-02-10 08:00","2001","02","10","08:00","-6.3","","-10.0","","75","","29","","37","","8.0","","99.39","","","","-16","","Snow Showers"
"2001-02-10 09:00","2001","02","10","09:00","-5.5","","-12.8","","56","","29","","50","","24.1","","99.59","","","","-16","","Mainly Clear"
"2001-02-10 10:00","2001","02","10","10:00","-5.1","","-11.8","","59","","29","","44","","24.1","","99.75","","","","-15","","Mainly Clear"
"2001-02-10 11:00","2001","02","10","11:00","-6.8","","-10.0","","78","","30","","48","","1.0","","99.92","","","","-17","","Snow Showers"
"2001-02-10 12:00","2001","02","10","12:00","-5.0","","-11.2","","62","","30","","35","","19.3","","100.02","","","","-14","","Snow Showers"
"2001-02-10 13:00","2001","02","10","13:00","-5.4","","-12.1","","59","","31","","44","","24.1","","100.12","","","","-15","","Mostly Cloudy"
"2001-02-10 14:00","2001","02","10","14:00","-5.3","","-12.6","","56","","30","","52","","24.1","","100.15","","","","-16","","Mainly Clear"
"2001-02-10 15:00","2001","02","10","15:00","-5.6","","-13.4","","54","","31","","48","","24.1","","100.25","","","","-16","","Mainly Clear"
"2001-02-10 16:00","2001","02","10","16:00","-6.6","","-14.3","","54","","31","","39","","24.1","","100.35","","","","-16","","Mainly Clear"
"2001-02-10 17:00","2001","02","10","17:00","-7.0","","-14.7","","54","","30","","46","","24.1","","100.42","","","","-17","","Mainly Clear"
"2001-02-10 18:00","2001","02","10","18:00","-7.5","","-14.1","","59","","31","","32","","24.1","","100.55","","","","-17","","Mainly Clear"
"2001-02-10 19:00","2001","02","10","19:00","-7.9","","-14.0","","62","","30","","32","","24.1","","100.65","","","","-17","","Mostly Cloudy"
"2001-02-10 20:00","2001","02","10","20:00","-8.3","","-12.9","","69","","31","","19","","24.1","","100.72","","","","-16","","Mainly Clear"
"2001-02-10 21:00","2001","02","10","21:00","-8.6","","-12.9","","71","","30","","13","","24.1","","100.75","","","","-15","","Clear"
"2001-02-10 22:00","2001","02","10","22:00","-9.4","","-12.8","","76","","28","","13","","24.1","","100.79","","","","-15","","Mainly Clear"
"2001-02-10 23:00","2001","02","10","23:00","-8.3","","-13.0","","69","","30","","11","","19.3","","100.85","","","","-14","","Cloudy"
"2001-02-11 00:00","2001","02","11","00:00","-8.4","","-12.0","","75","","29","","13","","24.1","","100.89","","","","-14","","Snow Showers"
"2001-02-11 01:00","2001","02","11","01:00","-8.0","","-13.5","","65","","31","","26","","24.1","","100.92","","","","-16","","Snow Showers"
"2001-02-11 02:00","2001","02","11","02:00","-8.5","","-14.0","","64","","31","","33","","19.3","","100.95","","","","-18","","Mostly Cloudy"
"2001-02-11 03:00","2001","02","11","03:00","-8.9","","-14.8","","62","","31","","30","","24.1","","101.05","","","","-18","","Mainly Clear"
"2001-02-11 04:00","2001","02","11","04:00","-9.6","","-15.6","","62","","31","","28","","24.1","","101.12","","","","-19","","Clear"
"2001-02-11 05:00","2001","02","11","05:00","-10.2","","-15.7","","64","","31","","20","","24.1","","101.22","","","","-18","","Clear"
"2001-02-11 06:00","2001","02","11","06:00","-11.4","","-15.3","","73","","35","","19","","24.1","","101.29","","","","-19","","Clear"
"2001-02-11 07:00","2001","02","11","07:00","-12.5","","-16.6","","71","","35","","20","","24.1","","101.42","","","","-21","","Clear"
"2001-02-11 08:00","2001","02","11","08:00","-13.7","","-17.9","","71","","35","","19","","24.1","","101.55","","","","-22","","Clear"
"2001-02-11 09:00","2001","02","11","09:00","-14.1","","-18.5","","69","","1","","20","","24.1","","101.65","","","","-23","","Clear"
"2001-02-11 10:00","2001","02","11","10:00","-13.6","","-18.6","","66","","1","","17","","24.1","","101.72","","","","-22","","Clear"
"2001-02-11 11:00","2001","02","11","11:00","-12.4","","-18.1","","62","","1","","15","","24.1","","101.75","","","","-20","","Clear"
"2001-02-11 12:00","2001","02","11","12:00","-11.6","","-17.3","","63","","35","","13","","24.1","","101.75","","","","-18","","Clear"
"2001-02-11 13:00","2001","02","11","13:00","-10.3","","-16.5","","60","","35","","11","","24.1","","101.75","","","","-16","","Clear"
"2001-02-11 14:00","2001","02","11","14:00","-9.3","","-15.6","","60","","32","","11","","24.1","","101.72","","","","-15","","Clear"
"2001-02-11 15:00","2001","02","11","15:00","-8.6","","-15.8","","56","","","","0","","24.1","","101.72","","","","","","Clear"
"2001-02-11 16:00","2001","02","11","16:00","-8.0","","-15.7","","54","","32","","9","","24.1","","101.72","","","","-13","","Clear"
"2001-02-11 17:00","2001","02","11","17:00","-8.1","","-15.9","","53","","2","","6","","24.1","","101.72","","","","-11","","Clear"
"2001-02-11 18:00","2001","02","11","18:00","-8.6","","-15.9","","56","","4","","6","","24.1","","101.72","","","","-12","","Clear"
"2001-02-11 19:00","2001","02","11","19:00","-9.6","","-16.6","","57","","3","","9","","24.1","","101.82","","","","-14","","Clear"
"2001-02-11 20:00","2001","02","11","20:00","-10.2","","-17.4","","56","","1","","11","","24.1","","101.85","","","","-16","","Clear"
"2001-02-11 21:00","2001","02","11","21:00","-10.7","","-17.2","","59","","2","","13","","24.1","","101.79","","","","-17","","Clear"
"2001-02-11 22:00","2001","02","11","22:00","-10.7","","-16.9","","60","","4","","7","","24.1","","101.72","","","","-15","","Clear"
"2001-02-11 23:00","2001","02","11","23:00","-10.8","","-17.1","","60","","3","","9","","24.1","","101.69","","","","-16","","Clear"
"2001-02-12 00:00","2001","02","12","00:00","-10.8","","-17.0","","60","","7","","4","","24.1","","101.72","","","","-13","","Mainly Clear"
"2001-02-12 01:00","2001","02","12","01:00","-11.0","","-16.5","","64","","4","","6","","24.1","","101.65","","","","-15","","Mostly Cloudy"
"2001-02-12 02:00","2001","02","12","02:00","-10.6","","-16.4","","62","","6","","9","","24.1","","101.55","","","","-16","","Mainly Clear"
"2001-02-12 03:00","2001","02","12","03:00","-10.3","","-16.3","","61","","6","","15","","24.1","","101.52","","","","-17","","Mostly Cloudy"
"2001-02-12 04:00","2001","02","12","04:00","-9.8","","-15.6","","63","","7","","9","","24.1","","101.45","","","","-15","","Mostly Cloudy"
"2001-02-12 05:00","2001","02","12","05:00","-9.4","","-14.8","","65","","6","","9","","24.1","","101.42","","","","-14","","Mostly Cloudy"
"2001-02-12 06:00","2001","02","12","06:00","-9.0","","-14.0","","67","","6","","9","","24.1","","101.39","","","","-14","","Mostly Cloudy"
"2001-02-12 07:00","2001","02","12","07:00","-8.9","","-14.0","","66","","6","","9","","24.1","","101.29","","","","-14","","Mostly Cloudy"
"2001-02-12 08:00","2001","02","12","08:00","-7.7","","-12.8","","67","","5","","6","","24.1","","101.22","","","","-11","","Mostly Cloudy"
"2001-02-12 09:00","2001","02","12","09:00","-4.8","","-11.8","","58","","11","","24","","24.1","","101.15","","","","-12","","Mostly Cloudy"
"2001-02-12 10:00","2001","02","12","10:00","-3.8","","-11.3","","56","","12","","26","","24.1","","100.99","","","","-11","","Mostly Cloudy"
"2001-02-12 11:00","2001","02","12","11:00","-3.5","","-10.9","","56","","13","","13","","24.1","","100.92","","","","-8","","Mostly Cloudy"
"2001-02-12 12:00","2001","02","12","12:00","-3.0","","-10.8","","55","","12","","17","","24.1","","100.79","","","","-9","","Mainly Clear"
"2001-02-12 13:00","2001","02","12","13:00","-2.8","","-10.6","","55","","12","","17","","24.1","","100.65","","","","-8","","Mostly Cloudy"
"2001-02-12 14:00","2001","02","12","14:00","-2.3","","-9.9","","56","","9","","19","","24.1","","100.52","","","","-8","","Mostly Cloudy"
"2001-02-12 15:00","2001","02","12","15:00","-2.3","","-10.5","","53","","12","","17","","24.1","","100.49","","","","-8","","Mostly Cloudy"
"2001-02-12 16:00","2001","02","12","16:00","-2.0","","-10.3","","53","","14","","15","","24.1","","100.42","","","","-7","","Mostly Cloudy"
"2001-02-12 17:00","2001","02","12","17:00","-1.6","","-9.9","","53","","11","","11","","24.1","","100.42","","","","-5","","Mostly Cloudy"
"2001-02-12 18:00","2001","02","12","18:00","-2.0","","-9.2","","58","","12","","11","","24.1","","100.35","","","","-6","","Mostly Cloudy"
"2001-02-12 19:00","2001","02","12","19:00","-1.8","","-8.4","","61","","13","","7","","24.1","","100.35","","","","-4","","Mostly Cloudy"
"2001-02-12 20:00","2001","02","12","20:00","-1.3","","-6.5","","68","","13","","9","","24.1","","100.25","","","","-5","","Mostly Cloudy"
"2001-02-12 21:00","2001","02","12","21:00","-1.0","","-5.8","","70","","16","","11","","24.1","","100.25","","","","-5","","Mainly Clear"
"2001-02-12 22:00","2001","02","12","22:00","-1.2","","-6.3","","68","","24","","6","","24.1","","100.25","","","","-3","","Mainly Clear"
"2001-02-12 23:00","2001","02","12","23:00","-3.8","","-7.7","","74","","30","","11","","24.1","","100.29","","","","-8","","Clear"
"2001-02-13 00:00","2001","02","13","00:00","-5.1","","-8.4","","78","","27","","13","","24.1","","100.25","","","","-10","","Clear"
"2001-02-13 01:00","2001","02","13","01:00","-3.5","","-7.8","","72","","27","","20","","24.1","","100.29","","","","-10","","Mostly Cloudy"
"2001-02-13 02:00","2001","02","13","02:00","-2.9","","-7.3","","72","","27","","19","","24.1","","100.35","","","","-9","","Mostly Cloudy"
"2001-02-13 03:00","2001","02","13","03:00","-3.1","","-7.4","","72","","27","","17","","19.3","","100.39","","","","-9","","Clear"
"2001-02-13 04:00","2001","02","13","04:00","-3.5","","-7.5","","74","","28","","19","","19.3","","100.45","","","","-9","","Clear"
"2001-02-13 05:00","2001","02","13","05:00","-2.9","","-6.9","","74","","28","","17","","19.3","","100.49","","","","-8","","Cloudy"
"2001-02-13 06:00","2001","02","13","06:00","-2.3","","-6.3","","74","","28","","17","","19.3","","100.55","","","","-8","","Mostly Cloudy"
"2001-02-13 07:00","2001","02","13","07:00","-2.1","","-5.9","","75","","29","","11","","19.3","","100.59","","","","-6","","Mostly Cloudy"
"2001-02-13 08:00","2001","02","13","08:00","-1.5","","-5.5","","74","","30","","7","","14.5","","100.65","","","","-4","","Mostly Cloudy"
"2001-02-13 09:00","2001","02","13","09:00","-0.5","","-4.7","","73","","29","","11","","12.9","","100.72","","","","-4","","Cloudy"
"2001-02-13 10:00","2001","02","13","10:00","0.2","","-4.1","","73","","28","","13","","12.9","","100.75","","","","","","Cloudy"
"2001-02-13 11:00","2001","02","13","11:00","0.9","","-3.8","","71","","28","","15","","11.3","","100.75","","","","","","Cloudy"
"2001-02-13 12:00","2001","02","13","12:00","1.6","","-4.1","","66","","28","","11","","12.9","","100.72","","","","","","Cloudy"
"2001-02-13 13:00","2001","02","13","13:00","2.1","","-5.5","","57","","32","","11","","16.1","","100.62","","","","","","Mostly Cloudy"
"2001-02-13 14:00","2001","02","13","14:00","2.1","","-5.7","","56","","","","0","","16.1","","100.55","","","","","","Cloudy"
"2001-02-13 15:00","2001","02","13","15:00","2.4","","-5.2","","57","","25","","4","","16.1","","100.49","","","","","","Cloudy"
"2001-02-13 16:00","2001","02","13","16:00","1.9","","-3.5","","67","","15","","6","","14.5","","100.45","","","","","","Cloudy"
"2001-02-13 17:00","2001","02","13","17:00","1.7","","-3.2","","70","","16","","7","","11.3","","100.49","","","","","","Cloudy"
"2001-02-13 18:00","2001","02","13","18:00","1.4","","-3.1","","72","","14","","6","","11.3","","100.45","","","","","","Cloudy"
"2001-02-13 19:00","2001","02","13","19:00","1.4","","-3.5","","70","","16","","6","","19.3","","100.42","","","","","","Cloudy"
"2001-02-13 20:00","2001","02","13","20:00","1.0","","-4.1","","69","","12","","9","","19.3","","100.35","","","","","","Mainly Clear"
"2001-02-13 21:00","2001","02","13","21:00","0.9","","-3.5","","72","","14","","7","","19.3","","100.29","","","","","","Mostly Cloudy"
"2001-02-13 22:00","2001","02","13","22:00","0.3","","-3.0","","78","","15","","6","","16.1","","100.19","","","","","","Clear"
"2001-02-13 23:00","2001","02","13","23:00","0.4","","-2.1","","83","","16","","7","","16.1","","100.15","","","","","","Cloudy"
"2001-02-14 00:00","2001","02","14","00:00","0.9","","-2.2","","80","","17","","9","","16.1","","100.05","","","","","","Cloudy"
"2001-02-14 01:00","2001","02","14","01:00","1.1","","-2.5","","77","","20","","7","","16.1","","99.95","","","","","","Cloudy"
"2001-02-14 02:00","2001","02","14","02:00","1.1","","-3.6","","71","","23","","6","","12.9","","99.89","","","","","","Cloudy"
"2001-02-14 03:00","2001","02","14","03:00","1.0","","-3.7","","71","","23","","9","","12.9","","99.79","","","","","","Cloudy"
"2001-02-14 04:00","2001","02","14","04:00","0.2","","-2.1","","84","","28","","7","","6.4","","99.72","","","","","","Drizzle,Haze"
"2001-02-14 05:00","2001","02","14","05:00","-0.2","","-1.7","","90","","","","0","","4.0","","99.62","","","","","","Drizzle,Fog"
"2001-02-14 06:00","2001","02","14","06:00","0.3","","-1.2","","90","","19","","6","","6.4","","99.55","","","","","","Fog"
"2001-02-14 07:00","2001","02","14","07:00","0.5","","-1.2","","88","","18","","6","","3.6","","99.45","","","","","","Rain,Fog"
"2001-02-14 08:00","2001","02","14","08:00","0.6","","-0.8","","90","","17","","6","","1.0","","99.42","","","","","","Rain,Fog"
"2001-02-14 09:00","2001","02","14","09:00","0.6","","-0.8","","90","","","","0","","1.2","","99.35","","","","","","Rain,Snow,Fog"
"2001-02-14 10:00","2001","02","14","10:00","0.8","","-0.5","","91","","","","0","","1.2","","99.32","","","","","","Rain,Snow,Fog"
"2001-02-14 11:00","2001","02","14","11:00","1.1","","-0.2","","91","","","","0","","1.0","","99.19","","","","","","Fog"
"2001-02-14 12:00","2001","02","14","12:00","1.3","","-0.2","","90","","","","0","","1.2","","99.12","","","","","","Fog"
"2001-02-14 13:00","2001","02","14","13:00","1.6","","0.2","","90","","","","0","","1.6","","98.99","","","","","","Fog"
"2001-02-14 14:00","2001","02","14","14:00","1.1","","-0.3","","90","","","","0","","1.2","","98.86","","","","","","Rain,Ice Pellets,Fog"
"2001-02-14 15:00","2001","02","14","15:00","1.1","","-0.4","","90","","36","","6","","1.2","","98.82","","","","","","Rain,Fog"
"2001-02-14 16:00","2001","02","14","16:00","0.8","","-0.6","","90","","35","","6","","1.0","","98.82","","","","","","Rain,Snow,Ice Pellets,Fog"
"2001-02-14 17:00","2001","02","14","17:00","0.3","","-1.0","","91","","","","0","","1.0","","98.79","","","","","","Snow,Fog"
"2001-02-14 18:00","2001","02","14","18:00","0.2","","-1.0","","92","","25","","6","","1.0","","98.86","","","","","","Snow,Fog"
"2001-02-14 19:00","2001","02","14","19:00","0.2","","-1.0","","92","","24","","6","","1.2","","98.82","","","","","","Snow,Fog"
"2001-02-14 20:00","2001","02","14","20:00","0.0","","-1.6","","89","","36","","20","","2.4","","98.86","","","","-5","","Snow"
"2001-02-14 21:00","2001","02","14","21:00","0.0","","-2.3","","84","","36","","17","","19.3","","98.96","","","","-5","","Snow"
"2001-02-14 22:00","2001","02","14","22:00","-0.1","","-3.4","","78","","34","","20","","19.3","","99.02","","","","-5","","Cloudy"
"2001-02-14 23:00","2001","02","14","23:00","-0.4","","-3.6","","79","","36","","15","","19.3","","99.02","","","","-5","","Snow"
"2001-02-15 00:00","2001","02","15","00:00","-0.8","","-5.2","","72","","32","","20","","24.1","","99.09","","","","-6","","Cloudy"
"2001-02-15 01:00","2001","02","15","01:00","-1.4","","-5.3","","75","","33","","24","","24.1","","99.16","","","","-8","","Cloudy"
"2001-02-15 02:00","2001","02","15","02:00","-1.7","","-6.0","","72","","33","","20","","19.3","","99.22","","","","-7","","Cloudy"
"2001-02-15 03:00","2001","02","15","03:00","-2.6","","-6.9","","72","","34","","28","","19.3","","99.32","","","","-10","","Cloudy"
"2001-02-15 04:00","2001","02","15","04:00","-3.9","","-7.6","","75","","36","","22","","19.3","","99.32","","","","-10","","Cloudy"
"2001-02-15 05:00","2001","02","15","05:00","-4.9","","-8.9","","73","","36","","32","","19.3","","99.39","","","","-13","","Cloudy"
"2001-02-15 06:00","2001","02","15","06:00","-5.8","","-9.5","","75","","36","","19","","19.3","","99.52","","","","-12","","Cloudy"
"2001-02-15 07:00","2001","02","15","07:00","-6.6","","-10.0","","77","","34","","24","","19.3","","99.55","","","","-14","","Cloudy"
"2001-02-15 08:00","2001","02","15","08:00","-6.9","","-10.1","","78","","2","","19","","24.1","","99.72","","","","-14","","Cloudy"
"2001-02-15 09:00","2001","02","15","09:00","-7.2","","-10.2","","79","","1","","26","","19.3","","99.65","","","","-15","","Cloudy"
"2001-02-15 10:00","2001","02","15","10:00","-7.9","","-10.8","","80","","35","","17","","19.3","","99.79","","","","-15","","Cloudy"
"2001-02-15 11:00","2001","02","15","11:00","-8.0","","-11.7","","75","","36","","19","","19.3","","99.89","","","","-15","","Mostly Cloudy"
"2001-02-15 12:00","2001","02","15","12:00","-7.6","","-11.4","","74","","1","","19","","19.3","","99.89","","","","-15","","Mostly Cloudy"
"2001-02-15 13:00","2001","02","15","13:00","-6.9","","-10.9","","73","","36","","15","","19.3","","99.89","","","","-13","","Mostly Cloudy"
"2001-02-15 14:00","2001","02","15","14:00","-6.1","","-10.4","","72","","35","","11","","19.3","","99.82","","","","-11","","Mostly Cloudy"
"2001-02-15 15:00","2001","02","15","15:00","-5.2","","-9.3","","73","","36","","11","","19.3","","99.82","","","","-10","","Mostly Cloudy"
"2001-02-15 16:00","2001","02","15","16:00","-4.6","","-9.8","","67","","5","","4","","19.3","","99.85","","","","-6","","Mostly Cloudy"
"2001-02-15 17:00","2001","02","15","17:00","-4.5","","-9.8","","66","","","","0","","19.3","","99.85","","","","","","Mostly Cloudy"
"2001-02-15 18:00","2001","02","15","18:00","-4.6","","-8.6","","74","","17","","7","","16.1","","99.92","","","","-8","","Mostly Cloudy"
"2001-02-15 19:00","2001","02","15","19:00","-5.4","","-8.6","","78","","","","0","","19.3","","99.95","","","","","","Mainly Clear"
"2001-02-15 20:00","2001","02","15","20:00","-4.9","","-8.5","","76","","15","","6","","19.3","","99.89","","","","-8","","Mainly Clear"
"2001-02-15 21:00","2001","02","15","21:00","-5.1","","-8.5","","77","","","","0","","19.3","","99.95","","","","","","Mainly Clear"
"2001-02-15 22:00","2001","02","15","22:00","-5.2","","-8.4","","78","","","","0","","19.3","","99.95","","","","","","Mostly Cloudy"
"2001-02-15 23:00","2001","02","15","23:00","-6.4","","-9.5","","79","","3","","6","","19.3","","99.92","","","","-9","","Cloudy"
"2001-02-16 00:00","2001","02","16","00:00","-6.3","","-9.6","","77","","3","","7","","19.3","","99.89","","","","-10","","Cloudy"
"2001-02-16 01:00","2001","02","16","01:00","-6.1","","-9.2","","79","","3","","9","","19.3","","99.79","","","","-10","","Cloudy"
"2001-02-16 02:00","2001","02","16","02:00","-5.7","","-8.5","","81","","1","","6","","16.1","","99.79","","","","-9","","Cloudy"
"2001-02-16 03:00","2001","02","16","03:00","-5.7","","-8.4","","81","","32","","7","","19.3","","99.75","","","","-9","","Cloudy"
"2001-02-16 04:00","2001","02","16","04:00","-5.2","","-8.0","","81","","33","","9","","16.1","","99.75","","","","-9","","Cloudy"
"2001-02-16 05:00","2001","02","16","05:00","-5.1","","-8.0","","80","","34","","6","","11.3","","99.75","","","","-8","","Cloudy"
"2001-02-16 06:00","2001","02","16","06:00","-5.4","","-8.2","","81","","2","","7","","11.3","","99.65","","","","-9","","Cloudy"
"2001-02-16 07:00","2001","02","16","07:00","-4.8","","-7.6","","81","","33","","4","","12.9","","99.72","","","","-7","","Cloudy"
"2001-02-16 08:00","2001","02","16","08:00","-4.3","","-7.2","","80","","31","","6","","6.4","","99.69","","","","-7","","Haze"
"2001-02-16 09:00","2001","02","16","09:00","-3.3","","-6.8","","77","","","","0","","9.7","","99.62","","","","","","Haze"
"2001-02-16 10:00","2001","02","16","10:00","-2.2","","-6.4","","73","","26","","6","","9.7","","99.59","","","","-5","","Haze"
"2001-02-16 11:00","2001","02","16","11:00","-1.8","","-5.9","","74","","26","","6","","9.7","","99.59","","","","-4","","Haze"
"2001-02-16 12:00","2001","02","16","12:00","-1.0","","-6.1","","68","","25","","4","","9.7","","99.52","","","","-2","","Haze"
"2001-02-16 13:00","2001","02","16","13:00","-0.2","","-4.6","","72","","27","","11","","9.7","","99.45","","","","-4","","Haze"
"2001-02-16 14:00","2001","02","16","14:00","-0.2","","-4.4","","73","","24","","11","","9.7","","99.32","","","","-4","","Haze"
"2001-02-16 15:00","2001","02","16","15:00","0.1","","-4.1","","73","","23","","11","","9.7","","99.35","","","","","","Haze"
"2001-02-16 16:00","2001","02","16","16:00","0.0","","-4.0","","74","","28","","20","","9.7","","99.29","","","","-5","","Haze"
"2001-02-16 17:00","2001","02","16","17:00","-0.1","","-4.2","","74","","28","","24","","9.7","","99.29","","","","-6","","Haze"
"2001-02-16 18:00","2001","02","16","18:00","-0.4","","-4.4","","74","","27","","19","","9.7","","99.26","","","","-6","","Haze"
"2001-02-16 19:00","2001","02","16","19:00","-0.5","","-5.4","","69","","27","","22","","19.3","","99.32","","","","-6","","Cloudy"
"2001-02-16 20:00","2001","02","16","20:00","-0.9","","-5.2","","73","","28","","24","","19.3","","99.29","","","","-7","","Cloudy"
"2001-02-16 21:00","2001","02","16","21:00","-1.1","","-5.0","","75","","26","","19","","19.3","","99.26","","","","-6","","Cloudy"
"2001-02-16 22:00","2001","02","16","22:00","-1.4","","-4.9","","77","","26","","19","","16.1","","99.19","","","","-7","","Cloudy"
"2001-02-16 23:00","2001","02","16","23:00","-1.5","","-5.4","","75","","28","","26","","8.0","","99.19","","","","-8","","Snow"
"2001-02-17 00:00","2001","02","17","00:00","-2.4","","-7.2","","70","","31","","28","","16.1","","99.26","","","","-9","","Snow"
"2001-02-17 01:00","2001","02","17","01:00","-3.6","","-9.1","","66","","32","","35","","19.3","","99.26","","","","-12","","Snow"
"2001-02-17 02:00","2001","02","17","02:00","-5.0","","-9.2","","72","","32","","32","","19.3","","99.29","","","","-13","","Cloudy"
"2001-02-17 03:00","2001","02","17","03:00","-5.7","","-10.7","","68","","31","","26","","19.3","","99.32","","","","-13","","Cloudy"
"2001-02-17 04:00","2001","02","17","04:00","-6.5","","-12.1","","64","","30","","37","","24.1","","99.35","","","","-16","","Clear"
"2001-02-17 05:00","2001","02","17","05:00","-7.3","","-13.0","","64","","29","","37","","24.1","","99.45","","","","-17","","Clear"
"2001-02-17 06:00","2001","02","17","06:00","-8.0","","-12.8","","68","","28","","39","","24.1","","99.52","","","","-18","","Clear"
"2001-02-17 07:00","2001","02","17","07:00","-8.5","","-11.5","","79","","29","","35","","6.4","","99.65","","","","-18","","Snow Showers"
"2001-02-17 08:00","2001","02","17","08:00","-8.1","","-13.9","","63","","31","","37","","24.1","","99.79","","","","-18","","Mainly Clear"
"2001-02-17 09:00","2001","02","17","09:00","-8.1","","-14.1","","62","","31","","37","","24.1","","99.92","","","","-18","","Mainly Clear"
"2001-02-17 10:00","2001","02","17","10:00","-8.2","","-15.7","","55","","32","","44","","24.1","","99.99","","","","-19","","Mainly Clear"
"2001-02-17 11:00","2001","02","17","11:00","-8.8","","-16.4","","54","","31","","48","","24.1","","100.05","","","","-20","","Mainly Clear"
"2001-02-17 12:00","2001","02","17","12:00","-9.0","","-16.2","","56","","31","","37","","24.1","","100.15","","","","-19","","Mainly Clear"
"2001-02-17 13:00","2001","02","17","13:00","-8.7","","-16.3","","54","","30","","39","","24.1","","100.19","","","","-19","","Mainly Clear"
"2001-02-17 14:00","2001","02","17","14:00","-8.8","","-16.8","","52","","31","","41","","24.1","","100.29","","","","-19","","Mainly Clear"
"2001-02-17 15:00","2001","02","17","15:00","-8.6","","-16.6","","52","","31","","37","","24.1","","100.35","","","","-19","","Mainly Clear"
"2001-02-17 16:00","2001","02","17","16:00","-9.0","","-17.4","","51","","30","","39","","24.1","","100.39","","","","-19","","Clear"
"2001-02-17 17:00","2001","02","17","17:00","-9.3","","-16.5","","56","","30","","37","","24.1","","100.45","","","","-19","","Clear"
"2001-02-17 18:00","2001","02","17","18:00","-10.0","","-17.0","","57","","31","","37","","24.1","","100.49","","","","-20","","Mainly Clear"
"2001-02-17 19:00","2001","02","17","19:00","-10.0","","-15.8","","63","","29","","24","","24.1","","100.55","","","","-19","","Clear"
"2001-02-17 20:00","2001","02","17","20:00","-10.6","","-15.3","","68","","27","","15","","24.1","","100.62","","","","-17","","Mostly Cloudy"
"2001-02-17 21:00","2001","02","17","21:00","-10.3","","-14.7","","70","","27","","17","","24.1","","100.62","","","","-18","","Mostly Cloudy"
"2001-02-17 22:00","2001","02","17","22:00","-10.3","","-15.4","","66","","24","","15","","24.1","","100.62","","","","-17","","Mostly Cloudy"
"2001-02-17 23:00","2001","02","17","23:00","-10.3","","-14.9","","69","","25","","11","","24.1","","100.62","","","","-16","","Mostly Cloudy"
"2001-02-18 00:00","2001","02","18","00:00","-9.5","","-13.9","","70","","23","","13","","24.1","","100.59","","","","-16","","Mostly Cloudy"
"2001-02-18 01:00","2001","02","18","01:00","-9.6","","-13.6","","73","","23","","11","","24.1","","100.59","","","","-15","","Cloudy"
"2001-02-18 02:00","2001","02","18","02:00","-9.6","","-13.9","","71","","20","","9","","24.1","","100.55","","","","-14","","Mostly Cloudy"
"2001-02-18 03:00","2001","02","18","03:00","-9.1","","-14.0","","68","","24","","13","","19.3","","100.55","","","","-15","","Cloudy"
"2001-02-18 04:00","2001","02","18","04:00","-8.5","","-14.8","","60","","27","","41","","24.1","","100.55","","","","-19","","Cloudy"
"2001-02-18 05:00","2001","02","18","05:00","-8.6","","-14.7","","61","","28","","22","","24.1","","100.55","","","","-16","","Cloudy"
"2001-02-18 06:00","2001","02","18","06:00","-8.7","","-13.4","","69","","25","","28","","16.1","","100.55","","","","-18","","Snow"
"2001-02-18 07:00","2001","02","18","07:00","-9.6","","-15.3","","63","","27","","30","","24.1","","100.52","","","","-19","","Mostly Cloudy"
"2001-02-18 08:00","2001","02","18","08:00","-9.5","","-14.7","","66","","25","","20","","24.1","","100.55","","","","-17","","Mostly Cloudy"
"2001-02-18 09:00","2001","02","18","09:00","-9.6","","-15.1","","64","","25","","28","","24.1","","100.55","","","","-19","","Mostly Cloudy"
"2001-02-18 10:00","2001","02","18","10:00","-8.1","","-13.3","","66","","27","","30","","24.1","","100.55","","","","-17","","Mostly Cloudy"
"2001-02-18 11:00","2001","02","18","11:00","-7.4","","-12.7","","66","","27","","37","","24.1","","100.49","","","","-17","","Mainly Clear"
"2001-02-18 12:00","2001","02","18","12:00","-6.6","","-12.4","","63","","27","","43","","24.1","","100.45","","","","-17","","Mainly Clear"
"2001-02-18 13:00","2001","02","18","13:00","-5.9","","-12.3","","61","","26","","54","","24.1","","100.42","","","","-17","","Mainly Clear"
"2001-02-18 14:00","2001","02","18","14:00","-5.3","","-11.9","","60","","26","","43","","24.1","","100.35","","","","-15","","Mainly Clear"
"2001-02-18 15:00","2001","02","18","15:00","-5.1","","-12.1","","58","","27","","46","","24.1","","100.32","","","","-15","","Mainly Clear"
"2001-02-18 16:00","2001","02","18","16:00","-4.6","","-12.4","","54","","26","","35","","24.1","","100.32","","","","-13","","Mainly Clear"
"2001-02-18 17:00","2001","02","18","17:00","-4.6","","-13.3","","51","","27","","30","","24.1","","100.35","","","","-12","","Mainly Clear"
"2001-02-18 18:00","2001","02","18","18:00","-5.7","","-13.3","","55","","25","","17","","24.1","","100.32","","","","-12","","Clear"
"2001-02-18 19:00","2001","02","18","19:00","-5.3","","-13.5","","52","","24","","17","","24.1","","100.32","","","","-11","","Clear"
"2001-02-18 20:00","2001","02","18","20:00","-5.7","","-13.2","","55","","22","","13","","24.1","","100.35","","","","-11","","Clear"
"2001-02-18 21:00","2001","02","18","21:00","-5.8","","-12.4","","60","","21","","15","","24.1","","100.29","","","","-12","","Clear"
"2001-02-18 22:00","2001","02","18","22:00","-6.2","","-11.5","","66","","22","","19","","24.1","","100.25","","","","-13","","Clear"
"2001-02-18 23:00","2001","02","18","23:00","-6.2","","-11.4","","67","","23","","17","","24.1","","100.22","","","","-12","","Clear"
"2001-02-19 00:00","2001","02","19","00:00","-5.8","","-11.3","","65","","25","","22","","24.1","","100.15","","","","-13","","Mostly Cloudy"
"2001-02-19 01:00","2001","02","19","01:00","-5.3","","-11.5","","62","","24","","30","","24.1","","100.12","","","","-13","","Mostly Cloudy"
"2001-02-19 02:00","2001","02","19","02:00","-4.8","","-11.4","","60","","23","","26","","24.1","","100.05","","","","-12","","Cloudy"
"2001-02-19 03:00","2001","02","19","03:00","-4.5","","-10.5","","63","","23","","24","","24.1","","100.02","","","","-12","","Mostly Cloudy"
"2001-02-19 04:00","2001","02","19","04:00","-4.8","","-10.7","","63","","24","","22","","24.1","","99.95","","","","-12","","Mainly Clear"
"2001-02-19 05:00","2001","02","19","05:00","-4.4","","-10.3","","63","","25","","26","","24.1","","99.92","","","","-12","","Cloudy"
"2001-02-19 06:00","2001","02","19","06:00","-4.7","","-10.4","","64","","23","","20","","24.1","","99.92","","","","-11","","Mainly Clear"
"2001-02-19 07:00","2001","02","19","07:00","-4.3","","-9.6","","66","","22","","13","","24.1","","99.85","","","","-9","","Mostly Cloudy"
"2001-02-19 08:00","2001","02","19","08:00","-4.0","","-9.2","","67","","21","","26","","19.3","","99.79","","","","-11","","Mostly Cloudy"
"2001-02-19 09:00","2001","02","19","09:00","-3.4","","-9.1","","65","","22","","24","","24.1","","99.69","","","","-10","","Mostly Cloudy"
"2001-02-19 10:00","2001","02","19","10:00","-1.8","","-8.7","","59","","21","","39","","24.1","","99.59","","","","-10","","Mostly Cloudy"
"2001-02-19 11:00","2001","02","19","11:00","-0.8","","-8.5","","56","","22","","30","","24.1","","99.52","","","","-8","","Mostly Cloudy"
"2001-02-19 12:00","2001","02","19","12:00","-0.2","","-8.3","","54","","21","","26","","24.1","","99.39","","","","-6","","Cloudy"
"2001-02-19 13:00","2001","02","19","13:00","0.8","","-7.9","","52","","22","","30","","24.1","","99.35","","","","","","Cloudy"
"2001-02-19 14:00","2001","02","19","14:00","1.4","","-6.8","","54","","22","","32","","24.1","","99.22","","","","","","Mostly Cloudy"
"2001-02-19 15:00","2001","02","19","15:00","2.1","","-6.4","","53","","24","","33","","24.1","","99.16","","","","","","Mostly Cloudy"
"2001-02-19 16:00","2001","02","19","16:00","2.0","","-6.0","","55","","25","","39","","24.1","","99.16","","","","","","Cloudy"
"2001-02-19 17:00","2001","02","19","17:00","2.2","","-5.7","","56","","22","","22","","24.1","","99.16","","","","","","Cloudy"
"2001-02-19 18:00","2001","02","19","18:00","2.2","","-5.2","","58","","23","","24","","24.1","","99.22","","","","","","Cloudy"
"2001-02-19 19:00","2001","02","19","19:00","2.9","","-4.6","","58","","24","","22","","24.1","","99.22","","","","","","Cloudy"
"2001-02-19 20:00","2001","02","19","20:00","3.4","","-3.6","","60","","24","","20","","24.1","","99.29","","","","","","Cloudy"
"2001-02-19 21:00","2001","02","19","21:00","3.2","","-2.8","","65","","25","","26","","24.1","","99.35","","","","","","Cloudy"
"2001-02-19 22:00","2001","02","19","22:00","3.1","","-2.6","","66","","26","","15","","24.1","","99.35","","","","","","Cloudy"
"2001-02-19 23:00","2001","02","19","23:00","2.6","","-2.3","","70","","25","","13","","24.1","","99.35","","","","","","Cloudy"
"2001-02-20 00:00","2001","02","20","00:00","2.6","","-2.2","","71","","26","","22","","19.3","","99.35","","","","","","Cloudy"
"2001-02-20 01:00","2001","02","20","01:00","2.6","","-2.0","","72","","26","","17","","19.3","","99.35","","","","","","Cloudy"
"2001-02-20 02:00","2001","02","20","02:00","2.2","","-2.0","","74","","27","","6","","16.1","","99.39","","","","","","Cloudy"
"2001-02-20 03:00","2001","02","20","03:00","2.4","","-1.9","","73","","27","","19","","16.1","","99.39","","","","","","Cloudy"
"2001-02-20 04:00","2001","02","20","04:00","1.9","","-2.1","","75","","27","","9","","16.1","","99.39","","","","","","Cloudy"
"2001-02-20 05:00","2001","02","20","05:00","2.0","","-2.4","","73","","25","","11","","16.1","","99.42","","","","","","Cloudy"
"2001-02-20 06:00","2001","02","20","06:00","1.9","","-2.7","","72","","24","","11","","14.5","","99.45","","","","","","Cloudy"
"2001-02-20 07:00","2001","02","20","07:00","2.4","","-2.8","","68","","24","","11","","16.1","","99.45","","","","","","Cloudy"
"2001-02-20 08:00","2001","02","20","08:00","1.8","","-2.9","","71","","24","","15","","12.9","","99.49","","","","","","Cloudy"
"2001-02-20 09:00","2001","02","20","09:00","2.3","","-2.8","","69","","25","","20","","11.3","","99.49","","","","","","Mostly Cloudy"
"2001-02-20 10:00","2001","02","20","10:00","2.7","","-2.5","","69","","23","","17","","9.7","","99.49","","","","","","Haze"
"2001-02-20 11:00","2001","02","20","11:00","2.9","","-2.7","","67","","25","","20","","11.3","","99.45","","","","","","Cloudy"
"2001-02-20 12:00","2001","02","20","12:00","3.0","","-2.6","","67","","25","","19","","11.3","","99.42","","","","","","Cloudy"
"2001-02-20 13:00","2001","02","20","13:00","3.6","","-2.7","","63","","26","","26","","11.3","","99.35","","","","","","Cloudy"
"2001-02-20 14:00","2001","02","20","14:00","3.9","","-2.8","","62","","25","","28","","11.3","","99.32","","","","","","Mostly Cloudy"
"2001-02-20 15:00","2001","02","20","15:00","4.6","","-1.8","","63","","26","","32","","11.3","","99.26","","","","","","Mostly Cloudy"
"2001-02-20 16:00","2001","02","20","16:00","3.2","","-4.0","","59","","26","","37","","14.5","","99.22","","","","","","Mainly Clear"
"2001-02-20 17:00","2001","02","20","17:00","2.5","","-4.1","","62","","28","","33","","16.1","","99.26","","","","","","Mainly Clear"
"2001-02-20 18:00","2001","02","20","18:00","1.3","","-5.5","","60","","28","","37","","16.1","","99.32","","","","","","Mainly Clear"
"2001-02-20 19:00","2001","02","20","19:00","0.0","","-6.2","","63","","28","","24","","19.3","","99.35","","","","-6","","Clear"
"2001-02-20 20:00","2001","02","20","20:00","-0.6","","-7.0","","62","","29","","22","","24.1","","99.39","","","","-6","","Mainly Clear"
"2001-02-20 21:00","2001","02","20","21:00","-1.5","","-7.7","","63","","28","","20","","24.1","","99.42","","","","-7","","Clear"
"2001-02-20 22:00","2001","02","20","22:00","-1.8","","-9.9","","54","","30","","28","","24.1","","99.45","","","","-9","","Clear"
"2001-02-20 23:00","2001","02","20","23:00","-2.6","","-11.6","","50","","29","","30","","24.1","","99.52","","","","-10","","Mainly Clear"
"2001-02-21 00:00","2001","02","21","00:00","-3.7","","-9.8","","63","","32","","32","","24.1","","99.62","","","","-12","","Mostly Cloudy"
"2001-02-21 01:00","2001","02","21","01:00","-4.8","","-9.7","","69","","32","","28","","24.1","","99.69","","","","-12","","Mostly Cloudy"
"2001-02-21 02:00","2001","02","21","02:00","-5.3","","-10.0","","69","","32","","24","","8.0","","99.75","","","","-13","","Snow Showers"
"2001-02-21 03:00","2001","02","21","03:00","-5.9","","-11.1","","67","","30","","24","","24.1","","99.79","","","","-13","","Mostly Cloudy"
"2001-02-21 04:00","2001","02","21","04:00","-6.2","","-11.4","","67","","31","","35","","16.1","","99.85","","","","-15","","Snow Showers"
"2001-02-21 05:00","2001","02","21","05:00","-7.2","","-15.1","","53","","29","","28","","24.1","","99.95","","","","-16","","Mainly Clear"
"2001-02-21 06:00","2001","02","21","06:00","-8.2","","-16.2","","52","","29","","28","","24.1","","100.05","","","","-17","","Clear"
"2001-02-21 07:00","2001","02","21","07:00","-8.6","","-16.0","","55","","29","","35","","19.3","","100.12","","","","-18","","Mainly Clear"
"2001-02-21 08:00","2001","02","21","08:00","-8.4","","-14.8","","60","","31","","33","","19.3","","100.25","","","","-18","","Snow Showers"
"2001-02-21 09:00","2001","02","21","09:00","-9.2","","-13.4","","71","","34","","22","","9.7","","100.39","","","","-17","","Snow Showers"
"2001-02-21 10:00","2001","02","21","10:00","-8.0","","-14.7","","59","","31","","26","","24.1","","100.49","","","","-16","","Mainly Clear"
"2001-02-21 11:00","2001","02","21","11:00","-8.9","","-14.4","","64","","35","","22","","24.1","","100.59","","","","-17","","Mostly Cloudy"
"2001-02-21 12:00","2001","02","21","12:00","-10.3","","-14.5","","71","","36","","22","","4.8","","100.72","","","","-19","","Snow Showers"
"2001-02-21 13:00","2001","02","21","13:00","-9.9","","-15.5","","64","","36","","26","","12.9","","100.72","","","","-19","","Snow Showers"
"2001-02-21 14:00","2001","02","21","14:00","-8.3","","-15.9","","54","","32","","20","","24.1","","100.72","","","","-16","","Mostly Cloudy"
"2001-02-21 15:00","2001","02","21","15:00","-8.7","","-18.2","","46","","30","","32","","24.1","","100.79","","","","-18","","Mainly Clear"
"2001-02-21 16:00","2001","02","21","16:00","-8.9","","-18.7","","45","","32","","33","","24.1","","100.82","","","","-18","","Mostly Cloudy"
"2001-02-21 17:00","2001","02","21","17:00","-9.1","","-18.2","","48","","30","","33","","24.1","","100.85","","","","-19","","Mainly Clear"
"2001-02-21 18:00","2001","02","21","18:00","-9.2","","-17.7","","50","","28","","33","","24.1","","100.89","","","","-19","","Mostly Cloudy"
"2001-02-21 19:00","2001","02","21","19:00","-10.0","","-16.7","","58","","29","","22","","24.1","","100.95","","","","-18","","Clear"
"2001-02-21 20:00","2001","02","21","20:00","-10.5","","-15.9","","64","","27","","15","","24.1","","100.95","","","","-17","","Clear"
"2001-02-21 21:00","2001","02","21","21:00","-10.9","","-16.6","","63","","29","","15","","24.1","","100.95","","","","-18","","Clear"
"2001-02-21 22:00","2001","02","21","22:00","-11.2","","-16.3","","66","","27","","17","","24.1","","100.95","","","","-19","","Mainly Clear"
"2001-02-21 23:00","2001","02","21","23:00","-10.8","","-15.9","","66","","24","","17","","24.1","","100.89","","","","-18","","Mainly Clear"
"2001-02-22 00:00","2001","02","22","00:00","-10.7","","-15.1","","70","","24","","19","","24.1","","100.85","","","","-19","","Mainly Clear"
"2001-02-22 01:00","2001","02","22","01:00","-10.3","","-15.1","","68","","24","","17","","24.1","","100.85","","","","-18","","Mostly Cloudy"
"2001-02-22 02:00","2001","02","22","02:00","-10.0","","-15.5","","64","","25","","17","","24.1","","100.82","","","","-17","","Mostly Cloudy"
"2001-02-22 03:00","2001","02","22","03:00","-10.0","","-15.5","","64","","25","","19","","24.1","","100.79","","","","-18","","Mainly Clear"
"2001-02-22 04:00","2001","02","22","04:00","-10.4","","-15.6","","66","","27","","15","","24.1","","100.75","","","","-17","","Mainly Clear"
"2001-02-22 05:00","2001","02","22","05:00","-11.0","","-15.9","","67","","26","","6","","24.1","","100.65","","","","-15","","Clear"
"2001-02-22 06:00","2001","02","22","06:00","-11.4","","-16.1","","68","","26","","6","","24.1","","100.62","","","","-15","","Clear"
"2001-02-22 07:00","2001","02","22","07:00","-11.8","","-16.1","","70","","32","","4","","24.1","","100.62","","","","-14","","Mainly Clear"
"2001-02-22 08:00","2001","02","22","08:00","-10.9","","-16.2","","65","","30","","4","","19.3","","100.55","","","","-13","","Mostly Cloudy"
"2001-02-22 09:00","2001","02","22","09:00","-9.7","","-15.9","","61","","","","0","","14.5","","100.55","","","","","","Mostly Cloudy"
"2001-02-22 10:00","2001","02","22","10:00","-8.5","","-15.0","","59","","19","","4","","19.3","","100.42","","","","-11","","Mostly Cloudy"
"2001-02-22 11:00","2001","02","22","11:00","-8.1","","-13.9","","63","","9","","11","","19.3","","100.35","","","","-13","","Mostly Cloudy"
"2001-02-22 12:00","2001","02","22","12:00","-7.1","","-12.7","","64","","12","","9","","19.3","","100.25","","","","-11","","Snow Showers"
"2001-02-22 13:00","2001","02","22","13:00","-6.2","","-13.5","","56","","16","","19","","24.1","","100.12","","","","-13","","Cloudy"
"2001-02-22 14:00","2001","02","22","14:00","-5.9","","-13.7","","54","","14","","20","","24.1","","99.95","","","","-13","","Cloudy"
"2001-02-22 15:00","2001","02","22","15:00","-5.4","","-12.7","","56","","14","","24","","24.1","","99.79","","","","-13","","Cloudy"
"2001-02-22 16:00","2001","02","22","16:00","-5.3","","-12.9","","55","","13","","24","","24.1","","99.72","","","","-13","","Cloudy"
"2001-02-22 17:00","2001","02","22","17:00","-5.6","","-11.7","","62","","15","","11","","4.0","","99.62","","","","-10","","Snow"
"2001-02-22 18:00","2001","02","22","18:00","-6.3","","-9.3","","79","","19","","11","","4.0","","99.59","","","","-11","","Snow"
"2001-02-22 19:00","2001","02","22","19:00","-6.7","","-9.9","","78","","21","","7","","19.3","","99.55","","","","-10","","Snow"
"2001-02-22 20:00","2001","02","22","20:00","-6.5","","-9.8","","77","","20","","11","","19.3","","99.45","","","","-11","","Snow"
"2001-02-22 21:00","2001","02","22","21:00","-6.5","","-9.2","","81","","18","","9","","4.8","","99.42","","","","-11","","Snow"
"2001-02-22 22:00","2001","02","22","22:00","-6.3","","-9.6","","77","","21","","15","","12.9","","99.39","","","","-12","","Snow"
"2001-02-22 23:00","2001","02","22","23:00","-6.4","","-9.6","","78","","23","","15","","8.0","","99.35","","","","-12","","Snow"
"2001-02-23 00:00","2001","02","23","00:00","-6.2","","-9.2","","79","","23","","17","","8.0","","99.32","","","","-12","","Snow"
"2001-02-23 01:00","2001","02","23","01:00","-5.6","","-8.7","","79","","24","","17","","6.4","","99.32","","","","-12","","Snow"
"2001-02-23 02:00","2001","02","23","02:00","-5.1","","-8.1","","79","","24","","26","","6.4","","99.29","","","","-13","","Snow"
"2001-02-23 03:00","2001","02","23","03:00","-4.8","","-7.5","","81","","23","","22","","6.4","","99.26","","","","-12","","Snow"
"2001-02-23 04:00","2001","02","23","04:00","-4.2","","-7.0","","81","","23","","19","","6.4","","99.26","","","","-10","","Snow"
"2001-02-23 05:00","2001","02","23","05:00","-3.8","","-6.5","","81","","23","","17","","4.0","","99.26","","","","-10","","Snow"
"2001-02-23 06:00","2001","02","23","06:00","-3.4","","-6.5","","79","","27","","24","","6.4","","99.32","","","","-10","","Snow"
"2001-02-23 07:00","2001","02","23","07:00","-4.0","","-9.1","","68","","26","","26","","16.1","","99.39","","","","-11","","Cloudy"
"2001-02-23 08:00","2001","02","23","08:00","-4.3","","-9.6","","66","","27","","28","","16.1","","99.52","","","","-12","","Snow Showers"
"2001-02-23 09:00","2001","02","23","09:00","-4.4","","-8.4","","74","","25","","26","","14.5","","99.59","","","","-12","","Mainly Clear"
"2001-02-23 10:00","2001","02","23","10:00","-3.1","","-8.5","","66","","26","","35","","14.5","","99.65","","","","-11","","Snow Showers"
"2001-02-23 11:00","2001","02","23","11:00","-2.4","","-8.3","","64","","27","","43","","8.0","","99.72","","","","-11","","Snow Showers"
"2001-02-23 12:00","2001","02","23","12:00","-2.8","","-7.0","","73","","28","","35","","19.3","","99.79","","","","-11","","Mainly Clear"
"2001-02-23 13:00","2001","02","23","13:00","-1.1","","-7.7","","61","","32","","54","","2.4","","99.89","","","","-10","","Snow Showers"
"2001-02-23 14:00","2001","02","23","14:00","-3.2","","-11.6","","52","","31","","54","","24.1","","100.02","","","","-13","","Mostly Cloudy"
"2001-02-23 15:00","2001","02","23","15:00","-2.4","","-11.1","","51","","28","","46","","24.1","","100.12","","","","-11","","Mostly Cloudy"
"2001-02-23 16:00","2001","02","23","16:00","-3.2","","-11.6","","52","","29","","35","","24.1","","100.25","","","","-11","","Mostly Cloudy"
"2001-02-23 17:00","2001","02","23","17:00","-3.6","","-11.4","","55","","30","","44","","24.1","","100.42","","","","-13","","Mainly Clear"
"2001-02-23 18:00","2001","02","23","18:00","-4.2","","-11.0","","59","","29","","33","","24.1","","100.52","","","","-12","","Mostly Cloudy"
"2001-02-23 19:00","2001","02","23","19:00","-4.8","","-11.1","","61","","29","","30","","24.1","","100.69","","","","-13","","Mostly Cloudy"
"2001-02-23 20:00","2001","02","23","20:00","-5.1","","-10.8","","64","","29","","20","","24.1","","100.82","","","","-12","","Mostly Cloudy"
"2001-02-23 21:00","2001","02","23","21:00","-6.3","","-11.0","","69","","28","","13","","24.1","","100.95","","","","-12","","Clear"
"2001-02-23 22:00","2001","02","23","22:00","-7.0","","-11.8","","69","","27","","6","","24.1","","101.05","","","","-10","","Clear"
"2001-02-23 23:00","2001","02","23","23:00","-7.1","","-12.0","","68","","24","","6","","24.1","","101.09","","","","-10","","Clear"
"2001-02-24 00:00","2001","02","24","00:00","-7.8","","-12.2","","71","","26","","7","","24.1","","101.15","","","","-11","","Clear"
"2001-02-24 01:00","2001","02","24","01:00","-7.9","","-12.5","","69","","27","","6","","24.1","","101.19","","","","-11","","Clear"
"2001-02-24 02:00","2001","02","24","02:00","-9.0","","-13.0","","73","","27","","4","","24.1","","101.15","","","","-11","","Clear"
"2001-02-24 03:00","2001","02","24","03:00","-8.9","","-12.8","","73","","","","0","","24.1","","101.15","","","","","","Clear"
"2001-02-24 04:00","2001","02","24","04:00","-9.2","","-12.9","","74","","32","","6","","24.1","","101.25","","","","-13","","Clear"
"2001-02-24 05:00","2001","02","24","05:00","-10.3","","-13.3","","79","","33","","4","","24.1","","101.35","","","","-13","","Clear"
"2001-02-24 06:00","2001","02","24","06:00","-9.8","","-13.1","","77","","3","","13","","24.1","","101.35","","","","-16","","Clear"
"2001-02-24 07:00","2001","02","24","07:00","-9.2","","-12.6","","76","","8","","4","","24.1","","101.39","","","","-11","","Mostly Cloudy"
"2001-02-24 08:00","2001","02","24","08:00","-7.7","","-12.2","","70","","7","","11","","24.1","","101.45","","","","-13","","Mainly Clear"
"2001-02-24 09:00","2001","02","24","09:00","-6.1","","-11.0","","68","","8","","11","","24.1","","101.49","","","","-11","","Cloudy"
"2001-02-24 10:00","2001","02","24","10:00","-3.8","","-9.2","","66","","12","","22","","24.1","","101.42","","","","-10","","Cloudy"
"2001-02-24 11:00","2001","02","24","11:00","-3.7","","-9.6","","64","","14","","26","","24.1","","101.35","","","","-11","","Cloudy"
"2001-02-24 12:00","2001","02","24","12:00","-3.2","","-9.3","","63","","13","","22","","24.1","","101.29","","","","-10","","Cloudy"
"2001-02-24 13:00","2001","02","24","13:00","-3.3","","-9.6","","62","","13","","24","","24.1","","101.19","","","","-10","","Cloudy"
"2001-02-24 14:00","2001","02","24","14:00","-3.4","","-9.2","","64","","10","","32","","24.1","","101.09","","","","-11","","Cloudy"
"2001-02-24 15:00","2001","02","24","15:00","-3.0","","-8.4","","66","","12","","19","","24.1","","101.02","","","","-9","","Cloudy"
"2001-02-24 16:00","2001","02","24","16:00","-2.9","","-8.3","","66","","11","","26","","24.1","","100.85","","","","-10","","Cloudy"
"2001-02-24 17:00","2001","02","24","17:00","-2.7","","-8.2","","66","","12","","26","","24.1","","100.75","","","","-10","","Cloudy"
"2001-02-24 18:00","2001","02","24","18:00","-3.3","","-7.3","","74","","10","","35","","1.6","","100.55","","","","-11","","Snow,Ice Pellets"
"2001-02-24 19:00","2001","02","24","19:00","-2.8","","-6.7","","74","","10","","22","","19.3","","100.45","","","","-9","","Snow"
"2001-02-24 20:00","2001","02","24","20:00","-2.2","","-6.0","","75","","10","","32","","16.1","","100.29","","","","-10","","Snow"
"2001-02-24 21:00","2001","02","24","21:00","-2.0","","-5.2","","79","","10","","32","","8.0","","100.15","","","","-9","","Snow"
"2001-02-24 22:00","2001","02","24","22:00","-1.4","","-4.2","","81","","11","","20","","4.8","","100.05","","","","-7","","Freezing Rain,Snow,Ice Pellets"
"2001-02-24 23:00","2001","02","24","23:00","-0.7","","-2.9","","85","","11","","30","","6.4","","99.85","","","","-7","","Freezing Rain"
"2001-02-25 00:00","2001","02","25","00:00","-0.3","","-2.5","","85","","11","","22","","11.3","","99.72","","","","-6","","Rain"
"2001-02-25 01:00","2001","02","25","01:00","0.0","","-1.9","","87","","12","","24","","6.4","","99.55","","","","-6","","Freezing Rain"
"2001-02-25 02:00","2001","02","25","02:00","0.0","","-1.5","","90","","12","","22","","4.8","","99.45","","","","-6","","Rain"
"2001-02-25 03:00","2001","02","25","03:00","0.0","","-1.3","","91","","11","","17","","4.8","","99.26","","","","-5","","Freezing Rain"
"2001-02-25 04:00","2001","02","25","04:00","0.5","","-0.8","","91","","12","","19","","4.8","","99.12","","","","","","Rain"
"2001-02-25 05:00","2001","02","25","05:00","1.0","","-0.5","","90","","14","","22","","4.8","","98.96","","","","","","Rain"
"2001-02-25 06:00","2001","02","25","06:00","1.0","","-0.3","","91","","12","","24","","4.0","","98.72","","","","","","Rain,Fog"
"2001-02-25 07:00","2001","02","25","07:00","1.1","","-0.1","","92","","13","","15","","4.0","","98.56","","","","","","Rain,Fog"
"2001-02-25 08:00","2001","02","25","08:00","1.8","","0.8","","93","","12","","24","","2.0","","98.39","","","","","","Rain,Fog"
"2001-02-25 09:00","2001","02","25","09:00","2.9","","1.7","","92","","13","","20","","3.6","","98.22","","","","","","Fog"
"2001-02-25 10:00","2001","02","25","10:00","3.9","","2.3","","89","","15","","11","","6.4","","98.22","","","","","","Fog"
"2001-02-25 11:00","2001","02","25","11:00","7.7","","5.0","","83","","18","","13","","12.9","","98.09","","","","","","Mainly Clear"
"2001-02-25 12:00","2001","02","25","12:00","12.5","","8.3","","76","","21","","33","","19.3","","97.96","","","","","","Mainly Clear"
"2001-02-25 13:00","2001","02","25","13:00","13.3","","8.0","","70","","23","","35","","24.1","","97.86","","","","","","Mostly Cloudy"
"2001-02-25 14:00","2001","02","25","14:00","13.6","","7.0","","64","","23","","54","","24.1","","97.79","","","","","","Mostly Cloudy"
"2001-02-25 15:00","2001","02","25","15:00","11.6","","5.5","","66","","23","","59","","24.1","","97.79","","","","","","Mostly Cloudy"
"2001-02-25 16:00","2001","02","25","16:00","10.0","","6.0","","76","","23","","41","","24.1","","97.79","","","","","","Mainly Clear"
"2001-02-25 17:00","2001","02","25","17:00","8.3","","1.5","","62","","25","","57","","24.1","","97.89","","","","","","Mainly Clear"
"2001-02-25 18:00","2001","02","25","18:00","5.5","","-0.7","","64","","25","","65","","19.3","","98.09","","","","","","Mainly Clear"
"2001-02-25 19:00","2001","02","25","19:00","4.8","","-1.2","","65","","25","","50","","24.1","","98.32","","","","","","Cloudy"
"2001-02-25 20:00","2001","02","25","20:00","3.5","","-2.2","","66","","27","","48","","24.1","","98.56","","","","","","Cloudy"
"2001-02-25 21:00","2001","02","25","21:00","2.6","","-3.2","","66","","27","","48","","24.1","","98.72","","","","","","Cloudy"
"2001-02-25 22:00","2001","02","25","22:00","1.9","","-3.9","","65","","26","","50","","24.1","","98.86","","","","","","Cloudy"
"2001-02-25 23:00","2001","02","25","23:00","1.4","","-3.6","","69","","25","","39","","24.1","","98.96","","","","","","Cloudy"
"2001-02-26 00:00","2001","02","26","00:00","1.3","","-3.8","","69","","25","","48","","24.1","","98.99","","","","","","Cloudy"
"2001-02-26 01:00","2001","02","26","01:00","1.2","","-3.8","","69","","25","","46","","24.1","","99.12","","","","","","Snow Showers"
"2001-02-26 02:00","2001","02","26","02:00","1.1","","-3.7","","70","","26","","33","","24.1","","99.19","","","","","","Snow Showers"
"2001-02-26 03:00","2001","02","26","03:00","-0.2","","-3.8","","77","","27","","48","","12.9","","99.26","","","","-8","","Snow Showers"
"2001-02-26 04:00","2001","02","26","04:00","0.2","","-6.7","","60","","29","","65","","24.1","","99.39","","","","","","Cloudy"
"2001-02-26 05:00","2001","02","26","05:00","-0.9","","-7.5","","61","","29","","39","","24.1","","99.59","","","","-9","","Mainly Clear"
"2001-02-26 06:00","2001","02","26","06:00","-0.9","","-7.7","","60","","30","","48","","24.1","","99.75","","","","-9","","Cloudy"
"2001-02-26 07:00","2001","02","26","07:00","-1.4","","-7.8","","62","","31","","43","","19.3","","99.89","","","","-10","","Snow Showers"
"2001-02-26 08:00","2001","02","26","08:00","-2.0","","-9.2","","58","","29","","33","","24.1","","99.99","","","","-9","","Mainly Clear"
"2001-02-26 09:00","2001","02","26","09:00","-1.9","","-8.6","","60","","29","","44","","24.1","","100.15","","","","-10","","Mostly Cloudy"
"2001-02-26 10:00","2001","02","26","10:00","-1.6","","-7.3","","65","","29","","35","","19.3","","100.19","","","","-9","","Mostly Cloudy"
"2001-02-26 11:00","2001","02","26","11:00","-0.8","","-7.0","","63","","29","","32","","24.1","","100.25","","","","-8","","Mostly Cloudy"
"2001-02-26 12:00","2001","02","26","12:00","0.6","","-6.6","","58","","30","","37","","24.1","","100.32","","","","","","Mainly Clear"
"2001-02-26 13:00","2001","02","26","13:00","0.2","","-7.4","","57","","29","","39","","24.1","","100.35","","","","","","Mainly Clear"
"2001-02-26 14:00","2001","02","26","14:00","0.7","","-7.2","","55","","31","","33","","24.1","","100.42","","","","","","Mainly Clear"
"2001-02-26 15:00","2001","02","26","15:00","0.9","","-7.4","","54","","29","","30","","24.1","","100.45","","","","","","Mainly Clear"
"2001-02-26 16:00","2001","02","26","16:00","0.2","","-7.2","","57","","29","","26","","24.1","","100.45","","","","","","Mainly Clear"
"2001-02-26 17:00","2001","02","26","17:00","-0.6","","-7.6","","59","","30","","24","","24.1","","100.45","","","","-7","","Mainly Clear"
"2001-02-26 18:00","2001","02","26","18:00","-1.3","","-7.4","","63","","28","","19","","24.1","","100.39","","","","-7","","Mostly Cloudy"
"2001-02-26 19:00","2001","02","26","19:00","-1.7","","-7.3","","66","","27","","24","","24.1","","100.45","","","","-8","","Mostly Cloudy"
"2001-02-26 20:00","2001","02","26","20:00"
"2001-02-26 21:00","2001","02","26","21:00","-2.0","","-7.4","","66","","27","","15","","24.1","","100.39","","","","-7","","Cloudy"
"2001-02-26 22:00","2001","02","26","22:00","-1.9","","-7.2","","67","","26","","9","","24.1","","100.35","","","","-5","","Cloudy"
"2001-02-26 23:00","2001","02","26","23:00","-1.9","","-6.9","","69","","25","","6","","24.1","","100.32","","","","-4","","Cloudy"
"2001-02-27 00:00","2001","02","27","00:00","-1.5","","-6.7","","68","","22","","7","","24.1","","100.15","","","","-4","","Cloudy"
"2001-02-27 01:00","2001","02","27","01:00","-1.2","","-6.3","","68","","22","","9","","24.1","","100.19","","","","-4","","Cloudy"
"2001-02-27 02:00","2001","02","27","02:00","-0.9","","-5.4","","71","","23","","7","","19.3","","100.15","","","","-3","","Cloudy"
"2001-02-27 03:00","2001","02","27","03:00","-0.7","","-4.6","","75","","24","","11","","19.3","","100.12","","","","-4","","Cloudy"
"2001-02-27 04:00","2001","02","27","04:00","-0.1","","-4.0","","75","","26","","17","","16.1","","100.09","","","","-5","","Cloudy"
"2001-02-27 05:00","2001","02","27","05:00","-0.2","","-3.9","","76","","28","","13","","16.1","","100.12","","","","-4","","Cloudy"
"2001-02-27 06:00","2001","02","27","06:00","-0.7","","-6.0","","67","","32","","22","","19.3","","100.15","","","","-6","","Mostly Cloudy"
"2001-02-27 07:00","2001","02","27","07:00","-0.6","","-5.6","","69","","30","","15","","11.3","","100.19","","","","-5","","Snow Showers"
"2001-02-27 08:00","2001","02","27","08:00","-0.8","","-6.8","","64","","30","","30","","24.1","","100.25","","","","-8","","Mostly Cloudy"
"2001-02-27 09:00","2001","02","27","09:00","-2.7","","-6.2","","77","","34","","30","","2.8","","100.32","","","","-10","","Snow Showers"
"2001-02-27 10:00","2001","02","27","10:00","-3.0","","-7.9","","69","","36","","24","","16.1","","100.35","","","","-10","","Snow Showers"
"2001-02-27 11:00","2001","02","27","11:00","-2.4","","-9.3","","59","","35","","30","","19.3","","100.39","","","","-10","","Cloudy"
"2001-02-27 12:00","2001","02","27","12:00","-1.5","","-8.7","","58","","36","","15","","24.1","","100.35","","","","-6","","Mostly Cloudy"
"2001-02-27 13:00","2001","02","27","13:00","-2.1","","-8.5","","62","","1","","19","","24.1","","100.29","","","","-8","","Mostly Cloudy"
"2001-02-27 14:00","2001","02","27","14:00","-2.6","","-7.4","","70","","36","","22","","12.9","","100.22","","","","-9","","Snow Showers"
"2001-02-27 15:00","2001","02","27","15:00","-3.3","","-8.6","","67","","35","","19","","24.1","","100.19","","","","-9","","Mostly Cloudy"
"2001-02-27 16:00","2001","02","27","16:00","-4.0","","-8.8","","69","","36","","19","","4.8","","100.19","","","","-10","","Snow Showers"
"2001-02-27 17:00","2001","02","27","17:00","-4.5","","-9.9","","66","","36","","20","","19.3","","100.25","","","","-11","","Snow Showers"
"2001-02-27 18:00","2001","02","27","18:00","-5.0","","-9.2","","72","","36","","22","","19.3","","100.22","","","","-12","","Mostly Cloudy"
"2001-02-27 19:00","2001","02","27","19:00","-5.7","","-9.9","","72","","35","","15","","24.1","","100.22","","","","-11","","Snow Showers"
"2001-02-27 20:00","2001","02","27","20:00","-6.7","","-10.5","","74","","33","","13","","24.1","","100.25","","","","-12","","Mainly Clear"
"2001-02-27 21:00","2001","02","27","21:00","-7.0","","-11.0","","73","","31","","7","","24.1","","100.25","","","","-11","","Clear"
"2001-02-27 22:00","2001","02","27","22:00","-6.3","","-12.3","","62","","30","","13","","24.1","","100.22","","","","-12","","Mainly Clear"
"2001-02-27 23:00","2001","02","27","23:00","-6.9","","-12.2","","66","","28","","11","","24.1","","100.22","","","","-12","","Mainly Clear"
"2001-02-28 00:00","2001","02","28","00:00","-7.0","","-12.0","","67","","31","","13","","24.1","","100.19","","","","-13","","Mainly Clear"
"2001-02-28 01:00","2001","02","28","01:00","-7.1","","-12.0","","68","","30","","15","","24.1","","100.15","","","","-13","","Mainly Clear"
"2001-02-28 02:00","2001","02","28","02:00","-7.3","","-12.3","","67","","29","","17","","24.1","","100.12","","","","-14","","Mainly Clear"
"2001-02-28 03:00","2001","02","28","03:00","-7.7","","-13.0","","66","","32","","26","","24.1","","100.09","","","","-16","","Clear"
"2001-02-28 04:00","2001","02","28","04:00","-8.5","","-13.3","","68","","30","","19","","24.1","","100.09","","","","-16","","Mainly Clear"
"2001-02-28 05:00","2001","02","28","05:00","-8.5","","-14.1","","64","","28","","13","","24.1","","100.12","","","","-14","","Mainly Clear"
"2001-02-28 06:00","2001","02","28","06:00","-9.4","","-13.8","","70","","28","","13","","24.1","","100.12","","","","-15","","Mainly Clear"
"2001-02-28 07:00","2001","02","28","07:00","-9.3","","-13.6","","71","","28","","15","","24.1","","100.09","","","","-16","","Mostly Cloudy"
"2001-02-28 08:00","2001","02","28","08:00","-8.5","","-12.8","","71","","29","","20","","24.1","","100.09","","","","-16","","Mainly Clear"
"2001-02-28 09:00","2001","02","28","09:00","-7.2","","-13.0","","63","","29","","19","","24.1","","100.05","","","","-14","","Mainly Clear"
"2001-02-28 10:00","2001","02","28","10:00","-6.4","","-13.1","","59","","29","","26","","24.1","","100.05","","","","-14","","Mainly Clear"
"2001-02-28 11:00","2001","02","28","11:00","-6.1","","-14.2","","53","","29","","22","","24.1","","99.99","","","","-13","","Mostly Cloudy"
"2001-02-28 12:00","2001","02","28","12:00","-4.8","","-13.8","","49","","29","","28","","24.1","","99.92","","","","-12","","Mostly Cloudy"
"2001-02-28 13:00","2001","02","28","13:00","-4.3","","-14.2","","46","","29","","24","","24.1","","99.82","","","","-11","","Mostly Cloudy"
"2001-02-28 14:00","2001","02","28","14:00","-4.5","","-14.5","","46","","29","","30","","24.1","","99.75","","","","-12","","Mostly Cloudy"
"2001-02-28 15:00","2001","02","28","15:00","-4.7","","-14.0","","48","","27","","30","","24.1","","99.62","","","","-13","","Mostly Cloudy"
"2001-02-28 16:00","2001","02","28","16:00","-5.1","","-14.2","","49","","28","","30","","24.1","","99.55","","","","-13","","Mostly Cloudy"
"2001-02-28 17:00","2001","02","28","17:00","-5.3","","-14.1","","50","","27","","30","","24.1","","99.55","","","","-13","","Mostly Cloudy"
"2001-02-28 18:00","2001","02","28","18:00","-6.6","","-11.5","","68","","27","","28","","24.1","","99.52","","","","-15","","Mostly Cloudy"
"2001-02-28 19:00","2001","02","28","19:00","-7.0","","-11.9","","68","","27","","22","","24.1","","99.52","","","","-14","","Snow Showers"
"2001-02-28 20:00","2001","02","28","20:00","-6.9","","-13.1","","61","","28","","26","","24.1","","99.45","","","","-15","","Mostly Cloudy"
"2001-02-28 21:00","2001","02","28","21:00","-6.9","","-13.3","","60","","27","","19","","24.1","","99.39","","","","-14","","Cloudy"
"2001-02-28 22:00","2001","02","28","22:00","-6.9","","-13.2","","61","","26","","20","","24.1","","99.32","","","","-14","","Cloudy"
"2001-02-28 23:00","2001","02","28","23:00","-6.8","","-13.3","","60","","27","","9","","24.1","","99.26","","","","-11","","Cloudy"
