"Station Name","TORONTO LESTER B. PEARSON INT'L A"
"Province","ONTARIO"
"Latitude","43.68"
"Longitude","-79.63"
"Elevation","173.40"
"Climate Identifier","6158733"
"WMO Identifier","71624"
"TC Identifier","YYZ"
"All times are specified in Local Standard Time (LST). Add 1 hour to adjust for Daylight Saving Time where and when it is observed."

"Legend"
"E","Estimated"
"M","Missing"
"NA","Not Available"

"Date/Time","Year","Month","Day","Time","Temp (°C)","Temp Flag","Dew Point Temp (°C)","Dew Point Temp Flag","Rel Hum (%)","Rel Hum Flag","Wind Dir (10s deg)","Wind Dir Flag","Wind Spd (km/h)","Wind Spd Flag","Visibility (km)","Visibility Flag","Stn Press (kPa)","Stn Press Flag","Hmdx","Hmdx Flag","Wind Chill","Wind Chill Flag","Weather"
"1960-06-01 00:00","1960","06","01","00:00","13.9","","11.1","","85","","29","","11","","24.1","","98.99","","","","","","Mainly Clear"
"1960-06-01 01:00","1960","06","01","01:00","13.3","","10.0","","81","","29","","10","","24.1","","98.99","","","","","","Mainly Clear"
"1960-06-01 02:00","1960","06","01","02:00","12.8","","9.4","","79","","32","","8","","25.0","","98.98","","","","","","Clear"
"1960-06-01 03:00","1960","06","01","03:00","12.2","","8.9","","80","","32","","13","","25.0","","99.00","","","","","","Clear"
"1960-06-01 04:00","1960","06","01","04:00","10.0","","8.3","","88","","29","","8","","25.0","","99.00","","","","","","Mainly Clear"
"1960-06-01 05:00","1960","06","01","05:00","9.4","","7.8","","90","","27","","11","","25.0","","99.10","","","","","","Mainly Clear"
"1960-06-01 06:00","1960","06","01","06:00","11.7","","8.9","","82","","27","","8","","25.0","","99.12","","","","","","Mainly Clear"
"1960-06-01 07:00","1960","06","01","07:00","13.3","","9.4","","76","","27","","11","","25.0","","99.14","","","","","","Mainly Clear"
"1960-06-01 08:00","1960","06","01","08:00","16.7","","10.0","","64","","29","","14","","25.0","","99.18","","","","","","Mainly Clear"
"1960-06-01 09:00","1960","06","01","09:00","18.9","","11.1","","60","","32","","16","","25.0","","99.17","","","","","","Mainly Clear"
"1960-06-01 10:00","1960","06","01","10:00","20.0","","10.0","","53","","29","","11","","25.0","","99.16","","","","","","Mainly Clear"
"1960-06-01 11:00","1960","06","01","11:00","21.7","","8.9","","45","","32","","18","","25.0","","99.15","","","","","","Mainly Clear"
"1960-06-01 12:00","1960","06","01","12:00","22.2","","7.8","","40","","34","","16","","25.0","","99.11","","","","","","Mainly Clear"
"1960-06-01 13:00","1960","06","01","13:00","22.2","","7.2","","40","","36","","13","","25.0","","99.06","","","","","","Mainly Clear"
"1960-06-01 14:00","1960","06","01","14:00","22.8","","8.9","","41","","2","","8","","25.0","","99.02","","","","","","Mainly Clear"
"1960-06-01 15:00","1960","06","01","15:00","24.4","","10.0","","40","","36","","10","","25.0","","98.99","","26","","","","Mainly Clear"
"1960-06-01 16:00","1960","06","01","16:00","24.4","","7.2","","34","","29","","16","","25.0","","98.96","","","","","","Mainly Clear"
"1960-06-01 17:00","1960","06","01","17:00","25.0","","6.1","","30","","29","","14","","25.0","","98.92","","25","","","","Mainly Clear"
"1960-06-01 18:00","1960","06","01","18:00","25.0","","6.7","","31","","29","","13","","25.0","","98.88","","25","","","","Mainly Clear"
"1960-06-01 19:00","1960","06","01","19:00","22.8","","11.7","","49","","5","","6","","25.0","","98.86","","25","","","","Mainly Clear"
"1960-06-01 20:00","1960","06","01","20:00","20.6","","11.1","","54","","","","0","","25.0","","98.88","","","","","","Mainly Clear"
"1960-06-01 21:00","1960","06","01","21:00","19.4","","10.6","","56","","","","0","","25.0","","98.92","","","","","","Mainly Clear"
"1960-06-01 22:00","1960","06","01","22:00","17.8","","11.7","","66","","36","","3","","25.0","","98.92","","","","","","Mainly Clear"
"1960-06-01 23:00","1960","06","01","23:00","16.1","","11.1","","73","","36","","6","","25.0","","98.90","","","","","","Mainly Clear"
"1960-06-02 00:00","1960","06","02","00:00","14.4","","10.6","","78","","23","","6","","25.0","","98.89","","","","","","Clear"
"1960-06-02 01:00","1960","06","02","01:00","14.4","","10.0","","75","","","","0","","25.0","","98.85","","","","","","Clear"
"1960-06-02 02:00","1960","06","02","02:00","12.8","","10.6","","81","","","","0","","25.0","","98.78","","","","","","Clear"
"1960-06-02 03:00","1960","06","02","03:00","13.3","","10.6","","83","","","","0","","25.0","","98.79","","","","","","Mostly Cloudy"
"1960-06-02 04:00","1960","06","02","04:00","14.4","","10.6","","77","","","","0","","25.0","","98.78","","","","","","Mostly Cloudy"
"1960-06-02 05:00","1960","06","02","05:00","14.4","","10.6","","77","","14","","8","","25.0","","98.75","","","","","","Mostly Cloudy"
"1960-06-02 06:00","1960","06","02","06:00","14.4","","11.1","","81","","18","","10","","4.8","","98.75","","","","","","Haze"
"1960-06-02 07:00","1960","06","02","07:00","14.4","","10.6","","77","","14","","11","","4.8","","98.75","","","","","","Haze"
"1960-06-02 08:00","1960","06","02","08:00","17.8","","11.7","","66","","14","","14","","9.7","","98.71","","","","","","Haze"
"1960-06-02 09:00","1960","06","02","09:00","18.9","","11.1","","60","","14","","13","","9.7","","98.68","","","","","","Haze"
"1960-06-02 10:00","1960","06","02","10:00","20.6","","12.2","","59","","16","","18","","9.7","","98.63","","","","","","Haze"
"1960-06-02 11:00","1960","06","02","11:00","22.2","","14.4","","60","","16","","24","","8.0","","98.54","","26","","","","Haze"
"1960-06-02 12:00","1960","06","02","12:00","24.4","","15.0","","55","","16","","27","","8.0","","98.51","","28","","","","Haze"
"1960-06-02 13:00","1960","06","02","13:00","23.9","","15.6","","60","","18","","27","","12.9","","98.45","","28","","","","Mostly Cloudy"
"1960-06-02 14:00","1960","06","02","14:00","23.3","","13.3","","54","","36","","29","","16.1","","98.60","","26","","","","Cloudy"
"1960-06-02 15:00","1960","06","02","15:00","16.7","","11.1","","69","","29","","21","","8.0","","98.77","","","","","","Thunderstorms,Moderate Rain Showers"
"1960-06-02 16:00","1960","06","02","16:00","16.7","","13.9","","83","","32","","19","","12.9","","98.61","","","","","","Rain Showers"
"1960-06-02 17:00","1960","06","02","17:00","17.8","","13.3","","76","","25","","35","","24.1","","98.55","","","","","","Mostly Cloudy"
"1960-06-02 18:00","1960","06","02","18:00","18.9","","15.0","","78","","23","","13","","24.1","","98.57","","","","","","Mostly Cloudy"
"1960-06-02 19:00","1960","06","02","19:00","19.4","","15.0","","75","","23","","11","","24.1","","98.56","","","","","","Mostly Cloudy"
"1960-06-02 20:00","1960","06","02","20:00","17.8","","15.0","","84","","18","","5","","16.1","","98.61","","","","","","Mostly Cloudy"
"1960-06-02 21:00","1960","06","02","21:00","15.0","","12.8","","85","","14","","10","","11.3","","98.62","","","","","","Mainly Clear"
"1960-06-02 22:00","1960","06","02","22:00","13.9","","12.2","","90","","","","0","","11.3","","98.62","","","","","","Mainly Clear"
"1960-06-02 23:00","1960","06","02","23:00","13.3","","12.2","","93","","","","0","","8.0","","98.63","","","","","","Fog"
"1960-06-03 00:00","1960","06","03","00:00","13.9","","12.2","","91","","23","","5","","4.8","","98.62","","","","","","Fog"
"1960-06-03 01:00","1960","06","03","01:00","12.8","","11.7","","95","","","","0","","4.8","","98.55","","","","","","Fog,Smoke"
"1960-06-03 02:00","1960","06","03","02:00","14.4","","14.4","","98","","23","","6","","3.2","","98.55","","","","","","Fog,Smoke"
"1960-06-03 03:00","1960","06","03","03:00","14.4","","14.4","","98","","25","","10","","2.0","","98.55","","","","","","Fog"
"1960-06-03 04:00","1960","06","03","04:00","14.4","","14.4","","98","","20","","16","","1.2","","98.52","","","","","","Fog"
"1960-06-03 05:00","1960","06","03","05:00","14.4","","13.9","","95","","23","","16","","2.4","","98.55","","","","","","Fog"
"1960-06-03 06:00","1960","06","03","06:00","15.0","","14.4","","95","","23","","23","","4.0","","98.52","","","","","","Fog"
"1960-06-03 07:00","1960","06","03","07:00","16.1","","15.0","","93","","23","","19","","2.4","","98.50","","","","","","Fog"
"1960-06-03 08:00","1960","06","03","08:00","17.8","","15.0","","84","","23","","19","","9.7","","98.48","","","","","","Haze"
"1960-06-03 09:00","1960","06","03","09:00","20.6","","14.4","","67","","23","","27","","19.3","","98.47","","","","","","Mainly Clear"
"1960-06-03 10:00","1960","06","03","10:00","21.7","","12.8","","57","","20","","32","","24.1","","98.42","","","","","","Mainly Clear"
"1960-06-03 11:00","1960","06","03","11:00","23.9","","11.1","","45","","23","","35","","24.1","","98.40","","26","","","","Mainly Clear"
"1960-06-03 12:00","1960","06","03","12:00","23.9","","11.7","","46","","25","","37","","24.1","","98.43","","26","","","","Mainly Clear"
"1960-06-03 13:00","1960","06","03","13:00","24.4","","12.8","","48","","27","","32","","24.1","","98.46","","27","","","","Mostly Cloudy"
"1960-06-03 14:00","1960","06","03","14:00","23.9","","8.3","","37","","27","","32","","24.1","","98.54","","","","","","Mostly Cloudy"
"1960-06-03 15:00","1960","06","03","15:00","23.9","","6.7","","33","","27","","32","","24.1","","98.57","","","","","","Mostly Cloudy"
"1960-06-03 16:00","1960","06","03","16:00","23.3","","6.7","","35","","27","","27","","25.0","","98.62","","","","","","Mostly Cloudy"
"1960-06-03 17:00","1960","06","03","17:00","23.3","","7.8","","37","","27","","24","","25.0","","98.71","","","","","","Mostly Cloudy"
"1960-06-03 18:00","1960","06","03","18:00","22.2","","6.7","","37","","27","","23","","25.0","","98.75","","","","","","Mostly Cloudy"
"1960-06-03 19:00","1960","06","03","19:00","21.1","","6.7","","39","","27","","11","","25.0","","98.78","","","","","","Mainly Clear"
"1960-06-03 20:00","1960","06","03","20:00","18.3","","7.2","","48","","25","","5","","25.0","","98.81","","","","","","Mainly Clear"
"1960-06-03 21:00","1960","06","03","21:00","18.9","","5.0","","41","","34","","6","","25.0","","98.83","","","","","","Mainly Clear"
"1960-06-03 22:00","1960","06","03","22:00","16.1","","6.7","","54","","","","0","","25.0","","98.87","","","","","","Mainly Clear"
"1960-06-03 23:00","1960","06","03","23:00","13.9","","7.2","","65","","18","","13","","25.0","","98.92","","","","","","Mainly Clear"
"1960-06-04 00:00","1960","06","04","00:00","14.4","","7.8","","64","","27","","3","","25.0","","98.93","","","","","","Clear"
"1960-06-04 01:00","1960","06","04","01:00","13.3","","8.3","","73","","25","","5","","25.0","","98.95","","","","","","Mainly Clear"
"1960-06-04 02:00","1960","06","04","02:00","12.2","","8.3","","78","","27","","2","","25.0","","98.94","","","","","","Mostly Cloudy"
"1960-06-04 03:00","1960","06","04","03:00","12.8","","8.3","","74","","27","","3","","25.0","","98.93","","","","","","Mostly Cloudy"
"1960-06-04 04:00","1960","06","04","04:00","12.2","","9.4","","84","","","","0","","25.0","","98.94","","","","","","Mostly Cloudy"
"1960-06-04 05:00","1960","06","04","05:00","12.8","","9.4","","81","","27","","3","","25.0","","98.93","","","","","","Mostly Cloudy"
"1960-06-04 06:00","1960","06","04","06:00","13.3","","10.6","","83","","27","","5","","24.1","","98.93","","","","","","Mainly Clear"
"1960-06-04 07:00","1960","06","04","07:00","16.1","","9.4","","65","","14","","6","","16.1","","98.94","","","","","","Mainly Clear"
"1960-06-04 08:00","1960","06","04","08:00","18.3","","11.1","","63","","18","","3","","16.1","","98.93","","","","","","Mainly Clear"
"1960-06-04 09:00","1960","06","04","09:00","19.4","","10.6","","56","","23","","10","","16.1","","98.96","","","","","","Mostly Cloudy"
"1960-06-04 10:00","1960","06","04","10:00","22.8","","15.0","","61","","14","","6","","16.1","","98.92","","27","","","","Mainly Clear"
"1960-06-04 11:00","1960","06","04","11:00","24.4","","14.4","","54","","14","","18","","12.9","","98.85","","28","","","","Mainly Clear"
"1960-06-04 12:00","1960","06","04","12:00","25.6","","14.4","","49","","11","","23","","11.3","","98.76","","29","","","","Mainly Clear"
"1960-06-04 13:00","1960","06","04","13:00","26.1","","15.6","","53","","16","","27","","9.7","","98.67","","30","","","","Haze"
"1960-06-04 14:00","1960","06","04","14:00","22.8","","14.4","","59","","14","","24","","9.7","","98.61","","26","","","","Haze"
"1960-06-04 15:00","1960","06","04","15:00","23.9","","15.0","","57","","16","","16","","8.0","","98.59","","28","","","","Haze"
"1960-06-04 16:00","1960","06","04","16:00","25.0","","16.1","","57","","16","","6","","8.0","","98.56","","30","","","","Haze"
"1960-06-04 17:00","1960","06","04","17:00","25.6","","17.2","","60","","18","","5","","11.3","","98.56","","31","","","","Mostly Cloudy"
"1960-06-04 18:00","1960","06","04","18:00","26.7","","16.7","","54","","27","","24","","19.3","","98.59","","32","","","","Mostly Cloudy"
"1960-06-04 19:00","1960","06","04","19:00","26.1","","13.9","","47","","27","","16","","24.1","","98.64","","29","","","","Mostly Cloudy"
"1960-06-04 20:00","1960","06","04","20:00","23.3","","15.0","","60","","23","","8","","24.1","","98.71","","27","","","","Mainly Clear"
"1960-06-04 21:00","1960","06","04","21:00","23.3","","15.6","","61","","25","","11","","25.0","","98.77","","28","","","","Mostly Cloudy"
"1960-06-04 22:00","1960","06","04","22:00","21.7","","16.1","","70","","27","","10","","25.0","","98.75","","26","","","","Mainly Clear"
"1960-06-04 23:00","1960","06","04","23:00","20.6","","15.0","","71","","27","","13","","25.0","","98.76","","25","","","","Mainly Clear"
"1960-06-05 00:00","1960","06","05","00:00","20.0","","13.9","","68","","27","","13","","25.0","","98.80","","","","","","Mostly Cloudy"
"1960-06-05 01:00","1960","06","05","01:00","20.0","","12.2","","62","","27","","13","","24.1","","98.80","","","","","","Mainly Clear"
"1960-06-05 02:00","1960","06","05","02:00","18.9","","14.4","","75","","27","","8","","24.1","","98.80","","","","","","Rain Showers"
"1960-06-05 03:00","1960","06","05","03:00","18.3","","15.0","","82","","23","","5","","24.1","","98.80","","","","","","Rain Showers"
"1960-06-05 04:00","1960","06","05","04:00","17.2","","14.4","","83","","18","","6","","24.1","","98.81","","","","","","Mostly Cloudy"
"1960-06-05 05:00","1960","06","05","05:00","17.2","","15.0","","85","","18","","10","","25.0","","98.84","","","","","","Mostly Cloudy"
"1960-06-05 06:00","1960","06","05","06:00","17.8","","15.6","","86","","","","0","","25.0","","98.87","","","","","","Mostly Cloudy"
"1960-06-05 07:00","1960","06","05","07:00","18.9","","15.0","","78","","32","","10","","25.0","","98.91","","","","","","Mostly Cloudy"
"1960-06-05 08:00","1960","06","05","08:00","20.6","","13.9","","65","","29","","19","","25.0","","98.90","","","","","","Mostly Cloudy"
"1960-06-05 09:00","1960","06","05","09:00","21.1","","14.4","","66","","25","","10","","25.0","","98.93","","25","","","","Mostly Cloudy"
"1960-06-05 10:00","1960","06","05","10:00","22.2","","15.6","","65","","25","","14","","25.0","","98.91","","27","","","","Mostly Cloudy"
"1960-06-05 11:00","1960","06","05","11:00","22.8","","15.0","","62","","23","","11","","25.0","","98.87","","27","","","","Mostly Cloudy"
"1960-06-05 12:00","1960","06","05","12:00","22.8","","15.6","","64","","20","","10","","25.0","","98.82","","27","","","","Mostly Cloudy"
"1960-06-05 13:00","1960","06","05","13:00","22.2","","16.1","","68","","20","","14","","25.0","","98.82","","27","","","","Mostly Cloudy"
"1960-06-05 14:00","1960","06","05","14:00","22.8","","16.7","","69","","25","","16","","25.0","","98.78","","28","","","","Cloudy"
"1960-06-05 15:00","1960","06","05","15:00","22.8","","16.1","","67","","27","","18","","25.0","","98.77","","27","","","","Cloudy"
"1960-06-05 16:00","1960","06","05","16:00","22.2","","14.4","","62","","27","","27","","25.0","","98.78","","26","","","","Cloudy"
"1960-06-05 17:00","1960","06","05","17:00","21.1","","13.3","","61","","29","","24","","25.0","","98.81","","","","","","Mostly Cloudy"
"1960-06-05 18:00","1960","06","05","18:00","21.7","","13.3","","60","","29","","24","","25.0","","98.83","","25","","","","Mostly Cloudy"
"1960-06-05 19:00","1960","06","05","19:00","20.6","","10.0","","51","","29","","23","","25.0","","98.86","","","","","","Mainly Clear"
"1960-06-05 20:00","1960","06","05","20:00","17.2","","7.8","","53","","32","","24","","25.0","","98.98","","","","","","Mainly Clear"
"1960-06-05 21:00","1960","06","05","21:00","15.0","","6.1","","54","","34","","11","","25.0","","99.01","","","","","","Mainly Clear"
"1960-06-05 22:00","1960","06","05","22:00","13.3","","5.0","","57","","34","","16","","25.0","","99.14","","","","","","Mainly Clear"
"1960-06-05 23:00","1960","06","05","23:00","12.8","","4.4","","57","","34","","16","","25.0","","99.19","","","","","","Clear"
"1960-06-06 00:00","1960","06","06","00:00","11.7","","3.3","","57","","32","","24","","25.0","","99.19","","","","","","Clear"
"1960-06-06 01:00","1960","06","06","01:00","11.1","","3.3","","58","","32","","21","","25.0","","99.20","","","","","","Clear"
"1960-06-06 02:00","1960","06","06","02:00","10.0","","4.4","","68","","29","","13","","25.0","","99.22","","","","","","Clear"
"1960-06-06 03:00","1960","06","06","03:00","8.9","","5.0","","76","","25","","11","","25.0","","99.24","","","","","","Clear"
"1960-06-06 04:00","1960","06","06","04:00","8.3","","5.0","","79","","29","","13","","25.0","","99.30","","","","","","Clear"
"1960-06-06 05:00","1960","06","06","05:00","8.3","","5.6","","81","","29","","10","","25.0","","99.36","","","","","","Mainly Clear"
"1960-06-06 06:00","1960","06","06","06:00","9.4","","6.1","","80","","32","","14","","25.0","","99.38","","","","","","Mainly Clear"
"1960-06-06 07:00","1960","06","06","07:00","11.1","","7.2","","76","","29","","18","","25.0","","99.42","","","","","","Mainly Clear"
"1960-06-06 08:00","1960","06","06","08:00","13.3","","7.2","","66","","32","","14","","25.0","","99.46","","","","","","Mainly Clear"
"1960-06-06 09:00","1960","06","06","09:00","15.0","","7.2","","63","","29","","16","","25.0","","99.48","","","","","","Mainly Clear"
"1960-06-06 10:00","1960","06","06","10:00","15.6","","7.8","","61","","29","","18","","25.0","","99.50","","","","","","Mostly Cloudy"
"1960-06-06 11:00","1960","06","06","11:00","16.7","","7.2","","54","","29","","16","","25.0","","99.49","","","","","","Mostly Cloudy"
"1960-06-06 12:00","1960","06","06","12:00","17.8","","7.2","","50","","32","","13","","25.0","","99.49","","","","","","Mostly Cloudy"
"1960-06-06 13:00","1960","06","06","13:00","18.3","","8.3","","51","","36","","18","","25.0","","99.47","","","","","","Mostly Cloudy"
"1960-06-06 14:00","1960","06","06","14:00","17.2","","8.9","","59","","36","","21","","25.0","","99.49","","","","","","Mostly Cloudy"
"1960-06-06 15:00","1960","06","06","15:00","17.2","","8.9","","59","","34","","18","","25.0","","99.48","","","","","","Mostly Cloudy"
"1960-06-06 16:00","1960","06","06","16:00","17.8","","8.9","","56","","34","","11","","25.0","","99.49","","","","","","Mostly Cloudy"
"1960-06-06 17:00","1960","06","06","17:00","18.3","","8.3","","53","","32","","16","","25.0","","99.49","","","","","","Mostly Cloudy"
"1960-06-06 18:00","1960","06","06","18:00","17.8","","10.0","","61","","36","","16","","25.0","","99.49","","","","","","Mainly Clear"
"1960-06-06 19:00","1960","06","06","19:00","16.1","","8.3","","59","","36","","16","","25.0","","99.50","","","","","","Mainly Clear"
"1960-06-06 20:00","1960","06","06","20:00","13.9","","5.0","","56","","36","","13","","25.0","","99.53","","","","","","Mainly Clear"
"1960-06-06 21:00","1960","06","06","21:00","12.2","","2.8","","53","","36","","21","","25.0","","99.58","","","","","","Mainly Clear"
"1960-06-06 22:00","1960","06","06","22:00","10.0","","5.0","","68","","34","","10","","25.0","","99.61","","","","","","Clear"
"1960-06-06 23:00","1960","06","06","23:00","9.4","","5.0","","74","","32","","10","","25.0","","99.62","","","","","","Clear"
"1960-06-07 00:00","1960","06","07","00:00","8.9","","4.4","","74","","36","","10","","25.0","","99.63","","","","","","Mainly Clear"
"1960-06-07 01:00","1960","06","07","01:00","8.3","","5.0","","79","","34","","10","","25.0","","99.65","","","","","","Mainly Clear"
"1960-06-07 02:00","1960","06","07","02:00","7.8","","4.4","","79","","34","","10","","25.0","","99.66","","","","","","Mainly Clear"
"1960-06-07 03:00","1960","06","07","03:00","7.2","","3.9","","78","","36","","11","","25.0","","99.66","","","","","","Clear"
"1960-06-07 04:00","1960","06","07","04:00","6.7","","4.4","","85","","2","","10","","25.0","","99.70","","","","","","Clear"
"1960-06-07 05:00","1960","06","07","05:00","7.2","","5.0","","85","","36","","11","","25.0","","99.73","","","","","","Clear"
"1960-06-07 06:00","1960","06","07","06:00","8.3","","5.6","","83","","36","","8","","25.0","","99.78","","","","","","Clear"
"1960-06-07 07:00","1960","06","07","07:00","10.6","","6.7","","77","","36","","11","","25.0","","99.83","","","","","","Clear"
"1960-06-07 08:00","1960","06","07","08:00","13.9","","7.8","","67","","36","","11","","25.0","","99.89","","","","","","Clear"
"1960-06-07 09:00","1960","06","07","09:00","15.6","","8.3","","62","","2","","10","","25.0","","99.92","","","","","","Mainly Clear"
"1960-06-07 10:00","1960","06","07","10:00","17.2","","7.2","","51","","7","","11","","25.0","","99.92","","","","","","Mainly Clear"
"1960-06-07 11:00","1960","06","07","11:00","17.8","","4.4","","42","","14","","16","","25.0","","99.93","","","","","","Mainly Clear"
"1960-06-07 12:00","1960","06","07","12:00","18.3","","4.4","","40","","16","","16","","25.0","","99.90","","","","","","Mainly Clear"
"1960-06-07 13:00","1960","06","07","13:00","18.9","","5.6","","42","","16","","13","","25.0","","99.84","","","","","","Mainly Clear"
"1960-06-07 14:00","1960","06","07","14:00","20.0","","6.1","","41","","16","","13","","25.0","","99.83","","","","","","Mainly Clear"
"1960-06-07 15:00","1960","06","07","15:00","20.0","","6.1","","41","","16","","10","","25.0","","99.81","","","","","","Mainly Clear"
"1960-06-07 16:00","1960","06","07","16:00","20.0","","2.8","","32","","36","","19","","25.0","","99.81","","","","","","Mainly Clear"
"1960-06-07 17:00","1960","06","07","17:00","19.4","","0.6","","28","","36","","19","","25.0","","99.82","","","","","","Mainly Clear"
"1960-06-07 18:00","1960","06","07","18:00","19.4","","0.6","","28","","2","","16","","25.0","","99.81","","","","","","Mainly Clear"
"1960-06-07 19:00","1960","06","07","19:00","18.3","","3.9","","38","","36","","23","","25.0","","99.82","","","","","","Clear"
"1960-06-07 20:00","1960","06","07","20:00","15.6","","5.0","","50","","36","","13","","25.0","","99.84","","","","","","Clear"
"1960-06-07 21:00","1960","06","07","21:00","13.9","","5.0","","56","","36","","8","","25.0","","99.90","","","","","","Clear"
"1960-06-07 22:00","1960","06","07","22:00","13.3","","3.9","","52","","34","","8","","25.0","","99.94","","","","","","Clear"
"1960-06-07 23:00","1960","06","07","23:00","11.1","","3.3","","58","","36","","11","","25.0","","99.98","","","","","","Clear"
"1960-06-08 00:00","1960","06","08","00:00","10.6","","3.9","","63","","36","","10","","25.0","","100.00","","","","","","Clear"
"1960-06-08 01:00","1960","06","08","01:00","10.0","","3.3","","64","","36","","11","","25.0","","100.03","","","","","","Clear"
"1960-06-08 02:00","1960","06","08","02:00","8.9","","2.8","","66","","36","","10","","25.0","","100.03","","","","","","Clear"
"1960-06-08 03:00","1960","06","08","03:00","8.3","","3.3","","69","","36","","6","","25.0","","100.03","","","","","","Clear"
"1960-06-08 04:00","1960","06","08","04:00","8.3","","3.3","","69","","36","","6","","25.0","","100.08","","","","","","Clear"
"1960-06-08 05:00","1960","06","08","05:00","7.8","","3.3","","73","","36","","8","","25.0","","100.14","","","","","","Mainly Clear"
"1960-06-08 06:00","1960","06","08","06:00","9.4","","4.4","","71","","36","","13","","25.0","","100.18","","","","","","Clear"
"1960-06-08 07:00","1960","06","08","07:00","11.1","","5.0","","65","","","","0","","25.0","","100.22","","","","","","Clear"
"1960-06-08 08:00","1960","06","08","08:00","13.9","","5.0","","56","","2","","5","","25.0","","100.23","","","","","","Clear"
"1960-06-08 09:00","1960","06","08","09:00","16.1","","4.4","","46","","2","","5","","25.0","","100.20","","","","","","Clear"
"1960-06-08 10:00","1960","06","08","10:00","16.7","","1.7","","37","","36","","3","","25.0","","100.17","","","","","","Clear"
"1960-06-08 11:00","1960","06","08","11:00","18.3","","3.3","","36","","27","","6","","25.0","","100.17","","","","","","Mainly Clear"
"1960-06-08 12:00","1960","06","08","12:00","18.9","","3.9","","37","","2","","10","","25.0","","100.16","","","","","","Mainly Clear"
"1960-06-08 13:00","1960","06","08","13:00","18.9","","3.9","","37","","36","","19","","25.0","","100.11","","","","","","Mainly Clear"
"1960-06-08 14:00","1960","06","08","14:00","19.4","","5.0","","38","","36","","23","","25.0","","100.07","","","","","","Mainly Clear"
"1960-06-08 15:00","1960","06","08","15:00","20.0","","3.9","","35","","2","","23","","25.0","","100.03","","","","","","Mainly Clear"
"1960-06-08 16:00","1960","06","08","16:00","19.4","","0.6","","28","","2","","27","","25.0","","100.02","","","","","","Mainly Clear"
"1960-06-08 17:00","1960","06","08","17:00","19.4","","0.6","","28","","36","","19","","25.0","","100.03","","","","","","Clear"
"1960-06-08 18:00","1960","06","08","18:00","18.3","","0.0","","29","","36","","16","","25.0","","100.03","","","","","","Clear"
"1960-06-08 19:00","1960","06","08","19:00","18.3","","2.8","","35","","36","","13","","25.0","","100.06","","","","","","Clear"
"1960-06-08 20:00","1960","06","08","20:00","15.6","","5.0","","50","","36","","13","","25.0","","100.10","","","","","","Clear"
"1960-06-08 21:00","1960","06","08","21:00","13.3","","4.4","","55","","36","","16","","25.0","","100.16","","","","","","Clear"
"1960-06-08 22:00","1960","06","08","22:00","11.7","","3.3","","57","","34","","13","","25.0","","100.21","","","","","","Clear"
"1960-06-08 23:00","1960","06","08","23:00","10.6","","3.3","","61","","36","","11","","25.0","","100.20","","","","","","Clear"
"1960-06-09 00:00","1960","06","09","00:00","9.4","","3.3","","67","","34","","14","","25.0","","100.20","","","","","","Clear"
"1960-06-09 01:00","1960","06","09","01:00","8.9","","2.2","","62","","34","","18","","25.0","","100.20","","","","","","Clear"
"1960-06-09 02:00","1960","06","09","02:00","8.3","","3.3","","69","","34","","16","","25.0","","100.22","","","","","","Clear"
"1960-06-09 03:00","1960","06","09","03:00","8.3","","3.3","","69","","34","","13","","25.0","","100.22","","","","","","Clear"
"1960-06-09 04:00","1960","06","09","04:00","7.8","","2.2","","69","","34","","13","","25.0","","100.27","","","","","","Clear"
"1960-06-09 05:00","1960","06","09","05:00","7.2","","2.8","","72","","36","","18","","25.0","","100.34","","","","","","Mainly Clear"
"1960-06-09 06:00","1960","06","09","06:00","8.3","","3.9","","73","","36","","16","","24.1","","100.38","","","","","","Mainly Clear"
"1960-06-09 07:00","1960","06","09","07:00","11.1","","5.0","","65","","36","","13","","24.1","","100.43","","","","","","Mainly Clear"
"1960-06-09 08:00","1960","06","09","08:00","15.0","","5.6","","53","","7","","13","","24.1","","100.50","","","","","","Mainly Clear"
"1960-06-09 09:00","1960","06","09","09:00","17.2","","5.0","","44","","7","","14","","24.1","","100.52","","","","","","Mainly Clear"
"1960-06-09 10:00","1960","06","09","10:00","17.2","","3.3","","39","","7","","13","","24.1","","100.49","","","","","","Mainly Clear"
"1960-06-09 11:00","1960","06","09","11:00","17.8","","3.9","","40","","11","","13","","24.1","","100.49","","","","","","Mainly Clear"
"1960-06-09 12:00","1960","06","09","12:00","18.3","","3.3","","36","","11","","11","","24.1","","100.47","","","","","","Mainly Clear"
"1960-06-09 13:00","1960","06","09","13:00","19.4","","4.4","","37","","16","","21","","25.0","","100.46","","","","","","Mainly Clear"
"1960-06-09 14:00","1960","06","09","14:00","18.9","","3.9","","37","","16","","21","","25.0","","100.45","","","","","","Mainly Clear"
"1960-06-09 15:00","1960","06","09","15:00","18.9","","3.9","","37","","16","","23","","25.0","","100.43","","","","","","Mainly Clear"
"1960-06-09 16:00","1960","06","09","16:00","18.9","","2.2","","33","","18","","16","","25.0","","100.38","","","","","","Mainly Clear"
"1960-06-09 17:00","1960","06","09","17:00","18.9","","2.8","","34","","16","","16","","25.0","","100.38","","","","","","Mainly Clear"
"1960-06-09 18:00","1960","06","09","18:00","18.3","","1.7","","33","","14","","10","","25.0","","100.34","","","","","","Mainly Clear"
"1960-06-09 19:00","1960","06","09","19:00","17.8","","3.3","","39","","18","","11","","25.0","","100.37","","","","","","Mainly Clear"
"1960-06-09 20:00","1960","06","09","20:00","16.1","","3.9","","44","","18","","10","","25.0","","100.33","","","","","","Mainly Clear"
"1960-06-09 21:00","1960","06","09","21:00","15.0","","4.4","","50","","","","0","","25.0","","100.38","","","","","","Mainly Clear"
"1960-06-09 22:00","1960","06","09","22:00","12.8","","4.4","","56","","","","0","","25.0","","100.39","","","","","","Clear"
"1960-06-09 23:00","1960","06","09","23:00","11.7","","6.1","","69","","36","","6","","25.0","","100.38","","","","","","Clear"
"1960-06-10 00:00","1960","06","10","00:00","10.0","","5.0","","71","","2","","5","","25.0","","100.36","","","","","","Clear"
"1960-06-10 01:00","1960","06","10","01:00","9.4","","5.6","","76","","36","","6","","25.0","","100.35","","","","","","Clear"
"1960-06-10 02:00","1960","06","10","02:00","8.3","","4.4","","77","","36","","5","","25.0","","100.32","","","","","","Clear"
"1960-06-10 03:00","1960","06","10","03:00","8.3","","4.4","","77","","36","","5","","25.0","","100.30","","","","","","Clear"
"1960-06-10 04:00","1960","06","10","04:00","7.2","","3.9","","81","","36","","6","","25.0","","100.30","","","","","","Mainly Clear"
"1960-06-10 05:00","1960","06","10","05:00","6.7","","3.3","","80","","36","","6","","25.0","","100.33","","","","","","Mainly Clear"
"1960-06-10 06:00","1960","06","10","06:00","8.3","","4.4","","75","","36","","6","","25.0","","100.38","","","","","","Mainly Clear"
"1960-06-10 07:00","1960","06","10","07:00","10.6","","5.6","","70","","5","","6","","25.0","","100.40","","","","","","Mainly Clear"
"1960-06-10 08:00","1960","06","10","08:00","15.6","","7.8","","61","","16","","6","","6.4","","100.38","","","","","","Haze"
"1960-06-10 09:00","1960","06","10","09:00","17.8","","7.2","","50","","14","","10","","12.9","","100.34","","","","","","Mainly Clear"
"1960-06-10 10:00","1960","06","10","10:00","19.4","","7.2","","45","","16","","10","","12.9","","100.31","","","","","","Mainly Clear"
"1960-06-10 11:00","1960","06","10","11:00","20.0","","7.8","","45","","16","","11","","16.1","","100.30","","","","","","Mainly Clear"
"1960-06-10 12:00","1960","06","10","12:00","20.6","","7.2","","42","","16","","18","","16.1","","100.25","","","","","","Mainly Clear"
"1960-06-10 13:00","1960","06","10","13:00","21.7","","7.2","","39","","16","","21","","16.1","","100.18","","","","","","Mainly Clear"
"1960-06-10 14:00","1960","06","10","14:00","22.2","","6.7","","37","","16","","23","","19.3","","100.10","","","","","","Mainly Clear"
"1960-06-10 15:00","1960","06","10","15:00","22.2","","7.8","","40","","16","","24","","19.3","","100.05","","","","","","Mainly Clear"
"1960-06-10 16:00","1960","06","10","16:00","22.2","","7.8","","40","","14","","19","","24.1","","99.98","","","","","","Mainly Clear"
"1960-06-10 17:00","1960","06","10","17:00","22.2","","7.8","","40","","16","","16","","24.1","","99.92","","","","","","Mainly Clear"
"1960-06-10 18:00","1960","06","10","18:00","21.1","","6.1","","38","","16","","19","","24.1","","99.85","","","","","","Mainly Clear"
"1960-06-10 19:00","1960","06","10","19:00","20.0","","6.7","","42","","16","","16","","19.3","","99.82","","","","","","Mainly Clear"
"1960-06-10 20:00","1960","06","10","20:00","15.6","","7.8","","61","","18","","8","","14.5","","99.82","","","","","","Mainly Clear"
"1960-06-10 21:00","1960","06","10","21:00","13.9","","7.2","","65","","23","","6","","16.1","","99.83","","","","","","Mainly Clear"
"1960-06-10 22:00","1960","06","10","22:00","13.9","","6.7","","62","","23","","3","","16.1","","99.83","","","","","","Mainly Clear"
"1960-06-10 23:00","1960","06","10","23:00","12.2","","7.2","","72","","","","0","","19.3","","99.82","","","","","","Mainly Clear"
"1960-06-11 00:00","1960","06","11","00:00","11.1","","7.2","","76","","36","","6","","19.3","","99.78","","","","","","Mainly Clear"
"1960-06-11 01:00","1960","06","11","01:00","11.1","","7.8","","79","","36","","6","","19.3","","99.74","","","","","","Mainly Clear"
"1960-06-11 02:00","1960","06","11","02:00","9.4","","6.7","","82","","36","","8","","19.3","","99.69","","","","","","Mainly Clear"
"1960-06-11 03:00","1960","06","11","03:00","9.4","","6.1","","80","","36","","6","","19.3","","99.58","","","","","","Mainly Clear"
"1960-06-11 04:00","1960","06","11","04:00","9.4","","6.7","","82","","34","","8","","19.3","","99.61","","","","","","Mostly Cloudy"
"1960-06-11 05:00","1960","06","11","05:00","9.4","","6.7","","82","","36","","5","","8.0","","99.60","","","","","","Haze"
"1960-06-11 06:00","1960","06","11","06:00","11.1","","7.8","","79","","36","","3","","8.0","","99.56","","","","","","Haze"
"1960-06-11 07:00","1960","06","11","07:00","12.2","","8.3","","77","","","","0","","6.4","","99.56","","","","","","Haze"
"1960-06-11 08:00","1960","06","11","08:00","15.6","","10.6","","73","","","","0","","8.0","","99.52","","","","","","Haze"
"1960-06-11 09:00","1960","06","11","09:00","17.8","","11.7","","68","","18","","3","","9.7","","99.48","","","","","","Haze"
"1960-06-11 10:00","1960","06","11","10:00","20.0","","11.7","","58","","18","","6","","8.0","","99.48","","","","","","Haze"
"1960-06-11 11:00","1960","06","11","11:00","22.8","","12.2","","52","","18","","8","","8.0","","99.43","","25","","","","Haze"
"1960-06-11 12:00","1960","06","11","12:00","22.2","","10.6","","48","","14","","11","","11.3","","99.38","","","","","","Mostly Cloudy"
"1960-06-11 13:00","1960","06","11","13:00","21.7","","11.7","","52","","16","","16","","12.9","","99.32","","","","","","Mostly Cloudy"
"1960-06-11 14:00","1960","06","11","14:00","21.7","","10.6","","49","","14","","13","","12.9","","99.28","","","","","","Mostly Cloudy"
"1960-06-11 15:00","1960","06","11","15:00","21.7","","8.9","","45","","14","","16","","12.9","","99.21","","","","","","Mostly Cloudy"
"1960-06-11 16:00","1960","06","11","16:00","22.2","","8.3","","41","","16","","10","","12.9","","99.14","","","","","","Mostly Cloudy"
"1960-06-11 17:00","1960","06","11","17:00","22.2","","10.6","","47","","14","","6","","12.9","","99.13","","","","","","Cloudy"
"1960-06-11 18:00","1960","06","11","18:00","21.1","","9.4","","47","","9","","6","","12.9","","99.09","","","","","","Mostly Cloudy"
"1960-06-11 19:00","1960","06","11","19:00","20.0","","8.9","","49","","9","","6","","12.9","","99.08","","","","","","Mostly Cloudy"
"1960-06-11 20:00","1960","06","11","20:00","18.3","","8.9","","55","","9","","5","","16.1","","99.08","","","","","","Mostly Cloudy"
"1960-06-11 21:00","1960","06","11","21:00","17.8","","8.9","","56","","5","","3","","16.1","","99.09","","","","","","Mostly Cloudy"
"1960-06-11 22:00","1960","06","11","22:00","16.7","","9.4","","62","","5","","5","","16.1","","99.13","","","","","","Cloudy"
"1960-06-11 23:00","1960","06","11","23:00","16.1","","10.0","","67","","7","","13","","16.1","","99.11","","","","","","Mostly Cloudy"
"1960-06-12 00:00","1960","06","12","00:00","15.6","","10.0","","68","","5","","13","","16.1","","99.06","","","","","","Mostly Cloudy"
"1960-06-12 01:00","1960","06","12","01:00","15.6","","10.0","","70","","36","","8","","16.1","","99.07","","","","","","Mostly Cloudy"
"1960-06-12 02:00","1960","06","12","02:00","15.6","","10.0","","70","","36","","16","","16.1","","99.08","","","","","","Cloudy"
"1960-06-12 03:00","1960","06","12","03:00","16.1","","11.1","","73","","36","","8","","16.1","","99.08","","","","","","Cloudy"
"1960-06-12 04:00","1960","06","12","04:00","15.6","","10.6","","73","","2","","10","","16.1","","99.03","","","","","","Mostly Cloudy"
"1960-06-12 05:00","1960","06","12","05:00","15.6","","11.7","","79","","36","","6","","16.1","","99.05","","","","","","Mostly Cloudy"
"1960-06-12 06:00","1960","06","12","06:00","15.6","","11.7","","79","","36","","5","","16.1","","99.03","","","","","","Cloudy"
"1960-06-12 07:00","1960","06","12","07:00","15.6","","12.8","","82","","36","","11","","16.1","","99.10","","","","","","Cloudy"
"1960-06-12 08:00","1960","06","12","08:00","15.6","","11.7","","77","","36","","11","","16.1","","99.15","","","","","","Cloudy"
"1960-06-12 09:00","1960","06","12","09:00","16.1","","12.2","","79","","36","","18","","12.9","","99.16","","","","","","Cloudy"
"1960-06-12 10:00","1960","06","12","10:00","17.2","","12.8","","75","","36","","13","","12.9","","99.16","","","","","","Cloudy"
"1960-06-12 11:00","1960","06","12","11:00","18.3","","12.8","","71","","2","","13","","12.9","","99.17","","","","","","Cloudy"
"1960-06-12 12:00","1960","06","12","12:00","20.6","","13.3","","64","","5","","10","","16.1","","99.17","","","","","","Mostly Cloudy"
"1960-06-12 13:00","1960","06","12","13:00","21.7","","11.7","","54","","5","","16","","19.3","","99.17","","","","","","Mostly Cloudy"
"1960-06-12 14:00","1960","06","12","14:00","23.3","","11.1","","47","","5","","6","","24.1","","99.17","","25","","","","Mostly Cloudy"
"1960-06-12 15:00","1960","06","12","15:00","22.8","","12.8","","53","","36","","13","","19.3","","99.17","","25","","","","Mostly Cloudy"
"1960-06-12 16:00","1960","06","12","16:00","22.8","","13.3","","55","","14","","13","","24.1","","99.17","","26","","","","Mostly Cloudy"
"1960-06-12 17:00","1960","06","12","17:00","22.2","","13.9","","59","","18","","13","","16.1","","99.16","","26","","","","Mainly Clear"
"1960-06-12 18:00","1960","06","12","18:00","22.2","","13.9","","59","","18","","13","","16.1","","99.16","","26","","","","Mostly Cloudy"
"1960-06-12 19:00","1960","06","12","19:00","21.7","","13.9","","61","","","","0","","24.1","","99.22","","25","","","","Mostly Cloudy"
"1960-06-12 20:00","1960","06","12","20:00","20.0","","10.0","","52","","34","","8","","24.1","","99.25","","","","","","Mostly Cloudy"
"1960-06-12 21:00","1960","06","12","21:00","18.3","","10.0","","58","","32","","8","","24.1","","99.31","","","","","","Mainly Clear"
"1960-06-12 22:00","1960","06","12","22:00","17.2","","10.0","","62","","32","","13","","24.1","","99.33","","","","","","Mainly Clear"
"1960-06-12 23:00","1960","06","12","23:00","15.0","","8.9","","66","","34","","11","","24.1","","99.32","","","","","","Clear"
"1960-06-13 00:00","1960","06","13","00:00","13.9","","8.3","","68","","32","","10","","25.0","","99.34","","","","","","Mainly Clear"
"1960-06-13 01:00","1960","06","13","01:00","13.3","","7.8","","69","","36","","6","","25.0","","99.34","","","","","","Mainly Clear"
"1960-06-13 02:00","1960","06","13","02:00","12.8","","7.2","","69","","36","","13","","25.0","","99.32","","","","","","Mainly Clear"
"1960-06-13 03:00","1960","06","13","03:00","12.2","","7.2","","72","","36","","10","","25.0","","99.30","","","","","","Mainly Clear"
"1960-06-13 04:00","1960","06","13","04:00","11.7","","7.8","","76","","34","","14","","25.0","","99.32","","","","","","Mostly Cloudy"
"1960-06-13 05:00","1960","06","13","05:00","11.7","","7.2","","73","","34","","16","","24.1","","99.35","","","","","","Cloudy"
"1960-06-13 06:00","1960","06","13","06:00","12.8","","7.8","","70","","34","","16","","19.3","","99.39","","","","","","Mostly Cloudy"
"1960-06-13 07:00","1960","06","13","07:00","13.9","","8.3","","70","","34","","13","","16.1","","99.40","","","","","","Mostly Cloudy"
"1960-06-13 08:00","1960","06","13","08:00","17.2","","10.6","","66","","","","0","","19.3","","99.42","","","","","","Mostly Cloudy"
"1960-06-13 09:00","1960","06","13","09:00","20.0","","10.0","","53","","36","","3","","19.3","","99.39","","","","","","Mostly Cloudy"
"1960-06-13 10:00","1960","06","13","10:00","21.1","","10.0","","50","","11","","5","","19.3","","99.36","","","","","","Mostly Cloudy"
"1960-06-13 11:00","1960","06","13","11:00","21.7","","9.4","","46","","36","","5","","19.3","","99.33","","","","","","Mostly Cloudy"
"1960-06-13 12:00","1960","06","13","12:00","22.2","","8.9","","43","","5","","5","","24.1","","99.31","","","","","","Mostly Cloudy"
"1960-06-13 13:00","1960","06","13","13:00","23.3","","7.8","","37","","18","","11","","24.1","","99.28","","","","","","Mostly Cloudy"
"1960-06-13 14:00","1960","06","13","14:00","23.3","","7.8","","37","","18","","8","","19.3","","99.25","","","","","","Mostly Cloudy"
"1960-06-13 15:00","1960","06","13","15:00","22.8","","7.8","","38","","18","","6","","19.3","","99.20","","","","","","Cloudy"
"1960-06-13 16:00","1960","06","13","16:00","22.2","","7.2","","38","","14","","6","","16.1","","99.15","","","","","","Cloudy"
"1960-06-13 17:00","1960","06","13","17:00","21.7","","7.2","","39","","18","","6","","16.1","","99.18","","","","","","Cloudy"
"1960-06-13 18:00","1960","06","13","18:00","21.1","","8.9","","45","","5","","3","","16.1","","99.14","","","","","","Cloudy"
"1960-06-13 19:00","1960","06","13","19:00","21.1","","11.7","","55","","36","","3","","11.3","","99.14","","","","","","Cloudy"
"1960-06-13 20:00","1960","06","13","20:00","20.0","","11.1","","57","","2","","8","","9.7","","99.13","","","","","","Haze"
"1960-06-13 21:00","1960","06","13","21:00","19.4","","11.1","","59","","5","","6","","9.7","","99.12","","","","","","Haze"
"1960-06-13 22:00","1960","06","13","22:00","18.3","","10.0","","58","","18","","6","","9.7","","99.15","","","","","","Haze"
"1960-06-13 23:00","1960","06","13","23:00","18.3","","10.0","","58","","","","0","","9.7","","99.10","","","","","","Haze"
"1960-06-14 00:00","1960","06","14","00:00","17.8","","8.9","","56","","","","0","","16.1","","99.05","","","","","","Cloudy"
"1960-06-14 01:00","1960","06","14","01:00","16.7","","8.3","","58","","","","0","","16.1","","98.99","","","","","","Cloudy"
"1960-06-14 02:00","1960","06","14","02:00","15.6","","10.6","","71","","36","","5","","16.1","","98.95","","","","","","Rain Showers"
"1960-06-14 03:00","1960","06","14","03:00","15.6","","12.8","","84","","2","","5","","12.9","","98.91","","","","","","Rain Showers"
"1960-06-14 04:00","1960","06","14","04:00","16.1","","11.7","","75","","5","","8","","12.9","","98.88","","","","","","Rain Showers"
"1960-06-14 05:00","1960","06","14","05:00","15.6","","10.6","","71","","5","","11","","16.1","","98.83","","","","","","Rain Showers"
"1960-06-14 06:00","1960","06","14","06:00","15.6","","10.6","","71","","5","","18","","19.3","","98.80","","","","","","Rain Showers"
"1960-06-14 07:00","1960","06","14","07:00","16.1","","9.4","","65","","5","","23","","19.3","","98.77","","","","","","Rain Showers"
"1960-06-14 08:00","1960","06","14","08:00","16.7","","12.8","","77","","9","","29","","12.9","","98.76","","","","","","Rain Showers"
"1960-06-14 09:00","1960","06","14","09:00","14.4","","13.3","","93","","9","","24","","4.8","","98.74","","","","","","Rain,Fog"
"1960-06-14 10:00","1960","06","14","10:00","14.4","","13.9","","95","","7","","24","","4.8","","98.64","","","","","","Rain,Fog"
"1960-06-14 11:00","1960","06","14","11:00","14.4","","13.9","","95","","7","","24","","6.4","","98.67","","","","","","Rain Showers,Fog"
"1960-06-14 12:00","1960","06","14","12:00","15.0","","14.4","","97","","9","","26","","4.8","","98.65","","","","","","Rain Showers,Fog"
"1960-06-14 13:00","1960","06","14","13:00","15.0","","15.0","","98","","9","","26","","1.6","","98.62","","","","","","Rain Showers,Fog"
"1960-06-14 14:00","1960","06","14","14:00","15.0","","15.0","","100","","7","","29","","2.4","","98.60","","","","","","Moderate Rain,Fog"
"1960-06-14 15:00","1960","06","14","15:00","15.0","","15.0","","100","","9","","24","","1.2","","98.48","","","","","","Fog"
"1960-06-14 16:00","1960","06","14","16:00","15.0","","15.0","","98","","9","","16","","0.4","","98.42","","","","","","Fog"
"1960-06-14 17:00","1960","06","14","17:00","15.0","","15.0","","100","","9","","19","","0.8","","98.38","","","","","","Fog"
"1960-06-14 18:00","1960","06","14","18:00","15.0","","15.0","","100","","9","","13","","0.8","","98.32","","","","","","Fog"
"1960-06-14 19:00","1960","06","14","19:00","15.0","","15.0","","100","","9","","19","","0.4","","98.32","","","","","","Rain,Fog"
"1960-06-14 20:00","1960","06","14","20:00","15.0","","15.0","","100","","9","","10","","1.2","","98.29","","","","","","Fog"
"1960-06-14 21:00","1960","06","14","21:00","15.0","","15.0","","98","","","","0","","1.2","","98.29","","","","","","Fog"
"1960-06-14 22:00","1960","06","14","22:00","15.0","","15.0","","98","","","","0","","1.6","","98.34","","","","","","Fog"
"1960-06-14 23:00","1960","06","14","23:00","14.4","","14.4","","100","","5","","3","","2.0","","98.27","","","","","","Fog"
"1960-06-15 00:00","1960","06","15","00:00","14.4","","14.4","","100","","","","0","","0.4","","98.29","","","","","","Fog"
"1960-06-15 01:00","1960","06","15","01:00","14.4","","14.4","","100","","","","0","","0.4","","98.25","","","","","","Drizzle,Fog"
"1960-06-15 02:00","1960","06","15","02:00","15.0","","15.0","","100","","14","","5","","0.2","","98.23","","","","","","Fog"
"1960-06-15 03:00","1960","06","15","03:00","13.9","","13.9","","100","","14","","8","","0.0","","98.20","","","","","","Fog"
"1960-06-15 04:00","1960","06","15","04:00","13.3","","13.3","","100","","18","","13","","0.4","","98.24","","","","","","Moderate Rain Showers,Fog"
"1960-06-15 05:00","1960","06","15","05:00","12.8","","12.8","","100","","14","","8","","0.6","","98.24","","","","","","Rain Showers,Fog"
"1960-06-15 06:00","1960","06","15","06:00","13.3","","13.3","","100","","18","","8","","0.8","","98.29","","","","","","Rain Showers,Fog"
"1960-06-15 07:00","1960","06","15","07:00","13.3","","13.3","","100","","16","","8","","0.8","","98.30","","","","","","Rain Showers,Fog"
"1960-06-15 08:00","1960","06","15","08:00","15.0","","15.0","","100","","18","","10","","0.4","","98.32","","","","","","Fog"
"1960-06-15 09:00","1960","06","15","09:00","16.7","","16.1","","98","","18","","11","","2.0","","98.33","","","","","","Fog"
"1960-06-15 10:00","1960","06","15","10:00","17.8","","17.2","","96","","16","","19","","6.4","","98.31","","","","","","Fog"
"1960-06-15 11:00","1960","06","15","11:00","17.2","","16.7","","96","","20","","18","","6.4","","98.32","","","","","","Rain Showers,Fog"
"1960-06-15 12:00","1960","06","15","12:00","17.8","","16.7","","94","","20","","16","","11.3","","98.31","","","","","","Mostly Cloudy"
"1960-06-15 13:00","1960","06","15","13:00","18.9","","15.6","","80","","23","","27","","19.3","","98.35","","","","","","Mostly Cloudy"
"1960-06-15 14:00","1960","06","15","14:00","17.8","","14.4","","80","","25","","27","","24.1","","98.38","","","","","","Cloudy"
"1960-06-15 15:00","1960","06","15","15:00","17.8","","14.4","","80","","25","","26","","19.3","","98.42","","","","","","Cloudy"
"1960-06-15 16:00","1960","06","15","16:00","17.8","","13.9","","78","","25","","21","","19.3","","98.48","","","","","","Cloudy"
"1960-06-15 17:00","1960","06","15","17:00","17.8","","13.3","","74","","25","","29","","19.3","","98.53","","","","","","Mostly Cloudy"
"1960-06-15 18:00","1960","06","15","18:00","19.4","","13.9","","70","","25","","23","","16.1","","98.55","","","","","","Mostly Cloudy"
"1960-06-15 19:00","1960","06","15","19:00","19.4","","13.9","","70","","23","","16","","16.1","","98.61","","","","","","Mostly Cloudy"
"1960-06-15 20:00","1960","06","15","20:00","17.8","","14.4","","80","","18","","11","","16.1","","98.66","","","","","","Mostly Cloudy"
"1960-06-15 21:00","1960","06","15","21:00","17.2","","14.4","","83","","18","","11","","19.3","","98.67","","","","","","Mostly Cloudy"
"1960-06-15 22:00","1960","06","15","22:00","17.2","","15.0","","87","","18","","10","","16.1","","98.68","","","","","","Mostly Cloudy"
"1960-06-15 23:00","1960","06","15","23:00","16.7","","15.0","","89","","18","","3","","11.3","","98.69","","","","","","Mostly Cloudy"
"1960-06-16 00:00","1960","06","16","00:00","16.7","","15.0","","89","","20","","6","","11.3","","98.70","","","","","","Mostly Cloudy"
"1960-06-16 01:00","1960","06","16","01:00","16.7","","15.0","","91","","18","","13","","11.3","","98.71","","","","","","Mainly Clear"
"1960-06-16 02:00","1960","06","16","02:00","16.1","","15.0","","93","","18","","10","","11.3","","98.72","","","","","","Mainly Clear"
"1960-06-16 03:00","1960","06","16","03:00","16.1","","15.0","","93","","20","","13","","11.3","","98.75","","","","","","Cloudy"
"1960-06-16 04:00","1960","06","16","04:00","17.2","","15.6","","90","","23","","16","","16.1","","98.75","","","","","","Mostly Cloudy"
"1960-06-16 05:00","1960","06","16","05:00","16.7","","14.4","","87","","18","","13","","16.1","","98.80","","","","","","Mostly Cloudy"
"1960-06-16 06:00","1960","06","16","06:00","16.7","","15.0","","89","","20","","13","","16.1","","98.88","","","","","","Mainly Clear"
"1960-06-16 07:00","1960","06","16","07:00","18.3","","16.1","","86","","20","","13","","12.9","","98.94","","","","","","Mostly Cloudy"
"1960-06-16 08:00","1960","06","16","08:00","20.0","","16.7","","81","","23","","21","","19.3","","98.95","","25","","","","Mainly Clear"
"1960-06-16 09:00","1960","06","16","09:00","21.7","","17.2","","75","","23","","19","","19.3","","98.91","","27","","","","Mainly Clear"
"1960-06-16 10:00","1960","06","16","10:00","23.3","","17.2","","68","","23","","23","","9.7","","98.91","","29","","","","Haze"
"1960-06-16 11:00","1960","06","16","11:00","23.3","","17.2","","69","","18","","16","","9.7","","98.91","","29","","","","Haze"
"1960-06-16 12:00","1960","06","16","12:00","25.6","","17.2","","60","","20","","24","","12.9","","98.87","","31","","","","Mainly Clear"
"1960-06-16 13:00","1960","06","16","13:00","26.1","","16.1","","54","","20","","26","","12.9","","98.79","","31","","","","Mainly Clear"
"1960-06-16 14:00","1960","06","16","14:00","27.2","","16.7","","52","","18","","26","","11.3","","98.71","","32","","","","Mainly Clear"
"1960-06-16 15:00","1960","06","16","15:00","27.2","","15.0","","47","","20","","32","","19.3","","98.64","","31","","","","Mostly Cloudy"
"1960-06-16 16:00","1960","06","16","16:00","27.2","","15.6","","49","","18","","34","","19.3","","98.51","","32","","","","Mostly Cloudy"
"1960-06-16 17:00","1960","06","16","17:00","27.2","","15.0","","47","","18","","24","","19.3","","98.44","","31","","","","Mainly Clear"
"1960-06-16 18:00","1960","06","16","18:00","27.2","","15.0","","47","","18","","16","","19.3","","98.39","","31","","","","Mainly Clear"
"1960-06-16 19:00","1960","06","16","19:00","27.2","","17.2","","54","","14","","14","","19.3","","98.36","","33","","","","Mainly Clear"
"1960-06-16 20:00","1960","06","16","20:00","22.8","","19.4","","80","","16","","16","","16.1","","98.30","","30","","","","Rain Showers"
"1960-06-16 21:00","1960","06","16","21:00","21.7","","18.9","","85","","16","","18","","16.1","","98.31","","28","","","","Cloudy"
"1960-06-16 22:00","1960","06","16","22:00","19.4","","17.8","","90","","25","","27","","9.7","","98.53","","","","","","Thunderstorms,Moderate Rain Showers"
"1960-06-16 23:00","1960","06","16","23:00","18.9","","17.8","","94","","23","","23","","9.7","","98.49","","","","","","Thunderstorms,Moderate Rain Showers"
"1960-06-17 00:00","1960","06","17","00:00","20.0","","18.3","","90","","23","","24","","9.7","","98.39","","26","","","","Thunderstorms,Heavy Rain Showers"
"1960-06-17 01:00","1960","06","17","01:00","19.4","","18.3","","92","","23","","13","","19.3","","98.32","","","","","","Thunderstorms,Rain Showers"
"1960-06-17 02:00","1960","06","17","02:00","18.9","","18.3","","96","","18","","26","","16.1","","98.29","","","","","","Rain Showers"
"1960-06-17 03:00","1960","06","17","03:00","18.3","","17.8","","96","","18","","24","","16.1","","98.14","","","","","","Mostly Cloudy"
"1960-06-17 04:00","1960","06","17","04:00","18.3","","17.2","","92","","20","","14","","24.1","","98.21","","","","","","Mostly Cloudy"
"1960-06-17 05:00","1960","06","17","05:00","18.9","","17.2","","90","","23","","18","","19.3","","98.28","","","","","","Mostly Cloudy"
"1960-06-17 06:00","1960","06","17","06:00","19.4","","17.8","","90","","23","","23","","19.3","","98.28","","","","","","Mostly Cloudy"
"1960-06-17 07:00","1960","06","17","07:00","19.4","","17.2","","88","","23","","24","","24.1","","98.32","","","","","","Mostly Cloudy"
"1960-06-17 08:00","1960","06","17","08:00","20.0","","17.8","","88","","23","","29","","24.1","","98.38","","26","","","","Mostly Cloudy"
"1960-06-17 09:00","1960","06","17","09:00","20.0","","17.8","","86","","23","","23","","24.1","","98.40","","26","","","","Cloudy"
"1960-06-17 10:00","1960","06","17","10:00","20.0","","17.8","","88","","20","","23","","19.3","","98.44","","26","","","","Rain Showers"
"1960-06-17 11:00","1960","06","17","11:00","20.0","","19.4","","96","","23","","19","","16.1","","98.51","","27","","","","Rain Showers"
"1960-06-17 12:00","1960","06","17","12:00","20.0","","18.9","","92","","20","","26","","19.3","","98.55","","27","","","","Rain Showers"
"1960-06-17 13:00","1960","06","17","13:00","20.0","","18.9","","94","","20","","23","","16.1","","98.54","","27","","","","Rain Showers"
"1960-06-17 14:00","1960","06","17","14:00","20.0","","18.9","","92","","20","","23","","16.1","","98.58","","27","","","","Rain Showers"
"1960-06-17 15:00","1960","06","17","15:00","19.4","","17.8","","88","","23","","19","","24.1","","98.61","","","","","","Cloudy"
"1960-06-17 16:00","1960","06","17","16:00","20.0","","17.2","","85","","20","","16","","24.1","","98.56","","25","","","","Cloudy"
"1960-06-17 17:00","1960","06","17","17:00","20.6","","17.8","","83","","25","","16","","19.3","","98.52","","26","","","","Mostly Cloudy"
"1960-06-17 18:00","1960","06","17","18:00","15.0","","13.3","","88","","34","","29","","12.9","","98.69","","","","","","Mostly Cloudy"
"1960-06-17 19:00","1960","06","17","19:00","13.9","","12.2","","90","","36","","29","","12.9","","98.86","","","","","","Cloudy"
"1960-06-17 20:00","1960","06","17","20:00","12.8","","10.0","","82","","34","","24","","24.1","","98.98","","","","","","Cloudy"
"1960-06-17 21:00","1960","06","17","21:00","12.2","","9.4","","82","","34","","24","","24.1","","99.10","","","","","","Cloudy"
"1960-06-17 22:00","1960","06","17","22:00","11.7","","9.4","","85","","32","","24","","24.1","","99.21","","","","","","Cloudy"
"1960-06-17 23:00","1960","06","17","23:00","11.7","","9.4","","87","","32","","31","","24.1","","99.25","","","","","","Mostly Cloudy"
"1960-06-18 00:00","1960","06","18","00:00","11.1","","8.9","","85","","34","","27","","24.1","","99.34","","","","","","Cloudy"
"1960-06-18 01:00","1960","06","18","01:00","11.7","","8.9","","83","","34","","23","","24.1","","99.37","","","","","","Mostly Cloudy"
"1960-06-18 02:00","1960","06","18","02:00","11.1","","8.3","","83","","34","","13","","24.1","","99.42","","","","","","Cloudy"
"1960-06-18 03:00","1960","06","18","03:00","11.1","","7.8","","81","","36","","11","","24.1","","99.50","","","","","","Mostly Cloudy"
"1960-06-18 04:00","1960","06","18","04:00","10.6","","7.8","","83","","32","","18","","24.1","","99.58","","","","","","Mostly Cloudy"
"1960-06-18 05:00","1960","06","18","05:00","9.4","","7.2","","86","","32","","19","","24.1","","99.63","","","","","","Mainly Clear"
"1960-06-18 06:00","1960","06","18","06:00","9.4","","6.7","","84","","32","","14","","25.0","","99.74","","","","","","Mainly Clear"
"1960-06-18 07:00","1960","06","18","07:00","10.6","","6.7","","77","","36","","19","","25.0","","99.80","","","","","","Mainly Clear"
"1960-06-18 08:00","1960","06","18","08:00","12.2","","6.7","","70","","36","","16","","25.0","","99.92","","","","","","Mainly Clear"
"1960-06-18 09:00","1960","06","18","09:00","13.3","","6.7","","64","","36","","16","","25.0","","99.96","","","","","","Mainly Clear"
"1960-06-18 10:00","1960","06","18","10:00","14.4","","7.2","","63","","36","","23","","25.0","","99.93","","","","","","Mainly Clear"
"1960-06-18 11:00","1960","06","18","11:00","16.1","","6.7","","54","","36","","16","","25.0","","99.90","","","","","","Mainly Clear"
"1960-06-18 12:00","1960","06","18","12:00","17.2","","5.6","","46","","2","","16","","25.0","","99.87","","","","","","Mostly Cloudy"
"1960-06-18 13:00","1960","06","18","13:00","17.2","","5.6","","46","","2","","11","","25.0","","99.85","","","","","","Mostly Cloudy"
"1960-06-18 14:00","1960","06","18","14:00","18.3","","7.2","","48","","2","","10","","25.0","","99.88","","","","","","Mostly Cloudy"
"1960-06-18 15:00","1960","06","18","15:00","18.3","","7.2","","48","","36","","8","","25.0","","99.92","","","","","","Mostly Cloudy"
"1960-06-18 16:00","1960","06","18","16:00","18.9","","7.8","","49","","5","","8","","25.0","","99.88","","","","","","Mainly Clear"
"1960-06-18 17:00","1960","06","18","17:00","18.9","","9.4","","54","","14","","11","","25.0","","99.84","","","","","","Mostly Cloudy"
"1960-06-18 18:00","1960","06","18","18:00","17.8","","7.8","","52","","16","","10","","25.0","","99.86","","","","","","Mostly Cloudy"
"1960-06-18 19:00","1960","06","18","19:00","17.8","","8.3","","54","","18","","10","","25.0","","99.88","","","","","","Mainly Clear"
"1960-06-18 20:00","1960","06","18","20:00","15.6","","8.9","","65","","18","","10","","24.1","","99.85","","","","","","Mainly Clear"
"1960-06-18 21:00","1960","06","18","21:00","15.0","","8.3","","63","","16","","8","","24.1","","99.86","","","","","","Mainly Clear"
"1960-06-18 22:00","1960","06","18","22:00","13.9","","8.3","","70","","18","","6","","24.1","","99.88","","","","","","Mainly Clear"
"1960-06-18 23:00","1960","06","18","23:00","13.3","","7.8","","69","","20","","6","","25.0","","99.91","","","","","","Mainly Clear"
"1960-06-19 00:00","1960","06","19","00:00","12.8","","8.9","","77","","20","","8","","25.0","","99.90","","","","","","Mainly Clear"
"1960-06-19 01:00","1960","06","19","01:00","12.8","","10.0","","84","","23","","5","","25.0","","99.84","","","","","","Mostly Cloudy"
"1960-06-19 02:00","1960","06","19","02:00","12.2","","10.0","","85","","23","","6","","25.0","","99.81","","","","","","Mostly Cloudy"
"1960-06-19 03:00","1960","06","19","03:00","11.7","","9.4","","87","","23","","13","","25.0","","99.78","","","","","","Mostly Cloudy"
"1960-06-19 04:00","1960","06","19","04:00","12.2","","9.4","","84","","23","","8","","25.0","","99.78","","","","","","Mostly Cloudy"
"1960-06-19 05:00","1960","06","19","05:00","12.8","","9.4","","79","","18","","3","","25.0","","99.78","","","","","","Mostly Cloudy"
"1960-06-19 06:00","1960","06","19","06:00","13.3","","8.9","","74","","14","","3","","25.0","","99.77","","","","","","Mostly Cloudy"
"1960-06-19 07:00","1960","06","19","07:00","13.3","","10.0","","79","","20","","6","","25.0","","99.86","","","","","","Mostly Cloudy"
"1960-06-19 08:00","1960","06","19","08:00","14.4","","9.4","","72","","20","","6","","24.1","","99.84","","","","","","Cloudy"
"1960-06-19 09:00","1960","06","19","09:00","15.0","","10.6","","74","","18","","19","","24.1","","99.69","","","","","","Mostly Cloudy"
"1960-06-19 10:00","1960","06","19","10:00","17.2","","11.1","","68","","20","","19","","24.1","","99.64","","","","","","Mostly Cloudy"
"1960-06-19 11:00","1960","06","19","11:00","19.4","","13.3","","68","","20","","27","","24.1","","99.59","","","","","","Mainly Clear"
"1960-06-19 12:00","1960","06","19","12:00","20.6","","13.9","","65","","23","","23","","24.1","","99.58","","","","","","Mostly Cloudy"
"1960-06-19 13:00","1960","06","19","13:00","21.1","","13.9","","64","","27","","23","","25.0","","99.54","","","","","","Mostly Cloudy"
"1960-06-19 14:00","1960","06","19","14:00","22.8","","11.1","","48","","27","","39","","25.0","","99.54","","25","","","","Mostly Cloudy"
"1960-06-19 15:00","1960","06","19","15:00","23.3","","10.6","","44","","29","","32","","25.0","","99.54","","25","","","","Mainly Clear"
"1960-06-19 16:00","1960","06","19","16:00","20.6","","9.4","","49","","29","","37","","25.0","","99.55","","","","","","Mainly Clear"
"1960-06-19 17:00","1960","06","19","17:00","20.0","","9.4","","50","","32","","34","","25.0","","99.56","","","","","","Mainly Clear"
"1960-06-19 18:00","1960","06","19","18:00","19.4","","8.3","","49","","32","","24","","25.0","","99.58","","","","","","Mainly Clear"
"1960-06-19 19:00","1960","06","19","19:00","17.8","","10.0","","61","","32","","31","","25.0","","99.61","","","","","","Mainly Clear"
"1960-06-19 20:00","1960","06","19","20:00","16.7","","10.0","","64","","32","","19","","25.0","","99.66","","","","","","Mainly Clear"
"1960-06-19 21:00","1960","06","19","21:00","14.4","","9.4","","72","","32","","18","","25.0","","99.76","","","","","","Mainly Clear"
"1960-06-19 22:00","1960","06","19","22:00","12.8","","9.4","","79","","27","","14","","25.0","","99.77","","","","","","Clear"
"1960-06-19 23:00","1960","06","19","23:00","12.2","","9.4","","82","","29","","13","","25.0","","99.76","","","","","","Clear"
"1960-06-20 00:00","1960","06","20","00:00","12.2","","9.4","","84","","29","","14","","25.0","","99.75","","","","","","Clear"
"1960-06-20 01:00","1960","06","20","01:00","11.7","","9.4","","85","","29","","13","","25.0","","99.74","","","","","","Clear"
"1960-06-20 02:00","1960","06","20","02:00","11.1","","8.9","","87","","27","","8","","25.0","","99.77","","","","","","Clear"
"1960-06-20 03:00","1960","06","20","03:00","11.1","","9.4","","89","","","","0","","24.1","","99.81","","","","","","Clear"
"1960-06-20 04:00","1960","06","20","04:00","10.0","","7.8","","86","","","","0","","25.0","","99.84","","","","","","Clear"
"1960-06-20 05:00","1960","06","20","05:00","9.4","","7.8","","88","","34","","5","","24.1","","99.87","","","","","","Clear"
"1960-06-20 06:00","1960","06","20","06:00","11.7","","8.9","","83","","34","","13","","25.0","","99.92","","","","","","Clear"
"1960-06-20 07:00","1960","06","20","07:00","12.8","","10.0","","82","","34","","16","","25.0","","100.00","","","","","","Clear"
"1960-06-20 08:00","1960","06","20","08:00","15.6","","9.4","","67","","36","","14","","25.0","","100.04","","","","","","Clear"
"1960-06-20 09:00","1960","06","20","09:00","17.2","","7.8","","53","","36","","16","","25.0","","100.04","","","","","","Clear"
"1960-06-20 10:00","1960","06","20","10:00","18.9","","7.8","","49","","34","","21","","25.0","","100.03","","","","","","Mainly Clear"
"1960-06-20 11:00","1960","06","20","11:00","20.6","","8.9","","48","","34","","21","","25.0","","100.07","","","","","","Mainly Clear"
"1960-06-20 12:00","1960","06","20","12:00","21.1","","8.9","","45","","34","","19","","25.0","","100.05","","","","","","Mainly Clear"
"1960-06-20 13:00","1960","06","20","13:00","21.7","","7.2","","39","","34","","24","","25.0","","100.03","","","","","","Mainly Clear"
"1960-06-20 14:00","1960","06","20","14:00","22.8","","8.3","","39","","36","","18","","25.0","","100.02","","","","","","Mainly Clear"
"1960-06-20 15:00","1960","06","20","15:00","22.8","","7.2","","36","","36","","21","","25.0","","100.01","","","","","","Mainly Clear"
"1960-06-20 16:00","1960","06","20","16:00","22.2","","7.2","","38","","36","","19","","25.0","","99.97","","","","","","Mainly Clear"
"1960-06-20 17:00","1960","06","20","17:00","22.2","","7.2","","38","","36","","16","","25.0","","99.95","","","","","","Mostly Cloudy"
"1960-06-20 18:00","1960","06","20","18:00","21.7","","7.8","","40","","36","","16","","25.0","","99.95","","","","","","Mostly Cloudy"
"1960-06-20 19:00","1960","06","20","19:00","21.1","","8.3","","44","","36","","8","","24.1","","99.98","","","","","","Mostly Cloudy"
"1960-06-20 20:00","1960","06","20","20:00","19.4","","8.3","","48","","36","","8","","24.1","","99.99","","","","","","Mostly Cloudy"
"1960-06-20 21:00","1960","06","20","21:00","18.3","","8.3","","51","","36","","8","","24.1","","100.02","","","","","","Mainly Clear"
"1960-06-20 22:00","1960","06","20","22:00","16.7","","8.3","","58","","36","","11","","24.1","","100.04","","","","","","Mainly Clear"
"1960-06-20 23:00","1960","06","20","23:00","15.0","","8.9","","66","","36","","10","","24.1","","100.04","","","","","","Clear"
"1960-06-21 00:00","1960","06","21","00:00","13.3","","8.9","","74","","29","","5","","24.1","","100.10","","","","","","Clear"
"1960-06-21 01:00","1960","06","21","01:00","13.3","","10.0","","79","","32","","6","","24.1","","100.11","","","","","","Clear"
"1960-06-21 02:00","1960","06","21","02:00","11.7","","8.9","","82","","27","","5","","24.1","","100.17","","","","","","Clear"
"1960-06-21 03:00","1960","06","21","03:00","11.7","","8.9","","82","","27","","5","","24.1","","100.20","","","","","","Clear"
"1960-06-21 04:00","1960","06","21","04:00","11.1","","8.9","","85","","27","","3","","24.1","","100.21","","","","","","Mainly Clear"
"1960-06-21 05:00","1960","06","21","05:00","11.1","","8.3","","83","","29","","3","","24.1","","100.24","","","","","","Mostly Cloudy"
"1960-06-21 06:00","1960","06","21","06:00","12.2","","8.3","","78","","27","","3","","24.1","","100.27","","","","","","Mainly Clear"
"1960-06-21 07:00","1960","06","21","07:00","14.4","","10.6","","78","","36","","3","","24.1","","100.30","","","","","","Mostly Cloudy"
"1960-06-21 08:00","1960","06","21","08:00","18.3","","8.3","","51","","2","","6","","25.0","","100.32","","","","","","Mostly Cloudy"
"1960-06-21 09:00","1960","06","21","09:00","19.4","","8.9","","51","","36","","6","","25.0","","100.32","","","","","","Mostly Cloudy"
"1960-06-21 10:00","1960","06","21","10:00","21.1","","9.4","","47","","11","","10","","25.0","","100.31","","","","","","Mostly Cloudy"
"1960-06-21 11:00","1960","06","21","11:00","22.2","","10.0","","45","","14","","19","","24.1","","100.26","","","","","","Mostly Cloudy"
"1960-06-21 12:00","1960","06","21","12:00","22.2","","8.3","","41","","14","","19","","24.1","","100.21","","","","","","Mostly Cloudy"
"1960-06-21 13:00","1960","06","21","13:00","22.8","","9.4","","43","","18","","23","","25.0","","100.15","","","","","","Mostly Cloudy"
"1960-06-21 14:00","1960","06","21","14:00","22.2","","8.9","","43","","18","","19","","24.1","","100.11","","","","","","Mostly Cloudy"
"1960-06-21 15:00","1960","06","21","15:00","22.8","","8.3","","39","","18","","16","","24.1","","100.08","","","","","","Mainly Clear"
"1960-06-21 16:00","1960","06","21","16:00","23.3","","7.2","","36","","16","","13","","24.1","","100.05","","","","","","Mostly Cloudy"
"1960-06-21 17:00","1960","06","21","17:00","22.8","","6.7","","35","","14","","11","","24.1","","100.01","","","","","","Mainly Clear"
"1960-06-21 18:00","1960","06","21","18:00","22.2","","6.1","","36","","14","","8","","24.1","","99.98","","","","","","Mostly Cloudy"
"1960-06-21 19:00","1960","06","21","19:00","22.2","","6.1","","36","","14","","8","","24.1","","99.99","","","","","","Mostly Cloudy"
"1960-06-21 20:00","1960","06","21","20:00","20.0","","7.8","","45","","9","","6","","24.1","","99.95","","","","","","Mostly Cloudy"
"1960-06-21 21:00","1960","06","21","21:00","19.4","","7.2","","45","","7","","8","","24.1","","99.92","","","","","","Mostly Cloudy"
"1960-06-21 22:00","1960","06","21","22:00","17.2","","8.3","","55","","5","","5","","19.3","","99.87","","","","","","Mainly Clear"
"1960-06-21 23:00","1960","06","21","23:00","15.6","","8.9","","64","","9","","3","","19.3","","99.84","","","","","","Clear"
"1960-06-22 00:00","1960","06","22","00:00","14.4","","9.4","","72","","5","","3","","19.3","","99.82","","","","","","Mainly Clear"
"1960-06-22 01:00","1960","06","22","01:00","13.9","","9.4","","75","","36","","3","","19.3","","99.80","","","","","","Mainly Clear"
"1960-06-22 02:00","1960","06","22","02:00","12.2","","9.4","","84","","36","","6","","19.3","","99.77","","","","","","Mainly Clear"
"1960-06-22 03:00","1960","06","22","03:00","12.2","","9.4","","84","","2","","10","","19.3","","99.72","","","","","","Mostly Cloudy"
"1960-06-22 04:00","1960","06","22","04:00","12.2","","8.9","","80","","5","","8","","19.3","","99.67","","","","","","Mostly Cloudy"
"1960-06-22 05:00","1960","06","22","05:00","12.8","","9.4","","79","","5","","3","","24.1","","99.65","","","","","","Mostly Cloudy"
"1960-06-22 06:00","1960","06","22","06:00","12.8","","9.4","","81","","5","","3","","24.1","","99.64","","","","","","Mostly Cloudy"
"1960-06-22 07:00","1960","06","22","07:00","15.0","","10.6","","75","","","","0","","16.1","","99.61","","","","","","Mostly Cloudy"
"1960-06-22 08:00","1960","06","22","08:00","18.3","","11.7","","65","","5","","3","","12.9","","99.56","","","","","","Mostly Cloudy"
"1960-06-22 09:00","1960","06","22","09:00","18.9","","11.1","","60","","18","","10","","12.9","","99.52","","","","","","Mostly Cloudy"
"1960-06-22 10:00","1960","06","22","10:00","19.4","","12.2","","63","","","","0","","16.1","","99.50","","","","","","Mostly Cloudy"
"1960-06-22 11:00","1960","06","22","11:00","20.0","","11.7","","58","","14","","13","","12.9","","99.39","","","","","","Mostly Cloudy"
"1960-06-22 12:00","1960","06","22","12:00","21.1","","10.6","","51","","14","","6","","16.1","","99.42","","","","","","Cloudy"
"1960-06-22 13:00","1960","06","22","13:00","20.6","","11.1","","54","","14","","13","","16.1","","99.38","","","","","","Cloudy"
"1960-06-22 14:00","1960","06","22","14:00","21.1","","12.2","","56","","14","","8","","16.1","","99.30","","","","","","Mostly Cloudy"
"1960-06-22 15:00","1960","06","22","15:00","22.2","","13.9","","59","","14","","6","","16.1","","99.23","","26","","","","Mostly Cloudy"
"1960-06-22 16:00","1960","06","22","16:00","22.2","","13.3","","57","","14","","16","","12.9","","99.18","","25","","","","Mostly Cloudy"
"1960-06-22 17:00","1960","06","22","17:00","22.2","","13.3","","57","","16","","14","","12.9","","99.12","","25","","","","Mainly Clear"
"1960-06-22 18:00","1960","06","22","18:00","21.7","","13.3","","58","","16","","11","","11.3","","99.12","","25","","","","Mainly Clear"
"1960-06-22 19:00","1960","06","22","19:00","20.6","","12.8","","60","","18","","10","","11.3","","99.15","","","","","","Mostly Cloudy"
"1960-06-22 20:00","1960","06","22","20:00","18.9","","12.2","","66","","14","","6","","11.3","","99.10","","","","","","Cloudy"
"1960-06-22 21:00","1960","06","22","21:00","18.3","","12.8","","69","","18","","3","","12.9","","99.10","","","","","","Mainly Clear"
"1960-06-22 22:00","1960","06","22","22:00","16.7","","12.8","","77","","27","","3","","12.9","","99.10","","","","","","Mainly Clear"
"1960-06-22 23:00","1960","06","22","23:00","16.1","","12.8","","81","","","","0","","11.3","","99.06","","","","","","Mainly Clear"
"1960-06-23 00:00","1960","06","23","00:00","16.1","","12.8","","81","","","","0","","8.0","","99.06","","","","","","Haze"
"1960-06-23 01:00","1960","06","23","01:00","15.6","","12.8","","82","","","","0","","8.0","","99.06","","","","","","Haze"
"1960-06-23 02:00","1960","06","23","02:00","14.4","","12.2","","86","","29","","3","","6.4","","99.08","","","","","","Haze"
"1960-06-23 03:00","1960","06","23","03:00","14.4","","12.2","","88","","","","0","","8.0","","99.04","","","","","","Haze"
"1960-06-23 04:00","1960","06","23","04:00","13.9","","11.7","","88","","","","0","","4.8","","98.98","","","","","","Haze"
"1960-06-23 05:00","1960","06","23","05:00","13.9","","12.8","","93","","","","0","","3.2","","98.98","","","","","","Fog"
"1960-06-23 06:00","1960","06","23","06:00","14.4","","13.3","","91","","","","0","","3.2","","99.01","","","","","","Fog"
"1960-06-23 07:00","1960","06","23","07:00","15.6","","13.9","","88","","","","0","","3.2","","99.01","","","","","","Fog"
"1960-06-23 08:00","1960","06","23","08:00","18.9","","16.1","","84","","25","","8","","3.2","","98.99","","","","","","Haze"
"1960-06-23 09:00","1960","06","23","09:00","21.1","","16.7","","76","","","","0","","3.2","","98.99","","26","","","","Haze"
"1960-06-23 10:00","1960","06","23","10:00","21.7","","17.2","","76","","18","","5","","4.8","","98.99","","27","","","","Haze"
"1960-06-23 11:00","1960","06","23","11:00","22.8","","17.8","","74","","","","0","","4.8","","98.92","","29","","","","Haze"
"1960-06-23 12:00","1960","06","23","12:00","23.9","","17.8","","68","","16","","11","","4.8","","98.99","","30","","","","Haze"
"1960-06-23 13:00","1960","06","23","13:00","23.9","","17.8","","68","","14","","10","","4.0","","98.95","","30","","","","Haze"
"1960-06-23 14:00","1960","06","23","14:00","26.1","","18.3","","62","","16","","10","","4.0","","98.90","","32","","","","Haze"
"1960-06-23 15:00","1960","06","23","15:00","26.7","","17.8","","59","","14","","14","","4.0","","98.83","","33","","","","Haze"
"1960-06-23 16:00","1960","06","23","16:00","26.1","","17.8","","61","","14","","8","","4.0","","98.69","","32","","","","Haze"
"1960-06-23 17:00","1960","06","23","17:00","25.6","","17.8","","62","","16","","14","","4.0","","98.73","","31","","","","Haze"
"1960-06-23 18:00","1960","06","23","18:00","20.6","","16.1","","76","","14","","16","","3.6","","98.73","","25","","","","Rain Showers,Haze"
"1960-06-23 19:00","1960","06","23","19:00","20.0","","16.1","","79","","14","","6","","2.4","","98.69","","25","","","","Thunderstorms,Rain Showers,Haze"
"1960-06-23 20:00","1960","06","23","20:00","18.9","","17.2","","90","","","","0","","1.6","","98.76","","","","","","Thunderstorms,Rain Showers,Fog"
"1960-06-23 21:00","1960","06","23","21:00","18.3","","17.2","","92","","16","","19","","4.8","","98.77","","","","","","Fog"
"1960-06-23 22:00","1960","06","23","22:00","18.3","","16.7","","90","","16","","8","","4.8","","98.72","","","","","","Fog"
"1960-06-23 23:00","1960","06","23","23:00","17.8","","16.1","","90","","14","","8","","4.8","","98.67","","","","","","Fog"
"1960-06-24 00:00","1960","06","24","00:00","18.3","","17.2","","94","","11","","14","","4.8","","98.56","","","","","","Fog"
"1960-06-24 01:00","1960","06","24","01:00","18.3","","17.2","","94","","14","","16","","4.8","","98.47","","","","","","Fog"
"1960-06-24 02:00","1960","06","24","02:00","17.8","","16.7","","94","","14","","19","","4.8","","98.32","","","","","","Fog"
"1960-06-24 03:00","1960","06","24","03:00","17.8","","17.2","","96","","14","","18","","4.8","","98.19","","","","","","Rain Showers,Fog"
"1960-06-24 04:00","1960","06","24","04:00","17.8","","17.2","","96","","14","","26","","3.2","","98.05","","","","","","Thunderstorms,Rain Showers,Fog"
"1960-06-24 05:00","1960","06","24","05:00","17.8","","17.2","","96","","23","","8","","2.4","","98.04","","","","","","Thunderstorms,Moderate Rain Showers,Fog"
"1960-06-24 06:00","1960","06","24","06:00","17.8","","17.2","","98","","14","","6","","1.6","","97.98","","","","","","Fog"
"1960-06-24 07:00","1960","06","24","07:00","18.3","","17.8","","98","","14","","6","","2.4","","97.91","","","","","","Fog"
"1960-06-24 08:00","1960","06","24","08:00","19.4","","18.9","","96","","14","","8","","3.2","","97.83","","","","","","Rain Showers"
"1960-06-24 09:00","1960","06","24","09:00","20.6","","18.9","","90","","29","","34","","25.0","","97.84","","27","","","","Mainly Clear"
"1960-06-24 10:00","1960","06","24","10:00","22.2","","17.2","","73","","25","","34","","25.0","","97.88","","28","","","","Mostly Cloudy"
"1960-06-24 11:00","1960","06","24","11:00","22.2","","17.2","","73","","25","","40","","25.0","","97.85","","28","","","","Mostly Cloudy"
"1960-06-24 12:00","1960","06","24","12:00","22.8","","16.1","","66","","23","","39","","25.0","","97.83","","27","","","","Mostly Cloudy"
"1960-06-24 13:00","1960","06","24","13:00","21.1","","12.8","","59","","25","","29","","25.0","","97.88","","","","","","Mostly Cloudy"
"1960-06-24 14:00","1960","06","24","14:00","19.4","","11.7","","61","","27","","40","","25.0","","97.94","","","","","","Cloudy"
"1960-06-24 15:00","1960","06","24","15:00","17.2","","11.7","","70","","27","","40","","25.0","","98.00","","","","","","Rain Showers"
"1960-06-24 16:00","1960","06","24","16:00","17.2","","13.3","","77","","25","","40","","12.9","","98.02","","","","","","Cloudy"
"1960-06-24 17:00","1960","06","24","17:00","16.1","","12.8","","81","","25","","45","","12.9","","98.04","","","","","","Rain Showers"
"1960-06-24 18:00","1960","06","24","18:00","16.1","","12.8","","81","","25","","32","","19.3","","98.06","","","","","","Mostly Cloudy"
"1960-06-24 19:00","1960","06","24","19:00","16.1","","12.2","","79","","27","","42","","24.1","","98.05","","","","","","Mostly Cloudy"
"1960-06-24 20:00","1960","06","24","20:00","15.6","","12.2","","81","","27","","37","","24.1","","98.15","","","","","","Cloudy"
"1960-06-24 21:00","1960","06","24","21:00","15.0","","11.1","","79","","27","","29","","24.1","","98.32","","","","","","Rain Showers"
"1960-06-24 22:00","1960","06","24","22:00","15.0","","11.1","","77","","29","","29","","25.0","","98.37","","","","","","Cloudy"
"1960-06-24 23:00","1960","06","24","23:00","14.4","","9.4","","72","","27","","32","","25.0","","98.41","","","","","","Mostly Cloudy"
"1960-06-25 00:00","1960","06","25","00:00","13.9","","8.9","","71","","32","","35","","25.0","","98.46","","","","","","Cloudy"
"1960-06-25 01:00","1960","06","25","01:00","14.4","","8.3","","67","","32","","29","","25.0","","98.56","","","","","","Cloudy"
"1960-06-25 02:00","1960","06","25","02:00","14.4","","8.3","","66","","32","","35","","25.0","","98.65","","","","","","Mainly Clear"
"1960-06-25 03:00","1960","06","25","03:00","13.9","","8.3","","68","","29","","39","","25.0","","98.74","","","","","","Clear"
"1960-06-25 04:00","1960","06","25","04:00","12.2","","7.8","","73","","27","","26","","25.0","","98.83","","","","","","Mainly Clear"
"1960-06-25 05:00","1960","06","25","05:00","11.7","","5.6","","66","","29","","29","","25.0","","98.88","","","","","","Mainly Clear"
"1960-06-25 06:00","1960","06","25","06:00","12.8","","5.6","","61","","29","","35","","25.0","","98.99","","","","","","Mostly Cloudy"
"1960-06-25 07:00","1960","06","25","07:00","13.9","","5.6","","57","","29","","29","","25.0","","99.09","","","","","","Mostly Cloudy"
"1960-06-25 08:00","1960","06","25","08:00","16.1","","6.1","","52","","29","","29","","25.0","","99.23","","","","","","Mainly Clear"
"1960-06-25 09:00","1960","06","25","09:00","20.0","","7.2","","44","","29","","24","","25.0","","99.30","","","","","","Mainly Clear"
"1960-06-25 10:00","1960","06","25","10:00","20.6","","8.3","","46","","27","","29","","25.0","","99.36","","","","","","Mainly Clear"
"1960-06-25 11:00","1960","06","25","11:00","21.7","","8.3","","42","","29","","32","","25.0","","99.42","","","","","","Mainly Clear"
"1960-06-25 12:00","1960","06","25","12:00","22.8","","8.3","","39","","29","","32","","25.0","","99.45","","","","","","Clear"
"1960-06-25 13:00","1960","06","25","13:00","23.9","","8.3","","37","","32","","32","","25.0","","99.47","","","","","","Clear"
"1960-06-25 14:00","1960","06","25","14:00","25.0","","8.3","","35","","29","","19","","25.0","","99.46","","26","","","","Clear"
"1960-06-25 15:00","1960","06","25","15:00","25.0","","9.4","","37","","29","","32","","25.0","","99.42","","26","","","","Clear"
"1960-06-25 16:00","1960","06","25","16:00","25.6","","11.1","","40","","29","","32","","25.0","","99.40","","27","","","","Clear"
"1960-06-25 17:00","1960","06","25","17:00","25.0","","11.1","","42","","29","","29","","25.0","","99.42","","27","","","","Mainly Clear"
"1960-06-25 18:00","1960","06","25","18:00","24.4","","11.1","","43","","29","","32","","25.0","","99.43","","26","","","","Mainly Clear"
"1960-06-25 19:00","1960","06","25","19:00","23.3","","11.1","","45","","27","","26","","25.0","","99.47","","25","","","","Mainly Clear"
"1960-06-25 20:00","1960","06","25","20:00","21.1","","11.7","","55","","27","","19","","25.0","","99.54","","","","","","Mainly Clear"
"1960-06-25 21:00","1960","06","25","21:00","19.4","","11.7","","61","","27","","11","","25.0","","99.59","","","","","","Mainly Clear"
"1960-06-25 22:00","1960","06","25","22:00","17.8","","11.7","","66","","27","","16","","25.0","","99.65","","","","","","Mainly Clear"
"1960-06-25 23:00","1960","06","25","23:00","17.2","","11.7","","70","","27","","10","","25.0","","99.76","","","","","","Clear"
"1960-06-26 00:00","1960","06","26","00:00","16.1","","12.2","","79","","27","","6","","25.0","","99.78","","","","","","Clear"
"1960-06-26 01:00","1960","06","26","01:00","15.6","","11.7","","79","","29","","10","","25.0","","99.80","","","","","","Clear"
"1960-06-26 02:00","1960","06","26","02:00","14.4","","11.1","","80","","27","","10","","25.0","","99.84","","","","","","Clear"
"1960-06-26 03:00","1960","06","26","03:00","13.9","","11.1","","83","","27","","13","","25.0","","99.86","","","","","","Clear"
"1960-06-26 04:00","1960","06","26","04:00","13.9","","11.1","","83","","27","","8","","25.0","","99.89","","","","","","Mostly Cloudy"
"1960-06-26 05:00","1960","06","26","05:00","14.4","","11.1","","81","","27","","8","","25.0","","99.91","","","","","","Mostly Cloudy"
"1960-06-26 06:00","1960","06","26","06:00","15.6","","11.1","","74","","29","","10","","25.0","","99.96","","","","","","Mainly Clear"
"1960-06-26 07:00","1960","06","26","07:00","17.8","","11.1","","65","","32","","6","","25.0","","100.00","","","","","","Mainly Clear"
"1960-06-26 08:00","1960","06","26","08:00","21.7","","15.6","","68","","32","","6","","25.0","","100.03","","26","","","","Mainly Clear"
"1960-06-26 09:00","1960","06","26","09:00","22.2","","12.8","","54","","32","","3","","25.0","","100.04","","25","","","","Mainly Clear"
"1960-06-26 10:00","1960","06","26","10:00","23.9","","11.7","","46","","23","","6","","25.0","","100.04","","26","","","","Mainly Clear"
"1960-06-26 11:00","1960","06","26","11:00","25.0","","9.4","","37","","25","","8","","25.0","","100.05","","26","","","","Mainly Clear"
"1960-06-26 12:00","1960","06","26","12:00","25.6","","10.0","","38","","29","","6","","25.0","","100.05","","27","","","","Mainly Clear"
"1960-06-26 13:00","1960","06","26","13:00","25.6","","16.7","","58","","23","","14","","25.0","","100.02","","31","","","","Mainly Clear"
"1960-06-26 14:00","1960","06","26","14:00","26.7","","10.0","","36","","27","","8","","25.0","","99.97","","28","","","","Mainly Clear"
"1960-06-26 15:00","1960","06","26","15:00","27.8","","9.4","","31","","23","","13","","25.0","","99.94","","29","","","","Mainly Clear"
"1960-06-26 16:00","1960","06","26","16:00","27.2","","12.2","","40","","16","","13","","25.0","","99.92","","30","","","","Mainly Clear"
"1960-06-26 17:00","1960","06","26","17:00","26.7","","12.8","","42","","16","","11","","25.0","","99.90","","29","","","","Mainly Clear"
"1960-06-26 18:00","1960","06","26","18:00","26.7","","12.8","","43","","18","","6","","25.0","","99.88","","29","","","","Mainly Clear"
"1960-06-26 19:00","1960","06","26","19:00","25.0","","11.7","","43","","23","","5","","24.1","","99.86","","27","","","","Mainly Clear"
"1960-06-26 20:00","1960","06","26","20:00","22.8","","12.2","","50","","18","","6","","19.3","","99.88","","25","","","","Mainly Clear"
"1960-06-26 21:00","1960","06","26","21:00","21.1","","12.2","","56","","20","","5","","24.1","","99.91","","","","","","Mainly Clear"
"1960-06-26 22:00","1960","06","26","22:00","20.0","","12.8","","63","","25","","8","","24.1","","99.94","","","","","","Mainly Clear"
"1960-06-26 23:00","1960","06","26","23:00","18.3","","12.8","","69","","23","","10","","25.0","","99.95","","","","","","Mainly Clear"
"1960-06-27 00:00","1960","06","27","00:00","16.7","","11.7","","71","","18","","8","","25.0","","99.93","","","","","","Mainly Clear"
"1960-06-27 01:00","1960","06","27","01:00","16.1","","10.6","","69","","20","","8","","25.0","","99.93","","","","","","Mainly Clear"
"1960-06-27 02:00","1960","06","27","02:00","15.6","","10.0","","70","","18","","6","","25.0","","99.94","","","","","","Mainly Clear"
"1960-06-27 03:00","1960","06","27","03:00","15.0","","9.4","","69","","25","","6","","25.0","","99.96","","","","","","Mainly Clear"
"1960-06-27 04:00","1960","06","27","04:00","15.0","","10.0","","72","","27","","6","","25.0","","99.96","","","","","","Mainly Clear"
"1960-06-27 05:00","1960","06","27","05:00","15.0","","8.9","","68","","27","","8","","25.0","","99.99","","","","","","Mainly Clear"
"1960-06-27 06:00","1960","06","27","06:00","16.1","","9.4","","65","","27","","6","","25.0","","100.02","","","","","","Mainly Clear"
"1960-06-27 07:00","1960","06","27","07:00","18.9","","11.1","","60","","","","0","","19.3","","100.07","","","","","","Mainly Clear"
"1960-06-27 08:00","1960","06","27","08:00","21.1","","12.2","","56","","23","","8","","19.3","","100.14","","","","","","Mostly Cloudy"
"1960-06-27 09:00","1960","06","27","09:00","22.8","","12.2","","52","","23","","11","","16.1","","100.10","","25","","","","Mostly Cloudy"
"1960-06-27 10:00","1960","06","27","10:00","25.0","","12.2","","45","","23","","11","","16.1","","100.05","","27","","","","Mainly Clear"
"1960-06-27 11:00","1960","06","27","11:00","26.1","","11.1","","39","","23","","14","","16.1","","100.05","","28","","","","Clear"
"1960-06-27 12:00","1960","06","27","12:00","27.2","","8.3","","31","","20","","14","","16.1","","100.01","","28","","","","Mainly Clear"
"1960-06-27 13:00","1960","06","27","13:00","27.8","","11.7","","37","","23","","21","","16.1","","99.92","","30","","","","Mainly Clear"
"1960-06-27 14:00","1960","06","27","14:00","28.3","","12.8","","38","","18","","27","","16.1","","99.86","","31","","","","Mainly Clear"
"1960-06-27 15:00","1960","06","27","15:00","28.9","","12.2","","36","","18","","29","","16.1","","99.82","","31","","","","Mainly Clear"
"1960-06-27 16:00","1960","06","27","16:00","28.9","","13.3","","38","","18","","26","","16.1","","99.81","","32","","","","Mainly Clear"
"1960-06-27 17:00","1960","06","27","17:00","28.3","","12.8","","38","","18","","23","","16.1","","99.78","","31","","","","Clear"
"1960-06-27 18:00","1960","06","27","18:00","27.2","","12.2","","39","","20","","16","","16.1","","99.76","","30","","","","Clear"
"1960-06-27 19:00","1960","06","27","19:00","26.7","","12.8","","43","","23","","10","","16.1","","99.79","","29","","","","Clear"
"1960-06-27 20:00","1960","06","27","20:00","25.0","","11.7","","43","","23","","8","","16.1","","99.77","","27","","","","Clear"
"1960-06-27 21:00","1960","06","27","21:00","23.3","","11.7","","48","","18","","6","","16.1","","99.80","","25","","","","Mainly Clear"
"1960-06-27 22:00","1960","06","27","22:00","21.1","","12.2","","56","","18","","10","","16.1","","99.82","","","","","","Mainly Clear"
"1960-06-27 23:00","1960","06","27","23:00","20.0","","12.8","","63","","20","","11","","16.1","","99.80","","","","","","Mainly Clear"
"1960-06-28 00:00","1960","06","28","00:00","19.4","","12.8","","64","","20","","6","","16.1","","99.77","","","","","","Clear"
"1960-06-28 01:00","1960","06","28","01:00","18.9","","13.3","","71","","","","0","","16.1","","99.77","","","","","","Clear"
"1960-06-28 02:00","1960","06","28","02:00","17.2","","12.8","","75","","","","0","","16.1","","99.72","","","","","","Clear"
"1960-06-28 03:00","1960","06","28","03:00","15.6","","12.2","","81","","","","0","","16.1","","99.72","","","","","","Clear"
"1960-06-28 04:00","1960","06","28","04:00","15.6","","13.3","","87","","","","0","","8.0","","99.71","","","","","","Haze"
"1960-06-28 05:00","1960","06","28","05:00","15.0","","12.8","","87","","","","0","","4.8","","99.72","","","","","","Smoke,Haze"
"1960-06-28 06:00","1960","06","28","06:00","16.1","","12.8","","81","","","","0","","4.8","","99.71","","","","","","Smoke,Haze"
"1960-06-28 07:00","1960","06","28","07:00","18.3","","13.9","","76","","14","","10","","2.4","","99.69","","","","","","Smoke,Haze"
"1960-06-28 08:00","1960","06","28","08:00","20.6","","13.3","","64","","14","","6","","4.0","","99.69","","","","","","Smoke,Haze"
"1960-06-28 09:00","1960","06","28","09:00","22.8","","15.0","","62","","18","","13","","6.4","","99.67","","27","","","","Haze"
"1960-06-28 10:00","1960","06","28","10:00","24.4","","16.7","","62","","16","","8","","6.4","","99.66","","29","","","","Haze"
"1960-06-28 11:00","1960","06","28","11:00","25.6","","18.3","","63","","18","","13","","4.8","","99.62","","32","","","","Haze"
"1960-06-28 12:00","1960","06","28","12:00","28.3","","19.4","","59","","18","","16","","6.4","","99.58","","35","","","","Haze"
"1960-06-28 13:00","1960","06","28","13:00","29.4","","18.3","","52","","23","","27","","16.1","","99.50","","36","","","","Mostly Cloudy"
"1960-06-28 14:00","1960","06","28","14:00","29.4","","18.9","","53","","20","","26","","19.3","","99.44","","36","","","","Mostly Cloudy"
"1960-06-28 15:00","1960","06","28","15:00","27.2","","18.3","","59","","32","","26","","19.3","","99.43","","33","","","","Mostly Cloudy"
"1960-06-28 16:00","1960","06","28","16:00","26.7","","19.4","","64","","25","","13","","24.1","","99.37","","34","","","","Mostly Cloudy"
"1960-06-28 17:00","1960","06","28","17:00","28.9","","19.4","","58","","23","","16","","24.1","","99.33","","36","","","","Mostly Cloudy"
"1960-06-28 18:00","1960","06","28","18:00","28.3","","18.3","","55","","23","","19","","16.1","","99.28","","35","","","","Mostly Cloudy"
"1960-06-28 19:00","1960","06","28","19:00","28.3","","18.9","","57","","20","","10","","12.9","","99.22","","35","","","","Mostly Cloudy"
"1960-06-28 20:00","1960","06","28","20:00","26.7","","16.7","","54","","18","","13","","9.7","","99.18","","32","","","","Rain Showers,Haze"
"1960-06-28 21:00","1960","06","28","21:00","23.9","","16.7","","65","","25","","24","","16.1","","99.21","","29","","","","Mostly Cloudy"
"1960-06-28 22:00","1960","06","28","22:00","21.7","","17.8","","80","","27","","23","","12.9","","99.24","","28","","","","Rain Showers"
"1960-06-28 23:00","1960","06","28","23:00","21.1","","18.9","","87","","23","","8","","12.9","","99.17","","28","","","","Rain Showers"
"1960-06-29 00:00","1960","06","29","00:00","21.1","","18.9","","87","","20","","6","","16.1","","99.12","","28","","","","Cloudy"
"1960-06-29 01:00","1960","06","29","01:00","20.6","","18.9","","90","","18","","16","","19.3","","99.08","","27","","","","Cloudy"
"1960-06-29 02:00","1960","06","29","02:00","19.4","","18.9","","96","","16","","19","","0.8","","98.99","","","","","","Rain Showers,Fog"
"1960-06-29 03:00","1960","06","29","03:00","18.9","","18.3","","96","","20","","5","","2.0","","98.88","","","","","","Rain Showers,Fog"
"1960-06-29 04:00","1960","06","29","04:00","19.4","","18.9","","96","","18","","10","","2.0","","98.84","","","","","","Rain Showers,Fog"
"1960-06-29 05:00","1960","06","29","05:00","19.4","","18.9","","98","","18","","23","","1.0","","98.84","","","","","","Moderate Rain Showers,Fog"
"1960-06-29 06:00","1960","06","29","06:00","18.9","","18.3","","98","","18","","26","","3.2","","98.75","","","","","","Rain,Drizzle,Fog"
"1960-06-29 07:00","1960","06","29","07:00","18.9","","18.3","","98","","18","","16","","1.6","","98.75","","","","","","Rain,Drizzle,Fog"
"1960-06-29 08:00","1960","06","29","08:00","20.6","","20.0","","96","","20","","13","","4.8","","98.73","","28","","","","Fog"
"1960-06-29 09:00","1960","06","29","09:00","21.7","","18.9","","83","","25","","10","","11.3","","98.67","","28","","","","Mostly Cloudy"
"1960-06-29 10:00","1960","06","29","10:00","23.3","","18.3","","72","","25","","19","","12.9","","98.71","","30","","","","Mostly Cloudy"
"1960-06-29 11:00","1960","06","29","11:00","25.0","","18.3","","67","","25","","21","","19.3","","98.65","","31","","","","Mostly Cloudy"
"1960-06-29 12:00","1960","06","29","12:00","25.6","","17.2","","59","","25","","21","","19.3","","98.62","","31","","","","Mostly Cloudy"
"1960-06-29 13:00","1960","06","29","13:00","26.7","","17.2","","57","","25","","26","","24.1","","98.60","","32","","","","Mostly Cloudy"
"1960-06-29 14:00","1960","06","29","14:00","27.2","","16.7","","52","","25","","26","","19.3","","98.60","","32","","","","Mostly Cloudy"
"1960-06-29 15:00","1960","06","29","15:00","25.6","","18.9","","68","","27","","26","","19.3","","98.64","","32","","","","Mostly Cloudy"
"1960-06-29 16:00","1960","06","29","16:00","27.2","","18.9","","60","","27","","29","","19.3","","98.64","","34","","","","Mostly Cloudy"
"1960-06-29 17:00","1960","06","29","17:00","27.2","","17.2","","54","","27","","29","","24.1","","98.64","","33","","","","Mainly Clear"
"1960-06-29 18:00","1960","06","29","18:00","26.7","","17.2","","56","","27","","26","","24.1","","98.66","","32","","","","Mainly Clear"
"1960-06-29 19:00","1960","06","29","19:00","26.1","","17.8","","59","","25","","13","","11.3","","98.68","","32","","","","Mainly Clear"
"1960-06-29 20:00","1960","06","29","20:00","23.9","","17.8","","70","","23","","8","","12.9","","98.69","","30","","","","Mostly Cloudy"
"1960-06-29 21:00","1960","06","29","21:00","22.8","","16.7","","69","","25","","14","","16.1","","98.77","","28","","","","Mostly Cloudy"
"1960-06-29 22:00","1960","06","29","22:00","21.1","","17.2","","78","","25","","11","","24.1","","98.79","","27","","","","Mainly Clear"
"1960-06-29 23:00","1960","06","29","23:00","19.4","","16.7","","84","","27","","16","","25.0","","98.82","","","","","","Clear"
"1960-06-30 00:00","1960","06","30","00:00","18.9","","16.7","","88","","27","","13","","25.0","","98.85","","","","","","Clear"
"1960-06-30 01:00","1960","06","30","01:00","18.3","","16.1","","88","","27","","10","","25.0","","98.84","","","","","","Clear"
"1960-06-30 02:00","1960","06","30","02:00","17.8","","15.6","","88","","25","","8","","25.0","","98.84","","","","","","Clear"
"1960-06-30 03:00","1960","06","30","03:00","16.7","","15.0","","89","","23","","8","","25.0","","98.89","","","","","","Clear"
"1960-06-30 04:00","1960","06","30","04:00","17.2","","13.9","","79","","27","","13","","25.0","","98.89","","","","","","Mainly Clear"
"1960-06-30 05:00","1960","06","30","05:00","16.7","","14.4","","85","","36","","10","","25.0","","98.95","","","","","","Mainly Clear"
"1960-06-30 06:00","1960","06","30","06:00","17.2","","13.9","","81","","27","","8","","25.0","","98.99","","","","","","Mainly Clear"
"1960-06-30 07:00","1960","06","30","07:00","18.3","","13.3","","72","","32","","13","","25.0","","99.05","","","","","","Mainly Clear"
"1960-06-30 08:00","1960","06","30","08:00","20.6","","12.8","","62","","27","","11","","25.0","","99.10","","","","","","Mainly Clear"
"1960-06-30 09:00","1960","06","30","09:00","22.2","","12.2","","53","","29","","21","","25.0","","99.10","","25","","","","Mainly Clear"
"1960-06-30 10:00","1960","06","30","10:00","23.9","","11.7","","46","","29","","24","","25.0","","99.10","","26","","","","Mostly Cloudy"
"1960-06-30 11:00","1960","06","30","11:00","23.9","","10.0","","42","","29","","31","","25.0","","99.14","","25","","","","Mostly Cloudy"
"1960-06-30 12:00","1960","06","30","12:00","24.4","","10.6","","41","","29","","32","","25.0","","99.19","","26","","","","Mostly Cloudy"
"1960-06-30 13:00","1960","06","30","13:00","24.4","","11.1","","43","","29","","29","","25.0","","99.20","","26","","","","Mostly Cloudy"
"1960-06-30 14:00","1960","06","30","14:00","25.6","","11.7","","42","","27","","23","","25.0","","99.20","","28","","","","Mostly Cloudy"
"1960-06-30 15:00","1960","06","30","15:00","25.6","","12.2","","44","","27","","27","","25.0","","99.21","","28","","","","Mostly Cloudy"
"1960-06-30 16:00","1960","06","30","16:00","25.0","","12.8","","46","","29","","29","","25.0","","99.16","","28","","","","Mostly Cloudy"
"1960-06-30 17:00","1960","06","30","17:00","25.0","","12.8","","47","","29","","27","","25.0","","99.16","","28","","","","Mostly Cloudy"
"1960-06-30 18:00","1960","06","30","18:00","23.9","","12.2","","49","","32","","26","","25.0","","99.19","","26","","","","Mostly Cloudy"
"1960-06-30 19:00","1960","06","30","19:00","23.3","","12.8","","51","","32","","23","","25.0","","99.23","","26","","","","Mostly Cloudy"
"1960-06-30 20:00","1960","06","30","20:00","21.1","","12.8","","59","","34","","6","","25.0","","99.26","","","","","","Mostly Cloudy"
"1960-06-30 21:00","1960","06","30","21:00","18.9","","11.7","","62","","36","","13","","25.0","","99.28","","","","","","Mostly Cloudy"
"1960-06-30 22:00","1960","06","30","22:00","17.2","","11.1","","68","","36","","14","","25.0","","99.32","","","","","","Mostly Cloudy"
"1960-06-30 23:00","1960","06","30","23:00","16.1","","11.1","","73","","36","","14","","25.0","","99.32","","","","","","Mostly Cloudy"
