"Station Name","TORONTO INTL A"
"Province","ONTARIO"
"Latitude","43.68"
"Longitude","-79.63"
"Elevation","173.40"
"Climate Identifier","6158731"
"WMO Identifier","71624"
"TC Identifier","YYZ"
"All times are specified in Local Standard Time (LST). Add 1 hour to adjust for Daylight Saving Time where and when it is observed."

"Legend"
"E","Estimated"
"M","Missing"
"NA","Not Available"

"Date/Time","Year","Month","Day","Time","Temp (°C)","Temp Flag","Dew Point Temp (°C)","Dew Point Temp Flag","Rel Hum (%)","Rel Hum Flag","Wind Dir (10s deg)","Wind Dir Flag","Wind Spd (km/h)","Wind Spd Flag","Visibility (km)","Visibility Flag","Stn Press (kPa)","Stn Press Flag","Hmdx","Hmdx Flag","Wind Chill","Wind Chill Flag","Weather"
"2017-05-01 00:00","2017","05","01","00:00","5.1","","4.5","","96","","11","","9","","9.7","","99.15","","","","","","Rain"
"2017-05-01 01:00","2017","05","01","01:00","5.0","","4.4","","96","","9","","11","","12.9","","98.95","","","","","","Rain"
"2017-05-01 02:00","2017","05","01","02:00","5.5","","4.9","","96","","5","","7","","9.7","","98.84","","","","","","Rain"
"2017-05-01 03:00","2017","05","01","03:00","5.8","","5.2","","96","","9","","8","","9.7","","98.84","","","","","","Rain"
"2017-05-01 04:00","2017","05","01","04:00","5.9","","5.5","","97","","11","","6","","8.1","","98.78","","","","","","Fog"
"2017-05-01 05:00","2017","05","01","05:00","6.3","","5.9","","97","","11","","9","","2.0","","98.71","","","","","","Fog"
"2017-05-01 06:00","2017","05","01","06:00","6.5","","6.1","","97","","11","","8","","0.4","","98.69","","","","","","Fog"
"2017-05-01 07:00","2017","05","01","07:00","6.8","","6.5","","98","","12","","8","","0.4","","98.72","","","","","","Fog"
"2017-05-01 08:00","2017","05","01","08:00","7.1","","6.8","","98","","11","","14","","0.2","","98.71","","","","","","Rain,Fog"
"2017-05-01 09:00","2017","05","01","09:00","7.6","","7.3","","98","","11","","13","","6.4","","98.59","","","","","","Rain,Fog"
"2017-05-01 10:00","2017","05","01","10:00","8.2","","7.9","","98","","12","","14","","6.4","","98.49","","","","","","Rain,Fog"
"2017-05-01 11:00","2017","05","01","11:00","8.8","","8.5","","98","","9","","10","","6.4","","98.41","","","","","","Rain,Fog"
"2017-05-01 12:00","2017","05","01","12:00","9.0","","8.7","","98","","15","","5","","6.4","","98.29","","","","","","Rain,Fog"
"2017-05-01 13:00","2017","05","01","13:00","9.8","","9.5","","98","","12","","4","","6.4","","98.10","","","","","","Rain,Fog"
"2017-05-01 14:00","2017","05","01","14:00","9.2","","8.9","","98","","32","","5","","6.4","","98.07","","","","","","Rain,Fog"
"2017-05-01 15:00","2017","05","01","15:00","10.7","","10.4","","98","","11","","16","","4.0","","97.90","","","","","","Thunderstorms,Rain,Fog"
"2017-05-01 16:00","2017","05","01","16:00","11.6","","11.5","","99","","13","","15","","9.7","","97.73","","","","","","Fog"
"2017-05-01 17:00","2017","05","01","17:00","12.5","","12.4","","99","","14","","21","","12.9","","97.68","","","","","","NA"
"2017-05-01 18:00","2017","05","01","18:00","12.8","","12.7","","99","","17","","11","","16.1","","97.70","","","","","","NA"
"2017-05-01 19:00","2017","05","01","19:00","13.8","","13.5","","98","","20","","13","","24.1","","97.67","","","","","","Mostly Cloudy"
"2017-05-01 20:00","2017","05","01","20:00","14.6","","12.1","","85","","22","","21","","24.1","","97.71","","","","","","NA"
"2017-05-01 21:00","2017","05","01","21:00","14.4","","10.5","","77","","23","","23","","24.1","","97.79","","","","","","NA"
"2017-05-01 22:00","2017","05","01","22:00","13.4","","9.3","","76","","23","","24","","24.1","","97.81","","","","","","Mainly Clear"
"2017-05-01 23:00","2017","05","01","23:00","12.2","","6.9","","70","","25","","28","","24.1","","97.87","","","","","","NA"
"2017-05-02 00:00","2017","05","02","00:00","11.5","","7.8","","78","","24","","16","","24.1","","97.88","","","","","","NA"
"2017-05-02 01:00","2017","05","02","01:00","11.0","","7.0","","76","","22","","19","","24.1","","97.91","","","","","","Mainly Clear"
"2017-05-02 02:00","2017","05","02","02:00","10.0","","6.2","","77","","22","","19","","24.1","","97.94","","","","","","NA"
"2017-05-02 03:00","2017","05","02","03:00","8.7","","6.2","","84","","21","","10","","24.1","","97.92","","","","","","NA"
"2017-05-02 04:00","2017","05","02","04:00","8.7","","6.7","","87","","21","","14","","24.1","","97.94","","","","","","Mainly Clear"
"2017-05-02 05:00","2017","05","02","05:00","9.1","","6.4","","83","","21","","21","","24.1","","97.93","","","","","","NA"
"2017-05-02 06:00","2017","05","02","06:00","9.5","","6.4","","81","","19","","18","","24.1","","97.92","","","","","","NA"
"2017-05-02 07:00","2017","05","02","07:00","10.1","","6.5","","78","","20","","14","","24.1","","97.89","","","","","","Cloudy"
"2017-05-02 08:00","2017","05","02","08:00","10.2","","6.2","","76","","21","","32","","24.1","","97.87","","","","","","Rain Showers"
"2017-05-02 09:00","2017","05","02","09:00","10.1","","7.0","","81","","21","","30","","24.1","","97.85","","","","","","Rain Showers"
"2017-05-02 10:00","2017","05","02","10:00","9.8","","7.1","","83","","21","","28","","24.1","","97.81","","","","","","Rain Showers"
"2017-05-02 11:00","2017","05","02","11:00","10.3","","5.7","","73","","23","","35","","24.1","","97.78","","","","","","Rain Showers"
"2017-05-02 12:00","2017","05","02","12:00","9.5","","6.1","","79","","22","","29","","24.1","","97.79","","","","","","Rain Showers"
"2017-05-02 13:00","2017","05","02","13:00","8.9","","5.8","","81","","25","","38","","24.1","","97.81","","","","","","Rain Showers"
"2017-05-02 14:00","2017","05","02","14:00","10.0","","4.4","","68","","25","","33","","24.1","","97.89","","","","","","Rain Showers"
"2017-05-02 15:00","2017","05","02","15:00","9.3","","4.7","","73","","25","","34","","24.1","","98.00","","","","","","NA"
"2017-05-02 16:00","2017","05","02","16:00","9.1","","4.5","","73","","25","","35","","24.1","","98.08","","","","","","Cloudy"
"2017-05-02 17:00","2017","05","02","17:00","8.0","","6.2","","88","","24","","32","","24.1","","98.19","","","","","","Rain Showers"
"2017-05-02 18:00","2017","05","02","18:00","8.8","","5.4","","79","","25","","32","","24.1","","98.25","","","","","","NA"
"2017-05-02 19:00","2017","05","02","19:00","8.6","","4.8","","77","","26","","35","","24.1","","98.30","","","","","","Mostly Cloudy"
"2017-05-02 20:00","2017","05","02","20:00","8.4","","4.1","","74","","27","","37","","24.1","","98.41","","","","","","NA"
"2017-05-02 21:00","2017","05","02","21:00","7.5","","4.3","","80","","28","","27","","24.1","","98.53","","","","","","Rain Showers"
"2017-05-02 22:00","2017","05","02","22:00","6.4","","1.5","","71","","28","","27","","24.1","","98.60","","","","","","Mostly Cloudy"
"2017-05-02 23:00","2017","05","02","23:00","6.3","","2.2","","75","","28","","25","","24.1","","98.65","","","","","","NA"
"2017-05-03 00:00","2017","05","03","00:00","6.3","","2.4","","76","","29","","32","","24.1","","98.69","","","","","","NA"
"2017-05-03 01:00","2017","05","03","01:00","6.1","","2.9","","80","","30","","23","","24.1","","98.78","","","","","","Mostly Cloudy"
"2017-05-03 02:00","2017","05","03","02:00","5.6","","0.2","","68","","33","","27","","24.1","","98.89","","","","","","NA"
"2017-05-03 03:00","2017","05","03","03:00","4.9","","-0.5","","68","","32","","21","","24.1","","99.01","","","","","","NA"
"2017-05-03 04:00","2017","05","03","04:00","5.2","","-1.1","","64","","33","","27","","24.1","","99.14","","","","","","Mostly Cloudy"
"2017-05-03 05:00","2017","05","03","05:00","4.9","","-0.9","","66","","33","","27","","24.1","","99.25","","","","","","NA"
"2017-05-03 06:00","2017","05","03","06:00","4.8","","-0.8","","67","","31","","22","","24.1","","99.36","","","","","","NA"
"2017-05-03 07:00","2017","05","03","07:00","5.5","","-1.0","","63","","33","","30","","24.1","","99.46","","","","","","Mostly Cloudy"
"2017-05-03 08:00","2017","05","03","08:00","6.2","","-1.2","","59","","33","","31","","24.1","","99.57","","","","","","NA"
"2017-05-03 09:00","2017","05","03","09:00","7.6","","-0.1","","58","","35","","20","","24.1","","99.65","","","","","","NA"
"2017-05-03 10:00","2017","05","03","10:00","9.3","","0.5","","54","","34","","17","","24.1","","99.77","","","","","","Mainly Clear"
"2017-05-03 11:00","2017","05","03","11:00","10.9","","-0.2","","46","","31","","21","","24.1","","99.83","","","","","","NA"
"2017-05-03 12:00","2017","05","03","12:00","12.5","","-1.4","","38","","29","","27","","24.1","","99.89","","","","","","NA"
"2017-05-03 13:00","2017","05","03","13:00","12.7","","-0.8","","39","","34","","16","","24.1","","99.88","","","","","","Mainly Clear"
"2017-05-03 14:00","2017","05","03","14:00","14.0","","-1.6","","34","","30","","24","","24.1","","99.91","","","","","","NA"
"2017-05-03 15:00","2017","05","03","15:00","14.4","","-3.8","","28","","32","","17","","24.1","","99.86","","","","","","NA"
"2017-05-03 16:00","2017","05","03","16:00","14.3","","-2.1","","32","","1","","18","","24.1","","99.85","","","","","","Mostly Cloudy"
"2017-05-03 17:00","2017","05","03","17:00","14.3","","-1.7","","33","","2","","14","","24.1","","99.88","","","","","","NA"
"2017-05-03 18:00","2017","05","03","18:00","13.1","","-2.4","","34","","35","","18","","24.1","","99.93","","","","","","NA"
"2017-05-03 19:00","2017","05","03","19:00","11.3","","-6.1","","29","","36","","17","","24.1","","100.02","","","","","","Mostly Cloudy"
"2017-05-03 20:00","2017","05","03","20:00","10.1","","-5.0","","34","","1","","14","","24.1","","100.13","","","","","","NA"
"2017-05-03 21:00","2017","05","03","21:00","9.5","","-7.2","","30","","35","","13","","24.1","","100.18","","","","","","NA"
"2017-05-03 22:00","2017","05","03","22:00","8.5","","-6.9","","33","","36","","13","","24.1","","100.19","","","","","","Mostly Cloudy"
"2017-05-03 23:00","2017","05","03","23:00","8.1","","-7.6","","32","","36","","17","","24.1","","100.19","","","","","","NA"
"2017-05-04 00:00","2017","05","04","00:00","7.1","","-4.6","","43","","2","","8","","24.1","","100.23","","","","","","NA"
"2017-05-04 01:00","2017","05","04","01:00","5.9","","-3.5","","51","","1","","8","","24.1","","100.12","","","","","","Mostly Cloudy"
"2017-05-04 02:00","2017","05","04","02:00","6.0","","-3.4","","51","","4","","7","","24.1","","100.05","","","","","","NA"
"2017-05-04 03:00","2017","05","04","03:00","4.6","","-1.4","","65","","22","","4","","24.1","","100.07","","","","","","NA"
"2017-05-04 04:00","2017","05","04","04:00","5.4","","-1.3","","62","","26","","3","","24.1","","100.09","","","","","","Cloudy"
"2017-05-04 05:00","2017","05","04","05:00","6.2","","-2.9","","52","","0","","1","","24.1","","100.09","","","","","","NA"
"2017-05-04 06:00","2017","05","04","06:00","6.7","","-5.6","","41","","6","","10","","24.1","","100.10","","","","","","NA"
"2017-05-04 07:00","2017","05","04","07:00","7.5","","-4.9","","41","","8","","10","","24.1","","100.11","","","","","","Cloudy"
"2017-05-04 08:00","2017","05","04","08:00","8.7","","-0.6","","52","","13","","16","","24.1","","100.10","","","","","","NA"
"2017-05-04 09:00","2017","05","04","09:00","8.5","","1.7","","62","","14","","12","","24.1","","100.04","","","","","","NA"
"2017-05-04 10:00","2017","05","04","10:00","9.5","","0.9","","55","","10","","16","","24.1","","99.94","","","","","","Cloudy"
"2017-05-04 11:00","2017","05","04","11:00","9.9","","0.3","","51","","13","","19","","24.1","","99.92","","","","","","NA"
"2017-05-04 12:00","2017","05","04","12:00","10.0","","1.2","","54","","14","","14","","24.1","","99.87","","","","","","Rain"
"2017-05-04 13:00","2017","05","04","13:00","8.9","","2.9","","66","","12","","14","","16.1","","99.80","","","","","","Rain"
"2017-05-04 14:00","2017","05","04","14:00","7.8","","5.3","","84","","8","","9","","9.7","","99.77","","","","","","Rain,Fog"
"2017-05-04 15:00","2017","05","04","15:00","7.4","","6.2","","92","","7","","14","","9.7","","99.66","","","","","","Rain,Fog"
"2017-05-04 16:00","2017","05","04","16:00","6.9","","6.0","","94","","7","","18","","8.1","","99.62","","","","","","Rain,Fog"
"2017-05-04 17:00","2017","05","04","17:00","6.9","","6.0","","94","","9","","17","","12.9","","99.64","","","","","","Rain"
"2017-05-04 18:00","2017","05","04","18:00","6.6","","5.9","","95","","8","","26","","12.9","","99.51","","","","","","Rain"
"2017-05-04 19:00","2017","05","04","19:00","6.2","","5.5","","95","","8","","22","","12.9","","99.44","","","","","","Rain"
"2017-05-04 20:00","2017","05","04","20:00","6.1","","5.5","","96","","8","","23","","12.9","","99.41","","","","","","Rain"
"2017-05-04 21:00","2017","05","04","21:00","6.3","","5.7","","96","","8","","26","","12.9","","99.36","","","","","","Rain"
"2017-05-04 22:00","2017","05","04","22:00","6.4","","5.8","","96","","8","","23","","12.9","","99.25","","","","","","Rain"
"2017-05-04 23:00","2017","05","04","23:00","6.5","","5.9","","96","","8","","26","","12.9","","99.13","","","","","","Rain"
"2017-05-05 00:00","2017","05","05","00:00","6.7","","6.1","","96","","8","","21","","9.7","","99.08","","","","","","Rain,Fog"
"2017-05-05 01:00","2017","05","05","01:00","6.8","","6.2","","96","","7","","20","","9.7","","98.99","","","","","","Rain,Fog"
"2017-05-05 02:00","2017","05","05","02:00","7.0","","6.6","","97","","7","","14","","9.7","","98.87","","","","","","Rain,Fog"
"2017-05-05 03:00","2017","05","05","03:00","6.9","","6.6","","98","","5","","16","","9.7","","98.81","","","","","","Rain,Fog"
"2017-05-05 04:00","2017","05","05","04:00","7.1","","6.8","","98","","4","","14","","9.7","","98.75","","","","","","Rain,Fog"
"2017-05-05 05:00","2017","05","05","05:00","6.7","","6.4","","98","","1","","16","","9.7","","98.66","","","","","","Rain,Fog"
"2017-05-05 06:00","2017","05","05","06:00","6.7","","6.4","","98","","1","","16","","9.7","","98.63","","","","","","Rain,Fog"
"2017-05-05 07:00","2017","05","05","07:00","7.1","","6.8","","98","","2","","15","","9.7","","98.62","","","","","","Rain,Fog"
"2017-05-05 08:00","2017","05","05","08:00","7.5","","7.2","","98","","2","","16","","9.7","","98.55","","","","","","Rain,Fog"
"2017-05-05 09:00","2017","05","05","09:00","7.5","","7.2","","98","","3","","21","","9.7","","98.44","","","","","","Rain,Fog"
"2017-05-05 10:00","2017","05","05","10:00","7.9","","7.6","","98","","6","","17","","9.7","","98.36","","","","","","Rain,Fog"
"2017-05-05 11:00","2017","05","05","11:00","8.2","","7.9","","98","","4","","21","","9.7","","98.23","","","","","","Rain,Fog"
"2017-05-05 12:00","2017","05","05","12:00","8.6","","8.3","","98","","6","","12","","9.7","","98.22","","","","","","Rain,Fog"
"2017-05-05 13:00","2017","05","05","13:00","8.9","","8.6","","98","","3","","18","","9.7","","98.09","","","","","","Rain,Fog"
"2017-05-05 14:00","2017","05","05","14:00","9.2","","8.6","","96","","2","","21","","9.7","","97.99","","","","","","Rain,Fog"
"2017-05-05 15:00","2017","05","05","15:00","9.4","","9.0","","97","","2","","21","","4.8","","97.93","","","","","","Rain,Fog"
"2017-05-05 16:00","2017","05","05","16:00","9.5","","9.1","","97","","1","","23","","4.0","","97.86","","","","","","Rain,Fog"
"2017-05-05 17:00","2017","05","05","17:00","9.1","","8.5","","96","","36","","28","","8.1","","97.85","","","","","","Rain,Fog"
"2017-05-05 18:00","2017","05","05","18:00","7.8","","7.2","","96","","36","","35","","2.8","","97.89","","","","","","Rain,Fog"
"2017-05-05 19:00","2017","05","05","19:00","7.3","","6.4","","94","","36","","34","","9.7","","97.90","","","","","","Rain,Fog"
"2017-05-05 20:00","2017","05","05","20:00","6.8","","5.6","","92","","36","","36","","12.9","","97.84","","","","","","Rain"
"2017-05-05 21:00","2017","05","05","21:00","6.8","","5.6","","92","","36","","32","","19.3","","97.83","","","","","","NA"
"2017-05-05 22:00","2017","05","05","22:00","6.5","","5.3","","92","","36","","29","","24.1","","97.81","","","","","","Cloudy"
"2017-05-05 23:00","2017","05","05","23:00","6.4","","5.2","","92","","36","","25","","19.3","","97.74","","","","","","Drizzle"
"2017-05-06 00:00","2017","05","06","00:00","6.3","","5.0","","91","","35","","28","","24.1","","97.71","","","","","","NA"
"2017-05-06 01:00","2017","05","06","01:00","6.1","","4.6","","90","","36","","31","","24.1","","97.57","","","","","","Cloudy"
"2017-05-06 02:00","2017","05","06","02:00","6.0","","4.5","","90","","35","","29","","24.1","","97.53","","","","","","NA"
"2017-05-06 03:00","2017","05","06","03:00","5.7","","4.4","","91","","34","","28","","24.1","","97.50","","","","","","NA"
"2017-05-06 04:00","2017","05","06","04:00","5.5","","4.3","","92","","34","","29","","24.1","","97.51","","","","","","Cloudy"
"2017-05-06 05:00","2017","05","06","05:00","5.2","","4.5","","95","","34","","23","","9.7","","97.52","","","","","","Drizzle,Fog"
"2017-05-06 06:00","2017","05","06","06:00","5.3","","4.3","","93","","33","","30","","16.1","","97.49","","","","","","NA"
"2017-05-06 07:00","2017","05","06","07:00","5.7","","4.4","","91","","34","","26","","24.1","","97.49","","","","","","Cloudy"
"2017-05-06 08:00","2017","05","06","08:00","6.2","","4.2","","87","","34","","31","","24.1","","97.47","","","","","","NA"
"2017-05-06 09:00","2017","05","06","09:00","6.2","","4.5","","89","","35","","28","","24.1","","97.48","","","","","","NA"
"2017-05-06 10:00","2017","05","06","10:00","6.6","","4.6","","87","","34","","36","","24.1","","97.44","","","","","","Drizzle"
"2017-05-06 11:00","2017","05","06","11:00","6.8","","4.8","","87","","34","","31","","24.1","","97.46","","","","","","Drizzle"
"2017-05-06 12:00","2017","05","06","12:00","6.9","","5.5","","91","","33","","28","","24.1","","97.45","","","","","","Drizzle"
"2017-05-06 13:00","2017","05","06","13:00","6.9","","5.2","","89","","33","","27","","24.1","","97.45","","","","","","Drizzle"
"2017-05-06 14:00","2017","05","06","14:00","6.8","","5.4","","91","","32","","28","","16.1","","97.48","","","","","","Drizzle"
"2017-05-06 15:00","2017","05","06","15:00","6.4","","4.4","","87","","33","","36","","16.1","","97.53","","","","","","Drizzle"
"2017-05-06 16:00","2017","05","06","16:00","6.5","","3.7","","82","","33","","43","","16.1","","97.57","","","","","","Cloudy"
"2017-05-06 17:00","2017","05","06","17:00","6.1","","3.1","","81","","33","","39","","24.1","","97.63","","","","","","NA"
"2017-05-06 18:00","2017","05","06","18:00","5.8","","2.8","","81","","34","","36","","24.1","","97.67","","","","","","NA"
"2017-05-06 19:00","2017","05","06","19:00","5.3","","3.2","","86","","34","","36","","24.1","","97.75","","","","","","Cloudy"
"2017-05-06 20:00","2017","05","06","20:00","4.9","","3.4","","90","","34","","35","","16.1","","97.83","","","","","","Drizzle"
"2017-05-06 21:00","2017","05","06","21:00","5.1","","3.9","","92","","33","","28","","9.7","","97.88","","","","","","Drizzle,Fog"
"2017-05-06 22:00","2017","05","06","22:00","5.3","","3.6","","89","","34","","32","","16.1","","97.91","","","","","","Rain"
"2017-05-06 23:00","2017","05","06","23:00","5.2","","3.4","","88","","34","","34","","24.1","","97.93","","","","","","Rain"
"2017-05-07 00:00","2017","05","07","00:00","5.2","","2.7","","84","","34","","34","","24.1","","97.96","","","","","","Rain"
"2017-05-07 01:00","2017","05","07","01:00","4.7","","2.4","","85","","34","","31","","24.1","","98.00","","","","","","Rain"
"2017-05-07 02:00","2017","05","07","02:00","4.4","","1.8","","83","","34","","32","","24.1","","98.03","","","","","","Rain"
"2017-05-07 03:00","2017","05","07","03:00","4.2","","1.9","","85","","33","","40","","24.1","","98.09","","","","","","Rain"
"2017-05-07 04:00","2017","05","07","04:00","3.8","","1.0","","82","","33","","29","","24.1","","98.15","","","","","","Rain"
"2017-05-07 05:00","2017","05","07","05:00","3.6","","0.3","","79","","32","","24","","24.1","","98.21","","","","","","NA"
"2017-05-07 06:00","2017","05","07","06:00","4.1","","-0.7","","71","","32","","23","","24.1","","98.29","","","","","","NA"
"2017-05-07 07:00","2017","05","07","07:00","4.6","","-1.6","","64","","32","","28","","24.1","","98.36","","","","","","Mostly Cloudy"
"2017-05-07 08:00","2017","05","07","08:00","4.5","","-3.1","","58","","32","","36","","24.1","","98.42","","","","","","NA"
"2017-05-07 09:00","2017","05","07","09:00","5.8","","-1.6","","59","","33","","26","","24.1","","98.46","","","","","","NA"
"2017-05-07 10:00","2017","05","07","10:00","6.8","","-1.9","","54","","32","","30","","24.1","","98.53","","","","","","Mostly Cloudy"
"2017-05-07 11:00","2017","05","07","11:00","7.2","","-1.0","","56","","32","","29","","24.1","","98.56","","","","","","NA"
"2017-05-07 12:00","2017","05","07","12:00","7.7","","-0.3","","57","","36","","25","","24.1","","98.55","","","","","","NA"
"2017-05-07 13:00","2017","05","07","13:00","9.6","","0.5","","53","","33","","30","","24.1","","98.58","","","","","","Mostly Cloudy"
"2017-05-07 14:00","2017","05","07","14:00","10.3","","0.4","","50","","32","","31","","24.1","","98.61","","","","","","NA"
"2017-05-07 15:00","2017","05","07","15:00","9.7","","0.4","","52","","32","","25","","24.1","","98.66","","","","","","NA"
"2017-05-07 16:00","2017","05","07","16:00","9.1","","-0.8","","50","","31","","32","","24.1","","98.72","","","","","","Mostly Cloudy"
"2017-05-07 17:00","2017","05","07","17:00","9.2","","-1.8","","46","","31","","34","","24.1","","98.79","","","","","","NA"
"2017-05-07 18:00","2017","05","07","18:00","8.6","","-3.6","","42","","35","","18","","24.1","","98.86","","","","","","NA"
"2017-05-07 19:00","2017","05","07","19:00","8.6","","-1.5","","49","","31","","27","","24.1","","98.93","","","","","","Mostly Cloudy"
"2017-05-07 20:00","2017","05","07","20:00","8.0","","-1.5","","51","","30","","17","","24.1","","99.00","","","","","","NA"
"2017-05-07 21:00","2017","05","07","21:00","7.0","","-3.3","","48","","29","","22","","24.1","","99.06","","","","","","NA"
"2017-05-07 22:00","2017","05","07","22:00","6.1","","-3.5","","50","","30","","22","","24.1","","99.08","","","","","","Mostly Cloudy"
"2017-05-07 23:00","2017","05","07","23:00","5.6","","-3.0","","54","","32","","21","","24.1","","99.08","","","","","","NA"
"2017-05-08 00:00","2017","05","08","00:00","5.4","","-3.2","","54","","31","","17","","24.1","","99.08","","","","","","NA"
"2017-05-08 01:00","2017","05","08","01:00","4.5","","-2.6","","60","","31","","18","","24.1","","99.08","","","","","","Mostly Cloudy"
"2017-05-08 02:00","2017","05","08","02:00","3.3","","-2.7","","65","","31","","15","","24.1","","99.10","","","","","","NA"
"2017-05-08 03:00","2017","05","08","03:00","2.5","","-2.6","","69","","33","","16","","24.1","","99.11","","","","","","NA"
"2017-05-08 04:00","2017","05","08","04:00","2.4","","-3.1","","67","","33","","17","","24.1","","99.15","","","","","","Clear"
"2017-05-08 05:00","2017","05","08","05:00","2.1","","-3.4","","67","","33","","16","","24.1","","99.22","","","","","","NA"
"2017-05-08 06:00","2017","05","08","06:00","3.0","","-3.4","","63","","32","","18","","24.1","","99.28","","","","","","NA"
"2017-05-08 07:00","2017","05","08","07:00","4.6","","-2.1","","62","","33","","18","","24.1","","99.31","","","","","","Mainly Clear"
"2017-05-08 08:00","2017","05","08","08:00","6.0","","-1.2","","60","","32","","10","","24.1","","99.30","","","","","","NA"
"2017-05-08 09:00","2017","05","08","09:00","7.4","","-3.8","","45","","31","","19","","24.1","","99.29","","","","","","NA"
"2017-05-08 10:00","2017","05","08","10:00","8.3","","-7.0","","33","","30","","26","","24.1","","99.29","","","","","","Mainly Clear"
"2017-05-08 11:00","2017","05","08","11:00","9.2","","-5.5","","35","","29","","33","","24.1","","99.28","","","","","","NA"
"2017-05-08 12:00","2017","05","08","12:00","9.7","","-6.6","","31","","31","","31","","24.1","","99.24","","","","","","NA"
"2017-05-08 13:00","2017","05","08","13:00","10.7","","-5.7","","31","","32","","26","","24.1","","99.23","","","","","","Mainly Clear"
"2017-05-08 14:00","2017","05","08","14:00","10.9","","-5.6","","31","","31","","36","","24.1","","99.22","","","","","","NA"
"2017-05-08 15:00","2017","05","08","15:00","11.1","","-5.4","","31","","29","","32","","24.1","","99.22","","","","","","NA"
"2017-05-08 16:00","2017","05","08","16:00","9.8","","-5.3","","34","","29","","30","","24.1","","99.23","","","","","","Mostly Cloudy"
"2017-05-08 17:00","2017","05","08","17:00","9.6","","-6.7","","31","","31","","27","","24.1","","99.25","","","","","","NA"
"2017-05-08 18:00","2017","05","08","18:00","9.2","","-7.5","","30","","31","","24","","24.1","","99.24","","","","","","NA"
"2017-05-08 19:00","2017","05","08","19:00","8.1","","-10.3","","26","","30","","17","","24.1","","99.25","","","","","","Mostly Cloudy"
"2017-05-08 20:00","2017","05","08","20:00","6.9","","-7.5","","35","","29","","18","","24.1","","99.33","","","","","","NA"
"2017-05-08 21:00","2017","05","08","21:00","6.7","","-7.7","","35","","31","","17","","24.1","","99.39","","","","","","NA"
"2017-05-08 22:00","2017","05","08","22:00","5.9","","-6.4","","41","","31","","21","","24.1","","99.43","","","","","","Mostly Cloudy"
"2017-05-08 23:00","2017","05","08","23:00","6.0","","-7.3","","38","","34","","20","","24.1","","99.45","","","","","","NA"
"2017-05-09 00:00","2017","05","09","00:00","6.0","","-6.9","","39","","32","","13","","24.1","","99.39","","","","","","NA"
"2017-05-09 01:00","2017","05","09","01:00","5.8","","-7.1","","39","","0","","1","","24.1","","99.30","","","","","","Mostly Cloudy"
"2017-05-09 02:00","2017","05","09","02:00","5.7","","-5.0","","46","","25","","5","","24.1","","99.29","","","","","","NA"
"2017-05-09 03:00","2017","05","09","03:00","4.4","","-3.1","","58","","27","","10","","24.1","","99.30","","","","","","NA"
"2017-05-09 04:00","2017","05","09","04:00","3.5","","-2.9","","63","","27","","10","","24.1","","99.34","","","","","","Mostly Cloudy"
"2017-05-09 05:00","2017","05","09","05:00","2.5","","-3.2","","66","","26","","8","","24.1","","99.39","","","","","","NA"
"2017-05-09 06:00","2017","05","09","06:00","4.4","","-2.7","","60","","36","","13","","24.1","","99.44","","","","","","NA"
"2017-05-09 07:00","2017","05","09","07:00","5.4","","-2.4","","57","","36","","10","","24.1","","99.49","","","","","","Mostly Cloudy"
"2017-05-09 08:00","2017","05","09","08:00","6.5","","-0.7","","60","","1","","10","","24.1","","99.52","","","","","","NA"
"2017-05-09 09:00","2017","05","09","09:00","7.2","","-1.2","","55","","36","","4","","24.1","","99.53","","","","","","NA"
"2017-05-09 10:00","2017","05","09","10:00","8.6","","-0.9","","51","","36","","1","","24.1","","99.52","","","","","","Mainly Clear"
"2017-05-09 11:00","2017","05","09","11:00","9.6","","-0.3","","50","","15","","8","","24.1","","99.53","","","","","","NA"
"2017-05-09 12:00","2017","05","09","12:00","8.8","","1.0","","58","","15","","19","","24.1","","99.49","","","","","","NA"
"2017-05-09 13:00","2017","05","09","13:00","10.6","","2.2","","56","","13","","18","","24.1","","99.46","","","","","","Mostly Cloudy"
"2017-05-09 14:00","2017","05","09","14:00","10.0","","0.4","","51","","14","","15","","24.1","","99.47","","","","","","NA"
"2017-05-09 15:00","2017","05","09","15:00","10.9","","0.9","","50","","15","","16","","24.1","","99.44","","","","","","NA"
"2017-05-09 16:00","2017","05","09","16:00","10.0","","0.1","","50","","14","","13","","24.1","","99.46","","","","","","Mostly Cloudy"
"2017-05-09 17:00","2017","05","09","17:00","9.0","","-0.6","","51","","16","","10","","24.1","","99.52","","","","","","NA"
"2017-05-09 18:00","2017","05","09","18:00","8.4","","-0.4","","54","","14","","11","","24.1","","99.55","","","","","","NA"
"2017-05-09 19:00","2017","05","09","19:00","8.1","","0.1","","57","","13","","8","","24.1","","99.56","","","","","","Mostly Cloudy"
"2017-05-09 20:00","2017","05","09","20:00","7.6","","0.1","","59","","14","","9","","24.1","","99.61","","","","","","NA"
"2017-05-09 21:00","2017","05","09","21:00","6.1","","-1.1","","60","","9","","10","","24.1","","99.63","","","","","","NA"
"2017-05-09 22:00","2017","05","09","22:00","5.9","","-1.3","","60","","10","","4","","24.1","","99.67","","","","","","Mostly Cloudy"
"2017-05-09 23:00","2017","05","09","23:00","5.1","","-0.7","","66","","8","","6","","24.1","","99.71","","","","","","NA"
"2017-05-10 00:00","2017","05","10","00:00","4.8","","-0.8","","67","","8","","7","","24.1","","99.71","","","","","","NA"
"2017-05-10 01:00","2017","05","10","01:00","4.2","","-1.0","","69","","10","","8","","24.1","","99.69","","","","","","Mostly Cloudy"
"2017-05-10 02:00","2017","05","10","02:00","4.2","","-1.0","","69","","6","","7","","24.1","","99.71","","","","","","NA"
"2017-05-10 03:00","2017","05","10","03:00","4.5","","-0.3","","71","","7","","11","","24.1","","99.73","","","","","","NA"
"2017-05-10 04:00","2017","05","10","04:00","4.5","","-0.1","","72","","9","","12","","24.1","","99.75","","","","","","Mostly Cloudy"
"2017-05-10 05:00","2017","05","10","05:00","4.5","","0.5","","75","","7","","9","","24.1","","99.81","","","","","","NA"
"2017-05-10 06:00","2017","05","10","06:00","4.8","","0.2","","72","","8","","13","","24.1","","99.86","","","","","","NA"
"2017-05-10 07:00","2017","05","10","07:00","6.4","","0.5","","66","","10","","8","","24.1","","99.91","","","","","","Mostly Cloudy"
"2017-05-10 08:00","2017","05","10","08:00","7.4","","-0.3","","58","","14","","12","","24.1","","99.92","","","","","","NA"
"2017-05-10 09:00","2017","05","10","09:00","8.1","","1.1","","61","","13","","12","","24.1","","99.91","","","","","","NA"
"2017-05-10 10:00","2017","05","10","10:00","9.2","","2.3","","62","","10","","8","","24.1","","99.88","","","","","","Mostly Cloudy"
"2017-05-10 11:00","2017","05","10","11:00","9.9","","1.3","","55","","15","","16","","24.1","","99.91","","","","","","NA"
"2017-05-10 12:00","2017","05","10","12:00","10.0","","2.4","","59","","15","","12","","24.1","","99.87","","","","","","NA"
"2017-05-10 13:00","2017","05","10","13:00","10.0","","1.4","","55","","14","","15","","24.1","","99.87","","","","","","Mainly Clear"
"2017-05-10 14:00","2017","05","10","14:00","10.4","","1.8","","55","","16","","10","","24.1","","99.84","","","","","","NA"
"2017-05-10 15:00","2017","05","10","15:00","9.9","","0.5","","52","","14","","20","","24.1","","99.82","","","","","","NA"
"2017-05-10 16:00","2017","05","10","16:00","9.6","","0.5","","53","","15","","21","","24.1","","99.84","","","","","","Mostly Cloudy"
"2017-05-10 17:00","2017","05","10","17:00","9.2","","0.2","","53","","13","","18","","24.1","","99.80","","","","","","NA"
"2017-05-10 18:00","2017","05","10","18:00","8.4","","-1.4","","50","","12","","16","","24.1","","99.82","","","","","","NA"
"2017-05-10 19:00","2017","05","10","19:00","8.1","","-1.4","","51","","13","","8","","24.1","","99.77","","","","","","Cloudy"
"2017-05-10 20:00","2017","05","10","20:00","8.0","","-1.2","","52","","10","","9","","24.1","","99.77","","","","","","NA"
"2017-05-10 21:00","2017","05","10","21:00","7.9","","-1.1","","53","","9","","5","","24.1","","99.78","","","","","","NA"
"2017-05-10 22:00","2017","05","10","22:00","8.0","","-0.7","","54","","3","","4","","24.1","","99.78","","","","","","Mainly Clear"
"2017-05-10 23:00","2017","05","10","23:00","7.9","","-0.8","","54","","9","","4","","24.1","","99.74","","","","","","NA"
"2017-05-11 00:00","2017","05","11","00:00","7.7","","-0.3","","57","","8","","8","","24.1","","99.73","","","","","","NA"
"2017-05-11 01:00","2017","05","11","01:00","7.2","","-0.5","","58","","9","","7","","24.1","","99.65","","","","","","Cloudy"
"2017-05-11 02:00","2017","05","11","02:00","7.5","","-0.7","","56","","7","","8","","24.1","","99.61","","","","","","NA"
"2017-05-11 03:00","2017","05","11","03:00","7.5","","-1.2","","54","","7","","10","","24.1","","99.58","","","","","","NA"
"2017-05-11 04:00","2017","05","11","04:00","6.8","","-1.4","","56","","7","","11","","24.1","","99.55","","","","","","Mostly Cloudy"
"2017-05-11 05:00","2017","05","11","05:00","6.8","","-1.9","","54","","7","","13","","24.1","","99.50","","","","","","NA"
"2017-05-11 06:00","2017","05","11","06:00","7.1","","-1.3","","55","","5","","13","","24.1","","99.56","","","","","","NA"
"2017-05-11 07:00","2017","05","11","07:00","7.7","","-0.5","","56","","7","","18","","24.1","","99.57","","","","","","Cloudy"
"2017-05-11 08:00","2017","05","11","08:00","8.3","","-0.4","","54","","7","","15","","24.1","","99.63","","","","","","NA"
"2017-05-11 09:00","2017","05","11","09:00","9.6","","0.5","","53","","8","","22","","24.1","","99.59","","","","","","NA"
"2017-05-11 10:00","2017","05","11","10:00","10.5","","0.0","","48","","8","","26","","24.1","","99.57","","","","","","Mostly Cloudy"
"2017-05-11 11:00","2017","05","11","11:00","10.8","","0.8","","50","","9","","25","","24.1","","99.58","","","","","","NA"
"2017-05-11 12:00","2017","05","11","12:00","11.2","","0.9","","49","","8","","28","","24.1","","99.49","","","","","","NA"
"2017-05-11 13:00","2017","05","11","13:00","11.8","","0.6","","46","","8","","21","","24.1","","99.54","","","","","","Mostly Cloudy"
"2017-05-11 14:00","2017","05","11","14:00","12.1","","0.9","","46","","9","","18","","24.1","","99.53","","","","","","NA"
"2017-05-11 15:00","2017","05","11","15:00","12.8","","0.6","","43","","9","","24","","24.1","","99.48","","","","","","NA"
"2017-05-11 16:00","2017","05","11","16:00","13.6","","1.0","","42","","10","","21","","24.1","","99.49","","","","","","Mostly Cloudy"
"2017-05-11 17:00","2017","05","11","17:00","14.0","","2.0","","44","","8","","18","","24.1","","99.49","","","","","","NA"
"2017-05-11 18:00","2017","05","11","18:00","13.4","","1.8","","45","","10","","13","","24.1","","99.48","","","","","","NA"
"2017-05-11 19:00","2017","05","11","19:00","12.1","","0.3","","44","","13","","12","","24.1","","99.53","","","","","","Mainly Clear"
"2017-05-11 20:00","2017","05","11","20:00","11.2","","0.9","","49","","13","","5","","24.1","","99.58","","","","","","NA"
"2017-05-11 21:00","2017","05","11","21:00","10.5","","1.4","","53","","10","","4","","24.1","","99.59","","","","","","NA"
"2017-05-11 22:00","2017","05","11","22:00","10.2","","1.6","","55","","6","","3","","24.1","","99.60","","","","","","Mainly Clear"
"2017-05-11 23:00","2017","05","11","23:00","9.8","","1.5","","56","","8","","4","","24.1","","99.60","","","","","","NA"
"2017-05-12 00:00","2017","05","12","00:00","9.4","","1.8","","59","","11","","5","","24.1","","99.55","","","","","","NA"
"2017-05-12 01:00","2017","05","12","01:00","8.2","","2.3","","66","","36","","2","","24.1","","99.52","","","","","","Mainly Clear"
"2017-05-12 02:00","2017","05","12","02:00","6.8","","1.7","","70","","28","","4","","24.1","","99.53","","","","","","NA"
"2017-05-12 03:00","2017","05","12","03:00","7.1","","2.0","","70","","36","","3","","24.1","","99.53","","","","","","NA"
"2017-05-12 04:00","2017","05","12","04:00","6.5","","2.0","","73","","36","","3","","24.1","","99.54","","","","","","Mainly Clear"
"2017-05-12 05:00","2017","05","12","05:00","5.9","","2.4","","78","","2","","10","","24.1","","99.54","","","","","","NA"
"2017-05-12 06:00","2017","05","12","06:00","7.2","","2.9","","74","","1","","11","","24.1","","99.54","","","","","","NA"
"2017-05-12 07:00","2017","05","12","07:00","10.2","","4.4","","67","","5","","9","","24.1","","99.56","","","","","","Mainly Clear"
"2017-05-12 08:00","2017","05","12","08:00","11.9","","4.9","","62","","5","","13","","24.1","","99.53","","","","","","NA"
"2017-05-12 09:00","2017","05","12","09:00","12.3","","4.8","","60","","11","","9","","24.1","","99.55","","","","","","NA"
"2017-05-12 10:00","2017","05","12","10:00","12.6","","5.1","","60","","8","","11","","24.1","","99.51","","","","","","Mostly Cloudy"
"2017-05-12 11:00","2017","05","12","11:00","14.2","","5.6","","56","","5","","9","","24.1","","99.44","","","","","","NA"
"2017-05-12 12:00","2017","05","12","12:00","14.1","","6.5","","60","","16","","14","","24.1","","99.43","","","","","","NA"
"2017-05-12 13:00","2017","05","12","13:00","13.9","","7.3","","64","","17","","10","","24.1","","99.38","","","","","","Mostly Cloudy"
"2017-05-12 14:00","2017","05","12","14:00","13.1","","6.7","","65","","14","","13","","24.1","","99.35","","","","","","NA"
"2017-05-12 15:00","2017","05","12","15:00","13.3","","6.2","","62","","15","","13","","24.1","","99.30","","","","","","NA"
"2017-05-12 16:00","2017","05","12","16:00","12.6","","6.0","","64","","16","","8","","24.1","","99.29","","","","","","Mostly Cloudy"
"2017-05-12 17:00","2017","05","12","17:00","11.1","","5.2","","67","","16","","13","","24.1","","99.31","","","","","","NA"
"2017-05-12 18:00","2017","05","12","18:00","11.1","","5.5","","68","","21","","5","","24.1","","99.31","","","","","","Rain Showers"
"2017-05-12 19:00","2017","05","12","19:00","11.4","","4.9","","64","","16","","5","","24.1","","99.28","","","","","","Cloudy"
"2017-05-12 20:00","2017","05","12","20:00","11.6","","4.4","","61","","36","","2","","24.1","","99.25","","","","","","NA"
"2017-05-12 21:00","2017","05","12","21:00","11.9","","5.8","","66","","25","","3","","24.1","","99.27","","","","","","NA"
"2017-05-12 22:00","2017","05","12","22:00","11.7","","6.5","","70","","29","","5","","24.1","","99.23","","","","","","Cloudy"
"2017-05-12 23:00","2017","05","12","23:00","12.1","","5.8","","65","","1","","8","","24.1","","99.20","","","","","","NA"
"2017-05-13 00:00","2017","05","13","00:00","12.1","","5.5","","64","","32","","6","","24.1","","99.18","","","","","","NA"
"2017-05-13 01:00","2017","05","13","01:00","11.8","","6.1","","68","","5","","4","","24.1","","99.13","","","","","","Cloudy"
"2017-05-13 02:00","2017","05","13","02:00","11.3","","6.5","","72","","22","","4","","24.1","","99.10","","","","","","NA"
"2017-05-13 03:00","2017","05","13","03:00","11.7","","7.1","","73","","36","","8","","24.1","","99.08","","","","","","NA"
"2017-05-13 04:00","2017","05","13","04:00","11.4","","7.5","","77","","3","","9","","24.1","","99.05","","","","","","Cloudy"
"2017-05-13 05:00","2017","05","13","05:00","11.5","","7.3","","75","","6","","4","","12.9","","99.06","","","","","","NA"
"2017-05-13 06:00","2017","05","13","06:00","10.3","","6.8","","79","","14","","8","","19.3","","99.08","","","","","","NA"
"2017-05-13 07:00","2017","05","13","07:00","10.5","","6.1","","74","","14","","5","","19.3","","99.09","","","","","","Mostly Cloudy"
"2017-05-13 08:00","2017","05","13","08:00","11.6","","6.4","","70","","36","","1","","24.1","","99.10","","","","","","NA"
"2017-05-13 09:00","2017","05","13","09:00","12.9","","7.0","","67","","36","","1","","24.1","","99.10","","","","","","NA"
"2017-05-13 10:00","2017","05","13","10:00","14.2","","7.1","","62","","36","","2","","24.1","","99.05","","","","","","Mostly Cloudy"
"2017-05-13 11:00","2017","05","13","11:00","15.9","","7.5","","57","","21","","4","","24.1","","99.02","","","","","","NA"
"2017-05-13 12:00","2017","05","13","12:00","12.4","","8.1","","75","","17","","13","","24.1","","99.01","","","","","","NA"
"2017-05-13 13:00","2017","05","13","13:00","13.0","","8.9","","76","","13","","13","","24.1","","98.98","","","","","","Mostly Cloudy"
"2017-05-13 14:00","2017","05","13","14:00","15.2","","8.3","","63","","16","","13","","24.1","","98.92","","","","","","NA"
"2017-05-13 15:00","2017","05","13","15:00","15.5","","7.6","","59","","12","","13","","19.3","","98.88","","","","","","NA"
"2017-05-13 16:00","2017","05","13","16:00","14.6","","7.2","","61","","14","","13","","19.3","","98.84","","","","","","Mostly Cloudy"
"2017-05-13 17:00","2017","05","13","17:00","12.9","","7.6","","70","","12","","7","","24.1","","98.89","","","","","","NA"
"2017-05-13 18:00","2017","05","13","18:00","13.5","","8.4","","71","","13","","7","","24.1","","98.85","","","","","","NA"
"2017-05-13 19:00","2017","05","13","19:00","12.9","","8.8","","76","","17","","7","","24.1","","98.87","","","","","","Mostly Cloudy"
"2017-05-13 20:00","2017","05","13","20:00","10.8","","7.9","","82","","11","","11","","24.1","","98.83","","","","","","NA"
"2017-05-13 21:00","2017","05","13","21:00","10.0","","7.8","","86","","12","","4","","24.1","","98.85","","","","","","NA"
"2017-05-13 22:00","2017","05","13","22:00","9.6","","7.6","","87","","12","","5","","24.1","","98.81","","","","","","Clear"
"2017-05-13 23:00","2017","05","13","23:00","9.4","","7.5","","88","","0","","1","","24.1","","98.79","","","","","","NA"
"2017-05-14 00:00","2017","05","14","00:00","8.4","","7.0","","91","","29","","4","","24.1","","98.76","","","","","","NA"
"2017-05-14 01:00","2017","05","14","01:00","8.7","","7.0","","89","","33","","5","","20.9","","98.72","","","","","","Mainly Clear"
"2017-05-14 02:00","2017","05","14","02:00","8.3","","6.9","","91","","4","","8","","20.9","","98.66","","","","","","NA"
"2017-05-14 03:00","2017","05","14","03:00","7.6","","6.2","","91","","34","","5","","19.3","","98.65","","","","","","NA"
"2017-05-14 04:00","2017","05","14","04:00","7.5","","6.5","","93","","32","","10","","16.1","","98.62","","","","","","Mainly Clear"
"2017-05-14 05:00","2017","05","14","05:00","6.9","","5.7","","92","","29","","5","","9.7","","98.63","","","","","","Fog"
"2017-05-14 06:00","2017","05","14","06:00","8.0","","6.8","","92","","27","","5","","16.1","","98.65","","","","","","NA"
"2017-05-14 07:00","2017","05","14","07:00","10.9","","6.5","","74","","28","","12","","24.1","","98.66","","","","","","Mainly Clear"
"2017-05-14 08:00","2017","05","14","08:00","13.1","","7.6","","69","","30","","10","","24.1","","98.62","","","","","","NA"
"2017-05-14 09:00","2017","05","14","09:00","15.5","","3.7","","45","","30","","21","","24.1","","98.59","","","","","","NA"
"2017-05-14 10:00","2017","05","14","10:00","16.0","","4.2","","45","","28","","27","","24.1","","98.57","","","","","","Mostly Cloudy"
"2017-05-14 11:00","2017","05","14","11:00","17.2","","2.1","","36","","27","","40","","24.1","","98.51","","","","","","NA"
"2017-05-14 12:00","2017","05","14","12:00","17.0","","3.1","","39","","31","","37","","24.1","","98.50","","","","","","NA"
"2017-05-14 13:00","2017","05","14","13:00","13.4","","6.8","","64","","35","","35","","19.3","","98.54","","","","","","Rain Showers"
"2017-05-14 14:00","2017","05","14","14:00","12.7","","6.1","","64","","31","","34","","24.1","","98.63","","","","","","Rain Showers"
"2017-05-14 15:00","2017","05","14","15:00","13.6","","8.3","","70","","32","","38","","24.1","","98.67","","","","","","NA"
"2017-05-14 16:00","2017","05","14","16:00","14.7","","3.9","","48","","34","","38","","24.1","","98.74","","","","","","Mostly Cloudy"
"2017-05-14 17:00","2017","05","14","17:00","13.9","","3.4","","49","","33","","43","","24.1","","98.82","","","","","","NA"
"2017-05-14 18:00","2017","05","14","18:00","12.5","","3.8","","55","","33","","40","","24.1","","98.93","","","","","","NA"
"2017-05-14 19:00","2017","05","14","19:00","11.7","","4.2","","60","","33","","38","","24.1","","99.01","","","","","","Mostly Cloudy"
"2017-05-14 20:00","2017","05","14","20:00","11.2","","4.2","","62","","34","","30","","24.1","","99.08","","","","","","NA"
"2017-05-14 21:00","2017","05","14","21:00","10.9","","3.7","","61","","32","","18","","24.1","","99.13","","","","","","NA"
"2017-05-14 22:00","2017","05","14","22:00","11.1","","3.7","","60","","32","","22","","24.1","","99.18","","","","","","Mostly Cloudy"
"2017-05-14 23:00","2017","05","14","23:00","10.4","","3.2","","61","","32","","21","","24.1","","99.22","","","","","","NA"
"2017-05-15 00:00","2017","05","15","00:00","9.4","","3.6","","67","","31","","22","","24.1","","99.23","","","","","","NA"
"2017-05-15 01:00","2017","05","15","01:00","8.5","","3.4","","70","","31","","21","","24.1","","99.22","","","","","","Clear"
"2017-05-15 02:00","2017","05","15","02:00","8.2","","2.7","","68","","31","","17","","24.1","","99.25","","","","","","NA"
"2017-05-15 03:00","2017","05","15","03:00","8.2","","2.5","","67","","33","","19","","24.1","","99.29","","","","","","NA"
"2017-05-15 04:00","2017","05","15","04:00","7.7","","2.2","","68","","33","","17","","24.1","","99.32","","","","","","Clear"
"2017-05-15 05:00","2017","05","15","05:00","7.1","","2.2","","71","","33","","12","","24.1","","99.37","","","","","","NA"
"2017-05-15 06:00","2017","05","15","06:00","8.3","","2.6","","67","","33","","16","","24.1","","99.43","","","","","","NA"
"2017-05-15 07:00","2017","05","15","07:00","9.8","","2.9","","62","","35","","21","","24.1","","99.48","","","","","","Clear"
"2017-05-15 08:00","2017","05","15","08:00","11.4","","4.0","","60","","35","","20","","24.1","","99.47","","","","","","NA"
"2017-05-15 09:00","2017","05","15","09:00","12.9","","4.4","","56","","33","","30","","24.1","","99.48","","","","","","NA"
"2017-05-15 10:00","2017","05","15","10:00","15.0","","3.9","","47","","34","","36","","24.1","","99.49","","","","","","Clear"
"2017-05-15 11:00","2017","05","15","11:00","15.9","","5.3","","49","","34","","24","","24.1","","99.48","","","","","","NA"
"2017-05-15 12:00","2017","05","15","12:00","17.2","","4.6","","43","","34","","34","","24.1","","99.49","","","","","","NA"
"2017-05-15 13:00","2017","05","15","13:00","17.9","","4.9","","42","","36","","26","","24.1","","99.47","","","","","","Clear"
"2017-05-15 14:00","2017","05","15","14:00","18.2","","6.2","","45","","35","","14","","24.1","","99.45","","","","","","NA"
"2017-05-15 15:00","2017","05","15","15:00","19.6","","6.1","","41","","35","","26","","24.1","","99.42","","","","","","NA"
"2017-05-15 16:00","2017","05","15","16:00","19.1","","6.0","","42","","35","","20","","24.1","","99.40","","","","","","Mainly Clear"
"2017-05-15 17:00","2017","05","15","17:00","18.6","","5.2","","41","","36","","22","","24.1","","99.45","","","","","","NA"
"2017-05-15 18:00","2017","05","15","18:00","17.7","","4.4","","41","","35","","28","","24.1","","99.44","","","","","","NA"
"2017-05-15 19:00","2017","05","15","19:00","16.5","","4.6","","45","","35","","21","","24.1","","99.45","","","","","","Mainly Clear"
"2017-05-15 20:00","2017","05","15","20:00","15.3","","4.7","","49","","35","","18","","24.1","","99.55","","","","","","NA"
"2017-05-15 21:00","2017","05","15","21:00","14.4","","4.2","","50","","36","","16","","24.1","","99.52","","","","","","NA"
"2017-05-15 22:00","2017","05","15","22:00","13.0","","4.5","","56","","33","","9","","24.1","","99.56","","","","","","Clear"
"2017-05-15 23:00","2017","05","15","23:00","12.7","","4.5","","57","","30","","11","","24.1","","99.53","","","","","","NA"
"2017-05-16 00:00","2017","05","16","00:00","11.3","","4.6","","63","","28","","8","","24.1","","99.54","","","","","","NA"
"2017-05-16 01:00","2017","05","16","01:00","11.7","","4.9","","63","","32","","9","","24.1","","99.55","","","","","","Mostly Cloudy"
"2017-05-16 02:00","2017","05","16","02:00","10.9","","4.6","","65","","2","","8","","24.1","","99.51","","","","","","NA"
"2017-05-16 03:00","2017","05","16","03:00","9.7","","4.5","","70","","29","","5","","24.1","","99.56","","","","","","NA"
"2017-05-16 04:00","2017","05","16","04:00","10.2","","4.6","","68","","36","","2","","24.1","","99.56","","","","","","Mostly Cloudy"
"2017-05-16 05:00","2017","05","16","05:00","9.7","","4.7","","71","","32","","6","","24.1","","99.57","","","","","","NA"
"2017-05-16 06:00","2017","05","16","06:00","10.5","","5.9","","73","","29","","7","","24.1","","99.65","","","","","","NA"
"2017-05-16 07:00","2017","05","16","07:00","11.7","","5.2","","64","","36","","1","","24.1","","99.64","","","","","","Cloudy"
"2017-05-16 08:00","2017","05","16","08:00","12.4","","5.4","","62","","11","","4","","24.1","","99.57","","","","","","NA"
"2017-05-16 09:00","2017","05","16","09:00","12.8","","8.1","","73","","23","","7","","19.3","","99.72","","","","","","Rain"
"2017-05-16 10:00","2017","05","16","10:00","14.2","","8.4","","68","","18","","11","","24.1","","99.63","","","","","","Rain"
"2017-05-16 11:00","2017","05","16","11:00","13.0","","6.2","","63","","22","","17","","19.3","","99.71","","","","","","Rain"
"2017-05-16 12:00","2017","05","16","12:00","13.9","","6.8","","62","","14","","9","","24.1","","99.65","","","","","","NA"
"2017-05-16 13:00","2017","05","16","13:00","12.8","","8.9","","77","","15","","12","","24.1","","99.62","","","","","","Cloudy"
"2017-05-16 14:00","2017","05","16","14:00","13.7","","7.1","","64","","15","","14","","24.1","","99.47","","","","","","NA"
"2017-05-16 15:00","2017","05","16","15:00","15.3","","6.1","","54","","15","","15","","24.1","","99.37","","","","","","NA"
"2017-05-16 16:00","2017","05","16","16:00","15.1","","5.4","","52","","14","","18","","24.1","","99.26","","","","","","Mostly Cloudy"
"2017-05-16 17:00","2017","05","16","17:00","15.6","","5.6","","51","","13","","13","","24.1","","99.20","","","","","","NA"
"2017-05-16 18:00","2017","05","16","18:00","15.7","","6.2","","53","","13","","11","","24.1","","99.14","","","","","","NA"
"2017-05-16 19:00","2017","05","16","19:00","15.1","","5.7","","53","","13","","8","","24.1","","99.07","","","","","","Mostly Cloudy"
"2017-05-16 20:00","2017","05","16","20:00","14.6","","5.7","","55","","11","","8","","24.1","","99.04","","","","","","NA"
"2017-05-16 21:00","2017","05","16","21:00","13.4","","5.4","","58","","9","","12","","24.1","","99.07","","","","","","NA"
"2017-05-16 22:00","2017","05","16","22:00","12.7","","5.7","","62","","9","","11","","24.1","","99.08","","","","","","Mostly Cloudy"
"2017-05-16 23:00","2017","05","16","23:00","12.2","","4.5","","59","","9","","6","","24.1","","99.03","","","","","","NA"
"2017-05-17 00:00","2017","05","17","00:00","12.1","","5.1","","62","","1","","8","","24.1","","98.96","","","","","","NA"
"2017-05-17 01:00","2017","05","17","01:00","11.1","","5.2","","67","","36","","1","","24.1","","98.95","","","","","","Mostly Cloudy"
"2017-05-17 02:00","2017","05","17","02:00","10.9","","5.1","","67","","36","","1","","24.1","","98.90","","","","","","NA"
"2017-05-17 03:00","2017","05","17","03:00","10.9","","5.5","","69","","21","","4","","24.1","","98.90","","","","","","NA"
"2017-05-17 04:00","2017","05","17","04:00","10.1","","6.3","","77","","26","","7","","24.1","","98.96","","","","","","Mainly Clear"
"2017-05-17 05:00","2017","05","17","05:00","9.8","","6.2","","78","","12","","4","","19.3","","98.96","","","","","","NA"
"2017-05-17 06:00","2017","05","17","06:00","12.0","","7.7","","75","","11","","8","","24.1","","99.03","","","","","","NA"
"2017-05-17 07:00","2017","05","17","07:00","14.6","","10.1","","74","","16","","6","","24.1","","99.01","","","","","","Clear"
"2017-05-17 08:00","2017","05","17","08:00","19.7","","13.0","","65","","16","","5","","24.1","","99.04","","","","","","NA"
"2017-05-17 09:00","2017","05","17","09:00","25.0","","16.0","","57","","24","","24","","24.1","","98.99","","30","","","","NA"
"2017-05-17 10:00","2017","05","17","10:00","26.6","","17.0","","55","","21","","36","","24.1","","98.94","","32","","","","Mostly Cloudy"
"2017-05-17 11:00","2017","05","17","11:00","28.0","","17.4","","52","","24","","39","","24.1","","98.89","","34","","","","NA"
"2017-05-17 12:00","2017","05","17","12:00","27.5","","17.3","","53","","23","","40","","24.1","","98.90","","33","","","","NA"
"2017-05-17 13:00","2017","05","17","13:00","27.6","","16.4","","50","","24","","36","","24.1","","98.88","","32","","","","Cloudy"
"2017-05-17 14:00","2017","05","17","14:00","29.6","","15.6","","42","","24","","38","","24.1","","98.86","","34","","","","NA"
"2017-05-17 15:00","2017","05","17","15:00","29.5","","15.5","","42","","22","","45","","24.1","","98.84","","34","","","","NA"
"2017-05-17 16:00","2017","05","17","16:00","29.2","","15.2","","42","","23","","40","","24.1","","98.83","","33","","","","Mainly Clear"
"2017-05-17 17:00","2017","05","17","17:00","28.9","","15.0","","42","","23","","44","","24.1","","98.85","","33","","","","NA"
"2017-05-17 18:00","2017","05","17","18:00","28.3","","14.0","","41","","24","","43","","24.1","","98.82","","32","","","","NA"
"2017-05-17 19:00","2017","05","17","19:00","27.5","","14.4","","44","","22","","29","","24.1","","98.78","","31","","","","Mostly Cloudy"
"2017-05-17 20:00","2017","05","17","20:00","26.4","","14.4","","47","","22","","21","","24.1","","98.77","","30","","","","NA"
"2017-05-17 21:00","2017","05","17","21:00","25.4","","14.1","","49","","21","","15","","24.1","","98.78","","29","","","","NA"
"2017-05-17 22:00","2017","05","17","22:00","24.4","","13.8","","51","","21","","14","","24.1","","98.79","","28","","","","Mostly Cloudy"
"2017-05-17 23:00","2017","05","17","23:00","23.9","","13.3","","51","","22","","21","","24.1","","98.75","","27","","","","NA"
"2017-05-18 00:00","2017","05","18","00:00","23.1","","13.2","","53","","21","","17","","24.1","","98.79","","26","","","","NA"
"2017-05-18 01:00","2017","05","18","01:00","22.9","","13.3","","54","","21","","22","","24.1","","98.79","","26","","","","Mostly Cloudy"
"2017-05-18 02:00","2017","05","18","02:00","22.2","","13.4","","57","","21","","19","","24.1","","98.80","","25","","","","NA"
"2017-05-18 03:00","2017","05","18","03:00","21.5","","13.8","","61","","20","","12","","24.1","","98.81","","25","","","","NA"
"2017-05-18 04:00","2017","05","18","04:00","21.5","","14.3","","63","","20","","14","","24.1","","98.81","","25","","","","Mostly Cloudy"
"2017-05-18 05:00","2017","05","18","05:00","20.3","","14.1","","67","","17","","9","","24.1","","98.82","","","","","","NA"
"2017-05-18 06:00","2017","05","18","06:00","19.9","","14.1","","69","","14","","9","","24.1","","98.82","","","","","","NA"
"2017-05-18 07:00","2017","05","18","07:00","23.2","","15.4","","61","","20","","10","","24.1","","98.79","","27","","","","Mostly Cloudy"
"2017-05-18 08:00","2017","05","18","08:00","24.8","","15.9","","57","","22","","21","","24.1","","98.77","","29","","","","NA"
"2017-05-18 09:00","2017","05","18","09:00","26.3","","16.4","","54","","25","","42","","24.1","","98.75","","31","","","","NA"
"2017-05-18 10:00","2017","05","18","10:00","27.2","","17.3","","54","","26","","35","","24.1","","98.71","","33","","","","Mainly Clear"
"2017-05-18 11:00","2017","05","18","11:00","28.4","","16.6","","48","","22","","32","","24.1","","98.66","","33","","","","NA"
"2017-05-18 12:00","2017","05","18","12:00","29.1","","16.2","","45","","23","","39","","24.1","","98.67","","34","","","","NA"
"2017-05-18 13:00","2017","05","18","13:00","29.5","","14.4","","39","","24","","41","","24.1","","98.57","","33","","","","Mainly Clear"
"2017-05-18 14:00","2017","05","18","14:00","29.6","","14.5","","39","","22","","41","","24.1","","98.52","","33","","","","NA"
"2017-05-18 15:00","2017","05","18","15:00","29.2","","15.2","","42","","22","","44","","24.1","","98.47","","33","","","","NA"
"2017-05-18 16:00","2017","05","18","16:00","29.1","","15.5","","43","","23","","48","","24.1","","98.42","","33","","","","Mainly Clear"
"2017-05-18 17:00","2017","05","18","17:00","29.0","","14.7","","41","","24","","50","","24.1","","98.37","","33","","","","NA"
"2017-05-18 18:00","2017","05","18","18:00","23.4","","17.5","","69","","28","","32","","19.3","","98.48","","29","","","","Rain Showers"
"2017-05-18 19:00","2017","05","18","19:00","23.6","","17.5","","68","","28","","16","","24.1","","98.60","","29","","","","Mainly Clear"
"2017-05-18 20:00","2017","05","18","20:00","23.0","","15.2","","61","","32","","23","","24.1","","98.69","","27","","","","NA"
"2017-05-18 21:00","2017","05","18","21:00","21.6","","13.9","","61","","29","","10","","24.1","","98.75","","25","","","","NA"
"2017-05-18 22:00","2017","05","18","22:00","20.2","","13.0","","63","","28","","16","","24.1","","98.88","","","","","","Clear"
"2017-05-18 23:00","2017","05","18","23:00","19.9","","13.0","","64","","30","","20","","24.1","","98.92","","","","","","NA"
"2017-05-19 00:00","2017","05","19","00:00","18.4","","12.9","","70","","31","","26","","24.1","","98.90","","","","","","NA"
"2017-05-19 01:00","2017","05","19","01:00","17.0","","12.6","","75","","29","","20","","24.1","","99.04","","","","","","Mainly Clear"
"2017-05-19 02:00","2017","05","19","02:00","15.3","","10.5","","73","","30","","31","","24.1","","99.11","","","","","","NA"
"2017-05-19 03:00","2017","05","19","03:00","12.1","","8.4","","78","","32","","22","","24.1","","99.21","","","","","","NA"
"2017-05-19 04:00","2017","05","19","04:00","11.6","","8.1","","79","","29","","19","","24.1","","99.26","","","","","","Mostly Cloudy"
"2017-05-19 05:00","2017","05","19","05:00","10.6","","7.5","","81","","34","","19","","24.1","","99.40","","","","","","NA"
"2017-05-19 06:00","2017","05","19","06:00","9.5","","4.9","","73","","35","","24","","24.1","","99.51","","","","","","NA"
"2017-05-19 07:00","2017","05","19","07:00","9.2","","3.6","","68","","34","","30","","24.1","","99.62","","","","","","Mostly Cloudy"
"2017-05-19 08:00","2017","05","19","08:00","9.2","","3.4","","67","","34","","30","","24.1","","99.72","","","","","","NA"
"2017-05-19 09:00","2017","05","19","09:00","10.1","","3.9","","65","","32","","25","","24.1","","99.74","","","","","","NA"
"2017-05-19 10:00","2017","05","19","10:00","12.1","","6.0","","66","","32","","26","","24.1","","99.85","","","","","","Mostly Cloudy"
"2017-05-19 11:00","2017","05","19","11:00","10.1","","4.3","","67","","1","","23","","24.1","","99.86","","","","","","NA"
"2017-05-19 12:00","2017","05","19","12:00","10.5","","4.5","","66","","33","","28","","24.1","","99.98","","","","","","NA"
"2017-05-19 13:00","2017","05","19","13:00","11.3","","4.3","","62","","34","","23","","24.1","","99.95","","","","","","Mostly Cloudy"
"2017-05-19 14:00","2017","05","19","14:00","12.7","","5.0","","59","","34","","24","","24.1","","99.99","","","","","","NA"
"2017-05-19 15:00","2017","05","19","15:00","13.1","","5.3","","59","","35","","16","","24.1","","100.01","","","","","","NA"
"2017-05-19 16:00","2017","05","19","16:00","13.3","","5.5","","59","","35","","11","","24.1","","99.97","","","","","","Mostly Cloudy"
"2017-05-19 17:00","2017","05","19","17:00","13.4","","5.4","","58","","34","","6","","24.1","","99.97","","","","","","NA"
"2017-05-19 18:00","2017","05","19","18:00","14.2","","4.3","","51","","2","","18","","24.1","","99.97","","","","","","NA"
"2017-05-19 19:00","2017","05","19","19:00","12.7","","3.2","","52","","36","","21","","24.1","","100.04","","","","","","Cloudy"
"2017-05-19 20:00","2017","05","19","20:00","11.8","","0.6","","46","","35","","28","","24.1","","100.13","","","","","","NA"
"2017-05-19 21:00","2017","05","19","21:00","11.5","","-0.3","","44","","36","","23","","24.1","","100.20","","","","","","NA"
"2017-05-19 22:00","2017","05","19","22:00","10.8","","0.3","","48","","36","","23","","24.1","","100.25","","","","","","Cloudy"
"2017-05-19 23:00","2017","05","19","23:00","10.5","","1.1","","52","","36","","15","","24.1","","100.24","","","","","","NA"
"2017-05-20 00:00","2017","05","20","00:00","10.3","","2.0","","56","","2","","15","","24.1","","100.24","","","","","","NA"
"2017-05-20 01:00","2017","05","20","01:00","10.2","","0.8","","52","","4","","18","","24.1","","100.24","","","","","","Mainly Clear"
"2017-05-20 02:00","2017","05","20","02:00","10.2","","-1.8","","43","","6","","21","","24.1","","100.31","","","","","","NA"
"2017-05-20 03:00","2017","05","20","03:00","9.2","","-2.1","","45","","6","","17","","24.1","","100.41","","","","","","NA"
"2017-05-20 04:00","2017","05","20","04:00","8.3","","-1.8","","49","","6","","13","","24.1","","100.48","","","","","","Mostly Cloudy"
"2017-05-20 05:00","2017","05","20","05:00","7.6","","-1.6","","52","","6","","17","","24.1","","100.56","","","","","","NA"
"2017-05-20 06:00","2017","05","20","06:00","8.2","","-1.1","","52","","6","","14","","24.1","","100.63","","","","","","NA"
"2017-05-20 07:00","2017","05","20","07:00","9.2","","-1.5","","47","","8","","20","","24.1","","100.69","","","","","","Clear"
"2017-05-20 08:00","2017","05","20","08:00","10.3","","-1.4","","44","","10","","29","","24.1","","100.68","","","","","","NA"
"2017-05-20 09:00","2017","05","20","09:00","11.4","","-1.7","","40","","9","","28","","24.1","","100.70","","","","","","NA"
"2017-05-20 10:00","2017","05","20","10:00","11.9","","0.1","","44","","11","","28","","24.1","","100.69","","","","","","Clear"
"2017-05-20 11:00","2017","05","20","11:00","12.3","","0.1","","43","","10","","27","","24.1","","100.73","","","","","","NA"
"2017-05-20 12:00","2017","05","20","12:00","13.2","","1.0","","43","","10","","26","","24.1","","100.71","","","","","","NA"
"2017-05-20 13:00","2017","05","20","13:00","14.2","","-1.8","","33","","7","","23","","24.1","","100.67","","","","","","Clear"
"2017-05-20 14:00","2017","05","20","14:00","15.1","","-5.8","","23","","9","","27","","24.1","","100.65","","","","","","NA"
"2017-05-20 15:00","2017","05","20","15:00","14.9","","-1.2","","33","","8","","27","","24.1","","100.59","","","","","","NA"
"2017-05-20 16:00","2017","05","20","16:00","15.4","","-1.1","","32","","10","","25","","24.1","","100.53","","","","","","Mostly Cloudy"
"2017-05-20 17:00","2017","05","20","17:00","14.8","","0.3","","37","","8","","18","","24.1","","100.50","","","","","","NA"
"2017-05-20 18:00","2017","05","20","18:00","13.7","","-0.3","","38","","10","","24","","24.1","","100.44","","","","","","NA"
"2017-05-20 19:00","2017","05","20","19:00","13.3","","-0.7","","38","","11","","16","","24.1","","100.48","","","","","","Mostly Cloudy"
"2017-05-20 20:00","2017","05","20","20:00","12.7","","-1.2","","38","","8","","15","","24.1","","100.28","","","","","","NA"
"2017-05-20 21:00","2017","05","20","21:00","12.7","","-0.2","","41","","10","","22","","24.1","","100.20","","","","","","NA"
"2017-05-20 22:00","2017","05","20","22:00","13.2","","-0.4","","39","","10","","22","","24.1","","100.32","","","","","","Rain"
"2017-05-20 23:00","2017","05","20","23:00","13.4","","-0.2","","39","","10","","21","","24.1","","100.25","","","","","","NA"
"2017-05-21 00:00","2017","05","21","00:00","13.4","","-1.3","","36","","10","","32","","24.1","","100.22","","","","","","NA"
"2017-05-21 01:00","2017","05","21","01:00","12.7","","-0.2","","41","","9","","22","","24.1","","100.17","","","","","","Cloudy"
"2017-05-21 02:00","2017","05","21","02:00","12.7","","-0.5","","40","","9","","25","","24.1","","100.14","","","","","","NA"
"2017-05-21 03:00","2017","05","21","03:00","11.5","","1.2","","49","","8","","18","","24.1","","100.02","","","","","","NA"
"2017-05-21 04:00","2017","05","21","04:00","11.3","","2.6","","55","","9","","16","","24.1","","99.98","","","","","","Mostly Cloudy"
"2017-05-21 05:00","2017","05","21","05:00","11.3","","3.4","","58","","8","","17","","24.1","","99.98","","","","","","NA"
"2017-05-21 06:00","2017","05","21","06:00","10.7","","6.5","","75","","9","","11","","24.1","","99.97","","","","","","Rain"
"2017-05-21 07:00","2017","05","21","07:00","10.3","","8.3","","87","","9","","12","","24.1","","99.97","","","","","","Rain Showers"
"2017-05-21 08:00","2017","05","21","08:00","10.9","","9.2","","89","","9","","19","","24.1","","99.89","","","","","","NA"
"2017-05-21 09:00","2017","05","21","09:00","11.1","","8.9","","86","","7","","25","","24.1","","99.86","","","","","","NA"
"2017-05-21 10:00","2017","05","21","10:00","11.3","","8.7","","84","","10","","20","","24.1","","99.83","","","","","","Cloudy"
"2017-05-21 11:00","2017","05","21","11:00","12.5","","9.5","","82","","9","","13","","24.1","","99.79","","","","","","NA"
"2017-05-21 12:00","2017","05","21","12:00","13.2","","10.0","","81","","8","","13","","24.1","","99.73","","","","","","NA"
"2017-05-21 13:00","2017","05","21","13:00","12.9","","11.2","","89","","6","","10","","4.8","","99.71","","","","","","Moderate Rain Showers"
"2017-05-21 14:00","2017","05","21","14:00","12.9","","12.0","","94","","9","","13","","9.7","","99.63","","","","","","Rain Showers"
"2017-05-21 15:00","2017","05","21","15:00","13.2","","12.4","","95","","9","","10","","9.7","","99.52","","","","","","Rain"
"2017-05-21 16:00","2017","05","21","16:00","13.2","","12.4","","95","","10","","14","","12.9","","99.46","","","","","","Cloudy"
"2017-05-21 17:00","2017","05","21","17:00","12.2","","11.4","","95","","7","","9","","9.7","","99.45","","","","","","Rain Showers"
"2017-05-21 18:00","2017","05","21","18:00","11.8","","11.3","","97","","11","","11","","6.4","","99.41","","","","","","Rain,Fog"
"2017-05-21 19:00","2017","05","21","19:00","12.5","","12.0","","97","","11","","4","","6.4","","99.40","","","","","","Rain,Fog"
"2017-05-21 20:00","2017","05","21","20:00","12.3","","12.0","","98","","11","","7","","4.8","","99.33","","","","","","Fog"
"2017-05-21 21:00","2017","05","21","21:00","12.2","","11.7","","97","","13","","8","","8.1","","99.31","","","","","","Fog"
"2017-05-21 22:00","2017","05","21","22:00","12.1","","11.6","","97","","14","","8","","6.4","","99.28","","","","","","Fog"
"2017-05-21 23:00","2017","05","21","23:00","12.3","","11.8","","97","","13","","7","","8.1","","99.25","","","","","","Fog"
"2017-05-22 00:00","2017","05","22","00:00","12.2","","11.6","","96","","12","","7","","8.1","","99.23","","","","","","Fog"
"2017-05-22 01:00","2017","05","22","01:00","12.5","","12.0","","97","","17","","3","","8.1","","99.23","","","","","","Fog"
"2017-05-22 02:00","2017","05","22","02:00","12.7","","12.2","","97","","15","","8","","6.4","","99.18","","","","","","Fog"
"2017-05-22 03:00","2017","05","22","03:00","12.3","","11.8","","97","","36","","3","","2.4","","99.19","","","","","","Fog"
"2017-05-22 04:00","2017","05","22","04:00","11.7","","11.4","","98","","36","","3","","0.8","","99.19","","","","","","Fog"
"2017-05-22 05:00","2017","05","22","05:00","12.2","","11.9","","98","","0","","1","","1.6","","99.20","","","","","","Fog"
"2017-05-22 06:00","2017","05","22","06:00","12.5","","12.4","","99","","19","","4","","6.4","","99.20","","","","","","Fog"
"2017-05-22 07:00","2017","05","22","07:00","13.4","","12.9","","97","","22","","7","","6.4","","99.21","","","","","","Fog"
"2017-05-22 08:00","2017","05","22","08:00","13.5","","12.6","","94","","15","","10","","9.7","","99.24","","","","","","Fog"
"2017-05-22 09:00","2017","05","22","09:00","15.2","","12.6","","84","","24","","17","","24.1","","99.21","","","","","","NA"
"2017-05-22 10:00","2017","05","22","10:00","14.9","","10.4","","74","","28","","23","","24.1","","99.22","","","","","","Mostly Cloudy"
"2017-05-22 11:00","2017","05","22","11:00","14.7","","8.0","","64","","29","","27","","24.1","","99.24","","","","","","NA"
"2017-05-22 12:00","2017","05","22","12:00","14.4","","7.5","","63","","27","","23","","24.1","","99.29","","","","","","NA"
"2017-05-22 13:00","2017","05","22","13:00","15.5","","7.6","","59","","27","","26","","24.1","","99.26","","","","","","Mostly Cloudy"
"2017-05-22 14:00","2017","05","22","14:00","15.0","","6.1","","55","","25","","32","","24.1","","99.29","","","","","","NA"
"2017-05-22 15:00","2017","05","22","15:00","16.0","","7.6","","57","","25","","20","","24.1","","99.28","","","","","","NA"
"2017-05-22 16:00","2017","05","22","16:00","16.5","","7.0","","53","","25","","21","","24.1","","99.23","","","","","","Mostly Cloudy"
"2017-05-22 17:00","2017","05","22","17:00","16.5","","7.0","","53","","25","","27","","24.1","","99.27","","","","","","NA"
"2017-05-22 18:00","2017","05","22","18:00","17.0","","6.6","","50","","29","","25","","24.1","","99.27","","","","","","NA"
"2017-05-22 19:00","2017","05","22","19:00","16.6","","6.8","","52","","27","","20","","24.1","","99.29","","","","","","Mainly Clear"
"2017-05-22 20:00","2017","05","22","20:00","14.2","","7.3","","63","","19","","11","","24.1","","99.32","","","","","","NA"
"2017-05-22 21:00","2017","05","22","21:00","13.9","","8.4","","69","","22","","16","","24.1","","99.39","","","","","","NA"
"2017-05-22 22:00","2017","05","22","22:00","12.8","","8.3","","74","","22","","12","","24.1","","99.38","","","","","","Clear"
"2017-05-22 23:00","2017","05","22","23:00","10.8","","7.7","","81","","26","","10","","24.1","","99.34","","","","","","NA"
"2017-05-23 00:00","2017","05","23","00:00","11.1","","7.8","","80","","23","","13","","24.1","","99.28","","","","","","NA"
"2017-05-23 01:00","2017","05","23","01:00","10.6","","7.7","","82","","23","","8","","24.1","","99.27","","","","","","Clear"
"2017-05-23 02:00","2017","05","23","02:00","10.3","","7.7","","84","","24","","9","","24.1","","99.27","","","","","","NA"
"2017-05-23 03:00","2017","05","23","03:00","9.6","","7.9","","89","","26","","7","","24.1","","99.23","","","","","","NA"
"2017-05-23 04:00","2017","05","23","04:00","10.4","","7.7","","83","","36","","3","","24.1","","99.19","","","","","","Mostly Cloudy"
"2017-05-23 05:00","2017","05","23","05:00","10.1","","7.9","","86","","17","","6","","24.1","","99.17","","","","","","NA"
"2017-05-23 06:00","2017","05","23","06:00","11.2","","9.0","","86","","4","","5","","24.1","","99.15","","","","","","NA"
"2017-05-23 07:00","2017","05","23","07:00","13.0","","8.9","","76","","14","","7","","24.1","","99.16","","","","","","Mostly Cloudy"
"2017-05-23 08:00","2017","05","23","08:00","15.1","","9.7","","70","","17","","7","","24.1","","99.14","","","","","","NA"
"2017-05-23 09:00","2017","05","23","09:00","18.5","","10.9","","61","","24","","14","","24.1","","99.11","","","","","","NA"
"2017-05-23 10:00","2017","05","23","10:00","19.0","","10.7","","58","","24","","17","","24.1","","99.10","","","","","","Cloudy"
"2017-05-23 11:00","2017","05","23","11:00","20.7","","11.2","","54","","23","","19","","24.1","","99.04","","","","","","NA"
"2017-05-23 12:00","2017","05","23","12:00","21.4","","12.1","","55","","26","","20","","24.1","","98.99","","","","","","NA"
"2017-05-23 13:00","2017","05","23","13:00","21.2","","10.2","","49","","27","","21","","24.1","","98.96","","","","","","Mostly Cloudy"
"2017-05-23 14:00","2017","05","23","14:00","21.8","","10.5","","48","","28","","6","","24.1","","98.89","","","","","","NA"
"2017-05-23 15:00","2017","05","23","15:00","21.8","","9.5","","45","","30","","17","","24.1","","98.83","","","","","","NA"
"2017-05-23 16:00","2017","05","23","16:00","18.9","","10.3","","57","","14","","11","","24.1","","98.80","","","","","","Mostly Cloudy"
"2017-05-23 17:00","2017","05","23","17:00","18.7","","9.9","","56","","8","","8","","24.1","","98.79","","","","","","NA"
"2017-05-23 18:00","2017","05","23","18:00","17.9","","12.9","","72","","13","","7","","24.1","","98.78","","","","","","NA"
"2017-05-23 19:00","2017","05","23","19:00","18.5","","11.9","","65","","7","","8","","24.1","","98.77","","","","","","Mostly Cloudy"
"2017-05-23 20:00","2017","05","23","20:00","18.3","","11.7","","65","","2","","15","","24.1","","98.73","","","","","","NA"
"2017-05-23 21:00","2017","05","23","21:00","17.5","","12.0","","70","","4","","12","","24.1","","98.74","","","","","","NA"
"2017-05-23 22:00","2017","05","23","22:00","17.5","","11.4","","67","","8","","8","","24.1","","98.74","","","","","","Mostly Cloudy"
"2017-05-23 23:00","2017","05","23","23:00","14.0","","10.1","","77","","18","","5","","24.1","","98.69","","","","","","NA"
"2017-05-24 00:00","2017","05","24","00:00","12.6","","9.8","","83","","27","","5","","24.1","","98.68","","","","","","NA"
"2017-05-24 01:00","2017","05","24","01:00","14.1","","10.0","","76","","7","","5","","24.1","","98.62","","","","","","Mostly Cloudy"
"2017-05-24 02:00","2017","05","24","02:00","14.5","","10.9","","79","","2","","7","","24.1","","98.62","","","","","","NA"
"2017-05-24 03:00","2017","05","24","03:00","14.0","","10.5","","79","","4","","10","","24.1","","98.59","","","","","","NA"
"2017-05-24 04:00","2017","05","24","04:00","13.4","","10.1","","80","","4","","10","","24.1","","98.54","","","","","","Mostly Cloudy"
"2017-05-24 05:00","2017","05","24","05:00","13.4","","10.1","","80","","3","","12","","24.1","","98.54","","","","","","NA"
"2017-05-24 06:00","2017","05","24","06:00","14.1","","10.0","","76","","5","","13","","24.1","","98.55","","","","","","NA"
"2017-05-24 07:00","2017","05","24","07:00","16.5","","10.4","","67","","6","","16","","24.1","","98.51","","","","","","Mostly Cloudy"
"2017-05-24 08:00","2017","05","24","08:00","16.8","","9.8","","63","","8","","16","","24.1","","98.51","","","","","","NA"
"2017-05-24 09:00","2017","05","24","09:00","18.8","","10.5","","58","","9","","15","","24.1","","98.52","","","","","","NA"
"2017-05-24 10:00","2017","05","24","10:00","19.7","","10.3","","54","","11","","18","","24.1","","98.50","","","","","","Mostly Cloudy"
"2017-05-24 11:00","2017","05","24","11:00","20.0","","10.8","","55","","7","","12","","24.1","","98.45","","","","","","NA"
"2017-05-24 12:00","2017","05","24","12:00","22.3","","5.0","","32","","11","","17","","24.1","","98.39","","","","","","NA"
"2017-05-24 13:00","2017","05","24","13:00","21.4","","6.3","","37","","8","","24","","24.1","","98.36","","","","","","Mostly Cloudy"
"2017-05-24 14:00","2017","05","24","14:00","21.6","","8.0","","41","","9","","20","","24.1","","98.32","","","","","","NA"
"2017-05-24 15:00","2017","05","24","15:00","21.8","","7.4","","39","","9","","24","","24.1","","98.32","","","","","","NA"
"2017-05-24 16:00","2017","05","24","16:00","20.9","","7.3","","41","","8","","23","","24.1","","98.31","","","","","","Mostly Cloudy"
"2017-05-24 17:00","2017","05","24","17:00","20.3","","6.8","","41","","8","","24","","24.1","","98.31","","","","","","NA"
"2017-05-24 18:00","2017","05","24","18:00","20.0","","7.8","","45","","8","","18","","24.1","","98.27","","","","","","NA"
"2017-05-24 19:00","2017","05","24","19:00","19.7","","9.1","","50","","8","","25","","24.1","","98.25","","","","","","Rain"
"2017-05-24 20:00","2017","05","24","20:00","18.8","","9.7","","55","","9","","22","","24.1","","98.28","","","","","","Rain"
"2017-05-24 21:00","2017","05","24","21:00","17.2","","10.4","","64","","10","","15","","16.1","","98.32","","","","","","Rain"
"2017-05-24 22:00","2017","05","24","22:00","15.6","","10.2","","70","","17","","12","","24.1","","98.31","","","","","","Cloudy"
"2017-05-24 23:00","2017","05","24","23:00","15.2","","9.8","","70","","9","","17","","24.1","","98.27","","","","","","Rain"
"2017-05-25 00:00","2017","05","25","00:00","14.7","","9.8","","72","","8","","15","","24.1","","98.24","","","","","","NA"
"2017-05-25 01:00","2017","05","25","01:00","15.5","","9.9","","69","","14","","12","","24.1","","98.24","","","","","","Cloudy"
"2017-05-25 02:00","2017","05","25","02:00","12.7","","11.9","","95","","12","","15","","16.1","","98.23","","","","","","Rain"
"2017-05-25 03:00","2017","05","25","03:00","13.4","","12.6","","95","","8","","16","","24.1","","98.20","","","","","","Rain,Fog"
"2017-05-25 04:00","2017","05","25","04:00","13.6","","12.8","","95","","10","","20","","8.1","","98.19","","","","","","Rain,Fog"
"2017-05-25 05:00","2017","05","25","05:00","13.1","","12.5","","96","","10","","23","","4.8","","98.16","","","","","","Rain,Fog"
"2017-05-25 06:00","2017","05","25","06:00","12.7","","12.1","","96","","9","","23","","4.8","","98.16","","","","","","Rain,Fog"
"2017-05-25 07:00","2017","05","25","07:00","12.5","","11.7","","95","","9","","27","","6.4","","98.16","","","","","","Rain,Fog"
"2017-05-25 08:00","2017","05","25","08:00","12.2","","11.4","","95","","9","","27","","6.4","","98.15","","","","","","Rain,Fog"
"2017-05-25 09:00","2017","05","25","09:00","12.2","","11.4","","95","","9","","22","","6.4","","98.13","","","","","","Rain,Fog"
"2017-05-25 10:00","2017","05","25","10:00","12.3","","11.5","","95","","8","","26","","6.4","","98.08","","","","","","Rain,Fog"
"2017-05-25 11:00","2017","05","25","11:00","11.9","","11.0","","94","","9","","28","","2.8","","98.07","","","","","","Rain,Fog"
"2017-05-25 12:00","2017","05","25","12:00","11.4","","10.6","","95","","8","","26","","6.4","","98.05","","","","","","Moderate Rain,Fog"
"2017-05-25 13:00","2017","05","25","13:00","11.0","","10.2","","95","","8","","27","","6.4","","98.01","","","","","","Moderate Rain,Fog"
"2017-05-25 14:00","2017","05","25","14:00","10.9","","10.3","","96","","9","","28","","2.8","","97.93","","","","","","Rain,Fog"
"2017-05-25 15:00","2017","05","25","15:00","11.2","","10.6","","96","","8","","29","","2.8","","97.89","","","","","","Drizzle,Fog"
"2017-05-25 16:00","2017","05","25","16:00","11.1","","10.5","","96","","8","","28","","2.0","","97.87","","","","","","Rain,Drizzle,Fog"
"2017-05-25 17:00","2017","05","25","17:00","11.4","","10.8","","96","","8","","24","","12.9","","97.87","","","","","","Drizzle"
"2017-05-25 18:00","2017","05","25","18:00","11.7","","10.9","","95","","8","","25","","8.1","","97.88","","","","","","Drizzle,Fog"
"2017-05-25 19:00","2017","05","25","19:00","12.1","","11.5","","96","","9","","17","","9.7","","97.91","","","","","","Drizzle,Fog"
"2017-05-25 20:00","2017","05","25","20:00","12.1","","11.5","","96","","9","","22","","4.8","","97.96","","","","","","Rain,Fog"
"2017-05-25 21:00","2017","05","25","21:00","12.3","","11.7","","96","","9","","16","","4.8","","98.00","","","","","","Rain,Fog"
"2017-05-25 22:00","2017","05","25","22:00","12.2","","11.7","","97","","9","","14","","4.8","","97.99","","","","","","Rain,Fog"
"2017-05-25 23:00","2017","05","25","23:00","12.1","","11.8","","98","","8","","12","","4.0","","98.01","","","","","","Drizzle,Fog"
"2017-05-26 00:00","2017","05","26","00:00","12.3","","12.0","","98","","9","","5","","4.8","","98.04","","","","","","Drizzle,Fog"
"2017-05-26 01:00","2017","05","26","01:00","12.1","","11.8","","98","","36","","3","","4.8","","98.06","","","","","","Drizzle,Fog"
"2017-05-26 02:00","2017","05","26","02:00","12.8","","12.5","","98","","36","","7","","4.8","","98.08","","","","","","Drizzle,Fog"
"2017-05-26 03:00","2017","05","26","03:00","12.8","","12.3","","97","","36","","11","","4.8","","98.12","","","","","","Drizzle,Fog"
"2017-05-26 04:00","2017","05","26","04:00","12.8","","12.3","","97","","36","","15","","8.1","","98.18","","","","","","Drizzle,Fog"
"2017-05-26 05:00","2017","05","26","05:00","12.8","","12.2","","96","","34","","17","","6.4","","98.21","","","","","","Drizzle,Fog"
"2017-05-26 06:00","2017","05","26","06:00","13.2","","12.3","","94","","35","","16","","24.1","","98.28","","","","","","NA"
"2017-05-26 07:00","2017","05","26","07:00","13.7","","12.4","","92","","34","","15","","24.1","","98.38","","","","","","Mostly Cloudy"
"2017-05-26 08:00","2017","05","26","08:00","14.5","","12.7","","89","","31","","13","","24.1","","98.46","","","","","","NA"
"2017-05-26 09:00","2017","05","26","09:00","16.1","","12.7","","80","","33","","18","","24.1","","98.50","","","","","","NA"
"2017-05-26 10:00","2017","05","26","10:00","17.1","","11.7","","70","","34","","15","","24.1","","98.53","","","","","","Mostly Cloudy"
"2017-05-26 11:00","2017","05","26","11:00","17.6","","12.1","","70","","31","","13","","24.1","","98.55","","","","","","NA"
"2017-05-26 12:00","2017","05","26","12:00","17.5","","11.8","","69","","31","","6","","24.1","","98.59","","","","","","NA"
"2017-05-26 13:00","2017","05","26","13:00","17.5","","11.8","","69","","33","","16","","24.1","","98.63","","","","","","Cloudy"
"2017-05-26 14:00","2017","05","26","14:00","15.9","","13.1","","83","","31","","22","","24.1","","98.70","","","","","","NA"
"2017-05-26 15:00","2017","05","26","15:00","16.5","","13.5","","82","","31","","16","","16.1","","98.71","","","","","","Rain Showers"
"2017-05-26 16:00","2017","05","26","16:00","17.5","","12.7","","73","","29","","14","","24.1","","98.73","","","","","","Cloudy"
"2017-05-26 17:00","2017","05","26","17:00","16.0","","13.3","","84","","33","","11","","24.1","","98.82","","","","","","Rain Showers"
"2017-05-26 18:00","2017","05","26","18:00","16.7","","13.7","","82","","29","","13","","24.1","","98.87","","","","","","NA"
"2017-05-26 19:00","2017","05","26","19:00","15.5","","13.0","","85","","27","","12","","24.1","","98.93","","","","","","Rain Showers"
"2017-05-26 20:00","2017","05","26","20:00","15.1","","13.3","","89","","31","","9","","24.1","","98.97","","","","","","Rain Showers"
"2017-05-26 21:00","2017","05","26","21:00","15.3","","12.6","","84","","31","","15","","24.1","","99.03","","","","","","NA"
"2017-05-26 22:00","2017","05","26","22:00","14.9","","12.8","","87","","29","","10","","24.1","","99.08","","","","","","Mostly Cloudy"
"2017-05-26 23:00","2017","05","26","23:00","15.0","","12.7","","86","","32","","8","","24.1","","99.07","","","","","","NA"
"2017-05-27 00:00","2017","05","27","00:00","14.7","","12.8","","88","","33","","6","","24.1","","99.06","","","","","","NA"
"2017-05-27 01:00","2017","05","27","01:00","14.3","","12.7","","90","","36","","2","","24.1","","99.09","","","","","","Cloudy"
"2017-05-27 02:00","2017","05","27","02:00","14.3","","12.7","","90","","26","","3","","24.1","","99.12","","","","","","NA"
"2017-05-27 03:00","2017","05","27","03:00","13.9","","12.5","","91","","29","","6","","24.1","","99.09","","","","","","NA"
"2017-05-27 04:00","2017","05","27","04:00","13.7","","12.3","","91","","29","","7","","24.1","","99.10","","","","","","Mostly Cloudy"
"2017-05-27 05:00","2017","05","27","05:00","14.1","","12.2","","88","","35","","6","","24.1","","99.12","","","","","","NA"
"2017-05-27 06:00","2017","05","27","06:00","14.4","","12.1","","86","","30","","7","","24.1","","99.17","","","","","","NA"
"2017-05-27 07:00","2017","05","27","07:00","14.9","","12.3","","84","","34","","12","","24.1","","99.19","","","","","","Cloudy"
"2017-05-27 08:00","2017","05","27","08:00","15.5","","12.5","","82","","34","","9","","24.1","","99.20","","","","","","NA"
"2017-05-27 09:00","2017","05","27","09:00","16.8","","13.4","","80","","5","","7","","24.1","","99.20","","","","","","NA"
"2017-05-27 10:00","2017","05","27","10:00","18.0","","14.0","","77","","36","","1","","24.1","","99.19","","","","","","Mostly Cloudy"
"2017-05-27 11:00","2017","05","27","11:00","17.8","","12.3","","70","","30","","3","","24.1","","99.20","","","","","","NA"
"2017-05-27 12:00","2017","05","27","12:00","16.1","","12.5","","79","","13","","14","","24.1","","99.24","","","","","","NA"
"2017-05-27 13:00","2017","05","27","13:00","16.8","","12.8","","77","","13","","13","","24.1","","99.21","","","","","","Mostly Cloudy"
"2017-05-27 14:00","2017","05","27","14:00","17.8","","13.0","","73","","15","","12","","24.1","","99.18","","","","","","NA"
"2017-05-27 15:00","2017","05","27","15:00","18.8","","13.7","","72","","14","","12","","24.1","","99.18","","","","","","NA"
"2017-05-27 16:00","2017","05","27","16:00","18.7","","13.2","","70","","13","","16","","24.1","","99.16","","","","","","Mostly Cloudy"
"2017-05-27 17:00","2017","05","27","17:00","16.7","","12.5","","76","","14","","12","","24.1","","99.22","","","","","","NA"
"2017-05-27 18:00","2017","05","27","18:00","16.7","","12.3","","75","","14","","12","","24.1","","99.22","","","","","","NA"
"2017-05-27 19:00","2017","05","27","19:00","16.2","","12.0","","76","","15","","9","","24.1","","99.21","","","","","","Mostly Cloudy"
"2017-05-27 20:00","2017","05","27","20:00","15.1","","11.1","","77","","11","","8","","24.1","","99.18","","","","","","NA"
"2017-05-27 21:00","2017","05","27","21:00","14.0","","11.6","","85","","16","","5","","24.1","","99.21","","","","","","NA"
"2017-05-27 22:00","2017","05","27","22:00","13.0","","11.6","","91","","22","","7","","24.1","","99.24","","","","","","Mainly Clear"
"2017-05-27 23:00","2017","05","27","23:00","13.9","","12.1","","89","","18","","5","","24.1","","99.25","","","","","","NA"
"2017-05-28 00:00","2017","05","28","00:00","13.5","","11.9","","90","","36","","2","","24.1","","99.14","","","","","","NA"
"2017-05-28 01:00","2017","05","28","01:00","11.9","","10.8","","93","","30","","6","","24.1","","99.16","","","","","","Mainly Clear"
"2017-05-28 02:00","2017","05","28","02:00","12.6","","11.2","","91","","1","","7","","24.1","","99.15","","","","","","NA"
"2017-05-28 03:00","2017","05","28","03:00","12.9","","11.3","","90","","33","","5","","24.1","","99.12","","","","","","NA"
"2017-05-28 04:00","2017","05","28","04:00","12.5","","11.1","","91","","36","","1","","24.1","","99.08","","","","","","Mainly Clear"
"2017-05-28 05:00","2017","05","28","05:00","12.1","","11.0","","93","","12","","5","","24.1","","99.09","","","","","","NA"
"2017-05-28 06:00","2017","05","28","06:00","11.6","","11.0","","96","","17","","9","","9.7","","99.08","","","","","","Fog"
"2017-05-28 07:00","2017","05","28","07:00","12.6","","12.3","","98","","10","","14","","2.0","","99.04","","","","","","Fog"
"2017-05-28 08:00","2017","05","28","08:00","15.4","","12.9","","85","","14","","5","","24.1","","99.06","","","","","","NA"
"2017-05-28 09:00","2017","05","28","09:00","17.6","","12.6","","72","","9","","10","","24.1","","98.98","","","","","","NA"
"2017-05-28 10:00","2017","05","28","10:00","19.4","","12.7","","65","","7","","17","","24.1","","98.98","","","","","","Mostly Cloudy"
"2017-05-28 11:00","2017","05","28","11:00","20.2","","12.0","","59","","10","","14","","24.1","","98.98","","","","","","NA"
"2017-05-28 12:00","2017","05","28","12:00","20.4","","13.5","","64","","12","","17","","24.1","","98.90","","","","","","NA"
"2017-05-28 13:00","2017","05","28","13:00","20.5","","12.6","","60","","13","","19","","24.1","","98.84","","","","","","Mostly Cloudy"
"2017-05-28 14:00","2017","05","28","14:00","20.8","","11.8","","56","","10","","20","","24.1","","98.80","","","","","","NA"
"2017-05-28 15:00","2017","05","28","15:00","20.9","","13.2","","61","","8","","16","","24.1","","98.74","","","","","","NA"
"2017-05-28 16:00","2017","05","28","16:00","20.7","","12.5","","59","","8","","19","","24.1","","98.66","","","","","","Mainly Clear"
"2017-05-28 17:00","2017","05","28","17:00","20.4","","13.5","","64","","11","","18","","24.1","","98.65","","","","","","NA"
"2017-05-28 18:00","2017","05","28","18:00","19.8","","13.6","","67","","9","","12","","24.1","","98.63","","","","","","NA"
"2017-05-28 19:00","2017","05","28","19:00","18.7","","13.8","","73","","10","","12","","24.1","","98.62","","","","","","Cloudy"
"2017-05-28 20:00","2017","05","28","20:00","18.2","","13.8","","75","","7","","8","","24.1","","98.57","","","","","","NA"
"2017-05-28 21:00","2017","05","28","21:00","18.0","","13.8","","76","","6","","10","","24.1","","98.51","","","","","","NA"
"2017-05-28 22:00","2017","05","28","22:00","18.1","","13.9","","76","","10","","9","","24.1","","98.49","","","","","","Cloudy"
"2017-05-28 23:00","2017","05","28","23:00","16.2","","13.0","","81","","15","","14","","24.1","","98.43","","","","","","NA"
"2017-05-29 00:00","2017","05","29","00:00","15.1","","12.6","","85","","12","","9","","24.1","","98.38","","","","","","NA"
"2017-05-29 01:00","2017","05","29","01:00","15.2","","13.1","","87","","21","","7","","24.1","","98.41","","","","","","Cloudy"
"2017-05-29 02:00","2017","05","29","02:00","14.1","","12.3","","89","","15","","12","","24.1","","98.43","","","","","","NA"
"2017-05-29 03:00","2017","05","29","03:00","15.3","","13.4","","88","","17","","13","","24.1","","98.48","","","","","","NA"
"2017-05-29 04:00","2017","05","29","04:00","15.3","","13.9","","91","","16","","10","","24.1","","98.43","","","","","","Cloudy"
"2017-05-29 05:00","2017","05","29","05:00","15.8","","14.4","","91","","21","","9","","16.1","","98.47","","","","","","NA"
"2017-05-29 06:00","2017","05","29","06:00","16.3","","15.0","","92","","19","","10","","12.9","","98.56","","","","","","Rain Showers"
"2017-05-29 07:00","2017","05","29","07:00","16.9","","15.3","","90","","21","","13","","12.9","","98.63","","","","","","Rain Showers"
"2017-05-29 08:00","2017","05","29","08:00","18.5","","16.0","","85","","23","","14","","24.1","","98.65","","","","","","NA"
"2017-05-29 09:00","2017","05","29","09:00","19.1","","15.6","","80","","25","","16","","24.1","","98.64","","","","","","NA"
"2017-05-29 10:00","2017","05","29","10:00","21.5","","15.4","","68","","25","","22","","24.1","","98.69","","26","","","","Mostly Cloudy"
"2017-05-29 11:00","2017","05","29","11:00","23.7","","15.6","","60","","25","","26","","24.1","","98.71","","28","","","","NA"
"2017-05-29 12:00","2017","05","29","12:00","23.8","","12.3","","48","","28","","31","","24.1","","98.72","","26","","","","NA"
"2017-05-29 13:00","2017","05","29","13:00","24.9","","11.3","","42","","27","","20","","24.1","","98.78","","27","","","","Mostly Cloudy"
"2017-05-29 14:00","2017","05","29","14:00","24.9","","8.2","","34","","28","","27","","24.1","","98.81","","25","","","","NA"
"2017-05-29 15:00","2017","05","29","15:00","25.1","","7.5","","32","","28","","27","","24.1","","98.83","","25","","","","NA"
"2017-05-29 16:00","2017","05","29","16:00","25.0","","7.4","","32","","23","","24","","24.1","","98.84","","25","","","","Mostly Cloudy"
"2017-05-29 17:00","2017","05","29","17:00","24.0","","7.0","","33","","21","","18","","24.1","","98.82","","","","","","NA"
"2017-05-29 18:00","2017","05","29","18:00","19.3","","11.9","","62","","32","","26","","24.1","","98.93","","","","","","NA"
"2017-05-29 19:00","2017","05","29","19:00","17.9","","11.8","","67","","36","","14","","24.1","","99.00","","","","","","Mostly Cloudy"
"2017-05-29 20:00","2017","05","29","20:00","17.3","","12.9","","75","","19","","5","","24.1","","99.07","","","","","","Thunderstorms"
"2017-05-29 21:00","2017","05","29","21:00","16.6","","12.4","","76","","13","","7","","24.1","","98.99","","","","","","NA"
"2017-05-29 22:00","2017","05","29","22:00","16.2","","12.6","","79","","17","","8","","24.1","","99.02","","","","","","Mainly Clear"
"2017-05-29 23:00","2017","05","29","23:00","15.7","","12.3","","80","","36","","8","","24.1","","99.01","","","","","","NA"
"2017-05-30 00:00","2017","05","30","00:00","14.6","","12.1","","85","","13","","11","","24.1","","99.00","","","","","","NA"
"2017-05-30 01:00","2017","05","30","01:00","14.9","","12.6","","86","","21","","13","","24.1","","99.09","","","","","","Mostly Cloudy"
"2017-05-30 02:00","2017","05","30","02:00","14.5","","12.2","","86","","23","","4","","24.1","","99.07","","","","","","NA"
"2017-05-30 03:00","2017","05","30","03:00","14.6","","12.1","","85","","17","","9","","24.1","","99.07","","","","","","NA"
"2017-05-30 04:00","2017","05","30","04:00","14.2","","11.7","","85","","22","","9","","24.1","","99.09","","","","","","Mostly Cloudy"
"2017-05-30 05:00","2017","05","30","05:00","13.8","","11.4","","85","","25","","5","","24.1","","99.11","","","","","","NA"
"2017-05-30 06:00","2017","05","30","06:00","15.2","","11.8","","80","","36","","2","","24.1","","99.17","","","","","","NA"
"2017-05-30 07:00","2017","05","30","07:00","15.6","","11.8","","78","","17","","9","","24.1","","99.21","","","","","","Mostly Cloudy"
"2017-05-30 08:00","2017","05","30","08:00","17.0","","12.6","","75","","20","","13","","24.1","","99.22","","","","","","NA"
"2017-05-30 09:00","2017","05","30","09:00","19.9","","12.8","","63","","24","","21","","24.1","","99.18","","","","","","NA"
"2017-05-30 10:00","2017","05","30","10:00","21.4","","10.4","","49","","23","","26","","24.1","","99.15","","","","","","Mainly Clear"
"2017-05-30 11:00","2017","05","30","11:00","21.6","","10.3","","48","","24","","20","","24.1","","99.15","","","","","","NA"
"2017-05-30 12:00","2017","05","30","12:00","23.0","","10.6","","45","","23","","25","","24.1","","99.11","","25","","","","NA"
"2017-05-30 13:00","2017","05","30","13:00","21.2","","10.8","","51","","19","","19","","16.1","","99.02","","","","","","Thunderstorms,Rain Showers"
"2017-05-30 14:00","2017","05","30","14:00","19.1","","12.9","","67","","29","","17","","24.1","","99.04","","","","","","Rain Showers"
"2017-05-30 15:00","2017","05","30","15:00","17.6","","9.8","","60","","30","","27","","19.3","","99.13","","","","","","NA"
"2017-05-30 16:00","2017","05","30","16:00","17.2","","10.4","","64","","27","","21","","24.1","","99.07","","","","","","Rain Showers"
"2017-05-30 17:00","2017","05","30","17:00","18.4","","10.8","","61","","23","","16","","24.1","","99.06","","","","","","NA"
"2017-05-30 18:00","2017","05","30","18:00","19.1","","10.5","","57","","25","","19","","24.1","","99.09","","","","","","NA"
"2017-05-30 19:00","2017","05","30","19:00","18.4","","11.1","","62","","25","","14","","24.1","","99.10","","","","","","Mostly Cloudy"
"2017-05-30 20:00","2017","05","30","20:00","15.1","","9.9","","71","","16","","17","","24.1","","99.13","","","","","","NA"
"2017-05-30 21:00","2017","05","30","21:00","15.7","","10.3","","70","","18","","7","","24.1","","99.13","","","","","","NA"
"2017-05-30 22:00","2017","05","30","22:00","13.8","","11.9","","88","","16","","10","","24.1","","99.19","","","","","","Mostly Cloudy"
"2017-05-30 23:00","2017","05","30","23:00","14.2","","11.7","","85","","13","","4","","24.1","","99.17","","","","","","NA"
"2017-05-31 00:00","2017","05","31","00:00","14.0","","11.9","","87","","17","","5","","24.1","","99.20","","","","","","NA"
"2017-05-31 01:00","2017","05","31","01:00","11.9","","10.3","","90","","24","","10","","24.1","","99.17","","","","","","Mainly Clear"
"2017-05-31 02:00","2017","05","31","02:00","12.3","","10.4","","88","","24","","7","","24.1","","99.17","","","","","","NA"
"2017-05-31 03:00","2017","05","31","03:00","11.8","","9.9","","88","","20","","5","","24.1","","99.18","","","","","","NA"
"2017-05-31 04:00","2017","05","31","04:00","11.4","","9.0","","85","","24","","4","","24.1","","99.18","","","","","","Mainly Clear"
"2017-05-31 05:00","2017","05","31","05:00","12.9","","9.0","","77","","22","","4","","24.1","","99.17","","","","","","NA"
"2017-05-31 06:00","2017","05","31","06:00","12.9","","9.9","","82","","14","","6","","24.1","","99.20","","","","","","NA"
"2017-05-31 07:00","2017","05","31","07:00","14.1","","10.0","","76","","23","","7","","24.1","","99.21","","","","","","Mostly Cloudy"
"2017-05-31 08:00","2017","05","31","08:00","16.5","","10.6","","68","","25","","11","","24.1","","99.18","","","","","","NA"
"2017-05-31 09:00","2017","05","31","09:00","18.4","","8.8","","53","","21","","14","","24.1","","99.13","","","","","","NA"
"2017-05-31 10:00","2017","05","31","10:00","19.9","","11.8","","59","","22","","16","","24.1","","99.10","","","","","","Mostly Cloudy"
"2017-05-31 11:00","2017","05","31","11:00","20.0","","10.8","","55","","25","","17","","24.1","","99.05","","","","","","NA"
"2017-05-31 12:00","2017","05","31","12:00","21.5","","9.6","","46","","22","","30","","24.1","","98.99","","","","","","NA"
"2017-05-31 13:00","2017","05","31","13:00","21.8","","10.5","","48","","25","","28","","24.1","","98.93","","","","","","Mainly Clear"
"2017-05-31 14:00","2017","05","31","14:00","20.8","","10.7","","52","","22","","17","","24.1","","98.90","","","","","","NA"
"2017-05-31 15:00","2017","05","31","15:00","21.8","","10.5","","48","","26","","32","","24.1","","98.91","","","","","","NA"
"2017-05-31 16:00","2017","05","31","16:00","21.8","","9.5","","45","","29","","35","","24.1","","98.93","","","","","","Mainly Clear"
"2017-05-31 17:00","2017","05","31","17:00","21.3","","8.0","","42","","28","","31","","24.1","","98.96","","","","","","NA"
"2017-05-31 18:00","2017","05","31","18:00","19.8","","8.0","","46","","28","","26","","24.1","","99.00","","","","","","NA"
"2017-05-31 19:00","2017","05","31","19:00","18.8","","8.3","","50","","27","","20","","24.1","","99.05","","","","","","Mostly Cloudy"
"2017-05-31 20:00","2017","05","31","20:00","17.5","","9.0","","57","","32","","24","","24.1","","99.10","","","","","","NA"
"2017-05-31 21:00","2017","05","31","21:00","16.2","","8.3","","59","","30","","23","","24.1","","99.19","","","","","","NA"
"2017-05-31 22:00","2017","05","31","22:00","14.6","","7.5","","62","","31","","37","","24.1","","99.25","","","","","","Mainly Clear"
"2017-05-31 23:00","2017","05","31","23:00","14.2","","7.1","","62","","32","","28","","24.1","","99.25","","","","","","NA"
