"Station Name","TORONTO LESTER B. PEARSON INT'L A"
"Province","ONTARIO"
"Latitude","43.68"
"Longitude","-79.63"
"Elevation","173.40"
"Climate Identifier","6158733"
"WMO Identifier","71624"
"TC Identifier","YYZ"
"All times are specified in Local Standard Time (LST). Add 1 hour to adjust for Daylight Saving Time where and when it is observed."

"Legend"
"E","Estimated"
"M","Missing"
"NA","Not Available"

"Date/Time","Year","Month","Day","Time","Temp (°C)","Temp Flag","Dew Point Temp (°C)","Dew Point Temp Flag","Rel Hum (%)","Rel Hum Flag","Wind Dir (10s deg)","Wind Dir Flag","Wind Spd (km/h)","Wind Spd Flag","Visibility (km)","Visibility Flag","Stn Press (kPa)","Stn Press Flag","Hmdx","Hmdx Flag","Wind Chill","Wind Chill Flag","Weather"
"1979-01-01 00:00","1979","01","01","00:00","4.0","","4.0","","100","","15","","11","","0.2","","98.66","","","","","","Rain,Fog"
"1979-01-01 01:00","1979","01","01","01:00","4.1","","4.1","","100","","18","","13","","0.2","","98.59","","","","","","Rain,Fog"
"1979-01-01 02:00","1979","01","01","02:00","6.6","","6.6","","100","","21","","17","","2.0","","98.59","","","","","","Drizzle,Fog"
"1979-01-01 03:00","1979","01","01","03:00","8.4","","8.1","","98","","23","","26","","8.0","","98.59","","","","","","Drizzle,Fog"
"1979-01-01 04:00","1979","01","01","04:00","8.0","","7.6","","97","","24","","26","","6.4","","98.72","","","","","","Rain,Fog"
"1979-01-01 05:00","1979","01","01","05:00","6.0","","4.8","","92","","25","","20","","19.3","","98.79","","","","","","Mostly Cloudy"
"1979-01-01 06:00","1979","01","01","06:00","4.0","","2.7","","91","","28","","20","","25.0","","98.96","","","","","","Mostly Cloudy"
"1979-01-01 07:00","1979","01","01","07:00","2.4","","1.1","","91","","30","","26","","25.0","","99.12","","","","","","Mainly Clear"
"1979-01-01 08:00","1979","01","01","08:00","1.3","","0.5","","95","","30","","11","","24.1","","99.19","","","","","","Cloudy"
"1979-01-01 09:00","1979","01","01","09:00","1.1","","-0.5","","89","","28","","11","","32.2","","99.29","","","","","","Cloudy"
"1979-01-01 10:00","1979","01","01","10:00","1.4","","-0.5","","87","","28","","7","","32.2","","99.29","","","","","","Cloudy"
"1979-01-01 11:00","1979","01","01","11:00","1.0","","-1.0","","86","","29","","11","","32.2","","99.32","","","","","","Cloudy"
"1979-01-01 12:00","1979","01","01","12:00","0.6","","-0.9","","90","","36","","9","","19.3","","99.19","","","","","","Cloudy"
"1979-01-01 13:00","1979","01","01","13:00","0.0","","-1.0","","93","","2","","11","","8.0","","99.09","","","","-4","","Rain,Fog"
"1979-01-01 14:00","1979","01","01","14:00","-0.5","","-0.8","","98","","1","","13","","6.4","","98.96","","","","-5","","Freezing Rain,Fog"
"1979-01-01 15:00","1979","01","01","15:00","-0.7","","-1.1","","97","","3","","15","","6.4","","98.82","","","","-5","","Freezing Rain,Fog"
"1979-01-01 16:00","1979","01","01","16:00","-0.7","","-1.1","","97","","2","","13","","6.4","","98.79","","","","-5","","Freezing Rain,Fog"
"1979-01-01 17:00","1979","01","01","17:00","-0.8","","-1.6","","94","","1","","17","","8.0","","98.79","","","","-6","","Moderate Freezing Rain,Fog"
"1979-01-01 18:00","1979","01","01","18:00","-1.2","","-1.6","","97","","36","","15","","12.9","","98.76","","","","-6","","Freezing Rain"
"1979-01-01 19:00","1979","01","01","19:00","-1.9","","-2.5","","96","","1","","17","","12.9","","98.76","","","","-7","","Freezing Rain"
"1979-01-01 20:00","1979","01","01","20:00","-2.5","","-3.4","","94","","34","","15","","25.0","","98.86","","","","-7","","Freezing Rain"
"1979-01-01 21:00","1979","01","01","21:00","-2.9","","-3.7","","94","","34","","11","","25.0","","98.89","","","","-7","","Cloudy"
"1979-01-01 22:00","1979","01","01","22:00","-2.6","","-3.1","","96","","33","","11","","24.1","","98.96","","","","-7","","Cloudy"
"1979-01-01 23:00","1979","01","01","23:00","-2.5","","-3.7","","91","","30","","15","","25.0","","98.96","","","","-7","","Cloudy"
"1979-01-02 00:00","1979","01","02","00:00","-3.0","","-5.4","","83","","32","","15","","19.3","","99.02","","","","-8","","Snow Grains"
"1979-01-02 01:00","1979","01","02","01:00","-3.3","","-6.0","","81","","27","","17","","24.1","","98.96","","","","-9","","Snow Showers"
"1979-01-02 02:00","1979","01","02","02:00","-3.8","","-7.0","","78","","31","","17","","25.0","","99.02","","","","-10","","Cloudy"
"1979-01-02 03:00","1979","01","02","03:00","-4.2","","-5.7","","89","","32","","19","","25.0","","98.99","","","","-10","","Cloudy"
"1979-01-02 04:00","1979","01","02","04:00","-4.2","","-6.0","","87","","33","","15","","25.0","","99.06","","","","-10","","Cloudy"
"1979-01-02 05:00","1979","01","02","05:00","-4.2","","-6.0","","87","","33","","13","","25.0","","98.99","","","","-9","","Cloudy"
"1979-01-02 06:00","1979","01","02","06:00","-4.5","","-7.3","","81","","31","","11","","25.0","","99.06","","","","-9","","Cloudy"
"1979-01-02 07:00","1979","01","02","07:00","-4.6","","-6.9","","84","","30","","11","","25.0","","99.12","","","","-9","","Cloudy"
"1979-01-02 08:00","1979","01","02","08:00","-4.8","","-7.9","","79","","32","","6","","25.0","","99.09","","","","-8","","Cloudy"
"1979-01-02 09:00","1979","01","02","09:00","-4.8","","-7.9","","79","","30","","13","","32.2","","99.06","","","","-10","","Mostly Cloudy"
"1979-01-02 10:00","1979","01","02","10:00","-4.9","","-7.9","","79","","29","","13","","40.2","","99.12","","","","-10","","Snow Showers"
"1979-01-02 11:00","1979","01","02","11:00","-4.5","","-7.3","","81","","31","","11","","40.2","","99.16","","","","-9","","Snow Showers"
"1979-01-02 12:00","1979","01","02","12:00","-4.2","","-7.0","","81","","30","","15","","40.2","","98.99","","","","-10","","Cloudy"
"1979-01-02 13:00","1979","01","02","13:00","-3.9","","-7.0","","79","","32","","9","","40.2","","98.89","","","","-8","","Cloudy"
"1979-01-02 14:00","1979","01","02","14:00","-3.5","","-7.0","","77","","30","","11","","40.2","","98.82","","","","-8","","Cloudy"
"1979-01-02 15:00","1979","01","02","15:00","-3.5","","-7.0","","77","","31","","9","","40.2","","98.79","","","","-7","","Cloudy"
"1979-01-02 16:00","1979","01","02","16:00","-3.4","","-7.7","","72","","25","","6","","40.2","","98.86","","","","-6","","Cloudy"
"1979-01-02 17:00","1979","01","02","17:00","-3.5","","-7.3","","75","","26","","13","","32.2","","98.89","","","","-8","","Cloudy"
"1979-01-02 18:00","1979","01","02","18:00","-4.3","","-7.3","","79","","27","","13","","9.7","","98.96","","","","-9","","Snow Showers"
"1979-01-02 19:00","1979","01","02","19:00","-5.5","","-6.8","","91","","27","","20","","2.4","","98.96","","","","-12","","Snow Showers"
"1979-01-02 20:00","1979","01","02","20:00","-6.5","","-9.0","","82","","27","","33","","12.9","","99.02","","","","-15","","Snow"
"1979-01-02 21:00","1979","01","02","21:00","-8.5","","-11.5","","79","","28","","33","","25.0","","99.12","","","","-18","","Mostly Cloudy"
"1979-01-02 22:00","1979","01","02","22:00","-9.8","","-15.2","","64","","27","","31","","24.1","","99.16","","","","-19","","Mostly Cloudy"
"1979-01-02 23:00","1979","01","02","23:00","-11.4","","-15.7","","70","","27","","33","","24.1","","99.19","","","","-22","","Mainly Clear"
"1979-01-03 00:00","1979","01","03","00:00","-13.4","","-17.7","","70","","27","","30","","24.1","","99.36","","","","-24","","Mainly Clear"
"1979-01-03 01:00","1979","01","03","01:00","-14.2","","-17.8","","74","","27","","30","","25.0","","99.39","","","","-25","","Mainly Clear"
"1979-01-03 02:00","1979","01","03","02:00","-14.6","","-19.6","","66","","27","","19","","25.0","","99.49","","","","-23","","Mainly Clear"
"1979-01-03 03:00","1979","01","03","03:00","-14.7","","-19.6","","66","","26","","24","","25.0","","99.59","","","","-25","","Mainly Clear"
"1979-01-03 04:00","1979","01","03","04:00","-15.7","","-20.3","","68","","25","","30","","25.0","","99.62","","","","-27","","Mainly Clear"
"1979-01-03 05:00","1979","01","03","05:00","-16.2","","-20.3","","71","","23","","28","","25.0","","99.62","","","","-27","","Clear"
"1979-01-03 06:00","1979","01","03","06:00","-16.2","","-20.3","","71","","24","","30","","25.0","","99.69","","","","-28","","Clear"
"1979-01-03 07:00","1979","01","03","07:00","-15.5","","-20.3","","67","","25","","39","","25.0","","99.76","","","","-28","","Clear"
"1979-01-03 08:00","1979","01","03","08:00","-15.4","","-19.7","","69","","25","","37","","32.2","","99.86","","","","-28","","Clear"
"1979-01-03 09:00","1979","01","03","09:00","-14.7","","-18.4","","74","","26","","33","","32.2","","99.96","","","","-26","","Clear"
"1979-01-03 10:00","1979","01","03","10:00","-13.8","","-17.8","","72","","26","","37","","40.2","","100.06","","","","-25","","Clear"
"1979-01-03 11:00","1979","01","03","11:00","-13.3","","-18.3","","66","","26","","44","","40.2","","100.12","","","","-26","","Clear"
"1979-01-03 12:00","1979","01","03","12:00","-12.6","","-17.5","","67","","26","","37","","32.2","","100.19","","","","-24","","Clear"
"1979-01-03 13:00","1979","01","03","13:00","-12.3","","-17.5","","65","","25","","30","","32.2","","100.19","","","","-23","","Mainly Clear"
"1979-01-03 14:00","1979","01","03","14:00","-12.0","","-17.4","","64","","24","","26","","32.2","","100.19","","","","-22","","Mainly Clear"
"1979-01-03 15:00","1979","01","03","15:00","-12.1","","-16.9","","67","","25","","30","","32.2","","100.22","","","","-22","","Mostly Cloudy"
"1979-01-03 16:00","1979","01","03","16:00","-12.0","","-16.3","","70","","24","","30","","32.2","","100.26","","","","-22","","Mainly Clear"
"1979-01-03 17:00","1979","01","03","17:00","-12.5","","-17.0","","69","","23","","31","","32.2","","100.29","","","","-23","","Mainly Clear"
"1979-01-03 18:00","1979","01","03","18:00","-13.0","","-16.0","","78","","23","","26","","25.0","","100.32","","","","-23","","Mainly Clear"
"1979-01-03 19:00","1979","01","03","19:00","-13.3","","-17.2","","72","","24","","30","","25.0","","100.32","","","","-24","","Mainly Clear"
"1979-01-03 20:00","1979","01","03","20:00","-13.6","","-18.3","","68","","24","","35","","25.0","","100.32","","","","-25","","Mainly Clear"
"1979-01-03 21:00","1979","01","03","21:00","-13.5","","-18.3","","67","","24","","52","","25.0","","100.36","","","","-27","","Clear"
"1979-01-03 22:00","1979","01","03","22:00","-13.4","","-18.3","","67","","25","","43","","25.0","","100.36","","","","-26","","Mainly Clear"
"1979-01-03 23:00","1979","01","03","23:00","-13.4","","-18.3","","67","","24","","30","","25.0","","100.36","","","","-24","","Mainly Clear"
"1979-01-04 00:00","1979","01","04","00:00","-13.4","","-17.7","","70","","23","","33","","25.0","","100.32","","","","-24","","Mainly Clear"
"1979-01-04 01:00","1979","01","04","01:00","-13.4","","-17.7","","70","","24","","31","","25.0","","100.29","","","","-24","","Mainly Clear"
"1979-01-04 02:00","1979","01","04","02:00","-13.2","","-16.5","","76","","23","","31","","25.0","","100.26","","","","-24","","Mainly Clear"
"1979-01-04 03:00","1979","01","04","03:00","-13.0","","-16.5","","75","","22","","28","","25.0","","100.26","","","","-23","","Mainly Clear"
"1979-01-04 04:00","1979","01","04","04:00","-13.0","","-16.0","","78","","22","","26","","25.0","","100.26","","","","-23","","Mainly Clear"
"1979-01-04 05:00","1979","01","04","05:00","-12.8","","-16.0","","77","","23","","28","","25.0","","100.22","","","","-23","","Ice Crystals"
"1979-01-04 06:00","1979","01","04","06:00","-12.5","","-15.4","","79","","23","","24","","19.3","","100.26","","","","-22","","Ice Crystals"
"1979-01-04 07:00","1979","01","04","07:00","-12.0","","-14.3","","83","","23","","26","","19.3","","100.26","","","","-22","","Ice Crystals"
"1979-01-04 08:00","1979","01","04","08:00","-11.9","","-14.3","","82","","24","","24","","4.8","","100.32","","","","-21","","Snow Showers"
"1979-01-04 09:00","1979","01","04","09:00","-11.8","","-14.3","","82","","25","","33","","19.3","","100.39","","","","-22","","Mainly Clear"
"1979-01-04 10:00","1979","01","04","10:00","-11.5","","-14.2","","80","","24","","31","","19.3","","100.46","","","","-22","","Ice Crystals"
"1979-01-04 11:00","1979","01","04","11:00","-10.8","","-16.6","","62","","24","","30","","19.3","","100.56","","","","-21","","Ice Crystals"
"1979-01-04 12:00","1979","01","04","12:00","-10.5","","-13.0","","82","","25","","28","","1.2","","100.59","","","","-20","","Snow Showers"
"1979-01-04 13:00","1979","01","04","13:00","-10.4","","-16.4","","61","","26","","48","","19.3","","100.59","","","","-22","","Mostly Cloudy"
"1979-01-04 14:00","1979","01","04","14:00","-10.2","","-16.2","","61","","25","","39","","24.1","","100.66","","","","-21","","Snow Showers"
"1979-01-04 15:00","1979","01","04","15:00","-11.0","","-15.0","","72","","25","","28","","16.1","","100.69","","","","-21","","Snow Showers"
"1979-01-04 16:00","1979","01","04","16:00","-11.5","","-15.2","","74","","24","","26","","12.9","","100.76","","","","-21","","Snow Showers"
"1979-01-04 17:00","1979","01","04","17:00","-11.5","","-13.3","","87","","24","","22","","1.2","","100.79","","","","-20","","Snow Showers"
"1979-01-04 18:00","1979","01","04","18:00","-11.6","","-14.2","","81","","24","","20","","4.8","","100.85","","","","-20","","Snow Showers"
"1979-01-04 19:00","1979","01","04","19:00","-11.5","","-15.2","","74","","24","","24","","6.4","","100.89","","","","-21","","Snow Showers"
"1979-01-04 20:00","1979","01","04","20:00","-11.5","","-13.3","","87","","24","","20","","4.8","","100.92","","","","-20","","Snow Showers"
"1979-01-04 21:00","1979","01","04","21:00","-11.8","","-14.3","","82","","26","","26","","4.8","","100.95","","","","-21","","Snow Showers"
"1979-01-04 22:00","1979","01","04","22:00","-12.5","","-15.9","","76","","26","","28","","19.3","","100.99","","","","-22","","Mainly Clear"
"1979-01-04 23:00","1979","01","04","23:00","-12.8","","-16.0","","77","","26","","26","","19.3","","100.99","","","","-23","","Mainly Clear"
"1979-01-05 00:00","1979","01","05","00:00","-13.4","","-17.2","","73","","26","","22","","19.3","","101.05","","","","-23","","Mostly Cloudy"
"1979-01-05 01:00","1979","01","05","01:00","-14.0","","-19.0","","66","","26","","22","","25.0","","101.09","","","","-23","","Clear"
"1979-01-05 02:00","1979","01","05","02:00","-14.4","","-19.0","","68","","26","","26","","25.0","","101.15","","","","-25","","Clear"
"1979-01-05 03:00","1979","01","05","03:00","-14.7","","-18.4","","74","","25","","22","","25.0","","101.19","","","","-24","","Clear"
"1979-01-05 04:00","1979","01","05","04:00","-14.9","","-18.4","","75","","25","","19","","25.0","","101.22","","","","-24","","Clear"
"1979-01-05 05:00","1979","01","05","05:00","-14.8","","-19.0","","70","","24","","20","","25.0","","101.25","","","","-24","","Clear"
"1979-01-05 06:00","1979","01","05","06:00","-15.0","","-18.4","","75","","24","","19","","25.0","","101.25","","","","-24","","Clear"
"1979-01-05 07:00","1979","01","05","07:00","-15.1","","-17.8","","80","","23","","19","","25.0","","101.29","","","","-24","","Clear"
"1979-01-05 08:00","1979","01","05","08:00","-15.2","","-18.4","","77","","23","","15","","40.2","","101.35","","","","-23","","Mainly Clear"
"1979-01-05 09:00","1979","01","05","09:00","-14.3","","-18.4","","71","","21","","15","","40.2","","101.35","","","","-22","","Mainly Clear"
"1979-01-05 10:00","1979","01","05","10:00","-13.5","","-17.7","","70","","21","","13","","40.2","","101.39","","","","-20","","Mainly Clear"
"1979-01-05 11:00","1979","01","05","11:00","-12.4","","-16.4","","72","","25","","22","","40.2","","101.39","","","","-21","","Mostly Cloudy"
"1979-01-05 12:00","1979","01","05","12:00","-11.9","","-15.3","","76","","24","","19","","16.1","","101.32","","","","-20","","Snow Showers"
"1979-01-05 13:00","1979","01","05","13:00","-11.5","","-15.7","","71","","25","","19","","40.2","","101.25","","","","-20","","Mostly Cloudy"
"1979-01-05 14:00","1979","01","05","14:00","-11.3","","-16.7","","64","","25","","15","","40.2","","101.15","","","","-18","","Mostly Cloudy"
"1979-01-05 15:00","1979","01","05","15:00","-11.4","","-16.7","","65","","26","","17","","40.2","","101.15","","","","-19","","Mostly Cloudy"
"1979-01-05 16:00","1979","01","05","16:00","-11.7","","-16.7","","66","","26","","17","","40.2","","101.09","","","","-19","","Mostly Cloudy"
"1979-01-05 17:00","1979","01","05","17:00","-12.6","","-17.0","","70","","25","","9","","40.2","","101.05","","","","-18","","Mostly Cloudy"
"1979-01-05 18:00","1979","01","05","18:00","-12.8","","-17.1","","70","","25","","9","","25.0","","101.05","","","","-18","","Cloudy"
"1979-01-05 19:00","1979","01","05","19:00","-13.0","","-17.1","","71","","26","","6","","25.0","","101.05","","","","-17","","Cloudy"
"1979-01-05 20:00","1979","01","05","20:00","-13.3","","-17.2","","72","","24","","6","","25.0","","100.99","","","","-17","","Cloudy"
"1979-01-05 21:00","1979","01","05","21:00","-13.5","","-16.6","","77","","24","","2","","25.0","","100.89","","","","-15","","Cloudy"
"1979-01-05 22:00","1979","01","05","22:00","-13.1","","-16.5","","76","","19","","6","","19.3","","100.89","","","","-17","","Mostly Cloudy"
"1979-01-05 23:00","1979","01","05","23:00","-12.5","","-15.9","","76","","25","","2","","19.3","","100.79","","","","-14","","Cloudy"
"1979-01-06 00:00","1979","01","06","00:00","-11.7","","-14.7","","78","","27","","4","","19.3","","100.69","","","","-14","","Cloudy"
"1979-01-06 01:00","1979","01","06","01:00","-11.6","","-14.7","","78","","23","","7","","19.3","","100.62","","","","-16","","Cloudy"
"1979-01-06 02:00","1979","01","06","02:00","-11.7","","-14.7","","78","","25","","9","","19.3","","100.56","","","","-17","","Cloudy"
"1979-01-06 03:00","1979","01","06","03:00","-11.9","","-15.3","","76","","26","","11","","19.3","","100.59","","","","-18","","Cloudy"
"1979-01-06 04:00","1979","01","06","04:00","-12.5","","-15.4","","79","","25","","9","","19.3","","100.49","","","","-18","","Mostly Cloudy"
"1979-01-06 05:00","1979","01","06","05:00","-13.1","","-15.5","","82","","24","","9","","19.3","","100.49","","","","-19","","Mostly Cloudy"
"1979-01-06 06:00","1979","01","06","06:00","-14.3","","-15.7","","89","","22","","11","","19.3","","100.49","","","","-21","","Mainly Clear"
"1979-01-06 07:00","1979","01","06","07:00","-14.1","","-15.7","","88","","22","","9","","19.3","","100.49","","","","-20","","Mainly Clear"
"1979-01-06 08:00","1979","01","06","08:00","-15.0","","-16.2","","90","","22","","2","","8.0","","100.56","","","","-16","","Fog"
"1979-01-06 09:00","1979","01","06","09:00","-13.0","","-15.0","","85","","23","","17","","12.9","","100.52","","","","-21","","Mainly Clear"
"1979-01-06 10:00","1979","01","06","10:00","-11.5","","-14.2","","80","","25","","17","","24.1","","100.52","","","","-19","","Mostly Cloudy"
"1979-01-06 11:00","1979","01","06","11:00","-9.6","","-14.0","","70","","26","","15","","32.2","","100.49","","","","-16","","Mostly Cloudy"
"1979-01-06 12:00","1979","01","06","12:00","-8.4","","-14.1","","63","","23","","24","","32.2","","100.36","","","","-17","","Mostly Cloudy"
"1979-01-06 13:00","1979","01","06","13:00","-7.8","","-12.9","","67","","22","","20","","32.2","","100.22","","","","-15","","Mostly Cloudy"
"1979-01-06 14:00","1979","01","06","14:00","-7.4","","-12.7","","65","","22","","24","","32.2","","100.19","","","","-15","","Mostly Cloudy"
"1979-01-06 15:00","1979","01","06","15:00","-7.1","","-12.0","","68","","21","","30","","32.2","","100.16","","","","-16","","Mainly Clear"
"1979-01-06 16:00","1979","01","06","16:00","-7.2","","-12.0","","69","","21","","24","","32.2","","100.12","","","","-15","","Mainly Clear"
"1979-01-06 17:00","1979","01","06","17:00","-7.2","","-11.5","","71","","22","","11","","32.2","","100.09","","","","-12","","Mainly Clear"
"1979-01-06 18:00","1979","01","06","18:00","-8.7","","-12.3","","75","","22","","20","","25.0","","100.09","","","","-16","","Mainly Clear"
"1979-01-06 19:00","1979","01","06","19:00","-9.2","","-12.5","","77","","21","","19","","25.0","","100.12","","","","-17","","Mainly Clear"
"1979-01-06 20:00","1979","01","06","20:00","-9.3","","-12.7","","76","","20","","20","","25.0","","100.12","","","","-17","","Clear"
"1979-01-06 21:00","1979","01","06","21:00","-9.5","","-11.4","","86","","20","","17","","25.0","","100.12","","","","-17","","Clear"
"1979-01-06 22:00","1979","01","06","22:00","-10.5","","-12.6","","84","","23","","7","","25.0","","100.12","","","","-15","","Clear"
"1979-01-06 23:00","1979","01","06","23:00","-10.5","","-13.5","","78","","23","","17","","25.0","","100.16","","","","-18","","Clear"
"1979-01-07 00:00","1979","01","07","00:00","-10.6","","-13.5","","79","","24","","11","","25.0","","100.16","","","","-16","","Clear"
"1979-01-07 01:00","1979","01","07","01:00","-10.7","","-13.9","","77","","20","","4","","25.0","","100.12","","","","-13","","Clear"
"1979-01-07 02:00","1979","01","07","02:00","-12.2","","-14.8","","81","","23","","6","","25.0","","100.16","","","","-16","","Clear"
"1979-01-07 03:00","1979","01","07","03:00","-12.7","","-14.9","","84","","23","","7","","25.0","","100.19","","","","-17","","Mainly Clear"
"1979-01-07 04:00","1979","01","07","04:00","-13.3","","-15.6","","83","","","","0","","25.0","","100.16","","","","","","Mainly Clear"
"1979-01-07 05:00","1979","01","07","05:00","-12.3","","-14.9","","81","","25","","2","","19.3","","100.09","","","","-14","","Mostly Cloudy"
"1979-01-07 06:00","1979","01","07","06:00","-11.9","","-14.8","","79","","23","","2","","19.3","","100.09","","","","-13","","Mostly Cloudy"
"1979-01-07 07:00","1979","01","07","07:00","-11.6","","-14.7","","78","","","","0","","19.3","","100.06","","","","","","Cloudy"
"1979-01-07 08:00","1979","01","07","08:00","-11.2","","-13.6","","82","","","","0","","16.1","","100.09","","","","","","Cloudy"
"1979-01-07 09:00","1979","01","07","09:00","-10.8","","-13.6","","80","","23","","2","","12.9","","100.09","","","","-12","","Cloudy"
"1979-01-07 10:00","1979","01","07","10:00","-9.7","","-11.8","","85","","28","","4","","16.1","","100.06","","","","-12","","Cloudy"
"1979-01-07 11:00","1979","01","07","11:00","-8.7","","-10.7","","85","","","","0","","16.1","","100.06","","","","","","Cloudy"
"1979-01-07 12:00","1979","01","07","12:00","-8.4","","-11.5","","78","","","","0","","16.1","","99.89","","","","","","Cloudy"
"1979-01-07 13:00","1979","01","07","13:00","-7.5","","-9.9","","83","","","","0","","16.1","","99.76","","","","","","Cloudy"
"1979-01-07 14:00","1979","01","07","14:00","-7.6","","-10.2","","81","","1","","4","","16.1","","99.59","","","","-10","","Snow"
"1979-01-07 15:00","1979","01","07","15:00","-7.9","","-9.3","","90","","1","","4","","1.6","","99.52","","","","-10","","Snow"
"1979-01-07 16:00","1979","01","07","16:00","-8.0","","-9.0","","92","","35","","9","","1.2","","99.56","","","","-13","","Snow"
"1979-01-07 17:00","1979","01","07","17:00","-8.0","","-8.7","","95","","34","","11","","1.6","","99.49","","","","-13","","Snow"
"1979-01-07 18:00","1979","01","07","18:00","-8.0","","-9.0","","92","","2","","9","","2.0","","99.42","","","","-13","","Snow"
"1979-01-07 19:00","1979","01","07","19:00","-7.9","","-9.3","","90","","35","","6","","8.0","","99.46","","","","-11","","Snow"
"1979-01-07 20:00","1979","01","07","20:00","-7.9","","-9.7","","87","","33","","7","","12.9","","99.49","","","","-12","","Snow"
"1979-01-07 21:00","1979","01","07","21:00","-7.9","","-9.7","","87","","33","","13","","12.9","","99.46","","","","-14","","Cloudy"
"1979-01-07 22:00","1979","01","07","22:00","-8.1","","-10.1","","85","","34","","9","","12.9","","99.39","","","","-13","","Cloudy"
"1979-01-07 23:00","1979","01","07","23:00","-8.1","","-10.1","","85","","34","","13","","12.9","","99.39","","","","-14","","Cloudy"
"1979-01-08 00:00","1979","01","08","00:00","-8.2","","-10.1","","86","","34","","13","","16.1","","99.39","","","","-14","","Mostly Cloudy"
"1979-01-08 01:00","1979","01","08","01:00","-8.6","","-10.7","","85","","33","","6","","16.1","","99.36","","","","-12","","Mostly Cloudy"
"1979-01-08 02:00","1979","01","08","02:00","-9.5","","-11.1","","88","","32","","9","","19.3","","99.36","","","","-14","","Cloudy"
"1979-01-08 03:00","1979","01","08","03:00","-9.5","","-11.4","","86","","31","","7","","25.0","","99.39","","","","-13","","Mostly Cloudy"
"1979-01-08 04:00","1979","01","08","04:00","-9.5","","-11.4","","86","","29","","2","","25.0","","99.39","","","","-11","","Mostly Cloudy"
"1979-01-08 05:00","1979","01","08","05:00","-10.6","","-12.2","","88","","29","","4","","19.3","","99.36","","","","-13","","Mostly Cloudy"
"1979-01-08 06:00","1979","01","08","06:00","-10.5","","-12.2","","87","","","","0","","19.3","","99.36","","","","","","Cloudy"
"1979-01-08 07:00","1979","01","08","07:00","-9.4","","-11.4","","85","","29","","4","","19.3","","99.39","","","","-12","","Mostly Cloudy"
"1979-01-08 08:00","1979","01","08","08:00","-8.4","","-10.7","","83","","26","","13","","12.9","","99.39","","","","-14","","Cloudy"
"1979-01-08 09:00","1979","01","08","09:00","-8.5","","-11.1","","81","","24","","9","","8.0","","99.46","","","","-13","","Haze"
"1979-01-08 10:00","1979","01","08","10:00","-7.2","","-9.6","","83","","27","","11","","19.3","","99.46","","","","-12","","Mainly Clear"
"1979-01-08 11:00","1979","01","08","11:00","-6.0","","-10.3","","72","","27","","20","","32.2","","99.42","","","","-13","","Mainly Clear"
"1979-01-08 12:00","1979","01","08","12:00","-5.8","","-11.1","","66","","27","","22","","32.2","","99.36","","","","-13","","Mostly Cloudy"
"1979-01-08 13:00","1979","01","08","13:00","-6.1","","-10.3","","72","","27","","24","","32.2","","99.29","","","","-14","","Mainly Clear"
"1979-01-08 14:00","1979","01","08","14:00","-6.1","","-11.5","","65","","26","","26","","32.2","","99.29","","","","-14","","Mainly Clear"
"1979-01-08 15:00","1979","01","08","15:00","-6.6","","-11.3","","69","","28","","22","","32.2","","99.36","","","","-14","","Mainly Clear"
"1979-01-08 16:00","1979","01","08","16:00","-7.9","","-12.1","","72","","26","","24","","32.2","","99.46","","","","-16","","Mainly Clear"
"1979-01-08 17:00","1979","01","08","17:00","-8.2","","-12.1","","73","","25","","17","","32.2","","99.49","","","","-15","","Mainly Clear"
"1979-01-08 18:00","1979","01","08","18:00","-10.3","","-13.9","","75","","24","","9","","25.0","","99.56","","","","-15","","Mainly Clear"
"1979-01-08 19:00","1979","01","08","19:00","-11.6","","-14.7","","78","","24","","13","","25.0","","99.66","","","","-18","","Mainly Clear"
"1979-01-08 20:00","1979","01","08","20:00","-12.0","","-14.8","","80","","24","","19","","25.0","","99.69","","","","-20","","Clear"
"1979-01-08 21:00","1979","01","08","21:00","-12.5","","-15.4","","79","","23","","22","","25.0","","99.69","","","","-21","","Clear"
"1979-01-08 22:00","1979","01","08","22:00","-13.3","","-16.6","","76","","23","","19","","25.0","","99.69","","","","-22","","Clear"
"1979-01-08 23:00","1979","01","08","23:00","-13.0","","-16.0","","78","","23","","20","","25.0","","99.72","","","","-22","","Clear"
"1979-01-09 00:00","1979","01","09","00:00","-12.5","","-15.4","","79","","23","","20","","25.0","","99.76","","","","-21","","Mainly Clear"
"1979-01-09 01:00","1979","01","09","01:00","-11.8","","-15.8","","72","","25","","20","","25.0","","99.76","","","","-20","","Mainly Clear"
"1979-01-09 02:00","1979","01","09","02:00","-10.9","","-14.5","","75","","24","","20","","25.0","","99.79","","","","-19","","Mostly Cloudy"
"1979-01-09 03:00","1979","01","09","03:00","-11.3","","-14.7","","76","","21","","20","","25.0","","99.79","","","","-20","","Mostly Cloudy"
"1979-01-09 04:00","1979","01","09","04:00","-12.2","","-15.3","","78","","22","","28","","25.0","","99.79","","","","-22","","Mainly Clear"
"1979-01-09 05:00","1979","01","09","05:00","-13.1","","-17.1","","72","","23","","28","","25.0","","99.76","","","","-23","","Mainly Clear"
"1979-01-09 06:00","1979","01","09","06:00","-14.0","","-17.8","","73","","23","","31","","24.1","","99.76","","","","-25","","Snow Showers"
"1979-01-09 07:00","1979","01","09","07:00","-13.7","","-16.6","","79","","22","","26","","19.3","","99.79","","","","-24","","Snow Showers"
"1979-01-09 08:00","1979","01","09","08:00","-13.9","","-17.2","","76","","22","","22","","16.1","","99.76","","","","-23","","Snow Showers"
"1979-01-09 09:00","1979","01","09","09:00","-13.6","","-16.1","","81","","22","","22","","4.8","","99.79","","","","-23","","Snow"
"1979-01-09 10:00","1979","01","09","10:00","-13.0","","-15.0","","85","","23","","19","","2.8","","99.86","","","","-21","","Snow"
"1979-01-09 11:00","1979","01","09","11:00","-11.8","","-15.3","","75","","22","","22","","4.8","","99.86","","","","-21","","Snow"
"1979-01-09 12:00","1979","01","09","12:00","-9.1","","-11.7","","81","","23","","33","","9.7","","99.76","","","","-19","","Snow"
"1979-01-09 13:00","1979","01","09","13:00","-10.4","","-13.9","","75","","24","","28","","12.9","","99.76","","","","-20","","Snow"
"1979-01-09 14:00","1979","01","09","14:00","-11.2","","-14.1","","79","","23","","24","","3.2","","99.76","","","","-20","","Snow"
"1979-01-09 15:00","1979","01","09","15:00","-11.1","","-14.5","","76","","22","","22","","12.9","","99.76","","","","-20","","Snow"
"1979-01-09 16:00","1979","01","09","16:00","-11.3","","-14.7","","76","","23","","20","","19.3","","99.86","","","","-20","","Mostly Cloudy"
"1979-01-09 17:00","1979","01","09","17:00","-11.6","","-15.2","","74","","23","","22","","19.3","","99.92","","","","-20","","Mainly Clear"
"1979-01-09 18:00","1979","01","09","18:00","-12.4","","-15.4","","78","","22","","17","","24.1","","99.99","","","","-20","","Clear"
"1979-01-09 19:00","1979","01","09","19:00","-13.2","","-15.5","","83","","23","","19","","24.1","","100.06","","","","-22","","Clear"
"1979-01-09 20:00","1979","01","09","20:00","-14.0","","-16.7","","80","","23","","24","","24.1","","100.12","","","","-24","","Clear"
"1979-01-09 21:00","1979","01","09","21:00","-13.0","","-15.5","","81","","24","","24","","24.1","","100.16","","","","-22","","Clear"
"1979-01-09 22:00","1979","01","09","22:00","-13.3","","-16.1","","79","","24","","22","","24.1","","100.16","","","","-22","","Clear"
"1979-01-09 23:00","1979","01","09","23:00","-12.9","","-15.5","","81","","25","","22","","24.1","","100.19","","","","-22","","Clear"
"1979-01-10 00:00","1979","01","10","00:00","-12.8","","-15.5","","80","","25","","24","","24.1","","100.19","","","","-22","","Clear"
"1979-01-10 01:00","1979","01","10","01:00","-12.7","","-15.4","","80","","25","","19","","24.1","","100.16","","","","-21","","Mainly Clear"
"1979-01-10 02:00","1979","01","10","02:00","-13.1","","-15.5","","82","","24","","19","","24.1","","100.19","","","","-22","","Clear"
"1979-01-10 03:00","1979","01","10","03:00","-13.0","","-15.5","","81","","25","","22","","24.1","","100.19","","","","-22","","Clear"
"1979-01-10 04:00","1979","01","10","04:00","-13.1","","-15.0","","86","","24","","19","","19.3","","100.19","","","","-22","","Mainly Clear"
"1979-01-10 05:00","1979","01","10","05:00","-13.6","","-15.6","","85","","25","","17","","19.3","","100.16","","","","-22","","Mainly Clear"
"1979-01-10 06:00","1979","01","10","06:00","-13.6","","-15.6","","85","","24","","22","","19.3","","100.19","","","","-23","","Mainly Clear"
"1979-01-10 07:00","1979","01","10","07:00","-13.9","","-16.2","","82","","26","","13","","19.3","","100.22","","","","-21","","Mainly Clear"
"1979-01-10 08:00","1979","01","10","08:00","-14.2","","-16.2","","85","","25","","17","","24.1","","100.26","","","","-22","","Mainly Clear"
"1979-01-10 09:00","1979","01","10","09:00","-12.4","","-14.9","","81","","24","","19","","40.2","","100.29","","","","-21","","Mainly Clear"
"1979-01-10 10:00","1979","01","10","10:00","-10.6","","-13.5","","79","","24","","28","","40.2","","100.26","","","","-20","","Mostly Cloudy"
"1979-01-10 11:00","1979","01","10","11:00","-10.0","","-13.8","","74","","24","","28","","40.2","","100.29","","","","-19","","Cloudy"
"1979-01-10 12:00","1979","01","10","12:00","-9.7","","-12.7","","79","","24","","26","","11.3","","100.26","","","","-19","","Snow"
"1979-01-10 13:00","1979","01","10","13:00","-9.5","","-12.7","","77","","24","","28","","16.1","","100.19","","","","-19","","Snow Showers"
"1979-01-10 14:00","1979","01","10","14:00","-8.8","","-15.3","","59","","25","","35","","32.2","","100.16","","","","-19","","Mostly Cloudy"
"1979-01-10 15:00","1979","01","10","15:00","-9.3","","-15.0","","63","","26","","26","","32.2","","100.22","","","","-18","","Mainly Clear"
"1979-01-10 16:00","1979","01","10","16:00","-8.8","","-13.4","","69","","26","","22","","24.1","","100.32","","","","-17","","Mainly Clear"
"1979-01-10 17:00","1979","01","10","17:00","-11.8","","-15.3","","75","","36","","24","","6.4","","100.49","","","","-21","","Snow Showers"
"1979-01-10 18:00","1979","01","10","18:00","-13.5","","-16.1","","81","","34","","15","","25.0","","100.62","","","","-21","","Mainly Clear"
"1979-01-10 19:00","1979","01","10","19:00","-15.4","","-17.9","","81","","32","","13","","25.0","","100.76","","","","-23","","Clear"
"1979-01-10 20:00","1979","01","10","20:00","-16.2","","-17.9","","87","","29","","9","","25.0","","100.82","","","","-22","","Clear"
"1979-01-10 21:00","1979","01","10","21:00","-14.7","","-17.8","","77","","28","","17","","25.0","","100.89","","","","-23","","Mainly Clear"
"1979-01-10 22:00","1979","01","10","22:00","-16.3","","-19.6","","75","","31","","15","","25.0","","100.95","","","","-25","","Mainly Clear"
"1979-01-10 23:00","1979","01","10","23:00","-16.6","","-19.6","","78","","35","","17","","25.0","","100.99","","","","-25","","Clear"
"1979-01-11 00:00","1979","01","11","00:00","-17.8","","-21.4","","73","","35","","13","","25.0","","101.09","","","","-26","","Mainly Clear"
"1979-01-11 01:00","1979","01","11","01:00","-19.5","","-22.4","","78","","1","","11","","25.0","","101.09","","","","-27","","Clear"
"1979-01-11 02:00","1979","01","11","02:00","-19.8","","-23.8","","71","","2","","6","","25.0","","101.09","","","","-25","","Clear"
"1979-01-11 03:00","1979","01","11","03:00","-21.0","","-24.2","","75","","32","","9","","25.0","","101.15","","","","-28","","Mainly Clear"
"1979-01-11 04:00","1979","01","11","04:00","-20.1","","-22.2","","83","","30","","2","","25.0","","101.19","","","","-22","","Mainly Clear"
"1979-01-11 05:00","1979","01","11","05:00","-20.7","","-22.8","","84","","","","0","","25.0","","101.19","","","","","","Mainly Clear"
"1979-01-11 06:00","1979","01","11","06:00","-21.5","","-23.9","","81","","26","","4","","25.0","","101.25","","","","-25","","Mainly Clear"
"1979-01-11 07:00","1979","01","11","07:00","-22.1","","-24.4","","82","","33","","2","","25.0","","101.29","","","","-24","","Mainly Clear"
"1979-01-11 08:00","1979","01","11","08:00","-21.3","","-23.9","","80","","29","","4","","32.2","","101.29","","","","-25","","Mainly Clear"
"1979-01-11 09:00","1979","01","11","09:00","-18.9","","-21.1","","83","","","","0","","24.1","","101.29","","","","","","Mainly Clear"
"1979-01-11 10:00","1979","01","11","10:00","-14.8","","-19.7","","66","","20","","7","","32.2","","101.35","","","","-20","","Mainly Clear"
"1979-01-11 11:00","1979","01","11","11:00","-11.8","","-18.6","","57","","23","","15","","40.2","","101.32","","","","-19","","Mainly Clear"
"1979-01-11 12:00","1979","01","11","12:00","-10.1","","-15.7","","63","","24","","19","","40.2","","101.25","","","","-18","","Mainly Clear"
"1979-01-11 13:00","1979","01","11","13:00","-9.5","","-15.5","","61","","25","","22","","40.2","","101.15","","","","-18","","Mainly Clear"
"1979-01-11 14:00","1979","01","11","14:00","-8.7","","-13.6","","68","","26","","20","","40.2","","101.15","","","","-16","","Mainly Clear"
"1979-01-11 15:00","1979","01","11","15:00","-8.9","","-16.4","","54","","25","","15","","40.2","","101.15","","","","-15","","Mainly Clear"
"1979-01-11 16:00","1979","01","11","16:00","-9.2","","-16.4","","56","","26","","17","","40.2","","101.12","","","","-16","","Mainly Clear"
"1979-01-11 17:00","1979","01","11","17:00","-10.2","","-16.2","","61","","25","","9","","40.2","","101.15","","","","-15","","Mainly Clear"
"1979-01-11 18:00","1979","01","11","18:00","-13.1","","-16.5","","76","","","","0","","40.2","","101.12","","","","","","Mainly Clear"
"1979-01-11 19:00","1979","01","11","19:00","-12.8","","-17.1","","70","","","","0","","25.0","","101.09","","","","","","Mostly Cloudy"
"1979-01-11 20:00","1979","01","11","20:00","-14.2","","-17.2","","78","","22","","2","","25.0","","101.09","","","","-16","","Mostly Cloudy"
"1979-01-11 21:00","1979","01","11","21:00","-17.6","","-19.5","","85","","26","","4","","25.0","","101.12","","","","-21","","Mostly Cloudy"
"1979-01-11 22:00","1979","01","11","22:00","-15.6","","-19.7","","71","","26","","2","","25.0","","101.09","","","","-17","","Cloudy"
"1979-01-11 23:00","1979","01","11","23:00","-16.4","","-18.4","","84","","","","0","","25.0","","101.09","","","","","","Cloudy"
"1979-01-12 00:00","1979","01","12","00:00","-16.7","","-17.3","","95","","35","","2","","24.1","","101.05","","","","-18","","Cloudy"
"1979-01-12 01:00","1979","01","12","01:00","-16.5","","-18.4","","85","","36","","7","","24.1","","100.99","","","","-22","","Cloudy"
"1979-01-12 02:00","1979","01","12","02:00","-17.1","","-19.0","","85","","35","","6","","24.1","","100.95","","","","-22","","Cloudy"
"1979-01-12 03:00","1979","01","12","03:00","-16.5","","-19.0","","81","","35","","2","","24.1","","100.95","","","","-18","","Cloudy"
"1979-01-12 04:00","1979","01","12","04:00","-15.6","","-17.9","","83","","33","","2","","19.3","","100.89","","","","-17","","Cloudy"
"1979-01-12 05:00","1979","01","12","05:00","-14.2","","-15.7","","88","","34","","2","","19.3","","100.82","","","","-16","","Snow Showers"
"1979-01-12 06:00","1979","01","12","06:00","-13.6","","-17.3","","74","","2","","4","","19.3","","100.79","","","","-16","","Cloudy"
"1979-01-12 07:00","1979","01","12","07:00","-14.5","","-16.7","","83","","3","","13","","25.0","","100.76","","","","-22","","Mostly Cloudy"
"1979-01-12 08:00","1979","01","12","08:00","-13.5","","-16.1","","81","","2","","11","","19.3","","100.69","","","","-20","","Mostly Cloudy"
"1979-01-12 09:00","1979","01","12","09:00","-11.4","","-15.2","","73","","4","","15","","32.2","","100.69","","","","-18","","Cloudy"
"1979-01-12 10:00","1979","01","12","10:00","-9.8","","-13.3","","75","","3","","11","","32.2","","100.69","","","","-15","","Cloudy"
"1979-01-12 11:00","1979","01","12","11:00","-8.3","","-13.6","","65","","5","","7","","32.2","","100.62","","","","-12","","Mainly Clear"
"1979-01-12 12:00","1979","01","12","12:00","-7.4","","-13.1","","63","","11","","11","","32.2","","100.38","","","","-12","","Mainly Clear"
"1979-01-12 13:00","1979","01","12","13:00","-7.5","","-12.7","","66","","13","","17","","32.2","","100.42","","","","-14","","Mostly Cloudy"
"1979-01-12 14:00","1979","01","12","14:00","-7.3","","-12.3","","67","","12","","11","","32.2","","100.39","","","","-12","","Mainly Clear"
"1979-01-12 15:00","1979","01","12","15:00","-7.5","","-12.7","","66","","14","","2","","32.2","","100.36","","","","-9","","Mostly Cloudy"
"1979-01-12 16:00","1979","01","12","16:00","-7.2","","-12.4","","66","","13","","4","","32.2","","100.39","","","","-9","","Mostly Cloudy"
"1979-01-12 17:00","1979","01","12","17:00","-8.4","","-13.2","","68","","15","","2","","32.2","","100.39","","","","-9","","Cloudy"
"1979-01-12 18:00","1979","01","12","18:00","-8.6","","-13.2","","69","","10","","7","","24.1","","100.36","","","","-12","","Mostly Cloudy"
"1979-01-12 19:00","1979","01","12","19:00","-8.3","","-13.2","","67","","9","","6","","24.1","","100.36","","","","-12","","Mostly Cloudy"
"1979-01-12 20:00","1979","01","12","20:00","-8.5","","-12.3","","74","","9","","2","","24.1","","100.36","","","","-10","","Mostly Cloudy"
"1979-01-12 21:00","1979","01","12","21:00","-12.1","","-13.4","","90","","","","0","","24.1","","100.29","","","","","","Cloudy"
"1979-01-12 22:00","1979","01","12","22:00","-12.5","","-14.0","","88","","34","","4","","19.3","","100.32","","","","-15","","Cloudy"
"1979-01-12 23:00","1979","01","12","23:00","-11.5","","-13.3","","87","","36","","4","","16.1","","100.32","","","","-14","","Cloudy"
"1979-01-13 00:00","1979","01","13","00:00","-10.0","","-12.0","","85","","35","","4","","16.1","","100.26","","","","-12","","Cloudy"
"1979-01-13 01:00","1979","01","13","01:00","-9.6","","-11.8","","84","","3","","9","","12.9","","100.16","","","","-14","","Cloudy"
"1979-01-13 02:00","1979","01","13","02:00","-8.3","","-10.3","","85","","3","","4","","12.9","","100.12","","","","-10","","Cloudy"
"1979-01-13 03:00","1979","01","13","03:00","-7.4","","-9.1","","87","","2","","9","","12.9","","100.16","","","","-12","","Cloudy"
"1979-01-13 04:00","1979","01","13","04:00","-6.7","","-8.3","","89","","5","","9","","12.9","","100.09","","","","-11","","Cloudy"
"1979-01-13 05:00","1979","01","13","05:00","-6.4","","-8.0","","88","","5","","13","","12.9","","99.96","","","","-12","","Cloudy"
"1979-01-13 06:00","1979","01","13","06:00","-5.9","","-7.4","","89","","5","","20","","12.9","","99.79","","","","-13","","Cloudy"
"1979-01-13 07:00","1979","01","13","07:00","-5.5","","-6.8","","91","","6","","17","","6.4","","99.79","","","","-12","","Snow"
"1979-01-13 08:00","1979","01","13","08:00","-5.4","","-6.2","","94","","6","","17","","1.2","","99.82","","","","-11","","Snow"
"1979-01-13 09:00","1979","01","13","09:00","-5.4","","-6.2","","94","","5","","17","","0.8","","99.76","","","","-11","","Moderate Snow"
"1979-01-13 10:00","1979","01","13","10:00","-5.4","","-6.2","","94","","6","","19","","1.0","","99.72","","","","-12","","Snow"
"1979-01-13 11:00","1979","01","13","11:00","-5.0","","-5.6","","95","","6","","20","","1.6","","99.59","","","","-12","","Snow"
"1979-01-13 12:00","1979","01","13","12:00","-4.6","","-5.4","","94","","6","","20","","1.6","","99.46","","","","-11","","Snow"
"1979-01-13 13:00","1979","01","13","13:00","-3.7","","-4.2","","96","","7","","22","","3.2","","99.22","","","","-10","","Snow"
"1979-01-13 14:00","1979","01","13","14:00","-2.9","","-3.9","","93","","8","","28","","1.6","","99.06","","","","-10","","Snow,Ice Pellets"
"1979-01-13 15:00","1979","01","13","15:00","-2.8","","-3.7","","93","","8","","28","","1.6","","98.89","","","","-10","","Snow"
"1979-01-13 16:00","1979","01","13","16:00","-2.6","","-3.1","","96","","7","","22","","2.4","","98.76","","","","-9","","Freezing Rain,Snow,Ice Pellets"
"1979-01-13 17:00","1979","01","13","17:00","-2.6","","-3.1","","96","","8","","26","","1.0","","98.56","","","","-9","","Freezing Rain,Snow,Ice Pellets"
"1979-01-13 18:00","1979","01","13","18:00","-1.9","","-2.3","","97","","8","","31","","4.8","","98.42","","","","-9","","Freezing Rain,Snow,Ice Pellets"
"1979-01-13 19:00","1979","01","13","19:00","-1.0","","-1.4","","97","","7","","24","","4.8","","98.26","","","","-7","","Freezing Rain,Snow,Ice Pellets"
"1979-01-13 20:00","1979","01","13","20:00","-0.6","","-0.6","","100","","7","","22","","4.0","","98.16","","","","-6","","Freezing Rain,Fog"
"1979-01-13 21:00","1979","01","13","21:00","0.0","","0.0","","100","","9","","15","","4.0","","97.96","","","","-4","","Rain,Fog"
"1979-01-13 22:00","1979","01","13","22:00","0.6","","0.6","","100","","10","","19","","4.8","","97.79","","","","","","Rain,Fog"
"1979-01-13 23:00","1979","01","13","23:00","1.0","","1.0","","100","","11","","20","","3.2","","97.62","","","","","","Rain,Drizzle,Fog"
"1979-01-14 00:00","1979","01","14","00:00","1.1","","1.1","","100","","10","","19","","0.4","","97.46","","","","","","Rain,Drizzle,Fog"
"1979-01-14 01:00","1979","01","14","01:00","1.1","","1.1","","100","","13","","13","","0.0","","97.26","","","","","","Rain,Fog"
"1979-01-14 02:00","1979","01","14","02:00","1.2","","1.2","","100","","13","","11","","0.0","","97.16","","","","","","Rain,Fog"
"1979-01-14 03:00","1979","01","14","03:00","1.3","","1.3","","100","","15","","7","","0.0","","97.06","","","","","","Rain,Fog"
"1979-01-14 04:00","1979","01","14","04:00","1.6","","1.6","","100","","18","","11","","0.2","","96.96","","","","","","Rain,Fog"
"1979-01-14 05:00","1979","01","14","05:00","1.6","","1.6","","100","","19","","17","","4.8","","96.86","","","","","","Rain,Fog"
"1979-01-14 06:00","1979","01","14","06:00","1.7","","0.5","","92","","21","","26","","16.1","","96.82","","","","","","Rain"
"1979-01-14 07:00","1979","01","14","07:00","1.5","","0.0","","90","","22","","17","","19.3","","96.79","","","","","","Cloudy"
"1979-01-14 08:00","1979","01","14","08:00","1.4","","0.5","","94","","24","","20","","19.3","","96.86","","","","","","Rain"
"1979-01-14 09:00","1979","01","14","09:00","-1.4","","-4.5","","79","","29","","44","","32.2","","97.06","","","","-10","","Cloudy"
"1979-01-14 10:00","1979","01","14","10:00","-5.0","","-7.9","","80","","30","","44","","40.2","","97.36","","","","-14","","Mostly Cloudy"
"1979-01-14 11:00","1979","01","14","11:00","-5.5","","-9.6","","73","","30","","44","","40.2","","97.56","","","","-15","","Mostly Cloudy"
"1979-01-14 12:00","1979","01","14","12:00","-5.6","","-10.0","","71","","30","","33","","24.1","","97.76","","","","-14","","Snow Showers"
"1979-01-14 13:00","1979","01","14","13:00","-5.7","","-10.4","","69","","30","","50","","40.2","","97.86","","","","-16","","Mostly Cloudy"
"1979-01-14 14:00","1979","01","14","14:00","-5.2","","-8.9","","75","","29","","50","","32.2","","98.02","","","","-15","","Mostly Cloudy"
"1979-01-14 15:00","1979","01","14","15:00","-5.9","","-10.3","","71","","30","","46","","40.2","","98.22","","","","-16","","Mostly Cloudy"
"1979-01-14 16:00","1979","01","14","16:00","-6.1","","-10.3","","72","","30","","43","","40.2","","98.39","","","","-16","","Mainly Clear"
"1979-01-14 17:00","1979","01","14","17:00","-7.4","","-11.4","","73","","30","","28","","40.2","","98.62","","","","-16","","Mainly Clear"
"1979-01-14 18:00","1979","01","14","18:00","-8.4","","-12.7","","71","","30","","30","","24.1","","98.79","","","","-17","","Mainly Clear"
"1979-01-14 19:00","1979","01","14","19:00","-8.8","","-12.5","","74","","28","","20","","24.1","","98.89","","","","-16","","Mainly Clear"
"1979-01-14 20:00","1979","01","14","20:00","-8.8","","-13.8","","67","","29","","30","","25.0","","98.99","","","","-18","","Mainly Clear"
"1979-01-14 21:00","1979","01","14","21:00","-8.8","","-14.3","","64","","28","","30","","25.0","","99.09","","","","-18","","Mainly Clear"
"1979-01-14 22:00","1979","01","14","22:00","-9.1","","-11.5","","83","","27","","22","","25.0","","99.19","","","","-17","","Mainly Clear"
"1979-01-14 23:00","1979","01","14","23:00","-9.2","","-12.5","","77","","27","","22","","19.3","","99.29","","","","-17","","Snow Showers"
"1979-01-15 00:00","1979","01","15","00:00","-9.9","","-14.2","","70","","28","","24","","24.1","","99.39","","","","-18","","Mainly Clear"
"1979-01-15 01:00","1979","01","15","01:00","-11.1","","-13.6","","82","","27","","37","","24.1","","99.49","","","","-22","","Mainly Clear"
"1979-01-15 02:00","1979","01","15","02:00","-11.7","","-17.3","","63","","26","","31","","24.1","","99.62","","","","-22","","Clear"
"1979-01-15 03:00","1979","01","15","03:00","-12.1","","-16.3","","71","","26","","35","","25.0","","99.72","","","","-23","","Clear"
"1979-01-15 04:00","1979","01","15","04:00","-12.3","","-16.4","","71","","25","","33","","25.0","","99.82","","","","-23","","Mainly Clear"
"1979-01-15 05:00","1979","01","15","05:00","-12.1","","-15.8","","74","","24","","37","","25.0","","99.92","","","","-23","","Mostly Cloudy"
"1979-01-15 06:00","1979","01","15","06:00","-12.2","","-15.8","","75","","25","","31","","25.0","","100.06","","","","-23","","Mostly Cloudy"
"1979-01-15 07:00","1979","01","15","07:00","-12.4","","-15.4","","78","","25","","26","","19.3","","100.06","","","","-22","","Snow Showers"
"1979-01-15 08:00","1979","01","15","08:00","-12.3","","-16.4","","71","","26","","30","","24.1","","100.16","","","","-23","","Mainly Clear"
"1979-01-15 09:00","1979","01","15","09:00","-12.4","","-17.0","","68","","25","","26","","32.2","","100.29","","","","-22","","Mainly Clear"
"1979-01-15 10:00","1979","01","15","10:00","-12.0","","-16.3","","70","","24","","30","","32.2","","100.36","","","","-22","","Mainly Clear"
"1979-01-15 11:00","1979","01","15","11:00","-12.5","","-17.5","","66","","25","","33","","32.2","","100.39","","","","-23","","Clear"
"1979-01-15 12:00","1979","01","15","12:00","-12.2","","-16.3","","72","","25","","28","","32.2","","100.46","","","","-22","","Clear"
"1979-01-15 13:00","1979","01","15","13:00","-12.3","","-17.0","","68","","27","","30","","32.2","","100.46","","","","-23","","Mainly Clear"
"1979-01-15 14:00","1979","01","15","14:00","-12.3","","-17.0","","68","","25","","33","","32.2","","100.46","","","","-23","","Mainly Clear"
"1979-01-15 15:00","1979","01","15","15:00","-12.4","","-16.4","","72","","25","","26","","32.2","","100.42","","","","-22","","Mostly Cloudy"
"1979-01-15 16:00","1979","01","15","16:00","-13.2","","-16.5","","76","","24","","24","","32.2","","100.49","","","","-23","","Mostly Cloudy"
"1979-01-15 17:00","1979","01","15","17:00","-13.6","","-17.2","","74","","24","","26","","32.2","","100.49","","","","-24","","Cloudy"
"1979-01-15 18:00","1979","01","15","18:00","-13.7","","-16.6","","79","","24","","26","","24.1","","100.52","","","","-24","","Cloudy"
"1979-01-15 19:00","1979","01","15","19:00","-13.7","","-17.2","","75","","24","","22","","24.1","","100.52","","","","-23","","Mostly Cloudy"
"1979-01-15 20:00","1979","01","15","20:00","-13.8","","-17.2","","75","","23","","22","","24.1","","100.52","","","","-23","","Cloudy"
"1979-01-15 21:00","1979","01","15","21:00","-13.7","","-16.1","","82","","24","","20","","19.3","","100.52","","","","-23","","Snow"
"1979-01-15 22:00","1979","01","15","22:00","-13.5","","-16.1","","81","","24","","20","","24.1","","100.46","","","","-22","","Cloudy"
"1979-01-15 23:00","1979","01","15","23:00","-13.4","","-16.1","","80","","24","","20","","19.3","","100.46","","","","-22","","Snow"
"1979-01-16 00:00","1979","01","16","00:00","-12.8","","-16.5","","74","","25","","15","","16.1","","100.42","","","","-20","","Snow"
"1979-01-16 01:00","1979","01","16","01:00","-12.8","","-15.5","","80","","22","","2","","4.0","","100.36","","","","-14","","Snow"
"1979-01-16 02:00","1979","01","16","02:00","-12.5","","-14.5","","85","","24","","4","","4.8","","100.36","","","","-15","","Snow"
"1979-01-16 03:00","1979","01","16","03:00","-12.2","","-13.4","","91","","19","","4","","8.0","","100.29","","","","-15","","Snow"
"1979-01-16 04:00","1979","01","16","04:00","-12.0","","-13.4","","89","","","","0","","3.2","","100.26","","","","","","Snow"
"1979-01-16 05:00","1979","01","16","05:00","-11.9","","-13.4","","89","","22","","4","","4.8","","100.22","","","","-14","","Snow"
"1979-01-16 06:00","1979","01","16","06:00","-11.5","","-13.8","","83","","24","","6","","12.9","","100.29","","","","-15","","Cloudy"
"1979-01-16 07:00","1979","01","16","07:00","-11.7","","-13.3","","88","","25","","4","","25.0","","100.32","","","","-14","","Mostly Cloudy"
"1979-01-16 08:00","1979","01","16","08:00","-13.3","","-16.1","","79","","25","","11","","32.2","","100.39","","","","-20","","Mainly Clear"
"1979-01-16 09:00","1979","01","16","09:00","-12.9","","-15.5","","81","","25","","17","","32.2","","100.49","","","","-21","","Mainly Clear"
"1979-01-16 10:00","1979","01","16","10:00","-11.8","","-15.3","","75","","27","","20","","32.2","","100.56","","","","-20","","Mainly Clear"
"1979-01-16 11:00","1979","01","16","11:00","-10.5","","-14.4","","73","","27","","19","","32.2","","100.62","","","","-18","","Mainly Clear"
"1979-01-16 12:00","1979","01","16","12:00","-8.9","","-13.4","","70","","29","","19","","32.2","","100.66","","","","-16","","Mainly Clear"
"1979-01-16 13:00","1979","01","16","13:00","-8.0","","-12.1","","72","","29","","15","","32.2","","100.66","","","","-14","","Mainly Clear"
"1979-01-16 14:00","1979","01","16","14:00","-7.4","","-12.3","","68","","30","","20","","32.2","","100.69","","","","-15","","Mostly Cloudy"
"1979-01-16 15:00","1979","01","16","15:00","-7.3","","-12.7","","65","","27","","20","","32.2","","100.76","","","","-14","","Mostly Cloudy"
"1979-01-16 16:00","1979","01","16","16:00","-7.6","","-12.7","","67","","28","","15","","32.2","","100.76","","","","-14","","Mostly Cloudy"
"1979-01-16 17:00","1979","01","16","17:00","-9.0","","-13.4","","70","","27","","11","","32.2","","100.79","","","","-14","","Mostly Cloudy"
"1979-01-16 18:00","1979","01","16","18:00","-10.4","","-14.9","","69","","26","","9","","25.0","","100.85","","","","-15","","Mainly Clear"
"1979-01-16 19:00","1979","01","16","19:00","-11.5","","-14.7","","77","","23","","9","","25.0","","100.92","","","","-17","","Mainly Clear"
"1979-01-16 20:00","1979","01","16","20:00","-12.3","","-15.4","","77","","27","","11","","25.0","","100.95","","","","-18","","Mainly Clear"
"1979-01-16 21:00","1979","01","16","21:00","-13.7","","-16.1","","82","","31","","7","","24.1","","100.92","","","","-18","","Mainly Clear"
"1979-01-16 22:00","1979","01","16","22:00","-13.5","","-15.1","","88","","35","","6","","24.1","","100.89","","","","-18","","Mainly Clear"
"1979-01-16 23:00","1979","01","16","23:00","-15.7","","-16.3","","95","","32","","6","","19.3","","100.89","","","","-20","","Mainly Clear"
"1979-01-17 00:00","1979","01","17","00:00","-15.1","","-15.7","","95","","","","0","","24.1","","100.79","","","","","","Mainly Clear"
"1979-01-17 01:00","1979","01","17","01:00","-15.4","","-16.3","","93","","35","","6","","24.1","","100.72","","","","-20","","Mostly Cloudy"
"1979-01-17 02:00","1979","01","17","02:00","-15.6","","-16.3","","95","","32","","11","","19.3","","100.69","","","","-22","","Cloudy"
"1979-01-17 03:00","1979","01","17","03:00","-14.6","","-15.2","","95","","2","","4","","19.3","","100.59","","","","-17","","Cloudy"
"1979-01-17 04:00","1979","01","17","04:00","-12.7","","-14.0","","90","","3","","7","","12.9","","100.49","","","","-17","","Cloudy"
"1979-01-17 05:00","1979","01","17","05:00","-10.0","","-12.9","","79","","7","","7","","12.9","","100.26","","","","-14","","Cloudy"
"1979-01-17 06:00","1979","01","17","06:00","-10.4","","-13.9","","75","","","","0","","12.9","","100.16","","","","","","Cloudy"
"1979-01-17 07:00","1979","01","17","07:00","-6.2","","-10.3","","73","","12","","26","","3.2","","99.86","","","","-14","","Snow"
"1979-01-17 08:00","1979","01","17","08:00","-6.3","","-8.7","","83","","13","","30","","0.4","","99.69","","","","-15","","Heavy Snow"
"1979-01-17 09:00","1979","01","17","09:00","-6.0","","-6.8","","94","","10","","30","","0.6","","99.42","","","","-14","","Moderate Snow"
"1979-01-17 10:00","1979","01","17","10:00","-5.3","","-6.2","","93","","10","","22","","0.6","","99.26","","","","-12","","Moderate Snow"
"1979-01-17 11:00","1979","01","17","11:00","-5.0","","-5.6","","95","","10","","22","","0.8","","99.06","","","","-12","","Moderate Snow"
"1979-01-17 12:00","1979","01","17","12:00","-4.5","","-5.1","","95","","11","","19","","0.8","","98.86","","","","-11","","Moderate Snow"
"1979-01-17 13:00","1979","01","17","13:00","-4.3","","-5.4","","92","","11","","7","","2.0","","98.76","","","","-7","","Snow"
"1979-01-17 14:00","1979","01","17","14:00","-4.0","","-5.4","","90","","","","0","","3.2","","98.66","","","","","","Snow"
"1979-01-17 15:00","1979","01","17","15:00","-7.3","","-8.4","","92","","34","","19","","4.0","","98.72","","","","-14","","Snow"
"1979-01-17 16:00","1979","01","17","16:00","-8.5","","-9.9","","90","","34","","13","","6.4","","98.72","","","","-14","","Snow"
"1979-01-17 17:00","1979","01","17","17:00","-8.6","","-10.3","","88","","33","","7","","6.4","","98.79","","","","-12","","Snow"
"1979-01-17 18:00","1979","01","17","18:00","-8.6","","-9.9","","90","","24","","2","","6.4","","98.89","","","","-10","","Snow"
"1979-01-17 19:00","1979","01","17","19:00","-8.5","","-9.9","","90","","24","","11","","8.0","","98.89","","","","-14","","Snow"
"1979-01-17 20:00","1979","01","17","20:00","-4.6","","-6.9","","84","","25","","26","","9.7","","98.96","","","","-12","","Snow Showers"
"1979-01-17 21:00","1979","01","17","21:00","-5.5","","-8.5","","79","","25","","30","","9.7","","98.99","","","","-14","","Blowing Snow"
"1979-01-17 22:00","1979","01","17","22:00","-6.2","","-8.8","","82","","25","","26","","12.9","","98.99","","","","-14","","Snow"
"1979-01-17 23:00","1979","01","17","23:00","-6.9","","-8.9","","86","","24","","26","","8.0","","98.96","","","","-15","","Snow"
"1979-01-18 00:00","1979","01","18","00:00","-7.3","","-9.5","","84","","24","","24","","12.9","","98.99","","","","-15","","Snow"
"1979-01-18 01:00","1979","01","18","01:00","-8.1","","-9.7","","88","","25","","19","","12.9","","99.06","","","","-15","","Snow Showers"
"1979-01-18 02:00","1979","01","18","02:00","-8.1","","-9.7","","88","","32","","30","","4.8","","99.16","","","","-17","","Snow Showers"
"1979-01-18 03:00","1979","01","18","03:00","-10.0","","-11.6","","88","","35","","24","","19.3","","99.32","","","","-19","","Mostly Cloudy"
"1979-01-18 04:00","1979","01","18","04:00","-13.0","","-15.5","","81","","34","","28","","25.0","","99.56","","","","-23","","Mainly Clear"
"1979-01-18 05:00","1979","01","18","05:00","-15.1","","-17.3","","83","","33","","26","","25.0","","99.72","","","","-25","","Mainly Clear"
"1979-01-18 06:00","1979","01","18","06:00","-16.0","","-18.4","","82","","34","","28","","25.0","","99.86","","","","-27","","Clear"
"1979-01-18 07:00","1979","01","18","07:00","-16.3","","-18.4","","84","","34","","24","","25.0","","100.06","","","","-27","","Mainly Clear"
"1979-01-18 08:00","1979","01","18","08:00","-16.3","","-19.0","","79","","34","","22","","40.2","","100.26","","","","-26","","Clear"
"1979-01-18 09:00","1979","01","18","09:00","-15.9","","-18.4","","81","","34","","31","","40.2","","100.39","","","","-27","","Mainly Clear"
"1979-01-18 10:00","1979","01","18","10:00","-16.3","","-19.6","","75","","34","","35","","40.2","","100.52","","","","-29","","Mainly Clear"
"1979-01-18 11:00","1979","01","18","11:00","-16.0","","-19.0","","78","","34","","30","","40.2","","100.69","","","","-27","","Clear"
"1979-01-18 12:00","1979","01","18","12:00","-15.5","","-19.7","","70","","33","","30","","40.2","","100.76","","","","-27","","Clear"
"1979-01-18 13:00","1979","01","18","13:00","-14.4","","-18.4","","72","","33","","33","","40.2","","100.76","","","","-26","","Clear"
"1979-01-18 14:00","1979","01","18","14:00","-13.5","","-17.7","","70","","33","","30","","40.2","","100.85","","","","-24","","Clear"
"1979-01-18 15:00","1979","01","18","15:00","-13.0","","-17.1","","71","","35","","20","","40.2","","100.95","","","","-22","","Clear"
"1979-01-18 16:00","1979","01","18","16:00","-13.1","","-16.5","","76","","35","","26","","40.2","","100.95","","","","-23","","Clear"
"1979-01-18 17:00","1979","01","18","17:00","-14.0","","-17.2","","76","","33","","20","","40.2","","101.05","","","","-23","","Mainly Clear"
"1979-01-18 18:00","1979","01","18","18:00","-15.1","","-17.3","","83","","34","","20","","25.0","","101.12","","","","-24","","Mainly Clear"
"1979-01-18 19:00","1979","01","18","19:00","-16.5","","-18.4","","85","","35","","22","","25.0","","101.19","","","","-27","","Clear"
"1979-01-18 20:00","1979","01","18","20:00","-17.5","","-20.1","","80","","35","","17","","25.0","","101.22","","","","-27","","Clear"
"1979-01-18 21:00","1979","01","18","21:00","-17.8","","-20.7","","78","","35","","15","","25.0","","101.22","","","","-26","","Clear"
"1979-01-18 22:00","1979","01","18","22:00","-20.3","","-22.0","","86","","30","","15","","25.0","","101.35","","","","-29","","Clear"
"1979-01-18 23:00","1979","01","18","23:00","-19.2","","-21.1","","85","","1","","20","","25.0","","101.25","","","","-29","","Clear"
"1979-01-19 00:00","1979","01","19","00:00","-21.4","","-22.3","","93","","34","","9","","25.0","","101.32","","","","-28","","Clear"
"1979-01-19 01:00","1979","01","19","01:00","-21.5","","-22.3","","93","","33","","9","","25.0","","101.29","","","","-29","","Clear"
"1979-01-19 02:00","1979","01","19","02:00","-22.7","","-23.3","","95","","34","","13","","25.0","","101.29","","","","-32","","Clear"
"1979-01-19 03:00","1979","01","19","03:00","-22.2","","-22.8","","95","","33","","13","","25.0","","101.29","","","","-31","","Clear"
"1979-01-19 04:00","1979","01","19","04:00","-21.5","","-23.1","","87","","35","","13","","25.0","","101.15","","","","-30","","Clear"
"1979-01-19 05:00","1979","01","19","05:00","-22.6","","-23.3","","94","","33","","11","","25.0","","101.09","","","","-31","","Mainly Clear"
"1979-01-19 06:00","1979","01","19","06:00","-22.9","","-24.6","","86","","33","","11","","25.0","","101.02","","","","-31","","Mainly Clear"
"1979-01-19 07:00","1979","01","19","07:00","-22.2","","-23.6","","89","","33","","13","","25.0","","101.05","","","","-31","","Mostly Cloudy"
"1979-01-19 08:00","1979","01","19","08:00","-20.7","","-22.8","","84","","34","","15","","40.2","","100.95","","","","-30","","Snow Showers"
"1979-01-19 09:00","1979","01","19","09:00","-19.2","","-21.1","","85","","34","","11","","3.2","","100.89","","","","-27","","Snow Showers"
"1979-01-19 10:00","1979","01","19","10:00","-18.2","","-20.1","","85","","35","","7","","4.8","","100.89","","","","-24","","Snow"
"1979-01-19 11:00","1979","01","19","11:00","-16.9","","-19.6","","79","","31","","7","","3.2","","100.92","","","","-22","","Snow"
"1979-01-19 12:00","1979","01","19","12:00","-15.1","","-16.8","","87","","2","","4","","6.4","","100.76","","","","-18","","Snow"
"1979-01-19 13:00","1979","01","19","13:00","-12.3","","-14.5","","83","","9","","6","","3.2","","100.49","","","","-16","","Snow"
"1979-01-19 14:00","1979","01","19","14:00","-11.6","","-14.2","","81","","","","0","","3.2","","100.39","","","","","","Snow"
"1979-01-19 15:00","1979","01","19","15:00","-11.0","","-12.8","","87","","3","","6","","4.0","","100.26","","","","-15","","Snow"
"1979-01-19 16:00","1979","01","19","16:00","-9.5","","-12.3","","80","","11","","19","","4.8","","100.16","","","","-17","","Snow"
"1979-01-19 17:00","1979","01","19","17:00","-8.7","","-10.7","","85","","10","","22","","4.8","","100.16","","","","-17","","Snow"
"1979-01-19 18:00","1979","01","19","18:00","-10.8","","-12.3","","89","","5","","17","","6.4","","100.06","","","","-18","","Snow"
"1979-01-19 19:00","1979","01","19","19:00","-11.5","","-13.3","","87","","6","","20","","12.9","","99.99","","","","-20","","Snow"
"1979-01-19 20:00","1979","01","19","20:00","-11.5","","-13.8","","83","","7","","17","","16.1","","99.89","","","","-19","","Cloudy"
"1979-01-19 21:00","1979","01","19","21:00","-11.5","","-13.3","","87","","5","","17","","16.1","","99.79","","","","-19","","Cloudy"
"1979-01-19 22:00","1979","01","19","22:00","-10.2","","-12.0","","87","","4","","9","","19.3","","99.66","","","","-15","","Cloudy"
"1979-01-19 23:00","1979","01","19","23:00","-9.6","","-11.1","","89","","5","","13","","24.1","","99.56","","","","-16","","Mostly Cloudy"
"1979-01-20 00:00","1979","01","20","00:00","-9.4","","-10.7","","90","","6","","15","","24.1","","99.46","","","","-16","","Cloudy"
"1979-01-20 01:00","1979","01","20","01:00","-9.5","","-10.3","","94","","4","","19","","19.3","","99.36","","","","-17","","Snow Showers"
"1979-01-20 02:00","1979","01","20","02:00","-9.3","","-10.7","","89","","5","","17","","19.3","","99.26","","","","-16","","Snow Showers"
"1979-01-20 03:00","1979","01","20","03:00","-9.3","","-10.7","","89","","5","","17","","19.3","","99.16","","","","-16","","Cloudy"
"1979-01-20 04:00","1979","01","20","04:00","-8.7","","-9.6","","93","","6","","13","","19.3","","99.12","","","","-15","","Cloudy"
"1979-01-20 05:00","1979","01","20","05:00","-8.1","","-9.0","","93","","7","","13","","16.1","","98.99","","","","-14","","Cloudy"
"1979-01-20 06:00","1979","01","20","06:00","-8.1","","-8.7","","95","","7","","19","","12.9","","98.96","","","","-15","","Cloudy"
"1979-01-20 07:00","1979","01","20","07:00","-7.6","","-8.1","","96","","6","","19","","12.9","","98.96","","","","-15","","Freezing Drizzle"
"1979-01-20 08:00","1979","01","20","08:00","-7.7","","-8.4","","95","","4","","17","","12.9","","98.96","","","","-14","","Cloudy"
"1979-01-20 09:00","1979","01","20","09:00","-7.7","","-8.4","","95","","6","","20","","8.0","","98.89","","","","-15","","Freezing Drizzle"
"1979-01-20 10:00","1979","01","20","10:00","-7.3","","-8.4","","92","","6","","19","","4.0","","98.89","","","","-14","","Freezing Drizzle,Fog"
"1979-01-20 11:00","1979","01","20","11:00","-7.0","","-7.9","","93","","6","","20","","4.0","","98.79","","","","-14","","Freezing Drizzle,Snow Grains,Fog"
"1979-01-20 12:00","1979","01","20","12:00","-7.2","","-7.9","","95","","6","","22","","4.0","","98.62","","","","-15","","Freezing Drizzle,Snow Grains,Fog"
"1979-01-20 13:00","1979","01","20","13:00","-7.0","","-7.9","","93","","5","","19","","4.8","","98.52","","","","-14","","Freezing Drizzle,Snow Grains,Fog"
"1979-01-20 14:00","1979","01","20","14:00","-6.3","","-7.0","","95","","4","","15","","3.2","","98.42","","","","-12","","Freezing Drizzle,Fog"
"1979-01-20 15:00","1979","01","20","15:00","-5.3","","-5.9","","95","","5","","17","","1.6","","98.32","","","","-11","","Freezing Drizzle,Fog"
"1979-01-20 16:00","1979","01","20","16:00","-4.8","","-5.3","","96","","5","","19","","1.6","","98.29","","","","-11","","Freezing Drizzle,Fog"
"1979-01-20 17:00","1979","01","20","17:00","-4.4","","-4.8","","97","","5","","19","","1.6","","98.26","","","","-11","","Freezing Drizzle,Fog"
"1979-01-20 18:00","1979","01","20","18:00","-4.4","","-4.8","","97","","5","","17","","3.2","","98.22","","","","-10","","Freezing Drizzle,Fog"
"1979-01-20 19:00","1979","01","20","19:00","-4.4","","-4.8","","97","","4","","17","","6.4","","98.16","","","","-10","","Freezing Drizzle,Fog"
"1979-01-20 20:00","1979","01","20","20:00","-3.4","","-4.0","","96","","4","","13","","8.0","","98.12","","","","-8","","Freezing Drizzle,Fog"
"1979-01-20 21:00","1979","01","20","21:00","-3.4","","-4.2","","94","","2","","17","","9.7","","98.09","","","","-9","","Freezing Drizzle,Fog"
"1979-01-20 22:00","1979","01","20","22:00","-3.8","","-4.8","","93","","3","","19","","8.0","","97.99","","","","-10","","Fog"
"1979-01-20 23:00","1979","01","20","23:00","-4.4","","-5.1","","95","","5","","19","","6.4","","97.96","","","","-11","","Fog"
"1979-01-21 00:00","1979","01","21","00:00","-4.5","","-4.8","","98","","5","","20","","4.0","","97.79","","","","-11","","Fog"
"1979-01-21 01:00","1979","01","21","01:00","-4.5","","-5.1","","95","","4","","20","","4.0","","97.66","","","","-11","","Fog"
"1979-01-21 02:00","1979","01","21","02:00","-6.0","","-6.8","","94","","36","","20","","4.8","","97.59","","","","-13","","Fog"
"1979-01-21 03:00","1979","01","21","03:00","-6.5","","-7.0","","96","","36","","19","","8.0","","97.49","","","","-13","","Fog"
"1979-01-21 04:00","1979","01","21","04:00","-7.0","","-7.9","","93","","36","","22","","4.8","","97.32","","","","-14","","Fog"
"1979-01-21 05:00","1979","01","21","05:00","-6.6","","-7.0","","97","","1","","19","","4.0","","97.19","","","","-13","","Snow,Fog"
"1979-01-21 06:00","1979","01","21","06:00","-6.5","","-7.0","","96","","1","","20","","4.0","","97.06","","","","-13","","Snow"
"1979-01-21 07:00","1979","01","21","07:00","-6.1","","-6.8","","95","","1","","19","","1.6","","96.99","","","","-13","","Snow"
"1979-01-21 08:00","1979","01","21","08:00","-6.3","","-7.0","","95","","35","","24","","0.6","","96.89","","","","-14","","Moderate Snow"
"1979-01-21 09:00","1979","01","21","09:00","-6.5","","-7.0","","96","","35","","28","","1.2","","96.82","","","","-15","","Snow"
"1979-01-21 10:00","1979","01","21","10:00","-6.6","","-7.0","","97","","35","","28","","0.8","","96.76","","","","-15","","Moderate Snow"
"1979-01-21 11:00","1979","01","21","11:00","-6.5","","-7.0","","96","","36","","30","","2.4","","96.66","","","","-15","","Snow"
"1979-01-21 12:00","1979","01","21","12:00","-6.5","","-7.0","","96","","36","","31","","1.6","","96.56","","","","-15","","Snow,Blowing Snow"
"1979-01-21 13:00","1979","01","21","13:00","-6.5","","-7.0","","96","","36","","24","","1.6","","96.49","","","","-14","","Snow"
"1979-01-21 14:00","1979","01","21","14:00","-6.6","","-7.0","","97","","33","","28","","1.6","","96.42","","","","-15","","Snow"
"1979-01-21 15:00","1979","01","21","15:00","-6.3","","-7.3","","93","","35","","28","","2.4","","96.39","","","","-14","","Snow"
"1979-01-21 16:00","1979","01","21","16:00","-5.8","","-7.4","","88","","32","","24","","40.2","","96.46","","","","-13","","Cloudy"
"1979-01-21 17:00","1979","01","21","17:00","-5.9","","-7.4","","89","","32","","22","","40.2","","96.49","","","","-13","","Cloudy"
"1979-01-21 18:00","1979","01","21","18:00","-5.6","","-6.5","","93","","32","","24","","25.0","","96.59","","","","-13","","Cloudy"
"1979-01-21 19:00","1979","01","21","19:00","-5.4","","-6.5","","92","","32","","13","","24.1","","96.66","","","","-11","","Cloudy"
"1979-01-21 20:00","1979","01","21","20:00","-4.8","","-6.3","","89","","30","","20","","25.0","","96.72","","","","-11","","Cloudy"
"1979-01-21 21:00","1979","01","21","21:00","-4.4","","-5.7","","90","","30","","24","","25.0","","96.79","","","","-11","","Cloudy"
"1979-01-21 22:00","1979","01","21","22:00","-4.8","","-6.9","","85","","28","","22","","25.0","","96.89","","","","-12","","Cloudy"
"1979-01-21 23:00","1979","01","21","23:00","-4.7","","-6.6","","87","","29","","26","","25.0","","96.96","","","","-12","","Cloudy"
"1979-01-22 00:00","1979","01","22","00:00","-3.9","","-6.6","","81","","29","","19","","25.0","","96.99","","","","-10","","Cloudy"
"1979-01-22 01:00","1979","01","22","01:00","-4.2","","-5.7","","89","","30","","7","","12.9","","96.99","","","","-7","","Snow"
"1979-01-22 02:00","1979","01","22","02:00","-4.2","","-5.7","","89","","28","","13","","12.9","","97.06","","","","-9","","Snow"
"1979-01-22 03:00","1979","01","22","03:00","-2.8","","-5.4","","82","","28","","22","","16.1","","97.12","","","","-9","","Cloudy"
"1979-01-22 04:00","1979","01","22","04:00","-3.1","","-5.1","","86","","27","","30","","16.1","","97.22","","","","-11","","Cloudy"
"1979-01-22 05:00","1979","01","22","05:00","-3.4","","-5.4","","86","","28","","26","","16.1","","97.29","","","","-10","","Cloudy"
"1979-01-22 06:00","1979","01","22","06:00","-3.4","","-5.7","","84","","27","","26","","16.1","","97.36","","","","-10","","Cloudy"
"1979-01-22 07:00","1979","01","22","07:00","-3.4","","-6.3","","80","","27","","24","","24.1","","97.49","","","","-10","","Cloudy"
"1979-01-22 08:00","1979","01","22","08:00","-3.6","","-6.3","","82","","28","","24","","24.1","","97.59","","","","-10","","Snow Showers"
"1979-01-22 09:00","1979","01","22","09:00","-3.6","","-6.3","","82","","28","","22","","32.2","","97.69","","","","-10","","Cloudy"
"1979-01-22 10:00","1979","01","22","10:00","-3.5","","-6.0","","83","","29","","24","","32.2","","97.86","","","","-10","","Mostly Cloudy"
"1979-01-22 11:00","1979","01","22","11:00","-3.6","","-6.7","","79","","29","","26","","32.2","","97.99","","","","-11","","Cloudy"
"1979-01-22 12:00","1979","01","22","12:00","-3.9","","-6.0","","85","","29","","35","","24.1","","98.06","","","","-12","","Snow Showers"
"1979-01-22 13:00","1979","01","22","13:00","-3.2","","-6.4","","79","","29","","35","","32.2","","98.09","","","","-11","","Mostly Cloudy"
"1979-01-22 14:00","1979","01","22","14:00","-3.6","","-6.3","","82","","30","","35","","32.2","","98.29","","","","-12","","Cloudy"
"1979-01-22 15:00","1979","01","22","15:00","-3.6","","-6.3","","82","","30","","39","","24.1","","98.42","","","","-12","","Mostly Cloudy"
"1979-01-22 16:00","1979","01","22","16:00","-2.9","","-6.7","","75","","29","","33","","32.2","","98.62","","","","-11","","Mostly Cloudy"
"1979-01-22 17:00","1979","01","22","17:00","-3.1","","-6.4","","78","","29","","22","","32.2","","98.79","","","","-9","","Mainly Clear"
"1979-01-22 18:00","1979","01","22","18:00","-2.9","","-6.4","","77","","28","","24","","25.0","","98.89","","","","-10","","Mostly Cloudy"
"1979-01-22 19:00","1979","01","22","19:00","-2.9","","-5.7","","81","","27","","26","","25.0","","99.06","","","","-10","","Cloudy"
"1979-01-22 20:00","1979","01","22","20:00","-2.7","","-6.4","","76","","24","","13","","25.0","","99.16","","","","-7","","Cloudy"
"1979-01-22 21:00","1979","01","22","21:00","-3.0","","-6.7","","75","","23","","9","","25.0","","99.22","","","","-7","","Cloudy"
"1979-01-22 22:00","1979","01","22","22:00","-3.5","","-6.0","","83","","22","","7","","25.0","","99.29","","","","-6","","Cloudy"
"1979-01-22 23:00","1979","01","22","23:00","-3.0","","-5.7","","81","","18","","7","","25.0","","99.29","","","","-6","","Cloudy"
"1979-01-23 00:00","1979","01","23","00:00","-2.8","","-5.4","","82","","22","","11","","25.0","","99.32","","","","-7","","Cloudy"
"1979-01-23 01:00","1979","01","23","01:00","-1.0","","-6.4","","67","","27","","19","","25.0","","99.36","","","","-6","","Cloudy"
"1979-01-23 02:00","1979","01","23","02:00","-2.4","","-6.0","","76","","24","","9","","25.0","","99.39","","","","-6","","Cloudy"
"1979-01-23 03:00","1979","01","23","03:00","-2.9","","-5.7","","81","","22","","7","","25.0","","99.39","","","","-6","","Cloudy"
"1979-01-23 04:00","1979","01","23","04:00","-2.7","","-5.1","","84","","23","","13","","25.0","","99.42","","","","-7","","Cloudy"
"1979-01-23 05:00","1979","01","23","05:00","-2.7","","-5.4","","82","","23","","7","","25.0","","99.46","","","","-6","","Cloudy"
"1979-01-23 06:00","1979","01","23","06:00","-2.9","","-5.1","","85","","21","","15","","19.3","","99.49","","","","-8","","Cloudy"
"1979-01-23 07:00","1979","01","23","07:00","-3.1","","-5.1","","86","","20","","13","","19.3","","99.49","","","","-8","","Cloudy"
"1979-01-23 08:00","1979","01","23","08:00","-3.6","","-5.1","","89","","22","","13","","16.1","","99.49","","","","-8","","Cloudy"
"1979-01-23 09:00","1979","01","23","09:00","-4.3","","-6.3","","86","","18","","15","","9.7","","99.49","","","","-10","","Fog"
"1979-01-23 10:00","1979","01","23","10:00","-3.5","","-5.7","","85","","22","","7","","12.9","","99.52","","","","-6","","Cloudy"
"1979-01-23 11:00","1979","01","23","11:00","-2.8","","-6.7","","74","","17","","7","","12.9","","99.52","","","","-6","","Cloudy"
"1979-01-23 12:00","1979","01","23","12:00","-2.5","","-5.4","","80","","14","","17","","12.9","","99.42","","","","-8","","Cloudy"
"1979-01-23 13:00","1979","01","23","13:00","-2.2","","-5.4","","79","","14","","19","","12.9","","99.36","","","","-8","","Cloudy"
"1979-01-23 14:00","1979","01","23","14:00","-1.9","","-5.4","","77","","13","","20","","12.9","","99.29","","","","-8","","Cloudy"
"1979-01-23 15:00","1979","01","23","15:00","-1.7","","-4.8","","80","","12","","24","","12.9","","99.26","","","","-8","","Cloudy"
"1979-01-23 16:00","1979","01","23","16:00","-1.6","","-4.8","","79","","10","","20","","12.9","","99.22","","","","-7","","Cloudy"
"1979-01-23 17:00","1979","01","23","17:00","-1.2","","-4.4","","79","","11","","22","","16.1","","99.19","","","","-7","","Mostly Cloudy"
"1979-01-23 18:00","1979","01","23","18:00","-1.7","","-4.5","","81","","10","","26","","16.1","","99.12","","","","-8","","Mostly Cloudy"
"1979-01-23 19:00","1979","01","23","19:00","-2.2","","-4.5","","84","","10","","15","","24.1","","99.07","","","","-7","","Mainly Clear"
"1979-01-23 20:00","1979","01","23","20:00","-1.6","","-3.9","","84","","11","","22","","24.1","","98.99","","","","-8","","Clear"
"1979-01-23 21:00","1979","01","23","21:00","-1.4","","-3.9","","83","","11","","19","","19.3","","98.99","","","","-7","","Clear"
"1979-01-23 22:00","1979","01","23","22:00","-1.7","","-3.6","","87","","11","","15","","19.3","","98.96","","","","-7","","Mainly Clear"
"1979-01-23 23:00","1979","01","23","23:00","-2.2","","-3.9","","88","","10","","17","","16.1","","98.86","","","","-8","","Mainly Clear"
"1979-01-24 00:00","1979","01","24","00:00","-3.1","","-4.8","","88","","9","","11","","16.1","","98.79","","","","-7","","Mainly Clear"
"1979-01-24 01:00","1979","01","24","01:00","-3.5","","-5.1","","89","","9","","11","","12.9","","98.69","","","","-8","","Mainly Clear"
"1979-01-24 02:00","1979","01","24","02:00","-4.0","","-5.4","","90","","6","","9","","16.1","","98.66","","","","-8","","Mainly Clear"
"1979-01-24 03:00","1979","01","24","03:00","-3.4","","-5.1","","88","","7","","9","","12.9","","98.59","","","","-7","","Mainly Clear"
"1979-01-24 04:00","1979","01","24","04:00","-3.2","","-4.8","","89","","10","","11","","12.9","","98.49","","","","-7","","Mainly Clear"
"1979-01-24 05:00","1979","01","24","05:00","-2.1","","-4.2","","85","","12","","22","","16.1","","98.49","","","","-8","","Mostly Cloudy"
"1979-01-24 06:00","1979","01","24","06:00","-1.8","","-4.5","","82","","11","","17","","19.3","","98.32","","","","-7","","Mostly Cloudy"
"1979-01-24 07:00","1979","01","24","07:00","-1.2","","-3.3","","86","","9","","24","","19.3","","98.16","","","","-7","","Cloudy"
"1979-01-24 08:00","1979","01","24","08:00","-0.2","","-2.0","","88","","9","","30","","8.0","","98.02","","","","-7","","Freezing Rain,Fog"
"1979-01-24 09:00","1979","01","24","09:00","-0.1","","-0.6","","96","","9","","31","","1.6","","97.99","","","","-7","","Snow,Ice Pellets"
"1979-01-24 10:00","1979","01","24","10:00","0.0","","-0.7","","95","","8","","35","","4.0","","97.79","","","","-7","","Rain,Snow,Ice Pellets,Fog"
"1979-01-24 11:00","1979","01","24","11:00","0.0","","-0.2","","98","","8","","37","","4.8","","97.66","","","","-7","","Freezing Rain,Snow,Ice Pellets,Fog"
"1979-01-24 12:00","1979","01","24","12:00","-0.2","","-0.2","","100","","9","","33","","4.8","","97.42","","","","-7","","Freezing Rain,Snow,Ice Pellets,Fog"
"1979-01-24 13:00","1979","01","24","13:00","0.4","","-0.8","","92","","8","","31","","4.0","","97.32","","","","","","Moderate Rain,Snow,Ice Pellets,Fog"
"1979-01-24 14:00","1979","01","24","14:00","0.1","","-0.1","","98","","8","","33","","2.0","","97.22","","","","","","Snow,Ice Pellets"
"1979-01-24 15:00","1979","01","24","15:00","0.3","","0.1","","99","","7","","30","","3.6","","97.19","","","","","","Rain,Snow,Ice Pellets,Fog"
"1979-01-24 16:00","1979","01","24","16:00","0.9","","0.5","","97","","8","","33","","4.8","","97.06","","","","","","Rain,Snow,Fog"
"1979-01-24 17:00","1979","01","24","17:00","0.9","","0.5","","97","","7","","37","","4.8","","96.99","","","","","","Rain,Snow,Fog"
"1979-01-24 18:00","1979","01","24","18:00","1.4","","0.5","","94","","8","","37","","4.8","","96.96","","","","","","Moderate Rain,Snow,Fog"
"1979-01-24 19:00","1979","01","24","19:00","1.2","","0.0","","92","","8","","41","","4.8","","96.96","","","","","","Rain,Snow,Fog"
"1979-01-24 20:00","1979","01","24","20:00","1.0","","0.0","","93","","8","","41","","4.0","","96.92","","","","","","Rain,Snow,Fog"
"1979-01-24 21:00","1979","01","24","21:00","0.9","","0.0","","94","","8","","41","","6.4","","96.92","","","","","","Rain,Snow,Fog"
"1979-01-24 22:00","1979","01","24","22:00","0.9","","0.0","","94","","8","","31","","6.4","","96.79","","","","","","Rain,Drizzle,Fog"
"1979-01-24 23:00","1979","01","24","23:00","0.7","","-0.5","","91","","8","","30","","4.0","","96.82","","","","","","Snow"
"1979-01-25 00:00","1979","01","25","00:00","0.7","","-0.5","","91","","8","","33","","4.0","","96.79","","","","","","Snow"
"1979-01-25 01:00","1979","01","25","01:00","0.7","","-0.5","","91","","8","","26","","4.0","","96.72","","","","","","Snow"
"1979-01-25 02:00","1979","01","25","02:00","0.6","","0.0","","96","","7","","9","","3.2","","96.76","","","","","","Snow"
"1979-01-25 03:00","1979","01","25","03:00","0.3","","0.1","","99","","34","","9","","2.0","","96.82","","","","","","Snow"
"1979-01-25 04:00","1979","01","25","04:00","0.3","","0.1","","99","","35","","15","","2.0","","96.89","","","","","","Snow"
"1979-01-25 05:00","1979","01","25","05:00","0.1","","-0.1","","98","","36","","19","","4.0","","96.96","","","","","","Snow"
"1979-01-25 06:00","1979","01","25","06:00","-0.1","","-0.4","","98","","36","","22","","4.0","","96.99","","","","-6","","Snow"
"1979-01-25 07:00","1979","01","25","07:00","-0.4","","-1.0","","96","","36","","20","","4.0","","97.16","","","","-6","","Snow"
"1979-01-25 08:00","1979","01","25","08:00","-0.6","","-1.1","","96","","36","","20","","6.4","","97.26","","","","-6","","Snow"
"1979-01-25 09:00","1979","01","25","09:00","-0.8","","-2.2","","90","","1","","17","","8.0","","97.36","","","","-6","","Snow"
"1979-01-25 10:00","1979","01","25","10:00","-0.8","","-2.4","","89","","1","","17","","32.2","","97.46","","","","-6","","Snow"
"1979-01-25 11:00","1979","01","25","11:00","-0.7","","-2.4","","88","","36","","13","","32.2","","97.56","","","","-5","","Snow"
"1979-01-25 12:00","1979","01","25","12:00","-0.7","","-2.4","","88","","36","","15","","40.2","","97.62","","","","-5","","Cloudy"
"1979-01-25 13:00","1979","01","25","13:00","-0.9","","-2.2","","91","","34","","22","","9.7","","97.59","","","","-7","","Snow"
"1979-01-25 14:00","1979","01","25","14:00","-0.6","","-1.8","","92","","34","","20","","32.2","","97.66","","","","-6","","Snow"
"1979-01-25 15:00","1979","01","25","15:00","-0.4","","-1.5","","92","","34","","20","","24.1","","97.76","","","","-6","","Snow"
"1979-01-25 16:00","1979","01","25","16:00","-0.4","","-0.7","","98","","34","","22","","4.8","","97.86","","","","-6","","Freezing Drizzle,Snow"
"1979-01-25 17:00","1979","01","25","17:00","-0.2","","-1.2","","93","","35","","24","","24.1","","97.92","","","","-6","","Freezing Rain,Snow"
"1979-01-25 18:00","1979","01","25","18:00","0.2","","-0.8","","93","","33","","24","","4.8","","98.02","","","","","","Rain,Snow"
"1979-01-25 19:00","1979","01","25","19:00","0.2","","-0.8","","93","","33","","24","","25.0","","98.02","","","","","","Cloudy"
"1979-01-25 20:00","1979","01","25","20:00","0.7","","-1.4","","86","","34","","20","","25.0","","98.09","","","","","","Cloudy"
"1979-01-25 21:00","1979","01","25","21:00","0.8","","0.0","","95","","35","","19","","19.3","","98.16","","","","","","Cloudy"
"1979-01-25 22:00","1979","01","25","22:00","0.8","","0.0","","95","","34","","15","","19.3","","98.16","","","","","","Cloudy"
"1979-01-25 23:00","1979","01","25","23:00","0.9","","-0.5","","90","","33","","19","","24.1","","98.19","","","","","","Cloudy"
"1979-01-26 00:00","1979","01","26","00:00","1.5","","-1.0","","83","","35","","26","","25.0","","98.22","","","","","","Cloudy"
"1979-01-26 01:00","1979","01","26","01:00","1.2","","-1.0","","85","","33","","20","","25.0","","98.29","","","","","","Cloudy"
"1979-01-26 02:00","1979","01","26","02:00","1.1","","-0.5","","89","","34","","22","","24.1","","98.32","","","","","","Cloudy"
"1979-01-26 03:00","1979","01","26","03:00","1.0","","-0.5","","90","","33","","19","","24.1","","98.36","","","","","","Cloudy"
"1979-01-26 04:00","1979","01","26","04:00","0.8","","-0.5","","91","","34","","20","","25.0","","98.39","","","","","","Cloudy"
"1979-01-26 05:00","1979","01","26","05:00","1.0","","-0.5","","90","","34","","22","","25.0","","98.42","","","","","","Mostly Cloudy"
"1979-01-26 06:00","1979","01","26","06:00","0.8","","-0.5","","91","","33","","24","","25.0","","98.49","","","","","","Cloudy"
"1979-01-26 07:00","1979","01","26","07:00","0.9","","-0.5","","90","","33","","24","","25.0","","98.52","","","","","","Cloudy"
"1979-01-26 08:00","1979","01","26","08:00","1.0","","-0.5","","90","","33","","24","","32.2","","98.59","","","","","","Cloudy"
"1979-01-26 09:00","1979","01","26","09:00","0.9","","-0.5","","90","","33","","26","","40.2","","98.66","","","","","","Cloudy"
"1979-01-26 10:00","1979","01","26","10:00","0.8","","-0.5","","91","","33","","28","","32.2","","98.66","","","","","","Cloudy"
"1979-01-26 11:00","1979","01","26","11:00","0.6","","-0.9","","90","","32","","26","","32.2","","98.62","","","","","","Cloudy"
"1979-01-26 12:00","1979","01","26","12:00","0.9","","-1.0","","87","","31","","28","","32.2","","98.52","","","","","","Mostly Cloudy"
"1979-01-26 13:00","1979","01","26","13:00","1.2","","-1.0","","85","","32","","24","","32.2","","98.49","","","","","","Mostly Cloudy"
"1979-01-26 14:00","1979","01","26","14:00","1.0","","-1.0","","86","","33","","28","","32.2","","98.46","","","","","","Mostly Cloudy"
"1979-01-26 15:00","1979","01","26","15:00","1.0","","-0.5","","90","","33","","22","","32.2","","98.49","","","","","","Mostly Cloudy"
"1979-01-26 16:00","1979","01","26","16:00","0.7","","-0.9","","89","","33","","33","","32.2","","98.56","","","","","","Mostly Cloudy"
"1979-01-26 17:00","1979","01","26","17:00","0.9","","-0.5","","90","","32","","30","","32.2","","98.59","","","","","","Mostly Cloudy"
"1979-01-26 18:00","1979","01","26","18:00","1.1","","-1.0","","86","","33","","30","","24.1","","98.59","","","","","","Mostly Cloudy"
"1979-01-26 19:00","1979","01","26","19:00","0.9","","-0.5","","90","","33","","20","","24.1","","98.66","","","","","","Cloudy"
"1979-01-26 20:00","1979","01","26","20:00","1.0","","-0.5","","90","","34","","19","","24.1","","98.66","","","","","","Cloudy"
"1979-01-26 21:00","1979","01","26","21:00","1.1","","-0.5","","89","","34","","17","","24.1","","98.66","","","","","","Cloudy"
"1979-01-26 22:00","1979","01","26","22:00","1.0","","-0.5","","90","","34","","19","","24.1","","98.62","","","","","","Cloudy"
"1979-01-26 23:00","1979","01","26","23:00","1.0","","-0.5","","90","","35","","19","","24.1","","98.59","","","","","","Cloudy"
"1979-01-27 00:00","1979","01","27","00:00","0.9","","-0.5","","90","","33","","19","","24.1","","98.56","","","","","","Cloudy"
"1979-01-27 01:00","1979","01","27","01:00","0.9","","-0.5","","90","","33","","13","","24.1","","98.56","","","","","","Cloudy"
"1979-01-27 02:00","1979","01","27","02:00","0.9","","-0.5","","90","","34","","15","","24.1","","98.59","","","","","","Cloudy"
"1979-01-27 03:00","1979","01","27","03:00","0.9","","-0.5","","90","","34","","15","","24.1","","98.59","","","","","","Cloudy"
"1979-01-27 04:00","1979","01","27","04:00","0.9","","-0.5","","90","","34","","17","","19.3","","98.59","","","","","","Cloudy"
"1979-01-27 05:00","1979","01","27","05:00","0.7","","-0.5","","91","","34","","15","","12.9","","98.59","","","","","","Snow"
"1979-01-27 06:00","1979","01","27","06:00","0.4","","-0.1","","96","","34","","15","","6.4","","98.59","","","","","","Snow"
"1979-01-27 07:00","1979","01","27","07:00","0.4","","-0.1","","96","","35","","13","","6.4","","98.59","","","","","","Snow"
"1979-01-27 08:00","1979","01","27","08:00","0.4","","-0.1","","96","","33","","13","","12.9","","98.59","","","","","","Snow"
"1979-01-27 09:00","1979","01","27","09:00","0.5","","-0.5","","93","","33","","11","","19.3","","98.59","","","","","","Cloudy"
"1979-01-27 10:00","1979","01","27","10:00","0.7","","-0.5","","91","","35","","15","","19.3","","98.52","","","","","","Cloudy"
"1979-01-27 11:00","1979","01","27","11:00","1.0","","0.0","","93","","34","","15","","19.3","","98.49","","","","","","Cloudy"
"1979-01-27 12:00","1979","01","27","12:00","1.4","","0.0","","90","","1","","13","","19.3","","98.39","","","","","","Cloudy"
"1979-01-27 13:00","1979","01","27","13:00","1.5","","0.0","","90","","35","","7","","19.3","","98.29","","","","","","Cloudy"
"1979-01-27 14:00","1979","01","27","14:00","0.5","","-1.0","","90","","36","","6","","19.3","","98.19","","","","","","Cloudy"
"1979-01-27 15:00","1979","01","27","15:00","1.5","","0.0","","90","","35","","7","","19.3","","98.19","","","","","","Cloudy"
"1979-01-27 16:00","1979","01","27","16:00","1.0","","0.0","","93","","31","","9","","19.3","","98.19","","","","","","Drizzle"
"1979-01-27 17:00","1979","01","27","17:00","1.1","","0.0","","92","","31","","7","","19.3","","98.19","","","","","","Cloudy"
"1979-01-27 18:00","1979","01","27","18:00","1.0","","0.0","","93","","35","","9","","16.1","","98.12","","","","","","Cloudy"
"1979-01-27 19:00","1979","01","27","19:00","1.2","","0.0","","92","","36","","9","","16.1","","98.09","","","","","","Cloudy"
"1979-01-27 20:00","1979","01","27","20:00","1.0","","0.0","","93","","1","","11","","16.1","","98.02","","","","","","Cloudy"
"1979-01-27 21:00","1979","01","27","21:00","0.8","","0.5","","98","","36","","13","","9.7","","97.96","","","","","","Drizzle,Fog"
"1979-01-27 22:00","1979","01","27","22:00","0.8","","0.5","","98","","35","","13","","8.0","","97.89","","","","","","Drizzle,Fog"
"1979-01-27 23:00","1979","01","27","23:00","0.9","","0.0","","94","","34","","11","","9.7","","97.86","","","","","","Fog"
"1979-01-28 00:00","1979","01","28","00:00","0.6","","0.0","","96","","35","","9","","9.7","","97.79","","","","","","Fog"
"1979-01-28 01:00","1979","01","28","01:00","0.8","","0.0","","95","","34","","11","","9.7","","97.76","","","","","","Fog"
"1979-01-28 02:00","1979","01","28","02:00","0.7","","-0.5","","91","","35","","13","","9.7","","97.69","","","","","","Fog"
"1979-01-28 03:00","1979","01","28","03:00","0.7","","-0.5","","91","","35","","15","","9.7","","97.66","","","","","","Fog"
"1979-01-28 04:00","1979","01","28","04:00","0.7","","-0.5","","91","","35","","17","","12.9","","97.66","","","","","","Cloudy"
"1979-01-28 05:00","1979","01","28","05:00","0.6","","-0.5","","92","","33","","15","","12.9","","97.59","","","","","","Cloudy"
"1979-01-28 06:00","1979","01","28","06:00","0.7","","-0.5","","91","","34","","17","","12.9","","97.59","","","","","","Cloudy"
"1979-01-28 07:00","1979","01","28","07:00","0.5","","-0.5","","93","","33","","20","","16.1","","97.59","","","","","","Cloudy"
"1979-01-28 08:00","1979","01","28","08:00","0.5","","-0.5","","93","","33","","22","","24.1","","97.59","","","","","","Cloudy"
"1979-01-28 09:00","1979","01","28","09:00","0.5","","-0.9","","90","","32","","24","","32.2","","97.59","","","","","","Cloudy"
"1979-01-28 10:00","1979","01","28","10:00","0.6","","-0.9","","90","","33","","24","","40.2","","97.62","","","","","","Cloudy"
"1979-01-28 11:00","1979","01","28","11:00","0.4","","-1.3","","89","","33","","28","","32.2","","97.62","","","","","","Cloudy"
"1979-01-28 12:00","1979","01","28","12:00","-0.3","","-2.6","","84","","34","","30","","32.2","","97.52","","","","-7","","Cloudy"
"1979-01-28 13:00","1979","01","28","13:00","-0.5","","-2.7","","85","","33","","30","","32.2","","97.52","","","","-7","","Cloudy"
"1979-01-28 14:00","1979","01","28","14:00","-0.8","","-3.0","","85","","34","","39","","32.2","","97.56","","","","-8","","Cloudy"
"1979-01-28 15:00","1979","01","28","15:00","-1.1","","-2.7","","89","","33","","28","","2.4","","97.59","","","","-8","","Snow"
"1979-01-28 16:00","1979","01","28","16:00","-1.7","","-2.5","","94","","33","","30","","0.8","","97.66","","","","-9","","Moderate Snow"
"1979-01-28 17:00","1979","01","28","17:00","-1.8","","-2.0","","98","","32","","28","","4.8","","97.69","","","","-9","","Snow"
"1979-01-28 18:00","1979","01","28","18:00","-1.7","","-3.0","","91","","33","","33","","16.1","","97.72","","","","-9","","Snow"
"1979-01-28 19:00","1979","01","28","19:00","-1.7","","-3.0","","91","","33","","37","","24.1","","97.76","","","","-9","","Snow"
"1979-01-28 20:00","1979","01","28","20:00","-1.5","","-3.6","","85","","33","","37","","24.1","","97.79","","","","-9","","Freezing Drizzle"
"1979-01-28 21:00","1979","01","28","21:00","-1.7","","-3.3","","89","","32","","41","","24.1","","97.79","","","","-10","","Freezing Rain"
"1979-01-28 22:00","1979","01","28","22:00","-1.8","","-4.2","","83","","32","","37","","25.0","","97.86","","","","-10","","Cloudy"
"1979-01-28 23:00","1979","01","28","23:00","-2.0","","-4.2","","85","","33","","37","","25.0","","97.86","","","","-10","","Cloudy"
"1979-01-29 00:00","1979","01","29","00:00","-2.1","","-4.2","","85","","33","","33","","25.0","","97.89","","","","-10","","Cloudy"
"1979-01-29 01:00","1979","01","29","01:00","-2.4","","-4.8","","84","","33","","35","","25.0","","97.92","","","","-10","","Cloudy"
"1979-01-29 02:00","1979","01","29","02:00","-2.5","","-5.1","","82","","32","","33","","25.0","","97.96","","","","-10","","Cloudy"
"1979-01-29 03:00","1979","01","29","03:00","-2.5","","-5.1","","82","","32","","26","","25.0","","98.02","","","","-9","","Cloudy"
"1979-01-29 04:00","1979","01","29","04:00","-2.8","","-5.4","","82","","32","","20","","25.0","","98.06","","","","-9","","Cloudy"
"1979-01-29 05:00","1979","01","29","05:00","-3.0","","-5.1","","85","","32","","20","","25.0","","98.12","","","","-9","","Cloudy"
"1979-01-29 06:00","1979","01","29","06:00","-2.7","","-5.1","","84","","30","","19","","25.0","","98.19","","","","-8","","Cloudy"
"1979-01-29 07:00","1979","01","29","07:00","-3.0","","-5.4","","83","","30","","31","","25.0","","98.26","","","","-11","","Cloudy"
"1979-01-29 08:00","1979","01","29","08:00","-3.2","","-5.4","","85","","31","","24","","32.2","","98.29","","","","-10","","Cloudy"
"1979-01-29 09:00","1979","01","29","09:00","-3.2","","-5.4","","85","","31","","26","","32.2","","98.36","","","","-10","","Snow"
"1979-01-29 10:00","1979","01","29","10:00","-3.3","","-6.0","","81","","29","","24","","32.2","","98.42","","","","-10","","Snow"
"1979-01-29 11:00","1979","01","29","11:00","-3.1","","-5.4","","84","","29","","31","","32.2","","98.46","","","","-11","","Snow"
"1979-01-29 12:00","1979","01","29","12:00","-3.0","","-5.1","","85","","30","","24","","32.2","","98.39","","","","-10","","Snow"
"1979-01-29 13:00","1979","01","29","13:00","-2.3","","-5.1","","81","","30","","28","","32.2","","98.39","","","","-9","","Snow Showers"
"1979-01-29 14:00","1979","01","29","14:00","-1.9","","-4.2","","84","","30","","26","","32.2","","98.36","","","","-8","","Snow Showers"
"1979-01-29 15:00","1979","01","29","15:00","-1.8","","-4.2","","83","","31","","31","","40.2","","98.36","","","","-9","","Cloudy"
"1979-01-29 16:00","1979","01","29","16:00","-2.0","","-4.5","","83","","30","","30","","40.2","","98.46","","","","-9","","Cloudy"
"1979-01-29 17:00","1979","01","29","17:00","-2.2","","-4.2","","86","","30","","37","","40.2","","98.49","","","","-10","","Cloudy"
"1979-01-29 18:00","1979","01","29","18:00","-2.5","","-4.8","","84","","31","","28","","25.0","","98.56","","","","-10","","Cloudy"
"1979-01-29 19:00","1979","01","29","19:00","-2.8","","-5.7","","80","","29","","24","","25.0","","98.59","","","","-9","","Cloudy"
"1979-01-29 20:00","1979","01","29","20:00","-3.0","","-5.4","","83","","30","","30","","25.0","","98.62","","","","-10","","Cloudy"
"1979-01-29 21:00","1979","01","29","21:00","-3.3","","-5.7","","83","","30","","20","","25.0","","98.66","","","","-9","","Cloudy"
"1979-01-29 22:00","1979","01","29","22:00","-3.3","","-5.1","","87","","31","","17","","25.0","","98.69","","","","-9","","Cloudy"
"1979-01-29 23:00","1979","01","29","23:00","-3.0","","-5.4","","83","","31","","20","","25.0","","98.69","","","","-9","","Cloudy"
"1979-01-30 00:00","1979","01","30","00:00","-3.4","","-6.0","","82","","33","","17","","25.0","","98.69","","","","-9","","Cloudy"
"1979-01-30 01:00","1979","01","30","01:00","-3.5","","-7.3","","75","","30","","26","","25.0","","98.69","","","","-11","","Cloudy"
"1979-01-30 02:00","1979","01","30","02:00","-4.4","","-7.6","","78","","29","","22","","25.0","","98.72","","","","-11","","Mostly Cloudy"
"1979-01-30 03:00","1979","01","30","03:00","-4.2","","-7.3","","79","","30","","24","","25.0","","98.76","","","","-11","","Cloudy"
"1979-01-30 04:00","1979","01","30","04:00","-4.2","","-7.3","","79","","31","","24","","25.0","","98.82","","","","-11","","Cloudy"
"1979-01-30 05:00","1979","01","30","05:00","-4.5","","-6.9","","83","","33","","26","","25.0","","98.86","","","","-12","","Cloudy"
"1979-01-30 06:00","1979","01","30","06:00","-5.0","","-7.5","","83","","31","","22","","25.0","","98.89","","","","-12","","Cloudy"
"1979-01-30 07:00","1979","01","30","07:00","-4.9","","-7.5","","82","","32","","24","","25.0","","98.89","","","","-12","","Cloudy"
"1979-01-30 08:00","1979","01","30","08:00","-5.3","","-8.5","","78","","31","","31","","25.0","","98.96","","","","-14","","Cloudy"
"1979-01-30 09:00","1979","01","30","09:00","-5.7","","-8.2","","82","","30","","30","","40.2","","98.99","","","","-14","","Cloudy"
"1979-01-30 10:00","1979","01","30","10:00","-5.5","","-9.6","","73","","31","","28","","40.2","","98.99","","","","-13","","Mostly Cloudy"
"1979-01-30 11:00","1979","01","30","11:00","-5.5","","-9.2","","75","","30","","24","","40.2","","99.06","","","","-13","","Cloudy"
"1979-01-30 12:00","1979","01","30","12:00","-5.5","","-8.5","","79","","31","","33","","40.2","","99.02","","","","-14","","Cloudy"
"1979-01-30 13:00","1979","01","30","13:00","-5.2","","-7.9","","81","","31","","26","","40.2","","98.96","","","","-13","","Cloudy"
"1979-01-30 14:00","1979","01","30","14:00","-4.8","","-8.9","","73","","31","","26","","40.2","","98.96","","","","-12","","Cloudy"
"1979-01-30 15:00","1979","01","30","15:00","-4.2","","-8.3","","73","","30","","30","","40.2","","98.91","","","","-12","","Cloudy"
"1979-01-30 16:00","1979","01","30","16:00","-4.2","","-7.0","","81","","33","","24","","40.2","","98.96","","","","-11","","Mostly Cloudy"
"1979-01-30 17:00","1979","01","30","17:00","-5.2","","-8.2","","79","","34","","20","","40.2","","98.99","","","","-12","","Mostly Cloudy"
"1979-01-30 18:00","1979","01","30","18:00","-6.0","","-9.1","","79","","1","","15","","25.0","","99.02","","","","-12","","Cloudy"
"1979-01-30 19:00","1979","01","30","19:00","-6.0","","-8.8","","81","","36","","13","","25.0","","99.02","","","","-11","","Cloudy"
"1979-01-30 20:00","1979","01","30","20:00","-6.3","","-9.7","","76","","34","","17","","25.0","","99.06","","","","-13","","Cloudy"
"1979-01-30 21:00","1979","01","30","21:00","-6.3","","-9.7","","76","","33","","20","","25.0","","98.99","","","","-13","","Cloudy"
"1979-01-30 22:00","1979","01","30","22:00","-5.9","","-8.8","","80","","33","","24","","25.0","","98.99","","","","-13","","Cloudy"
"1979-01-30 23:00","1979","01","30","23:00","-6.2","","-8.8","","82","","32","","22","","25.0","","98.99","","","","-13","","Cloudy"
"1979-01-31 00:00","1979","01","31","00:00","-6.5","","-9.7","","78","","28","","19","","25.0","","98.96","","","","-13","","Cloudy"
"1979-01-31 01:00","1979","01","31","01:00","-6.5","","-9.7","","78","","25","","19","","25.0","","98.89","","","","-13","","Cloudy"
"1979-01-31 02:00","1979","01","31","02:00","-6.7","","-9.7","","79","","26","","15","","25.0","","98.89","","","","-13","","Cloudy"
"1979-01-31 03:00","1979","01","31","03:00","-6.4","","-10.1","","75","","33","","15","","25.0","","98.86","","","","-12","","Cloudy"
"1979-01-31 04:00","1979","01","31","04:00","-6.5","","-10.1","","75","","1","","13","","25.0","","98.82","","","","-12","","Cloudy"
"1979-01-31 05:00","1979","01","31","05:00","-6.5","","-10.1","","75","","32","","7","","25.0","","98.79","","","","-10","","Cloudy"
"1979-01-31 06:00","1979","01","31","06:00","-7.4","","-9.9","","82","","33","","13","","25.0","","98.79","","","","-13","","Cloudy"
"1979-01-31 07:00","1979","01","31","07:00","-9.2","","-10.9","","88","","1","","15","","25.0","","98.79","","","","-16","","Mostly Cloudy"
"1979-01-31 08:00","1979","01","31","08:00","-9.8","","-12.4","","81","","36","","19","","32.2","","98.76","","","","-17","","Snow"
"1979-01-31 09:00","1979","01","31","09:00","-10.3","","-13.5","","77","","34","","19","","19.3","","98.69","","","","-18","","Snow"
"1979-01-31 10:00","1979","01","31","10:00","-10.0","","-13.3","","77","","34","","17","","24.1","","98.69","","","","-17","","Snow"
"1979-01-31 11:00","1979","01","31","11:00","-9.4","","-12.7","","77","","32","","15","","32.2","","98.59","","","","-16","","Mostly Cloudy"
"1979-01-31 12:00","1979","01","31","12:00","-7.6","","-11.4","","74","","33","","17","","40.2","","98.49","","","","-14","","Cloudy"
"1979-01-31 13:00","1979","01","31","13:00","-6.5","","-10.9","","71","","32","","31","","40.2","","98.39","","","","-15","","Cloudy"
"1979-01-31 14:00","1979","01","31","14:00","-7.1","","-11.6","","70","","32","","33","","40.2","","98.36","","","","-16","","Cloudy"
"1979-01-31 15:00","1979","01","31","15:00","-7.4","","-11.0","","75","","32","","35","","32.2","","98.32","","","","-17","","Snow Showers"
"1979-01-31 16:00","1979","01","31","16:00","-7.5","","-11.0","","76","","32","","35","","16.1","","98.36","","","","-17","","Snow"
"1979-01-31 17:00","1979","01","31","17:00","-8.0","","-11.2","","77","","32","","39","","12.9","","98.36","","","","-18","","Snow"
"1979-01-31 18:00","1979","01","31","18:00","-8.0","","-11.2","","77","","31","","26","","4.0","","98.39","","","","-16","","Snow"
"1979-01-31 19:00","1979","01","31","19:00","-8.1","","-10.5","","83","","36","","22","","4.0","","98.42","","","","-16","","Snow"
"1979-01-31 20:00","1979","01","31","20:00","-8.8","","-10.9","","85","","34","","20","","3.2","","98.42","","","","-16","","Snow"
"1979-01-31 21:00","1979","01","31","21:00","-9.4","","-11.1","","87","","30","","26","","2.4","","98.39","","","","-18","","Snow"
"1979-01-31 22:00","1979","01","31","22:00","-9.1","","-10.5","","90","","31","","24","","4.0","","98.39","","","","-17","","Snow"
"1979-01-31 23:00","1979","01","31","23:00","-8.9","","-10.9","","85","","34","","41","","3.2","","98.39","","","","-19","","Snow,Blowing Snow"
