"Station Name","TORONTO LESTER B. PEARSON INT'L A"
"Province","ONTARIO"
"Latitude","43.68"
"Longitude","-79.63"
"Elevation","173.40"
"Climate Identifier","6158733"
"WMO Identifier","71624"
"TC Identifier","YYZ"
"All times are specified in Local Standard Time (LST). Add 1 hour to adjust for Daylight Saving Time where and when it is observed."

"Legend"
"E","Estimated"
"M","Missing"
"NA","Not Available"

"Date/Time","Year","Month","Day","Time","Temp (°C)","Temp Flag","Dew Point Temp (°C)","Dew Point Temp Flag","Rel Hum (%)","Rel Hum Flag","Wind Dir (10s deg)","Wind Dir Flag","Wind Spd (km/h)","Wind Spd Flag","Visibility (km)","Visibility Flag","Stn Press (kPa)","Stn Press Flag","Hmdx","Hmdx Flag","Wind Chill","Wind Chill Flag","Weather"
"1997-10-01 00:00","1997","10","01","00:00","7.3","","0.2","","61","","36","","22","","25.0","","98.89","","","","","","Clear"
"1997-10-01 01:00","1997","10","01","01:00","6.3","","-0.3","","63","","36","","20","","25.0","","98.96","","","","","","Mainly Clear"
"1997-10-01 02:00","1997","10","01","02:00","5.0","","-0.7","","67","","35","","13","","25.0","","98.99","","","","","","Mainly Clear"
"1997-10-01 03:00","1997","10","01","03:00","5.1","","-0.6","","67","","2","","13","","25.0","","99.06","","","","","","Mainly Clear"
"1997-10-01 04:00","1997","10","01","04:00","5.2","","-0.7","","66","","35","","13","","25.0","","99.12","","","","","","Clear"
"1997-10-01 05:00","1997","10","01","05:00","4.6","","-1.5","","65","","35","","17","","25.0","","99.26","","","","","","Mainly Clear"
"1997-10-01 06:00","1997","10","01","06:00","3.6","","-1.4","","70","","35","","17","","25.0","","99.35","","","","","","Mainly Clear"
"1997-10-01 07:00","1997","10","01","07:00","3.0","","-1.0","","75","","34","","19","","32.2","","99.49","","","","","","Mainly Clear"
"1997-10-01 08:00","1997","10","01","08:00","5.0","","-1.4","","63","","36","","19","","32.2","","99.59","","","","","","Mainly Clear"
"1997-10-01 09:00","1997","10","01","09:00","5.8","","-2.0","","57","","36","","24","","32.2","","99.65","","","","","","Mostly Cloudy"
"1997-10-01 10:00","1997","10","01","10:00","6.3","","-1.5","","57","","33","","28","","32.2","","99.72","","","","","","Mostly Cloudy"
"1997-10-01 11:00","1997","10","01","11:00","7.9","","-0.8","","54","","32","","20","","32.2","","99.72","","","","","","Mainly Clear"
"1997-10-01 12:00","1997","10","01","12:00","8.8","","-0.3","","53","","35","","19","","32.2","","99.72","","","","","","Mainly Clear"
"1997-10-01 13:00","1997","10","01","13:00","9.9","","0.6","","52","","33","","19","","32.2","","99.72","","","","","","Mainly Clear"
"1997-10-01 14:00","1997","10","01","14:00","10.0","","0.5","","52","","33","","24","","40.2","","99.69","","","","","","Clear"
"1997-10-01 15:00","1997","10","01","15:00","10.5","","1.1","","52","","36","","20","","40.2","","99.69","","","","","","Clear"
"1997-10-01 16:00","1997","10","01","16:00","10.0","","1.3","","55","","36","","19","","40.2","","99.69","","","","","","Clear"
"1997-10-01 17:00","1997","10","01","17:00","9.1","","1.3","","58","","34","","20","","40.2","","99.75","","","","","","Clear"
"1997-10-01 18:00","1997","10","01","18:00","7.5","","1.0","","63","","36","","15","","40.2","","99.82","","","","","","Clear"
"1997-10-01 19:00","1997","10","01","19:00","6.2","","1.1","","70","","35","","17","","25.0","","99.85","","","","","","Clear"
"1997-10-01 20:00","1997","10","01","20:00","4.5","","0.8","","77","","32","","11","","25.0","","99.92","","","","","","Clear"
"1997-10-01 21:00","1997","10","01","21:00","4.1","","1.0","","80","","30","","9","","25.0","","99.92","","","","","","Clear"
"1997-10-01 22:00","1997","10","01","22:00","3.4","","0.6","","82","","25","","4","","25.0","","99.89","","","","","","Clear"
"1997-10-01 23:00","1997","10","01","23:00","3.3","","0.6","","82","","25","","6","","25.0","","99.92","","","","","","Mostly Cloudy"
"1997-10-02 00:00","1997","10","02","00:00","2.9","","0.6","","85","","28","","7","","25.0","","99.92","","","","","","Mostly Cloudy"
"1997-10-02 01:00","1997","10","02","01:00","2.5","","1.0","","90","","26","","6","","25.0","","99.89","","","","","","Cloudy"
"1997-10-02 02:00","1997","10","02","02:00","2.2","","0.7","","90","","","","0","","25.0","","99.85","","","","","","Mainly Clear"
"1997-10-02 03:00","1997","10","02","03:00","2.1","","0.7","","90","","28","","4","","25.0","","99.79","","","","","","Mostly Cloudy"
"1997-10-02 04:00","1997","10","02","04:00","1.9","","0.7","","92","","","","0","","25.0","","99.79","","","","","","Cloudy"
"1997-10-02 05:00","1997","10","02","05:00","1.6","","0.5","","92","","32","","4","","25.0","","99.85","","","","","","Mostly Cloudy"
"1997-10-02 06:00","1997","10","02","06:00","2.8","","1.3","","90","","27","","4","","25.0","","99.85","","","","","","Cloudy"
"1997-10-02 07:00","1997","10","02","07:00","3.6","","2.0","","89","","26","","4","","24.1","","99.92","","","","","","Mostly Cloudy"
"1997-10-02 08:00","1997","10","02","08:00","5.1","","2.9","","86","","","","0","","24.1","","99.92","","","","","","Mostly Cloudy"
"1997-10-02 09:00","1997","10","02","09:00","6.3","","3.4","","82","","19","","13","","24.1","","99.82","","","","","","Mostly Cloudy"
"1997-10-02 10:00","1997","10","02","10:00","6.8","","3.9","","82","","15","","4","","24.1","","99.82","","","","","","Cloudy"
"1997-10-02 11:00","1997","10","02","11:00","8.3","","4.8","","79","","21","","13","","24.1","","99.75","","","","","","Cloudy"
"1997-10-02 12:00","1997","10","02","12:00","10.0","","5.1","","72","","21","","7","","24.1","","99.62","","","","","","Cloudy"
"1997-10-02 13:00","1997","10","02","13:00","9.3","","5.4","","77","","21","","11","","24.1","","99.59","","","","","","Rain Showers"
"1997-10-02 14:00","1997","10","02","14:00","10.4","","6.5","","77","","17","","9","","19.3","","99.49","","","","","","Rain Showers"
"1997-10-02 15:00","1997","10","02","15:00","11.5","","7.4","","76","","17","","9","","19.3","","99.39","","","","","","Mostly Cloudy"
"1997-10-02 16:00","1997","10","02","16:00","12.5","","9.0","","79","","17","","9","","19.3","","99.32","","","","","","Mostly Cloudy"
"1997-10-02 17:00","1997","10","02","17:00","13.1","","7.8","","70","","23","","22","","24.1","","99.29","","","","","","Mostly Cloudy"
"1997-10-02 18:00","1997","10","02","18:00","12.1","","8.0","","76","","22","","19","","24.1","","99.29","","","","","","Rain Showers"
"1997-10-02 19:00","1997","10","02","19:00","11.6","","8.2","","80","","22","","22","","24.1","","99.26","","","","","","Cloudy"
"1997-10-02 20:00","1997","10","02","20:00","11.4","","9.1","","86","","21","","11","","19.3","","99.26","","","","","","Cloudy"
"1997-10-02 21:00","1997","10","02","21:00","11.2","","9.1","","87","","19","","6","","19.3","","99.22","","","","","","Mostly Cloudy"
"1997-10-02 22:00","1997","10","02","22:00","11.4","","9.1","","86","","17","","4","","24.1","","99.19","","","","","","Mostly Cloudy"
"1997-10-02 23:00","1997","10","02","23:00","11.8","","9.0","","83","","18","","9","","24.1","","99.16","","","","","","Cloudy"
"1997-10-03 00:00","1997","10","03","00:00","12.2","","8.5","","78","","17","","9","","24.1","","99.16","","","","","","Cloudy"
"1997-10-03 01:00","1997","10","03","01:00","11.8","","8.6","","81","","16","","7","","24.1","","99.09","","","","","","Cloudy"
"1997-10-03 02:00","1997","10","03","02:00","12.1","","8.4","","78","","13","","7","","24.1","","99.02","","","","","","Cloudy"
"1997-10-03 03:00","1997","10","03","03:00","11.5","","8.6","","82","","17","","9","","24.1","","98.99","","","","","","Cloudy"
"1997-10-03 04:00","1997","10","03","04:00","11.8","","8.9","","82","","19","","6","","24.1","","98.96","","","","","","Mostly Cloudy"
"1997-10-03 05:00","1997","10","03","05:00","12.3","","9.7","","84","","23","","11","","24.1","","98.89","","","","","","Cloudy"
"1997-10-03 06:00","1997","10","03","06:00","13.1","","10.6","","85","","22","","4","","19.3","","98.92","","","","","","Cloudy"
"1997-10-03 07:00","1997","10","03","07:00","13.2","","11.0","","87","","23","","6","","16.1","","98.92","","","","","","Cloudy"
"1997-10-03 08:00","1997","10","03","08:00","13.9","","11.5","","85","","22","","7","","12.9","","98.96","","","","","","Cloudy"
"1997-10-03 09:00","1997","10","03","09:00","15.1","","12.1","","82","","20","","6","","12.9","","98.96","","","","","","Cloudy"
"1997-10-03 10:00","1997","10","03","10:00","17.0","","13.1","","78","","25","","7","","19.3","","98.96","","","","","","Mainly Clear"
"1997-10-03 11:00","1997","10","03","11:00","18.6","","12.9","","69","","26","","4","","24.1","","98.96","","","","","","Mainly Clear"
"1997-10-03 12:00","1997","10","03","12:00","19.6","","13.0","","66","","","","0","","24.1","","98.96","","","","","","Mainly Clear"
"1997-10-03 13:00","1997","10","03","13:00","20.8","","13.4","","63","","14","","13","","24.1","","98.92","","","","","","Mostly Cloudy"
"1997-10-03 14:00","1997","10","03","14:00","20.8","","13.9","","65","","17","","9","","19.3","","98.92","","","","","","Mainly Clear"
"1997-10-03 15:00","1997","10","03","15:00","19.4","","13.5","","69","","15","","13","","16.1","","98.92","","","","","","Mostly Cloudy"
"1997-10-03 16:00","1997","10","03","16:00","18.7","","13.4","","71","","15","","15","","14.5","","98.92","","","","","","Mostly Cloudy"
"1997-10-03 17:00","1997","10","03","17:00","18.1","","13.0","","72","","14","","11","","16.1","","98.99","","","","","","Cloudy"
"1997-10-03 18:00","1997","10","03","18:00","16.8","","12.9","","78","","11","","19","","12.9","","99.02","","","","","","Cloudy"
"1997-10-03 19:00","1997","10","03","19:00","15.5","","11.8","","79","","9","","17","","14.5","","99.12","","","","","","Mostly Cloudy"
"1997-10-03 20:00","1997","10","03","20:00","14.7","","11.9","","83","","9","","11","","16.1","","99.16","","","","","","Mostly Cloudy"
"1997-10-03 21:00","1997","10","03","21:00","13.8","","11.3","","85","","9","","11","","16.1","","99.19","","","","","","Mainly Clear"
"1997-10-03 22:00","1997","10","03","22:00","13.8","","11.6","","87","","7","","9","","11.3","","99.22","","","","","","Clear"
"1997-10-03 23:00","1997","10","03","23:00","13.1","","11.6","","91","","9","","7","","9.7","","99.19","","","","","","Fog"
"1997-10-04 00:00","1997","10","04","00:00","12.9","","11.9","","94","","8","","6","","6.4","","99.19","","","","","","Fog"
"1997-10-04 01:00","1997","10","04","01:00","12.0","","11.7","","98","","8","","4","","6.4","","99.22","","","","","","Fog"
"1997-10-04 02:00","1997","10","04","02:00","12.3","","12.3","","100","","8","","7","","1.2","","99.22","","","","","","Fog"
"1997-10-04 03:00","1997","10","04","03:00","12.5","","12.5","","100","","10","","7","","0.2","","99.19","","","","","","Fog"
"1997-10-04 04:00","1997","10","04","04:00","12.4","","12.4","","100","","9","","15","","2.4","","99.16","","","","","","Fog"
"1997-10-04 05:00","1997","10","04","05:00","12.5","","12.5","","100","","11","","7","","2.8","","99.19","","","","","","Fog"
"1997-10-04 06:00","1997","10","04","06:00","12.4","","12.4","","100","","10","","11","","3.2","","99.19","","","","","","Fog"
"1997-10-04 07:00","1997","10","04","07:00","12.5","","12.5","","100","","12","","7","","2.4","","99.22","","","","","","Fog"
"1997-10-04 08:00","1997","10","04","08:00","13.3","","13.3","","100","","12","","13","","3.2","","99.16","","","","","","Fog"
"1997-10-04 09:00","1997","10","04","09:00","13.9","","13.3","","96","","15","","7","","3.2","","99.19","","","","","","Fog"
"1997-10-04 10:00","1997","10","04","10:00","15.5","","13.8","","90","","18","","9","","6.4","","99.16","","","","","","Fog"
"1997-10-04 11:00","1997","10","04","11:00","18.1","","14.5","","79","","19","","9","","9.7","","99.12","","","","","","Haze"
"1997-10-04 12:00","1997","10","04","12:00","19.6","","15.3","","76","","14","","13","","11.3","","99.06","","","","","","Mostly Cloudy"
"1997-10-04 13:00","1997","10","04","13:00","20.2","","15.0","","72","","18","","11","","11.3","","99.06","","","","","","Mostly Cloudy"
"1997-10-04 14:00","1997","10","04","14:00","21.1","","15.2","","69","","19","","9","","11.3","","99.02","","25","","","","Mostly Cloudy"
"1997-10-04 15:00","1997","10","04","15:00","22.1","","15.5","","66","","17","","7","","12.9","","99.02","","26","","","","Mainly Clear"
"1997-10-04 16:00","1997","10","04","16:00","21.9","","15.7","","68","","15","","9","","12.9","","98.99","","26","","","","Mostly Cloudy"
"1997-10-04 17:00","1997","10","04","17:00","22.1","","16.3","","70","","22","","19","","16.1","","98.96","","27","","","","Rain Showers"
"1997-10-04 18:00","1997","10","04","18:00","22.4","","16.3","","68","","22","","15","","11.3","","98.99","","27","","","","Cloudy"
"1997-10-04 19:00","1997","10","04","19:00","21.8","","16.5","","72","","21","","17","","12.9","","98.99","","27","","","","Mostly Cloudy"
"1997-10-04 20:00","1997","10","04","20:00","20.9","","16.8","","77","","23","","19","","11.3","","99.02","","26","","","","Mostly Cloudy"
"1997-10-04 21:00","1997","10","04","21:00","20.2","","16.7","","80","","25","","19","","12.9","","99.09","","25","","","","Mostly Cloudy"
"1997-10-04 22:00","1997","10","04","22:00","19.3","","16.7","","85","","31","","13","","12.9","","99.19","","","","","","Mostly Cloudy"
"1997-10-04 23:00","1997","10","04","23:00","16.0","","10.0","","68","","34","","9","","24.1","","99.29","","","","","","Mainly Clear"
"1997-10-05 00:00","1997","10","05","00:00","16.4","","10.4","","68","","30","","7","","24.1","","99.35","","","","","","Mainly Clear"
"1997-10-05 01:00","1997","10","05","01:00","15.5","","14.3","","93","","28","","7","","19.3","","99.42","","","","","","Clear"
"1997-10-05 02:00","1997","10","05","02:00","15.0","","14.3","","96","","24","","7","","16.1","","99.49","","","","","","Clear"
"1997-10-05 03:00","1997","10","05","03:00","14.4","","13.9","","97","","25","","6","","9.7","","99.52","","","","","","Fog"
"1997-10-05 04:00","1997","10","05","04:00","13.6","","13.3","","98","","27","","7","","8.0","","99.59","","","","","","Fog"
"1997-10-05 05:00","1997","10","05","05:00","12.6","","12.4","","99","","26","","7","","6.4","","99.65","","","","","","Fog"
"1997-10-05 06:00","1997","10","05","06:00","12.9","","12.4","","97","","26","","13","","8.0","","99.69","","","","","","Fog"
"1997-10-05 07:00","1997","10","05","07:00","12.6","","11.8","","95","","27","","7","","12.9","","99.69","","","","","","Clear"
"1997-10-05 08:00","1997","10","05","08:00","14.2","","12.1","","87","","30","","9","","24.1","","99.72","","","","","","Clear"
"1997-10-05 09:00","1997","10","05","09:00","16.6","","12.5","","77","","27","","11","","40.2","","99.75","","","","","","Clear"
"1997-10-05 10:00","1997","10","05","10:00","20.5","","11.5","","56","","25","","15","","40.2","","99.75","","","","","","Clear"
"1997-10-05 11:00","1997","10","05","11:00","22.8","","10.5","","46","","26","","11","","40.2","","99.75","","","","","","Clear"
"1997-10-05 12:00","1997","10","05","12:00","24.2","","6.0","","31","","24","","11","","40.2","","99.72","","","","","","Clear"
"1997-10-05 13:00","1997","10","05","13:00","24.8","","5.4","","29","","24","","13","","40.2","","99.62","","","","","","Clear"
"1997-10-05 14:00","1997","10","05","14:00","25.6","","6.3","","29","","22","","13","","40.2","","99.52","","25","","","","Clear"
"1997-10-05 15:00","1997","10","05","15:00","25.2","","8.9","","36","","23","","19","","40.2","","99.49","","26","","","","Clear"
"1997-10-05 16:00","1997","10","05","16:00","24.1","","9.8","","40","","20","","22","","40.2","","99.42","","25","","","","Clear"
"1997-10-05 17:00","1997","10","05","17:00","23.0","","10.2","","44","","20","","22","","32.2","","99.35","","","","","","Mainly Clear"
"1997-10-05 18:00","1997","10","05","18:00","20.8","","9.8","","49","","19","","11","","32.2","","99.29","","","","","","Mainly Clear"
"1997-10-05 19:00","1997","10","05","19:00","19.7","","8.4","","48","","20","","13","","25.0","","99.26","","","","","","Mainly Clear"
"1997-10-05 20:00","1997","10","05","20:00","19.7","","9.1","","50","","20","","17","","25.0","","99.22","","","","","","Mostly Cloudy"
"1997-10-05 21:00","1997","10","05","21:00","19.5","","10.9","","58","","20","","7","","25.0","","99.22","","","","","","Mostly Cloudy"
"1997-10-05 22:00","1997","10","05","22:00","19.4","","12.9","","66","","21","","13","","25.0","","99.22","","","","","","Mostly Cloudy"
"1997-10-05 23:00","1997","10","05","23:00","19.5","","14.6","","73","","19","","11","","24.1","","99.22","","","","","","Mostly Cloudy"
"1997-10-06 00:00","1997","10","06","00:00","18.9","","15.0","","78","","21","","7","","24.1","","99.19","","","","","","Mainly Clear"
"1997-10-06 01:00","1997","10","06","01:00","19.2","","14.9","","76","","22","","7","","19.3","","99.22","","","","","","Mainly Clear"
"1997-10-06 02:00","1997","10","06","02:00","18.2","","14.3","","78","","25","","11","","19.3","","99.26","","","","","","Clear"
"1997-10-06 03:00","1997","10","06","03:00","18.2","","13.9","","76","","27","","13","","19.3","","99.32","","","","","","Clear"
"1997-10-06 04:00","1997","10","06","04:00","17.9","","13.7","","76","","27","","13","","19.3","","99.39","","","","","","Clear"
"1997-10-06 05:00","1997","10","06","05:00","16.8","","13.7","","82","","30","","13","","19.3","","99.49","","","","","","Clear"
"1997-10-06 06:00","1997","10","06","06:00","16.2","","13.5","","84","","31","","9","","16.1","","99.59","","","","","","Clear"
"1997-10-06 07:00","1997","10","06","07:00","16.0","","12.8","","81","","28","","4","","19.3","","99.69","","","","","","Clear"
"1997-10-06 08:00","1997","10","06","08:00","18.6","","13.2","","71","","31","","13","","24.1","","99.79","","","","","","Clear"
"1997-10-06 09:00","1997","10","06","09:00","20.6","","11.1","","54","","35","","17","","40.2","","99.85","","","","","","Clear"
"1997-10-06 10:00","1997","10","06","10:00","22.0","","9.7","","46","","35","","13","","40.2","","99.89","","","","","","Clear"
"1997-10-06 11:00","1997","10","06","11:00","23.5","","7.9","","37","","33","","13","","40.2","","99.95","","","","","","Clear"
"1997-10-06 12:00","1997","10","06","12:00","24.0","","7.4","","35","","35","","13","","40.2","","99.95","","","","","","Clear"
"1997-10-06 13:00","1997","10","06","13:00","24.7","","7.2","","33","","2","","7","","40.2","","99.89","","25","","","","Clear"
"1997-10-06 14:00","1997","10","06","14:00","25.0","","7.2","","32","","","","0","","40.2","","99.89","","25","","","","Clear"
"1997-10-06 15:00","1997","10","06","15:00","24.7","","9.0","","37","","17","","13","","40.2","","99.89","","26","","","","Clear"
"1997-10-06 16:00","1997","10","06","16:00","23.9","","7.9","","36","","16","","11","","40.2","","99.89","","","","","","Mainly Clear"
"1997-10-06 17:00","1997","10","06","17:00","23.0","","7.6","","37","","14","","9","","40.2","","99.89","","","","","","Mainly Clear"
"1997-10-06 18:00","1997","10","06","18:00","20.5","","7.0","","42","","14","","4","","40.2","","99.92","","","","","","Mainly Clear"
"1997-10-06 19:00","1997","10","06","19:00","20.5","","5.9","","39","","13","","4","","25.0","","99.92","","","","","","Clear"
"1997-10-06 20:00","1997","10","06","20:00","17.5","","7.0","","50","","","","0","","25.0","","99.95","","","","","","Mostly Cloudy"
"1997-10-06 21:00","1997","10","06","21:00","16.1","","7.9","","58","","","","0","","25.0","","99.99","","","","","","Clear"
"1997-10-06 22:00","1997","10","06","22:00","16.0","","9.2","","64","","1","","6","","25.0","","99.99","","","","","","Mainly Clear"
"1997-10-06 23:00","1997","10","06","23:00","13.9","","9.3","","74","","1","","4","","24.1","","99.95","","","","","","Clear"
"1997-10-07 00:00","1997","10","07","00:00","13.0","","9.9","","81","","34","","7","","24.1","","99.99","","","","","","Mostly Cloudy"
"1997-10-07 01:00","1997","10","07","01:00","13.9","","9.9","","77","","","","0","","25.0","","99.99","","","","","","Mostly Cloudy"
"1997-10-07 02:00","1997","10","07","02:00","14.8","","10.1","","73","","","","0","","24.1","","100.05","","","","","","Rain Showers"
"1997-10-07 03:00","1997","10","07","03:00","15.2","","11.0","","76","","","","0","","25.0","","100.05","","","","","","Cloudy"
"1997-10-07 04:00","1997","10","07","04:00","15.0","","11.8","","81","","2","","4","","25.0","","100.05","","","","","","Cloudy"
"1997-10-07 05:00","1997","10","07","05:00","14.7","","11.6","","82","","2","","7","","25.0","","100.05","","","","","","Mostly Cloudy"
"1997-10-07 06:00","1997","10","07","06:00","14.5","","11.3","","81","","","","0","","24.1","","100.09","","","","","","Mostly Cloudy"
"1997-10-07 07:00","1997","10","07","07:00","13.5","","11.2","","86","","34","","4","","32.2","","100.15","","","","","","Mainly Clear"
"1997-10-07 08:00","1997","10","07","08:00","14.9","","11.6","","81","","33","","4","","40.2","","100.25","","","","","","Mostly Cloudy"
"1997-10-07 09:00","1997","10","07","09:00","16.7","","11.4","","71","","","","0","","40.2","","100.25","","","","","","Mostly Cloudy"
"1997-10-07 10:00","1997","10","07","10:00","20.0","","9.8","","52","","14","","9","","32.2","","100.32","","","","","","Mostly Cloudy"
"1997-10-07 11:00","1997","10","07","11:00","21.2","","9.0","","46","","12","","11","","32.2","","100.29","","","","","","Mostly Cloudy"
"1997-10-07 12:00","1997","10","07","12:00","21.5","","9.2","","45","","10","","13","","32.2","","100.29","","","","","","Mostly Cloudy"
"1997-10-07 13:00","1997","10","07","13:00","22.3","","8.9","","42","","13","","17","","32.2","","100.25","","","","","","Mostly Cloudy"
"1997-10-07 14:00","1997","10","07","14:00","21.7","","8.7","","43","","11","","15","","40.2","","100.19","","","","","","Mostly Cloudy"
"1997-10-07 15:00","1997","10","07","15:00","22.1","","9.1","","43","","11","","13","","40.2","","100.22","","","","","","Mostly Cloudy"
"1997-10-07 16:00","1997","10","07","16:00","21.2","","9.3","","47","","9","","13","","40.2","","100.19","","","","","","Mainly Clear"
"1997-10-07 17:00","1997","10","07","17:00","20.0","","9.1","","49","","9","","11","","32.2","","100.22","","","","","","Mostly Cloudy"
"1997-10-07 18:00","1997","10","07","18:00","17.7","","9.3","","58","","10","","9","","40.2","","100.22","","","","","","Mostly Cloudy"
"1997-10-07 19:00","1997","10","07","19:00","17.5","","9.1","","58","","8","","11","","25.0","","100.25","","","","","","Mainly Clear"
"1997-10-07 20:00","1997","10","07","20:00","16.7","","9.0","","60","","10","","13","","25.0","","100.25","","","","","","Mainly Clear"
"1997-10-07 21:00","1997","10","07","21:00","16.7","","9.4","","62","","9","","9","","25.0","","100.29","","","","","","Mostly Cloudy"
"1997-10-07 22:00","1997","10","07","22:00","16.1","","9.4","","64","","8","","11","","25.0","","100.29","","","","","","Mostly Cloudy"
"1997-10-07 23:00","1997","10","07","23:00","15.6","","9.7","","68","","11","","4","","25.0","","100.29","","","","","","Mostly Cloudy"
"1997-10-08 00:00","1997","10","08","00:00","15.4","","10.2","","71","","5","","6","","25.0","","100.29","","","","","","Mostly Cloudy"
"1997-10-08 01:00","1997","10","08","01:00","15.2","","10.8","","75","","4","","6","","25.0","","100.29","","","","","","Mostly Cloudy"
"1997-10-08 02:00","1997","10","08","02:00","12.6","","10.0","","84","","1","","6","","25.0","","100.29","","","","","","Mostly Cloudy"
"1997-10-08 03:00","1997","10","08","03:00","12.7","","10.4","","86","","1","","6","","25.0","","100.25","","","","","","Mainly Clear"
"1997-10-08 04:00","1997","10","08","04:00","11.8","","10.1","","89","","2","","4","","25.0","","100.25","","","","","","Mainly Clear"
"1997-10-08 05:00","1997","10","08","05:00","12.0","","10.1","","88","","34","","6","","25.0","","100.29","","","","","","Mainly Clear"
"1997-10-08 06:00","1997","10","08","06:00","12.1","","10.2","","88","","33","","6","","19.3","","100.32","","","","","","Mainly Clear"
"1997-10-08 07:00","1997","10","08","07:00","13.0","","10.8","","86","","36","","6","","16.1","","100.32","","","","","","Mainly Clear"
"1997-10-08 08:00","1997","10","08","08:00","15.7","","12.4","","81","","5","","6","","16.1","","100.35","","","","","","Mostly Cloudy"
"1997-10-08 09:00","1997","10","08","09:00","17.3","","13.6","","79","","10","","6","","16.1","","100.35","","","","","","Mainly Clear"
"1997-10-08 10:00","1997","10","08","10:00","19.6","","14.3","","71","","12","","4","","14.5","","100.32","","","","","","Mainly Clear"
"1997-10-08 11:00","1997","10","08","11:00","20.8","","14.8","","69","","17","","7","","16.1","","100.32","","25","","","","Mainly Clear"
"1997-10-08 12:00","1997","10","08","12:00","21.3","","14.6","","66","","16","","9","","16.1","","100.32","","25","","","","Mainly Clear"
"1997-10-08 13:00","1997","10","08","13:00","22.3","","14.8","","63","","16","","9","","16.1","","100.25","","26","","","","Clear"
"1997-10-08 14:00","1997","10","08","14:00","21.1","","14.0","","64","","15","","11","","19.3","","100.19","","","","","","Clear"
"1997-10-08 15:00","1997","10","08","15:00","21.6","","14.3","","63","","15","","11","","16.1","","100.15","","25","","","","Clear"
"1997-10-08 16:00","1997","10","08","16:00","21.0","","14.3","","66","","14","","9","","16.1","","100.12","","25","","","","Mainly Clear"
"1997-10-08 17:00","1997","10","08","17:00","18.8","","13.8","","73","","17","","7","","12.9","","100.12","","","","","","Mostly Cloudy"
"1997-10-08 18:00","1997","10","08","18:00","16.5","","13.7","","84","","17","","6","","9.7","","100.15","","","","","","Haze"
"1997-10-08 19:00","1997","10","08","19:00","15.3","","13.8","","91","","17","","6","","8.0","","100.15","","","","","","Fog"
"1997-10-08 20:00","1997","10","08","20:00","14.7","","13.5","","93","","","","0","","6.4","","100.19","","","","","","Fog"
"1997-10-08 21:00","1997","10","08","21:00","15.0","","13.8","","93","","13","","6","","6.4","","100.22","","","","","","Fog"
"1997-10-08 22:00","1997","10","08","22:00","14.8","","13.1","","90","","6","","6","","6.4","","100.19","","","","","","Fog"
"1997-10-08 23:00","1997","10","08","23:00","14.7","","13.2","","91","","5","","4","","6.4","","100.15","","","","","","Fog"
"1997-10-09 00:00","1997","10","09","00:00","14.4","","13.5","","94","","","","0","","6.4","","100.15","","","","","","Fog"
"1997-10-09 01:00","1997","10","09","01:00","13.9","","13.1","","95","","","","0","","6.4","","100.15","","","","","","Fog"
"1997-10-09 02:00","1997","10","09","02:00","12.9","","12.3","","96","","33","","6","","6.4","","100.15","","","","","","Fog"
"1997-10-09 03:00","1997","10","09","03:00","12.9","","12.3","","96","","33","","4","","4.8","","100.15","","","","","","Fog"
"1997-10-09 04:00","1997","10","09","04:00","13.5","","12.8","","96","","","","0","","6.4","","100.12","","","","","","Fog"
"1997-10-09 05:00","1997","10","09","05:00","13.0","","12.4","","96","","","","0","","6.4","","100.12","","","","","","Fog"
"1997-10-09 06:00","1997","10","09","06:00","13.5","","12.7","","95","","","","0","","4.8","","100.09","","","","","","Fog"
"1997-10-09 07:00","1997","10","09","07:00","13.7","","13.7","","100","","","","0","","0.0","","100.09","","","","","","Fog"
"1997-10-09 08:00","1997","10","09","08:00","14.2","","14.2","","100","","","","0","","1.0","","100.05","","","","","","Fog"
"1997-10-09 09:00","1997","10","09","09:00","16.9","","15.4","","91","","16","","7","","2.4","","100.02","","","","","","Fog"
"1997-10-09 10:00","1997","10","09","10:00","18.9","","15.6","","81","","18","","7","","3.2","","99.95","","","","","","Haze"
"1997-10-09 11:00","1997","10","09","11:00","20.2","","15.6","","75","","14","","13","","4.8","","99.89","","25","","","","Haze"
"1997-10-09 12:00","1997","10","09","12:00","21.7","","16.0","","70","","15","","15","","6.4","","99.82","","26","","","","Haze"
"1997-10-09 13:00","1997","10","09","13:00","21.2","","15.7","","71","","16","","17","","6.4","","99.75","","26","","","","Haze"
"1997-10-09 14:00","1997","10","09","14:00","20.5","","15.5","","73","","16","","17","","9.7","","99.69","","25","","","","Haze"
"1997-10-09 15:00","1997","10","09","15:00","21.0","","15.7","","72","","16","","17","","11.3","","99.62","","25","","","","Cloudy"
"1997-10-09 16:00","1997","10","09","16:00","23.9","","16.4","","63","","21","","26","","12.9","","99.59","","29","","","","Mostly Cloudy"
"1997-10-09 17:00","1997","10","09","17:00","23.5","","16.6","","65","","22","","22","","16.1","","99.55","","29","","","","Rain Showers"
"1997-10-09 18:00","1997","10","09","18:00","22.2","","17.4","","74","","23","","22","","9.7","","99.59","","28","","","","Rain Showers,Haze"
"1997-10-09 19:00","1997","10","09","19:00","20.8","","17.8","","83","","23","","24","","6.4","","99.65","","27","","","","Rain Showers,Haze"
"1997-10-09 20:00","1997","10","09","20:00","20.0","","17.8","","87","","23","","20","","11.3","","99.65","","26","","","","Mostly Cloudy"
"1997-10-09 21:00","1997","10","09","21:00","19.5","","17.3","","87","","23","","19","","11.3","","99.62","","","","","","Mainly Clear"
"1997-10-09 22:00","1997","10","09","22:00","18.8","","16.7","","88","","25","","15","","11.3","","99.69","","","","","","Mainly Clear"
"1997-10-09 23:00","1997","10","09","23:00","18.6","","16.3","","86","","26","","20","","9.7","","99.65","","","","","","Haze"
"1997-10-10 00:00","1997","10","10","00:00","18.3","","14.4","","78","","27","","20","","9.7","","99.72","","","","","","Haze"
"1997-10-10 01:00","1997","10","10","01:00","17.4","","12.4","","72","","28","","26","","19.3","","99.79","","","","","","Clear"
"1997-10-10 02:00","1997","10","10","02:00","15.3","","10.6","","74","","28","","17","","25.0","","99.89","","","","","","Clear"
"1997-10-10 03:00","1997","10","10","03:00","13.8","","9.7","","76","","30","","15","","25.0","","99.95","","","","","","Clear"
"1997-10-10 04:00","1997","10","10","04:00","11.4","","9.0","","85","","26","","7","","25.0","","99.99","","","","","","Clear"
"1997-10-10 05:00","1997","10","10","05:00","10.6","","7.9","","83","","26","","9","","25.0","","100.05","","","","","","Clear"
"1997-10-10 06:00","1997","10","10","06:00","9.6","","7.3","","86","","24","","11","","25.0","","100.12","","","","","","Clear"
"1997-10-10 07:00","1997","10","10","07:00","10.2","","7.7","","84","","24","","9","","40.2","","100.19","","","","","","Clear"
"1997-10-10 08:00","1997","10","10","08:00","11.8","","8.2","","79","","26","","11","","32.2","","100.29","","","","","","Clear"
"1997-10-10 09:00","1997","10","10","09:00","13.6","","6.9","","64","","29","","22","","32.2","","100.32","","","","","","Clear"
"1997-10-10 10:00","1997","10","10","10:00","14.9","","6.3","","56","","30","","22","","32.2","","100.42","","","","","","Mainly Clear"
"1997-10-10 11:00","1997","10","10","11:00","15.7","","6.0","","52","","29","","22","","32.2","","100.45","","","","","","Mainly Clear"
"1997-10-10 12:00","1997","10","10","12:00","16.0","","6.1","","52","","27","","19","","32.2","","100.45","","","","","","Mainly Clear"
"1997-10-10 13:00","1997","10","10","13:00","16.7","","6.5","","51","","30","","22","","32.2","","100.45","","","","","","Mainly Clear"
"1997-10-10 14:00","1997","10","10","14:00","16.7","","6.6","","51","","28","","19","","32.2","","100.45","","","","","","Mainly Clear"
"1997-10-10 15:00","1997","10","10","15:00","16.9","","6.7","","51","","31","","9","","32.2","","100.49","","","","","","Mostly Cloudy"
"1997-10-10 16:00","1997","10","10","16:00","16.5","","6.5","","52","","31","","19","","32.2","","100.45","","","","","","Mainly Clear"
"1997-10-10 17:00","1997","10","10","17:00","15.4","","6.1","","54","","31","","15","","32.2","","100.52","","","","","","Mainly Clear"
"1997-10-10 18:00","1997","10","10","18:00","13.1","","6.0","","62","","34","","19","","32.2","","100.59","","","","","","Mainly Clear"
"1997-10-10 19:00","1997","10","10","19:00","11.4","","6.5","","72","","35","","15","","25.0","","100.69","","","","","","Mainly Clear"
"1997-10-10 20:00","1997","10","10","20:00","10.4","","6.1","","75","","34","","13","","25.0","","100.69","","","","","","Clear"
"1997-10-10 21:00","1997","10","10","21:00","8.6","","5.7","","82","","29","","9","","25.0","","100.79","","","","","","Mainly Clear"
"1997-10-10 22:00","1997","10","10","22:00","7.6","","5.0","","84","","31","","4","","25.0","","100.79","","","","","","Clear"
"1997-10-10 23:00","1997","10","10","23:00","6.7","","4.8","","88","","33","","15","","25.0","","100.75","","","","","","Clear"
"1997-10-11 00:00","1997","10","11","00:00","6.6","","4.8","","88","","34","","19","","25.0","","100.79","","","","","","Clear"
"1997-10-11 01:00","1997","10","11","01:00","6.8","","4.8","","87","","35","","15","","25.0","","100.79","","","","","","Clear"
"1997-10-11 02:00","1997","10","11","02:00","6.0","","4.1","","88","","34","","7","","25.0","","100.82","","","","","","Clear"
"1997-10-11 03:00","1997","10","11","03:00","4.1","","3.0","","93","","32","","7","","25.0","","100.82","","","","","","Clear"
"1997-10-11 04:00","1997","10","11","04:00","4.4","","2.9","","90","","33","","6","","25.0","","100.85","","","","","","Clear"
"1997-10-11 05:00","1997","10","11","05:00","4.9","","3.6","","91","","35","","11","","25.0","","100.92","","","","","","Clear"
"1997-10-11 06:00","1997","10","11","06:00","4.0","","2.9","","93","","34","","9","","25.0","","100.92","","","","","","Clear"
"1997-10-11 07:00","1997","10","11","07:00","5.2","","3.1","","86","","1","","9","","40.2","","100.95","","","","","","Mainly Clear"
"1997-10-11 08:00","1997","10","11","08:00","7.4","","3.8","","78","","5","","13","","40.2","","100.99","","","","","","Mainly Clear"
"1997-10-11 09:00","1997","10","11","09:00","10.9","","4.7","","66","","10","","9","","40.2","","100.99","","","","","","Mainly Clear"
"1997-10-11 10:00","1997","10","11","10:00","13.3","","4.8","","56","","14","","9","","40.2","","101.05","","","","","","Mainly Clear"
"1997-10-11 11:00","1997","10","11","11:00","13.6","","3.6","","51","","11","","9","","32.2","","101.02","","","","","","Mainly Clear"
"1997-10-11 12:00","1997","10","11","12:00","13.5","","4.0","","53","","12","","11","","32.2","","100.95","","","","","","Mainly Clear"
"1997-10-11 13:00","1997","10","11","13:00","14.3","","4.5","","52","","16","","15","","32.2","","100.89","","","","","","Mainly Clear"
"1997-10-11 14:00","1997","10","11","14:00","13.8","","4.6","","54","","15","","11","","32.2","","100.82","","","","","","Mainly Clear"
"1997-10-11 15:00","1997","10","11","15:00","13.6","","4.7","","55","","15","","11","","32.2","","100.79","","","","","","Mainly Clear"
"1997-10-11 16:00","1997","10","11","16:00","13.1","","3.4","","52","","15","","7","","32.2","","100.72","","","","","","Mainly Clear"
"1997-10-11 17:00","1997","10","11","17:00","12.6","","1.6","","47","","13","","7","","32.2","","100.69","","","","","","Mainly Clear"
"1997-10-11 18:00","1997","10","11","18:00","10.1","","1.5","","55","","13","","6","","32.2","","100.69","","","","","","Mainly Clear"
"1997-10-11 19:00","1997","10","11","19:00","9.9","","2.0","","58","","11","","9","","25.0","","100.65","","","","","","Mainly Clear"
"1997-10-11 20:00","1997","10","11","20:00","9.6","","2.6","","62","","12","","9","","25.0","","100.62","","","","","","Clear"
"1997-10-11 21:00","1997","10","11","21:00","9.3","","4.4","","71","","13","","7","","25.0","","100.62","","","","","","Clear"
"1997-10-11 22:00","1997","10","11","22:00","9.1","","5.5","","78","","13","","7","","25.0","","100.59","","","","","","Mainly Clear"
"1997-10-11 23:00","1997","10","11","23:00","7.5","","5.1","","85","","11","","9","","25.0","","100.52","","","","","","Clear"
"1997-10-12 00:00","1997","10","12","00:00","8.4","","6.5","","88","","15","","4","","25.0","","100.52","","","","","","Mainly Clear"
"1997-10-12 01:00","1997","10","12","01:00","8.5","","5.4","","81","","12","","4","","25.0","","100.49","","","","","","Clear"
"1997-10-12 02:00","1997","10","12","02:00","4.6","","2.0","","83","","35","","2","","25.0","","100.45","","","","","","Clear"
"1997-10-12 03:00","1997","10","12","03:00","3.7","","2.3","","91","","33","","9","","25.0","","100.45","","","","","","Clear"
"1997-10-12 04:00","1997","10","12","04:00","4.2","","3.1","","93","","35","","2","","25.0","","100.42","","","","","","Clear"
"1997-10-12 05:00","1997","10","12","05:00","2.9","","2.0","","94","","34","","7","","25.0","","100.42","","","","","","Clear"
"1997-10-12 06:00","1997","10","12","06:00","2.8","","2.0","","94","","33","","7","","25.0","","100.42","","","","","","Clear"
"1997-10-12 07:00","1997","10","12","07:00","4.1","","3.2","","94","","36","","4","","32.2","","100.45","","","","","","Clear"
"1997-10-12 08:00","1997","10","12","08:00","6.9","","5.4","","90","","","","0","","24.1","","100.45","","","","","","Clear"
"1997-10-12 09:00","1997","10","12","09:00","11.2","","8.0","","81","","","","0","","24.1","","100.42","","","","","","Clear"
"1997-10-12 10:00","1997","10","12","10:00","14.2","","9.0","","71","","15","","9","","24.1","","100.35","","","","","","Clear"
"1997-10-12 11:00","1997","10","12","11:00","15.9","","9.9","","68","","14","","9","","24.1","","100.32","","","","","","Mainly Clear"
"1997-10-12 12:00","1997","10","12","12:00","16.7","","9.6","","63","","14","","9","","32.2","","100.22","","","","","","Mostly Cloudy"
"1997-10-12 13:00","1997","10","12","13:00","17.7","","9.3","","58","","15","","13","","32.2","","100.22","","","","","","Mostly Cloudy"
"1997-10-12 14:00","1997","10","12","14:00","18.0","","8.9","","55","","13","","13","","32.2","","100.12","","","","","","Mostly Cloudy"
"1997-10-12 15:00","1997","10","12","15:00","17.7","","9.6","","59","","15","","11","","32.2","","100.09","","","","","","Mostly Cloudy"
"1997-10-12 16:00","1997","10","12","16:00","17.7","","7.8","","52","","15","","13","","32.2","","100.05","","","","","","Mostly Cloudy"
"1997-10-12 17:00","1997","10","12","17:00","15.8","","9.0","","64","","15","","11","","32.2","","100.02","","","","","","Mainly Clear"
"1997-10-12 18:00","1997","10","12","18:00","13.6","","8.3","","70","","13","","7","","32.2","","100.05","","","","","","Mainly Clear"
"1997-10-12 19:00","1997","10","12","19:00","11.6","","8.0","","79","","10","","6","","25.0","","100.09","","","","","","Mainly Clear"
"1997-10-12 20:00","1997","10","12","20:00","11.8","","8.6","","81","","8","","4","","25.0","","100.05","","","","","","Mainly Clear"
"1997-10-12 21:00","1997","10","12","21:00","11.3","","8.6","","83","","11","","7","","25.0","","100.02","","","","","","Mainly Clear"
"1997-10-12 22:00","1997","10","12","22:00","10.5","","8.6","","88","","","","0","","25.0","","100.02","","","","","","Mainly Clear"
"1997-10-12 23:00","1997","10","12","23:00","10.0","","8.0","","87","","","","0","","25.0","","99.95","","","","","","Mostly Cloudy"
"1997-10-13 00:00","1997","10","13","00:00","10.2","","8.4","","89","","3","","4","","19.3","","99.89","","","","","","Mostly Cloudy"
"1997-10-13 01:00","1997","10","13","01:00","6.9","","6.1","","95","","34","","6","","16.1","","99.82","","","","","","Mostly Cloudy"
"1997-10-13 02:00","1997","10","13","02:00","7.3","","6.5","","95","","33","","4","","9.7","","99.79","","","","","","Fog"
"1997-10-13 03:00","1997","10","13","03:00","6.9","","6.2","","95","","34","","4","","9.7","","99.79","","","","","","Fog"
"1997-10-13 04:00","1997","10","13","04:00","6.9","","6.4","","97","","34","","4","","9.7","","99.75","","","","","","Fog"
"1997-10-13 05:00","1997","10","13","05:00","7.9","","7.5","","97","","","","0","","9.7","","99.75","","","","","","Fog"
"1997-10-13 06:00","1997","10","13","06:00","7.9","","7.5","","97","","","","0","","9.7","","99.79","","","","","","Fog"
"1997-10-13 07:00","1997","10","13","07:00","7.9","","7.5","","97","","","","0","","8.0","","99.79","","","","","","Fog"
"1997-10-13 08:00","1997","10","13","08:00","10.4","","9.7","","95","","","","0","","8.0","","99.79","","","","","","Fog"
"1997-10-13 09:00","1997","10","13","09:00","14.8","","12.5","","86","","12","","7","","12.9","","99.75","","","","","","Mainly Clear"
"1997-10-13 10:00","1997","10","13","10:00","18.1","","13.5","","74","","15","","11","","16.1","","99.69","","","","","","Clear"
"1997-10-13 11:00","1997","10","13","11:00","19.3","","13.8","","70","","17","","11","","16.1","","99.62","","","","","","Clear"
"1997-10-13 12:00","1997","10","13","12:00","19.6","","13.9","","70","","16","","15","","16.1","","99.59","","","","","","Clear"
"1997-10-13 13:00","1997","10","13","13:00","20.2","","14.1","","68","","13","","19","","16.1","","99.49","","","","","","Clear"
"1997-10-13 14:00","1997","10","13","14:00","21.3","","14.3","","64","","15","","19","","16.1","","99.42","","25","","","","Mainly Clear"
"1997-10-13 15:00","1997","10","13","15:00","20.9","","14.4","","66","","14","","19","","16.1","","99.39","","25","","","","Mainly Clear"
"1997-10-13 16:00","1997","10","13","16:00","20.6","","14.5","","68","","13","","15","","16.1","","99.35","","","","","","Mostly Cloudy"
"1997-10-13 17:00","1997","10","13","17:00","19.8","","14.6","","72","","13","","13","","16.1","","99.35","","","","","","Mostly Cloudy"
"1997-10-13 18:00","1997","10","13","18:00","18.0","","14.0","","77","","11","","11","","12.9","","99.32","","","","","","Mainly Clear"
"1997-10-13 19:00","1997","10","13","19:00","17.3","","14.3","","83","","12","","13","","11.3","","99.26","","","","","","Clear"
"1997-10-13 20:00","1997","10","13","20:00","18.0","","14.6","","81","","14","","9","","12.9","","99.26","","","","","","Clear"
"1997-10-13 21:00","1997","10","13","21:00","17.4","","14.4","","83","","14","","7","","11.3","","99.22","","","","","","Mainly Clear"
"1997-10-13 22:00","1997","10","13","22:00","17.3","","14.3","","83","","14","","13","","11.3","","99.19","","","","","","Clear"
"1997-10-13 23:00","1997","10","13","23:00","15.7","","13.8","","88","","15","","9","","11.3","","99.16","","","","","","Mainly Clear"
"1997-10-14 00:00","1997","10","14","00:00","17.3","","13.9","","80","","18","","7","","11.3","","99.16","","","","","","Mainly Clear"
"1997-10-14 01:00","1997","10","14","01:00","18.8","","14.1","","74","","18","","15","","12.9","","99.16","","","","","","Mostly Cloudy"
"1997-10-14 02:00","1997","10","14","02:00","17.3","","14.4","","83","","25","","9","","12.9","","99.22","","","","","","Cloudy"
"1997-10-14 03:00","1997","10","14","03:00","16.6","","13.2","","80","","27","","17","","16.1","","99.26","","","","","","Cloudy"
"1997-10-14 04:00","1997","10","14","04:00","13.8","","10.5","","80","","28","","28","","24.1","","99.35","","","","","","Cloudy"
"1997-10-14 05:00","1997","10","14","05:00","11.8","","10.4","","91","","29","","22","","8.0","","99.49","","","","","","Rain Showers,Fog"
"1997-10-14 06:00","1997","10","14","06:00","10.9","","7.8","","81","","29","","20","","25.0","","99.62","","","","","","Cloudy"
"1997-10-14 07:00","1997","10","14","07:00","10.8","","7.3","","79","","29","","17","","40.2","","99.72","","","","","","Mostly Cloudy"
"1997-10-14 08:00","1997","10","14","08:00","11.0","","6.7","","75","","27","","11","","40.2","","99.85","","","","","","Mostly Cloudy"
"1997-10-14 09:00","1997","10","14","09:00","11.7","","6.9","","72","","26","","15","","40.2","","99.92","","","","","","Mostly Cloudy"
"1997-10-14 10:00","1997","10","14","10:00","13.3","","6.6","","64","","26","","22","","40.2","","99.95","","","","","","Mostly Cloudy"
"1997-10-14 11:00","1997","10","14","11:00","13.2","","3.8","","53","","26","","19","","40.2","","99.99","","","","","","Mostly Cloudy"
"1997-10-14 12:00","1997","10","14","12:00","14.4","","3.6","","48","","25","","24","","40.2","","99.99","","","","","","Mostly Cloudy"
"1997-10-14 13:00","1997","10","14","13:00","15.5","","2.9","","43","","26","","13","","40.2","","99.95","","","","","","Mostly Cloudy"
"1997-10-14 14:00","1997","10","14","14:00","16.1","","2.0","","39","","27","","19","","40.2","","99.95","","","","","","Mostly Cloudy"
"1997-10-14 15:00","1997","10","14","15:00","15.5","","0.6","","36","","24","","17","","40.2","","99.99","","","","","","Mostly Cloudy"
"1997-10-14 16:00","1997","10","14","16:00","15.4","","2.2","","41","","27","","19","","40.2","","100.02","","","","","","Mostly Cloudy"
"1997-10-14 17:00","1997","10","14","17:00","13.2","","2.9","","50","","30","","15","","40.2","","100.09","","","","","","Mostly Cloudy"
"1997-10-14 18:00","1997","10","14","18:00","11.8","","0.5","","46","","30","","17","","25.0","","100.19","","","","","","Mostly Cloudy"
"1997-10-14 19:00","1997","10","14","19:00","10.3","","1.0","","52","","32","","15","","25.0","","100.25","","","","","","Mainly Clear"
"1997-10-14 20:00","1997","10","14","20:00","9.8","","1.4","","56","","33","","11","","25.0","","100.32","","","","","","Mostly Cloudy"
"1997-10-14 21:00","1997","10","14","21:00","9.3","","1.9","","60","","33","","7","","25.0","","100.39","","","","","","Mostly Cloudy"
"1997-10-14 22:00","1997","10","14","22:00","9.3","","2.4","","62","","","","0","","25.0","","100.39","","","","","","Mostly Cloudy"
"1997-10-14 23:00","1997","10","14","23:00","9.7","","1.7","","57","","29","","9","","25.0","","100.39","","","","","","Mostly Cloudy"
"1997-10-15 00:00","1997","10","15","00:00","7.9","","1.2","","63","","30","","9","","25.0","","100.39","","","","","","Mainly Clear"
"1997-10-15 01:00","1997","10","15","01:00","9.5","","0.7","","54","","31","","15","","25.0","","100.42","","","","","","Mostly Cloudy"
"1997-10-15 02:00","1997","10","15","02:00","9.1","","0.6","","55","","32","","15","","25.0","","100.42","","","","","","Mostly Cloudy"
"1997-10-15 03:00","1997","10","15","03:00","8.6","","0.8","","58","","","","0","","25.0","","100.49","","","","","","Mostly Cloudy"
"1997-10-15 04:00","1997","10","15","04:00","8.0","","1.1","","62","","28","","4","","25.0","","100.52","","","","","","Mostly Cloudy"
"1997-10-15 05:00","1997","10","15","05:00","7.4","","1.0","","64","","29","","4","","25.0","","100.59","","","","","","Mostly Cloudy"
"1997-10-15 06:00","1997","10","15","06:00","5.7","","0.8","","71","","31","","6","","25.0","","100.62","","","","","","Mainly Clear"
"1997-10-15 07:00","1997","10","15","07:00","4.4","","1.1","","79","","32","","7","","40.2","","100.62","","","","","","Mainly Clear"
"1997-10-15 08:00","1997","10","15","08:00","7.0","","2.2","","71","","31","","6","","40.2","","100.65","","","","","","Mostly Cloudy"
"1997-10-15 09:00","1997","10","15","09:00","8.2","","1.5","","63","","33","","9","","40.2","","100.69","","","","","","Mostly Cloudy"
"1997-10-15 10:00","1997","10","15","10:00","10.7","","0.8","","50","","35","","9","","40.2","","100.72","","","","","","Mainly Clear"
"1997-10-15 11:00","1997","10","15","11:00","11.9","","-0.2","","43","","29","","13","","40.2","","100.72","","","","","","Mostly Cloudy"
"1997-10-15 12:00","1997","10","15","12:00","11.8","","-0.6","","42","","28","","13","","40.2","","100.69","","","","","","Mostly Cloudy"
"1997-10-15 13:00","1997","10","15","13:00","11.9","","-1.3","","40","","27","","9","","40.2","","100.69","","","","","","Mostly Cloudy"
"1997-10-15 14:00","1997","10","15","14:00","11.8","","-1.3","","40","","29","","15","","40.2","","100.69","","","","","","Mostly Cloudy"
"1997-10-15 15:00","1997","10","15","15:00","12.0","","-1.3","","40","","28","","11","","40.2","","100.72","","","","","","Mostly Cloudy"
"1997-10-15 16:00","1997","10","15","16:00","10.9","","-1.6","","42","","32","","13","","40.2","","100.72","","","","","","Mostly Cloudy"
"1997-10-15 17:00","1997","10","15","17:00","10.7","","-1.3","","43","","35","","17","","40.2","","100.72","","","","","","Mostly Cloudy"
"1997-10-15 18:00","1997","10","15","18:00","9.9","","-0.7","","48","","35","","11","","25.0","","100.79","","","","","","Mostly Cloudy"
"1997-10-15 19:00","1997","10","15","19:00","8.7","","2.4","","65","","36","","13","","25.0","","100.82","","","","","","Mainly Clear"
"1997-10-15 20:00","1997","10","15","20:00","8.5","","2.8","","67","","35","","11","","25.0","","100.85","","","","","","Mostly Cloudy"
"1997-10-15 21:00","1997","10","15","21:00","7.8","","3.1","","72","","34","","13","","25.0","","100.85","","","","","","Mostly Cloudy"
"1997-10-15 22:00","1997","10","15","22:00","6.5","","2.6","","76","","33","","9","","25.0","","100.85","","","","","","Mainly Clear"
"1997-10-15 23:00","1997","10","15","23:00","5.7","","2.7","","81","","34","","11","","25.0","","100.85","","","","","","Mainly Clear"
"1997-10-16 00:00","1997","10","16","00:00","4.6","","2.3","","85","","33","","9","","25.0","","100.85","","","","","","Mainly Clear"
"1997-10-16 01:00","1997","10","16","01:00","5.0","","2.4","","83","","35","","13","","25.0","","100.89","","","","","","Mainly Clear"
"1997-10-16 02:00","1997","10","16","02:00","4.4","","2.2","","86","","34","","15","","25.0","","100.92","","","","","","Mainly Clear"
"1997-10-16 03:00","1997","10","16","03:00","4.5","","2.2","","85","","34","","15","","25.0","","100.92","","","","","","Mostly Cloudy"
"1997-10-16 04:00","1997","10","16","04:00","4.9","","2.2","","83","","35","","15","","25.0","","100.89","","","","","","Mostly Cloudy"
"1997-10-16 05:00","1997","10","16","05:00","4.7","","2.2","","84","","34","","11","","25.0","","100.92","","","","","","Mostly Cloudy"
"1997-10-16 06:00","1997","10","16","06:00","4.2","","2.1","","86","","34","","13","","25.0","","100.95","","","","","","Mostly Cloudy"
"1997-10-16 07:00","1997","10","16","07:00","4.0","","1.8","","86","","34","","13","","40.2","","101.02","","","","","","Mainly Clear"
"1997-10-16 08:00","1997","10","16","08:00","5.5","","2.0","","78","","34","","15","","40.2","","101.02","","","","","","Mainly Clear"
"1997-10-16 09:00","1997","10","16","09:00","7.9","","0.9","","61","","2","","9","","40.2","","101.02","","","","","","Mainly Clear"
"1997-10-16 10:00","1997","10","16","10:00","10.9","","-2.2","","40","","4","","11","","40.2","","101.02","","","","","","Mainly Clear"
"1997-10-16 11:00","1997","10","16","11:00","12.0","","-3.1","","35","","3","","15","","40.2","","100.99","","","","","","Mostly Cloudy"
"1997-10-16 12:00","1997","10","16","12:00","11.7","","-2.4","","37","","1","","15","","40.2","","100.89","","","","","","Mostly Cloudy"
"1997-10-16 13:00","1997","10","16","13:00","12.7","","-2.1","","36","","3","","15","","40.2","","100.82","","","","","","Mainly Clear"
"1997-10-16 14:00","1997","10","16","14:00","12.5","","-2.1","","36","","35","","17","","40.2","","100.75","","","","","","Mainly Clear"
"1997-10-16 15:00","1997","10","16","15:00","12.2","","-1.8","","38","","3","","15","","40.2","","100.72","","","","","","Mainly Clear"
"1997-10-16 16:00","1997","10","16","16:00","11.6","","-0.3","","44","","33","","24","","40.2","","100.69","","","","","","Mostly Cloudy"
"1997-10-16 17:00","1997","10","16","17:00","10.1","","-0.7","","47","","34","","20","","40.2","","100.72","","","","","","Mostly Cloudy"
"1997-10-16 18:00","1997","10","16","18:00","9.3","","-1.0","","48","","34","","19","","32.2","","100.69","","","","","","Mostly Cloudy"
"1997-10-16 19:00","1997","10","16","19:00","8.4","","-0.4","","54","","34","","19","","25.0","","100.65","","","","","","Mostly Cloudy"
"1997-10-16 20:00","1997","10","16","20:00","8.0","","-0.4","","55","","35","","15","","25.0","","100.65","","","","","","Mostly Cloudy"
"1997-10-16 21:00","1997","10","16","21:00","7.2","","-0.3","","59","","35","","15","","25.0","","100.65","","","","","","Mostly Cloudy"
"1997-10-16 22:00","1997","10","16","22:00","6.2","","-0.1","","64","","34","","17","","25.0","","100.62","","","","","","Mostly Cloudy"
"1997-10-16 23:00","1997","10","16","23:00","6.4","","0.4","","65","","36","","19","","24.1","","100.62","","","","","","Mostly Cloudy"
"1997-10-17 00:00","1997","10","17","00:00","5.1","","0.1","","70","","35","","7","","25.0","","100.62","","","","","","Mostly Cloudy"
"1997-10-17 01:00","1997","10","17","01:00","5.3","","0.0","","69","","34","","13","","25.0","","100.62","","","","","","Mostly Cloudy"
"1997-10-17 02:00","1997","10","17","02:00","4.9","","0.0","","71","","35","","11","","25.0","","100.62","","","","","","Mostly Cloudy"
"1997-10-17 03:00","1997","10","17","03:00","4.4","","-0.3","","71","","35","","13","","25.0","","100.59","","","","","","Mainly Clear"
"1997-10-17 04:00","1997","10","17","04:00","3.6","","-0.5","","75","","35","","11","","25.0","","100.59","","","","","","Mainly Clear"
"1997-10-17 05:00","1997","10","17","05:00","1.7","","-0.6","","85","","34","","9","","25.0","","100.59","","","","","","Clear"
"1997-10-17 06:00","1997","10","17","06:00","2.2","","-0.4","","83","","35","","7","","25.0","","100.59","","","","","","Mostly Cloudy"
"1997-10-17 07:00","1997","10","17","07:00","3.7","","-0.4","","75","","36","","11","","32.2","","100.59","","","","","","Mostly Cloudy"
"1997-10-17 08:00","1997","10","17","08:00","4.2","","-0.3","","72","","36","","7","","32.2","","100.62","","","","","","Mostly Cloudy"
"1997-10-17 09:00","1997","10","17","09:00","6.6","","-0.6","","60","","4","","9","","40.2","","100.59","","","","","","Mainly Clear"
"1997-10-17 10:00","1997","10","17","10:00","8.4","","-2.4","","46","","6","","4","","40.2","","100.55","","","","","","Mainly Clear"
"1997-10-17 11:00","1997","10","17","11:00","9.9","","-2.3","","42","","8","","7","","40.2","","100.49","","","","","","Clear"
"1997-10-17 12:00","1997","10","17","12:00","10.3","","-2.2","","42","","11","","7","","40.2","","100.42","","","","","","Clear"
"1997-10-17 13:00","1997","10","17","13:00","11.6","","-1.1","","41","","33","","13","","40.2","","100.35","","","","","","Clear"
"1997-10-17 14:00","1997","10","17","14:00","11.9","","-0.7","","42","","36","","6","","40.2","","100.29","","","","","","Clear"
"1997-10-17 15:00","1997","10","17","15:00","12.2","","-0.9","","40","","35","","7","","40.2","","100.22","","","","","","Clear"
"1997-10-17 16:00","1997","10","17","16:00","10.7","","2.1","","55","","18","","2","","40.2","","100.19","","","","","","Clear"
"1997-10-17 17:00","1997","10","17","17:00","9.2","","2.4","","62","","17","","13","","40.2","","100.19","","","","","","Clear"
"1997-10-17 18:00","1997","10","17","18:00","7.6","","2.4","","70","","14","","6","","25.0","","100.22","","","","","","Clear"
"1997-10-17 19:00","1997","10","17","19:00","7.9","","2.3","","68","","13","","4","","25.0","","100.22","","","","","","Clear"
"1997-10-17 20:00","1997","10","17","20:00","8.1","","1.8","","64","","14","","6","","25.0","","100.22","","","","","","Clear"
"1997-10-17 21:00","1997","10","17","21:00","4.1","","1.3","","82","","35","","7","","25.0","","100.19","","","","","","Clear"
"1997-10-17 22:00","1997","10","17","22:00","4.0","","-0.3","","74","","35","","9","","25.0","","100.19","","","","","","Clear"
"1997-10-17 23:00","1997","10","17","23:00","2.8","","-1.1","","75","","34","","7","","25.0","","100.19","","","","","","Clear"
"1997-10-18 00:00","1997","10","18","00:00","2.9","","-1.1","","75","","35","","9","","25.0","","100.19","","","","","","Clear"
"1997-10-18 01:00","1997","10","18","01:00","2.6","","-1.4","","75","","35","","11","","25.0","","100.15","","","","","","Clear"
"1997-10-18 02:00","1997","10","18","02:00","1.6","","-1.6","","79","","35","","9","","25.0","","100.15","","","","","","Clear"
"1997-10-18 03:00","1997","10","18","03:00","2.1","","-1.4","","78","","35","","9","","25.0","","100.12","","","","","","Clear"
"1997-10-18 04:00","1997","10","18","04:00","-0.5","","-2.8","","84","","34","","7","","25.0","","100.12","","","","-3","","Clear"
"1997-10-18 05:00","1997","10","18","05:00","-0.8","","-2.8","","86","","33","","7","","25.0","","100.15","","","","-3","","Clear"
"1997-10-18 06:00","1997","10","18","06:00","0.3","","-2.6","","81","","32","","4","","25.0","","100.19","","","","","","Clear"
"1997-10-18 07:00","1997","10","18","07:00","1.2","","-2.1","","79","","","","0","","24.1","","100.22","","","","","","Clear"
"1997-10-18 08:00","1997","10","18","08:00","2.8","","-0.6","","78","","32","","6","","32.2","","100.22","","","","","","Clear"
"1997-10-18 09:00","1997","10","18","09:00","6.6","","0.7","","66","","32","","6","","32.2","","100.22","","","","","","Clear"
"1997-10-18 10:00","1997","10","18","10:00","9.3","","1.2","","57","","","","0","","40.2","","100.19","","","","","","Clear"
"1997-10-18 11:00","1997","10","18","11:00","10.8","","1.4","","52","","26","","4","","40.2","","100.15","","","","","","Clear"
"1997-10-18 12:00","1997","10","18","12:00","12.1","","1.6","","49","","23","","7","","32.2","","100.09","","","","","","Clear"
"1997-10-18 13:00","1997","10","18","13:00","12.8","","3.2","","52","","13","","9","","32.2","","100.02","","","","","","Clear"
"1997-10-18 14:00","1997","10","18","14:00","12.8","","3.8","","54","","15","","11","","24.1","","99.95","","","","","","Clear"
"1997-10-18 15:00","1997","10","18","15:00","11.8","","3.4","","56","","15","","11","","24.1","","99.89","","","","","","Clear"
"1997-10-18 16:00","1997","10","18","16:00","11.7","","2.9","","55","","16","","13","","24.1","","99.89","","","","","","Clear"
"1997-10-18 17:00","1997","10","18","17:00","10.7","","2.9","","58","","15","","11","","19.3","","99.89","","","","","","Clear"
"1997-10-18 18:00","1997","10","18","18:00","9.5","","3.3","","65","","14","","7","","16.1","","99.89","","","","","","Mainly Clear"
"1997-10-18 19:00","1997","10","18","19:00","8.3","","4.0","","74","","17","","4","","19.3","","99.89","","","","","","Clear"
"1997-10-18 20:00","1997","10","18","20:00","7.8","","4.1","","77","","19","","4","","19.3","","99.89","","","","","","Clear"
"1997-10-18 21:00","1997","10","18","21:00","6.6","","4.0","","83","","","","0","","24.1","","99.89","","","","","","Clear"
"1997-10-18 22:00","1997","10","18","22:00","5.9","","3.4","","84","","","","0","","19.3","","99.89","","","","","","Clear"
"1997-10-18 23:00","1997","10","18","23:00","4.1","","1.8","","85","","","","0","","19.3","","99.89","","","","","","Clear"
"1997-10-19 00:00","1997","10","19","00:00","2.8","","0.9","","87","","34","","4","","19.3","","99.85","","","","","","Clear"
"1997-10-19 01:00","1997","10","19","01:00","2.1","","0.3","","88","","36","","4","","19.3","","99.82","","","","","","Clear"
"1997-10-19 02:00","1997","10","19","02:00","2.4","","0.8","","89","","","","0","","19.3","","99.82","","","","","","Clear"
"1997-10-19 03:00","1997","10","19","03:00","0.9","","-0.2","","92","","33","","6","","19.3","","99.79","","","","","","Clear"
"1997-10-19 04:00","1997","10","19","04:00","1.1","","0.0","","92","","33","","4","","19.3","","99.75","","","","","","Clear"
"1997-10-19 05:00","1997","10","19","05:00","1.5","","0.6","","94","","34","","4","","19.3","","99.79","","","","","","Clear"
"1997-10-19 06:00","1997","10","19","06:00","1.0","","0.0","","93","","33","","7","","12.9","","99.75","","","","","","Clear"
"1997-10-19 07:00","1997","10","19","07:00","0.0","","-1.4","","90","","34","","7","","6.4","","99.72","","","","-2","","Fog"
"1997-10-19 08:00","1997","10","19","08:00","2.8","","1.8","","93","","32","","6","","6.4","","99.69","","","","","","Fog"
"1997-10-19 09:00","1997","10","19","09:00","6.8","","4.4","","85","","","","0","","8.0","","99.69","","","","","","Haze"
"1997-10-19 10:00","1997","10","19","10:00","10.6","","5.6","","71","","","","0","","16.1","","99.69","","","","","","Clear"
"1997-10-19 11:00","1997","10","19","11:00","13.2","","4.8","","57","","17","","4","","24.1","","99.62","","","","","","Clear"
"1997-10-19 12:00","1997","10","19","12:00","13.3","","3.2","","50","","16","","6","","24.1","","99.52","","","","","","Mainly Clear"
"1997-10-19 13:00","1997","10","19","13:00","13.6","","2.8","","48","","13","","6","","24.1","","99.42","","","","","","Mainly Clear"
"1997-10-19 14:00","1997","10","19","14:00","14.1","","5.5","","56","","15","","9","","19.3","","99.29","","","","","","Clear"
"1997-10-19 15:00","1997","10","19","15:00","13.9","","4.4","","53","","15","","6","","19.3","","99.22","","","","","","Mainly Clear"
"1997-10-19 16:00","1997","10","19","16:00","13.2","","3.7","","52","","15","","13","","19.3","","99.22","","","","","","Mainly Clear"
"1997-10-19 17:00","1997","10","19","17:00","11.7","","4.2","","60","","14","","13","","16.1","","99.22","","","","","","Mainly Clear"
"1997-10-19 18:00","1997","10","19","18:00","9.7","","4.5","","70","","15","","6","","14.5","","99.22","","","","","","Mainly Clear"
"1997-10-19 19:00","1997","10","19","19:00","9.5","","5.3","","75","","21","","6","","19.3","","99.22","","","","","","Mainly Clear"
"1997-10-19 20:00","1997","10","19","20:00","8.1","","4.3","","77","","","","0","","19.3","","99.19","","","","","","Mainly Clear"
"1997-10-19 21:00","1997","10","19","21:00","8.2","","4.9","","80","","27","","6","","12.9","","99.16","","","","","","Mostly Cloudy"
"1997-10-19 22:00","1997","10","19","22:00","8.4","","4.2","","75","","27","","7","","19.3","","99.16","","","","","","Mostly Cloudy"
"1997-10-19 23:00","1997","10","19","23:00","7.9","","3.9","","76","","","","0","","16.1","","99.09","","","","","","Cloudy"
"1997-10-20 00:00","1997","10","20","00:00","7.9","","3.9","","76","","","","0","","19.3","","99.06","","","","","","Mostly Cloudy"
"1997-10-20 01:00","1997","10","20","01:00","8.2","","4.4","","77","","22","","4","","16.1","","99.02","","","","","","Cloudy"
"1997-10-20 02:00","1997","10","20","02:00","8.7","","4.4","","74","","21","","4","","12.9","","98.99","","","","","","Cloudy"
"1997-10-20 03:00","1997","10","20","03:00","9.3","","4.9","","74","","26","","6","","12.9","","98.96","","","","","","Cloudy"
"1997-10-20 04:00","1997","10","20","04:00","9.3","","5.0","","74","","22","","6","","16.1","","98.99","","","","","","Mostly Cloudy"
"1997-10-20 05:00","1997","10","20","05:00","8.8","","5.7","","81","","26","","7","","11.3","","98.99","","","","","","Mostly Cloudy"
"1997-10-20 06:00","1997","10","20","06:00","9.2","","6.6","","84","","29","","11","","11.3","","99.06","","","","","","Mostly Cloudy"
"1997-10-20 07:00","1997","10","20","07:00","9.7","","6.3","","79","","31","","26","","32.2","","99.09","","","","","","Mostly Cloudy"
"1997-10-20 08:00","1997","10","20","08:00","9.2","","4.1","","70","","30","","26","","40.2","","99.19","","","","","","Mainly Clear"
"1997-10-20 09:00","1997","10","20","09:00","10.7","","2.7","","58","","31","","26","","40.2","","99.26","","","","","","Mainly Clear"
"1997-10-20 10:00","1997","10","20","10:00","11.4","","0.9","","48","","29","","32","","40.2","","99.26","","","","","","Mainly Clear"
"1997-10-20 11:00","1997","10","20","11:00","10.9","","0.0","","47","","28","","33","","40.2","","99.29","","","","","","Mostly Cloudy"
"1997-10-20 12:00","1997","10","20","12:00","10.4","","1.3","","53","","30","","37","","40.2","","99.32","","","","","","Mostly Cloudy"
"1997-10-20 13:00","1997","10","20","13:00","10.4","","-1.5","","43","","27","","33","","40.2","","99.35","","","","","","Mostly Cloudy"
"1997-10-20 14:00","1997","10","20","14:00","10.4","","-0.6","","46","","29","","28","","40.2","","99.39","","","","","","Mostly Cloudy"
"1997-10-20 15:00","1997","10","20","15:00","9.3","","0.3","","53","","30","","30","","32.2","","99.45","","","","","","Rain Showers"
"1997-10-20 16:00","1997","10","20","16:00","9.3","","0.2","","53","","29","","28","","32.2","","99.52","","","","","","Mainly Clear"
"1997-10-20 17:00","1997","10","20","17:00","8.0","","-1.2","","52","","30","","24","","40.2","","99.59","","","","","","Mainly Clear"
"1997-10-20 18:00","1997","10","20","18:00","6.8","","-1.1","","57","","30","","19","","32.2","","99.65","","","","","","Mainly Clear"
"1997-10-20 19:00","1997","10","20","19:00","5.8","","0.0","","66","","29","","17","","25.0","","99.72","","","","","","Mainly Clear"
"1997-10-20 20:00","1997","10","20","20:00","5.5","","0.8","","72","","29","","17","","25.0","","99.72","","","","","","Mainly Clear"
"1997-10-20 21:00","1997","10","20","21:00","4.5","","0.9","","77","","28","","13","","25.0","","99.75","","","","","","Clear"
"1997-10-20 22:00","1997","10","20","22:00","3.6","","0.8","","82","","26","","11","","25.0","","99.75","","","","","","Mainly Clear"
"1997-10-20 23:00","1997","10","20","23:00","3.2","","0.5","","82","","26","","15","","25.0","","99.75","","","","","","Clear"
"1997-10-21 00:00","1997","10","21","00:00","2.7","","0.4","","85","","25","","11","","25.0","","99.72","","","","","","Mostly Cloudy"
"1997-10-21 01:00","1997","10","21","01:00","3.4","","0.9","","84","","26","","11","","25.0","","99.69","","","","","","Mostly Cloudy"
"1997-10-21 02:00","1997","10","21","02:00","3.7","","1.2","","84","","27","","13","","25.0","","99.72","","","","","","Mostly Cloudy"
"1997-10-21 03:00","1997","10","21","03:00","3.7","","1.1","","83","","26","","9","","25.0","","99.69","","","","","","Mostly Cloudy"
"1997-10-21 04:00","1997","10","21","04:00","3.3","","1.0","","85","","25","","4","","25.0","","99.65","","","","","","Mostly Cloudy"
"1997-10-21 05:00","1997","10","21","05:00","4.1","","1.3","","82","","25","","13","","25.0","","99.62","","","","","","Mostly Cloudy"
"1997-10-21 06:00","1997","10","21","06:00","4.0","","1.4","","83","","25","","7","","25.0","","99.59","","","","","","Mostly Cloudy"
"1997-10-21 07:00","1997","10","21","07:00","4.3","","1.6","","83","","24","","9","","32.2","","99.59","","","","","","Mostly Cloudy"
"1997-10-21 08:00","1997","10","21","08:00","5.0","","1.9","","80","","24","","7","","32.2","","99.55","","","","","","Mostly Cloudy"
"1997-10-21 09:00","1997","10","21","09:00","5.8","","2.0","","77","","23","","13","","32.2","","99.52","","","","","","Mostly Cloudy"
"1997-10-21 10:00","1997","10","21","10:00","7.0","","1.0","","66","","23","","9","","32.2","","99.45","","","","","","Mostly Cloudy"
"1997-10-21 11:00","1997","10","21","11:00","7.2","","0.6","","63","","24","","7","","40.2","","99.35","","","","","","Cloudy"
"1997-10-21 12:00","1997","10","21","12:00","8.7","","-0.3","","53","","22","","19","","40.2","","99.29","","","","","","Mostly Cloudy"
"1997-10-21 13:00","1997","10","21","13:00","8.6","","-1.6","","49","","24","","13","","32.2","","99.19","","","","","","Mostly Cloudy"
"1997-10-21 14:00","1997","10","21","14:00","9.3","","-1.9","","45","","23","","19","","32.2","","99.09","","","","","","Mostly Cloudy"
"1997-10-21 15:00","1997","10","21","15:00","9.9","","-2.1","","43","","26","","15","","32.2","","98.99","","","","","","Mostly Cloudy"
"1997-10-21 16:00","1997","10","21","16:00","9.9","","-2.0","","43","","24","","17","","24.1","","98.89","","","","","","Mostly Cloudy"
"1997-10-21 17:00","1997","10","21","17:00","4.6","","3.8","","95","","27","","19","","16.1","","98.99","","","","","","Cloudy"
"1997-10-21 18:00","1997","10","21","18:00","4.5","","2.5","","87","","27","","19","","19.3","","98.99","","","","","","Mostly Cloudy"
"1997-10-21 19:00","1997","10","21","19:00","3.5","","-1.1","","72","","28","","19","","25.0","","98.96","","","","","","Mainly Clear"
"1997-10-21 20:00","1997","10","21","20:00","2.4","","-1.3","","77","","26","","17","","25.0","","98.92","","","","","","Clear"
"1997-10-21 21:00","1997","10","21","21:00","1.9","","-1.1","","80","","24","","17","","25.0","","98.89","","","","","","Mainly Clear"
"1997-10-21 22:00","1997","10","21","22:00","2.2","","-0.8","","81","","28","","17","","25.0","","98.92","","","","","","Clear"
"1997-10-21 23:00","1997","10","21","23:00","2.1","","-0.6","","82","","26","","22","","25.0","","98.86","","","","","","Mainly Clear"
"1997-10-22 00:00","1997","10","22","00:00","2.4","","-0.6","","81","","30","","22","","25.0","","98.89","","","","","","Mainly Clear"
"1997-10-22 01:00","1997","10","22","01:00","1.6","","-0.8","","84","","32","","35","","25.0","","99.02","","","","","","Mainly Clear"
"1997-10-22 02:00","1997","10","22","02:00","1.3","","-0.1","","90","","33","","22","","12.9","","99.06","","","","","","Snow Showers"
"1997-10-22 03:00","1997","10","22","03:00","0.8","","-2.0","","82","","31","","32","","25.0","","99.12","","","","","","Mainly Clear"
"1997-10-22 04:00","1997","10","22","04:00","0.4","","-2.6","","80","","31","","19","","25.0","","99.22","","","","","","Mostly Cloudy"
"1997-10-22 05:00","1997","10","22","05:00","-0.1","","-2.8","","82","","31","","22","","16.1","","99.32","","","","-6","","Snow Showers"
"1997-10-22 06:00","1997","10","22","06:00","-1.2","","-2.6","","90","","33","","15","","3.2","","99.45","","","","-6","","Snow Grains,Snow Showers"
"1997-10-22 07:00","1997","10","22","07:00","-1.6","","-3.9","","84","","33","","15","","24.1","","99.55","","","","-6","","Snow Showers"
"1997-10-22 08:00","1997","10","22","08:00","-1.3","","-4.2","","81","","33","","7","","40.2","","99.62","","","","-4","","Mostly Cloudy"
"1997-10-22 09:00","1997","10","22","09:00","-0.2","","-3.1","","81","","31","","6","","40.2","","99.62","","","","-2","","Mostly Cloudy"
"1997-10-22 10:00","1997","10","22","10:00","1.9","","-3.8","","66","","30","","7","","40.2","","99.65","","","","","","Mainly Clear"
"1997-10-22 11:00","1997","10","22","11:00","3.6","","-5.3","","52","","31","","19","","40.2","","99.65","","","","","","Mostly Cloudy"
"1997-10-22 12:00","1997","10","22","12:00","3.4","","-5.8","","51","","30","","28","","40.2","","99.62","","","","","","Mostly Cloudy"
"1997-10-22 13:00","1997","10","22","13:00","2.8","","-5.7","","54","","28","","19","","40.2","","99.62","","","","","","Mostly Cloudy"
"1997-10-22 14:00","1997","10","22","14:00","2.8","","-4.8","","57","","30","","19","","40.2","","99.62","","","","","","Snow Showers"
"1997-10-22 15:00","1997","10","22","15:00","2.7","","-5.0","","57","","30","","17","","40.2","","99.59","","","","","","Mostly Cloudy"
"1997-10-22 16:00","1997","10","22","16:00","2.5","","-4.8","","59","","28","","17","","40.2","","99.59","","","","","","Snow Showers"
"1997-10-22 17:00","1997","10","22","17:00","2.4","","-3.7","","64","","28","","17","","24.1","","99.62","","","","","","Snow Showers"
"1997-10-22 18:00","1997","10","22","18:00","2.0","","-2.3","","73","","26","","11","","25.0","","99.59","","","","","","Mostly Cloudy"
"1997-10-22 19:00","1997","10","22","19:00","2.1","","-3.0","","69","","27","","17","","25.0","","99.59","","","","","","Cloudy"
"1997-10-22 20:00","1997","10","22","20:00","1.9","","-4.1","","64","","27","","15","","25.0","","99.62","","","","","","Snow Showers"
"1997-10-22 21:00","1997","10","22","21:00","1.1","","-3.7","","70","","27","","11","","25.0","","99.62","","","","","","Mostly Cloudy"
"1997-10-22 22:00","1997","10","22","22:00","1.1","","-3.4","","72","","27","","15","","25.0","","99.62","","","","","","Mostly Cloudy"
"1997-10-22 23:00","1997","10","22","23:00","1.2","","-3.6","","70","","24","","13","","25.0","","99.55","","","","","","Mostly Cloudy"
"1997-10-23 00:00","1997","10","23","00:00","1.1","","-2.1","","79","","24","","15","","25.0","","99.52","","","","","","Mostly Cloudy"
"1997-10-23 01:00","1997","10","23","01:00","1.0","","-1.8","","82","","24","","15","","25.0","","99.49","","","","","","Mostly Cloudy"
"1997-10-23 02:00","1997","10","23","02:00","1.1","","-1.6","","82","","24","","17","","25.0","","99.45","","","","","","Mostly Cloudy"
"1997-10-23 03:00","1997","10","23","03:00","0.9","","-1.6","","83","","25","","13","","16.1","","99.42","","","","","","Snow Showers"
"1997-10-23 04:00","1997","10","23","04:00","1.0","","-1.7","","82","","25","","13","","19.3","","99.42","","","","","","Snow Showers"
"1997-10-23 05:00","1997","10","23","05:00","1.1","","-0.8","","87","","25","","13","","16.1","","99.42","","","","","","Snow Showers"
"1997-10-23 06:00","1997","10","23","06:00","1.3","","-1.5","","82","","25","","19","","19.3","","99.42","","","","","","Snow Showers"
"1997-10-23 07:00","1997","10","23","07:00","0.8","","-2.7","","77","","25","","15","","24.1","","99.39","","","","","","Mostly Cloudy"
"1997-10-23 08:00","1997","10","23","08:00","1.3","","-3.6","","70","","25","","22","","32.2","","99.42","","","","","","Mostly Cloudy"
"1997-10-23 09:00","1997","10","23","09:00","2.1","","-3.0","","69","","25","","26","","24.1","","99.42","","","","","","Mostly Cloudy"
"1997-10-23 10:00","1997","10","23","10:00","2.8","","-2.2","","70","","25","","24","","40.2","","99.45","","","","","","Mostly Cloudy"
"1997-10-23 11:00","1997","10","23","11:00","3.4","","-2.4","","66","","24","","22","","32.2","","99.45","","","","","","Snow Showers"
"1997-10-23 12:00","1997","10","23","12:00","3.2","","-1.3","","72","","25","","20","","19.3","","99.45","","","","","","Snow Showers"
"1997-10-23 13:00","1997","10","23","13:00","3.7","","-1.4","","69","","27","","24","","24.1","","99.42","","","","","","Rain Showers,Snow Showers"
"1997-10-23 14:00","1997","10","23","14:00","3.4","","-1.5","","70","","26","","20","","19.3","","99.39","","","","","","Rain,Snow Grains"
"1997-10-23 15:00","1997","10","23","15:00","4.3","","-2.8","","60","","25","","24","","24.1","","99.39","","","","","","Rain"
"1997-10-23 16:00","1997","10","23","16:00","4.5","","-4.2","","53","","26","","30","","32.2","","99.35","","","","","","Cloudy"
"1997-10-23 17:00","1997","10","23","17:00","4.4","","-3.3","","57","","27","","17","","32.2","","99.35","","","","","","Mostly Cloudy"
"1997-10-23 18:00","1997","10","23","18:00","4.3","","-3.1","","59","","27","","9","","25.0","","99.39","","","","","","Mostly Cloudy"
"1997-10-23 19:00","1997","10","23","19:00","4.1","","-2.6","","62","","25","","4","","25.0","","99.39","","","","","","Cloudy"
"1997-10-23 20:00","1997","10","23","20:00","3.9","","-2.1","","65","","26","","4","","25.0","","99.42","","","","","","Cloudy"
"1997-10-23 21:00","1997","10","23","21:00","3.9","","-1.8","","66","","26","","4","","25.0","","99.42","","","","","","Cloudy"
"1997-10-23 22:00","1997","10","23","22:00","3.9","","-1.6","","67","","25","","4","","19.3","","99.45","","","","","","Cloudy"
"1997-10-23 23:00","1997","10","23","23:00","4.2","","-1.3","","67","","24","","4","","19.3","","99.45","","","","","","Cloudy"
"1997-10-24 00:00","1997","10","24","00:00","4.1","","-1.3","","68","","","","0","","19.3","","99.39","","","","","","Cloudy"
"1997-10-24 01:00","1997","10","24","01:00","4.1","","-1.4","","67","","","","0","","16.1","","99.42","","","","","","Cloudy"
"1997-10-24 02:00","1997","10","24","02:00","4.3","","-0.7","","70","","","","0","","19.3","","99.42","","","","","","Cloudy"
"1997-10-24 03:00","1997","10","24","03:00","3.7","","-0.4","","75","","","","0","","19.3","","99.42","","","","","","Cloudy"
"1997-10-24 04:00","1997","10","24","04:00","3.5","","0.3","","80","","34","","4","","19.3","","99.45","","","","","","Cloudy"
"1997-10-24 05:00","1997","10","24","05:00","3.8","","1.2","","83","","33","","6","","16.1","","99.49","","","","","","Cloudy"
"1997-10-24 06:00","1997","10","24","06:00","4.1","","1.5","","83","","30","","4","","11.3","","99.55","","","","","","Drizzle"
"1997-10-24 07:00","1997","10","24","07:00","4.6","","2.0","","83","","","","0","","6.4","","99.52","","","","","","Haze"
"1997-10-24 08:00","1997","10","24","08:00","5.2","","2.7","","84","","","","0","","6.4","","99.59","","","","","","Haze"
"1997-10-24 09:00","1997","10","24","09:00","5.9","","2.8","","80","","33","","6","","6.4","","99.59","","","","","","Haze"
"1997-10-24 10:00","1997","10","24","10:00","6.4","","2.7","","77","","","","0","","6.4","","99.62","","","","","","Haze"
"1997-10-24 11:00","1997","10","24","11:00","7.6","","2.8","","72","","","","0","","8.0","","99.62","","","","","","Haze"
"1997-10-24 12:00","1997","10","24","12:00","7.9","","2.6","","69","","","","0","","11.3","","99.59","","","","","","Mostly Cloudy"
"1997-10-24 13:00","1997","10","24","13:00","8.4","","2.6","","67","","","","0","","11.3","","99.59","","","","","","Cloudy"
"1997-10-24 14:00","1997","10","24","14:00","8.2","","1.8","","64","","14","","9","","11.3","","99.55","","","","","","Cloudy"
"1997-10-24 15:00","1997","10","24","15:00","8.3","","3.0","","69","","15","","7","","11.3","","99.52","","","","","","Mostly Cloudy"
"1997-10-24 16:00","1997","10","24","16:00","7.6","","2.9","","72","","15","","9","","11.3","","99.55","","","","","","Mostly Cloudy"
"1997-10-24 17:00","1997","10","24","17:00","7.2","","3.2","","76","","14","","6","","12.9","","99.52","","","","","","Cloudy"
"1997-10-24 18:00","1997","10","24","18:00","6.8","","3.7","","81","","11","","9","","12.9","","99.52","","","","","","Cloudy"
"1997-10-24 19:00","1997","10","24","19:00","6.8","","3.4","","79","","11","","7","","12.9","","99.55","","","","","","Cloudy"
"1997-10-24 20:00","1997","10","24","20:00","6.7","","3.7","","81","","8","","9","","12.9","","99.55","","","","","","Cloudy"
"1997-10-24 21:00","1997","10","24","21:00","6.8","","4.0","","82","","9","","9","","11.3","","99.55","","","","","","Cloudy"
"1997-10-24 22:00","1997","10","24","22:00","6.6","","4.0","","83","","7","","11","","11.3","","99.55","","","","","","Cloudy"
"1997-10-24 23:00","1997","10","24","23:00","6.3","","3.7","","83","","4","","11","","11.3","","99.52","","","","","","Cloudy"
"1997-10-25 00:00","1997","10","25","00:00","6.0","","3.5","","84","","2","","9","","11.3","","99.55","","","","","","Cloudy"
"1997-10-25 01:00","1997","10","25","01:00","5.8","","3.1","","83","","36","","11","","11.3","","99.52","","","","","","Cloudy"
"1997-10-25 02:00","1997","10","25","02:00","5.2","","2.6","","83","","36","","13","","9.7","","99.52","","","","","","Haze"
"1997-10-25 03:00","1997","10","25","03:00","4.7","","1.9","","82","","36","","11","","9.7","","99.52","","","","","","Haze"
"1997-10-25 04:00","1997","10","25","04:00","4.3","","1.7","","83","","35","","11","","12.9","","99.52","","","","","","Cloudy"
"1997-10-25 05:00","1997","10","25","05:00","3.6","","0.8","","82","","35","","9","","16.1","","99.59","","","","","","Cloudy"
"1997-10-25 06:00","1997","10","25","06:00","2.0","","-0.4","","84","","35","","9","","16.1","","99.62","","","","","","Mostly Cloudy"
"1997-10-25 07:00","1997","10","25","07:00","2.2","","-0.2","","84","","35","","11","","19.3","","99.69","","","","","","Mostly Cloudy"
"1997-10-25 08:00","1997","10","25","08:00","3.3","","-0.4","","77","","36","","11","","19.3","","99.75","","","","","","Mostly Cloudy"
"1997-10-25 09:00","1997","10","25","09:00","3.7","","-1.8","","67","","3","","15","","24.1","","99.85","","","","","","Mostly Cloudy"
"1997-10-25 10:00","1997","10","25","10:00","5.8","","-1.6","","59","","35","","9","","24.1","","99.85","","","","","","Mostly Cloudy"
"1997-10-25 11:00","1997","10","25","11:00","6.6","","-2.2","","53","","1","","15","","32.2","","99.85","","","","","","Mostly Cloudy"
"1997-10-25 12:00","1997","10","25","12:00","7.3","","-3.6","","46","","35","","15","","32.2","","99.85","","","","","","Mostly Cloudy"
"1997-10-25 13:00","1997","10","25","13:00","8.2","","-4.3","","41","","3","","13","","32.2","","99.82","","","","","","Mostly Cloudy"
"1997-10-25 14:00","1997","10","25","14:00","9.1","","-3.8","","40","","4","","6","","40.2","","99.82","","","","","","Mostly Cloudy"
"1997-10-25 15:00","1997","10","25","15:00","8.2","","-5.2","","38","","1","","13","","40.2","","99.89","","","","","","Mostly Cloudy"
"1997-10-25 16:00","1997","10","25","16:00","7.2","","-4.8","","42","","34","","19","","40.2","","99.92","","","","","","Mostly Cloudy"
"1997-10-25 17:00","1997","10","25","17:00","6.3","","-4.3","","47","","36","","15","","40.2","","99.99","","","","","","Mostly Cloudy"
"1997-10-25 18:00","1997","10","25","18:00","5.6","","-3.8","","51","","2","","11","","25.0","","100.09","","","","","","Mostly Cloudy"
"1997-10-25 19:00","1997","10","25","19:00","4.3","","-2.6","","61","","36","","19","","25.0","","100.15","","","","","","Mostly Cloudy"
"1997-10-25 20:00","1997","10","25","20:00","3.3","","-2.1","","68","","1","","15","","25.0","","100.12","","","","","","Mainly Clear"
"1997-10-25 21:00","1997","10","25","21:00","2.3","","-2.1","","73","","34","","9","","25.0","","100.19","","","","","","Clear"
"1997-10-25 22:00","1997","10","25","22:00","1.3","","-2.3","","77","","34","","9","","25.0","","100.19","","","","","","Clear"
"1997-10-25 23:00","1997","10","25","23:00","-0.2","","-2.8","","83","","35","","11","","25.0","","100.15","","","","-4","","Clear"
"1997-10-26 00:00","1997","10","26","00:00","-1.5","","-3.7","","85","","34","","7","","25.0","","100.22","","","","-4","","Clear"
"1997-10-26 01:00","1997","10","26","01:00","-1.9","","-4.1","","85","","35","","6","","25.0","","100.22","","","","-4","","Clear"
"1997-10-26 02:00","1997","10","26","02:00","-0.8","","-3.8","","80","","1","","9","","25.0","","100.25","","","","-4","","Clear"
"1997-10-26 03:00","1997","10","26","03:00","-0.8","","-4.3","","77","","6","","11","","25.0","","100.25","","","","-5","","Mainly Clear"
"1997-10-26 04:00","1997","10","26","04:00","0.0","","-4.7","","71","","6","","9","","25.0","","100.25","","","","-3","","Mainly Clear"
"1997-10-26 05:00","1997","10","26","05:00","-0.2","","-5.0","","70","","4","","9","","25.0","","100.25","","","","-3","","Mostly Cloudy"
"1997-10-26 06:00","1997","10","26","06:00","-0.8","","-5.2","","72","","4","","11","","25.0","","100.22","","","","-5","","Mainly Clear"
"1997-10-26 07:00","1997","10","26","07:00","-0.8","","-5.2","","72","","5","","15","","32.2","","100.15","","","","-5","","Mostly Cloudy"
"1997-10-26 08:00","1997","10","26","08:00","0.1","","-5.1","","68","","5","","11","","32.2","","100.29","","","","","","Mostly Cloudy"
"1997-10-26 09:00","1997","10","26","09:00","1.6","","-5.1","","61","","7","","20","","32.2","","100.22","","","","","","Mostly Cloudy"
"1997-10-26 10:00","1997","10","26","10:00","3.2","","-5.0","","55","","7","","17","","32.2","","100.12","","","","","","Mostly Cloudy"
"1997-10-26 11:00","1997","10","26","11:00","3.4","","-5.2","","53","","7","","17","","32.2","","100.02","","","","","","Mostly Cloudy"
"1997-10-26 12:00","1997","10","26","12:00","4.2","","-4.5","","53","","5","","17","","32.2","","99.92","","","","","","Cloudy"
"1997-10-26 13:00","1997","10","26","13:00","3.6","","-3.9","","58","","6","","17","","32.2","","99.82","","","","","","Cloudy"
"1997-10-26 14:00","1997","10","26","14:00","3.4","","-3.4","","61","","5","","19","","32.2","","99.69","","","","","","Cloudy"
"1997-10-26 15:00","1997","10","26","15:00","2.0","","-1.9","","75","","6","","26","","2.0","","99.45","","","","","","Rain,Snow"
"1997-10-26 16:00","1997","10","26","16:00","1.0","","-0.4","","90","","5","","22","","16.1","","99.42","","","","","","Rain,Snow"
"1997-10-26 17:00","1997","10","26","17:00","1.2","","-0.3","","90","","6","","22","","4.8","","99.29","","","","","","Rain,Snow"
"1997-10-26 18:00","1997","10","26","18:00","1.3","","0.3","","93","","6","","24","","8.0","","99.16","","","","","","Rain,Snow,Fog"
"1997-10-26 19:00","1997","10","26","19:00","1.4","","0.3","","92","","5","","26","","9.7","","99.06","","","","","","Rain,Fog"
"1997-10-26 20:00","1997","10","26","20:00","0.7","","-0.2","","94","","5","","24","","6.4","","98.96","","","","","","Rain,Snow,Fog"
"1997-10-26 21:00","1997","10","26","21:00","0.4","","-0.4","","94","","7","","26","","8.0","","98.69","","","","","","Rain,Snow,Ice Pellets,Fog"
"1997-10-26 22:00","1997","10","26","22:00","0.6","","-0.1","","95","","7","","24","","6.4","","98.46","","","","","","Rain,Fog"
"1997-10-26 23:00","1997","10","26","23:00","1.1","","0.5","","96","","5","","28","","8.0","","98.26","","","","","","Rain,Fog"
"1997-10-27 00:00","1997","10","27","00:00","1.6","","1.2","","97","","5","","19","","6.4","","97.99","","","","","","Moderate Rain,Fog"
"1997-10-27 01:00","1997","10","27","01:00","2.1","","1.7","","97","","4","","24","","8.0","","97.92","","","","","","Moderate Rain,Fog"
"1997-10-27 02:00","1997","10","27","02:00","2.6","","2.2","","97","","3","","15","","12.9","","97.76","","","","","","Rain"
"1997-10-27 03:00","1997","10","27","03:00","2.4","","1.9","","96","","1","","13","","16.1","","97.59","","","","","","Drizzle"
"1997-10-27 04:00","1997","10","27","04:00","2.0","","1.6","","97","","36","","20","","8.0","","97.36","","","","","","Rain Showers"
"1997-10-27 05:00","1997","10","27","05:00","1.7","","1.3","","97","","34","","17","","6.4","","97.42","","","","","","Rain Showers,Fog"
"1997-10-27 06:00","1997","10","27","06:00","1.6","","1.3","","98","","32","","17","","6.4","","97.39","","","","","","Rain Showers,Fog"
"1997-10-27 07:00","1997","10","27","07:00","1.0","","0.5","","96","","33","","26","","4.8","","97.39","","","","","","Rain Showers,Ice Pellet Showers,Fog"
"1997-10-27 08:00","1997","10","27","08:00","0.2","","-0.4","","96","","33","","32","","14.5","","97.52","","","","","","Cloudy"
"1997-10-27 09:00","1997","10","27","09:00","0.6","","-0.3","","94","","32","","28","","8.0","","97.72","","","","","","Snow Showers"
"1997-10-27 10:00","1997","10","27","10:00","1.5","","0.7","","94","","33","","32","","32.2","","97.79","","","","","","Mostly Cloudy"
"1997-10-27 11:00","1997","10","27","11:00","1.8","","-0.4","","85","","29","","24","","32.2","","98.06","","","","","","Cloudy"
"1997-10-27 12:00","1997","10","27","12:00","2.4","","0.8","","89","","31","","19","","24.1","","98.06","","","","","","Cloudy"
"1997-10-27 13:00","1997","10","27","13:00","3.1","","0.1","","81","","30","","28","","32.2","","98.09","","","","","","Cloudy"
"1997-10-27 14:00","1997","10","27","14:00","3.3","","-0.7","","75","","30","","26","","32.2","","98.16","","","","","","Cloudy"
"1997-10-27 15:00","1997","10","27","15:00","3.2","","-1.0","","74","","31","","28","","32.2","","98.29","","","","","","Cloudy"
"1997-10-27 16:00","1997","10","27","16:00","3.2","","-1.1","","73","","32","","33","","32.2","","98.39","","","","","","Cloudy"
"1997-10-27 17:00","1997","10","27","17:00","2.8","","-0.6","","78","","29","","26","","32.2","","98.49","","","","","","Cloudy"
"1997-10-27 18:00","1997","10","27","18:00","2.6","","-1.2","","76","","29","","26","","25.0","","98.59","","","","","","Cloudy"
"1997-10-27 19:00","1997","10","27","19:00","2.0","","-2.2","","74","","30","","26","","25.0","","98.69","","","","","","Mostly Cloudy"
"1997-10-27 20:00","1997","10","27","20:00","1.6","","-2.4","","75","","29","","28","","25.0","","98.76","","","","","","Mostly Cloudy"
"1997-10-27 21:00","1997","10","27","21:00","1.6","","-2.6","","74","","29","","28","","25.0","","98.79","","","","","","Mostly Cloudy"
"1997-10-27 22:00","1997","10","27","22:00","1.4","","-2.7","","74","","29","","22","","25.0","","98.82","","","","","","Mainly Clear"
"1997-10-27 23:00","1997","10","27","23:00","1.6","","-2.6","","74","","30","","20","","25.0","","98.86","","","","","","Mostly Cloudy"
"1997-10-28 00:00","1997","10","28","00:00","1.9","","-2.5","","73","","29","","26","","25.0","","98.89","","","","","","Mostly Cloudy"
"1997-10-28 01:00","1997","10","28","01:00","2.1","","-2.7","","70","","29","","26","","25.0","","98.96","","","","","","Mostly Cloudy"
"1997-10-28 02:00","1997","10","28","02:00","1.9","","-3.5","","67","","29","","30","","25.0","","99.06","","","","","","Mainly Clear"
"1997-10-28 03:00","1997","10","28","03:00","1.7","","-2.7","","73","","29","","24","","25.0","","99.12","","","","","","Mostly Cloudy"
"1997-10-28 04:00","1997","10","28","04:00","1.4","","-2.7","","74","","29","","20","","25.0","","99.19","","","","","","Mostly Cloudy"
"1997-10-28 05:00","1997","10","28","05:00","1.1","","-2.2","","79","","29","","15","","25.0","","99.26","","","","","","Mostly Cloudy"
"1997-10-28 06:00","1997","10","28","06:00","0.2","","-2.6","","81","","29","","11","","25.0","","99.32","","","","","","Mainly Clear"
"1997-10-28 07:00","1997","10","28","07:00","-0.2","","-2.0","","88","","32","","7","","32.2","","99.39","","","","-3","","Mostly Cloudy"
"1997-10-28 08:00","1997","10","28","08:00","1.1","","-1.4","","83","","","","0","","32.2","","99.45","","","","","","Mostly Cloudy"
"1997-10-28 09:00","1997","10","28","09:00","3.3","","-1.7","","70","","28","","26","","32.2","","99.49","","","","","","Mostly Cloudy"
"1997-10-28 10:00","1997","10","28","10:00","4.0","","-2.7","","62","","29","","32","","40.2","","99.49","","","","","","Mainly Clear"
"1997-10-28 11:00","1997","10","28","11:00","5.4","","-2.2","","58","","29","","32","","40.2","","99.52","","","","","","Mostly Cloudy"
"1997-10-28 12:00","1997","10","28","12:00","5.7","","-1.9","","58","","28","","28","","40.2","","99.49","","","","","","Mostly Cloudy"
"1997-10-28 13:00","1997","10","28","13:00","5.5","","-1.9","","59","","27","","26","","40.2","","99.49","","","","","","Mainly Clear"
"1997-10-28 14:00","1997","10","28","14:00","6.4","","-2.4","","53","","27","","24","","32.2","","99.39","","","","","","Mainly Clear"
"1997-10-28 15:00","1997","10","28","15:00","6.8","","-1.7","","55","","28","","17","","24.1","","99.35","","","","","","Mostly Cloudy"
"1997-10-28 16:00","1997","10","28","16:00","5.7","","-1.6","","59","","25","","11","","24.1","","99.35","","","","","","Mostly Cloudy"
"1997-10-28 17:00","1997","10","28","17:00","5.6","","-0.6","","64","","23","","7","","24.1","","99.35","","","","","","Mostly Cloudy"
"1997-10-28 18:00","1997","10","28","18:00","6.1","","-1.6","","58","","23","","9","","24.1","","99.35","","","","","","Mostly Cloudy"
"1997-10-28 19:00","1997","10","28","19:00","5.6","","-0.8","","63","","22","","19","","24.1","","99.35","","","","","","Mostly Cloudy"
"1997-10-28 20:00","1997","10","28","20:00","4.8","","-0.6","","68","","24","","19","","24.1","","99.35","","","","","","Mainly Clear"
"1997-10-28 21:00","1997","10","28","21:00","3.8","","-0.1","","76","","24","","15","","19.3","","99.39","","","","","","Mainly Clear"
"1997-10-28 22:00","1997","10","28","22:00","3.6","","-0.3","","76","","24","","9","","19.3","","99.35","","","","","","Mainly Clear"
"1997-10-28 23:00","1997","10","28","23:00","4.2","","0.1","","75","","21","","9","","19.3","","99.32","","","","","","Mostly Cloudy"
"1997-10-29 00:00","1997","10","29","00:00","5.1","","0.3","","71","","22","","13","","19.3","","99.29","","","","","","Cloudy"
"1997-10-29 01:00","1997","10","29","01:00","5.7","","0.5","","69","","23","","13","","19.3","","99.26","","","","","","Cloudy"
"1997-10-29 02:00","1997","10","29","02:00","6.1","","0.7","","68","","22","","15","","19.3","","99.19","","","","","","Cloudy"
"1997-10-29 03:00","1997","10","29","03:00","5.6","","2.1","","78","","23","","13","","12.9","","99.19","","","","","","Rain Showers"
"1997-10-29 04:00","1997","10","29","04:00","5.1","","2.9","","86","","24","","11","","11.3","","99.22","","","","","","Rain Showers"
"1997-10-29 05:00","1997","10","29","05:00","5.1","","3.3","","88","","21","","7","","9.7","","99.22","","","","","","Rain Showers,Fog"
"1997-10-29 06:00","1997","10","29","06:00","5.5","","3.2","","85","","23","","11","","11.3","","99.22","","","","","","Cloudy"
"1997-10-29 07:00","1997","10","29","07:00","5.7","","3.2","","84","","25","","9","","12.9","","99.26","","","","","","Cloudy"
"1997-10-29 08:00","1997","10","29","08:00","6.1","","3.8","","85","","25","","9","","12.9","","99.32","","","","","","Cloudy"
"1997-10-29 09:00","1997","10","29","09:00","6.9","","4.3","","83","","","","0","","12.9","","99.35","","","","","","Mostly Cloudy"
"1997-10-29 10:00","1997","10","29","10:00","8.9","","5.3","","78","","26","","22","","16.1","","99.35","","","","","","Mainly Clear"
"1997-10-29 11:00","1997","10","29","11:00","9.9","","5.0","","72","","26","","17","","19.3","","99.32","","","","","","Mainly Clear"
"1997-10-29 12:00","1997","10","29","12:00","10.4","","4.5","","67","","25","","19","","19.3","","99.32","","","","","","Mostly Cloudy"
"1997-10-29 13:00","1997","10","29","13:00","11.2","","3.9","","61","","24","","17","","19.3","","99.26","","","","","","Mostly Cloudy"
"1997-10-29 14:00","1997","10","29","14:00","12.0","","3.7","","57","","24","","19","","19.3","","99.22","","","","","","Cloudy"
"1997-10-29 15:00","1997","10","29","15:00","11.7","","3.3","","56","","25","","22","","19.3","","99.22","","","","","","Cloudy"
"1997-10-29 16:00","1997","10","29","16:00","10.9","","2.4","","56","","26","","22","","19.3","","99.29","","","","","","Cloudy"
"1997-10-29 17:00","1997","10","29","17:00","10.4","","0.2","","49","","25","","15","","24.1","","99.32","","","","","","Mostly Cloudy"
"1997-10-29 18:00","1997","10","29","18:00","9.6","","-0.3","","50","","25","","13","","24.1","","99.39","","","","","","Mostly Cloudy"
"1997-10-29 19:00","1997","10","29","19:00","7.6","","-0.3","","57","","26","","4","","24.1","","99.42","","","","","","Mostly Cloudy"
"1997-10-29 20:00","1997","10","29","20:00","7.2","","-0.6","","58","","","","0","","24.1","","99.49","","","","","","Mainly Clear"
"1997-10-29 21:00","1997","10","29","21:00","6.3","","0.5","","66","","","","0","","19.3","","99.52","","","","","","Mainly Clear"
"1997-10-29 22:00","1997","10","29","22:00","6.0","","0.3","","67","","","","0","","19.3","","99.55","","","","","","Clear"
"1997-10-29 23:00","1997","10","29","23:00","4.5","","-0.1","","72","","28","","6","","19.3","","99.52","","","","","","Mainly Clear"
"1997-10-30 00:00","1997","10","30","00:00","4.5","","0.3","","74","","25","","6","","19.3","","99.52","","","","","","Mostly Cloudy"
"1997-10-30 01:00","1997","10","30","01:00","4.3","","1.1","","80","","26","","7","","16.1","","99.59","","","","","","Mostly Cloudy"
"1997-10-30 02:00","1997","10","30","02:00","2.7","","1.5","","92","","29","","11","","12.9","","99.62","","","","","","Mostly Cloudy"
"1997-10-30 03:00","1997","10","30","03:00","3.3","","1.2","","86","","31","","11","","19.3","","99.65","","","","","","Mostly Cloudy"
"1997-10-30 04:00","1997","10","30","04:00","2.1","","-0.1","","85","","29","","6","","24.1","","99.72","","","","","","Mainly Clear"
"1997-10-30 05:00","1997","10","30","05:00","1.6","","-0.4","","87","","27","","9","","25.0","","99.79","","","","","","Clear"
"1997-10-30 06:00","1997","10","30","06:00","1.0","","-0.5","","90","","27","","4","","25.0","","99.89","","","","","","Clear"
"1997-10-30 07:00","1997","10","30","07:00","0.6","","-1.0","","89","","27","","7","","24.1","","99.99","","","","","","Clear"
"1997-10-30 08:00","1997","10","30","08:00","1.9","","-0.3","","85","","28","","4","","32.2","","100.02","","","","","","Clear"
"1997-10-30 09:00","1997","10","30","09:00","5.7","","0.5","","69","","29","","4","","32.2","","100.09","","","","","","Mainly Clear"
"1997-10-30 10:00","1997","10","30","10:00","8.2","","-0.4","","55","","","","0","","32.2","","100.12","","","","","","Mainly Clear"
"1997-10-30 11:00","1997","10","30","11:00","9.3","","-0.5","","50","","27","","4","","32.2","","100.12","","","","","","Clear"
"1997-10-30 12:00","1997","10","30","12:00","10.7","","-2.2","","40","","32","","2","","40.2","","100.02","","","","","","Mainly Clear"
"1997-10-30 13:00","1997","10","30","13:00","11.4","","0.1","","46","","19","","13","","40.2","","99.99","","","","","","Mostly Cloudy"
"1997-10-30 14:00","1997","10","30","14:00","10.6","","-1.8","","42","","16","","11","","40.2","","99.92","","","","","","Mostly Cloudy"
"1997-10-30 15:00","1997","10","30","15:00","10.0","","-2.6","","41","","14","","11","","32.2","","99.89","","","","","","Mostly Cloudy"
"1997-10-30 16:00","1997","10","30","16:00","9.6","","-2.8","","42","","14","","11","","32.2","","99.85","","","","","","Mostly Cloudy"
"1997-10-30 17:00","1997","10","30","17:00","8.4","","-3.6","","43","","14","","13","","24.1","","99.82","","","","","","Cloudy"
"1997-10-30 18:00","1997","10","30","18:00","7.3","","-3.8","","45","","12","","9","","25.0","","99.79","","","","","","Cloudy"
"1997-10-30 19:00","1997","10","30","19:00","7.6","","-3.2","","46","","13","","15","","25.0","","99.79","","","","","","Mostly Cloudy"
"1997-10-30 20:00","1997","10","30","20:00","6.7","","-1.6","","55","","12","","11","","25.0","","99.75","","","","","","Mostly Cloudy"
"1997-10-30 21:00","1997","10","30","21:00","5.8","","0.2","","67","","11","","11","","25.0","","99.69","","","","","","Mostly Cloudy"
"1997-10-30 22:00","1997","10","30","22:00","3.6","","0.8","","82","","10","","13","","25.0","","99.62","","","","","","Mainly Clear"
"1997-10-30 23:00","1997","10","30","23:00","5.7","","3.4","","85","","10","","15","","25.0","","99.52","","","","","","Mostly Cloudy"
"1997-10-31 00:00","1997","10","31","00:00","5.7","","3.7","","87","","12","","9","","24.1","","99.49","","","","","","Mostly Cloudy"
"1997-10-31 01:00","1997","10","31","01:00","5.7","","3.5","","86","","","","0","","24.1","","99.42","","","","","","Mostly Cloudy"
"1997-10-31 02:00","1997","10","31","02:00","5.5","","3.3","","86","","12","","6","","24.1","","99.39","","","","","","Mostly Cloudy"
"1997-10-31 03:00","1997","10","31","03:00","6.1","","3.7","","85","","13","","6","","24.1","","99.32","","","","","","Mostly Cloudy"
"1997-10-31 04:00","1997","10","31","04:00","5.2","","3.7","","90","","","","0","","19.3","","99.26","","","","","","Cloudy"
"1997-10-31 05:00","1997","10","31","05:00","6.3","","4.8","","90","","14","","7","","19.3","","99.19","","","","","","Cloudy"
"1997-10-31 06:00","1997","10","31","06:00","6.9","","5.4","","90","","13","","11","","19.3","","99.16","","","","","","Cloudy"
"1997-10-31 07:00","1997","10","31","07:00","7.3","","5.8","","90","","15","","7","","12.9","","99.12","","","","","","Cloudy"
"1997-10-31 08:00","1997","10","31","08:00","8.7","","6.8","","88","","15","","9","","12.9","","99.12","","","","","","Cloudy"
"1997-10-31 09:00","1997","10","31","09:00","10.0","","7.3","","83","","16","","11","","12.9","","99.09","","","","","","Rain Showers"
"1997-10-31 10:00","1997","10","31","10:00","10.9","","7.0","","77","","17","","13","","19.3","","99.06","","","","","","Rain Showers"
"1997-10-31 11:00","1997","10","31","11:00","12.0","","7.1","","72","","18","","17","","19.3","","98.99","","","","","","Rain Showers"
"1997-10-31 12:00","1997","10","31","12:00","12.8","","7.3","","69","","20","","20","","19.3","","98.96","","","","","","Mostly Cloudy"
"1997-10-31 13:00","1997","10","31","13:00","14.6","","6.7","","59","","21","","26","","24.1","","98.86","","","","","","Mostly Cloudy"
"1997-10-31 14:00","1997","10","31","14:00","15.3","","6.8","","57","","21","","32","","24.1","","98.79","","","","","","Mostly Cloudy"
"1997-10-31 15:00","1997","10","31","15:00","15.2","","6.8","","57","","20","","26","","19.3","","98.76","","","","","","Mostly Cloudy"
"1997-10-31 16:00","1997","10","31","16:00","15.2","","6.8","","57","","21","","20","","24.1","","98.79","","","","","","Cloudy"
"1997-10-31 17:00","1997","10","31","17:00","14.7","","7.0","","60","","26","","11","","19.3","","98.82","","","","","","Cloudy"
"1997-10-31 18:00","1997","10","31","18:00","12.6","","8.6","","77","","33","","11","","25.0","","98.92","","","","","","Cloudy"
"1997-10-31 19:00","1997","10","31","19:00","12.1","","9.5","","84","","","","0","","16.1","","99.02","","","","","","Rain Showers"
"1997-10-31 20:00","1997","10","31","20:00","11.5","","9.6","","88","","28","","6","","16.1","","99.06","","","","","","Rain Showers"
"1997-10-31 21:00","1997","10","31","21:00","11.6","","9.8","","89","","","","0","","16.1","","99.06","","","","","","Rain Showers"
"1997-10-31 22:00","1997","10","31","22:00","11.4","","9.8","","90","","19","","7","","16.1","","99.06","","","","","","Rain Showers"
"1997-10-31 23:00","1997","10","31","23:00","11.1","","9.8","","92","","13","","9","","9.7","","99.06","","","","","","Rain Showers,Fog"
