"Station Name","TORONTO LESTER B. PEARSON INT'L A"
"Province","ONTARIO"
"Latitude","43.68"
"Longitude","-79.63"
"Elevation","173.40"
"Climate Identifier","6158733"
"WMO Identifier","71624"
"TC Identifier","YYZ"
"All times are specified in Local Standard Time (LST). Add 1 hour to adjust for Daylight Saving Time where and when it is observed."

"Legend"
"E","Estimated"
"M","Missing"
"NA","Not Available"

"Date/Time","Year","Month","Day","Time","Temp (°C)","Temp Flag","Dew Point Temp (°C)","Dew Point Temp Flag","Rel Hum (%)","Rel Hum Flag","Wind Dir (10s deg)","Wind Dir Flag","Wind Spd (km/h)","Wind Spd Flag","Visibility (km)","Visibility Flag","Stn Press (kPa)","Stn Press Flag","Hmdx","Hmdx Flag","Wind Chill","Wind Chill Flag","Weather"
"1994-05-01 00:00","1994","05","01","00:00","4.9","","4.2","","95","","9","","19","","8.0","","98.86","","","","","","Drizzle,Fog"
"1994-05-01 01:00","1994","05","01","01:00","5.0","","4.6","","97","","6","","15","","6.4","","98.69","","","","","","Drizzle,Fog"
"1994-05-01 02:00","1994","05","01","02:00","5.1","","4.6","","97","","9","","11","","4.8","","98.59","","","","","","Drizzle,Fog"
"1994-05-01 03:00","1994","05","01","03:00","5.2","","4.6","","96","","10","","13","","4.0","","98.56","","","","","","Drizzle,Fog"
"1994-05-01 04:00","1994","05","01","04:00","5.3","","5.1","","99","","7","","9","","3.2","","98.46","","","","","","Drizzle,Fog"
"1994-05-01 05:00","1994","05","01","05:00","5.3","","5.1","","99","","","","0","","3.2","","98.42","","","","","","Rain,Drizzle,Fog"
"1994-05-01 06:00","1994","05","01","06:00","5.1","","4.6","","97","","30","","7","","2.4","","98.49","","","","","","Rain,Fog"
"1994-05-01 07:00","1994","05","01","07:00","5.5","","5.1","","97","","30","","15","","4.0","","98.56","","","","","","Rain,Fog"
"1994-05-01 08:00","1994","05","01","08:00","6.0","","5.2","","95","","31","","19","","12.9","","98.62","","","","","","Rain"
"1994-05-01 09:00","1994","05","01","09:00","6.5","","4.9","","89","","31","","30","","12.9","","98.69","","","","","","Rain"
"1994-05-01 10:00","1994","05","01","10:00","6.1","","4.3","","88","","30","","26","","24.1","","98.79","","","","","","Cloudy"
"1994-05-01 11:00","1994","05","01","11:00","6.2","","3.9","","85","","30","","30","","25.0","","98.96","","","","","","Cloudy"
"1994-05-01 12:00","1994","05","01","12:00","6.8","","3.2","","78","","31","","30","","25.0","","98.99","","","","","","Cloudy"
"1994-05-01 13:00","1994","05","01","13:00","7.3","","2.8","","73","","31","","30","","25.0","","99.09","","","","","","Cloudy"
"1994-05-01 14:00","1994","05","01","14:00","7.6","","2.3","","69","","30","","30","","25.0","","99.22","","","","","","Cloudy"
"1994-05-01 15:00","1994","05","01","15:00","7.0","","2.2","","71","","30","","30","","25.0","","99.29","","","","","","Cloudy"
"1994-05-01 16:00","1994","05","01","16:00","5.9","","2.0","","76","","30","","30","","25.0","","99.39","","","","","","Cloudy"
"1994-05-01 17:00","1994","05","01","17:00","5.6","","1.0","","72","","30","","30","","25.0","","99.45","","","","","","Cloudy"
"1994-05-01 18:00","1994","05","01","18:00","5.6","","2.0","","78","","30","","22","","25.0","","99.52","","","","","","Mostly Cloudy"
"1994-05-01 19:00","1994","05","01","19:00","5.4","","-0.1","","68","","30","","30","","32.2","","99.62","","","","","","Cloudy"
"1994-05-01 20:00","1994","05","01","20:00","5.2","","-1.8","","61","","28","","24","","25.0","","99.75","","","","","","Mostly Cloudy"
"1994-05-01 21:00","1994","05","01","21:00","4.0","","-0.8","","71","","28","","20","","25.0","","99.79","","","","","","Mainly Clear"
"1994-05-01 22:00","1994","05","01","22:00","3.0","","-0.9","","76","","27","","17","","25.0","","99.82","","","","","","Clear"
"1994-05-01 23:00","1994","05","01","23:00","2.5","","0.1","","84","","27","","19","","25.0","","99.82","","","","","","Clear"
"1994-05-02 00:00","1994","05","02","00:00","2.1","","0.1","","87","","28","","11","","25.0","","99.85","","","","","","Clear"
"1994-05-02 01:00","1994","05","02","01:00","1.5","","0.0","","90","","27","","11","","25.0","","99.85","","","","","","Clear"
"1994-05-02 02:00","1994","05","02","02:00","1.2","","-1.0","","85","","26","","11","","25.0","","99.89","","","","","","Clear"
"1994-05-02 03:00","1994","05","02","03:00","1.1","","-0.5","","89","","27","","11","","25.0","","99.92","","","","","","Clear"
"1994-05-02 04:00","1994","05","02","04:00","1.2","","-1.0","","85","","26","","11","","25.0","","99.95","","","","","","Clear"
"1994-05-02 05:00","1994","05","02","05:00","1.4","","-0.5","","87","","26","","15","","25.0","","99.99","","","","","","Mainly Clear"
"1994-05-02 06:00","1994","05","02","06:00","1.9","","-0.4","","85","","26","","17","","40.2","","100.05","","","","","","Mainly Clear"
"1994-05-02 07:00","1994","05","02","07:00","3.3","","1.7","","89","","28","","17","","40.2","","100.09","","","","","","Mainly Clear"
"1994-05-02 08:00","1994","05","02","08:00","7.0","","1.2","","67","","30","","20","","40.2","","100.09","","","","","","Mainly Clear"
"1994-05-02 09:00","1994","05","02","09:00","8.2","","0.9","","60","","30","","28","","40.2","","100.09","","","","","","Mainly Clear"
"1994-05-02 10:00","1994","05","02","10:00","9.4","","0.7","","55","","32","","26","","40.2","","100.09","","","","","","Mostly Cloudy"
"1994-05-02 11:00","1994","05","02","11:00","10.1","","-1.5","","44","","30","","19","","40.2","","100.15","","","","","","Mainly Clear"
"1994-05-02 12:00","1994","05","02","12:00","10.7","","-0.8","","45","","31","","26","","40.2","","100.15","","","","","","Mostly Cloudy"
"1994-05-02 13:00","1994","05","02","13:00","10.0","","-0.9","","47","","34","","22","","40.2","","100.15","","","","","","Mostly Cloudy"
"1994-05-02 14:00","1994","05","02","14:00","9.7","","-2.9","","41","","34","","11","","40.2","","100.19","","","","","","Mostly Cloudy"
"1994-05-02 15:00","1994","05","02","15:00","10.8","","0.0","","47","","29","","26","","40.2","","100.22","","","","","","Mostly Cloudy"
"1994-05-02 16:00","1994","05","02","16:00","10.6","","-0.2","","47","","31","","24","","40.2","","100.19","","","","","","Mostly Cloudy"
"1994-05-02 17:00","1994","05","02","17:00","12.0","","-0.3","","43","","28","","19","","40.2","","100.22","","","","","","Mostly Cloudy"
"1994-05-02 18:00","1994","05","02","18:00","10.8","","-1.9","","41","","28","","26","","40.2","","100.25","","","","","","Mainly Clear"
"1994-05-02 19:00","1994","05","02","19:00","9.4","","-2.3","","44","","30","","20","","40.2","","100.29","","","","","","Clear"
"1994-05-02 20:00","1994","05","02","20:00","7.0","","-1.5","","55","","30","","15","","40.2","","100.35","","","","","","Clear"
"1994-05-02 21:00","1994","05","02","21:00","5.5","","-2.4","","57","","28","","9","","25.0","","100.39","","","","","","Clear"
"1994-05-02 22:00","1994","05","02","22:00","4.7","","-2.5","","60","","27","","9","","25.0","","100.39","","","","","","Clear"
"1994-05-02 23:00","1994","05","02","23:00","3.2","","-2.6","","66","","29","","11","","25.0","","100.42","","","","","","Clear"
"1994-05-03 00:00","1994","05","03","00:00","3.6","","-2.6","","64","","27","","6","","25.0","","100.45","","","","","","Clear"
"1994-05-03 01:00","1994","05","03","01:00","3.4","","-2.6","","65","","27","","6","","25.0","","100.45","","","","","","Clear"
"1994-05-03 02:00","1994","05","03","02:00","1.1","","-1.9","","80","","28","","7","","25.0","","100.49","","","","","","Clear"
"1994-05-03 03:00","1994","05","03","03:00","2.6","","-4.6","","59","","24","","4","","25.0","","100.52","","","","","","Clear"
"1994-05-03 04:00","1994","05","03","04:00","1.5","","-3.5","","69","","26","","4","","25.0","","100.55","","","","","","Clear"
"1994-05-03 05:00","1994","05","03","05:00","1.5","","-3.5","","69","","25","","7","","40.2","","100.65","","","","","","Clear"
"1994-05-03 06:00","1994","05","03","06:00","1.1","","-3.0","","74","","27","","6","","40.2","","100.69","","","","","","Clear"
"1994-05-03 07:00","1994","05","03","07:00","4.0","","-1.9","","65","","32","","2","","40.2","","100.72","","","","","","Clear"
"1994-05-03 08:00","1994","05","03","08:00","7.6","","-0.9","","55","","32","","4","","32.2","","100.69","","","","","","Clear"
"1994-05-03 09:00","1994","05","03","09:00","10.9","","-3.2","","37","","24","","4","","32.2","","100.75","","","","","","Mainly Clear"
"1994-05-03 10:00","1994","05","03","10:00","12.9","","-1.2","","38","","14","","4","","40.2","","100.69","","","","","","Mainly Clear"
"1994-05-03 11:00","1994","05","03","11:00","13.5","","-1.0","","37","","18","","9","","40.2","","100.69","","","","","","Mainly Clear"
"1994-05-03 12:00","1994","05","03","12:00","13.4","","-2.4","","33","","15","","19","","40.2","","100.69","","","","","","Mainly Clear"
"1994-05-03 13:00","1994","05","03","13:00","13.2","","-4.0","","30","","17","","15","","40.2","","100.62","","","","","","Mostly Cloudy"
"1994-05-03 14:00","1994","05","03","14:00","14.0","","-2.2","","33","","16","","13","","40.2","","100.55","","","","","","Mostly Cloudy"
"1994-05-03 15:00","1994","05","03","15:00","13.0","","-5.0","","28","","13","","15","","40.2","","100.49","","","","","","Mostly Cloudy"
"1994-05-03 16:00","1994","05","03","16:00","13.4","","-5.4","","27","","14","","19","","40.2","","100.45","","","","","","Mostly Cloudy"
"1994-05-03 17:00","1994","05","03","17:00","13.8","","-5.2","","26","","15","","9","","40.2","","100.45","","","","","","Cloudy"
"1994-05-03 18:00","1994","05","03","18:00","13.5","","-6.3","","25","","14","","9","","40.2","","100.35","","","","","","Cloudy"
"1994-05-03 19:00","1994","05","03","19:00","11.8","","-2.2","","38","","15","","13","","40.2","","100.35","","","","","","Mostly Cloudy"
"1994-05-03 20:00","1994","05","03","20:00","10.2","","-3.5","","38","","14","","9","","25.0","","100.35","","","","","","Mainly Clear"
"1994-05-03 21:00","1994","05","03","21:00","9.5","","-2.9","","42","","16","","7","","25.0","","100.39","","","","","","Mainly Clear"
"1994-05-03 22:00","1994","05","03","22:00","8.4","","-2.5","","46","","16","","4","","25.0","","100.39","","","","","","Clear"
"1994-05-03 23:00","1994","05","03","23:00","7.7","","-3.4","","45","","","","0","","25.0","","100.42","","","","","","Mainly Clear"
"1994-05-04 00:00","1994","05","04","00:00","5.3","","0.4","","71","","","","0","","25.0","","100.39","","","","","","Mainly Clear"
"1994-05-04 01:00","1994","05","04","01:00","3.7","","-1.4","","69","","35","","9","","25.0","","100.35","","","","","","Mainly Clear"
"1994-05-04 02:00","1994","05","04","02:00","3.0","","-0.9","","76","","1","","7","","25.0","","100.29","","","","","","Mainly Clear"
"1994-05-04 03:00","1994","05","04","03:00","3.8","","-0.8","","72","","36","","7","","25.0","","100.25","","","","","","Mostly Cloudy"
"1994-05-04 04:00","1994","05","04","04:00","1.8","","-0.4","","85","","35","","6","","25.0","","100.25","","","","","","Mostly Cloudy"
"1994-05-04 05:00","1994","05","04","05:00","2.2","","-2.1","","73","","","","0","","25.0","","100.29","","","","","","Mainly Clear"
"1994-05-04 06:00","1994","05","04","06:00","2.7","","-3.2","","65","","","","0","","32.2","","100.29","","","","","","Mostly Cloudy"
"1994-05-04 07:00","1994","05","04","07:00","5.9","","1.0","","71","","","","0","","24.1","","100.29","","","","","","Mostly Cloudy"
"1994-05-04 08:00","1994","05","04","08:00","9.9","","0.8","","53","","","","0","","24.1","","100.29","","","","","","Mostly Cloudy"
"1994-05-04 09:00","1994","05","04","09:00","11.7","","2.8","","54","","18","","7","","24.1","","100.25","","","","","","Mainly Clear"
"1994-05-04 10:00","1994","05","04","10:00","12.6","","3.2","","53","","14","","15","","24.1","","100.25","","","","","","Mainly Clear"
"1994-05-04 11:00","1994","05","04","11:00","13.7","","3.5","","50","","16","","9","","32.2","","100.22","","","","","","Mainly Clear"
"1994-05-04 12:00","1994","05","04","12:00","14.4","","3.8","","49","","18","","13","","32.2","","100.19","","","","","","Mainly Clear"
"1994-05-04 13:00","1994","05","04","13:00","14.8","","4.0","","48","","14","","13","","32.2","","100.09","","","","","","Mainly Clear"
"1994-05-04 14:00","1994","05","04","14:00","15.2","","5.5","","52","","17","","15","","32.2","","100.05","","","","","","Mostly Cloudy"
"1994-05-04 15:00","1994","05","04","15:00","14.2","","4.2","","51","","17","","17","","32.2","","99.99","","","","","","Mostly Cloudy"
"1994-05-04 16:00","1994","05","04","16:00","13.4","","4.5","","55","","15","","15","","24.1","","99.95","","","","","","Mostly Cloudy"
"1994-05-04 17:00","1994","05","04","17:00","13.6","","3.5","","50","","13","","13","","24.1","","99.92","","","","","","Clear"
"1994-05-04 18:00","1994","05","04","18:00","13.6","","3.5","","50","","12","","11","","24.1","","99.89","","","","","","Mainly Clear"
"1994-05-04 19:00","1994","05","04","19:00","12.8","","3.3","","52","","","","0","","25.0","","99.85","","","","","","Mainly Clear"
"1994-05-04 20:00","1994","05","04","20:00","12.6","","2.6","","50","","","","0","","25.0","","99.82","","","","","","Mostly Cloudy"
"1994-05-04 21:00","1994","05","04","21:00","12.4","","3.2","","53","","","","0","","25.0","","99.82","","","","","","Mostly Cloudy"
"1994-05-04 22:00","1994","05","04","22:00","12.0","","6.0","","67","","","","0","","25.0","","99.82","","","","","","Cloudy"
"1994-05-04 23:00","1994","05","04","23:00","11.2","","2.2","","54","","16","","6","","25.0","","99.79","","","","","","Cloudy"
"1994-05-05 00:00","1994","05","05","00:00","10.8","","3.2","","59","","22","","6","","25.0","","99.75","","","","","","Cloudy"
"1994-05-05 01:00","1994","05","05","01:00","10.8","","3.2","","59","","","","0","","25.0","","99.72","","","","","","Cloudy"
"1994-05-05 02:00","1994","05","05","02:00","10.8","","3.7","","61","","13","","6","","24.1","","99.65","","","","","","Mostly Cloudy"
"1994-05-05 03:00","1994","05","05","03:00","10.0","","4.4","","68","","","","0","","24.1","","99.65","","","","","","Cloudy"
"1994-05-05 04:00","1994","05","05","04:00","9.4","","6.0","","79","","28","","6","","24.1","","99.65","","","","","","Cloudy"
"1994-05-05 05:00","1994","05","05","05:00","9.4","","6.0","","79","","30","","7","","24.1","","99.62","","","","","","Cloudy"
"1994-05-05 06:00","1994","05","05","06:00","9.8","","4.4","","69","","","","0","","24.1","","99.59","","","","","","Cloudy"
"1994-05-05 07:00","1994","05","05","07:00","10.0","","6.5","","79","","26","","4","","24.1","","99.65","","","","","","Cloudy"
"1994-05-05 08:00","1994","05","05","08:00","10.5","","6.7","","77","","27","","9","","19.3","","99.59","","","","","","Cloudy"
"1994-05-05 09:00","1994","05","05","09:00","11.5","","6.5","","71","","29","","13","","16.1","","99.59","","","","","","Cloudy"
"1994-05-05 10:00","1994","05","05","10:00","11.9","","7.1","","72","","25","","7","","16.1","","99.55","","","","","","Cloudy"
"1994-05-05 11:00","1994","05","05","11:00","12.5","","7.3","","71","","22","","6","","19.3","","99.49","","","","","","Cloudy"
"1994-05-05 12:00","1994","05","05","12:00","13.5","","6.8","","64","","18","","11","","19.3","","99.45","","","","","","Mostly Cloudy"
"1994-05-05 13:00","1994","05","05","13:00","15.8","","8.1","","60","","21","","7","","19.3","","99.35","","","","","","Mostly Cloudy"
"1994-05-05 14:00","1994","05","05","14:00","14.9","","7.7","","62","","17","","19","","19.3","","99.29","","","","","","Mostly Cloudy"
"1994-05-05 15:00","1994","05","05","15:00","14.0","","6.9","","62","","17","","20","","19.3","","99.19","","","","","","Cloudy"
"1994-05-05 16:00","1994","05","05","16:00","14.8","","8.1","","64","","17","","17","","16.1","","99.09","","","","","","Cloudy"
"1994-05-05 17:00","1994","05","05","17:00","14.5","","7.1","","61","","16","","19","","16.1","","99.06","","","","","","Cloudy"
"1994-05-05 18:00","1994","05","05","18:00","13.0","","7.0","","67","","13","","13","","16.1","","99.02","","","","","","Rain Showers"
"1994-05-05 19:00","1994","05","05","19:00","12.8","","10.6","","86","","27","","22","","4.8","","99.02","","","","","","Thunderstorms,Rain Showers,Fog"
"1994-05-05 20:00","1994","05","05","20:00","11.0","","9.0","","87","","","","0","","19.3","","98.92","","","","","","Rain Showers"
"1994-05-05 21:00","1994","05","05","21:00","9.8","","8.5","","92","","21","","4","","25.0","","98.92","","","","","","Mostly Cloudy"
"1994-05-05 22:00","1994","05","05","22:00","10.0","","8.1","","88","","","","0","","24.1","","98.89","","","","","","Rain Showers"
"1994-05-05 23:00","1994","05","05","23:00","9.6","","8.4","","92","","24","","19","","9.7","","98.89","","","","","","Thunderstorms,Rain Showers,Fog"
"1994-05-06 00:00","1994","05","06","00:00","9.6","","8.4","","92","","22","","9","","19.3","","98.79","","","","","","Rain Showers"
"1994-05-06 01:00","1994","05","06","01:00","10.4","","7.9","","84","","25","","13","","16.1","","98.76","","","","","","Cloudy"
"1994-05-06 02:00","1994","05","06","02:00","9.0","","7.1","","88","","30","","22","","16.1","","98.69","","","","","","Cloudy"
"1994-05-06 03:00","1994","05","06","03:00","7.4","","5.5","","88","","31","","22","","16.1","","98.72","","","","","","Rain Showers"
"1994-05-06 04:00","1994","05","06","04:00","5.3","","3.4","","88","","31","","30","","24.1","","98.79","","","","","","Rain Showers"
"1994-05-06 05:00","1994","05","06","05:00","4.6","","1.8","","82","","30","","28","","25.0","","98.86","","","","","","Mostly Cloudy"
"1994-05-06 06:00","1994","05","06","06:00","4.0","","1.7","","85","","29","","26","","40.2","","98.89","","","","","","Mostly Cloudy"
"1994-05-06 07:00","1994","05","06","07:00","4.0","","2.2","","88","","29","","35","","40.2","","98.99","","","","","","Cloudy"
"1994-05-06 08:00","1994","05","06","08:00","5.0","","1.4","","78","","30","","30","","40.2","","99.02","","","","","","Mostly Cloudy"
"1994-05-06 09:00","1994","05","06","09:00","5.0","","1.9","","80","","30","","32","","32.2","","99.09","","","","","","Cloudy"
"1994-05-06 10:00","1994","05","06","10:00","5.4","","2.4","","81","","30","","28","","32.2","","99.16","","","","","","Cloudy"
"1994-05-06 11:00","1994","05","06","11:00","5.5","","2.9","","83","","29","","32","","32.2","","99.22","","","","","","Cloudy"
"1994-05-06 12:00","1994","05","06","12:00","5.9","","3.0","","82","","30","","30","","32.2","","99.32","","","","","","Cloudy"
"1994-05-06 13:00","1994","05","06","13:00","6.6","","3.1","","78","","29","","30","","32.2","","99.32","","","","","","Cloudy"
"1994-05-06 14:00","1994","05","06","14:00","8.3","","5.3","","81","","32","","30","","24.1","","99.35","","","","","","Cloudy"
"1994-05-06 15:00","1994","05","06","15:00","9.5","","6.0","","79","","33","","30","","16.1","","99.29","","","","","","Cloudy"
"1994-05-06 16:00","1994","05","06","16:00","10.5","","6.7","","77","","29","","26","","19.3","","99.35","","","","","","Mostly Cloudy"
"1994-05-06 17:00","1994","05","06","17:00","10.8","","6.4","","74","","33","","20","","19.3","","99.39","","","","","","Mostly Cloudy"
"1994-05-06 18:00","1994","05","06","18:00","10.6","","5.8","","72","","32","","22","","19.3","","99.45","","","","","","Mostly Cloudy"
"1994-05-06 19:00","1994","05","06","19:00","9.8","","6.1","","78","","32","","15","","16.1","","99.52","","","","","","Cloudy"
"1994-05-06 20:00","1994","05","06","20:00","9.0","","5.9","","81","","29","","15","","24.1","","99.62","","","","","","Cloudy"
"1994-05-06 21:00","1994","05","06","21:00","8.7","","5.3","","79","","29","","15","","24.1","","99.69","","","","","","Cloudy"
"1994-05-06 22:00","1994","05","06","22:00","7.4","","5.1","","85","","26","","11","","24.1","","99.69","","","","","","Clear"
"1994-05-06 23:00","1994","05","06","23:00","6.8","","4.5","","85","","27","","9","","24.1","","99.69","","","","","","Mainly Clear"
"1994-05-07 00:00","1994","05","07","00:00","5.4","","4.2","","92","","28","","9","","24.1","","99.72","","","","","","Clear"
"1994-05-07 01:00","1994","05","07","01:00","5.0","","3.7","","91","","31","","9","","24.1","","99.69","","","","","","Clear"
"1994-05-07 02:00","1994","05","07","02:00","4.6","","3.2","","91","","28","","6","","24.1","","99.69","","","","","","Mainly Clear"
"1994-05-07 03:00","1994","05","07","03:00","3.8","","2.7","","93","","34","","13","","24.1","","99.59","","","","","","Mainly Clear"
"1994-05-07 04:00","1994","05","07","04:00","4.2","","3.1","","93","","30","","6","","24.1","","99.59","","","","","","Mainly Clear"
"1994-05-07 05:00","1994","05","07","05:00","4.0","","2.7","","91","","24","","4","","24.1","","99.62","","","","","","Mainly Clear"
"1994-05-07 06:00","1994","05","07","06:00","5.0","","3.3","","89","","32","","9","","19.3","","99.62","","","","","","Cloudy"
"1994-05-07 07:00","1994","05","07","07:00","5.6","","3.4","","86","","35","","7","","24.1","","99.62","","","","","","Mostly Cloudy"
"1994-05-07 08:00","1994","05","07","08:00","6.2","","3.4","","82","","36","","6","","24.1","","99.62","","","","","","Mostly Cloudy"
"1994-05-07 09:00","1994","05","07","09:00","7.7","","3.7","","76","","4","","7","","24.1","","99.55","","","","","","Mostly Cloudy"
"1994-05-07 10:00","1994","05","07","10:00","10.6","","5.4","","70","","","","0","","24.1","","99.49","","","","","","Mostly Cloudy"
"1994-05-07 11:00","1994","05","07","11:00","11.8","","6.3","","69","","14","","4","","24.1","","99.39","","","","","","Cloudy"
"1994-05-07 12:00","1994","05","07","12:00","12.4","","6.4","","67","","13","","11","","24.1","","99.35","","","","","","Mostly Cloudy"
"1994-05-07 13:00","1994","05","07","13:00","13.2","","6.6","","64","","15","","9","","24.1","","99.26","","","","","","Cloudy"
"1994-05-07 14:00","1994","05","07","14:00","12.0","","6.3","","68","","15","","11","","19.3","","99.19","","","","","","Cloudy"
"1994-05-07 15:00","1994","05","07","15:00","12.2","","5.8","","65","","13","","7","","19.3","","99.06","","","","","","Cloudy"
"1994-05-07 16:00","1994","05","07","16:00","12.5","","6.4","","66","","10","","11","","19.3","","98.96","","","","","","Cloudy"
"1994-05-07 17:00","1994","05","07","17:00","12.4","","6.9","","69","","9","","15","","19.3","","98.89","","","","","","Cloudy"
"1994-05-07 18:00","1994","05","07","18:00","11.6","","7.8","","77","","6","","11","","24.1","","98.92","","","","","","Rain Showers"
"1994-05-07 19:00","1994","05","07","19:00","11.1","","6.4","","73","","2","","15","","16.1","","98.82","","","","","","Rain"
"1994-05-07 20:00","1994","05","07","20:00","10.8","","6.8","","76","","4","","11","","19.3","","98.79","","","","","","Rain"
"1994-05-07 21:00","1994","05","07","21:00","10.0","","7.4","","84","","36","","20","","16.1","","98.79","","","","","","Rain"
"1994-05-07 22:00","1994","05","07","22:00","8.0","","6.0","","87","","35","","22","","16.1","","98.72","","","","","","Rain"
"1994-05-07 23:00","1994","05","07","23:00","8.6","","6.1","","84","","35","","17","","16.1","","98.76","","","","","","Rain"
"1994-05-08 00:00","1994","05","08","00:00","7.0","","4.5","","84","","1","","19","","12.9","","98.76","","","","","","Rain"
"1994-05-08 01:00","1994","05","08","01:00","6.7","","4.4","","85","","36","","13","","16.1","","98.72","","","","","","Rain"
"1994-05-08 02:00","1994","05","08","02:00","6.8","","5.4","","91","","35","","22","","12.9","","98.69","","","","","","Rain"
"1994-05-08 03:00","1994","05","08","03:00","6.6","","5.3","","91","","34","","20","","16.1","","98.66","","","","","","Rain"
"1994-05-08 04:00","1994","05","08","04:00","6.8","","5.8","","93","","34","","19","","16.1","","98.66","","","","","","Rain"
"1994-05-08 05:00","1994","05","08","05:00","6.5","","5.3","","92","","35","","17","","19.3","","98.69","","","","","","Rain"
"1994-05-08 06:00","1994","05","08","06:00","6.8","","5.4","","91","","34","","20","","24.1","","98.76","","","","","","Mostly Cloudy"
"1994-05-08 07:00","1994","05","08","07:00","7.9","","5.6","","85","","35","","19","","24.1","","98.82","","","","","","Cloudy"
"1994-05-08 08:00","1994","05","08","08:00","9.4","","6.8","","84","","35","","22","","24.1","","98.86","","","","","","Cloudy"
"1994-05-08 09:00","1994","05","08","09:00","10.7","","6.7","","76","","33","","22","","24.1","","98.89","","","","","","Cloudy"
"1994-05-08 10:00","1994","05","08","10:00","11.8","","6.7","","71","","33","","28","","24.1","","98.89","","","","","","Mostly Cloudy"
"1994-05-08 11:00","1994","05","08","11:00","14.4","","5.3","","54","","34","","19","","32.2","","98.89","","","","","","Mostly Cloudy"
"1994-05-08 12:00","1994","05","08","12:00","16.4","","5.6","","49","","33","","15","","40.2","","98.82","","","","","","Mainly Clear"
"1994-05-08 13:00","1994","05","08","13:00","17.8","","7.6","","51","","32","","22","","40.2","","98.79","","","","","","Mainly Clear"
"1994-05-08 14:00","1994","05","08","14:00","18.2","","7.6","","50","","35","","19","","40.2","","98.72","","","","","","Mainly Clear"
"1994-05-08 15:00","1994","05","08","15:00","19.0","","5.7","","42","","35","","15","","40.2","","98.69","","","","","","Mainly Clear"
"1994-05-08 16:00","1994","05","08","16:00","18.4","","5.5","","43","","34","","19","","40.2","","98.69","","","","","","Mainly Clear"
"1994-05-08 17:00","1994","05","08","17:00","18.2","","7.6","","50","","32","","15","","40.2","","98.69","","","","","","Mainly Clear"
"1994-05-08 18:00","1994","05","08","18:00","17.6","","4.0","","40","","30","","28","","40.2","","98.69","","","","","","Mainly Clear"
"1994-05-08 19:00","1994","05","08","19:00","15.6","","2.1","","40","","28","","22","","40.2","","98.76","","","","","","Clear"
"1994-05-08 20:00","1994","05","08","20:00","13.3","","1.9","","46","","26","","17","","25.0","","98.79","","","","","","Clear"
"1994-05-08 21:00","1994","05","08","21:00","11.0","","2.2","","55","","24","","11","","25.0","","98.79","","","","","","Mainly Clear"
"1994-05-08 22:00","1994","05","08","22:00","10.3","","1.5","","54","","23","","11","","25.0","","98.76","","","","","","Clear"
"1994-05-08 23:00","1994","05","08","23:00","10.0","","1.4","","55","","23","","13","","25.0","","98.72","","","","","","Clear"
"1994-05-09 00:00","1994","05","09","00:00","10.0","","2.4","","59","","21","","9","","25.0","","98.69","","","","","","Mainly Clear"
"1994-05-09 01:00","1994","05","09","01:00","9.4","","2.8","","63","","23","","9","","25.0","","98.62","","","","","","Mainly Clear"
"1994-05-09 02:00","1994","05","09","02:00","8.5","","3.0","","68","","23","","9","","25.0","","98.56","","","","","","Clear"
"1994-05-09 03:00","1994","05","09","03:00","9.0","","3.6","","69","","25","","15","","25.0","","98.49","","","","","","Mainly Clear"
"1994-05-09 04:00","1994","05","09","04:00","8.8","","4.1","","72","","22","","15","","19.3","","98.49","","","","","","Mainly Clear"
"1994-05-09 05:00","1994","05","09","05:00","9.0","","4.1","","71","","23","","22","","19.3","","98.46","","","","","","Mainly Clear"
"1994-05-09 06:00","1994","05","09","06:00","9.1","","5.0","","75","","24","","22","","19.3","","98.42","","","","","","Mainly Clear"
"1994-05-09 07:00","1994","05","09","07:00","11.0","","6.0","","71","","24","","28","","19.3","","98.42","","","","","","Mainly Clear"
"1994-05-09 08:00","1994","05","09","08:00","13.4","","7.2","","66","","24","","26","","19.3","","98.46","","","","","","Mostly Cloudy"
"1994-05-09 09:00","1994","05","09","09:00","11.0","","8.8","","86","","26","","26","","4.0","","98.52","","","","","","Rain Showers,Fog"
"1994-05-09 10:00","1994","05","09","10:00","10.0","","8.9","","93","","30","","20","","8.0","","98.59","","","","","","Rain,Fog"
"1994-05-09 11:00","1994","05","09","11:00","10.5","","8.7","","89","","20","","9","","32.2","","98.59","","","","","","Rain"
"1994-05-09 12:00","1994","05","09","12:00","12.4","","10.0","","85","","24","","17","","16.1","","98.59","","","","","","Mostly Cloudy"
"1994-05-09 13:00","1994","05","09","13:00","14.4","","9.2","","71","","26","","24","","32.2","","98.56","","","","","","Mostly Cloudy"
"1994-05-09 14:00","1994","05","09","14:00","15.2","","10.1","","72","","23","","17","","32.2","","98.52","","","","","","Mostly Cloudy"
"1994-05-09 15:00","1994","05","09","15:00","14.4","","9.2","","71","","27","","19","","12.9","","98.56","","","","","","Rain Showers"
"1994-05-09 16:00","1994","05","09","16:00","10.5","","7.5","","82","","28","","17","","40.2","","98.66","","","","","","Mostly Cloudy"
"1994-05-09 17:00","1994","05","09","17:00","12.0","","7.1","","72","","36","","7","","40.2","","98.69","","","","","","Mostly Cloudy"
"1994-05-09 18:00","1994","05","09","18:00","13.1","","6.2","","63","","31","","6","","40.2","","98.79","","","","","","Mostly Cloudy"
"1994-05-09 19:00","1994","05","09","19:00","12.9","","3.8","","54","","30","","22","","40.2","","98.86","","","","","","Mostly Cloudy"
"1994-05-09 20:00","1994","05","09","20:00","10.3","","4.5","","67","","30","","15","","25.0","","98.96","","","","","","Mainly Clear"
"1994-05-09 21:00","1994","05","09","21:00","9.1","","2.7","","64","","30","","11","","25.0","","99.09","","","","","","Clear"
"1994-05-09 22:00","1994","05","09","22:00","7.9","","2.9","","71","","26","","11","","25.0","","99.12","","","","","","Clear"
"1994-05-09 23:00","1994","05","09","23:00","7.4","","2.8","","73","","27","","13","","25.0","","99.12","","","","","","Clear"
"1994-05-10 00:00","1994","05","10","00:00","7.0","","2.2","","71","","27","","11","","25.0","","99.19","","","","","","Clear"
"1994-05-10 01:00","1994","05","10","01:00","6.7","","2.1","","72","","28","","15","","25.0","","99.19","","","","","","Clear"
"1994-05-10 02:00","1994","05","10","02:00","5.3","","2.4","","82","","27","","11","","25.0","","99.22","","","","","","Mainly Clear"
"1994-05-10 03:00","1994","05","10","03:00","6.0","","2.5","","78","","28","","11","","25.0","","99.26","","","","","","Mostly Cloudy"
"1994-05-10 04:00","1994","05","10","04:00","5.5","","2.4","","80","","28","","7","","25.0","","99.29","","","","","","Mainly Clear"
"1994-05-10 05:00","1994","05","10","05:00","4.9","","1.9","","81","","28","","13","","25.0","","99.35","","","","","","Mainly Clear"
"1994-05-10 06:00","1994","05","10","06:00","6.0","","2.0","","75","","27","","11","","40.2","","99.42","","","","","","Mainly Clear"
"1994-05-10 07:00","1994","05","10","07:00","8.0","","2.9","","70","","28","","9","","40.2","","99.49","","","","","","Mainly Clear"
"1994-05-10 08:00","1994","05","10","08:00","11.0","","3.7","","61","","27","","7","","40.2","","99.55","","","","","","Mainly Clear"
"1994-05-10 09:00","1994","05","10","09:00","13.5","","4.5","","54","","30","","17","","40.2","","99.55","","","","","","Mainly Clear"
"1994-05-10 10:00","1994","05","10","10:00","13.0","","1.2","","45","","31","","24","","40.2","","99.59","","","","","","Mostly Cloudy"
"1994-05-10 11:00","1994","05","10","11:00","14.9","","2.5","","43","","28","","22","","40.2","","99.55","","","","","","Mostly Cloudy"
"1994-05-10 12:00","1994","05","10","12:00","14.4","","2.3","","44","","31","","19","","40.2","","99.52","","","","","","Mostly Cloudy"
"1994-05-10 13:00","1994","05","10","13:00","13.5","","0.8","","42","","30","","22","","40.2","","99.55","","","","","","Mainly Clear"
"1994-05-10 14:00","1994","05","10","14:00","15.4","","3.2","","44","","29","","32","","40.2","","99.59","","","","","","Mainly Clear"
"1994-05-10 15:00","1994","05","10","15:00","14.5","","1.7","","42","","30","","30","","40.2","","99.65","","","","","","Mostly Cloudy"
"1994-05-10 16:00","1994","05","10","16:00","15.1","","1.4","","39","","30","","32","","40.2","","99.65","","","","","","Mainly Clear"
"1994-05-10 17:00","1994","05","10","17:00","14.9","","-0.5","","35","","29","","33","","40.2","","99.65","","","","","","Mainly Clear"
"1994-05-10 18:00","1994","05","10","18:00","14.2","","1.5","","42","","31","","26","","40.2","","99.65","","","","","","Mainly Clear"
"1994-05-10 19:00","1994","05","10","19:00","13.2","","0.0","","40","","30","","22","","40.2","","99.65","","","","","","Mainly Clear"
"1994-05-10 20:00","1994","05","10","20:00","10.3","","2.0","","56","","31","","11","","25.0","","99.69","","","","","","Clear"
"1994-05-10 21:00","1994","05","10","21:00","9.9","","0.8","","53","","30","","7","","25.0","","99.75","","","","","","Clear"
"1994-05-10 22:00","1994","05","10","22:00","8.9","","1.1","","58","","26","","4","","25.0","","99.75","","","","","","Clear"
"1994-05-10 23:00","1994","05","10","23:00","8.0","","1.4","","63","","25","","6","","25.0","","99.79","","","","","","Clear"
"1994-05-11 00:00","1994","05","11","00:00","8.2","","0.9","","60","","21","","6","","25.0","","99.75","","","","","","Clear"
"1994-05-11 01:00","1994","05","11","01:00","6.5","","1.1","","68","","","","0","","25.0","","99.72","","","","","","Mainly Clear"
"1994-05-11 02:00","1994","05","11","02:00","6.2","","0.5","","67","","","","0","","25.0","","99.65","","","","","","Clear"
"1994-05-11 03:00","1994","05","11","03:00","4.6","","0.8","","76","","","","0","","25.0","","99.59","","","","","","Clear"
"1994-05-11 04:00","1994","05","11","04:00","6.2","","1.0","","69","","15","","6","","19.3","","99.59","","","","","","Mainly Clear"
"1994-05-11 05:00","1994","05","11","05:00","7.0","","2.7","","74","","18","","9","","25.0","","99.55","","","","","","Mostly Cloudy"
"1994-05-11 06:00","1994","05","11","06:00","7.6","","3.3","","74","","17","","11","","25.0","","99.49","","","","","","Mostly Cloudy"
"1994-05-11 07:00","1994","05","11","07:00","9.2","","3.2","","66","","21","","19","","24.1","","99.45","","","","","","Cloudy"
"1994-05-11 08:00","1994","05","11","08:00","10.0","","2.2","","58","","21","","24","","16.1","","99.39","","","","","","Cloudy"
"1994-05-11 09:00","1994","05","11","09:00","10.5","","3.5","","62","","19","","19","","19.3","","99.29","","","","","","Cloudy"
"1994-05-11 10:00","1994","05","11","10:00","11.8","","3.5","","57","","19","","20","","19.3","","99.19","","","","","","Cloudy"
"1994-05-11 11:00","1994","05","11","11:00","12.0","","3.5","","56","","18","","22","","19.3","","99.02","","","","","","Rain Showers"
"1994-05-11 12:00","1994","05","11","12:00","11.9","","3.5","","56","","18","","24","","19.3","","98.86","","","","","","Cloudy"
"1994-05-11 13:00","1994","05","11","13:00","14.5","","2.3","","44","","18","","26","","19.3","","98.66","","","","","","Rain Showers"
"1994-05-11 14:00","1994","05","11","14:00","15.2","","5.0","","51","","24","","43","","19.3","","98.59","","","","","","Rain Showers"
"1994-05-11 15:00","1994","05","11","15:00","13.0","","7.9","","71","","21","","33","","9.7","","98.49","","","","","","Rain"
"1994-05-11 16:00","1994","05","11","16:00","13.3","","8.8","","74","","22","","24","","19.3","","98.36","","","","","","Rain"
"1994-05-11 17:00","1994","05","11","17:00","13.8","","9.0","","73","","22","","44","","16.1","","98.26","","","","","","Rain"
"1994-05-11 18:00","1994","05","11","18:00","14.0","","9.8","","76","","22","","41","","16.1","","98.12","","","","","","Mostly Cloudy"
"1994-05-11 19:00","1994","05","11","19:00","15.9","","9.3","","65","","23","","44","","19.3","","98.02","","","","","","Mainly Clear"
"1994-05-11 20:00","1994","05","11","20:00","15.6","","9.1","","65","","23","","44","","19.3","","97.99","","","","","","Mainly Clear"
"1994-05-11 21:00","1994","05","11","21:00","15.1","","9.4","","69","","24","","37","","19.3","","98.06","","","","","","Mainly Clear"
"1994-05-11 22:00","1994","05","11","22:00","12.4","","9.3","","81","","25","","30","","6.4","","98.19","","","","","","Thunderstorms,Rain Showers"
"1994-05-11 23:00","1994","05","11","23:00","11.1","","9.9","","92","","26","","22","","19.3","","98.12","","","","","","Cloudy"
"1994-05-12 00:00","1994","05","12","00:00","10.5","","7.9","","84","","30","","33","","19.3","","98.16","","","","","","Mostly Cloudy"
"1994-05-12 01:00","1994","05","12","01:00","9.4","","4.7","","72","","29","","30","","19.3","","98.19","","","","","","Mostly Cloudy"
"1994-05-12 02:00","1994","05","12","02:00","8.1","","5.6","","84","","29","","30","","19.3","","98.19","","","","","","Mostly Cloudy"
"1994-05-12 03:00","1994","05","12","03:00","7.5","","5.1","","85","","29","","30","","25.0","","98.29","","","","","","Mostly Cloudy"
"1994-05-12 04:00","1994","05","12","04:00","7.2","","4.1","","81","","30","","28","","25.0","","98.36","","","","","","Cloudy"
"1994-05-12 05:00","1994","05","12","05:00","6.7","","4.0","","83","","31","","30","","25.0","","98.46","","","","","","Cloudy"
"1994-05-12 06:00","1994","05","12","06:00","7.0","","3.6","","79","","32","","32","","40.2","","98.56","","","","","","Cloudy"
"1994-05-12 07:00","1994","05","12","07:00","7.4","","3.7","","77","","32","","28","","40.2","","98.66","","","","","","Cloudy"
"1994-05-12 08:00","1994","05","12","08:00","7.5","","3.7","","77","","33","","32","","32.2","","98.79","","","","","","Cloudy"
"1994-05-12 09:00","1994","05","12","09:00","7.5","","3.3","","75","","33","","30","","32.2","","98.92","","","","","","Cloudy"
"1994-05-12 10:00","1994","05","12","10:00","8.8","","4.1","","72","","33","","32","","40.2","","98.99","","","","","","Mostly Cloudy"
"1994-05-12 11:00","1994","05","12","11:00","9.6","","3.3","","65","","34","","33","","40.2","","99.02","","","","","","Mostly Cloudy"
"1994-05-12 12:00","1994","05","12","12:00","11.4","","3.8","","59","","34","","33","","40.2","","99.09","","","","","","Mainly Clear"
"1994-05-12 13:00","1994","05","12","13:00","11.5","","2.8","","55","","30","","33","","40.2","","99.09","","","","","","Mostly Cloudy"
"1994-05-12 14:00","1994","05","12","14:00","12.0","","4.0","","58","","32","","33","","40.2","","99.09","","","","","","Mainly Clear"
"1994-05-12 15:00","1994","05","12","15:00","13.0","","1.2","","45","","31","","33","","40.2","","99.16","","","","","","Mainly Clear"
"1994-05-12 16:00","1994","05","12","16:00","13.2","","0.6","","42","","29","","32","","40.2","","99.19","","","","","","Mainly Clear"
"1994-05-12 17:00","1994","05","12","17:00","11.4","","-1.7","","40","","31","","33","","40.2","","99.26","","","","","","Mainly Clear"
"1994-05-12 18:00","1994","05","12","18:00","10.5","","-1.4","","43","","30","","30","","40.2","","99.29","","","","","","Clear"
"1994-05-12 19:00","1994","05","12","19:00","9.4","","-1.0","","48","","31","","30","","40.2","","99.35","","","","","","Clear"
"1994-05-12 20:00","1994","05","12","20:00","7.8","","-2.6","","48","","31","","19","","25.0","","99.39","","","","","","Clear"
"1994-05-12 21:00","1994","05","12","21:00","6.6","","-2.9","","51","","30","","15","","25.0","","99.42","","","","","","Clear"
"1994-05-12 22:00","1994","05","12","22:00","5.6","","-3.0","","54","","31","","15","","25.0","","99.45","","","","","","Clear"
"1994-05-12 23:00","1994","05","12","23:00","4.8","","-2.4","","60","","31","","11","","25.0","","99.45","","","","","","Clear"
"1994-05-13 00:00","1994","05","13","00:00","3.8","","-1.9","","66","","30","","7","","25.0","","99.49","","","","","","Clear"
"1994-05-13 01:00","1994","05","13","01:00","2.9","","-3.8","","61","","33","","9","","25.0","","99.49","","","","","","Clear"
"1994-05-13 02:00","1994","05","13","02:00","2.4","","-2.6","","70","","34","","11","","25.0","","99.49","","","","","","Clear"
"1994-05-13 03:00","1994","05","13","03:00","1.5","","-2.4","","75","","33","","11","","25.0","","99.59","","","","","","Clear"
"1994-05-13 04:00","1994","05","13","04:00","1.4","","-2.1","","77","","33","","11","","25.0","","99.62","","","","","","Clear"
"1994-05-13 05:00","1994","05","13","05:00","1.9","","-2.6","","72","","31","","4","","40.2","","99.69","","","","","","Clear"
"1994-05-13 06:00","1994","05","13","06:00","2.5","","-1.5","","75","","30","","4","","40.2","","99.79","","","","","","Clear"
"1994-05-13 07:00","1994","05","13","07:00","5.9","","0.5","","68","","33","","15","","40.2","","99.85","","","","","","Clear"
"1994-05-13 08:00","1994","05","13","08:00","7.0","","0.7","","64","","34","","20","","40.2","","99.89","","","","","","Clear"
"1994-05-13 09:00","1994","05","13","09:00","8.5","","2.0","","64","","32","","19","","40.2","","99.92","","","","","","Clear"
"1994-05-13 10:00","1994","05","13","10:00","10.1","","2.9","","61","","34","","28","","40.2","","99.89","","","","","","Clear"
"1994-05-13 11:00","1994","05","13","11:00","10.6","","2.6","","58","","33","","26","","40.2","","99.89","","","","","","Clear"
"1994-05-13 12:00","1994","05","13","12:00","11.4","","2.8","","55","","35","","19","","40.2","","99.85","","","","","","Clear"
"1994-05-13 13:00","1994","05","13","13:00","12.7","","3.2","","52","","35","","19","","40.2","","99.82","","","","","","Clear"
"1994-05-13 14:00","1994","05","13","14:00","13.8","","4.7","","54","","32","","15","","40.2","","99.79","","","","","","Clear"
"1994-05-13 15:00","1994","05","13","15:00","14.7","","4.3","","50","","33","","19","","40.2","","99.79","","","","","","Clear"
"1994-05-13 16:00","1994","05","13","16:00","15.0","","5.0","","51","","35","","13","","40.2","","99.75","","","","","","Clear"
"1994-05-13 17:00","1994","05","13","17:00","14.6","","3.8","","48","","1","","22","","40.2","","99.75","","","","","","Clear"
"1994-05-13 18:00","1994","05","13","18:00","13.7","","4.0","","52","","36","","15","","40.2","","99.75","","","","","","Mainly Clear"
"1994-05-13 19:00","1994","05","13","19:00","12.8","","3.3","","52","","36","","19","","40.2","","99.79","","","","","","Mainly Clear"
"1994-05-13 20:00","1994","05","13","20:00","10.5","","2.0","","56","","36","","13","","40.2","","99.79","","","","","","Mainly Clear"
"1994-05-13 21:00","1994","05","13","21:00","8.9","","-1.1","","49","","36","","11","","25.0","","99.85","","","","","","Clear"
"1994-05-13 22:00","1994","05","13","22:00","6.1","","-1.7","","57","","34","","9","","25.0","","99.85","","","","","","Clear"
"1994-05-13 23:00","1994","05","13","23:00","5.2","","-2.4","","58","","34","","11","","25.0","","99.85","","","","","","Clear"
"1994-05-14 00:00","1994","05","14","00:00","5.2","","-1.8","","61","","34","","9","","25.0","","99.89","","","","","","Clear"
"1994-05-14 01:00","1994","05","14","01:00","3.3","","-1.4","","71","","34","","6","","25.0","","99.85","","","","","","Clear"
"1994-05-14 02:00","1994","05","14","02:00","4.7","","-2.5","","60","","31","","6","","25.0","","99.89","","","","","","Clear"
"1994-05-14 03:00","1994","05","14","03:00","4.8","","-1.3","","65","","","","0","","25.0","","99.85","","","","","","Clear"
"1994-05-14 04:00","1994","05","14","04:00","3.0","","-1.5","","72","","24","","4","","25.0","","99.89","","","","","","Clear"
"1994-05-14 05:00","1994","05","14","05:00","3.3","","-1.4","","71","","34","","4","","25.0","","99.95","","","","","","Clear"
"1994-05-14 06:00","1994","05","14","06:00","3.5","","-1.4","","70","","","","0","","40.2","","99.99","","","","","","Clear"
"1994-05-14 07:00","1994","05","14","07:00","7.5","","0.8","","62","","","","0","","40.2","","99.99","","","","","","Clear"
"1994-05-14 08:00","1994","05","14","08:00","10.3","","-0.8","","46","","","","0","","40.2","","99.95","","","","","","Clear"
"1994-05-14 09:00","1994","05","14","09:00","12.6","","-0.8","","40","","18","","6","","40.2","","99.92","","","","","","Mainly Clear"
"1994-05-14 10:00","1994","05","14","10:00","14.1","","-1.5","","34","","19","","7","","40.2","","99.89","","","","","","Mostly Cloudy"
"1994-05-14 11:00","1994","05","14","11:00","14.4","","-2.7","","31","","14","","15","","40.2","","99.82","","","","","","Mostly Cloudy"
"1994-05-14 12:00","1994","05","14","12:00","15.2","","-2.5","","29","","17","","13","","40.2","","99.79","","","","","","Mostly Cloudy"
"1994-05-14 13:00","1994","05","14","13:00","15.3","","-0.9","","33","","17","","13","","40.2","","99.69","","","","","","Cloudy"
"1994-05-14 14:00","1994","05","14","14:00","17.0","","-0.9","","30","","17","","17","","40.2","","99.62","","","","","","Cloudy"
"1994-05-14 15:00","1994","05","14","15:00","16.9","","-3.1","","25","","18","","13","","40.2","","99.52","","","","","","Cloudy"
"1994-05-14 16:00","1994","05","14","16:00","17.6","","-2.8","","25","","18","","13","","40.2","","99.45","","","","","","Cloudy"
"1994-05-14 17:00","1994","05","14","17:00","17.0","","-3.8","","24","","17","","11","","40.2","","99.39","","","","","","Cloudy"
"1994-05-14 18:00","1994","05","14","18:00","16.5","","-2.6","","27","","14","","11","","40.2","","99.29","","","","","","Cloudy"
"1994-05-14 19:00","1994","05","14","19:00","13.4","","-1.0","","37","","16","","11","","40.2","","99.32","","","","","","Mostly Cloudy"
"1994-05-14 20:00","1994","05","14","20:00","11.1","","-1.9","","40","","15","","9","","25.0","","99.29","","","","","","Mostly Cloudy"
"1994-05-14 21:00","1994","05","14","21:00","10.5","","-2.7","","39","","15","","4","","25.0","","99.26","","","","","","Mainly Clear"
"1994-05-14 22:00","1994","05","14","22:00","10.5","","-3.4","","37","","15","","6","","25.0","","99.22","","","","","","Mostly Cloudy"
"1994-05-14 23:00","1994","05","14","23:00","10.5","","-2.7","","39","","10","","4","","25.0","","99.16","","","","","","Mainly Clear"
"1994-05-15 00:00","1994","05","15","00:00","10.1","","-2.8","","40","","6","","6","","25.0","","99.09","","","","","","Mostly Cloudy"
"1994-05-15 01:00","1994","05","15","01:00","8.0","","0.9","","61","","3","","4","","25.0","","99.02","","","","","","Mostly Cloudy"
"1994-05-15 02:00","1994","05","15","02:00","9.5","","-1.0","","48","","6","","7","","19.3","","98.89","","","","","","Mostly Cloudy"
"1994-05-15 03:00","1994","05","15","03:00","11.0","","-1.9","","41","","8","","6","","19.3","","98.86","","","","","","Cloudy"
"1994-05-15 04:00","1994","05","15","04:00","10.9","","1.7","","53","","9","","7","","19.3","","98.79","","","","","","Rain Showers"
"1994-05-15 05:00","1994","05","15","05:00","10.5","","2.0","","56","","10","","7","","19.3","","98.76","","","","","","Cloudy"
"1994-05-15 06:00","1994","05","15","06:00","10.2","","3.4","","63","","","","0","","19.3","","98.76","","","","","","Rain Showers"
"1994-05-15 07:00","1994","05","15","07:00","9.6","","6.4","","80","","9","","7","","19.3","","98.69","","","","","","Rain Showers"
"1994-05-15 08:00","1994","05","15","08:00","9.4","","7.6","","89","","13","","4","","12.9","","98.66","","","","","","Rain Showers"
"1994-05-15 09:00","1994","05","15","09:00","9.4","","8.0","","91","","","","0","","12.9","","98.62","","","","","","Rain"
"1994-05-15 10:00","1994","05","15","10:00","9.0","","8.3","","95","","14","","11","","6.4","","98.59","","","","","","Rain,Fog"
"1994-05-15 11:00","1994","05","15","11:00","9.8","","9.6","","99","","","","0","","4.8","","98.52","","","","","","Rain,Fog"
"1994-05-15 12:00","1994","05","15","12:00","10.4","","9.8","","96","","","","0","","4.8","","98.49","","","","","","Rain,Fog"
"1994-05-15 13:00","1994","05","15","13:00","11.4","","10.8","","96","","12","","4","","2.4","","98.46","","","","","","Drizzle,Fog"
"1994-05-15 14:00","1994","05","15","14:00","11.4","","11.2","","99","","12","","7","","2.4","","98.42","","","","","","Fog"
"1994-05-15 15:00","1994","05","15","15:00","11.3","","11.2","","99","","11","","6","","1.0","","98.42","","","","","","Fog"
"1994-05-15 16:00","1994","05","15","16:00","12.1","","11.3","","95","","","","0","","1.6","","98.39","","","","","","Fog"
"1994-05-15 17:00","1994","05","15","17:00","12.0","","11.0","","94","","","","0","","2.0","","98.36","","","","","","Thunderstorms,Rain Showers,Fog"
"1994-05-15 18:00","1994","05","15","18:00","12.1","","11.7","","97","","","","0","","2.0","","98.36","","","","","","Rain Showers,Fog"
"1994-05-15 19:00","1994","05","15","19:00","11.5","","11.2","","98","","6","","6","","2.0","","98.36","","","","","","Fog"
"1994-05-15 20:00","1994","05","15","20:00","11.4","","11.2","","99","","","","0","","4.0","","98.36","","","","","","Fog"
"1994-05-15 21:00","1994","05","15","21:00","11.5","","11.2","","98","","","","0","","4.0","","98.36","","","","","","Rain Showers,Fog"
"1994-05-15 22:00","1994","05","15","22:00","11.6","","11.2","","97","","","","0","","4.0","","98.36","","","","","","Rain Showers,Fog"
"1994-05-15 23:00","1994","05","15","23:00","11.3","","10.8","","97","","20","","6","","4.8","","98.29","","","","","","Fog"
"1994-05-16 00:00","1994","05","16","00:00","12.4","","11.5","","94","","28","","19","","24.1","","98.32","","","","","","Mostly Cloudy"
"1994-05-16 01:00","1994","05","16","01:00","11.0","","9.9","","93","","29","","13","","24.1","","98.36","","","","","","Clear"
"1994-05-16 02:00","1994","05","16","02:00","11.4","","9.3","","87","","29","","19","","24.1","","98.36","","","","","","Mostly Cloudy"
"1994-05-16 03:00","1994","05","16","03:00","9.8","","7.7","","87","","30","","19","","24.1","","98.39","","","","","","Mostly Cloudy"
"1994-05-16 04:00","1994","05","16","04:00","9.7","","7.6","","87","","27","","11","","24.1","","98.39","","","","","","Cloudy"
"1994-05-16 05:00","1994","05","16","05:00","10.0","","7.4","","84","","28","","15","","32.2","","98.39","","","","","","Cloudy"
"1994-05-16 06:00","1994","05","16","06:00","9.6","","7.2","","85","","29","","22","","32.2","","98.46","","","","","","Cloudy"
"1994-05-16 07:00","1994","05","16","07:00","8.5","","6.1","","85","","28","","24","","40.2","","98.52","","","","","","Cloudy"
"1994-05-16 08:00","1994","05","16","08:00","7.5","","5.5","","87","","27","","22","","40.2","","98.56","","","","","","Cloudy"
"1994-05-16 09:00","1994","05","16","09:00","6.9","","4.1","","82","","30","","22","","40.2","","98.62","","","","","","Cloudy"
"1994-05-16 10:00","1994","05","16","10:00","7.3","","4.6","","83","","27","","20","","32.2","","98.62","","","","","","Cloudy"
"1994-05-16 11:00","1994","05","16","11:00","7.8","","4.3","","78","","28","","24","","40.2","","98.66","","","","","","Cloudy"
"1994-05-16 12:00","1994","05","16","12:00","8.0","","3.9","","75","","29","","26","","32.2","","98.66","","","","","","Rain Showers"
"1994-05-16 13:00","1994","05","16","13:00","8.4","","4.0","","74","","30","","26","","32.2","","98.66","","","","","","Cloudy"
"1994-05-16 14:00","1994","05","16","14:00","8.0","","4.3","","77","","30","","26","","32.2","","98.72","","","","","","Rain Showers"
"1994-05-16 15:00","1994","05","16","15:00","7.5","","5.1","","85","","30","","26","","24.1","","98.76","","","","","","Rain"
"1994-05-16 16:00","1994","05","16","16:00","7.1","","5.8","","91","","33","","22","","8.0","","98.79","","","","","","Drizzle,Fog"
"1994-05-16 17:00","1994","05","16","17:00","7.3","","5.9","","91","","33","","28","","24.1","","98.79","","","","","","Drizzle"
"1994-05-16 18:00","1994","05","16","18:00","7.0","","5.4","","90","","34","","37","","24.1","","98.86","","","","","","Drizzle"
"1994-05-16 19:00","1994","05","16","19:00","6.5","","5.3","","92","","34","","37","","19.3","","98.96","","","","","","Rain Showers"
"1994-05-16 20:00","1994","05","16","20:00","6.5","","4.4","","86","","35","","41","","19.3","","99.06","","","","","","Cloudy"
"1994-05-16 21:00","1994","05","16","21:00","6.0","","3.9","","86","","35","","41","","19.3","","99.12","","","","","","Drizzle"
"1994-05-16 22:00","1994","05","16","22:00","5.6","","3.8","","88","","35","","41","","19.3","","99.16","","","","","","Cloudy"
"1994-05-16 23:00","1994","05","16","23:00","5.3","","3.8","","90","","35","","39","","25.0","","99.22","","","","","","Cloudy"
"1994-05-17 00:00","1994","05","17","00:00","5.3","","3.8","","90","","35","","37","","25.0","","99.29","","","","","","Cloudy"
"1994-05-17 01:00","1994","05","17","01:00","5.0","","3.3","","89","","35","","37","","25.0","","99.32","","","","","","Cloudy"
"1994-05-17 02:00","1994","05","17","02:00","4.8","","2.8","","87","","34","","37","","25.0","","99.35","","","","","","Cloudy"
"1994-05-17 03:00","1994","05","17","03:00","4.5","","2.7","","88","","35","","33","","25.0","","99.39","","","","","","Rain Showers"
"1994-05-17 04:00","1994","05","17","04:00","4.5","","2.3","","86","","35","","39","","25.0","","99.39","","","","","","Cloudy"
"1994-05-17 05:00","1994","05","17","05:00","4.5","","2.3","","86","","35","","32","","32.2","","99.49","","","","","","Mostly Cloudy"
"1994-05-17 06:00","1994","05","17","06:00","4.8","","2.8","","87","","35","","33","","40.2","","99.55","","","","","","Cloudy"
"1994-05-17 07:00","1994","05","17","07:00","5.0","","2.8","","86","","35","","37","","40.2","","99.65","","","","","","Mostly Cloudy"
"1994-05-17 08:00","1994","05","17","08:00","5.7","","2.9","","82","","35","","35","","40.2","","99.72","","","","","","Mostly Cloudy"
"1994-05-17 09:00","1994","05","17","09:00","7.0","","3.6","","79","","35","","30","","40.2","","99.82","","","","","","Mostly Cloudy"
"1994-05-17 10:00","1994","05","17","10:00","7.6","","4.2","","79","","35","","37","","40.2","","99.85","","","","","","Mostly Cloudy"
"1994-05-17 11:00","1994","05","17","11:00","8.0","","4.3","","77","","35","","32","","40.2","","99.89","","","","","","Mostly Cloudy"
"1994-05-17 12:00","1994","05","17","12:00","8.7","","4.9","","77","","34","","30","","40.2","","99.89","","","","","","Mostly Cloudy"
"1994-05-17 13:00","1994","05","17","13:00","10.7","","5.8","","72","","36","","30","","40.2","","99.85","","","","","","Mainly Clear"
"1994-05-17 14:00","1994","05","17","14:00","11.7","","6.1","","68","","35","","22","","40.2","","99.85","","","","","","Mainly Clear"
"1994-05-17 15:00","1994","05","17","15:00","13.3","","7.2","","67","","35","","28","","40.2","","99.85","","","","","","Mainly Clear"
"1994-05-17 16:00","1994","05","17","16:00","12.8","","6.6","","66","","35","","33","","40.2","","99.82","","","","","","Mostly Cloudy"
"1994-05-17 17:00","1994","05","17","17:00","12.6","","5.5","","62","","36","","22","","40.2","","99.85","","","","","","Mainly Clear"
"1994-05-17 18:00","1994","05","17","18:00","12.1","","4.9","","61","","35","","28","","40.2","","99.85","","","","","","Mainly Clear"
"1994-05-17 19:00","1994","05","17","19:00","11.0","","4.6","","65","","33","","37","","40.2","","99.85","","","","","","Mainly Clear"
"1994-05-17 20:00","1994","05","17","20:00","9.6","","3.8","","67","","33","","30","","40.2","","99.89","","","","","","Clear"
"1994-05-17 21:00","1994","05","17","21:00","8.3","","3.5","","72","","33","","24","","25.0","","99.92","","","","","","Clear"
"1994-05-17 22:00","1994","05","17","22:00","7.5","","3.3","","75","","34","","15","","25.0","","99.99","","","","","","Clear"
"1994-05-17 23:00","1994","05","17","23:00","7.0","","3.6","","79","","34","","15","","25.0","","99.99","","","","","","Mostly Cloudy"
"1994-05-18 00:00","1994","05","18","00:00","5.8","","2.5","","79","","34","","13","","25.0","","99.99","","","","","","Mainly Clear"
"1994-05-18 01:00","1994","05","18","01:00","5.0","","1.9","","80","","33","","13","","25.0","","99.92","","","","","","Mainly Clear"
"1994-05-18 02:00","1994","05","18","02:00","5.5","","2.0","","78","","34","","20","","25.0","","99.85","","","","","","Mostly Cloudy"
"1994-05-18 03:00","1994","05","18","03:00","6.0","","2.0","","75","","35","","19","","25.0","","99.82","","","","","","Mostly Cloudy"
"1994-05-18 04:00","1994","05","18","04:00","6.0","","2.0","","75","","35","","26","","25.0","","99.82","","","","","","Mostly Cloudy"
"1994-05-18 05:00","1994","05","18","05:00","6.0","","1.5","","73","","35","","24","","40.2","","99.82","","","","","","Mostly Cloudy"
"1994-05-18 06:00","1994","05","18","06:00","5.9","","1.5","","73","","36","","24","","40.2","","99.85","","","","","","Mostly Cloudy"
"1994-05-18 07:00","1994","05","18","07:00","6.2","","1.0","","69","","36","","28","","40.2","","99.92","","","","","","Mostly Cloudy"
"1994-05-18 08:00","1994","05","18","08:00","6.4","","1.6","","71","","36","","28","","40.2","","99.95","","","","","","Cloudy"
"1994-05-18 09:00","1994","05","18","09:00","7.8","","2.9","","71","","36","","24","","40.2","","99.95","","","","","","Mainly Clear"
"1994-05-18 10:00","1994","05","18","10:00","7.6","","2.8","","72","","36","","22","","40.2","","99.99","","","","","","Cloudy"
"1994-05-18 11:00","1994","05","18","11:00","9.1","","3.2","","67","","35","","19","","40.2","","99.95","","","","","","Mostly Cloudy"
"1994-05-18 12:00","1994","05","18","12:00","11.7","","4.8","","63","","35","","15","","40.2","","99.89","","","","","","Mostly Cloudy"
"1994-05-18 13:00","1994","05","18","13:00","13.6","","5.9","","60","","3","","19","","40.2","","99.89","","","","","","Mostly Cloudy"
"1994-05-18 14:00","1994","05","18","14:00","13.0","","6.6","","65","","34","","22","","40.2","","99.89","","","","","","Mostly Cloudy"
"1994-05-18 15:00","1994","05","18","15:00","13.6","","5.9","","60","","36","","24","","40.2","","99.89","","","","","","Mostly Cloudy"
"1994-05-18 16:00","1994","05","18","16:00","14.6","","6.2","","57","","36","","22","","40.2","","99.85","","","","","","Mainly Clear"
"1994-05-18 17:00","1994","05","18","17:00","15.3","","6.1","","54","","34","","22","","40.2","","99.85","","","","","","Mainly Clear"
"1994-05-18 18:00","1994","05","18","18:00","15.9","","6.3","","53","","36","","19","","40.2","","99.79","","","","","","Mainly Clear"
"1994-05-18 19:00","1994","05","18","19:00","14.1","","5.1","","55","","34","","26","","40.2","","99.85","","","","","","Mostly Cloudy"
"1994-05-18 20:00","1994","05","18","20:00","13.0","","7.0","","67","","34","","26","","25.0","","99.85","","","","","","Mainly Clear"
"1994-05-18 21:00","1994","05","18","21:00","12.0","","4.9","","62","","34","","22","","25.0","","99.85","","","","","","Mainly Clear"
"1994-05-18 22:00","1994","05","18","22:00","10.6","","4.5","","66","","34","","20","","25.0","","99.89","","","","","","Mainly Clear"
"1994-05-18 23:00","1994","05","18","23:00","9.8","","5.3","","74","","34","","19","","25.0","","99.89","","","","","","Mostly Cloudy"
"1994-05-19 00:00","1994","05","19","00:00","9.5","","4.7","","72","","35","","15","","25.0","","99.92","","","","","","Mostly Cloudy"
"1994-05-19 01:00","1994","05","19","01:00","9.6","","4.7","","71","","35","","15","","25.0","","99.95","","","","","","Mostly Cloudy"
"1994-05-19 02:00","1994","05","19","02:00","10.1","","4.8","","70","","36","","9","","25.0","","99.95","","","","","","Mostly Cloudy"
"1994-05-19 03:00","1994","05","19","03:00","9.5","","5.6","","77","","34","","13","","25.0","","99.95","","","","","","Mostly Cloudy"
"1994-05-19 04:00","1994","05","19","04:00","9.5","","5.6","","77","","36","","11","","25.0","","99.95","","","","","","Mostly Cloudy"
"1994-05-19 05:00","1994","05","19","05:00","9.5","","5.6","","77","","2","","11","","25.0","","99.99","","","","","","Cloudy"
"1994-05-19 06:00","1994","05","19","06:00","9.4","","5.6","","77","","36","","13","","24.1","","100.05","","","","","","Drizzle"
"1994-05-19 07:00","1994","05","19","07:00","9.8","","8.1","","89","","1","","7","","19.3","","100.09","","","","","","Rain Showers"
"1994-05-19 08:00","1994","05","19","08:00","11.3","","7.8","","79","","1","","7","","32.2","","100.12","","","","","","Mostly Cloudy"
"1994-05-19 09:00","1994","05","19","09:00","11.3","","8.6","","83","","14","","11","","32.2","","100.15","","","","","","Cloudy"
"1994-05-19 10:00","1994","05","19","10:00","12.0","","8.3","","78","","17","","7","","32.2","","100.15","","","","","","Mostly Cloudy"
"1994-05-19 11:00","1994","05","19","11:00","12.5","","7.7","","73","","16","","6","","32.2","","100.12","","","","","","Cloudy"
"1994-05-19 12:00","1994","05","19","12:00","13.8","","7.4","","65","","12","","4","","24.1","","100.05","","","","","","Mostly Cloudy"
"1994-05-19 13:00","1994","05","19","13:00","16.0","","8.5","","61","","","","0","","32.2","","99.99","","","","","","Mainly Clear"
"1994-05-19 14:00","1994","05","19","14:00","15.4","","8.3","","63","","15","","17","","32.2","","99.95","","","","","","Mainly Clear"
"1994-05-19 15:00","1994","05","19","15:00","17.3","","9.1","","59","","18","","11","","32.2","","99.89","","","","","","Mainly Clear"
"1994-05-19 16:00","1994","05","19","16:00","15.1","","7.3","","60","","14","","17","","25.0","","99.85","","","","","","Mainly Clear"
"1994-05-19 17:00","1994","05","19","17:00","15.3","","7.9","","61","","15","","13","","25.0","","99.82","","","","","","Mainly Clear"
"1994-05-19 18:00","1994","05","19","18:00","13.9","","6.9","","63","","13","","11","","25.0","","99.85","","","","","","Mainly Clear"
"1994-05-19 19:00","1994","05","19","19:00","12.5","","6.0","","65","","14","","9","","24.1","","99.85","","","","","","Mainly Clear"
"1994-05-19 20:00","1994","05","19","20:00","10.5","","7.1","","79","","17","","6","","24.1","","99.85","","","","","","Mainly Clear"
"1994-05-19 21:00","1994","05","19","21:00","11.3","","6.5","","72","","15","","4","","24.1","","99.92","","","","","","Clear"
"1994-05-19 22:00","1994","05","19","22:00","10.4","","6.7","","78","","","","0","","24.1","","99.95","","","","","","Clear"
"1994-05-19 23:00","1994","05","19","23:00","9.3","","6.4","","82","","32","","7","","24.1","","99.95","","","","","","Clear"
"1994-05-20 00:00","1994","05","20","00:00","8.9","","6.3","","84","","","","0","","25.0","","99.95","","","","","","Clear"
"1994-05-20 01:00","1994","05","20","01:00","8.0","","6.0","","87","","29","","6","","25.0","","99.92","","","","","","Clear"
"1994-05-20 02:00","1994","05","20","02:00","8.0","","6.0","","87","","","","0","","19.3","","99.89","","","","","","Clear"
"1994-05-20 03:00","1994","05","20","03:00","7.2","","5.4","","88","","31","","6","","19.3","","99.85","","","","","","Clear"
"1994-05-20 04:00","1994","05","20","04:00","6.1","","4.8","","91","","33","","7","","19.3","","99.85","","","","","","Mainly Clear"
"1994-05-20 05:00","1994","05","20","05:00","6.2","","4.3","","88","","31","","6","","19.3","","99.89","","","","","","Mainly Clear"
"1994-05-20 06:00","1994","05","20","06:00","7.9","","6.0","","88","","33","","6","","24.1","","99.89","","","","","","Mainly Clear"
"1994-05-20 07:00","1994","05","20","07:00","11.5","","7.8","","78","","34","","4","","24.1","","99.95","","","","","","Mainly Clear"
"1994-05-20 08:00","1994","05","20","08:00","13.7","","8.8","","72","","34","","7","","40.2","","99.99","","","","","","Clear"
"1994-05-20 09:00","1994","05","20","09:00","16.1","","8.9","","62","","","","0","","40.2","","99.99","","","","","","Clear"
"1994-05-20 10:00","1994","05","20","10:00","18.2","","8.9","","55","","","","0","","40.2","","99.99","","","","","","Clear"
"1994-05-20 11:00","1994","05","20","11:00","21.2","","8.9","","45","","13","","13","","40.2","","99.95","","","","","","Clear"
"1994-05-20 12:00","1994","05","20","12:00","20.5","","8.3","","45","","18","","15","","40.2","","99.89","","","","","","Mainly Clear"
"1994-05-20 13:00","1994","05","20","13:00","20.7","","6.9","","41","","15","","13","","40.2","","99.85","","","","","","Mainly Clear"
"1994-05-20 14:00","1994","05","20","14:00","21.5","","4.9","","34","","17","","15","","40.2","","99.79","","","","","","Mainly Clear"
"1994-05-20 15:00","1994","05","20","15:00","21.0","","2.9","","30","","16","","19","","40.2","","99.75","","","","","","Mainly Clear"
"1994-05-20 16:00","1994","05","20","16:00","21.0","","-0.9","","23","","16","","19","","40.2","","99.69","","","","","","Mainly Clear"
"1994-05-20 17:00","1994","05","20","17:00","21.0","","2.4","","29","","16","","15","","40.2","","99.65","","","","","","Mainly Clear"
"1994-05-20 18:00","1994","05","20","18:00","20.6","","1.5","","28","","16","","15","","40.2","","99.69","","","","","","Mainly Clear"
"1994-05-20 19:00","1994","05","20","19:00","19.8","","2.4","","31","","16","","9","","40.2","","99.69","","","","","","Clear"
"1994-05-20 20:00","1994","05","20","20:00","17.7","","3.5","","39","","","","0","","25.0","","99.69","","","","","","Clear"
"1994-05-20 21:00","1994","05","20","21:00","14.8","","6.9","","59","","34","","9","","25.0","","99.72","","","","","","Clear"
"1994-05-20 22:00","1994","05","20","22:00","15.6","","5.7","","52","","","","0","","25.0","","99.72","","","","","","Clear"
"1994-05-20 23:00","1994","05","20","23:00","13.8","","7.4","","65","","34","","7","","25.0","","99.72","","","","","","Clear"
"1994-05-21 00:00","1994","05","21","00:00","13.0","","7.0","","67","","33","","4","","25.0","","99.72","","","","","","Mainly Clear"
"1994-05-21 01:00","1994","05","21","01:00","12.9","","7.0","","67","","","","0","","25.0","","99.72","","","","","","Mainly Clear"
"1994-05-21 02:00","1994","05","21","02:00","12.4","","6.9","","69","","","","0","","25.0","","99.72","","","","","","Mainly Clear"
"1994-05-21 03:00","1994","05","21","03:00","10.2","","6.5","","78","","","","0","","25.0","","99.72","","","","","","Mainly Clear"
"1994-05-21 04:00","1994","05","21","04:00","11.5","","8.2","","80","","","","0","","25.0","","99.72","","","","","","Mostly Cloudy"
"1994-05-21 05:00","1994","05","21","05:00","12.0","","7.9","","76","","","","0","","40.2","","99.75","","","","","","Mostly Cloudy"
"1994-05-21 06:00","1994","05","21","06:00","12.4","","9.3","","81","","","","0","","40.2","","99.79","","","","","","Mostly Cloudy"
"1994-05-21 07:00","1994","05","21","07:00","14.6","","10.0","","74","","","","0","","40.2","","99.89","","","","","","Mostly Cloudy"
"1994-05-21 08:00","1994","05","21","08:00","17.9","","9.3","","57","","","","0","","40.2","","99.89","","","","","","Mainly Clear"
"1994-05-21 09:00","1994","05","21","09:00","20.0","","7.6","","45","","","","0","","40.2","","99.89","","","","","","Mainly Clear"
"1994-05-21 10:00","1994","05","21","10:00","21.8","","9.0","","44","","17","","4","","40.2","","99.89","","","","","","Mostly Cloudy"
"1994-05-21 11:00","1994","05","21","11:00","22.5","","9.2","","43","","","","0","","40.2","","99.89","","","","","","Mostly Cloudy"
"1994-05-21 12:00","1994","05","21","12:00","22.8","","10.0","","44","","13","","6","","40.2","","99.85","","","","","","Mostly Cloudy"
"1994-05-21 13:00","1994","05","21","13:00","23.8","","11.3","","45","","13","","13","","40.2","","99.79","","26","","","","Mainly Clear"
"1994-05-21 14:00","1994","05","21","14:00","24.0","","10.4","","42","","13","","17","","40.2","","99.75","","25","","","","Mainly Clear"
"1994-05-21 15:00","1994","05","21","15:00","24.7","","10.7","","41","","14","","17","","40.2","","99.69","","26","","","","Mostly Cloudy"
"1994-05-21 16:00","1994","05","21","16:00","24.4","","10.7","","42","","15","","13","","40.2","","99.65","","26","","","","Mainly Clear"
"1994-05-21 17:00","1994","05","21","17:00","24.2","","10.4","","42","","16","","13","","40.2","","99.65","","26","","","","Mainly Clear"
"1994-05-21 18:00","1994","05","21","18:00","24.0","","10.4","","42","","15","","13","","40.2","","99.65","","25","","","","Clear"
"1994-05-21 19:00","1994","05","21","19:00","23.9","","11.7","","46","","16","","9","","40.2","","99.65","","26","","","","Clear"
"1994-05-21 20:00","1994","05","21","20:00","21.5","","12.4","","56","","12","","6","","25.0","","99.65","","","","","","Clear"
"1994-05-21 21:00","1994","05","21","21:00","18.9","","12.5","","66","","1","","6","","25.0","","99.69","","","","","","Clear"
"1994-05-21 22:00","1994","05","21","22:00","17.2","","11.6","","70","","35","","11","","25.0","","99.72","","","","","","Clear"
"1994-05-21 23:00","1994","05","21","23:00","16.0","","10.9","","72","","33","","11","","25.0","","99.72","","","","","","Clear"
"1994-05-22 00:00","1994","05","22","00:00","16.0","","9.7","","66","","27","","4","","25.0","","99.72","","","","","","Clear"
"1994-05-22 01:00","1994","05","22","01:00","15.2","","9.8","","70","","30","","7","","25.0","","99.69","","","","","","Clear"
"1994-05-22 02:00","1994","05","22","02:00","15.0","","10.5","","74","","29","","6","","25.0","","99.65","","","","","","Clear"
"1994-05-22 03:00","1994","05","22","03:00","14.4","","10.7","","78","","29","","9","","25.0","","99.62","","","","","","Clear"
"1994-05-22 04:00","1994","05","22","04:00","14.8","","10.1","","73","","26","","4","","25.0","","99.62","","","","","","Clear"
"1994-05-22 05:00","1994","05","22","05:00","14.5","","11.1","","80","","","","0","","25.0","","99.65","","","","","","Clear"
"1994-05-22 06:00","1994","05","22","06:00","15.5","","9.9","","69","","","","0","","24.1","","99.69","","","","","","Clear"
"1994-05-22 07:00","1994","05","22","07:00","18.1","","10.9","","63","","","","0","","24.1","","99.69","","","","","","Clear"
"1994-05-22 08:00","1994","05","22","08:00","20.1","","10.6","","54","","","","0","","22.5","","99.72","","","","","","Clear"
"1994-05-22 09:00","1994","05","22","09:00","22.7","","10.5","","46","","","","0","","24.1","","99.69","","","","","","Clear"
"1994-05-22 10:00","1994","05","22","10:00","22.8","","12.0","","51","","15","","11","","19.3","","99.65","","25","","","","Clear"
"1994-05-22 11:00","1994","05","22","11:00","24.5","","12.3","","47","","14","","13","","17.7","","99.65","","27","","","","Clear"
"1994-05-22 12:00","1994","05","22","12:00","25.5","","12.8","","45","","16","","17","","17.7","","99.59","","28","","","","Clear"
"1994-05-22 13:00","1994","05","22","13:00","26.8","","13.6","","44","","15","","15","","17.7","","99.52","","30","","","","Clear"
"1994-05-22 14:00","1994","05","22","14:00","27.2","","12.4","","40","","17","","15","","24.1","","99.45","","30","","","","Clear"
"1994-05-22 15:00","1994","05","22","15:00","27.5","","14.3","","44","","15","","15","","24.1","","99.35","","31","","","","Mainly Clear"
"1994-05-22 16:00","1994","05","22","16:00","27.8","","13.4","","41","","16","","15","","24.1","","99.32","","31","","","","Mainly Clear"
"1994-05-22 17:00","1994","05","22","17:00","27.2","","13.2","","42","","17","","13","","24.1","","99.29","","30","","","","Mostly Cloudy"
"1994-05-22 18:00","1994","05","22","18:00","26.5","","14.9","","49","","16","","11","","32.2","","99.26","","30","","","","Mostly Cloudy"
"1994-05-22 19:00","1994","05","22","19:00","25.5","","14.7","","51","","19","","7","","32.2","","99.19","","29","","","","Mostly Cloudy"
"1994-05-22 20:00","1994","05","22","20:00","23.3","","15.2","","60","","34","","19","","32.2","","99.26","","27","","","","Mostly Cloudy"
"1994-05-22 21:00","1994","05","22","21:00","20.8","","13.3","","62","","34","","6","","25.0","","99.26","","","","","","Mainly Clear"
"1994-05-22 22:00","1994","05","22","22:00","19.2","","13.5","","70","","34","","7","","25.0","","99.26","","","","","","Clear"
"1994-05-22 23:00","1994","05","22","23:00","19.6","","12.7","","64","","29","","6","","25.0","","99.19","","","","","","Clear"
"1994-05-23 00:00","1994","05","23","00:00","18.5","","13.0","","70","","28","","7","","25.0","","99.16","","","","","","Mainly Clear"
"1994-05-23 01:00","1994","05","23","01:00","17.4","","13.3","","77","","32","","7","","25.0","","99.16","","","","","","Mainly Clear"
"1994-05-23 02:00","1994","05","23","02:00","16.5","","12.9","","79","","33","","9","","25.0","","99.09","","","","","","Mainly Clear"
"1994-05-23 03:00","1994","05","23","03:00","16.8","","12.7","","77","","34","","7","","25.0","","99.06","","","","","","Mainly Clear"
"1994-05-23 04:00","1994","05","23","04:00","16.0","","12.3","","79","","32","","9","","25.0","","99.02","","","","","","Mostly Cloudy"
"1994-05-23 05:00","1994","05","23","05:00","16.6","","11.4","","71","","36","","15","","24.1","","99.06","","","","","","Mostly Cloudy"
"1994-05-23 06:00","1994","05","23","06:00","15.0","","11.3","","79","","34","","15","","24.1","","99.09","","","","","","Mostly Cloudy"
"1994-05-23 07:00","1994","05","23","07:00","15.7","","11.8","","78","","36","","19","","40.2","","99.12","","","","","","Mainly Clear"
"1994-05-23 08:00","1994","05","23","08:00","17.3","","12.6","","74","","36","","19","","24.1","","99.19","","","","","","Mainly Clear"
"1994-05-23 09:00","1994","05","23","09:00","18.7","","13.3","","71","","35","","24","","24.1","","99.22","","","","","","Mainly Clear"
"1994-05-23 10:00","1994","05","23","10:00","19.9","","14.0","","69","","1","","19","","24.1","","99.22","","","","","","Mainly Clear"
"1994-05-23 11:00","1994","05","23","11:00","22.8","","15.0","","61","","35","","22","","40.2","","99.19","","27","","","","Mainly Clear"
"1994-05-23 12:00","1994","05","23","12:00","24.0","","12.8","","50","","36","","26","","40.2","","99.19","","27","","","","Mostly Cloudy"
"1994-05-23 13:00","1994","05","23","13:00","23.9","","11.3","","45","","36","","24","","40.2","","99.16","","26","","","","Mostly Cloudy"
"1994-05-23 14:00","1994","05","23","14:00","22.8","","11.2","","48","","36","","26","","40.2","","99.19","","25","","","","Mainly Clear"
"1994-05-23 15:00","1994","05","23","15:00","22.0","","10.7","","49","","34","","28","","40.2","","99.16","","","","","","Mostly Cloudy"
"1994-05-23 16:00","1994","05","23","16:00","21.5","","9.6","","47","","34","","26","","40.2","","99.16","","","","","","Mainly Clear"
"1994-05-23 17:00","1994","05","23","17:00","20.0","","9.8","","52","","35","","26","","40.2","","99.16","","","","","","Mainly Clear"
"1994-05-23 18:00","1994","05","23","18:00","18.5","","9.1","","54","","35","","26","","40.2","","99.16","","","","","","Mainly Clear"
"1994-05-23 19:00","1994","05","23","19:00","17.0","","8.1","","56","","35","","24","","40.2","","99.19","","","","","","Mainly Clear"
"1994-05-23 20:00","1994","05","23","20:00","15.0","","7.7","","62","","35","","20","","40.2","","99.26","","","","","","Clear"
"1994-05-23 21:00","1994","05","23","21:00","13.5","","7.6","","67","","36","","19","","25.0","","99.26","","","","","","Mostly Cloudy"
"1994-05-23 22:00","1994","05","23","22:00","12.6","","7.7","","72","","33","","15","","25.0","","99.29","","","","","","Cloudy"
"1994-05-23 23:00","1994","05","23","23:00","11.7","","7.4","","75","","35","","17","","25.0","","99.32","","","","","","Mainly Clear"
"1994-05-24 00:00","1994","05","24","00:00","11.1","","7.6","","79","","35","","13","","25.0","","99.29","","","","","","Mainly Clear"
"1994-05-24 01:00","1994","05","24","01:00","10.0","","6.9","","81","","33","","9","","25.0","","99.29","","","","","","Mainly Clear"
"1994-05-24 02:00","1994","05","24","02:00","10.1","","6.9","","80","","33","","6","","25.0","","99.29","","","","","","Mainly Clear"
"1994-05-24 03:00","1994","05","24","03:00","9.0","","7.1","","88","","34","","7","","25.0","","99.32","","","","","","Mainly Clear"
"1994-05-24 04:00","1994","05","24","04:00","9.1","","6.7","","85","","","","0","","25.0","","99.29","","","","","","Mostly Cloudy"
"1994-05-24 05:00","1994","05","24","05:00","10.1","","7.7","","85","","36","","4","","40.2","","99.26","","","","","","Mostly Cloudy"
"1994-05-24 06:00","1994","05","24","06:00","11.0","","8.0","","82","","31","","4","","40.2","","99.29","","","","","","Mostly Cloudy"
"1994-05-24 07:00","1994","05","24","07:00","13.4","","9.2","","76","","","","0","","40.2","","99.29","","","","","","Mostly Cloudy"
"1994-05-24 08:00","1994","05","24","08:00","14.5","","12.2","","86","","34","","4","","6.4","","99.35","","","","","","Haze"
"1994-05-24 09:00","1994","05","24","09:00","16.0","","12.7","","81","","33","","4","","8.0","","99.39","","","","","","Rain Showers,Haze"
"1994-05-24 10:00","1994","05","24","10:00","17.6","","6.5","","48","","19","","11","","40.2","","99.22","","","","","","Mostly Cloudy"
"1994-05-24 11:00","1994","05","24","11:00","19.2","","6.2","","43","","17","","11","","40.2","","99.19","","","","","","Mostly Cloudy"
"1994-05-24 12:00","1994","05","24","12:00","19.6","","6.4","","42","","22","","15","","40.2","","99.12","","","","","","Cloudy"
"1994-05-24 13:00","1994","05","24","13:00","19.1","","8.5","","50","","21","","13","","32.2","","99.06","","","","","","Rain Showers"
"1994-05-24 14:00","1994","05","24","14:00","18.6","","9.5","","55","","20","","11","","24.1","","99.02","","","","","","Rain Showers"
"1994-05-24 15:00","1994","05","24","15:00","18.4","","10.3","","59","","21","","6","","24.1","","98.92","","","","","","Rain"
"1994-05-24 16:00","1994","05","24","16:00","17.4","","11.8","","70","","23","","7","","16.1","","98.86","","","","","","Rain"
"1994-05-24 17:00","1994","05","24","17:00","16.7","","11.8","","73","","22","","4","","19.3","","98.82","","","","","","Rain"
"1994-05-24 18:00","1994","05","24","18:00","15.1","","13.4","","90","","13","","4","","16.1","","98.76","","","","","","Rain Showers"
"1994-05-24 19:00","1994","05","24","19:00","14.7","","13.2","","91","","","","0","","16.1","","98.72","","","","","","Rain"
"1994-05-24 20:00","1994","05","24","20:00","14.5","","12.8","","90","","","","0","","16.1","","98.66","","","","","","Rain"
"1994-05-24 21:00","1994","05","24","21:00","14.7","","12.5","","87","","9","","7","","19.3","","98.59","","","","","","Cloudy"
"1994-05-24 22:00","1994","05","24","22:00","12.8","","11.6","","92","","15","","11","","19.3","","98.56","","","","","","Cloudy"
"1994-05-24 23:00","1994","05","24","23:00","10.5","","8.7","","89","","17","","9","","16.1","","98.52","","","","","","Cloudy"
"1994-05-25 00:00","1994","05","25","00:00","10.8","","9.6","","92","","","","0","","11.3","","98.46","","","","","","Mostly Cloudy"
"1994-05-25 01:00","1994","05","25","01:00","10.5","","9.4","","93","","","","0","","11.3","","98.42","","","","","","Cloudy"
"1994-05-25 02:00","1994","05","25","02:00","10.4","","9.8","","96","","33","","7","","9.7","","98.36","","","","","","Fog"
"1994-05-25 03:00","1994","05","25","03:00","10.4","","9.4","","94","","35","","6","","11.3","","98.29","","","","","","Mostly Cloudy"
"1994-05-25 04:00","1994","05","25","04:00","11.0","","9.9","","93","","33","","7","","11.3","","98.29","","","","","","Mainly Clear"
"1994-05-25 05:00","1994","05","25","05:00","10.5","","9.4","","93","","34","","7","","6.4","","98.29","","","","","","Fog"
"1994-05-25 06:00","1994","05","25","06:00","12.0","","11.0","","94","","","","0","","6.4","","98.36","","","","","","Fog"
"1994-05-25 07:00","1994","05","25","07:00","14.0","","12.3","","89","","34","","7","","6.4","","98.36","","","","","","Fog"
"1994-05-25 08:00","1994","05","25","08:00"
"1994-05-25 09:00","1994","05","25","09:00","16.0","","12.7","","81","","33","","4","","8.0","","98.39","","","","","","Rain Showers,Haze"
"1994-05-25 10:00","1994","05","25","10:00","16.4","","13.2","","81","","","","0","","9.7","","98.39","","","","","","Haze"
"1994-05-25 11:00","1994","05","25","11:00","17.1","","13.4","","79","","1","","4","","8.0","","98.39","","","","","","Haze"
"1994-05-25 12:00","1994","05","25","12:00","17.0","","13.1","","78","","2","","7","","6.4","","98.39","","","","","","Haze"
"1994-05-25 13:00","1994","05","25","13:00","17.5","","12.6","","73","","","","0","","6.4","","98.39","","","","","","Haze"
"1994-05-25 14:00","1994","05","25","14:00","17.5","","12.2","","71","","14","","7","","8.0","","98.39","","","","","","Haze"
"1994-05-25 15:00","1994","05","25","15:00","18.0","","11.7","","67","","11","","6","","12.9","","98.36","","","","","","Cloudy"
"1994-05-25 16:00","1994","05","25","16:00","18.2","","11.3","","64","","","","0","","12.9","","98.32","","","","","","Cloudy"
"1994-05-25 17:00","1994","05","25","17:00","16.8","","13.8","","82","","2","","9","","11.3","","98.26","","","","","","Mostly Cloudy"
"1994-05-25 18:00","1994","05","25","18:00","17.3","","14.0","","81","","5","","11","","9.7","","98.26","","","","","","Haze"
"1994-05-25 19:00","1994","05","25","19:00","16.3","","13.2","","82","","3","","13","","9.7","","98.29","","","","","","Haze"
"1994-05-25 20:00","1994","05","25","20:00","14.9","","13.4","","91","","34","","22","","8.0","","98.36","","","","","","Thunderstorms,Rain Showers,Fog"
"1994-05-25 21:00","1994","05","25","21:00","14.5","","13.2","","92","","4","","7","","12.9","","98.36","","","","","","Cloudy"
"1994-05-25 22:00","1994","05","25","22:00","13.0","","11.6","","91","","13","","15","","9.7","","98.36","","","","","","Fog"
"1994-05-25 23:00","1994","05","25","23:00","12.7","","11.1","","90","","12","","9","","9.7","","98.36","","","","","","Fog"
"1994-05-26 00:00","1994","05","26","00:00","13.0","","11.3","","89","","10","","13","","9.7","","98.29","","","","","","Fog"
"1994-05-26 01:00","1994","05","26","01:00","13.0","","11.3","","89","","10","","9","","9.7","","98.22","","","","","","Fog"
"1994-05-26 02:00","1994","05","26","02:00","13.0","","12.0","","94","","6","","15","","9.7","","98.16","","","","","","Fog"
"1994-05-26 03:00","1994","05","26","03:00","13.0","","12.0","","94","","7","","13","","9.7","","98.09","","","","","","Fog"
"1994-05-26 04:00","1994","05","26","04:00","12.8","","11.6","","92","","7","","17","","9.7","","98.06","","","","","","Fog"
"1994-05-26 05:00","1994","05","26","05:00","12.8","","12.3","","97","","7","","19","","4.8","","97.99","","","","","","Rain Showers,Fog"
"1994-05-26 06:00","1994","05","26","06:00","11.6","","10.4","","92","","8","","22","","12.9","","97.89","","","","","","Rain Showers"
"1994-05-26 07:00","1994","05","26","07:00","10.8","","9.2","","90","","32","","9","","9.7","","97.96","","","","","","Thunderstorms,Rain Showers,Fog"
"1994-05-26 08:00","1994","05","26","08:00","8.4","","7.7","","95","","3","","22","","11.3","","97.89","","","","","","Rain Showers"
"1994-05-26 09:00","1994","05","26","09:00","8.6","","7.4","","92","","2","","13","","8.0","","97.89","","","","","","Rain Showers,Fog"
"1994-05-26 10:00","1994","05","26","10:00","7.8","","7.2","","96","","1","","19","","6.4","","97.89","","","","","","Rain Showers,Fog"
"1994-05-26 11:00","1994","05","26","11:00","7.2","","5.8","","91","","2","","22","","6.4","","97.92","","","","","","Rain Showers,Fog"
"1994-05-26 12:00","1994","05","26","12:00","6.8","","5.8","","93","","2","","22","","4.8","","97.96","","","","","","Rain Showers,Fog"
"1994-05-26 13:00","1994","05","26","13:00","6.3","","5.7","","96","","2","","26","","6.4","","97.99","","","","","","Rain Showers,Fog"
"1994-05-26 14:00","1994","05","26","14:00","6.2","","4.8","","91","","2","","19","","4.8","","98.09","","","","","","Rain Showers,Fog"
"1994-05-26 15:00","1994","05","26","15:00","6.5","","5.3","","92","","2","","22","","6.4","","98.19","","","","","","Rain Showers,Fog"
"1994-05-26 16:00","1994","05","26","16:00","5.2","","3.7","","90","","2","","33","","6.4","","98.36","","","","","","Rain,Fog"
"1994-05-26 17:00","1994","05","26","17:00","4.0","","2.7","","91","","1","","26","","6.4","","98.56","","","","","","Rain,Fog"
"1994-05-26 18:00","1994","05","26","18:00","4.3","","2.7","","89","","36","","32","","8.0","","98.66","","","","","","Rain,Fog"
"1994-05-26 19:00","1994","05","26","19:00","4.2","","2.2","","87","","1","","26","","8.0","","98.82","","","","","","Rain,Fog"
"1994-05-26 20:00","1994","05","26","20:00","3.9","","3.1","","95","","34","","26","","9.7","","98.96","","","","","","Rain"
"1994-05-26 21:00","1994","05","26","21:00","4.1","","2.7","","91","","34","","22","","19.3","","99.09","","","","","","Rain"
"1994-05-26 22:00","1994","05","26","22:00","4.8","","1.9","","81","","7","","19","","19.3","","99.06","","","","","","Mostly Cloudy"
"1994-05-26 23:00","1994","05","26","23:00","4.6","","2.7","","87","","33","","11","","24.1","","99.09","","","","","","Mostly Cloudy"
"1994-05-27 00:00","1994","05","27","00:00","3.9","","2.2","","89","","28","","9","","25.0","","99.12","","","","","","Mainly Clear"
"1994-05-27 01:00","1994","05","27","01:00","2.8","","2.1","","95","","26","","9","","25.0","","99.16","","","","","","Clear"
"1994-05-27 02:00","1994","05","27","02:00","2.6","","1.1","","90","","26","","11","","25.0","","99.16","","","","","","Clear"
"1994-05-27 03:00","1994","05","27","03:00","2.0","","0.6","","90","","29","","7","","25.0","","99.16","","","","","","Clear"
"1994-05-27 04:00","1994","05","27","04:00","2.5","","0.1","","84","","33","","15","","25.0","","99.22","","","","","","Clear"
"1994-05-27 05:00","1994","05","27","05:00","2.3","","0.1","","85","","33","","15","","40.2","","99.29","","","","","","Clear"
"1994-05-27 06:00","1994","05","27","06:00","4.0","","0.3","","77","","34","","19","","40.2","","99.35","","","","","","Clear"
"1994-05-27 07:00","1994","05","27","07:00","6.0","","0.0","","65","","35","","15","","40.2","","99.45","","","","","","Clear"
"1994-05-27 08:00","1994","05","27","08:00","7.4","","0.8","","63","","36","","19","","40.2","","99.49","","","","","","Clear"
"1994-05-27 09:00","1994","05","27","09:00","8.6","","0.5","","57","","32","","15","","40.2","","99.52","","","","","","Clear"
"1994-05-27 10:00","1994","05","27","10:00","10.0","","0.3","","51","","33","","19","","40.2","","99.52","","","","","","Clear"
"1994-05-27 11:00","1994","05","27","11:00","11.2","","0.6","","48","","35","","19","","40.2","","99.52","","","","","","Clear"
"1994-05-27 12:00","1994","05","27","12:00","12.8","","0.6","","43","","33","","15","","40.2","","99.49","","","","","","Clear"
"1994-05-27 13:00","1994","05","27","13:00","13.2","","1.2","","44","","33","","19","","40.2","","99.49","","","","","","Clear"
"1994-05-27 14:00","1994","05","27","14:00","14.3","","2.3","","44","","30","","19","","40.2","","99.45","","","","","","Mainly Clear"
"1994-05-27 15:00","1994","05","27","15:00","14.0","","-0.9","","36","","30","","11","","40.2","","99.42","","","","","","Mainly Clear"
"1994-05-27 16:00","1994","05","27","16:00","14.8","","0.1","","37","","30","","15","","40.2","","99.42","","","","","","Mainly Clear"
"1994-05-27 17:00","1994","05","27","17:00","14.8","","1.3","","40","","29","","26","","40.2","","99.39","","","","","","Mainly Clear"
"1994-05-27 18:00","1994","05","27","18:00","13.9","","-0.2","","38","","29","","26","","40.2","","99.42","","","","","","Clear"
"1994-05-27 19:00","1994","05","27","19:00","12.6","","-0.2","","41","","27","","20","","40.2","","99.45","","","","","","Clear"
"1994-05-27 20:00","1994","05","27","20:00","10.3","","-0.2","","48","","27","","17","","25.0","","99.45","","","","","","Clear"
"1994-05-27 21:00","1994","05","27","21:00","8.8","","0.0","","54","","26","","13","","25.0","","99.49","","","","","","Clear"
"1994-05-27 22:00","1994","05","27","22:00","8.5","","-0.1","","55","","25","","13","","25.0","","99.49","","","","","","Clear"
"1994-05-27 23:00","1994","05","27","23:00","7.8","","0.9","","62","","25","","13","","25.0","","99.49","","","","","","Clear"
"1994-05-28 00:00","1994","05","28","00:00","7.1","","0.7","","64","","26","","15","","25.0","","99.52","","","","","","Clear"
"1994-05-28 01:00","1994","05","28","01:00","6.4","","1.1","","69","","25","","11","","25.0","","99.49","","","","","","Clear"
"1994-05-28 02:00","1994","05","28","02:00","7.0","","0.2","","62","","24","","9","","25.0","","99.45","","","","","","Mainly Clear"
"1994-05-28 03:00","1994","05","28","03:00","7.1","","2.2","","71","","26","","13","","24.1","","99.42","","","","","","Mostly Cloudy"
"1994-05-28 04:00","1994","05","28","04:00","7.7","","2.3","","69","","27","","13","","22.5","","99.42","","","","","","Mostly Cloudy"
"1994-05-28 05:00","1994","05","28","05:00","8.9","","2.7","","65","","27","","15","","25.0","","99.42","","","","","","Mostly Cloudy"
"1994-05-28 06:00","1994","05","28","06:00","9.4","","2.3","","61","","27","","17","","25.0","","99.42","","","","","","Mostly Cloudy"
"1994-05-28 07:00","1994","05","28","07:00","9.2","","2.7","","64","","26","","13","","40.2","","99.45","","","","","","Mostly Cloudy"
"1994-05-28 08:00","1994","05","28","08:00","12.0","","4.0","","58","","25","","13","","40.2","","99.45","","","","","","Mostly Cloudy"
"1994-05-28 09:00","1994","05","28","09:00","13.0","","0.6","","43","","27","","30","","40.2","","99.45","","","","","","Mostly Cloudy"
"1994-05-28 10:00","1994","05","28","10:00","14.0","","2.6","","46","","26","","24","","40.2","","99.45","","","","","","Mostly Cloudy"
"1994-05-28 11:00","1994","05","28","11:00","14.0","","4.2","","52","","27","","28","","40.2","","99.42","","","","","","Rain Showers"
"1994-05-28 12:00","1994","05","28","12:00","13.3","","5.0","","57","","31","","28","","24.1","","99.52","","","","","","Rain Showers"
"1994-05-28 13:00","1994","05","28","13:00","13.0","","7.0","","67","","29","","15","","32.2","","99.49","","","","","","Mostly Cloudy"
"1994-05-28 14:00","1994","05","28","14:00","12.8","","7.9","","72","","26","","28","","19.3","","99.49","","","","","","Rain Showers"
"1994-05-28 15:00","1994","05","28","15:00","13.9","","7.4","","65","","25","","22","","24.1","","99.39","","","","","","Mostly Cloudy"
"1994-05-28 16:00","1994","05","28","16:00","16.5","","9.5","","63","","27","","20","","24.1","","99.39","","","","","","Mostly Cloudy"
"1994-05-28 17:00","1994","05","28","17:00","16.9","","10.5","","66","","30","","17","","32.2","","99.39","","","","","","Mostly Cloudy"
"1994-05-28 18:00","1994","05","28","18:00","17.0","","8.1","","56","","26","","19","","24.1","","99.39","","","","","","Mostly Cloudy"
"1994-05-28 19:00","1994","05","28","19:00","16.5","","7.4","","55","","25","","19","","25.0","","99.39","","","","","","Mostly Cloudy"
"1994-05-28 20:00","1994","05","28","20:00","14.5","","9.2","","70","","24","","19","","24.1","","99.42","","","","","","Mostly Cloudy"
"1994-05-28 21:00","1994","05","28","21:00","13.0","","9.1","","77","","26","","15","","24.1","","99.49","","","","","","Mainly Clear"
"1994-05-28 22:00","1994","05","28","22:00","12.0","","8.7","","80","","22","","11","","24.1","","99.52","","","","","","Mostly Cloudy"
"1994-05-28 23:00","1994","05","28","23:00","12.2","","8.7","","79","","25","","4","","25.0","","99.52","","","","","","Mostly Cloudy"
"1994-05-29 00:00","1994","05","29","00:00","12.0","","9.1","","82","","27","","4","","25.0","","99.52","","","","","","Mainly Clear"
"1994-05-29 01:00","1994","05","29","01:00","11.7","","9.0","","83","","","","0","","16.1","","99.52","","","","","","Mainly Clear"
"1994-05-29 02:00","1994","05","29","02:00","10.2","","8.5","","89","","","","0","","19.3","","99.55","","","","","","Mostly Cloudy"
"1994-05-29 03:00","1994","05","29","03:00","10.4","","8.7","","89","","16","","9","","24.1","","99.52","","","","","","Mainly Clear"
"1994-05-29 04:00","1994","05","29","04:00","10.2","","8.5","","89","","18","","6","","16.1","","99.52","","","","","","Clear"
"1994-05-29 05:00","1994","05","29","05:00","10.0","","8.1","","88","","11","","6","","12.9","","99.59","","","","","","Mainly Clear"
"1994-05-29 06:00","1994","05","29","06:00","9.0","","7.1","","88","","14","","9","","9.7","","99.59","","","","","","Fog"
"1994-05-29 07:00","1994","05","29","07:00","12.2","","9.1","","81","","15","","9","","8.0","","99.59","","","","","","Fog"
"1994-05-29 08:00","1994","05","29","08:00","14.4","","9.2","","71","","15","","4","","9.7","","99.59","","","","","","Haze"
"1994-05-29 09:00","1994","05","29","09:00","15.9","","7.7","","58","","16","","9","","11.3","","99.59","","","","","","Clear"
"1994-05-29 10:00","1994","05","29","10:00","17.6","","9.9","","61","","16","","11","","11.3","","99.59","","","","","","Mainly Clear"
"1994-05-29 11:00","1994","05","29","11:00","19.5","","11.2","","59","","17","","11","","16.1","","99.55","","","","","","Mainly Clear"
"1994-05-29 12:00","1994","05","29","12:00","22.9","","12.7","","53","","24","","19","","19.3","","99.52","","26","","","","Mostly Cloudy"
"1994-05-29 13:00","1994","05","29","13:00","24.2","","14.4","","54","","25","","19","","19.3","","99.49","","28","","","","Mostly Cloudy"
"1994-05-29 14:00","1994","05","29","14:00","23.1","","13.1","","53","","25","","28","","19.3","","99.52","","26","","","","Cloudy"
"1994-05-29 15:00","1994","05","29","15:00","22.1","","12.1","","53","","27","","28","","40.2","","99.55","","","","","","Cloudy"
"1994-05-29 16:00","1994","05","29","16:00","22.1","","12.3","","54","","26","","9","","32.2","","99.59","","25","","","","Cloudy"
"1994-05-29 17:00","1994","05","29","17:00","22.0","","10.3","","47","","26","","15","","40.2","","99.59","","","","","","Cloudy"
"1994-05-29 18:00","1994","05","29","18:00","22.0","","10.3","","47","","22","","13","","40.2","","99.59","","","","","","Cloudy"
"1994-05-29 19:00","1994","05","29","19:00","21.0","","9.3","","47","","22","","17","","40.2","","99.59","","","","","","Mostly Cloudy"
"1994-05-29 20:00","1994","05","29","20:00","20.0","","8.5","","47","","20","","11","","32.2","","99.59","","","","","","Cloudy"
"1994-05-29 21:00","1994","05","29","21:00","19.0","","8.5","","51","","19","","11","","25.0","","99.59","","","","","","Cloudy"
"1994-05-29 22:00","1994","05","29","22:00","18.0","","8.5","","54","","16","","7","","25.0","","99.59","","","","","","Cloudy"
"1994-05-29 23:00","1994","05","29","23:00","16.8","","9.7","","63","","16","","9","","25.0","","99.55","","","","","","Cloudy"
"1994-05-30 00:00","1994","05","30","00:00","14.1","","9.0","","71","","16","","11","","25.0","","99.55","","","","","","Cloudy"
"1994-05-30 01:00","1994","05","30","01:00","13.4","","8.8","","74","","15","","6","","16.1","","99.55","","","","","","Cloudy"
"1994-05-30 02:00","1994","05","30","02:00","13.5","","8.4","","71","","15","","7","","16.1","","99.55","","","","","","Cloudy"
"1994-05-30 03:00","1994","05","30","03:00","13.1","","8.3","","73","","16","","9","","19.3","","99.52","","","","","","Cloudy"
"1994-05-30 04:00","1994","05","30","04:00","15.1","","8.1","","63","","20","","11","","19.3","","99.49","","","","","","Cloudy"
"1994-05-30 05:00","1994","05","30","05:00","14.5","","8.0","","65","","18","","4","","19.3","","99.55","","","","","","Cloudy"
"1994-05-30 06:00","1994","05","30","06:00","15.4","","9.1","","66","","24","","17","","19.3","","99.55","","","","","","Mostly Cloudy"
"1994-05-30 07:00","1994","05","30","07:00","16.4","","9.5","","64","","24","","11","","24.1","","99.59","","","","","","Mostly Cloudy"
"1994-05-30 08:00","1994","05","30","08:00","19.1","","9.7","","54","","23","","15","","24.1","","99.62","","","","","","Mostly Cloudy"
"1994-05-30 09:00","1994","05","30","09:00","21.7","","10.4","","49","","23","","26","","24.1","","99.59","","","","","","Mostly Cloudy"
"1994-05-30 10:00","1994","05","30","10:00","21.7","","11.3","","52","","24","","20","","24.1","","99.59","","","","","","Mostly Cloudy"
"1994-05-30 11:00","1994","05","30","11:00","23.7","","12.6","","50","","25","","22","","19.3","","99.55","","26","","","","Mostly Cloudy"
"1994-05-30 12:00","1994","05","30","12:00","25.3","","13.2","","47","","23","","22","","19.3","","99.55","","28","","","","Mostly Cloudy"
"1994-05-30 13:00","1994","05","30","13:00","26.2","","13.5","","45","","21","","22","","24.1","","99.55","","29","","","","Mostly Cloudy"
"1994-05-30 14:00","1994","05","30","14:00","27.0","","13.6","","44","","23","","22","","24.1","","99.52","","30","","","","Mostly Cloudy"
"1994-05-30 15:00","1994","05","30","15:00","27.2","","12.4","","40","","23","","22","","24.1","","99.49","","30","","","","Mostly Cloudy"
"1994-05-30 16:00","1994","05","30","16:00","27.1","","13.2","","42","","24","","28","","24.1","","99.49","","30","","","","Mostly Cloudy"
"1994-05-30 17:00","1994","05","30","17:00","26.6","","13.3","","44","","22","","22","","24.1","","99.45","","30","","","","Mostly Cloudy"
"1994-05-30 18:00","1994","05","30","18:00","26.0","","13.5","","46","","23","","24","","24.1","","99.45","","29","","","","Mostly Cloudy"
"1994-05-30 19:00","1994","05","30","19:00","25.0","","13.0","","47","","23","","19","","24.1","","99.45","","28","","","","Mostly Cloudy"
"1994-05-30 20:00","1994","05","30","20:00","24.0","","12.8","","50","","22","","15","","24.1","","99.39","","27","","","","Mainly Clear"
"1994-05-30 21:00","1994","05","30","21:00","22.8","","12.7","","53","","22","","17","","24.1","","99.45","","25","","","","Mainly Clear"
"1994-05-30 22:00","1994","05","30","22:00","21.0","","12.6","","59","","23","","11","","24.1","","99.49","","","","","","Mainly Clear"
"1994-05-30 23:00","1994","05","30","23:00","20.5","","12.4","","60","","23","","11","","24.1","","99.49","","","","","","Mainly Clear"
"1994-05-31 00:00","1994","05","31","00:00","20.5","","12.0","","58","","22","","13","","24.1","","99.42","","","","","","Clear"
"1994-05-31 01:00","1994","05","31","01:00","19.5","","11.9","","61","","23","","11","","24.1","","99.42","","","","","","Mainly Clear"
"1994-05-31 02:00","1994","05","31","02:00","19.4","","12.7","","65","","23","","13","","25.0","","99.39","","","","","","Mainly Clear"
"1994-05-31 03:00","1994","05","31","03:00","19.7","","13.4","","67","","26","","17","","19.3","","99.35","","","","","","Mostly Cloudy"
"1994-05-31 04:00","1994","05","31","04:00","19.5","","14.1","","71","","25","","24","","19.3","","99.29","","","","","","Mainly Clear"
"1994-05-31 05:00","1994","05","31","05:00","19.1","","14.9","","77","","23","","13","","12.9","","99.26","","","","","","Rain Showers"
"1994-05-31 06:00","1994","05","31","06:00","20.0","","16.0","","78","","22","","15","","12.9","","99.26","","25","","","","Mostly Cloudy"
"1994-05-31 07:00","1994","05","31","07:00","20.8","","16.4","","76","","23","","26","","12.9","","99.19","","26","","","","Mostly Cloudy"
"1994-05-31 08:00","1994","05","31","08:00","22.5","","17.1","","72","","23","","28","","9.7","","99.12","","28","","","","Haze"
"1994-05-31 09:00","1994","05","31","09:00","23.4","","17.6","","70","","25","","30","","9.7","","99.06","","29","","","","Haze"
"1994-05-31 10:00","1994","05","31","10:00","25.0","","17.6","","64","","24","","32","","9.7","","98.99","","31","","","","Haze"
"1994-05-31 11:00","1994","05","31","11:00","26.0","","17.4","","59","","23","","39","","19.3","","98.86","","32","","","","Mainly Clear"
"1994-05-31 12:00","1994","05","31","12:00","26.5","","17.7","","58","","23","","46","","19.3","","98.76","","32","","","","Mainly Clear"
"1994-05-31 13:00","1994","05","31","13:00","27.0","","17.9","","58","","25","","46","","19.3","","98.66","","33","","","","Mainly Clear"
"1994-05-31 14:00","1994","05","31","14:00","26.1","","17.1","","58","","24","","37","","12.9","","98.59","","31","","","","Mostly Cloudy"
"1994-05-31 15:00","1994","05","31","15:00","17.5","","15.6","","89","","32","","19","","32.2","","98.76","","","","","","Cloudy"
"1994-05-31 16:00","1994","05","31","16:00","18.5","","14.0","","75","","","","0","","40.2","","98.79","","","","","","Mostly Cloudy"
"1994-05-31 17:00","1994","05","31","17:00","19.0","","14.6","","76","","20","","15","","40.2","","98.76","","","","","","Mostly Cloudy"
"1994-05-31 18:00","1994","05","31","18:00","18.7","","13.3","","71","","22","","19","","40.2","","98.72","","","","","","Mostly Cloudy"
"1994-05-31 19:00","1994","05","31","19:00","18.8","","14.6","","77","","22","","13","","40.2","","98.69","","","","","","Mainly Clear"
"1994-05-31 20:00","1994","05","31","20:00","17.7","","14.6","","82","","23","","11","","32.2","","98.66","","","","","","Clear"
"1994-05-31 21:00","1994","05","31","21:00","16.8","","15.4","","91","","24","","7","","19.3","","98.66","","","","","","Clear"
"1994-05-31 22:00","1994","05","31","22:00","15.3","","14.5","","95","","33","","7","","12.9","","98.69","","","","","","Mainly Clear"
"1994-05-31 23:00","1994","05","31","23:00","15.5","","14.9","","96","","26","","7","","8.0","","98.62","","","","","","Fog"
