"Station Name","TORONTO LESTER B. PEARSON INT'L A"
"Province","ONTARIO"
"Latitude","43.68"
"Longitude","-79.63"
"Elevation","173.40"
"Climate Identifier","6158733"
"WMO Identifier","71624"
"TC Identifier","YYZ"
"All times are specified in Local Standard Time (LST). Add 1 hour to adjust for Daylight Saving Time where and when it is observed."

"Legend"
"E","Estimated"
"M","Missing"
"NA","Not Available"

"Date/Time","Year","Month","Day","Time","Temp (°C)","Temp Flag","Dew Point Temp (°C)","Dew Point Temp Flag","Rel Hum (%)","Rel Hum Flag","Wind Dir (10s deg)","Wind Dir Flag","Wind Spd (km/h)","Wind Spd Flag","Visibility (km)","Visibility Flag","Stn Press (kPa)","Stn Press Flag","Hmdx","Hmdx Flag","Wind Chill","Wind Chill Flag","Weather"
"1990-11-01 00:00","1990","11","01","00:00","2.8","","0.2","","83","","34","","7","","25.0","","100.14","","","","","","Mainly Clear"
"1990-11-01 01:00","1990","11","01","01:00","2.0","","-0.4","","84","","34","","9","","25.0","","100.14","","","","","","Mainly Clear"
"1990-11-01 02:00","1990","11","01","02:00","1.6","","-1.5","","80","","35","","11","","25.0","","100.11","","","","","","Mainly Clear"
"1990-11-01 03:00","1990","11","01","03:00","1.6","","-1.5","","80","","32","","9","","25.0","","100.11","","","","","","Mainly Clear"
"1990-11-01 04:00","1990","11","01","04:00","1.6","","-1.5","","80","","32","","7","","25.0","","100.07","","","","","","Mainly Clear"
"1990-11-01 05:00","1990","11","01","05:00","2.2","","-1.0","","79","","34","","11","","25.0","","100.11","","","","","","Mainly Clear"
"1990-11-01 06:00","1990","11","01","06:00","2.3","","0.1","","86","","36","","6","","25.0","","100.11","","","","","","Mostly Cloudy"
"1990-11-01 07:00","1990","11","01","07:00","2.1","","-0.4","","83","","35","","11","","19.3","","100.11","","","","","","Mostly Cloudy"
"1990-11-01 08:00","1990","11","01","08:00","3.8","","0.3","","78","","32","","7","","24.1","","100.14","","","","","","Mainly Clear"
"1990-11-01 09:00","1990","11","01","09:00","7.0","","1.7","","69","","5","","7","","16.1","","100.11","","","","","","Mainly Clear"
"1990-11-01 10:00","1990","11","01","10:00","9.9","","5.3","","73","","","","0","","16.1","","100.11","","","","","","Clear"
"1990-11-01 11:00","1990","11","01","11:00","11.4","","7.0","","74","","17","","11","","19.3","","100.07","","","","","","Mainly Clear"
"1990-11-01 12:00","1990","11","01","12:00","11.2","","6.8","","74","","14","","11","","12.9","","100.04","","","","","","Mainly Clear"
"1990-11-01 13:00","1990","11","01","13:00","12.0","","7.1","","72","","15","","11","","12.9","","99.97","","","","","","Mainly Clear"
"1990-11-01 14:00","1990","11","01","14:00","13.0","","7.4","","69","","15","","7","","14.5","","99.91","","","","","","Mainly Clear"
"1990-11-01 15:00","1990","11","01","15:00","12.8","","7.9","","72","","14","","9","","14.5","","99.84","","","","","","Mainly Clear"
"1990-11-01 16:00","1990","11","01","16:00","14.1","","7.8","","66","","16","","7","","12.9","","99.81","","","","","","Clear"
"1990-11-01 17:00","1990","11","01","17:00","10.4","","8.3","","87","","15","","13","","12.9","","99.81","","","","","","Clear"
"1990-11-01 18:00","1990","11","01","18:00","8.9","","6.7","","86","","16","","13","","8.0","","99.81","","","","","","Fog"
"1990-11-01 19:00","1990","11","01","19:00","8.6","","7.4","","92","","15","","6","","8.0","","99.81","","","","","","Fog"
"1990-11-01 20:00","1990","11","01","20:00","8.4","","7.7","","96","","","","0","","6.4","","99.81","","","","","","Fog"
"1990-11-01 21:00","1990","11","01","21:00","8.0","","7.6","","97","","","","0","","4.8","","99.81","","","","","","Fog"
"1990-11-01 22:00","1990","11","01","22:00","8.0","","7.2","","95","","15","","6","","6.4","","99.77","","","","","","Fog"
"1990-11-01 23:00","1990","11","01","23:00","7.5","","6.7","","95","","14","","9","","4.8","","99.77","","","","","","Fog"
"1990-11-02 00:00","1990","11","02","00:00","7.5","","6.7","","95","","15","","9","","4.0","","99.77","","","","","","Fog"
"1990-11-02 01:00","1990","11","02","01:00","7.6","","6.7","","94","","15","","7","","6.4","","99.77","","","","","","Fog"
"1990-11-02 02:00","1990","11","02","02:00","9.9","","6.9","","82","","19","","9","","12.9","","99.77","","","","","","Mostly Cloudy"
"1990-11-02 03:00","1990","11","02","03:00","7.7","","5.5","","86","","24","","6","","12.9","","99.74","","","","","","Mostly Cloudy"
"1990-11-02 04:00","1990","11","02","04:00","8.8","","5.9","","82","","14","","9","","12.9","","99.71","","","","","","Mostly Cloudy"
"1990-11-02 05:00","1990","11","02","05:00","10.2","","5.7","","74","","16","","9","","12.9","","99.67","","","","","","Cloudy"
"1990-11-02 06:00","1990","11","02","06:00","9.8","","6.5","","80","","15","","7","","12.9","","99.64","","","","","","Cloudy"
"1990-11-02 07:00","1990","11","02","07:00","10.3","","6.7","","79","","20","","11","","9.7","","99.61","","","","","","Haze"
"1990-11-02 08:00","1990","11","02","08:00","12.0","","6.3","","68","","17","","11","","11.3","","99.61","","","","","","Mostly Cloudy"
"1990-11-02 09:00","1990","11","02","09:00","13.4","","7.6","","68","","19","","13","","12.9","","99.54","","","","","","Mostly Cloudy"
"1990-11-02 10:00","1990","11","02","10:00","14.5","","7.1","","61","","21","","13","","16.1","","99.51","","","","","","Mostly Cloudy"
"1990-11-02 11:00","1990","11","02","11:00","15.9","","7.7","","58","","22","","24","","19.3","","99.47","","","","","","Mostly Cloudy"
"1990-11-02 12:00","1990","11","02","12:00","18.2","","7.6","","50","","23","","24","","24.1","","99.37","","","","","","Mostly Cloudy"
"1990-11-02 13:00","1990","11","02","13:00","21.6","","6.9","","39","","24","","37","","19.3","","99.31","","","","","","Mostly Cloudy"
"1990-11-02 14:00","1990","11","02","14:00","20.2","","7.1","","43","","23","","26","","19.3","","99.31","","","","","","Mostly Cloudy"
"1990-11-02 15:00","1990","11","02","15:00","19.8","","8.5","","48","","22","","26","","19.3","","99.31","","","","","","Mostly Cloudy"
"1990-11-02 16:00","1990","11","02","16:00","18.6","","8.3","","51","","22","","24","","19.3","","99.34","","","","","","Mostly Cloudy"
"1990-11-02 17:00","1990","11","02","17:00","17.0","","8.1","","56","","22","","24","","12.9","","99.37","","","","","","Mainly Clear"
"1990-11-02 18:00","1990","11","02","18:00","16.2","","7.7","","57","","23","","24","","16.1","","99.37","","","","","","Mainly Clear"
"1990-11-02 19:00","1990","11","02","19:00","16.5","","7.9","","57","","24","","20","","16.1","","99.47","","","","","","Mainly Clear"
"1990-11-02 20:00","1990","11","02","20:00","16.1","","8.1","","59","","24","","17","","17.7","","99.51","","","","","","Clear"
"1990-11-02 21:00","1990","11","02","21:00","15.5","","8.3","","62","","24","","17","","17.7","","99.51","","","","","","Clear"
"1990-11-02 22:00","1990","11","02","22:00","15.1","","9.4","","69","","25","","28","","17.7","","99.51","","","","","","Clear"
"1990-11-02 23:00","1990","11","02","23:00","14.5","","8.4","","67","","24","","7","","16.1","","99.57","","","","","","Mainly Clear"
"1990-11-03 00:00","1990","11","03","00:00","15.4","","9.1","","66","","21","","9","","12.9","","99.57","","","","","","Mostly Cloudy"
"1990-11-03 01:00","1990","11","03","01:00","15.1","","9.0","","67","","","","0","","12.9","","99.61","","","","","","Mostly Cloudy"
"1990-11-03 02:00","1990","11","03","02:00","14.6","","9.2","","70","","25","","7","","12.9","","99.61","","","","","","Mostly Cloudy"
"1990-11-03 03:00","1990","11","03","03:00","12.4","","8.9","","79","","","","0","","12.9","","99.64","","","","","","Mostly Cloudy"
"1990-11-03 04:00","1990","11","03","04:00","12.5","","9.3","","81","","27","","6","","9.7","","99.64","","","","","","Haze"
"1990-11-03 05:00","1990","11","03","05:00","12.4","","9.3","","81","","14","","7","","9.7","","99.67","","","","","","Haze"
"1990-11-03 06:00","1990","11","03","06:00","11.3","","8.2","","81","","","","0","","8.0","","99.67","","","","","","Haze"
"1990-11-03 07:00","1990","11","03","07:00","11.0","","8.4","","84","","","","0","","4.8","","99.74","","","","","","Haze"
"1990-11-03 08:00","1990","11","03","08:00","12.2","","9.1","","81","","","","0","","4.8","","99.77","","","","","","Haze"
"1990-11-03 09:00","1990","11","03","09:00","14.3","","10.3","","77","","21","","6","","6.4","","99.77","","","","","","Haze"
"1990-11-03 10:00","1990","11","03","10:00","17.2","","11.3","","68","","25","","13","","8.0","","99.74","","","","","","Haze"
"1990-11-03 11:00","1990","11","03","11:00","19.0","","11.7","","63","","25","","13","","9.7","","99.74","","","","","","Haze"
"1990-11-03 12:00","1990","11","03","12:00","20.0","","12.1","","60","","24","","20","","9.7","","99.67","","","","","","Haze"
"1990-11-03 13:00","1990","11","03","13:00","20.7","","11.6","","56","","22","","20","","12.9","","99.61","","","","","","Mainly Clear"
"1990-11-03 14:00","1990","11","03","14:00","21.4","","12.0","","55","","23","","24","","12.9","","99.57","","","","","","Mainly Clear"
"1990-11-03 15:00","1990","11","03","15:00","21.4","","12.0","","55","","24","","24","","16.1","","99.51","","","","","","Mostly Cloudy"
"1990-11-03 16:00","1990","11","03","16:00","20.9","","12.2","","58","","23","","24","","12.9","","99.51","","","","","","Mostly Cloudy"
"1990-11-03 17:00","1990","11","03","17:00","19.4","","11.9","","62","","24","","22","","12.9","","99.54","","","","","","Cloudy"
"1990-11-03 18:00","1990","11","03","18:00","17.5","","11.1","","66","","24","","24","","9.7","","99.57","","","","","","Haze"
"1990-11-03 19:00","1990","11","03","19:00","16.2","","9.7","","65","","25","","22","","12.9","","99.57","","","","","","Mostly Cloudy"
"1990-11-03 20:00","1990","11","03","20:00","16.1","","8.5","","61","","25","","19","","16.1","","99.54","","","","","","Mostly Cloudy"
"1990-11-03 21:00","1990","11","03","21:00","15.9","","8.5","","62","","24","","19","","16.1","","99.51","","","","","","Mainly Clear"
"1990-11-03 22:00","1990","11","03","22:00","14.5","","8.0","","65","","23","","15","","16.1","","99.47","","","","","","Mostly Cloudy"
"1990-11-03 23:00","1990","11","03","23:00","14.7","","8.0","","64","","23","","15","","16.1","","99.41","","","","","","Cloudy"
"1990-11-04 00:00","1990","11","04","00:00","14.4","","8.4","","67","","24","","20","","14.5","","99.41","","","","","","Cloudy"
"1990-11-04 01:00","1990","11","04","01:00","13.7","","8.0","","68","","24","","20","","12.9","","99.37","","","","","","Cloudy"
"1990-11-04 02:00","1990","11","04","02:00","13.3","","8.8","","74","","23","","17","","12.9","","99.37","","","","","","Cloudy"
"1990-11-04 03:00","1990","11","04","03:00","13.2","","8.3","","72","","23","","17","","9.7","","99.34","","","","","","Haze"
"1990-11-04 04:00","1990","11","04","04:00","12.8","","9.4","","80","","23","","13","","9.7","","99.34","","","","","","Haze"
"1990-11-04 05:00","1990","11","04","05:00","12.4","","9.3","","81","","22","","17","","9.7","","99.27","","","","","","Haze"
"1990-11-04 06:00","1990","11","04","06:00","12.7","","9.3","","80","","23","","15","","9.7","","99.24","","","","","","Haze"
"1990-11-04 07:00","1990","11","04","07:00","13.3","","10.0","","81","","23","","15","","6.4","","99.21","","","","","","Haze"
"1990-11-04 08:00","1990","11","04","08:00","13.8","","10.2","","79","","24","","17","","6.4","","99.24","","","","","","Haze"
"1990-11-04 09:00","1990","11","04","09:00","13.2","","10.9","","86","","25","","13","","8.0","","99.24","","","","","","Haze"
"1990-11-04 10:00","1990","11","04","10:00","13.5","","11.1","","85","","27","","11","","8.0","","99.21","","","","","","Haze"
"1990-11-04 11:00","1990","11","04","11:00","10.3","","9.4","","94","","34","","19","","12.9","","99.31","","","","","","Cloudy"
"1990-11-04 12:00","1990","11","04","12:00","9.2","","6.7","","84","","33","","24","","32.2","","99.34","","","","","","Cloudy"
"1990-11-04 13:00","1990","11","04","13:00","8.2","","5.2","","81","","34","","28","","32.2","","99.41","","","","","","Rain"
"1990-11-04 14:00","1990","11","04","14:00","6.8","","3.6","","80","","33","","28","","40.2","","99.41","","","","","","Cloudy"
"1990-11-04 15:00","1990","11","04","15:00","5.5","","3.8","","89","","34","","24","","24.1","","99.44","","","","","","Rain"
"1990-11-04 16:00","1990","11","04","16:00","5.8","","1.5","","74","","34","","22","","24.1","","99.47","","","","","","Cloudy"
"1990-11-04 17:00","1990","11","04","17:00","5.6","","1.0","","72","","34","","30","","24.1","","99.57","","","","","","Rain"
"1990-11-04 18:00","1990","11","04","18:00","4.9","","1.4","","78","","33","","17","","24.1","","99.61","","","","","","Rain"
"1990-11-04 19:00","1990","11","04","19:00","4.6","","1.3","","79","","32","","9","","24.1","","99.64","","","","","","Rain"
"1990-11-04 20:00","1990","11","04","20:00","4.8","","1.4","","79","","1","","7","","25.0","","99.64","","","","","","Cloudy"
"1990-11-04 21:00","1990","11","04","21:00","5.0","","0.4","","72","","2","","9","","25.0","","99.67","","","","","","Cloudy"
"1990-11-04 22:00","1990","11","04","22:00","3.9","","0.8","","80","","3","","11","","19.3","","99.71","","","","","","Rain"
"1990-11-04 23:00","1990","11","04","23:00","4.2","","-0.3","","72","","4","","11","","19.3","","99.67","","","","","","Rain"
"1990-11-05 00:00","1990","11","05","00:00","3.8","","-0.8","","72","","4","","15","","24.1","","99.67","","","","","","Rain"
"1990-11-05 01:00","1990","11","05","01:00","3.2","","-1.5","","71","","4","","13","","24.1","","99.64","","","","","","Rain"
"1990-11-05 02:00","1990","11","05","02:00","2.9","","-0.4","","79","","5","","11","","19.3","","99.64","","","","","","Rain"
"1990-11-05 03:00","1990","11","05","03:00","3.0","","0.2","","82","","5","","11","","19.3","","99.61","","","","","","Rain"
"1990-11-05 04:00","1990","11","05","04:00","2.8","","0.7","","86","","5","","15","","16.1","","99.57","","","","","","Rain"
"1990-11-05 05:00","1990","11","05","05:00","2.6","","0.6","","87","","6","","13","","12.9","","99.51","","","","","","Rain"
"1990-11-05 06:00","1990","11","05","06:00","2.4","","1.1","","91","","7","","20","","9.7","","99.47","","","","","","Rain,Fog"
"1990-11-05 07:00","1990","11","05","07:00","2.3","","1.1","","92","","7","","22","","9.7","","99.34","","","","","","Rain,Fog"
"1990-11-05 08:00","1990","11","05","08:00","1.8","","0.6","","92","","7","","30","","6.4","","99.34","","","","","","Rain,Fog"
"1990-11-05 09:00","1990","11","05","09:00","1.1","","-0.5","","89","","7","","26","","9.7","","99.31","","","","","","Rain,Fog"
"1990-11-05 10:00","1990","11","05","10:00","0.8","","-0.5","","91","","6","","24","","9.7","","99.17","","","","","","Rain,Fog"
"1990-11-05 11:00","1990","11","05","11:00","1.1","","0.0","","92","","7","","24","","11.3","","99.04","","","","","","Rain"
"1990-11-05 12:00","1990","11","05","12:00","1.3","","0.5","","95","","7","","22","","9.7","","98.94","","","","","","Rain,Fog"
"1990-11-05 13:00","1990","11","05","13:00","2.0","","1.1","","94","","7","","19","","9.7","","98.81","","","","","","Rain,Fog"
"1990-11-05 14:00","1990","11","05","14:00","2.6","","1.6","","93","","8","","30","","11.3","","98.51","","","","","","Rain"
"1990-11-05 15:00","1990","11","05","15:00","3.3","","2.6","","95","","7","","28","","11.3","","98.37","","","","","","Rain"
"1990-11-05 16:00","1990","11","05","16:00","3.3","","2.6","","95","","8","","31","","4.8","","98.21","","","","","","Rain,Fog"
"1990-11-05 17:00","1990","11","05","17:00","3.1","","2.1","","93","","7","","28","","4.8","","98.11","","","","","","Rain,Fog"
"1990-11-05 18:00","1990","11","05","18:00","3.5","","2.6","","94","","8","","41","","8.0","","97.91","","","","","","Rain,Fog"
"1990-11-05 19:00","1990","11","05","19:00","4.4","","3.6","","95","","8","","35","","8.0","","97.74","","","","","","Rain,Fog"
"1990-11-05 20:00","1990","11","05","20:00","4.9","","4.2","","95","","8","","28","","8.0","","97.61","","","","","","Rain,Fog"
"1990-11-05 21:00","1990","11","05","21:00","4.9","","4.2","","95","","8","","17","","4.8","","97.61","","","","","","Moderate Rain,Fog"
"1990-11-05 22:00","1990","11","05","22:00","5.1","","4.2","","94","","7","","15","","8.0","","97.51","","","","","","Rain,Fog"
"1990-11-05 23:00","1990","11","05","23:00","5.4","","5.1","","98","","8","","11","","8.0","","97.37","","","","","","Rain,Fog"
"1990-11-06 00:00","1990","11","06","00:00","6.2","","5.6","","96","","20","","4","","8.0","","97.41","","","","","","Rain,Fog"
"1990-11-06 01:00","1990","11","06","01:00","7.4","","5.9","","90","","20","","30","","8.0","","97.41","","","","","","Rain,Fog"
"1990-11-06 02:00","1990","11","06","02:00","6.8","","5.0","","88","","21","","31","","11.3","","97.31","","","","","","Rain"
"1990-11-06 03:00","1990","11","06","03:00","6.0","","3.9","","86","","21","","24","","16.1","","97.31","","","","","","Rain"
"1990-11-06 04:00","1990","11","06","04:00","4.7","","1.3","","78","","24","","39","","24.1","","97.31","","","","","","Rain"
"1990-11-06 05:00","1990","11","06","05:00","4.3","","1.3","","81","","28","","57","","16.1","","97.51","","","","","","Mostly Cloudy"
"1990-11-06 06:00","1990","11","06","06:00","3.3","","-1.4","","71","","28","","46","","25.0","","98.04","","","","","","Mostly Cloudy"
"1990-11-06 07:00","1990","11","06","07:00","2.4","","0.1","","85","","29","","22","","25.0","","98.34","","","","","","Rain"
"1990-11-06 08:00","1990","11","06","08:00","2.5","","-2.0","","72","","29","","37","","32.2","","98.57","","","","","","Mostly Cloudy"
"1990-11-06 09:00","1990","11","06","09:00","3.2","","-2.6","","65","","29","","37","","32.2","","98.81","","","","","","Mostly Cloudy"
"1990-11-06 10:00","1990","11","06","10:00","3.8","","-1.4","","69","","29","","41","","32.2","","98.97","","","","","","Mostly Cloudy"
"1990-11-06 11:00","1990","11","06","11:00","4.3","","-1.3","","67","","29","","43","","32.2","","99.21","","","","","","Mostly Cloudy"
"1990-11-06 12:00","1990","11","06","12:00","4.8","","-0.7","","67","","29","","35","","32.2","","99.31","","","","","","Mostly Cloudy"
"1990-11-06 13:00","1990","11","06","13:00","5.8","","-0.6","","63","","29","","44","","32.2","","99.37","","","","","","Mostly Cloudy"
"1990-11-06 14:00","1990","11","06","14:00","6.3","","-0.5","","62","","28","","35","","32.2","","99.44","","","","","","Mostly Cloudy"
"1990-11-06 15:00","1990","11","06","15:00","5.4","","-1.8","","60","","29","","37","","32.2","","99.51","","","","","","Mainly Clear"
"1990-11-06 16:00","1990","11","06","16:00","5.5","","-0.6","","65","","29","","22","","32.2","","99.61","","","","","","Mostly Cloudy"
"1990-11-06 17:00","1990","11","06","17:00","4.2","","-1.9","","64","","28","","24","","32.2","","99.71","","","","","","Mostly Cloudy"
"1990-11-06 18:00","1990","11","06","18:00","3.0","","-1.5","","72","","27","","20","","25.0","","99.81","","","","","","Mostly Cloudy"
"1990-11-06 19:00","1990","11","06","19:00","2.3","","-1.5","","76","","28","","20","","25.0","","99.87","","","","","","Mainly Clear"
"1990-11-06 20:00","1990","11","06","20:00","1.1","","-3.0","","74","","27","","15","","25.0","","99.91","","","","","","Clear"
"1990-11-06 21:00","1990","11","06","21:00","0.1","","-3.6","","76","","27","","7","","25.0","","99.91","","","","","","Clear"
"1990-11-06 22:00","1990","11","06","22:00","-0.6","","-3.2","","82","","24","","7","","25.0","","99.91","","","","-3","","Mainly Clear"
"1990-11-06 23:00","1990","11","06","23:00","0.5","","-2.5","","80","","26","","6","","25.0","","99.94","","","","","","Mostly Cloudy"
"1990-11-07 00:00","1990","11","07","00:00","1.1","","-2.4","","77","","23","","4","","25.0","","99.91","","","","","","Mostly Cloudy"
"1990-11-07 01:00","1990","11","07","01:00","0.9","","-1.9","","82","","23","","7","","25.0","","99.91","","","","","","Mostly Cloudy"
"1990-11-07 02:00","1990","11","07","02:00","1.2","","-1.9","","80","","23","","7","","25.0","","99.87","","","","","","Mostly Cloudy"
"1990-11-07 03:00","1990","11","07","03:00","2.0","","-1.5","","78","","22","","9","","25.0","","99.91","","","","","","Mostly Cloudy"
"1990-11-07 04:00","1990","11","07","04:00","2.1","","-0.4","","83","","23","","9","","24.1","","99.84","","","","","","Cloudy"
"1990-11-07 05:00","1990","11","07","05:00","2.2","","-0.4","","83","","22","","11","","19.3","","99.81","","","","","","Cloudy"
"1990-11-07 06:00","1990","11","07","06:00","2.5","","-0.4","","81","","24","","9","","16.1","","99.81","","","","","","Rain"
"1990-11-07 07:00","1990","11","07","07:00","2.4","","0.1","","85","","25","","11","","16.1","","99.81","","","","","","Rain"
"1990-11-07 08:00","1990","11","07","08:00","2.7","","-0.4","","80","","24","","13","","11.3","","99.81","","","","","","Cloudy"
"1990-11-07 09:00","1990","11","07","09:00","2.8","","0.7","","86","","25","","15","","11.3","","99.81","","","","","","Cloudy"
"1990-11-07 10:00","1990","11","07","10:00","3.5","","0.7","","82","","25","","13","","11.3","","99.77","","","","","","Cloudy"
"1990-11-07 11:00","1990","11","07","11:00","4.0","","-0.3","","74","","25","","15","","16.1","","99.71","","","","","","Cloudy"
"1990-11-07 12:00","1990","11","07","12:00","4.4","","0.3","","75","","25","","19","","24.1","","99.64","","","","","","Cloudy"
"1990-11-07 13:00","1990","11","07","13:00","5.0","","0.4","","72","","26","","17","","19.3","","99.54","","","","","","Cloudy"
"1990-11-07 14:00","1990","11","07","14:00","4.8","","0.4","","73","","24","","13","","19.3","","99.47","","","","","","Cloudy"
"1990-11-07 15:00","1990","11","07","15:00","4.7","","-0.2","","70","","26","","19","","11.3","","99.47","","","","","","Rain Showers"
"1990-11-07 16:00","1990","11","07","16:00","2.8","","1.1","","89","","26","","15","","16.1","","99.47","","","","","","Rain"
"1990-11-07 17:00","1990","11","07","17:00","3.0","","1.1","","87","","27","","17","","16.1","","99.47","","","","","","Rain"
"1990-11-07 18:00","1990","11","07","18:00","2.5","","1.1","","91","","26","","15","","12.9","","99.51","","","","","","Rain"
"1990-11-07 19:00","1990","11","07","19:00","2.6","","1.1","","90","","29","","26","","11.3","","99.61","","","","","","Rain"
"1990-11-07 20:00","1990","11","07","20:00","1.0","","-0.5","","90","","29","","17","","24.1","","99.64","","","","","","Mainly Clear"
"1990-11-07 21:00","1990","11","07","21:00","1.2","","-1.0","","85","","28","","17","","24.1","","99.67","","","","","","Mainly Clear"
"1990-11-07 22:00","1990","11","07","22:00","0.4","","-1.6","","86","","29","","19","","24.1","","99.74","","","","","","Mainly Clear"
"1990-11-07 23:00","1990","11","07","23:00","0.5","","-1.4","","87","","29","","15","","24.1","","99.77","","","","","","Mainly Clear"
"1990-11-08 00:00","1990","11","08","00:00","0.5","","-2.0","","83","","28","","22","","25.0","","99.81","","","","","","Mainly Clear"
"1990-11-08 01:00","1990","11","08","01:00","0.2","","-2.9","","80","","29","","30","","25.0","","99.84","","","","","","Mainly Clear"
"1990-11-08 02:00","1990","11","08","02:00","0.1","","-3.9","","74","","30","","24","","25.0","","99.91","","","","","","Mostly Cloudy"
"1990-11-08 03:00","1990","11","08","03:00","-1.0","","-1.1","","99","","35","","22","","8.0","","100.04","","","","-7","","Snow Showers"
"1990-11-08 04:00","1990","11","08","04:00","-1.5","","-3.0","","89","","34","","15","","9.7","","100.11","","","","-6","","Snow Showers"
"1990-11-08 05:00","1990","11","08","05:00","-1.5","","-3.0","","89","","30","","17","","25.0","","100.21","","","","-7","","Snow Showers"
"1990-11-08 06:00","1990","11","08","06:00","-2.0","","-3.3","","91","","32","","15","","25.0","","100.31","","","","-7","","Snow Showers"
"1990-11-08 07:00","1990","11","08","07:00","-3.3","","-5.4","","85","","32","","13","","25.0","","100.37","","","","-8","","Clear"
"1990-11-08 08:00","1990","11","08","08:00","-2.0","","-7.0","","68","","34","","15","","32.2","","100.47","","","","-7","","Mainly Clear"
"1990-11-08 09:00","1990","11","08","09:00","-0.9","","-5.4","","71","","33","","15","","32.2","","100.57","","","","-6","","Mainly Clear"
"1990-11-08 10:00","1990","11","08","10:00","0.0","","-4.6","","71","","34","","15","","32.2","","100.64","","","","-4","","Mainly Clear"
"1990-11-08 11:00","1990","11","08","11:00","1.4","","-4.1","","67","","33","","15","","32.2","","100.64","","","","","","Mainly Clear"
"1990-11-08 12:00","1990","11","08","12:00","1.8","","-4.7","","62","","2","","7","","32.2","","100.61","","","","","","Mainly Clear"
"1990-11-08 13:00","1990","11","08","13:00","2.3","","-4.6","","60","","27","","9","","32.2","","100.61","","","","","","Mostly Cloudy"
"1990-11-08 14:00","1990","11","08","14:00","3.1","","-5.2","","54","","34","","6","","32.2","","100.57","","","","","","Mostly Cloudy"
"1990-11-08 15:00","1990","11","08","15:00","3.2","","-5.1","","54","","35","","11","","32.2","","100.51","","","","","","Mainly Clear"
"1990-11-08 16:00","1990","11","08","16:00","2.0","","-4.0","","64","","36","","9","","32.2","","100.54","","","","","","Mainly Clear"
"1990-11-08 17:00","1990","11","08","17:00","0.2","","-5.0","","68","","2","","9","","32.2","","100.51","","","","","","Mainly Clear"
"1990-11-08 18:00","1990","11","08","18:00","-0.5","","-6.0","","66","","3","","7","","25.0","","100.57","","","","-3","","Mainly Clear"
"1990-11-08 19:00","1990","11","08","19:00","-0.6","","-5.0","","72","","3","","4","","25.0","","100.61","","","","-2","","Mainly Clear"
"1990-11-08 20:00","1990","11","08","20:00","-0.6","","-6.0","","67","","","","0","","25.0","","100.64","","","","","","Mostly Cloudy"
"1990-11-08 21:00","1990","11","08","21:00","-0.6","","-6.0","","67","","","","0","","25.0","","100.67","","","","","","Mainly Clear"
"1990-11-08 22:00","1990","11","08","22:00","-0.2","","-4.9","","71","","9","","4","","25.0","","100.61","","","","-1","","Mainly Clear"
"1990-11-08 23:00","1990","11","08","23:00","-0.6","","-6.0","","67","","6","","7","","25.0","","100.57","","","","-3","","Mainly Clear"
"1990-11-09 00:00","1990","11","09","00:00","-0.4","","-4.9","","72","","7","","7","","25.0","","100.54","","","","-3","","Mainly Clear"
"1990-11-09 01:00","1990","11","09","01:00","-0.3","","-5.1","","70","","7","","11","","25.0","","100.47","","","","-4","","Mostly Cloudy"
"1990-11-09 02:00","1990","11","09","02:00","-0.8","","-4.4","","76","","9","","9","","19.3","","100.41","","","","-4","","Mainly Clear"
"1990-11-09 03:00","1990","11","09","03:00","-1.0","","-3.6","","82","","10","","9","","25.0","","100.34","","","","-4","","Mainly Clear"
"1990-11-09 04:00","1990","11","09","04:00","-0.5","","-3.8","","78","","10","","11","","25.0","","100.27","","","","-4","","Mostly Cloudy"
"1990-11-09 05:00","1990","11","09","05:00","-0.5","","-3.8","","78","","11","","11","","25.0","","100.17","","","","-4","","Mostly Cloudy"
"1990-11-09 06:00","1990","11","09","06:00","0.4","","-3.5","","75","","13","","15","","25.0","","100.14","","","","","","Mostly Cloudy"
"1990-11-09 07:00","1990","11","09","07:00","1.0","","-3.6","","71","","13","","15","","25.0","","100.11","","","","","","Cloudy"
"1990-11-09 08:00","1990","11","09","08:00","1.5","","-4.1","","66","","12","","11","","19.3","","99.97","","","","","","Cloudy"
"1990-11-09 09:00","1990","11","09","09:00","2.2","","-3.4","","66","","13","","22","","19.3","","99.87","","","","","","Cloudy"
"1990-11-09 10:00","1990","11","09","10:00","3.0","","-2.6","","67","","14","","15","","16.1","","99.77","","","","","","Cloudy"
"1990-11-09 11:00","1990","11","09","11:00","3.1","","-3.2","","63","","14","","20","","16.1","","99.74","","","","","","Cloudy"
"1990-11-09 12:00","1990","11","09","12:00","3.3","","-3.2","","62","","14","","13","","19.3","","99.71","","","","","","Cloudy"
"1990-11-09 13:00","1990","11","09","13:00","4.0","","-3.2","","59","","11","","13","","19.3","","99.54","","","","","","Cloudy"
"1990-11-09 14:00","1990","11","09","14:00","4.3","","-1.3","","67","","12","","15","","16.1","","99.41","","","","","","Cloudy"
"1990-11-09 15:00","1990","11","09","15:00","4.8","","-1.3","","65","","13","","19","","16.1","","99.31","","","","","","Cloudy"
"1990-11-09 16:00","1990","11","09","16:00","4.6","","-1.3","","66","","11","","20","","19.3","","99.24","","","","","","Cloudy"
"1990-11-09 17:00","1990","11","09","17:00","4.9","","-0.2","","69","","10","","13","","24.1","","99.27","","","","","","Cloudy"
"1990-11-09 18:00","1990","11","09","18:00","5.0","","-0.2","","69","","13","","9","","24.1","","99.24","","","","","","Cloudy"
"1990-11-09 19:00","1990","11","09","19:00","5.2","","0.4","","71","","12","","7","","24.1","","99.21","","","","","","Cloudy"
"1990-11-09 20:00","1990","11","09","20:00","5.4","","2.0","","79","","20","","13","","12.9","","99.21","","","","","","Rain"
"1990-11-09 21:00","1990","11","09","21:00","4.5","","2.7","","88","","22","","15","","9.7","","99.24","","","","","","Rain,Fog"
"1990-11-09 22:00","1990","11","09","22:00","3.8","","2.2","","90","","22","","17","","9.7","","99.24","","","","","","Rain,Fog"
"1990-11-09 23:00","1990","11","09","23:00","3.2","","2.1","","92","","25","","15","","16.1","","99.24","","","","","","Rain"
"1990-11-10 00:00","1990","11","10","00:00","3.1","","1.6","","90","","28","","11","","12.9","","99.24","","","","","","Cloudy"
"1990-11-10 01:00","1990","11","10","01:00","3.0","","1.6","","91","","30","","7","","11.3","","99.21","","","","","","Cloudy"
"1990-11-10 02:00","1990","11","10","02:00","2.8","","2.1","","95","","29","","4","","8.0","","99.21","","","","","","Fog"
"1990-11-10 03:00","1990","11","10","03:00","2.6","","1.6","","93","","","","0","","8.0","","99.21","","","","","","Fog"
"1990-11-10 04:00","1990","11","10","04:00","3.2","","1.1","","86","","","","0","","8.0","","99.21","","","","","","Fog"
"1990-11-10 05:00","1990","11","10","05:00","3.4","","1.7","","89","","","","0","","6.4","","99.14","","","","","","Fog"
"1990-11-10 06:00","1990","11","10","06:00","3.4","","1.7","","89","","","","0","","8.0","","99.17","","","","","","Fog"
"1990-11-10 07:00","1990","11","10","07:00","3.0","","1.6","","91","","31","","4","","4.8","","99.14","","","","","","Fog"
"1990-11-10 08:00","1990","11","10","08:00","3.5","","2.2","","91","","34","","7","","8.0","","99.11","","","","","","Fog"
"1990-11-10 09:00","1990","11","10","09:00","3.9","","2.7","","92","","33","","7","","9.7","","99.07","","","","","","Fog"
"1990-11-10 10:00","1990","11","10","10:00","5.0","","-0.2","","69","","35","","7","","24.1","","99.04","","","","","","Mostly Cloudy"
"1990-11-10 11:00","1990","11","10","11:00","5.3","","-0.1","","68","","32","","19","","40.2","","98.97","","","","","","Mostly Cloudy"
"1990-11-10 12:00","1990","11","10","12:00","5.5","","-0.6","","65","","","","0","","40.2","","98.84","","","","","","Mostly Cloudy"
"1990-11-10 13:00","1990","11","10","13:00","5.8","","-1.1","","61","","27","","7","","40.2","","98.74","","","","","","Mostly Cloudy"
"1990-11-10 14:00","1990","11","10","14:00","7.4","","0.3","","61","","24","","7","","40.2","","98.67","","","","","","Mostly Cloudy"
"1990-11-10 15:00","1990","11","10","15:00","7.2","","-0.4","","58","","26","","4","","40.2","","98.61","","","","","","Mostly Cloudy"
"1990-11-10 16:00","1990","11","10","16:00","6.7","","-0.5","","60","","25","","11","","24.1","","98.61","","","","","","Cloudy"
"1990-11-10 17:00","1990","11","10","17:00","6.2","","0.0","","64","","26","","9","","24.1","","98.57","","","","","","Mostly Cloudy"
"1990-11-10 18:00","1990","11","10","18:00","5.6","","0.4","","69","","27","","15","","19.3","","98.61","","","","","","Mostly Cloudy"
"1990-11-10 19:00","1990","11","10","19:00","4.8","","-0.7","","67","","27","","15","","19.3","","98.54","","","","","","Mainly Clear"
"1990-11-10 20:00","1990","11","10","20:00","4.5","","-0.2","","71","","27","","15","","19.3","","98.51","","","","","","Mostly Cloudy"
"1990-11-10 21:00","1990","11","10","21:00","3.0","","0.7","","85","","32","","35","","24.1","","98.54","","","","","","Rain Showers"
"1990-11-10 22:00","1990","11","10","22:00","1.4","","-2.1","","77","","31","","26","","25.0","","98.64","","","","","","Mainly Clear"
"1990-11-10 23:00","1990","11","10","23:00","1.2","","-3.6","","70","","32","","31","","25.0","","98.71","","","","","","Mainly Clear"
"1990-11-11 00:00","1990","11","11","00:00","0.6","","-6.2","","60","","30","","33","","25.0","","98.74","","","","","","Mainly Clear"
"1990-11-11 01:00","1990","11","11","01:00","0.0","","-6.3","","63","","30","","33","","25.0","","98.81","","","","-7","","Mainly Clear"
"1990-11-11 02:00","1990","11","11","02:00","0.1","","-6.5","","61","","30","","33","","25.0","","98.87","","","","","","Mostly Cloudy"
"1990-11-11 03:00","1990","11","11","03:00","-0.1","","-5.7","","66","","29","","30","","25.0","","98.97","","","","-7","","Mostly Cloudy"
"1990-11-11 04:00","1990","11","11","04:00","-0.5","","-5.3","","70","","31","","26","","25.0","","99.04","","","","-7","","Clear"
"1990-11-11 05:00","1990","11","11","05:00","-1.2","","-6.0","","70","","27","","17","","25.0","","99.11","","","","-6","","Clear"
"1990-11-11 06:00","1990","11","11","06:00","-0.8","","-5.7","","69","","26","","19","","25.0","","99.14","","","","-6","","Mostly Cloudy"
"1990-11-11 07:00","1990","11","11","07:00","-0.4","","-4.0","","76","","26","","17","","25.0","","99.17","","","","-5","","Snow"
"1990-11-11 08:00","1990","11","11","08:00","-0.2","","-3.4","","79","","23","","13","","40.2","","99.14","","","","-4","","Mostly Cloudy"
"1990-11-11 09:00","1990","11","11","09:00","1.9","","-2.6","","72","","25","","15","","40.2","","99.11","","","","","","Mostly Cloudy"
"1990-11-11 10:00","1990","11","11","10:00","3.1","","-5.2","","54","","27","","22","","40.2","","99.14","","","","","","Mostly Cloudy"
"1990-11-11 11:00","1990","11","11","11:00","3.0","","-3.2","","64","","24","","28","","40.2","","99.11","","","","","","Mostly Cloudy"
"1990-11-11 12:00","1990","11","11","12:00","3.1","","-3.8","","60","","25","","22","","40.2","","98.94","","","","","","Cloudy"
"1990-11-11 13:00","1990","11","11","13:00","4.1","","-4.5","","53","","24","","30","","40.2","","98.77","","","","","","Cloudy"
"1990-11-11 14:00","1990","11","11","14:00","2.0","","-2.1","","74","","25","","33","","4.8","","98.64","","","","","","Snow Showers"
"1990-11-11 15:00","1990","11","11","15:00","2.2","","-3.4","","66","","23","","37","","4.0","","98.47","","","","","","Snow"
"1990-11-11 16:00","1990","11","11","16:00","0.4","","-0.3","","95","","23","","30","","1.2","","98.37","","","","","","Snow"
"1990-11-11 17:00","1990","11","11","17:00","1.0","","-0.5","","90","","25","","31","","4.8","","98.34","","","","","","Snow"
"1990-11-11 18:00","1990","11","11","18:00","0.2","","-0.3","","96","","29","","41","","8.0","","98.44","","","","","","Snow Showers"
"1990-11-11 19:00","1990","11","11","19:00","0.1","","-3.9","","74","","31","","59","","3.2","","98.64","","","","","","Snow Showers"
"1990-11-11 20:00","1990","11","11","20:00","-1.0","","-5.0","","74","","30","","39","","24.1","","98.81","","","","-9","","Mainly Clear"
"1990-11-11 21:00","1990","11","11","21:00","-1.1","","-4.7","","76","","30","","39","","25.0","","98.94","","","","-9","","Clear"
"1990-11-11 22:00","1990","11","11","22:00","-1.2","","-4.7","","77","","30","","31","","25.0","","99.11","","","","-8","","Clear"
"1990-11-11 23:00","1990","11","11","23:00","-1.6","","-6.4","","70","","29","","28","","25.0","","99.17","","","","-8","","Clear"
"1990-11-12 00:00","1990","11","12","00:00","-1.7","","-6.4","","70","","29","","22","","25.0","","99.24","","","","-8","","Mainly Clear"
"1990-11-12 01:00","1990","11","12","01:00","-2.0","","-6.4","","72","","28","","20","","25.0","","99.27","","","","-8","","Clear"
"1990-11-12 02:00","1990","11","12","02:00","-2.1","","-5.4","","78","","28","","30","","25.0","","99.31","","","","-9","","Clear"
"1990-11-12 03:00","1990","11","12","03:00","-3.4","","-5.7","","84","","27","","17","","25.0","","99.37","","","","-9","","Clear"
"1990-11-12 04:00","1990","11","12","04:00","-2.5","","-5.1","","82","","27","","19","","19.3","","99.41","","","","-8","","Mostly Cloudy"
"1990-11-12 05:00","1990","11","12","05:00","-1.7","","-3.9","","85","","27","","22","","12.9","","99.41","","","","-8","","Snow Showers"
"1990-11-12 06:00","1990","11","12","06:00","-1.9","","-3.9","","86","","27","","20","","4.8","","99.41","","","","-8","","Snow Showers"
"1990-11-12 07:00","1990","11","12","07:00","-1.6","","-3.9","","84","","27","","24","","12.9","","99.47","","","","-8","","Snow Showers"
"1990-11-12 08:00","1990","11","12","08:00","-1.4","","-4.5","","79","","28","","24","","32.2","","99.54","","","","-8","","Mainly Clear"
"1990-11-12 09:00","1990","11","12","09:00","-0.7","","-4.7","","74","","29","","26","","40.2","","99.57","","","","-7","","Mainly Clear"
"1990-11-12 10:00","1990","11","12","10:00","-0.2","","-6.2","","64","","30","","41","","40.2","","99.64","","","","-8","","Clear"
"1990-11-12 11:00","1990","11","12","11:00","0.2","","-6.0","","63","","30","","37","","40.2","","99.61","","","","","","Clear"
"1990-11-12 12:00","1990","11","12","12:00","1.0","","-4.8","","65","","29","","33","","40.2","","99.57","","","","","","Mainly Clear"
"1990-11-12 13:00","1990","11","12","13:00","0.7","","-4.3","","69","","28","","33","","40.2","","99.57","","","","","","Mainly Clear"
"1990-11-12 14:00","1990","11","12","14:00","1.4","","-3.5","","70","","28","","41","","40.2","","99.57","","","","","","Mostly Cloudy"
"1990-11-12 15:00","1990","11","12","15:00","1.5","","-4.1","","66","","29","","41","","40.2","","99.57","","","","","","Mostly Cloudy"
"1990-11-12 16:00","1990","11","12","16:00","0.8","","-4.2","","69","","29","","35","","32.2","","99.64","","","","","","Mostly Cloudy"
"1990-11-12 17:00","1990","11","12","17:00","0.3","","-4.2","","72","","29","","28","","25.0","","99.67","","","","","","Mostly Cloudy"
"1990-11-12 18:00","1990","11","12","18:00","0.3","","-3.6","","75","","28","","31","","24.1","","99.74","","","","","","Snow Showers"
"1990-11-12 19:00","1990","11","12","19:00","0.1","","-3.9","","74","","28","","30","","25.0","","99.74","","","","","","Mostly Cloudy"
"1990-11-12 20:00","1990","11","12","20:00","0.0","","-3.4","","78","","28","","26","","25.0","","99.77","","","","-6","","Snow Showers"
"1990-11-12 21:00","1990","11","12","21:00","-0.2","","-3.1","","81","","28","","24","","25.0","","99.74","","","","-6","","Snow Showers"
"1990-11-12 22:00","1990","11","12","22:00","-0.1","","-3.3","","79","","28","","26","","25.0","","99.71","","","","-6","","Mostly Cloudy"
"1990-11-12 23:00","1990","11","12","23:00","-0.1","","-3.3","","79","","29","","22","","19.3","","99.67","","","","-6","","Snow Showers"
"1990-11-13 00:00","1990","11","13","00:00","-0.4","","-3.1","","82","","28","","28","","24.1","","99.71","","","","-7","","Snow Showers"
"1990-11-13 01:00","1990","11","13","01:00","-0.9","","-5.4","","71","","31","","26","","25.0","","99.74","","","","-7","","Mainly Clear"
"1990-11-13 02:00","1990","11","13","02:00","-0.9","","-5.7","","70","","31","","30","","25.0","","99.81","","","","-8","","Mainly Clear"
"1990-11-13 03:00","1990","11","13","03:00","-1.6","","-5.7","","73","","30","","24","","25.0","","99.84","","","","-8","","Mainly Clear"
"1990-11-13 04:00","1990","11","13","04:00","-2.0","","-6.7","","70","","30","","30","","25.0","","99.87","","","","-9","","Mainly Clear"
"1990-11-13 05:00","1990","11","13","05:00","-2.5","","-6.7","","73","","30","","24","","25.0","","99.97","","","","-9","","Mainly Clear"
"1990-11-13 06:00","1990","11","13","06:00","-2.6","","-6.4","","75","","30","","20","","24.1","","100.01","","","","-9","","Mainly Clear"
"1990-11-13 07:00","1990","11","13","07:00","-2.5","","-6.7","","73","","30","","20","","25.0","","100.11","","","","-8","","Mainly Clear"
"1990-11-13 08:00","1990","11","13","08:00","-2.0","","-6.0","","74","","29","","20","","40.2","","100.21","","","","-8","","Mostly Cloudy"
"1990-11-13 09:00","1990","11","13","09:00","-1.3","","-5.7","","72","","29","","20","","32.2","","100.31","","","","-7","","Snow"
"1990-11-13 10:00","1990","11","13","10:00","-0.3","","-4.7","","72","","30","","22","","40.2","","100.34","","","","-6","","Mostly Cloudy"
"1990-11-13 11:00","1990","11","13","11:00","0.0","","-4.6","","71","","30","","22","","40.2","","100.41","","","","-6","","Snow"
"1990-11-13 12:00","1990","11","13","12:00","1.0","","-4.8","","65","","30","","26","","40.2","","100.41","","","","","","Mostly Cloudy"
"1990-11-13 13:00","1990","11","13","13:00","1.0","","-4.8","","65","","31","","28","","40.2","","100.37","","","","","","Mostly Cloudy"
"1990-11-13 14:00","1990","11","13","14:00","1.6","","-2.9","","72","","29","","30","","40.2","","100.41","","","","","","Mostly Cloudy"
"1990-11-13 15:00","1990","11","13","15:00","1.5","","-3.5","","69","","30","","28","","40.2","","100.44","","","","","","Mostly Cloudy"
"1990-11-13 16:00","1990","11","13","16:00","1.1","","-4.8","","65","","30","","24","","40.2","","100.47","","","","","","Mostly Cloudy"
"1990-11-13 17:00","1990","11","13","17:00","0.1","","-4.8","","70","","30","","22","","25.0","","100.51","","","","","","Mainly Clear"
"1990-11-13 18:00","1990","11","13","18:00","-0.8","","-3.8","","80","","28","","19","","25.0","","100.57","","","","-6","","Mainly Clear"
"1990-11-13 19:00","1990","11","13","19:00","-0.8","","-5.7","","69","","29","","19","","25.0","","100.61","","","","-6","","Mainly Clear"
"1990-11-13 20:00","1990","11","13","20:00","-1.1","","-5.4","","73","","30","","15","","25.0","","100.67","","","","-6","","Clear"
"1990-11-13 21:00","1990","11","13","21:00","-1.8","","-5.7","","74","","28","","15","","25.0","","100.71","","","","-7","","Clear"
"1990-11-13 22:00","1990","11","13","22:00","-1.7","","-4.8","","80","","28","","17","","25.0","","100.71","","","","-7","","Mainly Clear"
"1990-11-13 23:00","1990","11","13","23:00","-1.1","","-4.4","","78","","27","","17","","25.0","","100.71","","","","-6","","Mainly Clear"
"1990-11-14 00:00","1990","11","14","00:00","-1.4","","-5.1","","76","","27","","17","","25.0","","100.67","","","","-7","","Mainly Clear"
"1990-11-14 01:00","1990","11","14","01:00","-0.7","","-4.1","","78","","28","","19","","25.0","","100.67","","","","-6","","Mainly Clear"
"1990-11-14 02:00","1990","11","14","02:00","-1.4","","-4.5","","79","","24","","11","","24.1","","100.71","","","","-5","","Mainly Clear"
"1990-11-14 03:00","1990","11","14","03:00","-1.4","","-4.8","","78","","24","","9","","24.1","","100.71","","","","-5","","Mostly Cloudy"
"1990-11-14 04:00","1990","11","14","04:00","-1.1","","-3.8","","82","","25","","11","","24.1","","100.77","","","","-5","","Mostly Cloudy"
"1990-11-14 05:00","1990","11","14","05:00","-1.6","","-4.5","","81","","25","","15","","25.0","","100.81","","","","-6","","Mainly Clear"
"1990-11-14 06:00","1990","11","14","06:00","-2.0","","-4.5","","83","","25","","13","","25.0","","100.81","","","","-6","","Clear"
"1990-11-14 07:00","1990","11","14","07:00","-2.2","","-4.5","","84","","25","","11","","25.0","","100.77","","","","-6","","Mostly Cloudy"
"1990-11-14 08:00","1990","11","14","08:00","-1.6","","-3.6","","86","","26","","9","","19.3","","100.87","","","","-5","","Mostly Cloudy"
"1990-11-14 09:00","1990","11","14","09:00","0.5","","-3.1","","77","","24","","11","","24.1","","100.91","","","","","","Mainly Clear"
"1990-11-14 10:00","1990","11","14","10:00","3.0","","-2.6","","67","","21","","15","","24.1","","100.87","","","","","","Mostly Cloudy"
"1990-11-14 11:00","1990","11","14","11:00","4.5","","-2.5","","60","","20","","22","","32.2","","100.84","","","","","","Mostly Cloudy"
"1990-11-14 12:00","1990","11","14","12:00","5.6","","-3.0","","54","","21","","20","","40.2","","100.71","","","","","","Mostly Cloudy"
"1990-11-14 13:00","1990","11","14","13:00","6.8","","-1.5","","55","","20","","24","","32.2","","100.67","","","","","","Mostly Cloudy"
"1990-11-14 14:00","1990","11","14","14:00","7.4","","-1.5","","53","","21","","20","","32.2","","100.61","","","","","","Mostly Cloudy"
"1990-11-14 15:00","1990","11","14","15:00","8.3","","-0.1","","55","","19","","19","","24.1","","100.47","","","","","","Cloudy"
"1990-11-14 16:00","1990","11","14","16:00","7.7","","0.8","","61","","21","","22","","32.2","","100.41","","","","","","Mostly Cloudy"
"1990-11-14 17:00","1990","11","14","17:00","6.3","","0.6","","67","","19","","20","","24.1","","100.37","","","","","","Mostly Cloudy"
"1990-11-14 18:00","1990","11","14","18:00","5.3","","0.4","","71","","18","","19","","25.0","","100.31","","","","","","Mostly Cloudy"
"1990-11-14 19:00","1990","11","14","19:00","4.8","","-0.7","","67","","19","","17","","25.0","","100.27","","","","","","Mainly Clear"
"1990-11-14 20:00","1990","11","14","20:00","4.5","","-1.3","","66","","19","","17","","25.0","","100.24","","","","","","Mainly Clear"
"1990-11-14 21:00","1990","11","14","21:00","5.0","","-1.8","","61","","18","","15","","25.0","","100.21","","","","","","Mainly Clear"
"1990-11-14 22:00","1990","11","14","22:00","5.9","","-0.6","","63","","20","","17","","25.0","","100.17","","","","","","Mainly Clear"
"1990-11-14 23:00","1990","11","14","23:00","6.6","","-0.5","","60","","22","","22","","25.0","","100.07","","","","","","Mainly Clear"
"1990-11-15 00:00","1990","11","15","00:00","6.4","","-0.5","","61","","23","","22","","25.0","","100.07","","","","","","Mainly Clear"
"1990-11-15 01:00","1990","11","15","01:00","6.2","","0.0","","64","","21","","15","","25.0","","100.01","","","","","","Mainly Clear"
"1990-11-15 02:00","1990","11","15","02:00","6.9","","1.2","","67","","18","","9","","24.1","","100.07","","","","","","Mainly Clear"
"1990-11-15 03:00","1990","11","15","03:00","7.0","","1.7","","69","","15","","11","","24.1","","100.11","","","","","","Mostly Cloudy"
"1990-11-15 04:00","1990","11","15","04:00","8.2","","2.9","","69","","15","","11","","24.1","","100.11","","","","","","Mainly Clear"
"1990-11-15 05:00","1990","11","15","05:00","7.2","","2.7","","73","","15","","11","","19.3","","100.11","","","","","","Clear"
"1990-11-15 06:00","1990","11","15","06:00","5.9","","3.0","","82","","16","","11","","16.1","","100.07","","","","","","Clear"
"1990-11-15 07:00","1990","11","15","07:00","6.5","","3.1","","79","","17","","13","","16.1","","100.04","","","","","","Mainly Clear"
"1990-11-15 08:00","1990","11","15","08:00","6.6","","3.5","","80","","20","","13","","11.3","","100.04","","","","","","Clear"
"1990-11-15 09:00","1990","11","15","09:00","9.5","","5.1","","74","","23","","17","","12.9","","100.04","","","","","","Clear"
"1990-11-15 10:00","1990","11","15","10:00","12.5","","6.0","","65","","24","","28","","12.9","","99.97","","","","","","Clear"
"1990-11-15 11:00","1990","11","15","11:00","15.1","","7.3","","59","","23","","22","","12.9","","99.94","","","","","","Clear"
"1990-11-15 12:00","1990","11","15","12:00","17.0","","8.1","","56","","21","","20","","16.1","","99.84","","","","","","Clear"
"1990-11-15 13:00","1990","11","15","13:00","18.4","","7.8","","50","","21","","20","","19.3","","99.74","","","","","","Clear"
"1990-11-15 14:00","1990","11","15","14:00","18.9","","7.6","","48","","21","","22","","20.9","","99.67","","","","","","Clear"
"1990-11-15 15:00","1990","11","15","15:00","18.6","","7.8","","49","","21","","28","","20.9","","99.61","","","","","","Clear"
"1990-11-15 16:00","1990","11","15","16:00","17.2","","8.1","","55","","20","","20","","19.3","","99.61","","","","","","Clear"
"1990-11-15 17:00","1990","11","15","17:00","14.8","","8.6","","67","","21","","20","","16.1","","99.57","","","","","","Clear"
"1990-11-15 18:00","1990","11","15","18:00","14.3","","8.4","","68","","23","","30","","12.9","","99.57","","","","","","Clear"
"1990-11-15 19:00","1990","11","15","19:00","14.7","","8.0","","64","","23","","31","","12.9","","99.57","","","","","","Clear"
"1990-11-15 20:00","1990","11","15","20:00","14.8","","8.1","","64","","23","","30","","12.9","","99.54","","","","","","Clear"
"1990-11-15 21:00","1990","11","15","21:00","15.0","","8.1","","63","","23","","30","","12.9","","99.51","","","","","","Clear"
"1990-11-15 22:00","1990","11","15","22:00","15.0","","8.1","","63","","24","","26","","16.1","","99.57","","","","","","Clear"
"1990-11-15 23:00","1990","11","15","23:00","14.2","","7.8","","65","","23","","22","","12.9","","99.57","","","","","","Clear"
"1990-11-16 00:00","1990","11","16","00:00","13.5","","8.0","","69","","23","","19","","16.1","","99.57","","","","","","Clear"
"1990-11-16 01:00","1990","11","16","01:00","12.4","","7.7","","73","","23","","19","","16.1","","99.57","","","","","","Clear"
"1990-11-16 02:00","1990","11","16","02:00","11.7","","7.4","","75","","22","","15","","16.1","","99.51","","","","","","Clear"
"1990-11-16 03:00","1990","11","16","03:00","12.0","","7.5","","74","","21","","13","","16.1","","99.51","","","","","","Clear"
"1990-11-16 04:00","1990","11","16","04:00","11.2","","7.2","","76","","17","","13","","16.1","","99.47","","","","","","Clear"
"1990-11-16 05:00","1990","11","16","05:00","10.9","","7.2","","78","","18","","13","","16.1","","99.41","","","","","","Clear"
"1990-11-16 06:00","1990","11","16","06:00","11.5","","7.0","","74","","21","","20","","16.1","","99.31","","","","","","Clear"
"1990-11-16 07:00","1990","11","16","07:00","12.0","","6.7","","70","","22","","26","","16.1","","99.31","","","","","","Mostly Cloudy"
"1990-11-16 08:00","1990","11","16","08:00","12.1","","6.7","","70","","22","","20","","19.3","","99.24","","","","","","Mostly Cloudy"
"1990-11-16 09:00","1990","11","16","09:00","12.3","","7.3","","72","","22","","20","","12.9","","99.21","","","","","","Mostly Cloudy"
"1990-11-16 10:00","1990","11","16","10:00","13.9","","7.4","","65","","21","","26","","16.1","","99.11","","","","","","Cloudy"
"1990-11-16 11:00","1990","11","16","11:00","15.1","","7.7","","61","","20","","33","","19.3","","98.94","","","","","","Cloudy"
"1990-11-16 12:00","1990","11","16","12:00","16.0","","8.1","","59","","21","","22","","19.3","","98.81","","","","","","Cloudy"
"1990-11-16 13:00","1990","11","16","13:00","16.0","","8.1","","59","","22","","31","","19.3","","98.67","","","","","","Cloudy"
"1990-11-16 14:00","1990","11","16","14:00","15.0","","7.7","","62","","22","","33","","19.3","","98.61","","","","","","Cloudy"
"1990-11-16 15:00","1990","11","16","15:00","12.1","","9.9","","86","","23","","22","","4.0","","98.61","","","","","","Rain Showers,Fog"
"1990-11-16 16:00","1990","11","16","16:00","12.0","","10.2","","89","","22","","19","","6.4","","98.61","","","","","","Fog"
"1990-11-16 17:00","1990","11","16","17:00","11.8","","9.9","","88","","21","","20","","8.0","","98.64","","","","","","Fog"
"1990-11-16 18:00","1990","11","16","18:00","11.6","","9.3","","86","","22","","24","","9.7","","98.64","","","","","","Haze"
"1990-11-16 19:00","1990","11","16","19:00","11.4","","9.7","","89","","22","","17","","8.0","","98.67","","","","","","Fog"
"1990-11-16 20:00","1990","11","16","20:00","9.7","","7.6","","87","","30","","22","","12.9","","98.81","","","","","","Cloudy"
"1990-11-16 21:00","1990","11","16","21:00","6.2","","3.9","","85","","31","","31","","19.3","","98.94","","","","","","Cloudy"
"1990-11-16 22:00","1990","11","16","22:00","4.8","","2.4","","84","","33","","39","","25.0","","99.04","","","","","","Cloudy"
"1990-11-16 23:00","1990","11","16","23:00","4.4","","2.3","","86","","34","","44","","25.0","","99.11","","","","","","Mostly Cloudy"
"1990-11-17 00:00","1990","11","17","00:00","4.6","","0.8","","76","","34","","39","","25.0","","99.24","","","","","","Mostly Cloudy"
"1990-11-17 01:00","1990","11","17","01:00","4.6","","0.8","","76","","34","","39","","25.0","","99.34","","","","","","Mostly Cloudy"
"1990-11-17 02:00","1990","11","17","02:00","4.4","","0.8","","77","","33","","28","","25.0","","99.51","","","","","","Cloudy"
"1990-11-17 03:00","1990","11","17","03:00","3.6","","-0.3","","76","","34","","24","","25.0","","99.64","","","","","","Mostly Cloudy"
"1990-11-17 04:00","1990","11","17","04:00","2.5","","-1.5","","75","","34","","26","","25.0","","99.81","","","","","","Mostly Cloudy"
"1990-11-17 05:00","1990","11","17","05:00","0.9","","-2.4","","79","","33","","24","","25.0","","99.87","","","","","","Mainly Clear"
"1990-11-17 06:00","1990","11","17","06:00","0.1","","-2.7","","81","","32","","19","","25.0","","99.91","","","","","","Clear"
"1990-11-17 07:00","1990","11","17","07:00","-0.8","","-3.6","","81","","33","","15","","25.0","","99.97","","","","-5","","Clear"
"1990-11-17 08:00","1990","11","17","08:00","0.0","","-2.3","","85","","33","","15","","40.2","","100.07","","","","-4","","Clear"
"1990-11-17 09:00","1990","11","17","09:00","1.4","","-2.4","","76","","33","","20","","40.2","","100.11","","","","","","Mainly Clear"
"1990-11-17 10:00","1990","11","17","10:00","3.0","","-2.6","","67","","34","","22","","40.2","","100.17","","","","","","Mainly Clear"
"1990-11-17 11:00","1990","11","17","11:00","3.2","","-3.2","","63","","34","","28","","40.2","","100.21","","","","","","Mainly Clear"
"1990-11-17 12:00","1990","11","17","12:00","4.0","","-4.5","","54","","33","","28","","40.2","","100.17","","","","","","Clear"
"1990-11-17 13:00","1990","11","17","13:00","4.1","","-7.4","","43","","32","","30","","40.2","","100.17","","","","","","Clear"
"1990-11-17 14:00","1990","11","17","14:00","4.3","","-7.4","","42","","33","","30","","40.2","","100.17","","","","","","Clear"
"1990-11-17 15:00","1990","11","17","15:00","3.3","","-5.7","","52","","33","","30","","40.2","","100.24","","","","","","Clear"
"1990-11-17 16:00","1990","11","17","16:00","2.1","","-7.5","","49","","32","","26","","40.2","","100.27","","","","","","Clear"
"1990-11-17 17:00","1990","11","17","17:00","0.2","","-6.0","","63","","33","","22","","25.0","","100.31","","","","","","Clear"
"1990-11-17 18:00","1990","11","17","18:00","-1.3","","-5.7","","72","","33","","17","","25.0","","100.34","","","","-6","","Clear"
"1990-11-17 19:00","1990","11","17","19:00","-2.3","","-6.0","","76","","32","","17","","25.0","","100.37","","","","-8","","Clear"
"1990-11-17 20:00","1990","11","17","20:00","-2.3","","-5.7","","77","","32","","15","","25.0","","100.41","","","","-7","","Clear"
"1990-11-17 21:00","1990","11","17","21:00","-3.2","","-5.1","","87","","33","","13","","25.0","","100.44","","","","-8","","Clear"
"1990-11-17 22:00","1990","11","17","22:00","-4.4","","-6.6","","84","","32","","11","","25.0","","100.51","","","","-9","","Clear"
"1990-11-17 23:00","1990","11","17","23:00","-4.5","","-6.6","","85","","34","","11","","25.0","","100.47","","","","-9","","Clear"
"1990-11-18 00:00","1990","11","18","00:00","-4.6","","-6.3","","88","","33","","11","","25.0","","100.51","","","","-9","","Clear"
"1990-11-18 01:00","1990","11","18","01:00","-4.9","","-7.2","","84","","35","","11","","25.0","","100.51","","","","-9","","Clear"
"1990-11-18 02:00","1990","11","18","02:00","-5.4","","-7.5","","85","","33","","9","","25.0","","100.51","","","","-9","","Clear"
"1990-11-18 03:00","1990","11","18","03:00","-3.8","","-6.6","","81","","33","","7","","25.0","","100.47","","","","-7","","Clear"
"1990-11-18 04:00","1990","11","18","04:00","-5.0","","-7.2","","84","","34","","9","","25.0","","100.47","","","","-9","","Clear"
"1990-11-18 05:00","1990","11","18","05:00","-5.2","","-7.2","","86","","34","","6","","25.0","","100.51","","","","-8","","Mostly Cloudy"
"1990-11-18 06:00","1990","11","18","06:00","-4.4","","-6.9","","83","","","","0","","25.0","","100.57","","","","","","Clear"
"1990-11-18 07:00","1990","11","18","07:00","-6.5","","-8.3","","87","","34","","7","","25.0","","100.61","","","","-10","","Clear"
"1990-11-18 08:00","1990","11","18","08:00","-5.7","","-7.1","","90","","3","","7","","40.2","","100.64","","","","-9","","Clear"
"1990-11-18 09:00","1990","11","18","09:00","-1.7","","-4.5","","81","","4","","7","","40.2","","100.67","","","","-4","","Clear"
"1990-11-18 10:00","1990","11","18","10:00","0.4","","-3.8","","74","","1","","6","","40.2","","100.67","","","","","","Clear"
"1990-11-18 11:00","1990","11","18","11:00","2.5","","-3.9","","63","","12","","7","","40.2","","100.67","","","","","","Mainly Clear"
"1990-11-18 12:00","1990","11","18","12:00","3.0","","-3.2","","64","","16","","9","","40.2","","100.57","","","","","","Mostly Cloudy"
"1990-11-18 13:00","1990","11","18","13:00","3.0","","-3.8","","61","","12","","6","","40.2","","100.51","","","","","","Mostly Cloudy"
"1990-11-18 14:00","1990","11","18","14:00","3.0","","-3.8","","61","","13","","6","","40.2","","100.47","","","","","","Mostly Cloudy"
"1990-11-18 15:00","1990","11","18","15:00","3.1","","-4.5","","57","","13","","7","","40.2","","100.41","","","","","","Mainly Clear"
"1990-11-18 16:00","1990","11","18","16:00","2.7","","-3.2","","65","","14","","11","","32.2","","100.37","","","","","","Clear"
"1990-11-18 17:00","1990","11","18","17:00","1.0","","-3.0","","75","","15","","9","","25.0","","100.34","","","","","","Mainly Clear"
"1990-11-18 18:00","1990","11","18","18:00","0.4","","-1.3","","89","","19","","9","","25.0","","100.37","","","","","","Clear"
"1990-11-18 19:00","1990","11","18","19:00","-0.2","","-2.8","","83","","","","0","","25.0","","100.37","","","","","","Clear"
"1990-11-18 20:00","1990","11","18","20:00","-0.8","","-3.8","","80","","16","","4","","25.0","","100.34","","","","-2","","Clear"
"1990-11-18 21:00","1990","11","18","21:00","-0.7","","-2.9","","85","","","","0","","25.0","","100.31","","","","","","Clear"
"1990-11-18 22:00","1990","11","18","22:00","-0.6","","-2.7","","86","","","","0","","25.0","","100.24","","","","","","Clear"
"1990-11-18 23:00","1990","11","18","23:00","-2.5","","-3.7","","91","","","","0","","25.0","","100.21","","","","","","Mainly Clear"
"1990-11-19 00:00","1990","11","19","00:00","-4.3","","-5.7","","90","","35","","7","","24.1","","100.21","","","","-7","","Mainly Clear"
"1990-11-19 01:00","1990","11","19","01:00","-4.1","","-4.8","","95","","31","","6","","19.3","","100.17","","","","-7","","Mainly Clear"
"1990-11-19 02:00","1990","11","19","02:00","-4.5","","-5.4","","93","","34","","6","","19.3","","100.17","","","","-7","","Mostly Cloudy"
"1990-11-19 03:00","1990","11","19","03:00","-3.5","","-4.2","","95","","34","","7","","14.5","","100.17","","","","-6","","Mostly Cloudy"
"1990-11-19 04:00","1990","11","19","04:00","-2.5","","-3.1","","96","","35","","7","","12.9","","100.11","","","","-5","","Mostly Cloudy"
"1990-11-19 05:00","1990","11","19","05:00","-3.0","","-3.9","","94","","35","","9","","11.3","","100.11","","","","-7","","Mostly Cloudy"
"1990-11-19 06:00","1990","11","19","06:00","-2.7","","-3.7","","93","","31","","7","","11.3","","100.11","","","","-6","","Mostly Cloudy"
"1990-11-19 07:00","1990","11","19","07:00","-2.9","","-4.8","","87","","35","","7","","19.3","","100.11","","","","-6","","Mostly Cloudy"
"1990-11-19 08:00","1990","11","19","08:00","-2.7","","-4.8","","86","","33","","4","","19.3","","100.11","","","","-4","","Mostly Cloudy"
"1990-11-19 09:00","1990","11","19","09:00","-1.2","","-4.7","","77","","7","","6","","19.3","","100.11","","","","-3","","Mostly Cloudy"
"1990-11-19 10:00","1990","11","19","10:00","1.2","","-3.6","","70","","","","0","","19.3","","100.11","","","","","","Mainly Clear"
"1990-11-19 11:00","1990","11","19","11:00","1.5","","-2.9","","73","","","","0","","19.3","","100.07","","","","","","Mainly Clear"
"1990-11-19 12:00","1990","11","19","12:00","3.2","","-2.6","","65","","16","","4","","24.1","","100.04","","","","","","Mainly Clear"
"1990-11-19 13:00","1990","11","19","13:00","3.2","","-3.2","","63","","13","","4","","24.1","","99.91","","","","","","Mostly Cloudy"
"1990-11-19 14:00","1990","11","19","14:00","3.0","","-2.6","","67","","17","","7","","24.1","","99.91","","","","","","Cloudy"
"1990-11-19 15:00","1990","11","19","15:00","2.4","","-2.6","","69","","19","","7","","32.2","","99.91","","","","","","Mostly Cloudy"
"1990-11-19 16:00","1990","11","19","16:00","2.2","","-2.6","","70","","17","","6","","24.1","","99.91","","","","","","Cloudy"
"1990-11-19 17:00","1990","11","19","17:00","1.6","","-2.4","","75","","16","","6","","19.3","","99.94","","","","","","Cloudy"
"1990-11-19 18:00","1990","11","19","18:00","1.2","","-2.4","","77","","17","","4","","25.0","","99.97","","","","","","Cloudy"
"1990-11-19 19:00","1990","11","19","19:00","1.0","","-1.9","","81","","20","","7","","25.0","","99.94","","","","","","Mostly Cloudy"
"1990-11-19 20:00","1990","11","19","20:00","-0.1","","-2.4","","85","","21","","4","","25.0","","99.97","","","","-1","","Mostly Cloudy"
"1990-11-19 21:00","1990","11","19","21:00","0.2","","-2.1","","84","","18","","4","","25.0","","99.97","","","","","","Mainly Clear"
"1990-11-19 22:00","1990","11","19","22:00","-0.8","","-2.7","","87","","25","","4","","19.3","","100.01","","","","-2","","Clear"
"1990-11-19 23:00","1990","11","19","23:00","-1.5","","-3.0","","89","","","","0","","19.3","","100.01","","","","","","Clear"
"1990-11-20 00:00","1990","11","20","00:00","-1.9","","-3.3","","90","","","","0","","19.3","","100.04","","","","","","Clear"
"1990-11-20 01:00","1990","11","20","01:00","-3.0","","-4.2","","91","","","","0","","12.9","","100.01","","","","","","Clear"
"1990-11-20 02:00","1990","11","20","02:00","-2.6","","-3.4","","94","","","","0","","6.4","","100.07","","","","","","Fog"
"1990-11-20 03:00","1990","11","20","03:00","-3.6","","-4.8","","92","","27","","6","","8.0","","100.11","","","","-6","","Fog"
"1990-11-20 04:00","1990","11","20","04:00","-3.1","","-4.5","","90","","","","0","","8.0","","100.11","","","","","","Fog"
"1990-11-20 05:00","1990","11","20","05:00","-1.8","","-3.3","","89","","","","0","","8.0","","100.14","","","","","","Fog"
"1990-11-20 06:00","1990","11","20","06:00","-1.4","","-2.5","","92","","","","0","","6.4","","100.17","","","","","","Fog"
"1990-11-20 07:00","1990","11","20","07:00","-1.4","","-2.5","","92","","","","0","","4.8","","100.24","","","","","","Fog"
"1990-11-20 08:00","1990","11","20","08:00","0.2","","-1.0","","91","","","","0","","3.2","","100.27","","","","","","Fog"
"1990-11-20 09:00","1990","11","20","09:00","2.5","","0.6","","87","","","","0","","3.2","","100.31","","","","","","Fog"
"1990-11-20 10:00","1990","11","20","10:00","5.2","","2.8","","84","","","","0","","4.0","","100.37","","","","","","Fog"
"1990-11-20 11:00","1990","11","20","11:00","6.9","","3.6","","80","","33","","4","","11.3","","100.41","","","","","","Mainly Clear"
"1990-11-20 12:00","1990","11","20","12:00","8.2","","2.4","","67","","","","0","","12.9","","100.41","","","","","","Mainly Clear"
"1990-11-20 13:00","1990","11","20","13:00","8.5","","1.5","","61","","33","","6","","16.1","","100.37","","","","","","Mostly Cloudy"
"1990-11-20 14:00","1990","11","20","14:00","10.1","","1.4","","55","","34","","13","","16.1","","100.34","","","","","","Mostly Cloudy"
"1990-11-20 15:00","1990","11","20","15:00","9.0","","1.7","","60","","36","","13","","19.3","","100.37","","","","","","Mainly Clear"
"1990-11-20 16:00","1990","11","20","16:00","7.2","","0.2","","61","","36","","15","","32.2","","100.41","","","","","","Mainly Clear"
"1990-11-20 17:00","1990","11","20","17:00","5.5","","-0.1","","67","","1","","11","","24.1","","100.47","","","","","","Mainly Clear"
"1990-11-20 18:00","1990","11","20","18:00","4.0","","-0.3","","74","","36","","11","","25.0","","100.51","","","","","","Clear"
"1990-11-20 19:00","1990","11","20","19:00","3.2","","-0.4","","77","","36","","11","","25.0","","100.51","","","","","","Clear"
"1990-11-20 20:00","1990","11","20","20:00","-0.4","","-1.5","","92","","34","","7","","25.0","","100.54","","","","-3","","Clear"
"1990-11-20 21:00","1990","11","20","21:00","-0.3","","-1.3","","93","","32","","6","","25.0","","100.57","","","","-2","","Clear"
"1990-11-20 22:00","1990","11","20","22:00","-1.6","","-2.5","","94","","32","","7","","19.3","","100.61","","","","-4","","Clear"
"1990-11-20 23:00","1990","11","20","23:00","-1.0","","-1.9","","94","","33","","6","","19.3","","100.61","","","","-3","","Clear"
"1990-11-21 00:00","1990","11","21","00:00","-1.5","","-2.5","","93","","33","","9","","8.0","","100.57","","","","-5","","Fog"
"1990-11-21 01:00","1990","11","21","01:00","-2.8","","-3.9","","92","","1","","4","","9.7","","100.51","","","","-4","","Fog"
"1990-11-21 02:00","1990","11","21","02:00","-3.4","","-4.0","","96","","35","","7","","12.9","","100.54","","","","-6","","Clear"
"1990-11-21 03:00","1990","11","21","03:00","-2.5","","-3.1","","96","","36","","7","","16.1","","100.51","","","","-5","","Mainly Clear"
"1990-11-21 04:00","1990","11","21","04:00","-2.2","","-2.8","","96","","35","","4","","16.1","","100.47","","","","-4","","Mainly Clear"
"1990-11-21 05:00","1990","11","21","05:00","-2.1","","-2.8","","95","","35","","7","","12.9","","100.51","","","","-5","","Mostly Cloudy"
"1990-11-21 06:00","1990","11","21","06:00","-0.8","","-1.6","","94","","31","","6","","12.9","","100.47","","","","-3","","Mostly Cloudy"
"1990-11-21 07:00","1990","11","21","07:00","-0.3","","-1.1","","94","","6","","4","","8.0","","100.47","","","","-2","","Fog"
"1990-11-21 08:00","1990","11","21","08:00","1.2","","-0.5","","88","","2","","4","","4.8","","100.54","","","","","","Fog"
"1990-11-21 09:00","1990","11","21","09:00","3.2","","1.6","","89","","","","0","","6.4","","100.47","","","","","","Fog"
"1990-11-21 10:00","1990","11","21","10:00","4.4","","3.2","","92","","12","","13","","6.4","","100.41","","","","","","Fog"
"1990-11-21 11:00","1990","11","21","11:00","4.7","","2.7","","87","","12","","13","","8.0","","100.41","","","","","","Fog"
"1990-11-21 12:00","1990","11","21","12:00","5.0","","2.8","","86","","12","","15","","8.0","","100.31","","","","","","Haze"
"1990-11-21 13:00","1990","11","21","13:00","5.2","","2.8","","84","","13","","15","","6.4","","100.24","","","","","","Haze"
"1990-11-21 14:00","1990","11","21","14:00","5.2","","2.4","","82","","10","","11","","6.4","","100.17","","","","","","Haze"
"1990-11-21 15:00","1990","11","21","15:00","5.3","","2.4","","82","","16","","11","","8.0","","100.11","","","","","","Haze"
"1990-11-21 16:00","1990","11","21","16:00","5.1","","2.4","","83","","11","","15","","9.7","","100.07","","","","","","Haze"
"1990-11-21 17:00","1990","11","21","17:00","5.4","","2.4","","81","","11","","19","","4.8","","99.97","","","","","","Haze"
"1990-11-21 18:00","1990","11","21","18:00","5.3","","3.8","","90","","11","","20","","6.4","","99.91","","","","","","Rain,Fog"
"1990-11-21 19:00","1990","11","21","19:00","5.2","","3.7","","90","","10","","17","","6.4","","99.97","","","","","","Rain,Fog"
"1990-11-21 20:00","1990","11","21","20:00","5.1","","4.2","","94","","10","","19","","6.4","","99.87","","","","","","Rain,Fog"
"1990-11-21 21:00","1990","11","21","21:00","5.5","","4.2","","91","","11","","20","","8.0","","99.71","","","","","","Rain,Fog"
"1990-11-21 22:00","1990","11","21","22:00","6.0","","3.9","","86","","13","","15","","11.3","","99.64","","","","","","Cloudy"
"1990-11-21 23:00","1990","11","21","23:00","5.9","","4.3","","89","","12","","7","","12.9","","99.51","","","","","","Cloudy"
"1990-11-22 00:00","1990","11","22","00:00","6.3","","4.0","","85","","13","","11","","12.9","","99.47","","","","","","Cloudy"
"1990-11-22 01:00","1990","11","22","01:00","6.3","","4.0","","85","","12","","11","","12.9","","99.37","","","","","","Cloudy"
"1990-11-22 02:00","1990","11","22","02:00","7.0","","3.2","","77","","13","","11","","16.1","","99.31","","","","","","Cloudy"
"1990-11-22 03:00","1990","11","22","03:00","7.0","","3.6","","79","","15","","11","","16.1","","99.27","","","","","","Cloudy"
"1990-11-22 04:00","1990","11","22","04:00","6.8","","4.5","","85","","19","","4","","12.9","","99.21","","","","","","Cloudy"
"1990-11-22 05:00","1990","11","22","05:00","6.3","","5.3","","93","","","","0","","6.4","","99.17","","","","","","Rain,Fog"
"1990-11-22 06:00","1990","11","22","06:00","6.9","","5.8","","93","","13","","11","","8.0","","99.07","","","","","","Rain,Fog"
"1990-11-22 07:00","1990","11","22","07:00","7.7","","6.3","","91","","15","","11","","8.0","","99.11","","","","","","Rain,Fog"
"1990-11-22 08:00","1990","11","22","08:00","8.2","","6.8","","91","","15","","9","","3.6","","99.04","","","","","","Fog"
"1990-11-22 09:00","1990","11","22","09:00","10.1","","8.5","","90","","17","","9","","3.2","","99.01","","","","","","Rain,Fog"
"1990-11-22 10:00","1990","11","22","10:00","11.3","","10.4","","94","","20","","15","","2.0","","99.01","","","","","","Rain,Fog"
"1990-11-22 11:00","1990","11","22","11:00","11.8","","11.3","","97","","21","","13","","2.0","","98.97","","","","","","Rain,Fog"
"1990-11-22 12:00","1990","11","22","12:00","12.2","","11.0","","92","","21","","13","","4.8","","98.91","","","","","","Rain Showers,Fog"
"1990-11-22 13:00","1990","11","22","13:00","12.3","","11.5","","95","","23","","7","","8.0","","98.87","","","","","","Rain Showers,Fog"
"1990-11-22 14:00","1990","11","22","14:00","12.2","","11.0","","92","","21","","7","","6.4","","98.81","","","","","","Rain,Fog"
"1990-11-22 15:00","1990","11","22","15:00","12.0","","11.0","","94","","21","","7","","6.4","","98.77","","","","","","Rain,Fog"
"1990-11-22 16:00","1990","11","22","16:00","11.4","","10.4","","94","","10","","11","","8.0","","98.71","","","","","","Rain,Fog"
"1990-11-22 17:00","1990","11","22","17:00","10.3","","9.8","","97","","32","","7","","4.8","","98.81","","","","","","Fog"
"1990-11-22 18:00","1990","11","22","18:00","8.7","","7.4","","91","","28","","4","","9.7","","98.84","","","","","","Fog"
"1990-11-22 19:00","1990","11","22","19:00","8.2","","7.2","","93","","29","","11","","9.7","","98.84","","","","","","Fog"
"1990-11-22 20:00","1990","11","22","20:00","6.5","","5.3","","92","","","","0","","12.9","","98.84","","","","","","Cloudy"
"1990-11-22 21:00","1990","11","22","21:00","5.5","","4.2","","91","","28","","11","","12.9","","98.81","","","","","","Cloudy"
"1990-11-22 22:00","1990","11","22","22:00","4.9","","3.7","","92","","27","","7","","25.0","","98.84","","","","","","Mostly Cloudy"
"1990-11-22 23:00","1990","11","22","23:00","4.0","","2.2","","88","","","","0","","25.0","","98.81","","","","","","Mainly Clear"
"1990-11-23 00:00","1990","11","23","00:00","2.5","","0.6","","87","","28","","7","","25.0","","98.84","","","","","","Clear"
"1990-11-23 01:00","1990","11","23","01:00","2.0","","0.6","","90","","30","","7","","25.0","","98.71","","","","","","Clear"
"1990-11-23 02:00","1990","11","23","02:00","1.6","","-0.5","","86","","30","","4","","25.0","","98.61","","","","","","Clear"
"1990-11-23 03:00","1990","11","23","03:00","2.8","","0.2","","83","","","","0","","25.0","","98.61","","","","","","Clear"
"1990-11-23 04:00","1990","11","23","04:00","2.5","","0.1","","84","","18","","7","","25.0","","98.64","","","","","","Clear"
"1990-11-23 05:00","1990","11","23","05:00","1.9","","0.1","","88","","17","","11","","25.0","","98.61","","","","","","Clear"
"1990-11-23 06:00","1990","11","23","06:00","1.1","","-0.5","","89","","","","0","","25.0","","98.51","","","","","","Mainly Clear"
"1990-11-23 07:00","1990","11","23","07:00","1.3","","0.0","","91","","","","0","","24.1","","98.44","","","","","","Mainly Clear"
"1990-11-23 08:00","1990","11","23","08:00","1.4","","0.0","","90","","18","","6","","12.9","","98.37","","","","","","Mainly Clear"
"1990-11-23 09:00","1990","11","23","09:00","3.1","","-0.4","","78","","15","","11","","16.1","","98.24","","","","","","Mainly Clear"
"1990-11-23 10:00","1990","11","23","10:00","5.8","","3.0","","82","","17","","15","","12.9","","98.14","","","","","","Clear"
"1990-11-23 11:00","1990","11","23","11:00","8.3","","4.4","","76","","17","","20","","16.1","","98.01","","","","","","Clear"
"1990-11-23 12:00","1990","11","23","12:00","10.1","","1.9","","57","","17","","19","","24.1","","97.84","","","","","","Mostly Cloudy"
"1990-11-23 13:00","1990","11","23","13:00","10.2","","0.8","","52","","17","","20","","32.2","","97.67","","","","","","Mostly Cloudy"
"1990-11-23 14:00","1990","11","23","14:00","9.6","","1.3","","56","","19","","28","","40.2","","97.54","","","","","","Mostly Cloudy"
"1990-11-23 15:00","1990","11","23","15:00","9.0","","1.1","","58","","22","","28","","32.2","","97.54","","","","","","Cloudy"
"1990-11-23 16:00","1990","11","23","16:00","5.8","","3.9","","88","","22","","26","","16.1","","97.61","","","","","","Rain Showers"
"1990-11-23 17:00","1990","11","23","17:00","5.5","","3.4","","86","","23","","22","","25.0","","97.61","","","","","","Cloudy"
"1990-11-23 18:00","1990","11","23","18:00","5.7","","2.9","","82","","21","","20","","19.3","","97.61","","","","","","Mainly Clear"
"1990-11-23 19:00","1990","11","23","19:00","4.9","","2.8","","86","","22","","17","","24.1","","97.57","","","","","","Clear"
"1990-11-23 20:00","1990","11","23","20:00","4.5","","2.3","","85","","26","","22","","9.7","","97.61","","","","","","Rain Showers,Fog"
"1990-11-23 21:00","1990","11","23","21:00","3.0","","1.6","","91","","23","","17","","25.0","","97.57","","","","","","Rain Showers"
"1990-11-23 22:00","1990","11","23","22:00","3.1","","0.7","","84","","25","","17","","25.0","","97.61","","","","","","Mostly Cloudy"
"1990-11-23 23:00","1990","11","23","23:00","2.9","","-2.0","","70","","26","","22","","25.0","","97.61","","","","","","Mostly Cloudy"
"1990-11-24 00:00","1990","11","24","00:00","1.8","","-2.1","","75","","26","","24","","25.0","","97.64","","","","","","Mostly Cloudy"
"1990-11-24 01:00","1990","11","24","01:00","1.3","","-1.5","","82","","25","","22","","25.0","","97.64","","","","","","Mostly Cloudy"
"1990-11-24 02:00","1990","11","24","02:00","1.2","","-1.5","","82","","26","","22","","16.1","","97.71","","","","","","Snow Showers"
"1990-11-24 03:00","1990","11","24","03:00","1.3","","-1.5","","82","","27","","15","","19.3","","97.77","","","","","","Mostly Cloudy"
"1990-11-24 04:00","1990","11","24","04:00","1.1","","-3.0","","74","","29","","22","","25.0","","97.81","","","","","","Mostly Cloudy"
"1990-11-24 05:00","1990","11","24","05:00","0.6","","-1.4","","86","","28","","19","","19.3","","97.91","","","","","","Snow Showers"
"1990-11-24 06:00","1990","11","24","06:00","0.6","","-2.5","","80","","27","","13","","25.0","","97.94","","","","","","Mostly Cloudy"
"1990-11-24 07:00","1990","11","24","07:00","0.6","","-3.1","","76","","27","","15","","25.0","","97.97","","","","","","Mostly Cloudy"
"1990-11-24 08:00","1990","11","24","08:00","0.8","","-1.9","","82","","27","","17","","32.2","","98.04","","","","","","Mostly Cloudy"
"1990-11-24 09:00","1990","11","24","09:00","0.9","","-3.0","","75","","24","","13","","32.2","","98.11","","","","","","Mostly Cloudy"
"1990-11-24 10:00","1990","11","24","10:00","0.9","","-4.2","","69","","26","","20","","32.2","","98.17","","","","","","Cloudy"
"1990-11-24 11:00","1990","11","24","11:00","0.9","","-4.2","","69","","24","","19","","24.1","","98.21","","","","","","Snow Showers"
"1990-11-24 12:00","1990","11","24","12:00","0.7","","-2.1","","81","","25","","22","","16.1","","98.24","","","","","","Snow Showers"
"1990-11-24 13:00","1990","11","24","13:00","0.6","","-2.5","","80","","25","","19","","12.9","","98.24","","","","","","Snow Showers"
"1990-11-24 14:00","1990","11","24","14:00","0.8","","-2.4","","79","","26","","17","","19.3","","98.31","","","","","","Snow Showers"
"1990-11-24 15:00","1990","11","24","15:00","1.1","","-3.0","","74","","26","","20","","16.1","","98.31","","","","","","Cloudy"
"1990-11-24 16:00","1990","11","24","16:00","1.0","","-3.6","","71","","26","","20","","24.1","","98.41","","","","","","Cloudy"
"1990-11-24 17:00","1990","11","24","17:00","0.9","","-3.0","","75","","24","","11","","25.0","","98.41","","","","","","Cloudy"
"1990-11-24 18:00","1990","11","24","18:00","0.7","","-3.1","","75","","24","","11","","25.0","","98.41","","","","","","Mostly Cloudy"
"1990-11-24 19:00","1990","11","24","19:00","0.3","","-3.3","","77","","21","","7","","25.0","","98.41","","","","","","Mostly Cloudy"
"1990-11-24 20:00","1990","11","24","20:00","0.4","","-2.9","","79","","17","","7","","25.0","","98.41","","","","","","Cloudy"
"1990-11-24 21:00","1990","11","24","21:00","0.7","","-3.1","","75","","18","","7","","25.0","","98.34","","","","","","Cloudy"
"1990-11-24 22:00","1990","11","24","22:00","0.9","","-3.0","","75","","17","","6","","25.0","","98.31","","","","","","Cloudy"
"1990-11-24 23:00","1990","11","24","23:00","0.4","","-1.3","","89","","","","0","","2.4","","98.21","","","","","","Snow Showers"
"1990-11-25 00:00","1990","11","25","00:00","0.5","","-0.9","","90","","11","","7","","16.1","","98.07","","","","","","Cloudy"
"1990-11-25 01:00","1990","11","25","01:00","0.8","","0.0","","95","","11","","7","","11.3","","97.91","","","","","","Rain"
"1990-11-25 02:00","1990","11","25","02:00","2.4","","1.6","","95","","12","","15","","6.4","","97.74","","","","","","Fog"
"1990-11-25 03:00","1990","11","25","03:00","3.2","","2.6","","96","","11","","19","","4.8","","97.64","","","","","","Fog"
"1990-11-25 04:00","1990","11","25","04:00","3.7","","3.7","","100","","13","","19","","3.2","","97.51","","","","","","Fog"
"1990-11-25 05:00","1990","11","25","05:00","3.2","","3.2","","100","","13","","7","","0.6","","97.44","","","","","","Fog"
"1990-11-25 06:00","1990","11","25","06:00","4.0","","3.1","","94","","23","","7","","16.1","","97.44","","","","","","Mainly Clear"
"1990-11-25 07:00","1990","11","25","07:00","5.2","","2.8","","84","","25","","19","","25.0","","97.51","","","","","","Mainly Clear"
"1990-11-25 08:00","1990","11","25","08:00","6.2","","1.0","","69","","27","","31","","24.1","","97.71","","","","","","Mostly Cloudy"
"1990-11-25 09:00","1990","11","25","09:00","4.2","","-1.9","","64","","29","","41","","24.1","","97.97","","","","","","Mostly Cloudy"
"1990-11-25 10:00","1990","11","25","10:00","3.7","","-3.2","","60","","29","","28","","24.1","","98.14","","","","","","Mostly Cloudy"
"1990-11-25 11:00","1990","11","25","11:00","4.0","","-3.2","","59","","28","","33","","32.2","","98.37","","","","","","Mostly Cloudy"
"1990-11-25 12:00","1990","11","25","12:00","3.9","","-3.2","","60","","29","","35","","32.2","","98.54","","","","","","Mostly Cloudy"
"1990-11-25 13:00","1990","11","25","13:00","3.5","","-3.8","","59","","29","","39","","32.2","","98.61","","","","","","Mostly Cloudy"
"1990-11-25 14:00","1990","11","25","14:00","3.3","","-4.5","","57","","29","","28","","32.2","","98.74","","","","","","Mostly Cloudy"
"1990-11-25 15:00","1990","11","25","15:00","3.3","","-3.8","","60","","29","","26","","32.2","","98.81","","","","","","Mostly Cloudy"
"1990-11-25 16:00","1990","11","25","16:00","2.6","","-3.9","","62","","30","","24","","32.2","","99.01","","","","","","Cloudy"
"1990-11-25 17:00","1990","11","25","17:00","2.5","","-3.9","","63","","29","","22","","25.0","","99.11","","","","","","Mostly Cloudy"
"1990-11-25 18:00","1990","11","25","18:00","2.3","","-3.9","","64","","28","","15","","25.0","","99.21","","","","","","Mostly Cloudy"
"1990-11-25 19:00","1990","11","25","19:00","1.8","","-3.4","","68","","27","","15","","25.0","","99.31","","","","","","Mostly Cloudy"
"1990-11-25 20:00","1990","11","25","20:00","1.0","","-3.6","","71","","27","","11","","25.0","","99.34","","","","","","Mainly Clear"
"1990-11-25 21:00","1990","11","25","21:00","0.0","","-3.7","","76","","29","","11","","25.0","","99.44","","","","-4","","Mainly Clear"
"1990-11-25 22:00","1990","11","25","22:00","-0.1","","-3.6","","77","","28","","7","","25.0","","99.47","","","","-3","","Mostly Cloudy"
"1990-11-25 23:00","1990","11","25","23:00","-1.4","","-4.2","","81","","29","","9","","25.0","","99.51","","","","-5","","Mainly Clear"
"1990-11-26 00:00","1990","11","26","00:00","-0.7","","-2.4","","88","","31","","11","","25.0","","99.57","","","","-4","","Mostly Cloudy"
"1990-11-26 01:00","1990","11","26","01:00","0.5","","-3.1","","77","","32","","11","","25.0","","99.61","","","","","","Mostly Cloudy"
"1990-11-26 02:00","1990","11","26","02:00","-0.3","","-4.1","","75","","28","","7","","25.0","","99.67","","","","-3","","Mainly Clear"
"1990-11-26 03:00","1990","11","26","03:00","-1.1","","-4.4","","78","","30","","7","","25.0","","99.81","","","","-4","","Mainly Clear"
"1990-11-26 04:00","1990","11","26","04:00","-1.7","","-4.8","","80","","31","","9","","25.0","","99.87","","","","-5","","Mainly Clear"
"1990-11-26 05:00","1990","11","26","05:00","-2.1","","-5.4","","78","","26","","6","","25.0","","99.94","","","","-4","","Clear"
"1990-11-26 06:00","1990","11","26","06:00","-2.8","","-6.4","","76","","31","","6","","25.0","","100.01","","","","-5","","Clear"
"1990-11-26 07:00","1990","11","26","07:00","-2.3","","-7.0","","70","","1","","9","","25.0","","100.11","","","","-6","","Mainly Clear"
"1990-11-26 08:00","1990","11","26","08:00","-1.9","","-5.1","","79","","2","","6","","24.1","","100.21","","","","-4","","Clear"
"1990-11-26 09:00","1990","11","26","09:00","0.4","","-5.4","","65","","7","","7","","24.1","","100.31","","","","","","Clear"
"1990-11-26 10:00","1990","11","26","10:00","1.3","","-5.4","","61","","7","","15","","24.1","","100.34","","","","","","Mainly Clear"
"1990-11-26 11:00","1990","11","26","11:00","2.1","","-6.0","","55","","8","","13","","24.1","","100.34","","","","","","Mainly Clear"
"1990-11-26 12:00","1990","11","26","12:00","3.0","","-3.8","","61","","14","","13","","32.2","","100.31","","","","","","Mainly Clear"
"1990-11-26 13:00","1990","11","26","13:00","3.0","","-4.5","","58","","12","","20","","32.2","","100.21","","","","","","Mainly Clear"
"1990-11-26 14:00","1990","11","26","14:00","3.0","","-4.5","","58","","10","","17","","32.2","","100.17","","","","","","Mostly Cloudy"
"1990-11-26 15:00","1990","11","26","15:00","2.6","","-3.9","","62","","9","","17","","32.2","","100.17","","","","","","Mainly Clear"
"1990-11-26 16:00","1990","11","26","16:00","2.1","","-4.0","","64","","9","","20","","32.2","","100.07","","","","","","Mainly Clear"
"1990-11-26 17:00","1990","11","26","17:00","1.6","","-4.1","","66","","9","","17","","25.0","","100.07","","","","","","Mainly Clear"
"1990-11-26 18:00","1990","11","26","18:00","1.9","","-2.1","","75","","8","","19","","25.0","","100.07","","","","","","Mostly Cloudy"
"1990-11-26 19:00","1990","11","26","19:00","2.6","","-1.5","","74","","9","","19","","25.0","","99.94","","","","","","Mostly Cloudy"
"1990-11-26 20:00","1990","11","26","20:00","3.1","","-0.4","","78","","9","","19","","25.0","","99.87","","","","","","Mostly Cloudy"
"1990-11-26 21:00","1990","11","26","21:00","4.0","","0.3","","77","","9","","17","","25.0","","99.77","","","","","","Mostly Cloudy"
"1990-11-26 22:00","1990","11","26","22:00","4.5","","0.8","","77","","9","","15","","25.0","","99.74","","","","","","Cloudy"
"1990-11-26 23:00","1990","11","26","23:00","5.0","","1.4","","77","","10","","22","","25.0","","99.57","","","","","","Cloudy"
"1990-11-27 00:00","1990","11","27","00:00","5.0","","1.9","","80","","10","","19","","19.3","","99.51","","","","","","Rain Showers"
"1990-11-27 01:00","1990","11","27","01:00","4.7","","2.3","","84","","10","","20","","25.0","","99.31","","","","","","Cloudy"
"1990-11-27 02:00","1990","11","27","02:00","4.8","","3.7","","93","","10","","11","","9.7","","99.27","","","","","","Rain,Fog"
"1990-11-27 03:00","1990","11","27","03:00","5.0","","3.7","","91","","10","","4","","12.9","","99.24","","","","","","Cloudy"
"1990-11-27 04:00","1990","11","27","04:00","5.8","","5.2","","96","","12","","9","","12.9","","99.14","","","","","","Cloudy"
"1990-11-27 05:00","1990","11","27","05:00","6.1","","5.2","","94","","13","","11","","9.7","","99.07","","","","","","Rain,Fog"
"1990-11-27 06:00","1990","11","27","06:00","6.2","","5.6","","96","","12","","7","","8.0","","99.04","","","","","","Rain,Fog"
"1990-11-27 07:00","1990","11","27","07:00","7.1","","6.6","","97","","12","","11","","6.4","","99.01","","","","","","Rain,Fog"
"1990-11-27 08:00","1990","11","27","08:00","8.7","","8.1","","96","","15","","13","","3.6","","99.01","","","","","","Fog"
"1990-11-27 09:00","1990","11","27","09:00","10.6","","9.4","","92","","16","","17","","6.4","","98.97","","","","","","Fog"
"1990-11-27 10:00","1990","11","27","10:00","12.7","","10.8","","88","","18","","13","","11.3","","99.01","","","","","","Mostly Cloudy"
"1990-11-27 11:00","1990","11","27","11:00","15.8","","13.0","","84","","21","","17","","16.1","","99.01","","","","","","Mostly Cloudy"
"1990-11-27 12:00","1990","11","27","12:00","18.0","","14.2","","79","","23","","30","","19.3","","99.01","","","","","","Mostly Cloudy"
"1990-11-27 13:00","1990","11","27","13:00","17.8","","14.2","","80","","23","","26","","24.1","","98.94","","","","","","Mostly Cloudy"
"1990-11-27 14:00","1990","11","27","14:00","17.4","","14.6","","84","","22","","28","","24.1","","98.94","","","","","","Cloudy"
"1990-11-27 15:00","1990","11","27","15:00","18.0","","14.5","","80","","21","","33","","19.3","","98.87","","","","","","Cloudy"
"1990-11-27 16:00","1990","11","27","16:00","17.7","","14.0","","79","","21","","24","","16.1","","98.91","","","","","","Mostly Cloudy"
"1990-11-27 17:00","1990","11","27","17:00","17.9","","14.8","","82","","19","","17","","12.9","","98.91","","","","","","Mostly Cloudy"
"1990-11-27 18:00","1990","11","27","18:00","16.9","","14.4","","85","","17","","11","","12.9","","98.94","","","","","","Rain Showers"
"1990-11-27 19:00","1990","11","27","19:00","18.1","","14.5","","79","","21","","19","","12.9","","98.94","","","","","","Cloudy"
"1990-11-27 20:00","1990","11","27","20:00","18.6","","14.4","","76","","20","","19","","19.3","","98.97","","","","","","Cloudy"
"1990-11-27 21:00","1990","11","27","21:00","18.5","","14.0","","75","","22","","17","","19.3","","98.94","","","","","","Rain Showers"
"1990-11-27 22:00","1990","11","27","22:00","18.3","","14.4","","78","","16","","13","","19.3","","98.91","","","","","","Cloudy"
"1990-11-27 23:00","1990","11","27","23:00","18.3","","13.3","","73","","19","","15","","24.1","","98.87","","","","","","Mostly Cloudy"
"1990-11-28 00:00","1990","11","28","00:00","18.0","","12.8","","72","","16","","15","","25.0","","98.81","","","","","","Mostly Cloudy"
"1990-11-28 01:00","1990","11","28","01:00","18.2","","12.4","","69","","18","","17","","25.0","","98.74","","","","","","Mostly Cloudy"
"1990-11-28 02:00","1990","11","28","02:00","18.1","","12.4","","69","","18","","22","","25.0","","98.71","","","","","","Mostly Cloudy"
"1990-11-28 03:00","1990","11","28","03:00","18.2","","11.7","","66","","16","","24","","19.3","","98.64","","","","","","Mostly Cloudy"
"1990-11-28 04:00","1990","11","28","04:00","17.7","","11.1","","65","","19","","24","","19.3","","98.54","","","","","","Mainly Clear"
"1990-11-28 05:00","1990","11","28","05:00","17.8","","11.3","","66","","19","","26","","25.0","","98.51","","","","","","Mostly Cloudy"
"1990-11-28 06:00","1990","11","28","06:00","17.8","","10.9","","64","","19","","26","","19.3","","98.51","","","","","","Cloudy"
"1990-11-28 07:00","1990","11","28","07:00","17.8","","10.9","","64","","20","","28","","19.3","","98.51","","","","","","Cloudy"
"1990-11-28 08:00","1990","11","28","08:00","16.1","","12.7","","80","","22","","30","","11.3","","98.61","","","","","","Rain Showers"
"1990-11-28 09:00","1990","11","28","09:00","15.7","","12.9","","83","","21","","28","","19.3","","98.44","","","","","","Rain Showers"
"1990-11-28 10:00","1990","11","28","10:00","16.0","","13.0","","82","","20","","26","","19.3","","98.41","","","","","","Cloudy"
"1990-11-28 11:00","1990","11","28","11:00","16.6","","12.5","","77","","21","","22","","24.1","","98.37","","","","","","Cloudy"
"1990-11-28 12:00","1990","11","28","12:00","16.6","","12.9","","79","","23","","33","","24.1","","98.34","","","","","","Cloudy"
"1990-11-28 13:00","1990","11","28","13:00","15.5","","12.9","","84","","25","","33","","19.3","","98.44","","","","","","Cloudy"
"1990-11-28 14:00","1990","11","28","14:00","13.1","","8.7","","75","","26","","26","","32.2","","98.57","","","","","","Cloudy"
"1990-11-28 15:00","1990","11","28","15:00","11.9","","7.5","","74","","27","","33","","32.2","","98.67","","","","","","Mostly Cloudy"
"1990-11-28 16:00","1990","11","28","16:00","8.6","","3.0","","68","","28","","44","","32.2","","98.87","","","","","","Mostly Cloudy"
"1990-11-28 17:00","1990","11","28","17:00","6.3","","1.6","","72","","28","","31","","24.1","","99.04","","","","","","Mostly Cloudy"
"1990-11-28 18:00","1990","11","28","18:00","5.5","","-0.1","","67","","27","","31","","25.0","","99.21","","","","","","Mostly Cloudy"
"1990-11-28 19:00","1990","11","28","19:00","4.9","","-0.7","","67","","27","","31","","25.0","","99.34","","","","","","Cloudy"
"1990-11-28 20:00","1990","11","28","20:00","4.3","","-1.3","","67","","26","","26","","25.0","","99.47","","","","","","Mostly Cloudy"
"1990-11-28 21:00","1990","11","28","21:00","3.8","","-1.9","","66","","27","","24","","25.0","","99.61","","","","","","Cloudy"
"1990-11-28 22:00","1990","11","28","22:00","3.7","","-2.0","","66","","25","","30","","25.0","","99.71","","","","","","Cloudy"
"1990-11-28 23:00","1990","11","28","23:00","3.5","","-2.0","","67","","25","","26","","25.0","","99.77","","","","","","Cloudy"
"1990-11-29 00:00","1990","11","29","00:00","3.3","","-2.0","","68","","27","","20","","25.0","","99.81","","","","","","Cloudy"
"1990-11-29 01:00","1990","11","29","01:00","3.2","","-2.6","","65","","26","","26","","25.0","","99.87","","","","","","Cloudy"
"1990-11-29 02:00","1990","11","29","02:00","3.1","","-3.2","","63","","26","","26","","25.0","","99.97","","","","","","Cloudy"
"1990-11-29 03:00","1990","11","29","03:00","2.6","","-4.6","","59","","27","","24","","25.0","","100.01","","","","","","Cloudy"
"1990-11-29 04:00","1990","11","29","04:00","2.5","","-3.9","","63","","25","","19","","25.0","","100.01","","","","","","Mostly Cloudy"
"1990-11-29 05:00","1990","11","29","05:00","2.1","","-5.3","","58","","25","","24","","25.0","","100.07","","","","","","Mostly Cloudy"
"1990-11-29 06:00","1990","11","29","06:00","1.4","","-6.1","","57","","27","","22","","25.0","","100.14","","","","","","Mostly Cloudy"
"1990-11-29 07:00","1990","11","29","07:00","1.1","","-5.5","","61","","25","","17","","25.0","","100.21","","","","","","Mostly Cloudy"
"1990-11-29 08:00","1990","11","29","08:00","0.6","","-4.9","","67","","25","","19","","32.2","","100.27","","","","","","Mostly Cloudy"
"1990-11-29 09:00","1990","11","29","09:00","1.0","","-4.8","","65","","26","","19","","32.2","","100.31","","","","","","Mostly Cloudy"
"1990-11-29 10:00","1990","11","29","10:00","2.1","","-4.7","","60","","26","","24","","40.2","","100.31","","","","","","Mostly Cloudy"
"1990-11-29 11:00","1990","11","29","11:00","2.4","","-7.4","","48","","27","","33","","40.2","","100.31","","","","","","Mostly Cloudy"
"1990-11-29 12:00","1990","11","29","12:00","1.8","","-4.0","","65","","27","","22","","40.2","","100.27","","","","","","Mostly Cloudy"
"1990-11-29 13:00","1990","11","29","13:00","2.5","","-5.2","","57","","27","","28","","40.2","","100.21","","","","","","Mostly Cloudy"
"1990-11-29 14:00","1990","11","29","14:00","2.3","","-3.9","","64","","29","","30","","32.2","","100.21","","","","","","Snow Showers"
"1990-11-29 15:00","1990","11","29","15:00","2.0","","-4.0","","64","","29","","20","","40.2","","100.21","","","","","","Snow Showers"
"1990-11-29 16:00","1990","11","29","16:00","1.2","","-2.4","","77","","27","","20","","32.2","","100.21","","","","","","Mainly Clear"
"1990-11-29 17:00","1990","11","29","17:00","0.2","","-4.4","","71","","29","","20","","24.1","","100.31","","","","","","Mainly Clear"
"1990-11-29 18:00","1990","11","29","18:00","-0.4","","-4.9","","72","","27","","19","","25.0","","100.34","","","","-6","","Mostly Cloudy"
"1990-11-29 19:00","1990","11","29","19:00","-0.9","","-5.0","","74","","29","","19","","25.0","","100.37","","","","-6","","Mainly Clear"
"1990-11-29 20:00","1990","11","29","20:00","-1.0","","-5.0","","74","","28","","20","","25.0","","100.41","","","","-7","","Mainly Clear"
"1990-11-29 21:00","1990","11","29","21:00","-1.3","","-3.9","","82","","27","","22","","25.0","","100.44","","","","-7","","Clear"
"1990-11-29 22:00","1990","11","29","22:00","-2.0","","-4.2","","85","","26","","13","","25.0","","100.47","","","","-6","","Clear"
"1990-11-29 23:00","1990","11","29","23:00","-2.3","","-4.2","","86","","26","","15","","25.0","","100.47","","","","-7","","Mainly Clear"
"1990-11-30 00:00","1990","11","30","00:00","-3.0","","-4.5","","89","","27","","11","","25.0","","100.47","","","","-7","","Mainly Clear"
"1990-11-30 01:00","1990","11","30","01:00","-2.7","","-4.2","","89","","25","","9","","25.0","","100.51","","","","-6","","Mainly Clear"
"1990-11-30 02:00","1990","11","30","02:00","-2.8","","-5.4","","82","","24","","9","","25.0","","100.54","","","","-6","","Mainly Clear"
"1990-11-30 03:00","1990","11","30","03:00","-1.8","","-5.1","","78","","25","","13","","25.0","","100.57","","","","-6","","Mainly Clear"
"1990-11-30 04:00","1990","11","30","04:00","-2.5","","-4.8","","84","","24","","11","","25.0","","100.57","","","","-7","","Mainly Clear"
"1990-11-30 05:00","1990","11","30","05:00","-2.7","","-4.8","","86","","23","","7","","25.0","","100.61","","","","-6","","Mainly Clear"
"1990-11-30 06:00","1990","11","30","06:00","-3.0","","-5.1","","85","","22","","9","","25.0","","100.61","","","","-7","","Mainly Clear"
"1990-11-30 07:00","1990","11","30","07:00","-2.3","","-4.5","","85","","18","","6","","19.3","","100.61","","","","-5","","Mainly Clear"
"1990-11-30 08:00","1990","11","30","08:00","-2.1","","-4.5","","84","","19","","7","","19.3","","100.64","","","","-5","","Mainly Clear"
"1990-11-30 09:00","1990","11","30","09:00","-1.1","","-3.0","","87","","21","","13","","19.3","","100.67","","","","-5","","Clear"
"1990-11-30 10:00","1990","11","30","10:00","0.2","","-2.9","","80","","22","","11","","19.3","","100.61","","","","","","Clear"
"1990-11-30 11:00","1990","11","30","11:00","2.5","","-4.6","","59","","23","","22","","19.3","","100.57","","","","","","Clear"
"1990-11-30 12:00","1990","11","30","12:00","3.7","","-5.7","","50","","22","","22","","40.2","","100.44","","","","","","Mainly Clear"
"1990-11-30 13:00","1990","11","30","13:00","5.1","","-5.8","","45","","22","","30","","40.2","","100.31","","","","","","Mainly Clear"
"1990-11-30 14:00","1990","11","30","14:00","6.5","","-3.5","","49","","21","","28","","40.2","","100.27","","","","","","Mainly Clear"
"1990-11-30 15:00","1990","11","30","15:00","6.3","","-3.5","","49","","22","","31","","40.2","","100.17","","","","","","Mostly Cloudy"
"1990-11-30 16:00","1990","11","30","16:00","5.9","","-2.9","","53","","20","","33","","40.2","","100.14","","","","","","Mostly Cloudy"
"1990-11-30 17:00","1990","11","30","17:00","4.6","","-2.5","","60","","21","","30","","25.0","","100.11","","","","","","Mostly Cloudy"
"1990-11-30 18:00","1990","11","30","18:00","3.7","","-3.8","","58","","20","","22","","25.0","","100.11","","","","","","Mostly Cloudy"
"1990-11-30 19:00","1990","11","30","19:00","3.5","","-4.5","","56","","21","","22","","25.0","","100.01","","","","","","Mainly Clear"
"1990-11-30 20:00","1990","11","30","20:00","3.7","","-4.5","","55","","21","","26","","25.0","","99.97","","","","","","Mainly Clear"
"1990-11-30 21:00","1990","11","30","21:00","3.5","","-4.5","","56","","21","","26","","25.0","","99.94","","","","","","Mainly Clear"
"1990-11-30 22:00","1990","11","30","22:00","3.1","","-4.5","","57","","21","","22","","25.0","","99.91","","","","","","Mainly Clear"
"1990-11-30 23:00","1990","11","30","23:00","2.8","","-3.8","","62","","20","","20","","25.0","","99.91","","","","","","Mostly Cloudy"
