"Station Name","TORONTO LESTER B. PEARSON INT'L A"
"Province","ONTARIO"
"Latitude","43.68"
"Longitude","-79.63"
"Elevation","173.40"
"Climate Identifier","6158733"
"WMO Identifier","71624"
"TC Identifier","YYZ"
"All times are specified in Local Standard Time (LST). Add 1 hour to adjust for Daylight Saving Time where and when it is observed."

"Legend"
"E","Estimated"
"M","Missing"
"NA","Not Available"

"Date/Time","Year","Month","Day","Time","Temp (°C)","Temp Flag","Dew Point Temp (°C)","Dew Point Temp Flag","Rel Hum (%)","Rel Hum Flag","Wind Dir (10s deg)","Wind Dir Flag","Wind Spd (km/h)","Wind Spd Flag","Visibility (km)","Visibility Flag","Stn Press (kPa)","Stn Press Flag","Hmdx","Hmdx Flag","Wind Chill","Wind Chill Flag","Weather"
"1959-02-01 00:00","1959","02","01","00:00","-15.6","","-18.9","","75","","25","","8","","25.0","","101.45","","","","-21","","Clear"
"1959-02-01 01:00","1959","02","01","01:00","-15.6","","-18.3","","79","","27","","19","","25.0","","101.45","","","","-25","","Clear"
"1959-02-01 02:00","1959","02","01","02:00","-15.0","","-18.3","","76","","25","","18","","25.0","","101.43","","","","-24","","Mainly Clear"
"1959-02-01 03:00","1959","02","01","03:00","-14.4","","-18.9","","69","","27","","27","","25.0","","101.44","","","","-25","","Mainly Clear"
"1959-02-01 04:00","1959","02","01","04:00","-15.0","","-21.7","","57","","29","","24","","25.0","","101.43","","","","-25","","Clear"
"1959-02-01 05:00","1959","02","01","05:00","-15.6","","-21.7","","59","","27","","23","","25.0","","101.52","","","","-26","","Mainly Clear"
"1959-02-01 06:00","1959","02","01","06:00","-15.6","","-21.7","","59","","27","","16","","25.0","","101.57","","","","-24","","Mainly Clear"
"1959-02-01 07:00","1959","02","01","07:00","-15.0","","-20.6","","63","","32","","11","","25.0","","101.67","","","","-22","","Mainly Clear"
"1959-02-01 08:00","1959","02","01","08:00","-15.6","","-21.7","","59","","36","","13","","25.0","","101.76","","","","-23","","Mainly Clear"
"1959-02-01 09:00","1959","02","01","09:00","-15.6","","-18.9","","75","","36","","14","","25.0","","101.85","","","","-23","","Mainly Clear"
"1959-02-01 10:00","1959","02","01","10:00","-14.4","","-17.8","","76","","36","","19","","25.0","","101.92","","","","-23","","Mainly Clear"
"1959-02-01 11:00","1959","02","01","11:00","-13.9","","-17.2","","76","","36","","23","","25.0","","102.00","","","","-23","","Mainly Clear"
"1959-02-01 12:00","1959","02","01","12:00","-13.9","","-18.9","","66","","36","","23","","25.0","","102.03","","","","-23","","Mainly Clear"
"1959-02-01 13:00","1959","02","01","13:00","-14.4","","-18.9","","69","","36","","26","","25.0","","102.03","","","","-25","","Mainly Clear"
"1959-02-01 14:00","1959","02","01","14:00","-14.4","","-19.4","","66","","36","","32","","25.0","","102.00","","","","-26","","Mainly Clear"
"1959-02-01 15:00","1959","02","01","15:00","-14.4","","-19.4","","66","","36","","27","","25.0","","102.04","","","","-25","","Clear"
"1959-02-01 16:00","1959","02","01","16:00","-15.6","","-20.6","","65","","36","","27","","25.0","","102.10","","","","-26","","Clear"
"1959-02-01 17:00","1959","02","01","17:00","-16.1","","-21.1","","65","","36","","21","","25.0","","102.13","","","","-26","","Clear"
"1959-02-01 18:00","1959","02","01","18:00","-17.2","","-22.2","","65","","36","","19","","25.0","","102.19","","","","-27","","Clear"
"1959-02-01 19:00","1959","02","01","19:00","-17.8","","-22.2","","68","","36","","13","","25.0","","102.22","","","","-26","","Clear"
"1959-02-01 20:00","1959","02","01","20:00","-18.3","","-22.2","","71","","34","","11","","25.0","","102.22","","","","-26","","Clear"
"1959-02-01 21:00","1959","02","01","21:00","-18.9","","-22.8","","71","","36","","14","","25.0","","102.18","","","","-27","","Clear"
"1959-02-01 22:00","1959","02","01","22:00","-19.4","","-23.3","","71","","36","","11","","25.0","","102.15","","","","-27","","Clear"
"1959-02-01 23:00","1959","02","01","23:00","-20.6","","-23.9","","75","","32","","6","","25.0","","102.16","","","","-26","","Clear"
"1959-02-02 00:00","1959","02","02","00:00","-20.6","","-24.4","","71","","32","","8","","25.0","","102.14","","","","-27","","Clear"
"1959-02-02 01:00","1959","02","02","01:00","-20.6","","-23.9","","75","","27","","10","","25.0","","102.10","","","","-28","","Clear"
"1959-02-02 02:00","1959","02","02","02:00","-20.6","","-23.9","","75","","27","","8","","25.0","","102.05","","","","-27","","Clear"
"1959-02-02 03:00","1959","02","02","03:00","-20.6","","-24.4","","71","","25","","16","","25.0","","102.02","","","","-30","","Clear"
"1959-02-02 04:00","1959","02","02","04:00","-20.6","","-23.3","","78","","25","","13","","25.0","","101.99","","","","-29","","Clear"
"1959-02-02 05:00","1959","02","02","05:00","-20.6","","-24.4","","71","","25","","18","","25.0","","101.90","","","","-31","","Clear"
"1959-02-02 06:00","1959","02","02","06:00","-19.4","","-22.8","","75","","27","","16","","25.0","","101.84","","","","-29","","Clear"
"1959-02-02 07:00","1959","02","02","07:00","-18.9","","-22.8","","71","","23","","14","","25.0","","101.78","","","","-27","","Clear"
"1959-02-02 08:00","1959","02","02","08:00","-18.9","","-22.2","","75","","25","","24","","25.0","","101.72","","","","-30","","Clear"
"1959-02-02 09:00","1959","02","02","09:00","-17.2","","-20.0","","79","","23","","23","","24.1","","101.69","","","","-28","","Clear"
"1959-02-02 10:00","1959","02","02","10:00","-15.0","","-19.4","","69","","23","","23","","24.1","","101.69","","","","-25","","Clear"
"1959-02-02 11:00","1959","02","02","11:00","-12.8","","-16.1","","76","","23","","16","","25.0","","101.66","","","","-20","","Clear"
"1959-02-02 12:00","1959","02","02","12:00","-10.6","","-13.9","","76","","25","","26","","25.0","","101.49","","","","-20","","Clear"
"1959-02-02 13:00","1959","02","02","13:00","-10.6","","-15.6","","67","","27","","39","","25.0","","101.32","","","","-21","","Mainly Clear"
"1959-02-02 14:00","1959","02","02","14:00","-10.0","","-15.6","","64","","25","","42","","25.0","","101.18","","","","-21","","Mainly Clear"
"1959-02-02 15:00","1959","02","02","15:00","-9.4","","-14.4","","67","","25","","32","","25.0","","101.06","","","","-19","","Mainly Clear"
"1959-02-02 16:00","1959","02","02","16:00","-9.4","","-14.4","","67","","25","","32","","25.0","","100.96","","","","-19","","Mainly Clear"
"1959-02-02 17:00","1959","02","02","17:00","-10.6","","-15.0","","70","","25","","27","","24.1","","100.90","","","","-20","","Clear"
"1959-02-02 18:00","1959","02","02","18:00","-11.1","","-15.6","","70","","23","","24","","19.3","","100.84","","","","-20","","Clear"
"1959-02-02 19:00","1959","02","02","19:00","-11.1","","-15.6","","70","","23","","26","","19.3","","100.80","","","","-20","","Clear"
"1959-02-02 20:00","1959","02","02","20:00","-12.2","","-15.6","","76","","23","","27","","24.1","","100.72","","","","-22","","Clear"
"1959-02-02 21:00","1959","02","02","21:00","-12.2","","-16.1","","73","","23","","24","","24.1","","100.68","","","","-21","","Clear"
"1959-02-02 22:00","1959","02","02","22:00","-12.2","","-15.6","","76","","23","","29","","25.0","","100.57","","","","-22","","Clear"
"1959-02-02 23:00","1959","02","02","23:00","-12.8","","-15.6","","80","","25","","27","","25.0","","100.48","","","","-23","","Clear"
"1959-02-03 00:00","1959","02","03","00:00","-12.2","","-15.0","","80","","25","","29","","25.0","","100.42","","","","-22","","Clear"
"1959-02-03 01:00","1959","02","03","01:00","-12.2","","-15.6","","76","","25","","29","","25.0","","100.33","","","","-22","","Clear"
"1959-02-03 02:00","1959","02","03","02:00","-12.2","","-15.6","","76","","25","","32","","25.0","","100.24","","","","-23","","Clear"
"1959-02-03 03:00","1959","02","03","03:00","-12.2","","-15.6","","76","","25","","35","","25.0","","100.07","","","","-23","","Clear"
"1959-02-03 04:00","1959","02","03","04:00","-11.7","","-15.0","","76","","25","","37","","25.0","","99.99","","","","-23","","Clear"
"1959-02-03 05:00","1959","02","03","05:00","-11.7","","-15.0","","76","","25","","34","","25.0","","99.92","","","","-22","","Clear"
"1959-02-03 06:00","1959","02","03","06:00","-10.6","","-13.3","","80","","23","","32","","25.0","","99.77","","","","-21","","Mostly Cloudy"
"1959-02-03 07:00","1959","02","03","07:00","-10.6","","-12.8","","84","","23","","35","","25.0","","99.77","","","","-21","","Mostly Cloudy"
"1959-02-03 08:00","1959","02","03","08:00","-10.0","","-12.8","","80","","23","","29","","12.9","","99.69","","","","-19","","Mostly Cloudy"
"1959-02-03 09:00","1959","02","03","09:00","-10.0","","-13.3","","77","","23","","16","","12.9","","99.56","","","","-17","","Mainly Clear"
"1959-02-03 10:00","1959","02","03","10:00","-8.3","","-12.8","","70","","23","","23","","8.0","","99.51","","","","-16","","Haze"
"1959-02-03 11:00","1959","02","03","11:00","-6.1","","-11.1","","68","","23","","19","","8.0","","99.31","","","","-13","","Haze"
"1959-02-03 12:00","1959","02","03","12:00","-3.9","","-9.4","","65","","20","","19","","8.0","","99.11","","","","-10","","Haze"
"1959-02-03 13:00","1959","02","03","13:00","-2.2","","-9.4","","58","","20","","23","","6.4","","98.78","","","","-8","","Haze"
"1959-02-03 14:00","1959","02","03","14:00","-1.1","","-4.4","","78","","18","","16","","6.4","","98.67","","","","-6","","Haze"
"1959-02-03 15:00","1959","02","03","15:00","-0.6","","-7.2","","61","","18","","23","","6.4","","98.41","","","","-6","","Haze"
"1959-02-03 16:00","1959","02","03","16:00","-0.6","","-7.2","","61","","16","","29","","6.4","","98.18","","","","-7","","Haze"
"1959-02-03 17:00","1959","02","03","17:00","-0.6","","-2.8","","85","","16","","27","","8.0","","97.98","","","","-7","","Haze"
"1959-02-03 18:00","1959","02","03","18:00","0.0","","-2.8","","82","","14","","26","","8.0","","97.73","","","","-6","","Rain,Ice Pellets,Haze"
"1959-02-03 19:00","1959","02","03","19:00","0.0","","-2.8","","82","","11","","14","","6.4","","97.50","","","","-4","","Rain,Ice Pellets,Haze"
"1959-02-03 20:00","1959","02","03","20:00","-0.6","","-1.1","","96","","18","","8","","0.8","","97.44","","","","-3","","Moderate Snow"
"1959-02-03 21:00","1959","02","03","21:00","0.6","","-0.6","","92","","20","","23","","6.4","","97.35","","","","","","Rain,Fog"
"1959-02-03 22:00","1959","02","03","22:00","2.8","","1.7","","92","","23","","27","","9.7","","97.30","","","","","","Rain"
"1959-02-03 23:00","1959","02","03","23:00","2.2","","1.1","","92","","23","","32","","16.1","","97.26","","","","","","Rain"
"1959-02-04 00:00","1959","02","04","00:00","1.7","","0.6","","92","","25","","37","","24.1","","97.23","","","","","","Cloudy"
"1959-02-04 01:00","1959","02","04","01:00","1.7","","0.6","","92","","27","","32","","24.1","","97.19","","","","","","Rain Showers"
"1959-02-04 02:00","1959","02","04","02:00","1.7","","0.0","","89","","27","","29","","16.1","","97.15","","","","","","Rain Showers"
"1959-02-04 03:00","1959","02","04","03:00","1.1","","-1.1","","85","","25","","32","","19.3","","97.21","","","","","","Cloudy"
"1959-02-04 04:00","1959","02","04","04:00","1.1","","-1.7","","82","","27","","40","","24.1","","97.22","","","","","","Cloudy"
"1959-02-04 05:00","1959","02","04","05:00","0.0","","-2.2","","85","","27","","32","","12.9","","97.30","","","","-7","","Snow Showers"
"1959-02-04 06:00","1959","02","04","06:00","-1.1","","-3.9","","81","","27","","23","","24.1","","97.39","","","","-7","","Cloudy"
"1959-02-04 07:00","1959","02","04","07:00","-1.7","","-4.4","","81","","29","","26","","24.1","","97.49","","","","-8","","Mostly Cloudy"
"1959-02-04 08:00","1959","02","04","08:00","-1.1","","-4.4","","78","","27","","24","","12.9","","97.60","","","","-7","","Snow Showers"
"1959-02-04 09:00","1959","02","04","09:00","-1.7","","-3.9","","85","","27","","16","","12.9","","97.76","","","","-7","","Snow Showers"
"1959-02-04 10:00","1959","02","04","10:00","-1.7","","-3.9","","85","","27","","19","","9.7","","97.81","","","","-7","","Snow Showers"
"1959-02-04 11:00","1959","02","04","11:00","-1.1","","-3.9","","81","","29","","24","","12.9","","97.87","","","","-7","","Mostly Cloudy"
"1959-02-04 12:00","1959","02","04","12:00","-1.1","","-3.9","","81","","29","","29","","16.1","","97.93","","","","-8","","Snow Showers"
"1959-02-04 13:00","1959","02","04","13:00","-2.2","","-5.6","","78","","32","","32","","16.1","","98.00","","","","-10","","Mostly Cloudy"
"1959-02-04 14:00","1959","02","04","14:00","-1.7","","-4.4","","81","","32","","29","","19.3","","97.86","","","","-9","","Mainly Clear"
"1959-02-04 15:00","1959","02","04","15:00","-2.2","","-5.0","","81","","32","","26","","24.1","","97.99","","","","-9","","Mainly Clear"
"1959-02-04 16:00","1959","02","04","16:00","-2.2","","-6.1","","75","","32","","19","","25.0","","98.12","","","","-8","","Mainly Clear"
"1959-02-04 17:00","1959","02","04","17:00","-3.9","","-7.2","","78","","29","","16","","25.0","","98.13","","","","-9","","Mainly Clear"
"1959-02-04 18:00","1959","02","04","18:00","-5.0","","-7.2","","84","","36","","13","","25.0","","98.11","","","","-10","","Mainly Clear"
"1959-02-04 19:00","1959","02","04","19:00","-5.6","","-9.4","","74","","32","","13","","25.0","","98.24","","","","-11","","Clear"
"1959-02-04 20:00","1959","02","04","20:00","-7.8","","-11.1","","77","","29","","10","","25.0","","98.30","","","","-13","","Clear"
"1959-02-04 21:00","1959","02","04","21:00","-7.8","","-10.6","","81","","36","","14","","25.0","","98.30","","","","-14","","Clear"
"1959-02-04 22:00","1959","02","04","22:00","-9.4","","-12.2","","80","","36","","14","","25.0","","98.33","","","","-16","","Mostly Cloudy"
"1959-02-04 23:00","1959","02","04","23:00","-8.9","","-12.2","","77","","36","","5","","25.0","","98.32","","","","-12","","Mostly Cloudy"
"1959-02-05 00:00","1959","02","05","00:00","-8.9","","-12.2","","77","","36","","5","","24.1","","98.36","","","","-12","","Mostly Cloudy"
"1959-02-05 01:00","1959","02","05","01:00","-7.8","","-10.6","","81","","","","0","","24.1","","98.34","","","","","","Snow Showers"
"1959-02-05 02:00","1959","02","05","02:00","-7.8","","-10.6","","81","","","","0","","24.1","","98.34","","","","","","Mostly Cloudy"
"1959-02-05 03:00","1959","02","05","03:00","-7.8","","-10.6","","81","","","","0","","24.1","","98.37","","","","","","Cloudy"
"1959-02-05 04:00","1959","02","05","04:00","-6.1","","-8.3","","84","","14","","11","","16.1","","98.31","","","","-11","","Snow"
"1959-02-05 05:00","1959","02","05","05:00","-4.4","","-7.2","","81","","16","","18","","19.3","","98.25","","","","-10","","Cloudy"
"1959-02-05 06:00","1959","02","05","06:00","-4.4","","-6.7","","84","","18","","31","","19.3","","98.24","","","","-12","","Snow"
"1959-02-05 07:00","1959","02","05","07:00","-2.8","","-5.6","","81","","20","","35","","12.9","","98.23","","","","-11","","Snow"
"1959-02-05 08:00","1959","02","05","08:00","-2.8","","-4.4","","88","","20","","37","","4.8","","98.24","","","","-11","","Snow"
"1959-02-05 09:00","1959","02","05","09:00","-1.7","","-3.9","","85","","20","","29","","8.0","","98.23","","","","-9","","Snow Showers"
"1959-02-05 10:00","1959","02","05","10:00","-0.6","","-3.3","","81","","23","","29","","11.3","","98.23","","","","-7","","Snow Showers"
"1959-02-05 11:00","1959","02","05","11:00","-1.7","","-4.4","","81","","27","","55","","16.1","","98.38","","","","-11","","Snow Showers"
"1959-02-05 12:00","1959","02","05","12:00","-2.2","","-5.0","","81","","25","","56","","19.3","","98.46","","","","-12","","Mainly Clear"
"1959-02-05 13:00","1959","02","05","13:00","-2.2","","-4.4","","85","","25","","48","","19.3","","98.55","","","","-11","","Mostly Cloudy"
"1959-02-05 14:00","1959","02","05","14:00","-2.2","","-5.6","","78","","25","","39","","16.1","","98.68","","","","-10","","Mainly Clear"
"1959-02-05 15:00","1959","02","05","15:00","-3.3","","-6.7","","78","","27","","45","","19.3","","98.83","","","","-12","","Mainly Clear"
"1959-02-05 16:00","1959","02","05","16:00","-3.9","","-7.2","","78","","27","","48","","12.9","","98.96","","","","-13","","Snow Showers"
"1959-02-05 17:00","1959","02","05","17:00","-5.0","","-7.8","","81","","27","","32","","25.0","","99.00","","","","-13","","Mainly Clear"
"1959-02-05 18:00","1959","02","05","18:00","-5.6","","-7.2","","88","","27","","26","","4.8","","99.09","","","","-13","","Snow Showers"
"1959-02-05 19:00","1959","02","05","19:00","-5.6","","-8.9","","77","","27","","23","","25.0","","99.13","","","","-13","","Mainly Clear"
"1959-02-05 20:00","1959","02","05","20:00","-6.1","","-9.4","","77","","25","","31","","25.0","","99.18","","","","-15","","Clear"
"1959-02-05 21:00","1959","02","05","21:00","-6.1","","-10.0","","74","","25","","31","","25.0","","99.24","","","","-15","","Clear"
"1959-02-05 22:00","1959","02","05","22:00","-6.7","","-11.7","","68","","27","","39","","25.0","","99.31","","","","-16","","Mostly Cloudy"
"1959-02-05 23:00","1959","02","05","23:00","-6.7","","-11.1","","71","","27","","42","","25.0","","99.37","","","","-17","","Mainly Clear"
"1959-02-06 00:00","1959","02","06","00:00","-7.8","","-10.6","","81","","27","","34","","25.0","","99.42","","","","-17","","Snow Showers"
"1959-02-06 01:00","1959","02","06","01:00","-7.8","","-11.1","","77","","25","","24","","11.3","","99.44","","","","-16","","Snow Showers"
"1959-02-06 02:00","1959","02","06","02:00","-8.9","","-12.2","","77","","27","","26","","24.1","","99.48","","","","-18","","Clear"
"1959-02-06 03:00","1959","02","06","03:00","-8.9","","-12.8","","73","","27","","27","","24.1","","99.50","","","","-18","","Clear"
"1959-02-06 04:00","1959","02","06","04:00","-10.6","","-13.3","","80","","27","","29","","25.0","","99.51","","","","-20","","Clear"
"1959-02-06 05:00","1959","02","06","05:00","-11.1","","-14.4","","76","","27","","23","","12.9","","99.56","","","","-20","","Snow Showers"
"1959-02-06 06:00","1959","02","06","06:00","-10.0","","-12.8","","80","","27","","32","","25.0","","99.59","","","","-20","","Clear"
"1959-02-06 07:00","1959","02","06","07:00","-10.6","","-13.3","","80","","27","","32","","25.0","","99.67","","","","-21","","Mainly Clear"
"1959-02-06 08:00","1959","02","06","08:00","-11.1","","-15.0","","73","","27","","24","","25.0","","99.77","","","","-20","","Mainly Clear"
"1959-02-06 09:00","1959","02","06","09:00","-11.1","","-15.6","","70","","27","","32","","25.0","","99.90","","","","-21","","Mainly Clear"
"1959-02-06 10:00","1959","02","06","10:00","-11.7","","-16.1","","70","","27","","29","","25.0","","100.07","","","","-22","","Mainly Clear"
"1959-02-06 11:00","1959","02","06","11:00","-11.7","","-15.6","","73","","27","","39","","25.0","","100.25","","","","-23","","Mostly Cloudy"
"1959-02-06 12:00","1959","02","06","12:00","-11.1","","-18.9","","53","","29","","40","","25.0","","100.35","","","","-22","","Mostly Cloudy"
"1959-02-06 13:00","1959","02","06","13:00","-12.2","","-16.7","","70","","29","","40","","12.9","","100.40","","","","-24","","Mostly Cloudy"
"1959-02-06 14:00","1959","02","06","14:00","-12.2","","-17.2","","66","","27","","42","","12.9","","100.47","","","","-24","","Mostly Cloudy"
"1959-02-06 15:00","1959","02","06","15:00","-12.2","","-17.2","","66","","29","","37","","12.9","","100.55","","","","-23","","Mostly Cloudy"
"1959-02-06 16:00","1959","02","06","16:00","-13.3","","-16.7","","76","","29","","37","","12.9","","100.64","","","","-25","","Mostly Cloudy"
"1959-02-06 17:00","1959","02","06","17:00","-13.3","","-16.7","","76","","27","","35","","25.0","","100.68","","","","-25","","Mainly Clear"
"1959-02-06 18:00","1959","02","06","18:00","-14.4","","-18.3","","72","","27","","27","","25.0","","100.76","","","","-25","","Clear"
"1959-02-06 19:00","1959","02","06","19:00","-14.4","","-17.8","","76","","25","","27","","25.0","","100.84","","","","-25","","Clear"
"1959-02-06 20:00","1959","02","06","20:00","-15.0","","-19.4","","69","","25","","29","","25.0","","100.92","","","","-26","","Clear"
"1959-02-06 21:00","1959","02","06","21:00","-15.0","","-20.0","","66","","25","","23","","25.0","","100.92","","","","-25","","Clear"
"1959-02-06 22:00","1959","02","06","22:00","-15.6","","-20.0","","69","","23","","16","","25.0","","100.96","","","","-24","","Clear"
"1959-02-06 23:00","1959","02","06","23:00","-16.1","","-20.6","","69","","25","","18","","25.0","","100.94","","","","-25","","Clear"
"1959-02-07 00:00","1959","02","07","00:00","-16.7","","-20.0","","75","","25","","13","","25.0","","100.93","","","","-24","","Clear"
"1959-02-07 01:00","1959","02","07","01:00","-16.1","","-20.0","","72","","27","","16","","25.0","","100.95","","","","-25","","Clear"
"1959-02-07 02:00","1959","02","07","02:00","-15.0","","-19.4","","69","","27","","16","","25.0","","100.92","","","","-23","","Mainly Clear"
"1959-02-07 03:00","1959","02","07","03:00","-14.4","","-17.8","","76","","27","","16","","25.0","","100.86","","","","-22","","Mostly Cloudy"
"1959-02-07 04:00","1959","02","07","04:00","-14.4","","-18.3","","72","","23","","19","","25.0","","100.83","","","","-23","","Cloudy"
"1959-02-07 05:00","1959","02","07","05:00","-13.9","","-17.2","","76","","23","","16","","12.9","","100.78","","","","-22","","Snow"
"1959-02-07 06:00","1959","02","07","06:00","-13.3","","-16.7","","83","","20","","10","","9.7","","100.64","","","","-19","","Snow"
"1959-02-07 07:00","1959","02","07","07:00","-12.2","","-15.6","","76","","18","","8","","16.1","","100.53","","","","-17","","Cloudy"
"1959-02-07 08:00","1959","02","07","08:00","-11.7","","-14.4","","80","","20","","10","","16.1","","100.39","","","","-17","","Mainly Clear"
"1959-02-07 09:00","1959","02","07","09:00","-10.6","","-17.2","","58","","18","","10","","12.9","","100.26","","","","-16","","Mainly Clear"
"1959-02-07 10:00","1959","02","07","10:00","-8.3","","-12.2","","74","","18","","8","","8.0","","100.17","","","","-12","","Haze"
"1959-02-07 11:00","1959","02","07","11:00","-5.6","","-8.9","","77","","20","","16","","9.7","","100.04","","","","-12","","Haze"
"1959-02-07 12:00","1959","02","07","12:00","-1.1","","-6.7","","66","","23","","23","","9.7","","99.93","","","","-7","","Haze"
"1959-02-07 13:00","1959","02","07","13:00","0.0","","-6.1","","64","","25","","29","","16.1","","99.78","","","","-6","","Mostly Cloudy"
"1959-02-07 14:00","1959","02","07","14:00","1.1","","-3.3","","72","","25","","23","","19.3","","99.63","","","","","","Cloudy"
"1959-02-07 15:00","1959","02","07","15:00","2.2","","-4.4","","61","","25","","16","","19.3","","99.52","","","","","","Mostly Cloudy"
"1959-02-07 16:00","1959","02","07","16:00","2.2","","-5.0","","59","","25","","21","","19.3","","99.45","","","","","","Mostly Cloudy"
"1959-02-07 17:00","1959","02","07","17:00","1.7","","-5.0","","61","","27","","16","","12.9","","99.39","","","","","","Mostly Cloudy"
"1959-02-07 18:00","1959","02","07","18:00","1.1","","-4.4","","66","","25","","14","","16.1","","99.40","","","","","","Mostly Cloudy"
"1959-02-07 19:00","1959","02","07","19:00","0.6","","-3.9","","72","","23","","10","","16.1","","99.43","","","","","","Cloudy"
"1959-02-07 20:00","1959","02","07","20:00","1.1","","-3.9","","69","","25","","10","","19.3","","99.40","","","","","","Cloudy"
"1959-02-07 21:00","1959","02","07","21:00","0.6","","-3.9","","72","","27","","13","","19.3","","99.42","","","","","","Cloudy"
"1959-02-07 22:00","1959","02","07","22:00","0.0","","-3.9","","75","","27","","11","","19.3","","99.41","","","","-4","","Cloudy"
"1959-02-07 23:00","1959","02","07","23:00","0.6","","-3.3","","75","","32","","21","","19.3","","99.45","","","","","","Cloudy"
"1959-02-08 00:00","1959","02","08","00:00","0.6","","-3.9","","72","","36","","29","","19.3","","99.52","","","","","","Snow Showers"
"1959-02-08 01:00","1959","02","08","01:00","-2.8","","-4.4","","88","","36","","18","","19.3","","99.61","","","","-8","","Snow Showers"
"1959-02-08 02:00","1959","02","08","02:00","-3.9","","-6.1","","85","","34","","34","","12.9","","99.71","","","","-12","","Snow Showers"
"1959-02-08 03:00","1959","02","08","03:00","-5.0","","-8.9","","74","","34","","40","","12.9","","99.83","","","","-14","","Mostly Cloudy"
"1959-02-08 04:00","1959","02","08","04:00","-7.2","","-10.6","","77","","32","","27","","19.3","","99.95","","","","-15","","Mainly Clear"
"1959-02-08 05:00","1959","02","08","05:00","-8.9","","-12.2","","77","","36","","37","","19.3","","100.07","","","","-19","","Snow Showers"
"1959-02-08 06:00","1959","02","08","06:00","-9.4","","-12.8","","77","","36","","48","","16.1","","100.25","","","","-21","","Snow Showers"
"1959-02-08 07:00","1959","02","08","07:00","-12.2","","-17.2","","66","","36","","29","","16.1","","100.38","","","","-22","","Mainly Clear"
"1959-02-08 08:00","1959","02","08","08:00","-15.0","","-18.3","","76","","36","","27","","25.0","","100.55","","","","-26","","Clear"
"1959-02-08 09:00","1959","02","08","09:00","-15.0","","-19.4","","69","","36","","23","","25.0","","100.69","","","","-25","","Mainly Clear"
"1959-02-08 10:00","1959","02","08","10:00","-15.6","","-18.9","","75","","36","","27","","25.0","","100.78","","","","-26","","Mainly Clear"
"1959-02-08 11:00","1959","02","08","11:00","-15.6","","-19.4","","72","","36","","24","","25.0","","100.84","","","","-26","","Mainly Clear"
"1959-02-08 12:00","1959","02","08","12:00","-15.0","","-19.4","","69","","36","","23","","25.0","","100.89","","","","-25","","Mainly Clear"
"1959-02-08 13:00","1959","02","08","13:00","-15.6","","-20.0","","69","","36","","23","","25.0","","100.89","","","","-26","","Mainly Clear"
"1959-02-08 14:00","1959","02","08","14:00","-15.0","","-20.0","","66","","36","","23","","25.0","","100.88","","","","-25","","Mainly Clear"
"1959-02-08 15:00","1959","02","08","15:00","-15.0","","-18.9","","72","","36","","24","","25.0","","100.82","","","","-25","","Mainly Clear"
"1959-02-08 16:00","1959","02","08","16:00","-14.4","","-18.3","","72","","36","","21","","25.0","","100.84","","","","-24","","Mostly Cloudy"
"1959-02-08 17:00","1959","02","08","17:00","-15.0","","-18.9","","72","","36","","23","","25.0","","100.87","","","","-25","","Mainly Clear"
"1959-02-08 18:00","1959","02","08","18:00","-16.1","","-20.0","","72","","36","","18","","25.0","","100.91","","","","-25","","Mainly Clear"
"1959-02-08 19:00","1959","02","08","19:00","-16.7","","-22.2","","62","","5","","14","","25.0","","100.96","","","","-25","","Mainly Clear"
"1959-02-08 20:00","1959","02","08","20:00","-17.2","","-21.1","","72","","5","","10","","25.0","","100.97","","","","-24","","Clear"
"1959-02-08 21:00","1959","02","08","21:00","-17.8","","-21.1","","75","","36","","10","","25.0","","100.90","","","","-25","","Clear"
"1959-02-08 22:00","1959","02","08","22:00","-18.3","","-22.2","","71","","36","","10","","25.0","","100.88","","","","-25","","Clear"
"1959-02-08 23:00","1959","02","08","23:00","-17.2","","-21.1","","72","","2","","13","","25.0","","100.82","","","","-25","","Mainly Clear"
"1959-02-09 00:00","1959","02","09","00:00","-15.0","","-19.4","","69","","5","","14","","4.8","","100.72","","","","-23","","Snow"
"1959-02-09 01:00","1959","02","09","01:00","-14.4","","-17.2","","79","","5","","13","","4.8","","100.64","","","","-22","","Snow"
"1959-02-09 02:00","1959","02","09","02:00","-13.3","","-16.1","","80","","5","","11","","8.0","","100.54","","","","-20","","Snow"
"1959-02-09 03:00","1959","02","09","03:00","-9.4","","-12.8","","77","","11","","32","","9.7","","100.47","","","","-19","","Snow"
"1959-02-09 04:00","1959","02","09","04:00","-9.4","","-12.2","","80","","11","","29","","11.3","","100.33","","","","-19","","Snow"
"1959-02-09 05:00","1959","02","09","05:00","-11.7","","-13.9","","84","","7","","21","","6.4","","100.30","","","","-20","","Snow"
"1959-02-09 06:00","1959","02","09","06:00","-11.7","","-13.9","","84","","5","","32","","11.3","","100.16","","","","-22","","Snow"
"1959-02-09 07:00","1959","02","09","07:00","-12.2","","-14.4","","84","","9","","19","","12.9","","100.08","","","","-20","","Snow"
"1959-02-09 08:00","1959","02","09","08:00","-12.2","","-15.0","","80","","5","","14","","19.3","","100.05","","","","-19","","Mostly Cloudy"
"1959-02-09 09:00","1959","02","09","09:00","-12.2","","-15.0","","80","","5","","16","","6.4","","99.90","","","","-20","","Snow"
"1959-02-09 10:00","1959","02","09","10:00","-11.7","","-13.3","","87","","5","","16","","1.6","","99.76","","","","-19","","Snow"
"1959-02-09 11:00","1959","02","09","11:00","-11.1","","-12.2","","91","","5","","11","","1.2","","99.62","","","","-17","","Snow"
"1959-02-09 12:00","1959","02","09","12:00","-9.4","","-10.6","","92","","14","","26","","1.2","","99.41","","","","-18","","Snow,Ice Pellets"
"1959-02-09 13:00","1959","02","09","13:00","-5.0","","-5.6","","96","","11","","24","","2.0","","99.24","","","","-12","","Freezing Drizzle,Ice Pellets,Fog"
"1959-02-09 14:00","1959","02","09","14:00","-3.9","","-4.4","","96","","11","","19","","1.2","","99.07","","","","-10","","Snow Grains,Ice Pellets,Fog"
"1959-02-09 15:00","1959","02","09","15:00","-2.8","","-3.3","","96","","14","","16","","1.2","","98.95","","","","-8","","Freezing Rain,Freezing Drizzle,Fog"
"1959-02-09 16:00","1959","02","09","16:00","-2.2","","-2.8","","96","","36","","5","","1.2","","98.96","","","","-4","","Freezing Rain,Fog"
"1959-02-09 17:00","1959","02","09","17:00","-5.0","","-6.1","","92","","36","","8","","1.2","","98.99","","","","-9","","Freezing Drizzle,Fog"
"1959-02-09 18:00","1959","02","09","18:00","-4.4","","-5.6","","92","","2","","8","","1.2","","98.90","","","","-8","","Fog"
"1959-02-09 19:00","1959","02","09","19:00","-4.4","","-5.0","","96","","2","","5","","1.2","","98.87","","","","-7","","Fog"
"1959-02-09 20:00","1959","02","09","20:00","-4.4","","-5.0","","96","","","","0","","0.8","","98.88","","","","","","Freezing Drizzle,Fog"
"1959-02-09 21:00","1959","02","09","21:00","-3.9","","-4.4","","96","","36","","5","","0.6","","98.79","","","","-6","","Freezing Drizzle,Fog"
"1959-02-09 22:00","1959","02","09","22:00","-3.9","","-4.4","","96","","36","","6","","0.6","","98.73","","","","-7","","Freezing Drizzle,Fog"
"1959-02-09 23:00","1959","02","09","23:00","-2.8","","-3.3","","96","","36","","11","","0.8","","98.69","","","","-7","","Freezing Rain,Fog"
"1959-02-10 00:00","1959","02","10","00:00","-1.7","","-1.7","","100","","36","","13","","0.8","","98.54","","","","-6","","Freezing Rain,Fog"
"1959-02-10 01:00","1959","02","10","01:00","-1.1","","-1.1","","100","","36","","13","","1.6","","98.51","","","","-5","","Freezing Rain,Fog"
"1959-02-10 02:00","1959","02","10","02:00","-1.7","","-1.7","","100","","36","","24","","4.8","","98.39","","","","-8","","Freezing Rain,Fog"
"1959-02-10 03:00","1959","02","10","03:00","-2.2","","-2.2","","100","","36","","26","","6.4","","98.38","","","","-9","","Freezing Rain,Ice Pellets,Fog"
"1959-02-10 04:00","1959","02","10","04:00","-2.2","","-3.3","","92","","36","","29","","8.0","","98.26","","","","-9","","Freezing Rain,Ice Pellets,Fog"
"1959-02-10 05:00","1959","02","10","05:00","-2.8","","-3.9","","92","","36","","29","","11.3","","98.30","","","","-10","","Freezing Rain,Ice Pellets"
"1959-02-10 06:00","1959","02","10","06:00","-3.9","","-5.6","","88","","36","","26","","9.7","","98.36","","","","-11","","Snow,Ice Pellets"
"1959-02-10 07:00","1959","02","10","07:00","-4.4","","-6.1","","88","","2","","21","","4.8","","98.34","","","","-11","","Snow,Ice Pellets"
"1959-02-10 08:00","1959","02","10","08:00","-4.4","","-6.1","","88","","2","","16","","4.0","","98.50","","","","-10","","Snow"
"1959-02-10 09:00","1959","02","10","09:00","-5.6","","-7.2","","88","","5","","34","","1.6","","98.56","","","","-14","","Snow Grains"
"1959-02-10 10:00","1959","02","10","10:00","-7.8","","-9.4","","88","","7","","24","","1.6","","98.47","","","","-16","","Snow,Snow Grains"
"1959-02-10 11:00","1959","02","10","11:00","-8.3","","-10.0","","88","","5","","24","","1.2","","98.47","","","","-16","","Snow"
"1959-02-10 12:00","1959","02","10","12:00","-8.9","","-10.6","","88","","5","","19","","1.2","","98.51","","","","-16","","Snow,Snow Grains"
"1959-02-10 13:00","1959","02","10","13:00","-8.9","","-10.6","","88","","7","","24","","6.4","","98.11","","","","-17","","Snow"
"1959-02-10 14:00","1959","02","10","14:00","-9.4","","-10.6","","92","","5","","24","","4.8","","97.99","","","","-18","","Freezing Rain,Ice Pellets,Fog"
"1959-02-10 15:00","1959","02","10","15:00","-8.9","","-10.6","","88","","5","","16","","1.2","","98.17","","","","-16","","Snow"
"1959-02-10 16:00","1959","02","10","16:00","-8.9","","-10.6","","88","","5","","21","","4.8","","98.17","","","","-17","","Snow Grains,Fog"
"1959-02-10 17:00","1959","02","10","17:00","-8.9","","-10.6","","88","","2","","21","","6.4","","98.25","","","","-17","","Snow Grains,Fog"
"1959-02-10 18:00","1959","02","10","18:00","-9.4","","-10.6","","92","","5","","21","","3.2","","98.34","","","","-17","","Snow Grains,Fog"
"1959-02-10 19:00","1959","02","10","19:00","-9.4","","-10.6","","92","","5","","19","","2.0","","98.42","","","","-17","","Snow Grains,Fog"
"1959-02-10 20:00","1959","02","10","20:00","-9.4","","-10.6","","92","","2","","18","","2.0","","98.52","","","","-17","","Snow,Snow Grains"
"1959-02-10 21:00","1959","02","10","21:00","-9.4","","-10.6","","92","","2","","16","","3.2","","98.56","","","","-16","","Snow,Snow Grains"
"1959-02-10 22:00","1959","02","10","22:00","-9.4","","-10.6","","92","","2","","19","","6.4","","98.65","","","","-17","","Snow,Snow Grains"
"1959-02-10 23:00","1959","02","10","23:00","-9.4","","-11.1","","88","","2","","16","","2.4","","98.74","","","","-16","","Snow"
"1959-02-11 00:00","1959","02","11","00:00","-9.4","","-11.1","","88","","2","","16","","3.2","","98.84","","","","-16","","Snow"
"1959-02-11 01:00","1959","02","11","01:00","-10.0","","-11.7","","88","","2","","18","","2.4","","98.96","","","","-17","","Snow"
"1959-02-11 02:00","1959","02","11","02:00","-10.6","","-12.2","","87","","36","","23","","2.4","","99.13","","","","-19","","Snow"
"1959-02-11 03:00","1959","02","11","03:00","-10.6","","-12.2","","87","","36","","26","","2.4","","99.26","","","","-20","","Snow"
"1959-02-11 04:00","1959","02","11","04:00","-11.1","","-12.8","","87","","36","","23","","1.6","","99.44","","","","-20","","Snow"
"1959-02-11 05:00","1959","02","11","05:00","-11.1","","-12.8","","87","","36","","23","","2.0","","99.67","","","","-20","","Snow"
"1959-02-11 06:00","1959","02","11","06:00","-11.7","","-13.3","","87","","34","","24","","4.0","","99.87","","","","-21","","Snow"
"1959-02-11 07:00","1959","02","11","07:00","-11.7","","-13.3","","87","","34","","23","","4.0","","100.04","","","","-21","","Snow"
"1959-02-11 08:00","1959","02","11","08:00","-12.2","","-14.4","","84","","36","","23","","6.4","","100.17","","","","-21","","Snow"
"1959-02-11 09:00","1959","02","11","09:00","-11.1","","-12.8","","87","","34","","14","","3.2","","100.39","","","","-18","","Snow"
"1959-02-11 10:00","1959","02","11","10:00","-11.7","","-14.4","","80","","32","","19","","4.0","","100.55","","","","-20","","Snow"
"1959-02-11 11:00","1959","02","11","11:00","-11.1","","-13.3","","84","","34","","14","","4.0","","100.66","","","","-18","","Snow"
"1959-02-11 12:00","1959","02","11","12:00","-10.6","","-13.3","","80","","32","","21","","8.0","","100.75","","","","-19","","Snow"
"1959-02-11 13:00","1959","02","11","13:00","-10.0","","-13.3","","77","","32","","21","","24.1","","100.75","","","","-18","","Mostly Cloudy"
"1959-02-11 14:00","1959","02","11","14:00","-9.4","","-13.9","","70","","32","","23","","24.1","","100.84","","","","-18","","Mainly Clear"
"1959-02-11 15:00","1959","02","11","15:00","-9.4","","-13.3","","73","","32","","21","","24.1","","100.95","","","","-17","","Mainly Clear"
"1959-02-11 16:00","1959","02","11","16:00","-9.4","","-13.3","","73","","32","","18","","24.1","","101.06","","","","-17","","Clear"
"1959-02-11 17:00","1959","02","11","17:00","-10.6","","-15.0","","70","","29","","13","","25.0","","101.16","","","","-17","","Clear"
"1959-02-11 18:00","1959","02","11","18:00","-12.2","","-15.6","","76","","32","","10","","25.0","","101.26","","","","-18","","Clear"
"1959-02-11 19:00","1959","02","11","19:00","-14.4","","-16.1","","87","","34","","6","","25.0","","101.33","","","","-19","","Clear"
"1959-02-11 20:00","1959","02","11","20:00","-15.6","","-17.2","","87","","36","","10","","25.0","","101.44","","","","-22","","Clear"
"1959-02-11 21:00","1959","02","11","21:00","-20.0","","-22.2","","82","","","","0","","25.0","","101.53","","","","","","Ice Crystals"
"1959-02-11 22:00","1959","02","11","22:00","-21.1","","-22.8","","86","","25","","6","","25.0","","101.58","","","","-26","","Ice Crystals"
"1959-02-11 23:00","1959","02","11","23:00","-21.1","","-21.7","","95","","","","0","","25.0","","101.58","","","","","","Ice Crystals"
"1959-02-12 00:00","1959","02","12","00:00","-21.7","","-25.0","","74","","","","0","","6.4","","101.61","","","","","","Ice Fog"
"1959-02-12 01:00","1959","02","12","01:00","-20.6","","-23.3","","78","","","","0","","4.8","","101.64","","","","","","Ice Fog"
"1959-02-12 02:00","1959","02","12","02:00","-23.9","","-27.2","","74","","","","0","","3.2","","101.58","","","","","","Ice Fog"
"1959-02-12 03:00","1959","02","12","03:00","-23.9","","-26.1","","82","","","","0","","8.0","","101.53","","","","","","Ice Fog"
"1959-02-12 04:00","1959","02","12","04:00","-23.9","","-26.7","","78","","23","","8","","6.4","","101.52","","","","-31","","Ice Fog"
"1959-02-12 05:00","1959","02","12","05:00","-20.6","","-23.3","","78","","27","","5","","6.4","","101.52","","","","-25","","Ice Fog"
"1959-02-12 06:00","1959","02","12","06:00","-22.8","","-26.1","","74","","2","","5","","8.0","","101.41","","","","-27","","Ice Fog"
"1959-02-12 07:00","1959","02","12","07:00","-22.8","","-25.0","","82","","7","","5","","12.9","","101.39","","","","-27","","Mainly Clear"
"1959-02-12 08:00","1959","02","12","08:00","-20.0","","-22.2","","82","","5","","3","","12.9","","101.38","","","","-23","","Cloudy"
"1959-02-12 09:00","1959","02","12","09:00","-16.7","","-19.4","","79","","","","0","","1.6","","101.29","","","","","","Fog,Smoke"
"1959-02-12 10:00","1959","02","12","10:00","-14.4","","-16.1","","87","","","","0","","3.2","","101.21","","","","","","Fog,Smoke"
"1959-02-12 11:00","1959","02","12","11:00","-10.6","","-13.9","","76","","","","0","","4.0","","101.05","","","","","","Smoke,Haze"
"1959-02-12 12:00","1959","02","12","12:00","-5.6","","-6.7","","92","","20","","16","","9.7","","100.82","","","","-12","","Smoke,Haze"
"1959-02-12 13:00","1959","02","12","13:00","-4.4","","-7.2","","81","","18","","21","","11.3","","100.61","","","","-11","","Mostly Cloudy"
"1959-02-12 14:00","1959","02","12","14:00","-3.9","","-7.2","","78","","18","","21","","11.3","","100.39","","","","-10","","Mostly Cloudy"
"1959-02-12 15:00","1959","02","12","15:00","-2.8","","-6.7","","75","","18","","13","","11.3","","100.23","","","","-7","","Mostly Cloudy"
"1959-02-12 16:00","1959","02","12","16:00","-2.8","","-7.2","","72","","18","","16","","12.9","","100.00","","","","-8","","Mostly Cloudy"
"1959-02-12 17:00","1959","02","12","17:00","-3.9","","-7.8","","74","","16","","10","","12.9","","99.94","","","","-8","","Mainly Clear"
"1959-02-12 18:00","1959","02","12","18:00","-4.4","","-7.8","","78","","14","","10","","12.9","","99.81","","","","-9","","Mainly Clear"
"1959-02-12 19:00","1959","02","12","19:00","-4.4","","-8.3","","74","","18","","6","","12.9","","99.75","","","","-7","","Mostly Cloudy"
"1959-02-12 20:00","1959","02","12","20:00","-4.4","","-7.8","","78","","18","","10","","12.9","","99.59","","","","-9","","Mostly Cloudy"
"1959-02-12 21:00","1959","02","12","21:00","-3.9","","-6.7","","81","","23","","3","","11.3","","99.56","","","","-5","","Cloudy"
"1959-02-12 22:00","1959","02","12","22:00","-1.7","","-4.4","","81","","18","","29","","12.9","","99.29","","","","-9","","Cloudy"
"1959-02-12 23:00","1959","02","12","23:00","3.3","","-0.6","","76","","23","","35","","16.1","","99.20","","","","","","Cloudy"
"1959-02-13 00:00","1959","02","13","00:00","4.4","","1.1","","79","","23","","40","","16.1","","99.09","","","","","","Mostly Cloudy"
"1959-02-13 01:00","1959","02","13","01:00","4.4","","2.2","","85","","25","","45","","16.1","","99.06","","","","","","Rain"
"1959-02-13 02:00","1959","02","13","02:00","3.9","","2.8","","92","","25","","39","","12.9","","99.02","","","","","","Rain"
"1959-02-13 03:00","1959","02","13","03:00","4.4","","2.8","","89","","27","","26","","19.3","","99.20","","","","","","Cloudy"
"1959-02-13 04:00","1959","02","13","04:00","3.3","","2.8","","96","","29","","42","","12.9","","99.26","","","","","","Rain Showers"
"1959-02-13 05:00","1959","02","13","05:00","2.8","","0.0","","82","","29","","32","","24.1","","99.35","","","","","","Cloudy"
"1959-02-13 06:00","1959","02","13","06:00","2.2","","-1.1","","78","","29","","26","","24.1","","99.41","","","","","","Cloudy"
"1959-02-13 07:00","1959","02","13","07:00","2.2","","-1.1","","78","","32","","24","","24.1","","99.51","","","","","","Cloudy"
"1959-02-13 08:00","1959","02","13","08:00","1.7","","-1.1","","82","","32","","23","","24.1","","99.59","","","","","","Cloudy"
"1959-02-13 09:00","1959","02","13","09:00","2.2","","-2.2","","72","","32","","23","","12.9","","99.73","","","","","","Mostly Cloudy"
"1959-02-13 10:00","1959","02","13","10:00","2.2","","-2.2","","72","","32","","23","","16.1","","99.82","","","","","","Mostly Cloudy"
"1959-02-13 11:00","1959","02","13","11:00","1.7","","-3.3","","69","","29","","16","","16.1","","99.94","","","","","","Mostly Cloudy"
"1959-02-13 12:00","1959","02","13","12:00","1.7","","-3.9","","67","","36","","19","","19.3","","99.95","","","","","","Mainly Clear"
"1959-02-13 13:00","1959","02","13","13:00","1.7","","-3.3","","69","","36","","16","","24.1","","99.97","","","","","","Mostly Cloudy"
"1959-02-13 14:00","1959","02","13","14:00","1.1","","-3.3","","72","","36","","19","","24.1","","100.01","","","","","","Mostly Cloudy"
"1959-02-13 15:00","1959","02","13","15:00","1.1","","-4.4","","66","","36","","16","","25.0","","100.05","","","","","","Mainly Clear"
"1959-02-13 16:00","1959","02","13","16:00","0.6","","-5.6","","64","","2","","13","","25.0","","100.04","","","","","","Mainly Clear"
"1959-02-13 17:00","1959","02","13","17:00","0.0","","-5.6","","66","","36","","14","","25.0","","100.08","","","","-4","","Mainly Clear"
"1959-02-13 18:00","1959","02","13","18:00","-0.6","","-5.0","","72","","36","","8","","25.0","","100.18","","","","-3","","Mainly Clear"
"1959-02-13 19:00","1959","02","13","19:00","-1.1","","-6.1","","69","","36","","3","","25.0","","100.32","","","","-2","","Mainly Clear"
"1959-02-13 20:00","1959","02","13","20:00","-1.7","","-6.1","","72","","36","","6","","25.0","","100.29","","","","-4","","Clear"
"1959-02-13 21:00","1959","02","13","21:00","-2.8","","-6.7","","75","","36","","8","","25.0","","100.29","","","","-6","","Clear"
"1959-02-13 22:00","1959","02","13","22:00","-3.9","","-7.2","","78","","36","","10","","25.0","","100.28","","","","-8","","Mainly Clear"
"1959-02-13 23:00","1959","02","13","23:00","-4.4","","-7.2","","81","","36","","6","","25.0","","100.27","","","","-7","","Mostly Cloudy"
"1959-02-14 00:00","1959","02","14","00:00","-5.6","","-7.2","","88","","36","","5","","25.0","","100.24","","","","-8","","Mostly Cloudy"
"1959-02-14 01:00","1959","02","14","01:00","-5.6","","-7.2","","88","","36","","6","","25.0","","100.18","","","","-8","","Mostly Cloudy"
"1959-02-14 02:00","1959","02","14","02:00","-6.1","","-8.3","","84","","34","","3","","25.0","","100.23","","","","-8","","Mostly Cloudy"
"1959-02-14 03:00","1959","02","14","03:00","-6.1","","-8.3","","84","","36","","5","","25.0","","100.12","","","","-9","","Mostly Cloudy"
"1959-02-14 04:00","1959","02","14","04:00","-6.1","","-8.3","","84","","36","","5","","25.0","","100.08","","","","-9","","Mostly Cloudy"
"1959-02-14 05:00","1959","02","14","05:00","-6.1","","-8.3","","84","","2","","5","","25.0","","100.04","","","","-9","","Mostly Cloudy"
"1959-02-14 06:00","1959","02","14","06:00","-6.1","","-8.9","","81","","2","","10","","25.0","","100.02","","","","-11","","Mostly Cloudy"
"1959-02-14 07:00","1959","02","14","07:00","-6.1","","-9.4","","77","","2","","8","","25.0","","99.97","","","","-10","","Cloudy"
"1959-02-14 08:00","1959","02","14","08:00","-6.1","","-8.9","","81","","2","","6","","12.9","","99.96","","","","-9","","Cloudy"
"1959-02-14 09:00","1959","02","14","09:00","-5.0","","-7.2","","84","","2","","8","","12.9","","99.88","","","","-9","","Cloudy"
"1959-02-14 10:00","1959","02","14","10:00","-3.9","","-5.6","","88","","2","","10","","12.9","","99.82","","","","-8","","Cloudy"
"1959-02-14 11:00","1959","02","14","11:00","-1.7","","-3.9","","85","","5","","8","","9.7","","99.66","","","","-5","","Fog"
"1959-02-14 12:00","1959","02","14","12:00","-1.1","","-2.8","","88","","9","","11","","6.4","","99.53","","","","-5","","Freezing Rain,Fog"
"1959-02-14 13:00","1959","02","14","13:00","-0.6","","-1.1","","96","","9","","16","","3.2","","99.31","","","","-5","","Freezing Rain,Fog"
"1959-02-14 14:00","1959","02","14","14:00","0.0","","-0.6","","96","","9","","18","","3.2","","99.17","","","","-5","","Rain,Fog"
"1959-02-14 15:00","1959","02","14","15:00","0.0","","-1.1","","92","","9","","19","","3.2","","98.93","","","","-5","","Rain,Fog"
"1959-02-14 16:00","1959","02","14","16:00","-0.6","","-1.1","","96","","7","","14","","3.2","","98.88","","","","-5","","Moderate Freezing Rain,Fog"
"1959-02-14 17:00","1959","02","14","17:00","-0.6","","-0.6","","100","","7","","23","","3.2","","98.69","","","","-6","","Freezing Rain,Fog"
"1959-02-14 18:00","1959","02","14","18:00","0.0","","-0.6","","96","","9","","13","","2.8","","98.58","","","","-4","","Rain,Fog"
"1959-02-14 19:00","1959","02","14","19:00","0.0","","0.0","","100","","5","","6","","3.2","","98.53","","","","-2","","Rain,Fog"
"1959-02-14 20:00","1959","02","14","20:00","0.0","","0.0","","100","","5","","16","","4.0","","98.39","","","","-5","","Rain,Fog"
"1959-02-14 21:00","1959","02","14","21:00","0.6","","0.0","","96","","36","","6","","6.4","","98.46","","","","","","Fog"
"1959-02-14 22:00","1959","02","14","22:00","0.6","","0.0","","96","","36","","6","","1.2","","98.47","","","","","","Drizzle,Fog"
"1959-02-14 23:00","1959","02","14","23:00","0.6","","0.0","","96","","36","","8","","1.2","","98.47","","","","","","Drizzle,Fog"
"1959-02-15 00:00","1959","02","15","00:00","0.0","","0.0","","100","","36","","8","","3.2","","98.55","","","","-3","","Drizzle,Fog"
"1959-02-15 01:00","1959","02","15","01:00","0.0","","0.0","","100","","2","","21","","6.4","","98.67","","","","-5","","Drizzle,Fog"
"1959-02-15 02:00","1959","02","15","02:00","-1.7","","-2.8","","92","","36","","29","","2.4","","98.87","","","","-9","","Freezing Drizzle,Snow Grains,Fog"
"1959-02-15 03:00","1959","02","15","03:00","-3.9","","-5.6","","88","","2","","39","","24.1","","99.04","","","","-13","","Cloudy"
"1959-02-15 04:00","1959","02","15","04:00","-4.4","","-6.1","","88","","36","","39","","24.1","","99.28","","","","-13","","Cloudy"
"1959-02-15 05:00","1959","02","15","05:00","-4.4","","-6.7","","84","","36","","32","","8.0","","99.53","","","","-12","","Snow Showers"
"1959-02-15 06:00","1959","02","15","06:00","-4.4","","-6.1","","88","","36","","39","","24.1","","99.72","","","","-13","","Cloudy"
"1959-02-15 07:00","1959","02","15","07:00","-6.1","","-7.8","","88","","36","","39","","25.0","","99.92","","","","-15","","Mainly Clear"
"1959-02-15 08:00","1959","02","15","08:00","-5.6","","-7.8","","84","","36","","32","","25.0","","100.16","","","","-14","","Clear"
"1959-02-15 09:00","1959","02","15","09:00","-8.3","","-11.1","","80","","36","","32","","25.0","","100.26","","","","-18","","Clear"
"1959-02-15 10:00","1959","02","15","10:00","-8.3","","-11.7","","77","","36","","27","","25.0","","100.37","","","","-17","","Clear"
"1959-02-15 11:00","1959","02","15","11:00","-8.3","","-9.4","","92","","36","","26","","25.0","","100.43","","","","-17","","Clear"
"1959-02-15 12:00","1959","02","15","12:00","-7.8","","-9.4","","88","","36","","18","","25.0","","100.46","","","","-15","","Clear"
"1959-02-15 13:00","1959","02","15","13:00","-7.2","","-10.0","","81","","36","","13","","25.0","","100.46","","","","-13","","Clear"
"1959-02-15 14:00","1959","02","15","14:00","-6.7","","-9.4","","81","","34","","11","","25.0","","100.45","","","","-12","","Clear"
"1959-02-15 15:00","1959","02","15","15:00","-6.1","","-8.9","","81","","36","","10","","25.0","","100.43","","","","-11","","Mainly Clear"
"1959-02-15 16:00","1959","02","15","16:00","-6.1","","-9.4","","77","","36","","6","","25.0","","100.50","","","","-9","","Mainly Clear"
"1959-02-15 17:00","1959","02","15","17:00","-6.1","","-8.9","","81","","5","","5","","25.0","","100.48","","","","-9","","Mainly Clear"
"1959-02-15 18:00","1959","02","15","18:00","-5.6","","-8.9","","77","","23","","5","","25.0","","100.47","","","","-8","","Mostly Cloudy"
"1959-02-15 19:00","1959","02","15","19:00","-5.6","","-8.9","","77","","18","","10","","25.0","","100.49","","","","-10","","Mostly Cloudy"
"1959-02-15 20:00","1959","02","15","20:00","-5.6","","-8.9","","77","","18","","10","","24.1","","100.46","","","","-10","","Mainly Clear"
"1959-02-15 21:00","1959","02","15","21:00","-6.1","","-8.9","","81","","18","","10","","24.1","","100.33","","","","-11","","Mainly Clear"
"1959-02-15 22:00","1959","02","15","22:00","-5.6","","-8.3","","81","","18","","14","","24.1","","100.23","","","","-11","","Cloudy"
"1959-02-15 23:00","1959","02","15","23:00","-3.9","","-6.7","","81","","18","","19","","25.0","","100.10","","","","-10","","Cloudy"
"1959-02-16 00:00","1959","02","16","00:00","-3.9","","-6.1","","85","","20","","24","","25.0","","99.88","","","","-11","","Cloudy"
"1959-02-16 01:00","1959","02","16","01:00","-3.9","","-5.6","","88","","20","","24","","24.1","","99.83","","","","-11","","Cloudy"
"1959-02-16 02:00","1959","02","16","02:00","-3.3","","-5.6","","85","","20","","24","","16.1","","99.63","","","","-10","","Snow Showers"
"1959-02-16 03:00","1959","02","16","03:00","-3.3","","-4.4","","92","","20","","23","","16.1","","99.51","","","","-10","","Snow Showers"
"1959-02-16 04:00","1959","02","16","04:00","-2.8","","-4.4","","88","","20","","29","","16.1","","99.36","","","","-10","","Snow Showers"
"1959-02-16 05:00","1959","02","16","05:00","-1.7","","-3.9","","85","","23","","29","","16.1","","99.34","","","","-9","","Snow Showers"
"1959-02-16 06:00","1959","02","16","06:00","-1.7","","-3.9","","85","","23","","29","","16.1","","99.22","","","","-9","","Snow Showers"
"1959-02-16 07:00","1959","02","16","07:00","-1.7","","-3.3","","88","","23","","32","","12.9","","99.18","","","","-9","","Snow Showers"
"1959-02-16 08:00","1959","02","16","08:00","-1.1","","-2.8","","88","","23","","29","","8.0","","99.16","","","","-8","","Snow Showers,Haze"
"1959-02-16 09:00","1959","02","16","09:00","-0.6","","-2.2","","88","","23","","27","","6.4","","99.07","","","","-7","","Snow Showers,Fog"
"1959-02-16 10:00","1959","02","16","10:00","-0.6","","-2.2","","88","","25","","32","","2.4","","99.06","","","","-7","","Snow Showers,Fog"
"1959-02-16 11:00","1959","02","16","11:00","0.0","","-1.7","","88","","23","","26","","2.4","","99.05","","","","-6","","Snow,Fog"
"1959-02-16 12:00","1959","02","16","12:00","0.0","","-1.7","","88","","25","","27","","4.0","","99.03","","","","-6","","Snow,Fog"
"1959-02-16 13:00","1959","02","16","13:00","0.6","","-1.7","","85","","25","","27","","8.0","","98.97","","","","","","Fog"
"1959-02-16 14:00","1959","02","16","14:00","0.6","","-1.7","","85","","25","","21","","9.7","","98.96","","","","","","Fog"
"1959-02-16 15:00","1959","02","16","15:00","1.1","","-1.7","","82","","25","","26","","8.0","","98.95","","","","","","Snow Showers,Haze"
"1959-02-16 16:00","1959","02","16","16:00","1.1","","-2.2","","78","","27","","24","","8.0","","98.94","","","","","","Snow Showers,Haze"
"1959-02-16 17:00","1959","02","16","17:00","0.6","","-1.7","","85","","27","","24","","8.0","","98.92","","","","","","Fog"
"1959-02-16 18:00","1959","02","16","18:00","0.6","","-1.7","","85","","27","","23","","8.0","","98.97","","","","","","Fog"
"1959-02-16 19:00","1959","02","16","19:00","0.6","","-1.7","","85","","27","","16","","8.0","","99.04","","","","","","Fog"
"1959-02-16 20:00","1959","02","16","20:00","0.6","","-2.2","","82","","27","","16","","19.3","","99.04","","","","","","Cloudy"
"1959-02-16 21:00","1959","02","16","21:00","0.0","","-2.2","","85","","27","","16","","19.3","","99.04","","","","-5","","Cloudy"
"1959-02-16 22:00","1959","02","16","22:00","0.6","","-2.8","","78","","25","","16","","19.3","","99.04","","","","","","Cloudy"
"1959-02-16 23:00","1959","02","16","23:00","0.0","","-2.2","","85","","25","","23","","19.3","","99.02","","","","-6","","Cloudy"
"1959-02-17 00:00","1959","02","17","00:00","0.0","","-2.8","","82","","25","","14","","19.3","","99.00","","","","-4","","Cloudy"
"1959-02-17 01:00","1959","02","17","01:00","0.0","","-2.8","","82","","27","","6","","19.3","","98.98","","","","-2","","Cloudy"
"1959-02-17 02:00","1959","02","17","02:00","-1.7","","-2.8","","92","","2","","10","","19.3","","99.00","","","","-5","","Cloudy"
"1959-02-17 03:00","1959","02","17","03:00","-2.2","","-3.9","","88","","2","","8","","19.3","","98.98","","","","-5","","Cloudy"
"1959-02-17 04:00","1959","02","17","04:00","-2.8","","-4.4","","88","","2","","8","","19.3","","98.97","","","","-6","","Cloudy"
"1959-02-17 05:00","1959","02","17","05:00","-2.8","","-5.0","","85","","36","","8","","19.3","","98.96","","","","-6","","Cloudy"
"1959-02-17 06:00","1959","02","17","06:00","-3.3","","-5.6","","85","","2","","10","","24.1","","99.01","","","","-7","","Cloudy"
"1959-02-17 07:00","1959","02","17","07:00","-3.9","","-6.7","","81","","2","","10","","24.1","","99.03","","","","-8","","Cloudy"
"1959-02-17 08:00","1959","02","17","08:00","-4.4","","-6.7","","84","","36","","10","","24.1","","99.06","","","","-9","","Cloudy"
"1959-02-17 09:00","1959","02","17","09:00","-4.4","","-8.3","","74","","36","","13","","24.1","","99.04","","","","-9","","Cloudy"
"1959-02-17 10:00","1959","02","17","10:00","-3.9","","-7.8","","74","","2","","8","","24.1","","99.01","","","","-7","","Cloudy"
"1959-02-17 11:00","1959","02","17","11:00","-3.3","","-5.6","","85","","2","","6","","24.1","","98.99","","","","-6","","Cloudy"
"1959-02-17 12:00","1959","02","17","12:00","-2.8","","-5.6","","81","","5","","5","","24.1","","98.97","","","","-5","","Cloudy"
"1959-02-17 13:00","1959","02","17","13:00","-2.8","","-5.6","","81","","18","","3","","24.1","","98.93","","","","-4","","Cloudy"
"1959-02-17 14:00","1959","02","17","14:00","-1.7","","-6.1","","72","","18","","5","","24.1","","98.85","","","","-4","","Cloudy"
"1959-02-17 15:00","1959","02","17","15:00","-1.7","","-4.4","","81","","16","","5","","12.9","","98.81","","","","-4","","Cloudy"
"1959-02-17 16:00","1959","02","17","16:00","-1.7","","-4.4","","81","","16","","8","","12.9","","98.77","","","","-5","","Cloudy"
"1959-02-17 17:00","1959","02","17","17:00","-1.7","","-4.4","","81","","14","","6","","12.9","","98.76","","","","-4","","Cloudy"
"1959-02-17 18:00","1959","02","17","18:00","-2.2","","-3.3","","92","","16","","10","","4.8","","98.80","","","","-6","","Fog"
"1959-02-17 19:00","1959","02","17","19:00","-2.2","","-5.0","","81","","16","","5","","12.9","","98.81","","","","-4","","Mostly Cloudy"
"1959-02-17 20:00","1959","02","17","20:00","-2.8","","-4.4","","88","","9","","5","","19.3","","98.83","","","","-5","","Cloudy"
"1959-02-17 21:00","1959","02","17","21:00","-2.8","","-5.6","","81","","9","","6","","19.3","","98.81","","","","-5","","Cloudy"
"1959-02-17 22:00","1959","02","17","22:00","-3.3","","-5.0","","88","","5","","6","","24.1","","98.79","","","","-6","","Cloudy"
"1959-02-17 23:00","1959","02","17","23:00","-3.3","","-5.6","","88","","5","","6","","4.0","","98.77","","","","-6","","Snow Showers"
"1959-02-18 00:00","1959","02","18","00:00","-3.9","","-5.6","","88","","5","","6","","2.4","","98.72","","","","-7","","Snow"
"1959-02-18 01:00","1959","02","18","01:00","-4.4","","-5.6","","92","","2","","6","","4.8","","98.69","","","","-7","","Snow"
"1959-02-18 02:00","1959","02","18","02:00","-5.0","","-6.1","","92","","5","","10","","3.2","","98.69","","","","-9","","Snow"
"1959-02-18 03:00","1959","02","18","03:00","-5.0","","-6.1","","92","","2","","10","","2.0","","98.65","","","","-9","","Snow"
"1959-02-18 04:00","1959","02","18","04:00","-5.0","","-6.1","","92","","36","","11","","2.0","","98.62","","","","-10","","Snow"
"1959-02-18 05:00","1959","02","18","05:00","-5.6","","-6.7","","92","","36","","13","","6.4","","98.58","","","","-11","","Snow"
"1959-02-18 06:00","1959","02","18","06:00","-5.6","","-6.7","","92","","36","","13","","6.4","","98.58","","","","-11","","Snow"
"1959-02-18 07:00","1959","02","18","07:00","-5.6","","-7.2","","88","","36","","16","","1.6","","98.59","","","","-12","","Snow"
"1959-02-18 08:00","1959","02","18","08:00","-6.1","","-7.2","","92","","36","","19","","2.4","","98.65","","","","-13","","Snow"
"1959-02-18 09:00","1959","02","18","09:00","-6.1","","-7.8","","88","","36","","13","","4.0","","98.71","","","","-11","","Snow"
"1959-02-18 10:00","1959","02","18","10:00","-6.1","","-8.3","","84","","36","","14","","12.9","","98.73","","","","-12","","Mostly Cloudy"
"1959-02-18 11:00","1959","02","18","11:00","-5.6","","-8.9","","77","","36","","19","","16.1","","98.73","","","","-12","","Mostly Cloudy"
"1959-02-18 12:00","1959","02","18","12:00","-5.0","","-7.8","","81","","36","","23","","16.1","","98.75","","","","-12","","Mostly Cloudy"
"1959-02-18 13:00","1959","02","18","13:00","-5.0","","-9.4","","71","","36","","23","","25.0","","98.72","","","","-12","","Mostly Cloudy"
"1959-02-18 14:00","1959","02","18","14:00","-5.0","","-8.9","","74","","36","","16","","25.0","","98.67","","","","-11","","Mostly Cloudy"
"1959-02-18 15:00","1959","02","18","15:00","-5.0","","-7.8","","81","","34","","18","","6.4","","98.68","","","","-11","","Snow Showers"
"1959-02-18 16:00","1959","02","18","16:00","-6.1","","-9.4","","77","","36","","23","","16.1","","98.75","","","","-13","","Snow Showers"
"1959-02-18 17:00","1959","02","18","17:00","-6.7","","-10.6","","74","","36","","26","","25.0","","98.81","","","","-15","","Mostly Cloudy"
"1959-02-18 18:00","1959","02","18","18:00","-8.3","","-12.2","","74","","36","","29","","25.0","","98.88","","","","-17","","Mostly Cloudy"
"1959-02-18 19:00","1959","02","18","19:00","-9.4","","-13.3","","73","","36","","32","","25.0","","98.95","","","","-19","","Mostly Cloudy"
"1959-02-18 20:00","1959","02","18","20:00","-9.4","","-13.3","","73","","36","","32","","25.0","","98.97","","","","-19","","Mostly Cloudy"
"1959-02-18 21:00","1959","02","18","21:00","-10.0","","-13.9","","73","","36","","39","","25.0","","98.98","","","","-21","","Mostly Cloudy"
"1959-02-18 22:00","1959","02","18","22:00","-11.1","","-15.6","","70","","36","","31","","25.0","","99.03","","","","-21","","Mainly Clear"
"1959-02-18 23:00","1959","02","18","23:00","-12.2","","-18.3","","60","","36","","29","","25.0","","99.05","","","","-22","","Mainly Clear"
"1959-02-19 00:00","1959","02","19","00:00","-13.9","","-18.9","","66","","36","","24","","25.0","","99.08","","","","-24","","Mainly Clear"
"1959-02-19 01:00","1959","02","19","01:00","-14.4","","-19.4","","66","","36","","26","","25.0","","99.13","","","","-25","","Mainly Clear"
"1959-02-19 02:00","1959","02","19","02:00","-16.1","","-21.1","","65","","34","","26","","25.0","","99.20","","","","-27","","Clear"
"1959-02-19 03:00","1959","02","19","03:00","-16.7","","-21.7","","65","","34","","23","","25.0","","99.23","","","","-27","","Clear"
"1959-02-19 04:00","1959","02","19","04:00","-17.2","","-22.2","","65","","36","","21","","25.0","","99.28","","","","-27","","Clear"
"1959-02-19 05:00","1959","02","19","05:00","-17.8","","-23.3","","62","","36","","14","","25.0","","99.32","","","","-26","","Clear"
"1959-02-19 06:00","1959","02","19","06:00","-18.3","","-23.9","","62","","32","","19","","25.0","","99.39","","","","-28","","Clear"
"1959-02-19 07:00","1959","02","19","07:00","-18.3","","-24.4","","59","","32","","19","","25.0","","99.44","","","","-28","","Mainly Clear"
"1959-02-19 08:00","1959","02","19","08:00","-18.3","","-23.9","","62","","34","","21","","25.0","","99.52","","","","-29","","Mainly Clear"
"1959-02-19 09:00","1959","02","19","09:00","-18.9","","-22.8","","71","","34","","26","","25.0","","99.61","","","","-30","","Mainly Clear"
"1959-02-19 10:00","1959","02","19","10:00","-18.3","","-23.9","","62","","34","","29","","25.0","","99.66","","","","-30","","Mainly Clear"
"1959-02-19 11:00","1959","02","19","11:00","-18.3","","-23.9","","62","","34","","29","","25.0","","99.68","","","","-30","","Clear"
"1959-02-19 12:00","1959","02","19","12:00","-17.2","","-22.8","","62","","34","","24","","25.0","","99.70","","","","-28","","Clear"
"1959-02-19 13:00","1959","02","19","13:00","-16.1","","-21.7","","62","","34","","24","","25.0","","99.67","","","","-26","","Clear"
"1959-02-19 14:00","1959","02","19","14:00","-15.6","","-20.0","","69","","34","","27","","25.0","","99.67","","","","-26","","Mainly Clear"
"1959-02-19 15:00","1959","02","19","15:00","-15.0","","-20.0","","66","","34","","29","","25.0","","99.72","","","","-26","","Mainly Clear"
"1959-02-19 16:00","1959","02","19","16:00","-15.6","","-21.1","","62","","32","","27","","25.0","","99.77","","","","-26","","Mainly Clear"
"1959-02-19 17:00","1959","02","19","17:00","-15.6","","-19.4","","72","","29","","24","","25.0","","99.89","","","","-26","","Clear"
"1959-02-19 18:00","1959","02","19","18:00","-16.1","","-20.0","","72","","29","","26","","25.0","","99.91","","","","-27","","Clear"
"1959-02-19 19:00","1959","02","19","19:00","-16.1","","-19.4","","75","","32","","24","","25.0","","99.99","","","","-26","","Clear"
"1959-02-19 20:00","1959","02","19","20:00","-16.7","","-20.6","","72","","29","","23","","25.0","","100.04","","","","-27","","Mainly Clear"
"1959-02-19 21:00","1959","02","19","21:00","-17.2","","-21.7","","68","","29","","13","","24.1","","100.08","","","","-25","","Mainly Clear"
"1959-02-19 22:00","1959","02","19","22:00","-17.8","","-22.2","","68","","29","","10","","24.1","","100.13","","","","-25","","Mainly Clear"
"1959-02-19 23:00","1959","02","19","23:00","-17.8","","-21.7","","72","","25","","13","","24.1","","100.17","","","","-26","","Clear"
"1959-02-20 00:00","1959","02","20","00:00","-18.3","","-20.6","","83","","25","","13","","25.0","","100.15","","","","-26","","Clear"
"1959-02-20 01:00","1959","02","20","01:00","-18.3","","-21.1","","79","","25","","18","","25.0","","100.16","","","","-28","","Mostly Cloudy"
"1959-02-20 02:00","1959","02","20","02:00","-17.2","","-20.6","","75","","27","","24","","25.0","","100.18","","","","-28","","Mainly Clear"
"1959-02-20 03:00","1959","02","20","03:00","-18.3","","-20.6","","83","","27","","16","","25.0","","100.15","","","","-27","","Mainly Clear"
"1959-02-20 04:00","1959","02","20","04:00","-18.3","","-21.1","","79","","27","","11","","25.0","","100.17","","","","-26","","Mostly Cloudy"
"1959-02-20 05:00","1959","02","20","05:00","-18.9","","-21.1","","83","","27","","16","","25.0","","100.18","","","","-28","","Mainly Clear"
"1959-02-20 06:00","1959","02","20","06:00","-18.9","","-21.1","","83","","27","","14","","25.0","","100.20","","","","-27","","Clear"
"1959-02-20 07:00","1959","02","20","07:00","-18.9","","-21.1","","83","","27","","14","","25.0","","100.23","","","","-27","","Clear"
"1959-02-20 08:00","1959","02","20","08:00","-18.9","","-21.1","","83","","27","","16","","25.0","","100.27","","","","-28","","Clear"
"1959-02-20 09:00","1959","02","20","09:00","-18.3","","-21.1","","79","","29","","16","","25.0","","100.32","","","","-27","","Mainly Clear"
"1959-02-20 10:00","1959","02","20","10:00","-16.1","","-21.1","","65","","27","","21","","25.0","","100.35","","","","-26","","Mainly Clear"
"1959-02-20 11:00","1959","02","20","11:00","-14.4","","-19.4","","66","","27","","26","","25.0","","100.36","","","","-25","","Mainly Clear"
"1959-02-20 12:00","1959","02","20","12:00","-13.9","","-19.4","","63","","27","","32","","25.0","","100.35","","","","-25","","Mainly Clear"
"1959-02-20 13:00","1959","02","20","13:00","-13.3","","-19.4","","60","","27","","39","","25.0","","100.28","","","","-25","","Mainly Clear"
"1959-02-20 14:00","1959","02","20","14:00","-12.2","","-17.2","","66","","27","","35","","25.0","","100.22","","","","-23","","Mostly Cloudy"
"1959-02-20 15:00","1959","02","20","15:00","-12.2","","-17.8","","63","","27","","39","","24.1","","100.16","","","","-24","","Snow Showers"
"1959-02-20 16:00","1959","02","20","16:00","-11.7","","-17.2","","64","","27","","27","","25.0","","100.08","","","","-21","","Mainly Clear"
"1959-02-20 17:00","1959","02","20","17:00","-11.1","","-15.6","","70","","25","","32","","25.0","","100.01","","","","-21","","Mainly Clear"
"1959-02-20 18:00","1959","02","20","18:00","-11.7","","-13.9","","84","","25","","32","","25.0","","99.96","","","","-22","","Mainly Clear"
"1959-02-20 19:00","1959","02","20","19:00","-11.7","","-13.9","","84","","23","","23","","25.0","","99.89","","","","-21","","Mainly Clear"
"1959-02-20 20:00","1959","02","20","20:00","-12.2","","-14.4","","84","","23","","19","","25.0","","99.78","","","","-20","","Mainly Clear"
"1959-02-20 21:00","1959","02","20","21:00","-11.1","","-13.3","","84","","23","","29","","25.0","","99.64","","","","-21","","Mainly Clear"
"1959-02-20 22:00","1959","02","20","22:00","-10.6","","-14.4","","73","","23","","32","","25.0","","99.54","","","","-21","","Mostly Cloudy"
"1959-02-20 23:00","1959","02","20","23:00","-10.6","","-15.0","","70","","23","","32","","25.0","","99.45","","","","-21","","Mainly Clear"
"1959-02-21 00:00","1959","02","21","00:00","-11.1","","-16.1","","67","","25","","39","","25.0","","99.45","","","","-22","","Clear"
"1959-02-21 01:00","1959","02","21","01:00","-11.1","","-14.4","","76","","25","","32","","25.0","","99.38","","","","-21","","Mainly Clear"
"1959-02-21 02:00","1959","02","21","02:00","-10.6","","-13.3","","80","","25","","39","","19.3","","99.27","","","","-21","","Snow Showers"
"1959-02-21 03:00","1959","02","21","03:00","-10.0","","-12.8","","80","","25","","32","","12.9","","99.21","","","","-20","","Snow"
"1959-02-21 04:00","1959","02","21","04:00","-10.0","","-12.8","","80","","25","","29","","8.0","","99.15","","","","-19","","Snow"
"1959-02-21 05:00","1959","02","21","05:00","-9.4","","-12.2","","80","","25","","32","","6.4","","99.12","","","","-19","","Snow"
"1959-02-21 06:00","1959","02","21","06:00","-8.9","","-11.7","","80","","25","","29","","4.8","","99.15","","","","-18","","Snow"
"1959-02-21 07:00","1959","02","21","07:00","-8.9","","-10.6","","88","","23","","29","","2.4","","99.16","","","","-18","","Snow"
"1959-02-21 08:00","1959","02","21","08:00","-8.3","","-10.0","","88","","25","","29","","4.8","","99.20","","","","-17","","Snow"
"1959-02-21 09:00","1959","02","21","09:00","-7.2","","-10.6","","77","","27","","35","","12.9","","99.20","","","","-16","","Mainly Clear"
"1959-02-21 10:00","1959","02","21","10:00","-6.1","","-10.0","","74","","27","","42","","12.9","","99.29","","","","-16","","Mainly Clear"
"1959-02-21 11:00","1959","02","21","11:00","-5.6","","-8.3","","81","","29","","39","","1.6","","99.36","","","","-15","","Snow"
"1959-02-21 12:00","1959","02","21","12:00","-5.0","","-10.0","","68","","32","","51","","12.9","","99.46","","","","-15","","Mostly Cloudy"
"1959-02-21 13:00","1959","02","21","13:00","-5.0","","-10.0","","68","","32","","42","","12.9","","99.51","","","","-14","","Snow Showers"
"1959-02-21 14:00","1959","02","21","14:00","-5.0","","-9.4","","71","","32","","47","","16.1","","99.60","","","","-15","","Mostly Cloudy"
"1959-02-21 15:00","1959","02","21","15:00","-6.1","","-11.1","","68","","32","","40","","25.0","","99.71","","","","-16","","Mostly Cloudy"
"1959-02-21 16:00","1959","02","21","16:00","-6.7","","-8.9","","84","","32","","42","","25.0","","99.85","","","","-17","","Mainly Clear"
"1959-02-21 17:00","1959","02","21","17:00","-7.2","","-12.2","","68","","34","","35","","25.0","","99.96","","","","-16","","Mainly Clear"
"1959-02-21 18:00","1959","02","21","18:00","-8.3","","-12.2","","74","","34","","27","","25.0","","100.06","","","","-17","","Mainly Clear"
"1959-02-21 19:00","1959","02","21","19:00","-9.4","","-13.3","","73","","36","","16","","25.0","","100.16","","","","-16","","Clear"
"1959-02-21 20:00","1959","02","21","20:00","-11.7","","-15.0","","76","","36","","10","","25.0","","100.26","","","","-17","","Clear"
"1959-02-21 21:00","1959","02","21","21:00","-12.2","","-15.6","","80","","2","","5","","25.0","","100.36","","","","-15","","Clear"
"1959-02-21 22:00","1959","02","21","22:00","-13.3","","-15.6","","83","","","","0","","25.0","","100.39","","","","","","Clear"
"1959-02-21 23:00","1959","02","21","23:00","-13.9","","-15.6","","87","","23","","5","","25.0","","100.42","","","","-17","","Clear"
"1959-02-22 00:00","1959","02","22","00:00","-13.3","","-16.7","","76","","27","","10","","25.0","","100.41","","","","-19","","Clear"
"1959-02-22 01:00","1959","02","22","01:00","-14.4","","-16.7","","83","","27","","10","","25.0","","100.46","","","","-21","","Clear"
"1959-02-22 02:00","1959","02","22","02:00","-13.9","","-16.7","","80","","27","","8","","25.0","","100.46","","","","-19","","Clear"
"1959-02-22 03:00","1959","02","22","03:00","-14.4","","-17.2","","79","","29","","6","","25.0","","100.47","","","","-19","","Mainly Clear"
"1959-02-22 04:00","1959","02","22","04:00","-15.0","","-18.3","","76","","29","","6","","25.0","","100.50","","","","-19","","Mostly Cloudy"
"1959-02-22 05:00","1959","02","22","05:00","-15.0","","-18.9","","72","","27","","3","","25.0","","100.52","","","","-17","","Mostly Cloudy"
"1959-02-22 06:00","1959","02","22","06:00","-15.0","","-18.3","","76","","36","","3","","25.0","","100.54","","","","-17","","Mostly Cloudy"
"1959-02-22 07:00","1959","02","22","07:00","-15.6","","-19.4","","72","","32","","3","","25.0","","100.57","","","","-18","","Mainly Clear"
"1959-02-22 08:00","1959","02","22","08:00","-14.4","","-17.8","","76","","27","","3","","25.0","","100.64","","","","-17","","Clear"
"1959-02-22 09:00","1959","02","22","09:00","-12.2","","-16.1","","73","","25","","5","","24.1","","100.78","","","","-15","","Mainly Clear"
"1959-02-22 10:00","1959","02","22","10:00","-9.4","","-12.8","","77","","23","","8","","25.0","","100.78","","","","-14","","Clear"
"1959-02-22 11:00","1959","02","22","11:00","-6.7","","-10.0","","77","","20","","8","","25.0","","100.65","","","","-11","","Clear"
"1959-02-22 12:00","1959","02","22","12:00","-5.0","","-10.6","","65","","20","","19","","25.0","","100.55","","","","-11","","Clear"
"1959-02-22 13:00","1959","02","22","13:00","-4.4","","-10.0","","65","","20","","18","","25.0","","100.46","","","","-10","","Clear"
"1959-02-22 14:00","1959","02","22","14:00","-2.8","","-8.3","","66","","18","","18","","25.0","","100.29","","","","-8","","Clear"
"1959-02-22 15:00","1959","02","22","15:00","-1.7","","-6.7","","69","","18","","21","","16.1","","100.23","","","","-8","","Mainly Clear"
"1959-02-22 16:00","1959","02","22","16:00","-1.7","","-6.1","","72","","18","","18","","12.9","","100.12","","","","-7","","Mainly Clear"
"1959-02-22 17:00","1959","02","22","17:00","-2.2","","-6.1","","75","","16","","13","","19.3","","100.04","","","","-7","","Mostly Cloudy"
"1959-02-22 18:00","1959","02","22","18:00","-2.2","","-5.6","","78","","16","","13","","12.9","","99.96","","","","-7","","Cloudy"
"1959-02-22 19:00","1959","02","22","19:00","-2.2","","-5.0","","81","","16","","13","","11.3","","99.94","","","","-7","","Cloudy"
"1959-02-22 20:00","1959","02","22","20:00","-1.7","","-4.4","","81","","16","","11","","11.3","","99.86","","","","-6","","Cloudy"
"1959-02-22 21:00","1959","02","22","21:00","-1.1","","-4.4","","78","","18","","11","","9.7","","99.73","","","","-5","","Smoke,Haze"
"1959-02-22 22:00","1959","02","22","22:00","-1.7","","-4.4","","81","","14","","10","","8.0","","99.61","","","","-5","","Smoke,Haze"
"1959-02-22 23:00","1959","02","22","23:00","-1.7","","-3.3","","88","","16","","6","","8.0","","99.56","","","","-4","","Smoke,Haze"
"1959-02-23 00:00","1959","02","23","00:00","-0.6","","-3.3","","81","","23","","3","","9.7","","99.46","","","","-2","","Haze"
"1959-02-23 01:00","1959","02","23","01:00","-1.1","","-2.8","","88","","18","","5","","12.9","","99.38","","","","-3","","Mostly Cloudy"
"1959-02-23 02:00","1959","02","23","02:00","-1.1","","-3.3","","85","","16","","6","","16.1","","99.24","","","","-3","","Mainly Clear"
"1959-02-23 03:00","1959","02","23","03:00","-0.6","","-3.3","","81","","18","","3","","16.1","","99.07","","","","-2","","Mostly Cloudy"
"1959-02-23 04:00","1959","02","23","04:00","-1.7","","-3.3","","88","","23","","8","","16.1","","99.13","","","","-5","","Cloudy"
"1959-02-23 05:00","1959","02","23","05:00","-1.7","","-3.3","","88","","14","","5","","16.1","","98.89","","","","-4","","Cloudy"
"1959-02-23 06:00","1959","02","23","06:00","-1.1","","-2.8","","88","","14","","8","","8.0","","98.70","","","","-4","","Snow"
"1959-02-23 07:00","1959","02","23","07:00","-1.7","","-2.8","","92","","16","","10","","1.0","","98.55","","","","-5","","Snow"
"1959-02-23 08:00","1959","02","23","08:00","-1.1","","-1.1","","100","","16","","14","","0.6","","98.39","","","","-6","","Moderate Snow"
"1959-02-23 09:00","1959","02","23","09:00","0.0","","-0.6","","96","","14","","19","","0.4","","98.11","","","","-5","","Heavy Snow"
"1959-02-23 10:00","1959","02","23","10:00","0.0","","0.0","","100","","14","","13","","0.2","","98.08","","","","-4","","Heavy Snow"
"1959-02-23 11:00","1959","02","23","11:00","0.0","","0.0","","100","","14","","19","","1.0","","97.89","","","","-5","","Snow"
"1959-02-23 12:00","1959","02","23","12:00","0.0","","0.0","","100","","11","","27","","2.4","","97.71","","","","-6","","Snow,Fog"
"1959-02-23 13:00","1959","02","23","13:00","0.0","","0.0","","100","","11","","11","","1.2","","97.59","","","","-4","","Fog"
"1959-02-23 14:00","1959","02","23","14:00","0.6","","0.6","","100","","11","","6","","1.2","","97.49","","","","","","Snow,Fog"
"1959-02-23 15:00","1959","02","23","15:00","1.1","","0.6","","96","","9","","3","","1.6","","97.47","","","","","","Snow,Fog"
"1959-02-23 16:00","1959","02","23","16:00","1.7","","1.1","","96","","18","","3","","1.6","","97.47","","","","","","Rain,Fog"
"1959-02-23 17:00","1959","02","23","17:00","1.1","","0.6","","96","","2","","3","","1.6","","97.55","","","","","","Snow,Fog"
"1959-02-23 18:00","1959","02","23","18:00","0.6","","0.0","","96","","5","","6","","1.0","","97.64","","","","","","Snow"
"1959-02-23 19:00","1959","02","23","19:00","0.0","","0.0","","100","","5","","19","","4.8","","97.81","","","","-5","","Snow,Fog"
"1959-02-23 20:00","1959","02","23","20:00","-2.8","","-4.4","","88","","36","","16","","8.0","","97.96","","","","-8","","Snow"
"1959-02-23 21:00","1959","02","23","21:00","-3.3","","-5.0","","88","","2","","23","","19.3","","98.15","","","","-10","","Snow"
"1959-02-23 22:00","1959","02","23","22:00","-3.3","","-5.0","","88","","36","","13","","16.1","","98.25","","","","-8","","Snow"
"1959-02-23 23:00","1959","02","23","23:00","-3.9","","-5.6","","88","","2","","16","","12.9","","98.41","","","","-9","","Snow"
"1959-02-24 00:00","1959","02","24","00:00","-6.1","","-7.8","","88","","2","","19","","2.4","","98.50","","","","-13","","Snow"
"1959-02-24 01:00","1959","02","24","01:00","-7.2","","-8.9","","88","","2","","23","","16.1","","98.65","","","","-15","","Snow"
"1959-02-24 02:00","1959","02","24","02:00","-7.2","","-8.9","","88","","36","","14","","16.1","","98.71","","","","-13","","Snow"
"1959-02-24 03:00","1959","02","24","03:00","-6.7","","-8.9","","84","","36","","16","","4.8","","98.83","","","","-13","","Snow"
"1959-02-24 04:00","1959","02","24","04:00","-6.7","","-8.3","","88","","36","","16","","8.0","","98.91","","","","-13","","Snow"
"1959-02-24 05:00","1959","02","24","05:00","-6.1","","-7.8","","88","","36","","16","","12.9","","99.03","","","","-12","","Snow"
"1959-02-24 06:00","1959","02","24","06:00","-6.1","","-8.3","","84","","34","","19","","19.3","","99.14","","","","-13","","Snow"
"1959-02-24 07:00","1959","02","24","07:00","-7.2","","-9.4","","84","","34","","24","","19.3","","99.25","","","","-15","","Mostly Cloudy"
"1959-02-24 08:00","1959","02","24","08:00","-8.3","","-11.1","","80","","36","","16","","19.3","","99.40","","","","-15","","Mainly Clear"
"1959-02-24 09:00","1959","02","24","09:00","-8.9","","-11.7","","80","","36","","27","","24.1","","99.50","","","","-18","","Mainly Clear"
"1959-02-24 10:00","1959","02","24","10:00","-8.9","","-12.2","","77","","36","","21","","24.1","","99.64","","","","-17","","Mainly Clear"
"1959-02-24 11:00","1959","02","24","11:00","-8.9","","-13.3","","70","","36","","27","","25.0","","99.72","","","","-18","","Clear"
"1959-02-24 12:00","1959","02","24","12:00","-7.2","","-11.7","","71","","36","","21","","25.0","","99.81","","","","-15","","Clear"
"1959-02-24 13:00","1959","02","24","13:00","-7.2","","-11.1","","74","","36","","19","","25.0","","99.84","","","","-14","","Clear"
"1959-02-24 14:00","1959","02","24","14:00","-7.2","","-11.7","","71","","36","","21","","25.0","","99.88","","","","-15","","Mainly Clear"
"1959-02-24 15:00","1959","02","24","15:00","-7.2","","-12.2","","68","","32","","24","","25.0","","99.95","","","","-15","","Clear"
"1959-02-24 16:00","1959","02","24","16:00","-7.8","","-14.4","","59","","34","","21","","25.0","","100.03","","","","-15","","Clear"
"1959-02-24 17:00","1959","02","24","17:00","-8.3","","-15.0","","59","","34","","16","","25.0","","100.13","","","","-15","","Clear"
"1959-02-24 18:00","1959","02","24","18:00","-10.0","","-17.2","","56","","32","","13","","25.0","","100.13","","","","-16","","Clear"
"1959-02-24 19:00","1959","02","24","19:00","-11.7","","-18.3","","58","","29","","13","","25.0","","100.19","","","","-18","","Clear"
"1959-02-24 20:00","1959","02","24","20:00","-13.3","","-19.4","","60","","32","","10","","25.0","","100.22","","","","-19","","Clear"
"1959-02-24 21:00","1959","02","24","21:00","-13.9","","-18.3","","69","","32","","13","","25.0","","100.24","","","","-21","","Clear"
"1959-02-24 22:00","1959","02","24","22:00","-14.4","","-17.2","","79","","34","","8","","25.0","","100.27","","","","-20","","Clear"
"1959-02-24 23:00","1959","02","24","23:00","-16.1","","-17.8","","87","","34","","6","","25.0","","100.32","","","","-21","","Clear"
"1959-02-25 00:00","1959","02","25","00:00","-18.3","","-23.3","","65","","34","","3","","25.0","","100.27","","","","-21","","Clear"
"1959-02-25 01:00","1959","02","25","01:00","-19.4","","-22.8","","75","","29","","3","","25.0","","100.28","","","","-22","","Clear"
"1959-02-25 02:00","1959","02","25","02:00","-20.6","","-23.9","","75","","25","","3","","25.0","","100.28","","","","-23","","Clear"
"1959-02-25 03:00","1959","02","25","03:00","-21.7","","-26.1","","67","","23","","6","","25.0","","100.26","","","","-27","","Clear"
"1959-02-25 04:00","1959","02","25","04:00","-21.7","","-25.0","","74","","20","","6","","24.1","","100.26","","","","-27","","Mainly Clear"
"1959-02-25 05:00","1959","02","25","05:00","-22.8","","-26.1","","74","","20","","3","","25.0","","100.20","","","","-26","","Clear"
"1959-02-25 06:00","1959","02","25","06:00","-23.9","","-27.2","","74","","","","0","","25.0","","100.21","","","","","","Clear"
"1959-02-25 07:00","1959","02","25","07:00","-23.3","","-26.1","","78","","29","","5","","16.1","","100.20","","","","-28","","Mainly Clear"
"1959-02-25 08:00","1959","02","25","08:00","-21.1","","-24.4","","74","","29","","3","","12.9","","100.22","","","","-24","","Mainly Clear"
"1959-02-25 09:00","1959","02","25","09:00","-17.8","","-20.0","","83","","32","","5","","4.8","","100.22","","","","-22","","Haze"
"1959-02-25 10:00","1959","02","25","10:00","-12.8","","-15.0","","84","","","","0","","6.4","","100.21","","","","","","Haze"
"1959-02-25 11:00","1959","02","25","11:00","-8.9","","-12.2","","77","","20","","11","","8.0","","100.18","","","","-14","","Haze"
"1959-02-25 12:00","1959","02","25","12:00","-3.9","","-7.8","","74","","23","","18","","9.7","","100.14","","","","-10","","Haze"
"1959-02-25 13:00","1959","02","25","13:00","-3.3","","-7.8","","71","","23","","18","","9.7","","100.03","","","","-9","","Haze"
"1959-02-25 14:00","1959","02","25","14:00","-1.7","","-6.1","","72","","23","","23","","9.7","","99.96","","","","-8","","Haze"
"1959-02-25 15:00","1959","02","25","15:00","0.0","","-6.7","","61","","23","","16","","9.7","","99.90","","","","-5","","Haze"
"1959-02-25 16:00","1959","02","25","16:00","-0.6","","-5.6","","69","","23","","14","","9.7","","99.86","","","","-5","","Haze"
"1959-02-25 17:00","1959","02","25","17:00","-1.1","","-3.9","","81","","23","","10","","9.7","","99.81","","","","-5","","Haze"
"1959-02-25 18:00","1959","02","25","18:00","-1.7","","-5.0","","78","","18","","5","","9.7","","99.79","","","","-4","","Smoke,Haze"
"1959-02-25 19:00","1959","02","25","19:00","-2.2","","-6.7","","72","","18","","3","","11.3","","99.79","","","","-3","","Mainly Clear"
"1959-02-25 20:00","1959","02","25","20:00","-5.6","","-8.9","","77","","18","","5","","11.3","","99.78","","","","-8","","Mainly Clear"
"1959-02-25 21:00","1959","02","25","21:00","-7.8","","-10.0","","84","","18","","5","","11.3","","99.76","","","","-10","","Clear"
"1959-02-25 22:00","1959","02","25","22:00","-9.4","","-11.7","","84","","20","","6","","8.0","","99.76","","","","-13","","Fog"
"1959-02-25 23:00","1959","02","25","23:00","-12.2","","-13.9","","87","","9","","2","","1.6","","99.75","","","","-13","","Fog"
"1959-02-26 00:00","1959","02","26","00:00","-12.8","","-13.9","","91","","14","","5","","0.8","","99.74","","","","-16","","Fog"
"1959-02-26 01:00","1959","02","26","01:00","-15.0","","-15.6","","95","","","","0","","1.6","","99.70","","","","","","Fog"
"1959-02-26 02:00","1959","02","26","02:00","-14.4","","-16.1","","91","","","","0","","0.4","","99.69","","","","","","Fog"
"1959-02-26 03:00","1959","02","26","03:00","-14.4","","-15.6","","91","","","","0","","0.4","","99.64","","","","","","Fog"
"1959-02-26 04:00","1959","02","26","04:00","-14.4","","-15.6","","91","","","","0","","0.4","","99.61","","","","","","Fog"
"1959-02-26 05:00","1959","02","26","05:00","-14.4","","-15.6","","91","","","","0","","0.4","","99.60","","","","","","Fog"
"1959-02-26 06:00","1959","02","26","06:00","-15.0","","-15.6","","95","","","","0","","0.4","","99.60","","","","","","Fog"
"1959-02-26 07:00","1959","02","26","07:00","-15.6","","-16.7","","91","","36","","5","","0.4","","99.62","","","","-19","","Fog"
"1959-02-26 08:00","1959","02","26","08:00","-14.4","","-15.6","","91","","","","0","","1.2","","99.63","","","","","","Fog"
"1959-02-26 09:00","1959","02","26","09:00","-13.3","","-14.4","","91","","36","","3","","1.2","","99.62","","","","-15","","Fog"
"1959-02-26 10:00","1959","02","26","10:00","-10.6","","-11.7","","91","","36","","3","","3.2","","99.60","","","","-12","","Fog"
"1959-02-26 11:00","1959","02","26","11:00","-6.7","","-7.8","","92","","","","0","","4.0","","99.54","","","","","","Fog"
"1959-02-26 12:00","1959","02","26","12:00","-2.8","","-6.1","","78","","23","","3","","4.0","","99.52","","","","-4","","Smoke,Haze"
"1959-02-26 13:00","1959","02","26","13:00","1.1","","-3.9","","69","","18","","8","","4.0","","99.42","","","","","","Smoke,Haze"
"1959-02-26 14:00","1959","02","26","14:00","0.0","","-2.8","","82","","14","","10","","4.0","","99.36","","","","-3","","Smoke,Haze"
"1959-02-26 15:00","1959","02","26","15:00","0.6","","-1.7","","85","","14","","10","","4.0","","99.34","","","","","","Fog,Smoke"
"1959-02-26 16:00","1959","02","26","16:00","1.1","","-2.2","","78","","14","","11","","4.0","","99.30","","","","","","Smoke,Haze"
"1959-02-26 17:00","1959","02","26","17:00","1.1","","-1.7","","82","","14","","13","","2.8","","99.24","","","","","","Smoke,Haze"
"1959-02-26 18:00","1959","02","26","18:00","1.1","","-1.7","","82","","11","","11","","2.4","","99.21","","","","","","Haze"
"1959-02-26 19:00","1959","02","26","19:00","1.1","","-1.7","","82","","11","","16","","4.0","","99.20","","","","","","Snow,Haze"
"1959-02-26 20:00","1959","02","26","20:00","1.1","","-1.1","","85","","11","","19","","2.4","","99.15","","","","","","Snow"
"1959-02-26 21:00","1959","02","26","21:00","1.1","","0.0","","92","","16","","16","","2.8","","99.14","","","","","","Snow"
"1959-02-26 22:00","1959","02","26","22:00","1.1","","0.0","","92","","18","","18","","2.0","","99.09","","","","","","Snow"
"1959-02-26 23:00","1959","02","26","23:00","1.1","","0.6","","96","","20","","14","","4.8","","99.10","","","","","","Fog"
"1959-02-27 00:00","1959","02","27","00:00","1.1","","0.6","","96","","25","","10","","6.4","","99.11","","","","","","Fog"
"1959-02-27 01:00","1959","02","27","01:00","1.7","","-0.6","","85","","27","","19","","9.7","","99.20","","","","","","Fog"
"1959-02-27 02:00","1959","02","27","02:00","1.1","","-1.1","","85","","27","","16","","11.3","","99.29","","","","","","Cloudy"
"1959-02-27 03:00","1959","02","27","03:00","1.1","","-1.1","","85","","27","","18","","11.3","","99.32","","","","","","Cloudy"
"1959-02-27 04:00","1959","02","27","04:00","0.6","","-0.6","","92","","27","","19","","11.3","","99.35","","","","","","Cloudy"
"1959-02-27 05:00","1959","02","27","05:00","0.6","","-1.7","","85","","27","","11","","16.1","","99.43","","","","","","Cloudy"
"1959-02-27 06:00","1959","02","27","06:00","0.0","","-0.6","","96","","25","","16","","12.9","","99.50","","","","-5","","Snow"
"1959-02-27 07:00","1959","02","27","07:00","0.0","","-0.6","","96","","27","","14","","6.4","","99.55","","","","-4","","Snow,Fog"
"1959-02-27 08:00","1959","02","27","08:00","0.6","","-2.2","","82","","27","","10","","6.4","","99.64","","","","","","Haze"
"1959-02-27 09:00","1959","02","27","09:00","0.6","","-2.8","","78","","32","","16","","6.4","","99.68","","","","","","Snow,Haze"
"1959-02-27 10:00","1959","02","27","10:00","0.6","","-2.2","","82","","27","","8","","8.0","","99.74","","","","","","Snow,Haze"
"1959-02-27 11:00","1959","02","27","11:00","0.0","","-2.8","","82","","27","","6","","8.0","","99.79","","","","-2","","Snow,Haze"
"1959-02-27 12:00","1959","02","27","12:00","0.6","","-3.3","","75","","27","","10","","9.7","","99.82","","","","","","Snow,Haze"
"1959-02-27 13:00","1959","02","27","13:00","1.1","","-3.3","","72","","23","","13","","9.7","","99.84","","","","","","Snow,Haze"
"1959-02-27 14:00","1959","02","27","14:00","1.1","","-2.8","","75","","27","","11","","6.4","","99.84","","","","","","Snow Showers,Haze"
"1959-02-27 15:00","1959","02","27","15:00","1.7","","-2.8","","72","","27","","6","","11.3","","99.81","","","","","","Cloudy"
"1959-02-27 16:00","1959","02","27","16:00","1.1","","-2.8","","75","","27","","8","","12.9","","99.81","","","","","","Mostly Cloudy"
"1959-02-27 17:00","1959","02","27","17:00","1.1","","-2.8","","75","","25","","5","","12.9","","99.80","","","","","","Mostly Cloudy"
"1959-02-27 18:00","1959","02","27","18:00","0.6","","-5.0","","66","","25","","5","","12.9","","99.85","","","","","","Cloudy"
"1959-02-27 19:00","1959","02","27","19:00","0.6","","-3.3","","75","","25","","6","","16.1","","99.86","","","","","","Cloudy"
"1959-02-27 20:00","1959","02","27","20:00","0.6","","-3.9","","72","","18","","5","","16.1","","99.86","","","","","","Cloudy"
"1959-02-27 21:00","1959","02","27","21:00","0.0","","-5.0","","69","","14","","6","","16.1","","99.83","","","","-2","","Mainly Clear"
"1959-02-27 22:00","1959","02","27","22:00","-1.1","","-5.0","","75","","14","","6","","16.1","","99.81","","","","-3","","Mainly Clear"
"1959-02-27 23:00","1959","02","27","23:00","-1.1","","-3.9","","81","","14","","10","","8.0","","99.80","","","","-5","","Smoke"
"1959-02-28 00:00","1959","02","28","00:00","-2.8","","-4.4","","88","","14","","8","","4.8","","99.76","","","","-6","","Fog"
"1959-02-28 01:00","1959","02","28","01:00","-6.1","","-7.2","","92","","9","","3","","1.6","","99.75","","","","-8","","Fog,Smoke"
"1959-02-28 02:00","1959","02","28","02:00","-8.3","","-9.4","","92","","7","","6","","1.6","","99.71","","","","-12","","Fog,Smoke"
"1959-02-28 03:00","1959","02","28","03:00","-7.2","","-7.8","","96","","9","","8","","1.6","","99.63","","","","-11","","Fog,Smoke"
"1959-02-28 04:00","1959","02","28","04:00","-7.2","","-7.8","","96","","9","","5","","3.2","","99.49","","","","-10","","Fog,Smoke"
"1959-02-28 05:00","1959","02","28","05:00","-2.8","","-3.3","","96","","11","","6","","4.8","","99.45","","","","-5","","Fog,Smoke"
"1959-02-28 06:00","1959","02","28","06:00","0.0","","-1.1","","92","","9","","6","","6.4","","99.40","","","","-2","","Fog"
"1959-02-28 07:00","1959","02","28","07:00","0.0","","-1.1","","92","","9","","13","","4.0","","99.37","","","","-4","","Fog"
"1959-02-28 08:00","1959","02","28","08:00","0.6","","-1.1","","88","","11","","13","","4.0","","99.34","","","","","","Rain,Fog"
"1959-02-28 09:00","1959","02","28","09:00","1.1","","-1.1","","85","","14","","14","","4.0","","99.22","","","","","","Rain Showers,Fog"
"1959-02-28 10:00","1959","02","28","10:00","1.7","","-1.1","","82","","14","","11","","4.0","","99.18","","","","","","Haze"
"1959-02-28 11:00","1959","02","28","11:00","2.8","","-1.1","","75","","18","","6","","4.0","","99.18","","","","","","Haze"
"1959-02-28 12:00","1959","02","28","12:00","2.8","","0.0","","82","","16","","6","","4.0","","99.12","","","","","","Haze"
"1959-02-28 13:00","1959","02","28","13:00","2.2","","0.0","","85","","14","","13","","4.0","","99.05","","","","","","Fog"
"1959-02-28 14:00","1959","02","28","14:00","2.8","","1.1","","89","","18","","6","","4.0","","99.00","","","","","","Fog"
"1959-02-28 15:00","1959","02","28","15:00","3.3","","0.6","","82","","18","","14","","4.0","","99.00","","","","","","Haze"
"1959-02-28 16:00","1959","02","28","16:00","2.8","","1.1","","89","","18","","5","","4.0","","98.99","","","","","","Fog"
"1959-02-28 17:00","1959","02","28","17:00","2.2","","1.1","","92","","27","","3","","4.0","","99.10","","","","","","Fog"
"1959-02-28 18:00","1959","02","28","18:00","2.8","","0.0","","82","","25","","10","","4.8","","99.14","","","","","","Rain,Haze"
"1959-02-28 19:00","1959","02","28","19:00","2.2","","-0.6","","82","","29","","6","","16.1","","99.15","","","","","","Cloudy"
"1959-02-28 20:00","1959","02","28","20:00","2.8","","-1.1","","75","","27","","6","","16.1","","99.12","","","","","","Cloudy"
"1959-02-28 21:00","1959","02","28","21:00","2.2","","-1.1","","78","","25","","6","","16.1","","99.13","","","","","","Cloudy"
"1959-02-28 22:00","1959","02","28","22:00","2.2","","0.0","","85","","23","","3","","12.9","","99.10","","","","","","Cloudy"
"1959-02-28 23:00","1959","02","28","23:00","1.7","","-0.6","","85","","18","","10","","12.9","","99.10","","","","","","Cloudy"
