"Station Name","TORONTO LESTER B. PEARSON INT'L A"
"Province","ONTARIO"
"Latitude","43.68"
"Longitude","-79.63"
"Elevation","173.40"
"Climate Identifier","6158733"
"WMO Identifier","71624"
"TC Identifier","YYZ"
"All times are specified in Local Standard Time (LST). Add 1 hour to adjust for Daylight Saving Time where and when it is observed."

"Legend"
"E","Estimated"
"M","Missing"
"NA","Not Available"

"Date/Time","Year","Month","Day","Time","Temp (°C)","Temp Flag","Dew Point Temp (°C)","Dew Point Temp Flag","Rel Hum (%)","Rel Hum Flag","Wind Dir (10s deg)","Wind Dir Flag","Wind Spd (km/h)","Wind Spd Flag","Visibility (km)","Visibility Flag","Stn Press (kPa)","Stn Press Flag","Hmdx","Hmdx Flag","Wind Chill","Wind Chill Flag","Weather"
"1963-12-01 00:00","1963","12","01","00:00","-7.8","","-9.4","","87","","36","","10","","25.0","","98.87","","","","-13","","Mostly Cloudy"
"1963-12-01 01:00","1963","12","01","01:00","-7.2","","-9.4","","83","","36","","5","","25.0","","98.91","","","","-10","","Mainly Clear"
"1963-12-01 02:00","1963","12","01","02:00","-8.3","","-9.4","","91","","","","0","","25.0","","98.97","","","","","","Clear"
"1963-12-01 03:00","1963","12","01","03:00","-7.8","","-10.0","","86","","32","","13","","25.0","","99.03","","","","-14","","Clear"
"1963-12-01 04:00","1963","12","01","04:00","-8.9","","-11.1","","84","","27","","8","","25.0","","99.08","","","","-13","","Mainly Clear"
"1963-12-01 05:00","1963","12","01","05:00","-8.3","","-11.1","","81","","","","0","","25.0","","99.12","","","","","","Mainly Clear"
"1963-12-01 06:00","1963","12","01","06:00","-8.3","","-10.6","","82","","25","","14","","25.0","","99.20","","","","-14","","Mainly Clear"
"1963-12-01 07:00","1963","12","01","07:00","-7.8","","-10.6","","79","","25","","19","","25.0","","99.24","","","","-15","","Mostly Cloudy"
"1963-12-01 08:00","1963","12","01","08:00","-6.7","","-10.0","","77","","27","","10","","25.0","","99.31","","","","-11","","Mostly Cloudy"
"1963-12-01 09:00","1963","12","01","09:00","-6.1","","-9.4","","77","","27","","11","","25.0","","99.40","","","","-11","","Mostly Cloudy"
"1963-12-01 10:00","1963","12","01","10:00","-5.0","","-8.9","","74","","29","","19","","25.0","","99.47","","","","-11","","Mostly Cloudy"
"1963-12-01 11:00","1963","12","01","11:00","-3.9","","-8.9","","69","","29","","19","","25.0","","99.51","","","","-10","","Mostly Cloudy"
"1963-12-01 12:00","1963","12","01","12:00","-3.3","","-8.9","","64","","29","","11","","25.0","","99.53","","","","-8","","Mostly Cloudy"
"1963-12-01 13:00","1963","12","01","13:00","-3.3","","-7.8","","70","","29","","13","","25.0","","99.52","","","","-8","","Mostly Cloudy"
"1963-12-01 14:00","1963","12","01","14:00","-2.8","","-6.1","","78","","25","","19","","25.0","","99.52","","","","-9","","Snow Showers"
"1963-12-01 15:00","1963","12","01","15:00","-2.2","","-5.6","","78","","25","","24","","25.0","","99.53","","","","-9","","Snow Showers"
"1963-12-01 16:00","1963","12","01","16:00","-3.3","","-5.0","","87","","25","","19","","1.6","","99.58","","","","-9","","Snow Showers"
"1963-12-01 17:00","1963","12","01","17:00","-3.9","","-5.6","","87","","25","","18","","8.0","","99.62","","","","-10","","Snow Showers"
"1963-12-01 18:00","1963","12","01","18:00","-3.9","","-6.1","","84","","23","","14","","19.3","","99.66","","","","-9","","Snow Showers"
"1963-12-01 19:00","1963","12","01","19:00","-5.0","","-7.8","","81","","23","","13","","25.0","","99.70","","","","-10","","Mostly Cloudy"
"1963-12-01 20:00","1963","12","01","20:00","-5.6","","-8.3","","80","","23","","11","","25.0","","99.74","","","","-10","","Mostly Cloudy"
"1963-12-01 21:00","1963","12","01","21:00","-5.6","","-8.3","","80","","25","","13","","25.0","","99.77","","","","-11","","Mostly Cloudy"
"1963-12-01 22:00","1963","12","01","22:00","-5.6","","-8.3","","81","","23","","14","","25.0","","99.78","","","","-11","","Mostly Cloudy"
"1963-12-01 23:00","1963","12","01","23:00","-6.1","","-8.9","","80","","23","","14","","25.0","","99.81","","","","-12","","Mostly Cloudy"
"1963-12-02 00:00","1963","12","02","00:00","-5.0","","-7.8","","81","","25","","11","","19.3","","99.82","","","","-10","","Snow Showers"
"1963-12-02 01:00","1963","12","02","01:00","-5.0","","-7.8","","81","","25","","19","","24.1","","99.82","","","","-11","","Mostly Cloudy"
"1963-12-02 02:00","1963","12","02","02:00","-5.6","","-7.8","","85","","25","","16","","24.1","","99.83","","","","-12","","Mostly Cloudy"
"1963-12-02 03:00","1963","12","02","03:00","-6.7","","-7.8","","90","","25","","11","","24.1","","99.84","","","","-12","","Mostly Cloudy"
"1963-12-02 04:00","1963","12","02","04:00","-6.7","","-8.3","","89","","25","","16","","24.1","","99.84","","","","-13","","Mostly Cloudy"
"1963-12-02 05:00","1963","12","02","05:00","-6.7","","-7.8","","91","","25","","16","","24.1","","99.84","","","","-13","","Mostly Cloudy"
"1963-12-02 06:00","1963","12","02","06:00","-6.7","","-7.8","","90","","25","","16","","24.1","","99.88","","","","-13","","Mostly Cloudy"
"1963-12-02 07:00","1963","12","02","07:00","-6.7","","-8.3","","87","","34","","6","","24.1","","99.85","","","","-10","","Mainly Clear"
"1963-12-02 08:00","1963","12","02","08:00","-9.4","","-11.1","","88","","","","0","","24.1","","99.90","","","","","","Mainly Clear"
"1963-12-02 09:00","1963","12","02","09:00","-9.4","","-11.1","","87","","36","","8","","16.1","","99.93","","","","-14","","Mainly Clear"
"1963-12-02 10:00","1963","12","02","10:00","-6.7","","-8.3","","87","","2","","5","","12.9","","99.95","","","","-9","","Mostly Cloudy"
"1963-12-02 11:00","1963","12","02","11:00","-6.1","","-8.9","","82","","36","","8","","12.9","","99.91","","","","-10","","Mostly Cloudy"
"1963-12-02 12:00","1963","12","02","12:00","-3.9","","-7.8","","75","","5","","5","","16.1","","99.83","","","","-6","","Mainly Clear"
"1963-12-02 13:00","1963","12","02","13:00","-2.8","","-7.8","","68","","5","","10","","24.1","","99.74","","","","-7","","Mostly Cloudy"
"1963-12-02 14:00","1963","12","02","14:00","-1.7","","-7.2","","66","","5","","11","","24.1","","99.69","","","","-6","","Mostly Cloudy"
"1963-12-02 15:00","1963","12","02","15:00","-1.7","","-5.0","","79","","5","","13","","19.3","","99.65","","","","-6","","Snow"
"1963-12-02 16:00","1963","12","02","16:00","-2.2","","-5.6","","79","","7","","16","","16.1","","99.64","","","","-7","","Snow"
"1963-12-02 17:00","1963","12","02","17:00","-2.8","","-6.7","","76","","5","","10","","19.3","","99.63","","","","-7","","Cloudy"
"1963-12-02 18:00","1963","12","02","18:00","-2.8","","-7.2","","73","","5","","11","","19.3","","99.64","","","","-7","","Cloudy"
"1963-12-02 19:00","1963","12","02","19:00","-2.8","","-7.2","","73","","5","","13","","19.3","","99.62","","","","-7","","Mostly Cloudy"
"1963-12-02 20:00","1963","12","02","20:00","-4.4","","-8.9","","73","","5","","13","","19.3","","99.59","","","","-9","","Mostly Cloudy"
"1963-12-02 21:00","1963","12","02","21:00","-5.0","","-8.3","","76","","2","","18","","25.0","","99.57","","","","-11","","Snow Showers"
"1963-12-02 22:00","1963","12","02","22:00","-3.9","","-7.8","","76","","2","","13","","19.3","","99.56","","","","-9","","Snow Showers"
"1963-12-02 23:00","1963","12","02","23:00","-3.9","","-7.2","","77","","2","","13","","19.3","","99.51","","","","-9","","Snow"
"1963-12-03 00:00","1963","12","03","00:00","-3.9","","-7.2","","78","","2","","10","","24.1","","99.47","","","","-8","","Snow"
"1963-12-03 01:00","1963","12","03","01:00","-3.3","","-6.7","","79","","2","","18","","24.1","","99.42","","","","-9","","Snow"
"1963-12-03 02:00","1963","12","03","02:00","-3.9","","-6.7","","82","","36","","16","","24.1","","99.40","","","","-9","","Snow"
"1963-12-03 03:00","1963","12","03","03:00","-4.4","","-6.1","","86","","36","","14","","19.3","","99.37","","","","-10","","Snow"
"1963-12-03 04:00","1963","12","03","04:00","-4.4","","-5.6","","91","","2","","19","","9.7","","99.33","","","","-11","","Snow"
"1963-12-03 05:00","1963","12","03","05:00","-4.4","","-5.6","","91","","2","","13","","4.8","","99.32","","","","-9","","Snow"
"1963-12-03 06:00","1963","12","03","06:00","-4.4","","-5.6","","91","","2","","19","","9.7","","99.30","","","","-11","","Snow"
"1963-12-03 07:00","1963","12","03","07:00","-4.4","","-6.1","","90","","2","","13","","12.9","","99.30","","","","-9","","Snow"
"1963-12-03 08:00","1963","12","03","08:00","-5.0","","-6.7","","87","","2","","19","","8.0","","99.30","","","","-11","","Snow"
"1963-12-03 09:00","1963","12","03","09:00","-5.0","","-6.7","","87","","36","","19","","12.9","","99.32","","","","-11","","Snow"
"1963-12-03 10:00","1963","12","03","10:00","-6.1","","-7.8","","87","","36","","19","","4.0","","99.32","","","","-13","","Snow"
"1963-12-03 11:00","1963","12","03","11:00","-5.6","","-7.2","","87","","2","","19","","2.8","","99.31","","","","-12","","Snow"
"1963-12-03 12:00","1963","12","03","12:00","-5.0","","-6.7","","87","","36","","19","","6.4","","99.28","","","","-11","","Snow"
"1963-12-03 13:00","1963","12","03","13:00","-4.4","","-7.2","","82","","36","","19","","4.8","","99.25","","","","-11","","Snow"
"1963-12-03 14:00","1963","12","03","14:00","-4.4","","-6.7","","83","","36","","14","","4.8","","99.24","","","","-10","","Snow"
"1963-12-03 15:00","1963","12","03","15:00","-4.4","","-6.7","","84","","36","","19","","8.0","","99.25","","","","-11","","Snow"
"1963-12-03 16:00","1963","12","03","16:00","-3.3","","-5.6","","84","","36","","13","","16.1","","99.25","","","","-8","","Mostly Cloudy"
"1963-12-03 17:00","1963","12","03","17:00","-5.0","","-7.2","","84","","36","","18","","12.9","","99.28","","","","-11","","Mostly Cloudy"
"1963-12-03 18:00","1963","12","03","18:00","-5.0","","-6.7","","87","","36","","11","","16.1","","99.29","","","","-10","","Mostly Cloudy"
"1963-12-03 19:00","1963","12","03","19:00","-4.4","","-7.2","","82","","36","","11","","9.7","","99.31","","","","-9","","Snow"
"1963-12-03 20:00","1963","12","03","20:00","-4.4","","-6.7","","84","","36","","19","","16.1","","99.36","","","","-11","","Cloudy"
"1963-12-03 21:00","1963","12","03","21:00","-5.6","","-7.8","","84","","36","","14","","16.1","","99.34","","","","-11","","Cloudy"
"1963-12-03 22:00","1963","12","03","22:00","-5.0","","-7.8","","82","","34","","10","","19.3","","99.34","","","","-9","","Cloudy"
"1963-12-03 23:00","1963","12","03","23:00","-7.2","","-9.4","","83","","34","","10","","19.3","","99.33","","","","-12","","Mainly Clear"
"1963-12-04 00:00","1963","12","04","00:00","-8.3","","-11.7","","77","","","","0","","25.0","","99.30","","","","","","Clear"
"1963-12-04 01:00","1963","12","04","01:00","-8.3","","-11.7","","75","","","","0","","25.0","","99.27","","","","","","Clear"
"1963-12-04 02:00","1963","12","04","02:00","-10.6","","-13.9","","76","","32","","6","","25.0","","99.27","","","","-14","","Clear"
"1963-12-04 03:00","1963","12","04","03:00","-10.6","","-14.4","","74","","34","","13","","25.0","","99.27","","","","-17","","Mainly Clear"
"1963-12-04 04:00","1963","12","04","04:00","-11.7","","-15.0","","77","","29","","8","","25.0","","99.26","","","","-16","","Mainly Clear"
"1963-12-04 05:00","1963","12","04","05:00","-12.2","","-14.4","","83","","34","","5","","25.0","","99.25","","","","-15","","Mainly Clear"
"1963-12-04 06:00","1963","12","04","06:00","-12.2","","-14.4","","83","","32","","5","","25.0","","99.27","","","","-15","","Mostly Cloudy"
"1963-12-04 07:00","1963","12","04","07:00","-11.1","","-13.9","","81","","","","0","","25.0","","99.28","","","","","","Mostly Cloudy"
"1963-12-04 08:00","1963","12","04","08:00","-9.4","","-11.7","","84","","","","0","","25.0","","99.30","","","","","","Mostly Cloudy"
"1963-12-04 09:00","1963","12","04","09:00","-7.8","","-11.1","","78","","36","","8","","25.0","","99.30","","","","-12","","Mostly Cloudy"
"1963-12-04 10:00","1963","12","04","10:00","-6.1","","-10.0","","75","","27","","11","","25.0","","99.32","","","","-11","","Mostly Cloudy"
"1963-12-04 11:00","1963","12","04","11:00","-4.4","","-9.4","","67","","34","","11","","25.0","","99.31","","","","-9","","Mostly Cloudy"
"1963-12-04 12:00","1963","12","04","12:00","-3.9","","-11.1","","58","","","","0","","25.0","","99.29","","","","","","Mostly Cloudy"
"1963-12-04 13:00","1963","12","04","13:00","-3.9","","-8.9","","68","","27","","5","","25.0","","99.25","","","","-6","","Mostly Cloudy"
"1963-12-04 14:00","1963","12","04","14:00","-2.8","","-7.8","","70","","29","","5","","25.0","","99.24","","","","-5","","Mostly Cloudy"
"1963-12-04 15:00","1963","12","04","15:00","-2.8","","-8.3","","65","","34","","6","","25.0","","99.24","","","","-5","","Cloudy"
"1963-12-04 16:00","1963","12","04","16:00","-2.8","","-8.3","","66","","32","","5","","25.0","","99.24","","","","-5","","Cloudy"
"1963-12-04 17:00","1963","12","04","17:00","-3.3","","-8.3","","68","","36","","3","","25.0","","99.25","","","","-5","","Cloudy"
"1963-12-04 18:00","1963","12","04","18:00","-3.3","","-8.9","","66","","","","0","","24.1","","99.30","","","","","","Cloudy"
"1963-12-04 19:00","1963","12","04","19:00","-3.9","","-8.3","","72","","27","","5","","24.1","","99.34","","","","-6","","Cloudy"
"1963-12-04 20:00","1963","12","04","20:00","-3.9","","-7.2","","77","","","","0","","24.1","","99.38","","","","","","Snow"
"1963-12-04 21:00","1963","12","04","21:00","-4.4","","-7.8","","78","","","","0","","25.0","","99.38","","","","","","Mostly Cloudy"
"1963-12-04 22:00","1963","12","04","22:00","-4.4","","-7.8","","77","","34","","6","","16.1","","99.40","","","","-7","","Snow"
"1963-12-04 23:00","1963","12","04","23:00","-5.0","","-8.3","","79","","36","","6","","24.1","","99.39","","","","-8","","Cloudy"
"1963-12-05 00:00","1963","12","05","00:00","-5.6","","-8.3","","80","","36","","6","","24.1","","99.43","","","","-8","","Cloudy"
"1963-12-05 01:00","1963","12","05","01:00","-5.0","","-7.2","","83","","36","","6","","24.1","","99.43","","","","-8","","Cloudy"
"1963-12-05 02:00","1963","12","05","02:00","-5.0","","-7.2","","83","","36","","6","","24.1","","99.50","","","","-8","","Cloudy"
"1963-12-05 03:00","1963","12","05","03:00","-5.6","","-8.3","","81","","34","","8","","25.0","","99.53","","","","-9","","Cloudy"
"1963-12-05 04:00","1963","12","05","04:00","-5.6","","-7.8","","84","","34","","10","","25.0","","99.55","","","","-10","","Cloudy"
"1963-12-05 05:00","1963","12","05","05:00","-6.1","","-8.3","","83","","36","","8","","25.0","","99.57","","","","-10","","Cloudy"
"1963-12-05 06:00","1963","12","05","06:00","-6.7","","-8.9","","85","","36","","6","","25.0","","99.59","","","","-10","","Cloudy"
"1963-12-05 07:00","1963","12","05","07:00","-6.7","","-8.3","","89","","36","","8","","25.0","","99.61","","","","-11","","Mostly Cloudy"
"1963-12-05 08:00","1963","12","05","08:00","-7.2","","-8.9","","89","","34","","10","","25.0","","99.71","","","","-12","","Mostly Cloudy"
"1963-12-05 09:00","1963","12","05","09:00","-7.2","","-11.1","","73","","34","","8","","25.0","","99.73","","","","-11","","Mostly Cloudy"
"1963-12-05 10:00","1963","12","05","10:00","-6.1","","-10.0","","74","","36","","6","","25.0","","99.75","","","","-9","","Mostly Cloudy"
"1963-12-05 11:00","1963","12","05","11:00","-3.3","","-7.2","","75","","36","","3","","25.0","","99.71","","","","-5","","Mainly Clear"
"1963-12-05 12:00","1963","12","05","12:00","-1.1","","-6.7","","67","","14","","5","","12.9","","99.67","","","","-3","","Mainly Clear"
"1963-12-05 13:00","1963","12","05","13:00","0.0","","-3.3","","80","","9","","6","","9.7","","99.67","","","","-2","","Haze"
"1963-12-05 14:00","1963","12","05","14:00","-0.6","","-3.3","","82","","32","","8","","6.4","","99.69","","","","-3","","Snow Grains,Haze"
"1963-12-05 15:00","1963","12","05","15:00","-1.1","","-2.8","","90","","36","","6","","2.4","","99.75","","","","-3","","Snow,Haze"
"1963-12-05 16:00","1963","12","05","16:00","0.0","","-3.3","","80","","14","","8","","6.4","","99.70","","","","-3","","Haze"
"1963-12-05 17:00","1963","12","05","17:00","0.0","","-3.3","","80","","16","","11","","6.4","","99.67","","","","-4","","Haze"
"1963-12-05 18:00","1963","12","05","18:00","0.6","","-2.8","","78","","14","","8","","8.0","","99.70","","","","","","Haze"
"1963-12-05 19:00","1963","12","05","19:00","-0.6","","-3.3","","82","","32","","6","","8.0","","99.76","","","","-3","","Haze"
"1963-12-05 20:00","1963","12","05","20:00","-1.1","","-2.8","","87","","","","0","","6.4","","99.76","","","","","","Fog"
"1963-12-05 21:00","1963","12","05","21:00","-1.1","","-2.8","","89","","","","0","","4.8","","99.75","","","","","","Snow Showers"
"1963-12-05 22:00","1963","12","05","22:00","-0.6","","-2.8","","85","","20","","5","","4.8","","99.72","","","","-2","","Fog"
"1963-12-05 23:00","1963","12","05","23:00","-1.1","","-2.2","","91","","23","","18","","2.4","","99.75","","","","-6","","Fog"
"1963-12-06 00:00","1963","12","06","00:00","-1.7","","-2.8","","91","","25","","11","","8.0","","99.75","","","","-6","","Fog"
"1963-12-06 01:00","1963","12","06","01:00","-1.7","","-4.4","","82","","25","","11","","16.1","","99.71","","","","-6","","Cloudy"
"1963-12-06 02:00","1963","12","06","02:00","-2.8","","-5.6","","80","","23","","11","","19.3","","99.74","","","","-7","","Mostly Cloudy"
"1963-12-06 03:00","1963","12","06","03:00","-1.7","","-5.0","","78","","25","","14","","19.3","","99.77","","","","-6","","Cloudy"
"1963-12-06 04:00","1963","12","06","04:00","-1.7","","-5.0","","79","","23","","13","","19.3","","99.75","","","","-6","","Cloudy"
"1963-12-06 05:00","1963","12","06","05:00","-1.7","","-4.4","","81","","23","","8","","19.3","","99.74","","","","-5","","Cloudy"
"1963-12-06 06:00","1963","12","06","06:00","-1.7","","-3.9","","85","","18","","10","","24.1","","99.76","","","","-5","","Cloudy"
"1963-12-06 07:00","1963","12","06","07:00","-1.7","","-4.4","","82","","20","","8","","19.3","","99.75","","","","-5","","Cloudy"
"1963-12-06 08:00","1963","12","06","08:00","-1.1","","-3.9","","80","","18","","8","","9.7","","99.73","","","","-4","","Haze"
"1963-12-06 09:00","1963","12","06","09:00","-0.6","","-5.0","","73","","20","","5","","19.3","","99.75","","","","-2","","Mostly Cloudy"
"1963-12-06 10:00","1963","12","06","10:00","0.0","","-3.9","","74","","16","","6","","19.3","","99.76","","","","-2","","Cloudy"
"1963-12-06 11:00","1963","12","06","11:00","0.6","","-4.4","","70","","20","","16","","19.3","","99.73","","","","","","Cloudy"
"1963-12-06 12:00","1963","12","06","12:00","1.1","","-3.3","","71","","18","","5","","19.3","","99.68","","","","","","Cloudy"
"1963-12-06 13:00","1963","12","06","13:00","1.1","","-3.9","","68","","18","","8","","14.5","","99.60","","","","","","Cloudy"
"1963-12-06 14:00","1963","12","06","14:00","1.1","","-2.8","","74","","18","","13","","11.3","","99.54","","","","","","Cloudy"
"1963-12-06 15:00","1963","12","06","15:00","1.7","","-2.8","","73","","16","","13","","12.9","","99.48","","","","","","Cloudy"
"1963-12-06 16:00","1963","12","06","16:00","1.7","","-2.2","","76","","18","","11","","11.3","","99.47","","","","","","Cloudy"
"1963-12-06 17:00","1963","12","06","17:00","1.7","","-2.2","","76","","23","","13","","11.3","","99.52","","","","","","Cloudy"
"1963-12-06 18:00","1963","12","06","18:00","1.1","","-1.7","","82","","18","","10","","4.0","","99.54","","","","","","Snow"
"1963-12-06 19:00","1963","12","06","19:00","1.1","","-1.1","","86","","18","","10","","6.4","","99.53","","","","","","Rain,Snow"
"1963-12-06 20:00","1963","12","06","20:00","1.1","","-1.1","","86","","14","","5","","4.8","","99.53","","","","","","Fog"
"1963-12-06 21:00","1963","12","06","21:00","0.6","","-1.1","","89","","18","","11","","4.8","","99.59","","","","","","Fog"
"1963-12-06 22:00","1963","12","06","22:00","1.1","","-1.1","","86","","18","","11","","6.4","","99.57","","","","","","Fog"
"1963-12-06 23:00","1963","12","06","23:00","1.7","","-0.6","","86","","18","","13","","9.7","","99.54","","","","","","Fog"
"1963-12-07 00:00","1963","12","07","00:00","1.7","","-0.6","","86","","18","","14","","11.3","","99.54","","","","","","Cloudy"
"1963-12-07 01:00","1963","12","07","01:00","2.2","","-0.6","","81","","16","","18","","11.3","","99.46","","","","","","Cloudy"
"1963-12-07 02:00","1963","12","07","02:00","2.2","","0.0","","84","","18","","13","","9.7","","99.45","","","","","","Fog"
"1963-12-07 03:00","1963","12","07","03:00","2.2","","0.0","","84","","16","","16","","9.7","","99.41","","","","","","Fog"
"1963-12-07 04:00","1963","12","07","04:00","2.2","","0.0","","87","","16","","11","","9.7","","99.38","","","","","","Fog"
"1963-12-07 05:00","1963","12","07","05:00","1.7","","0.0","","89","","18","","6","","4.8","","99.40","","","","","","Fog"
"1963-12-07 06:00","1963","12","07","06:00","-0.6","","-1.7","","93","","9","","6","","1.6","","99.39","","","","-3","","Fog"
"1963-12-07 07:00","1963","12","07","07:00","1.1","","0.0","","92","","14","","14","","4.8","","99.37","","","","","","Fog"
"1963-12-07 08:00","1963","12","07","08:00","1.1","","0.0","","92","","14","","16","","2.4","","99.38","","","","","","Fog"
"1963-12-07 09:00","1963","12","07","09:00","1.7","","0.0","","89","","14","","10","","2.8","","99.38","","","","","","Fog"
"1963-12-07 10:00","1963","12","07","10:00","2.8","","0.6","","84","","14","","14","","3.2","","99.38","","","","","","Haze"
"1963-12-07 11:00","1963","12","07","11:00","4.4","","1.1","","78","","14","","16","","3.2","","99.33","","","","","","Haze"
"1963-12-07 12:00","1963","12","07","12:00","5.0","","1.1","","77","","14","","16","","4.0","","99.23","","","","","","Haze"
"1963-12-07 13:00","1963","12","07","13:00","5.0","","1.1","","77","","14","","14","","4.8","","99.17","","","","","","Haze"
"1963-12-07 14:00","1963","12","07","14:00","5.6","","1.7","","75","","14","","14","","4.8","","99.05","","","","","","Haze"
"1963-12-07 15:00","1963","12","07","15:00","5.6","","1.7","","75","","14","","14","","4.8","","99.06","","","","","","Haze"
"1963-12-07 16:00","1963","12","07","16:00","5.0","","1.1","","77","","11","","16","","4.8","","99.00","","","","","","Haze"
"1963-12-07 17:00","1963","12","07","17:00","3.9","","0.6","","80","","11","","16","","4.0","","99.00","","","","","","Haze"
"1963-12-07 18:00","1963","12","07","18:00","3.9","","0.6","","78","","14","","13","","9.7","","99.02","","","","","","Haze"
"1963-12-07 19:00","1963","12","07","19:00","2.2","","1.1","","92","","11","","13","","9.7","","99.05","","","","","","Fog"
"1963-12-07 20:00","1963","12","07","20:00","2.8","","2.2","","95","","11","","10","","9.7","","99.04","","","","","","Fog"
"1963-12-07 21:00","1963","12","07","21:00","1.7","","0.6","","92","","14","","10","","9.7","","99.00","","","","","","Fog"
"1963-12-07 22:00","1963","12","07","22:00","1.7","","1.1","","94","","14","","10","","6.4","","98.94","","","","","","Fog"
"1963-12-07 23:00","1963","12","07","23:00","2.8","","1.7","","92","","14","","13","","6.4","","98.91","","","","","","Fog"
"1963-12-08 00:00","1963","12","08","00:00","-2.8","","-3.9","","92","","","","0","","0.2","","98.88","","","","","","Fog"
"1963-12-08 01:00","1963","12","08","01:00","-2.8","","-3.3","","94","","","","0","","0.4","","98.82","","","","","","Fog"
"1963-12-08 02:00","1963","12","08","02:00","-2.8","","-3.3","","95","","36","","5","","0.2","","98.77","","","","-5","","Fog"
"1963-12-08 03:00","1963","12","08","03:00","-2.2","","-2.8","","96","","","","0","","0.8","","98.75","","","","","","Fog"
"1963-12-08 04:00","1963","12","08","04:00","-2.8","","-3.3","","95","","36","","5","","0.4","","98.67","","","","-5","","Fog"
"1963-12-08 05:00","1963","12","08","05:00","-2.8","","-3.3","","94","","2","","8","","3.2","","98.55","","","","-6","","Fog"
"1963-12-08 06:00","1963","12","08","06:00","-1.7","","-2.2","","95","","5","","10","","4.8","","98.50","","","","-5","","Fog"
"1963-12-08 07:00","1963","12","08","07:00","-1.7","","-2.2","","94","","5","","8","","8.0","","98.45","","","","-5","","Fog"
"1963-12-08 08:00","1963","12","08","08:00","0.0","","-0.6","","94","","9","","13","","4.0","","98.38","","","","-4","","Fog"
"1963-12-08 09:00","1963","12","08","09:00","3.3","","1.7","","87","","7","","13","","4.8","","98.25","","","","","","Fog"
"1963-12-08 10:00","1963","12","08","10:00","5.0","","2.2","","83","","7","","16","","6.4","","98.15","","","","","","Haze"
"1963-12-08 11:00","1963","12","08","11:00","6.1","","1.7","","73","","11","","24","","8.0","","98.03","","","","","","Haze"
"1963-12-08 12:00","1963","12","08","12:00","6.7","","1.7","","72","","9","","24","","9.7","","97.91","","","","","","Haze"
"1963-12-08 13:00","1963","12","08","13:00","6.1","","1.1","","69","","9","","23","","9.7","","97.82","","","","","","Haze"
"1963-12-08 14:00","1963","12","08","14:00","6.1","","1.1","","69","","9","","21","","8.0","","97.78","","","","","","Haze"
"1963-12-08 15:00","1963","12","08","15:00","6.1","","1.1","","69","","16","","11","","8.0","","97.75","","","","","","Haze"
"1963-12-08 16:00","1963","12","08","16:00","5.6","","2.8","","82","","20","","11","","8.0","","97.72","","","","","","Rain,Haze"
"1963-12-08 17:00","1963","12","08","17:00","4.4","","3.3","","93","","18","","16","","9.7","","97.79","","","","","","Rain,Fog"
"1963-12-08 18:00","1963","12","08","18:00","4.4","","3.3","","93","","18","","23","","12.9","","97.78","","","","","","Rain"
"1963-12-08 19:00","1963","12","08","19:00","4.4","","3.3","","93","","16","","11","","12.9","","97.71","","","","","","Rain"
"1963-12-08 20:00","1963","12","08","20:00","3.9","","2.8","","93","","20","","23","","12.9","","97.72","","","","","","Rain,Snow"
"1963-12-08 21:00","1963","12","08","21:00","1.7","","0.6","","92","","23","","19","","12.9","","97.70","","","","","","Rain,Snow"
"1963-12-08 22:00","1963","12","08","22:00","1.1","","0.0","","92","","23","","14","","8.0","","97.71","","","","","","Snow"
"1963-12-08 23:00","1963","12","08","23:00","0.6","","-1.1","","89","","25","","18","","24.1","","97.67","","","","","","Snow"
"1963-12-09 00:00","1963","12","09","00:00","0.6","","-1.7","","84","","27","","6","","25.0","","97.58","","","","","","Cloudy"
"1963-12-09 01:00","1963","12","09","01:00","0.6","","-0.6","","91","","25","","11","","25.0","","97.53","","","","","","Cloudy"
"1963-12-09 02:00","1963","12","09","02:00","0.0","","-1.1","","91","","25","","21","","25.0","","97.46","","","","-5","","Cloudy"
"1963-12-09 03:00","1963","12","09","03:00","-1.1","","-2.8","","89","","25","","24","","25.0","","97.44","","","","-7","","Mostly Cloudy"
"1963-12-09 04:00","1963","12","09","04:00","-1.7","","-3.3","","87","","25","","19","","25.0","","97.36","","","","-7","","Mainly Clear"
"1963-12-09 05:00","1963","12","09","05:00","-2.2","","-3.9","","88","","25","","10","","25.0","","97.33","","","","-6","","Mainly Clear"
"1963-12-09 06:00","1963","12","09","06:00","-2.2","","-3.9","","87","","27","","10","","25.0","","97.31","","","","-6","","Mainly Clear"
"1963-12-09 07:00","1963","12","09","07:00","-2.2","","-3.3","","91","","23","","6","","24.1","","97.33","","","","-5","","Mainly Clear"
"1963-12-09 08:00","1963","12","09","08:00","-1.7","","-4.4","","80","","25","","16","","12.9","","97.32","","","","-7","","Mostly Cloudy"
"1963-12-09 09:00","1963","12","09","09:00","-1.7","","-3.9","","85","","25","","16","","12.9","","97.33","","","","-7","","Mostly Cloudy"
"1963-12-09 10:00","1963","12","09","10:00","-0.6","","-2.8","","85","","25","","19","","12.9","","97.34","","","","-6","","Mostly Cloudy"
"1963-12-09 11:00","1963","12","09","11:00","1.1","","-5.0","","63","","25","","24","","16.1","","97.34","","","","","","Mostly Cloudy"
"1963-12-09 12:00","1963","12","09","12:00","2.2","","-3.9","","63","","25","","27","","19.3","","97.29","","","","","","Mostly Cloudy"
"1963-12-09 13:00","1963","12","09","13:00","1.7","","-3.3","","70","","25","","26","","19.3","","97.24","","","","","","Mostly Cloudy"
"1963-12-09 14:00","1963","12","09","14:00","1.7","","-2.8","","72","","25","","24","","24.1","","97.20","","","","","","Mostly Cloudy"
"1963-12-09 15:00","1963","12","09","15:00","1.7","","-3.3","","70","","25","","27","","24.1","","97.21","","","","","","Mainly Clear"
"1963-12-09 16:00","1963","12","09","16:00","0.6","","-2.2","","81","","23","","23","","24.1","","97.21","","","","","","Mostly Cloudy"
"1963-12-09 17:00","1963","12","09","17:00","0.6","","-2.8","","78","","23","","26","","24.1","","97.28","","","","","","Cloudy"
"1963-12-09 18:00","1963","12","09","18:00","0.0","","-3.3","","80","","23","","29","","24.1","","97.30","","","","-6","","Cloudy"
"1963-12-09 19:00","1963","12","09","19:00","-0.6","","-2.8","","85","","23","","29","","19.3","","97.32","","","","-7","","Snow"
"1963-12-09 20:00","1963","12","09","20:00","-0.6","","-2.8","","85","","23","","19","","6.4","","97.26","","","","-6","","Snow"
"1963-12-09 21:00","1963","12","09","21:00","-0.6","","-2.2","","88","","23","","13","","24.1","","97.26","","","","-5","","Cloudy"
"1963-12-09 22:00","1963","12","09","22:00","0.0","","-1.7","","88","","27","","19","","24.1","","97.30","","","","-5","","Cloudy"
"1963-12-09 23:00","1963","12","09","23:00","0.6","","-1.7","","84","","29","","23","","24.1","","97.39","","","","","","Mostly Cloudy"
"1963-12-10 00:00","1963","12","10","00:00","0.6","","-2.8","","78","","29","","24","","19.3","","97.51","","","","","","Cloudy"
"1963-12-10 01:00","1963","12","10","01:00","0.0","","-2.8","","83","","29","","26","","16.1","","97.64","","","","-6","","Snow Showers"
"1963-12-10 02:00","1963","12","10","02:00","-1.1","","-3.3","","85","","29","","26","","16.1","","97.77","","","","-7","","Snow Showers"
"1963-12-10 03:00","1963","12","10","03:00","-1.7","","-4.4","","83","","32","","26","","19.3","","97.92","","","","-8","","Cloudy"
"1963-12-10 04:00","1963","12","10","04:00","-2.2","","-5.0","","82","","29","","35","","24.1","","98.02","","","","-10","","Cloudy"
"1963-12-10 05:00","1963","12","10","05:00","-3.3","","-6.7","","77","","29","","32","","19.3","","98.19","","","","-11","","Cloudy"
"1963-12-10 06:00","1963","12","10","06:00","-3.9","","-7.2","","77","","29","","37","","19.3","","98.31","","","","-12","","Snow Showers"
"1963-12-10 07:00","1963","12","10","07:00","-3.9","","-7.8","","74","","27","","32","","19.3","","98.43","","","","-12","","Snow Showers"
"1963-12-10 08:00","1963","12","10","08:00","-3.9","","-6.1","","84","","27","","24","","4.0","","98.59","","","","-11","","Snow Showers"
"1963-12-10 09:00","1963","12","10","09:00","-3.9","","-7.2","","77","","27","","32","","4.0","","98.75","","","","-12","","Snow Showers"
"1963-12-10 10:00","1963","12","10","10:00","-2.8","","-7.8","","70","","27","","32","","24.1","","98.85","","","","-10","","Mainly Clear"
"1963-12-10 11:00","1963","12","10","11:00","-2.2","","-6.7","","71","","29","","37","","25.0","","98.94","","","","-10","","Mainly Clear"
"1963-12-10 12:00","1963","12","10","12:00","-1.7","","-6.7","","70","","29","","40","","25.0","","98.95","","","","-10","","Mainly Clear"
"1963-12-10 13:00","1963","12","10","13:00","-1.7","","-7.2","","65","","29","","32","","25.0","","98.98","","","","-9","","Mainly Clear"
"1963-12-10 14:00","1963","12","10","14:00","-1.1","","-6.7","","65","","29","","32","","25.0","","99.08","","","","-8","","Mostly Cloudy"
"1963-12-10 15:00","1963","12","10","15:00","-1.1","","-6.1","","70","","29","","39","","25.0","","99.19","","","","-9","","Mainly Clear"
"1963-12-10 16:00","1963","12","10","16:00","-2.2","","-7.8","","67","","29","","32","","25.0","","99.32","","","","-10","","Mainly Clear"
"1963-12-10 17:00","1963","12","10","17:00","-2.8","","-7.8","","68","","29","","27","","25.0","","99.44","","","","-10","","Mainly Clear"
"1963-12-10 18:00","1963","12","10","18:00","-2.8","","-7.8","","70","","29","","29","","25.0","","99.44","","","","-10","","Mainly Clear"
"1963-12-10 19:00","1963","12","10","19:00","-3.9","","-7.2","","77","","29","","19","","25.0","","99.54","","","","-10","","Mainly Clear"
"1963-12-10 20:00","1963","12","10","20:00","-3.3","","-7.8","","73","","29","","11","","25.0","","99.62","","","","-8","","Mainly Clear"
"1963-12-10 21:00","1963","12","10","21:00","-3.3","","-7.2","","74","","32","","8","","25.0","","99.64","","","","-7","","Cloudy"
"1963-12-10 22:00","1963","12","10","22:00","-3.3","","-6.1","","80","","32","","19","","25.0","","99.72","","","","-9","","Cloudy"
"1963-12-10 23:00","1963","12","10","23:00","-5.0","","-6.7","","87","","34","","13","","25.0","","99.78","","","","-10","","Mainly Clear"
"1963-12-11 00:00","1963","12","11","00:00","-6.1","","-10.6","","70","","34","","23","","25.0","","99.87","","","","-13","","Mainly Clear"
"1963-12-11 01:00","1963","12","11","01:00","-7.2","","-12.2","","68","","34","","16","","25.0","","99.90","","","","-14","","Mainly Clear"
"1963-12-11 02:00","1963","12","11","02:00","-8.3","","-12.8","","70","","34","","23","","25.0","","99.93","","","","-16","","Mainly Clear"
"1963-12-11 03:00","1963","12","11","03:00","-8.3","","-12.2","","72","","36","","26","","25.0","","99.98","","","","-17","","Mainly Clear"
"1963-12-11 04:00","1963","12","11","04:00","-8.9","","-12.8","","73","","36","","23","","25.0","","99.98","","","","-17","","Mainly Clear"
"1963-12-11 05:00","1963","12","11","05:00","-9.4","","-13.3","","72","","36","","19","","25.0","","100.03","","","","-17","","Clear"
"1963-12-11 06:00","1963","12","11","06:00","-10.0","","-13.9","","72","","36","","19","","25.0","","100.12","","","","-18","","Clear"
"1963-12-11 07:00","1963","12","11","07:00","-10.0","","-12.8","","78","","36","","19","","25.0","","100.15","","","","-18","","Mainly Clear"
"1963-12-11 08:00","1963","12","11","08:00","-10.6","","-13.3","","81","","36","","23","","25.0","","100.25","","","","-19","","Mainly Clear"
"1963-12-11 09:00","1963","12","11","09:00","-9.4","","-12.2","","79","","36","","19","","25.0","","100.31","","","","-17","","Mainly Clear"
"1963-12-11 10:00","1963","12","11","10:00","-8.3","","-11.7","","77","","2","","19","","25.0","","100.32","","","","-16","","Mainly Clear"
"1963-12-11 11:00","1963","12","11","11:00","-7.2","","-11.1","","75","","2","","11","","25.0","","100.29","","","","-12","","Mainly Clear"
"1963-12-11 12:00","1963","12","11","12:00","-6.7","","-11.7","","68","","5","","14","","25.0","","100.28","","","","-12","","Clear"
"1963-12-11 13:00","1963","12","11","13:00","-6.1","","-11.1","","68","","5","","5","","25.0","","100.25","","","","-9","","Clear"
"1963-12-11 14:00","1963","12","11","14:00","-5.6","","-11.1","","66","","5","","10","","25.0","","100.17","","","","-10","","Mainly Clear"
"1963-12-11 15:00","1963","12","11","15:00","-5.0","","-11.1","","61","","2","","11","","25.0","","100.17","","","","-10","","Mostly Cloudy"
"1963-12-11 16:00","1963","12","11","16:00","-5.6","","-12.2","","60","","2","","8","","25.0","","100.21","","","","-9","","Mostly Cloudy"
"1963-12-11 17:00","1963","12","11","17:00","-7.2","","-12.8","","65","","2","","8","","25.0","","100.08","","","","-11","","Mostly Cloudy"
"1963-12-11 18:00","1963","12","11","18:00","-7.8","","-11.7","","72","","2","","8","","25.0","","100.13","","","","-12","","Mostly Cloudy"
"1963-12-11 19:00","1963","12","11","19:00","-7.8","","-11.1","","76","","2","","11","","25.0","","100.16","","","","-13","","Cloudy"
"1963-12-11 20:00","1963","12","11","20:00","-7.8","","-11.7","","75","","5","","18","","25.0","","100.05","","","","-15","","Cloudy"
"1963-12-11 21:00","1963","12","11","21:00","-8.3","","-12.8","","71","","5","","16","","25.0","","99.89","","","","-15","","Cloudy"
"1963-12-11 22:00","1963","12","11","22:00","-7.2","","-12.2","","68","","5","","13","","25.0","","99.75","","","","-13","","Cloudy"
"1963-12-11 23:00","1963","12","11","23:00","-6.7","","-11.1","","72","","5","","16","","25.0","","99.71","","","","-13","","Cloudy"
"1963-12-12 00:00","1963","12","12","00:00","-6.1","","-10.0","","74","","5","","13","","25.0","","99.61","","","","-11","","Cloudy"
"1963-12-12 01:00","1963","12","12","01:00","-5.6","","-9.4","","74","","5","","24","","16.1","","99.44","","","","-13","","Snow"
"1963-12-12 02:00","1963","12","12","02:00","-6.7","","-8.3","","89","","5","","24","","1.2","","99.35","","","","-14","","Snow"
"1963-12-12 03:00","1963","12","12","03:00","-6.7","","-8.3","","89","","5","","13","","1.6","","99.23","","","","-12","","Snow"
"1963-12-12 04:00","1963","12","12","04:00","-5.6","","-6.7","","91","","11","","26","","1.2","","99.05","","","","-13","","Snow"
"1963-12-12 05:00","1963","12","12","05:00","-5.6","","-6.7","","92","","7","","23","","1.2","","98.87","","","","-13","","Snow"
"1963-12-12 06:00","1963","12","12","06:00","-7.8","","-9.4","","89","","5","","26","","0.6","","98.76","","","","-16","","Moderate Snow"
"1963-12-12 07:00","1963","12","12","07:00","-7.8","","-9.4","","89","","5","","26","","0.6","","98.73","","","","-16","","Moderate Snow"
"1963-12-12 08:00","1963","12","12","08:00","-7.8","","-8.9","","93","","2","","24","","0.4","","98.74","","","","-16","","Heavy Snow"
"1963-12-12 09:00","1963","12","12","09:00","-8.9","","-10.0","","90","","5","","24","","1.2","","98.74","","","","-17","","Snow"
"1963-12-12 10:00","1963","12","12","10:00","-8.9","","-10.0","","90","","2","","16","","1.2","","98.71","","","","-16","","Snow"
"1963-12-12 11:00","1963","12","12","11:00","-8.3","","-10.0","","88","","2","","16","","1.6","","98.72","","","","-15","","Snow"
"1963-12-12 12:00","1963","12","12","12:00","-7.8","","-10.0","","84","","2","","13","","24.1","","98.72","","","","-14","","Mainly Clear"
"1963-12-12 13:00","1963","12","12","13:00","-8.3","","-11.7","","78","","36","","16","","24.1","","98.71","","","","-15","","Mostly Cloudy"
"1963-12-12 14:00","1963","12","12","14:00","-7.8","","-11.7","","74","","36","","16","","24.1","","98.74","","","","-14","","Mostly Cloudy"
"1963-12-12 15:00","1963","12","12","15:00","-7.8","","-11.7","","72","","34","","16","","24.1","","98.84","","","","-14","","Mostly Cloudy"
"1963-12-12 16:00","1963","12","12","16:00","-6.1","","-11.7","","65","","34","","19","","24.1","","98.95","","","","-13","","Mainly Clear"
"1963-12-12 17:00","1963","12","12","17:00","-8.3","","-13.9","","65","","34","","14","","24.1","","99.04","","","","-14","","Mainly Clear"
"1963-12-12 18:00","1963","12","12","18:00","-10.0","","-13.3","","75","","34","","10","","24.1","","99.13","","","","-15","","Mainly Clear"
"1963-12-12 19:00","1963","12","12","19:00","-12.2","","-15.0","","78","","34","","14","","24.1","","99.19","","","","-19","","Mainly Clear"
"1963-12-12 20:00","1963","12","12","20:00","-13.9","","-15.6","","85","","32","","5","","24.1","","99.28","","","","-17","","Mainly Clear"
"1963-12-12 21:00","1963","12","12","21:00","-12.2","","-13.3","","91","","25","","3","","24.1","","99.32","","","","-14","","Snow Showers"
"1963-12-12 22:00","1963","12","12","22:00","-12.2","","-13.3","","92","","25","","6","","24.1","","99.34","","","","-16","","Snow Showers"
"1963-12-12 23:00","1963","12","12","23:00","-10.6","","-13.3","","81","","2","","13","","24.1","","99.35","","","","-17","","Snow Showers"
"1963-12-13 00:00","1963","12","13","00:00","-10.0","","-11.7","","89","","","","0","","24.1","","99.38","","","","","","Cloudy"
"1963-12-13 01:00","1963","12","13","01:00","-9.4","","-11.7","","85","","5","","5","","24.1","","99.38","","","","-12","","Cloudy"
"1963-12-13 02:00","1963","12","13","02:00","-10.0","","-12.2","","83","","5","","11","","19.3","","99.40","","","","-16","","Cloudy"
"1963-12-13 03:00","1963","12","13","03:00","-10.6","","-12.8","","84","","5","","14","","19.3","","99.39","","","","-17","","Cloudy"
"1963-12-13 04:00","1963","12","13","04:00","-10.6","","-12.8","","82","","5","","10","","19.3","","99.40","","","","-16","","Cloudy"
"1963-12-13 05:00","1963","12","13","05:00","-10.6","","-12.2","","87","","5","","11","","19.3","","99.40","","","","-16","","Snow Showers"
"1963-12-13 06:00","1963","12","13","06:00","-10.6","","-12.8","","84","","5","","10","","16.1","","99.40","","","","-16","","Snow Showers"
"1963-12-13 07:00","1963","12","13","07:00","-10.6","","-12.8","","85","","5","","10","","12.9","","99.40","","","","-16","","Snow"
"1963-12-13 08:00","1963","12","13","08:00","-10.0","","-12.2","","84","","32","","6","","4.8","","99.40","","","","-14","","Freezing Drizzle,Snow Grains"
"1963-12-13 09:00","1963","12","13","09:00","-9.4","","-11.1","","88","","34","","5","","1.2","","99.42","","","","-12","","Snow"
"1963-12-13 10:00","1963","12","13","10:00","-8.9","","-10.6","","87","","36","","5","","4.0","","99.37","","","","-12","","Snow"
"1963-12-13 11:00","1963","12","13","11:00","-7.2","","-9.4","","85","","18","","3","","4.8","","99.33","","","","-9","","Snow Grains"
"1963-12-13 12:00","1963","12","13","12:00","-6.1","","-8.9","","82","","20","","8","","6.4","","99.31","","","","-10","","Haze"
"1963-12-13 13:00","1963","12","13","13:00","-3.9","","-7.2","","77","","20","","13","","8.0","","99.24","","","","-9","","Haze"
"1963-12-13 14:00","1963","12","13","14:00","-3.3","","-8.3","","69","","23","","27","","24.1","","99.25","","","","-10","","Mainly Clear"
"1963-12-13 15:00","1963","12","13","15:00","-3.9","","-8.9","","67","","25","","19","","25.0","","99.24","","","","-10","","Mainly Clear"
"1963-12-13 16:00","1963","12","13","16:00","-4.4","","-7.8","","76","","25","","16","","19.3","","99.28","","","","-10","","Mainly Clear"
"1963-12-13 17:00","1963","12","13","17:00","-5.6","","-10.6","","68","","20","","14","","16.1","","99.29","","","","-11","","Mainly Clear"
"1963-12-13 18:00","1963","12","13","18:00","-6.7","","-10.6","","74","","18","","14","","16.1","","99.27","","","","-12","","Mainly Clear"
"1963-12-13 19:00","1963","12","13","19:00","-6.7","","-11.1","","69","","18","","8","","19.3","","99.28","","","","-11","","Mainly Clear"
"1963-12-13 20:00","1963","12","13","20:00","-8.3","","-12.2","","74","","23","","8","","19.3","","99.24","","","","-12","","Mainly Clear"
"1963-12-13 21:00","1963","12","13","21:00","-8.9","","-13.3","","71","","23","","27","","16.1","","99.22","","","","-18","","Mainly Clear"
"1963-12-13 22:00","1963","12","13","22:00","-7.2","","-12.2","","67","","23","","27","","19.3","","99.18","","","","-15","","Mainly Clear"
"1963-12-13 23:00","1963","12","13","23:00","-7.8","","-12.2","","69","","23","","19","","25.0","","99.19","","","","-15","","Mainly Clear"
"1963-12-14 00:00","1963","12","14","00:00","-9.4","","-12.2","","79","","27","","19","","25.0","","99.18","","","","-17","","Mainly Clear"
"1963-12-14 01:00","1963","12","14","01:00","-8.9","","-12.8","","74","","25","","19","","25.0","","99.18","","","","-16","","Clear"
"1963-12-14 02:00","1963","12","14","02:00","-10.0","","-15.6","","64","","27","","13","","25.0","","99.18","","","","-16","","Clear"
"1963-12-14 03:00","1963","12","14","03:00","-11.7","","-16.1","","69","","25","","16","","25.0","","99.17","","","","-19","","Clear"
"1963-12-14 04:00","1963","12","14","04:00","-13.9","","-17.2","","76","","25","","16","","25.0","","99.12","","","","-22","","Clear"
"1963-12-14 05:00","1963","12","14","05:00","-15.0","","-18.9","","72","","23","","13","","25.0","","99.09","","","","-22","","Clear"
"1963-12-14 06:00","1963","12","14","06:00","-15.0","","-18.9","","72","","23","","13","","25.0","","99.12","","","","-22","","Clear"
"1963-12-14 07:00","1963","12","14","07:00","-15.0","","-18.9","","74","","23","","14","","25.0","","99.15","","","","-23","","Clear"
"1963-12-14 08:00","1963","12","14","08:00","-15.0","","-17.8","","78","","23","","14","","25.0","","99.11","","","","-23","","Mainly Clear"
"1963-12-14 09:00","1963","12","14","09:00","-13.3","","-17.2","","73","","20","","11","","16.1","","99.11","","","","-20","","Clear"
"1963-12-14 10:00","1963","12","14","10:00","-11.7","","-15.6","","72","","23","","27","","19.3","","99.04","","","","-21","","Clear"
"1963-12-14 11:00","1963","12","14","11:00","-10.0","","-15.0","","68","","23","","29","","19.3","","99.01","","","","-19","","Mainly Clear"
"1963-12-14 12:00","1963","12","14","12:00","-9.4","","-15.0","","64","","23","","35","","24.1","","98.99","","","","-19","","Mainly Clear"
"1963-12-14 13:00","1963","12","14","13:00","-9.4","","-15.0","","64","","25","","40","","24.1","","98.93","","","","-20","","Mainly Clear"
"1963-12-14 14:00","1963","12","14","14:00","-8.3","","-13.9","","65","","25","","37","","24.1","","98.93","","","","-18","","Mainly Clear"
"1963-12-14 15:00","1963","12","14","15:00","-8.3","","-13.3","","67","","25","","32","","24.1","","98.94","","","","-18","","Clear"
"1963-12-14 16:00","1963","12","14","16:00","-10.0","","-13.9","","72","","25","","32","","24.1","","99.01","","","","-20","","Clear"
"1963-12-14 17:00","1963","12","14","17:00","-10.6","","-15.0","","71","","25","","29","","24.1","","99.07","","","","-20","","Clear"
"1963-12-14 18:00","1963","12","14","18:00","-11.1","","-15.0","","72","","25","","27","","24.1","","99.11","","","","-21","","Clear"
"1963-12-14 19:00","1963","12","14","19:00","-10.6","","-13.3","","81","","25","","29","","12.9","","99.13","","","","-20","","Snow Showers"
"1963-12-14 20:00","1963","12","14","20:00","-10.6","","-13.9","","76","","23","","29","","24.1","","99.12","","","","-20","","Mainly Clear"
"1963-12-14 21:00","1963","12","14","21:00","-10.0","","-13.3","","75","","23","","32","","24.1","","99.04","","","","-20","","Mainly Clear"
"1963-12-14 22:00","1963","12","14","22:00","-9.4","","-13.3","","75","","32","","19","","24.1","","99.12","","","","-17","","Snow Showers"
"1963-12-14 23:00","1963","12","14","23:00","-8.3","","-10.0","","88","","25","","32","","1.6","","99.08","","","","-18","","Snow Showers"
"1963-12-15 00:00","1963","12","15","00:00","-8.9","","-11.1","","83","","27","","19","","24.1","","99.12","","","","-16","","Snow Showers"
"1963-12-15 01:00","1963","12","15","01:00","-7.8","","-9.4","","89","","32","","13","","3.2","","99.23","","","","-14","","Snow"
"1963-12-15 02:00","1963","12","15","02:00","-10.0","","-12.8","","81","","34","","16","","19.3","","99.35","","","","-17","","Snow"
"1963-12-15 03:00","1963","12","15","03:00","-10.6","","-13.9","","77","","36","","14","","19.3","","99.49","","","","-17","","Snow"
"1963-12-15 04:00","1963","12","15","04:00","-12.2","","-15.0","","78","","34","","16","","24.1","","99.58","","","","-20","","Mainly Clear"
"1963-12-15 05:00","1963","12","15","05:00","-13.9","","-15.6","","85","","34","","13","","24.1","","99.69","","","","-21","","Snow Showers"
"1963-12-15 06:00","1963","12","15","06:00","-14.4","","-16.1","","87","","34","","10","","24.1","","99.76","","","","-21","","Clear"
"1963-12-15 07:00","1963","12","15","07:00","-15.0","","-16.7","","86","","32","","8","","24.1","","99.83","","","","-20","","Clear"
"1963-12-15 08:00","1963","12","15","08:00","-17.2","","-19.4","","82","","32","","13","","25.0","","99.88","","","","-25","","Mainly Clear"
"1963-12-15 09:00","1963","12","15","09:00","-15.0","","-17.8","","78","","32","","6","","25.0","","99.94","","","","-19","","Mainly Clear"
"1963-12-15 10:00","1963","12","15","10:00","-13.9","","-17.2","","76","","32","","6","","25.0","","100.05","","","","-18","","Mainly Clear"
"1963-12-15 11:00","1963","12","15","11:00","-12.2","","-16.1","","71","","34","","11","","25.0","","100.10","","","","-18","","Clear"
"1963-12-15 12:00","1963","12","15","12:00","-11.7","","-16.7","","67","","36","","13","","25.0","","100.11","","","","-18","","Clear"
"1963-12-15 13:00","1963","12","15","13:00","-11.1","","-15.0","","72","","34","","10","","25.0","","100.11","","","","-17","","Mainly Clear"
"1963-12-15 14:00","1963","12","15","14:00","-10.0","","-15.0","","66","","27","","5","","25.0","","100.11","","","","-13","","Mainly Clear"
"1963-12-15 15:00","1963","12","15","15:00","-9.4","","-15.0","","64","","27","","5","","25.0","","100.11","","","","-12","","Mainly Clear"
"1963-12-15 16:00","1963","12","15","16:00","-9.4","","-15.6","","61","","27","","5","","25.0","","100.16","","","","-12","","Mainly Clear"
"1963-12-15 17:00","1963","12","15","17:00","-11.1","","-15.6","","68","","27","","13","","25.0","","100.20","","","","-18","","Mainly Clear"
"1963-12-15 18:00","1963","12","15","18:00","-11.1","","-15.0","","72","","29","","14","","25.0","","100.21","","","","-18","","Clear"
"1963-12-15 19:00","1963","12","15","19:00","-11.1","","-14.4","","77","","29","","21","","25.0","","100.23","","","","-19","","Clear"
"1963-12-15 20:00","1963","12","15","20:00","-12.2","","-14.4","","82","","29","","13","","25.0","","100.24","","","","-19","","Clear"
"1963-12-15 21:00","1963","12","15","21:00","-13.9","","-16.1","","83","","27","","11","","25.0","","100.27","","","","-20","","Clear"
"1963-12-15 22:00","1963","12","15","22:00","-11.7","","-15.0","","77","","27","","27","","25.0","","100.22","","","","-21","","Mainly Clear"
"1963-12-15 23:00","1963","12","15","23:00","-12.2","","-16.1","","73","","34","","11","","25.0","","100.29","","","","-18","","Clear"
"1963-12-16 00:00","1963","12","16","00:00","-13.3","","-16.7","","76","","34","","13","","25.0","","100.32","","","","-20","","Clear"
"1963-12-16 01:00","1963","12","16","01:00","-15.0","","-17.8","","78","","34","","16","","25.0","","100.34","","","","-23","","Clear"
"1963-12-16 02:00","1963","12","16","02:00","-15.6","","-18.3","","79","","34","","10","","25.0","","100.38","","","","-22","","Clear"
"1963-12-16 03:00","1963","12","16","03:00","-17.8","","-20.0","","82","","32","","8","","25.0","","100.48","","","","-24","","Clear"
"1963-12-16 04:00","1963","12","16","04:00","-16.7","","-19.4","","78","","32","","5","","25.0","","100.46","","","","-21","","Clear"
"1963-12-16 05:00","1963","12","16","05:00","-18.9","","-21.7","","80","","32","","6","","25.0","","100.49","","","","-24","","Clear"
"1963-12-16 06:00","1963","12","16","06:00","-20.0","","-22.2","","82","","34","","6","","25.0","","100.52","","","","-25","","Clear"
"1963-12-16 07:00","1963","12","16","07:00","-21.1","","-23.3","","81","","27","","6","","25.0","","100.53","","","","-26","","Clear"
"1963-12-16 08:00","1963","12","16","08:00","-17.2","","-20.0","","77","","27","","16","","25.0","","100.53","","","","-26","","Clear"
"1963-12-16 09:00","1963","12","16","09:00","-16.7","","-20.0","","76","","32","","3","","25.0","","100.60","","","","-19","","Mainly Clear"
"1963-12-16 10:00","1963","12","16","10:00","-13.9","","-17.8","","72","","32","","6","","25.0","","100.67","","","","-18","","Mainly Clear"
"1963-12-16 11:00","1963","12","16","11:00","-11.1","","-17.2","","60","","","","0","","25.0","","100.65","","","","","","Mainly Clear"
"1963-12-16 12:00","1963","12","16","12:00","-8.9","","-16.1","","56","","27","","23","","25.0","","100.58","","","","-17","","Mainly Clear"
"1963-12-16 13:00","1963","12","16","13:00","-8.3","","-15.0","","59","","27","","27","","25.0","","100.58","","","","-17","","Mainly Clear"
"1963-12-16 14:00","1963","12","16","14:00","-6.7","","-13.9","","55","","27","","19","","25.0","","100.57","","","","-14","","Mainly Clear"
"1963-12-16 15:00","1963","12","16","15:00","-7.8","","-15.0","","57","","27","","24","","25.0","","100.58","","","","-16","","Mainly Clear"
"1963-12-16 16:00","1963","12","16","16:00","-8.3","","-13.9","","64","","27","","19","","25.0","","100.61","","","","-16","","Mainly Clear"
"1963-12-16 17:00","1963","12","16","17:00","-9.4","","-15.0","","64","","25","","16","","25.0","","100.61","","","","-16","","Mainly Clear"
"1963-12-16 18:00","1963","12","16","18:00","-10.0","","-13.9","","74","","25","","16","","25.0","","100.64","","","","-17","","Mainly Clear"
"1963-12-16 19:00","1963","12","16","19:00","-11.7","","-15.0","","77","","25","","16","","25.0","","100.67","","","","-19","","Mainly Clear"
"1963-12-16 20:00","1963","12","16","20:00","-12.2","","-15.0","","80","","25","","11","","25.0","","100.66","","","","-18","","Clear"
"1963-12-16 21:00","1963","12","16","21:00","-12.2","","-14.4","","82","","25","","16","","25.0","","100.61","","","","-20","","Mainly Clear"
"1963-12-16 22:00","1963","12","16","22:00","-12.8","","-15.0","","83","","25","","16","","25.0","","100.57","","","","-20","","Mainly Clear"
"1963-12-16 23:00","1963","12","16","23:00","-13.3","","-15.6","","82","","25","","11","","25.0","","100.57","","","","-20","","Mainly Clear"
"1963-12-17 00:00","1963","12","17","00:00","-11.7","","-13.9","","82","","25","","11","","25.0","","100.56","","","","-18","","Mainly Clear"
"1963-12-17 01:00","1963","12","17","01:00","-12.8","","-15.6","","81","","25","","5","","25.0","","100.50","","","","-16","","Mainly Clear"
"1963-12-17 02:00","1963","12","17","02:00","-12.8","","-15.0","","83","","25","","11","","25.0","","100.48","","","","-19","","Mainly Clear"
"1963-12-17 03:00","1963","12","17","03:00","-8.3","","-11.1","","81","","25","","24","","12.9","","100.51","","","","-16","","Snow Showers"
"1963-12-17 04:00","1963","12","17","04:00","-7.8","","-10.0","","84","","25","","24","","24.1","","100.50","","","","-16","","Mainly Clear"
"1963-12-17 05:00","1963","12","17","05:00","-10.0","","-12.2","","83","","25","","19","","25.0","","100.51","","","","-18","","Mainly Clear"
"1963-12-17 06:00","1963","12","17","06:00","-12.2","","-15.0","","80","","25","","19","","25.0","","100.51","","","","-20","","Clear"
"1963-12-17 07:00","1963","12","17","07:00","-12.2","","-15.0","","80","","25","","19","","25.0","","100.51","","","","-20","","Mainly Clear"
"1963-12-17 08:00","1963","12","17","08:00","-11.7","","-14.4","","79","","25","","26","","25.0","","100.51","","","","-21","","Mainly Clear"
"1963-12-17 09:00","1963","12","17","09:00","-9.4","","-12.8","","78","","25","","27","","25.0","","100.55","","","","-18","","Mainly Clear"
"1963-12-17 10:00","1963","12","17","10:00","-8.3","","-11.7","","75","","25","","32","","25.0","","100.59","","","","-18","","Mainly Clear"
"1963-12-17 11:00","1963","12","17","11:00","-7.8","","-11.7","","74","","25","","29","","24.1","","100.57","","","","-17","","Mainly Clear"
"1963-12-17 12:00","1963","12","17","12:00","-7.2","","-11.1","","73","","25","","21","","24.1","","100.50","","","","-15","","Mainly Clear"
"1963-12-17 13:00","1963","12","17","13:00","-5.6","","-10.6","","69","","25","","16","","24.1","","100.41","","","","-12","","Mostly Cloudy"
"1963-12-17 14:00","1963","12","17","14:00","-5.6","","-10.0","","70","","25","","19","","24.1","","100.38","","","","-12","","Mainly Clear"
"1963-12-17 15:00","1963","12","17","15:00","-5.6","","-11.1","","66","","25","","18","","24.1","","100.38","","","","-12","","Mostly Cloudy"
"1963-12-17 16:00","1963","12","17","16:00","-6.7","","-12.2","","65","","25","","16","","24.1","","100.38","","","","-13","","Mostly Cloudy"
"1963-12-17 17:00","1963","12","17","17:00","-7.8","","-12.8","","68","","23","","14","","24.1","","100.35","","","","-14","","Cloudy"
"1963-12-17 18:00","1963","12","17","18:00","-8.3","","-11.7","","77","","23","","6","","24.1","","100.30","","","","-12","","Cloudy"
"1963-12-17 19:00","1963","12","17","19:00","-8.3","","-12.2","","72","","25","","13","","24.1","","100.27","","","","-14","","Cloudy"
"1963-12-17 20:00","1963","12","17","20:00","-8.3","","-12.8","","71","","25","","13","","24.1","","100.17","","","","-14","","Cloudy"
"1963-12-17 21:00","1963","12","17","21:00","-8.3","","-13.3","","67","","23","","10","","24.1","","100.11","","","","-13","","Cloudy"
"1963-12-17 22:00","1963","12","17","22:00","-8.9","","-12.8","","74","","23","","5","","24.1","","100.02","","","","-12","","Snow"
"1963-12-17 23:00","1963","12","17","23:00","-8.3","","-11.7","","75","","20","","3","","12.9","","99.93","","","","-10","","Snow"
"1963-12-18 00:00","1963","12","18","00:00","-8.3","","-10.6","","82","","","","0","","3.2","","99.88","","","","","","Snow"
"1963-12-18 01:00","1963","12","18","01:00","-8.3","","-10.6","","84","","11","","8","","1.6","","99.76","","","","-12","","Snow"
"1963-12-18 02:00","1963","12","18","02:00","-8.3","","-10.0","","87","","9","","5","","2.4","","99.65","","","","-11","","Snow"
"1963-12-18 03:00","1963","12","18","03:00","-8.3","","-10.0","","89","","5","","3","","1.6","","99.56","","","","-10","","Snow"
"1963-12-18 04:00","1963","12","18","04:00","-7.8","","-8.9","","90","","5","","8","","1.6","","99.38","","","","-12","","Snow"
"1963-12-18 05:00","1963","12","18","05:00","-6.7","","-7.8","","90","","11","","11","","1.6","","99.22","","","","-12","","Snow"
"1963-12-18 06:00","1963","12","18","06:00","-5.0","","-6.1","","93","","14","","19","","1.2","","99.09","","","","-11","","Snow"
"1963-12-18 07:00","1963","12","18","07:00","-5.0","","-6.1","","93","","14","","21","","1.0","","99.02","","","","-12","","Snow"
"1963-12-18 08:00","1963","12","18","08:00","-4.4","","-6.1","","90","","14","","24","","1.0","","98.94","","","","-11","","Snow"
"1963-12-18 09:00","1963","12","18","09:00","-4.4","","-5.6","","92","","14","","19","","0.4","","98.89","","","","-11","","Heavy Snow"
"1963-12-18 10:00","1963","12","18","10:00","-4.4","","-5.6","","93","","20","","8","","1.6","","98.86","","","","-8","","Snow"
"1963-12-18 11:00","1963","12","18","11:00","-3.9","","-5.6","","89","","25","","10","","2.0","","98.79","","","","-8","","Snow"
"1963-12-18 12:00","1963","12","18","12:00","-5.6","","-8.9","","79","","29","","11","","12.9","","98.72","","","","-10","","Snow"
"1963-12-18 13:00","1963","12","18","13:00","-5.6","","-6.7","","92","","29","","16","","1.2","","98.71","","","","-12","","Snow"
"1963-12-18 14:00","1963","12","18","14:00","-6.1","","-7.2","","92","","29","","13","","1.6","","98.73","","","","-11","","Snow"
"1963-12-18 15:00","1963","12","18","15:00","-6.1","","-7.2","","92","","29","","10","","0.8","","98.74","","","","-11","","Moderate Snow"
"1963-12-18 16:00","1963","12","18","16:00","-6.1","","-7.2","","92","","36","","24","","0.6","","98.82","","","","-14","","Moderate Snow"
"1963-12-18 17:00","1963","12","18","17:00","-6.1","","-7.8","","88","","34","","23","","2.0","","98.96","","","","-13","","Snow"
"1963-12-18 18:00","1963","12","18","18:00","-6.1","","-7.8","","88","","34","","19","","16.1","","99.06","","","","-13","","Snow"
"1963-12-18 19:00","1963","12","18","19:00","-6.7","","-8.3","","87","","34","","24","","16.1","","99.17","","","","-14","","Mainly Clear"
"1963-12-18 20:00","1963","12","18","20:00","-7.8","","-10.0","","84","","34","","19","","16.1","","99.24","","","","-15","","Mostly Cloudy"
"1963-12-18 21:00","1963","12","18","21:00","-8.9","","-11.1","","84","","34","","16","","16.1","","99.29","","","","-16","","Mainly Clear"
"1963-12-18 22:00","1963","12","18","22:00","-8.9","","-11.7","","81","","34","","19","","19.3","","99.34","","","","-16","","Mostly Cloudy"
"1963-12-18 23:00","1963","12","18","23:00","-10.0","","-12.2","","83","","36","","10","","25.0","","99.37","","","","-15","","Mostly Cloudy"
"1963-12-19 00:00","1963","12","19","00:00","-10.0","","-12.2","","83","","32","","14","","24.1","","99.37","","","","-16","","Snow Showers"
"1963-12-19 01:00","1963","12","19","01:00","-11.1","","-13.3","","83","","34","","8","","25.0","","99.37","","","","-16","","Mainly Clear"
"1963-12-19 02:00","1963","12","19","02:00","-12.2","","-14.4","","85","","36","","11","","25.0","","99.34","","","","-18","","Mainly Clear"
"1963-12-19 03:00","1963","12","19","03:00","-13.9","","-16.1","","83","","32","","10","","25.0","","99.32","","","","-20","","Mainly Clear"
"1963-12-19 04:00","1963","12","19","04:00","-12.8","","-15.0","","85","","27","","5","","25.0","","99.30","","","","-16","","Mostly Cloudy"
"1963-12-19 05:00","1963","12","19","05:00","-12.2","","-13.9","","87","","","","0","","24.1","","99.21","","","","","","Mostly Cloudy"
"1963-12-19 06:00","1963","12","19","06:00","-14.4","","-16.7","","85","","36","","5","","19.3","","99.15","","","","-18","","Snow Showers"
"1963-12-19 07:00","1963","12","19","07:00","-14.4","","-16.7","","83","","","","0","","19.3","","99.09","","","","","","Snow Showers"
"1963-12-19 08:00","1963","12","19","08:00","-13.9","","-16.1","","83","","","","0","","19.3","","99.06","","","","","","Snow Showers"
"1963-12-19 09:00","1963","12","19","09:00","-13.3","","-15.0","","88","","36","","5","","4.8","","98.99","","","","-17","","Snow Showers"
"1963-12-19 10:00","1963","12","19","10:00","-11.7","","-13.3","","89","","25","","3","","4.8","","98.98","","","","-14","","Snow Showers"
"1963-12-19 11:00","1963","12","19","11:00","-11.1","","-12.2","","90","","","","0","","6.4","","98.93","","","","","","Snow Showers"
"1963-12-19 12:00","1963","12","19","12:00","-11.1","","-12.2","","91","","27","","21","","16.1","","98.85","","","","-19","","Mostly Cloudy"
"1963-12-19 13:00","1963","12","19","13:00","-8.3","","-10.0","","87","","27","","16","","19.3","","98.81","","","","-15","","Mostly Cloudy"
"1963-12-19 14:00","1963","12","19","14:00","-7.2","","-10.0","","80","","27","","16","","19.3","","98.83","","","","-14","","Mostly Cloudy"
"1963-12-19 15:00","1963","12","19","15:00","-8.3","","-10.0","","87","","27","","16","","24.1","","98.89","","","","-15","","Mostly Cloudy"
"1963-12-19 16:00","1963","12","19","16:00","-10.0","","-12.8","","81","","34","","14","","24.1","","99.00","","","","-16","","Mainly Clear"
"1963-12-19 17:00","1963","12","19","17:00","-11.7","","-14.4","","81","","34","","13","","19.3","","99.07","","","","-18","","Mainly Clear"
"1963-12-19 18:00","1963","12","19","18:00","-12.2","","-15.0","","80","","32","","13","","19.3","","99.14","","","","-19","","Mainly Clear"
"1963-12-19 19:00","1963","12","19","19:00","-12.8","","-15.6","","79","","32","","14","","19.3","","99.23","","","","-20","","Mainly Clear"
"1963-12-19 20:00","1963","12","19","20:00","-15.0","","-17.8","","78","","32","","19","","24.1","","99.26","","","","-24","","Mainly Clear"
"1963-12-19 21:00","1963","12","19","21:00","-16.1","","-18.9","","81","","29","","19","","24.1","","99.28","","","","-25","","Clear"
"1963-12-19 22:00","1963","12","19","22:00","-16.7","","-19.4","","78","","29","","16","","24.1","","99.33","","","","-25","","Clear"
"1963-12-19 23:00","1963","12","19","23:00","-15.6","","-18.9","","75","","32","","16","","24.1","","99.39","","","","-24","","Clear"
"1963-12-20 00:00","1963","12","20","00:00","-18.3","","-21.1","","78","","32","","13","","25.0","","99.36","","","","-26","","Clear"
"1963-12-20 01:00","1963","12","20","01:00","-20.0","","-23.3","","76","","27","","6","","25.0","","99.37","","","","-25","","Clear"
"1963-12-20 02:00","1963","12","20","02:00","-20.0","","-22.2","","82","","","","0","","25.0","","99.37","","","","","","Clear"
"1963-12-20 03:00","1963","12","20","03:00","-19.4","","-22.2","","80","","27","","10","","25.0","","99.35","","","","-26","","Clear"
"1963-12-20 04:00","1963","12","20","04:00","-19.4","","-22.2","","77","","25","","8","","25.0","","99.27","","","","-26","","Clear"
"1963-12-20 05:00","1963","12","20","05:00","-16.7","","-19.4","","80","","25","","23","","25.0","","99.26","","","","-27","","Clear"
"1963-12-20 06:00","1963","12","20","06:00","-16.7","","-19.4","","80","","25","","13","","25.0","","99.23","","","","-24","","Clear"
"1963-12-20 07:00","1963","12","20","07:00","-16.7","","-19.4","","78","","23","","16","","25.0","","99.17","","","","-25","","Mainly Clear"
"1963-12-20 08:00","1963","12","20","08:00","-13.9","","-17.8","","74","","25","","26","","25.0","","99.08","","","","-24","","Mainly Clear"
"1963-12-20 09:00","1963","12","20","09:00","-11.1","","-15.0","","73","","23","","27","","25.0","","99.03","","","","-21","","Mostly Cloudy"
"1963-12-20 10:00","1963","12","20","10:00","-8.9","","-12.8","","74","","25","","35","","25.0","","99.01","","","","-19","","Mainly Clear"
"1963-12-20 11:00","1963","12","20","11:00","-7.2","","-10.6","","76","","25","","39","","16.1","","98.96","","","","-17","","Mainly Clear"
"1963-12-20 12:00","1963","12","20","12:00","-6.7","","-11.7","","67","","27","","43","","19.3","","98.87","","","","-17","","Mostly Cloudy"
"1963-12-20 13:00","1963","12","20","13:00","-6.7","","-11.1","","72","","27","","47","","19.3","","98.82","","","","-17","","Mostly Cloudy"
"1963-12-20 14:00","1963","12","20","14:00","-10.0","","-12.8","","78","","34","","18","","4.8","","98.91","","","","-17","","Snow"
"1963-12-20 15:00","1963","12","20","15:00","-11.1","","-13.9","","81","","36","","10","","1.0","","99.02","","","","-17","","Snow"
"1963-12-20 16:00","1963","12","20","16:00","-11.7","","-14.4","","81","","34","","13","","4.8","","99.11","","","","-18","","Snow"
"1963-12-20 17:00","1963","12","20","17:00","-13.9","","-17.8","","74","","34","","27","","6.4","","99.26","","","","-24","","Snow Showers"
"1963-12-20 18:00","1963","12","20","18:00","-16.7","","-20.6","","73","","34","","19","","25.0","","99.39","","","","-26","","Clear"
"1963-12-20 19:00","1963","12","20","19:00","-17.8","","-21.1","","76","","34","","21","","25.0","","99.47","","","","-28","","Clear"
"1963-12-20 20:00","1963","12","20","20:00","-19.4","","-22.8","","74","","34","","18","","25.0","","99.58","","","","-29","","Clear"
"1963-12-20 21:00","1963","12","20","21:00","-20.0","","-24.4","","67","","36","","23","","25.0","","99.67","","","","-31","","Clear"
"1963-12-20 22:00","1963","12","20","22:00","-21.1","","-25.0","","72","","34","","10","","25.0","","99.74","","","","-29","","Clear"
"1963-12-20 23:00","1963","12","20","23:00","-21.1","","-26.1","","65","","34","","19","","25.0","","99.79","","","","-32","","Clear"
"1963-12-21 00:00","1963","12","21","00:00","-21.7","","-25.6","","71","","34","","11","","25.0","","99.84","","","","-30","","Clear"
"1963-12-21 01:00","1963","12","21","01:00","-21.1","","-24.4","","75","","32","","11","","25.0","","99.90","","","","-29","","Clear"
"1963-12-21 02:00","1963","12","21","02:00","-21.1","","-24.4","","75","","27","","8","","25.0","","99.96","","","","-28","","Mainly Clear"
"1963-12-21 03:00","1963","12","21","03:00","-21.1","","-24.4","","75","","27","","3","","25.0","","100.03","","","","-24","","Mostly Cloudy"
"1963-12-21 04:00","1963","12","21","04:00","-20.0","","-22.8","","79","","23","","11","","25.0","","100.03","","","","-28","","Cloudy"
"1963-12-21 05:00","1963","12","21","05:00","-19.4","","-22.2","","80","","25","","6","","25.0","","100.03","","","","-24","","Mostly Cloudy"
"1963-12-21 06:00","1963","12","21","06:00","-19.4","","-21.7","","83","","34","","5","","25.0","","100.04","","","","-24","","Mainly Clear"
"1963-12-21 07:00","1963","12","21","07:00","-18.9","","-21.7","","78","","","","0","","25.0","","100.08","","","","","","Mostly Cloudy"
"1963-12-21 08:00","1963","12","21","08:00","-18.3","","-22.2","","73","","20","","5","","25.0","","100.12","","","","-22","","Mostly Cloudy"
"1963-12-21 09:00","1963","12","21","09:00","-17.8","","-22.8","","66","","18","","8","","24.1","","100.17","","","","-24","","Mostly Cloudy"
"1963-12-21 10:00","1963","12","21","10:00","-15.6","","-20.6","","66","","25","","6","","12.9","","100.20","","","","-20","","Mostly Cloudy"
"1963-12-21 11:00","1963","12","21","11:00","-12.8","","-17.2","","68","","","","0","","9.7","","100.17","","","","","","Snow Showers,Haze"
"1963-12-21 12:00","1963","12","21","12:00","-7.8","","-11.7","","75","","27","","8","","25.0","","100.11","","","","-12","","Cloudy"
"1963-12-21 13:00","1963","12","21","13:00","-6.7","","-10.0","","76","","27","","19","","25.0","","100.11","","","","-14","","Snow Showers"
"1963-12-21 14:00","1963","12","21","14:00","-6.1","","-10.6","","72","","25","","16","","25.0","","100.15","","","","-12","","Snow Showers"
"1963-12-21 15:00","1963","12","21","15:00","-6.1","","-10.0","","75","","25","","19","","25.0","","100.18","","","","-13","","Cloudy"
"1963-12-21 16:00","1963","12","21","16:00","-5.6","","-8.9","","79","","25","","23","","25.0","","100.24","","","","-13","","Cloudy"
"1963-12-21 17:00","1963","12","21","17:00","-6.1","","-9.4","","77","","25","","23","","25.0","","100.26","","","","-13","","Snow Showers"
"1963-12-21 18:00","1963","12","21","18:00","-5.6","","-8.9","","79","","25","","16","","25.0","","100.33","","","","-12","","Cloudy"
"1963-12-21 19:00","1963","12","21","19:00","-5.6","","-8.3","","80","","25","","11","","25.0","","100.36","","","","-10","","Cloudy"
"1963-12-21 20:00","1963","12","21","20:00","-5.6","","-7.8","","84","","25","","14","","25.0","","100.38","","","","-11","","Cloudy"
"1963-12-21 21:00","1963","12","21","21:00","-5.6","","-7.8","","84","","27","","6","","25.0","","100.41","","","","-8","","Cloudy"
"1963-12-21 22:00","1963","12","21","22:00","-5.6","","-7.8","","85","","25","","6","","25.0","","100.43","","","","-8","","Cloudy"
"1963-12-21 23:00","1963","12","21","23:00","-5.0","","-7.2","","86","","23","","11","","25.0","","100.43","","","","-10","","Cloudy"
"1963-12-22 00:00","1963","12","22","00:00","-4.4","","-6.7","","84","","23","","8","","25.0","","100.42","","","","-8","","Cloudy"
"1963-12-22 01:00","1963","12","22","01:00","-3.9","","-5.6","","87","","23","","14","","24.1","","100.45","","","","-9","","Cloudy"
"1963-12-22 02:00","1963","12","22","02:00","-3.3","","-5.0","","87","","23","","13","","24.1","","100.48","","","","-8","","Cloudy"
"1963-12-22 03:00","1963","12","22","03:00","-2.8","","-4.4","","86","","25","","13","","24.1","","100.52","","","","-7","","Cloudy"
"1963-12-22 04:00","1963","12","22","04:00","-2.8","","-4.4","","86","","23","","11","","24.1","","100.51","","","","-7","","Cloudy"
"1963-12-22 05:00","1963","12","22","05:00","-2.2","","-3.9","","87","","23","","13","","24.1","","100.52","","","","-7","","Cloudy"
"1963-12-22 06:00","1963","12","22","06:00","-2.8","","-3.9","","91","","23","","16","","24.1","","100.57","","","","-8","","Cloudy"
"1963-12-22 07:00","1963","12","22","07:00","-2.8","","-5.0","","84","","23","","13","","24.1","","100.62","","","","-7","","Cloudy"
"1963-12-22 08:00","1963","12","22","08:00","-2.2","","-3.9","","87","","25","","10","","16.1","","100.69","","","","-6","","Cloudy"
"1963-12-22 09:00","1963","12","22","09:00","-1.7","","-3.3","","88","","29","","10","","19.3","","100.74","","","","-5","","Cloudy"
"1963-12-22 10:00","1963","12","22","10:00","-1.7","","-4.4","","83","","34","","11","","24.1","","100.77","","","","-6","","Cloudy"
"1963-12-22 11:00","1963","12","22","11:00","-2.2","","-3.9","","87","","36","","23","","16.1","","100.79","","","","-8","","Snow Grains"
"1963-12-22 12:00","1963","12","22","12:00","-2.8","","-4.4","","86","","36","","19","","24.1","","100.76","","","","-9","","Cloudy"
"1963-12-22 13:00","1963","12","22","13:00","-2.2","","-4.4","","85","","36","","16","","24.1","","100.77","","","","-7","","Mostly Cloudy"
"1963-12-22 14:00","1963","12","22","14:00","-3.3","","-4.4","","90","","36","","16","","24.1","","100.80","","","","-9","","Cloudy"
"1963-12-22 15:00","1963","12","22","15:00","-3.9","","-5.0","","91","","34","","13","","24.1","","100.86","","","","-9","","Mostly Cloudy"
"1963-12-22 16:00","1963","12","22","16:00","-4.4","","-6.7","","83","","34","","13","","19.3","","100.91","","","","-9","","Mainly Clear"
"1963-12-22 17:00","1963","12","22","17:00","-5.6","","-8.3","","81","","34","","8","","19.3","","100.94","","","","-9","","Mainly Clear"
"1963-12-22 18:00","1963","12","22","18:00","-5.0","","-8.3","","79","","29","","14","","19.3","","100.97","","","","-10","","Mainly Clear"
"1963-12-22 19:00","1963","12","22","19:00","-3.9","","-7.2","","78","","32","","8","","19.3","","101.00","","","","-7","","Cloudy"
"1963-12-22 20:00","1963","12","22","20:00","-3.9","","-6.7","","82","","","","0","","19.3","","101.01","","","","","","Cloudy"
"1963-12-22 21:00","1963","12","22","21:00","-4.4","","-6.7","","85","","23","","5","","19.3","","101.01","","","","-7","","Cloudy"
"1963-12-22 22:00","1963","12","22","22:00","-5.0","","-7.8","","82","","","","0","","19.3","","100.97","","","","","","Cloudy"
"1963-12-22 23:00","1963","12","22","23:00","-4.4","","-7.2","","81","","23","","11","","19.3","","101.11","","","","-9","","Cloudy"
"1963-12-23 00:00","1963","12","23","00:00","-4.4","","-7.2","","81","","27","","6","","19.3","","100.99","","","","-7","","Cloudy"
"1963-12-23 01:00","1963","12","23","01:00","-4.4","","-7.2","","82","","32","","6","","24.1","","100.86","","","","-7","","Cloudy"
"1963-12-23 02:00","1963","12","23","02:00","-3.9","","-6.7","","83","","32","","5","","24.1","","100.97","","","","-6","","Cloudy"
"1963-12-23 03:00","1963","12","23","03:00","-3.9","","-6.7","","83","","36","","6","","24.1","","100.96","","","","-7","","Cloudy"
"1963-12-23 04:00","1963","12","23","04:00","-4.4","","-6.7","","83","","7","","6","","24.1","","100.83","","","","-7","","Snow"
"1963-12-23 05:00","1963","12","23","05:00","-4.4","","-6.7","","83","","7","","5","","24.1","","100.82","","","","-7","","Snow"
"1963-12-23 06:00","1963","12","23","06:00","-3.9","","-6.7","","83","","36","","6","","24.1","","100.81","","","","-7","","Cloudy"
"1963-12-23 07:00","1963","12","23","07:00","-4.4","","-6.7","","84","","36","","10","","19.3","","100.71","","","","-9","","Snow"
"1963-12-23 08:00","1963","12","23","08:00","-4.4","","-6.7","","84","","5","","8","","12.9","","100.77","","","","-8","","Snow"
"1963-12-23 09:00","1963","12","23","09:00","-3.9","","-5.6","","89","","14","","13","","6.4","","100.73","","","","-9","","Snow Showers"
"1963-12-23 10:00","1963","12","23","10:00","-1.7","","-5.6","","76","","11","","11","","12.9","","100.70","","","","-6","","Cloudy"
"1963-12-23 11:00","1963","12","23","11:00","-2.8","","-4.4","","89","","5","","10","","2.0","","100.65","","","","-7","","Snow Showers"
"1963-12-23 12:00","1963","12","23","12:00","-2.2","","-3.3","","93","","9","","5","","0.6","","100.53","","","","-4","","Moderate Snow"
"1963-12-23 13:00","1963","12","23","13:00","-2.2","","-3.9","","88","","11","","8","","2.0","","100.34","","","","-5","","Snow"
"1963-12-23 14:00","1963","12","23","14:00","-2.8","","-3.9","","93","","5","","13","","1.6","","100.21","","","","-7","","Snow"
"1963-12-23 15:00","1963","12","23","15:00","-2.8","","-4.4","","90","","5","","11","","1.6","","100.14","","","","-7","","Snow"
"1963-12-23 16:00","1963","12","23","16:00","-3.3","","-4.4","","90","","5","","11","","6.4","","100.06","","","","-8","","Snow"
"1963-12-23 17:00","1963","12","23","17:00","-3.3","","-5.0","","89","","5","","14","","11.3","","100.00","","","","-8","","Cloudy"
"1963-12-23 18:00","1963","12","23","18:00","-3.3","","-5.0","","89","","5","","16","","3.2","","99.93","","","","-9","","Snow"
"1963-12-23 19:00","1963","12","23","19:00","-3.9","","-5.0","","92","","5","","11","","11.3","","99.91","","","","-8","","Snow"
"1963-12-23 20:00","1963","12","23","20:00","-3.9","","-5.0","","93","","5","","10","","1.6","","99.83","","","","-8","","Snow"
"1963-12-23 21:00","1963","12","23","21:00","-4.4","","-5.6","","93","","5","","14","","3.2","","99.69","","","","-10","","Snow"
"1963-12-23 22:00","1963","12","23","22:00","-4.4","","-5.6","","93","","5","","13","","11.3","","99.57","","","","-9","","Snow"
"1963-12-23 23:00","1963","12","23","23:00","-4.4","","-5.6","","93","","5","","10","","12.9","","99.44","","","","-9","","Snow"
"1963-12-24 00:00","1963","12","24","00:00","-5.0","","-6.1","","90","","36","","8","","6.4","","99.43","","","","-9","","Snow"
"1963-12-24 01:00","1963","12","24","01:00","-5.0","","-6.1","","90","","36","","8","","9.7","","99.24","","","","-9","","Snow"
"1963-12-24 02:00","1963","12","24","02:00","-5.0","","-6.1","","90","","29","","10","","16.1","","99.20","","","","-9","","Snow"
"1963-12-24 03:00","1963","12","24","03:00","-5.0","","-6.1","","90","","29","","10","","16.1","","99.20","","","","-9","","Snow"
"1963-12-24 04:00","1963","12","24","04:00","-5.0","","-6.1","","90","","","","0","","16.1","","99.02","","","","","","Cloudy"
"1963-12-24 05:00","1963","12","24","05:00","-6.1","","-7.2","","90","","20","","10","","11.3","","98.95","","","","-11","","Cloudy"
"1963-12-24 06:00","1963","12","24","06:00","-5.0","","-6.1","","90","","20","","18","","11.3","","98.79","","","","-11","","Cloudy"
"1963-12-24 07:00","1963","12","24","07:00","-4.4","","-6.1","","90","","18","","18","","11.3","","98.66","","","","-10","","Cloudy"
"1963-12-24 08:00","1963","12","24","08:00","-4.4","","-6.1","","88","","20","","23","","11.3","","98.64","","","","-11","","Cloudy"
"1963-12-24 09:00","1963","12","24","09:00","-4.4","","-7.2","","81","","20","","23","","9.7","","98.54","","","","-11","","Haze"
"1963-12-24 10:00","1963","12","24","10:00","-3.3","","-6.1","","80","","23","","42","","12.9","","98.31","","","","-12","","Snow"
"1963-12-24 11:00","1963","12","24","11:00","-2.8","","-6.1","","79","","20","","43","","1.2","","98.17","","","","-11","","Snow"
"1963-12-24 12:00","1963","12","24","12:00","-3.3","","-4.4","","90","","23","","39","","0.4","","97.97","","","","-12","","Heavy Snow,Blowing Snow"
"1963-12-24 13:00","1963","12","24","13:00","-3.9","","-5.6","","89","","23","","53","","3.2","","97.91","","","","-14","","Blowing Snow"
"1963-12-24 14:00","1963","12","24","14:00","-5.0","","-7.8","","81","","25","","29","","19.3","","97.88","","","","-13","","Cloudy"
"1963-12-24 15:00","1963","12","24","15:00","-5.0","","-7.8","","80","","25","","37","","9.7","","97.75","","","","-14","","Blowing Snow"
"1963-12-24 16:00","1963","12","24","16:00","-5.6","","-7.8","","84","","23","","51","","3.2","","97.68","","","","-16","","Blowing Snow"
"1963-12-24 17:00","1963","12","24","17:00","-5.6","","-8.9","","79","","23","","51","","4.8","","97.68","","","","-16","","Blowing Snow"
"1963-12-24 18:00","1963","12","24","18:00","-5.0","","-8.3","","79","","23","","40","","8.0","","97.71","","","","-14","","Blowing Snow"
"1963-12-24 19:00","1963","12","24","19:00","-5.0","","-8.3","","79","","23","","40","","6.4","","97.73","","","","-14","","Snow,Blowing Snow"
"1963-12-24 20:00","1963","12","24","20:00","-4.4","","-7.2","","82","","23","","40","","6.4","","97.72","","","","-13","","Snow,Blowing Snow"
"1963-12-24 21:00","1963","12","24","21:00","-4.4","","-7.2","","82","","23","","39","","8.0","","97.73","","","","-13","","Snow,Blowing Snow"
"1963-12-24 22:00","1963","12","24","22:00","-3.9","","-6.1","","86","","23","","39","","16.1","","97.73","","","","-13","","Cloudy"
"1963-12-24 23:00","1963","12","24","23:00","-2.8","","-5.0","","85","","23","","40","","19.3","","97.74","","","","-11","","Cloudy"
"1963-12-25 00:00","1963","12","25","00:00","-1.7","","-3.9","","85","","23","","32","","16.1","","97.77","","","","-9","","Snow Showers"
"1963-12-25 01:00","1963","12","25","01:00","-2.2","","-4.4","","84","","23","","23","","24.1","","97.79","","","","-8","","Snow Showers"
"1963-12-25 02:00","1963","12","25","02:00","-1.7","","-3.3","","87","","23","","21","","24.1","","97.82","","","","-8","","Snow Showers"
"1963-12-25 03:00","1963","12","25","03:00","-1.7","","-2.8","","91","","23","","13","","19.3","","97.91","","","","-6","","Snow"
"1963-12-25 04:00","1963","12","25","04:00","-1.1","","-2.8","","87","","29","","19","","19.3","","97.97","","","","-6","","Snow"
"1963-12-25 05:00","1963","12","25","05:00","-1.7","","-3.3","","88","","27","","19","","19.3","","98.00","","","","-7","","Snow"
"1963-12-25 06:00","1963","12","25","06:00","-1.1","","-4.4","","79","","29","","21","","24.1","","98.06","","","","-7","","Snow"
"1963-12-25 07:00","1963","12","25","07:00","-2.2","","-5.0","","81","","29","","23","","24.1","","98.19","","","","-8","","Snow"
"1963-12-25 08:00","1963","12","25","08:00","-1.7","","-4.4","","80","","29","","23","","25.0","","98.29","","","","-8","","Cloudy"
"1963-12-25 09:00","1963","12","25","09:00","-2.8","","-7.2","","73","","32","","26","","25.0","","98.42","","","","-10","","Mostly Cloudy"
"1963-12-25 10:00","1963","12","25","10:00","-3.9","","-8.3","","73","","29","","23","","25.0","","98.50","","","","-11","","Mainly Clear"
"1963-12-25 11:00","1963","12","25","11:00","-3.3","","-7.2","","76","","29","","26","","25.0","","98.59","","","","-10","","Mostly Cloudy"
"1963-12-25 12:00","1963","12","25","12:00","-3.9","","-7.2","","77","","29","","23","","25.0","","98.56","","","","-11","","Mainly Clear"
"1963-12-25 13:00","1963","12","25","13:00","-3.9","","-7.8","","74","","27","","16","","25.0","","98.54","","","","-9","","Snow Showers"
"1963-12-25 14:00","1963","12","25","14:00","-3.3","","-6.7","","77","","27","","13","","16.1","","98.49","","","","-8","","Snow Showers"
"1963-12-25 15:00","1963","12","25","15:00","-2.2","","-7.2","","70","","25","","14","","11.3","","98.47","","","","-7","","Snow Showers"
"1963-12-25 16:00","1963","12","25","16:00","-1.7","","-6.7","","70","","25","","23","","25.0","","98.51","","","","-8","","Cloudy"
"1963-12-25 17:00","1963","12","25","17:00","-1.7","","-6.1","","73","","25","","16","","24.1","","98.53","","","","-7","","Cloudy"
"1963-12-25 18:00","1963","12","25","18:00","-1.7","","-5.6","","74","","23","","16","","25.0","","98.55","","","","-7","","Mostly Cloudy"
"1963-12-25 19:00","1963","12","25","19:00","-2.2","","-6.1","","75","","23","","24","","19.3","","98.53","","","","-9","","Snow Showers"
"1963-12-25 20:00","1963","12","25","20:00","-2.2","","-5.6","","79","","23","","24","","16.1","","98.53","","","","-9","","Snow Showers"
"1963-12-25 21:00","1963","12","25","21:00","-1.7","","-3.9","","85","","23","","19","","16.1","","98.48","","","","-7","","Snow Showers"
"1963-12-25 22:00","1963","12","25","22:00","-1.7","","-4.4","","83","","23","","19","","24.1","","98.52","","","","-7","","Cloudy"
"1963-12-25 23:00","1963","12","25","23:00","-1.7","","-3.9","","84","","23","","19","","25.0","","98.54","","","","-7","","Cloudy"
"1963-12-26 00:00","1963","12","26","00:00","-1.7","","-3.9","","84","","23","","19","","24.1","","98.55","","","","-7","","Cloudy"
"1963-12-26 01:00","1963","12","26","01:00","-1.1","","-3.3","","85","","23","","19","","24.1","","98.52","","","","-6","","Cloudy"
"1963-12-26 02:00","1963","12","26","02:00","-0.6","","-3.3","","82","","23","","10","","24.1","","98.48","","","","-4","","Cloudy"
"1963-12-26 03:00","1963","12","26","03:00","-0.6","","-3.3","","82","","20","","8","","24.1","","98.50","","","","-3","","Cloudy"
"1963-12-26 04:00","1963","12","26","04:00","-0.6","","-3.3","","82","","20","","10","","24.1","","98.42","","","","-4","","Cloudy"
"1963-12-26 05:00","1963","12","26","05:00","-0.6","","-3.3","","82","","18","","6","","19.3","","98.36","","","","-3","","Cloudy"
"1963-12-26 06:00","1963","12","26","06:00","-0.6","","-2.8","","85","","14","","6","","16.1","","98.29","","","","-3","","Snow"
"1963-12-26 07:00","1963","12","26","07:00","-1.1","","-2.8","","87","","7","","19","","16.1","","98.25","","","","-6","","Snow"
"1963-12-26 08:00","1963","12","26","08:00","-3.9","","-5.0","","93","","7","","24","","16.1","","98.36","","","","-11","","Freezing Drizzle,Snow"
"1963-12-26 09:00","1963","12","26","09:00","-5.6","","-7.2","","90","","5","","32","","4.0","","98.34","","","","-14","","Snow Grains"
"1963-12-26 10:00","1963","12","26","10:00","-6.7","","-8.9","","86","","7","","29","","1.2","","98.41","","","","-15","","Snow,Fog"
"1963-12-26 11:00","1963","12","26","11:00","-7.8","","-10.0","","83","","7","","21","","4.8","","98.42","","","","-15","","Snow,Fog"
"1963-12-26 12:00","1963","12","26","12:00","-8.3","","-10.6","","82","","5","","24","","2.4","","98.40","","","","-16","","Snow,Fog"
"1963-12-26 13:00","1963","12","26","13:00","-8.9","","-11.1","","83","","7","","23","","2.4","","98.43","","","","-17","","Snow,Fog"
"1963-12-26 14:00","1963","12","26","14:00","-9.4","","-11.7","","84","","5","","16","","2.0","","98.49","","","","-16","","Snow,Fog"
"1963-12-26 15:00","1963","12","26","15:00","-10.6","","-12.8","","82","","7","","26","","2.0","","98.52","","","","-20","","Snow,Fog"
"1963-12-26 16:00","1963","12","26","16:00","-10.6","","-12.8","","85","","5","","21","","2.0","","98.58","","","","-19","","Snow,Fog"
"1963-12-26 17:00","1963","12","26","17:00","-10.0","","-12.8","","81","","5","","16","","2.4","","98.69","","","","-17","","Snow"
"1963-12-26 18:00","1963","12","26","18:00","-10.6","","-13.3","","81","","2","","14","","4.0","","98.74","","","","-17","","Snow"
"1963-12-26 19:00","1963","12","26","19:00","-10.6","","-13.3","","79","","2","","21","","12.9","","98.81","","","","-19","","Snow"
"1963-12-26 20:00","1963","12","26","20:00","-10.6","","-13.9","","77","","5","","13","","12.9","","98.85","","","","-17","","Snow"
"1963-12-26 21:00","1963","12","26","21:00","-11.1","","-13.9","","78","","2","","14","","9.7","","98.89","","","","-18","","Snow"
"1963-12-26 22:00","1963","12","26","22:00","-11.7","","-13.9","","82","","2","","16","","4.0","","98.90","","","","-19","","Snow"
"1963-12-26 23:00","1963","12","26","23:00","-11.7","","-13.9","","82","","2","","18","","4.0","","98.93","","","","-20","","Snow"
"1963-12-27 00:00","1963","12","27","00:00","-12.2","","-14.4","","85","","2","","16","","8.0","","98.93","","","","-20","","Snow"
"1963-12-27 01:00","1963","12","27","01:00","-13.3","","-15.0","","86","","2","","13","","25.0","","98.96","","","","-20","","Snow"
"1963-12-27 02:00","1963","12","27","02:00","-13.9","","-16.7","","79","","36","","19","","25.0","","99.01","","","","-23","","Cloudy"
"1963-12-27 03:00","1963","12","27","03:00","-15.0","","-18.9","","74","","2","","21","","25.0","","99.05","","","","-24","","Cloudy"
"1963-12-27 04:00","1963","12","27","04:00","-14.4","","-18.3","","73","","2","","13","","25.0","","99.01","","","","-22","","Cloudy"
"1963-12-27 05:00","1963","12","27","05:00","-14.4","","-18.3","","73","","36","","14","","25.0","","99.04","","","","-22","","Cloudy"
"1963-12-27 06:00","1963","12","27","06:00","-13.9","","-18.3","","70","","2","","11","","25.0","","99.08","","","","-20","","Snow"
"1963-12-27 07:00","1963","12","27","07:00","-14.4","","-18.3","","73","","36","","16","","6.4","","99.11","","","","-22","","Snow"
"1963-12-27 08:00","1963","12","27","08:00","-15.0","","-17.8","","80","","36","","14","","6.4","","99.11","","","","-23","","Snow"
"1963-12-27 09:00","1963","12","27","09:00","-15.0","","-17.8","","80","","34","","14","","2.0","","99.15","","","","-23","","Snow"
"1963-12-27 10:00","1963","12","27","10:00","-14.4","","-17.2","","79","","36","","18","","3.2","","99.14","","","","-23","","Snow"
"1963-12-27 11:00","1963","12","27","11:00","-13.9","","-16.7","","79","","36","","13","","6.4","","99.15","","","","-21","","Snow"
"1963-12-27 12:00","1963","12","27","12:00","-13.3","","-16.1","","78","","36","","6","","4.8","","99.07","","","","-17","","Snow"
"1963-12-27 13:00","1963","12","27","13:00","-12.8","","-16.1","","76","","34","","8","","4.8","","99.05","","","","-18","","Snow"
"1963-12-27 14:00","1963","12","27","14:00","-12.2","","-15.0","","78","","34","","6","","4.8","","99.05","","","","-16","","Snow"
"1963-12-27 15:00","1963","12","27","15:00","-11.7","","-14.4","","79","","2","","3","","6.4","","99.06","","","","-14","","Snow"
"1963-12-27 16:00","1963","12","27","16:00","-11.7","","-14.4","","79","","","","0","","24.1","","99.08","","","","","","Mostly Cloudy"
"1963-12-27 17:00","1963","12","27","17:00","-10.6","","-13.3","","81","","","","0","","4.8","","99.08","","","","","","Snow"
"1963-12-27 18:00","1963","12","27","18:00","-11.1","","-13.3","","85","","","","0","","12.9","","99.11","","","","","","Snow"
"1963-12-27 19:00","1963","12","27","19:00","-11.7","","-13.9","","84","","","","0","","2.4","","99.13","","","","","","Snow"
"1963-12-27 20:00","1963","12","27","20:00","-11.7","","-13.9","","84","","2","","5","","3.2","","99.15","","","","-15","","Snow"
"1963-12-27 21:00","1963","12","27","21:00","-11.7","","-13.9","","84","","2","","8","","1.6","","99.17","","","","-16","","Snow"
"1963-12-27 22:00","1963","12","27","22:00","-12.2","","-14.4","","83","","36","","8","","1.6","","99.19","","","","-17","","Snow"
"1963-12-27 23:00","1963","12","27","23:00","-10.6","","-13.3","","81","","29","","5","","9.7","","99.21","","","","-14","","Snow"
"1963-12-28 00:00","1963","12","28","00:00","-10.6","","-12.8","","82","","34","","6","","4.8","","99.21","","","","-14","","Snow"
"1963-12-28 01:00","1963","12","28","01:00","-10.6","","-12.8","","82","","34","","6","","4.8","","99.21","","","","-14","","Snow"
"1963-12-28 02:00","1963","12","28","02:00","-11.1","","-13.9","","81","","36","","8","","12.9","","99.23","","","","-16","","Snow"
"1963-12-28 03:00","1963","12","28","03:00","-13.3","","-15.6","","82","","32","","6","","12.9","","99.33","","","","-17","","Mainly Clear"
"1963-12-28 04:00","1963","12","28","04:00","-16.1","","-17.8","","85","","34","","5","","1.6","","99.32","","","","-20","","Fog"
"1963-12-28 05:00","1963","12","28","05:00","-18.3","","-20.0","","86","","32","","5","","0.2","","99.35","","","","-22","","Fog"
"1963-12-28 06:00","1963","12","28","06:00","-16.1","","-17.8","","85","","27","","11","","12.9","","99.41","","","","-23","","Mostly Cloudy"
"1963-12-28 07:00","1963","12","28","07:00","-14.4","","-16.7","","85","","27","","8","","16.1","","99.44","","","","-20","","Mostly Cloudy"
"1963-12-28 08:00","1963","12","28","08:00","-13.3","","-15.0","","86","","25","","8","","6.4","","99.42","","","","-18","","Fog"
"1963-12-28 09:00","1963","12","28","09:00","-12.8","","-15.0","","85","","23","","13","","3.2","","99.45","","","","-20","","Fog"
"1963-12-28 10:00","1963","12","28","10:00","-11.1","","-13.3","","85","","23","","16","","6.4","","99.43","","","","-18","","Fog"
"1963-12-28 11:00","1963","12","28","11:00","-7.2","","-10.0","","81","","23","","13","","11.3","","99.42","","","","-13","","Mainly Clear"
"1963-12-28 12:00","1963","12","28","12:00","-5.0","","-9.4","","72","","25","","23","","16.1","","99.37","","","","-12","","Mainly Clear"
"1963-12-28 13:00","1963","12","28","13:00","-5.0","","-9.4","","72","","25","","29","","24.1","","99.33","","","","-13","","Mostly Cloudy"
"1963-12-28 14:00","1963","12","28","14:00","-5.6","","-10.6","","68","","25","","26","","25.0","","99.33","","","","-13","","Mostly Cloudy"
"1963-12-28 15:00","1963","12","28","15:00","-5.6","","-10.6","","69","","25","","23","","25.0","","99.33","","","","-13","","Mainly Clear"
"1963-12-28 16:00","1963","12","28","16:00","-6.7","","-10.6","","73","","25","","24","","25.0","","99.36","","","","-14","","Mainly Clear"
"1963-12-28 17:00","1963","12","28","17:00","-7.2","","-10.6","","77","","25","","21","","25.0","","99.37","","","","-15","","Mostly Cloudy"
"1963-12-28 18:00","1963","12","28","18:00","-7.8","","-10.6","","79","","25","","24","","25.0","","99.42","","","","-16","","Mostly Cloudy"
"1963-12-28 19:00","1963","12","28","19:00","-8.3","","-10.6","","84","","25","","24","","25.0","","99.48","","","","-16","","Mostly Cloudy"
"1963-12-28 20:00","1963","12","28","20:00","-10.0","","-11.7","","86","","25","","21","","25.0","","99.53","","","","-18","","Mainly Clear"
"1963-12-28 21:00","1963","12","28","21:00","-10.0","","-11.7","","86","","25","","21","","25.0","","99.52","","","","-18","","Mainly Clear"
"1963-12-28 22:00","1963","12","28","22:00","-11.1","","-12.2","","90","","23","","19","","25.0","","99.55","","","","-19","","Mainly Clear"
"1963-12-28 23:00","1963","12","28","23:00","-11.7","","-12.2","","94","","23","","11","","25.0","","99.52","","","","-18","","Mainly Clear"
"1963-12-29 00:00","1963","12","29","00:00","-12.2","","-13.3","","92","","23","","13","","25.0","","99.48","","","","-19","","Mostly Cloudy"
"1963-12-29 01:00","1963","12","29","01:00","-11.1","","-12.2","","93","","23","","11","","19.3","","99.44","","","","-17","","Snow"
"1963-12-29 02:00","1963","12","29","02:00","-11.1","","-11.7","","95","","23","","16","","24.1","","99.44","","","","-18","","Mostly Cloudy"
"1963-12-29 03:00","1963","12","29","03:00","-11.1","","-12.8","","88","","23","","8","","24.1","","99.46","","","","-16","","Mostly Cloudy"
"1963-12-29 04:00","1963","12","29","04:00","-9.4","","-11.7","","85","","23","","19","","24.1","","99.44","","","","-17","","Snow"
"1963-12-29 05:00","1963","12","29","05:00","-8.9","","-10.6","","87","","23","","16","","16.1","","99.46","","","","-16","","Snow"
"1963-12-29 06:00","1963","12","29","06:00","-10.6","","-12.2","","89","","23","","13","","24.1","","99.49","","","","-17","","Snow"
"1963-12-29 07:00","1963","12","29","07:00","-10.6","","-12.8","","84","","23","","16","","24.1","","99.52","","","","-18","","Mostly Cloudy"
"1963-12-29 08:00","1963","12","29","08:00","-11.1","","-13.3","","85","","23","","10","","19.3","","99.56","","","","-17","","Mainly Clear"
"1963-12-29 09:00","1963","12","29","09:00","-11.7","","-15.0","","77","","23","","13","","19.3","","99.60","","","","-18","","Mainly Clear"
"1963-12-29 10:00","1963","12","29","10:00","-10.0","","-13.9","","74","","23","","16","","16.1","","99.60","","","","-17","","Mainly Clear"
"1963-12-29 11:00","1963","12","29","11:00","-7.2","","-13.3","","63","","25","","26","","24.1","","99.63","","","","-15","","Mainly Clear"
"1963-12-29 12:00","1963","12","29","12:00","-8.3","","-13.9","","65","","25","","29","","25.0","","99.61","","","","-17","","Mainly Clear"
"1963-12-29 13:00","1963","12","29","13:00","-8.3","","-14.4","","63","","25","","26","","25.0","","99.61","","","","-17","","Mainly Clear"
"1963-12-29 14:00","1963","12","29","14:00","-8.3","","-13.9","","65","","25","","26","","25.0","","99.61","","","","-17","","Mainly Clear"
"1963-12-29 15:00","1963","12","29","15:00","-8.3","","-13.3","","67","","25","","29","","25.0","","99.67","","","","-17","","Mainly Clear"
"1963-12-29 16:00","1963","12","29","16:00","-8.3","","-12.8","","70","","25","","29","","25.0","","99.75","","","","-17","","Mainly Clear"
"1963-12-29 17:00","1963","12","29","17:00","-8.9","","-12.8","","73","","25","","27","","2.4","","99.85","","","","-18","","Snow Showers"
"1963-12-29 18:00","1963","12","29","18:00","-9.4","","-13.3","","75","","29","","19","","19.3","","99.99","","","","-17","","Cloudy"
"1963-12-29 19:00","1963","12","29","19:00","-10.0","","-14.4","","71","","34","","13","","25.0","","100.12","","","","-16","","Mostly Cloudy"
"1963-12-29 20:00","1963","12","29","20:00","-12.8","","-16.1","","76","","32","","16","","25.0","","100.22","","","","-20","","Clear"
"1963-12-29 21:00","1963","12","29","21:00","-14.4","","-17.2","","79","","29","","23","","25.0","","100.29","","","","-24","","Mainly Clear"
"1963-12-29 22:00","1963","12","29","22:00","-15.0","","-17.8","","78","","27","","23","","25.0","","100.35","","","","-25","","Mainly Clear"
"1963-12-29 23:00","1963","12","29","23:00","-15.0","","-17.8","","78","","27","","26","","25.0","","100.43","","","","-25","","Mainly Clear"
"1963-12-30 00:00","1963","12","30","00:00","-15.0","","-18.3","","76","","27","","19","","25.0","","100.51","","","","-24","","Mainly Clear"
"1963-12-30 01:00","1963","12","30","01:00","-15.0","","-19.4","","68","","34","","10","","25.0","","100.59","","","","-21","","Mainly Clear"
"1963-12-30 02:00","1963","12","30","02:00","-17.8","","-20.6","","79","","34","","3","","25.0","","100.70","","","","-20","","Mainly Clear"
"1963-12-30 03:00","1963","12","30","03:00","-17.8","","-20.6","","79","","","","0","","25.0","","100.79","","","","","","Mainly Clear"
"1963-12-30 04:00","1963","12","30","04:00","-17.8","","-21.1","","74","","36","","13","","25.0","","100.82","","","","-26","","Mostly Cloudy"
"1963-12-30 05:00","1963","12","30","05:00","-18.3","","-21.7","","76","","2","","13","","25.0","","100.88","","","","-26","","Cloudy"
"1963-12-30 06:00","1963","12","30","06:00","-17.8","","-21.1","","76","","36","","10","","25.0","","100.99","","","","-25","","Cloudy"
"1963-12-30 07:00","1963","12","30","07:00","-17.8","","-21.7","","71","","36","","8","","25.0","","101.06","","","","-24","","Mostly Cloudy"
"1963-12-30 08:00","1963","12","30","08:00","-19.4","","-24.4","","66","","36","","10","","25.0","","101.14","","","","-26","","Mainly Clear"
"1963-12-30 09:00","1963","12","30","09:00","-18.9","","-23.9","","64","","34","","8","","25.0","","101.21","","","","-25","","Mainly Clear"
"1963-12-30 10:00","1963","12","30","10:00","-17.8","","-22.8","","61","","18","","6","","25.0","","101.30","","","","-22","","Mainly Clear"
"1963-12-30 11:00","1963","12","30","11:00","-15.0","","-21.1","","59","","18","","5","","24.1","","101.34","","","","-19","","Mainly Clear"
"1963-12-30 12:00","1963","12","30","12:00","-13.9","","-20.6","","56","","","","0","","24.1","","101.37","","","","","","Mainly Clear"
"1963-12-30 13:00","1963","12","30","13:00","-12.2","","-18.9","","57","","","","0","","19.3","","101.33","","","","","","Mainly Clear"
"1963-12-30 14:00","1963","12","30","14:00","-7.8","","-13.9","","61","","25","","19","","19.3","","101.30","","","","-15","","Mainly Clear"
"1963-12-30 15:00","1963","12","30","15:00","-7.8","","-13.9","","61","","25","","26","","19.3","","101.34","","","","-16","","Mainly Clear"
"1963-12-30 16:00","1963","12","30","16:00","-8.9","","-13.9","","67","","25","","23","","24.1","","101.40","","","","-17","","Mainly Clear"
"1963-12-30 17:00","1963","12","30","17:00","-10.0","","-13.9","","72","","25","","23","","24.1","","101.45","","","","-18","","Mainly Clear"
"1963-12-30 18:00","1963","12","30","18:00","-11.7","","-15.6","","72","","25","","19","","25.0","","101.52","","","","-20","","Clear"
"1963-12-30 19:00","1963","12","30","19:00","-12.2","","-15.6","","75","","25","","19","","25.0","","101.63","","","","-20","","Clear"
"1963-12-30 20:00","1963","12","30","20:00","-12.8","","-16.1","","77","","25","","19","","25.0","","101.66","","","","-21","","Clear"
"1963-12-30 21:00","1963","12","30","21:00","-13.9","","-17.2","","76","","25","","19","","24.1","","101.65","","","","-23","","Clear"
"1963-12-30 22:00","1963","12","30","22:00","-15.0","","-17.8","","78","","25","","18","","24.1","","101.67","","","","-24","","Clear"
"1963-12-30 23:00","1963","12","30","23:00","-15.6","","-18.9","","77","","25","","14","","24.1","","101.70","","","","-23","","Clear"
"1963-12-31 00:00","1963","12","31","00:00","-15.6","","-18.9","","77","","25","","10","","24.1","","101.71","","","","-22","","Clear"
"1963-12-31 01:00","1963","12","31","01:00","-15.0","","-18.3","","76","","25","","5","","24.1","","101.69","","","","-19","","Clear"
"1963-12-31 02:00","1963","12","31","02:00","-15.0","","-18.9","","74","","23","","11","","24.1","","101.71","","","","-22","","Clear"
"1963-12-31 03:00","1963","12","31","03:00","-15.6","","-19.4","","73","","25","","10","","24.1","","101.74","","","","-22","","Clear"
"1963-12-31 04:00","1963","12","31","04:00","-16.1","","-19.4","","74","","25","","14","","24.1","","101.73","","","","-24","","Clear"
"1963-12-31 05:00","1963","12","31","05:00","-16.7","","-20.6","","73","","25","","14","","25.0","","101.74","","","","-25","","Clear"
"1963-12-31 06:00","1963","12","31","06:00","-15.6","","-18.9","","75","","25","","10","","25.0","","101.74","","","","-22","","Clear"
"1963-12-31 07:00","1963","12","31","07:00","-16.1","","-19.4","","74","","25","","11","","25.0","","101.77","","","","-23","","Clear"
"1963-12-31 08:00","1963","12","31","08:00","-16.7","","-19.4","","78","","25","","14","","19.3","","101.83","","","","-25","","Mainly Clear"
"1963-12-31 09:00","1963","12","31","09:00","-14.4","","-17.8","","77","","27","","10","","16.1","","101.83","","","","-21","","Mainly Clear"
"1963-12-31 10:00","1963","12","31","10:00","-15.0","","-17.8","","78","","23","","11","","19.3","","101.83","","","","-22","","Mainly Clear"
"1963-12-31 11:00","1963","12","31","11:00","-12.2","","-16.1","","73","","23","","6","","19.3","","101.79","","","","-16","","Mainly Clear"
"1963-12-31 12:00","1963","12","31","12:00","-11.1","","-14.4","","75","","25","","5","","16.1","","101.71","","","","-14","","Clear"
"1963-12-31 13:00","1963","12","31","13:00","-8.3","","-11.1","","81","","25","","5","","12.9","","101.67","","","","-11","","Clear"
"1963-12-31 14:00","1963","12","31","14:00","-7.2","","-12.8","","64","","25","","10","","12.9","","101.58","","","","-12","","Clear"
"1963-12-31 15:00","1963","12","31","15:00","-7.2","","-13.9","","59","","23","","5","","12.9","","101.50","","","","-10","","Clear"
"1963-12-31 16:00","1963","12","31","16:00","-7.8","","-12.8","","68","","20","","6","","16.1","","101.40","","","","-11","","Clear"
"1963-12-31 17:00","1963","12","31","17:00","-8.3","","-13.3","","68","","18","","5","","12.9","","101.36","","","","-11","","Mainly Clear"
"1963-12-31 18:00","1963","12","31","18:00","-10.6","","-13.3","","79","","18","","6","","19.3","","101.34","","","","-14","","Clear"
"1963-12-31 19:00","1963","12","31","19:00","-13.9","","-17.2","","78","","18","","5","","24.1","","101.32","","","","-17","","Clear"
"1963-12-31 20:00","1963","12","31","20:00","-13.3","","-16.7","","76","","27","","10","","25.0","","101.32","","","","-19","","Clear"
"1963-12-31 21:00","1963","12","31","21:00","-15.0","","-17.2","","82","","27","","8","","25.0","","101.20","","","","-20","","Clear"
"1963-12-31 22:00","1963","12","31","22:00","-17.2","","-20.0","","80","","27","","3","","25.0","","101.11","","","","-20","","Clear"
"1963-12-31 23:00","1963","12","31","23:00","-18.3","","-20.6","","81","","27","","5","","25.0","","101.08","","","","-22","","Clear"
