"Station Name","TORONTO LESTER B. PEARSON INT'L A"
"Province","ONTARIO"
"Latitude","43.68"
"Longitude","-79.63"
"Elevation","173.40"
"Climate Identifier","6158733"
"WMO Identifier","71624"
"TC Identifier","YYZ"
"All times are specified in Local Standard Time (LST). Add 1 hour to adjust for Daylight Saving Time where and when it is observed."

"Legend"
"E","Estimated"
"M","Missing"
"NA","Not Available"

"Date/Time","Year","Month","Day","Time","Temp (°C)","Temp Flag","Dew Point Temp (°C)","Dew Point Temp Flag","Rel Hum (%)","Rel Hum Flag","Wind Dir (10s deg)","Wind Dir Flag","Wind Spd (km/h)","Wind Spd Flag","Visibility (km)","Visibility Flag","Stn Press (kPa)","Stn Press Flag","Hmdx","Hmdx Flag","Wind Chill","Wind Chill Flag","Weather"
"1999-09-01 00:00","1999","09","01","00:00","16.7","","12.3","","75","","8","","6","","24.1","","100.25","","","","","","Clear"
"1999-09-01 01:00","1999","09","01","01:00","15.5","","11.4","","77","","8","","4","","24.1","","100.25","","","","","","Clear"
"1999-09-01 02:00","1999","09","01","02:00","13.9","","11.0","","83","","","","0","","24.1","","100.22","","","","","","Clear"
"1999-09-01 03:00","1999","09","01","03:00","13.0","","10.8","","86","","1","","7","","24.1","","100.25","","","","","","Clear"
"1999-09-01 04:00","1999","09","01","04:00","12.8","","10.9","","88","","1","","6","","24.1","","100.25","","","","","","Clear"
"1999-09-01 05:00","1999","09","01","05:00","12.5","","10.9","","90","","36","","7","","24.1","","100.32","","","","","","Clear"
"1999-09-01 06:00","1999","09","01","06:00","12.9","","11.3","","90","","1","","6","","19.3","","100.32","","","","","","Mainly Clear"
"1999-09-01 07:00","1999","09","01","07:00","14.4","","11.8","","84","","36","","6","","16.1","","100.35","","","","","","Mainly Clear"
"1999-09-01 08:00","1999","09","01","08:00","18.2","","12.6","","70","","1","","6","","16.1","","100.35","","","","","","Mainly Clear"
"1999-09-01 09:00","1999","09","01","09:00","21.0","","12.8","","59","","","","0","","19.3","","100.35","","","","","","Mainly Clear"
"1999-09-01 10:00","1999","09","01","10:00","23.7","","11.3","","46","","14","","4","","19.3","","100.29","","26","","","","Mainly Clear"
"1999-09-01 11:00","1999","09","01","11:00","23.7","","14.4","","56","","15","","13","","24.1","","100.25","","27","","","","Mostly Cloudy"
"1999-09-01 12:00","1999","09","01","12:00","24.2","","14.1","","53","","15","","13","","24.1","","100.22","","28","","","","Mostly Cloudy"
"1999-09-01 13:00","1999","09","01","13:00","26.2","","14.2","","48","","18","","15","","24.1","","100.19","","30","","","","Mostly Cloudy"
"1999-09-01 14:00","1999","09","01","14:00","25.3","","12.5","","45","","18","","13","","24.1","","100.15","","28","","","","Mostly Cloudy"
"1999-09-01 15:00","1999","09","01","15:00","24.5","","12.1","","46","","15","","15","","24.1","","100.12","","27","","","","Mostly Cloudy"
"1999-09-01 16:00","1999","09","01","16:00","25.4","","12.3","","44","","13","","13","","24.1","","100.05","","28","","","","Mostly Cloudy"
"1999-09-01 17:00","1999","09","01","17:00","24.7","","11.9","","45","","18","","11","","24.1","","100.05","","27","","","","Mostly Cloudy"
"1999-09-01 18:00","1999","09","01","18:00","25.1","","11.8","","43","","13","","7","","19.3","","100.02","","27","","","","Mostly Cloudy"
"1999-09-01 19:00","1999","09","01","19:00","23.5","","12.0","","48","","17","","11","","24.1","","100.02","","26","","","","Mostly Cloudy"
"1999-09-01 20:00","1999","09","01","20:00","21.3","","13.4","","61","","18","","4","","24.1","","100.05","","","","","","Mostly Cloudy"
"1999-09-01 21:00","1999","09","01","21:00","20.6","","13.8","","65","","18","","4","","24.1","","100.05","","","","","","Mainly Clear"
"1999-09-01 22:00","1999","09","01","22:00","20.5","","11.8","","57","","","","0","","24.1","","100.02","","","","","","Clear"
"1999-09-01 23:00","1999","09","01","23:00","19.1","","12.7","","66","","18","","6","","25.0","","100.02","","","","","","Mainly Clear"
"1999-09-02 00:00","1999","09","02","00:00","17.7","","12.5","","72","","18","","4","","24.1","","100.02","","","","","","Clear"
"1999-09-02 01:00","1999","09","02","01:00","16.9","","12.1","","73","","","","0","","24.1","","99.99","","","","","","Mainly Clear"
"1999-09-02 02:00","1999","09","02","02:00","17.1","","12.1","","72","","18","","6","","24.1","","99.99","","","","","","Mainly Clear"
"1999-09-02 03:00","1999","09","02","03:00","15.8","","12.1","","79","","18","","6","","16.1","","100.02","","","","","","Mainly Clear"
"1999-09-02 04:00","1999","09","02","04:00","15.6","","11.9","","79","","18","","4","","16.1","","100.02","","","","","","Clear"
"1999-09-02 05:00","1999","09","02","05:00","14.4","","11.9","","85","","1","","6","","19.3","","100.05","","","","","","Mostly Cloudy"
"1999-09-02 06:00","1999","09","02","06:00","14.2","","12.1","","87","","1","","4","","16.1","","100.05","","","","","","Mostly Cloudy"
"1999-09-02 07:00","1999","09","02","07:00","16.3","","12.8","","80","","1","","6","","16.1","","100.09","","","","","","Mostly Cloudy"
"1999-09-02 08:00","1999","09","02","08:00","19.2","","13.2","","68","","1","","4","","19.3","","100.09","","","","","","Mostly Cloudy"
"1999-09-02 09:00","1999","09","02","09:00","21.7","","14.4","","63","","28","","6","","19.3","","100.09","","25","","","","Mostly Cloudy"
"1999-09-02 10:00","1999","09","02","10:00","24.7","","13.5","","50","","28","","6","","19.3","","100.05","","28","","","","Mainly Clear"
"1999-09-02 11:00","1999","09","02","11:00","26.4","","13.1","","44","","29","","4","","19.3","","100.02","","29","","","","Mainly Clear"
"1999-09-02 12:00","1999","09","02","12:00","27.5","","12.7","","40","","","","0","","19.3","","99.99","","30","","","","Mainly Clear"
"1999-09-02 13:00","1999","09","02","13:00","28.6","","13.8","","40","","14","","15","","19.3","","99.95","","32","","","","Clear"
"1999-09-02 14:00","1999","09","02","14:00","28.9","","12.1","","35","","11","","6","","24.1","","99.89","","31","","","","Clear"
"1999-09-02 15:00","1999","09","02","15:00","29.3","","10.7","","32","","16","","15","","24.1","","99.85","","31","","","","Clear"
"1999-09-02 16:00","1999","09","02","16:00","28.7","","11.3","","34","","15","","15","","24.1","","99.79","","31","","","","Clear"
"1999-09-02 17:00","1999","09","02","17:00","29.1","","11.4","","33","","17","","11","","24.1","","99.79","","31","","","","Clear"
"1999-09-02 18:00","1999","09","02","18:00","27.9","","10.1","","33","","16","","11","","19.3","","99.75","","29","","","","Clear"
"1999-09-02 19:00","1999","09","02","19:00","26.1","","11.3","","40","","17","","7","","19.3","","99.79","","28","","","","Clear"
"1999-09-02 20:00","1999","09","02","20:00","23.9","","12.7","","49","","16","","4","","24.1","","99.82","","27","","","","Clear"
"1999-09-02 21:00","1999","09","02","21:00","23.7","","11.7","","47","","","","0","","24.1","","99.85","","26","","","","Clear"
"1999-09-02 22:00","1999","09","02","22:00","22.0","","13.2","","57","","1","","7","","24.1","","99.85","","25","","","","Clear"
"1999-09-02 23:00","1999","09","02","23:00","20.4","","14.3","","68","","36","","13","","24.1","","99.85","","","","","","Clear"
"1999-09-03 00:00","1999","09","03","00:00","19.6","","13.8","","69","","35","","15","","24.1","","99.89","","","","","","Clear"
"1999-09-03 01:00","1999","09","03","01:00","18.6","","13.6","","73","","35","","15","","24.1","","99.85","","","","","","Clear"
"1999-09-03 02:00","1999","09","03","02:00","17.8","","13.5","","76","","35","","9","","16.1","","99.85","","","","","","Clear"
"1999-09-03 03:00","1999","09","03","03:00","17.3","","13.1","","76","","34","","11","","16.1","","99.85","","","","","","Clear"
"1999-09-03 04:00","1999","09","03","04:00","16.9","","12.8","","77","","35","","11","","16.1","","99.85","","","","","","Clear"
"1999-09-03 05:00","1999","09","03","05:00","16.4","","12.6","","78","","35","","9","","16.1","","99.85","","","","","","Clear"
"1999-09-03 06:00","1999","09","03","06:00","16.5","","12.7","","78","","32","","7","","16.1","","99.92","","","","","","Clear"
"1999-09-03 07:00","1999","09","03","07:00","18.8","","13.1","","69","","34","","11","","16.1","","99.95","","","","","","Clear"
"1999-09-03 08:00","1999","09","03","08:00","21.3","","13.4","","61","","34","","4","","16.1","","99.95","","","","","","Clear"
"1999-09-03 09:00","1999","09","03","09:00","23.7","","13.3","","52","","","","0","","16.1","","99.95","","27","","","","Clear"
"1999-09-03 10:00","1999","09","03","10:00","25.9","","13.3","","46","","34","","4","","16.1","","99.95","","29","","","","Clear"
"1999-09-03 11:00","1999","09","03","11:00","27.7","","13.2","","41","","29","","4","","16.1","","99.92","","31","","","","Clear"
"1999-09-03 12:00","1999","09","03","12:00","29.3","","9.3","","29","","","","0","","19.3","","99.89","","30","","","","Clear"
"1999-09-03 13:00","1999","09","03","13:00","29.5","","13.7","","38","","16","","9","","19.3","","99.85","","33","","","","Clear"
"1999-09-03 14:00","1999","09","03","14:00","30.0","","13.6","","37","","17","","13","","16.1","","99.82","","33","","","","Clear"
"1999-09-03 15:00","1999","09","03","15:00","30.7","","13.4","","35","","18","","11","","16.1","","99.75","","34","","","","Clear"
"1999-09-03 16:00","1999","09","03","16:00","30.4","","13.2","","35","","14","","11","","16.1","","99.72","","33","","","","Clear"
"1999-09-03 17:00","1999","09","03","17:00","29.7","","12.2","","34","","16","","11","","19.3","","99.72","","32","","","","Clear"
"1999-09-03 18:00","1999","09","03","18:00","28.2","","11.1","","35","","16","","9","","19.3","","99.72","","30","","","","Clear"
"1999-09-03 19:00","1999","09","03","19:00","26.8","","10.3","","36","","15","","4","","16.1","","99.75","","28","","","","Clear"
"1999-09-03 20:00","1999","09","03","20:00","25.0","","11.3","","42","","","","0","","19.3","","99.79","","27","","","","Clear"
"1999-09-03 21:00","1999","09","03","21:00","25.1","","10.4","","40","","","","0","","24.1","","99.79","","27","","","","Clear"
"1999-09-03 22:00","1999","09","03","22:00","23.2","","11.7","","48","","","","0","","24.1","","99.79","","25","","","","Clear"
"1999-09-03 23:00","1999","09","03","23:00","21.6","","13.4","","60","","36","","7","","16.1","","99.79","","25","","","","Clear"
"1999-09-04 00:00","1999","09","04","00:00","21.3","","13.7","","62","","36","","7","","16.1","","99.79","","","","","","Clear"
"1999-09-04 01:00","1999","09","04","01:00","20.0","","13.1","","64","","34","","11","","16.1","","99.75","","","","","","Clear"
"1999-09-04 02:00","1999","09","04","02:00","19.7","","12.8","","64","","35","","7","","16.1","","99.75","","","","","","Clear"
"1999-09-04 03:00","1999","09","04","03:00","18.8","","12.3","","66","","34","","4","","14.5","","99.82","","","","","","Clear"
"1999-09-04 04:00","1999","09","04","04:00","18.5","","12.3","","67","","36","","7","","16.1","","99.82","","","","","","Clear"
"1999-09-04 05:00","1999","09","04","05:00","18.5","","12.6","","68","","34","","7","","16.1","","99.85","","","","","","Mainly Clear"
"1999-09-04 06:00","1999","09","04","06:00","18.6","","12.7","","69","","36","","11","","19.3","","99.89","","","","","","Mostly Cloudy"
"1999-09-04 07:00","1999","09","04","07:00","19.6","","13.2","","67","","36","","9","","19.3","","99.92","","","","","","Mostly Cloudy"
"1999-09-04 08:00","1999","09","04","08:00","22.2","","14.1","","60","","2","","6","","19.3","","99.95","","26","","","","Mostly Cloudy"
"1999-09-04 09:00","1999","09","04","09:00","25.0","","14.6","","52","","11","","7","","16.1","","99.99","","29","","","","Mostly Cloudy"
"1999-09-04 10:00","1999","09","04","10:00","26.9","","14.7","","47","","10","","7","","16.1","","99.95","","31","","","","Mostly Cloudy"
"1999-09-04 11:00","1999","09","04","11:00","28.6","","14.2","","41","","14","","17","","19.3","","99.95","","32","","","","Cloudy"
"1999-09-04 12:00","1999","09","04","12:00","28.6","","11.8","","35","","13","","15","","24.1","","99.92","","31","","","","Cloudy"
"1999-09-04 13:00","1999","09","04","13:00","29.1","","11.6","","34","","12","","13","","24.1","","99.89","","31","","","","Cloudy"
"1999-09-04 14:00","1999","09","04","14:00","28.2","","12.0","","37","","12","","22","","25.0","","99.89","","30","","","","Cloudy"
"1999-09-04 15:00","1999","09","04","15:00","29.7","","13.4","","37","","14","","9","","25.0","","99.85","","33","","","","Mostly Cloudy"
"1999-09-04 16:00","1999","09","04","16:00","29.0","","13.2","","38","","11","","13","","25.0","","99.82","","32","","","","Mostly Cloudy"
"1999-09-04 17:00","1999","09","04","17:00","28.7","","12.8","","38","","13","","11","","25.0","","99.82","","31","","","","Mostly Cloudy"
"1999-09-04 18:00","1999","09","04","18:00","27.9","","11.6","","36","","10","","9","","25.0","","99.82","","30","","","","Mostly Cloudy"
"1999-09-04 19:00","1999","09","04","19:00","26.8","","11.9","","40","","9","","7","","25.0","","99.82","","29","","","","Mostly Cloudy"
"1999-09-04 20:00","1999","09","04","20:00","26.3","","11.9","","41","","8","","9","","24.1","","99.85","","29","","","","Cloudy"
"1999-09-04 21:00","1999","09","04","21:00","25.1","","11.6","","43","","9","","6","","19.3","","99.85","","27","","","","Cloudy"
"1999-09-04 22:00","1999","09","04","22:00","24.1","","12.1","","47","","11","","4","","19.3","","99.85","","26","","","","Mostly Cloudy"
"1999-09-04 23:00","1999","09","04","23:00","24.1","","12.5","","48","","6","","4","","19.3","","99.82","","27","","","","Cloudy"
"1999-09-05 00:00","1999","09","05","00:00","23.7","","12.8","","50","","7","","6","","19.3","","99.79","","26","","","","Cloudy"
"1999-09-05 01:00","1999","09","05","01:00","22.4","","13.4","","57","","2","","4","","19.3","","99.79","","25","","","","Cloudy"
"1999-09-05 02:00","1999","09","05","02:00","22.7","","15.6","","64","","9","","6","","24.1","","99.79","","27","","","","Cloudy"
"1999-09-05 03:00","1999","09","05","03:00","22.2","","17.2","","73","","9","","4","","24.1","","99.79","","28","","","","Cloudy"
"1999-09-05 04:00","1999","09","05","04:00","22.0","","18.2","","79","","","","0","","16.1","","99.82","","28","","","","Cloudy"
"1999-09-05 05:00","1999","09","05","05:00","21.6","","17.5","","78","","9","","4","","16.1","","99.82","","27","","","","Cloudy"
"1999-09-05 06:00","1999","09","05","06:00","21.6","","17.6","","78","","36","","4","","16.1","","99.82","","27","","","","Rain Showers"
"1999-09-05 07:00","1999","09","05","07:00","21.4","","17.0","","76","","35","","6","","14.5","","99.85","","27","","","","Cloudy"
"1999-09-05 08:00","1999","09","05","08:00","21.9","","17.2","","75","","4","","6","","16.1","","99.85","","27","","","","Cloudy"
"1999-09-05 09:00","1999","09","05","09:00","23.0","","18.7","","77","","10","","4","","14.5","","99.85","","30","","","","Cloudy"
"1999-09-05 10:00","1999","09","05","10:00","23.7","","18.9","","75","","8","","4","","14.5","","99.85","","30","","","","Cloudy"
"1999-09-05 11:00","1999","09","05","11:00","25.1","","18.1","","65","","7","","6","","14.5","","99.89","","31","","","","Cloudy"
"1999-09-05 12:00","1999","09","05","12:00","25.8","","18.0","","62","","12","","6","","19.3","","99.85","","32","","","","Cloudy"
"1999-09-05 13:00","1999","09","05","13:00","25.8","","17.8","","61","","13","","7","","19.3","","99.79","","32","","","","Cloudy"
"1999-09-05 14:00","1999","09","05","14:00","26.2","","18.3","","62","","12","","13","","19.3","","99.72","","32","","","","Cloudy"
"1999-09-05 15:00","1999","09","05","15:00","26.3","","18.6","","63","","9","","13","","19.3","","99.65","","33","","","","Cloudy"
"1999-09-05 16:00","1999","09","05","16:00","26.5","","18.5","","61","","9","","17","","19.3","","99.65","","33","","","","Cloudy"
"1999-09-05 17:00","1999","09","05","17:00","25.5","","18.3","","64","","11","","20","","19.3","","99.62","","32","","","","Mostly Cloudy"
"1999-09-05 18:00","1999","09","05","18:00","24.9","","16.4","","59","","9","","11","","24.1","","99.59","","30","","","","Mostly Cloudy"
"1999-09-05 19:00","1999","09","05","19:00","24.4","","16.3","","61","","9","","11","","24.1","","99.55","","29","","","","Mostly Cloudy"
"1999-09-05 20:00","1999","09","05","20:00","23.9","","14.4","","55","","9","","11","","24.1","","99.59","","28","","","","Mostly Cloudy"
"1999-09-05 21:00","1999","09","05","21:00","23.8","","14.3","","55","","9","","7","","24.1","","99.55","","27","","","","Mostly Cloudy"
"1999-09-05 22:00","1999","09","05","22:00","23.6","","15.2","","59","","9","","7","","24.1","","99.52","","28","","","","Mostly Cloudy"
"1999-09-05 23:00","1999","09","05","23:00","23.6","","15.6","","61","","9","","17","","24.1","","99.45","","28","","","","Mostly Cloudy"
"1999-09-06 00:00","1999","09","06","00:00","23.3","","17.1","","68","","9","","11","","24.1","","99.45","","29","","","","Mostly Cloudy"
"1999-09-06 01:00","1999","09","06","01:00","23.2","","17.6","","71","","8","","7","","24.1","","99.42","","29","","","","Mostly Cloudy"
"1999-09-06 02:00","1999","09","06","02:00","22.6","","18.9","","80","","8","","7","","24.1","","99.39","","29","","","","Rain Showers"
"1999-09-06 03:00","1999","09","06","03:00","22.3","","19.7","","85","","12","","11","","19.3","","99.32","","30","","","","Rain Showers"
"1999-09-06 04:00","1999","09","06","04:00","22.3","","20.3","","88","","9","","6","","24.1","","99.32","","30","","","","Cloudy"
"1999-09-06 05:00","1999","09","06","05:00","22.2","","20.2","","88","","10","","7","","24.1","","99.29","","30","","","","Mostly Cloudy"
"1999-09-06 06:00","1999","09","06","06:00","22.3","","19.8","","86","","11","","7","","19.3","","99.26","","30","","","","Cloudy"
"1999-09-06 07:00","1999","09","06","07:00","22.3","","20.1","","87","","9","","11","","19.3","","99.26","","30","","","","Cloudy"
"1999-09-06 08:00","1999","09","06","08:00","22.8","","20.3","","86","","14","","7","","19.3","","99.26","","31","","","","Cloudy"
"1999-09-06 09:00","1999","09","06","09:00","23.7","","20.7","","83","","14","","9","","19.3","","99.26","","32","","","","Mostly Cloudy"
"1999-09-06 10:00","1999","09","06","10:00","24.3","","20.7","","80","","14","","11","","19.3","","99.22","","32","","","","Mostly Cloudy"
"1999-09-06 11:00","1999","09","06","11:00","25.9","","20.8","","73","","16","","15","","19.3","","99.19","","34","","","","Mostly Cloudy"
"1999-09-06 12:00","1999","09","06","12:00","26.8","","20.3","","68","","14","","11","","24.1","","99.12","","35","","","","Mostly Cloudy"
"1999-09-06 13:00","1999","09","06","13:00","27.1","","20.2","","66","","17","","11","","19.3","","99.09","","35","","","","Mostly Cloudy"
"1999-09-06 14:00","1999","09","06","14:00","26.5","","20.9","","71","","28","","11","","16.1","","99.06","","35","","","","Mostly Cloudy"
"1999-09-06 15:00","1999","09","06","15:00","26.8","","20.4","","68","","33","","7","","19.3","","98.99","","35","","","","Cloudy"
"1999-09-06 16:00","1999","09","06","16:00","26.9","","20.2","","67","","13","","6","","16.1","","98.96","","35","","","","Mostly Cloudy"
"1999-09-06 17:00","1999","09","06","17:00","26.6","","20.1","","68","","10","","7","","16.1","","98.96","","34","","","","Mostly Cloudy"
"1999-09-06 18:00","1999","09","06","18:00","25.6","","20.2","","72","","34","","17","","16.1","","98.96","","33","","","","Cloudy"
"1999-09-06 19:00","1999","09","06","19:00","23.6","","19.6","","78","","31","","28","","19.3","","99.02","","31","","","","Rain Showers"
"1999-09-06 20:00","1999","09","06","20:00","21.0","","18.5","","86","","35","","28","","19.3","","99.02","","27","","","","Cloudy"
"1999-09-06 21:00","1999","09","06","21:00","20.4","","19.1","","92","","35","","20","","16.1","","99.06","","27","","","","Thunderstorms,Rain Showers"
"1999-09-06 22:00","1999","09","06","22:00","20.2","","19.2","","94","","5","","4","","9.7","","99.09","","27","","","","Rain Showers,Fog"
"1999-09-06 23:00","1999","09","06","23:00","20.0","","19.5","","97","","23","","6","","9.7","","99.16","","27","","","","Rain,Fog"
"1999-09-07 00:00","1999","09","07","00:00","20.2","","19.4","","95","","34","","9","","9.7","","99.06","","27","","","","Rain,Fog"
"1999-09-07 01:00","1999","09","07","01:00","19.7","","19.0","","96","","3","","11","","19.3","","98.92","","","","","","Mostly Cloudy"
"1999-09-07 02:00","1999","09","07","02:00","19.4","","18.7","","96","","1","","11","","16.1","","98.92","","","","","","Mostly Cloudy"
"1999-09-07 03:00","1999","09","07","03:00","19.6","","18.7","","95","","3","","13","","19.3","","98.92","","","","","","Mostly Cloudy"
"1999-09-07 04:00","1999","09","07","04:00","19.8","","18.5","","92","","2","","15","","19.3","","98.92","","","","","","Mostly Cloudy"
"1999-09-07 05:00","1999","09","07","05:00","19.7","","18.5","","93","","34","","22","","24.1","","98.92","","","","","","Cloudy"
"1999-09-07 06:00","1999","09","07","06:00","19.8","","18.4","","92","","1","","19","","19.3","","98.92","","","","","","Cloudy"
"1999-09-07 07:00","1999","09","07","07:00","20.4","","19.2","","93","","1","","20","","11.3","","98.92","","27","","","","Mostly Cloudy"
"1999-09-07 08:00","1999","09","07","08:00","21.2","","19.9","","92","","36","","13","","9.7","","98.96","","29","","","","Fog"
"1999-09-07 09:00","1999","09","07","09:00","21.8","","19.4","","86","","3","","13","","12.9","","98.96","","29","","","","Cloudy"
"1999-09-07 10:00","1999","09","07","10:00","22.2","","19.4","","84","","4","","20","","14.5","","98.99","","29","","","","Cloudy"
"1999-09-07 11:00","1999","09","07","11:00","22.2","","19.5","","85","","3","","17","","16.1","","98.96","","29","","","","Rain Showers"
"1999-09-07 12:00","1999","09","07","12:00","23.3","","19.6","","80","","36","","15","","16.1","","98.92","","31","","","","Rain Showers"
"1999-09-07 13:00","1999","09","07","13:00","24.4","","20.3","","78","","1","","19","","19.3","","98.92","","32","","","","Cloudy"
"1999-09-07 14:00","1999","09","07","14:00","23.7","","19.6","","78","","2","","15","","19.3","","98.92","","31","","","","Cloudy"
"1999-09-07 15:00","1999","09","07","15:00","23.6","","19.7","","79","","5","","6","","19.3","","98.89","","31","","","","Rain Showers"
"1999-09-07 16:00","1999","09","07","16:00","22.9","","20.4","","86","","35","","9","","16.1","","98.89","","31","","","","Rain Showers"
"1999-09-07 17:00","1999","09","07","17:00","23.2","","20.5","","85","","34","","13","","12.9","","98.89","","31","","","","Rain Showers"
"1999-09-07 18:00","1999","09","07","18:00","22.5","","20.6","","89","","35","","15","","12.9","","98.92","","31","","","","Rain Showers"
"1999-09-07 19:00","1999","09","07","19:00","21.9","","19.7","","87","","35","","19","","12.9","","98.96","","29","","","","Cloudy"
"1999-09-07 20:00","1999","09","07","20:00","21.8","","19.4","","86","","34","","19","","12.9","","98.99","","29","","","","Cloudy"
"1999-09-07 21:00","1999","09","07","21:00","21.3","","19.1","","87","","34","","11","","11.3","","98.99","","28","","","","Cloudy"
"1999-09-07 22:00","1999","09","07","22:00","21.0","","19.1","","89","","35","","9","","11.3","","99.02","","28","","","","Cloudy"
"1999-09-07 23:00","1999","09","07","23:00","20.8","","19.0","","89","","32","","6","","9.7","","98.99","","28","","","","Fog"
"1999-09-08 00:00","1999","09","08","00:00","20.6","","19.2","","92","","32","","6","","9.7","","98.96","","28","","","","Fog"
"1999-09-08 01:00","1999","09","08","01:00","20.4","","19.2","","93","","32","","6","","8.0","","98.96","","27","","","","Fog"
"1999-09-08 02:00","1999","09","08","02:00","20.2","","18.5","","90","","32","","9","","8.0","","98.92","","27","","","","Fog"
"1999-09-08 03:00","1999","09","08","03:00","19.8","","18.2","","90","","31","","11","","8.0","","98.92","","","","","","Fog"
"1999-09-08 04:00","1999","09","08","04:00","19.8","","18.2","","90","","29","","4","","8.0","","98.92","","","","","","Fog"
"1999-09-08 05:00","1999","09","08","05:00","19.5","","18.3","","93","","28","","4","","4.8","","98.92","","","","","","Rain Showers,Fog"
"1999-09-08 06:00","1999","09","08","06:00","19.6","","18.1","","91","","35","","6","","4.8","","98.92","","","","","","Fog"
"1999-09-08 07:00","1999","09","08","07:00","19.8","","18.0","","89","","30","","6","","4.8","","98.96","","","","","","Fog"
"1999-09-08 08:00","1999","09","08","08:00","20.6","","17.5","","82","","36","","11","","4.8","","98.96","","26","","","","Haze"
"1999-09-08 09:00","1999","09","08","09:00","22.1","","16.8","","72","","30","","7","","9.7","","98.99","","27","","","","Haze"
"1999-09-08 10:00","1999","09","08","10:00","23.3","","14.4","","57","","30","","9","","19.3","","98.96","","27","","","","Mostly Cloudy"
"1999-09-08 11:00","1999","09","08","11:00","24.4","","13.6","","51","","29","","19","","24.1","","98.92","","28","","","","Mainly Clear"
"1999-09-08 12:00","1999","09","08","12:00","25.5","","14.8","","52","","27","","13","","19.3","","98.86","","29","","","","Clear"
"1999-09-08 13:00","1999","09","08","13:00","26.3","","14.0","","47","","25","","19","","16.1","","98.82","","30","","","","Mainly Clear"
"1999-09-08 14:00","1999","09","08","14:00","26.5","","15.0","","49","","23","","17","","19.3","","98.76","","30","","","","Mostly Cloudy"
"1999-09-08 15:00","1999","09","08","15:00","27.3","","15.9","","50","","25","","19","","16.1","","98.76","","32","","","","Mainly Clear"
"1999-09-08 16:00","1999","09","08","16:00","26.8","","14.1","","46","","23","","24","","19.3","","98.72","","30","","","","Mostly Cloudy"
"1999-09-08 17:00","1999","09","08","17:00","26.6","","15.2","","50","","25","","24","","19.3","","98.69","","31","","","","Mainly Clear"
"1999-09-08 18:00","1999","09","08","18:00","25.4","","15.4","","54","","24","","24","","19.3","","98.69","","30","","","","Clear"
"1999-09-08 19:00","1999","09","08","19:00","23.9","","15.7","","60","","22","","17","","16.1","","98.76","","28","","","","Mainly Clear"
"1999-09-08 20:00","1999","09","08","20:00","23.2","","15.9","","64","","22","","13","","16.1","","98.79","","28","","","","Clear"
"1999-09-08 21:00","1999","09","08","21:00","22.9","","16.2","","66","","22","","9","","16.1","","98.79","","28","","","","Mostly Cloudy"
"1999-09-08 22:00","1999","09","08","22:00","22.1","","16.1","","69","","21","","11","","16.1","","98.76","","27","","","","Mostly Cloudy"
"1999-09-08 23:00","1999","09","08","23:00","21.9","","16.0","","69","","22","","11","","16.1","","98.76","","27","","","","Rain"
"1999-09-09 00:00","1999","09","09","00:00","20.9","","16.3","","75","","22","","13","","12.9","","98.76","","26","","","","Mostly Cloudy"
"1999-09-09 01:00","1999","09","09","01:00","20.3","","16.1","","77","","20","","4","","14.5","","98.76","","25","","","","Mainly Clear"
"1999-09-09 02:00","1999","09","09","02:00","20.1","","16.9","","82","","20","","4","","12.9","","98.76","","25","","","","Mostly Cloudy"
"1999-09-09 03:00","1999","09","09","03:00","20.1","","17.1","","83","","20","","4","","11.3","","98.69","","25","","","","Mainly Clear"
"1999-09-09 04:00","1999","09","09","04:00","20.1","","18.0","","88","","20","","4","","9.7","","98.66","","26","","","","Haze"
"1999-09-09 05:00","1999","09","09","05:00","20.5","","19.0","","91","","23","","7","","8.0","","98.72","","27","","","","Rain,Fog"
"1999-09-09 06:00","1999","09","09","06:00","20.2","","19.0","","93","","22","","13","","4.0","","98.79","","27","","","","Rain Showers,Fog"
"1999-09-09 07:00","1999","09","09","07:00","19.7","","18.0","","90","","17","","7","","6.4","","98.69","","","","","","Rain Showers,Fog"
"1999-09-09 08:00","1999","09","09","08:00","19.8","","17.8","","88","","17","","6","","11.3","","98.66","","","","","","Cloudy"
"1999-09-09 09:00","1999","09","09","09:00","19.9","","18.5","","92","","18","","15","","6.4","","98.72","","","","","","Fog"
"1999-09-09 10:00","1999","09","09","10:00","20.0","","18.1","","89","","20","","15","","11.3","","98.76","","26","","","","Cloudy"
"1999-09-09 11:00","1999","09","09","11:00","20.6","","18.6","","88","","22","","7","","12.9","","98.72","","27","","","","Cloudy"
"1999-09-09 12:00","1999","09","09","12:00","22.9","","18.2","","75","","24","","9","","19.3","","98.72","","29","","","","Mostly Cloudy"
"1999-09-09 13:00","1999","09","09","13:00","24.4","","15.8","","59","","26","","7","","19.3","","98.69","","29","","","","Mostly Cloudy"
"1999-09-09 14:00","1999","09","09","14:00","24.5","","15.1","","56","","25","","7","","24.1","","98.69","","29","","","","Mostly Cloudy"
"1999-09-09 15:00","1999","09","09","15:00","24.9","","16.9","","61","","16","","17","","25.0","","98.62","","30","","","","Mostly Cloudy"
"1999-09-09 16:00","1999","09","09","16:00","24.0","","15.3","","58","","16","","22","","25.0","","98.62","","28","","","","Mostly Cloudy"
"1999-09-09 17:00","1999","09","09","17:00","24.1","","15.0","","57","","18","","17","","25.0","","98.62","","28","","","","Mostly Cloudy"
"1999-09-09 18:00","1999","09","09","18:00","23.6","","12.4","","49","","24","","24","","25.0","","98.62","","26","","","","Mostly Cloudy"
"1999-09-09 19:00","1999","09","09","19:00","22.2","","12.6","","55","","23","","11","","24.1","","98.66","","25","","","","Mostly Cloudy"
"1999-09-09 20:00","1999","09","09","20:00","21.0","","13.0","","60","","21","","9","","24.1","","98.72","","","","","","Mainly Clear"
"1999-09-09 21:00","1999","09","09","21:00","19.5","","13.8","","70","","26","","4","","19.3","","98.79","","","","","","Mainly Clear"
"1999-09-09 22:00","1999","09","09","22:00","18.2","","13.2","","73","","32","","7","","19.3","","98.79","","","","","","Mainly Clear"
"1999-09-09 23:00","1999","09","09","23:00","18.0","","13.2","","74","","31","","15","","19.3","","98.76","","","","","","Clear"
"1999-09-10 00:00","1999","09","10","00:00","17.5","","13.3","","76","","32","","11","","19.3","","98.79","","","","","","Mostly Cloudy"
"1999-09-10 01:00","1999","09","10","01:00","16.5","","13.3","","81","","36","","7","","24.1","","98.79","","","","","","Mainly Clear"
"1999-09-10 02:00","1999","09","10","02:00","15.8","","12.8","","82","","","","0","","24.1","","98.79","","","","","","Clear"
"1999-09-10 03:00","1999","09","10","03:00","15.0","","12.7","","86","","25","","6","","19.3","","98.79","","","","","","Clear"
"1999-09-10 04:00","1999","09","10","04:00","13.7","","12.3","","91","","27","","11","","19.3","","98.82","","","","","","Clear"
"1999-09-10 05:00","1999","09","10","05:00","13.9","","11.9","","88","","29","","9","","24.1","","98.82","","","","","","Mainly Clear"
"1999-09-10 06:00","1999","09","10","06:00","14.0","","11.7","","86","","30","","11","","19.3","","98.86","","","","","","Mainly Clear"
"1999-09-10 07:00","1999","09","10","07:00","14.7","","11.9","","83","","31","","9","","24.1","","98.89","","","","","","Clear"
"1999-09-10 08:00","1999","09","10","08:00","16.4","","11.7","","74","","29","","20","","25.0","","98.89","","","","","","Mainly Clear"
"1999-09-10 09:00","1999","09","10","09:00","17.7","","11.3","","66","","28","","17","","25.0","","98.92","","","","","","Mainly Clear"
"1999-09-10 10:00","1999","09","10","10:00","18.8","","9.6","","55","","26","","13","","25.0","","98.92","","","","","","Mainly Clear"
"1999-09-10 11:00","1999","09","10","11:00","19.4","","10.3","","56","","27","","20","","25.0","","98.92","","","","","","Mainly Clear"
"1999-09-10 12:00","1999","09","10","12:00","19.5","","9.4","","52","","27","","26","","25.0","","98.89","","","","","","Mainly Clear"
"1999-09-10 13:00","1999","09","10","13:00","20.5","","8.6","","46","","27","","28","","25.0","","98.86","","","","","","Mainly Clear"
"1999-09-10 14:00","1999","09","10","14:00","19.5","","8.0","","47","","30","","28","","25.0","","98.86","","","","","","Mostly Cloudy"
"1999-09-10 15:00","1999","09","10","15:00","19.5","","8.7","","50","","27","","24","","25.0","","98.82","","","","","","Mostly Cloudy"
"1999-09-10 16:00","1999","09","10","16:00","18.8","","8.0","","49","","26","","20","","25.0","","98.86","","","","","","Mostly Cloudy"
"1999-09-10 17:00","1999","09","10","17:00","18.7","","8.5","","51","","27","","26","","25.0","","98.89","","","","","","Mostly Cloudy"
"1999-09-10 18:00","1999","09","10","18:00","18.3","","8.3","","52","","25","","19","","25.0","","98.92","","","","","","Mostly Cloudy"
"1999-09-10 19:00","1999","09","10","19:00","17.9","","8.5","","54","","25","","13","","24.1","","98.96","","","","","","Mostly Cloudy"
"1999-09-10 20:00","1999","09","10","20:00","16.5","","8.5","","59","","25","","15","","24.1","","98.99","","","","","","Mainly Clear"
"1999-09-10 21:00","1999","09","10","21:00","16.9","","8.7","","58","","23","","13","","24.1","","99.02","","","","","","Cloudy"
"1999-09-10 22:00","1999","09","10","22:00","16.4","","8.7","","60","","22","","15","","24.1","","98.99","","","","","","Mostly Cloudy"
"1999-09-10 23:00","1999","09","10","23:00","16.7","","8.5","","58","","23","","17","","24.1","","98.96","","","","","","Mostly Cloudy"
"1999-09-11 00:00","1999","09","11","00:00","16.3","","9.0","","62","","24","","15","","24.1","","98.92","","","","","","Cloudy"
"1999-09-11 01:00","1999","09","11","01:00","16.4","","8.9","","61","","25","","22","","24.1","","98.92","","","","","","Mostly Cloudy"
"1999-09-11 02:00","1999","09","11","02:00","16.3","","8.8","","61","","25","","19","","24.1","","98.92","","","","","","Mostly Cloudy"
"1999-09-11 03:00","1999","09","11","03:00","15.4","","10.2","","71","","26","","17","","24.1","","98.99","","","","","","Rain"
"1999-09-11 04:00","1999","09","11","04:00","15.2","","10.4","","73","","26","","17","","24.1","","98.96","","","","","","Mostly Cloudy"
"1999-09-11 05:00","1999","09","11","05:00","13.7","","10.2","","79","","23","","7","","24.1","","98.99","","","","","","Mostly Cloudy"
"1999-09-11 06:00","1999","09","11","06:00","13.4","","10.0","","80","","26","","11","","24.1","","99.06","","","","","","Mainly Clear"
"1999-09-11 07:00","1999","09","11","07:00","14.1","","10.3","","78","","29","","11","","24.1","","99.16","","","","","","Clear"
"1999-09-11 08:00","1999","09","11","08:00","16.8","","11.6","","71","","29","","22","","24.1","","99.19","","","","","","Mainly Clear"
"1999-09-11 09:00","1999","09","11","09:00","18.9","","11.3","","61","","28","","30","","24.1","","99.26","","","","","","Mainly Clear"
"1999-09-11 10:00","1999","09","11","10:00","18.6","","10.6","","60","","29","","30","","24.1","","99.32","","","","","","Mostly Cloudy"
"1999-09-11 11:00","1999","09","11","11:00","19.2","","9.8","","54","","29","","35","","24.1","","99.39","","","","","","Mostly Cloudy"
"1999-09-11 12:00","1999","09","11","12:00","21.1","","9.1","","46","","27","","33","","24.1","","99.39","","","","","","Mainly Clear"
"1999-09-11 13:00","1999","09","11","13:00","20.8","","9.6","","49","","28","","30","","24.1","","99.45","","","","","","Mostly Cloudy"
"1999-09-11 14:00","1999","09","11","14:00","21.0","","9.1","","46","","29","","30","","25.0","","99.49","","","","","","Mostly Cloudy"
"1999-09-11 15:00","1999","09","11","15:00","21.9","","9.1","","44","","27","","26","","25.0","","99.49","","","","","","Mostly Cloudy"
"1999-09-11 16:00","1999","09","11","16:00","21.5","","8.0","","42","","28","","24","","25.0","","99.52","","","","","","Mostly Cloudy"
"1999-09-11 17:00","1999","09","11","17:00","20.9","","8.5","","45","","28","","24","","25.0","","99.55","","","","","","Mainly Clear"
"1999-09-11 18:00","1999","09","11","18:00","19.7","","9.1","","50","","29","","22","","25.0","","99.62","","","","","","Clear"
"1999-09-11 19:00","1999","09","11","19:00","18.2","","9.0","","55","","29","","13","","24.1","","99.65","","","","","","Clear"
"1999-09-11 20:00","1999","09","11","20:00","16.6","","9.4","","62","","29","","9","","24.1","","99.75","","","","","","Clear"
"1999-09-11 21:00","1999","09","11","21:00","16.5","","8.9","","61","","31","","11","","24.1","","99.79","","","","","","Clear"
"1999-09-11 22:00","1999","09","11","22:00","15.4","","9.0","","66","","31","","7","","24.1","","99.82","","","","","","Clear"
"1999-09-11 23:00","1999","09","11","23:00","14.2","","9.0","","71","","","","0","","24.1","","99.85","","","","","","Clear"
"1999-09-12 00:00","1999","09","12","00:00","13.8","","9.0","","73","","","","0","","24.1","","99.85","","","","","","Clear"
"1999-09-12 01:00","1999","09","12","01:00","12.4","","8.9","","79","","","","0","","24.1","","99.85","","","","","","Clear"
"1999-09-12 02:00","1999","09","12","02:00","11.7","","8.9","","83","","30","","6","","24.1","","99.85","","","","","","Clear"
"1999-09-12 03:00","1999","09","12","03:00","11.4","","9.0","","85","","30","","9","","24.1","","99.89","","","","","","Clear"
"1999-09-12 04:00","1999","09","12","04:00","11.1","","8.6","","85","","31","","6","","24.1","","99.95","","","","","","Mainly Clear"
"1999-09-12 05:00","1999","09","12","05:00","10.1","","7.9","","86","","31","","4","","24.1","","99.95","","","","","","Clear"
"1999-09-12 06:00","1999","09","12","06:00","10.6","","8.0","","84","","","","0","","24.1","","100.02","","","","","","Clear"
"1999-09-12 07:00","1999","09","12","07:00","11.6","","8.8","","83","","","","0","","25.0","","100.05","","","","","","Clear"
"1999-09-12 08:00","1999","09","12","08:00","15.4","","10.6","","73","","","","0","","25.0","","100.02","","","","","","Clear"
"1999-09-12 09:00","1999","09","12","09:00","19.6","","13.7","","69","","15","","13","","25.0","","99.99","","","","","","Clear"
"1999-09-12 10:00","1999","09","12","10:00","21.0","","14.1","","65","","13","","13","","25.0","","99.99","","","","","","Clear"
"1999-09-12 11:00","1999","09","12","11:00","22.2","","13.4","","57","","15","","15","","25.0","","99.92","","25","","","","Clear"
"1999-09-12 12:00","1999","09","12","12:00","22.9","","11.8","","50","","15","","22","","25.0","","99.89","","25","","","","Clear"
"1999-09-12 13:00","1999","09","12","13:00","23.6","","12.4","","49","","11","","24","","25.0","","99.82","","26","","","","Clear"
"1999-09-12 14:00","1999","09","12","14:00","24.9","","12.4","","46","","11","","24","","25.0","","99.75","","27","","","","Mainly Clear"
"1999-09-12 15:00","1999","09","12","15:00","24.7","","13.0","","48","","12","","19","","25.0","","99.69","","27","","","","Mainly Clear"
"1999-09-12 16:00","1999","09","12","16:00","24.3","","14.0","","53","","10","","19","","25.0","","99.65","","28","","","","Mainly Clear"
"1999-09-12 17:00","1999","09","12","17:00","23.5","","14.5","","57","","11","","15","","24.1","","99.65","","27","","","","Clear"
"1999-09-12 18:00","1999","09","12","18:00","22.4","","14.9","","63","","10","","15","","24.1","","99.65","","26","","","","Mainly Clear"
"1999-09-12 19:00","1999","09","12","19:00","21.0","","15.6","","71","","10","","6","","19.3","","99.65","","25","","","","Mainly Clear"
"1999-09-12 20:00","1999","09","12","20:00","20.4","","16.3","","77","","10","","9","","19.3","","99.65","","25","","","","Clear"
"1999-09-12 21:00","1999","09","12","21:00","20.2","","16.8","","81","","10","","9","","19.3","","99.65","","25","","","","Mainly Clear"
"1999-09-12 22:00","1999","09","12","22:00","20.2","","17.2","","83","","10","","9","","19.3","","99.59","","26","","","","Mostly Cloudy"
"1999-09-12 23:00","1999","09","12","23:00","19.9","","17.3","","85","","11","","7","","19.3","","99.55","","","","","","Mainly Clear"
"1999-09-13 00:00","1999","09","13","00:00","20.7","","16.6","","77","","14","","7","","19.3","","99.49","","26","","","","Mostly Cloudy"
"1999-09-13 01:00","1999","09","13","01:00","21.1","","16.5","","75","","15","","15","","19.3","","99.45","","26","","","","Mostly Cloudy"
"1999-09-13 02:00","1999","09","13","02:00","21.9","","15.1","","65","","18","","17","","19.3","","99.39","","26","","","","Mostly Cloudy"
"1999-09-13 03:00","1999","09","13","03:00","21.9","","14.4","","62","","17","","19","","19.3","","99.32","","26","","","","Mostly Cloudy"
"1999-09-13 04:00","1999","09","13","04:00","21.4","","14.7","","66","","17","","15","","19.3","","99.29","","25","","","","Mostly Cloudy"
"1999-09-13 05:00","1999","09","13","05:00","21.3","","13.8","","62","","18","","11","","24.1","","99.35","","25","","","","Mostly Cloudy"
"1999-09-13 06:00","1999","09","13","06:00","21.8","","13.7","","60","","18","","11","","24.1","","99.32","","25","","","","Mostly Cloudy"
"1999-09-13 07:00","1999","09","13","07:00","21.6","","14.0","","62","","19","","11","","24.1","","99.35","","25","","","","Mostly Cloudy"
"1999-09-13 08:00","1999","09","13","08:00","22.2","","14.0","","60","","22","","19","","24.1","","99.35","","26","","","","Cloudy"
"1999-09-13 09:00","1999","09","13","09:00","20.2","","15.8","","76","","22","","26","","12.9","","99.42","","25","","","","Rain Showers"
"1999-09-13 10:00","1999","09","13","10:00","18.8","","17.1","","90","","21","","17","","6.4","","99.44","","","","","","Rain Showers,Fog"
"1999-09-13 11:00","1999","09","13","11:00","18.7","","17.6","","93","","19","","13","","4.0","","99.42","","","","","","Rain,Fog"
"1999-09-13 12:00","1999","09","13","12:00","18.8","","18.0","","95","","19","","15","","2.8","","99.42","","","","","","Rain,Fog"
"1999-09-13 13:00","1999","09","13","13:00","18.8","","18.1","","96","","18","","15","","2.4","","99.42","","","","","","Rain Showers,Fog"
"1999-09-13 14:00","1999","09","13","14:00","19.0","","17.9","","93","","20","","20","","4.8","","99.39","","","","","","Rain Showers,Fog"
"1999-09-13 15:00","1999","09","13","15:00","18.9","","17.8","","93","","20","","13","","8.0","","99.39","","","","","","Fog"
"1999-09-13 16:00","1999","09","13","16:00","19.4","","18.0","","92","","20","","17","","8.0","","99.39","","","","","","Fog"
"1999-09-13 17:00","1999","09","13","17:00","19.5","","18.0","","91","","18","","17","","4.0","","99.39","","","","","","Fog"
"1999-09-13 18:00","1999","09","13","18:00","19.5","","17.6","","89","","19","","19","","8.0","","99.35","","","","","","Fog"
"1999-09-13 19:00","1999","09","13","19:00","19.2","","17.4","","89","","17","","11","","9.7","","99.35","","","","","","Fog"
"1999-09-13 20:00","1999","09","13","20:00","19.6","","17.4","","87","","22","","17","","12.9","","99.45","","","","","","Cloudy"
"1999-09-13 21:00","1999","09","13","21:00","19.1","","17.4","","90","","22","","11","","12.9","","99.45","","","","","","Cloudy"
"1999-09-13 22:00","1999","09","13","22:00","18.4","","17.1","","92","","24","","9","","12.9","","99.45","","","","","","Mostly Cloudy"
"1999-09-13 23:00","1999","09","13","23:00","17.6","","16.7","","94","","23","","6","","9.7","","99.45","","","","","","Fog"
"1999-09-14 00:00","1999","09","14","00:00","17.4","","16.5","","94","","24","","11","","8.0","","99.49","","","","","","Fog"
"1999-09-14 01:00","1999","09","14","01:00","16.6","","15.8","","95","","27","","9","","8.0","","99.52","","","","","","Fog"
"1999-09-14 02:00","1999","09","14","02:00","15.2","","13.8","","91","","29","","9","","8.0","","99.55","","","","","","Fog"
"1999-09-14 03:00","1999","09","14","03:00","14.6","","13.2","","91","","28","","4","","16.1","","99.55","","","","","","Mainly Clear"
"1999-09-14 04:00","1999","09","14","04:00","13.2","","12.4","","95","","31","","6","","19.3","","99.52","","","","","","Mainly Clear"
"1999-09-14 05:00","1999","09","14","05:00","13.1","","11.9","","92","","28","","7","","19.3","","99.52","","","","","","Mainly Clear"
"1999-09-14 06:00","1999","09","14","06:00","12.8","","11.8","","94","","26","","7","","8.0","","99.59","","","","","","Fog"
"1999-09-14 07:00","1999","09","14","07:00","13.0","","11.7","","92","","26","","6","","19.3","","99.62","","","","","","Clear"
"1999-09-14 08:00","1999","09","14","08:00","15.3","","11.7","","79","","25","","6","","25.0","","99.65","","","","","","Clear"
"1999-09-14 09:00","1999","09","14","09:00","16.7","","12.3","","75","","27","","15","","25.0","","99.69","","","","","","Clear"
"1999-09-14 10:00","1999","09","14","10:00","18.6","","11.9","","65","","23","","17","","25.0","","99.69","","","","","","Clear"
"1999-09-14 11:00","1999","09","14","11:00","19.8","","11.4","","58","","25","","22","","25.0","","99.69","","","","","","Mainly Clear"
"1999-09-14 12:00","1999","09","14","12:00","19.9","","9.6","","51","","25","","26","","25.0","","99.65","","","","","","Mainly Clear"
"1999-09-14 13:00","1999","09","14","13:00","21.0","","9.4","","47","","25","","24","","25.0","","99.65","","","","","","Mainly Clear"
"1999-09-14 14:00","1999","09","14","14:00","21.5","","9.6","","47","","25","","19","","25.0","","99.59","","","","","","Mostly Cloudy"
"1999-09-14 15:00","1999","09","14","15:00","21.6","","9.4","","46","","26","","32","","25.0","","99.52","","","","","","Mainly Clear"
"1999-09-14 16:00","1999","09","14","16:00","20.4","","9.2","","49","","24","","28","","25.0","","99.52","","","","","","Mostly Cloudy"
"1999-09-14 17:00","1999","09","14","17:00","20.0","","9.4","","50","","24","","28","","25.0","","99.52","","","","","","Mainly Clear"
"1999-09-14 18:00","1999","09","14","18:00","19.3","","8.9","","51","","24","","26","","25.0","","99.55","","","","","","Clear"
"1999-09-14 19:00","1999","09","14","19:00","18.6","","9.4","","55","","26","","20","","24.1","","99.59","","","","","","Mostly Cloudy"
"1999-09-14 20:00","1999","09","14","20:00","15.3","","12.5","","83","","26","","11","","19.3","","99.75","","","","","","Rain Showers"
"1999-09-14 21:00","1999","09","14","21:00","14.3","","10.8","","79","","25","","9","","24.1","","99.79","","","","","","Mainly Clear"
"1999-09-14 22:00","1999","09","14","22:00","13.2","","10.8","","85","","27","","11","","24.1","","99.82","","","","","","Clear"
"1999-09-14 23:00","1999","09","14","23:00","12.3","","10.7","","90","","26","","11","","24.1","","99.85","","","","","","Clear"
"1999-09-15 00:00","1999","09","15","00:00","11.4","","9.8","","90","","26","","7","","24.1","","99.85","","","","","","Clear"
"1999-09-15 01:00","1999","09","15","01:00","11.3","","9.6","","89","","27","","11","","25.0","","99.85","","","","","","Clear"
"1999-09-15 02:00","1999","09","15","02:00","11.0","","9.1","","88","","22","","6","","25.0","","99.85","","","","","","Clear"
"1999-09-15 03:00","1999","09","15","03:00","10.9","","8.6","","86","","27","","4","","25.0","","99.85","","","","","","Clear"
"1999-09-15 04:00","1999","09","15","04:00","10.5","","8.4","","87","","20","","4","","25.0","","99.85","","","","","","Clear"
"1999-09-15 05:00","1999","09","15","05:00","10.6","","8.0","","84","","20","","4","","25.0","","99.89","","","","","","Clear"
"1999-09-15 06:00","1999","09","15","06:00","10.3","","8.1","","86","","","","0","","16.1","","99.92","","","","","","Clear"
"1999-09-15 07:00","1999","09","15","07:00","10.7","","8.6","","87","","","","0","","19.3","","99.95","","","","","","Clear"
"1999-09-15 08:00","1999","09","15","08:00","13.6","","9.2","","75","","28","","6","","19.3","","99.95","","","","","","Clear"
"1999-09-15 09:00","1999","09","15","09:00","16.6","","8.8","","60","","22","","6","","24.1","","99.99","","","","","","Clear"
"1999-09-15 10:00","1999","09","15","10:00","19.0","","8.2","","49","","18","","7","","25.0","","99.99","","","","","","Mainly Clear"
"1999-09-15 11:00","1999","09","15","11:00","19.1","","7.4","","47","","17","","17","","25.0","","99.95","","","","","","Mainly Clear"
"1999-09-15 12:00","1999","09","15","12:00","20.0","","7.5","","44","","12","","7","","25.0","","99.89","","","","","","Mainly Clear"
"1999-09-15 13:00","1999","09","15","13:00","19.0","","7.4","","47","","15","","11","","25.0","","99.89","","","","","","Mostly Cloudy"
"1999-09-15 14:00","1999","09","15","14:00","19.1","","10.2","","56","","19","","13","","25.0","","99.82","","","","","","Mostly Cloudy"
"1999-09-15 15:00","1999","09","15","15:00","19.9","","9.9","","52","","18","","7","","25.0","","99.79","","","","","","Mostly Cloudy"
"1999-09-15 16:00","1999","09","15","16:00","20.6","","10.1","","51","","13","","13","","25.0","","99.75","","","","","","Mainly Clear"
"1999-09-15 17:00","1999","09","15","17:00","20.4","","9.1","","48","","13","","9","","25.0","","99.75","","","","","","Mainly Clear"
"1999-09-15 18:00","1999","09","15","18:00","19.3","","10.2","","56","","13","","9","","25.0","","99.75","","","","","","Mainly Clear"
"1999-09-15 19:00","1999","09","15","19:00","18.2","","11.0","","63","","11","","11","","25.0","","99.75","","","","","","Mostly Cloudy"
"1999-09-15 20:00","1999","09","15","20:00","17.0","","11.1","","68","","10","","11","","24.1","","99.75","","","","","","Mainly Clear"
"1999-09-15 21:00","1999","09","15","21:00","17.7","","10.5","","63","","1","","7","","24.1","","99.75","","","","","","Mainly Clear"
"1999-09-15 22:00","1999","09","15","22:00","15.7","","10.9","","73","","1","","19","","24.1","","99.79","","","","","","Mostly Cloudy"
"1999-09-15 23:00","1999","09","15","23:00","15.2","","10.7","","74","","2","","20","","24.1","","99.79","","","","","","Mostly Cloudy"
"1999-09-16 00:00","1999","09","16","00:00","14.4","","10.8","","79","","36","","20","","24.1","","99.75","","","","","","Mostly Cloudy"
"1999-09-16 01:00","1999","09","16","01:00","13.7","","10.7","","82","","1","","17","","24.1","","99.75","","","","","","Mostly Cloudy"
"1999-09-16 02:00","1999","09","16","02:00","13.2","","10.6","","84","","36","","15","","24.1","","99.75","","","","","","Mainly Clear"
"1999-09-16 03:00","1999","09","16","03:00","13.2","","10.4","","83","","36","","19","","24.1","","99.72","","","","","","Mainly Clear"
"1999-09-16 04:00","1999","09","16","04:00","12.8","","9.8","","82","","36","","20","","24.1","","99.75","","","","","","Mostly Cloudy"
"1999-09-16 05:00","1999","09","16","05:00","12.5","","10.0","","85","","36","","15","","24.1","","99.72","","","","","","Mostly Cloudy"
"1999-09-16 06:00","1999","09","16","06:00","12.6","","10.0","","84","","36","","19","","19.3","","99.69","","","","","","Mostly Cloudy"
"1999-09-16 07:00","1999","09","16","07:00","13.0","","10.4","","84","","36","","19","","24.1","","99.72","","","","","","Mostly Cloudy"
"1999-09-16 08:00","1999","09","16","08:00","14.3","","10.8","","79","","36","","19","","25.0","","99.65","","","","","","Mostly Cloudy"
"1999-09-16 09:00","1999","09","16","09:00","15.7","","10.6","","72","","1","","22","","25.0","","99.69","","","","","","Mostly Cloudy"
"1999-09-16 10:00","1999","09","16","10:00","16.0","","11.6","","75","","36","","20","","25.0","","99.72","","","","","","Mostly Cloudy"
"1999-09-16 11:00","1999","09","16","11:00","17.0","","10.8","","67","","2","","24","","24.1","","99.69","","","","","","Mostly Cloudy"
"1999-09-16 12:00","1999","09","16","12:00","17.4","","11.1","","66","","2","","19","","24.1","","99.65","","","","","","Mostly Cloudy"
"1999-09-16 13:00","1999","09","16","13:00","17.7","","10.9","","64","","3","","22","","24.1","","99.62","","","","","","Mostly Cloudy"
"1999-09-16 14:00","1999","09","16","14:00","18.3","","10.8","","62","","3","","26","","25.0","","99.55","","","","","","Mostly Cloudy"
"1999-09-16 15:00","1999","09","16","15:00","18.8","","10.7","","59","","2","","32","","25.0","","99.49","","","","","","Mostly Cloudy"
"1999-09-16 16:00","1999","09","16","16:00","18.9","","10.5","","58","","2","","32","","25.0","","99.49","","","","","","Mostly Cloudy"
"1999-09-16 17:00","1999","09","16","17:00","18.3","","11.0","","62","","1","","30","","25.0","","99.49","","","","","","Mostly Cloudy"
"1999-09-16 18:00","1999","09","16","18:00","17.5","","10.3","","63","","1","","32","","25.0","","99.49","","","","","","Mostly Cloudy"
"1999-09-16 19:00","1999","09","16","19:00","16.6","","9.3","","62","","2","","26","","25.0","","99.55","","","","","","Mostly Cloudy"
"1999-09-16 20:00","1999","09","16","20:00","15.3","","9.2","","67","","1","","26","","24.1","","99.55","","","","","","Mainly Clear"
"1999-09-16 21:00","1999","09","16","21:00","14.5","","8.1","","65","","36","","24","","24.1","","99.59","","","","","","Mainly Clear"
"1999-09-16 22:00","1999","09","16","22:00","13.4","","7.9","","69","","35","","19","","24.1","","99.55","","","","","","Clear"
"1999-09-16 23:00","1999","09","16","23:00","12.5","","7.9","","74","","34","","22","","24.1","","99.59","","","","","","Clear"
"1999-09-17 00:00","1999","09","17","00:00","12.3","","5.8","","64","","36","","30","","25.0","","99.59","","","","","","Clear"
"1999-09-17 01:00","1999","09","17","01:00","11.9","","5.5","","65","","35","","20","","25.0","","99.55","","","","","","Clear"
"1999-09-17 02:00","1999","09","17","02:00","11.2","","7.0","","75","","34","","22","","25.0","","99.59","","","","","","Clear"
"1999-09-17 03:00","1999","09","17","03:00","11.1","","7.2","","77","","33","","24","","25.0","","99.62","","","","","","Clear"
"1999-09-17 04:00","1999","09","17","04:00","10.9","","7.3","","78","","34","","26","","25.0","","99.59","","","","","","Clear"
"1999-09-17 05:00","1999","09","17","05:00","10.7","","7.5","","81","","36","","26","","25.0","","99.65","","","","","","Mainly Clear"
"1999-09-17 06:00","1999","09","17","06:00","11.0","","7.4","","78","","34","","26","","24.1","","99.75","","","","","","Clear"
"1999-09-17 07:00","1999","09","17","07:00","11.4","","7.7","","78","","34","","20","","25.0","","99.82","","","","","","Clear"
"1999-09-17 08:00","1999","09","17","08:00","13.7","","7.9","","68","","36","","28","","25.0","","99.85","","","","","","Clear"
"1999-09-17 09:00","1999","09","17","09:00","15.6","","7.4","","58","","36","","32","","25.0","","99.95","","","","","","Clear"
"1999-09-17 10:00","1999","09","17","10:00","16.8","","6.7","","51","","36","","37","","25.0","","99.99","","","","","","Clear"
"1999-09-17 11:00","1999","09","17","11:00","18.0","","7.6","","51","","1","","26","","25.0","","99.99","","","","","","Clear"
"1999-09-17 12:00","1999","09","17","12:00","19.4","","7.5","","46","","33","","35","","25.0","","99.95","","","","","","Clear"
"1999-09-17 13:00","1999","09","17","13:00","19.6","","7.7","","46","","34","","30","","25.0","","99.92","","","","","","Clear"
"1999-09-17 14:00","1999","09","17","14:00","20.6","","7.7","","43","","32","","26","","25.0","","99.92","","","","","","Clear"
"1999-09-17 15:00","1999","09","17","15:00","20.6","","7.8","","44","","35","","33","","25.0","","99.89","","","","","","Clear"
"1999-09-17 16:00","1999","09","17","16:00","20.2","","8.0","","45","","36","","20","","25.0","","99.89","","","","","","Clear"
"1999-09-17 17:00","1999","09","17","17:00","19.5","","8.0","","47","","1","","28","","25.0","","99.89","","","","","","Clear"
"1999-09-17 18:00","1999","09","17","18:00","18.1","","7.4","","50","","36","","26","","25.0","","99.92","","","","","","Clear"
"1999-09-17 19:00","1999","09","17","19:00","16.7","","7.9","","56","","36","","20","","25.0","","99.95","","","","","","Clear"
"1999-09-17 20:00","1999","09","17","20:00","15.5","","7.9","","61","","35","","22","","25.0","","99.99","","","","","","Clear"
"1999-09-17 21:00","1999","09","17","21:00","15.3","","7.8","","61","","33","","19","","25.0","","99.95","","","","","","Clear"
"1999-09-17 22:00","1999","09","17","22:00","13.9","","7.6","","66","","30","","11","","25.0","","99.99","","","","","","Clear"
"1999-09-17 23:00","1999","09","17","23:00","12.8","","7.9","","72","","30","","7","","25.0","","99.99","","","","","","Clear"
"1999-09-18 00:00","1999","09","18","00:00","11.8","","8.1","","78","","31","","7","","25.0","","100.02","","","","","","Clear"
"1999-09-18 01:00","1999","09","18","01:00","11.5","","8.3","","81","","32","","9","","25.0","","100.02","","","","","","Clear"
"1999-09-18 02:00","1999","09","18","02:00","11.4","","8.3","","81","","33","","11","","25.0","","100.02","","","","","","Clear"
"1999-09-18 03:00","1999","09","18","03:00","10.2","","7.9","","86","","34","","6","","25.0","","100.02","","","","","","Clear"
"1999-09-18 04:00","1999","09","18","04:00","10.0","","7.7","","86","","34","","4","","25.0","","100.02","","","","","","Clear"
"1999-09-18 05:00","1999","09","18","05:00","9.8","","7.4","","85","","34","","4","","25.0","","100.05","","","","","","Clear"
"1999-09-18 06:00","1999","09","18","06:00","9.8","","7.5","","86","","30","","9","","24.1","","100.05","","","","","","Mainly Clear"
"1999-09-18 07:00","1999","09","18","07:00","11.1","","8.2","","82","","29","","7","","24.1","","100.05","","","","","","Mainly Clear"
"1999-09-18 08:00","1999","09","18","08:00","13.9","","9.6","","75","","29","","6","","24.1","","100.05","","","","","","Mainly Clear"
"1999-09-18 09:00","1999","09","18","09:00","17.3","","9.6","","61","","30","","4","","24.1","","100.09","","","","","","Mainly Clear"
"1999-09-18 10:00","1999","09","18","10:00","18.8","","8.9","","53","","25","","15","","24.1","","100.05","","","","","","Mainly Clear"
"1999-09-18 11:00","1999","09","18","11:00","19.8","","9.2","","50","","20","","9","","24.1","","100.02","","","","","","Mainly Clear"
"1999-09-18 12:00","1999","09","18","12:00","21.0","","8.0","","43","","26","","15","","24.1","","99.99","","","","","","Mainly Clear"
"1999-09-18 13:00","1999","09","18","13:00","20.4","","10.2","","52","","9","","9","","24.1","","99.92","","","","","","Mostly Cloudy"
"1999-09-18 14:00","1999","09","18","14:00","21.3","","9.5","","47","","13","","6","","25.0","","99.82","","","","","","Mostly Cloudy"
"1999-09-18 15:00","1999","09","18","15:00","21.2","","8.8","","45","","14","","13","","25.0","","99.79","","","","","","Mostly Cloudy"
"1999-09-18 16:00","1999","09","18","16:00","20.9","","9.3","","47","","16","","17","","25.0","","99.72","","","","","","Mainly Clear"
"1999-09-18 17:00","1999","09","18","17:00","20.7","","8.2","","45","","16","","11","","25.0","","99.69","","","","","","Mainly Clear"
"1999-09-18 18:00","1999","09","18","18:00","19.4","","9.2","","52","","16","","11","","25.0","","99.69","","","","","","Clear"
"1999-09-18 19:00","1999","09","18","19:00","18.4","","12.0","","66","","18","","9","","24.1","","99.69","","","","","","Clear"
"1999-09-18 20:00","1999","09","18","20:00","17.9","","12.8","","72","","18","","13","","24.1","","99.75","","","","","","Clear"
"1999-09-18 21:00","1999","09","18","21:00","17.0","","11.8","","71","","19","","9","","24.1","","99.75","","","","","","Clear"
"1999-09-18 22:00","1999","09","18","22:00","16.0","","10.6","","70","","22","","6","","24.1","","99.75","","","","","","Clear"
"1999-09-18 23:00","1999","09","18","23:00","15.2","","10.4","","73","","23","","7","","24.1","","99.75","","","","","","Clear"
"1999-09-19 00:00","1999","09","19","00:00","14.7","","10.5","","76","","26","","4","","24.1","","99.75","","","","","","Clear"
"1999-09-19 01:00","1999","09","19","01:00","13.5","","10.5","","82","","30","","6","","24.1","","99.75","","","","","","Clear"
"1999-09-19 02:00","1999","09","19","02:00","12.6","","10.2","","85","","18","","7","","24.1","","99.72","","","","","","Clear"
"1999-09-19 03:00","1999","09","19","03:00","12.9","","10.5","","85","","","","0","","24.1","","99.69","","","","","","Clear"
"1999-09-19 04:00","1999","09","19","04:00","11.4","","9.5","","88","","32","","9","","24.1","","99.69","","","","","","Clear"
"1999-09-19 05:00","1999","09","19","05:00","11.1","","9.4","","89","","33","","6","","24.1","","99.75","","","","","","Mainly Clear"
"1999-09-19 06:00","1999","09","19","06:00","10.9","","9.4","","90","","","","0","","16.1","","99.75","","","","","","Clear"
"1999-09-19 07:00","1999","09","19","07:00","11.5","","10.3","","92","","33","","4","","16.1","","99.75","","","","","","Clear"
"1999-09-19 08:00","1999","09","19","08:00","14.5","","11.7","","83","","","","0","","19.3","","99.75","","","","","","Clear"
"1999-09-19 09:00","1999","09","19","09:00","17.7","","13.9","","78","","15","","7","","19.3","","99.75","","","","","","Clear"
"1999-09-19 10:00","1999","09","19","10:00","20.0","","13.7","","67","","21","","9","","24.1","","99.75","","","","","","Clear"
"1999-09-19 11:00","1999","09","19","11:00","21.0","","14.1","","65","","16","","7","","24.1","","99.65","","","","","","Clear"
"1999-09-19 12:00","1999","09","19","12:00","21.8","","14.5","","63","","14","","9","","24.1","","99.59","","25","","","","Clear"
"1999-09-19 13:00","1999","09","19","13:00","23.2","","12.8","","52","","17","","19","","24.1","","99.55","","26","","","","Clear"
"1999-09-19 14:00","1999","09","19","14:00","23.0","","11.7","","49","","17","","19","","24.1","","99.49","","25","","","","Mainly Clear"
"1999-09-19 15:00","1999","09","19","15:00","23.7","","12.4","","49","","17","","19","","24.1","","99.42","","26","","","","Mainly Clear"
"1999-09-19 16:00","1999","09","19","16:00","22.8","","11.3","","48","","14","","19","","25.0","","99.42","","25","","","","Mostly Cloudy"
"1999-09-19 17:00","1999","09","19","17:00","22.2","","12.4","","54","","15","","20","","24.1","","99.35","","25","","","","Mostly Cloudy"
"1999-09-19 18:00","1999","09","19","18:00","20.2","","14.1","","68","","14","","13","","24.1","","99.35","","","","","","Mostly Cloudy"
"1999-09-19 19:00","1999","09","19","19:00","19.8","","13.6","","67","","15","","11","","25.0","","99.29","","","","","","Mostly Cloudy"
"1999-09-19 20:00","1999","09","19","20:00","19.1","","12.6","","66","","14","","9","","25.0","","99.29","","","","","","Mainly Clear"
"1999-09-19 21:00","1999","09","19","21:00","18.4","","10.1","","58","","19","","4","","25.0","","99.26","","","","","","Clear"
"1999-09-19 22:00","1999","09","19","22:00","17.2","","9.1","","59","","19","","4","","25.0","","99.26","","","","","","Clear"
"1999-09-19 23:00","1999","09","19","23:00","16.7","","9.8","","64","","19","","6","","24.1","","99.22","","","","","","Clear"
"1999-09-20 00:00","1999","09","20","00:00","15.7","","10.5","","71","","20","","6","","24.1","","99.16","","","","","","Clear"
"1999-09-20 01:00","1999","09","20","01:00","15.2","","11.0","","76","","20","","4","","24.1","","99.09","","","","","","Clear"
"1999-09-20 02:00","1999","09","20","02:00","14.4","","11.2","","81","","","","0","","24.1","","99.02","","","","","","Clear"
"1999-09-20 03:00","1999","09","20","03:00","14.2","","11.7","","85","","14","","6","","24.1","","98.96","","","","","","Clear"
"1999-09-20 04:00","1999","09","20","04:00","14.3","","12.2","","87","","14","","4","","19.3","","98.92","","","","","","Clear"
"1999-09-20 05:00","1999","09","20","05:00","15.7","","13.6","","87","","18","","4","","16.1","","98.89","","","","","","Mainly Clear"
"1999-09-20 06:00","1999","09","20","06:00","16.0","","12.9","","82","","19","","6","","11.3","","98.89","","","","","","Mainly Clear"
"1999-09-20 07:00","1999","09","20","07:00","16.4","","12.8","","79","","22","","7","","12.9","","98.89","","","","","","Mostly Cloudy"
"1999-09-20 08:00","1999","09","20","08:00","17.5","","13.9","","79","","23","","9","","11.3","","98.86","","","","","","Mostly Cloudy"
"1999-09-20 09:00","1999","09","20","09:00","18.4","","14.0","","76","","25","","15","","12.9","","98.89","","","","","","Mostly Cloudy"
"1999-09-20 10:00","1999","09","20","10:00","19.1","","14.0","","72","","27","","19","","12.9","","98.86","","","","","","Cloudy"
"1999-09-20 11:00","1999","09","20","11:00","18.4","","14.2","","77","","29","","24","","12.9","","98.92","","","","","","Cloudy"
"1999-09-20 12:00","1999","09","20","12:00","17.6","","12.9","","74","","29","","28","","25.0","","98.96","","","","","","Cloudy"
"1999-09-20 13:00","1999","09","20","13:00","17.0","","12.6","","75","","30","","26","","24.1","","98.99","","","","","","Rain Showers"
"1999-09-20 14:00","1999","09","20","14:00","15.3","","13.3","","88","","31","","13","","24.1","","98.96","","","","","","Rain Showers"
"1999-09-20 15:00","1999","09","20","15:00","14.6","","11.5","","82","","36","","30","","25.0","","99.02","","","","","","Cloudy"
"1999-09-20 16:00","1999","09","20","16:00","14.4","","10.7","","78","","34","","24","","25.0","","99.09","","","","","","Cloudy"
"1999-09-20 17:00","1999","09","20","17:00","14.2","","9.0","","71","","34","","35","","25.0","","99.16","","","","","","Mostly Cloudy"
"1999-09-20 18:00","1999","09","20","18:00","13.4","","8.3","","71","","34","","33","","25.0","","99.26","","","","","","Mostly Cloudy"
"1999-09-20 19:00","1999","09","20","19:00","12.8","","7.9","","72","","34","","32","","25.0","","99.29","","","","","","Cloudy"
"1999-09-20 20:00","1999","09","20","20:00","11.5","","7.7","","77","","35","","28","","25.0","","99.42","","","","","","Mostly Cloudy"
"1999-09-20 21:00","1999","09","20","21:00","10.6","","6.2","","74","","36","","28","","25.0","","99.52","","","","","","Mostly Cloudy"
"1999-09-20 22:00","1999","09","20","22:00","9.8","","5.6","","75","","2","","30","","25.0","","99.59","","","","","","Cloudy"
"1999-09-20 23:00","1999","09","20","23:00","9.6","","5.2","","74","","36","","28","","25.0","","99.65","","","","","","Cloudy"
"1999-09-21 00:00","1999","09","21","00:00","9.0","","3.9","","70","","36","","22","","25.0","","99.65","","","","","","Cloudy"
"1999-09-21 01:00","1999","09","21","01:00","7.9","","3.9","","76","","36","","17","","25.0","","99.65","","","","","","Mainly Clear"
"1999-09-21 02:00","1999","09","21","02:00","6.9","","3.5","","79","","1","","11","","25.0","","99.65","","","","","","Clear"
"1999-09-21 03:00","1999","09","21","03:00","6.8","","3.4","","79","","34","","19","","25.0","","99.69","","","","","","Clear"
"1999-09-21 04:00","1999","09","21","04:00","5.7","","3.3","","85","","35","","20","","25.0","","99.72","","","","","","Clear"
"1999-09-21 05:00","1999","09","21","05:00","5.5","","3.2","","85","","36","","19","","25.0","","99.72","","","","","","Clear"
"1999-09-21 06:00","1999","09","21","06:00","5.1","","3.1","","87","","35","","19","","24.1","","99.79","","","","","","Clear"
"1999-09-21 07:00","1999","09","21","07:00","5.6","","3.3","","85","","34","","17","","25.0","","99.85","","","","","","Clear"
"1999-09-21 08:00","1999","09","21","08:00","7.0","","4.2","","82","","36","","17","","25.0","","99.85","","","","","","Clear"
"1999-09-21 09:00","1999","09","21","09:00","9.6","","4.6","","71","","1","","22","","25.0","","99.85","","","","","","Clear"
"1999-09-21 10:00","1999","09","21","10:00","11.1","","2.6","","56","","36","","24","","25.0","","99.89","","","","","","Mainly Clear"
"1999-09-21 11:00","1999","09","21","11:00","11.2","","1.5","","51","","3","","26","","25.0","","99.85","","","","","","Mainly Clear"
"1999-09-21 12:00","1999","09","21","12:00","12.0","","1.2","","48","","1","","28","","25.0","","99.82","","","","","","Mainly Clear"
"1999-09-21 13:00","1999","09","21","13:00","13.3","","0.5","","41","","1","","26","","25.0","","99.79","","","","","","Mainly Clear"
"1999-09-21 14:00","1999","09","21","14:00","14.0","","0.6","","40","","33","","22","","25.0","","99.72","","","","","","Clear"
"1999-09-21 15:00","1999","09","21","15:00","13.6","","0.0","","39","","35","","24","","25.0","","99.69","","","","","","Clear"
"1999-09-21 16:00","1999","09","21","16:00","13.3","","0.4","","41","","1","","17","","25.0","","99.65","","","","","","Clear"
"1999-09-21 17:00","1999","09","21","17:00","13.0","","1.0","","44","","36","","22","","25.0","","99.65","","","","","","Clear"
"1999-09-21 18:00","1999","09","21","18:00","11.3","","1.4","","50","","35","","30","","25.0","","99.72","","","","","","Clear"
"1999-09-21 19:00","1999","09","21","19:00","10.1","","1.9","","57","","34","","22","","25.0","","99.75","","","","","","Clear"
"1999-09-21 20:00","1999","09","21","20:00","8.9","","2.0","","62","","34","","24","","25.0","","99.79","","","","","","Clear"
"1999-09-21 21:00","1999","09","21","21:00","8.1","","2.3","","67","","34","","24","","25.0","","99.79","","","","","","Clear"
"1999-09-21 22:00","1999","09","21","22:00","7.5","","2.4","","70","","34","","19","","25.0","","99.75","","","","","","Clear"
"1999-09-21 23:00","1999","09","21","23:00","6.9","","2.4","","73","","35","","17","","25.0","","99.72","","","","","","Clear"
"1999-09-22 00:00","1999","09","22","00:00","6.3","","2.2","","75","","35","","17","","25.0","","99.65","","","","","","Clear"
"1999-09-22 01:00","1999","09","22","01:00","5.8","","2.1","","77","","36","","17","","25.0","","99.65","","","","","","Clear"
"1999-09-22 02:00","1999","09","22","02:00","4.9","","1.9","","81","","34","","13","","25.0","","99.59","","","","","","Clear"
"1999-09-22 03:00","1999","09","22","03:00","5.7","","1.6","","75","","32","","17","","25.0","","99.55","","","","","","Clear"
"1999-09-22 04:00","1999","09","22","04:00","4.4","","1.4","","81","","33","","13","","25.0","","99.55","","","","","","Clear"
"1999-09-22 05:00","1999","09","22","05:00","3.8","","0.9","","81","","2","","4","","25.0","","99.55","","","","","","Clear"
"1999-09-22 06:00","1999","09","22","06:00","3.0","","0.7","","85","","1","","11","","24.1","","99.59","","","","","","Clear"
"1999-09-22 07:00","1999","09","22","07:00","5.1","","1.7","","79","","32","","6","","25.0","","99.62","","","","","","Mainly Clear"
"1999-09-22 08:00","1999","09","22","08:00","8.3","","2.2","","65","","","","0","","25.0","","99.59","","","","","","Mainly Clear"
"1999-09-22 09:00","1999","09","22","09:00","10.8","","1.6","","53","","31","","4","","25.0","","99.59","","","","","","Mainly Clear"
"1999-09-22 10:00","1999","09","22","10:00","11.7","","1.8","","51","","32","","7","","25.0","","99.55","","","","","","Mainly Clear"
"1999-09-22 11:00","1999","09","22","11:00","13.8","","2.9","","48","","1","","9","","25.0","","99.49","","","","","","Mainly Clear"
"1999-09-22 12:00","1999","09","22","12:00","14.9","","3.7","","47","","30","","11","","24.1","","99.39","","","","","","Mainly Clear"
"1999-09-22 13:00","1999","09","22","13:00","15.6","","4.0","","46","","31","","13","","25.0","","99.32","","","","","","Mainly Clear"
"1999-09-22 14:00","1999","09","22","14:00","17.0","","4.0","","42","","27","","13","","25.0","","99.19","","","","","","Clear"
"1999-09-22 15:00","1999","09","22","15:00","17.5","","4.7","","43","","28","","19","","25.0","","99.16","","","","","","Mainly Clear"
"1999-09-22 16:00","1999","09","22","16:00","17.2","","5.4","","46","","29","","24","","25.0","","99.12","","","","","","Mostly Cloudy"
"1999-09-22 17:00","1999","09","22","17:00","17.2","","5.8","","47","","26","","17","","25.0","","99.09","","","","","","Mainly Clear"
"1999-09-22 18:00","1999","09","22","18:00","16.5","","5.1","","47","","28","","24","","25.0","","99.06","","","","","","Mainly Clear"
"1999-09-22 19:00","1999","09","22","19:00","14.8","","4.8","","51","","27","","17","","25.0","","99.06","","","","","","Mainly Clear"
"1999-09-22 20:00","1999","09","22","20:00","13.5","","4.5","","54","","27","","17","","25.0","","99.06","","","","","","Mainly Clear"
"1999-09-22 21:00","1999","09","22","21:00","12.2","","3.6","","56","","28","","13","","25.0","","99.09","","","","","","Clear"
"1999-09-22 22:00","1999","09","22","22:00","10.7","","3.8","","62","","29","","9","","25.0","","99.06","","","","","","Mainly Clear"
"1999-09-22 23:00","1999","09","22","23:00","9.7","","4.2","","69","","26","","7","","25.0","","98.99","","","","","","Clear"
"1999-09-23 00:00","1999","09","23","00:00","10.4","","4.3","","66","","26","","4","","25.0","","98.96","","","","","","Mainly Clear"
"1999-09-23 01:00","1999","09","23","01:00","10.5","","4.3","","65","","26","","4","","24.1","","98.89","","","","","","Clear"
"1999-09-23 02:00","1999","09","23","02:00","10.4","","4.2","","65","","25","","6","","24.1","","98.86","","","","","","Mainly Clear"
"1999-09-23 03:00","1999","09","23","03:00","10.7","","5.2","","69","","27","","11","","24.1","","98.76","","","","","","Mainly Clear"
"1999-09-23 04:00","1999","09","23","04:00","10.6","","5.7","","72","","26","","6","","24.1","","98.72","","","","","","Mainly Clear"
"1999-09-23 05:00","1999","09","23","05:00","11.3","","6.3","","71","","23","","11","","24.1","","98.69","","","","","","Mostly Cloudy"
"1999-09-23 06:00","1999","09","23","06:00","11.4","","6.9","","74","","25","","9","","19.3","","98.72","","","","","","Mainly Clear"
"1999-09-23 07:00","1999","09","23","07:00","11.2","","7.2","","76","","25","","13","","24.1","","98.69","","","","","","Mainly Clear"
"1999-09-23 08:00","1999","09","23","08:00","14.8","","9.0","","68","","26","","33","","24.1","","98.62","","","","","","Mainly Clear"
"1999-09-23 09:00","1999","09","23","09:00","18.6","","10.5","","59","","27","","35","","24.1","","98.66","","","","","","Mostly Cloudy"
"1999-09-23 10:00","1999","09","23","10:00","18.7","","10.5","","59","","25","","26","","19.3","","98.62","","","","","","Mostly Cloudy"
"1999-09-23 11:00","1999","09","23","11:00","18.6","","10.4","","59","","25","","20","","24.1","","98.62","","","","","","Mostly Cloudy"
"1999-09-23 12:00","1999","09","23","12:00","19.5","","10.6","","56","","23","","13","","24.1","","98.59","","","","","","Mostly Cloudy"
"1999-09-23 13:00","1999","09","23","13:00","22.0","","10.5","","48","","25","","26","","24.1","","98.52","","","","","","Mostly Cloudy"
"1999-09-23 14:00","1999","09","23","14:00","23.6","","6.6","","33","","25","","32","","25.0","","98.46","","","","","","Mostly Cloudy"
"1999-09-23 15:00","1999","09","23","15:00","26.1","","6.7","","29","","23","","24","","25.0","","98.42","","26","","","","Mostly Cloudy"
"1999-09-23 16:00","1999","09","23","16:00","24.7","","8.6","","36","","23","","32","","24.1","","98.42","","25","","","","Mainly Clear"
"1999-09-23 17:00","1999","09","23","17:00","23.0","","8.2","","39","","23","","37","","24.1","","98.46","","","","","","Mainly Clear"
"1999-09-23 18:00","1999","09","23","18:00","21.1","","7.8","","42","","22","","32","","24.1","","98.52","","","","","","Mostly Cloudy"
"1999-09-23 19:00","1999","09","23","19:00","19.5","","6.7","","43","","23","","30","","24.1","","98.56","","","","","","Mostly Cloudy"
"1999-09-23 20:00","1999","09","23","20:00","18.7","","6.1","","44","","23","","24","","24.1","","98.56","","","","","","Clear"
"1999-09-23 21:00","1999","09","23","21:00","18.2","","5.9","","44","","23","","24","","24.1","","98.56","","","","","","Mainly Clear"
"1999-09-23 22:00","1999","09","23","22:00","17.9","","6.1","","46","","24","","22","","24.1","","98.52","","","","","","Mainly Clear"
"1999-09-23 23:00","1999","09","23","23:00","16.7","","6.9","","52","","22","","20","","24.1","","98.52","","","","","","Mainly Clear"
"1999-09-24 00:00","1999","09","24","00:00","14.9","","7.8","","62","","26","","4","","24.1","","98.56","","","","","","Mainly Clear"
"1999-09-24 01:00","1999","09","24","01:00","14.2","","8.3","","68","","25","","7","","24.1","","98.56","","","","","","Mainly Clear"
"1999-09-24 02:00","1999","09","24","02:00","13.5","","8.0","","69","","29","","9","","24.1","","98.59","","","","","","Mostly Cloudy"
"1999-09-24 03:00","1999","09","24","03:00","13.3","","8.3","","72","","35","","9","","24.1","","98.56","","","","","","Mostly Cloudy"
"1999-09-24 04:00","1999","09","24","04:00","14.0","","11.3","","84","","36","","7","","24.1","","98.59","","","","","","Cloudy"
"1999-09-24 05:00","1999","09","24","05:00","14.2","","11.9","","86","","","","0","","24.1","","98.62","","","","","","Cloudy"
"1999-09-24 06:00","1999","09","24","06:00","14.4","","13.0","","91","","22","","17","","6.4","","98.66","","","","","","Moderate Rain Showers,Fog"
"1999-09-24 07:00","1999","09","24","07:00","13.6","","11.9","","89","","19","","13","","24.1","","98.56","","","","","","Rain Showers"
"1999-09-24 08:00","1999","09","24","08:00","13.5","","12.6","","94","","27","","6","","19.3","","98.66","","","","","","Cloudy"
"1999-09-24 09:00","1999","09","24","09:00","14.2","","12.8","","91","","25","","11","","19.3","","98.69","","","","","","Cloudy"
"1999-09-24 10:00","1999","09","24","10:00","15.6","","12.8","","83","","25","","19","","24.1","","98.72","","","","","","Mostly Cloudy"
"1999-09-24 11:00","1999","09","24","11:00","16.4","","12.6","","78","","25","","22","","24.1","","98.76","","","","","","Mostly Cloudy"
"1999-09-24 12:00","1999","09","24","12:00","15.8","","11.3","","75","","33","","28","","25.0","","98.76","","","","","","Mostly Cloudy"
"1999-09-24 13:00","1999","09","24","13:00","18.0","","11.2","","64","","36","","24","","25.0","","98.76","","","","","","Mainly Clear"
"1999-09-24 14:00","1999","09","24","14:00","18.6","","10.3","","58","","33","","22","","25.0","","98.79","","","","","","Mostly Cloudy"
"1999-09-24 15:00","1999","09","24","15:00","18.7","","9.0","","53","","34","","24","","25.0","","98.82","","","","","","Mainly Clear"
"1999-09-24 16:00","1999","09","24","16:00","17.9","","7.9","","52","","35","","22","","25.0","","98.86","","","","","","Mainly Clear"
"1999-09-24 17:00","1999","09","24","17:00","16.3","","7.9","","57","","1","","24","","25.0","","98.92","","","","","","Mainly Clear"
"1999-09-24 18:00","1999","09","24","18:00","15.0","","7.2","","60","","36","","15","","25.0","","98.99","","","","","","Mostly Cloudy"
"1999-09-24 19:00","1999","09","24","19:00","13.4","","6.9","","65","","36","","17","","25.0","","99.09","","","","","","Mainly Clear"
"1999-09-24 20:00","1999","09","24","20:00","12.5","","6.8","","68","","36","","19","","25.0","","99.19","","","","","","Mostly Cloudy"
"1999-09-24 21:00","1999","09","24","21:00","12.7","","7.3","","70","","36","","15","","24.1","","99.26","","","","","","Mostly Cloudy"
"1999-09-24 22:00","1999","09","24","22:00","12.0","","7.2","","72","","33","","11","","24.1","","99.29","","","","","","Mostly Cloudy"
"1999-09-24 23:00","1999","09","24","23:00","11.8","","7.3","","74","","35","","6","","24.1","","99.29","","","","","","Mostly Cloudy"
"1999-09-25 00:00","1999","09","25","00:00","11.4","","7.6","","77","","35","","4","","24.1","","99.29","","","","","","Mostly Cloudy"
"1999-09-25 01:00","1999","09","25","01:00","10.8","","7.5","","80","","35","","11","","24.1","","99.35","","","","","","Mostly Cloudy"
"1999-09-25 02:00","1999","09","25","02:00","9.8","","7.0","","83","","35","","7","","24.1","","99.35","","","","","","Mostly Cloudy"
"1999-09-25 03:00","1999","09","25","03:00","9.2","","7.0","","86","","34","","11","","24.1","","99.39","","","","","","Mainly Clear"
"1999-09-25 04:00","1999","09","25","04:00","9.5","","7.6","","88","","35","","15","","24.1","","99.45","","","","","","Mostly Cloudy"
"1999-09-25 05:00","1999","09","25","05:00","8.2","","6.6","","90","","2","","11","","24.1","","99.49","","","","","","Mainly Clear"
"1999-09-25 06:00","1999","09","25","06:00","7.8","","6.2","","90","","36","","15","","24.1","","99.59","","","","","","Mainly Clear"
"1999-09-25 07:00","1999","09","25","07:00","8.6","","7.1","","90","","2","","11","","24.1","","99.65","","","","","","Mainly Clear"
"1999-09-25 08:00","1999","09","25","08:00","10.5","","7.0","","79","","1","","7","","24.1","","99.72","","","","","","Clear"
"1999-09-25 09:00","1999","09","25","09:00","12.7","","5.3","","61","","6","","7","","24.1","","99.75","","","","","","Clear"
"1999-09-25 10:00","1999","09","25","10:00","13.9","","5.5","","57","","8","","4","","24.1","","99.75","","","","","","Mainly Clear"
"1999-09-25 11:00","1999","09","25","11:00","15.0","","5.4","","53","","28","","7","","24.1","","99.75","","","","","","Mainly Clear"
"1999-09-25 12:00","1999","09","25","12:00","16.0","","4.8","","47","","","","0","","24.1","","99.79","","","","","","Mainly Clear"
"1999-09-25 13:00","1999","09","25","13:00","16.3","","6.5","","52","","14","","13","","24.1","","99.75","","","","","","Mainly Clear"
"1999-09-25 14:00","1999","09","25","14:00","16.5","","7.1","","54","","17","","11","","25.0","","99.72","","","","","","Mainly Clear"
"1999-09-25 15:00","1999","09","25","15:00","16.4","","6.9","","53","","14","","11","","25.0","","99.75","","","","","","Clear"
"1999-09-25 16:00","1999","09","25","16:00","16.0","","6.8","","54","","17","","15","","25.0","","99.75","","","","","","Clear"
"1999-09-25 17:00","1999","09","25","17:00","15.5","","6.8","","56","","16","","15","","25.0","","99.75","","","","","","Clear"
"1999-09-25 18:00","1999","09","25","18:00","14.3","","7.0","","61","","16","","11","","25.0","","99.79","","","","","","Clear"
"1999-09-25 19:00","1999","09","25","19:00","13.6","","7.5","","67","","17","","6","","25.0","","99.85","","","","","","Clear"
"1999-09-25 20:00","1999","09","25","20:00","13.3","","7.8","","69","","13","","6","","25.0","","99.89","","","","","","Clear"
"1999-09-25 21:00","1999","09","25","21:00","13.0","","8.3","","73","","15","","9","","25.0","","99.89","","","","","","Clear"
"1999-09-25 22:00","1999","09","25","22:00","12.7","","8.5","","76","","14","","7","","25.0","","99.89","","","","","","Clear"
"1999-09-25 23:00","1999","09","25","23:00","12.6","","7.9","","73","","14","","9","","24.1","","99.92","","","","","","Clear"
"1999-09-26 00:00","1999","09","26","00:00","12.6","","7.5","","71","","13","","7","","24.1","","99.95","","","","","","Clear"
"1999-09-26 01:00","1999","09","26","01:00","12.4","","7.9","","74","","12","","9","","24.1","","99.95","","","","","","Clear"
"1999-09-26 02:00","1999","09","26","02:00","11.9","","7.2","","73","","11","","11","","24.1","","99.95","","","","","","Clear"
"1999-09-26 03:00","1999","09","26","03:00","9.8","","7.1","","83","","8","","4","","24.1","","99.95","","","","","","Clear"
"1999-09-26 04:00","1999","09","26","04:00","8.9","","6.8","","87","","5","","4","","24.1","","99.99","","","","","","Clear"
"1999-09-26 05:00","1999","09","26","05:00","8.4","","6.3","","87","","3","","6","","24.1","","100.02","","","","","","Clear"
"1999-09-26 06:00","1999","09","26","06:00","8.6","","6.7","","88","","4","","7","","24.1","","100.05","","","","","","Clear"
"1999-09-26 07:00","1999","09","26","07:00","9.2","","7.0","","86","","","","0","","24.1","","100.05","","","","","","Clear"
"1999-09-26 08:00","1999","09","26","08:00","12.6","","9.6","","82","","","","0","","24.1","","100.05","","","","","","Clear"
"1999-09-26 09:00","1999","09","26","09:00","15.6","","11.0","","74","","13","","9","","24.1","","100.09","","","","","","Clear"
"1999-09-26 10:00","1999","09","26","10:00","17.4","","11.2","","67","","11","","13","","25.0","","100.09","","","","","","Clear"
"1999-09-26 11:00","1999","09","26","11:00","19.3","","10.5","","57","","10","","19","","25.0","","100.02","","","","","","Clear"
"1999-09-26 12:00","1999","09","26","12:00","20.2","","9.3","","49","","14","","20","","25.0","","99.99","","","","","","Clear"
"1999-09-26 13:00","1999","09","26","13:00","20.3","","8.4","","46","","11","","22","","25.0","","99.95","","","","","","Clear"
"1999-09-26 14:00","1999","09","26","14:00","20.6","","9.5","","49","","13","","17","","25.0","","99.89","","","","","","Clear"
"1999-09-26 15:00","1999","09","26","15:00","21.5","","11.2","","52","","10","","15","","25.0","","99.85","","","","","","Clear"
"1999-09-26 16:00","1999","09","26","16:00","19.8","","12.0","","61","","10","","17","","25.0","","99.82","","","","","","Mainly Clear"
"1999-09-26 17:00","1999","09","26","17:00","18.9","","11.4","","62","","8","","19","","25.0","","99.85","","","","","","Mainly Clear"
"1999-09-26 18:00","1999","09","26","18:00","17.7","","12.3","","71","","8","","11","","25.0","","99.85","","","","","","Mainly Clear"
"1999-09-26 19:00","1999","09","26","19:00","16.7","","12.8","","78","","9","","9","","24.1","","99.85","","","","","","Mainly Clear"
"1999-09-26 20:00","1999","09","26","20:00","16.7","","13.4","","81","","7","","9","","24.1","","99.92","","","","","","Clear"
"1999-09-26 21:00","1999","09","26","21:00","16.3","","13.6","","84","","11","","4","","19.3","","99.92","","","","","","Clear"
"1999-09-26 22:00","1999","09","26","22:00","16.4","","13.8","","85","","9","","6","","19.3","","99.92","","","","","","Clear"
"1999-09-26 23:00","1999","09","26","23:00","15.2","","13.6","","90","","","","0","","19.3","","99.92","","","","","","Clear"
"1999-09-27 00:00","1999","09","27","00:00","14.3","","12.7","","90","","","","0","","19.3","","99.89","","","","","","Clear"
"1999-09-27 01:00","1999","09","27","01:00","14.5","","12.6","","88","","","","0","","19.3","","99.92","","","","","","Clear"
"1999-09-27 02:00","1999","09","27","02:00","12.9","","11.4","","91","","29","","4","","16.1","","99.92","","","","","","Mainly Clear"
"1999-09-27 03:00","1999","09","27","03:00","14.2","","13.1","","93","","30","","6","","16.1","","99.89","","","","","","Clear"
"1999-09-27 04:00","1999","09","27","04:00","14.0","","12.0","","88","","14","","4","","12.9","","99.89","","","","","","Mostly Cloudy"
"1999-09-27 05:00","1999","09","27","05:00","16.6","","15.3","","92","","14","","7","","12.9","","99.92","","","","","","Mostly Cloudy"
"1999-09-27 06:00","1999","09","27","06:00","17.0","","15.5","","91","","16","","6","","6.4","","99.99","","","","","","Fog"
"1999-09-27 07:00","1999","09","27","07:00","14.9","","13.8","","93","","11","","6","","4.0","","100.02","","","","","","Fog"
"1999-09-27 08:00","1999","09","27","08:00","18.0","","16.2","","89","","12","","7","","6.4","","100.02","","","","","","Fog"
"1999-09-27 09:00","1999","09","27","09:00","19.6","","16.6","","83","","17","","7","","8.0","","100.05","","","","","","Haze"
"1999-09-27 10:00","1999","09","27","10:00","22.0","","16.8","","72","","16","","15","","9.7","","100.05","","27","","","","Haze"
"1999-09-27 11:00","1999","09","27","11:00","21.5","","16.6","","74","","16","","15","","8.0","","99.99","","27","","","","Haze"
"1999-09-27 12:00","1999","09","27","12:00","21.6","","16.8","","74","","14","","13","","8.0","","99.99","","27","","","","Haze"
"1999-09-27 13:00","1999","09","27","13:00","22.8","","16.9","","69","","12","","17","","9.7","","99.92","","28","","","","Haze"
"1999-09-27 14:00","1999","09","27","14:00","23.6","","16.7","","65","","12","","17","","12.9","","99.92","","29","","","","Mostly Cloudy"
"1999-09-27 15:00","1999","09","27","15:00","23.7","","16.7","","65","","15","","17","","16.1","","99.92","","29","","","","Mainly Clear"
"1999-09-27 16:00","1999","09","27","16:00","23.2","","16.5","","66","","13","","17","","12.9","","99.92","","28","","","","Mostly Cloudy"
"1999-09-27 17:00","1999","09","27","17:00","22.4","","16.3","","68","","12","","15","","9.7","","99.92","","27","","","","Haze"
"1999-09-27 18:00","1999","09","27","18:00","22.0","","16.5","","71","","13","","9","","9.7","","99.95","","27","","","","Haze"
"1999-09-27 19:00","1999","09","27","19:00","21.0","","16.7","","76","","14","","9","","9.7","","99.95","","26","","","","Haze"
"1999-09-27 20:00","1999","09","27","20:00","20.4","","16.7","","79","","15","","7","","9.7","","99.95","","25","","","","Haze"
"1999-09-27 21:00","1999","09","27","21:00","20.3","","17.1","","82","","14","","6","","9.7","","99.95","","26","","","","Haze"
"1999-09-27 22:00","1999","09","27","22:00","20.0","","17.2","","84","","14","","11","","8.0","","99.99","","25","","","","Haze"
"1999-09-27 23:00","1999","09","27","23:00","19.4","","17.0","","86","","15","","7","","9.7","","99.95","","","","","","Haze"
"1999-09-28 00:00","1999","09","28","00:00","19.7","","16.7","","83","","18","","7","","9.7","","99.95","","","","","","Haze"
"1999-09-28 01:00","1999","09","28","01:00","19.6","","16.7","","83","","17","","6","","9.7","","99.95","","","","","","Haze"
"1999-09-28 02:00","1999","09","28","02:00","18.6","","16.7","","89","","14","","6","","9.7","","99.95","","","","","","Fog"
"1999-09-28 03:00","1999","09","28","03:00","18.7","","17.0","","90","","12","","4","","9.7","","99.95","","","","","","Fog"
"1999-09-28 04:00","1999","09","28","04:00","18.7","","17.2","","91","","15","","4","","9.7","","99.99","","","","","","Fog"
"1999-09-28 05:00","1999","09","28","05:00","18.6","","17.6","","94","","15","","11","","9.7","","100.05","","","","","","Fog"
"1999-09-28 06:00","1999","09","28","06:00","18.8","","17.6","","93","","15","","7","","8.0","","100.09","","","","","","Fog"
"1999-09-28 07:00","1999","09","28","07:00","19.3","","17.7","","90","","14","","9","","8.0","","100.09","","","","","","Fog"
"1999-09-28 08:00","1999","09","28","08:00","20.7","","18.1","","85","","18","","11","","11.3","","100.05","","27","","","","Mostly Cloudy"
"1999-09-28 09:00","1999","09","28","09:00","22.4","","18.2","","77","","18","","13","","16.1","","100.02","","29","","","","Mainly Clear"
"1999-09-28 10:00","1999","09","28","10:00","24.0","","18.4","","71","","16","","15","","19.3","","100.02","","30","","","","Mainly Clear"
"1999-09-28 11:00","1999","09","28","11:00","24.2","","18.2","","69","","16","","15","","19.3","","99.95","","30","","","","Mainly Clear"
"1999-09-28 12:00","1999","09","28","12:00","24.5","","18.0","","67","","14","","19","","19.3","","99.95","","31","","","","Clear"
"1999-09-28 13:00","1999","09","28","13:00","25.2","","18.2","","65","","15","","15","","19.3","","99.85","","31","","","","Mainly Clear"
"1999-09-28 14:00","1999","09","28","14:00","24.7","","17.9","","66","","13","","17","","19.3","","99.82","","31","","","","Mainly Clear"
"1999-09-28 15:00","1999","09","28","15:00","24.7","","17.6","","65","","13","","19","","19.3","","99.79","","30","","","","Mostly Cloudy"
"1999-09-28 16:00","1999","09","28","16:00","25.1","","17.8","","64","","15","","15","","19.3","","99.75","","31","","","","Mainly Clear"
"1999-09-28 17:00","1999","09","28","17:00","24.4","","17.7","","66","","14","","17","","19.3","","99.75","","30","","","","Mainly Clear"
"1999-09-28 18:00","1999","09","28","18:00","23.1","","17.6","","71","","13","","11","","19.3","","99.69","","29","","","","Mainly Clear"
"1999-09-28 19:00","1999","09","28","19:00","21.6","","17.7","","78","","15","","7","","19.3","","99.69","","27","","","","Mainly Clear"
"1999-09-28 20:00","1999","09","28","20:00","20.8","","17.9","","83","","15","","9","","19.3","","99.65","","27","","","","Mainly Clear"
"1999-09-28 21:00","1999","09","28","21:00","20.2","","18.0","","87","","15","","7","","16.1","","99.62","","26","","","","Mainly Clear"
"1999-09-28 22:00","1999","09","28","22:00","20.1","","18.0","","88","","13","","7","","12.9","","99.59","","26","","","","Mainly Clear"
"1999-09-28 23:00","1999","09","28","23:00","19.9","","18.2","","90","","16","","4","","12.9","","99.59","","","","","","Clear"
"1999-09-29 00:00","1999","09","29","00:00","19.9","","18.3","","91","","15","","6","","12.9","","99.49","","","","","","Mainly Clear"
"1999-09-29 01:00","1999","09","29","01:00","19.4","","18.3","","93","","15","","6","","12.9","","99.49","","","","","","Mainly Clear"
"1999-09-29 02:00","1999","09","29","02:00","19.2","","18.3","","95","","14","","9","","12.9","","99.42","","","","","","Mainly Clear"
"1999-09-29 03:00","1999","09","29","03:00","19.1","","18.3","","95","","15","","7","","11.3","","99.39","","","","","","Mainly Clear"
"1999-09-29 04:00","1999","09","29","04:00","19.1","","18.2","","95","","14","","9","","11.3","","99.32","","","","","","Mainly Clear"
"1999-09-29 05:00","1999","09","29","05:00","19.4","","18.3","","93","","15","","11","","8.0","","99.29","","","","","","Fog"
"1999-09-29 06:00","1999","09","29","06:00","19.6","","18.4","","93","","16","","9","","6.4","","99.26","","","","","","Fog"
"1999-09-29 07:00","1999","09","29","07:00","19.6","","18.3","","92","","15","","7","","4.0","","99.26","","","","","","Fog"
"1999-09-29 08:00","1999","09","29","08:00","20.2","","18.6","","91","","20","","7","","4.8","","99.19","","27","","","","Rain Showers,Fog"
"1999-09-29 09:00","1999","09","29","09:00","20.1","","19.2","","95","","14","","7","","3.6","","99.09","","27","","","","Fog"
"1999-09-29 10:00","1999","09","29","10:00","20.2","","19.5","","96","","20","","7","","2.4","","99.12","","27","","","","Thunderstorms,Moderate Rain Showers,Fog"
"1999-09-29 11:00","1999","09","29","11:00","20.2","","19.6","","96","","14","","17","","3.2","","98.96","","27","","","","Rain Showers,Fog"
"1999-09-29 12:00","1999","09","29","12:00","19.9","","19.5","","98","","20","","9","","3.2","","98.89","","","","","","Rain Showers,Fog"
"1999-09-29 13:00","1999","09","29","13:00","20.9","","20.2","","96","","17","","11","","8.0","","98.79","","29","","","","Rain,Fog"
"1999-09-29 14:00","1999","09","29","14:00","21.0","","20.2","","95","","17","","15","","4.8","","98.66","","29","","","","Fog"
"1999-09-29 15:00","1999","09","29","15:00","20.8","","19.9","","95","","17","","11","","4.8","","98.52","","28","","","","Rain,Fog"
"1999-09-29 16:00","1999","09","29","16:00","20.4","","19.6","","95","","14","","11","","4.0","","98.32","","28","","","","Rain Showers,Fog"
"1999-09-29 17:00","1999","09","29","17:00","19.8","","19.1","","96","","18","","20","","3.2","","98.22","","","","","","Moderate Rain Showers,Fog"
"1999-09-29 18:00","1999","09","29","18:00","18.4","","17.9","","97","","13","","9","","4.8","","98.09","","","","","","Rain Showers,Fog"
"1999-09-29 19:00","1999","09","29","19:00","17.8","","17.5","","98","","13","","7","","4.8","","98.06","","","","","","Thunderstorms,Heavy Rain Showers,Fog"
"1999-09-29 20:00","1999","09","29","20:00","13.5","","12.9","","96","","33","","44","","4.0","","98.12","","","","","","Heavy Rain Showers,Fog"
"1999-09-29 21:00","1999","09","29","21:00","12.4","","12.0","","97","","35","","39","","4.0","","98.09","","","","","","Heavy Rain Showers,Fog"
"1999-09-29 22:00","1999","09","29","22:00","12.8","","12.5","","98","","32","","44","","4.8","","98.06","","","","","","Rain Showers,Fog"
"1999-09-29 23:00","1999","09","29","23:00","12.1","","11.9","","99","","30","","35","","4.8","","98.16","","","","","","Rain Showers,Fog"
"1999-09-30 00:00","1999","09","30","00:00","11.8","","11.6","","99","","29","","24","","4.8","","98.22","","","","","","Rain Showers,Fog"
"1999-09-30 01:00","1999","09","30","01:00","11.4","","11.2","","99","","28","","28","","11.3","","98.16","","","","","","Rain Showers"
"1999-09-30 02:00","1999","09","30","02:00","11.3","","11.1","","99","","29","","35","","6.4","","98.22","","","","","","Rain,Fog"
"1999-09-30 03:00","1999","09","30","03:00","10.7","","10.4","","98","","30","","44","","6.4","","98.22","","","","","","Rain,Fog"
"1999-09-30 04:00","1999","09","30","04:00","10.7","","10.4","","98","","32","","39","","16.1","","98.26","","","","","","Rain Showers"
"1999-09-30 05:00","1999","09","30","05:00","10.1","","9.7","","97","","31","","44","","19.3","","98.39","","","","","","Mostly Cloudy"
"1999-09-30 06:00","1999","09","30","06:00","9.9","","8.8","","93","","30","","35","","24.1","","98.49","","","","","","Mostly Cloudy"
"1999-09-30 07:00","1999","09","30","07:00","9.9","","8.4","","90","","29","","30","","25.0","","98.59","","","","","","Mainly Clear"
"1999-09-30 08:00","1999","09","30","08:00","10.8","","7.4","","79","","29","","35","","25.0","","98.69","","","","","","Mainly Clear"
"1999-09-30 09:00","1999","09","30","09:00","12.4","","6.7","","68","","30","","41","","25.0","","98.72","","","","","","Clear"
"1999-09-30 10:00","1999","09","30","10:00","14.0","","6.5","","61","","31","","43","","25.0","","98.79","","","","","","Mainly Clear"
"1999-09-30 11:00","1999","09","30","11:00","15.2","","6.2","","55","","30","","44","","25.0","","98.82","","","","","","Mainly Clear"
"1999-09-30 12:00","1999","09","30","12:00","15.4","","6.5","","55","","28","","35","","25.0","","98.86","","","","","","Mainly Clear"
"1999-09-30 13:00","1999","09","30","13:00","14.0","","5.1","","55","","29","","35","","25.0","","98.92","","","","","","Mostly Cloudy"
"1999-09-30 14:00","1999","09","30","14:00","15.0","","6.6","","57","","29","","37","","24.1","","98.92","","","","","","Mainly Clear"
"1999-09-30 15:00","1999","09","30","15:00","16.2","","5.0","","47","","29","","37","","24.1","","98.92","","","","","","Mainly Clear"
"1999-09-30 16:00","1999","09","30","16:00","15.3","","3.1","","44","","27","","33","","24.1","","98.96","","","","","","Mainly Clear"
"1999-09-30 17:00","1999","09","30","17:00","14.8","","2.6","","44","","28","","37","","24.1","","98.96","","","","","","Mainly Clear"
"1999-09-30 18:00","1999","09","30","18:00","13.5","","3.6","","51","","27","","19","","24.1","","98.99","","","","","","Mainly Clear"
"1999-09-30 19:00","1999","09","30","19:00","12.6","","4.1","","56","","22","","13","","24.1","","98.99","","","","","","Mainly Clear"
"1999-09-30 20:00","1999","09","30","20:00","13.3","","4.3","","54","","22","","15","","24.1","","98.99","","","","","","Mostly Cloudy"
"1999-09-30 21:00","1999","09","30","21:00","13.0","","4.4","","56","","22","","22","","24.1","","98.99","","","","","","Mainly Clear"
"1999-09-30 22:00","1999","09","30","22:00","13.5","","6.2","","61","","23","","28","","25.0","","98.92","","","","","","Cloudy"
"1999-09-30 23:00","1999","09","30","23:00","13.5","","6.5","","63","","21","","22","","24.1","","98.86","","","","","","Clear"
