"Station Name","TORONTO LESTER B. PEARSON INT'L A"
"Province","ONTARIO"
"Latitude","43.68"
"Longitude","-79.63"
"Elevation","173.40"
"Climate Identifier","6158733"
"WMO Identifier","71624"
"TC Identifier","YYZ"
"All times are specified in Local Standard Time (LST). Add 1 hour to adjust for Daylight Saving Time where and when it is observed."

"Legend"
"E","Estimated"
"M","Missing"
"NA","Not Available"

"Date/Time","Year","Month","Day","Time","Temp (°C)","Temp Flag","Dew Point Temp (°C)","Dew Point Temp Flag","Rel Hum (%)","Rel Hum Flag","Wind Dir (10s deg)","Wind Dir Flag","Wind Spd (km/h)","Wind Spd Flag","Visibility (km)","Visibility Flag","Stn Press (kPa)","Stn Press Flag","Hmdx","Hmdx Flag","Wind Chill","Wind Chill Flag","Weather"
"1987-02-01 00:00","1987","02","01","00:00","-10.2","","-12.0","","87","","28","","13","","25.0","","99.61","","","","-16","","Mainly Clear"
"1987-02-01 01:00","1987","02","01","01:00","-9.4","","-11.4","","85","","26","","4","","25.0","","99.51","","","","-12","","Mostly Cloudy"
"1987-02-01 02:00","1987","02","01","02:00","-9.1","","-10.9","","87","","21","","7","","25.0","","99.47","","","","-13","","Cloudy"
"1987-02-01 03:00","1987","02","01","03:00","-8.2","","-10.1","","86","","22","","4","","25.0","","99.44","","","","-10","","Cloudy"
"1987-02-01 04:00","1987","02","01","04:00","-8.0","","-10.1","","85","","27","","6","","12.9","","99.47","","","","-11","","Cloudy"
"1987-02-01 05:00","1987","02","01","05:00","-7.8","","-10.1","","83","","","","0","","12.9","","99.37","","","","","","Cloudy"
"1987-02-01 06:00","1987","02","01","06:00","-7.8","","-10.1","","83","","11","","6","","12.9","","99.27","","","","-11","","Cloudy"
"1987-02-01 07:00","1987","02","01","07:00","-5.8","","-8.4","","82","","16","","4","","12.9","","99.21","","","","-8","","Cloudy"
"1987-02-01 08:00","1987","02","01","08:00","-5.0","","-6.9","","87","","15","","7","","11.3","","99.14","","","","-8","","Cloudy"
"1987-02-01 09:00","1987","02","01","09:00","-3.0","","-4.8","","87","","15","","19","","12.9","","98.97","","","","-9","","Mostly Cloudy"
"1987-02-01 10:00","1987","02","01","10:00","-2.0","","-3.9","","87","","15","","20","","16.1","","98.84","","","","-8","","Mostly Cloudy"
"1987-02-01 11:00","1987","02","01","11:00","-1.5","","-3.9","","84","","16","","19","","16.1","","98.81","","","","-7","","Cloudy"
"1987-02-01 12:00","1987","02","01","12:00","-0.8","","-3.3","","83","","14","","19","","16.1","","98.67","","","","-6","","Cloudy"
"1987-02-01 13:00","1987","02","01","13:00","-0.2","","-2.8","","83","","13","","22","","24.1","","98.51","","","","-6","","Cloudy"
"1987-02-01 14:00","1987","02","01","14:00","0.2","","-2.3","","83","","12","","19","","19.3","","98.37","","","","","","Cloudy"
"1987-02-01 15:00","1987","02","01","15:00","0.4","","-1.6","","86","","13","","19","","19.3","","98.31","","","","","","Cloudy"
"1987-02-01 16:00","1987","02","01","16:00","0.7","","-1.4","","86","","11","","6","","12.9","","98.21","","","","","","Cloudy"
"1987-02-01 17:00","1987","02","01","17:00","1.7","","-1.5","","79","","14","","7","","12.9","","98.17","","","","","","Cloudy"
"1987-02-01 18:00","1987","02","01","18:00","2.4","","-0.9","","79","","19","","11","","16.1","","98.14","","","","","","Cloudy"
"1987-02-01 19:00","1987","02","01","19:00","2.2","","-1.5","","76","","20","","11","","12.9","","98.14","","","","","","Cloudy"
"1987-02-01 20:00","1987","02","01","20:00","1.6","","-1.5","","80","","22","","11","","12.9","","98.11","","","","","","Cloudy"
"1987-02-01 21:00","1987","02","01","21:00","1.5","","-1.5","","80","","22","","13","","9.7","","98.07","","","","","","Haze"
"1987-02-01 22:00","1987","02","01","22:00","1.6","","-1.0","","83","","23","","13","","12.9","","98.04","","","","","","Cloudy"
"1987-02-01 23:00","1987","02","01","23:00","1.2","","-1.5","","82","","22","","9","","9.7","","98.01","","","","","","Haze"
"1987-02-02 00:00","1987","02","02","00:00","1.0","","-1.0","","86","","21","","7","","11.3","","98.01","","","","","","Cloudy"
"1987-02-02 01:00","1987","02","02","01:00","0.9","","-1.0","","87","","21","","9","","11.3","","97.97","","","","","","Cloudy"
"1987-02-02 02:00","1987","02","02","02:00","0.8","","-1.0","","88","","20","","7","","11.3","","97.94","","","","","","Cloudy"
"1987-02-02 03:00","1987","02","02","03:00","-0.1","","-1.9","","88","","20","","6","","11.3","","97.91","","","","-2","","Mostly Cloudy"
"1987-02-02 04:00","1987","02","02","04:00","-0.5","","-2.1","","89","","21","","4","","11.3","","97.91","","","","-2","","Mostly Cloudy"
"1987-02-02 05:00","1987","02","02","05:00","-1.0","","-2.2","","91","","20","","4","","9.7","","97.91","","","","-2","","Fog"
"1987-02-02 06:00","1987","02","02","06:00","-1.4","","-2.8","","90","","20","","6","","9.7","","97.91","","","","-4","","Fog"
"1987-02-02 07:00","1987","02","02","07:00","-0.8","","-1.9","","92","","15","","4","","6.4","","97.91","","","","-2","","Fog"
"1987-02-02 08:00","1987","02","02","08:00","0.4","","-0.5","","94","","20","","13","","4.8","","97.94","","","","","","Fog"
"1987-02-02 09:00","1987","02","02","09:00","0.6","","-1.4","","86","","23","","13","","6.4","","97.97","","","","","","Fog"
"1987-02-02 10:00","1987","02","02","10:00","1.5","","-1.0","","83","","24","","15","","6.4","","97.97","","","","","","Haze"
"1987-02-02 11:00","1987","02","02","11:00","1.9","","-1.0","","81","","24","","22","","6.4","","98.04","","","","","","Haze"
"1987-02-02 12:00","1987","02","02","12:00","2.1","","-1.0","","80","","24","","15","","6.4","","98.04","","","","","","Haze"
"1987-02-02 13:00","1987","02","02","13:00","2.3","","-0.9","","80","","24","","20","","6.4","","98.04","","","","","","Haze"
"1987-02-02 14:00","1987","02","02","14:00","2.2","","-1.0","","79","","24","","19","","8.0","","98.01","","","","","","Haze"
"1987-02-02 15:00","1987","02","02","15:00","2.3","","-0.9","","80","","25","","15","","8.0","","98.04","","","","","","Haze"
"1987-02-02 16:00","1987","02","02","16:00","1.9","","-0.4","","85","","26","","15","","9.7","","98.07","","","","","","Fog"
"1987-02-02 17:00","1987","02","02","17:00","1.9","","-0.4","","85","","25","","13","","9.7","","98.11","","","","","","Fog"
"1987-02-02 18:00","1987","02","02","18:00","1.7","","-1.0","","82","","23","","11","","8.0","","98.14","","","","","","Haze"
"1987-02-02 19:00","1987","02","02","19:00","1.5","","-0.5","","87","","22","","11","","8.0","","98.14","","","","","","Fog"
"1987-02-02 20:00","1987","02","02","20:00","1.3","","-0.5","","88","","22","","13","","6.4","","98.14","","","","","","Fog"
"1987-02-02 21:00","1987","02","02","21:00","1.2","","-1.0","","85","","21","","13","","6.4","","98.14","","","","","","Fog"
"1987-02-02 22:00","1987","02","02","22:00","1.3","","-0.5","","88","","20","","13","","6.4","","98.11","","","","","","Fog"
"1987-02-02 23:00","1987","02","02","23:00","0.3","","-0.6","","94","","21","","13","","2.0","","98.11","","","","","","Snow"
"1987-02-03 00:00","1987","02","03","00:00","0.0","","-0.5","","96","","16","","7","","1.2","","98.01","","","","-2","","Snow"
"1987-02-03 01:00","1987","02","03","01:00","-0.3","","-0.3","","100","","14","","7","","0.8","","97.94","","","","-3","","Moderate Snow"
"1987-02-03 02:00","1987","02","03","02:00","-0.3","","-0.3","","100","","14","","11","","1.2","","97.81","","","","-4","","Fog"
"1987-02-03 03:00","1987","02","03","03:00","-0.3","","-0.3","","100","","15","","13","","0.6","","97.77","","","","-4","","Fog"
"1987-02-03 04:00","1987","02","03","04:00","0.3","","0.1","","99","","15","","6","","4.8","","97.74","","","","","","Fog"
"1987-02-03 05:00","1987","02","03","05:00","0.4","","0.2","","99","","","","0","","2.8","","97.77","","","","","","Drizzle,Fog"
"1987-02-03 06:00","1987","02","03","06:00","0.2","","0.2","","100","","","","0","","1.6","","97.84","","","","","","Drizzle,Fog"
"1987-02-03 07:00","1987","02","03","07:00","0.2","","0.2","","100","","","","0","","3.2","","97.94","","","","","","Drizzle,Fog"
"1987-02-03 08:00","1987","02","03","08:00","0.2","","0.2","","100","","","","0","","1.2","","98.01","","","","","","Fog"
"1987-02-03 09:00","1987","02","03","09:00","0.5","","0.0","","96","","26","","4","","2.4","","98.14","","","","","","Fog"
"1987-02-03 10:00","1987","02","03","10:00","1.1","","0.5","","96","","23","","19","","4.8","","98.27","","","","","","Fog"
"1987-02-03 11:00","1987","02","03","11:00","1.4","","0.5","","94","","23","","22","","4.8","","98.44","","","","","","Fog"
"1987-02-03 12:00","1987","02","03","12:00","1.9","","0.1","","88","","23","","19","","12.9","","98.47","","","","","","Mostly Cloudy"
"1987-02-03 13:00","1987","02","03","13:00","2.6","","-0.4","","81","","23","","15","","16.1","","98.51","","","","","","Mostly Cloudy"
"1987-02-03 14:00","1987","02","03","14:00","2.8","","-0.4","","80","","23","","33","","16.1","","98.54","","","","","","Mostly Cloudy"
"1987-02-03 15:00","1987","02","03","15:00","2.9","","-2.0","","70","","29","","35","","32.2","","98.57","","","","","","Mostly Cloudy"
"1987-02-03 16:00","1987","02","03","16:00","2.2","","-2.6","","70","","30","","30","","32.2","","98.81","","","","","","Mostly Cloudy"
"1987-02-03 17:00","1987","02","03","17:00","1.4","","-2.9","","73","","30","","31","","32.2","","98.91","","","","","","Mainly Clear"
"1987-02-03 18:00","1987","02","03","18:00","1.1","","-3.6","","71","","29","","28","","25.0","","99.07","","","","","","Cloudy"
"1987-02-03 19:00","1987","02","03","19:00","0.4","","-3.8","","74","","30","","33","","25.0","","99.24","","","","","","Cloudy"
"1987-02-03 20:00","1987","02","03","20:00","0.3","","-5.2","","66","","30","","30","","25.0","","99.31","","","","","","Cloudy"
"1987-02-03 21:00","1987","02","03","21:00","0.0","","-5.0","","69","","30","","22","","25.0","","99.37","","","","-6","","Cloudy"
"1987-02-03 22:00","1987","02","03","22:00","-0.2","","-4.9","","71","","30","","17","","25.0","","99.41","","","","-5","","Cloudy"
"1987-02-03 23:00","1987","02","03","23:00","-0.1","","-4.8","","71","","27","","19","","25.0","","99.47","","","","-5","","Cloudy"
"1987-02-04 00:00","1987","02","04","00:00","-1.2","","-5.7","","71","","26","","24","","25.0","","99.51","","","","-7","","Mostly Cloudy"
"1987-02-04 01:00","1987","02","04","01:00","-0.4","","-4.9","","72","","27","","20","","25.0","","99.51","","","","-6","","Cloudy"
"1987-02-04 02:00","1987","02","04","02:00","-0.3","","-2.7","","83","","28","","31","","25.0","","99.57","","","","-7","","Cloudy"
"1987-02-04 03:00","1987","02","04","03:00","-0.4","","-3.1","","82","","28","","22","","25.0","","99.61","","","","-6","","Cloudy"
"1987-02-04 04:00","1987","02","04","04:00","-1.4","","-3.9","","83","","28","","19","","25.0","","99.64","","","","-7","","Mostly Cloudy"
"1987-02-04 05:00","1987","02","04","05:00","-2.3","","-4.8","","83","","30","","26","","25.0","","99.71","","","","-9","","Mostly Cloudy"
"1987-02-04 06:00","1987","02","04","06:00","-2.7","","-4.8","","86","","28","","15","","25.0","","99.74","","","","-8","","Mainly Clear"
"1987-02-04 07:00","1987","02","04","07:00","-2.7","","-4.8","","86","","26","","11","","25.0","","99.81","","","","-7","","Mostly Cloudy"
"1987-02-04 08:00","1987","02","04","08:00","-3.8","","-8.0","","72","","26","","11","","32.2","","99.84","","","","-8","","Mainly Clear"
"1987-02-04 09:00","1987","02","04","09:00","-3.5","","-6.7","","78","","22","","9","","32.2","","99.87","","","","-7","","Mostly Cloudy"
"1987-02-04 10:00","1987","02","04","10:00","-2.4","","-6.4","","74","","24","","15","","32.2","","99.87","","","","-7","","Mostly Cloudy"
"1987-02-04 11:00","1987","02","04","11:00","-2.3","","-4.8","","83","","23","","13","","2.4","","99.91","","","","-7","","Snow Showers"
"1987-02-04 12:00","1987","02","04","12:00","-2.0","","-4.2","","85","","25","","15","","3.2","","99.84","","","","-7","","Snow Showers"
"1987-02-04 13:00","1987","02","04","13:00","-0.9","","-4.7","","75","","26","","17","","16.1","","99.81","","","","-6","","Snow Showers"
"1987-02-04 14:00","1987","02","04","14:00","-0.7","","-5.6","","69","","28","","31","","32.2","","99.81","","","","-7","","Mostly Cloudy"
"1987-02-04 15:00","1987","02","04","15:00","-1.0","","-3.8","","81","","29","","35","","24.1","","99.91","","","","-8","","Snow Showers"
"1987-02-04 16:00","1987","02","04","16:00","-2.9","","-7.7","","69","","30","","39","","40.2","","100.07","","","","-11","","Mainly Clear"
"1987-02-04 17:00","1987","02","04","17:00","-4.2","","-8.7","","71","","29","","41","","40.2","","100.21","","","","-13","","Mainly Clear"
"1987-02-04 18:00","1987","02","04","18:00","-5.4","","-10.4","","68","","29","","24","","25.0","","100.37","","","","-13","","Clear"
"1987-02-04 19:00","1987","02","04","19:00","-5.7","","-10.8","","67","","32","","20","","25.0","","100.51","","","","-12","","Clear"
"1987-02-04 20:00","1987","02","04","20:00","-6.6","","-11.7","","67","","30","","28","","25.0","","100.57","","","","-15","","Clear"
"1987-02-04 21:00","1987","02","04","21:00","-7.2","","-12.9","","64","","31","","24","","25.0","","100.64","","","","-15","","Clear"
"1987-02-04 22:00","1987","02","04","22:00","-7.1","","-13.4","","61","","32","","22","","25.0","","100.71","","","","-15","","Clear"
"1987-02-04 23:00","1987","02","04","23:00","-9.0","","-14.3","","65","","24","","11","","25.0","","100.81","","","","-14","","Mainly Clear"
"1987-02-05 00:00","1987","02","05","00:00","-10.4","","-14.9","","69","","28","","7","","25.0","","100.87","","","","-14","","Mainly Clear"
"1987-02-05 01:00","1987","02","05","01:00","-10.4","","-14.9","","69","","3","","9","","25.0","","100.94","","","","-15","","Mainly Clear"
"1987-02-05 02:00","1987","02","05","02:00","-10.6","","-14.9","","71","","33","","9","","25.0","","101.01","","","","-16","","Mainly Clear"
"1987-02-05 03:00","1987","02","05","03:00","-11.9","","-16.3","","70","","2","","7","","24.1","","101.04","","","","-16","","Snow Showers"
"1987-02-05 04:00","1987","02","05","04:00","-11.1","","-14.5","","76","","36","","7","","24.1","","101.07","","","","-15","","Snow Showers"
"1987-02-05 05:00","1987","02","05","05:00","-10.9","","-14.5","","75","","35","","9","","24.1","","101.11","","","","-16","","Snow Showers"
"1987-02-05 06:00","1987","02","05","06:00","-11.0","","-14.5","","75","","33","","4","","24.1","","101.11","","","","-13","","Snow Showers"
"1987-02-05 07:00","1987","02","05","07:00","-11.2","","-14.5","","77","","","","0","","24.1","","101.11","","","","","","Snow Showers"
"1987-02-05 08:00","1987","02","05","08:00","-10.7","","-13.5","","80","","","","0","","24.1","","101.17","","","","","","Snow Showers"
"1987-02-05 09:00","1987","02","05","09:00","-10.0","","-13.8","","74","","","","0","","24.1","","101.14","","","","","","Mostly Cloudy"
"1987-02-05 10:00","1987","02","05","10:00","-6.5","","-11.7","","66","","","","0","","24.1","","101.07","","","","","","Mainly Clear"
"1987-02-05 11:00","1987","02","05","11:00","-4.4","","-9.4","","68","","20","","11","","24.1","","101.01","","","","-9","","Mainly Clear"
"1987-02-05 12:00","1987","02","05","12:00","-3.0","","-8.1","","68","","23","","19","","32.2","","100.94","","","","-9","","Mainly Clear"
"1987-02-05 13:00","1987","02","05","13:00","-2.7","","-6.7","","74","","25","","15","","32.2","","100.77","","","","-8","","Mainly Clear"
"1987-02-05 14:00","1987","02","05","14:00","-2.5","","-8.1","","65","","23","","17","","32.2","","100.71","","","","-8","","Mostly Cloudy"
"1987-02-05 15:00","1987","02","05","15:00","-1.3","","-6.7","","66","","24","","24","","32.2","","100.61","","","","-7","","Mainly Clear"
"1987-02-05 16:00","1987","02","05","16:00","-1.6","","-7.7","","63","","22","","20","","32.2","","100.51","","","","-7","","Mainly Clear"
"1987-02-05 17:00","1987","02","05","17:00","-2.3","","-7.7","","66","","21","","17","","32.2","","100.47","","","","-8","","Clear"
"1987-02-05 18:00","1987","02","05","18:00","-3.8","","-9.1","","66","","21","","17","","25.0","","100.37","","","","-10","","Clear"
"1987-02-05 19:00","1987","02","05","19:00","-4.4","","-9.0","","70","","21","","17","","25.0","","100.37","","","","-10","","Mainly Clear"
"1987-02-05 20:00","1987","02","05","20:00","-4.0","","-8.3","","72","","22","","13","","25.0","","100.27","","","","-9","","Mostly Cloudy"
"1987-02-05 21:00","1987","02","05","21:00","-3.9","","-7.6","","75","","28","","7","","25.0","","100.31","","","","-7","","Mainly Clear"
"1987-02-05 22:00","1987","02","05","22:00","-3.7","","-7.0","","78","","30","","9","","25.0","","100.31","","","","-7","","Clear"
"1987-02-05 23:00","1987","02","05","23:00","-3.0","","-6.0","","80","","27","","15","","25.0","","100.27","","","","-8","","Mainly Clear"
"1987-02-06 00:00","1987","02","06","00:00","-3.5","","-6.7","","78","","26","","11","","25.0","","100.27","","","","-8","","Mainly Clear"
"1987-02-06 01:00","1987","02","06","01:00","-4.2","","-6.6","","83","","26","","13","","25.0","","100.24","","","","-9","","Clear"
"1987-02-06 02:00","1987","02","06","02:00","-4.5","","-7.3","","81","","25","","19","","25.0","","100.27","","","","-11","","Mostly Cloudy"
"1987-02-06 03:00","1987","02","06","03:00","-4.2","","-6.6","","83","","24","","17","","25.0","","100.24","","","","-10","","Mostly Cloudy"
"1987-02-06 04:00","1987","02","06","04:00","-4.1","","-7.0","","80","","26","","11","","25.0","","100.21","","","","-9","","Mostly Cloudy"
"1987-02-06 05:00","1987","02","06","05:00","-4.0","","-6.6","","82","","24","","7","","16.1","","100.17","","","","-7","","Mostly Cloudy"
"1987-02-06 06:00","1987","02","06","06:00","-5.6","","-8.2","","82","","23","","7","","16.1","","100.17","","","","-9","","Mainly Clear"
"1987-02-06 07:00","1987","02","06","07:00","-5.8","","-8.4","","82","","24","","15","","16.1","","100.21","","","","-12","","Mainly Clear"
"1987-02-06 08:00","1987","02","06","08:00","-7.6","","-8.1","","96","","25","","15","","0.8","","100.21","","","","-14","","Fog"
"1987-02-06 09:00","1987","02","06","09:00","-6.6","","-7.0","","97","","25","","15","","0.8","","100.17","","","","-13","","Fog"
"1987-02-06 10:00","1987","02","06","10:00","-4.8","","-5.6","","94","","25","","9","","0.8","","100.11","","","","-9","","Fog"
"1987-02-06 11:00","1987","02","06","11:00","-3.6","","-3.7","","99","","22","","17","","1.2","","100.07","","","","-9","","Fog"
"1987-02-06 12:00","1987","02","06","12:00","-2.6","","-3.1","","96","","20","","15","","3.2","","99.91","","","","-8","","Fog"
"1987-02-06 13:00","1987","02","06","13:00","0.3","","-2.8","","80","","21","","20","","6.4","","99.74","","","","","","Haze"
"1987-02-06 14:00","1987","02","06","14:00","1.3","","-2.9","","74","","20","","20","","9.7","","99.51","","","","","","Haze"
"1987-02-06 15:00","1987","02","06","15:00","2.8","","-1.5","","73","","19","","22","","12.9","","99.34","","","","","","Mostly Cloudy"
"1987-02-06 16:00","1987","02","06","16:00","3.0","","-2.0","","70","","21","","17","","12.9","","99.27","","","","","","Cloudy"
"1987-02-06 17:00","1987","02","06","17:00","3.3","","-1.4","","71","","22","","17","","12.9","","99.24","","","","","","Cloudy"
"1987-02-06 18:00","1987","02","06","18:00","2.9","","-2.0","","70","","21","","11","","11.3","","99.24","","","","","","Cloudy"
"1987-02-06 19:00","1987","02","06","19:00","2.0","","-2.1","","74","","22","","19","","11.3","","99.24","","","","","","Cloudy"
"1987-02-06 20:00","1987","02","06","20:00","2.2","","-1.5","","76","","23","","15","","9.7","","99.27","","","","","","Haze"
"1987-02-06 21:00","1987","02","06","21:00","1.9","","-1.0","","81","","22","","15","","9.7","","99.27","","","","","","Haze"
"1987-02-06 22:00","1987","02","06","22:00","1.5","","-1.5","","80","","23","","15","","9.7","","99.21","","","","","","Haze"
"1987-02-06 23:00","1987","02","06","23:00","1.4","","-2.1","","77","","25","","22","","9.7","","99.14","","","","","","Haze"
"1987-02-07 00:00","1987","02","07","00:00","0.7","","-2.0","","82","","25","","24","","8.0","","99.11","","","","","","Haze"
"1987-02-07 01:00","1987","02","07","01:00","0.3","","-1.9","","85","","26","","28","","8.0","","99.04","","","","","","Fog"
"1987-02-07 02:00","1987","02","07","02:00","-0.4","","-2.5","","86","","26","","22","","8.0","","99.04","","","","-6","","Fog"
"1987-02-07 03:00","1987","02","07","03:00","-0.6","","-2.4","","88","","25","","24","","8.0","","99.01","","","","-7","","Fog"
"1987-02-07 04:00","1987","02","07","04:00","-0.3","","-3.2","","80","","26","","22","","8.0","","98.94","","","","-6","","Haze"
"1987-02-07 05:00","1987","02","07","05:00","-0.3","","-2.7","","83","","27","","20","","8.0","","98.97","","","","-6","","Fog"
"1987-02-07 06:00","1987","02","07","06:00","0.4","","-2.4","","82","","25","","19","","9.7","","98.97","","","","","","Haze"
"1987-02-07 07:00","1987","02","07","07:00","0.4","","-2.4","","82","","26","","22","","8.0","","99.01","","","","","","Haze"
"1987-02-07 08:00","1987","02","07","08:00","0.1","","-1.9","","86","","26","","13","","9.7","","99.04","","","","","","Fog"
"1987-02-07 09:00","1987","02","07","09:00","0.8","","-1.5","","85","","26","","11","","12.9","","99.04","","","","","","Mostly Cloudy"
"1987-02-07 10:00","1987","02","07","10:00","1.5","","-1.5","","80","","26","","11","","24.1","","99.07","","","","","","Cloudy"
"1987-02-07 11:00","1987","02","07","11:00","2.1","","-2.1","","74","","26","","15","","24.1","","99.11","","","","","","Mostly Cloudy"
"1987-02-07 12:00","1987","02","07","12:00","2.1","","-1.5","","77","","26","","15","","32.2","","99.01","","","","","","Mostly Cloudy"
"1987-02-07 13:00","1987","02","07","13:00","3.3","","-2.0","","68","","27","","15","","32.2","","99.01","","","","","","Mostly Cloudy"
"1987-02-07 14:00","1987","02","07","14:00","3.0","","-2.6","","67","","30","","13","","32.2","","98.94","","","","","","Mostly Cloudy"
"1987-02-07 15:00","1987","02","07","15:00","2.6","","-3.2","","65","","26","","13","","32.2","","98.94","","","","","","Cloudy"
"1987-02-07 16:00","1987","02","07","16:00","2.0","","-2.6","","71","","27","","19","","32.2","","98.94","","","","","","Cloudy"
"1987-02-07 17:00","1987","02","07","17:00","1.9","","-2.1","","75","","26","","11","","32.2","","98.94","","","","","","Cloudy"
"1987-02-07 18:00","1987","02","07","18:00","1.4","","-2.1","","77","","26","","15","","25.0","","98.91","","","","","","Mostly Cloudy"
"1987-02-07 19:00","1987","02","07","19:00","0.5","","-2.0","","83","","23","","11","","25.0","","98.81","","","","","","Mainly Clear"
"1987-02-07 20:00","1987","02","07","20:00","0.4","","-2.4","","82","","19","","11","","25.0","","98.71","","","","","","Mainly Clear"
"1987-02-07 21:00","1987","02","07","21:00","-0.7","","-3.2","","83","","22","","11","","25.0","","98.64","","","","-4","","Clear"
"1987-02-07 22:00","1987","02","07","22:00","-0.5","","-3.5","","80","","18","","11","","19.3","","98.54","","","","-4","","Cloudy"
"1987-02-07 23:00","1987","02","07","23:00","-0.3","","-3.0","","82","","18","","13","","16.1","","98.34","","","","-4","","Cloudy"
"1987-02-08 00:00","1987","02","08","00:00","-0.2","","-2.3","","86","","15","","13","","12.9","","98.21","","","","-4","","Cloudy"
"1987-02-08 01:00","1987","02","08","01:00","0.0","","-1.3","","91","","14","","13","","6.4","","97.97","","","","-4","","Fog"
"1987-02-08 02:00","1987","02","08","02:00","0.2","","-1.8","","86","","13","","15","","8.0","","97.84","","","","","","Fog"
"1987-02-08 03:00","1987","02","08","03:00","0.5","","-2.0","","83","","12","","22","","16.1","","97.54","","","","","","Cloudy"
"1987-02-08 04:00","1987","02","08","04:00","0.7","","-2.0","","82","","13","","26","","16.1","","97.27","","","","","","Cloudy"
"1987-02-08 05:00","1987","02","08","05:00","1.5","","-1.5","","80","","13","","20","","16.1","","97.08","","","","","","Cloudy"
"1987-02-08 06:00","1987","02","08","06:00","2.2","","-2.1","","73","","15","","22","","16.1","","96.84","","","","","","Cloudy"
"1987-02-08 07:00","1987","02","08","07:00","3.0","","-1.5","","72","","18","","15","","12.9","","96.84","","","","","","Cloudy"
"1987-02-08 08:00","1987","02","08","08:00","2.8","","-0.4","","80","","20","","15","","12.9","","96.78","","","","","","Cloudy"
"1987-02-08 09:00","1987","02","08","09:00","2.6","","0.1","","84","","20","","15","","8.0","","96.71","","","","","","Rain"
"1987-02-08 10:00","1987","02","08","10:00","2.4","","0.6","","88","","20","","17","","6.4","","96.64","","","","","","Rain,Fog"
"1987-02-08 11:00","1987","02","08","11:00","1.6","","0.5","","92","","21","","15","","4.8","","96.68","","","","","","Rain,Snow,Fog"
"1987-02-08 12:00","1987","02","08","12:00","0.5","","0.0","","96","","23","","13","","1.2","","96.71","","","","","","Snow"
"1987-02-08 13:00","1987","02","08","13:00","0.6","","0.0","","96","","24","","15","","1.2","","96.81","","","","","","Snow"
"1987-02-08 14:00","1987","02","08","14:00","0.3","","-0.4","","95","","34","","44","","1.6","","96.94","","","","","","Snow"
"1987-02-08 15:00","1987","02","08","15:00","-2.7","","-3.7","","93","","34","","37","","1.2","","97.21","","","","-11","","Snow,Blowing Snow"
"1987-02-08 16:00","1987","02","08","16:00","-6.5","","-8.3","","87","","35","","56","","0.8","","97.51","","","","-17","","Snow,Blowing Snow"
"1987-02-08 17:00","1987","02","08","17:00","-8.0","","-10.8","","80","","35","","61","","1.6","","97.81","","","","-20","","Snow,Blowing Snow"
"1987-02-08 18:00","1987","02","08","18:00","-9.0","","-11.3","","83","","35","","44","","2.4","","98.14","","","","-20","","Blowing Snow"
"1987-02-08 19:00","1987","02","08","19:00","-9.8","","-12.0","","84","","35","","44","","1.6","","98.41","","","","-21","","Snow,Blowing Snow"
"1987-02-08 20:00","1987","02","08","20:00","-10.9","","-12.8","","86","","33","","56","","1.6","","98.64","","","","-24","","Snow,Blowing Snow"
"1987-02-08 21:00","1987","02","08","21:00","-11.9","","-14.3","","82","","33","","61","","2.4","","98.84","","","","-25","","Snow,Blowing Snow"
"1987-02-08 22:00","1987","02","08","22:00","-12.6","","-17.0","","70","","34","","57","","9.7","","99.01","","","","-26","","Blowing Snow"
"1987-02-08 23:00","1987","02","08","23:00","-13.6","","-17.7","","71","","34","","59","","24.1","","99.14","","","","-28","","Mostly Cloudy"
"1987-02-09 00:00","1987","02","09","00:00","-14.2","","-19.0","","67","","34","","56","","25.0","","99.27","","","","-28","","Mostly Cloudy"
"1987-02-09 01:00","1987","02","09","01:00","-14.8","","-20.3","","63","","34","","52","","25.0","","99.44","","","","-29","","Mainly Clear"
"1987-02-09 02:00","1987","02","09","02:00","-15.7","","-21.0","","64","","34","","44","","25.0","","99.57","","","","-29","","Clear"
"1987-02-09 03:00","1987","02","09","03:00","-16.0","","-21.7","","61","","35","","44","","25.0","","99.64","","","","-29","","Clear"
"1987-02-09 04:00","1987","02","09","04:00","-16.3","","-21.7","","63","","34","","48","","25.0","","99.77","","","","-30","","Clear"
"1987-02-09 05:00","1987","02","09","05:00","-16.7","","-21.7","","65","","34","","37","","25.0","","99.91","","","","-29","","Clear"
"1987-02-09 06:00","1987","02","09","06:00","-16.1","","-21.0","","66","","34","","41","","25.0","","100.01","","","","-29","","Clear"
"1987-02-09 07:00","1987","02","09","07:00","-17.0","","-21.6","","67","","35","","30","","25.0","","100.11","","","","-29","","Clear"
"1987-02-09 08:00","1987","02","09","08:00","-17.3","","-20.8","","74","","34","","33","","32.2","","100.24","","","","-30","","Clear"
"1987-02-09 09:00","1987","02","09","09:00","-17.0","","-20.9","","72","","35","","17","","32.2","","100.31","","","","-26","","Clear"
"1987-02-09 10:00","1987","02","09","10:00","-16.0","","-21.0","","65","","32","","20","","32.2","","100.34","","","","-25","","Clear"
"1987-02-09 11:00","1987","02","09","11:00","-14.3","","-17.8","","75","","32","","17","","32.2","","100.31","","","","-23","","Mainly Clear"
"1987-02-09 12:00","1987","02","09","12:00","-13.3","","-18.3","","66","","30","","9","","32.2","","100.21","","","","-19","","Mainly Clear"
"1987-02-09 13:00","1987","02","09","13:00","-10.7","","-13.9","","77","","21","","4","","32.2","","100.17","","","","-13","","Clear"
"1987-02-09 14:00","1987","02","09","14:00","-8.2","","-12.1","","73","","17","","6","","32.2","","100.07","","","","-11","","Clear"
"1987-02-09 15:00","1987","02","09","15:00","-6.5","","-11.7","","66","","10","","4","","32.2","","100.01","","","","-8","","Mainly Clear"
"1987-02-09 16:00","1987","02","09","16:00","-5.0","","-10.9","","63","","25","","11","","32.2","","99.97","","","","-10","","Clear"
"1987-02-09 17:00","1987","02","09","17:00","-5.8","","-11.1","","66","","24","","15","","32.2","","99.97","","","","-12","","Mainly Clear"
"1987-02-09 18:00","1987","02","09","18:00","-7.0","","-11.2","","72","","22","","13","","25.0","","99.94","","","","-13","","Mostly Cloudy"
"1987-02-09 19:00","1987","02","09","19:00","-7.0","","-10.0","","79","","22","","9","","25.0","","99.91","","","","-11","","Mostly Cloudy"
"1987-02-09 20:00","1987","02","09","20:00","-7.4","","-10.6","","78","","21","","13","","25.0","","99.84","","","","-13","","Clear"
"1987-02-09 21:00","1987","02","09","21:00","-8.0","","-10.8","","80","","20","","9","","25.0","","99.77","","","","-13","","Mainly Clear"
"1987-02-09 22:00","1987","02","09","22:00","-7.6","","-11.4","","74","","24","","20","","25.0","","99.64","","","","-15","","Mainly Clear"
"1987-02-09 23:00","1987","02","09","23:00","-7.5","","-10.2","","81","","24","","22","","19.3","","99.57","","","","-15","","Mostly Cloudy"
"1987-02-10 00:00","1987","02","10","00:00","-7.6","","-10.6","","79","","25","","7","","25.0","","99.57","","","","-11","","Mainly Clear"
"1987-02-10 01:00","1987","02","10","01:00","-5.8","","-10.3","","70","","26","","11","","25.0","","99.51","","","","-11","","Mostly Cloudy"
"1987-02-10 02:00","1987","02","10","02:00","-5.3","","-9.6","","71","","27","","15","","19.3","","99.51","","","","-11","","Cloudy"
"1987-02-10 03:00","1987","02","10","03:00","-5.3","","-9.2","","74","","26","","20","","19.3","","99.44","","","","-12","","Cloudy"
"1987-02-10 04:00","1987","02","10","04:00","-4.7","","-7.6","","80","","26","","28","","16.1","","99.34","","","","-12","","Cloudy"
"1987-02-10 05:00","1987","02","10","05:00","-4.6","","-7.6","","79","","26","","22","","16.1","","99.31","","","","-11","","Cloudy"
"1987-02-10 06:00","1987","02","10","06:00","-4.3","","-7.3","","79","","26","","22","","12.9","","99.31","","","","-11","","Cloudy"
"1987-02-10 07:00","1987","02","10","07:00","-4.0","","-6.0","","86","","25","","20","","16.1","","99.34","","","","-10","","Cloudy"
"1987-02-10 08:00","1987","02","10","08:00","-2.9","","-5.7","","81","","25","","17","","16.1","","99.34","","","","-8","","Cloudy"
"1987-02-10 09:00","1987","02","10","09:00","-2.1","","-5.1","","80","","26","","17","","16.1","","99.34","","","","-7","","Mostly Cloudy"
"1987-02-10 10:00","1987","02","10","10:00","-1.0","","-5.0","","74","","27","","20","","16.1","","99.34","","","","-7","","Mostly Cloudy"
"1987-02-10 11:00","1987","02","10","11:00","-0.1","","-4.5","","72","","29","","22","","16.1","","99.41","","","","-6","","Cloudy"
"1987-02-10 12:00","1987","02","10","12:00","0.2","","-4.4","","71","","30","","22","","19.3","","99.47","","","","","","Cloudy"
"1987-02-10 13:00","1987","02","10","13:00","-0.5","","-2.9","","84","","33","","30","","19.3","","99.57","","","","-7","","Mostly Cloudy"
"1987-02-10 14:00","1987","02","10","14:00","0.1","","-3.6","","76","","32","","26","","32.2","","99.61","","","","","","Mostly Cloudy"
"1987-02-10 15:00","1987","02","10","15:00","-0.1","","-5.4","","67","","34","","30","","40.2","","99.64","","","","-7","","Mostly Cloudy"
"1987-02-10 16:00","1987","02","10","16:00","-1.2","","-4.1","","81","","34","","20","","40.2","","99.77","","","","-7","","Mostly Cloudy"
"1987-02-10 17:00","1987","02","10","17:00","-1.6","","-3.9","","84","","32","","22","","32.2","","99.84","","","","-8","","Mostly Cloudy"
"1987-02-10 18:00","1987","02","10","18:00","-3.5","","-6.3","","81","","30","","19","","32.2","","99.91","","","","-9","","Mainly Clear"
"1987-02-10 19:00","1987","02","10","19:00","-4.3","","-7.9","","76","","31","","15","","25.0","","100.01","","","","-10","","Mainly Clear"
"1987-02-10 20:00","1987","02","10","20:00","-4.8","","-7.9","","79","","31","","17","","25.0","","100.01","","","","-11","","Mainly Clear"
"1987-02-10 21:00","1987","02","10","21:00","-7.4","","-9.5","","85","","30","","11","","25.0","","100.07","","","","-12","","Mainly Clear"
"1987-02-10 22:00","1987","02","10","22:00","-7.0","","-9.3","","84","","30","","13","","25.0","","100.04","","","","-13","","Mainly Clear"
"1987-02-10 23:00","1987","02","10","23:00","-6.5","","-9.0","","82","","30","","11","","25.0","","100.04","","","","-11","","Mainly Clear"
"1987-02-11 00:00","1987","02","11","00:00","-7.8","","-10.5","","81","","32","","11","","25.0","","100.01","","","","-13","","Mainly Clear"
"1987-02-11 01:00","1987","02","11","01:00","-5.8","","-8.8","","79","","31","","11","","25.0","","100.04","","","","-11","","Mainly Clear"
"1987-02-11 02:00","1987","02","11","02:00","-5.9","","-8.1","","84","","31","","17","","25.0","","100.04","","","","-12","","Clear"
"1987-02-11 03:00","1987","02","11","03:00","-6.2","","-7.7","","89","","29","","11","","25.0","","100.04","","","","-11","","Clear"
"1987-02-11 04:00","1987","02","11","04:00","-7.3","","-9.1","","87","","28","","6","","25.0","","100.01","","","","-10","","Mainly Clear"
"1987-02-11 05:00","1987","02","11","05:00","-6.9","","-8.6","","87","","28","","9","","25.0","","100.01","","","","-11","","Mainly Clear"
"1987-02-11 06:00","1987","02","11","06:00","-7.4","","-9.1","","87","","29","","15","","25.0","","100.01","","","","-14","","Mainly Clear"
"1987-02-11 07:00","1987","02","11","07:00","-7.7","","-9.1","","90","","32","","11","","25.0","","100.04","","","","-13","","Mainly Clear"
"1987-02-11 08:00","1987","02","11","08:00","-6.7","","-9.0","","84","","33","","7","","40.2","","100.07","","","","-10","","Mostly Cloudy"
"1987-02-11 09:00","1987","02","11","09:00","-5.5","","-8.9","","77","","34","","9","","40.2","","100.11","","","","-10","","Mostly Cloudy"
"1987-02-11 10:00","1987","02","11","10:00","-4.3","","-7.6","","77","","36","","17","","40.2","","100.11","","","","-10","","Mostly Cloudy"
"1987-02-11 11:00","1987","02","11","11:00","-4.3","","-7.9","","76","","1","","7","","40.2","","100.11","","","","-7","","Mostly Cloudy"
"1987-02-11 12:00","1987","02","11","12:00","-1.6","","-7.0","","67","","32","","11","","40.2","","100.04","","","","-5","","Mostly Cloudy"
"1987-02-11 13:00","1987","02","11","13:00","-2.0","","-8.5","","61","","32","","9","","40.2","","99.97","","","","-5","","Cloudy"
"1987-02-11 14:00","1987","02","11","14:00","-1.8","","-7.7","","64","","34","","4","","40.2","","99.91","","","","-3","","Cloudy"
"1987-02-11 15:00","1987","02","11","15:00","-1.8","","-7.7","","64","","34","","4","","40.2","","99.87","","","","-3","","Mostly Cloudy"
"1987-02-11 16:00","1987","02","11","16:00","-1.8","","-6.4","","71","","","","0","","32.2","","99.81","","","","","","Mostly Cloudy"
"1987-02-11 17:00","1987","02","11","17:00","-1.7","","-5.7","","74","","","","0","","24.1","","99.74","","","","","","Mostly Cloudy"
"1987-02-11 18:00","1987","02","11","18:00","-2.5","","-6.0","","77","","","","0","","19.3","","99.71","","","","","","Cloudy"
"1987-02-11 19:00","1987","02","11","19:00","-3.2","","-7.0","","75","","2","","4","","19.3","","99.67","","","","-5","","Cloudy"
"1987-02-11 20:00","1987","02","11","20:00","-3.7","","-8.0","","72","","","","0","","19.3","","99.64","","","","","","Cloudy"
"1987-02-11 21:00","1987","02","11","21:00","-4.2","","-7.6","","77","","","","0","","19.3","","99.57","","","","","","Mostly Cloudy"
"1987-02-11 22:00","1987","02","11","22:00","-4.1","","-7.3","","78","","1","","4","","19.3","","99.51","","","","-6","","Cloudy"
"1987-02-11 23:00","1987","02","11","23:00","-5.5","","-8.5","","79","","3","","6","","19.3","","99.37","","","","-8","","Mostly Cloudy"
"1987-02-12 00:00","1987","02","12","00:00","-6.9","","-10.0","","78","","31","","6","","16.1","","99.31","","","","-10","","Mostly Cloudy"
"1987-02-12 01:00","1987","02","12","01:00","-6.1","","-8.8","","81","","3","","6","","16.1","","99.21","","","","-9","","Mostly Cloudy"
"1987-02-12 02:00","1987","02","12","02:00","-5.7","","-8.2","","82","","4","","7","","19.3","","99.14","","","","-9","","Mostly Cloudy"
"1987-02-12 03:00","1987","02","12","03:00","-5.3","","-9.2","","74","","4","","9","","24.1","","99.04","","","","-9","","Cloudy"
"1987-02-12 04:00","1987","02","12","04:00","-4.4","","-10.6","","62","","6","","13","","25.0","","98.91","","","","-9","","Cloudy"
"1987-02-12 05:00","1987","02","12","05:00","-4.8","","-11.3","","60","","7","","11","","25.0","","98.87","","","","-9","","Cloudy"
"1987-02-12 06:00","1987","02","12","06:00","-4.3","","-9.8","","65","","7","","11","","25.0","","98.81","","","","-9","","Cloudy"
"1987-02-12 07:00","1987","02","12","07:00","-4.0","","-7.0","","80","","9","","19","","16.1","","98.77","","","","-10","","Cloudy"
"1987-02-12 08:00","1987","02","12","08:00","-3.8","","-7.0","","78","","5","","17","","19.3","","98.77","","","","-10","","Cloudy"
"1987-02-12 09:00","1987","02","12","09:00","-4.5","","-7.3","","81","","3","","15","","19.3","","98.81","","","","-10","","Cloudy"
"1987-02-12 10:00","1987","02","12","10:00","-3.8","","-8.0","","72","","1","","11","","19.3","","98.84","","","","-8","","Cloudy"
"1987-02-12 11:00","1987","02","12","11:00","-4.3","","-10.2","","63","","36","","15","","19.3","","98.87","","","","-10","","Cloudy"
"1987-02-12 12:00","1987","02","12","12:00","-3.6","","-8.8","","67","","36","","7","","24.1","","98.87","","","","-7","","Cloudy"
"1987-02-12 13:00","1987","02","12","13:00","-2.6","","-7.4","","70","","33","","11","","32.2","","98.87","","","","-7","","Cloudy"
"1987-02-12 14:00","1987","02","12","14:00","-2.0","","-7.4","","66","","30","","7","","32.2","","98.91","","","","-5","","Mostly Cloudy"
"1987-02-12 15:00","1987","02","12","15:00","-1.1","","-7.7","","61","","31","","4","","32.2","","98.91","","","","-2","","Mostly Cloudy"
"1987-02-12 16:00","1987","02","12","16:00","-1.0","","-8.9","","55","","25","","4","","32.2","","98.97","","","","-2","","Mostly Cloudy"
"1987-02-12 17:00","1987","02","12","17:00","-0.9","","-7.7","","60","","21","","7","","24.1","","98.94","","","","-3","","Mostly Cloudy"
"1987-02-12 18:00","1987","02","12","18:00","-0.8","","-6.0","","68","","25","","11","","19.3","","98.94","","","","-5","","Cloudy"
"1987-02-12 19:00","1987","02","12","19:00","-0.5","","-3.8","","78","","24","","19","","16.1","","98.91","","","","-6","","Snow Showers"
"1987-02-12 20:00","1987","02","12","20:00","-0.7","","-2.1","","90","","26","","26","","9.7","","98.87","","","","-7","","Snow Showers"
"1987-02-12 21:00","1987","02","12","21:00","0.0","","-3.2","","79","","29","","28","","19.3","","98.91","","","","-6","","Mostly Cloudy"
"1987-02-12 22:00","1987","02","12","22:00","-4.8","","-7.9","","79","","33","","63","","8.0","","99.11","","","","-16","","Blowing Snow"
"1987-02-12 23:00","1987","02","12","23:00","-7.0","","-10.8","","74","","33","","39","","8.0","","99.31","","","","-17","","Blowing Snow"
"1987-02-13 00:00","1987","02","13","00:00","-8.5","","-11.9","","76","","33","","33","","8.0","","99.41","","","","-18","","Blowing Snow"
"1987-02-13 01:00","1987","02","13","01:00","-10.0","","-12.9","","79","","34","","26","","3.2","","99.61","","","","-19","","Snow Showers"
"1987-02-13 02:00","1987","02","13","02:00","-11.4","","-14.7","","76","","35","","20","","9.7","","99.71","","","","-20","","Snow Showers"
"1987-02-13 03:00","1987","02","13","03:00","-12.0","","-15.8","","73","","35","","13","","16.1","","99.84","","","","-19","","Mostly Cloudy"
"1987-02-13 04:00","1987","02","13","04:00","-12.8","","-16.5","","74","","34","","17","","16.1","","99.91","","","","-21","","Mainly Clear"
"1987-02-13 05:00","1987","02","13","05:00","-13.5","","-17.2","","73","","36","","11","","19.3","","100.01","","","","-20","","Mainly Clear"
"1987-02-13 06:00","1987","02","13","06:00","-14.7","","-17.8","","77","","36","","17","","25.0","","100.04","","","","-23","","Clear"
"1987-02-13 07:00","1987","02","13","07:00","-15.4","","-19.0","","74","","36","","17","","25.0","","100.07","","","","-24","","Mainly Clear"
"1987-02-13 08:00","1987","02","13","08:00","-15.7","","-21.8","","60","","34","","22","","40.2","","100.17","","","","-25","","Mostly Cloudy"
"1987-02-13 09:00","1987","02","13","09:00","-16.0","","-21.7","","61","","36","","22","","40.2","","100.17","","","","-26","","Mostly Cloudy"
"1987-02-13 10:00","1987","02","13","10:00","-16.0","","-21.7","","61","","34","","20","","40.2","","100.14","","","","-25","","Mainly Clear"
"1987-02-13 11:00","1987","02","13","11:00","-15.2","","-21.0","","61","","34","","22","","40.2","","100.07","","","","-25","","Mainly Clear"
"1987-02-13 12:00","1987","02","13","12:00","-13.7","","-19.6","","61","","34","","24","","40.2","","100.04","","","","-23","","Mainly Clear"
"1987-02-13 13:00","1987","02","13","13:00","-12.8","","-20.9","","51","","34","","15","","40.2","","100.01","","","","-20","","Mainly Clear"
"1987-02-13 14:00","1987","02","13","14:00","-11.7","","-20.5","","48","","32","","9","","40.2","","99.97","","","","-17","","Mostly Cloudy"
"1987-02-13 15:00","1987","02","13","15:00","-10.6","","-18.8","","51","","33","","7","","40.2","","99.91","","","","-15","","Mostly Cloudy"
"1987-02-13 16:00","1987","02","13","16:00","-10.5","","-17.6","","56","","30","","11","","40.2","","99.87","","","","-16","","Cloudy"
"1987-02-13 17:00","1987","02","13","17:00","-11.0","","-17.7","","57","","1","","9","","32.2","","99.84","","","","-16","","Cloudy"
"1987-02-13 18:00","1987","02","13","18:00","-11.5","","-17.9","","59","","1","","11","","24.1","","99.87","","","","-17","","Mostly Cloudy"
"1987-02-13 19:00","1987","02","13","19:00","-12.0","","-18.0","","61","","35","","13","","25.0","","99.87","","","","-19","","Mostly Cloudy"
"1987-02-13 20:00","1987","02","13","20:00","-12.4","","-18.1","","62","","35","","11","","25.0","","99.84","","","","-18","","Mostly Cloudy"
"1987-02-13 21:00","1987","02","13","21:00","-12.5","","-18.1","","63","","35","","11","","25.0","","99.81","","","","-19","","Mostly Cloudy"
"1987-02-13 22:00","1987","02","13","22:00","-12.8","","-18.2","","64","","36","","11","","25.0","","99.77","","","","-19","","Mostly Cloudy"
"1987-02-13 23:00","1987","02","13","23:00","-12.5","","-17.5","","66","","1","","11","","25.0","","99.77","","","","-19","","Mostly Cloudy"
"1987-02-14 00:00","1987","02","14","00:00","-12.7","","-15.9","","77","","36","","7","","25.0","","99.71","","","","-17","","Cloudy"
"1987-02-14 01:00","1987","02","14","01:00","-13.3","","-17.2","","72","","1","","19","","25.0","","99.71","","","","-22","","Cloudy"
"1987-02-14 02:00","1987","02","14","02:00","-14.3","","-20.3","","60","","4","","20","","25.0","","99.71","","","","-23","","Cloudy"
"1987-02-14 03:00","1987","02","14","03:00","-14.5","","-21.0","","58","","2","","17","","25.0","","99.71","","","","-23","","Cloudy"
"1987-02-14 04:00","1987","02","14","04:00","-15.0","","-21.0","","60","","36","","17","","25.0","","99.67","","","","-23","","Cloudy"
"1987-02-14 05:00","1987","02","14","05:00","-15.5","","-21.8","","59","","4","","17","","25.0","","99.67","","","","-24","","Cloudy"
"1987-02-14 06:00","1987","02","14","06:00","-15.3","","-20.3","","66","","2","","13","","25.0","","99.74","","","","-23","","Cloudy"
"1987-02-14 07:00","1987","02","14","07:00","-15.5","","-20.3","","67","","1","","17","","19.3","","99.77","","","","-24","","Cloudy"
"1987-02-14 08:00","1987","02","14","08:00","-15.8","","-21.0","","64","","1","","19","","4.8","","99.81","","","","-25","","Snow"
"1987-02-14 09:00","1987","02","14","09:00","-16.0","","-21.0","","65","","1","","20","","6.4","","99.87","","","","-25","","Snow Showers"
"1987-02-14 10:00","1987","02","14","10:00","-15.3","","-26.2","","39","","1","","20","","6.4","","99.91","","","","-25","","Ice Crystals"
"1987-02-14 11:00","1987","02","14","11:00","-15.5","","-25.2","","43","","36","","13","","4.8","","99.94","","","","-23","","Ice Crystals"
"1987-02-14 12:00","1987","02","14","12:00","-14.5","","-21.8","","54","","36","","13","","8.0","","99.94","","","","-22","","Ice Crystals"
"1987-02-14 13:00","1987","02","14","13:00","-13.8","","-19.0","","65","","36","","17","","12.9","","99.91","","","","-22","","Ice Crystals"
"1987-02-14 14:00","1987","02","14","14:00","-13.4","","-17.7","","70","","35","","13","","16.1","","99.87","","","","-20","","Mostly Cloudy"
"1987-02-14 15:00","1987","02","14","15:00","-13.7","","-20.2","","58","","34","","17","","40.2","","99.87","","","","-22","","Mainly Clear"
"1987-02-14 16:00","1987","02","14","16:00","-13.9","","-19.0","","65","","32","","19","","40.2","","99.91","","","","-23","","Clear"
"1987-02-14 17:00","1987","02","14","17:00","-14.9","","-20.3","","63","","35","","20","","40.2","","99.91","","","","-24","","Clear"
"1987-02-14 18:00","1987","02","14","18:00","-15.8","","-21.0","","64","","35","","22","","25.0","","99.97","","","","-26","","Clear"
"1987-02-14 19:00","1987","02","14","19:00","-15.7","","-21.8","","60","","34","","15","","25.0","","100.04","","","","-24","","Clear"
"1987-02-14 20:00","1987","02","14","20:00","-16.9","","-22.4","","62","","34","","22","","25.0","","100.07","","","","-27","","Clear"
"1987-02-14 21:00","1987","02","14","21:00","-18.0","","-22.1","","70","","34","","17","","25.0","","100.17","","","","-27","","Clear"
"1987-02-14 22:00","1987","02","14","22:00","-18.2","","-22.1","","72","","35","","20","","25.0","","100.24","","","","-28","","Clear"
"1987-02-14 23:00","1987","02","14","23:00","-18.4","","-22.0","","73","","1","","20","","25.0","","100.31","","","","-28","","Clear"
"1987-02-15 00:00","1987","02","15","00:00","-19.5","","-25.9","","57","","35","","17","","25.0","","100.41","","","","-29","","Clear"
"1987-02-15 01:00","1987","02","15","01:00","-20.2","","-25.6","","62","","35","","17","","25.0","","100.47","","","","-30","","Clear"
"1987-02-15 02:00","1987","02","15","02:00","-20.6","","-26.3","","61","","35","","17","","25.0","","100.47","","","","-30","","Clear"
"1987-02-15 03:00","1987","02","15","03:00","-21.2","","-26.0","","66","","35","","15","","25.0","","100.51","","","","-31","","Clear"
"1987-02-15 04:00","1987","02","15","04:00","-21.8","","-26.3","","67","","35","","11","","25.0","","100.51","","","","-30","","Clear"
"1987-02-15 05:00","1987","02","15","05:00","-22.5","","-28.0","","61","","34","","9","","25.0","","100.57","","","","-30","","Clear"
"1987-02-15 06:00","1987","02","15","06:00","-23.0","","-27.5","","67","","33","","11","","25.0","","100.61","","","","-31","","Clear"
"1987-02-15 07:00","1987","02","15","07:00","-23.0","","-26.5","","73","","33","","15","","25.0","","100.67","","","","-33","","Clear"
"1987-02-15 08:00","1987","02","15","08:00","-23.4","","-27.1","","72","","32","","17","","40.2","","100.74","","","","-34","","Clear"
"1987-02-15 09:00","1987","02","15","09:00","-22.0","","-27.3","","63","","35","","17","","40.2","","100.77","","","","-32","","Clear"
"1987-02-15 10:00","1987","02","15","10:00","-20.3","","-26.3","","59","","34","","22","","40.2","","100.77","","","","-31","","Clear"
"1987-02-15 11:00","1987","02","15","11:00","-20.0","","-26.6","","56","","35","","24","","40.2","","100.77","","","","-31","","Clear"
"1987-02-15 12:00","1987","02","15","12:00","-18.0","","-24.6","","56","","35","","19","","40.2","","100.77","","","","-28","","Clear"
"1987-02-15 13:00","1987","02","15","13:00","-17.5","","-26.8","","45","","32","","22","","40.2","","100.71","","","","-28","","Clear"
"1987-02-15 14:00","1987","02","15","14:00","-15.5","","-24.2","","47","","32","","17","","40.2","","100.61","","","","-24","","Clear"
"1987-02-15 15:00","1987","02","15","15:00","-14.8","","-22.6","","51","","34","","15","","40.2","","100.61","","","","-23","","Clear"
"1987-02-15 16:00","1987","02","15","16:00","-13.9","","-21.7","","52","","35","","17","","40.2","","100.61","","","","-22","","Clear"
"1987-02-15 17:00","1987","02","15","17:00","-14.0","","-21.7","","52","","34","","19","","40.2","","100.61","","","","-23","","Clear"
"1987-02-15 18:00","1987","02","15","18:00","-15.6","","-23.4","","51","","34","","26","","25.0","","100.67","","","","-26","","Clear"
"1987-02-15 19:00","1987","02","15","19:00","-15.4","","-20.3","","66","","32","","22","","25.0","","100.74","","","","-25","","Mainly Clear"
"1987-02-15 20:00","1987","02","15","20:00","-16.4","","-21.0","","68","","35","","24","","25.0","","100.77","","","","-27","","Clear"
"1987-02-15 21:00","1987","02","15","21:00","-16.9","","-21.6","","67","","1","","30","","25.0","","100.77","","","","-29","","Clear"
"1987-02-15 22:00","1987","02","15","22:00","-17.1","","-22.4","","64","","36","","31","","25.0","","100.81","","","","-29","","Clear"
"1987-02-15 23:00","1987","02","15","23:00","-17.7","","-21.5","","72","","1","","31","","25.0","","100.81","","","","-30","","Clear"
"1987-02-16 00:00","1987","02","16","00:00","-18.2","","-22.9","","67","","35","","22","","25.0","","100.91","","","","-29","","Clear"
"1987-02-16 01:00","1987","02","16","01:00","-18.7","","-23.6","","65","","36","","17","","25.0","","100.97","","","","-28","","Clear"
"1987-02-16 02:00","1987","02","16","02:00","-19.1","","-24.2","","64","","36","","13","","25.0","","100.94","","","","-27","","Clear"
"1987-02-16 03:00","1987","02","16","03:00","-19.7","","-24.0","","69","","1","","15","","25.0","","100.94","","","","-29","","Clear"
"1987-02-16 04:00","1987","02","16","04:00","-20.0","","-24.7","","66","","1","","17","","25.0","","100.91","","","","-30","","Clear"
"1987-02-16 05:00","1987","02","16","05:00","-20.4","","-24.4","","71","","35","","17","","25.0","","100.91","","","","-30","","Clear"
"1987-02-16 06:00","1987","02","16","06:00","-20.5","","-24.4","","71","","36","","17","","25.0","","100.87","","","","-30","","Clear"
"1987-02-16 07:00","1987","02","16","07:00","-20.9","","-25.0","","70","","33","","7","","25.0","","100.91","","","","-27","","Mainly Clear"
"1987-02-16 08:00","1987","02","16","08:00","-20.8","","-25.0","","69","","35","","13","","32.2","","100.97","","","","-29","","Cloudy"
"1987-02-16 09:00","1987","02","16","09:00","-19.7","","-23.2","","74","","36","","17","","32.2","","100.94","","","","-29","","Cloudy"
"1987-02-16 10:00","1987","02","16","10:00","-18.0","","-23.7","","61","","1","","17","","32.2","","100.87","","","","-27","","Cloudy"
"1987-02-16 11:00","1987","02","16","11:00","-16.5","","-22.4","","60","","36","","13","","32.2","","100.81","","","","-24","","Cloudy"
"1987-02-16 12:00","1987","02","16","12:00","-14.9","","-21.0","","60","","36","","17","","32.2","","100.71","","","","-23","","Cloudy"
"1987-02-16 13:00","1987","02","16","13:00","-14.2","","-20.3","","60","","36","","17","","32.2","","100.64","","","","-22","","Cloudy"
"1987-02-16 14:00","1987","02","16","14:00","-12.4","","-18.1","","62","","1","","11","","32.2","","100.57","","","","-18","","Mostly Cloudy"
"1987-02-16 15:00","1987","02","16","15:00","-11.0","","-17.7","","57","","3","","13","","32.2","","100.54","","","","-17","","Mainly Clear"
"1987-02-16 16:00","1987","02","16","16:00","-10.0","","-17.4","","55","","1","","7","","32.2","","100.54","","","","-14","","Mainly Clear"
"1987-02-16 17:00","1987","02","16","17:00","-10.6","","-18.2","","53","","34","","15","","32.2","","100.54","","","","-17","","Mainly Clear"
"1987-02-16 18:00","1987","02","16","18:00","-12.8","","-22.4","","44","","33","","15","","32.2","","100.54","","","","-20","","Mainly Clear"
"1987-02-16 19:00","1987","02","16","19:00","-12.8","","-18.2","","64","","35","","17","","25.0","","100.54","","","","-21","","Mainly Clear"
"1987-02-16 20:00","1987","02","16","20:00","-13.4","","-18.3","","67","","35","","13","","25.0","","100.51","","","","-20","","Mainly Clear"
"1987-02-16 21:00","1987","02","16","21:00","-15.1","","-19.0","","72","","33","","11","","25.0","","100.51","","","","-22","","Mainly Clear"
"1987-02-16 22:00","1987","02","16","22:00","-15.0","","-19.0","","71","","34","","15","","25.0","","100.47","","","","-23","","Mainly Clear"
"1987-02-16 23:00","1987","02","16","23:00","-14.6","","-18.4","","73","","35","","11","","25.0","","100.47","","","","-21","","Mainly Clear"
"1987-02-17 00:00","1987","02","17","00:00","-13.3","","-17.7","","69","","35","","15","","25.0","","100.44","","","","-21","","Mainly Clear"
"1987-02-17 01:00","1987","02","17","01:00","-14.6","","-18.4","","73","","34","","17","","25.0","","100.41","","","","-23","","Mainly Clear"
"1987-02-17 02:00","1987","02","17","02:00","-15.6","","-19.0","","75","","34","","13","","25.0","","100.41","","","","-23","","Mainly Clear"
"1987-02-17 03:00","1987","02","17","03:00","-14.2","","-17.8","","74","","35","","15","","25.0","","100.37","","","","-22","","Mainly Clear"
"1987-02-17 04:00","1987","02","17","04:00","-14.3","","-18.4","","71","","35","","15","","25.0","","100.34","","","","-22","","Mainly Clear"
"1987-02-17 05:00","1987","02","17","05:00","-13.1","","-18.2","","65","","36","","13","","25.0","","100.31","","","","-20","","Mainly Clear"
"1987-02-17 06:00","1987","02","17","06:00","-13.2","","-18.2","","66","","2","","11","","25.0","","100.31","","","","-19","","Mainly Clear"
"1987-02-17 07:00","1987","02","17","07:00","-15.0","","-19.0","","71","","34","","15","","25.0","","100.31","","","","-23","","Mainly Clear"
"1987-02-17 08:00","1987","02","17","08:00","-13.8","","-19.0","","65","","34","","15","","40.2","","100.37","","","","-21","","Mostly Cloudy"
"1987-02-17 09:00","1987","02","17","09:00","-12.4","","-17.0","","68","","34","","15","","32.2","","100.41","","","","-20","","Mostly Cloudy"
"1987-02-17 10:00","1987","02","17","10:00","-10.5","","-15.4","","67","","34","","13","","32.2","","100.41","","","","-17","","Mostly Cloudy"
"1987-02-17 11:00","1987","02","17","11:00","-7.3","","-13.1","","63","","2","","17","","40.2","","100.31","","","","-14","","Mostly Cloudy"
"1987-02-17 12:00","1987","02","17","12:00","-6.0","","-13.3","","56","","3","","19","","40.2","","100.27","","","","-13","","Mostly Cloudy"
"1987-02-17 13:00","1987","02","17","13:00","-4.9","","-11.3","","61","","3","","19","","40.2","","100.17","","","","-11","","Mostly Cloudy"
"1987-02-17 14:00","1987","02","17","14:00","-4.0","","-12.4","","52","","36","","13","","40.2","","100.17","","","","-9","","Mostly Cloudy"
"1987-02-17 15:00","1987","02","17","15:00","-3.6","","-13.5","","46","","36","","15","","40.2","","100.11","","","","-9","","Mostly Cloudy"
"1987-02-17 16:00","1987","02","17","16:00","-3.6","","-12.5","","50","","33","","7","","40.2","","100.14","","","","-7","","Cloudy"
"1987-02-17 17:00","1987","02","17","17:00","-3.7","","-12.5","","50","","34","","15","","40.2","","100.14","","","","-9","","Cloudy"
"1987-02-17 18:00","1987","02","17","18:00","-5.0","","-10.9","","63","","34","","15","","40.2","","100.14","","","","-11","","Cloudy"
"1987-02-17 19:00","1987","02","17","19:00","-5.5","","-10.0","","70","","34","","20","","25.0","","100.14","","","","-12","","Cloudy"
"1987-02-17 20:00","1987","02","17","20:00","-5.7","","-8.9","","78","","34","","20","","25.0","","100.14","","","","-12","","Cloudy"
"1987-02-17 21:00","1987","02","17","21:00","-5.7","","-8.9","","78","","35","","20","","25.0","","100.11","","","","-12","","Cloudy"
"1987-02-17 22:00","1987","02","17","22:00","-5.6","","-8.9","","78","","35","","17","","25.0","","100.14","","","","-12","","Cloudy"
"1987-02-17 23:00","1987","02","17","23:00","-5.5","","-8.9","","77","","36","","15","","25.0","","100.11","","","","-11","","Cloudy"
"1987-02-18 00:00","1987","02","18","00:00","-5.0","","-7.5","","83","","36","","13","","25.0","","100.07","","","","-10","","Cloudy"
"1987-02-18 01:00","1987","02","18","01:00","-5.0","","-13.6","","51","","1","","15","","25.0","","100.11","","","","-11","","Cloudy"
"1987-02-18 02:00","1987","02","18","02:00","-5.7","","-14.4","","50","","36","","15","","25.0","","100.11","","","","-11","","Cloudy"
"1987-02-18 03:00","1987","02","18","03:00","-7.6","","-14.1","","59","","34","","13","","25.0","","100.11","","","","-13","","Mainly Clear"
"1987-02-18 04:00","1987","02","18","04:00","-7.8","","-16.5","","49","","36","","19","","25.0","","100.11","","","","-15","","Mainly Clear"
"1987-02-18 05:00","1987","02","18","05:00","-9.2","","-15.8","","59","","35","","17","","25.0","","100.14","","","","-16","","Mainly Clear"
"1987-02-18 06:00","1987","02","18","06:00","-10.0","","-16.8","","57","","35","","15","","25.0","","100.17","","","","-17","","Clear"
"1987-02-18 07:00","1987","02","18","07:00","-10.8","","-17.7","","56","","35","","19","","25.0","","100.21","","","","-19","","Clear"
"1987-02-18 08:00","1987","02","18","08:00","-10.8","","-17.7","","56","","35","","15","","40.2","","100.27","","","","-18","","Clear"
"1987-02-18 09:00","1987","02","18","09:00","-9.7","","-16.1","","59","","35","","22","","40.2","","100.31","","","","-18","","Clear"
"1987-02-18 10:00","1987","02","18","10:00","-8.3","","-15.1","","58","","35","","15","","40.2","","100.31","","","","-15","","Clear"
"1987-02-18 11:00","1987","02","18","11:00","-7.1","","-12.4","","66","","34","","17","","40.2","","100.34","","","","-14","","Clear"
"1987-02-18 12:00","1987","02","18","12:00","-6.5","","-12.6","","62","","34","","13","","40.2","","100.31","","","","-12","","Clear"
"1987-02-18 13:00","1987","02","18","13:00","-5.9","","-14.8","","49","","31","","11","","40.2","","100.27","","","","-11","","Clear"
"1987-02-18 14:00","1987","02","18","14:00","-4.2","","-12.0","","54","","32","","15","","40.2","","100.24","","","","-10","","Clear"
"1987-02-18 15:00","1987","02","18","15:00","-3.8","","-12.9","","49","","31","","17","","40.2","","100.21","","","","-10","","Clear"
"1987-02-18 16:00","1987","02","18","16:00","-3.1","","-11.7","","51","","34","","15","","40.2","","100.21","","","","-8","","Clear"
"1987-02-18 17:00","1987","02","18","17:00","-3.2","","-11.7","","52","","34","","19","","40.2","","100.24","","","","-9","","Clear"
"1987-02-18 18:00","1987","02","18","18:00","-5.1","","-11.7","","60","","34","","15","","40.2","","100.27","","","","-11","","Clear"
"1987-02-18 19:00","1987","02","18","19:00","-6.3","","-11.3","","68","","32","","20","","25.0","","100.31","","","","-13","","Clear"
"1987-02-18 20:00","1987","02","18","20:00","-7.1","","-11.6","","70","","32","","19","","25.0","","100.34","","","","-14","","Clear"
"1987-02-18 21:00","1987","02","18","21:00","-8.5","","-12.7","","71","","32","","17","","25.0","","100.37","","","","-15","","Clear"
"1987-02-18 22:00","1987","02","18","22:00","-8.5","","-12.7","","71","","33","","19","","25.0","","100.41","","","","-16","","Clear"
"1987-02-18 23:00","1987","02","18","23:00","-8.3","","-12.3","","73","","34","","15","","25.0","","100.44","","","","-15","","Clear"
"1987-02-19 00:00","1987","02","19","00:00","-9.1","","-13.4","","71","","32","","13","","25.0","","100.47","","","","-15","","Clear"
"1987-02-19 01:00","1987","02","19","01:00","-9.4","","-14.0","","69","","32","","9","","25.0","","100.51","","","","-14","","Clear"
"1987-02-19 02:00","1987","02","19","02:00","-9.5","","-13.6","","72","","32","","6","","25.0","","100.57","","","","-13","","Clear"
"1987-02-19 03:00","1987","02","19","03:00","-10.6","","-14.4","","74","","26","","6","","25.0","","100.57","","","","-14","","Clear"
"1987-02-19 04:00","1987","02","19","04:00","-10.9","","-14.1","","77","","26","","4","","25.0","","100.61","","","","-13","","Clear"
"1987-02-19 05:00","1987","02","19","05:00","-11.2","","-14.5","","77","","25","","7","","25.0","","100.64","","","","-15","","Clear"
"1987-02-19 06:00","1987","02","19","06:00","-11.6","","-15.2","","74","","27","","6","","25.0","","100.71","","","","-15","","Clear"
"1987-02-19 07:00","1987","02","19","07:00","-12.0","","-15.8","","73","","27","","6","","25.0","","100.77","","","","-16","","Clear"
"1987-02-19 08:00","1987","02","19","08:00","-11.3","","-14.7","","76","","","","0","","32.2","","100.84","","","","","","Clear"
"1987-02-19 09:00","1987","02","19","09:00","-5.7","","-9.2","","76","","","","0","","32.2","","100.91","","","","","","Clear"
"1987-02-19 10:00","1987","02","19","10:00","-5.0","","-9.7","","69","","","","0","","32.2","","100.91","","","","","","Clear"
"1987-02-19 11:00","1987","02","19","11:00","-3.1","","-7.7","","70","","34","","9","","40.2","","100.91","","","","-7","","Clear"
"1987-02-19 12:00","1987","02","19","12:00","-1.8","","-7.4","","65","","33","","9","","40.2","","100.91","","","","-5","","Clear"
"1987-02-19 13:00","1987","02","19","13:00","-1.3","","-7.4","","63","","34","","7","","40.2","","100.87","","","","-4","","Clear"
"1987-02-19 14:00","1987","02","19","14:00","-0.2","","-7.3","","59","","","","0","","40.2","","100.84","","","","","","Clear"
"1987-02-19 15:00","1987","02","19","15:00","0.1","","-7.5","","56","","34","","9","","40.2","","100.84","","","","","","Clear"
"1987-02-19 16:00","1987","02","19","16:00","0.2","","-6.7","","59","","","","0","","40.2","","100.87","","","","","","Mainly Clear"
"1987-02-19 17:00","1987","02","19","17:00","-0.1","","-7.1","","59","","34","","7","","40.2","","100.91","","","","-3","","Mainly Clear"
"1987-02-19 18:00","1987","02","19","18:00","-2.0","","-7.7","","65","","1","","11","","40.2","","100.91","","","","-6","","Mainly Clear"
"1987-02-19 19:00","1987","02","19","19:00","-2.8","","-7.0","","73","","35","","13","","25.0","","100.97","","","","-7","","Clear"
"1987-02-19 20:00","1987","02","19","20:00","-4.5","","-8.3","","75","","31","","11","","25.0","","100.97","","","","-9","","Clear"
"1987-02-19 21:00","1987","02","19","21:00","-5.8","","-9.1","","77","","31","","11","","25.0","","101.01","","","","-11","","Clear"
"1987-02-19 22:00","1987","02","19","22:00","-6.2","","-9.5","","77","","31","","11","","25.0","","101.01","","","","-11","","Clear"
"1987-02-19 23:00","1987","02","19","23:00","-6.0","","-8.8","","81","","32","","4","","25.0","","101.01","","","","-8","","Clear"
"1987-02-20 00:00","1987","02","20","00:00","-6.8","","-10.4","","75","","","","0","","25.0","","101.04","","","","","","Clear"
"1987-02-20 01:00","1987","02","20","01:00","-8.5","","-10.7","","84","","33","","7","","25.0","","101.07","","","","-12","","Clear"
"1987-02-20 02:00","1987","02","20","02:00","-9.3","","-11.8","","82","","33","","4","","25.0","","101.11","","","","-12","","Clear"
"1987-02-20 03:00","1987","02","20","03:00","-8.7","","-10.7","","85","","35","","4","","25.0","","101.11","","","","-11","","Clear"
"1987-02-20 04:00","1987","02","20","04:00","-11.4","","-14.2","","79","","32","","6","","25.0","","101.07","","","","-15","","Clear"
"1987-02-20 05:00","1987","02","20","05:00","-11.8","","-14.8","","78","","","","0","","25.0","","101.07","","","","","","Clear"
"1987-02-20 06:00","1987","02","20","06:00","-11.5","","-13.8","","83","","30","","4","","25.0","","101.07","","","","-14","","Clear"
"1987-02-20 07:00","1987","02","20","07:00","-11.4","","-12.9","","89","","32","","7","","25.0","","101.17","","","","-16","","Clear"
"1987-02-20 08:00","1987","02","20","08:00","-9.7","","-11.4","","88","","29","","4","","32.2","","101.21","","","","-12","","Mainly Clear"
"1987-02-20 09:00","1987","02","20","09:00","-5.7","","-8.2","","82","","","","0","","32.2","","101.21","","","","","","Mostly Cloudy"
"1987-02-20 10:00","1987","02","20","10:00","-3.6","","-7.7","","73","","","","0","","32.2","","101.14","","","","","","Mainly Clear"
"1987-02-20 11:00","1987","02","20","11:00","-1.9","","-8.5","","60","","","","0","","24.1","","101.07","","","","","","Mainly Clear"
"1987-02-20 12:00","1987","02","20","12:00","-0.5","","-8.1","","56","","22","","7","","32.2","","101.11","","","","-3","","Mainly Clear"
"1987-02-20 13:00","1987","02","20","13:00","0.2","","-7.0","","58","","20","","7","","32.2","","101.04","","","","","","Mainly Clear"
"1987-02-20 14:00","1987","02","20","14:00","0.8","","-6.2","","59","","21","","11","","40.2","","100.97","","","","","","Clear"
"1987-02-20 15:00","1987","02","20","15:00","1.6","","-4.8","","62","","22","","11","","40.2","","100.87","","","","","","Clear"
"1987-02-20 16:00","1987","02","20","16:00","1.7","","-6.8","","53","","24","","9","","40.2","","100.84","","","","","","Clear"
"1987-02-20 17:00","1987","02","20","17:00","1.2","","-6.9","","55","","21","","7","","40.2","","100.77","","","","","","Clear"
"1987-02-20 18:00","1987","02","20","18:00","-0.4","","-8.3","","55","","26","","6","","32.2","","100.74","","","","-2","","Clear"
"1987-02-20 19:00","1987","02","20","19:00","-2.0","","-7.7","","65","","25","","6","","25.0","","100.74","","","","-4","","Clear"
"1987-02-20 20:00","1987","02","20","20:00","-2.5","","-8.5","","63","","26","","6","","25.0","","100.71","","","","-5","","Clear"
"1987-02-20 21:00","1987","02","20","21:00","-3.2","","-8.8","","65","","28","","6","","25.0","","100.61","","","","-6","","Clear"
"1987-02-20 22:00","1987","02","20","22:00","-4.2","","-9.1","","69","","29","","6","","25.0","","100.57","","","","-7","","Clear"
"1987-02-20 23:00","1987","02","20","23:00","-5.4","","-10.0","","70","","27","","6","","25.0","","100.51","","","","-8","","Clear"
"1987-02-21 00:00","1987","02","21","00:00","-5.7","","-9.6","","74","","25","","6","","25.0","","100.51","","","","-9","","Clear"
"1987-02-21 01:00","1987","02","21","01:00","-5.9","","-9.5","","75","","24","","4","","24.1","","100.47","","","","-8","","Clear"
"1987-02-21 02:00","1987","02","21","02:00","-4.9","","-10.1","","67","","29","","4","","24.1","","100.41","","","","-7","","Clear"
"1987-02-21 03:00","1987","02","21","03:00","-6.5","","-10.1","","75","","33","","4","","24.1","","100.34","","","","-8","","Clear"
"1987-02-21 04:00","1987","02","21","04:00","-10.2","","-13.8","","75","","32","","4","","24.1","","100.31","","","","-13","","Mainly Clear"
"1987-02-21 05:00","1987","02","21","05:00","-10.2","","-13.3","","78","","31","","4","","19.3","","100.34","","","","-13","","Mainly Clear"
"1987-02-21 06:00","1987","02","21","06:00","-11.0","","-15.0","","72","","34","","9","","19.3","","100.31","","","","-16","","Clear"
"1987-02-21 07:00","1987","02","21","07:00","-10.6","","-13.0","","82","","32","","9","","16.1","","100.27","","","","-16","","Mainly Clear"
"1987-02-21 08:00","1987","02","21","08:00","-9.5","","-11.8","","83","","32","","7","","24.1","","100.27","","","","-13","","Mostly Cloudy"
"1987-02-21 09:00","1987","02","21","09:00","-6.6","","-9.4","","81","","","","0","","24.1","","100.27","","","","","","Mainly Clear"
"1987-02-21 10:00","1987","02","21","10:00","-3.3","","-9.5","","62","","","","0","","24.1","","100.21","","","","","","Mostly Cloudy"
"1987-02-21 11:00","1987","02","21","11:00","0.2","","-6.0","","63","","","","0","","24.1","","100.21","","","","","","Mostly Cloudy"
"1987-02-21 12:00","1987","02","21","12:00","0.9","","-7.6","","53","","22","","6","","32.2","","100.17","","","","","","Mainly Clear"
"1987-02-21 13:00","1987","02","21","13:00","1.9","","-8.2","","47","","22","","4","","32.2","","100.07","","","","","","Mostly Cloudy"
"1987-02-21 14:00","1987","02","21","14:00","2.2","","-9.9","","40","","21","","6","","32.2","","100.01","","","","","","Mostly Cloudy"
"1987-02-21 15:00","1987","02","21","15:00","2.7","","-9.0","","42","","21","","6","","32.2","","99.97","","","","","","Mainly Clear"
"1987-02-21 16:00","1987","02","21","16:00","1.8","","-6.0","","56","","14","","7","","32.2","","99.97","","","","","","Mostly Cloudy"
"1987-02-21 17:00","1987","02","21","17:00","1.6","","-7.5","","51","","17","","7","","32.2","","99.97","","","","","","Mainly Clear"
"1987-02-21 18:00","1987","02","21","18:00","-0.4","","-7.9","","57","","15","","6","","24.1","","99.97","","","","-2","","Mainly Clear"
"1987-02-21 19:00","1987","02","21","19:00","-0.6","","-8.5","","55","","15","","6","","24.1","","100.01","","","","-3","","Mainly Clear"
"1987-02-21 20:00","1987","02","21","20:00","-0.5","","-8.1","","56","","18","","4","","24.1","","100.01","","","","-2","","Mainly Clear"
"1987-02-21 21:00","1987","02","21","21:00","-3.5","","-7.3","","75","","","","0","","24.1","","99.97","","","","","","Mainly Clear"
"1987-02-21 22:00","1987","02","21","22:00","-2.2","","-6.7","","71","","","","0","","24.1","","99.97","","","","","","Mostly Cloudy"
"1987-02-21 23:00","1987","02","21","23:00","-5.5","","-7.8","","84","","","","0","","24.1","","99.94","","","","","","Clear"
"1987-02-22 00:00","1987","02","22","00:00","-5.5","","-7.5","","86","","","","0","","24.1","","99.87","","","","","","Clear"
"1987-02-22 01:00","1987","02","22","01:00","-6.9","","-8.9","","86","","32","","4","","11.3","","99.91","","","","-9","","Clear"
"1987-02-22 02:00","1987","02","22","02:00","-7.3","","-9.9","","81","","34","","4","","11.3","","99.91","","","","-9","","Clear"
"1987-02-22 03:00","1987","02","22","03:00","-6.9","","-9.6","","81","","1","","7","","9.7","","99.87","","","","-10","","Haze"
"1987-02-22 04:00","1987","02","22","04:00","-6.8","","-9.3","","82","","33","","6","","9.7","","99.84","","","","-10","","Haze"
"1987-02-22 05:00","1987","02","22","05:00","-6.1","","-8.1","","86","","34","","7","","9.7","","99.81","","","","-9","","Fog"
"1987-02-22 06:00","1987","02","22","06:00","-5.5","","-7.5","","86","","3","","6","","9.7","","99.77","","","","-8","","Fog"
"1987-02-22 07:00","1987","02","22","07:00","-4.6","","-6.0","","90","","35","","4","","8.0","","99.77","","","","-6","","Fog"
"1987-02-22 08:00","1987","02","22","08:00","-3.4","","-5.4","","86","","1","","4","","8.0","","99.81","","","","-5","","Fog"
"1987-02-22 09:00","1987","02","22","09:00","-2.2","","-3.9","","88","","5","","6","","8.0","","99.77","","","","-5","","Fog"
"1987-02-22 10:00","1987","02","22","10:00","0.5","","-2.5","","80","","8","","4","","8.0","","99.74","","","","","","Haze"
"1987-02-22 11:00","1987","02","22","11:00","1.7","","-2.9","","71","","12","","17","","12.9","","99.64","","","","","","Mostly Cloudy"
"1987-02-22 12:00","1987","02","22","12:00","2.2","","-3.4","","66","","13","","17","","24.1","","99.54","","","","","","Mostly Cloudy"
"1987-02-22 13:00","1987","02","22","13:00","2.8","","-5.8","","53","","12","","17","","24.1","","99.41","","","","","","Mostly Cloudy"
"1987-02-22 14:00","1987","02","22","14:00","3.0","","-5.1","","55","","10","","11","","24.1","","99.24","","","","","","Mostly Cloudy"
"1987-02-22 15:00","1987","02","22","15:00","3.1","","-4.5","","57","","10","","15","","24.1","","99.21","","","","","","Cloudy"
"1987-02-22 16:00","1987","02","22","16:00","1.7","","-2.1","","76","","19","","4","","12.9","","99.31","","","","","","Snow Showers"
"1987-02-22 17:00","1987","02","22","17:00","0.6","","-1.4","","86","","7","","11","","9.7","","99.27","","","","","","Snow"
"1987-02-22 18:00","1987","02","22","18:00","-0.1","","-0.4","","98","","5","","9","","4.8","","99.21","","","","-3","","Snow"
"1987-02-22 19:00","1987","02","22","19:00","-0.3","","-0.3","","100","","3","","11","","6.4","","99.14","","","","-4","","Snow"
"1987-02-22 20:00","1987","02","22","20:00","-0.6","","-1.1","","96","","2","","9","","9.7","","99.11","","","","-4","","Snow"
"1987-02-22 21:00","1987","02","22","21:00","-0.5","","-2.1","","89","","5","","11","","12.9","","99.07","","","","-4","","Cloudy"
"1987-02-22 22:00","1987","02","22","22:00","-0.5","","-2.7","","85","","36","","7","","24.1","","99.07","","","","-3","","Snow"
"1987-02-22 23:00","1987","02","22","23:00","-0.7","","-2.7","","86","","1","","9","","19.3","","99.04","","","","-4","","Cloudy"
"1987-02-23 00:00","1987","02","23","00:00","-1.0","","-3.6","","82","","35","","13","","16.1","","99.01","","","","-5","","Mostly Cloudy"
"1987-02-23 01:00","1987","02","23","01:00","-1.3","","-3.6","","84","","1","","9","","16.1","","98.94","","","","-5","","Mostly Cloudy"
"1987-02-23 02:00","1987","02","23","02:00","-1.2","","-3.3","","86","","1","","11","","12.9","","98.87","","","","-5","","Mostly Cloudy"
"1987-02-23 03:00","1987","02","23","03:00","-2.0","","-3.9","","87","","35","","13","","12.9","","98.87","","","","-6","","Mostly Cloudy"
"1987-02-23 04:00","1987","02","23","04:00","-2.5","","-3.9","","90","","34","","15","","9.7","","98.91","","","","-7","","Fog"
"1987-02-23 05:00","1987","02","23","05:00","-2.5","","-3.9","","90","","34","","19","","9.7","","98.94","","","","-8","","Fog"
"1987-02-23 06:00","1987","02","23","06:00","-2.4","","-3.9","","89","","35","","17","","9.7","","99.04","","","","-8","","Fog"
"1987-02-23 07:00","1987","02","23","07:00","-2.0","","-3.6","","89","","35","","19","","9.7","","99.04","","","","-8","","Fog"
"1987-02-23 08:00","1987","02","23","08:00","-1.8","","-3.6","","87","","35","","15","","12.9","","99.21","","","","-7","","Cloudy"
"1987-02-23 09:00","1987","02","23","09:00","-1.3","","-3.6","","84","","35","","17","","16.1","","99.31","","","","-6","","Cloudy"
"1987-02-23 10:00","1987","02","23","10:00","-0.9","","-3.0","","86","","35","","17","","9.7","","99.37","","","","-6","","Snow Showers"
"1987-02-23 11:00","1987","02","23","11:00","-0.4","","-3.1","","82","","36","","15","","16.1","","99.44","","","","-5","","Mostly Cloudy"
"1987-02-23 12:00","1987","02","23","12:00","0.2","","-3.2","","78","","34","","19","","19.3","","99.51","","","","","","Mostly Cloudy"
"1987-02-23 13:00","1987","02","23","13:00","1.0","","-3.0","","75","","32","","17","","32.2","","99.57","","","","","","Mostly Cloudy"
"1987-02-23 14:00","1987","02","23","14:00","2.0","","-3.4","","67","","33","","17","","32.2","","99.57","","","","","","Mainly Clear"
"1987-02-23 15:00","1987","02","23","15:00","2.3","","-3.9","","64","","33","","22","","32.2","","99.61","","","","","","Mainly Clear"
"1987-02-23 16:00","1987","02","23","16:00","2.1","","-4.0","","64","","33","","20","","32.2","","99.64","","","","","","Mainly Clear"
"1987-02-23 17:00","1987","02","23","17:00","1.3","","-4.1","","67","","32","","31","","32.2","","99.74","","","","","","Clear"
"1987-02-23 18:00","1987","02","23","18:00","0.0","","-5.6","","66","","32","","24","","32.2","","99.81","","","","-6","","Clear"
"1987-02-23 19:00","1987","02","23","19:00","-1.8","","-6.7","","69","","30","","17","","25.0","","99.91","","","","-7","","Mainly Clear"
"1987-02-23 20:00","1987","02","23","20:00","-2.0","","-7.7","","65","","32","","22","","25.0","","99.94","","","","-8","","Clear"
"1987-02-23 21:00","1987","02","23","21:00","-2.7","","-7.7","","68","","31","","20","","25.0","","99.97","","","","-9","","Clear"
"1987-02-23 22:00","1987","02","23","22:00","-3.8","","-8.7","","68","","28","","15","","25.0","","100.01","","","","-9","","Clear"
"1987-02-23 23:00","1987","02","23","23:00","-3.3","","-8.4","","68","","28","","17","","25.0","","100.07","","","","-9","","Clear"
"1987-02-24 00:00","1987","02","24","00:00","-3.8","","-8.3","","71","","28","","15","","25.0","","100.11","","","","-9","","Clear"
"1987-02-24 01:00","1987","02","24","01:00","-4.5","","-7.6","","79","","29","","19","","25.0","","100.17","","","","-11","","Clear"
"1987-02-24 02:00","1987","02","24","02:00","-5.1","","-8.2","","79","","30","","17","","25.0","","100.21","","","","-11","","Clear"
"1987-02-24 03:00","1987","02","24","03:00","-5.1","","-7.9","","81","","30","","15","","25.0","","100.27","","","","-11","","Clear"
"1987-02-24 04:00","1987","02","24","04:00","-6.0","","-8.4","","83","","27","","6","","25.0","","100.37","","","","-9","","Clear"
"1987-02-24 05:00","1987","02","24","05:00","-6.4","","-9.0","","82","","28","","11","","25.0","","100.41","","","","-11","","Clear"
"1987-02-24 06:00","1987","02","24","06:00","-7.4","","-10.6","","78","","30","","11","","25.0","","100.47","","","","-12","","Clear"
"1987-02-24 07:00","1987","02","24","07:00","-8.0","","-10.8","","80","","31","","13","","25.0","","100.51","","","","-14","","Clear"
"1987-02-24 08:00","1987","02","24","08:00","-7.0","","-10.0","","79","","29","","9","","40.2","","100.67","","","","-11","","Clear"
"1987-02-24 09:00","1987","02","24","09:00","-5.5","","-9.6","","73","","34","","17","","40.2","","100.67","","","","-12","","Clear"
"1987-02-24 10:00","1987","02","24","10:00","-4.3","","-9.8","","65","","33","","20","","40.2","","100.74","","","","-11","","Clear"
"1987-02-24 11:00","1987","02","24","11:00","-3.0","","-8.8","","64","","33","","20","","40.2","","100.77","","","","-9","","Clear"
"1987-02-24 12:00","1987","02","24","12:00","-2.3","","-7.7","","66","","31","","19","","40.2","","100.74","","","","-8","","Mainly Clear"
"1987-02-24 13:00","1987","02","24","13:00","-1.4","","-6.0","","71","","34","","15","","40.2","","100.71","","","","-6","","Mainly Clear"
"1987-02-24 14:00","1987","02","24","14:00","-0.9","","-11.0","","46","","33","","20","","40.2","","100.71","","","","-6","","Mainly Clear"
"1987-02-24 15:00","1987","02","24","15:00","-0.5","","-11.0","","45","","33","","11","","40.2","","100.67","","","","-4","","Mainly Clear"
"1987-02-24 16:00","1987","02","24","16:00","-0.6","","-9.3","","52","","34","","13","","40.2","","100.71","","","","-5","","Clear"
"1987-02-24 17:00","1987","02","24","17:00","-1.2","","-7.4","","63","","32","","11","","40.2","","100.74","","","","-5","","Clear"
"1987-02-24 18:00","1987","02","24","18:00","-2.8","","-7.7","","69","","31","","13","","40.2","","100.74","","","","-7","","Mainly Clear"
"1987-02-24 19:00","1987","02","24","19:00","-4.3","","-11.4","","57","","29","","13","","25.0","","100.77","","","","-9","","Clear"
"1987-02-24 20:00","1987","02","24","20:00","-5.4","","-10.4","","68","","29","","13","","25.0","","100.84","","","","-11","","Clear"
"1987-02-24 21:00","1987","02","24","21:00","-4.8","","-10.1","","66","","31","","17","","25.0","","100.81","","","","-11","","Clear"
"1987-02-24 22:00","1987","02","24","22:00","-6.0","","-10.3","","72","","32","","15","","25.0","","100.87","","","","-12","","Clear"
"1987-02-24 23:00","1987","02","24","23:00","-7.3","","-11.0","","75","","33","","13","","25.0","","100.87","","","","-13","","Clear"
"1987-02-25 00:00","1987","02","25","00:00","-7.6","","-11.4","","74","","34","","13","","25.0","","100.87","","","","-13","","Clear"
"1987-02-25 01:00","1987","02","25","01:00","-7.5","","-11.0","","76","","35","","17","","25.0","","100.91","","","","-14","","Clear"
"1987-02-25 02:00","1987","02","25","02:00","-9.4","","-12.7","","77","","31","","7","","25.0","","100.97","","","","-13","","Clear"
"1987-02-25 03:00","1987","02","25","03:00","-7.5","","-12.3","","68","","28","","6","","25.0","","100.94","","","","-11","","Clear"
"1987-02-25 04:00","1987","02","25","04:00","-8.0","","-12.5","","70","","25","","4","","25.0","","101.01","","","","-10","","Clear"
"1987-02-25 05:00","1987","02","25","05:00","-9.3","","-13.1","","74","","29","","6","","25.0","","101.04","","","","-13","","Clear"
"1987-02-25 06:00","1987","02","25","06:00","-10.5","","-13.9","","76","","32","","7","","25.0","","101.11","","","","-15","","Clear"
"1987-02-25 07:00","1987","02","25","07:00","-10.1","","-12.4","","83","","32","","11","","25.0","","101.11","","","","-16","","Clear"
"1987-02-25 08:00","1987","02","25","08:00","-8.0","","-11.2","","77","","32","","11","","32.2","","101.21","","","","-13","","Clear"
"1987-02-25 09:00","1987","02","25","09:00","-5.2","","-8.9","","75","","33","","9","","32.2","","101.24","","","","-9","","Clear"
"1987-02-25 10:00","1987","02","25","10:00","-3.0","","-12.6","","47","","34","","9","","32.2","","101.27","","","","-7","","Clear"
"1987-02-25 11:00","1987","02","25","11:00","-2.3","","-10.9","","51","","33","","11","","32.2","","101.31","","","","-6","","Mainly Clear"
"1987-02-25 12:00","1987","02","25","12:00","-1.1","","-10.1","","50","","36","","15","","32.2","","101.27","","","","-6","","Mainly Clear"
"1987-02-25 13:00","1987","02","25","13:00","-0.7","","-10.1","","49","","36","","22","","40.2","","101.21","","","","-6","","Mainly Clear"
"1987-02-25 14:00","1987","02","25","14:00","-0.5","","-7.7","","58","","35","","15","","40.2","","101.17","","","","-5","","Mainly Clear"
"1987-02-25 15:00","1987","02","25","15:00","0.3","","-7.2","","57","","32","","19","","40.2","","101.17","","","","","","Mainly Clear"
"1987-02-25 16:00","1987","02","25","16:00","0.3","","-7.6","","55","","33","","19","","40.2","","101.17","","","","","","Clear"
"1987-02-25 17:00","1987","02","25","17:00","-0.2","","-6.6","","62","","34","","17","","40.2","","101.17","","","","-5","","Clear"
"1987-02-25 18:00","1987","02","25","18:00","-1.8","","-7.0","","67","","34","","19","","40.2","","101.17","","","","-7","","Mainly Clear"
"1987-02-25 19:00","1987","02","25","19:00","-3.6","","-7.0","","77","","33","","15","","25.0","","101.17","","","","-9","","Mainly Clear"
"1987-02-25 20:00","1987","02","25","20:00","-4.7","","-7.9","","78","","34","","13","","25.0","","101.21","","","","-10","","Mainly Clear"
"1987-02-25 21:00","1987","02","25","21:00","-5.5","","-8.5","","79","","33","","11","","25.0","","101.27","","","","-10","","Clear"
"1987-02-25 22:00","1987","02","25","22:00","-5.8","","-8.8","","79","","33","","19","","25.0","","101.31","","","","-12","","Clear"
"1987-02-25 23:00","1987","02","25","23:00","-6.4","","-9.0","","82","","33","","7","","25.0","","101.31","","","","-10","","Clear"
"1987-02-26 00:00","1987","02","26","00:00","-7.7","","-9.5","","87","","29","","9","","25.0","","101.31","","","","-12","","Clear"
"1987-02-26 01:00","1987","02","26","01:00","-7.2","","-8.9","","88","","31","","9","","25.0","","101.34","","","","-12","","Mainly Clear"
"1987-02-26 02:00","1987","02","26","02:00","-6.6","","-8.7","","85","","33","","15","","25.0","","101.37","","","","-13","","Mainly Clear"
"1987-02-26 03:00","1987","02","26","03:00","-7.4","","-9.1","","87","","31","","11","","25.0","","101.34","","","","-12","","Mainly Clear"
"1987-02-26 04:00","1987","02","26","04:00","-7.5","","-9.1","","88","","33","","11","","25.0","","101.37","","","","-13","","Mainly Clear"
"1987-02-26 05:00","1987","02","26","05:00","-8.3","","-10.3","","85","","33","","9","","25.0","","101.47","","","","-13","","Mainly Clear"
"1987-02-26 06:00","1987","02","26","06:00","-7.5","","-9.5","","85","","36","","6","","25.0","","101.41","","","","-11","","Mainly Clear"
"1987-02-26 07:00","1987","02","26","07:00","-8.5","","-9.9","","90","","33","","7","","25.0","","101.47","","","","-12","","Mainly Clear"
"1987-02-26 08:00","1987","02","26","08:00","-7.5","","-9.5","","85","","33","","9","","24.1","","101.57","","","","-12","","Mainly Clear"
"1987-02-26 09:00","1987","02","26","09:00","-4.5","","-6.9","","83","","35","","9","","24.1","","101.61","","","","-8","","Mainly Clear"
"1987-02-26 10:00","1987","02","26","10:00","-2.0","","-6.7","","70","","34","","7","","24.1","","101.64","","","","-5","","Mainly Clear"
"1987-02-26 11:00","1987","02","26","11:00","-0.8","","-8.1","","57","","35","","11","","32.2","","101.67","","","","-5","","Mostly Cloudy"
"1987-02-26 12:00","1987","02","26","12:00","0.3","","-9.2","","49","","2","","7","","32.2","","101.67","","","","","","Mostly Cloudy"
"1987-02-26 13:00","1987","02","26","13:00","0.4","","-8.6","","51","","31","","7","","40.2","","101.64","","","","","","Mostly Cloudy"
"1987-02-26 14:00","1987","02","26","14:00","0.2","","-8.1","","53","","33","","11","","40.2","","101.61","","","","","","Mostly Cloudy"
"1987-02-26 15:00","1987","02","26","15:00","0.5","","-7.7","","54","","32","","7","","40.2","","101.57","","","","","","Mostly Cloudy"
"1987-02-26 16:00","1987","02","26","16:00","0.0","","-8.5","","53","","32","","11","","40.2","","101.54","","","","-4","","Mostly Cloudy"
"1987-02-26 17:00","1987","02","26","17:00","-0.5","","-8.1","","56","","34","","11","","40.2","","101.47","","","","-4","","Mostly Cloudy"
"1987-02-26 18:00","1987","02","26","18:00","-1.0","","-7.0","","64","","1","","9","","40.2","","101.44","","","","-4","","Mostly Cloudy"
"1987-02-26 19:00","1987","02","26","19:00","-1.7","","-5.4","","76","","1","","7","","25.0","","101.51","","","","-4","","Mostly Cloudy"
"1987-02-26 20:00","1987","02","26","20:00","-1.6","","-5.4","","75","","2","","4","","25.0","","101.47","","","","-3","","Mostly Cloudy"
"1987-02-26 21:00","1987","02","26","21:00","-2.8","","-7.0","","73","","34","","7","","25.0","","101.51","","","","-6","","Mostly Cloudy"
"1987-02-26 22:00","1987","02","26","22:00","-3.9","","-8.0","","73","","35","","13","","25.0","","101.54","","","","-9","","Mostly Cloudy"
"1987-02-26 23:00","1987","02","26","23:00","-4.7","","-7.6","","80","","1","","7","","25.0","","101.47","","","","-8","","Mostly Cloudy"
"1987-02-27 00:00","1987","02","27","00:00","-5.6","","-9.2","","76","","32","","6","","25.0","","101.41","","","","-8","","Mostly Cloudy"
"1987-02-27 01:00","1987","02","27","01:00","-6.0","","-8.4","","83","","33","","7","","25.0","","101.41","","","","-9","","Mostly Cloudy"
"1987-02-27 02:00","1987","02","27","02:00","-6.2","","-8.1","","86","","32","","7","","25.0","","101.44","","","","-10","","Mostly Cloudy"
"1987-02-27 03:00","1987","02","27","03:00","-6.4","","-8.7","","83","","34","","7","","25.0","","101.37","","","","-10","","Mostly Cloudy"
"1987-02-27 04:00","1987","02","27","04:00","-6.1","","-8.4","","84","","34","","11","","25.0","","101.31","","","","-11","","Mostly Cloudy"
"1987-02-27 05:00","1987","02","27","05:00","-7.0","","-8.9","","86","","36","","9","","24.1","","101.34","","","","-11","","Mostly Cloudy"
"1987-02-27 06:00","1987","02","27","06:00","-7.0","","-8.9","","86","","34","","7","","24.1","","101.34","","","","-11","","Mostly Cloudy"
"1987-02-27 07:00","1987","02","27","07:00","-8.2","","-9.7","","89","","35","","7","","25.0","","101.34","","","","-12","","Cloudy"
"1987-02-27 08:00","1987","02","27","08:00","-5.8","","-8.4","","82","","1","","6","","24.1","","101.34","","","","-9","","Cloudy"
"1987-02-27 09:00","1987","02","27","09:00","-3.3","","-7.0","","75","","36","","4","","24.1","","101.34","","","","-5","","Cloudy"
"1987-02-27 10:00","1987","02","27","10:00","-1.7","","-5.7","","74","","11","","19","","24.1","","101.31","","","","-7","","Cloudy"
"1987-02-27 11:00","1987","02","27","11:00","1.1","","-3.6","","71","","12","","19","","32.2","","101.27","","","","","","Cloudy"
"1987-02-27 12:00","1987","02","27","12:00","1.6","","-4.1","","66","","12","","20","","40.2","","101.24","","","","","","Mostly Cloudy"
"1987-02-27 13:00","1987","02","27","13:00","2.6","","-4.6","","59","","10","","22","","40.2","","101.17","","","","","","Mostly Cloudy"
"1987-02-27 14:00","1987","02","27","14:00","2.4","","-2.6","","69","","11","","22","","40.2","","101.01","","","","","","Cloudy"
"1987-02-27 15:00","1987","02","27","15:00","2.9","","-3.2","","64","","11","","20","","40.2","","100.94","","","","","","Cloudy"
"1987-02-27 16:00","1987","02","27","16:00","2.3","","-3.2","","67","","9","","19","","40.2","","100.91","","","","","","Mostly Cloudy"
"1987-02-27 17:00","1987","02","27","17:00","1.0","","-2.4","","78","","10","","19","","40.2","","100.87","","","","","","Mostly Cloudy"
"1987-02-27 18:00","1987","02","27","18:00","0.4","","-2.4","","82","","9","","15","","32.2","","100.87","","","","","","Mainly Clear"
"1987-02-27 19:00","1987","02","27","19:00","-0.3","","-2.1","","87","","9","","20","","25.0","","100.84","","","","-6","","Mostly Cloudy"
"1987-02-27 20:00","1987","02","27","20:00","-0.3","","-2.1","","87","","8","","13","","25.0","","100.81","","","","-4","","Mostly Cloudy"
"1987-02-27 21:00","1987","02","27","21:00","-0.4","","-2.0","","89","","8","","13","","25.0","","100.74","","","","-5","","Mostly Cloudy"
"1987-02-27 22:00","1987","02","27","22:00","-0.4","","-2.0","","89","","8","","13","","25.0","","100.71","","","","-5","","Mostly Cloudy"
"1987-02-27 23:00","1987","02","27","23:00","-0.2","","-2.3","","86","","8","","15","","25.0","","100.61","","","","-5","","Mostly Cloudy"
"1987-02-28 00:00","1987","02","28","00:00","0.3","","-2.2","","83","","9","","13","","25.0","","100.51","","","","","","Mostly Cloudy"
"1987-02-28 01:00","1987","02","28","01:00","0.4","","-2.4","","82","","11","","9","","25.0","","100.51","","","","","","Mostly Cloudy"
"1987-02-28 02:00","1987","02","28","02:00","0.5","","-3.1","","77","","13","","6","","25.0","","100.47","","","","","","Mostly Cloudy"
"1987-02-28 03:00","1987","02","28","03:00","-0.4","","-3.1","","82","","","","0","","25.0","","100.37","","","","","","Mostly Cloudy"
"1987-02-28 04:00","1987","02","28","04:00","0.6","","-1.4","","86","","11","","6","","25.0","","100.31","","","","","","Mostly Cloudy"
"1987-02-28 05:00","1987","02","28","05:00","0.4","","-0.8","","92","","11","","4","","25.0","","100.31","","","","","","Mostly Cloudy"
"1987-02-28 06:00","1987","02","28","06:00","0.6","","-0.9","","90","","","","0","","19.3","","100.31","","","","","","Drizzle"
"1987-02-28 07:00","1987","02","28","07:00","-0.1","","-1.4","","91","","","","0","","9.7","","100.31","","","","","","Freezing Drizzle,Fog"
"1987-02-28 08:00","1987","02","28","08:00","0.0","","-0.5","","96","","3","","6","","2.4","","100.31","","","","-2","","Freezing Drizzle,Fog"
"1987-02-28 09:00","1987","02","28","09:00","0.4","","-0.1","","96","","8","","6","","2.4","","100.31","","","","","","Snow Grains,Fog"
"1987-02-28 10:00","1987","02","28","10:00","0.8","","0.5","","98","","11","","11","","2.0","","100.24","","","","","","Drizzle,Fog"
"1987-02-28 11:00","1987","02","28","11:00","1.2","","0.0","","92","","13","","13","","8.0","","100.24","","","","","","Fog"
"1987-02-28 12:00","1987","02","28","12:00","1.2","","0.0","","92","","11","","13","","8.0","","100.21","","","","","","Fog"
"1987-02-28 13:00","1987","02","28","13:00","1.4","","0.5","","94","","9","","13","","9.7","","100.14","","","","","","Fog"
"1987-02-28 14:00","1987","02","28","14:00","1.3","","1.0","","98","","9","","15","","6.4","","100.11","","","","","","Drizzle,Fog"
"1987-02-28 15:00","1987","02","28","15:00","1.1","","0.0","","92","","7","","22","","4.8","","100.04","","","","","","Rain,Drizzle,Fog"
"1987-02-28 16:00","1987","02","28","16:00","1.0","","0.5","","96","","8","","22","","8.0","","100.01","","","","","","Fog"
"1987-02-28 17:00","1987","02","28","17:00","0.9","","0.0","","94","","8","","17","","8.0","","99.91","","","","","","Fog"
"1987-02-28 18:00","1987","02","28","18:00","1.0","","0.0","","93","","7","","22","","2.4","","99.81","","","","","","Drizzle,Fog"
"1987-02-28 19:00","1987","02","28","19:00","0.7","","0.0","","95","","7","","26","","2.8","","99.77","","","","","","Drizzle,Fog"
"1987-02-28 20:00","1987","02","28","20:00","0.8","","0.5","","98","","7","","22","","3.2","","99.61","","","","","","Drizzle,Fog"
"1987-02-28 21:00","1987","02","28","21:00","1.0","","0.0","","93","","8","","33","","4.8","","99.47","","","","","","Drizzle,Fog"
"1987-02-28 22:00","1987","02","28","22:00","1.1","","0.5","","96","","8","","33","","2.4","","99.34","","","","","","Drizzle,Fog"
"1987-02-28 23:00","1987","02","28","23:00","1.4","","1.0","","97","","9","","41","","3.2","","99.21","","","","","","Rain,Fog"
