"Station Name","TORONTO LESTER B. PEARSON INT'L A"
"Province","ONTARIO"
"Latitude","43.68"
"Longitude","-79.63"
"Elevation","173.40"
"Climate Identifier","6158733"
"WMO Identifier","71624"
"TC Identifier","YYZ"
"All times are specified in Local Standard Time (LST). Add 1 hour to adjust for Daylight Saving Time where and when it is observed."

"Legend"
"E","Estimated"
"M","Missing"
"NA","Not Available"

"Date/Time","Year","Month","Day","Time","Temp (°C)","Temp Flag","Dew Point Temp (°C)","Dew Point Temp Flag","Rel Hum (%)","Rel Hum Flag","Wind Dir (10s deg)","Wind Dir Flag","Wind Spd (km/h)","Wind Spd Flag","Visibility (km)","Visibility Flag","Stn Press (kPa)","Stn Press Flag","Hmdx","Hmdx Flag","Wind Chill","Wind Chill Flag","Weather"
"1996-10-01 00:00","1996","10","01","00:00","13.0","","10.6","","85","","10","","7","","25.0","","100.59","","","","","","Mostly Cloudy"
"1996-10-01 01:00","1996","10","01","01:00","12.5","","10.6","","88","","9","","6","","25.0","","100.55","","","","","","Mainly Clear"
"1996-10-01 02:00","1996","10","01","02:00","12.0","","10.4","","90","","15","","6","","25.0","","100.55","","","","","","Mainly Clear"
"1996-10-01 03:00","1996","10","01","03:00","11.1","","10.4","","95","","","","0","","19.3","","100.52","","","","","","Mainly Clear"
"1996-10-01 04:00","1996","10","01","04:00","12.5","","10.9","","90","","10","","4","","19.3","","100.52","","","","","","Mostly Cloudy"
"1996-10-01 05:00","1996","10","01","05:00","11.5","","10.3","","92","","","","0","","19.3","","100.52","","","","","","Mostly Cloudy"
"1996-10-01 06:00","1996","10","01","06:00","12.9","","11.2","","89","","","","0","","12.9","","100.52","","","","","","Mostly Cloudy"
"1996-10-01 07:00","1996","10","01","07:00","11.8","","10.8","","94","","","","0","","12.9","","100.55","","","","","","Mostly Cloudy"
"1996-10-01 08:00","1996","10","01","08:00","14.5","","12.5","","88","","","","0","","9.7","","100.59","","","","","","Fog"
"1996-10-01 09:00","1996","10","01","09:00","17.5","","13.5","","77","","19","","7","","12.9","","100.55","","","","","","Mainly Clear"
"1996-10-01 10:00","1996","10","01","10:00","19.8","","13.7","","68","","20","","11","E","16.1","","100.55","","","","","","Mainly Clear"
"1996-10-01 11:00","1996","10","01","11:00","21.0","","14.4","","66","","15","","9","","19.3","","100.49","","25","","","","Mainly Clear"
"1996-10-01 12:00","1996","10","01","12:00","21.9","","14.9","","64","","15","","11","","24.1","","100.42","","26","","","","Mostly Cloudy"
"1996-10-01 13:00","1996","10","01","13:00","23.3","","13.5","","54","","14","","17","","24.1","","100.32","","26","","","","Mainly Clear"
"1996-10-01 14:00","1996","10","01","14:00","23.2","","10.8","","46","","13","","17","","19.3","","100.22","","25","","","","Mainly Clear"
"1996-10-01 15:00","1996","10","01","15:00","21.9","","13.7","","60","","14","","20","","19.3","","100.15","","25","","","","Mostly Cloudy"
"1996-10-01 16:00","1996","10","01","16:00","21.3","","14.2","","64","","13","","15","","19.3","","100.09","","25","","","","Mostly Cloudy"
"1996-10-01 17:00","1996","10","01","17:00","20.5","","13.8","","65","","16","","11","","19.3","","100.05","","","","","","Mostly Cloudy"
"1996-10-01 18:00","1996","10","01","18:00","18.3","","14.2","","77","","15","","11","","14.5","","100.02","","","","","","Mostly Cloudy"
"1996-10-01 19:00","1996","10","01","19:00","16.4","","14.2","","87","","14","","9","","19.3","","100.02","","","","","","Mostly Cloudy"
"1996-10-01 20:00","1996","10","01","20:00","16.7","","14.1","","85","","13","","7","","19.3","","100.02","","","","","","Mostly Cloudy"
"1996-10-01 21:00","1996","10","01","21:00","16.5","","14.1","","86","","16","","6","","19.3","","99.99","","","","","","Mainly Clear"
"1996-10-01 22:00","1996","10","01","22:00","18.6","","12.7","","69","","19","","15","","19.3","","99.92","","","","","","Mostly Cloudy"
"1996-10-01 23:00","1996","10","01","23:00","17.4","","13.7","","79","","15","","6","","19.3","","99.92","","","","","","Mostly Cloudy"
"1996-10-02 00:00","1996","10","02","00:00","19.0","","12.5","","66","","19","","15","","19.3","","99.89","","","","","","Mostly Cloudy"
"1996-10-02 01:00","1996","10","02","01:00","19.0","","12.5","","66","","19","","15","","19.3","","99.89","","","","","","Mostly Cloudy"
"1996-10-02 02:00","1996","10","02","02:00","19.0","","12.8","","67","","19","","19","","19.3","","99.85","","","","","","Mostly Cloudy"
"1996-10-02 03:00","1996","10","02","03:00","18.6","","13.6","","73","","19","","15","","19.3","","99.79","","","","","","Mostly Cloudy"
"1996-10-02 04:00","1996","10","02","04:00","18.2","","14.0","","76","","19","","17","","19.3","","99.75","","","","","","Mostly Cloudy"
"1996-10-02 05:00","1996","10","02","05:00","18.0","","14.3","","79","","20","","19","","19.3","","99.69","","","","","","Mostly Cloudy"
"1996-10-02 06:00","1996","10","02","06:00","17.6","","14.1","","80","","20","","19","","24.1","","99.69","","","","","","Mostly Cloudy"
"1996-10-02 07:00","1996","10","02","07:00","17.4","","14.0","","80","","20","","19","","24.1","","99.65","","","","","","Mostly Cloudy"
"1996-10-02 08:00","1996","10","02","08:00","17.5","","14.0","","80","","20","","19","","24.1","","99.62","","","","","","Cloudy"
"1996-10-02 09:00","1996","10","02","09:00","17.4","","15.2","","87","","19","","19","","16.1","","99.59","","","","","","Rain Showers"
"1996-10-02 10:00","1996","10","02","10:00","18.4","","16.1","","86","","20","","22","","16.1","","99.45","","","","","","Cloudy"
"1996-10-02 11:00","1996","10","02","11:00","19.6","","16.7","","83","","20","","22","","16.1","","99.39","","","","","","Mostly Cloudy"
"1996-10-02 12:00","1996","10","02","12:00","20.5","","15.0","","71","","20","","26","","19.3","","99.29","","","","","","Mostly Cloudy"
"1996-10-02 13:00","1996","10","02","13:00","21.8","","14.3","","62","","20","","28","","19.3","","99.26","","25","","","","Mostly Cloudy"
"1996-10-02 14:00","1996","10","02","14:00","22.0","","15.0","","64","","23","","28","","16.1","","99.16","","26","","","","Mostly Cloudy"
"1996-10-02 15:00","1996","10","02","15:00","22.3","","13.2","","56","","23","","28","","16.1","","99.09","","25","","","","Mostly Cloudy"
"1996-10-02 16:00","1996","10","02","16:00","22.3","","14.1","","60","","21","","30","","14.5","","99.02","","26","","","","Mostly Cloudy"
"1996-10-02 17:00","1996","10","02","17:00","21.9","","13.8","","60","","21","","22","","12.9","","98.99","","25","","","","Cloudy"
"1996-10-02 18:00","1996","10","02","18:00","13.2","","10.8","","85","","29","","33","","11.3","","99.29","","","","","","Rain Showers"
"1996-10-02 19:00","1996","10","02","19:00","11.3","","8.0","","80","","29","","28","","12.9","","99.45","","","","","","Rain Showers"
"1996-10-02 20:00","1996","10","02","20:00","10.8","","7.0","","77","","31","","33","","19.3","","99.52","","","","","","Mostly Cloudy"
"1996-10-02 21:00","1996","10","02","21:00","10.1","","4.7","","69","","31","","46","","24.1","","99.72","","","","","","Mostly Cloudy"
"1996-10-02 22:00","1996","10","02","22:00","8.5","","3.5","","71","","32","","33","","25.0","","99.89","","","","","","Mostly Cloudy"
"1996-10-02 23:00","1996","10","02","23:00","7.5","","3.3","","75","","32","","26","","25.0","","100.02","","","","","","Mostly Cloudy"
"1996-10-03 00:00","1996","10","03","00:00","6.8","","3.0","","77","","33","","15","","25.0","","100.19","","","","","","Mainly Clear"
"1996-10-03 01:00","1996","10","03","01:00","6.0","","1.6","","73","","32","","32","","25.0","","100.25","","","","","","Mainly Clear"
"1996-10-03 02:00","1996","10","03","02:00","4.7","","1.8","","81","","34","","28","","25.0","","100.39","","","","","","Mainly Clear"
"1996-10-03 03:00","1996","10","03","03:00","3.8","","1.3","","84","","35","","17","","25.0","","100.42","","","","","","Mainly Clear"
"1996-10-03 04:00","1996","10","03","04:00","3.2","","1.1","","86","","35","","9","","25.0","","100.52","","","","","","Clear"
"1996-10-03 05:00","1996","10","03","05:00","3.4","","1.6","","88","","34","","15","","25.0","","100.59","","","","","","Mainly Clear"
"1996-10-03 06:00","1996","10","03","06:00","2.3","","0.7","","89","","31","","9","","25.0","","100.65","","","","","","Mainly Clear"
"1996-10-03 07:00","1996","10","03","07:00","3.3","","-1.4","","71","","29","","13","","40.2","","100.75","","","","","","Mostly Cloudy"
"1996-10-03 08:00","1996","10","03","08:00","4.5","","-2.5","","60","","34","","20","","40.2","","100.85","","","","","","Mostly Cloudy"
"1996-10-03 09:00","1996","10","03","09:00","5.0","","-0.4","","68","","35","","15","","40.2","","100.92","","","","","","Mostly Cloudy"
"1996-10-03 10:00","1996","10","03","10:00","6.7","","-0.8","","59","","32","","15","","40.2","","100.92","","","","","","Mainly Clear"
"1996-10-03 11:00","1996","10","03","11:00","6.5","","0.1","","64","","32","","26","","40.2","","100.92","","","","","","Mainly Clear"
"1996-10-03 12:00","1996","10","03","12:00","6.8","","-2.8","","50","","32","","30","","40.2","","100.92","","","","","","Mostly Cloudy"
"1996-10-03 13:00","1996","10","03","13:00","7.4","","-3.5","","46","","32","","28","","40.2","","100.92","","","","","","Mostly Cloudy"
"1996-10-03 14:00","1996","10","03","14:00","8.0","","-3.6","","44","","34","","33","","40.2","","100.89","","","","","","Mostly Cloudy"
"1996-10-03 15:00","1996","10","03","15:00","8.2","","-5.0","","39","","33","","37","","40.2","","100.89","","","","","","Mainly Clear"
"1996-10-03 16:00","1996","10","03","16:00","8.0","","-5.0","","39","","35","","30","","40.2","","100.89","","","","","","Mainly Clear"
"1996-10-03 17:00","1996","10","03","17:00","7.0","","-5.2","","41","","34","","24","","40.2","","100.92","","","","","","Mainly Clear"
"1996-10-03 18:00","1996","10","03","18:00","6.2","","-4.3","","47","","34","","19","","40.2","","100.99","","","","","","Mainly Clear"
"1996-10-03 19:00","1996","10","03","19:00","5.1","","-2.6","","57","","35","","11","","25.0","","101.02","","","","","","Mainly Clear"
"1996-10-03 20:00","1996","10","03","20:00","4.0","","-1.7","","66","","","","0","","25.0","","101.05","","","","","","Mostly Cloudy"
"1996-10-03 21:00","1996","10","03","21:00","4.2","","-1.7","","65","","","","0","","25.0","","101.09","","","","","","Mainly Clear"
"1996-10-03 22:00","1996","10","03","22:00","4.0","","-0.8","","71","","","","0","","25.0","","101.12","","","","","","Clear"
"1996-10-03 23:00","1996","10","03","23:00","3.8","","-0.8","","72","","25","","6","","25.0","","101.12","","","","","","Clear"
"1996-10-04 00:00","1996","10","04","00:00","3.4","","-0.7","","74","","","","0","","25.0","","101.15","","","","","","Clear"
"1996-10-04 01:00","1996","10","04","01:00","2.8","","-0.1","","81","","30","","4","","25.0","","101.15","","","","","","Mainly Clear"
"1996-10-04 02:00","1996","10","04","02:00","1.8","","0.1","","88","","34","","6","","25.0","","101.22","","","","","","Mainly Clear"
"1996-10-04 03:00","1996","10","04","03:00","2.0","","0.1","","87","","","","0","","25.0","","101.22","","","","","","Mainly Clear"
"1996-10-04 04:00","1996","10","04","04:00","1.6","","0.2","","90","","3","","4","","25.0","","101.25","","","","","","Clear"
"1996-10-04 05:00","1996","10","04","05:00","0.3","","-0.6","","94","","32","","4","","25.0","","101.32","","","","","","Clear"
"1996-10-04 06:00","1996","10","04","06:00","1.0","","-0.5","","90","","32","","6","","25.0","","101.39","","","","","","Clear"
"1996-10-04 07:00","1996","10","04","07:00","0.6","","-0.6","","92","","33","","6","","40.2","","101.45","","","","","","Mainly Clear"
"1996-10-04 08:00","1996","10","04","08:00","2.0","","0.8","","92","","31","","4","","40.2","","101.52","","","","","","Mostly Cloudy"
"1996-10-04 09:00","1996","10","04","09:00","3.7","","1.4","","85","","36","","9","","40.2","","101.59","","","","","","Mainly Clear"
"1996-10-04 10:00","1996","10","04","10:00","7.6","","0.7","","62","","","","0","","40.2","","101.59","","","","","","Clear"
"1996-10-04 11:00","1996","10","04","11:00","9.4","","-0.9","","49","","19","","11","","40.2","","101.55","","","","","","Mainly Clear"
"1996-10-04 12:00","1996","10","04","12:00","8.2","","0.1","","57","","11","","15","","40.2","","101.52","","","","","","Mostly Cloudy"
"1996-10-04 13:00","1996","10","04","13:00","9.2","","1.1","","57","","12","","15","","40.2","","101.45","","","","","","Mostly Cloudy"
"1996-10-04 14:00","1996","10","04","14:00","9.5","","1.8","","59","","12","","11","","40.2","","101.42","","","","","","Mainly Clear"
"1996-10-04 15:00","1996","10","04","15:00","8.8","","0.3","","55","","16","","11","","40.2","","101.39","","","","","","Mainly Clear"
"1996-10-04 16:00","1996","10","04","16:00","8.9","","0.2","","54","","15","","13","","40.2","","101.39","","","","","","Mainly Clear"
"1996-10-04 17:00","1996","10","04","17:00","8.5","","0.7","","58","","14","","19","","40.2","","101.32","","","","","","Mainly Clear"
"1996-10-04 18:00","1996","10","04","18:00","7.5","","1.1","","64","","14","","7","","40.2","","101.35","","","","","","Mainly Clear"
"1996-10-04 19:00","1996","10","04","19:00","7.3","","1.1","","65","","15","","4","","25.0","","101.39","","","","","","Mostly Cloudy"
"1996-10-04 20:00","1996","10","04","20:00","7.1","","0.3","","62","","14","","4","","25.0","","101.39","","","","","","Mainly Clear"
"1996-10-04 21:00","1996","10","04","21:00","7.0","","-0.1","","61","","14","","6","","25.0","","101.39","","","","","","Clear"
"1996-10-04 22:00","1996","10","04","22:00","7.0","","0.7","","64","","","","0","","25.0","","101.42","","","","","","Clear"
"1996-10-04 23:00","1996","10","04","23:00","4.7","","1.3","","79","","36","","4","","25.0","","101.42","","","","","","Clear"
"1996-10-05 00:00","1996","10","05","00:00","2.8","","1.4","","90","","34","","4","","25.0","","101.42","","","","","","Clear"
"1996-10-05 01:00","1996","10","05","01:00","2.5","","1.1","","90","","34","","4","","25.0","","101.39","","","","","","Clear"
"1996-10-05 02:00","1996","10","05","02:00","2.6","","1.2","","90","","","","0","","25.0","","101.39","","","","","","Clear"
"1996-10-05 03:00","1996","10","05","03:00","2.0","","0.8","","92","","","","0","","25.0","","101.39","","","","","","Clear"
"1996-10-05 04:00","1996","10","05","04:00","1.8","","0.4","","90","","33","","4","","25.0","","101.42","","","","","","Clear"
"1996-10-05 05:00","1996","10","05","05:00","1.3","","0.1","","92","","33","","6","","25.0","","101.45","","","","","","Clear"
"1996-10-05 06:00","1996","10","05","06:00","1.3","","0.1","","92","","33","","11","","25.0","","101.42","","","","","","Clear"
"1996-10-05 07:00","1996","10","05","07:00","2.8","","0.7","","86","","33","","7","","32.2","","101.42","","","","","","Clear"
"1996-10-05 08:00","1996","10","05","08:00","5.7","","1.7","","75","","6","","7","","32.2","","101.45","","","","","","Mainly Clear"
"1996-10-05 09:00","1996","10","05","09:00","9.2","","2.2","","62","","10","","13","","40.2","","101.42","","","","","","Mainly Clear"
"1996-10-05 10:00","1996","10","05","10:00","10.0","","2.4","","59","","11","","15","","40.2","","101.42","","","","","","Mainly Clear"
"1996-10-05 11:00","1996","10","05","11:00","10.4","","2.9","","60","","13","","19","","40.2","","101.42","","","","","","Clear"
"1996-10-05 12:00","1996","10","05","12:00","11.0","","1.4","","52","","10","","15","","32.2","","101.39","","","","","","Clear"
"1996-10-05 13:00","1996","10","05","13:00","11.7","","2.1","","52","","13","","17","","32.2","","101.29","","","","","","Clear"
"1996-10-05 14:00","1996","10","05","14:00","12.4","","2.0","","49","","12","","13","","40.2","","101.22","","","","","","Clear"
"1996-10-05 15:00","1996","10","05","15:00","12.3","","1.6","","48","","11","","13","","40.2","","101.19","","","","","","Mainly Clear"
"1996-10-05 16:00","1996","10","05","16:00","12.0","","1.4","","48","","13","","15","","40.2","","101.15","","","","","","Mostly Cloudy"
"1996-10-05 17:00","1996","10","05","17:00","11.0","","1.9","","53","","12","","17","","40.2","","101.12","","","","","","Mostly Cloudy"
"1996-10-05 18:00","1996","10","05","18:00","10.0","","3.2","","63","","11","","19","","40.2","","101.09","","","","","","Mostly Cloudy"
"1996-10-05 19:00","1996","10","05","19:00","9.3","","3.5","","67","","10","","13","","25.0","","101.09","","","","","","Mainly Clear"
"1996-10-05 20:00","1996","10","05","20:00","8.6","","4.1","","73","","11","","9","","25.0","","101.05","","","","","","Clear"
"1996-10-05 21:00","1996","10","05","21:00","8.5","","4.4","","75","","10","","6","","25.0","","100.99","","","","","","Clear"
"1996-10-05 22:00","1996","10","05","22:00","8.7","","5.7","","81","","7","","6","","24.1","","100.95","","","","","","Clear"
"1996-10-05 23:00","1996","10","05","23:00","9.0","","6.7","","85","","7","","6","","24.1","","100.92","","","","","","Clear"
"1996-10-06 00:00","1996","10","06","00:00","7.5","","5.7","","88","","","","0","","24.1","","100.89","","","","","","Clear"
"1996-10-06 01:00","1996","10","06","01:00","6.1","","4.9","","92","","","","0","","24.1","","100.89","","","","","","Clear"
"1996-10-06 02:00","1996","10","06","02:00","5.2","","3.9","","91","","","","0","","24.1","","100.82","","","","","","Clear"
"1996-10-06 03:00","1996","10","06","03:00","6.0","","4.6","","91","","","","0","","24.1","","100.79","","","","","","Clear"
"1996-10-06 04:00","1996","10","06","04:00","7.2","","5.0","","86","","19","","4","","24.1","","100.75","","","","","","Clear"
"1996-10-06 05:00","1996","10","06","05:00","4.5","","3.6","","94","","","","0","","24.1","","100.72","","","","","","Clear"
"1996-10-06 06:00","1996","10","06","06:00","6.9","","4.6","","85","","19","","4","","24.1","","100.72","","","","","","Clear"
"1996-10-06 07:00","1996","10","06","07:00","7.9","","4.2","","77","","18","","4","","24.1","","100.69","","","","","","Clear"
"1996-10-06 08:00","1996","10","06","08:00","10.4","","5.9","","74","","20","","13","","24.1","","100.69","","","","","","Mainly Clear"
"1996-10-06 09:00","1996","10","06","09:00","12.1","","6.4","","68","","19","","15","","24.1","","100.65","","","","","","Mainly Clear"
"1996-10-06 10:00","1996","10","06","10:00","13.7","","7.2","","65","","19","","15","","24.1","","100.62","","","","","","Mainly Clear"
"1996-10-06 11:00","1996","10","06","11:00","15.5","","7.9","","61","","19","","19","","24.1","","100.52","","","","","","Clear"
"1996-10-06 12:00","1996","10","06","12:00","16.6","","8.8","","60","","16","","15","","32.2","","100.39","","","","","","Mainly Clear"
"1996-10-06 13:00","1996","10","06","13:00","17.3","","8.9","","58","","16","","19","","32.2","","100.29","","","","","","Mainly Clear"
"1996-10-06 14:00","1996","10","06","14:00","18.0","","9.3","","57","","17","","20","","32.2","","100.19","","","","","","Mainly Clear"
"1996-10-06 15:00","1996","10","06","15:00","18.6","","9.2","","54","","19","","20","","32.2","","100.12","","","","","","Mainly Clear"
"1996-10-06 16:00","1996","10","06","16:00","18.8","","7.5","","48","","18","","20","","40.2","","100.05","","","","","","Clear"
"1996-10-06 17:00","1996","10","06","17:00","17.9","","7.0","","49","","19","","19","","40.2","","100.02","","","","","","Mainly Clear"
"1996-10-06 18:00","1996","10","06","18:00","16.0","","6.8","","54","","18","","15","","40.2","","99.99","","","","","","Mainly Clear"
"1996-10-06 19:00","1996","10","06","19:00","15.3","","7.0","","58","","19","","15","","25.0","","99.99","","","","","","Mainly Clear"
"1996-10-06 20:00","1996","10","06","20:00","14.6","","7.0","","60","","19","","13","","25.0","","99.92","","","","","","Mostly Cloudy"
"1996-10-06 21:00","1996","10","06","21:00","14.2","","7.2","","63","","19","","13","","25.0","","99.89","","","","","","Mostly Cloudy"
"1996-10-06 22:00","1996","10","06","22:00","13.6","","7.3","","66","","20","","13","","25.0","","99.82","","","","","","Clear"
"1996-10-06 23:00","1996","10","06","23:00","13.2","","7.3","","67","","20","","6","","25.0","","99.82","","","","","","Mainly Clear"
"1996-10-07 00:00","1996","10","07","00:00","12.9","","7.5","","70","","18","","7","","25.0","","99.85","","","","","","Mainly Clear"
"1996-10-07 01:00","1996","10","07","01:00","12.9","","7.7","","71","","18","","11","","25.0","","99.79","","","","","","Mainly Clear"
"1996-10-07 02:00","1996","10","07","02:00","12.7","","8.1","","74","","18","","7","","25.0","","99.72","","","","","","Mainly Clear"
"1996-10-07 03:00","1996","10","07","03:00","12.7","","8.1","","74","","18","","9","","25.0","","99.65","","","","","","Mostly Cloudy"
"1996-10-07 04:00","1996","10","07","04:00","11.6","","8.7","","82","","","","0","","24.1","","99.62","","","","","","Mostly Cloudy"
"1996-10-07 05:00","1996","10","07","05:00","11.5","","8.8","","83","","20","","6","","24.1","","99.62","","","","","","Mostly Cloudy"
"1996-10-07 06:00","1996","10","07","06:00","12.6","","9.9","","84","","22","","15","","19.3","","99.59","","","","","","Mostly Cloudy"
"1996-10-07 07:00","1996","10","07","07:00","11.5","","9.9","","90","","27","","4","","11.3","","99.59","","","","","","Mostly Cloudy"
"1996-10-07 08:00","1996","10","07","08:00","14.6","","11.7","","83","","23","","11","","12.9","","99.59","","","","","","Cloudy"
"1996-10-07 09:00","1996","10","07","09:00","16.1","","12.5","","79","","24","","15","","16.1","","99.59","","","","","","Cloudy"
"1996-10-07 10:00","1996","10","07","10:00","16.9","","12.1","","73","","23","","15","","16.1","","99.59","","","","","","Cloudy"
"1996-10-07 11:00","1996","10","07","11:00","18.4","","12.9","","70","","22","","11","","14.5","","99.52","","","","","","Cloudy"
"1996-10-07 12:00","1996","10","07","12:00","19.7","","12.9","","65","","","","0","","12.9","","99.45","","","","","","Cloudy"
"1996-10-07 13:00","1996","10","07","13:00","20.5","","13.3","","63","","22","","11","","12.9","","99.42","","","","","","Cloudy"
"1996-10-07 14:00","1996","10","07","14:00","20.7","","14.2","","66","","13","","6","","12.9","","99.35","","","","","","Cloudy"
"1996-10-07 15:00","1996","10","07","15:00","19.5","","13.4","","68","","15","","6","","12.9","","99.39","","","","","","Cloudy"
"1996-10-07 16:00","1996","10","07","16:00","15.6","","12.1","","80","","35","","19","","12.9","","99.39","","","","","","Cloudy"
"1996-10-07 17:00","1996","10","07","17:00","14.0","","11.4","","84","","35","","24","","12.9","","99.42","","","","","","Cloudy"
"1996-10-07 18:00","1996","10","07","18:00","11.7","","9.6","","87","","36","","26","","12.9","","99.49","","","","","","Cloudy"
"1996-10-07 19:00","1996","10","07","19:00","11.5","","9.2","","86","","35","","22","","16.1","","99.52","","","","","","Cloudy"
"1996-10-07 20:00","1996","10","07","20:00","11.0","","8.0","","82","","35","","20","","16.1","","99.52","","","","","","Cloudy"
"1996-10-07 21:00","1996","10","07","21:00","10.6","","8.8","","89","","35","","19","","16.1","","99.55","","","","","","Cloudy"
"1996-10-07 22:00","1996","10","07","22:00","10.2","","8.5","","89","","1","","22","","19.3","","99.52","","","","","","Cloudy"
"1996-10-07 23:00","1996","10","07","23:00","10.4","","8.6","","89","","35","","17","","16.1","","99.49","","","","","","Cloudy"
"1996-10-08 00:00","1996","10","08","00:00","9.9","","8.0","","88","","33","","20","","19.3","","99.45","","","","","","Cloudy"
"1996-10-08 01:00","1996","10","08","01:00","9.1","","7.8","","92","","35","","20","","24.1","","99.45","","","","","","Cloudy"
"1996-10-08 02:00","1996","10","08","02:00","8.8","","7.5","","92","","34","","17","","24.1","","99.42","","","","","","Cloudy"
"1996-10-08 03:00","1996","10","08","03:00","8.9","","7.4","","90","","35","","15","","24.1","","99.39","","","","","","Cloudy"
"1996-10-08 04:00","1996","10","08","04:00","9.0","","7.5","","90","","34","","13","","12.9","","99.35","","","","","","Drizzle"
"1996-10-08 05:00","1996","10","08","05:00","8.9","","8.1","","95","","35","","17","","8.0","","99.32","","","","","","Drizzle,Fog"
"1996-10-08 06:00","1996","10","08","06:00","8.9","","8.5","","97","","2","","17","","4.8","","99.35","","","","","","Drizzle,Fog"
"1996-10-08 07:00","1996","10","08","07:00","8.9","","8.5","","97","","1","","15","","2.0","","99.32","","","","","","Drizzle,Fog"
"1996-10-08 08:00","1996","10","08","08:00","9.1","","8.7","","97","","3","","9","","2.0","","99.29","","","","","","Drizzle,Fog"
"1996-10-08 09:00","1996","10","08","09:00","8.9","","8.7","","99","","36","","13","","2.4","","99.29","","","","","","Drizzle,Fog"
"1996-10-08 10:00","1996","10","08","10:00","9.9","","9.5","","97","","6","","6","","3.2","","99.26","","","","","","Fog"
"1996-10-08 11:00","1996","10","08","11:00","10.3","","8.8","","90","","7","","7","","6.4","","99.19","","","","","","Fog"
"1996-10-08 12:00","1996","10","08","12:00","10.2","","8.5","","89","","7","","11","","8.0","","99.09","","","","","","Fog"
"1996-10-08 13:00","1996","10","08","13:00","10.8","","8.8","","87","","9","","7","","8.0","","98.99","","","","","","Fog"
"1996-10-08 14:00","1996","10","08","14:00","11.0","","8.8","","86","","2","","11","","8.0","","98.89","","","","","","Haze"
"1996-10-08 15:00","1996","10","08","15:00","11.0","","8.8","","86","","3","","9","","8.0","","98.82","","","","","","Haze"
"1996-10-08 16:00","1996","10","08","16:00","11.0","","8.6","","85","","36","","15","","8.0","","98.79","","","","","","Haze"
"1996-10-08 17:00","1996","10","08","17:00","10.5","","8.5","","87","","34","","11","","8.0","","98.79","","","","","","Fog"
"1996-10-08 18:00","1996","10","08","18:00","9.8","","8.3","","90","","34","","19","","8.0","","98.79","","","","","","Fog"
"1996-10-08 19:00","1996","10","08","19:00","9.7","","8.4","","92","","34","","19","","8.0","","98.76","","","","","","Fog"
"1996-10-08 20:00","1996","10","08","20:00","9.3","","8.2","","93","","35","","15","","8.0","","98.72","","","","","","Fog"
"1996-10-08 21:00","1996","10","08","21:00","9.2","","8.1","","93","","1","","15","","9.7","","98.69","","","","","","Fog"
"1996-10-08 22:00","1996","10","08","22:00","9.0","","8.1","","94","","35","","15","","8.0","","98.66","","","","","","Fog"
"1996-10-08 23:00","1996","10","08","23:00","8.7","","7.9","","95","","34","","17","","8.0","","98.62","","","","","","Drizzle,Fog"
"1996-10-09 00:00","1996","10","09","00:00","8.4","","7.4","","93","","34","","17","","8.0","","98.59","","","","","","Drizzle,Fog"
"1996-10-09 01:00","1996","10","09","01:00","8.4","","7.6","","95","","35","","13","","11.3","","98.59","","","","","","Drizzle"
"1996-10-09 02:00","1996","10","09","02:00","8.3","","7.5","","95","","33","","19","","11.3","","98.56","","","","","","Drizzle"
"1996-10-09 03:00","1996","10","09","03:00","8.3","","7.3","","93","","33","","17","","9.7","","98.52","","","","","","Fog"
"1996-10-09 04:00","1996","10","09","04:00","8.4","","7.2","","92","","34","","11","","12.9","","98.52","","","","","","Cloudy"
"1996-10-09 05:00","1996","10","09","05:00","8.5","","7.4","","93","","33","","13","","12.9","","98.56","","","","","","Cloudy"
"1996-10-09 06:00","1996","10","09","06:00","8.4","","7.2","","92","","35","","13","","16.1","","98.62","","","","","","Cloudy"
"1996-10-09 07:00","1996","10","09","07:00","8.5","","7.4","","93","","34","","9","","12.9","","98.62","","","","","","Rain Showers"
"1996-10-09 08:00","1996","10","09","08:00","8.4","","7.2","","92","","34","","13","","19.3","","98.69","","","","","","Drizzle"
"1996-10-09 09:00","1996","10","09","09:00","8.4","","6.9","","90","","35","","15","","19.3","","98.69","","","","","","Rain Showers"
"1996-10-09 10:00","1996","10","09","10:00","8.6","","7.3","","92","","33","","13","","16.1","","98.69","","","","","","Rain Showers"
"1996-10-09 11:00","1996","10","09","11:00","8.9","","7.2","","89","","32","","13","","19.3","","98.72","","","","","","Rain Showers"
"1996-10-09 12:00","1996","10","09","12:00","8.6","","7.5","","93","","36","","11","","9.7","","98.69","","","","","","Rain Showers,Fog"
"1996-10-09 13:00","1996","10","09","13:00","9.0","","7.1","","88","","34","","15","","19.3","","98.66","","","","","","Rain Showers"
"1996-10-09 14:00","1996","10","09","14:00","9.5","","7.4","","87","","36","","15","","19.3","","98.62","","","","","","Rain Showers"
"1996-10-09 15:00","1996","10","09","15:00","9.2","","7.1","","87","","34","","15","","19.3","","98.62","","","","","","Rain Showers"
"1996-10-09 16:00","1996","10","09","16:00","9.0","","7.3","","89","","35","","13","","19.3","","98.66","","","","","","Drizzle"
"1996-10-09 17:00","1996","10","09","17:00","8.5","","6.8","","89","","33","","15","","16.1","","98.69","","","","","","Rain Showers"
"1996-10-09 18:00","1996","10","09","18:00","8.3","","6.7","","90","","34","","15","","16.1","","98.76","","","","","","Rain Showers"
"1996-10-09 19:00","1996","10","09","19:00","8.0","","6.8","","92","","35","","19","","16.1","","98.76","","","","","","Rain Showers"
"1996-10-09 20:00","1996","10","09","20:00","8.0","","6.6","","91","","34","","22","","16.1","","98.82","","","","","","Rain"
"1996-10-09 21:00","1996","10","09","21:00","7.7","","6.3","","91","","34","","19","","16.1","","98.82","","","","","","Rain"
"1996-10-09 22:00","1996","10","09","22:00","7.5","","6.3","","92","","34","","15","","12.9","","98.82","","","","","","Rain"
"1996-10-09 23:00","1996","10","09","23:00","7.2","","6.0","","92","","32","","13","","11.3","","98.86","","","","","","Rain"
"1996-10-10 00:00","1996","10","10","00:00","7.0","","6.0","","93","","30","","11","","11.3","","98.86","","","","","","Rain"
"1996-10-10 01:00","1996","10","10","01:00","7.0","","6.4","","96","","31","","13","","11.3","","98.86","","","","","","Rain"
"1996-10-10 02:00","1996","10","10","02:00","7.3","","6.3","","93","","32","","19","","11.3","","98.89","","","","","","Rain"
"1996-10-10 03:00","1996","10","10","03:00","7.0","","6.0","","93","","32","","17","","11.3","","98.89","","","","","","Rain"
"1996-10-10 04:00","1996","10","10","04:00","6.9","","5.9","","93","","33","","26","","9.7","","98.92","","","","","","Rain,Fog"
"1996-10-10 05:00","1996","10","10","05:00","5.7","","4.0","","89","","34","","28","","12.9","","98.99","","","","","","Rain"
"1996-10-10 06:00","1996","10","10","06:00","5.4","","3.7","","89","","35","","20","","12.9","","99.09","","","","","","Rain"
"1996-10-10 07:00","1996","10","10","07:00","5.5","","3.6","","88","","34","","19","","12.9","","99.12","","","","","","Rain"
"1996-10-10 08:00","1996","10","10","08:00","6.0","","3.9","","86","","34","","19","","24.1","","99.26","","","","","","Cloudy"
"1996-10-10 09:00","1996","10","10","09:00","6.9","","4.9","","87","","34","","22","","32.2","","99.29","","","","","","Cloudy"
"1996-10-10 10:00","1996","10","10","10:00","7.4","","4.3","","81","","34","","24","","32.2","","99.35","","","","","","Cloudy"
"1996-10-10 11:00","1996","10","10","11:00","7.6","","3.4","","75","","33","","24","","40.2","","99.42","","","","","","Cloudy"
"1996-10-10 12:00","1996","10","10","12:00","7.4","","3.2","","75","","34","","24","","40.2","","99.49","","","","","","Cloudy"
"1996-10-10 13:00","1996","10","10","13:00","7.4","","3.4","","76","","34","","24","","40.2","","99.52","","","","","","Cloudy"
"1996-10-10 14:00","1996","10","10","14:00","7.2","","2.9","","74","","33","","28","","40.2","","99.52","","","","","","Cloudy"
"1996-10-10 15:00","1996","10","10","15:00","7.0","","2.7","","74","","34","","28","","40.2","","99.59","","","","","","Cloudy"
"1996-10-10 16:00","1996","10","10","16:00","6.7","","1.6","","70","","33","","30","","40.2","","99.62","","","","","","Mostly Cloudy"
"1996-10-10 17:00","1996","10","10","17:00","6.2","","0.5","","67","","32","","30","","40.2","","99.72","","","","","","Mostly Cloudy"
"1996-10-10 18:00","1996","10","10","18:00","4.7","","0.5","","74","","34","","22","","40.2","","99.82","","","","","","Mainly Clear"
"1996-10-10 19:00","1996","10","10","19:00","3.8","","0.3","","78","","32","","19","","25.0","","99.89","","","","","","Mainly Clear"
"1996-10-10 20:00","1996","10","10","20:00","3.5","","0.5","","81","","33","","15","","25.0","","99.99","","","","","","Mostly Cloudy"
"1996-10-10 21:00","1996","10","10","21:00","3.4","","0.3","","80","","34","","15","","25.0","","100.05","","","","","","Mostly Cloudy"
"1996-10-10 22:00","1996","10","10","22:00","3.9","","-2.7","","62","","35","","17","","25.0","","100.12","","","","","","Mostly Cloudy"
"1996-10-10 23:00","1996","10","10","23:00","3.1","","-2.8","","65","","36","","17","","25.0","","100.19","","","","","","Mostly Cloudy"
"1996-10-11 00:00","1996","10","11","00:00","2.9","","-3.3","","64","","36","","17","","25.0","","100.22","","","","","","Mostly Cloudy"
"1996-10-11 01:00","1996","10","11","01:00","1.9","","-2.8","","71","","31","","7","","25.0","","100.25","","","","","","Mostly Cloudy"
"1996-10-11 02:00","1996","10","11","02:00","0.8","","-2.1","","81","","33","","7","","25.0","","100.29","","","","","","Mainly Clear"
"1996-10-11 03:00","1996","10","11","03:00","1.8","","-2.6","","73","","31","","7","","25.0","","100.32","","","","","","Mostly Cloudy"
"1996-10-11 04:00","1996","10","11","04:00","2.5","","-3.9","","63","","36","","9","","25.0","","100.39","","","","","","Mostly Cloudy"
"1996-10-11 05:00","1996","10","11","05:00","2.6","","-3.7","","63","","","","0","","25.0","","100.42","","","","","","Mostly Cloudy"
"1996-10-11 06:00","1996","10","11","06:00","2.5","","-4.2","","61","","","","0","","25.0","","100.49","","","","","","Mostly Cloudy"
"1996-10-11 07:00","1996","10","11","07:00","2.1","","-3.1","","68","","22","","4","","32.2","","100.49","","","","","","Mostly Cloudy"
"1996-10-11 08:00","1996","10","11","08:00","3.2","","-3.3","","62","","18","","4","","32.2","","100.55","","","","","","Mostly Cloudy"
"1996-10-11 09:00","1996","10","11","09:00","3.8","","-3.4","","59","","15","","4","","32.2","","100.62","","","","","","Mostly Cloudy"
"1996-10-11 10:00","1996","10","11","10:00","4.6","","-2.7","","59","","22","","6","","40.2","","100.65","","","","","","Mostly Cloudy"
"1996-10-11 11:00","1996","10","11","11:00","5.0","","-2.1","","60","","26","","6","","40.2","","100.62","","","","","","Cloudy"
"1996-10-11 12:00","1996","10","11","12:00","5.8","","-1.4","","60","","22","","11","","40.2","","100.62","","","","","","Cloudy"
"1996-10-11 13:00","1996","10","11","13:00","6.5","","-1.3","","57","","21","","13","","40.2","","100.55","","","","","","Cloudy"
"1996-10-11 14:00","1996","10","11","14:00","7.1","","0.0","","61","","18","","13","","40.2","","100.49","","","","","","Mostly Cloudy"
"1996-10-11 15:00","1996","10","11","15:00","7.8","","0.4","","59","","21","","7","","40.2","","100.42","","","","","","Mostly Cloudy"
"1996-10-11 16:00","1996","10","11","16:00","8.5","","0.7","","58","","22","","11","","40.2","","100.39","","","","","","Mostly Cloudy"
"1996-10-11 17:00","1996","10","11","17:00","8.8","","0.3","","55","","20","","9","","40.2","","100.32","","","","","","Mainly Clear"
"1996-10-11 18:00","1996","10","11","18:00","7.7","","1.8","","66","","15","","7","","25.0","","100.32","","","","","","Mainly Clear"
"1996-10-11 19:00","1996","10","11","19:00","6.2","","0.5","","67","","21","","9","","25.0","","100.32","","","","","","Mainly Clear"
"1996-10-11 20:00","1996","10","11","20:00","6.5","","0.6","","66","","20","","11","","25.0","","100.32","","","","","","Mainly Clear"
"1996-10-11 21:00","1996","10","11","21:00","5.6","","1.6","","75","","21","","11","","25.0","","100.32","","","","","","Mostly Cloudy"
"1996-10-11 22:00","1996","10","11","22:00","5.6","","1.8","","77","","22","","9","","25.0","","100.32","","","","","","Mostly Cloudy"
"1996-10-11 23:00","1996","10","11","23:00","5.7","","1.9","","77","","21","","7","","24.1","","100.32","","","","","","Mostly Cloudy"
"1996-10-12 00:00","1996","10","12","00:00","5.2","","2.1","","80","","19","","9","","24.1","","100.32","","","","","","Mainly Clear"
"1996-10-12 01:00","1996","10","12","01:00","4.8","","1.9","","81","","21","","9","","25.0","","100.32","","","","","","Mainly Clear"
"1996-10-12 02:00","1996","10","12","02:00","5.1","","2.2","","82","","22","","7","","24.1","","100.35","","","","","","Mostly Cloudy"
"1996-10-12 03:00","1996","10","12","03:00","5.2","","2.3","","82","","","","0","","19.3","","100.32","","","","","","Mostly Cloudy"
"1996-10-12 04:00","1996","10","12","04:00","5.6","","2.5","","80","","","","0","","19.3","","100.32","","","","","","Mostly Cloudy"
"1996-10-12 05:00","1996","10","12","05:00","5.4","","2.6","","82","","","","0","","19.3","","100.32","","","","","","Mostly Cloudy"
"1996-10-12 06:00","1996","10","12","06:00","4.5","","2.3","","86","","21","","6","","24.1","","100.32","","","","","","Mainly Clear"
"1996-10-12 07:00","1996","10","12","07:00","6.0","","3.0","","81","","21","","9","","24.1","","100.32","","","","","","Mostly Cloudy"
"1996-10-12 08:00","1996","10","12","08:00","7.9","","4.0","","76","","20","","9","","19.3","","100.29","","","","","","Mostly Cloudy"
"1996-10-12 09:00","1996","10","12","09:00","10.0","","5.0","","71","","23","","11","","19.3","","100.29","","","","","","Rain Showers"
"1996-10-12 10:00","1996","10","12","10:00","11.2","","5.3","","67","","21","","20","","24.1","","100.25","","","","","","Mostly Cloudy"
"1996-10-12 11:00","1996","10","12","11:00","12.5","","7.1","","70","","22","","17","","19.3","","100.19","","","","","","Cloudy"
"1996-10-12 12:00","1996","10","12","12:00","13.2","","7.5","","68","","21","","19","","24.1","","100.15","","","","","","Cloudy"
"1996-10-12 13:00","1996","10","12","13:00","13.5","","7.8","","68","","20","","28","","24.1","","100.02","","","","","","Cloudy"
"1996-10-12 14:00","1996","10","12","14:00","14.3","","7.9","","65","","22","","22","","24.1","","99.99","","","","","","Cloudy"
"1996-10-12 15:00","1996","10","12","15:00","14.0","","8.0","","67","","21","","20","","24.1","","99.99","","","","","","Cloudy"
"1996-10-12 16:00","1996","10","12","16:00","14.1","","8.3","","68","","21","","20","","32.2","","99.92","","","","","","Cloudy"
"1996-10-12 17:00","1996","10","12","17:00","13.9","","7.7","","66","","22","","20","","32.2","","99.92","","","","","","Mostly Cloudy"
"1996-10-12 18:00","1996","10","12","18:00","13.6","","7.7","","67","","21","","15","","25.0","","99.95","","","","","","Mostly Cloudy"
"1996-10-12 19:00","1996","10","12","19:00","12.8","","7.6","","71","","17","","11","","25.0","","99.95","","","","","","Mostly Cloudy"
"1996-10-12 20:00","1996","10","12","20:00","12.8","","7.6","","71","","18","","7","","25.0","","99.95","","","","","","Mostly Cloudy"
"1996-10-12 21:00","1996","10","12","21:00","12.4","","7.4","","72","","15","","7","","24.1","","99.95","","","","","","Mostly Cloudy"
"1996-10-12 22:00","1996","10","12","22:00","11.4","","7.7","","78","","15","","7","","24.1","","99.92","","","","","","Mostly Cloudy"
"1996-10-12 23:00","1996","10","12","23:00","12.3","","7.9","","74","","17","","7","","19.3","","99.89","","","","","","Mostly Cloudy"
"1996-10-13 00:00","1996","10","13","00:00","10.9","","7.5","","80","","12","","4","","19.3","","99.85","","","","","","Mainly Clear"
"1996-10-13 01:00","1996","10","13","01:00","11.4","","7.9","","79","","13","","4","","16.1","","99.82","","","","","","Mainly Clear"
"1996-10-13 02:00","1996","10","13","02:00","11.4","","7.9","","79","","13","","4","","16.1","","99.79","","","","","","Mainly Clear"
"1996-10-13 03:00","1996","10","13","03:00","11.5","","8.2","","80","","25","","4","","16.1","","99.75","","","","","","Mainly Clear"
"1996-10-13 04:00","1996","10","13","04:00","11.4","","8.3","","81","","21","","9","","12.9","","99.75","","","","","","Mainly Clear"
"1996-10-13 05:00","1996","10","13","05:00","9.6","","7.7","","88","","21","","9","","12.9","","99.72","","","","","","Clear"
"1996-10-13 06:00","1996","10","13","06:00","10.0","","8.1","","88","","22","","7","","12.9","","99.72","","","","","","Mainly Clear"
"1996-10-13 07:00","1996","10","13","07:00","10.2","","8.3","","88","","23","","7","","12.9","","99.72","","","","","","Mostly Cloudy"
"1996-10-13 08:00","1996","10","13","08:00","13.0","","8.9","","76","","23","","11","","16.1","","99.75","","","","","","Mostly Cloudy"
"1996-10-13 09:00","1996","10","13","09:00","15.0","","9.7","","71","","21","","13","","19.3","","99.72","","","","","","Mostly Cloudy"
"1996-10-13 10:00","1996","10","13","10:00","17.1","","10.4","","65","","25","","15","","24.1","","99.69","","","","","","Mostly Cloudy"
"1996-10-13 11:00","1996","10","13","11:00","17.9","","10.4","","61","","24","","19","","24.1","","99.65","","","","","","Mostly Cloudy"
"1996-10-13 12:00","1996","10","13","12:00","20.0","","11.2","","57","","23","","22","","24.1","","99.59","","","","","","Mainly Clear"
"1996-10-13 13:00","1996","10","13","13:00","21.2","","11.7","","55","","23","","30","","24.1","","99.49","","","","","","Mainly Clear"
"1996-10-13 14:00","1996","10","13","14:00","22.0","","12.1","","53","","23","","20","","24.1","","99.42","","","","","","Mainly Clear"
"1996-10-13 15:00","1996","10","13","15:00","22.2","","12.1","","53","","23","","20","","24.1","","99.35","","25","","","","Mainly Clear"
"1996-10-13 16:00","1996","10","13","16:00","21.1","","12.1","","56","","22","","26","","24.1","","99.29","","","","","","Mostly Cloudy"
"1996-10-13 17:00","1996","10","13","17:00","19.6","","12.0","","61","","21","","19","","24.1","","99.26","","","","","","Mostly Cloudy"
"1996-10-13 18:00","1996","10","13","18:00","18.0","","11.1","","64","","20","","20","","19.3","","99.22","","","","","","Mostly Cloudy"
"1996-10-13 19:00","1996","10","13","19:00","17.4","","10.2","","63","","23","","22","","19.3","","99.22","","","","","","Mostly Cloudy"
"1996-10-13 20:00","1996","10","13","20:00","17.5","","10.5","","63","","23","","17","","19.3","","99.22","","","","","","Mostly Cloudy"
"1996-10-13 21:00","1996","10","13","21:00","17.2","","10.9","","66","","23","","17","","16.1","","99.16","","","","","","Rain Showers"
"1996-10-13 22:00","1996","10","13","22:00","16.7","","13.1","","79","","25","","22","","12.9","","99.12","","","","","","Cloudy"
"1996-10-13 23:00","1996","10","13","23:00","16.2","","13.4","","83","","28","","22","","12.9","","99.16","","","","","","Cloudy"
"1996-10-14 00:00","1996","10","14","00:00","15.6","","13.3","","86","","28","","22","","12.9","","99.12","","","","","","Mainly Clear"
"1996-10-14 01:00","1996","10","14","01:00","14.8","","12.3","","85","","31","","20","","12.9","","99.16","","","","","","Clear"
"1996-10-14 02:00","1996","10","14","02:00","13.2","","8.3","","72","","32","","24","","24.1","","99.22","","","","","","Clear"
"1996-10-14 03:00","1996","10","14","03:00","11.6","","8.1","","79","","32","","20","","24.1","","99.35","","","","","","Mainly Clear"
"1996-10-14 04:00","1996","10","14","04:00","10.8","","6.2","","73","","34","","33","","24.1","","99.45","","","","","","Mainly Clear"
"1996-10-14 05:00","1996","10","14","05:00","9.0","","5.0","","76","","33","","20","","24.1","","99.59","","","","","","Clear"
"1996-10-14 06:00","1996","10","14","06:00","8.4","","4.8","","78","","33","","17","","24.1","","99.65","","","","","","Clear"
"1996-10-14 07:00","1996","10","14","07:00","7.4","","4.5","","82","","33","","7","","40.2","","99.79","","","","","","Mainly Clear"
"1996-10-14 08:00","1996","10","14","08:00","9.7","","3.8","","67","","32","","26","","40.2","","99.85","","","","","","Mostly Cloudy"
"1996-10-14 09:00","1996","10","14","09:00","9.8","","4.1","","68","","36","","19","","40.2","","99.92","","","","","","Mostly Cloudy"
"1996-10-14 10:00","1996","10","14","10:00","10.6","","3.4","","61","","33","","33","","40.2","","99.99","","","","","","Mainly Clear"
"1996-10-14 11:00","1996","10","14","11:00","10.6","","2.7","","58","","34","","32","","40.2","","100.02","","","","","","Clear"
"1996-10-14 12:00","1996","10","14","12:00","11.0","","2.7","","57","","34","","26","","40.2","","100.05","","","","","","Clear"
"1996-10-14 13:00","1996","10","14","13:00","11.2","","3.2","","58","","36","","22","","40.2","","100.05","","","","","","Clear"
"1996-10-14 14:00","1996","10","14","14:00","11.2","","3.2","","58","","34","","26","","40.2","","100.09","","","","","","Clear"
"1996-10-14 15:00","1996","10","14","15:00","10.2","","2.2","","58","","34","","30","","40.2","","100.12","","","","","","Clear"
"1996-10-14 16:00","1996","10","14","16:00","9.2","","1.4","","58","","33","","35","","40.2","","100.19","","","","","","Clear"
"1996-10-14 17:00","1996","10","14","17:00","7.8","","1.4","","64","","34","","32","","40.2","","100.25","","","","","","Clear"
"1996-10-14 18:00","1996","10","14","18:00","6.5","","1.1","","68","","33","","24","","25.0","","100.29","","","","","","Clear"
"1996-10-14 19:00","1996","10","14","19:00","5.5","","1.2","","74","","31","","17","","25.0","","100.32","","","","","","Clear"
"1996-10-14 20:00","1996","10","14","20:00","4.9","","0.5","","73","","31","","17","","25.0","","100.35","","","","","","Clear"
"1996-10-14 21:00","1996","10","14","21:00","3.9","","0.7","","80","","33","","13","","25.0","","100.39","","","","","","Clear"
"1996-10-14 22:00","1996","10","14","22:00","3.2","","0.4","","82","","34","","13","","25.0","","100.42","","","","","","Clear"
"1996-10-14 23:00","1996","10","14","23:00","3.2","","-0.4","","77","","35","","20","","25.0","","100.42","","","","","","Clear"
"1996-10-15 00:00","1996","10","15","00:00","2.0","","-1.8","","76","","36","","19","","25.0","","100.45","","","","","","Clear"
"1996-10-15 01:00","1996","10","15","01:00","1.1","","-1.8","","81","","35","","9","","25.0","","100.49","","","","","","Clear"
"1996-10-15 02:00","1996","10","15","02:00","0.4","","-2.6","","80","","34","","11","","25.0","","100.52","","","","","","Clear"
"1996-10-15 03:00","1996","10","15","03:00","0.0","","-3.1","","80","","34","","7","","25.0","","100.52","","","","-2","","Clear"
"1996-10-15 04:00","1996","10","15","04:00","-0.5","","-3.2","","82","","34","","6","","25.0","","100.52","","","","-3","","Clear"
"1996-10-15 05:00","1996","10","15","05:00","-1.5","","-3.3","","88","","31","","6","","25.0","","100.52","","","","-4","","Clear"
"1996-10-15 06:00","1996","10","15","06:00","-1.1","","-3.1","","86","","2","","6","","25.0","","100.55","","","","-3","","Clear"
"1996-10-15 07:00","1996","10","15","07:00","-1.0","","-2.7","","88","","35","","4","","32.2","","100.55","","","","-2","","Clear"
"1996-10-15 08:00","1996","10","15","08:00","1.0","","-3.0","","75","","3","","4","","32.2","","100.55","","","","","","Mainly Clear"
"1996-10-15 09:00","1996","10","15","09:00","3.2","","-2.4","","67","","6","","11","","32.2","","100.55","","","","","","Clear"
"1996-10-15 10:00","1996","10","15","10:00","4.5","","-1.0","","67","","15","","7","","40.2","","100.52","","","","","","Mainly Clear"
"1996-10-15 11:00","1996","10","15","11:00","5.3","","0.2","","70","","12","","11","","40.2","","100.42","","","","","","Mainly Clear"
"1996-10-15 12:00","1996","10","15","12:00","6.1","","0.4","","67","","13","","15","","40.2","","100.32","","","","","","Mainly Clear"
"1996-10-15 13:00","1996","10","15","13:00","7.2","","1.2","","66","","14","","13","","40.2","","100.19","","","","","","Mainly Clear"
"1996-10-15 14:00","1996","10","15","14:00","7.2","","1.5","","67","","15","","20","","32.2","","100.05","","","","","","Mainly Clear"
"1996-10-15 15:00","1996","10","15","15:00","7.6","","1.2","","64","","17","","9","","32.2","","99.99","","","","","","Mainly Clear"
"1996-10-15 16:00","1996","10","15","16:00","7.2","","1.5","","67","","15","","11","","32.2","","99.79","","","","","","Mostly Cloudy"
"1996-10-15 17:00","1996","10","15","17:00","7.1","","2.1","","70","","14","","15","","32.2","","99.69","","","","","","Cloudy"
"1996-10-15 18:00","1996","10","15","18:00","6.9","","2.6","","74","","15","","11","","19.3","","99.59","","","","","","Cloudy"
"1996-10-15 19:00","1996","10","15","19:00","7.5","","3.3","","75","","14","","7","","24.1","","99.59","","","","","","Mostly Cloudy"
"1996-10-15 20:00","1996","10","15","20:00","8.1","","4.2","","76","","16","","13","","24.1","","99.52","","","","","","Mostly Cloudy"
"1996-10-15 21:00","1996","10","15","21:00","7.9","","4.9","","81","","16","","11","","24.1","","99.49","","","","","","Mostly Cloudy"
"1996-10-15 22:00","1996","10","15","22:00","7.5","","5.1","","85","","","","0","","25.0","","99.45","","","","","","Cloudy"
"1996-10-15 23:00","1996","10","15","23:00","6.5","","4.2","","85","","29","","4","","24.1","","99.42","","","","","","Cloudy"
"1996-10-16 00:00","1996","10","16","00:00","6.5","","3.5","","81","","","","0","","24.1","","99.35","","","","","","Mostly Cloudy"
"1996-10-16 01:00","1996","10","16","01:00","6.9","","3.5","","79","","","","0","","25.0","","99.29","","","","","","Mainly Clear"
"1996-10-16 02:00","1996","10","16","02:00","6.5","","3.5","","81","","","","0","","25.0","","99.26","","","","","","Mainly Clear"
"1996-10-16 03:00","1996","10","16","03:00","7.0","","3.9","","81","","11","","4","","25.0","","99.22","","","","","","Mostly Cloudy"
"1996-10-16 04:00","1996","10","16","04:00","7.0","","4.1","","82","","13","","6","","25.0","","99.22","","","","","","Clear"
"1996-10-16 05:00","1996","10","16","05:00","7.3","","4.6","","83","","11","","4","","19.3","","99.22","","","","","","Mostly Cloudy"
"1996-10-16 06:00","1996","10","16","06:00","6.7","","5.3","","91","","","","0","","19.3","","99.22","","","","","","Mostly Cloudy"
"1996-10-16 07:00","1996","10","16","07:00","8.2","","6.0","","86","","","","0","","11.3","","99.19","","","","","","Mostly Cloudy"
"1996-10-16 08:00","1996","10","16","08:00","9.5","","7.0","","84","","15","","7","","9.7","","99.16","","","","","","Haze"
"1996-10-16 09:00","1996","10","16","09:00","11.3","","8.9","","85","","16","","4","","8.0","","99.16","","","","","","Haze"
"1996-10-16 10:00","1996","10","16","10:00","12.6","","9.9","","84","","","","0","","8.0","","99.19","","","","","","Haze"
"1996-10-16 11:00","1996","10","16","11:00","14.2","","10.8","","80","","","","0","","6.4","","99.16","","","","","","Haze"
"1996-10-16 12:00","1996","10","16","12:00","16.8","","11.8","","72","","","","0","","6.4","","99.12","","","","","","Haze"
"1996-10-16 13:00","1996","10","16","13:00","20.0","","12.7","","63","","28","","15","","9.7","","99.09","","","","","","Haze"
"1996-10-16 14:00","1996","10","16","14:00","19.1","","14.0","","72","","29","","13","","9.7","","99.02","","","","","","Haze"
"1996-10-16 15:00","1996","10","16","15:00","19.3","","13.7","","70","","31","","11","","9.7","","99.02","","","","","","Rain Showers,Haze"
"1996-10-16 16:00","1996","10","16","16:00","18.4","","13.6","","74","","29","","11","","8.0","","99.06","","","","","","Haze"
"1996-10-16 17:00","1996","10","16","17:00","17.9","","13.9","","77","","28","","11","","6.4","","99.09","","","","","","Haze"
"1996-10-16 18:00","1996","10","16","18:00","16.1","","13.2","","83","","19","","6","","8.0","","99.12","","","","","","Haze"
"1996-10-16 19:00","1996","10","16","19:00","15.3","","13.3","","88","","16","","6","","4.8","","99.29","","","","","","Thunderstorms,Heavy Rain Showers,Fog"
"1996-10-16 20:00","1996","10","16","20:00","15.2","","14.2","","94","","27","","4","","9.7","","99.26","","","","","","Fog"
"1996-10-16 21:00","1996","10","16","21:00","15.4","","14.3","","93","","29","","6","","11.3","","99.29","","","","","","Mostly Cloudy"
"1996-10-16 22:00","1996","10","16","22:00","14.3","","13.5","","95","","","","0","","4.8","","99.29","","","","","","Fog"
"1996-10-16 23:00","1996","10","16","23:00","13.6","","12.9","","96","","","","0","","4.8","","99.29","","","","","","Fog"
"1996-10-17 00:00","1996","10","17","00:00","12.0","","12.0","","100","","","","0","","1.2","","99.26","","","","","","Fog"
"1996-10-17 01:00","1996","10","17","01:00","11.0","","10.8","","99","","35","","7","","4.0","","99.26","","","","","","Fog"
"1996-10-17 02:00","1996","10","17","02:00","10.5","","10.3","","99","","","","0","","3.2","","99.29","","","","","","Fog"
"1996-10-17 03:00","1996","10","17","03:00","10.5","","10.5","","100","","34","","4","","0.4","","99.29","","","","","","Mainly Clear"
"1996-10-17 04:00","1996","10","17","04:00","9.8","","9.6","","99","","","","0","","2.4","","99.32","","","","","","Fog"
"1996-10-17 05:00","1996","10","17","05:00","9.0","","9.0","","100","","33","","6","","2.4","","99.35","","","","","","Fog"
"1996-10-17 06:00","1996","10","17","06:00","10.2","","9.5","","95","","","","0","","3.2","","99.42","","","","","","Fog"
"1996-10-17 07:00","1996","10","17","07:00","12.0","","12.0","","100","","","","0","","0.2","","99.42","","","","","","Fog"
"1996-10-17 08:00","1996","10","17","08:00","12.4","","12.2","","99","","6","","9","","0.2","","99.42","","","","","","Fog"
"1996-10-17 09:00","1996","10","17","09:00","13.0","","12.8","","99","","15","","6","","0.4","","99.45","","","","","","Fog"
"1996-10-17 10:00","1996","10","17","10:00","13.8","","13.5","","98","","10","","4","","1.6","","99.45","","","","","","Fog"
"1996-10-17 11:00","1996","10","17","11:00","12.8","","12.5","","98","","9","","15","","1.2","","99.49","","","","","","Fog"
"1996-10-17 12:00","1996","10","17","12:00","12.2","","11.9","","98","","10","","17","","2.0","","99.49","","","","","","Fog"
"1996-10-17 13:00","1996","10","17","13:00","11.8","","10.9","","94","","9","","19","","4.8","","99.45","","","","","","Fog"
"1996-10-17 14:00","1996","10","17","14:00","11.7","","11.0","","95","","8","","15","","2.8","","99.42","","","","","","Fog"
"1996-10-17 15:00","1996","10","17","15:00","11.7","","11.2","","97","","10","","17","","2.0","","99.39","","","","","","Fog"
"1996-10-17 16:00","1996","10","17","16:00","12.1","","10.3","","89","","9","","22","","6.4","","99.39","","","","","","Fog"
"1996-10-17 17:00","1996","10","17","17:00","12.8","","9.2","","79","","10","","26","","8.0","","99.39","","","","","","Haze"
"1996-10-17 18:00","1996","10","17","18:00","11.6","","9.4","","86","","10","","20","","9.7","","99.39","","","","","","Haze"
"1996-10-17 19:00","1996","10","17","19:00","11.7","","9.0","","83","","11","","26","","16.1","","99.35","","","","","","Clear"
"1996-10-17 20:00","1996","10","17","20:00","11.9","","8.6","","80","","11","","35","","19.3","","99.26","","","","","","Clear"
"1996-10-17 21:00","1996","10","17","21:00","11.6","","9.1","","85","","10","","35","","16.1","","99.26","","","","","","Mainly Clear"
"1996-10-17 22:00","1996","10","17","22:00","11.1","","8.9","","86","","10","","24","","12.9","","99.26","","","","","","Mostly Cloudy"
"1996-10-17 23:00","1996","10","17","23:00","10.6","","8.6","","87","","10","","22","","16.1","","99.22","","","","","","Mainly Clear"
"1996-10-18 00:00","1996","10","18","00:00","10.2","","8.5","","89","","9","","20","","16.1","","99.19","","","","","","Mostly Cloudy"
"1996-10-18 01:00","1996","10","18","01:00","9.5","","7.6","","88","","9","","13","","16.1","","99.12","","","","","","Mainly Clear"
"1996-10-18 02:00","1996","10","18","02:00","9.5","","7.6","","88","","10","","15","","19.3","","99.02","","","","","","Clear"
"1996-10-18 03:00","1996","10","18","03:00","9.4","","7.5","","88","","9","","20","","19.3","","98.89","","","","","","Mainly Clear"
"1996-10-18 04:00","1996","10","18","04:00","9.5","","8.2","","92","","9","","19","","12.9","","98.79","","","","","","Cloudy"
"1996-10-18 05:00","1996","10","18","05:00","9.6","","8.3","","92","","9","","15","","12.9","","98.76","","","","","","Mainly Clear"
"1996-10-18 06:00","1996","10","18","06:00","10.2","","8.9","","92","","8","","19","","11.3","","98.69","","","","","","Mostly Cloudy"
"1996-10-18 07:00","1996","10","18","07:00","10.4","","9.5","","94","","8","","24","","9.7","","98.59","","","","","","Fog"
"1996-10-18 08:00","1996","10","18","08:00","11.6","","10.0","","90","","8","","13","","9.7","","98.52","","","","","","Fog"
"1996-10-18 09:00","1996","10","18","09:00","12.5","","10.6","","88","","9","","20","","9.7","","98.46","","","","","","Fog"
"1996-10-18 10:00","1996","10","18","10:00","14.0","","11.1","","83","","9","","24","","9.7","","98.32","","","","","","Haze"
"1996-10-18 11:00","1996","10","18","11:00","14.8","","12.1","","84","","11","","15","","6.4","","98.29","","","","","","Rain Showers,Haze"
"1996-10-18 12:00","1996","10","18","12:00","14.1","","12.9","","92","","11","","13","","4.0","","98.19","","","","","","Rain Showers,Fog"
"1996-10-18 13:00","1996","10","18","13:00","14.1","","13.3","","95","","13","","19","","2.8","","98.09","","","","","","Moderate Rain Showers,Fog"
"1996-10-18 14:00","1996","10","18","14:00","14.9","","13.9","","94","","15","","9","","2.0","","98.02","","","","","","Rain Showers,Fog"
"1996-10-18 15:00","1996","10","18","15:00","10.5","","9.4","","93","","30","","37","","6.4","","98.12","","","","","","Moderate Rain Showers,Fog"
"1996-10-18 16:00","1996","10","18","16:00","9.1","","8.0","","93","","32","","28","","4.0","","98.19","","","","","","Moderate Rain,Fog"
"1996-10-18 17:00","1996","10","18","17:00","8.4","","8.0","","97","","33","","24","","8.0","","98.29","","","","","","Rain,Fog"
"1996-10-18 18:00","1996","10","18","18:00","8.6","","7.6","","93","","32","","15","","9.7","","98.39","","","","","","Rain,Fog"
"1996-10-18 19:00","1996","10","18","19:00","8.6","","7.6","","93","","30","","11","","11.3","","98.52","","","","","","Rain"
"1996-10-18 20:00","1996","10","18","20:00","8.1","","7.5","","96","","25","","15","","11.3","","98.66","","","","","","Rain"
"1996-10-18 21:00","1996","10","18","21:00","8.1","","7.1","","93","","29","","11","","12.9","","98.59","","","","","","Rain"
"1996-10-18 22:00","1996","10","18","22:00","7.7","","5.9","","88","","29","","19","","12.9","","98.72","","","","","","Rain"
"1996-10-18 23:00","1996","10","18","23:00","7.0","","5.8","","92","","30","","15","","12.9","","98.76","","","","","","Rain"
"1996-10-19 00:00","1996","10","19","00:00","7.0","","5.8","","92","","30","","15","","12.9","","98.76","","","","","","Rain"
"1996-10-19 01:00","1996","10","19","01:00","7.0","","5.2","","88","","32","","15","","16.1","","98.79","","","","","","Rain"
"1996-10-19 02:00","1996","10","19","02:00","6.3","","4.7","","89","","32","","13","","16.1","","98.72","","","","","","Cloudy"
"1996-10-19 03:00","1996","10","19","03:00","6.6","","4.8","","88","","30","","13","","19.3","","98.79","","","","","","Cloudy"
"1996-10-19 04:00","1996","10","19","04:00","6.7","","4.6","","86","","31","","15","","25.0","","98.76","","","","","","Cloudy"
"1996-10-19 05:00","1996","10","19","05:00","6.7","","4.6","","86","","33","","17","","25.0","","98.82","","","","","","Cloudy"
"1996-10-19 06:00","1996","10","19","06:00","6.5","","4.4","","86","","34","","20","","24.1","","98.76","","","","","","Rain"
"1996-10-19 07:00","1996","10","19","07:00","6.8","","3.9","","82","","34","","24","","40.2","","98.89","","","","","","Cloudy"
"1996-10-19 08:00","1996","10","19","08:00","6.5","","4.0","","84","","34","","22","","19.3","","98.89","","","","","","Rain"
"1996-10-19 09:00","1996","10","19","09:00","6.7","","4.2","","84","","35","","24","","40.2","","98.86","","","","","","Rain"
"1996-10-19 10:00","1996","10","19","10:00","7.1","","4.2","","82","","35","","35","","32.2","","98.89","","","","","","Rain"
"1996-10-19 11:00","1996","10","19","11:00","6.8","","6.2","","96","","36","","28","","24.1","","98.89","","","","","","Rain"
"1996-10-19 12:00","1996","10","19","12:00","7.1","","5.9","","92","","35","","24","","12.9","","98.89","","","","","","Rain"
"1996-10-19 13:00","1996","10","19","13:00","7.6","","6.6","","93","","36","","19","","11.3","","98.89","","","","","","Rain"
"1996-10-19 14:00","1996","10","19","14:00"
"1996-10-19 15:00","1996","10","19","15:00","8.4","","7.6","","95","","35","","15","","9.7","","98.96","","","","","","Rain,Fog"
"1996-10-19 16:00","1996","10","19","16:00"
"1996-10-19 17:00","1996","10","19","17:00"
"1996-10-19 18:00","1996","10","19","18:00","9.5","","8.4","","93","","3","","17","","11.3","","99.02","","","","","","Rain"
"1996-10-19 19:00","1996","10","19","19:00","9.4","","7.9","","90","","5","","19","","12.9","","99.12","","","","","","Rain"
"1996-10-19 20:00","1996","10","19","20:00","9.2","","7.9","","92","","5","","17","","11.3","","99.12","","","","","","Rain"
"1996-10-19 21:00","1996","10","19","21:00","9.0","","7.7","","92","","2","","15","","12.9","","99.12","","","","","","Rain"
"1996-10-19 22:00","1996","10","19","22:00","9.2","","7.9","","92","","4","","15","","12.9","","99.12","","","","","","Rain"
"1996-10-19 23:00","1996","10","19","23:00","9.0","","7.3","","89","","2","","11","","12.9","","99.09","","","","","","Rain"
"1996-10-20 00:00","1996","10","20","00:00","9.0","","6.3","","83","","36","","11","","16.1","","99.02","","","","","","Mostly Cloudy"
"1996-10-20 01:00","1996","10","20","01:00","8.7","","5.7","","81","","1","","15","","19.3","","99.02","","","","","","Mostly Cloudy"
"1996-10-20 02:00","1996","10","20","02:00","9.0","","5.4","","78","","3","","15","","19.3","","99.02","","","","","","Mostly Cloudy"
"1996-10-20 03:00","1996","10","20","03:00","9.0","","5.0","","76","","1","","19","","19.3","","98.99","","","","","","Mostly Cloudy"
"1996-10-20 04:00","1996","10","20","04:00","9.2","","5.2","","76","","1","","19","","19.3","","98.96","","","","","","Mostly Cloudy"
"1996-10-20 05:00","1996","10","20","05:00","9.6","","5.2","","74","","1","","19","","24.1","","98.99","","","","","","Mostly Cloudy"
"1996-10-20 06:00","1996","10","20","06:00","9.5","","5.3","","75","","3","","20","","19.3","","99.06","","","","","","Rain Showers"
"1996-10-20 07:00","1996","10","20","07:00","10.1","","4.9","","70","","36","","20","","40.2","","99.02","","","","","","Mostly Cloudy"
"1996-10-20 08:00","1996","10","20","08:00","9.6","","5.2","","74","","36","","19","","40.2","","99.12","","","","","","Mostly Cloudy"
"1996-10-20 09:00","1996","10","20","09:00","10.3","","5.8","","74","","3","","22","","19.3","","99.12","","","","","","Rain Showers"
"1996-10-20 10:00","1996","10","20","10:00","10.5","","6.9","","78","","2","","22","","32.2","","99.09","","","","","","Cloudy"
"1996-10-20 11:00","1996","10","20","11:00","10.5","","7.9","","84","","5","","22","","6.4","","99.16","","","","","","Rain Showers"
"1996-10-20 12:00","1996","10","20","12:00","10.5","","8.9","","90","","6","","19","","4.0","","99.12","","","","","","Drizzle,Fog"
"1996-10-20 13:00","1996","10","20","13:00","10.1","","9.2","","94","","5","","17","","24.1","","99.09","","","","","","Drizzle"
"1996-10-20 14:00","1996","10","20","14:00","11.0","","8.4","","84","","7","","20","","24.1","","99.09","","","","","","Cloudy"
"1996-10-20 15:00","1996","10","20","15:00","12.0","","8.3","","78","","6","","24","","32.2","","99.09","","","","","","Mostly Cloudy"
"1996-10-20 16:00","1996","10","20","16:00","11.3","","8.0","","80","","9","","24","","24.1","","99.19","","","","","","Cloudy"
"1996-10-20 17:00","1996","10","20","17:00","10.5","","7.7","","83","","6","","13","","24.1","","99.22","","","","","","Cloudy"
"1996-10-20 18:00","1996","10","20","18:00","10.3","","6.9","","79","","7","","15","","25.0","","99.29","","","","","","Cloudy"
"1996-10-20 19:00","1996","10","20","19:00","9.3","","6.8","","84","","6","","19","","25.0","","99.35","","","","","","Drizzle"
"1996-10-20 20:00","1996","10","20","20:00","8.9","","6.4","","84","","6","","17","","19.3","","99.35","","","","","","Rain Showers"
"1996-10-20 21:00","1996","10","20","21:00","7.7","","7.1","","96","","3","","11","","4.0","","99.35","","","","","","Rain,Drizzle,Fog"
"1996-10-20 22:00","1996","10","20","22:00","8.0","","7.2","","95","","1","","7","","4.0","","99.32","","","","","","Rain,Drizzle,Fog"
"1996-10-20 23:00","1996","10","20","23:00","7.7","","6.9","","95","","1","","11","","4.8","","99.29","","","","","","Rain,Drizzle,Fog"
"1996-10-21 00:00","1996","10","21","00:00","7.4","","6.6","","95","","3","","11","","4.0","","99.22","","","","","","Rain,Fog"
"1996-10-21 01:00","1996","10","21","01:00","7.2","","6.6","","96","","1","","13","","3.2","","99.22","","","","","","Rain,Fog"
"1996-10-21 02:00","1996","10","21","02:00","7.0","","6.4","","96","","36","","9","","3.2","","99.19","","","","","","Rain,Fog"
"1996-10-21 03:00","1996","10","21","03:00","7.3","","6.7","","96","","35","","9","","3.2","","99.19","","","","","","Rain,Fog"
"1996-10-21 04:00","1996","10","21","04:00","7.3","","6.7","","96","","36","","7","","4.0","","99.22","","","","","","Rain,Drizzle,Fog"
"1996-10-21 05:00","1996","10","21","05:00","7.2","","6.8","","97","","33","","13","","4.0","","99.19","","","","","","Rain,Drizzle,Fog"
"1996-10-21 06:00","1996","10","21","06:00","7.4","","6.8","","96","","34","","11","","9.7","","99.22","","","","","","Fog"
"1996-10-21 07:00","1996","10","21","07:00","7.4","","7.0","","97","","34","","13","","4.0","","99.22","","","","","","Rain,Drizzle,Fog"
"1996-10-21 08:00","1996","10","21","08:00","7.8","","7.2","","96","","35","","13","","4.0","","99.26","","","","","","Rain,Drizzle,Fog"
"1996-10-21 09:00","1996","10","21","09:00","8.1","","7.5","","96","","1","","9","","8.0","","99.29","","","","","","Drizzle,Fog"
"1996-10-21 10:00","1996","10","21","10:00","8.8","","7.7","","93","","3","","17","","14.5","","99.26","","","","","","Cloudy"
"1996-10-21 11:00","1996","10","21","11:00","9.4","","7.5","","88","","5","","17","","16.1","","99.29","","","","","","Cloudy"
"1996-10-21 12:00","1996","10","21","12:00","9.4","","7.9","","90","","8","","17","","14.5","","99.29","","","","","","Cloudy"
"1996-10-21 13:00","1996","10","21","13:00","9.5","","7.6","","88","","6","","13","","14.5","","99.29","","","","","","Cloudy"
"1996-10-21 14:00","1996","10","21","14:00","9.0","","7.9","","93","","7","","13","","6.4","","99.32","","","","","","Rain,Fog"
"1996-10-21 15:00","1996","10","21","15:00","9.0","","7.9","","93","","6","","11","","11.3","","99.32","","","","","","Rain"
"1996-10-21 16:00","1996","10","21","16:00","9.0","","7.7","","92","","5","","13","","19.3","","99.39","","","","","","Rain"
"1996-10-21 17:00","1996","10","21","17:00","9.0","","7.1","","88","","5","","13","","19.3","","99.42","","","","","","Rain"
"1996-10-21 18:00","1996","10","21","18:00","8.7","","7.0","","89","","9","","7","","24.1","","99.49","","","","","","Cloudy"
"1996-10-21 19:00","1996","10","21","19:00","8.7","","7.0","","89","","4","","7","","24.1","","99.52","","","","","","Cloudy"
"1996-10-21 20:00","1996","10","21","20:00","8.5","","6.8","","89","","4","","7","","24.1","","99.52","","","","","","Cloudy"
"1996-10-21 21:00","1996","10","21","21:00","8.2","","5.8","","85","","4","","7","","25.0","","99.52","","","","","","Cloudy"
"1996-10-21 22:00","1996","10","21","22:00","8.4","","6.2","","86","","7","","6","","25.0","","99.55","","","","","","Cloudy"
"1996-10-21 23:00","1996","10","21","23:00","8.2","","6.2","","87","","6","","11","","25.0","","99.55","","","","","","Cloudy"
"1996-10-22 00:00","1996","10","22","00:00","8.0","","6.0","","87","","8","","4","","24.1","","99.49","","","","","","Cloudy"
"1996-10-22 01:00","1996","10","22","01:00","7.8","","6.0","","88","","36","","4","","24.1","","99.52","","","","","","Cloudy"
"1996-10-22 02:00","1996","10","22","02:00","7.6","","6.0","","90","","2","","9","","24.1","","99.49","","","","","","Cloudy"
"1996-10-22 03:00","1996","10","22","03:00","7.5","","6.1","","91","","36","","9","","24.1","","99.45","","","","","","Mostly Cloudy"
"1996-10-22 04:00","1996","10","22","04:00","7.5","","5.7","","88","","2","","6","","24.1","","99.59","","","","","","Cloudy"
"1996-10-22 05:00","1996","10","22","05:00","7.5","","5.7","","88","","2","","6","","19.3","","99.52","","","","","","Cloudy"
"1996-10-22 06:00","1996","10","22","06:00","6.9","","5.3","","90","","5","","9","","16.1","","99.55","","","","","","Mostly Cloudy"
"1996-10-22 07:00","1996","10","22","07:00","7.2","","5.0","","86","","6","","4","","9.7","","99.59","","","","","","Fog"
"1996-10-22 08:00","1996","10","22","08:00","7.7","","5.5","","86","","34","","6","","14.5","","99.59","","","","","","Mostly Cloudy"
"1996-10-22 09:00","1996","10","22","09:00","8.9","","5.3","","78","","28","","4","","16.1","","99.52","","","","","","Mainly Clear"
"1996-10-22 10:00","1996","10","22","10:00","10.2","","5.9","","75","","29","","4","","16.1","","99.52","","","","","","Mainly Clear"
"1996-10-22 11:00","1996","10","22","11:00","10.5","","5.2","","70","","27","","13","","16.1","","99.52","","","","","","Mostly Cloudy"
"1996-10-22 12:00","1996","10","22","12:00","10.6","","5.7","","72","","","","0","","19.3","","99.49","","","","","","Cloudy"
"1996-10-22 13:00","1996","10","22","13:00","11.4","","6.0","","69","","","","0","","19.3","","99.42","","","","","","Mostly Cloudy"
"1996-10-22 14:00","1996","10","22","14:00","10.8","","6.4","","74","","13","","4","","24.1","","99.42","","","","","","Mostly Cloudy"
"1996-10-22 15:00","1996","10","22","15:00","10.8","","6.4","","74","","11","","9","","24.1","","99.39","","","","","","Cloudy"
"1996-10-22 16:00","1996","10","22","16:00","10.6","","6.4","","75","","13","","7","","24.1","","99.35","","","","","","Mostly Cloudy"
"1996-10-22 17:00","1996","10","22","17:00","10.1","","6.9","","80","","10","","13","","19.3","","99.32","","","","","","Mostly Cloudy"
"1996-10-22 18:00","1996","10","22","18:00","9.4","","6.5","","82","","11","","9","","19.3","","99.35","","","","","","Mostly Cloudy"
"1996-10-22 19:00","1996","10","22","19:00","9.3","","6.6","","83","","12","","13","","19.3","","99.35","","","","","","Mostly Cloudy"
"1996-10-22 20:00","1996","10","22","20:00","8.5","","6.6","","88","","12","","11","","19.3","","99.35","","","","","","Mainly Clear"
"1996-10-22 21:00","1996","10","22","21:00","8.2","","6.8","","91","","9","","9","","16.1","","99.29","","","","","","Mainly Clear"
"1996-10-22 22:00","1996","10","22","22:00","7.9","","6.3","","90","","9","","7","","16.1","","99.29","","","","","","Mainly Clear"
"1996-10-22 23:00","1996","10","22","23:00","8.0","","6.2","","88","","7","","7","","12.9","","99.16","","","","","","Mainly Clear"
"1996-10-23 00:00","1996","10","23","00:00","6.9","","5.9","","93","","","","0","","12.9","","99.19","","","","","","Mostly Cloudy"
"1996-10-23 01:00","1996","10","23","01:00","7.8","","6.4","","91","","7","","7","","12.9","","99.09","","","","","","Mostly Cloudy"
"1996-10-23 02:00","1996","10","23","02:00","8.4","","6.7","","89","","9","","7","","12.9","","98.99","","","","","","Mostly Cloudy"
"1996-10-23 03:00","1996","10","23","03:00","8.9","","7.2","","89","","10","","11","","16.1","","98.89","","","","","","Mostly Cloudy"
"1996-10-23 04:00","1996","10","23","04:00","9.3","","7.4","","88","","9","","26","","16.1","","98.79","","","","","","Mostly Cloudy"
"1996-10-23 05:00","1996","10","23","05:00","9.4","","7.5","","88","","8","","24","","12.9","","98.69","","","","","","Mostly Cloudy"
"1996-10-23 06:00","1996","10","23","06:00","9.3","","7.2","","87","","9","","24","","12.9","","98.66","","","","","","Mostly Cloudy"
"1996-10-23 07:00","1996","10","23","07:00","9.6","","7.3","","86","","9","","19","","12.9","","98.62","","","","","","Mostly Cloudy"
"1996-10-23 08:00","1996","10","23","08:00","10.1","","8.2","","88","","8","","20","","11.3","","98.52","","","","","","Mostly Cloudy"
"1996-10-23 09:00","1996","10","23","09:00","10.8","","8.8","","87","","9","","20","","9.7","","98.49","","","","","","Haze"
"1996-10-23 10:00","1996","10","23","10:00","11.1","","9.1","","87","","9","","17","","8.0","","98.42","","","","","","Haze"
"1996-10-23 11:00","1996","10","23","11:00","11.1","","9.5","","90","","8","","15","","8.0","","98.22","","","","","","Fog"
"1996-10-23 12:00","1996","10","23","12:00","12.0","","9.9","","87","","11","","20","","4.8","","98.16","","","","","","Rain Showers,Fog"
"1996-10-23 13:00","1996","10","23","13:00","11.1","","10.6","","97","","11","","17","","1.6","","98.09","","","","","","Rain Showers,Fog"
"1996-10-23 14:00","1996","10","23","14:00","11.0","","10.6","","97","","19","","13","","1.6","","98.16","","","","","","Rain,Fog"
"1996-10-23 15:00","1996","10","23","15:00","11.2","","8.4","","83","","24","","19","","24.1","","98.12","","","","","","Cloudy"
"1996-10-23 16:00","1996","10","23","16:00","10.2","","6.5","","78","","24","","30","","19.3","","98.19","","","","","","Rain Showers"
"1996-10-23 17:00","1996","10","23","17:00","9.8","","5.2","","73","","22","","11","","24.1","","98.22","","","","","","Mostly Cloudy"
"1996-10-23 18:00","1996","10","23","18:00","8.7","","5.3","","79","","21","","7","","19.3","","98.26","","","","","","Mostly Cloudy"
"1996-10-23 19:00","1996","10","23","19:00","8.8","","5.2","","78","","22","","7","","19.3","","98.26","","","","","","Mostly Cloudy"
"1996-10-23 20:00","1996","10","23","20:00","8.3","","4.9","","79","","24","","24","","24.1","","98.29","","","","","","Mostly Cloudy"
"1996-10-23 21:00","1996","10","23","21:00","7.5","","5.3","","86","","27","","13","","19.3","","98.26","","","","","","Rain"
"1996-10-23 22:00","1996","10","23","22:00","7.0","","5.6","","91","","22","","19","","19.3","","98.29","","","","","","Rain"
"1996-10-23 23:00","1996","10","23","23:00","6.6","","4.1","","84","","21","","20","","25.0","","98.29","","","","","","Mostly Cloudy"
"1996-10-24 00:00","1996","10","24","00:00","6.5","","3.8","","83","","20","","17","","25.0","","98.29","","","","","","Mostly Cloudy"
"1996-10-24 01:00","1996","10","24","01:00","6.0","","2.5","","78","","23","","22","","25.0","","98.36","","","","","","Mainly Clear"
"1996-10-24 02:00","1996","10","24","02:00","4.9","","2.7","","86","","22","","17","","25.0","","98.39","","","","","","Clear"
"1996-10-24 03:00","1996","10","24","03:00","4.9","","2.7","","86","","22","","15","","25.0","","98.39","","","","","","Mostly Cloudy"
"1996-10-24 04:00","1996","10","24","04:00","4.1","","2.6","","90","","23","","7","","25.0","","98.42","","","","","","Clear"
"1996-10-24 05:00","1996","10","24","05:00","4.6","","3.1","","90","","21","","13","","24.1","","98.42","","","","","","Mostly Cloudy"
"1996-10-24 06:00","1996","10","24","06:00","5.2","","3.0","","86","","19","","13","","19.3","","98.42","","","","","","Cloudy"
"1996-10-24 07:00","1996","10","24","07:00","5.5","","2.9","","83","","19","","15","","16.1","","98.42","","","","","","Mostly Cloudy"
"1996-10-24 08:00","1996","10","24","08:00","6.1","","2.9","","80","","19","","13","","14.5","","98.42","","","","","","Mostly Cloudy"
"1996-10-24 09:00","1996","10","24","09:00","6.8","","4.3","","84","","20","","19","","12.9","","98.42","","","","","","Rain Showers"
"1996-10-24 10:00","1996","10","24","10:00","8.1","","6.1","","87","","22","","26","","16.1","","98.42","","","","","","Cloudy"
"1996-10-24 11:00","1996","10","24","11:00","8.9","","6.4","","84","","23","","32","","24.1","","98.42","","","","","","Cloudy"
"1996-10-24 12:00","1996","10","24","12:00","9.3","","6.8","","84","","23","","28","","19.3","","98.42","","","","","","Cloudy"
"1996-10-24 13:00","1996","10","24","13:00","9.7","","7.2","","84","","23","","28","","19.3","","98.46","","","","","","Rain Showers"
"1996-10-24 14:00","1996","10","24","14:00","9.6","","7.7","","88","","24","","26","","6.4","","98.52","","","","","","Rain,Fog"
"1996-10-24 15:00","1996","10","24","15:00","10.0","","8.1","","88","","24","","19","","8.0","","98.59","","","","","","Rain Showers,Fog"
"1996-10-24 16:00","1996","10","24","16:00","10.3","","8.1","","86","","23","","22","","12.9","","98.69","","","","","","Rain Showers"
"1996-10-24 17:00","1996","10","24","17:00","10.2","","7.6","","84","","24","","19","","19.3","","98.76","","","","","","Cloudy"
"1996-10-24 18:00","1996","10","24","18:00","9.3","","8.0","","92","","25","","19","","12.9","","98.86","","","","","","Rain Showers"
"1996-10-24 19:00","1996","10","24","19:00","9.5","","7.0","","84","","25","","19","","19.3","","98.96","","","","","","Cloudy"
"1996-10-24 20:00","1996","10","24","20:00","9.3","","6.2","","81","","25","","15","","19.3","","98.99","","","","","","Cloudy"
"1996-10-24 21:00","1996","10","24","21:00","9.2","","4.8","","74","","26","","19","","19.3","","99.09","","","","","","Mostly Cloudy"
"1996-10-24 22:00","1996","10","24","22:00","7.5","","4.4","","81","","24","","11","","24.1","","99.16","","","","","","Clear"
"1996-10-24 23:00","1996","10","24","23:00","6.0","","4.1","","88","","23","","9","","24.1","","99.19","","","","","","Clear"
"1996-10-25 00:00","1996","10","25","00:00","5.2","","3.7","","90","","23","","7","","24.1","","99.22","","","","","","Clear"
"1996-10-25 01:00","1996","10","25","01:00","4.8","","3.3","","90","","23","","9","","24.1","","99.26","","","","","","Mainly Clear"
"1996-10-25 02:00","1996","10","25","02:00","4.6","","3.3","","91","","24","","9","","19.3","","99.29","","","","","","Clear"
"1996-10-25 03:00","1996","10","25","03:00","4.5","","3.2","","91","","25","","11","","19.3","","99.35","","","","","","Mainly Clear"
"1996-10-25 04:00","1996","10","25","04:00","5.0","","3.7","","91","","24","","9","","19.3","","99.42","","","","","","Mostly Cloudy"
"1996-10-25 05:00","1996","10","25","05:00","5.1","","3.6","","90","","25","","9","","24.1","","99.52","","","","","","Mostly Cloudy"
"1996-10-25 06:00","1996","10","25","06:00","4.6","","2.4","","86","","23","","7","","25.0","","99.59","","","","","","Clear"
"1996-10-25 07:00","1996","10","25","07:00","4.1","","2.6","","90","","22","","13","","24.1","","99.69","","","","","","Clear"
"1996-10-25 08:00","1996","10","25","08:00","5.9","","2.9","","81","","23","","9","","19.3","","99.79","","","","","","Clear"
"1996-10-25 09:00","1996","10","25","09:00","7.4","","3.4","","76","","25","","11","","19.3","","99.82","","","","","","Clear"
"1996-10-25 10:00","1996","10","25","10:00","8.8","","2.9","","66","","26","","9","","19.3","","99.89","","","","","","Mostly Cloudy"
"1996-10-25 11:00","1996","10","25","11:00","9.8","","3.2","","63","","28","","11","","24.1","","99.92","","","","","","Mainly Clear"
"1996-10-25 12:00","1996","10","25","12:00","11.5","","4.5","","62","","25","","9","","24.1","","99.92","","","","","","Clear"
"1996-10-25 13:00","1996","10","25","13:00","13.0","","5.0","","58","","25","","6","","24.1","","99.92","","","","","","Clear"
"1996-10-25 14:00","1996","10","25","14:00","14.0","","4.2","","52","","22","","7","","24.1","","99.89","","","","","","Clear"
"1996-10-25 15:00","1996","10","25","15:00","13.2","","6.4","","63","","12","","11","","24.1","","99.92","","","","","","Clear"
"1996-10-25 16:00","1996","10","25","16:00","13.0","","6.4","","64","","14","","11","","24.1","","99.95","","","","","","Clear"
"1996-10-25 17:00","1996","10","25","17:00","11.6","","6.7","","72","","13","","11","","19.3","","99.95","","","","","","Clear"
"1996-10-25 18:00","1996","10","25","18:00","10.0","","6.5","","79","","14","","7","","19.3","","99.99","","","","","","Clear"
"1996-10-25 19:00","1996","10","25","19:00","9.7","","6.8","","82","","15","","11","","19.3","","100.05","","","","","","Clear"
"1996-10-25 20:00","1996","10","25","20:00","9.6","","7.1","","84","","16","","4","","16.1","","100.12","","","","","","Clear"
"1996-10-25 21:00","1996","10","25","21:00","9.3","","7.4","","88","","","","0","","16.1","","100.12","","","","","","Clear"
"1996-10-25 22:00","1996","10","25","22:00","8.5","","7.4","","93","","","","0","","12.9","","100.22","","","","","","Mainly Clear"
"1996-10-25 23:00","1996","10","25","23:00","7.0","","6.0","","93","","","","0","","11.3","","100.22","","","","","","Clear"
"1996-10-26 00:00","1996","10","26","00:00","6.0","","5.2","","95","","","","0","","9.7","","100.29","","","","","","Fog"
"1996-10-26 01:00","1996","10","26","01:00","4.9","","4.3","","96","","","","0","","9.7","","100.29","","","","","","Fog"
"1996-10-26 02:00","1996","10","26","02:00","4.7","","4.1","","96","","33","","9","","9.7","","100.35","","","","","","Fog"
"1996-10-26 03:00","1996","10","26","03:00","4.0","","3.6","","97","","35","","6","","9.7","","100.35","","","","","","Fog"
"1996-10-26 04:00","1996","10","26","04:00","4.0","","3.8","","99","","34","","4","","8.0","","100.39","","","","","","Fog"
"1996-10-26 05:00","1996","10","26","05:00","3.9","","3.7","","99","","35","","6","","6.4","","100.42","","","","","","Fog"
"1996-10-26 06:00","1996","10","26","06:00","3.9","","3.7","","99","","31","","7","","8.0","","100.49","","","","","","Fog"
"1996-10-26 07:00","1996","10","26","07:00","4.9","","4.1","","95","","35","","4","","4.0","","100.52","","","","","","Fog"
"1996-10-26 08:00","1996","10","26","08:00","6.9","","5.9","","93","","","","0","","4.8","","100.59","","","","","","Fog"
"1996-10-26 09:00","1996","10","26","09:00","9.0","","7.1","","88","","","","0","","6.4","","100.65","","","","","","Fog"
"1996-10-26 10:00","1996","10","26","10:00","11.9","","8.4","","79","","","","0","","11.3","","100.69","","","","","","Mainly Clear"
"1996-10-26 11:00","1996","10","26","11:00","13.5","","9.2","","75","","7","","4","","19.3","","100.69","","","","","","Mostly Cloudy"
"1996-10-26 12:00","1996","10","26","12:00","14.8","","9.1","","69","","11","","4","","19.3","","100.62","","","","","","Mostly Cloudy"
"1996-10-26 13:00","1996","10","26","13:00","15.7","","8.8","","63","","11","","4","","19.3","","100.59","","","","","","Mostly Cloudy"
"1996-10-26 14:00","1996","10","26","14:00","14.6","","9.7","","72","","16","","11","","19.3","","100.62","","","","","","Mostly Cloudy"
"1996-10-26 15:00","1996","10","26","15:00","13.0","","9.1","","77","","14","","11","","19.3","","100.65","","","","","","Mostly Cloudy"
"1996-10-26 16:00","1996","10","26","16:00","13.2","","8.3","","72","","12","","6","","19.3","","100.62","","","","","","Mainly Clear"
"1996-10-26 17:00","1996","10","26","17:00","13.0","","8.5","","74","","14","","6","","19.3","","100.59","","","","","","Mainly Clear"
"1996-10-26 18:00","1996","10","26","18:00","12.0","","9.3","","84","","","","0","","16.1","","100.62","","","","","","Mainly Clear"
"1996-10-26 19:00","1996","10","26","19:00","10.2","","8.5","","89","","18","","4","","16.1","","100.69","","","","","","Mainly Clear"
"1996-10-26 20:00","1996","10","26","20:00","10.0","","8.1","","88","","","","0","","12.9","","100.65","","","","","","Mainly Clear"
"1996-10-26 21:00","1996","10","26","21:00","8.8","","7.7","","93","","","","0","","12.9","","100.65","","","","","","Clear"
"1996-10-26 22:00","1996","10","26","22:00","8.6","","7.5","","93","","","","0","","12.9","","100.62","","","","","","Clear"
"1996-10-26 23:00","1996","10","26","23:00","8.5","","7.5","","93","","35","","7","","12.9","","100.59","","","","","","Clear"
"1996-10-27 00:00","1996","10","27","00:00","8.1","","6.9","","92","","33","","7","","12.9","","100.55","","","","","","Mostly Cloudy"
"1996-10-27 01:00","1996","10","27","01:00","7.9","","6.9","","93","","","","0","","16.1","","100.49","","","","","","Mainly Clear"
"1996-10-27 02:00","1996","10","27","02:00","7.9","","6.7","","92","","","","0","","12.9","","100.49","","","","","","Clear"
"1996-10-27 03:00","1996","10","27","03:00","7.8","","6.8","","93","","","","0","","12.9","","100.45","","","","","","Mostly Cloudy"
"1996-10-27 04:00","1996","10","27","04:00","7.3","","6.5","","95","","","","0","","14.5","","100.45","","","","","","Mainly Clear"
"1996-10-27 05:00","1996","10","27","05:00","8.0","","6.8","","92","","","","0","","12.9","","100.45","","","","","","Mostly Cloudy"
"1996-10-27 06:00","1996","10","27","06:00","8.2","","6.8","","91","","","","0","","16.1","","100.42","","","","","","Mostly Cloudy"
"1996-10-27 07:00","1996","10","27","07:00","8.5","","6.8","","89","","","","0","","19.3","","100.39","","","","","","Mostly Cloudy"
"1996-10-27 08:00","1996","10","27","08:00","9.2","","7.7","","90","","","","0","","12.9","","100.39","","","","","","Cloudy"
"1996-10-27 09:00","1996","10","27","09:00","10.5","","8.7","","89","","","","0","","9.7","","100.35","","","","","","Rain Showers,Fog"
"1996-10-27 10:00","1996","10","27","10:00","10.8","","9.4","","91","","","","0","","4.0","","100.29","","","","","","Rain,Drizzle,Fog"
"1996-10-27 11:00","1996","10","27","11:00","12.1","","11.1","","94","","17","","9","","4.0","","100.19","","","","","","Drizzle,Fog"
"1996-10-27 12:00","1996","10","27","12:00","12.7","","11.5","","92","","17","","13","","4.0","","99.99","","","","","","Fog"
"1996-10-27 13:00","1996","10","27","13:00","14.2","","13.0","","92","","21","","11","","4.0","","99.95","","","","","","Fog"
"1996-10-27 14:00","1996","10","27","14:00","16.0","","14.4","","90","","21","","15","","4.8","","99.82","","","","","","Fog"
"1996-10-27 15:00","1996","10","27","15:00","16.6","","14.9","","90","","22","","17","","6.4","","99.79","","","","","","Fog"
"1996-10-27 16:00","1996","10","27","16:00","17.0","","14.8","","87","","22","","19","","9.7","","99.72","","","","","","Haze"
"1996-10-27 17:00","1996","10","27","17:00","16.9","","14.5","","86","","22","","20","","12.9","","99.59","","","","","","Mostly Cloudy"
"1996-10-27 18:00","1996","10","27","18:00","15.7","","13.8","","88","","22","","17","","11.3","","99.62","","","","","","Mainly Clear"
"1996-10-27 19:00","1996","10","27","19:00","16.0","","14.1","","88","","22","","15","","11.3","","99.65","","","","","","Mostly Cloudy"
"1996-10-27 20:00","1996","10","27","20:00","15.8","","14.0","","89","","21","","11","","9.7","","99.59","","","","","","Fog"
"1996-10-27 21:00","1996","10","27","21:00","15.9","","14.0","","88","","22","","15","","9.7","","99.55","","","","","","Fog"
"1996-10-27 22:00","1996","10","27","22:00","16.4","","13.1","","81","","26","","17","","9.7","","99.55","","","","","","Haze"
"1996-10-27 23:00","1996","10","27","23:00","16.1","","11.6","","75","","27","","26","","11.3","","99.49","","","","","","Mostly Cloudy"
"1996-10-28 00:00","1996","10","28","00:00","14.4","","10.2","","76","","29","","15","","12.9","","99.49","","","","","","Mostly Cloudy"
"1996-10-28 01:00","1996","10","28","01:00","12.8","","7.4","","70","","30","","17","","16.1","","99.45","","","","","","Mostly Cloudy"
"1996-10-28 02:00","1996","10","28","02:00","11.9","","6.8","","71","","31","","15","","19.3","","99.45","","","","","","Cloudy"
"1996-10-28 03:00","1996","10","28","03:00","11.0","","7.4","","78","","30","","9","","19.3","","99.39","","","","","","Cloudy"
"1996-10-28 04:00","1996","10","28","04:00","11.0","","6.4","","73","","29","","15","","19.3","","99.39","","","","","","Cloudy"
"1996-10-28 05:00","1996","10","28","05:00","10.7","","6.5","","75","","28","","15","","19.3","","99.39","","","","","","Cloudy"
"1996-10-28 06:00","1996","10","28","06:00","10.5","","5.4","","71","","31","","17","","24.1","","99.42","","","","","","Mostly Cloudy"
"1996-10-28 07:00","1996","10","28","07:00","9.4","","4.6","","72","","30","","15","","32.2","","99.39","","","","","","Mostly Cloudy"
"1996-10-28 08:00","1996","10","28","08:00","9.0","","5.0","","76","","29","","15","","40.2","","99.39","","","","","","Mostly Cloudy"
"1996-10-28 09:00","1996","10","28","09:00","9.9","","5.1","","72","","28","","19","","40.2","","99.39","","","","","","Mostly Cloudy"
"1996-10-28 10:00","1996","10","28","10:00","8.9","","3.5","","69","","30","","37","","40.2","","99.49","","","","","","Rain Showers"
"1996-10-28 11:00","1996","10","28","11:00","10.0","","1.4","","55","","30","","32","","40.2","","99.45","","","","","","Mostly Cloudy"
"1996-10-28 12:00","1996","10","28","12:00","9.4","","0.9","","55","","30","","41","","40.2","","99.45","","","","","","Mostly Cloudy"
"1996-10-28 13:00","1996","10","28","13:00","10.0","","0.0","","50","","30","","28","","40.2","","99.35","","","","","","Mostly Cloudy"
"1996-10-28 14:00","1996","10","28","14:00","10.0","","1.1","","54","","31","","33","","40.2","","99.39","","","","","","Mainly Clear"
"1996-10-28 15:00","1996","10","28","15:00","10.0","","0.0","","50","","30","","33","","40.2","","99.39","","","","","","Mainly Clear"
"1996-10-28 16:00","1996","10","28","16:00","9.4","","0.3","","53","","31","","28","","40.2","","99.49","","","","","","Mainly Clear"
"1996-10-28 17:00","1996","10","28","17:00","8.3","","-0.4","","54","","30","","30","","40.2","","99.52","","","","","","Mainly Clear"
"1996-10-28 18:00","1996","10","28","18:00","7.3","","-0.3","","58","","30","","19","","25.0","","99.52","","","","","","Clear"
"1996-10-28 19:00","1996","10","28","19:00","6.6","","-0.6","","60","","29","","19","","25.0","","99.62","","","","","","Clear"
"1996-10-28 20:00","1996","10","28","20:00","4.6","","0.2","","73","","27","","6","","25.0","","99.62","","","","","","Clear"
"1996-10-28 21:00","1996","10","28","21:00","4.5","","0.1","","73","","24","","6","","25.0","","99.62","","","","","","Mainly Clear"
"1996-10-28 22:00","1996","10","28","22:00","3.8","","-0.2","","75","","24","","7","","25.0","","99.62","","","","","","Mostly Cloudy"
"1996-10-28 23:00","1996","10","28","23:00","3.5","","-0.1","","77","","26","","6","","25.0","","99.59","","","","","","Mainly Clear"
"1996-10-29 00:00","1996","10","29","00:00","3.1","","0.5","","83","","29","","6","","24.1","","99.59","","","","","","Clear"
"1996-10-29 01:00","1996","10","29","01:00","2.3","","-0.1","","84","","28","","6","","24.1","","99.59","","","","","","Clear"
"1996-10-29 02:00","1996","10","29","02:00","2.9","","-0.5","","78","","26","","9","","24.1","","99.62","","","","","","Clear"
"1996-10-29 03:00","1996","10","29","03:00","2.5","","-0.4","","81","","29","","4","","24.1","","99.59","","","","","","Clear"
"1996-10-29 04:00","1996","10","29","04:00","1.9","","-0.5","","84","","26","","6","","24.1","","99.62","","","","","","Clear"
"1996-10-29 05:00","1996","10","29","05:00","1.6","","-0.4","","87","","","","0","","19.3","","99.62","","","","","","Clear"
"1996-10-29 06:00","1996","10","29","06:00","1.9","","-0.3","","85","","","","0","","24.1","","99.62","","","","","","Clear"
"1996-10-29 07:00","1996","10","29","07:00","1.2","","-0.3","","90","","25","","4","","24.1","","99.62","","","","","","Clear"
"1996-10-29 08:00","1996","10","29","08:00","2.8","","0.2","","83","","","","0","","24.1","","99.69","","","","","","Clear"
"1996-10-29 09:00","1996","10","29","09:00","6.2","","1.8","","73","","25","","7","","24.1","","99.72","","","","","","Clear"
"1996-10-29 10:00","1996","10","29","10:00","9.2","","3.4","","67","","","","0","","32.2","","99.69","","","","","","Clear"
"1996-10-29 11:00","1996","10","29","11:00","9.6","","2.9","","63","","","","0","","32.2","","99.65","","","","","","Clear"
"1996-10-29 12:00","1996","10","29","12:00","10.5","","1.2","","52","","15","","11","","40.2","","99.55","","","","","","Mainly Clear"
"1996-10-29 13:00","1996","10","29","13:00","11.1","","2.6","","56","","15","","7","","40.2","","99.52","","","","","","Mostly Cloudy"
"1996-10-29 14:00","1996","10","29","14:00","10.2","","1.1","","53","","15","","15","","40.2","","99.49","","","","","","Mostly Cloudy"
"1996-10-29 15:00","1996","10","29","15:00","10.0","","0.6","","52","","12","","11","","40.2","","99.39","","","","","","Mostly Cloudy"
"1996-10-29 16:00","1996","10","29","16:00","9.6","","1.1","","55","","11","","11","","40.2","","99.35","","","","","","Mostly Cloudy"
"1996-10-29 17:00","1996","10","29","17:00","9.4","","-0.3","","51","","10","","13","","24.1","","99.29","","","","","","Mostly Cloudy"
"1996-10-29 18:00","1996","10","29","18:00","8.6","","2.2","","64","","10","","13","","24.1","","99.22","","","","","","Cloudy"
"1996-10-29 19:00","1996","10","29","19:00","8.7","","3.0","","67","","11","","11","","24.1","","99.19","","","","","","Cloudy"
"1996-10-29 20:00","1996","10","29","20:00","9.1","","3.5","","68","","11","","24","","24.1","","99.06","","","","","","Cloudy"
"1996-10-29 21:00","1996","10","29","21:00","8.5","","5.7","","83","","11","","22","","12.9","","99.02","","","","","","Rain"
"1996-10-29 22:00","1996","10","29","22:00","8.4","","6.2","","86","","11","","24","","16.1","","98.82","","","","","","Rain"
"1996-10-29 23:00","1996","10","29","23:00","8.6","","5.4","","80","","13","","30","","19.3","","98.52","","","","","","Rain"
"1996-10-30 00:00","1996","10","30","00:00","9.5","","5.8","","78","","15","","30","","16.1","","98.36","","","","","","Rain Showers"
"1996-10-30 01:00","1996","10","30","01:00","8.1","","7.1","","93","","12","","26","","8.0","","98.09","","","","","","Rain,Fog"
"1996-10-30 02:00","1996","10","30","02:00","8.4","","7.2","","92","","12","","35","","16.1","","97.76","","","","","","Cloudy"
"1996-10-30 03:00","1996","10","30","03:00","9.1","","7.4","","89","","12","","37","","8.0","","97.46","","","","","","Moderate Rain,Fog"
"1996-10-30 04:00","1996","10","30","04:00","8.9","","8.1","","95","","12","","22","","9.7","","97.39","","","","","","Rain Showers,Fog"
"1996-10-30 05:00","1996","10","30","05:00","9.9","","8.4","","90","","18","","20","","12.9","","97.26","","","","","","Rain Showers"
"1996-10-30 06:00","1996","10","30","06:00","9.9","","8.8","","93","","17","","7","","16.1","","97.19","","","","","","Mainly Clear"
"1996-10-30 07:00","1996","10","30","07:00","10.3","","9.0","","92","","17","","15","","16.1","","97.09","","","","","","Mainly Clear"
"1996-10-30 08:00","1996","10","30","08:00","12.0","","10.2","","89","","19","","22","","24.1","","97.09","","","","","","Mainly Clear"
"1996-10-30 09:00","1996","10","30","09:00","13.4","","10.6","","83","","19","","26","","24.1","","97.02","","","","","","Mostly Cloudy"
"1996-10-30 10:00","1996","10","30","10:00","14.7","","8.8","","68","","22","","37","","24.1","","96.92","","","","","","Cloudy"
"1996-10-30 11:00","1996","10","30","11:00","14.8","","7.9","","63","","24","","52","","24.1","","96.99","","","","","","Rain Showers"
"1996-10-30 12:00","1996","10","30","12:00","12.6","","7.8","","73","","25","","33","","24.1","","97.12","","","","","","Mostly Cloudy"
"1996-10-30 13:00","1996","10","30","13:00","12.5","","6.9","","69","","24","","33","","32.2","","97.26","","","","","","Cloudy"
"1996-10-30 14:00","1996","10","30","14:00","11.6","","6.9","","73","","25","","41","","24.1","","97.39","","","","","","Rain Showers"
"1996-10-30 15:00","1996","10","30","15:00","11.1","","6.3","","72","","25","","37","","24.1","","97.56","","","","","","Cloudy"
"1996-10-30 16:00","1996","10","30","16:00","10.0","","6.7","","80","","25","","33","","24.1","","97.79","","","","","","Rain Showers"
"1996-10-30 17:00","1996","10","30","17:00","9.2","","4.3","","71","","26","","32","","24.1","","97.92","","","","","","Cloudy"
"1996-10-30 18:00","1996","10","30","18:00","9.0","","2.7","","65","","26","","37","","24.1","","98.09","","","","","","Cloudy"
"1996-10-30 19:00","1996","10","30","19:00","8.7","","3.3","","69","","25","","30","","24.1","","98.19","","","","","","Rain Showers"
"1996-10-30 20:00","1996","10","30","20:00","8.5","","2.3","","65","","26","","26","","24.1","","98.22","","","","","","Mostly Cloudy"
"1996-10-30 21:00","1996","10","30","21:00","8.1","","2.3","","67","","25","","30","","24.1","","98.32","","","","","","Rain Showers"
"1996-10-30 22:00","1996","10","30","22:00","6.8","","0.7","","65","","26","","22","","25.0","","98.42","","","","","","Mostly Cloudy"
"1996-10-30 23:00","1996","10","30","23:00","6.2","","-1.4","","58","","26","","44","","25.0","","98.49","","","","","","Mostly Cloudy"
"1996-10-31 00:00","1996","10","31","00:00","5.0","","-1.5","","63","","28","","28","","25.0","","98.56","","","","","","Mostly Cloudy"
"1996-10-31 01:00","1996","10","31","01:00","4.6","","-3.3","","56","","25","","41","","25.0","","98.66","","","","","","Mostly Cloudy"
"1996-10-31 02:00","1996","10","31","02:00","3.4","","-4.3","","57","","28","","30","","25.0","","98.72","","","","","","Mostly Cloudy"
"1996-10-31 03:00","1996","10","31","03:00","2.7","","-4.3","","60","","29","","32","","25.0","","98.76","","","","","","Mostly Cloudy"
"1996-10-31 04:00","1996","10","31","04:00","2.0","","-4.7","","61","","27","","22","","25.0","","98.79","","","","","","Mostly Cloudy"
"1996-10-31 05:00","1996","10","31","05:00","2.0","","-3.4","","67","","23","","17","","25.0","","98.82","","","","","","Mostly Cloudy"
"1996-10-31 06:00","1996","10","31","06:00","1.0","","-4.2","","68","","24","","20","","25.0","","98.86","","","","","","Mostly Cloudy"
"1996-10-31 07:00","1996","10","31","07:00","0.7","","-3.7","","72","","23","","15","","24.1","","98.86","","","","","","Mostly Cloudy"
"1996-10-31 08:00","1996","10","31","08:00","1.5","","-3.8","","68","","25","","22","","32.2","","98.82","","","","","","Mostly Cloudy"
"1996-10-31 09:00","1996","10","31","09:00","1.8","","-2.8","","71","","25","","30","","32.2","","98.79","","","","","","Mostly Cloudy"
"1996-10-31 10:00","1996","10","31","10:00","2.5","","-3.2","","66","","25","","37","","32.2","","98.76","","","","","","Mostly Cloudy"
"1996-10-31 11:00","1996","10","31","11:00","1.0","","-2.4","","78","","26","","33","","16.1","","98.79","","","","","","Snow Showers"
"1996-10-31 12:00","1996","10","31","12:00","1.7","","-2.1","","76","","26","","48","","32.2","","98.79","","","","","","Mostly Cloudy"
"1996-10-31 13:00","1996","10","31","13:00","2.4","","-6.1","","53","","26","","41","","32.2","","98.79","","","","","","Mostly Cloudy"
"1996-10-31 14:00","1996","10","31","14:00","3.4","","-6.2","","49","","25","","37","","32.2","","98.79","","","","","","Mostly Cloudy"
"1996-10-31 15:00","1996","10","31","15:00","3.4","","-5.7","","51","","22","","28","","24.1","","98.76","","","","","","Mostly Cloudy"
"1996-10-31 16:00","1996","10","31","16:00","2.9","","-4.6","","58","","26","","37","","19.3","","98.76","","","","","","Mainly Clear"
"1996-10-31 17:00","1996","10","31","17:00","3.0","","-5.2","","55","","24","","33","","24.1","","98.72","","","","","","Mostly Cloudy"
"1996-10-31 18:00","1996","10","31","18:00","3.1","","-4.7","","57","","25","","28","","24.1","","98.76","","","","","","Mainly Clear"
"1996-10-31 19:00","1996","10","31","19:00","2.7","","-4.3","","60","","25","","35","","19.3","","98.79","","","","","","Mainly Clear"
"1996-10-31 20:00","1996","10","31","20:00","1.9","","-3.9","","65","","25","","19","","24.1","","98.79","","","","","","Mainly Clear"
"1996-10-31 21:00","1996","10","31","21:00","1.8","","-4.0","","65","","25","","19","","25.0","","98.79","","","","","","Mainly Clear"
"1996-10-31 22:00","1996","10","31","22:00","1.9","","-4.2","","64","","26","","11","","24.1","","98.82","","","","","","Mainly Clear"
"1996-10-31 23:00","1996","10","31","23:00","1.5","","-4.1","","66","","27","","33","","25.0","","98.82","","","","","","Mostly Cloudy"
