"Station Name","TORONTO LESTER B. PEARSON INT'L A"
"Province","ONTARIO"
"Latitude","43.68"
"Longitude","-79.63"
"Elevation","173.40"
"Climate Identifier","6158733"
"WMO Identifier","71624"
"TC Identifier","YYZ"
"All times are specified in Local Standard Time (LST). Add 1 hour to adjust for Daylight Saving Time where and when it is observed."

"Legend"
"E","Estimated"
"M","Missing"
"NA","Not Available"

"Date/Time","Year","Month","Day","Time","Temp (°C)","Temp Flag","Dew Point Temp (°C)","Dew Point Temp Flag","Rel Hum (%)","Rel Hum Flag","Wind Dir (10s deg)","Wind Dir Flag","Wind Spd (km/h)","Wind Spd Flag","Visibility (km)","Visibility Flag","Stn Press (kPa)","Stn Press Flag","Hmdx","Hmdx Flag","Wind Chill","Wind Chill Flag","Weather"
"1968-01-01 00:00","1968","01","01","00:00","-12.8","","-16.1","","76","","34","","27","","25.0","","99.77","","","","-23","","Mostly Cloudy"
"1968-01-01 01:00","1968","01","01","01:00","-13.3","","-15.6","","82","","34","","24","","19.3","","99.92","","","","-23","","Snow Showers"
"1968-01-01 02:00","1968","01","01","02:00","-14.4","","-17.2","","79","","34","","16","","25.0","","100.08","","","","-22","","Mostly Cloudy"
"1968-01-01 03:00","1968","01","01","03:00","-17.2","","-21.1","","76","","27","","6","","25.0","","100.23","","","","-22","","Mainly Clear"
"1968-01-01 04:00","1968","01","01","04:00","-18.3","","-21.7","","76","","29","","8","","25.0","","100.31","","","","-24","","Clear"
"1968-01-01 05:00","1968","01","01","05:00","-20.0","","-23.3","","76","","27","","5","","25.0","","100.35","","","","-24","","Clear"
"1968-01-01 06:00","1968","01","01","06:00","-20.6","","-23.3","","79","","27","","8","","25.0","","100.45","","","","-27","","Mainly Clear"
"1968-01-01 07:00","1968","01","01","07:00","-21.1","","-25.6","","68","","32","","5","","32.2","","100.50","","","","-26","","Clear"
"1968-01-01 08:00","1968","01","01","08:00","-20.6","","-24.4","","73","","36","","10","","32.2","","100.65","","","","-28","","Mainly Clear"
"1968-01-01 09:00","1968","01","01","09:00","-18.9","","-23.3","","67","","36","","6","","32.2","","100.70","","","","-24","","Mainly Clear"
"1968-01-01 10:00","1968","01","01","10:00","-16.1","","-20.0","","72","","36","","10","","32.2","","100.67","","","","-23","","Mainly Clear"
"1968-01-01 11:00","1968","01","01","11:00","-14.4","","-18.3","","73","","36","","10","","32.2","","100.70","","","","-21","","Mainly Clear"
"1968-01-01 12:00","1968","01","01","12:00","-13.9","","-17.8","","74","","","","0","","32.2","","100.70","","","","","","Mainly Clear"
"1968-01-01 13:00","1968","01","01","13:00","-13.3","","-17.2","","73","","","","0","","32.2","","100.64","","","","","","Mainly Clear"
"1968-01-01 14:00","1968","01","01","14:00","-12.2","","-15.6","","75","","32","","5","","32.2","","100.69","","","","-15","","Mainly Clear"
"1968-01-01 15:00","1968","01","01","15:00","-11.7","","-15.0","","76","","","","0","","32.2","","100.76","","","","","","Mainly Clear"
"1968-01-01 16:00","1968","01","01","16:00","-11.7","","-15.0","","76","","","","0","","32.2","","100.78","","","","","","Mostly Cloudy"
"1968-01-01 17:00","1968","01","01","17:00","-12.2","","-15.6","","76","","","","0","","32.2","","100.77","","","","","","Mostly Cloudy"
"1968-01-01 18:00","1968","01","01","18:00","-13.9","","-17.2","","78","","36","","3","","24.1","","100.81","","","","-16","","Mostly Cloudy"
"1968-01-01 19:00","1968","01","01","19:00","-13.3","","-16.1","","78","","5","","8","","24.1","","100.77","","","","-18","","Mostly Cloudy"
"1968-01-01 20:00","1968","01","01","20:00","-14.4","","-17.2","","79","","36","","6","","6.4","","100.77","","","","-19","","Snow Showers"
"1968-01-01 21:00","1968","01","01","21:00","-16.1","","-18.9","","79","","2","","6","","24.1","","100.72","","","","-21","","Mainly Clear"
"1968-01-01 22:00","1968","01","01","22:00","-17.8","","-20.0","","82","","34","","6","","24.1","","100.71","","","","-22","","Mainly Clear"
"1968-01-01 23:00","1968","01","01","23:00","-17.8","","-20.0","","82","","32","","8","","25.0","","100.69","","","","-24","","Mostly Cloudy"
"1968-01-02 00:00","1968","01","02","00:00","-16.1","","-18.9","","81","","","","0","","25.0","","100.69","","","","","","Mostly Cloudy"
"1968-01-02 01:00","1968","01","02","01:00","-13.9","","-15.6","","85","","5","","5","","19.3","","100.68","","","","-17","","Mostly Cloudy"
"1968-01-02 02:00","1968","01","02","02:00","-13.3","","-15.0","","86","","","","0","","19.3","","100.66","","","","","","Mostly Cloudy"
"1968-01-02 03:00","1968","01","02","03:00","-12.2","","-13.9","","87","","32","","3","","19.3","","100.68","","","","-14","","Cloudy"
"1968-01-02 04:00","1968","01","02","04:00","-12.2","","-13.9","","89","","32","","5","","16.1","","100.66","","","","-15","","Mostly Cloudy"
"1968-01-02 05:00","1968","01","02","05:00","-11.7","","-13.3","","89","","32","","3","","16.1","","100.59","","","","-14","","Cloudy"
"1968-01-02 06:00","1968","01","02","06:00","-10.6","","-12.2","","89","","7","","8","","12.9","","100.51","","","","-15","","Mostly Cloudy"
"1968-01-02 07:00","1968","01","02","07:00","-9.4","","-10.6","","90","","9","","3","","9.7","","100.52","","","","-11","","Fog"
"1968-01-02 08:00","1968","01","02","08:00","-8.9","","-10.0","","90","","36","","3","","9.7","","100.58","","","","-11","","Fog"
"1968-01-02 09:00","1968","01","02","09:00","-7.8","","-11.7","","74","","18","","13","","12.9","","100.60","","","","-14","","Cloudy"
"1968-01-02 10:00","1968","01","02","10:00","-7.2","","-12.2","","68","","20","","14","","12.9","","100.58","","","","-13","","Snow"
"1968-01-02 11:00","1968","01","02","11:00","-6.7","","-11.1","","69","","18","","24","","12.9","","100.53","","","","-14","","Snow"
"1968-01-02 12:00","1968","01","02","12:00","-6.1","","-11.1","","68","","18","","19","","16.1","","100.44","","","","-13","","Cloudy"
"1968-01-02 13:00","1968","01","02","13:00","-5.6","","-10.0","","70","","20","","21","","11.3","","100.36","","","","-12","","Cloudy"
"1968-01-02 14:00","1968","01","02","14:00","-5.6","","-8.9","","76","","20","","16","","8.0","","100.30","","","","-12","","Snow"
"1968-01-02 15:00","1968","01","02","15:00","-5.6","","-8.9","","78","","20","","13","","4.8","","100.34","","","","-11","","Snow"
"1968-01-02 16:00","1968","01","02","16:00","-5.6","","-8.9","","78","","18","","13","","3.2","","100.32","","","","-11","","Snow"
"1968-01-02 17:00","1968","01","02","17:00","-5.6","","-9.4","","75","","18","","11","","4.8","","100.34","","","","-10","","Snow"
"1968-01-02 18:00","1968","01","02","18:00","-5.6","","-9.4","","74","","18","","10","","12.9","","100.32","","","","-10","","Cloudy"
"1968-01-02 19:00","1968","01","02","19:00","-5.6","","-9.4","","74","","18","","8","","11.3","","100.35","","","","-9","","Cloudy"
"1968-01-02 20:00","1968","01","02","20:00","-5.6","","-8.9","","78","","18","","8","","11.3","","100.31","","","","-9","","Snow"
"1968-01-02 21:00","1968","01","02","21:00","-5.6","","-8.3","","81","","20","","11","","8.0","","100.29","","","","-10","","Snow"
"1968-01-02 22:00","1968","01","02","22:00","-5.6","","-8.3","","80","","20","","10","","12.9","","100.21","","","","-10","","Cloudy"
"1968-01-02 23:00","1968","01","02","23:00","-5.6","","-8.9","","78","","20","","8","","16.1","","100.14","","","","-9","","Snow"
"1968-01-03 00:00","1968","01","03","00:00","-5.6","","-8.9","","76","","16","","3","","16.1","","100.08","","","","-7","","Snow"
"1968-01-03 01:00","1968","01","03","01:00","-5.6","","-8.9","","79","","14","","6","","16.1","","100.04","","","","-8","","Cloudy"
"1968-01-03 02:00","1968","01","03","02:00","-5.6","","-8.9","","79","","","","0","","12.9","","100.03","","","","","","Cloudy"
"1968-01-03 03:00","1968","01","03","03:00","-5.0","","-7.2","","86","","","","0","","12.9","","99.98","","","","","","Mostly Cloudy"
"1968-01-03 04:00","1968","01","03","04:00","-5.0","","-7.8","","81","","5","","5","","12.9","","99.87","","","","-7","","Cloudy"
"1968-01-03 05:00","1968","01","03","05:00","-5.0","","-7.2","","84","","36","","3","","12.9","","99.72","","","","-6","","Cloudy"
"1968-01-03 06:00","1968","01","03","06:00","-5.0","","-6.1","","93","","36","","6","","12.9","","99.66","","","","-8","","Cloudy"
"1968-01-03 07:00","1968","01","03","07:00","-5.0","","-5.6","","94","","36","","5","","1.6","","99.62","","","","-7","","Snow Showers"
"1968-01-03 08:00","1968","01","03","08:00","-5.6","","-6.7","","93","","36","","13","","1.2","","99.62","","","","-11","","Snow"
"1968-01-03 09:00","1968","01","03","09:00","-5.6","","-6.7","","92","","36","","14","","1.6","","99.58","","","","-11","","Snow"
"1968-01-03 10:00","1968","01","03","10:00","-5.6","","-6.7","","92","","34","","11","","1.6","","99.55","","","","-10","","Snow"
"1968-01-03 11:00","1968","01","03","11:00","-5.0","","-6.1","","92","","34","","8","","2.0","","99.50","","","","-9","","Snow"
"1968-01-03 12:00","1968","01","03","12:00","-4.4","","-6.1","","88","","32","","3","","2.4","","99.41","","","","-6","","Snow,Fog"
"1968-01-03 13:00","1968","01","03","13:00","-3.9","","-6.1","","86","","20","","3","","3.2","","99.35","","","","-5","","Snow,Fog"
"1968-01-03 14:00","1968","01","03","14:00","-3.9","","-6.1","","84","","23","","8","","4.8","","99.41","","","","-7","","Fog"
"1968-01-03 15:00","1968","01","03","15:00","-3.3","","-5.6","","86","","23","","13","","4.0","","99.46","","","","-8","","Snow,Fog"
"1968-01-03 16:00","1968","01","03","16:00","-3.9","","-6.7","","79","","25","","14","","9.7","","99.50","","","","-9","","Haze"
"1968-01-03 17:00","1968","01","03","17:00","-5.6","","-8.9","","79","","25","","13","","12.9","","99.51","","","","-11","","Mainly Clear"
"1968-01-03 18:00","1968","01","03","18:00","-7.8","","-10.0","","84","","25","","10","","16.1","","99.54","","","","-13","","Mainly Clear"
"1968-01-03 19:00","1968","01","03","19:00","-8.9","","-10.6","","87","","25","","10","","16.1","","99.51","","","","-14","","Mainly Clear"
"1968-01-03 20:00","1968","01","03","20:00","-8.9","","-10.6","","87","","25","","10","","19.3","","99.48","","","","-14","","Mainly Clear"
"1968-01-03 21:00","1968","01","03","21:00","-10.0","","-11.1","","91","","27","","11","","19.3","","99.45","","","","-16","","Mostly Cloudy"
"1968-01-03 22:00","1968","01","03","22:00","-7.2","","-8.9","","87","","25","","8","","19.3","","99.41","","","","-11","","Cloudy"
"1968-01-03 23:00","1968","01","03","23:00","-7.2","","-9.4","","85","","20","","8","","24.1","","99.32","","","","-11","","Cloudy"
"1968-01-04 00:00","1968","01","04","00:00","-7.8","","-10.0","","84","","25","","8","","19.3","","99.24","","","","-12","","Mostly Cloudy"
"1968-01-04 01:00","1968","01","04","01:00","-7.2","","-8.9","","88","","23","","13","","12.9","","99.20","","","","-13","","Cloudy"
"1968-01-04 02:00","1968","01","04","02:00","-7.2","","-8.9","","88","","23","","10","","12.9","","99.11","","","","-12","","Cloudy"
"1968-01-04 03:00","1968","01","04","03:00","-6.7","","-9.4","","82","","23","","13","","8.0","","99.07","","","","-12","","Haze"
"1968-01-04 04:00","1968","01","04","04:00","-6.7","","-8.9","","85","","23","","11","","8.0","","98.98","","","","-12","","Fog"
"1968-01-04 05:00","1968","01","04","05:00","-6.7","","-8.9","","83","","18","","8","","8.0","","98.84","","","","-11","","Fog"
"1968-01-04 06:00","1968","01","04","06:00","-6.7","","-9.4","","82","","20","","14","","6.4","","98.74","","","","-12","","Snow,Haze"
"1968-01-04 07:00","1968","01","04","07:00","-6.7","","-7.8","","90","","20","","14","","1.6","","98.72","","","","-12","","Snow Showers"
"1968-01-04 08:00","1968","01","04","08:00","-6.7","","-7.8","","91","","23","","16","","1.6","","98.67","","","","-13","","Snow Showers,Fog"
"1968-01-04 09:00","1968","01","04","09:00","-6.7","","-8.3","","87","","25","","29","","1.6","","98.61","","","","-15","","Snow Showers,Blowing Snow"
"1968-01-04 10:00","1968","01","04","10:00","-7.2","","-8.9","","87","","23","","24","","6.4","","98.59","","","","-15","","Snow Showers,Fog"
"1968-01-04 11:00","1968","01","04","11:00","-7.8","","-10.6","","80","","25","","29","","9.7","","98.55","","","","-17","","Blowing Snow"
"1968-01-04 12:00","1968","01","04","12:00","-7.8","","-11.7","","74","","25","","29","","19.3","","98.49","","","","-17","","Mostly Cloudy"
"1968-01-04 13:00","1968","01","04","13:00","-8.3","","-11.7","","78","","25","","35","","16.1","","98.46","","","","-18","","Mostly Cloudy"
"1968-01-04 14:00","1968","01","04","14:00","-8.3","","-11.7","","77","","25","","37","","16.1","","98.44","","","","-18","","Mostly Cloudy"
"1968-01-04 15:00","1968","01","04","15:00","-8.9","","-12.2","","76","","25","","32","","19.3","","98.51","","","","-18","","Mostly Cloudy"
"1968-01-04 16:00","1968","01","04","16:00","-9.4","","-12.8","","76","","25","","29","","16.1","","98.58","","","","-19","","Mainly Clear"
"1968-01-04 17:00","1968","01","04","17:00","-10.0","","-12.8","","81","","25","","21","","4.8","","98.72","","","","-18","","Snow Showers,Blowing Snow"
"1968-01-04 18:00","1968","01","04","18:00","-10.0","","-12.8","","78","","25","","26","","25.0","","98.87","","","","-19","","Mainly Clear"
"1968-01-04 19:00","1968","01","04","19:00","-10.6","","-14.4","","74","","25","","29","","25.0","","98.98","","","","-20","","Mainly Clear"
"1968-01-04 20:00","1968","01","04","20:00","-11.1","","-14.4","","75","","25","","37","","25.0","","99.04","","","","-22","","Mainly Clear"
"1968-01-04 21:00","1968","01","04","21:00","-11.1","","-13.9","","78","","25","","40","","25.0","","99.16","","","","-22","","Clear"
"1968-01-04 22:00","1968","01","04","22:00","-10.6","","-13.9","","77","","27","","29","","25.0","","99.31","","","","-20","","Mainly Clear"
"1968-01-04 23:00","1968","01","04","23:00","-11.1","","-16.1","","67","","27","","43","","25.0","","99.48","","","","-23","","Clear"
"1968-01-05 00:00","1968","01","05","00:00","-11.7","","-16.1","","69","","27","","29","","25.0","","99.62","","","","-22","","Clear"
"1968-01-05 01:00","1968","01","05","01:00","-11.7","","-16.1","","71","","27","","29","","19.3","","99.76","","","","-22","","Clear"
"1968-01-05 02:00","1968","01","05","02:00","-11.7","","-15.0","","76","","27","","35","","19.3","","99.96","","","","-22","","Mainly Clear"
"1968-01-05 03:00","1968","01","05","03:00","-12.2","","-15.0","","78","","27","","26","","19.3","","100.08","","","","-22","","Mainly Clear"
"1968-01-05 04:00","1968","01","05","04:00","-12.8","","-15.0","","83","","27","","21","","19.3","","100.17","","","","-22","","Clear"
"1968-01-05 05:00","1968","01","05","05:00","-13.3","","-16.7","","75","","25","","21","","19.3","","100.20","","","","-22","","Clear"
"1968-01-05 06:00","1968","01","05","06:00","-13.9","","-16.1","","83","","27","","24","","24.1","","100.27","","","","-24","","Mainly Clear"
"1968-01-05 07:00","1968","01","05","07:00","-13.9","","-15.6","","85","","27","","26","","24.1","","100.35","","","","-24","","Mainly Clear"
"1968-01-05 08:00","1968","01","05","08:00","-13.9","","-16.1","","83","","27","","26","","24.1","","100.38","","","","-24","","Mostly Cloudy"
"1968-01-05 09:00","1968","01","05","09:00","-14.4","","-16.1","","87","","25","","23","","40.2","","100.52","","","","-24","","Mainly Clear"
"1968-01-05 10:00","1968","01","05","10:00","-13.3","","-16.1","","78","","25","","24","","40.2","","100.57","","","","-23","","Mainly Clear"
"1968-01-05 11:00","1968","01","05","11:00","-12.2","","-14.4","","83","","27","","26","","40.2","","100.57","","","","-22","","Mostly Cloudy"
"1968-01-05 12:00","1968","01","05","12:00","-11.7","","-15.6","","72","","25","","24","","40.2","","100.55","","","","-21","","Mostly Cloudy"
"1968-01-05 13:00","1968","01","05","13:00","-11.7","","-16.1","","71","","25","","23","","40.2","","100.52","","","","-21","","Cloudy"
"1968-01-05 14:00","1968","01","05","14:00","-11.7","","-16.1","","69","","27","","23","","40.2","","100.53","","","","-21","","Mostly Cloudy"
"1968-01-05 15:00","1968","01","05","15:00","-12.2","","-16.1","","71","","23","","19","","32.2","","100.50","","","","-20","","Mostly Cloudy"
"1968-01-05 16:00","1968","01","05","16:00","-12.2","","-17.2","","68","","23","","13","","16.1","","100.47","","","","-19","","Snow"
"1968-01-05 17:00","1968","01","05","17:00","-12.8","","-16.7","","72","","20","","8","","4.8","","100.39","","","","-18","","Snow"
"1968-01-05 18:00","1968","01","05","18:00","-12.8","","-15.6","","81","","18","","10","","11.3","","100.34","","","","-19","","Snow"
"1968-01-05 19:00","1968","01","05","19:00","-12.2","","-13.9","","87","","18","","6","","19.3","","100.31","","","","-16","","Snow"
"1968-01-05 20:00","1968","01","05","20:00","-11.7","","-13.9","","82","","20","","3","","19.3","","100.26","","","","-14","","Cloudy"
"1968-01-05 21:00","1968","01","05","21:00","-11.1","","-13.9","","80","","16","","5","","16.1","","100.16","","","","-14","","Cloudy"
"1968-01-05 22:00","1968","01","05","22:00","-10.0","","-12.8","","80","","16","","6","","12.9","","100.09","","","","-14","","Cloudy"
"1968-01-05 23:00","1968","01","05","23:00","-8.9","","-12.8","","73","","18","","14","","16.1","","100.06","","","","-15","","Cloudy"
"1968-01-06 00:00","1968","01","06","00:00","-7.8","","-12.2","","71","","18","","16","","16.1","","100.02","","","","-14","","Cloudy"
"1968-01-06 01:00","1968","01","06","01:00","-7.2","","-11.7","","71","","18","","16","","11.3","","100.02","","","","-14","","Snow"
"1968-01-06 02:00","1968","01","06","02:00","-7.2","","-11.1","","75","","18","","11","","11.3","","100.10","","","","-12","","Cloudy"
"1968-01-06 03:00","1968","01","06","03:00","-6.7","","-10.6","","74","","20","","11","","11.3","","100.14","","","","-12","","Cloudy"
"1968-01-06 04:00","1968","01","06","04:00","-6.1","","-9.4","","78","","23","","16","","8.0","","100.17","","","","-12","","Snow Showers"
"1968-01-06 05:00","1968","01","06","05:00","-6.1","","-8.9","","82","","23","","16","","11.3","","100.19","","","","-12","","Cloudy"
"1968-01-06 06:00","1968","01","06","06:00","-6.1","","-8.9","","80","","29","","26","","12.9","","100.28","","","","-14","","Cloudy"
"1968-01-06 07:00","1968","01","06","07:00","-6.7","","-11.1","","72","","27","","23","","19.3","","100.33","","","","-14","","Cloudy"
"1968-01-06 08:00","1968","01","06","08:00","-7.2","","-11.1","","75","","27","","21","","19.3","","100.41","","","","-15","","Cloudy"
"1968-01-06 09:00","1968","01","06","09:00","-7.2","","-11.7","","71","","29","","18","","40.2","","100.53","","","","-14","","Snow Showers"
"1968-01-06 10:00","1968","01","06","10:00","-7.2","","-11.1","","73","","27","","16","","40.2","","100.50","","","","-14","","Mostly Cloudy"
"1968-01-06 11:00","1968","01","06","11:00","-7.2","","-11.7","","69","","27","","13","","40.2","","100.45","","","","-13","","Mostly Cloudy"
"1968-01-06 12:00","1968","01","06","12:00","-6.7","","-11.7","","68","","27","","19","","40.2","","100.40","","","","-14","","Mostly Cloudy"
"1968-01-06 13:00","1968","01","06","13:00","-6.1","","-10.6","","72","","27","","14","","40.2","","100.41","","","","-12","","Mostly Cloudy"
"1968-01-06 14:00","1968","01","06","14:00","-5.6","","-10.6","","69","","29","","13","","40.2","","100.40","","","","-11","","Mostly Cloudy"
"1968-01-06 15:00","1968","01","06","15:00","-6.1","","-11.1","","69","","32","","11","","40.2","","100.36","","","","-11","","Mostly Cloudy"
"1968-01-06 16:00","1968","01","06","16:00","-6.1","","-10.0","","73","","34","","11","","40.2","","100.28","","","","-11","","Cloudy"
"1968-01-06 17:00","1968","01","06","17:00","-6.7","","-11.1","","69","","36","","16","","40.2","","100.27","","","","-13","","Cloudy"
"1968-01-06 18:00","1968","01","06","18:00","-7.8","","-11.7","","72","","36","","23","","25.0","","100.25","","","","-16","","Snow Showers"
"1968-01-06 19:00","1968","01","06","19:00","-8.9","","-11.1","","83","","36","","23","","2.4","","100.18","","","","-17","","Snow"
"1968-01-06 20:00","1968","01","06","20:00","-9.4","","-11.1","","87","","36","","18","","1.6","","100.09","","","","-17","","Snow"
"1968-01-06 21:00","1968","01","06","21:00","-9.4","","-11.7","","85","","36","","14","","1.6","","100.06","","","","-16","","Snow"
"1968-01-06 22:00","1968","01","06","22:00","-10.6","","-12.2","","89","","36","","18","","2.4","","100.03","","","","-18","","Snow"
"1968-01-06 23:00","1968","01","06","23:00","-10.6","","-12.2","","87","","34","","21","","4.0","","99.93","","","","-19","","Snow"
"1968-01-07 00:00","1968","01","07","00:00","-11.7","","-13.9","","84","","34","","27","","2.4","","99.90","","","","-21","","Snow"
"1968-01-07 01:00","1968","01","07","01:00","-12.8","","-15.0","","85","","34","","29","","3.2","","99.89","","","","-23","","Snow"
"1968-01-07 02:00","1968","01","07","02:00","-12.8","","-15.0","","83","","34","","26","","4.8","","99.92","","","","-23","","Snow"
"1968-01-07 03:00","1968","01","07","03:00","-12.8","","-15.0","","83","","32","","29","","6.4","","100.02","","","","-23","","Snow"
"1968-01-07 04:00","1968","01","07","04:00","-12.8","","-15.0","","85","","32","","24","","19.3","","100.06","","","","-22","","Cloudy"
"1968-01-07 05:00","1968","01","07","05:00","-13.9","","-16.1","","81","","32","","32","","16.1","","100.12","","","","-25","","Snow"
"1968-01-07 06:00","1968","01","07","06:00","-14.4","","-17.2","","81","","32","","24","","24.1","","100.24","","","","-24","","Mostly Cloudy"
"1968-01-07 07:00","1968","01","07","07:00","-16.1","","-20.0","","72","","29","","26","","24.1","","100.38","","","","-27","","Mainly Clear"
"1968-01-07 08:00","1968","01","07","08:00","-17.2","","-20.6","","75","","29","","27","","24.1","","100.56","","","","-28","","Mainly Clear"
"1968-01-07 09:00","1968","01","07","09:00","-17.2","","-21.7","","67","","32","","27","","24.1","","100.67","","","","-28","","Clear"
"1968-01-07 10:00","1968","01","07","10:00","-15.6","","-20.6","","64","","34","","26","","40.2","","100.74","","","","-26","","Clear"
"1968-01-07 11:00","1968","01","07","11:00","-15.0","","-21.1","","59","","29","","21","","40.2","","100.81","","","","-24","","Mainly Clear"
"1968-01-07 12:00","1968","01","07","12:00","-14.4","","-22.2","","51","","36","","13","","40.2","","100.83","","","","-22","","Mainly Clear"
"1968-01-07 13:00","1968","01","07","13:00","-15.0","","-20.0","","65","","36","","8","","40.2","","100.82","","","","-20","","Mainly Clear"
"1968-01-07 14:00","1968","01","07","14:00","-14.4","","-19.4","","65","","29","","6","","40.2","","100.82","","","","-19","","Mostly Cloudy"
"1968-01-07 15:00","1968","01","07","15:00","-13.9","","-18.9","","66","","27","","19","","40.2","","100.86","","","","-23","","Mostly Cloudy"
"1968-01-07 16:00","1968","01","07","16:00","-14.4","","-18.9","","69","","25","","11","","40.2","","100.88","","","","-21","","Mostly Cloudy"
"1968-01-07 17:00","1968","01","07","17:00","-14.4","","-16.7","","85","","27","","14","","1.6","","100.88","","","","-22","","Snow Showers"
"1968-01-07 18:00","1968","01","07","18:00","-15.0","","-19.4","","70","","25","","24","","25.0","","100.92","","","","-25","","Mainly Clear"
"1968-01-07 19:00","1968","01","07","19:00","-15.6","","-19.4","","71","","27","","24","","25.0","","100.97","","","","-26","","Mainly Clear"
"1968-01-07 20:00","1968","01","07","20:00","-16.1","","-19.4","","74","","25","","26","","25.0","","100.99","","","","-27","","Mainly Clear"
"1968-01-07 21:00","1968","01","07","21:00","-17.8","","-20.0","","84","","25","","21","","25.0","","101.01","","","","-28","","Mainly Clear"
"1968-01-07 22:00","1968","01","07","22:00","-17.8","","-20.0","","84","","25","","23","","25.0","","100.99","","","","-28","","Clear"
"1968-01-07 23:00","1968","01","07","23:00","-17.8","","-20.0","","84","","25","","19","","25.0","","101.00","","","","-27","","Mainly Clear"
"1968-01-08 00:00","1968","01","08","00:00","-18.3","","-20.6","","81","","23","","18","","25.0","","101.03","","","","-28","","Mainly Clear"
"1968-01-08 01:00","1968","01","08","01:00","-19.4","","-21.7","","83","","34","","14","","12.9","","101.15","","","","-28","","Snow Showers"
"1968-01-08 02:00","1968","01","08","02:00","-18.9","","-21.1","","83","","36","","16","","8.0","","101.26","","","","-28","","Snow Showers"
"1968-01-08 03:00","1968","01","08","03:00","-20.6","","-23.3","","79","","36","","14","","24.1","","101.44","","","","-29","","Mostly Cloudy"
"1968-01-08 04:00","1968","01","08","04:00","-22.2","","-24.4","","81","","34","","14","","25.0","","101.58","","","","-31","","Mainly Clear"
"1968-01-08 05:00","1968","01","08","05:00","-23.3","","-25.6","","83","","34","","14","","25.0","","101.66","","","","-33","","Clear"
"1968-01-08 06:00","1968","01","08","06:00","-25.0","","-27.8","","78","","34","","10","","25.0","","101.76","","","","-33","","Clear"
"1968-01-08 07:00","1968","01","08","07:00","-25.0","","-26.7","","87","","34","","13","","25.0","","101.82","","","","-34","","Mainly Clear"
"1968-01-08 08:00","1968","01","08","08:00","-25.0","","-28.3","","74","","36","","19","","40.2","","101.93","","","","-37","","Mainly Clear"
"1968-01-08 09:00","1968","01","08","09:00","-25.0","","-28.3","","74","","36","","21","","40.2","","102.06","","","","-37","","Mainly Clear"
"1968-01-08 10:00","1968","01","08","10:00","-24.4","","-28.3","","70","","34","","18","","40.2","","102.14","","","","-35","","Mainly Clear"
"1968-01-08 11:00","1968","01","08","11:00","-23.9","","-28.3","","67","","36","","19","","40.2","","102.16","","","","-35","","Clear"
"1968-01-08 12:00","1968","01","08","12:00","-22.8","","-26.1","","73","","34","","18","","40.2","","102.12","","","","-33","","Mainly Clear"
"1968-01-08 13:00","1968","01","08","13:00","-22.2","","-25.6","","73","","34","","11","","40.2","","102.13","","","","-30","","Mainly Clear"
"1968-01-08 14:00","1968","01","08","14:00","-21.1","","-24.4","","75","","36","","14","","40.2","","102.12","","","","-30","","Mainly Clear"
"1968-01-08 15:00","1968","01","08","15:00","-20.0","","-24.4","","67","","2","","16","","40.2","","102.12","","","","-29","","Mainly Clear"
"1968-01-08 16:00","1968","01","08","16:00","-20.0","","-23.9","","70","","36","","18","","40.2","","102.11","","","","-30","","Mainly Clear"
"1968-01-08 17:00","1968","01","08","17:00","-21.7","","-25.0","","74","","36","","11","","40.2","","102.10","","","","-30","","Mainly Clear"
"1968-01-08 18:00","1968","01","08","18:00","-22.2","","-25.0","","77","","34","","10","","25.0","","102.09","","","","-30","","Mainly Clear"
"1968-01-08 19:00","1968","01","08","19:00","-23.3","","-26.1","","80","","36","","10","","25.0","","102.08","","","","-31","","Mainly Clear"
"1968-01-08 20:00","1968","01","08","20:00","-24.4","","-27.2","","79","","32","","11","","25.0","","102.13","","","","-33","","Clear"
"1968-01-08 21:00","1968","01","08","21:00","-23.9","","-27.2","","75","","2","","14","","25.0","","102.02","","","","-34","","Mainly Clear"
"1968-01-08 22:00","1968","01","08","22:00","-23.3","","-26.1","","80","","32","","5","","25.0","","102.04","","","","-28","","Mostly Cloudy"
"1968-01-08 23:00","1968","01","08","23:00","-22.8","","-25.6","","76","","36","","10","","25.0","","101.95","","","","-31","","Mostly Cloudy"
"1968-01-09 00:00","1968","01","09","00:00","-23.3","","-26.1","","80","","36","","8","","25.0","","101.85","","","","-30","","Mostly Cloudy"
"1968-01-09 01:00","1968","01","09","01:00","-22.2","","-25.0","","77","","36","","8","","25.0","","101.84","","","","-29","","Mostly Cloudy"
"1968-01-09 02:00","1968","01","09","02:00","-22.8","","-25.6","","76","","36","","13","","25.0","","101.78","","","","-32","","Mainly Clear"
"1968-01-09 03:00","1968","01","09","03:00","-23.3","","-26.1","","80","","2","","16","","25.0","","101.68","","","","-33","","Mainly Clear"
"1968-01-09 04:00","1968","01","09","04:00","-21.1","","-24.4","","75","","5","","19","","16.1","","101.52","","","","-32","","Cloudy"
"1968-01-09 05:00","1968","01","09","05:00","-19.4","","-21.7","","83","","5","","19","","11.3","","101.38","","","","-29","","Cloudy"
"1968-01-09 06:00","1968","01","09","06:00","-18.9","","-21.1","","83","","7","","19","","3.2","","101.32","","","","-29","","Snow"
"1968-01-09 07:00","1968","01","09","07:00","-18.9","","-21.1","","83","","7","","19","","3.2","","101.28","","","","-29","","Snow"
"1968-01-09 08:00","1968","01","09","08:00","-17.8","","-20.0","","84","","5","","23","","1.2","","101.21","","","","-28","","Snow"
"1968-01-09 09:00","1968","01","09","09:00","-17.2","","-18.3","","89","","7","","13","","1.2","","101.17","","","","-25","","Snow"
"1968-01-09 10:00","1968","01","09","10:00","-16.1","","-17.8","","88","","5","","13","","1.2","","101.06","","","","-24","","Snow"
"1968-01-09 11:00","1968","01","09","11:00","-12.8","","-15.0","","85","","9","","31","","1.2","","100.88","","","","-23","","Snow"
"1968-01-09 12:00","1968","01","09","12:00","-15.0","","-16.7","","86","","5","","21","","1.2","","100.71","","","","-24","","Snow"
"1968-01-09 13:00","1968","01","09","13:00","-15.0","","-16.7","","86","","5","","16","","1.2","","100.53","","","","-23","","Snow"
"1968-01-09 14:00","1968","01","09","14:00","-11.7","","-13.3","","86","","9","","32","","1.2","","100.35","","","","-22","","Snow"
"1968-01-09 15:00","1968","01","09","15:00","-11.1","","-12.8","","86","","9","","32","","1.2","","100.25","","","","-21","","Snow,Blowing Snow"
"1968-01-09 16:00","1968","01","09","16:00","-11.7","","-13.3","","88","","11","","21","","1.2","","100.29","","","","-20","","Snow"
"1968-01-09 17:00","1968","01","09","17:00","-11.7","","-13.3","","86","","9","","16","","1.2","","100.25","","","","-19","","Snow"
"1968-01-09 18:00","1968","01","09","18:00","-14.4","","-16.7","","83","","2","","19","","2.4","","100.29","","","","-23","","Snow"
"1968-01-09 19:00","1968","01","09","19:00","-16.1","","-18.3","","83","","2","","19","","9.7","","100.25","","","","-25","","Snow"
"1968-01-09 20:00","1968","01","09","20:00","-16.7","","-19.4","","80","","36","","16","","9.7","","100.33","","","","-25","","Snow"
"1968-01-09 21:00","1968","01","09","21:00","-15.6","","-18.3","","79","","36","","13","","9.7","","100.37","","","","-23","","Snow"
"1968-01-09 22:00","1968","01","09","22:00","-17.2","","-19.4","","82","","36","","10","","25.0","","100.47","","","","-24","","Snow"
"1968-01-09 23:00","1968","01","09","23:00","-16.7","","-19.4","","80","","36","","11","","9.7","","100.48","","","","-24","","Snow"
"1968-01-10 00:00","1968","01","10","00:00","-17.2","","-19.4","","82","","36","","6","","9.7","","100.47","","","","-22","","Snow"
"1968-01-10 01:00","1968","01","10","01:00","-17.2","","-19.4","","85","","34","","10","","8.0","","100.55","","","","-24","","Snow"
"1968-01-10 02:00","1968","01","10","02:00","-16.7","","-18.9","","83","","36","","8","","9.7","","100.62","","","","-22","","Snow"
"1968-01-10 03:00","1968","01","10","03:00","-16.7","","-18.9","","83","","36","","13","","9.7","","100.68","","","","-24","","Snow"
"1968-01-10 04:00","1968","01","10","04:00","-16.1","","-18.9","","81","","36","","11","","8.0","","100.73","","","","-23","","Snow"
"1968-01-10 05:00","1968","01","10","05:00","-17.2","","-19.4","","85","","34","","14","","9.7","","100.81","","","","-25","","Snow"
"1968-01-10 06:00","1968","01","10","06:00","-16.1","","-18.3","","83","","36","","13","","4.8","","100.86","","","","-24","","Snow"
"1968-01-10 07:00","1968","01","10","07:00","-15.6","","-17.2","","86","","36","","13","","6.4","","100.92","","","","-23","","Snow"
"1968-01-10 08:00","1968","01","10","08:00","-15.0","","-17.2","","82","","2","","14","","9.7","","100.96","","","","-23","","Snow"
"1968-01-10 09:00","1968","01","10","09:00","-15.0","","-17.8","","80","","2","","18","","3.2","","101.07","","","","-24","","Snow Showers"
"1968-01-10 10:00","1968","01","10","10:00","-15.6","","-17.8","","82","","2","","16","","12.9","","101.12","","","","-24","","Snow Showers"
"1968-01-10 11:00","1968","01","10","11:00","-14.4","","-17.2","","79","","2","","18","","12.9","","101.12","","","","-23","","Snow Showers"
"1968-01-10 12:00","1968","01","10","12:00","-14.4","","-17.2","","81","","2","","19","","16.1","","101.10","","","","-23","","Mainly Clear"
"1968-01-10 13:00","1968","01","10","13:00","-15.0","","-17.8","","78","","2","","16","","19.3","","101.13","","","","-23","","Mainly Clear"
"1968-01-10 14:00","1968","01","10","14:00","-14.4","","-17.2","","79","","2","","19","","19.3","","101.16","","","","-23","","Mainly Clear"
"1968-01-10 15:00","1968","01","10","15:00","-14.4","","-17.2","","79","","2","","16","","19.3","","101.19","","","","-22","","Mainly Clear"
"1968-01-10 16:00","1968","01","10","16:00","-15.0","","-17.8","","78","","2","","19","","19.3","","101.20","","","","-24","","Mainly Clear"
"1968-01-10 17:00","1968","01","10","17:00","-14.4","","-17.2","","79","","36","","18","","6.4","","101.22","","","","-23","","Snow Showers"
"1968-01-10 18:00","1968","01","10","18:00","-15.6","","-18.3","","79","","36","","23","","12.9","","101.30","","","","-26","","Mostly Cloudy"
"1968-01-10 19:00","1968","01","10","19:00","-17.8","","-20.6","","79","","36","","18","","25.0","","101.38","","","","-27","","Mostly Cloudy"
"1968-01-10 20:00","1968","01","10","20:00","-16.7","","-20.0","","76","","36","","13","","12.9","","101.42","","","","-24","","Cloudy"
"1968-01-10 21:00","1968","01","10","21:00","-15.6","","-18.3","","79","","36","","11","","25.0","","101.47","","","","-22","","Cloudy"
"1968-01-10 22:00","1968","01","10","22:00","-15.0","","-18.3","","76","","36","","13","","25.0","","101.51","","","","-22","","Cloudy"
"1968-01-10 23:00","1968","01","10","23:00","-18.9","","-23.3","","69","","36","","13","","25.0","","101.52","","","","-27","","Mainly Clear"
"1968-01-11 00:00","1968","01","11","00:00","-19.4","","-23.9","","68","","36","","16","","25.0","","101.49","","","","-29","","Clear"
"1968-01-11 01:00","1968","01","11","01:00","-20.6","","-23.3","","79","","36","","18","","25.0","","101.53","","","","-31","","Clear"
"1968-01-11 02:00","1968","01","11","02:00","-21.1","","-23.3","","81","","2","","16","","25.0","","101.60","","","","-31","","Clear"
"1968-01-11 03:00","1968","01","11","03:00","-21.7","","-23.9","","81","","36","","16","","25.0","","101.62","","","","-31","","Clear"
"1968-01-11 04:00","1968","01","11","04:00","-21.7","","-25.0","","74","","36","","16","","25.0","","101.66","","","","-31","","Mainly Clear"
"1968-01-11 05:00","1968","01","11","05:00","-24.4","","-27.2","","79","","36","","16","","25.0","","101.64","","","","-35","","Mainly Clear"
"1968-01-11 06:00","1968","01","11","06:00","-23.3","","-26.7","","76","","36","","19","","25.0","","101.67","","","","-34","","Mainly Clear"
"1968-01-11 07:00","1968","01","11","07:00","-24.4","","-27.2","","79","","36","","16","","25.0","","101.73","","","","-35","","Mainly Clear"
"1968-01-11 08:00","1968","01","11","08:00","-25.6","","-28.3","","78","","36","","13","","32.2","","101.79","","","","-35","","Mainly Clear"
"1968-01-11 09:00","1968","01","11","09:00","-24.4","","-27.2","","79","","34","","16","","32.2","","101.91","","","","-35","","Clear"
"1968-01-11 10:00","1968","01","11","10:00","-22.8","","-25.6","","76","","36","","16","","32.2","","101.98","","","","-33","","Clear"
"1968-01-11 11:00","1968","01","11","11:00","-20.0","","-23.3","","76","","34","","16","","32.2","","102.02","","","","-29","","Clear"
"1968-01-11 12:00","1968","01","11","12:00","-19.4","","-22.8","","74","","34","","18","","32.2","","101.99","","","","-29","","Clear"
"1968-01-11 13:00","1968","01","11","13:00","-18.3","","-22.2","","73","","34","","16","","32.2","","101.98","","","","-27","","Clear"
"1968-01-11 14:00","1968","01","11","14:00","-18.3","","-21.7","","76","","34","","16","","32.2","","101.93","","","","-27","","Clear"
"1968-01-11 15:00","1968","01","11","15:00","-18.3","","-21.7","","76","","32","","18","","32.2","","101.92","","","","-28","","Clear"
"1968-01-11 16:00","1968","01","11","16:00","-18.9","","-22.8","","72","","32","","16","","32.2","","101.92","","","","-28","","Clear"
"1968-01-11 17:00","1968","01","11","17:00","-19.4","","-23.3","","71","","34","","19","","32.2","","101.95","","","","-29","","Clear"
"1968-01-11 18:00","1968","01","11","18:00","-20.0","","-24.4","","67","","34","","19","","25.0","","102.00","","","","-30","","Clear"
"1968-01-11 19:00","1968","01","11","19:00","-21.1","","-26.1","","65","","36","","16","","25.0","","101.94","","","","-31","","Clear"
"1968-01-11 20:00","1968","01","11","20:00","-23.3","","-28.3","","64","","34","","14","","25.0","","101.97","","","","-33","","Clear"
"1968-01-11 21:00","1968","01","11","21:00","-23.3","","-27.8","","68","","32","","10","","25.0","","102.02","","","","-31","","Clear"
"1968-01-11 22:00","1968","01","11","22:00","-22.8","","-27.2","","65","","36","","16","","25.0","","102.04","","","","-33","","Clear"
"1968-01-11 23:00","1968","01","11","23:00","-22.2","","-26.7","","66","","34","","16","","25.0","","102.05","","","","-32","","Clear"
"1968-01-12 00:00","1968","01","12","00:00","-22.2","","-26.1","","70","","34","","16","","25.0","","102.02","","","","-32","","Clear"
"1968-01-12 01:00","1968","01","12","01:00","-22.2","","-25.0","","77","","34","","16","","25.0","","101.98","","","","-32","","Clear"
"1968-01-12 02:00","1968","01","12","02:00","-23.3","","-26.1","","80","","34","","16","","25.0","","102.03","","","","-33","","Clear"
"1968-01-12 03:00","1968","01","12","03:00","-23.3","","-27.2","","72","","34","","16","","25.0","","102.04","","","","-33","","Clear"
"1968-01-12 04:00","1968","01","12","04:00","-23.3","","-26.7","","76","","34","","14","","25.0","","101.99","","","","-33","","Mainly Clear"
"1968-01-12 05:00","1968","01","12","05:00","-21.1","","-25.0","","72","","36","","18","","19.3","","101.94","","","","-31","","Mostly Cloudy"
"1968-01-12 06:00","1968","01","12","06:00","-21.1","","-24.4","","75","","2","","19","","11.3","","101.93","","","","-32","","Cloudy"
"1968-01-12 07:00","1968","01","12","07:00","-18.9","","-22.8","","72","","2","","19","","9.7","","101.92","","","","-29","","Snow Showers,Haze"
"1968-01-12 08:00","1968","01","12","08:00","-20.0","","-22.8","","79","","2","","16","","6.4","","101.91","","","","-29","","Snow Showers"
"1968-01-12 09:00","1968","01","12","09:00","-17.2","","-20.0","","80","","36","","16","","3.2","","102.01","","","","-26","","Snow Showers"
"1968-01-12 10:00","1968","01","12","10:00","-16.1","","-18.9","","79","","2","","16","","3.2","","102.05","","","","-25","","Snow Showers"
"1968-01-12 11:00","1968","01","12","11:00","-15.0","","-17.8","","78","","2","","16","","6.4","","102.01","","","","-23","","Snow Showers"
"1968-01-12 12:00","1968","01","12","12:00","-12.8","","-15.6","","79","","5","","19","","9.7","","101.90","","","","-21","","Snow Showers,Haze"
"1968-01-12 13:00","1968","01","12","13:00","-12.2","","-14.4","","82","","5","","16","","9.7","","101.84","","","","-20","","Haze"
"1968-01-12 14:00","1968","01","12","14:00","-11.7","","-14.4","","79","","5","","16","","11.3","","101.82","","","","-19","","Mostly Cloudy"
"1968-01-12 15:00","1968","01","12","15:00","-11.7","","-13.9","","82","","5","","18","","8.0","","101.77","","","","-20","","Snow Showers"
"1968-01-12 16:00","1968","01","12","16:00","-11.7","","-13.9","","84","","5","","18","","4.8","","101.73","","","","-20","","Snow Showers"
"1968-01-12 17:00","1968","01","12","17:00","-11.1","","-13.3","","85","","5","","16","","6.4","","101.67","","","","-18","","Snow Showers,Haze"
"1968-01-12 18:00","1968","01","12","18:00","-12.8","","-16.1","","77","","2","","16","","12.9","","101.64","","","","-20","","Mostly Cloudy"
"1968-01-12 19:00","1968","01","12","19:00","-12.8","","-16.7","","72","","2","","16","","24.1","","101.57","","","","-20","","Cloudy"
"1968-01-12 20:00","1968","01","12","20:00","-11.7","","-15.0","","76","","2","","16","","25.0","","101.53","","","","-19","","Cloudy"
"1968-01-12 21:00","1968","01","12","21:00","-11.1","","-14.4","","77","","2","","16","","25.0","","101.48","","","","-18","","Cloudy"
"1968-01-12 22:00","1968","01","12","22:00","-11.1","","-13.9","","78","","2","","18","","25.0","","101.46","","","","-19","","Mostly Cloudy"
"1968-01-12 23:00","1968","01","12","23:00","-11.1","","-13.9","","80","","5","","18","","25.0","","101.48","","","","-19","","Mostly Cloudy"
"1968-01-13 00:00","1968","01","13","00:00","-11.7","","-15.0","","77","","2","","18","","25.0","","101.43","","","","-20","","Mostly Cloudy"
"1968-01-13 01:00","1968","01","13","01:00","-12.8","","-15.0","","83","","5","","14","","24.1","","101.34","","","","-20","","Mostly Cloudy"
"1968-01-13 02:00","1968","01","13","02:00","-12.8","","-14.4","","88","","5","","16","","24.1","","101.33","","","","-20","","Mostly Cloudy"
"1968-01-13 03:00","1968","01","13","03:00","-10.6","","-11.7","","90","","7","","19","","24.1","","101.29","","","","-18","","Cloudy"
"1968-01-13 04:00","1968","01","13","04:00","-10.0","","-11.7","","89","","7","","19","","24.1","","101.23","","","","-18","","Cloudy"
"1968-01-13 05:00","1968","01","13","05:00","-8.3","","-9.4","","92","","7","","23","","24.1","","101.16","","","","-16","","Cloudy"
"1968-01-13 06:00","1968","01","13","06:00","-8.9","","-10.0","","92","","5","","18","","24.1","","101.12","","","","-16","","Cloudy"
"1968-01-13 07:00","1968","01","13","07:00","-8.9","","-10.0","","92","","5","","14","","16.1","","101.10","","","","-15","","Cloudy"
"1968-01-13 08:00","1968","01","13","08:00","-10.0","","-11.1","","92","","5","","11","","9.7","","101.14","","","","-16","","Fog"
"1968-01-13 09:00","1968","01","13","09:00","-8.9","","-10.0","","90","","5","","16","","6.4","","101.18","","","","-16","","Fog"
"1968-01-13 10:00","1968","01","13","10:00","-7.2","","-8.3","","92","","7","","21","","6.4","","101.17","","","","-15","","Fog"
"1968-01-13 11:00","1968","01","13","11:00","-6.7","","-7.8","","90","","5","","16","","8.0","","101.13","","","","-13","","Fog"
"1968-01-13 12:00","1968","01","13","12:00","-4.4","","-6.1","","90","","2","","13","","9.7","","101.01","","","","-9","","Fog"
"1968-01-13 13:00","1968","01","13","13:00","-3.3","","-5.6","","84","","7","","26","","11.3","","100.86","","","","-10","","Mostly Cloudy"
"1968-01-13 14:00","1968","01","13","14:00","-3.3","","-5.0","","88","","9","","23","","11.3","","100.80","","","","-10","","Mostly Cloudy"
"1968-01-13 15:00","1968","01","13","15:00","-3.3","","-5.0","","88","","9","","21","","11.3","","100.76","","","","-10","","Cloudy"
"1968-01-13 16:00","1968","01","13","16:00","-3.3","","-5.0","","87","","9","","19","","11.3","","100.76","","","","-9","","Mostly Cloudy"
"1968-01-13 17:00","1968","01","13","17:00","-2.8","","-4.4","","90","","9","","14","","9.7","","100.69","","","","-8","","Fog"
"1968-01-13 18:00","1968","01","13","18:00","-2.2","","-6.1","","76","","9","","29","","6.4","","100.66","","","","-9","","Snow Showers"
"1968-01-13 19:00","1968","01","13","19:00","-3.3","","-4.4","","91","","9","","11","","12.9","","100.58","","","","-8","","Snow Showers"
"1968-01-13 20:00","1968","01","13","20:00","-1.1","","-6.1","","70","","9","","23","","25.0","","100.56","","","","-7","","Cloudy"
"1968-01-13 21:00","1968","01","13","21:00","-1.7","","-4.4","","81","","9","","16","","25.0","","100.56","","","","-7","","Cloudy"
"1968-01-13 22:00","1968","01","13","22:00","-1.7","","-4.4","","82","","9","","19","","3.6","","100.52","","","","-7","","Snow Showers"
"1968-01-13 23:00","1968","01","13","23:00","-2.8","","-4.4","","86","","7","","16","","24.1","","100.45","","","","-8","","Cloudy"
"1968-01-14 00:00","1968","01","14","00:00","-3.3","","-5.6","","85","","7","","18","","24.1","","100.34","","","","-9","","Cloudy"
"1968-01-14 01:00","1968","01","14","01:00","-4.4","","-6.7","","84","","5","","18","","16.1","","100.27","","","","-10","","Cloudy"
"1968-01-14 02:00","1968","01","14","02:00","-4.4","","-7.2","","79","","7","","19","","19.3","","100.25","","","","-11","","Cloudy"
"1968-01-14 03:00","1968","01","14","03:00","-4.4","","-7.8","","76","","5","","19","","19.3","","100.17","","","","-11","","Cloudy"
"1968-01-14 04:00","1968","01","14","04:00","-3.3","","-6.1","","80","","5","","16","","19.3","","100.01","","","","-9","","Cloudy"
"1968-01-14 05:00","1968","01","14","05:00","-3.3","","-6.7","","79","","7","","23","","16.1","","99.93","","","","-10","","Freezing Rain,Ice Pellets"
"1968-01-14 06:00","1968","01","14","06:00","-3.3","","-6.1","","80","","7","","23","","24.1","","99.82","","","","-10","","Cloudy"
"1968-01-14 07:00","1968","01","14","07:00","-3.9","","-7.8","","76","","7","","23","","24.1","","99.72","","","","-11","","Cloudy"
"1968-01-14 08:00","1968","01","14","08:00","-3.9","","-7.8","","74","","7","","21","","32.2","","99.65","","","","-10","","Cloudy"
"1968-01-14 09:00","1968","01","14","09:00","-3.3","","-6.1","","81","","7","","23","","12.9","","99.63","","","","-10","","Freezing Rain"
"1968-01-14 10:00","1968","01","14","10:00","-3.3","","-6.1","","81","","7","","24","","11.3","","99.54","","","","-10","","Freezing Rain"
"1968-01-14 11:00","1968","01","14","11:00","-2.8","","-6.1","","79","","5","","29","","9.7","","99.49","","","","-10","","Freezing Rain"
"1968-01-14 12:00","1968","01","14","12:00","-2.8","","-5.6","","81","","7","","26","","8.0","","99.30","","","","-10","","Moderate Freezing Rain"
"1968-01-14 13:00","1968","01","14","13:00","-1.7","","-5.0","","79","","5","","23","","8.0","","99.13","","","","-8","","Moderate Freezing Rain"
"1968-01-14 14:00","1968","01","14","14:00","-1.7","","-3.3","","87","","5","","19","","6.4","","98.97","","","","-7","","Moderate Freezing Rain"
"1968-01-14 15:00","1968","01","14","15:00","-1.7","","-3.9","","84","","7","","11","","4.8","","98.94","","","","-6","","Moderate Freezing Rain,Fog"
"1968-01-14 16:00","1968","01","14","16:00","-1.7","","-3.3","","88","","7","","13","","3.2","","98.88","","","","-6","","Freezing Rain,Snow,Fog"
"1968-01-14 17:00","1968","01","14","17:00","-1.7","","-2.8","","91","","7","","11","","2.0","","98.80","","","","-6","","Snow,Fog"
"1968-01-14 18:00","1968","01","14","18:00","-1.7","","-1.7","","98","","5","","11","","1.2","","98.71","","","","-6","","Snow"
"1968-01-14 19:00","1968","01","14","19:00","-1.7","","-1.7","","99","","2","","10","","2.0","","98.56","","","","-5","","Snow"
"1968-01-14 20:00","1968","01","14","20:00","-1.1","","-1.1","","99","","2","","10","","2.0","","98.42","","","","-5","","Snow"
"1968-01-14 21:00","1968","01","14","21:00","-1.1","","-1.1","","99","","2","","10","","2.0","","98.26","","","","-5","","Snow"
"1968-01-14 22:00","1968","01","14","22:00","-1.1","","-1.1","","99","","2","","14","","2.4","","98.13","","","","-6","","Snow"
"1968-01-14 23:00","1968","01","14","23:00","-1.1","","-1.1","","99","","2","","16","","1.6","","97.99","","","","-6","","Snow"
"1968-01-15 00:00","1968","01","15","00:00","-1.1","","-1.1","","99","","2","","16","","0.8","","97.89","","","","-6","","Moderate Snow"
"1968-01-15 01:00","1968","01","15","01:00","-0.6","","-0.6","","99","","2","","14","","1.6","","97.80","","","","-5","","Snow"
"1968-01-15 02:00","1968","01","15","02:00","-0.6","","-0.6","","99","","2","","21","","2.0","","97.73","","","","-6","","Snow"
"1968-01-15 03:00","1968","01","15","03:00","-1.7","","-2.2","","97","","2","","21","","3.2","","97.72","","","","-8","","Snow"
"1968-01-15 04:00","1968","01","15","04:00","-2.8","","-3.3","","94","","2","","24","","2.4","","97.66","","","","-9","","Snow"
"1968-01-15 05:00","1968","01","15","05:00","-3.9","","-5.0","","93","","36","","24","","2.4","","97.62","","","","-11","","Snow"
"1968-01-15 06:00","1968","01","15","06:00","-4.4","","-5.0","","95","","36","","23","","4.0","","97.60","","","","-11","","Snow"
"1968-01-15 07:00","1968","01","15","07:00","-3.9","","-4.4","","94","","36","","24","","4.8","","97.63","","","","-11","","Snow,Blowing Snow"
"1968-01-15 08:00","1968","01","15","08:00","-4.4","","-5.6","","92","","36","","24","","4.8","","97.63","","","","-11","","Snow,Blowing Snow"
"1968-01-15 09:00","1968","01","15","09:00","-4.4","","-5.6","","92","","36","","24","","3.2","","97.71","","","","-11","","Snow,Blowing Snow"
"1968-01-15 10:00","1968","01","15","10:00","-6.7","","-7.8","","90","","36","","40","","2.4","","97.82","","","","-16","","Snow,Blowing Snow"
"1968-01-15 11:00","1968","01","15","11:00","-6.7","","-7.8","","91","","36","","42","","2.4","","97.93","","","","-17","","Snow,Blowing Snow"
"1968-01-15 12:00","1968","01","15","12:00","-8.3","","-10.0","","89","","36","","42","","2.4","","97.99","","","","-19","","Snow,Blowing Snow"
"1968-01-15 13:00","1968","01","15","13:00","-8.3","","-10.0","","89","","36","","43","","2.4","","98.06","","","","-19","","Blowing Snow"
"1968-01-15 14:00","1968","01","15","14:00","-8.9","","-10.6","","89","","36","","43","","2.4","","98.17","","","","-20","","Blowing Snow"
"1968-01-15 15:00","1968","01","15","15:00","-9.4","","-12.2","","81","","34","","45","","2.4","","98.33","","","","-20","","Blowing Snow"
"1968-01-15 16:00","1968","01","15","16:00","-10.0","","-12.8","","80","","34","","45","","2.4","","98.39","","","","-21","","Blowing Snow"
"1968-01-15 17:00","1968","01","15","17:00","-10.0","","-12.8","","78","","34","","45","","2.4","","98.60","","","","-21","","Blowing Snow"
"1968-01-15 18:00","1968","01","15","18:00","-11.7","","-14.4","","81","","34","","39","","4.0","","98.77","","","","-23","","Blowing Snow"
"1968-01-15 19:00","1968","01","15","19:00","-11.7","","-14.4","","79","","34","","21","","25.0","","98.96","","","","-20","","Clear"
"1968-01-15 20:00","1968","01","15","20:00","-12.8","","-16.1","","76","","34","","24","","25.0","","99.04","","","","-22","","Clear"
"1968-01-15 21:00","1968","01","15","21:00","-12.8","","-16.7","","74","","34","","24","","25.0","","99.14","","","","-22","","Clear"
"1968-01-15 22:00","1968","01","15","22:00","-15.0","","-17.8","","80","","34","","24","","25.0","","99.27","","","","-25","","Clear"
"1968-01-15 23:00","1968","01","15","23:00","-15.0","","-17.8","","80","","34","","24","","25.0","","99.40","","","","-25","","Clear"
"1968-01-16 00:00","1968","01","16","00:00","-16.1","","-18.9","","79","","34","","24","","25.0","","99.46","","","","-26","","Clear"
"1968-01-16 01:00","1968","01","16","01:00","-17.8","","-18.9","","92","","34","","16","","25.0","","99.58","","","","-27","","Clear"
"1968-01-16 02:00","1968","01","16","02:00","-17.8","","-20.6","","79","","34","","16","","25.0","","99.67","","","","-27","","Clear"
"1968-01-16 03:00","1968","01","16","03:00","-18.3","","-22.2","","70","","32","","18","","25.0","","99.76","","","","-28","","Clear"
"1968-01-16 04:00","1968","01","16","04:00","-18.9","","-22.2","","75","","34","","19","","25.0","","99.79","","","","-29","","Mostly Cloudy"
"1968-01-16 05:00","1968","01","16","05:00","-17.8","","-21.7","","71","","34","","21","","25.0","","99.87","","","","-28","","Mostly Cloudy"
"1968-01-16 06:00","1968","01","16","06:00","-18.3","","-21.1","","78","","34","","19","","25.0","","99.97","","","","-28","","Mostly Cloudy"
"1968-01-16 07:00","1968","01","16","07:00","-19.4","","-22.2","","77","","34","","21","","25.0","","100.06","","","","-30","","Mainly Clear"
"1968-01-16 08:00","1968","01","16","08:00","-18.9","","-21.7","","80","","34","","19","","40.2","","100.10","","","","-29","","Mainly Clear"
"1968-01-16 09:00","1968","01","16","09:00","-18.9","","-22.2","","75","","34","","16","","40.2","","100.23","","","","-28","","Mainly Clear"
"1968-01-16 10:00","1968","01","16","10:00","-18.3","","-21.7","","76","","36","","16","","40.2","","100.32","","","","-27","","Mostly Cloudy"
"1968-01-16 11:00","1968","01","16","11:00","-17.8","","-21.1","","76","","32","","14","","40.2","","100.41","","","","-26","","Mostly Cloudy"
"1968-01-16 12:00","1968","01","16","12:00","-16.1","","-21.1","","65","","34","","11","","40.2","","100.38","","","","-23","","Mostly Cloudy"
"1968-01-16 13:00","1968","01","16","13:00","-15.0","","-18.9","","74","","32","","10","","40.2","","100.33","","","","-21","","Mostly Cloudy"
"1968-01-16 14:00","1968","01","16","14:00","-13.3","","-17.2","","71","","32","","6","","40.2","","100.33","","","","-17","","Mostly Cloudy"
"1968-01-16 15:00","1968","01","16","15:00","-12.2","","-15.0","","78","","","","0","","40.2","","100.31","","","","","","Mostly Cloudy"
"1968-01-16 16:00","1968","01","16","16:00","-11.7","","-15.0","","77","","11","","13","","40.2","","100.31","","","","-18","","Mostly Cloudy"
"1968-01-16 17:00","1968","01","16","17:00","-11.1","","-13.9","","81","","14","","8","","12.9","","100.32","","","","-16","","Snow Showers"
"1968-01-16 18:00","1968","01","16","18:00","-10.6","","-12.2","","87","","16","","6","","16.1","","100.35","","","","-14","","Cloudy"
"1968-01-16 19:00","1968","01","16","19:00","-10.0","","-11.7","","88","","18","","10","","19.3","","100.36","","","","-15","","Cloudy"
"1968-01-16 20:00","1968","01","16","20:00","-10.0","","-11.7","","89","","18","","6","","19.3","","100.32","","","","-14","","Mostly Cloudy"
"1968-01-16 21:00","1968","01","16","21:00","-10.6","","-12.8","","85","","16","","5","","8.0","","100.26","","","","-14","","Snow Showers"
"1968-01-16 22:00","1968","01","16","22:00","-10.0","","-11.7","","88","","18","","6","","16.1","","100.24","","","","-14","","Mostly Cloudy"
"1968-01-16 23:00","1968","01","16","23:00","-9.4","","-11.7","","85","","18","","6","","19.3","","100.19","","","","-13","","Mostly Cloudy"
"1968-01-17 00:00","1968","01","17","00:00","-9.4","","-11.1","","87","","16","","10","","16.1","","100.15","","","","-15","","Mostly Cloudy"
"1968-01-17 01:00","1968","01","17","01:00","-8.3","","-10.0","","89","","18","","11","","16.1","","100.12","","","","-14","","Cloudy"
"1968-01-17 02:00","1968","01","17","02:00","-7.8","","-8.9","","90","","18","","10","","16.1","","100.13","","","","-13","","Cloudy"
"1968-01-17 03:00","1968","01","17","03:00","-7.2","","-9.4","","85","","16","","10","","24.1","","100.14","","","","-12","","Cloudy"
"1968-01-17 04:00","1968","01","17","04:00","-6.7","","-8.9","","85","","18","","16","","24.1","","100.12","","","","-13","","Cloudy"
"1968-01-17 05:00","1968","01","17","05:00","-6.7","","-9.4","","81","","18","","16","","24.1","","100.10","","","","-13","","Cloudy"
"1968-01-17 06:00","1968","01","17","06:00","-6.7","","-9.4","","81","","18","","18","","24.1","","100.12","","","","-13","","Cloudy"
"1968-01-17 07:00","1968","01","17","07:00","-6.1","","-8.9","","82","","20","","18","","19.3","","100.14","","","","-13","","Cloudy"
"1968-01-17 08:00","1968","01","17","08:00","-6.1","","-8.9","","82","","20","","19","","9.7","","100.17","","","","-13","","Fog"
"1968-01-17 09:00","1968","01","17","09:00","-6.1","","-8.3","","83","","18","","16","","9.7","","100.19","","","","-12","","Fog"
"1968-01-17 10:00","1968","01","17","10:00","-6.1","","-8.9","","80","","18","","19","","9.7","","100.21","","","","-13","","Fog"
"1968-01-17 11:00","1968","01","17","11:00","-5.0","","-7.8","","80","","20","","23","","9.7","","100.19","","","","-12","","Fog"
"1968-01-17 12:00","1968","01","17","12:00","-4.4","","-7.2","","81","","18","","27","","9.7","","100.11","","","","-12","","Fog"
"1968-01-17 13:00","1968","01","17","13:00","-3.9","","-6.7","","80","","18","","23","","9.7","","99.97","","","","-11","","Fog"
"1968-01-17 14:00","1968","01","17","14:00","-3.3","","-5.6","","85","","18","","18","","9.7","","99.96","","","","-9","","Fog"
"1968-01-17 15:00","1968","01","17","15:00","-2.8","","-5.0","","84","","18","","13","","4.8","","100.01","","","","-7","","Fog"
"1968-01-17 16:00","1968","01","17","16:00","-2.8","","-4.4","","86","","18","","19","","4.8","","100.00","","","","-9","","Fog"
"1968-01-17 17:00","1968","01","17","17:00","-2.8","","-5.0","","85","","18","","11","","4.8","","100.00","","","","-7","","Fog"
"1968-01-17 18:00","1968","01","17","18:00","-2.8","","-4.4","","86","","18","","13","","3.2","","100.02","","","","-7","","Fog"
"1968-01-17 19:00","1968","01","17","19:00","-3.3","","-4.4","","90","","18","","10","","4.8","","100.06","","","","-7","","Fog"
"1968-01-17 20:00","1968","01","17","20:00","-3.3","","-5.0","","89","","18","","13","","4.8","","100.04","","","","-8","","Fog"
"1968-01-17 21:00","1968","01","17","21:00","-3.9","","-5.0","","91","","18","","11","","6.4","","100.03","","","","-8","","Fog"
"1968-01-17 22:00","1968","01","17","22:00","-3.9","","-5.6","","88","","20","","10","","8.0","","100.05","","","","-8","","Fog"
"1968-01-17 23:00","1968","01","17","23:00","-3.9","","-5.6","","88","","18","","10","","8.0","","100.07","","","","-8","","Fog"
"1968-01-18 00:00","1968","01","18","00:00","-3.9","","-5.6","","88","","18","","10","","8.0","","100.09","","","","-8","","Fog"
"1968-01-18 01:00","1968","01","18","01:00","-4.4","","-5.6","","92","","18","","10","","8.0","","100.10","","","","-9","","Fog"
"1968-01-18 02:00","1968","01","18","02:00","-4.4","","-5.6","","93","","20","","10","","8.0","","100.11","","","","-9","","Fog"
"1968-01-18 03:00","1968","01","18","03:00","-5.0","","-5.6","","95","","18","","11","","8.0","","100.17","","","","-10","","Fog"
"1968-01-18 04:00","1968","01","18","04:00","-5.0","","-5.6","","97","","18","","8","","6.4","","100.18","","","","-9","","Fog"
"1968-01-18 05:00","1968","01","18","05:00","-5.6","","-6.1","","96","","18","","6","","6.4","","100.19","","","","-8","","Fog"
"1968-01-18 06:00","1968","01","18","06:00","-5.0","","-5.6","","98","","18","","6","","2.0","","100.21","","","","-8","","Fog"
"1968-01-18 07:00","1968","01","18","07:00","-5.6","","-6.1","","96","","20","","10","","6.4","","100.27","","","","-10","","Fog"
"1968-01-18 08:00","1968","01","18","08:00","-6.1","","-7.2","","93","","23","","8","","2.4","","100.30","","","","-10","","Fog"
"1968-01-18 09:00","1968","01","18","09:00","-3.3","","-5.0","","87","","18","","8","","4.0","","100.32","","","","-7","","Fog"
"1968-01-18 10:00","1968","01","18","10:00","-2.8","","-3.9","","91","","14","","10","","4.0","","100.34","","","","-7","","Fog"
"1968-01-18 11:00","1968","01","18","11:00","-1.1","","-2.8","","88","","16","","11","","4.0","","100.35","","","","-5","","Fog"
"1968-01-18 12:00","1968","01","18","12:00","1.1","","-1.7","","83","","23","","11","","4.8","","100.33","","","","","","Fog,Haze"
"1968-01-18 13:00","1968","01","18","13:00","1.1","","-1.1","","86","","23","","18","","4.8","","100.26","","","","","","Haze"
"1968-01-18 14:00","1968","01","18","14:00","1.1","","-0.6","","89","","20","","19","","4.8","","100.21","","","","","","Fog,Haze"
"1968-01-18 15:00","1968","01","18","15:00","1.1","","-0.6","","89","","20","","19","","4.8","","100.21","","","","","","Fog"
"1968-01-18 16:00","1968","01","18","16:00","1.7","","-0.6","","84","","20","","21","","4.8","","100.22","","","","","","Fog"
"1968-01-18 17:00","1968","01","18","17:00","1.7","","-0.6","","84","","20","","23","","6.4","","100.20","","","","","","Fog"
"1968-01-18 18:00","1968","01","18","18:00","1.1","","-1.1","","86","","23","","26","","9.7","","100.20","","","","","","Fog"
"1968-01-18 19:00","1968","01","18","19:00","0.6","","-1.7","","86","","20","","18","","11.3","","100.18","","","","","","Clear"
"1968-01-18 20:00","1968","01","18","20:00","1.1","","-1.7","","83","","16","","13","","12.9","","100.10","","","","","","Clear"
"1968-01-18 21:00","1968","01","18","21:00","2.2","","-1.1","","79","","20","","26","","12.9","","100.02","","","","","","Mostly Cloudy"
"1968-01-18 22:00","1968","01","18","22:00","2.8","","-1.1","","77","","23","","32","","12.9","","99.98","","","","","","Mostly Cloudy"
"1968-01-18 23:00","1968","01","18","23:00","2.8","","-1.1","","74","","20","","26","","12.9","","99.86","","","","","","Cloudy"
"1968-01-19 00:00","1968","01","19","00:00","3.3","","-1.7","","70","","23","","26","","12.9","","99.79","","","","","","Cloudy"
"1968-01-19 01:00","1968","01","19","01:00","2.8","","-1.7","","72","","23","","26","","12.9","","99.69","","","","","","Cloudy"
"1968-01-19 02:00","1968","01","19","02:00","2.8","","-1.7","","72","","23","","19","","12.9","","99.66","","","","","","Rain Showers"
"1968-01-19 03:00","1968","01","19","03:00","2.8","","-1.1","","74","","23","","19","","11.3","","99.61","","","","","","Rain Showers"
"1968-01-19 04:00","1968","01","19","04:00","2.2","","-2.2","","74","","23","","16","","4.8","","99.60","","","","","","Snow Showers"
"1968-01-19 05:00","1968","01","19","05:00","0.6","","0.0","","94","","18","","19","","3.2","","99.55","","","","","","Rain Showers,Fog"
"1968-01-19 06:00","1968","01","19","06:00","1.1","","0.6","","94","","23","","19","","9.7","","99.54","","","","","","Rain Showers,Fog"
"1968-01-19 07:00","1968","01","19","07:00","2.2","","0.0","","87","","27","","23","","11.3","","99.68","","","","","","Cloudy"
"1968-01-19 08:00","1968","01","19","08:00","2.2","","0.0","","84","","27","","27","","8.0","","99.73","","","","","","Fog"
"1968-01-19 09:00","1968","01","19","09:00","2.2","","-1.7","","76","","27","","29","","12.9","","99.79","","","","","","Rain Showers"
"1968-01-19 10:00","1968","01","19","10:00","2.2","","-1.1","","79","","27","","35","","16.1","","99.85","","","","","","Cloudy"
"1968-01-19 11:00","1968","01","19","11:00","2.2","","-2.2","","74","","27","","24","","40.2","","99.91","","","","","","Cloudy"
"1968-01-19 12:00","1968","01","19","12:00","1.7","","-2.8","","73","","29","","39","","40.2","","99.93","","","","","","Cloudy"
"1968-01-19 13:00","1968","01","19","13:00","1.7","","-2.8","","73","","27","","29","","40.2","","99.93","","","","","","Cloudy"
"1968-01-19 14:00","1968","01","19","14:00","2.2","","-2.2","","71","","27","","26","","40.2","","99.92","","","","","","Cloudy"
"1968-01-19 15:00","1968","01","19","15:00","1.7","","-2.8","","73","","27","","27","","40.2","","99.91","","","","","","Cloudy"
"1968-01-19 16:00","1968","01","19","16:00","1.7","","-2.8","","73","","27","","24","","40.2","","99.92","","","","","","Cloudy"
"1968-01-19 17:00","1968","01","19","17:00","1.1","","-2.2","","79","","27","","24","","24.1","","99.93","","","","","","Cloudy"
"1968-01-19 18:00","1968","01","19","18:00","1.1","","-2.2","","79","","27","","32","","19.3","","99.94","","","","","","Mostly Cloudy"
"1968-01-19 19:00","1968","01","19","19:00","0.6","","-3.3","","75","","27","","19","","24.1","","99.95","","","","","","Mainly Clear"
"1968-01-19 20:00","1968","01","19","20:00","0.0","","-3.3","","80","","27","","24","","24.1","","99.95","","","","-6","","Mainly Clear"
"1968-01-19 21:00","1968","01","19","21:00","0.0","","-3.3","","80","","25","","26","","24.1","","99.90","","","","-6","","Mainly Clear"
"1968-01-19 22:00","1968","01","19","22:00","-0.6","","-2.8","","85","","23","","16","","16.1","","99.84","","","","-5","","Mostly Cloudy"
"1968-01-19 23:00","1968","01","19","23:00","0.0","","-2.8","","83","","23","","23","","16.1","","99.82","","","","-6","","Mostly Cloudy"
"1968-01-20 00:00","1968","01","20","00:00","0.0","","-2.8","","83","","23","","18","","16.1","","99.72","","","","-5","","Mainly Clear"
"1968-01-20 01:00","1968","01","20","01:00","-0.6","","-2.8","","85","","23","","16","","19.3","","99.68","","","","-5","","Mainly Clear"
"1968-01-20 02:00","1968","01","20","02:00","-1.1","","-3.3","","85","","23","","11","","19.3","","99.67","","","","-5","","Mainly Clear"
"1968-01-20 03:00","1968","01","20","03:00","-2.2","","-5.0","","82","","23","","14","","19.3","","99.68","","","","-7","","Mainly Clear"
"1968-01-20 04:00","1968","01","20","04:00","-2.2","","-5.0","","81","","23","","19","","19.3","","99.61","","","","-8","","Mainly Clear"
"1968-01-20 05:00","1968","01","20","05:00","-2.2","","-5.0","","82","","20","","19","","19.3","","99.59","","","","-8","","Mainly Clear"
"1968-01-20 06:00","1968","01","20","06:00","-4.4","","-6.1","","86","","23","","19","","11.3","","99.59","","","","-11","","Mainly Clear"
"1968-01-20 07:00","1968","01","20","07:00","-4.4","","-6.1","","88","","23","","14","","11.3","","99.63","","","","-10","","Mainly Clear"
"1968-01-20 08:00","1968","01","20","08:00","-5.6","","-7.2","","89","","20","","16","","4.8","","99.64","","","","-12","","Fog"
"1968-01-20 09:00","1968","01","20","09:00","-4.4","","-6.1","","86","","20","","14","","4.8","","99.67","","","","-10","","Fog"
"1968-01-20 10:00","1968","01","20","10:00","-3.3","","-5.6","","84","","20","","19","","4.8","","99.71","","","","-9","","Fog"
"1968-01-20 11:00","1968","01","20","11:00","-2.2","","-4.4","","83","","18","","6","","4.8","","99.78","","","","-5","","Fog"
"1968-01-20 12:00","1968","01","20","12:00","-1.7","","-3.9","","85","","18","","8","","4.8","","99.72","","","","-5","","Fog"
"1968-01-20 13:00","1968","01","20","13:00","-0.6","","-2.8","","85","","20","","13","","4.8","","99.64","","","","-5","","Fog"
"1968-01-20 14:00","1968","01","20","14:00","0.0","","-2.2","","86","","23","","16","","4.8","","99.60","","","","-5","","Fog"
"1968-01-20 15:00","1968","01","20","15:00","0.0","","-2.2","","86","","23","","13","","4.8","","99.58","","","","-4","","Fog"
"1968-01-20 16:00","1968","01","20","16:00","0.6","","-1.7","","84","","23","","10","","4.8","","99.58","","","","","","Fog"
"1968-01-20 17:00","1968","01","20","17:00","0.0","","-2.2","","86","","23","","8","","4.8","","99.57","","","","-3","","Fog"
"1968-01-20 18:00","1968","01","20","18:00","-0.6","","-1.7","","91","","23","","8","","6.4","","99.54","","","","-3","","Fog"
"1968-01-20 19:00","1968","01","20","19:00","-0.6","","-2.2","","88","","25","","3","","6.4","","99.48","","","","-2","","Fog"
"1968-01-20 20:00","1968","01","20","20:00","-0.6","","-2.2","","88","","18","","11","","6.4","","99.40","","","","-4","","Fog"
"1968-01-20 21:00","1968","01","20","21:00","-0.6","","-2.2","","88","","20","","16","","6.4","","99.33","","","","-5","","Fog"
"1968-01-20 22:00","1968","01","20","22:00","-0.6","","-2.2","","88","","23","","11","","6.4","","99.20","","","","-4","","Fog"
"1968-01-20 23:00","1968","01","20","23:00","-0.6","","-2.2","","88","","20","","16","","4.8","","99.13","","","","-5","","Fog"
"1968-01-21 00:00","1968","01","21","00:00","0.0","","-1.7","","88","","23","","13","","4.8","","99.05","","","","-4","","Fog"
"1968-01-21 01:00","1968","01","21","01:00","0.0","","-1.1","","91","","23","","8","","6.4","","98.97","","","","-3","","Fog"
"1968-01-21 02:00","1968","01","21","02:00","-0.6","","-1.7","","91","","20","","18","","6.4","","98.90","","","","-6","","Fog"
"1968-01-21 03:00","1968","01","21","03:00","-0.6","","-1.7","","91","","23","","16","","6.4","","98.83","","","","-5","","Fog"
"1968-01-21 04:00","1968","01","21","04:00","-0.6","","-1.7","","93","","23","","11","","6.4","","98.82","","","","-4","","Fog"
"1968-01-21 05:00","1968","01","21","05:00","-0.6","","-2.2","","88","","27","","18","","6.4","","98.86","","","","-6","","Fog"
"1968-01-21 06:00","1968","01","21","06:00","0.0","","-1.7","","88","","27","","19","","9.7","","98.93","","","","-5","","Fog"
"1968-01-21 07:00","1968","01","21","07:00","1.7","","-1.7","","78","","29","","32","","16.1","","99.02","","","","","","Cloudy"
"1968-01-21 08:00","1968","01","21","08:00","0.6","","-1.1","","89","","29","","19","","11.3","","99.07","","","","","","Mainly Clear"
"1968-01-21 09:00","1968","01","21","09:00","-0.6","","-3.9","","79","","27","","19","","32.2","","99.24","","","","-6","","Mainly Clear"
"1968-01-21 10:00","1968","01","21","10:00","0.0","","-3.3","","77","","29","","19","","40.2","","99.37","","","","-5","","Mainly Clear"
"1968-01-21 11:00","1968","01","21","11:00","1.1","","-3.3","","71","","32","","19","","40.2","","99.49","","","","","","Mainly Clear"
"1968-01-21 12:00","1968","01","21","12:00","1.1","","-2.8","","76","","34","","26","","40.2","","99.57","","","","","","Mainly Clear"
"1968-01-21 13:00","1968","01","21","13:00","0.6","","-5.0","","67","","34","","24","","40.2","","99.63","","","","","","Mainly Clear"
"1968-01-21 14:00","1968","01","21","14:00","0.6","","-3.3","","75","","32","","23","","40.2","","99.66","","","","","","Mostly Cloudy"
"1968-01-21 15:00","1968","01","21","15:00","0.6","","-5.0","","67","","32","","16","","40.2","","99.64","","","","","","Mostly Cloudy"
"1968-01-21 16:00","1968","01","21","16:00","0.0","","-5.0","","69","","36","","13","","40.2","","99.74","","","","-4","","Mostly Cloudy"
"1968-01-21 17:00","1968","01","21","17:00","-1.7","","-6.7","","69","","36","","16","","40.2","","99.84","","","","-7","","Mainly Clear"
"1968-01-21 18:00","1968","01","21","18:00","-3.3","","-6.7","","78","","36","","13","","25.0","","99.90","","","","-8","","Mainly Clear"
"1968-01-21 19:00","1968","01","21","19:00","-3.9","","-6.7","","79","","34","","18","","25.0","","99.89","","","","-10","","Mainly Clear"
"1968-01-21 20:00","1968","01","21","20:00","-5.0","","-8.3","","79","","32","","10","","25.0","","99.90","","","","-9","","Mainly Clear"
"1968-01-21 21:00","1968","01","21","21:00","-5.6","","-8.3","","82","","29","","5","","25.0","","99.91","","","","-8","","Mainly Clear"
"1968-01-21 22:00","1968","01","21","22:00","-4.4","","-7.8","","78","","32","","8","","25.0","","99.89","","","","-8","","Mostly Cloudy"
"1968-01-21 23:00","1968","01","21","23:00","-4.4","","-6.7","","83","","","","0","","25.0","","99.90","","","","","","Mostly Cloudy"
"1968-01-22 00:00","1968","01","22","00:00","-3.3","","-6.1","","81","","16","","6","","25.0","","99.88","","","","-6","","Mostly Cloudy"
"1968-01-22 01:00","1968","01","22","01:00","-3.9","","-6.1","","86","","","","0","","25.0","","99.86","","","","","","Mostly Cloudy"
"1968-01-22 02:00","1968","01","22","02:00","-3.9","","-5.6","","87","","9","","3","","25.0","","99.84","","","","-5","","Mostly Cloudy"
"1968-01-22 03:00","1968","01","22","03:00","-2.8","","-5.0","","85","","11","","5","","19.3","","99.79","","","","-5","","Mostly Cloudy"
"1968-01-22 04:00","1968","01","22","04:00","-2.8","","-5.0","","84","","","","0","","19.3","","99.78","","","","","","Mostly Cloudy"
"1968-01-22 05:00","1968","01","22","05:00","-2.8","","-5.6","","82","","","","0","","19.3","","99.70","","","","","","Mostly Cloudy"
"1968-01-22 06:00","1968","01","22","06:00","-2.2","","-3.9","","88","","14","","8","","19.3","","99.63","","","","-5","","Mostly Cloudy"
"1968-01-22 07:00","1968","01","22","07:00","-2.8","","-4.4","","90","","14","","13","","19.3","","99.53","","","","-7","","Mostly Cloudy"
"1968-01-22 08:00","1968","01","22","08:00","-1.7","","-3.3","","89","","16","","13","","9.7","","99.43","","","","-6","","Fog"
"1968-01-22 09:00","1968","01","22","09:00","-1.1","","-1.7","","95","","16","","13","","3.2","","99.35","","","","-5","","Fog"
"1968-01-22 10:00","1968","01","22","10:00","-0.6","","-1.7","","91","","20","","19","","4.0","","99.27","","","","-6","","Fog"
"1968-01-22 11:00","1968","01","22","11:00","0.0","","-1.7","","88","","20","","32","","4.8","","99.16","","","","-7","","Fog"
"1968-01-22 12:00","1968","01","22","12:00","0.0","","-1.7","","88","","23","","29","","6.4","","99.09","","","","-6","","Fog"
"1968-01-22 13:00","1968","01","22","13:00","0.6","","-1.7","","84","","23","","23","","6.4","","99.02","","","","","","Fog"
"1968-01-22 14:00","1968","01","22","14:00","0.6","","-1.7","","86","","23","","29","","6.4","","98.91","","","","","","Fog"
"1968-01-22 15:00","1968","01","22","15:00","0.6","","-1.7","","86","","20","","23","","8.0","","98.88","","","","","","Fog"
"1968-01-22 16:00","1968","01","22","16:00","0.6","","-1.1","","89","","23","","19","","4.8","","98.86","","","","","","Fog"
"1968-01-22 17:00","1968","01","22","17:00","1.1","","-1.1","","86","","23","","18","","6.4","","98.83","","","","","","Fog"
"1968-01-22 18:00","1968","01","22","18:00","0.6","","-0.6","","91","","23","","21","","6.4","","98.87","","","","","","Fog"
"1968-01-22 19:00","1968","01","22","19:00","0.0","","-0.6","","97","","23","","21","","3.6","","98.85","","","","-5","","Snow Showers,Fog"
"1968-01-22 20:00","1968","01","22","20:00","0.6","","0.0","","94","","23","","24","","3.6","","98.85","","","","","","Snow,Fog"
"1968-01-22 21:00","1968","01","22","21:00","0.6","","0.0","","94","","20","","21","","4.8","","98.74","","","","","","Snow,Fog"
"1968-01-22 22:00","1968","01","22","22:00","0.6","","0.0","","94","","23","","16","","4.8","","98.68","","","","","","Snow,Fog"
"1968-01-22 23:00","1968","01","22","23:00","0.6","","-0.6","","91","","23","","16","","6.4","","98.65","","","","","","Fog"
"1968-01-23 00:00","1968","01","23","00:00","0.6","","0.0","","94","","23","","11","","4.0","","98.59","","","","","","Fog"
"1968-01-23 01:00","1968","01","23","01:00","0.6","","0.0","","94","","23","","10","","4.0","","98.55","","","","","","Drizzle,Fog"
"1968-01-23 02:00","1968","01","23","02:00","0.6","","0.0","","94","","23","","10","","6.4","","98.51","","","","","","Fog"
"1968-01-23 03:00","1968","01","23","03:00","0.6","","0.0","","94","","25","","10","","8.0","","98.51","","","","","","Fog"
"1968-01-23 04:00","1968","01","23","04:00","0.6","","0.0","","94","","27","","19","","25.0","","98.52","","","","","","Cloudy"
"1968-01-23 05:00","1968","01","23","05:00","0.0","","-1.1","","91","","27","","21","","25.0","","98.51","","","","-5","","Mostly Cloudy"
"1968-01-23 06:00","1968","01","23","06:00","0.0","","-1.1","","91","","32","","29","","25.0","","98.58","","","","-6","","Mostly Cloudy"
"1968-01-23 07:00","1968","01","23","07:00","-3.9","","-6.1","","85","","32","","27","","25.0","","98.71","","","","-11","","Mostly Cloudy"
"1968-01-23 08:00","1968","01","23","08:00","-5.0","","-7.8","","81","","34","","27","","32.2","","98.80","","","","-13","","Mostly Cloudy"
"1968-01-23 09:00","1968","01","23","09:00","-6.1","","-8.3","","83","","34","","29","","32.2","","98.85","","","","-14","","Mostly Cloudy"
"1968-01-23 10:00","1968","01","23","10:00","-7.2","","-10.6","","76","","32","","35","","32.2","","98.91","","","","-16","","Mainly Clear"
"1968-01-23 11:00","1968","01","23","11:00","-7.8","","-11.1","","78","","32","","29","","32.2","","98.99","","","","-17","","Mainly Clear"
"1968-01-23 12:00","1968","01","23","12:00","-8.3","","-11.7","","75","","32","","32","","32.2","","99.05","","","","-18","","Mainly Clear"
"1968-01-23 13:00","1968","01","23","13:00","-8.3","","-11.7","","77","","32","","32","","24.1","","99.06","","","","-18","","Mostly Cloudy"
"1968-01-23 14:00","1968","01","23","14:00","-8.3","","-11.7","","75","","32","","31","","24.1","","99.08","","","","-17","","Mostly Cloudy"
"1968-01-23 15:00","1968","01","23","15:00","-8.3","","-13.3","","68","","32","","31","","24.1","","99.15","","","","-17","","Mostly Cloudy"
"1968-01-23 16:00","1968","01","23","16:00","-9.4","","-13.3","","73","","32","","31","","24.1","","99.24","","","","-19","","Mostly Cloudy"
"1968-01-23 17:00","1968","01","23","17:00","-10.0","","-13.9","","74","","32","","24","","32.2","","99.33","","","","-19","","Mostly Cloudy"
"1968-01-23 18:00","1968","01","23","18:00","-10.0","","-13.9","","74","","29","","16","","25.0","","99.42","","","","-17","","Mostly Cloudy"
"1968-01-23 19:00","1968","01","23","19:00","-10.6","","-14.4","","74","","32","","18","","25.0","","99.51","","","","-18","","Snow Showers"
"1968-01-23 20:00","1968","01","23","20:00","-11.7","","-15.6","","72","","34","","18","","19.3","","99.60","","","","-20","","Mostly Cloudy"
"1968-01-23 21:00","1968","01","23","21:00","-14.4","","-16.7","","83","","32","","8","","25.0","","99.64","","","","-20","","Mostly Cloudy"
"1968-01-23 22:00","1968","01","23","22:00","-15.0","","-17.2","","84","","32","","11","","25.0","","99.71","","","","-22","","Mainly Clear"
"1968-01-23 23:00","1968","01","23","23:00","-15.6","","-17.8","","84","","29","","10","","25.0","","99.76","","","","-22","","Mainly Clear"
"1968-01-24 00:00","1968","01","24","00:00","-16.1","","-18.9","","81","","32","","18","","25.0","","99.80","","","","-25","","Mainly Clear"
"1968-01-24 01:00","1968","01","24","01:00","-17.2","","-20.0","","80","","32","","11","","25.0","","99.79","","","","-24","","Mainly Clear"
"1968-01-24 02:00","1968","01","24","02:00","-17.2","","-20.0","","80","","32","","19","","25.0","","99.82","","","","-27","","Mainly Clear"
"1968-01-24 03:00","1968","01","24","03:00","-17.8","","-20.0","","82","","32","","11","","25.0","","99.86","","","","-25","","Mainly Clear"
"1968-01-24 04:00","1968","01","24","04:00","-17.8","","-20.0","","82","","32","","13","","25.0","","99.89","","","","-26","","Mainly Clear"
"1968-01-24 05:00","1968","01","24","05:00","-17.8","","-20.0","","82","","34","","13","","25.0","","99.87","","","","-26","","Mainly Clear"
"1968-01-24 06:00","1968","01","24","06:00","-19.4","","-22.2","","77","","32","","8","","25.0","","99.93","","","","-26","","Clear"
"1968-01-24 07:00","1968","01","24","07:00","-20.0","","-22.2","","82","","34","","14","","25.0","","99.98","","","","-29","","Clear"
"1968-01-24 08:00","1968","01","24","08:00","-20.6","","-22.8","","82","","32","","13","","32.2","","100.07","","","","-29","","Clear"
"1968-01-24 09:00","1968","01","24","09:00","-18.3","","-20.6","","81","","36","","29","","32.2","","99.95","","","","-30","","Mostly Cloudy"
"1968-01-24 10:00","1968","01","24","10:00","-17.8","","-20.0","","82","","36","","23","","32.2","","100.02","","","","-28","","Mostly Cloudy"
"1968-01-24 11:00","1968","01","24","11:00","-17.2","","-19.4","","82","","34","","26","","32.2","","100.02","","","","-28","","Mostly Cloudy"
"1968-01-24 12:00","1968","01","24","12:00","-16.7","","-18.9","","83","","36","","21","","24.1","","99.98","","","","-27","","Mostly Cloudy"
"1968-01-24 13:00","1968","01","24","13:00","-16.1","","-18.3","","83","","34","","16","","24.1","","99.99","","","","-25","","Mostly Cloudy"
"1968-01-24 14:00","1968","01","24","14:00","-15.0","","-17.2","","82","","36","","19","","24.1","","99.97","","","","-24","","Mostly Cloudy"
"1968-01-24 15:00","1968","01","24","15:00","-14.4","","-16.7","","85","","34","","16","","24.1","","100.00","","","","-22","","Mostly Cloudy"
"1968-01-24 16:00","1968","01","24","16:00","-13.9","","-15.6","","85","","36","","16","","24.1","","99.99","","","","-22","","Mainly Clear"
"1968-01-24 17:00","1968","01","24","17:00","-15.0","","-17.2","","84","","36","","11","","24.1","","100.00","","","","-22","","Mostly Cloudy"
"1968-01-24 18:00","1968","01","24","18:00","-15.6","","-17.8","","84","","36","","18","","24.1","","100.00","","","","-24","","Mostly Cloudy"
"1968-01-24 19:00","1968","01","24","19:00","-16.1","","-17.8","","85","","36","","14","","25.0","","100.01","","","","-24","","Mainly Clear"
"1968-01-24 20:00","1968","01","24","20:00","-16.7","","-19.4","","80","","36","","13","","25.0","","99.99","","","","-24","","Mainly Clear"
"1968-01-24 21:00","1968","01","24","21:00","-18.3","","-21.7","","76","","36","","10","","25.0","","99.99","","","","-25","","Mainly Clear"
"1968-01-24 22:00","1968","01","24","22:00","-20.0","","-23.3","","76","","34","","10","","25.0","","99.98","","","","-27","","Clear"
"1968-01-24 23:00","1968","01","24","23:00","-19.4","","-22.8","","74","","36","","13","","25.0","","99.98","","","","-28","","Mainly Clear"
"1968-01-25 00:00","1968","01","25","00:00","-20.0","","-23.3","","73","","34","","14","","25.0","","100.00","","","","-29","","Clear"
"1968-01-25 01:00","1968","01","25","01:00","-20.0","","-24.4","","67","","36","","14","","25.0","","99.96","","","","-29","","Clear"
"1968-01-25 02:00","1968","01","25","02:00","-19.4","","-23.3","","71","","36","","14","","25.0","","99.90","","","","-28","","Clear"
"1968-01-25 03:00","1968","01","25","03:00","-18.9","","-21.7","","78","","36","","16","","12.9","","99.90","","","","-28","","Snow Showers"
"1968-01-25 04:00","1968","01","25","04:00","-17.2","","-21.7","","70","","36","","16","","12.9","","99.90","","","","-26","","Mostly Cloudy"
"1968-01-25 05:00","1968","01","25","05:00","-18.9","","-22.2","","75","","34","","18","","12.9","","99.88","","","","-29","","Snow Showers"
"1968-01-25 06:00","1968","01","25","06:00","-18.3","","-21.7","","76","","36","","16","","12.9","","99.87","","","","-27","","Snow Showers"
"1968-01-25 07:00","1968","01","25","07:00","-18.9","","-22.2","","75","","36","","16","","12.9","","99.89","","","","-28","","Mostly Cloudy"
"1968-01-25 08:00","1968","01","25","08:00","-20.6","","-23.9","","76","","34","","16","","40.2","","99.88","","","","-30","","Mainly Clear"
"1968-01-25 09:00","1968","01","25","09:00","-19.4","","-22.2","","80","","34","","16","","24.1","","99.88","","","","-29","","Mainly Clear"
"1968-01-25 10:00","1968","01","25","10:00","-18.3","","-20.6","","84","","34","","16","","19.3","","99.88","","","","-27","","Mainly Clear"
"1968-01-25 11:00","1968","01","25","11:00","-17.2","","-19.4","","85","","34","","14","","19.3","","99.91","","","","-25","","Mainly Clear"
"1968-01-25 12:00","1968","01","25","12:00","-13.9","","-15.6","","85","","36","","13","","16.1","","99.86","","","","-21","","Mainly Clear"
"1968-01-25 13:00","1968","01","25","13:00","-12.8","","-14.4","","88","","34","","13","","16.1","","99.79","","","","-20","","Mainly Clear"
"1968-01-25 14:00","1968","01","25","14:00","-11.7","","-13.3","","89","","36","","14","","8.0","","99.73","","","","-19","","Snow Showers,Fog"
"1968-01-25 15:00","1968","01","25","15:00","-11.1","","-13.9","","80","","36","","16","","4.0","","99.74","","","","-18","","Snow"
"1968-01-25 16:00","1968","01","25","16:00","-11.1","","-13.9","","80","","2","","16","","9.7","","99.72","","","","-18","","Snow"
"1968-01-25 17:00","1968","01","25","17:00","-11.7","","-14.4","","79","","2","","11","","12.9","","99.71","","","","-18","","Snow"
"1968-01-25 18:00","1968","01","25","18:00","-11.7","","-15.0","","77","","36","","13","","12.9","","99.74","","","","-18","","Snow"
"1968-01-25 19:00","1968","01","25","19:00","-12.2","","-15.0","","78","","2","","11","","16.1","","99.71","","","","-18","","Snow"
"1968-01-25 20:00","1968","01","25","20:00","-13.3","","-15.0","","86","","29","","6","","4.8","","99.71","","","","-17","","Snow"
"1968-01-25 21:00","1968","01","25","21:00","-15.0","","-17.2","","84","","32","","10","","11.3","","99.72","","","","-21","","Snow Showers"
"1968-01-25 22:00","1968","01","25","22:00","-15.0","","-17.2","","82","","32","","8","","12.9","","99.70","","","","-20","","Snow Showers"
"1968-01-25 23:00","1968","01","25","23:00","-12.8","","-14.4","","88","","34","","6","","16.1","","99.73","","","","-17","","Snow"
"1968-01-26 00:00","1968","01","26","00:00","-12.8","","-14.4","","86","","29","","2","","12.9","","99.73","","","","-14","","Snow"
"1968-01-26 01:00","1968","01","26","01:00","-12.2","","-13.9","","87","","","","0","","12.9","","99.73","","","","","","Cloudy"
"1968-01-26 02:00","1968","01","26","02:00","-11.1","","-12.8","","86","","27","","3","","12.9","","99.78","","","","-13","","Cloudy"
"1968-01-26 03:00","1968","01","26","03:00","-10.6","","-12.2","","87","","25","","5","","12.9","","99.82","","","","-14","","Cloudy"
"1968-01-26 04:00","1968","01","26","04:00","-10.0","","-11.7","","88","","25","","5","","12.9","","99.82","","","","-13","","Cloudy"
"1968-01-26 05:00","1968","01","26","05:00","-10.0","","-11.7","","88","","20","","8","","12.9","","99.85","","","","-14","","Cloudy"
"1968-01-26 06:00","1968","01","26","06:00","-9.4","","-11.1","","88","","18","","10","","12.9","","99.82","","","","-15","","Mostly Cloudy"
"1968-01-26 07:00","1968","01","26","07:00","-9.4","","-11.1","","87","","18","","11","","12.9","","99.90","","","","-15","","Cloudy"
"1968-01-26 08:00","1968","01","26","08:00","-8.9","","-10.6","","87","","20","","13","","6.4","","99.99","","","","-15","","Fog"
"1968-01-26 09:00","1968","01","26","09:00","-8.3","","-10.6","","84","","20","","11","","4.8","","99.98","","","","-14","","Snow,Fog"
"1968-01-26 10:00","1968","01","26","10:00","-7.8","","-8.9","","90","","20","","14","","8.0","","99.96","","","","-14","","Snow,Fog"
"1968-01-26 11:00","1968","01","26","11:00","-7.2","","-10.0","","81","","23","","14","","8.0","","100.04","","","","-13","","Snow,Haze"
"1968-01-26 12:00","1968","01","26","12:00","-6.1","","-8.3","","83","","23","","16","","6.4","","100.04","","","","-12","","Snow,Fog"
"1968-01-26 13:00","1968","01","26","13:00","-5.6","","-8.3","","80","","20","","14","","4.8","","99.99","","","","-11","","Snow"
"1968-01-26 14:00","1968","01","26","14:00","-4.4","","-7.2","","81","","20","","11","","3.2","","100.00","","","","-9","","Snow,Haze"
"1968-01-26 15:00","1968","01","26","15:00","-3.3","","-6.7","","78","","18","","10","","4.0","","99.98","","","","-7","","Snow,Haze"
"1968-01-26 16:00","1968","01","26","16:00","-2.8","","-5.6","","81","","18","","10","","4.8","","99.98","","","","-7","","Snow,Haze"
"1968-01-26 17:00","1968","01","26","17:00","-2.2","","-5.6","","78","","20","","8","","4.8","","100.07","","","","-5","","Snow,Haze"
"1968-01-26 18:00","1968","01","26","18:00","-2.2","","-5.6","","78","","18","","5","","6.4","","100.14","","","","-4","","Snow Showers,Haze"
"1968-01-26 19:00","1968","01","26","19:00","-2.2","","-5.0","","80","","18","","6","","8.0","","100.21","","","","-5","","Haze"
"1968-01-26 20:00","1968","01","26","20:00","-2.8","","-5.0","","83","","20","","5","","9.7","","100.25","","","","-5","","Fog"
"1968-01-26 21:00","1968","01","26","21:00","-2.2","","-5.0","","82","","14","","3","","8.0","","100.30","","","","-3","","Haze"
"1968-01-26 22:00","1968","01","26","22:00","-2.2","","-3.9","","88","","20","","11","","4.0","","100.36","","","","-6","","Snow,Fog"
"1968-01-26 23:00","1968","01","26","23:00","-2.8","","-3.3","","95","","23","","6","","3.2","","100.44","","","","-5","","Snow,Fog"
"1968-01-27 00:00","1968","01","27","00:00","-2.2","","-2.8","","95","","20","","10","","3.2","","100.46","","","","-6","","Snow,Fog"
"1968-01-27 01:00","1968","01","27","01:00","-2.8","","-3.3","","94","","20","","8","","3.6","","100.49","","","","-6","","Snow,Fog"
"1968-01-27 02:00","1968","01","27","02:00","-2.2","","-2.8","","96","","20","","8","","3.6","","100.49","","","","-5","","Snow,Fog"
"1968-01-27 03:00","1968","01","27","03:00","-2.2","","-2.8","","96","","23","","8","","3.6","","100.55","","","","-5","","Snow,Fog"
"1968-01-27 04:00","1968","01","27","04:00","-2.2","","-3.3","","94","","","","0","","4.0","","100.58","","","","","","Fog"
"1968-01-27 05:00","1968","01","27","05:00","-2.2","","-2.8","","95","","18","","3","","4.0","","100.65","","","","-3","","Fog"
"1968-01-27 06:00","1968","01","27","06:00","-1.7","","-2.2","","94","","","","0","","4.0","","100.71","","","","","","Snow Showers,Fog"
"1968-01-27 07:00","1968","01","27","07:00","-1.7","","-2.8","","91","","","","0","","4.0","","100.75","","","","","","Fog"
"1968-01-27 08:00","1968","01","27","08:00","-1.7","","-2.2","","94","","","","0","","2.4","","100.78","","","","","","Fog"
"1968-01-27 09:00","1968","01","27","09:00","-1.7","","-2.2","","96","","","","0","","2.4","","100.79","","","","","","Snow,Fog"
"1968-01-27 10:00","1968","01","27","10:00","-0.6","","-1.7","","93","","","","0","","2.4","","100.81","","","","","","Fog"
"1968-01-27 11:00","1968","01","27","11:00","0.0","","-2.2","","86","","","","0","","2.4","","100.82","","","","","","Fog"
"1968-01-27 12:00","1968","01","27","12:00","0.6","","-1.7","","86","","18","","3","","2.4","","100.82","","","","","","Snow Pellets,Fog"
"1968-01-27 13:00","1968","01","27","13:00","0.6","","-1.1","","89","","16","","3","","3.2","","100.76","","","","","","Fog"
"1968-01-27 14:00","1968","01","27","14:00","0.6","","-1.1","","89","","11","","3","","4.0","","100.70","","","","","","Fog"
"1968-01-27 15:00","1968","01","27","15:00","0.6","","-1.1","","89","","9","","10","","4.0","","100.62","","","","","","Drizzle,Fog"
"1968-01-27 16:00","1968","01","27","16:00","0.6","","-1.1","","89","","9","","10","","2.4","","100.61","","","","","","Fog"
"1968-01-27 17:00","1968","01","27","17:00","0.0","","-0.6","","94","","7","","8","","3.2","","100.63","","","","-3","","Snow,Fog"
"1968-01-27 18:00","1968","01","27","18:00","0.0","","-0.6","","97","","5","","16","","2.4","","100.64","","","","-5","","Snow"
"1968-01-27 19:00","1968","01","27","19:00","0.0","","-0.6","","94","","5","","13","","2.4","","100.68","","","","-4","","Snow"
"1968-01-27 20:00","1968","01","27","20:00","-0.6","","-1.1","","97","","7","","21","","4.0","","100.64","","","","-6","","Snow Pellets,Fog"
"1968-01-27 21:00","1968","01","27","21:00","0.0","","-0.6","","94","","9","","23","","4.8","","100.59","","","","-6","","Freezing Rain,Fog"
"1968-01-27 22:00","1968","01","27","22:00","0.0","","-0.6","","94","","9","","24","","4.8","","100.54","","","","-6","","Freezing Rain,Snow Pellets,Fog"
"1968-01-27 23:00","1968","01","27","23:00","0.0","","-0.6","","94","","9","","26","","4.8","","100.51","","","","-6","","Freezing Rain,Fog"
"1968-01-28 00:00","1968","01","28","00:00","0.6","","0.0","","94","","9","","23","","4.8","","100.54","","","","","","Freezing Rain,Fog"
"1968-01-28 01:00","1968","01","28","01:00","0.0","","-0.6","","97","","9","","24","","3.6","","100.55","","","","-6","","Freezing Rain,Ice Pellets,Fog"
"1968-01-28 02:00","1968","01","28","02:00","0.0","","-0.6","","97","","9","","26","","3.6","","100.38","","","","-6","","Freezing Rain,Fog"
"1968-01-28 03:00","1968","01","28","03:00","0.0","","-0.6","","97","","9","","24","","4.0","","100.40","","","","-6","","Freezing Rain,Fog"
"1968-01-28 04:00","1968","01","28","04:00","0.0","","-0.6","","97","","9","","23","","4.0","","100.41","","","","-6","","Freezing Rain,Fog"
"1968-01-28 05:00","1968","01","28","05:00","-0.6","","-0.6","","99","","9","","26","","4.0","","100.38","","","","-7","","Fog"
"1968-01-28 06:00","1968","01","28","06:00","-0.6","","-0.6","","99","","9","","19","","3.6","","100.40","","","","-6","","Fog"
"1968-01-28 07:00","1968","01","28","07:00","-0.6","","-0.6","","99","","9","","19","","3.2","","100.42","","","","-6","","Fog"
"1968-01-28 08:00","1968","01","28","08:00","-0.6","","-1.1","","97","","9","","23","","2.0","","100.42","","","","-6","","Freezing Drizzle,Fog"
"1968-01-28 09:00","1968","01","28","09:00","-0.6","","-0.6","","99","","9","","24","","2.0","","100.41","","","","-7","","Freezing Drizzle,Fog"
"1968-01-28 10:00","1968","01","28","10:00","-1.1","","-1.7","","98","","9","","19","","1.6","","100.46","","","","-6","","Freezing Drizzle,Fog"
"1968-01-28 11:00","1968","01","28","11:00","-1.1","","-1.1","","99","","9","","19","","2.4","","100.45","","","","-6","","Freezing Rain,Fog"
"1968-01-28 12:00","1968","01","28","12:00","-1.1","","-1.7","","98","","9","","26","","4.8","","100.35","","","","-7","","Freezing Rain,Fog"
"1968-01-28 13:00","1968","01","28","13:00","-1.7","","-2.2","","97","","9","","19","","4.8","","100.32","","","","-7","","Freezing Rain,Fog"
"1968-01-28 14:00","1968","01","28","14:00","-1.7","","-2.2","","97","","9","","13","","2.4","","100.33","","","","-6","","Fog"
"1968-01-28 15:00","1968","01","28","15:00","-1.7","","-1.7","","98","","9","","10","","0.8","","100.22","","","","-5","","Freezing Drizzle,Fog"
"1968-01-28 16:00","1968","01","28","16:00","-1.7","","-1.7","","98","","9","","16","","0.6","","100.23","","","","-7","","Freezing Drizzle,Fog"
"1968-01-28 17:00","1968","01","28","17:00","-1.1","","-1.1","","99","","9","","21","","0.2","","100.19","","","","-7","","Freezing Drizzle,Fog"
"1968-01-28 18:00","1968","01","28","18:00","-1.1","","-1.1","","99","","9","","11","","0.2","","100.24","","","","-5","","Freezing Drizzle,Fog"
"1968-01-28 19:00","1968","01","28","19:00","-1.1","","-1.1","","99","","7","","10","","0.4","","100.27","","","","-5","","Freezing Drizzle,Fog"
"1968-01-28 20:00","1968","01","28","20:00","-1.1","","-1.1","","99","","7","","11","","0.6","","100.28","","","","-5","","Freezing Drizzle,Fog"
"1968-01-28 21:00","1968","01","28","21:00","-1.1","","-1.1","","99","","9","","10","","0.8","","100.29","","","","-5","","Freezing Drizzle,Fog"
"1968-01-28 22:00","1968","01","28","22:00","-1.1","","-1.1","","99","","7","","6","","0.6","","100.32","","","","-3","","Freezing Drizzle,Fog"
"1968-01-28 23:00","1968","01","28","23:00","-1.1","","-1.1","","99","","5","","8","","0.4","","100.34","","","","-4","","Freezing Drizzle,Fog"
"1968-01-29 00:00","1968","01","29","00:00","-0.6","","-0.6","","99","","9","","6","","0.2","","100.30","","","","-3","","Freezing Drizzle,Fog"
"1968-01-29 01:00","1968","01","29","01:00","-0.6","","-1.1","","97","","","","0","","0.2","","100.33","","","","","","Freezing Drizzle,Fog"
"1968-01-29 02:00","1968","01","29","02:00","-0.6","","-0.6","","99","","","","0","","0.2","","100.38","","","","","","Freezing Drizzle,Fog"
"1968-01-29 03:00","1968","01","29","03:00","0.0","","-0.6","","97","","9","","3","","0.2","","100.36","","","","-1","","Fog"
"1968-01-29 04:00","1968","01","29","04:00","0.0","","-0.6","","97","","16","","6","","0.2","","100.34","","","","-2","","Fog"
"1968-01-29 05:00","1968","01","29","05:00","-0.6","","-1.1","","97","","14","","8","","0.2","","100.32","","","","-3","","Fog"
"1968-01-29 06:00","1968","01","29","06:00","-0.6","","-1.1","","97","","14","","8","","0.2","","100.31","","","","-3","","Fog"
"1968-01-29 07:00","1968","01","29","07:00","-0.6","","-1.1","","97","","14","","6","","0.2","","100.30","","","","-3","","Fog"
"1968-01-29 08:00","1968","01","29","08:00","0.0","","-0.6","","97","","9","","10","","0.2","","100.30","","","","-3","","Fog"
"1968-01-29 09:00","1968","01","29","09:00","0.6","","0.0","","94","","14","","8","","0.2","","100.31","","","","","","Fog"
"1968-01-29 10:00","1968","01","29","10:00","0.6","","0.0","","97","","9","","11","","0.2","","100.26","","","","","","Drizzle,Fog"
"1968-01-29 11:00","1968","01","29","11:00","0.6","","0.6","","100","","11","","10","","0.2","","100.24","","","","","","Fog"
"1968-01-29 12:00","1968","01","29","12:00","1.1","","1.1","","100","","14","","13","","0.2","","100.15","","","","","","Fog"
"1968-01-29 13:00","1968","01","29","13:00","1.1","","1.1","","100","","11","","13","","0.2","","100.02","","","","","","Rain,Fog"
"1968-01-29 14:00","1968","01","29","14:00","1.1","","1.1","","100","","11","","10","","0.2","","99.93","","","","","","Rain,Fog"
"1968-01-29 15:00","1968","01","29","15:00","1.7","","1.7","","100","","14","","10","","0.0","","99.84","","","","","","Fog"
"1968-01-29 16:00","1968","01","29","16:00","1.7","","1.1","","97","","14","","13","","0.0","","99.77","","","","","","Fog"
"1968-01-29 17:00","1968","01","29","17:00","1.1","","1.1","","100","","14","","10","","0.0","","99.73","","","","","","Rain,Fog"
"1968-01-29 18:00","1968","01","29","18:00","2.2","","2.2","","100","","18","","13","","0.0","","99.71","","","","","","Drizzle,Fog"
"1968-01-29 19:00","1968","01","29","19:00","2.2","","2.2","","100","","18","","11","","0.0","","99.69","","","","","","Drizzle,Fog"
"1968-01-29 20:00","1968","01","29","20:00","3.9","","3.9","","100","","18","","14","","1.2","","99.65","","","","","","Drizzle,Fog"
"1968-01-29 21:00","1968","01","29","21:00","3.9","","3.3","","97","","20","","21","","4.0","","99.64","","","","","","Rain,Fog"
"1968-01-29 22:00","1968","01","29","22:00","3.3","","2.8","","97","","23","","8","","4.0","","99.63","","","","","","Rain,Fog"
"1968-01-29 23:00","1968","01","29","23:00","3.3","","2.8","","97","","25","","8","","8.0","","99.72","","","","","","Rain,Fog"
"1968-01-30 00:00","1968","01","30","00:00","3.3","","2.8","","97","","25","","5","","4.0","","99.73","","","","","","Rain,Fog"
"1968-01-30 01:00","1968","01","30","01:00","2.8","","2.2","","97","","25","","11","","4.8","","99.73","","","","","","Rain,Fog"
"1968-01-30 02:00","1968","01","30","02:00","2.2","","1.7","","97","","27","","10","","4.0","","99.74","","","","","","Rain,Fog"
"1968-01-30 03:00","1968","01","30","03:00","2.2","","1.1","","92","","34","","23","","16.1","","99.86","","","","","","Drizzle"
"1968-01-30 04:00","1968","01","30","04:00","2.8","","1.7","","92","","32","","18","","16.1","","99.93","","","","","","Drizzle"
"1968-01-30 05:00","1968","01","30","05:00","1.7","","0.0","","89","","34","","32","","25.0","","99.96","","","","","","Cloudy"
"1968-01-30 06:00","1968","01","30","06:00","1.7","","0.0","","89","","34","","29","","25.0","","100.03","","","","","","Cloudy"
"1968-01-30 07:00","1968","01","30","07:00","1.1","","-0.6","","89","","36","","19","","25.0","","100.17","","","","","","Cloudy"
"1968-01-30 08:00","1968","01","30","08:00","1.1","","-1.1","","86","","34","","16","","25.0","","100.31","","","","","","Cloudy"
"1968-01-30 09:00","1968","01","30","09:00","0.6","","-1.7","","86","","34","","18","","32.2","","100.38","","","","","","Cloudy"
"1968-01-30 10:00","1968","01","30","10:00","0.6","","-1.7","","86","","36","","19","","32.2","","100.38","","","","","","Cloudy"
"1968-01-30 11:00","1968","01","30","11:00","0.6","","-1.7","","84","","36","","23","","32.2","","100.43","","","","","","Cloudy"
"1968-01-30 12:00","1968","01","30","12:00","0.6","","-1.7","","86","","34","","19","","32.2","","100.41","","","","","","Mostly Cloudy"
"1968-01-30 13:00","1968","01","30","13:00","0.6","","-1.7","","84","","34","","16","","32.2","","100.43","","","","","","Mostly Cloudy"
"1968-01-30 14:00","1968","01","30","14:00","0.6","","-2.2","","81","","34","","24","","32.2","","100.52","","","","","","Mainly Clear"
"1968-01-30 15:00","1968","01","30","15:00","1.1","","-2.2","","79","","34","","26","","32.2","","100.58","","","","","","Mainly Clear"
"1968-01-30 16:00","1968","01","30","16:00","0.6","","-3.3","","75","","34","","21","","40.2","","100.66","","","","","","Mainly Clear"
"1968-01-30 17:00","1968","01","30","17:00","-0.6","","-4.4","","76","","36","","18","","40.2","","100.68","","","","-6","","Mainly Clear"
"1968-01-30 18:00","1968","01","30","18:00","-1.7","","-5.0","","77","","36","","13","","25.0","","100.73","","","","-6","","Mainly Clear"
"1968-01-30 19:00","1968","01","30","19:00","-3.9","","-6.1","","85","","34","","13","","25.0","","100.74","","","","-9","","Mainly Clear"
"1968-01-30 20:00","1968","01","30","20:00","-3.9","","-6.1","","86","","34","","14","","25.0","","100.82","","","","-9","","Mainly Clear"
"1968-01-30 21:00","1968","01","30","21:00","-5.0","","-7.2","","86","","34","","11","","25.0","","100.82","","","","-10","","Mainly Clear"
"1968-01-30 22:00","1968","01","30","22:00","-5.6","","-7.8","","86","","34","","13","","25.0","","100.84","","","","-11","","Mainly Clear"
"1968-01-30 23:00","1968","01","30","23:00","-6.7","","-7.8","","90","","34","","11","","25.0","","100.84","","","","-12","","Mainly Clear"
"1968-01-31 00:00","1968","01","31","00:00","-6.7","","-8.3","","87","","34","","8","","25.0","","100.86","","","","-11","","Mainly Clear"
"1968-01-31 01:00","1968","01","31","01:00","-6.1","","-7.8","","89","","29","","3","","19.3","","100.85","","","","-8","","Cloudy"
"1968-01-31 02:00","1968","01","31","02:00","-6.1","","-7.8","","89","","36","","3","","16.1","","100.86","","","","-8","","Mostly Cloudy"
"1968-01-31 03:00","1968","01","31","03:00","-1.1","","-2.8","","89","","11","","19","","24.1","","100.88","","","","-6","","Cloudy"
"1968-01-31 04:00","1968","01","31","04:00","-0.6","","-2.8","","85","","11","","18","","24.1","","100.90","","","","-6","","Cloudy"
"1968-01-31 05:00","1968","01","31","05:00","-0.6","","-2.2","","88","","11","","23","","24.1","","100.89","","","","-6","","Cloudy"
"1968-01-31 06:00","1968","01","31","06:00","-2.8","","-4.4","","90","","9","","16","","19.3","","100.85","","","","-8","","Mostly Cloudy"
"1968-01-31 07:00","1968","01","31","07:00","-2.8","","-3.3","","94","","9","","16","","9.7","","100.78","","","","-8","","Fog"
"1968-01-31 08:00","1968","01","31","08:00","-1.7","","-2.8","","91","","14","","19","","9.7","","100.80","","","","-7","","Fog"
"1968-01-31 09:00","1968","01","31","09:00","-1.1","","-1.7","","98","","14","","16","","9.7","","100.88","","","","-6","","Fog"
"1968-01-31 10:00","1968","01","31","10:00","-0.6","","-1.7","","91","","14","","14","","9.7","","100.85","","","","-5","","Fog"
"1968-01-31 11:00","1968","01","31","11:00","0.0","","-1.1","","91","","14","","11","","3.2","","100.85","","","","-4","","Fog"
"1968-01-31 12:00","1968","01","31","12:00","0.6","","-1.7","","86","","16","","13","","4.8","","100.80","","","","","","Fog"
"1968-01-31 13:00","1968","01","31","13:00","0.6","","-1.7","","84","","11","","14","","11.3","","100.72","","","","","","Mostly Cloudy"
"1968-01-31 14:00","1968","01","31","14:00","1.1","","-0.6","","89","","11","","16","","11.3","","100.59","","","","","","Cloudy"
"1968-01-31 15:00","1968","01","31","15:00","0.6","","-0.6","","91","","14","","13","","11.3","","100.57","","","","","","Cloudy"
"1968-01-31 16:00","1968","01","31","16:00","0.6","","-0.6","","91","","14","","18","","8.0","","100.54","","","","","","Fog"
"1968-01-31 17:00","1968","01","31","17:00","0.6","","-0.6","","91","","11","","16","","6.4","","100.52","","","","","","Fog"
"1968-01-31 18:00","1968","01","31","18:00","0.6","","-0.6","","91","","9","","19","","4.0","","100.49","","","","","","Fog"
"1968-01-31 19:00","1968","01","31","19:00","0.6","","-0.6","","91","","11","","18","","6.4","","100.51","","","","","","Fog"
"1968-01-31 20:00","1968","01","31","20:00","1.1","","-0.6","","89","","9","","21","","6.4","","100.42","","","","","","Fog"
"1968-01-31 21:00","1968","01","31","21:00","1.1","","-0.6","","89","","11","","18","","8.0","","100.36","","","","","","Fog"
"1968-01-31 22:00","1968","01","31","22:00","1.1","","0.0","","92","","14","","8","","8.0","","100.30","","","","","","Fog"
"1968-01-31 23:00","1968","01","31","23:00","1.1","","0.6","","94","","14","","10","","6.4","","100.26","","","","","","Fog"
