"Station Name","TORONTO LESTER B. PEARSON INT'L A"
"Province","ONTARIO"
"Latitude","43.68"
"Longitude","-79.63"
"Elevation","173.40"
"Climate Identifier","6158733"
"WMO Identifier","71624"
"TC Identifier","YYZ"
"All times are specified in Local Standard Time (LST). Add 1 hour to adjust for Daylight Saving Time where and when it is observed."

"Legend"
"E","Estimated"
"M","Missing"
"NA","Not Available"

"Date/Time","Year","Month","Day","Time","Temp (°C)","Temp Flag","Dew Point Temp (°C)","Dew Point Temp Flag","Rel Hum (%)","Rel Hum Flag","Wind Dir (10s deg)","Wind Dir Flag","Wind Spd (km/h)","Wind Spd Flag","Visibility (km)","Visibility Flag","Stn Press (kPa)","Stn Press Flag","Hmdx","Hmdx Flag","Wind Chill","Wind Chill Flag","Weather"
"2010-10-01 00:00","2010","10","01","00:00","12.9","","10.2","","84","","32","","19","","24.1","","98.98","","","","","","Cloudy"
"2010-10-01 01:00","2010","10","01","01:00","12.6","","9.7","","82","","31","","20","","24.1","","98.96","","","","","","Cloudy"
"2010-10-01 02:00","2010","10","01","02:00","12.3","","9.5","","83","","32","","20","","24.1","","98.99","","","","","","Cloudy"
"2010-10-01 03:00","2010","10","01","03:00","12.2","","9.7","","85","","33","","26","","24.1","","98.97","","","","","","Mainly Clear"
"2010-10-01 04:00","2010","10","01","04:00","11.7","","9.4","","86","","34","","22","","24.1","","99.08","","","","","","Clear"
"2010-10-01 05:00","2010","10","01","05:00","11.1","","8.5","","84","","35","","24","","24.1","","99.13","","","","","","Mainly Clear"
"2010-10-01 06:00","2010","10","01","06:00","11.1","","8.2","","82","","35","","19","","24.1","","99.19","","","","","","Clear"
"2010-10-01 07:00","2010","10","01","07:00","10.5","","8.3","","86","","35","","19","","24.1","","99.25","","","","","","Clear"
"2010-10-01 08:00","2010","10","01","08:00","11.4","","7.2","","75","","34","","32","","24.1","","99.30","","","","","","Clear"
"2010-10-01 09:00","2010","10","01","09:00","12.9","","5.5","","61","","35","","26","","24.1","","99.35","","","","","","Clear"
"2010-10-01 10:00","2010","10","01","10:00","13.8","","5.5","","57","","36","","33","","24.1","","99.33","","","","","","Mainly Clear"
"2010-10-01 11:00","2010","10","01","11:00","14.6","","6.3","","57","","34","","33","","24.1","","99.32","","","","","","Mainly Clear"
"2010-10-01 12:00","2010","10","01","12:00","15.2","","6.6","","56","","32","","28","","24.1","","99.34","","","","","","Mostly Cloudy"
"2010-10-01 13:00","2010","10","01","13:00","15.3","","6.8","","57","","35","","28","","24.1","","99.32","","","","","","Mostly Cloudy"
"2010-10-01 14:00","2010","10","01","14:00","14.9","","6.8","","58","","34","","30","","24.1","","99.36","","","","","","Mostly Cloudy"
"2010-10-01 15:00","2010","10","01","15:00","15.8","","7.0","","56","","36","","32","","24.1","","99.36","","","","","","Mainly Clear"
"2010-10-01 16:00","2010","10","01","16:00","14.3","","6.6","","60","","34","","30","","24.1","","99.39","","","","","","Mainly Clear"
"2010-10-01 17:00","2010","10","01","17:00","13.5","","6.1","","61","","35","","24","","24.1","","99.45","","","","","","Mostly Cloudy"
"2010-10-01 18:00","2010","10","01","18:00","12.7","","5.5","","62","","35","","24","","24.1","","99.46","","","","","","Mostly Cloudy"
"2010-10-01 19:00","2010","10","01","19:00","11.8","","5.9","","67","","33","","17","","24.1","","99.47","","","","","","Mostly Cloudy"
"2010-10-01 20:00","2010","10","01","20:00","12.1","","6.0","","66","","34","","20","","24.1","","99.49","","","","","","Mostly Cloudy"
"2010-10-01 21:00","2010","10","01","21:00","10.6","","6.1","","74","","32","","11","","24.1","","99.49","","","","","","Mostly Cloudy"
"2010-10-01 22:00","2010","10","01","22:00","10.0","","6.3","","78","","31","","13","","24.1","","99.48","","","","","","Mostly Cloudy"
"2010-10-01 23:00","2010","10","01","23:00","9.0","","6.2","","83","","28","","11","","24.1","","99.48","","","","","","Mostly Cloudy"
"2010-10-02 00:00","2010","10","02","00:00","9.0","","6.5","","84","","","","0","","24.1","","99.46","","","","","","Mostly Cloudy"
"2010-10-02 01:00","2010","10","02","01:00","7.6","","6.0","","90","","32","","7","","24.1","","99.43","","","","","","Mainly Clear"
"2010-10-02 02:00","2010","10","02","02:00","8.6","","6.7","","88","","32","","4","","24.1","","99.45","","","","","","Clear"
"2010-10-02 03:00","2010","10","02","03:00","7.6","","6.3","","91","","","","0","","24.1","","99.43","","","","","","Mainly Clear"
"2010-10-02 04:00","2010","10","02","04:00","7.8","","6.3","","90","","32","","9","","24.1","","99.49","","","","","","Mostly Cloudy"
"2010-10-02 05:00","2010","10","02","05:00","7.9","","7.0","","94","","31","","6","","24.1","","99.56","","","","","","Mostly Cloudy"
"2010-10-02 06:00","2010","10","02","06:00","8.5","","7.4","","93","","3","","7","","24.1","","99.58","","","","","","Mostly Cloudy"
"2010-10-02 07:00","2010","10","02","07:00","9.2","","7.7","","90","","36","","7","","24.1","","99.62","","","","","","Mostly Cloudy"
"2010-10-02 08:00","2010","10","02","08:00","9.9","","7.7","","86","","","","0","","24.1","","99.66","","","","","","Mostly Cloudy"
"2010-10-02 09:00","2010","10","02","09:00","10.5","","7.4","","81","","36","","4","","24.1","","99.71","","","","","","Rain Showers"
"2010-10-02 10:00","2010","10","02","10:00","10.4","","8.3","","87","","36","","11","","24.1","","99.71","","","","","","Rain Showers"
"2010-10-02 11:00","2010","10","02","11:00","11.1","","7.8","","80","","36","","7","","24.1","","99.75","","","","","","Rain Showers"
"2010-10-02 12:00","2010","10","02","12:00","11.2","","8.8","","85","","33","","13","","24.1","","99.77","","","","","","Rain Showers"
"2010-10-02 13:00","2010","10","02","13:00","10.7","","7.3","","79","","36","","9","","24.1","","99.74","","","","","","Rain Showers"
"2010-10-02 14:00","2010","10","02","14:00","11.0","","5.1","","67","","36","","15","","24.1","","99.75","","","","","","Rain Showers"
"2010-10-02 15:00","2010","10","02","15:00","11.3","","4.8","","64","","1","","9","","24.1","","99.76","","","","","","Mostly Cloudy"
"2010-10-02 16:00","2010","10","02","16:00","10.9","","6.1","","72","","35","","13","","24.1","","99.80","","","","","","Cloudy"
"2010-10-02 17:00","2010","10","02","17:00","10.4","","7.3","","81","","35","","20","","24.1","","99.84","","","","","","Rain Showers"
"2010-10-02 18:00","2010","10","02","18:00","9.7","","6.5","","80","","1","","17","","24.1","","99.89","","","","","","Mostly Cloudy"
"2010-10-02 19:00","2010","10","02","19:00","9.7","","5.0","","72","","2","","19","","24.1","","99.94","","","","","","Mostly Cloudy"
"2010-10-02 20:00","2010","10","02","20:00","9.1","","4.9","","75","","1","","15","","24.1","","99.99","","","","","","Mostly Cloudy"
"2010-10-02 21:00","2010","10","02","21:00","8.2","","5.1","","81","","36","","19","","24.1","","100.02","","","","","","Mostly Cloudy"
"2010-10-02 22:00","2010","10","02","22:00","8.1","","4.3","","77","","1","","20","","24.1","","100.04","","","","","","Cloudy"
"2010-10-02 23:00","2010","10","02","23:00","7.9","","4.4","","79","","1","","17","","24.1","","100.07","","","","","","Cloudy"
"2010-10-03 00:00","2010","10","03","00:00","8.3","","3.9","","74","","3","","17","","24.1","","100.08","","","","","","Cloudy"
"2010-10-03 01:00","2010","10","03","01:00","8.0","","2.9","","70","","5","","24","","24.1","","100.12","","","","","","Cloudy"
"2010-10-03 02:00","2010","10","03","02:00","7.5","","2.9","","73","","4","","20","","24.1","","100.17","","","","","","Mostly Cloudy"
"2010-10-03 03:00","2010","10","03","03:00","7.2","","2.8","","74","","4","","19","","24.1","","100.19","","","","","","Mostly Cloudy"
"2010-10-03 04:00","2010","10","03","04:00","6.8","","2.7","","75","","4","","15","","24.1","","100.22","","","","","","Mostly Cloudy"
"2010-10-03 05:00","2010","10","03","05:00","6.8","","2.5","","74","","5","","19","","24.1","","100.27","","","","","","Cloudy"
"2010-10-03 06:00","2010","10","03","06:00","6.4","","2.5","","76","","4","","19","","24.1","","100.33","","","","","","Mostly Cloudy"
"2010-10-03 07:00","2010","10","03","07:00","6.5","","2.7","","77","","5","","13","","24.1","","100.42","","","","","","Mostly Cloudy"
"2010-10-03 08:00","2010","10","03","08:00","7.3","","2.7","","73","","5","","19","","24.1","","100.48","","","","","","Mostly Cloudy"
"2010-10-03 09:00","2010","10","03","09:00","8.1","","3.2","","71","","4","","17","","24.1","","100.52","","","","","","Mostly Cloudy"
"2010-10-03 10:00","2010","10","03","10:00","9.0","","2.5","","64","","6","","19","","24.1","","100.54","","","","","","Mostly Cloudy"
"2010-10-03 11:00","2010","10","03","11:00","10.7","","3.1","","59","","4","","20","","24.1","","100.53","","","","","","Mostly Cloudy"
"2010-10-03 12:00","2010","10","03","12:00","10.4","","2.9","","60","","5","","20","","24.1","","100.52","","","","","","Mostly Cloudy"
"2010-10-03 13:00","2010","10","03","13:00","10.6","","3.9","","63","","4","","17","","24.1","","100.50","","","","","","Mostly Cloudy"
"2010-10-03 14:00","2010","10","03","14:00","10.5","","3.1","","60","","4","","22","","24.1","","100.47","","","","","","Mostly Cloudy"
"2010-10-03 15:00","2010","10","03","15:00","11.0","","2.3","","55","","4","","17","","24.1","","100.43","","","","","","Mostly Cloudy"
"2010-10-03 16:00","2010","10","03","16:00","12.0","","2.9","","54","","5","","22","","24.1","","100.42","","","","","","Mostly Cloudy"
"2010-10-03 17:00","2010","10","03","17:00","11.6","","0.9","","48","","7","","17","","24.1","","100.44","","","","","","Mostly Cloudy"
"2010-10-03 18:00","2010","10","03","18:00","11.2","","1.2","","50","","7","","11","","24.1","","100.47","","","","","","Mostly Cloudy"
"2010-10-03 19:00","2010","10","03","19:00","9.5","","2.6","","62","","2","","15","","24.1","","100.52","","","","","","Mostly Cloudy"
"2010-10-03 20:00","2010","10","03","20:00","8.3","","2.7","","68","","2","","11","","24.1","","100.58","","","","","","Mainly Clear"
"2010-10-03 21:00","2010","10","03","21:00","9.0","","1.3","","58","","6","","17","","24.1","","100.61","","","","","","Mainly Clear"
"2010-10-03 22:00","2010","10","03","22:00","8.1","","1.2","","62","","6","","15","","24.1","","100.61","","","","","","Mainly Clear"
"2010-10-03 23:00","2010","10","03","23:00","7.2","","1.5","","67","","5","","15","","24.1","","100.62","","","","","","Mainly Clear"
"2010-10-04 00:00","2010","10","04","00:00","6.8","","1.6","","69","","5","","11","","24.1","","100.67","","","","","","Mainly Clear"
"2010-10-04 01:00","2010","10","04","01:00","5.8","","1.7","","75","","3","","13","","24.1","","100.64","","","","","","Mainly Clear"
"2010-10-04 02:00","2010","10","04","02:00","5.4","","1.9","","78","","2","","13","","24.1","","100.62","","","","","","Mainly Clear"
"2010-10-04 03:00","2010","10","04","03:00","4.8","","1.6","","80","","36","","11","","24.1","","100.56","","","","","","Mainly Clear"
"2010-10-04 04:00","2010","10","04","04:00","4.4","","1.7","","83","","36","","19","","24.1","","100.58","","","","","","Mainly Clear"
"2010-10-04 05:00","2010","10","04","05:00","4.1","","1.7","","84","","36","","17","","24.1","","100.56","","","","","","Clear"
"2010-10-04 06:00","2010","10","04","06:00","4.2","","1.7","","84","","36","","20","","24.1","","100.59","","","","","","Mainly Clear"
"2010-10-04 07:00","2010","10","04","07:00","5.0","","2.3","","83","","36","","26","","24.1","","100.57","","","","","","Mostly Cloudy"
"2010-10-04 08:00","2010","10","04","08:00","5.9","","2.9","","81","","36","","13","","24.1","","100.67","","","","","","Mostly Cloudy"
"2010-10-04 09:00","2010","10","04","09:00","8.6","","3.9","","72","","2","","22","","24.1","","100.68","","","","","","Mostly Cloudy"
"2010-10-04 10:00","2010","10","04","10:00","9.3","","2.9","","64","","6","","20","","24.1","","100.71","","","","","","Mostly Cloudy"
"2010-10-04 11:00","2010","10","04","11:00","11.4","","4.9","","64","","1","","19","","24.1","","100.59","","","","","","Mostly Cloudy"
"2010-10-04 12:00","2010","10","04","12:00","12.0","","3.8","","57","","3","","19","","24.1","","100.53","","","","","","Mostly Cloudy"
"2010-10-04 13:00","2010","10","04","13:00","12.0","","3.5","","56","","4","","15","","24.1","","100.47","","","","","","Mostly Cloudy"
"2010-10-04 14:00","2010","10","04","14:00","11.9","","3.8","","58","","8","","15","","24.1","","100.48","","","","","","Mostly Cloudy"
"2010-10-04 15:00","2010","10","04","15:00","11.9","","3.7","","57","","5","","13","","24.1","","100.43","","","","","","Mostly Cloudy"
"2010-10-04 16:00","2010","10","04","16:00","11.3","","4.8","","64","","5","","13","","24.1","","100.40","","","","","","Rain"
"2010-10-04 17:00","2010","10","04","17:00","10.1","","6.0","","76","","33","","7","","24.1","","100.34","","","","","","Rain"
"2010-10-04 18:00","2010","10","04","18:00","9.6","","7.7","","88","","17","","11","","24.1","","100.37","","","","","","Mostly Cloudy"
"2010-10-04 19:00","2010","10","04","19:00","9.4","","7.8","","90","","26","","4","","24.1","","100.39","","","","","","Mostly Cloudy"
"2010-10-04 20:00","2010","10","04","20:00","9.2","","8.0","","92","","25","","9","","24.1","","100.38","","","","","","Rain Showers"
"2010-10-04 21:00","2010","10","04","21:00","9.8","","6.9","","82","","9","","7","","24.1","","100.43","","","","","","Rain Showers"
"2010-10-04 22:00","2010","10","04","22:00","9.3","","7.7","","90","","12","","4","","24.1","","100.39","","","","","","Rain Showers"
"2010-10-04 23:00","2010","10","04","23:00","9.6","","6.3","","80","","36","","15","","24.1","","100.31","","","","","","Cloudy"
"2010-10-05 00:00","2010","10","05","00:00","9.3","","6.4","","82","","33","","9","","24.1","","100.24","","","","","","Cloudy"
"2010-10-05 01:00","2010","10","05","01:00","9.3","","6.5","","83","","1","","9","","24.1","","100.23","","","","","","Cloudy"
"2010-10-05 02:00","2010","10","05","02:00","9.4","","7.0","","85","","1","","13","","24.1","","100.17","","","","","","Cloudy"
"2010-10-05 03:00","2010","10","05","03:00","9.5","","7.3","","86","","35","","19","","24.1","","100.11","","","","","","Cloudy"
"2010-10-05 04:00","2010","10","05","04:00","9.6","","7.4","","86","","34","","13","","24.1","","100.15","","","","","","Cloudy"
"2010-10-05 05:00","2010","10","05","05:00","9.5","","7.1","","85","","35","","20","","24.1","","100.17","","","","","","Cloudy"
"2010-10-05 06:00","2010","10","05","06:00","9.7","","6.4","","80","","34","","24","","24.1","","100.17","","","","","","Cloudy"
"2010-10-05 07:00","2010","10","05","07:00","9.9","","6.2","","78","","1","","22","","24.1","","100.24","","","","","","Cloudy"
"2010-10-05 08:00","2010","10","05","08:00","9.3","","7.3","","87","","35","","17","","19.3","","100.24","","","","","","Rain Showers"
"2010-10-05 09:00","2010","10","05","09:00","9.6","","6.7","","82","","35","","17","","24.1","","100.25","","","","","","Cloudy"
"2010-10-05 10:00","2010","10","05","10:00","9.6","","7.4","","86","","","","0","","19.3","","100.30","","","","","","Rain Showers"
"2010-10-05 11:00","2010","10","05","11:00","9.3","","8.4","","94","","25","","7","","19.3","","100.27","","","","","","Rain"
"2010-10-05 12:00","2010","10","05","12:00","10.0","","8.6","","91","","30","","20","","24.1","","100.17","","","","","","Mostly Cloudy"
"2010-10-05 13:00","2010","10","05","13:00","11.9","","8.2","","78","","31","","20","","24.1","","100.07","","","","","","Mostly Cloudy"
"2010-10-05 14:00","2010","10","05","14:00","13.8","","9.3","","74","","29","","11","","24.1","","99.98","","","","","","Mostly Cloudy"
"2010-10-05 15:00","2010","10","05","15:00","15.0","","5.4","","53","","35","","11","","24.1","","99.86","","","","","","Mostly Cloudy"
"2010-10-05 16:00","2010","10","05","16:00","14.6","","6.1","","57","","14","","9","","24.1","","99.98","","","","","","Mostly Cloudy"
"2010-10-05 17:00","2010","10","05","17:00","12.2","","10.7","","91","","18","","11","","24.1","","100.00","","","","","","Rain Showers"
"2010-10-05 18:00","2010","10","05","18:00","10.8","","9.8","","94","","12","","6","","19.3","","100.03","","","","","","Rain Showers"
"2010-10-05 19:00","2010","10","05","19:00","10.3","","10.2","","99","","24","","7","","16.1","","100.02","","","","","","Rain Showers"
"2010-10-05 20:00","2010","10","05","20:00","10.5","","10.4","","99","","24","","7","","16.1","","100.01","","","","","","Rain Showers"
"2010-10-05 21:00","2010","10","05","21:00","10.7","","10.4","","98","","33","","11","","16.1","","100.01","","","","","","Rain Showers"
"2010-10-05 22:00","2010","10","05","22:00","10.5","","10.5","","100","","31","","13","","16.1","","99.94","","","","","","Rain"
"2010-10-05 23:00","2010","10","05","23:00","10.9","","10.5","","97","","32","","7","","16.1","","99.90","","","","","","Rain"
"2010-10-06 00:00","2010","10","06","00:00","11.2","","10.4","","95","","34","","20","","16.1","","99.78","","","","","","Rain"
"2010-10-06 01:00","2010","10","06","01:00","11.4","","10.1","","92","","35","","17","","19.3","","99.72","","","","","","Rain"
"2010-10-06 02:00","2010","10","06","02:00","11.6","","10.3","","92","","1","","17","","24.1","","99.70","","","","","","Cloudy"
"2010-10-06 03:00","2010","10","06","03:00","11.8","","10.0","","89","","4","","13","","24.1","","99.65","","","","","","Rain Showers"
"2010-10-06 04:00","2010","10","06","04:00","11.4","","9.7","","89","","3","","13","","24.1","","99.61","","","","","","Rain Showers"
"2010-10-06 05:00","2010","10","06","05:00","11.4","","9.5","","88","","1","","15","","24.1","","99.56","","","","","","Mostly Cloudy"
"2010-10-06 06:00","2010","10","06","06:00","11.4","","9.5","","88","","2","","13","","24.1","","99.58","","","","","","Cloudy"
"2010-10-06 07:00","2010","10","06","07:00","11.4","","9.7","","89","","1","","15","","24.1","","99.53","","","","","","Cloudy"
"2010-10-06 08:00","2010","10","06","08:00","11.6","","10.0","","90","","36","","15","","24.1","","99.52","","","","","","Cloudy"
"2010-10-06 09:00","2010","10","06","09:00","12.3","","10.2","","87","","36","","15","","24.1","","99.47","","","","","","Mostly Cloudy"
"2010-10-06 10:00","2010","10","06","10:00","12.8","","10.4","","85","","36","","19","","24.1","","99.44","","","","","","Cloudy"
"2010-10-06 11:00","2010","10","06","11:00","13.3","","10.7","","84","","1","","19","","24.1","","99.41","","","","","","Cloudy"
"2010-10-06 12:00","2010","10","06","12:00","14.3","","10.1","","76","","5","","9","","24.1","","99.36","","","","","","Cloudy"
"2010-10-06 13:00","2010","10","06","13:00","14.9","","10.3","","74","","7","","11","","24.1","","99.24","","","","","","Mostly Cloudy"
"2010-10-06 14:00","2010","10","06","14:00","15.4","","10.4","","72","","35","","7","","24.1","","99.06","","","","","","Mostly Cloudy"
"2010-10-06 15:00","2010","10","06","15:00","16.3","","10.9","","70","","5","","13","","24.1","","99.03","","","","","","Mostly Cloudy"
"2010-10-06 16:00","2010","10","06","16:00","16.8","","10.9","","68","","31","","15","","24.1","","98.93","","","","","","Mostly Cloudy"
"2010-10-06 17:00","2010","10","06","17:00","15.8","","10.3","","70","","30","","20","","24.1","","98.93","","","","","","Mostly Cloudy"
"2010-10-06 18:00","2010","10","06","18:00","14.8","","9.6","","71","","34","","13","","24.1","","98.87","","","","","","Mostly Cloudy"
"2010-10-06 19:00","2010","10","06","19:00","14.6","","9.2","","70","","7","","6","","24.1","","98.83","","","","","","Mostly Cloudy"
"2010-10-06 20:00","2010","10","06","20:00","12.8","","8.9","","77","","32","","9","","24.1","","98.80","","","","","","Mainly Clear"
"2010-10-06 21:00","2010","10","06","21:00","11.2","","8.5","","83","","28","","7","","24.1","","98.78","","","","","","Mainly Clear"
"2010-10-06 22:00","2010","10","06","22:00","11.5","","8.5","","82","","28","","9","","24.1","","98.78","","","","","","Mainly Clear"
"2010-10-06 23:00","2010","10","06","23:00","10.0","","7.9","","87","","31","","7","","24.1","","98.65","","","","","","Mainly Clear"
"2010-10-07 00:00","2010","10","07","00:00","9.3","","7.4","","88","","29","","13","","24.1","","98.58","","","","","","Mainly Clear"
"2010-10-07 01:00","2010","10","07","01:00","9.2","","7.4","","88","","28","","13","","24.1","","98.55","","","","","","Mainly Clear"
"2010-10-07 02:00","2010","10","07","02:00","10.0","","7.1","","82","","31","","13","","24.1","","98.55","","","","","","Clear"
"2010-10-07 03:00","2010","10","07","03:00","10.0","","8.0","","87","","33","","11","","24.1","","98.56","","","","","","Mainly Clear"
"2010-10-07 04:00","2010","10","07","04:00","10.3","","9.2","","93","","29","","13","","24.1","","98.52","","","","","","Mainly Clear"
"2010-10-07 05:00","2010","10","07","05:00","10.4","","9.4","","94","","29","","17","","24.1","","98.54","","","","","","Mainly Clear"
"2010-10-07 06:00","2010","10","07","06:00","12.8","","8.6","","76","","34","","26","","24.1","","98.58","","","","","","Clear"
"2010-10-07 07:00","2010","10","07","07:00","11.5","","8.9","","84","","31","","13","","24.1","","98.66","","","","","","Mainly Clear"
"2010-10-07 08:00","2010","10","07","08:00","13.3","","10.0","","80","","31","","20","","24.1","","98.77","","","","","","Clear"
"2010-10-07 09:00","2010","10","07","09:00","15.0","","9.9","","72","","29","","20","","24.1","","98.84","","","","","","Clear"
"2010-10-07 10:00","2010","10","07","10:00","16.7","","8.2","","57","","31","","24","","24.1","","98.88","","","","","","Clear"
"2010-10-07 11:00","2010","10","07","11:00","18.0","","7.5","","50","","29","","37","","24.1","","98.90","","","","","","Clear"
"2010-10-07 12:00","2010","10","07","12:00","18.8","","8.3","","50","","29","","35","","24.1","","98.88","","","","","","Mainly Clear"
"2010-10-07 13:00","2010","10","07","13:00","19.2","","7.8","","48","","31","","41","","24.1","","98.86","","","","","","Mainly Clear"
"2010-10-07 14:00","2010","10","07","14:00","19.5","","6.2","","42","","29","","37","","24.1","","98.85","","","","","","Clear"
"2010-10-07 15:00","2010","10","07","15:00","18.8","","5.2","","41","","31","","46","","24.1","","98.91","","","","","","Clear"
"2010-10-07 16:00","2010","10","07","16:00","18.2","","6.0","","45","","31","","35","","24.1","","98.95","","","","","","Clear"
"2010-10-07 17:00","2010","10","07","17:00","16.8","","5.7","","48","","30","","33","","24.1","","99.05","","","","","","Clear"
"2010-10-07 18:00","2010","10","07","18:00","15.1","","5.4","","52","","29","","20","","24.1","","99.15","","","","","","Clear"
"2010-10-07 19:00","2010","10","07","19:00","13.8","","5.5","","57","","29","","17","","24.1","","99.26","","","","","","Clear"
"2010-10-07 20:00","2010","10","07","20:00","11.8","","4.9","","63","","28","","15","","24.1","","99.30","","","","","","Clear"
"2010-10-07 21:00","2010","10","07","21:00","10.5","","5.1","","69","","27","","17","","24.1","","99.33","","","","","","Clear"
"2010-10-07 22:00","2010","10","07","22:00","10.4","","5.0","","69","","28","","11","","24.1","","99.35","","","","","","Clear"
"2010-10-07 23:00","2010","10","07","23:00","9.7","","5.0","","72","","28","","7","","24.1","","99.40","","","","","","Clear"
"2010-10-08 00:00","2010","10","08","00:00","8.3","","5.3","","81","","26","","11","","24.1","","99.39","","","","","","Clear"
"2010-10-08 01:00","2010","10","08","01:00","9.6","","7.3","","86","","28","","17","","24.1","","99.38","","","","","","Clear"
"2010-10-08 02:00","2010","10","08","02:00","8.5","","6.7","","88","","28","","11","","24.1","","99.36","","","","","","Clear"
"2010-10-08 03:00","2010","10","08","03:00","8.2","","6.8","","91","","27","","11","","24.1","","99.32","","","","","","Clear"
"2010-10-08 04:00","2010","10","08","04:00","9.1","","7.6","","90","","28","","9","","24.1","","99.31","","","","","","Clear"
"2010-10-08 05:00","2010","10","08","05:00","9.3","","7.3","","87","","30","","15","","24.1","","99.30","","","","","","Clear"
"2010-10-08 06:00","2010","10","08","06:00","9.1","","6.5","","84","","27","","15","","24.1","","99.31","","","","","","Clear"
"2010-10-08 07:00","2010","10","08","07:00","10.1","","6.8","","80","","27","","7","","24.1","","99.31","","","","","","Clear"
"2010-10-08 08:00","2010","10","08","08:00","13.3","","9.1","","76","","24","","9","","24.1","","99.31","","","","","","Clear"
"2010-10-08 09:00","2010","10","08","09:00","15.8","","9.0","","64","","27","","26","","24.1","","99.31","","","","","","Clear"
"2010-10-08 10:00","2010","10","08","10:00","18.1","","8.6","","54","","27","","39","","24.1","","99.26","","","","","","Mainly Clear"
"2010-10-08 11:00","2010","10","08","11:00","20.1","","9.0","","49","","27","","35","","24.1","","99.21","","","","","","Clear"
"2010-10-08 12:00","2010","10","08","12:00","21.7","","10.1","","48","","27","","37","","24.1","","99.18","","","","","","Clear"
"2010-10-08 13:00","2010","10","08","13:00","22.4","","9.2","","43","","27","","33","","24.1","","99.08","","","","","","Clear"
"2010-10-08 14:00","2010","10","08","14:00","23.1","","8.7","","40","","28","","39","","24.1","","99.00","","","","","","Clear"
"2010-10-08 15:00","2010","10","08","15:00","23.4","","8.5","","39","","28","","35","","24.1","","98.97","","","","","","Clear"
"2010-10-08 16:00","2010","10","08","16:00","23.0","","8.2","","39","","28","","37","","24.1","","98.95","","","","","","Mainly Clear"
"2010-10-08 17:00","2010","10","08","17:00","21.8","","8.7","","43","","27","","35","","24.1","","98.96","","","","","","Clear"
"2010-10-08 18:00","2010","10","08","18:00","21.0","","9.0","","46","","28","","26","","24.1","","98.98","","","","","","Mainly Clear"
"2010-10-08 19:00","2010","10","08","19:00","19.2","","9.8","","54","","27","","17","","24.1","","99.04","","","","","","Mainly Clear"
"2010-10-08 20:00","2010","10","08","20:00","17.7","","10.0","","61","","28","","13","","24.1","","99.07","","","","","","Mainly Clear"
"2010-10-08 21:00","2010","10","08","21:00","16.6","","10.1","","65","","27","","13","","24.1","","99.07","","","","","","Clear"
"2010-10-08 22:00","2010","10","08","22:00","16.1","","10.0","","67","","28","","17","","24.1","","99.10","","","","","","Clear"
"2010-10-08 23:00","2010","10","08","23:00","15.0","","9.4","","69","","30","","15","","24.1","","99.11","","","","","","Clear"
"2010-10-09 00:00","2010","10","09","00:00","15.2","","9.1","","67","","30","","15","","24.1","","99.15","","","","","","Clear"
"2010-10-09 01:00","2010","10","09","01:00","15.2","","9.2","","67","","30","","15","","24.1","","99.20","","","","","","Clear"
"2010-10-09 02:00","2010","10","09","02:00","13.8","","10.2","","79","","36","","20","","24.1","","99.29","","","","","","Clear"
"2010-10-09 03:00","2010","10","09","03:00","12.9","","10.7","","86","","1","","19","","24.1","","99.33","","","","","","Clear"
"2010-10-09 04:00","2010","10","09","04:00","11.9","","10.3","","90","","2","","17","","24.1","","99.43","","","","","","Clear"
"2010-10-09 05:00","2010","10","09","05:00","10.8","","9.1","","89","","1","","13","","24.1","","99.54","","","","","","Clear"
"2010-10-09 06:00","2010","10","09","06:00","10.6","","7.9","","83","","36","","13","","24.1","","99.62","","","","","","Clear"
"2010-10-09 07:00","2010","10","09","07:00","10.1","","7.3","","83","","36","","15","","24.1","","99.69","","","","","","Clear"
"2010-10-09 08:00","2010","10","09","08:00","11.5","","6.9","","73","","1","","17","","24.1","","99.79","","","","","","Clear"
"2010-10-09 09:00","2010","10","09","09:00","13.1","","4.7","","57","","2","","17","","24.1","","99.84","","","","","","Clear"
"2010-10-09 10:00","2010","10","09","10:00","14.0","","3.9","","51","","5","","17","","24.1","","99.89","","","","","","Clear"
"2010-10-09 11:00","2010","10","09","11:00","14.6","","3.8","","48","","2","","19","","24.1","","99.89","","","","","","Clear"
"2010-10-09 12:00","2010","10","09","12:00","15.8","","3.3","","43","","5","","13","","24.1","","99.86","","","","","","Clear"
"2010-10-09 13:00","2010","10","09","13:00","15.7","","0.4","","35","","7","","7","","24.1","","99.82","","","","","","Clear"
"2010-10-09 14:00","2010","10","09","14:00","16.0","","4.3","","46","","12","","11","","24.1","","99.79","","","","","","Clear"
"2010-10-09 15:00","2010","10","09","15:00","15.5","","3.7","","45","","14","","9","","24.1","","99.79","","","","","","Clear"
"2010-10-09 16:00","2010","10","09","16:00","15.3","","4.5","","48","","17","","11","","24.1","","99.78","","","","","","Clear"
"2010-10-09 17:00","2010","10","09","17:00","15.3","","3.5","","45","","27","","6","","24.1","","99.77","","","","","","Clear"
"2010-10-09 18:00","2010","10","09","18:00","12.7","","4.1","","56","","15","","7","","24.1","","99.78","","","","","","Clear"
"2010-10-09 19:00","2010","10","09","19:00","11.6","","4.2","","60","","14","","4","","24.1","","99.79","","","","","","Clear"
"2010-10-09 20:00","2010","10","09","20:00","11.1","","3.8","","61","","","","0","","24.1","","99.76","","","","","","Clear"
"2010-10-09 21:00","2010","10","09","21:00","9.6","","2.1","","59","","36","","13","","24.1","","99.76","","","","","","Clear"
"2010-10-09 22:00","2010","10","09","22:00","9.3","","2.7","","63","","31","","9","","24.1","","99.76","","","","","","Clear"
"2010-10-09 23:00","2010","10","09","23:00","7.6","","3.0","","73","","35","","9","","24.1","","99.73","","","","","","Clear"
"2010-10-10 00:00","2010","10","10","00:00","7.9","","3.3","","73","","35","","7","","24.1","","99.68","","","","","","Clear"
"2010-10-10 01:00","2010","10","10","01:00","7.1","","3.0","","75","","33","","9","","24.1","","99.60","","","","","","Clear"
"2010-10-10 02:00","2010","10","10","02:00","6.3","","2.9","","79","","30","","7","","24.1","","99.58","","","","","","Clear"
"2010-10-10 03:00","2010","10","10","03:00","5.6","","2.4","","80","","30","","4","","24.1","","99.52","","","","","","Clear"
"2010-10-10 04:00","2010","10","10","04:00","4.3","","2.6","","89","","32","","6","","24.1","","99.48","","","","","","Clear"
"2010-10-10 05:00","2010","10","10","05:00","4.8","","2.2","","83","","32","","7","","24.1","","99.44","","","","","","Clear"
"2010-10-10 06:00","2010","10","10","06:00","4.5","","2.0","","84","","31","","6","","24.1","","99.40","","","","","","Clear"
"2010-10-10 07:00","2010","10","10","07:00","5.8","","1.9","","76","","31","","4","","24.1","","99.37","","","","","","Clear"
"2010-10-10 08:00","2010","10","10","08:00","8.6","","4.5","","75","","2","","4","","24.1","","99.33","","","","","","Clear"
"2010-10-10 09:00","2010","10","10","09:00","11.9","","4.5","","60","","27","","6","","24.1","","99.26","","","","","","Mostly Cloudy"
"2010-10-10 10:00","2010","10","10","10:00","13.4","","5.6","","59","","25","","7","","24.1","","99.17","","","","","","Mainly Clear"
"2010-10-10 11:00","2010","10","10","11:00","17.4","","6.9","","50","","23","","9","","24.1","","99.07","","","","","","Mostly Cloudy"
"2010-10-10 12:00","2010","10","10","12:00","19.4","","10.0","","55","","29","","15","","24.1","","98.98","","","","","","Mainly Clear"
"2010-10-10 13:00","2010","10","10","13:00","20.8","","11.3","","55","","26","","20","","24.1","","98.87","","","","","","Clear"
"2010-10-10 14:00","2010","10","10","14:00","21.9","","11.6","","52","","27","","19","","24.1","","98.77","","","","","","Clear"
"2010-10-10 15:00","2010","10","10","15:00","22.3","","10.8","","48","","30","","19","","24.1","","98.72","","","","","","Clear"
"2010-10-10 16:00","2010","10","10","16:00","22.1","","10.3","","47","","31","","20","","24.1","","98.69","","","","","","Clear"
"2010-10-10 17:00","2010","10","10","17:00","20.9","","9.4","","48","","32","","22","","24.1","","98.69","","","","","","Clear"
"2010-10-10 18:00","2010","10","10","18:00","19.2","","9.0","","52","","31","","22","","24.1","","98.74","","","","","","Mainly Clear"
"2010-10-10 19:00","2010","10","10","19:00","17.2","","10.0","","63","","31","","17","","24.1","","98.78","","","","","","Mainly Clear"
"2010-10-10 20:00","2010","10","10","20:00","16.0","","10.7","","71","","30","","17","","24.1","","98.81","","","","","","Clear"
"2010-10-10 21:00","2010","10","10","21:00","14.9","","10.7","","76","","31","","19","","24.1","","98.83","","","","","","Clear"
"2010-10-10 22:00","2010","10","10","22:00","12.3","","9.8","","85","","28","","11","","24.1","","98.83","","","","","","Clear"
"2010-10-10 23:00","2010","10","10","23:00","13.1","","9.9","","81","","32","","13","","24.1","","98.83","","","","","","Clear"
"2010-10-11 00:00","2010","10","11","00:00","11.8","","9.4","","85","","29","","6","","24.1","","98.84","","","","","","Mainly Clear"
"2010-10-11 01:00","2010","10","11","01:00","11.3","","8.9","","85","","30","","7","","24.1","","98.87","","","","","","Mainly Clear"
"2010-10-11 02:00","2010","10","11","02:00","11.1","","8.9","","86","","30","","7","","24.1","","98.90","","","","","","Mainly Clear"
"2010-10-11 03:00","2010","10","11","03:00","11.1","","9.0","","87","","32","","7","","24.1","","98.87","","","","","","Mainly Clear"
"2010-10-11 04:00","2010","10","11","04:00","10.2","","9.0","","92","","34","","6","","24.1","","98.90","","","","","","Mainly Clear"
"2010-10-11 05:00","2010","10","11","05:00","10.1","","8.9","","92","","","","0","","24.1","","98.96","","","","","","Mainly Clear"
"2010-10-11 06:00","2010","10","11","06:00","9.7","","8.7","","93","","2","","9","","24.1","","99.00","","","","","","Mainly Clear"
"2010-10-11 07:00","2010","10","11","07:00","10.3","","9.5","","95","","36","","11","","24.1","","99.01","","","","","","Mostly Cloudy"
"2010-10-11 08:00","2010","10","11","08:00","11.4","","10.2","","92","","3","","9","","24.1","","99.04","","","","","","Cloudy"
"2010-10-11 09:00","2010","10","11","09:00","12.4","","10.5","","88","","6","","6","","24.1","","99.08","","","","","","Cloudy"
"2010-10-11 10:00","2010","10","11","10:00","13.0","","10.8","","86","","11","","6","","24.1","","99.06","","","","","","Cloudy"
"2010-10-11 11:00","2010","10","11","11:00","13.2","","10.5","","84","","7","","6","","24.1","","99.07","","","","","","Cloudy"
"2010-10-11 12:00","2010","10","11","12:00","13.2","","10.0","","81","","9","","6","","24.1","","99.02","","","","","","Cloudy"
"2010-10-11 13:00","2010","10","11","13:00","13.5","","9.2","","75","","16","","7","","24.1","","98.99","","","","","","Cloudy"
"2010-10-11 14:00","2010","10","11","14:00","14.1","","10.0","","76","","14","","11","","24.1","","98.89","","","","","","Mostly Cloudy"
"2010-10-11 15:00","2010","10","11","15:00","13.8","","10.2","","79","","16","","9","","24.1","","98.87","","","","","","Mostly Cloudy"
"2010-10-11 16:00","2010","10","11","16:00","13.4","","10.2","","81","","17","","9","","24.1","","98.88","","","","","","Mostly Cloudy"
"2010-10-11 17:00","2010","10","11","17:00","12.8","","10.3","","85","","16","","13","","24.1","","98.88","","","","","","Mostly Cloudy"
"2010-10-11 18:00","2010","10","11","18:00","12.4","","10.5","","88","","16","","7","","24.1","","98.89","","","","","","Mostly Cloudy"
"2010-10-11 19:00","2010","10","11","19:00","12.0","","10.4","","90","","36","","4","","24.1","","98.97","","","","","","Mostly Cloudy"
"2010-10-11 20:00","2010","10","11","20:00","11.1","","6.9","","75","","36","","17","","24.1","","98.97","","","","","","Mostly Cloudy"
"2010-10-11 21:00","2010","10","11","21:00","10.8","","6.7","","76","","35","","15","","24.1","","99.00","","","","","","Mostly Cloudy"
"2010-10-11 22:00","2010","10","11","22:00","10.7","","6.7","","76","","35","","17","","24.1","","98.99","","","","","","Mostly Cloudy"
"2010-10-11 23:00","2010","10","11","23:00","9.6","","6.7","","82","","36","","17","","24.1","","98.97","","","","","","Mostly Cloudy"
"2010-10-12 00:00","2010","10","12","00:00","9.1","","6.4","","83","","36","","13","","24.1","","98.99","","","","","","Mostly Cloudy"
"2010-10-12 01:00","2010","10","12","01:00","8.3","","5.6","","83","","36","","22","","24.1","","98.98","","","","","","Mainly Clear"
"2010-10-12 02:00","2010","10","12","02:00","7.2","","4.6","","84","","36","","19","","24.1","","98.99","","","","","","Mainly Clear"
"2010-10-12 03:00","2010","10","12","03:00","6.4","","4.1","","85","","36","","22","","24.1","","99.01","","","","","","Mainly Clear"
"2010-10-12 04:00","2010","10","12","04:00","5.8","","3.8","","87","","35","","19","","24.1","","99.06","","","","","","Mainly Clear"
"2010-10-12 05:00","2010","10","12","05:00","5.4","","3.6","","88","","36","","20","","24.1","","99.14","","","","","","Mainly Clear"
"2010-10-12 06:00","2010","10","12","06:00","5.7","","3.5","","86","","36","","26","","24.1","","99.18","","","","","","Mostly Cloudy"
"2010-10-12 07:00","2010","10","12","07:00","6.3","","3.6","","83","","36","","17","","24.1","","99.25","","","","","","Mostly Cloudy"
"2010-10-12 08:00","2010","10","12","08:00","7.7","","2.8","","71","","1","","22","","24.1","","99.32","","","","","","Mostly Cloudy"
"2010-10-12 09:00","2010","10","12","09:00","8.9","","2.6","","65","","36","","26","","24.1","","99.34","","","","","","Mainly Clear"
"2010-10-12 10:00","2010","10","12","10:00","9.3","","1.5","","58","","36","","24","","24.1","","99.37","","","","","","Mostly Cloudy"
"2010-10-12 11:00","2010","10","12","11:00","9.4","","1.6","","58","","36","","19","","24.1","","99.41","","","","","","Mostly Cloudy"
"2010-10-12 12:00","2010","10","12","12:00","11.2","","1.8","","52","","35","","20","","24.1","","99.41","","","","","","Mostly Cloudy"
"2010-10-12 13:00","2010","10","12","13:00","12.1","","1.2","","47","","34","","22","","24.1","","99.39","","","","","","Mainly Clear"
"2010-10-12 14:00","2010","10","12","14:00","12.3","","0.6","","45","","33","","15","","24.1","","99.39","","","","","","Clear"
"2010-10-12 15:00","2010","10","12","15:00","12.4","","1.1","","46","","34","","11","","24.1","","99.42","","","","","","Clear"
"2010-10-12 16:00","2010","10","12","16:00","12.4","","0.9","","45","","2","","13","","24.1","","99.41","","","","","","Clear"
"2010-10-12 17:00","2010","10","12","17:00","11.8","","1.3","","49","","2","","11","","24.1","","99.44","","","","","","Clear"
"2010-10-12 18:00","2010","10","12","18:00","10.0","","0.9","","53","","35","","15","","24.1","","99.50","","","","","","Clear"
"2010-10-12 19:00","2010","10","12","19:00","9.1","","0.9","","56","","1","","13","","24.1","","99.54","","","","","","Clear"
"2010-10-12 20:00","2010","10","12","20:00","8.3","","0.9","","60","","1","","15","","24.1","","99.55","","","","","","Clear"
"2010-10-12 21:00","2010","10","12","21:00","6.6","","1.2","","68","","1","","11","","24.1","","99.57","","","","","","Clear"
"2010-10-12 22:00","2010","10","12","22:00","6.0","","1.3","","72","","31","","11","","24.1","","99.58","","","","","","Clear"
"2010-10-12 23:00","2010","10","12","23:00","5.8","","1.5","","74","","34","","4","","24.1","","99.59","","","","","","Clear"
"2010-10-13 00:00","2010","10","13","00:00","5.6","","1.4","","74","","31","","7","","24.1","","99.62","","","","","","Clear"
"2010-10-13 01:00","2010","10","13","01:00","4.6","","1.5","","80","","31","","7","","24.1","","99.62","","","","","","Clear"
"2010-10-13 02:00","2010","10","13","02:00","2.5","","0.6","","87","","33","","7","","24.1","","99.60","","","","","","Clear"
"2010-10-13 03:00","2010","10","13","03:00","3.3","","0.5","","82","","4","","4","","24.1","","99.59","","","","","","Clear"
"2010-10-13 04:00","2010","10","13","04:00","2.6","","0.3","","85","","29","","7","","24.1","","99.61","","","","","","Clear"
"2010-10-13 05:00","2010","10","13","05:00","2.4","","0.2","","85","","4","","4","","24.1","","99.59","","","","","","Clear"
"2010-10-13 06:00","2010","10","13","06:00","2.4","","0.2","","85","","29","","4","","24.1","","99.64","","","","","","Clear"
"2010-10-13 07:00","2010","10","13","07:00","3.1","","0.5","","83","","29","","4","","24.1","","99.66","","","","","","Mainly Clear"
"2010-10-13 08:00","2010","10","13","08:00","6.8","","2.1","","72","","28","","6","","24.1","","99.71","","","","","","Mainly Clear"
"2010-10-13 09:00","2010","10","13","09:00","10.6","","5.1","","69","","21","","11","","24.1","","99.71","","","","","","Mainly Clear"
"2010-10-13 10:00","2010","10","13","10:00","13.9","","6.5","","61","","22","","11","","24.1","","99.67","","","","","","Mostly Cloudy"
"2010-10-13 11:00","2010","10","13","11:00","14.8","","8.0","","64","","21","","13","","24.1","","99.64","","","","","","Mostly Cloudy"
"2010-10-13 12:00","2010","10","13","12:00","14.2","","8.1","","67","","14","","9","","24.1","","99.58","","","","","","Mostly Cloudy"
"2010-10-13 13:00","2010","10","13","13:00","14.3","","8.7","","69","","15","","13","","24.1","","99.51","","","","","","Mostly Cloudy"
"2010-10-13 14:00","2010","10","13","14:00","14.6","","9.1","","70","","15","","11","","24.1","","99.45","","","","","","Cloudy"
"2010-10-13 15:00","2010","10","13","15:00","14.3","","8.9","","70","","15","","11","","24.1","","99.45","","","","","","Cloudy"
"2010-10-13 16:00","2010","10","13","16:00","14.4","","8.5","","68","","16","","11","","24.1","","99.44","","","","","","Rain"
"2010-10-13 17:00","2010","10","13","17:00","13.1","","10.1","","82","","16","","9","","24.1","","99.44","","","","","","Rain"
"2010-10-13 18:00","2010","10","13","18:00","12.7","","10.7","","88","","15","","6","","19.3","","99.46","","","","","","Rain Showers"
"2010-10-13 19:00","2010","10","13","19:00","12.7","","11.1","","90","","13","","7","","19.3","","99.46","","","","","","Rain Showers"
"2010-10-13 20:00","2010","10","13","20:00","11.9","","10.8","","93","","16","","7","","24.1","","99.43","","","","","","Rain Showers"
"2010-10-13 21:00","2010","10","13","21:00","11.4","","10.5","","94","","16","","7","","19.3","","99.41","","","","","","Rain Showers"
"2010-10-13 22:00","2010","10","13","22:00","11.2","","11.0","","99","","17","","7","","16.1","","99.39","","","","","","Rain Showers"
"2010-10-13 23:00","2010","10","13","23:00","11.1","","11.1","","100","","","","0","","9.7","","99.37","","","","","","Rain Showers,Fog"
"2010-10-14 00:00","2010","10","14","00:00","11.1","","11.1","","100","","13","","4","","6.4","","99.29","","","","","","Rain Showers,Fog"
"2010-10-14 01:00","2010","10","14","01:00","9.9","","9.9","","100","","14","","6","","16.1","","99.25","","","","","","Rain Showers"
"2010-10-14 02:00","2010","10","14","02:00","9.9","","9.9","","100","","","","0","","16.1","","99.16","","","","","","Rain Showers"
"2010-10-14 03:00","2010","10","14","03:00","9.6","","9.4","","99","","15","","7","","16.1","","99.11","","","","","","Rain"
"2010-10-14 04:00","2010","10","14","04:00","8.8","","8.8","","100","","","","0","","16.1","","99.14","","","","","","Rain"
"2010-10-14 05:00","2010","10","14","05:00","8.4","","8.4","","100","","","","0","","16.1","","99.11","","","","","","Rain"
"2010-10-14 06:00","2010","10","14","06:00","8.6","","8.6","","100","","","","0","","14.5","","99.11","","","","","","Rain"
"2010-10-14 07:00","2010","10","14","07:00","9.3","","9.3","","100","","34","","15","","12.9","","99.10","","","","","","Rain"
"2010-10-14 08:00","2010","10","14","08:00","9.8","","8.9","","94","","35","","20","","19.3","","99.11","","","","","","Rain"
"2010-10-14 09:00","2010","10","14","09:00","9.9","","8.5","","91","","33","","20","","24.1","","99.05","","","","","","Rain"
"2010-10-14 10:00","2010","10","14","10:00","10.7","","8.7","","87","","35","","19","","24.1","","99.01","","","","","","Rain"
"2010-10-14 11:00","2010","10","14","11:00","11.1","","9.4","","89","","32","","24","","24.1","","98.97","","","","","","Cloudy"
"2010-10-14 12:00","2010","10","14","12:00","11.3","","8.9","","85","","32","","26","","24.1","","98.94","","","","","","Cloudy"
"2010-10-14 13:00","2010","10","14","13:00","10.0","","8.7","","92","","33","","28","","24.1","","98.93","","","","","","Rain"
"2010-10-14 14:00","2010","10","14","14:00","10.2","","8.1","","87","","33","","32","","24.1","","98.90","","","","","","Rain"
"2010-10-14 15:00","2010","10","14","15:00","10.7","","7.1","","78","","35","","26","","24.1","","98.88","","","","","","Rain"
"2010-10-14 16:00","2010","10","14","16:00","10.7","","7.8","","82","","34","","17","","24.1","","98.85","","","","","","Mostly Cloudy"
"2010-10-14 17:00","2010","10","14","17:00","11.1","","8.5","","84","","31","","15","","24.1","","98.86","","","","","","Mostly Cloudy"
"2010-10-14 18:00","2010","10","14","18:00","10.0","","5.7","","75","","31","","17","","24.1","","98.89","","","","","","Mostly Cloudy"
"2010-10-14 19:00","2010","10","14","19:00","9.6","","5.0","","73","","31","","13","","24.1","","98.91","","","","","","Mostly Cloudy"
"2010-10-14 20:00","2010","10","14","20:00","7.9","","6.2","","89","","1","","6","","24.1","","98.93","","","","","","Mostly Cloudy"
"2010-10-14 21:00","2010","10","14","21:00","8.1","","6.6","","90","","36","","7","","24.1","","98.89","","","","","","Mainly Clear"
"2010-10-14 22:00","2010","10","14","22:00","6.8","","5.7","","93","","33","","7","","24.1","","98.84","","","","","","Mainly Clear"
"2010-10-14 23:00","2010","10","14","23:00","6.1","","5.4","","95","","29","","9","","24.1","","98.81","","","","","","Clear"
"2010-10-15 00:00","2010","10","15","00:00","5.2","","4.6","","96","","31","","11","","24.1","","98.78","","","","","","Clear"
"2010-10-15 01:00","2010","10","15","01:00","4.9","","4.4","","97","","31","","7","","24.1","","98.73","","","","","","Clear"
"2010-10-15 02:00","2010","10","15","02:00","4.1","","3.5","","96","","28","","11","","24.1","","98.69","","","","","","Clear"
"2010-10-15 03:00","2010","10","15","03:00","4.2","","2.9","","91","","31","","17","","24.1","","98.65","","","","","","Clear"
"2010-10-15 04:00","2010","10","15","04:00","4.1","","2.9","","92","","32","","17","","24.1","","98.65","","","","","","Clear"
"2010-10-15 05:00","2010","10","15","05:00","5.1","","3.0","","86","","34","","19","","24.1","","98.66","","","","","","Clear"
"2010-10-15 06:00","2010","10","15","06:00","4.7","","2.8","","87","","34","","15","","24.1","","98.68","","","","","","Mainly Clear"
"2010-10-15 07:00","2010","10","15","07:00","6.7","","4.2","","84","","34","","22","","24.1","","98.69","","","","","","Mainly Clear"
"2010-10-15 08:00","2010","10","15","08:00","7.9","","5.2","","83","","33","","22","","24.1","","98.75","","","","","","Mainly Clear"
"2010-10-15 09:00","2010","10","15","09:00","9.6","","5.0","","73","","34","","24","","24.1","","98.76","","","","","","Mainly Clear"
"2010-10-15 10:00","2010","10","15","10:00","10.6","","4.1","","64","","35","","39","","24.1","","98.74","","","","","","Mostly Cloudy"
"2010-10-15 11:00","2010","10","15","11:00","12.1","","3.3","","55","","34","","44","","24.1","","98.73","","","","","","Mostly Cloudy"
"2010-10-15 12:00","2010","10","15","12:00","13.3","","1.8","","46","","33","","56","","24.1","","98.68","","","","","","Mostly Cloudy"
"2010-10-15 13:00","2010","10","15","13:00","13.3","","2.4","","48","","35","","37","","24.1","","98.68","","","","","","Mostly Cloudy"
"2010-10-15 14:00","2010","10","15","14:00","13.5","","3.1","","49","","34","","41","","24.1","","98.71","","","","","","Mostly Cloudy"
"2010-10-15 15:00","2010","10","15","15:00","13.2","","3.2","","51","","34","","37","","24.1","","98.77","","","","","","Mostly Cloudy"
"2010-10-15 16:00","2010","10","15","16:00","13.5","","0.8","","42","","33","","50","","24.1","","98.85","","","","","","Mostly Cloudy"
"2010-10-15 17:00","2010","10","15","17:00","12.8","","1.0","","44","","34","","37","","24.1","","98.92","","","","","","Mostly Cloudy"
"2010-10-15 18:00","2010","10","15","18:00","12.1","","0.5","","45","","33","","30","","24.1","","99.03","","","","","","Mainly Clear"
"2010-10-15 19:00","2010","10","15","19:00","11.7","","0.6","","46","","33","","26","","24.1","","99.11","","","","","","Mainly Clear"
"2010-10-15 20:00","2010","10","15","20:00","9.6","","2.1","","59","","32","","20","","24.1","","99.17","","","","","","Clear"
"2010-10-15 21:00","2010","10","15","21:00","9.0","","1.8","","61","","32","","20","","24.1","","99.23","","","","","","Clear"
"2010-10-15 22:00","2010","10","15","22:00","7.8","","1.9","","66","","31","","19","","24.1","","99.27","","","","","","Clear"
"2010-10-15 23:00","2010","10","15","23:00","7.6","","2.9","","72","","31","","17","","24.1","","99.29","","","","","","Clear"
"2010-10-16 00:00","2010","10","16","00:00","6.5","","2.7","","77","","31","","15","","24.1","","99.32","","","","","","Clear"
"2010-10-16 01:00","2010","10","16","01:00","7.3","","3.5","","77","","32","","20","","24.1","","99.32","","","","","","Clear"
"2010-10-16 02:00","2010","10","16","02:00","8.0","","3.1","","71","","34","","20","","24.1","","99.35","","","","","","Clear"
"2010-10-16 03:00","2010","10","16","03:00","7.0","","2.9","","75","","32","","22","","24.1","","99.38","","","","","","Clear"
"2010-10-16 04:00","2010","10","16","04:00","6.4","","3.0","","79","","32","","20","","24.1","","99.42","","","","","","Clear"
"2010-10-16 05:00","2010","10","16","05:00","6.2","","3.7","","84","","32","","19","","24.1","","99.48","","","","","","Clear"
"2010-10-16 06:00","2010","10","16","06:00","5.6","","3.9","","89","","34","","19","","24.1","","99.55","","","","","","Clear"
"2010-10-16 07:00","2010","10","16","07:00","5.3","","3.7","","89","","35","","22","","24.1","","99.61","","","","","","Clear"
"2010-10-16 08:00","2010","10","16","08:00","6.3","","4.3","","87","","36","","13","","24.1","","99.69","","","","","","Clear"
"2010-10-16 09:00","2010","10","16","09:00","8.5","","5.3","","80","","34","","19","","24.1","","99.70","","","","","","Clear"
"2010-10-16 10:00","2010","10","16","10:00","10.4","","4.3","","66","","34","","19","","24.1","","99.69","","","","","","Clear"
"2010-10-16 11:00","2010","10","16","11:00","12.2","","3.1","","54","","32","","30","","24.1","","99.67","","","","","","Clear"
"2010-10-16 12:00","2010","10","16","12:00","13.5","","3.4","","50","","33","","20","","24.1","","99.63","","","","","","Clear"
"2010-10-16 13:00","2010","10","16","13:00","14.2","","3.5","","48","","27","","17","","24.1","","99.55","","","","","","Mainly Clear"
"2010-10-16 14:00","2010","10","16","14:00","15.1","","3.1","","44","","31","","19","","24.1","","99.49","","","","","","Mainly Clear"
"2010-10-16 15:00","2010","10","16","15:00","14.9","","2.0","","42","","31","","22","","24.1","","99.44","","","","","","Mainly Clear"
"2010-10-16 16:00","2010","10","16","16:00","14.6","","1.9","","42","","28","","17","","24.1","","99.40","","","","","","Mainly Clear"
"2010-10-16 17:00","2010","10","16","17:00","13.2","","3.1","","50","","26","","13","","24.1","","99.37","","","","","","Mainly Clear"
"2010-10-16 18:00","2010","10","16","18:00","11.4","","3.7","","59","","27","","13","","24.1","","99.38","","","","","","Mainly Clear"
"2010-10-16 19:00","2010","10","16","19:00","10.7","","4.8","","67","","28","","11","","24.1","","99.41","","","","","","Mainly Clear"
"2010-10-16 20:00","2010","10","16","20:00","9.7","","4.4","","70","","30","","11","","24.1","","99.37","","","","","","Mainly Clear"
"2010-10-16 21:00","2010","10","16","21:00","9.0","","3.9","","70","","30","","6","","24.1","","99.35","","","","","","Mainly Clear"
"2010-10-16 22:00","2010","10","16","22:00","10.1","","5.0","","71","","22","","7","","24.1","","99.33","","","","","","Rain Showers"
"2010-10-16 23:00","2010","10","16","23:00","10.0","","4.9","","71","","22","","11","","24.1","","99.24","","","","","","Mostly Cloudy"
"2010-10-17 00:00","2010","10","17","00:00","10.9","","4.6","","65","","21","","9","","24.1","","99.16","","","","","","Mostly Cloudy"
"2010-10-17 01:00","2010","10","17","01:00","9.7","","4.9","","72","","22","","7","","24.1","","99.12","","","","","","Mostly Cloudy"
"2010-10-17 02:00","2010","10","17","02:00","10.0","","5.2","","72","","24","","4","","24.1","","99.06","","","","","","Mostly Cloudy"
"2010-10-17 03:00","2010","10","17","03:00","8.6","","5.1","","79","","27","","9","","24.1","","99.03","","","","","","Mainly Clear"
"2010-10-17 04:00","2010","10","17","04:00","8.4","","5.9","","84","","27","","13","","24.1","","99.02","","","","","","Mainly Clear"
"2010-10-17 05:00","2010","10","17","05:00","9.0","","6.6","","85","","28","","19","","24.1","","99.04","","","","","","Mainly Clear"
"2010-10-17 06:00","2010","10","17","06:00","9.2","","7.4","","88","","31","","19","","24.1","","99.09","","","","","","Clear"
"2010-10-17 07:00","2010","10","17","07:00","9.6","","7.6","","87","","31","","20","","24.1","","99.13","","","","","","Mainly Clear"
"2010-10-17 08:00","2010","10","17","08:00","11.0","","7.9","","81","","31","","20","","24.1","","99.20","","","","","","Mainly Clear"
"2010-10-17 09:00","2010","10","17","09:00","12.8","","8.2","","74","","32","","22","","24.1","","99.25","","","","","","Mainly Clear"
"2010-10-17 10:00","2010","10","17","10:00","13.7","","6.8","","63","","31","","19","","24.1","","99.27","","","","","","Mostly Cloudy"
"2010-10-17 11:00","2010","10","17","11:00","15.0","","2.9","","44","","31","","33","","24.1","","99.27","","","","","","Mostly Cloudy"
"2010-10-17 12:00","2010","10","17","12:00","15.2","","2.0","","41","","30","","37","","24.1","","99.25","","","","","","Mostly Cloudy"
"2010-10-17 13:00","2010","10","17","13:00","15.7","","3.1","","43","","31","","35","","24.1","","99.20","","","","","","Mostly Cloudy"
"2010-10-17 14:00","2010","10","17","14:00","16.6","","2.4","","38","","30","","41","","24.1","","99.15","","","","","","Mainly Clear"
"2010-10-17 15:00","2010","10","17","15:00","16.0","","1.9","","39","","31","","41","","24.1","","99.15","","","","","","Mainly Clear"
"2010-10-17 16:00","2010","10","17","16:00","14.7","","2.0","","42","","29","","35","","24.1","","99.20","","","","","","Mainly Clear"
"2010-10-17 17:00","2010","10","17","17:00","13.4","","1.8","","45","","30","","39","","24.1","","99.26","","","","","","Mainly Clear"
"2010-10-17 18:00","2010","10","17","18:00","11.2","","1.7","","52","","31","","33","","24.1","","99.33","","","","","","Clear"
"2010-10-17 19:00","2010","10","17","19:00","10.4","","2.3","","57","","30","","24","","24.1","","99.36","","","","","","Clear"
"2010-10-17 20:00","2010","10","17","20:00","9.0","","2.9","","66","","29","","19","","24.1","","99.37","","","","","","Clear"
"2010-10-17 21:00","2010","10","17","21:00","7.8","","2.7","","70","","29","","7","","24.1","","99.39","","","","","","Clear"
"2010-10-17 22:00","2010","10","17","22:00","6.3","","2.4","","76","","27","","11","","24.1","","99.40","","","","","","Clear"
"2010-10-17 23:00","2010","10","17","23:00","4.9","","2.5","","84","","26","","13","","24.1","","99.40","","","","","","Mainly Clear"
"2010-10-18 00:00","2010","10","18","00:00","5.1","","2.8","","85","","27","","17","","24.1","","99.42","","","","","","Mainly Clear"
"2010-10-18 01:00","2010","10","18","01:00","4.9","","2.7","","86","","29","","4","","24.1","","99.41","","","","","","Mostly Cloudy"
"2010-10-18 02:00","2010","10","18","02:00","4.9","","2.1","","82","","28","","6","","24.1","","99.42","","","","","","Mostly Cloudy"
"2010-10-18 03:00","2010","10","18","03:00","4.8","","2.5","","85","","28","","13","","24.1","","99.40","","","","","","Mainly Clear"
"2010-10-18 04:00","2010","10","18","04:00","3.7","","2.2","","90","","27","","11","","24.1","","99.43","","","","","","Mostly Cloudy"
"2010-10-18 05:00","2010","10","18","05:00","5.6","","3.3","","85","","29","","15","","24.1","","99.46","","","","","","Mostly Cloudy"
"2010-10-18 06:00","2010","10","18","06:00","6.6","","0.8","","66","","31","","20","","24.1","","99.50","","","","","","Mostly Cloudy"
"2010-10-18 07:00","2010","10","18","07:00","6.9","","0.0","","61","","30","","20","","24.1","","99.52","","","","","","Mostly Cloudy"
"2010-10-18 08:00","2010","10","18","08:00","7.3","","0.8","","63","","29","","15","","24.1","","99.59","","","","","","Mostly Cloudy"
"2010-10-18 09:00","2010","10","18","09:00","8.1","","1.4","","63","","31","","15","","24.1","","99.61","","","","","","Mostly Cloudy"
"2010-10-18 10:00","2010","10","18","10:00","8.8","","1.1","","58","","35","","9","","24.1","","99.61","","","","","","Mostly Cloudy"
"2010-10-18 11:00","2010","10","18","11:00","9.7","","1.1","","55","","","","0","","24.1","","99.58","","","","","","Mostly Cloudy"
"2010-10-18 12:00","2010","10","18","12:00","10.9","","0.4","","48","","28","","19","","24.1","","99.51","","","","","","Mostly Cloudy"
"2010-10-18 13:00","2010","10","18","13:00","11.2","","-0.8","","43","","31","","22","","24.1","","99.43","","","","","","Mostly Cloudy"
"2010-10-18 14:00","2010","10","18","14:00","11.3","","-0.4","","44","","31","","20","","24.1","","99.37","","","","","","Mostly Cloudy"
"2010-10-18 15:00","2010","10","18","15:00","11.4","","1.7","","51","","29","","19","","24.1","","99.32","","","","","","Mostly Cloudy"
"2010-10-18 16:00","2010","10","18","16:00","11.2","","1.7","","52","","32","","15","","24.1","","99.29","","","","","","Mostly Cloudy"
"2010-10-18 17:00","2010","10","18","17:00","10.0","","1.3","","55","","29","","17","","24.1","","99.27","","","","","","Mostly Cloudy"
"2010-10-18 18:00","2010","10","18","18:00","8.6","","1.5","","61","","28","","11","","24.1","","99.28","","","","","","Mostly Cloudy"
"2010-10-18 19:00","2010","10","18","19:00","6.9","","1.6","","69","","27","","11","","24.1","","99.27","","","","","","Mainly Clear"
"2010-10-18 20:00","2010","10","18","20:00","7.3","","2.4","","71","","30","","11","","24.1","","99.29","","","","","","Mostly Cloudy"
"2010-10-18 21:00","2010","10","18","21:00","5.9","","2.1","","77","","29","","7","","24.1","","99.31","","","","","","Clear"
"2010-10-18 22:00","2010","10","18","22:00","3.7","","1.0","","82","","27","","9","","24.1","","99.29","","","","","","Mainly Clear"
"2010-10-18 23:00","2010","10","18","23:00","4.5","","1.6","","81","","","","0","","24.1","","99.27","","","","","","Clear"
"2010-10-19 00:00","2010","10","19","00:00","4.4","","1.8","","83","","29","","9","","24.1","","99.22","","","","","","Mostly Cloudy"
"2010-10-19 01:00","2010","10","19","01:00","2.7","","1.3","","90","","27","","7","","24.1","","99.19","","","","","","Mostly Cloudy"
"2010-10-19 02:00","2010","10","19","02:00","4.0","","1.1","","81","","29","","11","","24.1","","99.14","","","","","","Mostly Cloudy"
"2010-10-19 03:00","2010","10","19","03:00","4.6","","1.3","","79","","26","","7","","24.1","","99.10","","","","","","Mostly Cloudy"
"2010-10-19 04:00","2010","10","19","04:00","5.8","","2.4","","79","","25","","11","","24.1","","99.09","","","","","","Cloudy"
"2010-10-19 05:00","2010","10","19","05:00","5.9","","2.7","","80","","27","","9","","24.1","","99.12","","","","","","Cloudy"
"2010-10-19 06:00","2010","10","19","06:00","6.7","","2.5","","75","","28","","7","","24.1","","99.12","","","","","","Rain Showers"
"2010-10-19 07:00","2010","10","19","07:00","6.4","","3.6","","82","","26","","11","","24.1","","99.11","","","","","","Mostly Cloudy"
"2010-10-19 08:00","2010","10","19","08:00","7.3","","3.8","","78","","26","","19","","24.1","","99.15","","","","","","Mostly Cloudy"
"2010-10-19 09:00","2010","10","19","09:00","8.9","","4.5","","74","","26","","17","","24.1","","99.11","","","","","","Mostly Cloudy"
"2010-10-19 10:00","2010","10","19","10:00","11.1","","4.5","","64","","28","","15","","24.1","","99.09","","","","","","Mainly Clear"
"2010-10-19 11:00","2010","10","19","11:00","11.8","","2.0","","51","","28","","26","","24.1","","99.08","","","","","","Mainly Clear"
"2010-10-19 12:00","2010","10","19","12:00","12.2","","2.2","","50","","27","","20","","24.1","","99.03","","","","","","Mostly Cloudy"
"2010-10-19 13:00","2010","10","19","13:00","12.4","","3.3","","54","","31","","19","","24.1","","98.98","","","","","","Mostly Cloudy"
"2010-10-19 14:00","2010","10","19","14:00","13.3","","2.2","","47","","28","","20","","24.1","","98.92","","","","","","Mostly Cloudy"
"2010-10-19 15:00","2010","10","19","15:00","13.6","","1.1","","42","","28","","32","","24.1","","98.92","","","","","","Mostly Cloudy"
"2010-10-19 16:00","2010","10","19","16:00","12.8","","0.1","","42","","28","","28","","24.1","","98.95","","","","","","Mostly Cloudy"
"2010-10-19 17:00","2010","10","19","17:00","11.8","","1.0","","47","","27","","24","","24.1","","98.98","","","","","","Mostly Cloudy"
"2010-10-19 18:00","2010","10","19","18:00","9.3","","0.8","","55","","26","","17","","24.1","","98.99","","","","","","Mostly Cloudy"
"2010-10-19 19:00","2010","10","19","19:00","10.0","","0.9","","53","","23","","19","","24.1","","99.02","","","","","","Mostly Cloudy"
"2010-10-19 20:00","2010","10","19","20:00","9.5","","0.8","","55","","22","","19","","24.1","","99.01","","","","","","Clear"
"2010-10-19 21:00","2010","10","19","21:00","8.8","","0.6","","56","","22","","17","","24.1","","99.00","","","","","","Mostly Cloudy"
"2010-10-19 22:00","2010","10","19","22:00","9.0","","0.7","","56","","23","","22","","24.1","","99.00","","","","","","Cloudy"
"2010-10-19 23:00","2010","10","19","23:00","8.9","","0.4","","55","","24","","20","","24.1","","98.98","","","","","","Cloudy"
"2010-10-20 00:00","2010","10","20","00:00","9.0","","0.5","","55","","26","","17","","24.1","","98.99","","","","","","Cloudy"
"2010-10-20 01:00","2010","10","20","01:00","9.2","","1.2","","57","","29","","13","","24.1","","99.01","","","","","","Cloudy"
"2010-10-20 02:00","2010","10","20","02:00","8.7","","1.8","","62","","27","","11","","24.1","","98.99","","","","","","Mostly Cloudy"
"2010-10-20 03:00","2010","10","20","03:00","5.9","","1.5","","73","","27","","11","","24.1","","98.93","","","","","","Mostly Cloudy"
"2010-10-20 04:00","2010","10","20","04:00","6.2","","1.9","","74","","24","","9","","24.1","","98.91","","","","","","Mostly Cloudy"
"2010-10-20 05:00","2010","10","20","05:00","5.2","","1.9","","79","","25","","9","","24.1","","98.90","","","","","","Mostly Cloudy"
"2010-10-20 06:00","2010","10","20","06:00","4.9","","1.9","","81","","25","","7","","24.1","","98.88","","","","","","Mainly Clear"
"2010-10-20 07:00","2010","10","20","07:00","6.1","","3.6","","84","","24","","9","","24.1","","98.83","","","","","","Mostly Cloudy"
"2010-10-20 08:00","2010","10","20","08:00","9.0","","4.7","","74","","23","","11","","24.1","","98.82","","","","","","Mostly Cloudy"
"2010-10-20 09:00","2010","10","20","09:00","10.8","","3.9","","62","","23","","19","","24.1","","98.77","","","","","","Mostly Cloudy"
"2010-10-20 10:00","2010","10","20","10:00","12.2","","4.7","","60","","23","","32","","24.1","","98.70","","","","","","Mostly Cloudy"
"2010-10-20 11:00","2010","10","20","11:00","14.1","","3.6","","49","","23","","35","","24.1","","98.59","","","","","","Mainly Clear"
"2010-10-20 12:00","2010","10","20","12:00","15.0","","4.7","","50","","21","","33","","24.1","","98.47","","","","","","Mostly Cloudy"
"2010-10-20 13:00","2010","10","20","13:00","15.1","","4.6","","49","","23","","41","","24.1","","98.35","","","","","","Mostly Cloudy"
"2010-10-20 14:00","2010","10","20","14:00","16.3","","5.1","","47","","22","","33","","24.1","","98.23","","","","","","Mostly Cloudy"
"2010-10-20 15:00","2010","10","20","15:00","16.0","","5.1","","48","","22","","39","","24.1","","98.14","","","","","","Mostly Cloudy"
"2010-10-20 16:00","2010","10","20","16:00","16.0","","5.0","","48","","22","","41","","24.1","","98.06","","","","","","Mostly Cloudy"
"2010-10-20 17:00","2010","10","20","17:00","15.4","","5.7","","52","","22","","35","","24.1","","98.02","","","","","","Mostly Cloudy"
"2010-10-20 18:00","2010","10","20","18:00","14.3","","5.4","","55","","21","","24","","24.1","","97.96","","","","","","Mainly Clear"
"2010-10-20 19:00","2010","10","20","19:00","14.2","","5.4","","55","","22","","28","","24.1","","97.86","","","","","","Mainly Clear"
"2010-10-20 20:00","2010","10","20","20:00","14.4","","5.8","","56","","22","","28","","24.1","","97.82","","","","","","Mainly Clear"
"2010-10-20 21:00","2010","10","20","21:00","10.9","","8.4","","85","","29","","41","","16.1","","97.93","","","","","","Rain Showers"
"2010-10-20 22:00","2010","10","20","22:00","10.1","","9.1","","93","","29","","28","","12.9","","97.96","","","","","","Moderate Rain Showers"
"2010-10-20 23:00","2010","10","20","23:00","8.5","","6.2","","85","","26","","30","","19.3","","97.85","","","","","","Rain Showers"
"2010-10-21 00:00","2010","10","21","00:00","8.3","","6.1","","86","","28","","26","","24.1","","97.84","","","","","","Rain Showers"
"2010-10-21 01:00","2010","10","21","01:00","8.0","","6.5","","90","","30","","13","","24.1","","97.83","","","","","","Rain Showers"
"2010-10-21 02:00","2010","10","21","02:00","7.3","","6.1","","92","","27","","11","","24.1","","97.76","","","","","","Mostly Cloudy"
"2010-10-21 03:00","2010","10","21","03:00","6.9","","5.9","","93","","26","","17","","24.1","","97.73","","","","","","Mostly Cloudy"
"2010-10-21 04:00","2010","10","21","04:00","6.8","","5.6","","92","","26","","24","","24.1","","97.88","","","","","","Mostly Cloudy"
"2010-10-21 05:00","2010","10","21","05:00","6.6","","4.2","","85","","29","","30","","24.1","","97.94","","","","","","Mostly Cloudy"
"2010-10-21 06:00","2010","10","21","06:00","6.7","","3.6","","81","","31","","32","","24.1","","98.03","","","","","","Mostly Cloudy"
"2010-10-21 07:00","2010","10","21","07:00","5.9","","2.4","","78","","31","","33","","24.1","","98.13","","","","","","Mainly Clear"
"2010-10-21 08:00","2010","10","21","08:00","5.8","","0.6","","69","","31","","30","","24.1","","98.24","","","","","","Mainly Clear"
"2010-10-21 09:00","2010","10","21","09:00","6.7","","1.1","","67","","33","","32","","24.1","","98.33","","","","","","Mainly Clear"
"2010-10-21 10:00","2010","10","21","10:00","6.5","","2.6","","76","","1","","26","","24.1","","98.42","","","","","","Mostly Cloudy"
"2010-10-21 11:00","2010","10","21","11:00","6.8","","2.7","","75","","1","","11","","24.1","","98.47","","","","","","Mostly Cloudy"
"2010-10-21 12:00","2010","10","21","12:00","7.7","","2.2","","68","","28","","4","","24.1","","98.47","","","","","","Mostly Cloudy"
"2010-10-21 13:00","2010","10","21","13:00","7.3","","2.8","","73","","4","","4","","24.1","","98.48","","","","","","Rain Showers"
"2010-10-21 14:00","2010","10","21","14:00","6.4","","4.5","","88","","36","","15","","24.1","","98.51","","","","","","Mostly Cloudy"
"2010-10-21 15:00","2010","10","21","15:00","6.0","","2.2","","77","","36","","19","","24.1","","98.58","","","","","","Cloudy"
"2010-10-21 16:00","2010","10","21","16:00","5.6","","1.7","","76","","33","","24","","24.1","","98.65","","","","","","Mostly Cloudy"
"2010-10-21 17:00","2010","10","21","17:00","6.0","","1.0","","70","","31","","20","","24.1","","98.70","","","","","","Mostly Cloudy"
"2010-10-21 18:00","2010","10","21","18:00","5.8","","-0.2","","65","","29","","32","","24.1","","98.78","","","","","","Mostly Cloudy"
"2010-10-21 19:00","2010","10","21","19:00","4.1","","1.2","","81","","35","","11","","24.1","","98.87","","","","","","Mostly Cloudy"
"2010-10-21 20:00","2010","10","21","20:00","4.0","","-0.1","","75","","32","","20","","24.1","","98.88","","","","","","Mainly Clear"
"2010-10-21 21:00","2010","10","21","21:00","2.2","","-2.0","","74","","27","","13","","24.1","","98.97","","","","","","Mainly Clear"
"2010-10-21 22:00","2010","10","21","22:00","3.4","","-0.1","","78","","28","","11","","24.1","","99.03","","","","","","Mostly Cloudy"
"2010-10-21 23:00","2010","10","21","23:00","3.9","","-0.9","","71","","29","","9","","24.1","","99.04","","","","","","Mostly Cloudy"
"2010-10-22 00:00","2010","10","22","00:00","3.6","","-0.7","","73","","30","","15","","24.1","","99.08","","","","","","Mostly Cloudy"
"2010-10-22 01:00","2010","10","22","01:00","3.8","","-0.8","","72","","30","","19","","24.1","","99.12","","","","","","Mostly Cloudy"
"2010-10-22 02:00","2010","10","22","02:00","2.9","","0.2","","82","","31","","15","","24.1","","99.19","","","","","","Rain Showers"
"2010-10-22 03:00","2010","10","22","03:00","1.8","","-0.4","","85","","34","","7","","24.1","","99.24","","","","","","Mainly Clear"
"2010-10-22 04:00","2010","10","22","04:00","0.7","","-0.7","","90","","27","","15","","24.1","","99.31","","","","","","Mainly Clear"
"2010-10-22 05:00","2010","10","22","05:00","1.5","","-0.7","","85","","28","","19","","24.1","","99.39","","","","","","Mainly Clear"
"2010-10-22 06:00","2010","10","22","06:00","1.3","","-0.7","","87","","28","","20","","24.1","","99.49","","","","","","Mainly Clear"
"2010-10-22 07:00","2010","10","22","07:00","1.1","","-1.0","","86","","28","","15","","24.1","","99.56","","","","","","Mainly Clear"
"2010-10-22 08:00","2010","10","22","08:00","2.3","","-0.5","","82","","30","","7","","24.1","","99.68","","","","","","Mainly Clear"
"2010-10-22 09:00","2010","10","22","09:00","5.4","","-2.7","","56","","29","","22","","24.1","","99.71","","","","","","Mainly Clear"
"2010-10-22 10:00","2010","10","22","10:00","6.5","","-2.8","","51","","32","","32","","24.1","","99.77","","","","","","Mainly Clear"
"2010-10-22 11:00","2010","10","22","11:00","7.7","","-2.0","","50","","29","","22","","24.1","","99.80","","","","","","Mostly Cloudy"
"2010-10-22 12:00","2010","10","22","12:00","8.1","","-0.4","","55","","30","","30","","24.1","","99.80","","","","","","Mostly Cloudy"
"2010-10-22 13:00","2010","10","22","13:00","9.1","","0.5","","55","","31","","28","","24.1","","99.74","","","","","","Mostly Cloudy"
"2010-10-22 14:00","2010","10","22","14:00","9.6","","1.7","","58","","21","","19","","24.1","","99.71","","","","","","Mostly Cloudy"
"2010-10-22 15:00","2010","10","22","15:00","9.3","","2.5","","62","","27","","22","","24.1","","99.69","","","","","","Mostly Cloudy"
"2010-10-22 16:00","2010","10","22","16:00","10.3","","1.9","","56","","27","","24","","24.1","","99.65","","","","","","Mostly Cloudy"
"2010-10-22 17:00","2010","10","22","17:00","9.3","","1.1","","56","","27","","28","","24.1","","99.66","","","","","","Mostly Cloudy"
"2010-10-22 18:00","2010","10","22","18:00","9.3","","1.8","","59","","25","","20","","24.1","","99.66","","","","","","Mostly Cloudy"
"2010-10-22 19:00","2010","10","22","19:00","8.2","","2.2","","66","","25","","17","","24.1","","99.71","","","","","","Mostly Cloudy"
"2010-10-22 20:00","2010","10","22","20:00","7.3","","1.9","","69","","24","","13","","24.1","","99.69","","","","","","Clear"
"2010-10-22 21:00","2010","10","22","21:00","6.8","","2.1","","72","","25","","11","","24.1","","99.72","","","","","","Mostly Cloudy"
"2010-10-22 22:00","2010","10","22","22:00","7.0","","2.3","","72","","24","","17","","24.1","","99.73","","","","","","Mostly Cloudy"
"2010-10-22 23:00","2010","10","22","23:00","7.3","","2.0","","69","","25","","17","","24.1","","99.70","","","","","","Cloudy"
"2010-10-23 00:00","2010","10","23","00:00","7.3","","1.8","","68","","26","","13","","24.1","","99.69","","","","","","Cloudy"
"2010-10-23 01:00","2010","10","23","01:00","7.5","","1.8","","67","","27","","15","","24.1","","99.69","","","","","","Cloudy"
"2010-10-23 02:00","2010","10","23","02:00","7.3","","2.4","","71","","26","","11","","24.1","","99.71","","","","","","Cloudy"
"2010-10-23 03:00","2010","10","23","03:00","7.7","","2.2","","68","","20","","6","","24.1","","99.71","","","","","","Mostly Cloudy"
"2010-10-23 04:00","2010","10","23","04:00","6.7","","2.2","","73","","23","","7","","24.1","","99.73","","","","","","Cloudy"
"2010-10-23 05:00","2010","10","23","05:00","7.9","","2.6","","69","","21","","6","","24.1","","99.69","","","","","","Mostly Cloudy"
"2010-10-23 06:00","2010","10","23","06:00","8.2","","2.6","","68","","21","","4","","24.1","","99.72","","","","","","Mostly Cloudy"
"2010-10-23 07:00","2010","10","23","07:00","8.0","","2.9","","70","","","","0","","24.1","","99.69","","","","","","Mostly Cloudy"
"2010-10-23 08:00","2010","10","23","08:00","8.7","","3.4","","69","","11","","7","","24.1","","99.70","","","","","","Mostly Cloudy"
"2010-10-23 09:00","2010","10","23","09:00","9.9","","3.7","","65","","15","","4","","24.1","","99.72","","","","","","Mostly Cloudy"
"2010-10-23 10:00","2010","10","23","10:00","11.7","","4.9","","63","","","","0","","24.1","","99.70","","","","","","Mostly Cloudy"
"2010-10-23 11:00","2010","10","23","11:00","13.5","","6.3","","62","","21","","6","","24.1","","99.70","","","","","","Mostly Cloudy"
"2010-10-23 12:00","2010","10","23","12:00","13.9","","6.2","","60","","22","","7","","24.1","","99.65","","","","","","Mostly Cloudy"
"2010-10-23 13:00","2010","10","23","13:00","12.1","","7.0","","71","","13","","11","","24.1","","99.67","","","","","","Mostly Cloudy"
"2010-10-23 14:00","2010","10","23","14:00","12.0","","7.3","","73","","12","","9","","24.1","","99.71","","","","","","Cloudy"
"2010-10-23 15:00","2010","10","23","15:00","11.5","","7.6","","77","","18","","7","","19.3","","99.77","","","","","","Cloudy"
"2010-10-23 16:00","2010","10","23","16:00","10.7","","9.1","","90","","18","","11","","12.9","","99.82","","","","","","Rain"
"2010-10-23 17:00","2010","10","23","17:00","9.8","","9.8","","100","","14","","9","","12.9","","99.79","","","","","","Rain"
"2010-10-23 18:00","2010","10","23","18:00","9.4","","9.4","","100","","15","","9","","6.4","","99.80","","","","","","Moderate Rain,Fog"
"2010-10-23 19:00","2010","10","23","19:00","9.4","","9.4","","100","","15","","6","","4.0","","99.79","","","","","","Rain,Fog"
"2010-10-23 20:00","2010","10","23","20:00","9.7","","9.7","","100","","15","","6","","3.2","","99.73","","","","","","Rain,Fog"
"2010-10-23 21:00","2010","10","23","21:00","9.8","","9.8","","100","","14","","7","","2.4","","99.71","","","","","","Rain,Fog"
"2010-10-23 22:00","2010","10","23","22:00","10.4","","10.4","","100","","10","","6","","2.4","","99.74","","","","","","Rain,Fog"
"2010-10-23 23:00","2010","10","23","23:00","10.6","","10.6","","100","","14","","6","","2.4","","99.75","","","","","","Rain,Fog"
"2010-10-24 00:00","2010","10","24","00:00","10.8","","10.8","","100","","13","","11","","2.8","","99.71","","","","","","Rain,Fog"
"2010-10-24 01:00","2010","10","24","01:00","10.7","","10.7","","100","","10","","13","","2.4","","99.64","","","","","","Fog"
"2010-10-24 02:00","2010","10","24","02:00","8.9","","8.9","","100","","8","","17","","1.2","","99.60","","","","","","Fog"
"2010-10-24 03:00","2010","10","24","03:00","9.0","","9.0","","100","","10","","13","","1.2","","99.55","","","","","","Fog"
"2010-10-24 04:00","2010","10","24","04:00","8.7","","8.7","","100","","9","","19","","1.2","","99.53","","","","","","Fog"
"2010-10-24 05:00","2010","10","24","05:00","8.5","","8.5","","100","","11","","11","","3.2","","99.59","","","","","","Rain,Fog"
"2010-10-24 06:00","2010","10","24","06:00","8.3","","8.3","","100","","9","","6","","4.8","","99.66","","","","","","Rain,Fog"
"2010-10-24 07:00","2010","10","24","07:00","8.4","","8.4","","100","","10","","9","","4.8","","99.52","","","","","","Rain,Fog"
"2010-10-24 08:00","2010","10","24","08:00","8.4","","8.4","","100","","12","","11","","4.8","","99.51","","","","","","Rain,Fog"
"2010-10-24 09:00","2010","10","24","09:00","8.6","","8.6","","100","","7","","7","","6.4","","99.54","","","","","","Rain,Fog"
"2010-10-24 10:00","2010","10","24","10:00","9.4","","9.4","","100","","10","","6","","2.8","","99.48","","","","","","Fog"
"2010-10-24 11:00","2010","10","24","11:00","10.5","","10.5","","100","","9","","6","","4.8","","99.43","","","","","","Fog"
"2010-10-24 12:00","2010","10","24","12:00","10.9","","10.9","","100","","9","","11","","4.8","","99.34","","","","","","Fog"
"2010-10-24 13:00","2010","10","24","13:00","11.2","","11.2","","100","","9","","11","","4.8","","99.25","","","","","","Fog"
"2010-10-24 14:00","2010","10","24","14:00","11.0","","10.9","","99","","6","","9","","6.4","","99.24","","","","","","Fog"
"2010-10-24 15:00","2010","10","24","15:00","11.0","","10.6","","97","","10","","6","","8.0","","99.23","","","","","","Fog"
"2010-10-24 16:00","2010","10","24","16:00","10.7","","10.3","","97","","11","","11","","9.7","","99.21","","","","","","Fog"
"2010-10-24 17:00","2010","10","24","17:00","10.0","","9.7","","98","","12","","15","","8.0","","99.11","","","","","","Fog"
"2010-10-24 18:00","2010","10","24","18:00","9.6","","9.6","","100","","11","","9","","8.0","","99.13","","","","","","Fog"
"2010-10-24 19:00","2010","10","24","19:00","9.3","","9.3","","100","","10","","13","","1.2","","99.07","","","","","","Fog"
"2010-10-24 20:00","2010","10","24","20:00","9.6","","9.6","","100","","3","","13","","0.8","","99.11","","","","","","Rain Showers,Fog"
"2010-10-24 21:00","2010","10","24","21:00","9.7","","9.7","","100","","12","","6","","3.2","","99.13","","","","","","Rain Showers,Fog"
"2010-10-24 22:00","2010","10","24","22:00","10.1","","10.1","","100","","12","","11","","0.8","","99.07","","","","","","Fog"
"2010-10-24 23:00","2010","10","24","23:00","10.4","","10.4","","100","","13","","6","","2.4","","98.96","","","","","","Fog"
"2010-10-25 00:00","2010","10","25","00:00","10.1","","10.1","","100","","9","","6","","0.4","","98.88","","","","","","Fog"
"2010-10-25 01:00","2010","10","25","01:00","9.7","","9.7","","100","","9","","4","","0.2","","98.82","","","","","","Fog"
"2010-10-25 02:00","2010","10","25","02:00","9.7","","9.7","","100","","11","","7","","0.2","","98.78","","","","","","Fog"
"2010-10-25 03:00","2010","10","25","03:00","9.8","","9.8","","100","","9","","6","","0.2","","98.68","","","","","","Fog"
"2010-10-25 04:00","2010","10","25","04:00","10.4","","10.4","","100","","7","","6","","0.2","","98.64","","","","","","Fog"
"2010-10-25 05:00","2010","10","25","05:00","10.2","","10.2","","100","","4","","6","","0.2","","98.61","","","","","","Fog"
"2010-10-25 06:00","2010","10","25","06:00","10.3","","10.3","","100","","8","","6","","0.4","","98.57","","","","","","Fog"
"2010-10-25 07:00","2010","10","25","07:00","10.6","","10.6","","100","","9","","4","","1.0","","98.55","","","","","","Fog"
"2010-10-25 08:00","2010","10","25","08:00","12.0","","12.0","","100","","16","","6","","6.4","","98.57","","","","","","Fog"
"2010-10-25 09:00","2010","10","25","09:00","13.4","","13.2","","99","","15","","7","","6.4","","98.51","","","","","","Fog"
"2010-10-25 10:00","2010","10","25","10:00","15.0","","13.9","","93","","17","","11","","9.7","","98.43","","","","","","Fog"
"2010-10-25 11:00","2010","10","25","11:00","16.0","","14.2","","89","","18","","13","","12.9","","98.45","","","","","","Cloudy"
"2010-10-25 12:00","2010","10","25","12:00","17.2","","14.8","","86","","16","","11","","19.3","","98.38","","","","","","Cloudy"
"2010-10-25 13:00","2010","10","25","13:00","18.2","","14.6","","80","","17","","11","","19.3","","98.33","","","","","","Cloudy"
"2010-10-25 14:00","2010","10","25","14:00","17.8","","14.2","","79","","14","","9","","19.3","","98.29","","","","","","Cloudy"
"2010-10-25 15:00","2010","10","25","15:00","18.5","","13.8","","74","","22","","22","","16.1","","98.28","","","","","","Cloudy"
"2010-10-25 16:00","2010","10","25","16:00","18.4","","14.2","","77","","20","","13","","16.1","","98.25","","","","","","Mostly Cloudy"
"2010-10-25 17:00","2010","10","25","17:00","17.8","","14.0","","78","","19","","13","","19.3","","98.27","","","","","","Mostly Cloudy"
"2010-10-25 18:00","2010","10","25","18:00","16.5","","14.1","","86","","16","","9","","19.3","","98.31","","","","","","Mostly Cloudy"
"2010-10-25 19:00","2010","10","25","19:00","15.9","","14.1","","89","","17","","9","","24.1","","98.35","","","","","","Mostly Cloudy"
"2010-10-25 20:00","2010","10","25","20:00","15.4","","14.1","","92","","16","","6","","24.1","","98.41","","","","","","Mostly Cloudy"
"2010-10-25 21:00","2010","10","25","21:00","16.3","","14.5","","89","","19","","4","","24.1","","98.43","","","","","","Mostly Cloudy"
"2010-10-25 22:00","2010","10","25","22:00","16.2","","14.6","","90","","22","","15","","24.1","","98.43","","","","","","Mostly Cloudy"
"2010-10-25 23:00","2010","10","25","23:00","16.0","","14.8","","93","","22","","11","","24.1","","98.42","","","","","","Mostly Cloudy"
"2010-10-26 00:00","2010","10","26","00:00","15.6","","14.8","","95","","21","","11","","24.1","","98.45","","","","","","Mainly Clear"
"2010-10-26 01:00","2010","10","26","01:00","15.1","","14.6","","97","","19","","7","","24.1","","98.46","","","","","","Mostly Cloudy"
"2010-10-26 02:00","2010","10","26","02:00","14.7","","14.4","","98","","18","","7","","24.1","","98.47","","","","","","Mostly Cloudy"
"2010-10-26 03:00","2010","10","26","03:00","13.8","","13.8","","100","","16","","7","","16.1","","98.45","","","","","","Mainly Clear"
"2010-10-26 04:00","2010","10","26","04:00","13.8","","13.8","","100","","14","","7","","12.9","","98.41","","","","","","Mainly Clear"
"2010-10-26 05:00","2010","10","26","05:00","13.2","","13.2","","100","","14","","11","","2.0","","98.39","","","","","","Fog"
"2010-10-26 06:00","2010","10","26","06:00","13.2","","13.1","","99","","15","","7","","2.8","","98.43","","","","","","Fog"
"2010-10-26 07:00","2010","10","26","07:00","13.9","","13.8","","99","","13","","9","","6.4","","98.38","","","","","","Fog"
"2010-10-26 08:00","2010","10","26","08:00","14.6","","14.4","","99","","13","","15","","19.3","","98.34","","","","","","Mostly Cloudy"
"2010-10-26 09:00","2010","10","26","09:00","15.6","","14.7","","94","","14","","11","","19.3","","98.33","","","","","","Mostly Cloudy"
"2010-10-26 10:00","2010","10","26","10:00","15.9","","14.5","","91","","14","","13","","24.1","","98.24","","","","","","Mostly Cloudy"
"2010-10-26 11:00","2010","10","26","11:00","17.2","","14.6","","85","","13","","19","","24.1","","98.05","","","","","","Mostly Cloudy"
"2010-10-26 12:00","2010","10","26","12:00","17.4","","14.5","","83","","14","","20","","24.1","","97.99","","","","","","Cloudy"
"2010-10-26 13:00","2010","10","26","13:00","18.1","","14.9","","82","","13","","17","","24.1","","97.82","","","","","","Cloudy"
"2010-10-26 14:00","2010","10","26","14:00","20.5","","15.8","","74","","14","","22","","24.1","","97.66","","25","","","","Mostly Cloudy"
"2010-10-26 15:00","2010","10","26","15:00","19.7","","15.3","","76","","14","","20","","24.1","","97.64","","","","","","Cloudy"
"2010-10-26 16:00","2010","10","26","16:00","19.8","","15.9","","78","","14","","22","","19.3","","97.55","","","","","","Rain Showers"
"2010-10-26 17:00","2010","10","26","17:00","18.4","","17.1","","92","","18","","11","","12.9","","97.62","","","","","","Rain Showers"
"2010-10-26 18:00","2010","10","26","18:00","17.4","","16.9","","97","","18","","13","","12.9","","97.70","","","","","","Rain Showers"
"2010-10-26 19:00","2010","10","26","19:00","15.9","","15.4","","97","","18","","26","","16.1","","97.81","","","","","","Rain Showers"
"2010-10-26 20:00","2010","10","26","20:00","14.9","","14.3","","96","","20","","22","","16.1","","98.00","","","","","","Rain Showers"
"2010-10-26 21:00","2010","10","26","21:00","14.5","","13.3","","93","","20","","22","","24.1","","98.00","","","","","","Cloudy"
"2010-10-26 22:00","2010","10","26","22:00","14.2","","12.5","","90","","20","","22","","24.1","","98.12","","","","","","Cloudy"
"2010-10-26 23:00","2010","10","26","23:00","13.4","","11.5","","88","","21","","20","","24.1","","98.16","","","","","","Clear"
"2010-10-27 00:00","2010","10","27","00:00","12.8","","11.1","","89","","20","","24","","24.1","","98.22","","","","","","Mainly Clear"
"2010-10-27 01:00","2010","10","27","01:00","12.6","","11.2","","91","","21","","22","","24.1","","98.28","","","","","","Mainly Clear"
"2010-10-27 02:00","2010","10","27","02:00","13.2","","11.2","","88","","22","","24","","24.1","","98.34","","","","","","Mainly Clear"
"2010-10-27 03:00","2010","10","27","03:00","12.7","","10.7","","88","","21","","28","","24.1","","98.38","","","","","","Mainly Clear"
"2010-10-27 04:00","2010","10","27","04:00","12.3","","10.4","","88","","21","","22","","24.1","","98.43","","","","","","Mainly Clear"
"2010-10-27 05:00","2010","10","27","05:00","12.0","","10.2","","89","","21","","19","","24.1","","98.48","","","","","","Clear"
"2010-10-27 06:00","2010","10","27","06:00","11.6","","9.9","","89","","20","","19","","24.1","","98.55","","","","","","Clear"
"2010-10-27 07:00","2010","10","27","07:00","11.5","","10.0","","90","","20","","19","","24.1","","98.56","","","","","","Mainly Clear"
"2010-10-27 08:00","2010","10","27","08:00","12.2","","10.1","","87","","20","","20","","24.1","","98.59","","","","","","Mainly Clear"
"2010-10-27 09:00","2010","10","27","09:00","13.5","","9.9","","79","","20","","28","","24.1","","98.59","","","","","","Clear"
"2010-10-27 10:00","2010","10","27","10:00","15.3","","9.4","","68","","20","","20","","24.1","","98.58","","","","","","Clear"
"2010-10-27 11:00","2010","10","27","11:00","16.8","","8.1","","56","","20","","28","","24.1","","98.52","","","","","","Clear"
"2010-10-27 12:00","2010","10","27","12:00","17.5","","7.1","","50","","20","","35","","24.1","","98.47","","","","","","Mainly Clear"
"2010-10-27 13:00","2010","10","27","13:00","18.5","","7.2","","48","","20","","39","","24.1","","98.40","","","","","","Mainly Clear"
"2010-10-27 14:00","2010","10","27","14:00","19.0","","5.4","","41","","21","","32","","24.1","","98.33","","","","","","Mainly Clear"
"2010-10-27 15:00","2010","10","27","15:00","18.9","","5.3","","41","","21","","48","","24.1","","98.32","","","","","","Mainly Clear"
"2010-10-27 16:00","2010","10","27","16:00","18.7","","5.3","","41","","21","","43","","24.1","","98.29","","","","","","Mainly Clear"
"2010-10-27 17:00","2010","10","27","17:00","18.2","","4.3","","40","","21","","32","","24.1","","98.29","","","","","","Mainly Clear"
"2010-10-27 18:00","2010","10","27","18:00","17.8","","4.4","","41","","20","","32","","24.1","","98.27","","","","","","Mostly Cloudy"
"2010-10-27 19:00","2010","10","27","19:00","17.4","","3.3","","39","","22","","39","","24.1","","98.30","","","","","","Clear"
"2010-10-27 20:00","2010","10","27","20:00","16.4","","4.2","","44","","22","","26","","24.1","","98.33","","","","","","Clear"
"2010-10-27 21:00","2010","10","27","21:00","15.6","","4.4","","47","","22","","20","","24.1","","98.32","","","","","","Clear"
"2010-10-27 22:00","2010","10","27","22:00","16.0","","2.7","","41","","23","","30","","24.1","","98.30","","","","","","Clear"
"2010-10-27 23:00","2010","10","27","23:00","14.8","","2.5","","43","","22","","20","","24.1","","98.26","","","","","","Clear"
"2010-10-28 00:00","2010","10","28","00:00","14.3","","2.0","","43","","20","","19","","24.1","","98.24","","","","","","Clear"
"2010-10-28 01:00","2010","10","28","01:00","14.4","","0.7","","39","","21","","26","","24.1","","98.19","","","","","","Clear"
"2010-10-28 02:00","2010","10","28","02:00","14.2","","0.6","","39","","22","","28","","24.1","","98.16","","","","","","Mainly Clear"
"2010-10-28 03:00","2010","10","28","03:00","13.9","","1.7","","44","","23","","26","","24.1","","98.16","","","","","","Mostly Cloudy"
"2010-10-28 04:00","2010","10","28","04:00","13.9","","1.0","","41","","25","","46","","24.1","","98.22","","","","","","Cloudy"
"2010-10-28 05:00","2010","10","28","05:00","12.0","","2.7","","53","","28","","37","","24.1","","98.33","","","","","","Cloudy"
"2010-10-28 06:00","2010","10","28","06:00","11.2","","2.7","","56","","27","","33","","24.1","","98.43","","","","","","Cloudy"
"2010-10-28 07:00","2010","10","28","07:00","10.1","","2.8","","60","","27","","33","","24.1","","98.53","","","","","","Cloudy"
"2010-10-28 08:00","2010","10","28","08:00","9.8","","2.4","","60","","26","","48","","24.1","","98.62","","","","","","Mostly Cloudy"
"2010-10-28 09:00","2010","10","28","09:00","9.7","","2.6","","61","","26","","33","","24.1","","98.74","","","","","","Mostly Cloudy"
"2010-10-28 10:00","2010","10","28","10:00","10.4","","3.0","","60","","26","","43","","24.1","","98.82","","","","","","Mostly Cloudy"
"2010-10-28 11:00","2010","10","28","11:00","10.0","","4.1","","67","","26","","28","","24.1","","98.88","","","","","","Mostly Cloudy"
"2010-10-28 12:00","2010","10","28","12:00","11.1","","4.9","","66","","25","","41","","24.1","","98.95","","","","","","Mostly Cloudy"
"2010-10-28 13:00","2010","10","28","13:00","10.0","","4.9","","71","","25","","33","","24.1","","98.99","","","","","","Mostly Cloudy"
"2010-10-28 14:00","2010","10","28","14:00","10.1","","4.8","","70","","27","","32","","24.1","","99.04","","","","","","Rain Showers"
"2010-10-28 15:00","2010","10","28","15:00","9.9","","5.1","","72","","27","","30","","24.1","","99.11","","","","","","Rain Showers"
"2010-10-28 16:00","2010","10","28","16:00","9.7","","4.8","","71","","27","","32","","24.1","","99.17","","","","","","Mostly Cloudy"
"2010-10-28 17:00","2010","10","28","17:00","8.8","","5.0","","77","","26","","32","","24.1","","99.25","","","","","","Mostly Cloudy"
"2010-10-28 18:00","2010","10","28","18:00","8.3","","5.3","","81","","27","","22","","24.1","","99.35","","","","","","Cloudy"
"2010-10-28 19:00","2010","10","28","19:00","8.6","","4.7","","76","","27","","22","","24.1","","99.38","","","","","","Cloudy"
"2010-10-28 20:00","2010","10","28","20:00","8.2","","4.3","","76","","27","","20","","24.1","","99.42","","","","","","Cloudy"
"2010-10-28 21:00","2010","10","28","21:00","8.1","","4.4","","77","","28","","19","","24.1","","99.43","","","","","","Cloudy"
"2010-10-28 22:00","2010","10","28","22:00","7.5","","4.4","","81","","27","","19","","24.1","","99.44","","","","","","Mostly Cloudy"
"2010-10-28 23:00","2010","10","28","23:00","7.4","","3.6","","77","","29","","22","","24.1","","99.46","","","","","","Cloudy"
"2010-10-29 00:00","2010","10","29","00:00","7.4","","2.9","","73","","30","","24","","24.1","","99.46","","","","","","Cloudy"
"2010-10-29 01:00","2010","10","29","01:00","6.9","","2.3","","72","","30","","28","","24.1","","99.49","","","","","","Mostly Cloudy"
"2010-10-29 02:00","2010","10","29","02:00","6.6","","2.5","","75","","30","","30","","24.1","","99.52","","","","","","Mostly Cloudy"
"2010-10-29 03:00","2010","10","29","03:00","6.0","","2.1","","76","","30","","32","","24.1","","99.52","","","","","","Mostly Cloudy"
"2010-10-29 04:00","2010","10","29","04:00","5.7","","2.0","","77","","29","","30","","24.1","","99.56","","","","","","Mostly Cloudy"
"2010-10-29 05:00","2010","10","29","05:00","5.4","","1.6","","76","","30","","28","","24.1","","99.61","","","","","","Mainly Clear"
"2010-10-29 06:00","2010","10","29","06:00","5.7","","2.0","","77","","29","","22","","24.1","","99.67","","","","","","Mostly Cloudy"
"2010-10-29 07:00","2010","10","29","07:00","5.3","","2.6","","83","","28","","26","","24.1","","99.73","","","","","","Mostly Cloudy"
"2010-10-29 08:00","2010","10","29","08:00","5.7","","2.6","","80","","29","","22","","24.1","","99.81","","","","","","Mostly Cloudy"
"2010-10-29 09:00","2010","10","29","09:00","5.9","","2.3","","78","","28","","39","","24.1","","99.86","","","","","","Mostly Cloudy"
"2010-10-29 10:00","2010","10","29","10:00","6.4","","1.9","","73","","29","","22","","24.1","","99.93","","","","","","Mostly Cloudy"
"2010-10-29 11:00","2010","10","29","11:00","8.5","","2.2","","65","","31","","35","","24.1","","99.90","","","","","","Mostly Cloudy"
"2010-10-29 12:00","2010","10","29","12:00","5.8","","2.9","","82","","31","","35","","24.1","","99.89","","","","","","Rain Showers"
"2010-10-29 13:00","2010","10","29","13:00","7.5","","2.3","","70","","30","","39","","24.1","","99.85","","","","","","Mostly Cloudy"
"2010-10-29 14:00","2010","10","29","14:00","8.1","","-0.2","","56","","31","","41","","24.1","","99.82","","","","","","Mostly Cloudy"
"2010-10-29 15:00","2010","10","29","15:00","7.5","","0.4","","61","","31","","39","","24.1","","99.84","","","","","","Mostly Cloudy"
"2010-10-29 16:00","2010","10","29","16:00","7.5","","1.3","","65","","27","","32","","24.1","","99.84","","","","","","Mostly Cloudy"
"2010-10-29 17:00","2010","10","29","17:00","6.9","","0.2","","62","","29","","30","","24.1","","99.86","","","","","","Mostly Cloudy"
"2010-10-29 18:00","2010","10","29","18:00","5.9","","-0.1","","65","","27","","22","","24.1","","99.88","","","","","","Mainly Clear"
"2010-10-29 19:00","2010","10","29","19:00","4.3","","-0.4","","71","","26","","15","","24.1","","99.91","","","","","","Mainly Clear"
"2010-10-29 20:00","2010","10","29","20:00","4.3","","-0.2","","73","","24","","15","","24.1","","99.85","","","","","","Mostly Cloudy"
"2010-10-29 21:00","2010","10","29","21:00","4.1","","-0.3","","73","","23","","13","","24.1","","99.77","","","","","","Mostly Cloudy"
"2010-10-29 22:00","2010","10","29","22:00","5.3","","-0.1","","68","","22","","7","","24.1","","99.70","","","","","","Mostly Cloudy"
"2010-10-29 23:00","2010","10","29","23:00","5.8","","-0.6","","63","","25","","20","","24.1","","99.62","","","","","","Mostly Cloudy"
"2010-10-30 00:00","2010","10","30","00:00","5.9","","-0.7","","63","","25","","19","","24.1","","99.51","","","","","","Mostly Cloudy"
"2010-10-30 01:00","2010","10","30","01:00","6.7","","-0.7","","59","","26","","26","","24.1","","99.50","","","","","","Mostly Cloudy"
"2010-10-30 02:00","2010","10","30","02:00","6.9","","0.4","","63","","27","","24","","24.1","","99.50","","","","","","Mostly Cloudy"
"2010-10-30 03:00","2010","10","30","03:00","6.7","","0.6","","65","","26","","20","","24.1","","99.45","","","","","","Mostly Cloudy"
"2010-10-30 04:00","2010","10","30","04:00","6.5","","1.1","","68","","25","","26","","24.1","","99.41","","","","","","Cloudy"
"2010-10-30 05:00","2010","10","30","05:00","6.5","","1.3","","69","","25","","26","","24.1","","99.38","","","","","","Mostly Cloudy"
"2010-10-30 06:00","2010","10","30","06:00","5.9","","1.4","","73","","25","","20","","24.1","","99.34","","","","","","Cloudy"
"2010-10-30 07:00","2010","10","30","07:00","5.7","","1.3","","73","","24","","22","","24.1","","99.27","","","","","","Cloudy"
"2010-10-30 08:00","2010","10","30","08:00","5.8","","1.8","","75","","22","","15","","24.1","","99.20","","","","","","Cloudy"
"2010-10-30 09:00","2010","10","30","09:00","6.5","","1.0","","68","","22","","17","","24.1","","99.14","","","","","","Cloudy"
"2010-10-30 10:00","2010","10","30","10:00","8.3","","0.5","","58","","23","","20","","24.1","","99.00","","","","","","Cloudy"
"2010-10-30 11:00","2010","10","30","11:00","10.7","","1.3","","52","","22","","22","","24.1","","98.85","","","","","","Cloudy"
"2010-10-30 12:00","2010","10","30","12:00","13.8","","3.1","","48","","22","","28","","24.1","","98.66","","","","","","Cloudy"
"2010-10-30 13:00","2010","10","30","13:00","13.6","","1.8","","45","","23","","33","","24.1","","98.51","","","","","","Cloudy"
"2010-10-30 14:00","2010","10","30","14:00","12.6","","2.9","","52","","23","","35","","24.1","","98.38","","","","","","Cloudy"
"2010-10-30 15:00","2010","10","30","15:00","12.7","","2.0","","48","","23","","35","","24.1","","98.22","","","","","","Cloudy"
"2010-10-30 16:00","2010","10","30","16:00","12.3","","2.3","","50","","25","","41","","24.1","","98.26","","","","","","Cloudy"
"2010-10-30 17:00","2010","10","30","17:00","11.4","","2.3","","54","","25","","20","","24.1","","98.27","","","","","","Cloudy"
"2010-10-30 18:00","2010","10","30","18:00","11.6","","0.9","","48","","27","","30","","24.1","","98.28","","","","","","Mostly Cloudy"
"2010-10-30 19:00","2010","10","30","19:00","11.1","","1.1","","50","","27","","32","","24.1","","98.34","","","","","","Mostly Cloudy"
"2010-10-30 20:00","2010","10","30","20:00","9.6","","3.2","","64","","29","","24","","24.1","","98.39","","","","","","Mostly Cloudy"
"2010-10-30 21:00","2010","10","30","21:00","9.5","","4.1","","69","","31","","26","","24.1","","98.44","","","","","","Cloudy"
"2010-10-30 22:00","2010","10","30","22:00","8.3","","3.7","","73","","33","","30","","24.1","","98.53","","","","","","Cloudy"
"2010-10-30 23:00","2010","10","30","23:00","7.1","","2.9","","75","","35","","32","","24.1","","98.61","","","","","","Mostly Cloudy"
"2010-10-31 00:00","2010","10","31","00:00","6.0","","2.6","","79","","34","","30","","24.1","","98.68","","","","","","Mostly Cloudy"
"2010-10-31 01:00","2010","10","31","01:00","5.5","","2.2","","79","","34","","20","","24.1","","98.79","","","","","","Mostly Cloudy"
"2010-10-31 02:00","2010","10","31","02:00","3.8","","2.2","","89","","32","","19","","24.1","","98.89","","","","","","Mostly Cloudy"
"2010-10-31 03:00","2010","10","31","03:00","3.5","","1.9","","89","","34","","20","","19.3","","98.95","","","","","","Rain Showers"
"2010-10-31 04:00","2010","10","31","04:00","3.4","","1.3","","86","","32","","20","","24.1","","99.03","","","","","","Mostly Cloudy"
"2010-10-31 05:00","2010","10","31","05:00","2.5","","0.7","","88","","32","","15","","24.1","","99.13","","","","","","Mostly Cloudy"
"2010-10-31 06:00","2010","10","31","06:00","2.7","","0.7","","87","","31","","11","","24.1","","99.18","","","","","","Mostly Cloudy"
"2010-10-31 07:00","2010","10","31","07:00","3.3","","-0.4","","77","","31","","7","","24.1","","99.26","","","","","","Mostly Cloudy"
"2010-10-31 08:00","2010","10","31","08:00","3.3","","1.1","","85","","28","","13","","24.1","","99.36","","","","","","Mostly Cloudy"
"2010-10-31 09:00","2010","10","31","09:00","3.7","","-0.3","","75","","36","","19","","24.1","","99.45","","","","","","Mostly Cloudy"
"2010-10-31 10:00","2010","10","31","10:00","3.9","","-0.5","","73","","3","","7","","24.1","","99.48","","","","","","Mainly Clear"
"2010-10-31 11:00","2010","10","31","11:00","5.1","","-0.3","","68","","31","","11","","24.1","","99.54","","","","","","Mostly Cloudy"
"2010-10-31 12:00","2010","10","31","12:00","3.4","","0.9","","84","","36","","22","","24.1","","99.63","","","","","","Mostly Cloudy"
"2010-10-31 13:00","2010","10","31","13:00","4.3","","-0.1","","73","","36","","26","","24.1","","99.63","","","","","","Mostly Cloudy"
"2010-10-31 14:00","2010","10","31","14:00","4.4","","-0.7","","69","","34","","32","","24.1","","99.68","","","","","","Mostly Cloudy"
"2010-10-31 15:00","2010","10","31","15:00","5.2","","-3.2","","55","","34","","20","","24.1","","99.75","","","","","","Mainly Clear"
"2010-10-31 16:00","2010","10","31","16:00","4.3","","-2.1","","63","","34","","22","","24.1","","99.88","","","","","","Mostly Cloudy"
"2010-10-31 17:00","2010","10","31","17:00","4.1","","-3.1","","59","","32","","26","","24.1","","99.99","","","","","","Mostly Cloudy"
"2010-10-31 18:00","2010","10","31","18:00","3.4","","-2.0","","68","","35","","20","","24.1","","100.08","","","","","","Mostly Cloudy"
"2010-10-31 19:00","2010","10","31","19:00","2.2","","-2.1","","73","","36","","20","","24.1","","100.19","","","","","","Mainly Clear"
"2010-10-31 20:00","2010","10","31","20:00","1.1","","-3.9","","69","","1","","20","","24.1","","100.26","","","","","","Mainly Clear"
"2010-10-31 21:00","2010","10","31","21:00","0.2","","-4.2","","72","","36","","11","","24.1","","100.35","","","","","","Mainly Clear"
"2010-10-31 22:00","2010","10","31","22:00","-0.2","","-5.0","","70","","1","","13","","24.1","","100.44","","","","-4","","Mainly Clear"
"2010-10-31 23:00","2010","10","31","23:00","-0.6","","-5.5","","69","","1","","9","","24.1","","100.53","","","","-4","","Mainly Clear"
