"Station Name","TORONTO LESTER B. PEARSON INT'L A"
"Province","ONTARIO"
"Latitude","43.68"
"Longitude","-79.63"
"Elevation","173.40"
"Climate Identifier","6158733"
"WMO Identifier","71624"
"TC Identifier","YYZ"
"All times are specified in Local Standard Time (LST). Add 1 hour to adjust for Daylight Saving Time where and when it is observed."

"Legend"
"E","Estimated"
"M","Missing"
"NA","Not Available"

"Date/Time","Year","Month","Day","Time","Temp (°C)","Temp Flag","Dew Point Temp (°C)","Dew Point Temp Flag","Rel Hum (%)","Rel Hum Flag","Wind Dir (10s deg)","Wind Dir Flag","Wind Spd (km/h)","Wind Spd Flag","Visibility (km)","Visibility Flag","Stn Press (kPa)","Stn Press Flag","Hmdx","Hmdx Flag","Wind Chill","Wind Chill Flag","Weather"
"2010-02-01 00:00","2010","02","01","00:00","-5.9","","-8.2","","84","","28","","13","","16.1","","99.79","","","","-11","","Snow Showers"
"2010-02-01 01:00","2010","02","01","01:00","-6.4","","-11.0","","70","","31","","26","","19.3","","99.88","","","","-14","","Mainly Clear"
"2010-02-01 02:00","2010","02","01","02:00","-7.1","","-11.6","","70","","29","","15","","19.3","","100.00","","","","-13","","Mainly Clear"
"2010-02-01 03:00","2010","02","01","03:00","-7.9","","-13.0","","67","","30","","26","","24.1","","100.09","","","","-16","","Mainly Clear"
"2010-02-01 04:00","2010","02","01","04:00","-8.9","","-14.5","","64","","31","","24","","24.1","","100.18","","","","-17","","Mainly Clear"
"2010-02-01 05:00","2010","02","01","05:00","-10.4","","-14.9","","70","","27","","19","","24.1","","100.22","","","","-18","","Mainly Clear"
"2010-02-01 06:00","2010","02","01","06:00","-9.8","","-14.1","","71","","26","","19","","24.1","","100.27","","","","-17","","Mainly Clear"
"2010-02-01 07:00","2010","02","01","07:00","-9.2","","-14.0","","68","","26","","13","","24.1","","100.27","","","","-15","","Mostly Cloudy"
"2010-02-01 08:00","2010","02","01","08:00","-8.5","","-12.9","","70","","26","","11","","24.1","","100.32","","","","-14","","Cloudy"
"2010-02-01 09:00","2010","02","01","09:00","-7.2","","-11.7","","70","","25","","17","","24.1","","100.32","","","","-14","","Snow Showers"
"2010-02-01 10:00","2010","02","01","10:00","-6.5","","-12.5","","62","","25","","22","","24.1","","100.31","","","","-14","","Snow Showers"
"2010-02-01 11:00","2010","02","01","11:00","-5.4","","-12.0","","60","","26","","35","","24.1","","100.29","","","","-14","","Mainly Clear"
"2010-02-01 12:00","2010","02","01","12:00","-4.5","","-12.7","","53","","27","","37","","24.1","","100.24","","","","-13","","Mostly Cloudy"
"2010-02-01 13:00","2010","02","01","13:00","-3.8","","-12.8","","50","","26","","35","","24.1","","100.20","","","","-12","","Mainly Clear"
"2010-02-01 14:00","2010","02","01","14:00","-3.6","","-12.2","","51","","26","","35","","24.1","","100.17","","","","-12","","Mainly Clear"
"2010-02-01 15:00","2010","02","01","15:00","-3.8","","-12.5","","51","","27","","37","","24.1","","100.18","","","","-12","","Mostly Cloudy"
"2010-02-01 16:00","2010","02","01","16:00","-4.7","","-12.2","","56","","26","","30","","24.1","","100.20","","","","-13","","Mostly Cloudy"
"2010-02-01 17:00","2010","02","01","17:00","-5.1","","-11.5","","61","","27","","30","","24.1","","100.20","","","","-13","","Cloudy"
"2010-02-01 18:00","2010","02","01","18:00","-5.2","","-11.4","","62","","27","","20","","24.1","","100.24","","","","-12","","Cloudy"
"2010-02-01 19:00","2010","02","01","19:00","-5.4","","-11.1","","64","","25","","15","","24.1","","100.27","","","","-11","","Cloudy"
"2010-02-01 20:00","2010","02","01","20:00","-5.9","","-10.6","","69","","25","","11","","24.1","","100.27","","","","-11","","Cloudy"
"2010-02-01 21:00","2010","02","01","21:00","-6.6","","-10.8","","72","","27","","9","","24.1","","100.26","","","","-11","","Mostly Cloudy"
"2010-02-01 22:00","2010","02","01","22:00","-6.1","","-10.6","","70","","28","","6","","24.1","","100.22","","","","-9","","Mostly Cloudy"
"2010-02-01 23:00","2010","02","01","23:00","-6.5","","-10.6","","73","","27","","7","","24.1","","100.23","","","","-10","","Mostly Cloudy"
"2010-02-02 00:00","2010","02","02","00:00","-7.5","","-11.0","","76","","28","","6","","24.1","","100.23","","","","-11","","Mainly Clear"
"2010-02-02 01:00","2010","02","02","01:00","-7.9","","-11.1","","78","","23","","11","","24.1","","100.25","","","","-13","","Mainly Clear"
"2010-02-02 02:00","2010","02","02","02:00","-8.4","","-11.6","","78","","24","","13","","24.1","","100.27","","","","-14","","Mainly Clear"
"2010-02-02 03:00","2010","02","02","03:00","-8.4","","-11.1","","81","","26","","11","","24.1","","100.20","","","","-14","","Mainly Clear"
"2010-02-02 04:00","2010","02","02","04:00","-8.4","","-10.9","","82","","29","","4","","24.1","","100.18","","","","-11","","Mainly Clear"
"2010-02-02 05:00","2010","02","02","05:00","-8.9","","-11.2","","83","","24","","9","","24.1","","100.20","","","","-14","","Mainly Clear"
"2010-02-02 06:00","2010","02","02","06:00","-9.1","","-11.3","","84","","28","","7","","24.1","","100.14","","","","-13","","Mainly Clear"
"2010-02-02 07:00","2010","02","02","07:00","-8.4","","-10.8","","83","","27","","6","","24.1","","100.14","","","","-12","","Mostly Cloudy"
"2010-02-02 08:00","2010","02","02","08:00","-7.5","","-9.8","","84","","28","","4","","19.3","","100.13","","","","-10","","Cloudy"
"2010-02-02 09:00","2010","02","02","09:00","-6.2","","-9.4","","78","","32","","6","","19.3","","100.13","","","","-9","","Cloudy"
"2010-02-02 10:00","2010","02","02","10:00","-5.2","","-9.0","","75","","29","","4","","19.3","","100.09","","","","-7","","Cloudy"
"2010-02-02 11:00","2010","02","02","11:00","-4.0","","-9.3","","67","","31","","4","","24.1","","100.04","","","","-6","","Cloudy"
"2010-02-02 12:00","2010","02","02","12:00","-2.5","","-9.8","","57","","17","","7","","24.1","","99.97","","","","-5","","Cloudy"
"2010-02-02 13:00","2010","02","02","13:00","-1.9","","-8.5","","61","","16","","11","","19.3","","99.87","","","","-6","","Cloudy"
"2010-02-02 14:00","2010","02","02","14:00","-1.7","","-8.1","","62","","18","","9","","24.1","","99.78","","","","-5","","Cloudy"
"2010-02-02 15:00","2010","02","02","15:00","-2.1","","-8.7","","61","","9","","7","","16.1","","99.74","","","","-5","","Cloudy"
"2010-02-02 16:00","2010","02","02","16:00","-2.7","","-8.2","","66","","12","","6","","14.5","","99.73","","","","-5","","Cloudy"
"2010-02-02 17:00","2010","02","02","17:00","-3.6","","-5.9","","84","","16","","6","","4.8","","99.75","","","","-6","","Snow Grains"
"2010-02-02 18:00","2010","02","02","18:00","-3.8","","-5.1","","91","","","","0","","4.8","","99.74","","","","","","Snow"
"2010-02-02 19:00","2010","02","02","19:00","-3.6","","-4.5","","93","","","","0","","3.2","","99.73","","","","","","Snow"
"2010-02-02 20:00","2010","02","02","20:00","-3.8","","-4.9","","92","","9","","6","","9.7","","99.70","","","","-6","","Snow"
"2010-02-02 21:00","2010","02","02","21:00","-3.8","","-5.0","","91","","7","","6","","8.0","","99.65","","","","-6","","Snow"
"2010-02-02 22:00","2010","02","02","22:00","-3.8","","-4.6","","94","","2","","7","","4.8","","99.62","","","","-7","","Snow"
"2010-02-02 23:00","2010","02","02","23:00","-3.7","","-4.5","","94","","3","","6","","4.8","","99.60","","","","-6","","Snow"
"2010-02-03 00:00","2010","02","03","00:00","-3.8","","-4.5","","95","","36","","7","","4.0","","99.57","","","","-7","","Snow"
"2010-02-03 01:00","2010","02","03","01:00","-4.0","","-5.0","","93","","35","","7","","8.0","","99.57","","","","-7","","Snow"
"2010-02-03 02:00","2010","02","03","02:00","-5.4","","-6.2","","94","","1","","9","","12.9","","99.55","","","","-9","","Snow"
"2010-02-03 03:00","2010","02","03","03:00","-4.4","","-5.7","","91","","33","","15","","12.9","","99.59","","","","-10","","Snow"
"2010-02-03 04:00","2010","02","03","04:00","-4.5","","-5.9","","90","","32","","9","","9.7","","99.60","","","","-8","","Snow"
"2010-02-03 05:00","2010","02","03","05:00","-4.7","","-6.0","","91","","33","","9","","12.9","","99.62","","","","-9","","Snow"
"2010-02-03 06:00","2010","02","03","06:00","-4.8","","-6.1","","91","","31","","6","","12.9","","99.66","","","","-8","","Snow"
"2010-02-03 07:00","2010","02","03","07:00","-5.0","","-6.1","","92","","","","0","","12.9","","99.68","","","","","","Snow"
"2010-02-03 08:00","2010","02","03","08:00","-5.2","","-6.8","","88","","30","","4","","8.0","","99.77","","","","-7","","Fog"
"2010-02-03 09:00","2010","02","03","09:00","-3.9","","-5.4","","89","","25","","4","","6.4","","99.80","","","","-6","","Fog"
"2010-02-03 10:00","2010","02","03","10:00","-3.4","","-5.2","","87","","27","","9","","4.0","","99.81","","","","-7","","Snow"
"2010-02-03 11:00","2010","02","03","11:00","-2.5","","-4.7","","85","","25","","9","","8.0","","99.84","","","","-6","","Snow"
"2010-02-03 12:00","2010","02","03","12:00","-2.4","","-3.9","","89","","25","","13","","2.4","","99.82","","","","-7","","Snow"
"2010-02-03 13:00","2010","02","03","13:00","-1.1","","-4.2","","79","","27","","19","","11.3","","99.81","","","","-6","","Mostly Cloudy"
"2010-02-03 14:00","2010","02","03","14:00","-0.2","","-5.3","","68","","30","","28","","24.1","","99.77","","","","-7","","Mostly Cloudy"
"2010-02-03 15:00","2010","02","03","15:00","-0.3","","-5.6","","67","","29","","37","","24.1","","99.81","","","","-8","","Mostly Cloudy"
"2010-02-03 16:00","2010","02","03","16:00","-0.6","","-5.3","","70","","30","","30","","19.3","","99.85","","","","-7","","Snow Showers"
"2010-02-03 17:00","2010","02","03","17:00","-1.0","","-7.2","","63","","30","","33","","24.1","","99.87","","","","-8","","Mainly Clear"
"2010-02-03 18:00","2010","02","03","18:00","-1.9","","-6.4","","71","","30","","28","","24.1","","100.00","","","","-9","","Snow Showers"
"2010-02-03 19:00","2010","02","03","19:00","-2.5","","-7.4","","69","","32","","30","","24.1","","100.14","","","","-10","","Snow Showers"
"2010-02-03 20:00","2010","02","03","20:00","-2.9","","-7.7","","69","","31","","28","","24.1","","100.23","","","","-10","","Mostly Cloudy"
"2010-02-03 21:00","2010","02","03","21:00","-3.0","","-8.0","","68","","32","","33","","24.1","","100.34","","","","-11","","Mostly Cloudy"
"2010-02-03 22:00","2010","02","03","22:00","-3.5","","-9.0","","66","","30","","28","","24.1","","100.41","","","","-11","","Mostly Cloudy"
"2010-02-03 23:00","2010","02","03","23:00","-4.2","","-9.6","","66","","30","","20","","24.1","","100.46","","","","-11","","Mainly Clear"
"2010-02-04 00:00","2010","02","04","00:00","-5.7","","-9.4","","75","","28","","17","","24.1","","100.54","","","","-12","","Clear"
"2010-02-04 01:00","2010","02","04","01:00","-5.8","","-11.1","","66","","31","","19","","24.1","","100.58","","","","-12","","Mainly Clear"
"2010-02-04 02:00","2010","02","04","02:00","-8.1","","-10.6","","82","","27","","15","","24.1","","100.64","","","","-14","","Mainly Clear"
"2010-02-04 03:00","2010","02","04","03:00","-8.0","","-10.5","","82","","30","","9","","24.1","","100.73","","","","-13","","Mainly Clear"
"2010-02-04 04:00","2010","02","04","04:00","-8.0","","-10.6","","82","","35","","9","","24.1","","100.63","","","","-13","","Mainly Clear"
"2010-02-04 05:00","2010","02","04","05:00","-8.4","","-10.9","","82","","3","","6","","24.1","","100.64","","","","-12","","Clear"
"2010-02-04 06:00","2010","02","04","06:00","-9.3","","-11.4","","85","","31","","4","","24.1","","100.69","","","","-12","","Mostly Cloudy"
"2010-02-04 07:00","2010","02","04","07:00","-7.5","","-10.1","","82","","24","","6","","24.1","","100.78","","","","-11","","Mostly Cloudy"
"2010-02-04 08:00","2010","02","04","08:00","-6.7","","-9.5","","80","","25","","11","","24.1","","100.91","","","","-12","","Mostly Cloudy"
"2010-02-04 09:00","2010","02","04","09:00","-5.3","","-8.6","","78","","28","","9","","24.1","","100.93","","","","-9","","Mostly Cloudy"
"2010-02-04 10:00","2010","02","04","10:00","-3.3","","-8.7","","66","","26","","9","","24.1","","100.90","","","","-7","","Mostly Cloudy"
"2010-02-04 11:00","2010","02","04","11:00","-2.2","","-7.7","","66","","24","","15","","24.1","","100.80","","","","-7","","Clear"
"2010-02-04 12:00","2010","02","04","12:00","-1.3","","-7.6","","62","","27","","20","","24.1","","100.79","","","","-7","","Mainly Clear"
"2010-02-04 13:00","2010","02","04","13:00","-0.6","","-8.5","","55","","28","","28","","24.1","","100.68","","","","-7","","Mostly Cloudy"
"2010-02-04 14:00","2010","02","04","14:00","0.0","","-8.0","","55","","28","","13","","24.1","","100.63","","","","-4","","Mostly Cloudy"
"2010-02-04 15:00","2010","02","04","15:00","-0.4","","-8.0","","56","","26","","19","","24.1","","100.59","","","","-6","","Mostly Cloudy"
"2010-02-04 16:00","2010","02","04","16:00","-0.7","","-8.0","","58","","27","","20","","24.1","","100.59","","","","-6","","Cloudy"
"2010-02-04 17:00","2010","02","04","17:00","-1.2","","-8.2","","59","","29","","17","","24.1","","100.61","","","","-6","","Cloudy"
"2010-02-04 18:00","2010","02","04","18:00","-2.7","","-8.3","","65","","29","","15","","24.1","","100.64","","","","-8","","Cloudy"
"2010-02-04 19:00","2010","02","04","19:00","-3.3","","-7.8","","71","","27","","15","","24.1","","100.68","","","","-8","","Cloudy"
"2010-02-04 20:00","2010","02","04","20:00","-3.5","","-7.4","","74","","26","","13","","24.1","","100.64","","","","-8","","Cloudy"
"2010-02-04 21:00","2010","02","04","21:00","-4.2","","-7.9","","75","","27","","9","","24.1","","100.62","","","","-8","","Mostly Cloudy"
"2010-02-04 22:00","2010","02","04","22:00","-4.5","","-7.9","","77","","29","","7","","24.1","","100.64","","","","-8","","Mostly Cloudy"
"2010-02-04 23:00","2010","02","04","23:00","-6.1","","-8.7","","82","","27","","9","","24.1","","100.63","","","","-10","","Mainly Clear"
"2010-02-05 00:00","2010","02","05","00:00","-5.9","","-8.2","","84","","26","","6","","24.1","","100.54","","","","-9","","Mainly Clear"
"2010-02-05 01:00","2010","02","05","01:00","-5.2","","-8.0","","81","","21","","6","","24.1","","100.53","","","","-8","","Mainly Clear"
"2010-02-05 02:00","2010","02","05","02:00","-4.7","","-7.4","","81","","22","","9","","24.1","","100.57","","","","-9","","Mostly Cloudy"
"2010-02-05 03:00","2010","02","05","03:00","-4.6","","-7.2","","82","","23","","6","","24.1","","100.53","","","","-7","","Cloudy"
"2010-02-05 04:00","2010","02","05","04:00","-4.3","","-7.0","","81","","26","","6","","24.1","","100.50","","","","-7","","Cloudy"
"2010-02-05 05:00","2010","02","05","05:00","-3.8","","-6.6","","81","","27","","6","","24.1","","100.44","","","","-6","","Cloudy"
"2010-02-05 06:00","2010","02","05","06:00","-3.5","","-6.3","","81","","33","","4","","24.1","","100.38","","","","-5","","Cloudy"
"2010-02-05 07:00","2010","02","05","07:00","-2.4","","-5.7","","78","","31","","6","","24.1","","100.45","","","","-5","","Cloudy"
"2010-02-05 08:00","2010","02","05","08:00","-2.5","","-5.5","","80","","31","","6","","16.1","","100.43","","","","-5","","Cloudy"
"2010-02-05 09:00","2010","02","05","09:00","-1.9","","-4.8","","81","","2","","11","","19.3","","100.43","","","","-6","","Cloudy"
"2010-02-05 10:00","2010","02","05","10:00","-0.8","","-4.6","","75","","3","","9","","19.3","","100.42","","","","-4","","Cloudy"
"2010-02-05 11:00","2010","02","05","11:00","-0.1","","-6.8","","61","","3","","15","","24.1","","100.38","","","","-5","","Cloudy"
"2010-02-05 12:00","2010","02","05","12:00","-0.4","","-6.5","","63","","4","","15","","24.1","","100.29","","","","-5","","Cloudy"
"2010-02-05 13:00","2010","02","05","13:00","-0.4","","-6.8","","62","","5","","13","","24.1","","100.23","","","","-5","","Cloudy"
"2010-02-05 14:00","2010","02","05","14:00","-0.5","","-6.4","","64","","4","","11","","24.1","","100.15","","","","-4","","Cloudy"
"2010-02-05 15:00","2010","02","05","15:00","-0.8","","-6.9","","63","","4","","15","","24.1","","100.14","","","","-5","","Cloudy"
"2010-02-05 16:00","2010","02","05","16:00","-1.6","","-8.6","","59","","5","","19","","24.1","","100.08","","","","-7","","Cloudy"
"2010-02-05 17:00","2010","02","05","17:00","-2.2","","-9.0","","60","","4","","20","","24.1","","100.02","","","","-8","","Cloudy"
"2010-02-05 18:00","2010","02","05","18:00","-2.5","","-9.7","","58","","4","","19","","24.1","","99.96","","","","-8","","Cloudy"
"2010-02-05 19:00","2010","02","05","19:00","-2.9","","-10.4","","56","","5","","22","","24.1","","99.97","","","","-9","","Mostly Cloudy"
"2010-02-05 20:00","2010","02","05","20:00","-3.4","","-10.9","","56","","6","","28","","24.1","","99.93","","","","-11","","Cloudy"
"2010-02-05 21:00","2010","02","05","21:00","-3.8","","-11.4","","56","","6","","19","","24.1","","99.89","","","","-10","","Cloudy"
"2010-02-05 22:00","2010","02","05","22:00","-4.3","","-11.8","","56","","7","","19","","24.1","","99.85","","","","-10","","Cloudy"
"2010-02-05 23:00","2010","02","05","23:00","-4.8","","-13.3","","51","","6","","24","","24.1","","99.80","","","","-12","","Cloudy"
"2010-02-06 00:00","2010","02","06","00:00","-5.6","","-15.1","","47","","5","","24","","24.1","","99.77","","","","-13","","Cloudy"
"2010-02-06 01:00","2010","02","06","01:00","-6.8","","-16.2","","47","","5","","28","","24.1","","99.68","","","","-15","","Cloudy"
"2010-02-06 02:00","2010","02","06","02:00","-8.0","","-16.6","","50","","6","","26","","24.1","","99.72","","","","-16","","Cloudy"
"2010-02-06 03:00","2010","02","06","03:00","-9.0","","-16.4","","55","","4","","24","","24.1","","99.53","","","","-17","","Cloudy"
"2010-02-06 04:00","2010","02","06","04:00","-9.8","","-16.5","","58","","4","","26","","24.1","","99.60","","","","-19","","Cloudy"
"2010-02-06 05:00","2010","02","06","05:00","-10.3","","-16.3","","61","","4","","22","","24.1","","99.61","","","","-19","","Cloudy"
"2010-02-06 06:00","2010","02","06","06:00","-11.1","","-16.6","","64","","3","","26","","24.1","","99.62","","","","-20","","Cloudy"
"2010-02-06 07:00","2010","02","06","07:00","-11.7","","-16.9","","65","","4","","22","","24.1","","99.69","","","","-20","","Mostly Cloudy"
"2010-02-06 08:00","2010","02","06","08:00","-11.9","","-17.0","","66","","5","","26","","24.1","","99.77","","","","-21","","Mostly Cloudy"
"2010-02-06 09:00","2010","02","06","09:00","-12.0","","-16.6","","69","","2","","32","","24.1","","99.74","","","","-22","","Mostly Cloudy"
"2010-02-06 10:00","2010","02","06","10:00","-10.9","","-16.2","","65","","1","","26","","24.1","","99.70","","","","-20","","Mostly Cloudy"
"2010-02-06 11:00","2010","02","06","11:00","-9.3","","-15.6","","60","","1","","20","","24.1","","99.66","","","","-17","","Mostly Cloudy"
"2010-02-06 12:00","2010","02","06","12:00","-8.3","","-15.3","","57","","36","","15","","24.1","","99.59","","","","-15","","Mainly Clear"
"2010-02-06 13:00","2010","02","06","13:00","-6.5","","-14.4","","53","","1","","20","","24.1","","99.55","","","","-13","","Mainly Clear"
"2010-02-06 14:00","2010","02","06","14:00","-6.2","","-14.2","","53","","35","","22","","24.1","","99.53","","","","-13","","Mainly Clear"
"2010-02-06 15:00","2010","02","06","15:00","-6.8","","-14.4","","55","","36","","28","","24.1","","99.54","","","","-15","","Clear"
"2010-02-06 16:00","2010","02","06","16:00","-6.8","","-14.3","","55","","35","","24","","24.1","","99.54","","","","-14","","Clear"
"2010-02-06 17:00","2010","02","06","17:00","-7.0","","-14.0","","57","","1","","20","","24.1","","99.58","","","","-14","","Clear"
"2010-02-06 18:00","2010","02","06","18:00","-7.8","","-14.1","","61","","35","","22","","24.1","","99.60","","","","-15","","Clear"
"2010-02-06 19:00","2010","02","06","19:00","-8.1","","-14.5","","60","","35","","19","","24.1","","99.63","","","","-15","","Clear"
"2010-02-06 20:00","2010","02","06","20:00","-8.3","","-14.8","","59","","35","","22","","24.1","","99.65","","","","-16","","Clear"
"2010-02-06 21:00","2010","02","06","21:00","-8.0","","-14.4","","60","","36","","26","","24.1","","99.67","","","","-16","","Clear"
"2010-02-06 22:00","2010","02","06","22:00","-8.4","","-14.0","","64","","36","","19","","24.1","","99.74","","","","-16","","Clear"
"2010-02-06 23:00","2010","02","06","23:00","-9.2","","-14.0","","68","","1","","19","","24.1","","99.76","","","","-17","","Clear"
"2010-02-07 00:00","2010","02","07","00:00","-9.6","","-14.1","","70","","36","","20","","24.1","","99.76","","","","-17","","Clear"
"2010-02-07 01:00","2010","02","07","01:00","-10.1","","-14.3","","71","","34","","19","","24.1","","99.75","","","","-18","","Clear"
"2010-02-07 02:00","2010","02","07","02:00","-10.2","","-14.5","","71","","36","","20","","24.1","","99.77","","","","-18","","Clear"
"2010-02-07 03:00","2010","02","07","03:00","-10.7","","-14.6","","73","","36","","24","","24.1","","99.80","","","","-19","","Clear"
"2010-02-07 04:00","2010","02","07","04:00","-11.2","","-14.8","","75","","36","","28","","24.1","","99.81","","","","-21","","Clear"
"2010-02-07 05:00","2010","02","07","05:00","-11.7","","-14.9","","77","","36","","22","","24.1","","99.81","","","","-20","","Clear"
"2010-02-07 06:00","2010","02","07","06:00","-11.7","","-14.7","","78","","35","","19","","24.1","","99.83","","","","-20","","Clear"
"2010-02-07 07:00","2010","02","07","07:00","-11.3","","-14.5","","77","","35","","26","","24.1","","99.85","","","","-21","","Mainly Clear"
"2010-02-07 08:00","2010","02","07","08:00","-10.9","","-14.3","","76","","34","","24","","24.1","","99.90","","","","-20","","Mainly Clear"
"2010-02-07 09:00","2010","02","07","09:00","-9.4","","-14.4","","67","","34","","28","","24.1","","99.91","","","","-18","","Clear"
"2010-02-07 10:00","2010","02","07","10:00","-7.8","","-15.6","","53","","35","","26","","24.1","","99.94","","","","-16","","Clear"
"2010-02-07 11:00","2010","02","07","11:00","-6.2","","-15.7","","47","","36","","30","","24.1","","99.95","","","","-15","","Mainly Clear"
"2010-02-07 12:00","2010","02","07","12:00","-4.6","","-15.2","","43","","33","","26","","24.1","","99.90","","","","-12","","Mainly Clear"
"2010-02-07 13:00","2010","02","07","13:00","-3.7","","-15.1","","41","","34","","22","","24.1","","99.81","","","","-10","","Mainly Clear"
"2010-02-07 14:00","2010","02","07","14:00","-2.9","","-14.1","","42","","33","","24","","24.1","","99.77","","","","-10","","Mainly Clear"
"2010-02-07 15:00","2010","02","07","15:00","-2.8","","-13.7","","43","","34","","30","","24.1","","99.74","","","","-10","","Mainly Clear"
"2010-02-07 16:00","2010","02","07","16:00","-3.6","","-14.1","","44","","34","","32","","24.1","","99.75","","","","-11","","Mainly Clear"
"2010-02-07 17:00","2010","02","07","17:00","-4.3","","-13.5","","49","","33","","28","","24.1","","99.78","","","","-12","","Mainly Clear"
"2010-02-07 18:00","2010","02","07","18:00","-5.7","","-13.5","","54","","35","","17","","24.1","","99.83","","","","-12","","Mainly Clear"
"2010-02-07 19:00","2010","02","07","19:00","-5.9","","-13.0","","57","","33","","24","","24.1","","99.84","","","","-13","","Mainly Clear"
"2010-02-07 20:00","2010","02","07","20:00","-6.6","","-12.1","","65","","30","","20","","24.1","","99.84","","","","-14","","Clear"
"2010-02-07 21:00","2010","02","07","21:00","-7.4","","-11.8","","71","","31","","22","","24.1","","99.85","","","","-15","","Clear"
"2010-02-07 22:00","2010","02","07","22:00","-7.3","","-11.7","","71","","30","","24","","24.1","","99.83","","","","-15","","Clear"
"2010-02-07 23:00","2010","02","07","23:00","-7.4","","-11.9","","70","","31","","24","","24.1","","99.81","","","","-15","","Clear"
"2010-02-08 00:00","2010","02","08","00:00","-8.0","","-12.2","","72","","29","","17","","24.1","","99.80","","","","-15","","Clear"
"2010-02-08 01:00","2010","02","08","01:00","-8.4","","-12.2","","74","","30","","13","","24.1","","99.79","","","","-14","","Clear"
"2010-02-08 02:00","2010","02","08","02:00","-9.3","","-12.4","","78","","29","","11","","24.1","","99.83","","","","-15","","Clear"
"2010-02-08 03:00","2010","02","08","03:00","-10.6","","-13.4","","80","","31","","11","","24.1","","99.84","","","","-16","","Clear"
"2010-02-08 04:00","2010","02","08","04:00","-9.7","","-12.9","","77","","31","","13","","24.1","","99.85","","","","-16","","Clear"
"2010-02-08 05:00","2010","02","08","05:00","-10.7","","-13.3","","81","","28","","6","","24.1","","99.87","","","","-14","","Clear"
"2010-02-08 06:00","2010","02","08","06:00","-10.6","","-13.3","","80","","31","","7","","24.1","","99.85","","","","-15","","Clear"
"2010-02-08 07:00","2010","02","08","07:00","-10.0","","-12.7","","81","","31","","7","","24.1","","99.89","","","","-14","","Mainly Clear"
"2010-02-08 08:00","2010","02","08","08:00","-10.2","","-12.5","","83","","32","","7","","24.1","","99.91","","","","-14","","Mainly Clear"
"2010-02-08 09:00","2010","02","08","09:00","-7.7","","-10.8","","78","","4","","7","","24.1","","99.94","","","","-11","","Mainly Clear"
"2010-02-08 10:00","2010","02","08","10:00","-5.7","","-9.4","","75","","33","","11","","24.1","","99.95","","","","-10","","Mainly Clear"
"2010-02-08 11:00","2010","02","08","11:00","-3.0","","-9.6","","60","","31","","26","","24.1","","99.97","","","","-10","","Mainly Clear"
"2010-02-08 12:00","2010","02","08","12:00","-1.9","","-9.6","","56","","30","","19","","24.1","","99.95","","","","-7","","Mainly Clear"
"2010-02-08 13:00","2010","02","08","13:00","-1.1","","-9.8","","52","","32","","26","","24.1","","99.90","","","","-7","","Mainly Clear"
"2010-02-08 14:00","2010","02","08","14:00","-0.2","","-9.3","","50","","31","","24","","24.1","","99.84","","","","-6","","Clear"
"2010-02-08 15:00","2010","02","08","15:00","0.3","","-9.3","","48","","30","","28","","24.1","","99.85","","","","","","Clear"
"2010-02-08 16:00","2010","02","08","16:00","-0.5","","-9.0","","53","","29","","28","","24.1","","99.87","","","","-7","","Clear"
"2010-02-08 17:00","2010","02","08","17:00","-1.9","","-9.1","","58","","30","","26","","24.1","","99.88","","","","-8","","Mainly Clear"
"2010-02-08 18:00","2010","02","08","18:00","-3.5","","-9.0","","66","","30","","22","","24.1","","99.92","","","","-10","","Mainly Clear"
"2010-02-08 19:00","2010","02","08","19:00","-5.2","","-9.4","","72","","34","","15","","24.1","","99.96","","","","-11","","Clear"
"2010-02-08 20:00","2010","02","08","20:00","-5.7","","-9.2","","76","","35","","22","","24.1","","99.99","","","","-13","","Clear"
"2010-02-08 21:00","2010","02","08","21:00","-5.3","","-8.2","","80","","32","","28","","24.1","","100.05","","","","-13","","Mostly Cloudy"
"2010-02-08 22:00","2010","02","08","22:00","-4.9","","-7.9","","79","","32","","22","","24.1","","100.09","","","","-12","","Cloudy"
"2010-02-08 23:00","2010","02","08","23:00","-4.7","","-7.9","","78","","32","","19","","24.1","","100.12","","","","-11","","Cloudy"
"2010-02-09 00:00","2010","02","09","00:00","-5.1","","-8.1","","79","","32","","19","","24.1","","100.05","","","","-12","","Cloudy"
"2010-02-09 01:00","2010","02","09","01:00","-5.0","","-8.1","","79","","31","","9","","24.1","","99.98","","","","-9","","Cloudy"
"2010-02-09 02:00","2010","02","09","02:00","-4.1","","-7.4","","78","","36","","17","","24.1","","100.02","","","","-10","","Cloudy"
"2010-02-09 03:00","2010","02","09","03:00","-4.3","","-7.4","","79","","33","","7","","24.1","","100.05","","","","-7","","Cloudy"
"2010-02-09 04:00","2010","02","09","04:00","-4.7","","-8.3","","76","","1","","13","","24.1","","100.03","","","","-10","","Cloudy"
"2010-02-09 05:00","2010","02","09","05:00","-5.4","","-9.0","","76","","36","","17","","24.1","","100.02","","","","-11","","Cloudy"
"2010-02-09 06:00","2010","02","09","06:00","-6.1","","-9.9","","74","","2","","19","","24.1","","100.01","","","","-13","","Mostly Cloudy"
"2010-02-09 07:00","2010","02","09","07:00","-7.3","","-10.9","","75","","2","","17","","24.1","","99.99","","","","-14","","Mostly Cloudy"
"2010-02-09 08:00","2010","02","09","08:00","-8.0","","-10.9","","80","","1","","9","","24.1","","99.97","","","","-13","","Mostly Cloudy"
"2010-02-09 09:00","2010","02","09","09:00","-7.4","","-11.1","","75","","1","","19","","24.1","","99.86","","","","-14","","Mostly Cloudy"
"2010-02-09 10:00","2010","02","09","10:00","-7.1","","-11.0","","74","","33","","7","","24.1","","99.85","","","","-11","","Mostly Cloudy"
"2010-02-09 11:00","2010","02","09","11:00","-6.8","","-11.4","","70","","36","","15","","24.1","","99.76","","","","-13","","Mostly Cloudy"
"2010-02-09 12:00","2010","02","09","12:00","-6.3","","-11.6","","66","","1","","13","","24.1","","99.69","","","","-12","","Cloudy"
"2010-02-09 13:00","2010","02","09","13:00","-5.4","","-11.7","","61","","1","","6","","24.1","","99.59","","","","-8","","Cloudy"
"2010-02-09 14:00","2010","02","09","14:00","-4.5","","-11.4","","59","","5","","11","","24.1","","99.46","","","","-9","","Cloudy"
"2010-02-09 15:00","2010","02","09","15:00","-4.3","","-11.2","","59","","5","","9","","24.1","","99.33","","","","-8","","Cloudy"
"2010-02-09 16:00","2010","02","09","16:00","-3.9","","-10.6","","60","","9","","11","","24.1","","99.18","","","","-8","","Cloudy"
"2010-02-09 17:00","2010","02","09","17:00","-4.3","","-9.6","","66","","7","","13","","24.1","","99.08","","","","-9","","Cloudy"
"2010-02-09 18:00","2010","02","09","18:00","-4.1","","-8.4","","72","","5","","13","","24.1","","99.02","","","","-9","","Snow"
"2010-02-09 19:00","2010","02","09","19:00","-3.8","","-7.4","","76","","7","","15","","24.1","","98.95","","","","-9","","Snow"
"2010-02-09 20:00","2010","02","09","20:00","-4.6","","-7.8","","78","","7","","19","","19.3","","98.85","","","","-11","","Snow"
"2010-02-09 21:00","2010","02","09","21:00","-5.3","","-7.6","","84","","5","","22","","19.3","","98.75","","","","-12","","Snow"
"2010-02-09 22:00","2010","02","09","22:00","-5.4","","-7.7","","84","","5","","19","","19.3","","98.61","","","","-12","","Snow"
"2010-02-09 23:00","2010","02","09","23:00","-5.3","","-7.3","","86","","6","","20","","14.5","","98.52","","","","-12","","Snow"
"2010-02-10 00:00","2010","02","10","00:00","-5.3","","-7.6","","84","","7","","22","","14.5","","98.43","","","","-12","","Snow"
"2010-02-10 01:00","2010","02","10","01:00","-5.4","","-7.7","","84","","5","","19","","16.1","","98.32","","","","-12","","Snow"
"2010-02-10 02:00","2010","02","10","02:00","-5.4","","-7.8","","83","","6","","26","","19.3","","98.22","","","","-13","","Snow"
"2010-02-10 03:00","2010","02","10","03:00","-5.4","","-8.1","","81","","6","","24","","8.0","","98.11","","","","-13","","Snow"
"2010-02-10 04:00","2010","02","10","04:00","-5.8","","-7.1","","91","","5","","15","","2.0","","98.07","","","","-12","","Snow"
"2010-02-10 05:00","2010","02","10","05:00","-5.7","","-7.0","","91","","3","","19","","4.0","","98.04","","","","-12","","Snow"
"2010-02-10 06:00","2010","02","10","06:00","-5.5","","-7.2","","88","","2","","19","","19.3","","98.01","","","","-12","","Snow"
"2010-02-10 07:00","2010","02","10","07:00","-5.1","","-7.5","","83","","3","","17","","19.3","","98.03","","","","-11","","Snow"
"2010-02-10 08:00","2010","02","10","08:00","-5.1","","-7.7","","82","","36","","20","","8.0","","98.05","","","","-12","","Snow"
"2010-02-10 09:00","2010","02","10","09:00","-5.1","","-7.3","","85","","1","","24","","6.4","","98.08","","","","-12","","Snow"
"2010-02-10 10:00","2010","02","10","10:00","-5.0","","-6.8","","87","","1","","26","","4.8","","98.07","","","","-12","","Snow"
"2010-02-10 11:00","2010","02","10","11:00","-4.4","","-6.2","","87","","1","","28","","4.8","","98.08","","","","-12","","Snow"
"2010-02-10 12:00","2010","02","10","12:00","-3.8","","-6.5","","81","","36","","32","","24.1","","98.09","","","","-12","","Cloudy"
"2010-02-10 13:00","2010","02","10","13:00","-3.5","","-6.2","","82","","34","","24","","16.1","","98.08","","","","-10","","Snow"
"2010-02-10 14:00","2010","02","10","14:00","-3.8","","-6.5","","81","","35","","37","","19.3","","98.05","","","","-12","","Snow"
"2010-02-10 15:00","2010","02","10","15:00","-3.3","","-6.3","","80","","36","","32","","24.1","","98.12","","","","-11","","Cloudy"
"2010-02-10 16:00","2010","02","10","16:00","-3.3","","-6.5","","78","","35","","28","","19.3","","98.17","","","","-11","","Snow Showers"
"2010-02-10 17:00","2010","02","10","17:00","-4.1","","-6.6","","83","","34","","32","","6.4","","98.24","","","","-12","","Snow Showers"
"2010-02-10 18:00","2010","02","10","18:00","-4.5","","-7.9","","77","","33","","44","","24.1","","98.35","","","","-14","","Cloudy"
"2010-02-10 19:00","2010","02","10","19:00","-5.4","","-9.1","","75","","33","","39","","24.1","","98.45","","","","-15","","Mainly Clear"
"2010-02-10 20:00","2010","02","10","20:00","-5.8","","-10.5","","69","","34","","30","","24.1","","98.55","","","","-14","","Mainly Clear"
"2010-02-10 21:00","2010","02","10","21:00","-6.1","","-11.2","","67","","35","","26","","24.1","","98.58","","","","-14","","Mainly Clear"
"2010-02-10 22:00","2010","02","10","22:00","-6.6","","-12.2","","64","","34","","28","","24.1","","98.61","","","","-15","","Clear"
"2010-02-10 23:00","2010","02","10","23:00","-6.8","","-12.2","","65","","34","","26","","24.1","","98.66","","","","-15","","Clear"
"2010-02-11 00:00","2010","02","11","00:00","-7.2","","-12.4","","66","","34","","28","","24.1","","98.72","","","","-16","","Clear"
"2010-02-11 01:00","2010","02","11","01:00","-7.4","","-12.9","","65","","34","","24","","24.1","","98.72","","","","-15","","Clear"
"2010-02-11 02:00","2010","02","11","02:00","-7.7","","-12.9","","66","","35","","32","","24.1","","98.77","","","","-17","","Clear"
"2010-02-11 03:00","2010","02","11","03:00","-8.4","","-13.0","","69","","35","","26","","24.1","","98.80","","","","-17","","Clear"
"2010-02-11 04:00","2010","02","11","04:00","-8.7","","-13.0","","71","","34","","24","","24.1","","98.85","","","","-17","","Mainly Clear"
"2010-02-11 05:00","2010","02","11","05:00","-8.9","","-13.2","","71","","34","","13","","24.1","","98.86","","","","-15","","Clear"
"2010-02-11 06:00","2010","02","11","06:00","-9.2","","-12.7","","76","","32","","20","","24.1","","98.89","","","","-17","","Mainly Clear"
"2010-02-11 07:00","2010","02","11","07:00","-9.2","","-12.2","","79","","31","","17","","24.1","","98.94","","","","-16","","Mainly Clear"
"2010-02-11 08:00","2010","02","11","08:00","-9.1","","-11.9","","80","","32","","20","","24.1","","98.98","","","","-17","","Mainly Clear"
"2010-02-11 09:00","2010","02","11","09:00","-8.2","","-11.7","","76","","32","","28","","24.1","","99.00","","","","-17","","Mainly Clear"
"2010-02-11 10:00","2010","02","11","10:00","-7.0","","-11.4","","71","","32","","22","","24.1","","98.99","","","","-14","","Mainly Clear"
"2010-02-11 11:00","2010","02","11","11:00","-5.5","","-11.4","","63","","31","","20","","24.1","","99.00","","","","-12","","Mainly Clear"
"2010-02-11 12:00","2010","02","11","12:00","-3.8","","-10.9","","58","","30","","22","","24.1","","98.99","","","","-10","","Mainly Clear"
"2010-02-11 13:00","2010","02","11","13:00","-2.6","","-11.2","","52","","31","","22","","24.1","","98.95","","","","-9","","Mainly Clear"
"2010-02-11 14:00","2010","02","11","14:00","-2.0","","-10.5","","52","","31","","24","","24.1","","98.92","","","","-8","","Mainly Clear"
"2010-02-11 15:00","2010","02","11","15:00","-1.9","","-10.6","","51","","29","","28","","24.1","","98.90","","","","-9","","Mainly Clear"
"2010-02-11 16:00","2010","02","11","16:00","-1.9","","-10.9","","50","","31","","26","","24.1","","98.91","","","","-8","","Mainly Clear"
"2010-02-11 17:00","2010","02","11","17:00","-2.6","","-10.8","","53","","31","","28","","24.1","","98.94","","","","-10","","Clear"
"2010-02-11 18:00","2010","02","11","18:00","-3.6","","-11.1","","56","","29","","22","","24.1","","98.98","","","","-10","","Clear"
"2010-02-11 19:00","2010","02","11","19:00","-5.1","","-10.8","","64","","29","","19","","24.1","","99.04","","","","-12","","Clear"
"2010-02-11 20:00","2010","02","11","20:00","-6.6","","-11.1","","70","","28","","15","","24.1","","99.07","","","","-13","","Clear"
"2010-02-11 21:00","2010","02","11","21:00","-7.2","","-10.8","","75","","28","","9","","24.1","","99.11","","","","-12","","Clear"
"2010-02-11 22:00","2010","02","11","22:00","-6.4","","-10.0","","76","","30","","17","","24.1","","99.08","","","","-13","","Clear"
"2010-02-11 23:00","2010","02","11","23:00","-8.3","","-10.9","","81","","29","","11","","24.1","","99.09","","","","-14","","Clear"
"2010-02-12 00:00","2010","02","12","00:00","-9.4","","-11.5","","85","","24","","13","","24.1","","99.14","","","","-15","","Clear"
"2010-02-12 01:00","2010","02","12","01:00","-9.6","","-11.4","","87","","25","","6","","24.1","","99.17","","","","-13","","Mainly Clear"
"2010-02-12 02:00","2010","02","12","02:00","-9.2","","-11.3","","85","","25","","7","","24.1","","99.18","","","","-13","","Mainly Clear"
"2010-02-12 03:00","2010","02","12","03:00","-11.1","","-12.7","","88","","27","","9","","24.1","","99.15","","","","-16","","Mainly Clear"
"2010-02-12 04:00","2010","02","12","04:00","-8.7","","-10.5","","87","","28","","9","","24.1","","99.13","","","","-13","","Mostly Cloudy"
"2010-02-12 05:00","2010","02","12","05:00","-6.8","","-8.7","","86","","26","","9","","24.1","","99.12","","","","-11","","Mostly Cloudy"
"2010-02-12 06:00","2010","02","12","06:00","-6.9","","-9.0","","85","","27","","7","","24.1","","99.10","","","","-10","","Mostly Cloudy"
"2010-02-12 07:00","2010","02","12","07:00","-6.6","","-9.9","","77","","32","","13","","24.1","","99.12","","","","-12","","Mostly Cloudy"
"2010-02-12 08:00","2010","02","12","08:00","-6.7","","-10.6","","74","","32","","13","","24.1","","99.19","","","","-12","","Mostly Cloudy"
"2010-02-12 09:00","2010","02","12","09:00","-5.6","","-10.9","","66","","33","","11","","24.1","","99.25","","","","-10","","Mainly Clear"
"2010-02-12 10:00","2010","02","12","10:00","-5.5","","-10.9","","66","","36","","13","","24.1","","99.26","","","","-11","","Mainly Clear"
"2010-02-12 11:00","2010","02","12","11:00","-3.5","","-9.7","","62","","29","","20","","24.1","","99.27","","","","-10","","Mainly Clear"
"2010-02-12 12:00","2010","02","12","12:00","-2.3","","-10.0","","55","","28","","24","","24.1","","99.26","","","","-9","","Mainly Clear"
"2010-02-12 13:00","2010","02","12","13:00","-1.5","","-9.1","","56","","29","","22","","24.1","","99.18","","","","-7","","Mainly Clear"
"2010-02-12 14:00","2010","02","12","14:00","-1.2","","-9.8","","52","","28","","20","","24.1","","99.08","","","","-7","","Mainly Clear"
"2010-02-12 15:00","2010","02","12","15:00","-0.8","","-9.3","","53","","28","","22","","24.1","","99.04","","","","-7","","Mostly Cloudy"
"2010-02-12 16:00","2010","02","12","16:00","-1.6","","-9.7","","54","","30","","19","","24.1","","99.02","","","","-7","","Mostly Cloudy"
"2010-02-12 17:00","2010","02","12","17:00","-1.9","","-9.0","","58","","31","","20","","24.1","","99.02","","","","-8","","Mostly Cloudy"
"2010-02-12 18:00","2010","02","12","18:00","-2.2","","-8.9","","60","","30","","17","","24.1","","99.07","","","","-8","","Mostly Cloudy"
"2010-02-12 19:00","2010","02","12","19:00","-2.7","","-10.4","","55","","29","","20","","24.1","","99.11","","","","-9","","Mostly Cloudy"
"2010-02-12 20:00","2010","02","12","20:00","-4.7","","-10.6","","63","","36","","20","","24.1","","99.14","","","","-11","","Cloudy"
"2010-02-12 21:00","2010","02","12","21:00","-5.6","","-10.5","","68","","36","","11","","24.1","","99.11","","","","-10","","Mostly Cloudy"
"2010-02-12 22:00","2010","02","12","22:00","-6.9","","-10.6","","75","","1","","11","","24.1","","99.12","","","","-12","","Mainly Clear"
"2010-02-12 23:00","2010","02","12","23:00","-8.0","","-10.9","","80","","36","","9","","24.1","","99.07","","","","-13","","Mainly Clear"
"2010-02-13 00:00","2010","02","13","00:00","-8.9","","-11.2","","83","","","","0","","24.1","","99.02","","","","","","Mainly Clear"
"2010-02-13 01:00","2010","02","13","01:00","-8.5","","-10.6","","85","","2","","19","","24.1","","98.97","","","","-16","","Mostly Cloudy"
"2010-02-13 02:00","2010","02","13","02:00","-7.3","","-10.0","","81","","36","","13","","24.1","","98.95","","","","-13","","Cloudy"
"2010-02-13 03:00","2010","02","13","03:00","-8.0","","-10.2","","84","","1","","9","","24.1","","98.91","","","","-13","","Cloudy"
"2010-02-13 04:00","2010","02","13","04:00","-8.9","","-10.8","","86","","35","","7","","24.1","","98.85","","","","-13","","Mostly Cloudy"
"2010-02-13 05:00","2010","02","13","05:00","-8.6","","-10.7","","85","","34","","11","","24.1","","98.85","","","","-14","","Cloudy"
"2010-02-13 06:00","2010","02","13","06:00","-9.1","","-11.7","","81","","36","","9","","24.1","","98.84","","","","-14","","Cloudy"
"2010-02-13 07:00","2010","02","13","07:00","-9.4","","-12.8","","76","","35","","15","","24.1","","98.81","","","","-16","","Mostly Cloudy"
"2010-02-13 08:00","2010","02","13","08:00","-9.5","","-13.1","","75","","36","","17","","24.1","","98.80","","","","-17","","Mostly Cloudy"
"2010-02-13 09:00","2010","02","13","09:00","-8.2","","-12.4","","72","","35","","17","","24.1","","98.78","","","","-15","","Mostly Cloudy"
"2010-02-13 10:00","2010","02","13","10:00","-6.9","","-11.5","","70","","36","","11","","24.1","","98.73","","","","-12","","Mostly Cloudy"
"2010-02-13 11:00","2010","02","13","11:00","-6.6","","-11.2","","70","","32","","15","","24.1","","98.69","","","","-13","","Cloudy"
"2010-02-13 12:00","2010","02","13","12:00","-4.8","","-11.0","","62","","33","","13","","24.1","","98.59","","","","-10","","Cloudy"
"2010-02-13 13:00","2010","02","13","13:00","-3.8","","-10.8","","58","","34","","13","","24.1","","98.51","","","","-9","","Mostly Cloudy"
"2010-02-13 14:00","2010","02","13","14:00","-2.3","","-10.2","","55","","32","","24","","24.1","","98.43","","","","-9","","Mostly Cloudy"
"2010-02-13 15:00","2010","02","13","15:00","-2.2","","-9.7","","56","","32","","22","","24.1","","98.41","","","","-8","","Mostly Cloudy"
"2010-02-13 16:00","2010","02","13","16:00","-2.2","","-9.4","","58","","30","","22","","24.1","","98.40","","","","-8","","Mostly Cloudy"
"2010-02-13 17:00","2010","02","13","17:00","-2.7","","-9.6","","59","","31","","26","","24.1","","98.38","","","","-10","","Mostly Cloudy"
"2010-02-13 18:00","2010","02","13","18:00","-3.2","","-8.8","","65","","30","","30","","24.1","","98.39","","","","-11","","Cloudy"
"2010-02-13 19:00","2010","02","13","19:00","-3.3","","-8.1","","69","","30","","28","","24.1","","98.39","","","","-11","","Mostly Cloudy"
"2010-02-13 20:00","2010","02","13","20:00","-3.7","","-7.7","","74","","31","","28","","19.3","","98.39","","","","-11","","Snow Showers"
"2010-02-13 21:00","2010","02","13","21:00","-4.2","","-6.3","","85","","30","","19","","12.9","","98.37","","","","-10","","Snow Showers"
"2010-02-13 22:00","2010","02","13","22:00","-4.5","","-5.8","","91","","29","","17","","6.4","","98.34","","","","-10","","Snow Showers"
"2010-02-13 23:00","2010","02","13","23:00","-4.4","","-5.9","","89","","29","","15","","6.4","","98.30","","","","-10","","Snow Showers"
"2010-02-14 00:00","2010","02","14","00:00","-4.0","","-6.2","","85","","29","","22","","6.4","","98.26","","","","-11","","Snow"
"2010-02-14 01:00","2010","02","14","01:00","-3.8","","-6.2","","83","","29","","26","","9.7","","98.23","","","","-11","","Snow"
"2010-02-14 02:00","2010","02","14","02:00","-3.6","","-7.0","","77","","30","","19","","24.1","","98.24","","","","-10","","Cloudy"
"2010-02-14 03:00","2010","02","14","03:00","-3.3","","-6.5","","78","","31","","17","","24.1","","98.23","","","","-9","","Cloudy"
"2010-02-14 04:00","2010","02","14","04:00","-3.3","","-6.4","","79","","32","","17","","24.1","","98.23","","","","-9","","Cloudy"
"2010-02-14 05:00","2010","02","14","05:00","-3.3","","-6.3","","80","","31","","26","","24.1","","98.28","","","","-10","","Cloudy"
"2010-02-14 06:00","2010","02","14","06:00","-3.4","","-6.4","","80","","31","","32","","24.1","","98.31","","","","-11","","Cloudy"
"2010-02-14 07:00","2010","02","14","07:00","-3.1","","-6.2","","79","","31","","20","","24.1","","98.32","","","","-9","","Cloudy"
"2010-02-14 08:00","2010","02","14","08:00","-2.2","","-5.9","","76","","31","","22","","24.1","","98.34","","","","-8","","Cloudy"
"2010-02-14 09:00","2010","02","14","09:00","-1.7","","-5.2","","77","","30","","15","","24.1","","98.34","","","","-7","","Cloudy"
"2010-02-14 10:00","2010","02","14","10:00","-1.2","","-4.0","","81","","23","","26","","24.1","","98.33","","","","-8","","Cloudy"
"2010-02-14 11:00","2010","02","14","11:00","-1.2","","-5.1","","75","","29","","41","","24.1","","98.35","","","","-9","","Cloudy"
"2010-02-14 12:00","2010","02","14","12:00","-1.4","","-5.3","","75","","29","","30","","24.1","","98.37","","","","-8","","Cloudy"
"2010-02-14 13:00","2010","02","14","13:00","-1.7","","-5.9","","73","","29","","33","","24.1","","98.36","","","","-9","","Cloudy"
"2010-02-14 14:00","2010","02","14","14:00","-2.0","","-6.4","","72","","27","","32","","24.1","","98.33","","","","-9","","Cloudy"
"2010-02-14 15:00","2010","02","14","15:00","-1.9","","-6.0","","74","","27","","30","","24.1","","98.34","","","","-9","","Cloudy"
"2010-02-14 16:00","2010","02","14","16:00","-1.7","","-6.1","","72","","27","","22","","24.1","","98.36","","","","-8","","Cloudy"
"2010-02-14 17:00","2010","02","14","17:00","-1.8","","-5.7","","75","","27","","26","","24.1","","98.39","","","","-8","","Cloudy"
"2010-02-14 18:00","2010","02","14","18:00","-2.0","","-6.8","","70","","27","","30","","24.1","","98.44","","","","-9","","Snow Showers"
"2010-02-14 19:00","2010","02","14","19:00","-1.8","","-7.6","","65","","27","","26","","24.1","","98.46","","","","-8","","Mostly Cloudy"
"2010-02-14 20:00","2010","02","14","20:00","-2.4","","-6.8","","72","","26","","22","","24.1","","98.47","","","","-9","","Mostly Cloudy"
"2010-02-14 21:00","2010","02","14","21:00","-2.6","","-7.1","","71","","27","","17","","24.1","","98.46","","","","-8","","Snow Showers"
"2010-02-14 22:00","2010","02","14","22:00","-2.5","","-6.9","","72","","26","","19","","24.1","","98.47","","","","-8","","Mostly Cloudy"
"2010-02-14 23:00","2010","02","14","23:00","-2.5","","-6.6","","73","","25","","20","","24.1","","98.48","","","","-8","","Snow Showers"
"2010-02-15 00:00","2010","02","15","00:00","-2.7","","-6.8","","73","","26","","20","","24.1","","98.46","","","","-9","","Snow Showers"
"2010-02-15 01:00","2010","02","15","01:00","-2.7","","-6.5","","75","","26","","15","","24.1","","98.44","","","","-8","","Snow Showers"
"2010-02-15 02:00","2010","02","15","02:00","-2.7","","-6.5","","75","","25","","15","","24.1","","98.45","","","","-8","","Mostly Cloudy"
"2010-02-15 03:00","2010","02","15","03:00","-2.4","","-6.3","","75","","25","","19","","24.1","","98.46","","","","-8","","Mostly Cloudy"
"2010-02-15 04:00","2010","02","15","04:00","-2.3","","-5.5","","79","","26","","24","","24.1","","98.46","","","","-9","","Snow Showers"
"2010-02-15 05:00","2010","02","15","05:00","-2.7","","-5.0","","84","","27","","15","","19.3","","98.48","","","","-8","","Snow Showers"
"2010-02-15 06:00","2010","02","15","06:00","-3.2","","-5.0","","87","","25","","9","","19.3","","98.47","","","","-7","","Mostly Cloudy"
"2010-02-15 07:00","2010","02","15","07:00","-2.4","","-6.1","","76","","29","","13","","24.1","","98.52","","","","-7","","Cloudy"
"2010-02-15 08:00","2010","02","15","08:00","-2.5","","-7.7","","67","","27","","28","","24.1","","98.54","","","","-10","","Cloudy"
"2010-02-15 09:00","2010","02","15","09:00","-2.5","","-7.6","","68","","27","","22","","24.1","","98.53","","","","-9","","Cloudy"
"2010-02-15 10:00","2010","02","15","10:00","-2.2","","-7.8","","65","","27","","24","","24.1","","98.51","","","","-9","","Cloudy"
"2010-02-15 11:00","2010","02","15","11:00","-2.0","","-8.8","","60","","28","","22","","24.1","","98.52","","","","-8","","Cloudy"
"2010-02-15 12:00","2010","02","15","12:00","-1.9","","-8.6","","60","","29","","22","","24.1","","98.49","","","","-8","","Cloudy"
"2010-02-15 13:00","2010","02","15","13:00","-1.6","","-8.2","","61","","26","","20","","24.1","","98.45","","","","-7","","Snow Showers"
"2010-02-15 14:00","2010","02","15","14:00","-1.9","","-8.5","","61","","28","","15","","24.1","","98.39","","","","-7","","Cloudy"
"2010-02-15 15:00","2010","02","15","15:00","-1.9","","-8.1","","63","","28","","15","","24.1","","98.36","","","","-7","","Cloudy"
"2010-02-15 16:00","2010","02","15","16:00","-2.1","","-7.9","","64","","25","","17","","24.1","","98.37","","","","-7","","Cloudy"
"2010-02-15 17:00","2010","02","15","17:00","-2.3","","-7.9","","65","","27","","13","","24.1","","98.37","","","","-7","","Cloudy"
"2010-02-15 18:00","2010","02","15","18:00","-2.6","","-8.1","","66","","26","","15","","24.1","","98.38","","","","-8","","Cloudy"
"2010-02-15 19:00","2010","02","15","19:00","-2.7","","-7.8","","68","","31","","9","","24.1","","98.40","","","","-6","","Snow Showers"
"2010-02-15 20:00","2010","02","15","20:00","-3.2","","-8.1","","69","","32","","15","","24.1","","98.39","","","","-8","","Snow Showers"
"2010-02-15 21:00","2010","02","15","21:00","-3.3","","-8.9","","65","","31","","15","","24.1","","98.34","","","","-8","","Cloudy"
"2010-02-15 22:00","2010","02","15","22:00","-3.3","","-8.6","","67","","30","","17","","24.1","","98.30","","","","-9","","Cloudy"
"2010-02-15 23:00","2010","02","15","23:00","-3.8","","-8.9","","68","","26","","9","","24.1","","98.27","","","","-8","","Cloudy"
"2010-02-16 00:00","2010","02","16","00:00","-4.0","","-8.6","","70","","27","","13","","24.1","","98.24","","","","-9","","Cloudy"
"2010-02-16 01:00","2010","02","16","01:00","-3.8","","-8.8","","68","","18","","6","","24.1","","98.21","","","","-6","","Cloudy"
"2010-02-16 02:00","2010","02","16","02:00","-4.1","","-8.1","","74","","25","","7","","19.3","","98.19","","","","-7","","Snow Showers"
"2010-02-16 03:00","2010","02","16","03:00","-4.3","","-7.7","","77","","26","","7","","19.3","","98.15","","","","-7","","Snow Showers"
"2010-02-16 04:00","2010","02","16","04:00","-4.4","","-7.4","","80","","25","","7","","19.3","","98.13","","","","-8","","Snow Showers"
"2010-02-16 05:00","2010","02","16","05:00","-4.1","","-7.7","","76","","24","","11","","19.3","","98.12","","","","-9","","Snow Showers"
"2010-02-16 06:00","2010","02","16","06:00","-4.3","","-6.4","","85","","23","","9","","19.3","","98.14","","","","-8","","Snow Showers"
"2010-02-16 07:00","2010","02","16","07:00","-4.4","","-6.0","","89","","24","","7","","16.1","","98.15","","","","-8","","Snow Showers"
"2010-02-16 08:00","2010","02","16","08:00","-4.3","","-5.7","","90","","24","","9","","2.8","","98.16","","","","-8","","Snow"
"2010-02-16 09:00","2010","02","16","09:00","-3.6","","-5.3","","88","","26","","11","","19.3","","98.16","","","","-8","","Snow"
"2010-02-16 10:00","2010","02","16","10:00","-2.2","","-5.2","","80","","27","","13","","19.3","","98.17","","","","-7","","Mostly Cloudy"
"2010-02-16 11:00","2010","02","16","11:00","-1.2","","-5.4","","73","","27","","17","","24.1","","98.19","","","","-6","","Cloudy"
"2010-02-16 12:00","2010","02","16","12:00","-1.1","","-6.7","","66","","27","","15","","24.1","","98.17","","","","-6","","Cloudy"
"2010-02-16 13:00","2010","02","16","13:00","0.0","","-6.8","","60","","28","","15","","24.1","","98.13","","","","-4","","Cloudy"
"2010-02-16 14:00","2010","02","16","14:00","0.0","","-6.9","","60","","30","","19","","24.1","","98.09","","","","-5","","Snow Showers"
"2010-02-16 15:00","2010","02","16","15:00","0.1","","-6.8","","60","","29","","17","","24.1","","98.12","","","","","","Snow Showers"
"2010-02-16 16:00","2010","02","16","16:00","0.2","","-7.3","","57","","31","","15","","24.1","","98.14","","","","","","Cloudy"
"2010-02-16 17:00","2010","02","16","17:00","-0.3","","-6.8","","61","","32","","19","","24.1","","98.19","","","","-5","","Cloudy"
"2010-02-16 18:00","2010","02","16","18:00","-0.8","","-6.8","","64","","30","","15","","24.1","","98.25","","","","-5","","Cloudy"
"2010-02-16 19:00","2010","02","16","19:00","-1.0","","-6.1","","68","","35","","15","","24.1","","98.29","","","","-6","","Mostly Cloudy"
"2010-02-16 20:00","2010","02","16","20:00","-1.6","","-5.4","","75","","35","","19","","19.3","","98.34","","","","-7","","Snow Showers"
"2010-02-16 21:00","2010","02","16","21:00","-2.2","","-5.9","","76","","35","","22","","19.3","","98.38","","","","-8","","Snow Showers"
"2010-02-16 22:00","2010","02","16","22:00","-3.3","","-7.4","","73","","35","","13","","24.1","","98.38","","","","-8","","Mostly Cloudy"
"2010-02-16 23:00","2010","02","16","23:00","-2.9","","-7.1","","73","","33","","19","","24.1","","98.36","","","","-9","","Mostly Cloudy"
"2010-02-17 00:00","2010","02","17","00:00","-3.3","","-7.3","","74","","32","","17","","24.1","","98.36","","","","-9","","Mostly Cloudy"
"2010-02-17 01:00","2010","02","17","01:00","-3.3","","-7.2","","74","","29","","13","","24.1","","98.34","","","","-8","","Mostly Cloudy"
"2010-02-17 02:00","2010","02","17","02:00","-3.3","","-7.1","","75","","29","","17","","24.1","","98.34","","","","-9","","Mostly Cloudy"
"2010-02-17 03:00","2010","02","17","03:00","-3.3","","-6.9","","76","","28","","15","","24.1","","98.32","","","","-8","","Mostly Cloudy"
"2010-02-17 04:00","2010","02","17","04:00","-3.4","","-6.8","","77","","29","","15","","24.1","","98.29","","","","-9","","Mostly Cloudy"
"2010-02-17 05:00","2010","02","17","05:00","-3.2","","-6.7","","77","","28","","15","","24.1","","98.29","","","","-8","","Mostly Cloudy"
"2010-02-17 06:00","2010","02","17","06:00","-3.3","","-6.6","","78","","30","","17","","24.1","","98.29","","","","-9","","Mostly Cloudy"
"2010-02-17 07:00","2010","02","17","07:00","-3.1","","-6.7","","76","","28","","19","","24.1","","98.29","","","","-9","","Cloudy"
"2010-02-17 08:00","2010","02","17","08:00","-3.4","","-6.0","","82","","29","","22","","3.2","","98.31","","","","-10","","Snow Showers"
"2010-02-17 09:00","2010","02","17","09:00","-3.1","","-4.4","","91","","28","","17","","3.2","","98.28","","","","-9","","Snow Showers"
"2010-02-17 10:00","2010","02","17","10:00","-2.3","","-3.7","","90","","28","","15","","2.8","","98.25","","","","-7","","Snow Showers,Fog"
"2010-02-17 11:00","2010","02","17","11:00","-1.1","","-3.1","","86","","28","","15","","6.4","","98.18","","","","-6","","Snow Showers,Fog"
"2010-02-17 12:00","2010","02","17","12:00","-0.2","","-2.8","","83","","30","","24","","16.1","","98.13","","","","-6","","Snow Showers"
"2010-02-17 13:00","2010","02","17","13:00","0.1","","-2.2","","84","","30","","24","","6.4","","98.04","","","","","","Snow Showers"
"2010-02-17 14:00","2010","02","17","14:00","0.4","","-1.4","","88","","30","","32","","4.8","","98.00","","","","","","Snow Showers"
"2010-02-17 15:00","2010","02","17","15:00","-0.7","","-1.3","","96","","30","","30","","1.2","","98.01","","","","-7","","Snow,Fog"
"2010-02-17 16:00","2010","02","17","16:00","-0.7","","-2.5","","88","","30","","28","","24.1","","98.02","","","","-7","","Snow"
"2010-02-17 17:00","2010","02","17","17:00","-0.1","","-3.2","","80","","31","","35","","24.1","","98.02","","","","-7","","Cloudy"
"2010-02-17 18:00","2010","02","17","18:00","-0.6","","-3.6","","80","","31","","30","","24.1","","98.10","","","","-7","","Cloudy"
"2010-02-17 19:00","2010","02","17","19:00","-1.1","","-3.6","","83","","32","","30","","19.3","","98.17","","","","-8","","Cloudy"
"2010-02-17 20:00","2010","02","17","20:00","-1.3","","-4.1","","81","","31","","22","","24.1","","98.17","","","","-7","","Cloudy"
"2010-02-17 21:00","2010","02","17","21:00","-1.0","","-3.9","","81","","31","","24","","24.1","","98.19","","","","-7","","Cloudy"
"2010-02-17 22:00","2010","02","17","22:00","-0.4","","-3.3","","81","","33","","30","","24.1","","98.19","","","","-7","","Cloudy"
"2010-02-17 23:00","2010","02","17","23:00","-0.3","","-2.8","","83","","32","","26","","24.1","","98.19","","","","-6","","Cloudy"
"2010-02-18 00:00","2010","02","18","00:00","0.1","","-3.0","","80","","34","","33","","24.1","","98.21","","","","","","Mostly Cloudy"
"2010-02-18 01:00","2010","02","18","01:00","0.0","","-2.3","","84","","32","","28","","24.1","","98.25","","","","-6","","Cloudy"
"2010-02-18 02:00","2010","02","18","02:00","0.3","","-2.2","","83","","32","","28","","24.1","","98.29","","","","","","Mostly Cloudy"
"2010-02-18 03:00","2010","02","18","03:00","-0.6","","-3.7","","80","","34","","26","","24.1","","98.34","","","","-7","","Cloudy"
"2010-02-18 04:00","2010","02","18","04:00","-1.1","","-3.9","","81","","32","","26","","24.1","","98.35","","","","-7","","Cloudy"
"2010-02-18 05:00","2010","02","18","05:00","-1.5","","-4.6","","79","","33","","30","","24.1","","98.41","","","","-8","","Cloudy"
"2010-02-18 06:00","2010","02","18","06:00","-1.9","","-5.3","","78","","32","","35","","24.1","","98.47","","","","-9","","Cloudy"
"2010-02-18 07:00","2010","02","18","07:00","-2.1","","-5.6","","77","","32","","32","","24.1","","98.54","","","","-9","","Cloudy"
"2010-02-18 08:00","2010","02","18","08:00","-2.2","","-5.7","","77","","32","","30","","24.1","","98.61","","","","-9","","Cloudy"
"2010-02-18 09:00","2010","02","18","09:00","-2.0","","-5.5","","77","","31","","32","","24.1","","98.64","","","","-9","","Cloudy"
"2010-02-18 10:00","2010","02","18","10:00","-1.3","","-5.0","","76","","33","","26","","24.1","","98.70","","","","-8","","Mostly Cloudy"
"2010-02-18 11:00","2010","02","18","11:00","-0.7","","-4.6","","75","","31","","24","","24.1","","98.70","","","","-7","","Mostly Cloudy"
"2010-02-18 12:00","2010","02","18","12:00","-0.1","","-4.6","","72","","29","","30","","24.1","","98.69","","","","-7","","Cloudy"
"2010-02-18 13:00","2010","02","18","13:00","0.5","","-4.4","","70","","29","","24","","24.1","","98.65","","","","","","Cloudy"
"2010-02-18 14:00","2010","02","18","14:00","0.3","","-4.3","","71","","28","","28","","24.1","","98.63","","","","","","Cloudy"
"2010-02-18 15:00","2010","02","18","15:00","0.8","","-3.8","","71","","29","","30","","24.1","","98.63","","","","","","Cloudy"
"2010-02-18 16:00","2010","02","18","16:00","0.4","","-3.9","","73","","30","","30","","24.1","","98.65","","","","","","Cloudy"
"2010-02-18 17:00","2010","02","18","17:00","0.4","","-4.0","","72","","30","","30","","24.1","","98.68","","","","","","Cloudy"
"2010-02-18 18:00","2010","02","18","18:00","0.6","","-4.0","","71","","30","","28","","24.1","","98.71","","","","","","Cloudy"
"2010-02-18 19:00","2010","02","18","19:00","0.2","","-3.6","","76","","31","","24","","24.1","","98.74","","","","","","Cloudy"
"2010-02-18 20:00","2010","02","18","20:00","0.0","","-3.0","","80","","30","","22","","24.1","","98.77","","","","-6","","Cloudy"
"2010-02-18 21:00","2010","02","18","21:00","-0.1","","-2.2","","86","","27","","13","","24.1","","98.75","","","","-4","","Cloudy"
"2010-02-18 22:00","2010","02","18","22:00","0.0","","-2.7","","82","","28","","19","","24.1","","98.74","","","","-5","","Mostly Cloudy"
"2010-02-18 23:00","2010","02","18","23:00","0.7","","-3.0","","76","","29","","22","","24.1","","98.74","","","","","","Cloudy"
"2010-02-19 00:00","2010","02","19","00:00","1.2","","-3.6","","70","","31","","33","","24.1","","98.77","","","","","","Cloudy"
"2010-02-19 01:00","2010","02","19","01:00","1.3","","-3.9","","68","","31","","24","","24.1","","98.80","","","","","","Cloudy"
"2010-02-19 02:00","2010","02","19","02:00","1.0","","-4.0","","69","","30","","41","","24.1","","98.82","","","","","","Cloudy"
"2010-02-19 03:00","2010","02","19","03:00","1.0","","-3.8","","70","","31","","48","","24.1","","98.82","","","","","","Cloudy"
"2010-02-19 04:00","2010","02","19","04:00","0.9","","-3.9","","70","","31","","43","","24.1","","98.87","","","","","","Cloudy"
"2010-02-19 05:00","2010","02","19","05:00","0.9","","-3.7","","71","","31","","28","","24.1","","98.90","","","","","","Cloudy"
"2010-02-19 06:00","2010","02","19","06:00","0.9","","-3.8","","71","","31","","43","","24.1","","98.95","","","","","","Cloudy"
"2010-02-19 07:00","2010","02","19","07:00","0.6","","-3.8","","72","","30","","28","","24.1","","99.03","","","","","","Cloudy"
"2010-02-19 08:00","2010","02","19","08:00","0.3","","-4.4","","71","","31","","39","","24.1","","99.11","","","","","","Cloudy"
"2010-02-19 09:00","2010","02","19","09:00","0.6","","-4.5","","69","","31","","32","","24.1","","99.17","","","","","","Cloudy"
"2010-02-19 10:00","2010","02","19","10:00","0.9","","-4.2","","69","","29","","33","","24.1","","99.19","","","","","","Cloudy"
"2010-02-19 11:00","2010","02","19","11:00","1.1","","-3.9","","69","","32","","30","","24.1","","99.22","","","","","","Cloudy"
"2010-02-19 12:00","2010","02","19","12:00","1.4","","-4.1","","67","","30","","28","","24.1","","99.26","","","","","","Cloudy"
"2010-02-19 13:00","2010","02","19","13:00","2.1","","-3.8","","65","","29","","32","","24.1","","99.23","","","","","","Mostly Cloudy"
"2010-02-19 14:00","2010","02","19","14:00","3.0","","-4.0","","60","","30","","28","","24.1","","99.26","","","","","","Mostly Cloudy"
"2010-02-19 15:00","2010","02","19","15:00","2.9","","-4.6","","58","","28","","28","","24.1","","99.30","","","","","","Mainly Clear"
"2010-02-19 16:00","2010","02","19","16:00","2.7","","-4.5","","59","","30","","26","","24.1","","99.34","","","","","","Mainly Clear"
"2010-02-19 17:00","2010","02","19","17:00","2.3","","-4.1","","63","","29","","35","","24.1","","99.37","","","","","","Mainly Clear"
"2010-02-19 18:00","2010","02","19","18:00","0.8","","-3.8","","71","","29","","30","","24.1","","99.46","","","","","","Mainly Clear"
"2010-02-19 19:00","2010","02","19","19:00","0.0","","-4.3","","73","","31","","24","","24.1","","99.51","","","","-6","","Clear"
"2010-02-19 20:00","2010","02","19","20:00","-0.5","","-4.1","","77","","31","","30","","24.1","","99.57","","","","-7","","Mainly Clear"
"2010-02-19 21:00","2010","02","19","21:00","-0.5","","-3.9","","78","","30","","22","","24.1","","99.61","","","","-6","","Mostly Cloudy"
"2010-02-19 22:00","2010","02","19","22:00","-1.8","","-4.5","","82","","28","","13","","24.1","","99.63","","","","-6","","Mostly Cloudy"
"2010-02-19 23:00","2010","02","19","23:00","-0.7","","-3.8","","79","","29","","13","","24.1","","99.63","","","","-5","","Mostly Cloudy"
"2010-02-20 00:00","2010","02","20","00:00","-0.8","","-3.9","","79","","28","","17","","24.1","","99.62","","","","-6","","Mainly Clear"
"2010-02-20 01:00","2010","02","20","01:00","-1.0","","-4.1","","79","","29","","15","","24.1","","99.64","","","","-6","","Mainly Clear"
"2010-02-20 02:00","2010","02","20","02:00","-2.4","","-5.0","","82","","25","","9","","24.1","","99.66","","","","-6","","Clear"
"2010-02-20 03:00","2010","02","20","03:00","-3.8","","-5.6","","87","","25","","15","","24.1","","99.65","","","","-9","","Clear"
"2010-02-20 04:00","2010","02","20","04:00","-3.5","","-5.3","","87","","26","","6","","24.1","","99.66","","","","-6","","Clear"
"2010-02-20 05:00","2010","02","20","05:00","-5.2","","-6.7","","89","","27","","13","","24.1","","99.68","","","","-10","","Clear"
"2010-02-20 06:00","2010","02","20","06:00","-4.5","","-6.1","","89","","27","","7","","24.1","","99.71","","","","-8","","Mainly Clear"
"2010-02-20 07:00","2010","02","20","07:00","-3.6","","-5.3","","88","","23","","7","","24.1","","99.77","","","","-7","","Mostly Cloudy"
"2010-02-20 08:00","2010","02","20","08:00","-2.2","","-3.9","","88","","26","","13","","24.1","","99.79","","","","-7","","Cloudy"
"2010-02-20 09:00","2010","02","20","09:00","-0.7","","-3.0","","84","","27","","15","","24.1","","99.79","","","","-5","","Mostly Cloudy"
"2010-02-20 10:00","2010","02","20","10:00","0.9","","-3.0","","75","","30","","19","","24.1","","99.78","","","","","","Mostly Cloudy"
"2010-02-20 11:00","2010","02","20","11:00","1.8","","-3.7","","67","","30","","13","","24.1","","99.78","","","","","","Mostly Cloudy"
"2010-02-20 12:00","2010","02","20","12:00","3.1","","-3.2","","63","","28","","22","","24.1","","99.75","","","","","","Cloudy"
"2010-02-20 13:00","2010","02","20","13:00","3.3","","-3.1","","63","","29","","20","","24.1","","99.70","","","","","","Cloudy"
"2010-02-20 14:00","2010","02","20","14:00","3.9","","-3.0","","61","","28","","19","","24.1","","99.67","","","","","","Mostly Cloudy"
"2010-02-20 15:00","2010","02","20","15:00","3.8","","-2.9","","62","","30","","24","","24.1","","99.65","","","","","","Mostly Cloudy"
"2010-02-20 16:00","2010","02","20","16:00","3.6","","-3.4","","60","","30","","24","","24.1","","99.67","","","","","","Mostly Cloudy"
"2010-02-20 17:00","2010","02","20","17:00","2.8","","-3.7","","62","","29","","24","","24.1","","99.68","","","","","","Mainly Clear"
"2010-02-20 18:00","2010","02","20","18:00","0.9","","-4.0","","70","","28","","20","","24.1","","99.71","","","","","","Clear"
"2010-02-20 19:00","2010","02","20","19:00","0.1","","-4.0","","74","","29","","22","","24.1","","99.73","","","","","","Clear"
"2010-02-20 20:00","2010","02","20","20:00","-0.7","","-4.3","","77","","30","","15","","24.1","","99.75","","","","-5","","Clear"
"2010-02-20 21:00","2010","02","20","21:00","-1.4","","-4.4","","80","","29","","17","","24.1","","99.76","","","","-7","","Clear"
"2010-02-20 22:00","2010","02","20","22:00","-1.9","","-4.8","","81","","29","","15","","24.1","","99.76","","","","-7","","Clear"
"2010-02-20 23:00","2010","02","20","23:00","-2.1","","-5.1","","80","","30","","19","","24.1","","99.74","","","","-8","","Clear"
"2010-02-21 00:00","2010","02","21","00:00","-2.8","","-6.1","","78","","31","","19","","24.1","","99.71","","","","-9","","Clear"
"2010-02-21 01:00","2010","02","21","01:00","-3.3","","-5.9","","82","","28","","15","","24.1","","99.74","","","","-8","","Clear"
"2010-02-21 02:00","2010","02","21","02:00","-2.9","","-5.5","","82","","30","","19","","24.1","","99.73","","","","-9","","Clear"
"2010-02-21 03:00","2010","02","21","03:00","-3.4","","-5.8","","83","","32","","24","","24.1","","99.73","","","","-10","","Clear"
"2010-02-21 04:00","2010","02","21","04:00","-3.6","","-6.7","","79","","33","","17","","24.1","","99.76","","","","-9","","Mainly Clear"
"2010-02-21 05:00","2010","02","21","05:00","-4.5","","-6.8","","84","","31","","17","","24.1","","99.78","","","","-10","","Mainly Clear"
"2010-02-21 06:00","2010","02","21","06:00","-4.7","","-7.5","","81","","31","","17","","24.1","","99.81","","","","-11","","Mainly Clear"
"2010-02-21 07:00","2010","02","21","07:00","-4.7","","-7.6","","80","","28","","13","","24.1","","99.82","","","","-10","","Clear"
"2010-02-21 08:00","2010","02","21","08:00","-4.1","","-6.8","","81","","28","","11","","24.1","","99.81","","","","-9","","Clear"
"2010-02-21 09:00","2010","02","21","09:00","-2.3","","-6.6","","72","","32","","17","","24.1","","99.81","","","","-8","","Clear"
"2010-02-21 10:00","2010","02","21","10:00","-0.5","","-6.4","","64","","32","","22","","24.1","","99.81","","","","-6","","Clear"
"2010-02-21 11:00","2010","02","21","11:00","0.2","","-7.4","","57","","34","","19","","24.1","","99.80","","","","","","Clear"
"2010-02-21 12:00","2010","02","21","12:00","2.4","","-7.6","","48","","31","","13","","24.1","","99.79","","","","","","Clear"
"2010-02-21 13:00","2010","02","21","13:00","3.6","","-8.5","","41","","36","","11","","24.1","","99.70","","","","","","Clear"
"2010-02-21 14:00","2010","02","21","14:00","4.3","","-8.6","","38","","34","","7","","24.1","","99.63","","","","","","Clear"
"2010-02-21 15:00","2010","02","21","15:00","3.8","","-6.8","","46","","4","","6","","24.1","","99.62","","","","","","Clear"
"2010-02-21 16:00","2010","02","21","16:00","3.6","","-6.4","","48","","4","","13","","24.1","","99.60","","","","","","Clear"
"2010-02-21 17:00","2010","02","21","17:00","2.4","","-6.1","","53","","1","","13","","24.1","","99.62","","","","","","Clear"
"2010-02-21 18:00","2010","02","21","18:00","0.2","","-6.3","","62","","36","","15","","24.1","","99.66","","","","","","Mainly Clear"
"2010-02-21 19:00","2010","02","21","19:00","-1.0","","-6.1","","68","","2","","17","","24.1","","99.69","","","","-6","","Mainly Clear"
"2010-02-21 20:00","2010","02","21","20:00","-1.9","","-5.7","","75","","36","","13","","24.1","","99.65","","","","-6","","Mainly Clear"
"2010-02-21 21:00","2010","02","21","21:00","-2.9","","-6.2","","78","","2","","19","","24.1","","99.69","","","","-9","","Mainly Clear"
"2010-02-21 22:00","2010","02","21","22:00","-3.4","","-6.4","","80","","36","","24","","24.1","","99.67","","","","-10","","Mainly Clear"
"2010-02-21 23:00","2010","02","21","23:00","-3.9","","-6.5","","82","","36","","20","","24.1","","99.64","","","","-10","","Mainly Clear"
"2010-02-22 00:00","2010","02","22","00:00","-4.5","","-6.8","","84","","1","","15","","24.1","","99.62","","","","-10","","Mainly Clear"
"2010-02-22 01:00","2010","02","22","01:00","-4.6","","-6.8","","85","","36","","15","","24.1","","99.60","","","","-10","","Mainly Clear"
"2010-02-22 02:00","2010","02","22","02:00","-4.6","","-6.8","","85","","36","","7","","24.1","","99.56","","","","-8","","Mainly Clear"
"2010-02-22 03:00","2010","02","22","03:00","-4.9","","-7.1","","85","","36","","9","","24.1","","99.51","","","","-9","","Mostly Cloudy"
"2010-02-22 04:00","2010","02","22","04:00","-4.9","","-7.3","","83","","2","","4","","24.1","","99.47","","","","-7","","Mostly Cloudy"
"2010-02-22 05:00","2010","02","22","05:00","-4.9","","-7.6","","81","","4","","7","","24.1","","99.42","","","","-8","","Mostly Cloudy"
"2010-02-22 06:00","2010","02","22","06:00","-4.2","","-7.2","","80","","4","","9","","24.1","","99.40","","","","-8","","Mostly Cloudy"
"2010-02-22 07:00","2010","02","22","07:00","-2.9","","-5.8","","80","","6","","13","","24.1","","99.31","","","","-8","","Cloudy"
"2010-02-22 08:00","2010","02","22","08:00","-2.5","","-5.4","","80","","6","","15","","24.1","","99.29","","","","-7","","Cloudy"
"2010-02-22 09:00","2010","02","22","09:00","-2.0","","-4.7","","82","","9","","20","","24.1","","99.21","","","","-8","","Cloudy"
"2010-02-22 10:00","2010","02","22","10:00","-1.0","","-3.4","","84","","9","","13","","24.1","","99.16","","","","-5","","Cloudy"
"2010-02-22 11:00","2010","02","22","11:00","-0.3","","-3.3","","80","","9","","20","","24.1","","99.09","","","","-6","","Cloudy"
"2010-02-22 12:00","2010","02","22","12:00","-0.5","","-3.3","","81","","9","","26","","24.1","","98.99","","","","-7","","Cloudy"
"2010-02-22 13:00","2010","02","22","13:00","0.1","","-2.5","","83","","9","","13","","8.0","","98.87","","","","","","Snow"
"2010-02-22 14:00","2010","02","22","14:00","-0.7","","-2.2","","90","","9","","22","","2.4","","98.76","","","","-6","","Snow"
"2010-02-22 15:00","2010","02","22","15:00","-1.1","","-2.0","","94","","8","","26","","1.6","","98.66","","","","-7","","Snow"
"2010-02-22 16:00","2010","02","22","16:00","-1.5","","-2.2","","95","","8","","24","","0.8","","98.61","","","","-8","","Moderate Snow"
"2010-02-22 17:00","2010","02","22","17:00","-1.6","","-2.1","","96","","8","","22","","0.8","","98.59","","","","-8","","Moderate Snow"
"2010-02-22 18:00","2010","02","22","18:00","-1.4","","-2.0","","96","","9","","22","","2.4","","98.56","","","","-7","","Snow"
"2010-02-22 19:00","2010","02","22","19:00","-1.1","","-1.6","","96","","9","","22","","2.4","","98.55","","","","-7","","Snow"
"2010-02-22 20:00","2010","02","22","20:00","-0.7","","-1.2","","96","","9","","19","","2.4","","98.51","","","","-6","","Snow"
"2010-02-22 21:00","2010","02","22","21:00","-0.4","","-0.7","","98","","9","","19","","2.8","","98.47","","","","-6","","Snow"
"2010-02-22 22:00","2010","02","22","22:00","0.2","","-0.1","","98","","10","","17","","9.7","","98.45","","","","","","Snow"
"2010-02-22 23:00","2010","02","22","23:00","0.3","","0.1","","99","","10","","13","","9.7","","98.40","","","","","","Snow"
"2010-02-23 00:00","2010","02","23","00:00","0.6","","0.3","","98","","10","","11","","6.4","","98.35","","","","","","Snow,Fog"
"2010-02-23 01:00","2010","02","23","01:00","0.6","","0.4","","99","","11","","9","","6.4","","98.34","","","","","","Snow,Fog"
"2010-02-23 02:00","2010","02","23","02:00","0.6","","0.6","","100","","","","0","","6.4","","98.36","","","","","","Snow,Fog"
"2010-02-23 03:00","2010","02","23","03:00","-0.1","","-0.1","","100","","36","","6","","6.4","","98.33","","","","-2","","Freezing Rain,Fog"
"2010-02-23 04:00","2010","02","23","04:00","-1.5","","-2.0","","96","","33","","13","","6.4","","98.36","","","","-6","","Freezing Rain,Fog"
"2010-02-23 05:00","2010","02","23","05:00","-1.8","","-2.7","","94","","34","","17","","6.4","","98.37","","","","-7","","Fog"
"2010-02-23 06:00","2010","02","23","06:00","-1.8","","-2.5","","95","","32","","19","","9.7","","98.42","","","","-7","","Fog"
"2010-02-23 07:00","2010","02","23","07:00","-1.9","","-2.7","","94","","32","","9","","9.7","","98.45","","","","-5","","Snow"
"2010-02-23 08:00","2010","02","23","08:00","-1.8","","-2.7","","94","","32","","9","","8.0","","98.53","","","","-5","","Fog"
"2010-02-23 09:00","2010","02","23","09:00","-1.4","","-2.5","","92","","32","","9","","6.4","","98.58","","","","-5","","Snow Showers"
"2010-02-23 10:00","2010","02","23","10:00","-1.1","","-1.9","","94","","30","","6","","6.4","","98.63","","","","-3","","Snow Grains,Fog"
"2010-02-23 11:00","2010","02","23","11:00","-0.7","","-1.4","","95","","27","","4","","6.4","","98.68","","","","-2","","Snow Grains,Fog"
"2010-02-23 12:00","2010","02","23","12:00","-0.7","","-1.8","","92","","28","","9","","6.4","","98.72","","","","-4","","Snow Grains,Fog"
"2010-02-23 13:00","2010","02","23","13:00","-0.6","","-1.8","","92","","27","","13","","9.7","","98.74","","","","-5","","Snow Grains,Fog"
"2010-02-23 14:00","2010","02","23","14:00","-0.4","","-1.8","","90","","28","","13","","12.9","","98.75","","","","-5","","Cloudy"
"2010-02-23 15:00","2010","02","23","15:00","0.3","","-2.5","","81","","27","","15","","24.1","","98.75","","","","","","Cloudy"
"2010-02-23 16:00","2010","02","23","16:00","0.3","","-2.7","","80","","28","","13","","19.3","","98.78","","","","","","Snow"
"2010-02-23 17:00","2010","02","23","17:00","0.4","","-2.7","","80","","27","","11","","16.1","","98.81","","","","","","Snow"
"2010-02-23 18:00","2010","02","23","18:00","-0.2","","-1.8","","89","","27","","9","","8.0","","98.92","","","","-3","","Snow"
"2010-02-23 19:00","2010","02","23","19:00","-0.6","","-1.7","","92","","29","","6","","8.0","","99.01","","","","-3","","Snow"
"2010-02-23 20:00","2010","02","23","20:00","-1.3","","-1.9","","96","","27","","4","","9.7","","99.04","","","","-3","","Snow"
"2010-02-23 21:00","2010","02","23","21:00","-0.8","","-1.9","","92","","28","","7","","16.1","","99.05","","","","-3","","Snow"
"2010-02-23 22:00","2010","02","23","22:00","-0.8","","-1.8","","93","","26","","11","","16.1","","99.05","","","","-5","","Snow"
"2010-02-23 23:00","2010","02","23","23:00","-1.2","","-3.7","","83","","27","","13","","19.3","","99.06","","","","-5","","Mostly Cloudy"
"2010-02-24 00:00","2010","02","24","00:00","-1.9","","-4.0","","86","","30","","6","","19.3","","99.08","","","","-4","","Mostly Cloudy"
"2010-02-24 01:00","2010","02","24","01:00","-3.7","","-6.0","","84","","31","","11","","24.1","","99.09","","","","-8","","Mostly Cloudy"
"2010-02-24 02:00","2010","02","24","02:00","-4.4","","-6.5","","85","","32","","9","","24.1","","99.12","","","","-8","","Mainly Clear"
"2010-02-24 03:00","2010","02","24","03:00","-4.5","","-6.3","","87","","32","","4","","24.1","","99.11","","","","-6","","Mostly Cloudy"
"2010-02-24 04:00","2010","02","24","04:00","-3.7","","-6.1","","83","","32","","7","","24.1","","99.12","","","","-7","","Mostly Cloudy"
"2010-02-24 05:00","2010","02","24","05:00","-3.8","","-5.7","","87","","27","","6","","24.1","","99.17","","","","-6","","Cloudy"
"2010-02-24 06:00","2010","02","24","06:00","-3.5","","-5.4","","87","","","","0","","24.1","","99.16","","","","","","Cloudy"
"2010-02-24 07:00","2010","02","24","07:00","-3.4","","-5.7","","84","","27","","4","","24.1","","99.18","","","","-5","","Cloudy"
"2010-02-24 08:00","2010","02","24","08:00","-2.4","","-5.8","","77","","","","0","","24.1","","99.20","","","","","","Mostly Cloudy"
"2010-02-24 09:00","2010","02","24","09:00","-1.5","","-6.0","","71","","","","0","","24.1","","99.21","","","","","","Mostly Cloudy"
"2010-02-24 10:00","2010","02","24","10:00","-0.9","","-6.0","","68","","21","","4","","24.1","","99.24","","","","-2","","Mostly Cloudy"
"2010-02-24 11:00","2010","02","24","11:00","-0.2","","-6.4","","63","","","","0","","24.1","","99.23","","","","","","Mostly Cloudy"
"2010-02-24 12:00","2010","02","24","12:00","0.5","","-5.3","","65","","32","","6","","24.1","","99.20","","","","","","Mostly Cloudy"
"2010-02-24 13:00","2010","02","24","13:00","-0.3","","-5.7","","67","","32","","6","","24.1","","99.15","","","","-2","","Mostly Cloudy"
"2010-02-24 14:00","2010","02","24","14:00","0.3","","-6.5","","60","","31","","6","","24.1","","99.10","","","","","","Mostly Cloudy"
"2010-02-24 15:00","2010","02","24","15:00","0.5","","-6.4","","60","","10","","4","","24.1","","99.08","","","","","","Mostly Cloudy"
"2010-02-24 16:00","2010","02","24","16:00","0.2","","-5.4","","66","","16","","6","","24.1","","99.08","","","","","","Snow Showers"
"2010-02-24 17:00","2010","02","24","17:00","0.2","","-5.4","","66","","","","0","","24.1","","99.08","","","","","","Snow Showers"
"2010-02-24 18:00","2010","02","24","18:00","-0.8","","-3.2","","84","","6","","4","","16.1","","99.10","","","","-2","","Snow Showers"
"2010-02-24 19:00","2010","02","24","19:00","-0.5","","-3.5","","80","","7","","6","","19.3","","99.08","","","","-3","","Snow Showers"
"2010-02-24 20:00","2010","02","24","20:00","-1.0","","-4.5","","77","","2","","11","","19.3","","99.04","","","","-5","","Snow Showers"
"2010-02-24 21:00","2010","02","24","21:00","-1.9","","-4.7","","81","","36","","9","","24.1","","99.01","","","","-5","","Mostly Cloudy"
"2010-02-24 22:00","2010","02","24","22:00","-2.1","","-4.2","","86","","34","","11","","24.1","","99.00","","","","-6","","Mostly Cloudy"
"2010-02-24 23:00","2010","02","24","23:00","-2.4","","-4.0","","89","","36","","11","","19.3","","98.96","","","","-6","","Snow Showers"
"2010-02-25 00:00","2010","02","25","00:00","-2.9","","-4.3","","90","","33","","13","","24.1","","98.93","","","","-8","","Mostly Cloudy"
"2010-02-25 01:00","2010","02","25","01:00","-3.3","","-4.8","","89","","31","","15","","24.1","","98.87","","","","-8","","Mostly Cloudy"
"2010-02-25 02:00","2010","02","25","02:00","-3.4","","-4.8","","90","","32","","17","","24.1","","98.82","","","","-9","","Mostly Cloudy"
"2010-02-25 03:00","2010","02","25","03:00","-3.4","","-4.6","","91","","32","","13","","24.1","","98.77","","","","-8","","Mostly Cloudy"
"2010-02-25 04:00","2010","02","25","04:00","-2.6","","-3.8","","91","","34","","26","","19.3","","98.74","","","","-9","","Snow Showers"
"2010-02-25 05:00","2010","02","25","05:00","-4.0","","-6.6","","82","","34","","32","","14.5","","98.74","","","","-12","","Snow"
"2010-02-25 06:00","2010","02","25","06:00","-5.2","","-7.7","","83","","34","","28","","9.7","","98.71","","","","-13","","Snow"
"2010-02-25 07:00","2010","02","25","07:00","-6.1","","-8.8","","81","","34","","32","","16.1","","98.69","","","","-15","","Snow"
"2010-02-25 08:00","2010","02","25","08:00","-6.7","","-9.1","","83","","34","","24","","14.5","","98.68","","","","-14","","Snow"
"2010-02-25 09:00","2010","02","25","09:00","-7.1","","-9.8","","81","","34","","33","","8.0","","98.65","","","","-16","","Snow"
"2010-02-25 10:00","2010","02","25","10:00","-7.0","","-9.6","","82","","34","","37","","4.8","","98.62","","","","-16","","Snow"
"2010-02-25 11:00","2010","02","25","11:00","-6.8","","-9.4","","82","","33","","37","","2.4","","98.56","","","","-16","","Snow"
"2010-02-25 12:00","2010","02","25","12:00","-6.3","","-9.3","","79","","34","","32","","8.0","","98.50","","","","-15","","Snow"
"2010-02-25 13:00","2010","02","25","13:00","-6.3","","-9.0","","81","","35","","28","","6.4","","98.45","","","","-14","","Snow"
"2010-02-25 14:00","2010","02","25","14:00","-6.1","","-9.0","","80","","34","","33","","4.8","","98.42","","","","-15","","Snow"
"2010-02-25 15:00","2010","02","25","15:00","-5.8","","-8.7","","80","","34","","24","","6.4","","98.39","","","","-13","","Snow"
"2010-02-25 16:00","2010","02","25","16:00","-6.3","","-9.0","","81","","34","","26","","9.7","","98.37","","","","-14","","Snow"
"2010-02-25 17:00","2010","02","25","17:00","-6.9","","-9.1","","84","","35","","28","","3.2","","98.36","","","","-15","","Snow"
"2010-02-25 18:00","2010","02","25","18:00","-7.1","","-9.6","","82","","34","","22","","4.0","","98.35","","","","-15","","Snow"
"2010-02-25 19:00","2010","02","25","19:00","-7.3","","-10.4","","78","","34","","41","","4.8","","98.36","","","","-17","","Snow"
"2010-02-25 20:00","2010","02","25","20:00","-7.1","","-9.6","","82","","34","","33","","4.0","","98.30","","","","-16","","Snow"
"2010-02-25 21:00","2010","02","25","21:00","-7.1","","-9.5","","83","","34","","41","","4.0","","98.24","","","","-17","","Snow"
"2010-02-25 22:00","2010","02","25","22:00","-6.8","","-9.0","","84","","34","","39","","3.2","","98.16","","","","-16","","Snow"
"2010-02-25 23:00","2010","02","25","23:00","-6.6","","-9.0","","83","","34","","41","","4.8","","98.11","","","","-16","","Snow"
"2010-02-26 00:00","2010","02","26","00:00","-6.4","","-8.9","","82","","34","","46","","6.4","","98.00","","","","-17","","Snow"
"2010-02-26 01:00","2010","02","26","01:00","-6.2","","-9.0","","81","","34","","46","","11.3","","97.87","","","","-16","","Snow"
"2010-02-26 02:00","2010","02","26","02:00","-6.2","","-9.3","","79","","34","","48","","16.1","","97.78","","","","-16","","Snow"
"2010-02-26 03:00","2010","02","26","03:00","-6.2","","-9.2","","79","","34","","46","","16.1","","97.68","","","","-16","","Snow"
"2010-02-26 04:00","2010","02","26","04:00","-6.1","","-8.8","","81","","34","","57","","16.1","","97.56","","","","-17","","Snow"
"2010-02-26 05:00","2010","02","26","05:00","-6.2","","-8.5","","84","","34","","50","","4.8","","97.59","","","","-17","","Snow"
"2010-02-26 06:00","2010","02","26","06:00","-6.3","","-7.8","","89","","34","","41","","1.2","","97.60","","","","-16","","Snow"
"2010-02-26 07:00","2010","02","26","07:00","-6.1","","-7.3","","91","","34","","43","","0.8","","97.58","","","","-16","","Moderate Snow"
"2010-02-26 08:00","2010","02","26","08:00","-5.5","","-7.8","","84","","34","","41","","4.8","","97.61","","","","-15","","Snow"
"2010-02-26 09:00","2010","02","26","09:00","-5.1","","-7.6","","83","","33","","41","","9.7","","97.60","","","","-14","","Snow"
"2010-02-26 10:00","2010","02","26","10:00","-4.5","","-6.8","","84","","33","","41","","9.7","","97.62","","","","-14","","Snow"
"2010-02-26 11:00","2010","02","26","11:00","-3.9","","-6.7","","81","","34","","33","","6.4","","97.67","","","","-12","","Snow"
"2010-02-26 12:00","2010","02","26","12:00","-3.8","","-5.3","","89","","34","","30","","1.6","","97.73","","","","-11","","Snow"
"2010-02-26 13:00","2010","02","26","13:00","-3.2","","-4.5","","91","","34","","33","","2.8","","97.69","","","","-11","","Snow"
"2010-02-26 14:00","2010","02","26","14:00","-2.3","","-3.4","","92","","34","","26","","1.2","","97.70","","","","-9","","Snow"
"2010-02-26 15:00","2010","02","26","15:00","-1.8","","-3.0","","91","","35","","30","","3.2","","97.73","","","","-9","","Snow"
"2010-02-26 16:00","2010","02","26","16:00","-1.7","","-2.4","","95","","35","","26","","3.2","","97.79","","","","-8","","Snow"
"2010-02-26 17:00","2010","02","26","17:00","-0.8","","-2.1","","91","","36","","20","","16.1","","97.86","","","","-6","","Snow"
"2010-02-26 18:00","2010","02","26","18:00","-0.2","","-1.9","","88","","35","","17","","24.1","","97.97","","","","-5","","Mostly Cloudy"
"2010-02-26 19:00","2010","02","26","19:00","-0.9","","-2.3","","90","","35","","20","","24.1","","98.05","","","","-6","","Mostly Cloudy"
"2010-02-26 20:00","2010","02","26","20:00","-0.3","","-1.2","","94","","","","0","","16.1","","98.12","","","","","","Snow"
"2010-02-26 21:00","2010","02","26","21:00","-2.1","","-3.2","","92","","32","","13","","24.1","","98.13","","","","-7","","Mainly Clear"
"2010-02-26 22:00","2010","02","26","22:00","-0.7","","-2.1","","90","","34","","17","","24.1","","98.12","","","","-6","","Mainly Clear"
"2010-02-26 23:00","2010","02","26","23:00","-0.8","","-2.5","","88","","35","","20","","24.1","","98.13","","","","-6","","Mostly Cloudy"
"2010-02-27 00:00","2010","02","27","00:00","-0.9","","-2.7","","88","","35","","19","","24.1","","98.15","","","","-6","","Mostly Cloudy"
"2010-02-27 01:00","2010","02","27","01:00","-0.7","","-2.3","","89","","36","","19","","24.1","","98.16","","","","-6","","Mostly Cloudy"
"2010-02-27 02:00","2010","02","27","02:00","0.2","","-1.3","","90","","35","","20","","24.1","","98.13","","","","","","Mostly Cloudy"
"2010-02-27 03:00","2010","02","27","03:00","0.1","","-1.4","","90","","35","","20","","24.1","","98.13","","","","","","Mostly Cloudy"
"2010-02-27 04:00","2010","02","27","04:00","0.1","","-0.8","","94","","34","","19","","9.7","","98.08","","","","","","Snow Showers"
"2010-02-27 05:00","2010","02","27","05:00","-0.2","","-0.7","","96","","32","","17","","16.1","","98.02","","","","-5","","Snow Showers"
"2010-02-27 06:00","2010","02","27","06:00","0.6","","-0.4","","93","","32","","17","","19.3","","98.01","","","","","","Mostly Cloudy"
"2010-02-27 07:00","2010","02","27","07:00","1.2","","-0.2","","90","","33","","20","","24.1","","97.98","","","","","","Cloudy"
"2010-02-27 08:00","2010","02","27","08:00","0.9","","-0.1","","93","","33","","26","","4.0","","97.93","","","","","","Snow"
"2010-02-27 09:00","2010","02","27","09:00","0.7","","-0.2","","94","","32","","26","","3.2","","97.93","","","","","","Snow"
"2010-02-27 10:00","2010","02","27","10:00","0.3","","-0.2","","96","","31","","30","","2.4","","97.90","","","","","","Snow"
"2010-02-27 11:00","2010","02","27","11:00","-0.1","","-0.3","","99","","32","","28","","1.6","","97.89","","","","-6","","Snow"
"2010-02-27 12:00","2010","02","27","12:00","0.2","","-0.3","","96","","33","","33","","4.8","","97.88","","","","","","Snow"
"2010-02-27 13:00","2010","02","27","13:00","0.3","","-1.0","","91","","35","","30","","16.1","","97.88","","","","","","Snow"
"2010-02-27 14:00","2010","02","27","14:00","1.2","","-0.6","","88","","35","","24","","19.3","","97.89","","","","","","Snow"
"2010-02-27 15:00","2010","02","27","15:00","1.6","","0.1","","90","","34","","26","","24.1","","97.90","","","","","","Cloudy"
"2010-02-27 16:00","2010","02","27","16:00","1.9","","0.1","","88","","34","","28","","24.1","","97.94","","","","","","Cloudy"
"2010-02-27 17:00","2010","02","27","17:00","2.0","","0.1","","87","","35","","17","","24.1","","97.99","","","","","","Mostly Cloudy"
"2010-02-27 18:00","2010","02","27","18:00","1.9","","0.4","","90","","35","","19","","24.1","","98.06","","","","","","Mostly Cloudy"
"2010-02-27 19:00","2010","02","27","19:00","1.7","","0.5","","92","","35","","26","","24.1","","98.11","","","","","","Mostly Cloudy"
"2010-02-27 20:00","2010","02","27","20:00","1.4","","0.5","","94","","35","","19","","8.0","","98.18","","","","","","Rain Showers,Snow Showers,Fog"
"2010-02-27 21:00","2010","02","27","21:00","1.4","","0.6","","94","","36","","15","","19.3","","98.22","","","","","","Mostly Cloudy"
"2010-02-27 22:00","2010","02","27","22:00","1.3","","-0.2","","90","","1","","19","","24.1","","98.24","","","","","","Mainly Clear"
"2010-02-27 23:00","2010","02","27","23:00","1.3","","0.0","","91","","33","","17","","24.1","","98.23","","","","","","Mostly Cloudy"
"2010-02-28 00:00","2010","02","28","00:00","0.5","","0.2","","98","","2","","9","","9.7","","98.28","","","","","","Snow Showers"
"2010-02-28 01:00","2010","02","28","01:00","0.6","","-0.3","","94","","36","","17","","16.1","","98.32","","","","","","Snow Showers"
"2010-02-28 02:00","2010","02","28","02:00","0.4","","-0.6","","93","","36","","11","","24.1","","98.33","","","","","","Mostly Cloudy"
"2010-02-28 03:00","2010","02","28","03:00","0.9","","-0.4","","91","","34","","20","","24.1","","98.32","","","","","","Cloudy"
"2010-02-28 04:00","2010","02","28","04:00","0.9","","-0.6","","90","","35","","22","","24.1","","98.35","","","","","","Cloudy"
"2010-02-28 05:00","2010","02","28","05:00","1.0","","-0.6","","89","","34","","22","","24.1","","98.37","","","","","","Cloudy"
"2010-02-28 06:00","2010","02","28","06:00","1.0","","-0.8","","88","","35","","20","","24.1","","98.43","","","","","","Snow Showers"
"2010-02-28 07:00","2010","02","28","07:00","0.9","","-0.9","","88","","34","","24","","24.1","","98.50","","","","","","Mostly Cloudy"
"2010-02-28 08:00","2010","02","28","08:00","0.9","","-1.0","","87","","34","","22","","24.1","","98.59","","","","","","Cloudy"
"2010-02-28 09:00","2010","02","28","09:00","1.1","","-0.9","","86","","34","","20","","24.1","","98.67","","","","","","Cloudy"
"2010-02-28 10:00","2010","02","28","10:00","1.0","","-1.0","","86","","34","","22","","16.1","","98.74","","","","","","Snow Showers"
"2010-02-28 11:00","2010","02","28","11:00","1.4","","-0.9","","85","","35","","24","","24.1","","98.77","","","","","","Mostly Cloudy"
"2010-02-28 12:00","2010","02","28","12:00","2.0","","-0.8","","82","","36","","24","","24.1","","98.79","","","","","","Mostly Cloudy"
"2010-02-28 13:00","2010","02","28","13:00","2.7","","-0.6","","79","","35","","26","","24.1","","98.75","","","","","","Mostly Cloudy"
"2010-02-28 14:00","2010","02","28","14:00","2.7","","-0.8","","78","","36","","19","","24.1","","98.74","","","","","","Mostly Cloudy"
"2010-02-28 15:00","2010","02","28","15:00","2.9","","-0.9","","76","","34","","19","","24.1","","98.75","","","","","","Mostly Cloudy"
"2010-02-28 16:00","2010","02","28","16:00","2.5","","-0.7","","79","","36","","24","","24.1","","98.79","","","","","","Mostly Cloudy"
"2010-02-28 17:00","2010","02","28","17:00","1.9","","-1.6","","78","","1","","24","","24.1","","98.84","","","","","","Cloudy"
"2010-02-28 18:00","2010","02","28","18:00","1.4","","-0.9","","85","","34","","22","","19.3","","98.93","","","","","","Snow Showers"
"2010-02-28 19:00","2010","02","28","19:00","0.9","","-0.9","","88","","35","","19","","19.3","","99.00","","","","","","Snow Showers"
"2010-02-28 20:00","2010","02","28","20:00","0.9","","-1.4","","85","","33","","22","","24.1","","99.01","","","","","","Mostly Cloudy"
"2010-02-28 21:00","2010","02","28","21:00","0.9","","-1.1","","86","","32","","24","","24.1","","99.03","","","","","","Mostly Cloudy"
"2010-02-28 22:00","2010","02","28","22:00","1.3","","-1.1","","84","","33","","22","","24.1","","99.06","","","","","","Mostly Cloudy"
"2010-02-28 23:00","2010","02","28","23:00","1.4","","-1.4","","82","","34","","24","","24.1","","99.06","","","","","","Mostly Cloudy"
