"Station Name","TORONTO LESTER B. PEARSON INT'L A"
"Province","ONTARIO"
"Latitude","43.68"
"Longitude","-79.63"
"Elevation","173.40"
"Climate Identifier","6158733"
"WMO Identifier","71624"
"TC Identifier","YYZ"
"All times are specified in Local Standard Time (LST). Add 1 hour to adjust for Daylight Saving Time where and when it is observed."

"Legend"
"E","Estimated"
"M","Missing"
"NA","Not Available"

"Date/Time","Year","Month","Day","Time","Temp (°C)","Temp Flag","Dew Point Temp (°C)","Dew Point Temp Flag","Rel Hum (%)","Rel Hum Flag","Wind Dir (10s deg)","Wind Dir Flag","Wind Spd (km/h)","Wind Spd Flag","Visibility (km)","Visibility Flag","Stn Press (kPa)","Stn Press Flag","Hmdx","Hmdx Flag","Wind Chill","Wind Chill Flag","Weather"
"1960-11-01 00:00","1960","11","01","00:00","10.6","","10.0","","96","","16","","26","","12.9","","97.95","","","","","","Cloudy"
"1960-11-01 01:00","1960","11","01","01:00","10.6","","10.0","","96","","16","","24","","19.3","","97.84","","","","","","Cloudy"
"1960-11-01 02:00","1960","11","01","02:00","10.6","","10.0","","96","","16","","29","","19.3","","97.78","","","","","","Cloudy"
"1960-11-01 03:00","1960","11","01","03:00","10.6","","9.4","","94","","16","","24","","19.3","","97.68","","","","","","Rain Showers"
"1960-11-01 04:00","1960","11","01","04:00","9.4","","8.3","","94","","20","","29","","24.1","","97.70","","","","","","Cloudy"
"1960-11-01 05:00","1960","11","01","05:00","8.9","","7.8","","92","","20","","19","","24.1","","97.68","","","","","","Cloudy"
"1960-11-01 06:00","1960","11","01","06:00","8.9","","6.7","","86","","18","","29","","24.1","","97.66","","","","","","Mostly Cloudy"
"1960-11-01 07:00","1960","11","01","07:00","8.9","","6.7","","86","","20","","26","","24.1","","97.63","","","","","","Cloudy"
"1960-11-01 08:00","1960","11","01","08:00","8.9","","6.1","","82","","18","","29","","24.1","","97.64","","","","","","Cloudy"
"1960-11-01 09:00","1960","11","01","09:00","10.0","","6.1","","77","","18","","31","","19.3","","97.63","","","","","","Cloudy"
"1960-11-01 10:00","1960","11","01","10:00","10.0","","5.6","","73","","18","","35","","19.3","","97.64","","","","","","Rain Showers"
"1960-11-01 11:00","1960","11","01","11:00","9.4","","6.1","","80","","18","","35","","6.4","","97.64","","","","","","Drizzle"
"1960-11-01 12:00","1960","11","01","12:00","8.9","","6.7","","86","","18","","32","","6.4","","97.61","","","","","","Rain Showers,Drizzle"
"1960-11-01 13:00","1960","11","01","13:00","8.9","","7.2","","88","","18","","29","","4.8","","97.55","","","","","","Drizzle,Fog"
"1960-11-01 14:00","1960","11","01","14:00","8.3","","7.2","","92","","18","","19","","4.0","","97.51","","","","","","Drizzle,Fog"
"1960-11-01 15:00","1960","11","01","15:00","8.9","","7.2","","88","","20","","31","","6.4","","97.51","","","","","","Drizzle,Fog"
"1960-11-01 16:00","1960","11","01","16:00","8.9","","7.2","","90","","20","","14","","4.8","","97.53","","","","","","Drizzle,Fog"
"1960-11-01 17:00","1960","11","01","17:00","8.3","","7.2","","92","","20","","16","","4.8","","97.54","","","","","","Rain Showers,Drizzle,Fog"
"1960-11-01 18:00","1960","11","01","18:00","8.3","","7.2","","92","","25","","13","","4.8","","97.57","","","","","","Rain Showers,Fog"
"1960-11-01 19:00","1960","11","01","19:00","8.3","","6.7","","90","","20","","24","","12.9","","97.56","","","","","","Rain Showers"
"1960-11-01 20:00","1960","11","01","20:00","7.8","","6.1","","89","","20","","24","","24.1","","97.59","","","","","","Cloudy"
"1960-11-01 21:00","1960","11","01","21:00","7.8","","5.6","","85","","20","","18","","24.1","","97.57","","","","","","Cloudy"
"1960-11-01 22:00","1960","11","01","22:00","7.8","","5.6","","85","","20","","16","","24.1","","97.58","","","","","","Mostly Cloudy"
"1960-11-01 23:00","1960","11","01","23:00","7.2","","5.0","","85","","20","","16","","24.1","","97.55","","","","","","Cloudy"
"1960-11-02 00:00","1960","11","02","00:00","6.7","","4.4","","85","","20","","16","","25.0","","97.52","","","","","","Mostly Cloudy"
"1960-11-02 01:00","1960","11","02","01:00","5.6","","2.8","","82","","20","","16","","25.0","","97.47","","","","","","Mainly Clear"
"1960-11-02 02:00","1960","11","02","02:00","5.6","","3.9","","88","","20","","11","","25.0","","97.46","","","","","","Cloudy"
"1960-11-02 03:00","1960","11","02","03:00","5.6","","3.3","","86","","20","","13","","25.0","","97.41","","","","","","Mostly Cloudy"
"1960-11-02 04:00","1960","11","02","04:00","5.6","","3.3","","86","","20","","16","","19.3","","97.41","","","","","","Rain Showers"
"1960-11-02 05:00","1960","11","02","05:00","5.6","","2.8","","84","","20","","16","","19.3","","97.43","","","","","","Cloudy"
"1960-11-02 06:00","1960","11","02","06:00","5.0","","2.8","","86","","23","","23","","16.1","","97.45","","","","","","Rain Showers"
"1960-11-02 07:00","1960","11","02","07:00","5.6","","2.8","","82","","23","","26","","12.9","","97.48","","","","","","Cloudy"
"1960-11-02 08:00","1960","11","02","08:00","5.6","","2.8","","82","","20","","23","","9.7","","97.52","","","","","","Haze"
"1960-11-02 09:00","1960","11","02","09:00","6.7","","3.3","","78","","23","","16","","11.3","","97.54","","","","","","Cloudy"
"1960-11-02 10:00","1960","11","02","10:00","7.2","","3.3","","76","","25","","29","","11.3","","97.56","","","","","","Cloudy"
"1960-11-02 11:00","1960","11","02","11:00","7.2","","3.3","","76","","25","","29","","11.3","","97.57","","","","","","Cloudy"
"1960-11-02 12:00","1960","11","02","12:00","7.2","","3.3","","76","","25","","24","","12.9","","97.57","","","","","","Cloudy"
"1960-11-02 13:00","1960","11","02","13:00","7.2","","3.3","","76","","25","","24","","19.3","","97.56","","","","","","Cloudy"
"1960-11-02 14:00","1960","11","02","14:00","7.2","","3.3","","76","","25","","27","","24.1","","97.58","","","","","","Cloudy"
"1960-11-02 15:00","1960","11","02","15:00","7.8","","3.9","","77","","25","","29","","24.1","","97.62","","","","","","Cloudy"
"1960-11-02 16:00","1960","11","02","16:00","7.8","","5.0","","81","","25","","29","","19.3","","97.70","","","","","","Rain Showers"
"1960-11-02 17:00","1960","11","02","17:00","7.8","","3.3","","73","","25","","26","","19.3","","97.72","","","","","","Rain Showers"
"1960-11-02 18:00","1960","11","02","18:00","7.8","","5.0","","81","","25","","23","","16.1","","97.79","","","","","","Rain Showers"
"1960-11-02 19:00","1960","11","02","19:00","7.2","","5.0","","85","","25","","23","","12.9","","97.84","","","","","","Rain"
"1960-11-02 20:00","1960","11","02","20:00","6.7","","4.4","","85","","23","","21","","16.1","","97.84","","","","","","Cloudy"
"1960-11-02 21:00","1960","11","02","21:00","6.1","","3.9","","84","","25","","18","","16.1","","97.89","","","","","","Mostly Cloudy"
"1960-11-02 22:00","1960","11","02","22:00","6.1","","3.3","","82","","25","","23","","19.3","","97.91","","","","","","Mostly Cloudy"
"1960-11-02 23:00","1960","11","02","23:00","6.1","","3.3","","82","","25","","34","","19.3","","97.91","","","","","","Mainly Clear"
"1960-11-03 00:00","1960","11","03","00:00","6.1","","3.9","","86","","25","","34","","24.1","","97.92","","","","","","Mainly Clear"
"1960-11-03 01:00","1960","11","03","01:00","6.1","","5.0","","93","","25","","27","","24.1","","98.01","","","","","","Rain Showers"
"1960-11-03 02:00","1960","11","03","02:00","5.0","","2.2","","83","","27","","27","","25.0","","98.10","","","","","","Rain Showers"
"1960-11-03 03:00","1960","11","03","03:00","4.4","","1.7","","83","","27","","16","","25.0","","98.15","","","","","","Mostly Cloudy"
"1960-11-03 04:00","1960","11","03","04:00","4.4","","2.2","","85","","27","","24","","25.0","","98.22","","","","","","Cloudy"
"1960-11-03 05:00","1960","11","03","05:00","5.0","","1.7","","79","","27","","27","","25.0","","98.28","","","","","","Mostly Cloudy"
"1960-11-03 06:00","1960","11","03","06:00","4.4","","1.7","","81","","27","","27","","25.0","","98.34","","","","","","Mostly Cloudy"
"1960-11-03 07:00","1960","11","03","07:00","4.4","","1.7","","83","","27","","24","","25.0","","98.41","","","","","","Cloudy"
"1960-11-03 08:00","1960","11","03","08:00","5.6","","2.2","","79","","25","","27","","25.0","","98.47","","","","","","Mostly Cloudy"
"1960-11-03 09:00","1960","11","03","09:00","5.6","","2.2","","79","","25","","37","","24.1","","98.54","","","","","","Rain Showers"
"1960-11-03 10:00","1960","11","03","10:00","5.6","","2.2","","79","","27","","32","","24.1","","98.61","","","","","","Rain Showers"
"1960-11-03 11:00","1960","11","03","11:00","6.1","","2.2","","78","","27","","37","","24.1","","98.65","","","","","","Mostly Cloudy"
"1960-11-03 12:00","1960","11","03","12:00","4.4","","2.2","","85","","25","","32","","24.1","","98.68","","","","","","Mostly Cloudy"
"1960-11-03 13:00","1960","11","03","13:00","5.6","","1.1","","73","","27","","39","","24.1","","98.67","","","","","","Mostly Cloudy"
"1960-11-03 14:00","1960","11","03","14:00","6.1","","2.2","","75","","29","","32","","24.1","","98.68","","","","","","Rain Showers"
"1960-11-03 15:00","1960","11","03","15:00","6.7","","1.1","","67","","29","","39","","24.1","","98.72","","","","","","Mostly Cloudy"
"1960-11-03 16:00","1960","11","03","16:00","6.1","","1.1","","71","","27","","42","","24.1","","98.80","","","","","","Mostly Cloudy"
"1960-11-03 17:00","1960","11","03","17:00","5.6","","1.7","","75","","27","","37","","24.1","","98.84","","","","","","Mainly Clear"
"1960-11-03 18:00","1960","11","03","18:00","5.6","","1.7","","77","","27","","32","","24.1","","98.92","","","","","","Mainly Clear"
"1960-11-03 19:00","1960","11","03","19:00","5.0","","2.2","","81","","27","","29","","24.1","","99.00","","","","","","Mainly Clear"
"1960-11-03 20:00","1960","11","03","20:00","5.0","","2.8","","86","","29","","29","","16.1","","99.10","","","","","","Rain Showers"
"1960-11-03 21:00","1960","11","03","21:00","5.0","","2.2","","83","","27","","16","","24.1","","99.13","","","","","","Mostly Cloudy"
"1960-11-03 22:00","1960","11","03","22:00","6.7","","2.2","","74","","29","","24","","24.1","","99.17","","","","","","Mostly Cloudy"
"1960-11-03 23:00","1960","11","03","23:00","6.1","","1.7","","73","","27","","24","","24.1","","99.20","","","","","","Mainly Clear"
"1960-11-04 00:00","1960","11","04","00:00","5.0","","1.7","","79","","29","","16","","24.1","","99.29","","","","","","Mainly Clear"
"1960-11-04 01:00","1960","11","04","01:00","5.6","","0.6","","70","","29","","29","","25.0","","99.28","","","","","","Mainly Clear"
"1960-11-04 02:00","1960","11","04","02:00","4.4","","0.0","","74","","27","","24","","25.0","","99.29","","","","","","Clear"
"1960-11-04 03:00","1960","11","04","03:00","3.3","","-0.6","","75","","27","","19","","25.0","","99.34","","","","","","Clear"
"1960-11-04 04:00","1960","11","04","04:00","2.8","","-1.1","","74","","25","","21","","25.0","","99.39","","","","","","Mainly Clear"
"1960-11-04 05:00","1960","11","04","05:00","4.4","","0.0","","74","","27","","24","","25.0","","99.48","","","","","","Mostly Cloudy"
"1960-11-04 06:00","1960","11","04","06:00","4.4","","1.7","","81","","27","","23","","25.0","","99.49","","","","","","Mainly Clear"
"1960-11-04 07:00","1960","11","04","07:00","3.3","","1.7","","87","","25","","13","","25.0","","99.51","","","","","","Mainly Clear"
"1960-11-04 08:00","1960","11","04","08:00","5.6","","1.1","","73","","27","","27","","25.0","","99.58","","","","","","Mainly Clear"
"1960-11-04 09:00","1960","11","04","09:00","7.8","","0.6","","62","","27","","34","","25.0","","99.61","","","","","","Mainly Clear"
"1960-11-04 10:00","1960","11","04","10:00","8.9","","1.7","","61","","29","","34","","25.0","","99.62","","","","","","Mostly Cloudy"
"1960-11-04 11:00","1960","11","04","11:00","8.9","","0.0","","53","","29","","40","","25.0","","99.65","","","","","","Mostly Cloudy"
"1960-11-04 12:00","1960","11","04","12:00","10.0","","0.0","","50","","29","","43","","25.0","","99.64","","","","","","Mostly Cloudy"
"1960-11-04 13:00","1960","11","04","13:00","10.0","","1.1","","53","","29","","37","","25.0","","99.60","","","","","","Mostly Cloudy"
"1960-11-04 14:00","1960","11","04","14:00","8.9","","-1.7","","48","","29","","37","","25.0","","99.61","","","","","","Mostly Cloudy"
"1960-11-04 15:00","1960","11","04","15:00","8.3","","-1.1","","50","","27","","37","","25.0","","99.63","","","","","","Mostly Cloudy"
"1960-11-04 16:00","1960","11","04","16:00","8.3","","-1.7","","48","","29","","31","","25.0","","99.63","","","","","","Mostly Cloudy"
"1960-11-04 17:00","1960","11","04","17:00","7.8","","-0.6","","55","","29","","32","","25.0","","99.62","","","","","","Mostly Cloudy"
"1960-11-04 18:00","1960","11","04","18:00","6.7","","0.0","","63","","27","","14","","25.0","","99.65","","","","","","Mostly Cloudy"
"1960-11-04 19:00","1960","11","04","19:00","6.7","","0.6","","65","","27","","19","","24.1","","99.64","","","","","","Rain Showers"
"1960-11-04 20:00","1960","11","04","20:00","5.6","","1.7","","75","","27","","19","","25.0","","99.58","","","","","","Mostly Cloudy"
"1960-11-04 21:00","1960","11","04","21:00","5.0","","1.1","","77","","27","","18","","25.0","","99.58","","","","","","Mostly Cloudy"
"1960-11-04 22:00","1960","11","04","22:00","5.6","","1.7","","77","","25","","18","","25.0","","99.57","","","","","","Cloudy"
"1960-11-04 23:00","1960","11","04","23:00","5.6","","1.7","","77","","25","","23","","25.0","","99.55","","","","","","Mostly Cloudy"
"1960-11-05 00:00","1960","11","05","00:00","4.4","","1.7","","78","","25","","16","","25.0","","99.54","","","","","","Mostly Cloudy"
"1960-11-05 01:00","1960","11","05","01:00","4.4","","1.7","","83","","27","","8","","25.0","","99.53","","","","","","Mostly Cloudy"
"1960-11-05 02:00","1960","11","05","02:00","3.9","","1.1","","83","","27","","11","","25.0","","99.52","","","","","","Cloudy"
"1960-11-05 03:00","1960","11","05","03:00","3.3","","0.0","","80","","27","","11","","25.0","","99.51","","","","","","Mostly Cloudy"
"1960-11-05 04:00","1960","11","05","04:00","3.3","","0.0","","80","","27","","18","","25.0","","99.48","","","","","","Mostly Cloudy"
"1960-11-05 05:00","1960","11","05","05:00","1.7","","-0.6","","84","","25","","16","","25.0","","99.44","","","","","","Mostly Cloudy"
"1960-11-05 06:00","1960","11","05","06:00","2.2","","0.0","","84","","25","","16","","25.0","","99.43","","","","","","Mostly Cloudy"
"1960-11-05 07:00","1960","11","05","07:00","1.7","","-0.6","","86","","25","","14","","25.0","","99.42","","","","","","Mostly Cloudy"
"1960-11-05 08:00","1960","11","05","08:00","2.2","","0.0","","84","","25","","14","","25.0","","99.43","","","","","","Mostly Cloudy"
"1960-11-05 09:00","1960","11","05","09:00","3.9","","0.6","","78","","27","","23","","25.0","","99.40","","","","","","Mostly Cloudy"
"1960-11-05 10:00","1960","11","05","10:00","5.0","","-0.6","","71","","29","","26","","25.0","","99.34","","","","","","Mostly Cloudy"
"1960-11-05 11:00","1960","11","05","11:00","6.1","","-2.2","","54","","32","","27","","25.0","","99.32","","","","","","Mostly Cloudy"
"1960-11-05 12:00","1960","11","05","12:00","6.7","","-2.2","","50","","32","","21","","25.0","","99.24","","","","","","Mostly Cloudy"
"1960-11-05 13:00","1960","11","05","13:00","6.1","","-2.2","","56","","32","","26","","25.0","","99.18","","","","","","Mostly Cloudy"
"1960-11-05 14:00","1960","11","05","14:00","5.6","","-2.8","","55","","32","","35","","25.0","","99.10","","","","","","Mostly Cloudy"
"1960-11-05 15:00","1960","11","05","15:00","5.0","","-2.8","","56","","32","","29","","25.0","","99.12","","","","","","Mostly Cloudy"
"1960-11-05 16:00","1960","11","05","16:00","5.0","","-3.3","","54","","29","","27","","25.0","","99.14","","","","","","Mostly Cloudy"
"1960-11-05 17:00","1960","11","05","17:00","3.9","","-2.8","","61","","29","","27","","25.0","","99.11","","","","","","Mostly Cloudy"
"1960-11-05 18:00","1960","11","05","18:00","3.3","","-2.8","","65","","29","","26","","25.0","","99.14","","","","","","Mostly Cloudy"
"1960-11-05 19:00","1960","11","05","19:00","2.2","","-2.2","","74","","29","","16","","24.1","","99.12","","","","","","Mostly Cloudy"
"1960-11-05 20:00","1960","11","05","20:00","1.7","","-4.4","","64","","32","","18","","24.1","","99.08","","","","","","Mainly Clear"
"1960-11-05 21:00","1960","11","05","21:00","0.6","","-3.9","","73","","27","","18","","24.1","","99.11","","","","","","Mainly Clear"
"1960-11-05 22:00","1960","11","05","22:00","0.6","","-3.9","","73","","27","","18","","24.1","","99.09","","","","","","Mostly Cloudy"
"1960-11-05 23:00","1960","11","05","23:00","0.6","","-3.9","","73","","27","","16","","24.1","","99.07","","","","","","Mostly Cloudy"
"1960-11-06 00:00","1960","11","06","00:00","0.6","","-3.9","","73","","27","","21","","19.3","","99.04","","","","","","Cloudy"
"1960-11-06 01:00","1960","11","06","01:00","1.1","","-3.9","","68","","27","","19","","25.0","","99.02","","","","","","Cloudy"
"1960-11-06 02:00","1960","11","06","02:00","0.6","","-4.4","","70","","27","","16","","25.0","","98.99","","","","","","Snow Showers"
"1960-11-06 03:00","1960","11","06","03:00","0.6","","-4.4","","70","","29","","11","","25.0","","98.96","","","","","","Mostly Cloudy"
"1960-11-06 04:00","1960","11","06","04:00","-0.6","","-4.4","","76","","36","","10","","25.0","","99.00","","","","-4","","Cloudy"
"1960-11-06 05:00","1960","11","06","05:00","-0.6","","-3.3","","82","","34","","10","","25.0","","98.98","","","","-4","","Cloudy"
"1960-11-06 06:00","1960","11","06","06:00","-1.1","","-3.9","","82","","29","","8","","25.0","","98.99","","","","-4","","Mostly Cloudy"
"1960-11-06 07:00","1960","11","06","07:00","-0.6","","-3.3","","82","","32","","3","","25.0","","99.00","","","","-2","","Cloudy"
"1960-11-06 08:00","1960","11","06","08:00","-0.6","","-3.9","","79","","34","","5","","25.0","","99.03","","","","-2","","Mostly Cloudy"
"1960-11-06 09:00","1960","11","06","09:00","0.0","","-4.4","","71","","34","","8","","25.0","","99.04","","","","-3","","Mostly Cloudy"
"1960-11-06 10:00","1960","11","06","10:00","0.6","","-4.4","","70","","34","","10","","25.0","","99.04","","","","","","Mostly Cloudy"
"1960-11-06 11:00","1960","11","06","11:00","1.7","","-4.4","","64","","34","","10","","25.0","","99.09","","","","","","Mostly Cloudy"
"1960-11-06 12:00","1960","11","06","12:00","1.7","","-4.4","","64","","34","","13","","25.0","","99.06","","","","","","Mostly Cloudy"
"1960-11-06 13:00","1960","11","06","13:00","2.8","","-4.4","","60","","36","","16","","25.0","","99.03","","","","","","Mostly Cloudy"
"1960-11-06 14:00","1960","11","06","14:00","1.1","","-4.4","","66","","34","","16","","24.1","","99.03","","","","","","Mostly Cloudy"
"1960-11-06 15:00","1960","11","06","15:00","1.1","","-4.4","","66","","34","","19","","24.1","","99.07","","","","","","Mostly Cloudy"
"1960-11-06 16:00","1960","11","06","16:00","0.6","","-4.4","","70","","34","","19","","25.0","","99.17","","","","","","Mostly Cloudy"
"1960-11-06 17:00","1960","11","06","17:00","0.6","","-3.9","","73","","36","","21","","25.0","","99.26","","","","","","Mostly Cloudy"
"1960-11-06 18:00","1960","11","06","18:00","-0.6","","-5.6","","70","","34","","14","","24.1","","99.32","","","","-5","","Mainly Clear"
"1960-11-06 19:00","1960","11","06","19:00","-1.1","","-6.1","","69","","34","","11","","24.1","","99.40","","","","-5","","Mainly Clear"
"1960-11-06 20:00","1960","11","06","20:00","-1.7","","-5.6","","75","","34","","18","","24.1","","99.45","","","","-7","","Mainly Clear"
"1960-11-06 21:00","1960","11","06","21:00","-2.2","","-6.1","","76","","32","","13","","24.1","","99.52","","","","-7","","Mainly Clear"
"1960-11-06 22:00","1960","11","06","22:00","-2.2","","-5.6","","78","","32","","16","","24.1","","99.56","","","","-7","","Mainly Clear"
"1960-11-06 23:00","1960","11","06","23:00","-3.3","","-6.1","","82","","34","","14","","24.1","","99.63","","","","-8","","Mainly Clear"
"1960-11-07 00:00","1960","11","07","00:00","-3.9","","-6.7","","83","","34","","10","","24.1","","99.68","","","","-8","","Mainly Clear"
"1960-11-07 01:00","1960","11","07","01:00","-3.9","","-6.7","","80","","34","","13","","25.0","","99.71","","","","-9","","Clear"
"1960-11-07 02:00","1960","11","07","02:00","-4.4","","-6.7","","83","","34","","16","","25.0","","99.77","","","","-10","","Clear"
"1960-11-07 03:00","1960","11","07","03:00","-3.9","","-6.1","","85","","34","","16","","25.0","","99.85","","","","-9","","Clear"
"1960-11-07 04:00","1960","11","07","04:00","-5.0","","-6.7","","87","","34","","19","","25.0","","99.93","","","","-11","","Mainly Clear"
"1960-11-07 05:00","1960","11","07","05:00","-4.4","","-6.1","","86","","34","","16","","25.0","","100.01","","","","-10","","Mainly Clear"
"1960-11-07 06:00","1960","11","07","06:00","-3.9","","-6.1","","85","","34","","23","","25.0","","100.07","","","","-11","","Mainly Clear"
"1960-11-07 07:00","1960","11","07","07:00","-3.9","","-5.6","","87","","34","","16","","25.0","","100.14","","","","-9","","Mainly Clear"
"1960-11-07 08:00","1960","11","07","08:00","-3.3","","-6.1","","82","","34","","19","","25.0","","100.26","","","","-9","","Mainly Clear"
"1960-11-07 09:00","1960","11","07","09:00","-1.7","","-6.1","","71","","34","","16","","25.0","","100.33","","","","-7","","Mainly Clear"
"1960-11-07 10:00","1960","11","07","10:00","-0.6","","-7.2","","62","","32","","6","","25.0","","100.39","","","","-3","","Mainly Clear"
"1960-11-07 11:00","1960","11","07","11:00","0.6","","-6.7","","60","","","","0","","25.0","","100.42","","","","","","Mainly Clear"
"1960-11-07 12:00","1960","11","07","12:00","0.6","","-6.1","","62","","23","","8","","25.0","","100.40","","","","","","Mostly Cloudy"
"1960-11-07 13:00","1960","11","07","13:00","2.2","","-5.0","","58","","23","","6","","25.0","","100.35","","","","","","Mostly Cloudy"
"1960-11-07 14:00","1960","11","07","14:00","2.2","","-5.6","","56","","23","","13","","25.0","","100.32","","","","","","Mostly Cloudy"
"1960-11-07 15:00","1960","11","07","15:00","2.8","","-6.1","","53","","27","","19","","25.0","","100.34","","","","","","Mostly Cloudy"
"1960-11-07 16:00","1960","11","07","16:00","2.8","","-6.1","","53","","29","","21","","25.0","","100.37","","","","","","Mostly Cloudy"
"1960-11-07 17:00","1960","11","07","17:00","2.2","","-4.4","","61","","29","","13","","25.0","","100.40","","","","","","Mostly Cloudy"
"1960-11-07 18:00","1960","11","07","18:00","1.7","","-4.4","","64","","27","","8","","25.0","","100.42","","","","","","Mostly Cloudy"
"1960-11-07 19:00","1960","11","07","19:00","1.7","","-4.4","","64","","23","","8","","25.0","","100.43","","","","","","Mostly Cloudy"
"1960-11-07 20:00","1960","11","07","20:00","0.6","","-4.4","","70","","23","","10","","25.0","","100.40","","","","","","Mostly Cloudy"
"1960-11-07 21:00","1960","11","07","21:00","0.0","","-4.4","","71","","20","","13","","25.0","","100.40","","","","-4","","Mainly Clear"
"1960-11-07 22:00","1960","11","07","22:00","-1.1","","-5.0","","74","","18","","8","","25.0","","100.39","","","","-4","","Clear"
"1960-11-07 23:00","1960","11","07","23:00","-1.7","","-6.1","","72","","20","","10","","25.0","","100.35","","","","-5","","Clear"
"1960-11-08 00:00","1960","11","08","00:00","-1.7","","-5.6","","75","","20","","8","","25.0","","100.34","","","","-5","","Mainly Clear"
"1960-11-08 01:00","1960","11","08","01:00","-2.2","","-5.0","","82","","23","","11","","25.0","","100.31","","","","-6","","Mainly Clear"
"1960-11-08 02:00","1960","11","08","02:00","-2.2","","-5.0","","82","","20","","14","","25.0","","100.28","","","","-7","","Mainly Clear"
"1960-11-08 03:00","1960","11","08","03:00","-2.2","","-5.0","","81","","18","","14","","25.0","","100.23","","","","-7","","Clear"
"1960-11-08 04:00","1960","11","08","04:00","-2.8","","-5.6","","81","","18","","11","","25.0","","100.21","","","","-7","","Clear"
"1960-11-08 05:00","1960","11","08","05:00","-2.8","","-5.6","","82","","20","","8","","25.0","","100.20","","","","-6","","Mainly Clear"
"1960-11-08 06:00","1960","11","08","06:00","-1.7","","-3.9","","85","","18","","16","","25.0","","100.20","","","","-7","","Mainly Clear"
"1960-11-08 07:00","1960","11","08","07:00","0.0","","-2.8","","83","","18","","18","","24.1","","100.18","","","","-5","","Mainly Clear"
"1960-11-08 08:00","1960","11","08","08:00","1.1","","-1.7","","82","","18","","24","","24.1","","100.16","","","","","","Mostly Cloudy"
"1960-11-08 09:00","1960","11","08","09:00","3.3","","-1.1","","72","","20","","32","","24.1","","100.13","","","","","","Mostly Cloudy"
"1960-11-08 10:00","1960","11","08","10:00","5.0","","0.0","","70","","20","","29","","24.1","","100.09","","","","","","Mostly Cloudy"
"1960-11-08 11:00","1960","11","08","11:00","6.7","","0.0","","63","","20","","39","","24.1","","100.00","","","","","","Mostly Cloudy"
"1960-11-08 12:00","1960","11","08","12:00","6.7","","-0.6","","59","","20","","42","","24.1","","99.86","","","","","","Mostly Cloudy"
"1960-11-08 13:00","1960","11","08","13:00","7.8","","0.0","","57","","18","","35","","24.1","","99.74","","","","","","Mostly Cloudy"
"1960-11-08 14:00","1960","11","08","14:00","7.8","","0.0","","57","","20","","43","","24.1","","99.72","","","","","","Mostly Cloudy"
"1960-11-08 15:00","1960","11","08","15:00","8.3","","0.0","","56","","20","","40","","24.1","","99.65","","","","","","Mostly Cloudy"
"1960-11-08 16:00","1960","11","08","16:00","8.3","","-1.1","","52","","20","","35","","24.1","","99.67","","","","","","Mostly Cloudy"
"1960-11-08 17:00","1960","11","08","17:00","8.3","","-1.1","","52","","20","","32","","16.1","","99.73","","","","","","Cloudy"
"1960-11-08 18:00","1960","11","08","18:00","6.1","","2.2","","75","","25","","35","","12.9","","99.79","","","","","","Rain"
"1960-11-08 19:00","1960","11","08","19:00","5.0","","3.3","","88","","23","","19","","16.1","","99.82","","","","","","Rain"
"1960-11-08 20:00","1960","11","08","20:00","5.0","","3.3","","90","","23","","19","","16.1","","99.84","","","","","","Rain"
"1960-11-08 21:00","1960","11","08","21:00","5.6","","3.3","","86","","23","","26","","19.3","","99.84","","","","","","Rain"
"1960-11-08 22:00","1960","11","08","22:00","5.6","","3.9","","91","","20","","26","","16.1","","99.88","","","","","","Rain"
"1960-11-08 23:00","1960","11","08","23:00","6.1","","4.4","","89","","20","","29","","11.3","","99.87","","","","","","Rain"
"1960-11-09 00:00","1960","11","09","00:00","5.6","","4.4","","93","","20","","26","","19.3","","99.91","","","","","","Rain"
"1960-11-09 01:00","1960","11","09","01:00","6.1","","5.0","","91","","23","","32","","16.1","","99.92","","","","","","Rain"
"1960-11-09 02:00","1960","11","09","02:00","6.1","","3.9","","86","","23","","29","","19.3","","99.93","","","","","","Rain"
"1960-11-09 03:00","1960","11","09","03:00","5.6","","3.9","","88","","23","","26","","19.3","","99.93","","","","","","Rain"
"1960-11-09 04:00","1960","11","09","04:00","5.6","","3.9","","88","","23","","23","","16.1","","99.92","","","","","","Rain"
"1960-11-09 05:00","1960","11","09","05:00","5.6","","3.9","","91","","23","","16","","12.9","","99.93","","","","","","Rain"
"1960-11-09 06:00","1960","11","09","06:00","6.1","","4.4","","89","","23","","19","","19.3","","99.91","","","","","","Drizzle"
"1960-11-09 07:00","1960","11","09","07:00","6.1","","4.4","","89","","20","","13","","8.0","","99.90","","","","","","Rain,Fog"
"1960-11-09 08:00","1960","11","09","08:00","6.1","","5.0","","91","","23","","16","","9.7","","99.94","","","","","","Rain,Fog"
"1960-11-09 09:00","1960","11","09","09:00","6.1","","5.0","","93","","20","","14","","9.7","","99.97","","","","","","Fog"
"1960-11-09 10:00","1960","11","09","10:00","6.7","","5.0","","89","","23","","11","","12.9","","99.97","","","","","","Cloudy"
"1960-11-09 11:00","1960","11","09","11:00","7.2","","5.0","","87","","23","","16","","12.9","","99.97","","","","","","Cloudy"
"1960-11-09 12:00","1960","11","09","12:00","7.2","","5.0","","87","","20","","18","","12.9","","99.90","","","","","","Cloudy"
"1960-11-09 13:00","1960","11","09","13:00","7.8","","5.6","","87","","23","","13","","12.9","","99.84","","","","","","Cloudy"
"1960-11-09 14:00","1960","11","09","14:00","7.8","","5.6","","87","","20","","10","","12.9","","99.80","","","","","","Cloudy"
"1960-11-09 15:00","1960","11","09","15:00","7.8","","6.1","","89","","20","","11","","12.9","","99.74","","","","","","Drizzle"
"1960-11-09 16:00","1960","11","09","16:00","7.2","","6.1","","93","","18","","10","","4.8","","99.72","","","","","","Rain,Fog"
"1960-11-09 17:00","1960","11","09","17:00","7.2","","6.7","","96","","18","","10","","1.6","","99.68","","","","","","Rain,Fog"
"1960-11-09 18:00","1960","11","09","18:00","6.7","","6.1","","98","","16","","10","","0.8","","99.63","","","","","","Rain,Fog"
"1960-11-09 19:00","1960","11","09","19:00","6.7","","6.1","","98","","16","","10","","0.8","","99.57","","","","","","Rain,Fog"
"1960-11-09 20:00","1960","11","09","20:00","6.7","","6.1","","98","","16","","10","","0.6","","99.48","","","","","","Rain,Fog"
"1960-11-09 21:00","1960","11","09","21:00","6.7","","6.1","","98","","16","","6","","0.4","","99.39","","","","","","Rain,Fog"
"1960-11-09 22:00","1960","11","09","22:00","6.7","","6.1","","98","","","","0","","0.8","","99.29","","","","","","Rain,Fog"
"1960-11-09 23:00","1960","11","09","23:00","6.7","","6.1","","98","","","","0","","1.2","","99.21","","","","","","Rain,Fog"
"1960-11-10 00:00","1960","11","10","00:00","6.7","","6.1","","98","","","","0","","1.2","","99.18","","","","","","Rain,Fog"
"1960-11-10 01:00","1960","11","10","01:00","6.7","","6.1","","98","","","","0","","0.2","","99.15","","","","","","Rain,Fog"
"1960-11-10 02:00","1960","11","10","02:00","6.1","","5.0","","93","","23","","14","","11.3","","99.08","","","","","","Rain"
"1960-11-10 03:00","1960","11","10","03:00","5.6","","4.4","","93","","25","","21","","12.9","","99.13","","","","","","Rain"
"1960-11-10 04:00","1960","11","10","04:00","4.4","","2.2","","85","","29","","29","","24.1","","99.15","","","","","","Cloudy"
"1960-11-10 05:00","1960","11","10","05:00","3.9","","1.1","","83","","27","","26","","25.0","","99.26","","","","","","Mainly Clear"
"1960-11-10 06:00","1960","11","10","06:00","3.9","","1.1","","83","","27","","26","","25.0","","99.34","","","","","","Mostly Cloudy"
"1960-11-10 07:00","1960","11","10","07:00","3.9","","1.7","","85","","27","","26","","25.0","","99.42","","","","","","Mostly Cloudy"
"1960-11-10 08:00","1960","11","10","08:00","3.9","","1.1","","83","","27","","24","","25.0","","99.55","","","","","","Mostly Cloudy"
"1960-11-10 09:00","1960","11","10","09:00","4.4","","1.1","","78","","29","","27","","25.0","","99.63","","","","","","Mostly Cloudy"
"1960-11-10 10:00","1960","11","10","10:00","4.4","","0.6","","76","","29","","31","","25.0","","99.74","","","","","","Mainly Clear"
"1960-11-10 11:00","1960","11","10","11:00","6.1","","0.0","","65","","29","","31","","25.0","","99.80","","","","","","Mainly Clear"
"1960-11-10 12:00","1960","11","10","12:00","6.7","","-1.1","","57","","29","","37","","25.0","","99.84","","","","","","Mostly Cloudy"
"1960-11-10 13:00","1960","11","10","13:00","6.1","","-0.6","","62","","29","","31","","25.0","","99.86","","","","","","Mostly Cloudy"
"1960-11-10 14:00","1960","11","10","14:00","4.4","","-0.6","","71","","34","","31","","25.0","","99.93","","","","","","Mostly Cloudy"
"1960-11-10 15:00","1960","11","10","15:00","3.9","","-0.6","","73","","34","","23","","25.0","","100.00","","","","","","Mostly Cloudy"
"1960-11-10 16:00","1960","11","10","16:00","2.8","","-1.1","","74","","34","","26","","25.0","","100.11","","","","","","Mostly Cloudy"
"1960-11-10 17:00","1960","11","10","17:00","2.2","","-1.7","","76","","34","","16","","25.0","","100.19","","","","","","Mostly Cloudy"
"1960-11-10 18:00","1960","11","10","18:00","2.2","","-2.8","","68","","34","","23","","25.0","","100.36","","","","","","Mostly Cloudy"
"1960-11-10 19:00","1960","11","10","19:00","2.2","","-3.3","","66","","34","","16","","25.0","","100.42","","","","","","Mostly Cloudy"
"1960-11-10 20:00","1960","11","10","20:00","1.7","","-3.3","","70","","32","","13","","25.0","","100.48","","","","","","Mostly Cloudy"
"1960-11-10 21:00","1960","11","10","21:00","1.7","","-2.8","","72","","32","","16","","25.0","","100.53","","","","","","Cloudy"
"1960-11-10 22:00","1960","11","10","22:00","1.1","","-3.3","","71","","29","","16","","25.0","","100.54","","","","","","Cloudy"
"1960-11-10 23:00","1960","11","10","23:00","1.1","","-4.4","","66","","29","","19","","25.0","","100.55","","","","","","Cloudy"
"1960-11-11 00:00","1960","11","11","00:00","0.6","","-4.4","","70","","32","","19","","25.0","","100.54","","","","","","Cloudy"
"1960-11-11 01:00","1960","11","11","01:00","0.6","","-5.6","","64","","32","","6","","25.0","","100.52","","","","","","Mostly Cloudy"
"1960-11-11 02:00","1960","11","11","02:00","0.0","","-4.4","","71","","23","","8","","25.0","","100.53","","","","-3","","Mostly Cloudy"
"1960-11-11 03:00","1960","11","11","03:00","0.0","","-3.9","","74","","20","","8","","25.0","","100.51","","","","-3","","Cloudy"
"1960-11-11 04:00","1960","11","11","04:00","0.0","","-3.3","","77","","20","","10","","25.0","","100.52","","","","-3","","Cloudy"
"1960-11-11 05:00","1960","11","11","05:00","0.6","","-2.8","","78","","20","","8","","25.0","","100.49","","","","","","Mostly Cloudy"
"1960-11-11 06:00","1960","11","11","06:00","0.6","","-3.3","","75","","23","","11","","25.0","","100.48","","","","","","Cloudy"
"1960-11-11 07:00","1960","11","11","07:00","0.6","","-2.8","","78","","23","","13","","25.0","","100.49","","","","","","Cloudy"
"1960-11-11 08:00","1960","11","11","08:00","0.6","","-3.9","","73","","23","","16","","25.0","","100.50","","","","","","Cloudy"
"1960-11-11 09:00","1960","11","11","09:00","1.7","","-4.4","","64","","25","","13","","25.0","","100.45","","","","","","Mostly Cloudy"
"1960-11-11 10:00","1960","11","11","10:00","2.8","","-4.4","","60","","25","","21","","25.0","","100.42","","","","","","Mostly Cloudy"
"1960-11-11 11:00","1960","11","11","11:00","3.9","","-3.9","","57","","23","","31","","24.1","","100.34","","","","","","Mostly Cloudy"
"1960-11-11 12:00","1960","11","11","12:00","4.4","","-3.3","","58","","23","","27","","24.1","","100.20","","","","","","Mostly Cloudy"
"1960-11-11 13:00","1960","11","11","13:00","4.4","","-4.4","","53","","23","","27","","24.1","","100.07","","","","","","Mostly Cloudy"
"1960-11-11 14:00","1960","11","11","14:00","5.0","","-3.3","","54","","23","","39","","24.1","","100.00","","","","","","Mostly Cloudy"
"1960-11-11 15:00","1960","11","11","15:00","5.0","","-2.8","","56","","23","","37","","24.1","","99.96","","","","","","Mostly Cloudy"
"1960-11-11 16:00","1960","11","11","16:00","5.0","","-2.2","","59","","23","","34","","24.1","","99.94","","","","","","Mostly Cloudy"
"1960-11-11 17:00","1960","11","11","17:00","3.9","","-1.1","","71","","20","","23","","25.0","","99.94","","","","","","Mostly Cloudy"
"1960-11-11 18:00","1960","11","11","18:00","2.8","","-2.2","","69","","23","","26","","25.0","","99.91","","","","","","Mainly Clear"
"1960-11-11 19:00","1960","11","11","19:00","2.8","","-1.7","","72","","23","","27","","25.0","","99.90","","","","","","Mostly Cloudy"
"1960-11-11 20:00","1960","11","11","20:00","2.8","","-0.6","","79","","23","","34","","25.0","","99.87","","","","","","Cloudy"
"1960-11-11 21:00","1960","11","11","21:00","2.8","","-1.7","","72","","23","","34","","25.0","","99.89","","","","","","Cloudy"
"1960-11-11 22:00","1960","11","11","22:00","2.2","","-1.7","","76","","25","","35","","25.0","","99.89","","","","","","Mainly Clear"
"1960-11-11 23:00","1960","11","11","23:00","1.7","","-2.2","","76","","25","","40","","25.0","","99.91","","","","","","Mainly Clear"
"1960-11-12 00:00","1960","11","12","00:00","1.7","","-2.2","","76","","25","","34","","25.0","","99.91","","","","","","Mainly Clear"
"1960-11-12 01:00","1960","11","12","01:00","1.7","","-2.2","","76","","25","","26","","25.0","","99.93","","","","","","Mainly Clear"
"1960-11-12 02:00","1960","11","12","02:00","1.1","","-2.2","","79","","25","","19","","25.0","","99.97","","","","","","Mostly Cloudy"
"1960-11-12 03:00","1960","11","12","03:00","1.7","","-2.2","","76","","25","","23","","24.1","","100.01","","","","","","Cloudy"
"1960-11-12 04:00","1960","11","12","04:00","1.7","","-1.7","","78","","27","","16","","19.3","","100.01","","","","","","Cloudy"
"1960-11-12 05:00","1960","11","12","05:00","1.7","","-1.1","","81","","27","","14","","19.3","","100.07","","","","","","Mostly Cloudy"
"1960-11-12 06:00","1960","11","12","06:00","1.7","","-1.1","","81","","25","","10","","19.3","","100.09","","","","","","Mostly Cloudy"
"1960-11-12 07:00","1960","11","12","07:00","2.2","","-1.1","","79","","25","","10","","8.0","","100.15","","","","","","Haze"
"1960-11-12 08:00","1960","11","12","08:00","2.8","","0.0","","82","","27","","6","","8.0","","100.23","","","","","","Haze"
"1960-11-12 09:00","1960","11","12","09:00","3.9","","0.0","","75","","25","","16","","8.0","","100.25","","","","","","Haze"
"1960-11-12 10:00","1960","11","12","10:00","5.0","","0.6","","72","","25","","19","","9.7","","100.28","","","","","","Haze"
"1960-11-12 11:00","1960","11","12","11:00","7.2","","-0.6","","58","","25","","16","","19.3","","100.27","","","","","","Mainly Clear"
"1960-11-12 12:00","1960","11","12","12:00","7.8","","-0.6","","55","","25","","10","","19.3","","100.24","","","","","","Mainly Clear"
"1960-11-12 13:00","1960","11","12","13:00","8.9","","0.6","","55","","25","","18","","16.1","","100.19","","","","","","Mainly Clear"
"1960-11-12 14:00","1960","11","12","14:00","8.3","","-0.6","","54","","25","","10","","12.9","","100.17","","","","","","Mainly Clear"
"1960-11-12 15:00","1960","11","12","15:00","8.9","","-0.6","","51","","20","","16","","12.9","","100.16","","","","","","Mostly Cloudy"
"1960-11-12 16:00","1960","11","12","16:00","8.3","","0.6","","58","","20","","18","","12.9","","100.18","","","","","","Mostly Cloudy"
"1960-11-12 17:00","1960","11","12","17:00","7.2","","0.6","","62","","18","","11","","11.3","","100.17","","","","","","Mainly Clear"
"1960-11-12 18:00","1960","11","12","18:00","5.6","","0.0","","68","","18","","11","","12.9","","100.21","","","","","","Mainly Clear"
"1960-11-12 19:00","1960","11","12","19:00","5.0","","1.7","","79","","16","","13","","8.0","","100.20","","","","","","Haze"
"1960-11-12 20:00","1960","11","12","20:00","3.9","","1.1","","83","","16","","11","","8.0","","100.19","","","","","","Haze"
"1960-11-12 21:00","1960","11","12","21:00","3.3","","1.1","","85","","18","","5","","8.0","","100.18","","","","","","Haze"
"1960-11-12 22:00","1960","11","12","22:00","2.8","","0.0","","82","","","","0","","8.0","","100.17","","","","","","Haze"
"1960-11-12 23:00","1960","11","12","23:00","2.2","","0.0","","84","","18","","6","","8.0","","100.16","","","","","","Haze"
"1960-11-13 00:00","1960","11","13","00:00","2.2","","0.0","","84","","","","0","","6.4","","100.17","","","","","","Haze"
"1960-11-13 01:00","1960","11","13","01:00","2.2","","0.6","","89","","","","0","","6.4","","100.13","","","","","","Fog"
"1960-11-13 02:00","1960","11","13","02:00","1.7","","0.6","","92","","16","","5","","6.4","","100.12","","","","","","Fog"
"1960-11-13 03:00","1960","11","13","03:00","1.1","","0.6","","94","","","","0","","4.8","","100.12","","","","","","Fog"
"1960-11-13 04:00","1960","11","13","04:00","1.1","","0.6","","94","","32","","3","","4.8","","100.12","","","","","","Fog"
"1960-11-13 05:00","1960","11","13","05:00","1.7","","1.1","","94","","","","0","","4.8","","100.10","","","","","","Fog"
"1960-11-13 06:00","1960","11","13","06:00","2.2","","1.7","","95","","14","","8","","4.0","","100.04","","","","","","Fog"
"1960-11-13 07:00","1960","11","13","07:00","1.7","","1.1","","94","","14","","3","","1.6","","100.03","","","","","","Fog"
"1960-11-13 08:00","1960","11","13","08:00","3.3","","2.8","","95","","18","","8","","1.2","","100.04","","","","","","Fog"
"1960-11-13 09:00","1960","11","13","09:00","4.4","","3.3","","93","","16","","6","","1.6","","100.00","","","","","","Fog"
"1960-11-13 10:00","1960","11","13","10:00","4.4","","3.3","","93","","20","","5","","1.6","","100.02","","","","","","Fog"
"1960-11-13 11:00","1960","11","13","11:00","5.6","","2.8","","84","","18","","8","","2.8","","99.98","","","","","","Haze"
"1960-11-13 12:00","1960","11","13","12:00","7.2","","3.9","","78","","16","","8","","3.6","","99.88","","","","","","Haze"
"1960-11-13 13:00","1960","11","13","13:00","8.3","","4.4","","75","","14","","6","","3.2","","99.85","","","","","","Haze"
"1960-11-13 14:00","1960","11","13","14:00","10.0","","3.9","","66","","20","","19","","6.4","","99.82","","","","","","Haze"
"1960-11-13 15:00","1960","11","13","15:00","10.6","","4.4","","65","","23","","6","","9.7","","99.83","","","","","","Haze"
"1960-11-13 16:00","1960","11","13","16:00","10.6","","4.4","","65","","14","","5","","4.8","","99.84","","","","","","Haze"
"1960-11-13 17:00","1960","11","13","17:00","8.9","","2.8","","66","","18","","6","","4.0","","99.92","","","","","","Haze"
"1960-11-13 18:00","1960","11","13","18:00","7.8","","2.2","","69","","","","0","","4.8","","100.00","","","","","","Haze"
"1960-11-13 19:00","1960","11","13","19:00","6.7","","3.3","","78","","","","0","","4.8","","100.05","","","","","","Haze"
"1960-11-13 20:00","1960","11","13","20:00","4.4","","1.1","","78","","","","0","","4.0","","100.12","","","","","","Haze"
"1960-11-13 21:00","1960","11","13","21:00","4.4","","2.8","","88","","","","0","","4.0","","100.14","","","","","","Fog"
"1960-11-13 22:00","1960","11","13","22:00","4.4","","2.8","","88","","36","","6","","4.0","","100.18","","","","","","Fog"
"1960-11-13 23:00","1960","11","13","23:00","2.8","","1.1","","90","","36","","10","","4.0","","100.19","","","","","","Fog"
"1960-11-14 00:00","1960","11","14","00:00","1.1","","0.6","","94","","36","","6","","3.2","","100.21","","","","","","Fog"
"1960-11-14 01:00","1960","11","14","01:00","1.1","","0.6","","94","","36","","3","","3.2","","100.21","","","","","","Fog"
"1960-11-14 02:00","1960","11","14","02:00","0.0","","-0.6","","97","","","","0","","3.2","","100.24","","","","","","Fog"
"1960-11-14 03:00","1960","11","14","03:00","0.0","","-0.6","","94","","","","0","","4.0","","100.26","","","","","","Fog"
"1960-11-14 04:00","1960","11","14","04:00","-1.1","","-1.7","","95","","","","0","","4.0","","100.24","","","","","","Fog"
"1960-11-14 05:00","1960","11","14","05:00","-1.1","","-2.2","","93","","","","0","","4.0","","100.26","","","","","","Fog"
"1960-11-14 06:00","1960","11","14","06:00","-1.1","","-2.2","","93","","","","0","","4.0","","100.30","","","","","","Fog"
"1960-11-14 07:00","1960","11","14","07:00","-1.1","","-2.8","","90","","36","","8","","3.2","","100.33","","","","-4","","Fog"
"1960-11-14 08:00","1960","11","14","08:00","-1.7","","-2.2","","95","","2","","8","","0.8","","100.35","","","","-5","","Fog"
"1960-11-14 09:00","1960","11","14","09:00","-0.6","","-1.1","","97","","2","","3","","0.2","","100.37","","","","-2","","Fog"
"1960-11-14 10:00","1960","11","14","10:00","3.9","","1.1","","83","","14","","3","","1.6","","100.34","","","","","","Haze"
"1960-11-14 11:00","1960","11","14","11:00","6.7","","3.9","","82","","16","","10","","1.6","","100.32","","","","","","Haze"
"1960-11-14 12:00","1960","11","14","12:00","8.9","","6.1","","82","","11","","8","","4.0","","100.25","","","","","","Haze"
"1960-11-14 13:00","1960","11","14","13:00","10.0","","6.1","","77","","14","","11","","4.0","","100.15","","","","","","Haze"
"1960-11-14 14:00","1960","11","14","14:00","11.1","","6.1","","70","","11","","11","","4.8","","100.04","","","","","","Haze"
"1960-11-14 15:00","1960","11","14","15:00","10.0","","5.0","","71","","14","","6","","4.8","","100.00","","","","","","Haze"
"1960-11-14 16:00","1960","11","14","16:00","10.0","","5.6","","75","","14","","6","","4.0","","99.98","","","","","","Haze"
"1960-11-14 17:00","1960","11","14","17:00","8.3","","5.0","","79","","18","","8","","2.0","","99.96","","","","","","Haze"
"1960-11-14 18:00","1960","11","14","18:00","7.8","","5.0","","81","","14","","11","","2.8","","99.89","","","","","","Haze"
"1960-11-14 19:00","1960","11","14","19:00","7.2","","5.0","","85","","","","0","","4.0","","99.87","","","","","","Haze"
"1960-11-14 20:00","1960","11","14","20:00","6.7","","5.0","","89","","29","","3","","3.6","","99.85","","","","","","Rain Showers,Fog,Haze"
"1960-11-14 21:00","1960","11","14","21:00","6.1","","5.0","","91","","5","","13","","3.2","","99.87","","","","","","Moderate Rain Showers,Fog"
"1960-11-14 22:00","1960","11","14","22:00","6.7","","5.6","","91","","11","","13","","4.0","","99.70","","","","","","Fog"
"1960-11-14 23:00","1960","11","14","23:00","7.8","","7.2","","96","","20","","6","","3.6","","99.66","","","","","","Fog"
"1960-11-15 00:00","1960","11","15","00:00","7.8","","7.2","","98","","18","","3","","2.0","","99.64","","","","","","Fog"
"1960-11-15 01:00","1960","11","15","01:00","7.2","","6.7","","96","","","","0","","2.4","","99.58","","","","","","Fog"
"1960-11-15 02:00","1960","11","15","02:00","6.1","","5.6","","95","","","","0","","2.4","","99.57","","","","","","Fog"
"1960-11-15 03:00","1960","11","15","03:00","6.7","","6.1","","96","","","","0","","2.4","","99.56","","","","","","Fog"
"1960-11-15 04:00","1960","11","15","04:00","6.7","","6.1","","96","","","","0","","2.4","","99.50","","","","","","Fog"
"1960-11-15 05:00","1960","11","15","05:00","7.8","","6.7","","94","","","","0","","3.2","","99.50","","","","","","Fog"
"1960-11-15 06:00","1960","11","15","06:00","7.8","","6.7","","94","","18","","10","","3.2","","99.46","","","","","","Fog"
"1960-11-15 07:00","1960","11","15","07:00","8.9","","8.3","","96","","18","","13","","2.4","","99.49","","","","","","Fog"
"1960-11-15 08:00","1960","11","15","08:00","9.4","","7.8","","90","","","","0","","3.2","","99.49","","","","","","Rain Showers,Fog"
"1960-11-15 09:00","1960","11","15","09:00","9.4","","8.3","","94","","18","","11","","3.2","","99.41","","","","","","Rain Showers,Fog"
"1960-11-15 10:00","1960","11","15","10:00","10.0","","8.9","","92","","23","","11","","1.2","","99.43","","","","","","Thunderstorms,Heavy Rain Showers"
"1960-11-15 11:00","1960","11","15","11:00","10.0","","8.9","","92","","25","","16","","2.4","","99.40","","","","","","Moderate Rain Showers,Fog"
"1960-11-15 12:00","1960","11","15","12:00","12.8","","11.7","","93","","23","","24","","6.4","","99.27","","","","","","Rain Showers,Fog"
"1960-11-15 13:00","1960","11","15","13:00","12.8","","11.7","","93","","27","","13","","4.8","","99.22","","","","","","Rain Showers,Fog"
"1960-11-15 14:00","1960","11","15","14:00","13.3","","11.7","","91","","14","","10","","3.2","","99.14","","","","","","Fog"
"1960-11-15 15:00","1960","11","15","15:00","12.8","","11.1","","89","","14","","13","","1.6","","99.02","","","","","","Fog"
"1960-11-15 16:00","1960","11","15","16:00","12.2","","10.0","","87","","14","","18","","2.4","","98.90","","","","","","Fog"
"1960-11-15 17:00","1960","11","15","17:00","13.3","","12.2","","93","","18","","24","","2.0","","98.91","","","","","","Thunderstorms,Heavy Rain Showers,Fog"
"1960-11-15 18:00","1960","11","15","18:00","14.4","","12.8","","90","","20","","16","","16.1","","98.83","","","","","","Rain Showers"
"1960-11-15 19:00","1960","11","15","19:00","13.9","","13.3","","95","","18","","27","","12.9","","98.78","","","","","","Rain Showers"
"1960-11-15 20:00","1960","11","15","20:00","13.9","","12.2","","90","","20","","32","","16.1","","98.69","","","","","","Rain Showers"
"1960-11-15 21:00","1960","11","15","21:00","13.9","","11.7","","88","","20","","31","","25.0","","98.62","","","","","","Cloudy"
"1960-11-15 22:00","1960","11","15","22:00","14.4","","11.1","","81","","20","","24","","25.0","","98.58","","","","","","Cloudy"
"1960-11-15 23:00","1960","11","15","23:00","14.4","","10.6","","78","","18","","26","","25.0","","98.45","","","","","","Cloudy"
"1960-11-16 00:00","1960","11","16","00:00","15.6","","11.1","","76","","20","","35","","16.1","","98.39","","","","","","Rain Showers"
"1960-11-16 01:00","1960","11","16","01:00","14.4","","12.8","","90","","20","","39","","16.1","","98.28","","","","","","Rain Showers"
"1960-11-16 02:00","1960","11","16","02:00","13.9","","12.2","","91","","20","","32","","16.1","","98.20","","","","","","Rain Showers"
"1960-11-16 03:00","1960","11","16","03:00","13.3","","11.7","","89","","20","","39","","16.1","","98.04","","","","","","Rain Showers"
"1960-11-16 04:00","1960","11","16","04:00","13.3","","11.7","","89","","20","","32","","16.1","","97.93","","","","","","Rain"
"1960-11-16 05:00","1960","11","16","05:00","12.8","","11.1","","92","","20","","35","","16.1","","97.86","","","","","","Cloudy"
"1960-11-16 06:00","1960","11","16","06:00","12.8","","11.1","","92","","20","","40","","16.1","","97.73","","","","","","Rain"
"1960-11-16 07:00","1960","11","16","07:00","12.8","","11.1","","91","","20","","32","","16.1","","97.71","","","","","","Cloudy"
"1960-11-16 08:00","1960","11","16","08:00","12.8","","11.1","","91","","20","","39","","6.4","","97.77","","","","","","Rain Showers,Fog"
"1960-11-16 09:00","1960","11","16","09:00","12.8","","11.1","","91","","20","","29","","9.7","","97.72","","","","","","Rain Showers,Fog"
"1960-11-16 10:00","1960","11","16","10:00","13.9","","11.7","","88","","23","","40","","12.9","","97.77","","","","","","Mostly Cloudy"
"1960-11-16 11:00","1960","11","16","11:00","13.3","","8.3","","71","","25","","50","","16.1","","97.92","","","","","","Mainly Clear"
"1960-11-16 12:00","1960","11","16","12:00","13.9","","6.1","","60","","25","","58","","19.3","","97.95","","","","","","Mainly Clear"
"1960-11-16 13:00","1960","11","16","13:00","13.3","","5.6","","60","","25","","56","","19.3","","98.01","","","","","","Mostly Cloudy"
"1960-11-16 14:00","1960","11","16","14:00","12.2","","5.6","","63","","25","","50","","19.3","","98.09","","","","","","Mostly Cloudy"
"1960-11-16 15:00","1960","11","16","15:00","12.2","","4.4","","60","","25","","39","","24.1","","98.08","","","","","","Mainly Clear"
"1960-11-16 16:00","1960","11","16","16:00","12.2","","5.0","","62","","25","","32","","19.3","","98.11","","","","","","Mainly Clear"
"1960-11-16 17:00","1960","11","16","17:00","11.1","","3.9","","62","","25","","32","","19.3","","98.19","","","","","","Mainly Clear"
"1960-11-16 18:00","1960","11","16","18:00","9.4","","3.9","","69","","23","","23","","25.0","","98.26","","","","","","Mainly Clear"
"1960-11-16 19:00","1960","11","16","19:00","8.9","","3.9","","72","","23","","23","","25.0","","98.33","","","","","","Mainly Clear"
"1960-11-16 20:00","1960","11","16","20:00","8.3","","3.3","","69","","25","","29","","25.0","","98.37","","","","","","Mainly Clear"
"1960-11-16 21:00","1960","11","16","21:00","7.8","","2.2","","67","","25","","37","","25.0","","98.44","","","","","","Clear"
"1960-11-16 22:00","1960","11","16","22:00","6.7","","1.1","","67","","25","","27","","25.0","","98.49","","","","","","Clear"
"1960-11-16 23:00","1960","11","16","23:00","5.6","","-0.6","","66","","25","","24","","25.0","","98.53","","","","","","Mainly Clear"
"1960-11-17 00:00","1960","11","17","00:00","5.6","","1.1","","73","","23","","23","","25.0","","98.54","","","","","","Mainly Clear"
"1960-11-17 01:00","1960","11","17","01:00","5.0","","1.7","","79","","23","","23","","24.1","","98.55","","","","","","Mainly Clear"
"1960-11-17 02:00","1960","11","17","02:00","5.6","","1.7","","75","","25","","35","","19.3","","98.56","","","","","","Rain Showers"
"1960-11-17 03:00","1960","11","17","03:00","5.0","","1.7","","79","","25","","26","","24.1","","98.65","","","","","","Mostly Cloudy"
"1960-11-17 04:00","1960","11","17","04:00","5.0","","1.7","","79","","25","","26","","24.1","","98.70","","","","","","Mostly Cloudy"
"1960-11-17 05:00","1960","11","17","05:00","5.6","","1.7","","75","","25","","29","","24.1","","98.76","","","","","","Mostly Cloudy"
"1960-11-17 06:00","1960","11","17","06:00","4.4","","1.1","","78","","25","","32","","24.1","","98.83","","","","","","Mainly Clear"
"1960-11-17 07:00","1960","11","17","07:00","5.0","","-0.6","","67","","25","","26","","24.1","","98.93","","","","","","Mostly Cloudy"
"1960-11-17 08:00","1960","11","17","08:00","5.0","","-0.6","","67","","25","","27","","24.1","","99.05","","","","","","Mostly Cloudy"
"1960-11-17 09:00","1960","11","17","09:00","4.4","","-1.7","","64","","27","","32","","25.0","","99.17","","","","","","Mostly Cloudy"
"1960-11-17 10:00","1960","11","17","10:00","4.4","","-2.2","","62","","27","","35","","25.0","","99.28","","","","","","Mostly Cloudy"
"1960-11-17 11:00","1960","11","17","11:00","5.0","","-2.2","","59","","27","","35","","25.0","","99.34","","","","","","Mostly Cloudy"
"1960-11-17 12:00","1960","11","17","12:00","6.1","","-2.2","","56","","27","","32","","25.0","","99.32","","","","","","Mostly Cloudy"
"1960-11-17 13:00","1960","11","17","13:00","5.6","","-2.2","","57","","27","","40","","25.0","","99.35","","","","","","Mostly Cloudy"
"1960-11-17 14:00","1960","11","17","14:00","6.7","","-2.2","","53","","27","","39","","25.0","","99.34","","","","","","Mostly Cloudy"
"1960-11-17 15:00","1960","11","17","15:00","6.7","","-1.1","","57","","27","","39","","25.0","","99.34","","","","","","Mostly Cloudy"
"1960-11-17 16:00","1960","11","17","16:00","6.7","","-1.1","","57","","27","","32","","25.0","","99.38","","","","","","Mostly Cloudy"
"1960-11-17 17:00","1960","11","17","17:00","5.6","","-1.1","","62","","27","","27","","24.1","","99.44","","","","","","Mostly Cloudy"
"1960-11-17 18:00","1960","11","17","18:00","4.4","","-1.1","","67","","27","","16","","25.0","","99.54","","","","","","Mostly Cloudy"
"1960-11-17 19:00","1960","11","17","19:00","4.4","","-2.8","","60","","27","","21","","25.0","","99.59","","","","","","Mostly Cloudy"
"1960-11-17 20:00","1960","11","17","20:00","3.3","","-2.2","","68","","23","","16","","25.0","","99.59","","","","","","Mostly Cloudy"
"1960-11-17 21:00","1960","11","17","21:00","2.8","","-2.2","","69","","23","","13","","25.0","","99.59","","","","","","Mainly Clear"
"1960-11-17 22:00","1960","11","17","22:00","1.7","","-2.2","","76","","23","","13","","25.0","","99.57","","","","","","Clear"
"1960-11-17 23:00","1960","11","17","23:00","1.1","","-1.7","","82","","23","","19","","25.0","","99.63","","","","","","Clear"
"1960-11-18 00:00","1960","11","18","00:00","0.6","","-1.1","","89","","25","","13","","24.1","","99.65","","","","","","Clear"
"1960-11-18 01:00","1960","11","18","01:00","0.6","","-1.7","","86","","","","0","","24.1","","99.68","","","","","","Clear"
"1960-11-18 02:00","1960","11","18","02:00","0.6","","-1.7","","86","","","","0","","16.1","","99.70","","","","","","Mainly Clear"
"1960-11-18 03:00","1960","11","18","03:00","-0.6","","-1.7","","91","","","","0","","16.1","","99.68","","","","","","Mainly Clear"
"1960-11-18 04:00","1960","11","18","04:00","-0.6","","-1.7","","91","","","","0","","16.1","","99.65","","","","","","Clear"
"1960-11-18 05:00","1960","11","18","05:00","0.0","","-1.7","","88","","14","","6","","12.9","","99.61","","","","-2","","Clear"
"1960-11-18 06:00","1960","11","18","06:00","-1.7","","-3.3","","88","","","","0","","11.3","","99.59","","","","","","Clear"
"1960-11-18 07:00","1960","11","18","07:00","-1.1","","-2.8","","88","","14","","3","","2.4","","99.55","","","","-2","","Fog,Smoke"
"1960-11-18 08:00","1960","11","18","08:00","-2.2","","-2.8","","95","","","","0","","2.4","","99.53","","","","","","Fog"
"1960-11-18 09:00","1960","11","18","09:00","1.1","","-1.7","","82","","14","","10","","2.4","","99.53","","","","","","Haze"
"1960-11-18 10:00","1960","11","18","10:00","4.4","","1.7","","83","","14","","16","","3.2","","99.47","","","","","","Haze"
"1960-11-18 11:00","1960","11","18","11:00","5.6","","1.7","","77","","14","","13","","4.8","","99.42","","","","","","Haze"
"1960-11-18 12:00","1960","11","18","12:00","6.1","","1.7","","73","","14","","5","","4.8","","99.38","","","","","","Haze"
"1960-11-18 13:00","1960","11","18","13:00","6.1","","1.7","","73","","14","","5","","4.0","","99.32","","","","","","Haze"
"1960-11-18 14:00","1960","11","18","14:00","6.7","","1.1","","67","","14","","8","","4.0","","99.23","","","","","","Haze"
"1960-11-18 15:00","1960","11","18","15:00","7.2","","1.1","","66","","14","","6","","4.0","","99.20","","","","","","Haze"
"1960-11-18 16:00","1960","11","18","16:00","7.2","","1.7","","68","","18","","6","","4.8","","99.22","","","","","","Haze"
"1960-11-18 17:00","1960","11","18","17:00","6.1","","2.2","","78","","18","","6","","4.8","","99.26","","","","","","Haze"
"1960-11-18 18:00","1960","11","18","18:00","5.6","","1.7","","77","","","","0","","9.7","","99.29","","","","","","Haze"
"1960-11-18 19:00","1960","11","18","19:00","4.4","","1.1","","78","","36","","3","","12.9","","99.30","","","","","","Mainly Clear"
"1960-11-18 20:00","1960","11","18","20:00","3.3","","1.7","","87","","32","","10","","9.7","","99.35","","","","","","Haze"
"1960-11-18 21:00","1960","11","18","21:00","3.3","","1.1","","85","","","","0","","12.9","","99.38","","","","","","Cloudy"
"1960-11-18 22:00","1960","11","18","22:00","2.2","","0.0","","84","","2","","11","","12.9","","99.38","","","","","","Mainly Clear"
"1960-11-18 23:00","1960","11","18","23:00","1.7","","-0.6","","84","","36","","10","","12.9","","99.37","","","","","","Clear"
"1960-11-19 00:00","1960","11","19","00:00","0.6","","-1.1","","89","","34","","5","","11.3","","99.39","","","","","","Clear"
"1960-11-19 01:00","1960","11","19","01:00","0.0","","-0.6","","94","","34","","6","","11.3","","99.39","","","","-2","","Clear"
"1960-11-19 02:00","1960","11","19","02:00","-0.6","","-1.7","","93","","34","","5","","9.7","","99.46","","","","-2","","Fog"
"1960-11-19 03:00","1960","11","19","03:00","0.0","","-0.6","","94","","32","","6","","9.7","","99.51","","","","-2","","Fog"
"1960-11-19 04:00","1960","11","19","04:00","-0.6","","-1.7","","93","","32","","13","","12.9","","99.56","","","","-5","","Clear"
"1960-11-19 05:00","1960","11","19","05:00","-0.6","","-1.7","","93","","32","","11","","16.1","","99.61","","","","-4","","Clear"
"1960-11-19 06:00","1960","11","19","06:00","-1.1","","-2.2","","94","","36","","10","","12.9","","99.64","","","","-5","","Clear"
"1960-11-19 07:00","1960","11","19","07:00","-1.7","","-2.8","","91","","36","","8","","6.4","","99.72","","","","-5","","Fog"
"1960-11-19 08:00","1960","11","19","08:00","-0.6","","-1.7","","93","","36","","11","","6.4","","99.79","","","","-4","","Fog"
"1960-11-19 09:00","1960","11","19","09:00","1.1","","-1.7","","82","","36","","10","","6.4","","99.88","","","","","","Haze"
"1960-11-19 10:00","1960","11","19","10:00","3.3","","1.7","","87","","34","","5","","9.7","","99.90","","","","","","Haze"
"1960-11-19 11:00","1960","11","19","11:00","5.6","","1.7","","75","","","","0","","12.9","","99.92","","","","","","Mainly Clear"
"1960-11-19 12:00","1960","11","19","12:00","7.8","","1.1","","63","","","","0","","16.1","","99.90","","","","","","Mainly Clear"
"1960-11-19 13:00","1960","11","19","13:00","8.9","","0.6","","57","","","","0","","19.3","","99.87","","","","","","Mainly Clear"
"1960-11-19 14:00","1960","11","19","14:00","8.3","","2.2","","66","","16","","11","","6.4","","99.83","","","","","","Haze"
"1960-11-19 15:00","1960","11","19","15:00","7.8","","1.7","","65","","16","","10","","4.8","","99.83","","","","","","Haze"
"1960-11-19 16:00","1960","11","19","16:00","6.7","","1.7","","72","","18","","6","","3.6","","99.88","","","","","","Haze"
"1960-11-19 17:00","1960","11","19","17:00","7.2","","2.8","","72","","25","","13","","12.9","","99.87","","","","","","Mainly Clear"
"1960-11-19 18:00","1960","11","19","18:00","6.1","","1.1","","71","","27","","6","","16.1","","99.89","","","","","","Mostly Cloudy"
"1960-11-19 19:00","1960","11","19","19:00","5.6","","0.6","","70","","20","","10","","24.1","","99.90","","","","","","Cloudy"
"1960-11-19 20:00","1960","11","19","20:00","5.6","","1.1","","73","","20","","10","","24.1","","99.85","","","","","","Cloudy"
"1960-11-19 21:00","1960","11","19","21:00","6.1","","3.9","","84","","20","","13","","24.1","","99.79","","","","","","Cloudy"
"1960-11-19 22:00","1960","11","19","22:00","5.6","","3.3","","86","","23","","19","","24.1","","99.79","","","","","","Mostly Cloudy"
"1960-11-19 23:00","1960","11","19","23:00","4.4","","1.7","","83","","23","","23","","24.1","","99.75","","","","","","Cloudy"
"1960-11-20 00:00","1960","11","20","00:00","3.3","","1.7","","87","","23","","11","","19.3","","99.77","","","","","","Mainly Clear"
"1960-11-20 01:00","1960","11","20","01:00","3.3","","1.7","","87","","23","","13","","16.1","","99.74","","","","","","Mainly Clear"
"1960-11-20 02:00","1960","11","20","02:00","3.9","","2.2","","88","","23","","19","","16.1","","99.71","","","","","","Cloudy"
"1960-11-20 03:00","1960","11","20","03:00","3.9","","1.7","","85","","23","","16","","16.1","","99.71","","","","","","Cloudy"
"1960-11-20 04:00","1960","11","20","04:00","4.4","","2.2","","85","","25","","29","","16.1","","99.64","","","","","","Cloudy"
"1960-11-20 05:00","1960","11","20","05:00","5.0","","2.8","","86","","27","","16","","16.1","","99.66","","","","","","Cloudy"
"1960-11-20 06:00","1960","11","20","06:00","4.4","","2.2","","85","","25","","19","","16.1","","99.69","","","","","","Cloudy"
"1960-11-20 07:00","1960","11","20","07:00","4.4","","2.8","","88","","25","","16","","8.0","","99.72","","","","","","Fog"
"1960-11-20 08:00","1960","11","20","08:00","4.4","","2.8","","88","","25","","13","","3.2","","99.78","","","","","","Fog"
"1960-11-20 09:00","1960","11","20","09:00","6.1","","3.9","","84","","23","","11","","3.2","","99.78","","","","","","Fog"
"1960-11-20 10:00","1960","11","20","10:00","6.1","","3.3","","82","","25","","13","","3.2","","99.80","","","","","","Haze"
"1960-11-20 11:00","1960","11","20","11:00","7.2","","3.3","","76","","25","","19","","3.2","","99.80","","","","","","Haze"
"1960-11-20 12:00","1960","11","20","12:00","8.9","","3.9","","70","","25","","23","","6.4","","99.78","","","","","","Haze"
"1960-11-20 13:00","1960","11","20","13:00","9.4","","3.3","","65","","25","","19","","8.0","","99.68","","","","","","Haze"
"1960-11-20 14:00","1960","11","20","14:00","10.0","","3.3","","62","","25","","23","","12.9","","99.66","","","","","","Mostly Cloudy"
"1960-11-20 15:00","1960","11","20","15:00","10.0","","3.3","","64","","23","","23","","12.9","","99.60","","","","","","Mostly Cloudy"
"1960-11-20 16:00","1960","11","20","16:00","10.6","","4.4","","65","","23","","24","","12.9","","99.60","","","","","","Mostly Cloudy"
"1960-11-20 17:00","1960","11","20","17:00","6.7","","2.8","","76","","25","","16","","11.3","","99.66","","","","","","Mostly Cloudy"
"1960-11-20 18:00","1960","11","20","18:00","6.7","","2.8","","76","","23","","16","","12.9","","99.68","","","","","","Mostly Cloudy"
"1960-11-20 19:00","1960","11","20","19:00","5.6","","2.2","","79","","20","","13","","19.3","","99.67","","","","","","Cloudy"
"1960-11-20 20:00","1960","11","20","20:00","5.0","","2.2","","81","","","","0","","24.1","","99.68","","","","","","Mostly Cloudy"
"1960-11-20 21:00","1960","11","20","21:00","4.4","","1.7","","81","","","","0","","24.1","","99.70","","","","","","Mostly Cloudy"
"1960-11-20 22:00","1960","11","20","22:00","4.4","","1.7","","81","","25","","11","","24.1","","99.68","","","","","","Mostly Cloudy"
"1960-11-20 23:00","1960","11","20","23:00","5.0","","1.7","","79","","25","","8","","24.1","","99.63","","","","","","Mainly Clear"
"1960-11-21 00:00","1960","11","21","00:00","3.9","","1.1","","83","","","","0","","24.1","","99.62","","","","","","Mainly Clear"
"1960-11-21 01:00","1960","11","21","01:00","3.3","","0.6","","82","","23","","6","","16.1","","99.52","","","","","","Clear"
"1960-11-21 02:00","1960","11","21","02:00","2.8","","1.1","","90","","25","","5","","11.3","","99.51","","","","","","Clear"
"1960-11-21 03:00","1960","11","21","03:00","1.7","","0.6","","92","","","","0","","4.8","","99.55","","","","","","Fog"
"1960-11-21 04:00","1960","11","21","04:00","2.2","","1.1","","92","","25","","8","","3.6","","99.51","","","","","","Fog"
"1960-11-21 05:00","1960","11","21","05:00","2.2","","1.1","","92","","20","","3","","3.6","","99.49","","","","","","Fog"
"1960-11-21 06:00","1960","11","21","06:00","1.7","","1.1","","94","","25","","5","","4.8","","99.47","","","","","","Fog"
"1960-11-21 07:00","1960","11","21","07:00","-1.1","","-1.7","","95","","","","0","","3.2","","99.48","","","","","","Fog"
"1960-11-21 08:00","1960","11","21","08:00","1.7","","1.1","","94","","25","","16","","3.2","","99.49","","","","","","Fog"
"1960-11-21 09:00","1960","11","21","09:00","3.3","","1.1","","85","","25","","19","","4.8","","99.55","","","","","","Fog"
"1960-11-21 10:00","1960","11","21","10:00","4.4","","1.7","","81","","23","","19","","6.4","","99.54","","","","","","Haze"
"1960-11-21 11:00","1960","11","21","11:00","5.6","","1.7","","75","","23","","19","","6.4","","99.54","","","","","","Haze"
"1960-11-21 12:00","1960","11","21","12:00","7.8","","1.7","","65","","25","","19","","11.3","","99.49","","","","","","Mostly Cloudy"
"1960-11-21 13:00","1960","11","21","13:00","8.9","","2.8","","64","","23","","14","","19.3","","99.41","","","","","","Mostly Cloudy"
"1960-11-21 14:00","1960","11","21","14:00","11.1","","-1.1","","43","","25","","27","","25.0","","99.33","","","","","","Mostly Cloudy"
"1960-11-21 15:00","1960","11","21","15:00","11.7","","-1.1","","41","","25","","32","","25.0","","99.31","","","","","","Mostly Cloudy"
"1960-11-21 16:00","1960","11","21","16:00","11.7","","-0.6","","43","","25","","37","","25.0","","99.36","","","","","","Mainly Clear"
"1960-11-21 17:00","1960","11","21","17:00","8.9","","0.6","","55","","25","","32","","25.0","","99.40","","","","","","Mostly Cloudy"
"1960-11-21 18:00","1960","11","21","18:00","7.2","","0.0","","60","","23","","23","","25.0","","99.43","","","","","","Mainly Clear"
"1960-11-21 19:00","1960","11","21","19:00","5.6","","-0.6","","66","","23","","14","","25.0","","99.44","","","","","","Mainly Clear"
"1960-11-21 20:00","1960","11","21","20:00","6.1","","1.1","","69","","23","","24","","25.0","","99.47","","","","","","Mainly Clear"
"1960-11-21 21:00","1960","11","21","21:00","5.6","","1.7","","77","","23","","18","","25.0","","99.47","","","","","","Mainly Clear"
"1960-11-21 22:00","1960","11","21","22:00","3.9","","0.6","","78","","25","","14","","25.0","","99.47","","","","","","Clear"
"1960-11-21 23:00","1960","11","21","23:00","3.3","","-1.1","","72","","25","","8","","19.3","","99.47","","","","","","Clear"
"1960-11-22 00:00","1960","11","22","00:00","2.8","","-1.1","","74","","23","","8","","19.3","","99.46","","","","","","Clear"
"1960-11-22 01:00","1960","11","22","01:00","2.8","","-2.8","","67","","14","","5","","19.3","","99.47","","","","","","Clear"
"1960-11-22 02:00","1960","11","22","02:00","2.2","","-0.6","","81","","23","","6","","16.1","","99.51","","","","","","Clear"
"1960-11-22 03:00","1960","11","22","03:00","1.7","","-0.6","","86","","20","","8","","12.9","","99.50","","","","","","Clear"
"1960-11-22 04:00","1960","11","22","04:00","2.2","","1.7","","95","","14","","8","","4.0","","99.47","","","","","","Fog"
"1960-11-22 05:00","1960","11","22","05:00","1.1","","0.6","","97","","18","","5","","2.4","","99.45","","","","","","Fog"
"1960-11-22 06:00","1960","11","22","06:00","-0.6","","-1.1","","97","","14","","5","","9.7","","99.43","","","","-2","","Fog"
"1960-11-22 07:00","1960","11","22","07:00","1.7","","1.1","","94","","18","","8","","4.8","","99.43","","","","","","Fog"
"1960-11-22 08:00","1960","11","22","08:00","2.2","","1.7","","95","","23","","24","","3.2","","99.40","","","","","","Fog"
"1960-11-22 09:00","1960","11","22","09:00","3.3","","1.7","","90","","23","","35","","4.0","","99.44","","","","","","Fog"
"1960-11-22 10:00","1960","11","22","10:00","5.6","","2.2","","79","","25","","26","","4.8","","99.46","","","","","","Haze"
"1960-11-22 11:00","1960","11","22","11:00","7.2","","2.8","","72","","23","","23","","6.4","","99.42","","","","","","Haze"
"1960-11-22 12:00","1960","11","22","12:00","11.1","","4.4","","64","","20","","23","","8.0","","99.31","","","","","","Haze"
"1960-11-22 13:00","1960","11","22","13:00","12.2","","5.6","","65","","23","","23","","12.9","","99.27","","","","","","Mostly Cloudy"
"1960-11-22 14:00","1960","11","22","14:00","12.8","","6.7","","64","","20","","26","","9.7","","99.22","","","","","","Haze"
"1960-11-22 15:00","1960","11","22","15:00","13.3","","6.7","","64","","20","","19","","11.3","","99.17","","","","","","Mostly Cloudy"
"1960-11-22 16:00","1960","11","22","16:00","12.8","","6.1","","64","","20","","24","","12.9","","99.18","","","","","","Mostly Cloudy"
"1960-11-22 17:00","1960","11","22","17:00","11.1","","6.1","","70","","20","","23","","12.9","","99.18","","","","","","Mainly Clear"
"1960-11-22 18:00","1960","11","22","18:00","10.0","","5.6","","75","","23","","24","","12.9","","99.20","","","","","","Mainly Clear"
"1960-11-22 19:00","1960","11","22","19:00","10.0","","5.6","","73","","23","","16","","12.9","","99.20","","","","","","Mostly Cloudy"
"1960-11-22 20:00","1960","11","22","20:00","10.6","","6.1","","74","","23","","19","","16.1","","99.20","","","","","","Cloudy"
"1960-11-22 21:00","1960","11","22","21:00","11.1","","6.1","","70","","20","","16","","16.1","","99.18","","","","","","Cloudy"
"1960-11-22 22:00","1960","11","22","22:00","11.1","","7.2","","78","","25","","29","","24.1","","99.15","","","","","","Rain Showers"
"1960-11-22 23:00","1960","11","22","23:00","10.0","","7.8","","86","","27","","26","","19.3","","99.18","","","","","","Rain Showers"
"1960-11-23 00:00","1960","11","23","00:00","7.2","","3.9","","78","","34","","39","","24.1","","99.40","","","","","","Rain Showers"
"1960-11-23 01:00","1960","11","23","01:00","5.6","","1.1","","73","","34","","23","","25.0","","99.47","","","","","","Cloudy"
"1960-11-23 02:00","1960","11","23","02:00","5.6","","1.1","","73","","32","","27","","25.0","","99.56","","","","","","Cloudy"
"1960-11-23 03:00","1960","11","23","03:00","5.6","","0.0","","68","","32","","27","","25.0","","99.67","","","","","","Cloudy"
"1960-11-23 04:00","1960","11","23","04:00","3.9","","-1.1","","71","","32","","27","","25.0","","99.80","","","","","","Mainly Clear"
"1960-11-23 05:00","1960","11","23","05:00","3.3","","-2.8","","65","","32","","26","","25.0","","99.93","","","","","","Clear"
"1960-11-23 06:00","1960","11","23","06:00","2.2","","-3.3","","66","","32","","23","","25.0","","100.04","","","","","","Clear"
"1960-11-23 07:00","1960","11","23","07:00","1.7","","-2.8","","72","","32","","18","","25.0","","100.13","","","","","","Clear"
"1960-11-23 08:00","1960","11","23","08:00","1.1","","-3.3","","71","","32","","13","","25.0","","100.24","","","","","","Clear"
"1960-11-23 09:00","1960","11","23","09:00","3.9","","-2.8","","61","","32","","21","","25.0","","100.33","","","","","","Mainly Clear"
"1960-11-23 10:00","1960","11","23","10:00","5.0","","-3.3","","54","","32","","29","","25.0","","100.38","","","","","","Mainly Clear"
"1960-11-23 11:00","1960","11","23","11:00","5.6","","-3.3","","53","","32","","24","","25.0","","100.46","","","","","","Mainly Clear"
"1960-11-23 12:00","1960","11","23","12:00","6.7","","-2.8","","51","","29","","24","","25.0","","100.41","","","","","","Mainly Clear"
"1960-11-23 13:00","1960","11","23","13:00","6.7","","-2.8","","51","","29","","24","","25.0","","100.40","","","","","","Mainly Clear"
"1960-11-23 14:00","1960","11","23","14:00","7.2","","-3.9","","44","","27","","26","","25.0","","100.39","","","","","","Mainly Clear"
"1960-11-23 15:00","1960","11","23","15:00","7.2","","-3.9","","44","","27","","24","","25.0","","100.38","","","","","","Mainly Clear"
"1960-11-23 16:00","1960","11","23","16:00","7.2","","-4.4","","42","","27","","26","","25.0","","100.38","","","","","","Mainly Clear"
"1960-11-23 17:00","1960","11","23","17:00","3.9","","-5.6","","50","","27","","19","","25.0","","100.46","","","","","","Clear"
"1960-11-23 18:00","1960","11","23","18:00","3.3","","-5.6","","53","","27","","10","","25.0","","100.51","","","","","","Clear"
"1960-11-23 19:00","1960","11","23","19:00","2.8","","-5.6","","55","","25","","10","","25.0","","100.54","","","","","","Clear"
"1960-11-23 20:00","1960","11","23","20:00","1.7","","-5.0","","62","","27","","11","","25.0","","100.56","","","","","","Clear"
"1960-11-23 21:00","1960","11","23","21:00","0.6","","-3.9","","73","","27","","13","","25.0","","100.54","","","","","","Clear"
"1960-11-23 22:00","1960","11","23","22:00","0.0","","-3.9","","74","","25","","11","","25.0","","100.54","","","","-4","","Clear"
"1960-11-23 23:00","1960","11","23","23:00","-0.6","","-3.9","","79","","25","","13","","25.0","","100.52","","","","-5","","Clear"
"1960-11-24 00:00","1960","11","24","00:00","-1.7","","-5.0","","78","","25","","13","","25.0","","100.54","","","","-6","","Clear"
"1960-11-24 01:00","1960","11","24","01:00","-0.6","","-5.0","","73","","25","","8","","25.0","","100.48","","","","-3","","Clear"
"1960-11-24 02:00","1960","11","24","02:00","-0.6","","-4.4","","76","","20","","5","","24.1","","100.46","","","","-2","","Mainly Clear"
"1960-11-24 03:00","1960","11","24","03:00","-0.6","","-3.3","","82","","18","","5","","24.1","","100.48","","","","-2","","Mainly Clear"
"1960-11-24 04:00","1960","11","24","04:00","-0.6","","-3.9","","79","","20","","5","","24.1","","100.45","","","","-2","","Mainly Clear"
"1960-11-24 05:00","1960","11","24","05:00","0.0","","-3.3","","77","","20","","5","","24.1","","100.44","","","","-2","","Mostly Cloudy"
"1960-11-24 06:00","1960","11","24","06:00","0.0","","-3.3","","80","","20","","6","","24.1","","100.38","","","","-2","","Cloudy"
"1960-11-24 07:00","1960","11","24","07:00","-0.6","","-2.8","","85","","","","0","","24.1","","100.41","","","","","","Mostly Cloudy"
"1960-11-24 08:00","1960","11","24","08:00","0.0","","-2.8","","83","","23","","5","","16.1","","100.40","","","","-2","","Mostly Cloudy"
"1960-11-24 09:00","1960","11","24","09:00","2.2","","-2.8","","68","","25","","19","","11.3","","100.36","","","","","","Mostly Cloudy"
"1960-11-24 10:00","1960","11","24","10:00","4.4","","-3.3","","58","","23","","16","","9.7","","100.30","","","","","","Haze"
"1960-11-24 11:00","1960","11","24","11:00","7.8","","-5.0","","40","","23","","39","","16.1","","100.21","","","","","","Mostly Cloudy"
"1960-11-24 12:00","1960","11","24","12:00","8.3","","-2.2","","47","","23","","40","","24.1","","100.06","","","","","","Mainly Clear"
"1960-11-24 13:00","1960","11","24","13:00","8.9","","-2.8","","44","","23","","24","","24.1","","100.01","","","","","","Mainly Clear"
"1960-11-24 14:00","1960","11","24","14:00","10.0","","-1.7","","45","","23","","24","","24.1","","99.92","","","","","","Mainly Clear"
"1960-11-24 15:00","1960","11","24","15:00","9.4","","-2.2","","43","","23","","24","","24.1","","99.90","","","","","","Mainly Clear"
"1960-11-24 16:00","1960","11","24","16:00","9.4","","-4.4","","37","","23","","24","","24.1","","99.88","","","","","","Mainly Clear"
"1960-11-24 17:00","1960","11","24","17:00","7.2","","-3.3","","46","","20","","16","","24.1","","99.84","","","","","","Mostly Cloudy"
"1960-11-24 18:00","1960","11","24","18:00","5.6","","-2.8","","55","","20","","14","","25.0","","99.81","","","","","","Cloudy"
"1960-11-24 19:00","1960","11","24","19:00","4.4","","-3.9","","55","","20","","16","","25.0","","99.75","","","","","","Cloudy"
"1960-11-24 20:00","1960","11","24","20:00","4.4","","-4.4","","53","","18","","8","","25.0","","99.71","","","","","","Mostly Cloudy"
"1960-11-24 21:00","1960","11","24","21:00","3.9","","-3.3","","59","","27","","6","","25.0","","99.73","","","","","","Mainly Clear"
"1960-11-24 22:00","1960","11","24","22:00","3.3","","-3.3","","63","","23","","11","","25.0","","99.66","","","","","","Cloudy"
"1960-11-24 23:00","1960","11","24","23:00","3.3","","-2.8","","65","","25","","19","","25.0","","99.62","","","","","","Cloudy"
"1960-11-25 00:00","1960","11","25","00:00","3.3","","-2.8","","65","","18","","5","","25.0","","99.56","","","","","","Cloudy"
"1960-11-25 01:00","1960","11","25","01:00","3.3","","-2.8","","65","","16","","11","","24.1","","99.50","","","","","","Cloudy"
"1960-11-25 02:00","1960","11","25","02:00","2.8","","-1.1","","74","","18","","8","","24.1","","99.50","","","","","","Cloudy"
"1960-11-25 03:00","1960","11","25","03:00","2.8","","-1.7","","72","","20","","10","","24.1","","99.50","","","","","","Cloudy"
"1960-11-25 04:00","1960","11","25","04:00","3.3","","-1.7","","70","","18","","10","","24.1","","99.46","","","","","","Cloudy"
"1960-11-25 05:00","1960","11","25","05:00","3.9","","-1.1","","71","","18","","10","","24.1","","99.42","","","","","","Cloudy"
"1960-11-25 06:00","1960","11","25","06:00","3.3","","0.0","","77","","23","","8","","24.1","","99.38","","","","","","Cloudy"
"1960-11-25 07:00","1960","11","25","07:00","3.9","","0.0","","75","","27","","3","","24.1","","99.40","","","","","","Mostly Cloudy"
"1960-11-25 08:00","1960","11","25","08:00","4.4","","-0.6","","71","","27","","6","","24.1","","99.44","","","","","","Mostly Cloudy"
"1960-11-25 09:00","1960","11","25","09:00","3.3","","0.0","","77","","23","","6","","8.0","","99.48","","","","","","Haze"
"1960-11-25 10:00","1960","11","25","10:00","6.1","","0.0","","65","","29","","14","","11.3","","99.53","","","","","","Mostly Cloudy"
"1960-11-25 11:00","1960","11","25","11:00","7.2","","0.0","","60","","25","","8","","12.9","","99.48","","","","","","Mostly Cloudy"
"1960-11-25 12:00","1960","11","25","12:00","8.3","","0.0","","56","","27","","8","","12.9","","99.43","","","","","","Mostly Cloudy"
"1960-11-25 13:00","1960","11","25","13:00","10.0","","1.1","","53","","23","","6","","12.9","","99.42","","","","","","Mostly Cloudy"
"1960-11-25 14:00","1960","11","25","14:00","11.1","","0.6","","48","","25","","10","","16.1","","99.42","","","","","","Mostly Cloudy"
"1960-11-25 15:00","1960","11","25","15:00","11.1","","-1.1","","43","","25","","18","","16.1","","99.42","","","","","","Mostly Cloudy"
"1960-11-25 16:00","1960","11","25","16:00","10.6","","0.0","","47","","25","","14","","12.9","","99.44","","","","","","Mostly Cloudy"
"1960-11-25 17:00","1960","11","25","17:00","8.9","","0.6","","55","","25","","11","","11.3","","99.45","","","","","","Mostly Cloudy"
"1960-11-25 18:00","1960","11","25","18:00","6.7","","0.6","","65","","25","","13","","16.1","","99.49","","","","","","Mainly Clear"
"1960-11-25 19:00","1960","11","25","19:00","5.0","","-0.6","","67","","23","","13","","19.3","","99.50","","","","","","Mainly Clear"
"1960-11-25 20:00","1960","11","25","20:00","5.0","","-0.6","","67","","20","","10","","24.1","","99.52","","","","","","Clear"
"1960-11-25 21:00","1960","11","25","21:00","4.4","","0.0","","74","","20","","10","","19.3","","99.54","","","","","","Mainly Clear"
"1960-11-25 22:00","1960","11","25","22:00","3.9","","0.6","","78","","23","","13","","19.3","","99.52","","","","","","Mainly Clear"
"1960-11-25 23:00","1960","11","25","23:00","3.3","","1.7","","90","","20","","10","","6.4","","99.52","","","","","","Fog"
"1960-11-26 00:00","1960","11","26","00:00","3.9","","2.8","","93","","18","","5","","1.2","","99.51","","","","","","Fog"
"1960-11-26 01:00","1960","11","26","01:00","4.4","","3.9","","98","","20","","16","","0.4","","99.49","","","","","","Fog"
"1960-11-26 02:00","1960","11","26","02:00","4.4","","3.9","","95","","18","","13","","1.2","","99.45","","","","","","Fog"
"1960-11-26 03:00","1960","11","26","03:00","4.4","","3.9","","95","","20","","14","","1.2","","99.47","","","","","","Fog"
"1960-11-26 04:00","1960","11","26","04:00","5.6","","4.4","","93","","18","","19","","1.6","","99.41","","","","","","Fog"
"1960-11-26 05:00","1960","11","26","05:00","5.6","","4.4","","93","","23","","21","","3.2","","99.40","","","","","","Fog"
"1960-11-26 06:00","1960","11","26","06:00","6.1","","5.0","","91","","23","","31","","4.8","","99.35","","","","","","Fog"
"1960-11-26 07:00","1960","11","26","07:00","6.7","","5.6","","91","","23","","29","","4.8","","99.35","","","","","","Fog"
"1960-11-26 08:00","1960","11","26","08:00","6.7","","5.6","","91","","23","","21","","2.4","","99.34","","","","","","Fog"
"1960-11-26 09:00","1960","11","26","09:00","7.2","","6.1","","93","","20","","24","","2.8","","99.32","","","","","","Fog"
"1960-11-26 10:00","1960","11","26","10:00","8.3","","7.2","","92","","23","","29","","3.2","","99.27","","","","","","Fog"
"1960-11-26 11:00","1960","11","26","11:00","10.0","","7.8","","86","","23","","29","","4.8","","99.22","","","","","","Haze"
"1960-11-26 12:00","1960","11","26","12:00","11.7","","8.3","","80","","23","","32","","9.7","","99.12","","","","","","Haze"
"1960-11-26 13:00","1960","11","26","13:00","13.9","","8.9","","71","","23","","35","","12.9","","99.08","","","","","","Mainly Clear"
"1960-11-26 14:00","1960","11","26","14:00","15.6","","8.9","","65","","23","","32","","16.1","","99.04","","","","","","Mainly Clear"
"1960-11-26 15:00","1960","11","26","15:00","15.6","","8.3","","62","","23","","26","","12.9","","98.98","","","","","","Mainly Clear"
"1960-11-26 16:00","1960","11","26","16:00","13.3","","8.3","","71","","20","","24","","12.9","","98.98","","","","","","Mostly Cloudy"
"1960-11-26 17:00","1960","11","26","17:00","11.7","","7.8","","76","","20","","23","","11.3","","98.98","","","","","","Mostly Cloudy"
"1960-11-26 18:00","1960","11","26","18:00","11.1","","7.8","","79","","20","","23","","12.9","","99.01","","","","","","Mostly Cloudy"
"1960-11-26 19:00","1960","11","26","19:00","11.7","","7.8","","78","","23","","29","","12.9","","99.01","","","","","","Cloudy"
"1960-11-26 20:00","1960","11","26","20:00","11.7","","7.8","","78","","23","","35","","12.9","","99.03","","","","","","Cloudy"
"1960-11-26 21:00","1960","11","26","21:00","11.7","","7.8","","78","","23","","29","","12.9","","99.04","","","","","","Cloudy"
"1960-11-26 22:00","1960","11","26","22:00","11.7","","7.2","","75","","23","","27","","16.1","","99.03","","","","","","Cloudy"
"1960-11-26 23:00","1960","11","26","23:00","11.7","","7.8","","76","","23","","32","","16.1","","99.00","","","","","","Cloudy"
"1960-11-27 00:00","1960","11","27","00:00","11.1","","7.8","","81","","23","","29","","16.1","","99.00","","","","","","Mainly Clear"
"1960-11-27 01:00","1960","11","27","01:00","10.6","","7.8","","83","","23","","23","","16.1","","99.02","","","","","","Mainly Clear"
"1960-11-27 02:00","1960","11","27","02:00","10.6","","7.2","","81","","23","","23","","16.1","","99.05","","","","","","Cloudy"
"1960-11-27 03:00","1960","11","27","03:00","10.6","","7.8","","83","","25","","21","","16.1","","99.09","","","","","","Cloudy"
"1960-11-27 04:00","1960","11","27","04:00","10.0","","7.2","","82","","25","","16","","16.1","","99.09","","","","","","Cloudy"
"1960-11-27 05:00","1960","11","27","05:00","10.0","","7.8","","86","","25","","13","","16.1","","99.13","","","","","","Cloudy"
"1960-11-27 06:00","1960","11","27","06:00","10.0","","7.2","","82","","23","","13","","16.1","","99.13","","","","","","Cloudy"
"1960-11-27 07:00","1960","11","27","07:00","10.0","","7.8","","86","","20","","8","","16.1","","99.16","","","","","","Cloudy"
"1960-11-27 08:00","1960","11","27","08:00","10.0","","7.8","","86","","20","","10","","4.8","","99.22","","","","","","Haze"
"1960-11-27 09:00","1960","11","27","09:00","10.0","","7.8","","86","","23","","11","","6.4","","99.23","","","","","","Haze"
"1960-11-27 10:00","1960","11","27","10:00","10.6","","8.3","","87","","","","0","","6.4","","99.23","","","","","","Haze"
"1960-11-27 11:00","1960","11","27","11:00","11.1","","8.9","","85","","","","0","","6.4","","99.22","","","","","","Haze"
"1960-11-27 12:00","1960","11","27","12:00","11.7","","8.3","","83","","","","0","","6.4","","99.18","","","","","","Haze"
"1960-11-27 13:00","1960","11","27","13:00","11.7","","8.9","","82","","23","","6","","8.0","","99.18","","","","","","Haze"
"1960-11-27 14:00","1960","11","27","14:00","12.2","","8.9","","80","","","","0","","6.4","","99.16","","","","","","Haze"
"1960-11-27 15:00","1960","11","27","15:00","11.7","","8.9","","82","","","","0","","6.4","","99.17","","","","","","Haze"
"1960-11-27 16:00","1960","11","27","16:00","11.1","","10.0","","92","","","","0","","1.6","","99.22","","","","","","Rain,Drizzle,Fog"
"1960-11-27 17:00","1960","11","27","17:00","10.6","","9.4","","94","","","","0","","1.6","","99.26","","","","","","Fog"
"1960-11-27 18:00","1960","11","27","18:00","10.0","","9.4","","96","","","","0","","2.4","","99.37","","","","","","Fog"
"1960-11-27 19:00","1960","11","27","19:00","10.6","","10.0","","98","","","","0","","2.0","","99.35","","","","","","Fog"
"1960-11-27 20:00","1960","11","27","20:00","10.0","","9.4","","98","","","","0","","1.2","","99.38","","","","","","Fog,Smoke"
"1960-11-27 21:00","1960","11","27","21:00","10.6","","10.0","","98","","","","0","","1.2","","99.45","","","","","","Fog,Smoke"
"1960-11-27 22:00","1960","11","27","22:00","10.0","","9.4","","98","","","","0","","0.8","","99.53","","","","","","Fog"
"1960-11-27 23:00","1960","11","27","23:00","8.3","","7.8","","98","","9","","16","","0.8","","99.57","","","","","","Rain,Drizzle,Fog"
"1960-11-28 00:00","1960","11","28","00:00","6.7","","6.7","","100","","9","","14","","1.6","","99.65","","","","","","Drizzle,Fog"
"1960-11-28 01:00","1960","11","28","01:00","6.1","","5.6","","98","","7","","19","","1.6","","99.60","","","","","","Drizzle,Fog"
"1960-11-28 02:00","1960","11","28","02:00","5.0","","4.4","","98","","7","","23","","4.8","","99.67","","","","","","Drizzle,Fog"
"1960-11-28 03:00","1960","11","28","03:00","4.4","","4.4","","100","","7","","26","","3.2","","99.76","","","","","","Drizzle,Fog"
"1960-11-28 04:00","1960","11","28","04:00","3.9","","3.3","","97","","7","","19","","3.2","","99.78","","","","","","Drizzle,Fog"
"1960-11-28 05:00","1960","11","28","05:00","3.9","","3.9","","100","","7","","16","","3.2","","99.87","","","","","","Drizzle,Fog"
"1960-11-28 06:00","1960","11","28","06:00","3.3","","3.3","","100","","9","","19","","4.8","","99.87","","","","","","Drizzle,Fog"
"1960-11-28 07:00","1960","11","28","07:00","2.8","","2.2","","97","","9","","29","","4.8","","99.89","","","","","","Drizzle,Fog"
"1960-11-28 08:00","1960","11","28","08:00","2.8","","2.2","","97","","7","","24","","3.2","","99.90","","","","","","Drizzle,Fog"
"1960-11-28 09:00","1960","11","28","09:00","2.2","","1.7","","97","","11","","27","","2.8","","99.94","","","","","","Drizzle,Fog"
"1960-11-28 10:00","1960","11","28","10:00","1.7","","1.1","","97","","7","","19","","3.6","","99.91","","","","","","Rain,Drizzle,Fog"
"1960-11-28 11:00","1960","11","28","11:00","1.7","","1.1","","97","","9","","24","","6.4","","99.87","","","","","","Rain,Fog"
"1960-11-28 12:00","1960","11","28","12:00","1.7","","1.1","","97","","9","","21","","2.4","","99.73","","","","","","Drizzle,Fog"
"1960-11-28 13:00","1960","11","28","13:00","1.7","","1.1","","97","","11","","16","","4.8","","99.61","","","","","","Drizzle,Fog"
"1960-11-28 14:00","1960","11","28","14:00","1.7","","1.1","","97","","9","","19","","4.8","","99.54","","","","","","Fog"
"1960-11-28 15:00","1960","11","28","15:00","1.7","","1.1","","97","","9","","19","","4.0","","99.34","","","","","","Fog"
"1960-11-28 16:00","1960","11","28","16:00","2.2","","1.7","","97","","9","","14","","1.0","","99.34","","","","","","Fog"
"1960-11-28 17:00","1960","11","28","17:00","2.2","","1.7","","97","","9","","19","","0.2","","99.24","","","","","","Fog"
"1960-11-28 18:00","1960","11","28","18:00","2.8","","2.2","","97","","11","","13","","0.2","","99.10","","","","","","Fog"
"1960-11-28 19:00","1960","11","28","19:00","2.8","","2.2","","97","","11","","21","","0.2","","99.00","","","","","","Fog"
"1960-11-28 20:00","1960","11","28","20:00","3.9","","3.3","","97","","9","","16","","2.0","","98.87","","","","","","Rain Showers,Fog"
"1960-11-28 21:00","1960","11","28","21:00","5.0","","4.4","","98","","11","","16","","1.2","","98.70","","","","","","Rain Showers,Fog"
"1960-11-28 22:00","1960","11","28","22:00","6.1","","5.6","","98","","9","","18","","1.2","","98.59","","","","","","Rain Showers,Fog"
"1960-11-28 23:00","1960","11","28","23:00","6.7","","6.1","","98","","11","","8","","0.6","","98.43","","","","","","Fog"
"1960-11-29 00:00","1960","11","29","00:00","8.3","","7.8","","98","","14","","18","","6.4","","98.29","","","","","","Rain Showers,Fog"
"1960-11-29 01:00","1960","11","29","01:00","8.9","","8.9","","100","","16","","16","","6.4","","98.14","","","","","","Fog"
"1960-11-29 02:00","1960","11","29","02:00","9.4","","8.3","","94","","16","","13","","16.1","","98.07","","","","","","Cloudy"
"1960-11-29 03:00","1960","11","29","03:00","13.9","","12.8","","93","","20","","48","","25.0","","98.02","","","","","","Rain Showers"
"1960-11-29 04:00","1960","11","29","04:00","13.9","","12.2","","91","","20","","24","","25.0","","97.98","","","","","","Rain Showers"
"1960-11-29 05:00","1960","11","29","05:00","11.7","","7.2","","75","","25","","26","","25.0","","98.02","","","","","","Mainly Clear"
"1960-11-29 06:00","1960","11","29","06:00","10.6","","5.6","","70","","23","","40","","25.0","","97.96","","","","","","Mainly Clear"
"1960-11-29 07:00","1960","11","29","07:00","8.9","","4.4","","74","","25","","32","","25.0","","98.08","","","","","","Mostly Cloudy"
"1960-11-29 08:00","1960","11","29","08:00","6.1","","0.6","","67","","23","","32","","25.0","","98.12","","","","","","Mainly Clear"
"1960-11-29 09:00","1960","11","29","09:00","4.4","","-0.6","","69","","25","","35","","24.1","","98.22","","","","","","Mainly Clear"
"1960-11-29 10:00","1960","11","29","10:00","3.9","","-1.1","","71","","25","","32","","24.1","","98.31","","","","","","Mostly Cloudy"
"1960-11-29 11:00","1960","11","29","11:00","2.8","","-1.7","","72","","25","","34","","24.1","","98.35","","","","","","Cloudy"
"1960-11-29 12:00","1960","11","29","12:00","2.2","","-2.2","","74","","25","","29","","19.3","","98.34","","","","","","Mostly Cloudy"
"1960-11-29 13:00","1960","11","29","13:00","2.8","","-2.2","","69","","25","","37","","16.1","","98.31","","","","","","Mostly Cloudy"
"1960-11-29 14:00","1960","11","29","14:00","2.2","","-3.3","","66","","25","","39","","19.3","","98.29","","","","","","Mostly Cloudy"
"1960-11-29 15:00","1960","11","29","15:00","1.7","","-3.3","","70","","23","","40","","24.1","","98.33","","","","","","Mostly Cloudy"
"1960-11-29 16:00","1960","11","29","16:00","0.6","","-3.3","","75","","23","","40","","19.3","","98.40","","","","","","Snow Showers"
"1960-11-29 17:00","1960","11","29","17:00","0.0","","-4.4","","71","","23","","27","","19.3","","98.44","","","","-6","","Snow Showers"
"1960-11-29 18:00","1960","11","29","18:00","-0.6","","-5.6","","70","","23","","32","","24.1","","98.44","","","","-7","","Snow Showers"
"1960-11-29 19:00","1960","11","29","19:00","-0.6","","-5.6","","67","","23","","37","","19.3","","98.43","","","","-8","","Snow Showers"
"1960-11-29 20:00","1960","11","29","20:00","-1.1","","-6.1","","68","","23","","40","","24.1","","98.41","","","","-9","","Snow Showers"
"1960-11-29 21:00","1960","11","29","21:00","-1.1","","-5.0","","74","","25","","39","","24.1","","98.37","","","","-9","","Snow Showers"
"1960-11-29 22:00","1960","11","29","22:00","-1.1","","-5.6","","73","","23","","39","","24.1","","98.31","","","","-9","","Snow Showers"
"1960-11-29 23:00","1960","11","29","23:00","-2.2","","-6.1","","75","","23","","39","","19.3","","98.32","","","","-10","","Snow Showers"
"1960-11-30 00:00","1960","11","30","00:00","-2.8","","-6.1","","77","","23","","37","","24.1","","98.26","","","","-11","","Cloudy"
"1960-11-30 01:00","1960","11","30","01:00","-2.8","","-7.2","","72","","25","","34","","25.0","","98.18","","","","-11","","Cloudy"
"1960-11-30 02:00","1960","11","30","02:00","-3.9","","-7.8","","76","","27","","32","","25.0","","98.16","","","","-12","","Mostly Cloudy"
"1960-11-30 03:00","1960","11","30","03:00","-3.9","","-5.6","","87","","23","","34","","19.3","","98.10","","","","-12","","Snow Showers"
"1960-11-30 04:00","1960","11","30","04:00","-3.9","","-6.1","","84","","23","","32","","9.7","","98.01","","","","-12","","Snow Showers"
"1960-11-30 05:00","1960","11","30","05:00","-3.9","","-6.1","","84","","25","","34","","25.0","","97.98","","","","-12","","Snow Showers"
"1960-11-30 06:00","1960","11","30","06:00","-3.9","","-6.1","","84","","25","","39","","25.0","","97.94","","","","-13","","Snow Showers"
"1960-11-30 07:00","1960","11","30","07:00","-3.3","","-5.6","","84","","25","","39","","25.0","","97.91","","","","-12","","Mainly Clear"
"1960-11-30 08:00","1960","11","30","08:00","-2.8","","-3.9","","91","","25","","42","","6.4","","97.87","","","","-11","","Snow Showers"
"1960-11-30 09:00","1960","11","30","09:00","-0.6","","-3.9","","79","","25","","31","","25.0","","97.97","","","","-7","","Mostly Cloudy"
"1960-11-30 10:00","1960","11","30","10:00","0.0","","-3.9","","74","","27","","39","","25.0","","98.05","","","","-7","","Mostly Cloudy"
"1960-11-30 11:00","1960","11","30","11:00","0.6","","-5.0","","67","","29","","42","","25.0","","98.13","","","","","","Mostly Cloudy"
"1960-11-30 12:00","1960","11","30","12:00","-0.6","","-3.9","","79","","29","","43","","25.0","","98.19","","","","-8","","Snow Showers"
"1960-11-30 13:00","1960","11","30","13:00","0.0","","-6.7","","60","","29","","42","","25.0","","98.25","","","","-8","","Mostly Cloudy"
"1960-11-30 14:00","1960","11","30","14:00","-0.6","","-7.2","","62","","29","","37","","25.0","","98.33","","","","-8","","Mostly Cloudy"
"1960-11-30 15:00","1960","11","30","15:00","-0.6","","-6.7","","65","","27","","37","","25.0","","98.41","","","","-8","","Mostly Cloudy"
"1960-11-30 16:00","1960","11","30","16:00","-1.1","","-7.2","","63","","29","","34","","25.0","","98.54","","","","-8","","Mostly Cloudy"
"1960-11-30 17:00","1960","11","30","17:00","-2.2","","-7.2","","69","","27","","27","","25.0","","98.63","","","","-9","","Mainly Clear"
"1960-11-30 18:00","1960","11","30","18:00","-2.8","","-7.2","","71","","29","","32","","25.0","","98.73","","","","-10","","Mostly Cloudy"
"1960-11-30 19:00","1960","11","30","19:00","-2.8","","-7.8","","68","","29","","34","","24.1","","98.80","","","","-11","","Mostly Cloudy"
"1960-11-30 20:00","1960","11","30","20:00","-2.8","","-4.4","","89","","29","","31","","1.6","","98.92","","","","-10","","Snow"
"1960-11-30 21:00","1960","11","30","21:00","-3.9","","-4.4","","94","","29","","21","","0.6","","99.03","","","","-10","","Moderate Snow"
"1960-11-30 22:00","1960","11","30","22:00","-3.9","","-4.4","","94","","29","","21","","0.8","","99.13","","","","-10","","Moderate Snow"
"1960-11-30 23:00","1960","11","30","23:00","-4.4","","-5.6","","91","","34","","26","","9.7","","99.24","","","","-12","","Moderate Snow,Blowing Snow"
