"Station Name","TORONTO INTL A"
"Province","ONTARIO"
"Latitude","43.68"
"Longitude","-79.63"
"Elevation","173.40"
"Climate Identifier","6158731"
"WMO Identifier","71624"
"TC Identifier","YYZ"
"All times are specified in Local Standard Time (LST). Add 1 hour to adjust for Daylight Saving Time where and when it is observed."

"Legend"
"E","Estimated"
"M","Missing"
"NA","Not Available"

"Date/Time","Year","Month","Day","Time","Temp (°C)","Temp Flag","Dew Point Temp (°C)","Dew Point Temp Flag","Rel Hum (%)","Rel Hum Flag","Wind Dir (10s deg)","Wind Dir Flag","Wind Spd (km/h)","Wind Spd Flag","Visibility (km)","Visibility Flag","Stn Press (kPa)","Stn Press Flag","Hmdx","Hmdx Flag","Wind Chill","Wind Chill Flag","Weather"
"2015-03-01 00:00","2015","03","01","00:00","-12.4","","-17.5","","66","","26","","4","","24.1","","101.52","","","","-15","","NA"
"2015-03-01 01:00","2015","03","01","01:00","-11.1","","-16.3","","66","","36","","2","","24.1","","101.39","","","","-12","","Cloudy"
"2015-03-01 02:00","2015","03","01","02:00","-11.7","","-16.5","","68","","28","","5","","24.1","","101.41","","","","-15","","NA"
"2015-03-01 03:00","2015","03","01","03:00","-10.7","","-15.2","","70","","32","","8","","24.1","","101.32","","","","-15","","NA"
"2015-03-01 04:00","2015","03","01","04:00","-10.6","","-14.6","","73","","3","","5","","24.1","","101.20","","","","-14","","Cloudy"
"2015-03-01 05:00","2015","03","01","05:00","-10.5","","-14.3","","74","","4","","5","","24.1","","101.12","","","","-14","","NA"
"2015-03-01 06:00","2015","03","01","06:00","-10.0","","-14.0","","73","","34","","4","","24.1","","101.05","","","","-12","","NA"
"2015-03-01 07:00","2015","03","01","07:00","-10.5","","-14.5","","73","","28","","9","","12.9","","100.99","","","","-15","","Cloudy"
"2015-03-01 08:00","2015","03","01","08:00","-9.4","","-13.1","","75","","28","","10","","9.7","","100.95","","","","-15","","Snow"
"2015-03-01 09:00","2015","03","01","09:00","-8.8","","-12.0","","78","","36","","1","","9.7","","100.88","","","","-9","","Snow"
"2015-03-01 10:00","2015","03","01","10:00","-7.4","","-11.4","","73","","29","","4","","19.3","","100.82","","","","-9","","Snow"
"2015-03-01 11:00","2015","03","01","11:00","-5.9","","-10.5","","70","","26","","4","","12.9","","100.73","","","","-8","","Snow"
"2015-03-01 12:00","2015","03","01","12:00","-4.9","","-9.9","","68","","19","","8","","19.3","","100.60","","","","-8","","NA"
"2015-03-01 13:00","2015","03","01","13:00","-4.0","","-9.3","","67","","24","","9","","19.3","","100.50","","","","-8","","Cloudy"
"2015-03-01 14:00","2015","03","01","14:00","-3.9","","-9.6","","65","","23","","12","","19.3","","100.37","","","","-9","","NA"
"2015-03-01 15:00","2015","03","01","15:00","-4.1","","-7.7","","76","","15","","10","","19.3","","100.28","","","","-8","","NA"
"2015-03-01 16:00","2015","03","01","16:00","-4.2","","-7.5","","78","","14","","8","","19.3","","100.24","","","","-8","","Cloudy"
"2015-03-01 17:00","2015","03","01","17:00","-4.0","","-7.0","","80","","15","","11","","19.3","","100.15","","","","-8","","NA"
"2015-03-01 18:00","2015","03","01","18:00","-3.8","","-8.1","","72","","25","","15","","19.3","","100.09","","","","-9","","NA"
"2015-03-01 19:00","2015","03","01","19:00","-4.1","","-8.8","","70","","27","","14","","24.1","","100.07","","","","-9","","Mostly Cloudy"
"2015-03-01 20:00","2015","03","01","20:00","-4.8","","-8.9","","73","","28","","21","","24.1","","100.04","","","","-11","","NA"
"2015-03-01 21:00","2015","03","01","21:00","-5.4","","-9.3","","74","","28","","16","","24.1","","100.04","","","","-11","","NA"
"2015-03-01 22:00","2015","03","01","22:00","-6.4","","-10.3","","74","","28","","16","","24.1","","99.99","","","","-13","","Mostly Cloudy"
"2015-03-01 23:00","2015","03","01","23:00","-6.8","","-11.0","","72","","29","","16","","24.1","","99.96","","","","-13","","NA"
"2015-03-02 00:00","2015","03","02","00:00","-7.0","","-10.9","","74","","27","","11","","24.1","","99.96","","","","-12","","NA"
"2015-03-02 01:00","2015","03","02","01:00","-7.0","","-10.5","","76","","25","","19","","24.1","","99.95","","","","-14","","Cloudy"
"2015-03-02 02:00","2015","03","02","02:00","-7.1","","-10.3","","78","","24","","13","","24.1","","99.94","","","","-13","","NA"
"2015-03-02 03:00","2015","03","02","03:00","-6.9","","-10.1","","78","","25","","17","","24.1","","99.92","","","","-13","","NA"
"2015-03-02 04:00","2015","03","02","04:00","-7.6","","-10.6","","79","","26","","14","","24.1","","99.88","","","","-14","","Mainly Clear"
"2015-03-02 05:00","2015","03","02","05:00","-7.8","","-10.5","","81","","26","","14","","24.1","","99.91","","","","-14","","NA"
"2015-03-02 06:00","2015","03","02","06:00","-7.3","","-10.0","","81","","26","","22","","24.1","","99.99","","","","-15","","NA"
"2015-03-02 07:00","2015","03","02","07:00","-8.0","","-10.7","","81","","25","","21","","19.3","","100.07","","","","-16","","Clear"
"2015-03-02 08:00","2015","03","02","08:00","-6.0","","-9.2","","78","","28","","22","","24.1","","100.19","","","","-13","","NA"
"2015-03-02 09:00","2015","03","02","09:00","-4.7","","-10.1","","66","","29","","39","","24.1","","100.27","","","","-14","","NA"
"2015-03-02 10:00","2015","03","02","10:00","-3.9","","-10.4","","61","","30","","39","","24.1","","100.33","","","","-13","","Mainly Clear"
"2015-03-02 11:00","2015","03","02","11:00","-3.5","","-10.9","","57","","29","","45","","24.1","","100.40","","","","-13","","NA"
"2015-03-02 12:00","2015","03","02","12:00","-3.3","","-10.7","","57","","28","","40","","24.1","","100.49","","","","-12","","NA"
"2015-03-02 13:00","2015","03","02","13:00","-2.6","","-10.2","","56","","29","","34","","24.1","","100.52","","","","-10","","Mostly Cloudy"
"2015-03-02 14:00","2015","03","02","14:00","-3.3","","-13.1","","47","","30","","39","","24.1","","100.57","","","","-12","","NA"
"2015-03-02 15:00","2015","03","02","15:00","-3.7","","-14.3","","44","","29","","40","","24.1","","100.65","","","","-12","","NA"
"2015-03-02 16:00","2015","03","02","16:00","-4.0","","-13.2","","49","","29","","33","","24.1","","100.73","","","","-12","","Clear"
"2015-03-02 17:00","2015","03","02","17:00","-4.7","","-13.4","","51","","30","","28","","24.1","","100.76","","","","-12","","NA"
"2015-03-02 18:00","2015","03","02","18:00","-5.7","","-12.9","","57","","29","","28","","24.1","","100.83","","","","-14","","NA"
"2015-03-02 19:00","2015","03","02","19:00","-6.2","","-12.8","","60","","30","","27","","24.1","","100.88","","","","-14","","Mainly Clear"
"2015-03-02 20:00","2015","03","02","20:00","-8.2","","-13.5","","66","","26","","9","","24.1","","100.91","","","","-13","","NA"
"2015-03-02 21:00","2015","03","02","21:00","-8.5","","-13.8","","66","","26","","10","","24.1","","100.91","","","","-13","","NA"
"2015-03-02 22:00","2015","03","02","22:00","-9.6","","-13.9","","71","","26","","8","","24.1","","100.86","","","","-14","","Clear"
"2015-03-02 23:00","2015","03","02","23:00","-8.9","","-13.6","","69","","23","","8","","24.1","","100.86","","","","-13","","NA"
"2015-03-03 00:00","2015","03","03","00:00","-10.2","","-14.3","","72","","24","","10","","24.1","","100.82","","","","-15","","NA"
"2015-03-03 01:00","2015","03","03","01:00","-11.7","","-15.5","","74","","27","","8","","24.1","","100.74","","","","-16","","Mainly Clear"
"2015-03-03 02:00","2015","03","03","02:00","-12.8","","-15.9","","78","","26","","9","","24.1","","100.75","","","","-18","","NA"
"2015-03-03 03:00","2015","03","03","03:00","-12.2","","-15.3","","78","","28","","5","","24.1","","100.67","","","","-15","","NA"
"2015-03-03 04:00","2015","03","03","04:00","-11.8","","-14.7","","79","","31","","6","","24.1","","100.64","","","","-16","","Mainly Clear"
"2015-03-03 05:00","2015","03","03","05:00","-11.9","","-14.8","","79","","34","","3","","24.1","","100.64","","","","-14","","NA"
"2015-03-03 06:00","2015","03","03","06:00","-12.2","","-15.1","","79","","36","","2","","24.1","","100.57","","","","-13","","NA"
"2015-03-03 07:00","2015","03","03","07:00","-8.8","","-12.5","","75","","18","","5","","24.1","","100.44","","","","-12","","Mostly Cloudy"
"2015-03-03 08:00","2015","03","03","08:00","-7.9","","-11.1","","78","","14","","7","","19.3","","100.31","","","","-12","","NA"
"2015-03-03 09:00","2015","03","03","09:00","-6.2","","-9.4","","78","","16","","6","","24.1","","100.26","","","","-9","","NA"
"2015-03-03 10:00","2015","03","03","10:00","-5.2","","-8.8","","76","","18","","12","","24.1","","100.15","","","","-10","","Cloudy"
"2015-03-03 11:00","2015","03","03","11:00","-5.4","","-9.7","","72","","16","","16","","3.2","","99.94","","","","-11","","Snow"
"2015-03-03 12:00","2015","03","03","12:00","-5.8","","-7.6","","87","","17","","17","","1.2","","99.75","","","","-12","","Snow"
"2015-03-03 13:00","2015","03","03","13:00","-5.9","","-7.6","","88","","14","","17","","1.0","","99.40","","","","-12","","Snow"
"2015-03-03 14:00","2015","03","03","14:00","-5.6","","-7.1","","89","","13","","18","","2.4","","99.09","","","","-12","","Snow"
"2015-03-03 15:00","2015","03","03","15:00","-5.4","","-6.9","","89","","12","","20","","3.2","","98.81","","","","-12","","Snow"
"2015-03-03 16:00","2015","03","03","16:00","-5.1","","-6.6","","89","","12","","17","","3.2","","98.53","","","","-11","","Snow"
"2015-03-03 17:00","2015","03","03","17:00","-4.1","","-5.2","","92","","13","","12","","3.2","","98.31","","","","-9","","Freezing Rain,Fog"
"2015-03-03 18:00","2015","03","03","18:00","-3.3","","-4.1","","94","","15","","15","","3.2","","98.11","","","","-8","","Freezing Rain,Fog"
"2015-03-03 19:00","2015","03","03","19:00","-3.0","","-3.7","","95","","15","","8","","4.0","","98.00","","","","-6","","Freezing Drizzle,Fog"
"2015-03-03 20:00","2015","03","03","20:00","-2.5","","-3.1","","96","","19","","6","","4.0","","98.01","","","","-5","","Freezing Drizzle,Fog"
"2015-03-03 21:00","2015","03","03","21:00","-2.1","","-2.8","","95","","19","","8","","8.1","","98.04","","","","-5","","Fog"
"2015-03-03 22:00","2015","03","03","22:00","0.7","","-1.9","","83","","26","","34","","16.1","","98.11","","","","","","Cloudy"
"2015-03-03 23:00","2015","03","03","23:00","0.6","","-2.5","","80","","28","","30","","19.3","","98.23","","","","","","NA"
"2015-03-04 00:00","2015","03","04","00:00","0.5","","-3.1","","77","","28","","25","","24.1","","98.33","","","","","","NA"
"2015-03-04 01:00","2015","03","04","01:00","0.2","","-3.5","","76","","28","","29","","24.1","","98.45","","","","","","Cloudy"
"2015-03-04 02:00","2015","03","04","02:00","0.0","","-4.3","","73","","28","","31","","24.1","","98.53","","","","-7","","NA"
"2015-03-04 03:00","2015","03","04","03:00","-0.2","","-4.3","","74","","26","","24","","24.1","","98.56","","","","-6","","NA"
"2015-03-04 04:00","2015","03","04","04:00","-0.7","","-4.6","","75","","28","","30","","24.1","","98.60","","","","-7","","Cloudy"
"2015-03-04 05:00","2015","03","04","05:00","-1.3","","-5.4","","74","","29","","24","","24.1","","98.72","","","","-7","","NA"
"2015-03-04 06:00","2015","03","04","06:00","-2.5","","-6.9","","72","","28","","14","","24.1","","98.82","","","","-7","","NA"
"2015-03-04 07:00","2015","03","04","07:00","-4.1","","-7.6","","77","","25","","15","","19.3","","98.85","","","","-9","","Mostly Cloudy"
"2015-03-04 08:00","2015","03","04","08:00","-2.9","","-6.4","","77","","25","","18","","19.3","","98.94","","","","-9","","NA"
"2015-03-04 09:00","2015","03","04","09:00","-2.0","","-5.9","","75","","25","","18","","19.3","","99.03","","","","-7","","NA"
"2015-03-04 10:00","2015","03","04","10:00","-0.6","","-5.6","","69","","25","","24","","19.3","","99.07","","","","-7","","Cloudy"
"2015-03-04 11:00","2015","03","04","11:00","-0.6","","-6.6","","64","","28","","20","","24.1","","99.09","","","","-6","","NA"
"2015-03-04 12:00","2015","03","04","12:00","-0.4","","-7.5","","59","","28","","28","","24.1","","99.05","","","","-7","","NA"
"2015-03-04 13:00","2015","03","04","13:00","0.0","","-7.5","","57","","27","","24","","24.1","","99.06","","","","-6","","Mostly Cloudy"
"2015-03-04 14:00","2015","03","04","14:00","-0.7","","-6.5","","65","","30","","27","","24.1","","99.11","","","","-7","","NA"
"2015-03-04 15:00","2015","03","04","15:00","-1.2","","-6.8","","66","","30","","20","","24.1","","99.12","","","","-7","","NA"
"2015-03-04 16:00","2015","03","04","16:00","-1.2","","-7.8","","61","","29","","27","","24.1","","99.17","","","","-8","","Cloudy"
"2015-03-04 17:00","2015","03","04","17:00","-1.8","","-7.9","","63","","30","","20","","24.1","","99.16","","","","-8","","NA"
"2015-03-04 18:00","2015","03","04","18:00","-2.6","","-8.7","","63","","30","","26","","24.1","","99.25","","","","-9","","NA"
"2015-03-04 19:00","2015","03","04","19:00","-3.2","","-8.9","","65","","31","","24","","24.1","","99.32","","","","-10","","Cloudy"
"2015-03-04 20:00","2015","03","04","20:00","-3.5","","-9.8","","62","","30","","24","","24.1","","99.40","","","","-10","","NA"
"2015-03-04 21:00","2015","03","04","21:00","-4.2","","-9.6","","66","","30","","25","","24.1","","99.49","","","","-11","","NA"
"2015-03-04 22:00","2015","03","04","22:00","-7.0","","-10.9","","74","","1","","31","","24.1","","99.59","","","","-16","","Cloudy"
"2015-03-04 23:00","2015","03","04","23:00","-8.2","","-13.3","","67","","33","","31","","24.1","","99.82","","","","-17","","NA"
"2015-03-05 00:00","2015","03","05","00:00","-9.9","","-15.7","","63","","34","","34","","24.1","","99.97","","","","-20","","NA"
"2015-03-05 01:00","2015","03","05","01:00","-10.8","","-18.6","","53","","33","","41","","24.1","","100.04","","","","-22","","Cloudy"
"2015-03-05 02:00","2015","03","05","02:00","-11.7","","-19.9","","51","","33","","26","","24.1","","100.22","","","","-21","","NA"
"2015-03-05 03:00","2015","03","05","03:00","-13.4","","-22.0","","49","","30","","26","","24.1","","100.29","","","","-23","","NA"
"2015-03-05 04:00","2015","03","05","04:00","-14.6","","-21.2","","58","","31","","27","","24.1","","100.30","","","","-25","","Mostly Cloudy"
"2015-03-05 05:00","2015","03","05","05:00","-15.2","","-21.3","","60","","31","","19","","24.1","","100.40","","","","-24","","NA"
"2015-03-05 06:00","2015","03","05","06:00","-15.6","","-21.1","","63","","30","","21","","24.1","","100.48","","","","-25","","NA"
"2015-03-05 07:00","2015","03","05","07:00","-15.8","","-21.3","","63","","31","","24","","24.1","","100.46","","","","-26","","Mostly Cloudy"
"2015-03-05 08:00","2015","03","05","08:00","-15.9","","-21.1","","65","","32","","21","","24.1","","100.49","","","","-26","","NA"
"2015-03-05 09:00","2015","03","05","09:00","-15.3","","-20.3","","66","","34","","25","","24.1","","100.56","","","","-26","","NA"
"2015-03-05 10:00","2015","03","05","10:00","-14.0","","-20.0","","61","","35","","22","","24.1","","100.55","","","","-23","","Mostly Cloudy"
"2015-03-05 11:00","2015","03","05","11:00","-12.9","","-19.3","","59","","32","","17","","24.1","","100.69","","","","-21","","NA"
"2015-03-05 12:00","2015","03","05","12:00","-11.8","","-18.9","","56","","35","","16","","24.1","","100.59","","","","-19","","NA"
"2015-03-05 13:00","2015","03","05","13:00","-11.0","","-20.3","","47","","35","","20","","24.1","","100.64","","","","-19","","Mostly Cloudy"
"2015-03-05 14:00","2015","03","05","14:00","-10.6","","-20.7","","44","","33","","10","","24.1","","100.60","","","","-16","","NA"
"2015-03-05 15:00","2015","03","05","15:00","-9.9","","-19.7","","45","","1","","17","","24.1","","100.59","","","","-17","","NA"
"2015-03-05 16:00","2015","03","05","16:00","-9.6","","-19.7","","44","","30","","18","","24.1","","100.64","","","","-17","","Mainly Clear"
"2015-03-05 17:00","2015","03","05","17:00","-10.0","","-19.6","","46","","30","","19","","24.1","","100.68","","","","-18","","NA"
"2015-03-05 18:00","2015","03","05","18:00","-11.3","","-20.3","","48","","36","","17","","24.1","","100.75","","","","-19","","NA"
"2015-03-05 19:00","2015","03","05","19:00","-12.4","","-21.1","","49","","35","","16","","24.1","","100.89","","","","-20","","Mainly Clear"
"2015-03-05 20:00","2015","03","05","20:00","-13.1","","-21.7","","49","","32","","9","","24.1","","100.97","","","","-19","","NA"
"2015-03-05 21:00","2015","03","05","21:00","-13.3","","-20.3","","56","","30","","18","","24.1","","101.02","","","","-22","","NA"
"2015-03-05 22:00","2015","03","05","22:00","-14.4","","-20.4","","61","","29","","12","","24.1","","101.10","","","","-21","","Clear"
"2015-03-05 23:00","2015","03","05","23:00","-15.2","","-20.6","","64","","28","","13","","24.1","","101.12","","","","-23","","NA"
"2015-03-06 00:00","2015","03","06","00:00","-15.9","","-20.9","","66","","28","","9","","24.1","","101.11","","","","-22","","NA"
"2015-03-06 01:00","2015","03","06","01:00","-16.8","","-21.1","","70","","27","","8","","24.1","","101.09","","","","-22","","Clear"
"2015-03-06 02:00","2015","03","06","02:00","-16.8","","-20.4","","74","","26","","3","","24.1","","101.12","","","","-19","","NA"
"2015-03-06 03:00","2015","03","06","03:00","-17.4","","-20.2","","79","","24","","9","","24.1","","101.09","","","","-24","","NA"
"2015-03-06 04:00","2015","03","06","04:00","-16.5","","-20.3","","73","","24","","12","","24.1","","101.06","","","","-24","","Clear"
"2015-03-06 05:00","2015","03","06","05:00","-17.2","","-21.1","","72","","26","","18","","24.1","","101.06","","","","-26","","NA"
"2015-03-06 06:00","2015","03","06","06:00","-18.0","","-21.7","","73","","26","","15","","24.1","","101.11","","","","-27","","NA"
"2015-03-06 07:00","2015","03","06","07:00","-17.4","","-21.5","","71","","25","","12","","24.1","","101.09","","","","-25","","Clear"
"2015-03-06 08:00","2015","03","06","08:00","-14.4","","-19.1","","68","","24","","18","","24.1","","101.10","","","","-23","","NA"
"2015-03-06 09:00","2015","03","06","09:00","-12.5","","-18.0","","64","","23","","19","","24.1","","101.08","","","","-21","","NA"
"2015-03-06 10:00","2015","03","06","10:00","-10.4","","-17.0","","59","","22","","17","","24.1","","101.03","","","","-18","","Clear"
"2015-03-06 11:00","2015","03","06","11:00","-9.0","","-16.3","","56","","23","","24","","24.1","","100.98","","","","-17","","NA"
"2015-03-06 12:00","2015","03","06","12:00","-7.5","","-15.5","","53","","22","","26","","24.1","","100.95","","","","-16","","NA"
"2015-03-06 13:00","2015","03","06","13:00","-6.7","","-15.3","","51","","21","","27","","24.1","","100.82","","","","-15","","Mostly Cloudy"
"2015-03-06 14:00","2015","03","06","14:00","-6.0","","-14.6","","51","","22","","24","","24.1","","100.69","","","","-13","","NA"
"2015-03-06 15:00","2015","03","06","15:00","-5.6","","-14.5","","50","","22","","27","","24.1","","100.57","","","","-13","","NA"
"2015-03-06 16:00","2015","03","06","16:00","-5.5","","-14.6","","49","","22","","28","","24.1","","100.48","","","","-13","","Mostly Cloudy"
"2015-03-06 17:00","2015","03","06","17:00","-6.2","","-15.3","","49","","21","","30","","24.1","","100.36","","","","-15","","NA"
"2015-03-06 18:00","2015","03","06","18:00","-6.9","","-14.3","","56","","22","","25","","24.1","","100.35","","","","-15","","NA"
"2015-03-06 19:00","2015","03","06","19:00","-7.5","","-14.2","","59","","23","","24","","24.1","","100.32","","","","-15","","Mostly Cloudy"
"2015-03-06 20:00","2015","03","06","20:00","-7.7","","-14.4","","59","","22","","23","","24.1","","100.21","","","","-15","","NA"
"2015-03-06 21:00","2015","03","06","21:00","-7.8","","-14.1","","61","","20","","18","","24.1","","100.14","","","","-15","","NA"
"2015-03-06 22:00","2015","03","06","22:00","-7.3","","-13.6","","61","","23","","25","","24.1","","100.17","","","","-15","","Mostly Cloudy"
"2015-03-06 23:00","2015","03","06","23:00","-6.6","","-13.1","","60","","23","","22","","24.1","","100.10","","","","-14","","NA"
"2015-03-07 00:00","2015","03","07","00:00","-5.9","","-12.3","","61","","23","","37","","24.1","","99.98","","","","-15","","NA"
"2015-03-07 01:00","2015","03","07","01:00","-5.7","","-11.9","","62","","23","","34","","24.1","","99.92","","","","-14","","Cloudy"
"2015-03-07 02:00","2015","03","07","02:00","-5.9","","-11.3","","66","","24","","29","","24.1","","99.89","","","","-14","","NA"
"2015-03-07 03:00","2015","03","07","03:00","-6.3","","-11.3","","68","","23","","28","","24.1","","99.84","","","","-14","","NA"
"2015-03-07 04:00","2015","03","07","04:00","-6.4","","-11.0","","70","","23","","20","","24.1","","99.79","","","","-13","","Cloudy"
"2015-03-07 05:00","2015","03","07","05:00","-6.5","","-10.9","","71","","22","","17","","24.1","","99.79","","","","-13","","NA"
"2015-03-07 06:00","2015","03","07","06:00","-6.4","","-10.7","","72","","24","","22","","24.1","","99.79","","","","-14","","NA"
"2015-03-07 07:00","2015","03","07","07:00","-6.2","","-10.3","","73","","24","","24","","24.1","","99.77","","","","-14","","Cloudy"
"2015-03-07 08:00","2015","03","07","08:00","-5.9","","-9.6","","75","","23","","18","","11.3","","99.76","","","","-12","","Snow"
"2015-03-07 09:00","2015","03","07","09:00","-5.4","","-9.3","","74","","24","","26","","24.1","","99.71","","","","-13","","NA"
"2015-03-07 10:00","2015","03","07","10:00","-4.2","","-8.5","","72","","25","","21","","24.1","","99.65","","","","-11","","Cloudy"
"2015-03-07 11:00","2015","03","07","11:00","-3.4","","-8.3","","69","","20","","13","","24.1","","99.60","","","","-8","","NA"
"2015-03-07 12:00","2015","03","07","12:00","-2.7","","-8.0","","67","","23","","18","","24.1","","99.56","","","","-8","","NA"
"2015-03-07 13:00","2015","03","07","13:00","-1.9","","-7.8","","64","","21","","18","","24.1","","99.48","","","","-7","","Cloudy"
"2015-03-07 14:00","2015","03","07","14:00","-1.3","","-7.1","","65","","22","","19","","24.1","","99.37","","","","-7","","NA"
"2015-03-07 15:00","2015","03","07","15:00","-1.6","","-6.8","","68","","21","","16","","24.1","","99.33","","","","-7","","NA"
"2015-03-07 16:00","2015","03","07","16:00","-1.0","","-6.6","","66","","21","","13","","19.3","","99.31","","","","-5","","Cloudy"
"2015-03-07 17:00","2015","03","07","17:00","-1.1","","-6.5","","67","","24","","11","","19.3","","99.33","","","","-5","","NA"
"2015-03-07 18:00","2015","03","07","18:00","-2.2","","-4.4","","85","","24","","13","","3.2","","99.37","","","","-7","","Snow"
"2015-03-07 19:00","2015","03","07","19:00","-2.0","","-4.4","","84","","22","","10","","8.1","","99.45","","","","-6","","Snow"
"2015-03-07 20:00","2015","03","07","20:00","-2.6","","-4.3","","88","","24","","8","","19.3","","99.50","","","","-6","","NA"
"2015-03-07 21:00","2015","03","07","21:00","-1.8","","-4.6","","81","","27","","10","","19.3","","99.50","","","","-5","","NA"
"2015-03-07 22:00","2015","03","07","22:00","-2.0","","-5.0","","80","","28","","12","","19.3","","99.51","","","","-6","","Mostly Cloudy"
"2015-03-07 23:00","2015","03","07","23:00","-3.2","","-6.0","","81","","28","","12","","24.1","","99.50","","","","-8","","NA"
"2015-03-08 00:00","2015","03","08","00:00","-3.8","","-6.0","","85","","31","","6","","24.1","","99.46","","","","-6","","NA"
"2015-03-08 01:00","2015","03","08","01:00","-4.7","","-6.4","","88","","25","","7","","24.1","","99.46","","","","-8","","Mostly Cloudy"
"2015-03-08 02:00","2015","03","08","02:00","-4.4","","-6.1","","88","","24","","8","","24.1","","99.45","","","","-8","","NA"
"2015-03-08 03:00","2015","03","08","03:00","-3.4","","-5.3","","87","","27","","16","","24.1","","99.45","","","","-9","","NA"
"2015-03-08 04:00","2015","03","08","04:00","-2.5","","-4.8","","84","","26","","19","","24.1","","99.49","","","","-8","","Cloudy"
"2015-03-08 05:00","2015","03","08","05:00","-3.3","","-5.5","","85","","23","","11","","24.1","","99.49","","","","-8","","NA"
"2015-03-08 06:00","2015","03","08","06:00","-3.6","","-5.8","","85","","26","","20","","24.1","","99.59","","","","-10","","NA"
"2015-03-08 07:00","2015","03","08","07:00","-4.5","","-7.0","","83","","26","","19","","24.1","","99.64","","","","-11","","Mostly Cloudy"
"2015-03-08 08:00","2015","03","08","08:00","-3.7","","-7.2","","77","","28","","22","","24.1","","99.74","","","","-10","","NA"
"2015-03-08 09:00","2015","03","08","09:00","-2.6","","-8.7","","63","","29","","26","","24.1","","99.82","","","","-9","","NA"
"2015-03-08 10:00","2015","03","08","10:00","-1.5","","-10.1","","52","","30","","34","","24.1","","99.85","","","","-9","","Clear"
"2015-03-08 11:00","2015","03","08","11:00","-0.8","","-10.2","","49","","28","","33","","24.1","","99.88","","","","-8","","NA"
"2015-03-08 12:00","2015","03","08","12:00","0.1","","-10.2","","46","","30","","31","","24.1","","99.89","","","","","","NA"
"2015-03-08 13:00","2015","03","08","13:00","0.8","","-9.6","","46","","29","","27","","24.1","","99.87","","","","","","Clear"
"2015-03-08 14:00","2015","03","08","14:00","1.3","","-8.8","","47","","28","","26","","24.1","","99.81","","","","","","NA"
"2015-03-08 15:00","2015","03","08","15:00","1.6","","-8.0","","49","","27","","16","","24.1","","99.77","","","","","","NA"
"2015-03-08 16:00","2015","03","08","16:00","1.8","","-7.0","","52","","25","","21","","24.1","","99.74","","","","","","Clear"
"2015-03-08 17:00","2015","03","08","17:00","1.5","","-6.4","","56","","25","","20","","24.1","","99.69","","","","","","NA"
"2015-03-08 18:00","2015","03","08","18:00","1.5","","-6.6","","55","","24","","22","","24.1","","99.67","","","","","","NA"
"2015-03-08 19:00","2015","03","08","19:00","0.9","","-5.6","","62","","21","","13","","24.1","","99.63","","","","","","Mainly Clear"
"2015-03-08 20:00","2015","03","08","20:00","0.5","","-5.1","","66","","21","","10","","24.1","","99.63","","","","","","NA"
"2015-03-08 21:00","2015","03","08","21:00","0.3","","-4.7","","69","","22","","20","","24.1","","99.55","","","","","","NA"
"2015-03-08 22:00","2015","03","08","22:00","0.6","","-3.9","","72","","24","","23","","24.1","","99.56","","","","","","Mostly Cloudy"
"2015-03-08 23:00","2015","03","08","23:00","0.4","","-4.1","","72","","24","","15","","24.1","","99.54","","","","","","NA"
"2015-03-09 00:00","2015","03","09","00:00","0.8","","-3.7","","72","","25","","21","","24.1","","99.53","","","","","","NA"
"2015-03-09 01:00","2015","03","09","01:00","0.4","","-4.6","","69","","26","","21","","24.1","","99.54","","","","","","Mostly Cloudy"
"2015-03-09 02:00","2015","03","09","02:00","1.1","","-4.4","","67","","29","","33","","24.1","","99.57","","","","","","NA"
"2015-03-09 03:00","2015","03","09","03:00","0.7","","-3.4","","74","","29","","28","","24.1","","99.60","","","","","","NA"
"2015-03-09 04:00","2015","03","09","04:00","-1.1","","-4.3","","79","","28","","18","","24.1","","99.66","","","","-6","","Mainly Clear"
"2015-03-09 05:00","2015","03","09","05:00","-1.7","","-4.5","","81","","29","","14","","24.1","","99.73","","","","-6","","NA"
"2015-03-09 06:00","2015","03","09","06:00","-1.3","","-4.7","","78","","29","","13","","24.1","","99.82","","","","-6","","NA"
"2015-03-09 07:00","2015","03","09","07:00","-3.3","","-5.6","","84","","25","","9","","24.1","","99.89","","","","-7","","Clear"
"2015-03-09 08:00","2015","03","09","08:00","-1.7","","-5.0","","78","","25","","12","","24.1","","99.94","","","","-6","","NA"
"2015-03-09 09:00","2015","03","09","09:00","-0.1","","-4.0","","75","","25","","20","","24.1","","100.02","","","","-5","","NA"
"2015-03-09 10:00","2015","03","09","10:00","1.4","","-3.5","","70","","24","","12","","24.1","","100.04","","","","","","Clear"
"2015-03-09 11:00","2015","03","09","11:00","2.7","","-3.9","","62","","23","","15","","24.1","","100.05","","","","","","NA"
"2015-03-09 12:00","2015","03","09","12:00","4.3","","-3.5","","57","","24","","17","","24.1","","100.07","","","","","","NA"
"2015-03-09 13:00","2015","03","09","13:00","5.2","","-4.1","","51","","24","","16","","24.1","","100.04","","","","","","Clear"
"2015-03-09 14:00","2015","03","09","14:00","4.9","","-4.1","","52","","25","","30","","24.1","","100.00","","","","","","NA"
"2015-03-09 15:00","2015","03","09","15:00","5.2","","-4.7","","49","","26","","27","","24.1","","99.98","","","","","","NA"
"2015-03-09 16:00","2015","03","09","16:00","5.4","","-4.5","","49","","26","","26","","24.1","","100.01","","","","","","Mainly Clear"
"2015-03-09 17:00","2015","03","09","17:00","5.2","","-4.4","","50","","25","","20","","24.1","","100.02","","","","","","NA"
"2015-03-09 18:00","2015","03","09","18:00","4.5","","-4.0","","54","","24","","20","","24.1","","100.05","","","","","","NA"
"2015-03-09 19:00","2015","03","09","19:00","3.9","","-3.6","","58","","22","","13","","24.1","","100.08","","","","","","Clear"
"2015-03-09 20:00","2015","03","09","20:00","2.5","","-3.4","","65","","23","","13","","24.1","","100.09","","","","","","NA"
"2015-03-09 21:00","2015","03","09","21:00","2.3","","-3.6","","65","","22","","8","","24.1","","100.11","","","","","","NA"
"2015-03-09 22:00","2015","03","09","22:00","2.1","","-3.4","","67","","21","","10","","24.1","","100.11","","","","","","Clear"
"2015-03-09 23:00","2015","03","09","23:00","1.3","","-3.4","","71","","22","","16","","24.1","","100.12","","","","","","NA"
"2015-03-10 00:00","2015","03","10","00:00","-0.2","","-3.6","","78","","24","","13","","24.1","","100.10","","","","-4","","NA"
"2015-03-10 01:00","2015","03","10","01:00","-0.7","","-3.7","","80","","27","","12","","24.1","","100.09","","","","-5","","Mostly Cloudy"
"2015-03-10 02:00","2015","03","10","02:00","0.0","","-3.2","","79","","23","","9","","24.1","","100.02","","","","-3","","NA"
"2015-03-10 03:00","2015","03","10","03:00","-0.6","","-3.6","","80","","16","","7","","24.1","","100.00","","","","-3","","NA"
"2015-03-10 04:00","2015","03","10","04:00","-1.1","","-3.6","","83","","16","","5","","19.3","","99.98","","","","-3","","Mainly Clear"
"2015-03-10 05:00","2015","03","10","05:00","-1.0","","-3.4","","84","","19","","5","","24.1","","99.99","","","","-3","","NA"
"2015-03-10 06:00","2015","03","10","06:00","-1.2","","-3.4","","85","","17","","5","","16.1","","99.99","","","","-3","","NA"
"2015-03-10 07:00","2015","03","10","07:00","-1.4","","-3.4","","86","","15","","5","","16.1","","99.95","","","","-3","","Mainly Clear"
"2015-03-10 08:00","2015","03","10","08:00","-0.3","","-3.0","","82","","15","","7","","16.1","","99.94","","","","-3","","NA"
"2015-03-10 09:00","2015","03","10","09:00","1.0","","-2.4","","78","","20","","4","","11.3","","99.92","","","","","","NA"
"2015-03-10 10:00","2015","03","10","10:00","2.3","","-2.2","","72","","16","","8","","11.3","","99.86","","","","","","Cloudy"
"2015-03-10 11:00","2015","03","10","11:00","2.8","","-1.8","","72","","13","","9","","12.9","","99.77","","","","","","NA"
"2015-03-10 12:00","2015","03","10","12:00","2.1","","-1.9","","75","","16","","13","","12.9","","99.72","","","","","","NA"
"2015-03-10 13:00","2015","03","10","13:00","2.4","","-1.8","","74","","15","","8","","14.5","","99.66","","","","","","Cloudy"
"2015-03-10 14:00","2015","03","10","14:00","3.2","","-1.6","","71","","14","","5","","12.9","","99.53","","","","","","NA"
"2015-03-10 15:00","2015","03","10","15:00","3.9","","-1.7","","67","","10","","5","","12.9","","99.45","","","","","","NA"
"2015-03-10 16:00","2015","03","10","16:00","4.1","","-1.5","","67","","14","","8","","11.3","","99.40","","","","","","Cloudy"
"2015-03-10 17:00","2015","03","10","17:00","4.3","","-1.1","","68","","19","","9","","14.5","","99.32","","","","","","NA"
"2015-03-10 18:00","2015","03","10","18:00","4.8","","-0.6","","68","","20","","13","","12.9","","99.27","","","","","","NA"
"2015-03-10 19:00","2015","03","10","19:00","4.6","","0.0","","72","","20","","14","","19.3","","99.24","","","","","","Mostly Cloudy"
"2015-03-10 20:00","2015","03","10","20:00","5.3","","0.9","","73","","21","","21","","19.3","","99.21","","","","","","NA"
"2015-03-10 21:00","2015","03","10","21:00","4.5","","1.2","","79","","23","","18","","19.3","","99.18","","","","","","NA"
"2015-03-10 22:00","2015","03","10","22:00","4.0","","1.2","","82","","23","","16","","24.1","","99.19","","","","","","Mainly Clear"
"2015-03-10 23:00","2015","03","10","23:00","3.6","","1.3","","85","","23","","17","","9.7","","99.19","","","","","","Fog"
"2015-03-11 00:00","2015","03","11","00:00","3.2","","1.4","","88","","23","","18","","8.1","","99.17","","","","","","Fog"
"2015-03-11 01:00","2015","03","11","01:00","2.3","","1.0","","91","","25","","17","","8.1","","99.19","","","","","","Fog"
"2015-03-11 02:00","2015","03","11","02:00","3.2","","1.7","","90","","26","","31","","8.1","","99.21","","","","","","Fog"
"2015-03-11 03:00","2015","03","11","03:00","3.3","","1.5","","88","","28","","20","","8.1","","99.19","","","","","","Fog"
"2015-03-11 04:00","2015","03","11","04:00","3.1","","1.2","","87","","29","","21","","9.7","","99.21","","","","","","Fog"
"2015-03-11 05:00","2015","03","11","05:00","3.1","","0.8","","85","","29","","25","","12.9","","99.32","","","","","","NA"
"2015-03-11 06:00","2015","03","11","06:00","2.9","","0.6","","85","","28","","21","","14.5","","99.43","","","","","","NA"
"2015-03-11 07:00","2015","03","11","07:00","2.2","","0.1","","86","","28","","15","","24.1","","99.52","","","","","","Clear"
"2015-03-11 08:00","2015","03","11","08:00","3.5","","0.0","","78","","29","","21","","24.1","","99.62","","","","","","NA"
"2015-03-11 09:00","2015","03","11","09:00","4.3","","0.1","","74","","32","","23","","24.1","","99.74","","","","","","NA"
"2015-03-11 10:00","2015","03","11","10:00","5.0","","-0.6","","67","","30","","25","","24.1","","99.81","","","","","","Clear"
"2015-03-11 11:00","2015","03","11","11:00","6.0","","-0.5","","63","","31","","22","","24.1","","99.85","","","","","","NA"
"2015-03-11 12:00","2015","03","11","12:00","6.7","","-1.0","","58","","28","","20","","24.1","","99.90","","","","","","NA"
"2015-03-11 13:00","2015","03","11","13:00","7.5","","-1.2","","54","","30","","22","","24.1","","99.90","","","","","","Clear"
"2015-03-11 14:00","2015","03","11","14:00","7.3","","-0.9","","56","","27","","28","","24.1","","99.90","","","","","","NA"
"2015-03-11 15:00","2015","03","11","15:00","7.5","","-0.9","","55","","29","","24","","24.1","","99.91","","","","","","NA"
"2015-03-11 16:00","2015","03","11","16:00","7.0","","-2.7","","50","","29","","37","","24.1","","99.95","","","","","","Clear"
"2015-03-11 17:00","2015","03","11","17:00","5.7","","-3.7","","51","","30","","35","","24.1","","100.00","","","","","","NA"
"2015-03-11 18:00","2015","03","11","18:00","4.7","","-3.3","","56","","28","","34","","24.1","","100.07","","","","","","NA"
"2015-03-11 19:00","2015","03","11","19:00","3.3","","-3.1","","63","","27","","22","","24.1","","100.16","","","","","","Clear"
"2015-03-11 20:00","2015","03","11","20:00","2.2","","-2.9","","69","","26","","17","","24.1","","100.22","","","","","","NA"
"2015-03-11 21:00","2015","03","11","21:00","3.2","","-2.8","","65","","29","","29","","24.1","","100.29","","","","","","NA"
"2015-03-11 22:00","2015","03","11","22:00","2.7","","-8.4","","44","","31","","39","","24.1","","100.39","","","","","","Clear"
"2015-03-11 23:00","2015","03","11","23:00","1.7","","-6.9","","53","","31","","26","","24.1","","100.50","","","","","","NA"
"2015-03-12 00:00","2015","03","12","00:00","0.7","","-6.0","","61","","31","","17","","24.1","","100.63","","","","","","NA"
"2015-03-12 01:00","2015","03","12","01:00","0.1","","-5.7","","65","","32","","14","","24.1","","100.72","","","","","","Clear"
"2015-03-12 02:00","2015","03","12","02:00","-0.8","","-6.0","","68","","32","","13","","24.1","","100.88","","","","-5","","NA"
"2015-03-12 03:00","2015","03","12","03:00","-1.3","","-6.1","","70","","30","","10","","24.1","","100.97","","","","-5","","NA"
"2015-03-12 04:00","2015","03","12","04:00","-2.4","","-6.4","","74","","31","","12","","24.1","","101.07","","","","-7","","Clear"
"2015-03-12 05:00","2015","03","12","05:00","-1.4","","-6.6","","68","","32","","19","","24.1","","101.22","","","","-7","","NA"
"2015-03-12 06:00","2015","03","12","06:00","-1.3","","-7.9","","61","","33","","21","","24.1","","101.33","","","","-7","","NA"
"2015-03-12 07:00","2015","03","12","07:00","-1.4","","-8.4","","59","","35","","19","","24.1","","101.43","","","","-7","","Clear"
"2015-03-12 08:00","2015","03","12","08:00","-1.2","","-10.6","","49","","34","","24","","24.1","","101.52","","","","-7","","NA"
"2015-03-12 09:00","2015","03","12","09:00","-0.3","","-10.9","","45","","36","","22","","24.1","","101.59","","","","-6","","NA"
"2015-03-12 10:00","2015","03","12","10:00","0.1","","-14.0","","34","","2","","14","","24.1","","101.60","","","","","","Clear"
"2015-03-12 11:00","2015","03","12","11:00","1.1","","-12.1","","37","","36","","12","","24.1","","101.60","","","","","","NA"
"2015-03-12 12:00","2015","03","12","12:00","1.7","","-11.9","","36","","29","","9","","24.1","","101.64","","","","","","NA"
"2015-03-12 13:00","2015","03","12","13:00","2.0","","-13.1","","32","","36","","6","","24.1","","101.59","","","","","","Clear"
"2015-03-12 14:00","2015","03","12","14:00","2.9","","-13.9","","28","","36","","3","","24.1","","101.53","","","","","","NA"
"2015-03-12 15:00","2015","03","12","15:00","2.2","","-8.3","","46","","15","","14","","24.1","","101.53","","","","","","NA"
"2015-03-12 16:00","2015","03","12","16:00","2.2","","-7.7","","48","","17","","14","","24.1","","101.54","","","","","","Mostly Cloudy"
"2015-03-12 17:00","2015","03","12","17:00","1.8","","-7.8","","49","","14","","9","","24.1","","101.55","","","","","","NA"
"2015-03-12 18:00","2015","03","12","18:00","1.2","","-7.9","","51","","13","","12","","24.1","","101.55","","","","","","NA"
"2015-03-12 19:00","2015","03","12","19:00","0.2","","-7.8","","55","","10","","5","","24.1","","101.56","","","","","","Mostly Cloudy"
"2015-03-12 20:00","2015","03","12","20:00","0.2","","-8.1","","54","","11","","5","","24.1","","101.54","","","","","","NA"
"2015-03-12 21:00","2015","03","12","21:00","-0.2","","-7.5","","58","","7","","5","","24.1","","101.51","","","","-2","","NA"
"2015-03-12 22:00","2015","03","12","22:00","0.2","","-9.8","","47","","15","","4","","24.1","","101.49","","","","","","Mostly Cloudy"
"2015-03-12 23:00","2015","03","12","23:00","-0.7","","-8.0","","58","","15","","7","","24.1","","101.47","","","","-3","","NA"
"2015-03-13 00:00","2015","03","13","00:00","-0.8","","-6.6","","65","","12","","7","","24.1","","101.41","","","","-3","","NA"
"2015-03-13 01:00","2015","03","13","01:00","-1.5","","-6.5","","69","","12","","8","","24.1","","101.32","","","","-5","","Mainly Clear"
"2015-03-13 02:00","2015","03","13","02:00","-1.2","","-6.4","","68","","15","","8","","24.1","","101.28","","","","-4","","NA"
"2015-03-13 03:00","2015","03","13","03:00","-0.8","","-6.6","","65","","13","","8","","24.1","","101.23","","","","-4","","NA"
"2015-03-13 04:00","2015","03","13","04:00","-1.6","","-5.8","","73","","10","","10","","24.1","","101.13","","","","-5","","Mostly Cloudy"
"2015-03-13 05:00","2015","03","13","05:00","-1.3","","-7.9","","61","","10","","12","","24.1","","101.06","","","","-5","","NA"
"2015-03-13 06:00","2015","03","13","06:00","-0.8","","-10.0","","50","","11","","5","","24.1","","101.08","","","","-2","","NA"
"2015-03-13 07:00","2015","03","13","07:00","-0.2","","-12.9","","38","","10","","11","","24.1","","101.08","","","","-4","","Mostly Cloudy"
"2015-03-13 08:00","2015","03","13","08:00","0.6","","-11.2","","41","","9","","14","","24.1","","101.00","","","","","","NA"
"2015-03-13 09:00","2015","03","13","09:00","2.2","","-11.1","","37","","10","","16","","24.1","","100.94","","","","","","NA"
"2015-03-13 10:00","2015","03","13","10:00","3.1","","-12.5","","31","","9","","19","","24.1","","100.82","","","","","","Mostly Cloudy"
"2015-03-13 11:00","2015","03","13","11:00","4.3","","-12.7","","28","","9","","19","","24.1","","100.73","","","","","","NA"
"2015-03-13 12:00","2015","03","13","12:00","4.6","","-10.4","","33","","8","","19","","24.1","","100.61","","","","","","NA"
"2015-03-13 13:00","2015","03","13","13:00","4.8","","-6.2","","45","","8","","16","","24.1","","100.52","","","","","","Mostly Cloudy"
"2015-03-13 14:00","2015","03","13","14:00","4.1","","-5.7","","49","","7","","20","","24.1","","100.38","","","","","","NA"
"2015-03-13 15:00","2015","03","13","15:00","3.8","","-6.2","","48","","10","","17","","24.1","","100.31","","","","","","NA"
"2015-03-13 16:00","2015","03","13","16:00","3.7","","-6.6","","47","","12","","16","","24.1","","100.27","","","","","","Mostly Cloudy"
"2015-03-13 17:00","2015","03","13","17:00","3.2","","-6.8","","48","","11","","16","","24.1","","100.21","","","","","","NA"
"2015-03-13 18:00","2015","03","13","18:00","2.4","","-6.7","","51","","9","","11","","24.1","","100.17","","","","","","NA"
"2015-03-13 19:00","2015","03","13","19:00","1.5","","-6.6","","55","","10","","9","","24.1","","100.11","","","","","","Mostly Cloudy"
"2015-03-13 20:00","2015","03","13","20:00","1.1","","-6.3","","58","","9","","8","","24.1","","100.05","","","","","","NA"
"2015-03-13 21:00","2015","03","13","21:00","0.8","","-6.1","","60","","10","","3","","24.1","","99.96","","","","","","NA"
"2015-03-13 22:00","2015","03","13","22:00","1.5","","-5.2","","61","","17","","5","","24.1","","99.91","","","","","","Mostly Cloudy"
"2015-03-13 23:00","2015","03","13","23:00","1.6","","-4.5","","64","","13","","4","","24.1","","99.81","","","","","","NA"
"2015-03-14 00:00","2015","03","14","00:00","1.8","","-2.9","","71","","16","","8","","24.1","","99.72","","","","","","NA"
"2015-03-14 01:00","2015","03","14","01:00","1.8","","-2.2","","75","","16","","7","","24.1","","99.63","","","","","","Cloudy"
"2015-03-14 02:00","2015","03","14","02:00","1.6","","-1.5","","80","","16","","8","","24.1","","99.56","","","","","","NA"
"2015-03-14 03:00","2015","03","14","03:00","1.5","","-0.9","","84","","13","","5","","16.1","","99.42","","","","","","NA"
"2015-03-14 04:00","2015","03","14","04:00","1.0","","-0.3","","91","","16","","10","","6.4","","99.31","","","","","","Fog"
"2015-03-14 05:00","2015","03","14","05:00","0.9","","0.2","","95","","14","","7","","2.0","","99.27","","","","","","Drizzle,Fog"
"2015-03-14 06:00","2015","03","14","06:00","1.4","","0.7","","95","","13","","6","","2.0","","99.22","","","","","","Drizzle,Fog"
"2015-03-14 07:00","2015","03","14","07:00","1.6","","1.0","","96","","15","","6","","0.8","","99.13","","","","","","Fog"
"2015-03-14 08:00","2015","03","14","08:00","2.5","","2.1","","97","","14","","10","","0.6","","99.05","","","","","","Fog"
"2015-03-14 09:00","2015","03","14","09:00","3.1","","2.7","","97","","14","","8","","0.6","","98.96","","","","","","Fog"
"2015-03-14 10:00","2015","03","14","10:00","3.3","","2.9","","97","","15","","8","","0.6","","98.91","","","","","","Fog"
"2015-03-14 11:00","2015","03","14","11:00","3.9","","3.5","","97","","13","","12","","0.8","","98.75","","","","","","Fog"
"2015-03-14 12:00","2015","03","14","12:00","4.5","","4.1","","97","","18","","6","","6.4","","98.70","","","","","","Fog"
"2015-03-14 13:00","2015","03","14","13:00","6.2","","4.9","","91","","28","","16","","9.7","","98.62","","","","","","Fog"
"2015-03-14 14:00","2015","03","14","14:00","6.1","","3.3","","82","","31","","25","","12.9","","98.59","","","","","","NA"
"2015-03-14 15:00","2015","03","14","15:00","4.4","","0.4","","75","","31","","35","","19.3","","98.66","","","","","","NA"
"2015-03-14 16:00","2015","03","14","16:00","4.6","","-0.2","","71","","31","","25","","24.1","","98.70","","","","","","Mostly Cloudy"
"2015-03-14 17:00","2015","03","14","17:00","4.2","","-0.8","","70","","30","","31","","24.1","","98.75","","","","","","NA"
"2015-03-14 18:00","2015","03","14","18:00","3.7","","-1.1","","71","","28","","24","","24.1","","98.82","","","","","","NA"
"2015-03-14 19:00","2015","03","14","19:00","3.5","","-1.7","","69","","29","","28","","24.1","","98.85","","","","","","Cloudy"
"2015-03-14 20:00","2015","03","14","20:00","3.3","","-1.5","","71","","27","","30","","24.1","","98.86","","","","","","NA"
"2015-03-14 21:00","2015","03","14","21:00","2.9","","-1.7","","72","","28","","28","","24.1","","98.87","","","","","","NA"
"2015-03-14 22:00","2015","03","14","22:00","2.6","","-1.9","","72","","29","","30","","24.1","","98.88","","","","","","Cloudy"
"2015-03-14 23:00","2015","03","14","23:00","2.1","","-2.1","","74","","29","","30","","24.1","","98.87","","","","","","NA"
"2015-03-15 00:00","2015","03","15","00:00","1.7","","-1.7","","78","","29","","34","","24.1","","98.90","","","","","","NA"
"2015-03-15 01:00","2015","03","15","01:00","1.5","","-2.8","","73","","32","","29","","24.1","","98.94","","","","","","Cloudy"
"2015-03-15 02:00","2015","03","15","02:00","1.3","","-2.3","","77","","31","","27","","24.1","","99.00","","","","","","NA"
"2015-03-15 03:00","2015","03","15","03:00","1.0","","-3.3","","73","","32","","34","","24.1","","99.05","","","","","","NA"
"2015-03-15 04:00","2015","03","15","04:00","0.9","","-3.2","","74","","32","","39","","24.1","","99.13","","","","","","Cloudy"
"2015-03-15 05:00","2015","03","15","05:00","0.9","","-3.4","","73","","33","","32","","24.1","","99.19","","","","","","NA"
"2015-03-15 06:00","2015","03","15","06:00","0.9","","-3.8","","71","","33","","36","","24.1","","99.30","","","","","","NA"
"2015-03-15 07:00","2015","03","15","07:00","0.7","","-4.2","","70","","33","","35","","24.1","","99.42","","","","","","Mostly Cloudy"
"2015-03-15 08:00","2015","03","15","08:00","1.1","","-4.0","","69","","32","","36","","24.1","","99.54","","","","","","NA"
"2015-03-15 09:00","2015","03","15","09:00","1.3","","-4.2","","67","","33","","39","","24.1","","99.64","","","","","","NA"
"2015-03-15 10:00","2015","03","15","10:00","1.5","","-4.6","","64","","33","","39","","24.1","","99.69","","","","","","Mostly Cloudy"
"2015-03-15 11:00","2015","03","15","11:00","3.2","","-3.8","","60","","32","","35","","24.1","","99.74","","","","","","NA"
"2015-03-15 12:00","2015","03","15","12:00","3.9","","-3.6","","58","","34","","27","","24.1","","99.78","","","","","","NA"
"2015-03-15 13:00","2015","03","15","13:00","4.4","","-2.7","","60","","34","","18","","24.1","","99.80","","","","","","Mainly Clear"
"2015-03-15 14:00","2015","03","15","14:00","5.6","","-3.0","","54","","31","","23","","24.1","","99.77","","","","","","NA"
"2015-03-15 15:00","2015","03","15","15:00","6.0","","-2.4","","55","","30","","26","","24.1","","99.78","","","","","","NA"
"2015-03-15 16:00","2015","03","15","16:00","6.5","","-2.9","","51","","30","","22","","24.1","","99.78","","","","","","Mostly Cloudy"
"2015-03-15 17:00","2015","03","15","17:00","5.8","","-2.3","","56","","28","","22","","24.1","","99.83","","","","","","NA"
"2015-03-15 18:00","2015","03","15","18:00","3.6","","-2.4","","65","","28","","18","","24.1","","99.85","","","","","","NA"
"2015-03-15 19:00","2015","03","15","19:00","2.3","","-2.8","","69","","27","","14","","24.1","","99.92","","","","","","Mostly Cloudy"
"2015-03-15 20:00","2015","03","15","20:00","1.6","","-2.5","","74","","28","","10","","24.1","","99.91","","","","","","NA"
"2015-03-15 21:00","2015","03","15","21:00","0.5","","-2.7","","79","","25","","8","","24.1","","99.83","","","","","","NA"
"2015-03-15 22:00","2015","03","15","22:00","0.1","","-2.6","","82","","26","","5","","24.1","","99.76","","","","","","Cloudy"
"2015-03-15 23:00","2015","03","15","23:00","0.2","","-2.5","","82","","22","","7","","24.1","","99.75","","","","","","NA"
"2015-03-16 00:00","2015","03","16","00:00","-0.4","","-2.6","","85","","25","","10","","24.1","","99.77","","","","-4","","NA"
"2015-03-16 01:00","2015","03","16","01:00","0.8","","-2.4","","79","","23","","13","","24.1","","99.66","","","","","","Cloudy"
"2015-03-16 02:00","2015","03","16","02:00","0.5","","-2.6","","80","","19","","8","","24.1","","99.58","","","","","","NA"
"2015-03-16 03:00","2015","03","16","03:00","0.0","","-2.2","","85","","15","","8","","24.1","","99.40","","","","-3","","NA"
"2015-03-16 04:00","2015","03","16","04:00","0.5","","-2.1","","83","","17","","11","","24.1","","99.31","","","","","","Cloudy"
"2015-03-16 05:00","2015","03","16","05:00","0.4","","-1.8","","85","","17","","7","","24.1","","99.28","","","","","","NA"
"2015-03-16 06:00","2015","03","16","06:00","0.2","","-1.4","","89","","15","","7","","19.3","","99.16","","","","","","NA"
"2015-03-16 07:00","2015","03","16","07:00","0.4","","-1.5","","87","","15","","7","","16.1","","99.13","","","","","","Mostly Cloudy"
"2015-03-16 08:00","2015","03","16","08:00","1.5","","-0.9","","84","","13","","5","","12.9","","99.11","","","","","","NA"
"2015-03-16 09:00","2015","03","16","09:00","2.9","","-0.6","","78","","12","","3","","12.9","","99.10","","","","","","NA"
"2015-03-16 10:00","2015","03","16","10:00","4.4","","0.0","","73","","15","","8","","12.9","","99.03","","","","","","Mostly Cloudy"
"2015-03-16 11:00","2015","03","16","11:00","4.8","","-0.2","","70","","14","","10","","12.9","","99.00","","","","","","NA"
"2015-03-16 12:00","2015","03","16","12:00","6.0","","0.1","","66","","16","","10","","16.1","","98.94","","","","","","NA"
"2015-03-16 13:00","2015","03","16","13:00","7.0","","0.5","","63","","13","","10","","16.1","","98.91","","","","","","Cloudy"
"2015-03-16 14:00","2015","03","16","14:00","8.0","","1.0","","61","","14","","12","","19.3","","98.88","","","","","","NA"
"2015-03-16 15:00","2015","03","16","15:00","11.5","","2.8","","55","","24","","21","","19.3","","98.84","","","","","","NA"
"2015-03-16 16:00","2015","03","16","16:00","11.0","","2.6","","56","","25","","18","","19.3","","98.71","","","","","","Cloudy"
"2015-03-16 17:00","2015","03","16","17:00","9.8","","2.7","","61","","26","","19","","24.1","","98.77","","","","","","NA"
"2015-03-16 18:00","2015","03","16","18:00","8.6","","2.9","","67","","27","","26","","19.3","","98.83","","","","","","Rain"
"2015-03-16 19:00","2015","03","16","19:00","7.2","","3.8","","79","","29","","16","","19.3","","98.85","","","","","","Rain"
"2015-03-16 20:00","2015","03","16","20:00","6.6","","4.1","","84","","27","","12","","19.3","","98.89","","","","","","Rain"
"2015-03-16 21:00","2015","03","16","21:00","7.0","","4.3","","83","","11","","4","","19.3","","98.75","","","","","","Rain"
"2015-03-16 22:00","2015","03","16","22:00","6.4","","4.6","","88","","36","","3","","19.3","","98.68","","","","","","Cloudy"
"2015-03-16 23:00","2015","03","16","23:00","5.3","","4.0","","91","","26","","4","","19.3","","98.59","","","","","","Rain"
"2015-03-17 00:00","2015","03","17","00:00","5.0","","3.7","","91","","26","","7","","19.3","","98.49","","","","","","Rain"
"2015-03-17 01:00","2015","03","17","01:00","5.0","","4.1","","94","","31","","11","","19.3","","98.39","","","","","","Rain"
"2015-03-17 02:00","2015","03","17","02:00","5.2","","4.3","","94","","32","","17","","14.5","","98.41","","","","","","Rain"
"2015-03-17 03:00","2015","03","17","03:00","5.0","","4.1","","94","","31","","15","","24.1","","98.41","","","","","","NA"
"2015-03-17 04:00","2015","03","17","04:00","4.8","","3.2","","89","","31","","24","","24.1","","98.43","","","","","","Cloudy"
"2015-03-17 05:00","2015","03","17","05:00","4.7","","2.7","","87","","31","","22","","24.1","","98.51","","","","","","NA"
"2015-03-17 06:00","2015","03","17","06:00","4.1","","2.0","","86","","30","","28","","24.1","","98.63","","","","","","NA"
"2015-03-17 07:00","2015","03","17","07:00","3.2","","0.9","","85","","34","","41","","24.1","","98.76","","","","","","Mostly Cloudy"
"2015-03-17 08:00","2015","03","17","08:00","1.2","","-2.7","","75","","33","","47","","24.1","","98.99","","","","","","NA"
"2015-03-17 09:00","2015","03","17","09:00","0.8","","-4.1","","70","","34","","43","","24.1","","99.22","","","","","","NA"
"2015-03-17 10:00","2015","03","17","10:00","0.7","","-8.3","","51","","33","","59","","24.1","","99.39","","","","","","Mostly Cloudy"
"2015-03-17 11:00","2015","03","17","11:00","1.2","","-9.2","","46","","33","","43","","24.1","","99.50","","","","","","NA"
"2015-03-17 12:00","2015","03","17","12:00","2.1","","-14.2","","29","","34","","41","","24.1","","99.55","","","","","","NA"
"2015-03-17 13:00","2015","03","17","13:00","2.0","","-14.7","","28","","35","","39","","24.1","","99.58","","","","","","Mainly Clear"
"2015-03-17 14:00","2015","03","17","14:00","2.2","","-14.1","","29","","31","","38","","24.1","","99.59","","","","","","NA"
"2015-03-17 15:00","2015","03","17","15:00","2.3","","-12.0","","34","","30","","30","","24.1","","99.57","","","","","","NA"
"2015-03-17 16:00","2015","03","17","16:00","1.8","","-13.3","","32","","30","","38","","24.1","","99.63","","","","","","Mainly Clear"
"2015-03-17 17:00","2015","03","17","17:00","0.4","","-11.4","","41","","31","","49","","24.1","","99.69","","","","","","NA"
"2015-03-17 18:00","2015","03","17","18:00","-0.3","","-12.0","","41","","31","","37","","24.1","","99.71","","","","-8","","NA"
"2015-03-17 19:00","2015","03","17","19:00","-1.0","","-11.0","","47","","31","","45","","24.1","","99.74","","","","-9","","Mostly Cloudy"
"2015-03-17 20:00","2015","03","17","20:00","-1.8","","-11.7","","47","","32","","51","","24.1","","99.82","","","","-11","","NA"
"2015-03-17 21:00","2015","03","17","21:00","-2.3","","-12.4","","46","","32","","48","","24.1","","99.86","","","","-11","","NA"
"2015-03-17 22:00","2015","03","17","22:00","-3.0","","-12.0","","50","","32","","42","","24.1","","99.88","","","","-12","","Clear"
"2015-03-17 23:00","2015","03","17","23:00","-3.6","","-12.1","","52","","31","","34","","24.1","","99.90","","","","-12","","NA"
"2015-03-18 00:00","2015","03","18","00:00","-4.1","","-13.3","","49","","31","","36","","24.1","","99.90","","","","-12","","NA"
"2015-03-18 01:00","2015","03","18","01:00","-4.6","","-12.8","","53","","31","","27","","24.1","","99.92","","","","-12","","Clear"
"2015-03-18 02:00","2015","03","18","02:00","-4.8","","-12.5","","55","","30","","28","","24.1","","99.96","","","","-12","","NA"
"2015-03-18 03:00","2015","03","18","03:00","-5.0","","-12.5","","56","","30","","25","","24.1","","99.98","","","","-12","","NA"
"2015-03-18 04:00","2015","03","18","04:00","-5.5","","-12.5","","58","","30","","21","","24.1","","100.00","","","","-12","","Clear"
"2015-03-18 05:00","2015","03","18","05:00","-5.7","","-12.5","","59","","30","","20","","24.1","","100.02","","","","-12","","NA"
"2015-03-18 06:00","2015","03","18","06:00","-5.9","","-12.5","","60","","29","","20","","24.1","","100.09","","","","-13","","NA"
"2015-03-18 07:00","2015","03","18","07:00","-5.3","","-12.6","","57","","29","","17","","24.1","","100.12","","","","-11","","Mainly Clear"
"2015-03-18 08:00","2015","03","18","08:00","-3.6","","-13.1","","48","","29","","21","","24.1","","100.14","","","","-10","","NA"
"2015-03-18 09:00","2015","03","18","09:00","-1.8","","-15.7","","34","","30","","30","","24.1","","100.15","","","","-9","","NA"
"2015-03-18 10:00","2015","03","18","10:00","-0.6","","-15.8","","31","","32","","32","","24.1","","100.15","","","","-7","","Mainly Clear"
"2015-03-18 11:00","2015","03","18","11:00","0.7","","-13.5","","34","","31","","27","","24.1","","100.11","","","","","","NA"
"2015-03-18 12:00","2015","03","18","12:00","0.3","","-13.8","","34","","32","","29","","24.1","","100.08","","","","","","NA"
"2015-03-18 13:00","2015","03","18","13:00","1.5","","-11.7","","37","","30","","26","","24.1","","100.04","","","","","","Mostly Cloudy"
"2015-03-18 14:00","2015","03","18","14:00","1.0","","-12.8","","35","","31","","30","","24.1","","99.97","","","","","","NA"
"2015-03-18 15:00","2015","03","18","15:00","2.0","","-12.7","","33","","31","","39","","24.1","","99.95","","","","","","NA"
"2015-03-18 16:00","2015","03","18","16:00","1.4","","-12.5","","35","","30","","27","","24.1","","99.95","","","","","","Mostly Cloudy"
"2015-03-18 17:00","2015","03","18","17:00","0.4","","-14.9","","31","","31","","43","","24.1","","99.99","","","","","","NA"
"2015-03-18 18:00","2015","03","18","18:00","-0.4","","-15.6","","31","","31","","26","","24.1","","100.04","","","","-7","","NA"
"2015-03-18 19:00","2015","03","18","19:00","-1.9","","-14.5","","38","","32","","27","","24.1","","100.12","","","","-9","","Clear"
"2015-03-18 20:00","2015","03","18","20:00","-3.3","","-12.3","","50","","36","","16","","24.1","","100.23","","","","-9","","NA"
"2015-03-18 21:00","2015","03","18","21:00","-4.5","","-12.7","","53","","1","","12","","24.1","","100.31","","","","-9","","NA"
"2015-03-18 22:00","2015","03","18","22:00","-4.7","","-12.9","","53","","34","","9","","24.1","","100.32","","","","-9","","Clear"
"2015-03-18 23:00","2015","03","18","23:00","-5.2","","-12.9","","55","","29","","8","","24.1","","100.33","","","","-9","","NA"
"2015-03-19 00:00","2015","03","19","00:00","-5.7","","-11.9","","62","","25","","7","","24.1","","100.35","","","","-9","","NA"
"2015-03-19 01:00","2015","03","19","01:00","-5.9","","-12.9","","58","","25","","8","","24.1","","100.39","","","","-10","","Clear"
"2015-03-19 02:00","2015","03","19","02:00","-7.9","","-13.2","","66","","27","","10","","24.1","","100.42","","","","-13","","NA"
"2015-03-19 03:00","2015","03","19","03:00","-6.6","","-12.3","","64","","30","","12","","24.1","","100.46","","","","-12","","NA"
"2015-03-19 04:00","2015","03","19","04:00","-7.1","","-12.6","","65","","29","","10","","24.1","","100.49","","","","-12","","Clear"
"2015-03-19 05:00","2015","03","19","05:00","-7.1","","-12.4","","66","","32","","13","","24.1","","100.55","","","","-13","","NA"
"2015-03-19 06:00","2015","03","19","06:00","-7.1","","-12.4","","66","","34","","9","","24.1","","100.61","","","","-11","","NA"
"2015-03-19 07:00","2015","03","19","07:00","-6.1","","-12.3","","62","","34","","14","","24.1","","100.69","","","","-12","","Mainly Clear"
"2015-03-19 08:00","2015","03","19","08:00","-4.4","","-11.1","","60","","1","","16","","24.1","","100.73","","","","-10","","NA"
"2015-03-19 09:00","2015","03","19","09:00","-2.3","","-11.1","","51","","2","","13","","24.1","","100.78","","","","-7","","NA"
"2015-03-19 10:00","2015","03","19","10:00","-0.7","","-13.4","","38","","36","","10","","24.1","","100.79","","","","-4","","Mainly Clear"
"2015-03-19 11:00","2015","03","19","11:00","0.7","","-15.0","","30","","33","","8","","24.1","","100.78","","","","","","NA"
"2015-03-19 12:00","2015","03","19","12:00","1.0","","-12.2","","37","","17","","16","","24.1","","100.75","","","","","","NA"
"2015-03-19 13:00","2015","03","19","13:00","0.7","","-10.8","","42","","17","","15","","24.1","","100.72","","","","","","Mainly Clear"
"2015-03-19 14:00","2015","03","19","14:00","0.8","","-12.7","","36","","14","","18","","24.1","","100.62","","","","","","NA"
"2015-03-19 15:00","2015","03","19","15:00","0.6","","-14.7","","31","","16","","16","","24.1","","100.58","","","","","","NA"
"2015-03-19 16:00","2015","03","19","16:00","0.8","","-14.5","","31","","17","","14","","24.1","","100.55","","","","","","Mostly Cloudy"
"2015-03-19 17:00","2015","03","19","17:00","0.4","","-15.3","","30","","14","","14","","24.1","","100.51","","","","","","NA"
"2015-03-19 18:00","2015","03","19","18:00","-0.1","","-14.6","","33","","14","","11","","24.1","","100.51","","","","-4","","NA"
"2015-03-19 19:00","2015","03","19","19:00","-1.0","","-14.3","","36","","15","","9","","24.1","","100.51","","","","-4","","Cloudy"
"2015-03-19 20:00","2015","03","19","20:00","-1.1","","-13.7","","38","","14","","5","","24.1","","100.52","","","","-3","","NA"
"2015-03-19 21:00","2015","03","19","21:00","-1.1","","-13.1","","40","","8","","7","","24.1","","100.50","","","","-4","","NA"
"2015-03-19 22:00","2015","03","19","22:00","-1.0","","-12.4","","42","","11","","8","","24.1","","100.41","","","","-4","","Cloudy"
"2015-03-19 23:00","2015","03","19","23:00","-1.1","","-11.6","","45","","13","","14","","24.1","","100.39","","","","-6","","NA"
"2015-03-20 00:00","2015","03","20","00:00","-1.3","","-8.1","","60","","12","","12","","24.1","","100.29","","","","-5","","NA"
"2015-03-20 01:00","2015","03","20","01:00","-1.2","","-10.4","","50","","11","","14","","24.1","","100.21","","","","-6","","Cloudy"
"2015-03-20 02:00","2015","03","20","02:00","-1.3","","-10.0","","52","","9","","8","","24.1","","100.17","","","","-4","","NA"
"2015-03-20 03:00","2015","03","20","03:00","-1.3","","-9.5","","54","","5","","7","","24.1","","100.09","","","","-4","","NA"
"2015-03-20 04:00","2015","03","20","04:00","-0.8","","-9.5","","52","","6","","13","","24.1","","100.00","","","","-5","","Cloudy"
"2015-03-20 05:00","2015","03","20","05:00","-0.5","","-9.7","","50","","9","","7","","24.1","","99.93","","","","-3","","NA"
"2015-03-20 06:00","2015","03","20","06:00","-0.4","","-8.1","","56","","9","","8","","24.1","","99.90","","","","-3","","NA"
"2015-03-20 07:00","2015","03","20","07:00","-0.4","","-7.5","","59","","9","","8","","24.1","","99.90","","","","-3","","Mostly Cloudy"
"2015-03-20 08:00","2015","03","20","08:00","0.2","","-6.7","","60","","10","","5","","24.1","","99.92","","","","","","NA"
"2015-03-20 09:00","2015","03","20","09:00","1.3","","-6.3","","57","","8","","5","","24.1","","99.93","","","","","","NA"
"2015-03-20 10:00","2015","03","20","10:00","3.4","","-6.1","","50","","15","","8","","24.1","","99.89","","","","","","Mainly Clear"
"2015-03-20 11:00","2015","03","20","11:00","4.5","","-5.9","","47","","13","","10","","24.1","","99.85","","","","","","NA"
"2015-03-20 12:00","2015","03","20","12:00","4.7","","-5.4","","48","","15","","12","","24.1","","99.80","","","","","","NA"
"2015-03-20 13:00","2015","03","20","13:00","3.9","","-6.4","","47","","13","","15","","24.1","","99.72","","","","","","Mainly Clear"
"2015-03-20 14:00","2015","03","20","14:00","5.8","","-5.8","","43","","13","","15","","24.1","","99.64","","","","","","NA"
"2015-03-20 15:00","2015","03","20","15:00","7.8","","-5.3","","39","","19","","16","","24.1","","99.58","","","","","","NA"
"2015-03-20 16:00","2015","03","20","16:00","7.0","","-4.4","","44","","16","","17","","24.1","","99.56","","","","","","Mostly Cloudy"
"2015-03-20 17:00","2015","03","20","17:00","4.8","","-2.5","","59","","16","","17","","24.1","","99.53","","","","","","NA"
"2015-03-20 18:00","2015","03","20","18:00","3.5","","-1.3","","71","","15","","9","","24.1","","99.52","","","","","","NA"
"2015-03-20 19:00","2015","03","20","19:00","3.0","","-0.8","","76","","16","","10","","24.1","","99.52","","","","","","Mostly Cloudy"
"2015-03-20 20:00","2015","03","20","20:00","3.6","","-0.6","","74","","16","","8","","24.1","","99.53","","","","","","NA"
"2015-03-20 21:00","2015","03","20","21:00","3.8","","-0.6","","73","","15","","5","","24.1","","99.56","","","","","","NA"
"2015-03-20 22:00","2015","03","20","22:00","3.9","","-0.7","","72","","15","","6","","24.1","","99.51","","","","","","Cloudy"
"2015-03-20 23:00","2015","03","20","23:00","4.8","","-2.3","","60","","21","","10","","24.1","","99.50","","","","","","NA"
"2015-03-21 00:00","2015","03","21","00:00","4.6","","-2.3","","61","","22","","9","","19.3","","99.44","","","","","","Rain"
"2015-03-21 01:00","2015","03","21","01:00","3.8","","-0.2","","75","","21","","9","","16.1","","99.39","","","","","","Rain"
"2015-03-21 02:00","2015","03","21","02:00","2.2","","0.3","","87","","14","","8","","12.9","","99.33","","","","","","Rain"
"2015-03-21 03:00","2015","03","21","03:00","1.5","","0.3","","92","","15","","10","","12.9","","99.24","","","","","","Rain"
"2015-03-21 04:00","2015","03","21","04:00","2.4","","1.1","","91","","22","","12","","11.3","","99.17","","","","","","Rain"
"2015-03-21 05:00","2015","03","21","05:00","2.5","","1.3","","92","","22","","13","","11.3","","99.11","","","","","","Rain"
"2015-03-21 06:00","2015","03","21","06:00","2.4","","1.2","","92","","22","","14","","12.9","","99.10","","","","","","NA"
"2015-03-21 07:00","2015","03","21","07:00","2.6","","1.6","","93","","22","","11","","9.7","","99.05","","","","","","Rain,Fog"
"2015-03-21 08:00","2015","03","21","08:00","3.2","","2.0","","92","","21","","11","","9.7","","98.98","","","","","","Rain,Fog"
"2015-03-21 09:00","2015","03","21","09:00","3.9","","2.4","","90","","23","","17","","8.1","","98.96","","","","","","Fog"
"2015-03-21 10:00","2015","03","21","10:00","5.6","","3.6","","87","","25","","20","","8.1","","98.94","","","","","","Fog"
"2015-03-21 11:00","2015","03","21","11:00","5.6","","2.4","","80","","28","","39","","11.3","","99.01","","","","","","NA"
"2015-03-21 12:00","2015","03","21","12:00","6.3","","0.4","","66","","31","","44","","24.1","","99.08","","","","","","NA"
"2015-03-21 13:00","2015","03","21","13:00","6.1","","-2.8","","53","","31","","43","","24.1","","99.15","","","","","","Mainly Clear"
"2015-03-21 14:00","2015","03","21","14:00","5.5","","-4.7","","48","","32","","42","","24.1","","99.19","","","","","","NA"
"2015-03-21 15:00","2015","03","21","15:00","4.4","","-7.1","","43","","30","","46","","24.1","","99.24","","","","","","NA"
"2015-03-21 16:00","2015","03","21","16:00","3.7","","-7.5","","44","","29","","38","","24.1","","99.34","","","","","","Mainly Clear"
"2015-03-21 17:00","2015","03","21","17:00","1.9","","-8.8","","45","","32","","38","","24.1","","99.45","","","","","","NA"
"2015-03-21 18:00","2015","03","21","18:00","-0.2","","-10.5","","46","","30","","40","","24.1","","99.58","","","","-8","","NA"
"2015-03-21 19:00","2015","03","21","19:00","-1.4","","-11.1","","48","","30","","30","","24.1","","99.67","","","","-8","","Clear"
"2015-03-21 20:00","2015","03","21","20:00","-2.7","","-12.3","","48","","31","","35","","24.1","","99.74","","","","-11","","NA"
"2015-03-21 21:00","2015","03","21","21:00","-3.7","","-12.2","","52","","31","","33","","24.1","","99.81","","","","-12","","NA"
"2015-03-21 22:00","2015","03","21","22:00","-4.6","","-11.7","","58","","30","","32","","24.1","","99.86","","","","-13","","Clear"
"2015-03-21 23:00","2015","03","21","23:00","-5.2","","-11.8","","60","","30","","28","","24.1","","99.93","","","","-13","","NA"
"2015-03-22 00:00","2015","03","22","00:00","-5.9","","-13.6","","55","","30","","29","","24.1","","100.00","","","","-14","","NA"
"2015-03-22 01:00","2015","03","22","01:00","-6.3","","-12.7","","61","","31","","26","","24.1","","100.09","","","","-14","","Mostly Cloudy"
"2015-03-22 02:00","2015","03","22","02:00","-6.9","","-12.4","","65","","32","","23","","24.1","","100.13","","","","-14","","NA"
"2015-03-22 03:00","2015","03","22","03:00","-7.2","","-12.3","","67","","31","","23","","24.1","","100.15","","","","-15","","NA"
"2015-03-22 04:00","2015","03","22","04:00","-7.5","","-11.9","","71","","33","","26","","24.1","","100.16","","","","-16","","Mainly Clear"
"2015-03-22 05:00","2015","03","22","05:00","-8.9","","-14.3","","65","","2","","33","","24.1","","100.28","","","","-18","","NA"
"2015-03-22 06:00","2015","03","22","06:00","-9.7","","-16.7","","57","","36","","26","","24.1","","100.35","","","","-19","","NA"
"2015-03-22 07:00","2015","03","22","07:00","-10.1","","-18.7","","50","","36","","26","","24.1","","100.47","","","","-19","","Mainly Clear"
"2015-03-22 08:00","2015","03","22","08:00","-9.2","","-18.6","","47","","35","","21","","24.1","","100.52","","","","-17","","NA"
"2015-03-22 09:00","2015","03","22","09:00","-8.5","","-19.0","","43","","36","","21","","24.1","","100.51","","","","-16","","NA"
"2015-03-22 10:00","2015","03","22","10:00","-7.1","","-18.9","","39","","30","","21","","24.1","","100.51","","","","-14","","Clear"
"2015-03-22 11:00","2015","03","22","11:00","-6.4","","-18.5","","38","","31","","12","","24.1","","100.44","","","","-12","","NA"
"2015-03-22 12:00","2015","03","22","12:00","-4.4","","-17.4","","36","","29","","13","","24.1","","100.35","","","","-9","","NA"
"2015-03-22 13:00","2015","03","22","13:00","-3.5","","-17.3","","34","","32","","16","","24.1","","100.29","","","","-9","","Mainly Clear"
"2015-03-22 14:00","2015","03","22","14:00","-2.9","","-15.7","","37","","29","","29","","24.1","","100.20","","","","-10","","NA"
"2015-03-22 15:00","2015","03","22","15:00","-2.8","","-15.9","","36","","30","","37","","24.1","","100.16","","","","-11","","NA"
"2015-03-22 16:00","2015","03","22","16:00","-2.5","","-15.3","","37","","30","","35","","24.1","","100.14","","","","-10","","Mainly Clear"
"2015-03-22 17:00","2015","03","22","17:00","-4.0","","-14.3","","45","","30","","32","","24.1","","100.16","","","","-12","","NA"
"2015-03-22 18:00","2015","03","22","18:00","-4.7","","-12.4","","55","","30","","28","","24.1","","100.19","","","","-12","","NA"
"2015-03-22 19:00","2015","03","22","19:00","-4.7","","-12.7","","54","","31","","31","","24.1","","100.21","","","","-13","","Mostly Cloudy"
"2015-03-22 20:00","2015","03","22","20:00","-4.9","","-12.0","","58","","30","","27","","24.1","","100.25","","","","-12","","NA"
"2015-03-22 21:00","2015","03","22","21:00","-5.2","","-12.2","","58","","31","","26","","24.1","","100.32","","","","-13","","NA"
"2015-03-22 22:00","2015","03","22","22:00","-6.2","","-10.1","","74","","28","","15","","24.1","","100.32","","","","-12","","Mainly Clear"
"2015-03-22 23:00","2015","03","22","23:00","-6.4","","-10.7","","72","","28","","16","","24.1","","100.34","","","","-13","","NA"
"2015-03-23 00:00","2015","03","23","00:00","-6.3","","-10.7","","71","","32","","21","","24.1","","100.34","","","","-13","","NA"
"2015-03-23 01:00","2015","03","23","01:00","-6.4","","-11.4","","68","","29","","17","","24.1","","100.40","","","","-13","","Clear"
"2015-03-23 02:00","2015","03","23","02:00","-6.8","","-12.0","","67","","33","","23","","24.1","","100.44","","","","-14","","NA"
"2015-03-23 03:00","2015","03","23","03:00","-8.6","","-15.3","","59","","1","","23","","24.1","","100.52","","","","-17","","NA"
"2015-03-23 04:00","2015","03","23","04:00","-9.6","","-17.3","","54","","1","","25","","24.1","","100.59","","","","-18","","Clear"
"2015-03-23 05:00","2015","03","23","05:00","-10.4","","-17.4","","57","","1","","23","","24.1","","100.68","","","","-19","","NA"
"2015-03-23 06:00","2015","03","23","06:00","-10.9","","-17.6","","58","","2","","20","","24.1","","100.73","","","","-19","","NA"
"2015-03-23 07:00","2015","03","23","07:00","-10.9","","-18.3","","55","","35","","19","","24.1","","100.79","","","","-19","","Clear"
"2015-03-23 08:00","2015","03","23","08:00","-10.4","","-20.0","","46","","1","","20","","24.1","","100.84","","","","-18","","NA"
"2015-03-23 09:00","2015","03","23","09:00","-9.7","","-20.7","","41","","36","","19","","24.1","","100.85","","","","-17","","NA"
"2015-03-23 10:00","2015","03","23","10:00","-8.8","","-21.0","","37","","36","","18","","24.1","","100.84","","","","-16","","Mainly Clear"
"2015-03-23 11:00","2015","03","23","11:00","-7.5","","-20.2","","36","","2","","13","","24.1","","100.84","","","","-13","","NA"
"2015-03-23 12:00","2015","03","23","12:00","-5.7","","-18.6","","36","","36","","12","","24.1","","100.81","","","","-11","","NA"
"2015-03-23 13:00","2015","03","23","13:00","-5.3","","-19.6","","32","","3","","11","","24.1","","100.72","","","","-10","","Mainly Clear"
"2015-03-23 14:00","2015","03","23","14:00","-3.9","","-19.1","","30","","1","","16","","24.1","","100.65","","","","-9","","NA"
"2015-03-23 15:00","2015","03","23","15:00","-3.0","","-17.5","","32","","34","","8","","24.1","","100.60","","","","-6","","NA"
"2015-03-23 16:00","2015","03","23","16:00","-2.9","","-17.8","","31","","33","","17","","24.1","","100.56","","","","-8","","Mostly Cloudy"
"2015-03-23 17:00","2015","03","23","17:00","-3.7","","-17.1","","35","","36","","21","","24.1","","100.56","","","","-10","","NA"
"2015-03-23 18:00","2015","03","23","18:00","-4.9","","-16.9","","39","","36","","16","","24.1","","100.61","","","","-11","","NA"
"2015-03-23 19:00","2015","03","23","19:00","-5.9","","-17.8","","39","","36","","18","","24.1","","100.63","","","","-12","","Mostly Cloudy"
"2015-03-23 20:00","2015","03","23","20:00","-6.7","","-16.0","","48","","36","","18","","24.1","","100.67","","","","-13","","NA"
"2015-03-23 21:00","2015","03","23","21:00","-7.5","","-14.9","","56","","35","","20","","24.1","","100.68","","","","-15","","NA"
"2015-03-23 22:00","2015","03","23","22:00","-8.6","","-14.4","","63","","34","","16","","24.1","","100.68","","","","-15","","Mostly Cloudy"
"2015-03-23 23:00","2015","03","23","23:00","-9.0","","-15.4","","60","","36","","17","","24.1","","100.70","","","","-16","","NA"
"2015-03-24 00:00","2015","03","24","00:00","-9.5","","-15.1","","64","","36","","12","","24.1","","100.71","","","","-15","","NA"
"2015-03-24 01:00","2015","03","24","01:00","-9.6","","-15.2","","64","","34","","17","","24.1","","100.71","","","","-17","","Mostly Cloudy"
"2015-03-24 02:00","2015","03","24","02:00","-10.1","","-15.1","","67","","33","","17","","24.1","","100.68","","","","-17","","NA"
"2015-03-24 03:00","2015","03","24","03:00","-10.1","","-15.3","","66","","34","","15","","24.1","","100.66","","","","-17","","NA"
"2015-03-24 04:00","2015","03","24","04:00","-10.0","","-14.8","","68","","35","","14","","24.1","","100.68","","","","-16","","Mostly Cloudy"
"2015-03-24 05:00","2015","03","24","05:00","-9.9","","-14.6","","69","","35","","16","","24.1","","100.69","","","","-17","","NA"
"2015-03-24 06:00","2015","03","24","06:00","-9.7","","-14.2","","70","","36","","12","","24.1","","100.68","","","","-16","","NA"
"2015-03-24 07:00","2015","03","24","07:00","-8.9","","-13.4","","70","","36","","13","","24.1","","100.75","","","","-15","","Mostly Cloudy"
"2015-03-24 08:00","2015","03","24","08:00","-7.4","","-13.7","","61","","35","","11","","24.1","","100.79","","","","-12","","NA"
"2015-03-24 09:00","2015","03","24","09:00","-4.9","","-13.1","","53","","35","","6","","24.1","","100.83","","","","-8","","NA"
"2015-03-24 10:00","2015","03","24","10:00","-2.1","","-13.4","","42","","6","","5","","24.1","","100.84","","","","-4","","Mainly Clear"
"2015-03-24 11:00","2015","03","24","11:00","-1.2","","-14.5","","36","","11","","5","","24.1","","100.79","","","","-3","","NA"
"2015-03-24 12:00","2015","03","24","12:00","0.1","","-13.7","","35","","11","","10","","24.1","","100.76","","","","","","NA"
"2015-03-24 13:00","2015","03","24","13:00","1.1","","-11.7","","38","","14","","10","","24.1","","100.74","","","","","","Clear"
"2015-03-24 14:00","2015","03","24","14:00","0.5","","-10.7","","43","","16","","13","","24.1","","100.73","","","","","","NA"
"2015-03-24 15:00","2015","03","24","15:00","1.0","","-10.5","","42","","15","","13","","24.1","","100.68","","","","","","NA"
"2015-03-24 16:00","2015","03","24","16:00","0.6","","-11.5","","40","","12","","10","","24.1","","100.66","","","","","","Clear"
"2015-03-24 17:00","2015","03","24","17:00","0.1","","-13.7","","35","","12","","14","","24.1","","100.62","","","","","","NA"
"2015-03-24 18:00","2015","03","24","18:00","-0.4","","-13.8","","36","","13","","10","","24.1","","100.65","","","","-4","","NA"
"2015-03-24 19:00","2015","03","24","19:00","-1.5","","-12.8","","42","","14","","7","","24.1","","100.63","","","","-4","","Mainly Clear"
"2015-03-24 20:00","2015","03","24","20:00","-1.8","","-10.7","","51","","15","","7","","24.1","","100.65","","","","-4","","NA"
"2015-03-24 21:00","2015","03","24","21:00","-2.3","","-9.3","","59","","15","","5","","24.1","","100.68","","","","-4","","NA"
"2015-03-24 22:00","2015","03","24","22:00","-2.6","","-8.7","","63","","10","","4","","24.1","","100.66","","","","-4","","Mainly Clear"
"2015-03-24 23:00","2015","03","24","23:00","-3.1","","-8.6","","66","","9","","10","","24.1","","100.54","","","","-7","","NA"
"2015-03-25 00:00","2015","03","25","00:00","-3.4","","-7.8","","72","","11","","5","","24.1","","100.52","","","","-5","","NA"
"2015-03-25 01:00","2015","03","25","01:00","-3.6","","-7.4","","75","","7","","6","","24.1","","100.52","","","","-6","","Mainly Clear"
"2015-03-25 02:00","2015","03","25","02:00","-4.0","","-7.1","","79","","6","","7","","24.1","","100.45","","","","-7","","NA"
"2015-03-25 03:00","2015","03","25","03:00","-4.3","","-6.6","","84","","7","","7","","24.1","","100.32","","","","-7","","NA"
"2015-03-25 04:00","2015","03","25","04:00","-3.8","","-6.1","","84","","7","","8","","24.1","","100.16","","","","-7","","Mainly Clear"
"2015-03-25 05:00","2015","03","25","05:00","-4.2","","-6.5","","84","","36","","2","","24.1","","100.13","","","","-5","","NA"
"2015-03-25 06:00","2015","03","25","06:00","-2.5","","-5.0","","83","","7","","4","","24.1","","100.11","","","","-4","","NA"
"2015-03-25 07:00","2015","03","25","07:00","-1.5","","-3.7","","85","","9","","9","","24.1","","99.97","","","","-5","","Cloudy"
"2015-03-25 08:00","2015","03","25","08:00","0.1","","-2.9","","80","","10","","12","","24.1","","99.84","","","","","","NA"
"2015-03-25 09:00","2015","03","25","09:00","2.5","","-4.3","","61","","10","","18","","24.1","","99.70","","","","","","NA"
"2015-03-25 10:00","2015","03","25","10:00","3.1","","-6.1","","51","","12","","20","","24.1","","99.54","","","","","","Cloudy"
"2015-03-25 11:00","2015","03","25","11:00","1.5","","-3.6","","69","","10","","22","","24.1","","99.36","","","","","","Rain"
"2015-03-25 12:00","2015","03","25","12:00","1.0","","-1.1","","86","","10","","13","","19.3","","99.24","","","","","","Rain"
"2015-03-25 13:00","2015","03","25","13:00","0.8","","-0.7","","90","","10","","17","","8.1","","99.15","","","","","","Rain,Fog"
"2015-03-25 14:00","2015","03","25","14:00","1.2","","0.3","","94","","10","","12","","2.8","","99.02","","","","","","Drizzle,Fog"
"2015-03-25 15:00","2015","03","25","15:00","2.2","","1.5","","95","","22","","8","","1.6","","98.98","","","","","","Drizzle,Fog"
"2015-03-25 16:00","2015","03","25","16:00","2.7","","2.1","","96","","16","","10","","2.0","","98.95","","","","","","Drizzle,Fog"
"2015-03-25 17:00","2015","03","25","17:00","3.3","","2.7","","96","","18","","9","","2.0","","98.99","","","","","","Drizzle,Fog"
"2015-03-25 18:00","2015","03","25","18:00","3.6","","3.0","","96","","17","","9","","4.0","","99.03","","","","","","Drizzle,Fog"
"2015-03-25 19:00","2015","03","25","19:00","4.4","","3.7","","95","","16","","7","","6.4","","99.07","","","","","","Fog"
"2015-03-25 20:00","2015","03","25","20:00","5.6","","4.6","","93","","17","","10","","9.7","","99.10","","","","","","Fog"
"2015-03-25 21:00","2015","03","25","21:00","6.3","","4.6","","89","","20","","13","","9.7","","99.13","","","","","","Fog"
"2015-03-25 22:00","2015","03","25","22:00","6.2","","4.4","","88","","24","","15","","9.7","","99.15","","","","","","Fog"
"2015-03-25 23:00","2015","03","25","23:00","5.3","","2.1","","80","","30","","30","","12.9","","99.25","","","","","","NA"
"2015-03-26 00:00","2015","03","26","00:00","3.9","","0.8","","80","","27","","18","","16.1","","99.24","","","","","","NA"
"2015-03-26 01:00","2015","03","26","01:00","3.5","","0.0","","78","","28","","6","","19.3","","99.30","","","","","","Cloudy"
"2015-03-26 02:00","2015","03","26","02:00","3.1","","-0.4","","78","","28","","12","","24.1","","99.25","","","","","","NA"
"2015-03-26 03:00","2015","03","26","03:00","3.4","","-0.3","","77","","24","","15","","24.1","","99.29","","","","","","NA"
"2015-03-26 04:00","2015","03","26","04:00","3.1","","-0.4","","78","","26","","14","","24.1","","99.19","","","","","","Mostly Cloudy"
"2015-03-26 05:00","2015","03","26","05:00","2.7","","-0.8","","78","","26","","9","","24.1","","99.14","","","","","","NA"
"2015-03-26 06:00","2015","03","26","06:00","2.9","","-0.7","","77","","25","","6","","24.1","","99.04","","","","","","NA"
"2015-03-26 07:00","2015","03","26","07:00","3.5","","-0.2","","77","","20","","8","","24.1","","99.06","","","","","","Cloudy"
"2015-03-26 08:00","2015","03","26","08:00","3.3","","-0.2","","78","","21","","12","","19.3","","99.07","","","","","","NA"
"2015-03-26 09:00","2015","03","26","09:00","3.5","","-0.3","","76","","23","","10","","17.7","","99.02","","","","","","NA"
"2015-03-26 10:00","2015","03","26","10:00","3.4","","0.1","","79","","20","","9","","9.7","","98.93","","","","","","Rain"
"2015-03-26 11:00","2015","03","26","11:00","2.6","","1.3","","91","","20","","13","","8.1","","98.92","","","","","","Rain,Fog"
"2015-03-26 12:00","2015","03","26","12:00","3.4","","1.8","","89","","22","","14","","12.9","","98.84","","","","","","Rain"
"2015-03-26 13:00","2015","03","26","13:00","4.7","","1.7","","81","","26","","13","","12.9","","98.79","","","","","","Cloudy"
"2015-03-26 14:00","2015","03","26","14:00","5.5","","0.7","","71","","27","","14","","16.1","","98.72","","","","","","NA"
"2015-03-26 15:00","2015","03","26","15:00","4.8","","-0.2","","70","","26","","17","","24.1","","98.71","","","","","","NA"
"2015-03-26 16:00","2015","03","26","16:00","5.1","","-0.7","","66","","28","","21","","24.1","","98.71","","","","","","Cloudy"
"2015-03-26 17:00","2015","03","26","17:00","4.7","","-0.9","","67","","27","","27","","24.1","","98.75","","","","","","NA"
"2015-03-26 18:00","2015","03","26","18:00","4.2","","-1.2","","68","","28","","19","","24.1","","98.81","","","","","","NA"
"2015-03-26 19:00","2015","03","26","19:00","3.6","","-1.2","","71","","29","","18","","24.1","","98.85","","","","","","Cloudy"
"2015-03-26 20:00","2015","03","26","20:00","3.0","","-1.4","","73","","28","","18","","24.1","","98.92","","","","","","NA"
"2015-03-26 21:00","2015","03","26","21:00","2.3","","-1.7","","75","","28","","14","","24.1","","98.96","","","","","","NA"
"2015-03-26 22:00","2015","03","26","22:00","1.8","","-2.0","","76","","28","","13","","24.1","","98.94","","","","","","Mostly Cloudy"
"2015-03-26 23:00","2015","03","26","23:00","1.0","","-2.8","","76","","28","","13","","24.1","","98.91","","","","","","NA"
"2015-03-27 00:00","2015","03","27","00:00","-0.3","","-3.0","","82","","27","","10","","24.1","","98.86","","","","-4","","NA"
"2015-03-27 01:00","2015","03","27","01:00","0.5","","-2.2","","82","","28","","11","","24.1","","98.91","","","","","","Mostly Cloudy"
"2015-03-27 02:00","2015","03","27","02:00","0.2","","-2.5","","82","","30","","17","","24.1","","98.89","","","","","","NA"
"2015-03-27 03:00","2015","03","27","03:00","-0.8","","-3.7","","81","","30","","19","","24.1","","98.90","","","","-6","","NA"
"2015-03-27 04:00","2015","03","27","04:00","-0.9","","-3.8","","81","","28","","19","","24.1","","98.97","","","","-6","","Mostly Cloudy"
"2015-03-27 05:00","2015","03","27","05:00","-0.9","","-4.3","","78","","29","","23","","24.1","","98.97","","","","-7","","NA"
"2015-03-27 06:00","2015","03","27","06:00","-1.2","","-4.7","","77","","34","","27","","24.1","","99.00","","","","-8","","NA"
"2015-03-27 07:00","2015","03","27","07:00","-2.1","","-5.4","","78","","36","","19","","24.1","","99.03","","","","-8","","Mostly Cloudy"
"2015-03-27 08:00","2015","03","27","08:00","-3.0","","-7.0","","74","","33","","27","","24.1","","99.06","","","","-10","","NA"
"2015-03-27 09:00","2015","03","27","09:00","-3.5","","-7.8","","72","","35","","23","","24.1","","99.14","","","","-10","","NA"
"2015-03-27 10:00","2015","03","27","10:00","-3.8","","-9.5","","65","","35","","30","","24.1","","99.20","","","","-11","","Mostly Cloudy"
"2015-03-27 11:00","2015","03","27","11:00","-2.9","","-9.8","","59","","36","","31","","24.1","","99.19","","","","-10","","NA"
"2015-03-27 12:00","2015","03","27","12:00","-3.3","","-10.2","","59","","34","","23","","24.1","","99.23","","","","-10","","NA"
"2015-03-27 13:00","2015","03","27","13:00","-4.0","","-11.3","","57","","34","","35","","24.1","","99.26","","","","-12","","Cloudy"
"2015-03-27 14:00","2015","03","27","14:00","-3.1","","-11.2","","54","","36","","33","","24.1","","99.23","","","","-11","","NA"
"2015-03-27 15:00","2015","03","27","15:00","-3.9","","-12.1","","53","","35","","35","","24.1","","99.24","","","","-12","","NA"
"2015-03-27 16:00","2015","03","27","16:00","-4.6","","-12.3","","55","","36","","37","","24.1","","99.30","","","","-13","","Mostly Cloudy"
"2015-03-27 17:00","2015","03","27","17:00","-5.5","","-13.0","","56","","34","","35","","24.1","","99.36","","","","-14","","NA"
"2015-03-27 18:00","2015","03","27","18:00","-6.8","","-13.8","","58","","33","","34","","24.1","","99.45","","","","-16","","NA"
"2015-03-27 19:00","2015","03","27","19:00","-6.9","","-12.8","","63","","32","","31","","24.1","","99.53","","","","-16","","Cloudy"
"2015-03-27 20:00","2015","03","27","20:00","-7.0","","-13.9","","58","","33","","29","","24.1","","99.58","","","","-15","","NA"
"2015-03-27 21:00","2015","03","27","21:00","-7.2","","-13.9","","59","","34","","27","","24.1","","99.61","","","","-15","","NA"
"2015-03-27 22:00","2015","03","27","22:00","-7.3","","-14.2","","58","","34","","27","","24.1","","99.63","","","","-16","","Mostly Cloudy"
"2015-03-27 23:00","2015","03","27","23:00","-7.2","","-14.6","","56","","36","","27","","24.1","","99.69","","","","-15","","NA"
"2015-03-28 00:00","2015","03","28","00:00","-7.4","","-16.4","","49","","36","","25","","24.1","","99.71","","","","-15","","NA"
"2015-03-28 01:00","2015","03","28","01:00","-8.2","","-16.7","","51","","35","","31","","24.1","","99.74","","","","-17","","Cloudy"
"2015-03-28 02:00","2015","03","28","02:00","-8.8","","-16.1","","56","","36","","26","","24.1","","99.77","","","","-17","","NA"
"2015-03-28 03:00","2015","03","28","03:00","-9.2","","-16.7","","55","","1","","23","","24.1","","99.79","","","","-17","","NA"
"2015-03-28 04:00","2015","03","28","04:00","-10.2","","-17.0","","58","","1","","31","","24.1","","99.83","","","","-20","","Mainly Clear"
"2015-03-28 05:00","2015","03","28","05:00","-10.8","","-17.3","","59","","36","","29","","24.1","","99.88","","","","-20","","NA"
"2015-03-28 06:00","2015","03","28","06:00","-11.0","","-17.5","","59","","36","","26","","24.1","","99.96","","","","-20","","NA"
"2015-03-28 07:00","2015","03","28","07:00","-10.4","","-17.6","","56","","36","","22","","24.1","","100.05","","","","-19","","Mainly Clear"
"2015-03-28 08:00","2015","03","28","08:00","-9.0","","-18.7","","46","","36","","31","","24.1","","100.11","","","","-18","","NA"
"2015-03-28 09:00","2015","03","28","09:00","-7.5","","-19.2","","39","","1","","25","","24.1","","100.15","","","","-16","","NA"
"2015-03-28 10:00","2015","03","28","10:00","-5.9","","-19.1","","35","","35","","27","","24.1","","100.18","","","","-14","","Clear"
"2015-03-28 11:00","2015","03","28","11:00","-5.1","","-18.7","","34","","34","","27","","24.1","","100.16","","","","-13","","NA"
"2015-03-28 12:00","2015","03","28","12:00","-3.2","","-17.7","","32","","34","","30","","24.1","","100.11","","","","-11","","NA"
"2015-03-28 13:00","2015","03","28","13:00","-2.7","","-17.7","","31","","34","","27","","24.1","","100.10","","","","-10","","Clear"
"2015-03-28 14:00","2015","03","28","14:00","-2.1","","-17.5","","30","","33","","21","","24.1","","100.07","","","","-8","","NA"
"2015-03-28 15:00","2015","03","28","15:00","-1.8","","-19.0","","26","","34","","31","","24.1","","100.04","","","","-9","","NA"
"2015-03-28 16:00","2015","03","28","16:00","-1.2","","-18.4","","26","","36","","27","","24.1","","100.05","","","","-8","","Clear"
"2015-03-28 17:00","2015","03","28","17:00","-1.7","","-16.8","","31","","34","","25","","24.1","","100.08","","","","-8","","NA"
"2015-03-28 18:00","2015","03","28","18:00","-2.8","","-17.0","","33","","36","","28","","24.1","","100.15","","","","-10","","NA"
"2015-03-28 19:00","2015","03","28","19:00","-4.0","","-17.4","","35","","35","","20","","24.1","","100.21","","","","-10","","Clear"
"2015-03-28 20:00","2015","03","28","20:00","-4.3","","-17.3","","36","","35","","20","","24.1","","100.27","","","","-11","","NA"
"2015-03-28 21:00","2015","03","28","21:00","-5.2","","-15.1","","46","","31","","15","","24.1","","100.32","","","","-11","","NA"
"2015-03-28 22:00","2015","03","28","22:00","-5.7","","-12.7","","58","","30","","12","","24.1","","100.35","","","","-11","","Clear"
"2015-03-28 23:00","2015","03","28","23:00","-6.7","","-13.0","","61","","27","","9","","24.1","","100.40","","","","-11","","NA"
"2015-03-29 00:00","2015","03","29","00:00","-6.9","","-12.8","","63","","25","","7","","24.1","","100.38","","","","-10","","NA"
"2015-03-29 01:00","2015","03","29","01:00","-7.8","","-13.3","","65","","26","","9","","24.1","","100.39","","","","-12","","Clear"
"2015-03-29 02:00","2015","03","29","02:00","-9.2","","-13.5","","71","","26","","10","","24.1","","100.36","","","","-14","","NA"
"2015-03-29 03:00","2015","03","29","03:00","-8.2","","-12.4","","72","","24","","7","","24.1","","100.33","","","","-12","","NA"
"2015-03-29 04:00","2015","03","29","04:00","-7.7","","-12.3","","70","","24","","10","","24.1","","100.35","","","","-13","","Clear"
"2015-03-29 05:00","2015","03","29","05:00","-7.6","","-12.5","","68","","22","","7","","24.1","","100.37","","","","-11","","NA"
"2015-03-29 06:00","2015","03","29","06:00","-7.7","","-12.4","","69","","16","","8","","24.1","","100.35","","","","-12","","NA"
"2015-03-29 07:00","2015","03","29","07:00","-7.0","","-11.2","","72","","16","","7","","24.1","","100.38","","","","-11","","Mainly Clear"
"2015-03-29 08:00","2015","03","29","08:00","-2.8","","-8.9","","63","","25","","19","","24.1","","100.40","","","","-9","","NA"
"2015-03-29 09:00","2015","03","29","09:00","-0.5","","-9.7","","50","","23","","16","","24.1","","100.36","","","","-5","","NA"
"2015-03-29 10:00","2015","03","29","10:00","1.7","","-10.2","","41","","23","","15","","24.1","","100.31","","","","","","Mainly Clear"
"2015-03-29 11:00","2015","03","29","11:00","3.7","","-10.8","","34","","20","","16","","24.1","","100.18","","","","","","NA"
"2015-03-29 12:00","2015","03","29","12:00","4.2","","-7.6","","42","","20","","22","","24.1","","100.06","","","","","","NA"
"2015-03-29 13:00","2015","03","29","13:00","5.2","","-11.0","","30","","21","","33","","24.1","","99.91","","","","","","Mainly Clear"
"2015-03-29 14:00","2015","03","29","14:00","5.6","","-10.7","","30","","20","","32","","24.1","","99.76","","","","","","NA"
"2015-03-29 15:00","2015","03","29","15:00","5.4","","-11.3","","29","","22","","32","","24.1","","99.58","","","","","","NA"
"2015-03-29 16:00","2015","03","29","16:00","4.2","","-12.4","","29","","21","","33","","24.1","","99.45","","","","","","Mostly Cloudy"
"2015-03-29 17:00","2015","03","29","17:00","3.9","","-10.2","","35","","20","","28","","24.1","","99.28","","","","","","NA"
"2015-03-29 18:00","2015","03","29","18:00","3.5","","-8.3","","42","","18","","21","","24.1","","99.16","","","","","","NA"
"2015-03-29 19:00","2015","03","29","19:00","3.3","","-7.8","","44","","18","","14","","24.1","","99.05","","","","","","Cloudy"
"2015-03-29 20:00","2015","03","29","20:00","4.2","","-7.3","","43","","23","","36","","24.1","","99.04","","","","","","NA"
"2015-03-29 21:00","2015","03","29","21:00","1.2","","-1.4","","83","","22","","28","","9.7","","99.03","","","","","","Snow"
"2015-03-29 22:00","2015","03","29","22:00","1.5","","-1.2","","82","","19","","24","","24.1","","98.82","","","","","","Cloudy"
"2015-03-29 23:00","2015","03","29","23:00","1.9","","-1.9","","76","","18","","20","","24.1","","98.68","","","","","","NA"
"2015-03-30 00:00","2015","03","30","00:00","2.8","","-2.9","","66","","20","","26","","24.1","","98.47","","","","","","Rain"
"2015-03-30 01:00","2015","03","30","01:00","2.4","","0.3","","86","","22","","28","","16.1","","98.30","","","","","","Rain,Snow"
"2015-03-30 02:00","2015","03","30","02:00","2.8","","0.9","","87","","22","","34","","16.1","","98.14","","","","","","Rain"
"2015-03-30 03:00","2015","03","30","03:00","3.3","","1.2","","86","","23","","30","","16.1","","98.06","","","","","","Rain"
"2015-03-30 04:00","2015","03","30","04:00","3.6","","0.7","","81","","26","","34","","16.1","","98.06","","","","","","Cloudy"
"2015-03-30 05:00","2015","03","30","05:00","3.4","","-0.8","","74","","28","","30","","24.1","","98.17","","","","","","NA"
"2015-03-30 06:00","2015","03","30","06:00","3.2","","-1.9","","69","","28","","32","","24.1","","98.26","","","","","","NA"
"2015-03-30 07:00","2015","03","30","07:00","3.3","","-2.2","","67","","28","","33","","24.1","","98.36","","","","","","Cloudy"
"2015-03-30 08:00","2015","03","30","08:00","3.7","","-2.3","","65","","27","","50","","24.1","","98.44","","","","","","NA"
"2015-03-30 09:00","2015","03","30","09:00","4.5","","-2.6","","60","","29","","48","","24.1","","98.54","","","","","","NA"
"2015-03-30 10:00","2015","03","30","10:00","4.9","","-2.0","","61","","28","","34","","24.1","","98.63","","","","","","Mostly Cloudy"
"2015-03-30 11:00","2015","03","30","11:00","5.7","","-3.4","","52","","28","","48","","24.1","","98.68","","","","","","NA"
"2015-03-30 12:00","2015","03","30","12:00","6.6","","-3.6","","48","","30","","38","","24.1","","98.70","","","","","","NA"
"2015-03-30 13:00","2015","03","30","13:00","5.6","","0.0","","67","","27","","35","","24.1","","98.78","","","","","","Cloudy"
"2015-03-30 14:00","2015","03","30","14:00","6.9","","-1.3","","56","","29","","41","","24.1","","98.73","","","","","","NA"
"2015-03-30 15:00","2015","03","30","15:00","5.4","","1.3","","75","","30","","39","","24.1","","98.78","","","","","","NA"
"2015-03-30 16:00","2015","03","30","16:00","5.7","","-4.5","","48","","30","","44","","24.1","","98.83","","","","","","Mainly Clear"
"2015-03-30 17:00","2015","03","30","17:00","4.6","","-4.9","","50","","30","","44","","24.1","","98.88","","","","","","NA"
"2015-03-30 18:00","2015","03","30","18:00","3.2","","-5.0","","55","","31","","40","","24.1","","99.00","","","","","","NA"
"2015-03-30 19:00","2015","03","30","19:00","2.0","","-5.7","","57","","30","","30","","24.1","","99.03","","","","","","Mainly Clear"
"2015-03-30 20:00","2015","03","30","20:00","1.6","","-5.8","","58","","30","","21","","24.1","","99.07","","","","","","NA"
"2015-03-30 21:00","2015","03","30","21:00","0.3","","-5.9","","63","","29","","17","","24.1","","99.15","","","","","","NA"
"2015-03-30 22:00","2015","03","30","22:00","-0.1","","-5.5","","67","","28","","13","","24.1","","99.19","","","","-4","","Clear"
"2015-03-30 23:00","2015","03","30","23:00","-0.8","","-5.1","","73","","29","","14","","24.1","","99.22","","","","-5","","NA"
"2015-03-31 00:00","2015","03","31","00:00","-1.5","","-5.0","","77","","28","","16","","24.1","","99.20","","","","-6","","NA"
"2015-03-31 01:00","2015","03","31","01:00","-2.5","","-5.3","","81","","27","","17","","24.1","","99.18","","","","-8","","Clear"
"2015-03-31 02:00","2015","03","31","02:00","-3.0","","-5.5","","83","","28","","10","","24.1","","99.14","","","","-7","","NA"
"2015-03-31 03:00","2015","03","31","03:00","-2.8","","-5.3","","83","","30","","8","","24.1","","99.07","","","","-6","","NA"
"2015-03-31 04:00","2015","03","31","04:00","-2.6","","-5.1","","83","","27","","10","","24.1","","99.05","","","","-6","","Mostly Cloudy"
"2015-03-31 05:00","2015","03","31","05:00","-1.9","","-4.6","","82","","31","","5","","24.1","","99.00","","","","-4","","NA"
"2015-03-31 06:00","2015","03","31","06:00","-1.8","","-4.5","","82","","27","","5","","24.1","","99.00","","","","-4","","NA"
"2015-03-31 07:00","2015","03","31","07:00","-0.9","","-3.6","","82","","29","","6","","24.1","","99.01","","","","-3","","Cloudy"
"2015-03-31 08:00","2015","03","31","08:00","-0.1","","-3.3","","79","","1","","10","","24.1","","98.98","","","","-3","","NA"
"2015-03-31 09:00","2015","03","31","09:00","1.2","","-3.1","","73","","4","","7","","24.1","","98.95","","","","","","NA"
"2015-03-31 10:00","2015","03","31","10:00","2.2","","-3.5","","66","","35","","5","","24.1","","98.90","","","","","","Mostly Cloudy"
"2015-03-31 11:00","2015","03","31","11:00","3.5","","-3.3","","61","","2","","10","","24.1","","98.86","","","","","","NA"
"2015-03-31 12:00","2015","03","31","12:00","4.8","","-4.5","","51","","34","","7","","24.1","","98.84","","","","","","NA"
"2015-03-31 13:00","2015","03","31","13:00","5.1","","-3.0","","56","","16","","12","","24.1","","98.84","","","","","","Mostly Cloudy"
"2015-03-31 14:00","2015","03","31","14:00","5.0","","-2.6","","58","","20","","12","","24.1","","98.86","","","","","","NA"
"2015-03-31 15:00","2015","03","31","15:00","4.5","","-2.8","","59","","13","","11","","24.1","","98.90","","","","","","NA"
"2015-03-31 16:00","2015","03","31","16:00","6.7","","-6.0","","40","","34","","14","","24.1","","98.94","","","","","","Mostly Cloudy"
"2015-03-31 17:00","2015","03","31","17:00","5.5","","-3.6","","52","","27","","13","","24.1","","99.00","","","","","","NA"
"2015-03-31 18:00","2015","03","31","18:00","3.9","","-7.3","","44","","36","","23","","24.1","","99.07","","","","","","NA"
"2015-03-31 19:00","2015","03","31","19:00","1.2","","-7.1","","54","","1","","19","","24.1","","99.18","","","","","","Mostly Cloudy"
"2015-03-31 20:00","2015","03","31","20:00","-0.1","","-7.4","","58","","36","","24","","24.1","","99.25","","","","-6","","NA"
"2015-03-31 21:00","2015","03","31","21:00","-0.6","","-7.4","","60","","35","","26","","24.1","","99.34","","","","-7","","NA"
"2015-03-31 22:00","2015","03","31","22:00","-1.0","","-7.6","","61","","34","","16","","24.1","","99.39","","","","-6","","Mostly Cloudy"
"2015-03-31 23:00","2015","03","31","23:00","-1.0","","-8.5","","57","","33","","17","","24.1","","99.44","","","","-6","","NA"
