"Station Name","TORONTO LESTER B. PEARSON INT'L A"
"Province","ONTARIO"
"Latitude","43.68"
"Longitude","-79.63"
"Elevation","173.40"
"Climate Identifier","6158733"
"WMO Identifier","71624"
"TC Identifier","YYZ"
"All times are specified in Local Standard Time (LST). Add 1 hour to adjust for Daylight Saving Time where and when it is observed."

"Legend"
"E","Estimated"
"M","Missing"
"NA","Not Available"

"Date/Time","Year","Month","Day","Time","Temp (°C)","Temp Flag","Dew Point Temp (°C)","Dew Point Temp Flag","Rel Hum (%)","Rel Hum Flag","Wind Dir (10s deg)","Wind Dir Flag","Wind Spd (km/h)","Wind Spd Flag","Visibility (km)","Visibility Flag","Stn Press (kPa)","Stn Press Flag","Hmdx","Hmdx Flag","Wind Chill","Wind Chill Flag","Weather"
"2002-05-01 00:00","2002","05","01","00:00","3.1","","-2.8","","65","","28","","11","","24.1","","98.95","","","","","","Clear"
"2002-05-01 01:00","2002","05","01","01:00","2.5","","-2.8","","68","","25","","11","","24.1","","98.96","","","","","","Clear"
"2002-05-01 02:00","2002","05","01","02:00","1.5","","-2.9","","72","","28","","15","","24.1","","98.96","","","","","","Clear"
"2002-05-01 03:00","2002","05","01","03:00","1.1","","-3.1","","74","","27","","15","","24.1","","98.98","","","","","","Clear"
"2002-05-01 04:00","2002","05","01","04:00","1.1","","-3.1","","74","","28","","13","","24.1","","98.98","","","","","","Mainly Clear"
"2002-05-01 05:00","2002","05","01","05:00","2.4","","-3.1","","67","","30","","17","","24.1","","98.98","","","","","","Mainly Clear"
"2002-05-01 06:00","2002","05","01","06:00","1.2","","-3.1","","73","","27","","9","","24.1","","99.09","","","","","","Mainly Clear"
"2002-05-01 07:00","2002","05","01","07:00","4.1","","-1.4","","67","","28","","13","","24.1","","99.17","","","","","","Mainly Clear"
"2002-05-01 08:00","2002","05","01","08:00","6.6","","-1.4","","57","","30","","19","","24.1","","99.16","","","","","","Mainly Clear"
"2002-05-01 09:00","2002","05","01","09:00","8.8","","-0.6","","52","","31","","19","","24.1","","99.20","","","","","","Mostly Cloudy"
"2002-05-01 10:00","2002","05","01","10:00","9.4","","-1.8","","45","","28","","19","","24.1","","99.23","","","","","","Mostly Cloudy"
"2002-05-01 11:00","2002","05","01","11:00","10.0","","-0.5","","48","","26","","15","","24.1","","99.23","","","","","","Mostly Cloudy"
"2002-05-01 12:00","2002","05","01","12:00","11.2","","-0.5","","44","","29","","15","","24.1","","99.18","","","","","","Mostly Cloudy"
"2002-05-01 13:00","2002","05","01","13:00","11.8","","-0.5","","43","","27","","9","","24.1","","99.11","","","","","","Mostly Cloudy"
"2002-05-01 14:00","2002","05","01","14:00","12.2","","0.0","","43","","26","","15","","24.1","","99.11","","","","","","Mostly Cloudy"
"2002-05-01 15:00","2002","05","01","15:00","12.8","","0.5","","43","","30","","9","","24.1","","99.05","","","","","","Mostly Cloudy"
"2002-05-01 16:00","2002","05","01","16:00","13.5","","1.1","","43","","26","","7","","24.1","","98.97","","","","","","Mostly Cloudy"
"2002-05-01 17:00","2002","05","01","17:00","12.5","","0.2","","43","","16","","15","","24.1","","98.98","","","","","","Mostly Cloudy"
"2002-05-01 18:00","2002","05","01","18:00","12.0","","-0.6","","42","","13","","6","","24.1","","98.97","","","","","","Cloudy"
"2002-05-01 19:00","2002","05","01","19:00","11.5","","-0.5","","43","","14","","7","","24.1","","98.93","","","","","","Cloudy"
"2002-05-01 20:00","2002","05","01","20:00","11.1","","0.1","","47","","10","","9","","24.1","","98.84","","","","","","Cloudy"
"2002-05-01 21:00","2002","05","01","21:00","10.7","","-0.1","","47","","12","","9","","24.1","","98.88","","","","","","Cloudy"
"2002-05-01 22:00","2002","05","01","22:00","9.1","","-0.8","","50","","15","","9","","24.1","","98.88","","","","","","Cloudy"
"2002-05-01 23:00","2002","05","01","23:00","8.6","","-0.7","","52","","11","","15","","24.1","","98.85","","","","","","Cloudy"
"2002-05-02 00:00","2002","05","02","00:00","7.9","","1.8","","65","","9","","15","","16.1","","98.68","","","","","","Rain"
"2002-05-02 01:00","2002","05","02","01:00","8.4","","2.4","","66","","10","","17","","24.1","","98.55","","","","","","Rain"
"2002-05-02 02:00","2002","05","02","02:00","8.5","","1.6","","62","","9","","24","","24.1","","98.27","","","","","","Cloudy"
"2002-05-02 03:00","2002","05","02","03:00","8.0","","-1.4","","51","","9","","35","","24.1","","97.99","","","","","","Rain"
"2002-05-02 04:00","2002","05","02","04:00","6.8","","2.1","","72","","9","","32","","16.1","","97.79","","","","","","Rain"
"2002-05-02 05:00","2002","05","02","05:00","6.3","","3.2","","81","","9","","28","","4.8","","97.72","","","","","","Heavy Rain"
"2002-05-02 06:00","2002","05","02","06:00","6.2","","3.8","","85","","8","","28","","4.0","","97.60","","","","","","Heavy Rain,Fog"
"2002-05-02 07:00","2002","05","02","07:00","6.3","","3.7","","83","","9","","32","","6.4","","97.51","","","","","","Rain,Fog"
"2002-05-02 08:00","2002","05","02","08:00","6.5","","3.9","","83","","7","","28","","8.0","","97.49","","","","","","Drizzle"
"2002-05-02 09:00","2002","05","02","09:00","6.6","","4.0","","83","","8","","22","","6.4","","97.52","","","","","","Drizzle"
"2002-05-02 10:00","2002","05","02","10:00","6.6","","4.0","","83","","7","","17","","6.4","","97.56","","","","","","Drizzle"
"2002-05-02 11:00","2002","05","02","11:00","7.0","","4.6","","85","","6","","13","","6.4","","97.62","","","","","","Drizzle"
"2002-05-02 12:00","2002","05","02","12:00","7.5","","5.4","","87","","","","0","","3.6","","97.74","","","","","","Drizzle,Fog"
"2002-05-02 13:00","2002","05","02","13:00","7.4","","5.4","","87","","29","","11","","3.6","","97.75","","","","","","Drizzle,Fog"
"2002-05-02 14:00","2002","05","02","14:00","7.3","","4.7","","84","","34","","9","","16.1","","97.82","","","","","","Cloudy"
"2002-05-02 15:00","2002","05","02","15:00","7.6","","4.8","","82","","30","","6","","19.3","","97.85","","","","","","Cloudy"
"2002-05-02 16:00","2002","05","02","16:00","8.7","","5.6","","81","","22","","4","","16.1","","97.86","","","","","","Cloudy"
"2002-05-02 17:00","2002","05","02","17:00","9.7","","5.7","","76","","27","","15","","9.7","","97.94","","","","","","Haze"
"2002-05-02 18:00","2002","05","02","18:00","9.6","","5.3","","75","","28","","17","","19.3","","97.99","","","","","","Rain"
"2002-05-02 19:00","2002","05","02","19:00","8.3","","4.7","","78","","29","","26","","19.3","","98.07","","","","","","Mostly Cloudy"
"2002-05-02 20:00","2002","05","02","20:00","7.6","","3.8","","77","","26","","9","","24.1","","98.09","","","","","","Mostly Cloudy"
"2002-05-02 21:00","2002","05","02","21:00","7.5","","4.0","","78","","26","","15","","9.7","","98.13","","","","","","Rain Showers"
"2002-05-02 22:00","2002","05","02","22:00","5.3","","0.7","","72","","31","","54","","24.1","","98.27","","","","","","Mostly Cloudy"
"2002-05-02 23:00","2002","05","02","23:00","3.7","","-2.0","","66","","30","","33","","24.1","","98.43","","","","","","Mostly Cloudy"
"2002-05-03 00:00","2002","05","03","00:00","2.9","","-2.9","","66","","28","","37","","24.1","","98.51","","","","","","Clear"
"2002-05-03 01:00","2002","05","03","01:00","2.1","","-4.0","","64","","27","","26","","24.1","","98.57","","","","","","Clear"
"2002-05-03 02:00","2002","05","03","02:00","1.7","","-3.1","","70","","25","","17","","24.1","","98.61","","","","","","Clear"
"2002-05-03 03:00","2002","05","03","03:00","1.8","","-2.4","","74","","27","","26","","24.1","","98.61","","","","","","Mainly Clear"
"2002-05-03 04:00","2002","05","03","04:00","2.0","","-2.3","","73","","25","","22","","24.1","","98.65","","","","","","Clear"
"2002-05-03 05:00","2002","05","03","05:00","2.5","","-2.9","","67","","27","","24","","24.1","","98.75","","","","","","Mainly Clear"
"2002-05-03 06:00","2002","05","03","06:00","2.5","","-2.5","","70","","28","","20","","24.1","","98.83","","","","","","Mainly Clear"
"2002-05-03 07:00","2002","05","03","07:00","3.9","","-2.8","","62","","28","","30","","24.1","","98.92","","","","","","Mainly Clear"
"2002-05-03 08:00","2002","05","03","08:00","4.8","","-4.0","","53","","30","","39","","24.1","","98.96","","","","","","Mainly Clear"
"2002-05-03 09:00","2002","05","03","09:00","5.8","","-3.8","","50","","29","","46","","24.1","","99.08","","","","","","Mainly Clear"
"2002-05-03 10:00","2002","05","03","10:00","5.9","","-3.5","","51","","31","","43","","24.1","","99.18","","","","","","Mostly Cloudy"
"2002-05-03 11:00","2002","05","03","11:00","6.3","","-1.9","","56","","29","","41","","24.1","","99.35","","","","","","Mostly Cloudy"
"2002-05-03 12:00","2002","05","03","12:00","6.9","","-0.9","","58","","32","","37","","24.1","","99.45","","","","","","Cloudy"
"2002-05-03 13:00","2002","05","03","13:00","8.7","","0.5","","56","","32","","35","","24.1","","99.54","","","","","","Mostly Cloudy"
"2002-05-03 14:00","2002","05","03","14:00","10.0","","1.2","","54","","31","","22","","24.1","","99.62","","","","","","Mainly Clear"
"2002-05-03 15:00","2002","05","03","15:00","10.2","","1.1","","53","","31","","24","","24.1","","99.69","","","","","","Mainly Clear"
"2002-05-03 16:00","2002","05","03","16:00","10.9","","1.4","","52","","29","","26","","24.1","","99.73","","","","","","Mainly Clear"
"2002-05-03 17:00","2002","05","03","17:00","10.8","","1.3","","52","","27","","28","","24.1","","99.81","","","","","","Mainly Clear"
"2002-05-03 18:00","2002","05","03","18:00","10.3","","1.2","","53","","28","","28","","24.1","","99.91","","","","","","Mainly Clear"
"2002-05-03 19:00","2002","05","03","19:00","9.1","","0.8","","56","","28","","26","","24.1","","99.99","","","","","","Clear"
"2002-05-03 20:00","2002","05","03","20:00","7.5","","0.3","","60","","29","","22","","24.1","","100.13","","","","","","Clear"
"2002-05-03 21:00","2002","05","03","21:00","6.6","","0.1","","63","","29","","19","","24.1","","100.18","","","","","","Clear"
"2002-05-03 22:00","2002","05","03","22:00","4.8","","0.0","","71","","28","","13","","24.1","","100.20","","","","","","Clear"
"2002-05-03 23:00","2002","05","03","23:00","3.9","","-0.4","","73","","28","","7","","24.1","","100.21","","","","","","Clear"
"2002-05-04 00:00","2002","05","04","00:00","3.8","","-0.7","","72","","32","","9","","24.1","","100.24","","","","","","Clear"
"2002-05-04 01:00","2002","05","04","01:00","2.9","","-1.6","","72","","29","","9","","24.1","","100.28","","","","","","Clear"
"2002-05-04 02:00","2002","05","04","02:00","2.9","","-2.0","","70","","35","","9","","24.1","","100.27","","","","","","Clear"
"2002-05-04 03:00","2002","05","04","03:00","2.3","","-2.6","","70","","30","","9","","24.1","","100.28","","","","","","Clear"
"2002-05-04 04:00","2002","05","04","04:00","2.4","","-3.1","","67","","33","","6","","24.1","","100.32","","","","","","Clear"
"2002-05-04 05:00","2002","05","04","05:00","2.3","","-2.9","","68","","","","0","","24.1","","100.38","","","","","","Clear"
"2002-05-04 06:00","2002","05","04","06:00","2.7","","-3.1","","66","","20","","7","","24.1","","100.43","","","","","","Clear"
"2002-05-04 07:00","2002","05","04","07:00","5.6","","-0.6","","64","","22","","7","","24.1","","100.52","","","","","","Clear"
"2002-05-04 08:00","2002","05","04","08:00","9.2","","-1.4","","47","","19","","7","","24.1","","100.55","","","","","","Clear"
"2002-05-04 09:00","2002","05","04","09:00","11.6","","-2.4","","38","","22","","17","","24.1","","100.52","","","","","","Clear"
"2002-05-04 10:00","2002","05","04","10:00","12.9","","-1.2","","38","","20","","15","","24.1","","100.50","","","","","","Clear"
"2002-05-04 11:00","2002","05","04","11:00","13.6","","-2.2","","33","","19","","19","","24.1","","100.48","","","","","","Clear"
"2002-05-04 12:00","2002","05","04","12:00","14.8","","-0.7","","34","","18","","22","","24.1","","100.42","","","","","","Clear"
"2002-05-04 13:00","2002","05","04","13:00","13.9","","0.8","","41","","18","","9","","24.1","","100.35","","","","","","Clear"
"2002-05-04 14:00","2002","05","04","14:00","15.0","","1.4","","40","","17","","20","","24.1","","100.25","","","","","","Clear"
"2002-05-04 15:00","2002","05","04","15:00","14.6","","1.3","","40","","15","","17","","24.1","","100.19","","","","","","Clear"
"2002-05-04 16:00","2002","05","04","16:00","14.8","","0.5","","38","","16","","15","","24.1","","100.09","","","","","","Clear"
"2002-05-04 17:00","2002","05","04","17:00","14.9","","-0.6","","35","","15","","9","","24.1","","100.03","","","","","","Mainly Clear"
"2002-05-04 18:00","2002","05","04","18:00","14.6","","-1.6","","33","","14","","9","","24.1","","99.97","","","","","","Mainly Clear"
"2002-05-04 19:00","2002","05","04","19:00","13.0","","-2.4","","34","","15","","9","","24.1","","99.95","","","","","","Mainly Clear"
"2002-05-04 20:00","2002","05","04","20:00","8.8","","-0.5","","52","","17","","13","","24.1","","99.99","","","","","","Mainly Clear"
"2002-05-04 21:00","2002","05","04","21:00","6.9","","-0.1","","61","","17","","11","","24.1","","100.04","","","","","","Clear"
"2002-05-04 22:00","2002","05","04","22:00","7.4","","-0.7","","56","","16","","6","","24.1","","100.06","","","","","","Clear"
"2002-05-04 23:00","2002","05","04","23:00","6.9","","-0.5","","59","","27","","4","","24.1","","100.05","","","","","","Clear"
"2002-05-05 00:00","2002","05","05","00:00","7.1","","-0.9","","57","","","","0","","24.1","","100.05","","","","","","Clear"
"2002-05-05 01:00","2002","05","05","01:00","5.9","","-1.1","","61","","","","0","","24.1","","100.02","","","","","","Clear"
"2002-05-05 02:00","2002","05","05","02:00","5.0","","-1.3","","64","","27","","6","","24.1","","100.00","","","","","","Clear"
"2002-05-05 03:00","2002","05","05","03:00","4.4","","-1.9","","64","","28","","4","","24.1","","100.02","","","","","","Clear"
"2002-05-05 04:00","2002","05","05","04:00","5.8","","-2.5","","55","","23","","4","","24.1","","100.02","","","","","","Mostly Cloudy"
"2002-05-05 05:00","2002","05","05","05:00","5.4","","-2.7","","56","","23","","4","","24.1","","100.05","","","","","","Cloudy"
"2002-05-05 06:00","2002","05","05","06:00","6.1","","-1.8","","57","","26","","7","","24.1","","100.14","","","","","","Cloudy"
"2002-05-05 07:00","2002","05","05","07:00","7.8","","-0.6","","55","","25","","11","","19.3","","100.20","","","","","","Mostly Cloudy"
"2002-05-05 08:00","2002","05","05","08:00","10.8","","0.2","","48","","24","","11","","24.1","","100.23","","","","","","Mostly Cloudy"
"2002-05-05 09:00","2002","05","05","09:00","13.0","","1.2","","45","","24","","11","","24.1","","100.25","","","","","","Mostly Cloudy"
"2002-05-05 10:00","2002","05","05","10:00","13.5","","1.8","","45","","23","","7","","24.1","","100.26","","","","","","Cloudy"
"2002-05-05 11:00","2002","05","05","11:00","16.6","","4.3","","44","","23","","6","","24.1","","100.27","","","","","","Mainly Clear"
"2002-05-05 12:00","2002","05","05","12:00","17.6","","5.6","","45","","17","","15","","24.1","","100.20","","","","","","Mainly Clear"
"2002-05-05 13:00","2002","05","05","13:00","18.1","","5.5","","43","","15","","20","","24.1","","100.15","","","","","","Mainly Clear"
"2002-05-05 14:00","2002","05","05","14:00","18.3","","7.4","","49","","16","","22","","24.1","","100.09","","","","","","Mostly Cloudy"
"2002-05-05 15:00","2002","05","05","15:00","19.2","","7.2","","46","","17","","26","","19.3","","100.02","","","","","","Mostly Cloudy"
"2002-05-05 16:00","2002","05","05","16:00","21.6","","8.1","","42","","25","","19","","19.3","","99.98","","","","","","Mainly Clear"
"2002-05-05 17:00","2002","05","05","17:00","20.8","","7.8","","43","","24","","28","","19.3","","99.98","","","","","","Mainly Clear"
"2002-05-05 18:00","2002","05","05","18:00","20.3","","7.1","","42","","22","","24","","19.3","","99.96","","","","","","Mainly Clear"
"2002-05-05 19:00","2002","05","05","19:00","18.9","","7.1","","46","","22","","17","","24.1","","99.97","","","","","","Mainly Clear"
"2002-05-05 20:00","2002","05","05","20:00","17.7","","7.0","","49","","22","","13","","24.1","","100.01","","","","","","Mainly Clear"
"2002-05-05 21:00","2002","05","05","21:00","17.0","","6.8","","51","","21","","7","","24.1","","100.02","","","","","","Clear"
"2002-05-05 22:00","2002","05","05","22:00","16.0","","6.6","","54","","21","","6","","24.1","","99.98","","","","","","Mainly Clear"
"2002-05-05 23:00","2002","05","05","23:00","15.3","","6.6","","56","","26","","4","","24.1","","99.99","","","","","","Clear"
"2002-05-06 00:00","2002","05","06","00:00","13.1","","6.4","","64","","","","0","","24.1","","100.01","","","","","","Mainly Clear"
"2002-05-06 01:00","2002","05","06","01:00","13.9","","6.7","","62","","23","","17","","24.1","","99.98","","","","","","Mostly Cloudy"
"2002-05-06 02:00","2002","05","06","02:00","13.9","","6.6","","61","","22","","15","","24.1","","99.87","","","","","","Mainly Clear"
"2002-05-06 03:00","2002","05","06","03:00","14.2","","6.8","","61","","22","","20","","24.1","","99.83","","","","","","Mostly Cloudy"
"2002-05-06 04:00","2002","05","06","04:00","14.1","","6.7","","61","","23","","20","","24.1","","99.82","","","","","","Mostly Cloudy"
"2002-05-06 05:00","2002","05","06","05:00","14.5","","6.5","","59","","22","","15","","24.1","","99.80","","","","","","Mostly Cloudy"
"2002-05-06 06:00","2002","05","06","06:00","14.6","","6.6","","59","","21","","13","","24.1","","99.81","","","","","","Mostly Cloudy"
"2002-05-06 07:00","2002","05","06","07:00","15.7","","7.4","","58","","19","","11","","24.1","","99.79","","","","","","Mostly Cloudy"
"2002-05-06 08:00","2002","05","06","08:00","17.3","","7.6","","53","","21","","22","","24.1","","99.74","","","","","","Mainly Clear"
"2002-05-06 09:00","2002","05","06","09:00","19.4","","8.3","","49","","22","","22","","24.1","","99.65","","","","","","Mostly Cloudy"
"2002-05-06 10:00","2002","05","06","10:00","20.0","","8.3","","47","","21","","26","","24.1","","99.61","","","","","","Cloudy"
"2002-05-06 11:00","2002","05","06","11:00","20.3","","8.4","","46","","22","","33","","24.1","","99.53","","","","","","Cloudy"
"2002-05-06 12:00","2002","05","06","12:00","21.1","","8.9","","46","","22","","26","","24.1","","99.43","","","","","","Cloudy"
"2002-05-06 13:00","2002","05","06","13:00","21.9","","9.5","","45","","22","","30","","24.1","","99.34","","","","","","Cloudy"
"2002-05-06 14:00","2002","05","06","14:00","21.8","","9.9","","47","","20","","17","","24.1","","99.27","","","","","","Cloudy"
"2002-05-06 15:00","2002","05","06","15:00","20.7","","9.9","","50","","22","","32","","24.1","","99.27","","","","","","Cloudy"
"2002-05-06 16:00","2002","05","06","16:00","18.1","","10.7","","62","","25","","28","","24.1","","99.28","","","","","","Rain Showers"
"2002-05-06 17:00","2002","05","06","17:00","17.7","","11.2","","66","","22","","24","","24.1","","99.37","","","","","","Rain Showers"
"2002-05-06 18:00","2002","05","06","18:00","17.5","","10.4","","63","","21","","20","","24.1","","99.31","","","","","","Cloudy"
"2002-05-06 19:00","2002","05","06","19:00","17.3","","9.9","","62","","22","","30","","24.1","","99.28","","","","","","Cloudy"
"2002-05-06 20:00","2002","05","06","20:00","15.4","","10.1","","71","","19","","17","","24.1","","99.28","","","","","","Cloudy"
"2002-05-06 21:00","2002","05","06","21:00","14.7","","10.5","","76","","18","","13","","19.3","","99.20","","","","","","Cloudy"
"2002-05-06 22:00","2002","05","06","22:00","14.2","","10.6","","79","","19","","17","","16.1","","99.19","","","","","","Cloudy"
"2002-05-06 23:00","2002","05","06","23:00","14.0","","11.1","","83","","18","","6","","6.4","","99.20","","","","","","Drizzle"
"2002-05-07 00:00","2002","05","07","00:00","13.7","","11.0","","84","","19","","6","","6.4","","99.18","","","","","","Drizzle,Fog"
"2002-05-07 01:00","2002","05","07","01:00","14.3","","11.0","","81","","26","","11","","8.0","","99.13","","","","","","Fog"
"2002-05-07 02:00","2002","05","07","02:00","13.4","","10.1","","80","","23","","11","","12.9","","99.11","","","","","","Mostly Cloudy"
"2002-05-07 03:00","2002","05","07","03:00","13.0","","10.1","","83","","26","","9","","16.1","","99.07","","","","","","Mostly Cloudy"
"2002-05-07 04:00","2002","05","07","04:00","13.4","","10.6","","83","","26","","19","","16.1","","99.03","","","","","","Cloudy"
"2002-05-07 05:00","2002","05","07","05:00","13.7","","10.8","","83","","25","","17","","6.4","","99.03","","","","","","Haze"
"2002-05-07 06:00","2002","05","07","06:00","14.4","","11.2","","81","","24","","19","","4.8","","99.02","","","","","","Haze"
"2002-05-07 07:00","2002","05","07","07:00","14.9","","11.5","","80","","22","","13","","4.8","","99.00","","","","","","Haze"
"2002-05-07 08:00","2002","05","07","08:00","15.7","","12.1","","79","","25","","17","","6.4","","99.06","","","","","","Haze"
"2002-05-07 09:00","2002","05","07","09:00","17.9","","13.4","","75","","26","","24","","6.4","","99.06","","","","","","Haze"
"2002-05-07 10:00","2002","05","07","10:00","18.5","","14.1","","76","","26","","24","","6.4","","99.10","","","","","","Haze"
"2002-05-07 11:00","2002","05","07","11:00","19.2","","14.2","","73","","29","","28","","4.8","","99.15","","","","","","Haze"
"2002-05-07 12:00","2002","05","07","12:00","18.7","","13.6","","72","","30","","26","","9.7","","99.19","","","","","","Haze"
"2002-05-07 13:00","2002","05","07","13:00","17.4","","11.8","","70","","30","","24","","19.3","","99.27","","","","","","Cloudy"
"2002-05-07 14:00","2002","05","07","14:00","18.6","","11.4","","63","","32","","24","","24.1","","99.30","","","","","","Mostly Cloudy"
"2002-05-07 15:00","2002","05","07","15:00","17.3","","10.5","","64","","35","","19","","24.1","","99.41","","","","","","Mostly Cloudy"
"2002-05-07 16:00","2002","05","07","16:00","16.1","","8.9","","62","","34","","19","","24.1","","99.50","","","","","","Mainly Clear"
"2002-05-07 17:00","2002","05","07","17:00","16.3","","8.2","","59","","36","","22","","24.1","","99.63","","","","","","Mainly Clear"
"2002-05-07 18:00","2002","05","07","18:00","13.4","","6.0","","61","","36","","35","","24.1","","99.74","","","","","","Clear"
"2002-05-07 19:00","2002","05","07","19:00","11.4","","4.1","","61","","36","","32","","24.1","","99.88","","","","","","Clear"
"2002-05-07 20:00","2002","05","07","20:00","9.6","","2.5","","61","","34","","26","","24.1","","99.99","","","","","","Mainly Clear"
"2002-05-07 21:00","2002","05","07","21:00","9.0","","2.2","","62","","36","","22","","24.1","","100.07","","","","","","Mainly Clear"
"2002-05-07 22:00","2002","05","07","22:00","8.1","","1.9","","65","","35","","26","","24.1","","100.09","","","","","","Clear"
"2002-05-07 23:00","2002","05","07","23:00","7.2","","2.0","","69","","36","","20","","24.1","","100.16","","","","","","Clear"
"2002-05-08 00:00","2002","05","08","00:00","6.9","","1.2","","67","","3","","20","","24.1","","100.15","","","","","","Clear"
"2002-05-08 01:00","2002","05","08","01:00","6.2","","0.8","","68","","1","","17","","24.1","","100.22","","","","","","Clear"
"2002-05-08 02:00","2002","05","08","02:00","5.9","","0.5","","68","","1","","11","","24.1","","100.31","","","","","","Clear"
"2002-05-08 03:00","2002","05","08","03:00","6.1","","0.5","","67","","4","","13","","24.1","","100.38","","","","","","Clear"
"2002-05-08 04:00","2002","05","08","04:00","5.6","","0.4","","69","","4","","11","","24.1","","100.42","","","","","","Clear"
"2002-05-08 05:00","2002","05","08","05:00","5.7","","-0.7","","63","","6","","15","","24.1","","100.40","","","","","","Mainly Clear"
"2002-05-08 06:00","2002","05","08","06:00","5.7","","-0.6","","64","","6","","15","","24.1","","100.45","","","","","","Mostly Cloudy"
"2002-05-08 07:00","2002","05","08","07:00","6.3","","-0.8","","60","","9","","17","","24.1","","100.54","","","","","","Mostly Cloudy"
"2002-05-08 08:00","2002","05","08","08:00","6.8","","-0.8","","58","","10","","20","","24.1","","100.49","","","","","","Cloudy"
"2002-05-08 09:00","2002","05","08","09:00","6.7","","-0.7","","59","","9","","28","","24.1","","100.52","","","","","","Cloudy"
"2002-05-08 10:00","2002","05","08","10:00","7.6","","-0.2","","58","","10","","24","","24.1","","100.46","","","","","","Mostly Cloudy"
"2002-05-08 11:00","2002","05","08","11:00","8.2","","0.4","","58","","11","","30","","24.1","","100.44","","","","","","Cloudy"
"2002-05-08 12:00","2002","05","08","12:00","7.7","","0.2","","59","","10","","24","","24.1","","100.42","","","","","","Cloudy"
"2002-05-08 13:00","2002","05","08","13:00","7.6","","-1.1","","54","","10","","20","","24.1","","100.34","","","","","","Cloudy"
"2002-05-08 14:00","2002","05","08","14:00","7.3","","-1.8","","52","","10","","22","","24.1","","100.25","","","","","","Cloudy"
"2002-05-08 15:00","2002","05","08","15:00","6.9","","-1.7","","54","","13","","20","","24.1","","100.17","","","","","","Cloudy"
"2002-05-08 16:00","2002","05","08","16:00","7.1","","-2.8","","49","","10","","24","","24.1","","100.08","","","","","","Cloudy"
"2002-05-08 17:00","2002","05","08","17:00","8.3","","-4.3","","41","","9","","30","","24.1","","99.99","","","","","","Cloudy"
"2002-05-08 18:00","2002","05","08","18:00","8.3","","-4.6","","40","","10","","15","","24.1","","99.91","","","","","","Cloudy"
"2002-05-08 19:00","2002","05","08","19:00","8.6","","-4.6","","39","","9","","30","","24.1","","99.82","","","","","","Cloudy"
"2002-05-08 20:00","2002","05","08","20:00","9.1","","-3.9","","40","","9","","19","","24.1","","99.78","","","","","","Cloudy"
"2002-05-08 21:00","2002","05","08","21:00","9.7","","-3.3","","40","","11","","26","","24.1","","99.65","","","","","","Rain"
"2002-05-08 22:00","2002","05","08","22:00","10.3","","-3.4","","38","","10","","24","","24.1","","99.57","","","","","","Cloudy"
"2002-05-08 23:00","2002","05","08","23:00","10.2","","-3.1","","39","","9","","35","","24.1","","99.45","","","","","","Cloudy"
"2002-05-09 00:00","2002","05","09","00:00","10.1","","-2.8","","40","","9","","32","","24.1","","99.34","","","","","","Cloudy"
"2002-05-09 01:00","2002","05","09","01:00","9.7","","-1.5","","46","","10","","26","","24.1","","99.21","","","","","","Cloudy"
"2002-05-09 02:00","2002","05","09","02:00","8.9","","1.9","","61","","10","","20","","24.1","","99.06","","","","","","Cloudy"
"2002-05-09 03:00","2002","05","09","03:00","8.1","","3.7","","74","","10","","13","","24.1","","99.03","","","","","","Cloudy"
"2002-05-09 04:00","2002","05","09","04:00","7.9","","4.3","","78","","8","","9","","24.1","","98.95","","","","","","Cloudy"
"2002-05-09 05:00","2002","05","09","05:00","7.8","","5.0","","82","","8","","7","","6.4","","98.87","","","","","","Drizzle"
"2002-05-09 06:00","2002","05","09","06:00","8.0","","6.0","","87","","","","0","","3.2","","98.85","","","","","","Fog"
"2002-05-09 07:00","2002","05","09","07:00","8.5","","6.5","","87","","","","0","","3.2","","98.80","","","","","","Fog"
"2002-05-09 08:00","2002","05","09","08:00","9.1","","7.1","","87","","12","","6","","2.4","","98.64","","","","","","Fog"
"2002-05-09 09:00","2002","05","09","09:00","9.3","","7.5","","89","","","","0","","1.6","","98.50","","","","","","Heavy Rain Showers,Fog"
"2002-05-09 10:00","2002","05","09","10:00","9.3","","7.6","","89","","26","","24","","1.2","","98.59","","","","","","Thunderstorms,Heavy Rain Showers,Fog"
"2002-05-09 11:00","2002","05","09","11:00","10.4","","8.6","","89","","11","","11","","2.4","","98.30","","","","","","Fog"
"2002-05-09 12:00","2002","05","09","12:00","11.7","","10.2","","91","","14","","9","","2.8","","98.15","","","","","","Rain Showers,Fog"
"2002-05-09 13:00","2002","05","09","13:00","13.2","","11.3","","88","","18","","11","","2.0","","98.04","","","","","","Fog"
"2002-05-09 14:00","2002","05","09","14:00","16.0","","13.4","","85","","18","","11","","4.8","","98.01","","","","","","Fog"
"2002-05-09 15:00","2002","05","09","15:00","22.7","","15.8","","65","","26","","54","","19.3","","97.95","","27","","","","Mostly Cloudy"
"2002-05-09 16:00","2002","05","09","16:00","22.1","","14.4","","62","","27","","52","","24.1","","98.01","","26","","","","Mainly Clear"
"2002-05-09 17:00","2002","05","09","17:00","21.5","","13.8","","62","","26","","39","","24.1","","98.16","","25","","","","Mostly Cloudy"
"2002-05-09 18:00","2002","05","09","18:00","19.1","","12.2","","64","","27","","43","","24.1","","98.37","","","","","","Mainly Clear"
"2002-05-09 19:00","2002","05","09","19:00","16.2","","8.0","","58","","28","","44","","24.1","","98.52","","","","","","Mainly Clear"
"2002-05-09 20:00","2002","05","09","20:00","14.3","","6.1","","58","","27","","37","","24.1","","98.68","","","","","","Clear"
"2002-05-09 21:00","2002","05","09","21:00","13.8","","5.2","","56","","27","","39","","24.1","","98.88","","","","","","Clear"
"2002-05-09 22:00","2002","05","09","22:00","12.3","","2.6","","52","","27","","32","","24.1","","99.00","","","","","","Clear"
"2002-05-09 23:00","2002","05","09","23:00","11.1","","1.1","","50","","27","","35","","24.1","","99.12","","","","","","Clear"
"2002-05-10 00:00","2002","05","10","00:00","10.6","","1.3","","53","","25","","22","","24.1","","99.19","","","","","","Clear"
"2002-05-10 01:00","2002","05","10","01:00","10.4","","0.2","","49","","26","","33","","24.1","","99.23","","","","","","Clear"
"2002-05-10 02:00","2002","05","10","02:00","9.7","","-0.2","","50","","25","","22","","24.1","","99.23","","","","","","Clear"
"2002-05-10 03:00","2002","05","10","03:00","9.0","","-0.4","","52","","25","","22","","24.1","","99.26","","","","","","Clear"
"2002-05-10 04:00","2002","05","10","04:00","8.5","","-0.4","","53","","25","","24","","24.1","","99.30","","","","","","Clear"
"2002-05-10 05:00","2002","05","10","05:00","8.3","","-0.8","","53","","24","","22","","24.1","","99.32","","","","","","Clear"
"2002-05-10 06:00","2002","05","10","06:00","8.6","","-0.8","","52","","25","","22","","24.1","","99.39","","","","","","Clear"
"2002-05-10 07:00","2002","05","10","07:00","9.7","","-0.4","","49","","26","","37","","24.1","","99.44","","","","","","Clear"
"2002-05-10 08:00","2002","05","10","08:00","10.4","","-0.9","","45","","26","","50","","24.1","","99.47","","","","","","Mainly Clear"
"2002-05-10 09:00","2002","05","10","09:00","11.2","","-0.7","","44","","26","","52","","24.1","","99.50","","","","","","Mainly Clear"
"2002-05-10 10:00","2002","05","10","10:00","12.4","","0.2","","43","","27","","56","","24.1","","99.57","","","","","","Mainly Clear"
"2002-05-10 11:00","2002","05","10","11:00","12.8","","0.3","","42","","26","","52","","24.1","","99.62","","","","","","Mainly Clear"
"2002-05-10 12:00","2002","05","10","12:00","13.3","","0.2","","41","","27","","70","","24.1","","99.68","","","","","","Mainly Clear"
"2002-05-10 13:00","2002","05","10","13:00","13.7","","0.2","","40","","28","","56","","24.1","","99.73","","","","","","Mostly Cloudy"
"2002-05-10 14:00","2002","05","10","14:00","13.9","","-0.2","","38","","27","","59","","24.1","","99.78","","","","","","Mostly Cloudy"
"2002-05-10 15:00","2002","05","10","15:00","13.0","","-0.7","","39","","28","","46","","24.1","","99.86","","","","","","Mainly Clear"
"2002-05-10 16:00","2002","05","10","16:00","13.6","","-0.1","","39","","29","","46","","24.1","","99.99","","","","","","Mostly Cloudy"
"2002-05-10 17:00","2002","05","10","17:00","12.5","","-1.4","","38","","28","","52","","24.1","","100.13","","","","","","Mainly Clear"
"2002-05-10 18:00","2002","05","10","18:00","11.5","","-2.1","","39","","30","","52","","24.1","","100.25","","","","","","Clear"
"2002-05-10 19:00","2002","05","10","19:00","10.4","","-2.8","","39","","30","","32","","24.1","","100.36","","","","","","Clear"
"2002-05-10 20:00","2002","05","10","20:00","8.8","","-3.6","","41","","31","","26","","24.1","","100.48","","","","","","Clear"
"2002-05-10 21:00","2002","05","10","21:00","7.9","","-3.8","","43","","31","","22","","24.1","","100.60","","","","","","Clear"
"2002-05-10 22:00","2002","05","10","22:00","6.9","","-3.4","","48","","33","","17","","24.1","","100.64","","","","","","Clear"
"2002-05-10 23:00","2002","05","10","23:00","5.7","","-3.1","","53","","30","","11","","24.1","","100.72","","","","","","Clear"
"2002-05-11 00:00","2002","05","11","00:00","4.2","","-2.5","","62","","26","","6","","24.1","","100.82","","","","","","Clear"
"2002-05-11 01:00","2002","05","11","01:00","3.2","","-2.9","","64","","27","","7","","24.1","","100.82","","","","","","Clear"
"2002-05-11 02:00","2002","05","11","02:00","3.0","","-3.0","","65","","29","","13","","24.1","","100.88","","","","","","Clear"
"2002-05-11 03:00","2002","05","11","03:00","2.6","","-2.9","","67","","29","","13","","24.1","","100.92","","","","","","Clear"
"2002-05-11 04:00","2002","05","11","04:00","1.8","","-3.2","","69","","28","","13","","24.1","","100.98","","","","","","Clear"
"2002-05-11 05:00","2002","05","11","05:00","1.4","","-3.2","","71","","27","","7","","24.1","","101.05","","","","","","Clear"
"2002-05-11 06:00","2002","05","11","06:00","2.6","","-2.5","","69","","29","","7","","24.1","","101.14","","","","","","Clear"
"2002-05-11 07:00","2002","05","11","07:00","4.7","","-1.1","","66","","30","","11","","24.1","","101.15","","","","","","Clear"
"2002-05-11 08:00","2002","05","11","08:00","6.8","","-1.9","","54","","32","","13","","24.1","","101.11","","","","","","Clear"
"2002-05-11 09:00","2002","05","11","09:00","8.0","","-0.8","","54","","31","","9","","24.1","","101.13","","","","","","Clear"
"2002-05-11 10:00","2002","05","11","10:00","9.0","","-1.6","","47","","27","","4","","24.1","","101.15","","","","","","Mainly Clear"
"2002-05-11 11:00","2002","05","11","11:00","11.1","","-1.3","","42","","27","","15","","24.1","","101.18","","","","","","Mainly Clear"
"2002-05-11 12:00","2002","05","11","12:00","11.7","","-1.8","","39","","23","","4","","24.1","","101.13","","","","","","Mostly Cloudy"
"2002-05-11 13:00","2002","05","11","13:00","12.8","","0.8","","44","","15","","13","","24.1","","101.06","","","","","","Mostly Cloudy"
"2002-05-11 14:00","2002","05","11","14:00","12.5","","1.2","","46","","14","","11","","24.1","","100.97","","","","","","Cloudy"
"2002-05-11 15:00","2002","05","11","15:00","13.1","","0.3","","41","","20","","6","","24.1","","100.91","","","","","","Cloudy"
"2002-05-11 16:00","2002","05","11","16:00","12.4","","0.8","","45","","18","","11","","24.1","","100.90","","","","","","Cloudy"
"2002-05-11 17:00","2002","05","11","17:00","11.1","","-0.2","","46","","17","","15","","24.1","","100.91","","","","","","Cloudy"
"2002-05-11 18:00","2002","05","11","18:00","9.9","","0.3","","51","","14","","11","","24.1","","100.83","","","","","","Cloudy"
"2002-05-11 19:00","2002","05","11","19:00","9.9","","-0.2","","49","","10","","9","","24.1","","100.70","","","","","","Cloudy"
"2002-05-11 20:00","2002","05","11","20:00","8.7","","1.7","","61","","","","0","","19.3","","100.67","","","","","","Rain"
"2002-05-11 21:00","2002","05","11","21:00","8.0","","2.9","","70","","4","","15","","24.1","","100.54","","","","","","Rain"
"2002-05-11 22:00","2002","05","11","22:00","8.3","","3.0","","69","","","","0","","24.1","","100.74","","","","","","Rain"
"2002-05-11 23:00","2002","05","11","23:00","8.3","","3.2","","70","","4","","13","","24.1","","100.62","","","","","","Cloudy"
"2002-05-12 00:00","2002","05","12","00:00","8.1","","2.5","","68","","6","","13","","24.1","","100.60","","","","","","Cloudy"
"2002-05-12 01:00","2002","05","12","01:00","7.8","","2.7","","70","","13","","6","","24.1","","100.58","","","","","","Cloudy"
"2002-05-12 02:00","2002","05","12","02:00","7.4","","2.9","","73","","11","","11","","24.1","","100.45","","","","","","Cloudy"
"2002-05-12 03:00","2002","05","12","03:00","7.3","","1.2","","65","","9","","13","","24.1","","100.27","","","","","","Cloudy"
"2002-05-12 04:00","2002","05","12","04:00","7.5","","1.0","","63","","10","","11","","24.1","","100.18","","","","","","Cloudy"
"2002-05-12 05:00","2002","05","12","05:00","7.0","","1.3","","67","","9","","22","","24.1","","100.03","","","","","","Rain"
"2002-05-12 06:00","2002","05","12","06:00","6.8","","2.9","","76","","8","","15","","8.0","","99.99","","","","","","Rain"
"2002-05-12 07:00","2002","05","12","07:00","6.7","","3.3","","79","","9","","19","","8.0","","99.90","","","","","","Rain"
"2002-05-12 08:00","2002","05","12","08:00","6.7","","3.6","","81","","9","","26","","11.3","","99.73","","","","","","Rain"
"2002-05-12 09:00","2002","05","12","09:00","6.5","","3.7","","82","","9","","30","","6.4","","99.70","","","","","","Rain"
"2002-05-12 10:00","2002","05","12","10:00","6.5","","3.9","","83","","7","","22","","4.8","","99.60","","","","","","Rain,Fog"
"2002-05-12 11:00","2002","05","12","11:00","6.7","","4.1","","83","","7","","20","","4.8","","99.54","","","","","","Drizzle,Fog"
"2002-05-12 12:00","2002","05","12","12:00","6.9","","4.6","","85","","9","","24","","3.2","","99.54","","","","","","Drizzle,Fog"
"2002-05-12 13:00","2002","05","12","13:00","7.1","","4.9","","86","","7","","15","","3.2","","99.51","","","","","","Drizzle,Fog"
"2002-05-12 14:00","2002","05","12","14:00","7.5","","5.1","","85","","8","","15","","4.0","","99.47","","","","","","Drizzle,Fog"
"2002-05-12 15:00","2002","05","12","15:00","8.1","","5.6","","84","","8","","15","","4.0","","99.49","","","","","","Drizzle,Fog"
"2002-05-12 16:00","2002","05","12","16:00","8.0","","5.5","","84","","7","","17","","4.0","","99.48","","","","","","Drizzle,Fog"
"2002-05-12 17:00","2002","05","12","17:00","8.0","","5.8","","86","","7","","11","","3.6","","99.47","","","","","","Drizzle,Fog"
"2002-05-12 18:00","2002","05","12","18:00","7.7","","5.6","","87","","7","","15","","6.4","","99.42","","","","","","Rain,Drizzle,Fog"
"2002-05-12 19:00","2002","05","12","19:00","7.6","","4.9","","83","","8","","15","","14.5","","99.46","","","","","","Cloudy"
"2002-05-12 20:00","2002","05","12","20:00","7.3","","5.0","","85","","11","","9","","6.4","","99.41","","","","","","Rain,Fog"
"2002-05-12 21:00","2002","05","12","21:00","7.3","","4.8","","84","","9","","11","","19.3","","99.41","","","","","","Cloudy"
"2002-05-12 22:00","2002","05","12","22:00","7.2","","4.6","","84","","6","","15","","9.7","","99.34","","","","","","Rain"
"2002-05-12 23:00","2002","05","12","23:00","7.3","","4.7","","84","","5","","11","","16.1","","99.28","","","","","","Drizzle"
"2002-05-13 00:00","2002","05","13","00:00","7.2","","4.6","","84","","3","","15","","16.1","","99.19","","","","","","Cloudy"
"2002-05-13 01:00","2002","05","13","01:00","7.2","","4.4","","82","","4","","11","","24.1","","99.12","","","","","","Cloudy"
"2002-05-13 02:00","2002","05","13","02:00","7.2","","4.3","","82","","6","","9","","24.1","","99.05","","","","","","Cloudy"
"2002-05-13 03:00","2002","05","13","03:00","7.0","","4.0","","81","","5","","19","","12.9","","98.98","","","","","","Drizzle"
"2002-05-13 04:00","2002","05","13","04:00","7.2","","3.6","","78","","6","","13","","16.1","","98.96","","","","","","Drizzle"
"2002-05-13 05:00","2002","05","13","05:00","7.2","","3.3","","76","","6","","13","","24.1","","98.91","","","","","","Cloudy"
"2002-05-13 06:00","2002","05","13","06:00","7.2","","3.3","","76","","5","","13","","19.3","","98.87","","","","","","Rain"
"2002-05-13 07:00","2002","05","13","07:00","7.3","","3.2","","75","","5","","19","","19.3","","98.81","","","","","","Rain"
"2002-05-13 08:00","2002","05","13","08:00","7.8","","3.2","","73","","4","","15","","19.3","","98.75","","","","","","Cloudy"
"2002-05-13 09:00","2002","05","13","09:00","8.3","","3.9","","74","","6","","15","","19.3","","98.69","","","","","","Cloudy"
"2002-05-13 10:00","2002","05","13","10:00","8.6","","4.3","","74","","3","","15","","19.3","","98.62","","","","","","Cloudy"
"2002-05-13 11:00","2002","05","13","11:00","8.5","","4.6","","76","","1","","19","","19.3","","98.59","","","","","","Cloudy"
"2002-05-13 12:00","2002","05","13","12:00","8.4","","4.8","","78","","36","","24","","16.1","","98.60","","","","","","Rain"
"2002-05-13 13:00","2002","05","13","13:00","7.8","","5.8","","87","","2","","17","","6.4","","98.51","","","","","","Rain,Fog"
"2002-05-13 14:00","2002","05","13","14:00","7.9","","5.4","","84","","2","","15","","12.9","","98.47","","","","","","Rain,Drizzle"
"2002-05-13 15:00","2002","05","13","15:00","8.0","","5.2","","82","","3","","13","","6.4","","98.42","","","","","","Rain"
"2002-05-13 16:00","2002","05","13","16:00","7.7","","5.7","","87","","2","","15","","3.6","","98.35","","","","","","Rain,Fog"
"2002-05-13 17:00","2002","05","13","17:00","7.9","","5.4","","84","","36","","13","","8.0","","98.34","","","","","","Rain"
"2002-05-13 18:00","2002","05","13","18:00","7.8","","5.3","","84","","34","","20","","4.8","","98.37","","","","","","Rain,Fog"
"2002-05-13 19:00","2002","05","13","19:00","7.5","","5.0","","84","","33","","24","","8.0","","98.38","","","","","","Rain"
"2002-05-13 20:00","2002","05","13","20:00","7.2","","4.6","","84","","32","","30","","8.0","","98.43","","","","","","Rain"
"2002-05-13 21:00","2002","05","13","21:00","6.8","","4.0","","82","","33","","28","","11.3","","98.42","","","","","","Rain"
"2002-05-13 22:00","2002","05","13","22:00","6.2","","2.7","","78","","33","","32","","19.3","","98.34","","","","","","Rain"
"2002-05-13 23:00","2002","05","13","23:00","5.8","","2.5","","79","","32","","30","","19.3","","98.26","","","","","","Rain"
"2002-05-14 00:00","2002","05","14","00:00","5.7","","2.0","","77","","32","","33","","19.3","","98.20","","","","","","Rain"
"2002-05-14 01:00","2002","05","14","01:00","5.7","","2.2","","78","","31","","26","","19.3","","98.16","","","","","","Rain"
"2002-05-14 02:00","2002","05","14","02:00","5.5","","1.9","","78","","31","","24","","24.1","","98.12","","","","","","Rain"
"2002-05-14 03:00","2002","05","14","03:00","5.4","","1.9","","78","","30","","22","","16.1","","98.07","","","","","","Rain"
"2002-05-14 04:00","2002","05","14","04:00","5.0","","1.5","","78","","31","","35","","14.5","","97.99","","","","","","Rain"
"2002-05-14 05:00","2002","05","14","05:00","4.7","","1.4","","79","","31","","24","","16.1","","97.94","","","","","","Rain"
"2002-05-14 06:00","2002","05","14","06:00","4.5","","1.2","","79","","31","","30","","16.1","","97.95","","","","","","Rain"
"2002-05-14 07:00","2002","05","14","07:00","4.6","","1.1","","78","","33","","35","","16.1","","97.97","","","","","","Rain"
"2002-05-14 08:00","2002","05","14","08:00","4.9","","1.6","","79","","33","","35","","12.9","","98.04","","","","","","Rain"
"2002-05-14 09:00","2002","05","14","09:00","5.7","","2.0","","77","","34","","41","","12.9","","98.09","","","","","","Rain"
"2002-05-14 10:00","2002","05","14","10:00","5.9","","2.5","","79","","32","","32","","14.5","","98.14","","","","","","Rain"
"2002-05-14 11:00","2002","05","14","11:00","7.0","","2.4","","72","","32","","46","","19.3","","98.16","","","","","","Rain"
"2002-05-14 12:00","2002","05","14","12:00","8.4","","2.9","","68","","34","","54","","19.3","","98.22","","","","","","Rain"
"2002-05-14 13:00","2002","05","14","13:00","7.9","","2.4","","68","","33","","41","","19.3","","98.27","","","","","","Rain Showers"
"2002-05-14 14:00","2002","05","14","14:00","7.8","","1.8","","66","","32","","56","","19.3","","98.35","","","","","","Rain Showers"
"2002-05-14 15:00","2002","05","14","15:00","8.6","","1.4","","61","","33","","50","","24.1","","98.43","","","","","","Cloudy"
"2002-05-14 16:00","2002","05","14","16:00","10.3","","0.4","","50","","34","","41","","24.1","","98.51","","","","","","Mostly Cloudy"
"2002-05-14 17:00","2002","05","14","17:00","11.4","","-1.1","","42","","33","","41","","24.1","","98.59","","","","","","Mostly Cloudy"
"2002-05-14 18:00","2002","05","14","18:00","11.2","","-1.3","","42","","34","","32","","24.1","","98.70","","","","","","Mostly Cloudy"
"2002-05-14 19:00","2002","05","14","19:00","11.1","","-0.8","","44","","34","","20","","24.1","","98.76","","","","","","Mostly Cloudy"
"2002-05-14 20:00","2002","05","14","20:00","10.7","","-1.8","","42","","31","","24","","24.1","","98.82","","","","","","Mainly Clear"
"2002-05-14 21:00","2002","05","14","21:00","8.3","","-0.4","","54","","29","","17","","24.1","","98.89","","","","","","Mainly Clear"
"2002-05-14 22:00","2002","05","14","22:00","8.8","","1.2","","59","","30","","22","","24.1","","98.96","","","","","","Mainly Clear"
"2002-05-14 23:00","2002","05","14","23:00","7.8","","0.8","","61","","32","","22","","24.1","","99.05","","","","","","Clear"
"2002-05-15 00:00","2002","05","15","00:00","6.7","","0.6","","65","","32","","20","","24.1","","99.11","","","","","","Clear"
"2002-05-15 01:00","2002","05","15","01:00","6.8","","0.4","","64","","30","","22","","24.1","","99.19","","","","","","Clear"
"2002-05-15 02:00","2002","05","15","02:00","5.8","","0.0","","66","","30","","19","","24.1","","99.24","","","","","","Clear"
"2002-05-15 03:00","2002","05","15","03:00","4.8","","-0.1","","71","","29","","19","","24.1","","99.31","","","","","","Clear"
"2002-05-15 04:00","2002","05","15","04:00","4.8","","-0.4","","69","","30","","20","","24.1","","99.36","","","","","","Clear"
"2002-05-15 05:00","2002","05","15","05:00","4.4","","-1.0","","68","","31","","17","","24.1","","99.43","","","","","","Clear"
"2002-05-15 06:00","2002","05","15","06:00","5.5","","-0.3","","66","","29","","17","","24.1","","99.54","","","","","","Clear"
"2002-05-15 07:00","2002","05","15","07:00","7.0","","0.2","","62","","31","","20","","24.1","","99.60","","","","","","Clear"
"2002-05-15 08:00","2002","05","15","08:00","9.3","","0.6","","54","","31","","24","","24.1","","99.67","","","","","","Clear"
"2002-05-15 09:00","2002","05","15","09:00","10.9","","1.2","","51","","31","","20","","24.1","","99.73","","","","","","Clear"
"2002-05-15 10:00","2002","05","15","10:00","12.8","","1.8","","47","","31","","32","","24.1","","99.72","","","","","","Clear"
"2002-05-15 11:00","2002","05","15","11:00","13.7","","2.9","","48","","30","","24","","24.1","","99.72","","","","","","Clear"
"2002-05-15 12:00","2002","05","15","12:00","14.5","","2.6","","45","","33","","19","","24.1","","99.68","","","","","","Clear"
"2002-05-15 13:00","2002","05","15","13:00","15.9","","2.0","","39","","31","","24","","24.1","","99.70","","","","","","Clear"
"2002-05-15 14:00","2002","05","15","14:00","16.4","","3.2","","41","","29","","20","","24.1","","99.66","","","","","","Mainly Clear"
"2002-05-15 15:00","2002","05","15","15:00","16.9","","3.9","","42","","28","","28","","24.1","","99.63","","","","","","Mainly Clear"
"2002-05-15 16:00","2002","05","15","16:00","16.7","","4.6","","45","","26","","28","","24.1","","99.60","","","","","","Mainly Clear"
"2002-05-15 17:00","2002","05","15","17:00","16.7","","4.5","","44","","26","","20","","24.1","","99.59","","","","","","Mostly Cloudy"
"2002-05-15 18:00","2002","05","15","18:00","15.1","","1.9","","41","","27","","24","","24.1","","99.58","","","","","","Mostly Cloudy"
"2002-05-15 19:00","2002","05","15","19:00","14.1","","0.4","","39","","26","","17","","24.1","","99.58","","","","","","Mostly Cloudy"
"2002-05-15 20:00","2002","05","15","20:00","14.0","","5.6","","57","","23","","24","","24.1","","99.54","","","","","","Cloudy"
"2002-05-15 21:00","2002","05","15","21:00","12.9","","3.9","","54","","24","","20","","24.1","","99.53","","","","","","Mostly Cloudy"
"2002-05-15 22:00","2002","05","15","22:00","12.3","","3.8","","56","","23","","15","","24.1","","99.50","","","","","","Mostly Cloudy"
"2002-05-15 23:00","2002","05","15","23:00","11.0","","2.9","","57","","20","","9","","24.1","","99.45","","","","","","Mainly Clear"
"2002-05-16 00:00","2002","05","16","00:00","10.2","","1.9","","56","","20","","9","","24.1","","99.44","","","","","","Mainly Clear"
"2002-05-16 01:00","2002","05","16","01:00","8.9","","1.8","","61","","15","","11","","24.1","","99.32","","","","","","Clear"
"2002-05-16 02:00","2002","05","16","02:00","7.6","","2.1","","68","","14","","4","","24.1","","99.23","","","","","","Mainly Clear"
"2002-05-16 03:00","2002","05","16","03:00","10.6","","2.9","","59","","23","","9","","24.1","","99.16","","","","","","Mostly Cloudy"
"2002-05-16 04:00","2002","05","16","04:00","12.2","","5.0","","61","","23","","19","","24.1","","99.12","","","","","","Cloudy"
"2002-05-16 05:00","2002","05","16","05:00","13.1","","6.1","","62","","23","","30","","24.1","","99.04","","","","","","Cloudy"
"2002-05-16 06:00","2002","05","16","06:00","12.9","","6.5","","65","","23","","24","","19.3","","99.03","","","","","","Cloudy"
"2002-05-16 07:00","2002","05","16","07:00","14.4","","7.6","","64","","24","","30","","19.3","","99.01","","","","","","Cloudy"
"2002-05-16 08:00","2002","05","16","08:00","13.7","","9.1","","74","","24","","28","","9.7","","99.02","","","","","","Rain Showers"
"2002-05-16 09:00","2002","05","16","09:00","13.0","","10.1","","83","","23","","17","","6.4","","98.94","","","","","","Rain Showers"
"2002-05-16 10:00","2002","05","16","10:00","13.5","","10.4","","82","","25","","13","","11.3","","98.97","","","","","","Rain Showers"
"2002-05-16 11:00","2002","05","16","11:00","17.5","","12.8","","74","","25","","30","","12.9","","98.88","","","","","","Mostly Cloudy"
"2002-05-16 12:00","2002","05","16","12:00","17.8","","12.4","","71","","26","","39","","16.1","","98.89","","","","","","Cloudy"
"2002-05-16 13:00","2002","05","16","13:00","18.6","","12.9","","69","","25","","39","","14.5","","98.85","","","","","","Mostly Cloudy"
"2002-05-16 14:00","2002","05","16","14:00","19.1","","13.7","","71","","25","","41","","9.7","","98.78","","","","","","Haze"
"2002-05-16 15:00","2002","05","16","15:00","19.0","","13.4","","70","","24","","33","","9.7","","98.78","","","","","","Haze"
"2002-05-16 16:00","2002","05","16","16:00","19.3","","13.2","","68","","24","","28","","9.7","","98.75","","","","","","Haze"
"2002-05-16 17:00","2002","05","16","17:00","17.4","","12.8","","74","","23","","15","","4.8","","98.77","","","","","","Thunderstorms,Rain Showers,Haze"
"2002-05-16 18:00","2002","05","16","18:00","15.7","","12.9","","83","","23","","28","","11.3","","98.72","","","","","","Rain Showers"
"2002-05-16 19:00","2002","05","16","19:00","14.9","","12.5","","86","","25","","19","","14.5","","98.73","","","","","","Rain"
"2002-05-16 20:00","2002","05","16","20:00","13.5","","11.0","","85","","1","","11","","9.7","","98.78","","","","","","Rain,Haze"
"2002-05-16 21:00","2002","05","16","21:00","12.4","","10.1","","86","","31","","28","","11.3","","98.85","","","","","","Rain"
"2002-05-16 22:00","2002","05","16","22:00","8.9","","3.8","","70","","32","","32","","19.3","","98.90","","","","","","Rain"
"2002-05-16 23:00","2002","05","16","23:00","7.8","","3.5","","74","","30","","20","","24.1","","98.95","","","","","","Rain"
"2002-05-17 00:00","2002","05","17","00:00","7.0","","2.4","","72","","31","","30","","24.1","","98.99","","","","","","Rain"
"2002-05-17 01:00","2002","05","17","01:00","6.7","","1.6","","70","","31","","28","","24.1","","99.02","","","","","","Cloudy"
"2002-05-17 02:00","2002","05","17","02:00","4.8","","0.7","","75","","31","","22","","24.1","","99.04","","","","","","Mostly Cloudy"
"2002-05-17 03:00","2002","05","17","03:00","4.4","","0.8","","77","","32","","17","","24.1","","99.06","","","","","","Mainly Clear"
"2002-05-17 04:00","2002","05","17","04:00","4.7","","0.6","","75","","33","","24","","24.1","","99.11","","","","","","Mainly Clear"
"2002-05-17 05:00","2002","05","17","05:00","5.6","","1.4","","74","","33","","19","","24.1","","99.22","","","","","","Mostly Cloudy"
"2002-05-17 06:00","2002","05","17","06:00","6.5","","2.4","","75","","35","","15","","24.1","","99.33","","","","","","Mostly Cloudy"
"2002-05-17 07:00","2002","05","17","07:00","6.8","","1.8","","70","","36","","26","","24.1","","99.39","","","","","","Mostly Cloudy"
"2002-05-17 08:00","2002","05","17","08:00","7.7","","1.1","","63","","35","","26","","24.1","","99.42","","","","","","Mainly Clear"
"2002-05-17 09:00","2002","05","17","09:00","8.5","","1.6","","62","","36","","22","","24.1","","99.48","","","","","","Mainly Clear"
"2002-05-17 10:00","2002","05","17","10:00","9.6","","2.6","","62","","34","","24","","24.1","","99.55","","","","","","Mainly Clear"
"2002-05-17 11:00","2002","05","17","11:00","10.1","","2.9","","61","","34","","26","","24.1","","99.56","","","","","","Mostly Cloudy"
"2002-05-17 12:00","2002","05","17","12:00","9.6","","1.8","","58","","34","","33","","24.1","","99.57","","","","","","Mostly Cloudy"
"2002-05-17 13:00","2002","05","17","13:00","9.7","","2.6","","61","","1","","19","","24.1","","99.64","","","","","","Mostly Cloudy"
"2002-05-17 14:00","2002","05","17","14:00","10.0","","1.8","","57","","33","","19","","24.1","","99.64","","","","","","Mostly Cloudy"
"2002-05-17 15:00","2002","05","17","15:00","9.3","","0.2","","53","","36","","17","","24.1","","99.59","","","","","","Mostly Cloudy"
"2002-05-17 16:00","2002","05","17","16:00","9.3","","0.5","","54","","34","","22","","24.1","","99.55","","","","","","Mostly Cloudy"
"2002-05-17 17:00","2002","05","17","17:00","9.2","","0.0","","53","","33","","24","","24.1","","99.53","","","","","","Mostly Cloudy"
"2002-05-17 18:00","2002","05","17","18:00","8.6","","0.0","","55","","36","","17","","24.1","","99.51","","","","","","Mostly Cloudy"
"2002-05-17 19:00","2002","05","17","19:00","8.1","","0.0","","57","","36","","20","","24.1","","99.49","","","","","","Mostly Cloudy"
"2002-05-17 20:00","2002","05","17","20:00","7.4","","-0.7","","56","","36","","26","","24.1","","99.52","","","","","","Cloudy"
"2002-05-17 21:00","2002","05","17","21:00","6.3","","-1.6","","57","","1","","22","","24.1","","99.51","","","","","","Cloudy"
"2002-05-17 22:00","2002","05","17","22:00","5.8","","-2.6","","55","","35","","28","","24.1","","99.44","","","","","","Cloudy"
"2002-05-17 23:00","2002","05","17","23:00","5.7","","-2.5","","56","","36","","24","","24.1","","99.34","","","","","","Cloudy"
"2002-05-18 00:00","2002","05","18","00:00","5.7","","-1.8","","58","","1","","20","","24.1","","99.29","","","","","","Cloudy"
"2002-05-18 01:00","2002","05","18","01:00","5.8","","-1.0","","62","","1","","20","","24.1","","99.25","","","","","","Cloudy"
"2002-05-18 02:00","2002","05","18","02:00","5.9","","-0.5","","63","","1","","15","","24.1","","99.28","","","","","","Cloudy"
"2002-05-18 03:00","2002","05","18","03:00","6.2","","-2.3","","54","","4","","26","","24.1","","99.26","","","","","","Cloudy"
"2002-05-18 04:00","2002","05","18","04:00","5.8","","-3.5","","51","","5","","22","","24.1","","99.29","","","","","","Cloudy"
"2002-05-18 05:00","2002","05","18","05:00","5.4","","-3.6","","52","","2","","26","","24.1","","99.38","","","","","","Cloudy"
"2002-05-18 06:00","2002","05","18","06:00","5.1","","-3.2","","55","","2","","22","","24.1","","99.44","","","","","","Mostly Cloudy"
"2002-05-18 07:00","2002","05","18","07:00","5.2","","-2.9","","56","","2","","17","","24.1","","99.50","","","","","","Mostly Cloudy"
"2002-05-18 08:00","2002","05","18","08:00","5.8","","-2.2","","56","","36","","19","","24.1","","99.53","","","","","","Mostly Cloudy"
"2002-05-18 09:00","2002","05","18","09:00","6.6","","-1.1","","58","","34","","24","","24.1","","99.48","","","","","","Mainly Clear"
"2002-05-18 10:00","2002","05","18","10:00","7.7","","-1.2","","53","","36","","15","","24.1","","99.48","","","","","","Mostly Cloudy"
"2002-05-18 11:00","2002","05","18","11:00","6.9","","-2.1","","53","","35","","24","","24.1","","99.52","","","","","","Mostly Cloudy"
"2002-05-18 12:00","2002","05","18","12:00","7.6","","-1.8","","51","","35","","22","","24.1","","99.51","","","","","","Mostly Cloudy"
"2002-05-18 13:00","2002","05","18","13:00","7.0","","-2.4","","51","","36","","20","","24.1","","99.52","","","","","","Cloudy"
"2002-05-18 14:00","2002","05","18","14:00","7.2","","-2.8","","49","","35","","28","","24.1","","99.55","","","","","","Cloudy"
"2002-05-18 15:00","2002","05","18","15:00","6.8","","-3.4","","48","","35","","26","","24.1","","99.59","","","","","","Cloudy"
"2002-05-18 16:00","2002","05","18","16:00","6.6","","-3.5","","48","","33","","20","","24.1","","99.60","","","","","","Mostly Cloudy"
"2002-05-18 17:00","2002","05","18","17:00","5.8","","-4.4","","48","","35","","30","","24.1","","99.64","","","","","","Mostly Cloudy"
"2002-05-18 18:00","2002","05","18","18:00","5.5","","-4.9","","47","","34","","33","","24.1","","99.69","","","","","","Mostly Cloudy"
"2002-05-18 19:00","2002","05","18","19:00","4.9","","-5.6","","47","","33","","30","","24.1","","99.74","","","","","","Mostly Cloudy"
"2002-05-18 20:00","2002","05","18","20:00","4.4","","-5.7","","48","","31","","24","","24.1","","99.76","","","","","","Mostly Cloudy"
"2002-05-18 21:00","2002","05","18","21:00","3.9","","-5.3","","51","","34","","19","","24.1","","99.84","","","","","","Mostly Cloudy"
"2002-05-18 22:00","2002","05","18","22:00","3.7","","-5.3","","52","","33","","24","","24.1","","99.86","","","","","","Mostly Cloudy"
"2002-05-18 23:00","2002","05","18","23:00","3.6","","-5.5","","51","","32","","20","","24.1","","99.88","","","","","","Mostly Cloudy"
"2002-05-19 00:00","2002","05","19","00:00","3.4","","-5.3","","53","","32","","20","","24.1","","99.88","","","","","","Mostly Cloudy"
"2002-05-19 01:00","2002","05","19","01:00","2.5","","-4.8","","59","","31","","24","","24.1","","99.89","","","","","","Clear"
"2002-05-19 02:00","2002","05","19","02:00","1.7","","-4.0","","66","","32","","17","","24.1","","99.91","","","","","","Mainly Clear"
"2002-05-19 03:00","2002","05","19","03:00","1.1","","-4.3","","67","","32","","17","","24.1","","99.93","","","","","","Clear"
"2002-05-19 04:00","2002","05","19","04:00","0.9","","-4.4","","68","","30","","13","","24.1","","99.93","","","","","","Clear"
"2002-05-19 05:00","2002","05","19","05:00","0.1","","-4.5","","71","","29","","6","","24.1","","99.99","","","","","","Mainly Clear"
"2002-05-19 06:00","2002","05","19","06:00","1.9","","-3.5","","67","","28","","11","","24.1","","100.05","","","","","","Mostly Cloudy"
"2002-05-19 07:00","2002","05","19","07:00","3.6","","-2.6","","64","","30","","9","","24.1","","100.10","","","","","","Mostly Cloudy"
"2002-05-19 08:00","2002","05","19","08:00","5.6","","-1.8","","59","","31","","24","","24.1","","100.12","","","","","","Mainly Clear"
"2002-05-19 09:00","2002","05","19","09:00","6.7","","-2.9","","50","","31","","24","","24.1","","100.16","","","","","","Mostly Cloudy"
"2002-05-19 10:00","2002","05","19","10:00","6.1","","-3.7","","49","","35","","19","","24.1","","100.17","","","","","","Mostly Cloudy"
"2002-05-19 11:00","2002","05","19","11:00","6.7","","-2.6","","51","","29","","24","","24.1","","100.16","","","","","","Mostly Cloudy"
"2002-05-19 12:00","2002","05","19","12:00","6.1","","-3.2","","51","","29","","15","","19.3","","100.14","","","","","","Cloudy"
"2002-05-19 13:00","2002","05","19","13:00","7.5","","-2.9","","48","","29","","22","","24.1","","100.13","","","","","","Mostly Cloudy"
"2002-05-19 14:00","2002","05","19","14:00","6.2","","-1.2","","59","","26","","19","","19.3","","100.14","","","","","","Rain Showers"
"2002-05-19 15:00","2002","05","19","15:00","5.8","","-0.2","","65","","22","","11","","24.1","","100.15","","","","","","Mostly Cloudy"
"2002-05-19 16:00","2002","05","19","16:00","7.2","","-1.4","","54","","8","","13","","24.1","","100.14","","","","","","Cloudy"
"2002-05-19 17:00","2002","05","19","17:00","7.1","","-2.5","","50","","4","","11","","24.1","","100.16","","","","","","Mostly Cloudy"
"2002-05-19 18:00","2002","05","19","18:00","7.0","","-2.8","","50","","36","","17","","24.1","","100.21","","","","","","Mostly Cloudy"
"2002-05-19 19:00","2002","05","19","19:00","5.6","","-4.0","","50","","36","","22","","24.1","","100.25","","","","","","Mostly Cloudy"
"2002-05-19 20:00","2002","05","19","20:00","3.9","","-5.7","","50","","2","","20","","24.1","","100.31","","","","","","Mainly Clear"
"2002-05-19 21:00","2002","05","19","21:00","2.8","","-6.5","","50","","2","","19","","24.1","","100.38","","","","","","Clear"
"2002-05-19 22:00","2002","05","19","22:00","2.4","","-6.4","","52","","34","","15","","24.1","","100.40","","","","","","Mostly Cloudy"
"2002-05-19 23:00","2002","05","19","23:00","1.6","","-5.9","","57","","32","","13","","24.1","","100.39","","","","","","Mainly Clear"
"2002-05-20 00:00","2002","05","20","00:00","1.1","","-5.8","","60","","35","","20","","24.1","","100.37","","","","","","Mainly Clear"
"2002-05-20 01:00","2002","05","20","01:00","0.6","","-5.8","","62","","35","","20","","24.1","","100.36","","","","","","Mainly Clear"
"2002-05-20 02:00","2002","05","20","02:00","0.0","","-5.6","","66","","35","","19","","24.1","","100.35","","","","-5","","Mainly Clear"
"2002-05-20 03:00","2002","05","20","03:00","0.6","","-5.2","","65","","35","","17","","24.1","","100.36","","","","","","Mostly Cloudy"
"2002-05-20 04:00","2002","05","20","04:00","0.7","","-4.7","","67","","35","","15","","24.1","","100.34","","","","","","Mostly Cloudy"
"2002-05-20 05:00","2002","05","20","05:00","1.9","","-3.3","","68","","34","","17","","24.1","","100.39","","","","","","Mostly Cloudy"
"2002-05-20 06:00","2002","05","20","06:00","2.8","","-2.5","","68","","35","","20","","24.1","","100.44","","","","","","Cloudy"
"2002-05-20 07:00","2002","05","20","07:00","3.4","","-2.2","","67","","35","","17","","24.1","","100.49","","","","","","Rain Showers"
"2002-05-20 08:00","2002","05","20","08:00","4.6","","-2.3","","61","","36","","17","","24.1","","100.52","","","","","","Mostly Cloudy"
"2002-05-20 09:00","2002","05","20","09:00","5.7","","-2.2","","57","","33","","22","","24.1","","100.53","","","","","","Mostly Cloudy"
"2002-05-20 10:00","2002","05","20","10:00","5.8","","-3.5","","51","","33","","15","","24.1","","100.52","","","","","","Mostly Cloudy"
"2002-05-20 11:00","2002","05","20","11:00","5.6","","-3.4","","52","","34","","13","","24.1","","100.52","","","","","","Mostly Cloudy"
"2002-05-20 12:00","2002","05","20","12:00","6.3","","-3.5","","49","","35","","13","","24.1","","100.49","","","","","","Cloudy"
"2002-05-20 13:00","2002","05","20","13:00","6.9","","-3.3","","48","","35","","11","","24.1","","100.46","","","","","","Cloudy"
"2002-05-20 14:00","2002","05","20","14:00","7.0","","-3.4","","47","","34","","20","","24.1","","100.42","","","","","","Cloudy"
"2002-05-20 15:00","2002","05","20","15:00","7.8","","-2.5","","48","","31","","13","","24.1","","100.40","","","","","","Mostly Cloudy"
"2002-05-20 16:00","2002","05","20","16:00","7.6","","-3.4","","46","","1","","13","","24.1","","100.39","","","","","","Cloudy"
"2002-05-20 17:00","2002","05","20","17:00","7.6","","-3.8","","44","","33","","15","","24.1","","100.38","","","","","","Mostly Cloudy"
"2002-05-20 18:00","2002","05","20","18:00","7.3","","-3.0","","48","","34","","17","","24.1","","100.39","","","","","","Mostly Cloudy"
"2002-05-20 19:00","2002","05","20","19:00","6.9","","-3.7","","47","","36","","19","","24.1","","100.39","","","","","","Mainly Clear"
"2002-05-20 20:00","2002","05","20","20:00","5.7","","-3.9","","50","","35","","19","","24.1","","100.44","","","","","","Clear"
"2002-05-20 21:00","2002","05","20","21:00","4.7","","-3.7","","54","","34","","19","","24.1","","100.45","","","","","","Mainly Clear"
"2002-05-20 22:00","2002","05","20","22:00","3.8","","-3.8","","58","","31","","13","","24.1","","100.45","","","","","","Mainly Clear"
"2002-05-20 23:00","2002","05","20","23:00","2.8","","-3.9","","61","","31","","11","","24.1","","100.46","","","","","","Mainly Clear"
"2002-05-21 00:00","2002","05","21","00:00","2.8","","-4.0","","61","","31","","15","","24.1","","100.45","","","","","","Mainly Clear"
"2002-05-21 01:00","2002","05","21","01:00","1.6","","-4.0","","66","","32","","13","","24.1","","100.45","","","","","","Mainly Clear"
"2002-05-21 02:00","2002","05","21","02:00","1.4","","-4.0","","67","","32","","11","","24.1","","100.45","","","","","","Clear"
"2002-05-21 03:00","2002","05","21","03:00","1.0","","-4.1","","69","","32","","13","","24.1","","100.43","","","","","","Mainly Clear"
"2002-05-21 04:00","2002","05","21","04:00","2.2","","-3.7","","65","","32","","13","","24.1","","100.46","","","","","","Mostly Cloudy"
"2002-05-21 05:00","2002","05","21","05:00","3.2","","-2.9","","64","","32","","13","","24.1","","100.49","","","","","","Mostly Cloudy"
"2002-05-21 06:00","2002","05","21","06:00","4.4","","-2.1","","63","","32","","17","","24.1","","100.55","","","","","","Mostly Cloudy"
"2002-05-21 07:00","2002","05","21","07:00","6.5","","-1.0","","59","","35","","19","","24.1","","100.61","","","","","","Mainly Clear"
"2002-05-21 08:00","2002","05","21","08:00","8.5","","0.1","","55","","33","","15","","24.1","","100.63","","","","","","Mainly Clear"
"2002-05-21 09:00","2002","05","21","09:00","9.3","","-1.4","","47","","29","","9","","24.1","","100.63","","","","","","Mainly Clear"
"2002-05-21 10:00","2002","05","21","10:00","10.4","","-2.2","","41","","31","","22","","24.1","","100.62","","","","","","Mostly Cloudy"
"2002-05-21 11:00","2002","05","21","11:00","10.4","","-1.3","","44","","33","","24","","24.1","","100.60","","","","","","Mostly Cloudy"
"2002-05-21 12:00","2002","05","21","12:00","11.1","","-0.5","","45","","30","","30","","24.1","","100.54","","","","","","Mostly Cloudy"
"2002-05-21 13:00","2002","05","21","13:00","11.2","","0.0","","46","","29","","24","","24.1","","100.50","","","","","","Mostly Cloudy"
"2002-05-21 14:00","2002","05","21","14:00","11.2","","-0.1","","46","","29","","33","","24.1","","100.48","","","","","","Mostly Cloudy"
"2002-05-21 15:00","2002","05","21","15:00","11.6","","0.6","","47","","30","","26","","24.1","","100.44","","","","","","Mostly Cloudy"
"2002-05-21 16:00","2002","05","21","16:00","11.4","","-0.1","","45","","29","","28","","24.1","","100.43","","","","","","Mostly Cloudy"
"2002-05-21 17:00","2002","05","21","17:00","11.9","","-0.5","","42","","31","","20","","24.1","","100.42","","","","","","Mostly Cloudy"
"2002-05-21 18:00","2002","05","21","18:00","12.2","","-1.0","","40","","30","","24","","24.1","","100.41","","","","","","Mostly Cloudy"
"2002-05-21 19:00","2002","05","21","19:00","10.8","","-1.1","","44","","28","","20","","24.1","","100.41","","","","","","Mainly Clear"
"2002-05-21 20:00","2002","05","21","20:00","8.1","","-1.2","","52","","27","","15","","24.1","","100.45","","","","","","Clear"
"2002-05-21 21:00","2002","05","21","21:00","6.7","","-1.3","","57","","27","","13","","24.1","","100.50","","","","","","Mainly Clear"
"2002-05-21 22:00","2002","05","21","22:00","5.8","","-1.9","","58","","26","","11","","24.1","","100.50","","","","","","Clear"
"2002-05-21 23:00","2002","05","21","23:00","6.2","","-2.2","","55","","28","","15","","24.1","","100.53","","","","","","Clear"
"2002-05-22 00:00","2002","05","22","00:00","4.8","","-3.0","","57","","27","","9","","24.1","","100.55","","","","","","Mainly Clear"
"2002-05-22 01:00","2002","05","22","01:00","4.8","","-3.1","","57","","27","","6","","24.1","","100.55","","","","","","Mainly Clear"
"2002-05-22 02:00","2002","05","22","02:00","4.1","","-3.3","","59","","27","","7","","24.1","","100.55","","","","","","Clear"
"2002-05-22 03:00","2002","05","22","03:00","3.8","","-3.7","","58","","27","","7","","24.1","","100.54","","","","","","Clear"
"2002-05-22 04:00","2002","05","22","04:00","3.7","","-2.9","","62","","28","","9","","24.1","","100.56","","","","","","Clear"
"2002-05-22 05:00","2002","05","22","05:00","3.6","","-2.4","","65","","27","","11","","24.1","","100.62","","","","","","Mostly Cloudy"
"2002-05-22 06:00","2002","05","22","06:00","5.6","","-0.2","","66","","28","","13","","19.3","","100.67","","","","","","Mainly Clear"
"2002-05-22 07:00","2002","05","22","07:00","8.6","","1.6","","61","","28","","17","","19.3","","100.73","","","","","","Mainly Clear"
"2002-05-22 08:00","2002","05","22","08:00","11.4","","2.4","","54","","26","","15","","19.3","","100.74","","","","","","Mainly Clear"
"2002-05-22 09:00","2002","05","22","09:00","13.1","","2.5","","49","","28","","26","","19.3","","100.74","","","","","","Mainly Clear"
"2002-05-22 10:00","2002","05","22","10:00","15.2","","2.9","","44","","26","","24","","24.1","","100.72","","","","","","Mainly Clear"
"2002-05-22 11:00","2002","05","22","11:00","15.0","","2.8","","44","","25","","19","","24.1","","100.65","","","","","","Mainly Clear"
"2002-05-22 12:00","2002","05","22","12:00","16.6","","4.3","","44","","23","","19","","24.1","","100.56","","","","","","Mainly Clear"
"2002-05-22 13:00","2002","05","22","13:00","16.9","","4.0","","42","","21","","15","","24.1","","100.47","","","","","","Mainly Clear"
"2002-05-22 14:00","2002","05","22","14:00","16.8","","3.3","","40","","26","","24","","24.1","","100.39","","","","","","Mainly Clear"
"2002-05-22 15:00","2002","05","22","15:00","17.5","","3.1","","38","","23","","20","","24.1","","100.35","","","","","","Mainly Clear"
"2002-05-22 16:00","2002","05","22","16:00","17.4","","2.8","","38","","22","","28","","24.1","","100.30","","","","","","Mainly Clear"
"2002-05-22 17:00","2002","05","22","17:00","17.6","","3.4","","39","","24","","22","","24.1","","100.23","","","","","","Clear"
"2002-05-22 18:00","2002","05","22","18:00","16.3","","2.1","","38","","23","","28","","24.1","","100.18","","","","","","Clear"
"2002-05-22 19:00","2002","05","22","19:00","15.0","","-0.7","","34","","23","","26","","24.1","","100.16","","","","","","Clear"
"2002-05-22 20:00","2002","05","22","20:00","13.3","","-1.3","","36","","24","","17","","24.1","","100.15","","","","","","Clear"
"2002-05-22 21:00","2002","05","22","21:00","12.5","","-1.6","","38","","23","","17","","24.1","","100.12","","","","","","Clear"
"2002-05-22 22:00","2002","05","22","22:00","11.8","","-1.1","","41","","21","","13","","24.1","","100.10","","","","","","Clear"
"2002-05-22 23:00","2002","05","22","23:00","10.6","","-0.7","","45","","21","","13","","24.1","","100.04","","","","","","Clear"
"2002-05-23 00:00","2002","05","23","00:00","10.0","","-0.8","","47","","22","","17","","24.1","","99.98","","","","","","Clear"
"2002-05-23 01:00","2002","05","23","01:00","9.0","","-1.2","","49","","20","","9","","24.1","","99.95","","","","","","Clear"
"2002-05-23 02:00","2002","05","23","02:00","7.8","","0.1","","58","","13","","6","","24.1","","99.93","","","","","","Clear"
"2002-05-23 03:00","2002","05","23","03:00","7.6","","-0.5","","56","","16","","4","","24.1","","99.95","","","","","","Mainly Clear"
"2002-05-23 04:00","2002","05","23","04:00","7.4","","-1.1","","55","","19","","7","","24.1","","99.94","","","","","","Mainly Clear"
"2002-05-23 05:00","2002","05","23","05:00","7.5","","-0.4","","57","","19","","9","","24.1","","99.93","","","","","","Mostly Cloudy"
"2002-05-23 06:00","2002","05","23","06:00","8.1","","0.5","","59","","18","","7","","19.3","","99.94","","","","","","Mainly Clear"
"2002-05-23 07:00","2002","05","23","07:00","10.7","","2.8","","58","","20","","15","","19.3","","99.89","","","","","","Mainly Clear"
"2002-05-23 08:00","2002","05","23","08:00","13.2","","4.4","","55","","21","","19","","19.3","","99.83","","","","","","Mainly Clear"
"2002-05-23 09:00","2002","05","23","09:00","16.3","","5.5","","49","","22","","20","","19.3","","99.72","","","","","","Mainly Clear"
"2002-05-23 10:00","2002","05","23","10:00","17.8","","7.1","","49","","21","","30","","19.3","","99.60","","","","","","Mainly Clear"
"2002-05-23 11:00","2002","05","23","11:00","19.5","","6.6","","43","","22","","30","","16.1","","99.49","","","","","","Mainly Clear"
"2002-05-23 12:00","2002","05","23","12:00","20.2","","6.0","","39","","23","","35","","19.3","","99.44","","","","","","Mainly Clear"
"2002-05-23 13:00","2002","05","23","13:00","21.2","","6.7","","39","","22","","30","","19.3","","99.38","","","","","","Mainly Clear"
"2002-05-23 14:00","2002","05","23","14:00","22.1","","6.6","","37","","21","","33","","19.3","","99.31","","","","","","Mainly Clear"
"2002-05-23 15:00","2002","05","23","15:00","21.3","","5.4","","35","","23","","28","","19.3","","99.27","","","","","","Mostly Cloudy"
"2002-05-23 16:00","2002","05","23","16:00","22.5","","6.3","","35","","22","","33","","19.3","","99.14","","","","","","Mainly Clear"
"2002-05-23 17:00","2002","05","23","17:00","20.9","","6.5","","39","","23","","30","","24.1","","99.13","","","","","","Mostly Cloudy"
"2002-05-23 18:00","2002","05","23","18:00","21.4","","7.1","","40","","22","","35","","19.3","","99.10","","","","","","Mainly Clear"
"2002-05-23 19:00","2002","05","23","19:00","20.9","","7.0","","41","","24","","39","","24.1","","99.14","","","","","","Mainly Clear"
"2002-05-23 20:00","2002","05","23","20:00","20.0","","7.0","","43","","24","","26","","24.1","","99.09","","","","","","Mainly Clear"
"2002-05-23 21:00","2002","05","23","21:00","19.2","","7.2","","46","","23","","22","","24.1","","99.05","","","","","","Mainly Clear"
"2002-05-23 22:00","2002","05","23","22:00","19.2","","7.1","","45","","22","","22","","24.1","","99.00","","","","","","Mainly Clear"
"2002-05-23 23:00","2002","05","23","23:00","19.1","","7.6","","47","","23","","28","","24.1","","98.99","","","","","","Cloudy"
"2002-05-24 00:00","2002","05","24","00:00","18.9","","7.9","","49","","22","","22","","24.1","","98.91","","","","","","Cloudy"
"2002-05-24 01:00","2002","05","24","01:00","18.4","","8.2","","51","","22","","15","","24.1","","98.90","","","","","","Cloudy"
"2002-05-24 02:00","2002","05","24","02:00","18.1","","8.4","","53","","23","","20","","24.1","","98.86","","","","","","Cloudy"
"2002-05-24 03:00","2002","05","24","03:00","17.6","","9.5","","59","","23","","24","","24.1","","98.81","","","","","","Cloudy"
"2002-05-24 04:00","2002","05","24","04:00","17.4","","10.3","","63","","25","","19","","24.1","","98.84","","","","","","Cloudy"
"2002-05-24 05:00","2002","05","24","05:00","16.8","","10.7","","67","","23","","17","","16.1","","98.86","","","","","","Mostly Cloudy"
"2002-05-24 06:00","2002","05","24","06:00","17.0","","11.9","","72","","27","","20","","8.0","","98.92","","","","","","Haze"
"2002-05-24 07:00","2002","05","24","07:00","16.8","","12.2","","74","","31","","19","","6.4","","98.94","","","","","","Haze"
"2002-05-24 08:00","2002","05","24","08:00","15.2","","10.6","","74","","31","","15","","4.8","","98.93","","","","","","Rain Showers,Haze"
"2002-05-24 09:00","2002","05","24","09:00","14.8","","10.6","","76","","27","","15","","11.3","","99.01","","","","","","Cloudy"
"2002-05-24 10:00","2002","05","24","10:00","17.8","","11.6","","67","","27","","28","","12.9","","99.05","","","","","","Mostly Cloudy"
"2002-05-24 11:00","2002","05","24","11:00","18.7","","10.4","","58","","29","","32","","16.1","","99.09","","","","","","Mainly Clear"
"2002-05-24 12:00","2002","05","24","12:00","18.9","","9.2","","53","","28","","35","","19.3","","99.11","","","","","","Mainly Clear"
"2002-05-24 13:00","2002","05","24","13:00","18.2","","7.2","","49","","30","","32","","24.1","","99.17","","","","","","Mainly Clear"
"2002-05-24 14:00","2002","05","24","14:00","18.1","","7.5","","50","","33","","39","","24.1","","99.25","","","","","","Mainly Clear"
"2002-05-24 15:00","2002","05","24","15:00","16.0","","6.2","","52","","35","","30","","24.1","","99.34","","","","","","Mainly Clear"
"2002-05-24 16:00","2002","05","24","16:00","14.6","","2.8","","45","","36","","35","","24.1","","99.48","","","","","","Clear"
"2002-05-24 17:00","2002","05","24","17:00","13.2","","0.8","","43","","1","","37","","24.1","","99.53","","","","","","Clear"
"2002-05-24 18:00","2002","05","24","18:00","11.6","","-0.4","","43","","36","","41","","24.1","","99.65","","","","","","Mainly Clear"
"2002-05-24 19:00","2002","05","24","19:00","10.7","","-1.5","","43","","36","","33","","24.1","","99.75","","","","","","Mainly Clear"
"2002-05-24 20:00","2002","05","24","20:00","9.3","","-1.8","","46","","34","","24","","24.1","","99.86","","","","","","Mainly Clear"
"2002-05-24 21:00","2002","05","24","21:00","8.4","","-2.5","","46","","33","","24","","24.1","","99.94","","","","","","Mainly Clear"
"2002-05-24 22:00","2002","05","24","22:00","7.9","","-2.6","","47","","34","","22","","24.1","","100.00","","","","","","Mostly Cloudy"
"2002-05-24 23:00","2002","05","24","23:00","6.9","","-1.7","","54","","36","","17","","24.1","","100.08","","","","","","Mainly Clear"
"2002-05-25 00:00","2002","05","25","00:00","6.0","","-1.1","","60","","36","","20","","24.1","","100.12","","","","","","Mainly Clear"
"2002-05-25 01:00","2002","05","25","01:00","5.8","","-0.9","","62","","3","","13","","24.1","","100.13","","","","","","Mainly Clear"
"2002-05-25 02:00","2002","05","25","02:00","6.0","","-1.9","","57","","4","","7","","24.1","","100.16","","","","","","Mainly Clear"
"2002-05-25 03:00","2002","05","25","03:00","5.3","","-1.3","","62","","3","","6","","24.1","","100.18","","","","","","Clear"
"2002-05-25 04:00","2002","05","25","04:00","4.7","","-1.5","","64","","2","","7","","24.1","","100.17","","","","","","Clear"
"2002-05-25 05:00","2002","05","25","05:00","3.9","","-1.8","","66","","2","","9","","24.1","","100.24","","","","","","Mainly Clear"
"2002-05-25 06:00","2002","05","25","06:00","5.2","","-1.0","","64","","3","","11","","24.1","","100.26","","","","","","Mostly Cloudy"
"2002-05-25 07:00","2002","05","25","07:00","7.9","","-1.5","","51","","8","","9","","24.1","","100.30","","","","","","Mainly Clear"
"2002-05-25 08:00","2002","05","25","08:00","9.6","","-1.8","","45","","14","","19","","24.1","","100.34","","","","","","Clear"
"2002-05-25 09:00","2002","05","25","09:00","10.0","","-2.0","","43","","12","","22","","24.1","","100.29","","","","","","Clear"
"2002-05-25 10:00","2002","05","25","10:00","10.6","","-1.4","","43","","12","","24","","24.1","","100.20","","","","","","Mainly Clear"
"2002-05-25 11:00","2002","05","25","11:00","11.4","","-1.1","","42","","11","","24","","24.1","","100.19","","","","","","Mainly Clear"
"2002-05-25 12:00","2002","05","25","12:00","11.4","","-0.5","","44","","11","","26","","24.1","","100.09","","","","","","Mainly Clear"
"2002-05-25 13:00","2002","05","25","13:00","10.8","","-1.0","","44","","10","","17","","24.1","","99.94","","","","","","Mostly Cloudy"
"2002-05-25 14:00","2002","05","25","14:00","11.2","","-0.8","","43","","10","","26","","24.1","","99.80","","","","","","Mostly Cloudy"
"2002-05-25 15:00","2002","05","25","15:00","10.0","","-1.7","","44","","10","","24","","24.1","","99.68","","","","","","Rain Showers"
"2002-05-25 16:00","2002","05","25","16:00","8.6","","1.5","","61","","9","","17","","19.3","","99.59","","","","","","Rain Showers"
"2002-05-25 17:00","2002","05","25","17:00","8.4","","1.1","","60","","9","","13","","24.1","","99.46","","","","","","Cloudy"
"2002-05-25 18:00","2002","05","25","18:00","9.5","","0.4","","53","","10","","17","","24.1","","99.37","","","","","","Cloudy"
"2002-05-25 19:00","2002","05","25","19:00","9.6","","0.3","","52","","11","","22","","24.1","","99.30","","","","","","Rain Showers"
"2002-05-25 20:00","2002","05","25","20:00","7.4","","2.8","","73","","11","","20","","24.1","","99.20","","","","","","Rain"
"2002-05-25 21:00","2002","05","25","21:00","7.3","","2.7","","73","","10","","11","","24.1","","99.15","","","","","","Cloudy"
"2002-05-25 22:00","2002","05","25","22:00","7.7","","3.7","","76","","13","","4","","24.1","","99.11","","","","","","Cloudy"
"2002-05-25 23:00","2002","05","25","23:00","8.1","","4.4","","77","","","","0","","24.1","","99.08","","","","","","Cloudy"
"2002-05-26 00:00","2002","05","26","00:00","8.9","","5.4","","79","","","","0","","24.1","","99.04","","","","","","Cloudy"
"2002-05-26 01:00","2002","05","26","01:00","9.3","","6.0","","80","","23","","6","","24.1","","99.07","","","","","","Cloudy"
"2002-05-26 02:00","2002","05","26","02:00","9.3","","6.5","","83","","25","","9","","19.3","","99.10","","","","","","Mostly Cloudy"
"2002-05-26 03:00","2002","05","26","03:00","9.6","","5.4","","75","","29","","26","","24.1","","99.24","","","","","","Mainly Clear"
"2002-05-26 04:00","2002","05","26","04:00","8.6","","4.1","","73","","30","","26","","24.1","","99.39","","","","","","Mostly Cloudy"
"2002-05-26 05:00","2002","05","26","05:00","8.4","","3.7","","72","","29","","32","","24.1","","99.52","","","","","","Cloudy"
"2002-05-26 06:00","2002","05","26","06:00","7.7","","2.6","","70","","31","","35","","24.1","","99.65","","","","","","Cloudy"
"2002-05-26 07:00","2002","05","26","07:00","7.4","","2.0","","69","","29","","30","","24.1","","99.82","","","","","","Cloudy"
"2002-05-26 08:00","2002","05","26","08:00","8.1","","2.5","","68","","30","","19","","24.1","","99.92","","","","","","Mostly Cloudy"
"2002-05-26 09:00","2002","05","26","09:00","8.7","","2.9","","67","","28","","19","","24.1","","99.97","","","","","","Mostly Cloudy"
"2002-05-26 10:00","2002","05","26","10:00","10.4","","3.6","","63","","29","","17","","24.1","","100.06","","","","","","Mostly Cloudy"
"2002-05-26 11:00","2002","05","26","11:00","11.2","","4.2","","62","","23","","11","","24.1","","100.08","","","","","","Mainly Clear"
"2002-05-26 12:00","2002","05","26","12:00","12.9","","5.7","","62","","23","","15","","24.1","","100.09","","","","","","Mainly Clear"
"2002-05-26 13:00","2002","05","26","13:00","14.2","","6.0","","58","","23","","7","","24.1","","100.08","","","","","","Mainly Clear"
"2002-05-26 14:00","2002","05","26","14:00","15.9","","6.4","","53","","21","","19","","24.1","","100.05","","","","","","Mainly Clear"
"2002-05-26 15:00","2002","05","26","15:00","16.3","","7.4","","56","","15","","19","","24.1","","100.02","","","","","","Mainly Clear"
"2002-05-26 16:00","2002","05","26","16:00","17.0","","7.3","","53","","17","","17","","24.1","","100.00","","","","","","Clear"
"2002-05-26 17:00","2002","05","26","17:00","16.4","","6.4","","52","","18","","20","","24.1","","99.95","","","","","","Clear"
"2002-05-26 18:00","2002","05","26","18:00","14.8","","7.5","","62","","18","","22","","24.1","","99.94","","","","","","Clear"
"2002-05-26 19:00","2002","05","26","19:00","14.0","","6.9","","62","","18","","15","","24.1","","99.96","","","","","","Clear"
"2002-05-26 20:00","2002","05","26","20:00","13.7","","6.9","","63","","19","","15","","24.1","","99.96","","","","","","Clear"
"2002-05-26 21:00","2002","05","26","21:00","13.2","","6.9","","66","","19","","9","","24.1","","99.99","","","","","","Clear"
"2002-05-26 22:00","2002","05","26","22:00","12.1","","6.5","","69","","17","","6","","24.1","","99.99","","","","","","Clear"
"2002-05-26 23:00","2002","05","26","23:00","11.8","","4.7","","62","","","","0","","24.1","","100.00","","","","","","Clear"
"2002-05-27 00:00","2002","05","27","00:00","11.4","","4.3","","62","","18","","4","","24.1","","100.00","","","","","","Clear"
"2002-05-27 01:00","2002","05","27","01:00","10.5","","3.8","","63","","21","","7","","24.1","","99.95","","","","","","Clear"
"2002-05-27 02:00","2002","05","27","02:00","10.2","","3.4","","63","","11","","4","","24.1","","99.94","","","","","","Clear"
"2002-05-27 03:00","2002","05","27","03:00","8.9","","4.0","","71","","7","","6","","24.1","","99.94","","","","","","Clear"
"2002-05-27 04:00","2002","05","27","04:00","8.4","","3.7","","72","","15","","4","","24.1","","99.97","","","","","","Clear"
"2002-05-27 05:00","2002","05","27","05:00","7.6","","3.9","","77","","16","","6","","24.1","","99.98","","","","","","Clear"
"2002-05-27 06:00","2002","05","27","06:00","9.6","","5.5","","76","","","","0","","19.3","","100.05","","","","","","Mainly Clear"
"2002-05-27 07:00","2002","05","27","07:00","12.3","","6.6","","68","","26","","4","","19.3","","100.05","","","","","","Mainly Clear"
"2002-05-27 08:00","2002","05","27","08:00","15.3","","4.7","","49","","14","","6","","19.3","","100.03","","","","","","Mainly Clear"
"2002-05-27 09:00","2002","05","27","09:00","18.2","","5.1","","42","","18","","7","","19.3","","100.03","","","","","","Mainly Clear"
"2002-05-27 10:00","2002","05","27","10:00","17.4","","6.2","","48","","14","","11","","19.3","","100.05","","","","","","Mostly Cloudy"
"2002-05-27 11:00","2002","05","27","11:00","17.6","","5.8","","46","","15","","9","","19.3","","100.06","","","","","","Mostly Cloudy"
"2002-05-27 12:00","2002","05","27","12:00","19.1","","6.3","","43","","16","","13","","19.3","","100.02","","","","","","Mostly Cloudy"
"2002-05-27 13:00","2002","05","27","13:00","19.8","","7.2","","44","","15","","19","","19.3","","99.99","","","","","","Mostly Cloudy"
"2002-05-27 14:00","2002","05","27","14:00","22.0","","5.4","","34","","17","","13","","24.1","","99.95","","","","","","Mostly Cloudy"
"2002-05-27 15:00","2002","05","27","15:00","21.7","","6.2","","37","","17","","19","","24.1","","99.93","","","","","","Mostly Cloudy"
"2002-05-27 16:00","2002","05","27","16:00","21.9","","6.6","","37","","15","","15","","24.1","","99.90","","","","","","Mostly Cloudy"
"2002-05-27 17:00","2002","05","27","17:00","20.7","","6.8","","40","","18","","11","","24.1","","99.87","","","","","","Mostly Cloudy"
"2002-05-27 18:00","2002","05","27","18:00","18.7","","6.2","","44","","17","","9","","24.1","","99.85","","","","","","Mostly Cloudy"
"2002-05-27 19:00","2002","05","27","19:00","17.2","","4.8","","44","","17","","6","","24.1","","99.87","","","","","","Mostly Cloudy"
"2002-05-27 20:00","2002","05","27","20:00","16.2","","3.6","","43","","9","","7","","24.1","","99.91","","","","","","Mostly Cloudy"
"2002-05-27 21:00","2002","05","27","21:00","14.6","","4.2","","50","","24","","6","","24.1","","99.98","","","","","","Mostly Cloudy"
"2002-05-27 22:00","2002","05","27","22:00","16.2","","8.8","","62","","5","","7","","19.3","","99.98","","","","","","Mostly Cloudy"
"2002-05-27 23:00","2002","05","27","23:00","15.2","","5.8","","53","","18","","6","","19.3","","99.99","","","","","","Mostly Cloudy"
"2002-05-28 00:00","2002","05","28","00:00","14.4","","5.5","","55","","","","0","","24.1","","100.01","","","","","","Mostly Cloudy"
"2002-05-28 01:00","2002","05","28","01:00","13.8","","6.5","","61","","27","","6","","24.1","","100.00","","","","","","Mostly Cloudy"
"2002-05-28 02:00","2002","05","28","02:00","13.2","","6.4","","63","","23","","4","","24.1","","99.98","","","","","","Mostly Cloudy"
"2002-05-28 03:00","2002","05","28","03:00","12.3","","7.7","","73","","34","","6","","24.1","","100.00","","","","","","Clear"
"2002-05-28 04:00","2002","05","28","04:00","12.8","","8.0","","73","","36","","9","","24.1","","100.01","","","","","","Clear"
"2002-05-28 05:00","2002","05","28","05:00","12.1","","8.0","","76","","2","","9","","24.1","","100.06","","","","","","Mainly Clear"
"2002-05-28 06:00","2002","05","28","06:00","13.5","","8.7","","73","","1","","9","","19.3","","100.09","","","","","","Mainly Clear"
"2002-05-28 07:00","2002","05","28","07:00","16.1","","9.3","","64","","3","","7","","16.1","","100.10","","","","","","Clear"
"2002-05-28 08:00","2002","05","28","08:00","19.4","","10.0","","55","","3","","7","","16.1","","100.12","","","","","","Mainly Clear"
"2002-05-28 09:00","2002","05","28","09:00","20.2","","10.2","","53","","12","","11","","19.3","","100.12","","","","","","Mostly Cloudy"
"2002-05-28 10:00","2002","05","28","10:00","21.2","","9.8","","48","","14","","7","","19.3","","100.07","","","","","","Mostly Cloudy"
"2002-05-28 11:00","2002","05","28","11:00","21.6","","10.6","","50","","15","","13","","19.3","","100.06","","","","","","Mostly Cloudy"
"2002-05-28 12:00","2002","05","28","12:00","22.2","","11.3","","50","","14","","17","","24.1","","100.06","","","","","","Mostly Cloudy"
"2002-05-28 13:00","2002","05","28","13:00","22.7","","9.6","","43","","13","","15","","24.1","","100.02","","","","","","Mainly Clear"
"2002-05-28 14:00","2002","05","28","14:00","23.4","","6.6","","34","","14","","17","","24.1","","99.94","","","","","","Clear"
"2002-05-28 15:00","2002","05","28","15:00","24.0","","5.0","","29","","15","","15","","24.1","","99.90","","","","","","Clear"
"2002-05-28 16:00","2002","05","28","16:00","24.0","","5.6","","30","","14","","13","","24.1","","99.81","","","","","","Clear"
"2002-05-28 17:00","2002","05","28","17:00","23.2","","4.8","","30","","14","","15","","24.1","","99.78","","","","","","Clear"
"2002-05-28 18:00","2002","05","28","18:00","22.3","","5.4","","33","","13","","13","","24.1","","99.76","","","","","","Clear"
"2002-05-28 19:00","2002","05","28","19:00","21.2","","6.8","","39","","13","","9","","24.1","","99.73","","","","","","Clear"
"2002-05-28 20:00","2002","05","28","20:00","19.9","","6.0","","40","","15","","7","","24.1","","99.75","","","","","","Clear"
"2002-05-28 21:00","2002","05","28","21:00","18.8","","5.2","","41","","13","","6","","24.1","","99.77","","","","","","Clear"
"2002-05-28 22:00","2002","05","28","22:00","18.7","","5.2","","41","","9","","7","","24.1","","99.75","","","","","","Clear"
"2002-05-28 23:00","2002","05","28","23:00","17.2","","6.6","","50","","4","","6","","24.1","","99.72","","","","","","Clear"
"2002-05-29 00:00","2002","05","29","00:00","17.0","","6.6","","50","","2","","7","","24.1","","99.71","","","","","","Mainly Clear"
"2002-05-29 01:00","2002","05","29","01:00","15.3","","7.2","","58","","36","","7","","24.1","","99.66","","","","","","Cloudy"
"2002-05-29 02:00","2002","05","29","02:00","15.0","","7.0","","59","","","","0","","19.3","","99.62","","","","","","Mostly Cloudy"
"2002-05-29 03:00","2002","05","29","03:00","14.9","","6.7","","58","","","","0","","19.3","","99.58","","","","","","Mostly Cloudy"
"2002-05-29 04:00","2002","05","29","04:00","13.9","","7.2","","64","","31","","4","","19.3","","99.55","","","","","","Mostly Cloudy"
"2002-05-29 05:00","2002","05","29","05:00","14.0","","7.2","","64","","2","","6","","19.3","","99.55","","","","","","Mostly Cloudy"
"2002-05-29 06:00","2002","05","29","06:00","15.3","","8.0","","62","","5","","4","","16.1","","99.58","","","","","","Mostly Cloudy"
"2002-05-29 07:00","2002","05","29","07:00","16.9","","9.0","","60","","","","0","","19.3","","99.59","","","","","","Mostly Cloudy"
"2002-05-29 08:00","2002","05","29","08:00","18.3","","9.9","","58","","16","","7","","16.1","","99.59","","","","","","Mostly Cloudy"
"2002-05-29 09:00","2002","05","29","09:00","19.5","","10.9","","58","","","","0","","14.5","","99.59","","","","","","Mostly Cloudy"
"2002-05-29 10:00","2002","05","29","10:00","21.1","","11.6","","55","","15","","6","","16.1","","99.56","","","","","","Mostly Cloudy"
"2002-05-29 11:00","2002","05","29","11:00","21.6","","12.9","","58","","17","","9","","12.9","","99.52","","","","","","Mostly Cloudy"
"2002-05-29 12:00","2002","05","29","12:00","22.6","","13.7","","57","","19","","15","","12.9","","99.49","","26","","","","Cloudy"
"2002-05-29 13:00","2002","05","29","13:00","24.1","","15.2","","58","","19","","19","","12.9","","99.43","","28","","","","Cloudy"
"2002-05-29 14:00","2002","05","29","14:00","24.3","","15.4","","58","","17","","17","","12.9","","99.37","","29","","","","Cloudy"
"2002-05-29 15:00","2002","05","29","15:00","23.0","","13.9","","57","","15","","17","","14.5","","99.28","","26","","","","Cloudy"
"2002-05-29 16:00","2002","05","29","16:00","21.7","","13.3","","59","","16","","17","","12.9","","99.24","","25","","","","Cloudy"
"2002-05-29 17:00","2002","05","29","17:00","18.8","","12.5","","67","","15","","15","","9.7","","99.22","","","","","","Haze"
"2002-05-29 18:00","2002","05","29","18:00","19.5","","13.1","","66","","16","","11","","11.3","","99.21","","","","","","Mostly Cloudy"
"2002-05-29 19:00","2002","05","29","19:00","19.1","","12.9","","67","","14","","9","","11.3","","99.20","","","","","","Cloudy"
"2002-05-29 20:00","2002","05","29","20:00","18.6","","12.8","","69","","13","","6","","9.7","","99.20","","","","","","Haze"
"2002-05-29 21:00","2002","05","29","21:00","20.2","","13.6","","66","","9","","9","","9.7","","99.21","","","","","","Haze"
"2002-05-29 22:00","2002","05","29","22:00","19.7","","13.7","","68","","17","","6","","9.7","","99.19","","","","","","Haze"
"2002-05-29 23:00","2002","05","29","23:00","17.2","","13.1","","77","","14","","7","","8.0","","99.21","","","","","","Haze"
"2002-05-30 00:00","2002","05","30","00:00","16.1","","12.8","","81","","","","0","","4.8","","99.17","","","","","","Haze"
"2002-05-30 01:00","2002","05","30","01:00","16.3","","13.2","","82","","13","","4","","4.8","","99.15","","","","","","Haze"
"2002-05-30 02:00","2002","05","30","02:00","16.0","","12.8","","81","","17","","6","","4.8","","99.14","","","","","","Haze"
"2002-05-30 03:00","2002","05","30","03:00","16.1","","12.6","","80","","16","","7","","4.8","","99.09","","","","","","Haze"
"2002-05-30 04:00","2002","05","30","04:00","15.8","","12.4","","80","","15","","4","","6.4","","99.08","","","","","","Haze"
"2002-05-30 05:00","2002","05","30","05:00","16.0","","12.5","","80","","16","","6","","4.0","","99.08","","","","","","Haze"
"2002-05-30 06:00","2002","05","30","06:00","16.9","","13.2","","79","","17","","4","","4.0","","99.09","","","","","","Haze"
"2002-05-30 07:00","2002","05","30","07:00","19.2","","14.9","","76","","18","","9","","4.0","","99.11","","","","","","Haze"
"2002-05-30 08:00","2002","05","30","08:00","20.2","","15.5","","74","","27","","7","","4.8","","99.13","","","","","","Haze"
"2002-05-30 09:00","2002","05","30","09:00","21.8","","16.4","","71","","26","","7","","4.8","","99.11","","27","","","","Haze"
"2002-05-30 10:00","2002","05","30","10:00","23.3","","16.9","","67","","12","","6","","6.4","","99.07","","29","","","","Haze"
"2002-05-30 11:00","2002","05","30","11:00","24.0","","17.4","","67","","13","","9","","8.0","","99.03","","30","","","","Haze"
"2002-05-30 12:00","2002","05","30","12:00","25.1","","17.5","","63","","17","","20","","9.7","","98.95","","31","","","","Haze"
"2002-05-30 13:00","2002","05","30","13:00","27.5","","16.9","","52","","22","","28","","11.3","","98.86","","33","","","","Mostly Cloudy"
"2002-05-30 14:00","2002","05","30","14:00","27.9","","15.8","","48","","24","","28","","12.9","","98.79","","32","","","","Mainly Clear"
"2002-05-30 15:00","2002","05","30","15:00","27.1","","15.5","","49","","25","","28","","16.1","","98.72","","31","","","","Mostly Cloudy"
"2002-05-30 16:00","2002","05","30","16:00","27.1","","16.3","","52","","23","","37","","14.5","","98.73","","32","","","","Mostly Cloudy"
"2002-05-30 17:00","2002","05","30","17:00","25.2","","15.8","","56","","24","","28","","12.9","","98.72","","30","","","","Rain Showers"
"2002-05-30 18:00","2002","05","30","18:00","23.6","","16.8","","66","","25","","19","","11.3","","98.64","","29","","","","Mostly Cloudy"
"2002-05-30 19:00","2002","05","30","19:00","24.6","","15.7","","58","","22","","13","","16.1","","98.65","","29","","","","Mostly Cloudy"
"2002-05-30 20:00","2002","05","30","20:00","23.7","","14.8","","57","","22","","11","","24.1","","98.66","","28","","","","Cloudy"
"2002-05-30 21:00","2002","05","30","21:00","23.0","","14.7","","60","","21","","15","","24.1","","98.63","","27","","","","Cloudy"
"2002-05-30 22:00","2002","05","30","22:00","22.2","","14.2","","60","","22","","15","","24.1","","98.63","","26","","","","Cloudy"
"2002-05-30 23:00","2002","05","30","23:00","21.7","","14.3","","63","","22","","17","","24.1","","98.56","","25","","","","Cloudy"
"2002-05-31 00:00","2002","05","31","00:00","21.1","","14.6","","66","","23","","20","","24.1","","98.52","","25","","","","Mostly Cloudy"
"2002-05-31 01:00","2002","05","31","01:00","20.4","","14.6","","69","","23","","20","","24.1","","98.43","","","","","","Mostly Cloudy"
"2002-05-31 02:00","2002","05","31","02:00","20.2","","14.6","","70","","22","","20","","19.3","","98.31","","","","","","Mainly Clear"
"2002-05-31 03:00","2002","05","31","03:00","20.2","","14.7","","71","","22","","19","","19.3","","98.18","","","","","","Cloudy"
"2002-05-31 04:00","2002","05","31","04:00","20.0","","14.8","","72","","22","","20","","19.3","","98.11","","","","","","Mostly Cloudy"
"2002-05-31 05:00","2002","05","31","05:00","19.8","","15.1","","74","","23","","22","","12.9","","98.11","","","","","","Thunderstorms,Rain Showers"
"2002-05-31 06:00","2002","05","31","06:00","18.5","","15.2","","81","","24","","30","","4.0","","98.09","","","","","","Moderate Rain Showers"
"2002-05-31 07:00","2002","05","31","07:00","18.8","","14.8","","78","","25","","17","","19.3","","97.96","","","","","","Mostly Cloudy"
"2002-05-31 08:00","2002","05","31","08:00","18.9","","15.0","","78","","23","","24","","16.1","","97.91","","","","","","Mostly Cloudy"
"2002-05-31 09:00","2002","05","31","09:00","21.0","","15.9","","73","","24","","37","","16.1","","97.83","","26","","","","Mostly Cloudy"
"2002-05-31 10:00","2002","05","31","10:00","21.5","","15.6","","69","","24","","41","","19.3","","97.76","","26","","","","Mostly Cloudy"
"2002-05-31 11:00","2002","05","31","11:00","22.2","","16.8","","71","","25","","24","","12.9","","97.84","","27","","","","Mostly Cloudy"
"2002-05-31 12:00","2002","05","31","12:00","24.7","","17.7","","65","","29","","41","","12.9","","97.87","","30","","","","Mostly Cloudy"
"2002-05-31 13:00","2002","05","31","13:00","21.9","","14.9","","64","","33","","19","","24.1","","97.91","","26","","","","Mainly Clear"
"2002-05-31 14:00","2002","05","31","14:00","24.4","","15.2","","57","","29","","44","","24.1","","97.97","","28","","","","Mainly Clear"
"2002-05-31 15:00","2002","05","31","15:00","24.5","","13.4","","50","","29","","44","","24.1","","98.03","","28","","","","Mainly Clear"
"2002-05-31 16:00","2002","05","31","16:00","24.3","","11.7","","45","","30","","59","","24.1","","98.09","","26","","","","Mainly Clear"
"2002-05-31 17:00","2002","05","31","17:00","23.7","","7.2","","35","","31","","56","","24.1","","98.17","","","","","","Mainly Clear"
"2002-05-31 18:00","2002","05","31","18:00","22.7","","4.9","","31","","31","","43","","24.1","","98.18","","","","","","Mainly Clear"
"2002-05-31 19:00","2002","05","31","19:00","21.5","","5.2","","34","","31","","33","","24.1","","98.21","","","","","","Mainly Clear"
"2002-05-31 20:00","2002","05","31","20:00","18.8","","5.6","","42","","27","","19","","24.1","","98.21","","","","","","Mostly Cloudy"
"2002-05-31 21:00","2002","05","31","21:00","17.3","","5.9","","47","","27","","19","","24.1","","98.27","","","","","","Mainly Clear"
"2002-05-31 22:00","2002","05","31","22:00","16.1","","6.4","","53","","27","","15","","24.1","","98.33","","","","","","Mainly Clear"
"2002-05-31 23:00","2002","05","31","23:00","15.8","","7.1","","56","","25","","17","","24.1","","98.36","","","","","","Mostly Cloudy"
