"Station Name","TORONTO LESTER B. PEARSON INT'L A"
"Province","ONTARIO"
"Latitude","43.68"
"Longitude","-79.63"
"Elevation","173.40"
"Climate Identifier","6158733"
"WMO Identifier","71624"
"TC Identifier","YYZ"
"All times are specified in Local Standard Time (LST). Add 1 hour to adjust for Daylight Saving Time where and when it is observed."

"Legend"
"E","Estimated"
"M","Missing"
"NA","Not Available"

"Date/Time","Year","Month","Day","Time","Temp (°C)","Temp Flag","Dew Point Temp (°C)","Dew Point Temp Flag","Rel Hum (%)","Rel Hum Flag","Wind Dir (10s deg)","Wind Dir Flag","Wind Spd (km/h)","Wind Spd Flag","Visibility (km)","Visibility Flag","Stn Press (kPa)","Stn Press Flag","Hmdx","Hmdx Flag","Wind Chill","Wind Chill Flag","Weather"
"1988-01-01 00:00","1988","01","01","00:00","-0.9","","-5.7","","70","","27","","31","","24.1","","99.47","","","","-8","","Cloudy"
"1988-01-01 01:00","1988","01","01","01:00","-1.3","","-4.8","","77","","25","","22","","24.1","","99.51","","","","-7","","Cloudy"
"1988-01-01 02:00","1988","01","01","02:00","-1.6","","-4.2","","82","","26","","24","","24.1","","99.54","","","","-8","","Cloudy"
"1988-01-01 03:00","1988","01","01","03:00","-2.0","","-5.1","","79","","25","","30","","24.1","","99.61","","","","-9","","Cloudy"
"1988-01-01 04:00","1988","01","01","04:00","-2.6","","-6.4","","75","","26","","28","","24.1","","99.64","","","","-10","","Snow"
"1988-01-01 05:00","1988","01","01","05:00","-3.0","","-5.7","","81","","25","","19","","16.1","","99.67","","","","-9","","Snow"
"1988-01-01 06:00","1988","01","01","06:00","-3.2","","-7.0","","75","","24","","24","","19.3","","99.74","","","","-10","","Cloudy"
"1988-01-01 07:00","1988","01","01","07:00","-3.4","","-6.3","","80","","25","","26","","12.9","","99.84","","","","-10","","Snow"
"1988-01-01 08:00","1988","01","01","08:00","-3.8","","-7.3","","77","","25","","20","","6.4","","99.91","","","","-10","","Snow"
"1988-01-01 09:00","1988","01","01","09:00","-4.0","","-7.6","","76","","25","","30","","6.4","","99.97","","","","-12","","Snow"
"1988-01-01 10:00","1988","01","01","10:00","-4.2","","-8.0","","75","","25","","26","","16.1","","100.04","","","","-11","","Snow"
"1988-01-01 11:00","1988","01","01","11:00","-4.1","","-8.3","","73","","25","","33","","24.1","","100.07","","","","-12","","Mostly Cloudy"
"1988-01-01 12:00","1988","01","01","12:00","-3.6","","-9.1","","65","","26","","33","","24.1","","100.07","","","","-12","","Mostly Cloudy"
"1988-01-01 13:00","1988","01","01","13:00","-4.5","","-10.2","","64","","26","","28","","40.2","","100.07","","","","-12","","Mostly Cloudy"
"1988-01-01 14:00","1988","01","01","14:00","-5.0","","-10.5","","65","","25","","35","","32.2","","100.07","","","","-14","","Mostly Cloudy"
"1988-01-01 15:00","1988","01","01","15:00","-5.1","","-12.2","","57","","27","","35","","11.3","","100.14","","","","-14","","Snow Showers"
"1988-01-01 16:00","1988","01","01","16:00","-6.9","","-10.8","","74","","26","","33","","40.2","","100.17","","","","-16","","Mainly Clear"
"1988-01-01 17:00","1988","01","01","17:00","-8.1","","-12.1","","73","","24","","31","","40.2","","100.21","","","","-17","","Mainly Clear"
"1988-01-01 18:00","1988","01","01","18:00","-8.7","","-13.6","","68","","25","","37","","25.0","","100.27","","","","-19","","Clear"
"1988-01-01 19:00","1988","01","01","19:00","-8.7","","-14.6","","62","","25","","33","","25.0","","100.31","","","","-18","","Clear"
"1988-01-01 20:00","1988","01","01","20:00","-8.6","","-13.6","","67","","24","","24","","25.0","","100.34","","","","-17","","Clear"
"1988-01-01 21:00","1988","01","01","21:00","-8.5","","-13.6","","66","","25","","22","","25.0","","100.37","","","","-16","","Clear"
"1988-01-01 22:00","1988","01","01","22:00","-8.3","","-12.7","","70","","26","","19","","16.1","","100.47","","","","-16","","Snow Showers"
"1988-01-01 23:00","1988","01","01","23:00","-8.1","","-11.6","","76","","25","","19","","24.1","","100.51","","","","-15","","Mainly Clear"
"1988-01-02 00:00","1988","01","02","00:00","-8.8","","-12.1","","77","","28","","22","","24.1","","100.61","","","","-17","","Mainly Clear"
"1988-01-02 01:00","1988","01","02","01:00","-9.2","","-13.4","","72","","27","","31","","24.1","","100.71","","","","-19","","Mainly Clear"
"1988-01-02 02:00","1988","01","02","02:00","-9.8","","-12.9","","78","","26","","20","","24.1","","100.77","","","","-18","","Mainly Clear"
"1988-01-02 03:00","1988","01","02","03:00","-9.5","","-13.1","","75","","25","","24","","24.1","","100.77","","","","-18","","Mainly Clear"
"1988-01-02 04:00","1988","01","02","04:00","-9.4","","-13.1","","74","","25","","26","","25.0","","100.81","","","","-18","","Clear"
"1988-01-02 05:00","1988","01","02","05:00","-8.9","","-12.5","","75","","25","","22","","25.0","","100.84","","","","-17","","Mostly Cloudy"
"1988-01-02 06:00","1988","01","02","06:00","-9.2","","-12.9","","75","","23","","11","","25.0","","100.87","","","","-15","","Mostly Cloudy"
"1988-01-02 07:00","1988","01","02","07:00","-9.0","","-11.7","","81","","23","","7","","24.1","","100.91","","","","-13","","Mostly Cloudy"
"1988-01-02 08:00","1988","01","02","08:00","-8.5","","-12.3","","74","","25","","13","","24.1","","100.97","","","","-14","","Mostly Cloudy"
"1988-01-02 09:00","1988","01","02","09:00","-8.7","","-11.1","","83","","21","","13","","24.1","","101.01","","","","-15","","Snow Showers"
"1988-01-02 10:00","1988","01","02","10:00","-7.8","","-11.2","","76","","24","","19","","19.3","","101.01","","","","-15","","Snow Showers"
"1988-01-02 11:00","1988","01","02","11:00","-6.6","","-12.2","","64","","25","","28","","24.1","","101.01","","","","-15","","Mainly Clear"
"1988-01-02 12:00","1988","01","02","12:00","-6.0","","-11.5","","65","","24","","26","","40.2","","100.91","","","","-14","","Mainly Clear"
"1988-01-02 13:00","1988","01","02","13:00","-5.4","","-11.6","","61","","25","","26","","24.1","","100.87","","","","-13","","Mainly Clear"
"1988-01-02 14:00","1988","01","02","14:00","-6.0","","-12.3","","61","","26","","26","","24.1","","100.84","","","","-14","","Mainly Clear"
"1988-01-02 15:00","1988","01","02","15:00","-5.6","","-11.6","","62","","25","","19","","32.2","","100.77","","","","-12","","Snow Showers"
"1988-01-02 16:00","1988","01","02","16:00","-4.9","","-10.1","","67","","23","","20","","32.2","","100.71","","","","-11","","Clear"
"1988-01-02 17:00","1988","01","02","17:00","-5.8","","-10.6","","69","","22","","13","","25.0","","100.71","","","","-11","","Clear"
"1988-01-02 18:00","1988","01","02","18:00","-6.3","","-10.9","","70","","21","","13","","25.0","","100.71","","","","-12","","Clear"
"1988-01-02 19:00","1988","01","02","19:00","-6.2","","-11.1","","68","","21","","17","","25.0","","100.74","","","","-12","","Clear"
"1988-01-02 20:00","1988","01","02","20:00","-6.8","","-12.0","","66","","21","","13","","25.0","","100.77","","","","-12","","Clear"
"1988-01-02 21:00","1988","01","02","21:00","-7.2","","-11.6","","71","","20","","7","","25.0","","100.74","","","","-11","","Clear"
"1988-01-02 22:00","1988","01","02","22:00","-7.2","","-11.2","","73","","18","","7","","25.0","","100.74","","","","-11","","Clear"
"1988-01-02 23:00","1988","01","02","23:00","-7.7","","-10.6","","80","","20","","9","","25.0","","100.77","","","","-12","","Clear"
"1988-01-03 00:00","1988","01","03","00:00","-7.8","","-12.1","","71","","22","","11","","25.0","","100.77","","","","-13","","Clear"
"1988-01-03 01:00","1988","01","03","01:00","-8.2","","-11.2","","79","","21","","11","","25.0","","100.71","","","","-13","","Clear"
"1988-01-03 02:00","1988","01","03","02:00","-7.7","","-11.0","","77","","20","","11","","25.0","","100.71","","","","-13","","Clear"
"1988-01-03 03:00","1988","01","03","03:00","-7.5","","-11.4","","74","","22","","13","","25.0","","100.71","","","","-13","","Clear"
"1988-01-03 04:00","1988","01","03","04:00","-7.3","","-11.8","","70","","22","","13","","25.0","","100.67","","","","-13","","Clear"
"1988-01-03 05:00","1988","01","03","05:00","-7.2","","-10.8","","76","","21","","11","","25.0","","100.67","","","","-12","","Clear"
"1988-01-03 06:00","1988","01","03","06:00","-7.3","","-11.8","","70","","22","","13","","25.0","","100.71","","","","-13","","Clear"
"1988-01-03 07:00","1988","01","03","07:00","-7.7","","-11.8","","73","","22","","9","","25.0","","100.71","","","","-12","","Clear"
"1988-01-03 08:00","1988","01","03","08:00","-8.0","","-12.1","","72","","22","","7","","32.2","","100.74","","","","-12","","Mainly Clear"
"1988-01-03 09:00","1988","01","03","09:00","-6.8","","-12.4","","64","","21","","9","","32.2","","100.74","","","","-11","","Mainly Clear"
"1988-01-03 10:00","1988","01","03","10:00","-5.3","","-12.0","","59","","19","","11","","32.2","","100.74","","","","-10","","Mainly Clear"
"1988-01-03 11:00","1988","01","03","11:00","-2.5","","-6.4","","75","","19","","19","","32.2","","100.67","","","","-8","","Mainly Clear"
"1988-01-03 12:00","1988","01","03","12:00","-1.0","","-6.0","","69","","21","","22","","32.2","","100.54","","","","-7","","Mainly Clear"
"1988-01-03 13:00","1988","01","03","13:00","0.0","","-4.6","","71","","20","","20","","32.2","","100.37","","","","-5","","Mainly Clear"
"1988-01-03 14:00","1988","01","03","14:00","0.3","","-5.5","","65","","17","","17","","32.2","","100.24","","","","","","Mainly Clear"
"1988-01-03 15:00","1988","01","03","15:00","0.4","","-7.1","","57","","16","","19","","32.2","","100.14","","","","","","Mostly Cloudy"
"1988-01-03 16:00","1988","01","03","16:00","-0.4","","-9.1","","52","","17","","19","","32.2","","100.07","","","","-6","","Mostly Cloudy"
"1988-01-03 17:00","1988","01","03","17:00","-1.2","","-8.1","","59","","19","","15","","25.0","","100.07","","","","-6","","Mostly Cloudy"
"1988-01-03 18:00","1988","01","03","18:00","-2.5","","-10.0","","56","","19","","15","","25.0","","100.07","","","","-7","","Mostly Cloudy"
"1988-01-03 19:00","1988","01","03","19:00","-3.0","","-10.4","","57","","18","","9","","25.0","","99.97","","","","-7","","Mostly Cloudy"
"1988-01-03 20:00","1988","01","03","20:00","-3.0","","-8.4","","66","","21","","11","","25.0","","99.94","","","","-7","","Cloudy"
"1988-01-03 21:00","1988","01","03","21:00","-2.6","","-8.8","","62","","19","","7","","25.0","","99.84","","","","-5","","Cloudy"
"1988-01-03 22:00","1988","01","03","22:00","-2.6","","-8.5","","64","","18","","7","","25.0","","99.74","","","","-5","","Cloudy"
"1988-01-03 23:00","1988","01","03","23:00","-3.0","","-9.2","","62","","19","","7","","25.0","","99.61","","","","-6","","Cloudy"
"1988-01-04 00:00","1988","01","04","00:00","-2.6","","-9.2","","60","","20","","9","","25.0","","99.54","","","","-6","","Cloudy"
"1988-01-04 01:00","1988","01","04","01:00","-2.2","","-7.0","","70","","19","","13","","25.0","","99.47","","","","-7","","Cloudy"
"1988-01-04 02:00","1988","01","04","02:00","-1.8","","-7.0","","67","","23","","15","","16.1","","99.37","","","","-7","","Snow"
"1988-01-04 03:00","1988","01","04","03:00","-2.6","","-4.5","","87","","17","","9","","19.3","","99.31","","","","-6","","Cloudy"
"1988-01-04 04:00","1988","01","04","04:00","-2.4","","-5.1","","81","","20","","15","","19.3","","99.21","","","","-7","","Cloudy"
"1988-01-04 05:00","1988","01","04","05:00","-2.8","","-5.7","","80","","23","","11","","16.1","","99.14","","","","-7","","Snow Showers"
"1988-01-04 06:00","1988","01","04","06:00","-3.2","","-4.5","","91","","22","","9","","8.0","","99.07","","","","-7","","Snow Showers"
"1988-01-04 07:00","1988","01","04","07:00","-3.2","","-4.5","","91","","22","","9","","16.1","","99.04","","","","-7","","Snow Showers"
"1988-01-04 08:00","1988","01","04","08:00","-3.3","","-5.4","","85","","20","","9","","16.1","","99.01","","","","-7","","Mostly Cloudy"
"1988-01-04 09:00","1988","01","04","09:00","-3.3","","-5.4","","85","","23","","17","","16.1","","98.97","","","","-9","","Snow Showers"
"1988-01-04 10:00","1988","01","04","10:00","-2.7","","-5.4","","82","","24","","20","","12.9","","98.94","","","","-9","","Snow Showers"
"1988-01-04 11:00","1988","01","04","11:00","-1.8","","-5.7","","74","","22","","26","","19.3","","98.84","","","","-8","","Cloudy"
"1988-01-04 12:00","1988","01","04","12:00","-2.4","","-5.7","","78","","28","","33","","1.2","","98.81","","","","-10","","Snow Showers"
"1988-01-04 13:00","1988","01","04","13:00","-4.5","","-9.4","","69","","27","","41","","16.1","","98.84","","","","-14","","Mostly Cloudy"
"1988-01-04 14:00","1988","01","04","14:00","-5.4","","-11.2","","63","","27","","37","","32.2","","98.84","","","","-14","","Mainly Clear"
"1988-01-04 15:00","1988","01","04","15:00","-6.6","","-11.7","","67","","27","","43","","12.9","","98.94","","","","-17","","Mostly Cloudy"
"1988-01-04 16:00","1988","01","04","16:00","-8.3","","-14.1","","63","","27","","35","","24.1","","99.07","","","","-18","","Snow Showers"
"1988-01-04 17:00","1988","01","04","17:00","-9.0","","-14.8","","63","","27","","37","","25.0","","99.14","","","","-19","","Mainly Clear"
"1988-01-04 18:00","1988","01","04","18:00","-10.1","","-15.7","","63","","27","","39","","12.9","","99.31","","","","-21","","Mainly Clear"
"1988-01-04 19:00","1988","01","04","19:00","-10.9","","-17.2","","59","","27","","43","","19.3","","99.41","","","","-22","","Mainly Clear"
"1988-01-04 20:00","1988","01","04","20:00","-11.4","","-15.7","","70","","27","","33","","12.9","","99.47","","","","-22","","Mainly Clear"
"1988-01-04 21:00","1988","01","04","21:00","-12.0","","-16.3","","70","","26","","33","","25.0","","99.47","","","","-23","","Clear"
"1988-01-04 22:00","1988","01","04","22:00","-12.5","","-17.0","","69","","26","","37","","25.0","","99.51","","","","-24","","Clear"
"1988-01-04 23:00","1988","01","04","23:00","-12.8","","-17.6","","67","","26","","30","","25.0","","99.57","","","","-23","","Clear"
"1988-01-05 00:00","1988","01","05","00:00","-12.9","","-17.1","","71","","25","","35","","25.0","","99.57","","","","-24","","Mainly Clear"
"1988-01-05 01:00","1988","01","05","01:00","-12.9","","-16.0","","77","","25","","28","","25.0","","99.57","","","","-23","","Mainly Clear"
"1988-01-05 02:00","1988","01","05","02:00","-13.3","","-17.7","","69","","25","","30","","19.3","","99.61","","","","-24","","Mainly Clear"
"1988-01-05 03:00","1988","01","05","03:00","-13.7","","-16.6","","79","","25","","31","","24.1","","99.67","","","","-25","","Mainly Clear"
"1988-01-05 04:00","1988","01","05","04:00","-13.8","","-18.4","","68","","25","","33","","19.3","","99.64","","","","-25","","Mainly Clear"
"1988-01-05 05:00","1988","01","05","05:00","-14.2","","-19.0","","67","","26","","37","","19.3","","99.71","","","","-26","","Mainly Clear"
"1988-01-05 06:00","1988","01","05","06:00","-14.7","","-18.4","","74","","26","","37","","19.3","","99.81","","","","-27","","Mainly Clear"
"1988-01-05 07:00","1988","01","05","07:00","-14.8","","-19.0","","70","","26","","33","","24.1","","99.84","","","","-26","","Mainly Clear"
"1988-01-05 08:00","1988","01","05","08:00","-14.8","","-18.4","","74","","25","","37","","24.1","","99.87","","","","-27","","Mainly Clear"
"1988-01-05 09:00","1988","01","05","09:00","-14.0","","-17.8","","73","","26","","41","","32.2","","99.87","","","","-26","","Mainly Clear"
"1988-01-05 10:00","1988","01","05","10:00","-12.7","","-17.5","","67","","26","","46","","32.2","","99.97","","","","-25","","Mainly Clear"
"1988-01-05 11:00","1988","01","05","11:00","-11.6","","-17.3","","63","","26","","46","","32.2","","100.07","","","","-24","","Mainly Clear"
"1988-01-05 12:00","1988","01","05","12:00","-10.8","","-16.1","","65","","26","","43","","24.1","","100.04","","","","-22","","Mostly Cloudy"
"1988-01-05 13:00","1988","01","05","13:00","-10.5","","-15.9","","64","","27","","44","","24.1","","100.07","","","","-22","","Mostly Cloudy"
"1988-01-05 14:00","1988","01","05","14:00","-10.8","","-15.5","","68","","25","","43","","24.1","","100.07","","","","-22","","Mostly Cloudy"
"1988-01-05 15:00","1988","01","05","15:00","-10.7","","-14.9","","71","","26","","35","","24.1","","100.11","","","","-21","","Mostly Cloudy"
"1988-01-05 16:00","1988","01","05","16:00","-11.6","","-17.3","","63","","26","","35","","24.1","","100.17","","","","-22","","Mainly Clear"
"1988-01-05 17:00","1988","01","05","17:00","-12.2","","-16.3","","72","","26","","33","","24.1","","100.21","","","","-23","","Mainly Clear"
"1988-01-05 18:00","1988","01","05","18:00","-12.5","","-17.0","","69","","26","","37","","25.0","","100.21","","","","-24","","Clear"
"1988-01-05 19:00","1988","01","05","19:00","-12.8","","-17.1","","70","","24","","28","","25.0","","100.27","","","","-23","","Clear"
"1988-01-05 20:00","1988","01","05","20:00","-13.7","","-16.6","","79","","25","","30","","25.0","","100.27","","","","-24","","Clear"
"1988-01-05 21:00","1988","01","05","21:00","-13.6","","-16.6","","78","","24","","31","","25.0","","100.21","","","","-24","","Clear"
"1988-01-05 22:00","1988","01","05","22:00","-13.3","","-17.2","","72","","25","","28","","25.0","","100.21","","","","-24","","Clear"
"1988-01-05 23:00","1988","01","05","23:00","-13.0","","-17.1","","71","","26","","28","","25.0","","100.27","","","","-23","","Clear"
"1988-01-06 00:00","1988","01","06","00:00","-12.8","","-16.5","","74","","26","","28","","25.0","","100.27","","","","-23","","Mainly Clear"
"1988-01-06 01:00","1988","01","06","01:00","-12.3","","-15.9","","74","","26","","26","","19.3","","100.31","","","","-22","","Mostly Cloudy"
"1988-01-06 02:00","1988","01","06","02:00","-12.4","","-15.4","","78","","26","","26","","16.1","","100.31","","","","-22","","Mostly Cloudy"
"1988-01-06 03:00","1988","01","06","03:00","-12.6","","-15.9","","76","","26","","28","","24.1","","100.37","","","","-23","","Mainly Clear"
"1988-01-06 04:00","1988","01","06","04:00","-12.5","","-15.4","","79","","26","","24","","12.9","","100.41","","","","-22","","Snow Showers"
"1988-01-06 05:00","1988","01","06","05:00","-12.9","","-15.0","","84","","26","","24","","6.4","","100.41","","","","-22","","Snow Showers"
"1988-01-06 06:00","1988","01","06","06:00","-12.9","","-15.0","","84","","27","","24","","6.4","","100.44","","","","-22","","Snow Showers"
"1988-01-06 07:00","1988","01","06","07:00","-13.2","","-15.0","","86","","25","","22","","6.4","","100.51","","","","-22","","Snow Showers"
"1988-01-06 08:00","1988","01","06","08:00","-13.4","","-15.6","","83","","25","","19","","24.1","","100.61","","","","-22","","Mainly Clear"
"1988-01-06 09:00","1988","01","06","09:00","-12.2","","-14.3","","85","","26","","13","","24.1","","100.67","","","","-19","","Mostly Cloudy"
"1988-01-06 10:00","1988","01","06","10:00","-11.1","","-14.1","","78","","34","","11","","32.2","","100.71","","","","-17","","Mostly Cloudy"
"1988-01-06 11:00","1988","01","06","11:00","-10.8","","-15.5","","68","","31","","7","","32.2","","100.77","","","","-15","","Mainly Clear"
"1988-01-06 12:00","1988","01","06","12:00","-9.5","","-16.1","","58","","32","","15","","40.2","","100.81","","","","-16","","Mainly Clear"
"1988-01-06 13:00","1988","01","06","13:00","-9.9","","-16.2","","60","","28","","26","","40.2","","100.81","","","","-19","","Mainly Clear"
"1988-01-06 14:00","1988","01","06","14:00","-9.5","","-13.6","","72","","30","","24","","40.2","","100.81","","","","-18","","Clear"
"1988-01-06 15:00","1988","01","06","15:00","-9.9","","-13.3","","76","","28","","22","","40.2","","100.87","","","","-18","","Clear"
"1988-01-06 16:00","1988","01","06","16:00","-10.2","","-16.2","","61","","29","","24","","40.2","","100.94","","","","-19","","Mainly Clear"
"1988-01-06 17:00","1988","01","06","17:00","-11.3","","-15.2","","72","","28","","20","","25.0","","101.01","","","","-20","","Clear"
"1988-01-06 18:00","1988","01","06","18:00","-12.0","","-16.3","","70","","26","","13","","25.0","","101.07","","","","-19","","Clear"
"1988-01-06 19:00","1988","01","06","19:00","-12.5","","-16.4","","73","","26","","15","","25.0","","101.17","","","","-20","","Clear"
"1988-01-06 20:00","1988","01","06","20:00","-12.8","","-17.1","","70","","26","","15","","25.0","","101.21","","","","-20","","Clear"
"1988-01-06 21:00","1988","01","06","21:00","-13.2","","-16.5","","76","","27","","15","","25.0","","101.24","","","","-21","","Clear"
"1988-01-06 22:00","1988","01","06","22:00","-12.8","","-17.1","","70","","26","","15","","25.0","","101.31","","","","-20","","Mostly Cloudy"
"1988-01-06 23:00","1988","01","06","23:00","-12.1","","-15.3","","77","","25","","13","","25.0","","101.34","","","","-19","","Mostly Cloudy"
"1988-01-07 00:00","1988","01","07","00:00","-12.7","","-15.4","","80","","25","","15","","25.0","","101.34","","","","-20","","Mainly Clear"
"1988-01-07 01:00","1988","01","07","01:00","-14.9","","-16.8","","85","","33","","7","","25.0","","101.37","","","","-20","","Mainly Clear"
"1988-01-07 02:00","1988","01","07","02:00","-15.1","","-17.3","","83","","33","","7","","25.0","","101.44","","","","-20","","Clear"
"1988-01-07 03:00","1988","01","07","03:00","-15.1","","-17.3","","83","","36","","7","","24.1","","101.57","","","","-20","","Mainly Clear"
"1988-01-07 04:00","1988","01","07","04:00","-16.5","","-19.0","","81","","34","","7","","24.1","","101.61","","","","-22","","Mainly Clear"
"1988-01-07 05:00","1988","01","07","05:00","-17.7","","-19.5","","86","","36","","6","","24.1","","101.67","","","","-22","","Clear"
"1988-01-07 06:00","1988","01","07","06:00","-17.3","","-19.5","","83","","33","","7","","24.1","","101.67","","","","-23","","Clear"
"1988-01-07 07:00","1988","01","07","07:00","-16.5","","-18.4","","85","","34","","6","","24.1","","101.67","","","","-21","","Mostly Cloudy"
"1988-01-07 08:00","1988","01","07","08:00","-17.2","","-19.0","","86","","30","","4","","24.1","","101.74","","","","-20","","Mostly Cloudy"
"1988-01-07 09:00","1988","01","07","09:00","-14.4","","-17.3","","79","","2","","4","","12.9","","101.71","","","","-17","","Snow Showers"
"1988-01-07 10:00","1988","01","07","10:00","-13.3","","-16.6","","76","","","","0","","11.3","","101.67","","","","","","Snow Showers"
"1988-01-07 11:00","1988","01","07","11:00","-11.8","","-15.3","","75","","","","0","","11.3","","101.71","","","","","","Snow Showers"
"1988-01-07 12:00","1988","01","07","12:00","-9.6","","-13.1","","75","","5","","4","","16.1","","101.57","","","","-12","","Snow Showers"
"1988-01-07 13:00","1988","01","07","13:00","-8.6","","-11.9","","77","","10","","4","","19.3","","101.47","","","","-11","","Snow Showers"
"1988-01-07 14:00","1988","01","07","14:00","-7.3","","-11.8","","70","","17","","4","","19.3","","101.41","","","","-9","","Snow Showers"
"1988-01-07 15:00","1988","01","07","15:00","-7.7","","-11.8","","73","","19","","6","","24.1","","101.37","","","","-11","","Snow Showers"
"1988-01-07 16:00","1988","01","07","16:00","-7.7","","-12.7","","67","","17","","7","","16.1","","101.31","","","","-11","","Snow Showers"
"1988-01-07 17:00","1988","01","07","17:00","-8.2","","-12.5","","71","","14","","7","","24.1","","101.24","","","","-12","","Cloudy"
"1988-01-07 18:00","1988","01","07","18:00","-8.2","","-10.1","","86","","12","","6","","3.2","","101.17","","","","-11","","Snow Showers"
"1988-01-07 19:00","1988","01","07","19:00","-7.6","","-11.8","","72","","12","","15","","24.1","","101.17","","","","-14","","Snow Showers"
"1988-01-07 20:00","1988","01","07","20:00","-7.7","","-12.3","","70","","13","","15","","24.1","","101.11","","","","-14","","Mainly Clear"
"1988-01-07 21:00","1988","01","07","21:00","-8.1","","-12.5","","71","","12","","20","","25.0","","101.01","","","","-15","","Mainly Clear"
"1988-01-07 22:00","1988","01","07","22:00","-8.0","","-13.4","","65","","13","","19","","25.0","","100.91","","","","-15","","Mostly Cloudy"
"1988-01-07 23:00","1988","01","07","23:00","-7.8","","-13.9","","61","","12","","17","","25.0","","100.81","","","","-14","","Mostly Cloudy"
"1988-01-08 00:00","1988","01","08","00:00","-7.7","","-12.7","","67","","12","","19","","25.0","","100.71","","","","-15","","Mostly Cloudy"
"1988-01-08 01:00","1988","01","08","01:00","-7.8","","-14.3","","59","","13","","15","","25.0","","100.61","","","","-14","","Mostly Cloudy"
"1988-01-08 02:00","1988","01","08","02:00","-8.0","","-12.5","","70","","13","","11","","25.0","","100.51","","","","-13","","Mostly Cloudy"
"1988-01-08 03:00","1988","01","08","03:00","-9.0","","-13.8","","68","","14","","4","","25.0","","100.44","","","","-11","","Mainly Clear"
"1988-01-08 04:00","1988","01","08","04:00","-9.1","","-12.9","","74","","11","","4","","25.0","","100.31","","","","-11","","Mainly Clear"
"1988-01-08 05:00","1988","01","08","05:00","-9.2","","-12.5","","77","","","","0","","19.3","","100.27","","","","","","Mostly Cloudy"
"1988-01-08 06:00","1988","01","08","06:00","-12.7","","-14.5","","86","","35","","11","","16.1","","100.24","","","","-19","","Snow Showers"
"1988-01-08 07:00","1988","01","08","07:00","-13.1","","-14.6","","88","","34","","11","","12.9","","100.21","","","","-19","","Snow Showers"
"1988-01-08 08:00","1988","01","08","08:00","-13.3","","-15.6","","83","","33","","7","","9.7","","100.17","","","","-18","","Snow Showers"
"1988-01-08 09:00","1988","01","08","09:00","-12.1","","-13.4","","90","","33","","7","","3.2","","100.17","","","","-16","","Snow Showers"
"1988-01-08 10:00","1988","01","08","10:00","-10.7","","-11.8","","92","","34","","7","","4.0","","100.17","","","","-15","","Snow Showers"
"1988-01-08 11:00","1988","01","08","11:00","-8.8","","-10.5","","87","","33","","4","","16.1","","100.11","","","","-11","","Mainly Clear"
"1988-01-08 12:00","1988","01","08","12:00","-7.1","","-9.3","","84","","","","0","","19.3","","100.04","","","","","","Mostly Cloudy"
"1988-01-08 13:00","1988","01","08","13:00","-5.5","","-11.6","","62","","21","","9","","24.1","","99.91","","","","-10","","Mostly Cloudy"
"1988-01-08 14:00","1988","01","08","14:00","-5.4","","-10.4","","68","","22","","6","","24.1","","99.84","","","","-8","","Mostly Cloudy"
"1988-01-08 15:00","1988","01","08","15:00","-5.1","","-10.5","","66","","20","","11","","24.1","","99.81","","","","-10","","Mostly Cloudy"
"1988-01-08 16:00","1988","01","08","16:00","-5.5","","-12.0","","60","","25","","9","","19.3","","99.81","","","","-10","","Mostly Cloudy"
"1988-01-08 17:00","1988","01","08","17:00","-6.7","","-12.2","","65","","28","","7","","19.3","","99.77","","","","-10","","Mostly Cloudy"
"1988-01-08 18:00","1988","01","08","18:00","-8.0","","-13.4","","65","","27","","7","","16.1","","99.81","","","","-12","","Mainly Clear"
"1988-01-08 19:00","1988","01","08","19:00","-9.2","","-12.5","","77","","27","","7","","19.3","","99.84","","","","-13","","Mainly Clear"
"1988-01-08 20:00","1988","01","08","20:00","-9.4","","-12.7","","77","","26","","4","","19.3","","99.84","","","","-12","","Clear"
"1988-01-08 21:00","1988","01","08","21:00","-9.4","","-12.3","","79","","25","","6","","19.3","","99.81","","","","-13","","Mainly Clear"
"1988-01-08 22:00","1988","01","08","22:00","-10.2","","-11.6","","89","","27","","6","","19.3","","99.81","","","","-14","","Mainly Clear"
"1988-01-08 23:00","1988","01","08","23:00","-10.7","","-13.0","","83","","25","","6","","19.3","","99.81","","","","-14","","Mainly Clear"
"1988-01-09 00:00","1988","01","09","00:00","-11.1","","-13.2","","84","","25","","6","","16.1","","99.81","","","","-15","","Mostly Cloudy"
"1988-01-09 01:00","1988","01","09","01:00","-9.6","","-11.8","","84","","25","","7","","16.1","","99.81","","","","-14","","Mostly Cloudy"
"1988-01-09 02:00","1988","01","09","02:00","-9.2","","-12.1","","79","","24","","9","","16.1","","99.81","","","","-14","","Mostly Cloudy"
"1988-01-09 03:00","1988","01","09","03:00","-9.0","","-12.1","","78","","25","","7","","16.1","","99.81","","","","-13","","Mostly Cloudy"
"1988-01-09 04:00","1988","01","09","04:00","-9.6","","-12.3","","81","","25","","11","","12.9","","99.77","","","","-15","","Mostly Cloudy"
"1988-01-09 05:00","1988","01","09","05:00","-9.9","","-12.4","","82","","24","","15","","12.9","","99.81","","","","-17","","Cloudy"
"1988-01-09 06:00","1988","01","09","06:00","-9.7","","-11.8","","85","","25","","11","","11.3","","99.81","","","","-15","","Snow Showers"
"1988-01-09 07:00","1988","01","09","07:00","-9.2","","-11.7","","82","","24","","11","","12.9","","99.87","","","","-15","","Cloudy"
"1988-01-09 08:00","1988","01","09","08:00","-9.4","","-11.4","","85","","23","","11","","11.3","","99.91","","","","-15","","Mostly Cloudy"
"1988-01-09 09:00","1988","01","09","09:00","-8.5","","-11.1","","81","","23","","19","","16.1","","100.01","","","","-16","","Mainly Clear"
"1988-01-09 10:00","1988","01","09","10:00","-7.0","","-10.4","","77","","25","","20","","16.1","","100.04","","","","-14","","Mainly Clear"
"1988-01-09 11:00","1988","01","09","11:00","-6.4","","-11.7","","66","","25","","26","","32.2","","100.11","","","","-14","","Mainly Clear"
"1988-01-09 12:00","1988","01","09","12:00","-5.3","","-10.8","","65","","26","","30","","32.2","","100.11","","","","-13","","Mainly Clear"
"1988-01-09 13:00","1988","01","09","13:00","-6.0","","-10.6","","70","","27","","28","","40.2","","100.07","","","","-14","","Mainly Clear"
"1988-01-09 14:00","1988","01","09","14:00","-5.8","","-8.8","","79","","27","","26","","40.2","","100.04","","","","-14","","Mainly Clear"
"1988-01-09 15:00","1988","01","09","15:00","-6.5","","-12.6","","62","","27","","28","","40.2","","100.11","","","","-15","","Mostly Cloudy"
"1988-01-09 16:00","1988","01","09","16:00","-7.4","","-11.0","","75","","27","","22","","40.2","","100.17","","","","-15","","Mostly Cloudy"
"1988-01-09 17:00","1988","01","09","17:00","-9.0","","-12.5","","76","","26","","17","","25.0","","100.24","","","","-16","","Mainly Clear"
"1988-01-09 18:00","1988","01","09","18:00","-9.7","","-12.7","","79","","26","","13","","25.0","","100.31","","","","-16","","Clear"
"1988-01-09 19:00","1988","01","09","19:00","-10.0","","-12.4","","83","","26","","19","","25.0","","100.31","","","","-18","","Clear"
"1988-01-09 20:00","1988","01","09","20:00","-10.6","","-13.5","","79","","25","","15","","25.0","","100.37","","","","-17","","Clear"
"1988-01-09 21:00","1988","01","09","21:00","-11.5","","-14.2","","80","","25","","13","","25.0","","100.41","","","","-18","","Clear"
"1988-01-09 22:00","1988","01","09","22:00","-11.7","","-14.7","","78","","27","","9","","25.0","","100.44","","","","-17","","Clear"
"1988-01-09 23:00","1988","01","09","23:00","-11.5","","-14.7","","77","","27","","13","","25.0","","100.47","","","","-18","","Clear"
"1988-01-10 00:00","1988","01","10","00:00","-11.8","","-14.8","","78","","27","","13","","25.0","","100.51","","","","-18","","Clear"
"1988-01-10 01:00","1988","01","10","01:00","-12.2","","-15.3","","78","","27","","11","","25.0","","100.54","","","","-18","","Clear"
"1988-01-10 02:00","1988","01","10","02:00","-12.4","","-15.4","","78","","26","","11","","25.0","","100.57","","","","-18","","Clear"
"1988-01-10 03:00","1988","01","10","03:00","-12.0","","-14.8","","80","","27","","11","","25.0","","100.61","","","","-18","","Clear"
"1988-01-10 04:00","1988","01","10","04:00","-12.5","","-15.4","","79","","26","","7","","25.0","","100.61","","","","-17","","Clear"
"1988-01-10 05:00","1988","01","10","05:00","-13.1","","-16.0","","79","","27","","7","","25.0","","100.61","","","","-18","","Clear"
"1988-01-10 06:00","1988","01","10","06:00","-13.1","","-16.0","","79","","27","","4","","25.0","","100.67","","","","-16","","Clear"
"1988-01-10 07:00","1988","01","10","07:00","-14.0","","-16.2","","83","","25","","7","","25.0","","100.74","","","","-19","","Clear"
"1988-01-10 08:00","1988","01","10","08:00","-13.9","","-15.7","","86","","26","","6","","32.2","","100.81","","","","-18","","Clear"
"1988-01-10 09:00","1988","01","10","09:00","-12.1","","-14.8","","80","","26","","6","","40.2","","100.87","","","","-16","","Clear"
"1988-01-10 10:00","1988","01","10","10:00","-8.9","","-13.4","","70","","25","","11","","40.2","","100.87","","","","-14","","Clear"
"1988-01-10 11:00","1988","01","10","11:00","-7.1","","-14.8","","54","","26","","15","","40.2","","100.94","","","","-13","","Clear"
"1988-01-10 12:00","1988","01","10","12:00","-6.4","","-15.1","","50","","24","","13","","40.2","","100.87","","","","-12","","Clear"
"1988-01-10 13:00","1988","01","10","13:00","-6.1","","-14.2","","52","","24","","17","","40.2","","100.81","","","","-12","","Clear"
"1988-01-10 14:00","1988","01","10","14:00","-5.3","","-14.4","","49","","22","","15","","40.2","","100.77","","","","-11","","Clear"
"1988-01-10 15:00","1988","01","10","15:00","-5.9","","-15.3","","47","","25","","19","","40.2","","100.77","","","","-13","","Clear"
"1988-01-10 16:00","1988","01","10","16:00","-6.8","","-14.3","","55","","24","","15","","40.2","","100.74","","","","-13","","Clear"
"1988-01-10 17:00","1988","01","10","17:00","-8.4","","-14.1","","63","","25","","11","","40.2","","100.74","","","","-14","","Clear"
"1988-01-10 18:00","1988","01","10","18:00","-10.2","","-14.2","","72","","24","","7","","25.0","","100.74","","","","-14","","Clear"
"1988-01-10 19:00","1988","01","10","19:00","-9.8","","-15.7","","62","","21","","11","","25.0","","100.77","","","","-15","","Clear"
"1988-01-10 20:00","1988","01","10","20:00","-10.3","","-13.9","","75","","20","","15","","25.0","","100.77","","","","-17","","Clear"
"1988-01-10 21:00","1988","01","10","21:00","-11.1","","-14.1","","78","","20","","11","","25.0","","100.71","","","","-17","","Clear"
"1988-01-10 22:00","1988","01","10","22:00","-11.2","","-13.6","","82","","22","","13","","25.0","","100.67","","","","-18","","Clear"
"1988-01-10 23:00","1988","01","10","23:00","-11.2","","-13.2","","85","","23","","11","","25.0","","100.61","","","","-17","","Clear"
"1988-01-11 00:00","1988","01","11","00:00","-11.9","","-14.3","","82","","22","","11","","25.0","","100.57","","","","-18","","Clear"
"1988-01-11 01:00","1988","01","11","01:00","-11.0","","-12.8","","87","","22","","15","","25.0","","100.51","","","","-18","","Clear"
"1988-01-11 02:00","1988","01","11","02:00","-12.3","","-14.5","","83","","18","","9","","25.0","","100.51","","","","-18","","Clear"
"1988-01-11 03:00","1988","01","11","03:00","-11.5","","-14.2","","80","","22","","15","","25.0","","100.41","","","","-19","","Mostly Cloudy"
"1988-01-11 04:00","1988","01","11","04:00","-11.3","","-14.7","","76","","19","","11","","25.0","","100.37","","","","-17","","Mainly Clear"
"1988-01-11 05:00","1988","01","11","05:00","-11.1","","-14.5","","76","","17","","11","","24.1","","100.37","","","","-17","","Mostly Cloudy"
"1988-01-11 06:00","1988","01","11","06:00","-9.8","","-13.8","","72","","21","","15","","19.3","","100.31","","","","-16","","Mostly Cloudy"
"1988-01-11 07:00","1988","01","11","07:00","-8.3","","-13.6","","65","","21","","19","","19.3","","100.24","","","","-16","","Mostly Cloudy"
"1988-01-11 08:00","1988","01","11","08:00","-8.4","","-11.9","","76","","20","","13","","16.1","","100.21","","","","-14","","Cloudy"
"1988-01-11 09:00","1988","01","11","09:00","-7.7","","-10.6","","80","","20","","7","","16.1","","100.21","","","","-11","","Cloudy"
"1988-01-11 10:00","1988","01","11","10:00","-6.4","","-9.0","","82","","20","","19","","16.1","","100.17","","","","-13","","Mostly Cloudy"
"1988-01-11 11:00","1988","01","11","11:00","-4.5","","-8.7","","72","","21","","30","","16.1","","100.01","","","","-12","","Cloudy"
"1988-01-11 12:00","1988","01","11","12:00","-3.0","","-7.4","","72","","20","","37","","16.1","","99.91","","","","-11","","Cloudy"
"1988-01-11 13:00","1988","01","11","13:00","-2.4","","-7.7","","67","","22","","33","","12.9","","99.87","","","","-10","","Snow Pellets"
"1988-01-11 14:00","1988","01","11","14:00","-1.5","","-7.0","","66","","22","","24","","16.1","","99.81","","","","-8","","Mostly Cloudy"
"1988-01-11 15:00","1988","01","11","15:00","-1.5","","-6.4","","69","","24","","28","","16.1","","99.87","","","","-8","","Cloudy"
"1988-01-11 16:00","1988","01","11","16:00","-1.5","","-4.2","","82","","23","","20","","12.9","","99.87","","","","-7","","Cloudy"
"1988-01-11 17:00","1988","01","11","17:00","-2.2","","-5.1","","80","","23","","17","","12.9","","99.91","","","","-8","","Mostly Cloudy"
"1988-01-11 18:00","1988","01","11","18:00","-2.3","","-7.4","","68","","24","","13","","12.9","","100.01","","","","-7","","Cloudy"
"1988-01-11 19:00","1988","01","11","19:00","-2.5","","-7.4","","69","","25","","7","","12.9","","100.07","","","","-5","","Mostly Cloudy"
"1988-01-11 20:00","1988","01","11","20:00","-4.2","","-8.3","","73","","24","","4","","16.1","","100.04","","","","-6","","Clear"
"1988-01-11 21:00","1988","01","11","21:00","-4.8","","-7.9","","79","","16","","4","","12.9","","100.01","","","","-7","","Clear"
"1988-01-11 22:00","1988","01","11","22:00","-3.6","","-7.3","","76","","19","","4","","16.1","","99.97","","","","-5","","Clear"
"1988-01-11 23:00","1988","01","11","23:00","-4.6","","-7.6","","79","","","","0","","16.1","","100.01","","","","","","Mostly Cloudy"
"1988-01-12 00:00","1988","01","12","00:00","-4.1","","-6.6","","83","","12","","6","","16.1","","99.97","","","","-7","","Mostly Cloudy"
"1988-01-12 01:00","1988","01","12","01:00","-3.6","","-6.0","","83","","15","","9","","11.3","","99.94","","","","-7","","Mostly Cloudy"
"1988-01-12 02:00","1988","01","12","02:00","-2.1","","-5.7","","76","","17","","11","","11.3","","99.91","","","","-6","","Cloudy"
"1988-01-12 03:00","1988","01","12","03:00","-1.4","","-5.7","","72","","17","","17","","11.3","","99.87","","","","-7","","Cloudy"
"1988-01-12 04:00","1988","01","12","04:00","-0.8","","-5.7","","69","","17","","17","","16.1","","99.77","","","","-6","","Cloudy"
"1988-01-12 05:00","1988","01","12","05:00","-0.6","","-5.3","","71","","17","","11","","16.1","","99.74","","","","-4","","Mostly Cloudy"
"1988-01-12 06:00","1988","01","12","06:00","-0.7","","-3.5","","81","","18","","15","","16.1","","99.71","","","","-5","","Cloudy"
"1988-01-12 07:00","1988","01","12","07:00","-0.2","","-5.6","","67","","18","","20","","16.1","","99.64","","","","-5","","Cloudy"
"1988-01-12 08:00","1988","01","12","08:00","0.0","","-6.3","","63","","18","","19","","16.1","","99.57","","","","-5","","Mostly Cloudy"
"1988-01-12 09:00","1988","01","12","09:00","0.6","","-5.5","","63","","18","","17","","16.1","","99.51","","","","","","Cloudy"
"1988-01-12 10:00","1988","01","12","10:00","1.3","","-5.4","","61","","17","","20","","19.3","","99.44","","","","","","Mostly Cloudy"
"1988-01-12 11:00","1988","01","12","11:00","3.3","","-5.7","","52","","19","","24","","19.3","","99.34","","","","","","Cloudy"
"1988-01-12 12:00","1988","01","12","12:00","5.3","","-6.5","","42","","19","","33","","19.3","","99.17","","","","","","Mostly Cloudy"
"1988-01-12 13:00","1988","01","12","13:00","5.8","","-7.3","","38","","19","","33","","19.3","","99.01","","","","","","Mostly Cloudy"
"1988-01-12 14:00","1988","01","12","14:00","5.9","","-6.5","","40","","18","","31","","24.1","","98.81","","","","","","Mostly Cloudy"
"1988-01-12 15:00","1988","01","12","15:00","6.2","","-7.3","","37","","19","","24","","24.1","","98.67","","","","","","Cloudy"
"1988-01-12 16:00","1988","01","12","16:00","6.6","","-8.1","","34","","20","","33","","24.1","","98.64","","","","","","Mostly Cloudy"
"1988-01-12 17:00","1988","01","12","17:00","6.2","","-8.1","","35","","21","","33","","24.1","","98.64","","","","","","Cloudy"
"1988-01-12 18:00","1988","01","12","18:00","6.1","","-5.7","","42","","22","","48","","24.1","","98.61","","","","","","Cloudy"
"1988-01-12 19:00","1988","01","12","19:00","6.5","","-2.9","","51","","23","","46","","24.1","","98.61","","","","","","Cloudy"
"1988-01-12 20:00","1988","01","12","20:00","5.9","","-1.1","","61","","23","","57","","16.1","","98.61","","","","","","Cloudy"
"1988-01-12 21:00","1988","01","12","21:00","4.9","","0.4","","73","","22","","30","","24.1","","98.57","","","","","","Cloudy"
"1988-01-12 22:00","1988","01","12","22:00","4.0","","1.7","","85","","22","","33","","19.3","","98.54","","","","","","Drizzle"
"1988-01-12 23:00","1988","01","12","23:00","3.8","","2.2","","90","","22","","28","","12.9","","98.51","","","","","","Drizzle"
"1988-01-13 00:00","1988","01","13","00:00","3.5","","2.2","","91","","22","","24","","11.3","","98.44","","","","","","Drizzle"
"1988-01-13 01:00","1988","01","13","01:00","3.8","","1.7","","86","","22","","22","","11.3","","98.41","","","","","","Cloudy"
"1988-01-13 02:00","1988","01","13","02:00","3.0","","0.7","","85","","22","","24","","12.9","","98.37","","","","","","Mostly Cloudy"
"1988-01-13 03:00","1988","01","13","03:00","4.0","","1.3","","82","","22","","31","","11.3","","98.31","","","","","","Rain Showers"
"1988-01-13 04:00","1988","01","13","04:00","0.6","","0.5","","99","","27","","26","","6.4","","98.27","","","","","","Thunderstorms,Snow Showers"
"1988-01-13 05:00","1988","01","13","05:00","-0.9","","-4.4","","77","","26","","35","","19.3","","98.41","","","","-8","","Mainly Clear"
"1988-01-13 06:00","1988","01","13","06:00","-2.8","","-6.0","","78","","26","","43","","19.3","","98.54","","","","-11","","Mainly Clear"
"1988-01-13 07:00","1988","01","13","07:00","-3.0","","-5.7","","81","","29","","50","","11.3","","98.81","","","","-12","","Mainly Clear"
"1988-01-13 08:00","1988","01","13","08:00","-6.8","","-10.4","","75","","30","","54","","24.1","","99.07","","","","-18","","Snow Showers"
"1988-01-13 09:00","1988","01","13","09:00","-9.0","","-13.8","","68","","31","","39","","24.1","","99.34","","","","-19","","Mainly Clear"
"1988-01-13 10:00","1988","01","13","10:00","-9.3","","-14.0","","68","","31","","39","","32.2","","99.57","","","","-20","","Mainly Clear"
"1988-01-13 11:00","1988","01","13","11:00","-9.4","","-14.0","","69","","30","","33","","32.2","","99.77","","","","-19","","Mainly Clear"
"1988-01-13 12:00","1988","01","13","12:00","-10.0","","-14.7","","68","","31","","43","","32.2","","99.87","","","","-21","","Mainly Clear"
"1988-01-13 13:00","1988","01","13","13:00","-9.6","","-15.0","","65","","30","","39","","40.2","","99.94","","","","-20","","Mainly Clear"
"1988-01-13 14:00","1988","01","13","14:00","-10.2","","-16.8","","58","","30","","41","","40.2","","100.07","","","","-21","","Mainly Clear"
"1988-01-13 15:00","1988","01","13","15:00","-11.0","","-18.3","","55","","30","","39","","40.2","","100.21","","","","-22","","Mainly Clear"
"1988-01-13 16:00","1988","01","13","16:00","-12.5","","-17.5","","66","","31","","46","","40.2","","100.37","","","","-25","","Mainly Clear"
"1988-01-13 17:00","1988","01","13","17:00","-13.7","","-18.9","","65","","32","","30","","40.2","","100.51","","","","-24","","Clear"
"1988-01-13 18:00","1988","01","13","18:00","-14.5","","-21.8","","54","","31","","31","","25.0","","100.61","","","","-26","","Clear"
"1988-01-13 19:00","1988","01","13","19:00","-14.8","","-22.6","","51","","31","","28","","25.0","","100.71","","","","-25","","Clear"
"1988-01-13 20:00","1988","01","13","20:00","-15.3","","-19.0","","73","","36","","19","","25.0","","100.84","","","","-24","","Clear"
"1988-01-13 21:00","1988","01","13","21:00","-17.3","","-20.1","","79","","36","","20","","25.0","","100.91","","","","-27","","Clear"
"1988-01-13 22:00","1988","01","13","22:00","-18.5","","-20.6","","83","","1","","19","","24.1","","101.01","","","","-28","","Clear"
"1988-01-13 23:00","1988","01","13","23:00","-19.6","","-22.4","","79","","34","","22","","24.1","","101.07","","","","-30","","Clear"
"1988-01-14 00:00","1988","01","14","00:00","-20.5","","-27.4","","54","","35","","22","","25.0","","101.17","","","","-32","","Clear"
"1988-01-14 01:00","1988","01","14","01:00","-21.5","","-26.6","","64","","36","","17","","25.0","","101.27","","","","-32","","Clear"
"1988-01-14 02:00","1988","01","14","02:00","-22.2","","-26.3","","70","","33","","15","","25.0","","101.37","","","","-32","","Clear"
"1988-01-14 03:00","1988","01","14","03:00","-22.5","","-28.0","","61","","35","","15","","25.0","","101.41","","","","-32","","Clear"
"1988-01-14 04:00","1988","01","14","04:00","-22.9","","-26.5","","73","","34","","13","","25.0","","101.47","","","","-32","","Clear"
"1988-01-14 05:00","1988","01","14","05:00","-23.1","","-25.5","","81","","33","","7","","25.0","","101.54","","","","-29","","Clear"
"1988-01-14 06:00","1988","01","14","06:00","-23.3","","-27.1","","71","","35","","7","","25.0","","101.57","","","","-29","","Clear"
"1988-01-14 07:00","1988","01","14","07:00","-23.3","","-28.2","","64","","36","","7","","25.0","","101.61","","","","-29","","Clear"
"1988-01-14 08:00","1988","01","14","08:00","-23.2","","-26.5","","75","","32","","7","","24.1","","101.64","","","","-29","","Clear"
"1988-01-14 09:00","1988","01","14","09:00","-22.4","","-26.9","","67","","31","","6","","40.2","","101.71","","","","-28","","Clear"
"1988-01-14 10:00","1988","01","14","10:00","-20.6","","-24.4","","72","","27","","6","","32.2","","101.71","","","","-26","","Clear"
"1988-01-14 11:00","1988","01","14","11:00","-18.3","","-24.4","","59","","24","","6","","32.2","","101.71","","","","-23","","Mainly Clear"
"1988-01-14 12:00","1988","01","14","12:00","-15.7","","-23.4","","52","","20","","7","","32.2","","101.67","","","","-21","","Mostly Cloudy"
"1988-01-14 13:00","1988","01","14","13:00","-14.3","","-21.8","","53","","22","","7","","32.2","","101.57","","","","-19","","Cloudy"
"1988-01-14 14:00","1988","01","14","14:00","-12.8","","-21.6","","48","","19","","9","","32.2","","101.54","","","","-18","","Cloudy"
"1988-01-14 15:00","1988","01","14","15:00","-11.9","","-20.7","","48","","16","","6","","32.2","","101.47","","","","-16","","Cloudy"
"1988-01-14 16:00","1988","01","14","16:00","-11.9","","-18.6","","57","","15","","13","","32.2","","101.44","","","","-19","","Cloudy"
"1988-01-14 17:00","1988","01","14","17:00","-12.0","","-18.6","","58","","18","","15","","16.1","","101.37","","","","-19","","Mostly Cloudy"
"1988-01-14 18:00","1988","01","14","18:00","-12.6","","-18.1","","63","","19","","13","","16.1","","101.37","","","","-19","","Clear"
"1988-01-14 19:00","1988","01","14","19:00","-12.8","","-17.6","","67","","19","","9","","16.1","","101.31","","","","-18","","Clear"
"1988-01-14 20:00","1988","01","14","20:00","-13.4","","-17.7","","70","","19","","15","","16.1","","101.27","","","","-21","","Clear"
"1988-01-14 21:00","1988","01","14","21:00","-13.9","","-17.2","","76","","18","","11","","24.1","","101.21","","","","-20","","Clear"
"1988-01-14 22:00","1988","01","14","22:00","-14.7","","-17.3","","81","","22","","9","","19.3","","101.14","","","","-20","","Clear"
"1988-01-14 23:00","1988","01","14","23:00","-14.0","","-16.7","","80","","21","","7","","19.3","","101.04","","","","-19","","Mainly Clear"
"1988-01-15 00:00","1988","01","15","00:00","-13.2","","-16.0","","80","","19","","7","","19.3","","100.94","","","","-18","","Mostly Cloudy"
"1988-01-15 01:00","1988","01","15","01:00","-12.3","","-15.4","","77","","20","","9","","19.3","","100.84","","","","-18","","Cloudy"
"1988-01-15 02:00","1988","01","15","02:00","-11.1","","-13.6","","82","","19","","13","","19.3","","100.81","","","","-18","","Cloudy"
"1988-01-15 03:00","1988","01","15","03:00","-10.3","","-13.9","","75","","20","","11","","24.1","","100.71","","","","-16","","Cloudy"
"1988-01-15 04:00","1988","01","15","04:00","-10.1","","-13.3","","77","","18","","13","","16.1","","100.61","","","","-16","","Cloudy"
"1988-01-15 05:00","1988","01","15","05:00","-9.6","","-12.3","","81","","17","","17","","16.1","","100.54","","","","-17","","Cloudy"
"1988-01-15 06:00","1988","01","15","06:00","-8.7","","-12.3","","75","","17","","20","","12.9","","100.47","","","","-16","","Snow"
"1988-01-15 07:00","1988","01","15","07:00","-8.5","","-10.7","","84","","18","","17","","12.9","","100.37","","","","-15","","Snow"
"1988-01-15 08:00","1988","01","15","08:00","-8.3","","-11.1","","80","","20","","24","","8.0","","100.31","","","","-16","","Snow"
"1988-01-15 09:00","1988","01","15","09:00","-7.9","","-10.1","","84","","19","","22","","12.9","","100.31","","","","-16","","Snow"
"1988-01-15 10:00","1988","01","15","10:00","-7.2","","-10.0","","80","","20","","22","","19.3","","100.21","","","","-15","","Snow"
"1988-01-15 11:00","1988","01","15","11:00","-6.7","","-9.4","","81","","21","","30","","19.3","","100.21","","","","-15","","Mostly Cloudy"
"1988-01-15 12:00","1988","01","15","12:00","-5.7","","-8.9","","78","","21","","28","","19.3","","100.11","","","","-14","","Cloudy"
"1988-01-15 13:00","1988","01","15","13:00","-3.8","","-8.3","","71","","20","","31","","19.3","","99.97","","","","-12","","Mostly Cloudy"
"1988-01-15 14:00","1988","01","15","14:00","-3.2","","-5.4","","85","","22","","31","","24.1","","99.87","","","","-11","","Mostly Cloudy"
"1988-01-15 15:00","1988","01","15","15:00","-2.7","","-6.0","","78","","22","","28","","24.1","","99.87","","","","-10","","Mainly Clear"
"1988-01-15 16:00","1988","01","15","16:00","-3.1","","-7.0","","74","","22","","28","","24.1","","99.91","","","","-10","","Mainly Clear"
"1988-01-15 17:00","1988","01","15","17:00","-3.7","","-7.3","","76","","20","","26","","24.1","","99.91","","","","-11","","Mainly Clear"
"1988-01-15 18:00","1988","01","15","18:00","-4.3","","-7.9","","76","","20","","20","","19.3","","99.87","","","","-11","","Mainly Clear"
"1988-01-15 19:00","1988","01","15","19:00","-4.4","","-6.6","","84","","22","","24","","24.1","","99.87","","","","-11","","Clear"
"1988-01-15 20:00","1988","01","15","20:00","-4.3","","-7.9","","76","","21","","20","","19.3","","99.91","","","","-11","","Clear"
"1988-01-15 21:00","1988","01","15","21:00","-4.3","","-7.3","","79","","21","","19","","24.1","","99.91","","","","-10","","Clear"
"1988-01-15 22:00","1988","01","15","22:00","-4.8","","-8.2","","77","","22","","17","","24.1","","99.87","","","","-11","","Clear"
"1988-01-15 23:00","1988","01","15","23:00","-5.3","","-7.1","","87","","22","","19","","24.1","","99.91","","","","-12","","Mainly Clear"
"1988-01-16 00:00","1988","01","16","00:00","-3.8","","-6.6","","81","","19","","17","","25.0","","99.94","","","","-10","","Mostly Cloudy"
"1988-01-16 01:00","1988","01","16","01:00","-2.7","","-6.7","","74","","20","","15","","25.0","","99.87","","","","-8","","Cloudy"
"1988-01-16 02:00","1988","01","16","02:00","-2.3","","-5.4","","79","","20","","13","","19.3","","99.87","","","","-7","","Cloudy"
"1988-01-16 03:00","1988","01","16","03:00","-2.1","","-4.2","","85","","21","","17","","24.1","","99.87","","","","-7","","Mostly Cloudy"
"1988-01-16 04:00","1988","01","16","04:00","-2.7","","-5.7","","80","","22","","24","","19.3","","99.81","","","","-9","","Mostly Cloudy"
"1988-01-16 05:00","1988","01","16","05:00","-2.0","","-4.8","","81","","20","","13","","24.1","","99.81","","","","-6","","Cloudy"
"1988-01-16 06:00","1988","01","16","06:00","-1.2","","-4.4","","79","","22","","22","","19.3","","99.81","","","","-7","","Cloudy"
"1988-01-16 07:00","1988","01","16","07:00","-0.1","","-6.4","","62","","21","","22","","19.3","","99.81","","","","-6","","Mostly Cloudy"
"1988-01-16 08:00","1988","01","16","08:00","0.2","","-3.5","","76","","20","","17","","32.2","","99.87","","","","","","Mostly Cloudy"
"1988-01-16 09:00","1988","01","16","09:00","0.5","","-6.2","","61","","19","","22","","32.2","","99.84","","","","","","Mostly Cloudy"
"1988-01-16 10:00","1988","01","16","10:00","1.4","","-2.9","","73","","20","","31","","32.2","","99.81","","","","","","Mostly Cloudy"
"1988-01-16 11:00","1988","01","16","11:00","2.7","","-5.9","","53","","20","","31","","32.2","","99.81","","","","","","Mostly Cloudy"
"1988-01-16 12:00","1988","01","16","12:00","3.6","","-5.7","","50","","19","","26","","24.1","","99.67","","","","","","Mostly Cloudy"
"1988-01-16 13:00","1988","01","16","13:00","4.7","","-5.8","","46","","19","","24","","24.1","","99.57","","","","","","Mostly Cloudy"
"1988-01-16 14:00","1988","01","16","14:00","6.2","","-7.3","","37","","21","","31","","24.1","","99.51","","","","","","Cloudy"
"1988-01-16 15:00","1988","01","16","15:00","6.6","","-6.4","","39","","19","","26","","24.1","","99.44","","","","","","Cloudy"
"1988-01-16 16:00","1988","01","16","16:00","5.7","","-5.8","","43","","19","","33","","24.1","","99.34","","","","","","Mostly Cloudy"
"1988-01-16 17:00","1988","01","16","17:00","5.3","","-5.0","","47","","19","","33","","24.1","","99.34","","","","","","Mostly Cloudy"
"1988-01-16 18:00","1988","01","16","18:00","4.7","","-5.8","","46","","19","","26","","24.1","","99.31","","","","","","Mainly Clear"
"1988-01-16 19:00","1988","01","16","19:00","4.6","","-5.1","","49","","19","","26","","24.1","","99.34","","","","","","Clear"
"1988-01-16 20:00","1988","01","16","20:00","4.8","","-3.7","","54","","20","","26","","25.0","","99.34","","","","","","Clear"
"1988-01-16 21:00","1988","01","16","21:00","4.7","","-4.4","","52","","20","","24","","25.0","","99.34","","","","","","Clear"
"1988-01-16 22:00","1988","01","16","22:00","4.8","","-3.7","","54","","20","","30","","25.0","","99.31","","","","","","Clear"
"1988-01-16 23:00","1988","01","16","23:00","4.3","","-4.4","","53","","20","","20","","25.0","","99.34","","","","","","Clear"
"1988-01-17 00:00","1988","01","17","00:00","4.9","","-4.4","","51","","20","","24","","25.0","","99.34","","","","","","Mostly Cloudy"
"1988-01-17 01:00","1988","01","17","01:00","6.1","","-5.0","","45","","21","","24","","25.0","","99.31","","","","","","Cloudy"
"1988-01-17 02:00","1988","01","17","02:00","6.2","","-5.0","","44","","22","","19","","24.1","","99.34","","","","","","Cloudy"
"1988-01-17 03:00","1988","01","17","03:00","6.9","","-4.1","","45","","22","","24","","24.1","","99.41","","","","","","Cloudy"
"1988-01-17 04:00","1988","01","17","04:00","7.2","","-4.8","","42","","22","","24","","24.1","","99.47","","","","","","Cloudy"
"1988-01-17 05:00","1988","01","17","05:00","6.7","","-2.9","","50","","23","","20","","25.0","","99.47","","","","","","Cloudy"
"1988-01-17 06:00","1988","01","17","06:00","6.3","","-1.0","","60","","23","","17","","16.1","","99.51","","","","","","Cloudy"
"1988-01-17 07:00","1988","01","17","07:00","5.8","","-1.1","","61","","22","","20","","16.1","","99.61","","","","","","Rain"
"1988-01-17 08:00","1988","01","17","08:00","4.5","","0.8","","77","","22","","22","","12.9","","99.71","","","","","","Rain"
"1988-01-17 09:00","1988","01","17","09:00","4.1","","2.2","","87","","22","","19","","12.9","","99.74","","","","","","Rain"
"1988-01-17 10:00","1988","01","17","10:00","4.0","","1.7","","85","","21","","17","","12.9","","99.77","","","","","","Rain"
"1988-01-17 11:00","1988","01","17","11:00","3.8","","2.7","","93","","22","","15","","9.7","","99.77","","","","","","Rain,Fog"
"1988-01-17 12:00","1988","01","17","12:00","4.2","","2.7","","90","","20","","15","","12.9","","99.71","","","","","","Rain"
"1988-01-17 13:00","1988","01","17","13:00","4.6","","3.2","","91","","20","","11","","9.7","","99.61","","","","","","Fog"
"1988-01-17 14:00","1988","01","17","14:00","4.6","","3.2","","91","","20","","13","","9.7","","99.57","","","","","","Rain,Fog"
"1988-01-17 15:00","1988","01","17","15:00","4.7","","3.2","","90","","19","","9","","6.4","","99.51","","","","","","Rain,Fog"
"1988-01-17 16:00","1988","01","17","16:00","4.3","","2.7","","90","","20","","11","","9.7","","99.51","","","","","","Rain,Fog"
"1988-01-17 17:00","1988","01","17","17:00","3.7","","2.6","","92","","15","","7","","8.0","","99.47","","","","","","Rain,Fog"
"1988-01-17 18:00","1988","01","17","18:00","3.4","","3.1","","98","","12","","7","","6.4","","99.47","","","","","","Rain,Fog"
"1988-01-17 19:00","1988","01","17","19:00","3.3","","3.1","","99","","11","","7","","8.0","","99.41","","","","","","Rain,Fog"
"1988-01-17 20:00","1988","01","17","20:00","3.3","","3.1","","99","","9","","11","","6.4","","99.34","","","","","","Rain,Fog"
"1988-01-17 21:00","1988","01","17","21:00","2.7","","2.5","","98","","13","","13","","6.4","","99.31","","","","","","Rain,Fog"
"1988-01-17 22:00","1988","01","17","22:00","2.9","","2.6","","98","","10","","17","","6.4","","99.11","","","","","","Rain,Fog"
"1988-01-17 23:00","1988","01","17","23:00","3.2","","2.6","","96","","9","","17","","6.4","","98.97","","","","","","Rain,Fog"
"1988-01-18 00:00","1988","01","18","00:00","3.0","","3.0","","100","","13","","9","","6.4","","98.91","","","","","","Rain,Drizzle,Fog"
"1988-01-18 01:00","1988","01","18","01:00","3.3","","2.6","","95","","11","","19","","6.4","","98.84","","","","","","Rain,Fog"
"1988-01-18 02:00","1988","01","18","02:00","2.7","","2.7","","100","","10","","17","","3.2","","98.74","","","","","","Rain,Drizzle,Fog"
"1988-01-18 03:00","1988","01","18","03:00","2.9","","2.9","","100","","14","","13","","0.4","","98.74","","","","","","Fog"
"1988-01-18 04:00","1988","01","18","04:00","2.9","","2.9","","100","","15","","9","","0.0","","98.74","","","","","","Drizzle,Fog"
"1988-01-18 05:00","1988","01","18","05:00","2.9","","2.9","","100","","13","","9","","0.0","","98.71","","","","","","Drizzle,Fog"
"1988-01-18 06:00","1988","01","18","06:00","3.7","","3.7","","100","","16","","9","","2.8","","98.74","","","","","","Drizzle,Fog"
"1988-01-18 07:00","1988","01","18","07:00","4.1","","4.1","","100","","17","","9","","2.8","","98.74","","","","","","Drizzle,Fog"
"1988-01-18 08:00","1988","01","18","08:00","4.0","","4.0","","100","","20","","7","","2.8","","98.77","","","","","","Fog"
"1988-01-18 09:00","1988","01","18","09:00","4.4","","4.1","","98","","20","","9","","2.4","","98.74","","","","","","Drizzle,Fog"
"1988-01-18 10:00","1988","01","18","10:00","4.0","","4.0","","100","","22","","7","","2.0","","98.77","","","","","","Rain,Drizzle,Fog"
"1988-01-18 11:00","1988","01","18","11:00","4.5","","4.1","","97","","23","","9","","2.4","","98.81","","","","","","Fog"
"1988-01-18 12:00","1988","01","18","12:00","4.7","","4.1","","96","","26","","11","","16.1","","98.77","","","","","","Rain Showers"
"1988-01-18 13:00","1988","01","18","13:00","4.0","","2.2","","88","","26","","17","","32.2","","98.84","","","","","","Rain Showers"
"1988-01-18 14:00","1988","01","18","14:00","3.7","","1.7","","87","","27","","22","","32.2","","98.91","","","","","","Cloudy"
"1988-01-18 15:00","1988","01","18","15:00","3.3","","1.7","","90","","29","","24","","32.2","","99.07","","","","","","Cloudy"
"1988-01-18 16:00","1988","01","18","16:00","3.2","","0.7","","84","","32","","24","","32.2","","99.24","","","","","","Mostly Cloudy"
"1988-01-18 17:00","1988","01","18","17:00","2.3","","0.1","","86","","32","","26","","19.3","","99.41","","","","","","Cloudy"
"1988-01-18 18:00","1988","01","18","18:00","1.9","","0.1","","88","","31","","22","","19.3","","99.57","","","","","","Mostly Cloudy"
"1988-01-18 19:00","1988","01","18","19:00","1.7","","-1.0","","82","","31","","31","","19.3","","99.71","","","","","","Mostly Cloudy"
"1988-01-18 20:00","1988","01","18","20:00","1.7","","-1.0","","82","","31","","19","","19.3","","99.81","","","","","","Mostly Cloudy"
"1988-01-18 21:00","1988","01","18","21:00","1.3","","-0.5","","88","","31","","15","","19.3","","99.94","","","","","","Mostly Cloudy"
"1988-01-18 22:00","1988","01","18","22:00","1.4","","-0.5","","87","","30","","15","","19.3","","100.07","","","","","","Mostly Cloudy"
"1988-01-18 23:00","1988","01","18","23:00","1.5","","-1.0","","83","","31","","15","","19.3","","100.14","","","","","","Mostly Cloudy"
"1988-01-19 00:00","1988","01","19","00:00","1.0","","-1.0","","86","","31","","17","","25.0","","100.17","","","","","","Mostly Cloudy"
"1988-01-19 01:00","1988","01","19","01:00","1.1","","-1.0","","86","","31","","17","","25.0","","100.21","","","","","","Mostly Cloudy"
"1988-01-19 02:00","1988","01","19","02:00","0.8","","-1.0","","88","","31","","15","","19.3","","100.27","","","","","","Mostly Cloudy"
"1988-01-19 03:00","1988","01","19","03:00","0.7","","-2.0","","82","","29","","13","","16.1","","100.37","","","","","","Cloudy"
"1988-01-19 04:00","1988","01","19","04:00","0.4","","-1.6","","86","","32","","17","","12.9","","100.37","","","","","","Mostly Cloudy"
"1988-01-19 05:00","1988","01","19","05:00","0.2","","-2.1","","84","","33","","15","","12.9","","100.41","","","","","","Mostly Cloudy"
"1988-01-19 06:00","1988","01","19","06:00","-0.1","","-2.2","","86","","36","","15","","16.1","","100.41","","","","-5","","Cloudy"
"1988-01-19 07:00","1988","01","19","07:00","-0.2","","-2.3","","86","","2","","15","","12.9","","100.41","","","","-5","","Cloudy"
"1988-01-19 08:00","1988","01","19","08:00","-0.7","","-2.7","","86","","2","","15","","19.3","","100.37","","","","-5","","Cloudy"
"1988-01-19 09:00","1988","01","19","09:00","-0.6","","-3.5","","81","","11","","4","","32.2","","100.57","","","","-2","","Cloudy"
"1988-01-19 10:00","1988","01","19","10:00","-0.5","","-3.5","","80","","33","","4","","32.2","","100.61","","","","-2","","Cloudy"
"1988-01-19 11:00","1988","01","19","11:00","0.5","","-3.7","","73","","12","","4","","24.1","","100.54","","","","","","Cloudy"
"1988-01-19 12:00","1988","01","19","12:00","0.6","","-3.1","","76","","18","","13","","24.1","","100.51","","","","","","Cloudy"
"1988-01-19 13:00","1988","01","19","13:00","0.5","","-2.5","","80","","12","","6","","24.1","","100.41","","","","","","Cloudy"
"1988-01-19 14:00","1988","01","19","14:00","0.7","","-2.5","","79","","11","","7","","24.1","","100.31","","","","","","Cloudy"
"1988-01-19 15:00","1988","01","19","15:00","0.5","","-2.0","","83","","11","","13","","24.1","","100.21","","","","","","Cloudy"
"1988-01-19 16:00","1988","01","19","16:00","0.2","","-2.3","","83","","9","","19","","19.3","","100.21","","","","","","Cloudy"
"1988-01-19 17:00","1988","01","19","17:00","0.0","","-2.0","","86","","9","","17","","19.3","","100.07","","","","-5","","Cloudy"
"1988-01-19 18:00","1988","01","19","18:00","0.2","","-1.8","","86","","9","","20","","16.1","","100.07","","","","","","Cloudy"
"1988-01-19 19:00","1988","01","19","19:00","0.2","","-1.8","","86","","8","","26","","19.3","","99.94","","","","","","Cloudy"
"1988-01-19 20:00","1988","01","19","20:00","0.2","","-1.0","","91","","9","","26","","19.3","","99.84","","","","","","Cloudy"
"1988-01-19 21:00","1988","01","19","21:00","0.5","","-1.4","","87","","9","","33","","19.3","","99.64","","","","","","Mostly Cloudy"
"1988-01-19 22:00","1988","01","19","22:00","0.6","","-1.4","","86","","9","","33","","24.1","","99.54","","","","","","Cloudy"
"1988-01-19 23:00","1988","01","19","23:00","0.7","","-1.4","","86","","8","","37","","24.1","","99.24","","","","","","Cloudy"
"1988-01-20 00:00","1988","01","20","00:00","0.7","","-0.9","","89","","9","","37","","11.3","","99.14","","","","","","Rain"
"1988-01-20 01:00","1988","01","20","01:00","0.7","","0.0","","95","","9","","39","","4.8","","98.87","","","","","","Rain,Fog"
"1988-01-20 02:00","1988","01","20","02:00","0.9","","0.9","","100","","9","","37","","4.8","","98.67","","","","","","Rain,Fog"
"1988-01-20 03:00","1988","01","20","03:00","1.2","","1.2","","100","","9","","41","","4.0","","98.51","","","","","","Rain,Fog"
"1988-01-20 04:00","1988","01","20","04:00","1.7","","1.7","","100","","10","","33","","4.8","","98.34","","","","","","Rain,Fog"
"1988-01-20 05:00","1988","01","20","05:00","2.0","","2.0","","100","","10","","35","","6.4","","98.14","","","","","","Rain,Fog"
"1988-01-20 06:00","1988","01","20","06:00","2.6","","2.6","","100","","10","","28","","4.0","","98.04","","","","","","Rain,Drizzle,Fog"
"1988-01-20 07:00","1988","01","20","07:00","3.5","","3.5","","100","","11","","24","","4.8","","97.94","","","","","","Rain,Fog"
"1988-01-20 08:00","1988","01","20","08:00","3.8","","3.6","","99","","13","","19","","3.2","","97.94","","","","","","Fog"
"1988-01-20 09:00","1988","01","20","09:00","4.5","","3.6","","94","","13","","15","","6.4","","97.94","","","","","","Fog"
"1988-01-20 10:00","1988","01","20","10:00","5.1","","4.2","","94","","14","","11","","16.1","","97.94","","","","","","Mostly Cloudy"
"1988-01-20 11:00","1988","01","20","11:00","8.1","","6.4","","89","","18","","20","","16.1","","97.94","","","","","","Mostly Cloudy"
"1988-01-20 12:00","1988","01","20","12:00","10.5","","7.1","","80","","21","","33","","24.1","","97.84","","","","","","Mainly Clear"
"1988-01-20 13:00","1988","01","20","13:00","10.2","","6.1","","76","","22","","17","","32.2","","97.81","","","","","","Mostly Cloudy"
"1988-01-20 14:00","1988","01","20","14:00","9.0","","5.4","","78","","22","","31","","32.2","","97.81","","","","","","Cloudy"
"1988-01-20 15:00","1988","01","20","15:00","8.5","","5.3","","80","","23","","26","","24.1","","97.77","","","","","","Mostly Cloudy"
"1988-01-20 16:00","1988","01","20","16:00","7.9","","4.8","","81","","23","","26","","19.3","","97.77","","","","","","Mostly Cloudy"
"1988-01-20 17:00","1988","01","20","17:00","7.4","","3.7","","78","","22","","26","","19.3","","97.81","","","","","","Mostly Cloudy"
"1988-01-20 18:00","1988","01","20","18:00","6.5","","2.1","","73","","24","","28","","19.3","","97.81","","","","","","Mostly Cloudy"
"1988-01-20 19:00","1988","01","20","19:00","5.8","","2.0","","77","","24","","20","","19.3","","97.77","","","","","","Mostly Cloudy"
"1988-01-20 20:00","1988","01","20","20:00","5.5","","1.5","","75","","24","","26","","19.3","","97.81","","","","","","Mostly Cloudy"
"1988-01-20 21:00","1988","01","20","21:00","4.7","","0.8","","76","","23","","20","","19.3","","97.84","","","","","","Mainly Clear"
"1988-01-20 22:00","1988","01","20","22:00","4.4","","1.8","","83","","24","","22","","19.3","","97.87","","","","","","Mostly Cloudy"
"1988-01-20 23:00","1988","01","20","23:00","3.2","","0.2","","81","","27","","37","","16.1","","97.94","","","","","","Rain Showers"
"1988-01-21 00:00","1988","01","21","00:00","2.3","","0.1","","86","","24","","22","","19.3","","97.94","","","","","","Mostly Cloudy"
"1988-01-21 01:00","1988","01","21","01:00","1.7","","-0.5","","85","","24","","17","","16.1","","97.97","","","","","","Cloudy"
"1988-01-21 02:00","1988","01","21","02:00","1.7","","-2.4","","74","","26","","22","","16.1","","98.01","","","","","","Cloudy"
"1988-01-21 03:00","1988","01","21","03:00","1.6","","-2.4","","75","","26","","24","","16.1","","98.11","","","","","","Cloudy"
"1988-01-21 04:00","1988","01","21","04:00","1.4","","-2.1","","77","","26","","24","","16.1","","98.11","","","","","","Snow Showers"
"1988-01-21 05:00","1988","01","21","05:00","0.6","","-0.5","","92","","27","","22","","16.1","","98.21","","","","","","Snow Showers"
"1988-01-21 06:00","1988","01","21","06:00","0.1","","0.1","","100","","26","","28","","16.1","","98.21","","","","","","Cloudy"
"1988-01-21 07:00","1988","01","21","07:00","-0.2","","-4.6","","72","","26","","26","","16.1","","98.31","","","","-6","","Mostly Cloudy"
"1988-01-21 08:00","1988","01","21","08:00","-1.6","","-4.2","","82","","30","","30","","12.9","","98.44","","","","-9","","Snow Showers"
"1988-01-21 09:00","1988","01","21","09:00","-1.5","","-5.1","","76","","30","","24","","32.2","","98.57","","","","-8","","Mostly Cloudy"
"1988-01-21 10:00","1988","01","21","10:00","-2.1","","-6.4","","72","","29","","33","","24.1","","98.74","","","","-10","","Mostly Cloudy"
"1988-01-21 11:00","1988","01","21","11:00","-2.1","","-5.1","","80","","30","","26","","4.8","","98.84","","","","-9","","Snow Showers"
"1988-01-21 12:00","1988","01","21","12:00","-2.4","","-7.4","","68","","30","","28","","40.2","","98.91","","","","-9","","Mostly Cloudy"
"1988-01-21 13:00","1988","01","21","13:00","-2.7","","-7.0","","72","","29","","31","","24.1","","98.94","","","","-10","","Mostly Cloudy"
"1988-01-21 14:00","1988","01","21","14:00","-2.9","","-8.4","","66","","31","","28","","32.2","","99.04","","","","-10","","Mostly Cloudy"
"1988-01-21 15:00","1988","01","21","15:00","-2.7","","-7.4","","70","","34","","22","","32.2","","99.11","","","","-9","","Mostly Cloudy"
"1988-01-21 16:00","1988","01","21","16:00","-3.9","","-6.3","","83","","31","","24","","32.2","","99.24","","","","-11","","Mainly Clear"
"1988-01-21 17:00","1988","01","21","17:00","-4.9","","-7.9","","79","","33","","26","","32.2","","99.31","","","","-12","","Mainly Clear"
"1988-01-21 18:00","1988","01","21","18:00","-5.4","","-8.2","","80","","32","","31","","25.0","","99.44","","","","-14","","Mainly Clear"
"1988-01-21 19:00","1988","01","21","19:00","-5.5","","-8.2","","81","","33","","20","","25.0","","99.51","","","","-12","","Mainly Clear"
"1988-01-21 20:00","1988","01","21","20:00","-5.7","","-8.9","","78","","34","","20","","25.0","","99.54","","","","-12","","Clear"
"1988-01-21 21:00","1988","01","21","21:00","-6.4","","-10.9","","70","","35","","24","","25.0","","99.61","","","","-14","","Clear"
"1988-01-21 22:00","1988","01","21","22:00","-7.4","","-11.8","","71","","34","","19","","25.0","","99.64","","","","-14","","Clear"
"1988-01-21 23:00","1988","01","21","23:00","-8.1","","-12.5","","71","","35","","22","","25.0","","99.64","","","","-16","","Clear"
"1988-01-22 00:00","1988","01","22","00:00","-9.2","","-12.5","","77","","35","","15","","25.0","","99.71","","","","-16","","Clear"
"1988-01-22 01:00","1988","01","22","01:00","-9.6","","-14.0","","70","","35","","19","","25.0","","99.67","","","","-17","","Clear"
"1988-01-22 02:00","1988","01","22","02:00","-10.3","","-14.4","","72","","1","","11","","25.0","","99.67","","","","-16","","Clear"
"1988-01-22 03:00","1988","01","22","03:00","-10.6","","-14.4","","74","","33","","9","","25.0","","99.67","","","","-16","","Clear"
"1988-01-22 04:00","1988","01","22","04:00","-11.3","","-13.8","","82","","33","","11","","25.0","","99.71","","","","-17","","Clear"
"1988-01-22 05:00","1988","01","22","05:00","-11.6","","-14.2","","81","","32","","11","","25.0","","99.64","","","","-18","","Clear"
"1988-01-22 06:00","1988","01","22","06:00","-12.1","","-13.9","","87","","34","","13","","25.0","","99.67","","","","-19","","Clear"
"1988-01-22 07:00","1988","01","22","07:00","-12.2","","-13.9","","87","","33","","13","","25.0","","99.71","","","","-19","","Clear"
"1988-01-22 08:00","1988","01","22","08:00","-12.3","","-14.5","","83","","33","","11","","40.2","","99.71","","","","-18","","Clear"
"1988-01-22 09:00","1988","01","22","09:00","-11.1","","-14.5","","76","","33","","9","","40.2","","99.71","","","","-16","","Clear"
"1988-01-22 10:00","1988","01","22","10:00","-9.6","","-15.0","","65","","","","0","","40.2","","99.71","","","","","","Clear"
"1988-01-22 11:00","1988","01","22","11:00","-7.7","","-14.6","","58","","23","","6","","40.2","","99.64","","","","-11","","Clear"
"1988-01-22 12:00","1988","01","22","12:00","-5.3","","-13.0","","54","","19","","19","","32.2","","99.54","","","","-12","","Clear"
"1988-01-22 13:00","1988","01","22","13:00","-4.1","","-9.9","","64","","21","","15","","32.2","","99.47","","","","-9","","Clear"
"1988-01-22 14:00","1988","01","22","14:00","-3.1","","-10.4","","57","","20","","19","","32.2","","99.41","","","","-9","","Clear"
"1988-01-22 15:00","1988","01","22","15:00","-3.0","","-7.0","","74","","20","","15","","32.2","","99.34","","","","-8","","Clear"
"1988-01-22 16:00","1988","01","22","16:00","-2.9","","-7.7","","69","","23","","9","","32.2","","99.34","","","","-6","","Mainly Clear"
"1988-01-22 17:00","1988","01","22","17:00","-4.4","","-8.3","","74","","23","","22","","32.2","","99.34","","","","-11","","Mainly Clear"
"1988-01-22 18:00","1988","01","22","18:00","-5.0","","-8.9","","74","","23","","19","","24.1","","99.31","","","","-11","","Snow Showers"
"1988-01-22 19:00","1988","01","22","19:00","-5.0","","-10.5","","65","","22","","26","","24.1","","99.34","","","","-12","","Mostly Cloudy"
"1988-01-22 20:00","1988","01","22","20:00","-5.0","","-10.9","","63","","24","","15","","24.1","","99.31","","","","-11","","Mostly Cloudy"
"1988-01-22 21:00","1988","01","22","21:00","-4.6","","-9.8","","67","","22","","28","","24.1","","99.27","","","","-12","","Cloudy"
"1988-01-22 22:00","1988","01","22","22:00","-4.5","","-9.8","","66","","24","","15","","24.1","","99.24","","","","-10","","Snow Showers"
"1988-01-22 23:00","1988","01","22","23:00","-4.5","","-9.4","","69","","24","","20","","24.1","","99.21","","","","-11","","Cloudy"
"1988-01-23 00:00","1988","01","23","00:00","-4.3","","-9.4","","67","","23","","11","","24.1","","99.14","","","","-9","","Cloudy"
"1988-01-23 01:00","1988","01","23","01:00","-4.1","","-9.1","","68","","15","","7","","24.1","","99.04","","","","-7","","Snow Showers"
"1988-01-23 02:00","1988","01","23","02:00","-4.2","","-8.0","","75","","13","","9","","16.1","","98.94","","","","-8","","Snow Showers"
"1988-01-23 03:00","1988","01","23","03:00","-3.6","","-8.4","","69","","17","","9","","16.1","","98.94","","","","-7","","Snow Showers"
"1988-01-23 04:00","1988","01","23","04:00","-3.0","","-6.0","","80","","17","","13","","8.0","","98.84","","","","-8","","Snow Showers"
"1988-01-23 05:00","1988","01","23","05:00","-2.6","","-5.1","","83","","16","","11","","6.4","","98.77","","","","-7","","Snow Showers"
"1988-01-23 06:00","1988","01","23","06:00","-2.3","","-4.8","","83","","18","","15","","8.0","","98.71","","","","-7","","Snow Showers"
"1988-01-23 07:00","1988","01","23","07:00","-2.1","","-3.9","","88","","18","","19","","8.0","","98.71","","","","-8","","Snow Showers"
"1988-01-23 08:00","1988","01","23","08:00","-1.9","","-4.1","","85","","19","","15","","9.7","","98.71","","","","-7","","Snow Showers"
"1988-01-23 09:00","1988","01","23","09:00","-2.1","","-3.6","","89","","19","","11","","4.8","","98.71","","","","-6","","Snow Showers"
"1988-01-23 10:00","1988","01","23","10:00","-1.6","","-3.6","","86","","19","","15","","4.0","","98.74","","","","-6","","Snow Showers"
"1988-01-23 11:00","1988","01","23","11:00","-1.5","","-3.3","","88","","17","","13","","4.8","","98.71","","","","-6","","Snow Showers"
"1988-01-23 12:00","1988","01","23","12:00","-0.2","","-4.3","","74","","20","","20","","24.1","","98.64","","","","-5","","Mainly Clear"
"1988-01-23 13:00","1988","01","23","13:00","-0.3","","-3.8","","77","","22","","20","","6.4","","98.61","","","","-6","","Snow Showers"
"1988-01-23 14:00","1988","01","23","14:00","0.5","","-4.3","","70","","20","","22","","24.1","","98.61","","","","","","Snow Showers"
"1988-01-23 15:00","1988","01","23","15:00","0.1","","-3.9","","74","","22","","19","","24.1","","98.61","","","","","","Snow Showers"
"1988-01-23 16:00","1988","01","23","16:00","-0.4","","-6.5","","63","","22","","22","","24.1","","98.71","","","","-6","","Mostly Cloudy"
"1988-01-23 17:00","1988","01","23","17:00","-0.8","","-6.0","","68","","20","","17","","32.2","","98.81","","","","-6","","Cloudy"
"1988-01-23 18:00","1988","01","23","18:00","-1.6","","-5.4","","75","","22","","11","","24.1","","98.81","","","","-5","","Mainly Clear"
"1988-01-23 19:00","1988","01","23","19:00","-2.1","","-5.1","","80","","17","","11","","24.1","","98.84","","","","-6","","Mostly Cloudy"
"1988-01-23 20:00","1988","01","23","20:00","-1.9","","-5.1","","79","","18","","15","","16.1","","98.87","","","","-7","","Mostly Cloudy"
"1988-01-23 21:00","1988","01","23","21:00","-1.6","","-3.9","","84","","19","","15","","12.9","","98.91","","","","-6","","Cloudy"
"1988-01-23 22:00","1988","01","23","22:00","-1.3","","-4.2","","80","","19","","17","","24.1","","98.94","","","","-6","","Cloudy"
"1988-01-23 23:00","1988","01","23","23:00","-1.2","","-4.1","","81","","19","","20","","24.1","","98.94","","","","-7","","Cloudy"
"1988-01-24 00:00","1988","01","24","00:00","-1.2","","-4.1","","81","","20","","15","","16.1","","98.91","","","","-6","","Snow Showers"
"1988-01-24 01:00","1988","01","24","01:00","-1.3","","-4.2","","80","","17","","9","","9.7","","98.84","","","","-5","","Snow Showers"
"1988-01-24 02:00","1988","01","24","02:00","-1.7","","-2.5","","94","","18","","9","","4.0","","98.81","","","","-5","","Snow Showers"
"1988-01-24 03:00","1988","01","24","03:00","-2.0","","-2.5","","96","","15","","7","","4.8","","98.81","","","","-5","","Snow Showers"
"1988-01-24 04:00","1988","01","24","04:00","-0.6","","-1.6","","93","","19","","19","","6.4","","98.81","","","","-6","","Snow Showers"
"1988-01-24 05:00","1988","01","24","05:00","-0.3","","-1.6","","91","","15","","15","","6.4","","98.71","","","","-5","","Snow Showers"
"1988-01-24 06:00","1988","01","24","06:00","0.0","","-1.5","","90","","16","","17","","6.4","","98.64","","","","-5","","Snow"
"1988-01-24 07:00","1988","01","24","07:00","0.0","","-1.0","","93","","17","","19","","6.4","","98.61","","","","-5","","Snow"
"1988-01-24 08:00","1988","01","24","08:00","0.2","","-1.0","","91","","17","","22","","2.8","","98.57","","","","","","Snow"
"1988-01-24 09:00","1988","01","24","09:00","0.5","","-0.9","","90","","17","","22","","8.0","","98.51","","","","","","Snow"
"1988-01-24 10:00","1988","01","24","10:00","0.7","","-0.9","","89","","18","","24","","1.0","","98.51","","","","","","Snow"
"1988-01-24 11:00","1988","01","24","11:00","0.8","","0.0","","95","","17","","24","","3.2","","98.51","","","","","","Snow"
"1988-01-24 12:00","1988","01","24","12:00","1.0","","0.0","","93","","18","","26","","3.2","","98.47","","","","","","Rain,Snow,Fog"
"1988-01-24 13:00","1988","01","24","13:00","1.2","","0.0","","92","","19","","30","","4.8","","98.41","","","","","","Rain,Snow,Fog"
"1988-01-24 14:00","1988","01","24","14:00","1.5","","0.0","","90","","19","","30","","11.3","","98.34","","","","","","Rain"
"1988-01-24 15:00","1988","01","24","15:00","1.8","","0.6","","92","","19","","28","","12.9","","98.34","","","","","","Rain,Snow"
"1988-01-24 16:00","1988","01","24","16:00","2.1","","0.6","","90","","19","","26","","12.9","","98.34","","","","","","Rain"
"1988-01-24 17:00","1988","01","24","17:00","1.5","","-2.1","","77","","21","","30","","24.1","","98.41","","","","","","Mostly Cloudy"
"1988-01-24 18:00","1988","01","24","18:00","0.6","","-2.5","","80","","21","","33","","24.1","","98.54","","","","","","Mostly Cloudy"
"1988-01-24 19:00","1988","01","24","19:00","0.2","","-3.2","","78","","22","","28","","24.1","","98.71","","","","","","Cloudy"
"1988-01-24 20:00","1988","01","24","20:00","-0.2","","-3.7","","77","","23","","31","","24.1","","98.84","","","","-7","","Cloudy"
"1988-01-24 21:00","1988","01","24","21:00","-0.9","","-4.1","","79","","24","","30","","24.1","","98.94","","","","-8","","Snow Showers"
"1988-01-24 22:00","1988","01","24","22:00","-1.0","","-4.4","","78","","25","","26","","24.1","","99.04","","","","-7","","Cloudy"
"1988-01-24 23:00","1988","01","24","23:00","-1.3","","-4.8","","77","","24","","24","","19.3","","99.11","","","","-7","","Cloudy"
"1988-01-25 00:00","1988","01","25","00:00","-2.5","","-6.4","","75","","25","","22","","25.0","","99.21","","","","-9","","Mainly Clear"
"1988-01-25 01:00","1988","01","25","01:00","-3.1","","-6.4","","78","","25","","13","","25.0","","99.27","","","","-8","","Mainly Clear"
"1988-01-25 02:00","1988","01","25","02:00","-3.7","","-5.1","","90","","23","","11","","24.1","","99.31","","","","-8","","Mostly Cloudy"
"1988-01-25 03:00","1988","01","25","03:00","-2.6","","-6.0","","77","","23","","9","","16.1","","99.34","","","","-6","","Snow Showers"
"1988-01-25 04:00","1988","01","25","04:00","-2.6","","-5.7","","79","","25","","11","","16.1","","99.34","","","","-7","","Snow Showers"
"1988-01-25 05:00","1988","01","25","05:00","-2.8","","-7.0","","73","","26","","17","","19.3","","99.37","","","","-8","","Mostly Cloudy"
"1988-01-25 06:00","1988","01","25","06:00","-4.3","","-8.3","","74","","26","","11","","25.0","","99.41","","","","-9","","Mainly Clear"
"1988-01-25 07:00","1988","01","25","07:00","-5.2","","-7.5","","84","","25","","11","","25.0","","99.44","","","","-10","","Clear"
"1988-01-25 08:00","1988","01","25","08:00","-4.8","","-9.3","","71","","21","","7","","24.1","","99.44","","","","-8","","Mainly Clear"
"1988-01-25 09:00","1988","01","25","09:00","-3.8","","-8.3","","71","","20","","9","","24.1","","99.47","","","","-8","","Mainly Clear"
"1988-01-25 10:00","1988","01","25","10:00","-3.0","","-8.1","","68","","22","","9","","24.1","","99.47","","","","-7","","Mostly Cloudy"
"1988-01-25 11:00","1988","01","25","11:00","-1.8","","-8.9","","58","","21","","15","","24.1","","99.47","","","","-7","","Mostly Cloudy"
"1988-01-25 12:00","1988","01","25","12:00","-1.0","","-6.0","","69","","19","","9","","32.2","","99.37","","","","-4","","Mostly Cloudy"
"1988-01-25 13:00","1988","01","25","13:00","-1.6","","-7.7","","63","","17","","11","","32.2","","99.27","","","","-5","","Mostly Cloudy"
"1988-01-25 14:00","1988","01","25","14:00","-0.8","","-8.1","","57","","29","","6","","32.2","","99.14","","","","-3","","Mainly Clear"
"1988-01-25 15:00","1988","01","25","15:00","-0.8","","-6.3","","66","","32","","6","","32.2","","99.04","","","","-3","","Mainly Clear"
"1988-01-25 16:00","1988","01","25","16:00","-1.6","","-5.4","","75","","36","","9","","32.2","","99.04","","","","-5","","Mainly Clear"
"1988-01-25 17:00","1988","01","25","17:00","-1.7","","-5.1","","78","","3","","15","","24.1","","99.04","","","","-7","","Mostly Cloudy"
"1988-01-25 18:00","1988","01","25","18:00","-2.0","","-7.7","","65","","2","","17","","24.1","","99.01","","","","-7","","Mostly Cloudy"
"1988-01-25 19:00","1988","01","25","19:00","-2.0","","-6.0","","74","","3","","13","","24.1","","99.01","","","","-6","","Cloudy"
"1988-01-25 20:00","1988","01","25","20:00","-2.6","","-6.0","","77","","2","","15","","24.1","","98.97","","","","-8","","Snow"
"1988-01-25 21:00","1988","01","25","21:00","-2.9","","-6.4","","77","","2","","19","","24.1","","98.94","","","","-9","","Snow"
"1988-01-25 22:00","1988","01","25","22:00","-3.1","","-7.4","","72","","36","","19","","19.3","","98.81","","","","-9","","Cloudy"
"1988-01-25 23:00","1988","01","25","23:00","-3.4","","-7.7","","72","","1","","20","","19.3","","98.71","","","","-10","","Snow"
"1988-01-26 00:00","1988","01","26","00:00","-3.5","","-6.3","","81","","36","","17","","19.3","","98.61","","","","-9","","Snow"
"1988-01-26 01:00","1988","01","26","01:00","-3.6","","-6.7","","79","","35","","17","","19.3","","98.54","","","","-9","","Snow"
"1988-01-26 02:00","1988","01","26","02:00","-3.8","","-6.6","","81","","35","","19","","16.1","","98.51","","","","-10","","Snow"
"1988-01-26 03:00","1988","01","26","03:00","-4.3","","-6.3","","86","","36","","26","","12.9","","98.51","","","","-12","","Snow Showers"
"1988-01-26 04:00","1988","01","26","04:00","-4.5","","-7.6","","79","","35","","19","","19.3","","98.54","","","","-11","","Cloudy"
"1988-01-26 05:00","1988","01","26","05:00","-5.8","","-9.9","","73","","35","","24","","24.1","","98.61","","","","-13","","Cloudy"
"1988-01-26 06:00","1988","01","26","06:00","-6.7","","-9.7","","79","","35","","15","","16.1","","98.61","","","","-13","","Cloudy"
"1988-01-26 07:00","1988","01","26","07:00","-7.3","","-9.9","","81","","32","","22","","19.3","","98.71","","","","-15","","Cloudy"
"1988-01-26 08:00","1988","01","26","08:00","-8.9","","-12.1","","77","","32","","26","","24.1","","98.77","","","","-18","","Snow Showers"
"1988-01-26 09:00","1988","01","26","09:00","-10.4","","-13.9","","75","","33","","33","","32.2","","98.84","","","","-20","","Cloudy"
"1988-01-26 10:00","1988","01","26","10:00","-10.5","","-13.9","","76","","33","","31","","32.2","","98.91","","","","-20","","Cloudy"
"1988-01-26 11:00","1988","01","26","11:00","-9.4","","-13.1","","74","","33","","30","","32.2","","98.94","","","","-19","","Snow Showers"
"1988-01-26 12:00","1988","01","26","12:00","-8.8","","-12.5","","74","","33","","26","","12.9","","99.01","","","","-17","","Snow"
"1988-01-26 13:00","1988","01","26","13:00","-9.5","","-13.6","","72","","33","","30","","32.2","","99.04","","","","-19","","Snow"
"1988-01-26 14:00","1988","01","26","14:00","-9.2","","-13.8","","69","","32","","30","","40.2","","99.14","","","","-18","","Cloudy"
"1988-01-26 15:00","1988","01","26","15:00","-8.9","","-15.8","","57","","33","","26","","40.2","","99.21","","","","-18","","Cloudy"
"1988-01-26 16:00","1988","01","26","16:00","-9.1","","-15.8","","58","","34","","26","","40.2","","99.31","","","","-18","","Mostly Cloudy"
"1988-01-26 17:00","1988","01","26","17:00","-9.9","","-14.2","","70","","32","","20","","40.2","","99.44","","","","-18","","Mostly Cloudy"
"1988-01-26 18:00","1988","01","26","18:00","-10.8","","-16.6","","62","","31","","26","","24.1","","99.57","","","","-20","","Mostly Cloudy"
"1988-01-26 19:00","1988","01","26","19:00","-12.0","","-17.4","","64","","30","","24","","25.0","","99.67","","","","-21","","Mostly Cloudy"
"1988-01-26 20:00","1988","01","26","20:00","-12.4","","-17.5","","66","","29","","20","","25.0","","99.77","","","","-21","","Mostly Cloudy"
"1988-01-26 21:00","1988","01","26","21:00","-12.1","","-15.8","","74","","28","","20","","25.0","","99.84","","","","-21","","Mostly Cloudy"
"1988-01-26 22:00","1988","01","26","22:00","-11.4","","-15.7","","70","","29","","19","","25.0","","99.91","","","","-19","","Mostly Cloudy"
"1988-01-26 23:00","1988","01","26","23:00","-12.5","","-17.0","","69","","36","","19","","24.1","","100.01","","","","-21","","Snow"
"1988-01-27 00:00","1988","01","27","00:00","-13.4","","-18.3","","67","","35","","15","","24.1","","100.11","","","","-21","","Cloudy"
"1988-01-27 01:00","1988","01","27","01:00","-13.9","","-17.2","","76","","36","","9","","24.1","","100.14","","","","-20","","Mostly Cloudy"
"1988-01-27 02:00","1988","01","27","02:00","-13.5","","-17.7","","70","","2","","7","","24.1","","100.17","","","","-18","","Cloudy"
"1988-01-27 03:00","1988","01","27","03:00","-13.6","","-17.7","","71","","32","","7","","24.1","","100.24","","","","-18","","Mostly Cloudy"
"1988-01-27 04:00","1988","01","27","04:00","-14.2","","-17.2","","78","","32","","9","","24.1","","100.27","","","","-20","","Mostly Cloudy"
"1988-01-27 05:00","1988","01","27","05:00","-15.2","","-17.3","","84","","32","","7","","24.1","","100.31","","","","-20","","Mainly Clear"
"1988-01-27 06:00","1988","01","27","06:00","-15.3","","-19.0","","73","","","","0","","24.1","","100.34","","","","","","Mostly Cloudy"
"1988-01-27 07:00","1988","01","27","07:00","-14.8","","-18.4","","74","","2","","6","","24.1","","100.47","","","","-19","","Mostly Cloudy"
"1988-01-27 08:00","1988","01","27","08:00","-14.9","","-19.0","","71","","","","0","","32.2","","100.51","","","","","","Mainly Clear"
"1988-01-27 09:00","1988","01","27","09:00","-13.0","","-17.1","","71","","26","","2","","32.2","","100.57","","","","-14","","Mostly Cloudy"
"1988-01-27 10:00","1988","01","27","10:00","-11.0","","-16.1","","66","","24","","4","","40.2","","100.61","","","","-13","","Mostly Cloudy"
"1988-01-27 11:00","1988","01","27","11:00","-9.0","","-14.8","","63","","22","","7","","40.2","","100.64","","","","-13","","Mainly Clear"
"1988-01-27 12:00","1988","01","27","12:00","-7.6","","-14.6","","57","","22","","6","","40.2","","100.61","","","","-11","","Mainly Clear"
"1988-01-27 13:00","1988","01","27","13:00","-6.7","","-13.1","","60","","22","","13","","40.2","","100.57","","","","-12","","Mostly Cloudy"
"1988-01-27 14:00","1988","01","27","14:00","-6.7","","-12.6","","63","","25","","15","","40.2","","100.57","","","","-13","","Mostly Cloudy"
"1988-01-27 15:00","1988","01","27","15:00","-6.5","","-14.0","","55","","26","","11","","40.2","","100.57","","","","-11","","Mostly Cloudy"
"1988-01-27 16:00","1988","01","27","16:00","-6.6","","-13.5","","58","","22","","17","","32.2","","100.57","","","","-13","","Mostly Cloudy"
"1988-01-27 17:00","1988","01","27","17:00","-7.2","","-11.6","","71","","24","","15","","19.3","","100.61","","","","-13","","Snow Showers"
"1988-01-27 18:00","1988","01","27","18:00","-7.8","","-15.9","","52","","24","","15","","24.1","","100.67","","","","-14","","Mostly Cloudy"
"1988-01-27 19:00","1988","01","27","19:00","-8.6","","-14.1","","64","","22","","9","","25.0","","100.71","","","","-13","","Mainly Clear"
"1988-01-27 20:00","1988","01","27","20:00","-8.6","","-14.6","","62","","19","","15","","25.0","","100.71","","","","-15","","Mostly Cloudy"
"1988-01-27 21:00","1988","01","27","21:00","-8.8","","-14.3","","64","","20","","19","","25.0","","100.71","","","","-16","","Cloudy"
"1988-01-27 22:00","1988","01","27","22:00","-8.8","","-12.5","","74","","20","","19","","24.1","","100.71","","","","-16","","Mostly Cloudy"
"1988-01-27 23:00","1988","01","27","23:00","-8.5","","-12.3","","74","","21","","19","","24.1","","100.71","","","","-16","","Cloudy"
"1988-01-28 00:00","1988","01","28","00:00","-8.6","","-13.2","","69","","21","","19","","16.1","","100.71","","","","-16","","Snow Showers"
"1988-01-28 01:00","1988","01","28","01:00","-9.0","","-12.5","","76","","21","","17","","12.9","","100.67","","","","-16","","Cloudy"
"1988-01-28 02:00","1988","01","28","02:00","-9.4","","-12.7","","77","","21","","17","","8.0","","100.67","","","","-16","","Snow Showers"
"1988-01-28 03:00","1988","01","28","03:00","-9.8","","-13.3","","75","","22","","15","","16.1","","100.67","","","","-16","","Snow Showers"
"1988-01-28 04:00","1988","01","28","04:00","-9.9","","-13.3","","76","","22","","15","","16.1","","100.64","","","","-17","","Cloudy"
"1988-01-28 05:00","1988","01","28","05:00","-10.0","","-13.8","","74","","23","","15","","16.1","","100.67","","","","-17","","Cloudy"
"1988-01-28 06:00","1988","01","28","06:00","-9.9","","-13.8","","73","","23","","22","","11.3","","100.67","","","","-18","","Snow Showers"
"1988-01-28 07:00","1988","01","28","07:00","-9.6","","-15.0","","65","","23","","19","","16.1","","100.71","","","","-17","","Snow Showers"
"1988-01-28 08:00","1988","01","28","08:00","-9.6","","-12.7","","78","","22","","22","","24.1","","100.71","","","","-18","","Mostly Cloudy"
"1988-01-28 09:00","1988","01","28","09:00","-9.7","","-13.6","","73","","23","","26","","19.3","","100.77","","","","-19","","Mainly Clear"
"1988-01-28 10:00","1988","01","28","10:00","-8.3","","-12.7","","70","","24","","22","","19.3","","100.81","","","","-16","","Mainly Clear"
"1988-01-28 11:00","1988","01","28","11:00","-6.0","","-10.6","","70","","27","","24","","24.1","","100.87","","","","-13","","Mainly Clear"
"1988-01-28 12:00","1988","01","28","12:00","-6.5","","-11.7","","66","","30","","31","","40.2","","100.87","","","","-15","","Snow Showers"
"1988-01-28 13:00","1988","01","28","13:00","-6.7","","-14.5","","54","","29","","30","","40.2","","100.94","","","","-15","","Mainly Clear"
"1988-01-28 14:00","1988","01","28","14:00","-6.7","","-15.1","","51","","30","","24","","40.2","","100.97","","","","-14","","Clear"
"1988-01-28 15:00","1988","01","28","15:00","-6.6","","-16.2","","46","","28","","24","","40.2","","101.01","","","","-14","","Clear"
"1988-01-28 16:00","1988","01","28","16:00","-7.0","","-15.9","","49","","29","","22","","40.2","","101.11","","","","-14","","Clear"
"1988-01-28 17:00","1988","01","28","17:00","-7.8","","-17.1","","47","","28","","19","","40.2","","101.21","","","","-15","","Clear"
"1988-01-28 18:00","1988","01","28","18:00","-9.3","","-16.1","","57","","28","","11","","25.0","","101.27","","","","-15","","Clear"
"1988-01-28 19:00","1988","01","28","19:00","-10.1","","-15.2","","66","","28","","11","","25.0","","101.37","","","","-16","","Clear"
"1988-01-28 20:00","1988","01","28","20:00","-10.6","","-14.9","","71","","28","","11","","25.0","","101.41","","","","-16","","Mainly Clear"
"1988-01-28 21:00","1988","01","28","21:00","-11.4","","-15.2","","73","","29","","9","","25.0","","101.44","","","","-17","","Clear"
"1988-01-28 22:00","1988","01","28","22:00","-12.1","","-15.3","","77","","27","","6","","25.0","","101.44","","","","-16","","Clear"
"1988-01-28 23:00","1988","01","28","23:00","-12.3","","-15.9","","74","","26","","6","","25.0","","101.44","","","","-16","","Mostly Cloudy"
"1988-01-29 00:00","1988","01","29","00:00","-12.4","","-14.9","","81","","25","","6","","25.0","","101.41","","","","-16","","Cloudy"
"1988-01-29 01:00","1988","01","29","01:00","-12.5","","-14.9","","82","","24","","4","","25.0","","101.41","","","","-15","","Mostly Cloudy"
"1988-01-29 02:00","1988","01","29","02:00","-11.8","","-14.8","","78","","22","","4","","25.0","","101.41","","","","-14","","Cloudy"
"1988-01-29 03:00","1988","01","29","03:00","-11.7","","-14.7","","78","","","","0","","24.1","","101.41","","","","","","Cloudy"
"1988-01-29 04:00","1988","01","29","04:00","-12.0","","-14.8","","80","","","","0","","25.0","","101.37","","","","","","Cloudy"
"1988-01-29 05:00","1988","01","29","05:00","-11.1","","-15.0","","73","","","","0","","24.1","","101.37","","","","","","Cloudy"
"1988-01-29 06:00","1988","01","29","06:00","-10.5","","-14.4","","73","","","","0","","24.1","","101.31","","","","","","Cloudy"
"1988-01-29 07:00","1988","01","29","07:00","-10.2","","-13.8","","75","","","","0","","24.1","","101.27","","","","","","Mostly Cloudy"
"1988-01-29 08:00","1988","01","29","08:00","-7.8","","-11.2","","76","","11","","7","","24.1","","101.17","","","","-11","","Cloudy"
"1988-01-29 09:00","1988","01","29","09:00","-6.1","","-9.1","","79","","14","","15","","24.1","","101.11","","","","-12","","Cloudy"
"1988-01-29 10:00","1988","01","29","10:00","-5.5","","-9.2","","75","","15","","19","","32.2","","101.04","","","","-12","","Cloudy"
"1988-01-29 11:00","1988","01","29","11:00","-5.1","","-9.7","","70","","15","","19","","40.2","","100.97","","","","-12","","Cloudy"
"1988-01-29 12:00","1988","01","29","12:00","-3.9","","-8.7","","69","","14","","15","","40.2","","100.81","","","","-9","","Mostly Cloudy"
"1988-01-29 13:00","1988","01","29","13:00","-3.9","","-7.6","","75","","14","","17","","19.3","","100.64","","","","-10","","Mostly Cloudy"
"1988-01-29 14:00","1988","01","29","14:00","-3.2","","-7.0","","75","","14","","19","","16.1","","100.47","","","","-9","","Cloudy"
"1988-01-29 15:00","1988","01","29","15:00","-2.8","","-8.1","","67","","14","","20","","24.1","","100.37","","","","-9","","Cloudy"
"1988-01-29 16:00","1988","01","29","16:00","-2.6","","-7.7","","68","","14","","22","","24.1","","100.27","","","","-9","","Cloudy"
"1988-01-29 17:00","1988","01","29","17:00","-1.7","","-7.4","","65","","14","","17","","19.3","","100.21","","","","-7","","Mostly Cloudy"
"1988-01-29 18:00","1988","01","29","18:00","-1.7","","-7.0","","67","","15","","11","","19.3","","100.14","","","","-6","","Cloudy"
"1988-01-29 19:00","1988","01","29","19:00","-1.1","","-6.7","","66","","16","","11","","24.1","","100.11","","","","-5","","Cloudy"
"1988-01-29 20:00","1988","01","29","20:00","-1.0","","-6.0","","69","","14","","7","","19.3","","100.01","","","","-4","","Cloudy"
"1988-01-29 21:00","1988","01","29","21:00","-0.3","","-4.7","","72","","16","","11","","19.3","","99.91","","","","-4","","Cloudy"
"1988-01-29 22:00","1988","01","29","22:00","-0.3","","-4.4","","74","","14","","11","","19.3","","99.84","","","","-4","","Cloudy"
"1988-01-29 23:00","1988","01","29","23:00","0.4","","-3.2","","77","","14","","11","","19.3","","99.77","","","","","","Cloudy"
"1988-01-30 00:00","1988","01","30","00:00","1.9","","-3.2","","69","","19","","11","","19.3","","99.74","","","","","","Mostly Cloudy"
"1988-01-30 01:00","1988","01","30","01:00","3.8","","-0.8","","72","","18","","11","","19.3","","99.64","","","","","","Cloudy"
"1988-01-30 02:00","1988","01","30","02:00","5.7","","-0.1","","66","","20","","11","","19.3","","99.64","","","","","","Cloudy"
"1988-01-30 03:00","1988","01","30","03:00","6.0","","0.5","","68","","22","","22","","19.3","","99.61","","","","","","Cloudy"
"1988-01-30 04:00","1988","01","30","04:00","6.5","","0.6","","66","","23","","31","","19.3","","99.51","","","","","","Cloudy"
"1988-01-30 05:00","1988","01","30","05:00","6.0","","0.5","","68","","23","","31","","19.3","","99.47","","","","","","Cloudy"
"1988-01-30 06:00","1988","01","30","06:00","6.2","","0.5","","67","","23","","30","","19.3","","99.47","","","","","","Cloudy"
"1988-01-30 07:00","1988","01","30","07:00","5.4","","1.0","","73","","23","","30","","19.3","","99.47","","","","","","Cloudy"
"1988-01-30 08:00","1988","01","30","08:00","5.1","","-0.2","","68","","22","","26","","19.3","","99.51","","","","","","Mostly Cloudy"
"1988-01-30 09:00","1988","01","30","09:00","6.0","","0.0","","65","","23","","30","","19.3","","99.54","","","","","","Mostly Cloudy"
"1988-01-30 10:00","1988","01","30","10:00","6.2","","0.5","","67","","23","","28","","24.1","","99.51","","","","","","Mostly Cloudy"
"1988-01-30 11:00","1988","01","30","11:00","6.8","","1.2","","68","","22","","26","","24.1","","99.51","","","","","","Cloudy"
"1988-01-30 12:00","1988","01","30","12:00","7.2","","0.7","","63","","23","","35","","24.1","","99.51","","","","","","Cloudy"
"1988-01-30 13:00","1988","01","30","13:00","7.5","","1.3","","65","","22","","33","","24.1","","99.47","","","","","","Cloudy"
"1988-01-30 14:00","1988","01","30","14:00","7.7","","1.3","","64","","22","","30","","19.3","","99.41","","","","","","Mostly Cloudy"
"1988-01-30 15:00","1988","01","30","15:00","7.5","","1.8","","67","","21","","22","","19.3","","99.44","","","","","","Cloudy"
"1988-01-30 16:00","1988","01","30","16:00","7.4","","2.3","","70","","21","","20","","19.3","","99.47","","","","","","Cloudy"
"1988-01-30 17:00","1988","01","30","17:00","7.3","","2.8","","73","","22","","15","","16.1","","99.51","","","","","","Cloudy"
"1988-01-30 18:00","1988","01","30","18:00","7.5","","3.3","","75","","22","","20","","19.3","","99.57","","","","","","Cloudy"
"1988-01-30 19:00","1988","01","30","19:00","7.9","","3.9","","76","","21","","22","","16.1","","99.61","","","","","","Cloudy"
"1988-01-30 20:00","1988","01","30","20:00","8.6","","4.0","","73","","22","","26","","19.3","","99.64","","","","","","Cloudy"
"1988-01-30 21:00","1988","01","30","21:00","8.5","","4.0","","73","","22","","19","","19.3","","99.64","","","","","","Cloudy"
"1988-01-30 22:00","1988","01","30","22:00","8.6","","3.5","","70","","22","","19","","24.1","","99.64","","","","","","Cloudy"
"1988-01-30 23:00","1988","01","30","23:00","8.6","","2.5","","65","","21","","19","","25.0","","99.64","","","","","","Cloudy"
"1988-01-31 00:00","1988","01","31","00:00","8.4","","3.5","","71","","21","","19","","19.3","","99.67","","","","","","Cloudy"
"1988-01-31 01:00","1988","01","31","01:00","8.5","","1.5","","61","","20","","13","","25.0","","99.71","","","","","","Cloudy"
"1988-01-31 02:00","1988","01","31","02:00","8.4","","1.0","","60","","19","","15","","25.0","","99.67","","","","","","Cloudy"
"1988-01-31 03:00","1988","01","31","03:00","8.3","","1.0","","60","","19","","17","","25.0","","99.64","","","","","","Cloudy"
"1988-01-31 04:00","1988","01","31","04:00","8.4","","1.0","","60","","17","","13","","25.0","","99.61","","","","","","Cloudy"
"1988-01-31 05:00","1988","01","31","05:00","9.5","","1.8","","59","","20","","20","","25.0","","99.61","","","","","","Cloudy"
"1988-01-31 06:00","1988","01","31","06:00","9.3","","2.3","","62","","21","","20","","25.0","","99.61","","","","","","Cloudy"
"1988-01-31 07:00","1988","01","31","07:00","9.3","","2.8","","64","","21","","22","","24.1","","99.61","","","","","","Mostly Cloudy"
"1988-01-31 08:00","1988","01","31","08:00","9.6","","2.8","","62","","22","","28","","24.1","","99.61","","","","","","Cloudy"
"1988-01-31 09:00","1988","01","31","09:00","10.0","","3.9","","66","","21","","31","","24.1","","99.61","","","","","","Cloudy"
"1988-01-31 10:00","1988","01","31","10:00","10.2","","3.9","","65","","21","","20","","24.1","","99.61","","","","","","Mostly Cloudy"
"1988-01-31 11:00","1988","01","31","11:00","12.0","","4.9","","62","","22","","41","","24.1","","99.57","","","","","","Mostly Cloudy"
"1988-01-31 12:00","1988","01","31","12:00","12.8","","5.3","","60","","21","","39","","24.1","","99.51","","","","","","Mostly Cloudy"
"1988-01-31 13:00","1988","01","31","13:00","13.4","","5.0","","57","","21","","35","","24.1","","99.41","","","","","","Mostly Cloudy"
"1988-01-31 14:00","1988","01","31","14:00","13.1","","4.8","","57","","21","","33","","24.1","","99.34","","","","","","Rain Showers"
"1988-01-31 15:00","1988","01","31","15:00","11.8","","6.3","","69","","21","","28","","24.1","","99.31","","","","","","Cloudy"
"1988-01-31 16:00","1988","01","31","16:00","11.3","","6.5","","72","","21","","28","","19.3","","99.34","","","","","","Rain Showers"
"1988-01-31 17:00","1988","01","31","17:00","10.3","","7.5","","83","","22","","30","","8.0","","99.34","","","","","","Rain,Haze"
"1988-01-31 18:00","1988","01","31","18:00","10.1","","7.4","","83","","20","","35","","9.7","","99.31","","","","","","Rain,Haze"
"1988-01-31 19:00","1988","01","31","19:00","9.6","","8.0","","90","","21","","31","","6.4","","99.37","","","","","","Rain,Fog"
"1988-01-31 20:00","1988","01","31","20:00","9.7","","8.4","","91","","21","","31","","9.7","","99.37","","","","","","Rain,Fog"
"1988-01-31 21:00","1988","01","31","21:00","9.9","","8.9","","93","","21","","26","","16.1","","99.34","","","","","","Rain Showers"
"1988-01-31 22:00","1988","01","31","22:00","10.0","","8.5","","90","","22","","22","","16.1","","99.41","","","","","","Cloudy"
"1988-01-31 23:00","1988","01","31","23:00","9.5","","8.0","","90","","22","","15","","12.9","","99.47","","","","","","Cloudy"
