"Station Name","TORONTO LESTER B. PEARSON INT'L A"
"Province","ONTARIO"
"Latitude","43.68"
"Longitude","-79.63"
"Elevation","173.40"
"Climate Identifier","6158733"
"WMO Identifier","71624"
"TC Identifier","YYZ"
"All times are specified in Local Standard Time (LST). Add 1 hour to adjust for Daylight Saving Time where and when it is observed."

"Legend"
"E","Estimated"
"M","Missing"
"NA","Not Available"

"Date/Time","Year","Month","Day","Time","Temp (°C)","Temp Flag","Dew Point Temp (°C)","Dew Point Temp Flag","Rel Hum (%)","Rel Hum Flag","Wind Dir (10s deg)","Wind Dir Flag","Wind Spd (km/h)","Wind Spd Flag","Visibility (km)","Visibility Flag","Stn Press (kPa)","Stn Press Flag","Hmdx","Hmdx Flag","Wind Chill","Wind Chill Flag","Weather"
"1999-01-01 00:00","1999","01","01","00:00","-9.3","","-12.7","","76","","25","","26","","25.0","","99.26","","","","-18","","Clear"
"1999-01-01 01:00","1999","01","01","01:00","-9.3","","-12.8","","76","","25","","26","","25.0","","99.26","","","","-18","","Clear"
"1999-01-01 02:00","1999","01","01","02:00","-9.6","","-13.4","","74","","25","","26","","25.0","","99.29","","","","-18","","Clear"
"1999-01-01 03:00","1999","01","01","03:00","-9.8","","-13.9","","72","","25","","22","","25.0","","99.35","","","","-18","","Mainly Clear"
"1999-01-01 04:00","1999","01","01","04:00","-9.7","","-13.5","","74","","25","","32","","24.1","","99.42","","","","-19","","Mostly Cloudy"
"1999-01-01 05:00","1999","01","01","05:00","-9.6","","-13.2","","75","","27","","26","","16.1","","99.52","","","","-18","","Snow"
"1999-01-01 06:00","1999","01","01","06:00","-13.3","","-16.3","","78","","36","","32","","8.0","","99.79","","","","-24","","Snow"
"1999-01-01 07:00","1999","01","01","07:00","-14.2","","-18.0","","73","","33","","19","","25.0","","99.99","","","","-23","","Mostly Cloudy"
"1999-01-01 08:00","1999","01","01","08:00","-14.1","","-17.2","","77","","30","","17","","24.1","","100.15","","","","-22","","Mainly Clear"
"1999-01-01 09:00","1999","01","01","09:00","-14.0","","-20.3","","59","","32","","32","","32.2","","100.32","","","","-25","","Mainly Clear"
"1999-01-01 10:00","1999","01","01","10:00","-15.7","","-19.7","","71","","36","","28","","24.1","","100.55","","","","-27","","Mainly Clear"
"1999-01-01 11:00","1999","01","01","11:00","-17.0","","-21.3","","69","","35","","22","","32.2","","100.72","","","","-27","","Clear"
"1999-01-01 12:00","1999","01","01","12:00","-16.4","","-23.7","","53","","35","","20","","32.2","","100.85","","","","-26","","Clear"
"1999-01-01 13:00","1999","01","01","13:00","-16.0","","-23.6","","52","","36","","19","","32.2","","100.92","","","","-25","","Mainly Clear"
"1999-01-01 14:00","1999","01","01","14:00","-15.6","","-22.8","","54","","33","","13","","32.2","","100.95","","","","-23","","Clear"
"1999-01-01 15:00","1999","01","01","15:00","-14.7","","-22.9","","50","","34","","9","","32.2","","101.02","","","","-20","","Mainly Clear"
"1999-01-01 16:00","1999","01","01","16:00","-14.6","","-22.9","","49","","32","","7","","32.2","","101.12","","","","-19","","Clear"
"1999-01-01 17:00","1999","01","01","17:00","-14.8","","-24.2","","45","","29","","19","","32.2","","101.15","","","","-24","","Clear"
"1999-01-01 18:00","1999","01","01","18:00","-15.3","","-25.4","","42","","28","","11","","25.0","","101.22","","","","-22","","Clear"
"1999-01-01 19:00","1999","01","01","19:00","-16.0","","-25.3","","45","","27","","11","","25.0","","101.32","","","","-23","","Clear"
"1999-01-01 20:00","1999","01","01","20:00","-16.2","","-24.6","","48","","24","","11","","25.0","","101.32","","","","-23","","Clear"
"1999-01-01 21:00","1999","01","01","21:00","-16.1","","-24.8","","47","","23","","11","","25.0","","101.32","","","","-23","","Clear"
"1999-01-01 22:00","1999","01","01","22:00","-16.0","","-24.2","","49","","27","","13","","25.0","","101.35","","","","-24","","Clear"
"1999-01-01 23:00","1999","01","01","23:00","-15.7","","-22.9","","54","","23","","13","","25.0","","101.42","","","","-23","","Mainly Clear"
"1999-01-02 00:00","1999","01","02","00:00","-14.7","","-21.1","","58","","31","","4","","25.0","","101.42","","","","-18","","Mainly Clear"
"1999-01-02 01:00","1999","01","02","01:00","-15.5","","-20.5","","65","","34","","4","","25.0","","101.39","","","","-18","","Mostly Cloudy"
"1999-01-02 02:00","1999","01","02","02:00","-14.7","","-19.8","","65","","2","","9","","25.0","","101.42","","","","-20","","Cloudy"
"1999-01-02 03:00","1999","01","02","03:00","-15.3","","-19.9","","68","","4","","9","","25.0","","101.39","","","","-21","","Cloudy"
"1999-01-02 04:00","1999","01","02","04:00","-15.5","","-20.8","","64","","3","","6","","25.0","","101.39","","","","-20","","Cloudy"
"1999-01-02 05:00","1999","01","02","05:00","-15.5","","-21.2","","62","","36","","4","","25.0","","101.42","","","","-18","","Cloudy"
"1999-01-02 06:00","1999","01","02","06:00","-15.9","","-22.6","","56","","1","","7","","25.0","","101.35","","","","-21","","Cloudy"
"1999-01-02 07:00","1999","01","02","07:00","-16.0","","-23.4","","53","","2","","7","","25.0","","101.35","","","","-21","","Mostly Cloudy"
"1999-01-02 08:00","1999","01","02","08:00","-16.1","","-23.5","","53","","1","","7","","24.1","","101.35","","","","-21","","Cloudy"
"1999-01-02 09:00","1999","01","02","09:00","-15.8","","-23.2","","53","","2","","7","","24.1","","101.35","","","","-21","","Cloudy"
"1999-01-02 10:00","1999","01","02","10:00","-14.6","","-22.8","","50","","3","","13","","24.1","","101.39","","","","-22","","Cloudy"
"1999-01-02 11:00","1999","01","02","11:00","-13.5","","-21.9","","49","","4","","15","","19.3","","101.39","","","","-21","","Cloudy"
"1999-01-02 12:00","1999","01","02","12:00","-12.0","","-19.2","","55","","5","","20","","16.1","","101.22","","","","-20","","Snow"
"1999-01-02 13:00","1999","01","02","13:00","-11.1","","-19.1","","52","","6","","20","","16.1","","101.02","","","","-19","","Snow"
"1999-01-02 14:00","1999","01","02","14:00","-10.7","","-15.4","","68","","6","","20","","2.0","","100.79","","","","-19","","Snow"
"1999-01-02 15:00","1999","01","02","15:00","-11.0","","-13.9","","79","","6","","22","","2.0","","100.52","","","","-20","","Snow"
"1999-01-02 16:00","1999","01","02","16:00","-10.6","","-12.9","","83","","6","","28","","2.0","","100.35","","","","-20","","Snow"
"1999-01-02 17:00","1999","01","02","17:00","-11.1","","-13.7","","81","","6","","24","","4.0","","100.25","","","","-20","","Snow"
"1999-01-02 18:00","1999","01","02","18:00","-10.9","","-12.9","","85","","5","","26","","0.8","","100.12","","","","-20","","Moderate Snow"
"1999-01-02 19:00","1999","01","02","19:00","-9.4","","-11.0","","88","","6","","20","","0.4","","100.02","","","","-17","","Heavy Snow"
"1999-01-02 20:00","1999","01","02","20:00","-6.8","","-8.1","","90","","8","","50","","0.2","","99.79","","","","-17","","Heavy Snow,Blowing Snow"
"1999-01-02 21:00","1999","01","02","21:00","-10.0","","-11.3","","90","","6","","28","","0.2","","99.59","","","","-19","","Heavy Snow"
"1999-01-02 22:00","1999","01","02","22:00","-7.3","","-9.3","","86","","4","","17","","0.4","","99.32","","","","-14","","Heavy Snow,Heavy Ice Pellets"
"1999-01-02 23:00","1999","01","02","23:00","-4.4","","-5.4","","93","","10","","44","","0.4","","99.09","","","","-14","","Heavy Snow,Moderate Ice Pellets,Blowing Snow"
"1999-01-03 00:00","1999","01","03","00:00","-4.6","","-5.7","","92","","10","","41","","0.4","","99.02","","","","-14","","Heavy Snow,Moderate Ice Pellets"
"1999-01-03 01:00","1999","01","03","01:00","-4.8","","-5.8","","93","","10","","35","","0.2","","98.82","","","","-13","","Heavy Snow"
"1999-01-03 02:00","1999","01","03","02:00","-4.0","","-5.2","","91","","10","","37","","0.2","","98.69","","","","-12","","Heavy Snow"
"1999-01-03 03:00","1999","01","03","03:00","-3.1","","-4.2","","92","","10","","32","","0.6","","98.56","","","","-11","","Moderate Snow"
"1999-01-03 04:00","1999","01","03","04:00","-2.3","","-3.1","","94","","10","","32","","0.2","","98.39","","","","-10","","Heavy Snow"
"1999-01-03 05:00","1999","01","03","05:00","-1.3","","-1.9","","96","","10","","35","","0.8","","98.19","","","","-9","","Moderate Snow"
"1999-01-03 06:00","1999","01","03","06:00","-0.7","","-1.1","","97","","10","","26","","1.6","","98.09","","","","-7","","Snow"
"1999-01-03 07:00","1999","01","03","07:00","-0.2","","-0.5","","98","","11","","26","","2.4","","97.99","","","","-6","","Snow"
"1999-01-03 08:00","1999","01","03","08:00","0.0","","-0.3","","98","","11","","24","","1.6","","97.92","","","","-6","","Snow"
"1999-01-03 09:00","1999","01","03","09:00","0.6","","0.5","","99","","14","","15","","4.8","","97.92","","","","","","Snow,Ice Pellets,Fog"
"1999-01-03 10:00","1999","01","03","10:00","-1.2","","-1.3","","99","","23","","35","","14.5","","98.09","","","","-9","","Snow"
"1999-01-03 11:00","1999","01","03","11:00","-3.1","","-4.4","","91","","24","","32","","16.1","","98.19","","","","-11","","Snow"
"1999-01-03 12:00","1999","01","03","12:00","-3.3","","-5.9","","82","","21","","35","","19.3","","98.16","","","","-11","","Mostly Cloudy"
"1999-01-03 13:00","1999","01","03","13:00","-3.1","","-6.5","","77","","22","","39","","24.1","","98.16","","","","-11","","Mostly Cloudy"
"1999-01-03 14:00","1999","01","03","14:00","-3.6","","-7.0","","77","","22","","39","","19.3","","98.16","","","","-12","","Snow"
"1999-01-03 15:00","1999","01","03","15:00","-3.9","","-6.8","","80","","22","","33","","19.3","","98.19","","","","-12","","Snow"
"1999-01-03 16:00","1999","01","03","16:00","-4.1","","-7.3","","78","","21","","33","","14.5","","98.26","","","","-12","","Snow"
"1999-01-03 17:00","1999","01","03","17:00","-4.5","","-7.2","","81","","22","","33","","11.3","","98.29","","","","-13","","Snow"
"1999-01-03 18:00","1999","01","03","18:00","-5.8","","-9.8","","73","","22","","35","","19.3","","98.39","","","","-15","","Mainly Clear"
"1999-01-03 19:00","1999","01","03","19:00","-6.8","","-10.8","","73","","23","","37","","24.1","","98.42","","","","-16","","Mainly Clear"
"1999-01-03 20:00","1999","01","03","20:00","-8.2","","-12.7","","70","","24","","35","","24.1","","98.49","","","","-18","","Mainly Clear"
"1999-01-03 21:00","1999","01","03","21:00","-9.0","","-13.0","","73","","23","","33","","25.0","","98.49","","","","-19","","Mainly Clear"
"1999-01-03 22:00","1999","01","03","22:00","-8.9","","-12.9","","73","","23","","32","","25.0","","98.52","","","","-18","","Mostly Cloudy"
"1999-01-03 23:00","1999","01","03","23:00","-9.6","","-13.6","","73","","23","","32","","25.0","","98.56","","","","-19","","Clear"
"1999-01-04 00:00","1999","01","04","00:00","-10.3","","-14.3","","72","","23","","24","","25.0","","98.59","","","","-19","","Clear"
"1999-01-04 01:00","1999","01","04","01:00","-10.9","","-14.8","","73","","24","","24","","25.0","","98.59","","","","-20","","Mainly Clear"
"1999-01-04 02:00","1999","01","04","02:00","-10.4","","-14.3","","73","","23","","26","","24.1","","98.62","","","","-19","","Mostly Cloudy"
"1999-01-04 03:00","1999","01","04","03:00","-10.0","","-13.3","","77","","24","","32","","12.9","","98.66","","","","-20","","Snow"
"1999-01-04 04:00","1999","01","04","04:00","-10.2","","-13.7","","75","","23","","28","","24.1","","98.69","","","","-19","","Mainly Clear"
"1999-01-04 05:00","1999","01","04","05:00","-10.6","","-14.1","","75","","23","","32","","24.1","","98.72","","","","-21","","Mainly Clear"
"1999-01-04 06:00","1999","01","04","06:00","-11.0","","-14.4","","76","","23","","39","","24.1","","98.79","","","","-22","","Mostly Cloudy"
"1999-01-04 07:00","1999","01","04","07:00","-11.6","","-16.0","","70","","23","","32","","24.1","","98.86","","","","-22","","Mainly Clear"
"1999-01-04 08:00","1999","01","04","08:00","-12.3","","-15.6","","76","","24","","35","","24.1","","98.89","","","","-23","","Mainly Clear"
"1999-01-04 09:00","1999","01","04","09:00","-12.2","","-15.6","","76","","24","","32","","32.2","","98.99","","","","-23","","Clear"
"1999-01-04 10:00","1999","01","04","10:00","-11.3","","-15.0","","74","","24","","39","","32.2","","99.06","","","","-22","","Clear"
"1999-01-04 11:00","1999","01","04","11:00","-10.4","","-14.4","","72","","24","","37","","32.2","","99.12","","","","-21","","Mainly Clear"
"1999-01-04 12:00","1999","01","04","12:00","-10.2","","-14.3","","72","","25","","37","","16.1","","99.19","","","","-21","","Mostly Cloudy"
"1999-01-04 13:00","1999","01","04","13:00","-9.8","","-13.3","","76","","24","","32","","24.1","","99.19","","","","-20","","Mainly Clear"
"1999-01-04 14:00","1999","01","04","14:00","-9.2","","-13.2","","73","","25","","26","","24.1","","99.26","","","","-18","","Mainly Clear"
"1999-01-04 15:00","1999","01","04","15:00","-8.8","","-13.2","","70","","25","","28","","24.1","","99.32","","","","-18","","Mainly Clear"
"1999-01-04 16:00","1999","01","04","16:00","-9.1","","-13.1","","73","","25","","26","","16.1","","99.42","","","","-18","","Mostly Cloudy"
"1999-01-04 17:00","1999","01","04","17:00","-9.6","","-13.2","","75","","24","","24","","19.3","","99.52","","","","-18","","Cloudy"
"1999-01-04 18:00","1999","01","04","18:00","-9.9","","-12.9","","79","","25","","20","","16.1","","99.65","","","","-18","","Cloudy"
"1999-01-04 19:00","1999","01","04","19:00","-10.0","","-12.7","","81","","23","","19","","9.7","","99.69","","","","-18","","Snow"
"1999-01-04 20:00","1999","01","04","20:00","-10.3","","-12.9","","81","","24","","20","","11.3","","99.75","","","","-18","","Snow"
"1999-01-04 21:00","1999","01","04","21:00","-10.8","","-13.4","","81","","24","","17","","19.3","","99.79","","","","-18","","Mostly Cloudy"
"1999-01-04 22:00","1999","01","04","22:00","-11.1","","-13.9","","80","","24","","17","","19.3","","99.82","","","","-19","","Mostly Cloudy"
"1999-01-04 23:00","1999","01","04","23:00","-11.2","","-13.9","","80","","25","","17","","24.1","","99.82","","","","-19","","Mostly Cloudy"
"1999-01-05 00:00","1999","01","05","00:00","-11.2","","-13.9","","80","","25","","15","","24.1","","99.89","","","","-18","","Mostly Cloudy"
"1999-01-05 01:00","1999","01","05","01:00","-10.9","","-13.6","","80","","26","","13","","24.1","","99.89","","","","-17","","Mostly Cloudy"
"1999-01-05 02:00","1999","01","05","02:00","-10.7","","-13.1","","82","","24","","17","","19.3","","99.92","","","","-18","","Mostly Cloudy"
"1999-01-05 03:00","1999","01","05","03:00","-11.6","","-13.9","","83","","25","","17","","19.3","","99.95","","","","-19","","Mainly Clear"
"1999-01-05 04:00","1999","01","05","04:00","-12.1","","-14.7","","81","","25","","17","","19.3","","99.99","","","","-20","","Clear"
"1999-01-05 05:00","1999","01","05","05:00","-12.5","","-15.0","","82","","23","","15","","19.3","","99.99","","","","-20","","Mainly Clear"
"1999-01-05 06:00","1999","01","05","06:00","-11.7","","-14.2","","82","","25","","19","","19.3","","100.05","","","","-20","","Mainly Clear"
"1999-01-05 07:00","1999","01","05","07:00","-11.8","","-14.0","","84","","25","","15","","19.3","","100.12","","","","-19","","Mainly Clear"
"1999-01-05 08:00","1999","01","05","08:00","-11.8","","-14.2","","82","","25","","22","","24.1","","100.15","","","","-21","","Mostly Cloudy"
"1999-01-05 09:00","1999","01","05","09:00","-12.4","","-14.6","","84","","25","","17","","24.1","","100.22","","","","-20","","Mainly Clear"
"1999-01-05 10:00","1999","01","05","10:00","-11.6","","-14.2","","81","","26","","19","","24.1","","100.25","","","","-20","","Clear"
"1999-01-05 11:00","1999","01","05","11:00","-10.2","","-13.4","","77","","26","","22","","24.1","","100.32","","","","-18","","Clear"
"1999-01-05 12:00","1999","01","05","12:00","-8.8","","-12.2","","76","","25","","28","","24.1","","100.25","","","","-18","","Clear"
"1999-01-05 13:00","1999","01","05","13:00","-8.0","","-12.6","","69","","25","","28","","32.2","","100.19","","","","-17","","Clear"
"1999-01-05 14:00","1999","01","05","14:00","-8.4","","-14.0","","64","","24","","33","","32.2","","100.22","","","","-18","","Mainly Clear"
"1999-01-05 15:00","1999","01","05","15:00","-9.0","","-14.7","","63","","23","","22","","32.2","","100.19","","","","-17","","Mainly Clear"
"1999-01-05 16:00","1999","01","05","16:00","-9.2","","-14.9","","63","","24","","22","","32.2","","100.25","","","","-17","","Mainly Clear"
"1999-01-05 17:00","1999","01","05","17:00","-10.6","","-15.7","","66","","22","","19","","24.1","","100.29","","","","-18","","Mainly Clear"
"1999-01-05 18:00","1999","01","05","18:00","-12.3","","-16.7","","70","","21","","17","","24.1","","100.29","","","","-20","","Mainly Clear"
"1999-01-05 19:00","1999","01","05","19:00","-13.4","","-17.0","","74","","23","","13","","24.1","","100.29","","","","-20","","Mainly Clear"
"1999-01-05 20:00","1999","01","05","20:00","-13.3","","-17.1","","73","","22","","19","","24.1","","100.25","","","","-22","","Mainly Clear"
"1999-01-05 21:00","1999","01","05","21:00","-13.6","","-17.1","","75","","23","","22","","25.0","","100.22","","","","-23","","Mainly Clear"
"1999-01-05 22:00","1999","01","05","22:00","-14.3","","-17.3","","78","","23","","13","","19.3","","100.15","","","","-21","","Snow Showers"
"1999-01-05 23:00","1999","01","05","23:00","-14.0","","-16.9","","79","","23","","17","","24.1","","100.12","","","","-22","","Mainly Clear"
"1999-01-06 00:00","1999","01","06","00:00","-13.9","","-16.8","","79","","23","","17","","24.1","","100.09","","","","-22","","Cloudy"
"1999-01-06 01:00","1999","01","06","01:00","-13.6","","-16.3","","80","","22","","15","","16.1","","99.99","","","","-21","","Snow Showers"
"1999-01-06 02:00","1999","01","06","02:00","-13.2","","-16.3","","77","","23","","20","","12.9","","99.95","","","","-22","","Snow Showers"
"1999-01-06 03:00","1999","01","06","03:00","-12.7","","-15.6","","79","","22","","11","","16.1","","99.85","","","","-19","","Cloudy"
"1999-01-06 04:00","1999","01","06","04:00","-12.3","","-15.3","","78","","21","","11","","11.3","","99.75","","","","-18","","Snow Showers"
"1999-01-06 05:00","1999","01","06","05:00","-12.5","","-15.4","","79","","16","","7","","11.3","","99.55","","","","-17","","Snow Showers"
"1999-01-06 06:00","1999","01","06","06:00","-11.7","","-14.3","","81","","17","","4","","12.9","","99.45","","","","-14","","Snow Showers"
"1999-01-06 07:00","1999","01","06","07:00","-9.3","","-12.4","","78","","18","","17","","9.7","","99.39","","","","-16","","Snow"
"1999-01-06 08:00","1999","01","06","08:00","-8.4","","-11.1","","81","","18","","17","","4.0","","99.26","","","","-15","","Snow"
"1999-01-06 09:00","1999","01","06","09:00","-7.4","","-9.9","","82","","19","","19","","3.2","","99.12","","","","-14","","Snow"
"1999-01-06 10:00","1999","01","06","10:00","-6.6","","-8.6","","86","","19","","20","","2.0","","99.02","","","","-14","","Snow"
"1999-01-06 11:00","1999","01","06","11:00","-5.8","","-8.0","","84","","20","","22","","4.8","","98.99","","","","-13","","Snow"
"1999-01-06 12:00","1999","01","06","12:00","-5.4","","-7.6","","84","","19","","15","","2.4","","98.82","","","","-11","","Snow"
"1999-01-06 13:00","1999","01","06","13:00","-4.8","","-6.9","","85","","20","","19","","2.0","","98.69","","","","-11","","Snow"
"1999-01-06 14:00","1999","01","06","14:00","-4.1","","-6.8","","81","","22","","26","","4.8","","98.62","","","","-11","","Snow"
"1999-01-06 15:00","1999","01","06","15:00","-4.1","","-6.7","","82","","22","","22","","2.4","","98.56","","","","-11","","Snow"
"1999-01-06 16:00","1999","01","06","16:00","-3.8","","-6.1","","84","","22","","30","","4.0","","98.52","","","","-11","","Snow"
"1999-01-06 17:00","1999","01","06","17:00","-3.9","","-6.1","","85","","23","","28","","4.0","","98.49","","","","-11","","Snow"
"1999-01-06 18:00","1999","01","06","18:00","-3.3","","-5.8","","83","","22","","28","","6.4","","98.56","","","","-11","","Snow"
"1999-01-06 19:00","1999","01","06","19:00","-5.3","","-9.7","","71","","27","","37","","11.3","","98.72","","","","-14","","Snow"
"1999-01-06 20:00","1999","01","06","20:00","-6.9","","-11.7","","69","","26","","26","","24.1","","98.82","","","","-15","","Mainly Clear"
"1999-01-06 21:00","1999","01","06","21:00","-7.9","","-12.0","","72","","26","","28","","24.1","","98.89","","","","-17","","Mainly Clear"
"1999-01-06 22:00","1999","01","06","22:00","-7.7","","-11.5","","74","","26","","24","","24.1","","98.99","","","","-16","","Mainly Clear"
"1999-01-06 23:00","1999","01","06","23:00","-7.3","","-10.4","","78","","25","","22","","16.1","","99.09","","","","-15","","Snow Showers"
"1999-01-07 00:00","1999","01","07","00:00","-7.6","","-13.5","","63","","29","","24","","25.0","","99.26","","","","-16","","Mostly Cloudy"
"1999-01-07 01:00","1999","01","07","01:00","-8.9","","-15.4","","59","","28","","24","","25.0","","99.35","","","","-17","","Clear"
"1999-01-07 02:00","1999","01","07","02:00","-10.0","","-15.6","","64","","28","","30","","25.0","","99.45","","","","-20","","Clear"
"1999-01-07 03:00","1999","01","07","03:00","-11.6","","-16.0","","70","","27","","19","","25.0","","99.59","","","","-20","","Clear"
"1999-01-07 04:00","1999","01","07","04:00","-11.8","","-16.0","","71","","26","","22","","25.0","","99.69","","","","-21","","Clear"
"1999-01-07 05:00","1999","01","07","05:00","-12.5","","-16.3","","73","","25","","22","","25.0","","99.75","","","","-21","","Clear"
"1999-01-07 06:00","1999","01","07","06:00","-12.5","","-16.0","","75","","24","","17","","25.0","","99.85","","","","-20","","Clear"
"1999-01-07 07:00","1999","01","07","07:00","-12.1","","-15.6","","75","","24","","17","","25.0","","99.92","","","","-20","","Clear"
"1999-01-07 08:00","1999","01","07","08:00","-11.2","","-14.6","","76","","24","","22","","16.1","","100.02","","","","-20","","Snow"
"1999-01-07 09:00","1999","01","07","09:00","-11.6","","-15.6","","72","","25","","22","","40.2","","100.12","","","","-20","","Clear"
"1999-01-07 10:00","1999","01","07","10:00","-11.2","","-16.0","","68","","25","","24","","40.2","","100.19","","","","-20","","Clear"
"1999-01-07 11:00","1999","01","07","11:00","-10.6","","-15.8","","66","","25","","30","","40.2","","100.29","","","","-20","","Clear"
"1999-01-07 12:00","1999","01","07","12:00","-10.3","","-15.7","","65","","26","","35","","32.2","","100.29","","","","-21","","Mainly Clear"
"1999-01-07 13:00","1999","01","07","13:00","-10.4","","-16.4","","61","","25","","33","","32.2","","100.25","","","","-20","","Mainly Clear"
"1999-01-07 14:00","1999","01","07","14:00","-10.2","","-15.8","","63","","26","","33","","32.2","","100.29","","","","-20","","Mainly Clear"
"1999-01-07 15:00","1999","01","07","15:00","-10.2","","-16.0","","62","","26","","26","","32.2","","100.32","","","","-19","","Mainly Clear"
"1999-01-07 16:00","1999","01","07","16:00","-10.8","","-16.3","","64","","26","","30","","32.2","","100.39","","","","-21","","Mainly Clear"
"1999-01-07 17:00","1999","01","07","17:00","-11.4","","-16.6","","65","","26","","26","","32.2","","100.45","","","","-21","","Mainly Clear"
"1999-01-07 18:00","1999","01","07","18:00","-12.4","","-16.3","","73","","23","","24","","25.0","","100.52","","","","-22","","Mainly Clear"
"1999-01-07 19:00","1999","01","07","19:00","-12.6","","-16.5","","73","","23","","17","","25.0","","100.59","","","","-20","","Clear"
"1999-01-07 20:00","1999","01","07","20:00","-13.3","","-17.6","","70","","24","","15","","25.0","","100.65","","","","-21","","Clear"
"1999-01-07 21:00","1999","01","07","21:00","-13.0","","-18.2","","65","","22","","13","","25.0","","100.69","","","","-20","","Clear"
"1999-01-07 22:00","1999","01","07","22:00","-13.6","","-18.5","","66","","22","","20","","25.0","","100.72","","","","-22","","Snow Showers"
"1999-01-07 23:00","1999","01","07","23:00","-12.5","","-17.2","","68","","22","","24","","25.0","","100.72","","","","-22","","Snow Showers"
"1999-01-08 00:00","1999","01","08","00:00","-13.2","","-17.3","","71","","21","","11","","25.0","","100.72","","","","-19","","Mostly Cloudy"
"1999-01-08 01:00","1999","01","08","01:00","-13.8","","-17.8","","72","","23","","7","","25.0","","100.72","","","","-18","","Mainly Clear"
"1999-01-08 02:00","1999","01","08","02:00","-14.1","","-18.0","","72","","21","","4","","25.0","","100.72","","","","-17","","Mostly Cloudy"
"1999-01-08 03:00","1999","01","08","03:00","-14.0","","-17.6","","74","","27","","4","","25.0","","100.72","","","","-17","","Mostly Cloudy"
"1999-01-08 04:00","1999","01","08","04:00","-15.7","","-19.2","","74","","27","","7","","24.1","","100.69","","","","-21","","Mainly Clear"
"1999-01-08 05:00","1999","01","08","05:00","-16.0","","-18.7","","80","","28","","6","","24.1","","100.65","","","","-20","","Mostly Cloudy"
"1999-01-08 06:00","1999","01","08","06:00","-15.9","","-18.0","","84","","32","","4","","24.1","","100.59","","","","-19","","Mostly Cloudy"
"1999-01-08 07:00","1999","01","08","07:00","-15.6","","-17.9","","82","","2","","4","","19.3","","100.61","","","","-19","","Mostly Cloudy"
"1999-01-08 08:00","1999","01","08","08:00","-15.4","","-17.4","","85","","34","","4","","8.0","","100.59","","","","-18","","Haze"
"1999-01-08 09:00","1999","01","08","09:00","-14.8","","-16.6","","86","","36","","4","","8.0","","100.55","","","","-18","","Snow"
"1999-01-08 10:00","1999","01","08","10:00","-12.9","","-15.4","","81","","34","","4","","8.0","","100.45","","","","-16","","Haze"
"1999-01-08 11:00","1999","01","08","11:00","-11.4","","-14.0","","81","","36","","4","","8.0","","100.39","","","","-14","","Haze"
"1999-01-08 12:00","1999","01","08","12:00","-11.2","","-14.2","","78","","33","","6","","8.0","","100.29","","","","-15","","Haze"
"1999-01-08 13:00","1999","01","08","13:00","-10.2","","-13.8","","75","","34","","9","","12.9","","100.05","","","","-15","","Cloudy"
"1999-01-08 14:00","1999","01","08","14:00","-8.6","","-12.2","","75","","36","","9","","2.4","","99.92","","","","-13","","Snow"
"1999-01-08 15:00","1999","01","08","15:00","-7.5","","-9.8","","84","","5","","9","","1.2","","99.79","","","","-12","","Snow"
"1999-01-08 16:00","1999","01","08","16:00","-7.1","","-9.3","","84","","4","","15","","0.8","","99.69","","","","-13","","Moderate Snow"
"1999-01-08 17:00","1999","01","08","17:00","-7.1","","-8.9","","87","","4","","13","","1.6","","99.62","","","","-13","","Snow"
"1999-01-08 18:00","1999","01","08","18:00","-7.1","","-8.9","","87","","3","","17","","2.4","","99.52","","","","-14","","Snow"
"1999-01-08 19:00","1999","01","08","19:00","-7.1","","-9.0","","86","","3","","19","","2.8","","99.39","","","","-14","","Snow"
"1999-01-08 20:00","1999","01","08","20:00","-7.0","","-9.0","","86","","3","","13","","2.8","","99.32","","","","-13","","Snow"
"1999-01-08 21:00","1999","01","08","21:00","-6.9","","-8.8","","86","","2","","17","","2.4","","99.19","","","","-13","","Snow"
"1999-01-08 22:00","1999","01","08","22:00","-7.1","","-9.0","","86","","36","","15","","2.8","","99.06","","","","-13","","Snow"
"1999-01-08 23:00","1999","01","08","23:00","-7.3","","-9.6","","84","","36","","17","","2.8","","98.99","","","","-14","","Snow"
"1999-01-09 00:00","1999","01","09","00:00","-7.6","","-9.9","","84","","35","","19","","2.0","","98.92","","","","-15","","Snow"
"1999-01-09 01:00","1999","01","09","01:00","-8.0","","-10.1","","85","","34","","20","","2.0","","98.86","","","","-15","","Snow"
"1999-01-09 02:00","1999","01","09","02:00","-7.8","","-10.0","","84","","34","","20","","2.8","","98.82","","","","-15","","Snow"
"1999-01-09 03:00","1999","01","09","03:00","-8.1","","-10.4","","83","","34","","22","","2.0","","98.89","","","","-16","","Snow"
"1999-01-09 04:00","1999","01","09","04:00","-8.4","","-10.4","","85","","34","","19","","2.0","","98.86","","","","-16","","Snow"
"1999-01-09 05:00","1999","01","09","05:00","-8.5","","-10.6","","85","","34","","19","","2.8","","98.86","","","","-16","","Snow"
"1999-01-09 06:00","1999","01","09","06:00","-8.5","","-10.5","","85","","34","","15","","2.8","","98.86","","","","-15","","Snow"
"1999-01-09 07:00","1999","01","09","07:00","-8.5","","-10.5","","85","","33","","17","","2.8","","98.89","","","","-15","","Snow"
"1999-01-09 08:00","1999","01","09","08:00","-8.5","","-10.4","","86","","32","","13","","2.4","","98.92","","","","-14","","Snow"
"1999-01-09 09:00","1999","01","09","09:00","-8.3","","-10.3","","85","","32","","11","","4.8","","98.96","","","","-14","","Snow"
"1999-01-09 10:00","1999","01","09","10:00","-8.0","","-10.2","","84","","31","","11","","19.3","","98.99","","","","-13","","Snow"
"1999-01-09 11:00","1999","01","09","11:00","-7.2","","-10.2","","79","","31","","11","","19.3","","99.09","","","","-12","","Cloudy"
"1999-01-09 12:00","1999","01","09","12:00","-6.6","","-9.1","","82","","28","","6","","19.3","","99.09","","","","-10","","Cloudy"
"1999-01-09 13:00","1999","01","09","13:00","-5.1","","-8.8","","75","","27","","11","","19.3","","99.02","","","","-10","","Cloudy"
"1999-01-09 14:00","1999","01","09","14:00","-4.7","","-8.4","","75","","26","","11","","24.1","","99.06","","","","-9","","Cloudy"
"1999-01-09 15:00","1999","01","09","15:00","-4.8","","-8.5","","75","","28","","15","","4.8","","99.12","","","","-10","","Snow Showers"
"1999-01-09 16:00","1999","01","09","16:00","-6.7","","-10.4","","75","","32","","28","","24.1","","99.22","","","","-15","","Clear"
"1999-01-09 17:00","1999","01","09","17:00","-7.7","","-12.4","","69","","31","","19","","24.1","","99.35","","","","-15","","Mostly Cloudy"
"1999-01-09 18:00","1999","01","09","18:00","-9.3","","-14.5","","66","","30","","13","","25.0","","99.49","","","","-15","","Mainly Clear"
"1999-01-09 19:00","1999","01","09","19:00","-10.6","","-15.8","","66","","28","","19","","25.0","","99.59","","","","-18","","Clear"
"1999-01-09 20:00","1999","01","09","20:00","-12.7","","-16.0","","76","","26","","13","","25.0","","99.62","","","","-20","","Clear"
"1999-01-09 21:00","1999","01","09","21:00","-12.7","","-16.7","","72","","26","","9","","25.0","","99.65","","","","-18","","Mainly Clear"
"1999-01-09 22:00","1999","01","09","22:00","-12.4","","-16.2","","73","","28","","13","","25.0","","99.69","","","","-19","","Mainly Clear"
"1999-01-09 23:00","1999","01","09","23:00","-13.5","","-16.4","","79","","25","","7","","25.0","","99.69","","","","-18","","Mainly Clear"
"1999-01-10 00:00","1999","01","10","00:00","-14.5","","-17.0","","81","","24","","9","","25.0","","99.69","","","","-20","","Clear"
"1999-01-10 01:00","1999","01","10","01:00","-13.6","","-16.2","","81","","25","","15","","25.0","","99.62","","","","-21","","Clear"
"1999-01-10 02:00","1999","01","10","02:00","-13.2","","-15.9","","80","","25","","11","","25.0","","99.65","","","","-19","","Mainly Clear"
"1999-01-10 03:00","1999","01","10","03:00","-13.3","","-16.8","","75","","27","","15","","25.0","","99.69","","","","-21","","Clear"
"1999-01-10 04:00","1999","01","10","04:00","-13.5","","-16.6","","77","","26","","19","","25.0","","99.69","","","","-22","","Clear"
"1999-01-10 05:00","1999","01","10","05:00","-13.9","","-17.2","","76","","26","","9","","25.0","","99.69","","","","-20","","Clear"
"1999-01-10 06:00","1999","01","10","06:00","-15.6","","-17.6","","85","","25","","7","","25.0","","99.69","","","","-21","","Clear"
"1999-01-10 07:00","1999","01","10","07:00","-15.8","","-17.8","","85","","21","","4","","25.0","","99.69","","","","-19","","Clear"
"1999-01-10 08:00","1999","01","10","08:00","-15.1","","-17.7","","80","","22","","13","","25.0","","99.69","","","","-22","","Mostly Cloudy"
"1999-01-10 09:00","1999","01","10","09:00","-14.9","","-17.2","","83","","22","","13","","25.0","","99.69","","","","-22","","Mostly Cloudy"
"1999-01-10 10:00","1999","01","10","10:00","-13.4","","-16.2","","79","","23","","9","","32.2","","99.62","","","","-19","","Mostly Cloudy"
"1999-01-10 11:00","1999","01","10","11:00","-11.8","","-15.1","","76","","20","","7","","32.2","","99.55","","","","-16","","Cloudy"
"1999-01-10 12:00","1999","01","10","12:00","-10.9","","-14.5","","75","","20","","19","","24.1","","99.39","","","","-19","","Cloudy"
"1999-01-10 13:00","1999","01","10","13:00","-9.3","","-12.8","","76","","18","","26","","6.4","","99.19","","","","-18","","Snow"
"1999-01-10 14:00","1999","01","10","14:00","-8.6","","-12.1","","76","","18","","33","","4.8","","99.02","","","","-18","","Snow"
"1999-01-10 15:00","1999","01","10","15:00","-8.8","","-12.0","","78","","19","","24","","2.0","","98.92","","","","-17","","Snow"
"1999-01-10 16:00","1999","01","10","16:00","-9.0","","-11.6","","81","","19","","28","","2.8","","98.89","","","","-18","","Snow"
"1999-01-10 17:00","1999","01","10","17:00","-10.0","","-12.6","","81","","23","","30","","6.4","","98.89","","","","-20","","Snow Showers"
"1999-01-10 18:00","1999","01","10","18:00","-11.4","","-14.7","","77","","24","","28","","11.3","","98.99","","","","-21","","Cloudy"
"1999-01-10 19:00","1999","01","10","19:00","-11.6","","-15.0","","76","","24","","26","","11.3","","98.99","","","","-21","","Cloudy"
"1999-01-10 20:00","1999","01","10","20:00","-12.2","","-15.7","","75","","23","","19","","19.3","","99.02","","","","-20","","Mostly Cloudy"
"1999-01-10 21:00","1999","01","10","21:00","-12.2","","-15.9","","74","","23","","26","","19.3","","98.99","","","","-22","","Mostly Cloudy"
"1999-01-10 22:00","1999","01","10","22:00","-12.6","","-15.9","","76","","23","","24","","19.3","","98.99","","","","-22","","Mainly Clear"
"1999-01-10 23:00","1999","01","10","23:00","-12.5","","-15.9","","76","","23","","26","","24.1","","98.99","","","","-22","","Mainly Clear"
"1999-01-11 00:00","1999","01","11","00:00","-12.5","","-15.7","","77","","24","","30","","24.1","","99.02","","","","-23","","Clear"
"1999-01-11 01:00","1999","01","11","01:00","-12.8","","-15.9","","78","","24","","24","","24.1","","99.06","","","","-22","","Clear"
"1999-01-11 02:00","1999","01","11","02:00","-12.7","","-15.8","","78","","25","","26","","24.1","","99.09","","","","-22","","Clear"
"1999-01-11 03:00","1999","01","11","03:00","-12.1","","-15.6","","75","","25","","32","","24.1","","99.19","","","","-23","","Mainly Clear"
"1999-01-11 04:00","1999","01","11","04:00","-12.6","","-15.8","","77","","25","","24","","24.1","","99.29","","","","-22","","Mainly Clear"
"1999-01-11 05:00","1999","01","11","05:00","-14.1","","-17.0","","79","","24","","19","","24.1","","99.39","","","","-23","","Clear"
"1999-01-11 06:00","1999","01","11","06:00","-14.4","","-17.2","","79","","23","","22","","24.1","","99.45","","","","-24","","Clear"
"1999-01-11 07:00","1999","01","11","07:00","-16.2","","-18.3","","84","","26","","11","","24.1","","99.62","","","","-23","","Mainly Clear"
"1999-01-11 08:00","1999","01","11","08:00","-15.3","","-17.9","","80","","27","","15","","24.1","","99.75","","","","-23","","Mainly Clear"
"1999-01-11 09:00","1999","01","11","09:00","-14.8","","-17.9","","77","","1","","13","","6.4","","99.85","","","","-22","","Snow Showers"
"1999-01-11 10:00","1999","01","11","10:00","-15.5","","-19.2","","73","","35","","9","","3.6","","99.95","","","","-21","","Snow Showers"
"1999-01-11 11:00","1999","01","11","11:00","-15.2","","-21.7","","58","","3","","6","","16.1","","99.95","","","","-19","","Mainly Clear"
"1999-01-11 12:00","1999","01","11","12:00","-14.2","","-21.0","","56","","","","0","","19.3","","99.92","","","","","","Mainly Clear"
"1999-01-11 13:00","1999","01","11","13:00","-12.3","","-19.3","","56","","","","0","","19.3","","99.85","","","","","","Mainly Clear"
"1999-01-11 14:00","1999","01","11","14:00","-12.5","","-21.3","","48","","24","","22","","24.1","","99.79","","","","-21","","Mostly Cloudy"
"1999-01-11 15:00","1999","01","11","15:00","-12.8","","-21.4","","49","","24","","19","","24.1","","99.75","","","","-21","","Cloudy"
"1999-01-11 16:00","1999","01","11","16:00","-13.2","","-21.3","","51","","25","","13","","24.1","","99.69","","","","-20","","Cloudy"
"1999-01-11 17:00","1999","01","11","17:00","-13.2","","-20.4","","55","","20","","13","","4.8","","99.59","","","","-20","","Snow,Snow Grains"
"1999-01-11 18:00","1999","01","11","18:00","-13.2","","-19.3","","60","","21","","7","","6.4","","99.49","","","","-18","","Snow,Snow Grains"
"1999-01-11 19:00","1999","01","11","19:00","-12.8","","-18.0","","65","","19","","9","","6.4","","99.32","","","","-18","","Snow"
"1999-01-11 20:00","1999","01","11","20:00","-11.8","","-14.6","","80","","19","","7","","3.2","","99.19","","","","-16","","Snow"
"1999-01-11 21:00","1999","01","11","21:00","-10.8","","-12.6","","87","","18","","7","","1.6","","99.09","","","","-15","","Snow"
"1999-01-11 22:00","1999","01","11","22:00","-10.4","","-11.8","","89","","17","","4","","1.6","","98.92","","","","-13","","Snow"
"1999-01-11 23:00","1999","01","11","23:00","-9.5","","-11.5","","85","","11","","4","","1.6","","98.69","","","","-12","","Snow"
"1999-01-12 00:00","1999","01","12","00:00","-9.0","","-10.7","","87","","7","","4","","3.6","","98.56","","","","-11","","Snow"
"1999-01-12 01:00","1999","01","12","01:00","-9.5","","-11.0","","89","","34","","4","","2.4","","98.46","","","","-12","","Snow"
"1999-01-12 02:00","1999","01","12","02:00","-10.3","","-11.5","","91","","3","","2","","11.3","","98.39","","","","-11","","Snow"
"1999-01-12 03:00","1999","01","12","03:00","-10.1","","-11.8","","87","","32","","9","","3.6","","98.46","","","","-15","","Snow"
"1999-01-12 04:00","1999","01","12","04:00","-10.0","","-11.1","","92","","27","","4","","3.2","","98.49","","","","-12","","Snow"
"1999-01-12 05:00","1999","01","12","05:00","-9.8","","-11.2","","89","","","","0","","2.8","","98.56","","","","","","Snow"
"1999-01-12 06:00","1999","01","12","06:00","-9.1","","-10.4","","90","","26","","2","","4.8","","98.62","","","","-10","","Snow"
"1999-01-12 07:00","1999","01","12","07:00","-8.1","","-9.9","","87","","26","","15","","6.4","","98.79","","","","-14","","Snow"
"1999-01-12 08:00","1999","01","12","08:00","-7.6","","-9.6","","86","","26","","17","","12.9","","98.96","","","","-14","","Cloudy"
"1999-01-12 09:00","1999","01","12","09:00","-7.3","","-9.8","","82","","25","","13","","14.5","","99.06","","","","-13","","Mostly Cloudy"
"1999-01-12 10:00","1999","01","12","10:00","-8.2","","-10.6","","83","","24","","13","","12.9","","99.19","","","","-14","","Mainly Clear"
"1999-01-12 11:00","1999","01","12","11:00","-7.0","","-9.6","","82","","24","","17","","12.9","","99.29","","","","-13","","Mostly Cloudy"
"1999-01-12 12:00","1999","01","12","12:00","-5.7","","-8.5","","81","","26","","15","","14.5","","99.26","","","","-11","","Mostly Cloudy"
"1999-01-12 13:00","1999","01","12","13:00","-5.3","","-9.4","","73","","29","","17","","19.3","","99.26","","","","-11","","Mostly Cloudy"
"1999-01-12 14:00","1999","01","12","14:00","-4.8","","-9.0","","72","","28","","11","","24.1","","99.29","","","","-9","","Cloudy"
"1999-01-12 15:00","1999","01","12","15:00","-4.9","","-9.7","","69","","29","","7","","24.1","","99.35","","","","-8","","Cloudy"
"1999-01-12 16:00","1999","01","12","16:00","-5.0","","-9.7","","70","","32","","4","","4.0","","99.42","","","","-7","","Snow"
"1999-01-12 17:00","1999","01","12","17:00","-6.2","","-9.2","","79","","","","0","","4.8","","99.49","","","","","","Snow"
"1999-01-12 18:00","1999","01","12","18:00","-6.3","","-9.6","","77","","","","0","","4.8","","99.59","","","","","","Snow"
"1999-01-12 19:00","1999","01","12","19:00","-6.2","","-9.1","","80","","36","","7","","4.8","","99.62","","","","-10","","Snow"
"1999-01-12 20:00","1999","01","12","20:00","-6.0","","-7.9","","86","","3","","7","","2.0","","99.65","","","","-9","","Snow"
"1999-01-12 21:00","1999","01","12","21:00","-7.0","","-8.8","","87","","4","","15","","1.6","","99.65","","","","-13","","Snow"
"1999-01-12 22:00","1999","01","12","22:00","-8.7","","-11.0","","83","","36","","19","","1.6","","99.69","","","","-16","","Snow"
"1999-01-12 23:00","1999","01","12","23:00","-9.2","","-11.5","","83","","35","","17","","1.2","","99.79","","","","-16","","Snow"
"1999-01-13 00:00","1999","01","13","00:00","-9.9","","-12.2","","83","","1","","22","","1.2","","99.79","","","","-18","","Snow"
"1999-01-13 01:00","1999","01","13","01:00","-10.0","","-12.5","","82","","1","","19","","1.2","","99.79","","","","-18","","Snow"
"1999-01-13 02:00","1999","01","13","02:00","-11.1","","-13.2","","84","","36","","17","","1.2","","99.82","","","","-19","","Snow"
"1999-01-13 03:00","1999","01","13","03:00","-11.1","","-13.5","","82","","1","","17","","1.2","","99.92","","","","-19","","Snow"
"1999-01-13 04:00","1999","01","13","04:00","-11.9","","-14.1","","84","","35","","20","","1.0","","99.99","","","","-20","","Snow"
"1999-01-13 05:00","1999","01","13","05:00","-12.2","","-14.4","","84","","35","","20","","1.0","","100.09","","","","-21","","Snow"
"1999-01-13 06:00","1999","01","13","06:00","-12.7","","-14.9","","84","","35","","20","","1.2","","100.22","","","","-21","","Snow"
"1999-01-13 07:00","1999","01","13","07:00","-13.4","","-15.9","","81","","35","","22","","2.8","","100.35","","","","-23","","Snow"
"1999-01-13 08:00","1999","01","13","08:00","-14.5","","-17.5","","78","","1","","22","","14.5","","100.42","","","","-24","","Mostly Cloudy"
"1999-01-13 09:00","1999","01","13","09:00","-16.2","","-19.3","","77","","35","","24","","19.3","","100.62","","","","-27","","Mostly Cloudy"
"1999-01-13 10:00","1999","01","13","10:00","-17.8","","-21.3","","74","","35","","32","","24.1","","100.79","","","","-30","","Mainly Clear"
"1999-01-13 11:00","1999","01","13","11:00","-18.1","","-22.2","","70","","35","","32","","24.1","","100.95","","","","-30","","Mainly Clear"
"1999-01-13 12:00","1999","01","13","12:00","-18.0","","-23.1","","64","","36","","22","","24.1","","100.99","","","","-28","","Mainly Clear"
"1999-01-13 13:00","1999","01","13","13:00","-18.1","","-28.3","","40","","36","","22","","32.2","","101.02","","","","-29","","Mainly Clear"
"1999-01-13 14:00","1999","01","13","14:00","-18.4","","-26.9","","47","","36","","19","","32.2","","101.05","","","","-28","","Mainly Clear"
"1999-01-13 15:00","1999","01","13","15:00","-18.4","","-26.8","","48","","36","","30","","32.2","","101.05","","","","-30","","Mostly Cloudy"
"1999-01-13 16:00","1999","01","13","16:00","-18.0","","-26.4","","48","","1","","22","","24.1","","101.22","","","","-28","","Mostly Cloudy"
"1999-01-13 17:00","1999","01","13","17:00","-18.4","","-26.6","","49","","36","","20","","24.1","","101.32","","","","-28","","Mostly Cloudy"
"1999-01-13 18:00","1999","01","13","18:00","-18.7","","-27.2","","47","","2","","19","","24.1","","101.49","","","","-29","","Mainly Clear"
"1999-01-13 19:00","1999","01","13","19:00","-19.1","","-27.7","","47","","3","","22","","25.0","","101.55","","","","-30","","Mostly Cloudy"
"1999-01-13 20:00","1999","01","13","20:00","-19.8","","-29.4","","42","","4","","24","","25.0","","101.65","","","","-31","","Mainly Clear"
"1999-01-13 21:00","1999","01","13","21:00","-20.4","","-30.0","","42","","4","","26","","25.0","","101.69","","","","-32","","Mostly Cloudy"
"1999-01-13 22:00","1999","01","13","22:00","-21.3","","-30.8","","42","","4","","24","","25.0","","101.69","","","","-33","","Mainly Clear"
"1999-01-13 23:00","1999","01","13","23:00","-21.9","","-31.0","","44","","3","","30","","16.1","","101.69","","","","-35","","Mainly Clear"
"1999-01-14 00:00","1999","01","14","00:00","-22.4","","-31.3","","44","","4","","26","","16.1","","101.65","","","","-35","","Mostly Cloudy"
"1999-01-14 01:00","1999","01","14","01:00","-22.4","","-30.7","","47","","3","","32","","11.3","","101.65","","","","-36","","Mostly Cloudy"
"1999-01-14 02:00","1999","01","14","02:00","-22.6","","-30.6","","48","","4","","33","","11.3","","101.59","","","","-36","","Cloudy"
"1999-01-14 03:00","1999","01","14","03:00","-23.0","","-30.6","","50","","3","","22","","11.3","","101.59","","","","-35","","Cloudy"
"1999-01-14 04:00","1999","01","14","04:00","-23.0","","-30.2","","52","","3","","30","","11.3","","101.52","","","","-36","","Cloudy"
"1999-01-14 05:00","1999","01","14","05:00","-23.3","","-30.2","","53","","3","","32","","11.3","","101.49","","","","-37","","Cloudy"
"1999-01-14 06:00","1999","01","14","06:00","-23.4","","-30.6","","52","","3","","32","","9.7","","101.49","","","","-37","","Snow"
"1999-01-14 07:00","1999","01","14","07:00","-23.6","","-30.8","","52","","4","","35","","11.3","","101.39","","","","-38","","Snow"
"1999-01-14 08:00","1999","01","14","08:00","-23.4","","-30.6","","52","","3","","30","","16.1","","101.42","","","","-37","","Cloudy"
"1999-01-14 09:00","1999","01","14","09:00","-23.3","","-30.5","","52","","3","","30","","11.3","","101.29","","","","-37","","Cloudy"
"1999-01-14 10:00","1999","01","14","10:00","-22.4","","-29.3","","53","","3","","19","","11.3","","101.25","","","","-33","","Cloudy"
"1999-01-14 11:00","1999","01","14","11:00","-21.2","","-27.8","","55","","3","","20","","6.4","","101.09","","","","-32","","Snow"
"1999-01-14 12:00","1999","01","14","12:00","-19.8","","-24.9","","64","","5","","20","","2.0","","100.92","","","","-30","","Snow"
"1999-01-14 13:00","1999","01","14","13:00","-19.5","","-24.5","","64","","3","","26","","1.2","","100.82","","","","-31","","Snow"
"1999-01-14 14:00","1999","01","14","14:00","-17.9","","-22.1","","70","","5","","26","","1.6","","100.55","","","","-29","","Snow"
"1999-01-14 15:00","1999","01","14","15:00","-17.4","","-21.5","","70","","4","","30","","0.8","","100.42","","","","-29","","Snow,Blowing Snow"
"1999-01-14 16:00","1999","01","14","16:00","-17.0","","-21.0","","71","","2","","22","","0.6","","100.42","","","","-27","","Moderate Snow,Blowing Snow"
"1999-01-14 17:00","1999","01","14","17:00","-16.7","","-20.4","","73","","2","","26","","0.6","","100.32","","","","-28","","Moderate Snow"
"1999-01-14 18:00","1999","01","14","18:00","-16.2","","-19.5","","76","","3","","20","","1.2","","100.32","","","","-26","","Snow"
"1999-01-14 19:00","1999","01","14","19:00","-15.8","","-18.9","","77","","3","","22","","1.2","","100.19","","","","-26","","Snow"
"1999-01-14 20:00","1999","01","14","20:00","-15.0","","-18.3","","76","","2","","19","","4.0","","100.12","","","","-24","","Snow Grains"
"1999-01-14 21:00","1999","01","14","21:00","-14.9","","-17.8","","78","","2","","17","","3.2","","99.99","","","","-23","","Snow"
"1999-01-14 22:00","1999","01","14","22:00","-14.1","","-16.5","","82","","3","","19","","2.4","","99.95","","","","-23","","Snow"
"1999-01-14 23:00","1999","01","14","23:00","-13.3","","-14.8","","88","","2","","15","","6.4","","99.79","","","","-21","","Snow"
"1999-01-15 00:00","1999","01","15","00:00","-13.0","","-14.7","","87","","36","","15","","4.8","","99.72","","","","-20","","Snow Grains"
"1999-01-15 01:00","1999","01","15","01:00","-14.1","","-15.9","","86","","34","","15","","3.2","","99.59","","","","-22","","Snow"
"1999-01-15 02:00","1999","01","15","02:00","-14.9","","-17.1","","83","","34","","19","","1.6","","99.49","","","","-24","","Snow"
"1999-01-15 03:00","1999","01","15","03:00","-15.1","","-17.6","","81","","34","","20","","1.6","","99.45","","","","-24","","Snow"
"1999-01-15 04:00","1999","01","15","04:00","-15.1","","-17.7","","80","","33","","20","","1.6","","99.32","","","","-24","","Snow"
"1999-01-15 05:00","1999","01","15","05:00","-15.2","","-18.0","","79","","33","","26","","1.6","","99.26","","","","-26","","Snow"
"1999-01-15 06:00","1999","01","15","06:00","-14.9","","-17.8","","78","","32","","22","","1.6","","99.26","","","","-24","","Snow"
"1999-01-15 07:00","1999","01","15","07:00","-14.6","","-17.3","","80","","32","","28","","2.0","","99.29","","","","-25","","Snow"
"1999-01-15 08:00","1999","01","15","08:00","-14.3","","-16.9","","81","","32","","22","","2.0","","99.29","","","","-24","","Snow"
"1999-01-15 09:00","1999","01","15","09:00","-14.1","","-16.8","","80","","32","","19","","2.0","","99.26","","","","-23","","Snow"
"1999-01-15 10:00","1999","01","15","10:00","-13.6","","-16.1","","81","","31","","17","","2.0","","99.22","","","","-22","","Snow"
"1999-01-15 11:00","1999","01","15","11:00","-11.7","","-14.7","","78","","30","","15","","2.8","","99.26","","","","-19","","Snow"
"1999-01-15 12:00","1999","01","15","12:00","-10.7","","-13.4","","80","","28","","11","","6.4","","99.16","","","","-16","","Snow"
"1999-01-15 13:00","1999","01","15","13:00","-9.1","","-12.2","","78","","26","","19","","12.9","","99.09","","","","-17","","Snow"
"1999-01-15 14:00","1999","01","15","14:00","-8.4","","-12.9","","70","","27","","15","","19.3","","99.09","","","","-15","","Mostly Cloudy"
"1999-01-15 15:00","1999","01","15","15:00","-8.1","","-12.8","","69","","26","","22","","19.3","","99.16","","","","-16","","Mostly Cloudy"
"1999-01-15 16:00","1999","01","15","16:00","-8.6","","-13.2","","69","","26","","24","","24.1","","99.16","","","","-17","","Mostly Cloudy"
"1999-01-15 17:00","1999","01","15","17:00","-9.0","","-13.6","","69","","25","","19","","19.3","","99.16","","","","-16","","Mainly Clear"
"1999-01-15 18:00","1999","01","15","18:00","-10.4","","-14.0","","75","","24","","15","","19.3","","99.22","","","","-17","","Mostly Cloudy"
"1999-01-15 19:00","1999","01","15","19:00","-10.6","","-14.0","","76","","22","","15","","24.1","","99.22","","","","-17","","Mainly Clear"
"1999-01-15 20:00","1999","01","15","20:00","-12.0","","-14.9","","79","","22","","15","","24.1","","99.26","","","","-19","","Clear"
"1999-01-15 21:00","1999","01","15","21:00","-12.6","","-15.6","","78","","23","","13","","24.1","","99.22","","","","-19","","Clear"
"1999-01-15 22:00","1999","01","15","22:00","-13.3","","-16.0","","80","","22","","15","","24.1","","99.22","","","","-21","","Clear"
"1999-01-15 23:00","1999","01","15","23:00","-14.0","","-16.1","","84","","20","","7","","24.1","","99.12","","","","-19","","Mainly Clear"
"1999-01-16 00:00","1999","01","16","00:00","-14.2","","-16.7","","81","","17","","7","","19.3","","99.19","","","","-19","","Mainly Clear"
"1999-01-16 01:00","1999","01","16","01:00","-11.8","","-14.2","","82","","27","","4","","11.3","","99.09","","","","-14","","Snow"
"1999-01-16 02:00","1999","01","16","02:00","-10.0","","-12.0","","85","","19","","9","","9.7","","98.99","","","","-15","","Fog"
"1999-01-16 03:00","1999","01","16","03:00","-9.2","","-11.2","","85","","18","","11","","9.7","","98.99","","","","-15","","Fog"
"1999-01-16 04:00","1999","01","16","04:00","-8.8","","-10.8","","85","","16","","9","","9.7","","98.89","","","","-13","","Fog"
"1999-01-16 05:00","1999","01","16","05:00","-8.1","","-10.0","","86","","18","","11","","9.7","","98.79","","","","-13","","Fog"
"1999-01-16 06:00","1999","01","16","06:00","-7.0","","-8.9","","86","","18","","13","","8.0","","98.72","","","","-13","","Fog"
"1999-01-16 07:00","1999","01","16","07:00","-5.7","","-7.4","","88","","17","","11","","4.0","","98.56","","","","-10","","Snow,Fog"
"1999-01-16 08:00","1999","01","16","08:00","-4.6","","-6.1","","89","","19","","22","","6.4","","98.56","","","","-11","","Fog"
"1999-01-16 09:00","1999","01","16","09:00","-3.6","","-4.9","","91","","17","","11","","8.0","","98.42","","","","-8","","Fog"
"1999-01-16 10:00","1999","01","16","10:00","-2.1","","-3.6","","89","","20","","17","","9.7","","98.42","","","","-7","","Fog"
"1999-01-16 11:00","1999","01","16","11:00","-0.6","","-2.8","","85","","20","","24","","11.3","","98.32","","","","-7","","Cloudy"
"1999-01-16 12:00","1999","01","16","12:00","0.5","","-2.0","","83","","22","","28","","12.9","","98.26","","","","","","Cloudy"
"1999-01-16 13:00","1999","01","16","13:00","1.0","","-1.4","","84","","22","","28","","12.9","","98.22","","","","","","Cloudy"
"1999-01-16 14:00","1999","01","16","14:00","1.5","","-0.6","","86","","22","","26","","11.3","","98.22","","","","","","Cloudy"
"1999-01-16 15:00","1999","01","16","15:00","1.8","","-0.7","","83","","24","","28","","9.7","","98.26","","","","","","Haze"
"1999-01-16 16:00","1999","01","16","16:00","2.0","","-0.3","","85","","24","","32","","9.7","","98.39","","","","","","Haze"
"1999-01-16 17:00","1999","01","16","17:00","2.1","","-0.2","","85","","24","","33","","9.7","","98.42","","","","","","Haze"
"1999-01-16 18:00","1999","01","16","18:00","2.4","","-0.2","","83","","24","","33","","11.3","","98.56","","","","","","Cloudy"
"1999-01-16 19:00","1999","01","16","19:00","2.2","","-0.7","","81","","24","","33","","14.5","","98.62","","","","","","Mainly Clear"
"1999-01-16 20:00","1999","01","16","20:00","2.0","","-1.1","","80","","24","","33","","12.9","","98.72","","","","","","Mainly Clear"
"1999-01-16 21:00","1999","01","16","21:00","1.8","","-1.1","","81","","25","","30","","11.3","","98.86","","","","","","Mainly Clear"
"1999-01-16 22:00","1999","01","16","22:00","1.3","","-1.5","","82","","25","","28","","11.3","","98.96","","","","","","Mainly Clear"
"1999-01-16 23:00","1999","01","16","23:00","1.2","","-2.1","","79","","24","","28","","16.1","","99.09","","","","","","Mainly Clear"
"1999-01-17 00:00","1999","01","17","00:00","1.2","","-2.6","","76","","24","","28","","16.1","","99.16","","","","","","Clear"
"1999-01-17 01:00","1999","01","17","01:00","1.6","","-3.1","","71","","25","","30","","19.3","","99.29","","","","","","Clear"
"1999-01-17 02:00","1999","01","17","02:00","1.0","","-3.7","","71","","25","","17","","16.1","","99.45","","","","","","Clear"
"1999-01-17 03:00","1999","01","17","03:00","-0.7","","-4.3","","77","","25","","15","","16.1","","99.55","","","","-5","","Clear"
"1999-01-17 04:00","1999","01","17","04:00","-1.9","","-5.1","","79","","6","","4","","16.1","","99.59","","","","-3","","Clear"
"1999-01-17 05:00","1999","01","17","05:00","-3.4","","-7.0","","76","","14","","4","","16.1","","99.69","","","","-5","","Clear"
"1999-01-17 06:00","1999","01","17","06:00","-4.3","","-7.0","","81","","22","","4","","16.1","","99.82","","","","-6","","Mainly Clear"
"1999-01-17 07:00","1999","01","17","07:00","-3.9","","-7.0","","79","","27","","4","","16.1","","99.89","","","","-6","","Clear"
"1999-01-17 08:00","1999","01","17","08:00","-5.0","","-7.9","","80","","30","","6","","14.5","","99.92","","","","-8","","Clear"
"1999-01-17 09:00","1999","01","17","09:00","-4.0","","-6.2","","85","","28","","4","","12.9","","99.95","","","","-6","","Mainly Clear"
"1999-01-17 10:00","1999","01","17","10:00","-1.3","","-4.0","","82","","12","","4","","12.9","","99.99","","","","-3","","Mainly Clear"
"1999-01-17 11:00","1999","01","17","11:00","0.4","","-4.1","","72","","14","","6","","11.3","","100.05","","","","","","Mainly Clear"
"1999-01-17 12:00","1999","01","17","12:00","1.1","","-3.4","","72","","11","","9","","11.3","","100.05","","","","","","Mainly Clear"
"1999-01-17 13:00","1999","01","17","13:00","1.0","","-2.8","","76","","14","","13","","9.7","","100.05","","","","","","Haze"
"1999-01-17 14:00","1999","01","17","14:00","1.3","","-2.2","","77","","13","","9","","9.7","","99.99","","","","","","Haze"
"1999-01-17 15:00","1999","01","17","15:00","1.8","","-2.3","","74","","14","","7","","11.3","","99.95","","","","","","Mostly Cloudy"
"1999-01-17 16:00","1999","01","17","16:00","0.9","","-2.8","","76","","11","","6","","12.9","","99.89","","","","","","Mostly Cloudy"
"1999-01-17 17:00","1999","01","17","17:00","0.3","","-2.8","","80","","11","","6","","9.7","","99.82","","","","","","Haze"
"1999-01-17 18:00","1999","01","17","18:00","-0.6","","-3.6","","80","","9","","7","","9.7","","99.75","","","","-3","","Haze"
"1999-01-17 19:00","1999","01","17","19:00","-0.2","","-3.4","","79","","8","","11","","9.7","","99.69","","","","-4","","Haze"
"1999-01-17 20:00","1999","01","17","20:00","-0.2","","-2.8","","83","","9","","9","","9.7","","99.59","","","","-3","","Haze"
"1999-01-17 21:00","1999","01","17","21:00","1.4","","-1.8","","79","","9","","19","","16.1","","99.39","","","","","","Mostly Cloudy"
"1999-01-17 22:00","1999","01","17","22:00","1.4","","-1.6","","80","","9","","19","","19.3","","99.29","","","","","","Mainly Clear"
"1999-01-17 23:00","1999","01","17","23:00","1.7","","-2.0","","76","","9","","20","","24.1","","99.12","","","","","","Mainly Clear"
"1999-01-18 00:00","1999","01","18","00:00","2.6","","-1.8","","73","","9","","19","","24.1","","99.02","","","","","","Mostly Cloudy"
"1999-01-18 01:00","1999","01","18","01:00","3.0","","-1.8","","71","","12","","7","","24.1","","98.99","","","","","","Rain"
"1999-01-18 02:00","1999","01","18","02:00","2.0","","-0.9","","81","","10","","19","","9.7","","98.79","","","","","","Rain"
"1999-01-18 03:00","1999","01","18","03:00","1.6","","-0.1","","88","","9","","11","","8.0","","98.66","","","","","","Rain"
"1999-01-18 04:00","1999","01","18","04:00","1.8","","0.7","","92","","9","","17","","12.9","","98.39","","","","","","Mostly Cloudy"
"1999-01-18 05:00","1999","01","18","05:00","2.0","","1.1","","94","","7","","17","","11.3","","98.32","","","","","","Cloudy"
"1999-01-18 06:00","1999","01","18","06:00","1.9","","1.1","","94","","8","","17","","6.4","","98.19","","","","","","Rain"
"1999-01-18 07:00","1999","01","18","07:00","2.1","","1.3","","94","","9","","19","","6.4","","98.16","","","","","","Fog"
"1999-01-18 08:00","1999","01","18","08:00","3.3","","2.3","","93","","11","","20","","4.8","","98.12","","","","","","Rain,Fog"
"1999-01-18 09:00","1999","01","18","09:00","4.8","","3.6","","92","","17","","17","","9.7","","98.19","","","","","","Fog"
"1999-01-18 10:00","1999","01","18","10:00","5.2","","3.4","","88","","21","","24","","16.1","","98.19","","","","","","Cloudy"
"1999-01-18 11:00","1999","01","18","11:00","4.6","","3.0","","89","","21","","15","","16.1","","98.16","","","","","","Mostly Cloudy"
"1999-01-18 12:00","1999","01","18","12:00","4.2","","1.8","","84","","21","","28","","19.3","","98.09","","","","","","Cloudy"
"1999-01-18 13:00","1999","01","18","13:00","3.0","","0.4","","83","","22","","15","","19.3","","98.06","","","","","","Cloudy"
"1999-01-18 14:00","1999","01","18","14:00","2.4","","0.0","","84","","24","","17","","9.7","","98.09","","","","","","Rain,Snow,Fog"
"1999-01-18 15:00","1999","01","18","15:00","1.6","","-0.3","","87","","21","","13","","11.3","","98.06","","","","","","Cloudy"
"1999-01-18 16:00","1999","01","18","16:00","1.7","","-0.2","","87","","20","","19","","11.3","","98.12","","","","","","Cloudy"
"1999-01-18 17:00","1999","01","18","17:00","1.9","","-0.1","","87","","21","","17","","12.9","","98.09","","","","","","Mostly Cloudy"
"1999-01-18 18:00","1999","01","18","18:00","1.6","","-0.8","","84","","21","","15","","19.3","","98.06","","","","","","Mainly Clear"
"1999-01-18 19:00","1999","01","18","19:00","1.3","","-1.4","","82","","21","","17","","19.3","","98.02","","","","","","Mostly Cloudy"
"1999-01-18 20:00","1999","01","18","20:00","1.3","","-2.1","","78","","22","","22","","19.3","","98.06","","","","","","Mostly Cloudy"
"1999-01-18 21:00","1999","01","18","21:00","1.0","","-2.6","","77","","21","","24","","19.3","","98.02","","","","","","Mostly Cloudy"
"1999-01-18 22:00","1999","01","18","22:00","0.6","","-2.3","","81","","20","","17","","11.3","","97.99","","","","","","Snow"
"1999-01-18 23:00","1999","01","18","23:00","0.9","","-1.8","","82","","23","","24","","19.3","","97.96","","","","","","Cloudy"
"1999-01-19 00:00","1999","01","19","00:00","1.0","","-1.8","","82","","22","","24","","19.3","","97.99","","","","","","Snow"
"1999-01-19 01:00","1999","01","19","01:00","0.7","","-2.8","","77","","21","","28","","16.1","","97.99","","","","","","Snow"
"1999-01-19 02:00","1999","01","19","02:00","0.2","","-2.3","","83","","22","","30","","9.7","","97.99","","","","","","Snow"
"1999-01-19 03:00","1999","01","19","03:00","0.8","","-1.5","","85","","22","","35","","12.9","","98.09","","","","","","Snow"
"1999-01-19 04:00","1999","01","19","04:00","0.8","","-2.4","","79","","23","","43","","16.1","","98.12","","","","","","Cloudy"
"1999-01-19 05:00","1999","01","19","05:00","0.6","","-3.0","","77","","23","","41","","19.3","","98.22","","","","","","Cloudy"
"1999-01-19 06:00","1999","01","19","06:00","0.1","","-3.0","","80","","23","","35","","11.3","","98.32","","","","","","Snow"
"1999-01-19 07:00","1999","01","19","07:00","-0.1","","-2.8","","82","","24","","33","","9.7","","98.42","","","","-7","","Snow"
"1999-01-19 08:00","1999","01","19","08:00","-0.2","","-3.0","","81","","24","","35","","9.7","","98.52","","","","-7","","Snow"
"1999-01-19 09:00","1999","01","19","09:00","-0.1","","-3.6","","77","","24","","37","","12.9","","98.59","","","","-7","","Snow"
"1999-01-19 10:00","1999","01","19","10:00","0.1","","-3.4","","77","","25","","30","","24.1","","98.76","","","","","","Cloudy"
"1999-01-19 11:00","1999","01","19","11:00","0.3","","-3.8","","74","","25","","33","","24.1","","98.89","","","","","","Snow"
"1999-01-19 12:00","1999","01","19","12:00","0.2","","-3.9","","74","","25","","35","","24.1","","98.96","","","","","","Cloudy"
"1999-01-19 13:00","1999","01","19","13:00","0.1","","-4.0","","74","","25","","30","","24.1","","98.99","","","","","","Cloudy"
"1999-01-19 14:00","1999","01","19","14:00","-0.1","","-4.0","","75","","25","","30","","24.1","","99.02","","","","-7","","Cloudy"
"1999-01-19 15:00","1999","01","19","15:00","-0.1","","-3.8","","76","","26","","37","","19.3","","99.06","","","","-7","","Cloudy"
"1999-01-19 16:00","1999","01","19","16:00","-0.2","","-4.1","","75","","26","","32","","19.3","","99.12","","","","-7","","Cloudy"
"1999-01-19 17:00","1999","01","19","17:00","-0.3","","-4.1","","75","","25","","26","","19.3","","99.22","","","","-6","","Cloudy"
"1999-01-19 18:00","1999","01","19","18:00","-0.5","","-4.2","","76","","25","","26","","24.1","","99.29","","","","-7","","Cloudy"
"1999-01-19 19:00","1999","01","19","19:00","-0.6","","-4.1","","77","","24","","20","","24.1","","99.35","","","","-6","","Cloudy"
"1999-01-19 20:00","1999","01","19","20:00","-0.7","","-4.1","","78","","25","","20","","24.1","","99.39","","","","-6","","Cloudy"
"1999-01-19 21:00","1999","01","19","21:00","-0.6","","-4.1","","77","","24","","19","","24.1","","99.42","","","","-6","","Cloudy"
"1999-01-19 22:00","1999","01","19","22:00","-0.6","","-4.1","","77","","24","","17","","24.1","","99.49","","","","-6","","Cloudy"
"1999-01-19 23:00","1999","01","19","23:00","-0.7","","-4.3","","77","","25","","20","","24.1","","99.49","","","","-6","","Cloudy"
"1999-01-20 00:00","1999","01","20","00:00","-0.8","","-4.3","","77","","26","","15","","24.1","","99.55","","","","-5","","Cloudy"
"1999-01-20 01:00","1999","01","20","01:00","-0.8","","-4.7","","75","","27","","19","","24.1","","99.55","","","","-6","","Cloudy"
"1999-01-20 02:00","1999","01","20","02:00","-0.7","","-4.6","","75","","27","","19","","24.1","","99.52","","","","-6","","Cloudy"
"1999-01-20 03:00","1999","01","20","03:00","-0.8","","-4.1","","78","","27","","19","","19.3","","99.55","","","","-6","","Cloudy"
"1999-01-20 04:00","1999","01","20","04:00","-0.7","","-4.2","","77","","27","","13","","19.3","","99.55","","","","-5","","Cloudy"
"1999-01-20 05:00","1999","01","20","05:00","-0.9","","-4.1","","79","","26","","9","","19.3","","99.55","","","","-4","","Cloudy"
"1999-01-20 06:00","1999","01","20","06:00","-1.7","","-4.7","","80","","25","","13","","19.3","","99.59","","","","-6","","Mostly Cloudy"
"1999-01-20 07:00","1999","01","20","07:00","-2.0","","-5.2","","79","","24","","11","","19.3","","99.62","","","","-6","","Mainly Clear"
"1999-01-20 08:00","1999","01","20","08:00","-2.6","","-5.6","","80","","23","","6","","12.9","","99.69","","","","-5","","Mainly Clear"
"1999-01-20 09:00","1999","01","20","09:00","-2.8","","-5.6","","81","","25","","11","","16.1","","99.72","","","","-7","","Mainly Clear"
"1999-01-20 10:00","1999","01","20","10:00","-1.9","","-4.9","","80","","24","","15","","19.3","","99.72","","","","-7","","Mainly Clear"
"1999-01-20 11:00","1999","01","20","11:00","-1.0","","-4.3","","78","","24","","13","","19.3","","99.79","","","","-5","","Mainly Clear"
"1999-01-20 12:00","1999","01","20","12:00","0.1","","-3.2","","78","","26","","11","","24.1","","99.75","","","","","","Clear"
"1999-01-20 13:00","1999","01","20","13:00","1.0","","-2.8","","76","","25","","6","","24.1","","99.69","","","","","","Mainly Clear"
"1999-01-20 14:00","1999","01","20","14:00","1.1","","-3.4","","72","","22","","9","","32.2","","99.69","","","","","","Mostly Cloudy"
"1999-01-20 15:00","1999","01","20","15:00","1.4","","-4.0","","67","","21","","9","","24.1","","99.69","","","","","","Mostly Cloudy"
"1999-01-20 16:00","1999","01","20","16:00","1.4","","-4.6","","64","","21","","11","","24.1","","99.72","","","","","","Mostly Cloudy"
"1999-01-20 17:00","1999","01","20","17:00","0.6","","-4.4","","69","","20","","6","","19.3","","99.69","","","","","","Mostly Cloudy"
"1999-01-20 18:00","1999","01","20","18:00","-0.8","","-5.8","","69","","19","","6","","24.1","","99.69","","","","-3","","Mainly Clear"
"1999-01-20 19:00","1999","01","20","19:00","-1.2","","-6.0","","70","","18","","6","","24.1","","99.69","","","","-3","","Mainly Clear"
"1999-01-20 20:00","1999","01","20","20:00","-2.4","","-6.8","","72","","20","","9","","24.1","","99.69","","","","-6","","Mainly Clear"
"1999-01-20 21:00","1999","01","20","21:00","-2.8","","-7.0","","73","","","","0","","24.1","","99.69","","","","","","Mainly Clear"
"1999-01-20 22:00","1999","01","20","22:00","-3.0","","-7.0","","74","","","","0","","24.1","","99.69","","","","","","Mainly Clear"
"1999-01-20 23:00","1999","01","20","23:00","-4.7","","-7.8","","79","","","","0","","24.1","","99.65","","","","","","Mainly Clear"
"1999-01-21 00:00","1999","01","21","00:00","-3.9","","-7.8","","74","","","","0","","24.1","","99.65","","","","","","Mainly Clear"
"1999-01-21 01:00","1999","01","21","01:00","-3.6","","-7.5","","74","","","","0","","24.1","","99.65","","","","","","Clear"
"1999-01-21 02:00","1999","01","21","02:00","-4.0","","-7.9","","74","","","","0","","19.3","","99.65","","","","","","Mostly Cloudy"
"1999-01-21 03:00","1999","01","21","03:00","-4.0","","-7.6","","76","","","","0","","16.1","","99.65","","","","","","Mainly Clear"
"1999-01-21 04:00","1999","01","21","04:00","-6.4","","-9.7","","77","","","","0","","16.1","","99.69","","","","","","Mostly Cloudy"
"1999-01-21 05:00","1999","01","21","05:00","-5.4","","-8.5","","79","","","","0","","12.9","","99.72","","","","","","Cloudy"
"1999-01-21 06:00","1999","01","21","06:00","-4.1","","-6.5","","83","","","","0","","12.9","","99.72","","","","","","Cloudy"
"1999-01-21 07:00","1999","01","21","07:00","-2.2","","-5.2","","80","","","","0","","12.9","","99.69","","","","","","Cloudy"
"1999-01-21 08:00","1999","01","21","08:00","-1.6","","-4.0","","84","","21","","4","","11.3","","99.69","","","","-3","","Cloudy"
"1999-01-21 09:00","1999","01","21","09:00","-0.8","","-3.8","","80","","","","0","","8.0","","99.72","","","","","","Haze"
"1999-01-21 10:00","1999","01","21","10:00","0.3","","-2.4","","82","","","","0","","8.0","","99.75","","","","","","Haze"
"1999-01-21 11:00","1999","01","21","11:00","0.7","","-3.0","","76","","36","","4","","6.4","","99.79","","","","","","Haze"
"1999-01-21 12:00","1999","01","21","12:00","2.2","","-1.9","","74","","1","","4","","6.4","","99.75","","","","","","Haze"
"1999-01-21 13:00","1999","01","21","13:00","2.7","","-2.2","","70","","2","","4","","6.4","","99.69","","","","","","Haze"
"1999-01-21 14:00","1999","01","21","14:00","3.6","","-1.3","","70","","3","","9","","8.0","","99.69","","","","","","Haze"
"1999-01-21 15:00","1999","01","21","15:00","3.8","","-0.2","","75","","4","","7","","6.4","","99.69","","","","","","Haze"
"1999-01-21 16:00","1999","01","21","16:00","3.3","","-0.5","","76","","3","","9","","9.7","","99.79","","","","","","Haze"
"1999-01-21 17:00","1999","01","21","17:00","2.9","","-0.9","","76","","5","","9","","11.3","","99.82","","","","","","Mostly Cloudy"
"1999-01-21 18:00","1999","01","21","18:00","3.0","","-0.4","","78","","4","","6","","12.9","","99.89","","","","","","Mostly Cloudy"
"1999-01-21 19:00","1999","01","21","19:00","2.9","","-0.9","","76","","5","","7","","12.9","","99.95","","","","","","Mostly Cloudy"
"1999-01-21 20:00","1999","01","21","20:00","2.3","","-1.3","","77","","7","","13","","11.3","","100.09","","","","","","Mostly Cloudy"
"1999-01-21 21:00","1999","01","21","21:00","1.8","","-0.6","","84","","7","","13","","11.3","","100.02","","","","","","Cloudy"
"1999-01-21 22:00","1999","01","21","22:00","1.6","","-0.6","","85","","7","","13","","11.3","","100.09","","","","","","Cloudy"
"1999-01-21 23:00","1999","01","21","23:00","0.6","","-2.8","","78","","6","","13","","19.3","","100.12","","","","","","Clear"
"1999-01-22 00:00","1999","01","22","00:00","-0.1","","-3.2","","80","","8","","13","","19.3","","100.12","","","","-4","","Mostly Cloudy"
"1999-01-22 01:00","1999","01","22","01:00","-0.2","","-3.4","","79","","8","","13","","19.3","","100.19","","","","-4","","Cloudy"
"1999-01-22 02:00","1999","01","22","02:00","-0.6","","-3.7","","80","","8","","15","","16.1","","100.19","","","","-5","","Cloudy"
"1999-01-22 03:00","1999","01","22","03:00","-0.1","","-3.1","","80","","6","","11","","16.1","","100.25","","","","-4","","Cloudy"
"1999-01-22 04:00","1999","01","22","04:00","0.2","","-2.7","","81","","7","","15","","16.1","","100.22","","","","","","Cloudy"
"1999-01-22 05:00","1999","01","22","05:00","0.2","","-2.5","","82","","9","","22","","12.9","","100.15","","","","","","Cloudy"
"1999-01-22 06:00","1999","01","22","06:00","-0.1","","-2.7","","83","","7","","22","","12.9","","100.12","","","","-6","","Cloudy"
"1999-01-22 07:00","1999","01","22","07:00","-0.2","","-2.7","","83","","9","","20","","12.9","","100.19","","","","-5","","Cloudy"
"1999-01-22 08:00","1999","01","22","08:00","0.0","","-2.4","","84","","8","","28","","6.4","","100.15","","","","-6","","Freezing Rain,Haze"
"1999-01-22 09:00","1999","01","22","09:00","0.1","","-1.8","","87","","8","","24","","6.4","","100.09","","","","","","Freezing Rain,Fog"
"1999-01-22 10:00","1999","01","22","10:00","0.2","","-1.6","","88","","8","","22","","6.4","","100.02","","","","","","Rain,Fog"
"1999-01-22 11:00","1999","01","22","11:00","0.4","","-1.0","","90","","9","","19","","4.8","","99.99","","","","","","Rain,Fog"
"1999-01-22 12:00","1999","01","22","12:00","0.4","","-0.8","","92","","9","","24","","9.7","","99.75","","","","","","Rain,Fog"
"1999-01-22 13:00","1999","01","22","13:00","0.8","","-0.4","","92","","9","","37","","8.0","","99.59","","","","","","Rain,Fog"
"1999-01-22 14:00","1999","01","22","14:00","0.8","","-0.2","","93","","9","","33","","4.8","","99.59","","","","","","Rain,Fog"
"1999-01-22 15:00","1999","01","22","15:00","0.9","","0.2","","95","","9","","24","","2.0","","99.52","","","","","","Rain,Fog"
"1999-01-22 16:00","1999","01","22","16:00","1.5","","1.1","","97","","9","","26","","2.4","","99.55","","","","","","Rain,Fog"
"1999-01-22 17:00","1999","01","22","17:00","2.0","","1.4","","96","","9","","19","","2.8","","99.59","","","","","","Fog"
"1999-01-22 18:00","1999","01","22","18:00","2.1","","1.5","","96","","9","","19","","4.0","","99.65","","","","","","Fog"
"1999-01-22 19:00","1999","01","22","19:00","2.3","","2.0","","98","","9","","19","","4.0","","99.62","","","","","","Fog"
"1999-01-22 20:00","1999","01","22","20:00","2.3","","1.9","","97","","9","","13","","4.0","","99.62","","","","","","Fog"
"1999-01-22 21:00","1999","01","22","21:00","2.7","","2.3","","97","","9","","15","","4.0","","99.59","","","","","","Drizzle,Fog"
"1999-01-22 22:00","1999","01","22","22:00","2.5","","2.3","","99","","10","","6","","4.0","","99.59","","","","","","Fog"
"1999-01-22 23:00","1999","01","22","23:00","2.7","","2.0","","95","","8","","9","","4.0","","99.55","","","","","","Rain,Fog"
"1999-01-23 00:00","1999","01","23","00:00","2.6","","2.4","","99","","9","","7","","4.8","","99.52","","","","","","Fog"
"1999-01-23 01:00","1999","01","23","01:00","2.7","","2.4","","98","","8","","6","","4.8","","99.45","","","","","","Fog"
"1999-01-23 02:00","1999","01","23","02:00","2.7","","2.4","","98","","9","","4","","8.0","","99.39","","","","","","Fog"
"1999-01-23 03:00","1999","01","23","03:00","2.8","","2.6","","99","","6","","7","","6.4","","99.39","","","","","","Fog"
"1999-01-23 04:00","1999","01","23","04:00","3.0","","2.9","","99","","6","","7","","6.4","","99.35","","","","","","Fog"
"1999-01-23 05:00","1999","01","23","05:00","2.7","","2.7","","100","","26","","4","","6.4","","99.39","","","","","","Rain,Fog"
"1999-01-23 06:00","1999","01","23","06:00","3.5","","2.6","","94","","6","","11","","4.8","","99.26","","","","","","Rain,Fog"
"1999-01-23 07:00","1999","01","23","07:00","3.9","","3.3","","96","","10","","11","","2.4","","99.29","","","","","","Rain,Fog"
"1999-01-23 08:00","1999","01","23","08:00","3.4","","2.7","","95","","9","","17","","0.4","","99.22","","","","","","Rain,Fog"
"1999-01-23 09:00","1999","01","23","09:00","5.0","","4.1","","94","","11","","15","","0.0","","99.19","","","","","","Rain,Fog"
"1999-01-23 10:00","1999","01","23","10:00","6.5","","6.2","","98","","13","","20","","2.8","","99.12","","","","","","Rain,Fog"
"1999-01-23 11:00","1999","01","23","11:00","6.6","","6.1","","97","","12","","22","","4.0","","99.06","","","","","","Rain,Fog"
"1999-01-23 12:00","1999","01","23","12:00","6.5","","6.1","","97","","13","","19","","6.4","","98.92","","","","","","Rain,Fog"
"1999-01-23 13:00","1999","01","23","13:00","6.5","","6.5","","100","","16","","7","","6.4","","98.79","","","","","","Fog"
"1999-01-23 14:00","1999","01","23","14:00","5.9","","5.9","","100","","9","","15","","9.7","","98.72","","","","","","Fog"
"1999-01-23 15:00","1999","01","23","15:00","7.2","","5.8","","91","","13","","17","","11.3","","98.69","","","","","","Rain"
"1999-01-23 16:00","1999","01","23","16:00","8.3","","7.2","","93","","16","","13","","19.3","","98.66","","","","","","Rain"
"1999-01-23 17:00","1999","01","23","17:00","7.7","","6.2","","90","","16","","9","","19.3","","98.62","","","","","","Rain"
"1999-01-23 18:00","1999","01","23","18:00","8.1","","6.5","","90","","14","","13","","16.1","","98.56","","","","","","Mostly Cloudy"
"1999-01-23 19:00","1999","01","23","19:00","7.5","","6.0","","90","","17","","9","","24.1","","98.49","","","","","","Mostly Cloudy"
"1999-01-23 20:00","1999","01","23","20:00","8.8","","7.5","","92","","18","","11","","24.1","","98.49","","","","","","Cloudy"
"1999-01-23 21:00","1999","01","23","21:00","8.2","","7.1","","93","","20","","15","","8.0","","98.42","","","","","","Rain,Fog"
"1999-01-23 22:00","1999","01","23","22:00","7.0","","6.4","","96","","20","","13","","12.9","","98.36","","","","","","Rain"
"1999-01-23 23:00","1999","01","23","23:00","8.2","","8.0","","99","","22","","19","","14.5","","98.39","","","","","","Rain"
"1999-01-24 00:00","1999","01","24","00:00","7.2","","6.3","","94","","20","","15","","24.1","","98.39","","","","","","Mostly Cloudy"
"1999-01-24 01:00","1999","01","24","01:00","7.2","","6.5","","95","","21","","13","","24.1","","98.39","","","","","","Mostly Cloudy"
"1999-01-24 02:00","1999","01","24","02:00","6.0","","5.0","","93","","24","","15","","24.1","","98.39","","","","","","Mainly Clear"
"1999-01-24 03:00","1999","01","24","03:00","4.4","","1.9","","84","","26","","28","","24.1","","98.46","","","","","","Mostly Cloudy"
"1999-01-24 04:00","1999","01","24","04:00","3.6","","1.2","","84","","25","","19","","24.1","","98.56","","","","","","Cloudy"
"1999-01-24 05:00","1999","01","24","05:00","3.1","","0.4","","82","","26","","26","","24.1","","98.69","","","","","","Cloudy"
"1999-01-24 06:00","1999","01","24","06:00","2.5","","0.0","","84","","25","","28","","24.1","","98.79","","","","","","Mostly Cloudy"
"1999-01-24 07:00","1999","01","24","07:00","2.3","","-0.4","","82","","25","","30","","24.1","","98.79","","","","","","Cloudy"
"1999-01-24 08:00","1999","01","24","08:00","2.5","","-0.3","","82","","24","","22","","24.1","","98.89","","","","","","Cloudy"
"1999-01-24 09:00","1999","01","24","09:00","2.5","","-0.4","","81","","24","","22","","19.3","","98.92","","","","","","Cloudy"
"1999-01-24 10:00","1999","01","24","10:00","2.3","","-0.9","","79","","25","","26","","24.1","","99.06","","","","","","Cloudy"
"1999-01-24 11:00","1999","01","24","11:00","2.1","","-1.9","","75","","26","","30","","19.3","","99.16","","","","","","Snow"
"1999-01-24 12:00","1999","01","24","12:00","1.6","","-2.7","","73","","27","","37","","24.1","","99.16","","","","","","Cloudy"
"1999-01-24 13:00","1999","01","24","13:00","1.0","","-4.5","","67","","27","","30","","24.1","","99.19","","","","","","Cloudy"
"1999-01-24 14:00","1999","01","24","14:00","0.7","","-4.1","","70","","27","","37","","24.1","","99.22","","","","","","Cloudy"
"1999-01-24 15:00","1999","01","24","15:00","0.5","","-5.5","","64","","29","","37","","32.2","","99.22","","","","","","Cloudy"
"1999-01-24 16:00","1999","01","24","16:00","0.2","","-5.5","","65","","28","","39","","32.2","","99.42","","","","","","Cloudy"
"1999-01-24 17:00","1999","01","24","17:00","-0.1","","-5.8","","65","","28","","28","","32.2","","99.42","","","","-6","","Mostly Cloudy"
"1999-01-24 18:00","1999","01","24","18:00","-0.2","","-5.4","","68","","27","","26","","25.0","","99.59","","","","-6","","Cloudy"
"1999-01-24 19:00","1999","01","24","19:00","-0.1","","-5.5","","67","","27","","28","","25.0","","99.62","","","","-6","","Cloudy"
"1999-01-24 20:00","1999","01","24","20:00","-0.1","","-5.3","","68","","27","","26","","25.0","","99.69","","","","-6","","Cloudy"
"1999-01-24 21:00","1999","01","24","21:00","-0.2","","-5.1","","69","","27","","22","","25.0","","99.72","","","","-6","","Cloudy"
"1999-01-24 22:00","1999","01","24","22:00","-0.1","","-5.2","","68","","29","","19","","25.0","","99.69","","","","-5","","Cloudy"
"1999-01-24 23:00","1999","01","24","23:00","-0.2","","-5.4","","68","","28","","20","","25.0","","99.79","","","","-5","","Cloudy"
"1999-01-25 00:00","1999","01","25","00:00","-0.3","","-5.5","","68","","28","","20","","25.0","","99.85","","","","-6","","Cloudy"
"1999-01-25 01:00","1999","01","25","01:00","-0.7","","-5.1","","72","","29","","19","","25.0","","99.89","","","","-6","","Cloudy"
"1999-01-25 02:00","1999","01","25","02:00","-0.8","","-5.1","","73","","27","","17","","25.0","","99.89","","","","-6","","Cloudy"
"1999-01-25 03:00","1999","01","25","03:00","-0.8","","-4.9","","74","","28","","11","","25.0","","99.89","","","","-5","","Cloudy"
"1999-01-25 04:00","1999","01","25","04:00","-0.9","","-4.7","","75","","27","","11","","25.0","","99.85","","","","-5","","Cloudy"
"1999-01-25 05:00","1999","01","25","05:00","-1.1","","-4.8","","76","","27","","7","","11.3","","99.89","","","","-4","","Snow"
"1999-01-25 06:00","1999","01","25","06:00","-1.9","","-4.6","","82","","26","","6","","3.6","","99.85","","","","-4","","Snow"
"1999-01-25 07:00","1999","01","25","07:00","-2.0","","-4.4","","84","","26","","4","","3.6","","99.89","","","","-3","","Snow"
"1999-01-25 08:00","1999","01","25","08:00","-1.9","","-4.2","","84","","28","","4","","1.6","","99.85","","","","-3","","Snow"
"1999-01-25 09:00","1999","01","25","09:00","-2.0","","-3.8","","87","","2","","6","","1.6","","99.92","","","","-4","","Snow"
"1999-01-25 10:00","1999","01","25","10:00","-2.0","","-3.6","","89","","36","","7","","1.6","","99.99","","","","-5","","Snow"
"1999-01-25 11:00","1999","01","25","11:00","-1.8","","-2.8","","93","","34","","6","","2.0","","100.09","","","","-4","","Snow"
"1999-01-25 12:00","1999","01","25","12:00","-2.0","","-3.2","","91","","1","","6","","2.4","","100.09","","","","-4","","Snow"
"1999-01-25 13:00","1999","01","25","13:00","-1.8","","-3.4","","89","","1","","9","","6.4","","100.15","","","","-5","","Snow"
"1999-01-25 14:00","1999","01","25","14:00","-2.0","","-5.2","","79","","34","","11","","24.1","","100.19","","","","-6","","Mostly Cloudy"
"1999-01-25 15:00","1999","01","25","15:00","-1.9","","-5.7","","75","","33","","9","","24.1","","100.19","","","","-5","","Mostly Cloudy"
"1999-01-25 16:00","1999","01","25","16:00","-1.3","","-5.9","","71","","1","","7","","24.1","","100.32","","","","-4","","Mostly Cloudy"
"1999-01-25 17:00","1999","01","25","17:00","-1.3","","-5.6","","73","","32","","4","","24.1","","100.42","","","","-3","","Mostly Cloudy"
"1999-01-25 18:00","1999","01","25","18:00","-1.7","","-6.1","","72","","35","","4","","24.1","","100.49","","","","-3","","Mostly Cloudy"
"1999-01-25 19:00","1999","01","25","19:00","-1.8","","-6.5","","70","","2","","4","","24.1","","100.59","","","","-3","","Mostly Cloudy"
"1999-01-25 20:00","1999","01","25","20:00","-1.6","","-6.4","","70","","36","","4","","24.1","","100.65","","","","-3","","Mostly Cloudy"
"1999-01-25 21:00","1999","01","25","21:00","-2.0","","-6.0","","74","","","","0","","24.1","","100.65","","","","","","Mainly Clear"
"1999-01-25 22:00","1999","01","25","22:00","-3.2","","-7.5","","72","","","","0","","24.1","","100.72","","","","","","Mostly Cloudy"
"1999-01-25 23:00","1999","01","25","23:00","-2.7","","-6.7","","74","","","","0","","24.1","","100.72","","","","","","Cloudy"
"1999-01-26 00:00","1999","01","26","00:00","-2.5","","-5.8","","78","","","","0","","24.1","","100.72","","","","","","Cloudy"
"1999-01-26 01:00","1999","01","26","01:00","-1.7","","-5.5","","75","","","","0","","24.1","","100.69","","","","","","Mostly Cloudy"
"1999-01-26 02:00","1999","01","26","02:00","-0.9","","-5.1","","73","","26","","13","","24.1","","100.75","","","","-5","","Cloudy"
"1999-01-26 03:00","1999","01","26","03:00","-1.1","","-5.2","","74","","24","","7","","24.1","","100.69","","","","-4","","Mostly Cloudy"
"1999-01-26 04:00","1999","01","26","04:00","-1.8","","-5.5","","76","","22","","11","","24.1","","100.65","","","","-6","","Cloudy"
"1999-01-26 05:00","1999","01","26","05:00","-1.9","","-5.2","","78","","20","","7","","19.3","","100.62","","","","-5","","Cloudy"
"1999-01-26 06:00","1999","01","26","06:00","-0.8","","-4.5","","76","","26","","19","","19.3","","100.59","","","","-6","","Cloudy"
"1999-01-26 07:00","1999","01","26","07:00","-0.9","","-4.9","","74","","26","","15","","16.1","","100.62","","","","-6","","Cloudy"
"1999-01-26 08:00","1999","01","26","08:00","-1.0","","-5.6","","71","","25","","28","","19.3","","100.65","","","","-8","","Cloudy"
"1999-01-26 09:00","1999","01","26","09:00","-0.9","","-5.4","","71","","25","","19","","16.1","","100.72","","","","-6","","Cloudy"
"1999-01-26 10:00","1999","01","26","10:00","-1.0","","-5.3","","73","","26","","19","","16.1","","100.72","","","","-6","","Cloudy"
"1999-01-26 11:00","1999","01","26","11:00","-1.1","","-5.3","","73","","26","","20","","19.3","","100.72","","","","-7","","Cloudy"
"1999-01-26 12:00","1999","01","26","12:00","-1.4","","-5.8","","72","","26","","28","","19.3","","100.69","","","","-8","","Cloudy"
"1999-01-26 13:00","1999","01","26","13:00","-0.9","","-5.5","","71","","26","","22","","19.3","","100.59","","","","-7","","Cloudy"
"1999-01-26 14:00","1999","01","26","14:00","-0.8","","-5.8","","69","","26","","26","","19.3","","100.52","","","","-7","","Mostly Cloudy"
"1999-01-26 15:00","1999","01","26","15:00","-0.6","","-5.4","","70","","25","","24","","24.1","","100.49","","","","-7","","Mostly Cloudy"
"1999-01-26 16:00","1999","01","26","16:00","-0.8","","-5.8","","69","","25","","15","","19.3","","100.52","","","","-5","","Mainly Clear"
"1999-01-26 17:00","1999","01","26","17:00","-1.2","","-6.4","","68","","24","","19","","19.3","","100.62","","","","-7","","Mainly Clear"
"1999-01-26 18:00","1999","01","26","18:00","-2.0","","-6.8","","70","","24","","15","","19.3","","100.62","","","","-7","","Mainly Clear"
"1999-01-26 19:00","1999","01","26","19:00","-2.4","","-6.6","","73","","23","","7","","19.3","","100.65","","","","-5","","Mostly Cloudy"
"1999-01-26 20:00","1999","01","26","20:00","-2.0","","-6.2","","73","","19","","6","","19.3","","100.59","","","","-4","","Mostly Cloudy"
"1999-01-26 21:00","1999","01","26","21:00","-2.6","","-6.6","","74","","22","","4","","19.3","","100.55","","","","-4","","Mostly Cloudy"
"1999-01-26 22:00","1999","01","26","22:00","-2.9","","-7.0","","73","","26","","4","","16.1","","100.52","","","","-4","","Mostly Cloudy"
"1999-01-26 23:00","1999","01","26","23:00","-3.7","","-7.2","","77","","19","","4","","12.9","","100.45","","","","-5","","Mainly Clear"
"1999-01-27 00:00","1999","01","27","00:00","-3.5","","-7.2","","75","","15","","4","","12.9","","100.42","","","","-5","","Mainly Clear"
"1999-01-27 01:00","1999","01","27","01:00","-4.3","","-7.1","","81","","19","","4","","11.3","","100.35","","","","-6","","Mainly Clear"
"1999-01-27 02:00","1999","01","27","02:00","-5.4","","-8.3","","80","","22","","4","","11.3","","100.32","","","","-7","","Mainly Clear"
"1999-01-27 03:00","1999","01","27","03:00","-4.8","","-7.2","","83","","","","0","","11.3","","100.29","","","","","","Mainly Clear"
"1999-01-27 04:00","1999","01","27","04:00","-6.6","","-9.2","","82","","28","","4","","8.0","","100.22","","","","-9","","Haze"
"1999-01-27 05:00","1999","01","27","05:00","-6.2","","-8.7","","82","","28","","4","","8.0","","100.22","","","","-8","","Haze"
"1999-01-27 06:00","1999","01","27","06:00","-5.0","","-6.7","","88","","36","","4","","6.4","","100.15","","","","-7","","Fog"
"1999-01-27 07:00","1999","01","27","07:00","-4.2","","-6.5","","84","","6","","4","","6.4","","99.99","","","","-6","","Haze"
"1999-01-27 08:00","1999","01","27","08:00","-3.0","","-5.4","","83","","11","","6","","3.6","","99.95","","","","-5","","Haze"
"1999-01-27 09:00","1999","01","27","09:00","-2.0","","-4.4","","84","","10","","11","","4.0","","99.82","","","","-6","","Haze"
"1999-01-27 10:00","1999","01","27","10:00","-0.8","","-3.2","","84","","8","","11","","4.0","","99.72","","","","-5","","Haze"
"1999-01-27 11:00","1999","01","27","11:00","0.0","","-2.3","","84","","10","","15","","6.4","","99.69","","","","-4","","Haze"
"1999-01-27 12:00","1999","01","27","12:00","0.3","","-2.2","","83","","9","","22","","8.0","","99.45","","","","","","Haze"
"1999-01-27 13:00","1999","01","27","13:00","0.4","","-1.7","","86","","9","","22","","8.0","","99.26","","","","","","Haze"
"1999-01-27 14:00","1999","01","27","14:00","0.3","","-1.9","","85","","9","","24","","8.0","","99.29","","","","","","Haze"
"1999-01-27 15:00","1999","01","27","15:00","0.2","","-2.2","","84","","7","","22","","8.0","","99.26","","","","","","Snow Pellets"
"1999-01-27 16:00","1999","01","27","16:00","-0.1","","-2.2","","86","","9","","24","","9.7","","99.19","","","","-6","","Haze"
"1999-01-27 17:00","1999","01","27","17:00","-0.2","","-2.4","","85","","9","","26","","9.7","","99.16","","","","-6","","Haze"
"1999-01-27 18:00","1999","01","27","18:00","-0.2","","-2.7","","83","","9","","20","","9.7","","99.22","","","","-5","","Haze"
"1999-01-27 19:00","1999","01","27","19:00","0.1","","-2.3","","84","","9","","19","","9.7","","99.26","","","","","","Haze"
"1999-01-27 20:00","1999","01","27","20:00","-0.1","","-2.3","","85","","9","","22","","9.7","","99.22","","","","-6","","Haze"
"1999-01-27 21:00","1999","01","27","21:00","-0.3","","-2.3","","86","","8","","20","","6.4","","99.12","","","","-6","","Freezing Drizzle,Snow"
"1999-01-27 22:00","1999","01","27","22:00","-0.4","","-2.1","","88","","9","","19","","8.0","","99.12","","","","-6","","Fog"
"1999-01-27 23:00","1999","01","27","23:00","-0.5","","-2.2","","88","","9","","17","","4.8","","99.12","","","","-5","","Freezing Rain,Fog"
"1999-01-28 00:00","1999","01","28","00:00","-0.8","","-2.3","","90","","8","","15","","4.8","","99.16","","","","-5","","Freezing Rain,Fog"
"1999-01-28 01:00","1999","01","28","01:00","-1.1","","-2.7","","89","","6","","9","","4.0","","99.19","","","","-4","","Freezing Drizzle,Fog"
"1999-01-28 02:00","1999","01","28","02:00","-1.6","","-3.2","","89","","7","","13","","4.8","","99.22","","","","-6","","Freezing Drizzle,Fog"
"1999-01-28 03:00","1999","01","28","03:00","-2.0","","-3.4","","90","","10","","9","","4.8","","99.29","","","","-5","","Freezing Drizzle,Fog"
"1999-01-28 04:00","1999","01","28","04:00","-2.0","","-3.9","","87","","9","","7","","3.6","","99.32","","","","-5","","Freezing Drizzle,Fog"
"1999-01-28 05:00","1999","01","28","05:00","-2.1","","-3.9","","87","","9","","9","","3.2","","99.32","","","","-6","","Freezing Drizzle,Fog"
"1999-01-28 06:00","1999","01","28","06:00","-2.5","","-4.2","","88","","10","","11","","3.2","","99.39","","","","-7","","Freezing Drizzle,Fog"
"1999-01-28 07:00","1999","01","28","07:00","-2.8","","-4.6","","87","","10","","15","","3.6","","99.42","","","","-8","","Freezing Drizzle,Fog"
"1999-01-28 08:00","1999","01","28","08:00","-2.8","","-4.2","","90","","11","","19","","2.0","","99.42","","","","-9","","Snow Grains,Fog"
"1999-01-28 09:00","1999","01","28","09:00","-3.1","","-4.4","","91","","10","","19","","1.6","","99.49","","","","-9","","Freezing Drizzle,Snow Grains,Fog"
"1999-01-28 10:00","1999","01","28","10:00","-3.2","","-4.6","","90","","9","","15","","2.0","","99.49","","","","-8","","Freezing Drizzle,Snow Grains,Fog"
"1999-01-28 11:00","1999","01","28","11:00","-3.8","","-5.2","","90","","9","","15","","1.6","","99.52","","","","-9","","Freezing Drizzle,Snow Grains,Fog"
"1999-01-28 12:00","1999","01","28","12:00","-4.2","","-5.5","","91","","9","","15","","3.2","","99.52","","","","-10","","Snow Grains,Fog"
"1999-01-28 13:00","1999","01","28","13:00","-4.6","","-6.3","","88","","8","","9","","2.8","","99.49","","","","-8","","Freezing Drizzle,Snow Grains,Fog"
"1999-01-28 14:00","1999","01","28","14:00","-4.9","","-6.5","","89","","8","","13","","3.2","","99.49","","","","-10","","Snow Grains,Fog"
"1999-01-28 15:00","1999","01","28","15:00","-5.0","","-6.3","","91","","6","","9","","4.8","","99.52","","","","-9","","Snow Grains,Fog"
"1999-01-28 16:00","1999","01","28","16:00","-5.2","","-6.8","","88","","7","","7","","2.8","","99.59","","","","-8","","Freezing Drizzle,Snow Grains,Fog"
"1999-01-28 17:00","1999","01","28","17:00","-5.4","","-7.1","","88","","6","","7","","3.2","","99.65","","","","-9","","Snow,Fog"
"1999-01-28 18:00","1999","01","28","18:00","-5.8","","-7.4","","88","","7","","7","","6.4","","99.75","","","","-9","","Snow"
"1999-01-28 19:00","1999","01","28","19:00","-5.9","","-8.0","","85","","4","","7","","8.0","","99.85","","","","-9","","Snow"
"1999-01-28 20:00","1999","01","28","20:00","-6.1","","-8.3","","84","","3","","7","","6.4","","99.95","","","","-9","","Snow"
"1999-01-28 21:00","1999","01","28","21:00","-6.3","","-8.4","","85","","4","","7","","4.8","","100.09","","","","-10","","Snow"
"1999-01-28 22:00","1999","01","28","22:00","-6.8","","-9.1","","84","","36","","9","","4.0","","100.15","","","","-11","","Snow"
"1999-01-28 23:00","1999","01","28","23:00","-7.6","","-9.8","","84","","35","","7","","8.0","","100.25","","","","-11","","Snow"
"1999-01-29 00:00","1999","01","29","00:00","-9.2","","-11.4","","84","","34","","9","","19.3","","100.35","","","","-14","","Clear"
"1999-01-29 01:00","1999","01","29","01:00","-7.9","","-10.4","","82","","34","","7","","19.3","","100.42","","","","-12","","Mostly Cloudy"
"1999-01-29 02:00","1999","01","29","02:00","-7.7","","-10.2","","82","","2","","6","","19.3","","100.45","","","","-11","","Mostly Cloudy"
"1999-01-29 03:00","1999","01","29","03:00","-7.8","","-10.2","","83","","3","","6","","19.3","","100.59","","","","-11","","Snow"
"1999-01-29 04:00","1999","01","29","04:00","-7.8","","-10.2","","83","","4","","6","","16.1","","100.69","","","","-11","","Snow"
"1999-01-29 05:00","1999","01","29","05:00","-7.6","","-10.1","","82","","29","","4","","16.1","","100.75","","","","-10","","Snow"
"1999-01-29 06:00","1999","01","29","06:00","-7.7","","-10.0","","84","","","","0","","16.1","","100.82","","","","","","Snow"
"1999-01-29 07:00","1999","01","29","07:00","-7.3","","-9.5","","84","","","","0","","16.1","","100.89","","","","","","Snow"
"1999-01-29 08:00","1999","01","29","08:00","-7.1","","-9.5","","83","","","","0","","14.5","","100.92","","","","","","Cloudy"
"1999-01-29 09:00","1999","01","29","09:00","-6.4","","-8.2","","87","","","","0","","16.1","","100.95","","","","","","Cloudy"
"1999-01-29 10:00","1999","01","29","10:00","-5.8","","-8.7","","80","","32","","7","","19.3","","100.95","","","","-9","","Cloudy"
"1999-01-29 11:00","1999","01","29","11:00","-5.6","","-7.9","","84","","","","0","","14.5","","101.05","","","","","","Snow Grains"
"1999-01-29 12:00","1999","01","29","12:00","-5.2","","-8.2","","79","","27","","6","","19.3","","101.05","","","","-8","","Mostly Cloudy"
"1999-01-29 13:00","1999","01","29","13:00","-5.3","","-8.5","","78","","25","","13","","19.3","","100.99","","","","-10","","Cloudy"
"1999-01-29 14:00","1999","01","29","14:00","-5.1","","-8.7","","76","","22","","13","","24.1","","100.95","","","","-10","","Cloudy"
"1999-01-29 15:00","1999","01","29","15:00","-5.0","","-8.2","","78","","28","","7","","24.1","","100.95","","","","-8","","Mostly Cloudy"
"1999-01-29 16:00","1999","01","29","16:00","-4.6","","-8.0","","77","","12","","4","","24.1","","100.82","","","","-6","","Cloudy"
"1999-01-29 17:00","1999","01","29","17:00","-4.3","","-7.9","","76","","15","","4","","16.1","","100.82","","","","-6","","Cloudy"
"1999-01-29 18:00","1999","01","29","18:00","-4.6","","-7.6","","80","","17","","7","","6.4","","100.79","","","","-8","","Snow"
"1999-01-29 19:00","1999","01","29","19:00","-4.2","","-6.7","","83","","18","","7","","9.7","","100.85","","","","-7","","Snow"
"1999-01-29 20:00","1999","01","29","20:00","-2.9","","-5.4","","83","","24","","11","","16.1","","100.89","","","","-7","","Cloudy"
"1999-01-29 21:00","1999","01","29","21:00","-3.0","","-5.3","","84","","34","","6","","19.3","","100.89","","","","-5","","Cloudy"
"1999-01-29 22:00","1999","01","29","22:00","-2.9","","-5.6","","82","","24","","4","","16.1","","100.92","","","","-4","","Snow"
"1999-01-29 23:00","1999","01","29","23:00","-2.4","","-5.8","","77","","23","","15","","19.3","","100.89","","","","-7","","Cloudy"
"1999-01-30 00:00","1999","01","30","00:00","-2.5","","-6.0","","77","","24","","19","","19.3","","100.85","","","","-8","","Mostly Cloudy"
"1999-01-30 01:00","1999","01","30","01:00","-2.8","","-5.8","","80","","25","","20","","19.3","","100.79","","","","-9","","Mostly Cloudy"
"1999-01-30 02:00","1999","01","30","02:00","-3.6","","-6.3","","82","","25","","19","","12.9","","100.79","","","","-10","","Mainly Clear"
"1999-01-30 03:00","1999","01","30","03:00","-4.3","","-6.5","","85","","24","","15","","9.7","","100.85","","","","-10","","Fog"
"1999-01-30 04:00","1999","01","30","04:00","-4.8","","-6.7","","87","","26","","13","","9.7","","100.89","","","","-10","","Fog"
"1999-01-30 05:00","1999","01","30","05:00","-3.8","","-6.1","","84","","20","","6","","9.7","","100.95","","","","-6","","Fog"
"1999-01-30 06:00","1999","01","30","06:00","-3.2","","-5.6","","83","","24","","6","","9.7","","100.99","","","","-6","","Fog"
"1999-01-30 07:00","1999","01","30","07:00","-3.0","","-5.5","","83","","24","","17","","11.3","","101.05","","","","-9","","Mostly Cloudy"
"1999-01-30 08:00","1999","01","30","08:00","-2.3","","-5.0","","82","","27","","15","","9.7","","101.12","","","","-7","","Haze"
"1999-01-30 09:00","1999","01","30","09:00","-0.8","","-4.6","","75","","32","","17","","14.5","","101.22","","","","-6","","Cloudy"
"1999-01-30 10:00","1999","01","30","10:00","-1.1","","-6.0","","69","","33","","17","","19.3","","101.32","","","","-6","","Cloudy"
"1999-01-30 11:00","1999","01","30","11:00","-1.3","","-7.0","","65","","34","","19","","24.1","","101.45","","","","-7","","Mostly Cloudy"
"1999-01-30 12:00","1999","01","30","12:00","-0.9","","-7.0","","63","","34","","19","","24.1","","101.49","","","","-6","","Mostly Cloudy"
"1999-01-30 13:00","1999","01","30","13:00","-1.3","","-8.3","","59","","33","","24","","32.2","","101.52","","","","-7","","Mainly Clear"
"1999-01-30 14:00","1999","01","30","14:00","-0.8","","-7.5","","60","","34","","20","","32.2","","101.59","","","","-6","","Clear"
"1999-01-30 15:00","1999","01","30","15:00","-0.6","","-8.5","","55","","1","","19","","32.2","","101.62","","","","-6","","Clear"
"1999-01-30 16:00","1999","01","30","16:00","-0.6","","-7.9","","58","","34","","19","","32.2","","101.72","","","","-6","","Clear"
"1999-01-30 17:00","1999","01","30","17:00","-0.8","","-8.1","","58","","3","","15","","32.2","","101.79","","","","-5","","Clear"
"1999-01-30 18:00","1999","01","30","18:00","-1.9","","-8.3","","62","","5","","17","","25.0","","101.85","","","","-7","","Clear"
"1999-01-30 19:00","1999","01","30","19:00","-2.7","","-8.2","","66","","6","","7","","25.0","","101.92","","","","-6","","Clear"
"1999-01-30 20:00","1999","01","30","20:00","-4.6","","-9.5","","69","","32","","7","","25.0","","101.99","","","","-8","","Clear"
"1999-01-30 21:00","1999","01","30","21:00","-4.7","","-8.5","","75","","35","","7","","25.0","","101.99","","","","-8","","Clear"
"1999-01-30 22:00","1999","01","30","22:00","-5.3","","-8.9","","76","","2","","6","","25.0","","101.99","","","","-8","","Clear"
"1999-01-30 23:00","1999","01","30","23:00","-4.8","","-8.7","","74","","7","","13","","25.0","","101.99","","","","-10","","Clear"
"1999-01-31 00:00","1999","01","31","00:00","-4.8","","-9.3","","71","","7","","15","","25.0","","102.02","","","","-10","","Mainly Clear"
"1999-01-31 01:00","1999","01","31","01:00","-5.2","","-9.5","","72","","6","","9","","25.0","","102.02","","","","-9","","Mainly Clear"
"1999-01-31 02:00","1999","01","31","02:00","-5.1","","-9.2","","73","","9","","11","","25.0","","102.05","","","","-10","","Mainly Clear"
"1999-01-31 03:00","1999","01","31","03:00","-6.4","","-10.3","","74","","5","","7","","25.0","","102.12","","","","-10","","Mainly Clear"
"1999-01-31 04:00","1999","01","31","04:00","-7.2","","-11.1","","74","","6","","7","","25.0","","102.09","","","","-11","","Mainly Clear"
"1999-01-31 05:00","1999","01","31","05:00","-7.3","","-11.1","","74","","5","","7","","25.0","","102.12","","","","-11","","Mainly Clear"
"1999-01-31 06:00","1999","01","31","06:00","-7.2","","-10.7","","76","","5","","11","","25.0","","102.15","","","","-12","","Mostly Cloudy"
"1999-01-31 07:00","1999","01","31","07:00","-6.7","","-9.8","","79","","7","","7","","25.0","","102.15","","","","-10","","Mostly Cloudy"
"1999-01-31 08:00","1999","01","31","08:00","-6.5","","-9.8","","77","","7","","9","","24.1","","102.22","","","","-11","","Mostly Cloudy"
"1999-01-31 09:00","1999","01","31","09:00","-6.1","","-9.4","","77","","6","","7","","24.1","","102.22","","","","-9","","Mostly Cloudy"
"1999-01-31 10:00","1999","01","31","10:00","-3.9","","-8.7","","69","","13","","17","","24.1","","102.19","","","","-10","","Mainly Clear"
"1999-01-31 11:00","1999","01","31","11:00","-3.5","","-9.3","","64","","13","","17","","24.1","","102.15","","","","-9","","Clear"
"1999-01-31 12:00","1999","01","31","12:00","-3.2","","-8.7","","66","","13","","19","","24.1","","102.09","","","","-9","","Clear"
"1999-01-31 13:00","1999","01","31","13:00","-2.4","","-9.6","","58","","13","","13","","24.1","","102.02","","","","-7","","Clear"
"1999-01-31 14:00","1999","01","31","14:00","-1.8","","-9.6","","55","","12","","11","","32.2","","101.89","","","","-6","","Clear"
"1999-01-31 15:00","1999","01","31","15:00","-1.7","","-9.8","","54","","10","","7","","32.2","","101.82","","","","-4","","Clear"
"1999-01-31 16:00","1999","01","31","16:00","-1.8","","-9.0","","58","","10","","7","","32.2","","101.79","","","","-4","","Clear"
"1999-01-31 17:00","1999","01","31","17:00","-2.8","","-9.9","","58","","10","","11","","40.2","","101.75","","","","-7","","Clear"
"1999-01-31 18:00","1999","01","31","18:00","-4.1","","-9.8","","64","","9","","9","","25.0","","101.69","","","","-8","","Mainly Clear"
"1999-01-31 19:00","1999","01","31","19:00","-3.6","","-8.5","","69","","5","","11","","25.0","","101.59","","","","-8","","Mainly Clear"
"1999-01-31 20:00","1999","01","31","20:00","-4.3","","-7.9","","76","","7","","7","","25.0","","101.52","","","","-7","","Clear"
"1999-01-31 21:00","1999","01","31","21:00","-4.7","","-8.2","","76","","4","","6","","25.0","","101.49","","","","-7","","Clear"
"1999-01-31 22:00","1999","01","31","22:00","-5.5","","-8.5","","79","","2","","6","","25.0","","101.42","","","","-8","","Clear"
"1999-01-31 23:00","1999","01","31","23:00","-8.4","","-10.5","","85","","34","","6","","25.0","","101.32","","","","-12","","Clear"
