"Station Name","TORONTO INTL A"
"Province","ONTARIO"
"Latitude","43.68"
"Longitude","-79.63"
"Elevation","173.40"
"Climate Identifier","6158731"
"WMO Identifier","71624"
"TC Identifier","YYZ"
"All times are specified in Local Standard Time (LST). Add 1 hour to adjust for Daylight Saving Time where and when it is observed."

"Legend"
"E","Estimated"
"M","Missing"
"NA","Not Available"

"Date/Time","Year","Month","Day","Time","Temp (°C)","Temp Flag","Dew Point Temp (°C)","Dew Point Temp Flag","Rel Hum (%)","Rel Hum Flag","Wind Dir (10s deg)","Wind Dir Flag","Wind Spd (km/h)","Wind Spd Flag","Visibility (km)","Visibility Flag","Stn Press (kPa)","Stn Press Flag","Hmdx","Hmdx Flag","Wind Chill","Wind Chill Flag","Weather"
"2013-12-01 00:00","2013","12","01","00:00","1.9","","-2.4","","73","","19","","13","","24.1","","99.94","","","","","","NA"
"2013-12-01 01:00","2013","12","01","01:00","2.0","","-2.2","","74","","17","","7","","24.1","","99.88","","","","","","Cloudy"
"2013-12-01 02:00","2013","12","01","02:00","2.2","","-1.8","","75","","21","","6","","24.1","","99.85","","","","","","NA"
"2013-12-01 03:00","2013","12","01","03:00","2.0","","-1.6","","77","","19","","3","","24.1","","99.82","","","","","","NA"
"2013-12-01 04:00","2013","12","01","04:00","1.6","","-1.7","","79","","15","","6","","24.1","","99.76","","","","","","Cloudy"
"2013-12-01 05:00","2013","12","01","05:00","2.0","","-1.1","","80","","20","","11","","24.1","","99.72","","","","","","NA"
"2013-12-01 06:00","2013","12","01","06:00","1.9","","-1.0","","81","","14","","3","","24.1","","99.70","","","","","","NA"
"2013-12-01 07:00","2013","12","01","07:00","1.9","","-1.2","","80","","19","","8","","24.1","","99.69","","","","","","Cloudy"
"2013-12-01 08:00","2013","12","01","08:00","2.1","","-1.0","","80","","17","","5","","24.1","","99.69","","","","","","NA"
"2013-12-01 09:00","2013","12","01","09:00","2.3","","-0.3","","83","","14","","6","","12.9","","99.64","","","","","","Rain"
"2013-12-01 10:00","2013","12","01","10:00","2.8","","0.5","","85","","12","","8","","9.7","","99.58","","","","","","Rain,Fog"
"2013-12-01 11:00","2013","12","01","11:00","3.0","","1.4","","89","","24","","5","","9.7","","99.63","","","","","","Rain,Fog"
"2013-12-01 12:00","2013","12","01","12:00","2.8","","1.0","","88","","24","","12","","8.1","","99.56","","","","","","Rain,Fog"
"2013-12-01 13:00","2013","12","01","13:00","2.8","","1.5","","91","","27","","1","","8.1","","99.51","","","","","","Rain,Fog"
"2013-12-01 14:00","2013","12","01","14:00","2.7","","1.2","","90","","21","","6","","8.1","","99.46","","","","","","Rain,Fog"
"2013-12-01 15:00","2013","12","01","15:00","2.8","","1.0","","88","","18","","5","","8.1","","99.42","","","","","","Rain,Fog"
"2013-12-01 16:00","2013","12","01","16:00","2.9","","1.1","","88","","20","","4","","8.1","","99.42","","","","","","Fog"
"2013-12-01 17:00","2013","12","01","17:00","2.9","","1.3","","89","","16","","6","","8.1","","99.42","","","","","","Fog"
"2013-12-01 18:00","2013","12","01","18:00","2.9","","1.1","","88","","18","","5","","9.7","","99.42","","","","","","Fog"
"2013-12-01 19:00","2013","12","01","19:00","2.7","","0.9","","88","","22","","2","","11.3","","99.41","","","","","","Cloudy"
"2013-12-01 20:00","2013","12","01","20:00","2.4","","0.9","","90","","29","","7","","9.7","","99.39","","","","","","Fog"
"2013-12-01 21:00","2013","12","01","21:00","2.7","","1.1","","89","","27","","3","","9.7","","99.36","","","","","","Fog"
"2013-12-01 22:00","2013","12","01","22:00","2.4","","1.1","","91","","28","","3","","9.7","","99.34","","","","","","Fog"
"2013-12-01 23:00","2013","12","01","23:00","2.3","","1.0","","91","","30","","11","","8.1","","99.30","","","","","","Fog"
"2013-12-02 00:00","2013","12","02","00:00","1.6","","0.6","","93","","32","","8","","4.8","","99.26","","","","","","Fog"
"2013-12-02 01:00","2013","12","02","01:00","1.3","","0.4","","94","","31","","6","","3.6","","99.26","","","","","","Fog"
"2013-12-02 02:00","2013","12","02","02:00","1.7","","0.7","","93","","28","","2","","4.0","","99.23","","","","","","Fog"
"2013-12-02 03:00","2013","12","02","03:00","1.2","","0.5","","95","","28","","2","","4.0","","99.22","","","","","","Fog"
"2013-12-02 04:00","2013","12","02","04:00","1.0","","0.1","","94","","23","","6","","4.0","","99.18","","","","","","Fog"
"2013-12-02 05:00","2013","12","02","05:00","1.3","","0.4","","94","","25","","7","","4.8","","99.18","","","","","","Fog"
"2013-12-02 06:00","2013","12","02","06:00","1.5","","0.5","","93","","26","","5","","6.4","","99.18","","","","","","Fog"
"2013-12-02 07:00","2013","12","02","07:00","1.7","","0.4","","91","","29","","5","","6.4","","99.17","","","","","","Fog"
"2013-12-02 08:00","2013","12","02","08:00","1.8","","0.5","","91","","36","","10","","8.1","","99.19","","","","","","Fog"
"2013-12-02 09:00","2013","12","02","09:00","1.7","","0.1","","89","","35","","17","","8.1","","99.19","","","","","","Drizzle,Fog"
"2013-12-02 10:00","2013","12","02","10:00","1.6","","0.1","","90","","34","","12","","9.7","","99.19","","","","","","Fog"
"2013-12-02 11:00","2013","12","02","11:00","1.8","","-0.8","","83","","32","","11","","12.9","","99.18","","","","","","NA"
"2013-12-02 12:00","2013","12","02","12:00","1.4","","-0.5","","87","","29","","13","","8.1","","99.16","","","","","","Fog"
"2013-12-02 13:00","2013","12","02","13:00","1.9","","-1.5","","78","","31","","10","","16.1","","99.11","","","","","","Cloudy"
"2013-12-02 14:00","2013","12","02","14:00","2.1","","-1.9","","75","","31","","11","","24.1","","99.08","","","","","","NA"
"2013-12-02 15:00","2013","12","02","15:00","2.5","","-2.2","","71","","31","","11","","24.1","","99.06","","","","","","NA"
"2013-12-02 16:00","2013","12","02","16:00","2.2","","-2.7","","70","","31","","9","","24.1","","99.08","","","","","","Cloudy"
"2013-12-02 17:00","2013","12","02","17:00","1.5","","-4.4","","65","","28","","13","","24.1","","99.12","","","","","","NA"
"2013-12-02 18:00","2013","12","02","18:00","1.3","","-4.0","","68","","29","","8","","24.1","","99.18","","","","","","NA"
"2013-12-02 19:00","2013","12","02","19:00","1.4","","-3.9","","68","","30","","14","","24.1","","99.21","","","","","","Cloudy"
"2013-12-02 20:00","2013","12","02","20:00","0.9","","-3.2","","74","","31","","16","","24.1","","99.22","","","","","","NA"
"2013-12-02 21:00","2013","12","02","21:00","0.9","","-4.0","","70","","31","","18","","24.1","","99.23","","","","","","NA"
"2013-12-02 22:00","2013","12","02","22:00","0.8","","-5.3","","64","","31","","15","","24.1","","99.22","","","","","","Cloudy"
"2013-12-02 23:00","2013","12","02","23:00","0.4","","-4.6","","69","","31","","14","","24.1","","99.23","","","","","","NA"
"2013-12-03 00:00","2013","12","03","00:00","-0.6","","-5.8","","68","","32","","15","","24.1","","99.23","","","","-5","","NA"
"2013-12-03 01:00","2013","12","03","01:00","0.3","","-5.9","","63","","31","","11","","24.1","","99.26","","","","","","Mostly Cloudy"
"2013-12-03 02:00","2013","12","03","02:00","-1.5","","-5.9","","72","","29","","9","","24.1","","99.25","","","","-5","","NA"
"2013-12-03 03:00","2013","12","03","03:00","-2.2","","-5.5","","78","","28","","8","","24.1","","99.28","","","","-5","","NA"
"2013-12-03 04:00","2013","12","03","04:00","-2.9","","-5.6","","82","","32","","11","","24.1","","99.27","","","","-7","","Clear"
"2013-12-03 05:00","2013","12","03","05:00","-2.5","","-4.8","","84","","31","","5","","24.1","","99.29","","","","-4","","NA"
"2013-12-03 06:00","2013","12","03","06:00","-3.2","","-5.5","","84","","30","","5","","24.1","","99.33","","","","-5","","NA"
"2013-12-03 07:00","2013","12","03","07:00","-2.6","","-5.1","","83","","34","","5","","24.1","","99.31","","","","-5","","Mainly Clear"
"2013-12-03 08:00","2013","12","03","08:00","-3.2","","-5.4","","85","","31","","8","","24.1","","99.40","","","","-6","","NA"
"2013-12-03 09:00","2013","12","03","09:00","-1.3","","-4.2","","81","","3","","6","","24.1","","99.40","","","","-4","","NA"
"2013-12-03 10:00","2013","12","03","10:00","1.0","","-4.5","","67","","27","","2","","24.1","","99.45","","","","","","Mainly Clear"
"2013-12-03 11:00","2013","12","03","11:00","1.5","","-5.0","","62","","","","0","","24.1","","99.44","","","","","","NA"
"2013-12-03 12:00","2013","12","03","12:00","2.9","","-3.9","","61","","16","","4","","24.1","","99.36","","","","","","NA"
"2013-12-03 13:00","2013","12","03","13:00","2.7","","-5.5","","55","","30","","6","","24.1","","99.33","","","","","","Mostly Cloudy"
"2013-12-03 14:00","2013","12","03","14:00","2.9","","-5.8","","53","","36","","5","","24.1","","99.33","","","","","","NA"
"2013-12-03 15:00","2013","12","03","15:00","3.2","","-5.2","","54","","30","","3","","24.1","","99.37","","","","","","NA"
"2013-12-03 16:00","2013","12","03","16:00","2.2","","-3.5","","66","","13","","8","","24.1","","99.40","","","","","","Mostly Cloudy"
"2013-12-03 17:00","2013","12","03","17:00","1.6","","-3.5","","69","","14","","7","","24.1","","99.41","","","","","","NA"
"2013-12-03 18:00","2013","12","03","18:00","1.6","","-3.5","","69","","13","","5","","24.1","","99.44","","","","","","NA"
"2013-12-03 19:00","2013","12","03","19:00","1.7","","-3.6","","68","","10","","9","","24.1","","99.46","","","","","","Cloudy"
"2013-12-03 20:00","2013","12","03","20:00","1.6","","-4.1","","66","","6","","8","","24.1","","99.47","","","","","","NA"
"2013-12-03 21:00","2013","12","03","21:00","1.4","","-3.9","","68","","3","","12","","24.1","","99.48","","","","","","NA"
"2013-12-03 22:00","2013","12","03","22:00","1.7","","-4.0","","66","","9","","13","","24.1","","99.46","","","","","","Cloudy"
"2013-12-03 23:00","2013","12","03","23:00","1.4","","-4.1","","67","","8","","15","","24.1","","99.45","","","","","","NA"
"2013-12-04 00:00","2013","12","04","00:00","1.4","","-1.8","","79","","7","","12","","24.1","","99.45","","","","","","Rain Showers"
"2013-12-04 01:00","2013","12","04","01:00","1.5","","-1.8","","79","","8","","15","","24.1","","99.41","","","","","","Cloudy"
"2013-12-04 02:00","2013","12","04","02:00","1.2","","-1.4","","83","","9","","13","","16.1","","99.46","","","","","","Rain Showers"
"2013-12-04 03:00","2013","12","04","03:00","1.0","","-0.8","","88","","7","","13","","16.1","","99.50","","","","","","Rain Showers"
"2013-12-04 04:00","2013","12","04","04:00","0.6","","-0.9","","90","","8","","9","","16.1","","99.46","","","","","","Rain Showers"
"2013-12-04 05:00","2013","12","04","05:00","0.8","","-0.5","","91","","8","","15","","24.1","","99.41","","","","","","NA"
"2013-12-04 06:00","2013","12","04","06:00","1.0","","-0.5","","90","","7","","10","","19.3","","99.45","","","","","","NA"
"2013-12-04 07:00","2013","12","04","07:00","1.1","","-0.4","","90","","8","","10","","16.1","","99.45","","","","","","Cloudy"
"2013-12-04 08:00","2013","12","04","08:00","1.2","","-0.1","","91","","7","","5","","16.1","","99.55","","","","","","NA"
"2013-12-04 09:00","2013","12","04","09:00","2.2","","0.9","","91","","8","","13","","16.1","","99.50","","","","","","NA"
"2013-12-04 10:00","2013","12","04","10:00","2.9","","1.4","","90","","9","","9","","12.9","","99.55","","","","","","Cloudy"
"2013-12-04 11:00","2013","12","04","11:00","3.3","","1.7","","89","","9","","17","","16.1","","99.53","","","","","","NA"
"2013-12-04 12:00","2013","12","04","12:00","3.5","","2.0","","90","","8","","18","","9.7","","99.46","","","","","","Fog"
"2013-12-04 13:00","2013","12","04","13:00","3.7","","2.2","","90","","9","","19","","9.7","","99.42","","","","","","Fog"
"2013-12-04 14:00","2013","12","04","14:00","3.8","","2.0","","88","","8","","18","","9.7","","99.36","","","","","","Fog"
"2013-12-04 15:00","2013","12","04","15:00","3.6","","1.8","","88","","9","","17","","9.7","","99.35","","","","","","Fog"
"2013-12-04 16:00","2013","12","04","16:00","3.2","","1.7","","90","","9","","15","","9.7","","99.39","","","","","","Fog"
"2013-12-04 17:00","2013","12","04","17:00","2.9","","1.4","","90","","8","","13","","9.7","","99.37","","","","","","Fog"
"2013-12-04 18:00","2013","12","04","18:00","3.1","","1.5","","89","","9","","14","","12.9","","99.40","","","","","","NA"
"2013-12-04 19:00","2013","12","04","19:00","2.9","","1.0","","87","","9","","23","","12.9","","99.29","","","","","","Cloudy"
"2013-12-04 20:00","2013","12","04","20:00","2.9","","1.0","","87","","9","","18","","16.1","","99.25","","","","","","NA"
"2013-12-04 21:00","2013","12","04","21:00","2.9","","0.8","","86","","9","","14","","16.1","","99.15","","","","","","NA"
"2013-12-04 22:00","2013","12","04","22:00","3.0","","1.2","","88","","10","","15","","16.1","","99.05","","","","","","Cloudy"
"2013-12-04 23:00","2013","12","04","23:00","3.6","","2.0","","89","","9","","13","","16.1","","99.08","","","","","","NA"
"2013-12-05 00:00","2013","12","05","00:00","3.9","","2.9","","93","","9","","17","","8.1","","98.89","","","","","","Fog"
"2013-12-05 01:00","2013","12","05","01:00","4.6","","3.7","","94","","10","","15","","6.4","","98.75","","","","","","Fog"
"2013-12-05 02:00","2013","12","05","02:00","5.0","","4.0","","93","","10","","9","","12.9","","98.68","","","","","","NA"
"2013-12-05 03:00","2013","12","05","03:00","5.4","","4.2","","92","","9","","8","","12.9","","98.58","","","","","","NA"
"2013-12-05 04:00","2013","12","05","04:00","5.6","","4.3","","91","","11","","8","","12.9","","98.53","","","","","","Cloudy"
"2013-12-05 05:00","2013","12","05","05:00","6.7","","4.7","","87","","16","","4","","12.9","","98.48","","","","","","NA"
"2013-12-05 06:00","2013","12","05","06:00","7.0","","5.0","","87","","14","","6","","12.9","","98.46","","","","","","NA"
"2013-12-05 07:00","2013","12","05","07:00","7.3","","5.5","","88","","15","","10","","14.5","","98.46","","","","","","Cloudy"
"2013-12-05 08:00","2013","12","05","08:00","7.8","","6.0","","88","","15","","12","","14.5","","98.49","","","","","","NA"
"2013-12-05 09:00","2013","12","05","09:00","8.4","","6.5","","88","","15","","11","","14.5","","98.49","","","","","","NA"
"2013-12-05 10:00","2013","12","05","10:00","11.6","","9.4","","86","","18","","15","","16.1","","98.49","","","","","","Cloudy"
"2013-12-05 11:00","2013","12","05","11:00","15.2","","10.0","","71","","23","","33","","24.1","","98.49","","","","","","NA"
"2013-12-05 12:00","2013","12","05","12:00","14.9","","8.2","","64","","23","","34","","24.1","","98.44","","","","","","NA"
"2013-12-05 13:00","2013","12","05","13:00","14.7","","5.6","","54","","24","","31","","24.1","","98.50","","","","","","Cloudy"
"2013-12-05 14:00","2013","12","05","14:00","10.5","","5.9","","73","","29","","36","","24.1","","98.59","","","","","","NA"
"2013-12-05 15:00","2013","12","05","15:00","9.5","","4.5","","71","","28","","27","","24.1","","98.74","","","","","","NA"
"2013-12-05 16:00","2013","12","05","16:00","7.2","","1.7","","68","","27","","37","","24.1","","98.92","","","","","","Cloudy"
"2013-12-05 17:00","2013","12","05","17:00","5.3","","-1.8","","60","","26","","38","","24.1","","99.05","","","","","","NA"
"2013-12-05 18:00","2013","12","05","18:00","4.2","","-1.6","","66","","27","","25","","24.1","","99.20","","","","","","NA"
"2013-12-05 19:00","2013","12","05","19:00","4.2","","-1.4","","67","","26","","26","","24.1","","99.30","","","","","","Cloudy"
"2013-12-05 20:00","2013","12","05","20:00","3.9","","-2.1","","65","","27","","24","","24.1","","99.29","","","","","","NA"
"2013-12-05 21:00","2013","12","05","21:00","3.6","","-2.8","","63","","26","","27","","24.1","","99.43","","","","","","NA"
"2013-12-05 22:00","2013","12","05","22:00","3.4","","-2.4","","66","","27","","26","","24.1","","99.51","","","","","","Cloudy"
"2013-12-05 23:00","2013","12","05","23:00","2.6","","-3.5","","64","","27","","23","","24.1","","99.45","","","","","","NA"
"2013-12-06 00:00","2013","12","06","00:00","2.3","","-3.6","","65","","27","","28","","24.1","","99.55","","","","","","NA"
"2013-12-06 01:00","2013","12","06","01:00","1.8","","-4.3","","64","","28","","24","","24.1","","99.53","","","","","","Cloudy"
"2013-12-06 02:00","2013","12","06","02:00","1.4","","-5.1","","62","","29","","28","","24.1","","99.64","","","","","","NA"
"2013-12-06 03:00","2013","12","06","03:00","1.0","","-4.9","","65","","29","","18","","24.1","","99.67","","","","","","NA"
"2013-12-06 04:00","2013","12","06","04:00","0.4","","-5.4","","65","","29","","20","","24.1","","99.65","","","","","","Cloudy"
"2013-12-06 05:00","2013","12","06","05:00","0.2","","-5.6","","65","","29","","24","","24.1","","99.82","","","","","","NA"
"2013-12-06 06:00","2013","12","06","06:00","-0.2","","-5.8","","66","","29","","17","","24.1","","99.82","","","","-5","","NA"
"2013-12-06 07:00","2013","12","06","07:00","-0.2","","-6.4","","63","","28","","26","","24.1","","99.92","","","","-6","","Cloudy"
"2013-12-06 08:00","2013","12","06","08:00","-0.2","","-6.0","","65","","30","","16","","24.1","","99.94","","","","-5","","NA"
"2013-12-06 09:00","2013","12","06","09:00","0.0","","-6.2","","63","","29","","22","","24.1","","100.02","","","","-6","","NA"
"2013-12-06 10:00","2013","12","06","10:00","-0.1","","-6.7","","61","","30","","23","","24.1","","100.06","","","","-6","","Cloudy"
"2013-12-06 11:00","2013","12","06","11:00","-0.2","","-7.3","","59","","30","","19","","24.1","","100.11","","","","-5","","NA"
"2013-12-06 12:00","2013","12","06","12:00","-0.3","","-8.1","","56","","31","","21","","24.1","","100.11","","","","-6","","NA"
"2013-12-06 13:00","2013","12","06","13:00","-0.4","","-8.4","","55","","30","","20","","24.1","","100.14","","","","-6","","Cloudy"
"2013-12-06 14:00","2013","12","06","14:00","-0.3","","-8.1","","56","","29","","17","","24.1","","100.08","","","","-5","","NA"
"2013-12-06 15:00","2013","12","06","15:00","-0.4","","-7.9","","57","","31","","18","","24.1","","100.06","","","","-5","","NA"
"2013-12-06 16:00","2013","12","06","16:00","-0.8","","-8.1","","58","","30","","16","","24.1","","100.12","","","","-6","","Cloudy"
"2013-12-06 17:00","2013","12","06","17:00","-1.0","","-7.6","","61","","32","","17","","24.1","","100.15","","","","-6","","NA"
"2013-12-06 18:00","2013","12","06","18:00","-1.2","","-7.4","","63","","30","","15","","24.1","","100.15","","","","-6","","NA"
"2013-12-06 19:00","2013","12","06","19:00","-1.5","","-8.3","","60","","30","","21","","24.1","","100.23","","","","-7","","Cloudy"
"2013-12-06 20:00","2013","12","06","20:00","-1.7","","-8.3","","61","","31","","18","","24.1","","100.26","","","","-7","","NA"
"2013-12-06 21:00","2013","12","06","21:00","-1.9","","-8.3","","62","","31","","18","","24.1","","100.32","","","","-7","","NA"
"2013-12-06 22:00","2013","12","06","22:00","-2.1","","-9.1","","59","","31","","21","","24.1","","100.30","","","","-8","","Cloudy"
"2013-12-06 23:00","2013","12","06","23:00","-2.2","","-9.4","","58","","31","","13","","24.1","","100.35","","","","-7","","NA"
"2013-12-07 00:00","2013","12","07","00:00","-2.3","","-9.7","","57","","31","","15","","24.1","","100.37","","","","-7","","NA"
"2013-12-07 01:00","2013","12","07","01:00","-2.2","","-9.2","","59","","29","","19","","24.1","","100.43","","","","-8","","Mostly Cloudy"
"2013-12-07 02:00","2013","12","07","02:00","-2.3","","-8.4","","63","","28","","13","","24.1","","100.43","","","","-7","","NA"
"2013-12-07 03:00","2013","12","07","03:00","-2.4","","-8.5","","63","","29","","17","","24.1","","100.47","","","","-8","","NA"
"2013-12-07 04:00","2013","12","07","04:00","-2.8","","-9.1","","62","","31","","18","","24.1","","100.51","","","","-8","","Cloudy"
"2013-12-07 05:00","2013","12","07","05:00","-3.5","","-10.4","","59","","30","","19","","24.1","","100.58","","","","-9","","NA"
"2013-12-07 06:00","2013","12","07","06:00","-4.1","","-11.4","","57","","28","","20","","24.1","","100.64","","","","-10","","NA"
"2013-12-07 07:00","2013","12","07","07:00","-4.5","","-10.9","","61","","27","","15","","24.1","","100.72","","","","-10","","Mostly Cloudy"
"2013-12-07 08:00","2013","12","07","08:00","-3.6","","-10.1","","61","","28","","18","","24.1","","100.78","","","","-9","","Snow Showers"
"2013-12-07 09:00","2013","12","07","09:00","-3.3","","-11.8","","52","","27","","22","","24.1","","100.86","","","","-10","","Snow Showers"
"2013-12-07 10:00","2013","12","07","10:00","-3.2","","-11.7","","52","","29","","28","","24.1","","100.91","","","","-10","","Mostly Cloudy"
"2013-12-07 11:00","2013","12","07","11:00","-3.1","","-10.9","","55","","27","","26","","19.3","","100.95","","","","-10","","NA"
"2013-12-07 12:00","2013","12","07","12:00","-2.8","","-12.1","","49","","29","","30","","24.1","","100.94","","","","-10","","NA"
"2013-12-07 13:00","2013","12","07","13:00","-2.4","","-12.8","","45","","30","","32","","24.1","","100.95","","","","-10","","Mostly Cloudy"
"2013-12-07 14:00","2013","12","07","14:00","-2.5","","-12.4","","47","","29","","27","","24.1","","100.97","","","","-9","","Snow Showers"
"2013-12-07 15:00","2013","12","07","15:00","-2.8","","-11.4","","52","","27","","25","","24.1","","101.00","","","","-10","","Snow Showers"
"2013-12-07 16:00","2013","12","07","16:00","-3.4","","-12.4","","50","","29","","26","","24.1","","101.06","","","","-10","","Mostly Cloudy"
"2013-12-07 17:00","2013","12","07","17:00","-4.0","","-12.7","","51","","28","","22","","24.1","","101.11","","","","-11","","NA"
"2013-12-07 18:00","2013","12","07","18:00","-4.1","","-13.1","","50","","29","","27","","24.1","","101.18","","","","-11","","NA"
"2013-12-07 19:00","2013","12","07","19:00","-4.8","","-10.6","","64","","28","","17","","24.1","","101.22","","","","-11","","Mostly Cloudy"
"2013-12-07 20:00","2013","12","07","20:00","-5.4","","-11.0","","65","","26","","20","","24.1","","101.29","","","","-12","","NA"
"2013-12-07 21:00","2013","12","07","21:00","-5.9","","-11.3","","66","","25","","18","","24.1","","101.29","","","","-12","","NA"
"2013-12-07 22:00","2013","12","07","22:00","-7.1","","-11.3","","72","","26","","14","","24.1","","101.29","","","","-13","","Mainly Clear"
"2013-12-07 23:00","2013","12","07","23:00","-7.7","","-11.6","","74","","24","","10","","24.1","","101.33","","","","-13","","NA"
"2013-12-08 00:00","2013","12","08","00:00","-7.6","","-11.6","","73","","24","","13","","24.1","","101.32","","","","-13","","NA"
"2013-12-08 01:00","2013","12","08","01:00","-7.2","","-11.3","","73","","25","","18","","24.1","","101.29","","","","-14","","Clear"
"2013-12-08 02:00","2013","12","08","02:00","-7.8","","-11.7","","74","","24","","14","","24.1","","101.28","","","","-14","","NA"
"2013-12-08 03:00","2013","12","08","03:00","-7.9","","-11.4","","76","","24","","15","","24.1","","101.32","","","","-14","","NA"
"2013-12-08 04:00","2013","12","08","04:00","-8.0","","-11.5","","76","","24","","13","","24.1","","101.31","","","","-14","","Clear"
"2013-12-08 05:00","2013","12","08","05:00","-8.2","","-11.9","","75","","27","","10","","24.1","","101.31","","","","-13","","NA"
"2013-12-08 06:00","2013","12","08","06:00","-8.1","","-11.6","","76","","27","","8","","24.1","","101.31","","","","-12","","NA"
"2013-12-08 07:00","2013","12","08","07:00","-7.7","","-11.7","","73","","29","","9","","24.1","","101.35","","","","-12","","Mostly Cloudy"
"2013-12-08 08:00","2013","12","08","08:00","-7.5","","-11.7","","72","","29","","5","","24.1","","101.31","","","","-10","","NA"
"2013-12-08 09:00","2013","12","08","09:00","-6.8","","-10.9","","73","","29","","2","","24.1","","101.32","","","","-8","","NA"
"2013-12-08 10:00","2013","12","08","10:00","-5.9","","-11.7","","64","","32","","9","","24.1","","101.32","","","","-10","","Mostly Cloudy"
"2013-12-08 11:00","2013","12","08","11:00","-5.3","","-11.7","","61","","3","","8","","24.1","","101.33","","","","-9","","NA"
"2013-12-08 12:00","2013","12","08","12:00","-4.3","","-13.0","","51","","10","","6","","24.1","","101.17","","","","-7","","NA"
"2013-12-08 13:00","2013","12","08","13:00","-3.5","","-12.8","","49","","14","","4","","24.1","","101.10","","","","-5","","Mostly Cloudy"
"2013-12-08 14:00","2013","12","08","14:00","-3.7","","-14.0","","45","","13","","6","","24.1","","101.05","","","","-6","","NA"
"2013-12-08 15:00","2013","12","08","15:00","-3.6","","-12.6","","50","","11","","14","","24.1","","100.97","","","","-9","","NA"
"2013-12-08 16:00","2013","12","08","16:00","-3.5","","-10.6","","58","","9","","13","","24.1","","100.91","","","","-8","","Cloudy"
"2013-12-08 17:00","2013","12","08","17:00","-3.5","","-9.0","","66","","10","","12","","19.3","","100.84","","","","-8","","NA"
"2013-12-08 18:00","2013","12","08","18:00","-3.1","","-8.8","","65","","9","","13","","19.3","","100.71","","","","-8","","NA"
"2013-12-08 19:00","2013","12","08","19:00","-2.3","","-10.4","","54","","10","","23","","24.1","","100.62","","","","-9","","Cloudy"
"2013-12-08 20:00","2013","12","08","20:00","-1.5","","-9.4","","55","","10","","23","","24.1","","100.55","","","","-8","","NA"
"2013-12-08 21:00","2013","12","08","21:00","-1.2","","-9.9","","52","","12","","24","","19.3","","100.42","","","","-7","","Snow Showers"
"2013-12-08 22:00","2013","12","08","22:00","-1.7","","-9.4","","56","","10","","26","","24.1","","100.23","","","","-8","","Cloudy"
"2013-12-08 23:00","2013","12","08","23:00","-1.8","","-7.1","","67","","12","","20","","19.3","","100.15","","","","-8","","Snow Showers"
"2013-12-09 00:00","2013","12","09","00:00","-1.7","","-6.3","","71","","12","","21","","24.1","","99.99","","","","-8","","NA"
"2013-12-09 01:00","2013","12","09","01:00","-1.6","","-5.6","","74","","13","","20","","24.1","","99.79","","","","-7","","Cloudy"
"2013-12-09 02:00","2013","12","09","02:00","-2.6","","-3.9","","91","","11","","21","","4.0","","99.62","","","","-9","","Snow"
"2013-12-09 03:00","2013","12","09","03:00","-2.3","","-3.3","","93","","11","","15","","3.2","","99.43","","","","-7","","Snow"
"2013-12-09 04:00","2013","12","09","04:00","-1.8","","-3.4","","89","","12","","24","","6.4","","99.20","","","","-8","","Snow"
"2013-12-09 05:00","2013","12","09","05:00","-1.6","","-2.4","","94","","13","","13","","4.0","","99.17","","","","-6","","Snow"
"2013-12-09 06:00","2013","12","09","06:00","-1.4","","-2.2","","94","","14","","12","","3.2","","99.06","","","","-5","","Snow"
"2013-12-09 07:00","2013","12","09","07:00","-1.2","","-1.9","","95","","14","","12","","2.4","","98.95","","","","-5","","Snow"
"2013-12-09 08:00","2013","12","09","08:00","-0.6","","-1.2","","96","","16","","10","","4.0","","98.92","","","","-4","","Snow"
"2013-12-09 09:00","2013","12","09","09:00","0.5","","-0.4","","94","","20","","15","","4.8","","98.89","","","","","","Snow Grains,Fog"
"2013-12-09 10:00","2013","12","09","10:00","1.0","","-0.6","","89","","22","","23","","19.3","","98.89","","","","","","Cloudy"
"2013-12-09 11:00","2013","12","09","11:00","0.9","","-1.5","","84","","23","","33","","24.1","","98.92","","","","","","NA"
"2013-12-09 12:00","2013","12","09","12:00","0.2","","-2.4","","83","","25","","41","","24.1","","98.94","","","","","","NA"
"2013-12-09 13:00","2013","12","09","13:00","0.0","","-3.4","","78","","25","","37","","24.1","","98.98","","","","-7","","Cloudy"
"2013-12-09 14:00","2013","12","09","14:00","0.1","","-3.6","","76","","25","","40","","24.1","","98.96","","","","","","NA"
"2013-12-09 15:00","2013","12","09","15:00","-0.3","","-4.2","","75","","25","","42","","24.1","","98.93","","","","-8","","NA"
"2013-12-09 16:00","2013","12","09","16:00","-0.4","","-5.0","","71","","25","","48","","24.1","","99.05","","","","-9","","Cloudy"
"2013-12-09 17:00","2013","12","09","17:00","-0.9","","-5.3","","72","","24","","41","","24.1","","99.13","","","","-9","","NA"
"2013-12-09 18:00","2013","12","09","18:00","-0.9","","-5.9","","69","","25","","41","","24.1","","99.20","","","","-9","","NA"
"2013-12-09 19:00","2013","12","09","19:00","-1.2","","-6.0","","70","","24","","43","","24.1","","99.26","","","","-9","","Cloudy"
"2013-12-09 20:00","2013","12","09","20:00","-1.6","","-6.8","","68","","25","","30","","24.1","","99.30","","","","-9","","NA"
"2013-12-09 21:00","2013","12","09","21:00","-2.1","","-7.2","","68","","25","","37","","24.1","","99.31","","","","-10","","NA"
"2013-12-09 22:00","2013","12","09","22:00","-2.5","","-7.6","","68","","24","","27","","24.1","","99.35","","","","-9","","Cloudy"
"2013-12-09 23:00","2013","12","09","23:00","-2.8","","-8.5","","65","","24","","38","","24.1","","99.38","","","","-11","","NA"
"2013-12-10 00:00","2013","12","10","00:00","-4.0","","-9.8","","64","","25","","31","","24.1","","99.37","","","","-12","","NA"
"2013-12-10 01:00","2013","12","10","01:00","-4.3","","-9.7","","66","","25","","32","","24.1","","99.37","","","","-12","","Cloudy"
"2013-12-10 02:00","2013","12","10","02:00","-4.8","","-9.8","","68","","25","","29","","24.1","","99.41","","","","-13","","Snow"
"2013-12-10 03:00","2013","12","10","03:00","-5.4","","-8.2","","81","","27","","23","","9.7","","99.51","","","","-13","","Snow"
"2013-12-10 04:00","2013","12","10","04:00","-6.1","","-13.1","","58","","26","","31","","24.1","","99.56","","","","-15","","Cloudy"
"2013-12-10 05:00","2013","12","10","05:00","-6.9","","-13.4","","60","","27","","24","","24.1","","99.55","","","","-15","","NA"
"2013-12-10 06:00","2013","12","10","06:00","-7.9","","-14.4","","60","","27","","28","","24.1","","99.53","","","","-17","","NA"
"2013-12-10 07:00","2013","12","10","07:00","-8.9","","-14.9","","62","","28","","21","","24.1","","99.54","","","","-17","","Mostly Cloudy"
"2013-12-10 08:00","2013","12","10","08:00","-9.4","","-14.3","","68","","27","","22","","24.1","","99.50","","","","-17","","NA"
"2013-12-10 09:00","2013","12","10","09:00","-8.7","","-14.3","","64","","25","","18","","24.1","","99.54","","","","-16","","NA"
"2013-12-10 10:00","2013","12","10","10:00","-8.5","","-13.8","","66","","26","","21","","24.1","","99.52","","","","-16","","Mostly Cloudy"
"2013-12-10 11:00","2013","12","10","11:00","-7.4","","-13.3","","63","","29","","21","","24.1","","99.47","","","","-15","","NA"
"2013-12-10 12:00","2013","12","10","12:00","-7.5","","-13.8","","61","","29","","31","","24.1","","99.38","","","","-16","","NA"
"2013-12-10 13:00","2013","12","10","13:00","-7.2","","-14.6","","56","","27","","19","","24.1","","99.30","","","","-14","","Mostly Cloudy"
"2013-12-10 14:00","2013","12","10","14:00","-6.6","","-14.0","","56","","26","","18","","24.1","","99.23","","","","-13","","NA"
"2013-12-10 15:00","2013","12","10","15:00","-6.6","","-15.2","","51","","25","","23","","24.1","","99.21","","","","-14","","NA"
"2013-12-10 16:00","2013","12","10","16:00","-6.8","","-14.2","","56","","25","","19","","24.1","","99.19","","","","-14","","Cloudy"
"2013-12-10 17:00","2013","12","10","17:00","-6.6","","-12.1","","65","","25","","28","","16.1","","99.24","","","","-15","","NA"
"2013-12-10 18:00","2013","12","10","18:00","-7.6","","-12.2","","70","","25","","27","","24.1","","99.30","","","","-16","","NA"
"2013-12-10 19:00","2013","12","10","19:00","-7.6","","-13.3","","64","","25","","24","","24.1","","99.32","","","","-16","","Clear"
"2013-12-10 20:00","2013","12","10","20:00","-7.4","","-14.5","","57","","24","","28","","24.1","","99.35","","","","-16","","NA"
"2013-12-10 21:00","2013","12","10","21:00","-7.4","","-11.8","","71","","24","","26","","24.1","","99.39","","","","-16","","NA"
"2013-12-10 22:00","2013","12","10","22:00","-7.5","","-10.4","","80","","24","","23","","24.1","","99.45","","","","-15","","Mainly Clear"
"2013-12-10 23:00","2013","12","10","23:00","-6.4","","-10.0","","76","","25","","23","","24.1","","99.53","","","","-14","","Snow Showers"
"2013-12-11 00:00","2013","12","11","00:00","-6.4","","-11.0","","70","","26","","27","","24.1","","99.62","","","","-14","","NA"
"2013-12-11 01:00","2013","12","11","01:00","-6.2","","-11.2","","68","","26","","32","","24.1","","99.69","","","","-15","","Mostly Cloudy"
"2013-12-11 02:00","2013","12","11","02:00","-6.6","","-13.1","","60","","27","","32","","24.1","","99.73","","","","-15","","NA"
"2013-12-11 03:00","2013","12","11","03:00","-6.8","","-12.0","","67","","26","","30","","24.1","","99.85","","","","-15","","NA"
"2013-12-11 04:00","2013","12","11","04:00","-6.9","","-12.8","","63","","25","","28","","24.1","","99.86","","","","-15","","Mostly Cloudy"
"2013-12-11 05:00","2013","12","11","05:00","-6.8","","-12.3","","65","","26","","29","","24.1","","99.89","","","","-15","","NA"
"2013-12-11 06:00","2013","12","11","06:00","-6.9","","-12.2","","66","","26","","33","","24.1","","99.93","","","","-16","","NA"
"2013-12-11 07:00","2013","12","11","07:00","-6.7","","-12.4","","64","","25","","39","","24.1","","99.99","","","","-16","","Mostly Cloudy"
"2013-12-11 08:00","2013","12","11","08:00","-7.0","","-11.1","","73","","25","","24","","19.3","","99.99","","","","-15","","Snow Showers"
"2013-12-11 09:00","2013","12","11","09:00","-6.5","","-10.4","","74","","25","","25","","19.3","","100.04","","","","-14","","NA"
"2013-12-11 10:00","2013","12","11","10:00","-5.9","","-9.6","","75","","25","","31","","16.1","","100.11","","","","-14","","Snow Showers"
"2013-12-11 11:00","2013","12","11","11:00","-5.1","","-10.1","","68","","28","","33","","16.1","","100.07","","","","-13","","Snow Showers"
"2013-12-11 12:00","2013","12","11","12:00","-5.2","","-11.6","","61","","27","","41","","19.3","","100.02","","","","-14","","NA"
"2013-12-11 13:00","2013","12","11","13:00","-5.6","","-12.2","","60","","27","","43","","24.1","","100.01","","","","-15","","Cloudy"
"2013-12-11 14:00","2013","12","11","14:00","-5.3","","-13.5","","53","","28","","42","","24.1","","99.99","","","","-15","","NA"
"2013-12-11 15:00","2013","12","11","15:00","-6.2","","-14.5","","52","","27","","45","","24.1","","100.02","","","","-16","","NA"
"2013-12-11 16:00","2013","12","11","16:00","-6.6","","-14.5","","54","","27","","26","","24.1","","100.08","","","","-15","","Mainly Clear"
"2013-12-11 17:00","2013","12","11","17:00","-7.6","","-15.4","","54","","28","","30","","24.1","","100.18","","","","-16","","NA"
"2013-12-11 18:00","2013","12","11","18:00","-8.4","","-14.7","","61","","28","","27","","24.1","","100.21","","","","-17","","NA"
"2013-12-11 19:00","2013","12","11","19:00","-9.0","","-14.1","","67","","26","","24","","24.1","","100.27","","","","-17","","Mainly Clear"
"2013-12-11 20:00","2013","12","11","20:00","-9.5","","-14.0","","70","","26","","22","","24.1","","100.31","","","","-18","","NA"
"2013-12-11 21:00","2013","12","11","21:00","-10.1","","-13.9","","74","","26","","21","","24.1","","100.34","","","","-18","","NA"
"2013-12-11 22:00","2013","12","11","22:00","-10.5","","-13.6","","78","","25","","21","","24.1","","100.36","","","","-19","","Mainly Clear"
"2013-12-11 23:00","2013","12","11","23:00","-10.3","","-13.1","","80","","25","","23","","24.1","","100.38","","","","-19","","NA"
"2013-12-12 00:00","2013","12","12","00:00","-10.4","","-13.4","","79","","30","","9","","24.1","","100.45","","","","-15","","NA"
"2013-12-12 01:00","2013","12","12","01:00","-10.6","","-13.6","","79","","26","","5","","24.1","","100.45","","","","-14","","Mainly Clear"
"2013-12-12 02:00","2013","12","12","02:00","-11.1","","-14.1","","79","","25","","10","","24.1","","100.46","","","","-17","","NA"
"2013-12-12 03:00","2013","12","12","03:00","-11.1","","-13.9","","80","","24","","13","","24.1","","100.50","","","","-18","","NA"
"2013-12-12 04:00","2013","12","12","04:00","-11.5","","-14.1","","81","","26","","13","","24.1","","100.47","","","","-18","","Clear"
"2013-12-12 05:00","2013","12","12","05:00","-11.5","","-14.5","","79","","25","","17","","24.1","","100.46","","","","-19","","NA"
"2013-12-12 06:00","2013","12","12","06:00","-11.4","","-14.7","","77","","25","","21","","24.1","","100.47","","","","-20","","NA"
"2013-12-12 07:00","2013","12","12","07:00","-11.5","","-15.1","","75","","25","","26","","24.1","","100.48","","","","-21","","Mainly Clear"
"2013-12-12 08:00","2013","12","12","08:00","-11.5","","-15.8","","71","","26","","26","","24.1","","100.49","","","","-21","","NA"
"2013-12-12 09:00","2013","12","12","09:00","-11.5","","-15.6","","72","","25","","32","","24.1","","100.47","","","","-22","","NA"
"2013-12-12 10:00","2013","12","12","10:00","-10.6","","-15.2","","69","","24","","24","","24.1","","100.46","","","","-19","","Mostly Cloudy"
"2013-12-12 11:00","2013","12","12","11:00","-9.6","","-15.6","","62","","26","","26","","24.1","","100.39","","","","-18","","NA"
"2013-12-12 12:00","2013","12","12","12:00","-8.9","","-15.1","","61","","25","","28","","24.1","","100.27","","","","-18","","NA"
"2013-12-12 13:00","2013","12","12","13:00","-8.0","","-14.9","","58","","26","","31","","24.1","","100.15","","","","-17","","Mostly Cloudy"
"2013-12-12 14:00","2013","12","12","14:00","-8.5","","-15.8","","56","","25","","37","","24.1","","100.09","","","","-18","","NA"
"2013-12-12 15:00","2013","12","12","15:00","-7.8","","-15.6","","54","","25","","32","","24.1","","99.99","","","","-17","","NA"
"2013-12-12 16:00","2013","12","12","16:00","-8.7","","-15.6","","58","","24","","29","","24.1","","99.95","","","","-18","","Clear"
"2013-12-12 17:00","2013","12","12","17:00","-9.5","","-14.6","","67","","24","","29","","24.1","","99.88","","","","-19","","NA"
"2013-12-12 18:00","2013","12","12","18:00","-9.7","","-14.0","","71","","24","","27","","24.1","","99.84","","","","-19","","NA"
"2013-12-12 19:00","2013","12","12","19:00","-8.9","","-13.4","","70","","24","","29","","19.3","","99.75","","","","-18","","Snow Showers"
"2013-12-12 20:00","2013","12","12","20:00","-8.7","","-14.2","","65","","24","","32","","19.3","","99.73","","","","-18","","Snow Showers"
"2013-12-12 21:00","2013","12","12","21:00","-8.8","","-14.3","","65","","23","","32","","24.1","","99.65","","","","-18","","NA"
"2013-12-12 22:00","2013","12","12","22:00","-8.9","","-13.8","","68","","23","","33","","24.1","","99.62","","","","-18","","Cloudy"
"2013-12-12 23:00","2013","12","12","23:00","-8.3","","-12.7","","71","","23","","32","","24.1","","99.60","","","","-18","","NA"
"2013-12-13 00:00","2013","12","13","00:00","-8.0","","-11.7","","75","","23","","30","","24.1","","99.58","","","","-17","","NA"
"2013-12-13 01:00","2013","12","13","01:00","-7.4","","-11.4","","73","","24","","29","","24.1","","99.57","","","","-16","","Cloudy"
"2013-12-13 02:00","2013","12","13","02:00","-7.1","","-10.8","","75","","23","","27","","24.1","","99.56","","","","-15","","NA"
"2013-12-13 03:00","2013","12","13","03:00","-7.4","","-10.8","","77","","24","","35","","16.1","","99.56","","","","-17","","Snow Showers"
"2013-12-13 04:00","2013","12","13","04:00","-7.0","","-10.5","","76","","24","","34","","16.1","","99.53","","","","-16","","Snow Showers"
"2013-12-13 05:00","2013","12","13","05:00","-6.4","","-9.8","","77","","24","","33","","16.1","","99.52","","","","-15","","Snow Showers"
"2013-12-13 06:00","2013","12","13","06:00","-6.3","","-8.4","","85","","25","","26","","16.1","","99.58","","","","-14","","Snow Showers"
"2013-12-13 07:00","2013","12","13","07:00","-5.9","","-8.0","","85","","25","","18","","14.5","","99.62","","","","-12","","Snow Showers"
"2013-12-13 08:00","2013","12","13","08:00","-5.1","","-8.5","","77","","26","","23","","24.1","","99.69","","","","-12","","NA"
"2013-12-13 09:00","2013","12","13","09:00","-8.2","","-10.8","","82","","36","","31","","1.6","","99.87","","","","-17","","Snow Showers"
"2013-12-13 10:00","2013","12","13","10:00","-9.2","","-12.2","","79","","35","","22","","4.8","","100.05","","","","-17","","Snow Showers"
"2013-12-13 11:00","2013","12","13","11:00","-9.9","","-14.9","","67","","2","","25","","24.1","","100.10","","","","-19","","NA"
"2013-12-13 12:00","2013","12","13","12:00","-9.4","","-15.4","","62","","36","","18","","24.1","","100.11","","","","-17","","NA"
"2013-12-13 13:00","2013","12","13","13:00","-8.5","","-16.0","","55","","34","","21","","24.1","","100.14","","","","-16","","Mostly Cloudy"
"2013-12-13 14:00","2013","12","13","14:00","-9.6","","-16.8","","56","","36","","19","","24.1","","100.21","","","","-17","","NA"
"2013-12-13 15:00","2013","12","13","15:00","-9.2","","-16.2","","57","","36","","22","","24.1","","100.28","","","","-17","","NA"
"2013-12-13 16:00","2013","12","13","16:00","-10.1","","-17.1","","57","","36","","17","","24.1","","100.39","","","","-17","","Mostly Cloudy"
"2013-12-13 17:00","2013","12","13","17:00","-10.5","","-17.5","","57","","36","","13","","24.1","","100.48","","","","-17","","NA"
"2013-12-13 18:00","2013","12","13","18:00","-11.3","","-18.2","","57","","34","","16","","24.1","","100.56","","","","-19","","NA"
"2013-12-13 19:00","2013","12","13","19:00","-11.3","","-17.8","","59","","36","","17","","24.1","","100.60","","","","-19","","Mostly Cloudy"
"2013-12-13 20:00","2013","12","13","20:00","-11.4","","-17.9","","59","","36","","18","","24.1","","100.66","","","","-19","","NA"
"2013-12-13 21:00","2013","12","13","21:00","-11.7","","-17.6","","62","","1","","17","","24.1","","100.73","","","","-19","","NA"
"2013-12-13 22:00","2013","12","13","22:00","-12.1","","-18.2","","61","","1","","23","","24.1","","100.77","","","","-21","","Mostly Cloudy"
"2013-12-13 23:00","2013","12","13","23:00","-12.4","","-19.7","","55","","1","","16","","24.1","","100.85","","","","-20","","NA"
"2013-12-14 00:00","2013","12","14","00:00","-12.2","","-18.9","","58","","3","","13","","24.1","","100.88","","","","-19","","NA"
"2013-12-14 01:00","2013","12","14","01:00","-12.7","","-18.4","","63","","7","","12","","24.1","","100.91","","","","-19","","Mostly Cloudy"
"2013-12-14 02:00","2013","12","14","02:00","-12.8","","-20.3","","54","","5","","13","","24.1","","100.93","","","","-20","","NA"
"2013-12-14 03:00","2013","12","14","03:00","-13.6","","-20.6","","56","","4","","15","","24.1","","100.96","","","","-21","","NA"
"2013-12-14 04:00","2013","12","14","04:00","-13.4","","-19.6","","60","","1","","15","","24.1","","100.91","","","","-21","","Cloudy"
"2013-12-14 05:00","2013","12","14","05:00","-13.3","","-18.9","","63","","5","","18","","24.1","","100.84","","","","-22","","NA"
"2013-12-14 06:00","2013","12","14","06:00","-13.6","","-18.3","","68","","5","","15","","16.1","","100.83","","","","-21","","Snow"
"2013-12-14 07:00","2013","12","14","07:00","-14.1","","-17.9","","73","","5","","17","","4.8","","100.86","","","","-22","","Snow"
"2013-12-14 08:00","2013","12","14","08:00","-14.4","","-18.2","","73","","5","","15","","4.8","","100.88","","","","-22","","Snow"
"2013-12-14 09:00","2013","12","14","09:00","-14.4","","-17.9","","75","","4","","23","","6.4","","100.82","","","","-24","","Snow"
"2013-12-14 10:00","2013","12","14","10:00","-13.9","","-17.4","","75","","5","","20","","6.4","","100.77","","","","-23","","Snow"
"2013-12-14 11:00","2013","12","14","11:00","-13.4","","-16.3","","79","","6","","23","","2.4","","100.68","","","","-23","","Snow"
"2013-12-14 12:00","2013","12","14","12:00","-12.6","","-15.2","","81","","5","","26","","1.2","","100.51","","","","-22","","Snow"
"2013-12-14 13:00","2013","12","14","13:00","-11.7","","-14.2","","82","","5","","19","","1.2","","100.30","","","","-20","","Snow,Blowing Snow"
"2013-12-14 14:00","2013","12","14","14:00","-11.7","","-14.3","","81","","6","","24","","1.2","","100.12","","","","-21","","Snow,Blowing Snow"
"2013-12-14 15:00","2013","12","14","15:00","-11.7","","-14.5","","80","","6","","26","","2.8","","99.98","","","","-21","","Snow,Blowing Snow"
"2013-12-14 16:00","2013","12","14","16:00","-11.7","","-14.5","","80","","5","","22","","4.8","","99.88","","","","-20","","Snow,Blowing Snow"
"2013-12-14 17:00","2013","12","14","17:00","-11.7","","-14.6","","79","","5","","27","","6.4","","99.75","","","","-21","","Snow,Blowing Snow"
"2013-12-14 18:00","2013","12","14","18:00","-12.0","","-14.6","","81","","5","","20","","2.0","","99.62","","","","-20","","Snow,Blowing Snow"
"2013-12-14 19:00","2013","12","14","19:00","-12.0","","-14.2","","84","","4","","20","","2.8","","99.50","","","","-20","","Snow,Blowing Snow"
"2013-12-14 20:00","2013","12","14","20:00","-11.6","","-13.8","","84","","4","","22","","2.8","","99.35","","","","-20","","Snow,Blowing Snow"
"2013-12-14 21:00","2013","12","14","21:00","-11.4","","-13.7","","83","","4","","20","","2.8","","99.20","","","","-20","","Snow,Blowing Snow"
"2013-12-14 22:00","2013","12","14","22:00","-11.2","","-13.2","","85","","3","","22","","1.6","","99.04","","","","-20","","Snow,Blowing Snow"
"2013-12-14 23:00","2013","12","14","23:00","-11.7","","-13.6","","86","","1","","23","","1.2","","98.92","","","","-21","","Snow,Blowing Snow"
"2013-12-15 00:00","2013","12","15","00:00","-11.5","","-13.4","","86","","1","","22","","2.4","","98.81","","","","-20","","Snow,Blowing Snow"
"2013-12-15 01:00","2013","12","15","01:00","-12.3","","-14.5","","84","","35","","22","","3.2","","98.65","","","","-21","","Snow,Blowing Snow"
"2013-12-15 02:00","2013","12","15","02:00","-12.4","","-14.6","","84","","36","","22","","3.2","","98.57","","","","-21","","Snow,Blowing Snow"
"2013-12-15 03:00","2013","12","15","03:00","-12.9","","-15.2","","83","","34","","25","","4.0","","98.58","","","","-22","","Snow,Blowing Snow"
"2013-12-15 04:00","2013","12","15","04:00","-13.4","","-16.0","","81","","34","","26","","19.3","","98.54","","","","-23","","Blowing Snow"
"2013-12-15 05:00","2013","12","15","05:00","-13.0","","-16.2","","77","","34","","30","","24.1","","98.57","","","","-23","","Blowing Snow"
"2013-12-15 06:00","2013","12","15","06:00","-12.3","","-15.7","","76","","35","","17","","24.1","","98.57","","","","-20","","Blowing Snow"
"2013-12-15 07:00","2013","12","15","07:00","-12.4","","-15.5","","78","","32","","21","","24.1","","98.64","","","","-21","","Blowing Snow"
"2013-12-15 08:00","2013","12","15","08:00","-12.3","","-15.2","","79","","32","","17","","24.1","","98.65","","","","-20","","NA"
"2013-12-15 09:00","2013","12","15","09:00","-11.5","","-14.9","","76","","32","","11","","24.1","","98.69","","","","-17","","NA"
"2013-12-15 10:00","2013","12","15","10:00","-10.9","","-14.3","","76","","32","","7","","16.1","","98.70","","","","-15","","Cloudy"
"2013-12-15 11:00","2013","12","15","11:00","-9.9","","-12.6","","81","","24","","3","","9.7","","98.63","","","","-12","","Snow"
"2013-12-15 12:00","2013","12","15","12:00","-7.9","","-11.9","","73","","25","","12","","24.1","","98.56","","","","-13","","NA"
"2013-12-15 13:00","2013","12","15","13:00","-6.8","","-11.2","","71","","24","","13","","24.1","","98.53","","","","-12","","Cloudy"
"2013-12-15 14:00","2013","12","15","14:00","-5.4","","-9.5","","73","","24","","15","","24.1","","98.48","","","","-11","","NA"
"2013-12-15 15:00","2013","12","15","15:00","-5.5","","-9.3","","75","","25","","14","","16.1","","98.46","","","","-11","","NA"
"2013-12-15 16:00","2013","12","15","16:00","-5.6","","-8.2","","82","","22","","15","","6.4","","98.47","","","","-11","","Snow"
"2013-12-15 17:00","2013","12","15","17:00","-5.0","","-7.0","","86","","23","","22","","16.1","","98.48","","","","-12","","NA"
"2013-12-15 18:00","2013","12","15","18:00","-5.6","","-9.2","","76","","26","","36","","11.3","","98.51","","","","-14","","Snow,Blowing Snow"
"2013-12-15 19:00","2013","12","15","19:00","-6.0","","-10.1","","73","","26","","36","","16.1","","98.59","","","","-15","","Blowing Snow"
"2013-12-15 20:00","2013","12","15","20:00","-6.5","","-10.4","","74","","26","","40","","24.1","","98.63","","","","-16","","Blowing Snow"
"2013-12-15 21:00","2013","12","15","21:00","-7.0","","-10.9","","74","","25","","45","","24.1","","98.71","","","","-17","","Blowing Snow"
"2013-12-15 22:00","2013","12","15","22:00","-7.2","","-10.9","","75","","28","","30","","24.1","","98.84","","","","-16","","Blowing Snow"
"2013-12-15 23:00","2013","12","15","23:00","-7.4","","-10.0","","82","","28","","24","","9.7","","98.96","","","","-15","","Snow Showers,Blowing Snow"
"2013-12-16 00:00","2013","12","16","00:00","-9.0","","-10.6","","88","","1","","14","","1.6","","99.06","","","","-15","","Snow Showers"
"2013-12-16 01:00","2013","12","16","01:00","-10.9","","-12.8","","86","","36","","21","","2.8","","99.12","","","","-19","","Snow Showers"
"2013-12-16 02:00","2013","12","16","02:00","-13.1","","-16.0","","79","","36","","24","","24.1","","99.20","","","","-23","","NA"
"2013-12-16 03:00","2013","12","16","03:00","-14.2","","-18.6","","70","","34","","19","","24.1","","99.29","","","","-23","","NA"
"2013-12-16 04:00","2013","12","16","04:00","-16.0","","-19.3","","76","","33","","12","","24.1","","99.34","","","","-23","","Clear"
"2013-12-16 05:00","2013","12","16","05:00","-16.5","","-20.1","","74","","32","","9","","24.1","","99.37","","","","-23","","NA"
"2013-12-16 06:00","2013","12","16","06:00","-15.8","","-19.0","","77","","32","","10","","4.8","","99.46","","","","-22","","Snow Showers"
"2013-12-16 07:00","2013","12","16","07:00","-15.7","","-18.7","","78","","2","","12","","9.7","","99.50","","","","-23","","Snow Showers"
"2013-12-16 08:00","2013","12","16","08:00","-14.9","","-18.1","","77","","1","","9","","16.1","","99.56","","","","-21","","NA"
"2013-12-16 09:00","2013","12","16","09:00","-14.4","","-18.2","","73","","36","","14","","24.1","","99.68","","","","-22","","NA"
"2013-12-16 10:00","2013","12","16","10:00","-13.5","","-17.9","","70","","34","","12","","24.1","","99.79","","","","-20","","Mainly Clear"
"2013-12-16 11:00","2013","12","16","11:00","-11.7","","-16.5","","68","","30","","17","","24.1","","99.84","","","","-19","","NA"
"2013-12-16 12:00","2013","12","16","12:00","-10.6","","-16.2","","64","","36","","14","","24.1","","99.83","","","","-17","","NA"
"2013-12-16 13:00","2013","12","16","13:00","-8.9","","-16.2","","56","","31","","9","","24.1","","99.83","","","","-14","","Mainly Clear"
"2013-12-16 14:00","2013","12","16","14:00","-8.3","","-16.5","","52","","31","","8","","24.1","","99.83","","","","-12","","NA"
"2013-12-16 15:00","2013","12","16","15:00","-8.3","","-16.1","","54","","29","","22","","24.1","","99.81","","","","-16","","NA"
"2013-12-16 16:00","2013","12","16","16:00","-9.4","","-16.2","","58","","29","","13","","24.1","","99.90","","","","-15","","Mainly Clear"
"2013-12-16 17:00","2013","12","16","17:00","-10.8","","-16.6","","63","","27","","15","","24.1","","99.97","","","","-18","","NA"
"2013-12-16 18:00","2013","12","16","18:00","-10.9","","-16.3","","65","","29","","10","","24.1","","100.00","","","","-16","","NA"
"2013-12-16 19:00","2013","12","16","19:00","-10.9","","-15.7","","68","","30","","8","","24.1","","100.02","","","","-16","","Mainly Clear"
"2013-12-16 20:00","2013","12","16","20:00","-11.7","","-16.0","","71","","4","","9","","24.1","","100.03","","","","-17","","NA"
"2013-12-16 21:00","2013","12","16","21:00","-11.8","","-16.1","","71","","2","","3","","24.1","","100.03","","","","-14","","NA"
"2013-12-16 22:00","2013","12","16","22:00","-12.8","","-16.4","","75","","4","","10","","24.1","","99.93","","","","-19","","Mainly Clear"
"2013-12-16 23:00","2013","12","16","23:00","-14.4","","-17.4","","78","","1","","4","","24.1","","99.95","","","","-17","","NA"
"2013-12-17 00:00","2013","12","17","00:00","-14.4","","-17.3","","79","","33","","3","","24.1","","99.90","","","","-17","","NA"
"2013-12-17 01:00","2013","12","17","01:00","-14.2","","-16.8","","81","","3","","8","","16.1","","99.78","","","","-19","","Snow Showers"
"2013-12-17 02:00","2013","12","17","02:00","-13.4","","-15.4","","85","","3","","9","","12.9","","99.70","","","","-19","","Snow Showers"
"2013-12-17 03:00","2013","12","17","03:00","-10.5","","-12.3","","87","","5","","13","","12.9","","99.60","","","","-17","","Snow Showers"
"2013-12-17 04:00","2013","12","17","04:00","-10.2","","-12.0","","87","","5","","17","","19.3","","99.50","","","","-17","","Snow Showers"
"2013-12-17 05:00","2013","12","17","05:00","-10.3","","-12.1","","87","","6","","17","","12.9","","99.42","","","","-18","","Snow Showers"
"2013-12-17 06:00","2013","12","17","06:00","-10.2","","-12.0","","87","","7","","18","","4.0","","99.33","","","","-18","","Snow"
"2013-12-17 07:00","2013","12","17","07:00","-9.7","","-11.6","","86","","6","","11","","6.4","","99.30","","","","-15","","Snow"
"2013-12-17 08:00","2013","12","17","08:00","-9.2","","-10.8","","88","","2","","10","","4.0","","99.26","","","","-14","","Snow"
"2013-12-17 09:00","2013","12","17","09:00","-8.9","","-10.7","","87","","2","","13","","3.2","","99.26","","","","-15","","Snow"
"2013-12-17 10:00","2013","12","17","10:00","-8.9","","-11.0","","85","","36","","16","","2.4","","99.30","","","","-16","","Snow"
"2013-12-17 11:00","2013","12","17","11:00","-10.0","","-12.4","","83","","31","","17","","2.8","","99.29","","","","-17","","Snow"
"2013-12-17 12:00","2013","12","17","12:00","-9.3","","-12.0","","81","","27","","12","","6.4","","99.26","","","","-15","","Snow"
"2013-12-17 13:00","2013","12","17","13:00","-7.7","","-11.2","","76","","30","","3","","16.1","","99.19","","","","-9","","Snow"
"2013-12-17 14:00","2013","12","17","14:00","-5.9","","-9.5","","76","","16","","6","","16.1","","99.13","","","","-9","","NA"
"2013-12-17 15:00","2013","12","17","15:00","-4.3","","-7.9","","76","","19","","10","","16.1","","99.13","","","","-8","","NA"
"2013-12-17 16:00","2013","12","17","16:00","-4.5","","-8.3","","75","","22","","11","","16.1","","99.15","","","","-9","","Cloudy"
"2013-12-17 17:00","2013","12","17","17:00","-4.9","","-7.0","","85","","22","","11","","6.4","","99.18","","","","-9","","Snow Showers"
"2013-12-17 18:00","2013","12","17","18:00","-5.9","","-7.6","","88","","9","","5","","9.7","","99.17","","","","-8","","Snow Showers"
"2013-12-17 19:00","2013","12","17","19:00","-4.9","","-7.0","","85","","12","","4","","12.9","","99.18","","","","-7","","Snow"
"2013-12-17 20:00","2013","12","17","20:00","-4.9","","-7.0","","85","","14","","4","","19.3","","99.19","","","","-7","","NA"
"2013-12-17 21:00","2013","12","17","21:00","-4.6","","-6.6","","86","","11","","3","","16.1","","99.21","","","","-6","","Snow Showers"
"2013-12-17 22:00","2013","12","17","22:00","-4.4","","-6.4","","86","","21","","4","","16.1","","99.22","","","","-6","","Snow Showers"
"2013-12-17 23:00","2013","12","17","23:00","-4.5","","-6.2","","88","","16","","4","","16.1","","99.22","","","","-6","","Snow Showers"
"2013-12-18 00:00","2013","12","18","00:00","-4.3","","-6.6","","84","","24","","8","","19.3","","99.23","","","","-8","","NA"
"2013-12-18 01:00","2013","12","18","01:00","-4.4","","-6.7","","84","","23","","10","","19.3","","99.19","","","","-9","","Cloudy"
"2013-12-18 02:00","2013","12","18","02:00","-4.6","","-6.8","","85","","25","","12","","19.3","","99.19","","","","-9","","NA"
"2013-12-18 03:00","2013","12","18","03:00","-4.2","","-6.2","","86","","25","","18","","16.1","","99.22","","","","-10","","Snow Showers"
"2013-12-18 04:00","2013","12","18","04:00","-4.0","","-6.2","","85","","25","","13","","16.1","","99.25","","","","-9","","Snow Showers"
"2013-12-18 05:00","2013","12","18","05:00","-3.4","","-5.7","","84","","25","","17","","16.1","","99.31","","","","-9","","NA"
"2013-12-18 06:00","2013","12","18","06:00","-3.5","","-6.1","","82","","25","","19","","16.1","","99.35","","","","-9","","NA"
"2013-12-18 07:00","2013","12","18","07:00","-5.4","","-7.7","","84","","24","","17","","16.1","","99.39","","","","-11","","Mostly Cloudy"
"2013-12-18 08:00","2013","12","18","08:00","-4.9","","-7.4","","83","","25","","18","","16.1","","99.41","","","","-11","","NA"
"2013-12-18 09:00","2013","12","18","09:00","-4.1","","-6.9","","81","","24","","20","","16.1","","99.44","","","","-10","","NA"
"2013-12-18 10:00","2013","12","18","10:00","-3.2","","-6.3","","79","","25","","20","","16.1","","99.46","","","","-9","","Mostly Cloudy"
"2013-12-18 11:00","2013","12","18","11:00","-2.5","","-5.5","","80","","25","","29","","19.3","","99.45","","","","-10","","NA"
"2013-12-18 12:00","2013","12","18","12:00","-1.6","","-5.3","","76","","26","","33","","19.3","","99.44","","","","-9","","NA"
"2013-12-18 13:00","2013","12","18","13:00","-0.9","","-5.1","","73","","27","","33","","19.3","","99.40","","","","-8","","Mostly Cloudy"
"2013-12-18 14:00","2013","12","18","14:00","-0.9","","-6.3","","67","","26","","33","","24.1","","99.43","","","","-8","","NA"
"2013-12-18 15:00","2013","12","18","15:00","-1.5","","-6.1","","71","","29","","25","","24.1","","99.51","","","","-8","","NA"
"2013-12-18 16:00","2013","12","18","16:00","-1.7","","-7.2","","66","","26","","28","","24.1","","99.53","","","","-8","","Cloudy"
"2013-12-18 17:00","2013","12","18","17:00","-2.0","","-6.6","","71","","26","","24","","24.1","","99.58","","","","-8","","NA"
"2013-12-18 18:00","2013","12","18","18:00","-2.1","","-6.5","","72","","27","","17","","24.1","","99.61","","","","-7","","NA"
"2013-12-18 19:00","2013","12","18","19:00","-1.8","","-6.2","","72","","23","","13","","24.1","","99.59","","","","-6","","Cloudy"
"2013-12-18 20:00","2013","12","18","20:00","-1.9","","-5.4","","77","","21","","17","","24.1","","99.55","","","","-7","","NA"
"2013-12-18 21:00","2013","12","18","21:00","-2.2","","-6.8","","71","","23","","21","","24.1","","99.52","","","","-8","","NA"
"2013-12-18 22:00","2013","12","18","22:00","-2.4","","-6.4","","74","","22","","15","","24.1","","99.49","","","","-7","","Cloudy"
"2013-12-18 23:00","2013","12","18","23:00","-2.3","","-6.0","","76","","20","","9","","24.1","","99.46","","","","-6","","NA"
"2013-12-19 00:00","2013","12","19","00:00","-1.9","","-5.8","","75","","19","","11","","24.1","","99.37","","","","-6","","NA"
"2013-12-19 01:00","2013","12","19","01:00","-2.1","","-6.0","","75","","17","","14","","24.1","","99.22","","","","-7","","Mostly Cloudy"
"2013-12-19 02:00","2013","12","19","02:00","-2.5","","-6.9","","72","","19","","13","","24.1","","99.16","","","","-7","","NA"
"2013-12-19 03:00","2013","12","19","03:00","-3.0","","-7.0","","74","","18","","10","","24.1","","99.12","","","","-7","","NA"
"2013-12-19 04:00","2013","12","19","04:00","-3.0","","-7.2","","73","","20","","10","","24.1","","99.05","","","","-7","","Mostly Cloudy"
"2013-12-19 05:00","2013","12","19","05:00","-2.7","","-6.9","","73","","21","","14","","24.1","","98.99","","","","-8","","NA"
"2013-12-19 06:00","2013","12","19","06:00","-3.0","","-6.7","","76","","22","","11","","24.1","","99.00","","","","-7","","NA"
"2013-12-19 07:00","2013","12","19","07:00","-2.7","","-6.5","","75","","22","","14","","24.1","","99.03","","","","-8","","Mostly Cloudy"
"2013-12-19 08:00","2013","12","19","08:00","-2.3","","-6.5","","73","","21","","16","","24.1","","99.02","","","","-7","","NA"
"2013-12-19 09:00","2013","12","19","09:00","-1.4","","-6.4","","69","","22","","16","","24.1","","99.11","","","","-6","","NA"
"2013-12-19 10:00","2013","12","19","10:00","-0.7","","-5.9","","68","","23","","16","","24.1","","99.21","","","","-5","","Cloudy"
"2013-12-19 11:00","2013","12","19","11:00","0.0","","-5.0","","69","","24","","18","","24.1","","99.25","","","","-5","","NA"
"2013-12-19 12:00","2013","12","19","12:00","1.2","","-3.9","","69","","26","","21","","24.1","","99.26","","","","","","NA"
"2013-12-19 13:00","2013","12","19","13:00","1.9","","-2.4","","73","","25","","16","","24.1","","99.28","","","","","","Cloudy"
"2013-12-19 14:00","2013","12","19","14:00","2.1","","-2.2","","73","","26","","15","","24.1","","99.30","","","","","","NA"
"2013-12-19 15:00","2013","12","19","15:00","2.3","","-2.0","","73","","26","","17","","24.1","","99.38","","","","","","NA"
"2013-12-19 16:00","2013","12","19","16:00","2.1","","-2.1","","74","","28","","11","","24.1","","99.43","","","","","","Cloudy"
"2013-12-19 17:00","2013","12","19","17:00","1.9","","-1.9","","76","","26","","10","","24.1","","99.47","","","","","","NA"
"2013-12-19 18:00","2013","12","19","18:00","1.2","","-1.9","","80","","24","","9","","24.1","","99.54","","","","","","NA"
"2013-12-19 19:00","2013","12","19","19:00","1.2","","-1.9","","80","","25","","11","","24.1","","99.57","","","","","","Cloudy"
"2013-12-19 20:00","2013","12","19","20:00","1.1","","-1.6","","82","","24","","9","","24.1","","99.55","","","","","","NA"
"2013-12-19 21:00","2013","12","19","21:00","1.4","","-1.7","","80","","23","","5","","16.1","","99.54","","","","","","NA"
"2013-12-19 22:00","2013","12","19","22:00","0.5","","-1.6","","86","","1","","7","","16.1","","99.54","","","","","","Cloudy"
"2013-12-19 23:00","2013","12","19","23:00","1.0","","-1.7","","82","","3","","12","","16.1","","99.48","","","","","","NA"
"2013-12-20 00:00","2013","12","20","00:00","0.2","","-1.1","","91","","2","","11","","4.8","","99.47","","","","","","Snow"
"2013-12-20 01:00","2013","12","20","01:00","0.0","","-0.7","","95","","5","","6","","3.2","","99.38","","","","-2","","Snow,Ice Pellets"
"2013-12-20 02:00","2013","12","20","02:00","-0.1","","-0.8","","95","","5","","8","","4.0","","99.33","","","","-3","","Snow,Ice Pellets"
"2013-12-20 03:00","2013","12","20","03:00","0.0","","-0.6","","96","","7","","4","","4.0","","99.28","","","","-1","","Snow,Ice Pellets"
"2013-12-20 04:00","2013","12","20","04:00","0.0","","-0.6","","96","","3","","7","","4.0","","99.21","","","","-2","","Snow,Ice Pellets"
"2013-12-20 05:00","2013","12","20","05:00","0.1","","-0.3","","97","","4","","10","","1.6","","99.12","","","","","","Freezing Drizzle,Snow,Fog"
"2013-12-20 06:00","2013","12","20","06:00","0.3","","-0.1","","97","","5","","8","","2.4","","99.03","","","","","","Drizzle,Fog"
"2013-12-20 07:00","2013","12","20","07:00","0.2","","-0.2","","97","","3","","9","","2.4","","99.02","","","","","","Drizzle,Fog"
"2013-12-20 08:00","2013","12","20","08:00","0.3","","-0.1","","97","","35","","11","","2.4","","98.99","","","","","","Drizzle,Fog"
"2013-12-20 09:00","2013","12","20","09:00","0.3","","-0.3","","96","","36","","10","","4.0","","99.02","","","","","","Drizzle,Fog"
"2013-12-20 10:00","2013","12","20","10:00","0.0","","-0.7","","95","","35","","15","","2.8","","99.05","","","","-4","","Drizzle,Fog"
"2013-12-20 11:00","2013","12","20","11:00","0.0","","-0.7","","95","","36","","17","","6.4","","99.07","","","","-5","","Rain,Fog"
"2013-12-20 12:00","2013","12","20","12:00","0.1","","-0.9","","93","","36","","14","","8.1","","99.00","","","","","","Rain,Fog"
"2013-12-20 13:00","2013","12","20","13:00","0.1","","-0.9","","93","","36","","14","","8.1","","98.93","","","","","","Rain,Fog"
"2013-12-20 14:00","2013","12","20","14:00","0.1","","-0.9","","93","","33","","10","","8.1","","98.94","","","","","","Rain,Fog"
"2013-12-20 15:00","2013","12","20","15:00","0.0","","-0.9","","94","","36","","10","","8.1","","98.90","","","","-3","","Fog"
"2013-12-20 16:00","2013","12","20","16:00","0.3","","-0.4","","95","","2","","9","","4.8","","98.94","","","","","","Drizzle,Fog"
"2013-12-20 17:00","2013","12","20","17:00","0.4","","-0.3","","95","","8","","10","","8.1","","98.94","","","","","","Rain,Fog"
"2013-12-20 18:00","2013","12","20","18:00","0.2","","-0.4","","96","","5","","9","","8.1","","98.95","","","","","","Rain,Fog"
"2013-12-20 19:00","2013","12","20","19:00","0.0","","-0.7","","95","","4","","7","","6.4","","99.03","","","","-2","","Rain,Fog"
"2013-12-20 20:00","2013","12","20","20:00","-0.2","","-1.1","","94","","7","","10","","6.4","","98.96","","","","-4","","Freezing Drizzle,Fog"
"2013-12-20 21:00","2013","12","20","21:00","-0.5","","-1.2","","95","","8","","14","","6.4","","98.83","","","","-5","","Freezing Rain,Fog"
"2013-12-20 22:00","2013","12","20","22:00","-0.4","","-1.1","","95","","8","","10","","6.4","","98.86","","","","-4","","Freezing Rain,Fog"
"2013-12-20 23:00","2013","12","20","23:00","-0.3","","-1.0","","95","","8","","12","","6.4","","98.82","","","","-4","","Freezing Rain,Fog"
"2013-12-21 00:00","2013","12","21","00:00","-0.3","","-0.9","","96","","9","","6","","4.8","","98.79","","","","-2","","Freezing Drizzle,Fog"
"2013-12-21 01:00","2013","12","21","01:00","-0.2","","-0.8","","96","","7","","10","","4.8","","98.71","","","","-4","","Freezing Drizzle,Fog"
"2013-12-21 02:00","2013","12","21","02:00","-0.2","","-0.6","","97","","6","","9","","4.8","","98.68","","","","-3","","Freezing Drizzle,Fog"
"2013-12-21 03:00","2013","12","21","03:00","-0.1","","-0.5","","97","","7","","7","","8.1","","98.66","","","","-3","","Freezing Rain,Fog"
"2013-12-21 04:00","2013","12","21","04:00","-0.3","","-0.9","","96","","4","","9","","8.1","","98.65","","","","-3","","Freezing Rain,Fog"
"2013-12-21 05:00","2013","12","21","05:00","-0.1","","-0.7","","96","","1","","7","","9.7","","98.63","","","","-3","","Freezing Rain,Fog"
"2013-12-21 06:00","2013","12","21","06:00","-0.2","","-0.8","","96","","1","","8","","6.4","","98.68","","","","-3","","Freezing Drizzle,Fog"
"2013-12-21 07:00","2013","12","21","07:00","-0.1","","-0.8","","95","","1","","11","","8.1","","98.75","","","","-4","","Freezing Drizzle,Fog"
"2013-12-21 08:00","2013","12","21","08:00","0.0","","-0.9","","94","","2","","10","","8.1","","98.76","","","","-3","","Fog"
"2013-12-21 09:00","2013","12","21","09:00","0.2","","-0.5","","95","","36","","5","","6.4","","98.84","","","","","","Fog"
"2013-12-21 10:00","2013","12","21","10:00","0.0","","-0.6","","96","","35","","12","","1.0","","98.92","","","","-4","","Fog"
"2013-12-21 11:00","2013","12","21","11:00","-0.2","","-0.6","","97","","35","","16","","8.1","","99.04","","","","-5","","Freezing Rain,Fog"
"2013-12-21 12:00","2013","12","21","12:00","-0.4","","-1.7","","91","","36","","16","","9.7","","98.94","","","","-5","","Freezing Rain,Fog"
"2013-12-21 13:00","2013","12","21","13:00","-0.4","","-1.7","","91","","35","","15","","9.7","","98.94","","","","-5","","Freezing Rain,Fog"
"2013-12-21 14:00","2013","12","21","14:00","-0.7","","-2.1","","90","","1","","19","","16.1","","98.92","","","","-6","","Freezing Rain"
"2013-12-21 15:00","2013","12","21","15:00","-0.5","","-1.8","","91","","36","","15","","8.1","","98.98","","","","-5","","Freezing Rain,Fog"
"2013-12-21 16:00","2013","12","21","16:00","-0.6","","-1.7","","92","","1","","17","","8.1","","99.09","","","","-6","","Freezing Rain,Fog"
"2013-12-21 17:00","2013","12","21","17:00","-0.6","","-1.9","","91","","2","","15","","8.1","","99.11","","","","-5","","Freezing Rain,Fog"
"2013-12-21 18:00","2013","12","21","18:00","-0.7","","-2.0","","91","","3","","17","","9.7","","99.11","","","","-6","","Freezing Rain,Fog"
"2013-12-21 19:00","2013","12","21","19:00","-0.6","","-1.6","","93","","2","","14","","9.7","","99.14","","","","-5","","Freezing Rain,Fog"
"2013-12-21 20:00","2013","12","21","20:00","-0.6","","-1.7","","92","","1","","20","","9.7","","99.12","","","","-6","","Freezing Rain,Fog"
"2013-12-21 21:00","2013","12","21","21:00","-0.6","","-1.6","","93","","1","","18","","9.7","","99.19","","","","-6","","Freezing Rain,Fog"
"2013-12-21 22:00","2013","12","21","22:00","-0.7","","-1.7","","93","","4","","18","","9.7","","99.12","","","","-6","","Freezing Rain,Fog"
"2013-12-21 23:00","2013","12","21","23:00","-1.0","","-2.1","","92","","4","","23","","9.7","","98.99","","","","-7","","Freezing Rain,Fog"
"2013-12-22 00:00","2013","12","22","00:00","-1.0","","-2.1","","92","","5","","14","","9.7","","98.98","","","","-5","","Freezing Rain,Fog"
"2013-12-22 01:00","2013","12","22","01:00","-1.2","","-2.2","","93","","4","","19","","9.7","","98.73","","","","-7","","Freezing Rain,Fog"
"2013-12-22 02:00","2013","12","22","02:00","-1.4","","-2.4","","93","","4","","15","","9.7","","98.63","","","","-6","","Freezing Rain,Fog"
"2013-12-22 03:00","2013","12","22","03:00","-0.6","","-1.9","","91","","5","","18","","9.7","","98.63","","","","-6","","Freezing Rain,Fog"
"2013-12-22 04:00","2013","12","22","04:00","-1.1","","-2.2","","92","","6","","11","","19.3","","98.40","","","","-5","","Freezing Drizzle"
"2013-12-22 05:00","2013","12","22","05:00","-0.7","","-2.0","","91","","7","","11","","16.1","","98.54","","","","-4","","Freezing Drizzle"
"2013-12-22 06:00","2013","12","22","06:00","-0.5","","-1.5","","93","","6","","10","","9.7","","98.56","","","","-4","","Freezing Rain"
"2013-12-22 07:00","2013","12","22","07:00","-0.4","","-1.3","","94","","7","","10","","6.4","","98.59","","","","-4","","Moderate Freezing Drizzle"
"2013-12-22 08:00","2013","12","22","08:00","-1.2","","-2.2","","93","","7","","17","","6.4","","98.48","","","","-6","","Freezing Drizzle"
"2013-12-22 09:00","2013","12","22","09:00","-1.8","","-2.9","","92","","9","","17","","4.0","","98.45","","","","-7","","Freezing Rain,Fog"
"2013-12-22 10:00","2013","12","22","10:00","-2.2","","-3.3","","92","","7","","15","","6.4","","98.53","","","","-7","","Freezing Drizzle,Fog"
"2013-12-22 11:00","2013","12","22","11:00","-2.3","","-3.6","","91","","8","","17","","9.7","","98.55","","","","-8","","Freezing Drizzle"
"2013-12-22 12:00","2013","12","22","12:00","-2.6","","-3.7","","92","","8","","10","","6.4","","98.41","","","","-6","","Freezing Drizzle,Fog"
"2013-12-22 13:00","2013","12","22","13:00","-2.4","","-3.2","","94","","9","","10","","6.4","","98.37","","","","-6","","Freezing Drizzle,Fog"
"2013-12-22 14:00","2013","12","22","14:00","-2.3","","-3.1","","94","","11","","13","","4.0","","98.46","","","","-7","","Freezing Drizzle,Fog"
"2013-12-22 15:00","2013","12","22","15:00","-2.1","","-2.8","","95","","7","","5","","4.8","","98.58","","","","-4","","Fog"
"2013-12-22 16:00","2013","12","22","16:00","-1.8","","-2.4","","96","","3","","6","","3.2","","98.71","","","","-4","","Freezing Drizzle,Fog"
"2013-12-22 17:00","2013","12","22","17:00","-1.1","","-1.7","","96","","14","","9","","4.8","","98.77","","","","-4","","Fog"
"2013-12-22 18:00","2013","12","22","18:00","0.9","","0.0","","94","","20","","8","","12.9","","98.94","","","","","","NA"
"2013-12-22 19:00","2013","12","22","19:00","1.7","","0.1","","89","","22","","8","","24.1","","99.02","","","","","","Mostly Cloudy"
"2013-12-22 20:00","2013","12","22","20:00","1.8","","-0.8","","83","","26","","15","","24.1","","99.06","","","","","","NA"
"2013-12-22 21:00","2013","12","22","21:00","1.4","","-0.7","","86","","24","","14","","24.1","","99.18","","","","","","NA"
"2013-12-22 22:00","2013","12","22","22:00","1.2","","-1.0","","85","","24","","14","","24.1","","99.22","","","","","","Cloudy"
"2013-12-22 23:00","2013","12","22","23:00","1.1","","-1.1","","85","","25","","12","","24.1","","99.21","","","","","","NA"
"2013-12-23 00:00","2013","12","23","00:00","1.0","","-0.8","","88","","25","","10","","24.1","","99.24","","","","","","NA"
"2013-12-23 01:00","2013","12","23","01:00","1.0","","-0.8","","88","","25","","13","","24.1","","99.30","","","","","","Cloudy"
"2013-12-23 02:00","2013","12","23","02:00","0.8","","-0.7","","90","","22","","7","","24.1","","99.36","","","","","","NA"
"2013-12-23 03:00","2013","12","23","03:00","0.5","","-0.7","","92","","28","","9","","24.1","","99.40","","","","","","NA"
"2013-12-23 04:00","2013","12","23","04:00","0.7","","-0.9","","89","","26","","9","","24.1","","99.40","","","","","","Cloudy"
"2013-12-23 05:00","2013","12","23","05:00","-1.0","","-1.8","","94","","35","","13","","19.3","","99.43","","","","-5","","NA"
"2013-12-23 06:00","2013","12","23","06:00","-2.7","","-4.1","","90","","36","","17","","24.1","","99.53","","","","-8","","NA"
"2013-12-23 07:00","2013","12","23","07:00","-3.1","","-5.0","","87","","36","","22","","24.1","","99.55","","","","-9","","Cloudy"
"2013-12-23 08:00","2013","12","23","08:00","-3.6","","-5.3","","88","","35","","20","","24.1","","99.61","","","","-10","","NA"
"2013-12-23 09:00","2013","12","23","09:00","-4.3","","-6.2","","87","","35","","23","","24.1","","99.73","","","","-11","","NA"
"2013-12-23 10:00","2013","12","23","10:00","-4.0","","-6.0","","86","","35","","17","","24.1","","99.84","","","","-10","","Cloudy"
"2013-12-23 11:00","2013","12","23","11:00","-4.1","","-6.6","","83","","36","","18","","24.1","","99.90","","","","-10","","NA"
"2013-12-23 12:00","2013","12","23","12:00","-4.0","","-6.5","","83","","36","","12","","19.3","","99.89","","","","-9","","Snow Grains"
"2013-12-23 13:00","2013","12","23","13:00","-3.9","","-6.4","","83","","36","","15","","24.1","","99.90","","","","-9","","Snow Grains"
"2013-12-23 14:00","2013","12","23","14:00","-3.4","","-5.7","","84","","31","","12","","6.4","","99.97","","","","-8","","Snow"
"2013-12-23 15:00","2013","12","23","15:00","-2.9","","-5.2","","84","","30","","17","","24.1","","100.06","","","","-8","","Snow"
"2013-12-23 16:00","2013","12","23","16:00","-3.3","","-7.3","","74","","28","","17","","24.1","","100.15","","","","-9","","Mainly Clear"
"2013-12-23 17:00","2013","12","23","17:00","-4.4","","-8.5","","73","","29","","18","","24.1","","100.25","","","","-10","","NA"
"2013-12-23 18:00","2013","12","23","18:00","-5.0","","-8.8","","75","","29","","12","","24.1","","100.28","","","","-10","","NA"
"2013-12-23 19:00","2013","12","23","19:00","-5.0","","-8.6","","76","","28","","9","","24.1","","100.32","","","","-9","","Cloudy"
"2013-12-23 20:00","2013","12","23","20:00","-4.8","","-7.9","","79","","29","","11","","24.1","","100.37","","","","-9","","NA"
"2013-12-23 21:00","2013","12","23","21:00","-5.1","","-8.0","","80","","27","","16","","24.1","","100.39","","","","-11","","NA"
"2013-12-23 22:00","2013","12","23","22:00","-5.0","","-8.8","","75","","31","","12","","24.1","","100.36","","","","-10","","Mostly Cloudy"
"2013-12-23 23:00","2013","12","23","23:00","-7.0","","-9.4","","83","","1","","15","","24.1","","100.31","","","","-13","","NA"
"2013-12-24 00:00","2013","12","24","00:00","-8.1","","-10.3","","84","","2","","7","","24.1","","100.31","","","","-12","","NA"
"2013-12-24 01:00","2013","12","24","01:00","-8.1","","-10.8","","81","","1","","10","","24.1","","100.32","","","","-13","","Mostly Cloudy"
"2013-12-24 02:00","2013","12","24","02:00","-8.3","","-10.5","","84","","1","","7","","24.1","","100.34","","","","-12","","NA"
"2013-12-24 03:00","2013","12","24","03:00","-8.5","","-10.6","","85","","3","","9","","24.1","","100.35","","","","-13","","NA"
"2013-12-24 04:00","2013","12","24","04:00","-8.5","","-10.7","","84","","2","","11","","24.1","","100.30","","","","-14","","Mostly Cloudy"
"2013-12-24 05:00","2013","12","24","05:00","-9.8","","-12.0","","84","","34","","18","","24.1","","100.31","","","","-17","","NA"
"2013-12-24 06:00","2013","12","24","06:00","-11.1","","-13.6","","82","","36","","17","","3.6","","100.34","","","","-19","","Snow Showers"
"2013-12-24 07:00","2013","12","24","07:00","-11.6","","-14.1","","82","","36","","19","","3.6","","100.35","","","","-20","","Snow Showers"
"2013-12-24 08:00","2013","12","24","08:00","-12.0","","-14.8","","80","","36","","22","","9.7","","100.41","","","","-21","","Snow Showers"
"2013-12-24 09:00","2013","12","24","09:00","-12.2","","-15.5","","77","","34","","20","","19.3","","100.47","","","","-21","","NA"
"2013-12-24 10:00","2013","12","24","10:00","-12.2","","-16.4","","71","","35","","24","","24.1","","100.54","","","","-21","","Mainly Clear"
"2013-12-24 11:00","2013","12","24","11:00","-11.6","","-16.0","","70","","35","","29","","24.1","","100.55","","","","-21","","NA"
"2013-12-24 12:00","2013","12","24","12:00","-11.5","","-16.5","","67","","34","","25","","24.1","","100.51","","","","-21","","NA"
"2013-12-24 13:00","2013","12","24","13:00","-10.9","","-15.5","","69","","33","","27","","24.1","","100.51","","","","-20","","Clear"
"2013-12-24 14:00","2013","12","24","14:00","-10.6","","-15.2","","69","","34","","20","","24.1","","100.58","","","","-19","","NA"
"2013-12-24 15:00","2013","12","24","15:00","-10.6","","-14.9","","71","","34","","15","","24.1","","100.62","","","","-17","","NA"
"2013-12-24 16:00","2013","12","24","16:00","-9.9","","-15.1","","66","","32","","26","","24.1","","100.72","","","","-19","","Mainly Clear"
"2013-12-24 17:00","2013","12","24","17:00","-10.9","","-16.3","","65","","31","","26","","24.1","","100.82","","","","-20","","Blowing Snow"
"2013-12-24 18:00","2013","12","24","18:00","-11.4","","-16.4","","67","","30","","19","","24.1","","100.91","","","","-19","","NA"
"2013-12-24 19:00","2013","12","24","19:00","-11.8","","-16.6","","68","","29","","21","","24.1","","100.97","","","","-20","","Clear"
"2013-12-24 20:00","2013","12","24","20:00","-12.3","","-16.7","","70","","31","","21","","24.1","","101.05","","","","-21","","NA"
"2013-12-24 21:00","2013","12","24","21:00","-13.6","","-17.0","","76","","36","","15","","24.1","","101.11","","","","-21","","NA"
"2013-12-24 22:00","2013","12","24","22:00","-14.2","","-17.2","","78","","35","","18","","24.1","","101.15","","","","-23","","Clear"
"2013-12-24 23:00","2013","12","24","23:00","-14.4","","-17.3","","79","","33","","10","","24.1","","101.19","","","","-21","","NA"
"2013-12-25 00:00","2013","12","25","00:00","-14.9","","-18.1","","77","","1","","12","","24.1","","101.17","","","","-22","","NA"
"2013-12-25 01:00","2013","12","25","01:00","-15.8","","-18.5","","80","","2","","9","","24.1","","101.13","","","","-22","","Clear"
"2013-12-25 02:00","2013","12","25","02:00","-15.4","","-18.1","","80","","36","","6","","24.1","","101.16","","","","-20","","NA"
"2013-12-25 03:00","2013","12","25","03:00","-16.4","","-19.1","","80","","35","","7","","24.1","","101.17","","","","-21","","NA"
"2013-12-25 04:00","2013","12","25","04:00","-16.8","","-19.6","","79","","32","","9","","24.1","","101.20","","","","-23","","Clear"
"2013-12-25 05:00","2013","12","25","05:00","-16.5","","-19.2","","80","","27","","5","","24.1","","101.17","","","","-20","","NA"
"2013-12-25 06:00","2013","12","25","06:00","-16.4","","-19.1","","80","","3","","7","","24.1","","101.18","","","","-21","","Moderate Snow"
"2013-12-25 07:00","2013","12","25","07:00","-15.0","","-17.4","","82","","4","","6","","24.1","","101.14","","","","-19","","Snow"
"2013-12-25 08:00","2013","12","25","08:00","-14.8","","-17.2","","82","","3","","5","","24.1","","101.11","","","","-18","","NA"
"2013-12-25 09:00","2013","12","25","09:00","-12.9","","-15.1","","84","","8","","5","","16.1","","101.07","","","","-16","","NA"
"2013-12-25 10:00","2013","12","25","10:00","-12.0","","-14.3","","83","","2","","2","","16.1","","101.07","","","","-13","","Cloudy"
"2013-12-25 11:00","2013","12","25","11:00","-11.2","","-13.4","","84","","6","","7","","19.3","","100.98","","","","-15","","NA"
"2013-12-25 12:00","2013","12","25","12:00","-10.0","","-12.1","","85","","10","","5","","9.7","","100.88","","","","-13","","Snow"
"2013-12-25 13:00","2013","12","25","13:00","-8.3","","-10.5","","84","","14","","12","","4.0","","100.74","","","","-14","","Snow"
"2013-12-25 14:00","2013","12","25","14:00","-7.0","","-8.8","","87","","16","","10","","1.2","","100.64","","","","-12","","Snow"
"2013-12-25 15:00","2013","12","25","15:00","-6.3","","-7.8","","89","","15","","14","","1.6","","100.54","","","","-12","","Snow"
"2013-12-25 16:00","2013","12","25","16:00","-6.0","","-7.5","","89","","16","","15","","4.0","","100.47","","","","-12","","Snow"
"2013-12-25 17:00","2013","12","25","17:00","-5.7","","-7.8","","85","","16","","17","","4.8","","100.42","","","","-12","","Snow"
"2013-12-25 18:00","2013","12","25","18:00","-5.8","","-7.8","","86","","15","","15","","6.4","","100.35","","","","-12","","Snow"
"2013-12-25 19:00","2013","12","25","19:00","-5.5","","-8.6","","79","","16","","11","","9.7","","100.31","","","","-10","","Snow"
"2013-12-25 20:00","2013","12","25","20:00","-4.9","","-8.2","","78","","17","","15","","9.7","","100.27","","","","-10","","Snow"
"2013-12-25 21:00","2013","12","25","21:00","-4.7","","-7.5","","81","","17","","10","","9.7","","100.19","","","","-9","","Snow"
"2013-12-25 22:00","2013","12","25","22:00","-4.4","","-7.2","","81","","18","","10","","9.7","","100.09","","","","-9","","Snow"
"2013-12-25 23:00","2013","12","25","23:00","-4.1","","-7.2","","79","","20","","5","","16.1","","100.05","","","","-6","","Snow"
"2013-12-26 00:00","2013","12","26","00:00","-3.9","","-7.2","","78","","19","","7","","9.7","","99.97","","","","-7","","Snow"
"2013-12-26 01:00","2013","12","26","01:00","-4.0","","-7.0","","80","","22","","13","","9.7","","99.93","","","","-9","","Snow"
"2013-12-26 02:00","2013","12","26","02:00","-4.4","","-6.1","","88","","21","","9","","9.7","","99.88","","","","-8","","Snow"
"2013-12-26 03:00","2013","12","26","03:00","-4.3","","-5.4","","92","","17","","9","","3.2","","99.84","","","","-8","","Snow"
"2013-12-26 04:00","2013","12","26","04:00","-4.1","","-5.4","","91","","20","","9","","6.4","","99.74","","","","-8","","Snow"
"2013-12-26 05:00","2013","12","26","05:00","-4.2","","-5.5","","91","","20","","5","","6.4","","99.67","","","","-6","","Snow"
"2013-12-26 06:00","2013","12","26","06:00","-4.1","","-5.2","","92","","21","","3","","3.2","","99.63","","","","-5","","Snow"
"2013-12-26 07:00","2013","12","26","07:00","-4.1","","-5.1","","93","","17","","6","","3.2","","99.61","","","","-7","","Snow"
"2013-12-26 08:00","2013","12","26","08:00","-4.1","","-5.2","","92","","21","","8","","4.8","","99.63","","","","-8","","Snow"
"2013-12-26 09:00","2013","12","26","09:00","-3.8","","-5.2","","90","","21","","8","","4.0","","99.67","","","","-7","","Snow"
"2013-12-26 10:00","2013","12","26","10:00","-3.8","","-5.7","","87","","24","","13","","9.7","","99.69","","","","-9","","Fog"
"2013-12-26 11:00","2013","12","26","11:00","-2.4","","-4.9","","83","","25","","15","","12.9","","99.70","","","","-7","","NA"
"2013-12-26 12:00","2013","12","26","12:00","-1.8","","-5.0","","79","","26","","23","","12.9","","99.68","","","","-8","","NA"
"2013-12-26 13:00","2013","12","26","13:00","-1.3","","-4.8","","77","","25","","26","","16.1","","99.72","","","","-8","","Mostly Cloudy"
"2013-12-26 14:00","2013","12","26","14:00","-1.2","","-4.1","","81","","25","","20","","9.7","","99.74","","","","-7","","Snow Showers"
"2013-12-26 15:00","2013","12","26","15:00","-1.6","","-4.9","","78","","26","","25","","16.1","","99.80","","","","-8","","Blowing Snow"
"2013-12-26 16:00","2013","12","26","16:00","-2.8","","-6.5","","76","","26","","31","","16.1","","99.91","","","","-10","","Blowing Snow"
"2013-12-26 17:00","2013","12","26","17:00","-4.0","","-7.3","","78","","26","","24","","19.3","","100.04","","","","-11","","Blowing Snow"
"2013-12-26 18:00","2013","12","26","18:00","-4.8","","-7.7","","80","","26","","21","","19.3","","100.12","","","","-11","","NA"
"2013-12-26 19:00","2013","12","26","19:00","-5.9","","-8.2","","84","","24","","13","","19.3","","100.22","","","","-11","","Mostly Cloudy"
"2013-12-26 20:00","2013","12","26","20:00","-4.3","","-7.6","","78","","26","","26","","19.3","","100.25","","","","-12","","NA"
"2013-12-26 21:00","2013","12","26","21:00","-5.2","","-8.6","","77","","25","","23","","19.3","","100.27","","","","-12","","Blowing Snow"
"2013-12-26 22:00","2013","12","26","22:00","-6.4","","-9.6","","78","","25","","24","","24.1","","100.27","","","","-14","","Blowing Snow"
"2013-12-26 23:00","2013","12","26","23:00","-6.9","","-10.0","","79","","25","","20","","24.1","","100.29","","","","-14","","NA"
"2013-12-27 00:00","2013","12","27","00:00","-6.2","","-9.3","","79","","26","","21","","24.1","","100.32","","","","-13","","NA"
"2013-12-27 01:00","2013","12","27","01:00","-5.8","","-9.0","","78","","26","","21","","24.1","","100.29","","","","-13","","Mostly Cloudy"
"2013-12-27 02:00","2013","12","27","02:00","-5.7","","-8.6","","80","","24","","13","","24.1","","100.30","","","","-11","","NA"
"2013-12-27 03:00","2013","12","27","03:00","-5.6","","-8.5","","80","","22","","14","","19.3","","100.28","","","","-11","","Snow Showers"
"2013-12-27 04:00","2013","12","27","04:00","-5.4","","-7.7","","84","","23","","11","","16.1","","100.21","","","","-10","","Snow Showers"
"2013-12-27 05:00","2013","12","27","05:00","-5.4","","-7.4","","86","","23","","14","","16.1","","100.17","","","","-11","","Snow Showers"
"2013-12-27 06:00","2013","12","27","06:00","-5.0","","-7.0","","86","","24","","12","","16.1","","100.16","","","","-10","","Snow Showers"
"2013-12-27 07:00","2013","12","27","07:00","-4.3","","-6.3","","86","","25","","15","","14.5","","100.18","","","","-10","","Snow Showers"
"2013-12-27 08:00","2013","12","27","08:00","-4.3","","-6.3","","86","","28","","12","","16.1","","100.23","","","","-9","","NA"
"2013-12-27 09:00","2013","12","27","09:00","-3.8","","-5.7","","87","","27","","13","","16.1","","100.27","","","","-9","","NA"
"2013-12-27 10:00","2013","12","27","10:00","-3.4","","-5.4","","86","","24","","15","","16.1","","100.31","","","","-9","","Mainly Clear"
"2013-12-27 11:00","2013","12","27","11:00","-3.0","","-5.7","","82","","25","","15","","16.1","","100.32","","","","-8","","NA"
"2013-12-27 12:00","2013","12","27","12:00","-1.4","","-7.2","","65","","27","","25","","24.1","","100.27","","","","-8","","NA"
"2013-12-27 13:00","2013","12","27","13:00","-1.9","","-6.9","","69","","28","","18","","24.1","","100.25","","","","-7","","Mostly Cloudy"
"2013-12-27 14:00","2013","12","27","14:00","-1.6","","-6.6","","69","","29","","16","","24.1","","100.21","","","","-7","","NA"
"2013-12-27 15:00","2013","12","27","15:00","-2.2","","-7.0","","70","","28","","19","","24.1","","100.24","","","","-8","","NA"
"2013-12-27 16:00","2013","12","27","16:00","-2.7","","-6.7","","74","","28","","13","","24.1","","100.26","","","","-7","","Mostly Cloudy"
"2013-12-27 17:00","2013","12","27","17:00","-3.0","","-6.8","","75","","25","","17","","24.1","","100.23","","","","-9","","NA"
"2013-12-27 18:00","2013","12","27","18:00","-2.4","","-6.4","","74","","20","","11","","24.1","","100.20","","","","-6","","NA"
"2013-12-27 19:00","2013","12","27","19:00","-2.7","","-6.0","","78","","21","","11","","24.1","","100.18","","","","-7","","Mostly Cloudy"
"2013-12-27 20:00","2013","12","27","20:00","-2.7","","-5.5","","81","","22","","14","","24.1","","100.06","","","","-8","","NA"
"2013-12-27 21:00","2013","12","27","21:00","-2.4","","-4.7","","84","","18","","10","","24.1","","99.94","","","","-6","","NA"
"2013-12-27 22:00","2013","12","27","22:00","-1.9","","-3.8","","87","","17","","12","","24.1","","99.77","","","","-6","","Mostly Cloudy"
"2013-12-27 23:00","2013","12","27","23:00","-1.7","","-3.3","","89","","16","","8","","24.1","","99.65","","","","-5","","NA"
"2013-12-28 00:00","2013","12","28","00:00","-0.2","","-2.7","","83","","22","","11","","24.1","","99.54","","","","-4","","NA"
"2013-12-28 01:00","2013","12","28","01:00","1.5","","-1.4","","81","","24","","33","","24.1","","99.42","","","","","","Mostly Cloudy"
"2013-12-28 02:00","2013","12","28","02:00","2.3","","-1.0","","79","","24","","30","","24.1","","99.37","","","","","","NA"
"2013-12-28 03:00","2013","12","28","03:00","2.4","","-0.9","","79","","22","","19","","19.3","","99.39","","","","","","NA"
"2013-12-28 04:00","2013","12","28","04:00","2.5","","-1.0","","78","","23","","22","","19.3","","99.34","","","","","","Mostly Cloudy"
"2013-12-28 05:00","2013","12","28","05:00","2.4","","-0.9","","79","","22","","16","","24.1","","99.35","","","","","","NA"
"2013-12-28 06:00","2013","12","28","06:00","2.4","","-0.9","","79","","21","","13","","24.1","","99.38","","","","","","NA"
"2013-12-28 07:00","2013","12","28","07:00","2.6","","-0.9","","78","","26","","22","","24.1","","99.42","","","","","","Cloudy"
"2013-12-28 08:00","2013","12","28","08:00","2.7","","-0.6","","79","","27","","14","","24.1","","99.55","","","","","","NA"
"2013-12-28 09:00","2013","12","28","09:00","2.2","","-0.6","","82","","25","","14","","19.3","","99.63","","","","","","NA"
"2013-12-28 10:00","2013","12","28","10:00","2.1","","-0.7","","82","","24","","15","","19.3","","99.67","","","","","","Cloudy"
"2013-12-28 11:00","2013","12","28","11:00","1.9","","-0.4","","85","","25","","13","","16.1","","99.71","","","","","","NA"
"2013-12-28 12:00","2013","12","28","12:00","2.2","","-0.6","","82","","24","","16","","16.1","","99.64","","","","","","NA"
"2013-12-28 13:00","2013","12","28","13:00","2.5","","-0.6","","80","","23","","17","","16.1","","99.55","","","","","","Cloudy"
"2013-12-28 14:00","2013","12","28","14:00","2.2","","-0.9","","80","","26","","20","","19.3","","99.51","","","","","","NA"
"2013-12-28 15:00","2013","12","28","15:00","2.1","","-0.7","","82","","24","","10","","19.3","","99.51","","","","","","NA"
"2013-12-28 16:00","2013","12","28","16:00","2.3","","-0.6","","81","","23","","14","","16.1","","99.47","","","","","","Mainly Clear"
"2013-12-28 17:00","2013","12","28","17:00","2.5","","-0.4","","81","","18","","7","","16.1","","99.43","","","","","","NA"
"2013-12-28 18:00","2013","12","28","18:00","2.8","","-0.7","","78","","20","","12","","19.3","","99.51","","","","","","NA"
"2013-12-28 19:00","2013","12","28","19:00","2.5","","-0.8","","79","","22","","14","","24.1","","99.42","","","","","","Clear"
"2013-12-28 20:00","2013","12","28","20:00","2.4","","-0.5","","81","","21","","3","","24.1","","99.36","","","","","","NA"
"2013-12-28 21:00","2013","12","28","21:00","3.1","","-0.4","","78","","22","","6","","24.1","","99.34","","","","","","NA"
"2013-12-28 22:00","2013","12","28","22:00","2.6","","-0.7","","79","","25","","12","","24.1","","99.29","","","","","","Mostly Cloudy"
"2013-12-28 23:00","2013","12","28","23:00","2.9","","-0.7","","77","","22","","8","","24.1","","99.23","","","","","","NA"
"2013-12-29 00:00","2013","12","29","00:00","2.6","","-0.7","","79","","24","","15","","24.1","","99.15","","","","","","NA"
"2013-12-29 01:00","2013","12","29","01:00","2.6","","-0.7","","79","","25","","15","","24.1","","99.07","","","","","","Mostly Cloudy"
"2013-12-29 02:00","2013","12","29","02:00","3.0","","-0.6","","77","","24","","14","","24.1","","99.06","","","","","","NA"
"2013-12-29 03:00","2013","12","29","03:00","3.1","","-0.5","","77","","21","","11","","24.1","","99.07","","","","","","NA"
"2013-12-29 04:00","2013","12","29","04:00","3.2","","-0.6","","76","","21","","13","","24.1","","98.98","","","","","","Cloudy"
"2013-12-29 05:00","2013","12","29","05:00","3.1","","-0.7","","76","","22","","14","","24.1","","98.89","","","","","","NA"
"2013-12-29 06:00","2013","12","29","06:00","2.8","","-0.8","","77","","22","","12","","24.1","","98.86","","","","","","NA"
"2013-12-29 07:00","2013","12","29","07:00","3.0","","-1.0","","75","","21","","12","","24.1","","98.85","","","","","","Cloudy"
"2013-12-29 08:00","2013","12","29","08:00","3.2","","-1.0","","74","","21","","14","","24.1","","98.76","","","","","","NA"
"2013-12-29 09:00","2013","12","29","09:00","3.4","","-1.2","","72","","20","","13","","24.1","","98.71","","","","","","NA"
"2013-12-29 10:00","2013","12","29","10:00","3.6","","-1.4","","70","","20","","8","","24.1","","98.66","","","","","","Cloudy"
"2013-12-29 11:00","2013","12","29","11:00","4.2","","-1.8","","65","","22","","6","","24.1","","98.60","","","","","","NA"
"2013-12-29 12:00","2013","12","29","12:00","4.6","","-2.3","","61","","22","","14","","24.1","","98.46","","","","","","NA"
"2013-12-29 13:00","2013","12","29","13:00","4.4","","-2.0","","63","","24","","15","","24.1","","98.35","","","","","","Cloudy"
"2013-12-29 14:00","2013","12","29","14:00","4.3","","-1.7","","65","","24","","13","","24.1","","98.31","","","","","","NA"
"2013-12-29 15:00","2013","12","29","15:00","4.3","","-1.7","","65","","23","","10","","24.1","","98.25","","","","","","NA"
"2013-12-29 16:00","2013","12","29","16:00","3.0","","-1.4","","73","","25","","10","","24.1","","98.23","","","","","","Mostly Cloudy"
"2013-12-29 17:00","2013","12","29","17:00","2.9","","-1.5","","73","","28","","16","","24.1","","98.22","","","","","","NA"
"2013-12-29 18:00","2013","12","29","18:00","2.3","","-1.1","","78","","26","","13","","24.1","","98.26","","","","","","NA"
"2013-12-29 19:00","2013","12","29","19:00","-0.7","","-2.3","","89","","36","","30","","24.1","","98.35","","","","-7","","Cloudy"
"2013-12-29 20:00","2013","12","29","20:00","-2.6","","-4.5","","87","","35","","27","","24.1","","98.50","","","","-10","","NA"
"2013-12-29 21:00","2013","12","29","21:00","-2.9","","-6.2","","78","","32","","32","","24.1","","98.65","","","","-10","","NA"
"2013-12-29 22:00","2013","12","29","22:00","-5.1","","-9.6","","71","","32","","33","","24.1","","98.73","","","","-13","","Cloudy"
"2013-12-29 23:00","2013","12","29","23:00","-5.8","","-10.1","","72","","31","","31","","24.1","","98.82","","","","-14","","NA"
"2013-12-30 00:00","2013","12","30","00:00","-6.7","","-11.1","","71","","32","","40","","24.1","","98.92","","","","-16","","NA"
"2013-12-30 01:00","2013","12","30","01:00","-8.0","","-12.7","","69","","32","","41","","24.1","","99.00","","","","-18","","Cloudy"
"2013-12-30 02:00","2013","12","30","02:00","-9.5","","-14.2","","69","","31","","36","","24.1","","99.13","","","","-20","","NA"
"2013-12-30 03:00","2013","12","30","03:00","-10.3","","-15.0","","69","","32","","39","","24.1","","99.25","","","","-21","","NA"
"2013-12-30 04:00","2013","12","30","04:00","-10.6","","-15.6","","67","","30","","23","","24.1","","99.40","","","","-19","","Mostly Cloudy"
"2013-12-30 05:00","2013","12","30","05:00","-10.9","","-15.4","","70","","28","","17","","24.1","","99.52","","","","-18","","NA"
"2013-12-30 06:00","2013","12","30","06:00","-11.1","","-15.7","","69","","29","","20","","24.1","","99.68","","","","-19","","NA"
"2013-12-30 07:00","2013","12","30","07:00","-10.6","","-15.6","","67","","30","","19","","24.1","","99.84","","","","-18","","Mostly Cloudy"
"2013-12-30 08:00","2013","12","30","08:00","-10.7","","-15.9","","66","","30","","18","","24.1","","99.95","","","","-18","","NA"
"2013-12-30 09:00","2013","12","30","09:00","-10.5","","-16.1","","64","","30","","19","","24.1","","100.02","","","","-18","","NA"
"2013-12-30 10:00","2013","12","30","10:00","-10.1","","-15.7","","64","","31","","23","","24.1","","100.15","","","","-19","","Mainly Clear"
"2013-12-30 11:00","2013","12","30","11:00","-9.6","","-16.0","","60","","31","","22","","24.1","","100.24","","","","-18","","NA"
"2013-12-30 12:00","2013","12","30","12:00","-9.9","","-17.8","","53","","30","","28","","24.1","","100.24","","","","-19","","NA"
"2013-12-30 13:00","2013","12","30","13:00","-9.4","","-17.8","","51","","32","","27","","24.1","","100.17","","","","-18","","Mainly Clear"
"2013-12-30 14:00","2013","12","30","14:00","-9.4","","-21.0","","39","","32","","17","","24.1","","100.17","","","","-16","","NA"
"2013-12-30 15:00","2013","12","30","15:00","-9.3","","-21.2","","38","","31","","9","","24.1","","100.16","","","","-14","","NA"
"2013-12-30 16:00","2013","12","30","16:00","-9.5","","-21.4","","38","","31","","7","","24.1","","100.21","","","","-13","","Mainly Clear"
"2013-12-30 17:00","2013","12","30","17:00","-9.9","","-19.0","","48","","27","","10","","24.1","","100.19","","","","-15","","NA"
"2013-12-30 18:00","2013","12","30","18:00","-9.7","","-18.1","","51","","27","","10","","24.1","","100.22","","","","-15","","NA"
"2013-12-30 19:00","2013","12","30","19:00","-9.5","","-17.6","","52","","22","","5","","24.1","","100.18","","","","-12","","Mostly Cloudy"
"2013-12-30 20:00","2013","12","30","20:00","-8.9","","-16.9","","53","","24","","3","","24.1","","100.17","","","","-11","","NA"
"2013-12-30 21:00","2013","12","30","21:00","-9.6","","-16.2","","59","","7","","10","","24.1","","100.14","","","","-15","","NA"
"2013-12-30 22:00","2013","12","30","22:00","-9.8","","-15.8","","62","","8","","9","","24.1","","100.09","","","","-15","","Cloudy"
"2013-12-30 23:00","2013","12","30","23:00","-9.6","","-14.3","","69","","5","","5","","24.1","","100.06","","","","-12","","NA"
"2013-12-31 00:00","2013","12","31","00:00","-9.4","","-12.7","","77","","8","","4","","24.1","","100.01","","","","-12","","NA"
"2013-12-31 01:00","2013","12","31","01:00","-9.3","","-12.3","","79","","1","","3","","24.1","","99.90","","","","-11","","Mostly Cloudy"
"2013-12-31 02:00","2013","12","31","02:00","-9.0","","-12.0","","79","","6","","4","","24.1","","99.82","","","","-11","","NA"
"2013-12-31 03:00","2013","12","31","03:00","-8.4","","-13.7","","66","","22","","8","","24.1","","99.78","","","","-13","","NA"
"2013-12-31 04:00","2013","12","31","04:00","-8.3","","-14.0","","64","","20","","10","","24.1","","99.66","","","","-13","","Cloudy"
"2013-12-31 05:00","2013","12","31","05:00","-8.1","","-14.6","","60","","15","","5","","24.1","","99.52","","","","-11","","NA"
"2013-12-31 06:00","2013","12","31","06:00","-8.2","","-12.8","","70","","17","","8","","6.4","","99.48","","","","-12","","Snow Showers"
"2013-12-31 07:00","2013","12","31","07:00","-8.4","","-10.3","","86","","20","","8","","4.8","","99.44","","","","-13","","Snow"
"2013-12-31 08:00","2013","12","31","08:00","-7.8","","-9.6","","87","","21","","10","","3.2","","99.40","","","","-13","","Snow"
"2013-12-31 09:00","2013","12","31","09:00","-7.5","","-9.9","","83","","23","","18","","8.1","","99.41","","","","-14","","Snow"
"2013-12-31 10:00","2013","12","31","10:00","-7.4","","-11.8","","71","","28","","28","","24.1","","99.46","","","","-16","","Mostly Cloudy"
"2013-12-31 11:00","2013","12","31","11:00","-8.0","","-12.9","","68","","27","","35","","19.3","","99.51","","","","-18","","Blowing Snow"
"2013-12-31 12:00","2013","12","31","12:00","-7.4","","-13.3","","63","","26","","39","","24.1","","99.54","","","","-17","","Blowing Snow"
"2013-12-31 13:00","2013","12","31","13:00","-8.1","","-13.8","","64","","26","","42","","24.1","","99.61","","","","-18","","Blowing Snow"
"2013-12-31 14:00","2013","12","31","14:00","-8.1","","-15.0","","58","","26","","44","","24.1","","99.68","","","","-19","","NA"
"2013-12-31 15:00","2013","12","31","15:00","-8.5","","-15.2","","59","","26","","41","","24.1","","99.82","","","","-19","","NA"
"2013-12-31 16:00","2013","12","31","16:00","-9.4","","-15.6","","61","","26","","39","","24.1","","99.93","","","","-20","","Mainly Clear"
"2013-12-31 17:00","2013","12","31","17:00","-9.7","","-15.1","","65","","25","","42","","19.3","","100.06","","","","-21","","Snow Showers"
"2013-12-31 18:00","2013","12","31","18:00","-10.3","","-15.5","","66","","27","","26","","24.1","","100.14","","","","-19","","NA"
"2013-12-31 19:00","2013","12","31","19:00","-10.9","","-15.0","","72","","25","","14","","24.1","","100.16","","","","-18","","Mainly Clear"
"2013-12-31 20:00","2013","12","31","20:00","-10.1","","-13.7","","75","","26","","18","","19.3","","100.18","","","","-18","","Snow Showers"
"2013-12-31 21:00","2013","12","31","21:00","-9.6","","-13.4","","74","","26","","19","","16.1","","100.18","","","","-17","","Snow Showers"
"2013-12-31 22:00","2013","12","31","22:00","-9.6","","-12.4","","80","","25","","13","","16.1","","100.18","","","","-16","","Snow Showers"
"2013-12-31 23:00","2013","12","31","23:00","-9.7","","-13.0","","77","","23","","19","","24.1","","100.20","","","","-17","","Snow Showers"
