"Station Name","TORONTO LESTER B. PEARSON INT'L A"
"Province","ONTARIO"
"Latitude","43.68"
"Longitude","-79.63"
"Elevation","173.40"
"Climate Identifier","6158733"
"WMO Identifier","71624"
"TC Identifier","YYZ"
"All times are specified in Local Standard Time (LST). Add 1 hour to adjust for Daylight Saving Time where and when it is observed."

"Legend"
"E","Estimated"
"M","Missing"
"NA","Not Available"

"Date/Time","Year","Month","Day","Time","Temp (°C)","Temp Flag","Dew Point Temp (°C)","Dew Point Temp Flag","Rel Hum (%)","Rel Hum Flag","Wind Dir (10s deg)","Wind Dir Flag","Wind Spd (km/h)","Wind Spd Flag","Visibility (km)","Visibility Flag","Stn Press (kPa)","Stn Press Flag","Hmdx","Hmdx Flag","Wind Chill","Wind Chill Flag","Weather"
"1975-09-01 00:00","1975","09","01","00:00","15.0","","13.9","","94","","11","","26","","12.9","","99.32","","","","","","Rain"
"1975-09-01 01:00","1975","09","01","01:00","15.0","","13.9","","94","","11","","19","","12.9","","99.29","","","","","","Rain"
"1975-09-01 02:00","1975","09","01","02:00","15.0","","13.9","","94","","11","","19","","12.9","","99.27","","","","","","Rain"
"1975-09-01 03:00","1975","09","01","03:00","14.4","","13.9","","96","","11","","19","","12.9","","99.23","","","","","","Rain"
"1975-09-01 04:00","1975","09","01","04:00","14.4","","13.9","","97","","11","","14","","12.9","","99.20","","","","","","Cloudy"
"1975-09-01 05:00","1975","09","01","05:00","15.0","","13.9","","97","","10","","16","","11.3","","99.21","","","","","","Rain"
"1975-09-01 06:00","1975","09","01","06:00","15.0","","14.4","","97","","12","","14","","3.2","","99.24","","","","","","Rain Showers,Fog"
"1975-09-01 07:00","1975","09","01","07:00","15.0","","14.4","","97","","12","","10","","6.4","","99.25","","","","","","Rain,Fog"
"1975-09-01 08:00","1975","09","01","08:00","15.6","","14.4","","94","","11","","16","","6.4","","99.26","","","","","","Drizzle,Fog"
"1975-09-01 09:00","1975","09","01","09:00","16.1","","14.4","","91","","12","","14","","8.0","","99.29","","","","","","Fog"
"1975-09-01 10:00","1975","09","01","10:00","15.6","","15.0","","96","","12","","13","","2.0","","99.34","","","","","","Drizzle,Fog"
"1975-09-01 11:00","1975","09","01","11:00","15.6","","15.6","","98","","14","","21","","4.0","","99.30","","","","","","Drizzle,Fog"
"1975-09-01 12:00","1975","09","01","12:00","16.1","","15.6","","98","","14","","14","","3.2","","99.28","","","","","","Drizzle,Fog"
"1975-09-01 13:00","1975","09","01","13:00","16.7","","16.1","","98","","14","","11","","3.2","","99.29","","","","","","Drizzle,Fog"
"1975-09-01 14:00","1975","09","01","14:00","16.7","","16.1","","97","","13","","11","","4.8","","99.22","","","","","","Fog"
"1975-09-01 15:00","1975","09","01","15:00","17.8","","16.7","","93","","13","","11","","9.7","","99.20","","","","","","Fog"
"1975-09-01 16:00","1975","09","01","16:00","18.3","","16.7","","89","","13","","8","","8.0","","99.19","","","","","","Fog"
"1975-09-01 17:00","1975","09","01","17:00","18.3","","16.1","","87","","14","","10","","9.7","","99.17","","","","","","Fog"
"1975-09-01 18:00","1975","09","01","18:00","17.8","","16.1","","92","","14","","8","","8.0","","99.21","","","","","","Fog"
"1975-09-01 19:00","1975","09","01","19:00","17.2","","16.1","","94","","13","","5","","4.0","","99.21","","","","","","Rain Showers,Fog"
"1975-09-01 20:00","1975","09","01","20:00","17.8","","16.1","","93","","15","","3","","4.8","","99.23","","","","","","Fog"
"1975-09-01 21:00","1975","09","01","21:00","17.2","","16.7","","97","","15","","5","","4.8","","99.23","","","","","","Fog"
"1975-09-01 22:00","1975","09","01","22:00","17.2","","16.7","","96","","","","0","","4.8","","99.25","","","","","","Fog"
"1975-09-01 23:00","1975","09","01","23:00","17.2","","16.7","","95","","","","0","","4.8","","99.23","","","","","","Fog"
"1975-09-02 00:00","1975","09","02","00:00","17.2","","16.7","","95","","17","","3","","4.8","","99.19","","","","","","Fog"
"1975-09-02 01:00","1975","09","02","01:00","17.8","","16.7","","95","","19","","5","","6.4","","99.16","","","","","","Fog"
"1975-09-02 02:00","1975","09","02","02:00","17.8","","17.2","","95","","22","","2","","4.8","","99.14","","","","","","Fog"
"1975-09-02 03:00","1975","09","02","03:00","17.2","","16.7","","97","","23","","3","","4.0","","99.12","","","","","","Fog"
"1975-09-02 04:00","1975","09","02","04:00","17.8","","17.2","","97","","","","0","","3.6","","99.12","","","","","","Fog"
"1975-09-02 05:00","1975","09","02","05:00","18.3","","17.2","","96","","","","0","","4.0","","99.13","","","","","","Fog"
"1975-09-02 06:00","1975","09","02","06:00","18.3","","17.2","","95","","","","0","","3.2","","99.15","","","","","","Rain,Fog"
"1975-09-02 07:00","1975","09","02","07:00","18.3","","17.2","","93","","30","","5","","6.4","","99.17","","","","","","Fog"
"1975-09-02 08:00","1975","09","02","08:00","19.4","","17.8","","91","","30","","14","","9.7","","99.16","","","","","","Fog"
"1975-09-02 09:00","1975","09","02","09:00","21.1","","17.8","","79","","32","","26","","19.3","","99.16","","27","","","","Mainly Clear"
"1975-09-02 10:00","1975","09","02","10:00","22.2","","17.2","","72","","32","","24","","24.1","","99.19","","28","","","","Mainly Clear"
"1975-09-02 11:00","1975","09","02","11:00","22.2","","16.1","","68","","32","","24","","32.2","","99.21","","27","","","","Mainly Clear"
"1975-09-02 12:00","1975","09","02","12:00","21.7","","16.1","","69","","35","","37","","32.2","","99.25","","26","","","","Mainly Clear"
"1975-09-02 13:00","1975","09","02","13:00","20.6","","13.9","","65","","35","","35","","32.2","","99.28","","","","","","Mainly Clear"
"1975-09-02 14:00","1975","09","02","14:00","20.0","","13.3","","65","","34","","39","","40.2","","99.28","","","","","","Mainly Clear"
"1975-09-02 15:00","1975","09","02","15:00","19.4","","11.1","","58","","36","","35","","40.2","","99.32","","","","","","Mainly Clear"
"1975-09-02 16:00","1975","09","02","16:00","17.2","","9.4","","59","","35","","35","","40.2","","99.37","","","","","","Mainly Clear"
"1975-09-02 17:00","1975","09","02","17:00","16.7","","9.4","","62","","35","","32","","40.2","","99.42","","","","","","Mainly Clear"
"1975-09-02 18:00","1975","09","02","18:00","15.0","","8.3","","65","","35","","34","","40.2","","99.45","","","","","","Mainly Clear"
"1975-09-02 19:00","1975","09","02","19:00","13.3","","8.3","","72","","33","","24","","40.2","","99.54","","","","","","Mainly Clear"
"1975-09-02 20:00","1975","09","02","20:00","11.7","","8.3","","80","","33","","16","","25.0","","99.59","","","","","","Clear"
"1975-09-02 21:00","1975","09","02","21:00","11.1","","7.8","","81","","33","","16","","25.0","","99.64","","","","","","Clear"
"1975-09-02 22:00","1975","09","02","22:00","9.4","","7.2","","87","","32","","10","","25.0","","99.69","","","","","","Clear"
"1975-09-02 23:00","1975","09","02","23:00","9.4","","7.2","","86","","34","","11","","25.0","","99.66","","","","","","Clear"
"1975-09-03 00:00","1975","09","03","00:00","7.8","","6.7","","92","","29","","10","","25.0","","99.67","","","","","","Clear"
"1975-09-03 01:00","1975","09","03","01:00","7.2","","6.1","","93","","28","","5","","25.0","","99.67","","","","","","Clear"
"1975-09-03 02:00","1975","09","03","02:00","7.2","","6.1","","91","","","","0","","25.0","","99.71","","","","","","Clear"
"1975-09-03 03:00","1975","09","03","03:00","7.2","","5.6","","90","","33","","10","","25.0","","99.71","","","","","","Clear"
"1975-09-03 04:00","1975","09","03","04:00","6.1","","5.0","","91","","31","","10","","25.0","","99.74","","","","","","Clear"
"1975-09-03 05:00","1975","09","03","05:00","6.1","","5.0","","92","","33","","10","","25.0","","99.75","","","","","","Clear"
"1975-09-03 06:00","1975","09","03","06:00","6.1","","4.4","","89","","35","","10","","40.2","","99.80","","","","","","Mainly Clear"
"1975-09-03 07:00","1975","09","03","07:00","8.3","","5.6","","83","","35","","10","","40.2","","99.88","","","","","","Mainly Clear"
"1975-09-03 08:00","1975","09","03","08:00","10.0","","6.1","","78","","36","","10","","40.2","","99.91","","","","","","Mainly Clear"
"1975-09-03 09:00","1975","09","03","09:00","11.7","","6.7","","71","","35","","5","","40.2","","99.87","","","","","","Mainly Clear"
"1975-09-03 10:00","1975","09","03","10:00","12.8","","6.7","","66","","33","","10","","40.2","","99.83","","","","","","Mostly Cloudy"
"1975-09-03 11:00","1975","09","03","11:00","14.4","","7.2","","62","","33","","8","","40.2","","99.80","","","","","","Mostly Cloudy"
"1975-09-03 12:00","1975","09","03","12:00","15.6","","8.9","","63","","30","","3","","40.2","","99.78","","","","","","Mostly Cloudy"
"1975-09-03 13:00","1975","09","03","13:00","17.2","","10.0","","62","","18","","3","","40.2","","99.72","","","","","","Mostly Cloudy"
"1975-09-03 14:00","1975","09","03","14:00","16.7","","10.0","","65","","16","","13","","40.2","","99.61","","","","","","Mostly Cloudy"
"1975-09-03 15:00","1975","09","03","15:00","17.8","","10.6","","61","","17","","14","","32.2","","99.62","","","","","","Mostly Cloudy"
"1975-09-03 16:00","1975","09","03","16:00","18.3","","11.1","","62","","17","","10","","32.2","","99.55","","","","","","Mostly Cloudy"
"1975-09-03 17:00","1975","09","03","17:00","18.3","","10.0","","57","","22","","14","","32.2","","99.50","","","","","","Mostly Cloudy"
"1975-09-03 18:00","1975","09","03","18:00","18.3","","9.4","","57","","22","","8","","32.2","","99.50","","","","","","Mainly Clear"
"1975-09-03 19:00","1975","09","03","19:00","16.7","","10.0","","65","","22","","8","","40.2","","99.49","","","","","","Clear"
"1975-09-03 20:00","1975","09","03","20:00","13.9","","10.0","","76","","22","","11","","25.0","","99.53","","","","","","Mainly Clear"
"1975-09-03 21:00","1975","09","03","21:00","12.8","","10.0","","81","","22","","8","","25.0","","99.51","","","","","","Clear"
"1975-09-03 22:00","1975","09","03","22:00","13.3","","9.4","","78","","21","","5","","25.0","","99.49","","","","","","Mainly Clear"
"1975-09-03 23:00","1975","09","03","23:00","12.2","","9.4","","84","","22","","3","","25.0","","99.45","","","","","","Mainly Clear"
"1975-09-04 00:00","1975","09","04","00:00","12.8","","10.0","","83","","","","0","","25.0","","99.43","","","","","","Mainly Clear"
"1975-09-04 01:00","1975","09","04","01:00","12.8","","10.0","","85","","","","0","","25.0","","99.42","","","","","","Mostly Cloudy"
"1975-09-04 02:00","1975","09","04","02:00","12.8","","11.1","","89","","","","0","","24.1","","99.42","","","","","","Mostly Cloudy"
"1975-09-04 03:00","1975","09","04","03:00","13.3","","11.1","","87","","","","0","","19.3","","99.40","","","","","","Cloudy"
"1975-09-04 04:00","1975","09","04","04:00","13.9","","11.7","","86","","","","0","","16.1","","99.39","","","","","","Cloudy"
"1975-09-04 05:00","1975","09","04","05:00","13.9","","12.8","","91","","","","0","","12.9","","99.44","","","","","","Cloudy"
"1975-09-04 06:00","1975","09","04","06:00","14.4","","12.2","","88","","","","0","","11.3","","99.45","","","","","","Mostly Cloudy"
"1975-09-04 07:00","1975","09","04","07:00","15.6","","13.3","","85","","32","","14","","19.3","","99.52","","","","","","Mainly Clear"
"1975-09-04 08:00","1975","09","04","08:00","17.2","","13.3","","78","","32","","19","","24.1","","99.56","","","","","","Mainly Clear"
"1975-09-04 09:00","1975","09","04","09:00","18.3","","12.8","","70","","31","","23","","24.1","","99.63","","","","","","Mostly Cloudy"
"1975-09-04 10:00","1975","09","04","10:00","18.3","","11.7","","65","","31","","24","","24.1","","99.68","","","","","","Mainly Clear"
"1975-09-04 11:00","1975","09","04","11:00","18.9","","11.7","","62","","31","","14","","32.2","","99.71","","","","","","Mostly Cloudy"
"1975-09-04 12:00","1975","09","04","12:00","19.4","","11.1","","59","","29","","16","","32.2","","99.65","","","","","","Mostly Cloudy"
"1975-09-04 13:00","1975","09","04","13:00","21.1","","12.2","","56","","32","","19","","32.2","","99.65","","","","","","Mostly Cloudy"
"1975-09-04 14:00","1975","09","04","14:00","20.6","","11.1","","55","","32","","29","","32.2","","99.65","","","","","","Mainly Clear"
"1975-09-04 15:00","1975","09","04","15:00","21.1","","11.1","","52","","32","","19","","40.2","","99.66","","","","","","Mainly Clear"
"1975-09-04 16:00","1975","09","04","16:00","21.1","","11.1","","53","","29","","24","","40.2","","99.68","","","","","","Mainly Clear"
"1975-09-04 17:00","1975","09","04","17:00","20.6","","11.1","","55","","31","","23","","40.2","","99.69","","","","","","Mainly Clear"
"1975-09-04 18:00","1975","09","04","18:00","18.3","","10.0","","59","","31","","16","","40.2","","99.71","","","","","","Mostly Cloudy"
"1975-09-04 19:00","1975","09","04","19:00","16.7","","9.4","","62","","30","","21","","40.2","","99.76","","","","","","Mainly Clear"
"1975-09-04 20:00","1975","09","04","20:00","13.9","","9.4","","74","","27","","8","","25.0","","99.83","","","","","","Mainly Clear"
"1975-09-04 21:00","1975","09","04","21:00","12.8","","8.9","","78","","25","","3","","25.0","","99.85","","","","","","Mainly Clear"
"1975-09-04 22:00","1975","09","04","22:00","12.2","","8.9","","81","","31","","11","","25.0","","99.85","","","","","","Mainly Clear"
"1975-09-04 23:00","1975","09","04","23:00","11.1","","8.9","","87","","33","","11","","25.0","","99.83","","","","","","Mainly Clear"
"1975-09-05 00:00","1975","09","05","00:00","10.6","","8.9","","88","","25","","3","","25.0","","99.86","","","","","","Mainly Clear"
"1975-09-05 01:00","1975","09","05","01:00","11.1","","9.4","","90","","26","","11","","25.0","","99.86","","","","","","Mainly Clear"
"1975-09-05 02:00","1975","09","05","02:00","11.1","","9.4","","91","","23","","2","","25.0","","99.88","","","","","","Mainly Clear"
"1975-09-05 03:00","1975","09","05","03:00","10.0","","8.9","","93","","25","","11","","25.0","","99.86","","","","","","Mainly Clear"
"1975-09-05 04:00","1975","09","05","04:00","10.0","","8.9","","93","","27","","10","","25.0","","99.87","","","","","","Mainly Clear"
"1975-09-05 05:00","1975","09","05","05:00","9.4","","8.3","","95","","30","","3","","25.0","","99.86","","","","","","Mainly Clear"
"1975-09-05 06:00","1975","09","05","06:00","9.4","","8.3","","95","","30","","2","","32.2","","99.84","","","","","","Mainly Clear"
"1975-09-05 07:00","1975","09","05","07:00","11.7","","11.1","","97","","","","0","","24.1","","99.84","","","","","","Mainly Clear"
"1975-09-05 08:00","1975","09","05","08:00","14.4","","12.8","","89","","","","0","","24.1","","99.89","","","","","","Mostly Cloudy"
"1975-09-05 09:00","1975","09","05","09:00","17.8","","14.4","","81","","","","0","","24.1","","99.86","","","","","","Mostly Cloudy"
"1975-09-05 10:00","1975","09","05","10:00","20.0","","12.8","","64","","21","","2","","40.2","","99.82","","","","","","Mainly Clear"
"1975-09-05 11:00","1975","09","05","11:00","20.0","","12.8","","61","","19","","10","","32.2","","99.74","","","","","","Mostly Cloudy"
"1975-09-05 12:00","1975","09","05","12:00","19.4","","13.3","","69","","17","","14","","19.3","","99.68","","","","","","Mostly Cloudy"
"1975-09-05 13:00","1975","09","05","13:00","20.0","","8.3","","48","","17","","14","","24.1","","99.62","","","","","","Cloudy"
"1975-09-05 14:00","1975","09","05","14:00","18.9","","10.0","","57","","17","","13","","19.3","","99.56","","","","","","Rain"
"1975-09-05 15:00","1975","09","05","15:00","17.8","","13.3","","74","","19","","10","","19.3","","99.51","","","","","","Rain"
"1975-09-05 16:00","1975","09","05","16:00","17.2","","14.4","","84","","","","0","","19.3","","99.42","","","","","","Rain"
"1975-09-05 17:00","1975","09","05","17:00","16.1","","13.9","","87","","","","0","","19.3","","99.39","","","","","","Rain"
"1975-09-05 18:00","1975","09","05","18:00","15.6","","14.4","","92","","1","","13","","19.3","","99.30","","","","","","Rain"
"1975-09-05 19:00","1975","09","05","19:00","15.0","","13.3","","88","","1","","16","","16.1","","99.21","","","","","","Rain"
"1975-09-05 20:00","1975","09","05","20:00","14.4","","12.8","","90","","5","","10","","19.3","","99.06","","","","","","Cloudy"
"1975-09-05 21:00","1975","09","05","21:00","14.4","","12.8","","90","","2","","14","","19.3","","99.15","","","","","","Cloudy"
"1975-09-05 22:00","1975","09","05","22:00","15.0","","12.8","","89","","4","","10","","19.3","","99.10","","","","","","Cloudy"
"1975-09-05 23:00","1975","09","05","23:00","15.0","","12.2","","86","","5","","13","","19.3","","99.04","","","","","","Mostly Cloudy"
"1975-09-06 00:00","1975","09","06","00:00","14.4","","12.2","","88","","6","","3","","16.1","","98.99","","","","","","Mostly Cloudy"
"1975-09-06 01:00","1975","09","06","01:00","14.4","","12.8","","89","","3","","2","","14.5","","98.93","","","","","","Mostly Cloudy"
"1975-09-06 02:00","1975","09","06","02:00","13.9","","12.8","","94","","33","","3","","14.5","","98.87","","","","","","Mostly Cloudy"
"1975-09-06 03:00","1975","09","06","03:00","13.9","","12.8","","94","","35","","8","","12.9","","98.80","","","","","","Mostly Cloudy"
"1975-09-06 04:00","1975","09","06","04:00","13.9","","12.8","","94","","33","","5","","12.9","","98.77","","","","","","Rain"
"1975-09-06 05:00","1975","09","06","05:00","13.9","","12.8","","92","","33","","5","","12.9","","98.81","","","","","","Mostly Cloudy"
"1975-09-06 06:00","1975","09","06","06:00","13.9","","13.3","","94","","32","","11","","12.9","","98.87","","","","","","Mostly Cloudy"
"1975-09-06 07:00","1975","09","06","07:00","13.9","","12.8","","94","","32","","14","","12.9","","98.94","","","","","","Mainly Clear"
"1975-09-06 08:00","1975","09","06","08:00","15.6","","12.8","","82","","29","","21","","32.2","","98.98","","","","","","Mainly Clear"
"1975-09-06 09:00","1975","09","06","09:00","16.7","","13.9","","81","","27","","26","","40.2","","99.03","","","","","","Mainly Clear"
"1975-09-06 10:00","1975","09","06","10:00","17.8","","12.2","","70","","30","","26","","40.2","","99.11","","","","","","Mostly Cloudy"
"1975-09-06 11:00","1975","09","06","11:00","18.9","","11.7","","63","","27","","26","","40.2","","99.13","","","","","","Mainly Clear"
"1975-09-06 12:00","1975","09","06","12:00","20.0","","11.7","","58","","28","","26","","40.2","","99.14","","","","","","Mainly Clear"
"1975-09-06 13:00","1975","09","06","13:00","20.0","","10.0","","51","","27","","26","","40.2","","99.17","","","","","","Mostly Cloudy"
"1975-09-06 14:00","1975","09","06","14:00","19.4","","10.6","","56","","28","","29","","40.2","","99.23","","","","","","Mostly Cloudy"
"1975-09-06 15:00","1975","09","06","15:00","19.4","","11.1","","58","","26","","32","","40.2","","99.26","","","","","","Mostly Cloudy"
"1975-09-06 16:00","1975","09","06","16:00","20.0","","10.0","","52","","29","","37","","40.2","","99.33","","","","","","Mainly Clear"
"1975-09-06 17:00","1975","09","06","17:00","18.3","","8.3","","52","","28","","26","","40.2","","99.40","","","","","","Mostly Cloudy"
"1975-09-06 18:00","1975","09","06","18:00","17.8","","8.9","","56","","27","","24","","40.2","","99.42","","","","","","Mainly Clear"
"1975-09-06 19:00","1975","09","06","19:00","16.7","","9.4","","63","","28","","21","","40.2","","99.48","","","","","","Mostly Cloudy"
"1975-09-06 20:00","1975","09","06","20:00","16.1","","9.4","","65","","28","","19","","25.0","","99.56","","","","","","Mostly Cloudy"
"1975-09-06 21:00","1975","09","06","21:00","12.8","","9.4","","80","","29","","14","","25.0","","99.68","","","","","","Mainly Clear"
"1975-09-06 22:00","1975","09","06","22:00","12.8","","10.6","","88","","36","","19","","25.0","","99.73","","","","","","Mainly Clear"
"1975-09-06 23:00","1975","09","06","23:00","11.1","","10.0","","91","","35","","14","","25.0","","99.77","","","","","","Clear"
"1975-09-07 00:00","1975","09","07","00:00","9.4","","8.3","","93","","34","","11","","19.3","","99.83","","","","","","Clear"
"1975-09-07 01:00","1975","09","07","01:00","10.0","","8.3","","89","","36","","14","","19.3","","99.86","","","","","","Clear"
"1975-09-07 02:00","1975","09","07","02:00","8.9","","7.2","","91","","35","","11","","24.1","","99.89","","","","","","Clear"
"1975-09-07 03:00","1975","09","07","03:00","6.7","","6.1","","95","","34","","5","","24.1","","99.93","","","","","","Mainly Clear"
"1975-09-07 04:00","1975","09","07","04:00","7.2","","6.1","","94","","","","0","","24.1","","99.96","","","","","","Mainly Clear"
"1975-09-07 05:00","1975","09","07","05:00","7.2","","6.1","","93","","36","","5","","24.1","","100.03","","","","","","Mainly Clear"
"1975-09-07 06:00","1975","09","07","06:00","6.1","","5.0","","94","","35","","5","","24.1","","100.08","","","","","","Mainly Clear"
"1975-09-07 07:00","1975","09","07","07:00","9.4","","7.2","","86","","3","","3","","32.2","","100.08","","","","","","Mainly Clear"
"1975-09-07 08:00","1975","09","07","08:00","10.6","","7.2","","79","","11","","8","","40.2","","100.14","","","","","","Mostly Cloudy"
"1975-09-07 09:00","1975","09","07","09:00","12.8","","8.9","","77","","11","","16","","40.2","","100.15","","","","","","Mostly Cloudy"
"1975-09-07 10:00","1975","09","07","10:00","15.0","","9.4","","70","","10","","23","","40.2","","100.11","","","","","","Mostly Cloudy"
"1975-09-07 11:00","1975","09","07","11:00","15.0","","10.0","","72","","9","","19","","40.2","","100.08","","","","","","Mostly Cloudy"
"1975-09-07 12:00","1975","09","07","12:00","16.7","","10.6","","68","","13","","23","","40.2","","100.00","","","","","","Mainly Clear"
"1975-09-07 13:00","1975","09","07","13:00","16.1","","10.0","","66","","13","","21","","40.2","","99.96","","","","","","Mostly Cloudy"
"1975-09-07 14:00","1975","09","07","14:00","17.8","","11.7","","69","","10","","16","","40.2","","99.85","","","","","","Mainly Clear"
"1975-09-07 15:00","1975","09","07","15:00","17.8","","12.8","","70","","10","","24","","40.2","","99.75","","","","","","Mainly Clear"
"1975-09-07 16:00","1975","09","07","16:00","17.8","","12.8","","73","","12","","27","","32.2","","99.67","","","","","","Mainly Clear"
"1975-09-07 17:00","1975","09","07","17:00","17.8","","12.8","","73","","13","","24","","32.2","","99.64","","","","","","Mainly Clear"
"1975-09-07 18:00","1975","09","07","18:00","16.7","","13.3","","80","","12","","19","","32.2","","99.68","","","","","","Mainly Clear"
"1975-09-07 19:00","1975","09","07","19:00","16.1","","13.3","","83","","12","","27","","24.1","","99.48","","","","","","Mostly Cloudy"
"1975-09-07 20:00","1975","09","07","20:00","16.1","","13.9","","90","","12","","14","","24.1","","99.53","","","","","","Mostly Cloudy"
"1975-09-07 21:00","1975","09","07","21:00","16.7","","14.4","","88","","11","","5","","24.1","","99.59","","","","","","Mostly Cloudy"
"1975-09-07 22:00","1975","09","07","22:00","16.1","","14.4","","92","","","","0","","19.3","","99.57","","","","","","Rain"
"1975-09-07 23:00","1975","09","07","23:00","16.1","","15.0","","94","","16","","5","","12.9","","99.49","","","","","","Rain"
"1975-09-08 00:00","1975","09","08","00:00","16.1","","15.6","","94","","12","","14","","12.9","","99.43","","","","","","Mostly Cloudy"
"1975-09-08 01:00","1975","09","08","01:00","15.6","","13.9","","90","","14","","13","","12.9","","99.36","","","","","","Mainly Clear"
"1975-09-08 02:00","1975","09","08","02:00","15.0","","13.9","","93","","15","","11","","11.3","","99.30","","","","","","Mostly Cloudy"
"1975-09-08 03:00","1975","09","08","03:00","16.1","","13.3","","85","","21","","11","","12.9","","99.31","","","","","","Mainly Clear"
"1975-09-08 04:00","1975","09","08","04:00","16.1","","13.9","","86","","21","","13","","12.9","","99.31","","","","","","Mainly Clear"
"1975-09-08 05:00","1975","09","08","05:00","15.0","","13.3","","90","","22","","11","","12.9","","99.36","","","","","","Mainly Clear"
"1975-09-08 06:00","1975","09","08","06:00","14.4","","13.3","","93","","23","","10","","6.4","","99.42","","","","","","Fog"
"1975-09-08 07:00","1975","09","08","07:00","15.0","","13.3","","90","","22","","8","","12.9","","99.47","","","","","","Mainly Clear"
"1975-09-08 08:00","1975","09","08","08:00","17.2","","13.3","","78","","24","","10","","12.9","","99.51","","","","","","Mainly Clear"
"1975-09-08 09:00","1975","09","08","09:00","18.3","","12.8","","69","","26","","26","","32.2","","99.59","","","","","","Mainly Clear"
"1975-09-08 10:00","1975","09","08","10:00","18.9","","12.2","","64","","27","","27","","40.2","","99.63","","","","","","Mostly Cloudy"
"1975-09-08 11:00","1975","09","08","11:00","19.4","","10.6","","57","","27","","34","","40.2","","99.67","","","","","","Mostly Cloudy"
"1975-09-08 12:00","1975","09","08","12:00","20.6","","10.0","","51","","27","","29","","40.2","","99.67","","","","","","Mostly Cloudy"
"1975-09-08 13:00","1975","09","08","13:00","20.6","","10.0","","51","","26","","34","","40.2","","99.67","","","","","","Mainly Clear"
"1975-09-08 14:00","1975","09","08","14:00","19.4","","9.4","","52","","27","","27","","40.2","","99.69","","","","","","Mainly Clear"
"1975-09-08 15:00","1975","09","08","15:00","17.8","","8.9","","55","","30","","27","","40.2","","99.73","","","","","","Mostly Cloudy"
"1975-09-08 16:00","1975","09","08","16:00","17.8","","8.9","","56","","29","","34","","40.2","","99.75","","","","","","Mostly Cloudy"
"1975-09-08 17:00","1975","09","08","17:00","16.7","","7.8","","55","","28","","35","","40.2","","99.80","","","","","","Mainly Clear"
"1975-09-08 18:00","1975","09","08","18:00","15.0","","8.9","","66","","31","","27","","40.2","","99.85","","","","","","Mainly Clear"
"1975-09-08 19:00","1975","09","08","19:00","13.3","","9.4","","76","","29","","21","","25.0","","99.92","","","","","","Mainly Clear"
"1975-09-08 20:00","1975","09","08","20:00","12.2","","8.3","","78","","31","","26","","25.0","","100.02","","","","","","Mainly Clear"
"1975-09-08 21:00","1975","09","08","21:00","11.1","","7.8","","79","","31","","23","","25.0","","100.08","","","","","","Mainly Clear"
"1975-09-08 22:00","1975","09","08","22:00","10.0","","6.7","","79","","31","","24","","25.0","","100.14","","","","","","Clear"
"1975-09-08 23:00","1975","09","08","23:00","9.4","","5.6","","76","","31","","23","","25.0","","100.22","","","","","","Clear"
"1975-09-09 00:00","1975","09","09","00:00","8.3","","5.0","","78","","30","","19","","25.0","","100.29","","","","","","Clear"
"1975-09-09 01:00","1975","09","09","01:00","7.8","","5.0","","81","","29","","19","","25.0","","100.34","","","","","","Mainly Clear"
"1975-09-09 02:00","1975","09","09","02:00","6.7","","4.4","","86","","29","","14","","25.0","","100.38","","","","","","Mainly Clear"
"1975-09-09 03:00","1975","09","09","03:00","6.7","","4.4","","87","","28","","14","","25.0","","100.46","","","","","","Mainly Clear"
"1975-09-09 04:00","1975","09","09","04:00","6.7","","5.0","","87","","31","","10","","25.0","","100.49","","","","","","Mostly Cloudy"
"1975-09-09 05:00","1975","09","09","05:00","5.6","","4.4","","91","","29","","8","","25.0","","100.54","","","","","","Mainly Clear"
"1975-09-09 06:00","1975","09","09","06:00","5.0","","3.9","","91","","27","","8","","25.0","","100.58","","","","","","Mainly Clear"
"1975-09-09 07:00","1975","09","09","07:00","6.1","","5.0","","91","","29","","8","","40.2","","100.64","","","","","","Mainly Clear"
"1975-09-09 08:00","1975","09","09","08:00","10.6","","3.9","","63","","29","","23","","40.2","","100.66","","","","","","Mainly Clear"
"1975-09-09 09:00","1975","09","09","09:00","11.7","","3.9","","58","","30","","32","","40.2","","100.67","","","","","","Mainly Clear"
"1975-09-09 10:00","1975","09","09","10:00","12.2","","3.9","","56","","31","","23","","40.2","","100.70","","","","","","Mainly Clear"
"1975-09-09 11:00","1975","09","09","11:00","13.3","","3.3","","50","","28","","23","","40.2","","100.71","","","","","","Mainly Clear"
"1975-09-09 12:00","1975","09","09","12:00","14.4","","4.4","","51","","27","","21","","40.2","","100.65","","","","","","Mainly Clear"
"1975-09-09 13:00","1975","09","09","13:00","15.0","","1.7","","41","","28","","19","","40.2","","100.61","","","","","","Mainly Clear"
"1975-09-09 14:00","1975","09","09","14:00","15.6","","3.3","","45","","25","","21","","40.2","","100.57","","","","","","Mainly Clear"
"1975-09-09 15:00","1975","09","09","15:00","16.1","","4.4","","46","","29","","24","","40.2","","100.54","","","","","","Mainly Clear"
"1975-09-09 16:00","1975","09","09","16:00","15.6","","2.8","","42","","30","","27","","40.2","","100.52","","","","","","Clear"
"1975-09-09 17:00","1975","09","09","17:00","15.0","","4.4","","48","","29","","24","","40.2","","100.54","","","","","","Clear"
"1975-09-09 18:00","1975","09","09","18:00","13.9","","3.9","","51","","30","","19","","40.2","","100.53","","","","","","Clear"
"1975-09-09 19:00","1975","09","09","19:00","9.4","","4.4","","71","","32","","16","","25.0","","100.55","","","","","","Clear"
"1975-09-09 20:00","1975","09","09","20:00","7.8","","5.0","","82","","33","","13","","25.0","","100.61","","","","","","Clear"
"1975-09-09 21:00","1975","09","09","21:00","8.9","","3.3","","70","","32","","8","","25.0","","100.60","","","","","","Clear"
"1975-09-09 22:00","1975","09","09","22:00","7.2","","2.8","","73","","30","","5","","25.0","","100.61","","","","","","Clear"
"1975-09-09 23:00","1975","09","09","23:00","6.7","","3.3","","81","","32","","3","","25.0","","100.59","","","","","","Clear"
"1975-09-10 00:00","1975","09","10","00:00","6.1","","3.9","","84","","27","","3","","25.0","","100.60","","","","","","Clear"
"1975-09-10 01:00","1975","09","10","01:00","3.3","","2.2","","91","","27","","10","","25.0","","100.61","","","","","","Clear"
"1975-09-10 02:00","1975","09","10","02:00","3.3","","1.1","","87","","30","","8","","25.0","","100.58","","","","","","Clear"
"1975-09-10 03:00","1975","09","10","03:00","1.7","","0.0","","90","","32","","11","","25.0","","100.58","","","","","","Clear"
"1975-09-10 04:00","1975","09","10","04:00","2.2","","1.7","","94","","","","0","","25.0","","100.57","","","","","","Clear"
"1975-09-10 05:00","1975","09","10","05:00","1.7","","0.6","","91","","","","0","","25.0","","100.57","","","","","","Clear"
"1975-09-10 06:00","1975","09","10","06:00","2.8","","1.7","","91","","","","0","","32.2","","100.58","","","","","","Mostly Cloudy"
"1975-09-10 07:00","1975","09","10","07:00","3.9","","2.2","","92","","","","0","","32.2","","100.54","","","","","","Mostly Cloudy"
"1975-09-10 08:00","1975","09","10","08:00","6.7","","4.4","","87","","33","","3","","24.1","","100.54","","","","","","Mostly Cloudy"
"1975-09-10 09:00","1975","09","10","09:00","10.0","","5.6","","73","","","","0","","32.2","","100.44","","","","","","Mostly Cloudy"
"1975-09-10 10:00","1975","09","10","10:00","12.8","","5.0","","58","","19","","10","","32.2","","100.41","","","","","","Mostly Cloudy"
"1975-09-10 11:00","1975","09","10","11:00","13.3","","4.4","","55","","18","","11","","32.2","","100.35","","","","","","Mostly Cloudy"
"1975-09-10 12:00","1975","09","10","12:00","13.9","","6.7","","61","","14","","3","","24.1","","100.32","","","","","","Cloudy"
"1975-09-10 13:00","1975","09","10","13:00","13.3","","6.7","","64","","14","","13","","24.1","","100.20","","","","","","Rain"
"1975-09-10 14:00","1975","09","10","14:00","15.0","","8.3","","63","","17","","14","","24.1","","100.10","","","","","","Mostly Cloudy"
"1975-09-10 15:00","1975","09","10","15:00","15.6","","7.2","","57","","16","","16","","19.3","","100.05","","","","","","Mostly Cloudy"
"1975-09-10 16:00","1975","09","10","16:00","16.1","","8.3","","61","","18","","11","","24.1","","99.99","","","","","","Mostly Cloudy"
"1975-09-10 17:00","1975","09","10","17:00","16.1","","8.9","","63","","16","","16","","24.1","","99.93","","","","","","Mainly Clear"
"1975-09-10 18:00","1975","09","10","18:00","15.0","","9.4","","70","","14","","10","","24.1","","99.88","","","","","","Mostly Cloudy"
"1975-09-10 19:00","1975","09","10","19:00","13.9","","9.4","","75","","14","","13","","24.1","","99.87","","","","","","Mostly Cloudy"
"1975-09-10 20:00","1975","09","10","20:00","12.2","","8.9","","81","","14","","10","","24.1","","99.87","","","","","","Mainly Clear"
"1975-09-10 21:00","1975","09","10","21:00","13.3","","10.0","","82","","13","","14","","24.1","","99.76","","","","","","Mainly Clear"
"1975-09-10 22:00","1975","09","10","22:00","12.8","","10.6","","88","","15","","11","","24.1","","99.72","","","","","","Mainly Clear"
"1975-09-10 23:00","1975","09","10","23:00","12.8","","11.7","","92","","18","","5","","24.1","","99.67","","","","","","Mainly Clear"
"1975-09-11 00:00","1975","09","11","00:00","12.8","","11.7","","93","","18","","8","","24.1","","99.56","","","","","","Mainly Clear"
"1975-09-11 01:00","1975","09","11","01:00","11.7","","10.0","","89","","33","","8","","24.1","","99.52","","","","","","Mostly Cloudy"
"1975-09-11 02:00","1975","09","11","02:00","8.9","","8.9","","99","","1","","2","","24.1","","99.49","","","","","","Mostly Cloudy"
"1975-09-11 03:00","1975","09","11","03:00","11.1","","10.0","","93","","4","","8","","19.3","","99.42","","","","","","Mostly Cloudy"
"1975-09-11 04:00","1975","09","11","04:00","10.0","","8.9","","95","","","","0","","19.3","","99.38","","","","","","Mostly Cloudy"
"1975-09-11 05:00","1975","09","11","05:00","7.8","","6.7","","95","","","","0","","19.3","","99.35","","","","","","Mostly Cloudy"
"1975-09-11 06:00","1975","09","11","06:00","8.3","","7.8","","96","","","","0","","6.4","","99.30","","","","","","Fog"
"1975-09-11 07:00","1975","09","11","07:00","8.9","","8.3","","96","","","","0","","4.8","","99.24","","","","","","Fog"
"1975-09-11 08:00","1975","09","11","08:00","15.0","","13.3","","89","","","","0","","4.8","","99.12","","","","","","Fog"
"1975-09-11 09:00","1975","09","11","09:00","18.3","","14.4","","78","","18","","11","","11.3","","99.07","","","","","","Mostly Cloudy"
"1975-09-11 10:00","1975","09","11","10:00","21.1","","16.1","","73","","18","","19","","11.3","","98.93","","26","","","","Mostly Cloudy"
"1975-09-11 11:00","1975","09","11","11:00","23.3","","17.8","","71","","19","","19","","11.3","","98.86","","29","","","","Mainly Clear"
"1975-09-11 12:00","1975","09","11","12:00","25.0","","17.8","","64","","20","","29","","9.7","","98.80","","31","","","","Haze"
"1975-09-11 13:00","1975","09","11","13:00","25.0","","18.3","","66","","21","","26","","6.4","","98.70","","31","","","","Haze"
"1975-09-11 14:00","1975","09","11","14:00","22.2","","18.3","","78","","22","","26","","8.0","","98.68","","28","","","","Haze"
"1975-09-11 15:00","1975","09","11","15:00","21.1","","19.4","","90","","21","","26","","6.4","","98.57","","28","","","","Rain Showers,Fog"
"1975-09-11 16:00","1975","09","11","16:00","20.6","","18.9","","91","","21","","27","","6.4","","98.47","","27","","","","Rain Showers,Fog"
"1975-09-11 17:00","1975","09","11","17:00","21.1","","18.9","","89","","21","","26","","4.8","","98.40","","28","","","","Rain Showers,Fog"
"1975-09-11 18:00","1975","09","11","18:00","20.6","","18.9","","91","","22","","26","","8.0","","98.34","","27","","","","Fog"
"1975-09-11 19:00","1975","09","11","19:00","20.6","","18.9","","89","","21","","16","","8.0","","98.27","","27","","","","Rain Showers,Fog"
"1975-09-11 20:00","1975","09","11","20:00","19.4","","19.4","","98","","22","","13","","3.2","","98.22","","","","","","Heavy Rain Showers,Fog"
"1975-09-11 21:00","1975","09","11","21:00","19.4","","18.9","","98","","25","","10","","3.2","","98.16","","","","","","Moderate Rain Showers,Fog"
"1975-09-11 22:00","1975","09","11","22:00","16.7","","16.1","","97","","33","","26","","12.9","","98.21","","","","","","Moderate Rain Showers"
"1975-09-11 23:00","1975","09","11","23:00","14.4","","13.3","","94","","33","","29","","24.1","","98.23","","","","","","Rain Showers"
"1975-09-12 00:00","1975","09","12","00:00","13.9","","12.8","","93","","34","","32","","25.0","","98.29","","","","","","Cloudy"
"1975-09-12 01:00","1975","09","12","01:00","13.3","","11.7","","89","","34","","37","","25.0","","98.31","","","","","","Cloudy"
"1975-09-12 02:00","1975","09","12","02:00","12.2","","10.0","","86","","34","","29","","25.0","","98.39","","","","","","Mainly Clear"
"1975-09-12 03:00","1975","09","12","03:00","12.2","","10.6","","90","","34","","26","","25.0","","98.49","","","","","","Mainly Clear"
"1975-09-12 04:00","1975","09","12","04:00","11.1","","9.4","","89","","34","","24","","25.0","","98.54","","","","","","Mainly Clear"
"1975-09-12 05:00","1975","09","12","05:00","11.1","","10.0","","93","","32","","13","","25.0","","98.62","","","","","","Mostly Cloudy"
"1975-09-12 06:00","1975","09","12","06:00","11.7","","10.0","","89","","32","","14","","25.0","","98.79","","","","","","Mostly Cloudy"
"1975-09-12 07:00","1975","09","12","07:00","11.7","","9.4","","88","","30","","3","","32.2","","98.87","","","","","","Mostly Cloudy"
"1975-09-12 08:00","1975","09","12","08:00","11.7","","10.6","","93","","28","","3","","32.2","","98.90","","","","","","Mostly Cloudy"
"1975-09-12 09:00","1975","09","12","09:00","12.8","","10.0","","82","","28","","10","","40.2","","98.97","","","","","","Mostly Cloudy"
"1975-09-12 10:00","1975","09","12","10:00","13.9","","8.3","","69","","31","","10","","40.2","","98.95","","","","","","Mostly Cloudy"
"1975-09-12 11:00","1975","09","12","11:00","15.0","","11.1","","76","","26","","8","","40.2","","98.93","","","","","","Mostly Cloudy"
"1975-09-12 12:00","1975","09","12","12:00","16.1","","8.3","","60","","30","","14","","40.2","","98.94","","","","","","Mainly Clear"
"1975-09-12 13:00","1975","09","12","13:00","16.1","","5.6","","50","","29","","23","","40.2","","98.94","","","","","","Mainly Clear"
"1975-09-12 14:00","1975","09","12","14:00","16.7","","7.8","","56","","30","","34","","40.2","","98.97","","","","","","Mainly Clear"
"1975-09-12 15:00","1975","09","12","15:00","14.4","","7.2","","61","","32","","26","","40.2","","99.05","","","","","","Mainly Clear"
"1975-09-12 16:00","1975","09","12","16:00","15.0","","6.1","","55","","30","","23","","40.2","","99.07","","","","","","Mainly Clear"
"1975-09-12 17:00","1975","09","12","17:00","13.3","","6.7","","64","","34","","19","","40.2","","99.12","","","","","","Mostly Cloudy"
"1975-09-12 18:00","1975","09","12","18:00","12.2","","7.2","","72","","32","","8","","40.2","","99.17","","","","","","Mostly Cloudy"
"1975-09-12 19:00","1975","09","12","19:00","10.6","","4.4","","64","","31","","16","","25.0","","99.25","","","","","","Mainly Clear"
"1975-09-12 20:00","1975","09","12","20:00","10.6","","5.6","","70","","29","","16","","25.0","","99.33","","","","","","Mostly Cloudy"
"1975-09-12 21:00","1975","09","12","21:00","8.9","","4.4","","73","","28","","19","","25.0","","99.39","","","","","","Mainly Clear"
"1975-09-12 22:00","1975","09","12","22:00","8.3","","5.0","","79","","27","","10","","25.0","","99.43","","","","","","Mostly Cloudy"
"1975-09-12 23:00","1975","09","12","23:00","7.2","","4.4","","81","","25","","14","","25.0","","99.43","","","","","","Mainly Clear"
"1975-09-13 00:00","1975","09","13","00:00","6.1","","3.9","","86","","28","","11","","25.0","","99.41","","","","","","Mainly Clear"
"1975-09-13 01:00","1975","09","13","01:00","6.1","","3.9","","86","","27","","13","","25.0","","99.44","","","","","","Mainly Clear"
"1975-09-13 02:00","1975","09","13","02:00","5.6","","3.3","","87","","26","","11","","25.0","","99.41","","","","","","Clear"
"1975-09-13 03:00","1975","09","13","03:00","5.6","","3.9","","90","","26","","14","","25.0","","99.41","","","","","","Clear"
"1975-09-13 04:00","1975","09","13","04:00","5.0","","3.9","","92","","26","","8","","25.0","","99.45","","","","","","Mainly Clear"
"1975-09-13 05:00","1975","09","13","05:00","6.1","","3.9","","86","","27","","11","","25.0","","99.49","","","","","","Mostly Cloudy"
"1975-09-13 06:00","1975","09","13","06:00","5.6","","4.4","","92","","27","","10","","32.2","","99.50","","","","","","Mostly Cloudy"
"1975-09-13 07:00","1975","09","13","07:00","6.7","","4.4","","85","","27","","16","","32.2","","99.51","","","","","","Mainly Clear"
"1975-09-13 08:00","1975","09","13","08:00","8.3","","5.6","","81","","27","","21","","40.2","","99.53","","","","","","Mostly Cloudy"
"1975-09-13 09:00","1975","09","13","09:00","8.9","","5.0","","77","","26","","23","","40.2","","99.60","","","","","","Mostly Cloudy"
"1975-09-13 10:00","1975","09","13","10:00","8.9","","5.0","","76","","28","","27","","32.2","","99.64","","","","","","Rain Showers"
"1975-09-13 11:00","1975","09","13","11:00","10.0","","4.4","","69","","28","","24","","40.2","","99.65","","","","","","Rain Showers"
"1975-09-13 12:00","1975","09","13","12:00","3.3","","-0.6","","75","","28","","34","","2.4","","99.78","","","","","","Rain Showers,Fog"
"1975-09-13 13:00","1975","09","13","13:00","7.2","","5.0","","85","","29","","21","","40.2","","99.73","","","","","","Mostly Cloudy"
"1975-09-13 14:00","1975","09","13","14:00","10.0","","4.4","","68","","27","","34","","40.2","","99.69","","","","","","Mostly Cloudy"
"1975-09-13 15:00","1975","09","13","15:00","10.0","","4.4","","68","","28","","24","","40.2","","99.74","","","","","","Mainly Clear"
"1975-09-13 16:00","1975","09","13","16:00","10.6","","3.9","","64","","27","","19","","40.2","","99.74","","","","","","Mainly Clear"
"1975-09-13 17:00","1975","09","13","17:00","10.0","","3.9","","65","","29","","35","","40.2","","99.84","","","","","","Rain Showers"
"1975-09-13 18:00","1975","09","13","18:00","8.9","","4.4","","74","","28","","21","","40.2","","99.90","","","","","","Mainly Clear"
"1975-09-13 19:00","1975","09","13","19:00","7.2","","2.8","","74","","28","","14","","25.0","","99.99","","","","","","Mainly Clear"
"1975-09-13 20:00","1975","09","13","20:00","5.6","","2.8","","81","","27","","11","","25.0","","100.06","","","","","","Clear"
"1975-09-13 21:00","1975","09","13","21:00","5.6","","2.8","","82","","27","","14","","25.0","","100.13","","","","","","Mainly Clear"
"1975-09-13 22:00","1975","09","13","22:00","6.1","","2.8","","78","","27","","19","","25.0","","100.17","","","","","","Mainly Clear"
"1975-09-13 23:00","1975","09","13","23:00","5.0","","2.8","","84","","18","","14","","25.0","","100.22","","","","","","Mainly Clear"
"1975-09-14 00:00","1975","09","14","00:00","3.3","","1.7","","89","","31","","8","","25.0","","100.30","","","","","","Mainly Clear"
"1975-09-14 01:00","1975","09","14","01:00","3.9","","2.8","","92","","30","","8","","25.0","","100.37","","","","","","Mainly Clear"
"1975-09-14 02:00","1975","09","14","02:00","2.8","","1.7","","92","","29","","5","","25.0","","100.40","","","","","","Mainly Clear"
"1975-09-14 03:00","1975","09","14","03:00","2.8","","2.2","","95","","","","0","","25.0","","100.44","","","","","","Mainly Clear"
"1975-09-14 04:00","1975","09","14","04:00","2.2","","1.7","","95","","","","0","","25.0","","100.50","","","","","","Mainly Clear"
"1975-09-14 05:00","1975","09","14","05:00","1.1","","0.6","","98","","30","","3","","25.0","","100.57","","","","","","Mainly Clear"
"1975-09-14 06:00","1975","09","14","06:00","1.7","","0.6","","93","","28","","8","","32.2","","100.67","","","","","","Mainly Clear"
"1975-09-14 07:00","1975","09","14","07:00","2.2","","1.7","","96","","28","","5","","40.2","","100.71","","","","","","Mainly Clear"
"1975-09-14 08:00","1975","09","14","08:00","7.2","","5.0","","86","","31","","8","","40.2","","100.77","","","","","","Clear"
"1975-09-14 09:00","1975","09","14","09:00","9.4","","5.0","","76","","33","","10","","40.2","","100.83","","","","","","Mainly Clear"
"1975-09-14 10:00","1975","09","14","10:00","11.1","","4.4","","63","","26","","3","","40.2","","100.85","","","","","","Mainly Clear"
"1975-09-14 11:00","1975","09","14","11:00","12.8","","4.4","","57","","36","","3","","40.2","","100.84","","","","","","Mainly Clear"
"1975-09-14 12:00","1975","09","14","12:00","13.3","","4.4","","56","","27","","8","","40.2","","100.84","","","","","","Mostly Cloudy"
"1975-09-14 13:00","1975","09","14","13:00","13.9","","4.4","","54","","24","","3","","40.2","","100.81","","","","","","Mostly Cloudy"
"1975-09-14 14:00","1975","09","14","14:00","13.9","","3.9","","52","","27","","8","","40.2","","100.76","","","","","","Mostly Cloudy"
"1975-09-14 15:00","1975","09","14","15:00","14.4","","3.9","","50","","24","","5","","40.2","","100.72","","","","","","Mostly Cloudy"
"1975-09-14 16:00","1975","09","14","16:00","13.9","","3.3","","50","","23","","11","","40.2","","100.71","","","","","","Mostly Cloudy"
"1975-09-14 17:00","1975","09","14","17:00","15.0","","4.4","","50","","","","0","","40.2","","100.68","","","","","","Mainly Clear"
"1975-09-14 18:00","1975","09","14","18:00","12.8","","5.0","","58","","25","","3","","40.2","","100.70","","","","","","Mainly Clear"
"1975-09-14 19:00","1975","09","14","19:00","10.6","","4.4","","64","","23","","5","","25.0","","100.73","","","","","","Clear"
"1975-09-14 20:00","1975","09","14","20:00","10.6","","3.9","","63","","23","","5","","25.0","","100.77","","","","","","Clear"
"1975-09-14 21:00","1975","09","14","21:00","8.9","","5.6","","78","","22","","8","","25.0","","100.77","","","","","","Clear"
"1975-09-14 22:00","1975","09","14","22:00","7.8","","4.4","","77","","25","","3","","25.0","","100.79","","","","","","Clear"
"1975-09-14 23:00","1975","09","14","23:00","6.1","","3.9","","85","","27","","3","","25.0","","100.79","","","","","","Clear"
"1975-09-15 00:00","1975","09","15","00:00","6.7","","3.9","","83","","27","","3","","25.0","","100.77","","","","","","Mainly Clear"
"1975-09-15 01:00","1975","09","15","01:00","5.6","","3.9","","88","","","","0","","25.0","","100.76","","","","","","Mainly Clear"
"1975-09-15 02:00","1975","09","15","02:00","6.1","","3.9","","84","","","","0","","25.0","","100.73","","","","","","Clear"
"1975-09-15 03:00","1975","09","15","03:00","4.4","","3.3","","92","","","","0","","25.0","","100.70","","","","","","Clear"
"1975-09-15 04:00","1975","09","15","04:00","3.9","","2.8","","93","","","","0","","25.0","","100.68","","","","","","Mainly Clear"
"1975-09-15 05:00","1975","09","15","05:00","5.0","","2.8","","86","","","","0","","25.0","","100.70","","","","","","Mainly Clear"
"1975-09-15 06:00","1975","09","15","06:00","2.8","","1.7","","91","","34","","3","","24.1","","100.72","","","","","","Mostly Cloudy"
"1975-09-15 07:00","1975","09","15","07:00","3.9","","2.8","","93","","","","0","","24.1","","100.71","","","","","","Mostly Cloudy"
"1975-09-15 08:00","1975","09","15","08:00","8.3","","6.1","","89","","","","0","","16.1","","100.70","","","","","","Mostly Cloudy"
"1975-09-15 09:00","1975","09","15","09:00","10.6","","7.8","","82","","","","0","","12.9","","100.69","","","","","","Mostly Cloudy"
"1975-09-15 10:00","1975","09","15","10:00","13.9","","8.9","","70","","17","","11","","12.9","","100.63","","","","","","Mostly Cloudy"
"1975-09-15 11:00","1975","09","15","11:00","16.1","","8.3","","58","","19","","13","","12.9","","100.58","","","","","","Mostly Cloudy"
"1975-09-15 12:00","1975","09","15","12:00","16.7","","7.8","","55","","18","","16","","16.1","","100.53","","","","","","Mostly Cloudy"
"1975-09-15 13:00","1975","09","15","13:00","17.2","","9.4","","60","","16","","14","","32.2","","100.46","","","","","","Mostly Cloudy"
"1975-09-15 14:00","1975","09","15","14:00","17.2","","8.3","","56","","16","","13","","32.2","","100.40","","","","","","Mostly Cloudy"
"1975-09-15 15:00","1975","09","15","15:00","16.7","","8.9","","59","","18","","19","","32.2","","100.33","","","","","","Mostly Cloudy"
"1975-09-15 16:00","1975","09","15","16:00","17.2","","9.4","","59","","19","","13","","32.2","","100.27","","","","","","Mostly Cloudy"
"1975-09-15 17:00","1975","09","15","17:00","16.1","","8.9","","63","","18","","11","","32.2","","100.25","","","","","","Mostly Cloudy"
"1975-09-15 18:00","1975","09","15","18:00","15.6","","8.9","","64","","17","","11","","24.1","","100.22","","","","","","Cloudy"
"1975-09-15 19:00","1975","09","15","19:00","15.0","","8.9","","68","","19","","10","","24.1","","100.21","","","","","","Cloudy"
"1975-09-15 20:00","1975","09","15","20:00","13.9","","9.4","","74","","25","","2","","24.1","","100.24","","","","","","Mostly Cloudy"
"1975-09-15 21:00","1975","09","15","21:00","13.9","","8.9","","71","","","","0","","24.1","","100.21","","","","","","Mostly Cloudy"
"1975-09-15 22:00","1975","09","15","22:00","13.3","","8.3","","71","","18","","3","","24.1","","100.16","","","","","","Mostly Cloudy"
"1975-09-15 23:00","1975","09","15","23:00","12.8","","8.3","","73","","","","0","","24.1","","100.11","","","","","","Mostly Cloudy"
"1975-09-16 00:00","1975","09","16","00:00","12.8","","8.3","","74","","","","0","","25.0","","100.09","","","","","","Mostly Cloudy"
"1975-09-16 01:00","1975","09","16","01:00","12.8","","8.3","","75","","","","0","","24.1","","100.09","","","","","","Cloudy"
"1975-09-16 02:00","1975","09","16","02:00","12.2","","8.9","","82","","","","0","","24.1","","100.05","","","","","","Cloudy"
"1975-09-16 03:00","1975","09","16","03:00","11.7","","10.0","","89","","","","0","","24.1","","99.98","","","","","","Cloudy"
"1975-09-16 04:00","1975","09","16","04:00","11.7","","10.0","","90","","","","0","","24.1","","99.94","","","","","","Cloudy"
"1975-09-16 05:00","1975","09","16","05:00","11.7","","10.0","","90","","34","","3","","16.1","","99.95","","","","","","Cloudy"
"1975-09-16 06:00","1975","09","16","06:00","11.1","","10.6","","94","","","","0","","9.7","","99.95","","","","","","Rain Showers,Fog"
"1975-09-16 07:00","1975","09","16","07:00","11.1","","10.0","","92","","","","0","","6.4","","99.96","","","","","","Rain Showers,Fog"
"1975-09-16 08:00","1975","09","16","08:00","11.7","","10.0","","88","","","","0","","4.8","","99.96","","","","","","Fog"
"1975-09-16 09:00","1975","09","16","09:00","12.8","","11.1","","88","","","","0","","4.8","","99.97","","","","","","Rain Showers,Fog"
"1975-09-16 10:00","1975","09","16","10:00","13.3","","10.6","","83","","","","0","","4.8","","99.97","","","","","","Fog"
"1975-09-16 11:00","1975","09","16","11:00","13.9","","10.0","","78","","","","0","","4.8","","99.95","","","","","","Haze"
"1975-09-16 12:00","1975","09","16","12:00","13.9","","8.9","","72","","20","","5","","8.0","","99.93","","","","","","Rain Showers,Haze"
"1975-09-16 13:00","1975","09","16","13:00","13.9","","10.0","","77","","17","","8","","9.7","","99.90","","","","","","Haze"
"1975-09-16 14:00","1975","09","16","14:00","13.9","","11.1","","83","","15","","8","","9.7","","99.84","","","","","","Haze"
"1975-09-16 15:00","1975","09","16","15:00","13.3","","10.0","","81","","16","","8","","9.7","","99.80","","","","","","Haze"
"1975-09-16 16:00","1975","09","16","16:00","14.4","","10.6","","77","","18","","3","","11.3","","99.78","","","","","","Mostly Cloudy"
"1975-09-16 17:00","1975","09","16","17:00","13.9","","10.0","","77","","16","","8","","11.3","","99.78","","","","","","Mostly Cloudy"
"1975-09-16 18:00","1975","09","16","18:00","13.3","","10.6","","83","","17","","3","","11.3","","99.79","","","","","","Mostly Cloudy"
"1975-09-16 19:00","1975","09","16","19:00","12.2","","10.6","","89","","","","0","","8.0","","99.82","","","","","","Fog"
"1975-09-16 20:00","1975","09","16","20:00","11.7","","10.6","","92","","","","0","","8.0","","99.84","","","","","","Fog"
"1975-09-16 21:00","1975","09","16","21:00","11.1","","10.6","","94","","","","0","","8.0","","99.86","","","","","","Fog"
"1975-09-16 22:00","1975","09","16","22:00","11.7","","10.6","","93","","","","0","","8.0","","99.87","","","","","","Fog"
"1975-09-16 23:00","1975","09","16","23:00","12.2","","11.1","","93","","","","0","","8.0","","99.87","","","","","","Fog"
"1975-09-17 00:00","1975","09","17","00:00","12.2","","11.1","","94","","","","0","","8.0","","99.83","","","","","","Fog"
"1975-09-17 01:00","1975","09","17","01:00","12.2","","10.0","","88","","","","0","","6.4","","99.84","","","","","","Fog"
"1975-09-17 02:00","1975","09","17","02:00","11.1","","11.1","","99","","","","0","","6.4","","99.84","","","","","","Fog"
"1975-09-17 03:00","1975","09","17","03:00","9.4","","9.4","","99","","32","","5","","6.4","","99.84","","","","","","Fog"
"1975-09-17 04:00","1975","09","17","04:00","8.9","","8.9","","99","","33","","5","","6.4","","99.86","","","","","","Fog"
"1975-09-17 05:00","1975","09","17","05:00","9.4","","9.4","","100","","","","0","","6.4","","99.88","","","","","","Fog"
"1975-09-17 06:00","1975","09","17","06:00","7.8","","7.8","","99","","36","","3","","3.2","","99.95","","","","","","Fog"
"1975-09-17 07:00","1975","09","17","07:00","10.0","","8.3","","91","","1","","8","","6.4","","99.98","","","","","","Fog"
"1975-09-17 08:00","1975","09","17","08:00","12.2","","9.4","","84","","35","","8","","6.4","","100.00","","","","","","Fog"
"1975-09-17 09:00","1975","09","17","09:00","15.6","","11.1","","74","","","","0","","8.0","","100.03","","","","","","Haze"
"1975-09-17 10:00","1975","09","17","10:00","16.7","","9.4","","61","","","","0","","9.7","","100.02","","","","","","Haze"
"1975-09-17 11:00","1975","09","17","11:00","18.3","","11.1","","61","","16","","3","","9.7","","100.00","","","","","","Haze"
"1975-09-17 12:00","1975","09","17","12:00","19.4","","9.4","","52","","","","0","","9.7","","99.96","","","","","","Haze"
"1975-09-17 13:00","1975","09","17","13:00","18.3","","10.6","","60","","16","","14","","8.0","","99.97","","","","","","Haze"
"1975-09-17 14:00","1975","09","17","14:00","18.3","","11.1","","61","","17","","14","","8.0","","99.92","","","","","","Haze"
"1975-09-17 15:00","1975","09","17","15:00","18.3","","11.7","","65","","14","","14","","8.0","","99.86","","","","","","Haze"
"1975-09-17 16:00","1975","09","17","16:00","18.3","","11.7","","65","","15","","13","","9.7","","99.87","","","","","","Haze"
"1975-09-17 17:00","1975","09","17","17:00","17.8","","11.1","","65","","14","","11","","9.7","","99.86","","","","","","Haze"
"1975-09-17 18:00","1975","09","17","18:00","16.7","","11.1","","68","","13","","8","","8.0","","99.88","","","","","","Haze"
"1975-09-17 19:00","1975","09","17","19:00","15.0","","10.6","","74","","14","","3","","6.4","","99.91","","","","","","Haze"
"1975-09-17 20:00","1975","09","17","20:00","15.0","","11.1","","78","","12","","11","","8.0","","99.95","","","","","","Haze"
"1975-09-17 21:00","1975","09","17","21:00","14.4","","11.7","","83","","11","","11","","8.0","","99.96","","","","","","Haze"
"1975-09-17 22:00","1975","09","17","22:00","14.4","","12.2","","86","","10","","11","","8.0","","99.95","","","","","","Fog"
"1975-09-17 23:00","1975","09","17","23:00","13.9","","12.8","","92","","11","","11","","4.8","","99.93","","","","","","Fog"
"1975-09-18 00:00","1975","09","18","00:00","13.9","","12.2","","88","","10","","10","","6.4","","99.88","","","","","","Fog"
"1975-09-18 01:00","1975","09","18","01:00","13.3","","12.2","","92","","8","","14","","8.0","","99.89","","","","","","Fog"
"1975-09-18 02:00","1975","09","18","02:00","13.9","","12.2","","91","","6","","11","","6.4","","99.86","","","","","","Fog"
"1975-09-18 03:00","1975","09","18","03:00","13.9","","12.2","","90","","7","","13","","6.4","","99.86","","","","","","Fog"
"1975-09-18 04:00","1975","09","18","04:00","13.9","","12.8","","92","","7","","13","","6.4","","99.86","","","","","","Fog"
"1975-09-18 05:00","1975","09","18","05:00","13.9","","12.8","","93","","8","","16","","6.4","","99.84","","","","","","Fog"
"1975-09-18 06:00","1975","09","18","06:00","14.4","","12.8","","92","","10","","19","","4.8","","99.84","","","","","","Fog"
"1975-09-18 07:00","1975","09","18","07:00","14.4","","13.3","","94","","10","","19","","4.0","","99.85","","","","","","Fog"
"1975-09-18 08:00","1975","09","18","08:00","14.4","","13.3","","94","","11","","19","","3.2","","99.84","","","","","","Fog"
"1975-09-18 09:00","1975","09","18","09:00","15.0","","13.9","","93","","10","","19","","3.2","","99.80","","","","","","Rain,Fog"
"1975-09-18 10:00","1975","09","18","10:00","15.6","","13.3","","88","","10","","16","","4.8","","99.79","","","","","","Fog"
"1975-09-18 11:00","1975","09","18","11:00","15.0","","13.9","","92","","10","","19","","4.0","","99.72","","","","","","Rain,Fog"
"1975-09-18 12:00","1975","09","18","12:00","15.6","","13.9","","92","","10","","19","","3.2","","99.64","","","","","","Rain,Fog"
"1975-09-18 13:00","1975","09","18","13:00","15.0","","14.4","","95","","11","","23","","3.2","","99.59","","","","","","Rain,Fog"
"1975-09-18 14:00","1975","09","18","14:00","15.0","","14.4","","97","","10","","23","","2.0","","99.49","","","","","","Rain,Fog"
"1975-09-18 15:00","1975","09","18","15:00","15.6","","15.0","","97","","11","","27","","2.4","","99.46","","","","","","Rain,Fog"
"1975-09-18 16:00","1975","09","18","16:00","15.6","","15.0","","98","","11","","27","","2.4","","99.38","","","","","","Rain,Fog"
"1975-09-18 17:00","1975","09","18","17:00","15.0","","15.0","","100","","11","","27","","2.4","","99.32","","","","","","Rain,Fog"
"1975-09-18 18:00","1975","09","18","18:00","15.0","","15.0","","98","","11","","27","","2.4","","99.26","","","","","","Rain,Fog"
"1975-09-18 19:00","1975","09","18","19:00","15.0","","14.4","","97","","12","","26","","3.2","","99.24","","","","","","Rain,Fog"
"1975-09-18 20:00","1975","09","18","20:00","15.0","","14.4","","97","","11","","24","","4.0","","99.23","","","","","","Rain,Fog"
"1975-09-18 21:00","1975","09","18","21:00","15.0","","14.4","","98","","11","","19","","4.0","","99.22","","","","","","Rain,Fog"
"1975-09-18 22:00","1975","09","18","22:00","15.0","","14.4","","99","","11","","23","","4.0","","99.16","","","","","","Rain,Fog"
"1975-09-18 23:00","1975","09","18","23:00","14.4","","13.9","","99","","11","","11","","3.2","","99.15","","","","","","Rain,Fog"
"1975-09-19 00:00","1975","09","19","00:00","15.0","","14.4","","98","","12","","14","","4.0","","99.12","","","","","","Rain,Fog"
"1975-09-19 01:00","1975","09","19","01:00","15.0","","15.0","","99","","18","","19","","4.0","","99.12","","","","","","Drizzle,Fog"
"1975-09-19 02:00","1975","09","19","02:00","15.0","","15.0","","100","","15","","13","","3.2","","99.11","","","","","","Fog"
"1975-09-19 03:00","1975","09","19","03:00","15.6","","15.6","","99","","14","","11","","3.2","","99.06","","","","","","Fog"
"1975-09-19 04:00","1975","09","19","04:00","15.6","","15.6","","99","","16","","10","","4.0","","99.06","","","","","","Fog"
"1975-09-19 05:00","1975","09","19","05:00","16.1","","16.1","","99","","18","","10","","4.0","","99.09","","","","","","Fog"
"1975-09-19 06:00","1975","09","19","06:00","16.7","","16.7","","99","","20","","11","","4.0","","99.13","","","","","","Fog"
"1975-09-19 07:00","1975","09","19","07:00","16.7","","16.1","","95","","23","","3","","4.8","","99.21","","","","","","Fog"
"1975-09-19 08:00","1975","09","19","08:00","16.1","","15.6","","94","","26","","5","","19.3","","99.27","","","","","","Cloudy"
"1975-09-19 09:00","1975","09","19","09:00","16.7","","15.6","","93","","25","","3","","19.3","","99.28","","","","","","Cloudy"
"1975-09-19 10:00","1975","09","19","10:00","17.2","","15.6","","89","","22","","10","","19.3","","99.28","","","","","","Cloudy"
"1975-09-19 11:00","1975","09","19","11:00","17.2","","15.6","","88","","23","","10","","19.3","","99.30","","","","","","Cloudy"
"1975-09-19 12:00","1975","09","19","12:00","18.3","","15.0","","81","","24","","10","","19.3","","99.31","","","","","","Mostly Cloudy"
"1975-09-19 13:00","1975","09","19","13:00","20.0","","15.0","","73","","23","","3","","24.1","","99.26","","","","","","Mostly Cloudy"
"1975-09-19 14:00","1975","09","19","14:00","21.7","","15.6","","67","","22","","10","","12.9","","99.21","","26","","","","Mainly Clear"
"1975-09-19 15:00","1975","09","19","15:00","21.7","","16.1","","71","","17","","13","","12.9","","99.16","","26","","","","Mostly Cloudy"
"1975-09-19 16:00","1975","09","19","16:00","20.6","","16.1","","75","","16","","11","","11.3","","99.15","","25","","","","Mainly Clear"
"1975-09-19 17:00","1975","09","19","17:00","20.0","","16.1","","78","","16","","10","","9.7","","99.17","","25","","","","Haze"
"1975-09-19 18:00","1975","09","19","18:00","18.9","","16.1","","85","","18","","3","","9.7","","99.19","","","","","","Haze"
"1975-09-19 19:00","1975","09","19","19:00","18.3","","15.6","","84","","","","0","","8.0","","99.21","","","","","","Haze"
"1975-09-19 20:00","1975","09","19","20:00","17.8","","16.7","","93","","15","","2","","9.7","","99.17","","","","","","Fog"
"1975-09-19 21:00","1975","09","19","21:00","17.8","","15.0","","86","","14","","10","","11.3","","99.12","","","","","","Mostly Cloudy"
"1975-09-19 22:00","1975","09","19","22:00","16.1","","14.4","","91","","14","","8","","9.7","","99.12","","","","","","Fog"
"1975-09-19 23:00","1975","09","19","23:00","16.1","","14.4","","93","","13","","11","","6.4","","99.10","","","","","","Fog"
"1975-09-20 00:00","1975","09","20","00:00","16.1","","15.0","","95","","17","","3","","4.0","","99.05","","","","","","Rain Showers,Fog"
"1975-09-20 01:00","1975","09","20","01:00","16.1","","15.6","","95","","15","","3","","3.2","","99.00","","","","","","Rain Showers,Fog"
"1975-09-20 02:00","1975","09","20","02:00","16.1","","15.6","","95","","15","","8","","3.2","","98.93","","","","","","Rain Showers,Fog"
"1975-09-20 03:00","1975","09","20","03:00","16.1","","15.6","","97","","15","","8","","1.6","","98.86","","","","","","Moderate Rain,Fog"
"1975-09-20 04:00","1975","09","20","04:00","16.1","","16.1","","98","","16","","3","","0.8","","98.82","","","","","","Fog"
"1975-09-20 05:00","1975","09","20","05:00","16.1","","16.1","","99","","18","","5","","0.2","","98.81","","","","","","Fog"
"1975-09-20 06:00","1975","09","20","06:00","16.7","","16.7","","99","","29","","11","","3.2","","98.81","","","","","","Fog"
"1975-09-20 07:00","1975","09","20","07:00","14.4","","13.3","","92","","29","","24","","4.0","","98.94","","","","","","Moderate Rain Showers,Fog"
"1975-09-20 08:00","1975","09","20","08:00","13.9","","13.3","","95","","36","","10","","24.1","","98.85","","","","","","Rain"
"1975-09-20 09:00","1975","09","20","09:00","14.4","","12.8","","92","","29","","16","","40.2","","98.98","","","","","","Mostly Cloudy"
"1975-09-20 10:00","1975","09","20","10:00","14.4","","12.2","","86","","30","","11","","40.2","","99.02","","","","","","Rain Showers"
"1975-09-20 11:00","1975","09","20","11:00","15.0","","12.2","","83","","27","","11","","40.2","","99.05","","","","","","Mostly Cloudy"
"1975-09-20 12:00","1975","09","20","12:00","16.1","","12.2","","77","","27","","16","","40.2","","99.06","","","","","","Mostly Cloudy"
"1975-09-20 13:00","1975","09","20","13:00","17.2","","11.7","","69","","27","","10","","40.2","","98.99","","","","","","Mainly Clear"
"1975-09-20 14:00","1975","09","20","14:00","18.9","","10.6","","58","","26","","16","","40.2","","98.98","","","","","","Mainly Clear"
"1975-09-20 15:00","1975","09","20","15:00","18.3","","8.9","","54","","26","","16","","40.2","","98.97","","","","","","Mainly Clear"
"1975-09-20 16:00","1975","09","20","16:00","18.9","","9.4","","54","","24","","14","","40.2","","98.96","","","","","","Mainly Clear"
"1975-09-20 17:00","1975","09","20","17:00","18.3","","10.0","","57","","26","","10","","40.2","","98.98","","","","","","Mainly Clear"
"1975-09-20 18:00","1975","09","20","18:00","17.8","","10.6","","64","","20","","3","","40.2","","98.99","","","","","","Mainly Clear"
"1975-09-20 19:00","1975","09","20","19:00","16.1","","11.7","","77","","18","","11","","25.0","","99.01","","","","","","Mainly Clear"
"1975-09-20 20:00","1975","09","20","20:00","15.0","","11.7","","80","","22","","10","","24.1","","99.05","","","","","","Mainly Clear"
"1975-09-20 21:00","1975","09","20","21:00","14.4","","11.7","","83","","22","","10","","24.1","","99.06","","","","","","Mostly Cloudy"
"1975-09-20 22:00","1975","09","20","22:00","14.4","","10.6","","78","","22","","8","","24.1","","99.09","","","","","","Cloudy"
"1975-09-20 23:00","1975","09","20","23:00","13.9","","11.1","","84","","24","","11","","24.1","","99.10","","","","","","Mostly Cloudy"
"1975-09-21 00:00","1975","09","21","00:00","13.9","","11.1","","82","","24","","10","","24.1","","99.09","","","","","","Cloudy"
"1975-09-21 01:00","1975","09","21","01:00","13.3","","11.1","","87","","21","","8","","19.3","","99.08","","","","","","Mostly Cloudy"
"1975-09-21 02:00","1975","09","21","02:00","12.8","","11.7","","90","","21","","5","","16.1","","99.07","","","","","","Mostly Cloudy"
"1975-09-21 03:00","1975","09","21","03:00","12.8","","11.1","","90","","21","","3","","16.1","","99.10","","","","","","Mostly Cloudy"
"1975-09-21 04:00","1975","09","21","04:00","12.2","","10.6","","90","","20","","5","","12.9","","99.11","","","","","","Mostly Cloudy"
"1975-09-21 05:00","1975","09","21","05:00","12.2","","10.0","","88","","22","","11","","16.1","","99.16","","","","","","Cloudy"
"1975-09-21 06:00","1975","09","21","06:00","11.7","","9.4","","88","","23","","5","","16.1","","99.15","","","","","","Mostly Cloudy"
"1975-09-21 07:00","1975","09","21","07:00","12.2","","10.0","","87","","22","","3","","19.3","","99.18","","","","","","Mostly Cloudy"
"1975-09-21 08:00","1975","09","21","08:00","12.2","","10.0","","87","","24","","8","","19.3","","99.14","","","","","","Mostly Cloudy"
"1975-09-21 09:00","1975","09","21","09:00","13.3","","10.0","","80","","24","","16","","19.3","","99.17","","","","","","Mostly Cloudy"
"1975-09-21 10:00","1975","09","21","10:00","14.4","","10.0","","74","","22","","16","","24.1","","99.17","","","","","","Mostly Cloudy"
"1975-09-21 11:00","1975","09","21","11:00","16.1","","10.0","","67","","24","","21","","40.2","","99.12","","","","","","Mostly Cloudy"
"1975-09-21 12:00","1975","09","21","12:00","16.7","","7.8","","57","","23","","29","","40.2","","99.09","","","","","","Mostly Cloudy"
"1975-09-21 13:00","1975","09","21","13:00","18.3","","9.4","","55","","24","","32","","40.2","","99.09","","","","","","Mostly Cloudy"
"1975-09-21 14:00","1975","09","21","14:00","15.0","","7.8","","62","","25","","26","","40.2","","99.12","","","","","","Mostly Cloudy"
"1975-09-21 15:00","1975","09","21","15:00","16.7","","9.4","","62","","25","","34","","40.2","","99.08","","","","","","Mostly Cloudy"
"1975-09-21 16:00","1975","09","21","16:00","15.6","","8.3","","62","","24","","26","","40.2","","99.10","","","","","","Mostly Cloudy"
"1975-09-21 17:00","1975","09","21","17:00","15.0","","8.9","","66","","25","","21","","40.2","","99.11","","","","","","Mostly Cloudy"
"1975-09-21 18:00","1975","09","21","18:00","15.0","","8.9","","68","","23","","19","","40.2","","99.16","","","","","","Mostly Cloudy"
"1975-09-21 19:00","1975","09","21","19:00","14.4","","8.9","","68","","22","","14","","25.0","","99.19","","","","","","Mostly Cloudy"
"1975-09-21 20:00","1975","09","21","20:00","11.7","","8.9","","83","","26","","21","","25.0","","99.29","","","","","","Rain Showers"
"1975-09-21 21:00","1975","09","21","21:00","12.2","","8.9","","81","","24","","19","","25.0","","99.31","","","","","","Mostly Cloudy"
"1975-09-21 22:00","1975","09","21","22:00","11.7","","8.9","","83","","25","","16","","25.0","","99.34","","","","","","Mostly Cloudy"
"1975-09-21 23:00","1975","09","21","23:00","11.1","","8.3","","85","","26","","14","","25.0","","99.34","","","","","","Clear"
"1975-09-22 00:00","1975","09","22","00:00","9.4","","7.2","","88","","23","","10","","25.0","","99.39","","","","","","Mainly Clear"
"1975-09-22 01:00","1975","09","22","01:00","8.9","","7.8","","93","","22","","8","","25.0","","99.42","","","","","","Mainly Clear"
"1975-09-22 02:00","1975","09","22","02:00","9.4","","8.3","","91","","25","","14","","25.0","","99.44","","","","","","Mainly Clear"
"1975-09-22 03:00","1975","09","22","03:00","8.9","","7.8","","91","","26","","11","","25.0","","99.43","","","","","","Clear"
"1975-09-22 04:00","1975","09","22","04:00","8.3","","7.8","","94","","23","","16","","25.0","","99.49","","","","","","Mainly Clear"
"1975-09-22 05:00","1975","09","22","05:00","7.8","","6.7","","94","","23","","13","","19.3","","99.50","","","","","","Mainly Clear"
"1975-09-22 06:00","1975","09","22","06:00","8.3","","7.8","","94","","22","","14","","9.7","","99.55","","","","","","Fog"
"1975-09-22 07:00","1975","09","22","07:00","9.4","","8.3","","95","","24","","14","","8.0","","99.58","","","","","","Fog"
"1975-09-22 08:00","1975","09","22","08:00","10.0","","8.3","","90","","23","","16","","19.3","","99.57","","","","","","Mostly Cloudy"
"1975-09-22 09:00","1975","09","22","09:00","11.1","","8.3","","84","","25","","24","","19.3","","99.61","","","","","","Mostly Cloudy"
"1975-09-22 10:00","1975","09","22","10:00","12.2","","8.3","","78","","24","","24","","24.1","","99.60","","","","","","Mostly Cloudy"
"1975-09-22 11:00","1975","09","22","11:00","13.9","","7.8","","66","","25","","26","","32.2","","99.60","","","","","","Mostly Cloudy"
"1975-09-22 12:00","1975","09","22","12:00","14.4","","7.2","","63","","26","","29","","32.2","","99.59","","","","","","Mostly Cloudy"
"1975-09-22 13:00","1975","09","22","13:00","13.9","","7.2","","63","","23","","23","","32.2","","99.56","","","","","","Mostly Cloudy"
"1975-09-22 14:00","1975","09","22","14:00","12.8","","7.2","","70","","25","","24","","32.2","","99.52","","","","","","Mostly Cloudy"
"1975-09-22 15:00","1975","09","22","15:00","12.8","","7.2","","69","","25","","21","","32.2","","99.55","","","","","","Mostly Cloudy"
"1975-09-22 16:00","1975","09","22","16:00","11.7","","6.7","","71","","25","","14","","32.2","","99.52","","","","","","Cloudy"
"1975-09-22 17:00","1975","09","22","17:00","11.7","","6.7","","71","","25","","19","","32.2","","99.56","","","","","","Cloudy"
"1975-09-22 18:00","1975","09","22","18:00","11.1","","7.2","","75","","26","","11","","32.2","","99.59","","","","","","Cloudy"
"1975-09-22 19:00","1975","09","22","19:00","11.1","","7.2","","78","","26","","5","","25.0","","99.60","","","","","","Cloudy"
"1975-09-22 20:00","1975","09","22","20:00","10.6","","7.2","","80","","25","","8","","25.0","","99.61","","","","","","Cloudy"
"1975-09-22 21:00","1975","09","22","21:00","10.0","","7.8","","84","","","","0","","25.0","","99.56","","","","","","Mostly Cloudy"
"1975-09-22 22:00","1975","09","22","22:00","10.0","","7.2","","81","","21","","5","","25.0","","99.58","","","","","","Cloudy"
"1975-09-22 23:00","1975","09","22","23:00","8.9","","6.7","","85","","27","","8","","25.0","","99.51","","","","","","Mostly Cloudy"
"1975-09-23 00:00","1975","09","23","00:00","8.9","","7.2","","87","","25","","8","","24.1","","99.51","","","","","","Cloudy"
"1975-09-23 01:00","1975","09","23","01:00","10.0","","7.2","","82","","23","","8","","19.3","","99.47","","","","","","Cloudy"
"1975-09-23 02:00","1975","09","23","02:00","9.4","","7.2","","87","","22","","5","","19.3","","99.47","","","","","","Cloudy"
"1975-09-23 03:00","1975","09","23","03:00","8.3","","6.7","","90","","23","","8","","19.3","","99.45","","","","","","Mostly Cloudy"
"1975-09-23 04:00","1975","09","23","04:00","7.8","","6.1","","90","","24","","3","","16.1","","99.45","","","","","","Mainly Clear"
"1975-09-23 05:00","1975","09","23","05:00","7.2","","6.1","","93","","25","","10","","12.9","","99.51","","","","","","Mainly Clear"
"1975-09-23 06:00","1975","09","23","06:00","6.7","","6.1","","95","","25","","5","","4.8","","99.50","","","","","","Fog"
"1975-09-23 07:00","1975","09","23","07:00","7.8","","6.7","","93","","26","","11","","4.8","","99.55","","","","","","Fog"
"1975-09-23 08:00","1975","09","23","08:00","10.0","","7.8","","89","","27","","14","","12.9","","99.58","","","","","","Mainly Clear"
"1975-09-23 09:00","1975","09","23","09:00","12.2","","8.9","","80","","27","","16","","19.3","","99.63","","","","","","Mainly Clear"
"1975-09-23 10:00","1975","09","23","10:00","13.9","","8.9","","71","","26","","19","","19.3","","99.67","","","","","","Mostly Cloudy"
"1975-09-23 11:00","1975","09","23","11:00","15.6","","7.8","","61","","26","","13","","24.1","","99.68","","","","","","Mostly Cloudy"
"1975-09-23 12:00","1975","09","23","12:00","14.4","","8.9","","67","","31","","11","","32.2","","99.70","","","","","","Mostly Cloudy"
"1975-09-23 13:00","1975","09","23","13:00","15.0","","7.8","","62","","28","","13","","32.2","","99.69","","","","","","Mostly Cloudy"
"1975-09-23 14:00","1975","09","23","14:00","16.1","","8.3","","59","","31","","5","","32.2","","99.66","","","","","","Mostly Cloudy"
"1975-09-23 15:00","1975","09","23","15:00","15.6","","7.8","","61","","33","","3","","32.2","","99.67","","","","","","Mostly Cloudy"
"1975-09-23 16:00","1975","09","23","16:00","15.6","","7.2","","57","","27","","2","","32.2","","99.70","","","","","","Cloudy"
"1975-09-23 17:00","1975","09","23","17:00","15.0","","6.7","","58","","3","","11","","32.2","","99.71","","","","","","Cloudy"
"1975-09-23 18:00","1975","09","23","18:00","13.3","","7.8","","67","","1","","14","","32.2","","99.83","","","","","","Cloudy"
"1975-09-23 19:00","1975","09","23","19:00","12.8","","7.2","","70","","1","","14","","25.0","","99.87","","","","","","Cloudy"
"1975-09-23 20:00","1975","09","23","20:00","11.7","","6.7","","71","","1","","16","","25.0","","99.91","","","","","","Cloudy"
"1975-09-23 21:00","1975","09","23","21:00","11.1","","6.7","","74","","1","","16","","25.0","","99.91","","","","","","Cloudy"
"1975-09-23 22:00","1975","09","23","22:00","10.6","","6.1","","75","","36","","16","","25.0","","99.91","","","","","","Cloudy"
"1975-09-23 23:00","1975","09","23","23:00","10.6","","6.1","","74","","36","","13","","25.0","","99.99","","","","","","Cloudy"
"1975-09-24 00:00","1975","09","24","00:00","10.0","","6.1","","77","","36","","16","","24.1","","99.93","","","","","","Cloudy"
"1975-09-24 01:00","1975","09","24","01:00","10.0","","6.1","","77","","36","","14","","25.0","","99.86","","","","","","Cloudy"
"1975-09-24 02:00","1975","09","24","02:00","9.4","","6.7","","83","","36","","16","","25.0","","99.87","","","","","","Cloudy"
"1975-09-24 03:00","1975","09","24","03:00","10.0","","6.7","","80","","36","","14","","25.0","","99.92","","","","","","Cloudy"
"1975-09-24 04:00","1975","09","24","04:00","10.0","","6.7","","80","","1","","11","","25.0","","99.88","","","","","","Cloudy"
"1975-09-24 05:00","1975","09","24","05:00","10.6","","6.1","","75","","2","","11","","24.1","","99.93","","","","","","Rain"
"1975-09-24 06:00","1975","09","24","06:00","10.6","","6.1","","75","","4","","5","","24.1","","100.01","","","","","","Rain"
"1975-09-24 07:00","1975","09","24","07:00","10.6","","6.1","","74","","4","","16","","32.2","","100.10","","","","","","Rain"
"1975-09-24 08:00","1975","09","24","08:00","10.6","","6.7","","76","","6","","23","","40.2","","100.16","","","","","","Cloudy"
"1975-09-24 09:00","1975","09","24","09:00","11.1","","7.2","","75","","5","","24","","40.2","","100.21","","","","","","Cloudy"
"1975-09-24 10:00","1975","09","24","10:00","11.7","","6.7","","71","","3","","23","","40.2","","100.29","","","","","","Cloudy"
"1975-09-24 11:00","1975","09","24","11:00","12.2","","6.7","","69","","6","","24","","40.2","","100.30","","","","","","Cloudy"
"1975-09-24 12:00","1975","09","24","12:00","12.2","","6.7","","68","","6","","23","","40.2","","100.35","","","","","","Cloudy"
"1975-09-24 13:00","1975","09","24","13:00","13.3","","7.8","","67","","4","","24","","40.2","","100.35","","","","","","Cloudy"
"1975-09-24 14:00","1975","09","24","14:00","13.9","","6.7","","63","","4","","24","","40.2","","100.36","","","","","","Mostly Cloudy"
"1975-09-24 15:00","1975","09","24","15:00","14.4","","6.1","","58","","7","","24","","40.2","","100.35","","","","","","Mostly Cloudy"
"1975-09-24 16:00","1975","09","24","16:00","14.4","","5.6","","55","","5","","16","","40.2","","100.35","","","","","","Mainly Clear"
"1975-09-24 17:00","1975","09","24","17:00","14.4","","3.9","","51","","6","","27","","40.2","","100.38","","","","","","Mainly Clear"
"1975-09-24 18:00","1975","09","24","18:00","13.3","","3.3","","51","","6","","19","","40.2","","100.43","","","","","","Mainly Clear"
"1975-09-24 19:00","1975","09","24","19:00","12.8","","2.8","","52","","6","","16","","25.0","","100.45","","","","","","Mainly Clear"
"1975-09-24 20:00","1975","09","24","20:00","11.7","","3.3","","58","","7","","13","","25.0","","100.49","","","","","","Clear"
"1975-09-24 21:00","1975","09","24","21:00","10.6","","3.3","","62","","6","","14","","25.0","","100.51","","","","","","Clear"
"1975-09-24 22:00","1975","09","24","22:00","10.0","","2.8","","63","","6","","13","","25.0","","100.54","","","","","","Mainly Clear"
"1975-09-24 23:00","1975","09","24","23:00","10.0","","2.8","","62","","6","","19","","25.0","","100.53","","","","","","Mostly Cloudy"
"1975-09-25 00:00","1975","09","25","00:00","9.4","","2.2","","59","","6","","21","","25.0","","100.50","","","","","","Mostly Cloudy"
"1975-09-25 01:00","1975","09","25","01:00","9.4","","2.8","","62","","6","","21","","25.0","","100.50","","","","","","Mostly Cloudy"
"1975-09-25 02:00","1975","09","25","02:00","9.4","","3.3","","66","","6","","24","","25.0","","100.41","","","","","","Mostly Cloudy"
"1975-09-25 03:00","1975","09","25","03:00","9.4","","3.9","","68","","6","","29","","25.0","","100.40","","","","","","Mostly Cloudy"
"1975-09-25 04:00","1975","09","25","04:00","9.4","","3.9","","68","","7","","24","","25.0","","100.38","","","","","","Cloudy"
"1975-09-25 05:00","1975","09","25","05:00","10.0","","3.3","","64","","6","","26","","25.0","","100.34","","","","","","Cloudy"
"1975-09-25 06:00","1975","09","25","06:00","10.0","","3.3","","64","","7","","26","","25.0","","100.31","","","","","","Cloudy"
"1975-09-25 07:00","1975","09","25","07:00","10.0","","3.9","","68","","7","","23","","40.2","","100.32","","","","","","Cloudy"
"1975-09-25 08:00","1975","09","25","08:00","10.0","","4.4","","69","","6","","24","","40.2","","100.35","","","","","","Cloudy"
"1975-09-25 09:00","1975","09","25","09:00","10.0","","5.6","","73","","5","","19","","32.2","","100.33","","","","","","Rain Showers"
"1975-09-25 10:00","1975","09","25","10:00","10.0","","5.6","","74","","6","","26","","32.2","","100.29","","","","","","Rain Showers"
"1975-09-25 11:00","1975","09","25","11:00","10.6","","6.7","","78","","8","","26","","32.2","","100.26","","","","","","Cloudy"
"1975-09-25 12:00","1975","09","25","12:00","10.0","","7.2","","82","","6","","21","","9.7","","100.16","","","","","","Rain,Fog"
"1975-09-25 13:00","1975","09","25","13:00","10.6","","6.7","","78","","7","","19","","19.3","","100.08","","","","","","Rain"
"1975-09-25 14:00","1975","09","25","14:00","10.0","","8.9","","93","","7","","27","","4.0","","100.01","","","","","","Rain Showers,Fog"
"1975-09-25 15:00","1975","09","25","15:00","10.0","","8.9","","94","","8","","23","","4.0","","99.97","","","","","","Rain Showers,Fog"
"1975-09-25 16:00","1975","09","25","16:00","10.6","","9.4","","95","","7","","32","","3.2","","99.91","","","","","","Rain,Fog"
"1975-09-25 17:00","1975","09","25","17:00","11.1","","10.0","","96","","7","","24","","3.2","","99.91","","","","","","Rain,Fog"
"1975-09-25 18:00","1975","09","25","18:00","11.1","","11.1","","99","","9","","23","","4.0","","99.84","","","","","","Rain,Fog"
"1975-09-25 19:00","1975","09","25","19:00","11.7","","11.1","","95","","8","","21","","4.8","","99.78","","","","","","Rain,Fog"
"1975-09-25 20:00","1975","09","25","20:00","12.2","","11.7","","96","","9","","16","","4.8","","99.77","","","","","","Rain,Fog"
"1975-09-25 21:00","1975","09","25","21:00","12.8","","12.2","","97","","10","","19","","6.4","","99.75","","","","","","Rain,Fog"
"1975-09-25 22:00","1975","09","25","22:00","12.8","","12.8","","99","","8","","11","","6.4","","99.75","","","","","","Fog"
"1975-09-25 23:00","1975","09","25","23:00","12.8","","12.8","","99","","9","","14","","1.2","","99.71","","","","","","Fog"
"1975-09-26 00:00","1975","09","26","00:00","12.8","","12.8","","99","","10","","8","","0.8","","99.67","","","","","","Fog"
"1975-09-26 01:00","1975","09","26","01:00","13.3","","13.3","","100","","8","","10","","0.4","","99.60","","","","","","Fog"
"1975-09-26 02:00","1975","09","26","02:00","13.3","","13.3","","100","","9","","13","","0.2","","99.59","","","","","","Fog"
"1975-09-26 03:00","1975","09","26","03:00","13.3","","13.3","","100","","9","","5","","0.0","","99.57","","","","","","Fog"
"1975-09-26 04:00","1975","09","26","04:00","13.3","","13.3","","100","","11","","10","","0.0","","99.59","","","","","","Drizzle,Fog"
"1975-09-26 05:00","1975","09","26","05:00","13.3","","13.3","","100","","12","","3","","0.2","","99.57","","","","","","Fog"
"1975-09-26 06:00","1975","09","26","06:00","13.3","","13.3","","100","","","","0","","0.2","","99.57","","","","","","Fog"
"1975-09-26 07:00","1975","09","26","07:00","13.3","","13.3","","100","","","","0","","0.0","","99.58","","","","","","Fog"
"1975-09-26 08:00","1975","09","26","08:00","13.9","","13.9","","100","","15","","3","","0.4","","99.60","","","","","","Fog"
"1975-09-26 09:00","1975","09","26","09:00","13.3","","13.3","","100","","15","","5","","0.2","","99.61","","","","","","Fog"
"1975-09-26 10:00","1975","09","26","10:00","13.9","","13.9","","100","","15","","3","","0.4","","99.61","","","","","","Fog"
"1975-09-26 11:00","1975","09","26","11:00","15.0","","15.0","","98","","17","","5","","4.0","","99.60","","","","","","Fog"
"1975-09-26 12:00","1975","09","26","12:00","15.6","","14.4","","93","","19","","10","","6.4","","99.58","","","","","","Fog"
"1975-09-26 13:00","1975","09","26","13:00","16.1","","13.9","","89","","22","","11","","9.7","","99.55","","","","","","Fog"
"1975-09-26 14:00","1975","09","26","14:00","16.7","","13.9","","84","","24","","13","","12.9","","99.52","","","","","","Cloudy"
"1975-09-26 15:00","1975","09","26","15:00","17.2","","13.9","","80","","26","","11","","9.7","","99.49","","","","","","Haze"
"1975-09-26 16:00","1975","09","26","16:00","16.1","","13.3","","83","","26","","11","","8.0","","99.51","","","","","","Haze"
"1975-09-26 17:00","1975","09","26","17:00","15.0","","12.8","","86","","28","","14","","11.3","","99.54","","","","","","Cloudy"
"1975-09-26 18:00","1975","09","26","18:00","15.0","","12.2","","84","","29","","11","","12.9","","99.59","","","","","","Cloudy"
"1975-09-26 19:00","1975","09","26","19:00","14.4","","12.2","","86","","29","","3","","16.1","","99.62","","","","","","Cloudy"
"1975-09-26 20:00","1975","09","26","20:00","13.9","","12.2","","91","","25","","3","","16.1","","99.69","","","","","","Cloudy"
"1975-09-26 21:00","1975","09","26","21:00","13.9","","12.2","","90","","27","","3","","16.1","","99.71","","","","","","Cloudy"
"1975-09-26 22:00","1975","09","26","22:00","13.3","","11.7","","89","","35","","8","","24.1","","99.72","","","","","","Cloudy"
"1975-09-26 23:00","1975","09","26","23:00","12.8","","11.7","","94","","33","","3","","24.1","","99.70","","","","","","Cloudy"
"1975-09-27 00:00","1975","09","27","00:00","12.2","","11.1","","92","","31","","5","","24.1","","99.65","","","","","","Cloudy"
"1975-09-27 01:00","1975","09","27","01:00","12.2","","10.0","","89","","31","","10","","24.1","","99.66","","","","","","Cloudy"
"1975-09-27 02:00","1975","09","27","02:00","11.7","","8.9","","84","","32","","13","","19.3","","99.66","","","","","","Cloudy"
"1975-09-27 03:00","1975","09","27","03:00","11.1","","8.3","","84","","32","","8","","19.3","","99.66","","","","","","Mostly Cloudy"
"1975-09-27 04:00","1975","09","27","04:00","10.6","","8.3","","87","","33","","2","","19.3","","99.66","","","","","","Mostly Cloudy"
"1975-09-27 05:00","1975","09","27","05:00","10.0","","8.3","","89","","28","","2","","19.3","","99.68","","","","","","Mostly Cloudy"
"1975-09-27 06:00","1975","09","27","06:00","10.0","","7.8","","88","","22","","2","","19.3","","99.70","","","","","","Mostly Cloudy"
"1975-09-27 07:00","1975","09","27","07:00","10.6","","8.9","","89","","25","","8","","19.3","","99.72","","","","","","Mostly Cloudy"
"1975-09-27 08:00","1975","09","27","08:00","12.2","","8.9","","79","","26","","11","","16.1","","99.70","","","","","","Cloudy"
"1975-09-27 09:00","1975","09","27","09:00","13.3","","10.6","","84","","26","","13","","24.1","","99.70","","","","","","Mostly Cloudy"
"1975-09-27 10:00","1975","09","27","10:00","12.8","","10.0","","81","","33","","13","","24.1","","99.69","","","","","","Cloudy"
"1975-09-27 11:00","1975","09","27","11:00","13.9","","9.4","","75","","29","","10","","24.1","","99.69","","","","","","Cloudy"
"1975-09-27 12:00","1975","09","27","12:00","13.9","","10.0","","76","","27","","13","","24.1","","99.67","","","","","","Rain Showers"
"1975-09-27 13:00","1975","09","27","13:00","13.9","","8.9","","72","","28","","13","","40.2","","99.62","","","","","","Cloudy"
"1975-09-27 14:00","1975","09","27","14:00","13.9","","9.4","","75","","30","","19","","40.2","","99.60","","","","","","Cloudy"
"1975-09-27 15:00","1975","09","27","15:00","13.9","","9.4","","75","","30","","16","","40.2","","99.61","","","","","","Cloudy"
"1975-09-27 16:00","1975","09","27","16:00","13.9","","9.4","","73","","34","","19","","32.2","","99.63","","","","","","Mostly Cloudy"
"1975-09-27 17:00","1975","09","27","17:00","14.4","","7.8","","64","","33","","13","","32.2","","99.68","","","","","","Mostly Cloudy"
"1975-09-27 18:00","1975","09","27","18:00","11.7","","7.2","","74","","1","","8","","32.2","","99.69","","","","","","Mainly Clear"
"1975-09-27 19:00","1975","09","27","19:00","10.6","","7.2","","81","","","","0","","25.0","","99.73","","","","","","Mainly Clear"
"1975-09-27 20:00","1975","09","27","20:00","10.0","","6.7","","78","","","","0","","25.0","","99.77","","","","","","Mainly Clear"
"1975-09-27 21:00","1975","09","27","21:00","9.4","","6.7","","85","","","","0","","25.0","","99.79","","","","","","Clear"
"1975-09-27 22:00","1975","09","27","22:00","7.8","","6.1","","91","","31","","5","","25.0","","99.80","","","","","","Mainly Clear"
"1975-09-27 23:00","1975","09","27","23:00","6.7","","5.6","","93","","29","","11","","25.0","","99.81","","","","","","Clear"
"1975-09-28 00:00","1975","09","28","00:00","7.2","","6.1","","91","","29","","5","","25.0","","99.79","","","","","","Mainly Clear"
"1975-09-28 01:00","1975","09","28","01:00","6.7","","5.6","","94","","26","","3","","25.0","","99.79","","","","","","Mainly Clear"
"1975-09-28 02:00","1975","09","28","02:00","6.1","","5.0","","92","","28","","8","","25.0","","99.78","","","","","","Mainly Clear"
"1975-09-28 03:00","1975","09","28","03:00","6.1","","4.4","","88","","29","","10","","25.0","","99.81","","","","","","Mainly Clear"
"1975-09-28 04:00","1975","09","28","04:00","5.6","","3.9","","90","","28","","8","","25.0","","99.85","","","","","","Mainly Clear"
"1975-09-28 05:00","1975","09","28","05:00","5.0","","3.3","","89","","28","","10","","25.0","","99.90","","","","","","Clear"
"1975-09-28 06:00","1975","09","28","06:00","4.4","","2.8","","89","","29","","11","","25.0","","99.95","","","","","","Clear"
"1975-09-28 07:00","1975","09","28","07:00","6.1","","3.9","","84","","30","","8","","40.2","","99.99","","","","","","Clear"
"1975-09-28 08:00","1975","09","28","08:00","10.6","","7.8","","83","","29","","10","","40.2","","100.02","","","","","","Clear"
"1975-09-28 09:00","1975","09","28","09:00","13.3","","8.3","","72","","31","","14","","40.2","","100.05","","","","","","Clear"
"1975-09-28 10:00","1975","09","28","10:00","15.6","","8.3","","61","","31","","13","","40.2","","100.08","","","","","","Clear"
"1975-09-28 11:00","1975","09","28","11:00","17.2","","6.1","","48","","30","","5","","40.2","","100.08","","","","","","Clear"
"1975-09-28 12:00","1975","09","28","12:00","18.3","","6.1","","44","","34","","11","","40.2","","100.07","","","","","","Clear"
"1975-09-28 13:00","1975","09","28","13:00","19.4","","6.7","","43","","30","","5","","40.2","","100.04","","","","","","Clear"
"1975-09-28 14:00","1975","09","28","14:00","19.4","","5.0","","39","","","","0","","40.2","","100.02","","","","","","Clear"
"1975-09-28 15:00","1975","09","28","15:00","20.0","","7.2","","45","","16","","13","","40.2","","100.00","","","","","","Clear"
"1975-09-28 16:00","1975","09","28","16:00","19.4","","10.0","","53","","16","","11","","40.2","","100.01","","","","","","Clear"
"1975-09-28 17:00","1975","09","28","17:00","18.3","","8.3","","53","","16","","8","","40.2","","100.02","","","","","","Clear"
"1975-09-28 18:00","1975","09","28","18:00","16.7","","7.8","","55","","16","","3","","40.2","","100.06","","","","","","Clear"
"1975-09-28 19:00","1975","09","28","19:00","15.0","","6.7","","57","","16","","3","","25.0","","100.08","","","","","","Clear"
"1975-09-28 20:00","1975","09","28","20:00","12.8","","7.2","","69","","","","0","","25.0","","100.10","","","","","","Clear"
"1975-09-28 21:00","1975","09","28","21:00","9.4","","7.2","","87","","35","","8","","25.0","","100.12","","","","","","Clear"
"1975-09-28 22:00","1975","09","28","22:00","8.3","","6.7","","88","","34","","11","","25.0","","100.13","","","","","","Clear"
"1975-09-28 23:00","1975","09","28","23:00","7.8","","6.7","","91","","34","","8","","25.0","","100.15","","","","","","Clear"
"1975-09-29 00:00","1975","09","29","00:00","8.3","","6.1","","87","","34","","5","","25.0","","100.16","","","","","","Clear"
"1975-09-29 01:00","1975","09","29","01:00","6.7","","5.6","","93","","33","","10","","25.0","","100.17","","","","","","Clear"
"1975-09-29 02:00","1975","09","29","02:00","6.7","","6.1","","93","","33","","5","","25.0","","100.17","","","","","","Clear"
"1975-09-29 03:00","1975","09","29","03:00","5.6","","4.4","","95","","33","","5","","25.0","","100.19","","","","","","Clear"
"1975-09-29 04:00","1975","09","29","04:00","5.0","","3.9","","94","","34","","3","","25.0","","100.21","","","","","","Clear"
"1975-09-29 05:00","1975","09","29","05:00","5.6","","5.0","","95","","","","0","","25.0","","100.24","","","","","","Clear"
"1975-09-29 06:00","1975","09","29","06:00","3.9","","2.8","","94","","33","","5","","25.0","","100.26","","","","","","Clear"
"1975-09-29 07:00","1975","09","29","07:00","4.4","","3.3","","93","","34","","3","","24.1","","100.27","","","","","","Mainly Clear"
"1975-09-29 08:00","1975","09","29","08:00","9.4","","8.3","","91","","","","0","","24.1","","100.28","","","","","","Clear"
"1975-09-29 09:00","1975","09","29","09:00","13.3","","8.3","","72","","","","0","","24.1","","100.30","","","","","","Clear"
"1975-09-29 10:00","1975","09","29","10:00","16.1","","10.0","","67","","","","0","","24.1","","100.27","","","","","","Clear"
"1975-09-29 11:00","1975","09","29","11:00","17.8","","10.0","","61","","16","","3","","24.1","","100.22","","","","","","Clear"
"1975-09-29 12:00","1975","09","29","12:00","18.9","","9.4","","55","","15","","10","","24.1","","100.17","","","","","","Clear"
"1975-09-29 13:00","1975","09","29","13:00","18.3","","8.9","","54","","15","","11","","24.1","","100.09","","","","","","Mainly Clear"
"1975-09-29 14:00","1975","09","29","14:00","18.9","","6.1","","44","","16","","13","","24.1","","100.02","","","","","","Clear"
"1975-09-29 15:00","1975","09","29","15:00","18.9","","8.3","","51","","18","","14","","32.2","","99.96","","","","","","Clear"
"1975-09-29 16:00","1975","09","29","16:00","18.9","","7.2","","47","","15","","13","","32.2","","99.93","","","","","","Clear"
"1975-09-29 17:00","1975","09","29","17:00","17.8","","7.8","","51","","16","","14","","32.2","","99.89","","","","","","Clear"
"1975-09-29 18:00","1975","09","29","18:00","13.9","","11.1","","83","","16","","8","","8.0","","99.86","","","","","","Haze"
"1975-09-29 19:00","1975","09","29","19:00","13.3","","10.6","","84","","14","","8","","8.0","","99.87","","","","","","Haze"
"1975-09-29 20:00","1975","09","29","20:00","13.3","","9.4","","78","","12","","8","","24.1","","99.82","","","","","","Mainly Clear"
"1975-09-29 21:00","1975","09","29","21:00","12.2","","8.3","","77","","","","0","","24.1","","99.75","","","","","","Mainly Clear"
"1975-09-29 22:00","1975","09","29","22:00","10.6","","9.4","","92","","","","0","","16.1","","99.72","","","","","","Mostly Cloudy"
"1975-09-29 23:00","1975","09","29","23:00","11.1","","10.0","","94","","","","0","","8.0","","99.67","","","","","","Fog"
"1975-09-30 00:00","1975","09","30","00:00","10.6","","9.4","","94","","","","0","","8.0","","99.64","","","","","","Fog"
"1975-09-30 01:00","1975","09","30","01:00","11.1","","10.0","","93","","","","0","","8.0","","99.59","","","","","","Fog"
"1975-09-30 02:00","1975","09","30","02:00","9.4","","8.9","","96","","26","","5","","4.8","","99.59","","","","","","Fog"
"1975-09-30 03:00","1975","09","30","03:00","12.2","","11.1","","92","","23","","11","","6.4","","99.56","","","","","","Rain Showers,Fog"
"1975-09-30 04:00","1975","09","30","04:00","11.7","","10.0","","90","","22","","10","","19.3","","99.51","","","","","","Mainly Clear"
"1975-09-30 05:00","1975","09","30","05:00","10.6","","9.4","","93","","21","","3","","19.3","","99.54","","","","","","Mainly Clear"
"1975-09-30 06:00","1975","09","30","06:00","10.6","","9.4","","94","","21","","5","","19.3","","99.59","","","","","","Mostly Cloudy"
"1975-09-30 07:00","1975","09","30","07:00","11.1","","10.0","","93","","22","","5","","12.9","","99.62","","","","","","Mostly Cloudy"
"1975-09-30 08:00","1975","09","30","08:00","12.8","","11.1","","91","","25","","11","","16.1","","99.66","","","","","","Clear"
"1975-09-30 09:00","1975","09","30","09:00","15.0","","12.2","","85","","24","","13","","16.1","","99.66","","","","","","Clear"
"1975-09-30 10:00","1975","09","30","10:00","16.7","","12.2","","74","","24","","23","","16.1","","99.65","","","","","","Mainly Clear"
"1975-09-30 11:00","1975","09","30","11:00","18.3","","11.1","","63","","23","","26","","19.3","","99.62","","","","","","Mainly Clear"
"1975-09-30 12:00","1975","09","30","12:00","17.8","","11.1","","66","","25","","19","","19.3","","99.61","","","","","","Mainly Clear"
"1975-09-30 13:00","1975","09","30","13:00","19.4","","10.6","","56","","26","","32","","19.3","","99.58","","","","","","Mainly Clear"
"1975-09-30 14:00","1975","09","30","14:00","20.6","","10.6","","53","","25","","27","","24.1","","99.55","","","","","","Mainly Clear"
"1975-09-30 15:00","1975","09","30","15:00","20.0","","9.4","","51","","25","","26","","24.1","","99.52","","","","","","Mainly Clear"
"1975-09-30 16:00","1975","09","30","16:00","20.0","","9.4","","51","","25","","19","","24.1","","99.54","","","","","","Mainly Clear"
"1975-09-30 17:00","1975","09","30","17:00","18.9","","10.6","","58","","24","","13","","19.3","","99.57","","","","","","Mainly Clear"
"1975-09-30 18:00","1975","09","30","18:00","17.2","","11.7","","70","","22","","11","","16.1","","99.63","","","","","","Mainly Clear"
"1975-09-30 19:00","1975","09","30","19:00","16.1","","11.7","","74","","21","","14","","12.9","","99.64","","","","","","Mainly Clear"
"1975-09-30 20:00","1975","09","30","20:00","14.4","","11.7","","82","","23","","14","","12.9","","99.67","","","","","","Mainly Clear"
"1975-09-30 21:00","1975","09","30","21:00","13.3","","10.6","","85","","21","","8","","16.1","","99.65","","","","","","Mainly Clear"
"1975-09-30 22:00","1975","09","30","22:00","12.2","","10.0","","87","","23","","5","","16.1","","99.61","","","","","","Mainly Clear"
"1975-09-30 23:00","1975","09","30","23:00","12.2","","9.4","","84","","20","","8","","19.3","","99.58","","","","","","Clear"
