"Station Name","TORONTO INTL A"
"Province","ONTARIO"
"Latitude","43.68"
"Longitude","-79.63"
"Elevation","173.40"
"Climate Identifier","6158731"
"WMO Identifier","71624"
"TC Identifier","YYZ"
"All times are specified in Local Standard Time (LST). Add 1 hour to adjust for Daylight Saving Time where and when it is observed."

"Legend"
"E","Estimated"
"M","Missing"
"NA","Not Available"

"Date/Time","Year","Month","Day","Time","Temp (°C)","Temp Flag","Dew Point Temp (°C)","Dew Point Temp Flag","Rel Hum (%)","Rel Hum Flag","Wind Dir (10s deg)","Wind Dir Flag","Wind Spd (km/h)","Wind Spd Flag","Visibility (km)","Visibility Flag","Stn Press (kPa)","Stn Press Flag","Hmdx","Hmdx Flag","Wind Chill","Wind Chill Flag","Weather"
"2016-08-01 00:00","2016","08","01","00:00","21.3","","15.0","","67","","3","","9","","24.1","","99.68","","25","","","","NA"
"2016-08-01 01:00","2016","08","01","01:00","20.9","","16.0","","73","","3","","9","","24.1","","99.69","","26","","","","Mostly Cloudy"
"2016-08-01 02:00","2016","08","01","02:00","20.3","","17.0","","81","","1","","9","","24.1","","99.70","","26","","","","NA"
"2016-08-01 03:00","2016","08","01","03:00","19.8","","15.7","","77","","1","","8","","24.1","","99.66","","","","","","NA"
"2016-08-01 04:00","2016","08","01","04:00","19.6","","15.7","","78","","1","","10","","24.1","","99.69","","","","","","Mainly Clear"
"2016-08-01 05:00","2016","08","01","05:00","19.6","","15.7","","78","","36","","12","","24.1","","99.72","","","","","","NA"
"2016-08-01 06:00","2016","08","01","06:00","19.9","","16.8","","82","","34","","16","","24.1","","99.76","","","","","","NA"
"2016-08-01 07:00","2016","08","01","07:00","20.7","","16.6","","77","","3","","9","","24.1","","99.79","","26","","","","Mostly Cloudy"
"2016-08-01 08:00","2016","08","01","08:00","22.4","","17.4","","73","","4","","6","","24.1","","99.80","","28","","","","NA"
"2016-08-01 09:00","2016","08","01","09:00","23.8","","17.9","","69","","10","","10","","24.1","","99.84","","30","","","","NA"
"2016-08-01 10:00","2016","08","01","10:00","24.6","","18.4","","68","","12","","9","","24.1","","99.83","","31","","","","Mostly Cloudy"
"2016-08-01 11:00","2016","08","01","11:00","25.2","","18.0","","64","","15","","9","","24.1","","99.79","","31","","","","NA"
"2016-08-01 12:00","2016","08","01","12:00","23.4","","19.0","","76","","14","","12","","12.9","","99.78","","30","","","","Heavy Rain Showers"
"2016-08-01 13:00","2016","08","01","13:00","25.6","","18.2","","63","","13","","20","","24.1","","99.78","","32","","","","Mostly Cloudy"
"2016-08-01 14:00","2016","08","01","14:00","27.0","","18.7","","60","","14","","16","","24.1","","99.79","","34","","","","Rain Showers"
"2016-08-01 15:00","2016","08","01","15:00","26.2","","17.2","","57","","13","","11","","24.1","","99.76","","32","","","","NA"
"2016-08-01 16:00","2016","08","01","16:00","26.3","","16.1","","53","","11","","9","","24.1","","99.71","","31","","","","Mostly Cloudy"
"2016-08-01 17:00","2016","08","01","17:00","26.5","","15.7","","51","","3","","26","","24.1","","99.72","","31","","","","NA"
"2016-08-01 18:00","2016","08","01","18:00","27.5","","12.6","","39","","5","","11","","24.1","","99.67","","30","","","","NA"
"2016-08-01 19:00","2016","08","01","19:00","26.9","","13.5","","43","","12","","9","","24.1","","99.69","","30","","","","Mainly Clear"
"2016-08-01 20:00","2016","08","01","20:00","24.8","","13.5","","49","","18","","8","","24.1","","99.72","","28","","","","NA"
"2016-08-01 21:00","2016","08","01","21:00","24.1","","12.9","","49","","19","","3","","24.1","","99.79","","27","","","","NA"
"2016-08-01 22:00","2016","08","01","22:00","23.5","","13.2","","52","","23","","8","","24.1","","99.84","","26","","","","Mainly Clear"
"2016-08-01 23:00","2016","08","01","23:00","22.8","","13.7","","56","","32","","10","","24.1","","99.87","","26","","","","NA"
"2016-08-02 00:00","2016","08","02","00:00","22.2","","15.2","","64","","31","","5","","24.1","","99.88","","26","","","","NA"
"2016-08-02 01:00","2016","08","02","01:00","21.0","","15.4","","70","","31","","11","","24.1","","99.86","","25","","","","Clear"
"2016-08-02 02:00","2016","08","02","02:00","20.4","","15.5","","73","","32","","12","","24.1","","99.84","","25","","","","NA"
"2016-08-02 03:00","2016","08","02","03:00","20.3","","15.0","","71","","32","","8","","24.1","","99.84","","","","","","NA"
"2016-08-02 04:00","2016","08","02","04:00","19.8","","14.5","","71","","35","","11","","24.1","","99.86","","","","","","Clear"
"2016-08-02 05:00","2016","08","02","05:00","19.3","","13.8","","70","","34","","10","","24.1","","99.87","","","","","","NA"
"2016-08-02 06:00","2016","08","02","06:00","19.6","","14.1","","70","","1","","10","","24.1","","99.88","","","","","","NA"
"2016-08-02 07:00","2016","08","02","07:00","21.3","","14.8","","66","","36","","8","","24.1","","99.92","","25","","","","Clear"
"2016-08-02 08:00","2016","08","02","08:00","23.4","","15.8","","62","","4","","12","","24.1","","99.92","","28","","","","NA"
"2016-08-02 09:00","2016","08","02","09:00","25.0","","17.1","","61","","9","","9","","24.1","","99.94","","30","","","","NA"
"2016-08-02 10:00","2016","08","02","10:00","26.0","","17.3","","58","","14","","17","","24.1","","99.98","","31","","","","Clear"
"2016-08-02 11:00","2016","08","02","11:00","26.5","","16.6","","54","","12","","20","","24.1","","99.98","","32","","","","NA"
"2016-08-02 12:00","2016","08","02","12:00","27.7","","15.3","","46","","13","","14","","24.1","","99.99","","32","","","","NA"
"2016-08-02 13:00","2016","08","02","13:00","27.6","","16.1","","49","","12","","17","","24.1","","99.96","","32","","","","Mainly Clear"
"2016-08-02 14:00","2016","08","02","14:00","28.6","","15.4","","44","","14","","16","","24.1","","99.92","","33","","","","NA"
"2016-08-02 15:00","2016","08","02","15:00","28.0","","14.5","","43","","15","","16","","24.1","","99.88","","32","","","","NA"
"2016-08-02 16:00","2016","08","02","16:00","28.3","","12.9","","38","","16","","17","","24.1","","99.84","","31","","","","Mainly Clear"
"2016-08-02 17:00","2016","08","02","17:00","27.9","","12.5","","38","","16","","14","","24.1","","99.85","","30","","","","NA"
"2016-08-02 18:00","2016","08","02","18:00","27.7","","10.7","","34","","15","","11","","24.1","","99.81","","29","","","","NA"
"2016-08-02 19:00","2016","08","02","19:00","26.3","","12.6","","42","","15","","12","","24.1","","99.80","","29","","","","Clear"
"2016-08-02 20:00","2016","08","02","20:00","24.2","","13.9","","52","","14","","10","","24.1","","99.80","","28","","","","NA"
"2016-08-02 21:00","2016","08","02","21:00","23.9","","13.3","","51","","11","","9","","24.1","","99.82","","27","","","","NA"
"2016-08-02 22:00","2016","08","02","22:00","23.7","","14.0","","54","","13","","3","","24.1","","99.85","","27","","","","Mainly Clear"
"2016-08-02 23:00","2016","08","02","23:00","23.2","","14.4","","57","","15","","4","","24.1","","99.86","","27","","","","NA"
"2016-08-03 00:00","2016","08","03","00:00","22.5","","15.9","","66","","12","","5","","24.1","","99.87","","27","","","","NA"
"2016-08-03 01:00","2016","08","03","01:00","21.8","","16.8","","73","","11","","4","","24.1","","99.86","","27","","","","Clear"
"2016-08-03 02:00","2016","08","03","02:00","20.9","","17.6","","81","","36","","2","","24.1","","99.87","","27","","","","NA"
"2016-08-03 03:00","2016","08","03","03:00","20.4","","15.7","","74","","31","","5","","24.1","","99.88","","25","","","","NA"
"2016-08-03 04:00","2016","08","03","04:00","19.8","","14.3","","70","","33","","8","","24.1","","99.87","","","","","","Clear"
"2016-08-03 05:00","2016","08","03","05:00","18.7","","14.0","","74","","1","","8","","24.1","","99.87","","","","","","NA"
"2016-08-03 06:00","2016","08","03","06:00","19.8","","14.5","","71","","1","","5","","24.1","","99.88","","","","","","NA"
"2016-08-03 07:00","2016","08","03","07:00","22.1","","15.6","","66","","5","","4","","24.1","","99.90","","26","","","","Mainly Clear"
"2016-08-03 08:00","2016","08","03","08:00","24.1","","15.5","","58","","4","","4","","24.1","","99.92","","28","","","","NA"
"2016-08-03 09:00","2016","08","03","09:00","26.3","","15.2","","50","","28","","5","","24.1","","99.92","","30","","","","NA"
"2016-08-03 10:00","2016","08","03","10:00","27.7","","17.2","","52","","16","","12","","24.1","","99.91","","33","","","","Mainly Clear"
"2016-08-03 11:00","2016","08","03","11:00","27.0","","17.4","","55","","16","","14","","24.1","","99.90","","33","","","","NA"
"2016-08-03 12:00","2016","08","03","12:00","27.4","","17.2","","53","","14","","13","","24.1","","99.86","","33","","","","NA"
"2016-08-03 13:00","2016","08","03","13:00","27.8","","16.9","","51","","14","","16","","24.1","","99.82","","33","","","","Mainly Clear"
"2016-08-03 14:00","2016","08","03","14:00","28.9","","16.4","","46","","16","","16","","24.1","","99.80","","34","","","","NA"
"2016-08-03 15:00","2016","08","03","15:00","28.7","","15.1","","43","","17","","17","","24.1","","99.75","","33","","","","NA"
"2016-08-03 16:00","2016","08","03","16:00","28.6","","14.3","","41","","16","","15","","24.1","","99.73","","32","","","","Mainly Clear"
"2016-08-03 17:00","2016","08","03","17:00","28.2","","12.8","","38","","17","","13","","24.1","","99.72","","31","","","","NA"
"2016-08-03 18:00","2016","08","03","18:00","27.5","","13.7","","42","","14","","12","","24.1","","99.70","","31","","","","NA"
"2016-08-03 19:00","2016","08","03","19:00","26.6","","13.6","","44","","16","","8","","24.1","","99.69","","30","","","","Clear"
"2016-08-03 20:00","2016","08","03","20:00","26.1","","13.1","","44","","15","","8","","24.1","","99.70","","29","","","","NA"
"2016-08-03 21:00","2016","08","03","21:00","24.9","","15.1","","54","","16","","7","","24.1","","99.72","","29","","","","NA"
"2016-08-03 22:00","2016","08","03","22:00","23.5","","18.7","","74","","16","","5","","24.1","","99.69","","30","","","","Clear"
"2016-08-03 23:00","2016","08","03","23:00","22.8","","20.8","","88","","15","","8","","24.1","","99.70","","31","","","","NA"
"2016-08-04 00:00","2016","08","04","00:00","22.4","","21.2","","93","","13","","7","","24.1","","99.73","","31","","","","NA"
"2016-08-04 01:00","2016","08","04","01:00","21.9","","20.4","","91","","12","","5","","24.1","","99.70","","30","","","","Clear"
"2016-08-04 02:00","2016","08","04","02:00","21.9","","19.9","","88","","36","","1","","24.1","","99.69","","29","","","","NA"
"2016-08-04 03:00","2016","08","04","03:00","21.9","","19.1","","84","","36","","2","","24.1","","99.70","","29","","","","NA"
"2016-08-04 04:00","2016","08","04","04:00","21.2","","19.4","","89","","26","","4","","24.1","","99.71","","28","","","","Clear"
"2016-08-04 05:00","2016","08","04","05:00","20.3","","17.7","","85","","36","","2","","24.1","","99.70","","26","","","","NA"
"2016-08-04 06:00","2016","08","04","06:00","21.4","","18.1","","81","","30","","5","","24.1","","99.72","","27","","","","NA"
"2016-08-04 07:00","2016","08","04","07:00","23.3","","18.7","","75","","36","","1","","24.1","","99.73","","30","","","","Clear"
"2016-08-04 08:00","2016","08","04","08:00","25.8","","16.8","","57","","33","","5","","24.1","","99.75","","31","","","","NA"
"2016-08-04 09:00","2016","08","04","09:00","28.1","","16.0","","47","","21","","9","","24.1","","99.75","","33","","","","NA"
"2016-08-04 10:00","2016","08","04","10:00","30.0","","16.0","","42","","15","","8","","24.1","","99.75","","35","","","","Clear"
"2016-08-04 11:00","2016","08","04","11:00","29.8","","19.1","","52","","17","","13","","24.1","","99.72","","37","","","","NA"
"2016-08-04 12:00","2016","08","04","12:00","31.1","","16.6","","41","","15","","17","","24.1","","99.69","","36","","","","NA"
"2016-08-04 13:00","2016","08","04","13:00","30.9","","14.8","","37","","14","","18","","24.1","","99.66","","35","","","","Mainly Clear"
"2016-08-04 14:00","2016","08","04","14:00","31.9","","12.0","","29","","15","","20","","24.1","","99.59","","34","","","","NA"
"2016-08-04 15:00","2016","08","04","15:00","31.8","","15.6","","37","","15","","19","","24.1","","99.51","","36","","","","NA"
"2016-08-04 16:00","2016","08","04","16:00","31.3","","15.6","","38","","13","","17","","24.1","","99.49","","36","","","","Mainly Clear"
"2016-08-04 17:00","2016","08","04","17:00","31.1","","15.4","","38","","16","","14","","24.1","","99.47","","35","","","","NA"
"2016-08-04 18:00","2016","08","04","18:00","30.0","","14.8","","39","","15","","14","","24.1","","99.43","","34","","","","NA"
"2016-08-04 19:00","2016","08","04","19:00","27.4","","17.5","","54","","15","","20","","24.1","","99.38","","33","","","","Mainly Clear"
"2016-08-04 20:00","2016","08","04","20:00","25.5","","18.6","","65","","15","","11","","24.1","","99.33","","32","","","","NA"
"2016-08-04 21:00","2016","08","04","21:00","24.7","","18.7","","69","","15","","8","","24.1","","99.33","","31","","","","NA"
"2016-08-04 22:00","2016","08","04","22:00","24.7","","19.0","","70","","14","","7","","24.1","","99.29","","31","","","","Clear"
"2016-08-04 23:00","2016","08","04","23:00","25.0","","18.8","","68","","15","","5","","24.1","","99.28","","32","","","","NA"
"2016-08-05 00:00","2016","08","05","00:00","24.8","","19.3","","71","","18","","9","","24.1","","99.28","","32","","","","NA"
"2016-08-05 01:00","2016","08","05","01:00","24.7","","20.1","","75","","19","","10","","24.1","","99.24","","32","","","","Clear"
"2016-08-05 02:00","2016","08","05","02:00","24.7","","20.3","","76","","21","","14","","24.1","","99.22","","33","","","","NA"
"2016-08-05 03:00","2016","08","05","03:00","24.5","","19.9","","75","","20","","12","","24.1","","99.19","","32","","","","NA"
"2016-08-05 04:00","2016","08","05","04:00","24.2","","19.8","","76","","21","","16","","24.1","","99.15","","32","","","","Mainly Clear"
"2016-08-05 05:00","2016","08","05","05:00","24.0","","19.6","","76","","20","","14","","24.1","","99.15","","31","","","","NA"
"2016-08-05 06:00","2016","08","05","06:00","24.2","","19.8","","76","","19","","13","","24.1","","99.10","","32","","","","NA"
"2016-08-05 07:00","2016","08","05","07:00","25.2","","20.3","","74","","20","","16","","24.1","","99.10","","33","","","","Mainly Clear"
"2016-08-05 08:00","2016","08","05","08:00","26.8","","21.2","","71","","21","","15","","24.1","","99.07","","35","","","","NA"
"2016-08-05 09:00","2016","08","05","09:00","28.3","","21.2","","65","","23","","21","","24.1","","99.00","","37","","","","NA"
"2016-08-05 10:00","2016","08","05","10:00","30.0","","21.0","","58","","19","","18","","24.1","","98.94","","38","","","","Mainly Clear"
"2016-08-05 11:00","2016","08","05","11:00","32.0","","19.9","","48","","21","","29","","24.1","","98.89","","39","","","","NA"
"2016-08-05 12:00","2016","08","05","12:00","31.8","","18.7","","45","","22","","29","","24.1","","98.83","","38","","","","NA"
"2016-08-05 13:00","2016","08","05","13:00","33.3","","18.6","","41","","23","","32","","24.1","","98.73","","40","","","","Mostly Cloudy"
"2016-08-05 14:00","2016","08","05","14:00","31.5","","19.7","","49","","23","","34","","24.1","","98.67","","39","","","","Rain Showers"
"2016-08-05 15:00","2016","08","05","15:00","29.9","","18.9","","51","","24","","34","","24.1","","98.70","","37","","","","NA"
"2016-08-05 16:00","2016","08","05","16:00","31.4","","20.3","","51","","24","","34","","24.1","","98.64","","39","","","","Mainly Clear"
"2016-08-05 17:00","2016","08","05","17:00","29.0","","19.2","","55","","23","","34","","24.1","","98.63","","36","","","","NA"
"2016-08-05 18:00","2016","08","05","18:00","29.9","","20.7","","57","","25","","30","","24.1","","98.60","","38","","","","NA"
"2016-08-05 19:00","2016","08","05","19:00","28.7","","21.1","","63","","25","","21","","24.1","","98.59","","37","","","","Mainly Clear"
"2016-08-05 20:00","2016","08","05","20:00","27.5","","20.5","","65","","25","","19","","24.1","","98.61","","35","","","","NA"
"2016-08-05 21:00","2016","08","05","21:00","25.8","","20.0","","70","","35","","22","","24.1","","98.70","","33","","","","NA"
"2016-08-05 22:00","2016","08","05","22:00","24.3","","18.8","","71","","35","","15","","24.1","","98.78","","31","","","","Mainly Clear"
"2016-08-05 23:00","2016","08","05","23:00","24.5","","15.0","","55","","33","","26","","24.1","","98.77","","28","","","","NA"
"2016-08-06 00:00","2016","08","06","00:00","22.9","","14.9","","60","","32","","21","","24.1","","98.79","","27","","","","NA"
"2016-08-06 01:00","2016","08","06","01:00","22.0","","13.2","","57","","31","","15","","24.1","","98.82","","25","","","","Mostly Cloudy"
"2016-08-06 02:00","2016","08","06","02:00","21.5","","13.3","","59","","30","","27","","24.1","","98.81","","","","","","NA"
"2016-08-06 03:00","2016","08","06","03:00","20.1","","13.4","","65","","31","","27","","24.1","","98.77","","","","","","NA"
"2016-08-06 04:00","2016","08","06","04:00","19.5","","13.5","","68","","32","","23","","24.1","","98.83","","","","","","Clear"
"2016-08-06 05:00","2016","08","06","05:00","19.0","","13.7","","71","","30","","19","","24.1","","98.90","","","","","","NA"
"2016-08-06 06:00","2016","08","06","06:00","19.2","","14.1","","72","","31","","22","","24.1","","98.93","","","","","","NA"
"2016-08-06 07:00","2016","08","06","07:00","20.5","","14.3","","67","","31","","22","","24.1","","98.95","","","","","","Clear"
"2016-08-06 08:00","2016","08","06","08:00","22.2","","14.9","","63","","31","","28","","24.1","","98.97","","26","","","","NA"
"2016-08-06 09:00","2016","08","06","09:00","23.7","","15.1","","58","","31","","21","","24.1","","98.98","","28","","","","NA"
"2016-08-06 10:00","2016","08","06","10:00","25.1","","14.7","","52","","33","","23","","24.1","","98.99","","29","","","","Mainly Clear"
"2016-08-06 11:00","2016","08","06","11:00","27.0","","13.2","","42","","34","","19","","24.1","","99.00","","30","","","","NA"
"2016-08-06 12:00","2016","08","06","12:00","27.1","","12.6","","40","","32","","19","","24.1","","98.99","","30","","","","NA"
"2016-08-06 13:00","2016","08","06","13:00","28.4","","11.7","","35","","31","","22","","24.1","","98.98","","31","","","","Mainly Clear"
"2016-08-06 14:00","2016","08","06","14:00","27.5","","10.9","","35","","33","","15","","24.1","","98.95","","29","","","","NA"
"2016-08-06 15:00","2016","08","06","15:00","28.5","","11.4","","34","","32","","26","","24.1","","98.91","","30","","","","NA"
"2016-08-06 16:00","2016","08","06","16:00","29.0","","12.3","","35","","35","","24","","24.1","","98.88","","31","","","","Mainly Clear"
"2016-08-06 17:00","2016","08","06","17:00","27.5","","12.6","","39","","33","","14","","24.1","","98.89","","30","","","","NA"
"2016-08-06 18:00","2016","08","06","18:00","27.5","","14.0","","43","","35","","22","","24.1","","98.92","","31","","","","NA"
"2016-08-06 19:00","2016","08","06","19:00","26.3","","12.6","","42","","30","","29","","24.1","","98.98","","29","","","","Mainly Clear"
"2016-08-06 20:00","2016","08","06","20:00","24.5","","12.3","","46","","31","","19","","24.1","","99.03","","27","","","","NA"
"2016-08-06 21:00","2016","08","06","21:00","24.0","","11.5","","45","","31","","23","","24.1","","99.10","","26","","","","NA"
"2016-08-06 22:00","2016","08","06","22:00","22.6","","11.2","","48","","31","","17","","24.1","","99.15","","","","","","Clear"
"2016-08-06 23:00","2016","08","06","23:00","21.5","","11.4","","52","","30","","23","","24.1","","99.17","","","","","","NA"
"2016-08-07 00:00","2016","08","07","00:00","19.8","","12.2","","61","","28","","18","","24.1","","99.20","","","","","","NA"
"2016-08-07 01:00","2016","08","07","01:00","19.7","","13.5","","67","","30","","16","","24.1","","99.20","","","","","","Clear"
"2016-08-07 02:00","2016","08","07","02:00","20.1","","14.5","","70","","31","","21","","24.1","","99.19","","","","","","NA"
"2016-08-07 03:00","2016","08","07","03:00","19.7","","12.8","","64","","32","","21","","24.1","","99.18","","","","","","NA"
"2016-08-07 04:00","2016","08","07","04:00","18.7","","12.8","","68","","31","","25","","24.1","","99.22","","","","","","Clear"
"2016-08-07 05:00","2016","08","07","05:00","17.9","","13.5","","75","","32","","21","","24.1","","99.27","","","","","","NA"
"2016-08-07 06:00","2016","08","07","06:00","18.3","","13.9","","75","","31","","17","","24.1","","99.32","","","","","","NA"
"2016-08-07 07:00","2016","08","07","07:00","20.1","","14.3","","69","","33","","20","","24.1","","99.35","","","","","","Mainly Clear"
"2016-08-07 08:00","2016","08","07","08:00","21.7","","14.9","","65","","35","","21","","24.1","","99.39","","26","","","","NA"
"2016-08-07 09:00","2016","08","07","09:00","23.4","","14.5","","57","","36","","20","","24.1","","99.40","","27","","","","NA"
"2016-08-07 10:00","2016","08","07","10:00","23.9","","13.6","","52","","34","","18","","24.1","","99.41","","27","","","","Mostly Cloudy"
"2016-08-07 11:00","2016","08","07","11:00","26.3","","13.3","","44","","33","","10","","24.1","","99.43","","29","","","","NA"
"2016-08-07 12:00","2016","08","07","12:00","27.1","","12.6","","40","","32","","21","","24.1","","99.44","","30","","","","NA"
"2016-08-07 13:00","2016","08","07","13:00","26.6","","11.0","","37","","32","","24","","24.1","","99.46","","28","","","","Mostly Cloudy"
"2016-08-07 14:00","2016","08","07","14:00","27.6","","11.0","","35","","36","","29","","24.1","","99.45","","29","","","","NA"
"2016-08-07 15:00","2016","08","07","15:00","28.4","","11.3","","34","","2","","23","","24.1","","99.43","","30","","","","NA"
"2016-08-07 16:00","2016","08","07","16:00","27.8","","11.2","","35","","34","","25","","24.1","","99.43","","30","","","","Mostly Cloudy"
"2016-08-07 17:00","2016","08","07","17:00","27.1","","11.0","","36","","36","","26","","24.1","","99.45","","29","","","","NA"
"2016-08-07 18:00","2016","08","07","18:00","25.4","","12.1","","43","","36","","22","","24.1","","99.46","","28","","","","NA"
"2016-08-07 19:00","2016","08","07","19:00","24.0","","12.5","","48","","34","","26","","24.1","","99.51","","27","","","","Mostly Cloudy"
"2016-08-07 20:00","2016","08","07","20:00","22.5","","12.3","","52","","1","","21","","24.1","","99.56","","25","","","","NA"
"2016-08-07 21:00","2016","08","07","21:00","21.2","","11.1","","52","","1","","17","","24.1","","99.63","","","","","","NA"
"2016-08-07 22:00","2016","08","07","22:00","20.3","","12.1","","59","","34","","18","","24.1","","99.63","","","","","","Clear"
"2016-08-07 23:00","2016","08","07","23:00","19.6","","12.2","","62","","34","","18","","24.1","","99.64","","","","","","NA"
"2016-08-08 00:00","2016","08","08","00:00","19.0","","12.1","","64","","36","","10","","24.1","","99.68","","","","","","NA"
"2016-08-08 01:00","2016","08","08","01:00","18.6","","12.0","","65","","33","","10","","24.1","","99.69","","","","","","Mainly Clear"
"2016-08-08 02:00","2016","08","08","02:00","17.7","","11.8","","68","","35","","13","","24.1","","99.73","","","","","","NA"
"2016-08-08 03:00","2016","08","08","03:00","17.2","","12.0","","71","","36","","8","","24.1","","99.76","","","","","","NA"
"2016-08-08 04:00","2016","08","08","04:00","17.0","","12.2","","73","","36","","11","","24.1","","99.78","","","","","","Clear"
"2016-08-08 05:00","2016","08","08","05:00","16.6","","11.8","","73","","35","","3","","24.1","","99.83","","","","","","NA"
"2016-08-08 06:00","2016","08","08","06:00","17.3","","12.1","","71","","1","","9","","24.1","","99.86","","","","","","NA"
"2016-08-08 07:00","2016","08","08","07:00","19.5","","13.3","","67","","36","","11","","24.1","","99.90","","","","","","Clear"
"2016-08-08 08:00","2016","08","08","08:00","21.7","","13.7","","60","","1","","8","","24.1","","99.93","","25","","","","NA"
"2016-08-08 09:00","2016","08","08","09:00","24.8","","10.9","","41","","6","","9","","24.1","","99.94","","27","","","","NA"
"2016-08-08 10:00","2016","08","08","10:00","25.5","","10.8","","39","","5","","10","","24.1","","99.93","","27","","","","Mainly Clear"
"2016-08-08 11:00","2016","08","08","11:00","26.2","","11.4","","39","","20","","8","","24.1","","99.93","","28","","","","NA"
"2016-08-08 12:00","2016","08","08","12:00","27.2","","11.1","","36","","15","","17","","24.1","","99.90","","29","","","","NA"
"2016-08-08 13:00","2016","08","08","13:00","27.4","","10.0","","33","","13","","21","","24.1","","99.87","","29","","","","Mainly Clear"
"2016-08-08 14:00","2016","08","08","14:00","27.7","","9.3","","31","","18","","21","","24.1","","99.85","","29","","","","NA"
"2016-08-08 15:00","2016","08","08","15:00","27.7","","8.3","","29","","15","","18","","24.1","","99.80","","28","","","","NA"
"2016-08-08 16:00","2016","08","08","16:00","27.8","","9.9","","32","","14","","15","","24.1","","99.80","","29","","","","Clear"
"2016-08-08 17:00","2016","08","08","17:00","27.2","","9.8","","33","","14","","17","","24.1","","99.81","","28","","","","NA"
"2016-08-08 18:00","2016","08","08","18:00","26.7","","8.9","","32","","14","","18","","24.1","","99.78","","27","","","","NA"
"2016-08-08 19:00","2016","08","08","19:00","25.9","","8.2","","32","","14","","12","","24.1","","99.80","","26","","","","Mainly Clear"
"2016-08-08 20:00","2016","08","08","20:00","24.5","","8.7","","36","","12","","9","","24.1","","99.80","","25","","","","NA"
"2016-08-08 21:00","2016","08","08","21:00","22.9","","10.8","","46","","20","","4","","24.1","","99.83","","25","","","","NA"
"2016-08-08 22:00","2016","08","08","22:00","22.5","","10.8","","47","","36","","1","","24.1","","99.83","","","","","","Clear"
"2016-08-08 23:00","2016","08","08","23:00","22.2","","11.4","","50","","36","","2","","24.1","","99.86","","","","","","NA"
"2016-08-09 00:00","2016","08","09","00:00","21.4","","9.8","","47","","4","","7","","24.1","","99.88","","","","","","NA"
"2016-08-09 01:00","2016","08","09","01:00","19.6","","9.9","","53","","2","","5","","24.1","","99.90","","","","","","Clear"
"2016-08-09 02:00","2016","08","09","02:00","18.5","","9.9","","57","","3","","5","","24.1","","99.89","","","","","","NA"
"2016-08-09 03:00","2016","08","09","03:00","18.1","","10.6","","61","","2","","6","","24.1","","99.90","","","","","","NA"
"2016-08-09 04:00","2016","08","09","04:00","17.9","","10.6","","62","","36","","3","","24.1","","99.89","","","","","","Mainly Clear"
"2016-08-09 05:00","2016","08","09","05:00","17.7","","10.9","","64","","36","","9","","24.1","","99.90","","","","","","NA"
"2016-08-09 06:00","2016","08","09","06:00","17.5","","10.9","","65","","3","","7","","24.1","","99.93","","","","","","NA"
"2016-08-09 07:00","2016","08","09","07:00","21.2","","13.7","","62","","2","","5","","24.1","","99.96","","","","","","Mainly Clear"
"2016-08-09 08:00","2016","08","09","08:00","23.7","","15.6","","60","","13","","10","","24.1","","99.96","","28","","","","NA"
"2016-08-09 09:00","2016","08","09","09:00","25.7","","15.9","","54","","15","","8","","24.1","","99.94","","30","","","","NA"
"2016-08-09 10:00","2016","08","09","10:00","27.1","","16.6","","52","","14","","14","","24.1","","99.90","","32","","","","Mainly Clear"
"2016-08-09 11:00","2016","08","09","11:00","28.7","","16.5","","47","","17","","19","","24.1","","99.88","","34","","","","NA"
"2016-08-09 12:00","2016","08","09","12:00","29.8","","14.6","","39","","19","","21","","24.1","","99.83","","34","","","","NA"
"2016-08-09 13:00","2016","08","09","13:00","30.8","","13.0","","33","","17","","17","","24.1","","99.78","","34","","","","Mostly Cloudy"
"2016-08-09 14:00","2016","08","09","14:00","31.3","","13.0","","32","","14","","12","","24.1","","99.72","","34","","","","NA"
"2016-08-09 15:00","2016","08","09","15:00","30.2","","14.2","","37","","15","","14","","24.1","","99.67","","34","","","","NA"
"2016-08-09 16:00","2016","08","09","16:00","29.4","","12.2","","34","","14","","17","","24.1","","99.63","","32","","","","Mostly Cloudy"
"2016-08-09 17:00","2016","08","09","17:00","28.4","","14.5","","42","","13","","14","","24.1","","99.63","","32","","","","NA"
"2016-08-09 18:00","2016","08","09","18:00","27.4","","13.6","","42","","10","","16","","24.1","","99.59","","31","","","","NA"
"2016-08-09 19:00","2016","08","09","19:00","26.9","","13.1","","42","","12","","12","","24.1","","99.57","","30","","","","Mostly Cloudy"
"2016-08-09 20:00","2016","08","09","20:00","26.1","","13.4","","45","","13","","9","","24.1","","99.58","","29","","","","NA"
"2016-08-09 21:00","2016","08","09","21:00","25.6","","16.1","","55","","14","","8","","24.1","","99.59","","30","","","","NA"
"2016-08-09 22:00","2016","08","09","22:00","25.1","","17.9","","64","","17","","7","","24.1","","99.59","","31","","","","Mostly Cloudy"
"2016-08-09 23:00","2016","08","09","23:00","24.9","","18.5","","67","","0","","1","","24.1","","99.58","","31","","","","NA"
"2016-08-10 00:00","2016","08","10","00:00","24.8","","18.8","","69","","14","","4","","24.1","","99.59","","31","","","","NA"
"2016-08-10 01:00","2016","08","10","01:00","24.2","","19.6","","75","","15","","11","","24.1","","99.57","","31","","","","Cloudy"
"2016-08-10 02:00","2016","08","10","02:00","24.1","","19.9","","77","","22","","6","","24.1","","99.58","","32","","","","NA"
"2016-08-10 03:00","2016","08","10","03:00","24.2","","18.7","","71","","30","","10","","24.1","","99.60","","31","","","","NA"
"2016-08-10 04:00","2016","08","10","04:00","23.6","","18.6","","73","","16","","8","","24.1","","99.59","","30","","","","Mainly Clear"
"2016-08-10 05:00","2016","08","10","05:00","22.5","","18.3","","77","","25","","8","","24.1","","99.63","","29","","","","NA"
"2016-08-10 06:00","2016","08","10","06:00","23.6","","19.0","","75","","22","","5","","24.1","","99.69","","30","","","","NA"
"2016-08-10 07:00","2016","08","10","07:00","25.0","","18.6","","67","","24","","8","","24.1","","99.74","","31","","","","Clear"
"2016-08-10 08:00","2016","08","10","08:00","26.8","","17.7","","57","","30","","8","","24.1","","99.77","","33","","","","NA"
"2016-08-10 09:00","2016","08","10","09:00","28.5","","17.9","","52","","26","","9","","24.1","","99.74","","34","","","","NA"
"2016-08-10 10:00","2016","08","10","10:00","30.6","","18.6","","48","","18","","9","","24.1","","99.75","","37","","","","Mainly Clear"
"2016-08-10 11:00","2016","08","10","11:00","32.2","","16.8","","39","","25","","17","","24.1","","99.73","","37","","","","NA"
"2016-08-10 12:00","2016","08","10","12:00","32.3","","19.8","","47","","17","","14","","24.1","","99.70","","40","","","","NA"
"2016-08-10 13:00","2016","08","10","13:00","33.0","","15.4","","34","","25","","13","","24.1","","99.70","","37","","","","Mostly Cloudy"
"2016-08-10 14:00","2016","08","10","14:00","34.6","","15.4","","31","","30","","13","","24.1","","99.68","","39","","","","NA"
"2016-08-10 15:00","2016","08","10","15:00","34.8","","15.1","","30","","24","","18","","24.1","","99.63","","39","","","","NA"
"2016-08-10 16:00","2016","08","10","16:00","34.7","","15.5","","31","","28","","17","","24.1","","99.60","","39","","","","Mostly Cloudy"
"2016-08-10 17:00","2016","08","10","17:00","33.9","","15.7","","33","","31","","19","","24.1","","99.57","","38","","","","NA"
"2016-08-10 18:00","2016","08","10","18:00","33.4","","16.2","","35","","31","","12","","24.1","","99.55","","38","","","","NA"
"2016-08-10 19:00","2016","08","10","19:00","31.9","","16.5","","39","","29","","11","","24.1","","99.56","","37","","","","Clear"
"2016-08-10 20:00","2016","08","10","20:00","30.5","","17.1","","44","","35","","21","","24.1","","99.62","","36","","","","NA"
"2016-08-10 21:00","2016","08","10","21:00","28.9","","17.3","","49","","35","","16","","24.1","","99.71","","34","","","","NA"
"2016-08-10 22:00","2016","08","10","22:00","27.4","","17.2","","53","","36","","3","","24.1","","99.69","","33","","","","Clear"
"2016-08-10 23:00","2016","08","10","23:00","27.0","","17.1","","54","","29","","8","","24.1","","99.72","","32","","","","NA"
"2016-08-11 00:00","2016","08","11","00:00","26.5","","17.2","","56","","32","","15","","24.1","","99.75","","32","","","","NA"
"2016-08-11 01:00","2016","08","11","01:00","25.4","","17.2","","60","","29","","6","","24.1","","99.75","","31","","","","Clear"
"2016-08-11 02:00","2016","08","11","02:00","24.4","","17.3","","64","","1","","7","","24.1","","99.74","","30","","","","NA"
"2016-08-11 03:00","2016","08","11","03:00","22.9","","17.0","","69","","36","","3","","24.1","","99.74","","28","","","","NA"
"2016-08-11 04:00","2016","08","11","04:00","23.2","","16.8","","67","","36","","7","","24.1","","99.74","","28","","","","Clear"
"2016-08-11 05:00","2016","08","11","05:00","22.1","","16.7","","71","","3","","8","","24.1","","99.76","","27","","","","NA"
"2016-08-11 06:00","2016","08","11","06:00","23.4","","17.0","","67","","1","","4","","24.1","","99.77","","29","","","","NA"
"2016-08-11 07:00","2016","08","11","07:00","25.8","","17.6","","60","","36","","3","","24.1","","99.76","","32","","","","Mainly Clear"
"2016-08-11 08:00","2016","08","11","08:00","27.8","","17.5","","53","","13","","7","","24.1","","99.78","","33","","","","NA"
"2016-08-11 09:00","2016","08","11","09:00","29.0","","17.4","","49","","14","","12","","24.1","","99.74","","35","","","","NA"
"2016-08-11 10:00","2016","08","11","10:00","30.2","","17.9","","47","","15","","10","","24.1","","99.69","","36","","","","Mostly Cloudy"
"2016-08-11 11:00","2016","08","11","11:00","31.2","","18.1","","45","","15","","17","","24.1","","99.64","","37","","","","NA"
"2016-08-11 12:00","2016","08","11","12:00","31.9","","18.8","","45","","13","","15","","24.1","","99.61","","39","","","","NA"
"2016-08-11 13:00","2016","08","11","13:00","32.2","","19.4","","46","","15","","20","","24.1","","99.53","","39","","","","Mostly Cloudy"
"2016-08-11 14:00","2016","08","11","14:00","32.8","","20.9","","49","","18","","23","","24.1","","99.42","","41","","","","NA"
"2016-08-11 15:00","2016","08","11","15:00","31.6","","20.8","","52","","17","","22","","24.1","","99.39","","40","","","","NA"
"2016-08-11 16:00","2016","08","11","16:00","30.9","","21.6","","57","","19","","14","","24.1","","99.31","","40","","","","Mostly Cloudy"
"2016-08-11 17:00","2016","08","11","17:00","29.1","","22.7","","68","","14","","14","","24.1","","99.30","","39","","","","NA"
"2016-08-11 18:00","2016","08","11","18:00","29.1","","22.0","","65","","15","","10","","24.1","","99.23","","38","","","","NA"
"2016-08-11 19:00","2016","08","11","19:00","27.1","","22.4","","75","","16","","12","","24.1","","99.25","","37","","","","Mostly Cloudy"
"2016-08-11 20:00","2016","08","11","20:00","26.8","","23.5","","82","","18","","10","","24.1","","99.20","","38","","","","Rain Showers"
"2016-08-11 21:00","2016","08","11","21:00","27.5","","23.0","","76","","20","","18","","24.1","","99.17","","38","","","","NA"
"2016-08-11 22:00","2016","08","11","22:00","27.1","","22.6","","76","","20","","17","","24.1","","99.13","","37","","","","Mostly Cloudy"
"2016-08-11 23:00","2016","08","11","23:00","26.5","","23.2","","82","","22","","15","","24.1","","99.04","","37","","","","NA"
"2016-08-12 00:00","2016","08","12","00:00","26.1","","23.1","","83","","22","","19","","24.1","","99.02","","36","","","","NA"
"2016-08-12 01:00","2016","08","12","01:00","25.7","","22.5","","82","","22","","17","","24.1","","98.99","","35","","","","Mainly Clear"
"2016-08-12 02:00","2016","08","12","02:00","25.5","","22.5","","83","","22","","16","","24.1","","98.96","","35","","","","NA"
"2016-08-12 03:00","2016","08","12","03:00","25.5","","23.0","","86","","23","","17","","24.1","","98.92","","36","","","","NA"
"2016-08-12 04:00","2016","08","12","04:00","25.0","","23.1","","89","","23","","16","","24.1","","98.90","","35","","","","Mainly Clear"
"2016-08-12 05:00","2016","08","12","05:00","25.3","","23.4","","89","","25","","20","","24.1","","98.90","","36","","","","NA"
"2016-08-12 06:00","2016","08","12","06:00","26.0","","23.3","","85","","24","","19","","24.1","","98.90","","37","","","","NA"
"2016-08-12 07:00","2016","08","12","07:00","27.0","","23.3","","80","","25","","31","","24.1","","98.90","","38","","","","Mostly Cloudy"
"2016-08-12 08:00","2016","08","12","08:00","28.5","","23.3","","73","","26","","31","","24.1","","98.92","","39","","","","NA"
"2016-08-12 09:00","2016","08","12","09:00","30.3","","22.9","","64","","26","","34","","24.1","","98.88","","40","","","","NA"
"2016-08-12 10:00","2016","08","12","10:00","31.0","","22.2","","59","","28","","26","","24.1","","98.89","","41","","","","Mostly Cloudy"
"2016-08-12 11:00","2016","08","12","11:00","31.2","","22.2","","58","","26","","27","","24.1","","98.90","","41","","","","NA"
"2016-08-12 12:00","2016","08","12","12:00","32.8","","20.6","","48","","25","","33","","24.1","","98.84","","41","","","","NA"
"2016-08-12 13:00","2016","08","12","13:00","32.5","","21.0","","50","","27","","26","","24.1","","98.78","","41","","","","Mostly Cloudy"
"2016-08-12 14:00","2016","08","12","14:00","35.0","","18.9","","38","","26","","41","","24.1","","98.78","","42","","","","NA"
"2016-08-12 15:00","2016","08","12","15:00","35.2","","19.1","","38","","25","","31","","24.1","","98.75","","42","","","","NA"
"2016-08-12 16:00","2016","08","12","16:00","33.9","","18.3","","39","","28","","35","","24.1","","98.77","","40","","","","Mostly Cloudy"
"2016-08-12 17:00","2016","08","12","17:00","32.8","","18.9","","43","","28","","28","","24.1","","98.83","","39","","","","NA"
"2016-08-12 18:00","2016","08","12","18:00","32.5","","19.0","","44","","28","","29","","24.1","","98.84","","39","","","","NA"
"2016-08-12 19:00","2016","08","12","19:00","30.9","","19.8","","51","","31","","22","","24.1","","98.84","","38","","","","Mostly Cloudy"
"2016-08-12 20:00","2016","08","12","20:00","28.1","","20.8","","64","","2","","21","","24.1","","98.93","","36","","","","NA"
"2016-08-12 21:00","2016","08","12","21:00","26.9","","20.6","","68","","3","","12","","24.1","","99.02","","35","","","","NA"
"2016-08-12 22:00","2016","08","12","22:00","26.6","","20.8","","70","","1","","12","","24.1","","99.03","","35","","","","Mostly Cloudy"
"2016-08-12 23:00","2016","08","12","23:00","26.2","","20.9","","72","","4","","4","","24.1","","99.04","","35","","","","NA"
"2016-08-13 00:00","2016","08","13","00:00","26.0","","20.9","","73","","2","","11","","24.1","","99.00","","34","","","","NA"
"2016-08-13 01:00","2016","08","13","01:00","25.4","","21.4","","78","","9","","8","","24.1","","99.00","","34","","","","Rain Showers"
"2016-08-13 02:00","2016","08","13","02:00","24.0","","22.3","","90","","22","","3","","24.1","","98.97","","34","","","","NA"
"2016-08-13 03:00","2016","08","13","03:00","23.8","","22.3","","91","","12","","10","","24.1","","98.94","","33","","","","NA"
"2016-08-13 04:00","2016","08","13","04:00","23.8","","21.9","","89","","16","","5","","24.1","","98.96","","33","","","","Cloudy"
"2016-08-13 05:00","2016","08","13","05:00","23.4","","21.9","","91","","13","","12","","24.1","","98.97","","33","","","","NA"
"2016-08-13 06:00","2016","08","13","06:00","23.6","","22.1","","91","","14","","9","","24.1","","98.94","","33","","","","NA"
"2016-08-13 07:00","2016","08","13","07:00","24.0","","22.5","","91","","12","","9","","24.1","","98.94","","34","","","","Mostly Cloudy"
"2016-08-13 08:00","2016","08","13","08:00","24.9","","23.0","","89","","13","","13","","24.1","","98.92","","35","","","","NA"
"2016-08-13 09:00","2016","08","13","09:00","25.5","","23.4","","88","","13","","9","","24.1","","98.88","","36","","","","NA"
"2016-08-13 10:00","2016","08","13","10:00","26.5","","24.4","","88","","15","","14","","16.1","","98.84","","38","","","","Mostly Cloudy"
"2016-08-13 11:00","2016","08","13","11:00","28.9","","24.3","","76","","18","","13","","24.1","","98.72","","40","","","","NA"
"2016-08-13 12:00","2016","08","13","12:00","28.9","","24.8","","78","","21","","26","","24.1","","98.62","","41","","","","NA"
"2016-08-13 13:00","2016","08","13","13:00","22.9","","21.9","","94","","30","","22","","12.9","","98.72","","32","","","","Mostly Cloudy"
"2016-08-13 14:00","2016","08","13","14:00","23.5","","22.0","","91","","30","","9","","24.1","","98.70","","33","","","","Thunderstorms,Rain Showers"
"2016-08-13 15:00","2016","08","13","15:00","25.1","","23.0","","88","","15","","3","","24.1","","98.65","","35","","","","NA"
"2016-08-13 16:00","2016","08","13","16:00","28.9","","24.3","","76","","23","","26","","24.1","","98.60","","40","","","","Mostly Cloudy"
"2016-08-13 17:00","2016","08","13","17:00","28.2","","23.5","","75","","24","","26","","24.1","","98.61","","39","","","","NA"
"2016-08-13 18:00","2016","08","13","18:00","26.8","","22.5","","77","","23","","28","","24.1","","98.68","","37","","","","NA"
"2016-08-13 19:00","2016","08","13","19:00","23.9","","22.7","","93","","24","","21","","9.7","","98.71","","34","","","","Thunderstorms,Rain Showers"
"2016-08-13 20:00","2016","08","13","20:00","23.2","","21.9","","92","","24","","15","","24.1","","98.72","","32","","","","NA"
"2016-08-13 21:00","2016","08","13","21:00","23.6","","21.9","","90","","22","","20","","24.1","","98.79","","33","","","","NA"
"2016-08-13 22:00","2016","08","13","22:00","23.6","","22.1","","91","","22","","22","","24.1","","98.81","","33","","","","Mainly Clear"
"2016-08-13 23:00","2016","08","13","23:00","23.5","","22.2","","92","","24","","16","","24.1","","98.87","","33","","","","NA"
"2016-08-14 00:00","2016","08","14","00:00","23.6","","22.3","","92","","27","","12","","24.1","","98.90","","33","","","","NA"
"2016-08-14 01:00","2016","08","14","01:00","22.4","","20.2","","87","","29","","18","","24.1","","98.91","","30","","","","Mainly Clear"
"2016-08-14 02:00","2016","08","14","02:00","21.6","","19.7","","89","","27","","13","","24.1","","98.90","","29","","","","NA"
"2016-08-14 03:00","2016","08","14","03:00","21.7","","19.7","","88","","31","","14","","24.1","","98.93","","29","","","","NA"
"2016-08-14 04:00","2016","08","14","04:00","21.5","","18.5","","83","","30","","22","","24.1","","99.06","","28","","","","Mostly Cloudy"
"2016-08-14 05:00","2016","08","14","05:00","21.5","","18.5","","83","","31","","17","","24.1","","99.16","","28","","","","NA"
"2016-08-14 06:00","2016","08","14","06:00","21.3","","17.6","","79","","31","","21","","24.1","","99.21","","27","","","","NA"
"2016-08-14 07:00","2016","08","14","07:00","22.1","","17.7","","76","","31","","21","","24.1","","99.25","","28","","","","Mainly Clear"
"2016-08-14 08:00","2016","08","14","08:00","22.7","","17.3","","71","","29","","18","","24.1","","99.33","","28","","","","NA"
"2016-08-14 09:00","2016","08","14","09:00","24.6","","17.9","","66","","32","","18","","24.1","","99.36","","31","","","","NA"
"2016-08-14 10:00","2016","08","14","10:00","25.5","","17.6","","61","","28","","20","","24.1","","99.43","","31","","","","Mostly Cloudy"
"2016-08-14 11:00","2016","08","14","11:00","26.3","","16.4","","54","","28","","27","","24.1","","99.44","","31","","","","NA"
"2016-08-14 12:00","2016","08","14","12:00","27.2","","16.7","","52","","26","","23","","24.1","","99.44","","32","","","","NA"
"2016-08-14 13:00","2016","08","14","13:00","29.3","","17.1","","47","","26","","27","","24.1","","99.42","","35","","","","Mostly Cloudy"
"2016-08-14 14:00","2016","08","14","14:00","27.6","","16.8","","51","","30","","22","","24.1","","99.45","","33","","","","NA"
"2016-08-14 15:00","2016","08","14","15:00","28.5","","16.6","","48","","28","","23","","24.1","","99.46","","34","","","","NA"
"2016-08-14 16:00","2016","08","14","16:00","27.7","","15.6","","47","","29","","30","","24.1","","99.47","","32","","","","Mostly Cloudy"
"2016-08-14 17:00","2016","08","14","17:00","26.4","","15.9","","52","","31","","27","","24.1","","99.57","","31","","","","NA"
"2016-08-14 18:00","2016","08","14","18:00","25.5","","15.1","","52","","31","","24","","24.1","","99.60","","30","","","","NA"
"2016-08-14 19:00","2016","08","14","19:00","24.5","","15.6","","57","","31","","18","","24.1","","99.64","","29","","","","Mostly Cloudy"
"2016-08-14 20:00","2016","08","14","20:00","23.9","","16.1","","61","","31","","19","","24.1","","99.71","","29","","","","NA"
"2016-08-14 21:00","2016","08","14","21:00","23.0","","15.9","","64","","31","","16","","24.1","","99.76","","28","","","","NA"
"2016-08-14 22:00","2016","08","14","22:00","21.0","","17.3","","79","","35","","14","","24.1","","99.83","","26","","","","Mainly Clear"
"2016-08-14 23:00","2016","08","14","23:00","19.9","","17.0","","83","","36","","10","","24.1","","99.87","","","","","","NA"
"2016-08-15 00:00","2016","08","15","00:00","19.5","","16.8","","84","","3","","6","","24.1","","99.92","","","","","","NA"
"2016-08-15 01:00","2016","08","15","01:00","19.4","","16.7","","84","","2","","3","","24.1","","99.94","","","","","","Mostly Cloudy"
"2016-08-15 02:00","2016","08","15","02:00","19.1","","16.6","","85","","2","","7","","24.1","","99.94","","","","","","NA"
"2016-08-15 03:00","2016","08","15","03:00","19.1","","16.6","","85","","2","","9","","24.1","","99.96","","","","","","NA"
"2016-08-15 04:00","2016","08","15","04:00","18.5","","16.5","","88","","36","","1","","24.1","","100.01","","","","","","Mostly Cloudy"
"2016-08-15 05:00","2016","08","15","05:00","18.2","","16.2","","88","","3","","7","","24.1","","100.06","","","","","","NA"
"2016-08-15 06:00","2016","08","15","06:00","18.7","","16.2","","85","","36","","2","","24.1","","100.11","","","","","","NA"
"2016-08-15 07:00","2016","08","15","07:00","20.0","","16.3","","79","","4","","4","","24.1","","100.14","","25","","","","Mostly Cloudy"
"2016-08-15 08:00","2016","08","15","08:00","21.2","","16.3","","73","","9","","7","","24.1","","100.14","","26","","","","NA"
"2016-08-15 09:00","2016","08","15","09:00","22.5","","15.5","","64","","10","","7","","24.1","","100.17","","27","","","","NA"
"2016-08-15 10:00","2016","08","15","10:00","24.7","","15.8","","57","","16","","9","","24.1","","100.20","","29","","","","Mostly Cloudy"
"2016-08-15 11:00","2016","08","15","11:00","25.0","","16.6","","59","","17","","11","","24.1","","100.20","","30","","","","NA"
"2016-08-15 12:00","2016","08","15","12:00","24.0","","18.1","","69","","17","","15","","24.1","","100.19","","30","","","","NA"
"2016-08-15 13:00","2016","08","15","13:00","24.1","","18.4","","70","","15","","13","","24.1","","100.18","","30","","","","Mostly Cloudy"
"2016-08-15 14:00","2016","08","15","14:00","25.0","","18.3","","66","","12","","10","","24.1","","100.14","","31","","","","NA"
"2016-08-15 15:00","2016","08","15","15:00","26.1","","16.0","","53","","15","","9","","24.1","","100.08","","31","","","","NA"
"2016-08-15 16:00","2016","08","15","16:00","26.2","","16.6","","55","","13","","11","","24.1","","100.04","","31","","","","Cloudy"
"2016-08-15 17:00","2016","08","15","17:00","25.7","","15.6","","53","","15","","13","","24.1","","100.03","","30","","","","NA"
"2016-08-15 18:00","2016","08","15","18:00","24.9","","14.5","","52","","14","","13","","24.1","","99.96","","29","","","","NA"
"2016-08-15 19:00","2016","08","15","19:00","24.1","","14.9","","56","","12","","11","","24.1","","99.98","","28","","","","Mostly Cloudy"
"2016-08-15 20:00","2016","08","15","20:00","23.9","","15.8","","60","","11","","10","","24.1","","99.99","","28","","","","NA"
"2016-08-15 21:00","2016","08","15","21:00","23.2","","17.3","","69","","9","","8","","24.1","","100.05","","29","","","","NA"
"2016-08-15 22:00","2016","08","15","22:00","23.0","","17.8","","72","","7","","12","","24.1","","100.04","","29","","","","Cloudy"
"2016-08-15 23:00","2016","08","15","23:00","22.9","","18.9","","78","","8","","11","","24.1","","100.01","","30","","","","NA"
"2016-08-16 00:00","2016","08","16","00:00","22.7","","20.5","","87","","9","","14","","24.1","","99.96","","31","","","","NA"
"2016-08-16 01:00","2016","08","16","01:00","22.5","","21.0","","91","","9","","10","","24.1","","99.91","","31","","","","Cloudy"
"2016-08-16 02:00","2016","08","16","02:00","22.3","","21.3","","94","","10","","5","","16.1","","99.89","","31","","","","Rain"
"2016-08-16 03:00","2016","08","16","03:00","21.9","","21.1","","95","","11","","7","","16.1","","99.82","","30","","","","Rain"
"2016-08-16 04:00","2016","08","16","04:00","22.0","","21.3","","96","","7","","6","","16.1","","99.79","","31","","","","Rain"
"2016-08-16 05:00","2016","08","16","05:00","21.9","","21.3","","96","","11","","9","","16.1","","99.78","","31","","","","Rain"
"2016-08-16 06:00","2016","08","16","06:00","21.8","","21.2","","96","","12","","10","","6.4","","99.73","","30","","","","Rain,Fog"
"2016-08-16 07:00","2016","08","16","07:00","22.1","","21.4","","96","","12","","16","","6.4","","99.64","","31","","","","Rain,Fog"
"2016-08-16 08:00","2016","08","16","08:00","22.1","","21.4","","96","","13","","19","","6.4","","99.55","","31","","","","Rain,Fog"
"2016-08-16 09:00","2016","08","16","09:00","21.2","","20.2","","94","","13","","22","","16.1","","99.46","","29","","","","Rain"
"2016-08-16 10:00","2016","08","16","10:00","21.6","","20.6","","94","","13","","25","","16.1","","99.36","","30","","","","NA"
"2016-08-16 11:00","2016","08","16","11:00","22.6","","21.4","","93","","14","","22","","19.3","","99.25","","31","","","","NA"
"2016-08-16 12:00","2016","08","16","12:00","25.6","","22.8","","84","","15","","28","","19.3","","99.06","","36","","","","NA"
"2016-08-16 13:00","2016","08","16","13:00","26.3","","22.7","","80","","21","","27","","24.1","","99.04","","36","","","","Rain"
"2016-08-16 14:00","2016","08","16","14:00","27.8","","22.2","","71","","23","","42","","24.1","","98.92","","37","","","","NA"
"2016-08-16 15:00","2016","08","16","15:00","28.8","","21.2","","63","","22","","41","","24.1","","98.77","","37","","","","NA"
"2016-08-16 16:00","2016","08","16","16:00","27.8","","20.3","","63","","26","","41","","24.1","","98.79","","36","","","","Mostly Cloudy"
"2016-08-16 17:00","2016","08","16","17:00","24.8","","17.9","","65","","30","","41","","24.1","","98.96","","31","","","","NA"
"2016-08-16 18:00","2016","08","16","18:00","23.1","","16.5","","66","","31","","50","","24.1","","99.13","","28","","","","NA"
"2016-08-16 19:00","2016","08","16","19:00","21.2","","15.8","","71","","32","","48","","24.1","","99.22","","26","","","","Mostly Cloudy"
"2016-08-16 20:00","2016","08","16","20:00","21.0","","16.3","","74","","32","","30","","24.1","","99.35","","26","","","","NA"
"2016-08-16 21:00","2016","08","16","21:00","20.4","","15.9","","75","","30","","23","","24.1","","99.49","","25","","","","NA"
"2016-08-16 22:00","2016","08","16","22:00","19.6","","16.1","","80","","29","","15","","24.1","","99.58","","","","","","Mainly Clear"
"2016-08-16 23:00","2016","08","16","23:00","19.1","","15.8","","81","","28","","13","","24.1","","99.64","","","","","","NA"
"2016-08-17 00:00","2016","08","17","00:00","19.4","","15.9","","80","","30","","16","","24.1","","99.70","","","","","","NA"
"2016-08-17 01:00","2016","08","17","01:00","18.3","","15.8","","85","","29","","12","","24.1","","99.73","","","","","","Mainly Clear"
"2016-08-17 02:00","2016","08","17","02:00","18.3","","15.6","","84","","31","","13","","24.1","","99.75","","","","","","NA"
"2016-08-17 03:00","2016","08","17","03:00","17.5","","15.5","","88","","31","","11","","24.1","","99.79","","","","","","NA"
"2016-08-17 04:00","2016","08","17","04:00","17.2","","15.1","","87","","30","","6","","24.1","","99.81","","","","","","Mainly Clear"
"2016-08-17 05:00","2016","08","17","05:00","16.2","","14.6","","90","","25","","10","","24.1","","99.87","","","","","","NA"
"2016-08-17 06:00","2016","08","17","06:00","17.2","","15.4","","89","","32","","6","","24.1","","99.88","","","","","","NA"
"2016-08-17 07:00","2016","08","17","07:00","19.2","","15.9","","81","","20","","7","","24.1","","99.92","","","","","","Mostly Cloudy"
"2016-08-17 08:00","2016","08","17","08:00","20.9","","16.4","","75","","13","","8","","24.1","","99.86","","26","","","","NA"
"2016-08-17 09:00","2016","08","17","09:00","21.0","","15.8","","72","","15","","6","","24.1","","99.89","","25","","","","NA"
"2016-08-17 10:00","2016","08","17","10:00","21.0","","16.1","","73","","17","","9","","24.1","","99.90","","26","","","","Mostly Cloudy"
"2016-08-17 11:00","2016","08","17","11:00","23.2","","16.4","","65","","15","","7","","24.1","","99.87","","28","","","","NA"
"2016-08-17 12:00","2016","08","17","12:00","24.3","","16.2","","60","","16","","15","","24.1","","99.79","","29","","","","NA"
"2016-08-17 13:00","2016","08","17","13:00","25.2","","14.8","","52","","20","","7","","24.1","","99.72","","29","","","","Mostly Cloudy"
"2016-08-17 14:00","2016","08","17","14:00","25.6","","17.7","","61","","17","","20","","24.1","","99.63","","31","","","","NA"
"2016-08-17 15:00","2016","08","17","15:00","26.3","","18.1","","60","","16","","18","","24.1","","99.55","","32","","","","NA"
"2016-08-17 16:00","2016","08","17","16:00","26.9","","18.6","","60","","17","","15","","24.1","","99.49","","33","","","","Mostly Cloudy"
"2016-08-17 17:00","2016","08","17","17:00","25.4","","17.7","","62","","16","","14","","24.1","","99.49","","31","","","","NA"
"2016-08-17 18:00","2016","08","17","18:00","23.8","","17.9","","69","","15","","16","","24.1","","99.46","","30","","","","NA"
"2016-08-17 19:00","2016","08","17","19:00","23.0","","18.6","","76","","16","","7","","24.1","","99.48","","29","","","","Cloudy"
"2016-08-17 20:00","2016","08","17","20:00","23.2","","18.8","","76","","36","","2","","24.1","","99.52","","30","","","","NA"
"2016-08-17 21:00","2016","08","17","21:00","23.0","","19.2","","79","","31","","9","","24.1","","99.50","","30","","","","NA"
"2016-08-17 22:00","2016","08","17","22:00","22.0","","19.2","","84","","26","","7","","24.1","","99.48","","29","","","","Mostly Cloudy"
"2016-08-17 23:00","2016","08","17","23:00","22.1","","18.9","","82","","28","","9","","24.1","","99.53","","29","","","","NA"
"2016-08-18 00:00","2016","08","18","00:00","21.2","","18.3","","83","","28","","4","","24.1","","99.53","","27","","","","NA"
"2016-08-18 01:00","2016","08","18","01:00","21.1","","18.5","","85","","26","","10","","24.1","","99.52","","27","","","","Mostly Cloudy"
"2016-08-18 02:00","2016","08","18","02:00","21.2","","18.6","","85","","29","","11","","24.1","","99.51","","28","","","","NA"
"2016-08-18 03:00","2016","08","18","03:00","21.2","","18.3","","83","","32","","16","","24.1","","99.49","","27","","","","NA"
"2016-08-18 04:00","2016","08","18","04:00","20.5","","17.9","","85","","34","","19","","24.1","","99.52","","26","","","","Mainly Clear"
"2016-08-18 05:00","2016","08","18","05:00","19.7","","17.7","","88","","35","","17","","24.1","","99.56","","","","","","NA"
"2016-08-18 06:00","2016","08","18","06:00","19.7","","17.7","","88","","34","","14","","24.1","","99.59","","","","","","NA"
"2016-08-18 07:00","2016","08","18","07:00","20.9","","17.8","","82","","34","","16","","24.1","","99.63","","27","","","","Mainly Clear"
"2016-08-18 08:00","2016","08","18","08:00","22.3","","18.4","","78","","36","","21","","24.1","","99.66","","29","","","","NA"
"2016-08-18 09:00","2016","08","18","09:00","23.5","","18.5","","73","","2","","21","","24.1","","99.65","","30","","","","NA"
"2016-08-18 10:00","2016","08","18","10:00","24.0","","18.5","","71","","1","","16","","24.1","","99.66","","30","","","","Mostly Cloudy"
"2016-08-18 11:00","2016","08","18","11:00","24.7","","17.8","","65","","3","","12","","24.1","","99.66","","31","","","","NA"
"2016-08-18 12:00","2016","08","18","12:00","26.0","","17.0","","57","","34","","5","","24.1","","99.63","","31","","","","NA"
"2016-08-18 13:00","2016","08","18","13:00","27.1","","18.0","","57","","1","","13","","24.1","","99.62","","33","","","","Mostly Cloudy"
"2016-08-18 14:00","2016","08","18","14:00","27.5","","17.6","","54","","36","","1","","24.1","","99.57","","33","","","","NA"
"2016-08-18 15:00","2016","08","18","15:00","27.1","","18.3","","58","","16","","7","","24.1","","99.53","","33","","","","NA"
"2016-08-18 16:00","2016","08","18","16:00","25.9","","18.2","","62","","15","","16","","24.1","","99.53","","32","","","","Mostly Cloudy"
"2016-08-18 17:00","2016","08","18","17:00","25.8","","17.9","","61","","13","","14","","24.1","","99.54","","32","","","","NA"
"2016-08-18 18:00","2016","08","18","18:00","25.6","","17.4","","60","","15","","10","","24.1","","99.50","","31","","","","NA"
"2016-08-18 19:00","2016","08","18","19:00","24.7","","17.1","","62","","15","","8","","24.1","","99.48","","30","","","","Mainly Clear"
"2016-08-18 20:00","2016","08","18","20:00","23.6","","17.2","","67","","15","","11","","24.1","","99.49","","29","","","","NA"
"2016-08-18 21:00","2016","08","18","21:00","24.0","","17.6","","67","","27","","8","","24.1","","99.52","","30","","","","Rain"
"2016-08-18 22:00","2016","08","18","22:00","23.0","","18.6","","76","","20","","4","","24.1","","99.48","","29","","","","Mostly Cloudy"
"2016-08-18 23:00","2016","08","18","23:00","23.1","","18.7","","76","","36","","2","","24.1","","99.51","","30","","","","NA"
"2016-08-19 00:00","2016","08","19","00:00","22.8","","18.4","","76","","36","","11","","24.1","","99.54","","29","","","","NA"
"2016-08-19 01:00","2016","08","19","01:00","21.6","","17.1","","75","","1","","11","","24.1","","99.53","","27","","","","Mainly Clear"
"2016-08-19 02:00","2016","08","19","02:00","20.6","","17.3","","81","","33","","12","","24.1","","99.53","","26","","","","NA"
"2016-08-19 03:00","2016","08","19","03:00","20.2","","17.5","","84","","33","","3","","24.1","","99.50","","26","","","","NA"
"2016-08-19 04:00","2016","08","19","04:00","20.0","","17.1","","83","","29","","4","","24.1","","99.48","","25","","","","Clear"
"2016-08-19 05:00","2016","08","19","05:00","18.8","","17.2","","90","","27","","8","","24.1","","99.50","","","","","","NA"
"2016-08-19 06:00","2016","08","19","06:00","20.1","","17.0","","82","","29","","7","","24.1","","99.50","","25","","","","NA"
"2016-08-19 07:00","2016","08","19","07:00","21.9","","18.0","","78","","33","","3","","24.1","","99.49","","28","","","","Clear"
"2016-08-19 08:00","2016","08","19","08:00","24.1","","17.5","","66","","31","","3","","24.1","","99.44","","30","","","","NA"
"2016-08-19 09:00","2016","08","19","09:00","25.9","","15.8","","53","","25","","9","","24.1","","99.44","","30","","","","NA"
"2016-08-19 10:00","2016","08","19","10:00","27.3","","16.2","","50","","25","","10","","24.1","","99.43","","32","","","","Clear"
"2016-08-19 11:00","2016","08","19","11:00","27.7","","18.9","","58","","15","","10","","24.1","","99.38","","34","","","","NA"
"2016-08-19 12:00","2016","08","19","12:00","27.5","","17.8","","55","","14","","21","","24.1","","99.33","","33","","","","NA"
"2016-08-19 13:00","2016","08","19","13:00","28.4","","18.1","","53","","16","","14","","24.1","","99.30","","34","","","","Mainly Clear"
"2016-08-19 14:00","2016","08","19","14:00","29.0","","18.1","","51","","17","","20","","24.1","","99.25","","35","","","","NA"
"2016-08-19 15:00","2016","08","19","15:00","29.3","","16.4","","45","","17","","16","","24.1","","99.19","","34","","","","NA"
"2016-08-19 16:00","2016","08","19","16:00","28.7","","16.8","","48","","15","","18","","24.1","","99.15","","34","","","","Clear"
"2016-08-19 17:00","2016","08","19","17:00","27.6","","16.4","","50","","14","","18","","24.1","","99.15","","32","","","","NA"
"2016-08-19 18:00","2016","08","19","18:00","25.8","","17.9","","61","","14","","16","","24.1","","99.08","","32","","","","NA"
"2016-08-19 19:00","2016","08","19","19:00","24.5","","18.6","","69","","13","","14","","24.1","","99.09","","31","","","","Mainly Clear"
"2016-08-19 20:00","2016","08","19","20:00","23.8","","18.5","","72","","12","","14","","24.1","","99.07","","30","","","","NA"
"2016-08-19 21:00","2016","08","19","21:00","23.5","","19.3","","77","","14","","9","","24.1","","99.11","","31","","","","NA"
"2016-08-19 22:00","2016","08","19","22:00","23.3","","19.9","","81","","12","","8","","24.1","","99.08","","31","","","","Mainly Clear"
"2016-08-19 23:00","2016","08","19","23:00","23.1","","20.1","","83","","13","","4","","24.1","","99.08","","31","","","","NA"
"2016-08-20 00:00","2016","08","20","00:00","23.3","","20.1","","82","","15","","5","","24.1","","99.07","","31","","","","NA"
"2016-08-20 01:00","2016","08","20","01:00","23.2","","19.8","","81","","28","","9","","24.1","","99.04","","31","","","","Rain Showers"
"2016-08-20 02:00","2016","08","20","02:00","21.8","","20.5","","92","","27","","13","","19.3","","99.08","","30","","","","Thunderstorms,Rain Showers"
"2016-08-20 03:00","2016","08","20","03:00","21.5","","20.3","","93","","20","","9","","16.1","","99.01","","29","","","","Thunderstorms,Rain Showers"
"2016-08-20 04:00","2016","08","20","04:00","21.3","","20.1","","93","","23","","7","","24.1","","98.94","","29","","","","Cloudy"
"2016-08-20 05:00","2016","08","20","05:00","21.3","","20.3","","94","","25","","8","","24.1","","98.94","","29","","","","NA"
"2016-08-20 06:00","2016","08","20","06:00","21.0","","20.0","","94","","25","","8","","19.3","","99.00","","29","","","","NA"
"2016-08-20 07:00","2016","08","20","07:00","22.0","","20.7","","92","","25","","12","","16.1","","99.01","","30","","","","Mostly Cloudy"
"2016-08-20 08:00","2016","08","20","08:00","23.7","","21.1","","85","","26","","9","","24.1","","98.96","","32","","","","NA"
"2016-08-20 09:00","2016","08","20","09:00","25.8","","21.3","","76","","26","","8","","24.1","","98.95","","34","","","","NA"
"2016-08-20 10:00","2016","08","20","10:00","27.2","","20.9","","68","","24","","13","","24.1","","98.92","","36","","","","Clear"
"2016-08-20 11:00","2016","08","20","11:00","28.7","","19.8","","58","","19","","10","","24.1","","98.87","","36","","","","NA"
"2016-08-20 12:00","2016","08","20","12:00","28.4","","21.3","","65","","16","","12","","24.1","","98.82","","37","","","","NA"
"2016-08-20 13:00","2016","08","20","13:00","29.5","","20.6","","58","","17","","17","","24.1","","98.77","","38","","","","Mainly Clear"
"2016-08-20 14:00","2016","08","20","14:00","30.7","","19.6","","51","","19","","17","","24.1","","98.71","","38","","","","NA"
"2016-08-20 15:00","2016","08","20","15:00","30.3","","19.0","","50","","16","","17","","24.1","","98.66","","37","","","","NA"
"2016-08-20 16:00","2016","08","20","16:00","29.5","","19.1","","53","","16","","21","","24.1","","98.63","","36","","","","Mostly Cloudy"
"2016-08-20 17:00","2016","08","20","17:00","28.7","","18.7","","54","","15","","17","","24.1","","98.55","","35","","","","NA"
"2016-08-20 18:00","2016","08","20","18:00","26.7","","19.2","","63","","13","","17","","24.1","","98.52","","34","","","","NA"
"2016-08-20 19:00","2016","08","20","19:00","25.6","","21.4","","77","","11","","15","","24.1","","98.48","","34","","","","Mostly Cloudy"
"2016-08-20 20:00","2016","08","20","20:00","25.7","","20.4","","72","","12","","18","","24.1","","98.47","","34","","","","NA"
"2016-08-20 21:00","2016","08","20","21:00","25.2","","21.2","","78","","14","","12","","24.1","","98.38","","34","","","","NA"
"2016-08-20 22:00","2016","08","20","22:00","25.9","","20.8","","73","","16","","16","","24.1","","98.28","","34","","","","Mostly Cloudy"
"2016-08-20 23:00","2016","08","20","23:00","26.0","","20.9","","73","","17","","14","","24.1","","98.24","","34","","","","NA"
"2016-08-21 00:00","2016","08","21","00:00","26.0","","20.7","","72","","17","","16","","24.1","","98.21","","34","","","","NA"
"2016-08-21 01:00","2016","08","21","01:00","26.1","","20.3","","70","","19","","18","","24.1","","98.18","","34","","","","Cloudy"
"2016-08-21 02:00","2016","08","21","02:00","25.8","","20.7","","73","","19","","18","","24.1","","98.14","","34","","","","NA"
"2016-08-21 03:00","2016","08","21","03:00","25.8","","20.0","","70","","22","","35","","24.1","","98.14","","33","","","","NA"
"2016-08-21 04:00","2016","08","21","04:00","24.4","","20.4","","78","","22","","18","","24.1","","98.11","","32","","","","Cloudy"
"2016-08-21 05:00","2016","08","21","05:00","23.8","","20.2","","80","","21","","18","","24.1","","98.15","","32","","","","NA"
"2016-08-21 06:00","2016","08","21","06:00","23.5","","20.3","","82","","24","","19","","24.1","","98.22","","31","","","","NA"
"2016-08-21 07:00","2016","08","21","07:00","20.3","","17.2","","82","","25","","28","","24.1","","98.33","","26","","","","Mostly Cloudy"
"2016-08-21 08:00","2016","08","21","08:00","21.4","","15.8","","70","","27","","34","","24.1","","98.38","","26","","","","NA"
"2016-08-21 09:00","2016","08","21","09:00","22.0","","15.0","","64","","28","","30","","24.1","","98.44","","26","","","","NA"
"2016-08-21 10:00","2016","08","21","10:00","23.7","","14.3","","55","","26","","37","","24.1","","98.49","","27","","","","Mostly Cloudy"
"2016-08-21 11:00","2016","08","21","11:00","24.6","","14.3","","52","","24","","36","","24.1","","98.55","","28","","","","NA"
"2016-08-21 12:00","2016","08","21","12:00","25.0","","13.1","","47","","25","","34","","24.1","","98.58","","28","","","","NA"
"2016-08-21 13:00","2016","08","21","13:00","25.8","","14.2","","48","","25","","35","","24.1","","98.62","","29","","","","Mostly Cloudy"
"2016-08-21 14:00","2016","08","21","14:00","26.2","","13.5","","45","","24","","34","","24.1","","98.62","","29","","","","NA"
"2016-08-21 15:00","2016","08","21","15:00","25.4","","13.8","","48","","28","","28","","24.1","","98.65","","29","","","","NA"
"2016-08-21 16:00","2016","08","21","16:00","22.8","","12.9","","53","","28","","34","","24.1","","98.76","","26","","","","Mostly Cloudy"
"2016-08-21 17:00","2016","08","21","17:00","19.6","","15.9","","79","","30","","18","","24.1","","98.88","","","","","","NA"
"2016-08-21 18:00","2016","08","21","18:00","20.3","","15.6","","74","","28","","17","","24.1","","98.94","","25","","","","NA"
"2016-08-21 19:00","2016","08","21","19:00","20.6","","10.8","","53","","30","","33","","24.1","","99.02","","","","","","Mostly Cloudy"
"2016-08-21 20:00","2016","08","21","20:00","19.6","","10.2","","54","","32","","28","","24.1","","99.13","","","","","","NA"
"2016-08-21 21:00","2016","08","21","21:00","19.0","","10.7","","58","","31","","28","","24.1","","99.22","","","","","","NA"
"2016-08-21 22:00","2016","08","21","22:00","18.2","","11.1","","63","","31","","19","","24.1","","99.25","","","","","","Mostly Cloudy"
"2016-08-21 23:00","2016","08","21","23:00","17.7","","11.1","","65","","31","","26","","24.1","","99.32","","","","","","NA"
"2016-08-22 00:00","2016","08","22","00:00","17.1","","10.8","","66","","31","","19","","24.1","","99.39","","","","","","NA"
"2016-08-22 01:00","2016","08","22","01:00","16.6","","10.5","","67","","30","","22","","24.1","","99.46","","","","","","Mainly Clear"
"2016-08-22 02:00","2016","08","22","02:00","15.7","","10.5","","71","","32","","17","","24.1","","99.52","","","","","","NA"
"2016-08-22 03:00","2016","08","22","03:00","15.5","","10.3","","71","","30","","18","","24.1","","99.59","","","","","","NA"
"2016-08-22 04:00","2016","08","22","04:00","14.7","","10.2","","74","","32","","14","","24.1","","99.64","","","","","","Mainly Clear"
"2016-08-22 05:00","2016","08","22","05:00","13.6","","9.9","","78","","29","","8","","24.1","","99.68","","","","","","NA"
"2016-08-22 06:00","2016","08","22","06:00","13.8","","10.3","","79","","28","","9","","24.1","","99.81","","","","","","NA"
"2016-08-22 07:00","2016","08","22","07:00","15.5","","10.5","","72","","25","","8","","24.1","","99.86","","","","","","Mainly Clear"
"2016-08-22 08:00","2016","08","22","08:00","17.5","","8.5","","55","","27","","6","","24.1","","99.92","","","","","","NA"
"2016-08-22 09:00","2016","08","22","09:00","17.8","","9.8","","59","","25","","7","","24.1","","99.97","","","","","","NA"
"2016-08-22 10:00","2016","08","22","10:00","20.7","","10.0","","50","","29","","8","","24.1","","99.98","","","","","","Mostly Cloudy"
"2016-08-22 11:00","2016","08","22","11:00","21.5","","9.9","","47","","31","","22","","24.1","","99.97","","","","","","NA"
"2016-08-22 12:00","2016","08","22","12:00","21.8","","9.8","","46","","32","","26","","24.1","","99.98","","","","","","NA"
"2016-08-22 13:00","2016","08","22","13:00","21.9","","7.9","","40","","32","","29","","24.1","","99.99","","","","","","Mostly Cloudy"
"2016-08-22 14:00","2016","08","22","14:00","23.6","","7.0","","34","","30","","17","","24.1","","99.99","","","","","","NA"
"2016-08-22 15:00","2016","08","22","15:00","24.1","","7.5","","34","","28","","19","","24.1","","99.97","","","","","","NA"
"2016-08-22 16:00","2016","08","22","16:00","24.1","","6.6","","32","","31","","26","","24.1","","99.97","","","","","","Mostly Cloudy"
"2016-08-22 17:00","2016","08","22","17:00","23.8","","7.2","","34","","30","","18","","24.1","","99.97","","","","","","NA"
"2016-08-22 18:00","2016","08","22","18:00","22.6","","7.8","","38","","30","","21","","24.1","","100.00","","","","","","NA"
"2016-08-22 19:00","2016","08","22","19:00","21.2","","7.9","","42","","27","","21","","24.1","","100.04","","","","","","Mainly Clear"
"2016-08-22 20:00","2016","08","22","20:00","19.9","","8.1","","46","","27","","14","","24.1","","100.11","","","","","","NA"
"2016-08-22 21:00","2016","08","22","21:00","18.6","","8.9","","53","","26","","9","","24.1","","100.16","","","","","","NA"
"2016-08-22 22:00","2016","08","22","22:00","18.1","","9.3","","56","","27","","7","","24.1","","100.17","","","","","","Clear"
"2016-08-22 23:00","2016","08","22","23:00","18.0","","9.5","","57","","26","","5","","24.1","","100.17","","","","","","NA"
"2016-08-23 00:00","2016","08","23","00:00","16.6","","9.8","","64","","28","","7","","24.1","","100.23","","","","","","NA"
"2016-08-23 01:00","2016","08","23","01:00","15.6","","10.6","","72","","24","","10","","24.1","","100.25","","","","","","Clear"
"2016-08-23 02:00","2016","08","23","02:00","15.9","","10.7","","71","","25","","7","","24.1","","100.28","","","","","","NA"
"2016-08-23 03:00","2016","08","23","03:00","16.0","","11.0","","72","","24","","8","","24.1","","100.29","","","","","","NA"
"2016-08-23 04:00","2016","08","23","04:00","16.0","","11.6","","75","","28","","9","","24.1","","100.30","","","","","","Clear"
"2016-08-23 05:00","2016","08","23","05:00","15.7","","11.3","","75","","28","","7","","24.1","","100.34","","","","","","NA"
"2016-08-23 06:00","2016","08","23","06:00","15.4","","12.0","","80","","26","","9","","24.1","","100.37","","","","","","NA"
"2016-08-23 07:00","2016","08","23","07:00","18.4","","13.1","","71","","26","","11","","24.1","","100.37","","","","","","Mainly Clear"
"2016-08-23 08:00","2016","08","23","08:00","21.3","","12.6","","57","","25","","18","","24.1","","100.36","","","","","","NA"
"2016-08-23 09:00","2016","08","23","09:00","23.6","","12.7","","50","","26","","19","","24.1","","100.34","","26","","","","NA"
"2016-08-23 10:00","2016","08","23","10:00","25.1","","12.2","","44","","23","","23","","24.1","","100.31","","27","","","","Mainly Clear"
"2016-08-23 11:00","2016","08","23","11:00","25.8","","12.8","","44","","23","","23","","24.1","","100.31","","28","","","","NA"
"2016-08-23 12:00","2016","08","23","12:00","26.9","","12.8","","41","","23","","26","","24.1","","100.32","","30","","","","NA"
"2016-08-23 13:00","2016","08","23","13:00","27.6","","13.4","","41","","23","","22","","24.1","","100.29","","31","","","","Mainly Clear"
"2016-08-23 14:00","2016","08","23","14:00","27.8","","12.8","","39","","25","","16","","24.1","","100.22","","30","","","","NA"
"2016-08-23 15:00","2016","08","23","15:00","28.3","","12.9","","38","","27","","22","","24.1","","100.19","","31","","","","NA"
"2016-08-23 16:00","2016","08","23","16:00","28.7","","13.6","","39","","23","","25","","24.1","","100.18","","32","","","","Mainly Clear"
"2016-08-23 17:00","2016","08","23","17:00","27.5","","14.7","","45","","24","","20","","24.1","","100.15","","31","","","","NA"
"2016-08-23 18:00","2016","08","23","18:00","26.6","","14.9","","48","","24","","21","","24.1","","100.17","","31","","","","NA"
"2016-08-23 19:00","2016","08","23","19:00","25.2","","14.2","","50","","22","","21","","24.1","","100.20","","29","","","","Mostly Cloudy"
"2016-08-23 20:00","2016","08","23","20:00","23.8","","13.5","","52","","24","","16","","24.1","","100.23","","27","","","","NA"
"2016-08-23 21:00","2016","08","23","21:00","22.9","","12.7","","52","","23","","13","","24.1","","100.25","","26","","","","NA"
"2016-08-23 22:00","2016","08","23","22:00","21.8","","12.5","","55","","24","","14","","24.1","","100.23","","","","","","Mainly Clear"
"2016-08-23 23:00","2016","08","23","23:00","21.2","","12.7","","58","","23","","10","","24.1","","100.20","","","","","","NA"
"2016-08-24 00:00","2016","08","24","00:00","19.5","","12.6","","64","","24","","9","","24.1","","100.20","","","","","","NA"
"2016-08-24 01:00","2016","08","24","01:00","18.7","","13.0","","69","","24","","11","","24.1","","100.13","","","","","","Clear"
"2016-08-24 02:00","2016","08","24","02:00","18.4","","13.5","","73","","22","","12","","24.1","","100.12","","","","","","NA"
"2016-08-24 03:00","2016","08","24","03:00","18.0","","13.4","","74","","27","","7","","24.1","","100.14","","","","","","NA"
"2016-08-24 04:00","2016","08","24","04:00","17.4","","14.0","","80","","28","","4","","24.1","","100.16","","","","","","Clear"
"2016-08-24 05:00","2016","08","24","05:00","17.1","","14.2","","83","","29","","5","","24.1","","100.19","","","","","","NA"
"2016-08-24 06:00","2016","08","24","06:00","18.6","","15.1","","80","","32","","5","","24.1","","100.24","","","","","","NA"
"2016-08-24 07:00","2016","08","24","07:00","19.9","","15.6","","76","","36","","1","","24.1","","100.20","","","","","","Mainly Clear"
"2016-08-24 08:00","2016","08","24","08:00","22.7","","16.8","","69","","16","","9","","24.1","","100.14","","28","","","","NA"
"2016-08-24 09:00","2016","08","24","09:00","25.4","","16.4","","57","","18","","9","","24.1","","100.08","","30","","","","NA"
"2016-08-24 10:00","2016","08","24","10:00","25.4","","16.7","","58","","18","","13","","24.1","","100.06","","30","","","","Mostly Cloudy"
"2016-08-24 11:00","2016","08","24","11:00","26.4","","17.4","","57","","15","","21","","24.1","","99.98","","32","","","","NA"
"2016-08-24 12:00","2016","08","24","12:00","27.2","","17.3","","54","","17","","20","","24.1","","99.89","","33","","","","NA"
"2016-08-24 13:00","2016","08","24","13:00","28.0","","16.5","","49","","17","","21","","24.1","","99.82","","33","","","","Mostly Cloudy"
"2016-08-24 14:00","2016","08","24","14:00","29.2","","15.2","","42","","19","","26","","24.1","","99.74","","33","","","","NA"
"2016-08-24 15:00","2016","08","24","15:00","30.1","","14.9","","39","","20","","30","","24.1","","99.67","","34","","","","NA"
"2016-08-24 16:00","2016","08","24","16:00","29.0","","13.9","","39","","23","","28","","24.1","","99.62","","32","","","","Mostly Cloudy"
"2016-08-24 17:00","2016","08","24","17:00","29.0","","13.9","","39","","20","","21","","24.1","","99.59","","32","","","","NA"
"2016-08-24 18:00","2016","08","24","18:00","27.5","","13.7","","42","","22","","26","","24.1","","99.54","","31","","","","NA"
"2016-08-24 19:00","2016","08","24","19:00","26.8","","14.8","","47","","20","","24","","24.1","","99.55","","31","","","","Mostly Cloudy"
"2016-08-24 20:00","2016","08","24","20:00","26.6","","15.5","","50","","21","","19","","24.1","","99.51","","31","","","","NA"
"2016-08-24 21:00","2016","08","24","21:00","26.4","","15.6","","51","","18","","10","","24.1","","99.46","","31","","","","NA"
"2016-08-24 22:00","2016","08","24","22:00","24.6","","16.5","","60","","13","","10","","24.1","","99.45","","30","","","","Mostly Cloudy"
"2016-08-24 23:00","2016","08","24","23:00","24.0","","17.8","","68","","14","","11","","24.1","","99.38","","30","","","","NA"
"2016-08-25 00:00","2016","08","25","00:00","24.8","","17.7","","64","","23","","14","","24.1","","99.32","","31","","","","NA"
"2016-08-25 01:00","2016","08","25","01:00","22.2","","20.5","","90","","23","","22","","9.7","","99.29","","30","","","","Heavy Rain,Fog"
"2016-08-25 02:00","2016","08","25","02:00","22.0","","21.0","","94","","22","","13","","24.1","","99.23","","30","","","","NA"
"2016-08-25 03:00","2016","08","25","03:00","21.9","","21.1","","95","","23","","8","","24.1","","99.21","","30","","","","NA"
"2016-08-25 04:00","2016","08","25","04:00","22.0","","21.2","","95","","24","","12","","24.1","","99.19","","31","","","","Mainly Clear"
"2016-08-25 05:00","2016","08","25","05:00","22.4","","21.4","","94","","25","","13","","24.1","","99.25","","31","","","","NA"
"2016-08-25 06:00","2016","08","25","06:00","22.8","","21.8","","94","","23","","7","","19.3","","99.28","","32","","","","NA"
"2016-08-25 07:00","2016","08","25","07:00","23.9","","22.2","","90","","24","","9","","24.1","","99.28","","33","","","","Mostly Cloudy"
"2016-08-25 08:00","2016","08","25","08:00","24.7","","21.9","","84","","27","","16","","24.1","","99.27","","34","","","","NA"
"2016-08-25 09:00","2016","08","25","09:00","26.2","","21.9","","77","","29","","12","","24.1","","99.30","","35","","","","NA"
"2016-08-25 10:00","2016","08","25","10:00","28.0","","20.7","","64","","26","","28","","24.1","","99.33","","36","","","","Mostly Cloudy"
"2016-08-25 11:00","2016","08","25","11:00","29.3","","19.8","","56","","28","","25","","24.1","","99.32","","37","","","","NA"
"2016-08-25 12:00","2016","08","25","12:00","29.7","","19.0","","52","","28","","16","","24.1","","99.27","","36","","","","NA"
"2016-08-25 13:00","2016","08","25","13:00","29.5","","18.5","","51","","28","","26","","24.1","","99.28","","36","","","","Mostly Cloudy"
"2016-08-25 14:00","2016","08","25","14:00","28.3","","20.0","","60","","27","","22","","24.1","","99.26","","36","","","","NA"
"2016-08-25 15:00","2016","08","25","15:00","28.4","","20.3","","61","","27","","16","","24.1","","99.21","","36","","","","Rain Showers"
"2016-08-25 16:00","2016","08","25","16:00","26.2","","22.6","","80","","21","","24","","9.7","","99.25","","36","","","","Rain Showers"
"2016-08-25 17:00","2016","08","25","17:00","22.4","","21.2","","93","","24","","15","","8.1","","99.34","","31","","","","Rain,Fog"
"2016-08-25 18:00","2016","08","25","18:00","23.0","","21.8","","93","","15","","9","","24.1","","99.28","","32","","","","NA"
"2016-08-25 19:00","2016","08","25","19:00","23.0","","21.7","","92","","26","","3","","24.1","","99.25","","32","","","","Mostly Cloudy"
"2016-08-25 20:00","2016","08","25","20:00","23.1","","21.6","","91","","28","","8","","24.1","","99.23","","32","","","","NA"
"2016-08-25 21:00","2016","08","25","21:00","23.1","","21.8","","92","","27","","8","","24.1","","99.26","","32","","","","NA"
"2016-08-25 22:00","2016","08","25","22:00","23.7","","22.0","","90","","30","","14","","24.1","","99.27","","33","","","","Mainly Clear"
"2016-08-25 23:00","2016","08","25","23:00","23.4","","20.0","","81","","33","","22","","24.1","","99.30","","31","","","","NA"
"2016-08-26 00:00","2016","08","26","00:00","22.2","","20.2","","88","","32","","17","","24.1","","99.36","","30","","","","NA"
"2016-08-26 01:00","2016","08","26","01:00","21.5","","19.8","","90","","31","","10","","24.1","","99.38","","29","","","","Clear"
"2016-08-26 02:00","2016","08","26","02:00","21.2","","19.2","","88","","31","","14","","24.1","","99.45","","28","","","","NA"
"2016-08-26 03:00","2016","08","26","03:00","20.7","","18.7","","88","","33","","10","","24.1","","99.49","","27","","","","NA"
"2016-08-26 04:00","2016","08","26","04:00","20.7","","18.5","","87","","33","","10","","24.1","","99.58","","27","","","","Mostly Cloudy"
"2016-08-26 05:00","2016","08","26","05:00","19.5","","18.2","","92","","26","","8","","24.1","","99.62","","","","","","NA"
"2016-08-26 06:00","2016","08","26","06:00","19.3","","18.0","","92","","24","","8","","24.1","","99.67","","","","","","NA"
"2016-08-26 07:00","2016","08","26","07:00","20.9","","18.9","","88","","26","","8","","24.1","","99.73","","28","","","","Mainly Clear"
"2016-08-26 08:00","2016","08","26","08:00","22.9","","17.5","","71","","28","","8","","24.1","","99.76","","29","","","","NA"
"2016-08-26 09:00","2016","08","26","09:00","23.9","","17.3","","66","","28","","7","","24.1","","99.79","","29","","","","NA"
"2016-08-26 10:00","2016","08","26","10:00","25.2","","16.5","","58","","28","","10","","24.1","","99.80","","30","","","","Mainly Clear"
"2016-08-26 11:00","2016","08","26","11:00","26.1","","17.1","","57","","28","","10","","24.1","","99.84","","31","","","","NA"
"2016-08-26 12:00","2016","08","26","12:00","27.1","","16.3","","51","","28","","21","","24.1","","99.80","","32","","","","NA"
"2016-08-26 13:00","2016","08","26","13:00","28.2","","17.3","","51","","27","","25","","24.1","","99.78","","34","","","","Mainly Clear"
"2016-08-26 14:00","2016","08","26","14:00","28.8","","16.6","","47","","26","","24","","24.1","","99.74","","34","","","","NA"
"2016-08-26 15:00","2016","08","26","15:00","29.3","","15.3","","42","","27","","25","","24.1","","99.72","","33","","","","NA"
"2016-08-26 16:00","2016","08","26","16:00","28.9","","13.8","","39","","29","","21","","24.1","","99.75","","32","","","","Mainly Clear"
"2016-08-26 17:00","2016","08","26","17:00","28.4","","13.4","","39","","30","","27","","24.1","","99.76","","31","","","","NA"
"2016-08-26 18:00","2016","08","26","18:00","27.3","","14.2","","44","","29","","20","","24.1","","99.77","","31","","","","NA"
"2016-08-26 19:00","2016","08","26","19:00","25.5","","13.9","","48","","29","","16","","24.1","","99.83","","29","","","","Mainly Clear"
"2016-08-26 20:00","2016","08","26","20:00","23.7","","15.6","","60","","35","","28","","24.1","","99.91","","28","","","","NA"
"2016-08-26 21:00","2016","08","26","21:00","22.1","","15.3","","65","","35","","22","","24.1","","99.99","","26","","","","NA"
"2016-08-26 22:00","2016","08","26","22:00","21.1","","15.5","","70","","34","","18","","24.1","","100.03","","25","","","","Mainly Clear"
"2016-08-26 23:00","2016","08","26","23:00","20.8","","15.9","","73","","32","","15","","24.1","","100.06","","25","","","","NA"
"2016-08-27 00:00","2016","08","27","00:00","20.2","","14.9","","71","","32","","14","","24.1","","100.09","","","","","","NA"
"2016-08-27 01:00","2016","08","27","01:00","20.0","","12.8","","63","","36","","12","","24.1","","100.09","","","","","","Mainly Clear"
"2016-08-27 02:00","2016","08","27","02:00","18.7","","13.4","","71","","3","","10","","24.1","","100.10","","","","","","NA"
"2016-08-27 03:00","2016","08","27","03:00","18.5","","12.8","","69","","2","","10","","24.1","","100.11","","","","","","NA"
"2016-08-27 04:00","2016","08","27","04:00","16.8","","13.2","","79","","36","","2","","24.1","","100.19","","","","","","Mainly Clear"
"2016-08-27 05:00","2016","08","27","05:00","18.4","","12.5","","68","","36","","1","","24.1","","100.20","","","","","","NA"
"2016-08-27 06:00","2016","08","27","06:00","17.4","","12.6","","73","","25","","4","","24.1","","100.25","","","","","","NA"
"2016-08-27 07:00","2016","08","27","07:00","19.6","","13.2","","66","","28","","3","","24.1","","100.25","","","","","","Mainly Clear"
"2016-08-27 08:00","2016","08","27","08:00","21.4","","14.9","","66","","14","","6","","24.1","","100.24","","25","","","","NA"
"2016-08-27 09:00","2016","08","27","09:00","23.3","","15.0","","59","","16","","9","","24.1","","100.25","","27","","","","NA"
"2016-08-27 10:00","2016","08","27","10:00","23.5","","13.8","","54","","16","","7","","24.1","","100.22","","27","","","","Mainly Clear"
"2016-08-27 11:00","2016","08","27","11:00","24.4","","14.4","","53","","14","","10","","24.1","","100.19","","28","","","","NA"
"2016-08-27 12:00","2016","08","27","12:00","24.7","","15.8","","57","","14","","13","","24.1","","100.16","","29","","","","NA"
"2016-08-27 13:00","2016","08","27","13:00","24.8","","14.7","","53","","13","","10","","24.1","","100.13","","29","","","","Mostly Cloudy"
"2016-08-27 14:00","2016","08","27","14:00","25.6","","15.2","","52","","15","","12","","24.1","","100.11","","30","","","","NA"
"2016-08-27 15:00","2016","08","27","15:00","26.2","","13.5","","45","","13","","13","","24.1","","100.06","","29","","","","NA"
"2016-08-27 16:00","2016","08","27","16:00","26.0","","13.7","","46","","9","","7","","24.1","","100.06","","29","","","","Mostly Cloudy"
"2016-08-27 17:00","2016","08","27","17:00","26.1","","14.4","","48","","11","","9","","24.1","","100.06","","30","","","","NA"
"2016-08-27 18:00","2016","08","27","18:00","25.0","","13.4","","48","","12","","12","","24.1","","100.04","","28","","","","NA"
"2016-08-27 19:00","2016","08","27","19:00","24.8","","13.9","","50","","12","","8","","24.1","","100.04","","28","","","","Cloudy"
"2016-08-27 20:00","2016","08","27","20:00","24.1","","13.8","","52","","15","","8","","24.1","","99.98","","27","","","","NA"
"2016-08-27 21:00","2016","08","27","21:00","22.8","","15.3","","62","","14","","12","","24.1","","99.99","","27","","","","NA"
"2016-08-27 22:00","2016","08","27","22:00","22.5","","16.6","","69","","13","","15","","24.1","","99.99","","28","","","","Mostly Cloudy"
"2016-08-27 23:00","2016","08","27","23:00","22.4","","17.0","","71","","11","","12","","24.1","","99.97","","28","","","","NA"
"2016-08-28 00:00","2016","08","28","00:00","22.6","","14.8","","61","","7","","4","","24.1","","99.97","","26","","","","NA"
"2016-08-28 01:00","2016","08","28","01:00","22.8","","15.0","","61","","6","","8","","24.1","","99.91","","27","","","","Mostly Cloudy"
"2016-08-28 02:00","2016","08","28","02:00","22.7","","15.4","","63","","9","","7","","24.1","","99.89","","27","","","","NA"
"2016-08-28 03:00","2016","08","28","03:00","22.6","","16.0","","66","","9","","5","","24.1","","99.90","","27","","","","NA"
"2016-08-28 04:00","2016","08","28","04:00","22.0","","17.0","","73","","11","","7","","24.1","","99.88","","27","","","","Mainly Clear"
"2016-08-28 05:00","2016","08","28","05:00","22.1","","18.0","","77","","0","","1","","24.1","","99.94","","28","","","","NA"
"2016-08-28 06:00","2016","08","28","06:00","21.2","","17.7","","80","","32","","5","","24.1","","99.98","","27","","","","NA"
"2016-08-28 07:00","2016","08","28","07:00","22.1","","17.1","","73","","31","","9","","24.1","","99.99","","27","","","","Mostly Cloudy"
"2016-08-28 08:00","2016","08","28","08:00","23.6","","17.0","","66","","31","","7","","24.1","","100.00","","29","","","","NA"
"2016-08-28 09:00","2016","08","28","09:00","25.8","","17.6","","60","","25","","11","","24.1","","100.00","","32","","","","NA"
"2016-08-28 10:00","2016","08","28","10:00","27.8","","19.5","","60","","24","","12","","24.1","","99.99","","35","","","","Mostly Cloudy"
"2016-08-28 11:00","2016","08","28","11:00","29.5","","20.6","","58","","24","","19","","24.1","","99.98","","38","","","","NA"
"2016-08-28 12:00","2016","08","28","12:00","30.0","","21.6","","60","","28","","30","","24.1","","99.99","","39","","","","NA"
"2016-08-28 13:00","2016","08","28","13:00","27.8","","20.0","","62","","28","","34","","24.1","","100.02","","35","","","","Mostly Cloudy"
"2016-08-28 14:00","2016","08","28","14:00","29.5","","19.4","","54","","26","","24","","24.1","","99.96","","37","","","","NA"
"2016-08-28 15:00","2016","08","28","15:00","29.7","","19.0","","52","","27","","28","","24.1","","99.90","","36","","","","NA"
"2016-08-28 16:00","2016","08","28","16:00","30.7","","18.3","","47","","26","","27","","24.1","","99.91","","37","","","","Mainly Clear"
"2016-08-28 17:00","2016","08","28","17:00","29.3","","18.6","","52","","28","","22","","24.1","","99.90","","36","","","","NA"
"2016-08-28 18:00","2016","08","28","18:00","28.7","","18.1","","52","","31","","24","","24.1","","99.88","","35","","","","NA"
"2016-08-28 19:00","2016","08","28","19:00","25.1","","18.9","","68","","35","","24","","24.1","","99.95","","32","","","","Mainly Clear"
"2016-08-28 20:00","2016","08","28","20:00","24.1","","18.6","","71","","34","","14","","24.1","","100.03","","31","","","","NA"
"2016-08-28 21:00","2016","08","28","21:00","23.5","","16.4","","64","","33","","26","","24.1","","100.12","","28","","","","NA"
"2016-08-28 22:00","2016","08","28","22:00","22.0","","16.4","","70","","32","","16","","24.1","","100.13","","27","","","","Clear"
"2016-08-28 23:00","2016","08","28","23:00","21.4","","15.6","","69","","30","","15","","24.1","","100.16","","26","","","","NA"
"2016-08-29 00:00","2016","08","29","00:00","20.2","","14.6","","70","","32","","18","","24.1","","100.20","","","","","","NA"
"2016-08-29 01:00","2016","08","29","01:00","19.7","","14.2","","70","","32","","21","","24.1","","100.16","","","","","","Clear"
"2016-08-29 02:00","2016","08","29","02:00","19.0","","14.1","","73","","33","","16","","24.1","","100.16","","","","","","NA"
"2016-08-29 03:00","2016","08","29","03:00","18.2","","14.0","","76","","35","","9","","24.1","","100.19","","","","","","NA"
"2016-08-29 04:00","2016","08","29","04:00","18.3","","13.9","","75","","31","","12","","24.1","","100.22","","","","","","Clear"
"2016-08-29 05:00","2016","08","29","05:00","18.4","","14.4","","77","","32","","14","","24.1","","100.25","","","","","","NA"
"2016-08-29 06:00","2016","08","29","06:00","18.5","","14.8","","79","","31","","13","","24.1","","100.30","","","","","","NA"
"2016-08-29 07:00","2016","08","29","07:00","20.0","","16.3","","79","","34","","17","","24.1","","100.32","","25","","","","Mainly Clear"
"2016-08-29 08:00","2016","08","29","08:00","21.2","","16.7","","75","","36","","15","","24.1","","100.35","","26","","","","NA"
"2016-08-29 09:00","2016","08","29","09:00","22.4","","17.2","","72","","1","","14","","24.1","","100.39","","28","","","","NA"
"2016-08-29 10:00","2016","08","29","10:00","23.9","","15.8","","60","","3","","8","","24.1","","100.41","","28","","","","Mostly Cloudy"
"2016-08-29 11:00","2016","08","29","11:00","25.0","","14.6","","52","","6","","10","","24.1","","100.38","","29","","","","NA"
"2016-08-29 12:00","2016","08","29","12:00","25.7","","14.1","","48","","3","","5","","24.1","","100.36","","29","","","","NA"
"2016-08-29 13:00","2016","08","29","13:00","25.6","","13.3","","46","","5","","10","","24.1","","100.32","","29","","","","Mainly Clear"
"2016-08-29 14:00","2016","08","29","14:00","27.2","","17.6","","55","","19","","13","","24.1","","100.29","","33","","","","NA"
"2016-08-29 15:00","2016","08","29","15:00","26.1","","16.2","","54","","14","","15","","24.1","","100.25","","31","","","","NA"
"2016-08-29 16:00","2016","08","29","16:00","25.8","","16.0","","54","","15","","12","","24.1","","100.20","","30","","","","Mainly Clear"
"2016-08-29 17:00","2016","08","29","17:00","25.2","","15.1","","53","","15","","18","","24.1","","100.18","","29","","","","NA"
"2016-08-29 18:00","2016","08","29","18:00","24.6","","14.6","","53","","17","","12","","24.1","","100.14","","28","","","","NA"
"2016-08-29 19:00","2016","08","29","19:00","23.3","","14.2","","56","","16","","9","","24.1","","100.15","","27","","","","Mainly Clear"
"2016-08-29 20:00","2016","08","29","20:00","22.6","","14.6","","60","","15","","5","","24.1","","100.20","","26","","","","NA"
"2016-08-29 21:00","2016","08","29","21:00","22.8","","14.5","","59","","23","","4","","24.1","","100.21","","26","","","","NA"
"2016-08-29 22:00","2016","08","29","22:00","21.6","","14.1","","62","","32","","13","","24.1","","100.21","","25","","","","Mainly Clear"
"2016-08-29 23:00","2016","08","29","23:00","20.3","","13.4","","64","","35","","10","","24.1","","100.18","","","","","","NA"
"2016-08-30 00:00","2016","08","30","00:00","19.4","","13.0","","66","","36","","9","","24.1","","100.16","","","","","","NA"
"2016-08-30 01:00","2016","08","30","01:00","19.3","","13.1","","67","","35","","3","","24.1","","100.13","","","","","","Clear"
"2016-08-30 02:00","2016","08","30","02:00","18.2","","13.1","","72","","31","","10","","24.1","","100.12","","","","","","NA"
"2016-08-30 03:00","2016","08","30","03:00","18.4","","12.9","","70","","33","","8","","24.1","","100.11","","","","","","NA"
"2016-08-30 04:00","2016","08","30","04:00","17.5","","12.7","","73","","30","","7","","24.1","","100.08","","","","","","Mainly Clear"
"2016-08-30 05:00","2016","08","30","05:00","17.4","","12.2","","71","","29","","5","","24.1","","100.06","","","","","","NA"
"2016-08-30 06:00","2016","08","30","06:00","18.1","","12.4","","69","","2","","4","","24.1","","100.07","","","","","","NA"
"2016-08-30 07:00","2016","08","30","07:00","19.5","","13.3","","67","","29","","3","","24.1","","100.06","","","","","","Mainly Clear"
"2016-08-30 08:00","2016","08","30","08:00","21.7","","14.0","","61","","26","","5","","24.1","","100.05","","25","","","","NA"
"2016-08-30 09:00","2016","08","30","09:00","24.5","","14.2","","52","","24","","14","","24.1","","100.01","","28","","","","NA"
"2016-08-30 10:00","2016","08","30","10:00","25.8","","14.8","","50","","29","","12","","24.1","","99.97","","30","","","","Mainly Clear"
"2016-08-30 11:00","2016","08","30","11:00","27.7","","14.6","","44","","23","","15","","24.1","","99.94","","31","","","","NA"
"2016-08-30 12:00","2016","08","30","12:00","28.4","","15.2","","44","","27","","11","","24.1","","99.87","","32","","","","NA"
"2016-08-30 13:00","2016","08","30","13:00","29.2","","15.6","","43","","25","","18","","24.1","","99.76","","34","","","","Mainly Clear"
"2016-08-30 14:00","2016","08","30","14:00","30.1","","16.4","","43","","24","","21","","24.1","","99.70","","35","","","","NA"
"2016-08-30 15:00","2016","08","30","15:00","29.9","","17.3","","46","","24","","16","","24.1","","99.66","","35","","","","NA"
"2016-08-30 16:00","2016","08","30","16:00","29.5","","17.6","","48","","26","","26","","24.1","","99.63","","35","","","","Mostly Cloudy"
"2016-08-30 17:00","2016","08","30","17:00","28.3","","18.0","","53","","24","","17","","24.1","","99.61","","34","","","","NA"
"2016-08-30 18:00","2016","08","30","18:00","27.5","","18.1","","56","","23","","20","","24.1","","99.59","","34","","","","NA"
"2016-08-30 19:00","2016","08","30","19:00","26.5","","18.3","","60","","24","","15","","24.1","","99.57","","33","","","","Mostly Cloudy"
"2016-08-30 20:00","2016","08","30","20:00","26.2","","18.5","","62","","22","","15","","24.1","","99.56","","33","","","","NA"
"2016-08-30 21:00","2016","08","30","21:00","24.6","","19.3","","72","","24","","17","","24.1","","99.57","","32","","","","NA"
"2016-08-30 22:00","2016","08","30","22:00","24.1","","19.5","","75","","26","","21","","24.1","","99.53","","31","","","","Mostly Cloudy"
"2016-08-30 23:00","2016","08","30","23:00","23.4","","19.2","","77","","25","","14","","24.1","","99.48","","30","","","","NA"
"2016-08-31 00:00","2016","08","31","00:00","23.4","","18.8","","75","","25","","13","","24.1","","99.45","","30","","","","NA"
"2016-08-31 01:00","2016","08","31","01:00","23.2","","18.2","","73","","26","","14","","24.1","","99.45","","29","","","","Cloudy"
"2016-08-31 02:00","2016","08","31","02:00","23.4","","17.5","","69","","27","","18","","24.1","","99.41","","29","","","","NA"
"2016-08-31 03:00","2016","08","31","03:00","23.0","","18.0","","73","","31","","12","","24.1","","99.39","","29","","","","NA"
"2016-08-31 04:00","2016","08","31","04:00","22.7","","17.9","","74","","28","","11","","24.1","","99.35","","29","","","","Mostly Cloudy"
"2016-08-31 05:00","2016","08","31","05:00","22.1","","18.0","","77","","28","","10","","24.1","","99.32","","28","","","","NA"
"2016-08-31 06:00","2016","08","31","06:00","22.3","","17.7","","75","","30","","9","","24.1","","99.35","","28","","","","NA"
"2016-08-31 07:00","2016","08","31","07:00","22.4","","17.8","","75","","32","","16","","24.1","","99.37","","28","","","","Mostly Cloudy"
"2016-08-31 08:00","2016","08","31","08:00","22.2","","18.3","","78","","28","","7","","24.1","","99.32","","28","","","","NA"
"2016-08-31 09:00","2016","08","31","09:00","23.4","","17.9","","71","","26","","4","","24.1","","99.29","","29","","","","NA"
"2016-08-31 10:00","2016","08","31","10:00","24.8","","18.4","","67","","30","","5","","24.1","","99.31","","31","","","","Mostly Cloudy"
"2016-08-31 11:00","2016","08","31","11:00","25.9","","18.2","","62","","26","","11","","24.1","","99.25","","32","","","","NA"
"2016-08-31 12:00","2016","08","31","12:00","28.3","","17.4","","51","","26","","21","","24.1","","99.22","","34","","","","NA"
"2016-08-31 13:00","2016","08","31","13:00","28.0","","15.2","","45","","31","","28","","24.1","","99.17","","32","","","","Mostly Cloudy"
"2016-08-31 14:00","2016","08","31","14:00","29.0","","11.4","","33","","31","","20","","24.1","","99.14","","31","","","","NA"
"2016-08-31 15:00","2016","08","31","15:00","28.5","","5.0","","22","","32","","24","","24.1","","99.12","","28","","","","NA"
"2016-08-31 16:00","2016","08","31","16:00","26.8","","12.7","","41","","35","","28","","24.1","","99.14","","29","","","","Mainly Clear"
"2016-08-31 17:00","2016","08","31","17:00","25.1","","13.2","","47","","35","","27","","24.1","","99.20","","28","","","","NA"
"2016-08-31 18:00","2016","08","31","18:00","23.4","","11.6","","47","","35","","30","","24.1","","99.23","","25","","","","NA"
"2016-08-31 19:00","2016","08","31","19:00","21.7","","9.4","","45","","34","","29","","24.1","","99.29","","","","","","Mainly Clear"
"2016-08-31 20:00","2016","08","31","20:00","20.4","","12.0","","58","","34","","21","","24.1","","99.36","","","","","","NA"
"2016-08-31 21:00","2016","08","31","21:00","19.7","","12.1","","61","","34","","25","","24.1","","99.39","","","","","","NA"
"2016-08-31 22:00","2016","08","31","22:00","19.0","","11.9","","63","","33","","21","","24.1","","99.41","","","","","","Clear"
"2016-08-31 23:00","2016","08","31","23:00","18.4","","12.0","","66","","34","","21","","24.1","","99.43","","","","","","NA"
