"Station Name","TORONTO LESTER B. PEARSON INT'L A"
"Province","ONTARIO"
"Latitude","43.68"
"Longitude","-79.63"
"Elevation","173.40"
"Climate Identifier","6158733"
"WMO Identifier","71624"
"TC Identifier","YYZ"
"All times are specified in Local Standard Time (LST). Add 1 hour to adjust for Daylight Saving Time where and when it is observed."

"Legend"
"E","Estimated"
"M","Missing"
"NA","Not Available"

"Date/Time","Year","Month","Day","Time","Temp (°C)","Temp Flag","Dew Point Temp (°C)","Dew Point Temp Flag","Rel Hum (%)","Rel Hum Flag","Wind Dir (10s deg)","Wind Dir Flag","Wind Spd (km/h)","Wind Spd Flag","Visibility (km)","Visibility Flag","Stn Press (kPa)","Stn Press Flag","Hmdx","Hmdx Flag","Wind Chill","Wind Chill Flag","Weather"
"1981-11-01 00:00","1981","11","01","00:00","4.0","","3.1","","94","","","","0","","8.0","","100.76","","","","","","Fog"
"1981-11-01 01:00","1981","11","01","01:00","4.1","","3.6","","97","","","","0","","6.4","","100.79","","","","","","Fog"
"1981-11-01 02:00","1981","11","01","02:00","3.2","","2.6","","96","","","","0","","6.4","","100.76","","","","","","Fog"
"1981-11-01 03:00","1981","11","01","03:00","3.4","","3.1","","98","","","","0","","6.4","","100.72","","","","","","Fog"
"1981-11-01 04:00","1981","11","01","04:00","3.6","","3.1","","97","","","","0","","4.8","","100.69","","","","","","Fog"
"1981-11-01 05:00","1981","11","01","05:00","5.1","","3.7","","91","","19","","2","","6.4","","100.66","","","","","","Fog"
"1981-11-01 06:00","1981","11","01","06:00","6.0","","4.8","","92","","16","","4","","6.4","","100.59","","","","","","Fog"
"1981-11-01 07:00","1981","11","01","07:00","6.1","","4.8","","91","","17","","6","","4.8","","100.59","","","","","","Fog"
"1981-11-01 08:00","1981","11","01","08:00","6.4","","5.3","","93","","","","0","","6.4","","100.66","","","","","","Fog"
"1981-11-01 09:00","1981","11","01","09:00","7.4","","6.3","","93","","","","0","","6.4","","100.72","","","","","","Fog"
"1981-11-01 10:00","1981","11","01","10:00","9.4","","7.2","","86","","18","","4","","8.0","","100.59","","","","","","Fog"
"1981-11-01 11:00","1981","11","01","11:00","12.1","","8.3","","77","","","","0","","11.3","","100.59","","","","","","Mostly Cloudy"
"1981-11-01 12:00","1981","11","01","12:00","14.4","","10.3","","76","","","","0","","11.3","","100.56","","","","","","Mostly Cloudy"
"1981-11-01 13:00","1981","11","01","13:00","14.7","","9.2","","70","","14","","4","","11.3","","100.49","","","","","","Mostly Cloudy"
"1981-11-01 14:00","1981","11","01","14:00","15.2","","9.4","","68","","10","","4","","11.3","","100.46","","","","","","Cloudy"
"1981-11-01 15:00","1981","11","01","15:00","14.4","","9.6","","73","","14","","7","","9.7","","100.39","","","","","","Haze"
"1981-11-01 16:00","1981","11","01","16:00","14.4","","10.0","","75","","16","","7","","11.3","","100.36","","","","","","Cloudy"
"1981-11-01 17:00","1981","11","01","17:00","13.0","","9.4","","79","","14","","6","","9.7","","100.36","","","","","","Haze"
"1981-11-01 18:00","1981","11","01","18:00","12.4","","9.7","","84","","10","","4","","8.0","","100.39","","","","","","Haze"
"1981-11-01 19:00","1981","11","01","19:00","12.2","","9.5","","83","","","","0","","9.7","","100.36","","","","","","Haze"
"1981-11-01 20:00","1981","11","01","20:00","10.0","","8.1","","88","","","","0","","9.7","","100.36","","","","","","Fog"
"1981-11-01 21:00","1981","11","01","21:00","8.1","","7.6","","97","","30","","4","","6.4","","100.36","","","","","","Fog"
"1981-11-01 22:00","1981","11","01","22:00","8.2","","7.6","","96","","","","0","","6.4","","100.32","","","","","","Fog"
"1981-11-01 23:00","1981","11","01","23:00","7.4","","7.1","","98","","31","","4","","4.8","","100.29","","","","","","Fog"
"1981-11-02 00:00","1981","11","02","00:00","7.5","","7.5","","100","","33","","6","","0.8","","100.29","","","","","","Fog"
"1981-11-02 01:00","1981","11","02","01:00","5.0","","5.0","","100","","33","","6","","0.0","","100.26","","","","","","Fog"
"1981-11-02 02:00","1981","11","02","02:00","6.3","","5.7","","96","","34","","9","","25.0","","100.26","","","","","","Clear"
"1981-11-02 03:00","1981","11","02","03:00","4.5","","4.1","","97","","27","","2","","24.1","","100.26","","","","","","Clear"
"1981-11-02 04:00","1981","11","02","04:00","5.1","","4.2","","94","","28","","4","","24.1","","100.22","","","","","","Mostly Cloudy"
"1981-11-02 05:00","1981","11","02","05:00","5.2","","4.2","","93","","28","","4","","24.1","","100.26","","","","","","Mostly Cloudy"
"1981-11-02 06:00","1981","11","02","06:00","4.7","","3.6","","92","","","","0","","25.0","","100.26","","","","","","Mainly Clear"
"1981-11-02 07:00","1981","11","02","07:00","4.5","","3.2","","91","","27","","7","","24.1","","100.29","","","","","","Mainly Clear"
"1981-11-02 08:00","1981","11","02","08:00","6.7","","4.9","","88","","27","","11","","32.2","","100.32","","","","","","Mainly Clear"
"1981-11-02 09:00","1981","11","02","09:00","9.5","","6.4","","81","","29","","6","","32.2","","100.29","","","","","","Mostly Cloudy"
"1981-11-02 10:00","1981","11","02","10:00","12.0","","6.3","","68","","31","","15","","40.2","","100.29","","","","","","Mostly Cloudy"
"1981-11-02 11:00","1981","11","02","11:00","13.5","","5.0","","56","","31","","17","","40.2","","100.29","","","","","","Mostly Cloudy"
"1981-11-02 12:00","1981","11","02","12:00","15.2","","4.5","","49","","29","","15","","40.2","","100.22","","","","","","Mostly Cloudy"
"1981-11-02 13:00","1981","11","02","13:00","15.8","","4.9","","48","","28","","17","","40.2","","100.16","","","","","","Cloudy"
"1981-11-02 14:00","1981","11","02","14:00","16.4","","5.6","","49","","32","","17","","40.2","","100.12","","","","","","Mostly Cloudy"
"1981-11-02 15:00","1981","11","02","15:00","15.8","","5.4","","50","","31","","19","","40.2","","100.12","","","","","","Mostly Cloudy"
"1981-11-02 16:00","1981","11","02","16:00","14.0","","5.1","","55","","30","","17","","40.2","","100.16","","","","","","Mostly Cloudy"
"1981-11-02 17:00","1981","11","02","17:00","11.8","","5.4","","65","","29","","15","","40.2","","100.19","","","","","","Mostly Cloudy"
"1981-11-02 18:00","1981","11","02","18:00","9.3","","6.8","","84","","34","","11","","25.0","","100.29","","","","","","Mostly Cloudy"
"1981-11-02 19:00","1981","11","02","19:00","7.1","","5.8","","91","","32","","11","","25.0","","100.32","","","","","","Mostly Cloudy"
"1981-11-02 20:00","1981","11","02","20:00","6.5","","4.4","","86","","33","","13","","25.0","","100.39","","","","","","Mostly Cloudy"
"1981-11-02 21:00","1981","11","02","21:00","5.9","","3.9","","87","","35","","11","","25.0","","100.46","","","","","","Mostly Cloudy"
"1981-11-02 22:00","1981","11","02","22:00","5.7","","2.9","","82","","34","","11","","25.0","","100.49","","","","","","Mostly Cloudy"
"1981-11-02 23:00","1981","11","02","23:00","4.1","","2.2","","87","","31","","6","","25.0","","100.56","","","","","","Mostly Cloudy"
"1981-11-03 00:00","1981","11","03","00:00","3.5","","1.7","","88","","33","","9","","25.0","","100.56","","","","","","Mainly Clear"
"1981-11-03 01:00","1981","11","03","01:00","2.9","","1.6","","91","","33","","11","","25.0","","100.59","","","","","","Mainly Clear"
"1981-11-03 02:00","1981","11","03","02:00","3.2","","1.1","","86","","33","","15","","25.0","","100.59","","","","","","Mainly Clear"
"1981-11-03 03:00","1981","11","03","03:00","2.6","","0.1","","84","","33","","15","","25.0","","100.59","","","","","","Mainly Clear"
"1981-11-03 04:00","1981","11","03","04:00","2.3","","-0.9","","80","","34","","15","","25.0","","100.59","","","","","","Clear"
"1981-11-03 05:00","1981","11","03","05:00","2.4","","-1.5","","75","","35","","11","","25.0","","100.69","","","","","","Clear"
"1981-11-03 06:00","1981","11","03","06:00","1.0","","-1.5","","83","","33","","7","","25.0","","100.62","","","","","","Mainly Clear"
"1981-11-03 07:00","1981","11","03","07:00","0.9","","-1.9","","82","","","","0","","40.2","","100.69","","","","","","Mainly Clear"
"1981-11-03 08:00","1981","11","03","08:00","1.6","","-1.5","","80","","33","","4","","40.2","","100.79","","","","","","Mainly Clear"
"1981-11-03 09:00","1981","11","03","09:00","4.1","","-0.8","","70","","","","0","","40.2","","100.79","","","","","","Mainly Clear"
"1981-11-03 10:00","1981","11","03","10:00","6.8","","-1.0","","58","","","","0","","40.2","","100.76","","","","","","Mainly Clear"
"1981-11-03 11:00","1981","11","03","11:00","8.8","","-1.1","","50","","","","0","","40.2","","100.66","","","","","","Mainly Clear"
"1981-11-03 12:00","1981","11","03","12:00","9.6","","-2.3","","43","","16","","7","","40.2","","100.56","","","","","","Mainly Clear"
"1981-11-03 13:00","1981","11","03","13:00","10.5","","-0.8","","45","","19","","11","","40.2","","100.49","","","","","","Mainly Clear"
"1981-11-03 14:00","1981","11","03","14:00","11.5","","0.1","","45","","23","","6","","40.2","","100.39","","","","","","Mainly Clear"
"1981-11-03 15:00","1981","11","03","15:00","12.5","","0.4","","43","","24","","6","","40.2","","100.29","","","","","","Mainly Clear"
"1981-11-03 16:00","1981","11","03","16:00","10.9","","2.2","","55","","17","","9","","32.2","","100.26","","","","","","Mainly Clear"
"1981-11-03 17:00","1981","11","03","17:00","9.6","","3.3","","65","","15","","6","","24.1","","100.22","","","","","","Mainly Clear"
"1981-11-03 18:00","1981","11","03","18:00","8.2","","2.4","","67","","18","","7","","19.3","","100.19","","","","","","Mainly Clear"
"1981-11-03 19:00","1981","11","03","19:00","7.3","","2.3","","71","","20","","7","","19.3","","100.19","","","","","","Mainly Clear"
"1981-11-03 20:00","1981","11","03","20:00","7.0","","1.2","","67","","21","","4","","19.3","","100.16","","","","","","Mainly Clear"
"1981-11-03 21:00","1981","11","03","21:00","3.5","","0.7","","82","","25","","11","","19.3","","100.12","","","","","","Clear"
"1981-11-03 22:00","1981","11","03","22:00","4.0","","-0.3","","74","","26","","15","","24.1","","100.09","","","","","","Clear"
"1981-11-03 23:00","1981","11","03","23:00","4.5","","-0.2","","71","","25","","7","","24.1","","100.09","","","","","","Clear"
"1981-11-04 00:00","1981","11","04","00:00","5.6","","-0.1","","67","","23","","4","","25.0","","100.06","","","","","","Clear"
"1981-11-04 01:00","1981","11","04","01:00","4.9","","0.4","","73","","","","0","","25.0","","100.06","","","","","","Clear"
"1981-11-04 02:00","1981","11","04","02:00","3.4","","0.2","","80","","24","","4","","25.0","","100.02","","","","","","Clear"
"1981-11-04 03:00","1981","11","04","03:00","3.1","","0.7","","84","","24","","2","","25.0","","99.99","","","","","","Clear"
"1981-11-04 04:00","1981","11","04","04:00","2.4","","0.6","","88","","32","","2","","25.0","","100.02","","","","","","Clear"
"1981-11-04 05:00","1981","11","04","05:00","2.2","","0.1","","86","","30","","6","","25.0","","100.06","","","","","","Mainly Clear"
"1981-11-04 06:00","1981","11","04","06:00","4.2","","1.3","","81","","29","","6","","25.0","","100.06","","","","","","Mostly Cloudy"
"1981-11-04 07:00","1981","11","04","07:00","4.4","","1.8","","83","","26","","6","","16.1","","100.12","","","","","","Mostly Cloudy"
"1981-11-04 08:00","1981","11","04","08:00","3.9","","1.7","","86","","26","","6","","19.3","","100.19","","","","","","Mainly Clear"
"1981-11-04 09:00","1981","11","04","09:00","8.0","","4.8","","80","","29","","6","","16.1","","100.22","","","","","","Mainly Clear"
"1981-11-04 10:00","1981","11","04","10:00","11.0","","5.1","","67","","1","","7","","19.3","","100.19","","","","","","Mainly Clear"
"1981-11-04 11:00","1981","11","04","11:00","11.4","","3.8","","59","","33","","6","","19.3","","100.19","","","","","","Mainly Clear"
"1981-11-04 12:00","1981","11","04","12:00","12.6","","5.1","","60","","","","0","","24.1","","100.16","","","","","","Mainly Clear"
"1981-11-04 13:00","1981","11","04","13:00","13.8","","4.2","","52","","","","0","","24.1","","100.06","","","","","","Mainly Clear"
"1981-11-04 14:00","1981","11","04","14:00","14.5","","4.8","","52","","15","","7","","24.1","","100.06","","","","","","Mainly Clear"
"1981-11-04 15:00","1981","11","04","15:00","14.9","","5.5","","53","","20","","7","","12.9","","100.02","","","","","","Mainly Clear"
"1981-11-04 16:00","1981","11","04","16:00","14.0","","5.6","","57","","17","","7","","12.9","","100.02","","","","","","Mainly Clear"
"1981-11-04 17:00","1981","11","04","17:00","11.9","","4.0","","58","","13","","7","","12.9","","100.02","","","","","","Mainly Clear"
"1981-11-04 18:00","1981","11","04","18:00","10.0","","3.9","","66","","14","","7","","12.9","","99.99","","","","","","Mainly Clear"
"1981-11-04 19:00","1981","11","04","19:00","9.0","","3.2","","67","","15","","6","","16.1","","100.02","","","","","","Mainly Clear"
"1981-11-04 20:00","1981","11","04","20:00","8.2","","2.9","","69","","13","","6","","16.1","","99.99","","","","","","Mainly Clear"
"1981-11-04 21:00","1981","11","04","21:00","6.0","","3.0","","81","","","","0","","12.9","","99.99","","","","","","Mainly Clear"
"1981-11-04 22:00","1981","11","04","22:00","5.0","","1.9","","80","","","","0","","12.9","","99.99","","","","","","Mainly Clear"
"1981-11-04 23:00","1981","11","04","23:00","4.0","","2.7","","91","","","","0","","11.3","","99.96","","","","","","Mainly Clear"
"1981-11-05 00:00","1981","11","05","00:00","3.6","","2.2","","91","","","","0","","11.3","","99.89","","","","","","Clear"
"1981-11-05 01:00","1981","11","05","01:00","2.7","","1.6","","92","","","","0","","11.3","","99.89","","","","","","Clear"
"1981-11-05 02:00","1981","11","05","02:00","2.7","","1.6","","92","","","","0","","11.3","","99.89","","","","","","Clear"
"1981-11-05 03:00","1981","11","05","03:00","2.4","","1.6","","95","","33","","4","","11.3","","99.79","","","","","","Mainly Clear"
"1981-11-05 04:00","1981","11","05","04:00","2.4","","1.6","","95","","33","","4","","11.3","","99.79","","","","","","Mainly Clear"
"1981-11-05 05:00","1981","11","05","05:00","3.0","","1.1","","87","","34","","4","","16.1","","99.72","","","","","","Mostly Cloudy"
"1981-11-05 06:00","1981","11","05","06:00","2.8","","1.6","","92","","","","0","","16.1","","99.66","","","","","","Mainly Clear"
"1981-11-05 07:00","1981","11","05","07:00","2.7","","1.6","","92","","","","0","","3.2","","99.62","","","","","","Fog"
"1981-11-05 08:00","1981","11","05","08:00","3.0","","2.6","","97","","31","","4","","4.0","","99.59","","","","","","Fog"
"1981-11-05 09:00","1981","11","05","09:00","6.4","","5.3","","93","","","","0","","4.0","","99.52","","","","","","Fog"
"1981-11-05 10:00","1981","11","05","10:00","7.7","","5.5","","86","","","","0","","4.0","","99.46","","","","","","Fog"
"1981-11-05 11:00","1981","11","05","11:00","10.9","","7.2","","78","","","","0","","4.0","","99.36","","","","","","Haze"
"1981-11-05 12:00","1981","11","05","12:00","11.8","","7.5","","75","","14","","13","","4.8","","99.19","","","","","","Haze"
"1981-11-05 13:00","1981","11","05","13:00","10.0","","6.9","","81","","16","","9","","6.4","","99.09","","","","","","Haze"
"1981-11-05 14:00","1981","11","05","14:00","10.3","","7.9","","85","","14","","11","","6.4","","99.02","","","","","","Haze"
"1981-11-05 15:00","1981","11","05","15:00","10.2","","7.7","","84","","14","","11","","4.8","","98.92","","","","","","Fog"
"1981-11-05 16:00","1981","11","05","16:00","9.6","","7.2","","85","","15","","11","","6.4","","98.86","","","","","","Fog"
"1981-11-05 17:00","1981","11","05","17:00","10.3","","8.7","","90","","15","","9","","4.8","","98.82","","","","","","Fog"
"1981-11-05 18:00","1981","11","05","18:00","10.6","","9.0","","90","","14","","7","","4.8","","98.79","","","","","","Fog"
"1981-11-05 19:00","1981","11","05","19:00","9.3","","8.8","","97","","13","","11","","6.4","","98.69","","","","","","Fog"
"1981-11-05 20:00","1981","11","05","20:00","9.6","","8.8","","95","","15","","9","","4.8","","98.59","","","","","","Fog"
"1981-11-05 21:00","1981","11","05","21:00","10.6","","9.8","","95","","15","","4","","3.2","","98.52","","","","","","Fog"
"1981-11-05 22:00","1981","11","05","22:00","10.5","","10.1","","97","","14","","6","","3.2","","98.39","","","","","","Rain Showers,Fog"
"1981-11-05 23:00","1981","11","05","23:00","10.7","","10.1","","96","","15","","4","","3.2","","98.26","","","","","","Fog"
"1981-11-06 00:00","1981","11","06","00:00","10.8","","10.3","","97","","22","","7","","3.2","","98.19","","","","","","Rain Showers,Fog"
"1981-11-06 01:00","1981","11","06","01:00","10.0","","8.1","","88","","24","","6","","12.9","","98.09","","","","","","Rain"
"1981-11-06 02:00","1981","11","06","02:00","9.6","","8.4","","92","","23","","6","","12.9","","98.02","","","","","","Cloudy"
"1981-11-06 03:00","1981","11","06","03:00","9.5","","8.4","","93","","24","","7","","12.9","","97.96","","","","","","Cloudy"
"1981-11-06 04:00","1981","11","06","04:00","8.9","","7.9","","93","","23","","15","","16.1","","97.86","","","","","","Cloudy"
"1981-11-06 05:00","1981","11","06","05:00","8.4","","6.6","","89","","22","","11","","19.3","","97.69","","","","","","Cloudy"
"1981-11-06 06:00","1981","11","06","06:00","8.1","","6.4","","89","","22","","11","","11.3","","97.62","","","","","","Cloudy"
"1981-11-06 07:00","1981","11","06","07:00","7.4","","5.9","","90","","28","","28","","16.1","","97.66","","","","","","Rain Showers"
"1981-11-06 08:00","1981","11","06","08:00","6.0","","3.0","","81","","27","","22","","32.2","","97.66","","","","","","Mostly Cloudy"
"1981-11-06 09:00","1981","11","06","09:00","6.4","","3.5","","82","","26","","15","","32.2","","97.66","","","","","","Cloudy"
"1981-11-06 10:00","1981","11","06","10:00","6.9","","4.1","","82","","28","","20","","40.2","","97.66","","","","","","Cloudy"
"1981-11-06 11:00","1981","11","06","11:00","5.8","","2.0","","77","","31","","28","","40.2","","97.76","","","","","","Cloudy"
"1981-11-06 12:00","1981","11","06","12:00","5.1","","0.9","","74","","29","","37","","40.2","","97.72","","","","","","Rain Showers"
"1981-11-06 13:00","1981","11","06","13:00","5.0","","0.4","","72","","31","","31","","40.2","","97.69","","","","","","Mostly Cloudy"
"1981-11-06 14:00","1981","11","06","14:00","3.8","","2.2","","90","","31","","37","","24.1","","97.79","","","","","","Rain Showers,Ice Pellets"
"1981-11-06 15:00","1981","11","06","15:00","3.4","","0.7","","83","","32","","33","","32.2","","97.86","","","","","","Cloudy"
"1981-11-06 16:00","1981","11","06","16:00","2.5","","1.1","","91","","32","","33","","19.3","","97.96","","","","","","Ice Pellet Showers"
"1981-11-06 17:00","1981","11","06","17:00","2.0","","1.1","","94","","32","","30","","16.1","","98.06","","","","","","Ice Pellets"
"1981-11-06 18:00","1981","11","06","18:00","1.7","","0.5","","92","","33","","33","","19.3","","98.19","","","","","","Ice Pellets"
"1981-11-06 19:00","1981","11","06","19:00","1.8","","0.6","","92","","33","","35","","24.1","","98.26","","","","","","Ice Pellets"
"1981-11-06 20:00","1981","11","06","20:00","1.0","","0.0","","93","","32","","31","","24.1","","98.36","","","","","","Ice Pellets"
"1981-11-06 21:00","1981","11","06","21:00","1.4","","-1.0","","84","","33","","33","","25.0","","98.39","","","","","","Cloudy"
"1981-11-06 22:00","1981","11","06","22:00","1.4","","-2.1","","77","","32","","39","","25.0","","98.46","","","","","","Cloudy"
"1981-11-06 23:00","1981","11","06","23:00","0.8","","-2.4","","79","","33","","33","","25.0","","98.46","","","","","","Mostly Cloudy"
"1981-11-07 00:00","1981","11","07","00:00","0.4","","-2.6","","80","","33","","30","","25.0","","98.49","","","","","","Cloudy"
"1981-11-07 01:00","1981","11","07","01:00","0.6","","-2.0","","83","","32","","35","","25.0","","98.49","","","","","","Cloudy"
"1981-11-07 02:00","1981","11","07","02:00","0.5","","-2.0","","83","","31","","31","","25.0","","98.49","","","","","","Cloudy"
"1981-11-07 03:00","1981","11","07","03:00","0.6","","-2.0","","83","","31","","31","","25.0","","98.56","","","","","","Cloudy"
"1981-11-07 04:00","1981","11","07","04:00","0.4","","-1.8","","85","","33","","39","","25.0","","98.56","","","","","","Cloudy"
"1981-11-07 05:00","1981","11","07","05:00","1.2","","-2.3","","77","","31","","31","","25.0","","98.62","","","","","","Mainly Clear"
"1981-11-07 06:00","1981","11","07","06:00","0.1","","-2.2","","84","","32","","31","","25.0","","98.69","","","","","","Mostly Cloudy"
"1981-11-07 07:00","1981","11","07","07:00","-0.4","","-2.5","","86","","32","","31","","25.0","","98.72","","","","-7","","Mainly Clear"
"1981-11-07 08:00","1981","11","07","08:00","-0.5","","-2.7","","85","","31","","37","","40.2","","98.79","","","","-8","","Mainly Clear"
"1981-11-07 09:00","1981","11","07","09:00","0.7","","-2.0","","82","","31","","39","","40.2","","98.79","","","","","","Mainly Clear"
"1981-11-07 10:00","1981","11","07","10:00","1.8","","-3.2","","69","","30","","35","","40.2","","98.86","","","","","","Mainly Clear"
"1981-11-07 11:00","1981","11","07","11:00","2.5","","-2.0","","72","","30","","31","","40.2","","98.89","","","","","","Mainly Clear"
"1981-11-07 12:00","1981","11","07","12:00","3.8","","-1.9","","66","","30","","28","","40.2","","98.89","","","","","","Mainly Clear"
"1981-11-07 13:00","1981","11","07","13:00","5.0","","-2.4","","59","","29","","28","","40.2","","98.89","","","","","","Mainly Clear"
"1981-11-07 14:00","1981","11","07","14:00","6.1","","-2.3","","55","","30","","26","","40.2","","98.86","","","","","","Mainly Clear"
"1981-11-07 15:00","1981","11","07","15:00","7.2","","-2.8","","49","","31","","26","","40.2","","98.86","","","","","","Mainly Clear"
"1981-11-07 16:00","1981","11","07","16:00","7.0","","-3.4","","47","","30","","24","","40.2","","98.89","","","","","","Clear"
"1981-11-07 17:00","1981","11","07","17:00","5.4","","-2.4","","57","","30","","22","","40.2","","98.99","","","","","","Clear"
"1981-11-07 18:00","1981","11","07","18:00","3.6","","-2.0","","67","","30","","20","","25.0","","99.06","","","","","","Clear"
"1981-11-07 19:00","1981","11","07","19:00","2.8","","-2.0","","71","","29","","15","","25.0","","99.09","","","","","","Clear"
"1981-11-07 20:00","1981","11","07","20:00","2.2","","-2.1","","73","","29","","15","","25.0","","99.16","","","","","","Clear"
"1981-11-07 21:00","1981","11","07","21:00","0.8","","-1.5","","85","","27","","9","","25.0","","99.19","","","","","","Clear"
"1981-11-07 22:00","1981","11","07","22:00","0.3","","-1.7","","86","","26","","9","","25.0","","99.22","","","","","","Clear"
"1981-11-07 23:00","1981","11","07","23:00","1.0","","-1.5","","83","","17","","4","","25.0","","99.26","","","","","","Clear"
"1981-11-08 00:00","1981","11","08","00:00","0.7","","-2.0","","82","","20","","4","","25.0","","99.26","","","","","","Clear"
"1981-11-08 01:00","1981","11","08","01:00","0.6","","-1.4","","86","","18","","4","","25.0","","99.26","","","","","","Clear"
"1981-11-08 02:00","1981","11","08","02:00","0.0","","-1.8","","88","","17","","4","","25.0","","99.26","","","","-1","","Clear"
"1981-11-08 03:00","1981","11","08","03:00","0.0","","-1.5","","90","","","","0","","25.0","","99.26","","","","","","Clear"
"1981-11-08 04:00","1981","11","08","04:00","0.0","","-1.5","","90","","","","0","","25.0","","99.26","","","","","","Clear"
"1981-11-08 05:00","1981","11","08","05:00","1.0","","-0.5","","90","","","","0","","25.0","","99.26","","","","","","Clear"
"1981-11-08 06:00","1981","11","08","06:00","0.9","","-0.5","","90","","22","","4","","25.0","","99.26","","","","","","Clear"
"1981-11-08 07:00","1981","11","08","07:00","1.5","","0.0","","90","","19","","6","","24.1","","99.29","","","","","","Clear"
"1981-11-08 08:00","1981","11","08","08:00","1.3","","0.0","","91","","18","","7","","24.1","","99.36","","","","","","Clear"
"1981-11-08 09:00","1981","11","08","09:00","2.7","","0.6","","86","","18","","7","","19.3","","99.36","","","","","","Clear"
"1981-11-08 10:00","1981","11","08","10:00","6.5","","2.6","","76","","20","","6","","19.3","","99.39","","","","","","Clear"
"1981-11-08 11:00","1981","11","08","11:00","9.8","","4.4","","69","","22","","15","","19.3","","99.36","","","","","","Mainly Clear"
"1981-11-08 12:00","1981","11","08","12:00","12.8","","4.8","","58","","22","","15","","19.3","","99.29","","","","","","Mostly Cloudy"
"1981-11-08 13:00","1981","11","08","13:00","13.8","","4.2","","52","","21","","15","","19.3","","99.26","","","","","","Cloudy"
"1981-11-08 14:00","1981","11","08","14:00","14.1","","3.7","","50","","21","","17","","16.1","","99.22","","","","","","Cloudy"
"1981-11-08 15:00","1981","11","08","15:00","14.4","","4.3","","51","","21","","17","","19.3","","99.19","","","","","","Cloudy"
"1981-11-08 16:00","1981","11","08","16:00","13.4","","5.9","","60","","21","","19","","19.3","","99.22","","","","","","Cloudy"
"1981-11-08 17:00","1981","11","08","17:00","12.5","","5.1","","61","","21","","17","","19.3","","99.26","","","","","","Cloudy"
"1981-11-08 18:00","1981","11","08","18:00","11.6","","5.2","","65","","23","","20","","19.3","","99.29","","","","","","Cloudy"
"1981-11-08 19:00","1981","11","08","19:00","11.0","","5.5","","69","","22","","22","","16.1","","99.36","","","","","","Rain Showers"
"1981-11-08 20:00","1981","11","08","20:00","10.6","","5.4","","70","","23","","19","","16.1","","99.39","","","","","","Mostly Cloudy"
"1981-11-08 21:00","1981","11","08","21:00","10.4","","5.4","","71","","28","","13","","16.1","","99.46","","","","","","Mostly Cloudy"
"1981-11-08 22:00","1981","11","08","22:00","9.1","","5.0","","75","","30","","20","","16.1","","99.49","","","","","","Mostly Cloudy"
"1981-11-08 23:00","1981","11","08","23:00","7.0","","3.6","","79","","29","","17","","25.0","","99.59","","","","","","Cloudy"
"1981-11-09 00:00","1981","11","09","00:00","5.5","","2.0","","78","","31","","20","","25.0","","99.66","","","","","","Mostly Cloudy"
"1981-11-09 01:00","1981","11","09","01:00","5.0","","1.4","","77","","32","","24","","25.0","","99.72","","","","","","Mostly Cloudy"
"1981-11-09 02:00","1981","11","09","02:00","3.1","","0.2","","81","","32","","28","","25.0","","99.86","","","","","","Mainly Clear"
"1981-11-09 03:00","1981","11","09","03:00","2.0","","0.1","","87","","32","","15","","25.0","","99.96","","","","","","Mainly Clear"
"1981-11-09 04:00","1981","11","09","04:00","2.1","","0.6","","90","","30","","7","","25.0","","100.06","","","","","","Mostly Cloudy"
"1981-11-09 05:00","1981","11","09","05:00","1.2","","-3.0","","73","","31","","17","","25.0","","100.16","","","","","","Mainly Clear"
"1981-11-09 06:00","1981","11","09","06:00","1.6","","-2.4","","75","","35","","19","","25.0","","100.29","","","","","","Mostly Cloudy"
"1981-11-09 07:00","1981","11","09","07:00","1.0","","-4.2","","68","","35","","15","","32.2","","100.42","","","","","","Mostly Cloudy"
"1981-11-09 08:00","1981","11","09","08:00","0.2","","-6.7","","59","","36","","15","","40.2","","100.59","","","","","","Mostly Cloudy"
"1981-11-09 09:00","1981","11","09","09:00","0.4","","-5.0","","67","","36","","17","","40.2","","100.69","","","","","","Mostly Cloudy"
"1981-11-09 10:00","1981","11","09","10:00","0.9","","-6.4","","58","","1","","15","","40.2","","100.76","","","","","","Mostly Cloudy"
"1981-11-09 11:00","1981","11","09","11:00","1.7","","-6.1","","56","","35","","11","","40.2","","100.76","","","","","","Mostly Cloudy"
"1981-11-09 12:00","1981","11","09","12:00","2.2","","-4.7","","60","","32","","17","","40.2","","100.76","","","","","","Mostly Cloudy"
"1981-11-09 13:00","1981","11","09","13:00","2.2","","-4.0","","63","","33","","17","","40.2","","100.79","","","","","","Mostly Cloudy"
"1981-11-09 14:00","1981","11","09","14:00","2.2","","-4.0","","63","","33","","15","","40.2","","100.79","","","","","","Mostly Cloudy"
"1981-11-09 15:00","1981","11","09","15:00","2.2","","-4.7","","60","","34","","22","","40.2","","100.85","","","","","","Mostly Cloudy"
"1981-11-09 16:00","1981","11","09","16:00","1.7","","-6.8","","53","","34","","17","","40.2","","100.89","","","","","","Mostly Cloudy"
"1981-11-09 17:00","1981","11","09","17:00","0.8","","-4.8","","66","","35","","17","","40.2","","100.92","","","","","","Mainly Clear"
"1981-11-09 18:00","1981","11","09","18:00","0.0","","-7.7","","56","","1","","11","","25.0","","100.95","","","","-4","","Mainly Clear"
"1981-11-09 19:00","1981","11","09","19:00","-1.3","","-6.7","","66","","34","","9","","25.0","","101.02","","","","-5","","Mainly Clear"
"1981-11-09 20:00","1981","11","09","20:00","-2.5","","-6.0","","77","","","","0","","25.0","","101.02","","","","","","Clear"
"1981-11-09 21:00","1981","11","09","21:00","-3.1","","-5.7","","82","","","","0","","25.0","","101.02","","","","","","Clear"
"1981-11-09 22:00","1981","11","09","22:00","-3.4","","-6.3","","80","","","","0","","25.0","","101.02","","","","","","Clear"
"1981-11-09 23:00","1981","11","09","23:00","-4.0","","-6.6","","82","","30","","4","","25.0","","101.02","","","","-6","","Clear"
"1981-11-10 00:00","1981","11","10","00:00","-4.5","","-6.0","","89","","","","0","","25.0","","101.02","","","","","","Clear"
"1981-11-10 01:00","1981","11","10","01:00","-4.0","","-5.7","","88","","","","0","","25.0","","100.99","","","","","","Clear"
"1981-11-10 02:00","1981","11","10","02:00","-5.0","","-5.9","","93","","","","0","","25.0","","100.99","","","","","","Mainly Clear"
"1981-11-10 03:00","1981","11","10","03:00","-5.5","","-6.5","","93","","","","0","","25.0","","100.95","","","","","","Clear"
"1981-11-10 04:00","1981","11","10","04:00","-6.2","","-7.1","","93","","36","","4","","25.0","","100.89","","","","-8","","Clear"
"1981-11-10 05:00","1981","11","10","05:00","-6.4","","-7.3","","93","","30","","6","","25.0","","100.89","","","","-9","","Clear"
"1981-11-10 06:00","1981","11","10","06:00","-6.0","","-7.1","","92","","33","","6","","25.0","","100.85","","","","-9","","Clear"
"1981-11-10 07:00","1981","11","10","07:00","-6.0","","-7.4","","90","","35","","6","","32.2","","100.85","","","","-9","","Mainly Clear"
"1981-11-10 08:00","1981","11","10","08:00","-5.1","","-5.9","","94","","4","","2","","32.2","","100.79","","","","-6","","Mainly Clear"
"1981-11-10 09:00","1981","11","10","09:00","-2.7","","-4.2","","89","","","","0","","16.1","","100.79","","","","","","Mostly Cloudy"
"1981-11-10 10:00","1981","11","10","10:00","0.8","","-1.0","","88","","16","","7","","19.3","","100.69","","","","","","Cloudy"
"1981-11-10 11:00","1981","11","10","11:00","1.8","","-3.2","","69","","16","","11","","24.1","","100.59","","","","","","Cloudy"
"1981-11-10 12:00","1981","11","10","12:00","2.7","","-4.6","","58","","16","","11","","32.2","","100.46","","","","","","Cloudy"
"1981-11-10 13:00","1981","11","10","13:00","3.4","","-4.5","","56","","16","","9","","32.2","","100.32","","","","","","Cloudy"
"1981-11-10 14:00","1981","11","10","14:00","2.9","","-4.5","","58","","17","","15","","32.2","","100.16","","","","","","Cloudy"
"1981-11-10 15:00","1981","11","10","15:00","3.4","","-5.2","","53","","16","","15","","32.2","","100.16","","","","","","Cloudy"
"1981-11-10 16:00","1981","11","10","16:00","3.3","","-5.2","","54","","16","","13","","32.2","","100.09","","","","","","Cloudy"
"1981-11-10 17:00","1981","11","10","17:00","3.0","","-5.2","","55","","17","","13","","25.0","","99.99","","","","","","Cloudy"
"1981-11-10 18:00","1981","11","10","18:00","2.7","","-3.9","","62","","19","","15","","25.0","","99.99","","","","","","Cloudy"
"1981-11-10 19:00","1981","11","10","19:00","2.6","","-3.9","","62","","16","","11","","25.0","","99.89","","","","","","Cloudy"
"1981-11-10 20:00","1981","11","10","20:00","2.8","","-3.8","","62","","20","","9","","25.0","","99.89","","","","","","Cloudy"
"1981-11-10 21:00","1981","11","10","21:00","2.8","","-3.8","","62","","19","","7","","25.0","","99.86","","","","","","Cloudy"
"1981-11-10 22:00","1981","11","10","22:00","2.6","","-3.9","","62","","","","0","","25.0","","99.86","","","","","","Cloudy"
"1981-11-10 23:00","1981","11","10","23:00","2.4","","-3.2","","66","","","","0","","19.3","","99.82","","","","","","Cloudy"
"1981-11-11 00:00","1981","11","11","00:00","2.6","","-0.9","","78","","18","","6","","19.3","","99.76","","","","","","Cloudy"
"1981-11-11 01:00","1981","11","11","01:00","2.2","","-0.4","","83","","19","","7","","19.3","","99.72","","","","","","Mostly Cloudy"
"1981-11-11 02:00","1981","11","11","02:00","2.4","","0.1","","85","","23","","9","","25.0","","99.69","","","","","","Cloudy"
"1981-11-11 03:00","1981","11","11","03:00","2.3","","0.1","","86","","24","","15","","25.0","","99.69","","","","","","Mostly Cloudy"
"1981-11-11 04:00","1981","11","11","04:00","2.8","","0.2","","83","","24","","13","","25.0","","99.69","","","","","","Cloudy"
"1981-11-11 05:00","1981","11","11","05:00","4.2","","1.6","","83","","26","","11","","25.0","","99.76","","","","","","Cloudy"
"1981-11-11 06:00","1981","11","11","06:00","3.6","","-0.3","","76","","26","","13","","25.0","","99.79","","","","","","Mostly Cloudy"
"1981-11-11 07:00","1981","11","11","07:00","3.9","","-0.3","","74","","26","","15","","16.1","","99.86","","","","","","Cloudy"
"1981-11-11 08:00","1981","11","11","08:00","3.6","","0.7","","81","","26","","13","","12.9","","99.89","","","","","","Mostly Cloudy"
"1981-11-11 09:00","1981","11","11","09:00","4.5","","1.3","","80","","28","","20","","16.1","","99.96","","","","","","Mostly Cloudy"
"1981-11-11 10:00","1981","11","11","10:00","5.5","","2.0","","78","","29","","24","","32.2","","99.99","","","","","","Mostly Cloudy"
"1981-11-11 11:00","1981","11","11","11:00","5.9","","0.0","","66","","29","","30","","40.2","","100.02","","","","","","Mostly Cloudy"
"1981-11-11 12:00","1981","11","11","12:00","5.9","","-1.1","","61","","28","","31","","40.2","","100.02","","","","","","Mainly Clear"
"1981-11-11 13:00","1981","11","11","13:00","6.5","","-0.5","","61","","29","","28","","40.2","","99.99","","","","","","Mostly Cloudy"
"1981-11-11 14:00","1981","11","11","14:00","5.6","","-0.6","","64","","30","","30","","40.2","","100.06","","","","","","Mostly Cloudy"
"1981-11-11 15:00","1981","11","11","15:00","4.6","","-1.9","","63","","29","","28","","40.2","","100.16","","","","","","Mostly Cloudy"
"1981-11-11 16:00","1981","11","11","16:00","3.8","","-1.9","","66","","31","","24","","40.2","","100.19","","","","","","Mostly Cloudy"
"1981-11-11 17:00","1981","11","11","17:00","2.2","","-3.2","","67","","31","","22","","40.2","","100.32","","","","","","Mainly Clear"
"1981-11-11 18:00","1981","11","11","18:00","0.5","","-3.7","","73","","32","","19","","25.0","","100.39","","","","","","Mainly Clear"
"1981-11-11 19:00","1981","11","11","19:00","0.2","","-5.0","","68","","32","","20","","25.0","","100.49","","","","","","Mainly Clear"
"1981-11-11 20:00","1981","11","11","20:00","0.3","","-4.9","","68","","30","","17","","25.0","","100.52","","","","","","Mostly Cloudy"
"1981-11-11 21:00","1981","11","11","21:00","0.0","","-5.3","","67","","31","","13","","25.0","","100.56","","","","-4","","Mostly Cloudy"
"1981-11-11 22:00","1981","11","11","22:00","-1.0","","-5.7","","70","","31","","13","","25.0","","100.59","","","","-5","","Mainly Clear"
"1981-11-11 23:00","1981","11","11","23:00","-2.1","","-6.4","","72","","35","","11","","25.0","","100.62","","","","-6","","Mainly Clear"
"1981-11-12 00:00","1981","11","12","00:00","-1.6","","-5.1","","77","","2","","9","","25.0","","100.69","","","","-5","","Mainly Clear"
"1981-11-12 01:00","1981","11","12","01:00","-2.3","","-5.4","","79","","2","","7","","25.0","","100.69","","","","-5","","Mostly Cloudy"
"1981-11-12 02:00","1981","11","12","02:00","-2.0","","-6.0","","74","","36","","6","","25.0","","100.79","","","","-4","","Mostly Cloudy"
"1981-11-12 03:00","1981","11","12","03:00","-3.7","","-6.7","","80","","36","","7","","25.0","","100.82","","","","-7","","Mainly Clear"
"1981-11-12 04:00","1981","11","12","04:00","-3.5","","-7.0","","77","","35","","6","","25.0","","100.85","","","","-6","","Mostly Cloudy"
"1981-11-12 05:00","1981","11","12","05:00","-3.5","","-7.0","","77","","35","","6","","25.0","","100.85","","","","-6","","Mostly Cloudy"
"1981-11-12 06:00","1981","11","12","06:00","-3.0","","-6.4","","77","","2","","4","","25.0","","100.99","","","","-5","","Cloudy"
"1981-11-12 07:00","1981","11","12","07:00","-3.5","","-7.0","","77","","","","0","","25.0","","101.02","","","","","","Mainly Clear"
"1981-11-12 08:00","1981","11","12","08:00","-3.5","","-6.3","","81","","","","0","","32.2","","101.09","","","","","","Mainly Clear"
"1981-11-12 09:00","1981","11","12","09:00","-1.8","","-7.0","","67","","4","","4","","40.2","","101.12","","","","-3","","Clear"
"1981-11-12 10:00","1981","11","12","10:00","-1.0","","-7.0","","64","","","","0","","40.2","","101.12","","","","","","Clear"
"1981-11-12 11:00","1981","11","12","11:00","-0.4","","-6.5","","63","","28","","2","","40.2","","101.12","","","","-1","","Clear"
"1981-11-12 12:00","1981","11","12","12:00","0.8","","-6.9","","56","","","","0","","32.2","","101.09","","","","","","Clear"
"1981-11-12 13:00","1981","11","12","13:00","1.3","","-6.1","","58","","22","","2","","32.2","","101.05","","","","","","Mainly Clear"
"1981-11-12 14:00","1981","11","12","14:00","2.0","","-6.0","","55","","","","0","","32.2","","100.99","","","","","","Mainly Clear"
"1981-11-12 15:00","1981","11","12","15:00","2.3","","-5.2","","58","","13","","7","","24.1","","100.92","","","","","","Clear"
"1981-11-12 16:00","1981","11","12","16:00","1.4","","-5.4","","61","","13","","7","","32.2","","100.95","","","","","","Clear"
"1981-11-12 17:00","1981","11","12","17:00","0.1","","-4.5","","71","","15","","7","","32.2","","100.92","","","","","","Clear"
"1981-11-12 18:00","1981","11","12","18:00","-0.7","","-4.1","","78","","16","","6","","25.0","","100.89","","","","-3","","Clear"
"1981-11-12 19:00","1981","11","12","19:00","-0.5","","-4.1","","76","","18","","4","","25.0","","100.89","","","","-2","","Clear"
"1981-11-12 20:00","1981","11","12","20:00","-2.9","","-4.8","","87","","","","0","","25.0","","100.89","","","","","","Clear"
"1981-11-12 21:00","1981","11","12","21:00","-3.0","","-4.5","","89","","","","0","","25.0","","100.92","","","","","","Clear"
"1981-11-12 22:00","1981","11","12","22:00","-2.5","","-5.1","","82","","","","0","","25.0","","100.92","","","","","","Clear"
"1981-11-12 23:00","1981","11","12","23:00","-2.7","","-4.5","","88","","","","0","","25.0","","100.89","","","","","","Clear"
"1981-11-13 00:00","1981","11","13","00:00","-3.5","","-4.8","","91","","","","0","","25.0","","100.85","","","","","","Clear"
"1981-11-13 01:00","1981","11","13","01:00","-3.7","","-4.2","","96","","","","0","","25.0","","100.85","","","","","","Clear"
"1981-11-13 02:00","1981","11","13","02:00","-3.8","","-5.4","","89","","","","0","","25.0","","100.85","","","","","","Mainly Clear"
"1981-11-13 03:00","1981","11","13","03:00","-4.1","","-5.4","","91","","","","0","","25.0","","100.82","","","","","","Clear"
"1981-11-13 04:00","1981","11","13","04:00","-4.4","","-5.7","","90","","","","0","","25.0","","100.82","","","","","","Clear"
"1981-11-13 05:00","1981","11","13","05:00","-4.4","","-5.7","","90","","","","0","","25.0","","100.82","","","","","","Clear"
"1981-11-13 06:00","1981","11","13","06:00","-4.5","","-6.0","","89","","","","0","","25.0","","100.82","","","","","","Clear"
"1981-11-13 07:00","1981","11","13","07:00","-4.6","","-6.0","","90","","","","0","","24.1","","100.85","","","","","","Clear"
"1981-11-13 08:00","1981","11","13","08:00","-2.5","","-4.8","","84","","24","","2","","24.1","","100.89","","","","-3","","Mostly Cloudy"
"1981-11-13 09:00","1981","11","13","09:00","0.0","","-2.6","","83","","24","","2","","24.1","","100.92","","","","-1","","Mostly Cloudy"
"1981-11-13 10:00","1981","11","13","10:00","3.2","","-2.6","","65","","25","","4","","24.1","","100.92","","","","","","Mainly Clear"
"1981-11-13 11:00","1981","11","13","11:00","5.7","","-1.8","","58","","22","","4","","24.1","","100.92","","","","","","Mainly Clear"
"1981-11-13 12:00","1981","11","13","12:00","7.5","","-2.1","","50","","22","","6","","32.2","","100.85","","","","","","Mainly Clear"
"1981-11-13 13:00","1981","11","13","13:00","9.0","","-1.8","","47","","21","","6","","32.2","","100.79","","","","","","Mostly Cloudy"
"1981-11-13 14:00","1981","11","13","14:00","10.0","","-1.5","","45","","24","","6","","32.2","","100.76","","","","","","Mostly Cloudy"
"1981-11-13 15:00","1981","11","13","15:00","10.2","","0.3","","50","","14","","4","","24.1","","100.72","","","","","","Mainly Clear"
"1981-11-13 16:00","1981","11","13","16:00","8.5","","2.0","","64","","14","","6","","24.1","","100.72","","","","","","Mainly Clear"
"1981-11-13 17:00","1981","11","13","17:00","6.5","","1.6","","71","","13","","7","","19.3","","100.72","","","","","","Mostly Cloudy"
"1981-11-13 18:00","1981","11","13","18:00","5.5","","4.2","","91","","14","","6","","19.3","","100.76","","","","","","Mostly Cloudy"
"1981-11-13 19:00","1981","11","13","19:00","5.2","","2.4","","82","","17","","4","","19.3","","100.76","","","","","","Mainly Clear"
"1981-11-13 20:00","1981","11","13","20:00","3.0","","0.7","","85","","","","0","","19.3","","100.76","","","","","","Mainly Clear"
"1981-11-13 21:00","1981","11","13","21:00","1.0","","-0.5","","90","","","","0","","19.3","","100.69","","","","","","Mainly Clear"
"1981-11-13 22:00","1981","11","13","22:00","2.0","","0.6","","90","","","","0","","24.1","","100.69","","","","","","Mainly Clear"
"1981-11-13 23:00","1981","11","13","23:00","-0.6","","-1.6","","93","","33","","2","","24.1","","100.66","","","","-1","","Mainly Clear"
"1981-11-14 00:00","1981","11","14","00:00","-1.3","","-2.5","","91","","32","","4","","16.1","","100.66","","","","-3","","Mainly Clear"
"1981-11-14 01:00","1981","11","14","01:00","-1.0","","-1.6","","96","","34","","4","","16.1","","100.62","","","","-2","","Mainly Clear"
"1981-11-14 02:00","1981","11","14","02:00","-1.2","","-1.6","","97","","34","","7","","12.9","","100.59","","","","-4","","Mainly Clear"
"1981-11-14 03:00","1981","11","14","03:00","-1.8","","-3.1","","91","","33","","6","","12.9","","100.59","","","","-4","","Clear"
"1981-11-14 04:00","1981","11","14","04:00","-1.6","","-2.2","","96","","33","","6","","12.9","","100.56","","","","-4","","Clear"
"1981-11-14 05:00","1981","11","14","05:00","-1.9","","-3.1","","91","","31","","2","","12.9","","100.59","","","","-3","","Clear"
"1981-11-14 06:00","1981","11","14","06:00","-2.1","","-3.3","","92","","","","0","","12.9","","100.59","","","","","","Clear"
"1981-11-14 07:00","1981","11","14","07:00","-2.6","","-3.9","","91","","","","0","","4.8","","100.59","","","","","","Fog"
"1981-11-14 08:00","1981","11","14","08:00","-2.4","","-3.7","","91","","34","","2","","16.1","","100.62","","","","-3","","Mostly Cloudy"
"1981-11-14 09:00","1981","11","14","09:00","0.7","","-1.4","","86","","33","","4","","2.4","","100.62","","","","","","Fog"
"1981-11-14 10:00","1981","11","14","10:00","4.0","","2.7","","91","","35","","4","","9.7","","100.66","","","","","","Fog"
"1981-11-14 11:00","1981","11","14","11:00","7.1","","2.7","","74","","","","0","","12.9","","100.56","","","","","","Mainly Clear"
"1981-11-14 12:00","1981","11","14","12:00","9.0","","1.7","","60","","8","","2","","16.1","","100.46","","","","","","Mainly Clear"
"1981-11-14 13:00","1981","11","14","13:00","10.8","","2.7","","57","","12","","2","","16.1","","100.36","","","","","","Mainly Clear"
"1981-11-14 14:00","1981","11","14","14:00","12.0","","3.0","","54","","16","","4","","12.9","","100.29","","","","","","Mainly Clear"
"1981-11-14 15:00","1981","11","14","15:00","11.0","","1.1","","50","","13","","4","","12.9","","100.22","","","","","","Mainly Clear"
"1981-11-14 16:00","1981","11","14","16:00","10.1","","0.8","","52","","15","","4","","19.3","","100.22","","","","","","Mainly Clear"
"1981-11-14 17:00","1981","11","14","17:00","8.0","","1.4","","63","","15","","4","","19.3","","100.19","","","","","","Mostly Cloudy"
"1981-11-14 18:00","1981","11","14","18:00","6.5","","1.1","","68","","","","0","","25.0","","100.19","","","","","","Mainly Clear"
"1981-11-14 19:00","1981","11","14","19:00","4.0","","0.8","","79","","","","0","","25.0","","100.16","","","","","","Mainly Clear"
"1981-11-14 20:00","1981","11","14","20:00","2.0","","-0.4","","84","","30","","4","","25.0","","100.09","","","","","","Mainly Clear"
"1981-11-14 21:00","1981","11","14","21:00","2.8","","0.7","","86","","","","0","","25.0","","100.06","","","","","","Mainly Clear"
"1981-11-14 22:00","1981","11","14","22:00","0.5","","-0.9","","90","","31","","4","","16.1","","100.02","","","","","","Mostly Cloudy"
"1981-11-14 23:00","1981","11","14","23:00","0.4","","-0.8","","92","","33","","7","","16.1","","99.99","","","","","","Mostly Cloudy"
"1981-11-15 00:00","1981","11","15","00:00","0.3","","-1.2","","90","","33","","6","","16.1","","99.92","","","","","","Mostly Cloudy"
"1981-11-15 01:00","1981","11","15","01:00","0.3","","-1.2","","90","","32","","7","","19.3","","99.89","","","","","","Mostly Cloudy"
"1981-11-15 02:00","1981","11","15","02:00","1.6","","-1.5","","80","","34","","7","","19.3","","99.86","","","","","","Mostly Cloudy"
"1981-11-15 03:00","1981","11","15","03:00","0.6","","-1.4","","86","","33","","7","","25.0","","99.86","","","","","","Mostly Cloudy"
"1981-11-15 04:00","1981","11","15","04:00","1.4","","-1.5","","81","","34","","9","","25.0","","99.76","","","","","","Mostly Cloudy"
"1981-11-15 05:00","1981","11","15","05:00","0.8","","-1.9","","82","","34","","7","","25.0","","99.76","","","","","","Mostly Cloudy"
"1981-11-15 06:00","1981","11","15","06:00","0.6","","-2.5","","80","","34","","9","","25.0","","99.76","","","","","","Mainly Clear"
"1981-11-15 07:00","1981","11","15","07:00","0.2","","-2.3","","83","","34","","11","","25.0","","99.76","","","","","","Mainly Clear"
"1981-11-15 08:00","1981","11","15","08:00","1.1","","-2.4","","77","","34","","11","","32.2","","99.69","","","","","","Mainly Clear"
"1981-11-15 09:00","1981","11","15","09:00","3.1","","-1.5","","72","","34","","11","","32.2","","99.69","","","","","","Mainly Clear"
"1981-11-15 10:00","1981","11","15","10:00","6.8","","0.7","","65","","33","","7","","24.1","","99.69","","","","","","Mainly Clear"
"1981-11-15 11:00","1981","11","15","11:00","10.3","","1.0","","53","","35","","6","","24.1","","99.62","","","","","","Mainly Clear"
"1981-11-15 12:00","1981","11","15","12:00","13.5","","1.4","","44","","3","","6","","24.1","","99.52","","","","","","Mainly Clear"
"1981-11-15 13:00","1981","11","15","13:00","13.6","","0.2","","40","","12","","6","","24.1","","99.46","","","","","","Mainly Clear"
"1981-11-15 14:00","1981","11","15","14:00","14.5","","0.0","","37","","18","","4","","24.1","","99.42","","","","","","Mainly Clear"
"1981-11-15 15:00","1981","11","15","15:00","15.1","","-0.5","","34","","3","","4","","24.1","","99.39","","","","","","Mostly Cloudy"
"1981-11-15 16:00","1981","11","15","16:00","14.5","","0.0","","37","","1","","7","","24.1","","99.32","","","","","","Mostly Cloudy"
"1981-11-15 17:00","1981","11","15","17:00","12.6","","0.4","","43","","36","","11","","24.1","","99.29","","","","","","Mostly Cloudy"
"1981-11-15 18:00","1981","11","15","18:00","11.3","","1.3","","50","","36","","7","","24.1","","99.32","","","","","","Mostly Cloudy"
"1981-11-15 19:00","1981","11","15","19:00","10.4","","1.0","","52","","36","","11","","25.0","","99.32","","","","","","Cloudy"
"1981-11-15 20:00","1981","11","15","20:00","7.5","","1.8","","67","","33","","7","","25.0","","99.29","","","","","","Cloudy"
"1981-11-15 21:00","1981","11","15","21:00","9.0","","0.0","","53","","34","","11","","25.0","","99.26","","","","","","Cloudy"
"1981-11-15 22:00","1981","11","15","22:00","7.5","","1.3","","65","","34","","11","","25.0","","99.22","","","","","","Cloudy"
"1981-11-15 23:00","1981","11","15","23:00","6.7","","1.1","","67","","33","","11","","25.0","","99.19","","","","","","Cloudy"
"1981-11-16 00:00","1981","11","16","00:00","7.3","","1.3","","66","","34","","11","","25.0","","99.16","","","","","","Cloudy"
"1981-11-16 01:00","1981","11","16","01:00","7.1","","1.2","","66","","34","","11","","25.0","","99.12","","","","","","Cloudy"
"1981-11-16 02:00","1981","11","16","02:00","7.2","","1.2","","66","","34","","11","","25.0","","99.09","","","","","","Cloudy"
"1981-11-16 03:00","1981","11","16","03:00","6.9","","2.2","","72","","33","","11","","24.1","","99.06","","","","","","Rain Showers"
"1981-11-16 04:00","1981","11","16","04:00","7.5","","0.8","","62","","34","","9","","24.1","","98.99","","","","","","Rain"
"1981-11-16 05:00","1981","11","16","05:00","6.5","","2.6","","76","","33","","11","","16.1","","98.96","","","","","","Rain"
"1981-11-16 06:00","1981","11","16","06:00","5.7","","3.8","","87","","34","","13","","9.7","","98.96","","","","","","Moderate Rain,Fog"
"1981-11-16 07:00","1981","11","16","07:00","5.3","","4.7","","96","","33","","17","","8.0","","98.92","","","","","","Moderate Rain,Fog"
"1981-11-16 08:00","1981","11","16","08:00","5.3","","4.7","","96","","32","","15","","12.9","","98.92","","","","","","Moderate Rain"
"1981-11-16 09:00","1981","11","16","09:00","6.1","","4.8","","91","","31","","24","","11.3","","98.86","","","","","","Moderate Rain"
"1981-11-16 10:00","1981","11","16","10:00","6.7","","5.3","","90","","33","","13","","9.7","","98.86","","","","","","Rain,Fog"
"1981-11-16 11:00","1981","11","16","11:00","6.7","","6.1","","96","","34","","13","","6.4","","98.89","","","","","","Moderate Rain,Fog"
"1981-11-16 12:00","1981","11","16","12:00","7.2","","5.8","","91","","34","","15","","12.9","","98.72","","","","","","Rain"
"1981-11-16 13:00","1981","11","16","13:00","7.5","","5.5","","87","","35","","15","","19.3","","98.66","","","","","","Rain"
"1981-11-16 14:00","1981","11","16","14:00","8.0","","6.0","","87","","34","","15","","24.1","","98.59","","","","","","Rain"
"1981-11-16 15:00","1981","11","16","15:00","8.0","","6.4","","90","","35","","13","","19.3","","98.59","","","","","","Rain"
"1981-11-16 16:00","1981","11","16","16:00","7.7","","5.5","","86","","1","","15","","19.3","","98.59","","","","","","Cloudy"
"1981-11-16 17:00","1981","11","16","17:00","7.5","","5.9","","90","","34","","11","","19.3","","98.59","","","","","","Cloudy"
"1981-11-16 18:00","1981","11","16","18:00","7.1","","6.2","","94","","34","","13","","11.3","","98.56","","","","","","Drizzle"
"1981-11-16 19:00","1981","11","16","19:00","7.0","","5.0","","87","","34","","13","","19.3","","98.52","","","","","","Cloudy"
"1981-11-16 20:00","1981","11","16","20:00","6.8","","5.4","","91","","36","","11","","12.9","","98.52","","","","","","Cloudy"
"1981-11-16 21:00","1981","11","16","21:00","6.2","","5.2","","93","","36","","11","","8.0","","98.52","","","","","","Rain,Fog"
"1981-11-16 22:00","1981","11","16","22:00","6.1","","5.6","","97","","33","","9","","6.4","","98.46","","","","","","Drizzle,Fog"
"1981-11-16 23:00","1981","11","16","23:00","5.9","","5.6","","98","","32","","9","","6.4","","98.46","","","","","","Rain,Fog"
"1981-11-17 00:00","1981","11","17","00:00","5.6","","5.1","","97","","32","","11","","8.0","","98.39","","","","","","Rain,Fog"
"1981-11-17 01:00","1981","11","17","01:00","5.6","","5.1","","97","","32","","13","","8.0","","98.39","","","","","","Rain,Fog"
"1981-11-17 02:00","1981","11","17","02:00","5.8","","5.6","","99","","33","","15","","9.7","","98.36","","","","","","Rain,Fog"
"1981-11-17 03:00","1981","11","17","03:00","5.9","","5.2","","95","","32","","15","","16.1","","98.36","","","","","","Cloudy"
"1981-11-17 04:00","1981","11","17","04:00","6.0","","5.2","","95","","32","","15","","12.9","","98.32","","","","","","Rain Showers"
"1981-11-17 05:00","1981","11","17","05:00","6.0","","5.2","","95","","32","","15","","16.1","","98.36","","","","","","Cloudy"
"1981-11-17 06:00","1981","11","17","06:00","6.0","","4.8","","92","","32","","15","","16.1","","98.36","","","","","","Cloudy"
"1981-11-17 07:00","1981","11","17","07:00","5.9","","5.2","","95","","33","","17","","19.3","","98.39","","","","","","Cloudy"
"1981-11-17 08:00","1981","11","17","08:00","6.0","","4.8","","92","","33","","19","","16.1","","98.39","","","","","","Cloudy"
"1981-11-17 09:00","1981","11","17","09:00","6.1","","4.8","","91","","33","","17","","16.1","","98.39","","","","","","Cloudy"
"1981-11-17 10:00","1981","11","17","10:00","6.5","","4.4","","86","","32","","17","","17.7","","98.39","","","","","","Cloudy"
"1981-11-17 11:00","1981","11","17","11:00","7.0","","4.5","","84","","32","","13","","16.1","","98.36","","","","","","Cloudy"
"1981-11-17 12:00","1981","11","17","12:00","6.7","","4.9","","88","","32","","13","","19.3","","98.32","","","","","","Cloudy"
"1981-11-17 13:00","1981","11","17","13:00","6.5","","5.7","","95","","31","","9","","4.0","","98.36","","","","","","Drizzle,Fog"
"1981-11-17 14:00","1981","11","17","14:00","6.7","","6.1","","96","","32","","13","","4.0","","98.29","","","","","","Drizzle,Fog"
"1981-11-17 15:00","1981","11","17","15:00","6.9","","6.2","","96","","32","","13","","4.0","","98.29","","","","","","Drizzle,Fog"
"1981-11-17 16:00","1981","11","17","16:00","6.4","","5.7","","95","","33","","15","","6.4","","98.26","","","","","","Drizzle,Fog"
"1981-11-17 17:00","1981","11","17","17:00","6.3","","5.7","","96","","32","","11","","12.9","","98.29","","","","","","Drizzle"
"1981-11-17 18:00","1981","11","17","18:00","6.5","","4.4","","86","","31","","15","","12.9","","98.29","","","","","","Cloudy"
"1981-11-17 19:00","1981","11","17","19:00","6.2","","4.3","","87","","32","","9","","12.9","","98.32","","","","","","Cloudy"
"1981-11-17 20:00","1981","11","17","20:00","6.3","","4.4","","88","","31","","7","","11.3","","98.36","","","","","","Drizzle"
"1981-11-17 21:00","1981","11","17","21:00","6.2","","3.9","","85","","31","","11","","12.9","","98.36","","","","","","Cloudy"
"1981-11-17 22:00","1981","11","17","22:00","6.2","","3.9","","85","","29","","11","","16.1","","98.36","","","","","","Drizzle"
"1981-11-17 23:00","1981","11","17","23:00","6.0","","4.8","","92","","28","","9","","16.1","","98.32","","","","","","Rain,Drizzle"
"1981-11-18 00:00","1981","11","18","00:00","6.8","","5.0","","88","","30","","17","","25.0","","98.29","","","","","","Cloudy"
"1981-11-18 01:00","1981","11","18","01:00","6.7","","4.4","","85","","28","","13","","25.0","","98.29","","","","","","Mostly Cloudy"
"1981-11-18 02:00","1981","11","18","02:00","7.0","","5.0","","87","","28","","13","","25.0","","98.29","","","","","","Mostly Cloudy"
"1981-11-18 03:00","1981","11","18","03:00","7.1","","4.5","","83","","30","","17","","25.0","","98.29","","","","","","Cloudy"
"1981-11-18 04:00","1981","11","18","04:00","7.0","","5.0","","87","","28","","17","","25.0","","98.29","","","","","","Cloudy"
"1981-11-18 05:00","1981","11","18","05:00","6.6","","4.4","","86","","27","","20","","25.0","","98.36","","","","","","Cloudy"
"1981-11-18 06:00","1981","11","18","06:00","6.4","","4.4","","87","","28","","22","","25.0","","98.39","","","","","","Cloudy"
"1981-11-18 07:00","1981","11","18","07:00","6.3","","4.4","","88","","28","","20","","24.1","","98.46","","","","","","Cloudy"
"1981-11-18 08:00","1981","11","18","08:00","6.2","","4.3","","87","","27","","19","","24.1","","98.49","","","","","","Cloudy"
"1981-11-18 09:00","1981","11","18","09:00","6.2","","4.3","","87","","27","","19","","24.1","","98.49","","","","","","Cloudy"
"1981-11-18 10:00","1981","11","18","10:00","6.5","","4.4","","86","","27","","22","","24.1","","98.52","","","","","","Cloudy"
"1981-11-18 11:00","1981","11","18","11:00","6.8","","5.0","","88","","27","","20","","24.1","","98.52","","","","","","Cloudy"
"1981-11-18 12:00","1981","11","18","12:00","6.8","","5.4","","91","","27","","19","","16.1","","98.52","","","","","","Drizzle"
"1981-11-18 13:00","1981","11","18","13:00","7.3","","5.5","","88","","28","","24","","24.1","","98.52","","","","","","Cloudy"
"1981-11-18 14:00","1981","11","18","14:00","7.4","","4.6","","83","","29","","24","","24.1","","98.56","","","","","","Cloudy"
"1981-11-18 15:00","1981","11","18","15:00","7.8","","4.3","","79","","29","","20","","24.1","","98.59","","","","","","Mostly Cloudy"
"1981-11-18 16:00","1981","11","18","16:00","7.4","","4.2","","80","","27","","19","","24.1","","98.69","","","","","","Cloudy"
"1981-11-18 17:00","1981","11","18","17:00","7.2","","4.2","","81","","28","","22","","24.1","","98.76","","","","","","Cloudy"
"1981-11-18 18:00","1981","11","18","18:00","6.6","","3.5","","80","","28","","19","","24.1","","98.79","","","","","","Cloudy"
"1981-11-18 19:00","1981","11","18","19:00","6.2","","3.0","","80","","28","","19","","24.1","","98.86","","","","","","Drizzle"
"1981-11-18 20:00","1981","11","18","20:00","5.8","","3.4","","85","","27","","20","","24.1","","98.89","","","","","","Drizzle"
"1981-11-18 21:00","1981","11","18","21:00","4.8","","2.4","","84","","27","","19","","24.1","","98.89","","","","","","Mostly Cloudy"
"1981-11-18 22:00","1981","11","18","22:00","4.8","","2.4","","84","","28","","20","","24.1","","98.92","","","","","","Drizzle"
"1981-11-18 23:00","1981","11","18","23:00","4.1","","1.3","","82","","28","","11","","24.1","","98.92","","","","","","Mostly Cloudy"
"1981-11-19 00:00","1981","11","19","00:00","4.0","","1.7","","85","","36","","11","","25.0","","98.96","","","","","","Mostly Cloudy"
"1981-11-19 01:00","1981","11","19","01:00","4.2","","1.3","","81","","26","","11","","25.0","","98.96","","","","","","Mostly Cloudy"
"1981-11-19 02:00","1981","11","19","02:00","4.1","","2.2","","87","","25","","7","","25.0","","98.99","","","","","","Mostly Cloudy"
"1981-11-19 03:00","1981","11","19","03:00","4.0","","1.7","","85","","31","","9","","25.0","","98.99","","","","","","Mostly Cloudy"
"1981-11-19 04:00","1981","11","19","04:00","3.5","","1.2","","85","","27","","7","","25.0","","98.99","","","","","","Mostly Cloudy"
"1981-11-19 05:00","1981","11","19","05:00","3.6","","0.2","","78","","25","","7","","25.0","","98.99","","","","","","Mostly Cloudy"
"1981-11-19 06:00","1981","11","19","06:00","3.2","","0.7","","84","","23","","2","","25.0","","98.96","","","","","","Mostly Cloudy"
"1981-11-19 07:00","1981","11","19","07:00","3.2","","0.7","","84","","","","0","","25.0","","98.96","","","","","","Mostly Cloudy"
"1981-11-19 08:00","1981","11","19","08:00","3.1","","1.6","","90","","30","","4","","24.1","","98.96","","","","","","Cloudy"
"1981-11-19 09:00","1981","11","19","09:00","3.5","","1.7","","88","","","","0","","24.1","","98.99","","","","","","Cloudy"
"1981-11-19 10:00","1981","11","19","10:00","4.0","","1.7","","85","","35","","7","","24.1","","98.99","","","","","","Cloudy"
"1981-11-19 11:00","1981","11","19","11:00","3.9","","2.2","","89","","36","","9","","16.1","","98.99","","","","","","Rain"
"1981-11-19 12:00","1981","11","19","12:00","3.7","","1.7","","87","","3","","6","","19.3","","98.92","","","","","","Cloudy"
"1981-11-19 13:00","1981","11","19","13:00","3.7","","1.7","","87","","4","","6","","16.1","","98.86","","","","","","Rain"
"1981-11-19 14:00","1981","11","19","14:00","3.0","","2.6","","97","","1","","9","","11.3","","98.79","","","","","","Rain"
"1981-11-19 15:00","1981","11","19","15:00","2.8","","2.1","","95","","3","","7","","8.0","","98.79","","","","","","Rain,Fog"
"1981-11-19 16:00","1981","11","19","16:00","2.9","","2.1","","95","","7","","7","","8.0","","98.72","","","","","","Fog"
"1981-11-19 17:00","1981","11","19","17:00","3.0","","2.1","","94","","7","","9","","6.4","","98.76","","","","","","Fog"
"1981-11-19 18:00","1981","11","19","18:00","3.1","","2.1","","93","","6","","9","","8.0","","98.76","","","","","","Fog"
"1981-11-19 19:00","1981","11","19","19:00","3.0","","1.6","","91","","4","","13","","8.0","","98.72","","","","","","Fog"
"1981-11-19 20:00","1981","11","19","20:00","3.0","","1.6","","91","","5","","13","","8.0","","98.72","","","","","","Fog"
"1981-11-19 21:00","1981","11","19","21:00","3.1","","1.6","","90","","5","","11","","11.3","","98.69","","","","","","Cloudy"
"1981-11-19 22:00","1981","11","19","22:00","3.2","","1.1","","86","","6","","15","","11.3","","98.56","","","","","","Cloudy"
"1981-11-19 23:00","1981","11","19","23:00","3.2","","1.1","","86","","8","","17","","11.3","","98.46","","","","","","Cloudy"
"1981-11-20 00:00","1981","11","20","00:00","3.2","","1.1","","86","","7","","19","","11.3","","98.36","","","","","","Cloudy"
"1981-11-20 01:00","1981","11","20","01:00","3.4","","1.2","","86","","7","","28","","11.3","","98.19","","","","","","Cloudy"
"1981-11-20 02:00","1981","11","20","02:00","3.5","","1.2","","85","","7","","24","","16.1","","97.99","","","","","","Cloudy"
"1981-11-20 03:00","1981","11","20","03:00","3.0","","1.6","","91","","8","","24","","9.7","","97.82","","","","","","Rain Showers"
"1981-11-20 04:00","1981","11","20","04:00","3.0","","1.6","","91","","6","","24","","8.0","","97.79","","","","","","Rain Showers,Fog"
"1981-11-20 05:00","1981","11","20","05:00","2.6","","1.6","","93","","6","","22","","8.0","","97.76","","","","","","Moderate Rain,Fog"
"1981-11-20 06:00","1981","11","20","06:00","2.3","","1.6","","95","","6","","33","","6.4","","97.32","","","","","","Rain,Fog"
"1981-11-20 07:00","1981","11","20","07:00","2.6","","1.6","","93","","8","","22","","12.9","","97.46","","","","","","Mostly Cloudy"
"1981-11-20 08:00","1981","11","20","08:00","2.9","","2.1","","95","","7","","22","","8.0","","97.42","","","","","","Rain,Fog"
"1981-11-20 09:00","1981","11","20","09:00","3.1","","2.6","","97","","6","","13","","8.0","","97.39","","","","","","Drizzle,Fog"
"1981-11-20 10:00","1981","11","20","10:00","3.5","","3.1","","97","","2","","9","","8.0","","97.39","","","","","","Drizzle,Fog"
"1981-11-20 11:00","1981","11","20","11:00","3.6","","3.1","","97","","35","","6","","9.7","","97.36","","","","","","Fog"
"1981-11-20 12:00","1981","11","20","12:00","3.9","","3.6","","98","","31","","7","","8.0","","97.32","","","","","","Fog"
"1981-11-20 13:00","1981","11","20","13:00","3.4","","2.6","","95","","33","","4","","8.0","","97.29","","","","","","Rain,Fog"
"1981-11-20 14:00","1981","11","20","14:00","3.8","","3.6","","99","","","","0","","6.4","","97.32","","","","","","Rain,Fog"
"1981-11-20 15:00","1981","11","20","15:00","4.5","","3.2","","91","","","","0","","24.1","","97.32","","","","","","Rain"
"1981-11-20 16:00","1981","11","20","16:00","4.4","","3.2","","92","","17","","6","","19.3","","97.29","","","","","","Rain"
"1981-11-20 17:00","1981","11","20","17:00","4.0","","3.1","","94","","14","","9","","16.1","","97.26","","","","","","Rain"
"1981-11-20 18:00","1981","11","20","18:00","3.7","","2.6","","92","","11","","11","","16.1","","97.26","","","","","","Rain"
"1981-11-20 19:00","1981","11","20","19:00","4.0","","3.1","","94","","3","","9","","16.1","","97.19","","","","","","Rain"
"1981-11-20 20:00","1981","11","20","20:00","3.8","","3.1","","95","","35","","15","","16.1","","97.19","","","","","","Rain"
"1981-11-20 21:00","1981","11","20","21:00","1.9","","1.5","","97","","33","","22","","16.1","","97.26","","","","","","Rain"
"1981-11-20 22:00","1981","11","20","22:00","1.7","","1.0","","95","","33","","24","","16.1","","97.29","","","","","","Rain"
"1981-11-20 23:00","1981","11","20","23:00","1.4","","1.0","","97","","33","","22","","12.9","","97.29","","","","","","Snow"
"1981-11-21 00:00","1981","11","21","00:00","1.1","","0.5","","96","","33","","22","","9.7","","97.36","","","","","","Snow"
"1981-11-21 01:00","1981","11","21","01:00","1.2","","0.5","","95","","33","","22","","8.0","","97.39","","","","","","Snow"
"1981-11-21 02:00","1981","11","21","02:00","0.9","","0.5","","97","","32","","26","","8.0","","97.46","","","","","","Snow"
"1981-11-21 03:00","1981","11","21","03:00","1.0","","0.0","","93","","33","","33","","9.7","","97.49","","","","","","Snow"
"1981-11-21 04:00","1981","11","21","04:00","1.0","","-0.5","","90","","33","","37","","12.9","","97.59","","","","","","Snow"
"1981-11-21 05:00","1981","11","21","05:00","0.8","","-0.5","","91","","32","","33","","12.9","","97.69","","","","","","Snow"
"1981-11-21 06:00","1981","11","21","06:00","0.6","","-0.9","","90","","34","","33","","12.9","","97.79","","","","","","Cloudy"
"1981-11-21 07:00","1981","11","21","07:00","0.7","","-1.4","","86","","33","","35","","25.0","","97.89","","","","","","Mostly Cloudy"
"1981-11-21 08:00","1981","11","21","08:00","0.5","","-1.4","","87","","32","","30","","25.0","","98.02","","","","","","Cloudy"
"1981-11-21 09:00","1981","11","21","09:00","0.4","","-0.8","","92","","32","","30","","12.9","","98.12","","","","","","Snow"
"1981-11-21 10:00","1981","11","21","10:00","0.8","","-1.0","","88","","31","","33","","16.1","","98.19","","","","","","Snow"
"1981-11-21 11:00","1981","11","21","11:00","1.4","","-1.0","","84","","31","","28","","12.9","","98.26","","","","","","Snow"
"1981-11-21 12:00","1981","11","21","12:00","1.2","","-1.5","","82","","30","","28","","12.9","","98.26","","","","","","Snow"
"1981-11-21 13:00","1981","11","21","13:00","1.6","","-2.1","","76","","31","","31","","16.1","","98.26","","","","","","Cloudy"
"1981-11-21 14:00","1981","11","21","14:00","1.8","","-1.5","","79","","29","","30","","16.1","","98.29","","","","","","Cloudy"
"1981-11-21 15:00","1981","11","21","15:00","1.4","","-2.1","","77","","28","","33","","24.1","","98.36","","","","","","Cloudy"
"1981-11-21 16:00","1981","11","21","16:00","1.0","","-2.4","","78","","28","","30","","24.1","","98.46","","","","","","Mostly Cloudy"
"1981-11-21 17:00","1981","11","21","17:00","0.4","","-2.1","","83","","29","","24","","24.1","","98.49","","","","","","Mostly Cloudy"
"1981-11-21 18:00","1981","11","21","18:00","0.2","","-2.9","","80","","28","","24","","25.0","","98.59","","","","","","Mostly Cloudy"
"1981-11-21 19:00","1981","11","21","19:00","0.4","","-3.2","","77","","28","","22","","25.0","","98.62","","","","","","Mostly Cloudy"
"1981-11-21 20:00","1981","11","21","20:00","0.4","","-3.2","","77","","28","","20","","25.0","","98.66","","","","","","Mostly Cloudy"
"1981-11-21 21:00","1981","11","21","21:00","0.4","","-2.1","","83","","29","","22","","25.0","","98.69","","","","","","Cloudy"
"1981-11-21 22:00","1981","11","21","22:00","0.0","","-1.5","","90","","29","","20","","25.0","","98.69","","","","-5","","Mostly Cloudy"
"1981-11-21 23:00","1981","11","21","23:00","-0.6","","-2.7","","86","","27","","19","","25.0","","98.72","","","","-6","","Mainly Clear"
"1981-11-22 00:00","1981","11","22","00:00","-0.9","","-3.3","","84","","28","","17","","25.0","","98.72","","","","-6","","Mainly Clear"
"1981-11-22 01:00","1981","11","22","01:00","-0.6","","-3.2","","82","","28","","20","","25.0","","98.72","","","","-6","","Mostly Cloudy"
"1981-11-22 02:00","1981","11","22","02:00","-1.3","","-3.9","","82","","28","","19","","25.0","","98.79","","","","-7","","Mainly Clear"
"1981-11-22 03:00","1981","11","22","03:00","-1.6","","-3.9","","84","","31","","15","","25.0","","98.86","","","","-6","","Mainly Clear"
"1981-11-22 04:00","1981","11","22","04:00","-2.5","","-4.2","","88","","30","","6","","25.0","","98.86","","","","-5","","Mainly Clear"
"1981-11-22 05:00","1981","11","22","05:00","-1.5","","-3.6","","85","","29","","7","","25.0","","98.92","","","","-4","","Mainly Clear"
"1981-11-22 06:00","1981","11","22","06:00","-1.7","","-3.0","","91","","27","","9","","25.0","","98.96","","","","-5","","Mainly Clear"
"1981-11-22 07:00","1981","11","22","07:00","-1.8","","-3.1","","91","","26","","7","","25.0","","98.99","","","","-4","","Mostly Cloudy"
"1981-11-22 08:00","1981","11","22","08:00","-1.5","","-3.6","","85","","27","","13","","32.2","","99.06","","","","-6","","Mostly Cloudy"
"1981-11-22 09:00","1981","11","22","09:00","-0.8","","-3.8","","80","","26","","13","","24.1","","99.12","","","","-5","","Snow"
"1981-11-22 10:00","1981","11","22","10:00","-0.3","","-4.1","","75","","28","","17","","24.1","","99.16","","","","-5","","Snow"
"1981-11-22 11:00","1981","11","22","11:00","-0.3","","-4.1","","75","","28","","19","","24.1","","99.16","","","","-5","","Snow"
"1981-11-22 12:00","1981","11","22","12:00","-0.4","","-5.2","","70","","28","","26","","32.2","","99.16","","","","-7","","Snow"
"1981-11-22 13:00","1981","11","22","13:00","-0.3","","-4.4","","74","","31","","22","","32.2","","99.12","","","","-6","","Snow"
"1981-11-22 14:00","1981","11","22","14:00","-0.5","","-3.2","","82","","28","","22","","32.2","","99.12","","","","-6","","Snow"
"1981-11-22 15:00","1981","11","22","15:00","-0.4","","-4.6","","73","","29","","22","","32.2","","99.16","","","","-6","","Cloudy"
"1981-11-22 16:00","1981","11","22","16:00","-0.4","","-4.6","","73","","28","","24","","24.1","","99.19","","","","-6","","Snow Showers"
"1981-11-22 17:00","1981","11","22","17:00","-0.9","","-4.4","","77","","28","","22","","24.1","","99.19","","","","-7","","Cloudy"
"1981-11-22 18:00","1981","11","22","18:00","-1.0","","-4.1","","79","","29","","20","","24.1","","99.29","","","","-7","","Snow Showers"
"1981-11-22 19:00","1981","11","22","19:00","-1.2","","-3.3","","86","","28","","15","","25.0","","99.36","","","","-6","","Cloudy"
"1981-11-22 20:00","1981","11","22","20:00","-1.2","","-4.7","","77","","28","","17","","25.0","","99.39","","","","-6","","Cloudy"
"1981-11-22 21:00","1981","11","22","21:00","-1.1","","-4.1","","80","","26","","13","","25.0","","99.39","","","","-5","","Cloudy"
"1981-11-22 22:00","1981","11","22","22:00","-0.7","","-5.0","","73","","26","","19","","25.0","","99.39","","","","-6","","Mostly Cloudy"
"1981-11-22 23:00","1981","11","22","23:00","-0.5","","-6.0","","66","","27","","26","","25.0","","99.39","","","","-7","","Mostly Cloudy"
"1981-11-23 00:00","1981","11","23","00:00","-0.6","","-4.4","","76","","24","","17","","25.0","","99.42","","","","-6","","Mostly Cloudy"
"1981-11-23 01:00","1981","11","23","01:00","-1.0","","-4.1","","79","","24","","17","","25.0","","99.46","","","","-6","","Mostly Cloudy"
"1981-11-23 02:00","1981","11","23","02:00","-1.0","","-3.8","","81","","24","","13","","25.0","","99.46","","","","-5","","Cloudy"
"1981-11-23 03:00","1981","11","23","03:00","-0.9","","-4.1","","79","","23","","11","","25.0","","99.46","","","","-5","","Cloudy"
"1981-11-23 04:00","1981","11","23","04:00","-0.9","","-3.6","","82","","23","","9","","25.0","","99.46","","","","-4","","Cloudy"
"1981-11-23 05:00","1981","11","23","05:00","-0.9","","-3.8","","81","","23","","11","","25.0","","99.46","","","","-5","","Cloudy"
"1981-11-23 06:00","1981","11","23","06:00","-0.5","","-4.1","","76","","23","","11","","25.0","","99.46","","","","-4","","Cloudy"
"1981-11-23 07:00","1981","11","23","07:00","-0.5","","-2.9","","84","","23","","13","","25.0","","99.49","","","","-5","","Cloudy"
"1981-11-23 08:00","1981","11","23","08:00","-0.5","","-3.8","","78","","23","","15","","40.2","","99.52","","","","-5","","Cloudy"
"1981-11-23 09:00","1981","11","23","09:00","-0.5","","-3.5","","80","","23","","13","","40.2","","99.56","","","","-5","","Cloudy"
"1981-11-23 10:00","1981","11","23","10:00","-0.3","","-3.2","","80","","23","","15","","40.2","","99.59","","","","-5","","Cloudy"
"1981-11-23 11:00","1981","11","23","11:00","0.0","","-3.2","","79","","23","","15","","32.2","","99.59","","","","-4","","Cloudy"
"1981-11-23 12:00","1981","11","23","12:00","0.0","","-3.7","","76","","23","","17","","32.2","","99.56","","","","-5","","Cloudy"
"1981-11-23 13:00","1981","11","23","13:00","0.3","","-3.1","","78","","25","","17","","32.2","","99.49","","","","","","Cloudy"
"1981-11-23 14:00","1981","11","23","14:00","0.3","","-3.6","","75","","23","","17","","32.2","","99.46","","","","","","Cloudy"
"1981-11-23 15:00","1981","11","23","15:00","0.1","","-3.0","","80","","23","","15","","32.2","","99.42","","","","","","Cloudy"
"1981-11-23 16:00","1981","11","23","16:00","-0.1","","-3.6","","77","","24","","19","","24.1","","99.42","","","","-5","","Cloudy"
"1981-11-23 17:00","1981","11","23","17:00","-0.4","","-3.1","","82","","23","","15","","19.3","","99.42","","","","-5","","Cloudy"
"1981-11-23 18:00","1981","11","23","18:00","-0.5","","-2.4","","87","","24","","11","","24.1","","99.46","","","","-4","","Cloudy"
"1981-11-23 19:00","1981","11","23","19:00","-0.5","","-1.8","","91","","23","","11","","25.0","","99.46","","","","-4","","Cloudy"
"1981-11-23 20:00","1981","11","23","20:00","-0.6","","-1.6","","93","","23","","11","","25.0","","99.46","","","","-4","","Cloudy"
"1981-11-23 21:00","1981","11","23","21:00","-0.6","","-2.9","","85","","22","","7","","25.0","","99.46","","","","-3","","Cloudy"
"1981-11-23 22:00","1981","11","23","22:00","-0.6","","-3.5","","81","","23","","11","","25.0","","99.49","","","","-4","","Cloudy"
"1981-11-23 23:00","1981","11","23","23:00","-0.8","","-4.1","","78","","25","","7","","25.0","","99.49","","","","-3","","Cloudy"
"1981-11-24 00:00","1981","11","24","00:00","-1.0","","-3.6","","82","","24","","2","","25.0","","99.49","","","","-2","","Cloudy"
"1981-11-24 01:00","1981","11","24","01:00","-1.0","","-2.7","","88","","23","","2","","25.0","","99.46","","","","-2","","Cloudy"
"1981-11-24 02:00","1981","11","24","02:00","-0.9","","-3.3","","84","","","","0","","25.0","","99.46","","","","","","Cloudy"
"1981-11-24 03:00","1981","11","24","03:00","-1.0","","-3.3","","84","","","","0","","25.0","","99.46","","","","","","Mostly Cloudy"
"1981-11-24 04:00","1981","11","24","04:00","-1.6","","-3.6","","86","","","","0","","25.0","","99.46","","","","","","Mostly Cloudy"
"1981-11-24 05:00","1981","11","24","05:00","-1.6","","-4.2","","82","","","","0","","25.0","","99.39","","","","","","Cloudy"
"1981-11-24 06:00","1981","11","24","06:00","-1.2","","-3.3","","86","","","","0","","25.0","","99.46","","","","","","Cloudy"
"1981-11-24 07:00","1981","11","24","07:00","-1.2","","-3.3","","86","","3","","2","","25.0","","99.46","","","","-2","","Cloudy"
"1981-11-24 08:00","1981","11","24","08:00","-0.8","","-3.3","","83","","2","","4","","19.3","","99.52","","","","-2","","Cloudy"
"1981-11-24 09:00","1981","11","24","09:00","0.0","","-5.3","","67","","35","","7","","24.1","","99.56","","","","-2","","Cloudy"
"1981-11-24 10:00","1981","11","24","10:00","0.0","","-3.7","","76","","35","","11","","24.1","","99.56","","","","-4","","Cloudy"
"1981-11-24 11:00","1981","11","24","11:00","0.6","","-3.7","","73","","36","","9","","32.2","","99.59","","","","","","Mostly Cloudy"
"1981-11-24 12:00","1981","11","24","12:00","0.6","","-3.7","","73","","36","","13","","32.2","","99.56","","","","","","Mostly Cloudy"
"1981-11-24 13:00","1981","11","24","13:00","1.0","","-3.6","","71","","36","","15","","32.2","","99.52","","","","","","Mostly Cloudy"
"1981-11-24 14:00","1981","11","24","14:00","1.4","","-4.1","","67","","36","","22","","40.2","","99.52","","","","","","Mostly Cloudy"
"1981-11-24 15:00","1981","11","24","15:00","0.5","","-4.9","","67","","36","","15","","40.2","","99.56","","","","","","Mainly Clear"
"1981-11-24 16:00","1981","11","24","16:00","-0.1","","-6.4","","62","","36","","17","","32.2","","99.59","","","","-5","","Mainly Clear"
"1981-11-24 17:00","1981","11","24","17:00","-1.4","","-6.7","","67","","36","","17","","32.2","","99.66","","","","-7","","Mainly Clear"
"1981-11-24 18:00","1981","11","24","18:00","-2.0","","-6.4","","72","","36","","15","","25.0","","99.72","","","","-7","","Mainly Clear"
"1981-11-24 19:00","1981","11","24","19:00","-2.7","","-6.0","","78","","36","","15","","25.0","","99.76","","","","-8","","Clear"
"1981-11-24 20:00","1981","11","24","20:00","-3.4","","-7.3","","74","","36","","7","","25.0","","99.79","","","","-6","","Clear"
"1981-11-24 21:00","1981","11","24","21:00","-4.4","","-6.9","","83","","33","","9","","25.0","","99.82","","","","-8","","Clear"
"1981-11-24 22:00","1981","11","24","22:00","-5.1","","-6.9","","87","","34","","7","","25.0","","99.86","","","","-8","","Clear"
"1981-11-24 23:00","1981","11","24","23:00","-5.1","","-7.2","","85","","34","","6","","25.0","","99.86","","","","-8","","Clear"
"1981-11-25 00:00","1981","11","25","00:00","-5.6","","-7.5","","86","","33","","9","","25.0","","99.89","","","","-10","","Clear"
"1981-11-25 01:00","1981","11","25","01:00","-5.6","","-7.5","","86","","33","","9","","25.0","","99.89","","","","-10","","Clear"
"1981-11-25 02:00","1981","11","25","02:00","-5.5","","-8.2","","81","","35","","15","","25.0","","99.89","","","","-11","","Clear"
"1981-11-25 03:00","1981","11","25","03:00","-5.7","","-7.5","","87","","36","","17","","25.0","","99.96","","","","-12","","Clear"
"1981-11-25 04:00","1981","11","25","04:00","-6.3","","-8.0","","88","","35","","9","","25.0","","99.96","","","","-11","","Clear"
"1981-11-25 05:00","1981","11","25","05:00","-6.5","","-8.0","","89","","34","","15","","25.0","","99.99","","","","-12","","Clear"
"1981-11-25 06:00","1981","11","25","06:00","-6.3","","-8.0","","88","","36","","7","","25.0","","99.99","","","","-10","","Clear"
"1981-11-25 07:00","1981","11","25","07:00","-7.0","","-8.2","","91","","35","","7","","25.0","","99.99","","","","-11","","Clear"
"1981-11-25 08:00","1981","11","25","08:00","-6.6","","-8.3","","88","","29","","2","","24.1","","100.09","","","","-8","","Clear"
"1981-11-25 09:00","1981","11","25","09:00","-3.5","","-6.7","","78","","33","","7","","32.2","","100.12","","","","-6","","Mainly Clear"
"1981-11-25 10:00","1981","11","25","10:00","-1.9","","-5.4","","77","","31","","2","","32.2","","100.16","","","","-3","","Mainly Clear"
"1981-11-25 11:00","1981","11","25","11:00","-0.4","","-4.6","","73","","36","","6","","40.2","","100.16","","","","-2","","Mainly Clear"
"1981-11-25 12:00","1981","11","25","12:00","0.2","","-5.6","","65","","2","","4","","40.2","","100.06","","","","","","Mostly Cloudy"
"1981-11-25 13:00","1981","11","25","13:00","1.4","","-5.4","","61","","","","0","","40.2","","100.06","","","","","","Mostly Cloudy"
"1981-11-25 14:00","1981","11","25","14:00","1.9","","-4.7","","61","","","","0","","40.2","","100.06","","","","","","Mostly Cloudy"
"1981-11-25 15:00","1981","11","25","15:00","2.0","","-6.0","","55","","","","0","","40.2","","100.06","","","","","","Mostly Cloudy"
"1981-11-25 16:00","1981","11","25","16:00","2.0","","-4.7","","61","","","","0","","40.2","","100.06","","","","","","Mostly Cloudy"
"1981-11-25 17:00","1981","11","25","17:00","-0.4","","-4.9","","72","","1","","4","","32.2","","100.06","","","","-2","","Mostly Cloudy"
"1981-11-25 18:00","1981","11","25","18:00","-1.4","","-4.8","","78","","4","","7","","25.0","","100.06","","","","-4","","Mostly Cloudy"
"1981-11-25 19:00","1981","11","25","19:00","-1.0","","-5.0","","74","","","","0","","25.0","","100.06","","","","","","Mostly Cloudy"
"1981-11-25 20:00","1981","11","25","20:00","-0.5","","-5.0","","71","","9","","6","","25.0","","100.06","","","","-3","","Mostly Cloudy"
"1981-11-25 21:00","1981","11","25","21:00","-2.1","","-3.9","","88","","","","0","","25.0","","100.09","","","","","","Mostly Cloudy"
"1981-11-25 22:00","1981","11","25","22:00","-2.6","","-3.9","","91","","","","0","","25.0","","100.09","","","","","","Mostly Cloudy"
"1981-11-25 23:00","1981","11","25","23:00","-2.6","","-3.9","","91","","","","0","","25.0","","100.09","","","","","","Mostly Cloudy"
"1981-11-26 00:00","1981","11","26","00:00","-1.5","","-3.0","","89","","5","","6","","25.0","","100.02","","","","-4","","Mostly Cloudy"
"1981-11-26 01:00","1981","11","26","01:00","-0.4","","-2.8","","84","","9","","4","","25.0","","100.02","","","","-2","","Mostly Cloudy"
"1981-11-26 02:00","1981","11","26","02:00","-0.2","","-2.8","","83","","8","","4","","25.0","","99.99","","","","-1","","Mostly Cloudy"
"1981-11-26 03:00","1981","11","26","03:00","0.5","","-1.4","","87","","13","","13","","16.1","","99.96","","","","","","Mostly Cloudy"
"1981-11-26 04:00","1981","11","26","04:00","0.6","","-1.4","","86","","13","","9","","16.1","","99.96","","","","","","Mostly Cloudy"
"1981-11-26 05:00","1981","11","26","05:00","0.7","","-2.5","","79","","11","","19","","19.3","","99.89","","","","","","Mostly Cloudy"
"1981-11-26 06:00","1981","11","26","06:00","0.6","","-2.5","","80","","11","","22","","25.0","","99.82","","","","","","Mostly Cloudy"
"1981-11-26 07:00","1981","11","26","07:00","1.0","","-2.4","","78","","11","","30","","25.0","","99.79","","","","","","Mostly Cloudy"
"1981-11-26 08:00","1981","11","26","08:00","1.4","","-2.1","","77","","11","","28","","24.1","","99.79","","","","","","Mostly Cloudy"
"1981-11-26 09:00","1981","11","26","09:00","1.3","","-2.1","","78","","11","","28","","24.1","","99.76","","","","","","Cloudy"
"1981-11-26 10:00","1981","11","26","10:00","1.3","","-2.1","","78","","10","","33","","32.2","","99.62","","","","","","Mostly Cloudy"
"1981-11-26 11:00","1981","11","26","11:00","1.5","","-2.4","","75","","10","","26","","32.2","","99.56","","","","","","Cloudy"
"1981-11-26 12:00","1981","11","26","12:00","1.9","","-2.1","","75","","10","","37","","32.2","","99.36","","","","","","Cloudy"
"1981-11-26 13:00","1981","11","26","13:00","2.0","","-2.1","","74","","11","","33","","32.2","","99.22","","","","","","Cloudy"
"1981-11-26 14:00","1981","11","26","14:00","2.0","","-2.6","","71","","10","","31","","24.1","","99.06","","","","","","Cloudy"
"1981-11-26 15:00","1981","11","26","15:00","2.2","","-2.6","","70","","11","","30","","24.1","","98.96","","","","","","Rain"
"1981-11-26 16:00","1981","11","26","16:00","2.3","","-0.9","","80","","11","","22","","24.1","","98.86","","","","","","Cloudy"
"1981-11-26 17:00","1981","11","26","17:00","2.5","","-0.9","","78","","11","","19","","25.0","","98.76","","","","","","Cloudy"
"1981-11-26 18:00","1981","11","26","18:00","3.0","","-0.9","","76","","11","","19","","25.0","","98.66","","","","","","Cloudy"
"1981-11-26 19:00","1981","11","26","19:00","3.5","","0.2","","79","","11","","22","","24.1","","98.56","","","","","","Rain"
"1981-11-26 20:00","1981","11","26","20:00","3.0","","1.6","","91","","12","","26","","11.3","","98.32","","","","","","Rain"
"1981-11-26 21:00","1981","11","26","21:00","3.4","","2.2","","92","","11","","20","","11.3","","98.09","","","","","","Rain"
"1981-11-26 22:00","1981","11","26","22:00","3.5","","3.1","","97","","11","","20","","6.4","","97.99","","","","","","Moderate Rain,Fog"
"1981-11-26 23:00","1981","11","26","23:00","4.5","","4.1","","97","","11","","19","","6.4","","97.79","","","","","","Rain,Fog"
"1981-11-27 00:00","1981","11","27","00:00","4.8","","4.6","","99","","11","","20","","6.4","","97.69","","","","","","Fog"
"1981-11-27 01:00","1981","11","27","01:00","5.3","","5.1","","99","","12","","13","","6.4","","97.56","","","","","","Fog"
"1981-11-27 02:00","1981","11","27","02:00","6.7","","5.7","","93","","15","","2","","6.4","","97.52","","","","","","Fog"
"1981-11-27 03:00","1981","11","27","03:00","7.3","","7.1","","99","","24","","19","","6.4","","97.56","","","","","","Rain,Fog"
"1981-11-27 04:00","1981","11","27","04:00","8.4","","6.6","","89","","27","","48","","12.9","","97.72","","","","","","Cloudy"
"1981-11-27 05:00","1981","11","27","05:00","7.0","","4.5","","84","","26","","48","","12.9","","97.89","","","","","","Cloudy"
"1981-11-27 06:00","1981","11","27","06:00","6.3","","3.5","","82","","26","","31","","12.9","","98.09","","","","","","Cloudy"
"1981-11-27 07:00","1981","11","27","07:00","5.6","","2.4","","80","","27","","30","","12.9","","98.26","","","","","","Cloudy"
"1981-11-27 08:00","1981","11","27","08:00","5.3","","1.5","","77","","27","","41","","24.1","","98.46","","","","","","Cloudy"
"1981-11-27 09:00","1981","11","27","09:00","4.9","","0.9","","75","","26","","37","","24.1","","98.52","","","","","","Rain"
"1981-11-27 10:00","1981","11","27","10:00","4.5","","0.8","","77","","25","","37","","24.1","","98.56","","","","","","Cloudy"
"1981-11-27 11:00","1981","11","27","11:00","4.5","","0.3","","74","","25","","26","","24.1","","98.69","","","","","","Cloudy"
"1981-11-27 12:00","1981","11","27","12:00","4.4","","-0.2","","72","","26","","31","","24.1","","98.72","","","","","","Rain"
"1981-11-27 13:00","1981","11","27","13:00","4.1","","-0.8","","70","","25","","28","","24.1","","98.76","","","","","","Cloudy"
"1981-11-27 14:00","1981","11","27","14:00","3.9","","-1.4","","68","","25","","33","","24.1","","98.76","","","","","","Cloudy"
"1981-11-27 15:00","1981","11","27","15:00","3.9","","-0.8","","72","","25","","22","","24.1","","98.82","","","","","","Cloudy"
"1981-11-27 16:00","1981","11","27","16:00","3.7","","-1.4","","69","","26","","26","","24.1","","98.82","","","","","","Cloudy"
"1981-11-27 17:00","1981","11","27","17:00","3.4","","-1.4","","71","","25","","22","","24.1","","98.86","","","","","","Mostly Cloudy"
"1981-11-27 18:00","1981","11","27","18:00","2.8","","-1.5","","73","","25","","20","","25.0","","98.96","","","","","","Cloudy"
"1981-11-27 19:00","1981","11","27","19:00","2.8","","-2.0","","71","","25","","19","","25.0","","98.96","","","","","","Cloudy"
"1981-11-27 20:00","1981","11","27","20:00","2.5","","-1.5","","75","","25","","22","","25.0","","98.99","","","","","","Cloudy"
"1981-11-27 21:00","1981","11","27","21:00","2.5","","-2.0","","72","","25","","30","","25.0","","98.99","","","","","","Cloudy"
"1981-11-27 22:00","1981","11","27","22:00","2.6","","-2.6","","68","","24","","31","","25.0","","99.06","","","","","","Cloudy"
"1981-11-27 23:00","1981","11","27","23:00","2.5","","-2.0","","72","","25","","26","","25.0","","98.99","","","","","","Cloudy"
"1981-11-28 00:00","1981","11","28","00:00","2.4","","-1.5","","75","","25","","22","","25.0","","98.99","","","","","","Cloudy"
"1981-11-28 01:00","1981","11","28","01:00","2.4","","-1.5","","75","","25","","28","","25.0","","98.99","","","","","","Cloudy"
"1981-11-28 02:00","1981","11","28","02:00","2.3","","-1.5","","76","","26","","19","","25.0","","98.99","","","","","","Cloudy"
"1981-11-28 03:00","1981","11","28","03:00","2.4","","-2.0","","73","","26","","20","","25.0","","99.02","","","","","","Cloudy"
"1981-11-28 04:00","1981","11","28","04:00","2.4","","-2.6","","69","","27","","28","","24.1","","99.02","","","","","","Cloudy"
"1981-11-28 05:00","1981","11","28","05:00","2.7","","-3.2","","65","","29","","28","","24.1","","99.06","","","","","","Cloudy"
"1981-11-28 06:00","1981","11","28","06:00","2.6","","-3.2","","65","","27","","28","","24.1","","99.09","","","","","","Cloudy"
"1981-11-28 07:00","1981","11","28","07:00","2.5","","-3.2","","66","","27","","31","","24.1","","99.09","","","","","","Cloudy"
"1981-11-28 08:00","1981","11","28","08:00","2.5","","-2.6","","69","","28","","31","","24.1","","99.19","","","","","","Snow Showers"
"1981-11-28 09:00","1981","11","28","09:00","2.1","","-1.5","","77","","27","","22","","19.3","","99.29","","","","","","Snow Showers"
"1981-11-28 10:00","1981","11","28","10:00","2.2","","-1.0","","79","","27","","24","","19.3","","99.36","","","","","","Snow Showers"
"1981-11-28 11:00","1981","11","28","11:00","3.0","","-0.9","","76","","28","","26","","32.2","","99.36","","","","","","Mostly Cloudy"
"1981-11-28 12:00","1981","11","28","12:00","3.5","","-2.0","","67","","29","","30","","24.1","","99.36","","","","","","Mostly Cloudy"
"1981-11-28 13:00","1981","11","28","13:00","3.0","","-2.0","","70","","31","","26","","32.2","","99.36","","","","","","Mostly Cloudy"
"1981-11-28 14:00","1981","11","28","14:00","3.0","","-1.5","","72","","29","","24","","19.3","","99.36","","","","","","Snow Pellets"
"1981-11-28 15:00","1981","11","28","15:00","3.0","","-0.4","","78","","28","","28","","32.2","","99.36","","","","","","Mostly Cloudy"
"1981-11-28 16:00","1981","11","28","16:00","2.8","","-1.5","","73","","29","","33","","32.2","","99.39","","","","","","Mostly Cloudy"
"1981-11-28 17:00","1981","11","28","17:00","2.2","","-2.1","","73","","28","","43","","32.2","","99.49","","","","","","Mostly Cloudy"
"1981-11-28 18:00","1981","11","28","18:00","2.0","","-1.5","","78","","28","","28","","25.0","","99.52","","","","","","Mostly Cloudy"
"1981-11-28 19:00","1981","11","28","19:00","1.8","","-1.0","","82","","29","","30","","25.0","","99.56","","","","","","Mostly Cloudy"
"1981-11-28 20:00","1981","11","28","20:00","2.0","","-1.5","","78","","30","","30","","25.0","","99.56","","","","","","Snow Pellets"
"1981-11-28 21:00","1981","11","28","21:00","1.7","","-1.5","","79","","28","","13","","25.0","","99.62","","","","","","Mostly Cloudy"
"1981-11-28 22:00","1981","11","28","22:00","1.7","","-1.5","","79","","29","","28","","25.0","","99.66","","","","","","Mostly Cloudy"
"1981-11-28 23:00","1981","11","28","23:00","1.0","","-0.5","","90","","29","","15","","25.0","","99.72","","","","","","Snow Showers"
"1981-11-29 00:00","1981","11","29","00:00","1.4","","-2.9","","73","","31","","22","","25.0","","99.76","","","","","","Mostly Cloudy"
"1981-11-29 01:00","1981","11","29","01:00","1.1","","-3.0","","74","","29","","19","","25.0","","99.76","","","","","","Cloudy"
"1981-11-29 02:00","1981","11","29","02:00","0.8","","-2.4","","79","","29","","13","","25.0","","99.76","","","","","","Mostly Cloudy"
"1981-11-29 03:00","1981","11","29","03:00","0.4","","-3.5","","75","","29","","15","","25.0","","99.79","","","","","","Mostly Cloudy"
"1981-11-29 04:00","1981","11","29","04:00","0.0","","-3.7","","76","","27","","19","","25.0","","99.79","","","","-5","","Mainly Clear"
"1981-11-29 05:00","1981","11","29","05:00","0.0","","-3.7","","76","","29","","19","","25.0","","99.82","","","","-5","","Mostly Cloudy"
"1981-11-29 06:00","1981","11","29","06:00","-0.5","","-3.5","","80","","29","","15","","25.0","","99.86","","","","-5","","Mostly Cloudy"
"1981-11-29 07:00","1981","11","29","07:00","-0.5","","-3.2","","82","","29","","17","","25.0","","99.89","","","","-5","","Mostly Cloudy"
"1981-11-29 08:00","1981","11","29","08:00","-0.2","","-3.1","","81","","29","","19","","32.2","","99.92","","","","-5","","Mostly Cloudy"
"1981-11-29 09:00","1981","11","29","09:00","0.0","","-3.4","","78","","29","","20","","32.2","","99.96","","","","-5","","Mainly Clear"
"1981-11-29 10:00","1981","11","29","10:00","0.5","","-4.3","","70","","31","","22","","32.2","","99.99","","","","","","Mainly Clear"
"1981-11-29 11:00","1981","11","29","11:00","1.2","","-4.9","","64","","31","","19","","40.2","","100.02","","","","","","Mostly Cloudy"
"1981-11-29 12:00","1981","11","29","12:00","1.3","","-5.4","","61","","32","","22","","40.2","","99.99","","","","","","Mainly Clear"
"1981-11-29 13:00","1981","11","29","13:00","1.0","","-6.2","","58","","32","","28","","40.2","","99.99","","","","","","Mainly Clear"
"1981-11-29 14:00","1981","11","29","14:00","1.5","","-6.9","","54","","31","","22","","40.2","","99.96","","","","","","Mainly Clear"
"1981-11-29 15:00","1981","11","29","15:00","1.3","","-6.1","","58","","31","","22","","40.2","","99.99","","","","","","Mainly Clear"
"1981-11-29 16:00","1981","11","29","16:00","1.1","","-4.8","","65","","31","","24","","40.2","","99.99","","","","","","Mainly Clear"
"1981-11-29 17:00","1981","11","29","17:00","0.1","","-5.1","","68","","32","","17","","25.0","","99.99","","","","","","Mainly Clear"
"1981-11-29 18:00","1981","11","29","18:00","-0.8","","-5.0","","73","","30","","13","","25.0","","100.06","","","","-5","","Mainly Clear"
"1981-11-29 19:00","1981","11","29","19:00","-1.5","","-4.8","","78","","30","","13","","25.0","","100.09","","","","-6","","Mainly Clear"
"1981-11-29 20:00","1981","11","29","20:00","-2.4","","-5.4","","80","","30","","4","","25.0","","100.09","","","","-4","","Mainly Clear"
"1981-11-29 21:00","1981","11","29","21:00","-2.5","","-5.1","","82","","","","0","","25.0","","100.09","","","","","","Mainly Clear"
"1981-11-29 22:00","1981","11","29","22:00","-3.2","","-6.0","","81","","34","","6","","25.0","","100.09","","","","-6","","Mostly Cloudy"
"1981-11-29 23:00","1981","11","29","23:00","-2.7","","-4.2","","89","","29","","4","","25.0","","100.09","","","","-4","","Mostly Cloudy"
"1981-11-30 00:00","1981","11","30","00:00","-2.5","","-4.8","","84","","28","","6","","25.0","","100.09","","","","-5","","Mostly Cloudy"
"1981-11-30 01:00","1981","11","30","01:00","-2.6","","-4.8","","85","","24","","6","","25.0","","100.06","","","","-5","","Mostly Cloudy"
"1981-11-30 02:00","1981","11","30","02:00","-2.2","","-4.5","","84","","24","","6","","25.0","","100.06","","","","-5","","Cloudy"
"1981-11-30 03:00","1981","11","30","03:00","-1.8","","-4.5","","82","","21","","2","","25.0","","99.99","","","","-3","","Cloudy"
"1981-11-30 04:00","1981","11","30","04:00","-1.4","","-4.8","","78","","21","","6","","25.0","","99.99","","","","-4","","Cloudy"
"1981-11-30 05:00","1981","11","30","05:00","-1.4","","-4.2","","81","","22","","4","","25.0","","99.99","","","","-3","","Cloudy"
"1981-11-30 06:00","1981","11","30","06:00","-1.5","","-3.0","","89","","27","","6","","24.1","","99.99","","","","-4","","Snow Showers"
"1981-11-30 07:00","1981","11","30","07:00","-1.7","","-3.0","","91","","29","","4","","19.3","","100.02","","","","-3","","Mostly Cloudy"
"1981-11-30 08:00","1981","11","30","08:00","-2.3","","-3.9","","89","","30","","4","","24.1","","100.02","","","","-4","","Mainly Clear"
"1981-11-30 09:00","1981","11","30","09:00","-0.8","","-3.0","","85","","30","","6","","24.1","","100.06","","","","-3","","Mainly Clear"
"1981-11-30 10:00","1981","11","30","10:00","0.6","","-1.4","","86","","28","","7","","24.1","","99.99","","","","","","Clear"
"1981-11-30 11:00","1981","11","30","11:00","2.1","","-2.6","","71","","","","0","","24.1","","99.99","","","","","","Clear"
"1981-11-30 12:00","1981","11","30","12:00","2.6","","-3.9","","62","","","","0","","40.2","","99.96","","","","","","Mainly Clear"
"1981-11-30 13:00","1981","11","30","13:00","3.2","","-5.1","","54","","","","0","","40.2","","99.92","","","","","","Mainly Clear"
"1981-11-30 14:00","1981","11","30","14:00","3.0","","-5.2","","55","","24","","6","","40.2","","99.92","","","","","","Mostly Cloudy"
"1981-11-30 15:00","1981","11","30","15:00","2.8","","-4.5","","59","","24","","6","","32.2","","99.92","","","","","","Mostly Cloudy"
"1981-11-30 16:00","1981","11","30","16:00","3.0","","-3.8","","61","","24","","7","","32.2","","99.96","","","","","","Mostly Cloudy"
"1981-11-30 17:00","1981","11","30","17:00","1.2","","-3.6","","70","","22","","4","","19.3","","99.96","","","","","","Mainly Clear"
"1981-11-30 18:00","1981","11","30","18:00","1.1","","-4.8","","65","","","","0","","25.0","","99.89","","","","","","Mainly Clear"
"1981-11-30 19:00","1981","11","30","19:00","-0.1","","-5.1","","69","","10","","7","","25.0","","99.86","","","","-3","","Mostly Cloudy"
"1981-11-30 20:00","1981","11","30","20:00","-0.1","","-4.5","","72","","","","0","","25.0","","99.86","","","","","","Mostly Cloudy"
"1981-11-30 21:00","1981","11","30","21:00","0.5","","-3.7","","73","","","","0","","25.0","","99.86","","","","","","Mostly Cloudy"
"1981-11-30 22:00","1981","11","30","22:00","-0.1","","-3.9","","76","","11","","9","","25.0","","99.76","","","","-3","","Mostly Cloudy"
"1981-11-30 23:00","1981","11","30","23:00","-0.4","","-3.4","","80","","13","","9","","25.0","","99.69","","","","-4","","Mostly Cloudy"
