"Station Name","TORONTO LESTER B. PEARSON INT'L A"
"Province","ONTARIO"
"Latitude","43.68"
"Longitude","-79.63"
"Elevation","173.40"
"Climate Identifier","6158733"
"WMO Identifier","71624"
"TC Identifier","YYZ"
"All times are specified in Local Standard Time (LST). Add 1 hour to adjust for Daylight Saving Time where and when it is observed."

"Legend"
"E","Estimated"
"M","Missing"
"NA","Not Available"

"Date/Time","Year","Month","Day","Time","Temp (°C)","Temp Flag","Dew Point Temp (°C)","Dew Point Temp Flag","Rel Hum (%)","Rel Hum Flag","Wind Dir (10s deg)","Wind Dir Flag","Wind Spd (km/h)","Wind Spd Flag","Visibility (km)","Visibility Flag","Stn Press (kPa)","Stn Press Flag","Hmdx","Hmdx Flag","Wind Chill","Wind Chill Flag","Weather"
"1961-06-01 00:00","1961","06","01","00:00","14.4","","10.0","","75","","","","0","","19.3","","99.17","","","","","","Rain"
"1961-06-01 01:00","1961","06","01","01:00","13.9","","11.1","","83","","20","","5","","19.3","","99.11","","","","","","Rain"
"1961-06-01 02:00","1961","06","01","02:00","14.4","","11.7","","85","","18","","13","","19.3","","99.06","","","","","","Rain Showers"
"1961-06-01 03:00","1961","06","01","03:00","14.4","","12.8","","90","","18","","16","","16.1","","98.98","","","","","","Rain Showers"
"1961-06-01 04:00","1961","06","01","04:00","13.3","","11.7","","91","","16","","16","","12.9","","98.95","","","","","","Cloudy"
"1961-06-01 05:00","1961","06","01","05:00","11.7","","10.6","","93","","16","","10","","3.2","","98.95","","","","","","Fog"
"1961-06-01 06:00","1961","06","01","06:00","12.2","","11.1","","93","","16","","13","","2.0","","98.93","","","","","","Fog"
"1961-06-01 07:00","1961","06","01","07:00","12.8","","11.7","","95","","14","","11","","2.0","","98.88","","","","","","Fog"
"1961-06-01 08:00","1961","06","01","08:00","13.9","","12.2","","90","","16","","8","","3.2","","98.97","","","","","","Fog"
"1961-06-01 09:00","1961","06","01","09:00","14.4","","12.2","","86","","14","","16","","3.6","","98.88","","","","","","Haze"
"1961-06-01 10:00","1961","06","01","10:00","15.6","","12.8","","84","","16","","8","","4.8","","98.92","","","","","","Haze"
"1961-06-01 11:00","1961","06","01","11:00","17.8","","14.4","","82","","","","0","","4.8","","98.86","","","","","","Haze"
"1961-06-01 12:00","1961","06","01","12:00","19.4","","15.0","","75","","14","","5","","6.4","","98.80","","","","","","Haze"
"1961-06-01 13:00","1961","06","01","13:00","20.0","","13.9","","68","","14","","11","","4.0","","98.81","","","","","","Haze"
"1961-06-01 14:00","1961","06","01","14:00","21.1","","14.4","","66","","11","","21","","4.0","","98.57","","25","","","","Haze"
"1961-06-01 15:00","1961","06","01","15:00","18.3","","14.4","","78","","16","","21","","3.6","","98.63","","","","","","Thunderstorms,Rain Showers,Haze"
"1961-06-01 16:00","1961","06","01","16:00","14.4","","13.3","","91","","16","","19","","2.4","","98.50","","","","","","Rain Showers,Fog"
"1961-06-01 17:00","1961","06","01","17:00","14.4","","13.9","","97","","5","","8","","1.6","","98.42","","","","","","Thunderstorms,Rain Showers,Fog"
"1961-06-01 18:00","1961","06","01","18:00","14.4","","14.4","","98","","7","","8","","1.2","","98.41","","","","","","Thunderstorms,Moderate Rain Showers,Fog"
"1961-06-01 19:00","1961","06","01","19:00","14.4","","14.4","","98","","7","","11","","1.2","","98.17","","","","","","Thunderstorms,Rain Showers,Fog"
"1961-06-01 20:00","1961","06","01","20:00","14.4","","14.4","","100","","18","","3","","0.4","","98.11","","","","","","Rain Showers,Fog"
"1961-06-01 21:00","1961","06","01","21:00","13.3","","13.3","","100","","16","","8","","0.0","","98.08","","","","","","Fog"
"1961-06-01 22:00","1961","06","01","22:00","13.3","","13.3","","98","","","","0","","0.2","","98.08","","","","","","Fog"
"1961-06-01 23:00","1961","06","01","23:00","13.9","","13.9","","98","","23","","8","","2.0","","98.08","","","","","","Fog"
"1961-06-02 00:00","1961","06","02","00:00","16.1","","15.6","","98","","25","","21","","9.7","","98.10","","","","","","Fog"
"1961-06-02 01:00","1961","06","02","01:00","17.8","","16.7","","94","","25","","23","","11.3","","98.08","","","","","","Mainly Clear"
"1961-06-02 02:00","1961","06","02","02:00","17.8","","16.1","","90","","25","","24","","12.9","","98.09","","","","","","Mainly Clear"
"1961-06-02 03:00","1961","06","02","03:00","18.3","","16.1","","88","","27","","24","","16.1","","98.09","","","","","","Mainly Clear"
"1961-06-02 04:00","1961","06","02","04:00","18.3","","16.1","","86","","27","","26","","19.3","","98.16","","","","","","Mostly Cloudy"
"1961-06-02 05:00","1961","06","02","05:00","17.8","","15.0","","84","","27","","26","","19.3","","98.23","","","","","","Mainly Clear"
"1961-06-02 06:00","1961","06","02","06:00","17.2","","13.9","","81","","27","","29","","19.3","","98.30","","","","","","Mainly Clear"
"1961-06-02 07:00","1961","06","02","07:00","18.3","","13.9","","76","","27","","32","","19.3","","98.38","","","","","","Mostly Cloudy"
"1961-06-02 08:00","1961","06","02","08:00","18.3","","13.9","","76","","27","","27","","24.1","","98.43","","","","","","Mostly Cloudy"
"1961-06-02 09:00","1961","06","02","09:00","18.9","","14.4","","75","","27","","23","","24.1","","98.44","","","","","","Mostly Cloudy"
"1961-06-02 10:00","1961","06","02","10:00","19.4","","14.4","","73","","27","","23","","24.1","","98.45","","","","","","Cloudy"
"1961-06-02 11:00","1961","06","02","11:00","20.0","","14.4","","70","","27","","27","","24.1","","98.42","","","","","","Mostly Cloudy"
"1961-06-02 12:00","1961","06","02","12:00","22.2","","15.0","","64","","27","","32","","24.1","","98.38","","26","","","","Mostly Cloudy"
"1961-06-02 13:00","1961","06","02","13:00","22.8","","13.9","","56","","27","","39","","24.1","","98.46","","26","","","","Mainly Clear"
"1961-06-02 14:00","1961","06","02","14:00","22.8","","12.8","","53","","27","","45","","25.0","","98.48","","25","","","","Mainly Clear"
"1961-06-02 15:00","1961","06","02","15:00","23.3","","12.2","","50","","29","","29","","25.0","","98.51","","26","","","","Mainly Clear"
"1961-06-02 16:00","1961","06","02","16:00","22.8","","10.6","","46","","27","","47","","25.0","","98.54","","","","","","Mainly Clear"
"1961-06-02 17:00","1961","06","02","17:00","23.9","","11.1","","45","","27","","43","","25.0","","98.53","","26","","","","Mainly Clear"
"1961-06-02 18:00","1961","06","02","18:00","23.3","","12.2","","50","","27","","31","","25.0","","98.47","","26","","","","Mainly Clear"
"1961-06-02 19:00","1961","06","02","19:00","22.8","","12.2","","50","","27","","19","","25.0","","98.52","","25","","","","Mostly Cloudy"
"1961-06-02 20:00","1961","06","02","20:00","20.0","","12.2","","60","","25","","29","","25.0","","98.61","","","","","","Mostly Cloudy"
"1961-06-02 21:00","1961","06","02","21:00","16.7","","12.8","","77","","36","","18","","25.0","","98.71","","","","","","Mainly Clear"
"1961-06-02 22:00","1961","06","02","22:00","15.6","","11.1","","76","","27","","11","","25.0","","98.75","","","","","","Mainly Clear"
"1961-06-02 23:00","1961","06","02","23:00","14.4","","10.6","","78","","32","","14","","25.0","","98.81","","","","","","Mainly Clear"
"1961-06-03 00:00","1961","06","03","00:00","13.3","","11.1","","88","","36","","13","","25.0","","98.83","","","","","","Mainly Clear"
"1961-06-03 01:00","1961","06","03","01:00","12.2","","10.6","","89","","32","","16","","25.0","","98.84","","","","","","Clear"
"1961-06-03 02:00","1961","06","03","02:00","10.6","","8.9","","88","","32","","13","","25.0","","98.90","","","","","","Mainly Clear"
"1961-06-03 03:00","1961","06","03","03:00","10.0","","7.8","","86","","36","","16","","25.0","","99.00","","","","","","Mostly Cloudy"
"1961-06-03 04:00","1961","06","03","04:00","9.4","","6.7","","82","","34","","23","","25.0","","99.05","","","","","","Mostly Cloudy"
"1961-06-03 05:00","1961","06","03","05:00","8.3","","5.6","","83","","34","","29","","25.0","","99.12","","","","","","Mainly Clear"
"1961-06-03 06:00","1961","06","03","06:00","8.3","","5.0","","79","","34","","23","","25.0","","99.22","","","","","","Mostly Cloudy"
"1961-06-03 07:00","1961","06","03","07:00","8.9","","5.0","","78","","36","","16","","25.0","","99.29","","","","","","Mainly Clear"
"1961-06-03 08:00","1961","06","03","08:00","10.0","","5.6","","75","","36","","23","","25.0","","99.33","","","","","","Mainly Clear"
"1961-06-03 09:00","1961","06","03","09:00","11.7","","5.6","","66","","36","","16","","25.0","","99.35","","","","","","Mainly Clear"
"1961-06-03 10:00","1961","06","03","10:00","13.9","","6.7","","62","","36","","18","","25.0","","99.33","","","","","","Mainly Clear"
"1961-06-03 11:00","1961","06","03","11:00","15.0","","6.7","","57","","34","","26","","25.0","","99.34","","","","","","Mainly Clear"
"1961-06-03 12:00","1961","06","03","12:00","15.6","","6.1","","52","","34","","23","","25.0","","99.31","","","","","","Mainly Clear"
"1961-06-03 13:00","1961","06","03","13:00","17.2","","5.0","","44","","34","","21","","25.0","","99.28","","","","","","Mainly Clear"
"1961-06-03 14:00","1961","06","03","14:00","18.3","","5.0","","41","","29","","14","","25.0","","99.26","","","","","","Mostly Cloudy"
"1961-06-03 15:00","1961","06","03","15:00","20.0","","5.0","","38","","29","","16","","25.0","","99.24","","","","","","Mostly Cloudy"
"1961-06-03 16:00","1961","06","03","16:00","19.4","","6.7","","43","","29","","23","","25.0","","99.25","","","","","","Mostly Cloudy"
"1961-06-03 17:00","1961","06","03","17:00","18.9","","2.8","","39","","29","","26","","25.0","","99.28","","","","","","Mainly Clear"
"1961-06-03 18:00","1961","06","03","18:00","17.8","","4.4","","42","","29","","21","","25.0","","99.28","","","","","","Mostly Cloudy"
"1961-06-03 19:00","1961","06","03","19:00","18.3","","10.0","","58","","29","","18","","25.0","","99.28","","","","","","Mostly Cloudy"
"1961-06-03 20:00","1961","06","03","20:00","16.1","","7.2","","55","","25","","13","","25.0","","99.29","","","","","","Mostly Cloudy"
"1961-06-03 21:00","1961","06","03","21:00","14.4","","7.2","","61","","25","","18","","25.0","","99.32","","","","","","Mainly Clear"
"1961-06-03 22:00","1961","06","03","22:00","13.3","","8.3","","73","","25","","19","","25.0","","99.32","","","","","","Mainly Clear"
"1961-06-03 23:00","1961","06","03","23:00","13.3","","6.7","","64","","25","","16","","25.0","","99.32","","","","","","Mainly Clear"
"1961-06-04 00:00","1961","06","04","00:00","11.7","","6.1","","69","","25","","18","","25.0","","99.32","","","","","","Mainly Clear"
"1961-06-04 01:00","1961","06","04","01:00","11.7","","6.7","","71","","25","","19","","25.0","","99.29","","","","","","Mostly Cloudy"
"1961-06-04 02:00","1961","06","04","02:00","12.2","","6.7","","68","","25","","16","","25.0","","99.31","","","","","","Cloudy"
"1961-06-04 03:00","1961","06","04","03:00","13.3","","7.2","","68","","25","","13","","25.0","","99.31","","","","","","Cloudy"
"1961-06-04 04:00","1961","06","04","04:00","13.3","","7.8","","69","","25","","11","","25.0","","99.30","","","","","","Mostly Cloudy"
"1961-06-04 05:00","1961","06","04","05:00","12.8","","8.3","","74","","25","","11","","25.0","","99.35","","","","","","Mostly Cloudy"
"1961-06-04 06:00","1961","06","04","06:00","12.8","","8.9","","77","","27","","16","","25.0","","99.39","","","","","","Mainly Clear"
"1961-06-04 07:00","1961","06","04","07:00","14.4","","8.9","","70","","29","","16","","25.0","","99.42","","","","","","Mainly Clear"
"1961-06-04 08:00","1961","06","04","08:00","16.7","","8.9","","60","","27","","16","","25.0","","99.46","","","","","","Mainly Clear"
"1961-06-04 09:00","1961","06","04","09:00","18.3","","8.9","","55","","27","","21","","25.0","","99.46","","","","","","Mostly Cloudy"
"1961-06-04 10:00","1961","06","04","10:00","18.3","","10.0","","58","","25","","16","","25.0","","99.43","","","","","","Mostly Cloudy"
"1961-06-04 11:00","1961","06","04","11:00","21.1","","10.6","","51","","25","","24","","25.0","","99.37","","","","","","Mainly Clear"
"1961-06-04 12:00","1961","06","04","12:00","22.2","","10.6","","47","","25","","21","","25.0","","99.28","","","","","","Mainly Clear"
"1961-06-04 13:00","1961","06","04","13:00","25.0","","10.6","","41","","25","","32","","25.0","","99.22","","27","","","","Mostly Cloudy"
"1961-06-04 14:00","1961","06","04","14:00","25.0","","10.0","","38","","25","","45","","25.0","","99.17","","26","","","","Mostly Cloudy"
"1961-06-04 15:00","1961","06","04","15:00","25.0","","10.0","","38","","25","","42","","25.0","","99.15","","26","","","","Mostly Cloudy"
"1961-06-04 16:00","1961","06","04","16:00","26.1","","11.1","","39","","25","","42","","25.0","","99.12","","28","","","","Mainly Clear"
"1961-06-04 17:00","1961","06","04","17:00","25.6","","10.0","","38","","27","","40","","25.0","","99.08","","27","","","","Mostly Cloudy"
"1961-06-04 18:00","1961","06","04","18:00","25.0","","11.7","","43","","25","","26","","25.0","","99.10","","27","","","","Mostly Cloudy"
"1961-06-04 19:00","1961","06","04","19:00","23.9","","12.2","","47","","25","","23","","25.0","","99.12","","26","","","","Mostly Cloudy"
"1961-06-04 20:00","1961","06","04","20:00","22.2","","12.8","","54","","20","","19","","24.1","","99.16","","25","","","","Mainly Clear"
"1961-06-04 21:00","1961","06","04","21:00","20.6","","11.7","","57","","23","","24","","24.1","","99.20","","","","","","Mainly Clear"
"1961-06-04 22:00","1961","06","04","22:00","18.3","","10.6","","60","","23","","26","","24.1","","99.19","","","","","","Mainly Clear"
"1961-06-04 23:00","1961","06","04","23:00","17.8","","10.6","","63","","25","","26","","24.1","","99.15","","","","","","Mainly Clear"
"1961-06-05 00:00","1961","06","05","00:00","17.2","","10.6","","66","","23","","29","","24.1","","99.18","","","","","","Clear"
"1961-06-05 01:00","1961","06","05","01:00","16.7","","11.1","","69","","23","","27","","24.1","","99.16","","","","","","Clear"
"1961-06-05 02:00","1961","06","05","02:00","15.6","","10.6","","71","","23","","23","","24.1","","99.17","","","","","","Clear"
"1961-06-05 03:00","1961","06","05","03:00","15.0","","10.0","","72","","23","","19","","24.1","","99.16","","","","","","Clear"
"1961-06-05 04:00","1961","06","05","04:00","15.0","","10.6","","75","","23","","19","","24.1","","99.17","","","","","","Mainly Clear"
"1961-06-05 05:00","1961","06","05","05:00","14.4","","10.6","","77","","23","","10","","24.1","","99.18","","","","","","Mainly Clear"
"1961-06-05 06:00","1961","06","05","06:00","15.6","","10.6","","73","","23","","13","","24.1","","99.20","","","","","","Mainly Clear"
"1961-06-05 07:00","1961","06","05","07:00","17.8","","11.7","","66","","23","","19","","24.1","","99.23","","","","","","Mainly Clear"
"1961-06-05 08:00","1961","06","05","08:00","21.7","","11.7","","54","","23","","24","","24.1","","99.23","","","","","","Mainly Clear"
"1961-06-05 09:00","1961","06","05","09:00","22.8","","13.3","","55","","23","","23","","24.1","","99.22","","26","","","","Mainly Clear"
"1961-06-05 10:00","1961","06","05","10:00","24.4","","12.8","","48","","23","","21","","24.1","","99.21","","27","","","","Mainly Clear"
"1961-06-05 11:00","1961","06","05","11:00","26.7","","12.8","","42","","25","","32","","25.0","","99.21","","29","","","","Mainly Clear"
"1961-06-05 12:00","1961","06","05","12:00","27.2","","12.2","","40","","27","","37","","25.0","","99.17","","30","","","","Mainly Clear"
"1961-06-05 13:00","1961","06","05","13:00","27.8","","11.7","","37","","25","","37","","25.0","","99.15","","30","","","","Mainly Clear"
"1961-06-05 14:00","1961","06","05","14:00","27.8","","10.6","","34","","25","","37","","25.0","","99.12","","29","","","","Mainly Clear"
"1961-06-05 15:00","1961","06","05","15:00","28.3","","8.9","","29","","25","","34","","25.0","","99.11","","29","","","","Mainly Clear"
"1961-06-05 16:00","1961","06","05","16:00","27.8","","8.9","","30","","27","","31","","25.0","","99.09","","29","","","","Mainly Clear"
"1961-06-05 17:00","1961","06","05","17:00","27.8","","10.0","","33","","27","","29","","25.0","","99.09","","29","","","","Mainly Clear"
"1961-06-05 18:00","1961","06","05","18:00","27.2","","11.7","","38","","27","","16","","25.0","","99.09","","29","","","","Mainly Clear"
"1961-06-05 19:00","1961","06","05","19:00","26.1","","11.7","","41","","27","","13","","25.0","","99.08","","28","","","","Mainly Clear"
"1961-06-05 20:00","1961","06","05","20:00","24.4","","11.7","","45","","20","","13","","25.0","","99.09","","27","","","","Mainly Clear"
"1961-06-05 21:00","1961","06","05","21:00","22.2","","12.8","","54","","20","","19","","25.0","","99.13","","25","","","","Mainly Clear"
"1961-06-05 22:00","1961","06","05","22:00","20.0","","12.8","","63","","20","","14","","24.1","","99.16","","","","","","Clear"
"1961-06-05 23:00","1961","06","05","23:00","18.9","","13.3","","69","","34","","5","","24.1","","99.19","","","","","","Clear"
"1961-06-06 00:00","1961","06","06","00:00","17.2","","12.2","","72","","34","","11","","25.0","","99.19","","","","","","Clear"
"1961-06-06 01:00","1961","06","06","01:00","16.7","","11.7","","71","","34","","24","","24.1","","99.21","","","","","","Clear"
"1961-06-06 02:00","1961","06","06","02:00","14.4","","11.1","","80","","34","","16","","24.1","","99.26","","","","","","Mainly Clear"
"1961-06-06 03:00","1961","06","06","03:00","12.8","","11.1","","89","","36","","21","","24.1","","99.28","","","","","","Mainly Clear"
"1961-06-06 04:00","1961","06","06","04:00","12.2","","10.6","","89","","36","","24","","24.1","","99.34","","","","","","Mainly Clear"
"1961-06-06 05:00","1961","06","06","05:00","11.7","","10.6","","93","","36","","18","","24.1","","99.46","","","","","","Mainly Clear"
"1961-06-06 06:00","1961","06","06","06:00","11.7","","10.0","","89","","36","","21","","24.1","","99.55","","","","","","Mainly Clear"
"1961-06-06 07:00","1961","06","06","07:00","13.9","","10.6","","80","","36","","19","","24.1","","99.61","","","","","","Mostly Cloudy"
"1961-06-06 08:00","1961","06","06","08:00","14.4","","10.6","","78","","36","","19","","25.0","","99.65","","","","","","Mostly Cloudy"
"1961-06-06 09:00","1961","06","06","09:00","15.6","","10.0","","68","","2","","16","","25.0","","99.69","","","","","","Mainly Clear"
"1961-06-06 10:00","1961","06","06","10:00","16.7","","10.0","","64","","2","","13","","25.0","","99.72","","","","","","Mainly Clear"
"1961-06-06 11:00","1961","06","06","11:00","18.3","","11.1","","62","","2","","11","","25.0","","99.72","","","","","","Mainly Clear"
"1961-06-06 12:00","1961","06","06","12:00","18.9","","11.1","","60","","2","","11","","25.0","","99.73","","","","","","Mainly Clear"
"1961-06-06 13:00","1961","06","06","13:00","19.4","","10.0","","54","","2","","14","","25.0","","99.71","","","","","","Mainly Clear"
"1961-06-06 14:00","1961","06","06","14:00","20.0","","10.0","","52","","14","","13","","25.0","","99.70","","","","","","Mainly Clear"
"1961-06-06 15:00","1961","06","06","15:00","21.1","","10.0","","50","","16","","13","","25.0","","99.68","","","","","","Mainly Clear"
"1961-06-06 16:00","1961","06","06","16:00","20.0","","10.0","","52","","16","","19","","25.0","","99.65","","","","","","Mainly Clear"
"1961-06-06 17:00","1961","06","06","17:00","20.0","","10.0","","52","","16","","16","","25.0","","99.64","","","","","","Mainly Clear"
"1961-06-06 18:00","1961","06","06","18:00","18.9","","9.4","","54","","14","","13","","25.0","","99.63","","","","","","Mainly Clear"
"1961-06-06 19:00","1961","06","06","19:00","18.3","","9.4","","56","","","","0","","25.0","","99.64","","","","","","Mainly Clear"
"1961-06-06 20:00","1961","06","06","20:00","17.2","","8.9","","59","","18","","3","","25.0","","99.64","","","","","","Clear"
"1961-06-06 21:00","1961","06","06","21:00","14.4","","8.9","","69","","25","","5","","25.0","","99.71","","","","","","Clear"
"1961-06-06 22:00","1961","06","06","22:00","13.3","","6.1","","61","","36","","11","","25.0","","99.73","","","","","","Clear"
"1961-06-06 23:00","1961","06","06","23:00","11.1","","4.4","","64","","36","","16","","25.0","","99.72","","","","","","Clear"
"1961-06-07 00:00","1961","06","07","00:00","10.6","","4.4","","66","","36","","13","","25.0","","99.73","","","","","","Clear"
"1961-06-07 01:00","1961","06","07","01:00","10.0","","4.4","","68","","36","","13","","25.0","","99.72","","","","","","Mainly Clear"
"1961-06-07 02:00","1961","06","07","02:00","9.4","","5.6","","76","","36","","11","","25.0","","99.68","","","","","","Mainly Clear"
"1961-06-07 03:00","1961","06","07","03:00","8.9","","6.1","","82","","","","0","","19.3","","99.68","","","","","","Clear"
"1961-06-07 04:00","1961","06","07","04:00","8.9","","6.1","","82","","36","","10","","19.3","","99.70","","","","","","Mainly Clear"
"1961-06-07 05:00","1961","06","07","05:00","8.3","","6.1","","85","","2","","8","","25.0","","99.73","","","","","","Mainly Clear"
"1961-06-07 06:00","1961","06","07","06:00","10.0","","6.1","","77","","2","","8","","25.0","","99.75","","","","","","Mostly Cloudy"
"1961-06-07 07:00","1961","06","07","07:00","11.7","","7.2","","75","","5","","6","","25.0","","99.77","","","","","","Mostly Cloudy"
"1961-06-07 08:00","1961","06","07","08:00","17.2","","1.7","","34","","11","","18","","24.1","","99.77","","","","","","Mostly Cloudy"
"1961-06-07 09:00","1961","06","07","09:00","18.3","","1.1","","32","","11","","18","","25.0","","99.73","","","","","","Mostly Cloudy"
"1961-06-07 10:00","1961","06","07","10:00","18.9","","1.7","","31","","11","","19","","25.0","","99.72","","","","","","Mostly Cloudy"
"1961-06-07 11:00","1961","06","07","11:00","19.4","","1.7","","31","","14","","14","","25.0","","99.67","","","","","","Mostly Cloudy"
"1961-06-07 12:00","1961","06","07","12:00","20.0","","2.2","","30","","11","","13","","25.0","","99.63","","","","","","Mostly Cloudy"
"1961-06-07 13:00","1961","06","07","13:00","21.1","","3.9","","32","","11","","14","","25.0","","99.57","","","","","","Cloudy"
"1961-06-07 14:00","1961","06","07","14:00","21.1","","3.9","","32","","16","","21","","25.0","","99.51","","","","","","Mostly Cloudy"
"1961-06-07 15:00","1961","06","07","15:00","20.6","","4.4","","34","","16","","14","","24.1","","99.44","","","","","","Mostly Cloudy"
"1961-06-07 16:00","1961","06","07","16:00","21.1","","5.0","","35","","14","","11","","19.3","","99.36","","","","","","Mostly Cloudy"
"1961-06-07 17:00","1961","06","07","17:00","20.0","","4.4","","36","","18","","19","","19.3","","99.29","","","","","","Mostly Cloudy"
"1961-06-07 18:00","1961","06","07","18:00","17.8","","3.3","","39","","18","","16","","19.3","","99.24","","","","","","Cloudy"
"1961-06-07 19:00","1961","06","07","19:00","16.7","","3.3","","40","","18","","16","","19.3","","99.15","","","","","","Cloudy"
"1961-06-07 20:00","1961","06","07","20:00","14.4","","2.8","","45","","20","","10","","19.3","","99.14","","","","","","Cloudy"
"1961-06-07 21:00","1961","06","07","21:00","13.9","","3.9","","51","","23","","3","","19.3","","99.14","","","","","","Cloudy"
"1961-06-07 22:00","1961","06","07","22:00","13.9","","4.4","","53","","29","","3","","24.1","","99.09","","","","","","Cloudy"
"1961-06-07 23:00","1961","06","07","23:00","14.4","","6.1","","58","","27","","5","","24.1","","99.08","","","","","","Cloudy"
"1961-06-08 00:00","1961","06","08","00:00","14.4","","6.7","","60","","","","0","","24.1","","99.02","","","","","","Cloudy"
"1961-06-08 01:00","1961","06","08","01:00","14.4","","7.2","","61","","36","","3","","24.1","","98.96","","","","","","Cloudy"
"1961-06-08 02:00","1961","06","08","02:00","15.0","","7.8","","62","","36","","3","","24.1","","98.85","","","","","","Cloudy"
"1961-06-08 03:00","1961","06","08","03:00","15.0","","8.3","","63","","","","0","","25.0","","98.80","","","","","","Cloudy"
"1961-06-08 04:00","1961","06","08","04:00","13.9","","8.3","","70","","18","","10","","24.1","","98.76","","","","","","Cloudy"
"1961-06-08 05:00","1961","06","08","05:00","12.8","","7.8","","70","","","","0","","24.1","","98.76","","","","","","Cloudy"
"1961-06-08 06:00","1961","06","08","06:00","11.7","","8.3","","80","","","","0","","12.9","","98.71","","","","","","Thunderstorms,Moderate Rain Showers"
"1961-06-08 07:00","1961","06","08","07:00","11.7","","10.6","","94","","2","","11","","4.8","","98.69","","","","","","Fog"
"1961-06-08 08:00","1961","06","08","08:00","12.2","","12.2","","100","","7","","10","","1.6","","98.71","","","","","","Thunderstorms,Rain Showers,Fog"
"1961-06-08 09:00","1961","06","08","09:00","13.9","","13.9","","98","","16","","16","","1.2","","98.65","","","","","","Rain Showers,Fog"
"1961-06-08 10:00","1961","06","08","10:00","14.4","","13.9","","95","","16","","14","","2.0","","98.64","","","","","","Fog"
"1961-06-08 11:00","1961","06","08","11:00","13.9","","13.3","","96","","23","","10","","1.6","","98.71","","","","","","Rain Showers,Fog"
"1961-06-08 12:00","1961","06","08","12:00","14.4","","13.9","","97","","","","0","","1.6","","98.62","","","","","","Rain Showers,Fog"
"1961-06-08 13:00","1961","06","08","13:00","15.6","","15.0","","95","","","","0","","1.6","","98.58","","","","","","Rain,Fog"
"1961-06-08 14:00","1961","06","08","14:00","15.6","","15.6","","98","","36","","11","","1.6","","98.52","","","","","","Rain,Fog"
"1961-06-08 15:00","1961","06","08","15:00","16.7","","16.1","","98","","2","","8","","2.0","","98.46","","","","","","Rain,Fog"
"1961-06-08 16:00","1961","06","08","16:00","18.3","","17.2","","92","","","","0","","4.8","","98.43","","","","","","Fog"
"1961-06-08 17:00","1961","06","08","17:00","18.9","","16.7","","88","","18","","6","","6.4","","98.42","","","","","","Haze"
"1961-06-08 18:00","1961","06","08","18:00","17.2","","16.1","","92","","14","","10","","2.0","","98.40","","","","","","Fog"
"1961-06-08 19:00","1961","06","08","19:00","16.7","","16.1","","96","","18","","8","","0.8","","98.45","","","","","","Fog"
"1961-06-08 20:00","1961","06","08","20:00","14.4","","14.4","","98","","20","","3","","0.4","","98.48","","","","","","Rain Showers,Fog"
"1961-06-08 21:00","1961","06","08","21:00","15.6","","15.6","","98","","20","","5","","0.2","","98.49","","","","","","Rain Showers,Fog"
"1961-06-08 22:00","1961","06","08","22:00","15.0","","15.0","","98","","25","","3","","0.4","","98.51","","","","","","Rain Showers,Fog"
"1961-06-08 23:00","1961","06","08","23:00","15.0","","15.0","","98","","","","0","","0.4","","98.49","","","","","","Rain Showers,Fog"
"1961-06-09 00:00","1961","06","09","00:00","15.6","","15.6","","98","","","","0","","0.2","","98.51","","","","","","Fog"
"1961-06-09 01:00","1961","06","09","01:00","15.6","","15.6","","98","","18","","6","","0.0","","98.51","","","","","","Fog"
"1961-06-09 02:00","1961","06","09","02:00","15.0","","15.0","","98","","14","","10","","0.4","","98.51","","","","","","Fog"
"1961-06-09 03:00","1961","06","09","03:00","14.4","","13.9","","97","","","","0","","1.2","","98.48","","","","","","Fog"
"1961-06-09 04:00","1961","06","09","04:00","13.9","","13.9","","98","","36","","5","","0.8","","98.48","","","","","","Fog"
"1961-06-09 05:00","1961","06","09","05:00","14.4","","13.9","","97","","36","","8","","0.4","","98.52","","","","","","Fog"
"1961-06-09 06:00","1961","06","09","06:00","14.4","","14.4","","98","","5","","5","","0.4","","98.58","","","","","","Fog"
"1961-06-09 07:00","1961","06","09","07:00","15.6","","15.6","","98","","5","","8","","1.2","","98.62","","","","","","Fog"
"1961-06-09 08:00","1961","06","09","08:00","16.7","","16.1","","96","","9","","5","","1.2","","98.62","","","","","","Drizzle,Fog"
"1961-06-09 09:00","1961","06","09","09:00","16.7","","16.1","","96","","7","","8","","1.6","","98.64","","","","","","Fog"
"1961-06-09 10:00","1961","06","09","10:00","16.7","","16.1","","96","","16","","13","","0.8","","98.65","","","","","","Fog"
"1961-06-09 11:00","1961","06","09","11:00","16.7","","16.1","","96","","14","","13","","1.0","","98.65","","","","","","Fog"
"1961-06-09 12:00","1961","06","09","12:00","16.7","","15.6","","94","","11","","8","","1.2","","98.65","","","","","","Fog"
"1961-06-09 13:00","1961","06","09","13:00","16.7","","15.6","","94","","7","","11","","1.6","","98.65","","","","","","Fog"
"1961-06-09 14:00","1961","06","09","14:00","17.8","","16.1","","90","","7","","11","","2.4","","98.64","","","","","","Fog"
"1961-06-09 15:00","1961","06","09","15:00","18.3","","15.6","","84","","11","","13","","2.4","","98.57","","","","","","Haze"
"1961-06-09 16:00","1961","06","09","16:00","17.8","","15.6","","88","","","","0","","2.0","","98.59","","","","","","Fog,Smoke"
"1961-06-09 17:00","1961","06","09","17:00","17.8","","15.6","","86","","","","0","","2.0","","98.56","","","","","","Fog,Smoke"
"1961-06-09 18:00","1961","06","09","18:00","18.3","","16.1","","86","","16","","5","","2.0","","98.55","","","","","","Fog,Smoke"
"1961-06-09 19:00","1961","06","09","19:00","18.3","","16.1","","86","","16","","13","","2.0","","98.51","","","","","","Fog,Smoke"
"1961-06-09 20:00","1961","06","09","20:00","16.7","","15.0","","91","","20","","11","","1.0","","98.55","","","","","","Fog"
"1961-06-09 21:00","1961","06","09","21:00","15.6","","15.0","","97","","18","","3","","0.2","","98.55","","","","","","Fog"
"1961-06-09 22:00","1961","06","09","22:00","15.6","","15.6","","98","","","","0","","0.2","","98.57","","","","","","Drizzle,Fog"
"1961-06-09 23:00","1961","06","09","23:00","15.6","","15.6","","98","","","","0","","0.4","","98.53","","","","","","Fog"
"1961-06-10 00:00","1961","06","10","00:00","15.6","","15.6","","98","","23","","6","","1.2","","98.51","","","","","","Fog"
"1961-06-10 01:00","1961","06","10","01:00","15.6","","15.6","","98","","23","","8","","0.8","","98.45","","","","","","Fog"
"1961-06-10 02:00","1961","06","10","02:00","15.6","","15.6","","100","","20","","8","","0.2","","98.41","","","","","","Fog"
"1961-06-10 03:00","1961","06","10","03:00","15.6","","15.6","","100","","","","0","","0.4","","98.40","","","","","","Drizzle,Fog"
"1961-06-10 04:00","1961","06","10","04:00","15.6","","15.6","","100","","23","","6","","0.2","","98.40","","","","","","Drizzle,Fog"
"1961-06-10 05:00","1961","06","10","05:00","15.6","","15.6","","100","","23","","11","","0.0","","98.42","","","","","","Drizzle,Fog"
"1961-06-10 06:00","1961","06","10","06:00","16.1","","16.1","","100","","23","","13","","0.4","","98.46","","","","","","Fog"
"1961-06-10 07:00","1961","06","10","07:00","16.7","","16.1","","98","","23","","8","","4.0","","98.46","","","","","","Fog"
"1961-06-10 08:00","1961","06","10","08:00","20.0","","17.8","","86","","20","","10","","4.8","","98.46","","26","","","","Fog"
"1961-06-10 09:00","1961","06","10","09:00","22.8","","17.2","","72","","25","","18","","6.4","","98.48","","28","","","","Haze"
"1961-06-10 10:00","1961","06","10","10:00","23.3","","16.1","","65","","27","","23","","11.3","","98.50","","28","","","","Mostly Cloudy"
"1961-06-10 11:00","1961","06","10","11:00","22.8","","16.1","","66","","25","","21","","12.9","","98.58","","27","","","","Mostly Cloudy"
"1961-06-10 12:00","1961","06","10","12:00","25.0","","17.2","","61","","23","","24","","11.3","","98.54","","30","","","","Mostly Cloudy"
"1961-06-10 13:00","1961","06","10","13:00","26.1","","16.7","","57","","25","","24","","11.3","","98.54","","31","","","","Mainly Clear"
"1961-06-10 14:00","1961","06","10","14:00","25.6","","16.1","","56","","25","","27","","16.1","","98.59","","30","","","","Mostly Cloudy"
"1961-06-10 15:00","1961","06","10","15:00","27.2","","17.2","","55","","25","","29","","16.1","","98.61","","33","","","","Mostly Cloudy"
"1961-06-10 16:00","1961","06","10","16:00","23.3","","12.8","","51","","36","","18","","16.1","","98.73","","26","","","","Mainly Clear"
"1961-06-10 17:00","1961","06","10","17:00","24.4","","14.4","","54","","32","","16","","12.9","","98.76","","28","","","","Mainly Clear"
"1961-06-10 18:00","1961","06","10","18:00","22.2","","15.6","","65","","36","","19","","12.9","","98.84","","27","","","","Mainly Clear"
"1961-06-10 19:00","1961","06","10","19:00","21.7","","16.1","","71","","36","","13","","12.9","","98.90","","26","","","","Mainly Clear"
"1961-06-10 20:00","1961","06","10","20:00","20.0","","13.3","","65","","36","","23","","19.3","","98.98","","","","","","Mainly Clear"
"1961-06-10 21:00","1961","06","10","21:00","17.2","","10.6","","66","","36","","16","","24.1","","99.06","","","","","","Mainly Clear"
"1961-06-10 22:00","1961","06","10","22:00","16.1","","10.6","","69","","36","","10","","25.0","","99.16","","","","","","Mainly Clear"
"1961-06-10 23:00","1961","06","10","23:00","14.4","","10.6","","78","","36","","11","","24.1","","99.25","","","","","","Mainly Clear"
"1961-06-11 00:00","1961","06","11","00:00","13.3","","10.0","","81","","32","","5","","19.3","","99.31","","","","","","Mainly Clear"
"1961-06-11 01:00","1961","06","11","01:00","12.8","","10.6","","86","","34","","8","","16.1","","99.30","","","","","","Mainly Clear"
"1961-06-11 02:00","1961","06","11","02:00","12.2","","10.6","","89","","36","","10","","16.1","","99.30","","","","","","Clear"
"1961-06-11 03:00","1961","06","11","03:00","11.7","","10.0","","89","","36","","8","","16.1","","99.36","","","","","","Clear"
"1961-06-11 04:00","1961","06","11","04:00","11.1","","9.4","","89","","36","","10","","16.1","","99.44","","","","","","Mostly Cloudy"
"1961-06-11 05:00","1961","06","11","05:00","11.1","","8.9","","87","","2","","8","","16.1","","99.48","","","","","","Mostly Cloudy"
"1961-06-11 06:00","1961","06","11","06:00","12.2","","8.9","","80","","","","0","","19.3","","99.51","","","","","","Mostly Cloudy"
"1961-06-11 07:00","1961","06","11","07:00","13.9","","6.1","","60","","","","0","","24.1","","99.54","","","","","","Mostly Cloudy"
"1961-06-11 08:00","1961","06","11","08:00","16.1","","1.1","","36","","9","","14","","25.0","","99.52","","","","","","Mainly Clear"
"1961-06-11 09:00","1961","06","11","09:00","16.7","","1.7","","37","","9","","11","","25.0","","99.52","","","","","","Mostly Cloudy"
"1961-06-11 10:00","1961","06","11","10:00","18.3","","2.8","","35","","11","","11","","25.0","","99.52","","","","","","Mostly Cloudy"
"1961-06-11 11:00","1961","06","11","11:00","19.4","","3.9","","35","","11","","16","","25.0","","99.50","","","","","","Mostly Cloudy"
"1961-06-11 12:00","1961","06","11","12:00","20.0","","4.4","","36","","11","","11","","25.0","","99.49","","","","","","Mostly Cloudy"
"1961-06-11 13:00","1961","06","11","13:00","20.0","","5.6","","39","","11","","13","","25.0","","99.47","","","","","","Mostly Cloudy"
"1961-06-11 14:00","1961","06","11","14:00","21.7","","5.6","","35","","11","","24","","25.0","","99.37","","","","","","Mostly Cloudy"
"1961-06-11 15:00","1961","06","11","15:00","21.7","","5.6","","35","","11","","13","","25.0","","99.34","","","","","","Mainly Clear"
"1961-06-11 16:00","1961","06","11","16:00","22.2","","7.2","","38","","14","","19","","25.0","","99.34","","","","","","Mainly Clear"
"1961-06-11 17:00","1961","06","11","17:00","21.7","","6.1","","36","","14","","13","","25.0","","99.28","","","","","","Mainly Clear"
"1961-06-11 18:00","1961","06","11","18:00","21.7","","6.7","","37","","9","","11","","25.0","","99.21","","","","","","Mainly Clear"
"1961-06-11 19:00","1961","06","11","19:00","21.1","","8.3","","44","","20","","10","","25.0","","99.21","","","","","","Mainly Clear"
"1961-06-11 20:00","1961","06","11","20:00","17.2","","9.4","","60","","23","","6","","24.1","","99.19","","","","","","Mostly Cloudy"
"1961-06-11 21:00","1961","06","11","21:00","15.6","","8.3","","62","","18","","6","","24.1","","99.21","","","","","","Mostly Cloudy"
"1961-06-11 22:00","1961","06","11","22:00","15.6","","8.3","","62","","","","0","","24.1","","99.22","","","","","","Mainly Clear"
"1961-06-11 23:00","1961","06","11","23:00","15.0","","7.8","","62","","","","0","","19.3","","99.18","","","","","","Mainly Clear"
"1961-06-12 00:00","1961","06","12","00:00","14.4","","7.8","","64","","","","0","","19.3","","99.20","","","","","","Mainly Clear"
"1961-06-12 01:00","1961","06","12","01:00","13.9","","7.8","","67","","","","0","","19.3","","99.16","","","","","","Mainly Clear"
"1961-06-12 02:00","1961","06","12","02:00","13.3","","7.8","","69","","","","0","","16.1","","99.16","","","","","","Mainly Clear"
"1961-06-12 03:00","1961","06","12","03:00","14.4","","8.9","","70","","","","0","","16.1","","99.12","","","","","","Mainly Clear"
"1961-06-12 04:00","1961","06","12","04:00","13.9","","10.0","","76","","","","0","","16.1","","99.12","","","","","","Mainly Clear"
"1961-06-12 05:00","1961","06","12","05:00","13.9","","10.0","","76","","","","0","","16.1","","99.12","","","","","","Mostly Cloudy"
"1961-06-12 06:00","1961","06","12","06:00","15.6","","10.0","","68","","","","0","","12.9","","99.12","","","","","","Mainly Clear"
"1961-06-12 07:00","1961","06","12","07:00","16.7","","10.6","","67","","","","0","","12.9","","99.14","","","","","","Mainly Clear"
"1961-06-12 08:00","1961","06","12","08:00","20.0","","14.4","","70","","18","","8","","12.9","","99.22","","","","","","Mostly Cloudy"
"1961-06-12 09:00","1961","06","12","09:00","23.3","","18.3","","72","","14","","8","","8.0","","99.16","","30","","","","Haze"
"1961-06-12 10:00","1961","06","12","10:00","25.0","","19.4","","72","","18","","8","","8.0","","99.10","","32","","","","Haze"
"1961-06-12 11:00","1961","06","12","11:00","27.2","","19.4","","62","","18","","13","","9.7","","99.12","","34","","","","Haze"
"1961-06-12 12:00","1961","06","12","12:00","28.3","","21.1","","64","","20","","14","","9.7","","99.12","","37","","","","Haze"
"1961-06-12 13:00","1961","06","12","13:00","30.6","","21.1","","58","","18","","11","","12.9","","99.12","","39","","","","Mostly Cloudy"
"1961-06-12 14:00","1961","06","12","14:00","31.1","","19.4","","50","","27","","21","","19.3","","99.07","","38","","","","Mostly Cloudy"
"1961-06-12 15:00","1961","06","12","15:00","31.1","","18.3","","46","","27","","24","","19.3","","99.03","","37","","","","Mostly Cloudy"
"1961-06-12 16:00","1961","06","12","16:00","30.6","","18.9","","49","","27","","26","","19.3","","99.03","","37","","","","Mostly Cloudy"
"1961-06-12 17:00","1961","06","12","17:00","30.0","","18.3","","49","","25","","19","","24.1","","99.03","","36","","","","Mostly Cloudy"
"1961-06-12 18:00","1961","06","12","18:00","26.7","","17.8","","59","","25","","27","","19.3","","99.04","","33","","","","Mostly Cloudy"
"1961-06-12 19:00","1961","06","12","19:00","24.4","","17.8","","67","","27","","32","","12.9","","99.13","","30","","","","Thunderstorms,Rain Showers"
"1961-06-12 20:00","1961","06","12","20:00","21.7","","17.8","","78","","27","","5","","16.1","","99.04","","28","","","","Mostly Cloudy"
"1961-06-12 21:00","1961","06","12","21:00","21.1","","17.2","","80","","27","","6","","16.1","","99.06","","27","","","","Mainly Clear"
"1961-06-12 22:00","1961","06","12","22:00","21.1","","17.2","","78","","","","0","","16.1","","99.12","","27","","","","Mainly Clear"
"1961-06-12 23:00","1961","06","12","23:00","20.0","","17.2","","85","","18","","10","","16.1","","99.17","","25","","","","Clear"
"1961-06-13 00:00","1961","06","13","00:00","19.4","","17.2","","86","","25","","11","","12.9","","99.13","","","","","","Clear"
"1961-06-13 01:00","1961","06","13","01:00","20.0","","17.2","","85","","25","","8","","12.9","","99.12","","25","","","","Clear"
"1961-06-13 02:00","1961","06","13","02:00","19.4","","16.7","","84","","20","","14","","11.3","","99.10","","","","","","Mainly Clear"
"1961-06-13 03:00","1961","06","13","03:00","19.4","","17.2","","86","","23","","6","","11.3","","99.09","","","","","","Mainly Clear"
"1961-06-13 04:00","1961","06","13","04:00","18.9","","16.7","","88","","23","","8","","11.3","","99.09","","","","","","Mainly Clear"
"1961-06-13 05:00","1961","06","13","05:00","18.9","","16.7","","88","","","","0","","11.3","","99.13","","","","","","Mostly Cloudy"
"1961-06-13 06:00","1961","06","13","06:00","18.9","","17.2","","90","","23","","6","","9.7","","99.16","","","","","","Haze"
"1961-06-13 07:00","1961","06","13","07:00","19.4","","17.8","","90","","","","0","","9.7","","99.18","","","","","","Haze"
"1961-06-13 08:00","1961","06","13","08:00","22.8","","18.9","","79","","","","0","","8.0","","99.19","","29","","","","Haze"
"1961-06-13 09:00","1961","06","13","09:00","25.6","","19.4","","69","","","","0","","8.0","","99.12","","33","","","","Haze"
"1961-06-13 10:00","1961","06","13","10:00","27.2","","20.6","","66","","16","","6","","9.7","","99.11","","35","","","","Haze"
"1961-06-13 11:00","1961","06","13","11:00","28.9","","21.1","","63","","16","","11","","9.7","","99.06","","37","","","","Haze"
"1961-06-13 12:00","1961","06","13","12:00","28.3","","21.1","","65","","16","","16","","4.8","","98.98","","37","","","","Haze"
"1961-06-13 13:00","1961","06","13","13:00","27.8","","20.6","","65","","16","","19","","4.8","","98.90","","36","","","","Haze"
"1961-06-13 14:00","1961","06","13","14:00","25.6","","20.0","","72","","20","","34","","9.7","","98.86","","33","","","","Thunderstorms,Rain Showers,Haze"
"1961-06-13 15:00","1961","06","13","15:00","26.1","","19.4","","67","","32","","13","","11.3","","98.85","","33","","","","Mostly Cloudy"
"1961-06-13 16:00","1961","06","13","16:00","27.2","","18.3","","59","","34","","10","","11.3","","98.91","","33","","","","Cloudy"
"1961-06-13 17:00","1961","06","13","17:00","24.4","","18.9","","71","","2","","8","","12.9","","98.91","","31","","","","Rain Showers"
"1961-06-13 18:00","1961","06","13","18:00","24.4","","19.4","","75","","32","","14","","16.1","","98.91","","31","","","","Mostly Cloudy"
"1961-06-13 19:00","1961","06","13","19:00","24.4","","18.3","","68","","34","","26","","19.3","","98.94","","31","","","","Mostly Cloudy"
"1961-06-13 20:00","1961","06","13","20:00","20.0","","12.8","","63","","34","","16","","19.3","","98.99","","","","","","Mostly Cloudy"
"1961-06-13 21:00","1961","06","13","21:00","18.9","","12.2","","66","","36","","23","","19.3","","99.09","","","","","","Mostly Cloudy"
"1961-06-13 22:00","1961","06","13","22:00","17.8","","15.6","","88","","36","","24","","11.3","","99.09","","","","","","Cloudy"
"1961-06-13 23:00","1961","06","13","23:00","16.7","","15.0","","89","","36","","23","","11.3","","99.16","","","","","","Cloudy"
"1961-06-14 00:00","1961","06","14","00:00","15.6","","13.9","","90","","36","","24","","19.3","","99.16","","","","","","Cloudy"
"1961-06-14 01:00","1961","06","14","01:00","15.0","","13.3","","90","","36","","27","","24.1","","99.17","","","","","","Cloudy"
"1961-06-14 02:00","1961","06","14","02:00","14.4","","12.8","","90","","36","","24","","19.3","","99.21","","","","","","Rain Showers"
"1961-06-14 03:00","1961","06","14","03:00","13.9","","11.1","","85","","36","","14","","24.1","","99.24","","","","","","Cloudy"
"1961-06-14 04:00","1961","06","14","04:00","13.3","","10.6","","84","","2","","16","","25.0","","99.29","","","","","","Rain Showers"
"1961-06-14 05:00","1961","06","14","05:00","13.3","","11.1","","86","","36","","16","","24.1","","99.32","","","","","","Rain Showers"
"1961-06-14 06:00","1961","06","14","06:00","12.8","","10.0","","84","","36","","29","","12.9","","99.48","","","","","","Rain Showers"
"1961-06-14 07:00","1961","06","14","07:00","11.1","","9.4","","89","","2","","23","","12.9","","99.57","","","","","","Rain Showers"
"1961-06-14 08:00","1961","06","14","08:00","11.7","","9.4","","85","","2","","16","","24.1","","99.62","","","","","","Rain Showers"
"1961-06-14 09:00","1961","06","14","09:00","11.1","","7.8","","79","","2","","13","","24.1","","99.63","","","","","","Rain Showers"
"1961-06-14 10:00","1961","06","14","10:00","12.8","","7.8","","70","","2","","19","","25.0","","99.63","","","","","","Mostly Cloudy"
"1961-06-14 11:00","1961","06","14","11:00","13.3","","5.6","","60","","2","","19","","25.0","","99.65","","","","","","Mostly Cloudy"
"1961-06-14 12:00","1961","06","14","12:00","14.4","","7.2","","61","","2","","13","","25.0","","99.68","","","","","","Mostly Cloudy"
"1961-06-14 13:00","1961","06","14","13:00","14.4","","5.0","","52","","2","","21","","25.0","","99.64","","","","","","Mostly Cloudy"
"1961-06-14 14:00","1961","06","14","14:00","16.1","","5.6","","50","","2","","21","","25.0","","99.62","","","","","","Mostly Cloudy"
"1961-06-14 15:00","1961","06","14","15:00","17.8","","7.2","","50","","2","","24","","25.0","","99.59","","","","","","Mainly Clear"
"1961-06-14 16:00","1961","06","14","16:00","17.8","","6.7","","49","","36","","29","","25.0","","99.56","","","","","","Mainly Clear"
"1961-06-14 17:00","1961","06","14","17:00","16.1","","6.1","","52","","36","","32","","25.0","","99.57","","","","","","Mainly Clear"
"1961-06-14 18:00","1961","06","14","18:00","15.0","","5.0","","52","","36","","32","","25.0","","99.60","","","","","","Mainly Clear"
"1961-06-14 19:00","1961","06","14","19:00","13.9","","5.0","","54","","34","","32","","25.0","","99.66","","","","","","Mainly Clear"
"1961-06-14 20:00","1961","06","14","20:00","12.2","","5.0","","62","","34","","29","","25.0","","99.70","","","","","","Mostly Cloudy"
"1961-06-14 21:00","1961","06","14","21:00","11.1","","5.0","","65","","36","","24","","25.0","","99.80","","","","","","Mainly Clear"
"1961-06-14 22:00","1961","06","14","22:00","10.6","","5.0","","68","","34","","24","","25.0","","99.88","","","","","","Mainly Clear"
"1961-06-14 23:00","1961","06","14","23:00","10.6","","3.9","","63","","36","","23","","25.0","","99.92","","","","","","Mainly Clear"
"1961-06-15 00:00","1961","06","15","00:00","10.0","","3.3","","62","","36","","18","","25.0","","99.95","","","","","","Mainly Clear"
"1961-06-15 01:00","1961","06","15","01:00","9.4","","3.3","","67","","36","","16","","25.0","","99.98","","","","","","Mainly Clear"
"1961-06-15 02:00","1961","06","15","02:00","8.9","","3.3","","68","","36","","23","","25.0","","100.01","","","","","","Mainly Clear"
"1961-06-15 03:00","1961","06","15","03:00","8.3","","3.9","","73","","36","","24","","25.0","","100.04","","","","","","Clear"
"1961-06-15 04:00","1961","06","15","04:00","7.2","","3.9","","78","","36","","14","","25.0","","100.09","","","","","","Clear"
"1961-06-15 05:00","1961","06","15","05:00","6.7","","3.3","","80","","34","","13","","25.0","","100.18","","","","","","Mainly Clear"
"1961-06-15 06:00","1961","06","15","06:00","7.8","","3.9","","77","","36","","21","","25.0","","100.21","","","","","","Mainly Clear"
"1961-06-15 07:00","1961","06","15","07:00","9.4","","5.0","","73","","36","","13","","25.0","","100.26","","","","","","Mainly Clear"
"1961-06-15 08:00","1961","06","15","08:00","11.7","","5.0","","64","","36","","16","","25.0","","100.27","","","","","","Mainly Clear"
"1961-06-15 09:00","1961","06","15","09:00","12.8","","6.1","","64","","36","","16","","25.0","","100.25","","","","","","Mainly Clear"
"1961-06-15 10:00","1961","06","15","10:00","13.9","","5.0","","56","","34","","21","","25.0","","100.27","","","","","","Mainly Clear"
"1961-06-15 11:00","1961","06","15","11:00","13.9","","3.9","","51","","36","","21","","25.0","","100.24","","","","","","Mostly Cloudy"
"1961-06-15 12:00","1961","06","15","12:00","15.6","","4.4","","47","","36","","21","","25.0","","100.22","","","","","","Mostly Cloudy"
"1961-06-15 13:00","1961","06","15","13:00","16.1","","3.9","","44","","36","","19","","25.0","","100.20","","","","","","Mainly Clear"
"1961-06-15 14:00","1961","06","15","14:00","16.1","","3.3","","43","","36","","13","","25.0","","100.17","","","","","","Mainly Clear"
"1961-06-15 15:00","1961","06","15","15:00","17.2","","2.8","","38","","36","","24","","25.0","","100.18","","","","","","Mainly Clear"
"1961-06-15 16:00","1961","06","15","16:00","16.7","","2.2","","38","","34","","26","","25.0","","100.17","","","","","","Mainly Clear"
"1961-06-15 17:00","1961","06","15","17:00","16.7","","1.7","","37","","36","","27","","25.0","","100.14","","","","","","Mainly Clear"
"1961-06-15 18:00","1961","06","15","18:00","16.1","","1.7","","37","","34","","18","","25.0","","100.12","","","","","","Mainly Clear"
"1961-06-15 19:00","1961","06","15","19:00","16.1","","2.8","","41","","34","","16","","25.0","","100.14","","","","","","Mainly Clear"
"1961-06-15 20:00","1961","06","15","20:00","14.4","","3.3","","46","","34","","14","","25.0","","100.17","","","","","","Mainly Clear"
"1961-06-15 21:00","1961","06","15","21:00","12.8","","3.3","","53","","34","","8","","25.0","","100.21","","","","","","Mainly Clear"
"1961-06-15 22:00","1961","06","15","22:00","12.2","","2.8","","53","","29","","8","","25.0","","100.27","","","","","","Mainly Clear"
"1961-06-15 23:00","1961","06","15","23:00","10.6","","3.3","","61","","32","","13","","25.0","","100.29","","","","","","Mainly Clear"
"1961-06-16 00:00","1961","06","16","00:00","9.4","","3.3","","67","","32","","8","","25.0","","100.30","","","","","","Clear"
"1961-06-16 01:00","1961","06","16","01:00","8.9","","3.9","","70","","32","","8","","25.0","","100.29","","","","","","Clear"
"1961-06-16 02:00","1961","06","16","02:00","8.3","","3.3","","71","","32","","6","","25.0","","100.29","","","","","","Clear"
"1961-06-16 03:00","1961","06","16","03:00","7.8","","2.8","","71","","","","0","","25.0","","100.27","","","","","","Clear"
"1961-06-16 04:00","1961","06","16","04:00","7.8","","2.2","","69","","29","","8","","25.0","","100.27","","","","","","Mainly Clear"
"1961-06-16 05:00","1961","06","16","05:00","8.3","","2.8","","67","","29","","10","","25.0","","100.29","","","","","","Clear"
"1961-06-16 06:00","1961","06","16","06:00","10.6","","3.3","","61","","32","","13","","25.0","","100.32","","","","","","Clear"
"1961-06-16 07:00","1961","06","16","07:00","12.8","","4.4","","57","","32","","21","","25.0","","100.34","","","","","","Clear"
"1961-06-16 08:00","1961","06","16","08:00","15.6","","5.0","","50","","32","","19","","25.0","","100.37","","","","","","Clear"
"1961-06-16 09:00","1961","06","16","09:00","16.7","","5.0","","45","","29","","18","","25.0","","100.33","","","","","","Clear"
"1961-06-16 10:00","1961","06","16","10:00","17.8","","5.0","","44","","29","","14","","25.0","","100.31","","","","","","Clear"
"1961-06-16 11:00","1961","06","16","11:00","20.6","","6.7","","40","","29","","18","","25.0","","100.31","","","","","","Clear"
"1961-06-16 12:00","1961","06","16","12:00","20.6","","5.6","","37","","27","","11","","25.0","","100.25","","","","","","Mainly Clear"
"1961-06-16 13:00","1961","06","16","13:00","21.7","","7.2","","39","","34","","6","","25.0","","100.21","","","","","","Mainly Clear"
"1961-06-16 14:00","1961","06","16","14:00","22.2","","5.0","","33","","27","","16","","25.0","","100.15","","","","","","Mainly Clear"
"1961-06-16 15:00","1961","06","16","15:00","23.3","","5.6","","32","","27","","11","","25.0","","100.07","","","","","","Mainly Clear"
"1961-06-16 16:00","1961","06","16","16:00","23.3","","6.1","","33","","27","","11","","25.0","","100.07","","","","","","Mostly Cloudy"
"1961-06-16 17:00","1961","06","16","17:00","22.2","","6.1","","36","","27","","16","","25.0","","100.07","","","","","","Mostly Cloudy"
"1961-06-16 18:00","1961","06","16","18:00","22.2","","6.7","","37","","27","","16","","25.0","","100.07","","","","","","Mainly Clear"
"1961-06-16 19:00","1961","06","16","19:00","21.1","","8.3","","44","","27","","19","","25.0","","100.07","","","","","","Mainly Clear"
"1961-06-16 20:00","1961","06","16","20:00","18.9","","8.3","","50","","27","","13","","25.0","","100.07","","","","","","Mainly Clear"
"1961-06-16 21:00","1961","06","16","21:00","16.1","","7.8","","57","","25","","10","","25.0","","100.14","","","","","","Mainly Clear"
"1961-06-16 22:00","1961","06","16","22:00","14.4","","7.2","","61","","27","","13","","25.0","","100.14","","","","","","Clear"
"1961-06-16 23:00","1961","06","16","23:00","13.3","","6.1","","61","","23","","10","","25.0","","100.14","","","","","","Clear"
"1961-06-17 00:00","1961","06","17","00:00","12.8","","6.7","","67","","25","","10","","25.0","","100.14","","","","","","Clear"
"1961-06-17 01:00","1961","06","17","01:00","12.2","","6.7","","68","","23","","6","","25.0","","100.14","","","","","","Clear"
"1961-06-17 02:00","1961","06","17","02:00","11.1","","5.6","","69","","25","","11","","25.0","","100.12","","","","","","Clear"
"1961-06-17 03:00","1961","06","17","03:00","11.7","","6.7","","71","","25","","8","","25.0","","100.10","","","","","","Clear"
"1961-06-17 04:00","1961","06","17","04:00","11.7","","6.1","","68","","27","","10","","25.0","","100.10","","","","","","Mainly Clear"
"1961-06-17 05:00","1961","06","17","05:00","11.7","","6.7","","71","","25","","6","","24.1","","100.10","","","","","","Mainly Clear"
"1961-06-17 06:00","1961","06","17","06:00","13.3","","7.2","","66","","25","","6","","24.1","","100.12","","","","","","Mainly Clear"
"1961-06-17 07:00","1961","06","17","07:00","15.6","","6.7","","55","","27","","13","","24.1","","100.14","","","","","","Mainly Clear"
"1961-06-17 08:00","1961","06","17","08:00","17.8","","8.3","","54","","25","","10","","25.0","","100.14","","","","","","Mainly Clear"
"1961-06-17 09:00","1961","06","17","09:00","20.0","","8.9","","49","","27","","10","","25.0","","100.09","","","","","","Mainly Clear"
"1961-06-17 10:00","1961","06","17","10:00","21.7","","10.0","","48","","25","","16","","25.0","","100.08","","","","","","Clear"
"1961-06-17 11:00","1961","06","17","11:00","22.8","","10.0","","45","","25","","13","","25.0","","100.05","","","","","","Mainly Clear"
"1961-06-17 12:00","1961","06","17","12:00","23.9","","10.0","","42","","25","","19","","25.0","","100.01","","25","","","","Mainly Clear"
"1961-06-17 13:00","1961","06","17","13:00","24.4","","9.4","","39","","27","","19","","25.0","","99.97","","25","","","","Mainly Clear"
"1961-06-17 14:00","1961","06","17","14:00","24.4","","9.4","","39","","25","","19","","25.0","","99.90","","25","","","","Mostly Cloudy"
"1961-06-17 15:00","1961","06","17","15:00","25.0","","9.4","","37","","25","","21","","25.0","","99.86","","26","","","","Mostly Cloudy"
"1961-06-17 16:00","1961","06","17","16:00","24.4","","8.9","","38","","25","","24","","25.0","","99.82","","25","","","","Mostly Cloudy"
"1961-06-17 17:00","1961","06","17","17:00","23.9","","9.4","","39","","27","","24","","25.0","","99.78","","25","","","","Mostly Cloudy"
"1961-06-17 18:00","1961","06","17","18:00","23.3","","9.4","","41","","27","","19","","25.0","","99.75","","","","","","Mostly Cloudy"
"1961-06-17 19:00","1961","06","17","19:00","22.8","","10.6","","46","","27","","19","","25.0","","99.74","","","","","","Mostly Cloudy"
"1961-06-17 20:00","1961","06","17","20:00","20.0","","10.0","","53","","23","","13","","25.0","","99.73","","","","","","Mainly Clear"
"1961-06-17 21:00","1961","06","17","21:00","18.3","","12.8","","69","","23","","16","","25.0","","99.74","","","","","","Clear"
"1961-06-17 22:00","1961","06","17","22:00","16.7","","11.7","","73","","23","","16","","25.0","","99.71","","","","","","Clear"
"1961-06-17 23:00","1961","06","17","23:00","16.1","","11.1","","73","","23","","16","","24.1","","99.70","","","","","","Clear"
"1961-06-18 00:00","1961","06","18","00:00","14.4","","8.9","","69","","23","","11","","24.1","","99.67","","","","","","Clear"
"1961-06-18 01:00","1961","06","18","01:00","13.9","","8.3","","70","","23","","10","","25.0","","99.62","","","","","","Clear"
"1961-06-18 02:00","1961","06","18","02:00","13.3","","6.7","","64","","","","0","","25.0","","99.58","","","","","","Clear"
"1961-06-18 03:00","1961","06","18","03:00","13.3","","5.6","","58","","27","","13","","25.0","","99.57","","","","","","Clear"
"1961-06-18 04:00","1961","06","18","04:00","13.9","","6.7","","62","","25","","14","","25.0","","99.56","","","","","","Mainly Clear"
"1961-06-18 05:00","1961","06","18","05:00","12.8","","7.2","","69","","25","","13","","19.3","","99.57","","","","","","Mostly Cloudy"
"1961-06-18 06:00","1961","06","18","06:00","13.9","","8.3","","68","","27","","13","","19.3","","99.56","","","","","","Mostly Cloudy"
"1961-06-18 07:00","1961","06","18","07:00","15.6","","9.4","","67","","27","","14","","19.3","","99.54","","","","","","Mostly Cloudy"
"1961-06-18 08:00","1961","06","18","08:00","18.9","","10.6","","59","","25","","16","","24.1","","99.52","","","","","","Mostly Cloudy"
"1961-06-18 09:00","1961","06","18","09:00","20.6","","11.1","","56","","25","","16","","24.1","","99.48","","","","","","Mainly Clear"
"1961-06-18 10:00","1961","06","18","10:00","22.2","","11.1","","50","","27","","23","","24.1","","99.45","","","","","","Mainly Clear"
"1961-06-18 11:00","1961","06","18","11:00","23.9","","10.6","","43","","25","","29","","25.0","","99.42","","25","","","","Mainly Clear"
"1961-06-18 12:00","1961","06","18","12:00","25.0","","10.0","","38","","25","","29","","25.0","","99.36","","26","","","","Mainly Clear"
"1961-06-18 13:00","1961","06","18","13:00","25.6","","10.0","","38","","25","","32","","25.0","","99.31","","27","","","","Mainly Clear"
"1961-06-18 14:00","1961","06","18","14:00","25.6","","10.0","","38","","23","","35","","25.0","","99.25","","27","","","","Mostly Cloudy"
"1961-06-18 15:00","1961","06","18","15:00","25.6","","9.4","","37","","25","","32","","25.0","","99.22","","27","","","","Mainly Clear"
"1961-06-18 16:00","1961","06","18","16:00","25.6","","7.8","","32","","25","","37","","24.1","","99.21","","26","","","","Mainly Clear"
"1961-06-18 17:00","1961","06","18","17:00","25.0","","8.3","","35","","27","","34","","24.1","","99.15","","26","","","","Mainly Clear"
"1961-06-18 18:00","1961","06","18","18:00","24.4","","10.0","","40","","27","","31","","24.1","","99.13","","26","","","","Mainly Clear"
"1961-06-18 19:00","1961","06","18","19:00","23.9","","10.0","","42","","27","","26","","24.1","","99.14","","25","","","","Mainly Clear"
"1961-06-18 20:00","1961","06","18","20:00","21.7","","11.7","","52","","23","","16","","24.1","","99.09","","","","","","Mainly Clear"
"1961-06-18 21:00","1961","06","18","21:00","19.4","","12.2","","63","","20","","19","","24.1","","99.10","","","","","","Mainly Clear"
"1961-06-18 22:00","1961","06","18","22:00","18.3","","11.7","","65","","23","","16","","24.1","","99.10","","","","","","Mainly Clear"
"1961-06-18 23:00","1961","06","18","23:00","16.7","","11.7","","71","","23","","14","","24.1","","99.06","","","","","","Mainly Clear"
"1961-06-19 00:00","1961","06","19","00:00","16.7","","11.7","","73","","23","","24","","24.1","","99.03","","","","","","Mainly Clear"
"1961-06-19 01:00","1961","06","19","01:00","16.1","","11.7","","75","","23","","18","","24.1","","98.99","","","","","","Mainly Clear"
"1961-06-19 02:00","1961","06","19","02:00","15.6","","11.7","","77","","23","","14","","24.1","","98.94","","","","","","Mainly Clear"
"1961-06-19 03:00","1961","06","19","03:00","15.6","","11.7","","77","","23","","14","","19.3","","98.89","","","","","","Mainly Clear"
"1961-06-19 04:00","1961","06","19","04:00","15.0","","11.1","","77","","23","","18","","16.1","","98.83","","","","","","Mostly Cloudy"
"1961-06-19 05:00","1961","06","19","05:00","15.0","","11.1","","77","","20","","16","","12.9","","98.85","","","","","","Mostly Cloudy"
"1961-06-19 06:00","1961","06","19","06:00","15.6","","11.1","","76","","23","","18","","12.9","","98.84","","","","","","Cloudy"
"1961-06-19 07:00","1961","06","19","07:00","17.2","","11.1","","68","","23","","18","","12.9","","98.80","","","","","","Mostly Cloudy"
"1961-06-19 08:00","1961","06","19","08:00","20.0","","12.8","","63","","20","","23","","12.9","","98.76","","","","","","Mostly Cloudy"
"1961-06-19 09:00","1961","06","19","09:00","22.2","","13.3","","57","","23","","21","","12.9","","98.75","","25","","","","Mostly Cloudy"
"1961-06-19 10:00","1961","06","19","10:00","25.0","","13.3","","49","","23","","29","","12.9","","98.68","","28","","","","Mostly Cloudy"
"1961-06-19 11:00","1961","06","19","11:00","24.4","","13.3","","49","","23","","39","","16.1","","98.65","","27","","","","Mostly Cloudy"
"1961-06-19 12:00","1961","06","19","12:00","26.1","","13.9","","46","","23","","48","","19.3","","98.57","","29","","","","Mostly Cloudy"
"1961-06-19 13:00","1961","06","19","13:00","26.7","","12.8","","43","","23","","40","","19.3","","98.58","","29","","","","Mostly Cloudy"
"1961-06-19 14:00","1961","06","19","14:00","24.4","","13.9","","51","","23","","47","","16.1","","98.59","","28","","","","Cloudy"
"1961-06-19 15:00","1961","06","19","15:00","25.0","","13.9","","50","","25","","32","","16.1","","98.55","","28","","","","Rain Showers"
"1961-06-19 16:00","1961","06","19","16:00","20.6","","16.7","","79","","23","","29","","12.9","","98.53","","26","","","","Rain Showers"
"1961-06-19 17:00","1961","06","19","17:00","22.8","","17.2","","72","","25","","24","","12.9","","98.50","","28","","","","Rain Showers"
"1961-06-19 18:00","1961","06","19","18:00","21.1","","16.7","","76","","23","","13","","12.9","","98.50","","26","","","","Cloudy"
"1961-06-19 19:00","1961","06","19","19:00","20.6","","17.8","","85","","32","","29","","1.2","","98.58","","26","","","","Heavy Rain Showers"
"1961-06-19 20:00","1961","06","19","20:00","16.7","","16.1","","98","","23","","11","","12.9","","98.70","","","","","","Rain Showers"
"1961-06-19 21:00","1961","06","19","21:00","14.4","","13.9","","95","","36","","13","","12.9","","98.83","","","","","","Rain Showers"
"1961-06-19 22:00","1961","06","19","22:00","13.3","","12.2","","95","","29","","13","","12.9","","98.89","","","","","","Rain"
"1961-06-19 23:00","1961","06","19","23:00","12.2","","10.0","","87","","25","","8","","19.3","","98.93","","","","","","Rain"
"1961-06-20 00:00","1961","06","20","00:00","11.7","","9.4","","87","","27","","16","","25.0","","98.95","","","","","","Cloudy"
"1961-06-20 01:00","1961","06","20","01:00","11.1","","6.1","","72","","29","","24","","25.0","","98.99","","","","","","Mainly Clear"
"1961-06-20 02:00","1961","06","20","02:00","8.9","","3.9","","72","","32","","21","","25.0","","98.99","","","","","","Mainly Clear"
"1961-06-20 03:00","1961","06","20","03:00","7.8","","5.0","","81","","27","","16","","25.0","","98.98","","","","","","Clear"
"1961-06-20 04:00","1961","06","20","04:00","7.2","","3.9","","81","","32","","14","","25.0","","98.99","","","","","","Mainly Clear"
"1961-06-20 05:00","1961","06","20","05:00","7.2","","3.9","","81","","27","","8","","25.0","","99.05","","","","","","Mostly Cloudy"
"1961-06-20 06:00","1961","06","20","06:00","7.8","","5.0","","81","","34","","6","","25.0","","99.05","","","","","","Mostly Cloudy"
"1961-06-20 07:00","1961","06","20","07:00","8.9","","5.6","","80","","34","","5","","25.0","","99.12","","","","","","Mostly Cloudy"
"1961-06-20 08:00","1961","06","20","08:00","11.1","","7.2","","76","","2","","18","","25.0","","99.19","","","","","","Mostly Cloudy"
"1961-06-20 09:00","1961","06","20","09:00","11.7","","7.8","","78","","36","","13","","25.0","","99.21","","","","","","Cloudy"
"1961-06-20 10:00","1961","06","20","10:00","12.8","","8.3","","74","","2","","8","","25.0","","99.18","","","","","","Cloudy"
"1961-06-20 11:00","1961","06","20","11:00","13.3","","9.4","","76","","5","","10","","25.0","","99.22","","","","","","Cloudy"
"1961-06-20 12:00","1961","06","20","12:00","13.9","","8.9","","71","","36","","10","","25.0","","99.25","","","","","","Cloudy"
"1961-06-20 13:00","1961","06","20","13:00","14.4","","8.9","","70","","36","","13","","25.0","","99.22","","","","","","Cloudy"
"1961-06-20 14:00","1961","06","20","14:00","15.6","","10.0","","70","","36","","14","","25.0","","99.21","","","","","","Cloudy"
"1961-06-20 15:00","1961","06","20","15:00","15.6","","8.9","","65","","36","","21","","25.0","","99.19","","","","","","Cloudy"
"1961-06-20 16:00","1961","06","20","16:00","15.6","","8.9","","64","","36","","13","","25.0","","99.19","","","","","","Mostly Cloudy"
"1961-06-20 17:00","1961","06","20","17:00","15.6","","8.9","","64","","36","","13","","25.0","","99.19","","","","","","Mostly Cloudy"
"1961-06-20 18:00","1961","06","20","18:00","15.6","","8.9","","65","","7","","10","","25.0","","99.17","","","","","","Cloudy"
"1961-06-20 19:00","1961","06","20","19:00","16.1","","10.6","","69","","2","","14","","25.0","","99.15","","","","","","Mostly Cloudy"
"1961-06-20 20:00","1961","06","20","20:00","13.9","","8.9","","71","","36","","16","","25.0","","99.22","","","","","","Mostly Cloudy"
"1961-06-20 21:00","1961","06","20","21:00","12.8","","5.6","","62","","36","","14","","25.0","","99.22","","","","","","Mostly Cloudy"
"1961-06-20 22:00","1961","06","20","22:00","11.1","","5.6","","69","","36","","10","","25.0","","99.22","","","","","","Mainly Clear"
"1961-06-20 23:00","1961","06","20","23:00","11.1","","6.7","","74","","36","","11","","25.0","","99.20","","","","","","Mostly Cloudy"
"1961-06-21 00:00","1961","06","21","00:00","11.1","","6.7","","74","","36","","13","","25.0","","99.15","","","","","","Mostly Cloudy"
"1961-06-21 01:00","1961","06","21","01:00","9.4","","6.1","","80","","34","","16","","25.0","","99.12","","","","","","Mainly Clear"
"1961-06-21 02:00","1961","06","21","02:00","8.9","","5.0","","78","","36","","13","","25.0","","99.08","","","","","","Mainly Clear"
"1961-06-21 03:00","1961","06","21","03:00","8.9","","5.6","","80","","36","","16","","25.0","","99.05","","","","","","Mostly Cloudy"
"1961-06-21 04:00","1961","06","21","04:00","8.9","","4.4","","74","","36","","19","","25.0","","99.03","","","","","","Mostly Cloudy"
"1961-06-21 05:00","1961","06","21","05:00","8.9","","5.0","","78","","36","","18","","25.0","","99.01","","","","","","Mostly Cloudy"
"1961-06-21 06:00","1961","06","21","06:00","10.0","","5.6","","73","","36","","16","","25.0","","99.01","","","","","","Mostly Cloudy"
"1961-06-21 07:00","1961","06","21","07:00","10.6","","6.7","","75","","34","","16","","25.0","","99.06","","","","","","Mostly Cloudy"
"1961-06-21 08:00","1961","06","21","08:00","11.1","","6.7","","74","","36","","19","","25.0","","99.06","","","","","","Cloudy"
"1961-06-21 09:00","1961","06","21","09:00","12.8","","7.2","","69","","2","","16","","25.0","","99.02","","","","","","Cloudy"
"1961-06-21 10:00","1961","06","21","10:00","15.6","","9.4","","67","","36","","16","","25.0","","98.98","","","","","","Mostly Cloudy"
"1961-06-21 11:00","1961","06","21","11:00","16.7","","10.0","","65","","5","","16","","25.0","","98.95","","","","","","Mostly Cloudy"
"1961-06-21 12:00","1961","06","21","12:00","15.6","","7.8","","61","","14","","24","","24.1","","98.95","","","","","","Cloudy"
"1961-06-21 13:00","1961","06","21","13:00","13.3","","7.8","","69","","16","","21","","24.1","","98.91","","","","","","Mostly Cloudy"
"1961-06-21 14:00","1961","06","21","14:00","15.0","","9.4","","69","","18","","13","","24.1","","98.86","","","","","","Mostly Cloudy"
"1961-06-21 15:00","1961","06","21","15:00","15.6","","10.0","","70","","16","","11","","19.3","","98.80","","","","","","Mostly Cloudy"
"1961-06-21 16:00","1961","06","21","16:00","16.7","","10.6","","67","","","","0","","19.3","","98.74","","","","","","Mostly Cloudy"
"1961-06-21 17:00","1961","06","21","17:00","17.8","","11.1","","65","","20","","8","","19.3","","98.74","","","","","","Mostly Cloudy"
"1961-06-21 18:00","1961","06","21","18:00","18.9","","12.2","","66","","20","","10","","19.3","","98.74","","","","","","Mainly Clear"
"1961-06-21 19:00","1961","06","21","19:00","17.2","","12.2","","72","","18","","11","","16.1","","98.77","","","","","","Mainly Clear"
"1961-06-21 20:00","1961","06","21","20:00","15.0","","10.6","","74","","20","","6","","16.1","","98.81","","","","","","Mainly Clear"
"1961-06-21 21:00","1961","06","21","21:00","13.3","","10.0","","79","","","","0","","16.1","","98.86","","","","","","Clear"
"1961-06-21 22:00","1961","06","21","22:00","12.8","","9.4","","81","","","","0","","16.1","","98.91","","","","","","Clear"
"1961-06-21 23:00","1961","06","21","23:00","12.2","","8.9","","80","","","","0","","16.1","","98.91","","","","","","Clear"
"1961-06-22 00:00","1961","06","22","00:00","10.0","","7.2","","82","","27","","8","","16.1","","98.94","","","","","","Clear"
"1961-06-22 01:00","1961","06","22","01:00","9.4","","6.7","","82","","27","","6","","16.1","","98.98","","","","","","Clear"
"1961-06-22 02:00","1961","06","22","02:00","9.4","","6.1","","80","","32","","10","","16.1","","98.98","","","","","","Clear"
"1961-06-22 03:00","1961","06","22","03:00","8.3","","5.6","","81","","32","","10","","16.1","","98.99","","","","","","Clear"
"1961-06-22 04:00","1961","06","22","04:00","8.3","","5.6","","83","","","","0","","19.3","","99.01","","","","","","Clear"
"1961-06-22 05:00","1961","06","22","05:00","7.2","","5.0","","87","","23","","8","","24.1","","99.08","","","","","","Clear"
"1961-06-22 06:00","1961","06","22","06:00","9.4","","6.1","","80","","","","0","","25.0","","99.10","","","","","","Mainly Clear"
"1961-06-22 07:00","1961","06","22","07:00","11.1","","7.2","","76","","","","0","","25.0","","99.16","","","","","","Mainly Clear"
"1961-06-22 08:00","1961","06","22","08:00","14.4","","8.9","","69","","","","0","","25.0","","99.16","","","","","","Mostly Cloudy"
"1961-06-22 09:00","1961","06","22","09:00","17.2","","8.3","","55","","29","","8","","25.0","","99.17","","","","","","Mainly Clear"
"1961-06-22 10:00","1961","06","22","10:00","18.9","","6.7","","45","","","","0","","25.0","","99.16","","","","","","Mainly Clear"
"1961-06-22 11:00","1961","06","22","11:00","20.6","","8.9","","48","","","","0","","25.0","","99.14","","","","","","Mainly Clear"
"1961-06-22 12:00","1961","06","22","12:00","21.7","","9.4","","46","","18","","13","","25.0","","99.11","","","","","","Mostly Cloudy"
"1961-06-22 13:00","1961","06","22","13:00","21.7","","10.6","","49","","18","","16","","25.0","","99.07","","","","","","Mostly Cloudy"
"1961-06-22 14:00","1961","06","22","14:00","22.8","","7.8","","38","","14","","19","","24.1","","99.02","","","","","","Mostly Cloudy"
"1961-06-22 15:00","1961","06","22","15:00","22.8","","7.8","","38","","16","","19","","24.1","","99.02","","","","","","Mostly Cloudy"
"1961-06-22 16:00","1961","06","22","16:00","22.2","","7.2","","38","","16","","19","","24.1","","99.00","","","","","","Mostly Cloudy"
"1961-06-22 17:00","1961","06","22","17:00","22.2","","6.7","","37","","18","","16","","25.0","","98.97","","","","","","Mainly Clear"
"1961-06-22 18:00","1961","06","22","18:00","21.7","","6.7","","37","","16","","16","","25.0","","98.89","","","","","","Mostly Cloudy"
"1961-06-22 19:00","1961","06","22","19:00","20.0","","6.7","","42","","16","","13","","24.1","","98.96","","","","","","Mostly Cloudy"
"1961-06-22 20:00","1961","06","22","20:00","18.9","","6.1","","44","","16","","6","","24.1","","98.94","","","","","","Mostly Cloudy"
"1961-06-22 21:00","1961","06","22","21:00","17.8","","8.9","","56","","","","0","","24.1","","98.92","","","","","","Mostly Cloudy"
"1961-06-22 22:00","1961","06","22","22:00","17.8","","7.2","","50","","","","0","","24.1","","98.91","","","","","","Mostly Cloudy"
"1961-06-22 23:00","1961","06","22","23:00","17.8","","6.1","","47","","","","0","","24.1","","98.91","","","","","","Mostly Cloudy"
"1961-06-23 00:00","1961","06","23","00:00","16.7","","7.8","","56","","9","","8","","24.1","","98.80","","","","","","Rain Showers"
"1961-06-23 01:00","1961","06","23","01:00","16.7","","6.7","","52","","9","","8","","24.1","","98.73","","","","","","Cloudy"
"1961-06-23 02:00","1961","06","23","02:00","15.0","","10.0","","71","","9","","5","","24.1","","98.65","","","","","","Mainly Clear"
"1961-06-23 03:00","1961","06","23","03:00","14.4","","10.0","","73","","5","","3","","24.1","","98.55","","","","","","Mainly Clear"
"1961-06-23 04:00","1961","06","23","04:00","15.6","","10.6","","73","","9","","14","","19.3","","98.48","","","","","","Mostly Cloudy"
"1961-06-23 05:00","1961","06","23","05:00","15.0","","11.7","","80","","14","","10","","11.3","","98.46","","","","","","Mostly Cloudy"
"1961-06-23 06:00","1961","06","23","06:00","15.6","","12.2","","81","","11","","10","","6.4","","98.42","","","","","","Haze"
"1961-06-23 07:00","1961","06","23","07:00","15.6","","12.8","","84","","14","","11","","4.8","","98.41","","","","","","Rain Showers,Haze"
"1961-06-23 08:00","1961","06","23","08:00","15.6","","13.9","","90","","14","","10","","2.4","","98.40","","","","","","Rain Showers,Fog"
"1961-06-23 09:00","1961","06","23","09:00","15.6","","14.4","","93","","14","","13","","2.0","","98.39","","","","","","Rain Showers,Fog"
"1961-06-23 10:00","1961","06","23","10:00","17.8","","15.6","","88","","18","","13","","2.0","","98.37","","","","","","Fog"
"1961-06-23 11:00","1961","06","23","11:00","18.3","","15.0","","82","","14","","13","","2.4","","98.35","","","","","","Haze"
"1961-06-23 12:00","1961","06","23","12:00","20.0","","16.1","","77","","16","","16","","3.2","","98.32","","25","","","","Haze"
"1961-06-23 13:00","1961","06","23","13:00","18.9","","16.1","","84","","16","","19","","3.2","","98.28","","","","","","Haze"
"1961-06-23 14:00","1961","06","23","14:00","21.1","","16.7","","76","","18","","24","","6.4","","98.23","","26","","","","Haze"
"1961-06-23 15:00","1961","06","23","15:00","19.4","","15.6","","79","","16","","16","","4.8","","98.24","","","","","","Haze"
"1961-06-23 16:00","1961","06","23","16:00","19.4","","16.1","","81","","16","","16","","3.2","","98.22","","","","","","Haze"
"1961-06-23 17:00","1961","06","23","17:00","19.4","","16.7","","84","","20","","29","","11.3","","98.23","","","","","","Mostly Cloudy"
"1961-06-23 18:00","1961","06","23","18:00","18.3","","13.3","","72","","23","","32","","12.9","","98.27","","","","","","Mostly Cloudy"
"1961-06-23 19:00","1961","06","23","19:00","17.8","","11.7","","66","","23","","39","","11.3","","98.36","","","","","","Mostly Cloudy"
"1961-06-23 20:00","1961","06","23","20:00","15.0","","10.6","","74","","23","","27","","11.3","","98.43","","","","","","Cloudy"
"1961-06-23 21:00","1961","06","23","21:00","13.9","","9.4","","75","","23","","29","","19.3","","98.49","","","","","","Cloudy"
"1961-06-23 22:00","1961","06","23","22:00","13.3","","9.4","","78","","20","","26","","25.0","","98.50","","","","","","Cloudy"
"1961-06-23 23:00","1961","06","23","23:00","13.3","","10.0","","81","","20","","24","","25.0","","98.50","","","","","","Cloudy"
"1961-06-24 00:00","1961","06","24","00:00","13.3","","10.6","","84","","20","","27","","25.0","","98.49","","","","","","Mostly Cloudy"
"1961-06-24 01:00","1961","06","24","01:00","13.3","","10.6","","84","","23","","23","","25.0","","98.53","","","","","","Mostly Cloudy"
"1961-06-24 02:00","1961","06","24","02:00","12.8","","8.9","","77","","20","","23","","25.0","","98.56","","","","","","Mostly Cloudy"
"1961-06-24 03:00","1961","06","24","03:00","12.8","","8.9","","77","","20","","21","","25.0","","98.55","","","","","","Mostly Cloudy"
"1961-06-24 04:00","1961","06","24","04:00","11.7","","9.4","","85","","23","","19","","24.1","","98.62","","","","","","Rain Showers"
"1961-06-24 05:00","1961","06","24","05:00","11.7","","9.4","","85","","23","","26","","24.1","","98.66","","","","","","Mostly Cloudy"
"1961-06-24 06:00","1961","06","24","06:00","11.7","","8.9","","83","","20","","21","","16.1","","98.73","","","","","","Cloudy"
"1961-06-24 07:00","1961","06","24","07:00","11.1","","9.4","","89","","23","","26","","11.3","","98.84","","","","","","Rain Showers"
"1961-06-24 08:00","1961","06","24","08:00","11.1","","7.8","","81","","25","","29","","16.1","","98.89","","","","","","Cloudy"
"1961-06-24 09:00","1961","06","24","09:00","12.8","","7.8","","70","","27","","32","","24.1","","98.96","","","","","","Mostly Cloudy"
"1961-06-24 10:00","1961","06","24","10:00","14.4","","7.2","","63","","27","","32","","24.1","","99.04","","","","","","Mostly Cloudy"
"1961-06-24 11:00","1961","06","24","11:00","17.2","","6.7","","50","","25","","32","","25.0","","99.09","","","","","","Mostly Cloudy"
"1961-06-24 12:00","1961","06","24","12:00","17.8","","6.1","","47","","25","","39","","25.0","","99.12","","","","","","Mostly Cloudy"
"1961-06-24 13:00","1961","06","24","13:00","18.9","","5.0","","41","","27","","32","","25.0","","99.12","","","","","","Mainly Clear"
"1961-06-24 14:00","1961","06","24","14:00","19.4","","3.9","","35","","27","","29","","25.0","","99.14","","","","","","Mainly Clear"
"1961-06-24 15:00","1961","06","24","15:00","20.0","","5.0","","38","","23","","24","","25.0","","99.15","","","","","","Mostly Cloudy"
"1961-06-24 16:00","1961","06","24","16:00","20.6","","5.0","","36","","25","","26","","25.0","","99.14","","","","","","Mostly Cloudy"
"1961-06-24 17:00","1961","06","24","17:00","20.6","","4.4","","34","","27","","24","","25.0","","99.14","","","","","","Mostly Cloudy"
"1961-06-24 18:00","1961","06","24","18:00","19.4","","7.8","","46","","23","","16","","25.0","","99.18","","","","","","Mainly Clear"
"1961-06-24 19:00","1961","06","24","19:00","18.9","","8.3","","50","","20","","13","","25.0","","99.18","","","","","","Mainly Clear"
"1961-06-24 20:00","1961","06","24","20:00","17.2","","8.9","","59","","20","","10","","25.0","","99.18","","","","","","Mainly Clear"
"1961-06-24 21:00","1961","06","24","21:00","16.7","","8.9","","60","","20","","10","","25.0","","99.21","","","","","","Mainly Clear"
"1961-06-24 22:00","1961","06","24","22:00","15.6","","7.8","","61","","18","","13","","24.1","","99.21","","","","","","Mainly Clear"
"1961-06-24 23:00","1961","06","24","23:00","14.4","","8.9","","69","","18","","10","","24.1","","99.21","","","","","","Mostly Cloudy"
"1961-06-25 00:00","1961","06","25","00:00","13.3","","10.0","","81","","18","","8","","24.1","","99.20","","","","","","Mostly Cloudy"
"1961-06-25 01:00","1961","06","25","01:00","12.8","","10.0","","84","","18","","13","","24.1","","99.16","","","","","","Mostly Cloudy"
"1961-06-25 02:00","1961","06","25","02:00","12.2","","10.0","","87","","18","","10","","19.3","","99.09","","","","","","Mainly Clear"
"1961-06-25 03:00","1961","06","25","03:00","12.2","","10.0","","87","","18","","8","","19.3","","99.05","","","","","","Mainly Clear"
"1961-06-25 04:00","1961","06","25","04:00","12.2","","10.0","","87","","16","","6","","12.9","","99.03","","","","","","Mostly Cloudy"
"1961-06-25 05:00","1961","06","25","05:00","12.2","","10.0","","87","","16","","8","","9.7","","99.05","","","","","","Haze"
"1961-06-25 06:00","1961","06","25","06:00","12.8","","10.6","","86","","14","","6","","11.3","","99.00","","","","","","Cloudy"
"1961-06-25 07:00","1961","06","25","07:00","13.3","","11.1","","88","","16","","14","","6.4","","99.04","","","","","","Haze"
"1961-06-25 08:00","1961","06","25","08:00","13.3","","12.2","","93","","18","","8","","3.2","","99.04","","","","","","Rain Showers,Fog"
"1961-06-25 09:00","1961","06","25","09:00","14.4","","13.3","","93","","18","","8","","16.1","","99.04","","","","","","Rain Showers"
"1961-06-25 10:00","1961","06","25","10:00","16.1","","13.9","","87","","20","","19","","19.3","","99.04","","","","","","Mostly Cloudy"
"1961-06-25 11:00","1961","06","25","11:00","17.2","","13.3","","77","","23","","23","","19.3","","99.02","","","","","","Mostly Cloudy"
"1961-06-25 12:00","1961","06","25","12:00","19.4","","12.2","","63","","23","","23","","19.3","","98.98","","","","","","Thunderstorms"
"1961-06-25 13:00","1961","06","25","13:00","18.3","","12.8","","71","","23","","19","","19.3","","98.98","","","","","","Cloudy"
"1961-06-25 14:00","1961","06","25","14:00","15.0","","11.7","","82","","25","","29","","19.3","","99.01","","","","","","Cloudy"
"1961-06-25 15:00","1961","06","25","15:00","16.7","","10.0","","65","","27","","24","","19.3","","99.06","","","","","","Cloudy"
"1961-06-25 16:00","1961","06","25","16:00","16.7","","10.0","","65","","27","","35","","24.1","","99.10","","","","","","Mostly Cloudy"
"1961-06-25 17:00","1961","06","25","17:00","16.1","","9.4","","65","","27","","24","","25.0","","99.17","","","","","","Mostly Cloudy"
"1961-06-25 18:00","1961","06","25","18:00","16.1","","8.9","","63","","27","","21","","25.0","","99.21","","","","","","Mostly Cloudy"
"1961-06-25 19:00","1961","06","25","19:00","15.6","","8.9","","64","","27","","21","","25.0","","99.28","","","","","","Mostly Cloudy"
"1961-06-25 20:00","1961","06","25","20:00","14.4","","9.4","","72","","27","","14","","25.0","","99.31","","","","","","Mostly Cloudy"
"1961-06-25 21:00","1961","06","25","21:00","13.3","","10.0","","79","","25","","11","","25.0","","99.35","","","","","","Mainly Clear"
"1961-06-25 22:00","1961","06","25","22:00","12.8","","10.0","","82","","25","","13","","25.0","","99.38","","","","","","Cloudy"
"1961-06-25 23:00","1961","06","25","23:00","12.8","","10.0","","82","","25","","16","","25.0","","99.43","","","","","","Cloudy"
"1961-06-26 00:00","1961","06","26","00:00","13.3","","10.0","","81","","25","","16","","25.0","","99.44","","","","","","Mostly Cloudy"
"1961-06-26 01:00","1961","06","26","01:00","13.3","","10.6","","83","","27","","11","","25.0","","99.48","","","","","","Mostly Cloudy"
"1961-06-26 02:00","1961","06","26","02:00","13.3","","10.0","","81","","34","","19","","25.0","","99.50","","","","","","Mostly Cloudy"
"1961-06-26 03:00","1961","06","26","03:00","13.3","","9.4","","78","","29","","6","","25.0","","99.52","","","","","","Mostly Cloudy"
"1961-06-26 04:00","1961","06","26","04:00","12.8","","9.4","","79","","25","","10","","25.0","","99.55","","","","","","Mostly Cloudy"
"1961-06-26 05:00","1961","06","26","05:00","12.8","","10.0","","82","","27","","13","","25.0","","99.60","","","","","","Mostly Cloudy"
"1961-06-26 06:00","1961","06","26","06:00","13.9","","10.0","","78","","23","","11","","25.0","","99.62","","","","","","Mostly Cloudy"
"1961-06-26 07:00","1961","06","26","07:00","14.4","","10.0","","75","","29","","19","","25.0","","99.64","","","","","","Mainly Clear"
"1961-06-26 08:00","1961","06","26","08:00","16.7","","11.1","","69","","27","","14","","25.0","","99.71","","","","","","Mainly Clear"
"1961-06-26 09:00","1961","06","26","09:00","17.8","","10.6","","63","","27","","6","","25.0","","99.75","","","","","","Mainly Clear"
"1961-06-26 10:00","1961","06","26","10:00","19.4","","11.1","","58","","23","","10","","25.0","","99.77","","","","","","Mainly Clear"
"1961-06-26 11:00","1961","06","26","11:00","20.6","","11.7","","57","","20","","10","","25.0","","99.79","","","","","","Mostly Cloudy"
"1961-06-26 12:00","1961","06","26","12:00","21.7","","11.1","","51","","18","","5","","25.0","","99.75","","","","","","Mostly Cloudy"
"1961-06-26 13:00","1961","06","26","13:00","22.8","","12.2","","52","","23","","6","","25.0","","99.72","","25","","","","Mostly Cloudy"
"1961-06-26 14:00","1961","06","26","14:00","23.3","","8.9","","40","","18","","6","","25.0","","99.70","","","","","","Mainly Clear"
"1961-06-26 15:00","1961","06","26","15:00","24.4","","9.4","","39","","23","","18","","25.0","","99.68","","25","","","","Mainly Clear"
"1961-06-26 16:00","1961","06","26","16:00","24.4","","8.3","","36","","29","","13","","25.0","","99.66","","25","","","","Mostly Cloudy"
"1961-06-26 17:00","1961","06","26","17:00","24.4","","9.4","","39","","29","","11","","25.0","","99.64","","25","","","","Mostly Cloudy"
"1961-06-26 18:00","1961","06","26","18:00","23.3","","13.3","","54","","18","","11","","25.0","","99.63","","26","","","","Mostly Cloudy"
"1961-06-26 19:00","1961","06","26","19:00","22.2","","13.9","","59","","18","","13","","25.0","","99.66","","26","","","","Mostly Cloudy"
"1961-06-26 20:00","1961","06","26","20:00","20.0","","12.8","","63","","20","","11","","25.0","","99.65","","","","","","Mainly Clear"
"1961-06-26 21:00","1961","06","26","21:00","17.8","","11.1","","65","","23","","16","","25.0","","99.69","","","","","","Mainly Clear"
"1961-06-26 22:00","1961","06","26","22:00","16.7","","11.7","","73","","27","","13","","25.0","","99.72","","","","","","Mainly Clear"
"1961-06-26 23:00","1961","06","26","23:00","16.1","","11.7","","75","","27","","8","","25.0","","99.75","","","","","","Mainly Clear"
"1961-06-27 00:00","1961","06","27","00:00","15.6","","10.6","","73","","27","","5","","25.0","","99.73","","","","","","Mainly Clear"
"1961-06-27 01:00","1961","06","27","01:00","15.6","","11.1","","74","","32","","3","","25.0","","99.70","","","","","","Clear"
"1961-06-27 02:00","1961","06","27","02:00","13.3","","10.6","","83","","27","","3","","25.0","","99.69","","","","","","Clear"
"1961-06-27 03:00","1961","06","27","03:00","13.9","","10.0","","76","","","","0","","25.0","","99.68","","","","","","Clear"
"1961-06-27 04:00","1961","06","27","04:00","13.3","","9.4","","78","","","","0","","25.0","","99.68","","","","","","Clear"
"1961-06-27 05:00","1961","06","27","05:00","12.8","","9.4","","79","","","","0","","25.0","","99.72","","","","","","Mainly Clear"
"1961-06-27 06:00","1961","06","27","06:00","12.8","","10.0","","82","","14","","3","","19.3","","99.71","","","","","","Mainly Clear"
"1961-06-27 07:00","1961","06","27","07:00","15.0","","10.0","","72","","18","","3","","16.1","","99.72","","","","","","Mainly Clear"
"1961-06-27 08:00","1961","06","27","08:00","18.3","","10.6","","60","","16","","11","","11.3","","99.75","","","","","","Mainly Clear"
"1961-06-27 09:00","1961","06","27","09:00","19.4","","11.1","","58","","16","","11","","11.3","","99.75","","","","","","Mainly Clear"
"1961-06-27 10:00","1961","06","27","10:00","20.6","","12.8","","60","","14","","5","","11.3","","99.72","","","","","","Mainly Clear"
"1961-06-27 11:00","1961","06","27","11:00","21.1","","13.3","","61","","14","","6","","8.0","","99.74","","","","","","Haze"
"1961-06-27 12:00","1961","06","27","12:00","24.4","","14.4","","54","","16","","8","","8.0","","99.69","","28","","","","Haze"
"1961-06-27 13:00","1961","06","27","13:00","24.4","","15.0","","55","","14","","14","","9.7","","99.65","","28","","","","Haze"
"1961-06-27 14:00","1961","06","27","14:00","22.8","","13.9","","58","","14","","16","","9.7","","99.64","","26","","","","Rain Showers,Haze"
"1961-06-27 15:00","1961","06","27","15:00","20.0","","16.7","","81","","14","","23","","8.0","","99.62","","25","","","","Heavy Rain Showers,Haze"
"1961-06-27 16:00","1961","06","27","16:00","22.2","","15.6","","65","","14","","16","","9.7","","99.57","","27","","","","Haze"
"1961-06-27 17:00","1961","06","27","17:00","23.9","","15.6","","60","","16","","14","","11.3","","99.53","","28","","","","Mostly Cloudy"
"1961-06-27 18:00","1961","06","27","18:00","23.3","","14.4","","58","","20","","13","","11.3","","99.49","","27","","","","Mostly Cloudy"
"1961-06-27 19:00","1961","06","27","19:00","21.7","","14.4","","63","","23","","10","","19.3","","99.50","","25","","","","Rain Showers"
"1961-06-27 20:00","1961","06","27","20:00","20.6","","15.0","","71","","20","","8","","16.1","","99.54","","25","","","","Cloudy"
"1961-06-27 21:00","1961","06","27","21:00","20.6","","13.3","","64","","23","","11","","19.3","","99.56","","","","","","Mostly Cloudy"
"1961-06-27 22:00","1961","06","27","22:00","18.3","","13.3","","72","","23","","10","","24.1","","99.54","","","","","","Mostly Cloudy"
"1961-06-27 23:00","1961","06","27","23:00","17.8","","13.3","","76","","23","","8","","25.0","","99.54","","","","","","Mostly Cloudy"
"1961-06-28 00:00","1961","06","28","00:00","17.8","","13.3","","76","","20","","6","","24.1","","99.53","","","","","","Mostly Cloudy"
"1961-06-28 01:00","1961","06","28","01:00","17.2","","12.8","","75","","20","","8","","24.1","","99.53","","","","","","Cloudy"
"1961-06-28 02:00","1961","06","28","02:00","16.7","","13.3","","81","","20","","8","","24.1","","99.50","","","","","","Mainly Clear"
"1961-06-28 03:00","1961","06","28","03:00","16.1","","12.8","","81","","20","","8","","24.1","","99.48","","","","","","Mostly Cloudy"
"1961-06-28 04:00","1961","06","28","04:00","16.1","","12.8","","81","","20","","6","","24.1","","99.51","","","","","","Rain Showers"
"1961-06-28 05:00","1961","06","28","05:00","16.1","","12.8","","81","","18","","5","","24.1","","99.61","","","","","","Cloudy"
"1961-06-28 06:00","1961","06","28","06:00","17.2","","12.8","","75","","20","","11","","24.1","","99.63","","","","","","Cloudy"
"1961-06-28 07:00","1961","06","28","07:00","17.2","","12.8","","75","","20","","10","","16.1","","99.63","","","","","","Cloudy"
"1961-06-28 08:00","1961","06","28","08:00","18.3","","13.9","","74","","18","","6","","6.4","","99.65","","","","","","Rain Showers,Haze"
"1961-06-28 09:00","1961","06","28","09:00","17.8","","14.4","","80","","18","","11","","6.4","","99.63","","","","","","Rain Showers,Haze"
"1961-06-28 10:00","1961","06","28","10:00","17.8","","15.6","","86","","18","","3","","4.8","","99.65","","","","","","Rain Showers,Haze"
"1961-06-28 11:00","1961","06","28","11:00","18.3","","17.2","","92","","16","","16","","3.2","","99.56","","","","","","Rain Showers,Haze"
"1961-06-28 12:00","1961","06","28","12:00","22.8","","17.8","","74","","16","","10","","4.8","","99.54","","29","","","","Haze"
"1961-06-28 13:00","1961","06","28","13:00","25.0","","17.8","","64","","16","","18","","8.0","","99.50","","31","","","","Haze"
"1961-06-28 14:00","1961","06","28","14:00","27.8","","16.7","","52","","23","","19","","11.3","","99.43","","33","","","","Mainly Clear"
"1961-06-28 15:00","1961","06","28","15:00","27.2","","17.8","","56","","23","","26","","11.3","","99.40","","33","","","","Mostly Cloudy"
"1961-06-28 16:00","1961","06","28","16:00","27.8","","16.1","","49","","20","","27","","11.3","","99.36","","32","","","","Mainly Clear"
"1961-06-28 17:00","1961","06","28","17:00","27.8","","16.1","","49","","23","","26","","11.3","","99.40","","32","","","","Mainly Clear"
"1961-06-28 18:00","1961","06","28","18:00","26.7","","17.2","","56","","23","","13","","11.3","","99.43","","32","","","","Mainly Clear"
"1961-06-28 19:00","1961","06","28","19:00","26.1","","17.8","","61","","20","","8","","11.3","","99.44","","32","","","","Mainly Clear"
"1961-06-28 20:00","1961","06","28","20:00","23.9","","17.2","","66","","18","","10","","11.3","","99.46","","29","","","","Mainly Clear"
"1961-06-28 21:00","1961","06","28","21:00","22.8","","16.7","","69","","20","","14","","11.3","","99.51","","28","","","","Mainly Clear"
"1961-06-28 22:00","1961","06","28","22:00","21.7","","15.6","","68","","23","","16","","16.1","","99.52","","26","","","","Mainly Clear"
"1961-06-28 23:00","1961","06","28","23:00","21.1","","15.6","","71","","23","","11","","16.1","","99.52","","25","","","","Mainly Clear"
"1961-06-29 00:00","1961","06","29","00:00","20.6","","15.0","","71","","23","","13","","12.9","","99.51","","25","","","","Mainly Clear"
"1961-06-29 01:00","1961","06","29","01:00","21.1","","15.0","","69","","23","","10","","12.9","","99.50","","25","","","","Mainly Clear"
"1961-06-29 02:00","1961","06","29","02:00","20.0","","15.0","","74","","23","","8","","12.9","","99.46","","","","","","Mainly Clear"
"1961-06-29 03:00","1961","06","29","03:00","20.0","","13.9","","68","","27","","10","","12.9","","99.46","","","","","","Mainly Clear"
"1961-06-29 04:00","1961","06","29","04:00","18.9","","13.3","","71","","25","","6","","11.3","","99.47","","","","","","Mainly Clear"
"1961-06-29 05:00","1961","06","29","05:00","18.9","","14.4","","75","","27","","6","","11.3","","99.52","","","","","","Mainly Clear"
"1961-06-29 06:00","1961","06","29","06:00","19.4","","15.6","","77","","20","","5","","11.3","","99.54","","","","","","Mainly Clear"
"1961-06-29 07:00","1961","06","29","07:00","20.6","","16.7","","79","","18","","6","","11.3","","99.58","","26","","","","Mainly Clear"
"1961-06-29 08:00","1961","06","29","08:00","22.8","","18.3","","75","","18","","5","","8.0","","99.59","","29","","","","Haze"
"1961-06-29 09:00","1961","06","29","09:00","25.6","","18.9","","66","","23","","6","","8.0","","99.57","","32","","","","Haze"
"1961-06-29 10:00","1961","06","29","10:00","27.8","","20.0","","62","","23","","11","","8.0","","99.55","","35","","","","Haze"
"1961-06-29 11:00","1961","06","29","11:00","28.9","","20.6","","62","","23","","16","","8.0","","99.53","","37","","","","Haze"
"1961-06-29 12:00","1961","06","29","12:00","30.0","","22.8","","65","","23","","19","","8.0","","99.49","","40","","","","Haze"
"1961-06-29 13:00","1961","06","29","13:00","31.1","","21.7","","57","","23","","23","","8.0","","99.49","","40","","","","Haze"
"1961-06-29 14:00","1961","06","29","14:00","32.8","","23.3","","58","","23","","19","","8.0","","99.45","","43","","","","Haze"
"1961-06-29 15:00","1961","06","29","15:00","32.2","","21.7","","54","","27","","27","","9.7","","99.43","","41","","","","Haze"
"1961-06-29 16:00","1961","06","29","16:00","30.6","","21.1","","57","","27","","27","","12.9","","99.43","","39","","","","Mostly Cloudy"
"1961-06-29 17:00","1961","06","29","17:00","30.0","","21.7","","61","","27","","21","","12.9","","99.44","","39","","","","Cloudy"
"1961-06-29 18:00","1961","06","29","18:00","28.9","","21.1","","63","","27","","13","","12.9","","99.45","","37","","","","Mostly Cloudy"
"1961-06-29 19:00","1961","06","29","19:00","28.3","","21.7","","67","","27","","6","","12.9","","99.46","","37","","","","Cloudy"
"1961-06-29 20:00","1961","06","29","20:00","27.2","","20.6","","67","","25","","10","","8.0","","99.40","","35","","","","Haze"
"1961-06-29 21:00","1961","06","29","21:00","25.6","","21.7","","78","","25","","6","","9.7","","99.43","","35","","","","Haze"
"1961-06-29 22:00","1961","06","29","22:00","25.0","","21.7","","83","","25","","14","","12.9","","99.51","","34","","","","Cloudy"
"1961-06-29 23:00","1961","06","29","23:00","23.3","","16.7","","66","","27","","56","","12.9","","99.59","","28","","","","Thunderstorms,Rain Showers"
"1961-06-30 00:00","1961","06","30","00:00","22.8","","15.6","","64","","25","","26","","12.9","","99.47","","27","","","","Cloudy"
"1961-06-30 01:00","1961","06","30","01:00","22.2","","15.6","","65","","29","","19","","11.3","","99.40","","27","","","","Mostly Cloudy"
"1961-06-30 02:00","1961","06","30","02:00","21.7","","15.0","","66","","29","","13","","11.3","","99.43","","26","","","","Mostly Cloudy"
"1961-06-30 03:00","1961","06","30","03:00","21.7","","15.0","","65","","29","","11","","9.7","","99.46","","26","","","","Haze"
"1961-06-30 04:00","1961","06","30","04:00","21.1","","14.4","","66","","32","","8","","12.9","","99.51","","25","","","","Mostly Cloudy"
"1961-06-30 05:00","1961","06","30","05:00","21.1","","15.0","","68","","32","","8","","12.9","","99.61","","25","","","","Mostly Cloudy"
"1961-06-30 06:00","1961","06","30","06:00","21.1","","15.6","","71","","23","","10","","12.9","","99.65","","25","","","","Mostly Cloudy"
"1961-06-30 07:00","1961","06","30","07:00","21.7","","16.7","","73","","32","","6","","12.9","","99.69","","27","","","","Mostly Cloudy"
"1961-06-30 08:00","1961","06","30","08:00","21.1","","17.2","","78","","27","","21","","0.8","","99.84","","27","","","","Thunderstorms,Heavy Rain Showers,Haze"
"1961-06-30 09:00","1961","06","30","09:00","19.4","","18.3","","92","","23","","8","","4.8","","99.73","","","","","","Thunderstorms,Rain Showers,Fog"
"1961-06-30 10:00","1961","06","30","10:00","21.1","","18.9","","87","","36","","5","","11.3","","99.73","","28","","","","Mainly Clear"
"1961-06-30 11:00","1961","06","30","11:00","22.2","","19.4","","84","","","","0","","11.3","","99.73","","29","","","","Mostly Cloudy"
"1961-06-30 12:00","1961","06","30","12:00","23.3","","18.3","","72","","","","0","","16.1","","99.74","","30","","","","Mostly Cloudy"
"1961-06-30 13:00","1961","06","30","13:00","24.4","","19.4","","73","","36","","3","","12.9","","99.70","","31","","","","Mostly Cloudy"
"1961-06-30 14:00","1961","06","30","14:00","25.6","","19.4","","69","","36","","16","","14.5","","99.68","","33","","","","Mostly Cloudy"
"1961-06-30 15:00","1961","06","30","15:00","26.7","","20.0","","67","","36","","14","","14.5","","99.66","","34","","","","Mostly Cloudy"
"1961-06-30 16:00","1961","06","30","16:00","26.7","","18.3","","60","","36","","21","","16.1","","99.64","","33","","","","Mostly Cloudy"
"1961-06-30 17:00","1961","06","30","17:00","26.1","","16.1","","54","","36","","16","","16.1","","99.63","","31","","","","Mainly Clear"
"1961-06-30 18:00","1961","06","30","18:00","24.4","","13.9","","52","","36","","23","","19.3","","99.67","","28","","","","Mostly Cloudy"
"1961-06-30 19:00","1961","06","30","19:00","24.4","","16.1","","59","","36","","16","","19.3","","99.68","","29","","","","Mainly Clear"
"1961-06-30 20:00","1961","06","30","20:00","21.1","","14.4","","66","","36","","16","","24.1","","99.71","","25","","","","Mainly Clear"
"1961-06-30 21:00","1961","06","30","21:00","20.0","","15.0","","74","","34","","13","","24.1","","99.75","","","","","","Mainly Clear"
"1961-06-30 22:00","1961","06","30","22:00","18.3","","13.9","","74","","36","","8","","25.0","","99.76","","","","","","Mainly Clear"
"1961-06-30 23:00","1961","06","30","23:00","17.2","","13.9","","79","","36","","10","","19.3","","99.76","","","","","","Clear"
