"Station Name","TORONTO LESTER B. PEARSON INT'L A"
"Province","ONTARIO"
"Latitude","43.68"
"Longitude","-79.63"
"Elevation","173.40"
"Climate Identifier","6158733"
"WMO Identifier","71624"
"TC Identifier","YYZ"
"All times are specified in Local Standard Time (LST). Add 1 hour to adjust for Daylight Saving Time where and when it is observed."

"Legend"
"E","Estimated"
"M","Missing"
"NA","Not Available"

"Date/Time","Year","Month","Day","Time","Temp (°C)","Temp Flag","Dew Point Temp (°C)","Dew Point Temp Flag","Rel Hum (%)","Rel Hum Flag","Wind Dir (10s deg)","Wind Dir Flag","Wind Spd (km/h)","Wind Spd Flag","Visibility (km)","Visibility Flag","Stn Press (kPa)","Stn Press Flag","Hmdx","Hmdx Flag","Wind Chill","Wind Chill Flag","Weather"
"2006-06-01 00:00","2006","06","01","00:00","20.2","","19.2","","94","","36","","7","","8.0","","99.66","","27","","","","Fog"
"2006-06-01 01:00","2006","06","01","01:00","20.0","","19.2","","95","","","","0","","8.0","","99.61","","27","","","","Fog"
"2006-06-01 02:00","2006","06","01","02:00","20.1","","19.2","","95","","33","","11","","6.4","","99.59","","27","","","","Fog"
"2006-06-01 03:00","2006","06","01","03:00","19.9","","19.3","","96","","33","","7","","9.7","","99.58","","","","","","Fog"
"2006-06-01 04:00","2006","06","01","04:00","19.8","","19.0","","95","","36","","7","","9.7","","99.53","","","","","","Fog"
"2006-06-01 05:00","2006","06","01","05:00","19.8","","19.1","","96","","36","","6","","6.4","","99.54","","","","","","Fog"
"2006-06-01 06:00","2006","06","01","06:00","20.0","","19.0","","94","","34","","13","","8.0","","99.57","","27","","","","Fog"
"2006-06-01 07:00","2006","06","01","07:00","19.8","","18.7","","93","","36","","19","","12.9","","99.56","","","","","","Cloudy"
"2006-06-01 08:00","2006","06","01","08:00","19.1","","17.6","","91","","35","","24","","24.1","","99.57","","","","","","Cloudy"
"2006-06-01 09:00","2006","06","01","09:00","18.8","","17.0","","89","","1","","17","","24.1","","99.58","","","","","","Cloudy"
"2006-06-01 10:00","2006","06","01","10:00","19.2","","16.9","","87","","3","","17","","24.1","","99.56","","","","","","Cloudy"
"2006-06-01 11:00","2006","06","01","11:00","19.3","","16.5","","84","","4","","17","","24.1","","99.58","","","","","","Cloudy"
"2006-06-01 12:00","2006","06","01","12:00","18.3","","17.0","","92","","4","","19","","8.0","","99.59","","","","","","Rain Showers,Fog"
"2006-06-01 13:00","2006","06","01","13:00","19.4","","17.8","","90","","3","","15","","24.1","","99.60","","","","","","Cloudy"
"2006-06-01 14:00","2006","06","01","14:00","19.9","","17.2","","84","","5","","13","","24.1","","99.60","","","","","","Cloudy"
"2006-06-01 15:00","2006","06","01","15:00","21.9","","17.4","","76","","8","","11","","24.1","","99.55","","27","","","","Mostly Cloudy"
"2006-06-01 16:00","2006","06","01","16:00","22.0","","17.2","","74","","5","","7","","24.1","","99.48","","27","","","","Mostly Cloudy"
"2006-06-01 17:00","2006","06","01","17:00","22.1","","16.8","","72","","5","","19","","24.1","","99.43","","27","","","","Mostly Cloudy"
"2006-06-01 18:00","2006","06","01","18:00","21.3","","16.6","","75","","18","","11","","24.1","","99.44","","26","","","","Mainly Clear"
"2006-06-01 19:00","2006","06","01","19:00","19.1","","15.6","","80","","15","","11","","24.1","","99.48","","","","","","Mainly Clear"
"2006-06-01 20:00","2006","06","01","20:00","17.4","","16.1","","92","","16","","11","","24.1","","99.50","","","","","","Mostly Cloudy"
"2006-06-01 21:00","2006","06","01","21:00","17.1","","16.5","","96","","20","","4","","24.1","","99.53","","","","","","Mostly Cloudy"
"2006-06-01 22:00","2006","06","01","22:00","16.8","","15.6","","93","","29","","6","","24.1","","99.54","","","","","","Mostly Cloudy"
"2006-06-01 23:00","2006","06","01","23:00","17.0","","15.9","","93","","29","","7","","24.1","","99.52","","","","","","Mostly Cloudy"
"2006-06-02 00:00","2006","06","02","00:00","16.7","","16.0","","96","","29","","6","","24.1","","99.49","","","","","","Cloudy"
"2006-06-02 01:00","2006","06","02","01:00","16.3","","15.8","","97","","28","","7","","24.1","","99.47","","","","","","Mostly Cloudy"
"2006-06-02 02:00","2006","06","02","02:00","16.2","","15.5","","96","","29","","7","","24.1","","99.45","","","","","","Cloudy"
"2006-06-02 03:00","2006","06","02","03:00","16.3","","15.0","","92","","32","","7","","24.1","","99.42","","","","","","Cloudy"
"2006-06-02 04:00","2006","06","02","04:00","16.3","","14.9","","91","","29","","7","","24.1","","99.41","","","","","","Mostly Cloudy"
"2006-06-02 05:00","2006","06","02","05:00","16.3","","15.0","","92","","30","","4","","24.1","","99.42","","","","","","Cloudy"
"2006-06-02 06:00","2006","06","02","06:00","17.1","","15.1","","88","","31","","7","","19.3","","99.42","","","","","","Cloudy"
"2006-06-02 07:00","2006","06","02","07:00","18.4","","13.0","","71","","35","","17","","24.1","","99.42","","","","","","Mostly Cloudy"
"2006-06-02 08:00","2006","06","02","08:00","19.2","","12.9","","67","","35","","13","","24.1","","99.43","","","","","","Cloudy"
"2006-06-02 09:00","2006","06","02","09:00","20.4","","13.0","","62","","2","","9","","24.1","","99.41","","","","","","Mostly Cloudy"
"2006-06-02 10:00","2006","06","02","10:00","20.8","","13.6","","63","","1","","9","","24.1","","99.38","","","","","","Cloudy"
"2006-06-02 11:00","2006","06","02","11:00","22.9","","14.7","","60","","9","","6","","24.1","","99.36","","27","","","","Cloudy"
"2006-06-02 12:00","2006","06","02","12:00","22.6","","15.1","","63","","15","","4","","24.1","","99.35","","27","","","","Cloudy"
"2006-06-02 13:00","2006","06","02","13:00","22.4","","15.3","","64","","16","","9","","24.1","","99.33","","27","","","","Cloudy"
"2006-06-02 14:00","2006","06","02","14:00","21.6","","15.0","","66","","15","","11","","24.1","","99.31","","26","","","","Cloudy"
"2006-06-02 15:00","2006","06","02","15:00","21.6","","14.9","","66","","14","","9","","24.1","","99.28","","26","","","","Cloudy"
"2006-06-02 16:00","2006","06","02","16:00","21.8","","15.1","","66","","14","","4","","24.1","","99.26","","26","","","","Cloudy"
"2006-06-02 17:00","2006","06","02","17:00","21.9","","14.3","","62","","13","","7","","24.1","","99.22","","25","","","","Cloudy"
"2006-06-02 18:00","2006","06","02","18:00","21.3","","14.3","","64","","13","","6","","24.1","","99.19","","25","","","","Cloudy"
"2006-06-02 19:00","2006","06","02","19:00","20.9","","13.7","","63","","6","","7","","24.1","","99.19","","","","","","Cloudy"
"2006-06-02 20:00","2006","06","02","20:00","19.7","","14.1","","70","","4","","11","","24.1","","99.23","","","","","","Cloudy"
"2006-06-02 21:00","2006","06","02","21:00","19.3","","14.9","","76","","8","","4","","24.1","","99.25","","","","","","Rain"
"2006-06-02 22:00","2006","06","02","22:00","18.3","","14.6","","79","","30","","7","","24.1","","99.26","","","","","","Rain"
"2006-06-02 23:00","2006","06","02","23:00","17.0","","14.3","","84","","8","","7","","11.3","","99.30","","","","","","Thunderstorms,Moderate Rain Showers"
"2006-06-03 00:00","2006","06","03","00:00","16.0","","14.4","","90","","2","","13","","19.3","","99.29","","","","","","Rain"
"2006-06-03 01:00","2006","06","03","01:00","16.3","","14.5","","89","","7","","7","","24.1","","99.19","","","","","","Rain"
"2006-06-03 02:00","2006","06","03","02:00","15.3","","13.8","","91","","30","","7","","24.1","","99.09","","","","","","Cloudy"
"2006-06-03 03:00","2006","06","03","03:00","15.6","","13.8","","89","","33","","9","","24.1","","99.03","","","","","","Cloudy"
"2006-06-03 04:00","2006","06","03","04:00","15.4","","13.8","","90","","34","","20","","24.1","","99.05","","","","","","Mostly Cloudy"
"2006-06-03 05:00","2006","06","03","05:00","15.4","","13.5","","88","","1","","22","","24.1","","99.08","","","","","","Mostly Cloudy"
"2006-06-03 06:00","2006","06","03","06:00","15.4","","13.4","","88","","1","","11","","24.1","","99.15","","","","","","Mostly Cloudy"
"2006-06-03 07:00","2006","06","03","07:00","15.6","","13.6","","88","","36","","11","","24.1","","99.16","","","","","","Mostly Cloudy"
"2006-06-03 08:00","2006","06","03","08:00","16.3","","13.9","","86","","36","","7","","24.1","","99.18","","","","","","Cloudy"
"2006-06-03 09:00","2006","06","03","09:00","16.7","","14.2","","85","","2","","6","","24.1","","99.21","","","","","","Cloudy"
"2006-06-03 10:00","2006","06","03","10:00","17.3","","14.4","","83","","","","0","","24.1","","99.22","","","","","","Rain"
"2006-06-03 11:00","2006","06","03","11:00","17.1","","14.8","","86","","9","","11","","19.3","","99.20","","","","","","Rain"
"2006-06-03 12:00","2006","06","03","12:00","15.7","","14.6","","93","","18","","6","","8.0","","99.20","","","","","","Rain,Fog"
"2006-06-03 13:00","2006","06","03","13:00","16.3","","15.2","","93","","6","","7","","16.1","","99.15","","","","","","Rain"
"2006-06-03 14:00","2006","06","03","14:00","17.1","","15.1","","88","","4","","11","","19.3","","99.12","","","","","","Rain"
"2006-06-03 15:00","2006","06","03","15:00","16.4","","14.5","","89","","1","","22","","24.1","","99.14","","","","","","Rain"
"2006-06-03 16:00","2006","06","03","16:00","15.9","","14.4","","91","","36","","24","","19.3","","99.16","","","","","","Rain"
"2006-06-03 17:00","2006","06","03","17:00","15.4","","13.9","","91","","1","","20","","19.3","","99.16","","","","","","Rain"
"2006-06-03 18:00","2006","06","03","18:00","15.3","","14.6","","96","","5","","19","","16.1","","99.21","","","","","","Rain"
"2006-06-03 19:00","2006","06","03","19:00","14.5","","13.3","","93","","6","","11","","24.1","","99.26","","","","","","Rain"
"2006-06-03 20:00","2006","06","03","20:00","14.6","","13.6","","94","","5","","13","","19.3","","99.29","","","","","","Rain"
"2006-06-03 21:00","2006","06","03","21:00","14.3","","13.4","","94","","7","","9","","24.1","","99.34","","","","","","Rain"
"2006-06-03 22:00","2006","06","03","22:00","14.0","","12.8","","92","","4","","7","","24.1","","99.33","","","","","","Rain"
"2006-06-03 23:00","2006","06","03","23:00","13.9","","12.8","","93","","2","","9","","24.1","","99.32","","","","","","Cloudy"
"2006-06-04 00:00","2006","06","04","00:00","13.9","","12.6","","92","","35","","19","","24.1","","99.30","","","","","","Rain"
"2006-06-04 01:00","2006","06","04","01:00","13.9","","13.0","","94","","34","","15","","24.1","","99.27","","","","","","Rain"
"2006-06-04 02:00","2006","06","04","02:00","14.0","","13.4","","96","","35","","17","","24.1","","99.25","","","","","","Rain"
"2006-06-04 03:00","2006","06","04","03:00","14.2","","13.5","","96","","35","","15","","24.1","","99.22","","","","","","Cloudy"
"2006-06-04 04:00","2006","06","04","04:00","14.4","","13.4","","94","","1","","17","","24.1","","99.26","","","","","","Mostly Cloudy"
"2006-06-04 05:00","2006","06","04","05:00","14.4","","13.3","","93","","1","","13","","24.1","","99.29","","","","","","Mostly Cloudy"
"2006-06-04 06:00","2006","06","04","06:00","14.6","","12.5","","87","","2","","17","","24.1","","99.33","","","","","","Mostly Cloudy"
"2006-06-04 07:00","2006","06","04","07:00","15.2","","12.1","","82","","3","","19","","24.1","","99.37","","","","","","Mostly Cloudy"
"2006-06-04 08:00","2006","06","04","08:00","15.7","","12.4","","81","","4","","15","","24.1","","99.41","","","","","","Mostly Cloudy"
"2006-06-04 09:00","2006","06","04","09:00","16.7","","12.6","","77","","4","","15","","24.1","","99.42","","","","","","Mostly Cloudy"
"2006-06-04 10:00","2006","06","04","10:00","17.7","","12.8","","73","","4","","17","","24.1","","99.39","","","","","","Mostly Cloudy"
"2006-06-04 11:00","2006","06","04","11:00","19.2","","12.7","","66","","36","","15","","24.1","","99.34","","","","","","Mostly Cloudy"
"2006-06-04 12:00","2006","06","04","12:00","19.4","","11.6","","61","","3","","20","","24.1","","99.31","","","","","","Mostly Cloudy"
"2006-06-04 13:00","2006","06","04","13:00","20.9","","12.3","","58","","1","","28","","24.1","","99.25","","","","","","Mostly Cloudy"
"2006-06-04 14:00","2006","06","04","14:00","21.9","","9.5","","45","","5","","30","","24.1","","99.23","","","","","","Mostly Cloudy"
"2006-06-04 15:00","2006","06","04","15:00","22.2","","7.3","","38","","5","","30","","24.1","","99.23","","","","","","Mostly Cloudy"
"2006-06-04 16:00","2006","06","04","16:00","21.4","","6.1","","37","","5","","17","","24.1","","99.21","","","","","","Mostly Cloudy"
"2006-06-04 17:00","2006","06","04","17:00","22.2","","7.6","","39","","5","","13","","24.1","","99.18","","","","","","Mostly Cloudy"
"2006-06-04 18:00","2006","06","04","18:00","19.5","","10.6","","56","","20","","11","","24.1","","99.16","","","","","","Mostly Cloudy"
"2006-06-04 19:00","2006","06","04","19:00","19.8","","11.3","","58","","24","","6","","24.1","","99.20","","","","","","Mostly Cloudy"
"2006-06-04 20:00","2006","06","04","20:00","19.1","","10.7","","58","","2","","9","","24.1","","99.20","","","","","","Mostly Cloudy"
"2006-06-04 21:00","2006","06","04","21:00","17.9","","11.3","","65","","32","","4","","24.1","","99.22","","","","","","Mainly Clear"
"2006-06-04 22:00","2006","06","04","22:00","17.0","","10.8","","67","","28","","7","","24.1","","99.23","","","","","","Mainly Clear"
"2006-06-04 23:00","2006","06","04","23:00","16.7","","11.1","","70","","30","","15","","24.1","","99.23","","","","","","Clear"
"2006-06-05 00:00","2006","06","05","00:00","15.5","","8.5","","63","","32","","17","","24.1","","99.20","","","","","","Mainly Clear"
"2006-06-05 01:00","2006","06","05","01:00","15.2","","7.8","","61","","34","","9","","24.1","","99.19","","","","","","Mainly Clear"
"2006-06-05 02:00","2006","06","05","02:00","13.4","","6.6","","63","","32","","11","","24.1","","99.15","","","","","","Clear"
"2006-06-05 03:00","2006","06","05","03:00","15.3","","5.3","","51","","35","","22","","24.1","","99.13","","","","","","Clear"
"2006-06-05 04:00","2006","06","05","04:00","15.3","","5.0","","50","","33","","20","","24.1","","99.15","","","","","","Clear"
"2006-06-05 05:00","2006","06","05","05:00","13.5","","5.5","","58","","32","","15","","24.1","","99.18","","","","","","Mainly Clear"
"2006-06-05 06:00","2006","06","05","06:00","14.9","","6.4","","57","","35","","17","","24.1","","99.26","","","","","","Mainly Clear"
"2006-06-05 07:00","2006","06","05","07:00","17.2","","7.3","","52","","34","","19","","24.1","","99.25","","","","","","Mainly Clear"
"2006-06-05 08:00","2006","06","05","08:00","19.3","","9.8","","54","","35","","19","","24.1","","99.27","","","","","","Mainly Clear"
"2006-06-05 09:00","2006","06","05","09:00","21.3","","10.8","","51","","36","","19","","24.1","","99.27","","","","","","Mainly Clear"
"2006-06-05 10:00","2006","06","05","10:00","23.6","","11.4","","46","","1","","17","","24.1","","99.26","","26","","","","Mainly Clear"
"2006-06-05 11:00","2006","06","05","11:00","25.2","","11.6","","43","","1","","17","","24.1","","99.26","","27","","","","Mostly Cloudy"
"2006-06-05 12:00","2006","06","05","12:00","23.6","","12.7","","50","","33","","26","","24.1","","99.26","","26","","","","Mostly Cloudy"
"2006-06-05 13:00","2006","06","05","13:00","22.3","","12.1","","52","","35","","20","","24.1","","99.28","","25","","","","Mostly Cloudy"
"2006-06-05 14:00","2006","06","05","14:00","22.4","","12.4","","53","","35","","13","","24.1","","99.26","","25","","","","Mostly Cloudy"
"2006-06-05 15:00","2006","06","05","15:00","24.5","","12.2","","46","","36","","9","","24.1","","99.22","","27","","","","Mostly Cloudy"
"2006-06-05 16:00","2006","06","05","16:00","26.0","","11.7","","41","","35","","26","","24.1","","99.17","","28","","","","Mostly Cloudy"
"2006-06-05 17:00","2006","06","05","17:00","26.0","","10.1","","37","","36","","22","","24.1","","99.18","","27","","","","Mostly Cloudy"
"2006-06-05 18:00","2006","06","05","18:00","25.3","","8.8","","35","","36","","22","","24.1","","99.16","","26","","","","Mainly Clear"
"2006-06-05 19:00","2006","06","05","19:00","24.0","","9.4","","40","","1","","15","","24.1","","99.21","","25","","","","Mostly Cloudy"
"2006-06-05 20:00","2006","06","05","20:00","23.4","","8.1","","38","","1","","17","","24.1","","99.23","","","","","","Mostly Cloudy"
"2006-06-05 21:00","2006","06","05","21:00","21.6","","8.9","","44","","36","","15","","24.1","","99.28","","","","","","Mainly Clear"
"2006-06-05 22:00","2006","06","05","22:00","20.6","","9.5","","49","","5","","6","","24.1","","99.33","","","","","","Mainly Clear"
"2006-06-05 23:00","2006","06","05","23:00","20.0","","9.3","","50","","3","","4","","24.1","","99.30","","","","","","Mainly Clear"
"2006-06-06 00:00","2006","06","06","00:00","18.8","","9.5","","55","","33","","7","","24.1","","99.30","","","","","","Mainly Clear"
"2006-06-06 01:00","2006","06","06","01:00","16.6","","9.9","","65","","33","","7","","24.1","","99.33","","","","","","Mainly Clear"
"2006-06-06 02:00","2006","06","06","02:00","15.4","","8.8","","65","","31","","9","","24.1","","99.31","","","","","","Clear"
"2006-06-06 03:00","2006","06","06","03:00","15.1","","8.8","","66","","32","","7","","24.1","","99.34","","","","","","Clear"
"2006-06-06 04:00","2006","06","06","04:00","14.9","","8.4","","65","","32","","17","","24.1","","99.37","","","","","","Mainly Clear"
"2006-06-06 05:00","2006","06","06","05:00","15.7","","9.1","","65","","31","","7","","24.1","","99.42","","","","","","Mostly Cloudy"
"2006-06-06 06:00","2006","06","06","06:00","16.0","","9.5","","65","","28","","9","","24.1","","99.45","","","","","","Mainly Clear"
"2006-06-06 07:00","2006","06","06","07:00","18.2","","11.0","","63","","32","","9","","24.1","","99.50","","","","","","Mostly Cloudy"
"2006-06-06 08:00","2006","06","06","08:00","19.5","","11.4","","59","","32","","7","","24.1","","99.49","","","","","","Mostly Cloudy"
"2006-06-06 09:00","2006","06","06","09:00","21.8","","12.1","","54","","31","","9","","24.1","","99.49","","","","","","Mainly Clear"
"2006-06-06 10:00","2006","06","06","10:00","23.3","","10.0","","43","","2","","7","","24.1","","99.47","","25","","","","Mostly Cloudy"
"2006-06-06 11:00","2006","06","06","11:00","25.1","","11.1","","41","","2","","6","","24.1","","99.45","","27","","","","Mainly Clear"
"2006-06-06 12:00","2006","06","06","12:00","25.2","","10.7","","40","","16","","17","","24.1","","99.43","","27","","","","Mostly Cloudy"
"2006-06-06 13:00","2006","06","06","13:00","22.9","","12.1","","51","","16","","15","","24.1","","99.42","","25","","","","Mostly Cloudy"
"2006-06-06 14:00","2006","06","06","14:00","22.0","","11.0","","50","","16","","13","","24.1","","99.42","","","","","","Mostly Cloudy"
"2006-06-06 15:00","2006","06","06","15:00","22.1","","10.9","","49","","15","","7","","24.1","","99.35","","","","","","Mostly Cloudy"
"2006-06-06 16:00","2006","06","06","16:00","22.0","","11.0","","50","","13","","11","","24.1","","99.35","","","","","","Mostly Cloudy"
"2006-06-06 17:00","2006","06","06","17:00","22.2","","12.1","","53","","12","","9","","24.1","","99.33","","25","","","","Mostly Cloudy"
"2006-06-06 18:00","2006","06","06","18:00","22.0","","10.8","","49","","16","","7","","24.1","","99.34","","","","","","Mostly Cloudy"
"2006-06-06 19:00","2006","06","06","19:00","21.0","","9.8","","49","","13","","7","","24.1","","99.33","","","","","","Mostly Cloudy"
"2006-06-06 20:00","2006","06","06","20:00","20.3","","8.1","","45","","16","","6","","24.1","","99.32","","","","","","Mostly Cloudy"
"2006-06-06 21:00","2006","06","06","21:00","19.5","","8.6","","49","","16","","4","","24.1","","99.33","","","","","","Mainly Clear"
"2006-06-06 22:00","2006","06","06","22:00","18.2","","8.4","","53","","21","","6","","24.1","","99.32","","","","","","Mainly Clear"
"2006-06-06 23:00","2006","06","06","23:00","18.0","","8.5","","54","","26","","6","","24.1","","99.32","","","","","","Clear"
"2006-06-07 00:00","2006","06","07","00:00","17.2","","8.1","","55","","","","0","","24.1","","99.30","","","","","","Clear"
"2006-06-07 01:00","2006","06","07","01:00","17.2","","9.1","","59","","6","","7","","24.1","","99.27","","","","","","Clear"
"2006-06-07 02:00","2006","06","07","02:00","15.3","","9.4","","68","","36","","6","","24.1","","99.24","","","","","","Clear"
"2006-06-07 03:00","2006","06","07","03:00","14.3","","9.6","","73","","2","","7","","24.1","","99.19","","","","","","Clear"
"2006-06-07 04:00","2006","06","07","04:00","13.9","","9.1","","73","","34","","4","","24.1","","99.21","","","","","","Clear"
"2006-06-07 05:00","2006","06","07","05:00","13.5","","8.9","","74","","36","","4","","24.1","","99.23","","","","","","Mainly Clear"
"2006-06-07 06:00","2006","06","07","06:00","16.4","","11.9","","75","","1","","4","","24.1","","99.25","","","","","","Mostly Cloudy"
"2006-06-07 07:00","2006","06","07","07:00","18.1","","12.0","","68","","","","0","","24.1","","99.28","","","","","","Mainly Clear"
"2006-06-07 08:00","2006","06","07","08:00","21.1","","11.6","","55","","16","","4","","24.1","","99.25","","","","","","Mainly Clear"
"2006-06-07 09:00","2006","06","07","09:00","22.9","","13.2","","54","","15","","4","","24.1","","99.23","","26","","","","Mainly Clear"
"2006-06-07 10:00","2006","06","07","10:00","23.6","","12.8","","51","","16","","4","","24.1","","99.20","","26","","","","Mainly Clear"
"2006-06-07 11:00","2006","06","07","11:00","23.3","","11.9","","49","","15","","11","","24.1","","99.19","","26","","","","Mainly Clear"
"2006-06-07 12:00","2006","06","07","12:00","24.7","","13.5","","50","","14","","9","","24.1","","99.15","","28","","","","Mainly Clear"
"2006-06-07 13:00","2006","06","07","13:00","26.0","","13.0","","45","","16","","7","","24.1","","99.10","","29","","","","Mainly Clear"
"2006-06-07 14:00","2006","06","07","14:00","27.0","","12.4","","40","","16","","7","","24.1","","99.02","","29","","","","Mostly Cloudy"
"2006-06-07 15:00","2006","06","07","15:00","25.4","","11.5","","42","","18","","7","","24.1","","99.01","","27","","","","Mostly Cloudy"
"2006-06-07 16:00","2006","06","07","16:00","27.1","","12.0","","39","","30","","6","","24.1","","98.96","","29","","","","Mostly Cloudy"
"2006-06-07 17:00","2006","06","07","17:00","24.2","","12.1","","47","","13","","19","","24.1","","98.99","","27","","","","Mainly Clear"
"2006-06-07 18:00","2006","06","07","18:00","23.2","","12.1","","50","","15","","9","","24.1","","98.98","","26","","","","Mainly Clear"
"2006-06-07 19:00","2006","06","07","19:00","22.5","","12.2","","52","","15","","7","","24.1","","98.98","","25","","","","Mainly Clear"
"2006-06-07 20:00","2006","06","07","20:00","21.8","","10.9","","50","","15","","6","","24.1","","99.00","","","","","","Mostly Cloudy"
"2006-06-07 21:00","2006","06","07","21:00","21.2","","9.5","","47","","12","","6","","24.1","","99.04","","","","","","Mostly Cloudy"
"2006-06-07 22:00","2006","06","07","22:00","20.4","","9.6","","50","","","","0","","24.1","","99.06","","","","","","Mostly Cloudy"
"2006-06-07 23:00","2006","06","07","23:00","20.5","","10.4","","52","","6","","4","","24.1","","99.05","","","","","","Mostly Cloudy"
"2006-06-08 00:00","2006","06","08","00:00","19.4","","11.1","","59","","36","","6","","24.1","","99.05","","","","","","Mostly Cloudy"
"2006-06-08 01:00","2006","06","08","01:00","18.3","","11.5","","65","","33","","13","","24.1","","99.03","","","","","","Mostly Cloudy"
"2006-06-08 02:00","2006","06","08","02:00","17.5","","12.2","","71","","4","","9","","24.1","","99.02","","","","","","Cloudy"
"2006-06-08 03:00","2006","06","08","03:00","18.3","","12.5","","69","","1","","4","","24.1","","98.99","","","","","","Mainly Clear"
"2006-06-08 04:00","2006","06","08","04:00","16.8","","12.1","","74","","1","","4","","24.1","","98.97","","","","","","Mainly Clear"
"2006-06-08 05:00","2006","06","08","05:00","16.7","","12.0","","74","","","","0","","24.1","","98.99","","","","","","Mostly Cloudy"
"2006-06-08 06:00","2006","06","08","06:00","17.3","","12.7","","74","","31","","7","","24.1","","99.02","","","","","","Mainly Clear"
"2006-06-08 07:00","2006","06","08","07:00","19.2","","13.3","","69","","36","","7","","24.1","","99.05","","","","","","Mostly Cloudy"
"2006-06-08 08:00","2006","06","08","08:00","21.8","","12.6","","56","","6","","11","","24.1","","99.10","","","","","","Mostly Cloudy"
"2006-06-08 09:00","2006","06","08","09:00","21.9","","12.3","","54","","7","","9","","24.1","","99.17","","","","","","Mostly Cloudy"
"2006-06-08 10:00","2006","06","08","10:00","21.3","","13.6","","61","","16","","11","","24.1","","99.12","","","","","","Mostly Cloudy"
"2006-06-08 11:00","2006","06","08","11:00","21.6","","13.8","","61","","16","","11","","24.1","","99.13","","25","","","","Mostly Cloudy"
"2006-06-08 12:00","2006","06","08","12:00","22.7","","12.5","","53","","16","","22","","24.1","","99.11","","25","","","","Mostly Cloudy"
"2006-06-08 13:00","2006","06","08","13:00","21.8","","11.2","","51","","16","","17","","24.1","","99.09","","","","","","Mostly Cloudy"
"2006-06-08 14:00","2006","06","08","14:00","21.8","","11.7","","53","","16","","15","","24.1","","99.03","","","","","","Mostly Cloudy"
"2006-06-08 15:00","2006","06","08","15:00","22.3","","11.8","","51","","20","","4","","24.1","","98.98","","","","","","Mainly Clear"
"2006-06-08 16:00","2006","06","08","16:00","23.3","","12.2","","50","","21","","15","","24.1","","98.98","","26","","","","Mainly Clear"
"2006-06-08 17:00","2006","06","08","17:00","23.6","","12.3","","49","","22","","17","","24.1","","98.96","","26","","","","Mainly Clear"
"2006-06-08 18:00","2006","06","08","18:00","22.0","","11.6","","52","","24","","19","","24.1","","98.95","","","","","","Mainly Clear"
"2006-06-08 19:00","2006","06","08","19:00","21.4","","11.4","","53","","18","","6","","24.1","","98.97","","","","","","Mostly Cloudy"
"2006-06-08 20:00","2006","06","08","20:00","19.9","","10.5","","55","","17","","11","","24.1","","98.96","","","","","","Mainly Clear"
"2006-06-08 21:00","2006","06","08","21:00","19.0","","11.1","","60","","16","","7","","24.1","","99.01","","","","","","Mostly Cloudy"
"2006-06-08 22:00","2006","06","08","22:00","17.2","","13.5","","79","","16","","9","","24.1","","98.97","","","","","","Rain Showers"
"2006-06-08 23:00","2006","06","08","23:00","17.0","","14.2","","84","","16","","11","","24.1","","98.99","","","","","","Cloudy"
"2006-06-09 00:00","2006","06","09","00:00","16.9","","14.3","","85","","18","","7","","24.1","","98.97","","","","","","Mostly Cloudy"
"2006-06-09 01:00","2006","06","09","01:00","16.5","","13.8","","84","","19","","6","","24.1","","98.88","","","","","","Rain"
"2006-06-09 02:00","2006","06","09","02:00","15.7","","13.5","","87","","28","","11","","24.1","","98.90","","","","","","Mostly Cloudy"
"2006-06-09 03:00","2006","06","09","03:00","16.1","","13.9","","87","","32","","9","","24.1","","98.85","","","","","","Mostly Cloudy"
"2006-06-09 04:00","2006","06","09","04:00","15.5","","13.4","","87","","36","","17","","24.1","","98.86","","","","","","Mostly Cloudy"
"2006-06-09 05:00","2006","06","09","05:00","15.3","","13.4","","88","","34","","15","","24.1","","98.85","","","","","","Mainly Clear"
"2006-06-09 06:00","2006","06","09","06:00","15.5","","13.2","","86","","32","","19","","24.1","","98.88","","","","","","Mainly Clear"
"2006-06-09 07:00","2006","06","09","07:00","15.8","","13.4","","86","","33","","28","","24.1","","98.89","","","","","","Mostly Cloudy"
"2006-06-09 08:00","2006","06","09","08:00","18.4","","14.0","","76","","33","","32","","24.1","","98.85","","","","","","Mainly Clear"
"2006-06-09 09:00","2006","06","09","09:00","19.3","","13.8","","70","","33","","39","","24.1","","98.85","","","","","","Mostly Cloudy"
"2006-06-09 10:00","2006","06","09","10:00","17.0","","12.8","","76","","34","","32","","24.1","","98.88","","","","","","Mostly Cloudy"
"2006-06-09 11:00","2006","06","09","11:00","16.0","","11.7","","76","","35","","39","","24.1","","98.89","","","","","","Mostly Cloudy"
"2006-06-09 12:00","2006","06","09","12:00","17.5","","11.6","","68","","33","","43","","24.1","","98.91","","","","","","Mostly Cloudy"
"2006-06-09 13:00","2006","06","09","13:00","17.2","","10.9","","66","","32","","43","","24.1","","98.92","","","","","","Mostly Cloudy"
"2006-06-09 14:00","2006","06","09","14:00","16.0","","9.7","","66","","35","","41","","24.1","","98.95","","","","","","Mostly Cloudy"
"2006-06-09 15:00","2006","06","09","15:00","15.4","","8.6","","64","","34","","50","","24.1","","98.98","","","","","","Mostly Cloudy"
"2006-06-09 16:00","2006","06","09","16:00","14.2","","7.9","","66","","34","","48","","24.1","","99.00","","","","","","Mostly Cloudy"
"2006-06-09 17:00","2006","06","09","17:00","13.5","","7.2","","66","","36","","54","","24.1","","99.02","","","","","","Mostly Cloudy"
"2006-06-09 18:00","2006","06","09","18:00","13.4","","7.3","","67","","33","","50","","24.1","","99.05","","","","","","Mostly Cloudy"
"2006-06-09 19:00","2006","06","09","19:00","12.9","","6.9","","67","","33","","39","","24.1","","99.09","","","","","","Cloudy"
"2006-06-09 20:00","2006","06","09","20:00","12.6","","6.9","","68","","34","","30","","24.1","","99.11","","","","","","Mostly Cloudy"
"2006-06-09 21:00","2006","06","09","21:00","12.5","","6.9","","69","","34","","33","","24.1","","99.14","","","","","","Mostly Cloudy"
"2006-06-09 22:00","2006","06","09","22:00","12.2","","7.1","","71","","34","","24","","24.1","","99.15","","","","","","Mostly Cloudy"
"2006-06-09 23:00","2006","06","09","23:00","11.9","","7.5","","74","","34","","26","","24.1","","99.14","","","","","","Mostly Cloudy"
"2006-06-10 00:00","2006","06","10","00:00","10.9","","5.4","","69","","35","","22","","24.1","","99.12","","","","","","Mainly Clear"
"2006-06-10 01:00","2006","06","10","01:00","10.5","","5.6","","72","","34","","24","","24.1","","99.10","","","","","","Mainly Clear"
"2006-06-10 02:00","2006","06","10","02:00","10.0","","5.8","","75","","34","","26","","24.1","","99.07","","","","","","Mainly Clear"
"2006-06-10 03:00","2006","06","10","03:00","9.7","","5.6","","76","","34","","30","","24.1","","99.03","","","","","","Mainly Clear"
"2006-06-10 04:00","2006","06","10","04:00","9.1","","2.7","","64","","35","","24","","24.1","","99.02","","","","","","Mainly Clear"
"2006-06-10 05:00","2006","06","10","05:00","8.9","","1.5","","60","","35","","33","","24.1","","99.10","","","","","","Mainly Clear"
"2006-06-10 06:00","2006","06","10","06:00","9.4","","1.7","","59","","34","","26","","24.1","","99.08","","","","","","Clear"
"2006-06-10 07:00","2006","06","10","07:00","10.7","","2.1","","55","","34","","32","","24.1","","99.12","","","","","","Clear"
"2006-06-10 08:00","2006","06","10","08:00","11.7","","2.9","","55","","33","","37","","24.1","","99.20","","","","","","Clear"
"2006-06-10 09:00","2006","06","10","09:00","12.6","","2.3","","49","","35","","32","","24.1","","99.11","","","","","","Clear"
"2006-06-10 10:00","2006","06","10","10:00","13.4","","1.5","","44","","35","","37","","24.1","","99.12","","","","","","Clear"
"2006-06-10 11:00","2006","06","10","11:00","14.3","","2.7","","46","","33","","32","","24.1","","99.13","","","","","","Clear"
"2006-06-10 12:00","2006","06","10","12:00","14.5","","2.5","","44","","35","","41","","24.1","","99.10","","","","","","Clear"
"2006-06-10 13:00","2006","06","10","13:00","15.1","","2.9","","44","","36","","32","","24.1","","99.06","","","","","","Clear"
"2006-06-10 14:00","2006","06","10","14:00","15.5","","2.6","","42","","33","","37","","24.1","","99.08","","","","","","Clear"
"2006-06-10 15:00","2006","06","10","15:00","14.5","","2.3","","44","","34","","32","","24.1","","99.10","","","","","","Clear"
"2006-06-10 16:00","2006","06","10","16:00","15.1","","2.0","","41","","33","","43","","24.1","","99.07","","","","","","Clear"
"2006-06-10 17:00","2006","06","10","17:00","14.2","","2.0","","44","","35","","39","","24.1","","99.08","","","","","","Mainly Clear"
"2006-06-10 18:00","2006","06","10","18:00","13.1","","2.7","","49","","34","","30","","24.1","","99.10","","","","","","Mostly Cloudy"
"2006-06-10 19:00","2006","06","10","19:00","12.5","","3.2","","53","","35","","26","","24.1","","99.13","","","","","","Mostly Cloudy"
"2006-06-10 20:00","2006","06","10","20:00","12.1","","3.3","","55","","34","","22","","24.1","","99.14","","","","","","Mostly Cloudy"
"2006-06-10 21:00","2006","06","10","21:00","11.4","","3.4","","58","","34","","26","","24.1","","99.18","","","","","","Mostly Cloudy"
"2006-06-10 22:00","2006","06","10","22:00","10.7","","3.1","","59","","32","","24","","24.1","","99.19","","","","","","Clear"
"2006-06-10 23:00","2006","06","10","23:00","10.3","","3.2","","61","","31","","19","","24.1","","99.17","","","","","","Clear"
"2006-06-11 00:00","2006","06","11","00:00","9.7","","3.7","","66","","30","","15","","24.1","","99.13","","","","","","Clear"
"2006-06-11 01:00","2006","06","11","01:00","9.3","","4.1","","70","","29","","13","","24.1","","99.11","","","","","","Clear"
"2006-06-11 02:00","2006","06","11","02:00","7.9","","4.4","","79","","28","","13","","24.1","","99.10","","","","","","Clear"
"2006-06-11 03:00","2006","06","11","03:00","7.9","","5.0","","82","","28","","15","","24.1","","99.14","","","","","","Clear"
"2006-06-11 04:00","2006","06","11","04:00","7.5","","4.9","","84","","28","","15","","24.1","","99.16","","","","","","Mainly Clear"
"2006-06-11 05:00","2006","06","11","05:00","8.3","","4.8","","79","","32","","24","","24.1","","99.13","","","","","","Mainly Clear"
"2006-06-11 06:00","2006","06","11","06:00","9.3","","4.5","","72","","33","","28","","24.1","","99.15","","","","","","Clear"
"2006-06-11 07:00","2006","06","11","07:00","10.3","","4.5","","67","","33","","32","","24.1","","99.16","","","","","","Mainly Clear"
"2006-06-11 08:00","2006","06","11","08:00","11.5","","4.7","","63","","33","","30","","24.1","","99.20","","","","","","Mainly Clear"
"2006-06-11 09:00","2006","06","11","09:00","12.7","","4.9","","59","","35","","24","","24.1","","99.17","","","","","","Mainly Clear"
"2006-06-11 10:00","2006","06","11","10:00","14.1","","5.8","","57","","35","","24","","24.1","","99.15","","","","","","Mainly Clear"
"2006-06-11 11:00","2006","06","11","11:00","15.1","","6.8","","58","","33","","32","","24.1","","99.22","","","","","","Mainly Clear"
"2006-06-11 12:00","2006","06","11","12:00","16.2","","7.9","","58","","31","","13","","24.1","","99.24","","","","","","Mostly Cloudy"
"2006-06-11 13:00","2006","06","11","13:00","16.7","","7.8","","56","","36","","20","","24.1","","99.21","","","","","","Mostly Cloudy"
"2006-06-11 14:00","2006","06","11","14:00","17.9","","8.4","","54","","36","","22","","24.1","","99.20","","","","","","Mainly Clear"
"2006-06-11 15:00","2006","06","11","15:00","18.4","","9.1","","55","","35","","28","","24.1","","99.20","","","","","","Mainly Clear"
"2006-06-11 16:00","2006","06","11","16:00","17.4","","8.3","","55","","36","","24","","24.1","","99.22","","","","","","Mainly Clear"
"2006-06-11 17:00","2006","06","11","17:00","16.0","","7.5","","57","","36","","26","","24.1","","99.24","","","","","","Mostly Cloudy"
"2006-06-11 18:00","2006","06","11","18:00","14.9","","7.6","","62","","36","","28","","24.1","","99.26","","","","","","Mostly Cloudy"
"2006-06-11 19:00","2006","06","11","19:00","13.9","","7.0","","63","","36","","26","","24.1","","99.31","","","","","","Mostly Cloudy"
"2006-06-11 20:00","2006","06","11","20:00","13.1","","6.9","","66","","1","","24","","24.1","","99.33","","","","","","Mostly Cloudy"
"2006-06-11 21:00","2006","06","11","21:00","12.8","","7.0","","68","","34","","22","","24.1","","99.36","","","","","","Mostly Cloudy"
"2006-06-11 22:00","2006","06","11","22:00","12.5","","7.4","","71","","34","","19","","24.1","","99.40","","","","","","Mostly Cloudy"
"2006-06-11 23:00","2006","06","11","23:00","12.1","","8.1","","77","","35","","24","","24.1","","99.43","","","","","","Mostly Cloudy"
"2006-06-12 00:00","2006","06","12","00:00","11.8","","8.7","","81","","36","","13","","24.1","","99.45","","","","","","Mostly Cloudy"
"2006-06-12 01:00","2006","06","12","01:00","11.9","","9.0","","82","","1","","22","","24.1","","99.49","","","","","","Cloudy"
"2006-06-12 02:00","2006","06","12","02:00","12.1","","9.3","","83","","1","","15","","24.1","","99.52","","","","","","Mostly Cloudy"
"2006-06-12 03:00","2006","06","12","03:00","12.0","","9.3","","84","","1","","17","","24.1","","99.50","","","","","","Mostly Cloudy"
"2006-06-12 04:00","2006","06","12","04:00","11.8","","9.3","","85","","1","","13","","24.1","","99.53","","","","","","Mostly Cloudy"
"2006-06-12 05:00","2006","06","12","05:00","11.8","","9.4","","85","","36","","15","","24.1","","99.55","","","","","","Mostly Cloudy"
"2006-06-12 06:00","2006","06","12","06:00","12.4","","9.3","","81","","1","","17","","24.1","","99.59","","","","","","Mostly Cloudy"
"2006-06-12 07:00","2006","06","12","07:00","13.1","","9.4","","78","","35","","19","","24.1","","99.62","","","","","","Mostly Cloudy"
"2006-06-12 08:00","2006","06","12","08:00","14.8","","10.1","","73","","36","","20","","24.1","","99.65","","","","","","Mostly Cloudy"
"2006-06-12 09:00","2006","06","12","09:00","15.7","","10.5","","71","","36","","19","","24.1","","99.66","","","","","","Mostly Cloudy"
"2006-06-12 10:00","2006","06","12","10:00","16.5","","11.0","","70","","34","","19","","24.1","","99.66","","","","","","Mainly Clear"
"2006-06-12 11:00","2006","06","12","11:00","17.5","","11.2","","67","","34","","13","","24.1","","99.66","","","","","","Mainly Clear"
"2006-06-12 12:00","2006","06","12","12:00","17.7","","11.0","","65","","36","","20","","24.1","","99.69","","","","","","Mainly Clear"
"2006-06-12 13:00","2006","06","12","13:00","18.8","","11.2","","61","","35","","17","","24.1","","99.69","","","","","","Mainly Clear"
"2006-06-12 14:00","2006","06","12","14:00","19.3","","11.2","","59","","1","","26","","24.1","","99.66","","","","","","Mainly Clear"
"2006-06-12 15:00","2006","06","12","15:00","19.2","","11.1","","59","","35","","20","","24.1","","99.67","","","","","","Mainly Clear"
"2006-06-12 16:00","2006","06","12","16:00","18.3","","10.6","","61","","1","","30","","24.1","","99.68","","","","","","Mainly Clear"
"2006-06-12 17:00","2006","06","12","17:00","17.4","","9.8","","61","","2","","22","","24.1","","99.70","","","","","","Mainly Clear"
"2006-06-12 18:00","2006","06","12","18:00","16.5","","9.7","","64","","1","","24","","24.1","","99.72","","","","","","Mainly Clear"
"2006-06-12 19:00","2006","06","12","19:00","15.7","","9.3","","66","","36","","19","","24.1","","99.73","","","","","","Mainly Clear"
"2006-06-12 20:00","2006","06","12","20:00","14.5","","9.3","","71","","1","","20","","24.1","","99.77","","","","","","Mainly Clear"
"2006-06-12 21:00","2006","06","12","21:00","13.9","","9.4","","74","","33","","17","","24.1","","99.81","","","","","","Mainly Clear"
"2006-06-12 22:00","2006","06","12","22:00","13.8","","9.4","","75","","34","","19","","24.1","","99.81","","","","","","Mainly Clear"
"2006-06-12 23:00","2006","06","12","23:00","12.7","","9.4","","80","","35","","13","","24.1","","99.84","","","","","","Mainly Clear"
"2006-06-13 00:00","2006","06","13","00:00","12.1","","9.4","","84","","34","","17","","24.1","","99.82","","","","","","Clear"
"2006-06-13 01:00","2006","06","13","01:00","12.1","","9.4","","84","","34","","19","","24.1","","99.80","","","","","","Mainly Clear"
"2006-06-13 02:00","2006","06","13","02:00","12.4","","9.3","","81","","35","","17","","24.1","","99.80","","","","","","Mostly Cloudy"
"2006-06-13 03:00","2006","06","13","03:00","12.1","","9.1","","82","","35","","15","","24.1","","99.78","","","","","","Mainly Clear"
"2006-06-13 04:00","2006","06","13","04:00","11.4","","8.8","","84","","34","","13","","24.1","","99.78","","","","","","Mainly Clear"
"2006-06-13 05:00","2006","06","13","05:00","11.4","","8.6","","83","","34","","11","","24.1","","99.78","","","","","","Mainly Clear"
"2006-06-13 06:00","2006","06","13","06:00","12.7","","9.3","","80","","31","","13","","24.1","","99.82","","","","","","Clear"
"2006-06-13 07:00","2006","06","13","07:00","14.9","","10.3","","74","","35","","11","","24.1","","99.84","","","","","","Mainly Clear"
"2006-06-13 08:00","2006","06","13","08:00","16.8","","11.6","","71","","36","","9","","24.1","","99.85","","","","","","Mostly Cloudy"
"2006-06-13 09:00","2006","06","13","09:00","17.7","","11.8","","68","","34","","9","","24.1","","99.87","","","","","","Mostly Cloudy"
"2006-06-13 10:00","2006","06","13","10:00","19.2","","12.2","","64","","34","","15","","24.1","","99.85","","","","","","Mainly Clear"
"2006-06-13 11:00","2006","06","13","11:00","20.6","","12.0","","58","","32","","19","","24.1","","99.81","","","","","","Mainly Clear"
"2006-06-13 12:00","2006","06","13","12:00","22.0","","11.6","","52","","36","","13","","24.1","","99.79","","","","","","Mostly Cloudy"
"2006-06-13 13:00","2006","06","13","13:00","22.1","","11.2","","50","","32","","17","","24.1","","99.72","","","","","","Mostly Cloudy"
"2006-06-13 14:00","2006","06","13","14:00","21.8","","10.7","","49","","2","","9","","24.1","","99.65","","","","","","Mostly Cloudy"
"2006-06-13 15:00","2006","06","13","15:00","21.9","","10.4","","48","","36","","13","","24.1","","99.65","","","","","","Mostly Cloudy"
"2006-06-13 16:00","2006","06","13","16:00","21.6","","9.6","","46","","33","","17","","24.1","","99.63","","","","","","Mostly Cloudy"
"2006-06-13 17:00","2006","06","13","17:00","21.1","","9.9","","49","","34","","13","","24.1","","99.64","","","","","","Mostly Cloudy"
"2006-06-13 18:00","2006","06","13","18:00","20.8","","9.9","","50","","34","","19","","24.1","","99.65","","","","","","Mostly Cloudy"
"2006-06-13 19:00","2006","06","13","19:00","19.8","","9.7","","52","","1","","22","","24.1","","99.69","","","","","","Mostly Cloudy"
"2006-06-13 20:00","2006","06","13","20:00","18.9","","9.6","","55","","36","","19","","24.1","","99.73","","","","","","Mostly Cloudy"
"2006-06-13 21:00","2006","06","13","21:00","18.5","","9.7","","57","","1","","11","","24.1","","99.76","","","","","","Mostly Cloudy"
"2006-06-13 22:00","2006","06","13","22:00","18.1","","8.4","","53","","2","","15","","24.1","","99.80","","","","","","Mostly Cloudy"
"2006-06-13 23:00","2006","06","13","23:00","17.2","","8.1","","55","","36","","13","","24.1","","99.80","","","","","","Mostly Cloudy"
"2006-06-14 00:00","2006","06","14","00:00","16.7","","8.5","","58","","36","","15","","24.1","","99.77","","","","","","Cloudy"
"2006-06-14 01:00","2006","06","14","01:00","16.3","","8.0","","58","","36","","15","","24.1","","99.77","","","","","","Mostly Cloudy"
"2006-06-14 02:00","2006","06","14","02:00","15.1","","7.6","","61","","36","","19","","24.1","","99.75","","","","","","Mostly Cloudy"
"2006-06-14 03:00","2006","06","14","03:00","13.7","","8.4","","70","","36","","19","","24.1","","99.70","","","","","","Clear"
"2006-06-14 04:00","2006","06","14","04:00","13.2","","8.1","","71","","35","","19","","24.1","","99.71","","","","","","Mostly Cloudy"
"2006-06-14 05:00","2006","06","14","05:00","12.7","","7.9","","73","","35","","13","","24.1","","99.72","","","","","","Mainly Clear"
"2006-06-14 06:00","2006","06","14","06:00","13.9","","9.0","","72","","34","","11","","24.1","","99.76","","","","","","Mainly Clear"
"2006-06-14 07:00","2006","06","14","07:00","15.3","","9.3","","67","","35","","15","","24.1","","99.79","","","","","","Mostly Cloudy"
"2006-06-14 08:00","2006","06","14","08:00","16.9","","10.5","","66","","35","","17","","24.1","","99.78","","","","","","Mostly Cloudy"
"2006-06-14 09:00","2006","06","14","09:00","19.3","","12.3","","64","","2","","11","","24.1","","99.76","","","","","","Mainly Clear"
"2006-06-14 10:00","2006","06","14","10:00","21.2","","13.0","","59","","36","","20","","24.1","","99.73","","","","","","Mainly Clear"
"2006-06-14 11:00","2006","06","14","11:00","20.9","","11.7","","56","","2","","19","","24.1","","99.71","","","","","","Mostly Cloudy"
"2006-06-14 12:00","2006","06","14","12:00","21.5","","12.1","","55","","13","","9","","24.1","","99.68","","","","","","Mostly Cloudy"
"2006-06-14 13:00","2006","06","14","13:00","21.3","","11.9","","55","","14","","13","","24.1","","99.66","","","","","","Mostly Cloudy"
"2006-06-14 14:00","2006","06","14","14:00","22.3","","12.0","","52","","13","","13","","24.1","","99.63","","25","","","","Mainly Clear"
"2006-06-14 15:00","2006","06","14","15:00","22.7","","11.9","","50","","11","","19","","24.1","","99.60","","25","","","","Mainly Clear"
"2006-06-14 16:00","2006","06","14","16:00","23.3","","11.0","","46","","9","","13","","24.1","","99.57","","25","","","","Mainly Clear"
"2006-06-14 17:00","2006","06","14","17:00","23.3","","10.6","","45","","9","","19","","24.1","","99.54","","25","","","","Mainly Clear"
"2006-06-14 18:00","2006","06","14","18:00","22.1","","10.7","","48","","14","","11","","24.1","","99.53","","","","","","Mainly Clear"
"2006-06-14 19:00","2006","06","14","19:00","20.8","","10.4","","51","","24","","9","","24.1","","99.55","","","","","","Mainly Clear"
"2006-06-14 20:00","2006","06","14","20:00","20.7","","7.7","","43","","36","","24","","24.1","","99.57","","","","","","Mainly Clear"
"2006-06-14 21:00","2006","06","14","21:00","18.8","","7.6","","48","","35","","22","","24.1","","99.60","","","","","","Mainly Clear"
"2006-06-14 22:00","2006","06","14","22:00","17.6","","6.8","","49","","35","","22","","24.1","","99.64","","","","","","Mainly Clear"
"2006-06-14 23:00","2006","06","14","23:00","16.7","","6.5","","51","","36","","24","","24.1","","99.63","","","","","","Mainly Clear"
"2006-06-15 00:00","2006","06","15","00:00","15.6","","6.8","","56","","36","","24","","24.1","","99.63","","","","","","Mainly Clear"
"2006-06-15 01:00","2006","06","15","01:00","15.2","","7.0","","58","","35","","22","","24.1","","99.62","","","","","","Mainly Clear"
"2006-06-15 02:00","2006","06","15","02:00","14.5","","7.2","","62","","35","","24","","24.1","","99.63","","","","","","Clear"
"2006-06-15 03:00","2006","06","15","03:00","14.2","","7.2","","63","","35","","22","","24.1","","99.64","","","","","","Clear"
"2006-06-15 04:00","2006","06","15","04:00","13.6","","7.8","","68","","35","","22","","24.1","","99.68","","","","","","Clear"
"2006-06-15 05:00","2006","06","15","05:00","13.7","","7.9","","68","","35","","22","","24.1","","99.72","","","","","","Clear"
"2006-06-15 06:00","2006","06","15","06:00","15.3","","8.0","","62","","35","","20","","24.1","","99.82","","","","","","Clear"
"2006-06-15 07:00","2006","06","15","07:00","17.3","","9.0","","58","","36","","19","","24.1","","99.87","","","","","","Clear"
"2006-06-15 08:00","2006","06","15","08:00","19.9","","8.6","","48","","36","","15","","24.1","","99.91","","","","","","Clear"
"2006-06-15 09:00","2006","06","15","09:00","22.1","","7.7","","40","","36","","17","","24.1","","99.92","","","","","","Clear"
"2006-06-15 10:00","2006","06","15","10:00","23.1","","6.6","","34","","35","","15","","24.1","","99.93","","","","","","Clear"
"2006-06-15 11:00","2006","06","15","11:00","23.9","","4.9","","29","","4","","17","","24.1","","99.93","","","","","","Clear"
"2006-06-15 12:00","2006","06","15","12:00","23.9","","6.0","","32","","34","","13","","24.1","","99.91","","","","","","Mainly Clear"
"2006-06-15 13:00","2006","06","15","13:00","24.1","","5.3","","30","","1","","19","","24.1","","99.90","","","","","","Mostly Cloudy"
"2006-06-15 14:00","2006","06","15","14:00","24.7","","5.6","","29","","33","","17","","24.1","","99.86","","","","","","Mainly Clear"
"2006-06-15 15:00","2006","06","15","15:00","25.3","","5.8","","29","","33","","7","","24.1","","99.84","","25","","","","Mainly Clear"
"2006-06-15 16:00","2006","06","15","16:00","24.6","","5.7","","30","","36","","13","","24.1","","99.80","","","","","","Mainly Clear"
"2006-06-15 17:00","2006","06","15","17:00","25.0","","5.6","","29","","34","","24","","24.1","","99.78","","","","","","Mainly Clear"
"2006-06-15 18:00","2006","06","15","18:00","25.1","","5.9","","29","","2","","19","","24.1","","99.78","","25","","","","Clear"
"2006-06-15 19:00","2006","06","15","19:00","23.6","","5.3","","31","","1","","20","","24.1","","99.82","","","","","","Clear"
"2006-06-15 20:00","2006","06","15","20:00","22.3","","5.3","","33","","1","","19","","24.1","","99.83","","","","","","Clear"
"2006-06-15 21:00","2006","06","15","21:00","20.6","","6.1","","39","","35","","11","","24.1","","99.89","","","","","","Clear"
"2006-06-15 22:00","2006","06","15","22:00","19.2","","6.5","","44","","32","","17","","24.1","","99.93","","","","","","Clear"
"2006-06-15 23:00","2006","06","15","23:00","17.7","","6.4","","47","","29","","7","","24.1","","99.92","","","","","","Clear"
"2006-06-16 00:00","2006","06","16","00:00","16.3","","7.0","","54","","28","","11","","24.1","","99.94","","","","","","Clear"
"2006-06-16 01:00","2006","06","16","01:00","16.6","","7.3","","54","","29","","6","","24.1","","99.92","","","","","","Clear"
"2006-06-16 02:00","2006","06","16","02:00","14.4","","7.3","","62","","31","","4","","24.1","","99.93","","","","","","Clear"
"2006-06-16 03:00","2006","06","16","03:00","13.9","","6.8","","62","","","","0","","24.1","","99.94","","","","","","Clear"
"2006-06-16 04:00","2006","06","16","04:00","13.1","","7.4","","68","","29","","6","","24.1","","100.00","","","","","","Clear"
"2006-06-16 05:00","2006","06","16","05:00","13.9","","7.2","","64","","29","","9","","24.1","","100.07","","","","","","Mainly Clear"
"2006-06-16 06:00","2006","06","16","06:00","15.2","","8.5","","64","","31","","6","","24.1","","100.11","","","","","","Mainly Clear"
"2006-06-16 07:00","2006","06","16","07:00","18.2","","9.7","","58","","27","","7","","24.1","","100.17","","","","","","Mainly Clear"
"2006-06-16 08:00","2006","06","16","08:00","21.6","","9.6","","46","","23","","6","","24.1","","100.17","","","","","","Clear"
"2006-06-16 09:00","2006","06","16","09:00","24.4","","10.0","","40","","29","","17","","24.1","","100.16","","26","","","","Clear"
"2006-06-16 10:00","2006","06","16","10:00","25.6","","9.9","","37","","28","","15","","24.1","","100.09","","27","","","","Mainly Clear"
"2006-06-16 11:00","2006","06","16","11:00","27.1","","10.5","","35","","25","","11","","24.1","","100.06","","29","","","","Mainly Clear"
"2006-06-16 12:00","2006","06","16","12:00","27.2","","10.6","","35","","22","","15","","24.1","","100.00","","29","","","","Mostly Cloudy"
"2006-06-16 13:00","2006","06","16","13:00","28.2","","10.7","","34","","26","","26","","24.1","","99.95","","30","","","","Mostly Cloudy"
"2006-06-16 14:00","2006","06","16","14:00","27.7","","10.4","","34","","27","","20","","24.1","","99.94","","29","","","","Mostly Cloudy"
"2006-06-16 15:00","2006","06","16","15:00","28.5","","10.8","","33","","24","","20","","24.1","","99.91","","30","","","","Mostly Cloudy"
"2006-06-16 16:00","2006","06","16","16:00","28.5","","11.1","","34","","25","","15","","24.1","","99.85","","30","","","","Mostly Cloudy"
"2006-06-16 17:00","2006","06","16","17:00","27.6","","11.2","","36","","21","","26","","24.1","","99.77","","29","","","","Mostly Cloudy"
"2006-06-16 18:00","2006","06","16","18:00","26.1","","10.6","","38","","22","","26","","24.1","","99.68","","28","","","","Mostly Cloudy"
"2006-06-16 19:00","2006","06","16","19:00","25.4","","10.4","","39","","22","","24","","24.1","","99.68","","27","","","","Mostly Cloudy"
"2006-06-16 20:00","2006","06","16","20:00","24.2","","10.0","","41","","23","","20","","24.1","","99.67","","25","","","","Mostly Cloudy"
"2006-06-16 21:00","2006","06","16","21:00","23.8","","10.3","","42","","22","","13","","24.1","","99.66","","25","","","","Mostly Cloudy"
"2006-06-16 22:00","2006","06","16","22:00","23.4","","10.3","","44","","21","","13","","24.1","","99.63","","25","","","","Rain Showers"
"2006-06-16 23:00","2006","06","16","23:00","22.8","","10.3","","45","","22","","20","","24.1","","99.57","","","","","","Mostly Cloudy"
"2006-06-17 00:00","2006","06","17","00:00","22.3","","10.5","","47","","20","","13","","24.1","","99.64","","","","","","Mainly Clear"
"2006-06-17 01:00","2006","06","17","01:00","21.9","","10.9","","50","","20","","11","","24.1","","99.67","","","","","","Mainly Clear"
"2006-06-17 02:00","2006","06","17","02:00","20.9","","11.6","","55","","18","","6","","24.1","","99.66","","","","","","Mainly Clear"
"2006-06-17 03:00","2006","06","17","03:00","20.4","","12.1","","59","","23","","11","","24.1","","99.63","","","","","","Mainly Clear"
"2006-06-17 04:00","2006","06","17","04:00","21.0","","12.3","","58","","22","","13","","24.1","","99.60","","","","","","Mainly Clear"
"2006-06-17 05:00","2006","06","17","05:00","20.0","","12.9","","64","","24","","13","","24.1","","99.61","","","","","","Mainly Clear"
"2006-06-17 06:00","2006","06","17","06:00","21.9","","14.3","","62","","25","","19","","24.1","","99.63","","25","","","","Mostly Cloudy"
"2006-06-17 07:00","2006","06","17","07:00","23.7","","15.1","","59","","26","","20","","24.1","","99.64","","28","","","","Mainly Clear"
"2006-06-17 08:00","2006","06","17","08:00","26.8","","16.6","","54","","27","","30","","24.1","","99.63","","32","","","","Mainly Clear"
"2006-06-17 09:00","2006","06","17","09:00","28.6","","17.3","","50","","27","","20","","24.1","","99.58","","34","","","","Mainly Clear"
"2006-06-17 10:00","2006","06","17","10:00","29.4","","17.6","","49","","28","","28","","24.1","","99.59","","35","","","","Mainly Clear"
"2006-06-17 11:00","2006","06","17","11:00","30.7","","18.6","","49","","26","","22","","24.1","","99.60","","37","","","","Mainly Clear"
"2006-06-17 12:00","2006","06","17","12:00","32.0","","18.9","","46","","26","","24","","24.1","","99.57","","39","","","","Mainly Clear"
"2006-06-17 13:00","2006","06","17","13:00","32.3","","18.7","","45","","28","","22","","24.1","","99.55","","39","","","","Mostly Cloudy"
"2006-06-17 14:00","2006","06","17","14:00","33.3","","18.5","","42","","24","","24","","24.1","","99.52","","40","","","","Mostly Cloudy"
"2006-06-17 15:00","2006","06","17","15:00","33.1","","18.2","","41","","26","","17","","24.1","","99.48","","39","","","","Mostly Cloudy"
"2006-06-17 16:00","2006","06","17","16:00","32.8","","17.6","","40","","25","","22","","24.1","","99.43","","39","","","","Mostly Cloudy"
"2006-06-17 17:00","2006","06","17","17:00","31.9","","18.5","","45","","24","","28","","24.1","","99.42","","38","","","","Mostly Cloudy"
"2006-06-17 18:00","2006","06","17","18:00","31.0","","17.0","","43","","25","","32","","24.1","","99.42","","36","","","","Mostly Cloudy"
"2006-06-17 19:00","2006","06","17","19:00","29.6","","15.5","","42","","23","","26","","24.1","","99.41","","34","","","","Mainly Clear"
"2006-06-17 20:00","2006","06","17","20:00","28.2","","13.1","","39","","23","","20","","24.1","","99.43","","31","","","","Mainly Clear"
"2006-06-17 21:00","2006","06","17","21:00","27.0","","13.2","","43","","21","","7","","24.1","","99.44","","30","","","","Clear"
"2006-06-17 22:00","2006","06","17","22:00","25.2","","13.7","","49","","23","","13","","24.1","","99.49","","28","","","","Clear"
"2006-06-17 23:00","2006","06","17","23:00","24.2","","13.7","","52","","23","","7","","24.1","","99.52","","27","","","","Clear"
"2006-06-18 00:00","2006","06","18","00:00","23.9","","13.6","","52","","21","","9","","24.1","","99.51","","27","","","","Clear"
"2006-06-18 01:00","2006","06","18","01:00","23.3","","13.5","","54","","20","","9","","24.1","","99.45","","26","","","","Clear"
"2006-06-18 02:00","2006","06","18","02:00","22.5","","13.5","","57","","20","","6","","24.1","","99.42","","26","","","","Clear"
"2006-06-18 03:00","2006","06","18","03:00","22.3","","14.0","","59","","19","","9","","24.1","","99.40","","26","","","","Clear"
"2006-06-18 04:00","2006","06","18","04:00","21.9","","14.3","","62","","21","","9","","24.1","","99.39","","25","","","","Clear"
"2006-06-18 05:00","2006","06","18","05:00","21.7","","14.5","","64","","21","","15","","24.1","","99.41","","25","","","","Mainly Clear"
"2006-06-18 06:00","2006","06","18","06:00","22.4","","15.6","","65","","21","","13","","19.3","","99.43","","27","","","","Mainly Clear"
"2006-06-18 07:00","2006","06","18","07:00","23.9","","17.1","","66","","22","","15","","16.1","","99.42","","29","","","","Clear"
"2006-06-18 08:00","2006","06","18","08:00","25.9","","18.9","","65","","22","","17","","12.9","","99.37","","33","","","","Mainly Clear"
"2006-06-18 09:00","2006","06","18","09:00","27.5","","19.9","","63","","20","","17","","12.9","","99.31","","35","","","","Mainly Clear"
"2006-06-18 10:00","2006","06","18","10:00","29.2","","20.5","","59","","22","","24","","12.9","","99.28","","37","","","","Cloudy"
"2006-06-18 11:00","2006","06","18","11:00","30.3","","20.9","","57","","22","","30","","12.9","","99.27","","39","","","","Mostly Cloudy"
"2006-06-18 12:00","2006","06","18","12:00","31.3","","19.9","","51","","22","","20","","24.1","","99.22","","39","","","","Mostly Cloudy"
"2006-06-18 13:00","2006","06","18","13:00","30.5","","19.5","","52","","24","","41","","19.3","","99.18","","38","","","","Mostly Cloudy"
"2006-06-18 14:00","2006","06","18","14:00","31.8","","19.2","","47","","23","","43","","16.1","","99.12","","39","","","","Mostly Cloudy"
"2006-06-18 15:00","2006","06","18","15:00","31.2","","19.0","","48","","23","","37","","14.5","","99.09","","38","","","","Mostly Cloudy"
"2006-06-18 16:00","2006","06","18","16:00","31.2","","19.0","","48","","23","","37","","19.3","","99.06","","38","","","","Mostly Cloudy"
"2006-06-18 17:00","2006","06","18","17:00","31.3","","18.3","","46","","22","","37","","14.5","","98.99","","38","","","","Mainly Clear"
"2006-06-18 18:00","2006","06","18","18:00","30.4","","18.0","","48","","21","","32","","19.3","","99.00","","36","","","","Mostly Cloudy"
"2006-06-18 19:00","2006","06","18","19:00","29.6","","18.0","","50","","22","","24","","11.3","","98.96","","36","","","","Mainly Clear"
"2006-06-18 20:00","2006","06","18","20:00","28.7","","17.9","","52","","22","","19","","9.7","","98.96","","35","","","","Haze"
"2006-06-18 21:00","2006","06","18","21:00","28.1","","17.6","","53","","23","","24","","9.7","","98.93","","34","","","","Haze"
"2006-06-18 22:00","2006","06","18","22:00","27.3","","17.3","","54","","23","","28","","11.3","","98.94","","33","","","","Mostly Cloudy"
"2006-06-18 23:00","2006","06","18","23:00","26.3","","17.2","","57","","24","","37","","24.1","","98.92","","32","","","","Mostly Cloudy"
"2006-06-19 00:00","2006","06","19","00:00","25.4","","17.2","","60","","24","","33","","24.1","","98.88","","31","","","","Mostly Cloudy"
"2006-06-19 01:00","2006","06","19","01:00","23.6","","18.0","","71","","26","","32","","24.1","","98.91","","30","","","","Cloudy"
"2006-06-19 02:00","2006","06","19","02:00","22.2","","17.8","","76","","25","","24","","24.1","","98.99","","28","","","","Rain"
"2006-06-19 03:00","2006","06","19","03:00","20.9","","18.6","","87","","28","","19","","24.1","","98.95","","27","","","","Rain"
"2006-06-19 04:00","2006","06","19","04:00","20.5","","18.3","","87","","27","","13","","24.1","","98.97","","27","","","","Mostly Cloudy"
"2006-06-19 05:00","2006","06","19","05:00","20.4","","18.1","","87","","25","","11","","24.1","","98.99","","26","","","","Mostly Cloudy"
"2006-06-19 06:00","2006","06","19","06:00","20.8","","18.5","","87","","21","","9","","16.1","","98.99","","27","","","","Rain Showers"
"2006-06-19 07:00","2006","06","19","07:00","20.5","","18.0","","86","","22","","11","","8.0","","99.02","","27","","","","Rain Showers,Haze"
"2006-06-19 08:00","2006","06","19","08:00","20.9","","18.9","","88","","21","","9","","8.0","","98.97","","28","","","","Rain Showers,Fog"
"2006-06-19 09:00","2006","06","19","09:00","21.6","","19.7","","89","","24","","7","","9.7","","98.98","","29","","","","Fog"
"2006-06-19 10:00","2006","06","19","10:00","23.3","","19.6","","80","","25","","13","","16.1","","98.95","","31","","","","Mostly Cloudy"
"2006-06-19 11:00","2006","06","19","11:00","25.4","","18.8","","67","","25","","17","","24.1","","98.95","","32","","","","Mostly Cloudy"
"2006-06-19 12:00","2006","06","19","12:00","26.7","","18.5","","61","","26","","26","","24.1","","98.91","","33","","","","Mainly Clear"
"2006-06-19 13:00","2006","06","19","13:00","29.0","","17.6","","50","","25","","28","","24.1","","98.86","","35","","","","Mostly Cloudy"
"2006-06-19 14:00","2006","06","19","14:00","28.9","","15.8","","45","","27","","26","","19.3","","98.81","","33","","","","Mostly Cloudy"
"2006-06-19 15:00","2006","06","19","15:00","27.5","","15.0","","46","","27","","33","","19.3","","98.80","","31","","","","Mostly Cloudy"
"2006-06-19 16:00","2006","06","19","16:00","26.6","","15.2","","50","","24","","37","","24.1","","98.84","","31","","","","Mostly Cloudy"
"2006-06-19 17:00","2006","06","19","17:00","24.9","","15.3","","55","","23","","30","","24.1","","98.79","","29","","","","Mostly Cloudy"
"2006-06-19 18:00","2006","06","19","18:00","24.4","","14.7","","55","","26","","26","","24.1","","98.82","","28","","","","Mostly Cloudy"
"2006-06-19 19:00","2006","06","19","19:00","23.6","","15.5","","60","","26","","30","","24.1","","98.83","","28","","","","Mostly Cloudy"
"2006-06-19 20:00","2006","06","19","20:00","22.1","","13.7","","59","","27","","19","","24.1","","98.78","","25","","","","Mostly Cloudy"
"2006-06-19 21:00","2006","06","19","21:00","21.3","","13.4","","61","","27","","17","","24.1","","98.86","","","","","","Mostly Cloudy"
"2006-06-19 22:00","2006","06","19","22:00","20.0","","13.7","","67","","26","","9","","24.1","","98.88","","","","","","Mostly Cloudy"
"2006-06-19 23:00","2006","06","19","23:00","19.8","","13.7","","68","","24","","20","","24.1","","98.89","","","","","","Mainly Clear"
"2006-06-20 00:00","2006","06","20","00:00","18.7","","13.8","","73","","27","","17","","24.1","","98.89","","","","","","Mainly Clear"
"2006-06-20 01:00","2006","06","20","01:00","19.2","","14.7","","75","","30","","19","","24.1","","98.89","","","","","","Mainly Clear"
"2006-06-20 02:00","2006","06","20","02:00","18.8","","14.2","","75","","31","","22","","24.1","","98.92","","","","","","Mainly Clear"
"2006-06-20 03:00","2006","06","20","03:00","18.4","","14.2","","77","","30","","19","","24.1","","98.95","","","","","","Mainly Clear"
"2006-06-20 04:00","2006","06","20","04:00","17.4","","13.8","","79","","30","","19","","24.1","","99.02","","","","","","Mainly Clear"
"2006-06-20 05:00","2006","06","20","05:00","16.7","","13.5","","81","","29","","13","","24.1","","99.06","","","","","","Mainly Clear"
"2006-06-20 06:00","2006","06","20","06:00","15.9","","12.5","","80","","32","","28","","24.1","","99.15","","","","","","Mainly Clear"
"2006-06-20 07:00","2006","06","20","07:00","17.0","","13.7","","81","","32","","26","","24.1","","99.21","","","","","","Mostly Cloudy"
"2006-06-20 08:00","2006","06","20","08:00","17.9","","13.8","","77","","32","","26","","24.1","","99.26","","","","","","Mostly Cloudy"
"2006-06-20 09:00","2006","06","20","09:00","19.8","","14.0","","69","","33","","30","","24.1","","99.31","","","","","","Mainly Clear"
"2006-06-20 10:00","2006","06","20","10:00","20.0","","13.3","","65","","32","","26","","24.1","","99.33","","","","","","Mostly Cloudy"
"2006-06-20 11:00","2006","06","20","11:00","21.2","","12.0","","56","","32","","30","","24.1","","99.31","","","","","","Mostly Cloudy"
"2006-06-20 12:00","2006","06","20","12:00","21.7","","12.5","","56","","36","","20","","24.1","","99.31","","","","","","Mainly Clear"
"2006-06-20 13:00","2006","06","20","13:00","22.2","","12.1","","53","","34","","17","","24.1","","99.37","","25","","","","Mainly Clear"
"2006-06-20 14:00","2006","06","20","14:00","22.0","","11.8","","52","","36","","20","","24.1","","99.41","","","","","","Mainly Clear"
"2006-06-20 15:00","2006","06","20","15:00","22.5","","11.5","","50","","34","","26","","24.1","","99.42","","25","","","","Mainly Clear"
"2006-06-20 16:00","2006","06","20","16:00","22.2","","11.0","","49","","35","","22","","24.1","","99.44","","","","","","Mainly Clear"
"2006-06-20 17:00","2006","06","20","17:00","21.6","","11.1","","51","","1","","24","","24.1","","99.48","","","","","","Clear"
"2006-06-20 18:00","2006","06","20","18:00","20.6","","10.2","","51","","35","","24","","24.1","","99.50","","","","","","Mainly Clear"
"2006-06-20 19:00","2006","06","20","19:00","19.4","","9.2","","52","","2","","22","","24.1","","99.53","","","","","","Mainly Clear"
"2006-06-20 20:00","2006","06","20","20:00","17.5","","7.3","","51","","36","","20","","24.1","","99.58","","","","","","Mainly Clear"
"2006-06-20 21:00","2006","06","20","21:00","16.6","","7.3","","54","","36","","24","","24.1","","99.64","","","","","","Mainly Clear"
"2006-06-20 22:00","2006","06","20","22:00","15.9","","7.6","","58","","36","","15","","24.1","","99.62","","","","","","Mainly Clear"
"2006-06-20 23:00","2006","06","20","23:00","15.4","","7.7","","60","","1","","15","","24.1","","99.60","","","","","","Clear"
"2006-06-21 00:00","2006","06","21","00:00","14.6","","8.0","","65","","34","","17","","24.1","","99.66","","","","","","Clear"
"2006-06-21 01:00","2006","06","21","01:00","13.7","","8.0","","68","","32","","11","","24.1","","99.72","","","","","","Clear"
"2006-06-21 02:00","2006","06","21","02:00","13.0","","8.3","","73","","33","","9","","24.1","","99.75","","","","","","Clear"
"2006-06-21 03:00","2006","06","21","03:00","13.0","","8.6","","75","","30","","6","","24.1","","99.76","","","","","","Clear"
"2006-06-21 04:00","2006","06","21","04:00","13.0","","8.3","","73","","","","0","","24.1","","99.76","","","","","","Mainly Clear"
"2006-06-21 05:00","2006","06","21","05:00","12.9","","8.3","","74","","28","","7","","24.1","","99.80","","","","","","Mainly Clear"
"2006-06-21 06:00","2006","06","21","06:00","13.9","","9.9","","77","","27","","6","","24.1","","99.80","","","","","","Mostly Cloudy"
"2006-06-21 07:00","2006","06","21","07:00","15.9","","10.5","","70","","","","0","","24.1","","99.84","","","","","","Mostly Cloudy"
"2006-06-21 08:00","2006","06","21","08:00","18.1","","11.0","","63","","26","","4","","24.1","","99.73","","","","","","Mostly Cloudy"
"2006-06-21 09:00","2006","06","21","09:00","19.9","","10.2","","54","","14","","11","","24.1","","99.62","","","","","","Mostly Cloudy"
"2006-06-21 10:00","2006","06","21","10:00","20.9","","11.1","","53","","19","","20","","24.1","","99.71","","","","","","Mostly Cloudy"
"2006-06-21 11:00","2006","06","21","11:00","20.8","","11.3","","55","","19","","15","","24.1","","99.77","","","","","","Mostly Cloudy"
"2006-06-21 12:00","2006","06","21","12:00","22.7","","12.8","","54","","18","","15","","24.1","","99.72","","25","","","","Mostly Cloudy"
"2006-06-21 13:00","2006","06","21","13:00","22.0","","12.8","","56","","18","","15","","24.1","","99.74","","25","","","","Cloudy"
"2006-06-21 14:00","2006","06","21","14:00","21.5","","13.2","","59","","15","","17","","24.1","","99.65","","","","","","Mostly Cloudy"
"2006-06-21 15:00","2006","06","21","15:00","21.0","","13.3","","61","","15","","19","","24.1","","99.45","","","","","","Cloudy"
"2006-06-21 16:00","2006","06","21","16:00","22.1","","14.7","","63","","17","","17","","24.1","","99.48","","26","","","","Mostly Cloudy"
"2006-06-21 17:00","2006","06","21","17:00","22.5","","15.4","","64","","25","","19","","24.1","","99.42","","27","","","","Mostly Cloudy"
"2006-06-21 18:00","2006","06","21","18:00","22.0","","15.4","","66","","22","","15","","24.1","","99.35","","26","","","","Mostly Cloudy"
"2006-06-21 19:00","2006","06","21","19:00","21.6","","15.8","","70","","22","","17","","24.1","","99.34","","26","","","","Mainly Clear"
"2006-06-21 20:00","2006","06","21","20:00","20.3","","16.2","","77","","17","","13","","24.1","","99.32","","25","","","","Mostly Cloudy"
"2006-06-21 21:00","2006","06","21","21:00","20.1","","16.4","","79","","16","","11","","24.1","","99.30","","25","","","","Mostly Cloudy"
"2006-06-21 22:00","2006","06","21","22:00","20.5","","16.6","","78","","17","","17","","24.1","","99.21","","26","","","","Cloudy"
"2006-06-21 23:00","2006","06","21","23:00","19.8","","16.9","","83","","17","","17","","19.3","","99.19","","","","","","Rain Showers"
"2006-06-22 00:00","2006","06","22","00:00","20.0","","17.0","","83","","17","","7","","24.1","","99.15","","25","","","","Mostly Cloudy"
"2006-06-22 01:00","2006","06","22","01:00","19.8","","17.1","","84","","17","","9","","24.1","","99.11","","","","","","Cloudy"
"2006-06-22 02:00","2006","06","22","02:00","20.0","","17.6","","86","","20","","9","","24.1","","99.09","","26","","","","Cloudy"
"2006-06-22 03:00","2006","06","22","03:00","20.9","","18.0","","83","","24","","9","","24.1","","99.09","","27","","","","Cloudy"
"2006-06-22 04:00","2006","06","22","04:00","21.3","","18.6","","85","","25","","15","","24.1","","99.15","","28","","","","Mostly Cloudy"
"2006-06-22 05:00","2006","06","22","05:00","21.2","","18.6","","85","","23","","11","","19.3","","99.19","","28","","","","Cloudy"
"2006-06-22 06:00","2006","06","22","06:00","21.7","","19.1","","85","","18","","6","","19.3","","99.26","","29","","","","Mostly Cloudy"
"2006-06-22 07:00","2006","06","22","07:00","23.2","","19.6","","80","","25","","17","","19.3","","99.30","","30","","","","Mostly Cloudy"
"2006-06-22 08:00","2006","06","22","08:00","25.2","","20.1","","73","","27","","20","","19.3","","99.28","","33","","","","Mainly Clear"
"2006-06-22 09:00","2006","06","22","09:00","26.3","","20.2","","69","","27","","17","","19.3","","99.32","","34","","","","Mostly Cloudy"
"2006-06-22 10:00","2006","06","22","10:00","27.3","","20.0","","64","","24","","19","","19.3","","99.33","","35","","","","Mainly Clear"
"2006-06-22 11:00","2006","06","22","11:00","27.9","","19.3","","60","","27","","24","","24.1","","99.38","","35","","","","Mainly Clear"
"2006-06-22 12:00","2006","06","22","12:00","29.3","","19.6","","56","","27","","19","","24.1","","99.40","","37","","","","Mostly Cloudy"
"2006-06-22 13:00","2006","06","22","13:00","30.4","","19.2","","51","","25","","30","","24.1","","99.38","","37","","","","Mostly Cloudy"
"2006-06-22 14:00","2006","06","22","14:00","30.3","","17.6","","47","","29","","33","","24.1","","99.37","","36","","","","Mostly Cloudy"
"2006-06-22 15:00","2006","06","22","15:00","30.6","","15.2","","39","","27","","32","","24.1","","99.38","","35","","","","Mostly Cloudy"
"2006-06-22 16:00","2006","06","22","16:00","28.9","","14.7","","42","","29","","26","","24.1","","99.29","","33","","","","Mostly Cloudy"
"2006-06-22 17:00","2006","06","22","17:00","27.6","","14.4","","44","","31","","30","","24.1","","99.39","","31","","","","Mostly Cloudy"
"2006-06-22 18:00","2006","06","22","18:00","27.0","","13.7","","44","","31","","11","","24.1","","99.36","","30","","","","Mostly Cloudy"
"2006-06-22 19:00","2006","06","22","19:00","26.4","","13.6","","45","","29","","13","","24.1","","99.46","","30","","","","Mostly Cloudy"
"2006-06-22 20:00","2006","06","22","20:00","25.6","","14.7","","51","","28","","15","","24.1","","99.50","","29","","","","Mostly Cloudy"
"2006-06-22 21:00","2006","06","22","21:00","25.4","","14.7","","52","","30","","15","","24.1","","99.55","","29","","","","Mostly Cloudy"
"2006-06-22 22:00","2006","06","22","22:00","24.4","","14.6","","54","","33","","17","","24.1","","99.55","","28","","","","Mainly Clear"
"2006-06-22 23:00","2006","06","22","23:00","22.7","","14.4","","59","","36","","9","","24.1","","99.57","","26","","","","Mainly Clear"
"2006-06-23 00:00","2006","06","23","00:00","21.9","","14.7","","64","","36","","9","","24.1","","99.62","","26","","","","Mainly Clear"
"2006-06-23 01:00","2006","06","23","01:00","20.5","","14.8","","70","","35","","9","","24.1","","99.62","","","","","","Clear"
"2006-06-23 02:00","2006","06","23","02:00","19.7","","14.9","","74","","32","","13","","24.1","","99.61","","","","","","Mainly Clear"
"2006-06-23 03:00","2006","06","23","03:00","19.0","","15.0","","78","","36","","11","","24.1","","99.68","","","","","","Mostly Cloudy"
"2006-06-23 04:00","2006","06","23","04:00","18.3","","14.0","","76","","36","","19","","24.1","","99.68","","","","","","Mostly Cloudy"
"2006-06-23 05:00","2006","06","23","05:00","17.6","","13.8","","78","","36","","13","","24.1","","99.73","","","","","","Mostly Cloudy"
"2006-06-23 06:00","2006","06","23","06:00","17.6","","14.0","","79","","1","","17","","24.1","","99.75","","","","","","Mostly Cloudy"
"2006-06-23 07:00","2006","06","23","07:00","18.2","","14.4","","78","","36","","15","","24.1","","99.85","","","","","","Mostly Cloudy"
"2006-06-23 08:00","2006","06","23","08:00","18.7","","14.7","","78","","35","","15","","24.1","","99.88","","","","","","Mostly Cloudy"
"2006-06-23 09:00","2006","06","23","09:00","19.5","","15.1","","76","","2","","20","","24.1","","99.89","","","","","","Mostly Cloudy"
"2006-06-23 10:00","2006","06","23","10:00","20.3","","15.6","","74","","36","","13","","24.1","","99.94","","25","","","","Mostly Cloudy"
"2006-06-23 11:00","2006","06","23","11:00","21.6","","15.7","","69","","2","","9","","24.1","","99.93","","26","","","","Mostly Cloudy"
"2006-06-23 12:00","2006","06","23","12:00","22.3","","15.4","","65","","36","","6","","24.1","","99.90","","27","","","","Cloudy"
"2006-06-23 13:00","2006","06","23","13:00","23.6","","16.0","","62","","17","","11","","24.1","","99.86","","28","","","","Mostly Cloudy"
"2006-06-23 14:00","2006","06","23","14:00","23.3","","15.7","","62","","16","","13","","24.1","","99.83","","28","","","","Mostly Cloudy"
"2006-06-23 15:00","2006","06","23","15:00","23.5","","15.8","","62","","15","","17","","24.1","","99.77","","28","","","","Mostly Cloudy"
"2006-06-23 16:00","2006","06","23","16:00","22.5","","15.4","","64","","16","","13","","24.1","","99.74","","27","","","","Mostly Cloudy"
"2006-06-23 17:00","2006","06","23","17:00","22.6","","15.4","","64","","15","","15","","24.1","","99.72","","27","","","","Mainly Clear"
"2006-06-23 18:00","2006","06","23","18:00","20.8","","15.0","","69","","14","","15","","24.1","","99.73","","25","","","","Mainly Clear"
"2006-06-23 19:00","2006","06","23","19:00","20.0","","14.6","","71","","14","","11","","24.1","","99.78","","","","","","Mainly Clear"
"2006-06-23 20:00","2006","06","23","20:00","19.7","","15.1","","75","","9","","4","","24.1","","99.82","","","","","","Mostly Cloudy"
"2006-06-23 21:00","2006","06","23","21:00","18.7","","11.6","","63","","1","","17","","24.1","","99.86","","","","","","Mostly Cloudy"
"2006-06-23 22:00","2006","06","23","22:00","17.3","","9.4","","60","","36","","26","","24.1","","99.86","","","","","","Mainly Clear"
"2006-06-23 23:00","2006","06","23","23:00","16.7","","7.9","","56","","36","","26","","24.1","","99.89","","","","","","Mostly Cloudy"
"2006-06-24 00:00","2006","06","24","00:00","16.4","","8.1","","58","","36","","13","","24.1","","99.89","","","","","","Mainly Clear"
"2006-06-24 01:00","2006","06","24","01:00","15.4","","8.8","","65","","36","","17","","24.1","","99.88","","","","","","Mainly Clear"
"2006-06-24 02:00","2006","06","24","02:00","14.5","","9.4","","71","","36","","20","","24.1","","99.84","","","","","","Mainly Clear"
"2006-06-24 03:00","2006","06","24","03:00","14.4","","9.7","","73","","36","","19","","24.1","","99.82","","","","","","Mainly Clear"
"2006-06-24 04:00","2006","06","24","04:00","14.2","","9.4","","73","","35","","20","","24.1","","99.83","","","","","","Mostly Cloudy"
"2006-06-24 05:00","2006","06","24","05:00","14.0","","9.7","","75","","36","","22","","24.1","","99.87","","","","","","Mostly Cloudy"
"2006-06-24 06:00","2006","06","24","06:00","14.3","","10.4","","77","","36","","13","","24.1","","99.94","","","","","","Mostly Cloudy"
"2006-06-24 07:00","2006","06","24","07:00","16.0","","10.9","","72","","2","","17","","24.1","","99.98","","","","","","Mostly Cloudy"
"2006-06-24 08:00","2006","06","24","08:00","18.1","","11.8","","67","","1","","11","","24.1","","100.01","","","","","","Mainly Clear"
"2006-06-24 09:00","2006","06","24","09:00","20.8","","13.8","","64","","35","","6","","24.1","","100.01","","","","","","Mostly Cloudy"
"2006-06-24 10:00","2006","06","24","10:00","21.4","","14.1","","63","","36","","4","","24.1","","100.02","","25","","","","Mostly Cloudy"
"2006-06-24 11:00","2006","06","24","11:00","22.8","","15.3","","63","","21","","6","","24.1","","100.02","","27","","","","Mostly Cloudy"
"2006-06-24 12:00","2006","06","24","12:00","22.9","","14.6","","59","","1","","4","","24.1","","100.01","","27","","","","Mostly Cloudy"
"2006-06-24 13:00","2006","06","24","13:00","23.7","","14.9","","58","","15","","17","","24.1","","99.97","","28","","","","Mainly Clear"
"2006-06-24 14:00","2006","06","24","14:00","23.9","","15.0","","57","","15","","15","","24.1","","99.94","","28","","","","Mainly Clear"
"2006-06-24 15:00","2006","06","24","15:00","24.3","","15.1","","56","","16","","17","","24.1","","99.92","","28","","","","Mainly Clear"
"2006-06-24 16:00","2006","06","24","16:00","24.0","","15.1","","58","","17","","15","","24.1","","99.89","","28","","","","Mainly Clear"
"2006-06-24 17:00","2006","06","24","17:00","23.9","","14.8","","57","","15","","11","","24.1","","99.86","","28","","","","Mainly Clear"
"2006-06-24 18:00","2006","06","24","18:00","23.7","","14.7","","57","","14","","11","","24.1","","99.82","","27","","","","Mainly Clear"
"2006-06-24 19:00","2006","06","24","19:00","22.8","","14.6","","60","","15","","11","","24.1","","99.85","","27","","","","Mainly Clear"
"2006-06-24 20:00","2006","06","24","20:00","21.2","","14.5","","66","","15","","4","","24.1","","99.87","","25","","","","Mostly Cloudy"
"2006-06-24 21:00","2006","06","24","21:00","20.4","","11.3","","56","","34","","15","","24.1","","99.96","","","","","","Mainly Clear"
"2006-06-24 22:00","2006","06","24","22:00","19.2","","10.4","","57","","2","","13","","24.1","","99.98","","","","","","Mainly Clear"
"2006-06-24 23:00","2006","06","24","23:00","17.8","","9.9","","60","","2","","11","","24.1","","100.01","","","","","","Clear"
"2006-06-25 00:00","2006","06","25","00:00","16.9","","9.4","","61","","36","","17","","24.1","","100.00","","","","","","Clear"
"2006-06-25 01:00","2006","06","25","01:00","16.4","","8.8","","61","","36","","13","","24.1","","99.98","","","","","","Clear"
"2006-06-25 02:00","2006","06","25","02:00","15.7","","8.8","","63","","35","","13","","24.1","","99.97","","","","","","Mainly Clear"
"2006-06-25 03:00","2006","06","25","03:00","15.5","","9.5","","67","","36","","15","","24.1","","99.94","","","","","","Mainly Clear"
"2006-06-25 04:00","2006","06","25","04:00","15.2","","8.9","","66","","36","","13","","24.1","","99.94","","","","","","Mostly Cloudy"
"2006-06-25 05:00","2006","06","25","05:00","14.8","","9.1","","69","","36","","13","","24.1","","99.93","","","","","","Mainly Clear"
"2006-06-25 06:00","2006","06","25","06:00","15.8","","9.7","","67","","1","","15","","24.1","","99.93","","","","","","Mostly Cloudy"
"2006-06-25 07:00","2006","06","25","07:00","17.1","","10.9","","67","","36","","9","","24.1","","99.96","","","","","","Mostly Cloudy"
"2006-06-25 08:00","2006","06","25","08:00","19.9","","12.2","","61","","36","","9","","24.1","","99.94","","","","","","Mostly Cloudy"
"2006-06-25 09:00","2006","06","25","09:00","22.6","","13.8","","58","","5","","6","","24.1","","99.92","","26","","","","Mostly Cloudy"
"2006-06-25 10:00","2006","06","25","10:00","23.8","","13.9","","54","","9","","11","","24.1","","99.87","","27","","","","Mostly Cloudy"
"2006-06-25 11:00","2006","06","25","11:00","24.9","","14.7","","53","","12","","13","","24.1","","99.86","","29","","","","Mostly Cloudy"
"2006-06-25 12:00","2006","06","25","12:00","26.2","","12.7","","43","","7","","17","","24.1","","99.84","","29","","","","Mostly Cloudy"
"2006-06-25 13:00","2006","06","25","13:00","26.8","","12.9","","42","","8","","19","","24.1","","99.81","","30","","","","Mostly Cloudy"
"2006-06-25 14:00","2006","06","25","14:00","26.4","","13.2","","44","","8","","19","","24.1","","99.76","","29","","","","Mostly Cloudy"
"2006-06-25 15:00","2006","06","25","15:00","27.1","","13.6","","43","","10","","20","","24.1","","99.72","","30","","","","Mostly Cloudy"
"2006-06-25 16:00","2006","06","25","16:00","26.3","","13.4","","45","","11","","26","","24.1","","99.75","","29","","","","Mostly Cloudy"
"2006-06-25 17:00","2006","06","25","17:00","25.3","","13.8","","49","","12","","26","","24.1","","99.73","","29","","","","Mostly Cloudy"
"2006-06-25 18:00","2006","06","25","18:00","23.6","","15.4","","60","","10","","22","","24.1","","99.69","","28","","","","Mostly Cloudy"
"2006-06-25 19:00","2006","06","25","19:00","23.9","","15.5","","59","","8","","17","","24.1","","99.71","","28","","","","Mostly Cloudy"
"2006-06-25 20:00","2006","06","25","20:00","23.5","","14.2","","56","","9","","13","","24.1","","99.71","","27","","","","Mostly Cloudy"
"2006-06-25 21:00","2006","06","25","21:00","22.7","","14.0","","58","","9","","9","","24.1","","99.73","","26","","","","Mostly Cloudy"
"2006-06-25 22:00","2006","06","25","22:00","22.7","","13.7","","57","","9","","11","","24.1","","99.72","","26","","","","Mostly Cloudy"
"2006-06-25 23:00","2006","06","25","23:00","23.1","","12.7","","52","","8","","15","","24.1","","99.71","","26","","","","Mostly Cloudy"
"2006-06-26 00:00","2006","06","26","00:00","22.8","","13.1","","54","","8","","17","","24.1","","99.67","","26","","","","Mostly Cloudy"
"2006-06-26 01:00","2006","06","26","01:00","22.1","","13.7","","59","","6","","13","","24.1","","99.60","","25","","","","Mostly Cloudy"
"2006-06-26 02:00","2006","06","26","02:00","20.8","","15.1","","70","","7","","11","","24.1","","99.59","","25","","","","Mostly Cloudy"
"2006-06-26 03:00","2006","06","26","03:00","20.4","","16.5","","78","","7","","13","","24.1","","99.57","","25","","","","Mostly Cloudy"
"2006-06-26 04:00","2006","06","26","04:00","20.4","","16.9","","80","","7","","13","","24.1","","99.57","","26","","","","Mostly Cloudy"
"2006-06-26 05:00","2006","06","26","05:00","20.1","","17.5","","85","","6","","11","","24.1","","99.60","","26","","","","Cloudy"
"2006-06-26 06:00","2006","06","26","06:00","20.5","","17.5","","83","","6","","11","","24.1","","99.59","","26","","","","Cloudy"
"2006-06-26 07:00","2006","06","26","07:00","20.8","","16.8","","78","","10","","20","","24.1","","99.60","","26","","","","Cloudy"
"2006-06-26 08:00","2006","06","26","08:00","21.5","","16.1","","71","","10","","19","","24.1","","99.63","","26","","","","Cloudy"
"2006-06-26 09:00","2006","06","26","09:00","20.3","","17.1","","82","","9","","11","","24.1","","99.64","","26","","","","Cloudy"
"2006-06-26 10:00","2006","06","26","10:00","22.7","","17.5","","72","","10","","20","","24.1","","99.63","","28","","","","Cloudy"
"2006-06-26 11:00","2006","06","26","11:00","23.3","","17.1","","68","","10","","24","","24.1","","99.62","","29","","","","Mostly Cloudy"
"2006-06-26 12:00","2006","06","26","12:00","23.6","","17.0","","67","","9","","22","","24.1","","99.62","","29","","","","Cloudy"
"2006-06-26 13:00","2006","06","26","13:00","23.9","","17.4","","67","","9","","22","","24.1","","99.56","","29","","","","Cloudy"
"2006-06-26 14:00","2006","06","26","14:00","24.4","","17.0","","63","","10","","20","","24.1","","99.54","","30","","","","Cloudy"
"2006-06-26 15:00","2006","06","26","15:00","24.0","","16.2","","62","","8","","24","","24.1","","99.49","","29","","","","Cloudy"
"2006-06-26 16:00","2006","06","26","16:00","24.1","","16.9","","64","","9","","17","","24.1","","99.47","","29","","","","Mostly Cloudy"
"2006-06-26 17:00","2006","06","26","17:00","23.5","","16.9","","66","","11","","24","","24.1","","99.48","","29","","","","Mostly Cloudy"
"2006-06-26 18:00","2006","06","26","18:00","23.2","","16.6","","66","","11","","13","","24.1","","99.46","","28","","","","Mostly Cloudy"
"2006-06-26 19:00","2006","06","26","19:00","22.3","","16.4","","69","","9","","22","","24.1","","99.44","","27","","","","Cloudy"
"2006-06-26 20:00","2006","06","26","20:00","21.5","","16.9","","75","","9","","15","","24.1","","99.44","","27","","","","Cloudy"
"2006-06-26 21:00","2006","06","26","21:00","20.7","","17.7","","83","","9","","15","","24.1","","99.42","","26","","","","Mostly Cloudy"
"2006-06-26 22:00","2006","06","26","22:00","20.7","","18.3","","86","","8","","11","","24.1","","99.42","","27","","","","Mostly Cloudy"
"2006-06-26 23:00","2006","06","26","23:00","20.9","","18.4","","86","","8","","15","","24.1","","99.38","","27","","","","Cloudy"
"2006-06-27 00:00","2006","06","27","00:00","20.6","","18.6","","88","","10","","15","","24.1","","99.36","","27","","","","Cloudy"
"2006-06-27 01:00","2006","06","27","01:00","20.6","","19.1","","91","","9","","13","","24.1","","99.32","","27","","","","Cloudy"
"2006-06-27 02:00","2006","06","27","02:00","20.4","","19.2","","93","","9","","7","","16.1","","99.29","","27","","","","Rain"
"2006-06-27 03:00","2006","06","27","03:00","20.1","","19.2","","95","","10","","7","","12.9","","99.26","","27","","","","Rain"
"2006-06-27 04:00","2006","06","27","04:00","19.5","","19.0","","97","","15","","9","","11.3","","99.26","","","","","","Rain"
"2006-06-27 05:00","2006","06","27","05:00","19.5","","19.0","","97","","16","","7","","2.8","","99.26","","","","","","Rain,Fog"
"2006-06-27 06:00","2006","06","27","06:00","19.6","","19.2","","98","","16","","9","","4.0","","99.29","","","","","","Rain,Fog"
"2006-06-27 07:00","2006","06","27","07:00","19.5","","19.2","","98","","17","","13","","4.8","","99.31","","","","","","Rain,Fog"
"2006-06-27 08:00","2006","06","27","08:00","19.5","","19.1","","98","","16","","11","","6.4","","99.30","","","","","","Rain,Fog"
"2006-06-27 09:00","2006","06","27","09:00","20.2","","19.6","","96","","17","","11","","6.4","","99.35","","27","","","","Rain,Fog"
"2006-06-27 10:00","2006","06","27","10:00","21.3","","20.8","","97","","17","","9","","8.0","","99.34","","30","","","","Fog"
"2006-06-27 11:00","2006","06","27","11:00","21.5","","20.2","","92","","16","","13","","8.0","","99.37","","29","","","","Fog"
"2006-06-27 12:00","2006","06","27","12:00","21.8","","20.1","","90","","18","","11","","8.0","","99.34","","29","","","","Fog"
"2006-06-27 13:00","2006","06","27","13:00","22.2","","20.3","","89","","15","","15","","8.0","","99.30","","30","","","","Fog"
"2006-06-27 14:00","2006","06","27","14:00","22.7","","20.2","","86","","15","","17","","12.9","","99.30","","30","","","","Cloudy"
"2006-06-27 15:00","2006","06","27","15:00","24.0","","20.8","","82","","18","","9","","12.9","","99.27","","32","","","","Cloudy"
"2006-06-27 16:00","2006","06","27","16:00","24.7","","20.6","","78","","14","","19","","12.9","","99.24","","33","","","","Mostly Cloudy"
"2006-06-27 17:00","2006","06","27","17:00","24.8","","20.2","","76","","16","","15","","9.7","","99.23","","33","","","","Haze"
"2006-06-27 18:00","2006","06","27","18:00","22.7","","20.0","","85","","20","","17","","9.7","","99.28","","30","","","","Haze"
"2006-06-27 19:00","2006","06","27","19:00","22.8","","20.8","","88","","21","","7","","9.7","","99.34","","31","","","","Fog"
"2006-06-27 20:00","2006","06","27","20:00","22.3","","20.3","","88","","17","","6","","12.9","","99.36","","30","","","","Cloudy"
"2006-06-27 21:00","2006","06","27","21:00","21.9","","19.2","","85","","17","","6","","12.9","","99.38","","29","","","","Mostly Cloudy"
"2006-06-27 22:00","2006","06","27","22:00","21.5","","18.1","","81","","16","","7","","16.1","","99.40","","28","","","","Mostly Cloudy"
"2006-06-27 23:00","2006","06","27","23:00","21.1","","18.9","","87","","18","","4","","16.1","","99.40","","28","","","","Mostly Cloudy"
"2006-06-28 00:00","2006","06","28","00:00","20.8","","19.1","","90","","19","","4","","12.9","","99.41","","28","","","","Cloudy"
"2006-06-28 01:00","2006","06","28","01:00","20.4","","18.5","","89","","19","","6","","12.9","","99.41","","27","","","","Cloudy"
"2006-06-28 02:00","2006","06","28","02:00","19.5","","18.1","","92","","27","","6","","12.9","","99.40","","","","","","Cloudy"
"2006-06-28 03:00","2006","06","28","03:00","19.2","","18.1","","93","","","","0","","11.3","","99.40","","","","","","Cloudy"
"2006-06-28 04:00","2006","06","28","04:00","18.8","","17.2","","90","","31","","9","","11.3","","99.40","","","","","","Mainly Clear"
"2006-06-28 05:00","2006","06","28","05:00","18.6","","17.4","","93","","25","","6","","4.0","","99.43","","","","","","Fog"
"2006-06-28 06:00","2006","06","28","06:00","18.8","","17.9","","95","","28","","4","","9.7","","99.45","","","","","","Fog"
"2006-06-28 07:00","2006","06","28","07:00","20.5","","18.2","","87","","27","","4","","16.1","","99.47","","27","","","","Mainly Clear"
"2006-06-28 08:00","2006","06","28","08:00","22.8","","18.2","","75","","","","0","","19.3","","99.50","","29","","","","Mainly Clear"
"2006-06-28 09:00","2006","06","28","09:00","24.4","","18.0","","68","","25","","9","","24.1","","99.52","","30","","","","Clear"
"2006-06-28 10:00","2006","06","28","10:00","25.8","","16.8","","58","","23","","11","","24.1","","99.52","","31","","","","Mainly Clear"
"2006-06-28 11:00","2006","06","28","11:00","24.9","","18.3","","67","","13","","15","","24.1","","99.51","","31","","","","Mainly Clear"
"2006-06-28 12:00","2006","06","28","12:00","24.3","","17.6","","66","","15","","20","","24.1","","99.51","","30","","","","Mostly Cloudy"
"2006-06-28 13:00","2006","06","28","13:00","26.2","","17.6","","59","","14","","19","","24.1","","99.39","","32","","","","Mostly Cloudy"
"2006-06-28 14:00","2006","06","28","14:00","21.6","","18.9","","85","","15","","17","","16.1","","99.45","","28","","","","Thunderstorms,Rain Showers"
"2006-06-28 15:00","2006","06","28","15:00","24.1","","18.9","","73","","16","","17","","24.1","","99.39","","31","","","","Rain Showers"
"2006-06-28 16:00","2006","06","28","16:00","24.7","","18.5","","68","","16","","9","","24.1","","99.37","","31","","","","Mostly Cloudy"
"2006-06-28 17:00","2006","06","28","17:00","27.1","","15.9","","50","","25","","20","","24.1","","99.36","","32","","","","Mostly Cloudy"
"2006-06-28 18:00","2006","06","28","18:00","22.8","","15.4","","63","","1","","24","","24.1","","99.40","","27","","","","Mostly Cloudy"
"2006-06-28 19:00","2006","06","28","19:00","21.5","","15.8","","70","","5","","17","","24.1","","99.41","","26","","","","Mostly Cloudy"
"2006-06-28 20:00","2006","06","28","20:00","19.9","","16.7","","82","","1","","6","","19.3","","99.48","","","","","","Thunderstorms,Rain Showers"
"2006-06-28 21:00","2006","06","28","21:00","19.3","","17.4","","89","","13","","11","","24.1","","99.52","","","","","","Mostly Cloudy"
"2006-06-28 22:00","2006","06","28","22:00","18.8","","17.8","","94","","25","","6","","24.1","","99.51","","","","","","Mainly Clear"
"2006-06-28 23:00","2006","06","28","23:00","19.0","","16.4","","85","","31","","9","","24.1","","99.50","","","","","","Mainly Clear"
"2006-06-29 00:00","2006","06","29","00:00","18.8","","16.3","","85","","2","","11","","24.1","","99.50","","","","","","Mostly Cloudy"
"2006-06-29 01:00","2006","06","29","01:00","18.5","","15.6","","83","","5","","4","","24.1","","99.47","","","","","","Mostly Cloudy"
"2006-06-29 02:00","2006","06","29","02:00","18.0","","15.9","","88","","28","","11","","24.1","","99.47","","","","","","Mostly Cloudy"
"2006-06-29 03:00","2006","06","29","03:00","17.8","","16.1","","90","","25","","6","","24.1","","99.45","","","","","","Mainly Clear"
"2006-06-29 04:00","2006","06","29","04:00","16.8","","14.9","","89","","27","","6","","24.1","","99.43","","","","","","Mainly Clear"
"2006-06-29 05:00","2006","06","29","05:00","15.8","","14.2","","90","","26","","7","","19.3","","99.45","","","","","","Mostly Cloudy"
"2006-06-29 06:00","2006","06","29","06:00","16.4","","15.0","","91","","26","","4","","24.1","","99.48","","","","","","Mostly Cloudy"
"2006-06-29 07:00","2006","06","29","07:00","17.6","","15.1","","85","","26","","9","","24.1","","99.49","","","","","","Mostly Cloudy"
"2006-06-29 08:00","2006","06","29","08:00","19.7","","15.9","","79","","22","","11","","24.1","","99.52","","","","","","Mostly Cloudy"
"2006-06-29 09:00","2006","06","29","09:00","20.7","","15.5","","72","","24","","4","","24.1","","99.51","","25","","","","Mostly Cloudy"
"2006-06-29 10:00","2006","06","29","10:00","22.0","","15.5","","67","","","","0","","24.1","","99.49","","26","","","","Mostly Cloudy"
"2006-06-29 11:00","2006","06","29","11:00","23.1","","14.4","","58","","30","","7","","24.1","","99.43","","27","","","","Thunderstorms"
"2006-06-29 12:00","2006","06","29","12:00","22.0","","12.5","","55","","6","","9","","24.1","","99.42","","25","","","","Mostly Cloudy"
"2006-06-29 13:00","2006","06","29","13:00","21.1","","14.8","","67","","2","","22","","24.1","","99.40","","25","","","","Thunderstorms,Rain Showers"
"2006-06-29 14:00","2006","06","29","14:00","21.4","","13.1","","59","","7","","11","","16.1","","99.39","","","","","","Thunderstorms,Rain Showers"
"2006-06-29 15:00","2006","06","29","15:00","18.1","","15.0","","82","","26","","7","","24.1","","99.47","","","","","","Thunderstorms,Rain Showers"
"2006-06-29 16:00","2006","06","29","16:00","18.9","","13.7","","72","","1","","17","","24.1","","99.43","","","","","","Mostly Cloudy"
"2006-06-29 17:00","2006","06","29","17:00","20.3","","12.8","","62","","36","","15","","24.1","","99.40","","","","","","Mostly Cloudy"
"2006-06-29 18:00","2006","06","29","18:00","19.0","","14.6","","76","","29","","9","","24.1","","99.46","","","","","","Rain Showers"
"2006-06-29 19:00","2006","06","29","19:00","17.9","","14.1","","78","","32","","20","","24.1","","99.48","","","","","","Rain Showers"
"2006-06-29 20:00","2006","06","29","20:00","17.9","","13.3","","74","","32","","13","","24.1","","99.50","","","","","","Mainly Clear"
"2006-06-29 21:00","2006","06","29","21:00","17.1","","13.7","","80","","29","","9","","24.1","","99.56","","","","","","Clear"
"2006-06-29 22:00","2006","06","29","22:00","16.7","","14.1","","85","","29","","9","","24.1","","99.59","","","","","","Clear"
"2006-06-29 23:00","2006","06","29","23:00","16.0","","13.8","","87","","29","","13","","24.1","","99.54","","","","","","Clear"
"2006-06-30 00:00","2006","06","30","00:00","16.2","","13.4","","83","","30","","13","","24.1","","99.52","","","","","","Clear"
"2006-06-30 01:00","2006","06","30","01:00","15.7","","12.8","","83","","30","","15","","24.1","","99.52","","","","","","Clear"
"2006-06-30 02:00","2006","06","30","02:00","16.0","","12.8","","81","","30","","13","","24.1","","99.49","","","","","","Mostly Cloudy"
"2006-06-30 03:00","2006","06","30","03:00","15.4","","12.7","","84","","29","","11","","24.1","","99.47","","","","","","Mostly Cloudy"
"2006-06-30 04:00","2006","06","30","04:00","15.9","","12.8","","82","","30","","6","","24.1","","99.47","","","","","","Mainly Clear"
"2006-06-30 05:00","2006","06","30","05:00","14.3","","11.4","","83","","27","","13","","24.1","","99.50","","","","","","Mainly Clear"
"2006-06-30 06:00","2006","06","30","06:00","15.6","","12.8","","83","","27","","13","","24.1","","99.52","","","","","","Mainly Clear"
"2006-06-30 07:00","2006","06","30","07:00","18.1","","13.4","","74","","28","","15","","24.1","","99.51","","","","","","Mainly Clear"
"2006-06-30 08:00","2006","06","30","08:00","20.9","","13.8","","64","","30","","24","","24.1","","99.54","","","","","","Mainly Clear"
"2006-06-30 09:00","2006","06","30","09:00","19.7","","10.6","","56","","33","","33","","24.1","","99.51","","","","","","Rain Showers"
"2006-06-30 10:00","2006","06","30","10:00","22.6","","13.5","","56","","29","","22","","24.1","","99.52","","26","","","","Mainly Clear"
"2006-06-30 11:00","2006","06","30","11:00","23.6","","12.6","","50","","32","","32","","24.1","","99.52","","26","","","","Mainly Clear"
"2006-06-30 12:00","2006","06","30","12:00","20.1","","10.8","","55","","31","","39","","24.1","","99.57","","","","","","Thunderstorms,Rain Showers"
"2006-06-30 13:00","2006","06","30","13:00","21.6","","10.2","","48","","29","","24","","24.1","","99.54","","","","","","Mostly Cloudy"
"2006-06-30 14:00","2006","06","30","14:00","24.6","","13.0","","48","","30","","32","","24.1","","99.47","","27","","","","Clear"
"2006-06-30 15:00","2006","06","30","15:00","25.1","","12.3","","45","","31","","32","","24.1","","99.45","","28","","","","Mainly Clear"
"2006-06-30 16:00","2006","06","30","16:00","25.9","","12.6","","44","","30","","32","","24.1","","99.44","","28","","","","Mainly Clear"
"2006-06-30 17:00","2006","06","30","17:00","25.9","","12.3","","43","","31","","28","","24.1","","99.44","","28","","","","Mainly Clear"
"2006-06-30 18:00","2006","06","30","18:00","25.6","","13.6","","47","","29","","24","","24.1","","99.43","","29","","","","Mainly Clear"
"2006-06-30 19:00","2006","06","30","19:00","24.7","","13.8","","51","","30","","19","","24.1","","99.46","","28","","","","Mainly Clear"
"2006-06-30 20:00","2006","06","30","20:00","22.9","","13.1","","54","","27","","13","","24.1","","99.51","","26","","","","Mainly Clear"
"2006-06-30 21:00","2006","06","30","21:00","20.9","","13.6","","63","","27","","7","","24.1","","99.56","","","","","","Clear"
"2006-06-30 22:00","2006","06","30","22:00","20.3","","13.8","","66","","28","","6","","24.1","","99.59","","","","","","Mainly Clear"
"2006-06-30 23:00","2006","06","30","23:00","19.4","","13.8","","70","","27","","7","","24.1","","99.61","","","","","","Mainly Clear"
