"Station Name","TORONTO LESTER B. PEARSON INT'L A"
"Province","ONTARIO"
"Latitude","43.68"
"Longitude","-79.63"
"Elevation","173.40"
"Climate Identifier","6158733"
"WMO Identifier","71624"
"TC Identifier","YYZ"
"All times are specified in Local Standard Time (LST). Add 1 hour to adjust for Daylight Saving Time where and when it is observed."

"Legend"
"E","Estimated"
"M","Missing"
"NA","Not Available"

"Date/Time","Year","Month","Day","Time","Temp (°C)","Temp Flag","Dew Point Temp (°C)","Dew Point Temp Flag","Rel Hum (%)","Rel Hum Flag","Wind Dir (10s deg)","Wind Dir Flag","Wind Spd (km/h)","Wind Spd Flag","Visibility (km)","Visibility Flag","Stn Press (kPa)","Stn Press Flag","Hmdx","Hmdx Flag","Wind Chill","Wind Chill Flag","Weather"
"1960-03-01 00:00","1960","03","01","00:00","-13.9","","-17.8","","74","","32","","5","","25.0","","100.38","","","","-17","","Mainly Clear"
"1960-03-01 01:00","1960","03","01","01:00","-13.3","","-16.7","","76","","32","","10","","25.0","","100.40","","","","-19","","Mainly Clear"
"1960-03-01 02:00","1960","03","01","02:00","-14.4","","-17.2","","79","","29","","16","","25.0","","100.44","","","","-22","","Mainly Clear"
"1960-03-01 03:00","1960","03","01","03:00","-15.0","","-17.8","","80","","27","","14","","25.0","","100.48","","","","-23","","Clear"
"1960-03-01 04:00","1960","03","01","04:00","-15.6","","-17.8","","82","","27","","10","","25.0","","100.53","","","","-22","","Clear"
"1960-03-01 05:00","1960","03","01","05:00","-13.3","","-16.1","","80","","29","","14","","25.0","","100.58","","","","-21","","Mostly Cloudy"
"1960-03-01 06:00","1960","03","01","06:00","-12.2","","-15.6","","75","","32","","18","","25.0","","100.65","","","","-20","","Mainly Clear"
"1960-03-01 07:00","1960","03","01","07:00","-13.3","","-16.7","","75","","32","","19","","24.1","","100.71","","","","-22","","Mainly Clear"
"1960-03-01 08:00","1960","03","01","08:00","-12.2","","-16.1","","73","","29","","10","","25.0","","100.82","","","","-18","","Mainly Clear"
"1960-03-01 09:00","1960","03","01","09:00","-11.1","","-16.1","","65","","32","","13","","25.0","","100.92","","","","-18","","Clear"
"1960-03-01 10:00","1960","03","01","10:00","-9.4","","-15.0","","63","","29","","10","","25.0","","100.98","","","","-15","","Clear"
"1960-03-01 11:00","1960","03","01","11:00","-8.3","","-15.0","","59","","32","","13","","25.0","","101.00","","","","-14","","Clear"
"1960-03-01 12:00","1960","03","01","12:00","-7.2","","-13.3","","61","","32","","10","","25.0","","101.02","","","","-12","","Clear"
"1960-03-01 13:00","1960","03","01","13:00","-5.0","","-12.2","","58","","32","","29","","25.0","","100.96","","","","-13","","Clear"
"1960-03-01 14:00","1960","03","01","14:00","-5.0","","-13.9","","50","","32","","29","","25.0","","100.96","","","","-13","","Clear"
"1960-03-01 15:00","1960","03","01","15:00","-3.9","","-11.1","","56","","32","","27","","25.0","","100.96","","","","-11","","Clear"
"1960-03-01 16:00","1960","03","01","16:00","-3.9","","-11.1","","56","","32","","23","","25.0","","100.96","","","","-11","","Clear"
"1960-03-01 17:00","1960","03","01","17:00","-5.6","","-12.2","","60","","27","","18","","25.0","","101.00","","","","-12","","Mainly Clear"
"1960-03-01 18:00","1960","03","01","18:00","-6.7","","-12.8","","62","","27","","18","","24.1","","101.03","","","","-13","","Mainly Clear"
"1960-03-01 19:00","1960","03","01","19:00","-7.8","","-11.1","","76","","27","","14","","24.1","","101.05","","","","-14","","Mainly Clear"
"1960-03-01 20:00","1960","03","01","20:00","-8.9","","-12.8","","73","","27","","11","","24.1","","101.05","","","","-14","","Mainly Clear"
"1960-03-01 21:00","1960","03","01","21:00","-11.1","","-15.0","","72","","27","","14","","24.1","","101.06","","","","-18","","Mainly Clear"
"1960-03-01 22:00","1960","03","01","22:00","-10.0","","-13.3","","75","","27","","5","","24.1","","101.05","","","","-13","","Mainly Clear"
"1960-03-01 23:00","1960","03","01","23:00","-12.2","","-14.4","","83","","27","","6","","24.1","","101.05","","","","-16","","Clear"
"1960-03-02 00:00","1960","03","02","00:00","-12.2","","-14.4","","85","","","","0","","24.1","","101.02","","","","","","Clear"
"1960-03-02 01:00","1960","03","02","01:00","-12.2","","-14.4","","85","","","","0","","24.1","","101.03","","","","","","Clear"
"1960-03-02 02:00","1960","03","02","02:00","-13.9","","-16.1","","83","","32","","13","","24.1","","101.00","","","","-21","","Clear"
"1960-03-02 03:00","1960","03","02","03:00","-13.3","","-15.6","","84","","27","","6","","24.1","","100.98","","","","-17","","Clear"
"1960-03-02 04:00","1960","03","02","04:00","-12.8","","-15.6","","81","","","","0","","19.3","","100.98","","","","","","Clear"
"1960-03-02 05:00","1960","03","02","05:00","-14.4","","-16.7","","83","","27","","8","","16.1","","100.99","","","","-20","","Clear"
"1960-03-02 06:00","1960","03","02","06:00","-13.9","","-16.1","","81","","27","","6","","16.1","","100.97","","","","-18","","Clear"
"1960-03-02 07:00","1960","03","02","07:00","-17.8","","-20.0","","82","","32","","6","","4.8","","100.96","","","","-22","","Fog"
"1960-03-02 08:00","1960","03","02","08:00","-13.9","","-16.1","","81","","27","","6","","8.0","","100.99","","","","-18","","Fog"
"1960-03-02 09:00","1960","03","02","09:00","-11.7","","-15.0","","77","","29","","10","","8.0","","100.97","","","","-17","","Haze"
"1960-03-02 10:00","1960","03","02","10:00","-10.6","","-13.9","","76","","29","","6","","12.9","","100.94","","","","-14","","Mostly Cloudy"
"1960-03-02 11:00","1960","03","02","11:00","-6.7","","-10.6","","73","","29","","6","","19.3","","100.93","","","","-10","","Mostly Cloudy"
"1960-03-02 12:00","1960","03","02","12:00","-4.4","","-10.6","","64","","27","","6","","19.3","","100.90","","","","-7","","Mostly Cloudy"
"1960-03-02 13:00","1960","03","02","13:00","-3.3","","-8.9","","65","","32","","10","","24.1","","100.82","","","","-7","","Mostly Cloudy"
"1960-03-02 14:00","1960","03","02","14:00","-3.9","","-10.0","","64","","2","","13","","24.1","","100.61","","","","-9","","Mainly Clear"
"1960-03-02 15:00","1960","03","02","15:00","-3.9","","-10.0","","64","","2","","16","","24.1","","100.65","","","","-9","","Mostly Cloudy"
"1960-03-02 16:00","1960","03","02","16:00","-3.9","","-10.0","","64","","2","","13","","24.1","","100.61","","","","-9","","Mainly Clear"
"1960-03-02 17:00","1960","03","02","17:00","-5.0","","-8.3","","79","","2","","13","","19.3","","100.61","","","","-10","","Mainly Clear"
"1960-03-02 18:00","1960","03","02","18:00","-5.6","","-10.6","","67","","2","","8","","24.1","","100.63","","","","-9","","Mainly Clear"
"1960-03-02 19:00","1960","03","02","19:00","-6.7","","-12.2","","65","","36","","8","","24.1","","100.61","","","","-11","","Mainly Clear"
"1960-03-02 20:00","1960","03","02","20:00","-8.3","","-12.2","","74","","36","","14","","24.1","","100.48","","","","-14","","Mainly Clear"
"1960-03-02 21:00","1960","03","02","21:00","-9.4","","-13.3","","72","","36","","16","","25.0","","100.44","","","","-16","","Mainly Clear"
"1960-03-02 22:00","1960","03","02","22:00","-10.0","","-13.3","","75","","36","","16","","19.3","","100.36","","","","-17","","Mostly Cloudy"
"1960-03-02 23:00","1960","03","02","23:00","-10.6","","-13.3","","81","","36","","16","","19.3","","100.29","","","","-18","","Mostly Cloudy"
"1960-03-03 00:00","1960","03","03","00:00","-11.1","","-13.9","","81","","36","","11","","19.3","","100.22","","","","-17","","Cloudy"
"1960-03-03 01:00","1960","03","03","01:00","-11.7","","-15.6","","72","","36","","13","","24.1","","100.14","","","","-18","","Cloudy"
"1960-03-03 02:00","1960","03","03","02:00","-10.0","","-14.4","","71","","5","","26","","25.0","","99.95","","","","-19","","Snow"
"1960-03-03 03:00","1960","03","03","03:00","-10.0","","-15.0","","66","","5","","32","","25.0","","99.84","","","","-20","","Cloudy"
"1960-03-03 04:00","1960","03","03","04:00","-10.6","","-16.1","","63","","5","","32","","25.0","","99.77","","","","-21","","Cloudy"
"1960-03-03 05:00","1960","03","03","05:00","-10.6","","-16.7","","62","","5","","32","","25.0","","99.63","","","","-21","","Cloudy"
"1960-03-03 06:00","1960","03","03","06:00","-11.1","","-17.2","","62","","7","","34","","25.0","","99.53","","","","-22","","Snow"
"1960-03-03 07:00","1960","03","03","07:00","-11.1","","-17.2","","62","","5","","32","","25.0","","99.50","","","","-21","","Cloudy"
"1960-03-03 08:00","1960","03","03","08:00","-11.7","","-16.7","","65","","5","","31","","25.0","","99.42","","","","-22","","Cloudy"
"1960-03-03 09:00","1960","03","03","09:00","-11.7","","-15.0","","76","","5","","27","","25.0","","99.35","","","","-21","","Cloudy"
"1960-03-03 10:00","1960","03","03","10:00","-11.7","","-16.1","","71","","5","","29","","2.0","","99.24","","","","-22","","Snow"
"1960-03-03 11:00","1960","03","03","11:00","-11.7","","-15.6","","74","","5","","27","","2.0","","99.17","","","","-21","","Snow"
"1960-03-03 12:00","1960","03","03","12:00","-11.1","","-15.6","","70","","5","","27","","3.6","","99.08","","","","-21","","Snow Showers"
"1960-03-03 13:00","1960","03","03","13:00","-11.7","","-15.0","","77","","5","","26","","1.6","","99.01","","","","-21","","Snow Showers"
"1960-03-03 14:00","1960","03","03","14:00","-11.1","","-14.4","","75","","5","","29","","3.2","","98.90","","","","-21","","Snow Showers"
"1960-03-03 15:00","1960","03","03","15:00","-11.1","","-13.9","","81","","5","","24","","1.6","","98.86","","","","-20","","Snow Showers"
"1960-03-03 16:00","1960","03","03","16:00","-11.1","","-13.3","","85","","2","","29","","1.2","","98.78","","","","-21","","Snow"
"1960-03-03 17:00","1960","03","03","17:00","-10.6","","-12.8","","82","","2","","26","","1.2","","98.77","","","","-20","","Snow"
"1960-03-03 18:00","1960","03","03","18:00","-10.6","","-12.8","","84","","2","","23","","1.2","","98.77","","","","-19","","Snow"
"1960-03-03 19:00","1960","03","03","19:00","-10.0","","-12.2","","83","","2","","18","","3.2","","98.82","","","","-17","","Snow"
"1960-03-03 20:00","1960","03","03","20:00","-10.6","","-12.8","","84","","2","","21","","2.8","","98.81","","","","-19","","Snow"
"1960-03-03 21:00","1960","03","03","21:00","-10.0","","-12.2","","84","","2","","16","","2.4","","98.83","","","","-17","","Snow"
"1960-03-03 22:00","1960","03","03","22:00","-10.6","","-12.8","","82","","36","","13","","4.0","","98.84","","","","-17","","Snow"
"1960-03-03 23:00","1960","03","03","23:00","-10.0","","-12.2","","84","","36","","14","","4.0","","98.83","","","","-16","","Snow"
"1960-03-04 00:00","1960","03","04","00:00","-9.4","","-12.2","","81","","36","","16","","6.4","","98.80","","","","-16","","Snow"
"1960-03-04 01:00","1960","03","04","01:00","-10.0","","-12.8","","80","","36","","18","","4.8","","98.79","","","","-17","","Snow"
"1960-03-04 02:00","1960","03","04","02:00","-10.6","","-13.3","","81","","36","","19","","6.4","","98.82","","","","-18","","Snow"
"1960-03-04 03:00","1960","03","04","03:00","-11.1","","-13.9","","81","","36","","24","","6.4","","98.81","","","","-20","","Snow"
"1960-03-04 04:00","1960","03","04","04:00","-11.1","","-13.9","","81","","34","","26","","4.8","","98.84","","","","-20","","Snow"
"1960-03-04 05:00","1960","03","04","05:00","-11.1","","-13.9","","78","","34","","26","","6.4","","98.85","","","","-20","","Snow"
"1960-03-04 06:00","1960","03","04","06:00","-11.7","","-15.0","","77","","34","","21","","11.3","","98.82","","","","-20","","Snow"
"1960-03-04 07:00","1960","03","04","07:00","-11.7","","-14.4","","79","","34","","19","","25.0","","98.83","","","","-20","","Mainly Clear"
"1960-03-04 08:00","1960","03","04","08:00","-11.7","","-15.6","","74","","34","","21","","25.0","","98.83","","","","-20","","Mostly Cloudy"
"1960-03-04 09:00","1960","03","04","09:00","-11.1","","-15.0","","73","","34","","21","","25.0","","98.84","","","","-19","","Mostly Cloudy"
"1960-03-04 10:00","1960","03","04","10:00","-10.6","","-14.4","","74","","34","","27","","16.1","","98.84","","","","-20","","Mostly Cloudy"
"1960-03-04 11:00","1960","03","04","11:00","-10.0","","-13.9","","72","","34","","26","","16.1","","98.85","","","","-19","","Snow Showers"
"1960-03-04 12:00","1960","03","04","12:00","-9.4","","-13.9","","70","","34","","29","","8.0","","98.85","","","","-19","","Snow Showers"
"1960-03-04 13:00","1960","03","04","13:00","-8.9","","-13.3","","70","","34","","24","","4.8","","98.82","","","","-17","","Snow"
"1960-03-04 14:00","1960","03","04","14:00","-8.3","","-12.8","","70","","34","","24","","4.8","","98.80","","","","-16","","Snow"
"1960-03-04 15:00","1960","03","04","15:00","-8.3","","-12.8","","71","","34","","23","","11.3","","98.80","","","","-16","","Snow"
"1960-03-04 16:00","1960","03","04","16:00","-8.9","","-13.3","","71","","34","","23","","16.1","","98.82","","","","-17","","Cloudy"
"1960-03-04 17:00","1960","03","04","17:00","-9.4","","-12.2","","79","","36","","19","","16.1","","98.93","","","","-17","","Snow"
"1960-03-04 18:00","1960","03","04","18:00","-9.4","","-11.7","","82","","34","","19","","2.0","","98.99","","","","-17","","Snow"
"1960-03-04 19:00","1960","03","04","19:00","-9.4","","-12.8","","78","","32","","19","","8.0","","99.01","","","","-17","","Snow"
"1960-03-04 20:00","1960","03","04","20:00","-9.4","","-12.2","","79","","34","","26","","4.8","","99.04","","","","-18","","Snow"
"1960-03-04 21:00","1960","03","04","21:00","-10.0","","-12.8","","80","","34","","32","","8.0","","99.08","","","","-20","","Snow"
"1960-03-04 22:00","1960","03","04","22:00","-10.0","","-12.8","","80","","34","","29","","16.1","","99.11","","","","-19","","Snow"
"1960-03-04 23:00","1960","03","04","23:00","-10.6","","-13.9","","77","","36","","27","","19.3","","99.15","","","","-20","","Snow"
"1960-03-05 00:00","1960","03","05","00:00","-11.1","","-13.9","","78","","36","","24","","19.3","","99.20","","","","-20","","Cloudy"
"1960-03-05 01:00","1960","03","05","01:00","-11.7","","-14.4","","79","","36","","29","","19.3","","99.23","","","","-22","","Cloudy"
"1960-03-05 02:00","1960","03","05","02:00","-11.7","","-15.0","","77","","36","","24","","19.3","","99.30","","","","-21","","Cloudy"
"1960-03-05 03:00","1960","03","05","03:00","-11.7","","-15.0","","76","","36","","29","","19.3","","99.30","","","","-22","","Snow"
"1960-03-05 04:00","1960","03","05","04:00","-11.7","","-15.6","","72","","36","","26","","19.3","","99.33","","","","-21","","Snow"
"1960-03-05 05:00","1960","03","05","05:00","-11.1","","-13.9","","78","","36","","24","","19.3","","99.39","","","","-20","","Cloudy"
"1960-03-05 06:00","1960","03","05","06:00","-11.1","","-15.0","","72","","36","","24","","19.3","","99.46","","","","-20","","Cloudy"
"1960-03-05 07:00","1960","03","05","07:00","-11.1","","-13.9","","78","","36","","24","","25.0","","99.53","","","","-20","","Mostly Cloudy"
"1960-03-05 08:00","1960","03","05","08:00","-11.1","","-14.4","","75","","34","","29","","25.0","","99.59","","","","-21","","Cloudy"
"1960-03-05 09:00","1960","03","05","09:00","-11.1","","-13.9","","78","","34","","29","","24.1","","99.63","","","","-21","","Cloudy"
"1960-03-05 10:00","1960","03","05","10:00","-10.6","","-14.4","","74","","34","","29","","24.1","","99.63","","","","-20","","Mostly Cloudy"
"1960-03-05 11:00","1960","03","05","11:00","-10.0","","-13.9","","72","","36","","35","","24.1","","99.66","","","","-20","","Mostly Cloudy"
"1960-03-05 12:00","1960","03","05","12:00","-8.9","","-12.8","","73","","34","","35","","24.1","","99.73","","","","-19","","Mostly Cloudy"
"1960-03-05 13:00","1960","03","05","13:00","-8.3","","-11.7","","78","","34","","26","","24.1","","99.73","","","","-17","","Mostly Cloudy"
"1960-03-05 14:00","1960","03","05","14:00","-7.8","","-12.8","","68","","34","","29","","24.1","","99.77","","","","-17","","Mostly Cloudy"
"1960-03-05 15:00","1960","03","05","15:00","-7.8","","-12.2","","69","","34","","29","","25.0","","99.84","","","","-17","","Cloudy"
"1960-03-05 16:00","1960","03","05","16:00","-7.8","","-12.8","","67","","34","","23","","25.0","","99.88","","","","-16","","Mostly Cloudy"
"1960-03-05 17:00","1960","03","05","17:00","-7.8","","-12.8","","67","","34","","24","","25.0","","99.93","","","","-16","","Cloudy"
"1960-03-05 18:00","1960","03","05","18:00","-8.3","","-13.3","","67","","34","","24","","25.0","","99.99","","","","-16","","Cloudy"
"1960-03-05 19:00","1960","03","05","19:00","-8.9","","-12.8","","74","","32","","19","","25.0","","100.07","","","","-16","","Cloudy"
"1960-03-05 20:00","1960","03","05","20:00","-9.4","","-13.3","","73","","32","","16","","25.0","","100.11","","","","-16","","Cloudy"
"1960-03-05 21:00","1960","03","05","21:00","-8.9","","-12.8","","74","","32","","19","","25.0","","100.16","","","","-16","","Cloudy"
"1960-03-05 22:00","1960","03","05","22:00","-8.9","","-13.3","","71","","36","","29","","25.0","","100.17","","","","-18","","Cloudy"
"1960-03-05 23:00","1960","03","05","23:00","-9.4","","-13.3","","72","","36","","23","","25.0","","100.18","","","","-18","","Mostly Cloudy"
"1960-03-06 00:00","1960","03","06","00:00","-10.0","","-13.3","","77","","36","","18","","25.0","","100.20","","","","-17","","Clear"
"1960-03-06 01:00","1960","03","06","01:00","-10.6","","-14.4","","73","","34","","14","","25.0","","100.23","","","","-17","","Mainly Clear"
"1960-03-06 02:00","1960","03","06","02:00","-10.6","","-14.4","","74","","32","","13","","25.0","","100.25","","","","-17","","Mostly Cloudy"
"1960-03-06 03:00","1960","03","06","03:00","-11.7","","-15.6","","74","","32","","13","","25.0","","100.30","","","","-18","","Mostly Cloudy"
"1960-03-06 04:00","1960","03","06","04:00","-13.3","","-16.1","","80","","32","","11","","25.0","","100.37","","","","-20","","Mostly Cloudy"
"1960-03-06 05:00","1960","03","06","05:00","-15.0","","-18.9","","72","","32","","14","","25.0","","100.42","","","","-23","","Mostly Cloudy"
"1960-03-06 06:00","1960","03","06","06:00","-15.6","","-20.6","","64","","29","","11","","25.0","","100.42","","","","-22","","Mainly Clear"
"1960-03-06 07:00","1960","03","06","07:00","-15.6","","-19.4","","71","","29","","13","","25.0","","100.45","","","","-23","","Mainly Clear"
"1960-03-06 08:00","1960","03","06","08:00","-14.4","","-19.4","","65","","29","","13","","25.0","","100.50","","","","-22","","Mainly Clear"
"1960-03-06 09:00","1960","03","06","09:00","-11.7","","-18.3","","59","","32","","16","","25.0","","100.54","","","","-19","","Mainly Clear"
"1960-03-06 10:00","1960","03","06","10:00","-10.0","","-14.4","","71","","32","","19","","25.0","","100.58","","","","-18","","Mainly Clear"
"1960-03-06 11:00","1960","03","06","11:00","-8.3","","-13.9","","65","","32","","16","","25.0","","100.60","","","","-15","","Mainly Clear"
"1960-03-06 12:00","1960","03","06","12:00","-7.2","","-15.0","","54","","34","","14","","25.0","","100.55","","","","-13","","Mainly Clear"
"1960-03-06 13:00","1960","03","06","13:00","-7.2","","-13.9","","60","","36","","16","","25.0","","100.58","","","","-14","","Mainly Clear"
"1960-03-06 14:00","1960","03","06","14:00","-6.7","","-12.2","","65","","36","","16","","25.0","","100.55","","","","-13","","Mainly Clear"
"1960-03-06 15:00","1960","03","06","15:00","-6.7","","-11.7","","67","","36","","16","","25.0","","100.53","","","","-13","","Mainly Clear"
"1960-03-06 16:00","1960","03","06","16:00","-6.7","","-12.2","","64","","36","","14","","25.0","","100.53","","","","-12","","Mainly Clear"
"1960-03-06 17:00","1960","03","06","17:00","-7.2","","-13.9","","60","","36","","11","","25.0","","100.57","","","","-12","","Mainly Clear"
"1960-03-06 18:00","1960","03","06","18:00","-7.8","","-13.9","","61","","36","","8","","25.0","","100.58","","","","-12","","Mainly Clear"
"1960-03-06 19:00","1960","03","06","19:00","-8.9","","-13.9","","67","","36","","6","","25.0","","100.62","","","","-12","","Clear"
"1960-03-06 20:00","1960","03","06","20:00","-9.4","","-14.4","","66","","32","","8","","25.0","","100.67","","","","-14","","Clear"
"1960-03-06 21:00","1960","03","06","21:00","-12.2","","-17.8","","64","","32","","8","","25.0","","100.68","","","","-17","","Clear"
"1960-03-06 22:00","1960","03","06","22:00","-12.8","","-18.9","","59","","32","","8","","25.0","","100.68","","","","-18","","Clear"
"1960-03-06 23:00","1960","03","06","23:00","-13.9","","-19.4","","64","","32","","8","","25.0","","100.67","","","","-19","","Clear"
"1960-03-07 00:00","1960","03","07","00:00","-16.1","","-21.7","","63","","27","","8","","25.0","","100.68","","","","-22","","Clear"
"1960-03-07 01:00","1960","03","07","01:00","-14.4","","-18.3","","71","","","","0","","25.0","","100.67","","","","","","Clear"
"1960-03-07 02:00","1960","03","07","02:00","-16.1","","-20.0","","72","","27","","6","","25.0","","100.70","","","","-21","","Clear"
"1960-03-07 03:00","1960","03","07","03:00","-15.6","","-19.4","","71","","32","","8","","25.0","","100.63","","","","-21","","Clear"
"1960-03-07 04:00","1960","03","07","04:00","-17.8","","-21.7","","71","","29","","10","","25.0","","100.62","","","","-25","","Clear"
"1960-03-07 05:00","1960","03","07","05:00","-17.8","","-21.1","","74","","","","0","","25.0","","100.67","","","","","","Clear"
"1960-03-07 06:00","1960","03","07","06:00","-18.3","","-21.7","","76","","29","","5","","25.0","","100.65","","","","-22","","Mainly Clear"
"1960-03-07 07:00","1960","03","07","07:00","-14.4","","-17.8","","75","","32","","3","","25.0","","100.69","","","","-17","","Mostly Cloudy"
"1960-03-07 08:00","1960","03","07","08:00","-14.4","","-17.8","","77","","","","0","","25.0","","100.71","","","","","","Mostly Cloudy"
"1960-03-07 09:00","1960","03","07","09:00","-12.8","","-16.1","","77","","36","","5","","24.1","","100.70","","","","-16","","Cloudy"
"1960-03-07 10:00","1960","03","07","10:00","-11.1","","-13.9","","80","","36","","5","","24.1","","100.70","","","","-14","","Cloudy"
"1960-03-07 11:00","1960","03","07","11:00","-7.8","","-11.1","","78","","34","","6","","24.1","","100.70","","","","-11","","Cloudy"
"1960-03-07 12:00","1960","03","07","12:00","-6.1","","-10.6","","70","","32","","6","","24.1","","100.70","","","","-9","","Cloudy"
"1960-03-07 13:00","1960","03","07","13:00","-5.0","","-10.6","","66","","29","","8","","24.1","","100.64","","","","-9","","Cloudy"
"1960-03-07 14:00","1960","03","07","14:00","-5.0","","-11.1","","62","","29","","8","","25.0","","100.59","","","","-9","","Cloudy"
"1960-03-07 15:00","1960","03","07","15:00","-4.4","","-12.2","","55","","27","","6","","25.0","","100.56","","","","-7","","Cloudy"
"1960-03-07 16:00","1960","03","07","16:00","-4.4","","-12.2","","53","","27","","6","","25.0","","100.55","","","","-7","","Cloudy"
"1960-03-07 17:00","1960","03","07","17:00","-4.4","","-12.2","","56","","25","","6","","25.0","","100.57","","","","-7","","Mostly Cloudy"
"1960-03-07 18:00","1960","03","07","18:00","-5.6","","-10.6","","67","","23","","8","","25.0","","100.59","","","","-9","","Mainly Clear"
"1960-03-07 19:00","1960","03","07","19:00","-7.2","","-12.2","","67","","23","","8","","25.0","","100.61","","","","-11","","Mainly Clear"
"1960-03-07 20:00","1960","03","07","20:00","-8.9","","-12.2","","77","","25","","6","","25.0","","100.63","","","","-12","","Clear"
"1960-03-07 21:00","1960","03","07","21:00","-11.1","","-13.9","","78","","27","","6","","25.0","","100.64","","","","-15","","Clear"
"1960-03-07 22:00","1960","03","07","22:00","-10.6","","-13.3","","79","","29","","11","","25.0","","100.64","","","","-16","","Clear"
"1960-03-07 23:00","1960","03","07","23:00","-12.2","","-15.0","","80","","29","","11","","25.0","","100.63","","","","-18","","Clear"
"1960-03-08 00:00","1960","03","08","00:00","-13.3","","-15.6","","82","","32","","10","","25.0","","100.63","","","","-19","","Clear"
"1960-03-08 01:00","1960","03","08","01:00","-12.8","","-16.1","","76","","32","","10","","25.0","","100.64","","","","-19","","Clear"
"1960-03-08 02:00","1960","03","08","02:00","-13.3","","-16.7","","75","","32","","13","","25.0","","100.65","","","","-20","","Clear"
"1960-03-08 03:00","1960","03","08","03:00","-13.3","","-16.1","","78","","32","","10","","25.0","","100.63","","","","-19","","Clear"
"1960-03-08 04:00","1960","03","08","04:00","-15.0","","-17.8","","80","","34","","10","","25.0","","100.64","","","","-21","","Clear"
"1960-03-08 05:00","1960","03","08","05:00","-14.4","","-16.7","","83","","36","","13","","25.0","","100.63","","","","-22","","Clear"
"1960-03-08 06:00","1960","03","08","06:00","-14.4","","-17.2","","81","","34","","13","","25.0","","100.66","","","","-22","","Clear"
"1960-03-08 07:00","1960","03","08","07:00","-15.6","","-17.8","","82","","36","","11","","25.0","","100.70","","","","-22","","Clear"
"1960-03-08 08:00","1960","03","08","08:00","-13.3","","-16.7","","76","","34","","14","","25.0","","100.76","","","","-21","","Clear"
"1960-03-08 09:00","1960","03","08","09:00","-11.7","","-14.4","","79","","34","","13","","24.1","","100.77","","","","-18","","Clear"
"1960-03-08 10:00","1960","03","08","10:00","-9.4","","-15.0","","63","","36","","11","","24.1","","100.80","","","","-15","","Clear"
"1960-03-08 11:00","1960","03","08","11:00","-6.7","","-13.3","","59","","36","","13","","25.0","","100.81","","","","-12","","Clear"
"1960-03-08 12:00","1960","03","08","12:00","-5.6","","-13.9","","52","","36","","16","","25.0","","100.81","","","","-12","","Mainly Clear"
"1960-03-08 13:00","1960","03","08","13:00","-5.6","","-12.8","","56","","36","","13","","25.0","","100.80","","","","-11","","Mainly Clear"
"1960-03-08 14:00","1960","03","08","14:00","-5.0","","-12.2","","56","","36","","13","","25.0","","100.75","","","","-10","","Mainly Clear"
"1960-03-08 15:00","1960","03","08","15:00","-4.4","","-12.2","","55","","36","","19","","25.0","","100.73","","","","-11","","Mainly Clear"
"1960-03-08 16:00","1960","03","08","16:00","-4.4","","-12.8","","52","","36","","14","","25.0","","100.69","","","","-10","","Clear"
"1960-03-08 17:00","1960","03","08","17:00","-4.4","","-12.2","","56","","36","","13","","25.0","","100.69","","","","-9","","Clear"
"1960-03-08 18:00","1960","03","08","18:00","-6.1","","-12.8","","58","","34","","10","","25.0","","100.71","","","","-11","","Clear"
"1960-03-08 19:00","1960","03","08","19:00","-7.2","","-13.9","","60","","36","","5","","25.0","","100.72","","","","-10","","Clear"
"1960-03-08 20:00","1960","03","08","20:00","-8.3","","-13.3","","67","","32","","5","","25.0","","100.72","","","","-11","","Clear"
"1960-03-08 21:00","1960","03","08","21:00","-12.2","","-15.6","","75","","32","","6","","25.0","","100.73","","","","-16","","Clear"
"1960-03-08 22:00","1960","03","08","22:00","-12.8","","-17.2","","70","","27","","10","","25.0","","100.73","","","","-19","","Clear"
"1960-03-08 23:00","1960","03","08","23:00","-12.2","","-17.2","","66","","32","","10","","25.0","","100.74","","","","-18","","Clear"
"1960-03-09 00:00","1960","03","09","00:00","-12.8","","-17.2","","70","","32","","6","","25.0","","100.70","","","","-17","","Clear"
"1960-03-09 01:00","1960","03","09","01:00","-15.0","","-19.4","","70","","36","","6","","25.0","","100.71","","","","-19","","Clear"
"1960-03-09 02:00","1960","03","09","02:00","-16.1","","-20.0","","72","","36","","8","","25.0","","100.70","","","","-22","","Clear"
"1960-03-09 03:00","1960","03","09","03:00","-15.0","","-19.4","","70","","36","","13","","25.0","","100.64","","","","-22","","Clear"
"1960-03-09 04:00","1960","03","09","04:00","-14.4","","-18.3","","71","","36","","16","","25.0","","100.64","","","","-22","","Clear"
"1960-03-09 05:00","1960","03","09","05:00","-14.4","","-18.3","","71","","36","","10","","25.0","","100.68","","","","-21","","Clear"
"1960-03-09 06:00","1960","03","09","06:00","-17.2","","-20.6","","75","","32","","8","","25.0","","100.72","","","","-23","","Clear"
"1960-03-09 07:00","1960","03","09","07:00","-16.7","","-20.6","","73","","36","","8","","25.0","","100.75","","","","-22","","Mainly Clear"
"1960-03-09 08:00","1960","03","09","08:00","-15.6","","-18.9","","75","","36","","8","","25.0","","100.78","","","","-21","","Mainly Clear"
"1960-03-09 09:00","1960","03","09","09:00","-12.8","","-18.9","","59","","36","","8","","25.0","","100.70","","","","-18","","Mainly Clear"
"1960-03-09 10:00","1960","03","09","10:00","-9.4","","-15.0","","64","","36","","8","","25.0","","100.59","","","","-14","","Mainly Clear"
"1960-03-09 11:00","1960","03","09","11:00","-5.0","","-12.2","","58","","5","","14","","25.0","","100.52","","","","-10","","Mostly Cloudy"
"1960-03-09 12:00","1960","03","09","12:00","-3.9","","-12.8","","51","","5","","19","","25.0","","100.50","","","","-10","","Mostly Cloudy"
"1960-03-09 13:00","1960","03","09","13:00","-3.9","","-12.8","","51","","5","","16","","25.0","","100.45","","","","-9","","Mostly Cloudy"
"1960-03-09 14:00","1960","03","09","14:00","-3.3","","-11.1","","55","","5","","19","","24.1","","100.33","","","","-9","","Mostly Cloudy"
"1960-03-09 15:00","1960","03","09","15:00","-3.3","","-11.1","","55","","7","","19","","24.1","","100.27","","","","-9","","Mostly Cloudy"
"1960-03-09 16:00","1960","03","09","16:00","-3.3","","-11.1","","56","","7","","16","","24.1","","100.24","","","","-9","","Mostly Cloudy"
"1960-03-09 17:00","1960","03","09","17:00","-3.3","","-10.6","","58","","9","","16","","25.0","","100.21","","","","-9","","Cloudy"
"1960-03-09 18:00","1960","03","09","18:00","-5.0","","-11.1","","61","","5","","13","","25.0","","100.19","","","","-10","","Cloudy"
"1960-03-09 19:00","1960","03","09","19:00","-5.6","","-10.6","","67","","5","","13","","25.0","","100.15","","","","-11","","Cloudy"
"1960-03-09 20:00","1960","03","09","20:00","-7.2","","-11.7","","69","","5","","8","","25.0","","100.10","","","","-11","","Cloudy"
"1960-03-09 21:00","1960","03","09","21:00","-7.8","","-11.7","","72","","5","","10","","25.0","","100.09","","","","-13","","Cloudy"
"1960-03-09 22:00","1960","03","09","22:00","-8.3","","-11.7","","75","","5","","8","","25.0","","100.09","","","","-12","","Cloudy"
"1960-03-09 23:00","1960","03","09","23:00","-8.3","","-12.8","","71","","5","","10","","25.0","","100.08","","","","-13","","Cloudy"
"1960-03-10 00:00","1960","03","10","00:00","-8.3","","-12.2","","72","","36","","13","","25.0","","100.08","","","","-14","","Cloudy"
"1960-03-10 01:00","1960","03","10","01:00","-8.9","","-12.2","","76","","36","","13","","25.0","","100.11","","","","-15","","Mostly Cloudy"
"1960-03-10 02:00","1960","03","10","02:00","-9.4","","-12.8","","76","","5","","13","","25.0","","100.11","","","","-15","","Cloudy"
"1960-03-10 03:00","1960","03","10","03:00","-9.4","","-13.3","","73","","2","","13","","25.0","","100.10","","","","-15","","Mostly Cloudy"
"1960-03-10 04:00","1960","03","10","04:00","-10.0","","-13.9","","72","","2","","13","","25.0","","100.10","","","","-16","","Cloudy"
"1960-03-10 05:00","1960","03","10","05:00","-9.4","","-14.4","","66","","5","","23","","25.0","","100.12","","","","-18","","Mostly Cloudy"
"1960-03-10 06:00","1960","03","10","06:00","-10.6","","-16.7","","62","","5","","19","","25.0","","100.17","","","","-18","","Mainly Clear"
"1960-03-10 07:00","1960","03","10","07:00","-11.1","","-17.8","","59","","36","","16","","25.0","","100.27","","","","-18","","Mainly Clear"
"1960-03-10 08:00","1960","03","10","08:00","-12.8","","-17.8","","65","","36","","13","","25.0","","100.38","","","","-20","","Mainly Clear"
"1960-03-10 09:00","1960","03","10","09:00","-11.7","","-17.2","","64","","36","","13","","25.0","","100.43","","","","-18","","Mainly Clear"
"1960-03-10 10:00","1960","03","10","10:00","-9.4","","-17.2","","54","","36","","16","","25.0","","100.51","","","","-16","","Mainly Clear"
"1960-03-10 11:00","1960","03","10","11:00","-8.9","","-14.4","","63","","36","","18","","25.0","","100.53","","","","-16","","Mainly Clear"
"1960-03-10 12:00","1960","03","10","12:00","-8.3","","-14.4","","61","","36","","21","","25.0","","100.55","","","","-16","","Mainly Clear"
"1960-03-10 13:00","1960","03","10","13:00","-7.2","","-15.0","","55","","36","","21","","25.0","","100.50","","","","-15","","Clear"
"1960-03-10 14:00","1960","03","10","14:00","-7.2","","-15.0","","54","","36","","24","","25.0","","100.51","","","","-15","","Clear"
"1960-03-10 15:00","1960","03","10","15:00","-6.7","","-13.3","","58","","2","","19","","25.0","","100.52","","","","-14","","Clear"
"1960-03-10 16:00","1960","03","10","16:00","-6.7","","-12.8","","63","","36","","21","","25.0","","100.53","","","","-14","","Clear"
"1960-03-10 17:00","1960","03","10","17:00","-6.7","","-13.3","","58","","2","","21","","25.0","","100.56","","","","-14","","Clear"
"1960-03-10 18:00","1960","03","10","18:00","-7.8","","-15.0","","57","","2","","16","","25.0","","100.61","","","","-14","","Clear"
"1960-03-10 19:00","1960","03","10","19:00","-8.9","","-14.4","","63","","32","","10","","25.0","","100.61","","","","-14","","Clear"
"1960-03-10 20:00","1960","03","10","20:00","-10.0","","-15.0","","66","","34","","19","","25.0","","100.62","","","","-18","","Clear"
"1960-03-10 21:00","1960","03","10","21:00","-10.0","","-15.6","","63","","34","","19","","25.0","","100.65","","","","-18","","Clear"
"1960-03-10 22:00","1960","03","10","22:00","-11.1","","-16.7","","63","","36","","14","","25.0","","100.65","","","","-18","","Clear"
"1960-03-10 23:00","1960","03","10","23:00","-11.1","","-17.2","","60","","36","","18","","25.0","","100.65","","","","-19","","Clear"
"1960-03-11 00:00","1960","03","11","00:00","-12.2","","-19.4","","54","","34","","21","","25.0","","100.66","","","","-21","","Clear"
"1960-03-11 01:00","1960","03","11","01:00","-12.8","","-15.6","","79","","36","","23","","25.0","","100.64","","","","-22","","Clear"
"1960-03-11 02:00","1960","03","11","02:00","-13.9","","-16.1","","81","","36","","18","","25.0","","100.67","","","","-22","","Clear"
"1960-03-11 03:00","1960","03","11","03:00","-14.4","","-19.4","","67","","36","","16","","25.0","","100.63","","","","-22","","Clear"
"1960-03-11 04:00","1960","03","11","04:00","-15.0","","-19.4","","70","","36","","18","","25.0","","100.61","","","","-24","","Clear"
"1960-03-11 05:00","1960","03","11","05:00","-15.6","","-18.9","","75","","32","","18","","25.0","","100.65","","","","-24","","Clear"
"1960-03-11 06:00","1960","03","11","06:00","-16.1","","-22.2","","61","","34","","21","","25.0","","100.69","","","","-26","","Clear"
"1960-03-11 07:00","1960","03","11","07:00","-16.1","","-20.0","","72","","36","","23","","25.0","","100.69","","","","-26","","Clear"
"1960-03-11 08:00","1960","03","11","08:00","-15.6","","-20.0","","69","","36","","24","","25.0","","100.73","","","","-26","","Clear"
"1960-03-11 09:00","1960","03","11","09:00","-13.9","","-20.6","","58","","34","","26","","25.0","","100.69","","","","-24","","Clear"
"1960-03-11 10:00","1960","03","11","10:00","-12.8","","-20.0","","56","","36","","23","","25.0","","100.69","","","","-22","","Clear"
"1960-03-11 11:00","1960","03","11","11:00","-12.2","","-18.9","","59","","34","","21","","25.0","","100.67","","","","-21","","Clear"
"1960-03-11 12:00","1960","03","11","12:00","-11.1","","-17.2","","60","","36","","24","","25.0","","100.58","","","","-20","","Clear"
"1960-03-11 13:00","1960","03","11","13:00","-9.4","","-15.6","","61","","36","","23","","25.0","","100.49","","","","-18","","Clear"
"1960-03-11 14:00","1960","03","11","14:00","-8.9","","-13.9","","66","","36","","23","","25.0","","100.41","","","","-17","","Mainly Clear"
"1960-03-11 15:00","1960","03","11","15:00","-8.9","","-13.9","","67","","36","","26","","25.0","","100.37","","","","-18","","Mainly Clear"
"1960-03-11 16:00","1960","03","11","16:00","-8.3","","-15.0","","59","","36","","23","","25.0","","100.36","","","","-16","","Mainly Clear"
"1960-03-11 17:00","1960","03","11","17:00","-8.3","","-15.0","","59","","36","","26","","25.0","","100.32","","","","-17","","Mainly Clear"
"1960-03-11 18:00","1960","03","11","18:00","-10.6","","-16.1","","63","","36","","24","","25.0","","100.32","","","","-19","","Mainly Clear"
"1960-03-11 19:00","1960","03","11","19:00","-10.6","","-15.6","","68","","36","","23","","25.0","","100.29","","","","-19","","Mainly Clear"
"1960-03-11 20:00","1960","03","11","20:00","-11.7","","-17.2","","64","","36","","24","","25.0","","100.21","","","","-21","","Mainly Clear"
"1960-03-11 21:00","1960","03","11","21:00","-12.2","","-17.2","","66","","36","","23","","25.0","","100.21","","","","-21","","Mainly Clear"
"1960-03-11 22:00","1960","03","11","22:00","-12.2","","-17.8","","64","","36","","26","","25.0","","100.22","","","","-22","","Mainly Clear"
"1960-03-11 23:00","1960","03","11","23:00","-11.7","","-16.1","","69","","36","","24","","25.0","","100.18","","","","-21","","Mainly Clear"
"1960-03-12 00:00","1960","03","12","00:00","-13.3","","-19.4","","60","","36","","23","","25.0","","100.15","","","","-23","","Clear"
"1960-03-12 01:00","1960","03","12","01:00","-13.9","","-19.4","","62","","36","","19","","25.0","","100.14","","","","-23","","Clear"
"1960-03-12 02:00","1960","03","12","02:00","-14.4","","-20.6","","61","","36","","19","","25.0","","100.13","","","","-23","","Clear"
"1960-03-12 03:00","1960","03","12","03:00","-14.4","","-20.6","","59","","34","","23","","25.0","","100.12","","","","-24","","Clear"
"1960-03-12 04:00","1960","03","12","04:00","-15.0","","-21.1","","59","","34","","23","","25.0","","100.10","","","","-25","","Clear"
"1960-03-12 05:00","1960","03","12","05:00","-15.0","","-20.6","","61","","34","","21","","25.0","","100.10","","","","-24","","Clear"
"1960-03-12 06:00","1960","03","12","06:00","-15.6","","-21.1","","62","","34","","23","","25.0","","100.10","","","","-26","","Clear"
"1960-03-12 07:00","1960","03","12","07:00","-15.0","","-20.0","","65","","36","","21","","25.0","","100.14","","","","-24","","Clear"
"1960-03-12 08:00","1960","03","12","08:00","-14.4","","-20.0","","63","","36","","27","","25.0","","100.17","","","","-25","","Clear"
"1960-03-12 09:00","1960","03","12","09:00","-12.2","","-20.0","","52","","36","","29","","25.0","","100.18","","","","-22","","Clear"
"1960-03-12 10:00","1960","03","12","10:00","-11.1","","-19.4","","50","","36","","29","","25.0","","100.21","","","","-21","","Clear"
"1960-03-12 11:00","1960","03","12","11:00","-9.4","","-17.2","","54","","36","","29","","25.0","","100.19","","","","-19","","Clear"
"1960-03-12 12:00","1960","03","12","12:00","-8.3","","-16.1","","54","","36","","29","","25.0","","100.19","","","","-17","","Clear"
"1960-03-12 13:00","1960","03","12","13:00","-7.2","","-13.9","","59","","34","","26","","25.0","","100.16","","","","-15","","Clear"
"1960-03-12 14:00","1960","03","12","14:00","-6.7","","-13.3","","60","","34","","26","","25.0","","100.12","","","","-15","","Mainly Clear"
"1960-03-12 15:00","1960","03","12","15:00","-6.1","","-11.7","","64","","34","","26","","25.0","","100.11","","","","-14","","Mainly Clear"
"1960-03-12 16:00","1960","03","12","16:00","-6.1","","-11.7","","64","","34","","26","","25.0","","100.22","","","","-14","","Mainly Clear"
"1960-03-12 17:00","1960","03","12","17:00","-7.2","","-12.2","","67","","36","","26","","25.0","","100.24","","","","-15","","Mainly Clear"
"1960-03-12 18:00","1960","03","12","18:00","-8.3","","-13.3","","68","","34","","23","","25.0","","100.28","","","","-16","","Mainly Clear"
"1960-03-12 19:00","1960","03","12","19:00","-8.9","","-13.3","","70","","36","","19","","25.0","","100.30","","","","-16","","Mainly Clear"
"1960-03-12 20:00","1960","03","12","20:00","-10.0","","-14.4","","71","","32","","16","","25.0","","100.32","","","","-17","","Mainly Clear"
"1960-03-12 21:00","1960","03","12","21:00","-10.6","","-14.4","","73","","34","","16","","25.0","","100.33","","","","-18","","Mainly Clear"
"1960-03-12 22:00","1960","03","12","22:00","-11.1","","-15.0","","73","","36","","23","","25.0","","100.33","","","","-20","","Mainly Clear"
"1960-03-12 23:00","1960","03","12","23:00","-10.6","","-15.0","","71","","34","","23","","25.0","","100.32","","","","-19","","Mainly Clear"
"1960-03-13 00:00","1960","03","13","00:00","-10.0","","-13.9","","74","","36","","16","","25.0","","100.29","","","","-17","","Clear"
"1960-03-13 01:00","1960","03","13","01:00","-9.4","","-13.3","","72","","34","","16","","25.0","","100.29","","","","-16","","Clear"
"1960-03-13 02:00","1960","03","13","02:00","-10.0","","-13.9","","72","","34","","16","","25.0","","100.31","","","","-17","","Clear"
"1960-03-13 03:00","1960","03","13","03:00","-10.6","","-13.9","","76","","34","","19","","25.0","","100.31","","","","-18","","Clear"
"1960-03-13 04:00","1960","03","13","04:00","-10.6","","-13.9","","76","","34","","16","","25.0","","100.31","","","","-18","","Clear"
"1960-03-13 05:00","1960","03","13","05:00","-13.3","","-17.2","","71","","32","","13","","25.0","","100.35","","","","-20","","Clear"
"1960-03-13 06:00","1960","03","13","06:00","-12.8","","-17.2","","70","","32","","16","","25.0","","100.35","","","","-20","","Mainly Clear"
"1960-03-13 07:00","1960","03","13","07:00","-12.2","","-16.1","","73","","32","","13","","25.0","","100.36","","","","-19","","Mainly Clear"
"1960-03-13 08:00","1960","03","13","08:00","-11.7","","-15.6","","74","","34","","16","","25.0","","100.37","","","","-19","","Mainly Clear"
"1960-03-13 09:00","1960","03","13","09:00","-10.0","","-14.4","","69","","34","","14","","25.0","","100.37","","","","-16","","Mainly Clear"
"1960-03-13 10:00","1960","03","13","10:00","-6.7","","-13.3","","58","","34","","16","","25.0","","100.38","","","","-13","","Mainly Clear"
"1960-03-13 11:00","1960","03","13","11:00","-5.0","","-11.7","","60","","34","","21","","25.0","","100.40","","","","-12","","Mainly Clear"
"1960-03-13 12:00","1960","03","13","12:00","-3.9","","-11.7","","54","","36","","21","","25.0","","100.38","","","","-10","","Mainly Clear"
"1960-03-13 13:00","1960","03","13","13:00","-3.3","","-12.2","","50","","36","","18","","25.0","","100.36","","","","-9","","Mainly Clear"
"1960-03-13 14:00","1960","03","13","14:00","-1.7","","-9.4","","55","","36","","21","","25.0","","100.30","","","","-8","","Mainly Clear"
"1960-03-13 15:00","1960","03","13","15:00","-1.7","","-11.7","","46","","36","","23","","25.0","","100.29","","","","-8","","Mainly Clear"
"1960-03-13 16:00","1960","03","13","16:00","-1.7","","-11.1","","48","","36","","16","","25.0","","100.29","","","","-7","","Mainly Clear"
"1960-03-13 17:00","1960","03","13","17:00","-1.7","","-10.6","","51","","36","","6","","25.0","","100.30","","","","-4","","Mainly Clear"
"1960-03-13 18:00","1960","03","13","18:00","-2.8","","-10.6","","55","","36","","10","","25.0","","100.31","","","","-7","","Mainly Clear"
"1960-03-13 19:00","1960","03","13","19:00","-3.9","","-11.7","","55","","27","","5","","25.0","","100.31","","","","-6","","Mainly Clear"
"1960-03-13 20:00","1960","03","13","20:00","-5.6","","-12.8","","57","","32","","6","","25.0","","100.30","","","","-8","","Mainly Clear"
"1960-03-13 21:00","1960","03","13","21:00","-6.7","","-14.4","","53","","27","","6","","25.0","","100.31","","","","-10","","Mainly Clear"
"1960-03-13 22:00","1960","03","13","22:00","-7.2","","-15.0","","54","","29","","8","","25.0","","100.30","","","","-11","","Mainly Clear"
"1960-03-13 23:00","1960","03","13","23:00","-10.6","","-16.7","","60","","29","","8","","25.0","","100.29","","","","-15","","Mainly Clear"
"1960-03-14 00:00","1960","03","14","00:00","-11.1","","-17.2","","62","","29","","11","","25.0","","100.28","","","","-17","","Mainly Clear"
"1960-03-14 01:00","1960","03","14","01:00","-12.2","","-16.1","","71","","27","","5","","25.0","","100.28","","","","-15","","Mainly Clear"
"1960-03-14 02:00","1960","03","14","02:00","-10.6","","-13.9","","77","","36","","11","","25.0","","100.27","","","","-16","","Mainly Clear"
"1960-03-14 03:00","1960","03","14","03:00","-10.6","","-13.9","","77","","34","","11","","25.0","","100.24","","","","-16","","Mainly Clear"
"1960-03-14 04:00","1960","03","14","04:00","-12.8","","-14.4","","86","","","","0","","25.0","","100.24","","","","","","Mainly Clear"
"1960-03-14 05:00","1960","03","14","05:00","-12.8","","-14.4","","86","","36","","5","","25.0","","100.25","","","","-16","","Mainly Clear"
"1960-03-14 06:00","1960","03","14","06:00","-13.3","","-15.6","","84","","","","0","","25.0","","100.28","","","","","","Mainly Clear"
"1960-03-14 07:00","1960","03","14","07:00","-13.3","","-15.0","","88","","","","0","","25.0","","100.30","","","","","","Mainly Clear"
"1960-03-14 08:00","1960","03","14","08:00","-12.2","","-13.9","","89","","","","0","","25.0","","100.33","","","","","","Mainly Clear"
"1960-03-14 09:00","1960","03","14","09:00","-9.4","","-14.4","","67","","36","","5","","25.0","","100.35","","","","-12","","Cloudy"
"1960-03-14 10:00","1960","03","14","10:00","-6.7","","-12.2","","65","","27","","5","","25.0","","100.34","","","","-9","","Mainly Clear"
"1960-03-14 11:00","1960","03","14","11:00","-3.9","","-10.0","","64","","32","","6","","24.1","","100.35","","","","-7","","Mostly Cloudy"
"1960-03-14 12:00","1960","03","14","12:00","-2.2","","-8.9","","61","","36","","10","","25.0","","100.35","","","","-6","","Mostly Cloudy"
"1960-03-14 13:00","1960","03","14","13:00","-2.2","","-7.8","","66","","27","","8","","25.0","","100.36","","","","-5","","Mainly Clear"
"1960-03-14 14:00","1960","03","14","14:00","-1.1","","-10.0","","52","","29","","11","","25.0","","100.33","","","","-5","","Mainly Clear"
"1960-03-14 15:00","1960","03","14","15:00","-1.1","","-7.8","","61","","29","","8","","25.0","","100.33","","","","-4","","Mainly Clear"
"1960-03-14 16:00","1960","03","14","16:00","-1.1","","-8.9","","57","","34","","10","","25.0","","100.33","","","","-5","","Mainly Clear"
"1960-03-14 17:00","1960","03","14","17:00","-1.1","","-7.8","","60","","34","","23","","25.0","","100.37","","","","-7","","Mainly Clear"
"1960-03-14 18:00","1960","03","14","18:00","-2.2","","-9.4","","57","","34","","21","","25.0","","100.40","","","","-8","","Mainly Clear"
"1960-03-14 19:00","1960","03","14","19:00","-2.8","","-11.7","","50","","32","","10","","25.0","","100.44","","","","-7","","Mainly Clear"
"1960-03-14 20:00","1960","03","14","20:00","-5.0","","-10.6","","66","","32","","16","","25.0","","100.51","","","","-11","","Clear"
"1960-03-14 21:00","1960","03","14","21:00","-7.2","","-12.2","","67","","32","","18","","25.0","","100.51","","","","-14","","Clear"
"1960-03-14 22:00","1960","03","14","22:00","-7.2","","-12.2","","67","","32","","21","","25.0","","100.54","","","","-15","","Clear"
"1960-03-14 23:00","1960","03","14","23:00","-8.3","","-13.3","","68","","32","","14","","25.0","","100.59","","","","-14","","Clear"
"1960-03-15 00:00","1960","03","15","00:00","-8.3","","-13.3","","67","","32","","13","","25.0","","100.60","","","","-14","","Clear"
"1960-03-15 01:00","1960","03","15","01:00","-9.4","","-15.6","","60","","34","","11","","25.0","","100.58","","","","-15","","Clear"
"1960-03-15 02:00","1960","03","15","02:00","-10.0","","-15.6","","63","","36","","14","","25.0","","100.56","","","","-16","","Clear"
"1960-03-15 03:00","1960","03","15","03:00","-10.6","","-16.7","","60","","36","","14","","25.0","","100.54","","","","-17","","Clear"
"1960-03-15 04:00","1960","03","15","04:00","-11.1","","-17.2","","62","","36","","13","","25.0","","100.53","","","","-18","","Clear"
"1960-03-15 05:00","1960","03","15","05:00","-12.8","","-17.8","","65","","32","","8","","25.0","","100.56","","","","-18","","Clear"
"1960-03-15 06:00","1960","03","15","06:00","-13.9","","-18.9","","66","","36","","8","","25.0","","100.60","","","","-19","","Clear"
"1960-03-15 07:00","1960","03","15","07:00","-13.3","","-18.3","","67","","34","","6","","25.0","","100.67","","","","-17","","Clear"
"1960-03-15 08:00","1960","03","15","08:00","-11.1","","-16.1","","67","","34","","14","","25.0","","100.68","","","","-18","","Clear"
"1960-03-15 09:00","1960","03","15","09:00","-8.3","","-13.9","","64","","36","","13","","25.0","","100.72","","","","-14","","Clear"
"1960-03-15 10:00","1960","03","15","10:00","-6.1","","-11.7","","64","","36","","16","","25.0","","100.71","","","","-12","","Clear"
"1960-03-15 11:00","1960","03","15","11:00","-4.4","","-10.6","","62","","36","","13","","25.0","","100.70","","","","-9","","Clear"
"1960-03-15 12:00","1960","03","15","12:00","-2.8","","-8.3","","66","","36","","10","","25.0","","100.68","","","","-7","","Clear"
"1960-03-15 13:00","1960","03","15","13:00","-2.2","","-7.8","","66","","36","","13","","25.0","","100.65","","","","-7","","Clear"
"1960-03-15 14:00","1960","03","15","14:00","-1.7","","-7.8","","62","","36","","16","","25.0","","100.58","","","","-7","","Clear"
"1960-03-15 15:00","1960","03","15","15:00","-1.7","","-9.4","","55","","36","","13","","25.0","","100.55","","","","-6","","Clear"
"1960-03-15 16:00","1960","03","15","16:00","-1.7","","-10.6","","50","","2","","16","","25.0","","100.48","","","","-7","","Clear"
"1960-03-15 17:00","1960","03","15","17:00","-1.7","","-10.0","","52","","2","","16","","25.0","","100.49","","","","-7","","Clear"
"1960-03-15 18:00","1960","03","15","18:00","-3.3","","-8.9","","64","","36","","11","","25.0","","100.47","","","","-8","","Clear"
"1960-03-15 19:00","1960","03","15","19:00","-3.9","","-12.2","","53","","36","","16","","25.0","","100.46","","","","-9","","Clear"
"1960-03-15 20:00","1960","03","15","20:00","-6.1","","-12.8","","58","","36","","16","","25.0","","100.44","","","","-12","","Clear"
"1960-03-15 21:00","1960","03","15","21:00","-7.2","","-12.8","","65","","32","","8","","25.0","","100.51","","","","-11","","Clear"
"1960-03-15 22:00","1960","03","15","22:00","-8.3","","-13.9","","64","","32","","13","","25.0","","100.54","","","","-14","","Clear"
"1960-03-15 23:00","1960","03","15","23:00","-9.4","","-15.0","","64","","36","","14","","25.0","","100.51","","","","-16","","Clear"
"1960-03-16 00:00","1960","03","16","00:00","-10.0","","-15.6","","64","","36","","14","","25.0","","100.46","","","","-16","","Clear"
"1960-03-16 01:00","1960","03","16","01:00","-10.6","","-16.1","","65","","36","","11","","25.0","","100.42","","","","-16","","Clear"
"1960-03-16 02:00","1960","03","16","02:00","-10.6","","-16.1","","63","","36","","10","","25.0","","100.37","","","","-16","","Clear"
"1960-03-16 03:00","1960","03","16","03:00","-12.2","","-17.2","","68","","36","","13","","25.0","","100.30","","","","-19","","Mainly Clear"
"1960-03-16 04:00","1960","03","16","04:00","-11.7","","-15.6","","74","","36","","10","","25.0","","100.28","","","","-17","","Mainly Clear"
"1960-03-16 05:00","1960","03","16","05:00","-12.2","","-16.1","","71","","36","","13","","25.0","","100.20","","","","-19","","Mainly Clear"
"1960-03-16 06:00","1960","03","16","06:00","-12.2","","-16.1","","73","","2","","10","","25.0","","100.16","","","","-18","","Mainly Clear"
"1960-03-16 07:00","1960","03","16","07:00","-12.2","","-15.6","","76","","5","","10","","25.0","","100.15","","","","-18","","Mainly Clear"
"1960-03-16 08:00","1960","03","16","08:00","-8.9","","-11.7","","80","","9","","8","","24.1","","100.04","","","","-13","","Mostly Cloudy"
"1960-03-16 09:00","1960","03","16","09:00","-2.8","","-7.8","","67","","11","","32","","24.1","","100.03","","","","-10","","Mostly Cloudy"
"1960-03-16 10:00","1960","03","16","10:00","-2.2","","-8.3","","64","","11","","35","","24.1","","100.02","","","","-10","","Cloudy"
"1960-03-16 11:00","1960","03","16","11:00","-1.7","","-8.3","","61","","9","","39","","24.1","","99.95","","","","-10","","Cloudy"
"1960-03-16 12:00","1960","03","16","12:00","-1.1","","-6.7","","67","","9","","35","","24.1","","99.83","","","","-8","","Cloudy"
"1960-03-16 13:00","1960","03","16","13:00","-0.6","","-5.6","","67","","9","","39","","24.1","","99.74","","","","-8","","Cloudy"
"1960-03-16 14:00","1960","03","16","14:00","-0.6","","-5.6","","70","","9","","35","","24.1","","99.61","","","","-8","","Cloudy"
"1960-03-16 15:00","1960","03","16","15:00","0.0","","-5.0","","69","","9","","34","","24.1","","99.56","","","","-7","","Cloudy"
"1960-03-16 16:00","1960","03","16","16:00","-0.6","","-5.6","","70","","9","","39","","24.1","","99.53","","","","-8","","Cloudy"
"1960-03-16 17:00","1960","03","16","17:00","0.0","","-5.0","","69","","11","","35","","19.3","","99.50","","","","-7","","Cloudy"
"1960-03-16 18:00","1960","03","16","18:00","-1.7","","-3.3","","90","","11","","39","","0.4","","99.55","","","","-10","","Moderate Snow,Blowing Snow"
"1960-03-16 19:00","1960","03","16","19:00","-2.2","","-3.3","","94","","11","","34","","1.2","","99.49","","","","-10","","Snow,Blowing Snow"
"1960-03-16 20:00","1960","03","16","20:00","-1.7","","-2.2","","94","","11","","29","","0.8","","99.40","","","","-9","","Moderate Snow,Blowing Snow"
"1960-03-16 21:00","1960","03","16","21:00","-1.7","","-2.2","","94","","9","","26","","1.6","","99.35","","","","-8","","Snow,Blowing Snow"
"1960-03-16 22:00","1960","03","16","22:00","-1.1","","-2.8","","90","","11","","29","","4.8","","99.23","","","","-8","","Snow,Blowing Snow"
"1960-03-16 23:00","1960","03","16","23:00","-1.1","","-2.2","","91","","11","","27","","4.8","","99.16","","","","-8","","Snow,Blowing Snow"
"1960-03-17 00:00","1960","03","17","00:00","-1.1","","-2.2","","92","","11","","29","","6.4","","99.06","","","","-8","","Snow"
"1960-03-17 01:00","1960","03","17","01:00","-1.1","","-2.2","","94","","11","","31","","2.0","","99.02","","","","-8","","Snow"
"1960-03-17 02:00","1960","03","17","02:00","-1.1","","-1.7","","96","","11","","34","","1.2","","98.94","","","","-8","","Snow"
"1960-03-17 03:00","1960","03","17","03:00","-1.1","","-1.7","","96","","11","","31","","1.2","","98.86","","","","-8","","Snow"
"1960-03-17 04:00","1960","03","17","04:00","-0.6","","-1.1","","97","","11","","31","","1.2","","98.77","","","","-7","","Snow"
"1960-03-17 05:00","1960","03","17","05:00","-0.6","","-1.1","","97","","11","","31","","1.6","","98.76","","","","-7","","Snow"
"1960-03-17 06:00","1960","03","17","06:00","-0.6","","-1.1","","97","","11","","27","","1.2","","98.72","","","","-7","","Snow"
"1960-03-17 07:00","1960","03","17","07:00","-0.6","","-1.1","","97","","11","","32","","1.2","","98.69","","","","-7","","Snow"
"1960-03-17 08:00","1960","03","17","08:00","-0.6","","-1.1","","97","","11","","27","","0.6","","98.68","","","","-7","","Moderate Snow"
"1960-03-17 09:00","1960","03","17","09:00","0.0","","0.0","","100","","11","","29","","0.8","","98.64","","","","-6","","Snow,Fog"
"1960-03-17 10:00","1960","03","17","10:00","0.0","","-0.6","","97","","14","","29","","2.0","","98.63","","","","-6","","Snow Grains,Fog"
"1960-03-17 11:00","1960","03","17","11:00","0.6","","-0.6","","91","","14","","24","","1.2","","98.56","","","","","","Snow,Fog"
"1960-03-17 12:00","1960","03","17","12:00","0.6","","0.0","","94","","18","","27","","2.8","","98.50","","","","","","Snow,Fog"
"1960-03-17 13:00","1960","03","17","13:00","1.1","","-1.1","","86","","20","","27","","6.4","","98.48","","","","","","Snow,Haze"
"1960-03-17 14:00","1960","03","17","14:00","1.7","","-0.6","","86","","23","","31","","8.0","","98.48","","","","","","Haze"
"1960-03-17 15:00","1960","03","17","15:00","1.7","","-2.2","","76","","23","","23","","8.0","","98.47","","","","","","Haze"
"1960-03-17 16:00","1960","03","17","16:00","1.7","","-2.2","","76","","23","","24","","8.0","","98.49","","","","","","Haze"
"1960-03-17 17:00","1960","03","17","17:00","0.6","","-1.7","","86","","23","","27","","6.4","","98.53","","","","","","Haze"
"1960-03-17 18:00","1960","03","17","18:00","-0.6","","-5.6","","70","","23","","26","","6.4","","98.58","","","","-7","","Haze"
"1960-03-17 19:00","1960","03","17","19:00","-0.6","","-5.0","","73","","23","","24","","6.4","","98.61","","","","-7","","Haze"
"1960-03-17 20:00","1960","03","17","20:00","-0.6","","-5.0","","73","","23","","29","","6.4","","98.62","","","","-7","","Haze"
"1960-03-17 21:00","1960","03","17","21:00","-1.7","","-4.4","","81","","23","","27","","6.4","","98.63","","","","-8","","Snow,Haze"
"1960-03-17 22:00","1960","03","17","22:00","-2.2","","-4.4","","83","","23","","29","","8.0","","98.63","","","","-9","","Snow,Haze"
"1960-03-17 23:00","1960","03","17","23:00","-1.7","","-4.4","","80","","23","","35","","8.0","","98.70","","","","-9","","Haze"
"1960-03-18 00:00","1960","03","18","00:00","-1.7","","-5.0","","78","","23","","37","","12.9","","98.70","","","","-9","","Cloudy"
"1960-03-18 01:00","1960","03","18","01:00","-2.2","","-5.6","","79","","23","","24","","12.9","","98.64","","","","-9","","Snow Showers"
"1960-03-18 02:00","1960","03","18","02:00","-2.8","","-5.6","","82","","23","","34","","16.1","","98.57","","","","-11","","Mostly Cloudy"
"1960-03-18 03:00","1960","03","18","03:00","-2.8","","-5.6","","81","","23","","31","","19.3","","98.51","","","","-10","","Mainly Clear"
"1960-03-18 04:00","1960","03","18","04:00","-2.8","","-5.6","","81","","23","","21","","24.1","","98.48","","","","-9","","Mainly Clear"
"1960-03-18 05:00","1960","03","18","05:00","-2.8","","-5.6","","80","","23","","21","","24.1","","98.49","","","","-9","","Mostly Cloudy"
"1960-03-18 06:00","1960","03","18","06:00","-2.8","","-5.6","","81","","23","","18","","16.1","","98.55","","","","-8","","Cloudy"
"1960-03-18 07:00","1960","03","18","07:00","-2.8","","-5.0","","83","","23","","16","","12.9","","98.62","","","","-8","","Cloudy"
"1960-03-18 08:00","1960","03","18","08:00","-2.8","","-4.4","","86","","23","","18","","4.8","","98.69","","","","-8","","Snow"
"1960-03-18 09:00","1960","03","18","09:00","-2.8","","-4.4","","90","","20","","23","","2.8","","98.71","","","","-9","","Snow,Fog"
"1960-03-18 10:00","1960","03","18","10:00","-2.2","","-4.4","","86","","23","","31","","4.0","","98.67","","","","-9","","Snow,Fog"
"1960-03-18 11:00","1960","03","18","11:00","0.0","","-3.3","","80","","23","","24","","4.8","","98.61","","","","-6","","Snow,Haze"
"1960-03-18 12:00","1960","03","18","12:00","1.1","","-2.8","","74","","23","","23","","6.4","","98.58","","","","","","Haze"
"1960-03-18 13:00","1960","03","18","13:00","1.1","","-2.8","","76","","23","","21","","6.4","","98.52","","","","","","Haze"
"1960-03-18 14:00","1960","03","18","14:00","1.7","","-3.9","","67","","23","","23","","8.0","","98.49","","","","","","Haze"
"1960-03-18 15:00","1960","03","18","15:00","1.1","","-2.8","","74","","23","","21","","8.0","","98.47","","","","","","Haze"
"1960-03-18 16:00","1960","03","18","16:00","1.1","","-4.4","","66","","23","","18","","6.4","","98.44","","","","","","Haze"
"1960-03-18 17:00","1960","03","18","17:00","2.2","","-0.6","","81","","23","","16","","9.7","","98.48","","","","","","Haze"
"1960-03-18 18:00","1960","03","18","18:00","-0.6","","-3.3","","82","","23","","10","","11.3","","98.49","","","","-4","","Mainly Clear"
"1960-03-18 19:00","1960","03","18","19:00","-0.6","","-3.3","","82","","23","","8","","8.0","","98.53","","","","-3","","Haze"
"1960-03-18 20:00","1960","03","18","20:00","-1.1","","-3.3","","84","","23","","16","","12.9","","98.59","","","","-6","","Mainly Clear"
"1960-03-18 21:00","1960","03","18","21:00","-2.2","","-4.4","","86","","23","","13","","12.9","","98.55","","","","-7","","Mostly Cloudy"
"1960-03-18 22:00","1960","03","18","22:00","-2.2","","-5.0","","81","","25","","14","","16.1","","98.52","","","","-7","","Mostly Cloudy"
"1960-03-18 23:00","1960","03","18","23:00","-2.8","","-5.6","","82","","25","","8","","12.9","","98.48","","","","-6","","Mostly Cloudy"
"1960-03-19 00:00","1960","03","19","00:00","-3.3","","-6.1","","84","","25","","10","","12.9","","98.46","","","","-7","","Mostly Cloudy"
"1960-03-19 01:00","1960","03","19","01:00","-2.8","","-5.0","","84","","27","","14","","12.9","","98.42","","","","-8","","Cloudy"
"1960-03-19 02:00","1960","03","19","02:00","-2.8","","-5.0","","84","","27","","16","","11.3","","98.39","","","","-8","","Cloudy"
"1960-03-19 03:00","1960","03","19","03:00","-2.8","","-4.4","","88","","27","","13","","9.7","","98.37","","","","-7","","Haze"
"1960-03-19 04:00","1960","03","19","04:00","-2.8","","-4.4","","88","","29","","8","","8.0","","98.38","","","","-6","","Haze"
"1960-03-19 05:00","1960","03","19","05:00","-2.8","","-4.4","","88","","","","0","","8.0","","98.41","","","","","","Haze"
"1960-03-19 06:00","1960","03","19","06:00","-2.8","","-4.4","","90","","27","","6","","6.4","","98.47","","","","-5","","Haze"
"1960-03-19 07:00","1960","03","19","07:00","-3.3","","-5.0","","89","","23","","13","","3.2","","98.50","","","","-8","","Fog"
"1960-03-19 08:00","1960","03","19","08:00","-2.8","","-5.0","","85","","27","","13","","3.2","","98.52","","","","-7","","Fog"
"1960-03-19 09:00","1960","03","19","09:00","-1.7","","-4.4","","80","","27","","21","","4.0","","98.57","","","","-8","","Smoke,Haze"
"1960-03-19 10:00","1960","03","19","10:00","0.0","","-3.3","","77","","23","","19","","4.0","","98.56","","","","-5","","Smoke,Haze"
"1960-03-19 11:00","1960","03","19","11:00","-0.6","","-5.0","","73","","27","","13","","4.0","","98.58","","","","-5","","Smoke,Haze"
"1960-03-19 12:00","1960","03","19","12:00","1.1","","-5.6","","61","","27","","16","","8.0","","98.56","","","","","","Smoke,Haze"
"1960-03-19 13:00","1960","03","19","13:00","1.7","","-4.4","","64","","27","","19","","9.7","","98.55","","","","","","Haze"
"1960-03-19 14:00","1960","03","19","14:00","2.2","","-3.9","","63","","27","","19","","11.3","","98.53","","","","","","Cloudy"
"1960-03-19 15:00","1960","03","19","15:00","2.2","","-5.0","","58","","27","","21","","11.3","","98.55","","","","","","Mostly Cloudy"
"1960-03-19 16:00","1960","03","19","16:00","2.2","","-3.9","","63","","27","","21","","16.1","","98.57","","","","","","Cloudy"
"1960-03-19 17:00","1960","03","19","17:00","1.7","","-3.3","","70","","32","","16","","16.1","","98.65","","","","","","Mostly Cloudy"
"1960-03-19 18:00","1960","03","19","18:00","0.6","","-3.9","","73","","27","","19","","19.3","","98.76","","","","","","Mostly Cloudy"
"1960-03-19 19:00","1960","03","19","19:00","0.0","","-4.4","","71","","29","","19","","19.3","","98.82","","","","-5","","Mainly Clear"
"1960-03-19 20:00","1960","03","19","20:00","-1.1","","-5.0","","76","","27","","10","","19.3","","98.87","","","","-5","","Mainly Clear"
"1960-03-19 21:00","1960","03","19","21:00","-1.7","","-5.0","","78","","32","","6","","19.3","","98.90","","","","-4","","Mainly Clear"
"1960-03-19 22:00","1960","03","19","22:00","-2.8","","-6.1","","77","","32","","8","","24.1","","98.94","","","","-6","","Mainly Clear"
"1960-03-19 23:00","1960","03","19","23:00","-3.3","","-6.7","","78","","27","","5","","24.1","","98.95","","","","-5","","Clear"
"1960-03-20 00:00","1960","03","20","00:00","-3.9","","-7.8","","75","","32","","16","","24.1","","98.96","","","","-9","","Clear"
"1960-03-20 01:00","1960","03","20","01:00","-5.6","","-8.9","","78","","32","","6","","24.1","","98.95","","","","-8","","Clear"
"1960-03-20 02:00","1960","03","20","02:00","-5.6","","-8.9","","78","","32","","8","","24.1","","98.95","","","","-9","","Clear"
"1960-03-20 03:00","1960","03","20","03:00","-6.7","","-8.9","","83","","32","","8","","24.1","","98.94","","","","-11","","Clear"
"1960-03-20 04:00","1960","03","20","04:00","-6.1","","-8.9","","82","","32","","5","","24.1","","98.96","","","","-9","","Clear"
"1960-03-20 05:00","1960","03","20","05:00","-6.1","","-8.3","","83","","","","0","","24.1","","98.98","","","","","","Mainly Clear"
"1960-03-20 06:00","1960","03","20","06:00","-6.1","","-8.3","","84","","32","","10","","24.1","","99.02","","","","-11","","Mostly Cloudy"
"1960-03-20 07:00","1960","03","20","07:00","-4.4","","-6.7","","83","","32","","10","","16.1","","99.06","","","","-9","","Mostly Cloudy"
"1960-03-20 08:00","1960","03","20","08:00","-3.9","","-6.7","","83","","32","","10","","16.1","","99.13","","","","-8","","Mostly Cloudy"
"1960-03-20 09:00","1960","03","20","09:00","-2.2","","-5.0","","82","","36","","24","","24.1","","99.13","","","","-9","","Mostly Cloudy"
"1960-03-20 10:00","1960","03","20","10:00","-1.7","","-4.4","","81","","36","","29","","24.1","","99.14","","","","-9","","Mostly Cloudy"
"1960-03-20 11:00","1960","03","20","11:00","-1.7","","-5.0","","78","","36","","24","","24.1","","99.18","","","","-8","","Mostly Cloudy"
"1960-03-20 12:00","1960","03","20","12:00","-1.1","","-6.1","","70","","34","","27","","24.1","","99.21","","","","-8","","Mostly Cloudy"
"1960-03-20 13:00","1960","03","20","13:00","-0.6","","-4.4","","76","","36","","27","","24.1","","99.20","","","","-7","","Mostly Cloudy"
"1960-03-20 14:00","1960","03","20","14:00","-0.6","","-3.9","","79","","34","","23","","24.1","","99.16","","","","-6","","Mostly Cloudy"
"1960-03-20 15:00","1960","03","20","15:00","-0.6","","-6.7","","65","","36","","24","","24.1","","99.16","","","","-7","","Mostly Cloudy"
"1960-03-20 16:00","1960","03","20","16:00","-1.1","","-7.2","","62","","34","","23","","24.1","","99.16","","","","-7","","Mostly Cloudy"
"1960-03-20 17:00","1960","03","20","17:00","-2.2","","-5.6","","78","","34","","23","","25.0","","99.20","","","","-8","","Mostly Cloudy"
"1960-03-20 18:00","1960","03","20","18:00","-2.8","","-6.7","","74","","34","","23","","25.0","","99.26","","","","-9","","Mainly Clear"
"1960-03-20 19:00","1960","03","20","19:00","-3.3","","-6.1","","81","","36","","18","","25.0","","99.30","","","","-9","","Mainly Clear"
"1960-03-20 20:00","1960","03","20","20:00","-5.0","","-7.8","","80","","36","","16","","25.0","","99.36","","","","-11","","Mainly Clear"
"1960-03-20 21:00","1960","03","20","21:00","-5.6","","-8.3","","81","","36","","16","","25.0","","99.38","","","","-12","","Mainly Clear"
"1960-03-20 22:00","1960","03","20","22:00","-6.1","","-10.6","","72","","36","","19","","25.0","","99.39","","","","-13","","Mainly Clear"
"1960-03-20 23:00","1960","03","20","23:00","-6.1","","-10.0","","74","","32","","16","","25.0","","99.40","","","","-12","","Mainly Clear"
"1960-03-21 00:00","1960","03","21","00:00","-6.7","","-10.6","","74","","32","","10","","25.0","","99.41","","","","-11","","Mainly Clear"
"1960-03-21 01:00","1960","03","21","01:00","-6.7","","-10.0","","77","","32","","16","","25.0","","99.42","","","","-13","","Clear"
"1960-03-21 02:00","1960","03","21","02:00","-7.2","","-11.1","","75","","32","","11","","25.0","","99.40","","","","-12","","Clear"
"1960-03-21 03:00","1960","03","21","03:00","-7.8","","-11.7","","75","","32","","13","","25.0","","99.38","","","","-14","","Clear"
"1960-03-21 04:00","1960","03","21","04:00","-8.9","","-12.2","","76","","32","","11","","25.0","","99.40","","","","-14","","Clear"
"1960-03-21 05:00","1960","03","21","05:00","-9.4","","-12.2","","79","","32","","11","","25.0","","99.42","","","","-15","","Clear"
"1960-03-21 06:00","1960","03","21","06:00","-10.0","","-13.3","","75","","32","","13","","24.1","","99.45","","","","-16","","Mainly Clear"
"1960-03-21 07:00","1960","03","21","07:00","-9.4","","-12.2","","79","","32","","16","","16.1","","99.51","","","","-16","","Mainly Clear"
"1960-03-21 08:00","1960","03","21","08:00","-7.8","","-11.1","","76","","32","","14","","19.3","","99.53","","","","-14","","Clear"
"1960-03-21 09:00","1960","03","21","09:00","-6.1","","-10.0","","74","","32","","14","","25.0","","99.56","","","","-12","","Clear"
"1960-03-21 10:00","1960","03","21","10:00","-5.0","","-11.1","","63","","29","","14","","25.0","","99.55","","","","-10","","Mainly Clear"
"1960-03-21 11:00","1960","03","21","11:00","-4.4","","-10.6","","62","","27","","21","","25.0","","99.49","","","","-11","","Mainly Clear"
"1960-03-21 12:00","1960","03","21","12:00","-2.8","","-8.9","","63","","32","","27","","25.0","","99.44","","","","-10","","Mainly Clear"
"1960-03-21 13:00","1960","03","21","13:00","-2.2","","-8.3","","63","","29","","34","","25.0","","99.40","","","","-10","","Mainly Clear"
"1960-03-21 14:00","1960","03","21","14:00","-2.2","","-7.8","","65","","27","","32","","25.0","","99.29","","","","-10","","Mainly Clear"
"1960-03-21 15:00","1960","03","21","15:00","-2.2","","-7.2","","70","","29","","23","","25.0","","99.20","","","","-8","","Mainly Clear"
"1960-03-21 16:00","1960","03","21","16:00","-2.2","","-7.8","","66","","27","","21","","25.0","","99.11","","","","-8","","Mostly Cloudy"
"1960-03-21 17:00","1960","03","21","17:00","-2.8","","-7.8","","70","","27","","21","","19.3","","99.00","","","","-9","","Snow Showers"
"1960-03-21 18:00","1960","03","21","18:00","-3.9","","-8.9","","68","","27","","26","","24.1","","98.94","","","","-11","","Cloudy"
"1960-03-21 19:00","1960","03","21","19:00","-4.4","","-9.4","","67","","25","","27","","24.1","","98.85","","","","-12","","Cloudy"
"1960-03-21 20:00","1960","03","21","20:00","-4.4","","-10.0","","66","","23","","11","","25.0","","98.68","","","","-9","","Cloudy"
"1960-03-21 21:00","1960","03","21","21:00","-4.4","","-9.4","","69","","18","","11","","19.3","","98.57","","","","-9","","Snow"
"1960-03-21 22:00","1960","03","21","22:00","-4.4","","-6.1","","90","","18","","16","","2.0","","98.38","","","","-10","","Snow"
"1960-03-21 23:00","1960","03","21","23:00","-4.4","","-5.6","","92","","18","","16","","1.6","","98.15","","","","-10","","Snow"
"1960-03-22 00:00","1960","03","22","00:00","-4.4","","-5.6","","91","","16","","24","","1.6","","97.85","","","","-11","","Snow"
"1960-03-22 01:00","1960","03","22","01:00","-4.4","","-6.1","","89","","20","","29","","1.6","","97.67","","","","-12","","Snow,Blowing Snow"
"1960-03-22 02:00","1960","03","22","02:00","-4.4","","-6.1","","89","","20","","24","","3.2","","97.54","","","","-11","","Snow,Blowing Snow"
"1960-03-22 03:00","1960","03","22","03:00","-5.6","","-6.7","","91","","14","","10","","1.6","","97.37","","","","-10","","Snow"
"1960-03-22 04:00","1960","03","22","04:00","-5.6","","-6.7","","91","","9","","10","","3.2","","97.29","","","","-10","","Snow"
"1960-03-22 05:00","1960","03","22","05:00","-5.6","","-7.2","","90","","5","","10","","1.6","","97.27","","","","-10","","Snow"
"1960-03-22 06:00","1960","03","22","06:00","-5.6","","-7.2","","90","","5","","19","","1.6","","97.31","","","","-12","","Snow"
"1960-03-22 07:00","1960","03","22","07:00","-5.6","","-7.2","","89","","5","","27","","0.4","","97.46","","","","-13","","Heavy Snow"
"1960-03-22 08:00","1960","03","22","08:00","-5.6","","-7.2","","90","","34","","27","","4.0","","97.63","","","","-13","","Snow"
"1960-03-22 09:00","1960","03","22","09:00","-6.1","","-8.9","","82","","36","","26","","16.1","","97.73","","","","-14","","Mostly Cloudy"
"1960-03-22 10:00","1960","03","22","10:00","-5.6","","-8.3","","81","","2","","29","","19.3","","98.00","","","","-14","","Mostly Cloudy"
"1960-03-22 11:00","1960","03","22","11:00","-5.0","","-7.8","","80","","36","","29","","19.3","","98.21","","","","-13","","Cloudy"
"1960-03-22 12:00","1960","03","22","12:00","-5.0","","-8.3","","77","","36","","29","","12.9","","98.36","","","","-13","","Snow Showers"
"1960-03-22 13:00","1960","03","22","13:00","-3.9","","-7.8","","78","","36","","32","","3.2","","98.52","","","","-12","","Snow Showers,Blowing Snow"
"1960-03-22 14:00","1960","03","22","14:00","-3.3","","-7.2","","75","","34","","35","","24.1","","98.61","","","","-11","","Mostly Cloudy"
"1960-03-22 15:00","1960","03","22","15:00","-2.8","","-7.2","","72","","34","","37","","24.1","","98.75","","","","-11","","Mostly Cloudy"
"1960-03-22 16:00","1960","03","22","16:00","-2.2","","-6.7","","73","","34","","35","","25.0","","98.90","","","","-10","","Mostly Cloudy"
"1960-03-22 17:00","1960","03","22","17:00","-3.3","","-7.2","","76","","34","","35","","19.3","","99.02","","","","-11","","Mainly Clear"
"1960-03-22 18:00","1960","03","22","18:00","-3.9","","-7.8","","75","","34","","32","","19.3","","99.16","","","","-12","","Mainly Clear"
"1960-03-22 19:00","1960","03","22","19:00","-4.4","","-9.4","","68","","34","","35","","19.3","","99.28","","","","-13","","Mainly Clear"
"1960-03-22 20:00","1960","03","22","20:00","-5.0","","-10.0","","69","","32","","32","","25.0","","99.39","","","","-13","","Clear"
"1960-03-22 21:00","1960","03","22","21:00","-6.1","","-10.6","","70","","34","","19","","25.0","","99.43","","","","-13","","Clear"
"1960-03-22 22:00","1960","03","22","22:00","-6.7","","-11.1","","69","","32","","19","","25.0","","99.52","","","","-14","","Clear"
"1960-03-22 23:00","1960","03","22","23:00","-6.7","","-11.7","","68","","32","","23","","25.0","","99.54","","","","-14","","Clear"
"1960-03-23 00:00","1960","03","23","00:00","-7.2","","-13.3","","63","","32","","19","","25.0","","99.60","","","","-14","","Clear"
"1960-03-23 01:00","1960","03","23","01:00","-7.8","","-13.3","","64","","32","","19","","25.0","","99.63","","","","-15","","Clear"
"1960-03-23 02:00","1960","03","23","02:00","-10.0","","-13.9","","74","","32","","13","","25.0","","99.67","","","","-16","","Clear"
"1960-03-23 03:00","1960","03","23","03:00","-12.2","","-15.6","","76","","27","","10","","24.1","","99.72","","","","-18","","Clear"
"1960-03-23 04:00","1960","03","23","04:00","-11.7","","-15.0","","76","","32","","14","","24.1","","99.73","","","","-19","","Clear"
"1960-03-23 05:00","1960","03","23","05:00","-11.1","","-14.4","","75","","32","","13","","24.1","","99.76","","","","-18","","Clear"
"1960-03-23 06:00","1960","03","23","06:00","-12.2","","-16.1","","73","","32","","10","","24.1","","99.81","","","","-18","","Clear"
"1960-03-23 07:00","1960","03","23","07:00","-11.7","","-15.6","","72","","32","","13","","25.0","","99.85","","","","-18","","Clear"
"1960-03-23 08:00","1960","03","23","08:00","-11.7","","-15.6","","72","","32","","10","","25.0","","99.86","","","","-17","","Clear"
"1960-03-23 09:00","1960","03","23","09:00","-10.6","","-15.6","","68","","34","","13","","25.0","","99.83","","","","-17","","Mainly Clear"
"1960-03-23 10:00","1960","03","23","10:00","-8.9","","-15.0","","61","","36","","6","","24.1","","99.76","","","","-12","","Mostly Cloudy"
"1960-03-23 11:00","1960","03","23","11:00","-8.3","","-14.4","","61","","27","","6","","24.1","","99.73","","","","-12","","Cloudy"
"1960-03-23 12:00","1960","03","23","12:00","-6.7","","-13.3","","59","","23","","6","","24.1","","99.69","","","","-10","","Cloudy"
"1960-03-23 13:00","1960","03","23","13:00","-6.1","","-11.1","","67","","23","","14","","16.1","","99.61","","","","-12","","Cloudy"
"1960-03-23 14:00","1960","03","23","14:00","-3.9","","-8.3","","73","","23","","24","","4.0","","99.51","","","","-11","","Snow"
"1960-03-23 15:00","1960","03","23","15:00","-4.4","","-7.2","","81","","23","","32","","1.2","","99.39","","","","-12","","Snow"
"1960-03-23 16:00","1960","03","23","16:00","-3.9","","-5.6","","89","","23","","26","","2.4","","99.30","","","","-11","","Snow"
"1960-03-23 17:00","1960","03","23","17:00","-5.0","","-7.2","","86","","25","","26","","2.4","","99.28","","","","-12","","Snow"
"1960-03-23 18:00","1960","03","23","18:00","-5.0","","-7.8","","80","","23","","23","","19.3","","99.25","","","","-12","","Cloudy"
"1960-03-23 19:00","1960","03","23","19:00","-5.6","","-9.4","","74","","23","","19","","19.3","","99.19","","","","-12","","Cloudy"
"1960-03-23 20:00","1960","03","23","20:00","-5.6","","-8.9","","76","","25","","16","","19.3","","99.16","","","","-12","","Cloudy"
"1960-03-23 21:00","1960","03","23","21:00","-5.6","","-8.9","","76","","20","","5","","19.3","","99.08","","","","-8","","Snow"
"1960-03-23 22:00","1960","03","23","22:00","-5.6","","-8.9","","78","","","","0","","19.3","","98.96","","","","","","Snow"
"1960-03-23 23:00","1960","03","23","23:00","-5.6","","-8.3","","82","","18","","8","","1.2","","98.86","","","","-9","","Snow"
"1960-03-24 00:00","1960","03","24","00:00","-6.1","","-7.8","","89","","18","","8","","2.4","","98.77","","","","-10","","Snow"
"1960-03-24 01:00","1960","03","24","01:00","-5.6","","-6.7","","91","","18","","13","","3.2","","98.66","","","","-11","","Snow"
"1960-03-24 02:00","1960","03","24","02:00","-6.1","","-7.2","","92","","20","","6","","4.0","","98.59","","","","-9","","Snow"
"1960-03-24 03:00","1960","03","24","03:00","-7.2","","-7.2","","99","","","","0","","3.2","","98.51","","","","","","Snow,Fog"
"1960-03-24 04:00","1960","03","24","04:00","-11.1","","-11.1","","98","","","","0","","0.0","","98.47","","","","","","Fog"
"1960-03-24 05:00","1960","03","24","05:00","-12.8","","-12.8","","99","","23","","3","","0.0","","98.44","","","","-15","","Fog"
"1960-03-24 06:00","1960","03","24","06:00","-13.3","","-13.9","","95","","27","","6","","0.0","","98.45","","","","-17","","Fog"
"1960-03-24 07:00","1960","03","24","07:00","-12.2","","-13.9","","95","","23","","16","","2.4","","98.46","","","","-20","","Fog"
"1960-03-24 08:00","1960","03","24","08:00","-6.7","","-8.3","","89","","25","","21","","6.4","","98.43","","","","-14","","Fog"
"1960-03-24 09:00","1960","03","24","09:00","-5.0","","-6.1","","90","","23","","26","","6.4","","98.43","","","","-12","","Fog"
"1960-03-24 10:00","1960","03","24","10:00","-2.2","","-3.9","","87","","25","","32","","19.3","","98.43","","","","-10","","Snow Showers"
"1960-03-24 11:00","1960","03","24","11:00","-2.2","","-7.2","","68","","25","","29","","25.0","","98.44","","","","-9","","Mostly Cloudy"
"1960-03-24 12:00","1960","03","24","12:00","-1.7","","-7.8","","64","","25","","31","","25.0","","98.43","","","","-9","","Mostly Cloudy"
"1960-03-24 13:00","1960","03","24","13:00","-1.1","","-6.7","","67","","25","","37","","25.0","","98.43","","","","-9","","Mostly Cloudy"
"1960-03-24 14:00","1960","03","24","14:00","-2.2","","-7.2","","69","","25","","26","","25.0","","98.39","","","","-9","","Cloudy"
"1960-03-24 15:00","1960","03","24","15:00","-2.2","","-5.6","","77","","32","","18","","19.3","","98.34","","","","-8","","Snow"
"1960-03-24 16:00","1960","03","24","16:00","-2.8","","-6.7","","76","","25","","16","","19.3","","98.32","","","","-8","","Cloudy"
"1960-03-24 17:00","1960","03","24","17:00","-5.6","","-9.4","","74","","36","","32","","12.9","","98.42","","","","-14","","Cloudy"
"1960-03-24 18:00","1960","03","24","18:00","-6.1","","-9.4","","78","","34","","35","","24.1","","98.56","","","","-15","","Cloudy"
"1960-03-24 19:00","1960","03","24","19:00","-6.1","","-10.0","","74","","34","","34","","24.1","","98.71","","","","-15","","Cloudy"
"1960-03-24 20:00","1960","03","24","20:00","-7.2","","-11.7","","69","","34","","32","","25.0","","98.92","","","","-16","","Mostly Cloudy"
"1960-03-24 21:00","1960","03","24","21:00","-7.8","","-13.3","","64","","36","","29","","25.0","","99.07","","","","-17","","Mainly Clear"
"1960-03-24 22:00","1960","03","24","22:00","-8.9","","-14.4","","63","","32","","23","","25.0","","99.22","","","","-17","","Clear"
"1960-03-24 23:00","1960","03","24","23:00","-9.4","","-16.1","","58","","34","","23","","25.0","","99.34","","","","-18","","Clear"
"1960-03-25 00:00","1960","03","25","00:00","-10.6","","-16.7","","60","","32","","13","","25.0","","99.44","","","","-17","","Clear"
"1960-03-25 01:00","1960","03","25","01:00","-11.1","","-17.2","","62","","36","","13","","25.0","","99.50","","","","-18","","Clear"
"1960-03-25 02:00","1960","03","25","02:00","-13.3","","-17.8","","69","","32","","14","","25.0","","99.60","","","","-21","","Clear"
"1960-03-25 03:00","1960","03","25","03:00","-12.8","","-17.2","","70","","32","","23","","25.0","","99.70","","","","-22","","Clear"
"1960-03-25 04:00","1960","03","25","04:00","-13.3","","-17.8","","69","","34","","19","","25.0","","99.81","","","","-22","","Clear"
"1960-03-25 05:00","1960","03","25","05:00","-14.4","","-19.4","","67","","36","","16","","25.0","","99.94","","","","-22","","Clear"
"1960-03-25 06:00","1960","03","25","06:00","-15.0","","-20.0","","65","","34","","14","","25.0","","100.03","","","","-23","","Clear"
"1960-03-25 07:00","1960","03","25","07:00","-15.0","","-18.9","","74","","34","","13","","25.0","","100.09","","","","-22","","Mainly Clear"
"1960-03-25 08:00","1960","03","25","08:00","-14.4","","-17.8","","75","","34","","13","","25.0","","100.15","","","","-22","","Clear"
"1960-03-25 09:00","1960","03","25","09:00","-13.9","","-21.1","","54","","34","","13","","25.0","","100.21","","","","-21","","Clear"
"1960-03-25 10:00","1960","03","25","10:00","-13.3","","-21.1","","52","","36","","13","","25.0","","100.26","","","","-20","","Clear"
"1960-03-25 11:00","1960","03","25","11:00","-12.2","","-19.4","","55","","36","","13","","25.0","","100.26","","","","-19","","Clear"
"1960-03-25 12:00","1960","03","25","12:00","-12.2","","-19.4","","55","","36","","13","","25.0","","100.24","","","","-19","","Clear"
"1960-03-25 13:00","1960","03","25","13:00","-10.6","","-19.4","","49","","32","","10","","25.0","","100.22","","","","-16","","Clear"
"1960-03-25 14:00","1960","03","25","14:00","-10.0","","-17.8","","52","","29","","29","","25.0","","100.20","","","","-19","","Mainly Clear"
"1960-03-25 15:00","1960","03","25","15:00","-8.9","","-16.7","","54","","29","","32","","25.0","","100.18","","","","-18","","Mainly Clear"
"1960-03-25 16:00","1960","03","25","16:00","-8.3","","-15.6","","56","","27","","29","","25.0","","100.14","","","","-17","","Mainly Clear"
"1960-03-25 17:00","1960","03","25","17:00","-8.3","","-16.1","","53","","27","","21","","25.0","","100.09","","","","-16","","Mainly Clear"
"1960-03-25 18:00","1960","03","25","18:00","-8.3","","-15.6","","56","","27","","13","","25.0","","100.08","","","","-14","","Mainly Clear"
"1960-03-25 19:00","1960","03","25","19:00","-9.4","","-17.2","","54","","27","","6","","25.0","","100.06","","","","-13","","Mainly Clear"
"1960-03-25 20:00","1960","03","25","20:00","-10.0","","-16.7","","57","","23","","10","","24.1","","100.07","","","","-15","","Mainly Clear"
"1960-03-25 21:00","1960","03","25","21:00","-10.6","","-17.2","","58","","23","","13","","24.1","","100.04","","","","-17","","Mainly Clear"
"1960-03-25 22:00","1960","03","25","22:00","-11.1","","-17.2","","60","","20","","13","","24.1","","99.99","","","","-18","","Mainly Clear"
"1960-03-25 23:00","1960","03","25","23:00","-12.2","","-17.2","","66","","23","","10","","24.1","","99.95","","","","-18","","Clear"
"1960-03-26 00:00","1960","03","26","00:00","-12.8","","-17.8","","66","","23","","11","","25.0","","99.93","","","","-19","","Clear"
"1960-03-26 01:00","1960","03","26","01:00","-13.3","","-17.2","","73","","23","","10","","25.0","","99.85","","","","-19","","Clear"
"1960-03-26 02:00","1960","03","26","02:00","-12.8","","-16.7","","74","","23","","6","","25.0","","99.76","","","","-17","","Clear"
"1960-03-26 03:00","1960","03","26","03:00","-13.3","","-17.2","","73","","27","","5","","25.0","","99.72","","","","-17","","Clear"
"1960-03-26 04:00","1960","03","26","04:00","-15.6","","-17.8","","82","","27","","5","","24.1","","99.67","","","","-19","","Mainly Clear"
"1960-03-26 05:00","1960","03","26","05:00","-15.0","","-17.2","","82","","27","","3","","19.3","","99.66","","","","-17","","Snow"
"1960-03-26 06:00","1960","03","26","06:00","-15.0","","-17.2","","82","","27","","6","","12.9","","99.65","","","","-19","","Snow"
"1960-03-26 07:00","1960","03","26","07:00","-15.0","","-17.2","","84","","32","","3","","8.0","","99.67","","","","-17","","Snow,Haze"
"1960-03-26 08:00","1960","03","26","08:00","-11.7","","-15.0","","77","","25","","3","","6.4","","99.64","","","","-14","","Snow,Haze"
"1960-03-26 09:00","1960","03","26","09:00","-9.4","","-13.3","","73","","23","","8","","9.7","","99.64","","","","-14","","Haze"
"1960-03-26 10:00","1960","03","26","10:00","-6.1","","-10.0","","74","","23","","10","","9.7","","99.65","","","","-11","","Haze"
"1960-03-26 11:00","1960","03","26","11:00","-3.3","","-8.3","","68","","23","","16","","9.7","","99.62","","","","-9","","Haze"
"1960-03-26 12:00","1960","03","26","12:00","-2.2","","-7.8","","66","","23","","16","","6.4","","99.59","","","","-7","","Haze"
"1960-03-26 13:00","1960","03","26","13:00","-1.7","","-7.8","","63","","27","","21","","9.7","","99.55","","","","-8","","Haze"
"1960-03-26 14:00","1960","03","26","14:00","-0.6","","-6.7","","65","","25","","29","","9.7","","99.51","","","","-7","","Haze"
"1960-03-26 15:00","1960","03","26","15:00","0.0","","-5.0","","69","","25","","26","","9.7","","99.52","","","","-6","","Haze"
"1960-03-26 16:00","1960","03","26","16:00","0.0","","-5.6","","66","","25","","27","","9.7","","99.54","","","","-6","","Haze"
"1960-03-26 17:00","1960","03","26","17:00","-0.6","","-6.7","","65","","25","","27","","9.7","","99.56","","","","-7","","Haze"
"1960-03-26 18:00","1960","03","26","18:00","-1.7","","-6.7","","69","","25","","24","","12.9","","99.62","","","","-8","","Mainly Clear"
"1960-03-26 19:00","1960","03","26","19:00","-2.2","","-6.7","","71","","27","","23","","12.9","","99.70","","","","-8","","Mainly Clear"
"1960-03-26 20:00","1960","03","26","20:00","-3.3","","-5.6","","84","","27","","13","","12.9","","99.78","","","","-8","","Mostly Cloudy"
"1960-03-26 21:00","1960","03","26","21:00","-3.3","","-6.7","","79","","20","","8","","16.1","","99.79","","","","-7","","Mainly Clear"
"1960-03-26 22:00","1960","03","26","22:00","-4.4","","-7.8","","77","","23","","10","","16.1","","99.81","","","","-9","","Mainly Clear"
"1960-03-26 23:00","1960","03","26","23:00","-5.0","","-8.3","","76","","20","","10","","12.9","","99.82","","","","-9","","Mainly Clear"
"1960-03-27 00:00","1960","03","27","00:00","-6.1","","-9.4","","77","","23","","13","","12.9","","99.81","","","","-11","","Clear"
"1960-03-27 01:00","1960","03","27","01:00","-5.6","","-8.9","","76","","23","","11","","11.3","","99.84","","","","-10","","Clear"
"1960-03-27 02:00","1960","03","27","02:00","-5.6","","-8.3","","80","","18","","16","","11.3","","99.78","","","","-12","","Clear"
"1960-03-27 03:00","1960","03","27","03:00","-6.7","","-9.4","","81","","18","","14","","9.7","","99.73","","","","-12","","Smoke,Haze"
"1960-03-27 04:00","1960","03","27","04:00","-7.2","","-9.4","","83","","23","","16","","9.7","","99.73","","","","-14","","Smoke,Haze"
"1960-03-27 05:00","1960","03","27","05:00","-6.7","","-8.9","","83","","20","","19","","11.3","","99.66","","","","-14","","Clear"
"1960-03-27 06:00","1960","03","27","06:00","-5.0","","-6.1","","90","","18","","23","","4.0","","99.62","","","","-12","","Fog"
"1960-03-27 07:00","1960","03","27","07:00","-3.9","","-5.0","","91","","20","","24","","4.8","","99.61","","","","-11","","Snow,Fog"
"1960-03-27 08:00","1960","03","27","08:00","-2.8","","-4.4","","86","","20","","24","","6.4","","99.48","","","","-9","","Fog"
"1960-03-27 09:00","1960","03","27","09:00","-1.1","","-4.4","","78","","20","","34","","6.4","","99.34","","","","-8","","Haze"
"1960-03-27 10:00","1960","03","27","10:00","0.6","","-4.4","","70","","20","","35","","6.4","","99.24","","","","","","Haze"
"1960-03-27 11:00","1960","03","27","11:00","2.8","","-4.4","","60","","20","","31","","12.9","","99.12","","","","","","Mostly Cloudy"
"1960-03-27 12:00","1960","03","27","12:00","5.6","","-3.9","","51","","23","","40","","19.3","","99.01","","","","","","Mostly Cloudy"
"1960-03-27 13:00","1960","03","27","13:00","6.1","","-3.3","","50","","23","","45","","24.1","","98.97","","","","","","Mainly Clear"
"1960-03-27 14:00","1960","03","27","14:00","6.7","","-2.8","","51","","23","","42","","19.3","","98.87","","","","","","Mainly Clear"
"1960-03-27 15:00","1960","03","27","15:00","6.7","","-1.1","","57","","23","","43","","19.3","","98.76","","","","","","Mainly Clear"
"1960-03-27 16:00","1960","03","27","16:00","6.7","","-0.6","","59","","23","","39","","16.1","","98.75","","","","","","Mainly Clear"
"1960-03-27 17:00","1960","03","27","17:00","6.7","","0.0","","63","","23","","27","","16.1","","98.76","","","","","","Mostly Cloudy"
"1960-03-27 18:00","1960","03","27","18:00","5.6","","0.6","","70","","23","","11","","12.9","","98.82","","","","","","Mostly Cloudy"
"1960-03-27 19:00","1960","03","27","19:00","5.6","","1.1","","73","","18","","11","","12.9","","98.84","","","","","","Mostly Cloudy"
"1960-03-27 20:00","1960","03","27","20:00","5.6","","1.1","","73","","23","","35","","16.1","","98.80","","","","","","Mostly Cloudy"
"1960-03-27 21:00","1960","03","27","21:00","5.0","","0.6","","72","","23","","19","","16.1","","98.86","","","","","","Mostly Cloudy"
"1960-03-27 22:00","1960","03","27","22:00","5.6","","1.7","","75","","23","","21","","16.1","","98.87","","","","","","Cloudy"
"1960-03-27 23:00","1960","03","27","23:00","6.1","","2.2","","78","","","","0","","24.1","","98.92","","","","","","Cloudy"
"1960-03-28 00:00","1960","03","28","00:00","7.2","","2.8","","74","","32","","10","","24.1","","98.97","","","","","","Cloudy"
"1960-03-28 01:00","1960","03","28","01:00","7.2","","2.8","","74","","27","","16","","19.3","","98.94","","","","","","Cloudy"
"1960-03-28 02:00","1960","03","28","02:00","6.1","","3.3","","82","","29","","16","","12.9","","98.99","","","","","","Cloudy"
"1960-03-28 03:00","1960","03","28","03:00","4.4","","2.2","","85","","27","","8","","12.9","","98.99","","","","","","Cloudy"
"1960-03-28 04:00","1960","03","28","04:00","4.4","","2.2","","85","","27","","11","","11.3","","99.02","","","","","","Cloudy"
"1960-03-28 05:00","1960","03","28","05:00","3.9","","1.7","","85","","27","","10","","11.3","","99.16","","","","","","Cloudy"
"1960-03-28 06:00","1960","03","28","06:00","3.3","","1.7","","87","","29","","11","","8.0","","99.27","","","","","","Fog"
"1960-03-28 07:00","1960","03","28","07:00","3.9","","2.2","","88","","32","","8","","6.4","","99.39","","","","","","Fog"
"1960-03-28 08:00","1960","03","28","08:00","4.4","","2.2","","85","","32","","5","","6.4","","99.48","","","","","","Fog"
"1960-03-28 09:00","1960","03","28","09:00","3.9","","2.2","","88","","36","","8","","6.4","","99.67","","","","","","Fog"
"1960-03-28 10:00","1960","03","28","10:00","4.4","","1.7","","83","","34","","13","","8.0","","99.67","","","","","","Haze"
"1960-03-28 11:00","1960","03","28","11:00","5.0","","2.2","","81","","36","","16","","9.7","","99.72","","","","","","Haze"
"1960-03-28 12:00","1960","03","28","12:00","5.6","","1.7","","77","","36","","19","","12.9","","99.72","","","","","","Mostly Cloudy"
"1960-03-28 13:00","1960","03","28","13:00","6.7","","2.8","","76","","36","","16","","12.9","","99.77","","","","","","Mostly Cloudy"
"1960-03-28 14:00","1960","03","28","14:00","6.1","","2.2","","75","","36","","10","","12.9","","99.82","","","","","","Mostly Cloudy"
"1960-03-28 15:00","1960","03","28","15:00","6.7","","1.7","","70","","5","","8","","9.7","","99.83","","","","","","Haze"
"1960-03-28 16:00","1960","03","28","16:00","5.0","","2.2","","81","","16","","16","","8.0","","99.89","","","","","","Haze"
"1960-03-28 17:00","1960","03","28","17:00","5.0","","2.2","","81","","16","","13","","6.4","","99.92","","","","","","Haze"
"1960-03-28 18:00","1960","03","28","18:00","3.9","","0.6","","80","","16","","8","","6.4","","99.92","","","","","","Haze"
"1960-03-28 19:00","1960","03","28","19:00","3.3","","0.6","","82","","","","0","","4.8","","99.95","","","","","","Haze"
"1960-03-28 20:00","1960","03","28","20:00","1.7","","0.0","","89","","","","0","","6.4","","100.04","","","","","","Fog"
"1960-03-28 21:00","1960","03","28","21:00","0.6","","-0.6","","91","","9","","3","","6.4","","100.06","","","","","","Fog"
"1960-03-28 22:00","1960","03","28","22:00","0.6","","-0.6","","91","","9","","3","","4.8","","100.04","","","","","","Fog"
"1960-03-28 23:00","1960","03","28","23:00","-0.6","","-1.7","","93","","9","","3","","3.2","","100.02","","","","-2","","Fog"
"1960-03-29 00:00","1960","03","29","00:00","-0.6","","-1.7","","93","","5","","8","","2.8","","99.96","","","","-3","","Fog"
"1960-03-29 01:00","1960","03","29","01:00","-1.1","","-1.7","","97","","5","","5","","3.2","","99.95","","","","-3","","Fog"
"1960-03-29 02:00","1960","03","29","02:00","-1.7","","-2.2","","95","","5","","8","","2.8","","99.92","","","","-5","","Fog"
"1960-03-29 03:00","1960","03","29","03:00","-2.2","","-2.8","","95","","5","","10","","3.2","","99.91","","","","-6","","Fog"
"1960-03-29 04:00","1960","03","29","04:00","-1.7","","-2.2","","94","","5","","8","","4.0","","99.85","","","","-5","","Fog"
"1960-03-29 05:00","1960","03","29","05:00","-0.6","","-2.2","","88","","7","","13","","6.4","","99.79","","","","-5","","Fog"
"1960-03-29 06:00","1960","03","29","06:00","-0.6","","-1.7","","93","","9","","13","","4.0","","99.77","","","","-5","","Fog"
"1960-03-29 07:00","1960","03","29","07:00","0.6","","-0.6","","91","","9","","8","","4.0","","99.79","","","","","","Fog"
"1960-03-29 08:00","1960","03","29","08:00","1.7","","0.0","","89","","7","","6","","4.8","","99.75","","","","","","Fog"
"1960-03-29 09:00","1960","03","29","09:00","2.2","","0.6","","89","","9","","11","","3.6","","99.65","","","","","","Fog"
"1960-03-29 10:00","1960","03","29","10:00","2.8","","1.1","","90","","11","","16","","3.2","","99.58","","","","","","Fog"
"1960-03-29 11:00","1960","03","29","11:00","2.8","","1.1","","90","","9","","13","","2.4","","99.49","","","","","","Fog"
"1960-03-29 12:00","1960","03","29","12:00","3.3","","1.7","","90","","9","","13","","2.0","","99.40","","","","","","Fog"
"1960-03-29 13:00","1960","03","29","13:00","3.3","","2.2","","92","","9","","8","","2.4","","99.32","","","","","","Fog"
"1960-03-29 14:00","1960","03","29","14:00","5.6","","2.8","","82","","7","","11","","3.6","","99.18","","","","","","Haze"
"1960-03-29 15:00","1960","03","29","15:00","6.1","","2.8","","80","","7","","11","","4.0","","99.05","","","","","","Haze"
"1960-03-29 16:00","1960","03","29","16:00","6.1","","2.8","","80","","7","","10","","4.0","","98.92","","","","","","Haze"
"1960-03-29 17:00","1960","03","29","17:00","6.1","","2.8","","80","","","","0","","3.2","","98.91","","","","","","Haze"
"1960-03-29 18:00","1960","03","29","18:00","5.0","","2.2","","83","","5","","6","","3.2","","98.85","","","","","","Haze"
"1960-03-29 19:00","1960","03","29","19:00","3.9","","1.7","","85","","","","0","","3.2","","98.82","","","","","","Haze"
"1960-03-29 20:00","1960","03","29","20:00","3.9","","2.2","","88","","","","0","","3.2","","98.83","","","","","","Haze"
"1960-03-29 21:00","1960","03","29","21:00","3.9","","2.2","","90","","","","0","","4.0","","98.75","","","","","","Haze"
"1960-03-29 22:00","1960","03","29","22:00","2.2","","0.6","","89","","36","","3","","4.0","","98.70","","","","","","Haze"
"1960-03-29 23:00","1960","03","29","23:00","2.2","","0.6","","89","","32","","3","","4.0","","98.64","","","","","","Haze"
"1960-03-30 00:00","1960","03","30","00:00","1.7","","0.0","","89","","2","","8","","3.2","","98.50","","","","","","Fog"
"1960-03-30 01:00","1960","03","30","01:00","2.2","","1.1","","92","","2","","8","","3.2","","98.47","","","","","","Fog"
"1960-03-30 02:00","1960","03","30","02:00","1.7","","0.6","","92","","2","","6","","2.8","","98.36","","","","","","Fog"
"1960-03-30 03:00","1960","03","30","03:00","1.1","","-0.6","","89","","","","0","","2.8","","98.29","","","","","","Fog"
"1960-03-30 04:00","1960","03","30","04:00","1.7","","0.6","","92","","","","0","","3.2","","98.29","","","","","","Fog"
"1960-03-30 05:00","1960","03","30","05:00","1.1","","0.0","","92","","32","","5","","2.4","","98.30","","","","","","Thunderstorms,Rain Showers,Fog"
"1960-03-30 06:00","1960","03","30","06:00","1.7","","1.1","","94","","","","0","","1.6","","98.22","","","","","","Fog"
"1960-03-30 07:00","1960","03","30","07:00","2.2","","1.7","","95","","","","0","","1.6","","98.20","","","","","","Fog"
"1960-03-30 08:00","1960","03","30","08:00","3.3","","2.8","","95","","","","0","","1.6","","98.19","","","","","","Fog"
"1960-03-30 09:00","1960","03","30","09:00","5.6","","3.9","","88","","2","","6","","1.6","","98.14","","","","","","Fog"
"1960-03-30 10:00","1960","03","30","10:00","8.3","","6.1","","85","","7","","8","","2.4","","98.09","","","","","","Fog"
"1960-03-30 11:00","1960","03","30","11:00","10.0","","6.7","","81","","5","","8","","2.4","","98.04","","","","","","Haze"
"1960-03-30 12:00","1960","03","30","12:00","10.0","","6.7","","81","","","","0","","2.4","","97.94","","","","","","Haze"
"1960-03-30 13:00","1960","03","30","13:00","10.0","","6.7","","81","","36","","6","","2.4","","97.86","","","","","","Haze"
"1960-03-30 14:00","1960","03","30","14:00","11.7","","7.8","","76","","23","","5","","2.4","","97.80","","","","","","Haze"
"1960-03-30 15:00","1960","03","30","15:00","10.0","","6.7","","81","","32","","5","","2.4","","97.77","","","","","","Haze"
"1960-03-30 16:00","1960","03","30","16:00","10.0","","8.3","","88","","2","","6","","1.6","","97.76","","","","","","Rain Showers,Fog"
"1960-03-30 17:00","1960","03","30","17:00","8.3","","7.8","","96","","5","","6","","0.8","","97.76","","","","","","Fog"
"1960-03-30 18:00","1960","03","30","18:00","7.8","","7.2","","98","","5","","5","","0.4","","97.73","","","","","","Fog"
"1960-03-30 19:00","1960","03","30","19:00","7.8","","7.8","","100","","34","","3","","0.2","","97.69","","","","","","Fog"
"1960-03-30 20:00","1960","03","30","20:00","6.1","","6.1","","100","","36","","3","","0.0","","97.69","","","","","","Fog"
"1960-03-30 21:00","1960","03","30","21:00","5.6","","5.6","","100","","2","","8","","0.0","","97.71","","","","","","Fog"
"1960-03-30 22:00","1960","03","30","22:00","5.6","","5.6","","100","","36","","10","","0.0","","97.66","","","","","","Fog"
"1960-03-30 23:00","1960","03","30","23:00","4.4","","4.4","","100","","25","","5","","0.2","","97.75","","","","","","Fog"
"1960-03-31 00:00","1960","03","31","00:00","5.0","","5.0","","100","","36","","8","","0.0","","97.69","","","","","","Fog"
"1960-03-31 01:00","1960","03","31","01:00","5.0","","5.0","","100","","32","","13","","0.0","","97.66","","","","","","Fog"
"1960-03-31 02:00","1960","03","31","02:00","4.4","","4.4","","100","","5","","5","","0.0","","97.67","","","","","","Fog"
"1960-03-31 03:00","1960","03","31","03:00","3.9","","3.9","","100","","","","0","","0.0","","97.71","","","","","","Fog"
"1960-03-31 04:00","1960","03","31","04:00","3.3","","3.3","","100","","27","","3","","0.0","","97.75","","","","","","Rain,Fog"
"1960-03-31 05:00","1960","03","31","05:00","5.0","","5.0","","100","","32","","11","","1.6","","97.77","","","","","","Rain,Fog"
"1960-03-31 06:00","1960","03","31","06:00","4.4","","4.4","","100","","36","","13","","1.2","","97.78","","","","","","Fog"
"1960-03-31 07:00","1960","03","31","07:00","5.0","","5.0","","100","","36","","13","","1.6","","97.84","","","","","","Rain,Fog"
"1960-03-31 08:00","1960","03","31","08:00","5.6","","5.0","","98","","36","","23","","3.2","","97.86","","","","","","Rain,Fog"
"1960-03-31 09:00","1960","03","31","09:00","3.9","","3.3","","97","","36","","29","","11.3","","97.95","","","","","","Rain Showers"
"1960-03-31 10:00","1960","03","31","10:00","2.8","","2.2","","97","","36","","26","","14.5","","98.05","","","","","","Rain Showers"
"1960-03-31 11:00","1960","03","31","11:00","2.8","","2.2","","95","","36","","21","","6.4","","98.14","","","","","","Rain Showers"
"1960-03-31 12:00","1960","03","31","12:00","2.2","","1.7","","95","","34","","24","","6.4","","98.17","","","","","","Rain Showers,Fog"
"1960-03-31 13:00","1960","03","31","13:00","2.2","","1.7","","97","","34","","21","","9.7","","98.23","","","","","","Rain,Fog"
"1960-03-31 14:00","1960","03","31","14:00","1.7","","1.1","","97","","34","","23","","8.0","","98.30","","","","","","Rain,Fog"
"1960-03-31 15:00","1960","03","31","15:00","1.7","","1.1","","94","","34","","26","","11.3","","98.38","","","","","","Rain"
"1960-03-31 16:00","1960","03","31","16:00","0.6","","0.0","","97","","36","","26","","6.4","","98.46","","","","","","Rain,Drizzle,Fog"
"1960-03-31 17:00","1960","03","31","17:00","0.6","","0.0","","97","","36","","21","","12.9","","98.59","","","","","","Rain"
"1960-03-31 18:00","1960","03","31","18:00","0.0","","-0.6","","94","","36","","21","","12.9","","98.70","","","","-5","","Rain"
"1960-03-31 19:00","1960","03","31","19:00","0.0","","-0.6","","97","","36","","23","","9.7","","98.79","","","","-6","","Drizzle,Fog"
"1960-03-31 20:00","1960","03","31","20:00","-0.6","","-1.1","","97","","36","","19","","9.7","","98.87","","","","-6","","Freezing Drizzle,Fog"
"1960-03-31 21:00","1960","03","31","21:00","0.0","","-0.6","","97","","34","","19","","12.9","","98.99","","","","-5","","Freezing Drizzle"
"1960-03-31 22:00","1960","03","31","22:00","0.0","","-0.6","","97","","36","","16","","8.0","","99.04","","","","-5","","Freezing Drizzle,Fog"
"1960-03-31 23:00","1960","03","31","23:00","0.0","","-0.6","","97","","36","","10","","4.8","","99.08","","","","-3","","Freezing Drizzle,Fog"
