"Station Name","TORONTO LESTER B. PEARSON INT'L A"
"Province","ONTARIO"
"Latitude","43.68"
"Longitude","-79.63"
"Elevation","173.40"
"Climate Identifier","6158733"
"WMO Identifier","71624"
"TC Identifier","YYZ"
"All times are specified in Local Standard Time (LST). Add 1 hour to adjust for Daylight Saving Time where and when it is observed."

"Legend"
"E","Estimated"
"M","Missing"
"NA","Not Available"

"Date/Time","Year","Month","Day","Time","Temp (°C)","Temp Flag","Dew Point Temp (°C)","Dew Point Temp Flag","Rel Hum (%)","Rel Hum Flag","Wind Dir (10s deg)","Wind Dir Flag","Wind Spd (km/h)","Wind Spd Flag","Visibility (km)","Visibility Flag","Stn Press (kPa)","Stn Press Flag","Hmdx","Hmdx Flag","Wind Chill","Wind Chill Flag","Weather"
"1969-02-01 00:00","1969","02","01","00:00","-1.7","","-5.0","","78","","18","","10","","9.7","","99.61","","","","-5","","Haze"
"1969-02-01 01:00","1969","02","01","01:00","-1.7","","-4.4","","83","","18","","5","","8.0","","99.46","","","","-4","","Haze"
"1969-02-01 02:00","1969","02","01","02:00","-1.1","","-3.9","","81","","","","0","","9.7","","99.34","","","","","","Haze"
"1969-02-01 03:00","1969","02","01","03:00","-1.1","","-3.9","","83","","11","","11","","8.0","","99.10","","","","-5","","Haze"
"1969-02-01 04:00","1969","02","01","04:00","-0.6","","-3.3","","82","","18","","6","","8.0","","99.11","","","","-3","","Haze"
"1969-02-01 05:00","1969","02","01","05:00","-0.6","","-2.8","","85","","16","","8","","8.0","","99.01","","","","-3","","Haze"
"1969-02-01 06:00","1969","02","01","06:00","-0.6","","-2.8","","85","","11","","14","","8.0","","98.80","","","","-5","","Haze"
"1969-02-01 07:00","1969","02","01","07:00","-0.6","","-2.2","","88","","16","","5","","8.0","","98.86","","","","-2","","Haze"
"1969-02-01 08:00","1969","02","01","08:00","-0.6","","-2.8","","85","","20","","5","","6.4","","98.86","","","","-2","","Fog"
"1969-02-01 09:00","1969","02","01","09:00","0.0","","-2.2","","86","","18","","6","","6.4","","98.85","","","","-2","","Snow"
"1969-02-01 10:00","1969","02","01","10:00","0.0","","-1.7","","88","","20","","6","","4.8","","98.86","","","","-2","","Snow"
"1969-02-01 11:00","1969","02","01","11:00","0.0","","-1.1","","91","","20","","13","","3.2","","98.87","","","","-4","","Snow"
"1969-02-01 12:00","1969","02","01","12:00","0.6","","-1.7","","86","","23","","13","","4.0","","98.85","","","","","","Snow"
"1969-02-01 13:00","1969","02","01","13:00","1.1","","-1.7","","83","","27","","18","","11.3","","98.84","","","","","","Cloudy"
"1969-02-01 14:00","1969","02","01","14:00","1.1","","-2.8","","76","","27","","18","","16.1","","98.87","","","","","","Mostly Cloudy"
"1969-02-01 15:00","1969","02","01","15:00","1.1","","-3.3","","71","","27","","26","","16.1","","98.98","","","","","","Mostly Cloudy"
"1969-02-01 16:00","1969","02","01","16:00","1.1","","-1.7","","82","","27","","18","","16.1","","99.08","","","","","","Mostly Cloudy"
"1969-02-01 17:00","1969","02","01","17:00","0.0","","-1.1","","91","","27","","8","","19.3","","99.14","","","","-3","","Cloudy"
"1969-02-01 18:00","1969","02","01","18:00","-0.6","","-4.4","","76","","27","","6","","12.9","","99.20","","","","-3","","Mainly Clear"
"1969-02-01 19:00","1969","02","01","19:00","-1.1","","-3.9","","81","","23","","3","","16.1","","99.26","","","","-2","","Mainly Clear"
"1969-02-01 20:00","1969","02","01","20:00","-0.6","","-3.9","","79","","27","","5","","16.1","","99.33","","","","-2","","Cloudy"
"1969-02-01 21:00","1969","02","01","21:00","-0.6","","-3.9","","79","","27","","3","","12.9","","99.36","","","","-2","","Cloudy"
"1969-02-01 22:00","1969","02","01","22:00","-0.6","","-3.3","","82","","27","","11","","12.9","","99.42","","","","-4","","Cloudy"
"1969-02-01 23:00","1969","02","01","23:00","-0.6","","-5.6","","70","","29","","8","","19.3","","99.44","","","","-3","","Cloudy"
"1969-02-02 00:00","1969","02","02","00:00","-1.1","","-5.6","","73","","29","","6","","19.3","","99.44","","","","-3","","Cloudy"
"1969-02-02 01:00","1969","02","02","01:00","-1.1","","-5.6","","73","","29","","6","","19.3","","99.40","","","","-3","","Cloudy"
"1969-02-02 02:00","1969","02","02","02:00","-2.2","","-5.0","","82","","29","","5","","19.3","","99.44","","","","-4","","Cloudy"
"1969-02-02 03:00","1969","02","02","03:00","-1.7","","-4.4","","82","","27","","6","","19.3","","99.50","","","","-4","","Cloudy"
"1969-02-02 04:00","1969","02","02","04:00","-1.7","","-6.1","","72","","32","","5","","19.3","","99.50","","","","-4","","Cloudy"
"1969-02-02 05:00","1969","02","02","05:00","-2.2","","-6.7","","73","","","","0","","19.3","","99.52","","","","","","Cloudy"
"1969-02-02 06:00","1969","02","02","06:00","-2.2","","-6.7","","73","","25","","6","","19.3","","99.52","","","","-5","","Mostly Cloudy"
"1969-02-02 07:00","1969","02","02","07:00","-2.8","","-5.6","","82","","25","","3","","19.3","","99.57","","","","-4","","Mostly Cloudy"
"1969-02-02 08:00","1969","02","02","08:00","-2.8","","-7.8","","68","","","","0","","16.1","","99.58","","","","","","Mostly Cloudy"
"1969-02-02 09:00","1969","02","02","09:00","-3.3","","-6.7","","77","","","","0","","16.1","","99.61","","","","","","Mostly Cloudy"
"1969-02-02 10:00","1969","02","02","10:00","-1.7","","-7.2","","67","","","","0","","12.9","","99.60","","","","","","Mainly Clear"
"1969-02-02 11:00","1969","02","02","11:00","0.0","","-6.1","","63","","9","","2","","12.9","","99.55","","","","-1","","Mainly Clear"
"1969-02-02 12:00","1969","02","02","12:00","0.0","","-5.0","","69","","18","","10","","12.9","","99.46","","","","-3","","Mainly Clear"
"1969-02-02 13:00","1969","02","02","13:00","0.0","","-4.4","","71","","11","","18","","11.3","","99.36","","","","-5","","Mostly Cloudy"
"1969-02-02 14:00","1969","02","02","14:00","0.0","","-4.4","","71","","11","","13","","9.7","","99.33","","","","-4","","Haze"
"1969-02-02 15:00","1969","02","02","15:00","0.0","","-5.6","","66","","9","","16","","9.7","","99.31","","","","-5","","Haze"
"1969-02-02 16:00","1969","02","02","16:00","0.6","","-2.8","","78","","9","","13","","9.7","","99.21","","","","","","Haze"
"1969-02-02 17:00","1969","02","02","17:00","0.0","","-3.3","","77","","7","","18","","11.3","","99.15","","","","-5","","Mostly Cloudy"
"1969-02-02 18:00","1969","02","02","18:00","-0.6","","-3.3","","82","","9","","21","","8.0","","99.05","","","","-6","","Haze"
"1969-02-02 19:00","1969","02","02","19:00","0.0","","-3.3","","77","","9","","23","","12.9","","98.93","","","","-6","","Mostly Cloudy"
"1969-02-02 20:00","1969","02","02","20:00","0.0","","-3.3","","77","","9","","23","","12.9","","98.85","","","","-6","","Mainly Clear"
"1969-02-02 21:00","1969","02","02","21:00","0.6","","-2.8","","78","","9","","26","","12.9","","98.67","","","","","","Mostly Cloudy"
"1969-02-02 22:00","1969","02","02","22:00","1.1","","-2.8","","76","","9","","26","","16.1","","98.51","","","","","","Mostly Cloudy"
"1969-02-02 23:00","1969","02","02","23:00","0.6","","-2.8","","78","","9","","21","","16.1","","98.43","","","","","","Cloudy"
"1969-02-03 00:00","1969","02","03","00:00","1.1","","-2.2","","79","","7","","16","","16.1","","98.24","","","","","","Cloudy"
"1969-02-03 01:00","1969","02","03","01:00","0.0","","-1.1","","91","","7","","19","","9.7","","98.00","","","","-5","","Rain,Ice Pellets"
"1969-02-03 02:00","1969","02","03","02:00","0.6","","-0.6","","91","","9","","16","","1.6","","97.92","","","","","","Snow"
"1969-02-03 03:00","1969","02","03","03:00","0.0","","-0.6","","97","","9","","19","","0.8","","97.66","","","","-5","","Moderate Snow"
"1969-02-03 04:00","1969","02","03","04:00","0.0","","-0.6","","97","","9","","18","","1.2","","97.41","","","","-5","","Snow"
"1969-02-03 05:00","1969","02","03","05:00","0.0","","-0.6","","97","","9","","10","","0.8","","97.28","","","","-3","","Moderate Snow"
"1969-02-03 06:00","1969","02","03","06:00","0.0","","-0.6","","97","","29","","6","","1.2","","97.26","","","","-2","","Snow"
"1969-02-03 07:00","1969","02","03","07:00","0.0","","0.0","","100","","29","","16","","2.4","","97.35","","","","-5","","Snow"
"1969-02-03 08:00","1969","02","03","08:00","-1.1","","-1.7","","96","","27","","29","","8.0","","97.52","","","","-8","","Fog"
"1969-02-03 09:00","1969","02","03","09:00","-1.1","","-3.3","","84","","27","","29","","11.3","","97.61","","","","-8","","Mostly Cloudy"
"1969-02-03 10:00","1969","02","03","10:00","-0.6","","-3.3","","82","","27","","32","","11.3","","97.75","","","","-7","","Mostly Cloudy"
"1969-02-03 11:00","1969","02","03","11:00","-0.6","","-3.9","","79","","29","","39","","8.0","","97.88","","","","-8","","Snow Showers"
"1969-02-03 12:00","1969","02","03","12:00","-0.6","","-3.9","","79","","27","","37","","12.9","","97.92","","","","-8","","Mainly Clear"
"1969-02-03 13:00","1969","02","03","13:00","-1.1","","-4.4","","77","","27","","40","","8.0","","97.97","","","","-9","","Snow Showers"
"1969-02-03 14:00","1969","02","03","14:00","-2.8","","-6.7","","75","","27","","35","","11.3","","98.09","","","","-11","","Cloudy"
"1969-02-03 15:00","1969","02","03","15:00","-3.9","","-7.8","","74","","27","","35","","12.9","","98.19","","","","-12","","Mostly Cloudy"
"1969-02-03 16:00","1969","02","03","16:00","-5.0","","-8.3","","76","","27","","43","","16.1","","98.26","","","","-14","","Mostly Cloudy"
"1969-02-03 17:00","1969","02","03","17:00","-5.6","","-9.4","","75","","27","","37","","24.1","","98.38","","","","-15","","Mainly Clear"
"1969-02-03 18:00","1969","02","03","18:00","-6.7","","-11.1","","70","","27","","34","","25.0","","98.46","","","","-16","","Mainly Clear"
"1969-02-03 19:00","1969","02","03","19:00","-7.2","","-11.1","","73","","27","","37","","25.0","","98.52","","","","-17","","Mainly Clear"
"1969-02-03 20:00","1969","02","03","20:00","-7.2","","-11.7","","71","","27","","32","","25.0","","98.50","","","","-16","","Mainly Clear"
"1969-02-03 21:00","1969","02","03","21:00","-7.8","","-11.7","","72","","27","","35","","25.0","","98.54","","","","-17","","Mainly Clear"
"1969-02-03 22:00","1969","02","03","22:00","-7.8","","-12.2","","69","","27","","31","","25.0","","98.56","","","","-17","","Mostly Cloudy"
"1969-02-03 23:00","1969","02","03","23:00","-7.8","","-11.7","","74","","27","","34","","16.1","","98.56","","","","-17","","Snow Showers"
"1969-02-04 00:00","1969","02","04","00:00","-8.3","","-10.0","","87","","29","","26","","0.4","","98.63","","","","-17","","Heavy Snow,Blowing Snow"
"1969-02-04 01:00","1969","02","04","01:00","-8.9","","-11.1","","84","","29","","24","","1.6","","98.66","","","","-17","","Snow,Blowing Snow"
"1969-02-04 02:00","1969","02","04","02:00","-9.4","","-11.1","","87","","29","","21","","12.9","","98.70","","","","-17","","Snow"
"1969-02-04 03:00","1969","02","04","03:00","-8.9","","-13.3","","70","","27","","29","","25.0","","98.73","","","","-18","","Mostly Cloudy"
"1969-02-04 04:00","1969","02","04","04:00","-9.4","","-13.3","","73","","27","","32","","25.0","","98.73","","","","-19","","Mainly Clear"
"1969-02-04 05:00","1969","02","04","05:00","-9.4","","-13.3","","73","","27","","32","","25.0","","98.77","","","","-19","","Mainly Clear"
"1969-02-04 06:00","1969","02","04","06:00","-8.9","","-11.1","","83","","27","","26","","1.0","","98.81","","","","-18","","Snow"
"1969-02-04 07:00","1969","02","04","07:00","-9.4","","-11.7","","82","","29","","26","","11.3","","98.87","","","","-18","","Mostly Cloudy"
"1969-02-04 08:00","1969","02","04","08:00","-10.6","","-14.4","","74","","29","","29","","16.1","","98.94","","","","-20","","Mainly Clear"
"1969-02-04 09:00","1969","02","04","09:00","-11.1","","-16.1","","67","","29","","34","","16.1","","99.03","","","","-22","","Mainly Clear"
"1969-02-04 10:00","1969","02","04","10:00","-11.1","","-16.1","","67","","29","","29","","32.2","","99.01","","","","-21","","Mainly Clear"
"1969-02-04 11:00","1969","02","04","11:00","-10.6","","-16.1","","65","","29","","24","","32.2","","99.01","","","","-19","","Mainly Clear"
"1969-02-04 12:00","1969","02","04","12:00","-9.4","","-15.0","","63","","29","","11","","32.2","","98.93","","","","-15","","Mainly Clear"
"1969-02-04 13:00","1969","02","04","13:00","-8.9","","-13.9","","66","","29","","16","","16.1","","98.85","","","","-16","","Mostly Cloudy"
"1969-02-04 14:00","1969","02","04","14:00","-7.8","","-11.1","","78","","27","","24","","12.9","","98.70","","","","-16","","Snow Showers"
"1969-02-04 15:00","1969","02","04","15:00","-8.3","","-12.2","","72","","25","","24","","1.6","","98.60","","","","-16","","Snow Showers"
"1969-02-04 16:00","1969","02","04","16:00","-8.3","","-11.7","","75","","25","","26","","6.4","","98.53","","","","-17","","Snow Showers"
"1969-02-04 17:00","1969","02","04","17:00","-8.9","","-11.7","","79","","25","","14","","4.8","","98.53","","","","-15","","Snow"
"1969-02-04 18:00","1969","02","04","18:00","-9.4","","-13.3","","73","","25","","16","","24.1","","98.47","","","","-16","","Mainly Clear"
"1969-02-04 19:00","1969","02","04","19:00","-11.1","","-13.9","","80","","23","","19","","25.0","","98.36","","","","-19","","Mainly Clear"
"1969-02-04 20:00","1969","02","04","20:00","-11.1","","-13.9","","80","","25","","16","","25.0","","98.32","","","","-18","","Mainly Clear"
"1969-02-04 21:00","1969","02","04","21:00","-10.6","","-13.3","","79","","27","","14","","25.0","","98.24","","","","-17","","Mainly Clear"
"1969-02-04 22:00","1969","02","04","22:00","-10.0","","-13.3","","75","","27","","16","","25.0","","98.22","","","","-17","","Clear"
"1969-02-04 23:00","1969","02","04","23:00","-8.9","","-12.8","","74","","27","","26","","25.0","","98.27","","","","-18","","Mostly Cloudy"
"1969-02-05 00:00","1969","02","05","00:00","-8.3","","-12.8","","70","","32","","32","","8.0","","98.31","","","","-18","","Snow Showers"
"1969-02-05 01:00","1969","02","05","01:00","-9.4","","-13.3","","73","","32","","39","","24.1","","98.38","","","","-20","","Mainly Clear"
"1969-02-05 02:00","1969","02","05","02:00","-11.1","","-15.6","","70","","32","","32","","25.0","","98.47","","","","-21","","Clear"
"1969-02-05 03:00","1969","02","05","03:00","-12.2","","-17.8","","64","","32","","26","","25.0","","98.59","","","","-22","","Clear"
"1969-02-05 04:00","1969","02","05","04:00","-12.8","","-16.1","","77","","29","","24","","25.0","","98.63","","","","-22","","Clear"
"1969-02-05 05:00","1969","02","05","05:00","-13.9","","-17.2","","76","","27","","18","","25.0","","98.66","","","","-22","","Clear"
"1969-02-05 06:00","1969","02","05","06:00","-12.2","","-15.6","","76","","27","","24","","25.0","","98.67","","","","-21","","Clear"
"1969-02-05 07:00","1969","02","05","07:00","-11.1","","-13.9","","80","","29","","26","","25.0","","98.73","","","","-20","","Clear"
"1969-02-05 08:00","1969","02","05","08:00","-11.1","","-15.0","","72","","29","","24","","32.2","","98.79","","","","-20","","Mainly Clear"
"1969-02-05 09:00","1969","02","05","09:00","-9.4","","-14.4","","67","","29","","32","","40.2","","98.82","","","","-19","","Mainly Clear"
"1969-02-05 10:00","1969","02","05","10:00","-8.3","","-12.8","","70","","27","","34","","40.2","","98.87","","","","-18","","Mainly Clear"
"1969-02-05 11:00","1969","02","05","11:00","-7.8","","-12.2","","69","","27","","29","","16.1","","98.91","","","","-17","","Mostly Cloudy"
"1969-02-05 12:00","1969","02","05","12:00","-7.2","","-12.2","","68","","27","","35","","32.2","","98.89","","","","-16","","Mostly Cloudy"
"1969-02-05 13:00","1969","02","05","13:00","-6.7","","-11.1","","69","","27","","35","","32.2","","98.90","","","","-16","","Mainly Clear"
"1969-02-05 14:00","1969","02","05","14:00","-6.1","","-10.0","","75","","27","","45","","16.1","","98.86","","","","-16","","Mainly Clear"
"1969-02-05 15:00","1969","02","05","15:00","-6.7","","-9.4","","82","","27","","39","","12.9","","98.93","","","","-16","","Mainly Clear"
"1969-02-05 16:00","1969","02","05","16:00","-6.7","","-11.1","","70","","27","","45","","32.2","","98.96","","","","-17","","Mainly Clear"
"1969-02-05 17:00","1969","02","05","17:00","-7.2","","-10.6","","76","","27","","29","","40.2","","99.00","","","","-16","","Mainly Clear"
"1969-02-05 18:00","1969","02","05","18:00","-8.3","","-13.3","","68","","25","","21","","25.0","","99.09","","","","-16","","Mainly Clear"
"1969-02-05 19:00","1969","02","05","19:00","-8.9","","-12.8","","73","","25","","26","","25.0","","99.13","","","","-18","","Mainly Clear"
"1969-02-05 20:00","1969","02","05","20:00","-8.9","","-12.2","","76","","27","","29","","25.0","","99.13","","","","-18","","Clear"
"1969-02-05 21:00","1969","02","05","21:00","-8.9","","-12.2","","77","","25","","31","","25.0","","99.13","","","","-18","","Mainly Clear"
"1969-02-05 22:00","1969","02","05","22:00","-8.9","","-12.2","","77","","27","","23","","25.0","","99.13","","","","-17","","Mainly Clear"
"1969-02-05 23:00","1969","02","05","23:00","-9.4","","-12.8","","78","","23","","13","","25.0","","99.14","","","","-15","","Mainly Clear"
"1969-02-06 00:00","1969","02","06","00:00","-9.4","","-12.8","","76","","23","","14","","25.0","","99.13","","","","-16","","Clear"
"1969-02-06 01:00","1969","02","06","01:00","-10.0","","-13.3","","77","","25","","16","","25.0","","99.08","","","","-17","","Clear"
"1969-02-06 02:00","1969","02","06","02:00","-9.4","","-13.3","","73","","27","","13","","25.0","","99.08","","","","-15","","Mainly Clear"
"1969-02-06 03:00","1969","02","06","03:00","-9.4","","-12.8","","76","","27","","19","","25.0","","99.09","","","","-17","","Mainly Clear"
"1969-02-06 04:00","1969","02","06","04:00","-9.4","","-12.8","","76","","27","","18","","25.0","","99.10","","","","-17","","Clear"
"1969-02-06 05:00","1969","02","06","05:00","-10.0","","-13.3","","75","","25","","18","","25.0","","99.09","","","","-17","","Mostly Cloudy"
"1969-02-06 06:00","1969","02","06","06:00","-7.8","","-12.2","","71","","25","","10","","25.0","","99.11","","","","-13","","Cloudy"
"1969-02-06 07:00","1969","02","06","07:00","-6.7","","-10.0","","78","","25","","19","","25.0","","99.13","","","","-14","","Mostly Cloudy"
"1969-02-06 08:00","1969","02","06","08:00","-6.7","","-10.0","","76","","25","","16","","32.2","","99.13","","","","-13","","Snow Showers"
"1969-02-06 09:00","1969","02","06","09:00","-6.1","","-9.4","","77","","25","","14","","40.2","","99.15","","","","-12","","Snow Showers"
"1969-02-06 10:00","1969","02","06","10:00","-5.0","","-8.9","","74","","25","","19","","40.2","","99.16","","","","-11","","Mainly Clear"
"1969-02-06 11:00","1969","02","06","11:00","-3.9","","-7.8","","75","","27","","19","","40.2","","99.19","","","","-10","","Mainly Clear"
"1969-02-06 12:00","1969","02","06","12:00","-3.3","","-8.9","","66","","27","","21","","40.2","","99.18","","","","-10","","Mainly Clear"
"1969-02-06 13:00","1969","02","06","13:00","-3.3","","-8.9","","66","","29","","21","","40.2","","99.16","","","","-10","","Mainly Clear"
"1969-02-06 14:00","1969","02","06","14:00","-3.3","","-8.3","","68","","29","","18","","40.2","","99.12","","","","-9","","Mainly Clear"
"1969-02-06 15:00","1969","02","06","15:00","-3.3","","-7.2","","75","","27","","16","","32.2","","99.12","","","","-9","","Mainly Clear"
"1969-02-06 16:00","1969","02","06","16:00","-3.9","","-7.8","","74","","29","","16","","32.2","","99.14","","","","-9","","Mainly Clear"
"1969-02-06 17:00","1969","02","06","17:00","-5.0","","-8.9","","73","","29","","6","","32.2","","99.16","","","","-8","","Mainly Clear"
"1969-02-06 18:00","1969","02","06","18:00","-8.9","","-12.8","","73","","29","","13","","25.0","","99.16","","","","-15","","Mainly Clear"
"1969-02-06 19:00","1969","02","06","19:00","-8.9","","-13.9","","68","","29","","10","","25.0","","99.18","","","","-14","","Clear"
"1969-02-06 20:00","1969","02","06","20:00","-10.6","","-14.4","","74","","29","","5","","25.0","","99.19","","","","-14","","Clear"
"1969-02-06 21:00","1969","02","06","21:00","-11.1","","-13.9","","78","","27","","6","","25.0","","99.21","","","","-15","","Clear"
"1969-02-06 22:00","1969","02","06","22:00","-10.6","","-13.9","","77","","27","","6","","25.0","","99.22","","","","-14","","Clear"
"1969-02-06 23:00","1969","02","06","23:00","-15.0","","-17.8","","78","","32","","6","","25.0","","99.28","","","","-19","","Mainly Clear"
"1969-02-07 00:00","1969","02","07","00:00","-14.4","","-18.3","","71","","32","","8","","25.0","","99.33","","","","-20","","Mainly Clear"
"1969-02-07 01:00","1969","02","07","01:00","-13.9","","-17.8","","74","","34","","10","","25.0","","99.35","","","","-20","","Mainly Clear"
"1969-02-07 02:00","1969","02","07","02:00","-13.9","","-15.6","","87","","34","","6","","25.0","","99.40","","","","-18","","Mainly Clear"
"1969-02-07 03:00","1969","02","07","03:00","-16.7","","-18.3","","85","","32","","10","","25.0","","99.43","","","","-23","","Clear"
"1969-02-07 04:00","1969","02","07","04:00","-15.6","","-17.2","","86","","34","","6","","25.0","","99.45","","","","-20","","Clear"
"1969-02-07 05:00","1969","02","07","05:00","-16.1","","-17.8","","85","","32","","8","","25.0","","99.50","","","","-22","","Clear"
"1969-02-07 06:00","1969","02","07","06:00","-15.0","","-16.7","","86","","34","","8","","25.0","","99.53","","","","-20","","Clear"
"1969-02-07 07:00","1969","02","07","07:00","-14.4","","-16.1","","87","","34","","10","","25.0","","99.60","","","","-21","","Mainly Clear"
"1969-02-07 08:00","1969","02","07","08:00","-13.3","","-15.6","","84","","36","","14","","40.2","","99.64","","","","-21","","Mainly Clear"
"1969-02-07 09:00","1969","02","07","09:00","-11.7","","-15.6","","74","","36","","13","","32.2","","99.70","","","","-18","","Mainly Clear"
"1969-02-07 10:00","1969","02","07","10:00","-9.4","","-13.9","","70","","36","","6","","24.1","","99.78","","","","-13","","Mainly Clear"
"1969-02-07 11:00","1969","02","07","11:00","-7.8","","-11.7","","75","","32","","5","","24.1","","99.82","","","","-10","","Mainly Clear"
"1969-02-07 12:00","1969","02","07","12:00","-6.1","","-9.4","","78","","32","","11","","24.1","","99.83","","","","-11","","Mainly Clear"
"1969-02-07 13:00","1969","02","07","13:00","-5.6","","-11.1","","64","","32","","10","","32.2","","99.84","","","","-10","","Mainly Clear"
"1969-02-07 14:00","1969","02","07","14:00","-4.4","","-10.6","","62","","32","","8","","40.2","","99.82","","","","-8","","Mainly Clear"
"1969-02-07 15:00","1969","02","07","15:00","-3.9","","-10.0","","64","","36","","8","","40.2","","99.81","","","","-7","","Mainly Clear"
"1969-02-07 16:00","1969","02","07","16:00","-4.4","","-9.4","","67","","36","","10","","40.2","","99.84","","","","-9","","Mainly Clear"
"1969-02-07 17:00","1969","02","07","17:00","-5.6","","-10.6","","69","","32","","11","","40.2","","99.88","","","","-10","","Mainly Clear"
"1969-02-07 18:00","1969","02","07","18:00","-8.3","","-12.2","","72","","32","","13","","32.2","","99.93","","","","-14","","Mainly Clear"
"1969-02-07 19:00","1969","02","07","19:00","-8.9","","-12.8","","74","","36","","10","","32.2","","99.97","","","","-14","","Mainly Clear"
"1969-02-07 20:00","1969","02","07","20:00","-8.9","","-12.2","","76","","2","","10","","32.2","","99.95","","","","-14","","Mainly Clear"
"1969-02-07 21:00","1969","02","07","21:00","-8.3","","-13.9","","64","","36","","5","","32.2","","99.90","","","","-11","","Mainly Clear"
"1969-02-07 22:00","1969","02","07","22:00","-12.8","","-15.6","","81","","34","","6","","32.2","","99.94","","","","-17","","Mainly Clear"
"1969-02-07 23:00","1969","02","07","23:00","-13.3","","-15.6","","84","","34","","10","","32.2","","99.95","","","","-19","","Clear"
"1969-02-08 00:00","1969","02","08","00:00","-12.2","","-14.4","","85","","36","","11","","32.2","","99.90","","","","-18","","Mainly Clear"
"1969-02-08 01:00","1969","02","08","01:00","-13.3","","-15.6","","84","","32","","8","","25.0","","99.90","","","","-18","","Mainly Clear"
"1969-02-08 02:00","1969","02","08","02:00","-12.2","","-14.4","","82","","34","","13","","25.0","","99.92","","","","-19","","Mainly Clear"
"1969-02-08 03:00","1969","02","08","03:00","-11.1","","-13.9","","78","","36","","10","","25.0","","99.92","","","","-17","","Mostly Cloudy"
"1969-02-08 04:00","1969","02","08","04:00","-12.2","","-14.4","","83","","36","","13","","25.0","","99.89","","","","-19","","Mainly Clear"
"1969-02-08 05:00","1969","02","08","05:00","-11.1","","-13.9","","78","","36","","14","","25.0","","99.84","","","","-18","","Mostly Cloudy"
"1969-02-08 06:00","1969","02","08","06:00","-9.4","","-12.8","","76","","36","","10","","25.0","","99.75","","","","-15","","Mostly Cloudy"
"1969-02-08 07:00","1969","02","08","07:00","-8.3","","-11.7","","78","","36","","10","","25.0","","99.71","","","","-13","","Mostly Cloudy"
"1969-02-08 08:00","1969","02","08","08:00","-7.8","","-10.6","","79","","34","","3","","32.2","","99.72","","","","-9","","Mostly Cloudy"
"1969-02-08 09:00","1969","02","08","09:00","-6.1","","-9.4","","77","","36","","13","","16.1","","99.63","","","","-11","","Mostly Cloudy"
"1969-02-08 10:00","1969","02","08","10:00","-5.0","","-8.3","","79","","36","","10","","12.9","","99.58","","","","-9","","Mostly Cloudy"
"1969-02-08 11:00","1969","02","08","11:00","-2.8","","-6.1","","77","","7","","16","","12.9","","99.56","","","","-8","","Cloudy"
"1969-02-08 12:00","1969","02","08","12:00","-1.1","","-6.1","","70","","9","","18","","32.2","","99.42","","","","-6","","Cloudy"
"1969-02-08 13:00","1969","02","08","13:00","-1.1","","-5.0","","76","","9","","13","","32.2","","99.36","","","","-5","","Cloudy"
"1969-02-08 14:00","1969","02","08","14:00","-1.1","","-4.4","","79","","9","","18","","32.2","","99.25","","","","-6","","Cloudy"
"1969-02-08 15:00","1969","02","08","15:00","-1.1","","-5.0","","76","","9","","16","","32.2","","99.16","","","","-6","","Cloudy"
"1969-02-08 16:00","1969","02","08","16:00","-1.7","","-4.4","","81","","7","","19","","32.2","","99.09","","","","-7","","Cloudy"
"1969-02-08 17:00","1969","02","08","17:00","-1.7","","-5.0","","78","","7","","14","","32.2","","99.07","","","","-6","","Mostly Cloudy"
"1969-02-08 18:00","1969","02","08","18:00","-2.2","","-5.0","","82","","7","","19","","25.0","","99.05","","","","-8","","Cloudy"
"1969-02-08 19:00","1969","02","08","19:00","-2.2","","-5.0","","80","","7","","18","","25.0","","99.04","","","","-8","","Cloudy"
"1969-02-08 20:00","1969","02","08","20:00","-2.8","","-6.1","","79","","5","","13","","25.0","","99.01","","","","-7","","Cloudy"
"1969-02-08 21:00","1969","02","08","21:00","-3.3","","-6.1","","80","","36","","10","","25.0","","99.00","","","","-7","","Cloudy"
"1969-02-08 22:00","1969","02","08","22:00","-3.3","","-7.2","","76","","36","","13","","25.0","","98.97","","","","-8","","Cloudy"
"1969-02-08 23:00","1969","02","08","23:00","-3.3","","-7.2","","76","","2","","13","","25.0","","98.94","","","","-8","","Cloudy"
"1969-02-09 00:00","1969","02","09","00:00","-3.9","","-7.2","","77","","36","","13","","25.0","","98.87","","","","-9","","Mostly Cloudy"
"1969-02-09 01:00","1969","02","09","01:00","-3.9","","-7.8","","74","","36","","19","","25.0","","98.82","","","","-10","","Mostly Cloudy"
"1969-02-09 02:00","1969","02","09","02:00","-3.9","","-7.8","","76","","36","","18","","25.0","","98.79","","","","-10","","Mostly Cloudy"
"1969-02-09 03:00","1969","02","09","03:00","-3.3","","-7.8","","70","","36","","19","","25.0","","98.81","","","","-9","","Mostly Cloudy"
"1969-02-09 04:00","1969","02","09","04:00","-3.3","","-8.3","","68","","36","","19","","25.0","","98.84","","","","-9","","Mostly Cloudy"
"1969-02-09 05:00","1969","02","09","05:00","-3.3","","-8.3","","67","","36","","16","","25.0","","98.88","","","","-9","","Mostly Cloudy"
"1969-02-09 06:00","1969","02","09","06:00","-3.9","","-7.8","","74","","36","","18","","25.0","","98.90","","","","-10","","Mostly Cloudy"
"1969-02-09 07:00","1969","02","09","07:00","-4.4","","-7.8","","77","","34","","27","","25.0","","98.98","","","","-12","","Mostly Cloudy"
"1969-02-09 08:00","1969","02","09","08:00","-5.0","","-8.9","","75","","34","","26","","32.2","","99.10","","","","-12","","Mostly Cloudy"
"1969-02-09 09:00","1969","02","09","09:00","-5.0","","-8.9","","73","","36","","23","","32.2","","99.18","","","","-12","","Mostly Cloudy"
"1969-02-09 10:00","1969","02","09","10:00","-5.6","","-10.6","","68","","34","","29","","32.2","","99.27","","","","-14","","Mainly Clear"
"1969-02-09 11:00","1969","02","09","11:00","-6.1","","-9.4","","77","","34","","31","","32.2","","99.32","","","","-15","","Mainly Clear"
"1969-02-09 12:00","1969","02","09","12:00","-5.6","","-9.4","","75","","34","","32","","32.2","","99.29","","","","-14","","Mainly Clear"
"1969-02-09 13:00","1969","02","09","13:00","-5.0","","-8.3","","76","","34","","32","","32.2","","99.29","","","","-13","","Mainly Clear"
"1969-02-09 14:00","1969","02","09","14:00","-5.6","","-9.4","","74","","34","","35","","32.2","","99.28","","","","-14","","Mainly Clear"
"1969-02-09 15:00","1969","02","09","15:00","-6.1","","-10.6","","72","","34","","40","","32.2","","99.32","","","","-16","","Clear"
"1969-02-09 16:00","1969","02","09","16:00","-6.7","","-10.0","","76","","34","","40","","32.2","","99.37","","","","-16","","Mainly Clear"
"1969-02-09 17:00","1969","02","09","17:00","-7.8","","-12.2","","71","","34","","32","","32.2","","99.46","","","","-17","","Mainly Clear"
"1969-02-09 18:00","1969","02","09","18:00","-8.9","","-12.8","","73","","34","","32","","32.2","","99.54","","","","-18","","Clear"
"1969-02-09 19:00","1969","02","09","19:00","-9.4","","-13.9","","70","","34","","29","","25.0","","99.59","","","","-19","","Clear"
"1969-02-09 20:00","1969","02","09","20:00","-10.6","","-14.4","","74","","34","","26","","25.0","","99.64","","","","-20","","Clear"
"1969-02-09 21:00","1969","02","09","21:00","-10.6","","-14.4","","74","","34","","19","","25.0","","99.70","","","","-18","","Clear"
"1969-02-09 22:00","1969","02","09","22:00","-10.6","","-15.0","","71","","34","","19","","25.0","","99.75","","","","-18","","Clear"
"1969-02-09 23:00","1969","02","09","23:00","-11.1","","-16.7","","63","","34","","19","","25.0","","99.77","","","","-19","","Clear"
"1969-02-10 00:00","1969","02","10","00:00","-12.2","","-17.8","","64","","34","","13","","25.0","","99.74","","","","-19","","Clear"
"1969-02-10 01:00","1969","02","10","01:00","-12.8","","-17.2","","70","","29","","8","","25.0","","99.76","","","","-18","","Clear"
"1969-02-10 02:00","1969","02","10","02:00","-13.9","","-18.3","","68","","29","","8","","25.0","","99.79","","","","-19","","Clear"
"1969-02-10 03:00","1969","02","10","03:00","-15.0","","-17.8","","80","","32","","11","","25.0","","99.82","","","","-22","","Clear"
"1969-02-10 04:00","1969","02","10","04:00","-14.4","","-17.8","","75","","32","","18","","25.0","","99.87","","","","-23","","Clear"
"1969-02-10 05:00","1969","02","10","05:00","-15.0","","-17.8","","78","","34","","11","","25.0","","99.89","","","","-22","","Clear"
"1969-02-10 06:00","1969","02","10","06:00","-15.0","","-17.8","","80","","34","","11","","25.0","","99.92","","","","-22","","Clear"
"1969-02-10 07:00","1969","02","10","07:00","-17.2","","-19.4","","85","","32","","13","","25.0","","99.94","","","","-25","","Mainly Clear"
"1969-02-10 08:00","1969","02","10","08:00","-16.7","","-21.7","","66","","32","","19","","40.2","","99.99","","","","-26","","Mainly Clear"
"1969-02-10 09:00","1969","02","10","09:00","-11.7","","-17.2","","64","","34","","21","","32.2","","100.03","","","","-20","","Mainly Clear"
"1969-02-10 10:00","1969","02","10","10:00","-10.6","","-16.1","","63","","32","","13","","32.2","","100.04","","","","-17","","Mainly Clear"
"1969-02-10 11:00","1969","02","10","11:00","-8.9","","-14.4","","64","","32","","5","","32.2","","100.01","","","","-12","","Mainly Clear"
"1969-02-10 12:00","1969","02","10","12:00","-7.8","","-13.9","","63","","32","","11","","32.2","","99.95","","","","-13","","Mainly Clear"
"1969-02-10 13:00","1969","02","10","13:00","-6.1","","-12.8","","59","","32","","10","","32.2","","99.85","","","","-11","","Mainly Clear"
"1969-02-10 14:00","1969","02","10","14:00","-7.2","","-16.1","","50","","27","","6","","32.2","","99.72","","","","-10","","Mainly Clear"
"1969-02-10 15:00","1969","02","10","15:00","-3.9","","-10.6","","59","","23","","5","","32.2","","99.59","","","","-6","","Mainly Clear"
"1969-02-10 16:00","1969","02","10","16:00","-3.3","","-8.3","","68","","25","","3","","40.2","","99.54","","","","-5","","Mainly Clear"
"1969-02-10 17:00","1969","02","10","17:00","-2.8","","-9.4","","59","","23","","3","","40.2","","99.49","","","","-4","","Mainly Clear"
"1969-02-10 18:00","1969","02","10","18:00","-3.9","","-9.4","","65","","20","","10","","32.2","","99.44","","","","-8","","Mainly Clear"
"1969-02-10 19:00","1969","02","10","19:00","-5.0","","-10.6","","66","","18","","10","","25.0","","99.38","","","","-9","","Mainly Clear"
"1969-02-10 20:00","1969","02","10","20:00","-5.0","","-10.0","","69","","18","","10","","25.0","","99.33","","","","-9","","Mainly Clear"
"1969-02-10 21:00","1969","02","10","21:00","-5.6","","-9.4","","74","","18","","13","","25.0","","99.21","","","","-11","","Mainly Clear"
"1969-02-10 22:00","1969","02","10","22:00","-5.0","","-7.8","","80","","18","","13","","25.0","","99.11","","","","-10","","Mostly Cloudy"
"1969-02-10 23:00","1969","02","10","23:00","-4.4","","-7.8","","78","","18","","14","","24.1","","99.04","","","","-10","","Cloudy"
"1969-02-11 00:00","1969","02","11","00:00","-5.0","","-7.2","","83","","16","","10","","19.3","","98.95","","","","-9","","Cloudy"
"1969-02-11 01:00","1969","02","11","01:00","-3.9","","-7.2","","77","","14","","11","","25.0","","98.81","","","","-8","","Cloudy"
"1969-02-11 02:00","1969","02","11","02:00","-3.3","","-6.7","","78","","14","","10","","25.0","","98.70","","","","-7","","Cloudy"
"1969-02-11 03:00","1969","02","11","03:00","-2.8","","-6.7","","74","","16","","11","","25.0","","98.60","","","","-7","","Cloudy"
"1969-02-11 04:00","1969","02","11","04:00","-2.8","","-6.7","","75","","16","","10","","25.0","","98.51","","","","-7","","Cloudy"
"1969-02-11 05:00","1969","02","11","05:00","-2.2","","-6.1","","75","","18","","10","","25.0","","98.45","","","","-6","","Cloudy"
"1969-02-11 06:00","1969","02","11","06:00","-2.2","","-5.6","","79","","18","","10","","25.0","","98.39","","","","-6","","Cloudy"
"1969-02-11 07:00","1969","02","11","07:00","-1.7","","-4.4","","83","","18","","13","","12.9","","98.33","","","","-6","","Cloudy"
"1969-02-11 08:00","1969","02","11","08:00","-1.1","","-2.8","","88","","18","","14","","6.4","","98.27","","","","-6","","Fog"
"1969-02-11 09:00","1969","02","11","09:00","-1.1","","-2.8","","90","","18","","14","","4.8","","98.22","","","","-6","","Fog"
"1969-02-11 10:00","1969","02","11","10:00","-0.6","","-2.2","","88","","18","","18","","4.8","","98.14","","","","-6","","Snow Grains,Fog"
"1969-02-11 11:00","1969","02","11","11:00","0.0","","-2.2","","86","","18","","18","","6.4","","98.07","","","","-5","","Haze"
"1969-02-11 12:00","1969","02","11","12:00","0.6","","-1.7","","84","","18","","18","","6.4","","97.98","","","","","","Haze"
"1969-02-11 13:00","1969","02","11","13:00","0.6","","-1.7","","84","","18","","16","","6.4","","97.90","","","","","","Haze"
"1969-02-11 14:00","1969","02","11","14:00","1.7","","-2.8","","73","","18","","18","","4.0","","97.84","","","","","","Snow Grains,Haze"
"1969-02-11 15:00","1969","02","11","15:00","1.1","","-1.1","","86","","20","","11","","4.8","","97.84","","","","","","Snow Grains,Haze"
"1969-02-11 16:00","1969","02","11","16:00","1.1","","-1.7","","82","","25","","13","","9.7","","97.80","","","","","","Haze"
"1969-02-11 17:00","1969","02","11","17:00","0.6","","-3.3","","75","","25","","11","","12.9","","97.82","","","","","","Mostly Cloudy"
"1969-02-11 18:00","1969","02","11","18:00","-0.6","","-3.9","","79","","23","","13","","9.7","","97.83","","","","-5","","Haze"
"1969-02-11 19:00","1969","02","11","19:00","-1.1","","-3.9","","79","","20","","11","","12.9","","97.85","","","","-5","","Mostly Cloudy"
"1969-02-11 20:00","1969","02","11","20:00","-0.6","","-2.8","","85","","23","","13","","9.7","","97.80","","","","-5","","Haze"
"1969-02-11 21:00","1969","02","11","21:00","-1.1","","-2.8","","88","","18","","8","","9.7","","97.74","","","","-4","","Fog"
"1969-02-11 22:00","1969","02","11","22:00","-1.7","","-3.3","","88","","18","","13","","4.0","","97.71","","","","-6","","Snow Showers"
"1969-02-11 23:00","1969","02","11","23:00","-1.7","","-3.9","","84","","25","","23","","2.4","","97.69","","","","-8","","Snow"
"1969-02-12 00:00","1969","02","12","00:00","-2.8","","-5.6","","82","","25","","19","","8.0","","97.71","","","","-9","","Snow"
"1969-02-12 01:00","1969","02","12","01:00","-3.3","","-6.1","","82","","27","","24","","9.7","","97.74","","","","-10","","Snow"
"1969-02-12 02:00","1969","02","12","02:00","-4.4","","-6.7","","83","","25","","18","","25.0","","97.75","","","","-10","","Mostly Cloudy"
"1969-02-12 03:00","1969","02","12","03:00","-5.0","","-7.8","","81","","25","","16","","25.0","","97.73","","","","-11","","Mainly Clear"
"1969-02-12 04:00","1969","02","12","04:00","-6.7","","-8.9","","86","","20","","6","","25.0","","97.72","","","","-10","","Mainly Clear"
"1969-02-12 05:00","1969","02","12","05:00","-6.7","","-8.9","","85","","20","","11","","25.0","","97.72","","","","-12","","Mainly Clear"
"1969-02-12 06:00","1969","02","12","06:00","-5.0","","-7.2","","83","","25","","14","","25.0","","97.72","","","","-10","","Mostly Cloudy"
"1969-02-12 07:00","1969","02","12","07:00","-3.9","","-6.7","","82","","25","","13","","25.0","","97.77","","","","-9","","Mostly Cloudy"
"1969-02-12 08:00","1969","02","12","08:00","-3.9","","-6.7","","83","","25","","14","","11.3","","97.83","","","","-9","","Cloudy"
"1969-02-12 09:00","1969","02","12","09:00","-3.9","","-5.6","","89","","25","","13","","3.2","","97.89","","","","-9","","Snow"
"1969-02-12 10:00","1969","02","12","10:00","-3.3","","-5.6","","86","","25","","13","","6.4","","97.89","","","","-8","","Snow,Haze"
"1969-02-12 11:00","1969","02","12","11:00","-2.8","","-5.0","","85","","27","","16","","24.1","","97.93","","","","-8","","Mostly Cloudy"
"1969-02-12 12:00","1969","02","12","12:00","-1.7","","-5.6","","76","","25","","16","","16.1","","97.94","","","","-7","","Cloudy"
"1969-02-12 13:00","1969","02","12","13:00","-1.1","","-5.6","","72","","27","","23","","24.1","","97.93","","","","-7","","Cloudy"
"1969-02-12 14:00","1969","02","12","14:00","-1.1","","-4.4","","79","","27","","23","","24.1","","97.92","","","","-7","","Cloudy"
"1969-02-12 15:00","1969","02","12","15:00","-1.1","","-5.6","","73","","27","","19","","24.1","","97.97","","","","-6","","Mostly Cloudy"
"1969-02-12 16:00","1969","02","12","16:00","-0.6","","-5.6","","70","","25","","14","","24.1","","98.02","","","","-5","","Mostly Cloudy"
"1969-02-12 17:00","1969","02","12","17:00","-2.2","","-3.9","","89","","32","","10","","9.7","","98.13","","","","-6","","Snow Showers"
"1969-02-12 18:00","1969","02","12","18:00","-3.3","","-5.6","","86","","34","","26","","12.9","","98.26","","","","-10","","Snow Showers"
"1969-02-12 19:00","1969","02","12","19:00","-5.0","","-8.9","","74","","32","","24","","25.0","","98.36","","","","-12","","Mostly Cloudy"
"1969-02-12 20:00","1969","02","12","20:00","-6.7","","-10.6","","73","","32","","24","","25.0","","98.41","","","","-14","","Mostly Cloudy"
"1969-02-12 21:00","1969","02","12","21:00","-7.8","","-11.7","","74","","32","","23","","25.0","","98.47","","","","-16","","Mainly Clear"
"1969-02-12 22:00","1969","02","12","22:00","-7.8","","-11.7","","74","","29","","18","","24.1","","98.53","","","","-15","","Mostly Cloudy"
"1969-02-12 23:00","1969","02","12","23:00","-8.3","","-12.2","","74","","29","","23","","24.1","","98.55","","","","-16","","Snow Showers"
"1969-02-13 00:00","1969","02","13","00:00","-8.9","","-11.7","","80","","29","","16","","4.8","","98.60","","","","-16","","Snow Showers"
"1969-02-13 01:00","1969","02","13","01:00","-8.3","","-11.7","","75","","32","","19","","12.9","","98.68","","","","-16","","Mostly Cloudy"
"1969-02-13 02:00","1969","02","13","02:00","-8.9","","-12.2","","77","","32","","24","","4.8","","98.74","","","","-17","","Snow Showers"
"1969-02-13 03:00","1969","02","13","03:00","-10.0","","-12.8","","80","","32","","18","","8.0","","98.80","","","","-17","","Snow Showers"
"1969-02-13 04:00","1969","02","13","04:00","-10.0","","-12.8","","80","","34","","29","","8.0","","98.85","","","","-19","","Snow Showers"
"1969-02-13 05:00","1969","02","13","05:00","-10.6","","-12.8","","82","","32","","32","","9.7","","98.93","","","","-21","","Snow Showers"
"1969-02-13 06:00","1969","02","13","06:00","-11.1","","-14.4","","77","","32","","31","","25.0","","99.01","","","","-21","","Mostly Cloudy"
"1969-02-13 07:00","1969","02","13","07:00","-11.7","","-15.6","","74","","32","","32","","25.0","","99.12","","","","-22","","Mostly Cloudy"
"1969-02-13 08:00","1969","02","13","08:00","-12.2","","-15.0","","78","","32","","23","","32.2","","99.25","","","","-21","","Mostly Cloudy"
"1969-02-13 09:00","1969","02","13","09:00","-12.8","","-15.6","","81","","32","","29","","24.1","","99.32","","","","-23","","Mostly Cloudy"
"1969-02-13 10:00","1969","02","13","10:00","-12.2","","-16.1","","73","","32","","29","","24.1","","99.39","","","","-22","","Mostly Cloudy"
"1969-02-13 11:00","1969","02","13","11:00","-11.7","","-15.6","","72","","32","","26","","24.1","","99.49","","","","-21","","Mostly Cloudy"
"1969-02-13 12:00","1969","02","13","12:00","-10.6","","-15.0","","71","","32","","32","","24.1","","99.54","","","","-21","","Mostly Cloudy"
"1969-02-13 13:00","1969","02","13","13:00","-10.0","","-15.6","","64","","32","","26","","24.1","","99.58","","","","-19","","Mainly Clear"
"1969-02-13 14:00","1969","02","13","14:00","-8.9","","-12.8","","74","","32","","26","","24.1","","99.60","","","","-18","","Mainly Clear"
"1969-02-13 15:00","1969","02","13","15:00","-9.4","","-15.0","","63","","29","","32","","24.1","","99.68","","","","-19","","Mainly Clear"
"1969-02-13 16:00","1969","02","13","16:00","-9.4","","-15.0","","63","","29","","29","","24.1","","99.74","","","","-19","","Mainly Clear"
"1969-02-13 17:00","1969","02","13","17:00","-10.0","","-15.0","","68","","29","","26","","24.1","","99.81","","","","-19","","Mainly Clear"
"1969-02-13 18:00","1969","02","13","18:00","-11.1","","-16.1","","67","","29","","18","","24.1","","99.89","","","","-19","","Clear"
"1969-02-13 19:00","1969","02","13","19:00","-12.2","","-17.2","","68","","27","","11","","25.0","","99.98","","","","-18","","Clear"
"1969-02-13 20:00","1969","02","13","20:00","-12.2","","-15.6","","75","","29","","19","","25.0","","99.99","","","","-20","","Clear"
"1969-02-13 21:00","1969","02","13","21:00","-12.2","","-15.6","","75","","32","","19","","25.0","","100.05","","","","-20","","Clear"
"1969-02-13 22:00","1969","02","13","22:00","-13.9","","-17.8","","74","","29","","14","","25.0","","100.12","","","","-21","","Clear"
"1969-02-13 23:00","1969","02","13","23:00","-13.9","","-17.8","","72","","27","","16","","25.0","","100.12","","","","-22","","Clear"
"1969-02-14 00:00","1969","02","14","00:00","-14.4","","-17.8","","75","","29","","13","","25.0","","100.19","","","","-22","","Clear"
"1969-02-14 01:00","1969","02","14","01:00","-15.6","","-18.3","","79","","32","","10","","25.0","","100.24","","","","-22","","Clear"
"1969-02-14 02:00","1969","02","14","02:00","-15.6","","-17.2","","86","","29","","6","","25.0","","100.32","","","","-20","","Clear"
"1969-02-14 03:00","1969","02","14","03:00","-15.6","","-17.8","","84","","32","","18","","25.0","","100.35","","","","-24","","Clear"
"1969-02-14 04:00","1969","02","14","04:00","-16.1","","-18.9","","81","","32","","13","","25.0","","100.41","","","","-24","","Clear"
"1969-02-14 05:00","1969","02","14","05:00","-17.8","","-20.0","","84","","29","","13","","25.0","","100.48","","","","-26","","Clear"
"1969-02-14 06:00","1969","02","14","06:00","-17.2","","-19.4","","85","","32","","14","","25.0","","100.54","","","","-25","","Clear"
"1969-02-14 07:00","1969","02","14","07:00","-16.7","","-19.4","","80","","32","","11","","25.0","","100.61","","","","-24","","Mainly Clear"
"1969-02-14 08:00","1969","02","14","08:00","-16.1","","-18.9","","81","","34","","21","","40.2","","100.64","","","","-26","","Mainly Clear"
"1969-02-14 09:00","1969","02","14","09:00","-14.4","","-17.2","","79","","34","","31","","24.1","","100.67","","","","-25","","Clear"
"1969-02-14 10:00","1969","02","14","10:00","-13.3","","-15.6","","84","","34","","32","","24.1","","100.70","","","","-24","","Clear"
"1969-02-14 11:00","1969","02","14","11:00","-11.7","","-14.4","","79","","32","","19","","24.1","","100.79","","","","-20","","Mainly Clear"
"1969-02-14 12:00","1969","02","14","12:00","-10.6","","-15.6","","68","","34","","16","","24.1","","100.80","","","","-18","","Clear"
"1969-02-14 13:00","1969","02","14","13:00","-10.0","","-13.9","","72","","32","","24","","24.1","","100.71","","","","-19","","Clear"
"1969-02-14 14:00","1969","02","14","14:00","-8.3","","-13.9","","65","","32","","26","","24.1","","100.69","","","","-17","","Clear"
"1969-02-14 15:00","1969","02","14","15:00","-7.8","","-13.3","","65","","32","","16","","32.2","","100.71","","","","-14","","Clear"
"1969-02-14 16:00","1969","02","14","16:00","-7.2","","-12.2","","67","","34","","21","","32.2","","100.69","","","","-15","","Clear"
"1969-02-14 17:00","1969","02","14","17:00","-7.8","","-12.8","","67","","34","","10","","32.2","","100.72","","","","-13","","Clear"
"1969-02-14 18:00","1969","02","14","18:00","-8.9","","-13.9","","68","","34","","11","","32.2","","100.76","","","","-14","","Mainly Clear"
"1969-02-14 19:00","1969","02","14","19:00","-10.0","","-14.4","","71","","34","","13","","25.0","","100.84","","","","-16","","Clear"
"1969-02-14 20:00","1969","02","14","20:00","-11.7","","-14.4","","79","","36","","13","","25.0","","100.87","","","","-18","","Clear"
"1969-02-14 21:00","1969","02","14","21:00","-12.8","","-15.6","","79","","29","","13","","25.0","","100.85","","","","-20","","Clear"
"1969-02-14 22:00","1969","02","14","22:00","-13.3","","-16.7","","76","","32","","16","","25.0","","100.85","","","","-21","","Clear"
"1969-02-14 23:00","1969","02","14","23:00","-13.9","","-16.1","","83","","29","","13","","25.0","","100.89","","","","-21","","Clear"
"1969-02-15 00:00","1969","02","15","00:00","-11.7","","-14.4","","79","","32","","19","","25.0","","100.89","","","","-20","","Clear"
"1969-02-15 01:00","1969","02","15","01:00","-10.0","","-14.4","","71","","34","","27","","25.0","","100.86","","","","-19","","Clear"
"1969-02-15 02:00","1969","02","15","02:00","-10.0","","-13.3","","75","","34","","26","","25.0","","100.79","","","","-19","","Clear"
"1969-02-15 03:00","1969","02","15","03:00","-11.1","","-14.4","","75","","32","","18","","25.0","","100.78","","","","-19","","Clear"
"1969-02-15 04:00","1969","02","15","04:00","-12.2","","-15.0","","80","","32","","18","","25.0","","100.75","","","","-20","","Clear"
"1969-02-15 05:00","1969","02","15","05:00","-12.2","","-15.0","","78","","34","","19","","25.0","","100.74","","","","-20","","Clear"
"1969-02-15 06:00","1969","02","15","06:00","-12.2","","-15.6","","75","","34","","13","","25.0","","100.75","","","","-19","","Clear"
"1969-02-15 07:00","1969","02","15","07:00","-12.8","","-16.1","","77","","34","","13","","32.2","","100.73","","","","-20","","Mainly Clear"
"1969-02-15 08:00","1969","02","15","08:00","-13.3","","-16.1","","78","","32","","11","","40.2","","100.76","","","","-20","","Mainly Clear"
"1969-02-15 09:00","1969","02","15","09:00","-11.1","","-15.0","","72","","32","","8","","40.2","","100.81","","","","-16","","Mainly Clear"
"1969-02-15 10:00","1969","02","15","10:00","-10.0","","-14.4","","69","","32","","16","","40.2","","100.80","","","","-17","","Mainly Clear"
"1969-02-15 11:00","1969","02","15","11:00","-8.3","","-13.3","","68","","34","","19","","40.2","","100.75","","","","-16","","Mainly Clear"
"1969-02-15 12:00","1969","02","15","12:00","-7.8","","-12.8","","68","","32","","19","","40.2","","100.67","","","","-15","","Mainly Clear"
"1969-02-15 13:00","1969","02","15","13:00","-6.7","","-12.2","","65","","34","","23","","40.2","","100.54","","","","-14","","Mainly Clear"
"1969-02-15 14:00","1969","02","15","14:00","-6.1","","-11.1","","67","","34","","19","","40.2","","100.38","","","","-13","","Mainly Clear"
"1969-02-15 15:00","1969","02","15","15:00","-5.0","","-10.6","","66","","36","","23","","40.2","","100.29","","","","-12","","Mostly Cloudy"
"1969-02-15 16:00","1969","02","15","16:00","-5.6","","-10.6","","68","","36","","18","","40.2","","100.30","","","","-12","","Mostly Cloudy"
"1969-02-15 17:00","1969","02","15","17:00","-6.1","","-9.4","","78","","34","","16","","40.2","","100.32","","","","-12","","Mostly Cloudy"
"1969-02-15 18:00","1969","02","15","18:00","-7.2","","-11.7","","69","","32","","18","","40.2","","100.31","","","","-14","","Mostly Cloudy"
"1969-02-15 19:00","1969","02","15","19:00","-7.8","","-12.2","","71","","34","","18","","25.0","","100.31","","","","-15","","Mainly Clear"
"1969-02-15 20:00","1969","02","15","20:00","-10.0","","-13.3","","75","","34","","11","","25.0","","100.27","","","","-16","","Mainly Clear"
"1969-02-15 21:00","1969","02","15","21:00","-8.9","","-12.8","","74","","34","","19","","25.0","","100.22","","","","-16","","Mainly Clear"
"1969-02-15 22:00","1969","02","15","22:00","-10.0","","-13.9","","74","","34","","8","","25.0","","100.22","","","","-14","","Clear"
"1969-02-15 23:00","1969","02","15","23:00","-9.4","","-12.8","","76","","34","","18","","25.0","","100.15","","","","-17","","Clear"
"1969-02-16 00:00","1969","02","16","00:00","-9.4","","-12.8","","76","","36","","14","","25.0","","100.09","","","","-16","","Clear"
"1969-02-16 01:00","1969","02","16","01:00","-10.6","","-13.3","","81","","34","","14","","25.0","","100.08","","","","-17","","Clear"
"1969-02-16 02:00","1969","02","16","02:00","-10.6","","-13.3","","81","","36","","14","","25.0","","100.09","","","","-17","","Mainly Clear"
"1969-02-16 03:00","1969","02","16","03:00","-11.7","","-13.9","","82","","34","","18","","25.0","","100.03","","","","-20","","Mainly Clear"
"1969-02-16 04:00","1969","02","16","04:00","-10.6","","-12.8","","82","","","","0","","25.0","","100.06","","","","","","Mainly Clear"
"1969-02-16 05:00","1969","02","16","05:00","-11.7","","-14.4","","79","","34","","10","","25.0","","100.03","","","","-17","","Clear"
"1969-02-16 06:00","1969","02","16","06:00","-10.0","","-13.9","","74","","36","","13","","25.0","","100.01","","","","-16","","Mainly Clear"
"1969-02-16 07:00","1969","02","16","07:00","-10.6","","-13.3","","79","","36","","16","","25.0","","100.02","","","","-18","","Mostly Cloudy"
"1969-02-16 08:00","1969","02","16","08:00","-10.0","","-13.3","","75","","36","","16","","25.0","","100.03","","","","-17","","Mostly Cloudy"
"1969-02-16 09:00","1969","02","16","09:00","-8.9","","-12.8","","73","","36","","13","","40.2","","100.02","","","","-15","","Mostly Cloudy"
"1969-02-16 10:00","1969","02","16","10:00","-6.7","","-12.2","","64","","36","","14","","40.2","","99.99","","","","-12","","Mainly Clear"
"1969-02-16 11:00","1969","02","16","11:00","-4.4","","-11.1","","59","","36","","10","","40.2","","99.92","","","","-9","","Mostly Cloudy"
"1969-02-16 12:00","1969","02","16","12:00","-3.9","","-10.0","","63","","34","","11","","40.2","","99.89","","","","-8","","Mostly Cloudy"
"1969-02-16 13:00","1969","02","16","13:00","-3.3","","-9.4","","63","","36","","13","","40.2","","99.81","","","","-8","","Mainly Clear"
"1969-02-16 14:00","1969","02","16","14:00","-2.2","","-8.3","","62","","34","","14","","40.2","","99.75","","","","-7","","Mainly Clear"
"1969-02-16 15:00","1969","02","16","15:00","-1.7","","-7.2","","66","","34","","13","","40.2","","99.74","","","","-6","","Mainly Clear"
"1969-02-16 16:00","1969","02","16","16:00","-2.2","","-7.8","","67","","34","","16","","40.2","","99.71","","","","-7","","Mainly Clear"
"1969-02-16 17:00","1969","02","16","17:00","-2.8","","-8.9","","63","","34","","16","","40.2","","99.73","","","","-8","","Mainly Clear"
"1969-02-16 18:00","1969","02","16","18:00","-3.9","","-8.9","","67","","34","","18","","40.2","","99.76","","","","-10","","Mainly Clear"
"1969-02-16 19:00","1969","02","16","19:00","-5.0","","-11.7","","60","","34","","16","","25.0","","99.75","","","","-11","","Mainly Clear"
"1969-02-16 20:00","1969","02","16","20:00","-6.1","","-13.3","","57","","34","","19","","25.0","","99.72","","","","-13","","Mainly Clear"
"1969-02-16 21:00","1969","02","16","21:00","-6.7","","-12.8","","62","","36","","21","","25.0","","99.72","","","","-14","","Clear"
"1969-02-16 22:00","1969","02","16","22:00","-7.2","","-12.2","","67","","34","","21","","25.0","","99.69","","","","-15","","Clear"
"1969-02-16 23:00","1969","02","16","23:00","-7.2","","-12.2","","67","","34","","18","","25.0","","99.65","","","","-14","","Mainly Clear"
"1969-02-17 00:00","1969","02","17","00:00","-7.8","","-11.7","","72","","34","","16","","25.0","","99.65","","","","-14","","Clear"
"1969-02-17 01:00","1969","02","17","01:00","-8.9","","-12.2","","77","","32","","16","","25.0","","99.67","","","","-16","","Mainly Clear"
"1969-02-17 02:00","1969","02","17","02:00","-10.6","","-13.3","","81","","34","","16","","25.0","","99.69","","","","-18","","Mainly Clear"
"1969-02-17 03:00","1969","02","17","03:00","-11.7","","-15.6","","72","","34","","19","","25.0","","99.68","","","","-20","","Clear"
"1969-02-17 04:00","1969","02","17","04:00","-10.0","","-12.8","","78","","36","","2","","25.0","","99.71","","","","-11","","Clear"
"1969-02-17 05:00","1969","02","17","05:00","-10.0","","-12.8","","78","","34","","6","","25.0","","99.72","","","","-14","","Clear"
"1969-02-17 06:00","1969","02","17","06:00","-11.1","","-14.4","","77","","29","","5","","25.0","","99.77","","","","-14","","Clear"
"1969-02-17 07:00","1969","02","17","07:00","-10.0","","-12.8","","78","","34","","5","","16.1","","99.79","","","","-13","","Mainly Clear"
"1969-02-17 08:00","1969","02","17","08:00","-11.1","","-13.9","","81","","32","","8","","24.1","","99.84","","","","-16","","Mainly Clear"
"1969-02-17 09:00","1969","02","17","09:00","-8.3","","-12.2","","72","","36","","10","","12.9","","99.83","","","","-13","","Mainly Clear"
"1969-02-17 10:00","1969","02","17","10:00","-5.6","","-11.7","","62","","36","","11","","16.1","","99.82","","","","-10","","Mainly Clear"
"1969-02-17 11:00","1969","02","17","11:00","-3.9","","-11.1","","57","","34","","11","","24.1","","99.82","","","","-8","","Mainly Clear"
"1969-02-17 12:00","1969","02","17","12:00","-1.7","","-7.8","","62","","34","","6","","40.2","","99.81","","","","-4","","Mainly Clear"
"1969-02-17 13:00","1969","02","17","13:00","0.0","","-5.0","","69","","32","","5","","40.2","","99.79","","","","-2","","Mainly Clear"
"1969-02-17 14:00","1969","02","17","14:00","0.6","","-8.9","","49","","","","0","","40.2","","99.75","","","","","","Mainly Clear"
"1969-02-17 15:00","1969","02","17","15:00","0.6","","-11.1","","41","","","","0","","40.2","","99.73","","","","","","Mainly Clear"
"1969-02-17 16:00","1969","02","17","16:00","1.1","","-10.0","","43","","","","0","","40.2","","99.74","","","","","","Mainly Clear"
"1969-02-17 17:00","1969","02","17","17:00","1.1","","-10.0","","43","","","","0","","40.2","","99.77","","","","","","Mostly Cloudy"
"1969-02-17 18:00","1969","02","17","18:00","0.0","","-13.9","","34","","","","0","","40.2","","99.81","","","","","","Mostly Cloudy"
"1969-02-17 19:00","1969","02","17","19:00","-1.7","","-12.2","","45","","18","","3","","25.0","","99.85","","","","-3","","Mostly Cloudy"
"1969-02-17 20:00","1969","02","17","20:00","-1.7","","-8.9","","57","","18","","5","","25.0","","99.87","","","","-4","","Mostly Cloudy"
"1969-02-17 21:00","1969","02","17","21:00","-2.8","","-8.9","","63","","20","","3","","25.0","","99.89","","","","-4","","Mainly Clear"
"1969-02-17 22:00","1969","02","17","22:00","-3.9","","-9.4","","65","","25","","3","","25.0","","99.88","","","","-5","","Mostly Cloudy"
"1969-02-17 23:00","1969","02","17","23:00","-5.6","","-10.6","","67","","29","","6","","25.0","","99.90","","","","-8","","Mainly Clear"
"1969-02-18 00:00","1969","02","18","00:00","-6.7","","-11.7","","68","","32","","3","","25.0","","99.93","","","","-8","","Clear"
"1969-02-18 01:00","1969","02","18","01:00","-6.7","","-10.6","","73","","34","","6","","25.0","","99.94","","","","-10","","Clear"
"1969-02-18 02:00","1969","02","18","02:00","-8.9","","-11.7","","79","","32","","10","","25.0","","99.94","","","","-14","","Clear"
"1969-02-18 03:00","1969","02","18","03:00","-10.6","","-12.8","","84","","32","","8","","25.0","","99.94","","","","-15","","Clear"
"1969-02-18 04:00","1969","02","18","04:00","-10.0","","-12.2","","84","","32","","6","","25.0","","99.94","","","","-14","","Clear"
"1969-02-18 05:00","1969","02","18","05:00","-10.6","","-12.8","","85","","32","","10","","25.0","","99.96","","","","-16","","Clear"
"1969-02-18 06:00","1969","02","18","06:00","-10.6","","-12.2","","87","","32","","10","","25.0","","99.98","","","","-16","","Clear"
"1969-02-18 07:00","1969","02","18","07:00","-10.0","","-11.7","","86","","32","","6","","25.0","","100.02","","","","-14","","Mainly Clear"
"1969-02-18 08:00","1969","02","18","08:00","-8.9","","-10.6","","86","","34","","10","","12.9","","100.06","","","","-14","","Mainly Clear"
"1969-02-18 09:00","1969","02","18","09:00","-7.2","","-8.9","","88","","32","","5","","9.7","","100.08","","","","-10","","Smoke,Haze"
"1969-02-18 10:00","1969","02","18","10:00","-4.4","","-6.7","","83","","36","","3","","12.9","","100.09","","","","-6","","Mostly Cloudy"
"1969-02-18 11:00","1969","02","18","11:00","-2.8","","-5.6","","80","","36","","8","","16.1","","100.10","","","","-6","","Cloudy"
"1969-02-18 12:00","1969","02","18","12:00","-1.1","","-4.4","","79","","36","","6","","16.1","","100.10","","","","-3","","Cloudy"
"1969-02-18 13:00","1969","02","18","13:00","0.0","","-3.3","","77","","36","","6","","16.1","","100.04","","","","-2","","Mostly Cloudy"
"1969-02-18 14:00","1969","02","18","14:00","0.6","","-3.3","","75","","36","","3","","19.3","","100.01","","","","","","Mostly Cloudy"
"1969-02-18 15:00","1969","02","18","15:00","0.6","","-4.4","","70","","","","0","","19.3","","99.99","","","","","","Snow Showers"
"1969-02-18 16:00","1969","02","18","16:00","1.1","","-3.3","","71","","36","","6","","19.3","","100.02","","","","","","Mostly Cloudy"
"1969-02-18 17:00","1969","02","18","17:00","0.0","","-3.3","","80","","34","","11","","11.3","","100.04","","","","-4","","Snow Showers"
"1969-02-18 18:00","1969","02","18","18:00","0.0","","-2.2","","86","","34","","8","","16.1","","100.06","","","","-3","","Mostly Cloudy"
"1969-02-18 19:00","1969","02","18","19:00","-0.6","","-2.2","","88","","32","","8","","24.1","","100.08","","","","-3","","Mostly Cloudy"
"1969-02-18 20:00","1969","02","18","20:00","-1.1","","-2.8","","87","","32","","10","","25.0","","100.08","","","","-5","","Mostly Cloudy"
"1969-02-18 21:00","1969","02","18","21:00","-1.1","","-3.3","","84","","34","","10","","25.0","","100.08","","","","-5","","Mostly Cloudy"
"1969-02-18 22:00","1969","02","18","22:00","-1.1","","-3.9","","80","","34","","11","","25.0","","100.11","","","","-5","","Mostly Cloudy"
"1969-02-18 23:00","1969","02","18","23:00","-1.7","","-4.4","","80","","34","","13","","25.0","","100.14","","","","-6","","Mostly Cloudy"
"1969-02-19 00:00","1969","02","19","00:00","-2.8","","-5.0","","85","","34","","14","","25.0","","100.14","","","","-8","","Mainly Clear"
"1969-02-19 01:00","1969","02","19","01:00","-5.0","","-6.7","","87","","32","","13","","25.0","","100.13","","","","-10","","Mainly Clear"
"1969-02-19 02:00","1969","02","19","02:00","-5.6","","-7.8","","86","","32","","13","","25.0","","100.16","","","","-11","","Mainly Clear"
"1969-02-19 03:00","1969","02","19","03:00","-6.7","","-8.9","","85","","32","","11","","25.0","","100.15","","","","-12","","Mostly Cloudy"
"1969-02-19 04:00","1969","02","19","04:00","-7.2","","-9.4","","85","","34","","10","","25.0","","100.18","","","","-12","","Mostly Cloudy"
"1969-02-19 05:00","1969","02","19","05:00","-7.2","","-8.9","","88","","32","","11","","25.0","","100.19","","","","-12","","Mostly Cloudy"
"1969-02-19 06:00","1969","02","19","06:00","-6.7","","-7.8","","90","","34","","16","","25.0","","100.21","","","","-13","","Cloudy"
"1969-02-19 07:00","1969","02","19","07:00","-7.2","","-8.3","","91","","32","","14","","8.0","","100.25","","","","-13","","Fog"
"1969-02-19 08:00","1969","02","19","08:00","-6.7","","-8.3","","89","","36","","16","","9.7","","100.29","","","","-13","","Fog"
"1969-02-19 09:00","1969","02","19","09:00","-4.4","","-6.7","","84","","36","","19","","9.7","","100.29","","","","-11","","Fog"
"1969-02-19 10:00","1969","02","19","10:00","-3.3","","-6.1","","81","","34","","23","","12.9","","100.30","","","","-10","","Mostly Cloudy"
"1969-02-19 11:00","1969","02","19","11:00","-1.7","","-5.6","","76","","34","","23","","16.1","","100.32","","","","-8","","Mostly Cloudy"
"1969-02-19 12:00","1969","02","19","12:00","-1.1","","-4.4","","79","","34","","21","","16.1","","100.29","","","","-7","","Mostly Cloudy"
"1969-02-19 13:00","1969","02","19","13:00","0.0","","-3.9","","74","","34","","19","","16.1","","100.26","","","","-5","","Mostly Cloudy"
"1969-02-19 14:00","1969","02","19","14:00","0.0","","-3.9","","74","","34","","23","","16.1","","100.24","","","","-6","","Mostly Cloudy"
"1969-02-19 15:00","1969","02","19","15:00","0.6","","-2.2","","81","","34","","21","","19.3","","100.23","","","","","","Mostly Cloudy"
"1969-02-19 16:00","1969","02","19","16:00","0.6","","-3.9","","73","","34","","24","","19.3","","100.26","","","","","","Mostly Cloudy"
"1969-02-19 17:00","1969","02","19","17:00","0.0","","-3.3","","77","","34","","19","","19.3","","100.30","","","","-5","","Mostly Cloudy"
"1969-02-19 18:00","1969","02","19","18:00","-1.1","","-6.1","","69","","34","","18","","19.3","","100.34","","","","-6","","Mostly Cloudy"
"1969-02-19 19:00","1969","02","19","19:00","-1.7","","-5.0","","79","","34","","16","","25.0","","100.34","","","","-7","","Mostly Cloudy"
"1969-02-19 20:00","1969","02","19","20:00","-2.8","","-5.6","","80","","34","","11","","25.0","","100.38","","","","-7","","Cloudy"
"1969-02-19 21:00","1969","02","19","21:00","-3.3","","-6.1","","82","","32","","11","","25.0","","100.39","","","","-8","","Cloudy"
"1969-02-19 22:00","1969","02","19","22:00","-2.8","","-6.7","","75","","34","","19","","25.0","","100.40","","","","-9","","Cloudy"
"1969-02-19 23:00","1969","02","19","23:00","-2.8","","-6.1","","78","","34","","21","","25.0","","100.41","","","","-9","","Cloudy"
"1969-02-20 00:00","1969","02","20","00:00","-2.8","","-6.1","","78","","34","","26","","25.0","","100.40","","","","-10","","Cloudy"
"1969-02-20 01:00","1969","02","20","01:00","-2.8","","-5.0","","83","","34","","14","","25.0","","100.43","","","","-8","","Cloudy"
"1969-02-20 02:00","1969","02","20","02:00","-2.8","","-6.1","","77","","34","","21","","25.0","","100.44","","","","-9","","Cloudy"
"1969-02-20 03:00","1969","02","20","03:00","-2.8","","-6.7","","76","","34","","19","","25.0","","100.43","","","","-9","","Cloudy"
"1969-02-20 04:00","1969","02","20","04:00","-3.3","","-6.1","","80","","34","","19","","25.0","","100.50","","","","-9","","Cloudy"
"1969-02-20 05:00","1969","02","20","05:00","-3.3","","-6.1","","80","","34","","18","","25.0","","100.54","","","","-9","","Cloudy"
"1969-02-20 06:00","1969","02","20","06:00","-3.9","","-7.8","","76","","34","","23","","25.0","","100.59","","","","-11","","Mostly Cloudy"
"1969-02-20 07:00","1969","02","20","07:00","-4.4","","-7.8","","78","","34","","19","","25.0","","100.64","","","","-11","","Mostly Cloudy"
"1969-02-20 08:00","1969","02","20","08:00","-4.4","","-7.8","","78","","36","","18","","19.3","","100.71","","","","-10","","Mostly Cloudy"
"1969-02-20 09:00","1969","02","20","09:00","-3.9","","-7.8","","74","","36","","19","","19.3","","100.73","","","","-10","","Mostly Cloudy"
"1969-02-20 10:00","1969","02","20","10:00","-2.8","","-6.7","","74","","34","","23","","32.2","","100.73","","","","-9","","Mostly Cloudy"
"1969-02-20 11:00","1969","02","20","11:00","-1.7","","-5.6","","76","","34","","24","","40.2","","100.75","","","","-8","","Mostly Cloudy"
"1969-02-20 12:00","1969","02","20","12:00","0.0","","-3.9","","74","","34","","24","","40.2","","100.72","","","","-6","","Mostly Cloudy"
"1969-02-20 13:00","1969","02","20","13:00","1.1","","-2.8","","74","","34","","26","","32.2","","100.68","","","","","","Mostly Cloudy"
"1969-02-20 14:00","1969","02","20","14:00","1.7","","-4.4","","64","","34","","26","","40.2","","100.64","","","","","","Mostly Cloudy"
"1969-02-20 15:00","1969","02","20","15:00","1.7","","-4.4","","64","","34","","23","","40.2","","100.61","","","","","","Mainly Clear"
"1969-02-20 16:00","1969","02","20","16:00","1.7","","-3.3","","70","","36","","27","","40.2","","100.64","","","","","","Mainly Clear"
"1969-02-20 17:00","1969","02","20","17:00","1.1","","-2.2","","79","","36","","21","","40.2","","100.68","","","","","","Mainly Clear"
"1969-02-20 18:00","1969","02","20","18:00","-0.6","","-5.0","","73","","34","","21","","32.2","","100.76","","","","-6","","Mainly Clear"
"1969-02-20 19:00","1969","02","20","19:00","-0.6","","-4.4","","76","","36","","21","","25.0","","100.78","","","","-6","","Clear"
"1969-02-20 20:00","1969","02","20","20:00","-1.7","","-5.6","","75","","34","","23","","25.0","","100.81","","","","-8","","Clear"
"1969-02-20 21:00","1969","02","20","21:00","-2.2","","-5.6","","78","","34","","24","","25.0","","100.79","","","","-9","","Clear"
"1969-02-20 22:00","1969","02","20","22:00","-2.8","","-6.1","","77","","36","","23","","25.0","","100.81","","","","-9","","Clear"
"1969-02-20 23:00","1969","02","20","23:00","-2.8","","-5.6","","81","","36","","19","","25.0","","100.81","","","","-9","","Clear"
"1969-02-21 00:00","1969","02","21","00:00","-2.8","","-6.1","","79","","36","","18","","25.0","","100.81","","","","-8","","Clear"
"1969-02-21 01:00","1969","02","21","01:00","-3.3","","-7.2","","76","","36","","18","","25.0","","100.80","","","","-9","","Clear"
"1969-02-21 02:00","1969","02","21","02:00","-3.9","","-6.7","","82","","34","","19","","25.0","","100.84","","","","-10","","Clear"
"1969-02-21 03:00","1969","02","21","03:00","-3.3","","-5.6","","84","","34","","21","","25.0","","100.86","","","","-10","","Clear"
"1969-02-21 04:00","1969","02","21","04:00","-4.4","","-6.7","","85","","34","","21","","25.0","","100.86","","","","-11","","Clear"
"1969-02-21 05:00","1969","02","21","05:00","-5.0","","-7.2","","84","","34","","16","","25.0","","100.91","","","","-11","","Clear"
"1969-02-21 06:00","1969","02","21","06:00","-5.0","","-8.3","","79","","36","","19","","25.0","","100.92","","","","-11","","Clear"
"1969-02-21 07:00","1969","02","21","07:00","-5.6","","-7.2","","89","","36","","16","","24.1","","100.94","","","","-12","","Clear"
"1969-02-21 08:00","1969","02","21","08:00","-5.0","","-6.7","","88","","36","","16","","12.9","","100.96","","","","-11","","Mainly Clear"
"1969-02-21 09:00","1969","02","21","09:00","-3.9","","-6.7","","83","","36","","18","","12.9","","101.00","","","","-10","","Mainly Clear"
"1969-02-21 10:00","1969","02","21","10:00","-1.1","","-4.4","","78","","36","","8","","12.9","","101.00","","","","-4","","Mainly Clear"
"1969-02-21 11:00","1969","02","21","11:00","1.1","","-2.8","","74","","34","","13","","12.9","","100.99","","","","","","Mainly Clear"
"1969-02-21 12:00","1969","02","21","12:00","3.3","","-3.3","","63","","7","","10","","16.1","","100.98","","","","","","Mainly Clear"
"1969-02-21 13:00","1969","02","21","13:00","3.3","","-3.3","","63","","9","","16","","19.3","","100.88","","","","","","Mostly Cloudy"
"1969-02-21 14:00","1969","02","21","14:00","3.9","","-2.2","","64","","11","","16","","40.2","","100.85","","","","","","Mostly Cloudy"
"1969-02-21 15:00","1969","02","21","15:00","2.8","","-2.2","","69","","14","","18","","40.2","","100.80","","","","","","Mostly Cloudy"
"1969-02-21 16:00","1969","02","21","16:00","2.2","","-1.7","","76","","14","","18","","40.2","","100.76","","","","","","Mostly Cloudy"
"1969-02-21 17:00","1969","02","21","17:00","1.7","","-1.7","","78","","14","","16","","40.2","","100.71","","","","","","Mostly Cloudy"
"1969-02-21 18:00","1969","02","21","18:00","0.6","","-1.7","","86","","14","","6","","32.2","","100.73","","","","","","Mainly Clear"
"1969-02-21 19:00","1969","02","21","19:00","0.0","","-2.2","","86","","9","","13","","25.0","","100.64","","","","-4","","Mainly Clear"
"1969-02-21 20:00","1969","02","21","20:00","0.0","","-1.7","","88","","36","","5","","25.0","","100.75","","","","-2","","Clear"
"1969-02-21 21:00","1969","02","21","21:00","-1.1","","-2.8","","88","","2","","10","","19.3","","100.76","","","","-5","","Clear"
"1969-02-21 22:00","1969","02","21","22:00","-1.7","","-3.3","","90","","2","","6","","25.0","","100.82","","","","-4","","Clear"
"1969-02-21 23:00","1969","02","21","23:00","-2.2","","-3.3","","91","","36","","11","","25.0","","100.82","","","","-6","","Clear"
"1969-02-22 00:00","1969","02","22","00:00","-1.7","","-3.3","","90","","2","","8","","25.0","","100.74","","","","-5","","Clear"
"1969-02-22 01:00","1969","02","22","01:00","-2.2","","-3.3","","91","","36","","8","","25.0","","100.69","","","","-5","","Clear"
"1969-02-22 02:00","1969","02","22","02:00","-2.2","","-3.3","","90","","36","","6","","25.0","","100.62","","","","-5","","Clear"
"1969-02-22 03:00","1969","02","22","03:00","-2.2","","-3.9","","89","","9","","13","","25.0","","100.47","","","","-7","","Clear"
"1969-02-22 04:00","1969","02","22","04:00","-3.3","","-5.0","","89","","9","","5","","25.0","","100.50","","","","-5","","Clear"
"1969-02-22 05:00","1969","02","22","05:00","-3.3","","-5.0","","89","","7","","10","","25.0","","100.49","","","","-7","","Mostly Cloudy"
"1969-02-22 06:00","1969","02","22","06:00","-3.3","","-5.0","","87","","9","","21","","19.3","","100.46","","","","-10","","Cloudy"
"1969-02-22 07:00","1969","02","22","07:00","-0.6","","-1.7","","93","","9","","13","","11.3","","100.44","","","","-5","","Cloudy"
"1969-02-22 08:00","1969","02","22","08:00","-1.1","","-2.2","","94","","9","","16","","6.4","","100.46","","","","-6","","Fog"
"1969-02-22 09:00","1969","02","22","09:00","-0.6","","-1.7","","93","","9","","18","","3.2","","100.42","","","","-6","","Fog"
"1969-02-22 10:00","1969","02","22","10:00","-0.6","","-1.7","","93","","9","","14","","4.0","","100.40","","","","-5","","Fog"
"1969-02-22 11:00","1969","02","22","11:00","0.0","","-1.1","","91","","7","","16","","4.8","","100.37","","","","-5","","Fog"
"1969-02-22 12:00","1969","02","22","12:00","0.6","","-1.1","","89","","7","","16","","4.8","","100.34","","","","","","Fog"
"1969-02-22 13:00","1969","02","22","13:00","0.0","","-1.1","","91","","7","","18","","4.8","","100.25","","","","-5","","Fog"
"1969-02-22 14:00","1969","02","22","14:00","-0.6","","-1.7","","93","","7","","24","","4.8","","100.20","","","","-7","","Fog"
"1969-02-22 15:00","1969","02","22","15:00","-0.6","","-1.7","","91","","9","","19","","4.8","","100.13","","","","-6","","Fog"
"1969-02-22 16:00","1969","02","22","16:00","-1.1","","-2.2","","93","","9","","24","","4.8","","100.07","","","","-7","","Fog"
"1969-02-22 17:00","1969","02","22","17:00","-0.6","","-2.2","","88","","9","","18","","4.8","","100.01","","","","-6","","Fog"
"1969-02-22 18:00","1969","02","22","18:00","0.0","","-2.2","","86","","9","","23","","6.4","","100.01","","","","-6","","Haze"
"1969-02-22 19:00","1969","02","22","19:00","0.6","","-1.7","","84","","9","","26","","8.0","","99.93","","","","","","Haze"
"1969-02-22 20:00","1969","02","22","20:00","0.6","","-1.7","","84","","9","","23","","8.0","","99.85","","","","","","Haze"
"1969-02-22 21:00","1969","02","22","21:00","1.1","","-1.7","","82","","9","","29","","8.0","","99.80","","","","","","Haze"
"1969-02-22 22:00","1969","02","22","22:00","1.1","","-1.7","","82","","9","","27","","9.7","","99.77","","","","","","Haze"
"1969-02-22 23:00","1969","02","22","23:00","0.6","","-1.1","","89","","9","","29","","11.3","","99.70","","","","","","Cloudy"
"1969-02-23 00:00","1969","02","23","00:00","0.6","","-1.7","","86","","9","","23","","12.9","","99.65","","","","","","Cloudy"
"1969-02-23 01:00","1969","02","23","01:00","0.0","","-1.7","","88","","9","","24","","19.3","","99.60","","","","-6","","Mostly Cloudy"
"1969-02-23 02:00","1969","02","23","02:00","0.0","","-2.2","","86","","9","","23","","16.1","","99.54","","","","-6","","Mostly Cloudy"
"1969-02-23 03:00","1969","02","23","03:00","0.6","","-1.1","","89","","9","","23","","16.1","","99.49","","","","","","Mostly Cloudy"
"1969-02-23 04:00","1969","02","23","04:00","0.6","","-1.7","","86","","9","","16","","16.1","","99.48","","","","","","Mostly Cloudy"
"1969-02-23 05:00","1969","02","23","05:00","0.6","","-1.7","","86","","11","","16","","16.1","","99.47","","","","","","Cloudy"
"1969-02-23 06:00","1969","02","23","06:00","0.6","","-1.7","","84","","14","","13","","11.3","","99.50","","","","","","Cloudy"
"1969-02-23 07:00","1969","02","23","07:00","0.6","","-1.7","","84","","14","","13","","4.8","","99.50","","","","","","Fog"
"1969-02-23 08:00","1969","02","23","08:00","0.6","","-1.7","","84","","11","","11","","4.8","","99.56","","","","","","Fog"
"1969-02-23 09:00","1969","02","23","09:00","0.6","","-1.7","","86","","14","","14","","4.0","","99.57","","","","","","Snow"
"1969-02-23 10:00","1969","02","23","10:00","0.0","","-0.6","","94","","11","","13","","1.6","","99.58","","","","-4","","Snow"
"1969-02-23 11:00","1969","02","23","11:00","0.0","","-0.6","","94","","9","","13","","1.6","","99.59","","","","-4","","Snow"
"1969-02-23 12:00","1969","02","23","12:00","0.0","","-0.6","","97","","11","","14","","1.6","","99.56","","","","-4","","Snow"
"1969-02-23 13:00","1969","02","23","13:00","0.6","","0.0","","94","","9","","14","","1.6","","99.47","","","","","","Snow,Fog"
"1969-02-23 14:00","1969","02","23","14:00","0.6","","0.0","","94","","11","","18","","1.6","","99.45","","","","","","Snow,Fog"
"1969-02-23 15:00","1969","02","23","15:00","0.6","","0.0","","97","","11","","16","","1.6","","99.42","","","","","","Snow,Fog"
"1969-02-23 16:00","1969","02","23","16:00","0.6","","0.0","","97","","11","","14","","1.6","","99.43","","","","","","Snow,Fog"
"1969-02-23 17:00","1969","02","23","17:00","0.6","","0.0","","94","","11","","13","","1.0","","99.46","","","","","","Snow,Fog"
"1969-02-23 18:00","1969","02","23","18:00","0.6","","0.0","","97","","11","","13","","0.8","","99.48","","","","","","Snow,Fog"
"1969-02-23 19:00","1969","02","23","19:00","0.6","","0.0","","97","","11","","10","","3.2","","99.49","","","","","","Snow,Fog"
"1969-02-23 20:00","1969","02","23","20:00","0.6","","0.0","","97","","11","","10","","2.4","","99.46","","","","","","Snow,Fog"
"1969-02-23 21:00","1969","02","23","21:00","0.6","","0.0","","97","","11","","3","","4.8","","99.45","","","","","","Snow,Fog"
"1969-02-23 22:00","1969","02","23","22:00","0.6","","0.0","","97","","11","","5","","4.8","","99.40","","","","","","Snow,Fog"
"1969-02-23 23:00","1969","02","23","23:00","0.6","","0.0","","97","","","","0","","2.4","","99.38","","","","","","Fog"
"1969-02-24 00:00","1969","02","24","00:00","0.6","","0.6","","100","","","","0","","0.8","","99.38","","","","","","Snow,Fog"
"1969-02-24 01:00","1969","02","24","01:00","0.0","","-0.6","","97","","","","0","","0.2","","99.36","","","","","","Snow,Fog"
"1969-02-24 02:00","1969","02","24","02:00","0.0","","0.0","","100","","","","0","","0.2","","99.33","","","","","","Fog"
"1969-02-24 03:00","1969","02","24","03:00","0.0","","0.0","","100","","","","0","","0.2","","99.31","","","","","","Fog"
"1969-02-24 04:00","1969","02","24","04:00","0.0","","0.0","","100","","","","0","","0.2","","99.27","","","","","","Snow,Fog"
"1969-02-24 05:00","1969","02","24","05:00","0.0","","0.0","","100","","","","0","","1.2","","99.28","","","","","","Snow,Fog"
"1969-02-24 06:00","1969","02","24","06:00","0.0","","0.0","","100","","25","","6","","3.2","","99.30","","","","-2","","Snow,Fog"
"1969-02-24 07:00","1969","02","24","07:00","0.0","","-0.6","","97","","27","","6","","4.8","","99.32","","","","-2","","Fog"
"1969-02-24 08:00","1969","02","24","08:00","0.6","","0.0","","94","","25","","5","","4.8","","99.33","","","","","","Fog"
"1969-02-24 09:00","1969","02","24","09:00","0.6","","-0.6","","91","","25","","8","","4.8","","99.35","","","","","","Fog"
"1969-02-24 10:00","1969","02","24","10:00","0.6","","-0.6","","91","","27","","19","","8.0","","99.35","","","","","","Fog"
"1969-02-24 11:00","1969","02","24","11:00","1.1","","-1.7","","82","","25","","11","","16.1","","99.38","","","","","","Cloudy"
"1969-02-24 12:00","1969","02","24","12:00","1.1","","-1.7","","82","","25","","11","","16.1","","99.37","","","","","","Cloudy"
"1969-02-24 13:00","1969","02","24","13:00","1.1","","-2.2","","79","","27","","11","","16.1","","99.30","","","","","","Cloudy"
"1969-02-24 14:00","1969","02","24","14:00","1.1","","-1.7","","82","","25","","13","","16.1","","99.28","","","","","","Cloudy"
"1969-02-24 15:00","1969","02","24","15:00","1.1","","-1.1","","86","","25","","14","","12.9","","99.27","","","","","","Cloudy"
"1969-02-24 16:00","1969","02","24","16:00","1.1","","-1.7","","82","","27","","8","","9.7","","99.29","","","","","","Haze"
"1969-02-24 17:00","1969","02","24","17:00","1.1","","-1.7","","83","","27","","14","","9.7","","99.31","","","","","","Haze"
"1969-02-24 18:00","1969","02","24","18:00","1.1","","-2.8","","76","","27","","14","","9.7","","99.33","","","","","","Haze"
"1969-02-24 19:00","1969","02","24","19:00","0.6","","-1.7","","84","","27","","16","","12.9","","99.35","","","","","","Cloudy"
"1969-02-24 20:00","1969","02","24","20:00","0.0","","-1.7","","88","","27","","10","","9.7","","99.35","","","","-3","","Haze"
"1969-02-24 21:00","1969","02","24","21:00","-0.6","","-2.8","","85","","27","","13","","12.9","","99.35","","","","-5","","Mainly Clear"
"1969-02-24 22:00","1969","02","24","22:00","-1.1","","-2.8","","89","","27","","13","","16.1","","99.32","","","","-5","","Mainly Clear"
"1969-02-24 23:00","1969","02","24","23:00","-2.2","","-3.3","","90","","29","","5","","16.1","","99.28","","","","-4","","Clear"
"1969-02-25 00:00","1969","02","25","00:00","-2.8","","-5.6","","81","","29","","10","","16.1","","99.27","","","","-7","","Mostly Cloudy"
"1969-02-25 01:00","1969","02","25","01:00","-3.3","","-4.4","","91","","27","","10","","25.0","","99.25","","","","-7","","Mainly Clear"
"1969-02-25 02:00","1969","02","25","02:00","-2.2","","-3.9","","88","","27","","13","","25.0","","99.24","","","","-7","","Mostly Cloudy"
"1969-02-25 03:00","1969","02","25","03:00","-1.7","","-3.9","","85","","27","","13","","25.0","","99.21","","","","-6","","Mostly Cloudy"
"1969-02-25 04:00","1969","02","25","04:00","-1.1","","-3.3","","86","","27","","11","","19.3","","99.19","","","","-5","","Cloudy"
"1969-02-25 05:00","1969","02","25","05:00","-1.1","","-3.3","","86","","29","","11","","19.3","","99.20","","","","-5","","Cloudy"
"1969-02-25 06:00","1969","02","25","06:00","-1.1","","-3.9","","81","","27","","13","","19.3","","99.20","","","","-5","","Mostly Cloudy"
"1969-02-25 07:00","1969","02","25","07:00","-1.1","","-3.3","","85","","29","","16","","16.1","","99.20","","","","-6","","Cloudy"
"1969-02-25 08:00","1969","02","25","08:00","-0.6","","-2.8","","85","","29","","19","","12.9","","99.22","","","","-6","","Snow Showers"
"1969-02-25 09:00","1969","02","25","09:00","0.0","","-1.1","","91","","29","","24","","9.7","","99.25","","","","-6","","Snow Showers"
"1969-02-25 10:00","1969","02","25","10:00","0.0","","-1.7","","88","","32","","26","","16.1","","99.23","","","","-6","","Snow Showers"
"1969-02-25 11:00","1969","02","25","11:00","0.0","","-2.2","","86","","34","","27","","12.9","","99.27","","","","-6","","Snow Showers"
"1969-02-25 12:00","1969","02","25","12:00","0.0","","-2.2","","86","","34","","24","","12.9","","99.28","","","","-6","","Snow Showers"
"1969-02-25 13:00","1969","02","25","13:00","0.0","","-2.8","","83","","36","","23","","12.9","","99.26","","","","-6","","Snow Showers"
"1969-02-25 14:00","1969","02","25","14:00","0.0","","-2.2","","86","","36","","23","","8.0","","99.26","","","","-6","","Snow Showers"
"1969-02-25 15:00","1969","02","25","15:00","0.0","","-2.2","","86","","36","","21","","9.7","","99.27","","","","-5","","Snow Showers"
"1969-02-25 16:00","1969","02","25","16:00","0.6","","-2.2","","81","","34","","24","","16.1","","99.28","","","","","","Cloudy"
"1969-02-25 17:00","1969","02","25","17:00","0.0","","-1.1","","91","","34","","23","","6.4","","99.32","","","","-6","","Snow Showers"
"1969-02-25 18:00","1969","02","25","18:00","0.0","","-1.7","","88","","32","","24","","9.7","","99.33","","","","-6","","Snow Showers"
"1969-02-25 19:00","1969","02","25","19:00","-0.6","","-2.8","","85","","34","","29","","25.0","","99.36","","","","-7","","Cloudy"
"1969-02-25 20:00","1969","02","25","20:00","-0.6","","-2.8","","85","","34","","21","","25.0","","99.39","","","","-6","","Cloudy"
"1969-02-25 21:00","1969","02","25","21:00","-0.6","","-2.2","","88","","34","","23","","25.0","","99.40","","","","-6","","Cloudy"
"1969-02-25 22:00","1969","02","25","22:00","-1.1","","-3.3","","85","","36","","24","","25.0","","99.37","","","","-7","","Cloudy"
"1969-02-25 23:00","1969","02","25","23:00","-1.1","","-3.3","","84","","34","","24","","25.0","","99.35","","","","-7","","Cloudy"
"1969-02-26 00:00","1969","02","26","00:00","-1.1","","-3.9","","83","","34","","23","","25.0","","99.35","","","","-7","","Cloudy"
"1969-02-26 01:00","1969","02","26","01:00","-1.7","","-3.3","","89","","34","","26","","25.0","","99.32","","","","-8","","Mainly Clear"
"1969-02-26 02:00","1969","02","26","02:00","-2.2","","-3.9","","87","","34","","23","","25.0","","99.32","","","","-8","","Mainly Clear"
"1969-02-26 03:00","1969","02","26","03:00","-2.2","","-4.4","","84","","34","","24","","25.0","","99.29","","","","-9","","Mainly Clear"
"1969-02-26 04:00","1969","02","26","04:00","-2.8","","-5.0","","84","","34","","29","","25.0","","99.29","","","","-10","","Mainly Clear"
"1969-02-26 05:00","1969","02","26","05:00","-2.8","","-5.0","","83","","34","","27","","25.0","","99.31","","","","-10","","Mainly Clear"
"1969-02-26 06:00","1969","02","26","06:00","-3.3","","-5.6","","85","","34","","29","","25.0","","99.34","","","","-11","","Mostly Cloudy"
"1969-02-26 07:00","1969","02","26","07:00","-3.3","","-5.6","","86","","34","","26","","25.0","","99.36","","","","-10","","Mostly Cloudy"
"1969-02-26 08:00","1969","02","26","08:00","-3.3","","-5.6","","84","","34","","26","","40.2","","99.38","","","","-10","","Mostly Cloudy"
"1969-02-26 09:00","1969","02","26","09:00","-2.8","","-6.1","","77","","34","","27","","40.2","","99.39","","","","-10","","Mostly Cloudy"
"1969-02-26 10:00","1969","02","26","10:00","-2.2","","-5.6","","78","","34","","32","","40.2","","99.41","","","","-10","","Mostly Cloudy"
"1969-02-26 11:00","1969","02","26","11:00","-1.7","","-4.4","","80","","34","","29","","40.2","","99.39","","","","-9","","Mostly Cloudy"
"1969-02-26 12:00","1969","02","26","12:00","-0.6","","-3.9","","79","","34","","27","","12.9","","99.38","","","","-7","","Snow Showers"
"1969-02-26 13:00","1969","02","26","13:00","-1.1","","-4.4","","79","","34","","26","","32.2","","99.35","","","","-7","","Mostly Cloudy"
"1969-02-26 14:00","1969","02","26","14:00","-1.1","","-3.9","","81","","34","","26","","19.3","","99.34","","","","-7","","Snow Showers"
"1969-02-26 15:00","1969","02","26","15:00","-1.7","","-5.0","","78","","34","","27","","32.2","","99.37","","","","-8","","Cloudy"
"1969-02-26 16:00","1969","02","26","16:00","-1.1","","-5.0","","76","","34","","26","","32.2","","99.42","","","","-7","","Cloudy"
"1969-02-26 17:00","1969","02","26","17:00","-1.7","","-5.0","","77","","36","","26","","24.1","","99.51","","","","-8","","Snow Showers"
"1969-02-26 18:00","1969","02","26","18:00","-1.7","","-4.4","","81","","34","","23","","25.0","","99.57","","","","-8","","Snow Showers"
"1969-02-26 19:00","1969","02","26","19:00","-1.7","","-4.4","","80","","36","","16","","25.0","","99.64","","","","-7","","Cloudy"
"1969-02-26 20:00","1969","02","26","20:00","-1.7","","-4.4","","82","","2","","23","","25.0","","99.68","","","","-8","","Cloudy"
"1969-02-26 21:00","1969","02","26","21:00","-1.7","","-4.4","","83","","36","","16","","6.4","","99.72","","","","-7","","Snow Showers"
"1969-02-26 22:00","1969","02","26","22:00","-2.2","","-3.9","","87","","36","","19","","25.0","","99.73","","","","-8","","Mainly Clear"
"1969-02-26 23:00","1969","02","26","23:00","-2.8","","-6.1","","78","","36","","18","","25.0","","99.75","","","","-8","","Mainly Clear"
"1969-02-27 00:00","1969","02","27","00:00","-2.8","","-5.0","","85","","36","","21","","25.0","","99.79","","","","-9","","Mostly Cloudy"
"1969-02-27 01:00","1969","02","27","01:00","-2.2","","-3.9","","87","","36","","23","","25.0","","99.83","","","","-8","","Mostly Cloudy"
"1969-02-27 02:00","1969","02","27","02:00","-2.2","","-5.0","","81","","36","","23","","25.0","","99.83","","","","-8","","Mostly Cloudy"
"1969-02-27 03:00","1969","02","27","03:00","-2.8","","-6.1","","77","","36","","24","","25.0","","99.85","","","","-9","","Mostly Cloudy"
"1969-02-27 04:00","1969","02","27","04:00","-3.3","","-6.1","","81","","36","","16","","25.0","","99.85","","","","-9","","Mostly Cloudy"
"1969-02-27 05:00","1969","02","27","05:00","-3.3","","-6.1","","82","","5","","26","","25.0","","99.92","","","","-10","","Mostly Cloudy"
"1969-02-27 06:00","1969","02","27","06:00","-3.3","","-6.1","","80","","2","","23","","25.0","","100.00","","","","-10","","Mainly Clear"
"1969-02-27 07:00","1969","02","27","07:00","-4.4","","-8.3","","75","","36","","23","","25.0","","100.07","","","","-11","","Mainly Clear"
"1969-02-27 08:00","1969","02","27","08:00","-3.9","","-6.7","","80","","2","","24","","40.2","","100.12","","","","-11","","Mainly Clear"
"1969-02-27 09:00","1969","02","27","09:00","-3.3","","-8.3","","68","","2","","27","","40.2","","100.17","","","","-10","","Mainly Clear"
"1969-02-27 10:00","1969","02","27","10:00","-2.2","","-7.2","","70","","5","","26","","40.2","","100.20","","","","-9","","Mainly Clear"
"1969-02-27 11:00","1969","02","27","11:00","-2.2","","-7.8","","67","","5","","31","","40.2","","100.24","","","","-9","","Mainly Clear"
"1969-02-27 12:00","1969","02","27","12:00","-1.7","","-6.7","","70","","5","","27","","40.2","","100.22","","","","-8","","Mainly Clear"
"1969-02-27 13:00","1969","02","27","13:00","-1.7","","-8.9","","57","","5","","21","","40.2","","100.16","","","","-8","","Mainly Clear"
"1969-02-27 14:00","1969","02","27","14:00","-1.1","","-6.7","","67","","36","","23","","40.2","","100.13","","","","-7","","Mainly Clear"
"1969-02-27 15:00","1969","02","27","15:00","-0.6","","-5.6","","70","","5","","16","","40.2","","100.13","","","","-5","","Mainly Clear"
"1969-02-27 16:00","1969","02","27","16:00","-0.6","","-5.0","","73","","36","","10","","40.2","","100.16","","","","-4","","Mainly Clear"
"1969-02-27 17:00","1969","02","27","17:00","-0.6","","-5.6","","70","","2","","16","","40.2","","100.17","","","","-5","","Mainly Clear"
"1969-02-27 18:00","1969","02","27","18:00","-1.1","","-6.7","","67","","2","","10","","32.2","","100.23","","","","-5","","Mainly Clear"
"1969-02-27 19:00","1969","02","27","19:00","-1.7","","-7.8","","64","","2","","8","","25.0","","100.26","","","","-5","","Clear"
"1969-02-27 20:00","1969","02","27","20:00","-1.7","","-7.8","","63","","","","0","","25.0","","100.30","","","","","","Clear"
"1969-02-27 21:00","1969","02","27","21:00","-2.8","","-8.9","","62","","","","0","","25.0","","100.35","","","","","","Mainly Clear"
"1969-02-27 22:00","1969","02","27","22:00","-3.9","","-9.4","","66","","36","","6","","25.0","","100.33","","","","-7","","Mostly Cloudy"
"1969-02-27 23:00","1969","02","27","23:00","-4.4","","-7.8","","77","","36","","6","","25.0","","100.29","","","","-7","","Mostly Cloudy"
"1969-02-28 00:00","1969","02","28","00:00","-5.0","","-10.0","","69","","36","","10","","25.0","","100.29","","","","-9","","Mainly Clear"
"1969-02-28 01:00","1969","02","28","01:00","-6.1","","-10.6","","72","","36","","11","","25.0","","100.27","","","","-11","","Mainly Clear"
"1969-02-28 02:00","1969","02","28","02:00","-6.7","","-9.4","","79","","34","","13","","25.0","","100.25","","","","-12","","Mostly Cloudy"
"1969-02-28 03:00","1969","02","28","03:00","-6.1","","-8.9","","80","","34","","10","","25.0","","100.20","","","","-11","","Mostly Cloudy"
"1969-02-28 04:00","1969","02","28","04:00","-6.1","","-8.3","","84","","34","","11","","25.0","","100.21","","","","-11","","Mainly Clear"
"1969-02-28 05:00","1969","02","28","05:00","-6.1","","-10.0","","75","","36","","13","","25.0","","100.24","","","","-11","","Mainly Clear"
"1969-02-28 06:00","1969","02","28","06:00","-6.7","","-9.4","","79","","36","","11","","25.0","","100.29","","","","-12","","Mainly Clear"
"1969-02-28 07:00","1969","02","28","07:00","-7.2","","-11.1","","73","","34","","13","","24.1","","100.33","","","","-13","","Mainly Clear"
"1969-02-28 08:00","1969","02","28","08:00","-6.7","","-10.6","","74","","36","","13","","32.2","","100.38","","","","-12","","Mainly Clear"
"1969-02-28 09:00","1969","02","28","09:00","-3.9","","-8.3","","73","","7","","16","","24.1","","100.39","","","","-9","","Mainly Clear"
"1969-02-28 10:00","1969","02","28","10:00","-3.3","","-7.8","","70","","5","","10","","24.1","","100.38","","","","-7","","Mainly Clear"
"1969-02-28 11:00","1969","02","28","11:00","-1.7","","-6.1","","71","","5","","8","","32.2","","100.35","","","","-5","","Mainly Clear"
"1969-02-28 12:00","1969","02","28","12:00","-1.1","","-7.2","","63","","9","","8","","32.2","","100.31","","","","-4","","Mainly Clear"
"1969-02-28 13:00","1969","02","28","13:00","-0.6","","-5.6","","67","","7","","10","","32.2","","100.21","","","","-4","","Mainly Clear"
"1969-02-28 14:00","1969","02","28","14:00","0.0","","-5.6","","66","","18","","5","","40.2","","100.15","","","","-2","","Mainly Clear"
"1969-02-28 15:00","1969","02","28","15:00","0.0","","-7.8","","55","","2","","14","","40.2","","100.13","","","","-4","","Mostly Cloudy"
"1969-02-28 16:00","1969","02","28","16:00","-0.6","","-7.2","","62","","2","","16","","40.2","","100.11","","","","-5","","Mostly Cloudy"
"1969-02-28 17:00","1969","02","28","17:00","-0.6","","-5.6","","70","","2","","16","","32.2","","100.11","","","","-5","","Mainly Clear"
"1969-02-28 18:00","1969","02","28","18:00","-1.1","","-6.1","","69","","5","","10","","32.2","","100.13","","","","-5","","Mainly Clear"
"1969-02-28 19:00","1969","02","28","19:00","-1.7","","-8.9","","59","","5","","3","","25.0","","100.12","","","","-3","","Mainly Clear"
"1969-02-28 20:00","1969","02","28","20:00","-2.2","","-7.8","","65","","","","0","","25.0","","100.12","","","","","","Mainly Clear"
"1969-02-28 21:00","1969","02","28","21:00","-3.3","","-6.7","","78","","","","0","","25.0","","100.14","","","","","","Mostly Cloudy"
"1969-02-28 22:00","1969","02","28","22:00","-2.8","","-5.6","","81","","","","0","","25.0","","100.14","","","","","","Mostly Cloudy"
"1969-02-28 23:00","1969","02","28","23:00","-2.8","","-5.0","","84","","36","","8","","25.0","","100.13","","","","-6","","Cloudy"
