"Station Name","TORONTO LESTER B. PEARSON INT'L A"
"Province","ONTARIO"
"Latitude","43.68"
"Longitude","-79.63"
"Elevation","173.40"
"Climate Identifier","6158733"
"WMO Identifier","71624"
"TC Identifier","YYZ"
"All times are specified in Local Standard Time (LST). Add 1 hour to adjust for Daylight Saving Time where and when it is observed."

"Legend"
"E","Estimated"
"M","Missing"
"NA","Not Available"

"Date/Time","Year","Month","Day","Time","Temp (°C)","Temp Flag","Dew Point Temp (°C)","Dew Point Temp Flag","Rel Hum (%)","Rel Hum Flag","Wind Dir (10s deg)","Wind Dir Flag","Wind Spd (km/h)","Wind Spd Flag","Visibility (km)","Visibility Flag","Stn Press (kPa)","Stn Press Flag","Hmdx","Hmdx Flag","Wind Chill","Wind Chill Flag","Weather"
"1956-01-01 00:00","1956","01","01","00:00","-5.6","","-8.3","","81","","25","","34","","24.1","","98.97","","","","-14","","Snow"
"1956-01-01 01:00","1956","01","01","01:00","-5.6","","-8.9","","77","","29","","23","","12.9","","99.05","","","","-13","","Snow"
"1956-01-01 02:00","1956","01","01","02:00","-5.0","","-7.8","","81","","2","","32","","25.0","","99.25","","","","-13","","Snow"
"1956-01-01 03:00","1956","01","01","03:00","-5.6","","-7.8","","84","","2","","26","","25.0","","99.37","","","","-13","","Snow"
"1956-01-01 04:00","1956","01","01","04:00","-6.1","","-8.3","","84","","2","","21","","25.0","","99.43","","","","-13","","Snow"
"1956-01-01 05:00","1956","01","01","05:00","-6.7","","-10.0","","77","","2","","21","","25.0","","99.63","","","","-14","","Snow"
"1956-01-01 06:00","1956","01","01","06:00","-7.2","","-10.0","","81","","2","","11","","25.0","","99.66","","","","-12","","Snow"
"1956-01-01 07:00","1956","01","01","07:00","-7.2","","-11.1","","74","","2","","16","","25.0","","99.82","","","","-14","","Snow"
"1956-01-01 08:00","1956","01","01","08:00","-7.8","","-10.6","","81","","5","","13","","25.0","","99.92","","","","-14","","Snow"
"1956-01-01 09:00","1956","01","01","09:00","-8.3","","-12.2","","74","","7","","16","","25.0","","100.07","","","","-15","","Mainly Clear"
"1956-01-01 10:00","1956","01","01","10:00","-8.9","","-13.3","","70","","5","","19","","25.0","","100.15","","","","-16","","Clear"
"1956-01-01 11:00","1956","01","01","11:00","-8.3","","-12.2","","74","","7","","13","","25.0","","100.20","","","","-14","","Clear"
"1956-01-01 12:00","1956","01","01","12:00","-7.2","","-12.2","","68","","9","","13","","25.0","","100.21","","","","-13","","Clear"
"1956-01-01 13:00","1956","01","01","13:00","-6.7","","-11.1","","71","","7","","16","","25.0","","100.22","","","","-13","","Clear"
"1956-01-01 14:00","1956","01","01","14:00","-6.1","","-8.9","","81","","11","","13","","25.0","","100.27","","","","-11","","Mostly Cloudy"
"1956-01-01 15:00","1956","01","01","15:00","-6.7","","-10.6","","74","","7","","16","","25.0","","100.33","","","","-13","","Snow Showers"
"1956-01-01 16:00","1956","01","01","16:00","-7.8","","-10.0","","84","","7","","18","","25.0","","100.39","","","","-15","","Mainly Clear"
"1956-01-01 17:00","1956","01","01","17:00","-8.9","","-11.1","","84","","7","","13","","24.1","","100.48","","","","-15","","Mainly Clear"
"1956-01-01 18:00","1956","01","01","18:00","-8.9","","-11.1","","84","","7","","13","","16.1","","100.54","","","","-15","","Snow Showers"
"1956-01-01 19:00","1956","01","01","19:00","-8.9","","-11.1","","84","","7","","19","","16.1","","100.59","","","","-16","","Snow Showers"
"1956-01-01 20:00","1956","01","01","20:00","-8.9","","-11.7","","80","","7","","14","","16.1","","100.60","","","","-15","","Snow Showers"
"1956-01-01 21:00","1956","01","01","21:00","-8.9","","-11.1","","84","","7","","16","","16.1","","100.59","","","","-16","","Snow Showers"
"1956-01-01 22:00","1956","01","01","22:00","-7.8","","-11.7","","74","","7","","16","","16.1","","100.58","","","","-14","","Snow Showers"
"1956-01-01 23:00","1956","01","01","23:00","-7.8","","-10.6","","81","","7","","10","","19.3","","100.60","","","","-13","","Cloudy"
"1956-01-02 00:00","1956","01","02","00:00","-6.7","","-9.4","","81","","11","","21","","24.1","","100.54","","","","-14","","Mostly Cloudy"
"1956-01-02 01:00","1956","01","02","01:00","-6.7","","-9.4","","81","","11","","21","","25.0","","100.51","","","","-14","","Mainly Clear"
"1956-01-02 02:00","1956","01","02","02:00","-6.1","","-9.4","","77","","11","","31","","25.0","","100.47","","","","-15","","Clear"
"1956-01-02 03:00","1956","01","02","03:00","-6.1","","-10.0","","74","","11","","26","","25.0","","100.41","","","","-14","","Clear"
"1956-01-02 04:00","1956","01","02","04:00","-6.1","","-10.0","","74","","11","","23","","25.0","","100.42","","","","-13","","Clear"
"1956-01-02 05:00","1956","01","02","05:00","-5.6","","-10.0","","71","","9","","24","","25.0","","100.34","","","","-13","","Mainly Clear"
"1956-01-02 06:00","1956","01","02","06:00","-5.6","","-9.4","","74","","9","","21","","25.0","","100.31","","","","-12","","Mainly Clear"
"1956-01-02 07:00","1956","01","02","07:00","-5.0","","-8.3","","77","","9","","18","","25.0","","100.32","","","","-11","","Mostly Cloudy"
"1956-01-02 08:00","1956","01","02","08:00","-8.3","","-11.7","","77","","2","","10","","25.0","","100.27","","","","-13","","Mostly Cloudy"
"1956-01-02 09:00","1956","01","02","09:00","-7.2","","-10.6","","77","","5","","16","","25.0","","100.17","","","","-14","","Mostly Cloudy"
"1956-01-02 10:00","1956","01","02","10:00","-3.3","","-6.7","","78","","9","","24","","25.0","","100.18","","","","-10","","Mostly Cloudy"
"1956-01-02 11:00","1956","01","02","11:00","-2.8","","-5.6","","81","","14","","16","","25.0","","100.09","","","","-8","","Mostly Cloudy"
"1956-01-02 12:00","1956","01","02","12:00","-2.2","","-5.0","","81","","11","","19","","25.0","","99.96","","","","-8","","Mostly Cloudy"
"1956-01-02 13:00","1956","01","02","13:00","-1.7","","-6.1","","72","","11","","23","","19.3","","99.86","","","","-8","","Mostly Cloudy"
"1956-01-02 14:00","1956","01","02","14:00","-1.7","","-5.0","","78","","11","","23","","19.3","","99.80","","","","-8","","Mostly Cloudy"
"1956-01-02 15:00","1956","01","02","15:00","-1.7","","-5.0","","78","","11","","16","","16.1","","99.77","","","","-7","","Cloudy"
"1956-01-02 16:00","1956","01","02","16:00","-1.1","","-4.4","","78","","11","","16","","1.6","","99.72","","","","-6","","Snow"
"1956-01-02 17:00","1956","01","02","17:00","-2.2","","-3.3","","92","","11","","11","","1.6","","99.68","","","","-6","","Snow"
"1956-01-02 18:00","1956","01","02","18:00","-1.7","","-2.8","","92","","16","","13","","2.4","","99.68","","","","-6","","Snow"
"1956-01-02 19:00","1956","01","02","19:00","-1.1","","-2.2","","92","","16","","18","","2.4","","99.66","","","","-6","","Snow"
"1956-01-02 20:00","1956","01","02","20:00","-0.6","","-1.1","","96","","14","","21","","2.0","","99.57","","","","-6","","Snow"
"1956-01-02 21:00","1956","01","02","21:00","0.0","","-1.1","","92","","14","","23","","2.8","","99.52","","","","-6","","Snow"
"1956-01-02 22:00","1956","01","02","22:00","0.0","","-0.6","","96","","14","","14","","2.8","","99.48","","","","-4","","Snow"
"1956-01-02 23:00","1956","01","02","23:00","0.0","","-0.6","","96","","14","","19","","2.8","","99.40","","","","-5","","Snow"
"1956-01-03 00:00","1956","01","03","00:00","0.0","","-1.1","","92","","14","","19","","1.2","","99.34","","","","-5","","Snow"
"1956-01-03 01:00","1956","01","03","01:00","0.0","","-0.6","","96","","14","","16","","0.8","","99.28","","","","-5","","Snow,Fog"
"1956-01-03 02:00","1956","01","03","02:00","0.6","","-0.6","","92","","16","","16","","2.4","","99.25","","","","","","Snow,Fog"
"1956-01-03 03:00","1956","01","03","03:00","0.6","","-0.6","","92","","16","","16","","1.2","","99.23","","","","","","Snow,Fog"
"1956-01-03 04:00","1956","01","03","04:00","0.6","","-0.6","","92","","18","","14","","0.8","","99.19","","","","","","Snow,Fog"
"1956-01-03 05:00","1956","01","03","05:00","0.6","","-0.6","","92","","20","","11","","1.2","","99.14","","","","","","Snow,Fog"
"1956-01-03 06:00","1956","01","03","06:00","0.6","","0.0","","96","","20","","11","","2.4","","99.14","","","","","","Snow,Fog"
"1956-01-03 07:00","1956","01","03","07:00","0.6","","0.0","","96","","20","","11","","2.4","","99.16","","","","","","Fog"
"1956-01-03 08:00","1956","01","03","08:00","0.6","","0.0","","96","","20","","13","","3.2","","99.17","","","","","","Snow,Fog"
"1956-01-03 09:00","1956","01","03","09:00","0.6","","0.6","","100","","20","","11","","4.0","","99.18","","","","","","Snow,Fog"
"1956-01-03 10:00","1956","01","03","10:00","0.6","","0.6","","100","","20","","8","","0.8","","99.19","","","","","","Snow,Fog"
"1956-01-03 11:00","1956","01","03","11:00","0.6","","0.6","","100","","20","","10","","1.2","","99.16","","","","","","Rain,Snow,Fog"
"1956-01-03 12:00","1956","01","03","12:00","1.1","","1.1","","100","","20","","11","","3.2","","99.06","","","","","","Rain,Fog"
"1956-01-03 13:00","1956","01","03","13:00","1.1","","0.6","","96","","20","","10","","2.8","","99.02","","","","","","Rain,Fog"
"1956-01-03 14:00","1956","01","03","14:00","1.1","","0.6","","96","","20","","11","","2.8","","99.01","","","","","","Rain,Snow,Fog"
"1956-01-03 15:00","1956","01","03","15:00","1.1","","0.6","","96","","20","","10","","2.8","","99.01","","","","","","Snow,Fog"
"1956-01-03 16:00","1956","01","03","16:00","1.1","","0.0","","92","","18","","10","","1.6","","99.04","","","","","","Snow,Fog"
"1956-01-03 17:00","1956","01","03","17:00","0.6","","0.0","","96","","18","","10","","1.6","","99.04","","","","","","Snow,Fog"
"1956-01-03 18:00","1956","01","03","18:00","0.6","","0.0","","96","","23","","13","","1.6","","99.08","","","","","","Snow,Fog"
"1956-01-03 19:00","1956","01","03","19:00","0.6","","0.0","","96","","23","","13","","2.4","","99.06","","","","","","Snow,Fog"
"1956-01-03 20:00","1956","01","03","20:00","0.6","","0.0","","96","","23","","11","","2.4","","99.06","","","","","","Snow,Fog"
"1956-01-03 21:00","1956","01","03","21:00","0.6","","0.0","","96","","23","","10","","2.4","","99.04","","","","","","Snow,Fog"
"1956-01-03 22:00","1956","01","03","22:00","0.6","","0.0","","96","","23","","10","","2.4","","99.02","","","","","","Snow,Fog"
"1956-01-03 23:00","1956","01","03","23:00","0.6","","0.0","","96","","23","","11","","2.4","","98.98","","","","","","Snow,Fog"
"1956-01-04 00:00","1956","01","04","00:00","0.6","","0.0","","96","","23","","11","","2.4","","98.97","","","","","","Snow,Fog"
"1956-01-04 01:00","1956","01","04","01:00","0.6","","0.0","","96","","23","","8","","2.4","","98.96","","","","","","Snow,Fog"
"1956-01-04 02:00","1956","01","04","02:00","0.6","","0.0","","96","","23","","11","","2.4","","98.99","","","","","","Snow,Fog"
"1956-01-04 03:00","1956","01","04","03:00","0.0","","0.0","","100","","23","","13","","4.0","","99.00","","","","-4","","Snow,Fog"
"1956-01-04 04:00","1956","01","04","04:00","0.0","","-0.6","","96","","23","","13","","4.0","","98.98","","","","-4","","Snow,Fog"
"1956-01-04 05:00","1956","01","04","05:00","0.0","","-0.6","","96","","25","","11","","4.0","","98.97","","","","-4","","Snow,Fog"
"1956-01-04 06:00","1956","01","04","06:00","0.0","","-0.6","","96","","25","","14","","4.0","","99.00","","","","-4","","Snow,Fog"
"1956-01-04 07:00","1956","01","04","07:00","0.0","","-1.1","","92","","25","","16","","6.4","","99.06","","","","-5","","Snow,Fog"
"1956-01-04 08:00","1956","01","04","08:00","0.0","","-1.1","","92","","25","","19","","6.4","","99.13","","","","-5","","Fog"
"1956-01-04 09:00","1956","01","04","09:00","0.0","","-1.1","","92","","23","","23","","2.8","","99.19","","","","-6","","Snow,Fog"
"1956-01-04 10:00","1956","01","04","10:00","0.0","","-1.1","","92","","23","","21","","3.2","","99.23","","","","-5","","Snow,Fog"
"1956-01-04 11:00","1956","01","04","11:00","0.0","","-1.7","","88","","23","","23","","3.2","","99.20","","","","-6","","Snow,Fog"
"1956-01-04 12:00","1956","01","04","12:00","0.0","","-1.1","","92","","25","","27","","1.6","","99.18","","","","-6","","Snow,Fog"
"1956-01-04 13:00","1956","01","04","13:00","0.0","","-1.7","","88","","25","","32","","3.2","","99.13","","","","-7","","Snow,Fog"
"1956-01-04 14:00","1956","01","04","14:00","0.0","","-2.2","","85","","25","","32","","6.4","","99.11","","","","-7","","Smoke,Haze"
"1956-01-04 15:00","1956","01","04","15:00","0.6","","-1.7","","85","","25","","26","","9.7","","99.19","","","","","","Smoke,Haze"
"1956-01-04 16:00","1956","01","04","16:00","0.6","","-1.7","","85","","25","","32","","9.7","","99.22","","","","","","Haze"
"1956-01-04 17:00","1956","01","04","17:00","0.6","","-1.1","","88","","27","","32","","8.0","","99.28","","","","","","Haze"
"1956-01-04 18:00","1956","01","04","18:00","0.0","","-1.1","","92","","25","","24","","16.1","","99.36","","","","-6","","Cloudy"
"1956-01-04 19:00","1956","01","04","19:00","0.6","","-1.1","","88","","25","","23","","16.1","","99.41","","","","","","Snow Showers"
"1956-01-04 20:00","1956","01","04","20:00","0.0","","-1.7","","88","","25","","18","","16.1","","99.45","","","","-5","","Snow Showers"
"1956-01-04 21:00","1956","01","04","21:00","0.6","","-2.8","","78","","27","","23","","25.0","","99.53","","","","","","Cloudy"
"1956-01-04 22:00","1956","01","04","22:00","0.0","","-3.9","","75","","27","","24","","25.0","","99.57","","","","-6","","Cloudy"
"1956-01-04 23:00","1956","01","04","23:00","-0.6","","-3.3","","81","","25","","27","","25.0","","99.59","","","","-7","","Cloudy"
"1956-01-05 00:00","1956","01","05","00:00","-1.1","","-3.9","","81","","25","","24","","25.0","","99.56","","","","-7","","Cloudy"
"1956-01-05 01:00","1956","01","05","01:00","-1.1","","-3.9","","81","","25","","16","","25.0","","99.54","","","","-6","","Cloudy"
"1956-01-05 02:00","1956","01","05","02:00","-1.1","","-3.9","","81","","27","","16","","25.0","","99.63","","","","-6","","Cloudy"
"1956-01-05 03:00","1956","01","05","03:00","-1.7","","-3.9","","85","","27","","19","","24.1","","99.65","","","","-7","","Snow Showers"
"1956-01-05 04:00","1956","01","05","04:00","-1.7","","-4.4","","81","","27","","18","","24.1","","99.56","","","","-7","","Snow Showers"
"1956-01-05 05:00","1956","01","05","05:00","-1.7","","-3.9","","85","","27","","13","","19.3","","99.59","","","","-6","","Cloudy"
"1956-01-05 06:00","1956","01","05","06:00","-1.7","","-3.9","","85","","29","","13","","19.3","","99.66","","","","-6","","Cloudy"
"1956-01-05 07:00","1956","01","05","07:00","-1.7","","-3.9","","85","","27","","10","","16.1","","99.75","","","","-5","","Cloudy"
"1956-01-05 08:00","1956","01","05","08:00","-1.7","","-5.6","","75","","27","","10","","12.9","","99.76","","","","-5","","Cloudy"
"1956-01-05 09:00","1956","01","05","09:00","-1.7","","-3.3","","88","","23","","6","","12.9","","99.80","","","","-4","","Cloudy"
"1956-01-05 10:00","1956","01","05","10:00","-1.1","","-3.3","","85","","25","","13","","12.9","","99.83","","","","-5","","Cloudy"
"1956-01-05 11:00","1956","01","05","11:00","-1.1","","-4.4","","78","","23","","13","","12.9","","99.77","","","","-5","","Cloudy"
"1956-01-05 12:00","1956","01","05","12:00","-1.1","","-3.3","","85","","23","","19","","12.9","","99.71","","","","-6","","Cloudy"
"1956-01-05 13:00","1956","01","05","13:00","-0.6","","-3.9","","78","","23","","16","","16.1","","99.67","","","","-5","","Cloudy"
"1956-01-05 14:00","1956","01","05","14:00","0.0","","-2.2","","85","","27","","13","","16.1","","99.63","","","","-4","","Cloudy"
"1956-01-05 15:00","1956","01","05","15:00","0.0","","-3.9","","75","","27","","13","","16.1","","99.69","","","","-4","","Cloudy"
"1956-01-05 16:00","1956","01","05","16:00","0.0","","-2.2","","85","","27","","11","","16.1","","99.71","","","","-4","","Cloudy"
"1956-01-05 17:00","1956","01","05","17:00","0.0","","-1.7","","88","","29","","8","","16.1","","99.74","","","","-3","","Cloudy"
"1956-01-05 18:00","1956","01","05","18:00","0.0","","-3.3","","78","","34","","10","","24.1","","99.73","","","","-3","","Cloudy"
"1956-01-05 19:00","1956","01","05","19:00","0.0","","-3.3","","78","","36","","10","","24.1","","99.78","","","","-3","","Cloudy"
"1956-01-05 20:00","1956","01","05","20:00","-0.6","","-3.9","","78","","2","","13","","24.1","","99.73","","","","-5","","Cloudy"
"1956-01-05 21:00","1956","01","05","21:00","-0.6","","-3.3","","81","","2","","13","","24.1","","99.75","","","","-5","","Cloudy"
"1956-01-05 22:00","1956","01","05","22:00","-1.1","","-3.9","","81","","2","","13","","24.1","","99.72","","","","-5","","Cloudy"
"1956-01-05 23:00","1956","01","05","23:00","-1.7","","-5.0","","78","","7","","8","","24.1","","99.72","","","","-5","","Cloudy"
"1956-01-06 00:00","1956","01","06","00:00","-2.2","","-4.4","","85","","5","","10","","24.1","","99.75","","","","-6","","Cloudy"
"1956-01-06 01:00","1956","01","06","01:00","-2.2","","-5.0","","81","","5","","10","","24.1","","99.74","","","","-6","","Cloudy"
"1956-01-06 02:00","1956","01","06","02:00","-2.2","","-5.0","","81","","7","","13","","19.3","","99.66","","","","-7","","Cloudy"
"1956-01-06 03:00","1956","01","06","03:00","-2.2","","-5.6","","78","","7","","6","","19.3","","99.68","","","","-5","","Cloudy"
"1956-01-06 04:00","1956","01","06","04:00","-2.8","","-5.6","","81","","7","","14","","19.3","","99.65","","","","-8","","Cloudy"
"1956-01-06 05:00","1956","01","06","05:00","-2.8","","-6.1","","78","","7","","11","","19.3","","99.64","","","","-7","","Cloudy"
"1956-01-06 06:00","1956","01","06","06:00","-2.8","","-4.4","","88","","7","","18","","4.8","","99.60","","","","-8","","Snow Showers"
"1956-01-06 07:00","1956","01","06","07:00","-2.8","","-3.9","","92","","9","","24","","4.8","","99.52","","","","-9","","Snow Showers"
"1956-01-06 08:00","1956","01","06","08:00","-2.2","","-3.3","","92","","9","","24","","3.2","","99.50","","","","-9","","Snow Showers"
"1956-01-06 09:00","1956","01","06","09:00","-2.2","","-3.9","","88","","9","","26","","3.2","","99.54","","","","-9","","Snow Showers"
"1956-01-06 10:00","1956","01","06","10:00","-2.2","","-3.9","","88","","9","","32","","8.0","","99.51","","","","-10","","Haze"
"1956-01-06 11:00","1956","01","06","11:00","-3.3","","-5.0","","88","","9","","29","","6.4","","99.49","","","","-11","","Snow Showers"
"1956-01-06 12:00","1956","01","06","12:00","-3.3","","-5.0","","88","","9","","24","","6.4","","99.36","","","","-10","","Snow Showers"
"1956-01-06 13:00","1956","01","06","13:00","-4.4","","-5.0","","96","","7","","24","","6.4","","99.27","","","","-11","","Snow"
"1956-01-06 14:00","1956","01","06","14:00","-5.0","","-6.1","","92","","7","","29","","11.3","","99.20","","","","-13","","Cloudy"
"1956-01-06 15:00","1956","01","06","15:00","-5.0","","-6.1","","92","","5","","29","","12.9","","99.21","","","","-13","","Cloudy"
"1956-01-06 16:00","1956","01","06","16:00","-5.6","","-8.9","","77","","5","","29","","16.1","","99.19","","","","-14","","Snow Showers"
"1956-01-06 17:00","1956","01","06","17:00","-6.7","","-9.4","","81","","5","","29","","16.1","","99.26","","","","-15","","Mostly Cloudy"
"1956-01-06 18:00","1956","01","06","18:00","-6.7","","-10.6","","74","","7","","27","","25.0","","99.31","","","","-15","","Cloudy"
"1956-01-06 19:00","1956","01","06","19:00","-6.7","","-10.6","","74","","5","","19","","25.0","","99.36","","","","-14","","Cloudy"
"1956-01-06 20:00","1956","01","06","20:00","-6.7","","-10.6","","74","","5","","16","","25.0","","99.41","","","","-13","","Cloudy"
"1956-01-06 21:00","1956","01","06","21:00","-6.7","","-9.4","","81","","5","","19","","25.0","","99.45","","","","-14","","Cloudy"
"1956-01-06 22:00","1956","01","06","22:00","-6.7","","-9.4","","81","","5","","24","","25.0","","99.52","","","","-14","","Cloudy"
"1956-01-06 23:00","1956","01","06","23:00","-6.7","","-8.9","","84","","2","","29","","3.2","","99.64","","","","-15","","Snow Showers"
"1956-01-07 00:00","1956","01","07","00:00","-7.8","","-9.4","","88","","36","","32","","2.4","","99.71","","","","-17","","Snow Showers"
"1956-01-07 01:00","1956","01","07","01:00","-8.9","","-10.0","","92","","2","","29","","2.4","","99.75","","","","-18","","Snow Showers"
"1956-01-07 02:00","1956","01","07","02:00","-8.9","","-11.1","","84","","2","","29","","4.0","","99.85","","","","-18","","Snow Showers"
"1956-01-07 03:00","1956","01","07","03:00","-8.9","","-11.1","","84","","2","","26","","12.9","","99.93","","","","-18","","Snow Showers"
"1956-01-07 04:00","1956","01","07","04:00","-8.3","","-11.7","","77","","2","","29","","11.3","","100.01","","","","-17","","Snow Showers"
"1956-01-07 05:00","1956","01","07","05:00","-8.9","","-13.9","","67","","2","","35","","25.0","","100.13","","","","-19","","Snow Showers"
"1956-01-07 06:00","1956","01","07","06:00","-9.4","","-15.0","","64","","36","","32","","25.0","","100.22","","","","-19","","Mostly Cloudy"
"1956-01-07 07:00","1956","01","07","07:00","-10.0","","-14.4","","70","","36","","29","","25.0","","100.38","","","","-19","","Mostly Cloudy"
"1956-01-07 08:00","1956","01","07","08:00","-11.1","","-15.6","","70","","36","","24","","25.0","","100.54","","","","-20","","Mostly Cloudy"
"1956-01-07 09:00","1956","01","07","09:00","-11.1","","-16.1","","67","","36","","32","","25.0","","100.62","","","","-21","","Mostly Cloudy"
"1956-01-07 10:00","1956","01","07","10:00","-10.6","","-15.6","","67","","36","","35","","25.0","","100.71","","","","-21","","Mostly Cloudy"
"1956-01-07 11:00","1956","01","07","11:00","-10.0","","-15.0","","67","","36","","39","","25.0","","100.73","","","","-21","","Mainly Clear"
"1956-01-07 12:00","1956","01","07","12:00","-9.4","","-16.1","","58","","36","","42","","25.0","","100.75","","","","-20","","Mainly Clear"
"1956-01-07 13:00","1956","01","07","13:00","-8.9","","-16.1","","56","","34","","35","","25.0","","100.76","","","","-19","","Mainly Clear"
"1956-01-07 14:00","1956","01","07","14:00","-8.3","","-15.6","","56","","34","","32","","25.0","","100.84","","","","-18","","Mainly Clear"
"1956-01-07 15:00","1956","01","07","15:00","-7.8","","-12.8","","67","","34","","42","","25.0","","100.84","","","","-18","","Mainly Clear"
"1956-01-07 16:00","1956","01","07","16:00","-7.8","","-15.6","","54","","34","","39","","25.0","","100.91","","","","-18","","Clear"
"1956-01-07 17:00","1956","01","07","17:00","-9.4","","-14.4","","67","","34","","40","","25.0","","101.01","","","","-20","","Clear"
"1956-01-07 18:00","1956","01","07","18:00","-10.0","","-16.1","","61","","34","","32","","25.0","","101.10","","","","-20","","Clear"
"1956-01-07 19:00","1956","01","07","19:00","-10.6","","-15.6","","67","","34","","40","","25.0","","101.17","","","","-22","","Clear"
"1956-01-07 20:00","1956","01","07","20:00","-11.1","","-16.1","","67","","34","","39","","25.0","","101.23","","","","-22","","Clear"
"1956-01-07 21:00","1956","01","07","21:00","-11.7","","-16.1","","70","","34","","40","","25.0","","101.24","","","","-23","","Clear"
"1956-01-07 22:00","1956","01","07","22:00","-11.7","","-14.4","","80","","34","","32","","25.0","","101.21","","","","-22","","Clear"
"1956-01-07 23:00","1956","01","07","23:00","-12.2","","-15.0","","80","","36","","29","","25.0","","101.16","","","","-22","","Clear"
"1956-01-08 00:00","1956","01","08","00:00","-12.2","","-16.1","","73","","34","","27","","25.0","","101.11","","","","-22","","Clear"
"1956-01-08 01:00","1956","01","08","01:00","-12.8","","-16.7","","73","","34","","34","","25.0","","101.08","","","","-24","","Clear"
"1956-01-08 02:00","1956","01","08","02:00","-13.3","","-16.7","","76","","34","","42","","25.0","","101.03","","","","-25","","Clear"
"1956-01-08 03:00","1956","01","08","03:00","-13.3","","-17.2","","73","","34","","40","","25.0","","100.98","","","","-25","","Clear"
"1956-01-08 04:00","1956","01","08","04:00","-13.9","","-17.2","","76","","36","","42","","25.0","","100.91","","","","-26","","Clear"
"1956-01-08 05:00","1956","01","08","05:00","-14.4","","-17.8","","76","","36","","40","","25.0","","100.87","","","","-27","","Clear"
"1956-01-08 06:00","1956","01","08","06:00","-14.4","","-18.9","","69","","36","","48","","25.0","","100.79","","","","-28","","Clear"
"1956-01-08 07:00","1956","01","08","07:00","-14.4","","-18.3","","72","","36","","45","","25.0","","100.76","","","","-27","","Clear"
"1956-01-08 08:00","1956","01","08","08:00","-14.4","","-17.8","","76","","34","","45","","25.0","","100.65","","","","-27","","Clear"
"1956-01-08 09:00","1956","01","08","09:00","-13.3","","-17.2","","73","","34","","47","","25.0","","100.58","","","","-26","","Clear"
"1956-01-08 10:00","1956","01","08","10:00","-12.2","","-16.1","","73","","34","","43","","25.0","","100.51","","","","-24","","Clear"
"1956-01-08 11:00","1956","01","08","11:00","-11.1","","-14.4","","76","","34","","40","","25.0","","100.39","","","","-22","","Clear"
"1956-01-08 12:00","1956","01","08","12:00","-10.0","","-14.4","","70","","34","","43","","25.0","","100.23","","","","-21","","Clear"
"1956-01-08 13:00","1956","01","08","13:00","-9.4","","-13.9","","70","","34","","40","","25.0","","100.16","","","","-20","","Clear"
"1956-01-08 14:00","1956","01","08","14:00","-8.9","","-12.2","","77","","34","","40","","25.0","","100.13","","","","-19","","Mostly Cloudy"
"1956-01-08 15:00","1956","01","08","15:00","-8.3","","-12.2","","74","","36","","31","","25.0","","100.12","","","","-17","","Cloudy"
"1956-01-08 16:00","1956","01","08","16:00","-8.3","","-12.2","","74","","36","","39","","25.0","","100.06","","","","-18","","Cloudy"
"1956-01-08 17:00","1956","01","08","17:00","-8.3","","-12.2","","74","","36","","39","","25.0","","99.97","","","","-18","","Cloudy"
"1956-01-08 18:00","1956","01","08","18:00","-8.3","","-11.7","","77","","36","","32","","25.0","","100.02","","","","-18","","Cloudy"
"1956-01-08 19:00","1956","01","08","19:00","-8.3","","-13.9","","64","","36","","39","","25.0","","100.01","","","","-18","","Cloudy"
"1956-01-08 20:00","1956","01","08","20:00","-8.9","","-13.3","","70","","36","","39","","25.0","","99.99","","","","-19","","Cloudy"
"1956-01-08 21:00","1956","01","08","21:00","-10.0","","-14.4","","70","","36","","35","","25.0","","99.98","","","","-20","","Cloudy"
"1956-01-08 22:00","1956","01","08","22:00","-11.7","","-15.0","","76","","36","","32","","25.0","","99.92","","","","-22","","Snow Showers"
"1956-01-08 23:00","1956","01","08","23:00","-11.7","","-15.6","","73","","36","","29","","25.0","","99.85","","","","-22","","Snow Showers"
"1956-01-09 00:00","1956","01","09","00:00","-11.7","","-12.2","","96","","36","","27","","12.9","","99.78","","","","-21","","Snow"
"1956-01-09 01:00","1956","01","09","01:00","-11.7","","-15.0","","76","","36","","29","","24.1","","99.75","","","","-22","","Snow"
"1956-01-09 02:00","1956","01","09","02:00","-11.7","","-13.3","","87","","36","","24","","9.7","","99.73","","","","-21","","Snow"
"1956-01-09 03:00","1956","01","09","03:00","-11.7","","-13.9","","84","","36","","18","","3.2","","99.67","","","","-20","","Snow"
"1956-01-09 04:00","1956","01","09","04:00","-11.7","","-13.9","","84","","36","","23","","2.4","","99.62","","","","-21","","Snow"
"1956-01-09 05:00","1956","01","09","05:00","-11.1","","-12.2","","91","","36","","27","","1.6","","99.59","","","","-21","","Snow"
"1956-01-09 06:00","1956","01","09","06:00","-11.1","","-12.2","","91","","36","","24","","2.4","","99.56","","","","-20","","Snow"
"1956-01-09 07:00","1956","01","09","07:00","-10.0","","-11.1","","92","","36","","24","","4.0","","99.54","","","","-19","","Snow,Ice Pellets"
"1956-01-09 08:00","1956","01","09","08:00","-8.9","","-10.0","","92","","36","","21","","19.3","","99.56","","","","-17","","Freezing Drizzle,Ice Pellets"
"1956-01-09 09:00","1956","01","09","09:00","-7.2","","-8.3","","92","","36","","23","","8.0","","99.58","","","","-15","","Freezing Drizzle,Fog"
"1956-01-09 10:00","1956","01","09","10:00","-6.7","","-7.8","","92","","36","","29","","3.2","","99.57","","","","-15","","Freezing Drizzle,Fog"
"1956-01-09 11:00","1956","01","09","11:00","-6.1","","-6.7","","96","","36","","26","","4.0","","99.49","","","","-14","","Freezing Rain,Freezing Drizzle,Fog"
"1956-01-09 12:00","1956","01","09","12:00","-4.4","","-5.0","","96","","34","","29","","2.4","","99.36","","","","-12","","Freezing Drizzle,Fog"
"1956-01-09 13:00","1956","01","09","13:00","-3.9","","-4.4","","96","","36","","24","","2.4","","99.31","","","","-11","","Freezing Drizzle,Fog"
"1956-01-09 14:00","1956","01","09","14:00","-3.3","","-3.9","","96","","36","","24","","2.4","","99.28","","","","-10","","Fog"
"1956-01-09 15:00","1956","01","09","15:00","-2.8","","-3.3","","96","","36","","23","","4.0","","99.28","","","","-9","","Fog"
"1956-01-09 16:00","1956","01","09","16:00","-2.2","","-3.3","","92","","34","","21","","4.0","","99.24","","","","-8","","Fog"
"1956-01-09 17:00","1956","01","09","17:00","-1.1","","-2.2","","92","","34","","26","","6.4","","99.23","","","","-7","","Fog"
"1956-01-09 18:00","1956","01","09","18:00","-1.1","","-1.1","","100","","34","","26","","4.0","","99.25","","","","-7","","Freezing Drizzle,Fog"
"1956-01-09 19:00","1956","01","09","19:00","-0.6","","-1.1","","96","","34","","24","","6.4","","99.25","","","","-7","","Fog"
"1956-01-09 20:00","1956","01","09","20:00","0.0","","-1.1","","92","","36","","26","","12.9","","99.22","","","","-6","","Cloudy"
"1956-01-09 21:00","1956","01","09","21:00","1.1","","0.6","","96","","36","","29","","16.1","","99.22","","","","","","Cloudy"
"1956-01-09 22:00","1956","01","09","22:00","1.1","","0.6","","96","","36","","26","","16.1","","99.14","","","","","","Cloudy"
"1956-01-09 23:00","1956","01","09","23:00","1.7","","0.6","","92","","36","","35","","16.1","","99.11","","","","","","Cloudy"
"1956-01-10 00:00","1956","01","10","00:00","1.7","","1.1","","96","","36","","24","","4.8","","99.04","","","","","","Drizzle,Fog"
"1956-01-10 01:00","1956","01","10","01:00","2.2","","1.7","","96","","36","","27","","8.0","","99.04","","","","","","Drizzle,Fog"
"1956-01-10 02:00","1956","01","10","02:00","2.2","","2.2","","100","","36","","23","","19.3","","99.03","","","","","","Cloudy"
"1956-01-10 03:00","1956","01","10","03:00","2.2","","1.7","","96","","36","","24","","4.0","","99.05","","","","","","Rain,Drizzle,Fog"
"1956-01-10 04:00","1956","01","10","04:00","2.2","","1.7","","96","","36","","19","","4.0","","99.04","","","","","","Rain,Drizzle,Fog"
"1956-01-10 05:00","1956","01","10","05:00","2.2","","2.2","","100","","36","","21","","4.0","","99.05","","","","","","Rain,Drizzle,Fog"
"1956-01-10 06:00","1956","01","10","06:00","2.2","","1.7","","96","","36","","16","","4.8","","99.07","","","","","","Drizzle,Fog"
"1956-01-10 07:00","1956","01","10","07:00","2.8","","2.2","","96","","36","","19","","25.0","","99.11","","","","","","Cloudy"
"1956-01-10 08:00","1956","01","10","08:00","2.8","","2.2","","96","","36","","19","","8.0","","99.19","","","","","","Fog"
"1956-01-10 09:00","1956","01","10","09:00","2.8","","2.2","","96","","36","","16","","8.0","","99.22","","","","","","Fog"
"1956-01-10 10:00","1956","01","10","10:00","3.3","","2.8","","96","","36","","16","","11.3","","99.23","","","","","","Cloudy"
"1956-01-10 11:00","1956","01","10","11:00","3.3","","2.2","","92","","36","","16","","11.3","","99.24","","","","","","Cloudy"
"1956-01-10 12:00","1956","01","10","12:00","3.9","","2.8","","92","","36","","16","","11.3","","99.18","","","","","","Cloudy"
"1956-01-10 13:00","1956","01","10","13:00","4.4","","2.8","","89","","36","","16","","12.9","","99.18","","","","","","Cloudy"
"1956-01-10 14:00","1956","01","10","14:00","3.9","","2.8","","92","","2","","13","","11.3","","99.09","","","","","","Cloudy"
"1956-01-10 15:00","1956","01","10","15:00","3.9","","2.2","","89","","2","","13","","11.3","","99.24","","","","","","Cloudy"
"1956-01-10 16:00","1956","01","10","16:00","3.9","","2.8","","92","","36","","13","","11.3","","99.28","","","","","","Cloudy"
"1956-01-10 17:00","1956","01","10","17:00","3.9","","2.2","","89","","36","","13","","25.0","","99.28","","","","","","Cloudy"
"1956-01-10 18:00","1956","01","10","18:00","3.3","","1.7","","89","","36","","14","","25.0","","99.31","","","","","","Cloudy"
"1956-01-10 19:00","1956","01","10","19:00","3.3","","1.7","","89","","36","","16","","25.0","","99.32","","","","","","Cloudy"
"1956-01-10 20:00","1956","01","10","20:00","3.3","","1.1","","85","","36","","19","","25.0","","99.35","","","","","","Cloudy"
"1956-01-10 21:00","1956","01","10","21:00","3.3","","1.1","","85","","36","","19","","25.0","","99.36","","","","","","Cloudy"
"1956-01-10 22:00","1956","01","10","22:00","3.3","","1.1","","85","","36","","19","","25.0","","99.34","","","","","","Cloudy"
"1956-01-10 23:00","1956","01","10","23:00","3.3","","1.1","","85","","36","","21","","25.0","","99.33","","","","","","Cloudy"
"1956-01-11 00:00","1956","01","11","00:00","3.3","","1.7","","89","","36","","23","","25.0","","99.30","","","","","","Cloudy"
"1956-01-11 01:00","1956","01","11","01:00","2.8","","2.2","","96","","36","","24","","24.1","","99.29","","","","","","Cloudy"
"1956-01-11 02:00","1956","01","11","02:00","2.8","","2.2","","96","","36","","24","","24.1","","99.25","","","","","","Cloudy"
"1956-01-11 03:00","1956","01","11","03:00","2.8","","2.2","","96","","36","","23","","24.1","","99.27","","","","","","Cloudy"
"1956-01-11 04:00","1956","01","11","04:00","2.8","","1.7","","92","","36","","23","","24.1","","99.25","","","","","","Cloudy"
"1956-01-11 05:00","1956","01","11","05:00","2.8","","2.2","","96","","36","","19","","24.1","","99.25","","","","","","Cloudy"
"1956-01-11 06:00","1956","01","11","06:00","2.8","","1.7","","92","","36","","21","","16.1","","99.25","","","","","","Rain"
"1956-01-11 07:00","1956","01","11","07:00","2.8","","1.7","","96","","36","","16","","6.4","","99.28","","","","","","Rain,Drizzle,Fog"
"1956-01-11 08:00","1956","01","11","08:00","2.2","","1.1","","92","","36","","27","","16.1","","99.28","","","","","","Drizzle"
"1956-01-11 09:00","1956","01","11","09:00","2.2","","1.7","","96","","36","","13","","6.4","","99.31","","","","","","Rain"
"1956-01-11 10:00","1956","01","11","10:00","2.2","","1.7","","96","","36","","16","","6.4","","99.34","","","","","","Rain"
"1956-01-11 11:00","1956","01","11","11:00","2.2","","1.7","","96","","36","","21","","4.8","","99.29","","","","","","Drizzle,Fog"
"1956-01-11 12:00","1956","01","11","12:00","2.2","","1.7","","96","","36","","19","","2.4","","99.26","","","","","","Drizzle,Fog"
"1956-01-11 13:00","1956","01","11","13:00","2.2","","1.7","","96","","36","","26","","3.2","","99.26","","","","","","Drizzle,Fog"
"1956-01-11 14:00","1956","01","11","14:00","1.1","","1.1","","100","","34","","19","","2.4","","99.27","","","","","","Rain,Ice Pellets,Fog"
"1956-01-11 15:00","1956","01","11","15:00","1.1","","0.6","","96","","34","","19","","2.4","","99.31","","","","","","Rain,Snow,Ice Pellets,Fog"
"1956-01-11 16:00","1956","01","11","16:00","0.6","","0.0","","96","","36","","29","","2.4","","99.34","","","","","","Rain,Snow,Fog"
"1956-01-11 17:00","1956","01","11","17:00","0.6","","0.0","","96","","36","","24","","3.2","","99.36","","","","","","Rain,Snow,Fog"
"1956-01-11 18:00","1956","01","11","18:00","0.6","","0.0","","96","","36","","24","","4.0","","99.40","","","","","","Snow"
"1956-01-11 19:00","1956","01","11","19:00","0.6","","-0.6","","92","","36","","31","","3.2","","99.42","","","","","","Snow"
"1956-01-11 20:00","1956","01","11","20:00","0.0","","-1.1","","92","","36","","29","","6.4","","99.44","","","","-6","","Snow Grains"
"1956-01-11 21:00","1956","01","11","21:00","0.0","","-1.1","","92","","36","","31","","16.1","","99.44","","","","-7","","Snow Grains"
"1956-01-11 22:00","1956","01","11","22:00","0.0","","-1.1","","92","","36","","31","","12.9","","99.46","","","","-7","","Snow Grains"
"1956-01-11 23:00","1956","01","11","23:00","-0.6","","-2.2","","88","","36","","23","","16.1","","99.44","","","","-6","","Snow"
"1956-01-12 00:00","1956","01","12","00:00","-1.1","","-2.8","","88","","36","","26","","25.0","","99.42","","","","-7","","Cloudy"
"1956-01-12 01:00","1956","01","12","01:00","-1.7","","-3.3","","88","","36","","24","","25.0","","99.42","","","","-8","","Cloudy"
"1956-01-12 02:00","1956","01","12","02:00","-2.2","","-3.9","","88","","36","","27","","25.0","","99.49","","","","-9","","Cloudy"
"1956-01-12 03:00","1956","01","12","03:00","-2.8","","-4.4","","88","","36","","32","","25.0","","99.53","","","","-10","","Cloudy"
"1956-01-12 04:00","1956","01","12","04:00","-3.3","","-5.6","","85","","36","","32","","25.0","","99.53","","","","-11","","Cloudy"
"1956-01-12 05:00","1956","01","12","05:00","-3.3","","-5.0","","88","","36","","26","","25.0","","99.52","","","","-10","","Cloudy"
"1956-01-12 06:00","1956","01","12","06:00","-3.9","","-5.6","","88","","36","","29","","25.0","","99.55","","","","-11","","Cloudy"
"1956-01-12 07:00","1956","01","12","07:00","-3.9","","-5.6","","88","","36","","29","","25.0","","99.60","","","","-11","","Cloudy"
"1956-01-12 08:00","1956","01","12","08:00","-4.4","","-6.7","","84","","36","","32","","25.0","","99.63","","","","-12","","Cloudy"
"1956-01-12 09:00","1956","01","12","09:00","-4.4","","-7.2","","81","","36","","39","","25.0","","99.65","","","","-13","","Cloudy"
"1956-01-12 10:00","1956","01","12","10:00","-4.4","","-6.7","","84","","36","","35","","25.0","","99.68","","","","-13","","Mostly Cloudy"
"1956-01-12 11:00","1956","01","12","11:00","-3.9","","-6.7","","81","","36","","35","","25.0","","99.68","","","","-12","","Cloudy"
"1956-01-12 12:00","1956","01","12","12:00","-3.9","","-6.7","","81","","36","","39","","25.0","","99.59","","","","-13","","Cloudy"
"1956-01-12 13:00","1956","01","12","13:00","-3.3","","-5.6","","85","","36","","29","","25.0","","99.62","","","","-11","","Cloudy"
"1956-01-12 14:00","1956","01","12","14:00","-3.3","","-5.0","","88","","36","","35","","25.0","","99.60","","","","-11","","Cloudy"
"1956-01-12 15:00","1956","01","12","15:00","-3.3","","-5.6","","85","","36","","32","","25.0","","99.62","","","","-11","","Mostly Cloudy"
"1956-01-12 16:00","1956","01","12","16:00","-3.3","","-6.1","","81","","36","","39","","25.0","","99.67","","","","-12","","Cloudy"
"1956-01-12 17:00","1956","01","12","17:00","-3.3","","-6.1","","81","","34","","35","","25.0","","99.68","","","","-11","","Mostly Cloudy"
"1956-01-12 18:00","1956","01","12","18:00","-3.3","","-6.1","","81","","34","","37","","25.0","","99.73","","","","-12","","Mostly Cloudy"
"1956-01-12 19:00","1956","01","12","19:00","-3.3","","-6.1","","81","","34","","35","","25.0","","99.74","","","","-11","","Mostly Cloudy"
"1956-01-12 20:00","1956","01","12","20:00","-3.9","","-6.7","","81","","34","","40","","25.0","","99.78","","","","-13","","Mostly Cloudy"
"1956-01-12 21:00","1956","01","12","21:00","-4.4","","-7.8","","78","","36","","39","","25.0","","99.82","","","","-13","","Mostly Cloudy"
"1956-01-12 22:00","1956","01","12","22:00","-5.6","","-9.4","","74","","34","","32","","25.0","","99.86","","","","-14","","Mainly Clear"
"1956-01-12 23:00","1956","01","12","23:00","-5.6","","-11.1","","65","","34","","39","","25.0","","99.82","","","","-15","","Mainly Clear"
"1956-01-13 00:00","1956","01","13","00:00","-5.6","","-10.6","","68","","34","","39","","25.0","","99.79","","","","-15","","Mainly Clear"
"1956-01-13 01:00","1956","01","13","01:00","-5.6","","-10.0","","71","","36","","40","","25.0","","99.80","","","","-15","","Mainly Clear"
"1956-01-13 02:00","1956","01","13","02:00","-5.6","","-9.4","","74","","36","","42","","25.0","","99.83","","","","-15","","Clear"
"1956-01-13 03:00","1956","01","13","03:00","-5.6","","-9.4","","74","","34","","42","","25.0","","99.88","","","","-15","","Clear"
"1956-01-13 04:00","1956","01","13","04:00","-5.6","","-9.4","","74","","34","","40","","25.0","","99.88","","","","-15","","Clear"
"1956-01-13 05:00","1956","01","13","05:00","-6.1","","-9.4","","81","","34","","39","","25.0","","99.88","","","","-15","","Clear"
"1956-01-13 06:00","1956","01","13","06:00","-6.7","","-8.9","","84","","34","","26","","25.0","","99.94","","","","-15","","Clear"
"1956-01-13 07:00","1956","01","13","07:00","-6.7","","-9.4","","81","","34","","29","","25.0","","99.98","","","","-15","","Clear"
"1956-01-13 08:00","1956","01","13","08:00","-6.7","","-9.4","","81","","36","","27","","25.0","","100.01","","","","-15","","Clear"
"1956-01-13 09:00","1956","01","13","09:00","-5.6","","-8.3","","81","","36","","19","","25.0","","100.05","","","","-12","","Clear"
"1956-01-13 10:00","1956","01","13","10:00","-4.4","","-7.8","","78","","36","","32","","25.0","","100.07","","","","-12","","Clear"
"1956-01-13 11:00","1956","01","13","11:00","-4.4","","-7.8","","78","","36","","29","","25.0","","100.03","","","","-12","","Clear"
"1956-01-13 12:00","1956","01","13","12:00","-3.3","","-6.7","","78","","36","","23","","25.0","","99.94","","","","-10","","Clear"
"1956-01-13 13:00","1956","01","13","13:00","-2.8","","-6.1","","78","","36","","23","","25.0","","99.87","","","","-9","","Clear"
"1956-01-13 14:00","1956","01","13","14:00","-3.3","","-5.6","","85","","34","","29","","25.0","","99.91","","","","-11","","Mainly Clear"
"1956-01-13 15:00","1956","01","13","15:00","-3.3","","-6.7","","78","","34","","16","","25.0","","99.97","","","","-9","","Mainly Clear"
"1956-01-13 16:00","1956","01","13","16:00","-4.4","","-7.2","","81","","34","","23","","25.0","","99.98","","","","-11","","Mainly Clear"
"1956-01-13 17:00","1956","01","13","17:00","-5.6","","-8.3","","81","","32","","14","","25.0","","100.00","","","","-11","","Mainly Clear"
"1956-01-13 18:00","1956","01","13","18:00","-5.6","","-8.3","","81","","34","","14","","25.0","","100.02","","","","-11","","Clear"
"1956-01-13 19:00","1956","01","13","19:00","-5.6","","-8.3","","81","","34","","16","","25.0","","100.05","","","","-12","","Clear"
"1956-01-13 20:00","1956","01","13","20:00","-5.6","","-10.0","","71","","34","","14","","25.0","","100.04","","","","-11","","Mainly Clear"
"1956-01-13 21:00","1956","01","13","21:00","-6.1","","-11.7","","65","","34","","16","","25.0","","100.06","","","","-12","","Mainly Clear"
"1956-01-13 22:00","1956","01","13","22:00","-7.2","","-11.1","","74","","34","","23","","25.0","","100.03","","","","-15","","Clear"
"1956-01-13 23:00","1956","01","13","23:00","-7.2","","-12.2","","68","","34","","26","","25.0","","99.96","","","","-15","","Clear"
"1956-01-14 00:00","1956","01","14","00:00","-7.8","","-11.1","","77","","34","","29","","25.0","","99.91","","","","-17","","Clear"
"1956-01-14 01:00","1956","01","14","01:00","-7.8","","-12.2","","70","","34","","29","","25.0","","99.90","","","","-17","","Clear"
"1956-01-14 02:00","1956","01","14","02:00","-7.8","","-12.2","","70","","34","","24","","25.0","","99.93","","","","-16","","Clear"
"1956-01-14 03:00","1956","01","14","03:00","-8.3","","-11.7","","77","","34","","24","","25.0","","99.91","","","","-16","","Clear"
"1956-01-14 04:00","1956","01","14","04:00","-8.3","","-11.7","","77","","34","","23","","25.0","","99.88","","","","-16","","Clear"
"1956-01-14 05:00","1956","01","14","05:00","-8.3","","-11.7","","77","","34","","23","","25.0","","99.82","","","","-16","","Clear"
"1956-01-14 06:00","1956","01","14","06:00","-8.3","","-11.7","","77","","34","","23","","25.0","","99.86","","","","-16","","Clear"
"1956-01-14 07:00","1956","01","14","07:00","-8.3","","-11.7","","77","","34","","23","","25.0","","99.87","","","","-16","","Clear"
"1956-01-14 08:00","1956","01","14","08:00","-8.3","","-11.7","","77","","34","","24","","25.0","","99.88","","","","-16","","Clear"
"1956-01-14 09:00","1956","01","14","09:00","-6.7","","-10.0","","77","","34","","26","","25.0","","99.88","","","","-15","","Clear"
"1956-01-14 10:00","1956","01","14","10:00","-6.1","","-10.0","","74","","34","","21","","25.0","","99.86","","","","-13","","Clear"
"1956-01-14 11:00","1956","01","14","11:00","-4.4","","-9.4","","68","","34","","26","","25.0","","99.82","","","","-12","","Clear"
"1956-01-14 12:00","1956","01","14","12:00","-2.8","","-7.8","","68","","34","","21","","25.0","","99.74","","","","-9","","Clear"
"1956-01-14 13:00","1956","01","14","13:00","-2.2","","-7.2","","69","","34","","26","","25.0","","99.64","","","","-9","","Clear"
"1956-01-14 14:00","1956","01","14","14:00","-1.7","","-6.7","","69","","32","","16","","25.0","","99.64","","","","-7","","Clear"
"1956-01-14 15:00","1956","01","14","15:00","-2.2","","-7.2","","69","","34","","16","","25.0","","99.61","","","","-7","","Clear"
"1956-01-14 16:00","1956","01","14","16:00","-2.2","","-6.7","","72","","34","","16","","25.0","","99.61","","","","-7","","Clear"
"1956-01-14 17:00","1956","01","14","17:00","-3.9","","-7.8","","74","","34","","26","","25.0","","99.57","","","","-11","","Clear"
"1956-01-14 18:00","1956","01","14","18:00","-4.4","","-8.3","","74","","34","","16","","25.0","","99.56","","","","-10","","Clear"
"1956-01-14 19:00","1956","01","14","19:00","-4.4","","-7.8","","78","","34","","23","","25.0","","99.56","","","","-11","","Clear"
"1956-01-14 20:00","1956","01","14","20:00","-5.0","","-7.8","","81","","34","","23","","25.0","","99.52","","","","-12","","Clear"
"1956-01-14 21:00","1956","01","14","21:00","-5.6","","-8.3","","81","","34","","19","","25.0","","99.50","","","","-12","","Clear"
"1956-01-14 22:00","1956","01","14","22:00","-5.6","","-8.3","","81","","34","","23","","25.0","","99.47","","","","-13","","Clear"
"1956-01-14 23:00","1956","01","14","23:00","-5.6","","-7.2","","88","","34","","23","","25.0","","99.38","","","","-13","","Clear"
"1956-01-15 00:00","1956","01","15","00:00","-6.1","","-10.6","","71","","34","","16","","25.0","","99.34","","","","-12","","Clear"
"1956-01-15 01:00","1956","01","15","01:00","-6.7","","-12.2","","65","","36","","16","","25.0","","99.32","","","","-13","","Clear"
"1956-01-15 02:00","1956","01","15","02:00","-6.7","","-11.1","","71","","36","","18","","25.0","","99.28","","","","-13","","Clear"
"1956-01-15 03:00","1956","01","15","03:00","-6.7","","-11.1","","71","","34","","18","","25.0","","99.24","","","","-13","","Clear"
"1956-01-15 04:00","1956","01","15","04:00","-6.7","","-11.1","","71","","34","","18","","25.0","","99.16","","","","-13","","Clear"
"1956-01-15 05:00","1956","01","15","05:00","-6.7","","-10.6","","74","","34","","21","","25.0","","99.12","","","","-14","","Clear"
"1956-01-15 06:00","1956","01","15","06:00","-6.7","","-10.6","","74","","36","","19","","25.0","","99.10","","","","-14","","Clear"
"1956-01-15 07:00","1956","01","15","07:00","-6.7","","-10.6","","74","","36","","18","","25.0","","99.09","","","","-13","","Clear"
"1956-01-15 08:00","1956","01","15","08:00","-6.7","","-10.6","","74","","36","","8","","25.0","","99.11","","","","-11","","Clear"
"1956-01-15 09:00","1956","01","15","09:00","-5.0","","-10.6","","65","","36","","19","","25.0","","99.10","","","","-11","","Clear"
"1956-01-15 10:00","1956","01","15","10:00","-4.4","","-10.6","","62","","36","","19","","25.0","","99.07","","","","-11","","Clear"
"1956-01-15 11:00","1956","01","15","11:00","-2.2","","-10.0","","55","","36","","16","","25.0","","99.02","","","","-7","","Clear"
"1956-01-15 12:00","1956","01","15","12:00","-1.7","","-7.2","","66","","36","","16","","25.0","","98.90","","","","-7","","Clear"
"1956-01-15 13:00","1956","01","15","13:00","-0.6","","-6.7","","63","","36","","13","","25.0","","98.80","","","","-5","","Clear"
"1956-01-15 14:00","1956","01","15","14:00","0.0","","-6.7","","61","","36","","14","","25.0","","98.74","","","","-4","","Mainly Clear"
"1956-01-15 15:00","1956","01","15","15:00","0.0","","-4.4","","72","","36","","6","","25.0","","98.74","","","","-2","","Mainly Clear"
"1956-01-15 16:00","1956","01","15","16:00","0.0","","-3.3","","78","","36","","5","","25.0","","98.74","","","","-2","","Mainly Clear"
"1956-01-15 17:00","1956","01","15","17:00","-1.7","","-6.1","","72","","36","","10","","25.0","","98.71","","","","-5","","Mainly Clear"
"1956-01-15 18:00","1956","01","15","18:00","-2.8","","-7.2","","72","","36","","5","","25.0","","98.71","","","","-5","","Mainly Clear"
"1956-01-15 19:00","1956","01","15","19:00","-3.3","","-7.8","","71","","36","","10","","25.0","","98.70","","","","-7","","Clear"
"1956-01-15 20:00","1956","01","15","20:00","-3.3","","-7.8","","71","","36","","13","","25.0","","98.63","","","","-8","","Clear"
"1956-01-15 21:00","1956","01","15","21:00","-3.3","","-7.8","","71","","36","","13","","25.0","","98.59","","","","-8","","Clear"
"1956-01-15 22:00","1956","01","15","22:00","-3.9","","-7.8","","74","","36","","8","","25.0","","98.53","","","","-7","","Clear"
"1956-01-15 23:00","1956","01","15","23:00","-3.9","","-7.8","","74","","34","","10","","25.0","","98.49","","","","-8","","Clear"
"1956-01-16 00:00","1956","01","16","00:00","-5.0","","-8.3","","77","","36","","19","","25.0","","98.46","","","","-11","","Clear"
"1956-01-16 01:00","1956","01","16","01:00","-5.0","","-7.8","","81","","36","","16","","25.0","","98.44","","","","-11","","Clear"
"1956-01-16 02:00","1956","01","16","02:00","-5.6","","-8.3","","81","","36","","19","","25.0","","98.42","","","","-12","","Clear"
"1956-01-16 03:00","1956","01","16","03:00","-5.6","","-8.9","","77","","36","","19","","25.0","","98.43","","","","-12","","Clear"
"1956-01-16 04:00","1956","01","16","04:00","-6.1","","-8.9","","81","","36","","23","","25.0","","98.42","","","","-13","","Clear"
"1956-01-16 05:00","1956","01","16","05:00","-6.7","","-9.4","","81","","36","","19","","25.0","","98.40","","","","-14","","Clear"
"1956-01-16 06:00","1956","01","16","06:00","-6.7","","-10.0","","77","","36","","24","","25.0","","98.35","","","","-14","","Clear"
"1956-01-16 07:00","1956","01","16","07:00","-7.2","","-10.0","","81","","36","","19","","25.0","","98.36","","","","-14","","Mainly Clear"
"1956-01-16 08:00","1956","01","16","08:00","-7.2","","-10.6","","77","","36","","26","","25.0","","98.38","","","","-15","","Mostly Cloudy"
"1956-01-16 09:00","1956","01","16","09:00","-6.7","","-8.9","","84","","36","","16","","25.0","","98.39","","","","-13","","Mostly Cloudy"
"1956-01-16 10:00","1956","01","16","10:00","-5.6","","-8.9","","77","","36","","16","","25.0","","98.41","","","","-12","","Mostly Cloudy"
"1956-01-16 11:00","1956","01","16","11:00","-5.6","","-8.9","","77","","36","","19","","25.0","","98.36","","","","-12","","Mostly Cloudy"
"1956-01-16 12:00","1956","01","16","12:00","-5.0","","-9.4","","71","","36","","19","","25.0","","98.26","","","","-11","","Mostly Cloudy"
"1956-01-16 13:00","1956","01","16","13:00","-4.4","","-7.8","","78","","36","","26","","25.0","","98.15","","","","-12","","Mostly Cloudy"
"1956-01-16 14:00","1956","01","16","14:00","-4.4","","-6.7","","84","","34","","23","","25.0","","98.17","","","","-11","","Mostly Cloudy"
"1956-01-16 15:00","1956","01","16","15:00","-3.9","","-6.7","","81","","34","","19","","25.0","","98.20","","","","-10","","Mostly Cloudy"
"1956-01-16 16:00","1956","01","16","16:00","-4.4","","-7.8","","78","","36","","16","","25.0","","98.22","","","","-10","","Mostly Cloudy"
"1956-01-16 17:00","1956","01","16","17:00","-5.0","","-7.8","","81","","36","","24","","25.0","","98.24","","","","-12","","Mostly Cloudy"
"1956-01-16 18:00","1956","01","16","18:00","-5.0","","-7.8","","81","","36","","26","","25.0","","98.32","","","","-12","","Mostly Cloudy"
"1956-01-16 19:00","1956","01","16","19:00","-5.0","","-8.9","","74","","36","","26","","25.0","","98.36","","","","-12","","Cloudy"
"1956-01-16 20:00","1956","01","16","20:00","-5.0","","-8.3","","77","","36","","27","","25.0","","98.38","","","","-13","","Cloudy"
"1956-01-16 21:00","1956","01","16","21:00","-5.6","","-8.9","","77","","36","","29","","25.0","","98.43","","","","-14","","Cloudy"
"1956-01-16 22:00","1956","01","16","22:00","-6.7","","-9.4","","81","","36","","26","","25.0","","98.53","","","","-15","","Cloudy"
"1956-01-16 23:00","1956","01","16","23:00","-6.7","","-10.0","","77","","36","","19","","25.0","","98.57","","","","-14","","Cloudy"
"1956-01-17 00:00","1956","01","17","00:00","-6.7","","-13.3","","59","","36","","29","","25.0","","98.57","","","","-15","","Cloudy"
"1956-01-17 01:00","1956","01","17","01:00","-6.7","","-12.2","","65","","36","","31","","25.0","","98.60","","","","-15","","Cloudy"
"1956-01-17 02:00","1956","01","17","02:00","-7.8","","-11.7","","74","","36","","31","","25.0","","98.70","","","","-17","","Snow Showers"
"1956-01-17 03:00","1956","01","17","03:00","-8.3","","-11.7","","77","","34","","27","","25.0","","98.77","","","","-17","","Snow Showers"
"1956-01-17 04:00","1956","01","17","04:00","-8.3","","-11.1","","80","","34","","31","","25.0","","98.83","","","","-17","","Cloudy"
"1956-01-17 05:00","1956","01","17","05:00","-8.9","","-11.7","","80","","36","","31","","25.0","","98.92","","","","-18","","Cloudy"
"1956-01-17 06:00","1956","01","17","06:00","-8.9","","-11.7","","80","","36","","24","","25.0","","99.06","","","","-17","","Cloudy"
"1956-01-17 07:00","1956","01","17","07:00","-8.9","","-11.7","","80","","34","","24","","25.0","","99.13","","","","-17","","Mostly Cloudy"
"1956-01-17 08:00","1956","01","17","08:00","-8.9","","-12.8","","73","","34","","26","","25.0","","99.26","","","","-18","","Mostly Cloudy"
"1956-01-17 09:00","1956","01","17","09:00","-9.4","","-12.2","","80","","34","","26","","25.0","","99.35","","","","-18","","Mostly Cloudy"
"1956-01-17 10:00","1956","01","17","10:00","-8.3","","-11.7","","77","","36","","32","","25.0","","99.42","","","","-18","","Mainly Clear"
"1956-01-17 11:00","1956","01","17","11:00","-7.2","","-11.7","","71","","36","","29","","25.0","","99.47","","","","-16","","Mainly Clear"
"1956-01-17 12:00","1956","01","17","12:00","-6.7","","-11.1","","71","","36","","29","","25.0","","99.51","","","","-15","","Clear"
"1956-01-17 13:00","1956","01","17","13:00","-6.7","","-10.6","","74","","36","","32","","25.0","","99.54","","","","-15","","Clear"
"1956-01-17 14:00","1956","01","17","14:00","-5.6","","-9.4","","74","","36","","32","","25.0","","99.51","","","","-14","","Clear"
"1956-01-17 15:00","1956","01","17","15:00","-5.6","","-9.4","","74","","36","","32","","25.0","","99.59","","","","-14","","Mainly Clear"
"1956-01-17 16:00","1956","01","17","16:00","-5.6","","-8.9","","77","","34","","29","","25.0","","99.74","","","","-14","","Clear"
"1956-01-17 17:00","1956","01","17","17:00","-6.7","","-10.0","","77","","34","","29","","25.0","","99.81","","","","-15","","Mainly Clear"
"1956-01-17 18:00","1956","01","17","18:00","-6.7","","-10.0","","77","","34","","35","","25.0","","99.90","","","","-16","","Mainly Clear"
"1956-01-17 19:00","1956","01","17","19:00","-6.7","","-10.0","","77","","34","","35","","25.0","","99.99","","","","-16","","Clear"
"1956-01-17 20:00","1956","01","17","20:00","-6.7","","-10.0","","77","","36","","32","","25.0","","100.05","","","","-15","","Clear"
"1956-01-17 21:00","1956","01","17","21:00","-7.2","","-10.6","","77","","2","","26","","25.0","","100.11","","","","-15","","Mainly Clear"
"1956-01-17 22:00","1956","01","17","22:00","-7.8","","-11.1","","77","","36","","26","","25.0","","100.17","","","","-16","","Mainly Clear"
"1956-01-17 23:00","1956","01","17","23:00","-8.9","","-12.2","","77","","36","","29","","25.0","","100.20","","","","-18","","Clear"
"1956-01-18 00:00","1956","01","18","00:00","-9.4","","-13.9","","70","","34","","26","","25.0","","100.19","","","","-18","","Clear"
"1956-01-18 01:00","1956","01","18","01:00","-10.0","","-15.0","","67","","36","","26","","25.0","","100.22","","","","-19","","Clear"
"1956-01-18 02:00","1956","01","18","02:00","-10.6","","-16.1","","64","","36","","24","","25.0","","100.27","","","","-19","","Clear"
"1956-01-18 03:00","1956","01","18","03:00","-10.6","","-15.6","","67","","36","","23","","25.0","","100.34","","","","-19","","Clear"
"1956-01-18 04:00","1956","01","18","04:00","-11.1","","-16.1","","67","","36","","26","","25.0","","100.37","","","","-20","","Clear"
"1956-01-18 05:00","1956","01","18","05:00","-11.1","","-15.6","","70","","36","","23","","25.0","","100.41","","","","-20","","Clear"
"1956-01-18 06:00","1956","01","18","06:00","-11.7","","-15.6","","73","","36","","24","","25.0","","100.41","","","","-21","","Clear"
"1956-01-18 07:00","1956","01","18","07:00","-11.7","","-15.6","","73","","36","","24","","25.0","","100.44","","","","-21","","Mainly Clear"
"1956-01-18 08:00","1956","01","18","08:00","-11.7","","-15.6","","73","","34","","26","","25.0","","100.52","","","","-21","","Mainly Clear"
"1956-01-18 09:00","1956","01","18","09:00","-11.1","","-15.6","","70","","34","","19","","25.0","","100.55","","","","-19","","Mainly Clear"
"1956-01-18 10:00","1956","01","18","10:00","-8.3","","-13.3","","67","","36","","19","","25.0","","100.56","","","","-16","","Mainly Clear"
"1956-01-18 11:00","1956","01","18","11:00","-6.7","","-12.8","","62","","36","","19","","25.0","","100.52","","","","-14","","Mainly Clear"
"1956-01-18 12:00","1956","01","18","12:00","-5.6","","-12.8","","57","","36","","16","","25.0","","100.44","","","","-12","","Mainly Clear"
"1956-01-18 13:00","1956","01","18","13:00","-4.4","","-12.2","","55","","36","","16","","25.0","","100.42","","","","-10","","Clear"
"1956-01-18 14:00","1956","01","18","14:00","-3.9","","-10.0","","63","","36","","16","","25.0","","100.34","","","","-9","","Clear"
"1956-01-18 15:00","1956","01","18","15:00","-3.9","","-10.0","","63","","36","","13","","25.0","","100.34","","","","-9","","Clear"
"1956-01-18 16:00","1956","01","18","16:00","-4.4","","-10.0","","65","","36","","18","","25.0","","100.36","","","","-10","","Clear"
"1956-01-18 17:00","1956","01","18","17:00","-5.6","","-10.0","","71","","36","","19","","25.0","","100.38","","","","-12","","Mainly Clear"
"1956-01-18 18:00","1956","01","18","18:00","-6.7","","-11.1","","71","","36","","16","","25.0","","100.40","","","","-13","","Mainly Clear"
"1956-01-18 19:00","1956","01","18","19:00","-7.2","","-10.6","","77","","34","","21","","25.0","","100.40","","","","-15","","Clear"
"1956-01-18 20:00","1956","01","18","20:00","-7.8","","-11.1","","77","","36","","19","","25.0","","100.37","","","","-15","","Clear"
"1956-01-18 21:00","1956","01","18","21:00","-8.3","","-10.6","","84","","36","","13","","25.0","","100.31","","","","-14","","Clear"
"1956-01-18 22:00","1956","01","18","22:00","-8.3","","-11.7","","77","","36","","18","","25.0","","100.31","","","","-15","","Mainly Clear"
"1956-01-18 23:00","1956","01","18","23:00","-8.3","","-11.7","","77","","2","","13","","25.0","","100.28","","","","-14","","Clear"
"1956-01-19 00:00","1956","01","19","00:00","-9.4","","-14.4","","67","","36","","13","","25.0","","100.28","","","","-15","","Clear"
"1956-01-19 01:00","1956","01","19","01:00","-10.0","","-15.0","","67","","36","","11","","25.0","","100.14","","","","-16","","Clear"
"1956-01-19 02:00","1956","01","19","02:00","-10.0","","-16.1","","61","","36","","10","","25.0","","100.18","","","","-15","","Clear"
"1956-01-19 03:00","1956","01","19","03:00","-10.6","","-15.0","","70","","36","","13","","25.0","","100.15","","","","-17","","Clear"
"1956-01-19 04:00","1956","01","19","04:00","-10.6","","-15.0","","70","","36","","19","","25.0","","100.04","","","","-18","","Clear"
"1956-01-19 05:00","1956","01","19","05:00","-10.0","","-14.4","","70","","36","","13","","25.0","","100.00","","","","-16","","Clear"
"1956-01-19 06:00","1956","01","19","06:00","-10.0","","-14.4","","70","","2","","13","","25.0","","99.97","","","","-16","","Mostly Cloudy"
"1956-01-19 07:00","1956","01","19","07:00","-9.4","","-13.3","","73","","2","","13","","25.0","","99.90","","","","-15","","Cloudy"
"1956-01-19 08:00","1956","01","19","08:00","-8.9","","-11.1","","84","","5","","10","","25.0","","99.85","","","","-14","","Cloudy"
"1956-01-19 09:00","1956","01","19","09:00","-8.3","","-13.3","","67","","5","","14","","24.1","","99.78","","","","-14","","Cloudy"
"1956-01-19 10:00","1956","01","19","10:00","-7.8","","-12.8","","67","","5","","13","","24.1","","99.74","","","","-14","","Cloudy"
"1956-01-19 11:00","1956","01","19","11:00","-7.2","","-12.2","","68","","5","","13","","24.1","","99.68","","","","-13","","Cloudy"
"1956-01-19 12:00","1956","01","19","12:00","-7.2","","-12.8","","65","","5","","14","","24.1","","99.49","","","","-13","","Cloudy"
"1956-01-19 13:00","1956","01","19","13:00","-6.7","","-13.9","","57","","5","","11","","24.1","","99.38","","","","-12","","Cloudy"
"1956-01-19 14:00","1956","01","19","14:00","-6.7","","-13.3","","59","","5","","14","","24.1","","99.32","","","","-12","","Cloudy"
"1956-01-19 15:00","1956","01","19","15:00","-6.7","","-13.9","","57","","5","","14","","24.1","","99.28","","","","-12","","Cloudy"
"1956-01-19 16:00","1956","01","19","16:00","-6.7","","-11.1","","71","","7","","16","","19.3","","99.20","","","","-13","","Snow"
"1956-01-19 17:00","1956","01","19","17:00","-6.7","","-12.8","","62","","5","","13","","12.9","","99.18","","","","-12","","Snow"
"1956-01-19 18:00","1956","01","19","18:00","-6.7","","-12.2","","65","","5","","16","","12.9","","99.16","","","","-13","","Snow"
"1956-01-19 19:00","1956","01","19","19:00","-7.2","","-11.1","","74","","2","","19","","12.9","","99.14","","","","-14","","Snow"
"1956-01-19 20:00","1956","01","19","20:00","-7.8","","-11.7","","74","","5","","16","","9.7","","99.08","","","","-14","","Snow"
"1956-01-19 21:00","1956","01","19","21:00","-7.8","","-10.0","","84","","5","","19","","4.8","","99.02","","","","-15","","Snow"
"1956-01-19 22:00","1956","01","19","22:00","-7.8","","-10.0","","84","","2","","16","","16.1","","98.97","","","","-14","","Snow"
"1956-01-19 23:00","1956","01","19","23:00","-7.8","","-10.6","","81","","2","","11","","19.3","","98.94","","","","-13","","Snow"
"1956-01-20 00:00","1956","01","20","00:00","-7.8","","-11.7","","74","","2","","11","","19.3","","98.89","","","","-13","","Snow"
"1956-01-20 01:00","1956","01","20","01:00","-7.8","","-12.2","","70","","5","","10","","9.7","","98.89","","","","-13","","Snow"
"1956-01-20 02:00","1956","01","20","02:00","-8.9","","-11.1","","84","","5","","18","","4.8","","98.91","","","","-16","","Snow"
"1956-01-20 03:00","1956","01","20","03:00","-9.4","","-12.2","","80","","2","","18","","4.8","","98.95","","","","-17","","Snow"
"1956-01-20 04:00","1956","01","20","04:00","-10.0","","-11.7","","88","","2","","14","","4.8","","98.95","","","","-16","","Snow"
"1956-01-20 05:00","1956","01","20","05:00","-10.0","","-12.8","","80","","36","","16","","12.9","","98.96","","","","-17","","Snow"
"1956-01-20 06:00","1956","01","20","06:00","-10.0","","-12.2","","84","","36","","14","","4.8","","98.99","","","","-16","","Snow"
"1956-01-20 07:00","1956","01","20","07:00","-9.4","","-12.2","","80","","36","","14","","4.8","","99.06","","","","-16","","Snow"
"1956-01-20 08:00","1956","01","20","08:00","-9.4","","-11.7","","84","","36","","13","","4.0","","99.12","","","","-15","","Snow"
"1956-01-20 09:00","1956","01","20","09:00","-9.4","","-11.7","","84","","36","","14","","4.0","","99.16","","","","-16","","Snow"
"1956-01-20 10:00","1956","01","20","10:00","-8.9","","-12.2","","77","","36","","13","","6.4","","99.22","","","","-15","","Ice Crystals,Haze"
"1956-01-20 11:00","1956","01","20","11:00","-8.3","","-11.7","","77","","36","","16","","11.3","","99.18","","","","-15","","Mainly Clear"
"1956-01-20 12:00","1956","01","20","12:00","-7.2","","-11.1","","74","","36","","10","","16.1","","99.14","","","","-12","","Mainly Clear"
"1956-01-20 13:00","1956","01","20","13:00","-6.7","","-12.2","","65","","36","","10","","24.1","","99.15","","","","-11","","Mostly Cloudy"
"1956-01-20 14:00","1956","01","20","14:00","-5.6","","-11.7","","62","","29","","10","","24.1","","99.13","","","","-10","","Mainly Clear"
"1956-01-20 15:00","1956","01","20","15:00","-5.6","","-10.0","","71","","29","","6","","25.0","","99.18","","","","-8","","Mainly Clear"
"1956-01-20 16:00","1956","01","20","16:00","-6.1","","-11.1","","68","","2","","8","","25.0","","99.22","","","","-10","","Clear"
"1956-01-20 17:00","1956","01","20","17:00","-6.7","","-11.1","","71","","2","","6","","25.0","","99.25","","","","-10","","Clear"
"1956-01-20 18:00","1956","01","20","18:00","-7.8","","-11.7","","74","","34","","6","","25.0","","99.33","","","","-11","","Clear"
"1956-01-20 19:00","1956","01","20","19:00","-8.3","","-11.7","","77","","32","","6","","25.0","","99.38","","","","-12","","Clear"
"1956-01-20 20:00","1956","01","20","20:00","-10.0","","-13.3","","77","","36","","10","","25.0","","99.42","","","","-15","","Clear"
"1956-01-20 21:00","1956","01","20","21:00","-11.1","","-13.9","","80","","36","","10","","25.0","","99.46","","","","-17","","Clear"
"1956-01-20 22:00","1956","01","20","22:00","-12.8","","-15.6","","80","","36","","10","","25.0","","99.50","","","","-19","","Clear"
"1956-01-20 23:00","1956","01","20","23:00","-12.2","","-15.0","","80","","32","","8","","25.0","","99.52","","","","-17","","Clear"
"1956-01-21 00:00","1956","01","21","00:00","-14.4","","-17.2","","79","","32","","8","","25.0","","99.54","","","","-20","","Clear"
"1956-01-21 01:00","1956","01","21","01:00","-13.9","","-15.6","","87","","29","","6","","25.0","","99.59","","","","-18","","Clear"
"1956-01-21 02:00","1956","01","21","02:00","-14.4","","-16.7","","83","","27","","6","","25.0","","99.65","","","","-19","","Clear"
"1956-01-21 03:00","1956","01","21","03:00","-15.0","","-17.2","","83","","27","","6","","25.0","","99.69","","","","-19","","Clear"
"1956-01-21 04:00","1956","01","21","04:00","-12.2","","-13.9","","87","","27","","3","","25.0","","99.72","","","","-14","","Mostly Cloudy"
"1956-01-21 05:00","1956","01","21","05:00","-11.1","","-12.2","","91","","27","","3","","25.0","","99.72","","","","-13","","Cloudy"
"1956-01-21 06:00","1956","01","21","06:00","-10.0","","-11.1","","92","","27","","5","","25.0","","99.77","","","","-13","","Cloudy"
"1956-01-21 07:00","1956","01","21","07:00","-9.4","","-11.1","","88","","27","","3","","24.1","","99.81","","","","-11","","Cloudy"
"1956-01-21 08:00","1956","01","21","08:00","-8.9","","-10.6","","88","","27","","3","","16.1","","99.84","","","","-11","","Cloudy"
"1956-01-21 09:00","1956","01","21","09:00","-7.2","","-9.4","","84","","","","0","","9.7","","99.88","","","","","","Haze"
"1956-01-21 10:00","1956","01","21","10:00","-6.7","","-8.3","","88","","","","0","","4.8","","99.91","","","","","","Snow,Haze"
"1956-01-21 11:00","1956","01","21","11:00","-5.0","","-7.2","","84","","18","","3","","4.8","","99.88","","","","-6","","Snow,Haze"
"1956-01-21 12:00","1956","01","21","12:00","-2.8","","-6.1","","78","","18","","5","","4.8","","99.81","","","","-5","","Haze"
"1956-01-21 13:00","1956","01","21","13:00","-0.6","","-3.9","","78","","18","","6","","4.8","","99.75","","","","-3","","Haze"
"1956-01-21 14:00","1956","01","21","14:00","-1.1","","-3.9","","81","","18","","11","","4.0","","99.77","","","","-5","","Haze"
"1956-01-21 15:00","1956","01","21","15:00","-1.7","","-3.9","","85","","16","","11","","2.4","","99.81","","","","-6","","Snow,Haze"
"1956-01-21 16:00","1956","01","21","16:00","-1.1","","-2.8","","88","","16","","10","","2.4","","99.83","","","","-5","","Haze"
"1956-01-21 17:00","1956","01","21","17:00","-1.1","","-2.8","","88","","16","","10","","1.2","","99.84","","","","-5","","Haze"
"1956-01-21 18:00","1956","01","21","18:00","-1.7","","-2.8","","92","","16","","10","","1.2","","99.85","","","","-5","","Haze"
"1956-01-21 19:00","1956","01","21","19:00","-1.7","","-2.8","","92","","16","","10","","2.4","","99.85","","","","-5","","Snow,Haze"
"1956-01-21 20:00","1956","01","21","20:00","-1.7","","-2.8","","92","","16","","8","","2.4","","99.85","","","","-5","","Snow,Haze"
"1956-01-21 21:00","1956","01","21","21:00","-1.7","","-3.3","","88","","23","","16","","2.4","","99.85","","","","-7","","Snow,Haze"
"1956-01-21 22:00","1956","01","21","22:00","-2.2","","-3.3","","92","","23","","13","","2.4","","99.85","","","","-7","","Snow,Haze"
"1956-01-21 23:00","1956","01","21","23:00","-2.2","","-3.3","","92","","32","","19","","4.0","","99.89","","","","-8","","Snow"
"1956-01-22 00:00","1956","01","22","00:00","-3.3","","-5.0","","88","","29","","13","","4.0","","99.86","","","","-8","","Snow"
"1956-01-22 01:00","1956","01","22","01:00","-4.4","","-6.1","","88","","27","","19","","12.9","","99.88","","","","-11","","Snow"
"1956-01-22 02:00","1956","01","22","02:00","-5.0","","-7.2","","84","","27","","10","","12.9","","99.90","","","","-9","","Snow"
"1956-01-22 03:00","1956","01","22","03:00","-5.0","","-7.8","","81","","27","","6","","16.1","","99.89","","","","-8","","Cloudy"
"1956-01-22 04:00","1956","01","22","04:00","-5.6","","-7.8","","84","","27","","13","","24.1","","99.91","","","","-11","","Mainly Clear"
"1956-01-22 05:00","1956","01","22","05:00","-7.8","","-10.6","","81","","27","","8","","25.0","","99.92","","","","-12","","Mostly Cloudy"
"1956-01-22 06:00","1956","01","22","06:00","-12.2","","-14.4","","84","","27","","18","","25.0","","100.00","","","","-20","","Mainly Clear"
"1956-01-22 07:00","1956","01","22","07:00","-10.0","","-12.2","","84","","27","","14","","24.1","","99.99","","","","-16","","Mainly Clear"
"1956-01-22 08:00","1956","01","22","08:00","-11.1","","-13.3","","84","","27","","8","","16.1","","100.00","","","","-16","","Mainly Clear"
"1956-01-22 09:00","1956","01","22","09:00","-7.8","","-11.1","","77","","27","","10","","12.9","","100.03","","","","-13","","Mainly Clear"
"1956-01-22 10:00","1956","01","22","10:00","-6.1","","-10.0","","74","","27","","3","","12.9","","100.02","","","","-8","","Mainly Clear"
"1956-01-22 11:00","1956","01","22","11:00","-5.6","","-10.6","","68","","27","","21","","16.1","","100.00","","","","-12","","Mainly Clear"
"1956-01-22 12:00","1956","01","22","12:00","-5.0","","-10.6","","65","","25","","24","","16.1","","99.94","","","","-12","","Mainly Clear"
"1956-01-22 13:00","1956","01","22","13:00","-5.0","","-10.6","","65","","27","","29","","12.9","","99.88","","","","-13","","Mainly Clear"
"1956-01-22 14:00","1956","01","22","14:00","-5.0","","-11.1","","62","","27","","23","","12.9","","99.82","","","","-12","","Clear"
"1956-01-22 15:00","1956","01","22","15:00","-5.0","","-11.1","","62","","32","","14","","12.9","","99.76","","","","-10","","Mainly Clear"
"1956-01-22 16:00","1956","01","22","16:00","-6.1","","-10.0","","74","","25","","13","","12.9","","99.77","","","","-11","","Mainly Clear"
"1956-01-22 17:00","1956","01","22","17:00","-7.2","","-10.6","","77","","27","","10","","9.7","","99.78","","","","-12","","Smoke,Haze"
"1956-01-22 18:00","1956","01","22","18:00","-8.3","","-11.7","","77","","23","","8","","9.7","","99.75","","","","-12","","Smoke,Haze"
"1956-01-22 19:00","1956","01","22","19:00","-9.4","","-11.7","","84","","23","","6","","8.0","","99.72","","","","-13","","Snow,Smoke,Haze"
"1956-01-22 20:00","1956","01","22","20:00","-7.8","","-8.9","","92","","23","","6","","8.0","","99.61","","","","-11","","Snow,Fog"
"1956-01-22 21:00","1956","01","22","21:00","-7.8","","-8.9","","92","","23","","2","","1.0","","99.59","","","","-9","","Snow"
"1956-01-22 22:00","1956","01","22","22:00","-7.2","","-8.3","","92","","23","","6","","2.0","","99.50","","","","-10","","Snow,Fog"
"1956-01-22 23:00","1956","01","22","23:00","-7.2","","-8.9","","88","","25","","16","","3.2","","99.49","","","","-14","","Snow,Fog"
"1956-01-23 00:00","1956","01","23","00:00","-8.9","","-11.7","","80","","29","","23","","25.0","","99.45","","","","-17","","Mainly Clear"
"1956-01-23 01:00","1956","01","23","01:00","-9.4","","-13.3","","73","","27","","29","","25.0","","99.42","","","","-19","","Mostly Cloudy"
"1956-01-23 02:00","1956","01","23","02:00","-10.0","","-13.3","","77","","27","","31","","25.0","","99.47","","","","-20","","Mostly Cloudy"
"1956-01-23 03:00","1956","01","23","03:00","-10.6","","-13.3","","80","","27","","29","","25.0","","99.48","","","","-20","","Mostly Cloudy"
"1956-01-23 04:00","1956","01","23","04:00","-10.6","","-13.3","","80","","27","","24","","25.0","","99.52","","","","-19","","Clear"
"1956-01-23 05:00","1956","01","23","05:00","-10.6","","-13.3","","80","","27","","31","","25.0","","99.54","","","","-20","","Clear"
"1956-01-23 06:00","1956","01","23","06:00","-11.1","","-13.9","","80","","27","","26","","25.0","","99.58","","","","-20","","Clear"
"1956-01-23 07:00","1956","01","23","07:00","-12.2","","-15.0","","80","","27","","19","","25.0","","99.62","","","","-20","","Clear"
"1956-01-23 08:00","1956","01","23","08:00","-10.0","","-13.3","","77","","29","","21","","25.0","","99.67","","","","-18","","Clear"
"1956-01-23 09:00","1956","01","23","09:00","-8.3","","-12.2","","74","","29","","23","","24.1","","99.73","","","","-16","","Clear"
"1956-01-23 10:00","1956","01","23","10:00","-7.8","","-11.7","","74","","32","","27","","24.1","","99.70","","","","-16","","Clear"
"1956-01-23 11:00","1956","01","23","11:00","-6.7","","-10.6","","74","","32","","29","","24.1","","99.70","","","","-15","","Mainly Clear"
"1956-01-23 12:00","1956","01","23","12:00","-6.1","","-10.0","","74","","32","","29","","24.1","","99.63","","","","-14","","Mainly Clear"
"1956-01-23 13:00","1956","01","23","13:00","-6.1","","-11.1","","68","","32","","26","","24.1","","99.65","","","","-14","","Mainly Clear"
"1956-01-23 14:00","1956","01","23","14:00","-5.6","","-9.4","","74","","34","","24","","25.0","","99.62","","","","-13","","Clear"
"1956-01-23 15:00","1956","01","23","15:00","-5.6","","-9.4","","74","","34","","16","","25.0","","99.63","","","","-12","","Mainly Clear"
"1956-01-23 16:00","1956","01","23","16:00","-5.6","","-9.4","","74","","29","","23","","25.0","","99.64","","","","-13","","Clear"
"1956-01-23 17:00","1956","01","23","17:00","-6.1","","-10.0","","74","","29","","19","","25.0","","99.63","","","","-13","","Clear"
"1956-01-23 18:00","1956","01","23","18:00","-8.9","","-13.3","","70","","29","","23","","25.0","","99.66","","","","-17","","Clear"
"1956-01-23 19:00","1956","01","23","19:00","-10.0","","-12.8","","80","","29","","19","","25.0","","99.68","","","","-18","","Clear"
"1956-01-23 20:00","1956","01","23","20:00","-10.6","","-12.8","","84","","32","","23","","25.0","","99.65","","","","-19","","Clear"
"1956-01-23 21:00","1956","01","23","21:00","-10.0","","-11.7","","88","","32","","29","","25.0","","99.62","","","","-19","","Snow Showers"
"1956-01-23 22:00","1956","01","23","22:00","-8.9","","-11.7","","80","","32","","19","","25.0","","99.60","","","","-16","","Snow Showers"
"1956-01-23 23:00","1956","01","23","23:00","-9.4","","-12.8","","77","","32","","13","","25.0","","99.58","","","","-15","","Snow Showers"
"1956-01-24 00:00","1956","01","24","00:00","-11.1","","-12.8","","87","","27","","6","","25.0","","99.54","","","","-15","","Snow Showers"
"1956-01-24 01:00","1956","01","24","01:00","-11.1","","-13.3","","84","","27","","6","","24.1","","99.52","","","","-15","","Snow Showers"
"1956-01-24 02:00","1956","01","24","02:00","-10.0","","-13.3","","77","","27","","3","","9.7","","99.55","","","","-12","","Snow"
"1956-01-24 03:00","1956","01","24","03:00","-9.4","","-11.7","","84","","29","","10","","12.9","","99.59","","","","-15","","Snow"
"1956-01-24 04:00","1956","01","24","04:00","-10.6","","-12.8","","84","","34","","13","","25.0","","99.64","","","","-17","","Ice Crystals"
"1956-01-24 05:00","1956","01","24","05:00","-11.1","","-13.9","","80","","34","","16","","25.0","","99.66","","","","-18","","Ice Crystals"
"1956-01-24 06:00","1956","01","24","06:00","-12.8","","-14.4","","87","","32","","10","","25.0","","99.70","","","","-19","","Clear"
"1956-01-24 07:00","1956","01","24","07:00","-12.2","","-13.9","","87","","32","","10","","25.0","","99.74","","","","-18","","Clear"
"1956-01-24 08:00","1956","01","24","08:00","-11.7","","-14.4","","80","","34","","10","","25.0","","99.78","","","","-17","","Clear"
"1956-01-24 09:00","1956","01","24","09:00","-11.1","","-13.9","","80","","34","","14","","25.0","","99.82","","","","-18","","Clear"
"1956-01-24 10:00","1956","01","24","10:00","-10.0","","-13.3","","77","","36","","14","","25.0","","99.83","","","","-16","","Clear"
"1956-01-24 11:00","1956","01","24","11:00","-8.9","","-12.2","","77","","36","","11","","25.0","","99.81","","","","-14","","Clear"
"1956-01-24 12:00","1956","01","24","12:00","-7.8","","-11.1","","77","","32","","11","","25.0","","99.75","","","","-13","","Clear"
"1956-01-24 13:00","1956","01","24","13:00","-6.1","","-10.0","","74","","32","","13","","25.0","","99.67","","","","-11","","Clear"
"1956-01-24 14:00","1956","01","24","14:00","-5.0","","-10.6","","65","","32","","16","","25.0","","99.67","","","","-11","","Clear"
"1956-01-24 15:00","1956","01","24","15:00","-4.4","","-10.0","","65","","34","","16","","25.0","","99.73","","","","-10","","Mainly Clear"
"1956-01-24 16:00","1956","01","24","16:00","-5.0","","-9.4","","71","","32","","19","","25.0","","99.73","","","","-11","","Clear"
"1956-01-24 17:00","1956","01","24","17:00","-7.2","","-10.6","","77","","36","","11","","25.0","","99.76","","","","-12","","Mainly Clear"
"1956-01-24 18:00","1956","01","24","18:00","-8.3","","-12.2","","74","","34","","10","","25.0","","99.82","","","","-13","","Clear"
"1956-01-24 19:00","1956","01","24","19:00","-11.1","","-13.9","","80","","29","","13","","25.0","","99.84","","","","-18","","Clear"
"1956-01-24 20:00","1956","01","24","20:00","-10.0","","-12.8","","80","","29","","16","","25.0","","99.86","","","","-17","","Clear"
"1956-01-24 21:00","1956","01","24","21:00","-12.2","","-13.9","","87","","29","","16","","25.0","","99.90","","","","-20","","Clear"
"1956-01-24 22:00","1956","01","24","22:00","-11.1","","-12.8","","87","","27","","10","","25.0","","99.91","","","","-17","","Clear"
"1956-01-24 23:00","1956","01","24","23:00","-12.2","","-13.9","","87","","27","","13","","25.0","","99.97","","","","-19","","Clear"
"1956-01-25 00:00","1956","01","25","00:00","-11.7","","-13.9","","84","","27","","11","","25.0","","99.93","","","","-18","","Clear"
"1956-01-25 01:00","1956","01","25","01:00","-12.2","","-13.9","","87","","34","","6","","25.0","","99.94","","","","-16","","Snow Showers"
"1956-01-25 02:00","1956","01","25","02:00","-13.9","","-16.1","","83","","27","","8","","25.0","","99.96","","","","-19","","Ice Crystals"
"1956-01-25 03:00","1956","01","25","03:00","-15.0","","-17.8","","79","","27","","10","","25.0","","99.98","","","","-21","","Clear"
"1956-01-25 04:00","1956","01","25","04:00","-15.0","","-17.8","","79","","27","","10","","25.0","","99.97","","","","-21","","Clear"
"1956-01-25 05:00","1956","01","25","05:00","-13.3","","-15.6","","83","","27","","11","","25.0","","99.98","","","","-20","","Snow Showers"
"1956-01-25 06:00","1956","01","25","06:00","-13.3","","-15.6","","83","","27","","6","","25.0","","100.03","","","","-17","","Snow Showers"
"1956-01-25 07:00","1956","01","25","07:00","-14.4","","-16.1","","87","","23","","6","","25.0","","100.04","","","","-19","","Mainly Clear"
"1956-01-25 08:00","1956","01","25","08:00","-15.6","","-18.3","","79","","23","","6","","24.1","","100.06","","","","-20","","Mainly Clear"
"1956-01-25 09:00","1956","01","25","09:00","-11.7","","-14.4","","80","","27","","2","","24.1","","100.07","","","","-13","","Mainly Clear"
"1956-01-25 10:00","1956","01","25","10:00","-10.0","","-13.3","","77","","29","","5","","25.0","","100.08","","","","-13","","Mainly Clear"
"1956-01-25 11:00","1956","01","25","11:00","-8.3","","-13.9","","64","","25","","8","","25.0","","100.06","","","","-12","","Mainly Clear"
"1956-01-25 12:00","1956","01","25","12:00","-7.2","","-13.3","","62","","23","","10","","25.0","","99.99","","","","-12","","Mainly Clear"
"1956-01-25 13:00","1956","01","25","13:00","-6.1","","-12.2","","62","","32","","13","","25.0","","99.87","","","","-11","","Mainly Clear"
"1956-01-25 14:00","1956","01","25","14:00","-5.6","","-11.7","","62","","32","","13","","25.0","","99.80","","","","-11","","Mainly Clear"
"1956-01-25 15:00","1956","01","25","15:00","-5.0","","-12.8","","54","","32","","10","","25.0","","99.80","","","","-9","","Mainly Clear"
"1956-01-25 16:00","1956","01","25","16:00","-5.6","","-12.8","","57","","36","","13","","25.0","","99.82","","","","-11","","Clear"
"1956-01-25 17:00","1956","01","25","17:00","-7.8","","-12.2","","70","","36","","16","","25.0","","99.83","","","","-14","","Clear"
"1956-01-25 18:00","1956","01","25","18:00","-8.9","","-12.2","","77","","36","","16","","25.0","","99.84","","","","-16","","Mainly Clear"
"1956-01-25 19:00","1956","01","25","19:00","-9.4","","-12.8","","77","","36","","13","","25.0","","99.85","","","","-15","","Mostly Cloudy"
"1956-01-25 20:00","1956","01","25","20:00","-8.9","","-11.7","","80","","36","","10","","24.1","","99.86","","","","-14","","Snow"
"1956-01-25 21:00","1956","01","25","21:00","-8.9","","-11.7","","80","","36","","10","","19.3","","99.88","","","","-14","","Snow"
"1956-01-25 22:00","1956","01","25","22:00","-9.4","","-12.8","","77","","36","","16","","19.3","","99.90","","","","-16","","Snow"
"1956-01-25 23:00","1956","01","25","23:00","-10.6","","-14.4","","73","","34","","19","","25.0","","99.96","","","","-18","","Mainly Clear"
"1956-01-26 00:00","1956","01","26","00:00","-11.1","","-17.2","","61","","34","","21","","25.0","","99.95","","","","-19","","Clear"
"1956-01-26 01:00","1956","01","26","01:00","-12.2","","-16.7","","70","","34","","13","","25.0","","99.95","","","","-19","","Clear"
"1956-01-26 02:00","1956","01","26","02:00","-12.2","","-16.7","","70","","34","","11","","25.0","","100.03","","","","-18","","Clear"
"1956-01-26 03:00","1956","01","26","03:00","-12.2","","-16.7","","70","","32","","14","","25.0","","100.06","","","","-19","","Clear"
"1956-01-26 04:00","1956","01","26","04:00","-12.8","","-16.1","","76","","32","","16","","25.0","","100.11","","","","-20","","Clear"
"1956-01-26 05:00","1956","01","26","05:00","-15.0","","-18.3","","76","","29","","11","","25.0","","100.16","","","","-22","","Clear"
"1956-01-26 06:00","1956","01","26","06:00","-13.9","","-16.7","","80","","29","","14","","25.0","","100.22","","","","-21","","Clear"
"1956-01-26 07:00","1956","01","26","07:00","-13.9","","-16.7","","80","","29","","14","","25.0","","100.25","","","","-21","","Clear"
"1956-01-26 08:00","1956","01","26","08:00","-13.3","","-16.1","","80","","34","","8","","24.1","","100.32","","","","-18","","Clear"
"1956-01-26 09:00","1956","01","26","09:00","-11.7","","-13.9","","84","","34","","16","","25.0","","100.37","","","","-19","","Mainly Clear"
"1956-01-26 10:00","1956","01","26","10:00","-9.4","","-12.8","","77","","34","","24","","25.0","","100.45","","","","-18","","Mainly Clear"
"1956-01-26 11:00","1956","01","26","11:00","-8.3","","-11.7","","77","","34","","23","","25.0","","100.47","","","","-16","","Mostly Cloudy"
"1956-01-26 12:00","1956","01","26","12:00","-7.8","","-11.1","","77","","34","","23","","25.0","","100.43","","","","-16","","Mainly Clear"
"1956-01-26 13:00","1956","01","26","13:00","-6.7","","-10.6","","74","","32","","19","","25.0","","100.39","","","","-14","","Mainly Clear"
"1956-01-26 14:00","1956","01","26","14:00","-5.0","","-8.9","","74","","32","","13","","25.0","","100.38","","","","-10","","Mainly Clear"
"1956-01-26 15:00","1956","01","26","15:00","-5.0","","-8.3","","77","","32","","16","","25.0","","100.42","","","","-11","","Mainly Clear"
"1956-01-26 16:00","1956","01","26","16:00","-5.6","","-10.6","","68","","34","","13","","25.0","","100.45","","","","-11","","Clear"
"1956-01-26 17:00","1956","01","26","17:00","-6.7","","-12.2","","65","","34","","11","","25.0","","100.46","","","","-12","","Clear"
"1956-01-26 18:00","1956","01","26","18:00","-7.8","","-11.7","","74","","29","","19","","25.0","","100.51","","","","-15","","Clear"
"1956-01-26 19:00","1956","01","26","19:00","-8.3","","-11.7","","77","","34","","11","","25.0","","100.53","","","","-14","","Clear"
"1956-01-26 20:00","1956","01","26","20:00","-10.6","","-13.3","","80","","29","","8","","25.0","","100.56","","","","-15","","Clear"
"1956-01-26 21:00","1956","01","26","21:00","-10.6","","-13.3","","80","","29","","6","","25.0","","100.56","","","","-14","","Clear"
"1956-01-26 22:00","1956","01","26","22:00","-12.2","","-14.4","","84","","29","","6","","25.0","","100.60","","","","-16","","Mainly Clear"
"1956-01-26 23:00","1956","01","26","23:00","-9.4","","-12.8","","77","","27","","6","","19.3","","100.62","","","","-13","","Snow"
"1956-01-27 00:00","1956","01","27","00:00","-8.9","","-11.1","","84","","27","","5","","12.9","","100.63","","","","-12","","Snow"
"1956-01-27 01:00","1956","01","27","01:00","-8.3","","-10.6","","84","","27","","5","","9.7","","100.60","","","","-11","","Snow"
"1956-01-27 02:00","1956","01","27","02:00","-8.3","","-10.0","","88","","29","","5","","12.9","","100.59","","","","-11","","Snow"
"1956-01-27 03:00","1956","01","27","03:00","-8.3","","-10.6","","84","","29","","5","","16.1","","100.61","","","","-11","","Snow"
"1956-01-27 04:00","1956","01","27","04:00","-7.8","","-10.0","","84","","32","","8","","16.1","","100.62","","","","-12","","Snow"
"1956-01-27 05:00","1956","01","27","05:00","-7.8","","-10.0","","84","","34","","10","","16.1","","100.65","","","","-13","","Snow"
"1956-01-27 06:00","1956","01","27","06:00","-7.8","","-10.0","","84","","34","","8","","11.3","","100.69","","","","-12","","Snow"
"1956-01-27 07:00","1956","01","27","07:00","-7.8","","-10.6","","81","","36","","11","","16.1","","100.73","","","","-13","","Snow"
"1956-01-27 08:00","1956","01","27","08:00","-8.3","","-10.6","","84","","34","","10","","12.9","","100.78","","","","-13","","Snow"
"1956-01-27 09:00","1956","01","27","09:00","-7.8","","-10.0","","84","","34","","11","","12.9","","100.81","","","","-13","","Snow"
"1956-01-27 10:00","1956","01","27","10:00","-6.7","","-10.0","","77","","34","","8","","16.1","","100.82","","","","-11","","Mostly Cloudy"
"1956-01-27 11:00","1956","01","27","11:00","-5.6","","-8.3","","81","","32","","6","","19.3","","100.81","","","","-8","","Mainly Clear"
"1956-01-27 12:00","1956","01","27","12:00","-5.0","","-8.9","","74","","36","","11","","24.1","","100.78","","","","-10","","Mostly Cloudy"
"1956-01-27 13:00","1956","01","27","13:00","-5.0","","-10.6","","65","","36","","11","","24.1","","100.75","","","","-10","","Mostly Cloudy"
"1956-01-27 14:00","1956","01","27","14:00","-4.4","","-9.4","","68","","36","","13","","16.1","","100.75","","","","-9","","Snow"
"1956-01-27 15:00","1956","01","27","15:00","-4.4","","-8.9","","71","","36","","11","","19.3","","100.77","","","","-9","","Mainly Clear"
"1956-01-27 16:00","1956","01","27","16:00","-5.0","","-8.3","","77","","36","","11","","25.0","","100.80","","","","-10","","Snow"
"1956-01-27 17:00","1956","01","27","17:00","-5.6","","-9.4","","74","","36","","11","","25.0","","100.83","","","","-10","","Cloudy"
"1956-01-27 18:00","1956","01","27","18:00","-6.1","","-8.9","","81","","36","","11","","19.3","","100.87","","","","-11","","Snow Showers"
"1956-01-27 19:00","1956","01","27","19:00","-6.1","","-8.3","","84","","36","","11","","24.1","","100.90","","","","-11","","Cloudy"
"1956-01-27 20:00","1956","01","27","20:00","-6.7","","-8.9","","84","","36","","11","","25.0","","100.90","","","","-12","","Cloudy"
"1956-01-27 21:00","1956","01","27","21:00","-7.2","","-9.4","","84","","36","","10","","25.0","","100.84","","","","-12","","Cloudy"
"1956-01-27 22:00","1956","01","27","22:00","-7.2","","-10.0","","81","","36","","10","","25.0","","100.90","","","","-12","","Cloudy"
"1956-01-27 23:00","1956","01","27","23:00","-6.7","","-9.4","","81","","36","","8","","25.0","","100.90","","","","-11","","Mostly Cloudy"
"1956-01-28 00:00","1956","01","28","00:00","-8.3","","-10.6","","84","","36","","10","","25.0","","100.92","","","","-13","","Mainly Clear"
"1956-01-28 01:00","1956","01","28","01:00","-9.4","","-11.1","","88","","36","","10","","25.0","","100.97","","","","-15","","Mainly Clear"
"1956-01-28 02:00","1956","01","28","02:00","-11.1","","-12.2","","91","","36","","11","","25.0","","100.98","","","","-17","","Mainly Clear"
"1956-01-28 03:00","1956","01","28","03:00","-12.2","","-13.9","","87","","36","","8","","25.0","","100.98","","","","-17","","Mainly Clear"
"1956-01-28 04:00","1956","01","28","04:00","-12.8","","-13.9","","91","","32","","8","","25.0","","100.96","","","","-18","","Mainly Clear"
"1956-01-28 05:00","1956","01","28","05:00","-12.8","","-13.9","","91","","34","","8","","25.0","","100.89","","","","-18","","Mainly Clear"
"1956-01-28 06:00","1956","01","28","06:00","-13.9","","-15.0","","91","","32","","6","","25.0","","100.95","","","","-18","","Mainly Clear"
"1956-01-28 07:00","1956","01","28","07:00","-13.3","","-13.9","","96","","29","","6","","24.1","","100.97","","","","-17","","Mainly Clear"
"1956-01-28 08:00","1956","01","28","08:00","-14.4","","-15.6","","91","","36","","8","","16.1","","100.90","","","","-20","","Mostly Cloudy"
"1956-01-28 09:00","1956","01","28","09:00","-11.7","","-13.3","","87","","34","","8","","16.1","","100.92","","","","-16","","Mostly Cloudy"
"1956-01-28 10:00","1956","01","28","10:00","-8.3","","-10.6","","84","","36","","6","","14.5","","100.83","","","","-12","","Cloudy"
"1956-01-28 11:00","1956","01","28","11:00","-6.7","","-8.9","","84","","2","","6","","11.3","","100.80","","","","-10","","Mostly Cloudy"
"1956-01-28 12:00","1956","01","28","12:00","-3.9","","-6.7","","81","","18","","16","","4.8","","100.68","","","","-9","","Smoke,Haze"
"1956-01-28 13:00","1956","01","28","13:00","-4.4","","-6.7","","84","","16","","19","","4.8","","100.58","","","","-11","","Smoke,Haze"
"1956-01-28 14:00","1956","01","28","14:00","-4.4","","-6.7","","84","","11","","23","","8.0","","100.41","","","","-11","","Smoke,Haze"
"1956-01-28 15:00","1956","01","28","15:00","-3.3","","-7.2","","74","","14","","24","","8.0","","100.36","","","","-10","","Smoke,Haze"
"1956-01-28 16:00","1956","01","28","16:00","-3.3","","-7.2","","74","","11","","26","","8.0","","100.17","","","","-10","","Smoke,Haze"
"1956-01-28 17:00","1956","01","28","17:00","-3.3","","-6.1","","81","","11","","18","","8.0","","100.07","","","","-9","","Smoke,Haze"
"1956-01-28 18:00","1956","01","28","18:00","-2.8","","-6.1","","78","","11","","24","","8.0","","99.90","","","","-9","","Smoke,Haze"
"1956-01-28 19:00","1956","01","28","19:00","-2.2","","-5.6","","78","","11","","21","","12.9","","99.74","","","","-8","","Cloudy"
"1956-01-28 20:00","1956","01","28","20:00","-1.7","","-3.9","","85","","11","","27","","12.9","","99.49","","","","-8","","Cloudy"
"1956-01-28 21:00","1956","01","28","21:00","-1.1","","-2.8","","88","","14","","21","","12.9","","99.36","","","","-7","","Snow Showers"
"1956-01-28 22:00","1956","01","28","22:00","-1.1","","-2.2","","92","","14","","18","","12.9","","99.21","","","","-6","","Cloudy"
"1956-01-28 23:00","1956","01","28","23:00","-1.1","","-1.1","","100","","16","","18","","8.0","","99.15","","","","-6","","Freezing Rain"
"1956-01-29 00:00","1956","01","29","00:00","-0.6","","-1.1","","96","","16","","13","","4.8","","99.01","","","","-5","","Freezing Drizzle,Fog"
"1956-01-29 01:00","1956","01","29","01:00","-0.6","","-1.1","","96","","16","","16","","1.2","","98.91","","","","-5","","Freezing Drizzle,Fog"
"1956-01-29 02:00","1956","01","29","02:00","0.0","","-0.6","","96","","18","","13","","0.4","","98.86","","","","-4","","Freezing Drizzle,Fog"
"1956-01-29 03:00","1956","01","29","03:00","0.0","","0.0","","100","","16","","11","","0.4","","98.79","","","","-4","","Freezing Drizzle,Fog"
"1956-01-29 04:00","1956","01","29","04:00","1.1","","0.6","","96","","18","","14","","1.6","","98.75","","","","","","Drizzle,Fog"
"1956-01-29 05:00","1956","01","29","05:00","1.7","","0.6","","92","","23","","13","","3.2","","98.81","","","","","","Drizzle,Fog"
"1956-01-29 06:00","1956","01","29","06:00","1.7","","1.1","","96","","23","","13","","4.0","","98.83","","","","","","Fog"
"1956-01-29 07:00","1956","01","29","07:00","1.7","","1.1","","96","","25","","13","","4.0","","98.90","","","","","","Fog"
"1956-01-29 08:00","1956","01","29","08:00","2.2","","1.7","","96","","23","","11","","3.2","","98.90","","","","","","Drizzle,Fog"
"1956-01-29 09:00","1956","01","29","09:00","2.2","","1.1","","92","","23","","18","","4.8","","99.02","","","","","","Fog"
"1956-01-29 10:00","1956","01","29","10:00","2.2","","1.1","","92","","23","","14","","4.8","","99.03","","","","","","Fog"
"1956-01-29 11:00","1956","01","29","11:00","2.2","","0.6","","89","","25","","13","","8.0","","99.01","","","","","","Haze"
"1956-01-29 12:00","1956","01","29","12:00","2.8","","-1.1","","75","","25","","16","","16.1","","98.97","","","","","","Cloudy"
"1956-01-29 13:00","1956","01","29","13:00","2.2","","-0.6","","82","","25","","19","","16.1","","98.94","","","","","","Cloudy"
"1956-01-29 14:00","1956","01","29","14:00","2.2","","1.1","","92","","25","","21","","16.1","","98.88","","","","","","Cloudy"
"1956-01-29 15:00","1956","01","29","15:00","2.2","","-0.6","","82","","25","","24","","16.1","","99.00","","","","","","Cloudy"
"1956-01-29 16:00","1956","01","29","16:00","2.2","","-1.7","","75","","25","","24","","12.9","","99.09","","","","","","Cloudy"
"1956-01-29 17:00","1956","01","29","17:00","1.7","","-2.2","","75","","29","","24","","12.9","","99.11","","","","","","Cloudy"
"1956-01-29 18:00","1956","01","29","18:00","1.1","","-3.3","","72","","29","","24","","24.1","","99.15","","","","","","Cloudy"
"1956-01-29 19:00","1956","01","29","19:00","0.6","","-3.3","","75","","29","","26","","24.1","","99.19","","","","","","Cloudy"
"1956-01-29 20:00","1956","01","29","20:00","-0.6","","-3.9","","78","","29","","16","","24.1","","99.22","","","","-5","","Cloudy"
"1956-01-29 21:00","1956","01","29","21:00","-0.6","","-3.9","","78","","25","","11","","24.1","","99.26","","","","-4","","Cloudy"
"1956-01-29 22:00","1956","01","29","22:00","-0.6","","-3.3","","81","","25","","11","","24.1","","99.28","","","","-4","","Cloudy"
"1956-01-29 23:00","1956","01","29","23:00","-0.6","","-3.9","","78","","27","","11","","24.1","","99.31","","","","-4","","Cloudy"
"1956-01-30 00:00","1956","01","30","00:00","-1.1","","-3.3","","85","","32","","13","","19.3","","99.38","","","","-5","","Cloudy"
"1956-01-30 01:00","1956","01","30","01:00","-1.1","","-3.9","","81","","34","","10","","16.1","","99.34","","","","-5","","Mostly Cloudy"
"1956-01-30 02:00","1956","01","30","02:00","-1.7","","-5.6","","75","","32","","14","","16.1","","99.38","","","","-6","","Cloudy"
"1956-01-30 03:00","1956","01","30","03:00","-2.2","","-5.6","","78","","34","","10","","16.1","","99.27","","","","-6","","Cloudy"
"1956-01-30 04:00","1956","01","30","04:00","-2.8","","-5.6","","81","","36","","8","","16.1","","99.05","","","","-6","","Cloudy"
"1956-01-30 05:00","1956","01","30","05:00","-2.2","","-6.1","","75","","2","","21","","16.1","","98.97","","","","-8","","Cloudy"
"1956-01-30 06:00","1956","01","30","06:00","-2.8","","-6.1","","78","","5","","14","","16.1","","99.06","","","","-8","","Cloudy"
"1956-01-30 07:00","1956","01","30","07:00","-2.8","","-5.6","","81","","5","","16","","1.6","","99.04","","","","-8","","Snow"
"1956-01-30 08:00","1956","01","30","08:00","-3.9","","-5.6","","88","","2","","21","","1.2","","99.00","","","","-10","","Snow"
"1956-01-30 09:00","1956","01","30","09:00","-4.4","","-5.6","","92","","36","","19","","1.2","","98.90","","","","-11","","Snow"
"1956-01-30 10:00","1956","01","30","10:00","-4.4","","-5.6","","92","","36","","29","","0.8","","98.75","","","","-12","","Moderate Snow"
"1956-01-30 11:00","1956","01","30","11:00","-4.4","","-5.0","","96","","36","","23","","0.8","","98.72","","","","-11","","Moderate Snow"
"1956-01-30 12:00","1956","01","30","12:00","-4.4","","-5.0","","96","","36","","19","","0.8","","98.72","","","","-11","","Moderate Snow"
"1956-01-30 13:00","1956","01","30","13:00","-4.4","","-5.6","","92","","34","","24","","0.8","","98.72","","","","-11","","Moderate Snow"
"1956-01-30 14:00","1956","01","30","14:00","-4.4","","-5.6","","92","","32","","26","","0.8","","98.94","","","","-12","","Moderate Snow"
"1956-01-30 15:00","1956","01","30","15:00","-4.4","","-5.6","","92","","32","","26","","1.2","","99.09","","","","-12","","Snow"
"1956-01-30 16:00","1956","01","30","16:00","-3.9","","-5.6","","88","","32","","26","","1.6","","99.24","","","","-11","","Snow"
"1956-01-30 17:00","1956","01","30","17:00","-3.9","","-5.6","","88","","32","","23","","1.6","","99.38","","","","-11","","Snow"
"1956-01-30 18:00","1956","01","30","18:00","-4.4","","-6.7","","84","","32","","19","","4.0","","99.54","","","","-11","","Snow"
"1956-01-30 19:00","1956","01","30","19:00","-5.0","","-6.7","","88","","27","","13","","8.0","","99.62","","","","-10","","Snow"
"1956-01-30 20:00","1956","01","30","20:00","-5.0","","-6.7","","88","","29","","26","","19.3","","99.76","","","","-12","","Snow"
"1956-01-30 21:00","1956","01","30","21:00","-6.7","","-8.9","","84","","32","","29","","25.0","","99.86","","","","-15","","Mainly Clear"
"1956-01-30 22:00","1956","01","30","22:00","-7.2","","-10.6","","77","","32","","26","","25.0","","99.97","","","","-15","","Cloudy"
"1956-01-30 23:00","1956","01","30","23:00","-8.3","","-10.6","","84","","29","","23","","25.0","","100.09","","","","-16","","Cloudy"
"1956-01-31 00:00","1956","01","31","00:00","-8.9","","-11.7","","80","","29","","23","","25.0","","100.20","","","","-17","","Mostly Cloudy"
"1956-01-31 01:00","1956","01","31","01:00","-9.4","","-12.8","","77","","32","","19","","25.0","","100.30","","","","-17","","Mostly Cloudy"
"1956-01-31 02:00","1956","01","31","02:00","-9.4","","-12.8","","77","","34","","16","","25.0","","100.39","","","","-16","","Mostly Cloudy"
"1956-01-31 03:00","1956","01","31","03:00","-13.3","","-16.1","","80","","27","","13","","25.0","","100.50","","","","-20","","Mostly Cloudy"
"1956-01-31 04:00","1956","01","31","04:00","-13.3","","-15.0","","87","","27","","13","","25.0","","100.55","","","","-20","","Mostly Cloudy"
"1956-01-31 05:00","1956","01","31","05:00","-11.1","","-13.3","","84","","25","","13","","19.3","","100.66","","","","-18","","Snow"
"1956-01-31 06:00","1956","01","31","06:00","-10.0","","-12.2","","84","","27","","13","","19.3","","100.76","","","","-16","","Snow"
"1956-01-31 07:00","1956","01","31","07:00","-9.4","","-11.1","","88","","27","","8","","6.4","","100.82","","","","-14","","Snow,Haze"
"1956-01-31 08:00","1956","01","31","08:00","-10.6","","-13.3","","80","","2","","6","","4.0","","100.94","","","","-14","","Snow,Haze"
"1956-01-31 09:00","1956","01","31","09:00","-10.0","","-12.2","","84","","5","","6","","4.8","","101.05","","","","-14","","Snow,Haze"
"1956-01-31 10:00","1956","01","31","10:00","-10.0","","-12.8","","80","","5","","6","","12.9","","101.09","","","","-14","","Mainly Clear"
"1956-01-31 11:00","1956","01","31","11:00","-7.2","","-10.0","","81","","23","","11","","12.9","","101.16","","","","-12","","Mostly Cloudy"
"1956-01-31 12:00","1956","01","31","12:00","-4.4","","-7.2","","74","","23","","11","","14.5","","101.15","","","","-9","","Mainly Clear"
"1956-01-31 13:00","1956","01","31","13:00","-3.9","","-7.8","","74","","25","","14","","24.1","","101.12","","","","-9","","Mainly Clear"
"1956-01-31 14:00","1956","01","31","14:00","-3.3","","-7.2","","74","","27","","19","","25.0","","101.14","","","","-9","","Mainly Clear"
"1956-01-31 15:00","1956","01","31","15:00","-3.9","","-6.1","","85","","27","","16","","6.4","","101.22","","","","-9","","Snow Showers"
"1956-01-31 16:00","1956","01","31","16:00","-3.9","","-4.4","","96","","25","","19","","9.7","","101.30","","","","-10","","Snow Showers"
"1956-01-31 17:00","1956","01","31","17:00","-6.7","","-8.9","","84","","25","","24","","24.1","","101.34","","","","-14","","Mainly Clear"
"1956-01-31 18:00","1956","01","31","18:00","-8.9","","-10.0","","92","","25","","14","","24.1","","101.39","","","","-15","","Mainly Clear"
"1956-01-31 19:00","1956","01","31","19:00","-11.1","","-12.8","","87","","25","","18","","24.1","","101.44","","","","-19","","Snow Showers"
"1956-01-31 20:00","1956","01","31","20:00","-6.7","","-9.4","","81","","25","","13","","12.9","","101.53","","","","-12","","Snow Showers"
"1956-01-31 21:00","1956","01","31","21:00","-7.2","","-9.4","","84","","20","","13","","12.9","","101.50","","","","-13","","Snow Showers"
"1956-01-31 22:00","1956","01","31","22:00","-7.8","","-10.0","","84","","20","","11","","24.1","","101.52","","","","-13","","Mainly Clear"
"1956-01-31 23:00","1956","01","31","23:00","-11.1","","-13.3","","84","","23","","13","","24.1","","101.54","","","","-18","","Mainly Clear"
