"Station Name","TORONTO LESTER B. PEARSON INT'L A"
"Province","ONTARIO"
"Latitude","43.68"
"Longitude","-79.63"
"Elevation","173.40"
"Climate Identifier","6158733"
"WMO Identifier","71624"
"TC Identifier","YYZ"
"All times are specified in Local Standard Time (LST). Add 1 hour to adjust for Daylight Saving Time where and when it is observed."

"Legend"
"E","Estimated"
"M","Missing"
"NA","Not Available"

"Date/Time","Year","Month","Day","Time","Temp (°C)","Temp Flag","Dew Point Temp (°C)","Dew Point Temp Flag","Rel Hum (%)","Rel Hum Flag","Wind Dir (10s deg)","Wind Dir Flag","Wind Spd (km/h)","Wind Spd Flag","Visibility (km)","Visibility Flag","Stn Press (kPa)","Stn Press Flag","Hmdx","Hmdx Flag","Wind Chill","Wind Chill Flag","Weather"
"1994-12-01 00:00","1994","12","01","00:00","-1.2","","-4.4","","79","","27","","6","","25.0","","100.45","","","","-3","","Cloudy"
"1994-12-01 01:00","1994","12","01","01:00","-0.8","","-4.4","","77","","26","","6","","25.0","","100.45","","","","-3","","Cloudy"
"1994-12-01 02:00","1994","12","01","02:00","-0.8","","-4.4","","77","","25","","6","","25.0","","100.45","","","","-3","","Cloudy"
"1994-12-01 03:00","1994","12","01","03:00","-1.0","","-3.8","","81","","27","","7","","24.1","","100.49","","","","-4","","Mostly Cloudy"
"1994-12-01 04:00","1994","12","01","04:00","-0.6","","-5.0","","72","","27","","11","","24.1","","100.49","","","","-4","","Mostly Cloudy"
"1994-12-01 05:00","1994","12","01","05:00","-0.6","","-5.6","","69","","26","","20","","24.1","","100.59","","","","-6","","Cloudy"
"1994-12-01 06:00","1994","12","01","06:00","-0.4","","-2.3","","87","","27","","11","","19.3","","100.59","","","","-4","","Cloudy"
"1994-12-01 07:00","1994","12","01","07:00","-0.3","","-2.4","","86","","27","","11","","24.1","","100.69","","","","-4","","Mostly Cloudy"
"1994-12-01 08:00","1994","12","01","08:00","-0.2","","-3.7","","77","","26","","15","","32.2","","100.69","","","","-5","","Mostly Cloudy"
"1994-12-01 09:00","1994","12","01","09:00","0.3","","-4.5","","70","","25","","11","","24.1","","100.69","","","","","","Cloudy"
"1994-12-01 10:00","1994","12","01","10:00","0.9","","-4.2","","69","","22","","15","","24.1","","100.65","","","","","","Cloudy"
"1994-12-01 11:00","1994","12","01","11:00","1.2","","-3.0","","74","","22","","20","","19.3","","100.62","","","","","","Mostly Cloudy"
"1994-12-01 12:00","1994","12","01","12:00","2.0","","-3.4","","67","","23","","22","","32.2","","100.59","","","","","","Mostly Cloudy"
"1994-12-01 13:00","1994","12","01","13:00","3.8","","-3.2","","60","","24","","22","","24.1","","100.49","","","","","","Mostly Cloudy"
"1994-12-01 14:00","1994","12","01","14:00","4.2","","-2.5","","62","","22","","22","","24.1","","100.39","","","","","","Mostly Cloudy"
"1994-12-01 15:00","1994","12","01","15:00","4.1","","-1.9","","65","","20","","28","","24.1","","100.35","","","","","","Mostly Cloudy"
"1994-12-01 16:00","1994","12","01","16:00","3.0","","-2.0","","70","","19","","28","","24.1","","100.29","","","","","","Mostly Cloudy"
"1994-12-01 17:00","1994","12","01","17:00","2.9","","-2.6","","67","","19","","24","","19.3","","100.25","","","","","","Cloudy"
"1994-12-01 18:00","1994","12","01","18:00","3.0","","-2.0","","70","","18","","20","","24.1","","100.12","","","","","","Cloudy"
"1994-12-01 19:00","1994","12","01","19:00","2.9","","-0.4","","79","","20","","17","","24.1","","100.09","","","","","","Cloudy"
"1994-12-01 20:00","1994","12","01","20:00","4.4","","-2.5","","61","","20","","20","","19.3","","99.95","","","","","","Mostly Cloudy"
"1994-12-01 21:00","1994","12","01","21:00","4.4","","-1.9","","64","","20","","22","","24.1","","99.85","","","","","","Cloudy"
"1994-12-01 22:00","1994","12","01","22:00","4.5","","-1.9","","63","","21","","22","","24.1","","99.79","","","","","","Cloudy"
"1994-12-01 23:00","1994","12","01","23:00","4.4","","-1.3","","66","","22","","26","","25.0","","99.72","","","","","","Cloudy"
"1994-12-02 00:00","1994","12","02","00:00","4.8","","-0.7","","68","","24","","32","","25.0","","99.69","","","","","","Cloudy"
"1994-12-02 01:00","1994","12","02","01:00","4.7","","-1.3","","65","","23","","33","","25.0","","99.65","","","","","","Cloudy"
"1994-12-02 02:00","1994","12","02","02:00","4.9","","-1.3","","64","","24","","35","","25.0","","99.65","","","","","","Mostly Cloudy"
"1994-12-02 03:00","1994","12","02","03:00","5.1","","-1.3","","63","","24","","43","","25.0","","99.59","","","","","","Mainly Clear"
"1994-12-02 04:00","1994","12","02","04:00","5.1","","-1.8","","61","","24","","44","","25.0","","99.59","","","","","","Mainly Clear"
"1994-12-02 05:00","1994","12","02","05:00","4.9","","-2.4","","59","","24","","35","","25.0","","99.55","","","","","","Clear"
"1994-12-02 06:00","1994","12","02","06:00","5.0","","-3.1","","56","","24","","37","","25.0","","99.49","","","","","","Clear"
"1994-12-02 07:00","1994","12","02","07:00","4.9","","-0.2","","70","","24","","28","","25.0","","99.55","","","","","","Mainly Clear"
"1994-12-02 08:00","1994","12","02","08:00","5.0","","-2.4","","59","","24","","30","","40.2","","99.55","","","","","","Mainly Clear"
"1994-12-02 09:00","1994","12","02","09:00","5.7","","-3.0","","54","","25","","30","","40.2","","99.55","","","","","","Clear"
"1994-12-02 10:00","1994","12","02","10:00","6.6","","-2.3","","53","","24","","26","","40.2","","99.55","","","","","","Clear"
"1994-12-02 11:00","1994","12","02","11:00","8.1","","-2.6","","47","","24","","30","","40.2","","99.52","","","","","","Clear"
"1994-12-02 12:00","1994","12","02","12:00","9.4","","-1.6","","46","","25","","26","","40.2","","99.52","","","","","","Clear"
"1994-12-02 13:00","1994","12","02","13:00","10.0","","-0.9","","47","","26","","24","","40.2","","99.52","","","","","","Clear"
"1994-12-02 14:00","1994","12","02","14:00","10.3","","-0.2","","48","","26","","22","","40.2","","99.52","","","","","","Clear"
"1994-12-02 15:00","1994","12","02","15:00","10.5","","-0.2","","47","","26","","17","","40.2","","99.52","","","","","","Clear"
"1994-12-02 16:00","1994","12","02","16:00","9.7","","-0.4","","49","","24","","17","","40.2","","99.55","","","","","","Clear"
"1994-12-02 17:00","1994","12","02","17:00","8.0","","-0.2","","56","","21","","11","","40.2","","99.62","","","","","","Clear"
"1994-12-02 18:00","1994","12","02","18:00","6.3","","1.1","","69","","22","","9","","25.0","","99.72","","","","","","Clear"
"1994-12-02 19:00","1994","12","02","19:00","5.5","","0.4","","70","","23","","9","","25.0","","99.79","","","","","","Clear"
"1994-12-02 20:00","1994","12","02","20:00","4.4","","0.3","","75","","22","","6","","25.0","","99.82","","","","","","Clear"
"1994-12-02 21:00","1994","12","02","21:00","5.0","","0.4","","72","","","","0","","25.0","","99.82","","","","","","Clear"
"1994-12-02 22:00","1994","12","02","22:00","5.5","","-0.1","","67","","","","0","","25.0","","99.85","","","","","","Clear"
"1994-12-02 23:00","1994","12","02","23:00","5.0","","-0.7","","67","","","","0","","25.0","","99.85","","","","","","Clear"
"1994-12-03 00:00","1994","12","03","00:00","5.7","","-1.2","","61","","21","","6","","19.3","","99.89","","","","","","Clear"
"1994-12-03 01:00","1994","12","03","01:00","3.5","","-0.9","","73","","16","","7","","19.3","","99.92","","","","","","Clear"
"1994-12-03 02:00","1994","12","03","02:00","2.5","","-1.5","","75","","","","0","","19.3","","99.95","","","","","","Mostly Cloudy"
"1994-12-03 03:00","1994","12","03","03:00","3.4","","-0.3","","77","","","","0","","19.3","","99.99","","","","","","Mostly Cloudy"
"1994-12-03 04:00","1994","12","03","04:00","3.7","","-0.9","","72","","15","","6","","16.1","","99.95","","","","","","Mostly Cloudy"
"1994-12-03 05:00","1994","12","03","05:00","3.5","","-0.9","","73","","17","","6","","16.1","","99.95","","","","","","Mostly Cloudy"
"1994-12-03 06:00","1994","12","03","06:00","4.0","","0.3","","77","","19","","6","","16.1","","99.95","","","","","","Mostly Cloudy"
"1994-12-03 07:00","1994","12","03","07:00","3.5","","-0.3","","76","","","","0","","25.0","","99.95","","","","","","Mostly Cloudy"
"1994-12-03 08:00","1994","12","03","08:00","4.0","","-0.8","","71","","20","","9","","8.0","","100.05","","","","","","Rain Showers,Haze"
"1994-12-03 09:00","1994","12","03","09:00","5.2","","3.3","","88","","19","","7","","6.4","","99.95","","","","","","Rain Showers,Fog"
"1994-12-03 10:00","1994","12","03","10:00","5.6","","3.8","","88","","22","","9","","19.3","","99.99","","","","","","Cloudy"
"1994-12-03 11:00","1994","12","03","11:00","6.0","","4.3","","89","","16","","7","","12.9","","99.95","","","","","","Rain Showers"
"1994-12-03 12:00","1994","12","03","12:00","6.7","","4.9","","88","","","","0","","11.3","","99.85","","","","","","Rain Showers"
"1994-12-03 13:00","1994","12","03","13:00","6.5","","5.3","","92","","15","","15","","12.9","","99.79","","","","","","Rain Showers"
"1994-12-03 14:00","1994","12","03","14:00","7.4","","5.5","","88","","17","","13","","12.9","","99.75","","","","","","Cloudy"
"1994-12-03 15:00","1994","12","03","15:00","7.9","","5.6","","85","","14","","4","","12.9","","99.75","","","","","","Cloudy"
"1994-12-03 16:00","1994","12","03","16:00","7.5","","4.2","","80","","14","","15","","19.3","","99.69","","","","","","Mostly Cloudy"
"1994-12-03 17:00","1994","12","03","17:00","8.0","","3.4","","73","","16","","13","","11.3","","99.75","","","","","","Cloudy"
"1994-12-03 18:00","1994","12","03","18:00","8.4","","3.5","","71","","16","","9","","19.3","","99.72","","","","","","Cloudy"
"1994-12-03 19:00","1994","12","03","19:00","8.1","","3.4","","72","","16","","11","","24.1","","99.75","","","","","","Cloudy"
"1994-12-03 20:00","1994","12","03","20:00","9.5","","2.3","","61","","","","0","","25.0","","99.79","","","","","","Cloudy"
"1994-12-03 21:00","1994","12","03","21:00","8.9","","2.7","","65","","","","0","","25.0","","99.75","","","","","","Cloudy"
"1994-12-03 22:00","1994","12","03","22:00","9.0","","2.7","","65","","18","","9","","25.0","","99.75","","","","","","Mostly Cloudy"
"1994-12-03 23:00","1994","12","03","23:00","7.5","","2.3","","70","","15","","9","","25.0","","99.79","","","","","","Mainly Clear"
"1994-12-04 00:00","1994","12","04","00:00","7.4","","2.3","","70","","16","","7","","24.1","","99.79","","","","","","Clear"
"1994-12-04 01:00","1994","12","04","01:00","8.0","","2.9","","70","","18","","11","","19.3","","99.82","","","","","","Clear"
"1994-12-04 02:00","1994","12","04","02:00","6.1","","2.0","","75","","","","0","","16.1","","99.89","","","","","","Mainly Clear"
"1994-12-04 03:00","1994","12","04","03:00","7.3","","3.7","","78","","27","","11","","12.9","","99.99","","","","","","Mostly Cloudy"
"1994-12-04 04:00","1994","12","04","04:00","8.4","","4.4","","76","","","","0","","12.9","","100.02","","","","","","Cloudy"
"1994-12-04 05:00","1994","12","04","05:00","6.3","","4.0","","85","","28","","9","","11.3","","100.09","","","","","","Mainly Clear"
"1994-12-04 06:00","1994","12","04","06:00","4.2","","2.2","","87","","25","","9","","11.3","","100.19","","","","","","Clear"
"1994-12-04 07:00","1994","12","04","07:00","6.4","","4.0","","85","","23","","7","","12.9","","100.25","","","","","","Clear"
"1994-12-04 08:00","1994","12","04","08:00","5.4","","3.8","","89","","24","","6","","8.0","","100.35","","","","","","Fog"
"1994-12-04 09:00","1994","12","04","09:00","4.5","","3.6","","94","","27","","6","","8.0","","100.45","","","","","","Fog"
"1994-12-04 10:00","1994","12","04","10:00","6.5","","5.3","","92","","32","","9","","8.0","","100.49","","","","","","Fog"
"1994-12-04 11:00","1994","12","04","11:00","7.0","","5.4","","90","","","","0","","8.0","","100.49","","","","","","Fog"
"1994-12-04 12:00","1994","12","04","12:00","8.0","","6.0","","87","","36","","7","","8.0","","100.42","","","","","","Fog"
"1994-12-04 13:00","1994","12","04","13:00","8.5","","5.3","","80","","","","0","","9.7","","100.42","","","","","","Haze"
"1994-12-04 14:00","1994","12","04","14:00","9.0","","5.9","","81","","","","0","","9.7","","100.35","","","","","","Haze"
"1994-12-04 15:00","1994","12","04","15:00","9.3","","5.6","","78","","9","","7","","9.7","","100.32","","","","","","Haze"
"1994-12-04 16:00","1994","12","04","16:00","8.9","","5.4","","79","","13","","7","","8.0","","100.32","","","","","","Haze"
"1994-12-04 17:00","1994","12","04","17:00","8.1","","5.6","","84","","14","","7","","6.4","","100.32","","","","","","Haze"
"1994-12-04 18:00","1994","12","04","18:00","7.8","","5.6","","86","","14","","7","","6.4","","100.32","","","","","","Haze"
"1994-12-04 19:00","1994","12","04","19:00","7.7","","5.1","","84","","11","","13","","6.4","","100.29","","","","","","Haze"
"1994-12-04 20:00","1994","12","04","20:00","7.8","","5.2","","84","","11","","7","","6.4","","100.22","","","","","","Haze"
"1994-12-04 21:00","1994","12","04","21:00","7.9","","5.2","","83","","9","","7","","8.0","","100.19","","","","","","Haze"
"1994-12-04 22:00","1994","12","04","22:00","7.8","","5.2","","84","","9","","9","","6.4","","100.09","","","","","","Haze"
"1994-12-04 23:00","1994","12","04","23:00","7.8","","5.2","","84","","7","","13","","12.9","","99.99","","","","","","Cloudy"
"1994-12-05 00:00","1994","12","05","00:00","7.6","","5.1","","84","","7","","15","","11.3","","99.92","","","","","","Cloudy"
"1994-12-05 01:00","1994","12","05","01:00","7.7","","5.1","","84","","8","","15","","11.3","","99.79","","","","","","Cloudy"
"1994-12-05 02:00","1994","12","05","02:00","7.5","","6.3","","92","","9","","9","","8.0","","99.69","","","","","","Rain,Fog"
"1994-12-05 03:00","1994","12","05","03:00","7.8","","6.4","","91","","9","","7","","9.7","","99.62","","","","","","Rain,Fog"
"1994-12-05 04:00","1994","12","05","04:00","7.5","","6.3","","92","","6","","7","","8.0","","99.49","","","","","","Rain,Drizzle,Fog"
"1994-12-05 05:00","1994","12","05","05:00","7.3","","6.7","","96","","8","","15","","6.4","","99.39","","","","","","Rain,Drizzle,Fog"
"1994-12-05 06:00","1994","12","05","06:00","7.4","","5.7","","89","","6","","9","","6.4","","99.29","","","","","","Rain,Drizzle,Fog"
"1994-12-05 07:00","1994","12","05","07:00","7.5","","6.7","","95","","7","","13","","6.4","","99.19","","","","","","Rain,Drizzle,Fog"
"1994-12-05 08:00","1994","12","05","08:00","7.6","","7.1","","97","","4","","9","","4.0","","99.16","","","","","","Rain,Drizzle,Fog"
"1994-12-05 09:00","1994","12","05","09:00","7.8","","7.8","","100","","32","","7","","1.2","","99.16","","","","","","Drizzle,Fog"
"1994-12-05 10:00","1994","12","05","10:00","7.9","","7.9","","100","","36","","11","","1.2","","99.09","","","","","","Rain,Drizzle,Fog"
"1994-12-05 11:00","1994","12","05","11:00","8.0","","8.0","","100","","33","","11","","1.6","","99.06","","","","","","Drizzle,Fog"
"1994-12-05 12:00","1994","12","05","12:00","8.1","","7.6","","97","","33","","15","","2.0","","98.99","","","","","","Fog"
"1994-12-05 13:00","1994","12","05","13:00","7.9","","7.6","","98","","32","","13","","2.4","","98.96","","","","","","Rain Showers,Fog"
"1994-12-05 14:00","1994","12","05","14:00","7.7","","7.1","","96","","33","","15","","6.4","","98.96","","","","","","Rain,Fog"
"1994-12-05 15:00","1994","12","05","15:00","8.6","","8.1","","97","","35","","7","","9.7","","98.99","","","","","","Fog"
"1994-12-05 16:00","1994","12","05","16:00","8.4","","7.7","","95","","32","","7","","9.7","","99.09","","","","","","Fog"
"1994-12-05 17:00","1994","12","05","17:00","8.5","","7.7","","95","","33","","13","","9.7","","99.19","","","","","","Fog"
"1994-12-05 18:00","1994","12","05","18:00","6.2","","5.6","","96","","31","","7","","12.9","","99.29","","","","","","Mainly Clear"
"1994-12-05 19:00","1994","12","05","19:00","7.5","","6.3","","92","","30","","7","","19.3","","99.35","","","","","","Mostly Cloudy"
"1994-12-05 20:00","1994","12","05","20:00","7.9","","6.4","","90","","30","","7","","19.3","","99.39","","","","","","Mostly Cloudy"
"1994-12-05 21:00","1994","12","05","21:00","7.6","","6.3","","91","","26","","4","","9.7","","99.49","","","","","","Fog"
"1994-12-05 22:00","1994","12","05","22:00","7.6","","6.3","","91","","25","","9","","11.3","","99.49","","","","","","Mostly Cloudy"
"1994-12-05 23:00","1994","12","05","23:00","8.1","","6.4","","89","","25","","7","","11.3","","99.52","","","","","","Cloudy"
"1994-12-06 00:00","1994","12","06","00:00","8.0","","6.8","","92","","28","","9","","9.7","","99.59","","","","","","Fog"
"1994-12-06 01:00","1994","12","06","01:00","8.4","","7.4","","93","","25","","15","","9.7","","99.59","","","","","","Fog"
"1994-12-06 02:00","1994","12","06","02:00","8.5","","7.4","","93","","26","","13","","9.7","","99.55","","","","","","Fog"
"1994-12-06 03:00","1994","12","06","03:00","8.2","","7.2","","93","","25","","9","","9.7","","99.55","","","","","","Fog"
"1994-12-06 04:00","1994","12","06","04:00","8.2","","7.2","","93","","27","","9","","6.4","","99.59","","","","","","Fog"
"1994-12-06 05:00","1994","12","06","05:00","8.2","","7.2","","93","","31","","11","","9.7","","99.59","","","","","","Fog"
"1994-12-06 06:00","1994","12","06","06:00","7.0","","5.0","","87","","32","","15","","16.1","","99.62","","","","","","Cloudy"
"1994-12-06 07:00","1994","12","06","07:00","6.4","","4.4","","87","","33","","15","","25.0","","99.65","","","","","","Cloudy"
"1994-12-06 08:00","1994","12","06","08:00","5.6","","4.2","","91","","32","","19","","32.2","","99.69","","","","","","Rain Showers"
"1994-12-06 09:00","1994","12","06","09:00","5.3","","3.8","","90","","31","","13","","32.2","","99.75","","","","","","Rain Showers"
"1994-12-06 10:00","1994","12","06","10:00","4.8","","3.3","","90","","31","","15","","16.1","","99.79","","","","","","Rain"
"1994-12-06 11:00","1994","12","06","11:00","4.0","","1.7","","85","","30","","19","","16.1","","99.85","","","","","","Rain"
"1994-12-06 12:00","1994","12","06","12:00","3.6","","2.2","","91","","31","","20","","32.2","","99.75","","","","","","Rain,Ice Pellets"
"1994-12-06 13:00","1994","12","06","13:00","3.3","","1.7","","89","","29","","9","","19.3","","99.79","","","","","","Rain"
"1994-12-06 14:00","1994","12","06","14:00","3.3","","1.7","","89","","30","","11","","24.1","","99.79","","","","","","Rain"
"1994-12-06 15:00","1994","12","06","15:00","3.3","","0.7","","83","","30","","13","","24.1","","99.79","","","","","","Rain"
"1994-12-06 16:00","1994","12","06","16:00","3.0","","0.2","","82","","28","","13","","25.0","","99.89","","","","","","Cloudy"
"1994-12-06 17:00","1994","12","06","17:00","2.6","","-0.4","","81","","30","","20","","25.0","","99.89","","","","","","Cloudy"
"1994-12-06 18:00","1994","12","06","18:00","2.3","","-0.9","","79","","30","","17","","25.0","","99.89","","","","","","Cloudy"
"1994-12-06 19:00","1994","12","06","19:00","1.8","","-1.5","","79","","30","","24","","25.0","","99.92","","","","","","Cloudy"
"1994-12-06 20:00","1994","12","06","20:00","1.5","","-2.1","","77","","31","","19","","25.0","","99.95","","","","","","Cloudy"
"1994-12-06 21:00","1994","12","06","21:00","1.1","","-2.4","","77","","30","","19","","25.0","","99.95","","","","","","Cloudy"
"1994-12-06 22:00","1994","12","06","22:00","0.8","","-2.4","","79","","30","","13","","25.0","","99.95","","","","","","Cloudy"
"1994-12-06 23:00","1994","12","06","23:00","0.5","","-3.1","","77","","30","","7","","25.0","","99.92","","","","","","Cloudy"
"1994-12-07 00:00","1994","12","07","00:00","0.4","","-2.0","","84","","31","","11","","12.9","","99.89","","","","","","Snow"
"1994-12-07 01:00","1994","12","07","01:00","0.2","","-0.8","","93","","33","","11","","9.7","","99.79","","","","","","Snow"
"1994-12-07 02:00","1994","12","07","02:00","-0.5","","-2.7","","85","","1","","17","","4.0","","99.79","","","","-5","","Snow"
"1994-12-07 03:00","1994","12","07","03:00","-1.0","","-1.9","","94","","1","","7","","2.4","","99.75","","","","-4","","Snow"
"1994-12-07 04:00","1994","12","07","04:00","-1.2","","-2.4","","92","","36","","7","","2.8","","99.75","","","","-4","","Snow"
"1994-12-07 05:00","1994","12","07","05:00","-1.5","","-2.2","","95","","3","","7","","2.4","","99.65","","","","-4","","Snow"
"1994-12-07 06:00","1994","12","07","06:00","-2.0","","-2.5","","96","","5","","20","","1.6","","99.59","","","","-8","","Snow"
"1994-12-07 07:00","1994","12","07","07:00","-2.0","","-3.3","","91","","4","","19","","6.4","","99.55","","","","-8","","Snow"
"1994-12-07 08:00","1994","12","07","08:00","-2.5","","-4.2","","88","","1","","19","","2.0","","99.59","","","","-8","","Snow"
"1994-12-07 09:00","1994","12","07","09:00","-2.8","","-4.8","","86","","36","","19","","3.2","","99.52","","","","-9","","Snow"
"1994-12-07 10:00","1994","12","07","10:00","-2.8","","-3.9","","92","","36","","19","","1.2","","99.59","","","","-9","","Snow"
"1994-12-07 11:00","1994","12","07","11:00","-3.3","","-3.7","","97","","1","","22","","1.2","","99.55","","","","-10","","Snow"
"1994-12-07 12:00","1994","12","07","12:00","-2.7","","-4.2","","89","","2","","22","","2.8","","99.49","","","","-9","","Snow"
"1994-12-07 13:00","1994","12","07","13:00","-3.2","","-4.5","","91","","2","","22","","1.6","","99.52","","","","-10","","Snow"
"1994-12-07 14:00","1994","12","07","14:00","-2.5","","-4.8","","84","","34","","19","","4.8","","99.55","","","","-8","","Snow"
"1994-12-07 15:00","1994","12","07","15:00","-2.5","","-6.4","","75","","34","","26","","40.2","","99.65","","","","-9","","Mostly Cloudy"
"1994-12-07 16:00","1994","12","07","16:00","-2.5","","-6.4","","75","","34","","20","","40.2","","99.79","","","","-8","","Mostly Cloudy"
"1994-12-07 17:00","1994","12","07","17:00","-3.0","","-6.7","","76","","33","","30","","40.2","","99.95","","","","-10","","Mostly Cloudy"
"1994-12-07 18:00","1994","12","07","18:00","-3.0","","-7.0","","74","","32","","32","","25.0","","100.05","","","","-11","","Mostly Cloudy"
"1994-12-07 19:00","1994","12","07","19:00","-3.1","","-6.7","","76","","33","","35","","25.0","","100.19","","","","-11","","Mostly Cloudy"
"1994-12-07 20:00","1994","12","07","20:00","-3.0","","-6.7","","76","","32","","26","","25.0","","100.25","","","","-10","","Mostly Cloudy"
"1994-12-07 21:00","1994","12","07","21:00","-4.5","","-7.9","","77","","35","","22","","25.0","","100.35","","","","-11","","Mainly Clear"
"1994-12-07 22:00","1994","12","07","22:00","-6.0","","-9.9","","74","","36","","20","","25.0","","100.45","","","","-13","","Clear"
"1994-12-07 23:00","1994","12","07","23:00","-7.4","","-10.2","","80","","35","","15","","25.0","","100.65","","","","-14","","Clear"
"1994-12-08 00:00","1994","12","08","00:00","-7.5","","-10.6","","78","","32","","15","","25.0","","100.79","","","","-14","","Mostly Cloudy"
"1994-12-08 01:00","1994","12","08","01:00","-7.6","","-9.9","","84","","33","","19","","25.0","","100.85","","","","-15","","Clear"
"1994-12-08 02:00","1994","12","08","02:00","-7.8","","-10.1","","84","","34","","15","","25.0","","100.89","","","","-14","","Clear"
"1994-12-08 03:00","1994","12","08","03:00","-9.5","","-11.4","","86","","32","","7","","25.0","","100.95","","","","-13","","Clear"
"1994-12-08 04:00","1994","12","08","04:00","-10.3","","-12.2","","86","","33","","9","","25.0","","100.95","","","","-15","","Mostly Cloudy"
"1994-12-08 05:00","1994","12","08","05:00","-11.0","","-12.3","","90","","34","","9","","25.0","","100.99","","","","-16","","Clear"
"1994-12-08 06:00","1994","12","08","06:00","-10.8","","-11.5","","95","","32","","7","","25.0","","101.09","","","","-15","","Mostly Cloudy"
"1994-12-08 07:00","1994","12","08","07:00","-10.6","","-13.9","","77","","27","","9","","25.0","","101.15","","","","-16","","Clear"
"1994-12-08 08:00","1994","12","08","08:00","-11.0","","-14.5","","75","","27","","7","","32.2","","101.22","","","","-15","","Clear"
"1994-12-08 09:00","1994","12","08","09:00","-8.0","","-10.8","","80","","","","0","","32.2","","101.25","","","","","","Clear"
"1994-12-08 10:00","1994","12","08","10:00","-5.1","","-7.2","","85","","","","0","","32.2","","101.25","","","","","","Clear"
"1994-12-08 11:00","1994","12","08","11:00","-5.4","","-8.9","","76","","","","0","","40.2","","101.25","","","","","","Mainly Clear"
"1994-12-08 12:00","1994","12","08","12:00","-4.3","","-7.6","","78","","31","","6","","40.2","","101.25","","","","-7","","Mainly Clear"
"1994-12-08 13:00","1994","12","08","13:00","-2.8","","-6.7","","74","","","","0","","40.2","","101.19","","","","","","Clear"
"1994-12-08 14:00","1994","12","08","14:00","-3.5","","-7.0","","77","","32","","4","","40.2","","101.15","","","","-5","","Mainly Clear"
"1994-12-08 15:00","1994","12","08","15:00","-3.2","","-7.0","","75","","33","","4","","40.2","","101.15","","","","-5","","Mainly Clear"
"1994-12-08 16:00","1994","12","08","16:00","-3.7","","-7.0","","78","","","","0","","40.2","","101.12","","","","","","Mostly Cloudy"
"1994-12-08 17:00","1994","12","08","17:00","-4.2","","-7.6","","77","","","","0","","25.0","","101.09","","","","","","Mostly Cloudy"
"1994-12-08 18:00","1994","12","08","18:00","-4.0","","-7.3","","78","","","","0","","25.0","","101.09","","","","","","Mainly Clear"
"1994-12-08 19:00","1994","12","08","19:00","-4.5","","-7.9","","77","","","","0","","25.0","","101.09","","","","","","Mostly Cloudy"
"1994-12-08 20:00","1994","12","08","20:00","-5.4","","-8.2","","81","","","","0","","25.0","","101.05","","","","","","Mostly Cloudy"
"1994-12-08 21:00","1994","12","08","21:00","-5.4","","-7.5","","85","","","","0","","25.0","","100.99","","","","","","Mostly Cloudy"
"1994-12-08 22:00","1994","12","08","22:00","-4.6","","-7.3","","81","","","","0","","24.1","","100.89","","","","","","Mostly Cloudy"
"1994-12-08 23:00","1994","12","08","23:00","-7.0","","-8.9","","86","","32","","4","","24.1","","100.89","","","","-9","","Cloudy"
"1994-12-09 00:00","1994","12","09","00:00","-6.7","","-8.3","","88","","34","","6","","19.3","","100.79","","","","-10","","Cloudy"
"1994-12-09 01:00","1994","12","09","01:00","-7.2","","-8.9","","88","","","","0","","25.0","","100.69","","","","","","Mostly Cloudy"
"1994-12-09 02:00","1994","12","09","02:00","-5.7","","-7.5","","87","","8","","6","","25.0","","100.59","","","","-9","","Mostly Cloudy"
"1994-12-09 03:00","1994","12","09","03:00","-3.2","","-6.0","","81","","13","","13","","25.0","","100.59","","","","-8","","Mainly Clear"
"1994-12-09 04:00","1994","12","09","04:00","-2.9","","-5.7","","81","","10","","22","","25.0","","100.35","","","","-9","","Mainly Clear"
"1994-12-09 05:00","1994","12","09","05:00","-2.5","","-5.1","","82","","10","","20","","25.0","","100.29","","","","-8","","Mostly Cloudy"
"1994-12-09 06:00","1994","12","09","06:00","-1.9","","-5.4","","77","","9","","17","","25.0","","100.19","","","","-7","","Mostly Cloudy"
"1994-12-09 07:00","1994","12","09","07:00","-1.4","","-3.9","","83","","11","","20","","25.0","","100.15","","","","-7","","Mostly Cloudy"
"1994-12-09 08:00","1994","12","09","08:00","-1.4","","-3.0","","89","","10","","13","","25.0","","100.09","","","","-6","","Mostly Cloudy"
"1994-12-09 09:00","1994","12","09","09:00","-1.2","","-4.1","","81","","8","","15","","24.1","","99.95","","","","-6","","Cloudy"
"1994-12-09 10:00","1994","12","09","10:00","-1.2","","-4.4","","79","","10","","19","","25.0","","99.75","","","","-7","","Cloudy"
"1994-12-09 11:00","1994","12","09","11:00","-0.4","","-6.5","","63","","14","","17","","25.0","","99.65","","","","-5","","Cloudy"
"1994-12-09 12:00","1994","12","09","12:00","-0.2","","-2.8","","83","","11","","15","","11.3","","99.49","","","","-5","","Freezing Rain"
"1994-12-09 13:00","1994","12","09","13:00","0.2","","-1.0","","92","","12","","9","","8.0","","99.32","","","","","","Rain,Fog"
"1994-12-09 14:00","1994","12","09","14:00","0.2","","-0.3","","96","","","","0","","4.8","","99.19","","","","","","Rain,Fog"
"1994-12-09 15:00","1994","12","09","15:00","-0.3","","-0.6","","98","","34","","19","","3.2","","99.26","","","","-5","","Freezing Rain,Fog"
"1994-12-09 16:00","1994","12","09","16:00","-0.7","","-1.3","","96","","33","","15","","1.2","","99.29","","","","-5","","Snow,Fog"
"1994-12-09 17:00","1994","12","09","17:00","-0.7","","-1.3","","96","","34","","7","","4.8","","99.39","","","","-3","","Snow Showers"
"1994-12-09 18:00","1994","12","09","18:00","-0.6","","-1.8","","92","","32","","7","","16.1","","99.52","","","","-3","","Snow Showers"
"1994-12-09 19:00","1994","12","09","19:00","-0.4","","-2.0","","89","","28","","6","","12.9","","99.65","","","","-2","","Cloudy"
"1994-12-09 20:00","1994","12","09","20:00","0.3","","-2.0","","85","","26","","9","","24.1","","99.79","","","","","","Cloudy"
"1994-12-09 21:00","1994","12","09","21:00","0.6","","-0.9","","90","","24","","7","","24.1","","99.95","","","","","","Cloudy"
"1994-12-09 22:00","1994","12","09","22:00","0.4","","-0.5","","94","","24","","7","","19.3","","99.99","","","","","","Cloudy"
"1994-12-09 23:00","1994","12","09","23:00","0.8","","-0.5","","91","","29","","7","","24.1","","100.12","","","","","","Mostly Cloudy"
"1994-12-10 00:00","1994","12","10","00:00","-0.5","","-2.4","","87","","30","","11","","25.0","","100.19","","","","-4","","Mostly Cloudy"
"1994-12-10 01:00","1994","12","10","01:00","-1.5","","-3.6","","86","","30","","7","","25.0","","100.29","","","","-4","","Mostly Cloudy"
"1994-12-10 02:00","1994","12","10","02:00","-2.4","","-4.5","","85","","31","","7","","25.0","","100.35","","","","-5","","Mainly Clear"
"1994-12-10 03:00","1994","12","10","03:00","-3.1","","-7.4","","72","","32","","7","","19.3","","100.39","","","","-6","","Mainly Clear"
"1994-12-10 04:00","1994","12","10","04:00","-4.1","","-5.4","","91","","","","0","","19.3","","100.39","","","","","","Mainly Clear"
"1994-12-10 05:00","1994","12","10","05:00","-4.4","","-5.4","","93","","","","0","","19.3","","100.45","","","","","","Mainly Clear"
"1994-12-10 06:00","1994","12","10","06:00","-4.4","","-5.4","","93","","","","0","","16.1","","100.45","","","","","","Cloudy"
"1994-12-10 07:00","1994","12","10","07:00","-4.5","","-8.7","","72","","32","","4","","12.9","","100.45","","","","-6","","Cloudy"
"1994-12-10 08:00","1994","12","10","08:00","-4.0","","-8.0","","74","","4","","7","","12.9","","100.42","","","","-7","","Cloudy"
"1994-12-10 09:00","1994","12","10","09:00","-2.9","","-5.1","","85","","4","","4","","9.7","","100.39","","","","-4","","Fog"
"1994-12-10 10:00","1994","12","10","10:00","0.5","","-1.4","","87","","6","","4","","11.3","","100.35","","","","","","Cloudy"
"1994-12-10 11:00","1994","12","10","11:00","0.3","","-0.6","","94","","9","","15","","16.1","","100.25","","","","","","Cloudy"
"1994-12-10 12:00","1994","12","10","12:00","0.3","","-1.7","","86","","7","","15","","16.1","","100.09","","","","","","Cloudy"
"1994-12-10 13:00","1994","12","10","13:00","0.4","","-1.3","","88","","8","","19","","19.3","","99.92","","","","","","Cloudy"
"1994-12-10 14:00","1994","12","10","14:00","0.5","","-2.0","","83","","8","","20","","24.1","","99.75","","","","","","Cloudy"
"1994-12-10 15:00","1994","12","10","15:00","0.8","","-1.9","","82","","8","","20","","16.1","","99.55","","","","","","Cloudy"
"1994-12-10 16:00","1994","12","10","16:00","0.1","","-0.1","","99","","8","","19","","1.6","","99.42","","","","","","Snow"
"1994-12-10 17:00","1994","12","10","17:00","-0.2","","-0.2","","100","","11","","24","","1.6","","99.29","","","","-6","","Snow"
"1994-12-10 18:00","1994","12","10","18:00","-0.2","","-0.2","","100","","10","","28","","1.6","","99.16","","","","-7","","Snow"
"1994-12-10 19:00","1994","12","10","19:00","-0.1","","-0.1","","100","","8","","24","","2.4","","98.96","","","","-6","","Snow"
"1994-12-10 20:00","1994","12","10","20:00","-0.1","","-0.1","","100","","8","","20","","1.6","","98.76","","","","-5","","Snow"
"1994-12-10 21:00","1994","12","10","21:00","-0.1","","-0.1","","100","","6","","19","","1.2","","98.62","","","","-5","","Snow"
"1994-12-10 22:00","1994","12","10","22:00","-1.1","","-1.1","","100","","3","","15","","0.6","","98.56","","","","-6","","Moderate Snow"
"1994-12-10 23:00","1994","12","10","23:00","-1.5","","-1.7","","99","","36","","15","","1.0","","98.46","","","","-6","","Snow"
"1994-12-11 00:00","1994","12","11","00:00","-2.2","","-2.3","","99","","34","","24","","1.6","","98.46","","","","-9","","Snow"
"1994-12-11 01:00","1994","12","11","01:00","-2.5","","-2.6","","99","","33","","20","","1.6","","98.49","","","","-8","","Snow"
"1994-12-11 02:00","1994","12","11","02:00","-2.2","","-2.5","","98","","31","","15","","4.0","","98.56","","","","-7","","Snow"
"1994-12-11 03:00","1994","12","11","03:00","-2.0","","-3.1","","92","","28","","11","","12.9","","98.66","","","","-6","","Cloudy"
"1994-12-11 04:00","1994","12","11","04:00","-2.3","","-4.2","","87","","29","","15","","12.9","","98.72","","","","-7","","Mainly Clear"
"1994-12-11 05:00","1994","12","11","05:00","-2.2","","-3.3","","92","","27","","19","","12.9","","98.82","","","","-8","","Mostly Cloudy"
"1994-12-11 06:00","1994","12","11","06:00","-3.5","","-5.1","","89","","27","","11","","12.9","","98.96","","","","-8","","Mainly Clear"
"1994-12-11 07:00","1994","12","11","07:00","-3.9","","-6.0","","85","","25","","9","","19.3","","99.06","","","","-8","","Mainly Clear"
"1994-12-11 08:00","1994","12","11","08:00","-4.0","","-6.0","","86","","25","","9","","19.3","","99.09","","","","-8","","Mainly Clear"
"1994-12-11 09:00","1994","12","11","09:00","-1.2","","-4.7","","77","","30","","35","","16.1","","99.26","","","","-9","","Mainly Clear"
"1994-12-11 10:00","1994","12","11","10:00","-2.5","","-5.1","","82","","29","","44","","24.1","","99.42","","","","-11","","Mainly Clear"
"1994-12-11 11:00","1994","12","11","11:00","-3.0","","-6.0","","80","","30","","37","","24.1","","99.55","","","","-11","","Mainly Clear"
"1994-12-11 12:00","1994","12","11","12:00","-4.6","","-9.8","","67","","30","","37","","19.3","","99.69","","","","-13","","Mainly Clear"
"1994-12-11 13:00","1994","12","11","13:00","-5.7","","-10.0","","72","","31","","33","","32.2","","99.79","","","","-14","","Mostly Cloudy"
"1994-12-11 14:00","1994","12","11","14:00","-6.3","","-11.7","","65","","31","","39","","32.2","","99.89","","","","-16","","Mainly Clear"
"1994-12-11 15:00","1994","12","11","15:00","-6.4","","-11.7","","66","","31","","30","","40.2","","100.05","","","","-15","","Mainly Clear"
"1994-12-11 16:00","1994","12","11","16:00","-7.4","","-11.7","","71","","29","","20","","40.2","","100.25","","","","-15","","Mainly Clear"
"1994-12-11 17:00","1994","12","11","17:00","-8.6","","-14.6","","62","","30","","22","","40.2","","100.35","","","","-16","","Clear"
"1994-12-11 18:00","1994","12","11","18:00","-9.7","","-12.7","","79","","29","","17","","25.0","","100.45","","","","-17","","Mainly Clear"
"1994-12-11 19:00","1994","12","11","19:00","-10.2","","-13.8","","75","","30","","20","","25.0","","100.55","","","","-18","","Mainly Clear"
"1994-12-11 20:00","1994","12","11","20:00","-10.8","","-14.5","","74","","31","","13","","25.0","","100.69","","","","-17","","Mainly Clear"
"1994-12-11 21:00","1994","12","11","21:00","-10.0","","-12.9","","79","","32","","11","","19.3","","100.82","","","","-16","","Snow Showers"
"1994-12-11 22:00","1994","12","11","22:00","-11.0","","-13.6","","81","","35","","15","","25.0","","100.89","","","","-18","","Mostly Cloudy"
"1994-12-11 23:00","1994","12","11","23:00","-12.0","","-14.8","","80","","1","","7","","25.0","","100.95","","","","-16","","Clear"
"1994-12-12 00:00","1994","12","12","00:00","-14.5","","-16.7","","83","","34","","9","","25.0","","101.05","","","","-20","","Clear"
"1994-12-12 01:00","1994","12","12","01:00","-14.8","","-17.3","","81","","35","","9","","25.0","","101.09","","","","-21","","Clear"
"1994-12-12 02:00","1994","12","12","02:00","-16.7","","-21.7","","65","","34","","7","","25.0","","101.09","","","","-22","","Clear"
"1994-12-12 03:00","1994","12","12","03:00","-16.2","","-23.3","","54","","36","","9","","25.0","","101.19","","","","-22","","Clear"
"1994-12-12 04:00","1994","12","12","04:00","-17.4","","-23.9","","57","","36","","6","","25.0","","101.15","","","","-22","","Clear"
"1994-12-12 05:00","1994","12","12","05:00","-19.0","","-22.6","","73","","34","","9","","25.0","","101.22","","","","-26","","Clear"
"1994-12-12 06:00","1994","12","12","06:00","-18.6","","-22.0","","75","","36","","7","","25.0","","101.25","","","","-24","","Clear"
"1994-12-12 07:00","1994","12","12","07:00","-19.5","","-22.4","","78","","34","","7","","25.0","","101.29","","","","-25","","Clear"
"1994-12-12 08:00","1994","12","12","08:00","-19.5","","-21.7","","83","","34","","7","","24.1","","101.29","","","","-25","","Mainly Clear"
"1994-12-12 09:00","1994","12","12","09:00","-18.0","","-20.7","","79","","34","","7","","24.1","","101.32","","","","-23","","Mainly Clear"
"1994-12-12 10:00","1994","12","12","10:00","-15.6","","-17.9","","82","","36","","11","","24.1","","101.35","","","","-22","","Mainly Clear"
"1994-12-12 11:00","1994","12","12","11:00","-14.0","","-17.2","","77","","35","","9","","24.1","","101.35","","","","-20","","Mostly Cloudy"
"1994-12-12 12:00","1994","12","12","12:00","-11.0","","-14.2","","77","","3","","6","","9.7","","101.25","","","","-15","","Ice Crystals"
"1994-12-12 13:00","1994","12","12","13:00","-8.0","","-10.8","","80","","7","","9","","3.2","","101.19","","","","-13","","Snow Showers"
"1994-12-12 14:00","1994","12","12","14:00","-7.8","","-10.5","","81","","6","","11","","6.4","","101.15","","","","-13","","Snow Showers"
"1994-12-12 15:00","1994","12","12","15:00","-7.5","","-8.8","","90","","8","","13","","2.4","","101.12","","","","-13","","Snow Showers"
"1994-12-12 16:00","1994","12","12","16:00","-7.1","","-8.2","","92","","18","","4","","1.6","","101.12","","","","-9","","Snow Showers"
"1994-12-12 17:00","1994","12","12","17:00","-7.0","","-8.2","","91","","","","0","","2.0","","101.05","","","","","","Snow Showers"
"1994-12-12 18:00","1994","12","12","18:00","-7.3","","-8.8","","89","","7","","13","","9.7","","101.02","","","","-13","","Snow Showers"
"1994-12-12 19:00","1994","12","12","19:00","-8.8","","-11.7","","79","","4","","15","","19.3","","101.05","","","","-15","","Mostly Cloudy"
"1994-12-12 20:00","1994","12","12","20:00","-9.4","","-11.8","","83","","4","","13","","16.1","","101.05","","","","-15","","Snow Showers"
"1994-12-12 21:00","1994","12","12","21:00","-10.0","","-12.0","","85","","3","","11","","16.1","","100.99","","","","-16","","Snow Showers"
"1994-12-12 22:00","1994","12","12","22:00","-9.4","","-11.1","","87","","3","","15","","19.3","","100.95","","","","-16","","Mostly Cloudy"
"1994-12-12 23:00","1994","12","12","23:00","-9.1","","-10.9","","87","","3","","15","","11.3","","100.95","","","","-16","","Snow Showers"
"1994-12-13 00:00","1994","12","13","00:00","-8.7","","-10.3","","88","","4","","15","","4.8","","100.89","","","","-15","","Snow Showers"
"1994-12-13 01:00","1994","12","13","01:00","-7.9","","-9.3","","90","","4","","17","","9.7","","100.85","","","","-15","","Snow Showers"
"1994-12-13 02:00","1994","12","13","02:00","-7.7","","-9.1","","90","","5","","15","","12.9","","100.89","","","","-14","","Snow Showers"
"1994-12-13 03:00","1994","12","13","03:00","-9.0","","-10.5","","89","","4","","13","","16.1","","100.89","","","","-15","","Mostly Cloudy"
"1994-12-13 04:00","1994","12","13","04:00","-8.2","","-9.3","","92","","2","","11","","16.1","","100.89","","","","-13","","Mostly Cloudy"
"1994-12-13 05:00","1994","12","13","05:00","-12.0","","-13.4","","89","","34","","15","","16.1","","100.92","","","","-19","","Mainly Clear"
"1994-12-13 06:00","1994","12","13","06:00","-13.1","","-14.1","","92","","34","","15","","16.1","","100.95","","","","-21","","Mostly Cloudy"
"1994-12-13 07:00","1994","12","13","07:00","-13.6","","-15.1","","88","","33","","13","","16.1","","100.95","","","","-21","","Mainly Clear"
"1994-12-13 08:00","1994","12","13","08:00","-14.7","","-16.2","","88","","33","","17","","19.3","","100.95","","","","-23","","Mainly Clear"
"1994-12-13 09:00","1994","12","13","09:00","-15.9","","-17.3","","89","","34","","13","","16.1","","100.99","","","","-23","","Mainly Clear"
"1994-12-13 10:00","1994","12","13","10:00","-12.5","","-15.9","","76","","2","","4","","19.3","","101.02","","","","-15","","Mainly Clear"
"1994-12-13 11:00","1994","12","13","11:00","-10.8","","-14.1","","77","","35","","4","","19.3","","101.02","","","","-13","","Mainly Clear"
"1994-12-13 12:00","1994","12","13","12:00","-7.0","","-10.0","","79","","2","","9","","24.1","","100.95","","","","-11","","Mostly Cloudy"
"1994-12-13 13:00","1994","12","13","13:00","-5.0","","-9.3","","72","","4","","7","","24.1","","100.92","","","","-8","","Mostly Cloudy"
"1994-12-13 14:00","1994","12","13","14:00","-5.0","","-8.9","","74","","5","","11","","24.1","","100.89","","","","-10","","Snow Showers"
"1994-12-13 15:00","1994","12","13","15:00","-4.8","","-8.2","","77","","5","","11","","24.1","","100.89","","","","-9","","Mostly Cloudy"
"1994-12-13 16:00","1994","12","13","16:00","-5.0","","-10.5","","65","","3","","7","","24.1","","100.95","","","","-8","","Cloudy"
"1994-12-13 17:00","1994","12","13","17:00","-4.7","","-7.6","","80","","36","","11","","19.3","","100.95","","","","-9","","Cloudy"
"1994-12-13 18:00","1994","12","13","18:00","-5.1","","-8.6","","76","","3","","17","","19.3","","100.99","","","","-11","","Mostly Cloudy"
"1994-12-13 19:00","1994","12","13","19:00","-6.7","","-10.5","","74","","4","","15","","24.1","","101.02","","","","-13","","Mostly Cloudy"
"1994-12-13 20:00","1994","12","13","20:00","-8.0","","-10.8","","80","","1","","11","","19.3","","101.05","","","","-13","","Mostly Cloudy"
"1994-12-13 21:00","1994","12","13","21:00","-8.0","","-10.8","","80","","36","","11","","19.3","","101.05","","","","-13","","Mostly Cloudy"
"1994-12-13 22:00","1994","12","13","22:00","-8.0","","-10.8","","80","","35","","4","","19.3","","101.05","","","","-10","","Cloudy"
"1994-12-13 23:00","1994","12","13","23:00","-8.0","","-10.5","","82","","35","","11","","19.3","","101.05","","","","-13","","Cloudy"
"1994-12-14 00:00","1994","12","14","00:00","-8.1","","-11.2","","78","","34","","11","","24.1","","101.02","","","","-13","","Cloudy"
"1994-12-14 01:00","1994","12","14","01:00","-8.2","","-10.8","","81","","34","","13","","24.1","","101.02","","","","-14","","Cloudy"
"1994-12-14 02:00","1994","12","14","02:00","-9.2","","-11.3","","85","","33","","17","","19.3","","101.05","","","","-16","","Cloudy"
"1994-12-14 03:00","1994","12","14","03:00","-9.0","","-11.3","","83","","33","","13","","19.3","","101.05","","","","-15","","Cloudy"
"1994-12-14 04:00","1994","12","14","04:00","-9.1","","-11.3","","84","","34","","19","","19.3","","101.05","","","","-17","","Mostly Cloudy"
"1994-12-14 05:00","1994","12","14","05:00","-8.7","","-11.1","","83","","34","","11","","19.3","","101.05","","","","-14","","Cloudy"
"1994-12-14 06:00","1994","12","14","06:00","-9.3","","-12.3","","79","","33","","15","","19.3","","101.09","","","","-16","","Cloudy"
"1994-12-14 07:00","1994","12","14","07:00","-9.8","","-12.9","","78","","33","","19","","16.1","","101.09","","","","-17","","Cloudy"
"1994-12-14 08:00","1994","12","14","08:00","-10.0","","-12.9","","79","","34","","19","","16.1","","101.09","","","","-18","","Cloudy"
"1994-12-14 09:00","1994","12","14","09:00","-10.8","","-14.1","","77","","34","","19","","16.1","","101.15","","","","-19","","Cloudy"
"1994-12-14 10:00","1994","12","14","10:00","-10.4","","-13.5","","78","","34","","15","","12.9","","101.22","","","","-17","","Cloudy"
"1994-12-14 11:00","1994","12","14","11:00","-10.0","","-12.5","","82","","33","","15","","12.9","","101.25","","","","-17","","Cloudy"
"1994-12-14 12:00","1994","12","14","12:00","-8.4","","-11.9","","76","","33","","13","","12.9","","101.19","","","","-14","","Cloudy"
"1994-12-14 13:00","1994","12","14","13:00","-7.3","","-10.6","","77","","33","","15","","16.1","","101.15","","","","-13","","Cloudy"
"1994-12-14 14:00","1994","12","14","14:00","-6.5","","-9.7","","78","","34","","17","","16.1","","101.12","","","","-13","","Cloudy"
"1994-12-14 15:00","1994","12","14","15:00","-6.0","","-10.3","","72","","34","","13","","16.1","","101.09","","","","-11","","Cloudy"
"1994-12-14 16:00","1994","12","14","16:00","-5.5","","-10.0","","71","","35","","9","","12.9","","101.15","","","","-10","","Cloudy"
"1994-12-14 17:00","1994","12","14","17:00","-6.0","","-9.5","","76","","34","","11","","11.3","","101.19","","","","-11","","Cloudy"
"1994-12-14 18:00","1994","12","14","18:00","-6.1","","-9.9","","74","","34","","13","","9.7","","101.22","","","","-11","","Haze"
"1994-12-14 19:00","1994","12","14","19:00","-6.2","","-9.5","","77","","36","","15","","12.9","","101.22","","","","-12","","Cloudy"
"1994-12-14 20:00","1994","12","14","20:00","-7.0","","-10.0","","79","","36","","13","","16.1","","101.25","","","","-13","","Cloudy"
"1994-12-14 21:00","1994","12","14","21:00","-7.0","","-10.0","","79","","36","","11","","19.3","","101.25","","","","-12","","Cloudy"
"1994-12-14 22:00","1994","12","14","22:00","-6.6","","-10.5","","74","","36","","13","","19.3","","101.22","","","","-12","","Cloudy"
"1994-12-14 23:00","1994","12","14","23:00","-6.1","","-8.9","","81","","1","","7","","19.3","","101.25","","","","-9","","Cloudy"
"1994-12-15 00:00","1994","12","15","00:00","-6.5","","-9.0","","82","","34","","7","","19.3","","101.22","","","","-10","","Cloudy"
"1994-12-15 01:00","1994","12","15","01:00","-6.6","","-9.0","","83","","34","","7","","19.3","","101.22","","","","-10","","Cloudy"
"1994-12-15 02:00","1994","12","15","02:00","-7.1","","-9.6","","82","","36","","13","","16.1","","101.19","","","","-13","","Cloudy"
"1994-12-15 03:00","1994","12","15","03:00","-8.2","","-10.5","","83","","35","","17","","16.1","","101.22","","","","-15","","Cloudy"
"1994-12-15 04:00","1994","12","15","04:00","-8.5","","-11.1","","81","","34","","15","","12.9","","101.19","","","","-15","","Cloudy"
"1994-12-15 05:00","1994","12","15","05:00","-8.2","","-10.5","","83","","36","","11","","12.9","","101.15","","","","-13","","Cloudy"
"1994-12-15 06:00","1994","12","15","06:00","-7.9","","-10.1","","84","","35","","7","","12.9","","101.19","","","","-12","","Cloudy"
"1994-12-15 07:00","1994","12","15","07:00","-7.6","","-9.9","","84","","35","","15","","12.9","","101.19","","","","-14","","Cloudy"
"1994-12-15 08:00","1994","12","15","08:00","-7.5","","-10.2","","81","","35","","15","","11.3","","101.19","","","","-14","","Cloudy"
"1994-12-15 09:00","1994","12","15","09:00","-7.6","","-9.9","","84","","35","","13","","11.3","","101.22","","","","-13","","Cloudy"
"1994-12-15 10:00","1994","12","15","10:00","-7.0","","-9.3","","84","","34","","15","","12.9","","101.19","","","","-13","","Cloudy"
"1994-12-15 11:00","1994","12","15","11:00","-5.7","","-7.5","","87","","34","","13","","9.7","","101.12","","","","-11","","Fog"
"1994-12-15 12:00","1994","12","15","12:00","-4.6","","-6.3","","88","","5","","11","","9.7","","101.05","","","","-9","","Snow Grains,Fog"
"1994-12-15 13:00","1994","12","15","13:00","-2.8","","-4.5","","88","","6","","15","","8.0","","100.99","","","","-8","","Snow Grains,Fog"
"1994-12-15 14:00","1994","12","15","14:00","-1.9","","-3.1","","91","","8","","13","","6.4","","100.95","","","","-6","","Fog"
"1994-12-15 15:00","1994","12","15","15:00","-1.5","","-2.2","","95","","8","","17","","4.8","","100.95","","","","-7","","Snow Grains,Fog"
"1994-12-15 16:00","1994","12","15","16:00","-1.2","","-1.4","","99","","7","","19","","4.0","","100.89","","","","-7","","Snow Grains,Fog"
"1994-12-15 17:00","1994","12","15","17:00","-0.8","","-1.4","","96","","6","","11","","4.0","","100.89","","","","-5","","Fog"
"1994-12-15 18:00","1994","12","15","18:00","-2.2","","-2.8","","96","","31","","11","","6.4","","100.92","","","","-6","","Fog"
"1994-12-15 19:00","1994","12","15","19:00","-1.2","","-1.6","","97","","36","","11","","4.8","","100.92","","","","-5","","Fog"
"1994-12-15 20:00","1994","12","15","20:00","0.8","","0.5","","98","","8","","17","","4.8","","100.89","","","","","","Fog"
"1994-12-15 21:00","1994","12","15","21:00","0.9","","0.5","","97","","8","","19","","4.0","","100.89","","","","","","Fog"
"1994-12-15 22:00","1994","12","15","22:00","0.9","","0.0","","94","","8","","20","","4.8","","100.85","","","","","","Fog"
"1994-12-15 23:00","1994","12","15","23:00","1.0","","0.5","","96","","9","","20","","4.8","","100.85","","","","","","Fog"
"1994-12-16 00:00","1994","12","16","00:00","0.9","","0.0","","94","","9","","19","","4.8","","100.82","","","","","","Fog"
"1994-12-16 01:00","1994","12","16","01:00","1.0","","0.5","","96","","8","","15","","4.8","","100.79","","","","","","Fog"
"1994-12-16 02:00","1994","12","16","02:00","1.0","","0.5","","96","","8","","11","","4.8","","100.79","","","","","","Fog"
"1994-12-16 03:00","1994","12","16","03:00","0.8","","0.0","","94","","8","","17","","4.8","","100.79","","","","","","Fog"
"1994-12-16 04:00","1994","12","16","04:00","0.8","","0.0","","94","","7","","9","","4.0","","100.75","","","","","","Drizzle,Fog"
"1994-12-16 05:00","1994","12","16","05:00","0.6","","0.0","","96","","8","","6","","4.8","","100.75","","","","","","Fog"
"1994-12-16 06:00","1994","12","16","06:00","0.7","","0.0","","95","","6","","7","","4.8","","100.75","","","","","","Fog"
"1994-12-16 07:00","1994","12","16","07:00","0.8","","0.5","","98","","3","","9","","9.7","","100.69","","","","","","Fog"
"1994-12-16 08:00","1994","12","16","08:00","1.0","","0.0","","93","","9","","6","","4.0","","100.75","","","","","","Fog"
"1994-12-16 09:00","1994","12","16","09:00","1.2","","0.0","","92","","8","","11","","4.0","","100.69","","","","","","Fog"
"1994-12-16 10:00","1994","12","16","10:00","1.8","","-0.2","","87","","8","","15","","4.8","","100.65","","","","","","Fog"
"1994-12-16 11:00","1994","12","16","11:00","2.3","","0.6","","89","","8","","9","","4.8","","100.62","","","","","","Fog"
"1994-12-16 12:00","1994","12","16","12:00","2.6","","0.6","","87","","9","","11","","4.8","","100.55","","","","","","Fog"
"1994-12-16 13:00","1994","12","16","13:00","4.0","","0.8","","80","","11","","11","","12.9","","100.45","","","","","","Mainly Clear"
"1994-12-16 14:00","1994","12","16","14:00","3.6","","1.2","","84","","12","","9","","12.9","","100.35","","","","","","Cloudy"
"1994-12-16 15:00","1994","12","16","15:00","2.9","","1.6","","91","","9","","15","","9.7","","100.25","","","","","","Fog"
"1994-12-16 16:00","1994","12","16","16:00","2.6","","1.1","","90","","8","","15","","8.0","","100.19","","","","","","Fog"
"1994-12-16 17:00","1994","12","16","17:00","2.3","","1.1","","92","","9","","17","","8.0","","100.12","","","","","","Fog"
"1994-12-16 18:00","1994","12","16","18:00","2.7","","0.7","","87","","8","","11","","9.7","","99.99","","","","","","Fog"
"1994-12-16 19:00","1994","12","16","19:00","3.0","","1.6","","90","","11","","20","","9.7","","99.95","","","","","","Fog"
"1994-12-16 20:00","1994","12","16","20:00","2.8","","1.6","","92","","11","","22","","16.1","","99.79","","","","","","Cloudy"
"1994-12-16 21:00","1994","12","16","21:00","2.5","","1.1","","90","","12","","19","","16.1","","99.79","","","","","","Cloudy"
"1994-12-16 22:00","1994","12","16","22:00","1.5","","1.0","","96","","12","","22","","6.4","","99.65","","","","","","Rain,Snow"
"1994-12-16 23:00","1994","12","16","23:00","0.2","","0.2","","100","","13","","20","","1.6","","99.55","","","","","","Snow"
"1994-12-17 00:00","1994","12","17","00:00","0.1","","0.1","","100","","12","","20","","3.2","","99.42","","","","","","Snow,Fog"
"1994-12-17 01:00","1994","12","17","01:00","0.2","","0.2","","100","","12","","20","","3.2","","99.29","","","","","","Snow,Fog"
"1994-12-17 02:00","1994","12","17","02:00","0.9","","0.9","","100","","12","","20","","3.2","","99.19","","","","","","Rain,Fog"
"1994-12-17 03:00","1994","12","17","03:00","1.5","","1.5","","100","","12","","20","","3.2","","99.12","","","","","","Rain,Fog"
"1994-12-17 04:00","1994","12","17","04:00","2.2","","1.5","","95","","13","","20","","4.0","","99.02","","","","","","Rain,Fog"
"1994-12-17 05:00","1994","12","17","05:00","3.4","","3.1","","98","","16","","17","","4.8","","98.96","","","","","","Rain,Fog"
"1994-12-17 06:00","1994","12","17","06:00","3.9","","3.6","","98","","18","","19","","4.8","","98.92","","","","","","Rain,Fog"
"1994-12-17 07:00","1994","12","17","07:00","4.2","","3.6","","96","","18","","19","","16.1","","98.89","","","","","","Mostly Cloudy"
"1994-12-17 08:00","1994","12","17","08:00","4.0","","2.7","","91","","24","","22","","24.1","","98.96","","","","","","Rain Showers"
"1994-12-17 09:00","1994","12","17","09:00","3.0","","0.7","","85","","25","","26","","40.2","","99.09","","","","","","Cloudy"
"1994-12-17 10:00","1994","12","17","10:00","2.8","","0.7","","86","","26","","28","","32.2","","99.22","","","","","","Mostly Cloudy"
"1994-12-17 11:00","1994","12","17","11:00","2.4","","1.1","","91","","24","","30","","24.1","","99.32","","","","","","Cloudy"
"1994-12-17 12:00","1994","12","17","12:00","2.4","","1.1","","91","","25","","26","","12.9","","99.32","","","","","","Rain Showers"
"1994-12-17 13:00","1994","12","17","13:00","4.0","","1.7","","85","","26","","26","","16.1","","99.32","","","","","","Cloudy"
"1994-12-17 14:00","1994","12","17","14:00","2.5","","0.6","","87","","25","","19","","16.1","","99.32","","","","","","Cloudy"
"1994-12-17 15:00","1994","12","17","15:00","2.7","","1.1","","89","","23","","19","","16.1","","99.35","","","","","","Cloudy"
"1994-12-17 16:00","1994","12","17","16:00","2.7","","0.6","","86","","23","","22","","14.5","","99.39","","","","","","Cloudy"
"1994-12-17 17:00","1994","12","17","17:00","2.5","","0.1","","84","","23","","17","","12.9","","99.39","","","","","","Cloudy"
"1994-12-17 18:00","1994","12","17","18:00","2.3","","0.6","","89","","22","","15","","12.9","","99.42","","","","","","Cloudy"
"1994-12-17 19:00","1994","12","17","19:00","2.2","","0.1","","86","","22","","15","","16.1","","99.42","","","","","","Cloudy"
"1994-12-17 20:00","1994","12","17","20:00","1.9","","0.6","","91","","23","","9","","16.1","","99.42","","","","","","Cloudy"
"1994-12-17 21:00","1994","12","17","21:00","1.8","","1.1","","95","","22","","7","","12.9","","99.39","","","","","","Cloudy"
"1994-12-17 22:00","1994","12","17","22:00","1.6","","0.5","","92","","22","","4","","11.3","","99.39","","","","","","Cloudy"
"1994-12-17 23:00","1994","12","17","23:00","1.8","","1.1","","95","","18","","2","","9.7","","99.35","","","","","","Fog"
"1994-12-18 00:00","1994","12","18","00:00","1.2","","0.5","","95","","24","","7","","8.0","","99.32","","","","","","Fog"
"1994-12-18 01:00","1994","12","18","01:00","2.0","","0.6","","90","","22","","9","","8.0","","99.29","","","","","","Fog"
"1994-12-18 02:00","1994","12","18","02:00","0.6","","0.0","","96","","34","","4","","8.0","","99.29","","","","","","Fog"
"1994-12-18 03:00","1994","12","18","03:00","1.6","","0.5","","92","","","","0","","8.0","","99.29","","","","","","Rain,Fog"
"1994-12-18 04:00","1994","12","18","04:00","1.6","","0.5","","92","","","","0","","6.4","","99.26","","","","","","Rain,Fog"
"1994-12-18 05:00","1994","12","18","05:00","1.7","","0.0","","88","","","","0","","6.4","","99.26","","","","","","Rain,Fog"
"1994-12-18 06:00","1994","12","18","06:00","1.4","","0.5","","94","","","","0","","6.4","","99.29","","","","","","Rain,Fog"
"1994-12-18 07:00","1994","12","18","07:00","0.5","","0.0","","96","","","","0","","6.4","","99.29","","","","","","Freezing Rain,Fog"
"1994-12-18 08:00","1994","12","18","08:00","0.5","","0.0","","96","","","","0","","4.0","","99.32","","","","","","Freezing Rain,Freezing Drizzle,Fog"
"1994-12-18 09:00","1994","12","18","09:00","0.6","","0.0","","96","","","","0","","4.0","","99.35","","","","","","Freezing Rain,Ice Pellets,Fog"
"1994-12-18 10:00","1994","12","18","10:00","1.0","","0.5","","96","","25","","6","","4.0","","99.39","","","","","","Drizzle,Fog"
"1994-12-18 11:00","1994","12","18","11:00","2.0","","0.6","","90","","29","","4","","4.8","","99.39","","","","","","Fog"
"1994-12-18 12:00","1994","12","18","12:00","3.0","","1.1","","87","","33","","9","","12.9","","99.35","","","","","","Mainly Clear"
"1994-12-18 13:00","1994","12","18","13:00","3.5","","1.2","","85","","35","","13","","19.3","","99.35","","","","","","Mostly Cloudy"
"1994-12-18 14:00","1994","12","18","14:00","3.1","","0.2","","81","","1","","15","","32.2","","99.35","","","","","","Mostly Cloudy"
"1994-12-18 15:00","1994","12","18","15:00","3.8","","0.8","","81","","36","","7","","32.2","","99.39","","","","","","Mostly Cloudy"
"1994-12-18 16:00","1994","12","18","16:00","3.7","","0.7","","81","","36","","11","","19.3","","99.45","","","","","","Mostly Cloudy"
"1994-12-18 17:00","1994","12","18","17:00","2.1","","0.1","","87","","35","","11","","16.1","","99.55","","","","","","Mostly Cloudy"
"1994-12-18 18:00","1994","12","18","18:00","2.0","","0.6","","90","","34","","4","","16.1","","99.62","","","","","","Mostly Cloudy"
"1994-12-18 19:00","1994","12","18","19:00","2.3","","1.1","","92","","36","","11","","12.9","","99.69","","","","","","Rain Showers"
"1994-12-18 20:00","1994","12","18","20:00","1.7","","0.5","","92","","34","","11","","16.1","","99.75","","","","","","Rain Showers"
"1994-12-18 21:00","1994","12","18","21:00","1.3","","0.5","","94","","33","","7","","16.1","","99.79","","","","","","Cloudy"
"1994-12-18 22:00","1994","12","18","22:00","1.0","","0.5","","96","","33","","9","","25.0","","99.82","","","","","","Mostly Cloudy"
"1994-12-18 23:00","1994","12","18","23:00","1.2","","-1.0","","85","","33","","13","","25.0","","99.89","","","","","","Mostly Cloudy"
"1994-12-19 00:00","1994","12","19","00:00","0.2","","-1.8","","86","","31","","9","","25.0","","99.89","","","","","","Mostly Cloudy"
"1994-12-19 01:00","1994","12","19","01:00","0.6","","-1.4","","86","","30","","9","","25.0","","99.89","","","","","","Cloudy"
"1994-12-19 02:00","1994","12","19","02:00","0.3","","-1.2","","90","","30","","6","","25.0","","99.89","","","","","","Cloudy"
"1994-12-19 03:00","1994","12","19","03:00","0.5","","-1.4","","87","","30","","7","","25.0","","99.99","","","","","","Cloudy"
"1994-12-19 04:00","1994","12","19","04:00","0.5","","-1.4","","87","","29","","7","","25.0","","99.99","","","","","","Cloudy"
"1994-12-19 05:00","1994","12","19","05:00","0.6","","-0.9","","90","","26","","9","","24.1","","100.02","","","","","","Snow Showers"
"1994-12-19 06:00","1994","12","19","06:00","0.8","","-1.0","","88","","","","0","","19.3","","100.02","","","","","","Snow Showers"
"1994-12-19 07:00","1994","12","19","07:00","0.5","","-0.9","","90","","26","","4","","16.1","","100.09","","","","","","Cloudy"
"1994-12-19 08:00","1994","12","19","08:00","1.0","","-0.5","","90","","28","","9","","12.9","","100.12","","","","","","Cloudy"
"1994-12-19 09:00","1994","12","19","09:00","1.2","","-0.5","","88","","29","","11","","19.3","","100.19","","","","","","Cloudy"
"1994-12-19 10:00","1994","12","19","10:00","1.5","","0.0","","90","","32","","7","","19.3","","100.25","","","","","","Cloudy"
"1994-12-19 11:00","1994","12","19","11:00","1.5","","0.0","","90","","29","","13","","24.1","","100.25","","","","","","Snow Showers"
"1994-12-19 12:00","1994","12","19","12:00","1.5","","0.0","","90","","28","","13","","40.2","","100.22","","","","","","Cloudy"
"1994-12-19 13:00","1994","12","19","13:00","1.3","","0.0","","91","","30","","13","","32.2","","100.19","","","","","","Snow Pellets"
"1994-12-19 14:00","1994","12","19","14:00","1.2","","-1.0","","85","","29","","15","","32.2","","100.19","","","","","","Snow Showers"
"1994-12-19 15:00","1994","12","19","15:00","1.4","","-0.5","","87","","27","","15","","32.2","","100.15","","","","","","Cloudy"
"1994-12-19 16:00","1994","12","19","16:00","1.3","","-1.5","","82","","29","","13","","32.2","","100.22","","","","","","Cloudy"
"1994-12-19 17:00","1994","12","19","17:00","1.2","","-1.9","","80","","28","","11","","25.0","","100.25","","","","","","Cloudy"
"1994-12-19 18:00","1994","12","19","18:00","1.2","","-2.4","","77","","27","","6","","25.0","","100.29","","","","","","Cloudy"
"1994-12-19 19:00","1994","12","19","19:00","1.0","","-2.4","","78","","26","","6","","25.0","","100.35","","","","","","Cloudy"
"1994-12-19 20:00","1994","12","19","20:00","0.8","","-2.4","","79","","24","","7","","25.0","","100.35","","","","","","Cloudy"
"1994-12-19 21:00","1994","12","19","21:00","1.1","","-2.4","","77","","22","","7","","25.0","","100.39","","","","","","Cloudy"
"1994-12-19 22:00","1994","12","19","22:00","0.6","","-2.0","","83","","23","","9","","24.1","","100.39","","","","","","Cloudy"
"1994-12-19 23:00","1994","12","19","23:00","0.6","","-2.5","","80","","24","","9","","24.1","","100.39","","","","","","Cloudy"
"1994-12-20 00:00","1994","12","20","00:00","0.6","","-2.9","","77","","24","","9","","24.1","","100.39","","","","","","Cloudy"
"1994-12-20 01:00","1994","12","20","01:00","0.5","","-2.5","","80","","24","","9","","24.1","","100.35","","","","","","Cloudy"
"1994-12-20 02:00","1994","12","20","02:00","0.4","","-2.4","","81","","24","","7","","16.1","","100.35","","","","","","Cloudy"
"1994-12-20 03:00","1994","12","20","03:00","0.6","","-2.5","","80","","21","","7","","16.1","","100.45","","","","","","Cloudy"
"1994-12-20 04:00","1994","12","20","04:00","0.6","","-2.5","","80","","19","","7","","12.9","","100.45","","","","","","Cloudy"
"1994-12-20 05:00","1994","12","20","05:00","0.7","","-2.5","","79","","18","","7","","12.9","","100.45","","","","","","Cloudy"
"1994-12-20 06:00","1994","12","20","06:00","0.8","","-2.4","","79","","16","","4","","11.3","","100.49","","","","","","Cloudy"
"1994-12-20 07:00","1994","12","20","07:00","0.9","","-2.4","","79","","18","","7","","16.1","","100.49","","","","","","Cloudy"
"1994-12-20 08:00","1994","12","20","08:00","1.3","","-2.1","","78","","20","","13","","12.9","","100.45","","","","","","Cloudy"
"1994-12-20 09:00","1994","12","20","09:00","1.2","","-1.9","","80","","22","","15","","12.9","","100.45","","","","","","Mostly Cloudy"
"1994-12-20 10:00","1994","12","20","10:00","2.0","","-1.0","","80","","24","","13","","9.7","","100.52","","","","","","Haze"
"1994-12-20 11:00","1994","12","20","11:00","2.4","","-0.9","","79","","24","","19","","16.1","","100.55","","","","","","Cloudy"
"1994-12-20 12:00","1994","12","20","12:00","3.4","","-0.9","","73","","25","","13","","16.1","","100.49","","","","","","Mostly Cloudy"
"1994-12-20 13:00","1994","12","20","13:00","3.8","","-0.3","","75","","23","","17","","16.1","","100.42","","","","","","Mostly Cloudy"
"1994-12-20 14:00","1994","12","20","14:00","4.4","","-1.3","","66","","24","","19","","16.1","","100.39","","","","","","Mostly Cloudy"
"1994-12-20 15:00","1994","12","20","15:00","4.4","","0.2","","74","","22","","15","","12.9","","100.35","","","","","","Mostly Cloudy"
"1994-12-20 16:00","1994","12","20","16:00","4.0","","-0.3","","74","","22","","15","","16.1","","100.39","","","","","","Mostly Cloudy"
"1994-12-20 17:00","1994","12","20","17:00","4.4","","-0.2","","72","","21","","7","","9.7","","100.39","","","","","","Haze"
"1994-12-20 18:00","1994","12","20","18:00","4.0","","0.8","","80","","22","","11","","12.9","","100.42","","","","","","Mostly Cloudy"
"1994-12-20 19:00","1994","12","20","19:00","4.1","","0.8","","79","","21","","15","","16.1","","100.45","","","","","","Mostly Cloudy"
"1994-12-20 20:00","1994","12","20","20:00","3.4","","0.2","","80","","20","","15","","19.3","","100.52","","","","","","Mainly Clear"
"1994-12-20 21:00","1994","12","20","21:00","2.3","","-0.4","","82","","19","","11","","19.3","","100.55","","","","","","Mainly Clear"
"1994-12-20 22:00","1994","12","20","22:00","2.0","","-1.0","","80","","20","","7","","19.3","","100.55","","","","","","Mainly Clear"
"1994-12-20 23:00","1994","12","20","23:00","2.1","","-2.1","","74","","21","","9","","24.1","","100.55","","","","","","Clear"
"1994-12-21 00:00","1994","12","21","00:00","2.3","","-1.5","","76","","17","","4","","19.3","","100.55","","","","","","Clear"
"1994-12-21 01:00","1994","12","21","01:00","2.7","","-2.0","","71","","21","","6","","19.3","","100.59","","","","","","Clear"
"1994-12-21 02:00","1994","12","21","02:00","1.9","","-2.1","","75","","21","","7","","16.1","","100.59","","","","","","Clear"
"1994-12-21 03:00","1994","12","21","03:00","2.0","","-1.0","","80","","20","","6","","14.5","","100.59","","","","","","Clear"
"1994-12-21 04:00","1994","12","21","04:00","2.0","","-1.0","","80","","18","","7","","14.5","","100.59","","","","","","Clear"
"1994-12-21 05:00","1994","12","21","05:00","1.7","","-1.0","","82","","21","","6","","12.9","","100.65","","","","","","Mainly Clear"
"1994-12-21 06:00","1994","12","21","06:00","1.0","","-1.0","","86","","23","","13","","12.9","","100.69","","","","","","Mainly Clear"
"1994-12-21 07:00","1994","12","21","07:00","1.5","","-1.0","","83","","19","","6","","12.9","","100.75","","","","","","Mainly Clear"
"1994-12-21 08:00","1994","12","21","08:00","0.8","","-1.0","","88","","24","","6","","11.3","","100.75","","","","","","Mainly Clear"
"1994-12-21 09:00","1994","12","21","09:00","2.0","","-1.0","","80","","24","","11","","12.9","","100.75","","","","","","Mainly Clear"
"1994-12-21 10:00","1994","12","21","10:00","3.5","","-0.3","","76","","24","","9","","12.9","","100.79","","","","","","Clear"
"1994-12-21 11:00","1994","12","21","11:00","5.2","","-0.2","","68","","24","","11","","11.3","","100.79","","","","","","Clear"
"1994-12-21 12:00","1994","12","21","12:00","6.8","","0.7","","65","","24","","15","","11.3","","100.75","","","","","","Clear"
"1994-12-21 13:00","1994","12","21","13:00","8.2","","0.9","","60","","24","","13","","16.1","","100.69","","","","","","Clear"
"1994-12-21 14:00","1994","12","21","14:00","9.2","","-0.5","","51","","24","","13","","16.1","","100.62","","","","","","Mainly Clear"
"1994-12-21 15:00","1994","12","21","15:00","9.5","","0.2","","52","","22","","13","","19.3","","100.59","","","","","","Mainly Clear"
"1994-12-21 16:00","1994","12","21","16:00","8.3","","-0.1","","55","","22","","11","","19.3","","100.59","","","","","","Mainly Clear"
"1994-12-21 17:00","1994","12","21","17:00","6.8","","0.7","","65","","20","","9","","12.9","","100.59","","","","","","Mainly Clear"
"1994-12-21 18:00","1994","12","21","18:00","5.4","","1.0","","73","","20","","9","","16.1","","100.62","","","","","","Clear"
"1994-12-21 19:00","1994","12","21","19:00","5.0","","0.4","","72","","21","","4","","19.3","","100.59","","","","","","Clear"
"1994-12-21 20:00","1994","12","21","20:00","4.5","","0.8","","77","","17","","4","","19.3","","100.59","","","","","","Clear"
"1994-12-21 21:00","1994","12","21","21:00","4.0","","0.3","","77","","","","0","","16.1","","100.59","","","","","","Clear"
"1994-12-21 22:00","1994","12","21","22:00","3.0","","0.7","","85","","","","0","","12.9","","100.55","","","","","","Clear"
"1994-12-21 23:00","1994","12","21","23:00","1.2","","-0.5","","88","","26","","6","","11.3","","100.55","","","","","","Clear"
"1994-12-22 00:00","1994","12","22","00:00","1.9","","0.6","","91","","26","","4","","11.3","","100.59","","","","","","Clear"
"1994-12-22 01:00","1994","12","22","01:00","1.6","","0.0","","89","","21","","4","","11.3","","100.52","","","","","","Clear"
"1994-12-22 02:00","1994","12","22","02:00","-1.8","","-3.1","","91","","32","","7","","11.3","","100.52","","","","-4","","Clear"
"1994-12-22 03:00","1994","12","22","03:00","-0.9","","-1.6","","95","","","","0","","9.7","","100.55","","","","","","Fog"
"1994-12-22 04:00","1994","12","22","04:00","-2.5","","-3.4","","94","","","","0","","9.7","","100.45","","","","","","Fog"
"1994-12-22 05:00","1994","12","22","05:00","-0.7","","-1.1","","97","","","","0","","9.7","","100.39","","","","","","Fog"
"1994-12-22 06:00","1994","12","22","06:00","-3.8","","-4.8","","93","","35","","6","","8.0","","100.39","","","","-6","","Fog"
"1994-12-22 07:00","1994","12","22","07:00","-2.2","","-3.1","","94","","","","0","","9.7","","100.39","","","","","","Fog"
"1994-12-22 08:00","1994","12","22","08:00","-2.7","","-3.7","","93","","34","","6","","6.4","","100.39","","","","-5","","Fog"
"1994-12-22 09:00","1994","12","22","09:00","-0.9","","-2.7","","88","","24","","4","","8.0","","100.39","","","","-2","","Haze"
"1994-12-22 10:00","1994","12","22","10:00","3.0","","0.2","","82","","18","","4","","8.0","","100.39","","","","","","Haze"
"1994-12-22 11:00","1994","12","22","11:00","5.2","","1.4","","76","","19","","6","","9.7","","100.32","","","","","","Haze"
"1994-12-22 12:00","1994","12","22","12:00","6.7","","1.1","","67","","21","","4","","11.3","","100.29","","","","","","Mainly Clear"
"1994-12-22 13:00","1994","12","22","13:00","8.1","","2.4","","67","","28","","7","","11.3","","100.19","","","","","","Mainly Clear"
"1994-12-22 14:00","1994","12","22","14:00","9.8","","3.4","","64","","19","","9","","12.9","","100.09","","","","","","Mainly Clear"
"1994-12-22 15:00","1994","12","22","15:00","9.8","","2.9","","62","","21","","4","","9.7","","100.05","","","","","","Haze"
"1994-12-22 16:00","1994","12","22","16:00","6.8","","1.7","","70","","14","","7","","9.7","","100.05","","","","","","Haze"
"1994-12-22 17:00","1994","12","22","17:00","5.9","","1.5","","73","","17","","7","","8.0","","100.02","","","","","","Haze"
"1994-12-22 18:00","1994","12","22","18:00","4.2","","0.8","","79","","","","0","","8.0","","100.05","","","","","","Haze"
"1994-12-22 19:00","1994","12","22","19:00","3.1","","0.2","","81","","","","0","","8.0","","100.02","","","","","","Haze"
"1994-12-22 20:00","1994","12","22","20:00","2.0","","0.6","","90","","","","0","","8.0","","100.02","","","","","","Fog"
"1994-12-22 21:00","1994","12","22","21:00","0.5","","-0.5","","93","","34","","4","","8.0","","99.99","","","","","","Fog"
"1994-12-22 22:00","1994","12","22","22:00","-0.6","","-1.8","","92","","33","","9","","8.0","","99.95","","","","-4","","Fog"
"1994-12-22 23:00","1994","12","22","23:00","-1.0","","-2.4","","90","","33","","7","","8.0","","99.99","","","","-4","","Fog"
"1994-12-23 00:00","1994","12","23","00:00","-2.0","","-3.6","","89","","34","","7","","8.0","","99.95","","","","-5","","Fog"
"1994-12-23 01:00","1994","12","23","01:00","-1.6","","-3.0","","90","","34","","11","","8.0","","99.95","","","","-5","","Fog"
"1994-12-23 02:00","1994","12","23","02:00","-2.0","","-3.1","","92","","33","","9","","6.4","","99.95","","","","-5","","Fog"
"1994-12-23 03:00","1994","12","23","03:00","-1.3","","-2.5","","92","","34","","11","","6.4","","99.95","","","","-5","","Fog"
"1994-12-23 04:00","1994","12","23","04:00","-1.7","","-2.5","","94","","34","","7","","6.4","","99.92","","","","-4","","Fog"
"1994-12-23 05:00","1994","12","23","05:00","-1.2","","-2.2","","93","","35","","13","","4.8","","99.89","","","","-5","","Fog"
"1994-12-23 06:00","1994","12","23","06:00","-1.6","","-2.8","","92","","34","","11","","8.0","","99.95","","","","-5","","Fog"
"1994-12-23 07:00","1994","12","23","07:00","-1.4","","-2.8","","90","","32","","4","","11.3","","99.99","","","","-3","","Mainly Clear"
"1994-12-23 08:00","1994","12","23","08:00","-1.5","","-2.8","","91","","34","","9","","4.8","","100.02","","","","-5","","Fog"
"1994-12-23 09:00","1994","12","23","09:00","-0.1","","-1.1","","93","","35","","15","","4.8","","100.09","","","","-5","","Fog"
"1994-12-23 10:00","1994","12","23","10:00","1.5","","-0.5","","87","","36","","9","","6.4","","100.09","","","","","","Fog"
"1994-12-23 11:00","1994","12","23","11:00","5.0","","1.4","","78","","7","","13","","8.0","","100.09","","","","","","Haze"
"1994-12-23 12:00","1994","12","23","12:00","6.8","","1.7","","70","","7","","11","","16.1","","100.02","","","","","","Mostly Cloudy"
"1994-12-23 13:00","1994","12","23","13:00","7.5","","2.3","","70","","36","","13","","16.1","","99.99","","","","","","Mostly Cloudy"
"1994-12-23 14:00","1994","12","23","14:00","6.0","","1.5","","73","","35","","17","","14.5","","99.95","","","","","","Mostly Cloudy"
"1994-12-23 15:00","1994","12","23","15:00","5.7","","1.5","","74","","35","","17","","14.5","","99.92","","","","","","Mostly Cloudy"
"1994-12-23 16:00","1994","12","23","16:00","4.5","","1.3","","80","","35","","19","","12.9","","99.95","","","","","","Mostly Cloudy"
"1994-12-23 17:00","1994","12","23","17:00","3.5","","1.2","","85","","1","","15","","12.9","","99.99","","","","","","Mainly Clear"
"1994-12-23 18:00","1994","12","23","18:00","3.2","","0.2","","81","","1","","19","","12.9","","100.05","","","","","","Mostly Cloudy"
"1994-12-23 19:00","1994","12","23","19:00","2.4","","0.1","","85","","1","","22","","16.1","","100.09","","","","","","Cloudy"
"1994-12-23 20:00","1994","12","23","20:00","2.0","","0.1","","87","","36","","20","","12.9","","100.05","","","","","","Cloudy"
"1994-12-23 21:00","1994","12","23","21:00","2.2","","0.1","","86","","36","","13","","12.9","","100.02","","","","","","Cloudy"
"1994-12-23 22:00","1994","12","23","22:00","2.5","","0.1","","84","","3","","13","","16.1","","99.99","","","","","","Cloudy"
"1994-12-23 23:00","1994","12","23","23:00","2.5","","0.1","","84","","2","","15","","19.3","","99.95","","","","","","Cloudy"
"1994-12-24 00:00","1994","12","24","00:00","2.4","","0.1","","85","","36","","17","","19.3","","99.95","","","","","","Cloudy"
"1994-12-24 01:00","1994","12","24","01:00","2.1","","0.1","","87","","1","","19","","16.1","","99.92","","","","","","Cloudy"
"1994-12-24 02:00","1994","12","24","02:00","1.6","","0.0","","89","","2","","22","","12.9","","99.89","","","","","","Cloudy"
"1994-12-24 03:00","1994","12","24","03:00","1.6","","0.0","","89","","1","","20","","12.9","","99.92","","","","","","Cloudy"
"1994-12-24 04:00","1994","12","24","04:00","1.4","","-0.5","","87","","36","","19","","12.9","","99.82","","","","","","Cloudy"
"1994-12-24 05:00","1994","12","24","05:00","1.0","","-1.0","","86","","36","","22","","12.9","","99.75","","","","","","Mostly Cloudy"
"1994-12-24 06:00","1994","12","24","06:00","0.8","","-1.0","","88","","35","","20","","16.1","","99.79","","","","","","Mostly Cloudy"
"1994-12-24 07:00","1994","12","24","07:00","0.7","","-0.9","","89","","35","","19","","16.1","","99.75","","","","","","Mostly Cloudy"
"1994-12-24 08:00","1994","12","24","08:00","0.4","","-1.0","","90","","34","","24","","19.3","","99.75","","","","","","Mostly Cloudy"
"1994-12-24 09:00","1994","12","24","09:00","0.4","","-1.3","","88","","35","","20","","24.1","","99.75","","","","","","Mostly Cloudy"
"1994-12-24 10:00","1994","12","24","10:00","1.2","","-1.5","","82","","34","","26","","32.2","","99.75","","","","","","Mostly Cloudy"
"1994-12-24 11:00","1994","12","24","11:00","2.7","","0.1","","83","","34","","28","","32.2","","99.65","","","","","","Mostly Cloudy"
"1994-12-24 12:00","1994","12","24","12:00","4.3","","0.8","","78","","35","","26","","32.2","","99.59","","","","","","Mostly Cloudy"
"1994-12-24 13:00","1994","12","24","13:00","5.0","","0.4","","72","","1","","17","","32.2","","99.59","","","","","","Mostly Cloudy"
"1994-12-24 14:00","1994","12","24","14:00","5.2","","-0.2","","68","","34","","26","","40.2","","99.42","","","","","","Mostly Cloudy"
"1994-12-24 15:00","1994","12","24","15:00","5.2","","-1.2","","63","","35","","28","","40.2","","99.39","","","","","","Mostly Cloudy"
"1994-12-24 16:00","1994","12","24","16:00","4.0","","-3.8","","57","","35","","28","","40.2","","99.39","","","","","","Mainly Clear"
"1994-12-24 17:00","1994","12","24","17:00","2.4","","-2.6","","70","","35","","30","","25.0","","99.45","","","","","","Mainly Clear"
"1994-12-24 18:00","1994","12","24","18:00","1.0","","-3.6","","71","","34","","22","","25.0","","99.49","","","","","","Mainly Clear"
"1994-12-24 19:00","1994","12","24","19:00","0.4","","-3.2","","77","","34","","22","","25.0","","99.49","","","","","","Mainly Clear"
"1994-12-24 20:00","1994","12","24","20:00","0.8","","-3.0","","76","","34","","20","","25.0","","99.49","","","","","","Mostly Cloudy"
"1994-12-24 21:00","1994","12","24","21:00","-0.5","","-3.5","","80","","34","","19","","25.0","","99.49","","","","-6","","Mainly Clear"
"1994-12-24 22:00","1994","12","24","22:00","-0.2","","-1.0","","94","","34","","19","","25.0","","99.42","","","","-5","","Clear"
"1994-12-24 23:00","1994","12","24","23:00","0.8","","0.0","","94","","34","","20","","25.0","","99.39","","","","","","Clear"
"1994-12-25 00:00","1994","12","25","00:00","0.6","","-0.9","","90","","34","","22","","25.0","","99.35","","","","","","Clear"
"1994-12-25 01:00","1994","12","25","01:00","1.0","","-0.5","","90","","35","","19","","25.0","","99.35","","","","","","Mainly Clear"
"1994-12-25 02:00","1994","12","25","02:00","1.0","","-0.5","","90","","35","","17","","19.3","","99.39","","","","","","Mainly Clear"
"1994-12-25 03:00","1994","12","25","03:00","0.9","","0.0","","94","","34","","19","","19.3","","99.45","","","","","","Clear"
"1994-12-25 04:00","1994","12","25","04:00","1.0","","0.5","","96","","35","","19","","16.1","","99.42","","","","","","Clear"
"1994-12-25 05:00","1994","12","25","05:00","1.1","","0.5","","96","","35","","17","","16.1","","99.39","","","","","","Clear"
"1994-12-25 06:00","1994","12","25","06:00","0.5","","0.0","","96","","33","","19","","19.3","","99.39","","","","","","Clear"
"1994-12-25 07:00","1994","12","25","07:00","-0.5","","-1.1","","96","","33","","17","","25.0","","99.45","","","","-5","","Clear"
"1994-12-25 08:00","1994","12","25","08:00","0.5","","-0.9","","90","","35","","20","","40.2","","99.49","","","","","","Clear"
"1994-12-25 09:00","1994","12","25","09:00","1.0","","-1.5","","83","","35","","17","","40.2","","99.55","","","","","","Clear"
"1994-12-25 10:00","1994","12","25","10:00","2.2","","-2.6","","71","","36","","22","","40.2","","99.65","","","","","","Clear"
"1994-12-25 11:00","1994","12","25","11:00","3.8","","-0.3","","75","","35","","17","","40.2","","99.69","","","","","","Mainly Clear"
"1994-12-25 12:00","1994","12","25","12:00","5.6","","-0.6","","64","","36","","22","","40.2","","99.65","","","","","","Mostly Cloudy"
"1994-12-25 13:00","1994","12","25","13:00","5.5","","-0.1","","67","","35","","20","","40.2","","99.65","","","","","","Mostly Cloudy"
"1994-12-25 14:00","1994","12","25","14:00","6.3","","1.1","","69","","35","","19","","40.2","","99.69","","","","","","Mainly Clear"
"1994-12-25 15:00","1994","12","25","15:00","6.3","","0.1","","64","","36","","22","","40.2","","99.72","","","","","","Mainly Clear"
"1994-12-25 16:00","1994","12","25","16:00","5.4","","-0.6","","65","","1","","15","","40.2","","99.79","","","","","","Mainly Clear"
"1994-12-25 17:00","1994","12","25","17:00","3.8","","-0.8","","72","","36","","22","","25.0","","99.85","","","","","","Mainly Clear"
"1994-12-25 18:00","1994","12","25","18:00","2.8","","-0.9","","77","","34","","19","","25.0","","99.92","","","","","","Mainly Clear"
"1994-12-25 19:00","1994","12","25","19:00","1.8","","-0.4","","85","","35","","22","","25.0","","99.99","","","","","","Clear"
"1994-12-25 20:00","1994","12","25","20:00","1.6","","-1.5","","80","","35","","20","","25.0","","100.02","","","","","","Clear"
"1994-12-25 21:00","1994","12","25","21:00","1.5","","-1.5","","80","","34","","22","","25.0","","100.05","","","","","","Clear"
"1994-12-25 22:00","1994","12","25","22:00","1.4","","-1.5","","81","","35","","19","","25.0","","100.09","","","","","","Clear"
"1994-12-25 23:00","1994","12","25","23:00","0.8","","-1.5","","85","","35","","13","","25.0","","100.09","","","","","","Clear"
"1994-12-26 00:00","1994","12","26","00:00","-0.2","","-2.3","","86","","34","","11","","25.0","","100.15","","","","-4","","Clear"
"1994-12-26 01:00","1994","12","26","01:00","-1.0","","-3.0","","86","","34","","11","","25.0","","100.15","","","","-5","","Clear"
"1994-12-26 02:00","1994","12","26","02:00","-1.2","","-3.3","","86","","3","","6","","25.0","","100.19","","","","-3","","Clear"
"1994-12-26 03:00","1994","12","26","03:00","-1.9","","-4.5","","82","","36","","9","","25.0","","100.29","","","","-5","","Clear"
"1994-12-26 04:00","1994","12","26","04:00","-2.5","","-4.5","","86","","33","","9","","25.0","","100.29","","","","-6","","Clear"
"1994-12-26 05:00","1994","12","26","05:00","-2.8","","-4.8","","86","","32","","9","","25.0","","100.32","","","","-6","","Mainly Clear"
"1994-12-26 06:00","1994","12","26","06:00","-3.2","","-4.5","","91","","34","","7","","25.0","","100.35","","","","-6","","Mainly Clear"
"1994-12-26 07:00","1994","12","26","07:00","-3.0","","-4.5","","89","","33","","6","","25.0","","100.39","","","","-5","","Clear"
"1994-12-26 08:00","1994","12","26","08:00","-2.6","","-4.2","","89","","33","","6","","32.2","","100.39","","","","-5","","Mainly Clear"
"1994-12-26 09:00","1994","12","26","09:00","-1.9","","-3.6","","88","","","","0","","40.2","","100.45","","","","","","Mainly Clear"
"1994-12-26 10:00","1994","12","26","10:00","0.8","","-1.9","","82","","","","0","","40.2","","100.45","","","","","","Clear"
"1994-12-26 11:00","1994","12","26","11:00","2.9","","-1.5","","73","","","","0","","32.2","","100.45","","","","","","Mainly Clear"
"1994-12-26 12:00","1994","12","26","12:00","5.0","","-0.2","","69","","","","0","","32.2","","100.42","","","","","","Mainly Clear"
"1994-12-26 13:00","1994","12","26","13:00","6.1","","0.0","","65","","17","","6","","32.2","","100.39","","","","","","Mainly Clear"
"1994-12-26 14:00","1994","12","26","14:00","7.0","","2.2","","71","","15","","7","","32.2","","100.35","","","","","","Mainly Clear"
"1994-12-26 15:00","1994","12","26","15:00","6.8","","1.2","","67","","15","","4","","40.2","","100.32","","","","","","Mainly Clear"
"1994-12-26 16:00","1994","12","26","16:00","4.6","","0.8","","76","","13","","11","","24.1","","100.35","","","","","","Mainly Clear"
"1994-12-26 17:00","1994","12","26","17:00","2.0","","0.6","","90","","15","","7","","19.3","","100.35","","","","","","Mostly Cloudy"
"1994-12-26 18:00","1994","12","26","18:00","1.3","","0.5","","94","","14","","7","","16.1","","100.35","","","","","","Mostly Cloudy"
"1994-12-26 19:00","1994","12","26","19:00","1.4","","0.5","","94","","13","","11","","9.7","","100.32","","","","","","Fog"
"1994-12-26 20:00","1994","12","26","20:00","1.0","","0.5","","96","","14","","7","","6.4","","100.29","","","","","","Fog"
"1994-12-26 21:00","1994","12","26","21:00","0.5","","0.5","","100","","16","","4","","1.2","","100.29","","","","","","Fog"
"1994-12-26 22:00","1994","12","26","22:00","-1.4","","-2.2","","94","","24","","7","","0.2","","100.29","","","","-4","","Fog"
"1994-12-26 23:00","1994","12","26","23:00","-0.5","","-0.8","","98","","23","","13","","1.6","","100.29","","","","-5","","Fog"
"1994-12-27 00:00","1994","12","27","00:00","-0.1","","-0.1","","100","","22","","13","","4.8","","100.22","","","","-4","","Fog"
"1994-12-27 01:00","1994","12","27","01:00","0.0","","0.0","","100","","21","","13","","6.4","","100.19","","","","-4","","Fog"
"1994-12-27 02:00","1994","12","27","02:00","0.9","","0.0","","94","","23","","15","","6.4","","100.12","","","","","","Fog"
"1994-12-27 03:00","1994","12","27","03:00","1.2","","0.0","","92","","22","","11","","6.4","","100.12","","","","","","Fog"
"1994-12-27 04:00","1994","12","27","04:00","1.5","","0.5","","93","","21","","17","","6.4","","100.05","","","","","","Fog"
"1994-12-27 05:00","1994","12","27","05:00","1.5","","0.0","","90","","21","","17","","6.4","","99.99","","","","","","Fog"
"1994-12-27 06:00","1994","12","27","06:00","1.2","","0.0","","92","","22","","17","","8.0","","99.99","","","","","","Fog"
"1994-12-27 07:00","1994","12","27","07:00","1.2","","0.0","","92","","22","","11","","8.0","","99.99","","","","","","Fog"
"1994-12-27 08:00","1994","12","27","08:00","1.2","","-0.5","","88","","21","","13","","4.0","","99.95","","","","","","Fog"
"1994-12-27 09:00","1994","12","27","09:00","1.4","","0.0","","90","","20","","9","","6.4","","99.95","","","","","","Fog"
"1994-12-27 10:00","1994","12","27","10:00","2.0","","0.6","","90","","22","","19","","6.4","","99.95","","","","","","Fog"
"1994-12-27 11:00","1994","12","27","11:00","2.7","","0.6","","86","","22","","15","","9.7","","99.89","","","","","","Fog"
"1994-12-27 12:00","1994","12","27","12:00","4.0","","1.7","","85","","22","","15","","12.9","","99.75","","","","","","Cloudy"
"1994-12-27 13:00","1994","12","27","13:00","5.0","","1.4","","78","","23","","11","","12.9","","99.65","","","","","","Cloudy"
"1994-12-27 14:00","1994","12","27","14:00","6.0","","1.5","","73","","24","","19","","12.9","","99.59","","","","","","Cloudy"
"1994-12-27 15:00","1994","12","27","15:00","6.1","","2.0","","75","","23","","15","","9.7","","99.52","","","","","","Haze"
"1994-12-27 16:00","1994","12","27","16:00","5.9","","2.0","","76","","21","","11","","11.3","","99.49","","","","","","Mostly Cloudy"
"1994-12-27 17:00","1994","12","27","17:00","5.1","","1.4","","77","","21","","11","","9.7","","99.49","","","","","","Haze"
"1994-12-27 18:00","1994","12","27","18:00","3.5","","1.2","","85","","20","","7","","12.9","","99.49","","","","","","Mostly Cloudy"
"1994-12-27 19:00","1994","12","27","19:00","2.1","","0.6","","90","","19","","11","","12.9","","99.45","","","","","","Mostly Cloudy"
"1994-12-27 20:00","1994","12","27","20:00","1.4","","0.5","","94","","20","","11","","9.7","","99.42","","","","","","Fog"
"1994-12-27 21:00","1994","12","27","21:00","0.6","","0.0","","96","","23","","15","","9.7","","99.35","","","","","","Fog"
"1994-12-27 22:00","1994","12","27","22:00","0.6","","-0.5","","92","","23","","20","","11.3","","99.32","","","","","","Mainly Clear"
"1994-12-27 23:00","1994","12","27","23:00","0.5","","-0.5","","93","","21","","17","","11.3","","99.22","","","","","","Mainly Clear"
"1994-12-28 00:00","1994","12","28","00:00","0.6","","-0.5","","92","","20","","7","","8.0","","99.16","","","","","","Fog"
"1994-12-28 01:00","1994","12","28","01:00","1.5","","0.5","","93","","21","","17","","9.7","","99.06","","","","","","Fog"
"1994-12-28 02:00","1994","12","28","02:00","2.4","","1.6","","94","","17","","19","","8.0","","98.96","","","","","","Fog"
"1994-12-28 03:00","1994","12","28","03:00","2.7","","1.1","","89","","19","","13","","8.0","","98.96","","","","","","Fog"
"1994-12-28 04:00","1994","12","28","04:00","2.6","","1.1","","90","","18","","9","","9.7","","98.86","","","","","","Fog"
"1994-12-28 05:00","1994","12","28","05:00","2.9","","1.1","","88","","20","","15","","11.3","","98.72","","","","","","Mostly Cloudy"
"1994-12-28 06:00","1994","12","28","06:00","3.0","","1.1","","87","","21","","15","","16.1","","98.69","","","","","","Cloudy"
"1994-12-28 07:00","1994","12","28","07:00","3.0","","0.7","","85","","21","","15","","16.1","","98.66","","","","","","Rain Showers"
"1994-12-28 08:00","1994","12","28","08:00","3.3","","1.7","","89","","23","","19","","9.7","","98.62","","","","","","Fog"
"1994-12-28 09:00","1994","12","28","09:00","3.8","","2.2","","89","","25","","22","","9.7","","98.66","","","","","","Fog"
"1994-12-28 10:00","1994","12","28","10:00","4.7","","2.3","","84","","27","","22","","11.3","","98.69","","","","","","Cloudy"
"1994-12-28 11:00","1994","12","28","11:00","5.7","","2.9","","82","","28","","28","","11.3","","98.72","","","","","","Cloudy"
"1994-12-28 12:00","1994","12","28","12:00","6.0","","2.5","","78","","29","","41","","19.3","","98.72","","","","","","Cloudy"
"1994-12-28 13:00","1994","12","28","13:00","6.4","","3.5","","82","","29","","33","","19.3","","98.69","","","","","","Mostly Cloudy"
"1994-12-28 14:00","1994","12","28","14:00","5.6","","2.0","","78","","29","","37","","19.3","","98.79","","","","","","Cloudy"
"1994-12-28 15:00","1994","12","28","15:00","4.9","","1.9","","81","","28","","33","","24.1","","98.89","","","","","","Rain Showers"
"1994-12-28 16:00","1994","12","28","16:00","4.6","","1.3","","79","","29","","33","","24.1","","98.96","","","","","","Rain Showers"
"1994-12-28 17:00","1994","12","28","17:00","4.5","","0.8","","77","","29","","37","","24.1","","99.09","","","","","","Rain Showers"
"1994-12-28 18:00","1994","12","28","18:00","3.9","","0.3","","77","","30","","28","","19.3","","99.19","","","","","","Mostly Cloudy"
"1994-12-28 19:00","1994","12","28","19:00","3.7","","-0.9","","72","","31","","41","","24.1","","99.32","","","","","","Cloudy"
"1994-12-28 20:00","1994","12","28","20:00","2.6","","-0.9","","78","","33","","24","","24.1","","99.45","","","","","","Cloudy"
"1994-12-28 21:00","1994","12","28","21:00","2.0","","-2.1","","74","","31","","33","","25.0","","99.55","","","","","","Cloudy"
"1994-12-28 22:00","1994","12","28","22:00","1.3","","-2.4","","76","","30","","39","","25.0","","99.65","","","","","","Cloudy"
"1994-12-28 23:00","1994","12","28","23:00","0.9","","-3.0","","75","","33","","33","","25.0","","99.79","","","","","","Cloudy"
"1994-12-29 00:00","1994","12","29","00:00","0.6","","-3.1","","76","","33","","32","","25.0","","99.85","","","","","","Cloudy"
"1994-12-29 01:00","1994","12","29","01:00","0.3","","-3.7","","74","","33","","32","","25.0","","99.89","","","","","","Cloudy"
"1994-12-29 02:00","1994","12","29","02:00","0.0","","-4.0","","74","","32","","33","","25.0","","99.99","","","","-7","","Cloudy"
"1994-12-29 03:00","1994","12","29","03:00","-1.0","","-5.0","","74","","33","","33","","25.0","","100.12","","","","-8","","Mostly Cloudy"
"1994-12-29 04:00","1994","12","29","04:00","-2.1","","-6.4","","72","","34","","35","","25.0","","100.22","","","","-10","","Mostly Cloudy"
"1994-12-29 05:00","1994","12","29","05:00","-2.6","","-6.4","","75","","34","","30","","25.0","","100.25","","","","-10","","Mostly Cloudy"
"1994-12-29 06:00","1994","12","29","06:00","-3.9","","-7.6","","75","","33","","32","","25.0","","100.42","","","","-12","","Mostly Cloudy"
"1994-12-29 07:00","1994","12","29","07:00","-4.8","","-9.7","","69","","33","","30","","25.0","","100.55","","","","-13","","Mainly Clear"
"1994-12-29 08:00","1994","12","29","08:00","-6.1","","-10.6","","70","","35","","32","","32.2","","100.69","","","","-15","","Clear"
"1994-12-29 09:00","1994","12","29","09:00","-6.8","","-12.4","","64","","35","","32","","32.2","","100.85","","","","-16","","Mainly Clear"
"1994-12-29 10:00","1994","12","29","10:00","-6.6","","-11.7","","67","","35","","22","","32.2","","100.95","","","","-14","","Clear"
"1994-12-29 11:00","1994","12","29","11:00","-6.0","","-11.5","","65","","34","","35","","32.2","","100.99","","","","-15","","Clear"
"1994-12-29 12:00","1994","12","29","12:00","-4.8","","-10.9","","62","","36","","30","","32.2","","100.99","","","","-13","","Mainly Clear"
"1994-12-29 13:00","1994","12","29","13:00","-4.5","","-12.8","","52","","35","","28","","32.2","","100.95","","","","-12","","Mainly Clear"
"1994-12-29 14:00","1994","12","29","14:00","-4.8","","-11.7","","58","","34","","28","","32.2","","100.95","","","","-12","","Mainly Clear"
"1994-12-29 15:00","1994","12","29","15:00","-5.4","","-12.5","","57","","35","","26","","40.2","","101.02","","","","-13","","Mostly Cloudy"
"1994-12-29 16:00","1994","12","29","16:00","-6.4","","-13.5","","57","","35","","26","","40.2","","101.05","","","","-14","","Mostly Cloudy"
"1994-12-29 17:00","1994","12","29","17:00","-7.4","","-13.6","","61","","36","","24","","40.2","","101.15","","","","-15","","Mainly Clear"
"1994-12-29 18:00","1994","12","29","18:00","-8.2","","-12.1","","73","","35","","17","","25.0","","101.19","","","","-15","","Clear"
"1994-12-29 19:00","1994","12","29","19:00","-8.9","","-12.5","","75","","34","","17","","25.0","","101.25","","","","-16","","Clear"
"1994-12-29 20:00","1994","12","29","20:00","-9.0","","-13.4","","70","","36","","19","","25.0","","101.29","","","","-16","","Clear"
"1994-12-29 21:00","1994","12","29","21:00","-9.8","","-12.9","","78","","36","","15","","25.0","","101.32","","","","-16","","Clear"
"1994-12-29 22:00","1994","12","29","22:00","-10.2","","-12.0","","87","","35","","13","","25.0","","101.35","","","","-16","","Clear"
"1994-12-29 23:00","1994","12","29","23:00","-10.4","","-12.6","","84","","35","","7","","25.0","","101.39","","","","-14","","Clear"
"1994-12-30 00:00","1994","12","30","00:00","-10.6","","-12.6","","85","","36","","11","","25.0","","101.42","","","","-16","","Clear"
"1994-12-30 01:00","1994","12","30","01:00","-10.6","","-15.9","","65","","2","","19","","25.0","","101.42","","","","-18","","Clear"
"1994-12-30 02:00","1994","12","30","02:00","-11.0","","-15.0","","72","","2","","15","","25.0","","101.45","","","","-18","","Clear"
"1994-12-30 03:00","1994","12","30","03:00","-11.1","","-16.1","","67","","3","","11","","25.0","","101.45","","","","-17","","Mainly Clear"
"1994-12-30 04:00","1994","12","30","04:00","-10.6","","-15.9","","65","","36","","9","","25.0","","101.42","","","","-16","","Mostly Cloudy"
"1994-12-30 05:00","1994","12","30","05:00","-10.0","","-14.2","","71","","5","","11","","25.0","","101.45","","","","-16","","Mostly Cloudy"
"1994-12-30 06:00","1994","12","30","06:00","-9.6","","-15.0","","65","","5","","9","","25.0","","101.45","","","","-14","","Mostly Cloudy"
"1994-12-30 07:00","1994","12","30","07:00","-9.4","","-15.5","","61","","9","","4","","25.0","","101.55","","","","-12","","Mostly Cloudy"
"1994-12-30 08:00","1994","12","30","08:00","-9.3","","-15.5","","61","","6","","9","","32.2","","101.52","","","","-14","","Cloudy"
"1994-12-30 09:00","1994","12","30","09:00","-8.9","","-15.3","","60","","6","","13","","32.2","","101.55","","","","-15","","Mostly Cloudy"
"1994-12-30 10:00","1994","12","30","10:00","-8.0","","-12.9","","68","","7","","11","","32.2","","101.52","","","","-13","","Mostly Cloudy"
"1994-12-30 11:00","1994","12","30","11:00","-7.2","","-12.4","","66","","9","","15","","32.2","","101.45","","","","-13","","Cloudy"
"1994-12-30 12:00","1994","12","30","12:00","-5.0","","-11.3","","61","","11","","22","","32.2","","101.39","","","","-12","","Cloudy"
"1994-12-30 13:00","1994","12","30","13:00","-5.8","","-10.3","","70","","9","","22","","12.9","","101.29","","","","-13","","Snow Showers"
"1994-12-30 14:00","1994","12","30","14:00","-5.6","","-9.6","","73","","9","","19","","12.9","","101.22","","","","-12","","Snow Showers"
"1994-12-30 15:00","1994","12","30","15:00","-5.7","","-8.2","","82","","9","","20","","14.5","","101.15","","","","-12","","Mostly Cloudy"
"1994-12-30 16:00","1994","12","30","16:00","-5.1","","-7.5","","83","","9","","17","","16.1","","101.12","","","","-11","","Mostly Cloudy"
"1994-12-30 17:00","1994","12","30","17:00","-4.9","","-7.5","","82","","9","","17","","16.1","","101.05","","","","-11","","Cloudy"
"1994-12-30 18:00","1994","12","30","18:00","-4.5","","-6.6","","85","","9","","19","","19.3","","100.99","","","","-11","","Mostly Cloudy"
"1994-12-30 19:00","1994","12","30","19:00","-4.3","","-6.9","","82","","9","","19","","24.1","","100.95","","","","-10","","Mostly Cloudy"
"1994-12-30 20:00","1994","12","30","20:00","-3.9","","-6.3","","83","","9","","19","","24.1","","100.89","","","","-10","","Mostly Cloudy"
"1994-12-30 21:00","1994","12","30","21:00","-2.9","","-6.3","","77","","10","","28","","24.1","","100.75","","","","-10","","Mostly Cloudy"
"1994-12-30 22:00","1994","12","30","22:00","-3.0","","-5.4","","83","","10","","22","","24.1","","100.69","","","","-9","","Mostly Cloudy"
"1994-12-30 23:00","1994","12","30","23:00","-2.0","","-5.7","","76","","11","","22","","25.0","","100.59","","","","-8","","Mostly Cloudy"
"1994-12-31 00:00","1994","12","31","00:00","-1.8","","-6.0","","73","","11","","20","","25.0","","100.59","","","","-8","","Cloudy"
"1994-12-31 01:00","1994","12","31","01:00","-1.6","","-5.7","","74","","11","","22","","25.0","","100.49","","","","-8","","Cloudy"
"1994-12-31 02:00","1994","12","31","02:00","-1.2","","-4.7","","77","","11","","15","","25.0","","100.39","","","","-6","","Cloudy"
"1994-12-31 03:00","1994","12","31","03:00","-1.4","","-5.7","","72","","11","","15","","25.0","","100.35","","","","-6","","Cloudy"
"1994-12-31 04:00","1994","12","31","04:00","-1.2","","-5.4","","73","","10","","7","","25.0","","100.29","","","","-4","","Cloudy"
"1994-12-31 05:00","1994","12","31","05:00","-1.3","","-5.4","","74","","9","","4","","25.0","","100.25","","","","-3","","Cloudy"
"1994-12-31 06:00","1994","12","31","06:00","-1.1","","-5.0","","75","","10","","6","","25.0","","100.19","","","","-3","","Cloudy"
"1994-12-31 07:00","1994","12","31","07:00","-0.3","","-4.7","","72","","","","0","","25.0","","100.15","","","","","","Cloudy"
"1994-12-31 08:00","1994","12","31","08:00","-1.4","","-4.2","","81","","","","0","","25.0","","100.09","","","","","","Cloudy"
"1994-12-31 09:00","1994","12","31","09:00","-1.5","","-3.9","","84","","","","0","","32.2","","100.12","","","","","","Cloudy"
"1994-12-31 10:00","1994","12","31","10:00","0.0","","-2.6","","83","","","","0","","24.1","","100.09","","","","","","Cloudy"
"1994-12-31 11:00","1994","12","31","11:00","1.1","","-3.0","","74","","20","","4","","19.3","","100.05","","","","","","Rain"
"1994-12-31 12:00","1994","12","31","12:00","1.1","","-3.0","","74","","21","","7","","9.7","","99.99","","","","","","Rain,Haze"
"1994-12-31 13:00","1994","12","31","13:00","1.0","","-1.5","","83","","","","0","","9.7","","99.89","","","","","","Rain,Haze"
"1994-12-31 14:00","1994","12","31","14:00","0.7","","-1.0","","88","","","","0","","6.4","","99.85","","","","","","Rain,Fog"
"1994-12-31 15:00","1994","12","31","15:00","0.7","","0.0","","95","","15","","4","","4.8","","99.85","","","","","","Rain,Fog"
"1994-12-31 16:00","1994","12","31","16:00","0.9","","0.5","","97","","16","","7","","2.4","","99.85","","","","","","Rain,Fog"
"1994-12-31 17:00","1994","12","31","17:00","1.0","","1.0","","100","","","","0","","4.0","","99.82","","","","","","Rain,Fog"
"1994-12-31 18:00","1994","12","31","18:00","1.1","","0.5","","96","","","","0","","6.4","","99.79","","","","","","Rain,Fog"
"1994-12-31 19:00","1994","12","31","19:00","1.0","","1.0","","100","","12","","4","","4.0","","99.79","","","","","","Rain,Fog"
"1994-12-31 20:00","1994","12","31","20:00","1.0","","1.0","","100","","14","","11","","4.8","","99.69","","","","","","Rain,Fog"
"1994-12-31 21:00","1994","12","31","21:00","1.0","","0.5","","96","","","","0","","4.0","","99.69","","","","","","Snow,Fog"
"1994-12-31 22:00","1994","12","31","22:00","1.0","","1.0","","100","","18","","4","","4.0","","99.62","","","","","","Fog"
"1994-12-31 23:00","1994","12","31","23:00","0.6","","0.5","","99","","","","0","","4.0","","99.52","","","","","","Snow,Fog"
