"Station Name","TORONTO LESTER B. PEARSON INT'L A"
"Province","ONTARIO"
"Latitude","43.68"
"Longitude","-79.63"
"Elevation","173.40"
"Climate Identifier","6158733"
"WMO Identifier","71624"
"TC Identifier","YYZ"
"All times are specified in Local Standard Time (LST). Add 1 hour to adjust for Daylight Saving Time where and when it is observed."

"Legend"
"E","Estimated"
"M","Missing"
"NA","Not Available"

"Date/Time","Year","Month","Day","Time","Temp (°C)","Temp Flag","Dew Point Temp (°C)","Dew Point Temp Flag","Rel Hum (%)","Rel Hum Flag","Wind Dir (10s deg)","Wind Dir Flag","Wind Spd (km/h)","Wind Spd Flag","Visibility (km)","Visibility Flag","Stn Press (kPa)","Stn Press Flag","Hmdx","Hmdx Flag","Wind Chill","Wind Chill Flag","Weather"
"2008-12-01 00:00","2008","12","01","00:00","2.3","","0.5","","88","","10","","24","","9.7","","96.93","","","","","","Rain,Snow"
"2008-12-01 01:00","2008","12","01","01:00","2.5","","0.7","","88","","10","","26","","9.7","","96.80","","","","","","Rain,Snow"
"2008-12-01 02:00","2008","12","01","02:00","2.5","","0.9","","89","","13","","17","","8.0","","96.77","","","","","","Rain,Snow"
"2008-12-01 03:00","2008","12","01","03:00","2.5","","1.0","","90","","15","","13","","9.7","","96.71","","","","","","Rain,Snow"
"2008-12-01 04:00","2008","12","01","04:00","2.5","","1.2","","91","","16","","11","","8.0","","96.67","","","","","","Rain,Snow"
"2008-12-01 05:00","2008","12","01","05:00","2.8","","1.5","","91","","21","","19","","9.7","","96.66","","","","","","Rain,Snow"
"2008-12-01 06:00","2008","12","01","06:00","2.6","","1.2","","90","","22","","19","","9.7","","96.73","","","","","","Rain,Fog"
"2008-12-01 07:00","2008","12","01","07:00","2.1","","0.0","","86","","24","","30","","19.3","","96.81","","","","","","Rain"
"2008-12-01 08:00","2008","12","01","08:00","2.3","","-1.3","","77","","22","","26","","24.1","","96.86","","","","","","Mostly Cloudy"
"2008-12-01 09:00","2008","12","01","09:00","2.6","","-1.4","","75","","22","","22","","24.1","","96.90","","","","","","Mostly Cloudy"
"2008-12-01 10:00","2008","12","01","10:00","2.7","","-1.0","","77","","22","","24","","19.3","","96.96","","","","","","Drizzle"
"2008-12-01 11:00","2008","12","01","11:00","2.7","","-0.7","","78","","21","","17","","19.3","","97.02","","","","","","Drizzle"
"2008-12-01 12:00","2008","12","01","12:00","3.1","","-1.4","","72","","22","","17","","24.1","","97.00","","","","","","Cloudy"
"2008-12-01 13:00","2008","12","01","13:00","3.0","","-1.0","","75","","21","","28","","24.1","","97.06","","","","","","Rain Showers"
"2008-12-01 14:00","2008","12","01","14:00","2.5","","-0.3","","82","","21","","28","","19.3","","97.11","","","","","","Rain Showers"
"2008-12-01 15:00","2008","12","01","15:00","2.1","","-0.5","","83","","21","","17","","24.1","","97.18","","","","","","Rain Showers"
"2008-12-01 16:00","2008","12","01","16:00","2.3","","-0.4","","82","","22","","22","","24.1","","97.27","","","","","","Cloudy"
"2008-12-01 17:00","2008","12","01","17:00","2.2","","-0.9","","80","","22","","22","","24.1","","97.33","","","","","","Cloudy"
"2008-12-01 18:00","2008","12","01","18:00","2.1","","-1.0","","80","","22","","15","","24.1","","97.40","","","","","","Cloudy"
"2008-12-01 19:00","2008","12","01","19:00","2.0","","-1.2","","79","","22","","20","","24.1","","97.49","","","","","","Mostly Cloudy"
"2008-12-01 20:00","2008","12","01","20:00","1.6","","-1.1","","82","","25","","22","","19.3","","97.63","","","","","","Rain Showers,Snow Showers"
"2008-12-01 21:00","2008","12","01","21:00","1.0","","-2.0","","80","","27","","19","","16.1","","97.76","","","","","","Snow Showers"
"2008-12-01 22:00","2008","12","01","22:00","0.6","","-2.9","","77","","27","","33","","19.3","","97.86","","","","","","Snow Showers"
"2008-12-01 23:00","2008","12","01","23:00","-0.5","","-5.4","","69","","25","","32","","24.1","","97.99","","","","-7","","Mostly Cloudy"
"2008-12-02 00:00","2008","12","02","00:00","-0.7","","-5.7","","69","","25","","32","","24.1","","98.12","","","","-8","","Mostly Cloudy"
"2008-12-02 01:00","2008","12","02","01:00","-0.8","","-5.6","","70","","25","","30","","24.1","","98.22","","","","-8","","Mostly Cloudy"
"2008-12-02 02:00","2008","12","02","02:00","-0.7","","-5.2","","72","","25","","28","","24.1","","98.34","","","","-7","","Mostly Cloudy"
"2008-12-02 03:00","2008","12","02","03:00","-0.8","","-4.9","","74","","25","","28","","24.1","","98.49","","","","-7","","Mostly Cloudy"
"2008-12-02 04:00","2008","12","02","04:00","-0.9","","-4.3","","78","","26","","28","","12.9","","98.59","","","","-7","","Snow Showers"
"2008-12-02 05:00","2008","12","02","05:00","-0.6","","-4.2","","77","","27","","26","","19.3","","98.71","","","","-7","","Snow Showers"
"2008-12-02 06:00","2008","12","02","06:00","-0.3","","-5.0","","71","","28","","24","","24.1","","98.86","","","","-6","","Mostly Cloudy"
"2008-12-02 07:00","2008","12","02","07:00","-0.2","","-5.2","","69","","27","","24","","24.1","","99.04","","","","-6","","Mostly Cloudy"
"2008-12-02 08:00","2008","12","02","08:00","-0.6","","-4.8","","73","","25","","22","","24.1","","99.17","","","","-6","","Cloudy"
"2008-12-02 09:00","2008","12","02","09:00","-0.5","","-5.1","","71","","26","","24","","16.1","","99.28","","","","-6","","Snow Showers"
"2008-12-02 10:00","2008","12","02","10:00","-0.5","","-4.6","","74","","24","","19","","24.1","","99.38","","","","-6","","Snow Showers"
"2008-12-02 11:00","2008","12","02","11:00","0.0","","-5.2","","68","","25","","24","","24.1","","99.45","","","","-6","","Snow Showers"
"2008-12-02 12:00","2008","12","02","12:00","0.0","","-5.2","","68","","25","","24","","24.1","","99.44","","","","-6","","Mostly Cloudy"
"2008-12-02 13:00","2008","12","02","13:00","0.2","","-5.9","","64","","26","","22","","24.1","","99.45","","","","","","Mostly Cloudy"
"2008-12-02 14:00","2008","12","02","14:00","0.2","","-6.8","","59","","26","","26","","24.1","","99.48","","","","","","Cloudy"
"2008-12-02 15:00","2008","12","02","15:00","0.3","","-6.9","","58","","25","","22","","24.1","","99.52","","","","","","Mostly Cloudy"
"2008-12-02 16:00","2008","12","02","16:00","0.2","","-8.4","","52","","24","","26","","24.1","","99.56","","","","","","Cloudy"
"2008-12-02 17:00","2008","12","02","17:00","-0.2","","-8.6","","53","","24","","24","","24.1","","99.58","","","","-6","","Cloudy"
"2008-12-02 18:00","2008","12","02","18:00","-0.6","","-6.9","","62","","23","","24","","24.1","","99.66","","","","-7","","Cloudy"
"2008-12-02 19:00","2008","12","02","19:00","-1.2","","-6.6","","67","","22","","22","","19.3","","99.71","","","","-7","","Snow Showers"
"2008-12-02 20:00","2008","12","02","20:00","-1.3","","-6.5","","68","","23","","28","","24.1","","99.74","","","","-8","","Snow Showers"
"2008-12-02 21:00","2008","12","02","21:00","-1.4","","-6.9","","66","","23","","20","","24.1","","99.68","","","","-7","","Cloudy"
"2008-12-02 22:00","2008","12","02","22:00","-1.5","","-6.9","","67","","23","","19","","24.1","","99.67","","","","-7","","Cloudy"
"2008-12-02 23:00","2008","12","02","23:00","-1.4","","-7.1","","65","","24","","24","","24.1","","99.70","","","","-8","","Cloudy"
"2008-12-03 00:00","2008","12","03","00:00","-1.3","","-6.8","","66","","22","","20","","24.1","","99.69","","","","-7","","Cloudy"
"2008-12-03 01:00","2008","12","03","01:00","-1.0","","-6.5","","66","","22","","15","","24.1","","99.68","","","","-6","","Cloudy"
"2008-12-03 02:00","2008","12","03","02:00","-0.6","","-6.0","","67","","22","","20","","24.1","","99.70","","","","-6","","Cloudy"
"2008-12-03 03:00","2008","12","03","03:00","-0.3","","-6.2","","64","","22","","28","","24.1","","99.74","","","","-7","","Mostly Cloudy"
"2008-12-03 04:00","2008","12","03","04:00","-0.7","","-6.3","","66","","19","","15","","24.1","","99.69","","","","-5","","Mostly Cloudy"
"2008-12-03 05:00","2008","12","03","05:00","-0.6","","-6.1","","66","","19","","20","","24.1","","99.65","","","","-6","","Cloudy"
"2008-12-03 06:00","2008","12","03","06:00","-0.6","","-5.7","","68","","20","","19","","24.1","","99.63","","","","-6","","Mostly Cloudy"
"2008-12-03 07:00","2008","12","03","07:00","0.2","","-4.9","","69","","20","","15","","19.3","","99.61","","","","","","Cloudy"
"2008-12-03 08:00","2008","12","03","08:00","0.6","","-4.3","","70","","21","","19","","24.1","","99.61","","","","","","Cloudy"
"2008-12-03 09:00","2008","12","03","09:00","1.2","","-3.8","","69","","21","","17","","24.1","","99.57","","","","","","Mostly Cloudy"
"2008-12-03 10:00","2008","12","03","10:00","2.1","","-3.5","","66","","20","","20","","24.1","","99.55","","","","","","Mostly Cloudy"
"2008-12-03 11:00","2008","12","03","11:00","3.8","","-2.7","","62","","22","","22","","24.1","","99.48","","","","","","Mostly Cloudy"
"2008-12-03 12:00","2008","12","03","12:00","4.1","","-2.6","","62","","20","","24","","24.1","","99.36","","","","","","Mostly Cloudy"
"2008-12-03 13:00","2008","12","03","13:00","4.4","","-2.7","","60","","23","","30","","24.1","","99.30","","","","","","Mostly Cloudy"
"2008-12-03 14:00","2008","12","03","14:00","4.9","","-2.4","","59","","21","","24","","24.1","","99.24","","","","","","Mostly Cloudy"
"2008-12-03 15:00","2008","12","03","15:00","4.9","","-2.5","","59","","22","","28","","24.1","","99.23","","","","","","Mostly Cloudy"
"2008-12-03 16:00","2008","12","03","16:00","4.5","","-2.7","","59","","21","","17","","24.1","","99.20","","","","","","Mostly Cloudy"
"2008-12-03 17:00","2008","12","03","17:00","4.6","","-3.1","","57","","20","","17","","24.1","","99.17","","","","","","Mostly Cloudy"
"2008-12-03 18:00","2008","12","03","18:00","5.1","","-2.5","","58","","19","","11","","24.1","","99.12","","","","","","Cloudy"
"2008-12-03 19:00","2008","12","03","19:00","5.3","","-1.9","","60","","18","","13","","24.1","","99.03","","","","","","Cloudy"
"2008-12-03 20:00","2008","12","03","20:00","6.1","","-1.4","","59","","20","","22","","24.1","","99.00","","","","","","Cloudy"
"2008-12-03 21:00","2008","12","03","21:00","5.5","","0.2","","69","","21","","24","","19.3","","98.90","","","","","","Rain Showers"
"2008-12-03 22:00","2008","12","03","22:00","4.8","","1.0","","76","","21","","24","","19.3","","98.87","","","","","","Rain Showers"
"2008-12-03 23:00","2008","12","03","23:00","4.7","","1.9","","82","","21","","20","","16.1","","98.86","","","","","","Drizzle"
"2008-12-04 00:00","2008","12","04","00:00","4.8","","2.5","","85","","22","","20","","16.1","","98.79","","","","","","Drizzle"
"2008-12-04 01:00","2008","12","04","01:00","4.8","","2.6","","86","","24","","17","","16.1","","98.79","","","","","","Drizzle"
"2008-12-04 02:00","2008","12","04","02:00","4.4","","2.3","","86","","24","","22","","16.1","","98.80","","","","","","Rain"
"2008-12-04 03:00","2008","12","04","03:00","3.8","","1.6","","86","","25","","20","","16.1","","98.83","","","","","","Rain"
"2008-12-04 04:00","2008","12","04","04:00","3.3","","0.7","","83","","24","","19","","19.3","","98.85","","","","","","Drizzle"
"2008-12-04 05:00","2008","12","04","05:00","3.2","","0.4","","82","","26","","19","","19.3","","98.84","","","","","","Drizzle"
"2008-12-04 06:00","2008","12","04","06:00","2.8","","0.1","","82","","25","","17","","24.1","","98.89","","","","","","Drizzle"
"2008-12-04 07:00","2008","12","04","07:00","2.5","","-1.8","","73","","31","","33","","24.1","","99.06","","","","","","Cloudy"
"2008-12-04 08:00","2008","12","04","08:00","1.3","","-3.8","","69","","30","","32","","24.1","","99.24","","","","","","Mostly Cloudy"
"2008-12-04 09:00","2008","12","04","09:00","0.8","","-4.6","","67","","28","","32","","24.1","","99.40","","","","","","Mostly Cloudy"
"2008-12-04 10:00","2008","12","04","10:00","0.3","","-6.2","","62","","27","","39","","24.1","","99.55","","","","","","Mostly Cloudy"
"2008-12-04 11:00","2008","12","04","11:00","0.6","","-6.5","","59","","27","","41","","24.1","","99.65","","","","","","Mostly Cloudy"
"2008-12-04 12:00","2008","12","04","12:00","0.9","","-7.1","","55","","29","","43","","24.1","","99.67","","","","","","Mainly Clear"
"2008-12-04 13:00","2008","12","04","13:00","0.3","","-7.4","","56","","29","","39","","24.1","","99.71","","","","","","Mostly Cloudy"
"2008-12-04 14:00","2008","12","04","14:00","-0.1","","-7.9","","56","","28","","33","","24.1","","99.75","","","","-7","","Mostly Cloudy"
"2008-12-04 15:00","2008","12","04","15:00","-1.0","","-7.4","","62","","27","","30","","24.1","","99.80","","","","-8","","Mostly Cloudy"
"2008-12-04 16:00","2008","12","04","16:00","-1.1","","-7.1","","64","","26","","24","","24.1","","99.88","","","","-7","","Mostly Cloudy"
"2008-12-04 17:00","2008","12","04","17:00","-1.3","","-7.4","","63","","26","","22","","24.1","","99.93","","","","-7","","Cloudy"
"2008-12-04 18:00","2008","12","04","18:00","-1.7","","-7.7","","64","","27","","30","","24.1","","100.01","","","","-9","","Cloudy"
"2008-12-04 19:00","2008","12","04","19:00","-2.2","","-8.0","","64","","26","","26","","24.1","","100.05","","","","-9","","Cloudy"
"2008-12-04 20:00","2008","12","04","20:00","-2.4","","-8.5","","63","","27","","30","","24.1","","100.07","","","","-10","","Cloudy"
"2008-12-04 21:00","2008","12","04","21:00","-2.6","","-9.1","","61","","27","","26","","24.1","","100.10","","","","-9","","Mostly Cloudy"
"2008-12-04 22:00","2008","12","04","22:00","-2.8","","-9.1","","62","","26","","32","","24.1","","100.12","","","","-10","","Mostly Cloudy"
"2008-12-04 23:00","2008","12","04","23:00","-3.7","","-9.1","","66","","26","","22","","24.1","","100.15","","","","-10","","Mostly Cloudy"
"2008-12-05 00:00","2008","12","05","00:00","-4.3","","-9.2","","69","","26","","24","","24.1","","100.13","","","","-11","","Mainly Clear"
"2008-12-05 01:00","2008","12","05","01:00","-4.3","","-9.2","","69","","27","","28","","24.1","","100.13","","","","-12","","Mainly Clear"
"2008-12-05 02:00","2008","12","05","02:00","-4.7","","-9.6","","69","","28","","20","","24.1","","100.12","","","","-11","","Clear"
"2008-12-05 03:00","2008","12","05","03:00","-4.9","","-10.0","","67","","27","","30","","24.1","","100.13","","","","-13","","Clear"
"2008-12-05 04:00","2008","12","05","04:00","-5.3","","-10.2","","68","","27","","33","","24.1","","100.14","","","","-14","","Clear"
"2008-12-05 05:00","2008","12","05","05:00","-5.8","","-10.5","","69","","27","","30","","24.1","","100.14","","","","-14","","Clear"
"2008-12-05 06:00","2008","12","05","06:00","-6.1","","-10.7","","70","","27","","24","","24.1","","100.12","","","","-14","","Clear"
"2008-12-05 07:00","2008","12","05","07:00","-6.1","","-10.7","","70","","27","","28","","24.1","","100.16","","","","-14","","Clear"
"2008-12-05 08:00","2008","12","05","08:00","-6.3","","-11.2","","68","","26","","20","","24.1","","100.16","","","","-13","","Clear"
"2008-12-05 09:00","2008","12","05","09:00","-5.3","","-10.5","","67","","25","","22","","24.1","","100.18","","","","-12","","Clear"
"2008-12-05 10:00","2008","12","05","10:00","-4.1","","-11.0","","59","","27","","26","","24.1","","100.21","","","","-11","","Clear"
"2008-12-05 11:00","2008","12","05","11:00","-3.7","","-11.8","","53","","27","","35","","24.1","","100.18","","","","-12","","Mainly Clear"
"2008-12-05 12:00","2008","12","05","12:00","-2.9","","-11.9","","50","","27","","28","","24.1","","100.11","","","","-10","","Mainly Clear"
"2008-12-05 13:00","2008","12","05","13:00","-3.2","","-12.7","","48","","27","","32","","24.1","","100.04","","","","-11","","Mainly Clear"
"2008-12-05 14:00","2008","12","05","14:00","-3.7","","-14.2","","44","","25","","33","","24.1","","100.02","","","","-12","","Mainly Clear"
"2008-12-05 15:00","2008","12","05","15:00","-4.4","","-14.5","","45","","26","","39","","24.1","","99.99","","","","-13","","Mostly Cloudy"
"2008-12-05 16:00","2008","12","05","16:00","-5.4","","-13.5","","53","","25","","32","","24.1","","99.99","","","","-14","","Mostly Cloudy"
"2008-12-05 17:00","2008","12","05","17:00","-6.1","","-13.3","","57","","27","","22","","24.1","","100.03","","","","-13","","Clear"
"2008-12-05 18:00","2008","12","05","18:00","-6.8","","-12.7","","63","","27","","13","","24.1","","100.00","","","","-12","","Clear"
"2008-12-05 19:00","2008","12","05","19:00","-6.8","","-12.7","","63","","26","","4","","24.1","","99.96","","","","-9","","Clear"
"2008-12-05 20:00","2008","12","05","20:00","-7.2","","-12.9","","64","","26","","7","","24.1","","99.92","","","","-11","","Mainly Clear"
"2008-12-05 21:00","2008","12","05","21:00","-6.3","","-12.6","","61","","21","","11","","24.1","","99.87","","","","-11","","Mostly Cloudy"
"2008-12-05 22:00","2008","12","05","22:00","-5.7","","-11.4","","64","","24","","15","","24.1","","99.80","","","","-11","","Cloudy"
"2008-12-05 23:00","2008","12","05","23:00","-5.4","","-11.6","","62","","23","","22","","24.1","","99.75","","","","-12","","Cloudy"
"2008-12-06 00:00","2008","12","06","00:00","-5.8","","-11.5","","64","","22","","17","","24.1","","99.70","","","","-12","","Mostly Cloudy"
"2008-12-06 01:00","2008","12","06","01:00","-5.6","","-12.3","","59","","25","","24","","24.1","","99.67","","","","-13","","Snow Showers"
"2008-12-06 02:00","2008","12","06","02:00","-6.3","","-12.3","","62","","26","","20","","24.1","","99.61","","","","-13","","Mostly Cloudy"
"2008-12-06 03:00","2008","12","06","03:00","-6.4","","-12.3","","63","","25","","17","","24.1","","99.60","","","","-13","","Cloudy"
"2008-12-06 04:00","2008","12","06","04:00","-6.4","","-12.5","","62","","24","","15","","24.1","","99.53","","","","-12","","Snow Showers"
"2008-12-06 05:00","2008","12","06","05:00","-6.4","","-11.5","","67","","23","","13","","24.1","","99.45","","","","-12","","Cloudy"
"2008-12-06 06:00","2008","12","06","06:00","-6.6","","-11.0","","71","","23","","7","","19.3","","99.39","","","","-10","","Snow Showers"
"2008-12-06 07:00","2008","12","06","07:00","-6.3","","-10.8","","70","","21","","11","","19.3","","99.36","","","","-11","","Snow Showers"
"2008-12-06 08:00","2008","12","06","08:00","-6.1","","-10.8","","69","","22","","17","","19.3","","99.28","","","","-12","","Snow Showers"
"2008-12-06 09:00","2008","12","06","09:00","-5.8","","-10.5","","69","","21","","17","","19.3","","99.21","","","","-12","","Snow Showers"
"2008-12-06 10:00","2008","12","06","10:00","-5.0","","-9.7","","70","","19","","17","","24.1","","99.13","","","","-11","","Snow Showers"
"2008-12-06 11:00","2008","12","06","11:00","-3.9","","-9.0","","68","","20","","24","","24.1","","99.04","","","","-11","","Cloudy"
"2008-12-06 12:00","2008","12","06","12:00","-2.6","","-9.7","","58","","21","","26","","24.1","","98.89","","","","-9","","Cloudy"
"2008-12-06 13:00","2008","12","06","13:00","-3.4","","-8.5","","68","","18","","22","","6.4","","98.79","","","","-10","","Snow Showers"
"2008-12-06 14:00","2008","12","06","14:00","-2.5","","-7.6","","68","","19","","22","","19.3","","98.64","","","","-9","","Snow"
"2008-12-06 15:00","2008","12","06","15:00","-2.1","","-7.7","","65","","19","","26","","19.3","","98.57","","","","-9","","Cloudy"
"2008-12-06 16:00","2008","12","06","16:00","-2.9","","-5.9","","80","","18","","15","","1.0","","98.51","","","","-8","","Snow"
"2008-12-06 17:00","2008","12","06","17:00","-2.3","","-4.9","","82","","18","","20","","6.4","","98.46","","","","-8","","Snow"
"2008-12-06 18:00","2008","12","06","18:00","-2.2","","-5.2","","80","","18","","22","","11.3","","98.42","","","","-8","","Snow"
"2008-12-06 19:00","2008","12","06","19:00","-2.2","","-5.4","","79","","19","","26","","11.3","","98.33","","","","-9","","Snow"
"2008-12-06 20:00","2008","12","06","20:00","-1.8","","-5.6","","75","","21","","20","","11.3","","98.25","","","","-8","","Snow"
"2008-12-06 21:00","2008","12","06","21:00","-1.8","","-5.2","","78","","20","","24","","12.9","","98.18","","","","-8","","Snow"
"2008-12-06 22:00","2008","12","06","22:00","-1.9","","-4.3","","84","","20","","19","","6.4","","98.13","","","","-7","","Snow"
"2008-12-06 23:00","2008","12","06","23:00","-2.0","","-4.2","","85","","22","","17","","9.7","","98.08","","","","-7","","Snow"
"2008-12-07 00:00","2008","12","07","00:00","-2.1","","-5.0","","80","","25","","17","","19.3","","98.03","","","","-7","","Cloudy"
"2008-12-07 01:00","2008","12","07","01:00","-2.5","","-6.3","","75","","26","","30","","24.1","","98.02","","","","-10","","Mostly Cloudy"
"2008-12-07 02:00","2008","12","07","02:00","-2.4","","-7.1","","70","","27","","37","","24.1","","98.05","","","","-10","","Mostly Cloudy"
"2008-12-07 03:00","2008","12","07","03:00","-2.6","","-7.2","","71","","27","","32","","24.1","","98.10","","","","-10","","Mostly Cloudy"
"2008-12-07 04:00","2008","12","07","04:00","-2.9","","-7.6","","70","","30","","50","","24.1","","98.20","","","","-12","","Mainly Clear"
"2008-12-07 05:00","2008","12","07","05:00","-5.3","","-10.7","","66","","30","","41","","24.1","","98.34","","","","-15","","Mainly Clear"
"2008-12-07 06:00","2008","12","07","06:00","-6.4","","-12.3","","63","","31","","44","","24.1","","98.51","","","","-16","","Mostly Cloudy"
"2008-12-07 07:00","2008","12","07","07:00","-7.6","","-13.6","","62","","30","","43","","24.1","","98.68","","","","-18","","Mainly Clear"
"2008-12-07 08:00","2008","12","07","08:00","-8.6","","-14.6","","62","","31","","46","","24.1","","98.86","","","","-19","","Mainly Clear"
"2008-12-07 09:00","2008","12","07","09:00","-9.0","","-14.9","","62","","31","","48","","24.1","","98.99","","","","-20","","Mainly Clear"
"2008-12-07 10:00","2008","12","07","10:00","-8.9","","-15.0","","61","","31","","52","","24.1","","99.16","","","","-20","","Mainly Clear"
"2008-12-07 11:00","2008","12","07","11:00","-9.0","","-15.2","","61","","31","","41","","24.1","","99.31","","","","-20","","Mostly Cloudy"
"2008-12-07 12:00","2008","12","07","12:00","-9.9","","-15.0","","66","","34","","35","","24.1","","99.41","","","","-20","","Mostly Cloudy"
"2008-12-07 13:00","2008","12","07","13:00","-10.2","","-15.2","","67","","34","","39","","19.3","","99.55","","","","-21","","Snow Showers"
"2008-12-07 14:00","2008","12","07","14:00","-8.7","","-15.9","","56","","32","","35","","24.1","","99.67","","","","-18","","Mostly Cloudy"
"2008-12-07 15:00","2008","12","07","15:00","-9.4","","-16.5","","56","","33","","33","","24.1","","99.76","","","","-19","","Mostly Cloudy"
"2008-12-07 16:00","2008","12","07","16:00","-9.4","","-16.5","","56","","30","","24","","24.1","","99.88","","","","-18","","Mostly Cloudy"
"2008-12-07 17:00","2008","12","07","17:00","-10.5","","-17.0","","59","","28","","20","","24.1","","99.98","","","","-18","","Mainly Clear"
"2008-12-07 18:00","2008","12","07","18:00","-11.2","","-17.0","","62","","28","","28","","24.1","","100.07","","","","-21","","Mainly Clear"
"2008-12-07 19:00","2008","12","07","19:00","-11.7","","-18.2","","58","","28","","17","","24.1","","100.14","","","","-19","","Mainly Clear"
"2008-12-07 20:00","2008","12","07","20:00","-12.4","","-18.0","","63","","28","","26","","24.1","","100.19","","","","-22","","Mainly Clear"
"2008-12-07 21:00","2008","12","07","21:00","-12.4","","-17.6","","65","","28","","19","","24.1","","100.21","","","","-21","","Mainly Clear"
"2008-12-07 22:00","2008","12","07","22:00","-12.3","","-17.3","","66","","31","","11","","24.1","","100.27","","","","-18","","Mostly Cloudy"
"2008-12-07 23:00","2008","12","07","23:00","-10.9","","-16.2","","65","","29","","9","","24.1","","100.31","","","","-16","","Mostly Cloudy"
"2008-12-08 00:00","2008","12","08","00:00","-10.5","","-16.1","","63","","35","","9","","24.1","","100.30","","","","-15","","Mostly Cloudy"
"2008-12-08 01:00","2008","12","08","01:00","-10.6","","-16.6","","61","","33","","11","","24.1","","100.34","","","","-16","","Mostly Cloudy"
"2008-12-08 02:00","2008","12","08","02:00","-11.1","","-16.9","","62","","2","","7","","24.1","","100.39","","","","-15","","Mostly Cloudy"
"2008-12-08 03:00","2008","12","08","03:00","-10.6","","-17.0","","59","","8","","6","","24.1","","100.41","","","","-14","","Mostly Cloudy"
"2008-12-08 04:00","2008","12","08","04:00","-10.3","","-15.7","","65","","9","","7","","24.1","","100.42","","","","-14","","Cloudy"
"2008-12-08 05:00","2008","12","08","05:00","-10.1","","-14.9","","68","","11","","4","","24.1","","100.42","","","","-12","","Mostly Cloudy"
"2008-12-08 06:00","2008","12","08","06:00","-9.7","","-13.8","","72","","11","","6","","24.1","","100.41","","","","-13","","Snow Showers"
"2008-12-08 07:00","2008","12","08","07:00","-9.5","","-12.8","","77","","9","","9","","24.1","","100.43","","","","-14","","Snow Showers"
"2008-12-08 08:00","2008","12","08","08:00","-9.2","","-12.4","","78","","6","","7","","24.1","","100.44","","","","-13","","Snow"
"2008-12-08 09:00","2008","12","08","09:00","-8.4","","-11.7","","77","","6","","9","","11.3","","100.47","","","","-13","","Snow"
"2008-12-08 10:00","2008","12","08","10:00","-7.6","","-10.7","","78","","8","","11","","4.0","","100.49","","","","-13","","Snow"
"2008-12-08 11:00","2008","12","08","11:00","-6.6","","-9.4","","80","","9","","13","","3.2","","100.46","","","","-12","","Snow"
"2008-12-08 12:00","2008","12","08","12:00","-5.5","","-8.4","","80","","17","","15","","4.0","","100.40","","","","-11","","Snow"
"2008-12-08 13:00","2008","12","08","13:00","-4.8","","-8.9","","73","","14","","17","","8.0","","100.35","","","","-11","","Snow"
"2008-12-08 14:00","2008","12","08","14:00","-5.0","","-8.7","","75","","13","","11","","6.4","","100.32","","","","-10","","Snow"
"2008-12-08 15:00","2008","12","08","15:00","-4.4","","-8.1","","75","","14","","17","","14.5","","100.27","","","","-10","","Snow"
"2008-12-08 16:00","2008","12","08","16:00","-3.7","","-9.1","","66","","13","","13","","24.1","","100.22","","","","-9","","Cloudy"
"2008-12-08 17:00","2008","12","08","17:00","-3.4","","-10.0","","60","","14","","15","","24.1","","100.22","","","","-9","","Cloudy"
"2008-12-08 18:00","2008","12","08","18:00","-3.3","","-10.4","","58","","13","","19","","24.1","","100.20","","","","-9","","Cloudy"
"2008-12-08 19:00","2008","12","08","19:00","-3.3","","-10.5","","57","","13","","19","","24.1","","100.16","","","","-9","","Cloudy"
"2008-12-08 20:00","2008","12","08","20:00","-3.0","","-10.3","","57","","14","","15","","24.1","","100.14","","","","-8","","Cloudy"
"2008-12-08 21:00","2008","12","08","21:00","-2.8","","-10.3","","56","","14","","13","","24.1","","100.07","","","","-7","","Cloudy"
"2008-12-08 22:00","2008","12","08","22:00","-2.6","","-9.7","","58","","13","","11","","24.1","","100.02","","","","-7","","Cloudy"
"2008-12-08 23:00","2008","12","08","23:00","-2.7","","-9.1","","61","","14","","13","","16.1","","100.00","","","","-7","","Snow"
"2008-12-09 00:00","2008","12","09","00:00","-3.5","","-6.8","","78","","13","","13","","11.3","","99.91","","","","-8","","Snow"
"2008-12-09 01:00","2008","12","09","01:00","-3.3","","-5.7","","83","","14","","13","","8.0","","99.84","","","","-8","","Snow"
"2008-12-09 02:00","2008","12","09","02:00","-2.8","","-5.0","","85","","12","","11","","3.6","","99.80","","","","-7","","Snow"
"2008-12-09 03:00","2008","12","09","03:00","-2.3","","-4.3","","86","","12","","13","","2.0","","99.72","","","","-7","","Snow"
"2008-12-09 04:00","2008","12","09","04:00","-1.6","","-3.5","","87","","13","","9","","2.8","","99.62","","","","-5","","Snow"
"2008-12-09 05:00","2008","12","09","05:00","-1.1","","-2.9","","88","","15","","17","","4.8","","99.51","","","","-6","","Snow"
"2008-12-09 06:00","2008","12","09","06:00","-0.6","","-2.2","","89","","13","","11","","9.7","","99.35","","","","-4","","Fog"
"2008-12-09 07:00","2008","12","09","07:00","-0.4","","-2.1","","88","","13","","15","","11.3","","99.27","","","","-5","","Mostly Cloudy"
"2008-12-09 08:00","2008","12","09","08:00","0.3","","-1.7","","86","","17","","6","","19.3","","99.29","","","","","","Cloudy"
"2008-12-09 09:00","2008","12","09","09:00","0.6","","-1.6","","85","","13","","7","","4.8","","99.25","","","","","","Snow"
"2008-12-09 10:00","2008","12","09","10:00","0.8","","-1.4","","85","","14","","6","","2.4","","99.23","","","","","","Snow"
"2008-12-09 11:00","2008","12","09","11:00","1.6","","-0.5","","86","","19","","6","","6.4","","99.21","","","","","","Snow"
"2008-12-09 12:00","2008","12","09","12:00","2.1","","0.3","","88","","18","","6","","11.3","","99.14","","","","","","Rain"
"2008-12-09 13:00","2008","12","09","13:00","2.7","","1.0","","89","","17","","7","","9.7","","99.01","","","","","","Fog"
"2008-12-09 14:00","2008","12","09","14:00","3.1","","1.5","","89","","18","","11","","8.0","","98.94","","","","","","Rain,Fog"
"2008-12-09 15:00","2008","12","09","15:00","3.1","","1.4","","89","","18","","9","","6.4","","98.93","","","","","","Rain,Fog"
"2008-12-09 16:00","2008","12","09","16:00","3.1","","1.6","","90","","17","","7","","4.8","","98.90","","","","","","Rain,Fog"
"2008-12-09 17:00","2008","12","09","17:00","3.1","","1.8","","91","","17","","6","","6.4","","98.88","","","","","","Rain,Fog"
"2008-12-09 18:00","2008","12","09","18:00","3.1","","1.9","","92","","15","","6","","4.8","","98.84","","","","","","Drizzle,Fog"
"2008-12-09 19:00","2008","12","09","19:00","3.2","","2.0","","92","","15","","7","","1.0","","98.81","","","","","","Rain,Fog"
"2008-12-09 20:00","2008","12","09","20:00","3.1","","2.0","","92","","16","","6","","0.2","","98.78","","","","","","Drizzle,Fog"
"2008-12-09 21:00","2008","12","09","21:00","3.3","","2.3","","93","","","","0","","0.2","","98.80","","","","","","Drizzle,Fog"
"2008-12-09 22:00","2008","12","09","22:00","3.3","","2.3","","93","","","","0","","2.4","","98.78","","","","","","Fog"
"2008-12-09 23:00","2008","12","09","23:00","2.6","","1.4","","92","","36","","6","","6.4","","98.77","","","","","","Rain,Fog"
"2008-12-10 00:00","2008","12","10","00:00","2.0","","0.9","","92","","31","","6","","16.1","","98.77","","","","","","Cloudy"
"2008-12-10 01:00","2008","12","10","01:00","2.5","","1.1","","90","","34","","9","","16.1","","98.73","","","","","","Rain"
"2008-12-10 02:00","2008","12","10","02:00","2.0","","0.6","","90","","33","","20","","16.1","","98.77","","","","","","Rain"
"2008-12-10 03:00","2008","12","10","03:00","0.5","","-1.2","","88","","34","","30","","16.1","","98.87","","","","","","Rain"
"2008-12-10 04:00","2008","12","10","04:00","-0.5","","-2.7","","85","","34","","24","","4.8","","98.97","","","","-6","","Rain,Snow"
"2008-12-10 05:00","2008","12","10","05:00","-1.9","","-4.4","","83","","34","","26","","16.1","","99.11","","","","-8","","Snow"
"2008-12-10 06:00","2008","12","10","06:00","-2.9","","-5.9","","80","","34","","30","","19.3","","99.22","","","","-10","","Snow"
"2008-12-10 07:00","2008","12","10","07:00","-3.4","","-6.6","","78","","33","","30","","14.5","","99.42","","","","-11","","Snow"
"2008-12-10 08:00","2008","12","10","08:00","-4.3","","-7.4","","79","","35","","24","","24.1","","99.58","","","","-11","","Cloudy"
"2008-12-10 09:00","2008","12","10","09:00","-4.5","","-7.8","","78","","34","","20","","24.1","","99.75","","","","-11","","Cloudy"
"2008-12-10 10:00","2008","12","10","10:00","-4.7","","-8.2","","76","","34","","24","","24.1","","99.79","","","","-12","","Mostly Cloudy"
"2008-12-10 11:00","2008","12","10","11:00","-4.0","","-7.9","","74","","34","","20","","24.1","","99.86","","","","-10","","Mainly Clear"
"2008-12-10 12:00","2008","12","10","12:00","-3.4","","-8.2","","69","","34","","22","","24.1","","99.84","","","","-10","","Mainly Clear"
"2008-12-10 13:00","2008","12","10","13:00","-3.5","","-8.0","","71","","34","","22","","24.1","","99.85","","","","-10","","Mainly Clear"
"2008-12-10 14:00","2008","12","10","14:00","-3.5","","-7.9","","72","","1","","13","","24.1","","99.87","","","","-8","","Mainly Clear"
"2008-12-10 15:00","2008","12","10","15:00","-3.6","","-8.3","","70","","36","","19","","24.1","","99.97","","","","-10","","Mostly Cloudy"
"2008-12-10 16:00","2008","12","10","16:00","-4.3","","-9.3","","68","","36","","15","","24.1","","100.04","","","","-10","","Mainly Clear"
"2008-12-10 17:00","2008","12","10","17:00","-5.0","","-10.5","","65","","33","","20","","24.1","","100.14","","","","-12","","Mainly Clear"
"2008-12-10 18:00","2008","12","10","18:00","-5.5","","-9.9","","71","","36","","13","","24.1","","100.19","","","","-11","","Mainly Clear"
"2008-12-10 19:00","2008","12","10","19:00","-6.0","","-10.5","","70","","32","","11","","24.1","","100.22","","","","-11","","Clear"
"2008-12-10 20:00","2008","12","10","20:00","-6.7","","-10.6","","74","","36","","15","","24.1","","100.18","","","","-13","","Clear"
"2008-12-10 21:00","2008","12","10","21:00","-7.9","","-11.3","","77","","3","","9","","24.1","","100.18","","","","-12","","Clear"
"2008-12-10 22:00","2008","12","10","22:00","-7.9","","-11.5","","75","","1","","17","","24.1","","100.17","","","","-15","","Clear"
"2008-12-10 23:00","2008","12","10","23:00","-8.7","","-12.1","","76","","2","","9","","24.1","","100.12","","","","-13","","Clear"
"2008-12-11 00:00","2008","12","11","00:00","-8.8","","-12.2","","76","","5","","6","","24.1","","100.09","","","","-12","","Clear"
"2008-12-11 01:00","2008","12","11","01:00","-9.5","","-12.5","","79","","25","","6","","24.1","","100.06","","","","-13","","Mainly Clear"
"2008-12-11 02:00","2008","12","11","02:00","-8.3","","-11.4","","78","","32","","7","","24.1","","100.06","","","","-12","","Mostly Cloudy"
"2008-12-11 03:00","2008","12","11","03:00","-9.0","","-12.1","","78","","1","","9","","24.1","","99.97","","","","-14","","Mostly Cloudy"
"2008-12-11 04:00","2008","12","11","04:00","-9.8","","-12.5","","81","","36","","4","","24.1","","99.96","","","","-12","","Mainly Clear"
"2008-12-11 05:00","2008","12","11","05:00","-9.7","","-12.4","","81","","4","","7","","24.1","","99.84","","","","-14","","Mostly Cloudy"
"2008-12-11 06:00","2008","12","11","06:00","-8.5","","-11.3","","80","","36","","4","","24.1","","99.81","","","","-11","","Mostly Cloudy"
"2008-12-11 07:00","2008","12","11","07:00","-9.5","","-12.0","","82","","35","","4","","24.1","","99.81","","","","-12","","Mainly Clear"
"2008-12-11 08:00","2008","12","11","08:00","-7.2","","-9.9","","81","","","","0","","11.3","","99.80","","","","","","Cloudy"
"2008-12-11 09:00","2008","12","11","09:00","-5.0","","-7.4","","83","","36","","6","","8.0","","99.80","","","","-8","","Haze"
"2008-12-11 10:00","2008","12","11","10:00","-4.5","","-7.3","","81","","33","","4","","6.4","","99.81","","","","-6","","Haze"
"2008-12-11 11:00","2008","12","11","11:00","-4.4","","-7.1","","81","","32","","6","","6.4","","99.77","","","","-7","","Haze"
"2008-12-11 12:00","2008","12","11","12:00","-3.4","","-6.3","","80","","3","","4","","16.1","","99.56","","","","-5","","Mostly Cloudy"
"2008-12-11 13:00","2008","12","11","13:00","-1.9","","-6.5","","71","","14","","7","","19.3","","99.50","","","","-5","","Mostly Cloudy"
"2008-12-11 14:00","2008","12","11","14:00","-1.9","","-6.6","","70","","16","","11","","24.1","","99.39","","","","-6","","Mostly Cloudy"
"2008-12-11 15:00","2008","12","11","15:00","-1.8","","-6.2","","72","","15","","9","","24.1","","99.25","","","","-5","","Cloudy"
"2008-12-11 16:00","2008","12","11","16:00","-1.8","","-5.7","","75","","13","","7","","24.1","","99.25","","","","-4","","Cloudy"
"2008-12-11 17:00","2008","12","11","17:00","-1.7","","-6.2","","71","","18","","7","","19.3","","99.29","","","","-4","","Cloudy"
"2008-12-11 18:00","2008","12","11","18:00","-2.0","","-6.1","","73","","","","0","","24.1","","99.18","","","","","","Mostly Cloudy"
"2008-12-11 19:00","2008","12","11","19:00","-1.9","","-6.0","","74","","11","","6","","24.1","","99.18","","","","-4","","Mostly Cloudy"
"2008-12-11 20:00","2008","12","11","20:00","-1.9","","-6.0","","74","","9","","6","","24.1","","99.05","","","","-4","","Mostly Cloudy"
"2008-12-11 21:00","2008","12","11","21:00","-2.7","","-6.0","","78","","3","","4","","24.1","","99.02","","","","-4","","Mostly Cloudy"
"2008-12-11 22:00","2008","12","11","22:00","-3.2","","-5.8","","82","","1","","9","","24.1","","99.04","","","","-7","","Mostly Cloudy"
"2008-12-11 23:00","2008","12","11","23:00","-3.2","","-5.6","","83","","2","","9","","24.1","","98.92","","","","-7","","Cloudy"
"2008-12-12 00:00","2008","12","12","00:00","-3.3","","-5.7","","83","","1","","6","","19.3","","98.85","","","","-6","","Cloudy"
"2008-12-12 01:00","2008","12","12","01:00","-3.3","","-5.7","","83","","3","","4","","19.3","","98.76","","","","-5","","Cloudy"
"2008-12-12 02:00","2008","12","12","02:00","-2.6","","-5.2","","82","","29","","13","","19.3","","98.78","","","","-7","","Cloudy"
"2008-12-12 03:00","2008","12","12","03:00","-2.3","","-5.2","","80","","28","","7","","19.3","","98.72","","","","-5","","Cloudy"
"2008-12-12 04:00","2008","12","12","04:00","-2.1","","-5.4","","78","","29","","11","","19.3","","98.61","","","","-6","","Cloudy"
"2008-12-12 05:00","2008","12","12","05:00","-1.9","","-5.4","","77","","32","","17","","16.1","","98.57","","","","-7","","Cloudy"
"2008-12-12 06:00","2008","12","12","06:00","-1.5","","-5.3","","75","","35","","19","","19.3","","98.70","","","","-7","","Cloudy"
"2008-12-12 07:00","2008","12","12","07:00","-1.7","","-5.5","","75","","31","","28","","19.3","","98.75","","","","-8","","Cloudy"
"2008-12-12 08:00","2008","12","12","08:00","-2.1","","-6.8","","70","","31","","26","","24.1","","98.79","","","","-9","","Cloudy"
"2008-12-12 09:00","2008","12","12","09:00","-2.2","","-7.6","","66","","32","","24","","24.1","","98.86","","","","-9","","Cloudy"
"2008-12-12 10:00","2008","12","12","10:00","-2.7","","-7.3","","71","","34","","11","","24.1","","98.93","","","","-7","","Cloudy"
"2008-12-12 11:00","2008","12","12","11:00","-1.9","","-7.0","","68","","30","","20","","24.1","","98.93","","","","-8","","Mostly Cloudy"
"2008-12-12 12:00","2008","12","12","12:00","-1.6","","-7.4","","65","","29","","35","","24.1","","98.85","","","","-9","","Mostly Cloudy"
"2008-12-12 13:00","2008","12","12","13:00","-1.9","","-7.7","","64","","34","","28","","24.1","","98.87","","","","-9","","Mostly Cloudy"
"2008-12-12 14:00","2008","12","12","14:00","-3.8","","-8.5","","70","","35","","24","","24.1","","99.00","","","","-11","","Mostly Cloudy"
"2008-12-12 15:00","2008","12","12","15:00","-4.1","","-9.2","","68","","35","","19","","8.0","","99.14","","","","-10","","Snow Showers"
"2008-12-12 16:00","2008","12","12","16:00","-4.6","","-10.6","","63","","33","","28","","11.3","","99.26","","","","-12","","Snow Showers"
"2008-12-12 17:00","2008","12","12","17:00","-5.9","","-10.1","","72","","34","","20","","16.1","","99.41","","","","-13","","Snow Showers"
"2008-12-12 18:00","2008","12","12","18:00","-6.7","","-13.6","","58","","33","","24","","24.1","","99.53","","","","-14","","Mainly Clear"
"2008-12-12 19:00","2008","12","12","19:00","-8.0","","-13.9","","62","","31","","22","","24.1","","99.64","","","","-16","","Mainly Clear"
"2008-12-12 20:00","2008","12","12","20:00","-8.7","","-14.5","","63","","31","","19","","24.1","","99.73","","","","-16","","Clear"
"2008-12-12 21:00","2008","12","12","21:00","-9.2","","-15.0","","63","","30","","20","","24.1","","99.79","","","","-17","","Clear"
"2008-12-12 22:00","2008","12","12","22:00","-9.7","","-15.4","","63","","30","","13","","24.1","","99.85","","","","-16","","Clear"
"2008-12-12 23:00","2008","12","12","23:00","-10.3","","-16.0","","63","","32","","13","","24.1","","99.93","","","","-17","","Clear"
"2008-12-13 00:00","2008","12","13","00:00","-11.7","","-16.5","","68","","32","","13","","24.1","","100.02","","","","-18","","Mainly Clear"
"2008-12-13 01:00","2008","12","13","01:00","-11.9","","-16.5","","69","","32","","9","","24.1","","100.02","","","","-17","","Mainly Clear"
"2008-12-13 02:00","2008","12","13","02:00","-11.7","","-15.8","","72","","33","","9","","24.1","","100.09","","","","-17","","Mainly Clear"
"2008-12-13 03:00","2008","12","13","03:00","-12.7","","-16.4","","74","","3","","6","","24.1","","100.16","","","","-17","","Mainly Clear"
"2008-12-13 04:00","2008","12","13","04:00","-11.7","","-15.6","","73","","15","","4","","24.1","","100.14","","","","-14","","Cloudy"
"2008-12-13 05:00","2008","12","13","05:00","-10.8","","-14.9","","72","","","","0","","24.1","","100.20","","","","","","Cloudy"
"2008-12-13 06:00","2008","12","13","06:00","-10.0","","-14.2","","71","","","","0","","24.1","","100.22","","","","","","Snow Showers"
"2008-12-13 07:00","2008","12","13","07:00","-8.4","","-12.8","","71","","21","","6","","24.1","","100.29","","","","-12","","Cloudy"
"2008-12-13 08:00","2008","12","13","08:00","-8.0","","-12.6","","69","","16","","6","","24.1","","100.32","","","","-11","","Mostly Cloudy"
"2008-12-13 09:00","2008","12","13","09:00","-6.1","","-11.5","","66","","20","","11","","24.1","","100.33","","","","-11","","Mostly Cloudy"
"2008-12-13 10:00","2008","12","13","10:00","-4.8","","-11.3","","60","","20","","13","","24.1","","100.34","","","","-10","","Mostly Cloudy"
"2008-12-13 11:00","2008","12","13","11:00","-3.0","","-9.8","","59","","20","","15","","24.1","","100.27","","","","-8","","Mostly Cloudy"
"2008-12-13 12:00","2008","12","13","12:00","-1.6","","-8.2","","61","","20","","28","","24.1","","100.19","","","","-8","","Mostly Cloudy"
"2008-12-13 13:00","2008","12","13","13:00","-1.5","","-7.8","","62","","21","","22","","24.1","","100.16","","","","-7","","Cloudy"
"2008-12-13 14:00","2008","12","13","14:00","-1.3","","-7.0","","65","","20","","20","","24.1","","100.10","","","","-7","","Mostly Cloudy"
"2008-12-13 15:00","2008","12","13","15:00","-1.1","","-7.3","","63","","21","","20","","24.1","","100.11","","","","-7","","Mostly Cloudy"
"2008-12-13 16:00","2008","12","13","16:00","-1.1","","-7.8","","60","","20","","22","","24.1","","100.11","","","","-7","","Mostly Cloudy"
"2008-12-13 17:00","2008","12","13","17:00","-0.9","","-7.5","","61","","20","","13","","24.1","","100.17","","","","-5","","Cloudy"
"2008-12-13 18:00","2008","12","13","18:00","-0.7","","-7.4","","60","","20","","13","","24.1","","100.19","","","","-5","","Cloudy"
"2008-12-13 19:00","2008","12","13","19:00","-0.6","","-6.9","","62","","20","","13","","24.1","","100.19","","","","-5","","Cloudy"
"2008-12-13 20:00","2008","12","13","20:00","-0.3","","-6.2","","64","","17","","11","","19.3","","100.14","","","","-4","","Snow"
"2008-12-13 21:00","2008","12","13","21:00","0.6","","-5.4","","64","","18","","17","","24.1","","100.08","","","","","","Mostly Cloudy"
"2008-12-13 22:00","2008","12","13","22:00","0.3","","-4.8","","69","","19","","24","","9.7","","100.07","","","","","","Snow"
"2008-12-13 23:00","2008","12","13","23:00","0.9","","-5.4","","63","","18","","15","","24.1","","100.01","","","","","","Cloudy"
"2008-12-14 00:00","2008","12","14","00:00","1.0","","-5.3","","63","","19","","17","","19.3","","100.02","","","","","","Snow"
"2008-12-14 01:00","2008","12","14","01:00","0.9","","-4.8","","66","","20","","15","","19.3","","99.95","","","","","","Snow"
"2008-12-14 02:00","2008","12","14","02:00","0.8","","-3.8","","71","","19","","20","","16.1","","99.98","","","","","","Rain,Snow,Ice Pellets"
"2008-12-14 03:00","2008","12","14","03:00","0.9","","-3.7","","71","","17","","9","","24.1","","99.93","","","","","","Cloudy"
"2008-12-14 04:00","2008","12","14","04:00","1.4","","-4.2","","66","","18","","9","","24.1","","99.85","","","","","","Cloudy"
"2008-12-14 05:00","2008","12","14","05:00","1.7","","-3.9","","66","","17","","11","","19.3","","99.74","","","","","","Rain,Snow"
"2008-12-14 06:00","2008","12","14","06:00","2.1","","-4.5","","62","","17","","11","","24.1","","99.68","","","","","","Cloudy"
"2008-12-14 07:00","2008","12","14","07:00","2.5","","-4.7","","59","","18","","13","","24.1","","99.69","","","","","","Mostly Cloudy"
"2008-12-14 08:00","2008","12","14","08:00","3.0","","-4.6","","57","","19","","17","","24.1","","99.66","","","","","","Mostly Cloudy"
"2008-12-14 09:00","2008","12","14","09:00","3.7","","-5.0","","53","","20","","22","","24.1","","99.68","","","","","","Cloudy"
"2008-12-14 10:00","2008","12","14","10:00","3.8","","-4.3","","55","","20","","26","","24.1","","99.68","","","","","","Rain"
"2008-12-14 11:00","2008","12","14","11:00","3.7","","-3.0","","62","","20","","20","","24.1","","99.70","","","","","","Rain"
"2008-12-14 12:00","2008","12","14","12:00","3.9","","-2.1","","65","","21","","22","","24.1","","99.67","","","","","","Cloudy"
"2008-12-14 13:00","2008","12","14","13:00","3.9","","-0.8","","71","","21","","20","","24.1","","99.61","","","","","","Cloudy"
"2008-12-14 14:00","2008","12","14","14:00","3.8","","0.1","","77","","22","","20","","19.3","","99.59","","","","","","Drizzle"
"2008-12-14 15:00","2008","12","14","15:00","3.9","","0.7","","80","","21","","22","","24.1","","99.59","","","","","","Cloudy"
"2008-12-14 16:00","2008","12","14","16:00","4.0","","0.5","","78","","20","","24","","24.1","","99.63","","","","","","Cloudy"
"2008-12-14 17:00","2008","12","14","17:00","3.9","","0.7","","80","","21","","20","","19.3","","99.70","","","","","","Rain"
"2008-12-14 18:00","2008","12","14","18:00","3.5","","1.2","","85","","19","","19","","12.9","","99.71","","","","","","Rain,Drizzle"
"2008-12-14 19:00","2008","12","14","19:00","3.7","","1.6","","86","","19","","15","","12.9","","99.67","","","","","","Rain"
"2008-12-14 20:00","2008","12","14","20:00","3.7","","1.8","","87","","18","","15","","14.5","","99.59","","","","","","Rain"
"2008-12-14 21:00","2008","12","14","21:00","3.7","","1.5","","86","","17","","13","","14.5","","99.56","","","","","","Rain"
"2008-12-14 22:00","2008","12","14","22:00","3.7","","1.6","","86","","16","","15","","16.1","","99.50","","","","","","Cloudy"
"2008-12-14 23:00","2008","12","14","23:00","3.8","","1.8","","87","","14","","17","","24.1","","99.39","","","","","","Cloudy"
"2008-12-15 00:00","2008","12","15","00:00","4.8","","1.9","","81","","15","","17","","16.1","","99.29","","","","","","Cloudy"
"2008-12-15 01:00","2008","12","15","01:00","5.1","","2.1","","81","","15","","9","","24.1","","99.19","","","","","","Mostly Cloudy"
"2008-12-15 02:00","2008","12","15","02:00","6.6","","2.7","","76","","17","","15","","24.1","","99.11","","","","","","Mostly Cloudy"
"2008-12-15 03:00","2008","12","15","03:00","8.9","","4.4","","73","","21","","30","","14.5","","99.12","","","","","","Rain"
"2008-12-15 04:00","2008","12","15","04:00","8.3","","5.4","","82","","21","","28","","12.9","","99.07","","","","","","Rain"
"2008-12-15 05:00","2008","12","15","05:00","8.5","","5.9","","84","","20","","28","","12.9","","99.00","","","","","","Rain"
"2008-12-15 06:00","2008","12","15","06:00","8.8","","6.9","","88","","20","","32","","14.5","","98.90","","","","","","Rain"
"2008-12-15 07:00","2008","12","15","07:00","9.4","","7.1","","86","","21","","35","","16.1","","98.89","","","","","","Rain"
"2008-12-15 08:00","2008","12","15","08:00","9.9","","7.4","","84","","21","","41","","12.9","","98.86","","","","","","Rain"
"2008-12-15 09:00","2008","12","15","09:00","9.7","","7.9","","89","","22","","22","","8.0","","98.91","","","","","","Rain,Fog"
"2008-12-15 10:00","2008","12","15","10:00","10.5","","7.8","","83","","22","","30","","19.3","","98.94","","","","","","Rain"
"2008-12-15 11:00","2008","12","15","11:00","9.2","","6.5","","83","","23","","26","","11.3","","98.98","","","","","","Rain"
"2008-12-15 12:00","2008","12","15","12:00","8.4","","4.4","","76","","25","","48","","24.1","","99.06","","","","","","Cloudy"
"2008-12-15 13:00","2008","12","15","13:00","7.0","","2.2","","71","","28","","48","","24.1","","99.21","","","","","","Cloudy"
"2008-12-15 14:00","2008","12","15","14:00","3.3","","-1.9","","69","","27","","50","","24.1","","99.40","","","","","","Cloudy"
"2008-12-15 15:00","2008","12","15","15:00","1.3","","-4.9","","63","","26","","46","","24.1","","99.60","","","","","","Cloudy"
"2008-12-15 16:00","2008","12","15","16:00","-0.7","","-6.2","","66","","27","","50","","24.1","","99.82","","","","-9","","Cloudy"
"2008-12-15 17:00","2008","12","15","17:00","-1.5","","-7.2","","65","","27","","43","","24.1","","100.02","","","","-10","","Mostly Cloudy"
"2008-12-15 18:00","2008","12","15","18:00","-3.3","","-9.7","","61","","27","","35","","24.1","","100.22","","","","-11","","Mostly Cloudy"
"2008-12-15 19:00","2008","12","15","19:00","-4.2","","-11.0","","59","","27","","39","","24.1","","100.41","","","","-13","","Mostly Cloudy"
"2008-12-15 20:00","2008","12","15","20:00","-5.1","","-12.0","","58","","27","","32","","24.1","","100.56","","","","-13","","Cloudy"
"2008-12-15 21:00","2008","12","15","21:00","-5.7","","-12.3","","60","","30","","28","","24.1","","100.71","","","","-14","","Cloudy"
"2008-12-15 22:00","2008","12","15","22:00","-6.4","","-13.9","","55","","28","","33","","24.1","","100.86","","","","-15","","Mostly Cloudy"
"2008-12-15 23:00","2008","12","15","23:00","-6.5","","-13.6","","57","","29","","26","","24.1","","100.91","","","","-14","","Cloudy"
"2008-12-16 00:00","2008","12","16","00:00","-6.9","","-12.8","","63","","28","","26","","19.3","","101.03","","","","-15","","Snow"
"2008-12-16 01:00","2008","12","16","01:00","-7.3","","-12.6","","66","","27","","20","","19.3","","101.10","","","","-14","","Snow"
"2008-12-16 02:00","2008","12","16","02:00","-7.5","","-12.4","","68","","26","","20","","19.3","","101.16","","","","-15","","Snow"
"2008-12-16 03:00","2008","12","16","03:00","-7.3","","-12.9","","64","","28","","17","","16.1","","101.24","","","","-14","","Snow"
"2008-12-16 04:00","2008","12","16","04:00","-7.4","","-13.2","","63","","27","","22","","24.1","","101.29","","","","-15","","Snow"
"2008-12-16 05:00","2008","12","16","05:00","-7.3","","-13.3","","62","","27","","15","","24.1","","101.32","","","","-13","","Snow"
"2008-12-16 06:00","2008","12","16","06:00","-7.3","","-13.1","","63","","26","","15","","24.1","","101.36","","","","-13","","Snow"
"2008-12-16 07:00","2008","12","16","07:00","-7.4","","-12.8","","65","","25","","13","","19.3","","101.39","","","","-13","","Snow"
"2008-12-16 08:00","2008","12","16","08:00","-7.4","","-13.2","","63","","26","","13","","19.3","","101.39","","","","-13","","Snow"
"2008-12-16 09:00","2008","12","16","09:00","-7.2","","-13.5","","61","","26","","13","","24.1","","101.38","","","","-13","","Mostly Cloudy"
"2008-12-16 10:00","2008","12","16","10:00","-6.8","","-13.9","","57","","27","","11","","24.1","","101.46","","","","-12","","Mostly Cloudy"
"2008-12-16 11:00","2008","12","16","11:00","-6.6","","-14.2","","55","","28","","6","","24.1","","101.43","","","","-10","","Mostly Cloudy"
"2008-12-16 12:00","2008","12","16","12:00","-6.4","","-14.0","","55","","31","","6","","24.1","","101.35","","","","-9","","Mostly Cloudy"
"2008-12-16 13:00","2008","12","16","13:00","-5.9","","-14.0","","53","","29","","4","","24.1","","101.22","","","","-8","","Mostly Cloudy"
"2008-12-16 14:00","2008","12","16","14:00","-5.9","","-13.9","","53","","2","","4","","24.1","","101.20","","","","-8","","Mostly Cloudy"
"2008-12-16 15:00","2008","12","16","15:00","-5.8","","-13.9","","53","","","","0","","24.1","","101.19","","","","","","Mostly Cloudy"
"2008-12-16 16:00","2008","12","16","16:00","-5.7","","-14.1","","52","","","","0","","24.1","","101.09","","","","","","Mostly Cloudy"
"2008-12-16 17:00","2008","12","16","17:00","-5.4","","-13.9","","51","","10","","9","","24.1","","100.97","","","","-9","","Cloudy"
"2008-12-16 18:00","2008","12","16","18:00","-5.3","","-12.5","","57","","15","","13","","24.1","","100.90","","","","-10","","Cloudy"
"2008-12-16 19:00","2008","12","16","19:00","-5.1","","-11.8","","59","","13","","11","","24.1","","100.83","","","","-10","","Cloudy"
"2008-12-16 20:00","2008","12","16","20:00","-4.7","","-10.9","","62","","12","","9","","24.1","","100.77","","","","-9","","Cloudy"
"2008-12-16 21:00","2008","12","16","21:00","-3.9","","-10.2","","62","","11","","9","","24.1","","100.62","","","","-8","","Cloudy"
"2008-12-16 22:00","2008","12","16","22:00","-4.8","","-8.0","","78","","10","","13","","2.0","","100.46","","","","-10","","Snow"
"2008-12-16 23:00","2008","12","16","23:00","-4.4","","-6.8","","83","","10","","15","","1.2","","100.20","","","","-10","","Snow"
"2008-12-17 00:00","2008","12","17","00:00","-3.8","","-6.1","","84","","10","","15","","1.6","","99.97","","","","-9","","Snow"
"2008-12-17 01:00","2008","12","17","01:00","-3.3","","-5.4","","85","","11","","22","","2.0","","99.70","","","","-10","","Snow"
"2008-12-17 02:00","2008","12","17","02:00","-3.3","","-5.3","","86","","11","","15","","1.6","","99.49","","","","-8","","Snow"
"2008-12-17 03:00","2008","12","17","03:00","-2.6","","-4.5","","87","","9","","7","","1.2","","99.41","","","","-5","","Snow"
"2008-12-17 04:00","2008","12","17","04:00","-2.5","","-4.3","","87","","7","","7","","2.4","","99.27","","","","-5","","Snow"
"2008-12-17 05:00","2008","12","17","05:00","-2.4","","-4.3","","87","","36","","7","","1.6","","99.29","","","","-5","","Snow"
"2008-12-17 06:00","2008","12","17","06:00","-4.3","","-6.6","","84","","35","","17","","4.8","","99.21","","","","-10","","Snow"
"2008-12-17 07:00","2008","12","17","07:00","-4.7","","-7.1","","83","","34","","20","","11.3","","99.31","","","","-11","","Snow"
"2008-12-17 08:00","2008","12","17","08:00","-4.7","","-7.9","","78","","35","","17","","19.3","","99.37","","","","-11","","Cloudy"
"2008-12-17 09:00","2008","12","17","09:00","-5.4","","-8.5","","79","","32","","15","","24.1","","99.41","","","","-11","","Mainly Clear"
"2008-12-17 10:00","2008","12","17","10:00","-4.5","","-8.0","","76","","30","","11","","24.1","","99.50","","","","-9","","Mostly Cloudy"
"2008-12-17 11:00","2008","12","17","11:00","-3.8","","-7.6","","75","","29","","9","","24.1","","99.56","","","","-8","","Mainly Clear"
"2008-12-17 12:00","2008","12","17","12:00","-2.0","","-6.5","","71","","27","","13","","24.1","","99.57","","","","-6","","Mainly Clear"
"2008-12-17 13:00","2008","12","17","13:00","-0.7","","-6.2","","66","","28","","30","","24.1","","99.62","","","","-7","","Mainly Clear"
"2008-12-17 14:00","2008","12","17","14:00","-0.6","","-6.5","","64","","28","","19","","24.1","","99.68","","","","-6","","Mostly Cloudy"
"2008-12-17 15:00","2008","12","17","15:00","-0.5","","-6.0","","66","","27","","24","","24.1","","99.75","","","","-6","","Cloudy"
"2008-12-17 16:00","2008","12","17","16:00","-1.3","","-5.9","","71","","25","","24","","24.1","","99.81","","","","-7","","Mostly Cloudy"
"2008-12-17 17:00","2008","12","17","17:00","-1.2","","-5.3","","74","","26","","28","","19.3","","99.94","","","","-8","","Snow"
"2008-12-17 18:00","2008","12","17","18:00","-1.6","","-6.8","","68","","27","","24","","24.1","","99.98","","","","-8","","Mostly Cloudy"
"2008-12-17 19:00","2008","12","17","19:00","-1.3","","-7.0","","65","","26","","28","","24.1","","100.07","","","","-8","","Cloudy"
"2008-12-17 20:00","2008","12","17","20:00","-1.4","","-6.8","","67","","27","","24","","24.1","","100.09","","","","-8","","Cloudy"
"2008-12-17 21:00","2008","12","17","21:00","-1.7","","-6.8","","68","","26","","30","","24.1","","100.15","","","","-9","","Cloudy"
"2008-12-17 22:00","2008","12","17","22:00","-1.9","","-6.8","","69","","26","","30","","24.1","","100.21","","","","-9","","Cloudy"
"2008-12-17 23:00","2008","12","17","23:00","-2.2","","-7.0","","70","","26","","22","","24.1","","100.24","","","","-8","","Cloudy"
"2008-12-18 00:00","2008","12","18","00:00","-2.1","","-7.8","","65","","28","","19","","24.1","","100.31","","","","-8","","Cloudy"
"2008-12-18 01:00","2008","12","18","01:00","-2.3","","-7.4","","68","","27","","17","","24.1","","100.31","","","","-8","","Cloudy"
"2008-12-18 02:00","2008","12","18","02:00","-2.2","","-7.5","","67","","29","","19","","24.1","","100.33","","","","-8","","Cloudy"
"2008-12-18 03:00","2008","12","18","03:00","-2.6","","-7.8","","67","","27","","19","","24.1","","100.35","","","","-8","","Cloudy"
"2008-12-18 04:00","2008","12","18","04:00","-3.4","","-9.6","","62","","26","","24","","24.1","","100.42","","","","-10","","Mostly Cloudy"
"2008-12-18 05:00","2008","12","18","05:00","-3.5","","-9.8","","62","","26","","22","","24.1","","100.43","","","","-10","","Mostly Cloudy"
"2008-12-18 06:00","2008","12","18","06:00","-3.6","","-9.6","","63","","27","","20","","24.1","","100.49","","","","-10","","Mostly Cloudy"
"2008-12-18 07:00","2008","12","18","07:00","-3.7","","-9.8","","63","","28","","17","","24.1","","100.53","","","","-9","","Mostly Cloudy"
"2008-12-18 08:00","2008","12","18","08:00","-3.8","","-9.6","","64","","28","","11","","24.1","","100.51","","","","-8","","Cloudy"
"2008-12-18 09:00","2008","12","18","09:00","-3.8","","-9.0","","67","","26","","9","","24.1","","100.52","","","","-8","","Mostly Cloudy"
"2008-12-18 10:00","2008","12","18","10:00","-3.6","","-9.7","","63","","27","","17","","24.1","","100.56","","","","-9","","Mostly Cloudy"
"2008-12-18 11:00","2008","12","18","11:00","-3.3","","-9.4","","63","","27","","20","","24.1","","100.56","","","","-9","","Mostly Cloudy"
"2008-12-18 12:00","2008","12","18","12:00","-3.1","","-9.1","","63","","27","","17","","24.1","","100.47","","","","-9","","Mostly Cloudy"
"2008-12-18 13:00","2008","12","18","13:00","-2.6","","-9.0","","61","","28","","13","","24.1","","100.41","","","","-7","","Mostly Cloudy"
"2008-12-18 14:00","2008","12","18","14:00","-2.8","","-9.0","","62","","29","","17","","24.1","","100.42","","","","-8","","Mostly Cloudy"
"2008-12-18 15:00","2008","12","18","15:00","-3.0","","-9.2","","62","","27","","13","","24.1","","100.40","","","","-8","","Mostly Cloudy"
"2008-12-18 16:00","2008","12","18","16:00","-3.8","","-10.0","","62","","28","","13","","24.1","","100.44","","","","-9","","Mostly Cloudy"
"2008-12-18 17:00","2008","12","18","17:00","-4.7","","-10.6","","63","","28","","13","","24.1","","100.45","","","","-10","","Mostly Cloudy"
"2008-12-18 18:00","2008","12","18","18:00","-5.2","","-10.8","","65","","30","","13","","24.1","","100.50","","","","-10","","Mainly Clear"
"2008-12-18 19:00","2008","12","18","19:00","-5.5","","-11.0","","65","","31","","13","","24.1","","100.50","","","","-11","","Mostly Cloudy"
"2008-12-18 20:00","2008","12","18","20:00","-6.7","","-11.7","","68","","31","","9","","24.1","","100.53","","","","-11","","Clear"
"2008-12-18 21:00","2008","12","18","21:00","-6.8","","-11.8","","68","","31","","9","","24.1","","100.58","","","","-11","","Mainly Clear"
"2008-12-18 22:00","2008","12","18","22:00","-5.6","","-10.8","","67","","34","","17","","24.1","","100.60","","","","-12","","Mostly Cloudy"
"2008-12-18 23:00","2008","12","18","23:00","-5.5","","-11.0","","65","","35","","11","","24.1","","100.64","","","","-10","","Cloudy"
"2008-12-19 00:00","2008","12","19","00:00","-6.1","","-11.7","","65","","1","","6","","24.1","","100.59","","","","-9","","Mainly Clear"
"2008-12-19 01:00","2008","12","19","01:00","-6.7","","-12.1","","65","","33","","7","","24.1","","100.54","","","","-10","","Mostly Cloudy"
"2008-12-19 02:00","2008","12","19","02:00","-6.7","","-11.7","","68","","33","","6","","24.1","","100.48","","","","-10","","Cloudy"
"2008-12-19 03:00","2008","12","19","03:00","-6.8","","-11.0","","72","","30","","4","","24.1","","100.52","","","","-9","","Cloudy"
"2008-12-19 04:00","2008","12","19","04:00","-6.1","","-10.6","","70","","2","","11","","24.1","","100.41","","","","-11","","Cloudy"
"2008-12-19 05:00","2008","12","19","05:00","-6.1","","-10.5","","71","","4","","11","","24.1","","100.21","","","","-11","","Cloudy"
"2008-12-19 06:00","2008","12","19","06:00","-5.0","","-9.9","","68","","5","","7","","24.1","","100.22","","","","-8","","Cloudy"
"2008-12-19 07:00","2008","12","19","07:00","-4.3","","-9.4","","68","","6","","17","","24.1","","100.11","","","","-10","","Cloudy"
"2008-12-19 08:00","2008","12","19","08:00","-5.1","","-8.3","","78","","7","","26","","1.2","","100.09","","","","-13","","Snow"
"2008-12-19 09:00","2008","12","19","09:00","-6.4","","-9.3","","80","","6","","26","","1.2","","99.87","","","","-14","","Snow"
"2008-12-19 10:00","2008","12","19","10:00","-7.5","","-10.3","","80","","7","","24","","0.6","","99.68","","","","-15","","Moderate Snow"
"2008-12-19 11:00","2008","12","19","11:00","-8.9","","-11.7","","80","","6","","35","","0.4","","99.56","","","","-19","","Heavy Snow,Blowing Snow"
"2008-12-19 12:00","2008","12","19","12:00","-9.5","","-12.3","","80","","6","","35","","0.4","","99.24","","","","-20","","Heavy Snow,Blowing Snow"
"2008-12-19 13:00","2008","12","19","13:00","-9.4","","-12.5","","78","","6","","32","","0.6","","99.00","","","","-19","","Moderate Snow,Blowing Snow"
"2008-12-19 14:00","2008","12","19","14:00","-9.6","","-12.6","","79","","4","","30","","0.4","","99.10","","","","-19","","Heavy Snow,Blowing Snow"
"2008-12-19 15:00","2008","12","19","15:00","-10.4","","-13.3","","79","","4","","35","","0.4","","99.05","","","","-21","","Heavy Snow,Blowing Snow"
"2008-12-19 16:00","2008","12","19","16:00","-10.6","","-13.5","","79","","4","","37","","0.6","","99.09","","","","-21","","Moderate Snow,Blowing Snow"
"2008-12-19 17:00","2008","12","19","17:00","-11.1","","-14.1","","78","","2","","32","","2.4","","99.24","","","","-21","","Snow,Blowing Snow"
"2008-12-19 18:00","2008","12","19","18:00","-11.5","","-15.1","","75","","1","","30","","4.8","","99.42","","","","-21","","Snow"
"2008-12-19 19:00","2008","12","19","19:00","-12.2","","-16.0","","73","","2","","32","","4.8","","99.44","","","","-23","","Snow"
"2008-12-19 20:00","2008","12","19","20:00","-12.6","","-16.5","","73","","1","","30","","6.4","","99.60","","","","-23","","Snow"
"2008-12-19 21:00","2008","12","19","21:00","-13.0","","-17.2","","71","","1","","26","","19.3","","99.73","","","","-23","","Snow"
"2008-12-19 22:00","2008","12","19","22:00","-13.4","","-17.7","","70","","3","","28","","14.5","","99.79","","","","-24","","Snow"
"2008-12-19 23:00","2008","12","19","23:00","-13.8","","-18.2","","69","","1","","26","","8.0","","99.95","","","","-24","","Snow"
"2008-12-20 00:00","2008","12","20","00:00","-14.1","","-18.4","","70","","2","","22","","9.7","","100.04","","","","-23","","Snow"
"2008-12-20 01:00","2008","12","20","01:00","-14.3","","-18.8","","69","","3","","22","","24.1","","99.97","","","","-24","","Snow"
"2008-12-20 02:00","2008","12","20","02:00","-14.4","","-18.6","","70","","35","","13","","24.1","","100.05","","","","-22","","Snow"
"2008-12-20 03:00","2008","12","20","03:00","-15.1","","-19.3","","70","","36","","20","","24.1","","100.13","","","","-24","","Cloudy"
"2008-12-20 04:00","2008","12","20","04:00","-15.5","","-19.5","","71","","2","","22","","24.1","","100.16","","","","-25","","Cloudy"
"2008-12-20 05:00","2008","12","20","05:00","-15.2","","-19.5","","70","","2","","17","","24.1","","100.16","","","","-24","","Cloudy"
"2008-12-20 06:00","2008","12","20","06:00","-15.7","","-20.1","","69","","3","","19","","24.1","","100.23","","","","-25","","Cloudy"
"2008-12-20 07:00","2008","12","20","07:00","-16.1","","-20.6","","68","","4","","17","","24.1","","100.27","","","","-25","","Mostly Cloudy"
"2008-12-20 08:00","2008","12","20","08:00","-17.3","","-21.1","","72","","36","","13","","24.1","","100.29","","","","-25","","Clear"
"2008-12-20 09:00","2008","12","20","09:00","-17.5","","-20.9","","75","","36","","17","","24.1","","100.29","","","","-27","","Clear"
"2008-12-20 10:00","2008","12","20","10:00","-16.2","","-20.8","","68","","2","","15","","24.1","","100.25","","","","-24","","Clear"
"2008-12-20 11:00","2008","12","20","11:00","-15.9","","-19.9","","71","","1","","11","","24.1","","100.27","","","","-23","","Mainly Clear"
"2008-12-20 12:00","2008","12","20","12:00","-14.2","","-19.1","","66","","1","","9","","24.1","","100.20","","","","-20","","Mainly Clear"
"2008-12-20 13:00","2008","12","20","13:00","-13.4","","-18.5","","65","","35","","9","","24.1","","100.11","","","","-19","","Clear"
"2008-12-20 14:00","2008","12","20","14:00","-12.7","","-18.0","","64","","36","","13","","24.1","","100.06","","","","-20","","Clear"
"2008-12-20 15:00","2008","12","20","15:00","-11.5","","-17.7","","60","","4","","13","","24.1","","100.00","","","","-18","","Clear"
"2008-12-20 16:00","2008","12","20","16:00","-11.7","","-17.6","","62","","3","","13","","24.1","","100.00","","","","-18","","Clear"
"2008-12-20 17:00","2008","12","20","17:00","-12.3","","-18.0","","62","","6","","15","","24.1","","100.01","","","","-20","","Mainly Clear"
"2008-12-20 18:00","2008","12","20","18:00","-12.6","","-18.0","","64","","5","","13","","24.1","","99.93","","","","-19","","Snow Showers"
"2008-12-20 19:00","2008","12","20","19:00","-12.7","","-17.4","","68","","4","","15","","6.4","","99.87","","","","-20","","Snow Showers"
"2008-12-20 20:00","2008","12","20","20:00","-12.7","","-16.5","","73","","5","","17","","4.8","","99.75","","","","-21","","Snow"
"2008-12-20 21:00","2008","12","20","21:00","-11.8","","-15.4","","75","","6","","17","","8.0","","99.60","","","","-19","","Snow"
"2008-12-20 22:00","2008","12","20","22:00","-11.7","","-14.9","","77","","6","","20","","9.7","","99.49","","","","-20","","Snow"
"2008-12-20 23:00","2008","12","20","23:00","-10.7","","-13.5","","80","","7","","20","","12.9","","99.29","","","","-19","","Snow"
"2008-12-21 00:00","2008","12","21","00:00","-10.8","","-13.4","","81","","7","","24","","8.0","","99.16","","","","-20","","Snow"
"2008-12-21 01:00","2008","12","21","01:00","-10.4","","-13.0","","81","","7","","20","","2.4","","98.98","","","","-18","","Snow"
"2008-12-21 02:00","2008","12","21","02:00","-9.9","","-12.2","","83","","7","","15","","6.4","","98.72","","","","-17","","Snow"
"2008-12-21 03:00","2008","12","21","03:00","-9.0","","-11.4","","83","","4","","17","","12.9","","98.44","","","","-16","","Snow"
"2008-12-21 04:00","2008","12","21","04:00","-6.2","","-8.6","","83","","11","","26","","1.2","","98.25","","","","-14","","Snow"
"2008-12-21 05:00","2008","12","21","05:00","-5.6","","-7.8","","84","","11","","24","","1.6","","98.05","","","","-13","","Snow"
"2008-12-21 06:00","2008","12","21","06:00","-5.6","","-7.9","","84","","13","","19","","2.4","","97.97","","","","-12","","Snow"
"2008-12-21 07:00","2008","12","21","07:00","-5.5","","-7.7","","84","","12","","6","","2.4","","97.86","","","","-8","","Snow"
"2008-12-21 08:00","2008","12","21","08:00","-5.4","","-7.3","","86","","15","","4","","2.0","","97.79","","","","-7","","Snow"
"2008-12-21 09:00","2008","12","21","09:00","-5.9","","-7.8","","86","","23","","11","","4.0","","97.81","","","","-11","","Snow"
"2008-12-21 10:00","2008","12","21","10:00","-5.7","","-8.8","","79","","24","","30","","16.1","","97.82","","","","-14","","Mainly Clear"
"2008-12-21 11:00","2008","12","21","11:00","-4.7","","-8.8","","73","","24","","30","","16.1","","97.83","","","","-13","","Snow"
"2008-12-21 12:00","2008","12","21","12:00","-4.1","","-8.9","","69","","25","","33","","16.1","","97.72","","","","-12","","Mainly Clear"
"2008-12-21 13:00","2008","12","21","13:00","-4.4","","-7.3","","80","","22","","37","","1.0","","97.69","","","","-13","","Snow,Blowing Snow"
"2008-12-21 14:00","2008","12","21","14:00","-6.1","","-10.2","","73","","26","","46","","3.2","","97.72","","","","-16","","Snow,Blowing Snow"
"2008-12-21 15:00","2008","12","21","15:00","-7.6","","-12.3","","69","","25","","41","","16.1","","97.80","","","","-18","","Mainly Clear"
"2008-12-21 16:00","2008","12","21","16:00","-9.3","","-13.5","","71","","23","","33","","16.1","","97.89","","","","-19","","Mainly Clear"
"2008-12-21 17:00","2008","12","21","17:00","-11.6","","-15.9","","70","","23","","41","","9.7","","97.96","","","","-23","","Blowing Snow"
"2008-12-21 18:00","2008","12","21","18:00","-12.2","","-16.4","","71","","23","","41","","6.4","","97.96","","","","-24","","Snow,Blowing Snow"
"2008-12-21 19:00","2008","12","21","19:00","-12.3","","-16.0","","74","","25","","43","","9.7","","98.00","","","","-24","","Snow,Blowing Snow"
"2008-12-21 20:00","2008","12","21","20:00","-12.8","","-16.4","","74","","25","","46","","9.7","","98.05","","","","-25","","Blowing Snow"
"2008-12-21 21:00","2008","12","21","21:00","-13.3","","-17.0","","74","","25","","50","","6.4","","98.08","","","","-26","","Blowing Snow"
"2008-12-21 22:00","2008","12","21","22:00","-13.6","","-17.0","","75","","25","","56","","4.8","","98.02","","","","-27","","Blowing Snow"
"2008-12-21 23:00","2008","12","21","23:00","-13.4","","-17.1","","74","","25","","46","","8.0","","98.07","","","","-26","","Blowing Snow"
"2008-12-22 00:00","2008","12","22","00:00","-13.5","","-17.0","","75","","26","","50","","4.8","","98.15","","","","-27","","Blowing Snow"
"2008-12-22 01:00","2008","12","22","01:00","-13.5","","-16.8","","76","","25","","32","","9.7","","98.22","","","","-24","","Blowing Snow"
"2008-12-22 02:00","2008","12","22","02:00","-13.3","","-17.0","","74","","25","","28","","12.9","","98.35","","","","-24","","Mostly Cloudy"
"2008-12-22 03:00","2008","12","22","03:00","-11.9","","-17.0","","66","","27","","30","","16.1","","98.52","","","","-22","","Mostly Cloudy"
"2008-12-22 04:00","2008","12","22","04:00","-12.6","","-17.7","","66","","28","","22","","24.1","","98.67","","","","-22","","Mainly Clear"
"2008-12-22 05:00","2008","12","22","05:00","-12.1","","-18.0","","61","","29","","24","","24.1","","98.85","","","","-21","","Mainly Clear"
"2008-12-22 06:00","2008","12","22","06:00","-12.1","","-18.1","","61","","29","","28","","24.1","","98.97","","","","-22","","Mainly Clear"
"2008-12-22 07:00","2008","12","22","07:00","-12.2","","-18.1","","61","","29","","39","","24.1","","99.14","","","","-24","","Mainly Clear"
"2008-12-22 08:00","2008","12","22","08:00","-12.4","","-18.1","","62","","29","","35","","24.1","","99.32","","","","-23","","Mostly Cloudy"
"2008-12-22 09:00","2008","12","22","09:00","-11.2","","-17.3","","61","","30","","46","","24.1","","99.46","","","","-23","","Mainly Clear"
"2008-12-22 10:00","2008","12","22","10:00","-11.3","","-17.3","","61","","30","","39","","24.1","","99.67","","","","-22","","Mainly Clear"
"2008-12-22 11:00","2008","12","22","11:00","-10.3","","-18.2","","52","","30","","37","","24.1","","99.80","","","","-21","","Clear"
"2008-12-22 12:00","2008","12","22","12:00","-10.1","","-17.3","","56","","30","","28","","24.1","","99.86","","","","-19","","Clear"
"2008-12-22 13:00","2008","12","22","13:00","-9.7","","-16.6","","57","","30","","20","","24.1","","99.97","","","","-17","","Mainly Clear"
"2008-12-22 14:00","2008","12","22","14:00","-9.2","","-15.4","","61","","29","","28","","24.1","","100.02","","","","-18","","Mainly Clear"
"2008-12-22 15:00","2008","12","22","15:00","-8.7","","-14.9","","61","","31","","17","","24.1","","100.09","","","","-16","","Mainly Clear"
"2008-12-22 16:00","2008","12","22","16:00","-7.7","","-13.9","","61","","29","","26","","24.1","","100.19","","","","-16","","Mainly Clear"
"2008-12-22 17:00","2008","12","22","17:00","-7.5","","-13.8","","61","","28","","30","","24.1","","100.33","","","","-16","","Mostly Cloudy"
"2008-12-22 18:00","2008","12","22","18:00","-8.2","","-11.9","","75","","28","","13","","19.3","","100.48","","","","-14","","Snow Showers"
"2008-12-22 19:00","2008","12","22","19:00","-8.2","","-12.4","","72","","30","","6","","24.1","","100.58","","","","-11","","Cloudy"
"2008-12-22 20:00","2008","12","22","20:00","-9.0","","-13.7","","69","","1","","7","","14.5","","100.67","","","","-13","","Cloudy"
"2008-12-22 21:00","2008","12","22","21:00","-9.2","","-13.7","","70","","5","","4","","24.1","","100.71","","","","-11","","Cloudy"
"2008-12-22 22:00","2008","12","22","22:00","-8.2","","-13.0","","68","","24","","9","","24.1","","100.76","","","","-13","","Cloudy"
"2008-12-22 23:00","2008","12","22","23:00","-8.1","","-12.5","","71","","24","","28","","16.1","","100.84","","","","-17","","Cloudy"
"2008-12-23 00:00","2008","12","23","00:00","-9.0","","-13.8","","68","","25","","26","","24.1","","100.89","","","","-18","","Mostly Cloudy"
"2008-12-23 01:00","2008","12","23","01:00","-9.2","","-13.7","","70","","23","","28","","24.1","","100.98","","","","-18","","Cloudy"
"2008-12-23 02:00","2008","12","23","02:00","-9.4","","-13.7","","71","","24","","17","","24.1","","101.02","","","","-16","","Cloudy"
"2008-12-23 03:00","2008","12","23","03:00","-9.8","","-14.1","","71","","23","","15","","24.1","","101.11","","","","-16","","Cloudy"
"2008-12-23 04:00","2008","12","23","04:00","-10.1","","-14.7","","69","","23","","15","","24.1","","101.09","","","","-17","","Mostly Cloudy"
"2008-12-23 05:00","2008","12","23","05:00","-10.4","","-14.9","","70","","22","","11","","24.1","","101.07","","","","-16","","Cloudy"
"2008-12-23 06:00","2008","12","23","06:00","-11.0","","-15.4","","70","","24","","13","","24.1","","101.08","","","","-17","","Cloudy"
"2008-12-23 07:00","2008","12","23","07:00","-11.0","","-15.5","","69","","20","","11","","24.1","","101.11","","","","-17","","Mostly Cloudy"
"2008-12-23 08:00","2008","12","23","08:00","-11.3","","-15.6","","70","","24","","7","","24.1","","101.11","","","","-16","","Cloudy"
"2008-12-23 09:00","2008","12","23","09:00","-11.0","","-15.6","","69","","25","","7","","19.3","","101.10","","","","-15","","Cloudy"
"2008-12-23 10:00","2008","12","23","10:00","-9.8","","-14.5","","68","","24","","9","","19.3","","101.09","","","","-15","","Cloudy"
"2008-12-23 11:00","2008","12","23","11:00","-8.8","","-13.4","","69","","19","","9","","19.3","","101.04","","","","-13","","Cloudy"
"2008-12-23 12:00","2008","12","23","12:00","-8.2","","-12.6","","71","","21","","11","","24.1","","100.95","","","","-13","","Cloudy"
"2008-12-23 13:00","2008","12","23","13:00","-7.2","","-11.6","","71","","22","","15","","24.1","","100.84","","","","-13","","Cloudy"
"2008-12-23 14:00","2008","12","23","14:00","-7.0","","-11.5","","70","","16","","13","","8.0","","100.73","","","","-13","","Snow"
"2008-12-23 15:00","2008","12","23","15:00","-6.7","","-9.9","","78","","14","","11","","3.6","","100.60","","","","-12","","Snow"
"2008-12-23 16:00","2008","12","23","16:00","-5.5","","-8.5","","79","","18","","17","","3.6","","100.55","","","","-12","","Snow"
"2008-12-23 17:00","2008","12","23","17:00","-5.3","","-7.9","","82","","16","","17","","2.4","","100.41","","","","-11","","Snow"
"2008-12-23 18:00","2008","12","23","18:00","-4.8","","-7.1","","84","","15","","17","","4.0","","100.29","","","","-11","","Snow"
"2008-12-23 19:00","2008","12","23","19:00","-3.6","","-5.8","","85","","16","","19","","2.0","","100.16","","","","-10","","Snow"
"2008-12-23 20:00","2008","12","23","20:00","-3.4","","-5.4","","86","","16","","20","","2.4","","99.96","","","","-10","","Snow"
"2008-12-23 21:00","2008","12","23","21:00","-3.1","","-5.2","","85","","18","","15","","1.2","","99.90","","","","-8","","Snow"
"2008-12-23 22:00","2008","12","23","22:00","-2.7","","-4.7","","86","","18","","13","","1.2","","99.82","","","","-7","","Snow"
"2008-12-23 23:00","2008","12","23","23:00","-2.5","","-4.4","","87","","20","","17","","1.0","","99.70","","","","-8","","Snow"
"2008-12-24 00:00","2008","12","24","00:00","-2.2","","-4.1","","87","","19","","9","","1.0","","99.61","","","","-6","","Snow"
"2008-12-24 01:00","2008","12","24","01:00","-1.5","","-3.2","","88","","21","","11","","1.2","","99.57","","","","-5","","Snow"
"2008-12-24 02:00","2008","12","24","02:00","-0.9","","-2.6","","88","","18","","7","","2.4","","99.50","","","","-3","","Snow"
"2008-12-24 03:00","2008","12","24","03:00","0.0","","-1.4","","90","","18","","7","","1.6","","99.49","","","","-2","","Snow"
"2008-12-24 04:00","2008","12","24","04:00","0.1","","-1.3","","90","","15","","7","","3.2","","99.43","","","","","","Snow"
"2008-12-24 05:00","2008","12","24","05:00","0.3","","-1.1","","90","","17","","9","","6.4","","99.40","","","","","","Snow"
"2008-12-24 06:00","2008","12","24","06:00","0.4","","-1.0","","90","","17","","11","","19.3","","99.40","","","","","","Cloudy"
"2008-12-24 07:00","2008","12","24","07:00","0.8","","-0.7","","90","","18","","11","","19.3","","99.33","","","","","","Cloudy"
"2008-12-24 08:00","2008","12","24","08:00","1.0","","-0.3","","91","","18","","9","","12.9","","99.30","","","","","","Rain,Snow"
"2008-12-24 09:00","2008","12","24","09:00","1.3","","-0.1","","90","","17","","6","","12.9","","99.26","","","","","","Rain"
"2008-12-24 10:00","2008","12","24","10:00","1.6","","0.2","","90","","16","","9","","4.0","","99.17","","","","","","Fog"
"2008-12-24 11:00","2008","12","24","11:00","2.5","","1.3","","92","","19","","13","","3.2","","99.08","","","","","","Fog"
"2008-12-24 12:00","2008","12","24","12:00","2.8","","1.8","","93","","19","","13","","2.8","","98.84","","","","","","Fog"
"2008-12-24 13:00","2008","12","24","13:00","3.7","","2.6","","93","","18","","11","","3.6","","98.61","","","","","","Fog"
"2008-12-24 14:00","2008","12","24","14:00","3.3","","2.3","","93","","15","","13","","0.4","","98.32","","","","","","Rain,Fog"
"2008-12-24 15:00","2008","12","24","15:00","3.6","","2.4","","92","","15","","9","","1.2","","98.13","","","","","","Rain,Fog"
"2008-12-24 16:00","2008","12","24","16:00","3.8","","2.9","","94","","16","","9","","0.8","","98.01","","","","","","Rain,Fog"
"2008-12-24 17:00","2008","12","24","17:00","4.7","","3.7","","93","","18","","13","","4.8","","97.84","","","","","","Rain,Fog"
"2008-12-24 18:00","2008","12","24","18:00","5.8","","5.1","","95","","22","","26","","19.3","","97.78","","","","","","Cloudy"
"2008-12-24 19:00","2008","12","24","19:00","5.5","","3.2","","85","","25","","37","","24.1","","97.86","","","","","","Mostly Cloudy"
"2008-12-24 20:00","2008","12","24","20:00","3.8","","0.1","","77","","26","","63","","19.3","","97.98","","","","","","Rain"
"2008-12-24 21:00","2008","12","24","21:00","3.6","","-2.5","","64","","27","","63","","24.1","","98.22","","","","","","Mostly Cloudy"
"2008-12-24 22:00","2008","12","24","22:00","3.0","","-2.5","","67","","27","","46","","24.1","","98.43","","","","","","Mostly Cloudy"
"2008-12-24 23:00","2008","12","24","23:00","2.5","","-2.7","","69","","27","","46","","24.1","","98.64","","","","","","Mostly Cloudy"
"2008-12-25 00:00","2008","12","25","00:00","2.1","","-1.9","","75","","27","","52","","19.3","","98.82","","","","","","Snow Showers"
"2008-12-25 01:00","2008","12","25","01:00","1.2","","-5.1","","63","","27","","57","","24.1","","99.08","","","","","","Cloudy"
"2008-12-25 02:00","2008","12","25","02:00","0.3","","-5.4","","66","","28","","44","","9.7","","99.31","","","","","","Snow Showers,Blowing Snow"
"2008-12-25 03:00","2008","12","25","03:00","-0.1","","-5.8","","65","","27","","37","","24.1","","99.53","","","","-7","","Snow Showers"
"2008-12-25 04:00","2008","12","25","04:00","-0.5","","-5.8","","67","","27","","37","","24.1","","99.64","","","","-8","","Mostly Cloudy"
"2008-12-25 05:00","2008","12","25","05:00","-0.7","","-5.3","","71","","26","","33","","19.3","","99.82","","","","-8","","Snow Showers"
"2008-12-25 06:00","2008","12","25","06:00","-1.1","","-4.9","","75","","25","","28","","8.0","","100.00","","","","-8","","Snow Showers,Blowing Snow"
"2008-12-25 07:00","2008","12","25","07:00","-1.1","","-5.0","","75","","26","","24","","24.1","","100.17","","","","-7","","Snow Showers"
"2008-12-25 08:00","2008","12","25","08:00","-1.6","","-5.3","","76","","27","","26","","19.3","","100.29","","","","-8","","Snow Showers"
"2008-12-25 09:00","2008","12","25","09:00","-1.7","","-6.8","","68","","27","","19","","24.1","","100.46","","","","-7","","Snow Showers"
"2008-12-25 10:00","2008","12","25","10:00","-1.6","","-5.9","","72","","26","","20","","24.1","","100.53","","","","-7","","Mostly Cloudy"
"2008-12-25 11:00","2008","12","25","11:00","-1.2","","-7.4","","63","","27","","32","","24.1","","100.54","","","","-8","","Clear"
"2008-12-25 12:00","2008","12","25","12:00","-0.8","","-6.9","","63","","28","","28","","24.1","","100.56","","","","-7","","Clear"
"2008-12-25 13:00","2008","12","25","13:00","-0.7","","-7.2","","61","","28","","32","","24.1","","100.58","","","","-8","","Clear"
"2008-12-25 14:00","2008","12","25","14:00","-0.7","","-7.4","","60","","28","","26","","24.1","","100.66","","","","-7","","Mainly Clear"
"2008-12-25 15:00","2008","12","25","15:00","-0.9","","-7.8","","59","","28","","26","","24.1","","100.72","","","","-7","","Mainly Clear"
"2008-12-25 16:00","2008","12","25","16:00","-1.6","","-7.2","","66","","27","","22","","24.1","","100.82","","","","-8","","Mostly Cloudy"
"2008-12-25 17:00","2008","12","25","17:00","-2.6","","-8.6","","63","","27","","20","","24.1","","100.86","","","","-9","","Mainly Clear"
"2008-12-25 18:00","2008","12","25","18:00","-2.9","","-9.1","","62","","29","","22","","24.1","","100.98","","","","-9","","Mainly Clear"
"2008-12-25 19:00","2008","12","25","19:00","-2.9","","-9.2","","62","","27","","17","","24.1","","101.06","","","","-8","","Mostly Cloudy"
"2008-12-25 20:00","2008","12","25","20:00","-2.9","","-9.2","","62","","26","","15","","24.1","","101.08","","","","-8","","Cloudy"
"2008-12-25 21:00","2008","12","25","21:00","-3.2","","-9.6","","61","","25","","11","","24.1","","101.10","","","","-7","","Mostly Cloudy"
"2008-12-25 22:00","2008","12","25","22:00","-2.9","","-9.8","","59","","22","","13","","24.1","","101.12","","","","-8","","Cloudy"
"2008-12-25 23:00","2008","12","25","23:00","-3.4","","-10.0","","60","","22","","9","","24.1","","101.07","","","","-7","","Cloudy"
"2008-12-26 00:00","2008","12","26","00:00","-3.5","","-10.0","","61","","19","","11","","24.1","","101.07","","","","-8","","Cloudy"
"2008-12-26 01:00","2008","12","26","01:00","-4.4","","-10.7","","61","","22","","13","","24.1","","101.07","","","","-9","","Mostly Cloudy"
"2008-12-26 02:00","2008","12","26","02:00","-4.6","","-10.1","","65","","25","","6","","24.1","","101.02","","","","-7","","Cloudy"
"2008-12-26 03:00","2008","12","26","03:00","-4.6","","-10.3","","64","","","","0","","24.1","","101.00","","","","","","Cloudy"
"2008-12-26 04:00","2008","12","26","04:00","-4.1","","-9.7","","65","","7","","4","","24.1","","101.00","","","","-6","","Cloudy"
"2008-12-26 05:00","2008","12","26","05:00","-3.8","","-9.5","","65","","9","","6","","24.1","","100.98","","","","-6","","Cloudy"
"2008-12-26 06:00","2008","12","26","06:00","-3.5","","-9.0","","66","","","","0","","24.1","","101.02","","","","","","Cloudy"
"2008-12-26 07:00","2008","12","26","07:00","-3.3","","-8.6","","67","","9","","4","","24.1","","100.93","","","","-5","","Cloudy"
"2008-12-26 08:00","2008","12","26","08:00","-2.1","","-6.8","","70","","14","","11","","19.3","","100.85","","","","-6","","Cloudy"
"2008-12-26 09:00","2008","12","26","09:00","-1.8","","-6.8","","69","","11","","15","","19.3","","100.78","","","","-7","","Cloudy"
"2008-12-26 10:00","2008","12","26","10:00","-3.0","","-5.7","","82","","14","","19","","0.6","","100.77","","","","-9","","Moderate Snow"
"2008-12-26 11:00","2008","12","26","11:00","-2.6","","-5.0","","84","","14","","11","","8.0","","100.71","","","","-7","","Snow"
"2008-12-26 12:00","2008","12","26","12:00","-1.9","","-4.9","","80","","11","","9","","16.1","","100.52","","","","-5","","Cloudy"
"2008-12-26 13:00","2008","12","26","13:00","-1.2","","-4.5","","78","","12","","15","","16.1","","100.43","","","","-6","","Cloudy"
"2008-12-26 14:00","2008","12","26","14:00","-0.7","","-4.0","","78","","12","","15","","19.3","","100.30","","","","-5","","Cloudy"
"2008-12-26 15:00","2008","12","26","15:00","-0.5","","-3.4","","81","","11","","17","","19.3","","100.25","","","","-5","","Cloudy"
"2008-12-26 16:00","2008","12","26","16:00","-0.1","","-3.0","","81","","12","","13","","19.3","","100.17","","","","-4","","Cloudy"
"2008-12-26 17:00","2008","12","26","17:00","0.3","","-3.8","","74","","11","","15","","24.1","","100.11","","","","","","Cloudy"
"2008-12-26 18:00","2008","12","26","18:00","0.7","","-4.2","","70","","11","","9","","19.3","","100.02","","","","","","Cloudy"
"2008-12-26 19:00","2008","12","26","19:00","1.6","","-4.1","","66","","11","","7","","19.3","","100.05","","","","","","Cloudy"
"2008-12-26 20:00","2008","12","26","20:00","1.8","","-3.7","","67","","11","","9","","19.3","","100.04","","","","","","Cloudy"
"2008-12-26 21:00","2008","12","26","21:00","2.2","","-3.0","","68","","13","","11","","19.3","","99.96","","","","","","Cloudy"
"2008-12-26 22:00","2008","12","26","22:00","2.3","","-2.0","","73","","14","","9","","19.3","","99.93","","","","","","Cloudy"
"2008-12-26 23:00","2008","12","26","23:00","1.8","","-1.1","","81","","16","","9","","9.7","","99.89","","","","","","Drizzle,Haze"
"2008-12-27 00:00","2008","12","27","00:00","1.5","","-0.4","","87","","13","","9","","2.0","","99.82","","","","","","Drizzle,Fog"
"2008-12-27 01:00","2008","12","27","01:00","1.7","","0.1","","89","","12","","7","","1.6","","99.74","","","","","","Drizzle,Fog"
"2008-12-27 02:00","2008","12","27","02:00","2.2","","0.9","","91","","15","","7","","0.2","","99.70","","","","","","Fog"
"2008-12-27 03:00","2008","12","27","03:00","2.5","","1.4","","92","","14","","6","","0.6","","99.64","","","","","","Rain,Fog"
"2008-12-27 04:00","2008","12","27","04:00","2.7","","1.7","","93","","14","","6","","0.6","","99.55","","","","","","Rain,Fog"
"2008-12-27 05:00","2008","12","27","05:00","3.0","","1.9","","92","","15","","4","","0.4","","99.51","","","","","","Fog"
"2008-12-27 06:00","2008","12","27","06:00","1.6","","0.8","","94","","","","0","","0.2","","99.46","","","","","","Rain,Fog"
"2008-12-27 07:00","2008","12","27","07:00","2.1","","1.4","","95","","","","0","","0.2","","99.44","","","","","","Rain,Fog"
"2008-12-27 08:00","2008","12","27","08:00","3.3","","2.3","","93","","13","","4","","0.4","","99.43","","","","","","Fog"
"2008-12-27 09:00","2008","12","27","09:00","4.2","","3.2","","93","","","","0","","0.2","","99.42","","","","","","Fog"
"2008-12-27 10:00","2008","12","27","10:00","5.7","","5.0","","95","","18","","4","","0.2","","99.40","","","","","","Fog"
"2008-12-27 11:00","2008","12","27","11:00","7.0","","6.5","","97","","20","","4","","0.2","","99.37","","","","","","Fog"
"2008-12-27 12:00","2008","12","27","12:00","9.0","","8.3","","95","","22","","15","","1.0","","99.24","","","","","","Fog"
"2008-12-27 13:00","2008","12","27","13:00","8.9","","8.4","","97","","15","","4","","0.2","","99.18","","","","","","Rain Showers,Fog"
"2008-12-27 14:00","2008","12","27","14:00","9.4","","9.3","","99","","18","","7","","0.2","","99.15","","","","","","Rain Showers,Fog"
"2008-12-27 15:00","2008","12","27","15:00","9.4","","9.4","","100","","14","","7","","0.4","","99.09","","","","","","Fog"
"2008-12-27 16:00","2008","12","27","16:00","9.6","","9.2","","97","","17","","9","","2.4","","99.07","","","","","","Fog"
"2008-12-27 17:00","2008","12","27","17:00","9.3","","8.8","","97","","17","","11","","3.2","","99.04","","","","","","Fog"
"2008-12-27 18:00","2008","12","27","18:00","10.1","","9.7","","97","","19","","17","","9.7","","99.00","","","","","","Fog"
"2008-12-27 19:00","2008","12","27","19:00","10.6","","9.7","","94","","18","","13","","9.7","","98.97","","","","","","Fog"
"2008-12-27 20:00","2008","12","27","20:00","10.0","","8.9","","93","","17","","13","","16.1","","98.85","","","","","","Cloudy"
"2008-12-27 21:00","2008","12","27","21:00","9.0","","8.2","","95","","16","","15","","16.1","","98.73","","","","","","Mostly Cloudy"
"2008-12-27 22:00","2008","12","27","22:00","9.0","","8.2","","95","","16","","9","","16.1","","98.64","","","","","","Mostly Cloudy"
"2008-12-27 23:00","2008","12","27","23:00","12.8","","10.6","","86","","19","","28","","16.1","","98.49","","","","","","Mostly Cloudy"
"2008-12-28 00:00","2008","12","28","00:00","13.4","","9.0","","75","","20","","28","","24.1","","98.41","","","","","","Mostly Cloudy"
"2008-12-28 01:00","2008","12","28","01:00","13.8","","8.8","","72","","20","","32","","24.1","","98.36","","","","","","Mostly Cloudy"
"2008-12-28 02:00","2008","12","28","02:00","15.9","","10.1","","68","","23","","54","","16.1","","98.36","","","","","","Rain"
"2008-12-28 03:00","2008","12","28","03:00","14.0","","10.7","","80","","23","","37","","16.1","","98.39","","","","","","Rain Showers"
"2008-12-28 04:00","2008","12","28","04:00","13.0","","10.8","","86","","21","","22","","24.1","","98.23","","","","","","Mostly Cloudy"
"2008-12-28 05:00","2008","12","28","05:00","10.8","","9.4","","91","","17","","15","","24.1","","98.05","","","","","","Mostly Cloudy"
"2008-12-28 06:00","2008","12","28","06:00","9.0","","8.1","","94","","16","","15","","16.1","","97.84","","","","","","Cloudy"
"2008-12-28 07:00","2008","12","28","07:00","8.7","","7.5","","92","","15","","15","","24.1","","97.64","","","","","","Mostly Cloudy"
"2008-12-28 08:00","2008","12","28","08:00","11.6","","9.3","","86","","22","","33","","16.1","","97.67","","","","","","Rain Showers"
"2008-12-28 09:00","2008","12","28","09:00","8.0","","1.8","","65","","25","","76","","24.1","","97.81","","","","","","Rain Showers"
"2008-12-28 10:00","2008","12","28","10:00","5.2","","-0.3","","68","","24","","57","","24.1","","98.07","","","","","","Mainly Clear"
"2008-12-28 11:00","2008","12","28","11:00","3.4","","-2.9","","63","","24","","63","","24.1","","98.35","","","","","","Cloudy"
"2008-12-28 12:00","2008","12","28","12:00","2.6","","-4.0","","62","","24","","61","","24.1","","98.48","","","","","","Cloudy"
"2008-12-28 13:00","2008","12","28","13:00","2.2","","-4.9","","59","","25","","61","","24.1","","98.68","","","","","","Cloudy"
"2008-12-28 14:00","2008","12","28","14:00","1.7","","-5.0","","61","","25","","57","","24.1","","98.81","","","","","","Cloudy"
"2008-12-28 15:00","2008","12","28","15:00","1.7","","-5.2","","60","","24","","52","","24.1","","98.88","","","","","","Cloudy"
"2008-12-28 16:00","2008","12","28","16:00","1.6","","-4.6","","63","","26","","46","","24.1","","99.16","","","","","","Cloudy"
"2008-12-28 17:00","2008","12","28","17:00","1.6","","-4.7","","63","","25","","48","","24.1","","99.31","","","","","","Cloudy"
"2008-12-28 18:00","2008","12","28","18:00","1.7","","-4.9","","62","","26","","46","","24.1","","99.46","","","","","","Cloudy"
"2008-12-28 19:00","2008","12","28","19:00","1.6","","-5.3","","60","","27","","35","","24.1","","99.55","","","","","","Cloudy"
"2008-12-28 20:00","2008","12","28","20:00","1.4","","-4.8","","63","","27","","37","","24.1","","99.58","","","","","","Mostly Cloudy"
"2008-12-28 21:00","2008","12","28","21:00","1.2","","-4.8","","64","","27","","35","","24.1","","99.62","","","","","","Mostly Cloudy"
"2008-12-28 22:00","2008","12","28","22:00","0.9","","-5.0","","65","","27","","24","","24.1","","99.63","","","","","","Mostly Cloudy"
"2008-12-28 23:00","2008","12","28","23:00","0.8","","-5.3","","64","","27","","19","","24.1","","99.67","","","","","","Cloudy"
"2008-12-29 00:00","2008","12","29","00:00","0.3","","-5.5","","65","","29","","19","","24.1","","99.63","","","","","","Cloudy"
"2008-12-29 01:00","2008","12","29","01:00","0.2","","-5.7","","64","","27","","26","","24.1","","99.62","","","","","","Cloudy"
"2008-12-29 02:00","2008","12","29","02:00","0.0","","-5.5","","66","","27","","17","","24.1","","99.69","","","","-5","","Cloudy"
"2008-12-29 03:00","2008","12","29","03:00","0.0","","-5.9","","64","","28","","15","","24.1","","99.73","","","","-4","","Cloudy"
"2008-12-29 04:00","2008","12","29","04:00","-0.1","","-6.1","","64","","28","","17","","24.1","","99.71","","","","-5","","Cloudy"
"2008-12-29 05:00","2008","12","29","05:00","-0.1","","-6.1","","64","","28","","11","","24.1","","99.64","","","","-4","","Cloudy"
"2008-12-29 06:00","2008","12","29","06:00","-0.1","","-6.6","","62","","29","","22","","24.1","","99.61","","","","-6","","Mostly Cloudy"
"2008-12-29 07:00","2008","12","29","07:00","-0.6","","-6.6","","64","","26","","22","","24.1","","99.63","","","","-6","","Mostly Cloudy"
"2008-12-29 08:00","2008","12","29","08:00","-1.9","","-7.1","","68","","26","","17","","24.1","","99.62","","","","-7","","Mainly Clear"
"2008-12-29 09:00","2008","12","29","09:00","-0.7","","-6.3","","66","","22","","17","","24.1","","99.57","","","","-6","","Mainly Clear"
"2008-12-29 10:00","2008","12","29","10:00","-0.1","","-5.9","","65","","22","","11","","24.1","","99.51","","","","-4","","Clear"
"2008-12-29 11:00","2008","12","29","11:00","0.9","","-5.8","","61","","22","","17","","24.1","","99.40","","","","","","Clear"
"2008-12-29 12:00","2008","12","29","12:00","2.0","","-5.3","","58","","22","","20","","24.1","","99.23","","","","","","Clear"
"2008-12-29 13:00","2008","12","29","13:00","2.5","","-5.0","","58","","21","","20","","24.1","","99.02","","","","","","Mainly Clear"
"2008-12-29 14:00","2008","12","29","14:00","3.2","","-3.6","","61","","20","","17","","24.1","","98.80","","","","","","Mostly Cloudy"
"2008-12-29 15:00","2008","12","29","15:00","4.4","","-3.2","","58","","18","","19","","24.1","","98.59","","","","","","Mostly Cloudy"
"2008-12-29 16:00","2008","12","29","16:00","3.4","","-3.3","","61","","18","","15","","24.1","","98.44","","","","","","Mostly Cloudy"
"2008-12-29 17:00","2008","12","29","17:00","3.5","","-3.4","","61","","20","","13","","24.1","","98.25","","","","","","Cloudy"
"2008-12-29 18:00","2008","12","29","18:00","3.8","","-2.3","","64","","22","","28","","24.1","","98.21","","","","","","Cloudy"
"2008-12-29 19:00","2008","12","29","19:00","4.9","","-2.4","","59","","24","","43","","24.1","","98.08","","","","","","Cloudy"
"2008-12-29 20:00","2008","12","29","20:00","3.4","","-1.8","","69","","28","","59","","16.1","","98.05","","","","","","Rain,Snow"
"2008-12-29 21:00","2008","12","29","21:00","2.4","","-5.1","","58","","28","","57","","19.3","","98.25","","","","","","Rain,Snow"
"2008-12-29 22:00","2008","12","29","22:00","1.7","","-5.2","","60","","29","","43","","24.1","","98.26","","","","","","Cloudy"
"2008-12-29 23:00","2008","12","29","23:00","0.9","","-6.2","","59","","30","","59","","24.1","","98.44","","","","","","Cloudy"
"2008-12-30 00:00","2008","12","30","00:00","0.0","","-7.0","","59","","28","","50","","24.1","","98.53","","","","-8","","Mainly Clear"
"2008-12-30 01:00","2008","12","30","01:00","-0.8","","-7.7","","59","","29","","56","","24.1","","98.66","","","","-10","","Mainly Clear"
"2008-12-30 02:00","2008","12","30","02:00","-1.5","","-8.7","","58","","29","","59","","24.1","","98.79","","","","-11","","Mainly Clear"
"2008-12-30 03:00","2008","12","30","03:00","-2.1","","-9.3","","58","","29","","43","","24.1","","98.93","","","","-10","","Mainly Clear"
"2008-12-30 04:00","2008","12","30","04:00","-2.1","","-10.1","","54","","29","","48","","24.1","","99.03","","","","-11","","Mainly Clear"
"2008-12-30 05:00","2008","12","30","05:00","-2.6","","-9.5","","59","","29","","37","","24.1","","99.11","","","","-11","","Mainly Clear"
"2008-12-30 06:00","2008","12","30","06:00","-2.9","","-9.8","","59","","28","","43","","24.1","","99.21","","","","-12","","Mainly Clear"
"2008-12-30 07:00","2008","12","30","07:00","-3.4","","-11.2","","55","","29","","24","","24.1","","99.29","","","","-10","","Mainly Clear"
"2008-12-30 08:00","2008","12","30","08:00","-3.8","","-11.4","","56","","28","","32","","24.1","","99.35","","","","-12","","Mainly Clear"
"2008-12-30 09:00","2008","12","30","09:00","-3.1","","-10.9","","55","","27","","30","","24.1","","99.44","","","","-11","","Mostly Cloudy"
"2008-12-30 10:00","2008","12","30","10:00","-2.6","","-10.5","","55","","28","","32","","24.1","","99.54","","","","-10","","Mostly Cloudy"
"2008-12-30 11:00","2008","12","30","11:00","-2.2","","-10.6","","53","","29","","30","","24.1","","99.53","","","","-9","","Mostly Cloudy"
"2008-12-30 12:00","2008","12","30","12:00","-1.8","","-10.4","","52","","30","","26","","24.1","","99.47","","","","-8","","Cloudy"
"2008-12-30 13:00","2008","12","30","13:00","-1.6","","-10.3","","51","","29","","30","","24.1","","99.41","","","","-9","","Mostly Cloudy"
"2008-12-30 14:00","2008","12","30","14:00","-1.4","","-9.9","","52","","27","","24","","24.1","","99.36","","","","-8","","Mostly Cloudy"
"2008-12-30 15:00","2008","12","30","15:00","-2.1","","-10.0","","55","","28","","30","","24.1","","99.34","","","","-9","","Mostly Cloudy"
"2008-12-30 16:00","2008","12","30","16:00","-2.2","","-10.4","","53","","27","","22","","24.1","","99.32","","","","-8","","Mostly Cloudy"
"2008-12-30 17:00","2008","12","30","17:00","-2.6","","-9.6","","59","","27","","15","","24.1","","99.26","","","","-8","","Cloudy"
"2008-12-30 18:00","2008","12","30","18:00","-2.6","","-10.3","","55","","29","","15","","24.1","","99.20","","","","-8","","Cloudy"
"2008-12-30 19:00","2008","12","30","19:00","-2.9","","-10.2","","57","","","","0","","24.1","","99.13","","","","","","Mostly Cloudy"
"2008-12-30 20:00","2008","12","30","20:00","-3.4","","-8.8","","66","","","","0","","24.1","","99.03","","","","","","Mostly Cloudy"
"2008-12-30 21:00","2008","12","30","21:00","-2.6","","-8.8","","62","","10","","6","","24.1","","98.99","","","","-5","","Cloudy"
"2008-12-30 22:00","2008","12","30","22:00","-3.8","","-8.0","","73","","12","","4","","3.2","","98.95","","","","-5","","Snow"
"2008-12-30 23:00","2008","12","30","23:00","-4.3","","-6.9","","82","","5","","17","","2.4","","98.81","","","","-10","","Snow"
"2008-12-31 00:00","2008","12","31","00:00","-5.5","","-8.1","","82","","6","","17","","2.4","","98.67","","","","-12","","Snow"
"2008-12-31 01:00","2008","12","31","01:00","-5.9","","-8.3","","83","","4","","20","","3.2","","98.55","","","","-13","","Snow"
"2008-12-31 02:00","2008","12","31","02:00","-6.0","","-8.5","","82","","3","","22","","4.8","","98.48","","","","-13","","Snow"
"2008-12-31 03:00","2008","12","31","03:00","-6.7","","-9.5","","80","","3","","30","","2.4","","98.48","","","","-15","","Snow"
"2008-12-31 04:00","2008","12","31","04:00","-7.1","","-10.2","","78","","36","","30","","2.4","","98.50","","","","-16","","Snow,Blowing Snow"
"2008-12-31 05:00","2008","12","31","05:00","-7.2","","-10.8","","75","","35","","32","","11.3","","98.62","","","","-16","","Cloudy"
"2008-12-31 06:00","2008","12","31","06:00","-8.0","","-11.9","","73","","35","","30","","11.3","","98.74","","","","-17","","Cloudy"
"2008-12-31 07:00","2008","12","31","07:00","-8.5","","-12.9","","70","","34","","32","","24.1","","98.89","","","","-18","","Cloudy"
"2008-12-31 08:00","2008","12","31","08:00","-9.7","","-14.8","","66","","35","","32","","24.1","","99.04","","","","-19","","Mostly Cloudy"
"2008-12-31 09:00","2008","12","31","09:00","-10.5","","-15.6","","66","","35","","39","","24.1","","99.22","","","","-21","","Mainly Clear"
"2008-12-31 10:00","2008","12","31","10:00","-10.6","","-15.7","","66","","35","","43","","24.1","","99.40","","","","-22","","Mostly Cloudy"
"2008-12-31 11:00","2008","12","31","11:00","-10.8","","-17.3","","59","","36","","32","","24.1","","99.54","","","","-21","","Mostly Cloudy"
"2008-12-31 12:00","2008","12","31","12:00","-10.1","","-16.1","","61","","33","","32","","24.1","","99.58","","","","-20","","Mainly Clear"
"2008-12-31 13:00","2008","12","31","13:00","-9.2","","-14.9","","63","","33","","35","","24.1","","99.59","","","","-19","","Mainly Clear"
"2008-12-31 14:00","2008","12","31","14:00","-8.4","","-13.9","","64","","32","","28","","24.1","","99.61","","","","-17","","Mainly Clear"
"2008-12-31 15:00","2008","12","31","15:00","-7.9","","-15.4","","55","","31","","44","","24.1","","99.68","","","","-18","","Mainly Clear"
"2008-12-31 16:00","2008","12","31","16:00","-8.6","","-17.9","","47","","31","","44","","24.1","","99.78","","","","-19","","Clear"
"2008-12-31 17:00","2008","12","31","17:00","-9.6","","-19.0","","46","","31","","33","","24.1","","99.92","","","","-19","","Clear"
"2008-12-31 18:00","2008","12","31","18:00","-9.7","","-17.4","","53","","31","","33","","24.1","","100.00","","","","-20","","Mainly Clear"
"2008-12-31 19:00","2008","12","31","19:00","-10.1","","-16.6","","59","","30","","24","","24.1","","100.05","","","","-19","","Mainly Clear"
"2008-12-31 20:00","2008","12","31","20:00","-10.9","","-14.8","","73","","36","","41","","8.0","","100.17","","","","-22","","Snow Showers"
"2008-12-31 21:00","2008","12","31","21:00","-13.0","","-18.8","","62","","35","","20","","24.1","","100.28","","","","-22","","Mainly Clear"
"2008-12-31 22:00","2008","12","31","22:00","-13.2","","-18.8","","63","","34","","22","","24.1","","100.34","","","","-22","","Mainly Clear"
"2008-12-31 23:00","2008","12","31","23:00","-13.1","","-18.2","","65","","36","","24","","24.1","","100.40","","","","-23","","Mostly Cloudy"
