"Station Name","TORONTO LESTER B. PEARSON INT'L A"
"Province","ONTARIO"
"Latitude","43.68"
"Longitude","-79.63"
"Elevation","173.40"
"Climate Identifier","6158733"
"WMO Identifier","71624"
"TC Identifier","YYZ"
"All times are specified in Local Standard Time (LST). Add 1 hour to adjust for Daylight Saving Time where and when it is observed."

"Legend"
"E","Estimated"
"M","Missing"
"NA","Not Available"

"Date/Time","Year","Month","Day","Time","Temp (°C)","Temp Flag","Dew Point Temp (°C)","Dew Point Temp Flag","Rel Hum (%)","Rel Hum Flag","Wind Dir (10s deg)","Wind Dir Flag","Wind Spd (km/h)","Wind Spd Flag","Visibility (km)","Visibility Flag","Stn Press (kPa)","Stn Press Flag","Hmdx","Hmdx Flag","Wind Chill","Wind Chill Flag","Weather"
"2005-06-01 00:00","2005","06","01","00:00","14.9","","9.9","","72","","30","","7","","24.1","","99.95","","","","","","Mainly Clear"
"2005-06-01 01:00","2005","06","01","01:00","14.2","","9.9","","75","","36","","7","","24.1","","99.91","","","","","","Mainly Clear"
"2005-06-01 02:00","2005","06","01","02:00","13.4","","9.8","","79","","33","","11","","24.1","","99.91","","","","","","Clear"
"2005-06-01 03:00","2005","06","01","03:00","13.2","","9.6","","79","","36","","4","","24.1","","99.91","","","","","","Clear"
"2005-06-01 04:00","2005","06","01","04:00","12.7","","9.5","","81","","36","","13","","24.1","","99.92","","","","","","Clear"
"2005-06-01 05:00","2005","06","01","05:00","12.4","","9.4","","82","","36","","9","","24.1","","99.99","","","","","","Clear"
"2005-06-01 06:00","2005","06","01","06:00","14.4","","10.5","","77","","35","","7","","24.1","","100.05","","","","","","Clear"
"2005-06-01 07:00","2005","06","01","07:00","16.3","","11.1","","71","","3","","6","","24.1","","100.08","","","","","","Clear"
"2005-06-01 08:00","2005","06","01","08:00","18.8","","11.7","","63","","5","","6","","24.1","","100.11","","","","","","Clear"
"2005-06-01 09:00","2005","06","01","09:00","21.3","","12.1","","56","","","","0","","24.1","","100.10","","","","","","Clear"
"2005-06-01 10:00","2005","06","01","10:00","22.2","","12.1","","53","","16","","9","","24.1","","100.11","","25","","","","Clear"
"2005-06-01 11:00","2005","06","01","11:00","22.9","","12.3","","51","","15","","9","","24.1","","100.08","","25","","","","Clear"
"2005-06-01 12:00","2005","06","01","12:00","23.6","","12.2","","49","","15","","17","","24.1","","100.04","","26","","","","Clear"
"2005-06-01 13:00","2005","06","01","13:00","23.9","","11.8","","47","","14","","13","","24.1","","100.01","","26","","","","Clear"
"2005-06-01 14:00","2005","06","01","14:00","24.6","","11.6","","44","","13","","17","","24.1","","99.99","","27","","","","Mainly Clear"
"2005-06-01 15:00","2005","06","01","15:00","25.3","","11.2","","41","","14","","11","","24.1","","99.93","","27","","","","Mainly Clear"
"2005-06-01 16:00","2005","06","01","16:00","25.1","","11.6","","43","","15","","17","","24.1","","99.91","","27","","","","Mainly Clear"
"2005-06-01 17:00","2005","06","01","17:00","24.4","","12.0","","46","","12","","11","","24.1","","99.89","","27","","","","Mainly Clear"
"2005-06-01 18:00","2005","06","01","18:00","23.9","","11.3","","45","","15","","11","","24.1","","99.90","","26","","","","Mainly Clear"
"2005-06-01 19:00","2005","06","01","19:00","22.6","","10.7","","47","","13","","13","","24.1","","99.94","","","","","","Mainly Clear"
"2005-06-01 20:00","2005","06","01","20:00","20.5","","11.3","","56","","14","","9","","24.1","","99.96","","","","","","Mainly Clear"
"2005-06-01 21:00","2005","06","01","21:00","19.8","","10.4","","55","","13","","6","","24.1","","100.00","","","","","","Mainly Clear"
"2005-06-01 22:00","2005","06","01","22:00","18.8","","10.5","","59","","","","0","","24.1","","99.98","","","","","","Clear"
"2005-06-01 23:00","2005","06","01","23:00","17.9","","9.8","","59","","","","0","","24.1","","99.98","","","","","","Clear"
"2005-06-02 00:00","2005","06","02","00:00","17.4","","9.4","","59","","","","0","","24.1","","99.98","","","","","","Clear"
"2005-06-02 01:00","2005","06","02","01:00","17.9","","9.6","","58","","7","","4","","24.1","","99.99","","","","","","Clear"
"2005-06-02 02:00","2005","06","02","02:00","16.4","","10.0","","66","","4","","7","","24.1","","99.98","","","","","","Mainly Clear"
"2005-06-02 03:00","2005","06","02","03:00","16.9","","10.6","","66","","6","","4","","24.1","","99.97","","","","","","Mostly Cloudy"
"2005-06-02 04:00","2005","06","02","04:00","15.6","","10.4","","71","","3","","4","","24.1","","99.97","","","","","","Clear"
"2005-06-02 05:00","2005","06","02","05:00","13.9","","10.0","","77","","","","0","","24.1","","100.01","","","","","","Clear"
"2005-06-02 06:00","2005","06","02","06:00","17.0","","11.4","","70","","15","","4","","24.1","","100.07","","","","","","Clear"
"2005-06-02 07:00","2005","06","02","07:00","18.9","","11.6","","63","","9","","4","","24.1","","100.09","","","","","","Mainly Clear"
"2005-06-02 08:00","2005","06","02","08:00","20.0","","12.3","","61","","15","","4","","24.1","","100.09","","","","","","Mainly Clear"
"2005-06-02 09:00","2005","06","02","09:00","22.1","","11.6","","51","","18","","6","","24.1","","100.06","","","","","","Mostly Cloudy"
"2005-06-02 10:00","2005","06","02","10:00","23.6","","12.6","","50","","14","","11","","24.1","","100.04","","26","","","","Mostly Cloudy"
"2005-06-02 11:00","2005","06","02","11:00","25.4","","12.1","","44","","19","","13","","24.1","","100.04","","28","","","","Mostly Cloudy"
"2005-06-02 12:00","2005","06","02","12:00","25.1","","9.8","","38","","13","","13","","24.1","","99.97","","26","","","","Mostly Cloudy"
"2005-06-02 13:00","2005","06","02","13:00","25.8","","10.6","","38","","18","","17","","24.1","","99.91","","27","","","","Mostly Cloudy"
"2005-06-02 14:00","2005","06","02","14:00","25.5","","10.5","","39","","14","","15","","24.1","","99.82","","27","","","","Mostly Cloudy"
"2005-06-02 15:00","2005","06","02","15:00","26.0","","10.8","","39","","12","","15","","24.1","","99.77","","28","","","","Mostly Cloudy"
"2005-06-02 16:00","2005","06","02","16:00","25.9","","11.8","","41","","11","","17","","24.1","","99.74","","28","","","","Mostly Cloudy"
"2005-06-02 17:00","2005","06","02","17:00","25.5","","10.9","","40","","12","","17","","24.1","","99.69","","27","","","","Mostly Cloudy"
"2005-06-02 18:00","2005","06","02","18:00","25.6","","11.3","","41","","12","","15","","24.1","","99.67","","28","","","","Mostly Cloudy"
"2005-06-02 19:00","2005","06","02","19:00","24.3","","10.8","","43","","13","","9","","24.1","","99.67","","26","","","","Mainly Clear"
"2005-06-02 20:00","2005","06","02","20:00","23.1","","10.3","","44","","11","","13","","24.1","","99.68","","25","","","","Mainly Clear"
"2005-06-02 21:00","2005","06","02","21:00","21.9","","10.0","","47","","12","","7","","24.1","","99.69","","","","","","Mainly Clear"
"2005-06-02 22:00","2005","06","02","22:00","20.8","","10.0","","50","","12","","9","","24.1","","99.69","","","","","","Mostly Cloudy"
"2005-06-02 23:00","2005","06","02","23:00","20.5","","10.4","","52","","11","","4","","24.1","","99.68","","","","","","Mostly Cloudy"
"2005-06-03 00:00","2005","06","03","00:00","18.9","","10.9","","60","","14","","7","","24.1","","99.70","","","","","","Mostly Cloudy"
"2005-06-03 01:00","2005","06","03","01:00","18.1","","11.1","","64","","17","","4","","24.1","","99.68","","","","","","Mostly Cloudy"
"2005-06-03 02:00","2005","06","03","02:00","17.7","","11.1","","65","","","","0","","24.1","","99.67","","","","","","Cloudy"
"2005-06-03 03:00","2005","06","03","03:00","18.2","","10.6","","61","","","","0","","24.1","","99.67","","","","","","Cloudy"
"2005-06-03 04:00","2005","06","03","04:00","17.9","","11.2","","65","","10","","6","","24.1","","99.70","","","","","","Cloudy"
"2005-06-03 05:00","2005","06","03","05:00","18.0","","11.5","","66","","11","","6","","19.3","","99.74","","","","","","Cloudy"
"2005-06-03 06:00","2005","06","03","06:00","17.7","","12.3","","71","","14","","6","","16.1","","99.78","","","","","","Cloudy"
"2005-06-03 07:00","2005","06","03","07:00","18.8","","12.4","","66","","16","","9","","16.1","","99.79","","","","","","Mostly Cloudy"
"2005-06-03 08:00","2005","06","03","08:00","19.1","","11.5","","61","","19","","7","","24.1","","99.77","","","","","","Mostly Cloudy"
"2005-06-03 09:00","2005","06","03","09:00","20.7","","12.0","","57","","17","","13","","24.1","","99.73","","","","","","Mainly Clear"
"2005-06-03 10:00","2005","06","03","10:00","20.5","","12.4","","60","","14","","17","","24.1","","99.73","","","","","","Mainly Clear"
"2005-06-03 11:00","2005","06","03","11:00","21.4","","12.8","","58","","16","","20","","24.1","","99.69","","","","","","Mostly Cloudy"
"2005-06-03 12:00","2005","06","03","12:00","21.9","","12.7","","56","","17","","19","","24.1","","99.64","","25","","","","Mostly Cloudy"
"2005-06-03 13:00","2005","06","03","13:00","21.2","","12.9","","59","","17","","20","","24.1","","99.59","","","","","","Mostly Cloudy"
"2005-06-03 14:00","2005","06","03","14:00","21.2","","12.8","","59","","15","","22","","24.1","","99.53","","","","","","Mostly Cloudy"
"2005-06-03 15:00","2005","06","03","15:00","20.7","","13.2","","62","","14","","20","","24.1","","99.47","","","","","","Mostly Cloudy"
"2005-06-03 16:00","2005","06","03","16:00","19.5","","12.9","","66","","13","","15","","24.1","","99.47","","","","","","Cloudy"
"2005-06-03 17:00","2005","06","03","17:00","19.5","","13.4","","68","","16","","11","","24.1","","99.47","","","","","","Cloudy"
"2005-06-03 18:00","2005","06","03","18:00","19.2","","13.7","","70","","11","","7","","24.1","","99.46","","","","","","Mostly Cloudy"
"2005-06-03 19:00","2005","06","03","19:00","19.1","","13.6","","70","","16","","7","","24.1","","99.48","","","","","","Cloudy"
"2005-06-03 20:00","2005","06","03","20:00","18.9","","13.8","","72","","16","","6","","24.1","","99.45","","","","","","Cloudy"
"2005-06-03 21:00","2005","06","03","21:00","18.7","","12.9","","69","","14","","9","","24.1","","99.44","","","","","","Cloudy"
"2005-06-03 22:00","2005","06","03","22:00","18.0","","12.0","","68","","15","","7","","24.1","","99.42","","","","","","Cloudy"
"2005-06-03 23:00","2005","06","03","23:00","17.7","","12.9","","73","","17","","6","","24.1","","99.37","","","","","","Cloudy"
"2005-06-04 00:00","2005","06","04","00:00","17.7","","13.8","","78","","15","","6","","24.1","","99.43","","","","","","Cloudy"
"2005-06-04 01:00","2005","06","04","01:00","17.7","","14.3","","80","","16","","7","","24.1","","99.37","","","","","","Cloudy"
"2005-06-04 02:00","2005","06","04","02:00","17.4","","14.9","","85","","16","","7","","24.1","","99.35","","","","","","Mostly Cloudy"
"2005-06-04 03:00","2005","06","04","03:00","17.0","","15.1","","89","","15","","7","","24.1","","99.33","","","","","","Cloudy"
"2005-06-04 04:00","2005","06","04","04:00","16.5","","15.5","","94","","13","","4","","9.7","","99.33","","","","","","Drizzle"
"2005-06-04 05:00","2005","06","04","05:00","16.7","","15.9","","95","","","","0","","9.7","","99.36","","","","","","Fog"
"2005-06-04 06:00","2005","06","04","06:00","17.2","","15.9","","92","","11","","4","","8.0","","99.39","","","","","","Fog"
"2005-06-04 07:00","2005","06","04","07:00","17.7","","16.0","","90","","14","","6","","6.4","","99.38","","","","","","Fog"
"2005-06-04 08:00","2005","06","04","08:00","17.6","","16.2","","92","","16","","9","","6.4","","99.42","","","","","","Rain Showers,Fog"
"2005-06-04 09:00","2005","06","04","09:00","18.1","","16.2","","89","","15","","6","","11.3","","99.46","","","","","","Cloudy"
"2005-06-04 10:00","2005","06","04","10:00","18.9","","16.3","","85","","16","","6","","14.5","","99.46","","","","","","Cloudy"
"2005-06-04 11:00","2005","06","04","11:00","20.1","","16.0","","77","","12","","9","","24.1","","99.47","","25","","","","Cloudy"
"2005-06-04 12:00","2005","06","04","12:00","20.5","","15.7","","74","","15","","6","","24.1","","99.41","","25","","","","Mostly Cloudy"
"2005-06-04 13:00","2005","06","04","13:00","21.2","","15.6","","70","","16","","11","","24.1","","99.41","","26","","","","Mostly Cloudy"
"2005-06-04 14:00","2005","06","04","14:00","21.0","","15.4","","70","","15","","7","","24.1","","99.37","","25","","","","Mostly Cloudy"
"2005-06-04 15:00","2005","06","04","15:00","21.7","","15.5","","68","","19","","7","","24.1","","99.36","","26","","","","Cloudy"
"2005-06-04 16:00","2005","06","04","16:00","21.2","","15.8","","71","","13","","11","","24.1","","99.31","","26","","","","Cloudy"
"2005-06-04 17:00","2005","06","04","17:00","21.3","","15.8","","71","","14","","13","","24.1","","99.28","","26","","","","Cloudy"
"2005-06-04 18:00","2005","06","04","18:00","20.8","","15.6","","72","","14","","7","","19.3","","99.35","","25","","","","Cloudy"
"2005-06-04 19:00","2005","06","04","19:00","20.7","","15.4","","72","","15","","11","","19.3","","99.32","","25","","","","Mainly Clear"
"2005-06-04 20:00","2005","06","04","20:00","19.1","","15.2","","78","","16","","7","","19.3","","99.29","","","","","","Mainly Clear"
"2005-06-04 21:00","2005","06","04","21:00","18.4","","15.1","","81","","17","","6","","16.1","","99.30","","","","","","Mainly Clear"
"2005-06-04 22:00","2005","06","04","22:00","17.6","","15.1","","85","","16","","7","","16.1","","99.25","","","","","","Clear"
"2005-06-04 23:00","2005","06","04","23:00","17.3","","15.2","","87","","19","","4","","14.5","","99.28","","","","","","Clear"
"2005-06-05 00:00","2005","06","05","00:00","17.3","","15.2","","87","","15","","4","","14.5","","99.25","","","","","","Clear"
"2005-06-05 01:00","2005","06","05","01:00","17.2","","15.2","","88","","","","0","","12.9","","99.24","","","","","","Clear"
"2005-06-05 02:00","2005","06","05","02:00","16.8","","15.0","","89","","","","0","","11.3","","99.22","","","","","","Clear"
"2005-06-05 03:00","2005","06","05","03:00","16.7","","15.0","","90","","","","0","","9.7","","99.23","","","","","","Fog"
"2005-06-05 04:00","2005","06","05","04:00","16.0","","14.5","","91","","","","0","","11.3","","99.25","","","","","","Mostly Cloudy"
"2005-06-05 05:00","2005","06","05","05:00","17.0","","15.2","","89","","18","","6","","8.0","","99.30","","","","","","Fog"
"2005-06-05 06:00","2005","06","05","06:00","17.2","","15.7","","91","","18","","6","","9.7","","99.32","","","","","","Fog"
"2005-06-05 07:00","2005","06","05","07:00","18.5","","16.6","","89","","17","","7","","9.7","","99.32","","","","","","Fog"
"2005-06-05 08:00","2005","06","05","08:00","20.8","","16.9","","78","","19","","9","","11.3","","99.34","","26","","","","Mainly Clear"
"2005-06-05 09:00","2005","06","05","09:00","23.3","","18.1","","73","","15","","7","","11.3","","99.30","","29","","","","Mainly Clear"
"2005-06-05 10:00","2005","06","05","10:00","24.7","","18.3","","68","","15","","11","","11.3","","99.28","","31","","","","Mainly Clear"
"2005-06-05 11:00","2005","06","05","11:00","26.1","","18.2","","62","","13","","9","","11.3","","99.31","","32","","","","Mainly Clear"
"2005-06-05 12:00","2005","06","05","12:00","27.8","","19.0","","59","","15","","15","","11.3","","99.25","","35","","","","Mainly Clear"
"2005-06-05 13:00","2005","06","05","13:00","28.4","","19.4","","58","","16","","19","","11.3","","99.18","","35","","","","Mainly Clear"
"2005-06-05 14:00","2005","06","05","14:00","28.5","","19.3","","58","","14","","19","","11.3","","99.16","","36","","","","Mainly Clear"
"2005-06-05 15:00","2005","06","05","15:00","28.6","","18.8","","55","","14","","20","","11.3","","99.11","","35","","","","Mainly Clear"
"2005-06-05 16:00","2005","06","05","16:00","25.8","","18.0","","62","","14","","19","","11.3","","99.07","","32","","","","Mainly Clear"
"2005-06-05 17:00","2005","06","05","17:00","26.4","","18.0","","60","","15","","17","","16.1","","99.04","","32","","","","Mainly Clear"
"2005-06-05 18:00","2005","06","05","18:00","26.3","","17.5","","58","","17","","11","","24.1","","99.05","","32","","","","Mainly Clear"
"2005-06-05 19:00","2005","06","05","19:00","24.0","","17.2","","66","","14","","11","","24.1","","99.02","","29","","","","Mainly Clear"
"2005-06-05 20:00","2005","06","05","20:00","22.5","","16.9","","71","","14","","11","","24.1","","99.01","","28","","","","Mainly Clear"
"2005-06-05 21:00","2005","06","05","21:00","21.8","","17.1","","75","","13","","11","","19.3","","98.98","","27","","","","Mainly Clear"
"2005-06-05 22:00","2005","06","05","22:00","21.5","","17.2","","77","","15","","9","","19.3","","99.01","","27","","","","Mainly Clear"
"2005-06-05 23:00","2005","06","05","23:00","21.6","","17.4","","77","","16","","7","","24.1","","98.99","","27","","","","Mostly Cloudy"
"2005-06-06 00:00","2005","06","06","00:00","21.5","","17.6","","78","","23","","7","","24.1","","99.01","","27","","","","Cloudy"
"2005-06-06 01:00","2005","06","06","01:00","22.4","","18.0","","76","","25","","9","","24.1","","98.95","","28","","","","Cloudy"
"2005-06-06 02:00","2005","06","06","02:00","22.2","","17.6","","75","","23","","7","","24.1","","98.84","","28","","","","Mostly Cloudy"
"2005-06-06 03:00","2005","06","06","03:00","22.1","","17.6","","76","","21","","19","","24.1","","98.91","","28","","","","Rain Showers"
"2005-06-06 04:00","2005","06","06","04:00","20.9","","17.6","","81","","22","","20","","24.1","","98.89","","27","","","","Mostly Cloudy"
"2005-06-06 05:00","2005","06","06","05:00","20.8","","17.4","","81","","20","","7","","24.1","","98.88","","26","","","","Mostly Cloudy"
"2005-06-06 06:00","2005","06","06","06:00","22.2","","17.0","","72","","22","","24","","24.1","","98.91","","27","","","","Mostly Cloudy"
"2005-06-06 07:00","2005","06","06","07:00","22.3","","17.0","","72","","22","","22","","24.1","","98.90","","28","","","","Mostly Cloudy"
"2005-06-06 08:00","2005","06","06","08:00","23.7","","17.7","","69","","22","","19","","24.1","","98.89","","29","","","","Mostly Cloudy"
"2005-06-06 09:00","2005","06","06","09:00","25.8","","18.8","","65","","24","","24","","24.1","","98.93","","32","","","","Mainly Clear"
"2005-06-06 10:00","2005","06","06","10:00","27.1","","18.8","","60","","24","","20","","24.1","","98.84","","34","","","","Mostly Cloudy"
"2005-06-06 11:00","2005","06","06","11:00","27.9","","17.9","","55","","26","","35","","24.1","","98.81","","34","","","","Mostly Cloudy"
"2005-06-06 12:00","2005","06","06","12:00","29.4","","17.0","","47","","25","","33","","24.1","","98.78","","35","","","","Mostly Cloudy"
"2005-06-06 13:00","2005","06","06","13:00","29.8","","16.3","","44","","25","","33","","24.1","","98.72","","35","","","","Mostly Cloudy"
"2005-06-06 14:00","2005","06","06","14:00","30.0","","15.2","","41","","27","","43","","24.1","","98.65","","34","","","","Mostly Cloudy"
"2005-06-06 15:00","2005","06","06","15:00","29.8","","15.4","","42","","27","","46","","24.1","","98.62","","34","","","","Mostly Cloudy"
"2005-06-06 16:00","2005","06","06","16:00","29.3","","14.0","","39","","27","","39","","24.1","","98.64","","33","","","","Mainly Clear"
"2005-06-06 17:00","2005","06","06","17:00","27.6","","14.2","","44","","27","","39","","24.1","","98.66","","31","","","","Mainly Clear"
"2005-06-06 18:00","2005","06","06","18:00","27.0","","13.6","","44","","27","","41","","24.1","","98.66","","30","","","","Mainly Clear"
"2005-06-06 19:00","2005","06","06","19:00","26.5","","13.8","","46","","26","","32","","24.1","","98.70","","30","","","","Mainly Clear"
"2005-06-06 20:00","2005","06","06","20:00","25.1","","13.8","","49","","26","","15","","24.1","","98.72","","28","","","","Clear"
"2005-06-06 21:00","2005","06","06","21:00","23.6","","13.7","","54","","25","","15","","24.1","","98.78","","27","","","","Clear"
"2005-06-06 22:00","2005","06","06","22:00","23.6","","13.7","","54","","23","","19","","24.1","","98.81","","27","","","","Clear"
"2005-06-06 23:00","2005","06","06","23:00","22.5","","13.7","","58","","24","","17","","24.1","","98.80","","26","","","","Clear"
"2005-06-07 00:00","2005","06","07","00:00","21.3","","13.8","","62","","25","","15","","24.1","","98.80","","25","","","","Clear"
"2005-06-07 01:00","2005","06","07","01:00","20.8","","14.0","","65","","25","","19","","24.1","","98.79","","","","","","Clear"
"2005-06-07 02:00","2005","06","07","02:00","19.8","","13.9","","69","","27","","15","","24.1","","98.80","","","","","","Clear"
"2005-06-07 03:00","2005","06","07","03:00","18.6","","13.8","","74","","25","","11","","24.1","","98.82","","","","","","Clear"
"2005-06-07 04:00","2005","06","07","04:00","18.2","","13.9","","76","","27","","15","","24.1","","98.83","","","","","","Clear"
"2005-06-07 05:00","2005","06","07","05:00","18.1","","14.1","","77","","27","","17","","24.1","","98.87","","","","","","Mainly Clear"
"2005-06-07 06:00","2005","06","07","06:00","19.7","","14.6","","72","","27","","15","","24.1","","98.93","","","","","","Clear"
"2005-06-07 07:00","2005","06","07","07:00","21.6","","15.0","","66","","27","","20","","24.1","","98.94","","26","","","","Clear"
"2005-06-07 08:00","2005","06","07","08:00","23.6","","15.2","","59","","29","","20","","24.1","","98.95","","28","","","","Clear"
"2005-06-07 09:00","2005","06","07","09:00","25.4","","15.0","","53","","29","","22","","24.1","","98.99","","29","","","","Clear"
"2005-06-07 10:00","2005","06","07","10:00","27.1","","13.6","","43","","29","","35","","24.1","","98.99","","30","","","","Mostly Cloudy"
"2005-06-07 11:00","2005","06","07","11:00","27.8","","13.3","","41","","31","","28","","24.1","","98.97","","31","","","","Mostly Cloudy"
"2005-06-07 12:00","2005","06","07","12:00","28.3","","14.2","","42","","28","","30","","24.1","","98.99","","32","","","","Mostly Cloudy"
"2005-06-07 13:00","2005","06","07","13:00","28.7","","14.6","","42","","29","","22","","24.1","","99.01","","32","","","","Mostly Cloudy"
"2005-06-07 14:00","2005","06","07","14:00","29.5","","14.9","","41","","31","","22","","24.1","","99.00","","33","","","","Mainly Clear"
"2005-06-07 15:00","2005","06","07","15:00","30.0","","15.1","","40","","33","","32","","24.1","","98.98","","34","","","","Mainly Clear"
"2005-06-07 16:00","2005","06","07","16:00","30.3","","15.7","","41","","29","","32","","24.1","","98.97","","35","","","","Mainly Clear"
"2005-06-07 17:00","2005","06","07","17:00","29.7","","15.7","","43","","32","","32","","24.1","","99.01","","34","","","","Clear"
"2005-06-07 18:00","2005","06","07","18:00","29.4","","15.6","","43","","31","","30","","24.1","","99.03","","34","","","","Mainly Clear"
"2005-06-07 19:00","2005","06","07","19:00","28.2","","15.5","","46","","32","","17","","24.1","","99.04","","32","","","","Mainly Clear"
"2005-06-07 20:00","2005","06","07","20:00","27.1","","15.3","","48","","35","","15","","24.1","","99.02","","31","","","","Mainly Clear"
"2005-06-07 21:00","2005","06","07","21:00","25.4","","14.8","","52","","1","","11","","24.1","","99.03","","29","","","","Mainly Clear"
"2005-06-07 22:00","2005","06","07","22:00","24.7","","14.4","","53","","","","0","","24.1","","99.05","","28","","","","Clear"
"2005-06-07 23:00","2005","06","07","23:00","23.6","","14.4","","56","","36","","9","","24.1","","99.11","","27","","","","Clear"
"2005-06-08 00:00","2005","06","08","00:00","22.2","","14.5","","62","","33","","7","","24.1","","99.11","","26","","","","Mainly Clear"
"2005-06-08 01:00","2005","06","08","01:00","21.4","","14.7","","66","","15","","7","","24.1","","99.12","","25","","","","Mainly Clear"
"2005-06-08 02:00","2005","06","08","02:00","20.2","","13.7","","66","","13","","6","","24.1","","99.16","","","","","","Mainly Clear"
"2005-06-08 03:00","2005","06","08","03:00","19.8","","13.4","","67","","14","","7","","24.1","","99.13","","","","","","Mainly Clear"
"2005-06-08 04:00","2005","06","08","04:00","19.9","","12.7","","63","","11","","20","","24.1","","99.05","","","","","","Mainly Clear"
"2005-06-08 05:00","2005","06","08","05:00","19.8","","12.3","","62","","12","","13","","24.1","","99.06","","","","","","Mostly Cloudy"
"2005-06-08 06:00","2005","06","08","06:00","20.3","","12.0","","59","","10","","11","","24.1","","99.09","","","","","","Cloudy"
"2005-06-08 07:00","2005","06","08","07:00","20.7","","13.7","","64","","32","","6","","24.1","","99.21","","","","","","Cloudy"
"2005-06-08 08:00","2005","06","08","08:00","22.4","","13.9","","59","","1","","9","","24.1","","99.19","","26","","","","Cloudy"
"2005-06-08 09:00","2005","06","08","09:00","24.1","","15.5","","59","","19","","6","","24.1","","99.11","","28","","","","Mostly Cloudy"
"2005-06-08 10:00","2005","06","08","10:00","23.8","","15.7","","60","","18","","11","","24.1","","99.13","","28","","","","Mainly Clear"
"2005-06-08 11:00","2005","06","08","11:00","24.6","","16.0","","59","","15","","13","","24.1","","99.16","","29","","","","Mainly Clear"
"2005-06-08 12:00","2005","06","08","12:00","26.5","","16.6","","55","","13","","17","","24.1","","99.13","","32","","","","Clear"
"2005-06-08 13:00","2005","06","08","13:00","27.9","","17.6","","54","","14","","11","","24.1","","99.16","","34","","","","Clear"
"2005-06-08 14:00","2005","06","08","14:00","28.7","","17.9","","52","","15","","13","","24.1","","99.10","","35","","","","Mainly Clear"
"2005-06-08 15:00","2005","06","08","15:00","28.9","","18.5","","53","","16","","15","","24.1","","99.11","","35","","","","Mostly Cloudy"
"2005-06-08 16:00","2005","06","08","16:00","28.3","","17.6","","52","","16","","19","","24.1","","99.05","","34","","","","Mainly Clear"
"2005-06-08 17:00","2005","06","08","17:00","26.7","","17.7","","58","","13","","13","","24.1","","99.06","","32","","","","Mostly Cloudy"
"2005-06-08 18:00","2005","06","08","18:00","26.3","","16.9","","56","","15","","11","","24.1","","99.11","","32","","","","Mostly Cloudy"
"2005-06-08 19:00","2005","06","08","19:00","24.5","","16.3","","60","","15","","9","","24.1","","99.13","","29","","","","Mostly Cloudy"
"2005-06-08 20:00","2005","06","08","20:00","23.9","","16.0","","61","","17","","7","","24.1","","99.18","","29","","","","Mostly Cloudy"
"2005-06-08 21:00","2005","06","08","21:00","23.8","","16.4","","63","","","","0","","24.1","","99.27","","29","","","","Mostly Cloudy"
"2005-06-08 22:00","2005","06","08","22:00","23.7","","16.0","","62","","13","","9","","24.1","","99.23","","28","","","","Mostly Cloudy"
"2005-06-08 23:00","2005","06","08","23:00","23.4","","15.9","","63","","12","","7","","24.1","","99.27","","28","","","","Mainly Clear"
"2005-06-09 00:00","2005","06","09","00:00","22.9","","15.5","","63","","11","","6","","24.1","","99.31","","27","","","","Mainly Clear"
"2005-06-09 01:00","2005","06","09","01:00","20.3","","15.2","","73","","17","","6","","24.1","","99.32","","","","","","Clear"
"2005-06-09 02:00","2005","06","09","02:00","19.7","","15.2","","75","","2","","7","","24.1","","99.31","","","","","","Clear"
"2005-06-09 03:00","2005","06","09","03:00","20.1","","15.9","","77","","3","","15","","24.1","","99.28","","25","","","","Mostly Cloudy"
"2005-06-09 04:00","2005","06","09","04:00","19.9","","16.1","","79","","9","","4","","24.1","","99.35","","","","","","Mostly Cloudy"
"2005-06-09 05:00","2005","06","09","05:00","19.7","","16.4","","81","","4","","7","","24.1","","99.39","","","","","","Mostly Cloudy"
"2005-06-09 06:00","2005","06","09","06:00","19.8","","16.4","","81","","5","","9","","11.3","","99.44","","","","","","Mostly Cloudy"
"2005-06-09 07:00","2005","06","09","07:00","20.1","","16.5","","80","","13","","7","","9.7","","99.48","","25","","","","Haze"
"2005-06-09 08:00","2005","06","09","08:00","21.8","","17.4","","76","","18","","6","","9.7","","99.48","","27","","","","Haze"
"2005-06-09 09:00","2005","06","09","09:00","23.7","","17.5","","68","","17","","11","","9.7","","99.47","","29","","","","Haze"
"2005-06-09 10:00","2005","06","09","10:00","24.4","","17.9","","67","","13","","9","","9.7","","99.48","","30","","","","Haze"
"2005-06-09 11:00","2005","06","09","11:00","25.2","","18.4","","66","","17","","9","","9.7","","99.46","","32","","","","Haze"
"2005-06-09 12:00","2005","06","09","12:00","27.1","","19.0","","61","","17","","7","","9.7","","99.47","","34","","","","Haze"
"2005-06-09 13:00","2005","06","09","13:00","28.0","","19.6","","60","","16","","15","","9.7","","99.42","","35","","","","Haze"
"2005-06-09 14:00","2005","06","09","14:00","29.1","","20.4","","59","","19","","15","","9.7","","99.37","","37","","","","Haze"
"2005-06-09 15:00","2005","06","09","15:00","28.0","","20.0","","62","","16","","15","","11.3","","99.34","","36","","","","Mostly Cloudy"
"2005-06-09 16:00","2005","06","09","16:00","27.7","","19.9","","63","","17","","11","","11.3","","99.32","","35","","","","Mainly Clear"
"2005-06-09 17:00","2005","06","09","17:00","27.6","","19.9","","63","","15","","13","","11.3","","99.30","","35","","","","Mainly Clear"
"2005-06-09 18:00","2005","06","09","18:00","25.9","","18.9","","65","","14","","11","","8.0","","99.31","","33","","","","Haze"
"2005-06-09 19:00","2005","06","09","19:00","25.2","","18.6","","67","","15","","13","","9.7","","99.33","","32","","","","Haze"
"2005-06-09 20:00","2005","06","09","20:00","25.0","","18.0","","65","","14","","11","","9.7","","99.35","","31","","","","Haze"
"2005-06-09 21:00","2005","06","09","21:00","24.4","","18.0","","68","","17","","4","","11.3","","99.42","","30","","","","Mainly Clear"
"2005-06-09 22:00","2005","06","09","22:00","23.9","","18.0","","70","","16","","4","","12.9","","99.43","","30","","","","Mainly Clear"
"2005-06-09 23:00","2005","06","09","23:00","23.2","","18.7","","76","","17","","6","","11.3","","99.43","","30","","","","Mainly Clear"
"2005-06-10 00:00","2005","06","10","00:00","23.1","","18.7","","76","","18","","6","","11.3","","99.44","","30","","","","Mainly Clear"
"2005-06-10 01:00","2005","06","10","01:00","22.7","","18.6","","78","","13","","6","","11.3","","99.39","","29","","","","Mainly Clear"
"2005-06-10 02:00","2005","06","10","02:00","22.4","","18.6","","79","","13","","7","","12.9","","99.43","","29","","","","Mostly Cloudy"
"2005-06-10 03:00","2005","06","10","03:00","21.5","","18.5","","83","","15","","6","","11.3","","99.46","","28","","","","Mostly Cloudy"
"2005-06-10 04:00","2005","06","10","04:00","21.2","","19.2","","88","","17","","4","","9.7","","99.47","","28","","","","Fog"
"2005-06-10 05:00","2005","06","10","05:00","22.1","","19.3","","84","","18","","15","","8.0","","99.48","","29","","","","Haze"
"2005-06-10 06:00","2005","06","10","06:00","21.9","","19.2","","85","","17","","9","","9.7","","99.48","","29","","","","Haze"
"2005-06-10 07:00","2005","06","10","07:00","22.6","","20.0","","85","","22","","9","","9.7","","99.51","","30","","","","Haze"
"2005-06-10 08:00","2005","06","10","08:00","23.2","","20.3","","84","","19","","6","","8.0","","99.51","","31","","","","Haze"
"2005-06-10 09:00","2005","06","10","09:00","26.1","","21.0","","74","","17","","7","","9.7","","99.51","","35","","","","Haze"
"2005-06-10 10:00","2005","06","10","10:00","28.5","","20.7","","63","","17","","7","","12.9","","99.49","","37","","","","Mainly Clear"
"2005-06-10 11:00","2005","06","10","11:00","28.1","","21.6","","68","","16","","13","","12.9","","99.49","","37","","","","Mainly Clear"
"2005-06-10 12:00","2005","06","10","12:00","30.0","","21.4","","60","","18","","17","","12.9","","99.49","","39","","","","Mostly Cloudy"
"2005-06-10 13:00","2005","06","10","13:00","29.3","","21.3","","62","","17","","15","","16.1","","99.44","","38","","","","Mainly Clear"
"2005-06-10 14:00","2005","06","10","14:00","30.4","","21.6","","59","","16","","17","","14.5","","99.37","","39","","","","Mainly Clear"
"2005-06-10 15:00","2005","06","10","15:00","30.5","","21.3","","58","","16","","19","","12.9","","99.28","","39","","","","Mainly Clear"
"2005-06-10 16:00","2005","06","10","16:00","29.7","","20.9","","59","","15","","20","","11.3","","99.27","","38","","","","Mainly Clear"
"2005-06-10 17:00","2005","06","10","17:00","28.0","","21.0","","66","","15","","13","","11.3","","99.27","","36","","","","Mainly Clear"
"2005-06-10 18:00","2005","06","10","18:00","27.0","","20.4","","67","","14","","13","","11.3","","99.32","","35","","","","Mostly Cloudy"
"2005-06-10 19:00","2005","06","10","19:00","24.9","","19.8","","73","","11","","15","","11.3","","99.40","","32","","","","Mostly Cloudy"
"2005-06-10 20:00","2005","06","10","20:00","24.8","","19.2","","71","","11","","7","","11.3","","99.39","","32","","","","Mostly Cloudy"
"2005-06-10 21:00","2005","06","10","21:00","24.1","","20.0","","78","","15","","9","","11.3","","99.47","","32","","","","Mostly Cloudy"
"2005-06-10 22:00","2005","06","10","22:00","23.7","","19.7","","78","","15","","7","","11.3","","99.47","","31","","","","Mainly Clear"
"2005-06-10 23:00","2005","06","10","23:00","23.3","","19.6","","80","","15","","4","","12.9","","99.52","","31","","","","Clear"
"2005-06-11 00:00","2005","06","11","00:00","22.8","","19.5","","82","","15","","7","","12.9","","99.47","","30","","","","Clear"
"2005-06-11 01:00","2005","06","11","01:00","23.0","","19.3","","80","","16","","6","","12.9","","99.48","","30","","","","Clear"
"2005-06-11 02:00","2005","06","11","02:00","22.9","","19.1","","79","","24","","6","","12.9","","99.45","","30","","","","Clear"
"2005-06-11 03:00","2005","06","11","03:00","22.8","","19.3","","81","","17","","7","","12.9","","99.45","","30","","","","Clear"
"2005-06-11 04:00","2005","06","11","04:00","22.1","","19.3","","84","","19","","11","","12.9","","99.48","","29","","","","Mainly Clear"
"2005-06-11 05:00","2005","06","11","05:00","22.3","","19.5","","84","","17","","6","","12.9","","99.48","","29","","","","Mainly Clear"
"2005-06-11 06:00","2005","06","11","06:00","23.3","","20.1","","82","","","","0","","9.7","","99.48","","31","","","","Haze"
"2005-06-11 07:00","2005","06","11","07:00","24.4","","20.5","","79","","15","","9","","9.7","","99.51","","32","","","","Haze"
"2005-06-11 08:00","2005","06","11","08:00","24.9","","20.8","","78","","14","","7","","11.3","","99.53","","33","","","","Mostly Cloudy"
"2005-06-11 09:00","2005","06","11","09:00","26.2","","21.3","","74","","13","","13","","12.9","","99.53","","35","","","","Mostly Cloudy"
"2005-06-11 10:00","2005","06","11","10:00","27.9","","21.9","","70","","16","","7","","14.5","","99.52","","37","","","","Mostly Cloudy"
"2005-06-11 11:00","2005","06","11","11:00","29.4","","22.1","","65","","16","","17","","16.1","","99.55","","39","","","","Mainly Clear"
"2005-06-11 12:00","2005","06","11","12:00","30.5","","22.2","","61","","15","","17","","16.1","","99.51","","40","","","","Mainly Clear"
"2005-06-11 13:00","2005","06","11","13:00","31.1","","22.3","","60","","16","","20","","19.3","","99.45","","41","","","","Mainly Clear"
"2005-06-11 14:00","2005","06","11","14:00","30.8","","21.6","","58","","17","","22","","19.3","","99.41","","40","","","","Mostly Cloudy"
"2005-06-11 15:00","2005","06","11","15:00","31.1","","20.6","","54","","17","","28","","19.3","","99.34","","39","","","","Mainly Clear"
"2005-06-11 16:00","2005","06","11","16:00","31.3","","20.6","","53","","17","","19","","19.3","","99.30","","39","","","","Mostly Cloudy"
"2005-06-11 17:00","2005","06","11","17:00","31.0","","20.5","","54","","16","","17","","24.1","","99.24","","39","","","","Mostly Cloudy"
"2005-06-11 18:00","2005","06","11","18:00","31.0","","19.5","","50","","23","","26","","24.1","","99.30","","38","","","","Mostly Cloudy"
"2005-06-11 19:00","2005","06","11","19:00","29.5","","19.2","","54","","25","","20","","19.3","","99.36","","36","","","","Mostly Cloudy"
"2005-06-11 20:00","2005","06","11","20:00","28.6","","19.7","","59","","25","","22","","19.3","","99.36","","36","","","","Mostly Cloudy"
"2005-06-11 21:00","2005","06","11","21:00","27.5","","20.0","","64","","25","","13","","16.1","","99.40","","35","","","","Mostly Cloudy"
"2005-06-11 22:00","2005","06","11","22:00","27.1","","20.3","","66","","24","","11","","16.1","","99.42","","35","","","","Mostly Cloudy"
"2005-06-11 23:00","2005","06","11","23:00","27.2","","20.5","","67","","23","","11","","16.1","","99.44","","35","","","","Cloudy"
"2005-06-12 00:00","2005","06","12","00:00","26.5","","20.6","","70","","24","","11","","16.1","","99.42","","35","","","","Cloudy"
"2005-06-12 01:00","2005","06","12","01:00","25.4","","20.6","","75","","26","","6","","14.5","","99.41","","33","","","","Mostly Cloudy"
"2005-06-12 02:00","2005","06","12","02:00","25.2","","20.8","","77","","29","","6","","14.5","","99.38","","33","","","","Mostly Cloudy"
"2005-06-12 03:00","2005","06","12","03:00","24.7","","20.8","","79","","27","","4","","14.5","","99.36","","33","","","","Mostly Cloudy"
"2005-06-12 04:00","2005","06","12","04:00","24.9","","20.9","","78","","23","","7","","11.3","","99.38","","33","","","","Cloudy"
"2005-06-12 05:00","2005","06","12","05:00","24.8","","21.0","","79","","22","","6","","8.0","","99.40","","33","","","","Haze"
"2005-06-12 06:00","2005","06","12","06:00","24.5","","20.9","","80","","24","","11","","12.9","","99.45","","33","","","","Cloudy"
"2005-06-12 07:00","2005","06","12","07:00","24.2","","21.1","","83","","23","","9","","9.7","","99.48","","33","","","","Rain"
"2005-06-12 08:00","2005","06","12","08:00","24.7","","20.9","","79","","24","","11","","19.3","","99.46","","33","","","","Cloudy"
"2005-06-12 09:00","2005","06","12","09:00","24.9","","20.9","","78","","25","","13","","19.3","","99.46","","33","","","","Cloudy"
"2005-06-12 10:00","2005","06","12","10:00","26.1","","21.3","","75","","27","","19","","19.3","","99.41","","35","","","","Rain"
"2005-06-12 11:00","2005","06","12","11:00","27.3","","21.6","","71","","29","","4","","24.1","","99.41","","36","","","","Mostly Cloudy"
"2005-06-12 12:00","2005","06","12","12:00","28.6","","22.2","","68","","13","","13","","19.3","","99.37","","38","","","","Cloudy"
"2005-06-12 13:00","2005","06","12","13:00","29.5","","22.1","","64","","16","","19","","16.1","","99.33","","39","","","","Cloudy"
"2005-06-12 14:00","2005","06","12","14:00","28.2","","20.8","","64","","14","","17","","24.1","","99.31","","36","","","","Cloudy"
"2005-06-12 15:00","2005","06","12","15:00","28.0","","20.9","","65","","15","","17","","24.1","","99.26","","36","","","","Cloudy"
"2005-06-12 16:00","2005","06","12","16:00","28.6","","21.6","","66","","15","","15","","16.1","","99.22","","38","","","","Cloudy"
"2005-06-12 17:00","2005","06","12","17:00","28.2","","21.9","","69","","16","","13","","16.1","","99.16","","37","","","","Cloudy"
"2005-06-12 18:00","2005","06","12","18:00","28.1","","22.4","","71","","15","","13","","16.1","","99.14","","38","","","","Mostly Cloudy"
"2005-06-12 19:00","2005","06","12","19:00","26.8","","22.0","","75","","15","","11","","16.1","","99.15","","36","","","","Mostly Cloudy"
"2005-06-12 20:00","2005","06","12","20:00","25.6","","22.0","","81","","13","","7","","16.1","","99.15","","35","","","","Mostly Cloudy"
"2005-06-12 21:00","2005","06","12","21:00","25.1","","21.9","","82","","14","","7","","16.1","","99.16","","34","","","","Mostly Cloudy"
"2005-06-12 22:00","2005","06","12","22:00","24.7","","22.3","","87","","14","","7","","16.1","","99.14","","34","","","","Cloudy"
"2005-06-12 23:00","2005","06","12","23:00","24.7","","22.2","","86","","15","","9","","14.5","","99.11","","34","","","","Cloudy"
"2005-06-13 00:00","2005","06","13","00:00","24.1","","22.0","","88","","17","","4","","14.5","","99.11","","33","","","","Cloudy"
"2005-06-13 01:00","2005","06","13","01:00","23.6","","22.0","","91","","","","0","","12.9","","99.07","","33","","","","Cloudy"
"2005-06-13 02:00","2005","06","13","02:00","24.1","","22.2","","89","","27","","4","","19.3","","99.02","","34","","","","Cloudy"
"2005-06-13 03:00","2005","06","13","03:00","24.1","","22.2","","89","","","","0","","19.3","","98.97","","34","","","","Cloudy"
"2005-06-13 04:00","2005","06","13","04:00","24.0","","22.1","","89","","","","0","","14.5","","98.95","","33","","","","Cloudy"
"2005-06-13 05:00","2005","06","13","05:00","24.0","","21.9","","88","","16","","6","","6.4","","98.96","","33","","","","Haze"
"2005-06-13 06:00","2005","06","13","06:00","23.6","","21.5","","88","","18","","4","","4.0","","98.95","","32","","","","Haze"
"2005-06-13 07:00","2005","06","13","07:00","23.9","","21.8","","88","","16","","6","","4.8","","98.91","","33","","","","Haze"
"2005-06-13 08:00","2005","06","13","08:00","24.4","","21.7","","85","","14","","7","","4.8","","98.91","","33","","","","Rain Showers,Haze"
"2005-06-13 09:00","2005","06","13","09:00","26.0","","22.1","","79","","15","","11","","6.4","","98.85","","35","","","","Haze"
"2005-06-13 10:00","2005","06","13","10:00","26.2","","21.6","","76","","13","","11","","8.0","","98.78","","35","","","","Haze"
"2005-06-13 11:00","2005","06","13","11:00","27.1","","21.4","","71","","14","","11","","8.0","","98.72","","36","","","","Haze"
"2005-06-13 12:00","2005","06","13","12:00","27.1","","21.3","","71","","14","","11","","11.3","","98.67","","36","","","","Mostly Cloudy"
"2005-06-13 13:00","2005","06","13","13:00","28.8","","20.9","","62","","12","","13","","11.3","","98.59","","37","","","","Mainly Clear"
"2005-06-13 14:00","2005","06","13","14:00","29.8","","21.4","","61","","17","","15","","11.3","","98.51","","39","","","","Mainly Clear"
"2005-06-13 15:00","2005","06","13","15:00","27.5","","20.6","","66","","13","","13","","8.0","","98.43","","36","","","","Haze"
"2005-06-13 16:00","2005","06","13","16:00","23.6","","21.6","","89","","22","","17","","9.7","","98.50","","33","","","","Thunderstorms,Rain Showers"
"2005-06-13 17:00","2005","06","13","17:00","24.0","","22.7","","92","","11","","11","","4.0","","98.41","","34","","","","Fog"
"2005-06-13 18:00","2005","06","13","18:00","22.9","","22.1","","95","","13","","9","","3.2","","98.38","","32","","","","Fog"
"2005-06-13 19:00","2005","06","13","19:00","23.0","","22.1","","95","","13","","13","","3.2","","98.34","","32","","","","Fog"
"2005-06-13 20:00","2005","06","13","20:00","22.2","","21.5","","96","","14","","11","","2.4","","98.32","","31","","","","Rain,Fog"
"2005-06-13 21:00","2005","06","13","21:00","22.5","","22.0","","97","","18","","6","","4.8","","98.32","","32","","","","Fog"
"2005-06-13 22:00","2005","06","13","22:00","23.1","","22.2","","95","","22","","11","","14.5","","98.31","","33","","","","Cloudy"
"2005-06-13 23:00","2005","06","13","23:00","22.9","","21.9","","94","","24","","9","","14.5","","98.27","","32","","","","Mostly Cloudy"
"2005-06-14 00:00","2005","06","14","00:00","23.1","","21.5","","91","","26","","19","","19.3","","98.24","","32","","","","Mostly Cloudy"
"2005-06-14 01:00","2005","06","14","01:00","22.9","","21.1","","90","","28","","22","","24.1","","98.27","","31","","","","Cloudy"
"2005-06-14 02:00","2005","06","14","02:00","22.4","","20.1","","87","","31","","30","","24.1","","98.32","","30","","","","Cloudy"
"2005-06-14 03:00","2005","06","14","03:00","22.1","","19.5","","85","","29","","30","","24.1","","98.34","","29","","","","Mostly Cloudy"
"2005-06-14 04:00","2005","06","14","04:00","21.8","","19.4","","86","","29","","30","","24.1","","98.37","","29","","","","Mainly Clear"
"2005-06-14 05:00","2005","06","14","05:00","21.7","","19.4","","87","","29","","20","","24.1","","98.46","","29","","","","Mainly Clear"
"2005-06-14 06:00","2005","06","14","06:00","22.0","","19.6","","86","","28","","20","","11.3","","98.55","","29","","","","Mostly Cloudy"
"2005-06-14 07:00","2005","06","14","07:00","22.8","","19.8","","83","","31","","17","","14.5","","98.55","","30","","","","Mainly Clear"
"2005-06-14 08:00","2005","06","14","08:00","24.6","","20.5","","78","","28","","15","","19.3","","98.56","","33","","","","Mainly Clear"
"2005-06-14 09:00","2005","06","14","09:00","25.9","","20.8","","73","","28","","15","","16.1","","98.57","","34","","","","Mainly Clear"
"2005-06-14 10:00","2005","06","14","10:00","26.5","","20.6","","70","","27","","13","","16.1","","98.53","","35","","","","Mainly Clear"
"2005-06-14 11:00","2005","06","14","11:00","27.5","","20.4","","65","","29","","11","","16.1","","98.51","","35","","","","Mainly Clear"
"2005-06-14 12:00","2005","06","14","12:00","28.4","","20.6","","63","","22","","9","","16.1","","98.46","","36","","","","Mainly Clear"
"2005-06-14 13:00","2005","06","14","13:00","28.9","","21.1","","63","","24","","7","","14.5","","98.44","","37","","","","Mostly Cloudy"
"2005-06-14 14:00","2005","06","14","14:00","29.7","","22.3","","65","","21","","22","","12.9","","98.37","","39","","","","Mostly Cloudy"
"2005-06-14 15:00","2005","06","14","15:00","29.1","","22.4","","67","","16","","17","","12.9","","98.26","","39","","","","Mainly Clear"
"2005-06-14 16:00","2005","06","14","16:00","28.9","","22.5","","68","","16","","20","","11.3","","98.20","","39","","","","Mainly Clear"
"2005-06-14 17:00","2005","06","14","17:00","28.7","","22.1","","68","","16","","19","","11.3","","98.08","","38","","","","Thunderstorms"
"2005-06-14 18:00","2005","06","14","18:00","28.2","","21.6","","67","","17","","11","","12.9","","98.07","","37","","","","Mostly Cloudy"
"2005-06-14 19:00","2005","06","14","19:00","26.1","","19.7","","68","","26","","43","","12.9","","98.14","","33","","","","Thunderstorms,Rain Showers"
"2005-06-14 20:00","2005","06","14","20:00","21.4","","19.9","","91","","23","","9","","16.1","","98.10","","29","","","","Mostly Cloudy"
"2005-06-14 21:00","2005","06","14","21:00","21.2","","18.4","","84","","30","","19","","16.1","","98.16","","28","","","","Mostly Cloudy"
"2005-06-14 22:00","2005","06","14","22:00","21.1","","17.6","","80","","20","","9","","19.3","","98.05","","27","","","","Mainly Clear"
"2005-06-14 23:00","2005","06","14","23:00","21.3","","17.6","","79","","26","","19","","19.3","","98.02","","27","","","","Mostly Cloudy"
"2005-06-15 00:00","2005","06","15","00:00","20.4","","18.1","","87","","20","","9","","19.3","","97.96","","26","","","","Mostly Cloudy"
"2005-06-15 01:00","2005","06","15","01:00","20.2","","18.6","","91","","19","","4","","19.3","","97.92","","27","","","","Mostly Cloudy"
"2005-06-15 02:00","2005","06","15","02:00","19.7","","18.1","","90","","21","","9","","19.3","","97.92","","","","","","Mainly Clear"
"2005-06-15 03:00","2005","06","15","03:00","19.8","","17.9","","89","","24","","11","","19.3","","97.89","","","","","","Mostly Cloudy"
"2005-06-15 04:00","2005","06","15","04:00","19.8","","17.3","","86","","24","","22","","19.3","","97.91","","","","","","Mostly Cloudy"
"2005-06-15 05:00","2005","06","15","05:00","19.3","","17.0","","87","","24","","17","","19.3","","97.90","","","","","","Mainly Clear"
"2005-06-15 06:00","2005","06","15","06:00","19.8","","16.7","","82","","25","","30","","24.1","","97.91","","","","","","Mainly Clear"
"2005-06-15 07:00","2005","06","15","07:00","20.1","","16.6","","80","","25","","26","","24.1","","97.93","","25","","","","Mostly Cloudy"
"2005-06-15 08:00","2005","06","15","08:00","20.6","","16.4","","77","","25","","22","","24.1","","97.94","","25","","","","Mostly Cloudy"
"2005-06-15 09:00","2005","06","15","09:00","21.0","","16.8","","77","","25","","28","","24.1","","97.95","","26","","","","Mostly Cloudy"
"2005-06-15 10:00","2005","06","15","10:00","21.4","","16.5","","74","","25","","26","","24.1","","97.93","","26","","","","Cloudy"
"2005-06-15 11:00","2005","06","15","11:00","22.5","","16.2","","68","","25","","32","","24.1","","97.91","","27","","","","Cloudy"
"2005-06-15 12:00","2005","06","15","12:00","21.4","","16.3","","73","","26","","24","","24.1","","97.89","","26","","","","Rain Showers"
"2005-06-15 13:00","2005","06","15","13:00","23.8","","16.7","","64","","27","","32","","24.1","","97.85","","29","","","","Mostly Cloudy"
"2005-06-15 14:00","2005","06","15","14:00","24.0","","17.1","","65","","28","","33","","24.1","","97.83","","29","","","","Mostly Cloudy"
"2005-06-15 15:00","2005","06","15","15:00","24.4","","15.8","","59","","28","","35","","24.1","","97.82","","29","","","","Mostly Cloudy"
"2005-06-15 16:00","2005","06","15","16:00","24.8","","16.0","","58","","29","","33","","24.1","","97.84","","29","","","","Mostly Cloudy"
"2005-06-15 17:00","2005","06","15","17:00","23.8","","15.8","","61","","28","","32","","24.1","","97.86","","28","","","","Mostly Cloudy"
"2005-06-15 18:00","2005","06","15","18:00","23.2","","15.8","","63","","29","","30","","24.1","","97.91","","28","","","","Mostly Cloudy"
"2005-06-15 19:00","2005","06","15","19:00","20.5","","16.5","","78","","29","","24","","24.1","","97.99","","25","","","","Rain Showers"
"2005-06-15 20:00","2005","06","15","20:00","17.9","","14.7","","82","","35","","22","","24.1","","98.07","","","","","","Cloudy"
"2005-06-15 21:00","2005","06","15","21:00","17.7","","13.8","","78","","32","","30","","24.1","","98.08","","","","","","Mainly Clear"
"2005-06-15 22:00","2005","06","15","22:00","17.0","","13.0","","77","","34","","24","","24.1","","98.13","","","","","","Mostly Cloudy"
"2005-06-15 23:00","2005","06","15","23:00","16.3","","12.6","","79","","33","","32","","24.1","","98.15","","","","","","Mostly Cloudy"
"2005-06-16 00:00","2005","06","16","00:00","16.3","","12.8","","80","","32","","24","","24.1","","98.14","","","","","","Mostly Cloudy"
"2005-06-16 01:00","2005","06","16","01:00","16.2","","12.7","","80","","33","","24","","24.1","","98.14","","","","","","Mostly Cloudy"
"2005-06-16 02:00","2005","06","16","02:00","16.2","","12.6","","79","","33","","24","","24.1","","98.13","","","","","","Mostly Cloudy"
"2005-06-16 03:00","2005","06","16","03:00","15.6","","12.2","","80","","34","","24","","24.1","","98.11","","","","","","Mostly Cloudy"
"2005-06-16 04:00","2005","06","16","04:00","15.7","","11.7","","77","","34","","20","","24.1","","98.13","","","","","","Cloudy"
"2005-06-16 05:00","2005","06","16","05:00","15.0","","12.6","","86","","33","","17","","19.3","","98.19","","","","","","Rain Showers"
"2005-06-16 06:00","2005","06","16","06:00","15.3","","12.5","","83","","33","","19","","24.1","","98.22","","","","","","Rain Showers"
"2005-06-16 07:00","2005","06","16","07:00","14.8","","11.9","","83","","34","","19","","24.1","","98.25","","","","","","Rain"
"2005-06-16 08:00","2005","06","16","08:00","14.2","","12.1","","87","","33","","20","","14.5","","98.35","","","","","","Rain"
"2005-06-16 09:00","2005","06","16","09:00","14.1","","11.6","","85","","32","","30","","24.1","","98.38","","","","","","Rain"
"2005-06-16 10:00","2005","06","16","10:00","14.2","","12.2","","88","","34","","20","","24.1","","98.39","","","","","","Rain"
"2005-06-16 11:00","2005","06","16","11:00","14.9","","11.6","","81","","32","","19","","24.1","","98.41","","","","","","Mostly Cloudy"
"2005-06-16 12:00","2005","06","16","12:00","15.2","","12.0","","81","","36","","13","","24.1","","98.39","","","","","","Mostly Cloudy"
"2005-06-16 13:00","2005","06","16","13:00","17.3","","12.7","","74","","34","","9","","24.1","","98.37","","","","","","Mostly Cloudy"
"2005-06-16 14:00","2005","06","16","14:00","17.3","","12.2","","72","","2","","7","","24.1","","98.38","","","","","","Mostly Cloudy"
"2005-06-16 15:00","2005","06","16","15:00","17.5","","12.2","","71","","1","","9","","24.1","","98.38","","","","","","Mostly Cloudy"
"2005-06-16 16:00","2005","06","16","16:00","16.3","","12.0","","76","","16","","7","","24.1","","98.42","","","","","","Cloudy"
"2005-06-16 17:00","2005","06","16","17:00","15.9","","11.7","","76","","18","","7","","24.1","","98.43","","","","","","Mostly Cloudy"
"2005-06-16 18:00","2005","06","16","18:00","15.8","","11.5","","76","","36","","17","","24.1","","98.46","","","","","","Mostly Cloudy"
"2005-06-16 19:00","2005","06","16","19:00","15.4","","10.7","","74","","35","","17","","24.1","","98.47","","","","","","Mostly Cloudy"
"2005-06-16 20:00","2005","06","16","20:00","14.9","","10.6","","75","","35","","11","","24.1","","98.47","","","","","","Mainly Clear"
"2005-06-16 21:00","2005","06","16","21:00","14.0","","10.4","","79","","32","","9","","24.1","","98.51","","","","","","Mainly Clear"
"2005-06-16 22:00","2005","06","16","22:00","14.1","","10.7","","80","","31","","9","","24.1","","98.52","","","","","","Mostly Cloudy"
"2005-06-16 23:00","2005","06","16","23:00","14.2","","10.6","","79","","31","","17","","24.1","","98.48","","","","","","Mostly Cloudy"
"2005-06-17 00:00","2005","06","17","00:00","14.1","","10.8","","81","","31","","15","","24.1","","98.46","","","","","","Mostly Cloudy"
"2005-06-17 01:00","2005","06","17","01:00","13.9","","11.2","","84","","31","","15","","24.1","","98.43","","","","","","Mostly Cloudy"
"2005-06-17 02:00","2005","06","17","02:00","13.5","","11.9","","90","","25","","7","","24.1","","98.43","","","","","","Mostly Cloudy"
"2005-06-17 03:00","2005","06","17","03:00","13.6","","11.9","","89","","28","","11","","19.3","","98.42","","","","","","Rain Showers"
"2005-06-17 04:00","2005","06","17","04:00","13.9","","11.9","","88","","31","","11","","24.1","","98.41","","","","","","Mostly Cloudy"
"2005-06-17 05:00","2005","06","17","05:00","13.8","","11.7","","87","","31","","11","","24.1","","98.43","","","","","","Mostly Cloudy"
"2005-06-17 06:00","2005","06","17","06:00","14.3","","11.8","","85","","34","","13","","24.1","","98.47","","","","","","Mostly Cloudy"
"2005-06-17 07:00","2005","06","17","07:00","15.0","","11.7","","81","","33","","20","","24.1","","98.52","","","","","","Mostly Cloudy"
"2005-06-17 08:00","2005","06","17","08:00","15.7","","11.6","","77","","34","","24","","24.1","","98.56","","","","","","Mostly Cloudy"
"2005-06-17 09:00","2005","06","17","09:00","16.7","","12.5","","76","","33","","17","","24.1","","98.60","","","","","","Mostly Cloudy"
"2005-06-17 10:00","2005","06","17","10:00","17.5","","12.0","","70","","32","","20","","24.1","","98.60","","","","","","Mostly Cloudy"
"2005-06-17 11:00","2005","06","17","11:00","17.5","","11.9","","70","","35","","20","","24.1","","98.62","","","","","","Mostly Cloudy"
"2005-06-17 12:00","2005","06","17","12:00","18.4","","11.7","","65","","33","","26","","24.1","","98.63","","","","","","Mostly Cloudy"
"2005-06-17 13:00","2005","06","17","13:00","19.2","","10.9","","59","","32","","30","","24.1","","98.63","","","","","","Mostly Cloudy"
"2005-06-17 14:00","2005","06","17","14:00","21.0","","11.4","","54","","34","","19","","24.1","","98.64","","","","","","Mostly Cloudy"
"2005-06-17 15:00","2005","06","17","15:00","20.2","","11.3","","57","","30","","32","","24.1","","98.67","","","","","","Mostly Cloudy"
"2005-06-17 16:00","2005","06","17","16:00","18.3","","12.1","","67","","35","","30","","24.1","","98.69","","","","","","Mostly Cloudy"
"2005-06-17 17:00","2005","06","17","17:00","18.4","","12.2","","67","","31","","30","","24.1","","98.73","","","","","","Mostly Cloudy"
"2005-06-17 18:00","2005","06","17","18:00","18.0","","11.9","","68","","32","","30","","24.1","","98.78","","","","","","Mostly Cloudy"
"2005-06-17 19:00","2005","06","17","19:00","17.6","","11.6","","68","","32","","32","","24.1","","98.83","","","","","","Mostly Cloudy"
"2005-06-17 20:00","2005","06","17","20:00","16.7","","11.6","","72","","31","","28","","24.1","","98.88","","","","","","Mostly Cloudy"
"2005-06-17 21:00","2005","06","17","21:00","16.3","","11.6","","74","","31","","19","","24.1","","98.95","","","","","","Mostly Cloudy"
"2005-06-17 22:00","2005","06","17","22:00","15.9","","11.7","","76","","30","","24","","24.1","","98.97","","","","","","Mostly Cloudy"
"2005-06-17 23:00","2005","06","17","23:00","15.8","","12.0","","78","","31","","22","","24.1","","99.01","","","","","","Cloudy"
"2005-06-18 00:00","2005","06","18","00:00","16.0","","12.4","","79","","32","","19","","24.1","","99.03","","","","","","Cloudy"
"2005-06-18 01:00","2005","06","18","01:00","15.5","","12.8","","84","","34","","17","","24.1","","99.04","","","","","","Cloudy"
"2005-06-18 02:00","2005","06","18","02:00","14.6","","13.6","","94","","33","","19","","8.0","","99.05","","","","","","Rain Showers,Fog"
"2005-06-18 03:00","2005","06","18","03:00","15.0","","13.9","","93","","36","","17","","24.1","","99.06","","","","","","Cloudy"
"2005-06-18 04:00","2005","06","18","04:00","15.0","","13.9","","93","","1","","13","","24.1","","99.11","","","","","","Cloudy"
"2005-06-18 05:00","2005","06","18","05:00","15.3","","13.7","","90","","2","","9","","24.1","","99.17","","","","","","Mostly Cloudy"
"2005-06-18 06:00","2005","06","18","06:00","15.1","","13.2","","88","","4","","9","","24.1","","99.25","","","","","","Mostly Cloudy"
"2005-06-18 07:00","2005","06","18","07:00","16.0","","12.9","","82","","4","","11","","24.1","","99.32","","","","","","Cloudy"
"2005-06-18 08:00","2005","06","18","08:00","16.8","","12.6","","76","","6","","7","","24.1","","99.39","","","","","","Mostly Cloudy"
"2005-06-18 09:00","2005","06","18","09:00","16.4","","12.3","","77","","5","","6","","24.1","","99.43","","","","","","Mostly Cloudy"
"2005-06-18 10:00","2005","06","18","10:00","16.4","","12.1","","76","","15","","13","","24.1","","99.49","","","","","","Mostly Cloudy"
"2005-06-18 11:00","2005","06","18","11:00","16.2","","12.3","","78","","20","","4","","24.1","","99.55","","","","","","Cloudy"
"2005-06-18 12:00","2005","06","18","12:00","16.6","","12.5","","77","","14","","6","","24.1","","99.55","","","","","","Mostly Cloudy"
"2005-06-18 13:00","2005","06","18","13:00","17.0","","12.7","","76","","13","","7","","24.1","","99.56","","","","","","Cloudy"
"2005-06-18 14:00","2005","06","18","14:00","16.3","","12.0","","76","","12","","13","","24.1","","99.59","","","","","","Cloudy"
"2005-06-18 15:00","2005","06","18","15:00","16.4","","12.5","","78","","15","","11","","24.1","","99.61","","","","","","Cloudy"
"2005-06-18 16:00","2005","06","18","16:00","16.5","","12.3","","76","","15","","13","","24.1","","99.66","","","","","","Cloudy"
"2005-06-18 17:00","2005","06","18","17:00","16.4","","12.3","","77","","13","","13","","24.1","","99.70","","","","","","Cloudy"
"2005-06-18 18:00","2005","06","18","18:00","16.3","","11.9","","75","","13","","7","","24.1","","99.76","","","","","","Cloudy"
"2005-06-18 19:00","2005","06","18","19:00","16.2","","11.5","","74","","13","","7","","24.1","","99.82","","","","","","Cloudy"
"2005-06-18 20:00","2005","06","18","20:00","16.0","","11.8","","76","","12","","6","","24.1","","99.86","","","","","","Cloudy"
"2005-06-18 21:00","2005","06","18","21:00","15.7","","12.0","","79","","14","","6","","24.1","","99.95","","","","","","Mostly Cloudy"
"2005-06-18 22:00","2005","06","18","22:00","15.9","","11.8","","77","","9","","7","","24.1","","99.96","","","","","","Mostly Cloudy"
"2005-06-18 23:00","2005","06","18","23:00","15.7","","11.0","","74","","8","","11","","24.1","","100.00","","","","","","Cloudy"
"2005-06-19 00:00","2005","06","19","00:00","15.6","","11.0","","74","","9","","11","","24.1","","100.04","","","","","","Mostly Cloudy"
"2005-06-19 01:00","2005","06","19","01:00","15.1","","11.1","","77","","9","","7","","24.1","","100.04","","","","","","Cloudy"
"2005-06-19 02:00","2005","06","19","02:00","14.8","","11.0","","78","","8","","7","","24.1","","100.06","","","","","","Mostly Cloudy"
"2005-06-19 03:00","2005","06","19","03:00","14.5","","10.7","","78","","9","","7","","24.1","","100.05","","","","","","Mostly Cloudy"
"2005-06-19 04:00","2005","06","19","04:00","14.5","","10.6","","77","","9","","6","","24.1","","100.07","","","","","","Cloudy"
"2005-06-19 05:00","2005","06","19","05:00","14.5","","10.5","","77","","5","","9","","24.1","","100.12","","","","","","Mostly Cloudy"
"2005-06-19 06:00","2005","06","19","06:00","14.7","","10.7","","77","","6","","7","","24.1","","100.23","","","","","","Mostly Cloudy"
"2005-06-19 07:00","2005","06","19","07:00","15.2","","10.8","","75","","5","","9","","24.1","","100.28","","","","","","Mostly Cloudy"
"2005-06-19 08:00","2005","06","19","08:00","15.7","","11.0","","74","","6","","13","","24.1","","100.36","","","","","","Mostly Cloudy"
"2005-06-19 09:00","2005","06","19","09:00","16.0","","10.4","","69","","8","","6","","24.1","","100.37","","","","","","Cloudy"
"2005-06-19 10:00","2005","06","19","10:00","16.3","","10.5","","69","","12","","9","","24.1","","100.39","","","","","","Cloudy"
"2005-06-19 11:00","2005","06","19","11:00","15.9","","10.0","","68","","12","","11","","24.1","","100.42","","","","","","Cloudy"
"2005-06-19 12:00","2005","06","19","12:00","17.3","","10.5","","64","","7","","11","","24.1","","100.42","","","","","","Mostly Cloudy"
"2005-06-19 13:00","2005","06","19","13:00","17.2","","10.8","","66","","12","","11","","24.1","","100.42","","","","","","Mostly Cloudy"
"2005-06-19 14:00","2005","06","19","14:00","17.0","","10.9","","67","","9","","9","","24.1","","100.39","","","","","","Mostly Cloudy"
"2005-06-19 15:00","2005","06","19","15:00","17.9","","10.6","","62","","11","","7","","24.1","","100.37","","","","","","Mostly Cloudy"
"2005-06-19 16:00","2005","06","19","16:00","17.5","","10.3","","63","","14","","13","","24.1","","100.39","","","","","","Mostly Cloudy"
"2005-06-19 17:00","2005","06","19","17:00","17.6","","9.8","","60","","15","","9","","24.1","","100.37","","","","","","Mostly Cloudy"
"2005-06-19 18:00","2005","06","19","18:00","17.1","","9.2","","60","","17","","13","","24.1","","100.36","","","","","","Mostly Cloudy"
"2005-06-19 19:00","2005","06","19","19:00","16.6","","9.4","","62","","17","","11","","24.1","","100.36","","","","","","Mainly Clear"
"2005-06-19 20:00","2005","06","19","20:00","15.5","","9.7","","68","","16","","6","","24.1","","100.35","","","","","","Mainly Clear"
"2005-06-19 21:00","2005","06","19","21:00","15.3","","10.0","","71","","16","","4","","24.1","","100.36","","","","","","Clear"
"2005-06-19 22:00","2005","06","19","22:00","14.4","","10.3","","76","","","","0","","24.1","","100.40","","","","","","Clear"
"2005-06-19 23:00","2005","06","19","23:00","14.2","","10.3","","77","","","","0","","24.1","","100.38","","","","","","Clear"
"2005-06-20 00:00","2005","06","20","00:00","14.0","","10.1","","77","","","","0","","24.1","","100.34","","","","","","Clear"
"2005-06-20 01:00","2005","06","20","01:00","11.8","","9.0","","83","","36","","7","","24.1","","100.35","","","","","","Clear"
"2005-06-20 02:00","2005","06","20","02:00","11.4","","8.7","","83","","","","0","","24.1","","100.32","","","","","","Clear"
"2005-06-20 03:00","2005","06","20","03:00","10.7","","8.5","","86","","3","","7","","24.1","","100.33","","","","","","Clear"
"2005-06-20 04:00","2005","06","20","04:00","11.1","","8.7","","85","","36","","4","","24.1","","100.35","","","","","","Clear"
"2005-06-20 05:00","2005","06","20","05:00","10.5","","8.4","","87","","","","0","","24.1","","100.39","","","","","","Clear"
"2005-06-20 06:00","2005","06","20","06:00","13.3","","10.9","","85","","","","0","","24.1","","100.39","","","","","","Clear"
"2005-06-20 07:00","2005","06","20","07:00","16.0","","11.8","","76","","13","","4","","24.1","","100.42","","","","","","Mostly Cloudy"
"2005-06-20 08:00","2005","06","20","08:00","17.7","","12.3","","71","","","","0","","24.1","","100.44","","","","","","Mostly Cloudy"
"2005-06-20 09:00","2005","06","20","09:00","18.4","","11.9","","66","","17","","9","","24.1","","100.38","","","","","","Mostly Cloudy"
"2005-06-20 10:00","2005","06","20","10:00","19.2","","13.0","","67","","19","","9","","24.1","","100.32","","","","","","Mostly Cloudy"
"2005-06-20 11:00","2005","06","20","11:00","20.1","","13.7","","67","","10","","9","","24.1","","100.31","","","","","","Mostly Cloudy"
"2005-06-20 12:00","2005","06","20","12:00","21.1","","14.0","","64","","18","","13","","24.1","","100.30","","","","","","Mostly Cloudy"
"2005-06-20 13:00","2005","06","20","13:00","21.2","","13.8","","63","","15","","15","","24.1","","100.22","","","","","","Mainly Clear"
"2005-06-20 14:00","2005","06","20","14:00","22.3","","14.3","","61","","13","","13","","24.1","","100.15","","26","","","","Mainly Clear"
"2005-06-20 15:00","2005","06","20","15:00","23.0","","14.8","","60","","13","","15","","24.1","","100.07","","27","","","","Mostly Cloudy"
"2005-06-20 16:00","2005","06","20","16:00","23.8","","15.0","","58","","17","","15","","24.1","","100.00","","28","","","","Mostly Cloudy"
"2005-06-20 17:00","2005","06","20","17:00","23.2","","15.1","","60","","16","","17","","24.1","","99.92","","27","","","","Mostly Cloudy"
"2005-06-20 18:00","2005","06","20","18:00","22.3","","15.3","","65","","15","","15","","24.1","","99.87","","26","","","","Mostly Cloudy"
"2005-06-20 19:00","2005","06","20","19:00","22.2","","15.2","","65","","15","","11","","24.1","","99.86","","26","","","","Mostly Cloudy"
"2005-06-20 20:00","2005","06","20","20:00","20.8","","14.8","","69","","15","","7","","24.1","","99.87","","25","","","","Mainly Clear"
"2005-06-20 21:00","2005","06","20","21:00","19.9","","14.8","","72","","17","","7","","24.1","","99.86","","","","","","Mainly Clear"
"2005-06-20 22:00","2005","06","20","22:00","19.0","","14.4","","75","","16","","6","","24.1","","99.87","","","","","","Clear"
"2005-06-20 23:00","2005","06","20","23:00","18.6","","14.4","","77","","22","","4","","24.1","","99.85","","","","","","Clear"
"2005-06-21 00:00","2005","06","21","00:00","17.0","","13.3","","79","","27","","11","","24.1","","99.81","","","","","","Clear"
"2005-06-21 01:00","2005","06","21","01:00","16.9","","12.9","","77","","26","","7","","24.1","","99.79","","","","","","Clear"
"2005-06-21 02:00","2005","06","21","02:00","16.9","","13.1","","78","","27","","4","","24.1","","99.75","","","","","","Clear"
"2005-06-21 03:00","2005","06","21","03:00","15.7","","12.7","","82","","27","","7","","24.1","","99.66","","","","","","Clear"
"2005-06-21 04:00","2005","06","21","04:00","15.2","","12.4","","83","","26","","6","","24.1","","99.66","","","","","","Mainly Clear"
"2005-06-21 05:00","2005","06","21","05:00","14.6","","12.1","","85","","26","","7","","24.1","","99.67","","","","","","Mainly Clear"
"2005-06-21 06:00","2005","06","21","06:00","16.7","","13.0","","79","","26","","13","","19.3","","99.69","","","","","","Mainly Clear"
"2005-06-21 07:00","2005","06","21","07:00","19.1","","13.8","","71","","25","","15","","19.3","","99.65","","","","","","Mainly Clear"
"2005-06-21 08:00","2005","06","21","08:00","22.0","","14.6","","63","","25","","20","","24.1","","99.62","","26","","","","Mainly Clear"
"2005-06-21 09:00","2005","06","21","09:00","23.8","","14.9","","57","","26","","24","","24.1","","99.56","","28","","","","Mostly Cloudy"
"2005-06-21 10:00","2005","06","21","10:00","25.4","","15.8","","55","","25","","20","","24.1","","99.50","","30","","","","Mostly Cloudy"
"2005-06-21 11:00","2005","06","21","11:00","25.5","","15.7","","55","","28","","22","","24.1","","99.48","","30","","","","Mostly Cloudy"
"2005-06-21 12:00","2005","06","21","12:00","25.5","","16.2","","56","","27","","19","","24.1","","99.50","","30","","","","Mostly Cloudy"
"2005-06-21 13:00","2005","06","21","13:00","27.5","","16.7","","52","","29","","20","","24.1","","99.42","","33","","","","Mostly Cloudy"
"2005-06-21 14:00","2005","06","21","14:00","28.6","","17.4","","51","","27","","20","","24.1","","99.36","","34","","","","Mostly Cloudy"
"2005-06-21 15:00","2005","06","21","15:00","26.4","","16.6","","55","","32","","22","","24.1","","99.33","","31","","","","Cloudy"
"2005-06-21 16:00","2005","06","21","16:00","24.8","","16.5","","60","","34","","22","","19.3","","99.32","","30","","","","Cloudy"
"2005-06-21 17:00","2005","06","21","17:00","23.3","","15.4","","61","","32","","24","","19.3","","99.29","","28","","","","Rain Showers"
"2005-06-21 18:00","2005","06","21","18:00","23.1","","15.0","","60","","29","","17","","24.1","","99.30","","27","","","","Mostly Cloudy"
"2005-06-21 19:00","2005","06","21","19:00","23.3","","14.8","","59","","28","","17","","24.1","","99.30","","27","","","","Mostly Cloudy"
"2005-06-21 20:00","2005","06","21","20:00","22.3","","14.2","","60","","29","","11","","24.1","","99.28","","26","","","","Mostly Cloudy"
"2005-06-21 21:00","2005","06","21","21:00","21.6","","14.0","","62","","29","","19","","24.1","","99.33","","25","","","","Mainly Clear"
"2005-06-21 22:00","2005","06","21","22:00","20.5","","15.3","","72","","31","","19","","24.1","","99.36","","25","","","","Mostly Cloudy"
"2005-06-21 23:00","2005","06","21","23:00","20.3","","15.9","","76","","31","","17","","24.1","","99.33","","25","","","","Mostly Cloudy"
"2005-06-22 00:00","2005","06","22","00:00","19.3","","15.9","","81","","33","","13","","24.1","","99.32","","","","","","Mainly Clear"
"2005-06-22 01:00","2005","06","22","01:00","19.1","","16.0","","82","","32","","13","","24.1","","99.31","","","","","","Mainly Clear"
"2005-06-22 02:00","2005","06","22","02:00","18.2","","15.6","","85","","33","","19","","24.1","","99.31","","","","","","Mainly Clear"
"2005-06-22 03:00","2005","06","22","03:00","17.3","","15.4","","89","","36","","15","","24.1","","99.32","","","","","","Clear"
"2005-06-22 04:00","2005","06","22","04:00","17.1","","15.2","","89","","36","","26","","24.1","","99.38","","","","","","Clear"
"2005-06-22 05:00","2005","06","22","05:00","16.7","","14.9","","89","","1","","24","","24.1","","99.45","","","","","","Mainly Clear"
"2005-06-22 06:00","2005","06","22","06:00","17.5","","15.0","","85","","1","","20","","24.1","","99.55","","","","","","Mainly Clear"
"2005-06-22 07:00","2005","06","22","07:00","18.7","","12.9","","69","","3","","26","","24.1","","99.66","","","","","","Mostly Cloudy"
"2005-06-22 08:00","2005","06","22","08:00","18.9","","12.8","","68","","1","","28","","24.1","","99.75","","","","","","Mostly Cloudy"
"2005-06-22 09:00","2005","06","22","09:00","20.3","","11.2","","56","","2","","22","","24.1","","99.79","","","","","","Mainly Clear"
"2005-06-22 10:00","2005","06","22","10:00","21.2","","10.8","","51","","1","","19","","24.1","","99.84","","","","","","Clear"
"2005-06-22 11:00","2005","06","22","11:00","22.0","","10.9","","49","","1","","15","","24.1","","99.86","","","","","","Clear"
"2005-06-22 12:00","2005","06","22","12:00","23.0","","8.7","","40","","1","","26","","24.1","","99.89","","","","","","Clear"
"2005-06-22 13:00","2005","06","22","13:00","23.4","","10.1","","43","","36","","22","","24.1","","99.86","","25","","","","Clear"
"2005-06-22 14:00","2005","06","22","14:00","23.7","","8.7","","38","","36","","17","","24.1","","99.83","","","","","","Clear"
"2005-06-22 15:00","2005","06","22","15:00","23.6","","8.1","","37","","35","","19","","24.1","","99.82","","","","","","Mainly Clear"
"2005-06-22 16:00","2005","06","22","16:00","23.6","","9.3","","40","","3","","22","","24.1","","99.81","","25","","","","Mostly Cloudy"
"2005-06-22 17:00","2005","06","22","17:00","23.1","","8.8","","40","","30","","13","","24.1","","99.80","","","","","","Mostly Cloudy"
"2005-06-22 18:00","2005","06","22","18:00","22.3","","9.1","","43","","36","","22","","24.1","","99.86","","","","","","Mainly Clear"
"2005-06-22 19:00","2005","06","22","19:00","21.1","","8.6","","45","","36","","20","","24.1","","99.91","","","","","","Mainly Clear"
"2005-06-22 20:00","2005","06","22","20:00","19.5","","8.6","","49","","35","","22","","24.1","","99.91","","","","","","Mainly Clear"
"2005-06-22 21:00","2005","06","22","21:00","17.9","","8.3","","53","","35","","19","","24.1","","99.97","","","","","","Mainly Clear"
"2005-06-22 22:00","2005","06","22","22:00","16.5","","7.6","","56","","36","","20","","24.1","","100.02","","","","","","Clear"
"2005-06-22 23:00","2005","06","22","23:00","15.7","","7.0","","56","","35","","19","","24.1","","100.05","","","","","","Mainly Clear"
"2005-06-23 00:00","2005","06","23","00:00","14.2","","7.1","","62","","2","","7","","24.1","","100.04","","","","","","Mainly Clear"
"2005-06-23 01:00","2005","06","23","01:00","13.4","","7.0","","65","","33","","9","","24.1","","100.04","","","","","","Clear"
"2005-06-23 02:00","2005","06","23","02:00","12.7","","7.3","","70","","32","","11","","24.1","","100.00","","","","","","Mainly Clear"
"2005-06-23 03:00","2005","06","23","03:00","13.0","","7.1","","67","","34","","7","","24.1","","100.01","","","","","","Mainly Clear"
"2005-06-23 04:00","2005","06","23","04:00","12.7","","6.9","","68","","36","","4","","24.1","","100.00","","","","","","Mainly Clear"
"2005-06-23 05:00","2005","06","23","05:00","12.6","","6.7","","67","","31","","7","","24.1","","100.03","","","","","","Mainly Clear"
"2005-06-23 06:00","2005","06","23","06:00","14.3","","9.7","","74","","","","0","","24.1","","100.02","","","","","","Clear"
"2005-06-23 07:00","2005","06","23","07:00","17.4","","9.4","","59","","24","","4","","24.1","","100.06","","","","","","Clear"
"2005-06-23 08:00","2005","06","23","08:00","19.7","","10.3","","55","","20","","13","","24.1","","100.05","","","","","","Clear"
"2005-06-23 09:00","2005","06","23","09:00","20.9","","10.1","","50","","21","","22","","24.1","","100.02","","","","","","Clear"
"2005-06-23 10:00","2005","06","23","10:00","23.1","","11.1","","47","","25","","22","","24.1","","100.01","","25","","","","Mainly Clear"
"2005-06-23 11:00","2005","06","23","11:00","23.9","","10.5","","43","","24","","24","","24.1","","99.97","","25","","","","Mostly Cloudy"
"2005-06-23 12:00","2005","06","23","12:00","25.3","","10.9","","40","","27","","20","","24.1","","99.91","","27","","","","Mostly Cloudy"
"2005-06-23 13:00","2005","06","23","13:00","25.9","","10.4","","38","","23","","4","","24.1","","99.87","","27","","","","Mostly Cloudy"
"2005-06-23 14:00","2005","06","23","14:00","27.4","","10.5","","35","","22","","4","","24.1","","99.81","","29","","","","Mostly Cloudy"
"2005-06-23 15:00","2005","06","23","15:00","27.5","","10.5","","35","","23","","20","","24.1","","99.75","","29","","","","Mostly Cloudy"
"2005-06-23 16:00","2005","06","23","16:00","27.1","","9.7","","34","","26","","17","","24.1","","99.67","","28","","","","Mostly Cloudy"
"2005-06-23 17:00","2005","06","23","17:00","26.3","","11.7","","40","","20","","19","","24.1","","99.68","","28","","","","Mostly Cloudy"
"2005-06-23 18:00","2005","06","23","18:00","25.3","","12.8","","46","","18","","20","","24.1","","99.63","","28","","","","Mostly Cloudy"
"2005-06-23 19:00","2005","06","23","19:00","25.0","","12.3","","45","","22","","22","","24.1","","99.63","","27","","","","Mainly Clear"
"2005-06-23 20:00","2005","06","23","20:00","23.8","","6.9","","34","","22","","19","","24.1","","99.65","","","","","","Mainly Clear"
"2005-06-23 21:00","2005","06","23","21:00","22.6","","6.9","","36","","22","","17","","24.1","","99.70","","","","","","Clear"
"2005-06-23 22:00","2005","06","23","22:00","21.4","","5.1","","34","","21","","11","","24.1","","99.69","","","","","","Clear"
"2005-06-23 23:00","2005","06","23","23:00","20.4","","5.9","","39","","22","","19","","24.1","","99.66","","","","","","Clear"
"2005-06-24 00:00","2005","06","24","00:00","19.1","","6.6","","44","","22","","17","","24.1","","99.64","","","","","","Mostly Cloudy"
"2005-06-24 01:00","2005","06","24","01:00","17.4","","7.0","","50","","25","","13","","24.1","","99.64","","","","","","Mainly Clear"
"2005-06-24 02:00","2005","06","24","02:00","17.4","","8.0","","54","","23","","6","","24.1","","99.64","","","","","","Mainly Clear"
"2005-06-24 03:00","2005","06","24","03:00","17.5","","7.4","","51","","23","","7","","24.1","","99.67","","","","","","Clear"
"2005-06-24 04:00","2005","06","24","04:00","17.7","","8.3","","54","","22","","11","","24.1","","99.63","","","","","","Clear"
"2005-06-24 05:00","2005","06","24","05:00","17.0","","9.8","","63","","18","","7","","24.1","","99.66","","","","","","Mainly Clear"
"2005-06-24 06:00","2005","06","24","06:00","19.0","","11.8","","63","","19","","7","","24.1","","99.61","","","","","","Mainly Clear"
"2005-06-24 07:00","2005","06","24","07:00","21.3","","13.6","","61","","22","","11","","24.1","","99.59","","","","","","Mostly Cloudy"
"2005-06-24 08:00","2005","06","24","08:00","25.3","","14.1","","50","","25","","17","","24.1","","99.60","","29","","","","Mostly Cloudy"
"2005-06-24 09:00","2005","06","24","09:00","27.2","","15.2","","48","","23","","19","","24.1","","99.55","","31","","","","Mostly Cloudy"
"2005-06-24 10:00","2005","06","24","10:00","28.3","","16.4","","48","","23","","26","","24.1","","99.48","","33","","","","Mostly Cloudy"
"2005-06-24 11:00","2005","06","24","11:00","30.7","","18.2","","47","","24","","28","","24.1","","99.52","","37","","","","Mostly Cloudy"
"2005-06-24 12:00","2005","06","24","12:00","31.9","","19.6","","48","","22","","20","","24.1","","99.48","","39","","","","Mainly Clear"
"2005-06-24 13:00","2005","06","24","13:00","32.5","","20.2","","48","","21","","24","","24.1","","99.45","","40","","","","Mainly Clear"
"2005-06-24 14:00","2005","06","24","14:00","34.0","","21.1","","47","","23","","20","","24.1","","99.42","","43","","","","Mainly Clear"
"2005-06-24 15:00","2005","06","24","15:00","33.8","","21.1","","48","","23","","26","","24.1","","99.40","","42","","","","Mainly Clear"
"2005-06-24 16:00","2005","06","24","16:00","32.9","","21.1","","50","","23","","28","","24.1","","99.36","","41","","","","Mainly Clear"
"2005-06-24 17:00","2005","06","24","17:00","32.1","","20.7","","51","","23","","30","","24.1","","99.35","","40","","","","Mainly Clear"
"2005-06-24 18:00","2005","06","24","18:00","31.3","","20.0","","51","","22","","26","","24.1","","99.36","","39","","","","Mainly Clear"
"2005-06-24 19:00","2005","06","24","19:00","30.3","","19.4","","52","","21","","24","","19.3","","99.39","","37","","","","Clear"
"2005-06-24 20:00","2005","06","24","20:00","28.9","","18.3","","53","","22","","26","","16.1","","99.38","","35","","","","Mainly Clear"
"2005-06-24 21:00","2005","06","24","21:00","28.0","","18.2","","55","","22","","22","","16.1","","99.41","","34","","","","Mainly Clear"
"2005-06-24 22:00","2005","06","24","22:00","27.4","","18.3","","58","","23","","22","","16.1","","99.46","","34","","","","Mainly Clear"
"2005-06-24 23:00","2005","06","24","23:00","26.8","","18.7","","61","","24","","22","","16.1","","99.49","","33","","","","Mainly Clear"
"2005-06-25 00:00","2005","06","25","00:00","26.3","","18.9","","64","","23","","13","","16.1","","99.48","","33","","","","Mainly Clear"
"2005-06-25 01:00","2005","06","25","01:00","25.7","","18.6","","65","","19","","9","","16.1","","99.46","","32","","","","Clear"
"2005-06-25 02:00","2005","06","25","02:00","24.4","","18.5","","70","","21","","11","","16.1","","99.43","","31","","","","Clear"
"2005-06-25 03:00","2005","06","25","03:00","23.8","","18.1","","70","","23","","9","","16.1","","99.41","","30","","","","Clear"
"2005-06-25 04:00","2005","06","25","04:00","23.3","","17.9","","72","","23","","15","","16.1","","99.41","","29","","","","Mainly Clear"
"2005-06-25 05:00","2005","06","25","05:00","22.5","","17.7","","74","","23","","13","","8.0","","99.41","","28","","","","Haze"
"2005-06-25 06:00","2005","06","25","06:00","23.6","","18.0","","71","","23","","15","","12.9","","99.44","","30","","","","Mainly Clear"
"2005-06-25 07:00","2005","06","25","07:00","24.7","","18.8","","70","","29","","15","","12.9","","99.50","","31","","","","Mainly Clear"
"2005-06-25 08:00","2005","06","25","08:00","27.5","","20.1","","64","","27","","17","","12.9","","99.49","","35","","","","Mostly Cloudy"
"2005-06-25 09:00","2005","06","25","09:00","28.8","","20.8","","62","","29","","11","","11.3","","99.50","","37","","","","Mostly Cloudy"
"2005-06-25 10:00","2005","06","25","10:00","30.3","","21.4","","59","","25","","7","","11.3","","99.51","","39","","","","Mostly Cloudy"
"2005-06-25 11:00","2005","06","25","11:00","32.1","","21.6","","54","","26","","13","","9.7","","99.49","","41","","","","Haze"
"2005-06-25 12:00","2005","06","25","12:00","32.9","","21.6","","52","","26","","15","","11.3","","99.51","","42","","","","Mostly Cloudy"
"2005-06-25 13:00","2005","06","25","13:00","33.8","","21.7","","49","","26","","22","","12.9","","99.51","","43","","","","Mostly Cloudy"
"2005-06-25 14:00","2005","06","25","14:00","34.1","","21.6","","48","","30","","26","","12.9","","99.48","","43","","","","Mostly Cloudy"
"2005-06-25 15:00","2005","06","25","15:00","32.8","","21.3","","51","","34","","33","","14.5","","99.50","","41","","","","Mostly Cloudy"
"2005-06-25 16:00","2005","06","25","16:00","31.6","","21.4","","55","","1","","26","","16.1","","99.51","","40","","","","Mostly Cloudy"
"2005-06-25 17:00","2005","06","25","17:00","31.0","","19.6","","51","","34","","28","","19.3","","99.54","","38","","","","Mostly Cloudy"
"2005-06-25 18:00","2005","06","25","18:00","30.1","","14.6","","39","","1","","26","","24.1","","99.58","","34","","","","Mostly Cloudy"
"2005-06-25 19:00","2005","06","25","19:00","28.7","","11.9","","35","","36","","20","","24.1","","99.64","","31","","","","Mostly Cloudy"
"2005-06-25 20:00","2005","06","25","20:00","26.3","","12.8","","43","","36","","26","","24.1","","99.69","","29","","","","Mostly Cloudy"
"2005-06-25 21:00","2005","06","25","21:00","25.0","","11.3","","42","","36","","20","","24.1","","99.75","","27","","","","Mostly Cloudy"
"2005-06-25 22:00","2005","06","25","22:00","23.6","","10.4","","43","","36","","15","","24.1","","99.79","","25","","","","Mainly Clear"
"2005-06-25 23:00","2005","06","25","23:00","22.6","","10.5","","46","","32","","11","","24.1","","99.82","","","","","","Mainly Clear"
"2005-06-26 00:00","2005","06","26","00:00","21.9","","11.4","","51","","34","","11","","24.1","","99.81","","","","","","Clear"
"2005-06-26 01:00","2005","06","26","01:00","20.6","","11.5","","56","","34","","17","","24.1","","99.81","","","","","","Clear"
"2005-06-26 02:00","2005","06","26","02:00","20.0","","10.6","","55","","32","","9","","24.1","","99.84","","","","","","Clear"
"2005-06-26 03:00","2005","06","26","03:00","19.0","","10.6","","58","","36","","7","","24.1","","99.88","","","","","","Clear"
"2005-06-26 04:00","2005","06","26","04:00","19.1","","9.8","","55","","1","","4","","24.1","","99.95","","","","","","Mainly Clear"
"2005-06-26 05:00","2005","06","26","05:00","18.6","","9.6","","56","","32","","9","","24.1","","100.01","","","","","","Mainly Clear"
"2005-06-26 06:00","2005","06","26","06:00","20.0","","10.6","","55","","32","","9","","24.1","","100.02","","","","","","Mainly Clear"
"2005-06-26 07:00","2005","06","26","07:00","21.9","","10.5","","48","","34","","9","","24.1","","100.05","","","","","","Mainly Clear"
"2005-06-26 08:00","2005","06","26","08:00","24.0","","10.4","","42","","35","","4","","24.1","","100.07","","25","","","","Mostly Cloudy"
"2005-06-26 09:00","2005","06","26","09:00","26.1","","11.6","","40","","","","0","","24.1","","100.05","","28","","","","Mostly Cloudy"
"2005-06-26 10:00","2005","06","26","10:00","27.6","","11.3","","36","","32","","4","","24.1","","100.05","","30","","","","Mainly Clear"
"2005-06-26 11:00","2005","06","26","11:00","28.9","","10.6","","32","","33","","7","","24.1","","100.02","","30","","","","Mainly Clear"
"2005-06-26 12:00","2005","06","26","12:00","30.8","","9.2","","26","","24","","7","","24.1","","99.98","","32","","","","Mainly Clear"
"2005-06-26 13:00","2005","06","26","13:00","30.5","","12.1","","32","","18","","6","","24.1","","99.99","","33","","","","Mainly Clear"
"2005-06-26 14:00","2005","06","26","14:00","30.9","","12.4","","32","","14","","17","","24.1","","99.96","","33","","","","Mainly Clear"
"2005-06-26 15:00","2005","06","26","15:00","29.0","","11.0","","33","","17","","17","","24.1","","99.95","","31","","","","Mostly Cloudy"
"2005-06-26 16:00","2005","06","26","16:00","29.6","","11.0","","32","","16","","17","","24.1","","99.93","","31","","","","Mainly Clear"
"2005-06-26 17:00","2005","06","26","17:00","29.6","","9.2","","28","","15","","13","","24.1","","99.93","","31","","","","Clear"
"2005-06-26 18:00","2005","06","26","18:00","29.6","","8.4","","27","","14","","9","","24.1","","99.93","","30","","","","Clear"
"2005-06-26 19:00","2005","06","26","19:00","28.9","","7.6","","26","","16","","6","","24.1","","99.93","","29","","","","Clear"
"2005-06-26 20:00","2005","06","26","20:00","27.6","","7.3","","28","","16","","6","","24.1","","99.98","","28","","","","Clear"
"2005-06-26 21:00","2005","06","26","21:00","27.1","","6.3","","27","","11","","7","","24.1","","99.99","","27","","","","Clear"
"2005-06-26 22:00","2005","06","26","22:00","26.2","","6.3","","28","","","","0","","24.1","","100.03","","26","","","","Clear"
"2005-06-26 23:00","2005","06","26","23:00","25.1","","9.1","","36","","","","0","","24.1","","100.06","","26","","","","Clear"
"2005-06-27 00:00","2005","06","27","00:00","25.1","","7.5","","33","","15","","4","","24.1","","100.05","","25","","","","Clear"
"2005-06-27 01:00","2005","06","27","01:00","23.3","","14.6","","58","","31","","4","","24.1","","100.03","","27","","","","Clear"
"2005-06-27 02:00","2005","06","27","02:00","21.4","","14.8","","66","","35","","9","","24.1","","100.01","","25","","","","Clear"
"2005-06-27 03:00","2005","06","27","03:00","20.8","","15.0","","69","","34","","7","","24.1","","100.01","","25","","","","Clear"
"2005-06-27 04:00","2005","06","27","04:00","20.5","","14.4","","68","","34","","4","","24.1","","100.02","","","","","","Clear"
"2005-06-27 05:00","2005","06","27","05:00","20.6","","14.4","","68","","35","","4","","24.1","","100.05","","","","","","Clear"
"2005-06-27 06:00","2005","06","27","06:00","21.7","","15.3","","67","","","","0","","19.3","","100.09","","26","","","","Clear"
"2005-06-27 07:00","2005","06","27","07:00","24.5","","13.2","","49","","14","","7","","24.1","","100.11","","27","","","","Clear"
"2005-06-27 08:00","2005","06","27","08:00","26.0","","12.1","","42","","15","","4","","24.1","","100.15","","28","","","","Clear"
"2005-06-27 09:00","2005","06","27","09:00","28.2","","14.0","","42","","14","","7","","24.1","","100.13","","32","","","","Clear"
"2005-06-27 10:00","2005","06","27","10:00","29.8","","15.2","","41","","20","","6","","24.1","","100.12","","34","","","","Clear"
"2005-06-27 11:00","2005","06","27","11:00","29.8","","15.4","","42","","13","","11","","24.1","","100.11","","34","","","","Clear"
"2005-06-27 12:00","2005","06","27","12:00","30.0","","15.8","","42","","14","","13","","19.3","","100.09","","34","","","","Clear"
"2005-06-27 13:00","2005","06","27","13:00","31.0","","16.9","","43","","13","","13","","19.3","","100.03","","36","","","","Clear"
"2005-06-27 14:00","2005","06","27","14:00","31.6","","16.8","","41","","16","","15","","19.3","","100.00","","37","","","","Mainly Clear"
"2005-06-27 15:00","2005","06","27","15:00","31.5","","17.7","","44","","16","","13","","19.3","","99.97","","37","","","","Mainly Clear"
"2005-06-27 16:00","2005","06","27","16:00","31.3","","17.6","","44","","14","","15","","19.3","","99.90","","37","","","","Mostly Cloudy"
"2005-06-27 17:00","2005","06","27","17:00","31.2","","17.1","","43","","14","","19","","19.3","","99.86","","37","","","","Mostly Cloudy"
"2005-06-27 18:00","2005","06","27","18:00","30.0","","16.4","","44","","14","","17","","24.1","","99.81","","35","","","","Mostly Cloudy"
"2005-06-27 19:00","2005","06","27","19:00","27.6","","15.7","","48","","15","","15","","24.1","","99.83","","32","","","","Mostly Cloudy"
"2005-06-27 20:00","2005","06","27","20:00","25.0","","17.5","","63","","14","","4","","24.1","","99.82","","31","","","","Mostly Cloudy"
"2005-06-27 21:00","2005","06","27","21:00","25.4","","16.7","","59","","13","","4","","19.3","","99.83","","30","","","","Mostly Cloudy"
"2005-06-27 22:00","2005","06","27","22:00","24.7","","16.8","","61","","22","","4","","24.1","","99.80","","30","","","","Mostly Cloudy"
"2005-06-27 23:00","2005","06","27","23:00","25.1","","16.7","","60","","22","","4","","24.1","","99.77","","30","","","","Mostly Cloudy"
"2005-06-28 00:00","2005","06","28","00:00","25.1","","16.7","","60","","18","","4","","19.3","","99.72","","30","","","","Mostly Cloudy"
"2005-06-28 01:00","2005","06","28","01:00","24.4","","17.0","","63","","22","","4","","19.3","","99.66","","30","","","","Mainly Clear"
"2005-06-28 02:00","2005","06","28","02:00","24.0","","16.9","","65","","","","0","","19.3","","99.65","","29","","","","Mostly Cloudy"
"2005-06-28 03:00","2005","06","28","03:00","23.6","","17.0","","67","","","","0","","19.3","","99.65","","29","","","","Mainly Clear"
"2005-06-28 04:00","2005","06","28","04:00","23.5","","16.9","","66","","","","0","","16.1","","99.65","","29","","","","Mostly Cloudy"
"2005-06-28 05:00","2005","06","28","05:00","23.1","","16.4","","66","","","","0","","16.1","","99.65","","28","","","","Mostly Cloudy"
"2005-06-28 06:00","2005","06","28","06:00","23.7","","16.6","","64","","24","","4","","12.9","","99.66","","29","","","","Mostly Cloudy"
"2005-06-28 07:00","2005","06","28","07:00","24.1","","16.4","","62","","17","","7","","11.3","","99.67","","29","","","","Mostly Cloudy"
"2005-06-28 08:00","2005","06","28","08:00","25.2","","18.3","","66","","15","","9","","9.7","","99.65","","31","","","","Haze"
"2005-06-28 09:00","2005","06","28","09:00","27.5","","19.8","","63","","17","","9","","8.0","","99.59","","35","","","","Haze"
"2005-06-28 10:00","2005","06","28","10:00","28.0","","20.5","","64","","14","","9","","8.0","","99.56","","36","","","","Haze"
"2005-06-28 11:00","2005","06","28","11:00","28.9","","21.0","","62","","15","","11","","8.0","","99.54","","37","","","","Haze"
"2005-06-28 12:00","2005","06","28","12:00","31.0","","20.6","","54","","14","","22","","9.7","","99.49","","39","","","","Haze"
"2005-06-28 13:00","2005","06","28","13:00","29.7","","20.2","","57","","15","","15","","9.7","","99.46","","37","","","","Haze"
"2005-06-28 14:00","2005","06","28","14:00","32.8","","19.7","","46","","17","","20","","9.7","","99.36","","40","","","","Haze"
"2005-06-28 15:00","2005","06","28","15:00","32.0","","19.6","","48","","17","","20","","9.7","","99.24","","39","","","","Haze"
"2005-06-28 16:00","2005","06","28","16:00","33.6","","20.1","","45","","34","","11","","9.7","","99.21","","41","","","","Haze"
"2005-06-28 17:00","2005","06","28","17:00","33.5","","18.0","","40","","26","","11","","16.1","","99.16","","40","","","","Mostly Cloudy"
"2005-06-28 18:00","2005","06","28","18:00","31.7","","17.2","","42","","24","","26","","24.1","","99.20","","37","","","","Mostly Cloudy"
"2005-06-28 19:00","2005","06","28","19:00","26.9","","18.2","","59","","4","","17","","19.3","","99.29","","33","","","","Mostly Cloudy"
"2005-06-28 20:00","2005","06","28","20:00","26.6","","18.3","","60","","","","0","","19.3","","99.26","","33","","","","Mostly Cloudy"
"2005-06-28 21:00","2005","06","28","21:00","26.8","","18.1","","59","","22","","11","","19.3","","99.31","","33","","","","Mostly Cloudy"
"2005-06-28 22:00","2005","06","28","22:00","25.6","","18.1","","63","","25","","7","","16.1","","99.28","","32","","","","Mostly Cloudy"
"2005-06-28 23:00","2005","06","28","23:00","25.6","","19.2","","68","","25","","7","","11.3","","99.29","","33","","","","Cloudy"
"2005-06-29 00:00","2005","06","29","00:00","24.2","","19.8","","76","","25","","9","","9.7","","99.32","","32","","","","Haze"
"2005-06-29 01:00","2005","06","29","01:00","24.3","","20.1","","77","","27","","17","","9.7","","99.30","","32","","","","Haze"
"2005-06-29 02:00","2005","06","29","02:00","23.7","","20.0","","80","","29","","13","","6.4","","99.29","","31","","","","Haze"
"2005-06-29 03:00","2005","06","29","03:00","22.6","","19.2","","81","","28","","11","","6.4","","99.30","","30","","","","Haze"
"2005-06-29 04:00","2005","06","29","04:00","23.0","","18.3","","75","","31","","15","","8.0","","99.32","","29","","","","Haze"
"2005-06-29 05:00","2005","06","29","05:00","22.6","","17.8","","74","","30","","20","","9.7","","99.36","","28","","","","Haze"
"2005-06-29 06:00","2005","06","29","06:00","22.6","","17.9","","75","","28","","9","","8.0","","99.40","","29","","","","Haze"
"2005-06-29 07:00","2005","06","29","07:00","23.5","","18.0","","71","","30","","11","","11.3","","99.40","","30","","","","Mostly Cloudy"
"2005-06-29 08:00","2005","06","29","08:00","24.7","","18.1","","67","","35","","13","","12.9","","99.40","","31","","","","Mostly Cloudy"
"2005-06-29 09:00","2005","06","29","09:00","25.5","","18.3","","64","","3","","4","","11.3","","99.42","","32","","","","Mostly Cloudy"
"2005-06-29 10:00","2005","06","29","10:00","26.9","","19.2","","63","","36","","7","","11.3","","99.43","","34","","","","Mostly Cloudy"
"2005-06-29 11:00","2005","06","29","11:00","28.7","","19.4","","57","","1","","9","","12.9","","99.41","","36","","","","Mostly Cloudy"
"2005-06-29 12:00","2005","06","29","12:00","29.8","","20.2","","56","","34","","6","","12.9","","99.40","","38","","","","Mostly Cloudy"
"2005-06-29 13:00","2005","06","29","13:00","28.9","","19.7","","58","","14","","13","","11.3","","99.35","","36","","","","Mostly Cloudy"
"2005-06-29 14:00","2005","06","29","14:00","28.3","","19.5","","59","","18","","9","","12.9","","99.31","","35","","","","Thunderstorms"
"2005-06-29 15:00","2005","06","29","15:00","26.6","","18.2","","60","","23","","22","","16.1","","99.34","","33","","","","Mostly Cloudy"
"2005-06-29 16:00","2005","06","29","16:00","29.8","","19.0","","52","","7","","7","","16.1","","99.30","","37","","","","Mostly Cloudy"
"2005-06-29 17:00","2005","06","29","17:00","30.3","","18.1","","48","","2","","11","","16.1","","99.27","","36","","","","Mostly Cloudy"
"2005-06-29 18:00","2005","06","29","18:00","29.8","","17.6","","48","","1","","20","","24.1","","99.33","","36","","","","Mostly Cloudy"
"2005-06-29 19:00","2005","06","29","19:00","28.7","","19.4","","57","","2","","17","","24.1","","99.32","","36","","","","Mainly Clear"
"2005-06-29 20:00","2005","06","29","20:00","27.8","","19.1","","59","","1","","19","","24.1","","99.36","","35","","","","Mostly Cloudy"
"2005-06-29 21:00","2005","06","29","21:00","25.8","","18.8","","65","","36","","19","","24.1","","99.42","","32","","","","Mostly Cloudy"
"2005-06-29 22:00","2005","06","29","22:00","24.1","","19.0","","73","","36","","11","","24.1","","99.43","","31","","","","Mainly Clear"
"2005-06-29 23:00","2005","06","29","23:00","23.3","","19.1","","77","","36","","13","","24.1","","99.45","","30","","","","Mainly Clear"
"2005-06-30 00:00","2005","06","30","00:00","22.4","","18.6","","79","","1","","15","","24.1","","99.45","","29","","","","Mainly Clear"
"2005-06-30 01:00","2005","06","30","01:00","21.7","","18.3","","81","","36","","6","","24.1","","99.45","","28","","","","Mainly Clear"
"2005-06-30 02:00","2005","06","30","02:00","21.5","","18.0","","80","","2","","9","","24.1","","99.41","","28","","","","Clear"
"2005-06-30 03:00","2005","06","30","03:00","21.2","","18.2","","83","","3","","7","","24.1","","99.39","","27","","","","Clear"
"2005-06-30 04:00","2005","06","30","04:00","22.0","","18.6","","81","","12","","4","","24.1","","99.37","","28","","","","Clear"
"2005-06-30 05:00","2005","06","30","05:00","22.1","","18.3","","79","","10","","7","","24.1","","99.41","","28","","","","Mostly Cloudy"
"2005-06-30 06:00","2005","06","30","06:00","22.1","","17.9","","77","","10","","11","","19.3","","99.44","","28","","","","Mostly Cloudy"
"2005-06-30 07:00","2005","06","30","07:00","22.3","","18.6","","80","","12","","11","","19.3","","99.44","","29","","","","Mostly Cloudy"
"2005-06-30 08:00","2005","06","30","08:00","22.5","","19.6","","84","","12","","9","","9.7","","99.41","","30","","","","Haze"
"2005-06-30 09:00","2005","06","30","09:00","24.1","","20.1","","78","","11","","11","","11.3","","99.35","","32","","","","Mostly Cloudy"
"2005-06-30 10:00","2005","06","30","10:00","24.8","","20.1","","75","","14","","9","","12.9","","99.31","","32","","","","Mostly Cloudy"
"2005-06-30 11:00","2005","06","30","11:00","25.7","","20.5","","73","","13","","11","","9.7","","99.28","","34","","","","Haze"
"2005-06-30 12:00","2005","06","30","12:00","27.4","","20.4","","66","","14","","11","","11.3","","99.20","","35","","","","Mainly Clear"
"2005-06-30 13:00","2005","06","30","13:00","28.8","","21.2","","64","","14","","13","","11.3","","99.13","","37","","","","Mainly Clear"
"2005-06-30 14:00","2005","06","30","14:00","29.2","","21.4","","63","","15","","19","","11.3","","99.06","","38","","","","Mainly Clear"
"2005-06-30 15:00","2005","06","30","15:00","28.2","","21.3","","66","","13","","20","","9.7","","98.96","","37","","","","Haze"
"2005-06-30 16:00","2005","06","30","16:00","27.1","","20.8","","68","","13","","22","","9.7","","98.87","","35","","","","Haze"
"2005-06-30 17:00","2005","06","30","17:00","26.5","","20.8","","71","","12","","19","","12.9","","98.73","","35","","","","Mostly Cloudy"
"2005-06-30 18:00","2005","06","30","18:00","26.8","","20.1","","67","","14","","19","","19.3","","98.71","","34","","","","Mostly Cloudy"
"2005-06-30 19:00","2005","06","30","19:00","26.3","","20.5","","70","","16","","11","","14.5","","98.74","","34","","","","Mostly Cloudy"
"2005-06-30 20:00","2005","06","30","20:00","26.1","","20.9","","73","","16","","9","","14.5","","98.66","","34","","","","Mostly Cloudy"
"2005-06-30 21:00","2005","06","30","21:00","26.2","","20.6","","71","","20","","7","","16.1","","98.65","","34","","","","Mainly Clear"
"2005-06-30 22:00","2005","06","30","22:00","26.4","","19.2","","65","","23","","20","","19.3","","98.68","","33","","","","Clear"
"2005-06-30 23:00","2005","06","30","23:00","25.0","","19.9","","73","","23","","20","","19.3","","98.64","","32","","","","Mostly Cloudy"
