"Station Name","TORONTO INTL A"
"Province","ONTARIO"
"Latitude","43.68"
"Longitude","-79.63"
"Elevation","173.40"
"Climate Identifier","6158731"
"WMO Identifier","71624"
"TC Identifier","YYZ"
"All times are specified in Local Standard Time (LST). Add 1 hour to adjust for Daylight Saving Time where and when it is observed."

"Legend"
"E","Estimated"
"M","Missing"
"NA","Not Available"

"Date/Time","Year","Month","Day","Time","Temp (°C)","Temp Flag","Dew Point Temp (°C)","Dew Point Temp Flag","Rel Hum (%)","Rel Hum Flag","Wind Dir (10s deg)","Wind Dir Flag","Wind Spd (km/h)","Wind Spd Flag","Visibility (km)","Visibility Flag","Stn Press (kPa)","Stn Press Flag","Hmdx","Hmdx Flag","Wind Chill","Wind Chill Flag","Weather"
"2016-11-01 00:00","2016","11","01","00:00","6.5","","1.2","","69","","14","","16","","24.1","","100.00","","","","","","NA"
"2016-11-01 01:00","2016","11","01","01:00","6.3","","1.3","","70","","12","","15","","24.1","","99.94","","","","","","Mainly Clear"
"2016-11-01 02:00","2016","11","01","02:00","7.0","","2.5","","73","","15","","10","","24.1","","99.99","","","","","","NA"
"2016-11-01 03:00","2016","11","01","03:00","6.2","","3.2","","81","","12","","9","","24.1","","99.92","","","","","","NA"
"2016-11-01 04:00","2016","11","01","04:00","5.9","","3.4","","84","","13","","11","","24.1","","99.80","","","","","","Mainly Clear"
"2016-11-01 05:00","2016","11","01","05:00","6.6","","4.3","","85","","14","","10","","24.1","","99.78","","","","","","NA"
"2016-11-01 06:00","2016","11","01","06:00","6.6","","4.6","","87","","14","","10","","24.1","","99.75","","","","","","NA"
"2016-11-01 07:00","2016","11","01","07:00","7.6","","5.4","","86","","13","","6","","24.1","","99.73","","","","","","Mostly Cloudy"
"2016-11-01 08:00","2016","11","01","08:00","9.1","","6.2","","82","","15","","9","","24.1","","99.74","","","","","","NA"
"2016-11-01 09:00","2016","11","01","09:00","11.2","","6.4","","72","","15","","13","","24.1","","99.70","","","","","","NA"
"2016-11-01 10:00","2016","11","01","10:00","11.8","","6.1","","68","","15","","17","","24.1","","99.67","","","","","","Cloudy"
"2016-11-01 11:00","2016","11","01","11:00","11.7","","6.9","","72","","15","","16","","24.1","","99.60","","","","","","NA"
"2016-11-01 12:00","2016","11","01","12:00","12.3","","7.2","","71","","15","","9","","24.1","","99.55","","","","","","NA"
"2016-11-01 13:00","2016","11","01","13:00","13.1","","8.4","","73","","14","","14","","24.1","","99.43","","","","","","Mostly Cloudy"
"2016-11-01 14:00","2016","11","01","14:00","16.0","","10.6","","70","","14","","13","","24.1","","99.39","","","","","","NA"
"2016-11-01 15:00","2016","11","01","15:00","17.2","","11.1","","67","","14","","16","","24.1","","99.33","","","","","","NA"
"2016-11-01 16:00","2016","11","01","16:00","15.7","","11.3","","75","","13","","13","","24.1","","99.34","","","","","","Mostly Cloudy"
"2016-11-01 17:00","2016","11","01","17:00","14.5","","11.3","","81","","14","","12","","24.1","","99.34","","","","","","NA"
"2016-11-01 18:00","2016","11","01","18:00","14.6","","12.1","","85","","15","","11","","24.1","","99.40","","","","","","NA"
"2016-11-01 19:00","2016","11","01","19:00","14.9","","12.8","","87","","12","","7","","24.1","","99.44","","","","","","Mostly Cloudy"
"2016-11-01 20:00","2016","11","01","20:00","15.8","","13.1","","84","","18","","9","","24.1","","99.44","","","","","","NA"
"2016-11-01 21:00","2016","11","01","21:00","17.5","","13.9","","79","","21","","14","","24.1","","99.48","","","","","","NA"
"2016-11-01 22:00","2016","11","01","22:00","16.7","","13.8","","83","","18","","4","","24.1","","99.52","","","","","","Mostly Cloudy"
"2016-11-01 23:00","2016","11","01","23:00","15.1","","13.3","","89","","23","","4","","24.1","","99.57","","","","","","NA"
"2016-11-02 00:00","2016","11","02","00:00","14.8","","13.2","","90","","14","","6","","24.1","","99.60","","","","","","NA"
"2016-11-02 01:00","2016","11","02","01:00","15.0","","13.6","","91","","14","","4","","24.1","","99.67","","","","","","Mostly Cloudy"
"2016-11-02 02:00","2016","11","02","02:00","14.2","","13.1","","93","","36","","2","","24.1","","99.73","","","","","","NA"
"2016-11-02 03:00","2016","11","02","03:00","14.3","","13.2","","93","","34","","7","","24.1","","99.75","","","","","","NA"
"2016-11-02 04:00","2016","11","02","04:00","15.5","","13.4","","87","","32","","4","","24.1","","99.79","","","","","","Mostly Cloudy"
"2016-11-02 05:00","2016","11","02","05:00","14.5","","13.4","","93","","18","","6","","24.1","","99.88","","","","","","NA"
"2016-11-02 06:00","2016","11","02","06:00","14.7","","13.6","","93","","","","0","","24.1","","99.93","","","","","","NA"
"2016-11-02 07:00","2016","11","02","07:00","13.8","","12.4","","91","","36","","2","","9.7","","100.00","","","","","","Fog"
"2016-11-02 08:00","2016","11","02","08:00","15.3","","12.5","","83","","34","","14","","19.3","","100.11","","","","","","NA"
"2016-11-02 09:00","2016","11","02","09:00","15.3","","12.1","","81","","1","","14","","24.1","","100.04","","","","","","NA"
"2016-11-02 10:00","2016","11","02","10:00","15.1","","12.1","","82","","2","","13","","24.1","","100.05","","","","","","Rain"
"2016-11-02 11:00","2016","11","02","11:00","15.8","","11.0","","73","","36","","14","","24.1","","100.13","","","","","","NA"
"2016-11-02 12:00","2016","11","02","12:00","17.1","","9.8","","62","","4","","6","","24.1","","100.04","","","","","","NA"
"2016-11-02 13:00","2016","11","02","13:00","18.0","","10.0","","59","","34","","5","","24.1","","99.98","","","","","","Mostly Cloudy"
"2016-11-02 14:00","2016","11","02","14:00","17.9","","9.9","","59","","36","","1","","24.1","","99.97","","","","","","NA"
"2016-11-02 15:00","2016","11","02","15:00","16.1","","12.1","","77","","23","","7","","19.3","","99.99","","","","","","Rain"
"2016-11-02 16:00","2016","11","02","16:00","14.9","","11.1","","78","","1","","3","","24.1","","99.96","","","","","","Rain"
"2016-11-02 17:00","2016","11","02","17:00","14.3","","12.4","","88","","16","","9","","12.9","","99.95","","","","","","Rain"
"2016-11-02 18:00","2016","11","02","18:00","13.4","","12.5","","94","","26","","7","","19.3","","100.02","","","","","","Rain"
"2016-11-02 19:00","2016","11","02","19:00","13.6","","12.7","","94","","36","","1","","19.3","","99.95","","","","","","Rain"
"2016-11-02 20:00","2016","11","02","20:00","13.5","","12.6","","94","","36","","8","","16.1","","99.96","","","","","","Rain"
"2016-11-02 21:00","2016","11","02","21:00","13.3","","12.5","","95","","3","","9","","16.1","","99.88","","","","","","Rain"
"2016-11-02 22:00","2016","11","02","22:00","13.3","","12.4","","94","","36","","2","","16.1","","99.91","","","","","","Cloudy"
"2016-11-02 23:00","2016","11","02","23:00","13.1","","12.3","","95","","10","","4","","12.9","","99.78","","","","","","NA"
"2016-11-03 00:00","2016","11","03","00:00","12.6","","12.0","","96","","36","","2","","16.1","","99.75","","","","","","NA"
"2016-11-03 01:00","2016","11","03","01:00","11.9","","11.3","","96","","36","","5","","14.5","","99.64","","","","","","Cloudy"
"2016-11-03 02:00","2016","11","03","02:00","11.7","","11.1","","96","","31","","14","","12.9","","99.63","","","","","","Rain"
"2016-11-03 03:00","2016","11","03","03:00","11.2","","10.4","","95","","36","","17","","12.9","","99.52","","","","","","Rain"
"2016-11-03 04:00","2016","11","03","04:00","10.4","","9.6","","95","","2","","23","","6.4","","99.48","","","","","","Heavy Rain"
"2016-11-03 05:00","2016","11","03","05:00","10.2","","9.6","","96","","1","","16","","11.3","","99.54","","","","","","Moderate Rain"
"2016-11-03 06:00","2016","11","03","06:00","9.8","","8.9","","94","","36","","20","","12.9","","99.51","","","","","","Rain"
"2016-11-03 07:00","2016","11","03","07:00","9.3","","8.4","","94","","1","","17","","19.3","","99.48","","","","","","Rain"
"2016-11-03 08:00","2016","11","03","08:00","9.3","","7.9","","91","","33","","12","","24.1","","99.55","","","","","","NA"
"2016-11-03 09:00","2016","11","03","09:00","10.3","","8.7","","90","","34","","16","","24.1","","99.68","","","","","","NA"
"2016-11-03 10:00","2016","11","03","10:00","10.3","","7.6","","83","","35","","25","","24.1","","99.77","","","","","","Mostly Cloudy"
"2016-11-03 11:00","2016","11","03","11:00","11.0","","7.3","","78","","33","","22","","24.1","","99.75","","","","","","NA"
"2016-11-03 12:00","2016","11","03","12:00","12.6","","7.9","","73","","31","","18","","24.1","","99.71","","","","","","NA"
"2016-11-03 13:00","2016","11","03","13:00","13.4","","7.0","","65","","31","","24","","24.1","","99.68","","","","","","Mostly Cloudy"
"2016-11-03 14:00","2016","11","03","14:00","13.8","","5.7","","58","","32","","24","","24.1","","99.65","","","","","","NA"
"2016-11-03 15:00","2016","11","03","15:00","14.2","","5.6","","56","","32","","26","","24.1","","99.67","","","","","","NA"
"2016-11-03 16:00","2016","11","03","16:00","13.1","","7.4","","68","","36","","35","","24.1","","99.73","","","","","","Mostly Cloudy"
"2016-11-03 17:00","2016","11","03","17:00","11.3","","7.3","","76","","35","","21","","24.1","","99.79","","","","","","NA"
"2016-11-03 18:00","2016","11","03","18:00","10.8","","6.6","","75","","35","","20","","24.1","","99.87","","","","","","NA"
"2016-11-03 19:00","2016","11","03","19:00","10.0","","5.0","","71","","34","","28","","24.1","","99.94","","","","","","Mainly Clear"
"2016-11-03 20:00","2016","11","03","20:00","9.4","","5.0","","74","","35","","28","","24.1","","99.98","","","","","","NA"
"2016-11-03 21:00","2016","11","03","21:00","8.7","","5.1","","78","","34","","18","","24.1","","100.03","","","","","","NA"
"2016-11-03 22:00","2016","11","03","22:00","8.5","","4.5","","76","","34","","25","","24.1","","100.05","","","","","","Clear"
"2016-11-03 23:00","2016","11","03","23:00","7.7","","3.9","","77","","35","","24","","24.1","","100.14","","","","","","NA"
"2016-11-04 00:00","2016","11","04","00:00","6.9","","3.7","","80","","35","","26","","24.1","","100.22","","","","","","NA"
"2016-11-04 01:00","2016","11","04","01:00","6.2","","3.5","","83","","35","","20","","24.1","","100.27","","","","","","Clear"
"2016-11-04 02:00","2016","11","04","02:00","5.7","","3.2","","84","","34","","17","","24.1","","100.28","","","","","","NA"
"2016-11-04 03:00","2016","11","04","03:00","5.4","","3.3","","86","","33","","21","","24.1","","100.32","","","","","","NA"
"2016-11-04 04:00","2016","11","04","04:00","4.9","","2.9","","87","","33","","23","","24.1","","100.40","","","","","","Clear"
"2016-11-04 05:00","2016","11","04","05:00","4.6","","2.3","","85","","34","","16","","24.1","","100.45","","","","","","NA"
"2016-11-04 06:00","2016","11","04","06:00","3.9","","1.3","","83","","34","","9","","24.1","","100.44","","","","","","NA"
"2016-11-04 07:00","2016","11","04","07:00","4.3","","1.8","","84","","32","","12","","24.1","","100.54","","","","","","Mainly Clear"
"2016-11-04 08:00","2016","11","04","08:00","4.9","","1.6","","79","","32","","10","","24.1","","100.60","","","","","","NA"
"2016-11-04 09:00","2016","11","04","09:00","5.3","","1.1","","74","","33","","12","","24.1","","100.62","","","","","","NA"
"2016-11-04 10:00","2016","11","04","10:00","6.2","","1.5","","72","","33","","8","","24.1","","100.64","","","","","","Mainly Clear"
"2016-11-04 11:00","2016","11","04","11:00","8.0","","2.5","","68","","32","","7","","24.1","","100.65","","","","","","NA"
"2016-11-04 12:00","2016","11","04","12:00","9.1","","2.5","","63","","33","","11","","24.1","","100.62","","","","","","NA"
"2016-11-04 13:00","2016","11","04","13:00","10.4","","1.3","","53","","31","","18","","24.1","","100.47","","","","","","Mostly Cloudy"
"2016-11-04 14:00","2016","11","04","14:00","10.9","","2.0","","54","","28","","22","","24.1","","100.40","","","","","","NA"
"2016-11-04 15:00","2016","11","04","15:00","10.7","","2.6","","57","","28","","17","","24.1","","100.37","","","","","","NA"
"2016-11-04 16:00","2016","11","04","16:00","11.7","","2.8","","54","","31","","22","","24.1","","100.36","","","","","","Mostly Cloudy"
"2016-11-04 17:00","2016","11","04","17:00","10.4","","1.8","","55","","30","","23","","24.1","","100.35","","","","","","NA"
"2016-11-04 18:00","2016","11","04","18:00","8.9","","2.0","","62","","29","","22","","24.1","","100.37","","","","","","NA"
"2016-11-04 19:00","2016","11","04","19:00","8.0","","1.9","","65","","29","","17","","24.1","","100.37","","","","","","Clear"
"2016-11-04 20:00","2016","11","04","20:00","6.5","","1.6","","71","","27","","11","","24.1","","100.35","","","","","","NA"
"2016-11-04 21:00","2016","11","04","21:00","6.1","","1.8","","74","","24","","11","","24.1","","100.33","","","","","","NA"
"2016-11-04 22:00","2016","11","04","22:00","6.4","","2.9","","78","","24","","9","","24.1","","100.27","","","","","","Clear"
"2016-11-04 23:00","2016","11","04","23:00","6.1","","3.3","","82","","27","","7","","24.1","","100.21","","","","","","NA"
"2016-11-05 00:00","2016","11","05","00:00","7.1","","3.4","","77","","26","","19","","24.1","","100.14","","","","","","NA"
"2016-11-05 01:00","2016","11","05","01:00","7.8","","3.9","","76","","26","","29","","24.1","","100.09","","","","","","Clear"
"2016-11-05 02:00","2016","11","05","02:00","8.0","","4.6","","79","","27","","24","","24.1","","100.10","","","","","","NA"
"2016-11-05 03:00","2016","11","05","03:00","8.0","","4.8","","80","","27","","32","","24.1","","100.07","","","","","","NA"
"2016-11-05 04:00","2016","11","05","04:00","7.9","","5.0","","82","","30","","18","","24.1","","100.12","","","","","","Clear"
"2016-11-05 05:00","2016","11","05","05:00","7.2","","5.2","","87","","28","","16","","24.1","","100.16","","","","","","NA"
"2016-11-05 06:00","2016","11","05","06:00","7.7","","6.0","","89","","27","","22","","24.1","","100.15","","","","","","NA"
"2016-11-05 07:00","2016","11","05","07:00","7.4","","6.0","","91","","28","","10","","24.1","","100.18","","","","","","Mainly Clear"
"2016-11-05 08:00","2016","11","05","08:00","8.9","","7.2","","89","","28","","20","","24.1","","100.26","","","","","","NA"
"2016-11-05 09:00","2016","11","05","09:00","10.4","","8.0","","85","","29","","23","","24.1","","100.28","","","","","","NA"
"2016-11-05 10:00","2016","11","05","10:00","10.8","","8.2","","84","","28","","23","","24.1","","100.30","","","","","","Mostly Cloudy"
"2016-11-05 11:00","2016","11","05","11:00","12.0","","8.3","","78","","29","","21","","24.1","","100.26","","","","","","NA"
"2016-11-05 12:00","2016","11","05","12:00","13.0","","8.3","","73","","28","","25","","24.1","","100.20","","","","","","NA"
"2016-11-05 13:00","2016","11","05","13:00","14.0","","8.9","","71","","27","","21","","24.1","","100.15","","","","","","Mostly Cloudy"
"2016-11-05 14:00","2016","11","05","14:00","15.4","","8.5","","63","","28","","22","","24.1","","100.04","","","","","","NA"
"2016-11-05 15:00","2016","11","05","15:00","15.8","","8.1","","60","","28","","23","","24.1","","100.03","","","","","","NA"
"2016-11-05 16:00","2016","11","05","16:00","15.2","","7.8","","61","","28","","22","","24.1","","100.06","","","","","","Mainly Clear"
"2016-11-05 17:00","2016","11","05","17:00","13.5","","7.8","","68","","28","","15","","24.1","","100.05","","","","","","NA"
"2016-11-05 18:00","2016","11","05","18:00","12.0","","7.7","","75","","28","","13","","24.1","","100.06","","","","","","NA"
"2016-11-05 19:00","2016","11","05","19:00","11.7","","8.2","","79","","28","","19","","24.1","","100.11","","","","","","Clear"
"2016-11-05 20:00","2016","11","05","20:00","11.3","","7.8","","79","","31","","15","","24.1","","100.22","","","","","","NA"
"2016-11-05 21:00","2016","11","05","21:00","10.5","","7.6","","82","","30","","15","","24.1","","100.23","","","","","","NA"
"2016-11-05 22:00","2016","11","05","22:00","10.0","","7.1","","82","","32","","15","","24.1","","100.29","","","","","","Mainly Clear"
"2016-11-05 23:00","2016","11","05","23:00","9.6","","6.9","","83","","33","","15","","24.1","","100.34","","","","","","NA"
"2016-11-06 00:00","2016","11","06","00:00","8.2","","6.3","","88","","32","","16","","24.1","","100.37","","","","","","NA"
"2016-11-06 01:00","2016","11","06","01:00","8.1","","5.6","","84","","32","","15","","24.1","","100.39","","","","","","Clear"
"2016-11-06 02:00","2016","11","06","02:00","7.7","","5.4","","85","","32","","17","","24.1","","100.45","","","","","","NA"
"2016-11-06 03:00","2016","11","06","03:00","7.1","","4.8","","85","","32","","17","","24.1","","100.52","","","","","","NA"
"2016-11-06 04:00","2016","11","06","04:00","7.8","","4.8","","81","","33","","16","","24.1","","100.54","","","","","","Clear"
"2016-11-06 05:00","2016","11","06","05:00","6.8","","3.6","","80","","34","","10","","24.1","","100.61","","","","","","NA"
"2016-11-06 06:00","2016","11","06","06:00","6.4","","3.0","","79","","34","","15","","24.1","","100.69","","","","","","NA"
"2016-11-06 07:00","2016","11","06","07:00","6.4","","2.3","","75","","35","","16","","24.1","","100.73","","","","","","Mainly Clear"
"2016-11-06 08:00","2016","11","06","08:00","6.5","","2.0","","73","","1","","11","","24.1","","100.83","","","","","","NA"
"2016-11-06 09:00","2016","11","06","09:00","7.4","","2.1","","69","","8","","5","","24.1","","100.89","","","","","","NA"
"2016-11-06 10:00","2016","11","06","10:00","9.1","","1.5","","59","","36","","8","","24.1","","100.96","","","","","","Mainly Clear"
"2016-11-06 11:00","2016","11","06","11:00","10.6","","0.9","","51","","6","","3","","24.1","","100.91","","","","","","NA"
"2016-11-06 12:00","2016","11","06","12:00","11.3","","-0.2","","45","","12","","3","","24.1","","100.88","","","","","","NA"
"2016-11-06 13:00","2016","11","06","13:00","12.0","","0.8","","46","","36","","3","","24.1","","100.85","","","","","","Mainly Clear"
"2016-11-06 14:00","2016","11","06","14:00","12.2","","2.7","","52","","16","","10","","24.1","","100.83","","","","","","NA"
"2016-11-06 15:00","2016","11","06","15:00","12.0","","3.3","","55","","17","","10","","24.1","","100.79","","","","","","NA"
"2016-11-06 16:00","2016","11","06","16:00","11.3","","3.9","","60","","18","","12","","24.1","","100.80","","","","","","Mainly Clear"
"2016-11-06 17:00","2016","11","06","17:00","9.8","","3.6","","65","","16","","7","","24.1","","100.79","","","","","","NA"
"2016-11-06 18:00","2016","11","06","18:00","8.9","","2.7","","65","","17","","7","","24.1","","100.83","","","","","","NA"
"2016-11-06 19:00","2016","11","06","19:00","9.2","","1.9","","60","","17","","5","","24.1","","100.86","","","","","","Clear"
"2016-11-06 20:00","2016","11","06","20:00","8.9","","2.0","","62","","17","","4","","24.1","","100.84","","","","","","NA"
"2016-11-06 21:00","2016","11","06","21:00","7.7","","1.6","","65","","27","","4","","24.1","","100.86","","","","","","NA"
"2016-11-06 22:00","2016","11","06","22:00","7.2","","1.9","","69","","30","","4","","24.1","","100.88","","","","","","Clear"
"2016-11-06 23:00","2016","11","06","23:00","6.7","","1.8","","71","","34","","4","","24.1","","100.88","","","","","","NA"
"2016-11-07 00:00","2016","11","07","00:00","6.5","","2.0","","73","","10","","4","","24.1","","100.89","","","","","","NA"
"2016-11-07 01:00","2016","11","07","01:00","4.6","","0.9","","77","","30","","5","","24.1","","100.89","","","","","","Clear"
"2016-11-07 02:00","2016","11","07","02:00","4.5","","2.4","","86","","0","","1","","24.1","","100.91","","","","","","NA"
"2016-11-07 03:00","2016","11","07","03:00","3.9","","1.1","","82","","33","","4","","24.1","","100.89","","","","","","NA"
"2016-11-07 04:00","2016","11","07","04:00","3.8","","1.4","","84","","4","","6","","24.1","","100.87","","","","","","Clear"
"2016-11-07 05:00","2016","11","07","05:00","2.6","","0.3","","85","","31","","5","","24.1","","100.90","","","","","","NA"
"2016-11-07 06:00","2016","11","07","06:00","3.0","","0.9","","86","","31","","3","","24.1","","100.94","","","","","","NA"
"2016-11-07 07:00","2016","11","07","07:00","1.4","","-0.5","","87","","36","","3","","16.1","","100.96","","","","","","Mainly Clear"
"2016-11-07 08:00","2016","11","07","08:00","3.6","","1.3","","85","","32","","4","","19.3","","101.01","","","","","","NA"
"2016-11-07 09:00","2016","11","07","09:00","8.2","","4.6","","78","","36","","1","","24.1","","101.02","","","","","","NA"
"2016-11-07 10:00","2016","11","07","10:00","11.1","","5.9","","70","","36","","3","","24.1","","100.98","","","","","","Clear"
"2016-11-07 11:00","2016","11","07","11:00","13.6","","6.5","","62","","20","","8","","24.1","","100.94","","","","","","NA"
"2016-11-07 12:00","2016","11","07","12:00","14.3","","7.4","","63","","13","","8","","24.1","","100.87","","","","","","NA"
"2016-11-07 13:00","2016","11","07","13:00","14.8","","8.1","","64","","15","","12","","24.1","","100.80","","","","","","Clear"
"2016-11-07 14:00","2016","11","07","14:00","14.7","","8.0","","64","","14","","10","","24.1","","100.75","","","","","","NA"
"2016-11-07 15:00","2016","11","07","15:00","14.7","","7.6","","62","","15","","14","","24.1","","100.72","","","","","","NA"
"2016-11-07 16:00","2016","11","07","16:00","14.0","","6.9","","62","","16","","11","","24.1","","100.67","","","","","","Clear"
"2016-11-07 17:00","2016","11","07","17:00","12.9","","7.4","","69","","16","","9","","24.1","","100.63","","","","","","NA"
"2016-11-07 18:00","2016","11","07","18:00","11.7","","8.2","","79","","14","","8","","24.1","","100.62","","","","","","NA"
"2016-11-07 19:00","2016","11","07","19:00","11.0","","8.9","","87","","14","","9","","24.1","","100.59","","","","","","Clear"
"2016-11-07 20:00","2016","11","07","20:00","10.8","","9.6","","92","","15","","8","","24.1","","100.53","","","","","","NA"
"2016-11-07 21:00","2016","11","07","21:00","10.5","","9.4","","93","","14","","5","","24.1","","100.49","","","","","","NA"
"2016-11-07 22:00","2016","11","07","22:00","9.9","","9.3","","96","","13","","6","","24.1","","100.43","","","","","","Clear"
"2016-11-07 23:00","2016","11","07","23:00","8.2","","7.5","","95","","36","","2","","24.1","","100.37","","","","","","NA"
"2016-11-08 00:00","2016","11","08","00:00","8.3","","7.7","","96","","36","","2","","16.1","","100.33","","","","","","NA"
"2016-11-08 01:00","2016","11","08","01:00","5.1","","4.5","","96","","28","","4","","24.1","","100.29","","","","","","Clear"
"2016-11-08 02:00","2016","11","08","02:00","6.0","","5.4","","96","","36","","1","","24.1","","100.24","","","","","","NA"
"2016-11-08 03:00","2016","11","08","03:00","6.9","","4.9","","87","","14","","3","","24.1","","100.16","","","","","","NA"
"2016-11-08 04:00","2016","11","08","04:00","7.3","","4.6","","83","","16","","4","","24.1","","100.09","","","","","","Clear"
"2016-11-08 05:00","2016","11","08","05:00","7.7","","4.1","","78","","15","","6","","24.1","","100.04","","","","","","NA"
"2016-11-08 06:00","2016","11","08","06:00","8.0","","4.6","","79","","13","","6","","24.1","","99.98","","","","","","NA"
"2016-11-08 07:00","2016","11","08","07:00","8.4","","5.4","","81","","15","","4","","16.1","","99.96","","","","","","Mostly Cloudy"
"2016-11-08 08:00","2016","11","08","08:00","8.9","","5.7","","80","","15","","7","","24.1","","99.92","","","","","","NA"
"2016-11-08 09:00","2016","11","08","09:00","9.0","","6.1","","82","","25","","5","","16.1","","99.87","","","","","","NA"
"2016-11-08 10:00","2016","11","08","10:00","11.8","","7.7","","76","","27","","7","","24.1","","99.79","","","","","","Mostly Cloudy"
"2016-11-08 11:00","2016","11","08","11:00","14.1","","9.0","","71","","24","","11","","24.1","","99.72","","","","","","NA"
"2016-11-08 12:00","2016","11","08","12:00","15.1","","8.2","","63","","22","","12","","24.1","","99.62","","","","","","NA"
"2016-11-08 13:00","2016","11","08","13:00","15.8","","7.6","","58","","21","","15","","24.1","","99.54","","","","","","Cloudy"
"2016-11-08 14:00","2016","11","08","14:00","15.8","","7.9","","59","","22","","16","","24.1","","99.45","","","","","","NA"
"2016-11-08 15:00","2016","11","08","15:00","15.7","","7.8","","59","","21","","14","","19.3","","99.39","","","","","","NA"
"2016-11-08 16:00","2016","11","08","16:00","14.7","","8.7","","67","","23","","16","","24.1","","99.38","","","","","","Cloudy"
"2016-11-08 17:00","2016","11","08","17:00","13.0","","10.2","","83","","26","","18","","16.1","","99.37","","","","","","Rain"
"2016-11-08 18:00","2016","11","08","18:00","12.1","","10.5","","90","","26","","14","","19.3","","99.38","","","","","","Rain"
"2016-11-08 19:00","2016","11","08","19:00","11.7","","10.6","","93","","26","","12","","6.4","","99.37","","","","","","Rain,Fog"
"2016-11-08 20:00","2016","11","08","20:00","11.3","","10.2","","93","","28","","13","","6.4","","99.37","","","","","","Rain,Fog"
"2016-11-08 21:00","2016","11","08","21:00","11.2","","10.0","","92","","28","","9","","9.7","","99.33","","","","","","Fog"
"2016-11-08 22:00","2016","11","08","22:00","11.2","","10.0","","92","","29","","12","","9.7","","99.33","","","","","","Fog"
"2016-11-08 23:00","2016","11","08","23:00","11.2","","9.6","","90","","32","","16","","12.9","","99.31","","","","","","NA"
"2016-11-09 00:00","2016","11","09","00:00","10.8","","9.2","","90","","32","","17","","16.1","","99.29","","","","","","NA"
"2016-11-09 01:00","2016","11","09","01:00","10.8","","8.7","","87","","32","","20","","16.1","","99.27","","","","","","Mostly Cloudy"
"2016-11-09 02:00","2016","11","09","02:00","10.5","","8.6","","88","","34","","36","","24.1","","99.29","","","","","","NA"
"2016-11-09 03:00","2016","11","09","03:00","8.0","","6.3","","89","","34","","32","","24.1","","99.37","","","","","","NA"
"2016-11-09 04:00","2016","11","09","04:00","7.2","","4.4","","82","","36","","36","","24.1","","99.47","","","","","","Mostly Cloudy"
"2016-11-09 05:00","2016","11","09","05:00","6.4","","3.6","","82","","34","","32","","24.1","","99.53","","","","","","NA"
"2016-11-09 06:00","2016","11","09","06:00","6.0","","2.5","","78","","36","","33","","24.1","","99.58","","","","","","NA"
"2016-11-09 07:00","2016","11","09","07:00","6.0","","1.9","","75","","36","","31","","24.1","","99.65","","","","","","Cloudy"
"2016-11-09 08:00","2016","11","09","08:00","6.2","","2.1","","75","","34","","24","","24.1","","99.74","","","","","","NA"
"2016-11-09 09:00","2016","11","09","09:00","5.9","","1.3","","72","","35","","33","","24.1","","99.78","","","","","","NA"
"2016-11-09 10:00","2016","11","09","10:00","5.8","","0.8","","70","","35","","36","","24.1","","99.83","","","","","","Mostly Cloudy"
"2016-11-09 11:00","2016","11","09","11:00","5.8","","1.0","","71","","36","","34","","24.1","","99.87","","","","","","NA"
"2016-11-09 12:00","2016","11","09","12:00","5.5","","0.3","","69","","35","","32","","24.1","","99.81","","","","","","NA"
"2016-11-09 13:00","2016","11","09","13:00","6.7","","-0.1","","62","","33","","27","","24.1","","99.75","","","","","","Mostly Cloudy"
"2016-11-09 14:00","2016","11","09","14:00","6.7","","-0.1","","62","","34","","25","","24.1","","99.74","","","","","","NA"
"2016-11-09 15:00","2016","11","09","15:00","6.6","","-0.6","","60","","35","","28","","24.1","","99.77","","","","","","NA"
"2016-11-09 16:00","2016","11","09","16:00","6.2","","-1.0","","60","","35","","27","","24.1","","99.77","","","","","","Mainly Clear"
"2016-11-09 17:00","2016","11","09","17:00","5.3","","-1.0","","64","","35","","28","","24.1","","99.80","","","","","","NA"
"2016-11-09 18:00","2016","11","09","18:00","4.5","","-0.9","","68","","34","","19","","24.1","","99.93","","","","","","NA"
"2016-11-09 19:00","2016","11","09","19:00","4.1","","-0.3","","73","","32","","18","","24.1","","99.94","","","","","","Mostly Cloudy"
"2016-11-09 20:00","2016","11","09","20:00","3.8","","-0.4","","74","","30","","12","","24.1","","99.96","","","","","","NA"
"2016-11-09 21:00","2016","11","09","21:00","2.8","","-0.7","","78","","27","","10","","24.1","","99.94","","","","","","NA"
"2016-11-09 22:00","2016","11","09","22:00","2.2","","-1.1","","79","","27","","7","","24.1","","99.96","","","","","","Clear"
"2016-11-09 23:00","2016","11","09","23:00","1.3","","-1.4","","82","","26","","8","","24.1","","99.94","","","","","","NA"
"2016-11-10 00:00","2016","11","10","00:00","1.2","","-1.2","","84","","24","","8","","24.1","","99.89","","","","","","NA"
"2016-11-10 01:00","2016","11","10","01:00","1.1","","-1.0","","86","","23","","8","","24.1","","99.82","","","","","","Mainly Clear"
"2016-11-10 02:00","2016","11","10","02:00","1.3","","-0.8","","86","","23","","6","","24.1","","99.79","","","","","","NA"
"2016-11-10 03:00","2016","11","10","03:00","0.5","","-1.4","","87","","21","","8","","24.1","","99.75","","","","","","NA"
"2016-11-10 04:00","2016","11","10","04:00","1.2","","-0.6","","88","","18","","4","","24.1","","99.70","","","","","","Clear"
"2016-11-10 05:00","2016","11","10","05:00","1.2","","-0.4","","89","","18","","9","","24.1","","99.60","","","","","","NA"
"2016-11-10 06:00","2016","11","10","06:00","1.8","","0.0","","88","","21","","13","","24.1","","99.55","","","","","","NA"
"2016-11-10 07:00","2016","11","10","07:00","2.2","","0.4","","88","","24","","14","","19.3","","99.46","","","","","","Mostly Cloudy"
"2016-11-10 08:00","2016","11","10","08:00","3.3","","1.2","","86","","25","","12","","24.1","","99.43","","","","","","NA"
"2016-11-10 09:00","2016","11","10","09:00","7.3","","2.8","","73","","21","","12","","24.1","","99.28","","","","","","NA"
"2016-11-10 10:00","2016","11","10","10:00","10.1","","2.5","","59","","24","","22","","24.1","","99.18","","","","","","Mostly Cloudy"
"2016-11-10 11:00","2016","11","10","11:00","12.9","","2.8","","50","","23","","20","","24.1","","99.06","","","","","","NA"
"2016-11-10 12:00","2016","11","10","12:00","14.1","","1.8","","43","","24","","33","","24.1","","98.90","","","","","","NA"
"2016-11-10 13:00","2016","11","10","13:00","15.6","","1.4","","38","","24","","37","","24.1","","98.78","","","","","","Mainly Clear"
"2016-11-10 14:00","2016","11","10","14:00","16.4","","1.0","","35","","24","","32","","24.1","","98.65","","","","","","NA"
"2016-11-10 15:00","2016","11","10","15:00","16.3","","0.9","","35","","24","","35","","24.1","","98.55","","","","","","NA"
"2016-11-10 16:00","2016","11","10","16:00","14.4","","2.4","","44","","21","","33","","24.1","","98.49","","","","","","Mainly Clear"
"2016-11-10 17:00","2016","11","10","17:00","12.5","","4.3","","57","","21","","23","","24.1","","98.43","","","","","","NA"
"2016-11-10 18:00","2016","11","10","18:00","11.8","","4.3","","60","","23","","33","","24.1","","98.41","","","","","","NA"
"2016-11-10 19:00","2016","11","10","19:00","11.2","","3.5","","59","","24","","38","","24.1","","98.35","","","","","","Clear"
"2016-11-10 20:00","2016","11","10","20:00","11.2","","2.5","","55","","25","","32","","24.1","","98.32","","","","","","NA"
"2016-11-10 21:00","2016","11","10","21:00","11.4","","1.9","","52","","25","","28","","24.1","","98.30","","","","","","NA"
"2016-11-10 22:00","2016","11","10","22:00","11.4","","1.4","","50","","27","","27","","24.1","","98.28","","","","","","Clear"
"2016-11-10 23:00","2016","11","10","23:00","11.6","","2.7","","54","","26","","29","","24.1","","98.27","","","","","","NA"
"2016-11-11 00:00","2016","11","11","00:00","10.3","","3.4","","62","","25","","25","","24.1","","98.21","","","","","","NA"
"2016-11-11 01:00","2016","11","11","01:00","10.5","","4.9","","68","","27","","23","","24.1","","98.27","","","","","","Mainly Clear"
"2016-11-11 02:00","2016","11","11","02:00","11.7","","6.2","","69","","30","","25","","24.1","","98.38","","","","","","NA"
"2016-11-11 03:00","2016","11","11","03:00","10.1","","4.3","","67","","34","","35","","24.1","","98.56","","","","","","NA"
"2016-11-11 04:00","2016","11","11","04:00","9.4","","3.2","","65","","33","","34","","24.1","","98.69","","","","","","Clear"
"2016-11-11 05:00","2016","11","11","05:00","8.6","","3.3","","69","","32","","35","","24.1","","98.88","","","","","","Rain"
"2016-11-11 06:00","2016","11","11","06:00","7.6","","2.5","","70","","33","","39","","24.1","","99.03","","","","","","NA"
"2016-11-11 07:00","2016","11","11","07:00","5.9","","-1.0","","61","","34","","33","","24.1","","99.19","","","","","","Mainly Clear"
"2016-11-11 08:00","2016","11","11","08:00","5.9","","-1.7","","58","","34","","27","","24.1","","99.31","","","","","","NA"
"2016-11-11 09:00","2016","11","11","09:00","5.6","","-3.0","","54","","34","","40","","24.1","","99.45","","","","","","NA"
"2016-11-11 10:00","2016","11","11","10:00","5.2","","-3.9","","52","","35","","45","","24.1","","99.61","","","","","","Mostly Cloudy"
"2016-11-11 11:00","2016","11","11","11:00","5.9","","-3.5","","51","","34","","35","","24.1","","99.73","","","","","","NA"
"2016-11-11 12:00","2016","11","11","12:00","5.9","","-4.0","","49","","34","","34","","24.1","","99.80","","","","","","NA"
"2016-11-11 13:00","2016","11","11","13:00","6.1","","-4.7","","46","","34","","30","","24.1","","99.88","","","","","","Mostly Cloudy"
"2016-11-11 14:00","2016","11","11","14:00","5.2","","-6.1","","44","","34","","37","","24.1","","99.97","","","","","","NA"
"2016-11-11 15:00","2016","11","11","15:00","5.1","","-5.9","","45","","33","","36","","24.1","","100.06","","","","","","NA"
"2016-11-11 16:00","2016","11","11","16:00","3.9","","-6.7","","46","","34","","34","","24.1","","100.19","","","","","","Mostly Cloudy"
"2016-11-11 17:00","2016","11","11","17:00","3.5","","-7.6","","44","","35","","30","","24.1","","100.32","","","","","","NA"
"2016-11-11 18:00","2016","11","11","18:00","2.8","","-7.4","","47","","35","","17","","24.1","","100.42","","","","","","NA"
"2016-11-11 19:00","2016","11","11","19:00","2.4","","-7.0","","50","","34","","14","","24.1","","100.52","","","","","","Mainly Clear"
"2016-11-11 20:00","2016","11","11","20:00","1.8","","-6.6","","54","","33","","15","","24.1","","100.58","","","","","","NA"
"2016-11-11 21:00","2016","11","11","21:00","1.4","","-6.7","","55","","31","","14","","24.1","","100.65","","","","","","NA"
"2016-11-11 22:00","2016","11","11","22:00","1.4","","-6.7","","55","","31","","13","","24.1","","100.67","","","","","","Clear"
"2016-11-11 23:00","2016","11","11","23:00","1.1","","-7.0","","55","","32","","14","","24.1","","100.66","","","","","","NA"
"2016-11-12 00:00","2016","11","12","00:00","0.9","","-6.0","","60","","31","","8","","24.1","","100.65","","","","","","NA"
"2016-11-12 01:00","2016","11","12","01:00","0.9","","-7.2","","55","","32","","9","","24.1","","100.69","","","","","","Clear"
"2016-11-12 02:00","2016","11","12","02:00","-1.1","","-6.3","","68","","27","","8","","24.1","","100.71","","","","-4","","NA"
"2016-11-12 03:00","2016","11","12","03:00","-2.1","","-6.3","","73","","27","","8","","24.1","","100.70","","","","-5","","NA"
"2016-11-12 04:00","2016","11","12","04:00","-1.4","","-5.6","","73","","23","","8","","24.1","","100.69","","","","-4","","Mainly Clear"
"2016-11-12 05:00","2016","11","12","05:00","-2.2","","-5.9","","76","","25","","4","","24.1","","100.69","","","","-4","","NA"
"2016-11-12 06:00","2016","11","12","06:00","-2.4","","-5.7","","78","","25","","7","","24.1","","100.70","","","","-5","","NA"
"2016-11-12 07:00","2016","11","12","07:00","-1.8","","-5.7","","75","","21","","7","","24.1","","100.71","","","","-4","","Mainly Clear"
"2016-11-12 08:00","2016","11","12","08:00","-1.4","","-4.8","","78","","24","","14","","24.1","","100.77","","","","-6","","NA"
"2016-11-12 09:00","2016","11","12","09:00","0.3","","-4.2","","72","","27","","12","","24.1","","100.77","","","","","","NA"
"2016-11-12 10:00","2016","11","12","10:00","4.2","","-3.3","","58","","24","","18","","24.1","","100.72","","","","","","Mainly Clear"
"2016-11-12 11:00","2016","11","12","11:00","6.4","","-1.7","","56","","24","","18","","24.1","","100.65","","","","","","NA"
"2016-11-12 12:00","2016","11","12","12:00","8.0","","-1.5","","51","","26","","23","","24.1","","100.53","","","","","","NA"
"2016-11-12 13:00","2016","11","12","13:00","9.0","","-0.6","","51","","26","","27","","24.1","","100.38","","","","","","Mostly Cloudy"
"2016-11-12 14:00","2016","11","12","14:00","9.4","","-1.6","","46","","26","","27","","24.1","","100.29","","","","","","NA"
"2016-11-12 15:00","2016","11","12","15:00","9.5","","-3.8","","39","","26","","33","","24.1","","100.22","","","","","","NA"
"2016-11-12 16:00","2016","11","12","16:00","8.7","","-3.2","","43","","25","","35","","24.1","","100.17","","","","","","Mainly Clear"
"2016-11-12 17:00","2016","11","12","17:00","7.0","","-3.5","","47","","24","","27","","24.1","","100.11","","","","","","NA"
"2016-11-12 18:00","2016","11","12","18:00","6.3","","-3.4","","50","","24","","26","","24.1","","100.06","","","","","","NA"
"2016-11-12 19:00","2016","11","12","19:00","6.2","","-2.9","","52","","24","","32","","24.1","","100.00","","","","","","Mostly Cloudy"
"2016-11-12 20:00","2016","11","12","20:00","6.0","","-2.6","","54","","25","","31","","24.1","","99.96","","","","","","NA"
"2016-11-12 21:00","2016","11","12","21:00","6.0","","-2.6","","54","","25","","28","","24.1","","99.93","","","","","","NA"
"2016-11-12 22:00","2016","11","12","22:00","5.9","","-2.7","","54","","25","","21","","24.1","","99.90","","","","","","Mostly Cloudy"
"2016-11-12 23:00","2016","11","12","23:00","5.2","","-2.6","","57","","24","","23","","24.1","","99.83","","","","","","NA"
"2016-11-13 00:00","2016","11","13","00:00","5.5","","-3.1","","54","","24","","18","","24.1","","99.77","","","","","","NA"
"2016-11-13 01:00","2016","11","13","01:00","4.9","","-2.9","","57","","26","","24","","24.1","","99.77","","","","","","Mainly Clear"
"2016-11-13 02:00","2016","11","13","02:00","4.5","","-2.4","","61","","29","","19","","24.1","","99.80","","","","","","NA"
"2016-11-13 03:00","2016","11","13","03:00","3.3","","-2.2","","67","","28","","12","","24.1","","99.83","","","","","","NA"
"2016-11-13 04:00","2016","11","13","04:00","3.5","","-1.9","","68","","28","","19","","24.1","","99.80","","","","","","Mainly Clear"
"2016-11-13 05:00","2016","11","13","05:00","2.2","","-1.8","","75","","23","","13","","24.1","","99.81","","","","","","NA"
"2016-11-13 06:00","2016","11","13","06:00","1.9","","-2.3","","74","","23","","7","","24.1","","99.79","","","","","","NA"
"2016-11-13 07:00","2016","11","13","07:00","1.3","","-2.5","","76","","20","","4","","24.1","","99.81","","","","","","Clear"
"2016-11-13 08:00","2016","11","13","08:00","1.8","","-1.8","","77","","24","","4","","24.1","","99.79","","","","","","NA"
"2016-11-13 09:00","2016","11","13","09:00","4.7","","0.8","","76","","25","","15","","24.1","","99.79","","","","","","NA"
"2016-11-13 10:00","2016","11","13","10:00","7.4","","1.9","","68","","27","","28","","24.1","","99.75","","","","","","Clear"
"2016-11-13 11:00","2016","11","13","11:00","9.3","","2.0","","60","","25","","35","","24.1","","99.70","","","","","","NA"
"2016-11-13 12:00","2016","11","13","12:00","10.9","","2.5","","56","","23","","27","","24.1","","99.60","","","","","","NA"
"2016-11-13 13:00","2016","11","13","13:00","11.6","","1.6","","50","","23","","34","","24.1","","99.51","","","","","","Clear"
"2016-11-13 14:00","2016","11","13","14:00","12.0","","1.1","","47","","24","","31","","24.1","","99.44","","","","","","NA"
"2016-11-13 15:00","2016","11","13","15:00","12.4","","-0.4","","41","","25","","30","","24.1","","99.38","","","","","","NA"
"2016-11-13 16:00","2016","11","13","16:00","11.7","","-1.4","","40","","24","","31","","24.1","","99.38","","","","","","Clear"
"2016-11-13 17:00","2016","11","13","17:00","10.3","","-1.1","","45","","22","","21","","24.1","","99.35","","","","","","NA"
"2016-11-13 18:00","2016","11","13","18:00","9.4","","1.3","","57","","22","","21","","24.1","","99.34","","","","","","NA"
"2016-11-13 19:00","2016","11","13","19:00","8.5","","1.7","","62","","23","","27","","24.1","","99.34","","","","","","Clear"
"2016-11-13 20:00","2016","11","13","20:00","7.9","","0.2","","58","","23","","27","","24.1","","99.33","","","","","","NA"
"2016-11-13 21:00","2016","11","13","21:00","7.4","","-1.5","","53","","23","","30","","24.1","","99.30","","","","","","NA"
"2016-11-13 22:00","2016","11","13","22:00","7.3","","-2.7","","49","","23","","24","","24.1","","99.30","","","","","","Clear"
"2016-11-13 23:00","2016","11","13","23:00","7.2","","-3.1","","48","","23","","22","","24.1","","99.30","","","","","","NA"
"2016-11-14 00:00","2016","11","14","00:00","7.0","","-3.5","","47","","23","","23","","24.1","","99.32","","","","","","NA"
"2016-11-14 01:00","2016","11","14","01:00","6.4","","-3.3","","50","","23","","20","","24.1","","99.31","","","","","","Mainly Clear"
"2016-11-14 02:00","2016","11","14","02:00","6.5","","-3.2","","50","","23","","20","","24.1","","99.32","","","","","","NA"
"2016-11-14 03:00","2016","11","14","03:00","5.4","","-3.2","","54","","24","","16","","24.1","","99.32","","","","","","NA"
"2016-11-14 04:00","2016","11","14","04:00","4.5","","-3.1","","58","","24","","9","","24.1","","99.31","","","","","","Mainly Clear"
"2016-11-14 05:00","2016","11","14","05:00","3.6","","-2.8","","63","","24","","19","","24.1","","99.32","","","","","","NA"
"2016-11-14 06:00","2016","11","14","06:00","4.4","","-2.5","","61","","24","","19","","24.1","","99.28","","","","","","NA"
"2016-11-14 07:00","2016","11","14","07:00","4.0","","-2.4","","63","","24","","10","","24.1","","99.30","","","","","","Mainly Clear"
"2016-11-14 08:00","2016","11","14","08:00","4.4","","-1.6","","65","","25","","12","","24.1","","99.34","","","","","","NA"
"2016-11-14 09:00","2016","11","14","09:00","6.1","","-1.1","","60","","26","","14","","24.1","","99.35","","","","","","NA"
"2016-11-14 10:00","2016","11","14","10:00","8.4","","0.4","","57","","25","","12","","24.1","","99.35","","","","","","Mainly Clear"
"2016-11-14 11:00","2016","11","14","11:00","10.1","","1.0","","53","","27","","14","","24.1","","99.33","","","","","","NA"
"2016-11-14 12:00","2016","11","14","12:00","11.6","","1.9","","51","","24","","9","","24.1","","99.29","","","","","","NA"
"2016-11-14 13:00","2016","11","14","13:00","12.5","","2.1","","49","","23","","11","","24.1","","99.23","","","","","","Mainly Clear"
"2016-11-14 14:00","2016","11","14","14:00","13.4","","1.8","","45","","21","","16","","24.1","","99.21","","","","","","NA"
"2016-11-14 15:00","2016","11","14","15:00","13.9","","1.6","","43","","22","","18","","24.1","","99.19","","","","","","NA"
"2016-11-14 16:00","2016","11","14","16:00","13.9","","1.6","","43","","21","","11","","24.1","","99.20","","","","","","Mainly Clear"
"2016-11-14 17:00","2016","11","14","17:00","11.7","","5.4","","65","","14","","7","","24.1","","99.23","","","","","","NA"
"2016-11-14 18:00","2016","11","14","18:00","10.0","","5.6","","74","","15","","10","","24.1","","99.28","","","","","","NA"
"2016-11-14 19:00","2016","11","14","19:00","10.1","","3.6","","64","","20","","12","","24.1","","99.30","","","","","","Cloudy"
"2016-11-14 20:00","2016","11","14","20:00","9.1","","3.5","","68","","23","","13","","24.1","","99.29","","","","","","NA"
"2016-11-14 21:00","2016","11","14","21:00","7.5","","3.8","","77","","24","","13","","24.1","","99.26","","","","","","NA"
"2016-11-14 22:00","2016","11","14","22:00","7.0","","3.6","","79","","25","","11","","24.1","","99.28","","","","","","Cloudy"
"2016-11-14 23:00","2016","11","14","23:00","5.6","","3.0","","83","","25","","8","","24.1","","99.26","","","","","","NA"
"2016-11-15 00:00","2016","11","15","00:00","6.5","","3.0","","78","","20","","8","","24.1","","99.29","","","","","","NA"
"2016-11-15 01:00","2016","11","15","01:00","6.5","","2.6","","76","","20","","3","","24.1","","99.29","","","","","","Mainly Clear"
"2016-11-15 02:00","2016","11","15","02:00","5.7","","2.4","","79","","13","","4","","24.1","","99.27","","","","","","NA"
"2016-11-15 03:00","2016","11","15","03:00","4.2","","1.6","","83","","36","","2","","24.1","","99.27","","","","","","NA"
"2016-11-15 04:00","2016","11","15","04:00","4.0","","2.4","","89","","36","","1","","24.1","","99.24","","","","","","Mainly Clear"
"2016-11-15 05:00","2016","11","15","05:00","3.4","","1.8","","89","","36","","2","","24.1","","99.25","","","","","","NA"
"2016-11-15 06:00","2016","11","15","06:00","1.5","","-0.3","","88","","32","","4","","19.3","","99.25","","","","","","NA"
"2016-11-15 07:00","2016","11","15","07:00","3.5","","2.0","","90","","27","","7","","24.1","","99.30","","","","","","Mostly Cloudy"
"2016-11-15 08:00","2016","11","15","08:00","3.5","","1.2","","85","","35","","4","","24.1","","99.33","","","","","","NA"
"2016-11-15 09:00","2016","11","15","09:00","6.0","","3.0","","81","","36","","2","","24.1","","99.33","","","","","","NA"
"2016-11-15 10:00","2016","11","15","10:00","9.3","","4.7","","73","","17","","3","","24.1","","99.32","","","","","","Mostly Cloudy"
"2016-11-15 11:00","2016","11","15","11:00","10.9","","5.3","","68","","16","","6","","24.1","","99.27","","","","","","NA"
"2016-11-15 12:00","2016","11","15","12:00","11.7","","5.6","","66","","17","","8","","24.1","","99.16","","","","","","NA"
"2016-11-15 13:00","2016","11","15","13:00","12.4","","6.5","","67","","16","","8","","24.1","","99.10","","","","","","Mostly Cloudy"
"2016-11-15 14:00","2016","11","15","14:00","12.8","","6.0","","63","","18","","10","","24.1","","99.04","","","","","","NA"
"2016-11-15 15:00","2016","11","15","15:00","12.2","","5.9","","65","","14","","14","","24.1","","99.02","","","","","","NA"
"2016-11-15 16:00","2016","11","15","16:00","10.3","","5.7","","73","","15","","10","","24.1","","99.03","","","","","","Mainly Clear"
"2016-11-15 17:00","2016","11","15","17:00","9.3","","5.9","","79","","14","","9","","24.1","","99.05","","","","","","NA"
"2016-11-15 18:00","2016","11","15","18:00","9.0","","5.9","","81","","14","","4","","24.1","","99.06","","","","","","NA"
"2016-11-15 19:00","2016","11","15","19:00","7.8","","5.8","","87","","36","","3","","24.1","","99.05","","","","","","Clear"
"2016-11-15 20:00","2016","11","15","20:00","8.0","","6.6","","91","","14","","7","","19.3","","99.00","","","","","","NA"
"2016-11-15 21:00","2016","11","15","21:00","6.7","","5.8","","94","","36","","1","","16.1","","99.03","","","","","","NA"
"2016-11-15 22:00","2016","11","15","22:00","7.1","","6.4","","95","","8","","11","","19.3","","98.94","","","","","","Clear"
"2016-11-15 23:00","2016","11","15","23:00","5.4","","4.7","","95","","33","","4","","19.3","","98.89","","","","","","NA"
"2016-11-16 00:00","2016","11","16","00:00","5.0","","4.1","","94","","4","","6","","16.1","","98.85","","","","","","NA"
"2016-11-16 01:00","2016","11","16","01:00","4.8","","3.9","","94","","32","","7","","14.5","","98.79","","","","","","Mostly Cloudy"
"2016-11-16 02:00","2016","11","16","02:00","5.1","","4.1","","93","","36","","4","","11.3","","98.81","","","","","","NA"
"2016-11-16 03:00","2016","11","16","03:00","5.4","","4.2","","92","","36","","3","","9.7","","98.80","","","","","","Fog"
"2016-11-16 04:00","2016","11","16","04:00","5.4","","4.5","","94","","4","","4","","11.3","","98.76","","","","","","Cloudy"
"2016-11-16 05:00","2016","11","16","05:00","5.9","","5.0","","94","","35","","3","","11.3","","98.77","","","","","","NA"
"2016-11-16 06:00","2016","11","16","06:00","6.3","","5.4","","94","","0","","1","","9.7","","98.76","","","","","","Rain"
"2016-11-16 07:00","2016","11","16","07:00","6.7","","5.7","","93","","36","","3","","8.1","","98.78","","","","","","Fog"
"2016-11-16 08:00","2016","11","16","08:00","6.9","","6.0","","94","","28","","8","","6.4","","98.80","","","","","","Fog"
"2016-11-16 09:00","2016","11","16","09:00","7.9","","6.4","","90","","27","","13","","6.4","","98.80","","","","","","Rain,Fog"
"2016-11-16 10:00","2016","11","16","10:00","9.0","","7.5","","90","","30","","14","","6.4","","98.80","","","","","","Rain,Fog"
"2016-11-16 11:00","2016","11","16","11:00","10.2","","7.8","","85","","31","","16","","12.9","","98.81","","","","","","NA"
"2016-11-16 12:00","2016","11","16","12:00","11.1","","7.4","","78","","31","","21","","16.1","","98.80","","","","","","NA"
"2016-11-16 13:00","2016","11","16","13:00","11.7","","6.7","","71","","30","","23","","24.1","","98.81","","","","","","Mostly Cloudy"
"2016-11-16 14:00","2016","11","16","14:00","11.9","","4.9","","62","","30","","25","","24.1","","98.83","","","","","","NA"
"2016-11-16 15:00","2016","11","16","15:00","11.6","","4.2","","60","","29","","28","","24.1","","98.92","","","","","","NA"
"2016-11-16 16:00","2016","11","16","16:00","11.3","","3.9","","60","","30","","28","","24.1","","99.02","","","","","","Mostly Cloudy"
"2016-11-16 17:00","2016","11","16","17:00","10.8","","3.2","","59","","31","","23","","24.1","","99.11","","","","","","NA"
"2016-11-16 18:00","2016","11","16","18:00","10.0","","2.9","","61","","30","","17","","24.1","","99.17","","","","","","NA"
"2016-11-16 19:00","2016","11","16","19:00","8.7","","3.6","","70","","28","","16","","24.1","","99.25","","","","","","Mostly Cloudy"
"2016-11-16 20:00","2016","11","16","20:00","8.3","","4.3","","76","","29","","12","","24.1","","99.31","","","","","","NA"
"2016-11-16 21:00","2016","11","16","21:00","7.2","","4.0","","80","","28","","15","","24.1","","99.35","","","","","","NA"
"2016-11-16 22:00","2016","11","16","22:00","6.0","","3.5","","84","","29","","14","","24.1","","99.39","","","","","","Mainly Clear"
"2016-11-16 23:00","2016","11","16","23:00","6.7","","4.2","","84","","30","","10","","24.1","","99.42","","","","","","NA"
"2016-11-17 00:00","2016","11","17","00:00","5.6","","3.8","","88","","30","","8","","24.1","","99.47","","","","","","NA"
"2016-11-17 01:00","2016","11","17","01:00","5.3","","3.6","","89","","31","","9","","24.1","","99.51","","","","","","Clear"
"2016-11-17 02:00","2016","11","17","02:00","4.8","","3.2","","89","","30","","12","","24.1","","99.57","","","","","","NA"
"2016-11-17 03:00","2016","11","17","03:00","4.3","","2.7","","89","","32","","11","","24.1","","99.62","","","","","","NA"
"2016-11-17 04:00","2016","11","17","04:00","3.9","","2.6","","91","","5","","5","","24.1","","99.66","","","","","","Clear"
"2016-11-17 05:00","2016","11","17","05:00","3.8","","2.5","","91","","5","","3","","24.1","","99.70","","","","","","NA"
"2016-11-17 06:00","2016","11","17","06:00","2.8","","1.6","","92","","1","","5","","24.1","","99.75","","","","","","NA"
"2016-11-17 07:00","2016","11","17","07:00","3.5","","2.0","","90","","32","","9","","24.1","","99.79","","","","","","Clear"
"2016-11-17 08:00","2016","11","17","08:00","2.0","","0.7","","91","","29","","7","","24.1","","99.88","","","","","","NA"
"2016-11-17 09:00","2016","11","17","09:00","5.5","","3.0","","84","","36","","1","","24.1","","99.90","","","","","","NA"
"2016-11-17 10:00","2016","11","17","10:00","7.8","","3.9","","76","","31","","3","","24.1","","99.89","","","","","","Clear"
"2016-11-17 11:00","2016","11","17","11:00","10.8","","5.0","","67","","18","","9","","24.1","","99.90","","","","","","NA"
"2016-11-17 12:00","2016","11","17","12:00","11.3","","4.8","","64","","18","","9","","24.1","","99.84","","","","","","NA"
"2016-11-17 13:00","2016","11","17","13:00","11.0","","5.2","","67","","14","","13","","24.1","","99.75","","","","","","Mainly Clear"
"2016-11-17 14:00","2016","11","17","14:00","11.2","","4.7","","64","","17","","13","","24.1","","99.70","","","","","","NA"
"2016-11-17 15:00","2016","11","17","15:00","11.2","","4.5","","63","","15","","15","","24.1","","99.68","","","","","","NA"
"2016-11-17 16:00","2016","11","17","16:00","10.5","","4.2","","65","","14","","14","","24.1","","99.70","","","","","","Mainly Clear"
"2016-11-17 17:00","2016","11","17","17:00","9.0","","5.8","","80","","13","","11","","24.1","","99.70","","","","","","NA"
"2016-11-17 18:00","2016","11","17","18:00","8.7","","6.3","","85","","13","","12","","24.1","","99.69","","","","","","NA"
"2016-11-17 19:00","2016","11","17","19:00","8.4","","6.7","","89","","14","","10","","24.1","","99.72","","","","","","Mostly Cloudy"
"2016-11-17 20:00","2016","11","17","20:00","7.9","","5.4","","84","","15","","7","","24.1","","99.67","","","","","","NA"
"2016-11-17 21:00","2016","11","17","21:00","8.4","","4.6","","77","","13","","7","","24.1","","99.70","","","","","","NA"
"2016-11-17 22:00","2016","11","17","22:00","8.6","","5.2","","79","","14","","6","","24.1","","99.71","","","","","","Mainly Clear"
"2016-11-17 23:00","2016","11","17","23:00","7.8","","5.1","","83","","12","","12","","24.1","","99.67","","","","","","NA"
"2016-11-18 00:00","2016","11","18","00:00","8.0","","5.7","","85","","12","","9","","24.1","","99.68","","","","","","NA"
"2016-11-18 01:00","2016","11","18","01:00","8.0","","6.0","","87","","12","","10","","24.1","","99.67","","","","","","Clear"
"2016-11-18 02:00","2016","11","18","02:00","7.4","","5.9","","90","","13","","7","","24.1","","99.68","","","","","","NA"
"2016-11-18 03:00","2016","11","18","03:00","7.8","","6.6","","92","","14","","7","","24.1","","99.68","","","","","","NA"
"2016-11-18 04:00","2016","11","18","04:00","7.6","","6.6","","93","","13","","7","","24.1","","99.68","","","","","","Clear"
"2016-11-18 05:00","2016","11","18","05:00","6.8","","5.9","","94","","12","","4","","24.1","","99.67","","","","","","NA"
"2016-11-18 06:00","2016","11","18","06:00","7.0","","6.3","","95","","13","","3","","24.1","","99.65","","","","","","NA"
"2016-11-18 07:00","2016","11","18","07:00","7.4","","6.7","","95","","15","","5","","24.1","","99.65","","","","","","Mainly Clear"
"2016-11-18 08:00","2016","11","18","08:00","8.0","","6.8","","92","","11","","6","","24.1","","99.64","","","","","","NA"
"2016-11-18 09:00","2016","11","18","09:00","9.9","","7.7","","86","","11","","6","","24.1","","99.62","","","","","","NA"
"2016-11-18 10:00","2016","11","18","10:00","12.1","","8.6","","79","","16","","5","","24.1","","99.61","","","","","","Mostly Cloudy"
"2016-11-18 11:00","2016","11","18","11:00","13.8","","8.5","","70","","19","","10","","24.1","","99.60","","","","","","NA"
"2016-11-18 12:00","2016","11","18","12:00","15.2","","8.5","","64","","15","","12","","24.1","","99.52","","","","","","NA"
"2016-11-18 13:00","2016","11","18","13:00","16.2","","8.8","","61","","16","","12","","24.1","","99.44","","","","","","Mostly Cloudy"
"2016-11-18 14:00","2016","11","18","14:00","16.2","","8.5","","60","","17","","14","","24.1","","99.36","","","","","","NA"
"2016-11-18 15:00","2016","11","18","15:00","14.9","","8.2","","64","","14","","15","","24.1","","99.31","","","","","","NA"
"2016-11-18 16:00","2016","11","18","16:00","14.0","","8.0","","67","","14","","8","","24.1","","99.29","","","","","","Mostly Cloudy"
"2016-11-18 17:00","2016","11","18","17:00","13.0","","8.1","","72","","11","","12","","24.1","","99.26","","","","","","NA"
"2016-11-18 18:00","2016","11","18","18:00","12.7","","8.2","","74","","11","","7","","24.1","","99.23","","","","","","NA"
"2016-11-18 19:00","2016","11","18","19:00","12.2","","8.1","","76","","11","","10","","24.1","","99.21","","","","","","Mainly Clear"
"2016-11-18 20:00","2016","11","18","20:00","11.6","","7.6","","76","","11","","4","","24.1","","99.16","","","","","","NA"
"2016-11-18 21:00","2016","11","18","21:00","11.9","","7.5","","74","","13","","5","","24.1","","99.11","","","","","","NA"
"2016-11-18 22:00","2016","11","18","22:00","10.7","","7.6","","81","","15","","3","","24.1","","99.14","","","","","","Mostly Cloudy"
"2016-11-18 23:00","2016","11","18","23:00","12.1","","7.6","","74","","15","","9","","24.1","","99.09","","","","","","NA"
"2016-11-19 00:00","2016","11","19","00:00","12.3","","7.2","","71","","14","","8","","24.1","","98.96","","","","","","NA"
"2016-11-19 01:00","2016","11","19","01:00","11.9","","7.3","","73","","14","","11","","24.1","","98.88","","","","","","Mostly Cloudy"
"2016-11-19 02:00","2016","11","19","02:00","14.5","","6.4","","58","","19","","16","","24.1","","98.86","","","","","","NA"
"2016-11-19 03:00","2016","11","19","03:00","12.8","","6.4","","65","","16","","13","","24.1","","98.79","","","","","","NA"
"2016-11-19 04:00","2016","11","19","04:00","11.9","","6.4","","69","","16","","11","","24.1","","98.71","","","","","","Mainly Clear"
"2016-11-19 05:00","2016","11","19","05:00","13.0","","5.7","","61","","15","","9","","24.1","","98.62","","","","","","NA"
"2016-11-19 06:00","2016","11","19","06:00","12.4","","6.3","","66","","14","","11","","24.1","","98.54","","","","","","NA"
"2016-11-19 07:00","2016","11","19","07:00","11.9","","6.6","","70","","15","","10","","24.1","","98.49","","","","","","Mostly Cloudy"
"2016-11-19 08:00","2016","11","19","08:00","12.6","","6.7","","67","","15","","11","","24.1","","98.45","","","","","","NA"
"2016-11-19 09:00","2016","11","19","09:00","11.9","","8.4","","79","","26","","23","","24.1","","98.60","","","","","","Rain"
"2016-11-19 10:00","2016","11","19","10:00","10.7","","6.3","","74","","22","","19","","24.1","","98.59","","","","","","Cloudy"
"2016-11-19 11:00","2016","11","19","11:00","9.3","","5.7","","78","","22","","23","","24.1","","98.58","","","","","","Rain"
"2016-11-19 12:00","2016","11","19","12:00","6.3","","5.1","","92","","26","","29","","8.1","","98.63","","","","","","Rain"
"2016-11-19 13:00","2016","11","19","13:00","4.7","","2.9","","88","","25","","28","","17.7","","98.67","","","","","","Cloudy"
"2016-11-19 14:00","2016","11","19","14:00","3.3","","1.7","","89","","24","","25","","17.7","","98.71","","","","","","Rain"
"2016-11-19 15:00","2016","11","19","15:00","3.9","","2.1","","88","","23","","23","","24.1","","98.70","","","","","","NA"
"2016-11-19 16:00","2016","11","19","16:00","4.4","","2.3","","86","","23","","17","","24.1","","98.63","","","","","","Cloudy"
"2016-11-19 17:00","2016","11","19","17:00","4.8","","1.1","","77","","24","","29","","24.1","","98.66","","","","","","NA"
"2016-11-19 18:00","2016","11","19","18:00","3.6","","1.0","","83","","25","","27","","24.1","","98.67","","","","","","NA"
"2016-11-19 19:00","2016","11","19","19:00","3.3","","0.9","","84","","27","","18","","24.1","","98.70","","","","","","Mostly Cloudy"
"2016-11-19 20:00","2016","11","19","20:00","3.1","","-0.2","","79","","29","","22","","24.1","","98.67","","","","","","NA"
"2016-11-19 21:00","2016","11","19","21:00","2.4","","-2.3","","71","","29","","24","","24.1","","98.69","","","","","","NA"
"2016-11-19 22:00","2016","11","19","22:00","2.1","","-3.6","","66","","27","","28","","24.1","","98.71","","","","","","Cloudy"
"2016-11-19 23:00","2016","11","19","23:00","1.0","","-3.3","","73","","26","","21","","24.1","","98.68","","","","","","NA"
"2016-11-20 00:00","2016","11","20","00:00","0.2","","-3.7","","75","","27","","17","","24.1","","98.62","","","","","","NA"
"2016-11-20 01:00","2016","11","20","01:00","0.0","","-3.2","","79","","24","","14","","24.1","","98.49","","","","-4","","Mostly Cloudy"
"2016-11-20 02:00","2016","11","20","02:00","0.2","","-1.9","","86","","24","","14","","16.1","","98.43","","","","","","Snow"
"2016-11-20 03:00","2016","11","20","03:00","0.3","","-1.2","","90","","30","","16","","24.1","","98.40","","","","","","NA"
"2016-11-20 04:00","2016","11","20","04:00","2.3","","-2.0","","73","","31","","45","","24.1","","98.39","","","","","","Cloudy"
"2016-11-20 05:00","2016","11","20","05:00","1.9","","-4.0","","65","","31","","43","","24.1","","98.47","","","","","","NA"
"2016-11-20 06:00","2016","11","20","06:00","0.8","","-4.1","","70","","30","","39","","24.1","","98.51","","","","","","NA"
"2016-11-20 07:00","2016","11","20","07:00","0.2","","-4.8","","69","","31","","36","","24.1","","98.58","","","","","","Mostly Cloudy"
"2016-11-20 08:00","2016","11","20","08:00","0.0","","-5.0","","69","","31","","37","","24.1","","98.64","","","","-7","","NA"
"2016-11-20 09:00","2016","11","20","09:00","0.4","","-5.2","","66","","32","","46","","24.1","","98.65","","","","","","NA"
"2016-11-20 10:00","2016","11","20","10:00","-0.1","","-4.0","","75","","35","","33","","16.1","","98.71","","","","-7","","Snow,Ice Pellets"
"2016-11-20 11:00","2016","11","20","11:00","0.9","","-3.4","","73","","32","","44","","16.1","","98.72","","","","","","Snow,Ice Pellets"
"2016-11-20 12:00","2016","11","20","12:00","1.4","","-4.5","","65","","32","","42","","16.1","","98.71","","","","","","Snow"
"2016-11-20 13:00","2016","11","20","13:00","0.3","","-3.8","","74","","31","","44","","8.1","","98.72","","","","","","Snow,Ice Pellets"
"2016-11-20 14:00","2016","11","20","14:00","-0.2","","-4.5","","73","","30","","47","","24.1","","98.75","","","","-8","","Snow,Ice Pellets"
"2016-11-20 15:00","2016","11","20","15:00","-0.2","","-5.2","","69","","31","","49","","24.1","","98.81","","","","-8","","NA"
"2016-11-20 16:00","2016","11","20","16:00","-0.4","","-6.4","","64","","31","","50","","24.1","","98.86","","","","-9","","Cloudy"
"2016-11-20 17:00","2016","11","20","17:00","-0.4","","-6.8","","62","","30","","47","","24.1","","98.93","","","","-8","","NA"
"2016-11-20 18:00","2016","11","20","18:00","-0.8","","-7.2","","62","","30","","46","","16.1","","98.95","","","","-9","","Snow"
"2016-11-20 19:00","2016","11","20","19:00","-1.2","","-7.2","","64","","31","","48","","12.9","","98.94","","","","-10","","Snow"
"2016-11-20 20:00","2016","11","20","20:00","-1.4","","-6.8","","67","","30","","48","","14.5","","98.94","","","","-10","","Snow"
"2016-11-20 21:00","2016","11","20","21:00","-2.0","","-7.0","","69","","30","","48","","16.1","","98.94","","","","-11","","Snow"
"2016-11-20 22:00","2016","11","20","22:00","-1.9","","-8.3","","62","","31","","47","","24.1","","98.96","","","","-11","","Snow"
"2016-11-20 23:00","2016","11","20","23:00","-2.3","","-8.0","","65","","30","","41","","24.1","","98.96","","","","-11","","Snow"
"2016-11-21 00:00","2016","11","21","00:00","-2.6","","-8.1","","66","","30","","40","","14.5","","98.96","","","","-11","","Snow"
"2016-11-21 01:00","2016","11","21","01:00","-2.5","","-8.8","","62","","30","","42","","24.1","","98.96","","","","-11","","Cloudy"
"2016-11-21 02:00","2016","11","21","02:00","-2.6","","-8.5","","64","","30","","43","","24.1","","98.94","","","","-11","","NA"
"2016-11-21 03:00","2016","11","21","03:00","-2.5","","-8.4","","64","","30","","41","","24.1","","98.99","","","","-11","","NA"
"2016-11-21 04:00","2016","11","21","04:00","-2.8","","-8.7","","64","","29","","43","","24.1","","98.99","","","","-11","","Cloudy"
"2016-11-21 05:00","2016","11","21","05:00","-2.7","","-8.2","","66","","30","","45","","24.1","","99.02","","","","-11","","NA"
"2016-11-21 06:00","2016","11","21","06:00","-2.7","","-8.6","","64","","30","","41","","24.1","","99.06","","","","-11","","NA"
"2016-11-21 07:00","2016","11","21","07:00","-2.4","","-8.9","","61","","30","","37","","24.1","","99.10","","","","-10","","Mostly Cloudy"
"2016-11-21 08:00","2016","11","21","08:00","-2.2","","-9.6","","57","","30","","43","","24.1","","99.14","","","","-11","","NA"
"2016-11-21 09:00","2016","11","21","09:00","-1.7","","-9.6","","55","","30","","48","","24.1","","99.14","","","","-10","","NA"
"2016-11-21 10:00","2016","11","21","10:00","-1.3","","-9.7","","53","","30","","42","","24.1","","99.16","","","","-9","","Mostly Cloudy"
"2016-11-21 11:00","2016","11","21","11:00","-0.4","","-9.6","","50","","29","","51","","24.1","","99.17","","","","-9","","NA"
"2016-11-21 12:00","2016","11","21","12:00","0.8","","-9.8","","45","","31","","41","","24.1","","99.15","","","","","","NA"
"2016-11-21 13:00","2016","11","21","13:00","1.1","","-9.9","","44","","30","","47","","24.1","","99.12","","","","","","Mostly Cloudy"
"2016-11-21 14:00","2016","11","21","14:00","1.0","","-9.4","","46","","30","","48","","24.1","","99.15","","","","","","NA"
"2016-11-21 15:00","2016","11","21","15:00","0.5","","-9.3","","48","","30","","49","","24.1","","99.20","","","","","","NA"
"2016-11-21 16:00","2016","11","21","16:00","0.3","","-9.2","","49","","31","","49","","24.1","","99.28","","","","","","Mostly Cloudy"
"2016-11-21 17:00","2016","11","21","17:00","0.2","","-8.8","","51","","30","","44","","24.1","","99.31","","","","","","NA"
"2016-11-21 18:00","2016","11","21","18:00","0.3","","-8.5","","52","","30","","42","","24.1","","99.36","","","","","","NA"
"2016-11-21 19:00","2016","11","21","19:00","0.4","","-8.4","","52","","30","","39","","24.1","","99.41","","","","","","Cloudy"
"2016-11-21 20:00","2016","11","21","20:00","0.4","","-8.6","","51","","30","","51","","24.1","","99.43","","","","","","NA"
"2016-11-21 21:00","2016","11","21","21:00","0.4","","-8.6","","51","","30","","44","","24.1","","99.50","","","","","","NA"
"2016-11-21 22:00","2016","11","21","22:00","0.2","","-8.3","","53","","31","","37","","24.1","","99.54","","","","","","Cloudy"
"2016-11-21 23:00","2016","11","21","23:00","-0.1","","-7.9","","56","","30","","38","","24.1","","99.62","","","","-7","","NA"
"2016-11-22 00:00","2016","11","22","00:00","-0.5","","-7.8","","58","","30","","39","","24.1","","99.67","","","","-8","","NA"
"2016-11-22 01:00","2016","11","22","01:00","-1.0","","-7.2","","63","","30","","40","","24.1","","99.68","","","","-9","","Cloudy"
"2016-11-22 02:00","2016","11","22","02:00","-1.0","","-7.0","","64","","31","","31","","24.1","","99.76","","","","-8","","NA"
"2016-11-22 03:00","2016","11","22","03:00","-1.1","","-6.9","","65","","30","","31","","24.1","","99.82","","","","-8","","NA"
"2016-11-22 04:00","2016","11","22","04:00","-1.3","","-6.7","","67","","30","","28","","24.1","","99.86","","","","-8","","Cloudy"
"2016-11-22 05:00","2016","11","22","05:00","-1.2","","-7.0","","65","","30","","26","","24.1","","99.92","","","","-8","","NA"
"2016-11-22 06:00","2016","11","22","06:00","-1.3","","-6.7","","67","","29","","24","","24.1","","99.98","","","","-7","","NA"
"2016-11-22 07:00","2016","11","22","07:00","-1.3","","-6.3","","69","","30","","24","","24.1","","100.04","","","","-7","","Cloudy"
"2016-11-22 08:00","2016","11","22","08:00","-0.9","","-6.1","","68","","31","","21","","24.1","","100.14","","","","-7","","NA"
"2016-11-22 09:00","2016","11","22","09:00","-0.4","","-6.2","","65","","30","","26","","24.1","","100.24","","","","-7","","NA"
"2016-11-22 10:00","2016","11","22","10:00","0.1","","-5.9","","64","","30","","23","","24.1","","100.30","","","","","","Cloudy"
"2016-11-22 11:00","2016","11","22","11:00","0.5","","-5.8","","63","","30","","27","","24.1","","100.33","","","","","","NA"
"2016-11-22 12:00","2016","11","22","12:00","0.9","","-6.5","","58","","33","","28","","24.1","","100.31","","","","","","NA"
"2016-11-22 13:00","2016","11","22","13:00","1.3","","-6.3","","57","","27","","19","","24.1","","100.31","","","","","","Mostly Cloudy"
"2016-11-22 14:00","2016","11","22","14:00","2.1","","-6.8","","52","","30","","21","","24.1","","100.33","","","","","","NA"
"2016-11-22 15:00","2016","11","22","15:00","2.3","","-7.1","","50","","32","","18","","24.1","","100.34","","","","","","NA"
"2016-11-22 16:00","2016","11","22","16:00","1.9","","-7.2","","51","","28","","21","","24.1","","100.39","","","","","","Mainly Clear"
"2016-11-22 17:00","2016","11","22","17:00","0.2","","-6.9","","59","","29","","16","","24.1","","100.43","","","","","","NA"
"2016-11-22 18:00","2016","11","22","18:00","-0.4","","-6.4","","64","","30","","18","","24.1","","100.53","","","","-5","","NA"
"2016-11-22 19:00","2016","11","22","19:00","-0.4","","-6.6","","63","","33","","17","","24.1","","100.53","","","","-5","","Mainly Clear"
"2016-11-22 20:00","2016","11","22","20:00","-1.2","","-6.8","","66","","32","","18","","24.1","","100.58","","","","-6","","NA"
"2016-11-22 21:00","2016","11","22","21:00","-1.7","","-6.5","","70","","32","","14","","24.1","","100.59","","","","-6","","NA"
"2016-11-22 22:00","2016","11","22","22:00","-2.5","","-6.7","","73","","28","","12","","24.1","","100.61","","","","-7","","Clear"
"2016-11-22 23:00","2016","11","22","23:00","-4.0","","-7.5","","77","","27","","8","","24.1","","100.59","","","","-7","","NA"
"2016-11-23 00:00","2016","11","23","00:00","-4.5","","-7.3","","81","","27","","12","","24.1","","100.63","","","","-9","","NA"
"2016-11-23 01:00","2016","11","23","01:00","-2.7","","-6.0","","78","","28","","13","","24.1","","100.62","","","","-7","","Mostly Cloudy"
"2016-11-23 02:00","2016","11","23","02:00","-2.6","","-5.9","","78","","29","","12","","24.1","","100.64","","","","-7","","NA"
"2016-11-23 03:00","2016","11","23","03:00","-2.6","","-5.9","","78","","27","","9","","24.1","","100.68","","","","-6","","NA"
"2016-11-23 04:00","2016","11","23","04:00","-2.4","","-6.1","","76","","28","","9","","24.1","","100.69","","","","-6","","Mostly Cloudy"
"2016-11-23 05:00","2016","11","23","05:00","-2.6","","-6.1","","77","","36","","1","","24.1","","100.68","","","","-3","","NA"
"2016-11-23 06:00","2016","11","23","06:00","-2.4","","-6.2","","75","","6","","4","","24.1","","100.69","","","","-4","","NA"
"2016-11-23 07:00","2016","11","23","07:00","-3.2","","-6.5","","78","","5","","7","","24.1","","100.69","","","","-6","","Mostly Cloudy"
"2016-11-23 08:00","2016","11","23","08:00","-2.5","","-7.1","","71","","2","","4","","24.1","","100.76","","","","-4","","NA"
"2016-11-23 09:00","2016","11","23","09:00","-2.2","","-7.0","","70","","6","","12","","24.1","","100.69","","","","-6","","NA"
"2016-11-23 10:00","2016","11","23","10:00","-1.6","","-6.4","","70","","6","","9","","24.1","","100.65","","","","-5","","Cloudy"
"2016-11-23 11:00","2016","11","23","11:00","-1.1","","-6.3","","68","","9","","6","","24.1","","100.61","","","","-3","","NA"
"2016-11-23 12:00","2016","11","23","12:00","-0.8","","-6.2","","67","","7","","3","","24.1","","100.60","","","","-2","","NA"
"2016-11-23 13:00","2016","11","23","13:00","-0.3","","-5.5","","68","","0","","1","","24.1","","100.55","","","","-1","","Cloudy"
"2016-11-23 14:00","2016","11","23","14:00","0.0","","-5.2","","68","","7","","7","","24.1","","100.49","","","","-2","","NA"
"2016-11-23 15:00","2016","11","23","15:00","0.2","","-4.3","","72","","10","","9","","24.1","","100.44","","","","","","NA"
"2016-11-23 16:00","2016","11","23","16:00","-0.1","","-4.9","","70","","6","","12","","24.1","","100.38","","","","-4","","Cloudy"
"2016-11-23 17:00","2016","11","23","17:00","-0.5","","-4.8","","73","","11","","12","","19.3","","100.38","","","","-4","","Ice Pellets"
"2016-11-23 18:00","2016","11","23","18:00","-0.5","","-3.7","","79","","6","","12","","24.1","","100.32","","","","-4","","NA"
"2016-11-23 19:00","2016","11","23","19:00","0.0","","-2.9","","81","","5","","10","","24.1","","100.33","","","","-3","","Cloudy"
"2016-11-23 20:00","2016","11","23","20:00","0.3","","-2.3","","83","","8","","11","","24.1","","100.31","","","","","","NA"
"2016-11-23 21:00","2016","11","23","21:00","0.6","","-1.2","","88","","7","","14","","6.4","","100.23","","","","","","Snow Showers"
"2016-11-23 22:00","2016","11","23","22:00","0.4","","-0.5","","94","","10","","12","","9.7","","100.12","","","","","","Snow Showers"
"2016-11-23 23:00","2016","11","23","23:00","1.1","","-0.1","","92","","11","","16","","19.3","","100.09","","","","","","Snow Showers"
"2016-11-24 00:00","2016","11","24","00:00","1.2","","0.1","","92","","11","","20","","19.3","","100.06","","","","","","Ice Pellets"
"2016-11-24 01:00","2016","11","24","01:00","1.2","","0.2","","93","","8","","9","","19.3","","100.01","","","","","","Cloudy"
"2016-11-24 02:00","2016","11","24","02:00","1.8","","0.8","","93","","11","","10","","19.3","","99.97","","","","","","Rain"
"2016-11-24 03:00","2016","11","24","03:00","2.0","","0.8","","92","","10","","12","","24.1","","99.89","","","","","","NA"
"2016-11-24 04:00","2016","11","24","04:00","2.4","","1.2","","92","","7","","16","","24.1","","99.78","","","","","","Cloudy"
"2016-11-24 05:00","2016","11","24","05:00","2.8","","1.5","","91","","8","","11","","24.1","","99.77","","","","","","NA"
"2016-11-24 06:00","2016","11","24","06:00","3.2","","1.9","","91","","8","","18","","16.1","","99.70","","","","","","Rain"
"2016-11-24 07:00","2016","11","24","07:00","3.0","","2.0","","93","","8","","20","","9.7","","99.65","","","","","","Rain,Fog"
"2016-11-24 08:00","2016","11","24","08:00","3.0","","2.0","","93","","14","","9","","8.1","","99.73","","","","","","Rain,Fog"
"2016-11-24 09:00","2016","11","24","09:00","3.2","","2.3","","94","","8","","10","","8.1","","99.74","","","","","","Drizzle,Fog"
"2016-11-24 10:00","2016","11","24","10:00","3.3","","2.6","","95","","9","","10","","3.2","","99.77","","","","","","Drizzle,Fog"
"2016-11-24 11:00","2016","11","24","11:00","3.5","","2.6","","94","","8","","13","","8.1","","99.74","","","","","","Rain,Fog"
"2016-11-24 12:00","2016","11","24","12:00","3.7","","2.7","","93","","8","","14","","9.7","","99.70","","","","","","Rain,Fog"
"2016-11-24 13:00","2016","11","24","13:00","3.4","","2.5","","94","","5","","12","","8.1","","99.72","","","","","","Drizzle,Fog"
"2016-11-24 14:00","2016","11","24","14:00","3.3","","2.4","","94","","3","","11","","3.2","","99.74","","","","","","Drizzle,Fog"
"2016-11-24 15:00","2016","11","24","15:00","3.1","","2.2","","94","","6","","10","","4.0","","99.81","","","","","","Drizzle,Fog"
"2016-11-24 16:00","2016","11","24","16:00","3.2","","2.2","","93","","1","","7","","9.7","","99.86","","","","","","Fog"
"2016-11-24 17:00","2016","11","24","17:00","3.3","","2.0","","91","","34","","3","","8.1","","99.95","","","","","","Fog"
"2016-11-24 18:00","2016","11","24","18:00","3.2","","2.0","","92","","34","","9","","8.1","","100.01","","","","","","Drizzle,Fog"
"2016-11-24 19:00","2016","11","24","19:00","3.1","","2.1","","93","","32","","8","","9.7","","100.05","","","","","","Drizzle,Fog"
"2016-11-24 20:00","2016","11","24","20:00","3.0","","2.0","","93","","4","","5","","12.9","","100.03","","","","","","Drizzle"
"2016-11-24 21:00","2016","11","24","21:00","3.2","","2.3","","94","","36","","2","","12.9","","100.07","","","","","","Drizzle"
"2016-11-24 22:00","2016","11","24","22:00","3.4","","2.5","","94","","13","","4","","4.8","","100.07","","","","","","Fog"
"2016-11-24 23:00","2016","11","24","23:00","3.5","","2.8","","95","","16","","5","","0.8","","100.10","","","","","","Drizzle,Fog"
"2016-11-25 00:00","2016","11","25","00:00","3.6","","3.0","","96","","14","","7","","0.4","","100.09","","","","","","Drizzle,Fog"
"2016-11-25 01:00","2016","11","25","01:00","3.5","","2.9","","96","","14","","9","","1.2","","100.07","","","","","","Rain,Fog"
"2016-11-25 02:00","2016","11","25","02:00","3.5","","2.9","","96","","14","","5","","1.0","","100.07","","","","","","Rain,Fog"
"2016-11-25 03:00","2016","11","25","03:00","3.7","","3.1","","96","","14","","6","","0.2","","100.06","","","","","","Fog"
"2016-11-25 04:00","2016","11","25","04:00","4.0","","3.4","","96","","15","","5","","0.2","","100.04","","","","","","Fog"
"2016-11-25 05:00","2016","11","25","05:00","4.2","","3.6","","96","","19","","4","","0.2","","100.05","","","","","","Fog"
"2016-11-25 06:00","2016","11","25","06:00","4.2","","3.6","","96","","29","","4","","6.4","","100.07","","","","","","Drizzle,Fog"
"2016-11-25 07:00","2016","11","25","07:00","4.1","","3.5","","96","","25","","5","","9.7","","100.08","","","","","","Fog"
"2016-11-25 08:00","2016","11","25","08:00","4.2","","3.6","","96","","22","","5","","16.1","","100.09","","","","","","NA"
"2016-11-25 09:00","2016","11","25","09:00","5.2","","3.4","","88","","24","","10","","24.1","","100.10","","","","","","NA"
"2016-11-25 10:00","2016","11","25","10:00","5.6","","3.6","","87","","22","","14","","24.1","","100.11","","","","","","Mostly Cloudy"
"2016-11-25 11:00","2016","11","25","11:00","6.3","","4.0","","85","","24","","12","","24.1","","100.08","","","","","","NA"
"2016-11-25 12:00","2016","11","25","12:00","7.2","","3.6","","78","","25","","22","","24.1","","100.01","","","","","","NA"
"2016-11-25 13:00","2016","11","25","13:00","7.1","","2.2","","71","","26","","26","","24.1","","99.96","","","","","","Mostly Cloudy"
"2016-11-25 14:00","2016","11","25","14:00","6.9","","1.8","","70","","27","","18","","24.1","","99.94","","","","","","NA"
"2016-11-25 15:00","2016","11","25","15:00","6.7","","2.2","","73","","26","","20","","24.1","","99.97","","","","","","Rain Showers"
"2016-11-25 16:00","2016","11","25","16:00","6.3","","2.0","","74","","25","","22","","24.1","","99.98","","","","","","Mostly Cloudy"
"2016-11-25 17:00","2016","11","25","17:00","6.1","","1.8","","74","","28","","16","","24.1","","100.02","","","","","","NA"
"2016-11-25 18:00","2016","11","25","18:00","5.8","","1.5","","74","","27","","16","","24.1","","100.06","","","","","","NA"
"2016-11-25 19:00","2016","11","25","19:00","5.6","","1.7","","76","","28","","10","","24.1","","100.09","","","","","","Cloudy"
"2016-11-25 20:00","2016","11","25","20:00","5.4","","1.9","","78","","28","","17","","24.1","","100.09","","","","","","NA"
"2016-11-25 21:00","2016","11","25","21:00","5.2","","2.2","","81","","29","","9","","24.1","","100.09","","","","","","NA"
"2016-11-25 22:00","2016","11","25","22:00","4.7","","2.1","","83","","27","","8","","24.1","","100.08","","","","","","Cloudy"
"2016-11-25 23:00","2016","11","25","23:00","4.5","","1.7","","82","","26","","11","","24.1","","100.04","","","","","","Rain Showers"
"2016-11-26 00:00","2016","11","26","00:00","4.3","","1.8","","84","","25","","11","","24.1","","100.02","","","","","","NA"
"2016-11-26 01:00","2016","11","26","01:00","4.1","","2.3","","88","","25","","11","","24.1","","99.98","","","","","","Rain"
"2016-11-26 02:00","2016","11","26","02:00","3.7","","2.5","","92","","25","","12","","24.1","","99.98","","","","","","Rain"
"2016-11-26 03:00","2016","11","26","03:00","3.2","","2.0","","92","","26","","15","","24.1","","99.97","","","","","","Rain"
"2016-11-26 04:00","2016","11","26","04:00","2.7","","1.8","","94","","25","","13","","24.1","","99.97","","","","","","Cloudy"
"2016-11-26 05:00","2016","11","26","05:00","2.6","","1.4","","92","","26","","14","","24.1","","99.97","","","","","","Rain"
"2016-11-26 06:00","2016","11","26","06:00","2.4","","1.2","","92","","29","","10","","24.1","","99.98","","","","","","Rain"
"2016-11-26 07:00","2016","11","26","07:00","2.5","","1.5","","93","","27","","9","","24.1","","100.02","","","","","","Cloudy"
"2016-11-26 08:00","2016","11","26","08:00","2.7","","1.5","","92","","29","","8","","19.3","","100.04","","","","","","Rain"
"2016-11-26 09:00","2016","11","26","09:00","3.5","","1.9","","89","","31","","8","","24.1","","100.06","","","","","","NA"
"2016-11-26 10:00","2016","11","26","10:00","4.3","","1.3","","81","","32","","15","","24.1","","100.08","","","","","","Mostly Cloudy"
"2016-11-26 11:00","2016","11","26","11:00","5.1","","1.0","","75","","32","","15","","24.1","","100.07","","","","","","NA"
"2016-11-26 12:00","2016","11","26","12:00","5.9","","0.5","","68","","32","","14","","24.1","","100.01","","","","","","NA"
"2016-11-26 13:00","2016","11","26","13:00","6.3","","-0.2","","63","","30","","16","","24.1","","99.96","","","","","","Mostly Cloudy"
"2016-11-26 14:00","2016","11","26","14:00","6.0","","-0.7","","62","","29","","16","","24.1","","99.94","","","","","","NA"
"2016-11-26 15:00","2016","11","26","15:00","6.1","","0.0","","65","","29","","17","","24.1","","99.94","","","","","","NA"
"2016-11-26 16:00","2016","11","26","16:00","5.7","","0.1","","67","","28","","11","","24.1","","99.96","","","","","","Mostly Cloudy"
"2016-11-26 17:00","2016","11","26","17:00","5.2","","1.1","","75","","25","","21","","24.1","","99.97","","","","","","Rain Showers"
"2016-11-26 18:00","2016","11","26","18:00","4.3","","1.3","","81","","28","","23","","19.3","","99.99","","","","","","Rain Showers"
"2016-11-26 19:00","2016","11","26","19:00","3.7","","1.6","","86","","28","","14","","24.1","","99.99","","","","","","Rain"
"2016-11-26 20:00","2016","11","26","20:00","3.4","","1.3","","86","","27","","17","","24.1","","100.00","","","","","","NA"
"2016-11-26 21:00","2016","11","26","21:00","3.3","","1.4","","87","","26","","10","","24.1","","99.98","","","","","","NA"
"2016-11-26 22:00","2016","11","26","22:00","3.0","","1.2","","88","","25","","16","","24.1","","99.94","","","","","","Cloudy"
"2016-11-26 23:00","2016","11","26","23:00","2.9","","1.1","","88","","25","","13","","24.1","","99.90","","","","","","NA"
"2016-11-27 00:00","2016","11","27","00:00","3.0","","0.7","","85","","25","","18","","24.1","","99.88","","","","","","NA"
"2016-11-27 01:00","2016","11","27","01:00","2.9","","0.5","","84","","25","","19","","24.1","","99.88","","","","","","Cloudy"
"2016-11-27 02:00","2016","11","27","02:00","2.8","","0.5","","85","","30","","12","","24.1","","99.90","","","","","","NA"
"2016-11-27 03:00","2016","11","27","03:00","2.7","","0.6","","86","","29","","13","","24.1","","99.93","","","","","","NA"
"2016-11-27 04:00","2016","11","27","04:00","2.7","","0.3","","84","","28","","15","","24.1","","99.93","","","","","","Cloudy"
"2016-11-27 05:00","2016","11","27","05:00","3.0","","0.4","","83","","27","","18","","24.1","","99.93","","","","","","NA"
"2016-11-27 06:00","2016","11","27","06:00","2.6","","0.3","","85","","28","","15","","24.1","","99.95","","","","","","NA"
"2016-11-27 07:00","2016","11","27","07:00","2.4","","0.1","","85","","27","","10","","24.1","","99.98","","","","","","Mostly Cloudy"
"2016-11-27 08:00","2016","11","27","08:00","1.1","","-0.5","","89","","25","","12","","24.1","","100.02","","","","","","NA"
"2016-11-27 09:00","2016","11","27","09:00","2.8","","-0.1","","81","","30","","13","","24.1","","100.02","","","","","","NA"
"2016-11-27 10:00","2016","11","27","10:00","4.5","","0.5","","75","","28","","20","","24.1","","100.04","","","","","","Mainly Clear"
"2016-11-27 11:00","2016","11","27","11:00","5.6","","1.0","","72","","28","","22","","24.1","","100.00","","","","","","NA"
"2016-11-27 12:00","2016","11","27","12:00","6.6","","0.9","","67","","27","","18","","24.1","","99.93","","","","","","NA"
"2016-11-27 13:00","2016","11","27","13:00","7.1","","-0.4","","59","","31","","16","","24.1","","99.88","","","","","","Mostly Cloudy"
"2016-11-27 14:00","2016","11","27","14:00","7.4","","0.4","","61","","28","","20","","24.1","","99.85","","","","","","NA"
"2016-11-27 15:00","2016","11","27","15:00","6.9","","0.4","","63","","28","","17","","24.1","","99.83","","","","","","NA"
"2016-11-27 16:00","2016","11","27","16:00","7.0","","1.1","","66","","29","","9","","24.1","","99.83","","","","","","Mostly Cloudy"
"2016-11-27 17:00","2016","11","27","17:00","5.7","","0.1","","67","","27","","9","","24.1","","99.83","","","","","","NA"
"2016-11-27 18:00","2016","11","27","18:00","6.5","","0.0","","63","","23","","3","","24.1","","99.85","","","","","","NA"
"2016-11-27 19:00","2016","11","27","19:00","6.4","","0.1","","64","","16","","6","","24.1","","99.85","","","","","","Mostly Cloudy"
"2016-11-27 20:00","2016","11","27","20:00","6.1","","1.3","","71","","20","","9","","24.1","","99.86","","","","","","NA"
"2016-11-27 21:00","2016","11","27","21:00","5.9","","1.4","","73","","21","","7","","19.3","","99.85","","","","","","NA"
"2016-11-27 22:00","2016","11","27","22:00","4.7","","0.8","","76","","22","","4","","19.3","","99.80","","","","","","Clear"
"2016-11-27 23:00","2016","11","27","23:00","4.2","","1.1","","80","","18","","3","","19.3","","99.78","","","","","","NA"
"2016-11-28 00:00","2016","11","28","00:00","3.6","","1.5","","86","","11","","7","","19.3","","99.78","","","","","","NA"
"2016-11-28 01:00","2016","11","28","01:00","3.3","","1.7","","89","","11","","7","","19.3","","99.76","","","","","","Mostly Cloudy"
"2016-11-28 02:00","2016","11","28","02:00","3.7","","1.7","","87","","10","","5","","19.3","","99.73","","","","","","NA"
"2016-11-28 03:00","2016","11","28","03:00","3.7","","1.7","","87","","10","","8","","19.3","","99.71","","","","","","NA"
"2016-11-28 04:00","2016","11","28","04:00","3.0","","1.1","","87","","10","","10","","24.1","","99.64","","","","","","Clear"
"2016-11-28 05:00","2016","11","28","05:00","2.9","","1.6","","91","","11","","9","","19.3","","99.61","","","","","","NA"
"2016-11-28 06:00","2016","11","28","06:00","3.5","","2.5","","93","","15","","8","","19.3","","99.61","","","","","","NA"
"2016-11-28 07:00","2016","11","28","07:00","3.9","","2.7","","92","","13","","9","","24.1","","99.57","","","","","","Mostly Cloudy"
"2016-11-28 08:00","2016","11","28","08:00","3.9","","2.4","","90","","12","","7","","24.1","","99.62","","","","","","NA"
"2016-11-28 09:00","2016","11","28","09:00","5.2","","2.9","","85","","13","","12","","24.1","","99.60","","","","","","NA"
"2016-11-28 10:00","2016","11","28","10:00","6.0","","2.5","","78","","14","","14","","24.1","","99.54","","","","","","Mostly Cloudy"
"2016-11-28 11:00","2016","11","28","11:00","6.7","","1.8","","71","","13","","15","","24.1","","99.48","","","","","","NA"
"2016-11-28 12:00","2016","11","28","12:00","6.8","","1.5","","69","","10","","18","","24.1","","99.40","","","","","","NA"
"2016-11-28 13:00","2016","11","28","13:00","7.0","","0.9","","65","","8","","20","","24.1","","99.25","","","","","","Mostly Cloudy"
"2016-11-28 14:00","2016","11","28","14:00","7.0","","0.9","","65","","10","","23","","24.1","","99.15","","","","","","NA"
"2016-11-28 15:00","2016","11","28","15:00","6.8","","1.1","","67","","11","","13","","24.1","","99.24","","","","","","NA"
"2016-11-28 16:00","2016","11","28","16:00","6.8","","2.3","","73","","9","","16","","24.1","","99.16","","","","","","Cloudy"
"2016-11-28 17:00","2016","11","28","17:00","7.0","","2.3","","72","","9","","17","","24.1","","99.07","","","","","","NA"
"2016-11-28 18:00","2016","11","28","18:00","7.5","","2.8","","72","","10","","16","","24.1","","99.06","","","","","","NA"
"2016-11-28 19:00","2016","11","28","19:00","7.8","","3.3","","73","","9","","18","","24.1","","99.05","","","","","","Cloudy"
"2016-11-28 20:00","2016","11","28","20:00","8.0","","3.7","","74","","10","","16","","24.1","","98.98","","","","","","NA"
"2016-11-28 21:00","2016","11","28","21:00","7.6","","4.0","","78","","8","","16","","24.1","","98.90","","","","","","NA"
"2016-11-28 22:00","2016","11","28","22:00","7.2","","3.3","","76","","10","","21","","24.1","","98.74","","","","","","Cloudy"
"2016-11-28 23:00","2016","11","28","23:00","7.1","","3.2","","76","","11","","24","","24.1","","98.83","","","","","","Rain"
"2016-11-29 00:00","2016","11","29","00:00","6.1","","4.3","","88","","10","","28","","24.1","","98.57","","","","","","Rain"
"2016-11-29 01:00","2016","11","29","01:00","6.7","","2.6","","75","","13","","21","","24.1","","98.52","","","","","","Rain"
"2016-11-29 02:00","2016","11","29","02:00","7.0","","2.3","","72","","12","","20","","24.1","","98.46","","","","","","Rain"
"2016-11-29 03:00","2016","11","29","03:00","6.2","","3.5","","83","","12","","21","","19.3","","98.43","","","","","","Rain"
"2016-11-29 04:00","2016","11","29","04:00","6.3","","4.3","","87","","12","","19","","24.1","","98.28","","","","","","Rain"
"2016-11-29 05:00","2016","11","29","05:00","7.2","","4.7","","84","","12","","22","","24.1","","98.20","","","","","","NA"
"2016-11-29 06:00","2016","11","29","06:00","7.6","","4.9","","83","","14","","17","","24.1","","98.22","","","","","","NA"
"2016-11-29 07:00","2016","11","29","07:00","7.9","","5.6","","85","","14","","15","","24.1","","98.21","","","","","","Mostly Cloudy"
"2016-11-29 08:00","2016","11","29","08:00","8.4","","6.5","","88","","15","","9","","24.1","","98.27","","","","","","NA"
"2016-11-29 09:00","2016","11","29","09:00","9.9","","7.9","","87","","18","","13","","24.1","","98.28","","","","","","NA"
"2016-11-29 10:00","2016","11","29","10:00","11.7","","8.8","","82","","20","","15","","24.1","","98.35","","","","","","Mostly Cloudy"
"2016-11-29 11:00","2016","11","29","11:00","12.2","","8.9","","80","","20","","19","","24.1","","98.34","","","","","","NA"
"2016-11-29 12:00","2016","11","29","12:00","12.8","","9.3","","79","","21","","20","","24.1","","98.33","","","","","","NA"
"2016-11-29 13:00","2016","11","29","13:00","13.5","","8.8","","73","","23","","18","","24.1","","98.33","","","","","","Mostly Cloudy"
"2016-11-29 14:00","2016","11","29","14:00","13.4","","8.1","","70","","23","","17","","24.1","","98.36","","","","","","NA"
"2016-11-29 15:00","2016","11","29","15:00","13.6","","7.4","","66","","25","","11","","24.1","","98.43","","","","","","NA"
"2016-11-29 16:00","2016","11","29","16:00","13.1","","7.8","","70","","20","","9","","24.1","","98.52","","","","","","Mostly Cloudy"
"2016-11-29 17:00","2016","11","29","17:00","12.3","","7.4","","72","","21","","10","","24.1","","98.59","","","","","","NA"
"2016-11-29 18:00","2016","11","29","18:00","11.6","","7.4","","75","","20","","9","","24.1","","98.67","","","","","","NA"
"2016-11-29 19:00","2016","11","29","19:00","10.4","","7.5","","82","","21","","12","","24.1","","98.73","","","","","","Mostly Cloudy"
"2016-11-29 20:00","2016","11","29","20:00","9.6","","7.6","","87","","22","","9","","24.1","","98.79","","","","","","NA"
"2016-11-29 21:00","2016","11","29","21:00","9.2","","6.5","","83","","23","","7","","24.1","","98.81","","","","","","NA"
"2016-11-29 22:00","2016","11","29","22:00","8.6","","6.4","","86","","19","","5","","24.1","","98.81","","","","","","Mainly Clear"
"2016-11-29 23:00","2016","11","29","23:00","7.6","","6.2","","91","","15","","7","","24.1","","98.81","","","","","","NA"
"2016-11-30 00:00","2016","11","30","00:00","7.4","","6.4","","93","","16","","5","","24.1","","98.81","","","","","","NA"
"2016-11-30 01:00","2016","11","30","01:00","7.4","","6.2","","92","","14","","7","","24.1","","98.78","","","","","","Mostly Cloudy"
"2016-11-30 02:00","2016","11","30","02:00","7.4","","6.0","","91","","15","","7","","24.1","","98.80","","","","","","NA"
"2016-11-30 03:00","2016","11","30","03:00","6.9","","6.0","","94","","7","","7","","24.1","","98.73","","","","","","NA"
"2016-11-30 04:00","2016","11","30","04:00","6.5","","5.8","","95","","10","","10","","24.1","","98.64","","","","","","Mostly Cloudy"
"2016-11-30 05:00","2016","11","30","05:00","6.7","","6.0","","95","","11","","9","","24.1","","98.58","","","","","","NA"
"2016-11-30 06:00","2016","11","30","06:00","7.1","","6.4","","95","","8","","10","","16.1","","98.53","","","","","","NA"
"2016-11-30 07:00","2016","11","30","07:00","7.5","","6.5","","93","","8","","7","","16.1","","98.51","","","","","","Mostly Cloudy"
"2016-11-30 08:00","2016","11","30","08:00","7.6","","6.7","","94","","7","","9","","24.1","","98.48","","","","","","NA"
"2016-11-30 09:00","2016","11","30","09:00","8.8","","7.3","","90","","11","","8","","24.1","","98.41","","","","","","NA"
"2016-11-30 10:00","2016","11","30","10:00","9.6","","7.2","","85","","5","","5","","19.3","","98.40","","","","","","Rain"
"2016-11-30 11:00","2016","11","30","11:00","9.7","","8.3","","91","","7","","5","","19.3","","98.30","","","","","","Rain"
"2016-11-30 12:00","2016","11","30","12:00","10.7","","9.0","","89","","8","","10","","24.1","","98.18","","","","","","Rain"
"2016-11-30 13:00","2016","11","30","13:00","10.8","","9.4","","91","","10","","11","","24.1","","98.10","","","","","","Rain"
"2016-11-30 14:00","2016","11","30","14:00","10.9","","10.1","","95","","11","","10","","24.1","","97.99","","","","","","NA"
"2016-11-30 15:00","2016","11","30","15:00","11.3","","9.7","","90","","11","","8","","24.1","","97.92","","","","","","NA"
"2016-11-30 16:00","2016","11","30","16:00","10.9","","8.5","","85","","14","","9","","24.1","","97.90","","","","","","Cloudy"
"2016-11-30 17:00","2016","11","30","17:00","10.0","","9.1","","94","","14","","12","","11.3","","97.86","","","","","","NA"
"2016-11-30 18:00","2016","11","30","18:00","10.0","","9.2","","95","","15","","9","","12.9","","97.81","","","","","","Rain"
"2016-11-30 19:00","2016","11","30","19:00","9.9","","9.1","","95","","15","","11","","16.1","","97.76","","","","","","Cloudy"
"2016-11-30 20:00","2016","11","30","20:00","9.8","","9.2","","96","","27","","9","","16.1","","97.66","","","","","","Rain"
"2016-11-30 21:00","2016","11","30","21:00","10.0","","9.2","","95","","26","","21","","16.1","","97.67","","","","","","Rain"
"2016-11-30 22:00","2016","11","30","22:00","9.5","","8.3","","92","","24","","19","","16.1","","97.61","","","","","","Rain"
"2016-11-30 23:00","2016","11","30","23:00","9.2","","8.0","","92","","27","","16","","19.3","","97.63","","","","","","Rain"
