"Station Name","TORONTO LESTER B. PEARSON INT'L A"
"Province","ONTARIO"
"Latitude","43.68"
"Longitude","-79.63"
"Elevation","173.40"
"Climate Identifier","6158733"
"WMO Identifier","71624"
"TC Identifier","YYZ"
"All times are specified in Local Standard Time (LST). Add 1 hour to adjust for Daylight Saving Time where and when it is observed."

"Legend"
"E","Estimated"
"M","Missing"
"NA","Not Available"

"Date/Time","Year","Month","Day","Time","Temp (°C)","Temp Flag","Dew Point Temp (°C)","Dew Point Temp Flag","Rel Hum (%)","Rel Hum Flag","Wind Dir (10s deg)","Wind Dir Flag","Wind Spd (km/h)","Wind Spd Flag","Visibility (km)","Visibility Flag","Stn Press (kPa)","Stn Press Flag","Hmdx","Hmdx Flag","Wind Chill","Wind Chill Flag","Weather"
"1981-09-01 00:00","1981","09","01","00:00","20.0","","19.1","","95","","","","0","","4.8","","99.19","","27","","","","Fog"
"1981-09-01 01:00","1981","09","01","01:00","19.6","","18.6","","94","","14","","6","","4.8","","99.16","","","","","","Fog"
"1981-09-01 02:00","1981","09","01","02:00","19.5","","18.6","","95","","12","","6","","4.0","","99.12","","","","","","Fog"
"1981-09-01 03:00","1981","09","01","03:00","19.8","","19.4","","98","","","","0","","3.2","","99.12","","","","","","Fog"
"1981-09-01 04:00","1981","09","01","04:00","19.9","","19.4","","97","","14","","6","","3.2","","99.09","","","","","","Fog"
"1981-09-01 05:00","1981","09","01","05:00","20.1","","19.4","","96","","15","","6","","3.2","","99.09","","27","","","","Fog"
"1981-09-01 06:00","1981","09","01","06:00","20.4","","19.6","","95","","17","","4","","2.4","","99.12","","28","","","","Fog"
"1981-09-01 07:00","1981","09","01","07:00","20.7","","19.0","","90","","16","","4","","2.4","","99.12","","27","","","","Fog"
"1981-09-01 08:00","1981","09","01","08:00","21.3","","20.1","","93","","15","","9","","4.0","","99.09","","29","","","","Fog"
"1981-09-01 09:00","1981","09","01","09:00","21.9","","20.0","","89","","16","","9","","4.8","","99.09","","29","","","","Fog"
"1981-09-01 10:00","1981","09","01","10:00","22.0","","19.7","","87","","17","","13","","4.8","","99.12","","29","","","","Rain Showers,Fog"
"1981-09-01 11:00","1981","09","01","11:00","23.0","","20.1","","84","","15","","15","","6.4","","99.09","","31","","","","Haze"
"1981-09-01 12:00","1981","09","01","12:00","24.0","","19.7","","77","","15","","17","","8.0","","99.06","","31","","","","Haze"
"1981-09-01 13:00","1981","09","01","13:00","25.0","","19.8","","73","","16","","19","","9.7","","98.99","","32","","","","Haze"
"1981-09-01 14:00","1981","09","01","14:00","25.6","","19.8","","70","","17","","19","","9.7","","98.96","","33","","","","Haze"
"1981-09-01 15:00","1981","09","01","15:00","25.5","","19.8","","71","","16","","19","","11.3","","98.89","","33","","","","Mostly Cloudy"
"1981-09-01 16:00","1981","09","01","16:00","25.2","","19.5","","71","","15","","15","","11.3","","98.89","","32","","","","Mostly Cloudy"
"1981-09-01 17:00","1981","09","01","17:00","24.3","","20.5","","80","","13","","15","","11.3","","98.86","","32","","","","Cloudy"
"1981-09-01 18:00","1981","09","01","18:00","24.1","","20.0","","78","","11","","11","","11.3","","98.86","","32","","","","Cloudy"
"1981-09-01 19:00","1981","09","01","19:00","23.8","","20.0","","79","","12","","11","","8.0","","98.82","","31","","","","Haze"
"1981-09-01 20:00","1981","09","01","20:00","23.1","","20.1","","83","","17","","13","","8.0","","98.86","","31","","","","Haze"
"1981-09-01 21:00","1981","09","01","21:00","22.5","","20.2","","87","","20","","7","","8.0","","98.89","","30","","","","Rain Showers,Fog"
"1981-09-01 22:00","1981","09","01","22:00","21.7","","19.8","","89","","23","","4","","8.0","","98.89","","29","","","","Fog"
"1981-09-01 23:00","1981","09","01","23:00","21.5","","19.8","","90","","20","","7","","11.3","","98.89","","29","","","","Rain Showers"
"1981-09-02 00:00","1981","09","02","00:00","21.3","","20.1","","93","","18","","7","","8.0","","98.92","","29","","","","Rain Showers,Fog"
"1981-09-02 01:00","1981","09","02","01:00","21.4","","20.4","","94","","18","","9","","4.8","","98.92","","29","","","","Rain Showers,Fog"
"1981-09-02 02:00","1981","09","02","02:00","21.1","","19.8","","92","","20","","7","","6.4","","98.92","","29","","","","Fog"
"1981-09-02 03:00","1981","09","02","03:00","21.0","","19.8","","93","","17","","9","","6.4","","98.92","","28","","","","Fog"
"1981-09-02 04:00","1981","09","02","04:00","21.0","","20.1","","95","","17","","9","","4.8","","98.92","","29","","","","Rain Showers,Fog"
"1981-09-02 05:00","1981","09","02","05:00","20.6","","19.6","","94","","16","","9","","4.8","","98.89","","28","","","","Rain Showers,Fog"
"1981-09-02 06:00","1981","09","02","06:00","20.2","","19.4","","95","","16","","9","","3.2","","98.96","","27","","","","Rain Showers,Fog"
"1981-09-02 07:00","1981","09","02","07:00","20.7","","19.9","","95","","17","","13","","2.4","","98.99","","28","","","","Rain Showers,Fog"
"1981-09-02 08:00","1981","09","02","08:00","21.0","","20.4","","96","","18","","11","","2.4","","98.99","","29","","","","Rain Showers,Fog"
"1981-09-02 09:00","1981","09","02","09:00","22.0","","20.9","","93","","21","","7","","3.6","","99.02","","30","","","","Fog"
"1981-09-02 10:00","1981","09","02","10:00","23.6","","20.7","","84","","25","","4","","11.3","","99.09","","32","","","","Mostly Cloudy"
"1981-09-02 11:00","1981","09","02","11:00","24.6","","20.2","","77","","28","","9","","16.1","","99.09","","32","","","","Cloudy"
"1981-09-02 12:00","1981","09","02","12:00","25.5","","20.4","","73","","","","0","","16.1","","99.09","","33","","","","Cloudy"
"1981-09-02 13:00","1981","09","02","13:00","26.1","","20.0","","69","","","","0","","16.1","","99.09","","34","","","","Cloudy"
"1981-09-02 14:00","1981","09","02","14:00","24.9","","21.9","","83","","13","","4","","12.9","","99.09","","34","","","","Cloudy"
"1981-09-02 15:00","1981","09","02","15:00","24.5","","22.0","","86","","14","","9","","12.9","","99.16","","34","","","","Cloudy"
"1981-09-02 16:00","1981","09","02","16:00","21.6","","21.1","","97","","","","0","","12.9","","99.19","","30","","","","Rain Showers"
"1981-09-02 17:00","1981","09","02","17:00","22.1","","20.3","","89","","35","","11","","9.7","","99.26","","30","","","","Rain Showers,Fog"
"1981-09-02 18:00","1981","09","02","18:00","21.4","","19.8","","91","","34","","15","","12.9","","99.26","","29","","","","Rain Showers"
"1981-09-02 19:00","1981","09","02","19:00","20.1","","18.8","","92","","35","","13","","8.0","","99.32","","27","","","","Rain Showers,Fog"
"1981-09-02 20:00","1981","09","02","20:00","19.7","","18.3","","91","","36","","20","","8.0","","99.36","","","","","","Rain Showers,Fog"
"1981-09-02 21:00","1981","09","02","21:00","19.5","","18.0","","91","","36","","11","","12.9","","99.39","","","","","","Cloudy"
"1981-09-02 22:00","1981","09","02","22:00","19.4","","18.0","","92","","36","","7","","12.9","","99.42","","","","","","Cloudy"
"1981-09-02 23:00","1981","09","02","23:00","19.3","","18.0","","92","","1","","11","","16.1","","99.39","","","","","","Cloudy"
"1981-09-03 00:00","1981","09","03","00:00","19.3","","18.3","","94","","33","","6","","16.1","","99.42","","","","","","Cloudy"
"1981-09-03 01:00","1981","09","03","01:00","19.0","","17.8","","93","","33","","6","","16.1","","99.49","","","","","","Cloudy"
"1981-09-03 02:00","1981","09","03","02:00","19.0","","17.5","","91","","35","","9","","16.1","","99.46","","","","","","Cloudy"
"1981-09-03 03:00","1981","09","03","03:00","19.0","","17.5","","91","","36","","7","","16.1","","99.46","","","","","","Cloudy"
"1981-09-03 04:00","1981","09","03","04:00","19.1","","17.8","","92","","1","","7","","16.1","","99.46","","","","","","Cloudy"
"1981-09-03 05:00","1981","09","03","05:00","19.2","","17.8","","91","","","","0","","12.9","","99.46","","","","","","Cloudy"
"1981-09-03 06:00","1981","09","03","06:00","19.2","","18.1","","93","","","","0","","12.9","","99.52","","","","","","Cloudy"
"1981-09-03 07:00","1981","09","03","07:00","19.0","","18.1","","95","","36","","4","","11.3","","99.56","","","","","","Cloudy"
"1981-09-03 08:00","1981","09","03","08:00","19.2","","18.1","","93","","1","","6","","6.4","","99.56","","","","","","Fog"
"1981-09-03 09:00","1981","09","03","09:00","19.5","","18.9","","96","","1","","4","","3.6","","99.56","","","","","","Rain Showers,Fog"
"1981-09-03 10:00","1981","09","03","10:00","19.5","","19.2","","98","","","","0","","1.2","","99.59","","","","","","Drizzle,Fog"
"1981-09-03 11:00","1981","09","03","11:00","19.9","","19.4","","97","","10","","6","","1.2","","99.59","","","","","","Drizzle,Fog"
"1981-09-03 12:00","1981","09","03","12:00","20.2","","19.4","","95","","6","","7","","2.0","","99.56","","27","","","","Fog"
"1981-09-03 13:00","1981","09","03","13:00","20.5","","19.9","","96","","8","","7","","2.0","","99.56","","28","","","","Fog"
"1981-09-03 14:00","1981","09","03","14:00","20.9","","20.4","","97","","8","","7","","2.0","","99.52","","29","","","","Fog"
"1981-09-03 15:00","1981","09","03","15:00","21.2","","19.8","","91","","7","","7","","2.4","","99.49","","29","","","","Fog"
"1981-09-03 16:00","1981","09","03","16:00","21.0","","20.1","","95","","8","","9","","2.4","","99.49","","29","","","","Fog"
"1981-09-03 17:00","1981","09","03","17:00","21.0","","20.1","","95","","7","","13","","2.4","","99.52","","29","","","","Fog"
"1981-09-03 18:00","1981","09","03","18:00","20.9","","20.1","","95","","8","","13","","2.0","","99.49","","29","","","","Fog"
"1981-09-03 19:00","1981","09","03","19:00","20.6","","19.6","","94","","7","","11","","2.0","","99.49","","28","","","","Fog"
"1981-09-03 20:00","1981","09","03","20:00","20.6","","19.9","","96","","9","","17","","2.4","","99.49","","28","","","","Fog"
"1981-09-03 21:00","1981","09","03","21:00","20.6","","20.2","","98","","11","","7","","1.6","","99.49","","28","","","","Heavy Rain Showers,Fog"
"1981-09-03 22:00","1981","09","03","22:00","20.6","","20.2","","98","","11","","13","","4.0","","99.46","","28","","","","Rain Showers,Fog"
"1981-09-03 23:00","1981","09","03","23:00","20.7","","19.9","","95","","9","","9","","3.2","","99.46","","28","","","","Rain Showers,Fog"
"1981-09-04 00:00","1981","09","04","00:00","20.6","","20.2","","98","","9","","7","","4.0","","99.42","","28","","","","Rain,Fog"
"1981-09-04 01:00","1981","09","04","01:00","20.5","","19.9","","96","","13","","13","","4.8","","99.39","","28","","","","Rain,Fog"
"1981-09-04 02:00","1981","09","04","02:00","20.0","","19.4","","96","","13","","11","","6.4","","99.36","","27","","","","Rain,Fog"
"1981-09-04 03:00","1981","09","04","03:00","20.0","","19.4","","96","","11","","13","","6.4","","99.32","","27","","","","Rain,Fog"
"1981-09-04 04:00","1981","09","04","04:00","19.6","","19.2","","98","","12","","13","","4.8","","99.29","","","","","","Moderate Rain,Fog"
"1981-09-04 05:00","1981","09","04","05:00","19.5","","19.2","","98","","11","","15","","6.4","","99.29","","","","","","Rain,Fog"
"1981-09-04 06:00","1981","09","04","06:00","19.5","","19.2","","98","","13","","19","","3.2","","99.29","","","","","","Heavy Rain,Fog"
"1981-09-04 07:00","1981","09","04","07:00","19.5","","18.9","","96","","13","","19","","4.0","","99.29","","","","","","Rain,Fog"
"1981-09-04 08:00","1981","09","04","08:00","19.6","","18.9","","96","","13","","19","","4.8","","99.26","","","","","","Fog"
"1981-09-04 09:00","1981","09","04","09:00","19.7","","18.9","","95","","13","","15","","4.8","","99.26","","","","","","Fog"
"1981-09-04 10:00","1981","09","04","10:00","20.0","","19.4","","96","","12","","15","","3.2","","99.26","","27","","","","Fog"
"1981-09-04 11:00","1981","09","04","11:00","20.6","","19.3","","92","","12","","13","","4.8","","99.26","","28","","","","Fog"
"1981-09-04 12:00","1981","09","04","12:00","21.0","","19.8","","93","","12","","19","","8.0","","99.22","","28","","","","Fog"
"1981-09-04 13:00","1981","09","04","13:00","21.3","","20.1","","93","","12","","15","","12.9","","99.22","","29","","","","Cloudy"
"1981-09-04 14:00","1981","09","04","14:00","22.0","","19.7","","87","","12","","19","","19.3","","99.19","","29","","","","Cloudy"
"1981-09-04 15:00","1981","09","04","15:00","22.4","","19.6","","84","","13","","11","","16.1","","99.19","","30","","","","Cloudy"
"1981-09-04 16:00","1981","09","04","16:00","22.6","","19.9","","85","","15","","15","","19.3","","99.26","","30","","","","Cloudy"
"1981-09-04 17:00","1981","09","04","17:00","22.0","","18.8","","82","","19","","6","","16.1","","99.26","","29","","","","Cloudy"
"1981-09-04 18:00","1981","09","04","18:00","21.5","","18.2","","82","","19","","2","","12.9","","99.29","","28","","","","Cloudy"
"1981-09-04 19:00","1981","09","04","19:00","20.5","","19.6","","95","","10","","9","","4.8","","99.32","","28","","","","Rain Showers,Fog"
"1981-09-04 20:00","1981","09","04","20:00","20.1","","19.1","","94","","12","","4","","6.4","","99.32","","27","","","","Fog"
"1981-09-04 21:00","1981","09","04","21:00","18.2","","17.1","","93","","","","0","","8.0","","99.36","","","","","","Rain Showers,Fog"
"1981-09-04 22:00","1981","09","04","22:00","18.4","","17.6","","95","","","","0","","4.8","","99.36","","","","","","Rain Showers,Fog"
"1981-09-04 23:00","1981","09","04","23:00","18.5","","17.6","","95","","6","","7","","8.0","","99.36","","","","","","Fog"
"1981-09-05 00:00","1981","09","05","00:00","18.5","","17.6","","95","","6","","9","","4.8","","99.36","","","","","","Fog"
"1981-09-05 01:00","1981","09","05","01:00","18.6","","17.9","","96","","8","","7","","4.8","","99.32","","","","","","Rain Showers,Fog"
"1981-09-05 02:00","1981","09","05","02:00","18.7","","17.9","","95","","9","","9","","4.8","","99.29","","","","","","Rain Showers,Fog"
"1981-09-05 03:00","1981","09","05","03:00","18.8","","18.4","","98","","18","","7","","3.2","","99.32","","","","","","Moderate Rain Showers,Fog"
"1981-09-05 04:00","1981","09","05","04:00","18.7","","18.2","","97","","7","","11","","4.8","","99.32","","","","","","Rain Showers,Fog"
"1981-09-05 05:00","1981","09","05","05:00","18.6","","17.9","","96","","6","","7","","4.8","","99.32","","","","","","Rain Showers,Fog"
"1981-09-05 06:00","1981","09","05","06:00","18.8","","18.4","","98","","5","","7","","4.0","","99.36","","","","","","Fog"
"1981-09-05 07:00","1981","09","05","07:00","18.8","","18.4","","98","","5","","7","","2.4","","99.39","","","","","","Drizzle,Fog"
"1981-09-05 08:00","1981","09","05","08:00","19.1","","18.4","","96","","7","","9","","4.8","","99.39","","","","","","Fog"
"1981-09-05 09:00","1981","09","05","09:00","19.8","","18.8","","94","","3","","11","","9.7","","99.39","","","","","","Fog"
"1981-09-05 10:00","1981","09","05","10:00","19.8","","18.5","","92","","8","","11","","9.7","","99.46","","","","","","Fog"
"1981-09-05 11:00","1981","09","05","11:00","19.8","","18.5","","92","","2","","15","","9.7","","99.46","","","","","","Fog"
"1981-09-05 12:00","1981","09","05","12:00","19.8","","18.2","","91","","4","","13","","11.3","","99.46","","","","","","Cloudy"
"1981-09-05 13:00","1981","09","05","13:00","19.9","","17.9","","88","","3","","11","","11.3","","99.49","","","","","","Cloudy"
"1981-09-05 14:00","1981","09","05","14:00","19.9","","18.2","","90","","4","","13","","11.3","","99.49","","","","","","Cloudy"
"1981-09-05 15:00","1981","09","05","15:00","19.9","","18.5","","92","","5","","15","","6.4","","99.52","","","","","","Fog"
"1981-09-05 16:00","1981","09","05","16:00","19.9","","17.9","","88","","4","","15","","4.8","","99.56","","","","","","Fog"
"1981-09-05 17:00","1981","09","05","17:00","19.3","","18.3","","94","","1","","7","","4.8","","99.56","","","","","","Rain Showers,Fog"
"1981-09-05 18:00","1981","09","05","18:00","19.0","","18.7","","98","","34","","4","","3.2","","99.59","","","","","","Rain Showers,Fog"
"1981-09-05 19:00","1981","09","05","19:00","19.0","","18.1","","95","","35","","13","","2.0","","99.66","","","","","","Rain Showers,Fog"
"1981-09-05 20:00","1981","09","05","20:00","18.8","","18.4","","98","","35","","7","","6.4","","99.69","","","","","","Fog"
"1981-09-05 21:00","1981","09","05","21:00","18.5","","17.6","","95","","34","","7","","12.9","","99.72","","","","","","Cloudy"
"1981-09-05 22:00","1981","09","05","22:00","18.4","","17.9","","97","","34","","7","","12.9","","99.72","","","","","","Cloudy"
"1981-09-05 23:00","1981","09","05","23:00","18.2","","17.1","","93","","1","","9","","16.1","","99.72","","","","","","Mostly Cloudy"
"1981-09-06 00:00","1981","09","06","00:00","18.0","","17.1","","95","","36","","7","","16.1","","99.72","","","","","","Mostly Cloudy"
"1981-09-06 01:00","1981","09","06","01:00","17.5","","16.6","","95","","1","","6","","16.1","","99.69","","","","","","Mostly Cloudy"
"1981-09-06 02:00","1981","09","06","02:00","17.1","","16.1","","94","","1","","7","","16.1","","99.69","","","","","","Mostly Cloudy"
"1981-09-06 03:00","1981","09","06","03:00","17.0","","16.1","","95","","2","","4","","16.1","","99.69","","","","","","Mostly Cloudy"
"1981-09-06 04:00","1981","09","06","04:00","16.7","","15.2","","91","","35","","9","","16.1","","99.69","","","","","","Mostly Cloudy"
"1981-09-06 05:00","1981","09","06","05:00","16.4","","15.6","","95","","34","","7","","16.1","","99.72","","","","","","Mostly Cloudy"
"1981-09-06 06:00","1981","09","06","06:00","16.6","","15.6","","94","","35","","7","","12.9","","99.79","","","","","","Cloudy"
"1981-09-06 07:00","1981","09","06","07:00","17.8","","16.5","","92","","35","","11","","9.7","","99.82","","","","","","Fog"
"1981-09-06 08:00","1981","09","06","08:00","18.1","","16.8","","92","","33","","11","","9.7","","99.86","","","","","","Fog"
"1981-09-06 09:00","1981","09","06","09:00","18.5","","17.0","","91","","34","","13","","11.3","","99.86","","","","","","Cloudy"
"1981-09-06 10:00","1981","09","06","10:00","18.8","","17.2","","91","","35","","13","","12.9","","99.89","","","","","","Cloudy"
"1981-09-06 11:00","1981","09","06","11:00","18.9","","16.9","","88","","2","","13","","12.9","","99.89","","","","","","Cloudy"
"1981-09-06 12:00","1981","09","06","12:00","19.7","","17.1","","85","","35","","7","","12.9","","99.89","","","","","","Cloudy"
"1981-09-06 13:00","1981","09","06","13:00","20.2","","17.0","","82","","2","","7","","12.9","","99.89","","25","","","","Cloudy"
"1981-09-06 14:00","1981","09","06","14:00","20.2","","17.0","","82","","2","","9","","12.9","","99.86","","25","","","","Cloudy"
"1981-09-06 15:00","1981","09","06","15:00","19.9","","17.0","","83","","1","","7","","19.3","","99.82","","","","","","Cloudy"
"1981-09-06 16:00","1981","09","06","16:00","19.5","","16.8","","84","","2","","11","","24.1","","99.86","","","","","","Cloudy"
"1981-09-06 17:00","1981","09","06","17:00","19.9","","17.6","","87","","35","","4","","19.3","","99.82","","","","","","Cloudy"
"1981-09-06 18:00","1981","09","06","18:00","19.5","","17.4","","88","","1","","4","","16.1","","99.79","","","","","","Cloudy"
"1981-09-06 19:00","1981","09","06","19:00","19.0","","17.2","","89","","4","","6","","16.1","","99.79","","","","","","Cloudy"
"1981-09-06 20:00","1981","09","06","20:00","18.9","","17.2","","90","","36","","4","","16.1","","99.79","","","","","","Cloudy"
"1981-09-06 21:00","1981","09","06","21:00","18.3","","17.6","","96","","","","0","","12.9","","99.79","","","","","","Cloudy"
"1981-09-06 22:00","1981","09","06","22:00","18.0","","17.4","","96","","33","","2","","9.7","","99.82","","","","","","Rain Showers,Fog"
"1981-09-06 23:00","1981","09","06","23:00","18.0","","17.4","","96","","","","0","","8.0","","99.82","","","","","","Drizzle,Fog"
"1981-09-07 00:00","1981","09","07","00:00","18.1","","17.4","","96","","","","0","","11.3","","99.82","","","","","","Cloudy"
"1981-09-07 01:00","1981","09","07","01:00","17.8","","17.4","","98","","","","0","","11.3","","99.76","","","","","","Cloudy"
"1981-09-07 02:00","1981","09","07","02:00","17.5","","16.6","","95","","","","0","","11.3","","99.72","","","","","","Mostly Cloudy"
"1981-09-07 03:00","1981","09","07","03:00","17.5","","16.6","","95","","","","0","","11.3","","99.66","","","","","","Cloudy"
"1981-09-07 04:00","1981","09","07","04:00","17.1","","16.1","","94","","","","0","","11.3","","99.66","","","","","","Mostly Cloudy"
"1981-09-07 05:00","1981","09","07","05:00","17.0","","16.1","","95","","","","0","","16.1","","99.66","","","","","","Mostly Cloudy"
"1981-09-07 06:00","1981","09","07","06:00","16.4","","15.9","","97","","","","0","","3.6","","99.63","","","","","","Fog"
"1981-09-07 07:00","1981","09","07","07:00","17.0","","16.4","","96","","","","0","","11.3","","99.59","","","","","","Mostly Cloudy"
"1981-09-07 08:00","1981","09","07","08:00","18.5","","17.3","","93","","","","0","","16.1","","99.59","","","","","","Mainly Clear"
"1981-09-07 09:00","1981","09","07","09:00","19.8","","17.9","","89","","","","0","","16.1","","99.56","","","","","","Mostly Cloudy"
"1981-09-07 10:00","1981","09","07","10:00","21.3","","17.3","","78","","25","","7","","16.1","","99.49","","27","","","","Mostly Cloudy"
"1981-09-07 11:00","1981","09","07","11:00","21.6","","17.0","","75","","27","","6","","16.1","","99.46","","27","","","","Mostly Cloudy"
"1981-09-07 12:00","1981","09","07","12:00","23.0","","18.6","","76","","","","0","","16.1","","99.39","","29","","","","Mostly Cloudy"
"1981-09-07 13:00","1981","09","07","13:00","24.0","","21.5","","86","","","","0","","16.1","","99.32","","33","","","","Mostly Cloudy"
"1981-09-07 14:00","1981","09","07","14:00","22.9","","18.0","","74","","19","","7","","16.1","","99.26","","29","","","","Mostly Cloudy"
"1981-09-07 15:00","1981","09","07","15:00","23.1","","18.3","","74","","14","","9","","16.1","","99.19","","29","","","","Mostly Cloudy"
"1981-09-07 16:00","1981","09","07","16:00","23.0","","17.6","","72","","15","","11","","19.3","","99.09","","29","","","","Mainly Clear"
"1981-09-07 17:00","1981","09","07","17:00","22.5","","18.1","","76","","15","","9","","24.1","","99.09","","29","","","","Mainly Clear"
"1981-09-07 18:00","1981","09","07","18:00","21.2","","17.1","","77","","15","","9","","19.3","","99.06","","27","","","","Mainly Clear"
"1981-09-07 19:00","1981","09","07","19:00","20.0","","18.2","","90","","17","","6","","12.9","","98.99","","26","","","","Mostly Cloudy"
"1981-09-07 20:00","1981","09","07","20:00","19.5","","18.0","","91","","16","","4","","12.9","","98.99","","","","","","Mostly Cloudy"
"1981-09-07 21:00","1981","09","07","21:00","19.4","","18.0","","92","","15","","6","","9.7","","98.96","","","","","","Fog"
"1981-09-07 22:00","1981","09","07","22:00","18.2","","17.4","","95","","","","0","","8.0","","98.89","","","","","","Fog"
"1981-09-07 23:00","1981","09","07","23:00","18.1","","16.8","","92","","25","","11","","11.3","","98.86","","","","","","Mainly Clear"
"1981-09-08 00:00","1981","09","08","00:00","17.8","","17.1","","96","","26","","6","","11.3","","98.85","","","","","","Mostly Cloudy"
"1981-09-08 01:00","1981","09","08","01:00","17.0","","15.4","","90","","25","","7","","11.3","","98.72","","","","","","Mostly Cloudy"
"1981-09-08 02:00","1981","09","08","02:00","17.1","","15.4","","90","","","","0","","12.9","","98.62","","","","","","Cloudy"
"1981-09-08 03:00","1981","09","08","03:00","16.5","","15.2","","92","","","","0","","11.3","","98.59","","","","","","Cloudy"
"1981-09-08 04:00","1981","09","08","04:00","16.4","","15.2","","93","","","","0","","11.3","","98.49","","","","","","Cloudy"
"1981-09-08 05:00","1981","09","08","05:00","16.5","","15.2","","92","","18","","4","","12.9","","98.42","","","","","","Cloudy"
"1981-09-08 06:00","1981","09","08","06:00","17.4","","16.3","","93","","","","0","","6.4","","98.39","","","","","","Fog"
"1981-09-08 07:00","1981","09","08","07:00","17.4","","16.3","","93","","24","","7","","11.3","","98.39","","","","","","Cloudy"
"1981-09-08 08:00","1981","09","08","08:00","18.0","","16.1","","89","","23","","6","","11.3","","98.29","","","","","","Mostly Cloudy"
"1981-09-08 09:00","1981","09","08","09:00","18.0","","16.5","","91","","23","","7","","11.3","","98.29","","","","","","Cloudy"
"1981-09-08 10:00","1981","09","08","10:00","18.9","","16.9","","88","","27","","11","","12.9","","98.29","","","","","","Mostly Cloudy"
"1981-09-08 11:00","1981","09","08","11:00","19.9","","15.3","","75","","29","","26","","40.2","","98.29","","","","","","Mostly Cloudy"
"1981-09-08 12:00","1981","09","08","12:00","21.1","","13.3","","61","","30","","31","","40.2","","98.26","","","","","","Mostly Cloudy"
"1981-09-08 13:00","1981","09","08","13:00","20.3","","13.8","","66","","30","","30","","40.2","","98.29","","","","","","Mostly Cloudy"
"1981-09-08 14:00","1981","09","08","14:00","19.5","","13.0","","66","","30","","39","","40.2","","98.36","","","","","","Mostly Cloudy"
"1981-09-08 15:00","1981","09","08","15:00","19.0","","12.5","","66","","30","","37","","40.2","","98.39","","","","","","Mostly Cloudy"
"1981-09-08 16:00","1981","09","08","16:00","17.7","","9.9","","60","","29","","30","","40.2","","98.49","","","","","","Mostly Cloudy"
"1981-09-08 17:00","1981","09","08","17:00","17.5","","9.5","","59","","30","","26","","40.2","","98.52","","","","","","Mostly Cloudy"
"1981-09-08 18:00","1981","09","08","18:00","16.7","","9.9","","64","","30","","33","","40.2","","98.59","","","","","","Mainly Clear"
"1981-09-08 19:00","1981","09","08","19:00","15.2","","9.4","","68","","29","","28","","25.0","","98.62","","","","","","Mainly Clear"
"1981-09-08 20:00","1981","09","08","20:00","14.0","","9.8","","76","","30","","24","","25.0","","98.69","","","","","","Clear"
"1981-09-08 21:00","1981","09","08","21:00","13.0","","9.8","","81","","30","","17","","25.0","","98.79","","","","","","Clear"
"1981-09-08 22:00","1981","09","08","22:00","12.8","","10.2","","84","","28","","13","","25.0","","98.79","","","","","","Mostly Cloudy"
"1981-09-08 23:00","1981","09","08","23:00","13.1","","9.8","","80","","28","","13","","25.0","","98.82","","","","","","Rain Showers"
"1981-09-09 00:00","1981","09","09","00:00","12.6","","10.4","","86","","28","","9","","25.0","","98.79","","","","","","Mostly Cloudy"
"1981-09-09 01:00","1981","09","09","01:00","12.5","","10.4","","87","","29","","9","","25.0","","98.79","","","","","","Mostly Cloudy"
"1981-09-09 02:00","1981","09","09","02:00","11.5","","9.3","","86","","35","","7","","25.0","","98.76","","","","","","Mainly Clear"
"1981-09-09 03:00","1981","09","09","03:00","10.9","","9.9","","94","","","","0","","25.0","","98.76","","","","","","Mostly Cloudy"
"1981-09-09 04:00","1981","09","09","04:00","11.0","","9.9","","93","","36","","13","","12.9","","98.79","","","","","","Rain Showers"
"1981-09-09 05:00","1981","09","09","05:00","10.5","","9.0","","90","","32","","20","","25.0","","98.89","","","","","","Mostly Cloudy"
"1981-09-09 06:00","1981","09","09","06:00","9.6","","8.0","","90","","32","","17","","24.1","","98.99","","","","","","Rain Showers"
"1981-09-09 07:00","1981","09","09","07:00","8.9","","7.9","","93","","34","","15","","40.2","","99.09","","","","","","Mostly Cloudy"
"1981-09-09 08:00","1981","09","09","08:00","9.8","","5.3","","74","","34","","24","","40.2","","99.16","","","","","","Mainly Clear"
"1981-09-09 09:00","1981","09","09","09:00","10.6","","4.0","","64","","33","","26","","40.2","","99.19","","","","","","Mostly Cloudy"
"1981-09-09 10:00","1981","09","09","10:00","11.5","","3.3","","57","","35","","20","","40.2","","99.19","","","","","","Mainly Clear"
"1981-09-09 11:00","1981","09","09","11:00","12.9","","4.3","","56","","33","","28","","40.2","","99.19","","","","","","Mostly Cloudy"
"1981-09-09 12:00","1981","09","09","12:00","13.5","","4.0","","53","","30","","15","","40.2","","99.19","","","","","","Mostly Cloudy"
"1981-09-09 13:00","1981","09","09","13:00","13.4","","5.0","","57","","32","","15","","40.2","","99.22","","","","","","Mostly Cloudy"
"1981-09-09 14:00","1981","09","09","14:00","14.9","","3.5","","46","","27","","15","","40.2","","99.19","","","","","","Mostly Cloudy"
"1981-09-09 15:00","1981","09","09","15:00","16.0","","4.4","","46","","26","","15","","40.2","","99.16","","","","","","Mostly Cloudy"
"1981-09-09 16:00","1981","09","09","16:00","15.3","","4.7","","49","","27","","17","","40.2","","99.12","","","","","","Mostly Cloudy"
"1981-09-09 17:00","1981","09","09","17:00","15.5","","4.2","","47","","27","","15","","40.2","","99.09","","","","","","Mostly Cloudy"
"1981-09-09 18:00","1981","09","09","18:00","15.0","","5.5","","53","","25","","11","","40.2","","99.09","","","","","","Mostly Cloudy"
"1981-09-09 19:00","1981","09","09","19:00","13.6","","5.9","","60","","25","","11","","40.2","","99.12","","","","","","Mostly Cloudy"
"1981-09-09 20:00","1981","09","09","20:00","12.4","","7.1","","70","","23","","6","","25.0","","99.16","","","","","","Mostly Cloudy"
"1981-09-09 21:00","1981","09","09","21:00","12.4","","6.9","","69","","17","","7","","25.0","","99.16","","","","","","Mostly Cloudy"
"1981-09-09 22:00","1981","09","09","22:00","12.2","","6.7","","69","","18","","9","","25.0","","98.99","","","","","","Mostly Cloudy"
"1981-09-09 23:00","1981","09","09","23:00","13.0","","6.2","","63","","18","","9","","25.0","","98.96","","","","","","Mostly Cloudy"
"1981-09-10 00:00","1981","09","10","00:00","13.0","","7.9","","71","","21","","15","","25.0","","98.89","","","","","","Mostly Cloudy"
"1981-09-10 01:00","1981","09","10","01:00","13.3","","9.2","","76","","18","","17","","25.0","","98.74","","","","","","Mostly Cloudy"
"1981-09-10 02:00","1981","09","10","02:00","14.0","","9.4","","74","","20","","17","","25.0","","98.72","","","","","","Mostly Cloudy"
"1981-09-10 03:00","1981","09","10","03:00","14.6","","10.3","","75","","20","","15","","25.0","","98.62","","","","","","Mostly Cloudy"
"1981-09-10 04:00","1981","09","10","04:00","15.0","","10.9","","76","","20","","19","","25.0","","98.56","","","","","","Mainly Clear"
"1981-09-10 05:00","1981","09","10","05:00","15.5","","11.1","","75","","21","","22","","25.0","","98.56","","","","","","Clear"
"1981-09-10 06:00","1981","09","10","06:00","16.0","","11.3","","74","","22","","24","","24.1","","98.52","","","","","","Mostly Cloudy"
"1981-09-10 07:00","1981","09","10","07:00","16.6","","11.8","","73","","22","","20","","32.2","","98.59","","","","","","Mostly Cloudy"
"1981-09-10 08:00","1981","09","10","08:00","17.8","","13.1","","74","","23","","22","","32.2","","98.56","","","","","","Mostly Cloudy"
"1981-09-10 09:00","1981","09","10","09:00","19.5","","13.0","","66","","21","","30","","24.1","","98.52","","","","","","Mostly Cloudy"
"1981-09-10 10:00","1981","09","10","10:00","20.0","","13.6","","67","","24","","35","","19.3","","98.49","","","","","","Mostly Cloudy"
"1981-09-10 11:00","1981","09","10","11:00","19.5","","13.7","","69","","24","","26","","19.3","","98.49","","","","","","Cloudy"
"1981-09-10 12:00","1981","09","10","12:00","19.5","","14.1","","71","","25","","31","","16.1","","98.52","","","","","","Cloudy"
"1981-09-10 13:00","1981","09","10","13:00","20.1","","14.7","","71","","23","","26","","16.1","","98.49","","","","","","Cloudy"
"1981-09-10 14:00","1981","09","10","14:00","20.1","","15.0","","72","","25","","28","","12.9","","98.52","","","","","","Cloudy"
"1981-09-10 15:00","1981","09","10","15:00","20.9","","16.1","","74","","25","","19","","16.1","","98.56","","26","","","","Mainly Clear"
"1981-09-10 16:00","1981","09","10","16:00","22.0","","15.9","","68","","27","","22","","19.3","","98.59","","27","","","","Mostly Cloudy"
"1981-09-10 17:00","1981","09","10","17:00","22.5","","15.8","","66","","26","","19","","19.3","","98.66","","27","","","","Mainly Clear"
"1981-09-10 18:00","1981","09","10","18:00","21.4","","15.7","","70","","29","","20","","24.1","","98.72","","26","","","","Mainly Clear"
"1981-09-10 19:00","1981","09","10","19:00","19.3","","14.4","","73","","29","","15","","24.1","","98.79","","","","","","Mainly Clear"
"1981-09-10 20:00","1981","09","10","20:00","16.6","","14.3","","86","","34","","13","","25.0","","98.92","","","","","","Clear"
"1981-09-10 21:00","1981","09","10","21:00","16.4","","14.3","","87","","35","","13","","25.0","","98.99","","","","","","Clear"
"1981-09-10 22:00","1981","09","10","22:00","14.1","","13.0","","93","","31","","6","","25.0","","99.05","","","","","","Clear"
"1981-09-10 23:00","1981","09","10","23:00","13.4","","12.5","","94","","32","","9","","25.0","","99.09","","","","","","Clear"
"1981-09-11 00:00","1981","09","11","00:00","13.0","","12.0","","94","","","","0","","25.0","","99.12","","","","","","Clear"
"1981-09-11 01:00","1981","09","11","01:00","12.5","","11.5","","94","","35","","7","","16.1","","99.16","","","","","","Clear"
"1981-09-11 02:00","1981","09","11","02:00","11.0","","10.3","","95","","33","","6","","25.0","","99.19","","","","","","Clear"
"1981-09-11 03:00","1981","09","11","03:00","10.5","","9.8","","95","","33","","4","","25.0","","99.22","","","","","","Clear"
"1981-09-11 04:00","1981","09","11","04:00","10.4","","10.1","","98","","35","","4","","25.0","","99.26","","","","","","Clear"
"1981-09-11 05:00","1981","09","11","05:00","9.7","","9.1","","96","","33","","4","","25.0","","99.29","","","","","","Clear"
"1981-09-11 06:00","1981","09","11","06:00","9.4","","9.1","","98","","33","","4","","24.1","","99.36","","","","","","Clear"
"1981-09-11 07:00","1981","09","11","07:00","11.2","","10.6","","96","","","","0","","16.1","","99.39","","","","","","Mainly Clear"
"1981-09-11 08:00","1981","09","11","08:00","14.3","","12.2","","87","","","","0","","19.3","","99.39","","","","","","Mainly Clear"
"1981-09-11 09:00","1981","09","11","09:00","16.3","","13.2","","82","","6","","6","","19.3","","99.46","","","","","","Mainly Clear"
"1981-09-11 10:00","1981","09","11","10:00","17.6","","13.6","","77","","15","","7","","19.3","","99.46","","","","","","Mostly Cloudy"
"1981-09-11 11:00","1981","09","11","11:00","18.3","","14.0","","76","","14","","6","","24.1","","99.42","","","","","","Mostly Cloudy"
"1981-09-11 12:00","1981","09","11","12:00","19.1","","14.2","","73","","16","","7","","24.1","","99.39","","","","","","Mainly Clear"
"1981-09-11 13:00","1981","09","11","13:00","19.3","","14.8","","75","","14","","13","","24.1","","99.36","","","","","","Mostly Cloudy"
"1981-09-11 14:00","1981","09","11","14:00","19.5","","14.8","","74","","14","","11","","24.1","","99.26","","","","","","Mostly Cloudy"
"1981-09-11 15:00","1981","09","11","15:00","20.5","","15.6","","74","","14","","13","","19.3","","99.22","","25","","","","Mostly Cloudy"
"1981-09-11 16:00","1981","09","11","16:00","19.0","","14.6","","76","","13","","13","","19.3","","99.19","","","","","","Mostly Cloudy"
"1981-09-11 17:00","1981","09","11","17:00","18.0","","14.8","","81","","14","","17","","19.3","","99.16","","","","","","Mostly Cloudy"
"1981-09-11 18:00","1981","09","11","18:00","17.5","","14.3","","81","","13","","15","","24.1","","99.16","","","","","","Mostly Cloudy"
"1981-09-11 19:00","1981","09","11","19:00","17.6","","15.0","","85","","11","","11","","19.3","","99.12","","","","","","Cloudy"
"1981-09-11 20:00","1981","09","11","20:00","18.2","","15.8","","86","","11","","11","","16.1","","99.12","","","","","","Mostly Cloudy"
"1981-09-11 21:00","1981","09","11","21:00","18.0","","16.5","","91","","12","","6","","12.9","","99.09","","","","","","Mostly Cloudy"
"1981-09-11 22:00","1981","09","11","22:00","18.5","","17.6","","95","","13","","7","","4.0","","99.02","","","","","","Fog"
"1981-09-11 23:00","1981","09","11","23:00","18.4","","17.9","","97","","","","0","","4.8","","99.06","","","","","","Fog"
"1981-09-12 00:00","1981","09","12","00:00","18.1","","17.7","","98","","","","0","","0.0","","98.99","","","","","","Fog"
"1981-09-12 01:00","1981","09","12","01:00","17.4","","17.4","","100","","","","0","","0.0","","98.99","","","","","","Fog"
"1981-09-12 02:00","1981","09","12","02:00","15.9","","15.9","","100","","23","","6","","1.2","","98.96","","","","","","Fog"
"1981-09-12 03:00","1981","09","12","03:00","16.4","","15.9","","97","","25","","7","","8.0","","98.96","","","","","","Fog"
"1981-09-12 04:00","1981","09","12","04:00","18.0","","16.5","","91","","26","","15","","9.7","","98.96","","","","","","Fog"
"1981-09-12 05:00","1981","09","12","05:00","18.4","","17.0","","92","","26","","15","","9.7","","98.99","","","","","","Fog"
"1981-09-12 06:00","1981","09","12","06:00","18.8","","16.5","","87","","29","","11","","9.7","","99.06","","","","","","Fog"
"1981-09-12 07:00","1981","09","12","07:00","18.1","","15.2","","83","","31","","20","","19.3","","99.16","","","","","","Mainly Clear"
"1981-09-12 08:00","1981","09","12","08:00","18.1","","14.2","","78","","31","","20","","19.3","","99.22","","","","","","Mainly Clear"
"1981-09-12 09:00","1981","09","12","09:00","19.4","","14.4","","73","","33","","30","","19.3","","99.29","","","","","","Mainly Clear"
"1981-09-12 10:00","1981","09","12","10:00","20.8","","16.4","","76","","34","","22","","19.3","","99.32","","26","","","","Mostly Cloudy"
"1981-09-12 11:00","1981","09","12","11:00","22.1","","12.3","","54","","35","","17","","19.3","","99.36","","25","","","","Mostly Cloudy"
"1981-09-12 12:00","1981","09","12","12:00","22.6","","12.5","","53","","31","","17","","24.1","","99.36","","25","","","","Mainly Clear"
"1981-09-12 13:00","1981","09","12","13:00","23.4","","13.0","","52","","31","","9","","19.3","","99.36","","26","","","","Mainly Clear"
"1981-09-12 14:00","1981","09","12","14:00","24.5","","13.5","","50","","30","","19","","19.3","","99.32","","28","","","","Mostly Cloudy"
"1981-09-12 15:00","1981","09","12","15:00","24.0","","11.7","","46","","29","","19","","16.1","","99.29","","26","","","","Mainly Clear"
"1981-09-12 16:00","1981","09","12","16:00","23.5","","12.2","","49","","29","","15","","16.1","","99.29","","26","","","","Mainly Clear"
"1981-09-12 17:00","1981","09","12","17:00","23.0","","12.4","","51","","30","","19","","16.1","","99.29","","25","","","","Mainly Clear"
"1981-09-12 18:00","1981","09","12","18:00","21.0","","12.6","","59","","27","","9","","12.9","","99.29","","","","","","Mainly Clear"
"1981-09-12 19:00","1981","09","12","19:00","18.8","","12.5","","67","","27","","7","","11.3","","99.32","","","","","","Clear"
"1981-09-12 20:00","1981","09","12","20:00","17.5","","12.2","","71","","25","","7","","11.3","","99.36","","","","","","Clear"
"1981-09-12 21:00","1981","09","12","21:00","16.4","","12.2","","76","","25","","6","","11.3","","99.36","","","","","","Clear"
"1981-09-12 22:00","1981","09","12","22:00","15.0","","12.0","","82","","26","","6","","9.7","","99.36","","","","","","Haze"
"1981-09-12 23:00","1981","09","12","23:00","15.7","","11.8","","77","","","","0","","9.7","","99.36","","","","","","Haze"
"1981-09-13 00:00","1981","09","13","00:00","14.5","","12.2","","86","","27","","4","","9.7","","99.32","","","","","","Haze"
"1981-09-13 01:00","1981","09","13","01:00","14.1","","12.0","","87","","26","","4","","9.7","","99.32","","","","","","Fog"
"1981-09-13 02:00","1981","09","13","02:00","13.5","","11.5","","88","","26","","4","","9.7","","99.29","","","","","","Fog"
"1981-09-13 03:00","1981","09","13","03:00","12.9","","10.9","","88","","26","","7","","9.7","","99.29","","","","","","Fog"
"1981-09-13 04:00","1981","09","13","04:00","12.5","","10.8","","89","","26","","7","","9.7","","99.26","","","","","","Fog"
"1981-09-13 05:00","1981","09","13","05:00","13.0","","10.9","","87","","27","","7","","9.7","","99.26","","","","","","Fog"
"1981-09-13 06:00","1981","09","13","06:00","13.5","","11.1","","85","","24","","4","","9.7","","99.29","","","","","","Haze"
"1981-09-13 07:00","1981","09","13","07:00","14.6","","11.8","","83","","26","","13","","12.9","","99.26","","","","","","Clear"
"1981-09-13 08:00","1981","09","13","08:00","17.2","","13.4","","78","","26","","11","","12.9","","99.26","","","","","","Clear"
"1981-09-13 09:00","1981","09","13","09:00","19.6","","14.4","","72","","27","","17","","16.1","","99.29","","","","","","Clear"
"1981-09-13 10:00","1981","09","13","10:00","22.2","","14.1","","60","","27","","13","","16.1","","99.26","","26","","","","Clear"
"1981-09-13 11:00","1981","09","13","11:00","23.5","","14.1","","56","","29","","15","","19.3","","99.22","","27","","","","Clear"
"1981-09-13 12:00","1981","09","13","12:00","24.6","","12.3","","46","","28","","15","","24.1","","99.19","","27","","","","Clear"
"1981-09-13 13:00","1981","09","13","13:00","25.7","","10.8","","39","","27","","20","","24.1","","99.12","","27","","","","Clear"
"1981-09-13 14:00","1981","09","13","14:00","26.1","","9.3","","35","","26","","22","","24.1","","99.06","","27","","","","Clear"
"1981-09-13 15:00","1981","09","13","15:00","26.1","","10.2","","37","","27","","22","","24.1","","98.99","","27","","","","Clear"
"1981-09-13 16:00","1981","09","13","16:00","25.7","","11.2","","40","","28","","24","","24.1","","98.96","","28","","","","Clear"
"1981-09-13 17:00","1981","09","13","17:00","24.9","","11.3","","43","","26","","13","","24.1","","98.96","","27","","","","Mainly Clear"
"1981-09-13 18:00","1981","09","13","18:00","22.5","","11.7","","51","","28","","11","","24.1","","98.92","","25","","","","Mainly Clear"
"1981-09-13 19:00","1981","09","13","19:00","20.6","","11.6","","56","","29","","6","","16.1","","98.89","","","","","","Mainly Clear"
"1981-09-13 20:00","1981","09","13","20:00","19.6","","12.3","","63","","27","","4","","12.9","","98.89","","","","","","Mainly Clear"
"1981-09-13 21:00","1981","09","13","21:00","18.2","","13.1","","72","","27","","4","","12.9","","98.89","","","","","","Clear"
"1981-09-13 22:00","1981","09","13","22:00","17.0","","13.8","","81","","30","","4","","12.9","","98.89","","","","","","Mainly Clear"
"1981-09-13 23:00","1981","09","13","23:00","16.9","","14.1","","84","","","","0","","11.3","","98.86","","","","","","Mostly Cloudy"
"1981-09-14 00:00","1981","09","14","00:00","17.5","","15.0","","85","","","","0","","11.3","","98.79","","","","","","Mostly Cloudy"
"1981-09-14 01:00","1981","09","14","01:00","17.2","","14.1","","82","","21","","6","","11.3","","98.76","","","","","","Thunderstorms"
"1981-09-14 02:00","1981","09","14","02:00","16.6","","13.9","","84","","","","0","","9.7","","98.72","","","","","","Haze"
"1981-09-14 03:00","1981","09","14","03:00","18.0","","15.5","","85","","","","0","","9.7","","98.69","","","","","","Haze"
"1981-09-14 04:00","1981","09","14","04:00","18.1","","16.5","","90","","24","","4","","6.4","","98.69","","","","","","Fog"
"1981-09-14 05:00","1981","09","14","05:00","18.1","","17.1","","94","","25","","4","","4.8","","98.72","","","","","","Fog"
"1981-09-14 06:00","1981","09","14","06:00","16.5","","16.2","","98","","27","","6","","1.2","","98.69","","","","","","Fog"
"1981-09-14 07:00","1981","09","14","07:00","18.6","","18.2","","98","","26","","9","","1.2","","98.69","","","","","","Fog"
"1981-09-14 08:00","1981","09","14","08:00","19.7","","18.3","","91","","26","","15","","3.2","","98.72","","","","","","Fog"
"1981-09-14 09:00","1981","09","14","09:00","21.5","","18.6","","84","","27","","17","","4.8","","98.69","","28","","","","Haze"
"1981-09-14 10:00","1981","09","14","10:00","23.1","","18.0","","73","","28","","11","","12.9","","98.72","","29","","","","Mainly Clear"
"1981-09-14 11:00","1981","09","14","11:00","24.0","","15.8","","60","","31","","19","","16.1","","98.69","","28","","","","Mainly Clear"
"1981-09-14 12:00","1981","09","14","12:00","24.0","","14.7","","56","","29","","17","","19.3","","98.69","","28","","","","Mostly Cloudy"
"1981-09-14 13:00","1981","09","14","13:00","24.4","","15.3","","57","","30","","15","","19.3","","98.69","","29","","","","Mostly Cloudy"
"1981-09-14 14:00","1981","09","14","14:00","24.7","","15.7","","57","","31","","19","","16.1","","98.66","","29","","","","Mostly Cloudy"
"1981-09-14 15:00","1981","09","14","15:00","19.6","","16.8","","84","","1","","26","","11.3","","98.72","","","","","","Cloudy"
"1981-09-14 16:00","1981","09","14","16:00","19.0","","12.8","","67","","2","","22","","11.3","","98.76","","","","","","Cloudy"
"1981-09-14 17:00","1981","09","14","17:00","18.2","","13.1","","72","","35","","24","","16.1","","98.82","","","","","","Mostly Cloudy"
"1981-09-14 18:00","1981","09","14","18:00","18.2","","12.8","","71","","35","","24","","12.9","","98.86","","","","","","Mostly Cloudy"
"1981-09-14 19:00","1981","09","14","19:00","16.0","","10.1","","68","","34","","17","","12.9","","98.92","","","","","","Mainly Clear"
"1981-09-14 20:00","1981","09","14","20:00","13.0","","9.4","","79","","35","","11","","24.1","","99.02","","","","","","Mainly Clear"
"1981-09-14 21:00","1981","09","14","21:00","12.2","","9.1","","81","","34","","11","","19.3","","99.06","","","","","","Mostly Cloudy"
"1981-09-14 22:00","1981","09","14","22:00","12.0","","9.1","","82","","34","","13","","16.1","","99.12","","","","","","Mainly Clear"
"1981-09-14 23:00","1981","09","14","23:00","11.1","","8.8","","86","","34","","11","","16.1","","99.19","","","","","","Mainly Clear"
"1981-09-15 00:00","1981","09","15","00:00","10.2","","8.5","","89","","35","","9","","16.1","","99.19","","","","","","Mostly Cloudy"
"1981-09-15 01:00","1981","09","15","01:00","10.9","","9.2","","89","","33","","2","","16.1","","99.22","","","","","","Mostly Cloudy"
"1981-09-15 02:00","1981","09","15","02:00","9.7","","8.0","","89","","35","","6","","16.1","","99.19","","","","","","Mostly Cloudy"
"1981-09-15 03:00","1981","09","15","03:00","9.0","","7.9","","93","","34","","6","","19.3","","99.19","","","","","","Cloudy"
"1981-09-15 04:00","1981","09","15","04:00","8.4","","7.0","","91","","32","","6","","19.3","","99.19","","","","","","Cloudy"
"1981-09-15 05:00","1981","09","15","05:00","9.0","","7.5","","90","","","","0","","16.1","","99.19","","","","","","Cloudy"
"1981-09-15 06:00","1981","09","15","06:00","8.5","","6.6","","88","","36","","7","","24.1","","99.22","","","","","","Cloudy"
"1981-09-15 07:00","1981","09","15","07:00","10.3","","9.0","","92","","32","","6","","24.1","","99.26","","","","","","Mostly Cloudy"
"1981-09-15 08:00","1981","09","15","08:00","13.0","","10.2","","83","","33","","9","","24.1","","99.26","","","","","","Mostly Cloudy"
"1981-09-15 09:00","1981","09","15","09:00","15.1","","11.3","","78","","1","","9","","24.1","","99.29","","","","","","Mostly Cloudy"
"1981-09-15 10:00","1981","09","15","10:00","17.0","","12.4","","74","","2","","11","","19.3","","99.29","","","","","","Mostly Cloudy"
"1981-09-15 11:00","1981","09","15","11:00","17.3","","11.8","","70","","35","","13","","24.1","","99.32","","","","","","Mostly Cloudy"
"1981-09-15 12:00","1981","09","15","12:00","18.0","","11.7","","67","","1","","15","","32.2","","99.29","","","","","","Mostly Cloudy"
"1981-09-15 13:00","1981","09","15","13:00","18.9","","8.9","","52","","35","","19","","32.2","","99.29","","","","","","Mostly Cloudy"
"1981-09-15 14:00","1981","09","15","14:00","19.2","","8.0","","48","","1","","19","","32.2","","99.29","","","","","","Mostly Cloudy"
"1981-09-15 15:00","1981","09","15","15:00","19.1","","6.2","","43","","1","","19","","32.2","","99.26","","","","","","Mostly Cloudy"
"1981-09-15 16:00","1981","09","15","16:00","18.7","","6.0","","43","","2","","19","","32.2","","99.29","","","","","","Mostly Cloudy"
"1981-09-15 17:00","1981","09","15","17:00","17.6","","6.5","","48","","1","","19","","32.2","","99.32","","","","","","Mostly Cloudy"
"1981-09-15 18:00","1981","09","15","18:00","16.9","","5.8","","48","","35","","11","","32.2","","99.39","","","","","","Mostly Cloudy"
"1981-09-15 19:00","1981","09","15","19:00","15.5","","6.1","","54","","1","","13","","25.0","","99.39","","","","","","Mostly Cloudy"
"1981-09-15 20:00","1981","09","15","20:00","12.2","","6.7","","69","","35","","7","","25.0","","99.46","","","","","","Mostly Cloudy"
"1981-09-15 21:00","1981","09","15","21:00","10.8","","7.2","","79","","35","","9","","25.0","","99.49","","","","","","Mostly Cloudy"
"1981-09-15 22:00","1981","09","15","22:00","9.2","","6.7","","84","","36","","9","","25.0","","99.52","","","","","","Mostly Cloudy"
"1981-09-15 23:00","1981","09","15","23:00","8.9","","6.7","","86","","35","","9","","25.0","","99.52","","","","","","Mostly Cloudy"
"1981-09-16 00:00","1981","09","16","00:00","8.9","","6.7","","86","","34","","11","","25.0","","99.49","","","","","","Mostly Cloudy"
"1981-09-16 01:00","1981","09","16","01:00","8.5","","6.6","","88","","34","","9","","25.0","","99.49","","","","","","Mostly Cloudy"
"1981-09-16 02:00","1981","09","16","02:00","8.0","","6.0","","87","","35","","9","","25.0","","99.49","","","","","","Cloudy"
"1981-09-16 03:00","1981","09","16","03:00","7.8","","6.0","","89","","35","","7","","25.0","","99.49","","","","","","Cloudy"
"1981-09-16 04:00","1981","09","16","04:00","7.5","","5.9","","90","","1","","6","","25.0","","99.52","","","","","","Cloudy"
"1981-09-16 05:00","1981","09","16","05:00","8.0","","6.8","","92","","35","","7","","25.0","","99.56","","","","","","Cloudy"
"1981-09-16 06:00","1981","09","16","06:00","7.9","","6.8","","93","","33","","7","","32.2","","99.56","","","","","","Cloudy"
"1981-09-16 07:00","1981","09","16","07:00","9.5","","8.0","","90","","35","","7","","32.2","","99.59","","","","","","Cloudy"
"1981-09-16 08:00","1981","09","16","08:00","11.4","","8.2","","81","","3","","4","","32.2","","99.59","","","","","","Mostly Cloudy"
"1981-09-16 09:00","1981","09","16","09:00","14.4","","9.2","","71","","12","","9","","32.2","","99.66","","","","","","Mainly Clear"
"1981-09-16 10:00","1981","09","16","10:00","15.5","","9.9","","69","","15","","6","","40.2","","99.62","","","","","","Mainly Clear"
"1981-09-16 11:00","1981","09","16","11:00","16.6","","10.3","","66","","12","","15","","40.2","","99.62","","","","","","Mainly Clear"
"1981-09-16 12:00","1981","09","16","12:00","16.8","","8.9","","60","","12","","17","","40.2","","99.66","","","","","","Mostly Cloudy"
"1981-09-16 13:00","1981","09","16","13:00","16.5","","8.3","","58","","12","","19","","40.2","","99.66","","","","","","Mostly Cloudy"
"1981-09-16 14:00","1981","09","16","14:00","17.0","","7.2","","53","","14","","19","","40.2","","99.66","","","","","","Mostly Cloudy"
"1981-09-16 15:00","1981","09","16","15:00","16.8","","7.6","","55","","13","","15","","40.2","","99.62","","","","","","Mostly Cloudy"
"1981-09-16 16:00","1981","09","16","16:00","16.3","","7.0","","54","","11","","17","","40.2","","99.59","","","","","","Mostly Cloudy"
"1981-09-16 17:00","1981","09","16","17:00","16.4","","7.4","","55","","13","","11","","32.2","","99.59","","","","","","Mostly Cloudy"
"1981-09-16 18:00","1981","09","16","18:00","15.5","","7.0","","57","","12","","15","","32.2","","99.59","","","","","","Mostly Cloudy"
"1981-09-16 19:00","1981","09","16","19:00","15.0","","5.5","","53","","11","","9","","25.0","","99.62","","","","","","Mostly Cloudy"
"1981-09-16 20:00","1981","09","16","20:00","15.0","","7.7","","62","","8","","11","","25.0","","99.66","","","","","","Mostly Cloudy"
"1981-09-16 21:00","1981","09","16","21:00","14.4","","8.4","","67","","5","","9","","25.0","","99.69","","","","","","Mostly Cloudy"
"1981-09-16 22:00","1981","09","16","22:00","14.1","","6.9","","62","","8","","24","","25.0","","99.72","","","","","","Cloudy"
"1981-09-16 23:00","1981","09","16","23:00","12.6","","5.5","","62","","7","","24","","25.0","","99.76","","","","","","Cloudy"
"1981-09-17 00:00","1981","09","17","00:00","12.0","","4.9","","62","","7","","24","","25.0","","99.76","","","","","","Cloudy"
"1981-09-17 01:00","1981","09","17","01:00","11.5","","4.8","","63","","6","","22","","25.0","","99.72","","","","","","Cloudy"
"1981-09-17 02:00","1981","09","17","02:00","11.2","","5.1","","66","","7","","19","","25.0","","99.76","","","","","","Cloudy"
"1981-09-17 03:00","1981","09","17","03:00","11.0","","5.5","","69","","6","","15","","25.0","","99.76","","","","","","Cloudy"
"1981-09-17 04:00","1981","09","17","04:00","9.8","","7.4","","85","","5","","17","","19.3","","99.72","","","","","","Rain Showers"
"1981-09-17 05:00","1981","09","17","05:00","9.4","","6.8","","84","","5","","17","","19.3","","99.69","","","","","","Rain Showers"
"1981-09-17 06:00","1981","09","17","06:00","9.0","","6.3","","83","","3","","17","","16.1","","99.72","","","","","","Rain Showers"
"1981-09-17 07:00","1981","09","17","07:00","8.8","","7.1","","89","","4","","19","","19.3","","99.76","","","","","","Rain Showers"
"1981-09-17 08:00","1981","09","17","08:00","8.9","","7.1","","89","","5","","20","","19.3","","99.76","","","","","","Rain Showers"
"1981-09-17 09:00","1981","09","17","09:00","9.4","","7.6","","89","","3","","9","","32.2","","99.79","","","","","","Rain Showers"
"1981-09-17 10:00","1981","09","17","10:00","9.8","","6.5","","80","","5","","15","","32.2","","99.86","","","","","","Rain Showers"
"1981-09-17 11:00","1981","09","17","11:00","10.1","","7.7","","85","","4","","17","","32.2","","99.86","","","","","","Rain Showers"
"1981-09-17 12:00","1981","09","17","12:00","10.4","","8.3","","87","","3","","13","","32.2","","99.89","","","","","","Rain Showers"
"1981-09-17 13:00","1981","09","17","13:00","11.0","","7.6","","80","","4","","17","","32.2","","99.89","","","","","","Cloudy"
"1981-09-17 14:00","1981","09","17","14:00","11.5","","7.8","","78","","2","","19","","32.2","","99.92","","","","","","Cloudy"
"1981-09-17 15:00","1981","09","17","15:00","11.1","","8.0","","81","","4","","19","","32.2","","99.92","","","","","","Rain Showers"
"1981-09-17 16:00","1981","09","17","16:00","10.7","","7.9","","83","","3","","15","","16.1","","99.96","","","","","","Rain Showers"
"1981-09-17 17:00","1981","09","17","17:00","10.7","","7.9","","83","","4","","13","","16.1","","99.96","","","","","","Rain Showers"
"1981-09-17 18:00","1981","09","17","18:00","10.5","","8.7","","89","","2","","9","","16.1","","99.99","","","","","","Cloudy"
"1981-09-17 19:00","1981","09","17","19:00","10.6","","8.3","","85","","2","","15","","16.1","","99.99","","","","","","Cloudy"
"1981-09-17 20:00","1981","09","17","20:00","10.7","","7.5","","80","","4","","13","","16.1","","100.09","","","","","","Cloudy"
"1981-09-17 21:00","1981","09","17","21:00","10.5","","7.5","","82","","3","","11","","16.1","","100.09","","","","","","Cloudy"
"1981-09-17 22:00","1981","09","17","22:00","10.4","","7.5","","82","","3","","9","","24.1","","100.09","","","","","","Cloudy"
"1981-09-17 23:00","1981","09","17","23:00","10.4","","7.1","","80","","4","","9","","25.0","","100.06","","","","","","Mostly Cloudy"
"1981-09-18 00:00","1981","09","18","00:00","10.1","","6.9","","80","","3","","15","","25.0","","100.02","","","","","","Mostly Cloudy"
"1981-09-18 01:00","1981","09","18","01:00","9.9","","6.9","","82","","36","","4","","25.0","","100.06","","","","","","Mostly Cloudy"
"1981-09-18 02:00","1981","09","18","02:00","10.1","","6.9","","80","","36","","4","","25.0","","100.02","","","","","","Mostly Cloudy"
"1981-09-18 03:00","1981","09","18","03:00","10.1","","6.9","","80","","1","","4","","25.0","","99.99","","","","","","Mostly Cloudy"
"1981-09-18 04:00","1981","09","18","04:00","9.5","","7.2","","86","","1","","6","","25.0","","99.96","","","","","","Mostly Cloudy"
"1981-09-18 05:00","1981","09","18","05:00","8.6","","7.0","","90","","36","","6","","25.0","","99.99","","","","","","Mostly Cloudy"
"1981-09-18 06:00","1981","09","18","06:00","8.9","","7.1","","89","","1","","6","","32.2","","100.02","","","","","","Mostly Cloudy"
"1981-09-18 07:00","1981","09","18","07:00","9.1","","7.5","","90","","36","","7","","32.2","","100.06","","","","","","Mostly Cloudy"
"1981-09-18 08:00","1981","09","18","08:00","10.8","","8.4","","85","","4","","7","","40.2","","100.02","","","","","","Mainly Clear"
"1981-09-18 09:00","1981","09","18","09:00","12.1","","9.1","","82","","6","","6","","40.2","","100.02","","","","","","Mainly Clear"
"1981-09-18 10:00","1981","09","18","10:00","13.8","","8.6","","71","","6","","7","","40.2","","99.99","","","","","","Mostly Cloudy"
"1981-09-18 11:00","1981","09","18","11:00","14.5","","8.0","","65","","9","","6","","40.2","","99.96","","","","","","Mostly Cloudy"
"1981-09-18 12:00","1981","09","18","12:00","14.7","","7.5","","62","","21","","4","","40.2","","99.92","","","","","","Mostly Cloudy"
"1981-09-18 13:00","1981","09","18","13:00","14.5","","8.4","","67","","18","","7","","32.2","","99.86","","","","","","Cloudy"
"1981-09-18 14:00","1981","09","18","14:00","15.0","","9.0","","67","","33","","4","","32.2","","99.76","","","","","","Mostly Cloudy"
"1981-09-18 15:00","1981","09","18","15:00","15.5","","8.3","","62","","","","0","","40.2","","99.66","","","","","","Mostly Cloudy"
"1981-09-18 16:00","1981","09","18","16:00","14.6","","9.2","","70","","18","","11","","40.2","","99.62","","","","","","Mostly Cloudy"
"1981-09-18 17:00","1981","09","18","17:00","15.3","","9.5","","68","","21","","13","","32.2","","99.59","","","","","","Mostly Cloudy"
"1981-09-18 18:00","1981","09","18","18:00","14.2","","9.4","","73","","21","","7","","32.2","","99.56","","","","","","Mostly Cloudy"
"1981-09-18 19:00","1981","09","18","19:00","13.0","","9.8","","81","","24","","7","","25.0","","99.56","","","","","","Mostly Cloudy"
"1981-09-18 20:00","1981","09","18","20:00","11.5","","9.7","","89","","21","","7","","25.0","","99.56","","","","","","Mainly Clear"
"1981-09-18 21:00","1981","09","18","21:00","10.2","","8.1","","87","","26","","7","","25.0","","99.52","","","","","","Mainly Clear"
"1981-09-18 22:00","1981","09","18","22:00","8.9","","7.5","","91","","27","","6","","25.0","","99.49","","","","","","Mainly Clear"
"1981-09-18 23:00","1981","09","18","23:00","8.3","","7.0","","92","","28","","6","","25.0","","99.42","","","","","","Mainly Clear"
"1981-09-19 00:00","1981","09","19","00:00","8.0","","6.8","","92","","","","0","","25.0","","99.39","","","","","","Mainly Clear"
"1981-09-19 01:00","1981","09","19","01:00","7.8","","6.4","","91","","","","0","","25.0","","99.32","","","","","","Clear"
"1981-09-19 02:00","1981","09","19","02:00","7.4","","5.9","","90","","","","0","","25.0","","99.26","","","","","","Clear"
"1981-09-19 03:00","1981","09","19","03:00","7.5","","5.5","","87","","","","0","","25.0","","99.16","","","","","","Mainly Clear"
"1981-09-19 04:00","1981","09","19","04:00","6.2","","4.8","","90","","","","0","","25.0","","99.02","","","","","","Mostly Cloudy"
"1981-09-19 05:00","1981","09","19","05:00","7.8","","6.0","","89","","21","","7","","25.0","","98.96","","","","","","Mostly Cloudy"
"1981-09-19 06:00","1981","09","19","06:00","8.0","","6.0","","87","","18","","7","","24.1","","98.92","","","","","","Mostly Cloudy"
"1981-09-19 07:00","1981","09","19","07:00","9.1","","7.5","","90","","21","","11","","24.1","","98.89","","","","","","Cloudy"
"1981-09-19 08:00","1981","09","19","08:00","9.7","","8.0","","89","","23","","13","","24.1","","98.82","","","","","","Mostly Cloudy"
"1981-09-19 09:00","1981","09","19","09:00","10.2","","7.7","","84","","22","","15","","24.1","","98.76","","","","","","Mostly Cloudy"
"1981-09-19 10:00","1981","09","19","10:00","11.0","","7.6","","80","","22","","20","","24.1","","98.66","","","","","","Cloudy"
"1981-09-19 11:00","1981","09","19","11:00","12.0","","8.3","","78","","21","","20","","19.3","","98.52","","","","","","Cloudy"
"1981-09-19 12:00","1981","09","19","12:00","12.8","","9.8","","82","","20","","17","","19.3","","98.42","","","","","","Cloudy"
"1981-09-19 13:00","1981","09","19","13:00","13.9","","10.2","","79","","22","","17","","19.3","","98.29","","","","","","Cloudy"
"1981-09-19 14:00","1981","09","19","14:00","15.0","","10.5","","74","","26","","17","","19.3","","98.22","","","","","","Cloudy"
"1981-09-19 15:00","1981","09","19","15:00","15.2","","10.1","","72","","25","","7","","19.3","","98.12","","","","","","Cloudy"
"1981-09-19 16:00","1981","09","19","16:00","15.7","","10.7","","72","","24","","9","","24.1","","98.06","","","","","","Mostly Cloudy"
"1981-09-19 17:00","1981","09","19","17:00","16.3","","10.7","","70","","27","","19","","24.1","","98.02","","","","","","Mostly Cloudy"
"1981-09-19 18:00","1981","09","19","18:00","14.9","","9.8","","71","","30","","28","","32.2","","98.06","","","","","","Mostly Cloudy"
"1981-09-19 19:00","1981","09","19","19:00","13.0","","8.7","","75","","30","","20","","25.0","","98.09","","","","","","Mainly Clear"
"1981-09-19 20:00","1981","09","19","20:00","11.0","","8.0","","82","","32","","15","","25.0","","98.19","","","","","","Mainly Clear"
"1981-09-19 21:00","1981","09","19","21:00","11.0","","7.2","","78","","32","","19","","25.0","","98.22","","","","","","Mostly Cloudy"
"1981-09-19 22:00","1981","09","19","22:00","9.2","","5.9","","80","","32","","13","","25.0","","98.26","","","","","","Mainly Clear"
"1981-09-19 23:00","1981","09","19","23:00","8.1","","6.4","","89","","31","","7","","25.0","","98.29","","","","","","Mainly Clear"
"1981-09-20 00:00","1981","09","20","00:00","7.4","","5.5","","88","","32","","7","","25.0","","98.32","","","","","","Mainly Clear"
"1981-09-20 01:00","1981","09","20","01:00","7.0","","5.4","","89","","22","","7","","25.0","","98.36","","","","","","Mainly Clear"
"1981-09-20 02:00","1981","09","20","02:00","6.8","","5.8","","93","","","","0","","25.0","","98.39","","","","","","Mostly Cloudy"
"1981-09-20 03:00","1981","09","20","03:00","6.5","","5.3","","92","","25","","6","","25.0","","98.39","","","","","","Mainly Clear"
"1981-09-20 04:00","1981","09","20","04:00","5.4","","4.2","","92","","30","","4","","25.0","","98.46","","","","","","Mainly Clear"
"1981-09-20 05:00","1981","09","20","05:00","5.4","","4.2","","92","","27","","6","","25.0","","98.49","","","","","","Mainly Clear"
"1981-09-20 06:00","1981","09","20","06:00","6.1","","5.2","","94","","","","0","","32.2","","98.56","","","","","","Mostly Cloudy"
"1981-09-20 07:00","1981","09","20","07:00","7.5","","6.3","","92","","27","","6","","32.2","","98.66","","","","","","Mostly Cloudy"
"1981-09-20 08:00","1981","09","20","08:00","9.2","","7.5","","89","","","","0","","32.2","","98.66","","","","","","Mostly Cloudy"
"1981-09-20 09:00","1981","09","20","09:00","10.2","","8.5","","89","","29","","7","","40.2","","98.72","","","","","","Mostly Cloudy"
"1981-09-20 10:00","1981","09","20","10:00","12.0","","5.8","","66","","29","","28","","40.2","","98.79","","","","","","Mostly Cloudy"
"1981-09-20 11:00","1981","09","20","11:00","13.0","","5.3","","59","","30","","28","","40.2","","98.79","","","","","","Mostly Cloudy"
"1981-09-20 12:00","1981","09","20","12:00","14.3","","3.8","","49","","29","","22","","40.2","","98.82","","","","","","Mostly Cloudy"
"1981-09-20 13:00","1981","09","20","13:00","13.5","","3.5","","51","","30","","22","","40.2","","98.82","","","","","","Mostly Cloudy"
"1981-09-20 14:00","1981","09","20","14:00","12.0","","4.9","","62","","29","","24","","40.2","","98.89","","","","","","Mostly Cloudy"
"1981-09-20 15:00","1981","09","20","15:00","11.4","","4.8","","64","","29","","22","","40.2","","98.96","","","","","","Mostly Cloudy"
"1981-09-20 16:00","1981","09","20","16:00","10.6","","4.9","","68","","32","","22","","40.2","","98.99","","","","","","Mostly Cloudy"
"1981-09-20 17:00","1981","09","20","17:00","11.7","","5.7","","67","","30","","24","","40.2","","99.06","","","","","","Mostly Cloudy"
"1981-09-20 18:00","1981","09","20","18:00","10.2","","4.8","","69","","27","","11","","40.2","","99.09","","","","","","Mainly Clear"
"1981-09-20 19:00","1981","09","20","19:00","8.6","","4.9","","77","","27","","13","","25.0","","99.19","","","","","","Mainly Clear"
"1981-09-20 20:00","1981","09","20","20:00","7.8","","4.8","","81","","26","","9","","25.0","","99.26","","","","","","Clear"
"1981-09-20 21:00","1981","09","20","21:00","6.8","","4.1","","83","","26","","7","","25.0","","99.29","","","","","","Clear"
"1981-09-20 22:00","1981","09","20","22:00","5.7","","3.4","","85","","23","","6","","25.0","","99.36","","","","","","Clear"
"1981-09-20 23:00","1981","09","20","23:00","6.0","","3.9","","86","","27","","4","","25.0","","99.36","","","","","","Mainly Clear"
"1981-09-21 00:00","1981","09","21","00:00","5.8","","3.9","","88","","26","","6","","25.0","","99.36","","","","","","Mainly Clear"
"1981-09-21 01:00","1981","09","21","01:00","5.6","","3.8","","88","","25","","7","","25.0","","99.36","","","","","","Mostly Cloudy"
"1981-09-21 02:00","1981","09","21","02:00","6.9","","5.4","","90","","28","","6","","25.0","","99.39","","","","","","Mostly Cloudy"
"1981-09-21 03:00","1981","09","21","03:00","7.2","","5.4","","88","","26","","6","","25.0","","99.39","","","","","","Mostly Cloudy"
"1981-09-21 04:00","1981","09","21","04:00","7.7","","5.5","","86","","23","","4","","25.0","","99.42","","","","","","Mostly Cloudy"
"1981-09-21 05:00","1981","09","21","05:00","6.4","","5.3","","93","","","","0","","25.0","","99.46","","","","","","Mostly Cloudy"
"1981-09-21 06:00","1981","09","21","06:00","6.8","","5.8","","93","","","","0","","32.2","","99.49","","","","","","Mostly Cloudy"
"1981-09-21 07:00","1981","09","21","07:00","7.0","","6.2","","95","","","","0","","32.2","","99.56","","","","","","Mostly Cloudy"
"1981-09-21 08:00","1981","09","21","08:00","9.8","","7.4","","85","","","","0","","40.2","","99.59","","","","","","Mainly Clear"
"1981-09-21 09:00","1981","09","21","09:00","12.5","","6.9","","69","","31","","9","","40.2","","99.62","","","","","","Mostly Cloudy"
"1981-09-21 10:00","1981","09","21","10:00","13.3","","6.8","","65","","33","","6","","40.2","","99.59","","","","","","Mostly Cloudy"
"1981-09-21 11:00","1981","09","21","11:00","13.4","","6.3","","62","","","","0","","40.2","","99.59","","","","","","Cloudy"
"1981-09-21 12:00","1981","09","21","12:00","13.5","","6.3","","62","","","","0","","40.2","","99.59","","","","","","Cloudy"
"1981-09-21 13:00","1981","09","21","13:00","13.4","","6.3","","62","","27","","11","","40.2","","99.59","","","","","","Cloudy"
"1981-09-21 14:00","1981","09","21","14:00","12.8","","8.3","","74","","20","","7","","32.2","","99.52","","","","","","Rain Showers"
"1981-09-21 15:00","1981","09","21","15:00","11.2","","8.4","","83","","22","","6","","19.3","","99.52","","","","","","Rain Showers"
"1981-09-21 16:00","1981","09","21","16:00","10.2","","9.3","","94","","","","0","","8.0","","99.49","","","","","","Rain,Fog"
"1981-09-21 17:00","1981","09","21","17:00","9.0","","8.3","","95","","27","","6","","6.4","","99.56","","","","","","Rain,Fog"
"1981-09-21 18:00","1981","09","21","18:00","8.5","","7.7","","95","","36","","7","","6.4","","99.59","","","","","","Moderate Rain,Fog"
"1981-09-21 19:00","1981","09","21","19:00","8.4","","7.7","","96","","34","","9","","6.4","","99.59","","","","","","Moderate Rain,Fog"
"1981-09-21 20:00","1981","09","21","20:00","8.2","","7.2","","93","","2","","13","","12.9","","99.59","","","","","","Moderate Rain"
"1981-09-21 21:00","1981","09","21","21:00","8.2","","7.2","","93","","2","","15","","12.9","","99.56","","","","","","Rain"
"1981-09-21 22:00","1981","09","21","22:00","8.2","","7.2","","93","","4","","13","","25.0","","99.52","","","","","","Rain"
"1981-09-21 23:00","1981","09","21","23:00","8.1","","7.2","","94","","3","","11","","25.0","","99.52","","","","","","Rain"
"1981-09-22 00:00","1981","09","22","00:00","8.2","","7.2","","93","","2","","9","","12.9","","99.49","","","","","","Rain"
"1981-09-22 01:00","1981","09","22","01:00","8.0","","7.2","","95","","3","","11","","12.9","","99.42","","","","","","Rain"
"1981-09-22 02:00","1981","09","22","02:00","8.3","","7.0","","92","","4","","11","","24.1","","99.39","","","","","","Cloudy"
"1981-09-22 03:00","1981","09","22","03:00","8.3","","7.4","","94","","3","","11","","16.1","","99.36","","","","","","Rain"
"1981-09-22 04:00","1981","09","22","04:00","8.3","","6.6","","89","","1","","17","","24.1","","99.36","","","","","","Cloudy"
"1981-09-22 05:00","1981","09","22","05:00","8.3","","6.6","","89","","36","","15","","25.0","","99.39","","","","","","Cloudy"
"1981-09-22 06:00","1981","09","22","06:00","8.4","","7.0","","91","","1","","13","","19.3","","99.46","","","","","","Cloudy"
"1981-09-22 07:00","1981","09","22","07:00","8.5","","7.0","","90","","1","","17","","19.3","","99.52","","","","","","Cloudy"
"1981-09-22 08:00","1981","09","22","08:00","8.6","","6.6","","87","","1","","20","","19.3","","99.59","","","","","","Mostly Cloudy"
"1981-09-22 09:00","1981","09","22","09:00","9.0","","5.9","","81","","2","","20","","32.2","","99.66","","","","","","Mostly Cloudy"
"1981-09-22 10:00","1981","09","22","10:00","11.1","","6.0","","71","","3","","24","","40.2","","99.69","","","","","","Mostly Cloudy"
"1981-09-22 11:00","1981","09","22","11:00","11.4","","5.7","","68","","4","","26","","40.2","","99.72","","","","","","Mostly Cloudy"
"1981-09-22 12:00","1981","09","22","12:00","11.7","","4.3","","60","","3","","15","","40.2","","99.76","","","","","","Mostly Cloudy"
"1981-09-22 13:00","1981","09","22","13:00","12.7","","2.6","","50","","36","","20","","40.2","","99.76","","","","","","Mostly Cloudy"
"1981-09-22 14:00","1981","09","22","14:00","13.4","","3.0","","49","","36","","15","","40.2","","99.79","","","","","","Mostly Cloudy"
"1981-09-22 15:00","1981","09","22","15:00","12.0","","3.5","","56","","1","","22","","40.2","","99.79","","","","","","Mostly Cloudy"
"1981-09-22 16:00","1981","09","22","16:00","11.8","","4.0","","59","","35","","30","","40.2","","99.86","","","","","","Mostly Cloudy"
"1981-09-22 17:00","1981","09","22","17:00","10.2","","4.4","","67","","34","","20","","40.2","","99.92","","","","","","Mostly Cloudy"
"1981-09-22 18:00","1981","09","22","18:00","9.5","","4.7","","72","","33","","22","","40.2","","99.99","","","","","","Mostly Cloudy"
"1981-09-22 19:00","1981","09","22","19:00","8.7","","4.4","","74","","34","","19","","25.0","","100.02","","","","","","Mostly Cloudy"
"1981-09-22 20:00","1981","09","22","20:00","7.0","","4.5","","84","","35","","13","","25.0","","100.09","","","","","","Mainly Clear"
"1981-09-22 21:00","1981","09","22","21:00","6.3","","4.4","","88","","2","","15","","25.0","","100.16","","","","","","Mainly Clear"
"1981-09-22 22:00","1981","09","22","22:00","4.9","","3.3","","89","","34","","11","","25.0","","100.19","","","","","","Mainly Clear"
"1981-09-22 23:00","1981","09","22","23:00","5.8","","3.9","","88","","35","","15","","25.0","","100.19","","","","","","Mainly Clear"
"1981-09-23 00:00","1981","09","23","00:00","6.2","","3.9","","85","","34","","20","","25.0","","100.22","","","","","","Mostly Cloudy"
"1981-09-23 01:00","1981","09","23","01:00","5.8","","3.9","","88","","34","","19","","25.0","","100.22","","","","","","Mostly Cloudy"
"1981-09-23 02:00","1981","09","23","02:00","5.9","","4.3","","89","","34","","17","","25.0","","100.22","","","","","","Mainly Clear"
"1981-09-23 03:00","1981","09","23","03:00","6.2","","3.9","","85","","34","","24","","25.0","","100.22","","","","","","Mainly Clear"
"1981-09-23 04:00","1981","09","23","04:00","5.8","","3.9","","88","","33","","22","","25.0","","100.26","","","","","","Mainly Clear"
"1981-09-23 05:00","1981","09","23","05:00","5.7","","3.4","","85","","33","","19","","25.0","","100.29","","","","","","Mainly Clear"
"1981-09-23 06:00","1981","09","23","06:00","4.6","","2.7","","88","","33","","13","","32.2","","100.32","","","","","","Mainly Clear"
"1981-09-23 07:00","1981","09","23","07:00","5.5","","3.8","","89","","35","","19","","40.2","","100.39","","","","","","Mainly Clear"
"1981-09-23 08:00","1981","09","23","08:00","6.0","","3.9","","86","","36","","24","","32.2","","100.42","","","","","","Mostly Cloudy"
"1981-09-23 09:00","1981","09","23","09:00","7.1","","4.5","","83","","34","","26","","40.2","","100.49","","","","","","Mostly Cloudy"
"1981-09-23 10:00","1981","09","23","10:00","9.2","","5.0","","75","","34","","30","","40.2","","100.46","","","","","","Mainly Clear"
"1981-09-23 11:00","1981","09","23","11:00","11.0","","5.1","","67","","35","","26","","40.2","","100.39","","","","","","Mainly Clear"
"1981-09-23 12:00","1981","09","23","12:00","11.5","","3.8","","59","","35","","28","","40.2","","100.36","","","","","","Mostly Cloudy"
"1981-09-23 13:00","1981","09","23","13:00","12.5","","3.7","","55","","32","","31","","40.2","","100.29","","","","","","Mainly Clear"
"1981-09-23 14:00","1981","09","23","14:00","13.1","","4.3","","55","","33","","31","","40.2","","100.26","","","","","","Mainly Clear"
"1981-09-23 15:00","1981","09","23","15:00","12.6","","3.2","","53","","33","","28","","40.2","","100.19","","","","","","Mainly Clear"
"1981-09-23 16:00","1981","09","23","16:00","12.6","","4.6","","58","","34","","33","","40.2","","100.22","","","","","","Mainly Clear"
"1981-09-23 17:00","1981","09","23","17:00","11.4","","4.3","","62","","34","","35","","40.2","","100.26","","","","","","Mainly Clear"
"1981-09-23 18:00","1981","09","23","18:00","9.9","","4.4","","69","","33","","24","","40.2","","100.26","","","","","","Mainly Clear"
"1981-09-23 19:00","1981","09","23","19:00","8.9","","4.5","","74","","31","","17","","25.0","","100.29","","","","","","Mainly Clear"
"1981-09-23 20:00","1981","09","23","20:00","7.8","","4.8","","81","","32","","15","","25.0","","100.32","","","","","","Clear"
"1981-09-23 21:00","1981","09","23","21:00","6.9","","5.0","","88","","33","","9","","25.0","","100.36","","","","","","Clear"
"1981-09-23 22:00","1981","09","23","22:00","6.8","","5.0","","88","","35","","15","","25.0","","100.36","","","","","","Clear"
"1981-09-23 23:00","1981","09","23","23:00","5.5","","2.9","","83","","34","","19","","25.0","","100.29","","","","","","Clear"
"1981-09-24 00:00","1981","09","24","00:00","7.0","","2.7","","74","","36","","22","","25.0","","100.19","","","","","","Clear"
"1981-09-24 01:00","1981","09","24","01:00","6.0","","2.0","","75","","35","","15","","25.0","","100.22","","","","","","Clear"
"1981-09-24 02:00","1981","09","24","02:00","3.5","","1.2","","85","","32","","15","","25.0","","100.19","","","","","","Clear"
"1981-09-24 03:00","1981","09","24","03:00","3.7","","1.7","","87","","28","","11","","25.0","","100.26","","","","","","Clear"
"1981-09-24 04:00","1981","09","24","04:00","3.0","","1.6","","91","","29","","13","","25.0","","100.26","","","","","","Clear"
"1981-09-24 05:00","1981","09","24","05:00","2.1","","0.6","","90","","29","","9","","25.0","","100.22","","","","","","Clear"
"1981-09-24 06:00","1981","09","24","06:00","3.0","","1.6","","91","","28","","7","","25.0","","100.29","","","","","","Mainly Clear"
"1981-09-24 07:00","1981","09","24","07:00","3.7","","2.2","","90","","27","","9","","32.2","","100.29","","","","","","Clear"
"1981-09-24 08:00","1981","09","24","08:00","7.5","","4.2","","80","","30","","4","","40.2","","100.36","","","","","","Clear"
"1981-09-24 09:00","1981","09","24","09:00","11.4","","6.1","","70","","34","","20","","40.2","","100.36","","","","","","Mainly Clear"
"1981-09-24 10:00","1981","09","24","10:00","13.0","","6.2","","63","","35","","26","","40.2","","100.42","","","","","","Mostly Cloudy"
"1981-09-24 11:00","1981","09","24","11:00","14.4","","6.2","","58","","33","","22","","40.2","","100.39","","","","","","Mainly Clear"
"1981-09-24 12:00","1981","09","24","12:00","15.7","","4.2","","46","","33","","26","","40.2","","100.39","","","","","","Mostly Cloudy"
"1981-09-24 13:00","1981","09","24","13:00","16.5","","3.1","","41","","34","","26","","40.2","","100.32","","","","","","Mostly Cloudy"
"1981-09-24 14:00","1981","09","24","14:00","17.1","","1.6","","35","","33","","24","","40.2","","100.26","","","","","","Mostly Cloudy"
"1981-09-24 15:00","1981","09","24","15:00","18.4","","1.6","","32","","32","","22","","40.2","","100.22","","","","","","Mainly Clear"
"1981-09-24 16:00","1981","09","24","16:00","17.4","","2.9","","38","","35","","17","","40.2","","100.19","","","","","","Mainly Clear"
"1981-09-24 17:00","1981","09","24","17:00","16.6","","3.6","","42","","34","","15","","40.2","","100.22","","","","","","Mainly Clear"
"1981-09-24 18:00","1981","09","24","18:00","13.6","","4.5","","54","","36","","11","","40.2","","100.29","","","","","","Mostly Cloudy"
"1981-09-24 19:00","1981","09","24","19:00","11.4","","4.8","","64","","1","","9","","25.0","","100.29","","","","","","Mainly Clear"
"1981-09-24 20:00","1981","09","24","20:00","9.4","","4.7","","73","","35","","7","","25.0","","100.39","","","","","","Clear"
"1981-09-24 21:00","1981","09","24","21:00","9.2","","5.9","","80","","33","","11","","25.0","","100.42","","","","","","Mostly Cloudy"
"1981-09-24 22:00","1981","09","24","22:00","11.1","","6.8","","75","","32","","7","","25.0","","100.39","","","","","","Cloudy"
"1981-09-24 23:00","1981","09","24","23:00","11.0","","7.2","","78","","27","","6","","25.0","","100.39","","","","","","Mostly Cloudy"
"1981-09-25 00:00","1981","09","25","00:00","11.0","","6.8","","75","","29","","4","","25.0","","100.36","","","","","","Mostly Cloudy"
"1981-09-25 01:00","1981","09","25","01:00","11.0","","6.0","","71","","","","0","","25.0","","100.39","","","","","","Mostly Cloudy"
"1981-09-25 02:00","1981","09","25","02:00","11.4","","6.5","","72","","","","0","","25.0","","100.39","","","","","","Mostly Cloudy"
"1981-09-25 03:00","1981","09","25","03:00","11.0","","6.8","","75","","","","0","","25.0","","100.36","","","","","","Mostly Cloudy"
"1981-09-25 04:00","1981","09","25","04:00","11.1","","6.8","","75","","","","0","","25.0","","100.36","","","","","","Mostly Cloudy"
"1981-09-25 05:00","1981","09","25","05:00","10.9","","6.8","","76","","","","0","","25.0","","100.39","","","","","","Mostly Cloudy"
"1981-09-25 06:00","1981","09","25","06:00","10.0","","6.9","","81","","22","","4","","25.0","","100.42","","","","","","Mostly Cloudy"
"1981-09-25 07:00","1981","09","25","07:00","10.3","","8.3","","87","","25","","2","","40.2","","100.46","","","","","","Mostly Cloudy"
"1981-09-25 08:00","1981","09","25","08:00","12.1","","8.3","","77","","","","0","","32.2","","100.46","","","","","","Cloudy"
"1981-09-25 09:00","1981","09","25","09:00","13.5","","9.2","","75","","24","","4","","24.1","","100.49","","","","","","Cloudy"
"1981-09-25 10:00","1981","09","25","10:00","14.8","","8.6","","67","","26","","4","","32.2","","100.49","","","","","","Cloudy"
"1981-09-25 11:00","1981","09","25","11:00","16.0","","7.2","","56","","20","","2","","32.2","","100.42","","","","","","Cloudy"
"1981-09-25 12:00","1981","09","25","12:00","16.5","","6.5","","52","","21","","6","","32.2","","100.39","","","","","","Rain Showers"
"1981-09-25 13:00","1981","09","25","13:00","16.4","","8.3","","59","","20","","7","","24.1","","100.32","","","","","","Rain Showers"
"1981-09-25 14:00","1981","09","25","14:00","16.1","","9.3","","64","","21","","15","","19.3","","100.36","","","","","","Rain Showers"
"1981-09-25 15:00","1981","09","25","15:00","15.0","","12.3","","84","","22","","9","","16.1","","100.32","","","","","","Rain Showers"
"1981-09-25 16:00","1981","09","25","16:00","13.8","","12.3","","91","","","","0","","8.0","","100.26","","","","","","Rain Showers,Fog"
"1981-09-25 17:00","1981","09","25","17:00","13.6","","12.5","","93","","","","0","","8.0","","100.26","","","","","","Fog"
"1981-09-25 18:00","1981","09","25","18:00","13.5","","12.5","","94","","","","0","","4.8","","100.26","","","","","","Fog"
"1981-09-25 19:00","1981","09","25","19:00","13.1","","12.3","","95","","15","","6","","4.8","","100.26","","","","","","Fog"
"1981-09-25 20:00","1981","09","25","20:00","13.2","","12.3","","94","","16","","6","","4.8","","100.26","","","","","","Rain Showers,Fog"
"1981-09-25 21:00","1981","09","25","21:00","13.3","","13.2","","100","","19","","7","","4.0","","100.26","","","","","","Rain Showers,Fog"
"1981-09-25 22:00","1981","09","25","22:00","12.9","","12.0","","94","","19","","6","","6.4","","100.22","","","","","","Fog"
"1981-09-25 23:00","1981","09","25","23:00","13.0","","12.3","","95","","","","0","","4.8","","100.19","","","","","","Fog"
"1981-09-26 00:00","1981","09","26","00:00","12.8","","12.7","","100","","10","","9","","4.0","","100.09","","","","","","Fog"
"1981-09-26 01:00","1981","09","26","01:00","12.8","","12.7","","100","","","","0","","2.0","","100.06","","","","","","Rain,Fog"
"1981-09-26 02:00","1981","09","26","02:00","12.8","","12.7","","100","","20","","4","","1.6","","100.06","","","","","","Rain,Fog"
"1981-09-26 03:00","1981","09","26","03:00","13.0","","12.3","","95","","19","","4","","4.0","","100.02","","","","","","Rain,Fog"
"1981-09-26 04:00","1981","09","26","04:00","12.7","","11.8","","94","","18","","4","","4.8","","100.06","","","","","","Rain,Fog"
"1981-09-26 05:00","1981","09","26","05:00","12.5","","11.5","","94","","","","0","","6.4","","100.09","","","","","","Rain,Fog"
"1981-09-26 06:00","1981","09","26","06:00","12.5","","11.8","","95","","11","","9","","6.4","","100.02","","","","","","Rain,Fog"
"1981-09-26 07:00","1981","09","26","07:00","12.5","","11.8","","95","","13","","13","","3.2","","100.02","","","","","","Rain,Fog"
"1981-09-26 08:00","1981","09","26","08:00","12.9","","12.3","","96","","12","","17","","4.0","","99.86","","","","","","Rain,Fog"
"1981-09-26 09:00","1981","09","26","09:00","13.9","","12.3","","90","","13","","13","","4.8","","99.89","","","","","","Rain,Fog"
"1981-09-26 10:00","1981","09","26","10:00","14.2","","12.7","","91","","13","","13","","6.4","","99.86","","","","","","Fog"
"1981-09-26 11:00","1981","09","26","11:00","14.2","","12.7","","91","","13","","20","","6.4","","99.72","","","","","","Rain,Fog"
"1981-09-26 12:00","1981","09","26","12:00","14.1","","13.0","","93","","12","","19","","6.4","","99.59","","","","","","Rain Showers,Fog"
"1981-09-26 13:00","1981","09","26","13:00","14.9","","13.4","","91","","12","","17","","6.4","","99.52","","","","","","Fog"
"1981-09-26 14:00","1981","09","26","14:00","16.7","","13.2","","80","","13","","19","","12.9","","99.42","","","","","","Mostly Cloudy"
"1981-09-26 15:00","1981","09","26","15:00","16.7","","13.2","","80","","14","","17","","12.9","","99.36","","","","","","Cloudy"
"1981-09-26 16:00","1981","09","26","16:00","17.0","","13.8","","81","","11","","13","","12.9","","99.26","","","","","","Cloudy"
"1981-09-26 17:00","1981","09","26","17:00","17.0","","13.8","","81","","13","","11","","11.3","","99.19","","","","","","Cloudy"
"1981-09-26 18:00","1981","09","26","18:00","16.5","","14.3","","87","","12","","9","","8.0","","99.12","","","","","","Fog"
"1981-09-26 19:00","1981","09","26","19:00","17.0","","14.4","","85","","12","","7","","8.0","","99.16","","","","","","Haze"
"1981-09-26 20:00","1981","09","26","20:00","16.7","","14.6","","87","","16","","6","","8.0","","99.09","","","","","","Fog"
"1981-09-26 21:00","1981","09","26","21:00","16.9","","15.4","","91","","13","","11","","6.4","","98.99","","","","","","Fog"
"1981-09-26 22:00","1981","09","26","22:00","17.0","","15.4","","90","","15","","4","","6.4","","98.99","","","","","","Fog"
"1981-09-26 23:00","1981","09","26","23:00","16.8","","15.8","","94","","15","","6","","6.4","","98.86","","","","","","Fog"
"1981-09-27 00:00","1981","09","27","00:00","18.3","","16.7","","91","","22","","15","","6.4","","98.89","","","","","","Fog"
"1981-09-27 01:00","1981","09","27","01:00","19.8","","16.3","","80","","21","","9","","11.3","","98.82","","","","","","Cloudy"
"1981-09-27 02:00","1981","09","27","02:00","20.4","","16.2","","77","","21","","15","","11.3","","98.82","","25","","","","Cloudy"
"1981-09-27 03:00","1981","09","27","03:00","20.2","","16.3","","78","","21","","15","","8.0","","98.79","","25","","","","Haze"
"1981-09-27 04:00","1981","09","27","04:00","19.6","","16.4","","82","","22","","15","","8.0","","98.72","","","","","","Haze"
"1981-09-27 05:00","1981","09","27","05:00","20.2","","16.3","","78","","21","","22","","8.0","","98.66","","25","","","","Haze"
"1981-09-27 06:00","1981","09","27","06:00","19.8","","16.7","","83","","23","","24","","8.0","","98.66","","","","","","Haze"
"1981-09-27 07:00","1981","09","27","07:00","18.3","","17.0","","92","","23","","19","","9.7","","98.76","","","","","","Fog"
"1981-09-27 08:00","1981","09","27","08:00","18.5","","17.3","","93","","24","","15","","4.8","","98.76","","","","","","Fog"
"1981-09-27 09:00","1981","09","27","09:00","17.7","","14.6","","82","","27","","15","","19.3","","98.86","","","","","","Cloudy"
"1981-09-27 10:00","1981","09","27","10:00","17.0","","13.4","","79","","26","","20","","32.2","","98.89","","","","","","Mostly Cloudy"
"1981-09-27 11:00","1981","09","27","11:00","18.1","","11.3","","64","","25","","30","","32.2","","98.89","","","","","","Mainly Clear"
"1981-09-27 12:00","1981","09","27","12:00","18.4","","9.1","","55","","26","","24","","40.2","","98.86","","","","","","Mainly Clear"
"1981-09-27 13:00","1981","09","27","13:00","19.3","","8.3","","49","","26","","31","","40.2","","98.86","","","","","","Mostly Cloudy"
"1981-09-27 14:00","1981","09","27","14:00","19.1","","5.7","","42","","26","","37","","40.2","","98.79","","","","","","Mainly Clear"
"1981-09-27 15:00","1981","09","27","15:00","19.5","","4.9","","38","","24","","30","","40.2","","98.72","","","","","","Mainly Clear"
"1981-09-27 16:00","1981","09","27","16:00","19.5","","6.4","","42","","24","","24","","40.2","","98.72","","","","","","Mainly Clear"
"1981-09-27 17:00","1981","09","27","17:00","18.4","","7.4","","49","","24","","22","","40.2","","98.69","","","","","","Mainly Clear"
"1981-09-27 18:00","1981","09","27","18:00","17.0","","6.7","","51","","23","","17","","40.2","","98.66","","","","","","Mainly Clear"
"1981-09-27 19:00","1981","09","27","19:00","15.0","","6.0","","55","","25","","19","","25.0","","98.72","","","","","","Mainly Clear"
"1981-09-27 20:00","1981","09","27","20:00","15.8","","4.4","","47","","27","","28","","25.0","","98.76","","","","","","Mainly Clear"
"1981-09-27 21:00","1981","09","27","21:00","12.8","","8.3","","74","","26","","20","","25.0","","98.82","","","","","","Cloudy"
"1981-09-27 22:00","1981","09","27","22:00","12.8","","7.0","","68","","28","","24","","25.0","","98.86","","","","","","Cloudy"
"1981-09-27 23:00","1981","09","27","23:00","10.5","","6.7","","77","","27","","26","","25.0","","98.89","","","","","","Mostly Cloudy"
"1981-09-28 00:00","1981","09","28","00:00","10.7","","6.3","","74","","28","","22","","25.0","","98.96","","","","","","Mostly Cloudy"
"1981-09-28 01:00","1981","09","28","01:00","8.9","","6.7","","86","","26","","17","","25.0","","98.99","","","","","","Cloudy"
"1981-09-28 02:00","1981","09","28","02:00","8.7","","5.7","","81","","28","","22","","25.0","","98.99","","","","","","Mostly Cloudy"
"1981-09-28 03:00","1981","09","28","03:00","8.4","","4.9","","79","","29","","24","","25.0","","99.06","","","","","","Mostly Cloudy"
"1981-09-28 04:00","1981","09","28","04:00","8.1","","3.9","","75","","28","","26","","25.0","","99.16","","","","","","Mostly Cloudy"
"1981-09-28 05:00","1981","09","28","05:00","8.0","","3.9","","75","","29","","24","","25.0","","99.26","","","","","","Mostly Cloudy"
"1981-09-28 06:00","1981","09","28","06:00","7.0","","3.6","","79","","29","","26","","25.0","","99.36","","","","","","Mainly Clear"
"1981-09-28 07:00","1981","09","28","07:00","7.0","","3.6","","79","","29","","28","","32.2","","99.42","","","","","","Mainly Clear"
"1981-09-28 08:00","1981","09","28","08:00","7.8","","2.9","","71","","29","","31","","40.2","","99.56","","","","","","Mainly Clear"
"1981-09-28 09:00","1981","09","28","09:00","8.9","","2.7","","65","","29","","37","","40.2","","99.66","","","","","","Mostly Cloudy"
"1981-09-28 10:00","1981","09","28","10:00","9.2","","2.2","","62","","31","","22","","40.2","","99.69","","","","","","Mostly Cloudy"
"1981-09-28 11:00","1981","09","28","11:00","9.5","","3.3","","65","","29","","28","","40.2","","99.72","","","","","","Mostly Cloudy"
"1981-09-28 12:00","1981","09","28","12:00","11.4","","2.3","","53","","30","","30","","40.2","","99.72","","","","","","Mostly Cloudy"
"1981-09-28 13:00","1981","09","28","13:00","12.0","","0.9","","46","","31","","37","","40.2","","99.72","","","","","","Mostly Cloudy"
"1981-09-28 14:00","1981","09","28","14:00","11.2","","3.2","","58","","29","","28","","40.2","","99.76","","","","","","Mostly Cloudy"
"1981-09-28 15:00","1981","09","28","15:00","11.1","","1.7","","52","","29","","44","","40.2","","99.79","","","","","","Mostly Cloudy"
"1981-09-28 16:00","1981","09","28","16:00","9.5","","0.2","","52","","31","","43","","40.2","","99.82","","","","","","Mainly Clear"
"1981-09-28 17:00","1981","09","28","17:00","9.4","","-1.0","","48","","31","","43","","40.2","","99.89","","","","","","Mainly Clear"
"1981-09-28 18:00","1981","09","28","18:00","8.0","","-0.2","","56","","31","","28","","40.2","","99.96","","","","","","Mainly Clear"
"1981-09-28 19:00","1981","09","28","19:00","6.1","","0.0","","65","","30","","13","","25.0","","99.99","","","","","","Clear"
"1981-09-28 20:00","1981","09","28","20:00","4.4","","0.8","","77","","27","","7","","25.0","","100.02","","","","","","Clear"
"1981-09-28 21:00","1981","09","28","21:00","3.9","","0.8","","80","","26","","9","","25.0","","100.02","","","","","","Clear"
"1981-09-28 22:00","1981","09","28","22:00","4.0","","1.7","","85","","27","","13","","25.0","","100.02","","","","","","Clear"
"1981-09-28 23:00","1981","09","28","23:00","2.3","","1.1","","92","","27","","11","","25.0","","100.02","","","","","","Clear"
"1981-09-29 00:00","1981","09","29","00:00","3.2","","1.1","","86","","32","","9","","25.0","","100.06","","","","","","Mostly Cloudy"
"1981-09-29 01:00","1981","09","29","01:00","4.4","","2.3","","86","","30","","6","","25.0","","100.12","","","","","","Mostly Cloudy"
"1981-09-29 02:00","1981","09","29","02:00","3.3","","1.7","","90","","28","","7","","25.0","","100.09","","","","","","Mostly Cloudy"
"1981-09-29 03:00","1981","09","29","03:00","4.4","","2.3","","86","","28","","7","","25.0","","100.06","","","","","","Mostly Cloudy"
"1981-09-29 04:00","1981","09","29","04:00","4.6","","2.3","","85","","26","","7","","25.0","","100.09","","","","","","Cloudy"
"1981-09-29 05:00","1981","09","29","05:00","4.7","","2.7","","87","","28","","4","","25.0","","100.06","","","","","","Cloudy"
"1981-09-29 06:00","1981","09","29","06:00","5.0","","1.9","","80","","27","","4","","25.0","","100.06","","","","","","Mostly Cloudy"
"1981-09-29 07:00","1981","09","29","07:00","5.9","","3.4","","84","","27","","7","","32.2","","100.09","","","","","","Mostly Cloudy"
"1981-09-29 08:00","1981","09","29","08:00","7.3","","3.3","","76","","28","","11","","32.2","","100.09","","","","","","Mostly Cloudy"
"1981-09-29 09:00","1981","09","29","09:00","7.7","","3.3","","73","","29","","9","","32.2","","100.09","","","","","","Mostly Cloudy"
"1981-09-29 10:00","1981","09","29","10:00","8.8","","3.6","","70","","28","","17","","32.2","","100.09","","","","","","Cloudy"
"1981-09-29 11:00","1981","09","29","11:00","9.4","","4.7","","73","","28","","19","","32.2","","100.06","","","","","","Cloudy"
"1981-09-29 12:00","1981","09","29","12:00","9.8","","4.8","","71","","30","","19","","32.2","","100.09","","","","","","Cloudy"
"1981-09-29 13:00","1981","09","29","13:00","10.2","","4.4","","67","","29","","22","","32.2","","100.06","","","","","","Mostly Cloudy"
"1981-09-29 14:00","1981","09","29","14:00","10.8","","5.1","","68","","31","","28","","32.2","","100.02","","","","","","Mostly Cloudy"
"1981-09-29 15:00","1981","09","29","15:00","10.5","","4.5","","66","","29","","26","","40.2","","99.99","","","","","","Mostly Cloudy"
"1981-09-29 16:00","1981","09","29","16:00","10.8","","4.2","","64","","28","","24","","40.2","","99.99","","","","","","Mostly Cloudy"
"1981-09-29 17:00","1981","09","29","17:00","10.4","","4.0","","65","","29","","19","","40.2","","99.96","","","","","","Mainly Clear"
"1981-09-29 18:00","1981","09","29","18:00","8.5","","4.0","","73","","27","","17","","40.2","","99.99","","","","","","Mainly Clear"
"1981-09-29 19:00","1981","09","29","19:00","7.0","","3.6","","79","","33","","11","","25.0","","100.06","","","","","","Mainly Clear"
"1981-09-29 20:00","1981","09","29","20:00","5.4","","2.4","","81","","31","","11","","25.0","","100.12","","","","","","Clear"
"1981-09-29 21:00","1981","09","29","21:00","3.1","","1.1","","87","","32","","11","","25.0","","100.12","","","","","","Clear"
"1981-09-29 22:00","1981","09","29","22:00","3.6","","1.2","","84","","32","","6","","25.0","","100.16","","","","","","Clear"
"1981-09-29 23:00","1981","09","29","23:00","3.5","","0.7","","82","","34","","4","","25.0","","100.19","","","","","","Mainly Clear"
"1981-09-30 00:00","1981","09","30","00:00","1.5","","0.0","","90","","33","","6","","25.0","","100.19","","","","","","Mainly Clear"
"1981-09-30 01:00","1981","09","30","01:00","0.8","","0.0","","95","","34","","9","","25.0","","100.19","","","","","","Mainly Clear"
"1981-09-30 02:00","1981","09","30","02:00","1.0","","-0.5","","90","","35","","11","","25.0","","100.19","","","","","","Mainly Clear"
"1981-09-30 03:00","1981","09","30","03:00","0.7","","-0.9","","89","","35","","9","","25.0","","100.16","","","","","","Mainly Clear"
"1981-09-30 04:00","1981","09","30","04:00","1.5","","0.0","","90","","","","0","","25.0","","100.09","","","","","","Clear"
"1981-09-30 05:00","1981","09","30","05:00","-0.4","","-1.0","","96","","36","","6","","25.0","","100.19","","","","-2","","Mainly Clear"
"1981-09-30 06:00","1981","09","30","06:00","-0.4","","-1.0","","96","","34","","7","","25.0","","100.29","","","","-3","","Mostly Cloudy"
"1981-09-30 07:00","1981","09","30","07:00","1.0","","-1.0","","86","","34","","9","","32.2","","100.32","","","","","","Mostly Cloudy"
"1981-09-30 08:00","1981","09","30","08:00","3.9","","1.3","","83","","35","","13","","40.2","","100.32","","","","","","Mostly Cloudy"
"1981-09-30 09:00","1981","09","30","09:00","5.0","","2.4","","83","","1","","11","","40.2","","100.36","","","","","","Cloudy"
"1981-09-30 10:00","1981","09","30","10:00","6.1","","1.0","","70","","36","","13","","40.2","","100.32","","","","","","Cloudy"
"1981-09-30 11:00","1981","09","30","11:00","7.9","","1.4","","63","","1","","9","","40.2","","100.26","","","","","","Cloudy"
"1981-09-30 12:00","1981","09","30","12:00","8.7","","0.5","","56","","34","","7","","40.2","","100.19","","","","","","Cloudy"
"1981-09-30 13:00","1981","09","30","13:00","9.2","","0.0","","52","","36","","7","","40.2","","100.09","","","","","","Cloudy"
"1981-09-30 14:00","1981","09","30","14:00","10.4","","1.0","","52","","","","0","","40.2","","100.06","","","","","","Cloudy"
"1981-09-30 15:00","1981","09","30","15:00","10.5","","2.6","","58","","29","","6","","32.2","","99.99","","","","","","Cloudy"
"1981-09-30 16:00","1981","09","30","16:00","10.6","","0.4","","49","","5","","7","","32.2","","99.96","","","","","","Cloudy"
"1981-09-30 17:00","1981","09","30","17:00","9.9","","-0.3","","49","","1","","11","","32.2","","99.99","","","","","","Mostly Cloudy"
"1981-09-30 18:00","1981","09","30","18:00","9.2","","0.6","","55","","2","","7","","25.0","","99.92","","","","","","Mostly Cloudy"
"1981-09-30 19:00","1981","09","30","19:00","9.0","","0.0","","53","","4","","7","","25.0","","99.89","","","","","","Cloudy"
"1981-09-30 20:00","1981","09","30","20:00","8.3","","-0.7","","53","","1","","7","","25.0","","99.86","","","","","","Cloudy"
"1981-09-30 21:00","1981","09","30","21:00","7.9","","-0.2","","56","","3","","11","","25.0","","99.76","","","","","","Cloudy"
"1981-09-30 22:00","1981","09","30","22:00","7.9","","-0.8","","54","","7","","9","","25.0","","99.69","","","","","","Cloudy"
"1981-09-30 23:00","1981","09","30","23:00","7.9","","-1.4","","52","","9","","6","","25.0","","99.59","","","","","","Cloudy"
