"Station Name","TORONTO LESTER B. PEARSON INT'L A"
"Province","ONTARIO"
"Latitude","43.68"
"Longitude","-79.63"
"Elevation","173.40"
"Climate Identifier","6158733"
"WMO Identifier","71624"
"TC Identifier","YYZ"
"All times are specified in Local Standard Time (LST). Add 1 hour to adjust for Daylight Saving Time where and when it is observed."

"Legend"
"E","Estimated"
"M","Missing"
"NA","Not Available"

"Date/Time","Year","Month","Day","Time","Temp (°C)","Temp Flag","Dew Point Temp (°C)","Dew Point Temp Flag","Rel Hum (%)","Rel Hum Flag","Wind Dir (10s deg)","Wind Dir Flag","Wind Spd (km/h)","Wind Spd Flag","Visibility (km)","Visibility Flag","Stn Press (kPa)","Stn Press Flag","Hmdx","Hmdx Flag","Wind Chill","Wind Chill Flag","Weather"
"1991-09-01 00:00","1991","09","01","00:00","12.9","","3.8","","54","","3","","20","","25.0","","100.54","","","","","","Clear"
"1991-09-01 01:00","1991","09","01","01:00","12.0","","3.5","","56","","4","","20","","25.0","","100.57","","","","","","Clear"
"1991-09-01 02:00","1991","09","01","02:00","10.6","","3.1","","60","","3","","15","","25.0","","100.61","","","","","","Clear"
"1991-09-01 03:00","1991","09","01","03:00","9.5","","2.3","","61","","36","","13","","25.0","","100.67","","","","","","Clear"
"1991-09-01 04:00","1991","09","01","04:00","9.0","","3.2","","67","","1","","15","","25.0","","100.71","","","","","","Clear"
"1991-09-01 05:00","1991","09","01","05:00","8.6","","3.0","","68","","1","","9","","25.0","","100.74","","","","","","Clear"
"1991-09-01 06:00","1991","09","01","06:00","6.3","","3.5","","82","","33","","11","","40.2","","100.81","","","","","","Clear"
"1991-09-01 07:00","1991","09","01","07:00","10.0","","4.4","","68","","3","","11","","40.2","","100.87","","","","","","Clear"
"1991-09-01 08:00","1991","09","01","08:00","12.8","","4.3","","56","","5","","20","","40.2","","100.91","","","","","","Clear"
"1991-09-01 09:00","1991","09","01","09:00","13.7","","3.5","","50","","6","","15","","40.2","","100.94","","","","","","Clear"
"1991-09-01 10:00","1991","09","01","10:00","14.6","","3.3","","47","","10","","11","","40.2","","100.97","","","","","","Mainly Clear"
"1991-09-01 11:00","1991","09","01","11:00","15.2","","4.0","","47","","10","","15","","40.2","","100.97","","","","","","Mainly Clear"
"1991-09-01 12:00","1991","09","01","12:00","16.2","","6.3","","52","","14","","15","","40.2","","100.97","","","","","","Mainly Clear"
"1991-09-01 13:00","1991","09","01","13:00","16.1","","5.4","","49","","13","","13","","40.2","","100.94","","","","","","Mainly Clear"
"1991-09-01 14:00","1991","09","01","14:00","17.0","","6.7","","51","","12","","6","","40.2","","100.91","","","","","","Mainly Clear"
"1991-09-01 15:00","1991","09","01","15:00","17.5","","6.5","","48","","12","","7","","40.2","","100.87","","","","","","Mainly Clear"
"1991-09-01 16:00","1991","09","01","16:00","17.6","","6.5","","48","","10","","7","","40.2","","100.87","","","","","","Clear"
"1991-09-01 17:00","1991","09","01","17:00","17.0","","6.7","","51","","15","","13","","40.2","","100.81","","","","","","Mainly Clear"
"1991-09-01 18:00","1991","09","01","18:00","16.2","","6.3","","52","","14","","15","","40.2","","100.81","","","","","","Mainly Clear"
"1991-09-01 19:00","1991","09","01","19:00","15.3","","7.9","","61","","12","","13","","25.0","","100.77","","","","","","Mainly Clear"
"1991-09-01 20:00","1991","09","01","20:00","15.0","","8.1","","63","","12","","9","","25.0","","100.81","","","","","","Mainly Clear"
"1991-09-01 21:00","1991","09","01","21:00","14.8","","8.1","","64","","11","","6","","25.0","","100.81","","","","","","Mainly Clear"
"1991-09-01 22:00","1991","09","01","22:00","13.8","","8.2","","69","","6","","7","","25.0","","100.81","","","","","","Clear"
"1991-09-01 23:00","1991","09","01","23:00","13.8","","8.6","","71","","5","","7","","25.0","","100.81","","","","","","Clear"
"1991-09-02 00:00","1991","09","02","00:00","14.0","","9.0","","72","","14","","9","","25.0","","100.87","","","","","","Clear"
"1991-09-02 01:00","1991","09","02","01:00","13.9","","8.2","","69","","13","","11","","25.0","","100.87","","","","","","Clear"
"1991-09-02 02:00","1991","09","02","02:00","13.6","","8.0","","69","","12","","11","","25.0","","100.87","","","","","","Clear"
"1991-09-02 03:00","1991","09","02","03:00","13.0","","8.3","","73","","11","","7","","25.0","","100.84","","","","","","Mainly Clear"
"1991-09-02 04:00","1991","09","02","04:00","10.4","","7.9","","84","","36","","6","","25.0","","100.81","","","","","","Mainly Clear"
"1991-09-02 05:00","1991","09","02","05:00","8.5","","6.6","","88","","1","","7","","25.0","","100.77","","","","","","Mainly Clear"
"1991-09-02 06:00","1991","09","02","06:00","7.3","","5.9","","91","","35","","7","","40.2","","100.81","","","","","","Mainly Clear"
"1991-09-02 07:00","1991","09","02","07:00","10.1","","7.7","","85","","34","","7","","40.2","","100.77","","","","","","Mainly Clear"
"1991-09-02 08:00","1991","09","02","08:00","14.2","","9.0","","71","","","","0","","40.2","","100.77","","","","","","Mainly Clear"
"1991-09-02 09:00","1991","09","02","09:00","17.4","","9.9","","61","","12","","7","","40.2","","100.77","","","","","","Mainly Clear"
"1991-09-02 10:00","1991","09","02","10:00","18.6","","8.7","","53","","11","","11","","40.2","","100.74","","","","","","Clear"
"1991-09-02 11:00","1991","09","02","11:00","19.8","","8.9","","49","","11","","11","","40.2","","100.74","","","","","","Clear"
"1991-09-02 12:00","1991","09","02","12:00","20.6","","7.4","","42","","15","","11","","40.2","","100.67","","","","","","Clear"
"1991-09-02 13:00","1991","09","02","13:00","22.0","","7.6","","40","","13","","13","","40.2","","100.61","","","","","","Clear"
"1991-09-02 14:00","1991","09","02","14:00","21.6","","5.4","","35","","12","","15","","40.2","","100.57","","","","","","Clear"
"1991-09-02 15:00","1991","09","02","15:00","22.5","","5.9","","34","","14","","15","","40.2","","100.47","","","","","","Clear"
"1991-09-02 16:00","1991","09","02","16:00","22.6","","7.9","","39","","14","","15","","40.2","","100.41","","","","","","Clear"
"1991-09-02 17:00","1991","09","02","17:00","21.6","","6.9","","39","","15","","15","","40.2","","100.41","","","","","","Clear"
"1991-09-02 18:00","1991","09","02","18:00","20.5","","9.1","","48","","14","","15","","40.2","","100.37","","","","","","Clear"
"1991-09-02 19:00","1991","09","02","19:00","18.6","","11.1","","62","","13","","7","","25.0","","100.37","","","","","","Clear"
"1991-09-02 20:00","1991","09","02","20:00","18.2","","9.7","","58","","12","","6","","25.0","","100.37","","","","","","Clear"
"1991-09-02 21:00","1991","09","02","21:00","18.2","","10.5","","61","","11","","6","","25.0","","100.34","","","","","","Clear"
"1991-09-02 22:00","1991","09","02","22:00","17.7","","11.1","","65","","12","","4","","25.0","","100.31","","","","","","Clear"
"1991-09-02 23:00","1991","09","02","23:00","15.2","","10.5","","73","","","","0","","25.0","","100.27","","","","","","Clear"
"1991-09-03 00:00","1991","09","03","00:00","13.3","","10.0","","81","","34","","6","","25.0","","100.21","","","","","","Clear"
"1991-09-03 01:00","1991","09","03","01:00","12.4","","10.0","","85","","35","","7","","25.0","","100.21","","","","","","Clear"
"1991-09-03 02:00","1991","09","03","02:00","11.5","","9.7","","89","","34","","9","","25.0","","100.21","","","","","","Clear"
"1991-09-03 03:00","1991","09","03","03:00","11.2","","9.6","","90","","34","","6","","25.0","","100.17","","","","","","Clear"
"1991-09-03 04:00","1991","09","03","04:00","11.2","","9.2","","87","","","","0","","25.0","","100.17","","","","","","Clear"
"1991-09-03 05:00","1991","09","03","05:00","10.9","","9.2","","89","","33","","6","","25.0","","100.11","","","","","","Clear"
"1991-09-03 06:00","1991","09","03","06:00","11.8","","9.9","","88","","","","0","","19.3","","100.11","","","","","","Mainly Clear"
"1991-09-03 07:00","1991","09","03","07:00","13.4","","11.5","","88","","","","0","","12.9","","100.07","","","","","","Clear"
"1991-09-03 08:00","1991","09","03","08:00","18.0","","13.1","","73","","19","","4","","16.1","","100.04","","","","","","Clear"
"1991-09-03 09:00","1991","09","03","09:00","20.7","","14.5","","68","","23","","11","","16.1","","99.97","","","","","","Clear"
"1991-09-03 10:00","1991","09","03","10:00","23.0","","15.3","","62","","20","","9","","16.1","","99.94","","27","","","","Clear"
"1991-09-03 11:00","1991","09","03","11:00","26.5","","13.7","","45","","25","","15","","19.3","","99.87","","30","","","","Clear"
"1991-09-03 12:00","1991","09","03","12:00","27.2","","12.0","","39","","24","","19","","24.1","","99.77","","29","","","","Mainly Clear"
"1991-09-03 13:00","1991","09","03","13:00","28.5","","14.8","","43","","20","","17","","24.1","","99.71","","32","","","","Clear"
"1991-09-03 14:00","1991","09","03","14:00","28.4","","14.0","","41","","20","","17","","19.3","","99.61","","32","","","","Mostly Cloudy"
"1991-09-03 15:00","1991","09","03","15:00","29.0","","14.7","","42","","21","","22","","16.1","","99.51","","33","","","","Mostly Cloudy"
"1991-09-03 16:00","1991","09","03","16:00","28.6","","14.4","","42","","21","","19","","14.5","","99.44","","32","","","","Mainly Clear"
"1991-09-03 17:00","1991","09","03","17:00","28.6","","14.8","","43","","22","","24","","14.5","","99.34","","32","","","","Mainly Clear"
"1991-09-03 18:00","1991","09","03","18:00","27.5","","13.5","","42","","21","","22","","12.9","","99.31","","31","","","","Mainly Clear"
"1991-09-03 19:00","1991","09","03","19:00","26.5","","12.5","","42","","21","","19","","16.1","","99.27","","29","","","","Cloudy"
"1991-09-03 20:00","1991","09","03","20:00","25.7","","12.0","","42","","21","","15","","24.1","","99.24","","28","","","","Cloudy"
"1991-09-03 21:00","1991","09","03","21:00","24.8","","15.9","","58","","23","","30","","19.3","","99.21","","29","","","","Cloudy"
"1991-09-03 22:00","1991","09","03","22:00","21.8","","18.2","","80","","23","","20","","12.9","","99.24","","28","","","","Rain Showers"
"1991-09-03 23:00","1991","09","03","23:00","21.2","","18.3","","83","","23","","20","","12.9","","99.24","","27","","","","Cloudy"
"1991-09-04 00:00","1991","09","04","00:00","20.2","","19.4","","95","","28","","15","","2.4","","99.27","","27","","","","Heavy Rain Showers,Fog"
"1991-09-04 01:00","1991","09","04","01:00","20.2","","19.7","","97","","28","","13","","3.2","","99.24","","28","","","","Moderate Rain Showers,Fog"
"1991-09-04 02:00","1991","09","04","02:00","20.2","","19.4","","95","","30","","11","","6.4","","99.21","","27","","","","Rain Showers,Fog"
"1991-09-04 03:00","1991","09","04","03:00","19.8","","17.6","","87","","31","","20","","12.9","","99.21","","","","","","Cloudy"
"1991-09-04 04:00","1991","09","04","04:00","18.3","","16.7","","91","","32","","19","","19.3","","99.24","","","","","","Mostly Cloudy"
"1991-09-04 05:00","1991","09","04","05:00","17.2","","15.1","","87","","32","","13","","25.0","","99.31","","","","","","Mostly Cloudy"
"1991-09-04 06:00","1991","09","04","06:00","16.5","","14.3","","87","","33","","22","","32.2","","99.37","","","","","","Mostly Cloudy"
"1991-09-04 07:00","1991","09","04","07:00","15.9","","13.4","","85","","33","","26","","40.2","","99.47","","","","","","Mostly Cloudy"
"1991-09-04 08:00","1991","09","04","08:00","16.0","","13.7","","86","","35","","30","","40.2","","99.51","","","","","","Mostly Cloudy"
"1991-09-04 09:00","1991","09","04","09:00","17.3","","12.9","","75","","1","","26","","40.2","","99.54","","","","","","Mostly Cloudy"
"1991-09-04 10:00","1991","09","04","10:00","18.8","","11.7","","64","","35","","22","","40.2","","99.54","","","","","","Mainly Clear"
"1991-09-04 11:00","1991","09","04","11:00","20.6","","12.7","","61","","35","","24","","40.2","","99.57","","","","","","Mainly Clear"
"1991-09-04 12:00","1991","09","04","12:00","22.0","","12.3","","54","","36","","22","","40.2","","99.51","","","","","","Mainly Clear"
"1991-09-04 13:00","1991","09","04","13:00","22.5","","11.3","","49","","31","","13","","40.2","","99.47","","","","","","Mainly Clear"
"1991-09-04 14:00","1991","09","04","14:00","23.4","","12.2","","50","","35","","15","","40.2","","99.44","","26","","","","Mostly Cloudy"
"1991-09-04 15:00","1991","09","04","15:00","23.0","","9.9","","43","","35","","7","","40.2","","99.41","","","","","","Mostly Cloudy"
"1991-09-04 16:00","1991","09","04","16:00","24.3","","11.5","","45","","36","","11","","40.2","","99.41","","26","","","","Mostly Cloudy"
"1991-09-04 17:00","1991","09","04","17:00","23.6","","11.0","","45","","30","","15","","40.2","","99.41","","25","","","","Mainly Clear"
"1991-09-04 18:00","1991","09","04","18:00","21.6","","11.7","","53","","29","","15","","40.2","","99.41","","","","","","Mainly Clear"
"1991-09-04 19:00","1991","09","04","19:00","19.6","","12.7","","64","","34","","19","","25.0","","99.47","","","","","","Mainly Clear"
"1991-09-04 20:00","1991","09","04","20:00","18.0","","12.0","","68","","35","","15","","25.0","","99.57","","","","","","Mainly Clear"
"1991-09-04 21:00","1991","09","04","21:00","15.3","","12.5","","84","","32","","13","","25.0","","99.61","","","","","","Clear"
"1991-09-04 22:00","1991","09","04","22:00","14.0","","12.0","","88","","33","","15","","25.0","","99.61","","","","","","Clear"
"1991-09-04 23:00","1991","09","04","23:00","12.4","","9.3","","81","","34","","9","","25.0","","99.61","","","","","","Clear"
"1991-09-05 00:00","1991","09","05","00:00","11.8","","8.7","","82","","33","","13","","25.0","","99.61","","","","","","Clear"
"1991-09-05 01:00","1991","09","05","01:00","12.0","","8.3","","78","","33","","7","","25.0","","99.64","","","","","","Clear"
"1991-09-05 02:00","1991","09","05","02:00","12.3","","8.1","","76","","","","0","","25.0","","99.64","","","","","","Clear"
"1991-09-05 03:00","1991","09","05","03:00","12.0","","7.9","","76","","","","0","","25.0","","99.64","","","","","","Clear"
"1991-09-05 04:00","1991","09","05","04:00","11.8","","7.9","","77","","","","0","","25.0","","99.67","","","","","","Clear"
"1991-09-05 05:00","1991","09","05","05:00","11.3","","7.4","","77","","","","0","","25.0","","99.74","","","","","","Clear"
"1991-09-05 06:00","1991","09","05","06:00","10.2","","6.9","","80","","33","","6","","40.2","","99.81","","","","","","Clear"
"1991-09-05 07:00","1991","09","05","07:00","12.5","","8.1","","75","","","","0","","40.2","","99.84","","","","","","Clear"
"1991-09-05 08:00","1991","09","05","08:00","16.4","","10.3","","67","","","","0","","40.2","","99.87","","","","","","Clear"
"1991-09-05 09:00","1991","09","05","09:00","19.2","","9.3","","53","","27","","6","","40.2","","99.91","","","","","","Clear"
"1991-09-05 10:00","1991","09","05","10:00","21.5","","8.7","","44","","24","","9","","40.2","","99.91","","","","","","Mainly Clear"
"1991-09-05 11:00","1991","09","05","11:00","21.9","","9.4","","45","","26","","11","","40.2","","99.91","","","","","","Mainly Clear"
"1991-09-05 12:00","1991","09","05","12:00","22.6","","10.5","","46","","19","","15","","40.2","","99.87","","","","","","Mostly Cloudy"
"1991-09-05 13:00","1991","09","05","13:00","22.6","","8.3","","40","","16","","20","","40.2","","99.87","","","","","","Mostly Cloudy"
"1991-09-05 14:00","1991","09","05","14:00","23.3","","9.7","","42","","17","","20","","40.2","","99.81","","","","","","Mostly Cloudy"
"1991-09-05 15:00","1991","09","05","15:00","22.8","","9.0","","41","","18","","15","","40.2","","99.77","","","","","","Mainly Clear"
"1991-09-05 16:00","1991","09","05","16:00","23.4","","9.7","","42","","16","","15","","40.2","","99.77","","25","","","","Mostly Cloudy"
"1991-09-05 17:00","1991","09","05","17:00","22.6","","9.7","","44","","17","","11","","40.2","","99.81","","","","","","Mostly Cloudy"
"1991-09-05 18:00","1991","09","05","18:00","21.9","","10.7","","49","","15","","9","","32.2","","99.81","","","","","","Mostly Cloudy"
"1991-09-05 19:00","1991","09","05","19:00","20.0","","11.4","","58","","15","","7","","25.0","","99.84","","","","","","Mainly Clear"
"1991-09-05 20:00","1991","09","05","20:00","19.6","","11.5","","60","","17","","7","","25.0","","99.91","","","","","","Mostly Cloudy"
"1991-09-05 21:00","1991","09","05","21:00","19.0","","12.5","","66","","25","","15","","25.0","","99.91","","","","","","Mainly Clear"
"1991-09-05 22:00","1991","09","05","22:00","18.1","","12.8","","71","","27","","11","","25.0","","99.97","","","","","","Mostly Cloudy"
"1991-09-05 23:00","1991","09","05","23:00","17.0","","13.1","","78","","26","","4","","25.0","","99.97","","","","","","Mostly Cloudy"
"1991-09-06 00:00","1991","09","06","00:00","16.3","","13.6","","84","","28","","4","","25.0","","100.01","","","","","","Mostly Cloudy"
"1991-09-06 01:00","1991","09","06","01:00","16.0","","12.7","","81","","26","","4","","25.0","","100.01","","","","","","Mainly Clear"
"1991-09-06 02:00","1991","09","06","02:00","15.0","","12.3","","84","","32","","7","","25.0","","99.97","","","","","","Mostly Cloudy"
"1991-09-06 03:00","1991","09","06","03:00","15.0","","12.3","","84","","34","","7","","25.0","","100.01","","","","","","Mostly Cloudy"
"1991-09-06 04:00","1991","09","06","04:00","15.0","","11.3","","78","","35","","7","","25.0","","100.01","","","","","","Mostly Cloudy"
"1991-09-06 05:00","1991","09","06","05:00","14.0","","10.9","","82","","34","","7","","25.0","","100.07","","","","","","Mainly Clear"
"1991-09-06 06:00","1991","09","06","06:00","13.0","","10.6","","85","","34","","7","","32.2","","100.14","","","","","","Mainly Clear"
"1991-09-06 07:00","1991","09","06","07:00","14.6","","11.4","","81","","36","","6","","32.2","","100.21","","","","","","Mainly Clear"
"1991-09-06 08:00","1991","09","06","08:00","17.8","","12.0","","69","","33","","4","","32.2","","100.21","","","","","","Mainly Clear"
"1991-09-06 09:00","1991","09","06","09:00","20.6","","12.4","","59","","","","0","","32.2","","100.27","","","","","","Clear"
"1991-09-06 10:00","1991","09","06","10:00","23.4","","13.0","","52","","18","","4","","32.2","","100.27","","26","","","","Clear"
"1991-09-06 11:00","1991","09","06","11:00","24.6","","11.5","","44","","21","","6","","32.2","","100.24","","27","","","","Mainly Clear"
"1991-09-06 12:00","1991","09","06","12:00","24.5","","12.3","","47","","16","","19","","32.2","","100.21","","27","","","","Mainly Clear"
"1991-09-06 13:00","1991","09","06","13:00","24.7","","11.9","","45","","16","","19","","32.2","","100.21","","27","","","","Mainly Clear"
"1991-09-06 14:00","1991","09","06","14:00","25.5","","11.6","","42","","14","","19","","32.2","","100.17","","28","","","","Mainly Clear"
"1991-09-06 15:00","1991","09","06","15:00","24.5","","10.7","","42","","14","","15","","32.2","","100.14","","26","","","","Mostly Cloudy"
"1991-09-06 16:00","1991","09","06","16:00","25.0","","10.9","","41","","16","","11","","32.2","","100.11","","27","","","","Mostly Cloudy"
"1991-09-06 17:00","1991","09","06","17:00","24.7","","10.7","","41","","23","","11","","32.2","","100.11","","26","","","","Mainly Clear"
"1991-09-06 18:00","1991","09","06","18:00","24.0","","13.2","","51","","30","","11","","32.2","","100.11","","27","","","","Mainly Clear"
"1991-09-06 19:00","1991","09","06","19:00","22.1","","11.5","","51","","16","","6","","25.0","","100.14","","","","","","Mainly Clear"
"1991-09-06 20:00","1991","09","06","20:00","21.6","","12.4","","56","","1","","19","","25.0","","100.24","","","","","","Mainly Clear"
"1991-09-06 21:00","1991","09","06","21:00","20.0","","12.5","","62","","36","","15","","25.0","","100.27","","","","","","Clear"
"1991-09-06 22:00","1991","09","06","22:00","18.4","","13.0","","71","","6","","11","","25.0","","100.27","","","","","","Clear"
"1991-09-06 23:00","1991","09","06","23:00","15.3","","12.9","","86","","33","","11","","25.0","","100.31","","","","","","Clear"
"1991-09-07 00:00","1991","09","07","00:00","14.9","","12.0","","83","","30","","7","","25.0","","100.31","","","","","","Clear"
"1991-09-07 01:00","1991","09","07","01:00","14.9","","12.0","","83","","33","","9","","25.0","","100.34","","","","","","Mainly Clear"
"1991-09-07 02:00","1991","09","07","02:00","14.8","","12.3","","85","","34","","9","","25.0","","100.34","","","","","","Mainly Clear"
"1991-09-07 03:00","1991","09","07","03:00","14.8","","12.7","","88","","35","","6","","25.0","","100.37","","","","","","Mostly Cloudy"
"1991-09-07 04:00","1991","09","07","04:00","16.2","","12.7","","80","","","","0","","25.0","","100.37","","","","","","Mostly Cloudy"
"1991-09-07 05:00","1991","09","07","05:00","15.7","","12.5","","81","","2","","4","","25.0","","100.37","","","","","","Mainly Clear"
"1991-09-07 06:00","1991","09","07","06:00","14.1","","11.3","","83","","34","","6","","24.1","","100.41","","","","","","Mainly Clear"
"1991-09-07 07:00","1991","09","07","07:00","15.5","","11.8","","79","","","","0","","32.2","","100.41","","","","","","Mainly Clear"
"1991-09-07 08:00","1991","09","07","08:00","18.1","","13.1","","73","","","","0","","32.2","","100.47","","","","","","Mainly Clear"
"1991-09-07 09:00","1991","09","07","09:00","22.5","","11.7","","51","","21","","7","","32.2","","100.47","","25","","","","Cloudy"
"1991-09-07 10:00","1991","09","07","10:00","24.1","","12.8","","49","","22","","15","","32.2","","100.44","","27","","","","Cloudy"
"1991-09-07 11:00","1991","09","07","11:00","25.4","","12.8","","46","","24","","20","","32.2","","100.44","","28","","","","Cloudy"
"1991-09-07 12:00","1991","09","07","12:00","25.2","","11.8","","43","","24","","15","","32.2","","100.41","","27","","","","Cloudy"
"1991-09-07 13:00","1991","09","07","13:00","26.1","","13.9","","47","","26","","19","","32.2","","100.37","","29","","","","Mostly Cloudy"
"1991-09-07 14:00","1991","09","07","14:00","25.9","","13.9","","48","","26","","19","","32.2","","100.31","","29","","","","Cloudy"
"1991-09-07 15:00","1991","09","07","15:00","26.9","","13.6","","44","","26","","15","","32.2","","100.24","","30","","","","Cloudy"
"1991-09-07 16:00","1991","09","07","16:00","26.9","","13.6","","44","","24","","15","","32.2","","100.17","","30","","","","Mostly Cloudy"
"1991-09-07 17:00","1991","09","07","17:00","25.5","","14.0","","49","","23","","19","","32.2","","100.17","","29","","","","Cloudy"
"1991-09-07 18:00","1991","09","07","18:00","24.6","","12.3","","46","","25","","13","","24.1","","100.17","","27","","","","Cloudy"
"1991-09-07 19:00","1991","09","07","19:00","23.6","","14.5","","57","","24","","13","","24.1","","100.17","","27","","","","Cloudy"
"1991-09-07 20:00","1991","09","07","20:00","22.7","","14.4","","59","","24","","19","","25.0","","100.21","","26","","","","Cloudy"
"1991-09-07 21:00","1991","09","07","21:00","21.7","","14.3","","63","","27","","11","","25.0","","100.27","","25","","","","Cloudy"
"1991-09-07 22:00","1991","09","07","22:00","20.2","","15.3","","73","","27","","7","","25.0","","100.24","","","","","","Mostly Cloudy"
"1991-09-07 23:00","1991","09","07","23:00","19.6","","16.1","","80","","29","","6","","25.0","","100.24","","","","","","Mostly Cloudy"
"1991-09-08 00:00","1991","09","08","00:00","19.6","","16.4","","82","","33","","4","","25.0","","100.24","","","","","","Cloudy"
"1991-09-08 01:00","1991","09","08","01:00","19.5","","16.1","","81","","","","0","","25.0","","100.21","","","","","","Cloudy"
"1991-09-08 02:00","1991","09","08","02:00","19.0","","16.6","","86","","","","0","","25.0","","100.24","","","","","","Cloudy"
"1991-09-08 03:00","1991","09","08","03:00","18.5","","15.7","","84","","33","","4","","25.0","","100.27","","","","","","Mostly Cloudy"
"1991-09-08 04:00","1991","09","08","04:00","18.2","","15.2","","83","","33","","6","","25.0","","100.27","","","","","","Mostly Cloudy"
"1991-09-08 05:00","1991","09","08","05:00","18.4","","15.4","","83","","","","0","","25.0","","100.27","","","","","","Mostly Cloudy"
"1991-09-08 06:00","1991","09","08","06:00","18.8","","15.6","","82","","","","0","","19.3","","100.34","","","","","","Mainly Clear"
"1991-09-08 07:00","1991","09","08","07:00","17.5","","15.9","","90","","35","","4","","11.3","","100.37","","","","","","Clear"
"1991-09-08 08:00","1991","09","08","08:00","20.1","","16.0","","77","","36","","4","","16.1","","100.37","","25","","","","Mainly Clear"
"1991-09-08 09:00","1991","09","08","09:00","22.8","","16.3","","67","","","","0","","16.1","","100.41","","28","","","","Mainly Clear"
"1991-09-08 10:00","1991","09","08","10:00","24.6","","16.0","","59","","9","","4","","16.1","","100.41","","29","","","","Mostly Cloudy"
"1991-09-08 11:00","1991","09","08","11:00","24.7","","16.0","","58","","15","","11","","19.3","","100.34","","29","","","","Mostly Cloudy"
"1991-09-08 12:00","1991","09","08","12:00","24.9","","15.9","","57","","15","","11","","19.3","","100.31","","29","","","","Mostly Cloudy"
"1991-09-08 13:00","1991","09","08","13:00","25.7","","15.8","","54","","15","","11","","19.3","","100.31","","30","","","","Mostly Cloudy"
"1991-09-08 14:00","1991","09","08","14:00","26.0","","15.7","","53","","15","","11","","19.3","","100.27","","30","","","","Mostly Cloudy"
"1991-09-08 15:00","1991","09","08","15:00","26.1","","15.7","","53","","16","","11","","19.3","","100.27","","31","","","","Mostly Cloudy"
"1991-09-08 16:00","1991","09","08","16:00","26.0","","16.1","","55","","16","","11","","19.3","","100.24","","31","","","","Mostly Cloudy"
"1991-09-08 17:00","1991","09","08","17:00","25.6","","15.8","","55","","14","","11","","19.3","","100.27","","30","","","","Mainly Clear"
"1991-09-08 18:00","1991","09","08","18:00","24.4","","15.3","","57","","14","","11","","19.3","","100.27","","29","","","","Mainly Clear"
"1991-09-08 19:00","1991","09","08","19:00","22.8","","15.3","","63","","12","","11","","24.1","","100.27","","27","","","","Mainly Clear"
"1991-09-08 20:00","1991","09","08","20:00","22.1","","14.8","","63","","13","","9","","24.1","","100.31","","26","","","","Mostly Cloudy"
"1991-09-08 21:00","1991","09","08","21:00","21.6","","15.7","","69","","13","","9","","24.1","","100.31","","26","","","","Mainly Clear"
"1991-09-08 22:00","1991","09","08","22:00","21.2","","16.1","","73","","","","0","","24.1","","100.34","","26","","","","Mainly Clear"
"1991-09-08 23:00","1991","09","08","23:00","20.0","","16.3","","79","","","","0","","24.1","","100.31","","25","","","","Mainly Clear"
"1991-09-09 00:00","1991","09","09","00:00","20.7","","15.9","","74","","8","","4","","19.3","","100.31","","25","","","","Mainly Clear"
"1991-09-09 01:00","1991","09","09","01:00","20.2","","15.7","","75","","7","","4","","19.3","","100.27","","25","","","","Mostly Cloudy"
"1991-09-09 02:00","1991","09","09","02:00","16.6","","14.6","","88","","36","","6","","16.1","","100.27","","","","","","Mostly Cloudy"
"1991-09-09 03:00","1991","09","09","03:00","16.6","","15.6","","94","","4","","6","","9.7","","100.24","","","","","","Fog"
"1991-09-09 04:00","1991","09","09","04:00","17.8","","16.5","","92","","4","","6","","9.7","","100.21","","","","","","Fog"
"1991-09-09 05:00","1991","09","09","05:00","15.4","","14.9","","97","","33","","7","","9.7","","100.21","","","","","","Fog"
"1991-09-09 06:00","1991","09","09","06:00","16.4","","15.4","","94","","36","","6","","6.4","","100.24","","","","","","Fog"
"1991-09-09 07:00","1991","09","09","07:00","17.8","","17.1","","96","","","","0","","6.4","","100.24","","","","","","Fog"
"1991-09-09 08:00","1991","09","09","08:00","20.8","","18.9","","89","","11","","6","","8.0","","100.21","","27","","","","Fog"
"1991-09-09 09:00","1991","09","09","09:00","21.9","","18.5","","81","","12","","9","","6.4","","100.21","","28","","","","Haze"
"1991-09-09 10:00","1991","09","09","10:00","22.5","","17.4","","73","","14","","11","","8.0","","100.21","","28","","","","Haze"
"1991-09-09 11:00","1991","09","09","11:00","24.0","","17.5","","67","","16","","7","","8.0","","100.14","","30","","","","Haze"
"1991-09-09 12:00","1991","09","09","12:00","25.0","","17.6","","64","","14","","11","","8.0","","100.07","","31","","","","Haze"
"1991-09-09 13:00","1991","09","09","13:00","26.4","","17.3","","57","","17","","15","","9.7","","99.97","","32","","","","Haze"
"1991-09-09 14:00","1991","09","09","14:00","25.8","","18.1","","63","","15","","19","","9.7","","99.91","","32","","","","Haze"
"1991-09-09 15:00","1991","09","09","15:00","25.0","","17.9","","65","","15","","19","","9.7","","99.87","","31","","","","Haze"
"1991-09-09 16:00","1991","09","09","16:00","24.1","","17.8","","68","","16","","15","","9.7","","99.87","","30","","","","Haze"
"1991-09-09 17:00","1991","09","09","17:00","23.6","","18.2","","72","","14","","11","","11.3","","99.77","","30","","","","Cloudy"
"1991-09-09 18:00","1991","09","09","18:00","24.1","","18.1","","69","","17","","11","","9.7","","99.71","","30","","","","Haze"
"1991-09-09 19:00","1991","09","09","19:00","22.5","","17.7","","74","","15","","11","","9.7","","99.64","","28","","","","Haze"
"1991-09-09 20:00","1991","09","09","20:00","22.9","","18.0","","74","","15","","9","","11.3","","99.64","","29","","","","Mostly Cloudy"
"1991-09-09 21:00","1991","09","09","21:00","23.0","","18.0","","73","","17","","9","","12.9","","99.57","","29","","","","Mostly Cloudy"
"1991-09-09 22:00","1991","09","09","22:00","22.6","","16.8","","70","","16","","9","","12.9","","99.51","","28","","","","Clear"
"1991-09-09 23:00","1991","09","09","23:00","21.9","","15.9","","69","","19","","11","","12.9","","99.47","","26","","","","Clear"
"1991-09-10 00:00","1991","09","10","00:00","21.5","","16.7","","74","","20","","7","","11.3","","99.44","","27","","","","Mainly Clear"
"1991-09-10 01:00","1991","09","10","01:00","21.6","","18.6","","83","","23","","15","","9.7","","99.41","","28","","","","Haze"
"1991-09-10 02:00","1991","09","10","02:00","22.1","","19.7","","86","","22","","17","","9.7","","99.31","","29","","","","Haze"
"1991-09-10 03:00","1991","09","10","03:00","21.9","","20.0","","89","","19","","15","","8.0","","99.31","","29","","","","Fog"
"1991-09-10 04:00","1991","09","10","04:00","22.0","","20.6","","92","","24","","11","","6.4","","99.27","","30","","","","Rain Showers,Fog"
"1991-09-10 05:00","1991","09","10","05:00","21.6","","20.6","","94","","","","0","","6.4","","99.24","","30","","","","Fog"
"1991-09-10 06:00","1991","09","10","06:00","22.1","","20.6","","91","","21","","4","","3.2","","99.24","","30","","","","Fog"
"1991-09-10 07:00","1991","09","10","07:00","22.3","","21.1","","93","","","","0","","4.0","","99.17","","31","","","","Fog"
"1991-09-10 08:00","1991","09","10","08:00","22.7","","20.8","","89","","22","","19","","4.0","","99.21","","31","","","","Fog"
"1991-09-10 09:00","1991","09","10","09:00","23.4","","20.4","","83","","23","","22","","8.0","","99.21","","31","","","","Haze"
"1991-09-10 10:00","1991","09","10","10:00","24.0","","19.1","","74","","26","","15","","16.1","","99.24","","31","","","","Cloudy"
"1991-09-10 11:00","1991","09","10","11:00","24.5","","18.3","","68","","28","","26","","24.1","","99.24","","31","","","","Cloudy"
"1991-09-10 12:00","1991","09","10","12:00","24.5","","18.7","","70","","28","","26","","32.2","","99.24","","31","","","","Mostly Cloudy"
"1991-09-10 13:00","1991","09","10","13:00","27.0","","19.2","","63","","26","","22","","32.2","","99.14","","34","","","","Mainly Clear"
"1991-09-10 14:00","1991","09","10","14:00","26.0","","17.1","","58","","28","","26","","32.2","","99.11","","31","","","","Mostly Cloudy"
"1991-09-10 15:00","1991","09","10","15:00","25.6","","19.1","","67","","30","","22","","32.2","","99.14","","32","","","","Mostly Cloudy"
"1991-09-10 16:00","1991","09","10","16:00","24.5","","17.7","","66","","31","","30","","32.2","","99.14","","30","","","","Mainly Clear"
"1991-09-10 17:00","1991","09","10","17:00","23.0","","16.0","","65","","32","","37","","32.2","","99.17","","28","","","","Mainly Clear"
"1991-09-10 18:00","1991","09","10","18:00","21.5","","15.7","","70","","31","","39","","32.2","","99.24","","26","","","","Mostly Cloudy"
"1991-09-10 19:00","1991","09","10","19:00","19.2","","14.9","","76","","31","","26","","25.0","","99.31","","","","","","Mainly Clear"
"1991-09-10 20:00","1991","09","10","20:00","18.9","","14.9","","78","","32","","26","","25.0","","99.37","","","","","","Mostly Cloudy"
"1991-09-10 21:00","1991","09","10","21:00","18.9","","14.9","","78","","31","","26","","25.0","","99.41","","","","","","Mostly Cloudy"
"1991-09-10 22:00","1991","09","10","22:00","17.7","","14.3","","80","","31","","24","","25.0","","99.44","","","","","","Mainly Clear"
"1991-09-10 23:00","1991","09","10","23:00","17.5","","14.3","","81","","32","","19","","25.0","","99.47","","","","","","Mainly Clear"
"1991-09-11 00:00","1991","09","11","00:00","16.9","","13.8","","82","","32","","19","","25.0","","99.47","","","","","","Mainly Clear"
"1991-09-11 01:00","1991","09","11","01:00","16.4","","13.9","","85","","33","","19","","25.0","","99.51","","","","","","Clear"
"1991-09-11 02:00","1991","09","11","02:00","16.0","","13.4","","85","","36","","17","","25.0","","99.61","","","","","","Mainly Clear"
"1991-09-11 03:00","1991","09","11","03:00","15.7","","12.2","","80","","36","","17","","25.0","","99.71","","","","","","Mostly Cloudy"
"1991-09-11 04:00","1991","09","11","04:00","14.6","","10.7","","78","","36","","19","","25.0","","99.77","","","","","","Mainly Clear"
"1991-09-11 05:00","1991","09","11","05:00","13.1","","10.2","","83","","35","","13","","25.0","","99.77","","","","","","Clear"
"1991-09-11 06:00","1991","09","11","06:00","12.1","","9.5","","84","","35","","13","","40.2","","99.91","","","","","","Mostly Cloudy"
"1991-09-11 07:00","1991","09","11","07:00","12.0","","8.7","","80","","35","","19","","40.2","","99.97","","","","","","Mostly Cloudy"
"1991-09-11 08:00","1991","09","11","08:00","13.3","","8.0","","70","","36","","15","","40.2","","100.01","","","","","","Mainly Clear"
"1991-09-11 09:00","1991","09","11","09:00","15.3","","7.5","","60","","4","","15","","40.2","","100.01","","","","","","Mainly Clear"
"1991-09-11 10:00","1991","09","11","10:00","16.2","","6.3","","52","","34","","13","","40.2","","99.97","","","","","","Mostly Cloudy"
"1991-09-11 11:00","1991","09","11","11:00","17.4","","7.8","","53","","34","","19","","40.2","","99.97","","","","","","Mostly Cloudy"
"1991-09-11 12:00","1991","09","11","12:00","18.0","","6.7","","48","","36","","20","","40.2","","99.94","","","","","","Mostly Cloudy"
"1991-09-11 13:00","1991","09","11","13:00","18.8","","6.2","","44","","34","","17","","40.2","","99.87","","","","","","Mostly Cloudy"
"1991-09-11 14:00","1991","09","11","14:00","19.0","","6.2","","43","","33","","11","","40.2","","99.87","","","","","","Mostly Cloudy"
"1991-09-11 15:00","1991","09","11","15:00","19.0","","6.2","","43","","34","","13","","40.2","","99.87","","","","","","Mostly Cloudy"
"1991-09-11 16:00","1991","09","11","16:00","19.2","","6.2","","43","","35","","22","","40.2","","99.87","","","","","","Mostly Cloudy"
"1991-09-11 17:00","1991","09","11","17:00","17.5","","7.4","","51","","36","","19","","40.2","","99.84","","","","","","Mostly Cloudy"
"1991-09-11 18:00","1991","09","11","18:00","15.7","","6.6","","55","","1","","19","","40.2","","99.87","","","","","","Cloudy"
"1991-09-11 19:00","1991","09","11","19:00","14.8","","6.4","","57","","36","","19","","25.0","","99.87","","","","","","Cloudy"
"1991-09-11 20:00","1991","09","11","20:00","13.8","","6.9","","63","","36","","24","","25.0","","99.91","","","","","","Mostly Cloudy"
"1991-09-11 21:00","1991","09","11","21:00","13.2","","5.7","","60","","35","","17","","25.0","","99.91","","","","","","Mostly Cloudy"
"1991-09-11 22:00","1991","09","11","22:00","11.9","","6.7","","71","","34","","11","","25.0","","99.91","","","","","","Cloudy"
"1991-09-11 23:00","1991","09","11","23:00","10.9","","6.8","","76","","34","","11","","25.0","","99.91","","","","","","Mostly Cloudy"
"1991-09-12 00:00","1991","09","12","00:00","10.9","","6.8","","76","","35","","11","","25.0","","99.87","","","","","","Mostly Cloudy"
"1991-09-12 01:00","1991","09","12","01:00","9.5","","6.8","","83","","35","","9","","25.0","","99.91","","","","","","Mostly Cloudy"
"1991-09-12 02:00","1991","09","12","02:00","8.5","","6.1","","85","","35","","11","","25.0","","99.94","","","","","","Mainly Clear"
"1991-09-12 03:00","1991","09","12","03:00","9.1","","6.7","","85","","35","","13","","25.0","","99.94","","","","","","Clear"
"1991-09-12 04:00","1991","09","12","04:00","9.1","","6.3","","82","","36","","13","","25.0","","99.94","","","","","","Clear"
"1991-09-12 05:00","1991","09","12","05:00","7.3","","5.9","","91","","34","","9","","25.0","","99.94","","","","","","Clear"
"1991-09-12 06:00","1991","09","12","06:00","7.4","","5.5","","88","","34","","9","","32.2","","99.94","","","","","","Clear"
"1991-09-12 07:00","1991","09","12","07:00","9.3","","6.4","","82","","34","","6","","40.2","","99.97","","","","","","Clear"
"1991-09-12 08:00","1991","09","12","08:00","12.8","","6.2","","64","","1","","4","","40.2","","99.97","","","","","","Clear"
"1991-09-12 09:00","1991","09","12","09:00","16.0","","8.1","","59","","","","0","","40.2","","100.01","","","","","","Mainly Clear"
"1991-09-12 10:00","1991","09","12","10:00","17.1","","7.6","","54","","","","0","","40.2","","100.01","","","","","","Mainly Clear"
"1991-09-12 11:00","1991","09","12","11:00","18.7","","6.4","","45","","19","","6","","40.2","","99.97","","","","","","Clear"
"1991-09-12 12:00","1991","09","12","12:00","19.4","","5.9","","41","","","","0","","40.2","","99.94","","","","","","Clear"
"1991-09-12 13:00","1991","09","12","13:00","21.2","","4.6","","34","","25","","6","","40.2","","99.91","","","","","","Mainly Clear"
"1991-09-12 14:00","1991","09","12","14:00","19.8","","8.5","","48","","14","","19","","40.2","","99.84","","","","","","Clear"
"1991-09-12 15:00","1991","09","12","15:00","20.2","","9.3","","49","","14","","17","","40.2","","99.77","","","","","","Mainly Clear"
"1991-09-12 16:00","1991","09","12","16:00","20.0","","8.9","","49","","13","","15","","40.2","","99.74","","","","","","Mainly Clear"
"1991-09-12 17:00","1991","09","12","17:00","20.0","","8.9","","49","","15","","15","","40.2","","99.71","","","","","","Mainly Clear"
"1991-09-12 18:00","1991","09","12","18:00","19.1","","8.9","","52","","13","","11","","40.2","","99.74","","","","","","Clear"
"1991-09-12 19:00","1991","09","12","19:00","17.5","","8.7","","56","","12","","13","","25.0","","99.71","","","","","","Mainly Clear"
"1991-09-12 20:00","1991","09","12","20:00","17.3","","8.3","","55","","12","","9","","25.0","","99.77","","","","","","Clear"
"1991-09-12 21:00","1991","09","12","21:00","16.5","","7.4","","55","","11","","7","","25.0","","99.77","","","","","","Mainly Clear"
"1991-09-12 22:00","1991","09","12","22:00","16.6","","7.9","","56","","","","0","","25.0","","99.81","","","","","","Mainly Clear"
"1991-09-12 23:00","1991","09","12","23:00","15.5","","8.7","","64","","","","0","","25.0","","99.77","","","","","","Mainly Clear"
"1991-09-13 00:00","1991","09","13","00:00","12.4","","9.3","","81","","","","0","","25.0","","99.77","","","","","","Mainly Clear"
"1991-09-13 01:00","1991","09","13","01:00","11.5","","9.0","","85","","35","","6","","25.0","","99.74","","","","","","Mainly Clear"
"1991-09-13 02:00","1991","09","13","02:00","11.2","","7.6","","78","","","","0","","24.1","","99.71","","","","","","Mainly Clear"
"1991-09-13 03:00","1991","09","13","03:00","10.8","","8.4","","85","","33","","6","","24.1","","99.67","","","","","","Mainly Clear"
"1991-09-13 04:00","1991","09","13","04:00","10.2","","7.7","","84","","34","","4","","24.1","","99.64","","","","","","Mainly Clear"
"1991-09-13 05:00","1991","09","13","05:00","9.6","","7.2","","85","","33","","7","","24.1","","99.71","","","","","","Clear"
"1991-09-13 06:00","1991","09","13","06:00","9.4","","7.6","","89","","33","","6","","24.1","","99.67","","","","","","Mostly Cloudy"
"1991-09-13 07:00","1991","09","13","07:00","12.4","","10.0","","85","","33","","4","","24.1","","99.71","","","","","","Mostly Cloudy"
"1991-09-13 08:00","1991","09","13","08:00","14.1","","11.3","","83","","","","0","","19.3","","99.71","","","","","","Mostly Cloudy"
"1991-09-13 09:00","1991","09","13","09:00","17.0","","12.0","","72","","","","0","","16.1","","99.71","","","","","","Cloudy"
"1991-09-13 10:00","1991","09","13","10:00","19.0","","10.5","","58","","17","","4","","19.3","","99.71","","","","","","Cloudy"
"1991-09-13 11:00","1991","09","13","11:00","20.3","","10.4","","53","","13","","9","","24.1","","99.64","","","","","","Mostly Cloudy"
"1991-09-13 12:00","1991","09","13","12:00","21.6","","8.3","","42","","17","","13","","32.2","","99.64","","","","","","Mostly Cloudy"
"1991-09-13 13:00","1991","09","13","13:00","21.3","","8.7","","45","","15","","11","","40.2","","99.57","","","","","","Mostly Cloudy"
"1991-09-13 14:00","1991","09","13","14:00","22.2","","9.0","","43","","14","","15","","40.2","","99.51","","","","","","Mostly Cloudy"
"1991-09-13 15:00","1991","09","13","15:00","21.2","","8.9","","45","","15","","11","","40.2","","99.47","","","","","","Mostly Cloudy"
"1991-09-13 16:00","1991","09","13","16:00","20.2","","8.5","","47","","13","","13","","40.2","","99.47","","","","","","Mostly Cloudy"
"1991-09-13 17:00","1991","09","13","17:00","20.0","","8.5","","48","","13","","11","","40.2","","99.44","","","","","","Mostly Cloudy"
"1991-09-13 18:00","1991","09","13","18:00","19.8","","9.8","","53","","13","","7","","40.2","","99.44","","","","","","Mostly Cloudy"
"1991-09-13 19:00","1991","09","13","19:00","19.3","","10.0","","55","","14","","7","","25.0","","99.41","","","","","","Mostly Cloudy"
"1991-09-13 20:00","1991","09","13","20:00","19.0","","11.7","","63","","15","","7","","25.0","","99.47","","","","","","Mostly Cloudy"
"1991-09-13 21:00","1991","09","13","21:00","18.9","","12.5","","66","","19","","4","","25.0","","99.41","","","","","","Mostly Cloudy"
"1991-09-13 22:00","1991","09","13","22:00","18.2","","12.0","","67","","","","0","","25.0","","99.47","","","","","","Mostly Cloudy"
"1991-09-13 23:00","1991","09","13","23:00","18.0","","13.5","","75","","","","0","","25.0","","99.47","","","","","","Mostly Cloudy"
"1991-09-14 00:00","1991","09","14","00:00","18.4","","13.3","","72","","","","0","","25.0","","99.47","","","","","","Cloudy"
"1991-09-14 01:00","1991","09","14","01:00","17.8","","13.8","","77","","","","0","","25.0","","99.51","","","","","","Cloudy"
"1991-09-14 02:00","1991","09","14","02:00","17.8","","13.8","","77","","","","0","","25.0","","99.47","","","","","","Cloudy"
"1991-09-14 03:00","1991","09","14","03:00","16.8","","13.1","","79","","","","0","","25.0","","99.51","","","","","","Mainly Clear"
"1991-09-14 04:00","1991","09","14","04:00","15.0","","11.3","","78","","3","","7","","25.0","","99.51","","","","","","Mainly Clear"
"1991-09-14 05:00","1991","09","14","05:00","14.0","","12.0","","88","","","","0","","25.0","","99.57","","","","","","Mostly Cloudy"
"1991-09-14 06:00","1991","09","14","06:00","12.7","","11.8","","94","","34","","7","","24.1","","99.61","","","","","","Clear"
"1991-09-14 07:00","1991","09","14","07:00","14.9","","12.7","","87","","36","","7","","19.3","","99.64","","","","","","Mainly Clear"
"1991-09-14 08:00","1991","09","14","08:00","17.7","","12.9","","73","","2","","6","","24.1","","99.67","","","","","","Mostly Cloudy"
"1991-09-14 09:00","1991","09","14","09:00","20.5","","14.2","","67","","","","0","","32.2","","99.71","","","","","","Mostly Cloudy"
"1991-09-14 10:00","1991","09","14","10:00","22.0","","13.0","","57","","","","0","","32.2","","99.71","","25","","","","Mostly Cloudy"
"1991-09-14 11:00","1991","09","14","11:00","23.2","","14.2","","57","","11","","13","","32.2","","99.74","","27","","","","Mostly Cloudy"
"1991-09-14 12:00","1991","09","14","12:00","23.3","","14.1","","56","","13","","11","","32.2","","99.71","","27","","","","Mostly Cloudy"
"1991-09-14 13:00","1991","09","14","13:00","22.9","","13.1","","54","","13","","17","","40.2","","99.71","","26","","","","Mostly Cloudy"
"1991-09-14 14:00","1991","09","14","14:00","22.8","","12.4","","52","","13","","15","","40.2","","99.74","","25","","","","Cloudy"
"1991-09-14 15:00","1991","09","14","15:00","22.7","","12.9","","54","","12","","15","","32.2","","99.64","","25","","","","Cloudy"
"1991-09-14 16:00","1991","09","14","16:00","21.8","","14.1","","62","","14","","15","","32.2","","99.64","","25","","","","Cloudy"
"1991-09-14 17:00","1991","09","14","17:00","21.2","","13.0","","59","","13","","11","","32.2","","99.64","","","","","","Cloudy"
"1991-09-14 18:00","1991","09","14","18:00","20.2","","13.6","","66","","14","","11","","32.2","","99.61","","","","","","Cloudy"
"1991-09-14 19:00","1991","09","14","19:00","19.9","","13.6","","67","","12","","11","","25.0","","99.61","","","","","","Cloudy"
"1991-09-14 20:00","1991","09","14","20:00","19.8","","14.0","","69","","13","","11","","25.0","","99.64","","","","","","Cloudy"
"1991-09-14 21:00","1991","09","14","21:00","19.4","","15.5","","78","","12","","13","","24.1","","99.64","","","","","","Rain Showers"
"1991-09-14 22:00","1991","09","14","22:00","19.6","","14.8","","74","","12","","11","","25.0","","99.64","","","","","","Cloudy"
"1991-09-14 23:00","1991","09","14","23:00","19.8","","15.3","","75","","12","","13","","25.0","","99.61","","","","","","Mostly Cloudy"
"1991-09-15 00:00","1991","09","15","00:00","19.6","","15.1","","75","","10","","15","","24.1","","99.57","","","","","","Rain Showers"
"1991-09-15 01:00","1991","09","15","01:00","19.0","","15.9","","82","","12","","15","","19.3","","99.54","","","","","","Rain Showers"
"1991-09-15 02:00","1991","09","15","02:00","18.5","","16.3","","87","","12","","15","","24.1","","99.44","","","","","","Mostly Cloudy"
"1991-09-15 03:00","1991","09","15","03:00","18.8","","16.9","","89","","13","","11","","24.1","","99.34","","","","","","Cloudy"
"1991-09-15 04:00","1991","09","15","04:00","18.3","","17.3","","94","","12","","7","","8.0","","99.31","","","","","","Rain Showers,Fog"
"1991-09-15 05:00","1991","09","15","05:00","18.0","","17.1","","95","","15","","7","","4.8","","99.27","","","","","","Rain Showers,Fog"
"1991-09-15 06:00","1991","09","15","06:00","18.0","","17.4","","96","","18","","6","","4.0","","99.21","","","","","","Fog"
"1991-09-15 07:00","1991","09","15","07:00","18.3","","17.9","","98","","","","0","","4.0","","99.21","","","","","","Fog"
"1991-09-15 08:00","1991","09","15","08:00","19.3","","18.3","","94","","","","0","","4.8","","99.21","","","","","","Fog"
"1991-09-15 09:00","1991","09","15","09:00","20.8","","18.9","","89","","18","","4","","6.4","","99.21","","27","","","","Fog"
"1991-09-15 10:00","1991","09","15","10:00","24.0","","20.9","","83","","18","","7","","8.0","","99.17","","32","","","","Haze"
"1991-09-15 11:00","1991","09","15","11:00","27.9","","21.3","","67","","27","","31","","12.9","","99.14","","37","","","","Mostly Cloudy"
"1991-09-15 12:00","1991","09","15","12:00","29.7","","19.5","","54","","27","","22","","24.1","","99.17","","37","","","","Mostly Cloudy"
"1991-09-15 13:00","1991","09","15","13:00","30.8","","19.7","","52","","27","","31","","40.2","","99.14","","38","","","","Mostly Cloudy"
"1991-09-15 14:00","1991","09","15","14:00","31.1","","20.3","","53","","28","","26","","40.2","","99.11","","39","","","","Mainly Clear"
"1991-09-15 15:00","1991","09","15","15:00","31.2","","19.3","","49","","27","","28","","40.2","","99.04","","38","","","","Mainly Clear"
"1991-09-15 16:00","1991","09","15","16:00","31.4","","18.9","","48","","29","","19","","32.2","","99.07","","38","","","","Mostly Cloudy"
"1991-09-15 17:00","1991","09","15","17:00","30.2","","19.1","","52","","28","","13","","24.1","","99.07","","37","","","","Mostly Cloudy"
"1991-09-15 18:00","1991","09","15","18:00","27.0","","19.9","","65","","28","","4","","24.1","","99.11","","34","","","","Mostly Cloudy"
"1991-09-15 19:00","1991","09","15","19:00","26.2","","21.2","","74","","","","0","","24.1","","99.14","","35","","","","Cloudy"
"1991-09-15 20:00","1991","09","15","20:00","23.8","","22.6","","93","","","","0","","9.7","","99.21","","34","","","","Fog"
"1991-09-15 21:00","1991","09","15","21:00","23.5","","22.1","","92","","","","0","","9.7","","99.21","","33","","","","Fog"
"1991-09-15 22:00","1991","09","15","22:00","23.0","","22.2","","95","","26","","4","","19.3","","99.21","","33","","","","Cloudy"
"1991-09-15 23:00","1991","09","15","23:00","23.6","","21.5","","88","","30","","11","","16.1","","99.24","","32","","","","Cloudy"
"1991-09-16 00:00","1991","09","16","00:00","22.6","","20.8","","89","","28","","7","","16.1","","99.24","","31","","","","Mostly Cloudy"
"1991-09-16 01:00","1991","09","16","01:00","22.5","","21.7","","95","","28","","11","","9.7","","99.27","","32","","","","Fog"
"1991-09-16 02:00","1991","09","16","02:00","22.9","","21.6","","93","","","","0","","12.9","","99.21","","32","","","","Mostly Cloudy"
"1991-09-16 03:00","1991","09","16","03:00","22.5","","21.7","","95","","24","","4","","6.4","","99.27","","32","","","","Fog"
"1991-09-16 04:00","1991","09","16","04:00","22.8","","21.6","","93","","19","","11","","6.4","","99.21","","32","","","","Fog"
"1991-09-16 05:00","1991","09","16","05:00","22.3","","21.7","","97","","19","","7","","6.4","","99.21","","31","","","","Fog"
"1991-09-16 06:00","1991","09","16","06:00","22.1","","20.9","","93","","","","0","","4.0","","99.24","","30","","","","Fog"
"1991-09-16 07:00","1991","09","16","07:00","22.5","","21.1","","92","","18","","4","","4.8","","99.21","","31","","","","Fog"
"1991-09-16 08:00","1991","09","16","08:00","23.2","","21.3","","89","","20","","7","","6.4","","99.21","","32","","","","Fog"
"1991-09-16 09:00","1991","09","16","09:00","25.3","","21.9","","82","","22","","13","","6.4","","99.14","","35","","","","Haze"
"1991-09-16 10:00","1991","09","16","10:00","28.2","","21.6","","67","","24","","26","","9.7","","99.14","","37","","","","Haze"
"1991-09-16 11:00","1991","09","16","11:00","29.8","","21.1","","60","","23","","30","","9.7","","99.07","","38","","","","Haze"
"1991-09-16 12:00","1991","09","16","12:00","30.6","","18.4","","48","","24","","37","","12.9","","99.01","","37","","","","Mainly Clear"
"1991-09-16 13:00","1991","09","16","13:00","31.2","","18.0","","45","","24","","30","","12.9","","98.97","","37","","","","Mainly Clear"
"1991-09-16 14:00","1991","09","16","14:00","30.5","","19.1","","51","","25","","35","","11.3","","98.91","","37","","","","Mainly Clear"
"1991-09-16 15:00","1991","09","16","15:00","23.7","","22.7","","94","","23","","19","","11.3","","98.87","","34","","","","Thunderstorms"
"1991-09-16 16:00","1991","09","16","16:00","28.5","","21.5","","66","","24","","31","","9.7","","98.84","","37","","","","Haze"
"1991-09-16 17:00","1991","09","16","17:00","28.6","","20.6","","62","","24","","30","","11.3","","98.84","","37","","","","Mostly Cloudy"
"1991-09-16 18:00","1991","09","16","18:00","28.0","","19.7","","61","","24","","19","","11.3","","98.87","","35","","","","Mostly Cloudy"
"1991-09-16 19:00","1991","09","16","19:00","27.0","","19.9","","65","","24","","19","","11.3","","98.87","","34","","","","Mostly Cloudy"
"1991-09-16 20:00","1991","09","16","20:00","25.7","","18.5","","64","","25","","13","","12.9","","98.91","","32","","","","Mainly Clear"
"1991-09-16 21:00","1991","09","16","21:00","24.6","","18.7","","70","","28","","20","","16.1","","98.94","","31","","","","Mostly Cloudy"
"1991-09-16 22:00","1991","09","16","22:00","23.2","","17.3","","69","","28","","24","","19.3","","98.94","","29","","","","Mostly Cloudy"
"1991-09-16 23:00","1991","09","16","23:00","21.8","","14.8","","64","","28","","22","","25.0","","99.01","","26","","","","Mostly Cloudy"
"1991-09-17 00:00","1991","09","17","00:00","19.8","","14.3","","71","","29","","20","","25.0","","99.04","","","","","","Mostly Cloudy"
"1991-09-17 01:00","1991","09","17","01:00","19.1","","12.5","","66","","27","","13","","25.0","","99.11","","","","","","Mostly Cloudy"
"1991-09-17 02:00","1991","09","17","02:00","17.5","","11.5","","68","","28","","11","","25.0","","99.11","","","","","","Mainly Clear"
"1991-09-17 03:00","1991","09","17","03:00","16.4","","11.8","","74","","25","","9","","25.0","","99.14","","","","","","Mainly Clear"
"1991-09-17 04:00","1991","09","17","04:00","16.2","","12.0","","76","","26","","9","","25.0","","99.14","","","","","","Mainly Clear"
"1991-09-17 05:00","1991","09","17","05:00","15.9","","12.3","","79","","27","","9","","25.0","","99.21","","","","","","Mainly Clear"
"1991-09-17 06:00","1991","09","17","06:00","14.9","","12.3","","84","","24","","4","","24.1","","99.31","","","","","","Mainly Clear"
"1991-09-17 07:00","1991","09","17","07:00","16.0","","12.3","","79","","25","","9","","40.2","","99.37","","","","","","Mainly Clear"
"1991-09-17 08:00","1991","09","17","08:00","17.4","","12.9","","75","","24","","11","","40.2","","99.41","","","","","","Mainly Clear"
"1991-09-17 09:00","1991","09","17","09:00","18.2","","12.8","","71","","27","","26","","40.2","","99.47","","","","","","Mainly Clear"
"1991-09-17 10:00","1991","09","17","10:00","19.8","","13.2","","66","","28","","22","","40.2","","99.51","","","","","","Mostly Cloudy"
"1991-09-17 11:00","1991","09","17","11:00","21.4","","12.0","","55","","27","","24","","40.2","","99.47","","","","","","Mostly Cloudy"
"1991-09-17 12:00","1991","09","17","12:00","21.1","","10.6","","51","","26","","22","","40.2","","99.47","","","","","","Mostly Cloudy"
"1991-09-17 13:00","1991","09","17","13:00","20.9","","11.0","","53","","28","","22","","40.2","","99.51","","","","","","Mostly Cloudy"
"1991-09-17 14:00","1991","09","17","14:00","21.1","","10.6","","51","","29","","24","","40.2","","99.54","","","","","","Mostly Cloudy"
"1991-09-17 15:00","1991","09","17","15:00","20.8","","9.8","","49","","29","","24","","40.2","","99.57","","","","","","Mostly Cloudy"
"1991-09-17 16:00","1991","09","17","16:00","21.0","","8.9","","46","","30","","24","","40.2","","99.61","","","","","","Mostly Cloudy"
"1991-09-17 17:00","1991","09","17","17:00","20.4","","9.6","","50","","30","","20","","40.2","","99.67","","","","","","Mostly Cloudy"
"1991-09-17 18:00","1991","09","17","18:00","18.3","","10.3","","60","","30","","13","","40.2","","99.71","","","","","","Mostly Cloudy"
"1991-09-17 19:00","1991","09","17","19:00","16.2","","9.7","","65","","30","","9","","25.0","","99.77","","","","","","Mostly Cloudy"
"1991-09-17 20:00","1991","09","17","20:00","15.2","","9.8","","70","","30","","7","","25.0","","99.77","","","","","","Mainly Clear"
"1991-09-17 21:00","1991","09","17","21:00","15.0","","9.4","","69","","","","0","","25.0","","99.77","","","","","","Mostly Cloudy"
"1991-09-17 22:00","1991","09","17","22:00","13.6","","9.6","","77","","35","","6","","25.0","","99.77","","","","","","Mostly Cloudy"
"1991-09-17 23:00","1991","09","17","23:00","13.2","","9.1","","76","","","","0","","25.0","","99.77","","","","","","Mostly Cloudy"
"1991-09-18 00:00","1991","09","18","00:00","12.4","","9.3","","81","","","","0","","25.0","","99.77","","","","","","Mostly Cloudy"
"1991-09-18 01:00","1991","09","18","01:00","13.2","","9.1","","76","","","","0","","25.0","","99.71","","","","","","Mostly Cloudy"
"1991-09-18 02:00","1991","09","18","02:00","12.7","","8.9","","78","","","","0","","25.0","","99.67","","","","","","Cloudy"
"1991-09-18 03:00","1991","09","18","03:00","11.7","","9.3","","85","","","","0","","25.0","","99.64","","","","","","Mostly Cloudy"
"1991-09-18 04:00","1991","09","18","04:00","14.1","","10.5","","79","","","","0","","25.0","","99.61","","","","","","Mostly Cloudy"
"1991-09-18 05:00","1991","09","18","05:00","15.3","","12.9","","86","","15","","15","","25.0","","99.61","","","","","","Mainly Clear"
"1991-09-18 06:00","1991","09","18","06:00","16.2","","12.7","","80","","16","","7","","25.0","","99.54","","","","","","Mostly Cloudy"
"1991-09-18 07:00","1991","09","18","07:00","16.6","","13.6","","82","","16","","7","","24.1","","99.51","","","","","","Mostly Cloudy"
"1991-09-18 08:00","1991","09","18","08:00","18.2","","14.5","","79","","17","","15","","24.1","","99.41","","","","","","Mainly Clear"
"1991-09-18 09:00","1991","09","18","09:00","19.5","","15.8","","79","","19","","19","","24.1","","99.34","","","","","","Mainly Clear"
"1991-09-18 10:00","1991","09","18","10:00","20.7","","11.6","","56","","21","","15","","32.2","","99.27","","","","","","Mostly Cloudy"
"1991-09-18 11:00","1991","09","18","11:00","21.0","","11.4","","54","","21","","15","","32.2","","99.17","","","","","","Cloudy"
"1991-09-18 12:00","1991","09","18","12:00","21.3","","12.0","","55","","22","","19","","32.2","","99.07","","","","","","Cloudy"
"1991-09-18 13:00","1991","09","18","13:00","22.3","","12.9","","55","","21","","22","","32.2","","98.97","","25","","","","Cloudy"
"1991-09-18 14:00","1991","09","18","14:00","21.9","","14.5","","63","","20","","19","","32.2","","98.91","","26","","","","Cloudy"
"1991-09-18 15:00","1991","09","18","15:00","22.9","","12.4","","52","","22","","28","","24.1","","98.91","","25","","","","Cloudy"
"1991-09-18 16:00","1991","09","18","16:00","22.4","","11.7","","51","","25","","19","","24.1","","98.91","","25","","","","Cloudy"
"1991-09-18 17:00","1991","09","18","17:00","20.3","","11.6","","58","","28","","30","","24.1","","98.97","","","","","","Cloudy"
"1991-09-18 18:00","1991","09","18","18:00","18.5","","12.6","","69","","28","","33","","24.1","","99.11","","","","","","Cloudy"
"1991-09-18 19:00","1991","09","18","19:00","16.8","","9.7","","63","","29","","31","","25.0","","99.21","","","","","","Mostly Cloudy"
"1991-09-18 20:00","1991","09","18","20:00","15.4","","5.2","","51","","29","","22","","25.0","","99.31","","","","","","Cloudy"
"1991-09-18 21:00","1991","09","18","21:00","14.7","","5.8","","55","","28","","15","","25.0","","99.34","","","","","","Cloudy"
"1991-09-18 22:00","1991","09","18","22:00","14.4","","7.1","","62","","27","","13","","25.0","","99.37","","","","","","Mostly Cloudy"
"1991-09-18 23:00","1991","09","18","23:00","14.0","","6.9","","62","","28","","15","","25.0","","99.41","","","","","","Mostly Cloudy"
"1991-09-19 00:00","1991","09","19","00:00","14.0","","5.1","","55","","31","","24","","25.0","","99.47","","","","","","Mostly Cloudy"
"1991-09-19 01:00","1991","09","19","01:00","13.3","","4.5","","55","","31","","26","","25.0","","99.57","","","","","","Mostly Cloudy"
"1991-09-19 02:00","1991","09","19","02:00","12.5","","3.2","","53","","31","","20","","25.0","","99.61","","","","","","Cloudy"
"1991-09-19 03:00","1991","09","19","03:00","11.8","","4.0","","59","","30","","15","","25.0","","99.67","","","","","","Cloudy"
"1991-09-19 04:00","1991","09","19","04:00","11.2","","3.2","","58","","29","","11","","25.0","","99.67","","","","","","Mostly Cloudy"
"1991-09-19 05:00","1991","09","19","05:00","9.7","","3.8","","66","","27","","9","","25.0","","99.71","","","","","","Mostly Cloudy"
"1991-09-19 06:00","1991","09","19","06:00","9.0","","4.1","","71","","27","","9","","25.0","","99.81","","","","","","Mostly Cloudy"
"1991-09-19 07:00","1991","09","19","07:00","9.4","","5.1","","75","","27","","9","","32.2","","99.87","","","","","","Mostly Cloudy"
"1991-09-19 08:00","1991","09","19","08:00","10.7","","4.5","","65","","32","","26","","40.2","","99.97","","","","","","Mostly Cloudy"
"1991-09-19 09:00","1991","09","19","09:00","12.0","","4.5","","60","","31","","20","","40.2","","100.01","","","","","","Mainly Clear"
"1991-09-19 10:00","1991","09","19","10:00","11.9","","3.0","","54","","30","","19","","40.2","","100.04","","","","","","Mainly Clear"
"1991-09-19 11:00","1991","09","19","11:00","12.6","","2.6","","51","","30","","19","","40.2","","100.07","","","","","","Mostly Cloudy"
"1991-09-19 12:00","1991","09","19","12:00","14.7","","3.3","","46","","32","","28","","40.2","","100.07","","","","","","Mostly Cloudy"
"1991-09-19 13:00","1991","09","19","13:00","12.1","","4.0","","58","","34","","20","","40.2","","100.07","","","","","","Mostly Cloudy"
"1991-09-19 14:00","1991","09","19","14:00","13.1","","3.3","","51","","30","","19","","40.2","","100.11","","","","","","Mostly Cloudy"
"1991-09-19 15:00","1991","09","19","15:00","13.3","","3.5","","52","","30","","33","","40.2","","100.11","","","","","","Mostly Cloudy"
"1991-09-19 16:00","1991","09","19","16:00","13.7","","3.5","","50","","33","","28","","40.2","","100.11","","","","","","Mostly Cloudy"
"1991-09-19 17:00","1991","09","19","17:00","12.2","","3.0","","53","","32","","19","","40.2","","100.14","","","","","","Mostly Cloudy"
"1991-09-19 18:00","1991","09","19","18:00","11.7","","2.8","","54","","34","","24","","40.2","","100.21","","","","","","Mainly Clear"
"1991-09-19 19:00","1991","09","19","19:00","10.2","","2.4","","58","","32","","24","","25.0","","100.27","","","","","","Mainly Clear"
"1991-09-19 20:00","1991","09","19","20:00","9.6","","3.3","","65","","32","","19","","25.0","","100.31","","","","","","Mostly Cloudy"
"1991-09-19 21:00","1991","09","19","21:00","7.9","","2.9","","71","","32","","15","","25.0","","100.34","","","","","","Mainly Clear"
"1991-09-19 22:00","1991","09","19","22:00","7.4","","2.8","","73","","32","","11","","25.0","","100.34","","","","","","Mainly Clear"
"1991-09-19 23:00","1991","09","19","23:00","6.2","","2.5","","77","","30","","4","","25.0","","100.34","","","","","","Mainly Clear"
"1991-09-20 00:00","1991","09","20","00:00","6.6","","3.1","","78","","25","","4","","25.0","","100.34","","","","","","Mainly Clear"
"1991-09-20 01:00","1991","09","20","01:00","5.8","","3.4","","85","","27","","6","","25.0","","100.31","","","","","","Mostly Cloudy"
"1991-09-20 02:00","1991","09","20","02:00","7.2","","4.5","","83","","30","","7","","25.0","","100.31","","","","","","Mostly Cloudy"
"1991-09-20 03:00","1991","09","20","03:00","7.5","","5.1","","85","","28","","4","","25.0","","100.31","","","","","","Mostly Cloudy"
"1991-09-20 04:00","1991","09","20","04:00","7.7","","4.6","","81","","27","","7","","25.0","","100.34","","","","","","Mostly Cloudy"
"1991-09-20 05:00","1991","09","20","05:00","7.2","","4.5","","83","","26","","6","","25.0","","100.34","","","","","","Mostly Cloudy"
"1991-09-20 06:00","1991","09","20","06:00","6.3","","4.0","","85","","28","","11","","25.0","","100.37","","","","","","Mainly Clear"
"1991-09-20 07:00","1991","09","20","07:00","7.1","","4.1","","81","","30","","7","","40.2","","100.41","","","","","","Clear"
"1991-09-20 08:00","1991","09","20","08:00","8.0","","2.9","","70","","34","","15","","40.2","","100.41","","","","","","Clear"
"1991-09-20 09:00","1991","09","20","09:00","9.6","","2.3","","60","","32","","11","","40.2","","100.47","","","","","","Mainly Clear"
"1991-09-20 10:00","1991","09","20","10:00","11.2","","2.2","","54","","35","","15","","40.2","","100.44","","","","","","Mainly Clear"
"1991-09-20 11:00","1991","09","20","11:00","12.0","","1.4","","48","","32","","15","","40.2","","100.47","","","","","","Mostly Cloudy"
"1991-09-20 12:00","1991","09","20","12:00","12.1","","1.4","","48","","29","","17","","40.2","","100.41","","","","","","Mostly Cloudy"
"1991-09-20 13:00","1991","09","20","13:00","12.0","","3.5","","56","","36","","19","","40.2","","100.37","","","","","","Mostly Cloudy"
"1991-09-20 14:00","1991","09","20","14:00","11.6","","2.8","","55","","36","","19","","40.2","","100.37","","","","","","Mostly Cloudy"
"1991-09-20 15:00","1991","09","20","15:00","11.2","","2.7","","56","","36","","19","","40.2","","100.37","","","","","","Mostly Cloudy"
"1991-09-20 16:00","1991","09","20","16:00","10.0","","2.4","","59","","36","","28","","40.2","","100.41","","","","","","Mostly Cloudy"
"1991-09-20 17:00","1991","09","20","17:00","10.2","","1.9","","56","","35","","24","","40.2","","100.41","","","","","","Mostly Cloudy"
"1991-09-20 18:00","1991","09","20","18:00","9.5","","1.3","","56","","35","","22","","40.2","","100.44","","","","","","Mostly Cloudy"
"1991-09-20 19:00","1991","09","20","19:00","8.5","","2.0","","64","","34","","13","","25.0","","100.51","","","","","","Mainly Clear"
"1991-09-20 20:00","1991","09","20","20:00","8.3","","2.5","","67","","36","","17","","25.0","","100.51","","","","","","Mostly Cloudy"
"1991-09-20 21:00","1991","09","20","21:00","7.9","","2.9","","71","","34","","19","","25.0","","100.57","","","","","","Mostly Cloudy"
"1991-09-20 22:00","1991","09","20","22:00","7.6","","2.8","","71","","32","","9","","25.0","","100.57","","","","","","Mostly Cloudy"
"1991-09-20 23:00","1991","09","20","23:00","5.2","","1.9","","79","","29","","9","","25.0","","100.57","","","","","","Mainly Clear"
"1991-09-21 00:00","1991","09","21","00:00","5.0","","2.8","","86","","27","","7","","25.0","","100.54","","","","","","Mostly Cloudy"
"1991-09-21 01:00","1991","09","21","01:00","4.5","","1.8","","82","","31","","6","","25.0","","100.54","","","","","","Mainly Clear"
"1991-09-21 02:00","1991","09","21","02:00","4.5","","2.3","","85","","33","","11","","25.0","","100.57","","","","","","Mostly Cloudy"
"1991-09-21 03:00","1991","09","21","03:00","5.3","","2.9","","85","","33","","9","","25.0","","100.61","","","","","","Mostly Cloudy"
"1991-09-21 04:00","1991","09","21","04:00","5.4","","3.4","","87","","31","","7","","25.0","","100.61","","","","","","Mostly Cloudy"
"1991-09-21 05:00","1991","09","21","05:00","4.8","","2.8","","87","","31","","7","","25.0","","100.64","","","","","","Mostly Cloudy"
"1991-09-21 06:00","1991","09","21","06:00","4.2","","2.2","","87","","27","","7","","40.2","","100.71","","","","","","Mainly Clear"
"1991-09-21 07:00","1991","09","21","07:00","3.4","","1.2","","86","","","","0","","40.2","","100.74","","","","","","Mainly Clear"
"1991-09-21 08:00","1991","09","21","08:00","8.2","","1.4","","62","","","","0","","40.2","","100.77","","","","","","Mainly Clear"
"1991-09-21 09:00","1991","09","21","09:00","10.5","","2.0","","56","","19","","4","","40.2","","100.81","","","","","","Mainly Clear"
"1991-09-21 10:00","1991","09","21","10:00","11.7","","-1.1","","41","","14","","4","","40.2","","100.77","","","","","","Mainly Clear"
"1991-09-21 11:00","1991","09","21","11:00","13.3","","0.8","","42","","20","","4","","40.2","","100.77","","","","","","Mainly Clear"
"1991-09-21 12:00","1991","09","21","12:00","13.6","","-0.4","","38","","25","","9","","40.2","","100.71","","","","","","Mostly Cloudy"
"1991-09-21 13:00","1991","09","21","13:00","13.7","","0.2","","40","","19","","11","","40.2","","100.64","","","","","","Mostly Cloudy"
"1991-09-21 14:00","1991","09","21","14:00","13.8","","1.0","","42","","20","","7","","40.2","","100.57","","","","","","Mostly Cloudy"
"1991-09-21 15:00","1991","09","21","15:00","14.3","","1.7","","43","","18","","15","","40.2","","100.51","","","","","","Mostly Cloudy"
"1991-09-21 16:00","1991","09","21","16:00","13.9","","2.1","","45","","20","","4","","40.2","","100.47","","","","","","Mainly Clear"
"1991-09-21 17:00","1991","09","21","17:00","13.9","","2.1","","45","","15","","7","","40.2","","100.47","","","","","","Mainly Clear"
"1991-09-21 18:00","1991","09","21","18:00","13.5","","2.5","","47","","16","","11","","40.2","","100.47","","","","","","Mainly Clear"
"1991-09-21 19:00","1991","09","21","19:00","11.2","","3.7","","60","","28","","7","","25.0","","100.51","","","","","","Mainly Clear"
"1991-09-21 20:00","1991","09","21","20:00","11.0","","2.7","","57","","","","0","","25.0","","100.51","","","","","","Clear"
"1991-09-21 21:00","1991","09","21","21:00","11.5","","2.8","","55","","17","","4","","25.0","","100.51","","","","","","Clear"
"1991-09-21 22:00","1991","09","21","22:00","8.4","","3.5","","71","","24","","6","","25.0","","100.51","","","","","","Clear"
"1991-09-21 23:00","1991","09","21","23:00","9.0","","2.7","","65","","23","","6","","25.0","","100.54","","","","","","Clear"
"1991-09-22 00:00","1991","09","22","00:00","8.8","","3.2","","68","","","","0","","25.0","","100.51","","","","","","Clear"
"1991-09-22 01:00","1991","09","22","01:00","6.5","","2.6","","76","","","","0","","25.0","","100.54","","","","","","Clear"
"1991-09-22 02:00","1991","09","22","02:00","4.5","","2.3","","85","","","","0","","25.0","","100.54","","","","","","Clear"
"1991-09-22 03:00","1991","09","22","03:00","3.9","","2.2","","89","","35","","6","","25.0","","100.51","","","","","","Clear"
"1991-09-22 04:00","1991","09","22","04:00","3.4","","1.7","","89","","35","","7","","25.0","","100.51","","","","","","Clear"
"1991-09-22 05:00","1991","09","22","05:00","3.5","","1.7","","88","","36","","6","","25.0","","100.47","","","","","","Clear"
"1991-09-22 06:00","1991","09","22","06:00","3.0","","1.6","","91","","34","","7","","24.1","","100.51","","","","","","Clear"
"1991-09-22 07:00","1991","09","22","07:00","4.4","","3.2","","92","","33","","7","","32.2","","100.51","","","","","","Clear"
"1991-09-22 08:00","1991","09","22","08:00","8.6","","5.3","","80","","","","0","","32.2","","100.47","","","","","","Clear"
"1991-09-22 09:00","1991","09","22","09:00","14.1","","8.2","","68","","","","0","","32.2","","100.47","","","","","","Clear"
"1991-09-22 10:00","1991","09","22","10:00","15.8","","8.1","","60","","18","","15","","40.2","","100.41","","","","","","Mainly Clear"
"1991-09-22 11:00","1991","09","22","11:00","15.8","","5.9","","52","","20","","11","","40.2","","100.37","","","","","","Mainly Clear"
"1991-09-22 12:00","1991","09","22","12:00","17.5","","6.5","","48","","18","","19","","40.2","","100.27","","","","","","Mostly Cloudy"
"1991-09-22 13:00","1991","09","22","13:00","17.5","","6.9","","50","","13","","19","","40.2","","100.17","","","","","","Mostly Cloudy"
"1991-09-22 14:00","1991","09","22","14:00","17.5","","6.5","","48","","15","","22","","40.2","","100.04","","","","","","Mostly Cloudy"
"1991-09-22 15:00","1991","09","22","15:00","16.9","","7.2","","53","","14","","22","","40.2","","100.01","","","","","","Mostly Cloudy"
"1991-09-22 16:00","1991","09","22","16:00","17.3","","4.5","","43","","19","","26","","40.2","","99.91","","","","","","Cloudy"
"1991-09-22 17:00","1991","09","22","17:00","17.5","","4.0","","41","","20","","19","","40.2","","99.94","","","","","","Mostly Cloudy"
"1991-09-22 18:00","1991","09","22","18:00","17.1","","5.8","","47","","16","","11","","40.2","","99.91","","","","","","Mostly Cloudy"
"1991-09-22 19:00","1991","09","22","19:00","16.6","","7.0","","53","","15","","11","","24.1","","99.84","","","","","","Cloudy"
"1991-09-22 20:00","1991","09","22","20:00","16.6","","8.3","","58","","15","","11","","24.1","","99.77","","","","","","Cloudy"
"1991-09-22 21:00","1991","09","22","21:00","16.6","","7.9","","56","","18","","7","","24.1","","99.71","","","","","","Rain Showers"
"1991-09-22 22:00","1991","09","22","22:00","16.7","","8.3","","57","","15","","15","","24.1","","99.61","","","","","","Mostly Cloudy"
"1991-09-22 23:00","1991","09","22","23:00","16.7","","8.7","","59","","15","","11","","24.1","","99.51","","","","","","Cloudy"
"1991-09-23 00:00","1991","09","23","00:00","16.8","","10.5","","67","","16","","11","","24.1","","99.41","","","","","","Cloudy"
"1991-09-23 01:00","1991","09","23","01:00","16.9","","11.3","","70","","16","","7","","19.3","","99.34","","","","","","Cloudy"
"1991-09-23 02:00","1991","09","23","02:00","15.9","","14.4","","91","","22","","26","","6.4","","99.27","","","","","","Rain Showers,Fog"
"1991-09-23 03:00","1991","09","23","03:00","15.5","","14.5","","94","","21","","15","","6.4","","99.17","","","","","","Rain Showers,Fog"
"1991-09-23 04:00","1991","09","23","04:00","15.3","","14.9","","98","","19","","17","","6.4","","99.07","","","","","","Rain,Fog"
"1991-09-23 05:00","1991","09","23","05:00","15.4","","14.2","","93","","22","","26","","11.3","","99.04","","","","","","Rain"
"1991-09-23 06:00","1991","09","23","06:00","15.1","","14.0","","93","","23","","24","","12.9","","99.04","","","","","","Rain"
"1991-09-23 07:00","1991","09","23","07:00","15.2","","13.7","","91","","24","","19","","6.4","","99.07","","","","","","Rain Showers,Fog"
"1991-09-23 08:00","1991","09","23","08:00","14.0","","12.0","","88","","28","","28","","24.1","","99.14","","","","","","Mostly Cloudy"
"1991-09-23 09:00","1991","09","23","09:00","14.7","","10.0","","73","","29","","24","","40.2","","99.27","","","","","","Mainly Clear"
"1991-09-23 10:00","1991","09","23","10:00","15.8","","7.7","","59","","28","","41","","40.2","","99.37","","","","","","Mainly Clear"
"1991-09-23 11:00","1991","09","23","11:00","16.0","","5.4","","49","","26","","35","","40.2","","99.47","","","","","","Mainly Clear"
"1991-09-23 12:00","1991","09","23","12:00","16.3","","5.6","","49","","27","","37","","40.2","","99.51","","","","","","Mainly Clear"
"1991-09-23 13:00","1991","09","23","13:00","16.2","","4.9","","47","","27","","31","","40.2","","99.57","","","","","","Mainly Clear"
"1991-09-23 14:00","1991","09","23","14:00","16.8","","4.8","","45","","27","","30","","40.2","","99.57","","","","","","Mostly Cloudy"
"1991-09-23 15:00","1991","09","23","15:00","17.0","","4.8","","44","","26","","35","","40.2","","99.64","","","","","","Mostly Cloudy"
"1991-09-23 16:00","1991","09","23","16:00","16.2","","3.9","","44","","26","","35","","40.2","","99.71","","","","","","Mainly Clear"
"1991-09-23 17:00","1991","09","23","17:00","14.8","","3.5","","47","","27","","22","","40.2","","99.84","","","","","","Mostly Cloudy"
"1991-09-23 18:00","1991","09","23","18:00","13.7","","3.5","","50","","27","","20","","40.2","","99.87","","","","","","Mainly Clear"
"1991-09-23 19:00","1991","09","23","19:00","11.5","","4.3","","61","","27","","13","","25.0","","99.97","","","","","","Mainly Clear"
"1991-09-23 20:00","1991","09","23","20:00","10.0","","5.3","","72","","27","","7","","25.0","","100.07","","","","","","Mainly Clear"
"1991-09-23 21:00","1991","09","23","21:00","9.5","","5.1","","74","","28","","7","","25.0","","100.17","","","","","","Mainly Clear"
"1991-09-23 22:00","1991","09","23","22:00","9.4","","6.0","","79","","30","","9","","25.0","","100.21","","","","","","Mainly Clear"
"1991-09-23 23:00","1991","09","23","23:00","8.7","","5.3","","79","","30","","11","","25.0","","100.24","","","","","","Mainly Clear"
"1991-09-24 00:00","1991","09","24","00:00","8.6","","5.3","","80","","31","","9","","25.0","","100.27","","","","","","Mostly Cloudy"
"1991-09-24 01:00","1991","09","24","01:00","7.3","","5.1","","86","","32","","11","","25.0","","100.31","","","","","","Mainly Clear"
"1991-09-24 02:00","1991","09","24","02:00","6.3","","4.0","","85","","27","","7","","25.0","","100.34","","","","","","Clear"
"1991-09-24 03:00","1991","09","24","03:00","6.5","","4.4","","86","","26","","7","","25.0","","100.37","","","","","","Mainly Clear"
"1991-09-24 04:00","1991","09","24","04:00","6.1","","3.9","","86","","25","","4","","25.0","","100.37","","","","","","Clear"
"1991-09-24 05:00","1991","09","24","05:00","4.5","","3.2","","91","","27","","6","","25.0","","100.37","","","","","","Clear"
"1991-09-24 06:00","1991","09","24","06:00","5.2","","3.3","","87","","29","","4","","25.0","","100.34","","","","","","Mainly Clear"
"1991-09-24 07:00","1991","09","24","07:00","5.0","","3.7","","91","","26","","4","","32.2","","100.37","","","","","","Mostly Cloudy"
"1991-09-24 08:00","1991","09","24","08:00","8.0","","4.8","","80","","","","0","","32.2","","100.37","","","","","","Mostly Cloudy"
"1991-09-24 09:00","1991","09","24","09:00","11.3","","4.3","","62","","","","0","","32.2","","100.34","","","","","","Mostly Cloudy"
"1991-09-24 10:00","1991","09","24","10:00","12.6","","3.2","","53","","","","0","","40.2","","100.34","","","","","","Mostly Cloudy"
"1991-09-24 11:00","1991","09","24","11:00","13.3","","2.5","","48","","","","0","","40.2","","100.31","","","","","","Mostly Cloudy"
"1991-09-24 12:00","1991","09","24","12:00","13.1","","1.7","","46","","12","","7","","40.2","","100.27","","","","","","Mostly Cloudy"
"1991-09-24 13:00","1991","09","24","13:00","13.2","","1.7","","46","","16","","7","","40.2","","100.11","","","","","","Cloudy"
"1991-09-24 14:00","1991","09","24","14:00","13.8","","2.6","","47","","","","0","","40.2","","100.07","","","","","","Mostly Cloudy"
"1991-09-24 15:00","1991","09","24","15:00","13.3","","2.5","","48","","16","","7","","40.2","","100.07","","","","","","Cloudy"
"1991-09-24 16:00","1991","09","24","16:00","13.2","","2.3","","47","","9","","6","","40.2","","99.91","","","","","","Cloudy"
"1991-09-24 17:00","1991","09","24","17:00","12.7","","2.1","","48","","3","","6","","40.2","","99.87","","","","","","Cloudy"
"1991-09-24 18:00","1991","09","24","18:00","12.2","","2.0","","50","","6","","9","","40.2","","99.81","","","","","","Cloudy"
"1991-09-24 19:00","1991","09","24","19:00","10.3","","4.9","","69","","36","","24","","25.0","","99.77","","","","","","Cloudy"
"1991-09-24 20:00","1991","09","24","20:00","9.9","","4.8","","70","","36","","20","","25.0","","99.77","","","","","","Rain Showers"
"1991-09-24 21:00","1991","09","24","21:00","9.4","","5.6","","77","","1","","13","","25.0","","99.71","","","","","","Rain Showers"
"1991-09-24 22:00","1991","09","24","22:00","9.7","","5.1","","73","","6","","9","","25.0","","99.64","","","","","","Cloudy"
"1991-09-24 23:00","1991","09","24","23:00","9.8","","4.4","","69","","6","","11","","25.0","","99.57","","","","","","Cloudy"
"1991-09-25 00:00","1991","09","25","00:00","9.5","","4.2","","70","","6","","9","","25.0","","99.47","","","","","","Cloudy"
"1991-09-25 01:00","1991","09","25","01:00","8.9","","5.4","","79","","3","","11","","25.0","","99.34","","","","","","Cloudy"
"1991-09-25 02:00","1991","09","25","02:00","8.6","","5.3","","80","","35","","9","","25.0","","99.27","","","","","","Cloudy"
"1991-09-25 03:00","1991","09","25","03:00","7.7","","4.6","","81","","36","","11","","25.0","","99.14","","","","","","Cloudy"
"1991-09-25 04:00","1991","09","25","04:00","6.9","","5.0","","88","","34","","13","","25.0","","99.14","","","","","","Cloudy"
"1991-09-25 05:00","1991","09","25","05:00","6.5","","4.4","","86","","35","","9","","25.0","","99.01","","","","","","Cloudy"
"1991-09-25 06:00","1991","09","25","06:00","6.2","","3.9","","85","","36","","7","","25.0","","98.94","","","","","","Cloudy"
"1991-09-25 07:00","1991","09","25","07:00","6.0","","3.9","","86","","33","","13","","32.2","","98.91","","","","","","Mostly Cloudy"
"1991-09-25 08:00","1991","09","25","08:00","6.2","","3.9","","85","","33","","15","","32.2","","98.91","","","","","","Mainly Clear"
"1991-09-25 09:00","1991","09","25","09:00","9.0","","4.5","","73","","34","","13","","32.2","","98.87","","","","","","Mainly Clear"
"1991-09-25 10:00","1991","09","25","10:00","11.3","","5.7","","69","","2","","4","","32.2","","98.84","","","","","","Mainly Clear"
"1991-09-25 11:00","1991","09","25","11:00","12.7","","5.5","","61","","23","","7","","32.2","","98.77","","","","","","Mostly Cloudy"
"1991-09-25 12:00","1991","09","25","12:00","14.9","","5.5","","53","","23","","9","","32.2","","98.64","","","","","","Mostly Cloudy"
"1991-09-25 13:00","1991","09","25","13:00","13.9","","6.9","","63","","15","","19","","32.2","","98.57","","","","","","Mostly Cloudy"
"1991-09-25 14:00","1991","09","25","14:00","13.9","","7.4","","65","","15","","22","","32.2","","98.51","","","","","","Mostly Cloudy"
"1991-09-25 15:00","1991","09","25","15:00","14.1","","7.8","","66","","15","","22","","32.2","","98.41","","","","","","Mostly Cloudy"
"1991-09-25 16:00","1991","09","25","16:00","13.4","","8.0","","70","","14","","24","","32.2","","98.41","","","","","","Mostly Cloudy"
"1991-09-25 17:00","1991","09","25","17:00","13.4","","8.4","","72","","14","","19","","24.1","","98.34","","","","","","Mostly Cloudy"
"1991-09-25 18:00","1991","09","25","18:00","13.2","","8.3","","72","","12","","15","","24.1","","98.31","","","","","","Cloudy"
"1991-09-25 19:00","1991","09","25","19:00","14.1","","4.2","","51","","21","","15","","25.0","","98.34","","","","","","Mostly Cloudy"
"1991-09-25 20:00","1991","09","25","20:00","13.4","","5.0","","57","","21","","13","","25.0","","98.37","","","","","","Mostly Cloudy"
"1991-09-25 21:00","1991","09","25","21:00","13.1","","5.7","","61","","18","","11","","25.0","","98.31","","","","","","Rain"
"1991-09-25 22:00","1991","09","25","22:00","13.0","","6.6","","65","","22","","15","","25.0","","98.24","","","","","","Rain"
"1991-09-25 23:00","1991","09","25","23:00","12.4","","7.7","","73","","19","","11","","25.0","","98.14","","","","","","Mostly Cloudy"
"1991-09-26 00:00","1991","09","26","00:00","11.8","","8.3","","79","","17","","9","","25.0","","98.11","","","","","","Mostly Cloudy"
"1991-09-26 01:00","1991","09","26","01:00","11.6","","8.2","","80","","20","","11","","25.0","","98.11","","","","","","Mainly Clear"
"1991-09-26 02:00","1991","09","26","02:00","10.2","","7.7","","84","","20","","7","","25.0","","98.04","","","","","","Clear"
"1991-09-26 03:00","1991","09","26","03:00","9.1","","6.7","","85","","22","","4","","12.9","","97.97","","","","","","Clear"
"1991-09-26 04:00","1991","09","26","04:00","8.8","","7.1","","89","","20","","7","","8.0","","97.97","","","","","","Fog"
"1991-09-26 05:00","1991","09","26","05:00","7.8","","6.4","","91","","26","","7","","8.0","","97.94","","","","","","Fog"
"1991-09-26 06:00","1991","09","26","06:00","9.0","","6.7","","86","","18","","6","","6.4","","97.94","","","","","","Haze"
"1991-09-26 07:00","1991","09","26","07:00","9.3","","7.2","","87","","25","","6","","12.9","","97.94","","","","","","Mostly Cloudy"
"1991-09-26 08:00","1991","09","26","08:00","10.4","","8.3","","87","","26","","17","","12.9","","97.94","","","","","","Mostly Cloudy"
"1991-09-26 09:00","1991","09","26","09:00","12.2","","7.9","","75","","24","","20","","12.9","","97.94","","","","","","Mostly Cloudy"
"1991-09-26 10:00","1991","09","26","10:00","14.0","","5.6","","57","","27","","26","","32.2","","97.94","","","","","","Mostly Cloudy"
"1991-09-26 11:00","1991","09","26","11:00","13.6","","4.5","","54","","28","","35","","32.2","","97.94","","","","","","Mostly Cloudy"
"1991-09-26 12:00","1991","09","26","12:00","15.0","","4.5","","49","","27","","33","","32.2","","98.01","","","","","","Mostly Cloudy"
"1991-09-26 13:00","1991","09","26","13:00","14.2","","4.2","","51","","28","","33","","32.2","","98.07","","","","","","Mostly Cloudy"
"1991-09-26 14:00","1991","09","26","14:00","12.4","","3.2","","54","","28","","39","","32.2","","98.14","","","","","","Mostly Cloudy"
"1991-09-26 15:00","1991","09","26","15:00","12.5","","3.2","","53","","29","","39","","32.2","","98.24","","","","","","Mostly Cloudy"
"1991-09-26 16:00","1991","09","26","16:00","10.7","","3.5","","61","","27","","33","","24.1","","98.34","","","","","","Mostly Cloudy"
"1991-09-26 17:00","1991","09","26","17:00","10.0","","2.4","","59","","28","","33","","24.1","","98.44","","","","","","Mostly Cloudy"
"1991-09-26 18:00","1991","09","26","18:00","9.2","","1.7","","59","","27","","24","","24.1","","98.54","","","","","","Mostly Cloudy"
"1991-09-26 19:00","1991","09","26","19:00","7.2","","1.7","","68","","27","","22","","25.0","","98.64","","","","","","Mainly Clear"
"1991-09-26 20:00","1991","09","26","20:00","6.8","","1.7","","70","","27","","19","","25.0","","98.74","","","","","","Mainly Clear"
"1991-09-26 21:00","1991","09","26","21:00","5.8","","2.0","","77","","29","","22","","25.0","","98.81","","","","","","Mainly Clear"
"1991-09-26 22:00","1991","09","26","22:00","5.6","","2.0","","78","","26","","17","","25.0","","98.84","","","","","","Clear"
"1991-09-26 23:00","1991","09","26","23:00","4.7","","1.3","","78","","26","","15","","25.0","","98.87","","","","","","Clear"
"1991-09-27 00:00","1991","09","27","00:00","4.6","","0.8","","76","","26","","11","","25.0","","98.91","","","","","","Clear"
"1991-09-27 01:00","1991","09","27","01:00","5.0","","0.9","","75","","26","","19","","25.0","","98.94","","","","","","Mainly Clear"
"1991-09-27 02:00","1991","09","27","02:00","5.4","","1.0","","73","","26","","15","","25.0","","98.94","","","","","","Mainly Clear"
"1991-09-27 03:00","1991","09","27","03:00","5.5","","1.0","","73","","25","","19","","25.0","","98.97","","","","","","Mainly Clear"
"1991-09-27 04:00","1991","09","27","04:00","4.6","","0.3","","73","","26","","19","","25.0","","99.01","","","","","","Clear"
"1991-09-27 05:00","1991","09","27","05:00","4.2","","0.3","","75","","25","","22","","25.0","","99.04","","","","","","Clear"
"1991-09-27 06:00","1991","09","27","06:00","4.6","","0.3","","73","","26","","22","","24.1","","99.11","","","","","","Clear"
"1991-09-27 07:00","1991","09","27","07:00","4.9","","0.4","","73","","26","","17","","40.2","","99.21","","","","","","Clear"
"1991-09-27 08:00","1991","09","27","08:00","6.5","","0.6","","66","","26","","22","","40.2","","99.27","","","","","","Clear"
"1991-09-27 09:00","1991","09","27","09:00","8.0","","0.4","","59","","27","","26","","40.2","","99.34","","","","","","Mainly Clear"
"1991-09-27 10:00","1991","09","27","10:00","9.1","","0.0","","53","","27","","33","","40.2","","99.41","","","","","","Mostly Cloudy"
"1991-09-27 11:00","1991","09","27","11:00","10.1","","-0.3","","48","","27","","22","","40.2","","99.44","","","","","","Mainly Clear"
"1991-09-27 12:00","1991","09","27","12:00","8.6","","0.5","","57","","30","","22","","40.2","","99.51","","","","","","Rain Showers"
"1991-09-27 13:00","1991","09","27","13:00","10.5","","-4.1","","35","","27","","30","","40.2","","99.51","","","","","","Mainly Clear"
"1991-09-27 14:00","1991","09","27","14:00","10.8","","-1.9","","41","","29","","30","","40.2","","99.57","","","","","","Mostly Cloudy"
"1991-09-27 15:00","1991","09","27","15:00","9.6","","-1.6","","45","","28","","24","","40.2","","99.61","","","","","","Mostly Cloudy"
"1991-09-27 16:00","1991","09","27","16:00","9.6","","-0.4","","50","","30","","37","","40.2","","99.67","","","","","","Mostly Cloudy"
"1991-09-27 17:00","1991","09","27","17:00","8.2","","-0.2","","55","","30","","33","","40.2","","99.77","","","","","","Mainly Clear"
"1991-09-27 18:00","1991","09","27","18:00","6.2","","0.5","","67","","30","","22","","40.2","","99.81","","","","","","Mainly Clear"
"1991-09-27 19:00","1991","09","27","19:00","5.8","","0.5","","69","","28","","13","","25.0","","99.87","","","","","","Mainly Clear"
"1991-09-27 20:00","1991","09","27","20:00","6.0","","0.5","","68","","28","","17","","25.0","","99.91","","","","","","Mostly Cloudy"
"1991-09-27 21:00","1991","09","27","21:00","5.4","","1.5","","76","","27","","15","","25.0","","99.97","","","","","","Mostly Cloudy"
"1991-09-27 22:00","1991","09","27","22:00","5.4","","2.0","","79","","28","","7","","25.0","","100.01","","","","","","Mostly Cloudy"
"1991-09-27 23:00","1991","09","27","23:00","5.2","","1.4","","76","","25","","9","","25.0","","100.01","","","","","","Mostly Cloudy"
"1991-09-28 00:00","1991","09","28","00:00","4.0","","1.3","","82","","26","","9","","25.0","","100.07","","","","","","Mostly Cloudy"
"1991-09-28 01:00","1991","09","28","01:00","4.4","","1.3","","80","","25","","11","","25.0","","100.11","","","","","","Mostly Cloudy"
"1991-09-28 02:00","1991","09","28","02:00","3.0","","0.7","","85","","27","","9","","25.0","","100.14","","","","","","Mainly Clear"
"1991-09-28 03:00","1991","09","28","03:00","1.7","","0.0","","88","","27","","7","","25.0","","100.17","","","","","","Mainly Clear"
"1991-09-28 04:00","1991","09","28","04:00","1.0","","-0.5","","90","","27","","7","","25.0","","100.17","","","","","","Mainly Clear"
"1991-09-28 05:00","1991","09","28","05:00","1.5","","0.0","","90","","26","","7","","25.0","","100.21","","","","","","Mostly Cloudy"
"1991-09-28 06:00","1991","09","28","06:00","2.1","","0.1","","87","","26","","7","","25.0","","100.27","","","","","","Mostly Cloudy"
"1991-09-28 07:00","1991","09","28","07:00","2.5","","1.1","","91","","27","","7","","40.2","","100.37","","","","","","Mostly Cloudy"
"1991-09-28 08:00","1991","09","28","08:00","5.2","","1.4","","76","","28","","13","","40.2","","100.41","","","","","","Mostly Cloudy"
"1991-09-28 09:00","1991","09","28","09:00","7.1","","0.7","","64","","26","","13","","40.2","","100.47","","","","","","Mostly Cloudy"
"1991-09-28 10:00","1991","09","28","10:00","8.4","","1.5","","62","","27","","15","","40.2","","100.51","","","","","","Mostly Cloudy"
"1991-09-28 11:00","1991","09","28","11:00","8.6","","0.5","","57","","26","","22","","40.2","","100.51","","","","","","Mostly Cloudy"
"1991-09-28 12:00","1991","09","28","12:00","8.6","","1.5","","61","","27","","13","","40.2","","100.51","","","","","","Mostly Cloudy"
"1991-09-28 13:00","1991","09","28","13:00","9.1","","1.1","","57","","27","","17","","40.2","","100.47","","","","","","Rain Showers"
"1991-09-28 14:00","1991","09","28","14:00","9.1","","1.1","","57","","29","","20","","40.2","","100.47","","","","","","Mostly Cloudy"
"1991-09-28 15:00","1991","09","28","15:00","10.5","","1.5","","54","","27","","22","","40.2","","100.47","","","","","","Mostly Cloudy"
"1991-09-28 16:00","1991","09","28","16:00","10.3","","1.0","","53","","28","","22","","40.2","","100.47","","","","","","Mostly Cloudy"
"1991-09-28 17:00","1991","09","28","17:00","10.2","","-0.3","","48","","27","","24","","40.2","","100.51","","","","","","Mainly Clear"
"1991-09-28 18:00","1991","09","28","18:00","9.0","","-0.5","","51","","28","","17","","40.2","","100.54","","","","","","Mainly Clear"
"1991-09-28 19:00","1991","09","28","19:00","6.2","","0.0","","64","","26","","9","","25.0","","100.57","","","","","","Mainly Clear"
"1991-09-28 20:00","1991","09","28","20:00","7.3","","0.8","","63","","21","","6","","25.0","","100.54","","","","","","Clear"
"1991-09-28 21:00","1991","09","28","21:00","7.0","","0.7","","64","","19","","6","","25.0","","100.51","","","","","","Clear"
"1991-09-28 22:00","1991","09","28","22:00","6.7","","0.1","","63","","","","0","","25.0","","100.51","","","","","","Clear"
"1991-09-28 23:00","1991","09","28","23:00","5.0","","-0.2","","69","","23","","6","","25.0","","100.51","","","","","","Clear"
"1991-09-29 00:00","1991","09","29","00:00","5.6","","-1.2","","61","","21","","4","","25.0","","100.47","","","","","","Clear"
"1991-09-29 01:00","1991","09","29","01:00","3.8","","-0.8","","72","","","","0","","25.0","","100.47","","","","","","Mostly Cloudy"
"1991-09-29 02:00","1991","09","29","02:00","5.8","","-1.1","","61","","","","0","","25.0","","100.41","","","","","","Mostly Cloudy"
"1991-09-29 03:00","1991","09","29","03:00","5.7","","-0.1","","66","","25","","9","","25.0","","100.37","","","","","","Mostly Cloudy"
"1991-09-29 04:00","1991","09","29","04:00","6.7","","0.1","","63","","24","","13","","25.0","","100.34","","","","","","Mostly Cloudy"
"1991-09-29 05:00","1991","09","29","05:00","6.2","","0.5","","67","","26","","9","","25.0","","100.37","","","","","","Mostly Cloudy"
"1991-09-29 06:00","1991","09","29","06:00","5.7","","1.0","","72","","27","","9","","25.0","","100.41","","","","","","Mostly Cloudy"
"1991-09-29 07:00","1991","09","29","07:00","6.5","","1.1","","68","","26","","13","","40.2","","100.44","","","","","","Mostly Cloudy"
"1991-09-29 08:00","1991","09","29","08:00","8.3","","1.0","","60","","30","","11","","40.2","","100.47","","","","","","Mostly Cloudy"
"1991-09-29 09:00","1991","09","29","09:00","9.9","","1.9","","57","","32","","24","","40.2","","100.54","","","","","","Mostly Cloudy"
"1991-09-29 10:00","1991","09","29","10:00","10.6","","4.0","","64","","34","","30","","40.2","","100.64","","","","","","Mostly Cloudy"
"1991-09-29 11:00","1991","09","29","11:00","11.1","","0.6","","48","","33","","28","","40.2","","100.67","","","","","","Mainly Clear"
"1991-09-29 12:00","1991","09","29","12:00","11.2","","-1.2","","42","","36","","26","","40.2","","100.77","","","","","","Clear"
"1991-09-29 13:00","1991","09","29","13:00","11.0","","-1.2","","43","","34","","26","","40.2","","100.81","","","","","","Clear"
"1991-09-29 14:00","1991","09","29","14:00","11.2","","-3.9","","34","","1","","22","","40.2","","100.81","","","","","","Clear"
"1991-09-29 15:00","1991","09","29","15:00","11.0","","-3.9","","35","","35","","26","","40.2","","100.87","","","","","","Mainly Clear"
"1991-09-29 16:00","1991","09","29","16:00","11.1","","-3.9","","35","","36","","24","","40.2","","100.91","","","","","","Clear"
"1991-09-29 17:00","1991","09","29","17:00","9.4","","-5.1","","35","","1","","22","","40.2","","100.97","","","","","","Clear"
"1991-09-29 18:00","1991","09","29","18:00","7.6","","-4.7","","41","","1","","24","","40.2","","101.01","","","","","","Clear"
"1991-09-29 19:00","1991","09","29","19:00","6.4","","-3.5","","49","","36","","17","","25.0","","101.07","","","","","","Clear"
"1991-09-29 20:00","1991","09","29","20:00","5.0","","-2.4","","59","","36","","19","","25.0","","101.11","","","","","","Clear"
"1991-09-29 21:00","1991","09","29","21:00","2.4","","-2.6","","69","","35","","11","","25.0","","101.14","","","","","","Clear"
"1991-09-29 22:00","1991","09","29","22:00","1.4","","-2.1","","77","","34","","9","","25.0","","101.17","","","","","","Clear"
"1991-09-29 23:00","1991","09","29","23:00","0.8","","-1.9","","82","","35","","9","","25.0","","101.14","","","","","","Clear"
"1991-09-30 00:00","1991","09","30","00:00","0.3","","-2.5","","82","","32","","6","","25.0","","101.14","","","","","","Clear"
"1991-09-30 01:00","1991","09","30","01:00","-0.2","","-2.6","","84","","4","","6","","25.0","","101.11","","","","-2","","Clear"
"1991-09-30 02:00","1991","09","30","02:00","1.8","","-1.0","","82","","7","","6","","25.0","","101.11","","","","","","Clear"
"1991-09-30 03:00","1991","09","30","03:00","2.7","","-0.9","","77","","6","","7","","25.0","","101.07","","","","","","Clear"
"1991-09-30 04:00","1991","09","30","04:00","2.2","","-1.5","","76","","7","","7","","25.0","","101.01","","","","","","Clear"
"1991-09-30 05:00","1991","09","30","05:00","2.3","","-0.4","","82","","4","","4","","25.0","","101.04","","","","","","Clear"
"1991-09-30 06:00","1991","09","30","06:00","2.8","","0.2","","83","","9","","9","","25.0","","100.94","","","","","","Mainly Clear"
"1991-09-30 07:00","1991","09","30","07:00","4.2","","0.8","","78","","11","","9","","24.1","","100.91","","","","","","Mostly Cloudy"
"1991-09-30 08:00","1991","09","30","08:00","7.4","","2.3","","70","","14","","11","","24.1","","100.97","","","","","","Cloudy"
"1991-09-30 09:00","1991","09","30","09:00","7.5","","1.8","","67","","14","","15","","24.1","","100.87","","","","","","Cloudy"
"1991-09-30 10:00","1991","09","30","10:00","7.9","","1.9","","66","","13","","17","","32.2","","100.81","","","","","","Mostly Cloudy"
"1991-09-30 11:00","1991","09","30","11:00","9.8","","1.9","","58","","11","","19","","32.2","","100.61","","","","","","Mostly Cloudy"
"1991-09-30 12:00","1991","09","30","12:00","11.3","","1.3","","50","","13","","17","","32.2","","100.51","","","","","","Mainly Clear"
"1991-09-30 13:00","1991","09","30","13:00","11.7","","2.3","","52","","13","","22","","32.2","","100.31","","","","","","Mainly Clear"
"1991-09-30 14:00","1991","09","30","14:00","11.7","","2.3","","52","","13","","26","","32.2","","100.11","","","","","","Mostly Cloudy"
"1991-09-30 15:00","1991","09","30","15:00","13.0","","2.3","","48","","13","","15","","32.2","","100.01","","","","","","Mostly Cloudy"
"1991-09-30 16:00","1991","09","30","16:00","13.5","","4.0","","53","","14","","19","","32.2","","99.87","","","","","","Mostly Cloudy"
"1991-09-30 17:00","1991","09","30","17:00","14.5","","5.8","","56","","14","","15","","32.2","","99.77","","","","","","Mostly Cloudy"
"1991-09-30 18:00","1991","09","30","18:00","13.5","","6.3","","62","","9","","4","","24.1","","99.71","","","","","","Mostly Cloudy"
"1991-09-30 19:00","1991","09","30","19:00","12.3","","6.9","","70","","12","","9","","25.0","","99.64","","","","","","Mostly Cloudy"
"1991-09-30 20:00","1991","09","30","20:00","12.4","","7.3","","71","","","","0","","24.1","","99.57","","","","","","Mostly Cloudy"
"1991-09-30 21:00","1991","09","30","21:00","12.6","","7.7","","72","","","","0","","24.1","","99.54","","","","","","Mostly Cloudy"
"1991-09-30 22:00","1991","09","30","22:00","11.7","","7.8","","77","","","","0","","19.3","","99.47","","","","","","Mostly Cloudy"
"1991-09-30 23:00","1991","09","30","23:00","12.5","","8.1","","75","","21","","9","","19.3","","99.47","","","","","","Cloudy"
