"Station Name","TORONTO LESTER B. PEARSON INT'L A"
"Province","ONTARIO"
"Latitude","43.68"
"Longitude","-79.63"
"Elevation","173.40"
"Climate Identifier","6158733"
"WMO Identifier","71624"
"TC Identifier","YYZ"
"All times are specified in Local Standard Time (LST). Add 1 hour to adjust for Daylight Saving Time where and when it is observed."

"Legend"
"E","Estimated"
"M","Missing"
"NA","Not Available"

"Date/Time","Year","Month","Day","Time","Temp (°C)","Temp Flag","Dew Point Temp (°C)","Dew Point Temp Flag","Rel Hum (%)","Rel Hum Flag","Wind Dir (10s deg)","Wind Dir Flag","Wind Spd (km/h)","Wind Spd Flag","Visibility (km)","Visibility Flag","Stn Press (kPa)","Stn Press Flag","Hmdx","Hmdx Flag","Wind Chill","Wind Chill Flag","Weather"
"1963-10-01 00:00","1963","10","01","00:00","5.0","","3.3","","90","","29","","5","","24.1","","99.96","","","","","","Clear"
"1963-10-01 01:00","1963","10","01","01:00","5.0","","3.3","","90","","25","","5","","19.3","","100.02","","","","","","Mainly Clear"
"1963-10-01 02:00","1963","10","01","02:00","5.0","","3.3","","90","","","","0","","19.3","","100.01","","","","","","Mostly Cloudy"
"1963-10-01 03:00","1963","10","01","03:00","4.4","","2.8","","90","","36","","5","","16.1","","99.97","","","","","","Mainly Clear"
"1963-10-01 04:00","1963","10","01","04:00","4.4","","3.3","","93","","","","0","","16.1","","99.97","","","","","","Mainly Clear"
"1963-10-01 05:00","1963","10","01","05:00","4.4","","2.8","","90","","36","","6","","24.1","","100.00","","","","","","Clear"
"1963-10-01 06:00","1963","10","01","06:00","5.6","","2.8","","82","","23","","5","","11.3","","100.00","","","","","","Mainly Clear"
"1963-10-01 07:00","1963","10","01","07:00","8.3","","6.1","","87","","16","","3","","11.3","","100.05","","","","","","Clear"
"1963-10-01 08:00","1963","10","01","08:00","9.4","","7.2","","86","","23","","8","","9.7","","100.03","","","","","","Fog,Smoke"
"1963-10-01 09:00","1963","10","01","09:00","14.4","","9.4","","72","","23","","13","","16.1","","100.06","","","","","","Clear"
"1963-10-01 10:00","1963","10","01","10:00","18.3","","8.9","","55","","23","","23","","24.1","","100.05","","","","","","Clear"
"1963-10-01 11:00","1963","10","01","11:00","21.1","","7.8","","42","","23","","29","","25.0","","99.97","","","","","","Clear"
"1963-10-01 12:00","1963","10","01","12:00","22.2","","7.2","","38","","23","","35","","25.0","","99.93","","","","","","Clear"
"1963-10-01 13:00","1963","10","01","13:00","22.8","","7.8","","38","","23","","32","","24.1","","99.85","","","","","","Clear"
"1963-10-01 14:00","1963","10","01","14:00","23.3","","7.8","","37","","25","","29","","24.1","","99.79","","","","","","Clear"
"1963-10-01 15:00","1963","10","01","15:00","23.3","","7.2","","36","","25","","26","","24.1","","99.75","","","","","","Clear"
"1963-10-01 16:00","1963","10","01","16:00","23.9","","10.0","","42","","20","","24","","24.1","","99.72","","25","","","","Clear"
"1963-10-01 17:00","1963","10","01","17:00","22.8","","10.0","","45","","20","","23","","24.1","","99.70","","","","","","Clear"
"1963-10-01 18:00","1963","10","01","18:00","19.4","","8.3","","49","","20","","21","","24.1","","99.71","","","","","","Clear"
"1963-10-01 19:00","1963","10","01","19:00","17.8","","8.3","","54","","20","","19","","24.1","","99.71","","","","","","Clear"
"1963-10-01 20:00","1963","10","01","20:00","16.1","","6.7","","54","","20","","21","","24.1","","99.71","","","","","","Clear"
"1963-10-01 21:00","1963","10","01","21:00","15.0","","6.1","","54","","20","","10","","24.1","","99.71","","","","","","Clear"
"1963-10-01 22:00","1963","10","01","22:00","14.4","","5.0","","54","","18","","14","","24.1","","99.67","","","","","","Clear"
"1963-10-01 23:00","1963","10","01","23:00","13.3","","5.6","","58","","18","","16","","24.1","","99.63","","","","","","Clear"
"1963-10-02 00:00","1963","10","02","00:00","12.2","","5.6","","63","","18","","16","","24.1","","99.60","","","","","","Clear"
"1963-10-02 01:00","1963","10","02","01:00","12.2","","6.1","","67","","20","","10","","24.1","","99.56","","","","","","Clear"
"1963-10-02 02:00","1963","10","02","02:00","12.2","","6.7","","68","","18","","10","","24.1","","99.53","","","","","","Clear"
"1963-10-02 03:00","1963","10","02","03:00","11.7","","7.2","","73","","20","","13","","24.1","","99.48","","","","","","Clear"
"1963-10-02 04:00","1963","10","02","04:00","11.7","","7.8","","78","","20","","11","","19.3","","99.43","","","","","","Clear"
"1963-10-02 05:00","1963","10","02","05:00","11.1","","7.8","","79","","18","","16","","19.3","","99.39","","","","","","Clear"
"1963-10-02 06:00","1963","10","02","06:00","11.1","","7.8","","79","","18","","11","","9.7","","99.34","","","","","","Haze"
"1963-10-02 07:00","1963","10","02","07:00","11.1","","8.9","","87","","18","","10","","6.4","","99.32","","","","","","Haze"
"1963-10-02 08:00","1963","10","02","08:00","14.4","","11.1","","80","","20","","19","","9.7","","99.23","","","","","","Haze"
"1963-10-02 09:00","1963","10","02","09:00","17.2","","10.6","","64","","23","","27","","16.1","","99.21","","","","","","Clear"
"1963-10-02 10:00","1963","10","02","10:00","20.0","","11.1","","57","","23","","29","","19.3","","99.14","","","","","","Clear"
"1963-10-02 11:00","1963","10","02","11:00","22.2","","10.0","","45","","20","","29","","24.1","","99.03","","","","","","Mainly Clear"
"1963-10-02 12:00","1963","10","02","12:00","23.9","","10.0","","42","","20","","32","","24.1","","98.88","","25","","","","Mainly Clear"
"1963-10-02 13:00","1963","10","02","13:00","25.0","","8.9","","36","","20","","32","","24.1","","98.78","","26","","","","Mainly Clear"
"1963-10-02 14:00","1963","10","02","14:00","24.4","","9.4","","39","","20","","32","","24.1","","98.65","","25","","","","Mostly Cloudy"
"1963-10-02 15:00","1963","10","02","15:00","23.9","","8.9","","38","","20","","29","","24.1","","98.60","","25","","","","Mostly Cloudy"
"1963-10-02 16:00","1963","10","02","16:00","23.3","","8.3","","39","","23","","40","","19.3","","98.48","","","","","","Mostly Cloudy"
"1963-10-02 17:00","1963","10","02","17:00","23.3","","8.3","","39","","23","","32","","24.1","","98.48","","","","","","Mostly Cloudy"
"1963-10-02 18:00","1963","10","02","18:00","22.8","","8.9","","40","","23","","24","","19.3","","98.43","","","","","","Mostly Cloudy"
"1963-10-02 19:00","1963","10","02","19:00","21.1","","7.8","","42","","23","","19","","19.3","","98.41","","","","","","Mostly Cloudy"
"1963-10-02 20:00","1963","10","02","20:00","20.6","","8.3","","46","","23","","16","","19.3","","98.40","","","","","","Mostly Cloudy"
"1963-10-02 21:00","1963","10","02","21:00","19.4","","8.3","","49","","23","","13","","24.1","","98.38","","","","","","Mostly Cloudy"
"1963-10-02 22:00","1963","10","02","22:00","17.8","","9.4","","57","","23","","10","","24.1","","98.35","","","","","","Mostly Cloudy"
"1963-10-02 23:00","1963","10","02","23:00","17.2","","10.0","","62","","20","","11","","25.0","","98.30","","","","","","Mainly Clear"
"1963-10-03 00:00","1963","10","03","00:00","15.6","","10.6","","71","","23","","13","","25.0","","98.29","","","","","","Mainly Clear"
"1963-10-03 01:00","1963","10","03","01:00","15.6","","11.1","","74","","23","","18","","19.3","","98.28","","","","","","Mainly Clear"
"1963-10-03 02:00","1963","10","03","02:00","15.0","","11.1","","79","","23","","19","","19.3","","98.23","","","","","","Mainly Clear"
"1963-10-03 03:00","1963","10","03","03:00","14.4","","11.1","","81","","25","","26","","25.0","","98.22","","","","","","Mainly Clear"
"1963-10-03 04:00","1963","10","03","04:00","13.9","","10.0","","78","","25","","24","","25.0","","98.31","","","","","","Mainly Clear"
"1963-10-03 05:00","1963","10","03","05:00","13.3","","10.0","","79","","27","","24","","25.0","","98.36","","","","","","Mainly Clear"
"1963-10-03 06:00","1963","10","03","06:00","12.2","","8.3","","78","","27","","21","","25.0","","98.41","","","","","","Mainly Clear"
"1963-10-03 07:00","1963","10","03","07:00","11.7","","8.9","","82","","25","","11","","25.0","","98.46","","","","","","Mostly Cloudy"
"1963-10-03 08:00","1963","10","03","08:00","13.3","","9.4","","76","","23","","19","","25.0","","98.47","","","","","","Mostly Cloudy"
"1963-10-03 09:00","1963","10","03","09:00","13.9","","9.4","","75","","27","","24","","24.1","","98.48","","","","","","Rain Showers"
"1963-10-03 10:00","1963","10","03","10:00","12.8","","11.1","","89","","25","","24","","24.1","","98.49","","","","","","Rain Showers"
"1963-10-03 11:00","1963","10","03","11:00","12.8","","11.7","","93","","27","","13","","24.1","","98.52","","","","","","Rain Showers"
"1963-10-03 12:00","1963","10","03","12:00","13.3","","11.1","","88","","34","","29","","25.0","","98.60","","","","","","Cloudy"
"1963-10-03 13:00","1963","10","03","13:00","15.0","","12.2","","83","","34","","35","","25.0","","98.67","","","","","","Mostly Cloudy"
"1963-10-03 14:00","1963","10","03","14:00","16.1","","10.6","","69","","34","","39","","25.0","","98.77","","","","","","Mostly Cloudy"
"1963-10-03 15:00","1963","10","03","15:00","15.6","","8.3","","62","","34","","35","","25.0","","98.91","","","","","","Mostly Cloudy"
"1963-10-03 16:00","1963","10","03","16:00","15.0","","7.8","","62","","34","","29","","25.0","","99.07","","","","","","Mostly Cloudy"
"1963-10-03 17:00","1963","10","03","17:00","14.4","","6.1","","58","","34","","32","","25.0","","99.19","","","","","","Mostly Cloudy"
"1963-10-03 18:00","1963","10","03","18:00","13.9","","6.7","","62","","34","","16","","25.0","","99.30","","","","","","Mostly Cloudy"
"1963-10-03 19:00","1963","10","03","19:00","13.3","","6.7","","64","","34","","19","","25.0","","99.38","","","","","","Mostly Cloudy"
"1963-10-03 20:00","1963","10","03","20:00","11.7","","6.1","","68","","34","","26","","25.0","","99.53","","","","","","Mainly Clear"
"1963-10-03 21:00","1963","10","03","21:00","10.0","","5.0","","71","","29","","19","","25.0","","99.60","","","","","","Mainly Clear"
"1963-10-03 22:00","1963","10","03","22:00","10.6","","5.6","","72","","32","","16","","25.0","","99.67","","","","","","Mostly Cloudy"
"1963-10-03 23:00","1963","10","03","23:00","10.0","","3.9","","66","","36","","24","","25.0","","99.73","","","","","","Mostly Cloudy"
"1963-10-04 00:00","1963","10","04","00:00","8.9","","3.3","","68","","36","","13","","25.0","","99.78","","","","","","Mostly Cloudy"
"1963-10-04 01:00","1963","10","04","01:00","8.3","","2.8","","67","","36","","14","","25.0","","99.83","","","","","","Mainly Clear"
"1963-10-04 02:00","1963","10","04","02:00","5.6","","1.7","","75","","32","","8","","25.0","","99.87","","","","","","Mainly Clear"
"1963-10-04 03:00","1963","10","04","03:00","5.6","","1.1","","73","","32","","10","","25.0","","99.90","","","","","","Mainly Clear"
"1963-10-04 04:00","1963","10","04","04:00","4.4","","1.1","","78","","32","","8","","25.0","","99.97","","","","","","Clear"
"1963-10-04 05:00","1963","10","04","05:00","3.3","","0.6","","82","","32","","10","","25.0","","100.05","","","","","","Clear"
"1963-10-04 06:00","1963","10","04","06:00","3.3","","0.0","","77","","32","","13","","25.0","","100.10","","","","","","Clear"
"1963-10-04 07:00","1963","10","04","07:00","3.3","","0.0","","77","","34","","16","","25.0","","100.21","","","","","","Mainly Clear"
"1963-10-04 08:00","1963","10","04","08:00","4.4","","0.6","","76","","32","","16","","25.0","","100.26","","","","","","Mainly Clear"
"1963-10-04 09:00","1963","10","04","09:00","6.7","","1.7","","70","","36","","16","","25.0","","100.33","","","","","","Mainly Clear"
"1963-10-04 10:00","1963","10","04","10:00","8.9","","1.7","","61","","34","","16","","25.0","","100.36","","","","","","Mainly Clear"
"1963-10-04 11:00","1963","10","04","11:00","10.6","","1.7","","54","","34","","13","","25.0","","100.38","","","","","","Clear"
"1963-10-04 12:00","1963","10","04","12:00","12.2","","1.7","","49","","32","","19","","25.0","","100.36","","","","","","Clear"
"1963-10-04 13:00","1963","10","04","13:00","13.9","","1.1","","41","","32","","11","","25.0","","100.30","","","","","","Clear"
"1963-10-04 14:00","1963","10","04","14:00","15.6","","1.7","","39","","36","","13","","25.0","","100.28","","","","","","Clear"
"1963-10-04 15:00","1963","10","04","15:00","15.6","","0.0","","35","","36","","13","","25.0","","100.25","","","","","","Clear"
"1963-10-04 16:00","1963","10","04","16:00","15.0","","-0.6","","35","","36","","13","","25.0","","100.27","","","","","","Clear"
"1963-10-04 17:00","1963","10","04","17:00","15.0","","1.1","","39","","36","","11","","25.0","","100.30","","","","","","Clear"
"1963-10-04 18:00","1963","10","04","18:00","12.2","","0.6","","46","","36","","10","","25.0","","100.35","","","","","","Clear"
"1963-10-04 19:00","1963","10","04","19:00","10.6","","0.6","","51","","36","","8","","25.0","","100.38","","","","","","Clear"
"1963-10-04 20:00","1963","10","04","20:00","8.9","","0.0","","53","","36","","8","","25.0","","100.40","","","","","","Clear"
"1963-10-04 21:00","1963","10","04","21:00","7.2","","1.1","","64","","36","","10","","25.0","","100.45","","","","","","Clear"
"1963-10-04 22:00","1963","10","04","22:00","5.6","","0.6","","70","","36","","10","","25.0","","100.48","","","","","","Clear"
"1963-10-04 23:00","1963","10","04","23:00","4.4","","0.0","","74","","36","","11","","25.0","","100.51","","","","","","Clear"
"1963-10-05 00:00","1963","10","05","00:00","4.4","","0.0","","74","","36","","6","","25.0","","100.48","","","","","","Clear"
"1963-10-05 01:00","1963","10","05","01:00","4.4","","0.6","","76","","29","","10","","25.0","","100.48","","","","","","Clear"
"1963-10-05 02:00","1963","10","05","02:00","3.3","","0.0","","80","","32","","6","","25.0","","100.52","","","","","","Clear"
"1963-10-05 03:00","1963","10","05","03:00","3.3","","0.0","","80","","25","","5","","25.0","","100.52","","","","","","Clear"
"1963-10-05 04:00","1963","10","05","04:00","1.7","","-0.6","","84","","27","","6","","24.1","","100.57","","","","","","Clear"
"1963-10-05 05:00","1963","10","05","05:00","2.2","","0.0","","84","","27","","5","","24.1","","100.60","","","","","","Clear"
"1963-10-05 06:00","1963","10","05","06:00","2.2","","0.0","","87","","","","0","","24.1","","100.65","","","","","","Clear"
"1963-10-05 07:00","1963","10","05","07:00","1.7","","-0.6","","86","","25","","5","","19.3","","100.62","","","","","","Clear"
"1963-10-05 08:00","1963","10","05","08:00","6.7","","3.3","","78","","25","","3","","19.3","","100.71","","","","","","Clear"
"1963-10-05 09:00","1963","10","05","09:00","10.0","","7.2","","82","","25","","16","","24.1","","100.70","","","","","","Clear"
"1963-10-05 10:00","1963","10","05","10:00","16.7","","7.2","","54","","23","","21","","24.1","","100.65","","","","","","Clear"
"1963-10-05 11:00","1963","10","05","11:00","18.3","","7.8","","50","","25","","11","","24.1","","100.63","","","","","","Clear"
"1963-10-05 12:00","1963","10","05","12:00","20.0","","7.8","","45","","23","","13","","24.1","","100.60","","","","","","Clear"
"1963-10-05 13:00","1963","10","05","13:00","21.1","","7.8","","42","","20","","11","","24.1","","100.53","","","","","","Clear"
"1963-10-05 14:00","1963","10","05","14:00","21.7","","6.7","","37","","20","","19","","24.1","","100.45","","","","","","Clear"
"1963-10-05 15:00","1963","10","05","15:00","22.8","","6.7","","35","","20","","19","","24.1","","100.41","","","","","","Clear"
"1963-10-05 16:00","1963","10","05","16:00","21.7","","9.4","","46","","18","","19","","24.1","","100.38","","","","","","Clear"
"1963-10-05 17:00","1963","10","05","17:00","20.0","","7.8","","45","","16","","16","","24.1","","100.35","","","","","","Clear"
"1963-10-05 18:00","1963","10","05","18:00","17.2","","11.1","","68","","16","","10","","24.1","","100.36","","","","","","Clear"
"1963-10-05 19:00","1963","10","05","19:00","16.1","","9.4","","65","","18","","14","","24.1","","100.33","","","","","","Clear"
"1963-10-05 20:00","1963","10","05","20:00","14.4","","6.7","","60","","23","","11","","24.1","","100.31","","","","","","Clear"
"1963-10-05 21:00","1963","10","05","21:00","13.3","","8.3","","71","","25","","13","","24.1","","100.31","","","","","","Clear"
"1963-10-05 22:00","1963","10","05","22:00","12.8","","8.3","","74","","23","","8","","24.1","","100.29","","","","","","Clear"
"1963-10-05 23:00","1963","10","05","23:00","9.4","","6.7","","82","","23","","11","","24.1","","100.27","","","","","","Clear"
"1963-10-06 00:00","1963","10","06","00:00","9.4","","6.7","","82","","23","","10","","19.3","","100.25","","","","","","Clear"
"1963-10-06 01:00","1963","10","06","01:00","8.3","","6.1","","85","","23","","11","","16.1","","100.22","","","","","","Clear"
"1963-10-06 02:00","1963","10","06","02:00","9.4","","6.7","","82","","25","","16","","16.1","","100.17","","","","","","Clear"
"1963-10-06 03:00","1963","10","06","03:00","7.8","","5.6","","85","","23","","8","","16.1","","100.16","","","","","","Clear"
"1963-10-06 04:00","1963","10","06","04:00","8.3","","6.7","","90","","20","","11","","12.9","","100.11","","","","","","Clear"
"1963-10-06 05:00","1963","10","06","05:00","9.4","","7.2","","86","","16","","5","","12.9","","100.04","","","","","","Clear"
"1963-10-06 06:00","1963","10","06","06:00","9.4","","7.8","","88","","16","","13","","11.3","","99.98","","","","","","Clear"
"1963-10-06 07:00","1963","10","06","07:00","11.1","","7.8","","81","","14","","8","","8.0","","99.96","","","","","","Haze"
"1963-10-06 08:00","1963","10","06","08:00","13.9","","9.4","","75","","16","","11","","8.0","","99.89","","","","","","Haze"
"1963-10-06 09:00","1963","10","06","09:00","17.8","","8.9","","56","","18","","19","","12.9","","99.86","","","","","","Mainly Clear"
"1963-10-06 10:00","1963","10","06","10:00","21.1","","8.3","","44","","23","","26","","19.3","","99.74","","","","","","Mainly Clear"
"1963-10-06 11:00","1963","10","06","11:00","23.9","","9.4","","39","","23","","24","","19.3","","99.67","","25","","","","Mainly Clear"
"1963-10-06 12:00","1963","10","06","12:00","26.1","","10.0","","36","","23","","27","","24.1","","99.58","","27","","","","Mainly Clear"
"1963-10-06 13:00","1963","10","06","13:00","27.8","","10.6","","34","","23","","31","","24.1","","99.44","","29","","","","Mainly Clear"
"1963-10-06 14:00","1963","10","06","14:00","28.3","","8.9","","30","","23","","32","","19.3","","99.31","","29","","","","Mainly Clear"
"1963-10-06 15:00","1963","10","06","15:00","28.9","","9.4","","30","","25","","35","","19.3","","99.27","","30","","","","Mostly Cloudy"
"1963-10-06 16:00","1963","10","06","16:00","27.2","","11.1","","36","","23","","26","","16.1","","99.25","","29","","","","Mostly Cloudy"
"1963-10-06 17:00","1963","10","06","17:00","25.0","","11.7","","43","","23","","21","","16.1","","99.26","","27","","","","Mostly Cloudy"
"1963-10-06 18:00","1963","10","06","18:00","23.3","","11.7","","48","","18","","16","","16.1","","99.25","","25","","","","Mostly Cloudy"
"1963-10-06 19:00","1963","10","06","19:00","22.2","","10.6","","48","","16","","13","","16.1","","99.21","","","","","","Mostly Cloudy"
"1963-10-06 20:00","1963","10","06","20:00","21.1","","11.1","","53","","20","","18","","16.1","","99.14","","","","","","Mostly Cloudy"
"1963-10-06 21:00","1963","10","06","21:00","21.7","","10.6","","49","","23","","27","","19.3","","99.12","","","","","","Mainly Clear"
"1963-10-06 22:00","1963","10","06","22:00","22.2","","9.4","","44","","25","","29","","24.1","","99.15","","","","","","Mainly Clear"
"1963-10-06 23:00","1963","10","06","23:00","21.1","","8.9","","45","","25","","24","","24.1","","99.16","","","","","","Mainly Clear"
"1963-10-07 00:00","1963","10","07","00:00","20.0","","9.4","","50","","","","0","","24.1","","99.20","","","","","","Clear"
"1963-10-07 01:00","1963","10","07","01:00","19.4","","8.9","","51","","23","","6","","25.0","","99.16","","","","","","Clear"
"1963-10-07 02:00","1963","10","07","02:00","18.9","","8.9","","52","","23","","19","","25.0","","99.08","","","","","","Clear"
"1963-10-07 03:00","1963","10","07","03:00","18.9","","8.3","","50","","25","","16","","25.0","","99.01","","","","","","Clear"
"1963-10-07 04:00","1963","10","07","04:00","19.4","","7.8","","46","","25","","21","","25.0","","98.95","","","","","","Clear"
"1963-10-07 05:00","1963","10","07","05:00","20.0","","7.8","","45","","25","","26","","25.0","","98.92","","","","","","Clear"
"1963-10-07 06:00","1963","10","07","06:00","20.0","","7.8","","45","","25","","29","","25.0","","98.85","","","","","","Mainly Clear"
"1963-10-07 07:00","1963","10","07","07:00","20.0","","8.3","","47","","25","","29","","25.0","","98.83","","","","","","Mainly Clear"
"1963-10-07 08:00","1963","10","07","08:00","20.6","","8.3","","46","","25","","34","","19.3","","98.79","","","","","","Mainly Clear"
"1963-10-07 09:00","1963","10","07","09:00","22.8","","8.3","","39","","25","","37","","19.3","","98.77","","","","","","Mainly Clear"
"1963-10-07 10:00","1963","10","07","10:00","24.4","","8.3","","36","","25","","35","","19.3","","98.72","","25","","","","Mainly Clear"
"1963-10-07 11:00","1963","10","07","11:00","26.1","","8.9","","34","","25","","39","","19.3","","98.65","","27","","","","Mainly Clear"
"1963-10-07 12:00","1963","10","07","12:00","26.1","","8.9","","34","","25","","40","","19.3","","98.58","","27","","","","Mainly Clear"
"1963-10-07 13:00","1963","10","07","13:00","27.8","","8.3","","29","","25","","39","","24.1","","98.50","","28","","","","Mainly Clear"
"1963-10-07 14:00","1963","10","07","14:00","27.2","","9.4","","33","","25","","43","","24.1","","98.49","","28","","","","Mainly Clear"
"1963-10-07 15:00","1963","10","07","15:00","25.6","","11.1","","40","","29","","42","","24.1","","98.49","","27","","","","Mainly Clear"
"1963-10-07 16:00","1963","10","07","16:00","22.8","","11.7","","49","","29","","35","","19.3","","98.58","","25","","","","Mainly Clear"
"1963-10-07 17:00","1963","10","07","17:00","20.6","","11.7","","57","","29","","29","","19.3","","98.64","","","","","","Mainly Clear"
"1963-10-07 18:00","1963","10","07","18:00","16.1","","10.6","","71","","32","","24","","16.1","","98.75","","","","","","Mainly Clear"
"1963-10-07 19:00","1963","10","07","19:00","14.4","","11.1","","81","","32","","23","","19.3","","98.83","","","","","","Mainly Clear"
"1963-10-07 20:00","1963","10","07","20:00","13.3","","9.4","","78","","32","","29","","19.3","","98.90","","","","","","Mainly Clear"
"1963-10-07 21:00","1963","10","07","21:00","13.3","","8.3","","71","","32","","24","","24.1","","99.00","","","","","","Mostly Cloudy"
"1963-10-07 22:00","1963","10","07","22:00","12.8","","7.8","","72","","32","","19","","24.1","","99.02","","","","","","Mostly Cloudy"
"1963-10-07 23:00","1963","10","07","23:00","12.2","","6.7","","70","","32","","24","","24.1","","99.09","","","","","","Cloudy"
"1963-10-08 00:00","1963","10","08","00:00","11.7","","7.2","","73","","32","","19","","25.0","","99.13","","","","","","Mostly Cloudy"
"1963-10-08 01:00","1963","10","08","01:00","11.1","","7.2","","76","","29","","14","","25.0","","99.18","","","","","","Mostly Cloudy"
"1963-10-08 02:00","1963","10","08","02:00","9.4","","6.1","","80","","27","","16","","25.0","","99.21","","","","","","Mainly Clear"
"1963-10-08 03:00","1963","10","08","03:00","8.3","","5.0","","79","","27","","10","","25.0","","99.20","","","","","","Clear"
"1963-10-08 04:00","1963","10","08","04:00","7.8","","5.6","","85","","27","","10","","25.0","","99.27","","","","","","Clear"
"1963-10-08 05:00","1963","10","08","05:00","7.2","","5.0","","85","","29","","13","","25.0","","99.28","","","","","","Clear"
"1963-10-08 06:00","1963","10","08","06:00","7.2","","5.0","","85","","29","","13","","25.0","","99.34","","","","","","Clear"
"1963-10-08 07:00","1963","10","08","07:00","7.2","","5.0","","85","","29","","14","","25.0","","99.38","","","","","","Mainly Clear"
"1963-10-08 08:00","1963","10","08","08:00","10.0","","6.1","","77","","29","","14","","25.0","","99.46","","","","","","Clear"
"1963-10-08 09:00","1963","10","08","09:00","12.8","","5.6","","62","","32","","19","","25.0","","99.47","","","","","","Mainly Clear"
"1963-10-08 10:00","1963","10","08","10:00","13.9","","6.1","","59","","32","","19","","25.0","","99.47","","","","","","Mainly Clear"
"1963-10-08 11:00","1963","10","08","11:00","15.0","","4.4","","50","","29","","19","","25.0","","99.45","","","","","","Mainly Clear"
"1963-10-08 12:00","1963","10","08","12:00","15.6","","3.9","","45","","29","","18","","25.0","","99.44","","","","","","Mostly Cloudy"
"1963-10-08 13:00","1963","10","08","13:00","16.1","","3.3","","43","","32","","27","","25.0","","99.44","","","","","","Mostly Cloudy"
"1963-10-08 14:00","1963","10","08","14:00","15.6","","3.3","","44","","32","","18","","25.0","","99.41","","","","","","Mostly Cloudy"
"1963-10-08 15:00","1963","10","08","15:00","15.6","","3.3","","44","","34","","16","","25.0","","99.39","","","","","","Mostly Cloudy"
"1963-10-08 16:00","1963","10","08","16:00","14.4","","3.9","","49","","34","","11","","25.0","","99.42","","","","","","Mostly Cloudy"
"1963-10-08 17:00","1963","10","08","17:00","14.4","","4.4","","51","","5","","10","","25.0","","99.44","","","","","","Mainly Clear"
"1963-10-08 18:00","1963","10","08","18:00","13.3","","5.0","","57","","36","","10","","25.0","","99.55","","","","","","Mostly Cloudy"
"1963-10-08 19:00","1963","10","08","19:00","12.2","","4.4","","60","","36","","5","","25.0","","99.62","","","","","","Mostly Cloudy"
"1963-10-08 20:00","1963","10","08","20:00","11.1","","3.9","","62","","34","","6","","25.0","","99.66","","","","","","Mostly Cloudy"
"1963-10-08 21:00","1963","10","08","21:00","10.6","","4.4","","65","","","","0","","25.0","","99.68","","","","","","Mainly Clear"
"1963-10-08 22:00","1963","10","08","22:00","8.9","","4.4","","74","","","","0","","25.0","","99.70","","","","","","Mostly Cloudy"
"1963-10-08 23:00","1963","10","08","23:00","8.9","","5.0","","76","","","","0","","25.0","","99.72","","","","","","Mainly Clear"
"1963-10-09 00:00","1963","10","09","00:00","8.9","","5.0","","76","","","","0","","24.1","","99.71","","","","","","Mostly Cloudy"
"1963-10-09 01:00","1963","10","09","01:00","7.2","","4.4","","83","","2","","6","","24.1","","99.73","","","","","","Mostly Cloudy"
"1963-10-09 02:00","1963","10","09","02:00","6.1","","3.9","","84","","2","","5","","24.1","","99.73","","","","","","Mainly Clear"
"1963-10-09 03:00","1963","10","09","03:00","6.1","","3.9","","84","","29","","6","","24.1","","99.79","","","","","","Mostly Cloudy"
"1963-10-09 04:00","1963","10","09","04:00","6.1","","3.9","","84","","","","0","","24.1","","99.84","","","","","","Mainly Clear"
"1963-10-09 05:00","1963","10","09","05:00","6.1","","3.9","","84","","34","","5","","24.1","","99.93","","","","","","Mostly Cloudy"
"1963-10-09 06:00","1963","10","09","06:00","5.0","","2.2","","83","","36","","3","","24.1","","100.00","","","","","","Mostly Cloudy"
"1963-10-09 07:00","1963","10","09","07:00","5.0","","2.8","","86","","5","","8","","19.3","","100.06","","","","","","Mainly Clear"
"1963-10-09 08:00","1963","10","09","08:00","9.4","","5.0","","74","","","","0","","9.7","","100.09","","","","","","Haze"
"1963-10-09 09:00","1963","10","09","09:00","11.1","","6.1","","72","","","","0","","4.0","","100.14","","","","","","Smoke,Haze"
"1963-10-09 10:00","1963","10","09","10:00","14.4","","7.2","","63","","16","","13","","12.9","","100.08","","","","","","Mostly Cloudy"
"1963-10-09 11:00","1963","10","09","11:00","15.6","","7.2","","58","","18","","13","","12.9","","100.10","","","","","","Mostly Cloudy"
"1963-10-09 12:00","1963","10","09","12:00","16.7","","8.3","","58","","14","","16","","12.9","","100.08","","","","","","Mainly Clear"
"1963-10-09 13:00","1963","10","09","13:00","17.8","","8.9","","56","","14","","16","","16.1","","100.02","","","","","","Mainly Clear"
"1963-10-09 14:00","1963","10","09","14:00","17.8","","8.9","","56","","14","","16","","9.7","","99.99","","","","","","Haze"
"1963-10-09 15:00","1963","10","09","15:00","17.2","","8.9","","59","","14","","19","","9.7","","99.94","","","","","","Haze"
"1963-10-09 16:00","1963","10","09","16:00","17.2","","9.4","","60","","14","","16","","12.9","","99.94","","","","","","Mainly Clear"
"1963-10-09 17:00","1963","10","09","17:00","15.6","","9.4","","67","","14","","11","","12.9","","99.97","","","","","","Mainly Clear"
"1963-10-09 18:00","1963","10","09","18:00","14.4","","8.9","","70","","9","","5","","9.7","","99.97","","","","","","Haze"
"1963-10-09 19:00","1963","10","09","19:00","13.3","","9.4","","76","","7","","6","","9.7","","100.00","","","","","","Haze"
"1963-10-09 20:00","1963","10","09","20:00","10.6","","7.2","","79","","34","","6","","9.7","","100.00","","","","","","Haze"
"1963-10-09 21:00","1963","10","09","21:00","10.0","","7.2","","84","","34","","8","","9.7","","100.05","","","","","","Haze"
"1963-10-09 22:00","1963","10","09","22:00","9.4","","7.2","","86","","34","","8","","12.9","","100.08","","","","","","Clear"
"1963-10-09 23:00","1963","10","09","23:00","8.3","","6.1","","85","","32","","8","","12.9","","100.06","","","","","","Clear"
"1963-10-10 00:00","1963","10","10","00:00","7.8","","6.1","","89","","32","","3","","9.7","","100.07","","","","","","Fog"
"1963-10-10 01:00","1963","10","10","01:00","6.1","","5.0","","91","","34","","3","","8.0","","100.10","","","","","","Fog"
"1963-10-10 02:00","1963","10","10","02:00","6.1","","5.0","","91","","","","0","","6.4","","100.09","","","","","","Fog"
"1963-10-10 03:00","1963","10","10","03:00","5.0","","3.9","","93","","","","0","","4.8","","100.08","","","","","","Fog"
"1963-10-10 04:00","1963","10","10","04:00","5.0","","3.9","","93","","","","0","","2.4","","100.11","","","","","","Fog"
"1963-10-10 05:00","1963","10","10","05:00","4.4","","3.9","","95","","","","0","","2.4","","100.15","","","","","","Fog"
"1963-10-10 06:00","1963","10","10","06:00","3.3","","2.8","","95","","","","0","","2.0","","100.18","","","","","","Fog"
"1963-10-10 07:00","1963","10","10","07:00","3.9","","2.8","","93","","","","0","","2.0","","100.19","","","","","","Fog"
"1963-10-10 08:00","1963","10","10","08:00","7.8","","6.1","","89","","","","0","","2.4","","100.23","","","","","","Fog,Smoke"
"1963-10-10 09:00","1963","10","10","09:00","12.8","","10.0","","82","","16","","5","","4.0","","100.24","","","","","","Smoke,Haze"
"1963-10-10 10:00","1963","10","10","10:00","16.7","","11.1","","69","","18","","6","","9.7","","100.21","","","","","","Haze"
"1963-10-10 11:00","1963","10","10","11:00","20.0","","9.4","","50","","18","","8","","12.9","","100.15","","","","","","Mainly Clear"
"1963-10-10 12:00","1963","10","10","12:00","21.7","","11.7","","52","","16","","13","","16.1","","100.12","","","","","","Mainly Clear"
"1963-10-10 13:00","1963","10","10","13:00","21.7","","10.6","","49","","11","","13","","12.9","","100.03","","","","","","Mainly Clear"
"1963-10-10 14:00","1963","10","10","14:00","22.8","","7.2","","36","","23","","11","","16.1","","99.93","","","","","","Mainly Clear"
"1963-10-10 15:00","1963","10","10","15:00","23.3","","7.8","","37","","25","","14","","16.1","","99.88","","","","","","Mostly Cloudy"
"1963-10-10 16:00","1963","10","10","16:00","23.9","","7.2","","34","","23","","10","","19.3","","99.85","","","","","","Mostly Cloudy"
"1963-10-10 17:00","1963","10","10","17:00","21.7","","9.4","","46","","18","","10","","19.3","","99.81","","","","","","Mostly Cloudy"
"1963-10-10 18:00","1963","10","10","18:00","18.3","","10.0","","58","","18","","16","","12.9","","99.79","","","","","","Mainly Clear"
"1963-10-10 19:00","1963","10","10","19:00","17.2","","10.6","","64","","20","","11","","12.9","","99.78","","","","","","Mainly Clear"
"1963-10-10 20:00","1963","10","10","20:00","17.2","","9.4","","60","","23","","14","","12.9","","99.78","","","","","","Mostly Cloudy"
"1963-10-10 21:00","1963","10","10","21:00","16.7","","8.9","","60","","25","","14","","19.3","","99.76","","","","","","Cloudy"
"1963-10-10 22:00","1963","10","10","22:00","15.6","","7.8","","59","","25","","11","","19.3","","99.73","","","","","","Cloudy"
"1963-10-10 23:00","1963","10","10","23:00","15.6","","6.7","","55","","25","","11","","19.3","","99.69","","","","","","Mainly Clear"
"1963-10-11 00:00","1963","10","11","00:00","13.3","","6.1","","61","","25","","13","","19.3","","99.62","","","","","","Mainly Clear"
"1963-10-11 01:00","1963","10","11","01:00","15.0","","6.7","","57","","27","","13","","24.1","","99.58","","","","","","Mostly Cloudy"
"1963-10-11 02:00","1963","10","11","02:00","15.6","","6.1","","54","","18","","8","","24.1","","99.53","","","","","","Cloudy"
"1963-10-11 03:00","1963","10","11","03:00","13.3","","6.1","","61","","20","","10","","24.1","","99.46","","","","","","Clear"
"1963-10-11 04:00","1963","10","11","04:00","13.9","","6.7","","62","","20","","6","","24.1","","99.38","","","","","","Clear"
"1963-10-11 05:00","1963","10","11","05:00","12.8","","6.1","","64","","18","","8","","19.3","","99.37","","","","","","Mainly Clear"
"1963-10-11 06:00","1963","10","11","06:00","12.2","","6.1","","67","","","","0","","19.3","","99.35","","","","","","Mostly Cloudy"
"1963-10-11 07:00","1963","10","11","07:00","11.7","","6.1","","69","","36","","14","","9.7","","99.39","","","","","","Haze"
"1963-10-11 08:00","1963","10","11","08:00","13.3","","6.7","","63","","","","0","","12.9","","99.39","","","","","","Cloudy"
"1963-10-11 09:00","1963","10","11","09:00","15.0","","8.3","","63","","36","","5","","16.1","","99.42","","","","","","Cloudy"
"1963-10-11 10:00","1963","10","11","10:00","16.7","","10.0","","64","","34","","6","","16.1","","99.39","","","","","","Mostly Cloudy"
"1963-10-11 11:00","1963","10","11","11:00","17.8","","11.7","","66","","36","","6","","19.3","","99.38","","","","","","Mostly Cloudy"
"1963-10-11 12:00","1963","10","11","12:00","19.4","","11.1","","59","","5","","6","","19.3","","99.33","","","","","","Mainly Clear"
"1963-10-11 13:00","1963","10","11","13:00","20.0","","12.2","","60","","2","","23","","19.3","","99.32","","","","","","Mainly Clear"
"1963-10-11 14:00","1963","10","11","14:00","19.4","","12.8","","64","","36","","24","","19.3","","99.31","","","","","","Mainly Clear"
"1963-10-11 15:00","1963","10","11","15:00","18.3","","11.1","","62","","36","","16","","19.3","","99.34","","","","","","Mainly Clear"
"1963-10-11 16:00","1963","10","11","16:00","17.8","","10.0","","61","","36","","26","","24.1","","99.39","","","","","","Mainly Clear"
"1963-10-11 17:00","1963","10","11","17:00","16.1","","9.4","","65","","34","","24","","25.0","","99.43","","","","","","Mainly Clear"
"1963-10-11 18:00","1963","10","11","18:00","15.0","","8.9","","68","","36","","23","","25.0","","99.50","","","","","","Mainly Clear"
"1963-10-11 19:00","1963","10","11","19:00","13.3","","8.3","","73","","32","","21","","25.0","","99.59","","","","","","Mainly Clear"
"1963-10-11 20:00","1963","10","11","20:00","11.7","","7.2","","75","","34","","16","","25.0","","99.63","","","","","","Mainly Clear"
"1963-10-11 21:00","1963","10","11","21:00","10.6","","6.7","","77","","36","","18","","25.0","","99.68","","","","","","Clear"
"1963-10-11 22:00","1963","10","11","22:00","10.0","","6.7","","79","","36","","21","","25.0","","99.72","","","","","","Clear"
"1963-10-11 23:00","1963","10","11","23:00","9.4","","6.1","","80","","36","","23","","25.0","","99.78","","","","","","Clear"
"1963-10-12 00:00","1963","10","12","00:00","9.4","","6.1","","80","","36","","19","","25.0","","99.81","","","","","","Clear"
"1963-10-12 01:00","1963","10","12","01:00","9.4","","6.1","","78","","36","","18","","25.0","","99.85","","","","","","Clear"
"1963-10-12 02:00","1963","10","12","02:00","8.9","","5.6","","80","","34","","24","","25.0","","99.86","","","","","","Clear"
"1963-10-12 03:00","1963","10","12","03:00","7.8","","5.6","","85","","34","","16","","25.0","","99.90","","","","","","Clear"
"1963-10-12 04:00","1963","10","12","04:00","6.7","","4.4","","85","","34","","13","","25.0","","99.96","","","","","","Clear"
"1963-10-12 05:00","1963","10","12","05:00","5.6","","3.9","","88","","34","","11","","25.0","","100.01","","","","","","Clear"
"1963-10-12 06:00","1963","10","12","06:00","5.6","","3.9","","88","","34","","8","","25.0","","100.06","","","","","","Mainly Clear"
"1963-10-12 07:00","1963","10","12","07:00","5.6","","3.9","","91","","36","","8","","25.0","","100.12","","","","","","Mainly Clear"
"1963-10-12 08:00","1963","10","12","08:00","7.8","","5.0","","83","","36","","13","","25.0","","100.21","","","","","","Mainly Clear"
"1963-10-12 09:00","1963","10","12","09:00","10.0","","5.6","","75","","36","","23","","25.0","","100.26","","","","","","Mainly Clear"
"1963-10-12 10:00","1963","10","12","10:00","10.0","","5.0","","71","","36","","26","","25.0","","100.27","","","","","","Mainly Clear"
"1963-10-12 11:00","1963","10","12","11:00","11.1","","5.0","","65","","36","","26","","25.0","","100.30","","","","","","Mainly Clear"
"1963-10-12 12:00","1963","10","12","12:00","12.8","","4.4","","56","","32","","16","","25.0","","100.30","","","","","","Mainly Clear"
"1963-10-12 13:00","1963","10","12","13:00","12.2","","2.8","","53","","36","","26","","25.0","","100.28","","","","","","Mainly Clear"
"1963-10-12 14:00","1963","10","12","14:00","12.8","","2.8","","51","","36","","16","","25.0","","100.29","","","","","","Mainly Clear"
"1963-10-12 15:00","1963","10","12","15:00","13.3","","2.8","","49","","34","","23","","25.0","","100.26","","","","","","Mainly Clear"
"1963-10-12 16:00","1963","10","12","16:00","12.2","","2.8","","52","","34","","23","","25.0","","100.28","","","","","","Mainly Clear"
"1963-10-12 17:00","1963","10","12","17:00","11.7","","2.8","","54","","34","","16","","25.0","","100.30","","","","","","Mainly Clear"
"1963-10-12 18:00","1963","10","12","18:00","10.0","","2.8","","60","","34","","11","","25.0","","100.35","","","","","","Mainly Clear"
"1963-10-12 19:00","1963","10","12","19:00","9.4","","3.3","","65","","36","","11","","25.0","","100.43","","","","","","Mainly Clear"
"1963-10-12 20:00","1963","10","12","20:00","7.8","","3.3","","73","","34","","8","","25.0","","100.43","","","","","","Mainly Clear"
"1963-10-12 21:00","1963","10","12","21:00","6.7","","2.8","","76","","32","","8","","25.0","","100.47","","","","","","Clear"
"1963-10-12 22:00","1963","10","12","22:00","5.0","","2.8","","86","","34","","5","","25.0","","100.52","","","","","","Clear"
"1963-10-12 23:00","1963","10","12","23:00","3.9","","1.7","","85","","32","","5","","25.0","","100.52","","","","","","Clear"
"1963-10-13 00:00","1963","10","13","00:00","3.3","","1.7","","87","","36","","10","","25.0","","100.51","","","","","","Clear"
"1963-10-13 01:00","1963","10","13","01:00","2.8","","0.6","","87","","","","0","","25.0","","100.54","","","","","","Clear"
"1963-10-13 02:00","1963","10","13","02:00","1.1","","-1.1","","86","","27","","6","","25.0","","100.60","","","","","","Clear"
"1963-10-13 03:00","1963","10","13","03:00","1.7","","0.0","","89","","25","","10","","25.0","","100.61","","","","","","Clear"
"1963-10-13 04:00","1963","10","13","04:00","2.8","","1.1","","90","","29","","10","","25.0","","100.64","","","","","","Clear"
"1963-10-13 05:00","1963","10","13","05:00","2.2","","0.0","","87","","27","","6","","25.0","","100.68","","","","","","Clear"
"1963-10-13 06:00","1963","10","13","06:00","2.2","","0.0","","87","","","","0","","25.0","","100.73","","","","","","Mainly Clear"
"1963-10-13 07:00","1963","10","13","07:00","1.7","","0.6","","92","","","","0","","25.0","","100.78","","","","","","Mainly Clear"
"1963-10-13 08:00","1963","10","13","08:00","3.9","","1.7","","85","","","","0","","25.0","","100.83","","","","","","Mainly Clear"
"1963-10-13 09:00","1963","10","13","09:00","11.1","","6.1","","70","","23","","6","","25.0","","100.85","","","","","","Mainly Clear"
"1963-10-13 10:00","1963","10","13","10:00","13.9","","3.9","","51","","23","","11","","25.0","","100.83","","","","","","Mainly Clear"
"1963-10-13 11:00","1963","10","13","11:00","15.6","","3.3","","44","","25","","14","","25.0","","100.81","","","","","","Mainly Clear"
"1963-10-13 12:00","1963","10","13","12:00","16.7","","3.3","","40","","25","","11","","25.0","","100.76","","","","","","Mainly Clear"
"1963-10-13 13:00","1963","10","13","13:00","17.8","","3.9","","40","","29","","6","","25.0","","100.68","","","","","","Mainly Clear"
"1963-10-13 14:00","1963","10","13","14:00","18.9","","3.9","","37","","27","","6","","25.0","","100.60","","","","","","Mainly Clear"
"1963-10-13 15:00","1963","10","13","15:00","20.0","","5.0","","38","","27","","11","","25.0","","100.57","","","","","","Mainly Clear"
"1963-10-13 16:00","1963","10","13","16:00","19.4","","2.2","","32","","27","","13","","25.0","","100.51","","","","","","Mainly Clear"
"1963-10-13 17:00","1963","10","13","17:00","18.9","","3.9","","37","","25","","16","","25.0","","100.50","","","","","","Mainly Clear"
"1963-10-13 18:00","1963","10","13","18:00","16.1","","2.8","","41","","25","","11","","25.0","","100.55","","","","","","Mainly Clear"
"1963-10-13 19:00","1963","10","13","19:00","14.4","","3.3","","46","","27","","11","","25.0","","100.56","","","","","","Mainly Clear"
"1963-10-13 20:00","1963","10","13","20:00","11.1","","2.8","","57","","23","","10","","25.0","","100.58","","","","","","Clear"
"1963-10-13 21:00","1963","10","13","21:00","11.1","","3.3","","58","","27","","8","","25.0","","100.60","","","","","","Clear"
"1963-10-13 22:00","1963","10","13","22:00","7.8","","2.2","","69","","23","","11","","25.0","","100.59","","","","","","Clear"
"1963-10-13 23:00","1963","10","13","23:00","7.2","","2.2","","70","","23","","13","","25.0","","100.58","","","","","","Clear"
"1963-10-14 00:00","1963","10","14","00:00","8.9","","2.8","","64","","23","","10","","25.0","","100.56","","","","","","Clear"
"1963-10-14 01:00","1963","10","14","01:00","7.8","","2.2","","67","","23","","13","","25.0","","100.55","","","","","","Clear"
"1963-10-14 02:00","1963","10","14","02:00","8.3","","3.3","","71","","23","","11","","25.0","","100.58","","","","","","Clear"
"1963-10-14 03:00","1963","10","14","03:00","7.8","","3.3","","73","","23","","6","","25.0","","100.57","","","","","","Clear"
"1963-10-14 04:00","1963","10","14","04:00","6.1","","2.2","","75","","23","","11","","25.0","","100.57","","","","","","Clear"
"1963-10-14 05:00","1963","10","14","05:00","5.6","","2.2","","79","","","","0","","25.0","","100.60","","","","","","Clear"
"1963-10-14 06:00","1963","10","14","06:00","4.4","","1.1","","78","","23","","3","","19.3","","100.64","","","","","","Mainly Clear"
"1963-10-14 07:00","1963","10","14","07:00","3.9","","1.1","","83","","32","","6","","16.1","","100.67","","","","","","Mainly Clear"
"1963-10-14 08:00","1963","10","14","08:00","8.9","","4.4","","74","","27","","11","","19.3","","100.69","","","","","","Mainly Clear"
"1963-10-14 09:00","1963","10","14","09:00","13.3","","6.1","","61","","25","","6","","19.3","","100.70","","","","","","Mainly Clear"
"1963-10-14 10:00","1963","10","14","10:00","17.2","","7.8","","53","","25","","13","","19.3","","100.68","","","","","","Mainly Clear"
"1963-10-14 11:00","1963","10","14","11:00","19.4","","4.4","","37","","27","","3","","24.1","","100.67","","","","","","Mainly Clear"
"1963-10-14 12:00","1963","10","14","12:00","21.1","","0.6","","26","","25","","13","","25.0","","100.63","","","","","","Mainly Clear"
"1963-10-14 13:00","1963","10","14","13:00","22.2","","0.0","","22","","25","","19","","25.0","","100.54","","","","","","Mainly Clear"
"1963-10-14 14:00","1963","10","14","14:00","22.8","","0.0","","22","","27","","16","","25.0","","100.46","","","","","","Clear"
"1963-10-14 15:00","1963","10","14","15:00","22.8","","1.1","","23","","25","","23","","24.1","","100.43","","","","","","Clear"
"1963-10-14 16:00","1963","10","14","16:00","22.8","","1.1","","23","","27","","18","","25.0","","100.43","","","","","","Clear"
"1963-10-14 17:00","1963","10","14","17:00","21.1","","1.1","","27","","27","","11","","25.0","","100.42","","","","","","Clear"
"1963-10-14 18:00","1963","10","14","18:00","17.8","","2.2","","36","","25","","11","","25.0","","100.46","","","","","","Clear"
"1963-10-14 19:00","1963","10","14","19:00","16.7","","2.2","","38","","27","","14","","25.0","","100.48","","","","","","Clear"
"1963-10-14 20:00","1963","10","14","20:00","15.0","","1.7","","40","","27","","10","","25.0","","100.51","","","","","","Clear"
"1963-10-14 21:00","1963","10","14","21:00","13.9","","1.7","","44","","23","","6","","25.0","","100.52","","","","","","Clear"
"1963-10-14 22:00","1963","10","14","22:00","12.8","","2.2","","48","","29","","11","","25.0","","100.49","","","","","","Clear"
"1963-10-14 23:00","1963","10","14","23:00","10.0","","1.1","","55","","23","","6","","25.0","","100.48","","","","","","Clear"
"1963-10-15 00:00","1963","10","15","00:00","11.1","","2.2","","53","","","","0","","25.0","","100.48","","","","","","Clear"
"1963-10-15 01:00","1963","10","15","01:00","7.8","","2.2","","69","","23","","6","","25.0","","100.47","","","","","","Clear"
"1963-10-15 02:00","1963","10","15","02:00","7.8","","1.7","","65","","","","0","","25.0","","100.47","","","","","","Clear"
"1963-10-15 03:00","1963","10","15","03:00","6.7","","0.0","","63","","20","","8","","25.0","","100.45","","","","","","Clear"
"1963-10-15 04:00","1963","10","15","04:00","6.7","","0.0","","63","","23","","10","","25.0","","100.47","","","","","","Clear"
"1963-10-15 05:00","1963","10","15","05:00","6.1","","0.6","","67","","25","","10","","25.0","","100.48","","","","","","Clear"
"1963-10-15 06:00","1963","10","15","06:00","6.7","","0.0","","63","","25","","5","","16.1","","100.53","","","","","","Mainly Clear"
"1963-10-15 07:00","1963","10","15","07:00","5.6","","1.7","","75","","","","0","","12.9","","100.56","","","","","","Mainly Clear"
"1963-10-15 08:00","1963","10","15","08:00","8.3","","1.7","","64","","23","","3","","6.4","","100.62","","","","","","Haze"
"1963-10-15 09:00","1963","10","15","09:00","13.3","","2.2","","47","","18","","5","","4.8","","100.60","","","","","","Haze"
"1963-10-15 10:00","1963","10","15","10:00","18.9","","2.8","","34","","25","","6","","8.0","","100.55","","","","","","Haze"
"1963-10-15 11:00","1963","10","15","11:00","21.1","","1.1","","27","","27","","16","","11.3","","100.52","","","","","","Mainly Clear"
"1963-10-15 12:00","1963","10","15","12:00","23.3","","1.7","","24","","23","","6","","12.9","","100.46","","","","","","Mainly Clear"
"1963-10-15 13:00","1963","10","15","13:00","23.9","","0.6","","22","","25","","13","","16.1","","100.39","","","","","","Mainly Clear"
"1963-10-15 14:00","1963","10","15","14:00","23.9","","0.6","","22","","27","","16","","19.3","","100.32","","","","","","Mainly Clear"
"1963-10-15 15:00","1963","10","15","15:00","24.4","","-0.6","","19","","25","","16","","19.3","","100.28","","","","","","Mainly Clear"
"1963-10-15 16:00","1963","10","15","16:00","23.9","","0.6","","22","","27","","16","","19.3","","100.22","","","","","","Mainly Clear"
"1963-10-15 17:00","1963","10","15","17:00","21.7","","2.2","","28","","25","","13","","19.3","","100.21","","","","","","Mostly Cloudy"
"1963-10-15 18:00","1963","10","15","18:00","18.9","","2.2","","33","","25","","8","","19.3","","100.21","","","","","","Mainly Clear"
"1963-10-15 19:00","1963","10","15","19:00","16.7","","2.2","","38","","27","","8","","19.3","","100.22","","","","","","Mainly Clear"
"1963-10-15 20:00","1963","10","15","20:00","15.0","","2.2","","42","","27","","10","","19.3","","100.23","","","","","","Mainly Clear"
"1963-10-15 21:00","1963","10","15","21:00","12.8","","2.2","","48","","27","","8","","19.3","","100.23","","","","","","Mainly Clear"
"1963-10-15 22:00","1963","10","15","22:00","9.4","","2.2","","60","","","","0","","24.1","","100.25","","","","","","Clear"
"1963-10-15 23:00","1963","10","15","23:00","10.6","","1.1","","52","","","","0","","24.1","","100.23","","","","","","Clear"
"1963-10-16 00:00","1963","10","16","00:00","8.3","","1.1","","60","","23","","6","","24.1","","100.21","","","","","","Clear"
"1963-10-16 01:00","1963","10","16","01:00","7.2","","1.1","","64","","34","","5","","24.1","","100.22","","","","","","Clear"
"1963-10-16 02:00","1963","10","16","02:00","6.1","","0.0","","65","","32","","5","","24.1","","100.18","","","","","","Clear"
"1963-10-16 03:00","1963","10","16","03:00","5.6","","0.0","","68","","27","","5","","24.1","","100.17","","","","","","Clear"
"1963-10-16 04:00","1963","10","16","04:00","5.0","","-0.6","","67","","23","","5","","24.1","","100.17","","","","","","Clear"
"1963-10-16 05:00","1963","10","16","05:00","4.4","","-0.6","","69","","29","","6","","24.1","","100.17","","","","","","Clear"
"1963-10-16 06:00","1963","10","16","06:00","3.9","","-0.6","","73","","34","","5","","16.1","","100.19","","","","","","Mainly Clear"
"1963-10-16 07:00","1963","10","16","07:00","5.0","","0.0","","70","","29","","5","","6.4","","100.18","","","","","","Haze"
"1963-10-16 08:00","1963","10","16","08:00","8.9","","2.8","","66","","36","","5","","6.4","","100.23","","","","","","Haze"
"1963-10-16 09:00","1963","10","16","09:00","13.3","","2.8","","49","","","","0","","6.4","","100.25","","","","","","Haze"
"1963-10-16 10:00","1963","10","16","10:00","20.0","","0.6","","28","","23","","11","","6.4","","100.23","","","","","","Haze"
"1963-10-16 11:00","1963","10","16","11:00","23.3","","1.7","","24","","23","","8","","6.4","","100.19","","","","","","Haze"
"1963-10-16 12:00","1963","10","16","12:00","24.4","","3.3","","25","","25","","14","","6.4","","100.13","","","","","","Haze"
"1963-10-16 13:00","1963","10","16","13:00","25.6","","2.8","","22","","25","","13","","8.0","","100.07","","","","","","Haze"
"1963-10-16 14:00","1963","10","16","14:00","26.1","","1.7","","20","","25","","14","","8.0","","100.02","","","","","","Haze"
"1963-10-16 15:00","1963","10","16","15:00","26.7","","1.7","","20","","27","","8","","8.0","","99.99","","25","","","","Haze"
"1963-10-16 16:00","1963","10","16","16:00","26.1","","1.7","","20","","27","","8","","8.0","","99.96","","","","","","Haze"
"1963-10-16 17:00","1963","10","16","17:00","23.3","","5.6","","32","","","","0","","4.8","","99.95","","","","","","Haze"
"1963-10-16 18:00","1963","10","16","18:00","21.1","","6.7","","39","","16","","6","","4.8","","99.96","","","","","","Haze"
"1963-10-16 19:00","1963","10","16","19:00","18.9","","7.2","","47","","","","0","","9.7","","99.96","","","","","","Haze"
"1963-10-16 20:00","1963","10","16","20:00","17.2","","7.8","","53","","34","","6","","9.7","","99.97","","","","","","Haze"
"1963-10-16 21:00","1963","10","16","21:00","14.4","","5.0","","52","","27","","8","","16.1","","100.01","","","","","","Clear"
"1963-10-16 22:00","1963","10","16","22:00","15.6","","4.4","","47","","27","","10","","19.3","","100.01","","","","","","Mostly Cloudy"
"1963-10-16 23:00","1963","10","16","23:00","16.1","","3.9","","44","","27","","6","","19.3","","100.01","","","","","","Mostly Cloudy"
"1963-10-17 00:00","1963","10","17","00:00","15.6","","5.6","","51","","32","","6","","16.1","","100.01","","","","","","Cloudy"
"1963-10-17 01:00","1963","10","17","01:00","15.0","","6.1","","54","","27","","5","","12.9","","100.00","","","","","","Cloudy"
"1963-10-17 02:00","1963","10","17","02:00","15.0","","6.7","","57","","27","","8","","12.9","","100.02","","","","","","Cloudy"
"1963-10-17 03:00","1963","10","17","03:00","15.6","","6.7","","55","","","","0","","16.1","","100.02","","","","","","Cloudy"
"1963-10-17 04:00","1963","10","17","04:00","15.0","","8.3","","63","","36","","6","","12.9","","100.02","","","","","","Mostly Cloudy"
"1963-10-17 05:00","1963","10","17","05:00","14.4","","7.2","","63","","","","0","","16.1","","100.04","","","","","","Mostly Cloudy"
"1963-10-17 06:00","1963","10","17","06:00","15.6","","7.2","","58","","27","","5","","16.1","","100.10","","","","","","Mostly Cloudy"
"1963-10-17 07:00","1963","10","17","07:00","15.0","","8.3","","65","","27","","6","","6.4","","100.15","","","","","","Haze"
"1963-10-17 08:00","1963","10","17","08:00","16.7","","8.3","","58","","14","","3","","8.0","","100.17","","","","","","Haze"
"1963-10-17 09:00","1963","10","17","09:00","17.8","","8.3","","54","","27","","3","","8.0","","100.21","","","","","","Haze"
"1963-10-17 10:00","1963","10","17","10:00","20.0","","8.3","","47","","27","","5","","9.7","","100.21","","","","","","Haze"
"1963-10-17 11:00","1963","10","17","11:00","23.3","","6.1","","33","","18","","5","","11.3","","100.21","","","","","","Mostly Cloudy"
"1963-10-17 12:00","1963","10","17","12:00","23.9","","7.2","","34","","","","0","","11.3","","100.19","","","","","","Mostly Cloudy"
"1963-10-17 13:00","1963","10","17","13:00","25.6","","8.9","","35","","16","","8","","3.2","","100.13","","26","","","","Haze"
"1963-10-17 14:00","1963","10","17","14:00","26.1","","10.0","","36","","16","","11","","6.4","","100.09","","27","","","","Haze"
"1963-10-17 15:00","1963","10","17","15:00","25.6","","8.3","","34","","16","","14","","4.8","","100.06","","26","","","","Haze"
"1963-10-17 16:00","1963","10","17","16:00","25.0","","7.8","","33","","16","","14","","4.8","","100.02","","25","","","","Haze"
"1963-10-17 17:00","1963","10","17","17:00","21.7","","6.7","","37","","18","","14","","4.8","","100.02","","","","","","Haze"
"1963-10-17 18:00","1963","10","17","18:00","18.9","","7.2","","47","","16","","13","","4.8","","100.04","","","","","","Haze"
"1963-10-17 19:00","1963","10","17","19:00","18.9","","6.1","","44","","18","","10","","4.8","","100.07","","","","","","Haze"
"1963-10-17 20:00","1963","10","17","20:00","16.1","","6.7","","54","","","","0","","6.4","","100.10","","","","","","Haze"
"1963-10-17 21:00","1963","10","17","21:00","15.0","","6.7","","57","","","","0","","6.4","","100.12","","","","","","Haze"
"1963-10-17 22:00","1963","10","17","22:00","13.9","","6.7","","62","","36","","3","","8.0","","100.12","","","","","","Haze"
"1963-10-17 23:00","1963","10","17","23:00","13.9","","7.2","","64","","36","","5","","8.0","","100.12","","","","","","Haze"
"1963-10-18 00:00","1963","10","18","00:00","12.8","","6.7","","65","","36","","3","","6.4","","100.12","","","","","","Haze"
"1963-10-18 01:00","1963","10","18","01:00","12.8","","7.8","","70","","","","0","","6.4","","100.15","","","","","","Haze"
"1963-10-18 02:00","1963","10","18","02:00","12.8","","6.7","","65","","","","0","","6.4","","100.15","","","","","","Haze"
"1963-10-18 03:00","1963","10","18","03:00","11.1","","6.7","","74","","","","0","","6.4","","100.18","","","","","","Haze"
"1963-10-18 04:00","1963","10","18","04:00","11.1","","7.2","","76","","32","","3","","4.8","","100.22","","","","","","Haze"
"1963-10-18 05:00","1963","10","18","05:00","10.6","","6.7","","75","","","","0","","6.4","","100.26","","","","","","Haze"
"1963-10-18 06:00","1963","10","18","06:00","10.0","","7.2","","82","","34","","5","","4.0","","100.28","","","","","","Haze"
"1963-10-18 07:00","1963","10","18","07:00","10.0","","7.2","","84","","14","","8","","2.0","","100.31","","","","","","Haze"
"1963-10-18 08:00","1963","10","18","08:00","11.7","","8.9","","83","","18","","3","","2.0","","100.36","","","","","","Haze"
"1963-10-18 09:00","1963","10","18","09:00","16.1","","11.1","","73","","20","","6","","2.8","","100.40","","","","","","Smoke,Haze"
"1963-10-18 10:00","1963","10","18","10:00","21.1","","8.9","","45","","20","","10","","11.3","","100.40","","","","","","Mainly Clear"
"1963-10-18 11:00","1963","10","18","11:00","23.9","","8.9","","38","","23","","14","","16.1","","100.36","","25","","","","Mainly Clear"
"1963-10-18 12:00","1963","10","18","12:00","25.6","","7.2","","31","","23","","16","","16.1","","100.32","","26","","","","Mainly Clear"
"1963-10-18 13:00","1963","10","18","13:00","25.0","","8.3","","35","","14","","16","","11.3","","100.25","","26","","","","Mainly Clear"
"1963-10-18 14:00","1963","10","18","14:00","25.6","","8.3","","33","","16","","24","","11.3","","100.19","","26","","","","Clear"
"1963-10-18 15:00","1963","10","18","15:00","25.6","","8.9","","35","","18","","23","","11.3","","100.18","","26","","","","Clear"
"1963-10-18 16:00","1963","10","18","16:00","25.0","","9.4","","37","","18","","18","","9.7","","100.15","","26","","","","Haze"
"1963-10-18 17:00","1963","10","18","17:00","22.8","","10.0","","45","","16","","14","","9.7","","100.15","","","","","","Haze"
"1963-10-18 18:00","1963","10","18","18:00","20.6","","9.4","","49","","18","","11","","9.7","","100.16","","","","","","Haze"
"1963-10-18 19:00","1963","10","18","19:00","20.0","","7.8","","45","","20","","16","","9.7","","100.18","","","","","","Haze"
"1963-10-18 20:00","1963","10","18","20:00","18.9","","5.0","","41","","23","","8","","16.1","","100.17","","","","","","Mainly Clear"
"1963-10-18 21:00","1963","10","18","21:00","18.3","","4.4","","40","","18","","3","","12.9","","100.18","","","","","","Clear"
"1963-10-18 22:00","1963","10","18","22:00","14.4","","4.4","","51","","","","0","","12.9","","100.19","","","","","","Clear"
"1963-10-18 23:00","1963","10","18","23:00","13.9","","4.4","","53","","","","0","","12.9","","100.19","","","","","","Clear"
"1963-10-19 00:00","1963","10","19","00:00","11.7","","5.0","","64","","","","0","","12.9","","100.19","","","","","","Clear"
"1963-10-19 01:00","1963","10","19","01:00","11.1","","5.6","","69","","","","0","","9.7","","100.23","","","","","","Haze"
"1963-10-19 02:00","1963","10","19","02:00","10.0","","5.6","","75","","","","0","","9.7","","100.19","","","","","","Haze"
"1963-10-19 03:00","1963","10","19","03:00","9.4","","5.0","","74","","34","","5","","9.7","","100.19","","","","","","Haze"
"1963-10-19 04:00","1963","10","19","04:00","9.4","","5.0","","74","","36","","6","","9.7","","100.20","","","","","","Haze"
"1963-10-19 05:00","1963","10","19","05:00","8.9","","4.4","","74","","2","","5","","9.7","","100.19","","","","","","Haze"
"1963-10-19 06:00","1963","10","19","06:00","8.3","","3.9","","73","","27","","3","","6.4","","100.20","","","","","","Haze"
"1963-10-19 07:00","1963","10","19","07:00","8.9","","3.9","","72","","20","","3","","4.8","","100.20","","","","","","Smoke,Haze"
"1963-10-19 08:00","1963","10","19","08:00","11.1","","5.0","","67","","","","0","","6.4","","100.23","","","","","","Smoke,Haze"
"1963-10-19 09:00","1963","10","19","09:00","14.4","","7.8","","64","","","","0","","4.8","","100.22","","","","","","Smoke,Haze"
"1963-10-19 10:00","1963","10","19","10:00","18.9","","8.9","","52","","","","0","","4.8","","100.17","","","","","","Smoke,Haze"
"1963-10-19 11:00","1963","10","19","11:00","22.2","","8.3","","41","","23","","8","","8.0","","100.12","","","","","","Haze"
"1963-10-19 12:00","1963","10","19","12:00","22.2","","8.3","","41","","14","","10","","6.4","","100.05","","","","","","Haze"
"1963-10-19 13:00","1963","10","19","13:00","23.3","","9.4","","41","","14","","10","","4.8","","99.99","","","","","","Haze"
"1963-10-19 14:00","1963","10","19","14:00","23.9","","8.9","","38","","14","","10","","3.2","","99.93","","25","","","","Haze"
"1963-10-19 15:00","1963","10","19","15:00","23.9","","9.4","","39","","14","","16","","3.2","","99.89","","25","","","","Haze"
"1963-10-19 16:00","1963","10","19","16:00","22.2","","10.0","","45","","16","","13","","4.0","","99.87","","","","","","Haze"
"1963-10-19 17:00","1963","10","19","17:00","20.0","","10.0","","52","","16","","10","","4.0","","99.87","","","","","","Haze"
"1963-10-19 18:00","1963","10","19","18:00","17.8","","10.0","","59","","14","","10","","4.0","","99.87","","","","","","Haze"
"1963-10-19 19:00","1963","10","19","19:00","16.1","","10.6","","69","","32","","6","","6.4","","99.94","","","","","","Haze"
"1963-10-19 20:00","1963","10","19","20:00","15.6","","10.0","","70","","2","","6","","8.0","","99.93","","","","","","Haze"
"1963-10-19 21:00","1963","10","19","21:00","14.4","","9.4","","72","","34","","6","","8.0","","99.93","","","","","","Haze"
"1963-10-19 22:00","1963","10","19","22:00","13.3","","8.9","","74","","36","","5","","6.4","","99.93","","","","","","Haze"
"1963-10-19 23:00","1963","10","19","23:00","12.2","","8.3","","78","","27","","6","","6.4","","99.95","","","","","","Haze"
"1963-10-20 00:00","1963","10","20","00:00","12.2","","8.3","","78","","5","","10","","6.4","","99.89","","","","","","Haze"
"1963-10-20 01:00","1963","10","20","01:00","13.3","","8.9","","74","","2","","10","","6.4","","99.84","","","","","","Haze"
"1963-10-20 02:00","1963","10","20","02:00","12.8","","9.4","","79","","","","0","","6.4","","99.82","","","","","","Haze"
"1963-10-20 03:00","1963","10","20","03:00","12.2","","8.3","","78","","36","","8","","6.4","","99.80","","","","","","Haze"
"1963-10-20 04:00","1963","10","20","04:00","11.1","","8.3","","83","","","","0","","6.4","","99.81","","","","","","Haze"
"1963-10-20 05:00","1963","10","20","05:00","11.7","","8.3","","80","","27","","3","","6.4","","99.83","","","","","","Haze"
"1963-10-20 06:00","1963","10","20","06:00","11.1","","7.8","","79","","34","","8","","8.0","","99.83","","","","","","Haze"
"1963-10-20 07:00","1963","10","20","07:00","11.7","","7.8","","78","","5","","6","","4.8","","99.80","","","","","","Haze"
"1963-10-20 08:00","1963","10","20","08:00","12.8","","8.3","","75","","34","","8","","4.0","","99.80","","","","","","Haze"
"1963-10-20 09:00","1963","10","20","09:00","16.1","","8.3","","61","","9","","3","","4.0","","99.80","","","","","","Haze"
"1963-10-20 10:00","1963","10","20","10:00","18.9","","9.4","","54","","","","0","","4.8","","99.78","","","","","","Haze"
"1963-10-20 11:00","1963","10","20","11:00","19.4","","9.4","","53","","16","","6","","4.8","","99.74","","","","","","Haze"
"1963-10-20 12:00","1963","10","20","12:00","21.1","","10.0","","48","","18","","5","","4.8","","99.71","","","","","","Haze"
"1963-10-20 13:00","1963","10","20","13:00","22.2","","10.0","","45","","18","","5","","6.4","","99.63","","","","","","Haze"
"1963-10-20 14:00","1963","10","20","14:00","23.3","","9.4","","41","","14","","5","","6.4","","99.61","","","","","","Haze"
"1963-10-20 15:00","1963","10","20","15:00","22.8","","10.0","","45","","14","","8","","3.6","","99.59","","","","","","Haze"
"1963-10-20 16:00","1963","10","20","16:00","20.6","","8.3","","45","","14","","8","","4.0","","99.59","","","","","","Haze"
"1963-10-20 17:00","1963","10","20","17:00","20.0","","7.8","","45","","","","0","","4.0","","99.64","","","","","","Haze"
"1963-10-20 18:00","1963","10","20","18:00","18.3","","8.3","","53","","34","","16","","4.8","","99.70","","","","","","Haze"
"1963-10-20 19:00","1963","10","20","19:00","17.2","","11.1","","68","","36","","19","","8.0","","99.77","","","","","","Haze"
"1963-10-20 20:00","1963","10","20","20:00","15.6","","11.1","","74","","36","","16","","9.7","","99.76","","","","","","Haze"
"1963-10-20 21:00","1963","10","20","21:00","13.9","","11.1","","83","","36","","16","","12.9","","99.78","","","","","","Mainly Clear"
"1963-10-20 22:00","1963","10","20","22:00","13.9","","10.6","","81","","36","","19","","16.1","","99.84","","","","","","Clear"
"1963-10-20 23:00","1963","10","20","23:00","13.3","","10.6","","84","","34","","19","","12.9","","99.84","","","","","","Mainly Clear"
"1963-10-21 00:00","1963","10","21","00:00","12.8","","11.1","","89","","34","","18","","12.9","","99.85","","","","","","Mainly Clear"
"1963-10-21 01:00","1963","10","21","01:00","12.2","","10.6","","89","","34","","18","","11.3","","99.91","","","","","","Clear"
"1963-10-21 02:00","1963","10","21","02:00","11.7","","10.0","","91","","34","","14","","11.3","","99.96","","","","","","Clear"
"1963-10-21 03:00","1963","10","21","03:00","11.7","","10.6","","94","","34","","14","","9.7","","100.00","","","","","","Fog"
"1963-10-21 04:00","1963","10","21","04:00","11.1","","10.0","","94","","34","","16","","9.7","","100.07","","","","","","Fog"
"1963-10-21 05:00","1963","10","21","05:00","11.1","","10.0","","94","","36","","19","","12.9","","100.16","","","","","","Clear"
"1963-10-21 06:00","1963","10","21","06:00","10.6","","8.9","","90","","36","","16","","12.9","","100.24","","","","","","Mainly Clear"
"1963-10-21 07:00","1963","10","21","07:00","10.6","","8.9","","90","","36","","18","","16.1","","100.31","","","","","","Mainly Clear"
"1963-10-21 08:00","1963","10","21","08:00","10.0","","7.2","","84","","36","","18","","19.3","","100.44","","","","","","Mostly Cloudy"
"1963-10-21 09:00","1963","10","21","09:00","11.1","","7.8","","79","","36","","21","","24.1","","100.53","","","","","","Mostly Cloudy"
"1963-10-21 10:00","1963","10","21","10:00","11.1","","7.2","","78","","2","","19","","24.1","","100.58","","","","","","Mostly Cloudy"
"1963-10-21 11:00","1963","10","21","11:00","12.2","","7.2","","72","","2","","16","","24.1","","100.58","","","","","","Mostly Cloudy"
"1963-10-21 12:00","1963","10","21","12:00","13.3","","6.1","","61","","5","","10","","24.1","","100.58","","","","","","Mostly Cloudy"
"1963-10-21 13:00","1963","10","21","13:00","13.9","","6.1","","59","","11","","13","","24.1","","100.58","","","","","","Mostly Cloudy"
"1963-10-21 14:00","1963","10","21","14:00","13.9","","4.4","","53","","14","","14","","19.3","","100.57","","","","","","Mainly Clear"
"1963-10-21 15:00","1963","10","21","15:00","13.9","","4.4","","53","","16","","18","","19.3","","100.59","","","","","","Mainly Clear"
"1963-10-21 16:00","1963","10","21","16:00","13.3","","5.6","","60","","14","","14","","19.3","","100.61","","","","","","Mostly Cloudy"
"1963-10-21 17:00","1963","10","21","17:00","12.2","","6.1","","67","","14","","10","","19.3","","100.64","","","","","","Mostly Cloudy"
"1963-10-21 18:00","1963","10","21","18:00","11.1","","6.7","","74","","14","","8","","19.3","","100.67","","","","","","Mostly Cloudy"
"1963-10-21 19:00","1963","10","21","19:00","10.0","","6.7","","81","","5","","5","","16.1","","100.69","","","","","","Mainly Clear"
"1963-10-21 20:00","1963","10","21","20:00","8.9","","6.1","","82","","2","","6","","14.5","","100.72","","","","","","Mainly Clear"
"1963-10-21 21:00","1963","10","21","21:00","7.2","","4.4","","83","","2","","8","","14.5","","100.72","","","","","","Mainly Clear"
"1963-10-21 22:00","1963","10","21","22:00","5.6","","3.9","","91","","2","","8","","12.9","","100.72","","","","","","Clear"
"1963-10-21 23:00","1963","10","21","23:00","5.6","","4.4","","93","","36","","8","","12.9","","100.73","","","","","","Clear"
"1963-10-22 00:00","1963","10","22","00:00","5.0","","3.3","","88","","36","","8","","16.1","","100.70","","","","","","Clear"
"1963-10-22 01:00","1963","10","22","01:00","5.0","","1.7","","79","","2","","8","","16.1","","100.68","","","","","","Clear"
"1963-10-22 02:00","1963","10","22","02:00","5.6","","0.6","","70","","2","","10","","16.1","","100.66","","","","","","Mainly Clear"
"1963-10-22 03:00","1963","10","22","03:00","5.6","","0.0","","68","","2","","10","","16.1","","100.58","","","","","","Mostly Cloudy"
"1963-10-22 04:00","1963","10","22","04:00","5.6","","0.0","","68","","36","","11","","19.3","","100.58","","","","","","Mostly Cloudy"
"1963-10-22 05:00","1963","10","22","05:00","5.0","","0.6","","74","","2","","13","","19.3","","100.58","","","","","","Mostly Cloudy"
"1963-10-22 06:00","1963","10","22","06:00","5.6","","1.7","","75","","2","","8","","19.3","","100.57","","","","","","Cloudy"
"1963-10-22 07:00","1963","10","22","07:00","6.1","","2.8","","80","","36","","8","","19.3","","100.59","","","","","","Cloudy"
"1963-10-22 08:00","1963","10","22","08:00","7.2","","2.8","","72","","2","","6","","16.1","","100.58","","","","","","Cloudy"
"1963-10-22 09:00","1963","10","22","09:00","8.3","","4.4","","77","","5","","5","","16.1","","100.56","","","","","","Cloudy"
"1963-10-22 10:00","1963","10","22","10:00","11.7","","7.8","","76","","9","","3","","8.0","","100.51","","","","","","Haze"
"1963-10-22 11:00","1963","10","22","11:00","14.4","","9.4","","72","","14","","8","","6.4","","100.47","","","","","","Haze"
"1963-10-22 12:00","1963","10","22","12:00","16.7","","9.4","","62","","14","","11","","6.4","","100.39","","","","","","Haze"
"1963-10-22 13:00","1963","10","22","13:00","17.2","","9.4","","60","","16","","11","","12.9","","100.31","","","","","","Mostly Cloudy"
"1963-10-22 14:00","1963","10","22","14:00","18.3","","10.0","","58","","18","","11","","11.3","","100.24","","","","","","Mostly Cloudy"
"1963-10-22 15:00","1963","10","22","15:00","16.7","","10.0","","64","","14","","13","","8.0","","100.16","","","","","","Haze"
"1963-10-22 16:00","1963","10","22","16:00","15.6","","10.0","","68","","14","","16","","8.0","","100.15","","","","","","Haze"
"1963-10-22 17:00","1963","10","22","17:00","15.0","","10.0","","71","","16","","13","","8.0","","100.13","","","","","","Haze"
"1963-10-22 18:00","1963","10","22","18:00","13.3","","10.0","","79","","29","","5","","3.2","","100.16","","","","","","Haze"
"1963-10-22 19:00","1963","10","22","19:00","12.8","","11.1","","89","","27","","5","","6.4","","100.15","","","","","","Fog"
"1963-10-22 20:00","1963","10","22","20:00","12.8","","11.1","","89","","23","","3","","8.0","","100.12","","","","","","Fog"
"1963-10-22 21:00","1963","10","22","21:00","12.2","","10.6","","91","","20","","11","","11.3","","100.10","","","","","","Mainly Clear"
"1963-10-22 22:00","1963","10","22","22:00","11.7","","10.6","","93","","20","","6","","11.3","","100.10","","","","","","Mainly Clear"
"1963-10-22 23:00","1963","10","22","23:00","11.7","","10.0","","91","","20","","6","","3.2","","100.10","","","","","","Fog"
"1963-10-23 00:00","1963","10","23","00:00","10.0","","8.9","","94","","18","","5","","2.4","","100.10","","","","","","Fog"
"1963-10-23 01:00","1963","10","23","01:00","12.8","","10.6","","86","","16","","11","","4.8","","100.13","","","","","","Fog"
"1963-10-23 02:00","1963","10","23","02:00","12.8","","10.0","","84","","16","","11","","8.0","","100.14","","","","","","Haze"
"1963-10-23 03:00","1963","10","23","03:00","12.8","","10.0","","84","","16","","11","","8.0","","100.14","","","","","","Haze"
"1963-10-23 04:00","1963","10","23","04:00","11.7","","8.9","","83","","18","","13","","8.0","","100.15","","","","","","Haze"
"1963-10-23 05:00","1963","10","23","05:00","11.1","","8.9","","87","","18","","14","","11.3","","100.17","","","","","","Mainly Clear"
"1963-10-23 06:00","1963","10","23","06:00","11.7","","9.4","","87","","18","","16","","11.3","","100.18","","","","","","Clear"
"1963-10-23 07:00","1963","10","23","07:00","11.1","","9.4","","89","","20","","16","","2.4","","100.17","","","","","","Fog,Smoke"
"1963-10-23 08:00","1963","10","23","08:00","12.2","","10.0","","87","","20","","11","","3.2","","100.18","","","","","","Fog"
"1963-10-23 09:00","1963","10","23","09:00","14.4","","11.1","","81","","20","","19","","4.0","","100.19","","","","","","Haze"
"1963-10-23 10:00","1963","10","23","10:00","17.2","","11.7","","70","","20","","19","","4.8","","100.15","","","","","","Haze"
"1963-10-23 11:00","1963","10","23","11:00","20.0","","12.2","","62","","23","","16","","4.8","","100.13","","","","","","Haze"
"1963-10-23 12:00","1963","10","23","12:00","22.2","","10.6","","48","","23","","23","","4.8","","100.06","","","","","","Haze"
"1963-10-23 13:00","1963","10","23","13:00","24.4","","11.1","","43","","23","","24","","6.4","","99.99","","26","","","","Haze"
"1963-10-23 14:00","1963","10","23","14:00","26.1","","11.1","","40","","23","","23","","4.8","","99.92","","28","","","","Haze"
"1963-10-23 15:00","1963","10","23","15:00","25.6","","10.6","","39","","20","","16","","4.8","","99.90","","27","","","","Haze"
"1963-10-23 16:00","1963","10","23","16:00","23.3","","12.8","","51","","14","","16","","4.8","","99.87","","26","","","","Haze"
"1963-10-23 17:00","1963","10","23","17:00","21.1","","12.8","","59","","16","","19","","4.0","","99.87","","","","","","Smoke,Haze"
"1963-10-23 18:00","1963","10","23","18:00","19.4","","12.8","","64","","18","","13","","4.0","","99.90","","","","","","Smoke,Haze"
"1963-10-23 19:00","1963","10","23","19:00","18.9","","12.2","","66","","18","","11","","4.8","","99.93","","","","","","Smoke,Haze"
"1963-10-23 20:00","1963","10","23","20:00","17.8","","10.6","","63","","20","","8","","4.8","","99.93","","","","","","Smoke,Haze"
"1963-10-23 21:00","1963","10","23","21:00","16.7","","10.0","","65","","23","","8","","4.8","","99.95","","","","","","Smoke,Haze"
"1963-10-23 22:00","1963","10","23","22:00","13.9","","9.4","","75","","27","","5","","4.8","","99.98","","","","","","Smoke,Haze"
"1963-10-23 23:00","1963","10","23","23:00","12.8","","9.4","","81","","","","0","","4.0","","99.98","","","","","","Smoke,Haze"
"1963-10-24 00:00","1963","10","24","00:00","11.1","","8.9","","87","","9","","3","","4.0","","100.01","","","","","","Smoke,Haze"
"1963-10-24 01:00","1963","10","24","01:00","10.6","","8.3","","85","","","","0","","4.0","","100.02","","","","","","Smoke,Haze"
"1963-10-24 02:00","1963","10","24","02:00","10.0","","8.3","","88","","","","0","","3.2","","100.02","","","","","","Smoke,Haze"
"1963-10-24 03:00","1963","10","24","03:00","8.9","","7.8","","92","","","","0","","3.2","","100.00","","","","","","Fog,Smoke"
"1963-10-24 04:00","1963","10","24","04:00","8.9","","8.3","","96","","","","0","","2.4","","100.05","","","","","","Fog"
"1963-10-24 05:00","1963","10","24","05:00","7.8","","6.7","","94","","36","","6","","1.6","","100.08","","","","","","Fog"
"1963-10-24 06:00","1963","10","24","06:00","7.8","","7.2","","96","","36","","5","","0.8","","100.09","","","","","","Fog"
"1963-10-24 07:00","1963","10","24","07:00","7.2","","6.7","","98","","","","0","","0.4","","100.08","","","","","","Fog"
"1963-10-24 08:00","1963","10","24","08:00","7.8","","7.2","","96","","","","0","","0.8","","100.11","","","","","","Fog"
"1963-10-24 09:00","1963","10","24","09:00","11.1","","10.0","","92","","","","0","","1.2","","100.12","","","","","","Fog"
"1963-10-24 10:00","1963","10","24","10:00","15.6","","11.7","","77","","","","0","","2.0","","100.08","","","","","","Smoke,Haze"
"1963-10-24 11:00","1963","10","24","11:00","17.8","","11.7","","68","","14","","5","","2.0","","100.06","","","","","","Smoke,Haze"
"1963-10-24 12:00","1963","10","24","12:00","20.6","","12.8","","60","","14","","13","","2.0","","100.01","","","","","","Smoke,Haze"
"1963-10-24 13:00","1963","10","24","13:00","20.0","","12.2","","62","","14","","10","","2.0","","99.94","","","","","","Smoke,Haze"
"1963-10-24 14:00","1963","10","24","14:00","22.8","","12.8","","53","","14","","18","","4.8","","99.88","","25","","","","Smoke,Haze"
"1963-10-24 15:00","1963","10","24","15:00","22.2","","13.3","","57","","14","","19","","4.8","","99.85","","25","","","","Smoke,Haze"
"1963-10-24 16:00","1963","10","24","16:00","21.1","","12.8","","59","","16","","16","","4.8","","99.84","","","","","","Smoke,Haze"
"1963-10-24 17:00","1963","10","24","17:00","18.9","","12.8","","67","","16","","8","","4.8","","99.85","","","","","","Smoke,Haze"
"1963-10-24 18:00","1963","10","24","18:00","17.2","","12.2","","74","","16","","8","","4.8","","99.86","","","","","","Smoke,Haze"
"1963-10-24 19:00","1963","10","24","19:00","16.1","","12.2","","79","","16","","6","","4.8","","99.85","","","","","","Smoke,Haze"
"1963-10-24 20:00","1963","10","24","20:00","14.4","","11.1","","80","","","","0","","3.2","","99.83","","","","","","Smoke,Haze"
"1963-10-24 21:00","1963","10","24","21:00","13.3","","11.1","","88","","","","0","","3.2","","99.82","","","","","","Smoke,Haze"
"1963-10-24 22:00","1963","10","24","22:00","12.8","","11.1","","89","","","","0","","2.8","","99.79","","","","","","Fog,Smoke"
"1963-10-24 23:00","1963","10","24","23:00","12.2","","10.6","","91","","34","","8","","2.8","","99.79","","","","","","Fog,Smoke"
"1963-10-25 00:00","1963","10","25","00:00","11.7","","10.6","","93","","34","","6","","3.2","","99.74","","","","","","Fog,Smoke"
"1963-10-25 01:00","1963","10","25","01:00","11.1","","10.0","","92","","36","","6","","3.2","","99.73","","","","","","Fog,Smoke"
"1963-10-25 02:00","1963","10","25","02:00","10.6","","9.4","","92","","36","","6","","3.2","","99.70","","","","","","Fog,Smoke"
"1963-10-25 03:00","1963","10","25","03:00","10.6","","9.4","","92","","34","","5","","2.4","","99.72","","","","","","Fog,Smoke"
"1963-10-25 04:00","1963","10","25","04:00","10.0","","8.9","","94","","","","0","","2.4","","99.74","","","","","","Fog,Smoke"
"1963-10-25 05:00","1963","10","25","05:00","10.0","","9.4","","96","","","","0","","1.6","","99.74","","","","","","Fog,Smoke"
"1963-10-25 06:00","1963","10","25","06:00","10.6","","9.4","","94","","36","","5","","3.2","","99.73","","","","","","Fog,Smoke"
"1963-10-25 07:00","1963","10","25","07:00","11.1","","10.0","","92","","","","0","","1.6","","99.72","","","","","","Fog,Smoke"
"1963-10-25 08:00","1963","10","25","08:00","11.7","","10.0","","89","","","","0","","1.6","","99.75","","","","","","Fog,Smoke"
"1963-10-25 09:00","1963","10","25","09:00","13.9","","11.7","","88","","25","","3","","1.6","","99.74","","","","","","Fog,Smoke"
"1963-10-25 10:00","1963","10","25","10:00","17.2","","12.8","","75","","20","","14","","2.8","","99.70","","","","","","Haze"
"1963-10-25 11:00","1963","10","25","11:00","21.7","","12.8","","57","","20","","18","","6.4","","99.63","","","","","","Haze"
"1963-10-25 12:00","1963","10","25","12:00","23.9","","12.8","","50","","20","","14","","6.4","","99.54","","27","","","","Haze"
"1963-10-25 13:00","1963","10","25","13:00","23.9","","12.8","","50","","18","","16","","4.8","","99.44","","27","","","","Haze"
"1963-10-25 14:00","1963","10","25","14:00","24.4","","12.8","","48","","18","","18","","6.4","","99.39","","27","","","","Haze"
"1963-10-25 15:00","1963","10","25","15:00","23.9","","13.3","","52","","14","","16","","6.4","","99.36","","27","","","","Haze"
"1963-10-25 16:00","1963","10","25","16:00","22.8","","13.9","","56","","16","","19","","8.0","","99.32","","26","","","","Haze"
"1963-10-25 17:00","1963","10","25","17:00","22.2","","13.3","","57","","16","","16","","8.0","","99.32","","25","","","","Haze"
"1963-10-25 18:00","1963","10","25","18:00","21.1","","13.3","","61","","18","","14","","11.3","","99.36","","","","","","Mainly Clear"
"1963-10-25 19:00","1963","10","25","19:00","20.0","","12.8","","63","","20","","16","","19.3","","99.33","","","","","","Clear"
"1963-10-25 20:00","1963","10","25","20:00","19.4","","13.3","","68","","23","","14","","19.3","","99.32","","","","","","Clear"
"1963-10-25 21:00","1963","10","25","21:00","19.4","","13.9","","70","","25","","16","","24.1","","99.34","","","","","","Mainly Clear"
"1963-10-25 22:00","1963","10","25","22:00","18.9","","13.3","","71","","29","","14","","24.1","","99.38","","","","","","Mostly Cloudy"
"1963-10-25 23:00","1963","10","25","23:00","18.9","","13.9","","73","","29","","6","","24.1","","99.35","","","","","","Mostly Cloudy"
"1963-10-26 00:00","1963","10","26","00:00","17.8","","13.3","","76","","27","","10","","19.3","","99.39","","","","","","Rain Showers"
"1963-10-26 01:00","1963","10","26","01:00","17.2","","13.9","","81","","36","","5","","19.3","","99.37","","","","","","Cloudy"
"1963-10-26 02:00","1963","10","26","02:00","15.6","","12.2","","81","","","","0","","12.9","","99.36","","","","","","Mainly Clear"
"1963-10-26 03:00","1963","10","26","03:00","14.4","","11.7","","83","","27","","5","","12.9","","99.36","","","","","","Clear"
"1963-10-26 04:00","1963","10","26","04:00","13.9","","11.7","","86","","27","","6","","11.3","","99.40","","","","","","Clear"
"1963-10-26 05:00","1963","10","26","05:00","11.7","","9.4","","87","","34","","6","","9.7","","99.44","","","","","","Fog"
"1963-10-26 06:00","1963","10","26","06:00","11.7","","10.0","","91","","29","","10","","8.0","","99.45","","","","","","Fog"
"1963-10-26 07:00","1963","10","26","07:00","12.8","","11.7","","93","","27","","8","","3.2","","99.49","","","","","","Fog"
"1963-10-26 08:00","1963","10","26","08:00","13.9","","12.8","","93","","27","","5","","2.4","","99.55","","","","","","Fog"
"1963-10-26 09:00","1963","10","26","09:00","16.7","","15.0","","89","","25","","5","","3.2","","99.54","","","","","","Fog"
"1963-10-26 10:00","1963","10","26","10:00","18.9","","15.0","","78","","25","","11","","4.8","","99.52","","","","","","Haze"
"1963-10-26 11:00","1963","10","26","11:00","21.1","","15.0","","69","","25","","16","","8.0","","99.52","","25","","","","Haze"
"1963-10-26 12:00","1963","10","26","12:00","22.2","","15.0","","64","","20","","10","","8.0","","99.43","","26","","","","Haze"
"1963-10-26 13:00","1963","10","26","13:00","23.3","","12.8","","51","","25","","23","","9.7","","99.35","","26","","","","Haze"
"1963-10-26 14:00","1963","10","26","14:00","24.4","","12.8","","48","","25","","19","","12.9","","99.28","","27","","","","Mainly Clear"
"1963-10-26 15:00","1963","10","26","15:00","23.9","","12.2","","49","","25","","23","","16.1","","99.24","","26","","","","Mainly Clear"
"1963-10-26 16:00","1963","10","26","16:00","23.9","","12.2","","47","","25","","18","","12.9","","99.22","","26","","","","Mainly Clear"
"1963-10-26 17:00","1963","10","26","17:00","22.8","","12.8","","53","","25","","16","","9.7","","99.20","","25","","","","Haze"
"1963-10-26 18:00","1963","10","26","18:00","18.9","","13.3","","71","","16","","11","","6.4","","99.20","","","","","","Smoke,Haze"
"1963-10-26 19:00","1963","10","26","19:00","19.4","","12.8","","66","","23","","10","","12.9","","99.22","","","","","","Clear"
"1963-10-26 20:00","1963","10","26","20:00","17.2","","13.3","","77","","23","","16","","11.3","","99.21","","","","","","Clear"
"1963-10-26 21:00","1963","10","26","21:00","16.7","","12.8","","79","","23","","14","","11.3","","99.22","","","","","","Clear"
"1963-10-26 22:00","1963","10","26","22:00","16.1","","13.3","","85","","23","","18","","11.3","","99.16","","","","","","Clear"
"1963-10-26 23:00","1963","10","26","23:00","15.6","","12.8","","82","","25","","18","","11.3","","99.15","","","","","","Clear"
"1963-10-27 00:00","1963","10","27","00:00","15.0","","11.1","","79","","25","","18","","9.7","","99.15","","","","","","Haze"
"1963-10-27 01:00","1963","10","27","01:00","16.1","","11.7","","75","","27","","14","","9.7","","99.20","","","","","","Haze"
"1963-10-27 02:00","1963","10","27","02:00","17.2","","11.7","","70","","34","","23","","9.7","","99.27","","","","","","Haze"
"1963-10-27 03:00","1963","10","27","03:00","15.6","","4.4","","48","","34","","18","","25.0","","99.27","","","","","","Mostly Cloudy"
"1963-10-27 04:00","1963","10","27","04:00","15.0","","6.1","","54","","34","","21","","25.0","","99.34","","","","","","Mainly Clear"
"1963-10-27 05:00","1963","10","27","05:00","13.9","","6.7","","62","","34","","16","","25.0","","99.41","","","","","","Mostly Cloudy"
"1963-10-27 06:00","1963","10","27","06:00","13.3","","6.7","","64","","34","","14","","25.0","","99.45","","","","","","Mostly Cloudy"
"1963-10-27 07:00","1963","10","27","07:00","12.8","","6.7","","67","","34","","14","","25.0","","99.49","","","","","","Mostly Cloudy"
"1963-10-27 08:00","1963","10","27","08:00","13.3","","7.2","","68","","36","","13","","25.0","","99.55","","","","","","Mostly Cloudy"
"1963-10-27 09:00","1963","10","27","09:00","13.3","","6.7","","64","","36","","14","","25.0","","99.63","","","","","","Mostly Cloudy"
"1963-10-27 10:00","1963","10","27","10:00","13.9","","7.2","","65","","36","","10","","25.0","","99.62","","","","","","Mostly Cloudy"
"1963-10-27 11:00","1963","10","27","11:00","16.1","","3.9","","44","","36","","16","","25.0","","99.62","","","","","","Mostly Cloudy"
"1963-10-27 12:00","1963","10","27","12:00","16.7","","3.3","","40","","34","","13","","25.0","","99.56","","","","","","Mostly Cloudy"
"1963-10-27 13:00","1963","10","27","13:00","16.7","","1.7","","37","","34","","23","","24.1","","99.51","","","","","","Mostly Cloudy"
"1963-10-27 14:00","1963","10","27","14:00","16.7","","0.6","","33","","34","","23","","24.1","","99.50","","","","","","Mostly Cloudy"
"1963-10-27 15:00","1963","10","27","15:00","17.8","","-1.7","","26","","32","","24","","24.1","","99.50","","","","","","Mostly Cloudy"
"1963-10-27 16:00","1963","10","27","16:00","16.7","","-3.3","","25","","34","","24","","25.0","","99.53","","","","","","Mostly Cloudy"
"1963-10-27 17:00","1963","10","27","17:00","15.6","","-1.1","","32","","32","","10","","25.0","","99.53","","","","","","Mostly Cloudy"
"1963-10-27 18:00","1963","10","27","18:00","13.3","","0.0","","40","","34","","8","","25.0","","99.59","","","","","","Mostly Cloudy"
"1963-10-27 19:00","1963","10","27","19:00","12.8","","1.7","","46","","34","","10","","25.0","","99.61","","","","","","Mainly Clear"
"1963-10-27 20:00","1963","10","27","20:00","10.6","","2.2","","56","","32","","11","","25.0","","99.63","","","","","","Mainly Clear"
"1963-10-27 21:00","1963","10","27","21:00","10.6","","0.0","","47","","29","","10","","25.0","","99.68","","","","","","Mainly Clear"
"1963-10-27 22:00","1963","10","27","22:00","8.3","","1.7","","62","","29","","11","","25.0","","99.67","","","","","","Mainly Clear"
"1963-10-27 23:00","1963","10","27","23:00","8.9","","2.8","","66","","29","","11","","25.0","","99.66","","","","","","Mainly Clear"
"1963-10-28 00:00","1963","10","28","00:00","8.3","","2.8","","67","","32","","6","","25.0","","99.65","","","","","","Mainly Clear"
"1963-10-28 01:00","1963","10","28","01:00","8.3","","2.8","","67","","32","","11","","25.0","","99.65","","","","","","Mainly Clear"
"1963-10-28 02:00","1963","10","28","02:00","7.2","","1.1","","66","","32","","10","","25.0","","99.63","","","","","","Mostly Cloudy"
"1963-10-28 03:00","1963","10","28","03:00","7.8","","1.7","","65","","32","","11","","25.0","","99.61","","","","","","Mainly Clear"
"1963-10-28 04:00","1963","10","28","04:00","6.1","","1.7","","73","","36","","5","","25.0","","99.60","","","","","","Mainly Clear"
"1963-10-28 05:00","1963","10","28","05:00","5.6","","1.1","","73","","36","","8","","25.0","","99.58","","","","","","Mainly Clear"
"1963-10-28 06:00","1963","10","28","06:00","4.4","","0.6","","76","","32","","10","","25.0","","99.58","","","","","","Clear"
"1963-10-28 07:00","1963","10","28","07:00","4.4","","1.1","","78","","32","","5","","25.0","","99.58","","","","","","Clear"
"1963-10-28 08:00","1963","10","28","08:00","5.6","","1.1","","73","","34","","6","","25.0","","99.63","","","","","","Clear"
"1963-10-28 09:00","1963","10","28","09:00","11.1","","3.9","","62","","34","","10","","25.0","","99.60","","","","","","Mainly Clear"
"1963-10-28 10:00","1963","10","28","10:00","14.4","","3.3","","48","","32","","19","","25.0","","99.56","","","","","","Mainly Clear"
"1963-10-28 11:00","1963","10","28","11:00","15.0","","2.8","","44","","29","","13","","25.0","","99.52","","","","","","Mainly Clear"
"1963-10-28 12:00","1963","10","28","12:00","15.6","","-3.3","","27","","29","","10","","25.0","","99.46","","","","","","Mostly Cloudy"
"1963-10-28 13:00","1963","10","28","13:00","15.6","","-2.8","","28","","32","","8","","25.0","","99.36","","","","","","Mostly Cloudy"
"1963-10-28 14:00","1963","10","28","14:00","15.6","","-3.3","","27","","2","","24","","25.0","","99.33","","","","","","Mostly Cloudy"
"1963-10-28 15:00","1963","10","28","15:00","13.9","","1.1","","41","","2","","14","","25.0","","99.34","","","","","","Mostly Cloudy"
"1963-10-28 16:00","1963","10","28","16:00","11.7","","2.2","","53","","2","","19","","25.0","","99.37","","","","","","Mostly Cloudy"
"1963-10-28 17:00","1963","10","28","17:00","10.0","","2.2","","59","","2","","24","","24.1","","99.37","","","","","","Rain Showers"
"1963-10-28 18:00","1963","10","28","18:00","9.4","","2.8","","63","","32","","14","","25.0","","99.45","","","","","","Rain Showers"
"1963-10-28 19:00","1963","10","28","19:00","7.8","","5.0","","81","","2","","8","","24.1","","99.41","","","","","","Rain Showers"
"1963-10-28 20:00","1963","10","28","20:00","7.8","","5.0","","81","","36","","11","","25.0","","99.40","","","","","","Cloudy"
"1963-10-28 21:00","1963","10","28","21:00","7.2","","3.9","","81","","5","","3","","25.0","","99.34","","","","","","Mostly Cloudy"
"1963-10-28 22:00","1963","10","28","22:00","6.7","","3.3","","80","","29","","10","","25.0","","99.34","","","","","","Mostly Cloudy"
"1963-10-28 23:00","1963","10","28","23:00","5.0","","1.1","","77","","32","","13","","25.0","","99.30","","","","","","Mainly Clear"
"1963-10-29 00:00","1963","10","29","00:00","4.4","","1.1","","78","","34","","21","","25.0","","99.29","","","","","","Mainly Clear"
"1963-10-29 01:00","1963","10","29","01:00","6.1","","2.2","","78","","36","","13","","25.0","","99.27","","","","","","Mainly Clear"
"1963-10-29 02:00","1963","10","29","02:00","6.1","","2.2","","78","","36","","19","","25.0","","99.27","","","","","","Mostly Cloudy"
"1963-10-29 03:00","1963","10","29","03:00","5.0","","2.2","","81","","36","","16","","25.0","","99.28","","","","","","Cloudy"
"1963-10-29 04:00","1963","10","29","04:00","4.4","","1.7","","81","","34","","24","","25.0","","99.30","","","","","","Mostly Cloudy"
"1963-10-29 05:00","1963","10","29","05:00","3.3","","0.0","","77","","36","","24","","25.0","","99.32","","","","","","Mainly Clear"
"1963-10-29 06:00","1963","10","29","06:00","2.2","","-1.1","","79","","36","","23","","25.0","","99.37","","","","","","Mainly Clear"
"1963-10-29 07:00","1963","10","29","07:00","1.1","","-1.7","","83","","34","","21","","25.0","","99.41","","","","","","Mainly Clear"
"1963-10-29 08:00","1963","10","29","08:00","1.7","","-1.7","","78","","34","","26","","25.0","","99.42","","","","","","Mainly Clear"
"1963-10-29 09:00","1963","10","29","09:00","2.8","","-1.1","","74","","34","","26","","25.0","","99.44","","","","","","Mainly Clear"
"1963-10-29 10:00","1963","10","29","10:00","2.8","","-2.2","","69","","34","","29","","25.0","","99.49","","","","","","Mainly Clear"
"1963-10-29 11:00","1963","10","29","11:00","3.3","","-2.8","","65","","34","","34","","25.0","","99.49","","","","","","Mainly Clear"
"1963-10-29 12:00","1963","10","29","12:00","5.0","","-2.2","","59","","34","","31","","25.0","","99.47","","","","","","Mainly Clear"
"1963-10-29 13:00","1963","10","29","13:00","5.6","","-2.2","","57","","34","","34","","25.0","","99.42","","","","","","Mainly Clear"
"1963-10-29 14:00","1963","10","29","14:00","6.1","","-2.2","","54","","32","","35","","25.0","","99.38","","","","","","Mainly Clear"
"1963-10-29 15:00","1963","10","29","15:00","5.6","","-2.2","","57","","32","","40","","25.0","","99.40","","","","","","Mainly Clear"
"1963-10-29 16:00","1963","10","29","16:00","4.4","","-3.3","","58","","34","","35","","25.0","","99.46","","","","","","Mainly Clear"
"1963-10-29 17:00","1963","10","29","17:00","3.3","","-3.3","","63","","34","","32","","25.0","","99.52","","","","","","Mainly Clear"
"1963-10-29 18:00","1963","10","29","18:00","2.2","","-3.3","","66","","34","","23","","25.0","","99.59","","","","","","Clear"
"1963-10-29 19:00","1963","10","29","19:00","2.2","","-2.8","","68","","34","","19","","25.0","","99.61","","","","","","Clear"
"1963-10-29 20:00","1963","10","29","20:00","1.7","","-2.8","","73","","34","","19","","25.0","","99.64","","","","","","Clear"
"1963-10-29 21:00","1963","10","29","21:00","1.1","","-2.8","","74","","34","","23","","25.0","","99.64","","","","","","Clear"
"1963-10-29 22:00","1963","10","29","22:00","0.6","","-3.9","","73","","34","","26","","25.0","","99.61","","","","","","Clear"
"1963-10-29 23:00","1963","10","29","23:00","0.6","","-3.9","","73","","36","","32","","25.0","","99.63","","","","","","Clear"
"1963-10-30 00:00","1963","10","30","00:00","1.1","","-3.9","","68","","36","","32","","25.0","","99.64","","","","","","Mainly Clear"
"1963-10-30 01:00","1963","10","30","01:00","1.1","","-4.4","","66","","34","","18","","25.0","","99.66","","","","","","Mainly Clear"
"1963-10-30 02:00","1963","10","30","02:00","0.6","","-5.0","","67","","32","","10","","25.0","","99.69","","","","","","Mainly Clear"
"1963-10-30 03:00","1963","10","30","03:00","0.0","","-4.4","","71","","32","","11","","25.0","","99.71","","","","-4","","Mainly Clear"
"1963-10-30 04:00","1963","10","30","04:00","-0.6","","-5.0","","73","","32","","13","","25.0","","99.72","","","","-5","","Clear"
"1963-10-30 05:00","1963","10","30","05:00","0.0","","-4.4","","71","","32","","18","","25.0","","99.71","","","","-5","","Clear"
"1963-10-30 06:00","1963","10","30","06:00","0.0","","-3.9","","74","","34","","18","","25.0","","99.72","","","","-5","","Clear"
"1963-10-30 07:00","1963","10","30","07:00","-0.6","","-3.9","","79","","32","","18","","25.0","","99.73","","","","-6","","Mainly Clear"
"1963-10-30 08:00","1963","10","30","08:00","0.0","","-3.9","","74","","32","","18","","25.0","","99.72","","","","-5","","Mainly Clear"
"1963-10-30 09:00","1963","10","30","09:00","2.8","","-2.8","","67","","34","","23","","25.0","","99.74","","","","","","Mainly Clear"
"1963-10-30 10:00","1963","10","30","10:00","6.1","","-2.8","","52","","32","","24","","25.0","","99.70","","","","","","Mainly Clear"
"1963-10-30 11:00","1963","10","30","11:00","7.8","","-3.3","","45","","32","","31","","25.0","","99.64","","","","","","Mainly Clear"
"1963-10-30 12:00","1963","10","30","12:00","8.3","","-3.9","","41","","32","","29","","25.0","","99.61","","","","","","Mainly Clear"
"1963-10-30 13:00","1963","10","30","13:00","8.9","","-3.3","","42","","34","","32","","25.0","","99.53","","","","","","Mainly Clear"
"1963-10-30 14:00","1963","10","30","14:00","10.0","","-3.3","","39","","34","","29","","25.0","","99.54","","","","","","Mainly Clear"
"1963-10-30 15:00","1963","10","30","15:00","10.0","","-4.4","","36","","32","","24","","25.0","","99.54","","","","","","Mostly Cloudy"
"1963-10-30 16:00","1963","10","30","16:00","8.9","","-3.9","","41","","32","","24","","25.0","","99.52","","","","","","Mostly Cloudy"
"1963-10-30 17:00","1963","10","30","17:00","8.3","","-4.4","","39","","32","","16","","25.0","","99.54","","","","","","Mostly Cloudy"
"1963-10-30 18:00","1963","10","30","18:00","7.8","","-3.9","","44","","27","","16","","25.0","","99.49","","","","","","Mostly Cloudy"
"1963-10-30 19:00","1963","10","30","19:00","6.7","","-3.3","","49","","27","","13","","25.0","","99.50","","","","","","Mostly Cloudy"
"1963-10-30 20:00","1963","10","30","20:00","6.7","","-3.3","","49","","29","","8","","25.0","","99.54","","","","","","Mostly Cloudy"
"1963-10-30 21:00","1963","10","30","21:00","7.2","","-2.2","","50","","25","","11","","25.0","","99.48","","","","","","Mostly Cloudy"
"1963-10-30 22:00","1963","10","30","22:00","6.7","","-1.7","","55","","27","","10","","25.0","","99.47","","","","","","Mostly Cloudy"
"1963-10-30 23:00","1963","10","30","23:00","6.7","","-1.7","","55","","25","","8","","25.0","","99.42","","","","","","Mostly Cloudy"
"1963-10-31 00:00","1963","10","31","00:00","6.1","","-1.7","","58","","25","","11","","25.0","","99.38","","","","","","Cloudy"
"1963-10-31 01:00","1963","10","31","01:00","6.7","","-1.1","","57","","25","","13","","25.0","","99.36","","","","","","Cloudy"
"1963-10-31 02:00","1963","10","31","02:00","6.7","","-1.7","","55","","23","","11","","25.0","","99.36","","","","","","Cloudy"
"1963-10-31 03:00","1963","10","31","03:00","7.2","","-2.2","","50","","23","","11","","25.0","","99.27","","","","","","Cloudy"
"1963-10-31 04:00","1963","10","31","04:00","7.8","","-2.2","","49","","25","","16","","25.0","","99.19","","","","","","Cloudy"
"1963-10-31 05:00","1963","10","31","05:00","7.8","","-1.7","","51","","25","","16","","25.0","","99.15","","","","","","Mostly Cloudy"
"1963-10-31 06:00","1963","10","31","06:00","7.2","","-1.7","","54","","25","","16","","25.0","","99.14","","","","","","Mostly Cloudy"
"1963-10-31 07:00","1963","10","31","07:00","7.2","","-0.6","","58","","25","","16","","16.1","","99.16","","","","","","Mostly Cloudy"
"1963-10-31 08:00","1963","10","31","08:00","7.2","","-0.6","","58","","25","","13","","16.1","","99.13","","","","","","Cloudy"
"1963-10-31 09:00","1963","10","31","09:00","9.4","","1.1","","56","","25","","16","","14.5","","99.10","","","","","","Cloudy"
"1963-10-31 10:00","1963","10","31","10:00","10.6","","2.2","","56","","25","","19","","19.3","","99.06","","","","","","Cloudy"
"1963-10-31 11:00","1963","10","31","11:00","11.7","","3.3","","56","","25","","24","","19.3","","99.06","","","","","","Cloudy"
"1963-10-31 12:00","1963","10","31","12:00","11.7","","3.3","","56","","25","","19","","19.3","","98.97","","","","","","Cloudy"
"1963-10-31 13:00","1963","10","31","13:00","11.7","","3.3","","56","","23","","23","","14.5","","98.93","","","","","","Rain"
"1963-10-31 14:00","1963","10","31","14:00","10.6","","5.0","","68","","25","","14","","16.1","","98.88","","","","","","Rain"
"1963-10-31 15:00","1963","10","31","15:00","10.6","","3.9","","63","","23","","8","","16.1","","98.85","","","","","","Cloudy"
"1963-10-31 16:00","1963","10","31","16:00","10.6","","2.8","","58","","25","","18","","16.1","","98.82","","","","","","Cloudy"
"1963-10-31 17:00","1963","10","31","17:00","9.4","","6.1","","78","","23","","16","","12.9","","98.79","","","","","","Rain Showers"
"1963-10-31 18:00","1963","10","31","18:00","7.8","","6.7","","91","","23","","10","","12.9","","98.78","","","","","","Rain"
"1963-10-31 19:00","1963","10","31","19:00","7.8","","6.7","","91","","23","","11","","16.1","","98.75","","","","","","Rain"
"1963-10-31 20:00","1963","10","31","20:00","7.2","","6.1","","93","","18","","5","","12.9","","98.66","","","","","","Rain"
"1963-10-31 21:00","1963","10","31","21:00","7.2","","6.1","","93","","18","","3","","9.7","","98.58","","","","","","Rain,Fog"
"1963-10-31 22:00","1963","10","31","22:00","7.2","","6.1","","93","","18","","6","","12.9","","98.47","","","","","","Rain"
"1963-10-31 23:00","1963","10","31","23:00","7.8","","7.2","","96","","18","","6","","4.8","","98.39","","","","","","Rain,Fog"
