"Station Name","TORONTO LESTER B. PEARSON INT'L A"
"Province","ONTARIO"
"Latitude","43.68"
"Longitude","-79.63"
"Elevation","173.40"
"Climate Identifier","6158733"
"WMO Identifier","71624"
"TC Identifier","YYZ"
"All times are specified in Local Standard Time (LST). Add 1 hour to adjust for Daylight Saving Time where and when it is observed."

"Legend"
"E","Estimated"
"M","Missing"
"NA","Not Available"

"Date/Time","Year","Month","Day","Time","Temp (°C)","Temp Flag","Dew Point Temp (°C)","Dew Point Temp Flag","Rel Hum (%)","Rel Hum Flag","Wind Dir (10s deg)","Wind Dir Flag","Wind Spd (km/h)","Wind Spd Flag","Visibility (km)","Visibility Flag","Stn Press (kPa)","Stn Press Flag","Hmdx","Hmdx Flag","Wind Chill","Wind Chill Flag","Weather"
"1958-10-01 00:00","1958","10","01","00:00","8.9","","6.1","","83","","27","","19","","25.0","","99.04","","","","","","Mainly Clear"
"1958-10-01 01:00","1958","10","01","01:00","7.8","","5.0","","82","","27","","14","","25.0","","99.13","","","","","","Mainly Clear"
"1958-10-01 02:00","1958","10","01","02:00","6.7","","5.0","","89","","25","","14","","25.0","","99.19","","","","","","Mainly Clear"
"1958-10-01 03:00","1958","10","01","03:00","5.6","","4.4","","93","","27","","13","","25.0","","99.26","","","","","","Mainly Clear"
"1958-10-01 04:00","1958","10","01","04:00","6.1","","4.4","","89","","29","","14","","25.0","","99.33","","","","","","Clear"
"1958-10-01 05:00","1958","10","01","05:00","5.0","","3.3","","89","","27","","16","","25.0","","99.43","","","","","","Clear"
"1958-10-01 06:00","1958","10","01","06:00","4.4","","3.3","","93","","27","","19","","25.0","","99.53","","","","","","Mainly Clear"
"1958-10-01 07:00","1958","10","01","07:00","5.6","","1.7","","76","","27","","19","","25.0","","99.66","","","","","","Mainly Clear"
"1958-10-01 08:00","1958","10","01","08:00","7.2","","1.7","","68","","27","","31","","25.0","","99.71","","","","","","Mainly Clear"
"1958-10-01 09:00","1958","10","01","09:00","8.3","","1.1","","60","","27","","32","","25.0","","99.76","","","","","","Mainly Clear"
"1958-10-01 10:00","1958","10","01","10:00","9.4","","0.0","","52","","27","","32","","25.0","","99.80","","","","","","Mainly Clear"
"1958-10-01 11:00","1958","10","01","11:00","10.6","","-1.1","","44","","29","","35","","25.0","","99.84","","","","","","Mainly Clear"
"1958-10-01 12:00","1958","10","01","12:00","10.6","","-0.6","","46","","27","","40","","25.0","","99.91","","","","","","Mainly Clear"
"1958-10-01 13:00","1958","10","01","13:00","10.6","","1.7","","54","","29","","42","","25.0","","99.96","","","","","","Mainly Clear"
"1958-10-01 14:00","1958","10","01","14:00","10.6","","-1.7","","42","","27","","45","","25.0","","99.98","","","","","","Mainly Clear"
"1958-10-01 15:00","1958","10","01","15:00","11.1","","-2.2","","39","","27","","45","","25.0","","100.04","","","","","","Mainly Clear"
"1958-10-01 16:00","1958","10","01","16:00","11.1","","-2.2","","39","","29","","37","","25.0","","100.13","","","","","","Mainly Clear"
"1958-10-01 17:00","1958","10","01","17:00","10.6","","-1.1","","44","","29","","26","","25.0","","100.22","","","","","","Mainly Clear"
"1958-10-01 18:00","1958","10","01","18:00","8.3","","0.0","","56","","29","","13","","25.0","","100.29","","","","","","Mainly Clear"
"1958-10-01 19:00","1958","10","01","19:00","7.2","","0.6","","63","","27","","6","","25.0","","100.37","","","","","","Mainly Clear"
"1958-10-01 20:00","1958","10","01","20:00","5.6","","0.6","","70","","25","","10","","25.0","","100.46","","","","","","Clear"
"1958-10-01 21:00","1958","10","01","21:00","5.0","","0.6","","73","","20","","8","","25.0","","100.53","","","","","","Clear"
"1958-10-01 22:00","1958","10","01","22:00","3.9","","0.0","","76","","25","","8","","25.0","","100.59","","","","","","Clear"
"1958-10-01 23:00","1958","10","01","23:00","3.3","","0.6","","82","","25","","13","","25.0","","100.69","","","","","","Clear"
"1958-10-02 00:00","1958","10","02","00:00","2.8","","0.0","","82","","25","","11","","25.0","","100.66","","","","","","Clear"
"1958-10-02 01:00","1958","10","02","01:00","2.2","","0.0","","85","","25","","10","","25.0","","100.74","","","","","","Clear"
"1958-10-02 02:00","1958","10","02","02:00","1.7","","-0.6","","85","","27","","13","","25.0","","100.72","","","","","","Clear"
"1958-10-02 03:00","1958","10","02","03:00","1.7","","-0.6","","85","","27","","11","","25.0","","100.74","","","","","","Clear"
"1958-10-02 04:00","1958","10","02","04:00","1.7","","-1.7","","78","","27","","10","","25.0","","100.79","","","","","","Clear"
"1958-10-02 05:00","1958","10","02","05:00","2.8","","-1.1","","75","","25","","6","","25.0","","100.78","","","","","","Clear"
"1958-10-02 06:00","1958","10","02","06:00","1.7","","-1.7","","78","","36","","10","","25.0","","100.79","","","","","","Mainly Clear"
"1958-10-02 07:00","1958","10","02","07:00","1.7","","0.0","","82","","32","","6","","19.3","","100.82","","","","","","Mainly Clear"
"1958-10-02 08:00","1958","10","02","08:00","3.9","","-0.6","","73","","25","","6","","19.3","","100.80","","","","","","Mainly Clear"
"1958-10-02 09:00","1958","10","02","09:00","9.4","","0.6","","54","","20","","18","","19.3","","100.83","","","","","","Mainly Clear"
"1958-10-02 10:00","1958","10","02","10:00","12.2","","1.1","","47","","20","","24","","24.1","","100.78","","","","","","Mainly Clear"
"1958-10-02 11:00","1958","10","02","11:00","13.9","","1.7","","43","","20","","27","","24.1","","100.77","","","","","","Mainly Clear"
"1958-10-02 12:00","1958","10","02","12:00","14.4","","2.8","","45","","23","","29","","24.1","","100.71","","","","","","Mainly Clear"
"1958-10-02 13:00","1958","10","02","13:00","15.0","","2.8","","44","","23","","27","","24.1","","100.61","","","","","","Mainly Clear"
"1958-10-02 14:00","1958","10","02","14:00","15.0","","3.3","","46","","23","","27","","25.0","","100.58","","","","","","Mostly Cloudy"
"1958-10-02 15:00","1958","10","02","15:00","15.6","","-1.1","","32","","23","","19","","25.0","","100.51","","","","","","Mostly Cloudy"
"1958-10-02 16:00","1958","10","02","16:00","15.6","","0.0","","35","","23","","21","","25.0","","100.45","","","","","","Mostly Cloudy"
"1958-10-02 17:00","1958","10","02","17:00","15.0","","1.7","","40","","23","","18","","25.0","","100.41","","","","","","Mainly Clear"
"1958-10-02 18:00","1958","10","02","18:00","12.2","","2.8","","52","","23","","11","","25.0","","100.43","","","","","","Mostly Cloudy"
"1958-10-02 19:00","1958","10","02","19:00","11.7","","1.7","","50","","23","","13","","25.0","","100.45","","","","","","Mostly Cloudy"
"1958-10-02 20:00","1958","10","02","20:00","10.0","","2.8","","61","","23","","11","","25.0","","100.48","","","","","","Mainly Clear"
"1958-10-02 21:00","1958","10","02","21:00","9.4","","2.2","","61","","23","","13","","25.0","","100.50","","","","","","Mainly Clear"
"1958-10-02 22:00","1958","10","02","22:00","7.8","","2.2","","68","","23","","11","","25.0","","100.49","","","","","","Mainly Clear"
"1958-10-02 23:00","1958","10","02","23:00","7.2","","2.2","","70","","27","","14","","25.0","","100.49","","","","","","Mainly Clear"
"1958-10-03 00:00","1958","10","03","00:00","7.2","","1.1","","65","","27","","8","","25.0","","100.44","","","","","","Mainly Clear"
"1958-10-03 01:00","1958","10","03","01:00","5.6","","2.2","","85","","27","","8","","25.0","","100.48","","","","","","Mainly Clear"
"1958-10-03 02:00","1958","10","03","02:00","6.7","","2.2","","73","","27","","10","","25.0","","100.42","","","","","","Clear"
"1958-10-03 03:00","1958","10","03","03:00","4.4","","2.2","","85","","14","","6","","25.0","","100.40","","","","","","Clear"
"1958-10-03 04:00","1958","10","03","04:00","5.0","","2.2","","82","","18","","8","","19.3","","100.38","","","","","","Mainly Clear"
"1958-10-03 05:00","1958","10","03","05:00","2.8","","1.7","","92","","18","","6","","24.1","","100.38","","","","","","Clear"
"1958-10-03 06:00","1958","10","03","06:00","3.3","","1.7","","89","","","","0","","8.0","","100.38","","","","","","Fog"
"1958-10-03 07:00","1958","10","03","07:00","2.8","","1.1","","89","","","","0","","4.8","","100.37","","","","","","Fog,Smoke"
"1958-10-03 08:00","1958","10","03","08:00","5.0","","3.3","","89","","","","0","","6.4","","100.30","","","","","","Fog,Smoke"
"1958-10-03 09:00","1958","10","03","09:00","7.2","","5.0","","86","","36","","6","","6.4","","100.28","","","","","","Haze"
"1958-10-03 10:00","1958","10","03","10:00","12.8","","6.7","","66","","18","","13","","4.8","","100.22","","","","","","Haze"
"1958-10-03 11:00","1958","10","03","11:00","15.0","","5.6","","53","","23","","13","","16.1","","100.14","","","","","","Mostly Cloudy"
"1958-10-03 12:00","1958","10","03","12:00","15.6","","4.4","","48","","16","","14","","24.1","","100.02","","","","","","Mostly Cloudy"
"1958-10-03 13:00","1958","10","03","13:00","15.6","","2.8","","42","","14","","19","","25.0","","99.92","","","","","","Mainly Clear"
"1958-10-03 14:00","1958","10","03","14:00","15.6","","1.7","","39","","16","","26","","25.0","","99.82","","","","","","Mainly Clear"
"1958-10-03 15:00","1958","10","03","15:00","15.6","","0.0","","35","","16","","26","","25.0","","99.72","","","","","","Mainly Clear"
"1958-10-03 16:00","1958","10","03","16:00","15.0","","1.7","","40","","16","","27","","25.0","","99.68","","","","","","Mainly Clear"
"1958-10-03 17:00","1958","10","03","17:00","14.4","","3.9","","49","","14","","18","","25.0","","99.64","","","","","","Mainly Clear"
"1958-10-03 18:00","1958","10","03","18:00","12.8","","4.4","","57","","14","","13","","25.0","","99.63","","","","","","Mainly Clear"
"1958-10-03 19:00","1958","10","03","19:00","11.7","","5.6","","66","","16","","14","","25.0","","99.61","","","","","","Mainly Clear"
"1958-10-03 20:00","1958","10","03","20:00","11.1","","5.0","","66","","20","","14","","25.0","","99.58","","","","","","Mainly Clear"
"1958-10-03 21:00","1958","10","03","21:00","9.4","","4.4","","71","","20","","11","","25.0","","99.56","","","","","","Mainly Clear"
"1958-10-03 22:00","1958","10","03","22:00","8.3","","3.9","","74","","25","","11","","25.0","","99.53","","","","","","Mainly Clear"
"1958-10-03 23:00","1958","10","03","23:00","8.3","","4.4","","76","","23","","16","","25.0","","99.50","","","","","","Mainly Clear"
"1958-10-04 00:00","1958","10","04","00:00","8.3","","3.9","","74","","23","","16","","25.0","","99.47","","","","","","Mainly Clear"
"1958-10-04 01:00","1958","10","04","01:00","8.3","","3.3","","71","","23","","14","","25.0","","99.43","","","","","","Mainly Clear"
"1958-10-04 02:00","1958","10","04","02:00","8.3","","2.8","","68","","20","","10","","25.0","","99.37","","","","","","Mostly Cloudy"
"1958-10-04 03:00","1958","10","04","03:00","8.9","","3.3","","68","","23","","10","","24.1","","99.32","","","","","","Mostly Cloudy"
"1958-10-04 04:00","1958","10","04","04:00","10.0","","3.3","","63","","23","","14","","24.1","","99.27","","","","","","Mostly Cloudy"
"1958-10-04 05:00","1958","10","04","05:00","9.4","","3.3","","66","","23","","18","","24.1","","99.25","","","","","","Mostly Cloudy"
"1958-10-04 06:00","1958","10","04","06:00","8.9","","3.3","","68","","23","","16","","19.3","","99.20","","","","","","Mainly Clear"
"1958-10-04 07:00","1958","10","04","07:00","8.3","","3.3","","71","","20","","16","","19.3","","99.20","","","","","","Mainly Clear"
"1958-10-04 08:00","1958","10","04","08:00","10.0","","3.9","","66","","23","","16","","19.3","","99.19","","","","","","Mainly Clear"
"1958-10-04 09:00","1958","10","04","09:00","12.8","","4.4","","57","","23","","19","","19.3","","99.18","","","","","","Mainly Clear"
"1958-10-04 10:00","1958","10","04","10:00","16.1","","5.6","","50","","23","","16","","19.3","","99.10","","","","","","Clear"
"1958-10-04 11:00","1958","10","04","11:00","18.3","","6.7","","46","","23","","35","","25.0","","99.01","","","","","","Clear"
"1958-10-04 12:00","1958","10","04","12:00","20.0","","8.3","","47","","23","","39","","25.0","","98.90","","","","","","Mainly Clear"
"1958-10-04 13:00","1958","10","04","13:00","20.6","","8.3","","45","","20","","39","","25.0","","98.75","","","","","","Mainly Clear"
"1958-10-04 14:00","1958","10","04","14:00","21.1","","8.9","","46","","23","","42","","25.0","","98.66","","","","","","Mainly Clear"
"1958-10-04 15:00","1958","10","04","15:00","20.6","","8.3","","45","","23","","42","","25.0","","98.55","","","","","","Mainly Clear"
"1958-10-04 16:00","1958","10","04","16:00","19.4","","8.3","","49","","23","","37","","25.0","","98.50","","","","","","Mostly Cloudy"
"1958-10-04 17:00","1958","10","04","17:00","18.9","","7.8","","48","","23","","42","","25.0","","98.47","","","","","","Mostly Cloudy"
"1958-10-04 18:00","1958","10","04","18:00","17.8","","6.7","","48","","23","","40","","24.1","","98.41","","","","","","Mostly Cloudy"
"1958-10-04 19:00","1958","10","04","19:00","17.8","","6.1","","46","","23","","35","","24.1","","98.49","","","","","","Mostly Cloudy"
"1958-10-04 20:00","1958","10","04","20:00","17.2","","7.2","","52","","23","","35","","24.1","","98.49","","","","","","Cloudy"
"1958-10-04 21:00","1958","10","04","21:00","17.8","","8.3","","54","","25","","43","","24.1","","98.44","","","","","","Cloudy"
"1958-10-04 22:00","1958","10","04","22:00","17.2","","8.9","","58","","23","","35","","25.0","","98.39","","","","","","Mostly Cloudy"
"1958-10-04 23:00","1958","10","04","23:00","16.7","","9.4","","62","","25","","23","","25.0","","98.38","","","","","","Mainly Clear"
"1958-10-05 00:00","1958","10","05","00:00","15.0","","8.9","","67","","27","","21","","25.0","","98.41","","","","","","Mostly Cloudy"
"1958-10-05 01:00","1958","10","05","01:00","14.4","","7.8","","64","","34","","29","","25.0","","98.51","","","","","","Cloudy"
"1958-10-05 02:00","1958","10","05","02:00","10.6","","7.8","","83","","34","","24","","24.1","","98.60","","","","","","Rain Showers"
"1958-10-05 03:00","1958","10","05","03:00","10.0","","7.2","","83","","34","","29","","24.1","","98.66","","","","","","Mostly Cloudy"
"1958-10-05 04:00","1958","10","05","04:00","8.9","","5.0","","77","","36","","40","","24.1","","98.81","","","","","","Cloudy"
"1958-10-05 05:00","1958","10","05","05:00","7.8","","2.8","","71","","36","","40","","24.1","","99.02","","","","","","Cloudy"
"1958-10-05 06:00","1958","10","05","06:00","5.0","","-1.1","","65","","36","","39","","25.0","","99.24","","","","","","Mainly Clear"
"1958-10-05 07:00","1958","10","05","07:00","3.9","","-2.2","","64","","36","","26","","25.0","","99.40","","","","","","Mainly Clear"
"1958-10-05 08:00","1958","10","05","08:00","4.4","","-1.7","","65","","36","","24","","25.0","","99.56","","","","","","Mostly Cloudy"
"1958-10-05 09:00","1958","10","05","09:00","5.6","","-2.2","","57","","36","","29","","25.0","","99.70","","","","","","Mostly Cloudy"
"1958-10-05 10:00","1958","10","05","10:00","6.1","","-3.3","","51","","36","","29","","25.0","","99.80","","","","","","Mostly Cloudy"
"1958-10-05 11:00","1958","10","05","11:00","6.1","","-3.3","","51","","36","","29","","25.0","","99.90","","","","","","Mainly Clear"
"1958-10-05 12:00","1958","10","05","12:00","6.1","","-2.2","","55","","36","","29","","25.0","","99.95","","","","","","Mainly Clear"
"1958-10-05 13:00","1958","10","05","13:00","7.8","","-2.2","","49","","34","","32","","25.0","","99.95","","","","","","Mainly Clear"
"1958-10-05 14:00","1958","10","05","14:00","7.2","","-5.0","","41","","34","","29","","25.0","","99.98","","","","","","Mainly Clear"
"1958-10-05 15:00","1958","10","05","15:00","7.2","","-5.0","","41","","34","","32","","25.0","","100.02","","","","","","Mainly Clear"
"1958-10-05 16:00","1958","10","05","16:00","7.2","","-5.0","","41","","34","","24","","25.0","","100.06","","","","","","Mainly Clear"
"1958-10-05 17:00","1958","10","05","17:00","6.7","","-5.0","","43","","34","","19","","25.0","","100.14","","","","","","Mainly Clear"
"1958-10-05 18:00","1958","10","05","18:00","5.0","","-3.9","","53","","34","","19","","25.0","","100.20","","","","","","Mainly Clear"
"1958-10-05 19:00","1958","10","05","19:00","4.4","","-5.0","","50","","34","","13","","25.0","","100.27","","","","","","Clear"
"1958-10-05 20:00","1958","10","05","20:00","2.8","","-3.9","","61","","34","","18","","25.0","","100.29","","","","","","Clear"
"1958-10-05 21:00","1958","10","05","21:00","1.7","","-2.8","","72","","34","","16","","25.0","","100.33","","","","","","Clear"
"1958-10-05 22:00","1958","10","05","22:00","1.1","","-3.9","","69","","34","","11","","25.0","","100.39","","","","","","Clear"
"1958-10-05 23:00","1958","10","05","23:00","0.0","","-4.4","","72","","27","","10","","25.0","","100.43","","","","-3","","Clear"
"1958-10-06 00:00","1958","10","06","00:00","-1.1","","-5.0","","75","","7","","6","","25.0","","100.44","","","","-3","","Clear"
"1958-10-06 01:00","1958","10","06","01:00","-1.1","","-3.9","","81","","2","","8","","25.0","","100.46","","","","-4","","Clear"
"1958-10-06 02:00","1958","10","06","02:00","-2.2","","-3.9","","88","","36","","8","","25.0","","100.50","","","","-5","","Clear"
"1958-10-06 03:00","1958","10","06","03:00","-2.8","","-5.0","","85","","36","","10","","25.0","","100.51","","","","-7","","Clear"
"1958-10-06 04:00","1958","10","06","04:00","-2.8","","-5.0","","85","","36","","10","","25.0","","100.51","","","","-7","","Clear"
"1958-10-06 05:00","1958","10","06","05:00","-3.3","","-5.0","","88","","36","","10","","25.0","","100.53","","","","-7","","Clear"
"1958-10-06 06:00","1958","10","06","06:00","-3.3","","-5.6","","85","","36","","8","","25.0","","100.55","","","","-7","","Clear"
"1958-10-06 07:00","1958","10","06","07:00","-2.8","","-5.0","","85","","36","","6","","25.0","","100.57","","","","-5","","Clear"
"1958-10-06 08:00","1958","10","06","08:00","0.6","","-2.8","","78","","32","","3","","25.0","","100.59","","","","","","Clear"
"1958-10-06 09:00","1958","10","06","09:00","5.6","","-0.6","","65","","16","","14","","12.9","","100.56","","","","","","Clear"
"1958-10-06 10:00","1958","10","06","10:00","8.3","","-0.6","","53","","16","","23","","12.9","","100.50","","","","","","Mainly Clear"
"1958-10-06 11:00","1958","10","06","11:00","8.3","","-0.6","","53","","18","","19","","16.1","","100.50","","","","","","Mainly Clear"
"1958-10-06 12:00","1958","10","06","12:00","9.4","","0.0","","52","","18","","19","","16.1","","100.38","","","","","","Mainly Clear"
"1958-10-06 13:00","1958","10","06","13:00","10.0","","-0.6","","48","","18","","26","","16.1","","100.25","","","","","","Mainly Clear"
"1958-10-06 14:00","1958","10","06","14:00","10.0","","0.0","","50","","16","","23","","16.1","","100.19","","","","","","Mostly Cloudy"
"1958-10-06 15:00","1958","10","06","15:00","11.1","","-1.1","","43","","16","","19","","16.1","","100.10","","","","","","Mainly Clear"
"1958-10-06 16:00","1958","10","06","16:00","10.0","","0.0","","50","","11","","18","","16.1","","100.06","","","","","","Mainly Clear"
"1958-10-06 17:00","1958","10","06","17:00","9.4","","0.0","","52","","14","","18","","16.1","","100.01","","","","","","Mostly Cloudy"
"1958-10-06 18:00","1958","10","06","18:00","8.3","","0.6","","58","","16","","13","","16.1","","99.95","","","","","","Mostly Cloudy"
"1958-10-06 19:00","1958","10","06","19:00","8.3","","0.6","","58","","18","","13","","16.1","","99.90","","","","","","Mostly Cloudy"
"1958-10-06 20:00","1958","10","06","20:00","7.2","","2.8","","73","","16","","11","","16.1","","99.85","","","","","","Mainly Clear"
"1958-10-06 21:00","1958","10","06","21:00","6.7","","2.8","","76","","18","","11","","16.1","","99.83","","","","","","Mainly Clear"
"1958-10-06 22:00","1958","10","06","22:00","6.1","","2.8","","79","","20","","8","","16.1","","99.77","","","","","","Mainly Clear"
"1958-10-06 23:00","1958","10","06","23:00","5.6","","3.3","","86","","18","","6","","19.3","","99.69","","","","","","Clear"
"1958-10-07 00:00","1958","10","07","00:00","5.0","","2.8","","86","","23","","3","","19.3","","99.67","","","","","","Clear"
"1958-10-07 01:00","1958","10","07","01:00","4.4","","2.2","","85","","23","","3","","19.3","","99.67","","","","","","Clear"
"1958-10-07 02:00","1958","10","07","02:00","3.3","","1.7","","89","","14","","3","","19.3","","99.66","","","","","","Clear"
"1958-10-07 03:00","1958","10","07","03:00","3.9","","1.7","","85","","","","0","","19.3","","99.64","","","","","","Mainly Clear"
"1958-10-07 04:00","1958","10","07","04:00","5.6","","2.8","","82","","","","0","","16.1","","99.66","","","","","","Mostly Cloudy"
"1958-10-07 05:00","1958","10","07","05:00","5.6","","3.3","","86","","20","","10","","16.1","","99.65","","","","","","Mostly Cloudy"
"1958-10-07 06:00","1958","10","07","06:00","9.4","","6.1","","80","","20","","19","","16.1","","99.66","","","","","","Mostly Cloudy"
"1958-10-07 07:00","1958","10","07","07:00","9.4","","6.7","","83","","20","","18","","11.3","","99.66","","","","","","Mostly Cloudy"
"1958-10-07 08:00","1958","10","07","08:00","10.6","","6.7","","77","","20","","19","","11.3","","99.67","","","","","","Mostly Cloudy"
"1958-10-07 09:00","1958","10","07","09:00","13.9","","7.8","","67","","20","","32","","11.3","","99.66","","","","","","Mostly Cloudy"
"1958-10-07 10:00","1958","10","07","10:00","15.6","","8.9","","65","","23","","29","","12.9","","99.56","","","","","","Mainly Clear"
"1958-10-07 11:00","1958","10","07","11:00","17.8","","9.4","","58","","23","","31","","11.3","","99.53","","","","","","Mainly Clear"
"1958-10-07 12:00","1958","10","07","12:00","20.0","","10.0","","53","","20","","26","","11.3","","99.50","","","","","","Mainly Clear"
"1958-10-07 13:00","1958","10","07","13:00","21.1","","10.0","","49","","23","","29","","9.7","","99.43","","","","","","Haze"
"1958-10-07 14:00","1958","10","07","14:00","22.2","","8.9","","43","","23","","31","","9.7","","99.37","","","","","","Haze"
"1958-10-07 15:00","1958","10","07","15:00","22.8","","10.0","","44","","20","","23","","9.7","","99.35","","","","","","Haze"
"1958-10-07 16:00","1958","10","07","16:00","21.1","","11.1","","53","","20","","23","","9.7","","99.33","","","","","","Haze"
"1958-10-07 17:00","1958","10","07","17:00","20.0","","11.7","","59","","20","","19","","9.7","","99.34","","","","","","Haze"
"1958-10-07 18:00","1958","10","07","18:00","17.8","","11.1","","65","","18","","16","","9.7","","99.33","","","","","","Haze"
"1958-10-07 19:00","1958","10","07","19:00","17.2","","11.1","","67","","18","","16","","11.3","","99.34","","","","","","Mostly Cloudy"
"1958-10-07 20:00","1958","10","07","20:00","16.7","","11.1","","70","","18","","13","","11.3","","99.36","","","","","","Mostly Cloudy"
"1958-10-07 21:00","1958","10","07","21:00","15.6","","10.0","","70","","18","","11","","12.9","","99.37","","","","","","Mostly Cloudy"
"1958-10-07 22:00","1958","10","07","22:00","14.4","","9.4","","72","","18","","6","","9.7","","99.38","","","","","","Haze"
"1958-10-07 23:00","1958","10","07","23:00","14.4","","9.4","","72","","18","","16","","9.7","","99.31","","","","","","Haze"
"1958-10-08 00:00","1958","10","08","00:00","13.9","","9.4","","75","","18","","13","","9.7","","99.23","","","","","","Haze"
"1958-10-08 01:00","1958","10","08","01:00","13.9","","9.4","","75","","16","","10","","9.7","","99.23","","","","","","Haze"
"1958-10-08 02:00","1958","10","08","02:00","13.3","","8.9","","74","","16","","11","","9.7","","99.21","","","","","","Haze"
"1958-10-08 03:00","1958","10","08","03:00","13.9","","8.9","","72","","16","","13","","9.7","","99.13","","","","","","Haze"
"1958-10-08 04:00","1958","10","08","04:00","13.3","","8.9","","74","","16","","13","","9.7","","99.12","","","","","","Haze"
"1958-10-08 05:00","1958","10","08","05:00","12.8","","8.9","","77","","16","","14","","9.7","","99.06","","","","","","Haze"
"1958-10-08 06:00","1958","10","08","06:00","12.2","","8.9","","80","","11","","8","","11.3","","99.02","","","","","","Mostly Cloudy"
"1958-10-08 07:00","1958","10","08","07:00","12.8","","8.9","","77","","14","","16","","6.4","","98.98","","","","","","Haze"
"1958-10-08 08:00","1958","10","08","08:00","12.8","","8.9","","77","","14","","16","","6.4","","98.98","","","","","","Haze"
"1958-10-08 09:00","1958","10","08","09:00","13.9","","9.4","","75","","16","","16","","8.0","","98.94","","","","","","Haze"
"1958-10-08 10:00","1958","10","08","10:00","15.0","","10.6","","75","","16","","19","","8.0","","98.89","","","","","","Haze"
"1958-10-08 11:00","1958","10","08","11:00","15.0","","11.1","","78","","18","","24","","6.4","","98.87","","","","","","Rain Showers,Haze"
"1958-10-08 12:00","1958","10","08","12:00","15.0","","12.2","","84","","23","","29","","8.0","","98.83","","","","","","Haze"
"1958-10-08 13:00","1958","10","08","13:00","15.6","","12.2","","81","","23","","29","","9.7","","98.75","","","","","","Haze"
"1958-10-08 14:00","1958","10","08","14:00","17.2","","13.9","","81","","23","","29","","12.9","","98.74","","","","","","Cloudy"
"1958-10-08 15:00","1958","10","08","15:00","18.3","","15.0","","81","","23","","32","","12.9","","98.74","","","","","","Cloudy"
"1958-10-08 16:00","1958","10","08","16:00","18.3","","15.0","","81","","23","","21","","12.9","","98.74","","","","","","Mostly Cloudy"
"1958-10-08 17:00","1958","10","08","17:00","18.3","","15.6","","84","","20","","14","","9.7","","98.76","","","","","","Haze"
"1958-10-08 18:00","1958","10","08","18:00","17.2","","15.0","","87","","20","","18","","11.3","","98.77","","","","","","Mostly Cloudy"
"1958-10-08 19:00","1958","10","08","19:00","17.2","","15.0","","87","","25","","13","","11.3","","98.85","","","","","","Mostly Cloudy"
"1958-10-08 20:00","1958","10","08","20:00","16.7","","14.4","","87","","25","","14","","11.3","","98.90","","","","","","Mostly Cloudy"
"1958-10-08 21:00","1958","10","08","21:00","15.6","","13.9","","90","","25","","14","","12.9","","98.91","","","","","","Mostly Cloudy"
"1958-10-08 22:00","1958","10","08","22:00","15.0","","13.9","","93","","23","","11","","12.9","","98.93","","","","","","Mainly Clear"
"1958-10-08 23:00","1958","10","08","23:00","15.0","","13.9","","93","","23","","16","","8.0","","98.98","","","","","","Fog"
"1958-10-09 00:00","1958","10","09","00:00","15.0","","13.3","","90","","25","","13","","8.0","","98.91","","","","","","Fog"
"1958-10-09 01:00","1958","10","09","01:00","15.6","","14.4","","93","","23","","10","","6.4","","98.86","","","","","","Fog"
"1958-10-09 02:00","1958","10","09","02:00","16.1","","14.4","","90","","23","","16","","6.4","","98.80","","","","","","Fog"
"1958-10-09 03:00","1958","10","09","03:00","12.8","","12.2","","96","","9","","6","","3.2","","98.77","","","","","","Fog"
"1958-10-09 04:00","1958","10","09","04:00","13.9","","13.3","","96","","20","","11","","4.8","","98.80","","","","","","Fog"
"1958-10-09 05:00","1958","10","09","05:00","14.4","","13.9","","96","","18","","10","","4.0","","98.86","","","","","","Fog"
"1958-10-09 06:00","1958","10","09","06:00","13.9","","12.8","","93","","18","","13","","3.2","","98.90","","","","","","Fog"
"1958-10-09 07:00","1958","10","09","07:00","14.4","","13.3","","93","","20","","13","","3.2","","98.89","","","","","","Fog"
"1958-10-09 08:00","1958","10","09","08:00","15.6","","14.4","","93","","16","","13","","2.0","","98.84","","","","","","Fog"
"1958-10-09 09:00","1958","10","09","09:00","17.2","","15.0","","87","","18","","23","","3.2","","98.78","","","","","","Fog"
"1958-10-09 10:00","1958","10","09","10:00","20.0","","15.6","","76","","18","","27","","4.8","","98.74","","","","","","Haze"
"1958-10-09 11:00","1958","10","09","11:00","21.1","","16.1","","73","","20","","23","","4.8","","98.72","","26","","","","Haze"
"1958-10-09 12:00","1958","10","09","12:00","21.7","","16.7","","73","","20","","29","","6.4","","98.66","","27","","","","Haze"
"1958-10-09 13:00","1958","10","09","13:00","21.7","","16.7","","73","","20","","26","","6.4","","98.58","","27","","","","Haze"
"1958-10-09 14:00","1958","10","09","14:00","21.1","","17.8","","81","","23","","29","","6.4","","98.52","","27","","","","Haze"
"1958-10-09 15:00","1958","10","09","15:00","21.1","","17.2","","79","","23","","31","","8.0","","98.57","","27","","","","Haze"
"1958-10-09 16:00","1958","10","09","16:00","21.1","","16.7","","76","","23","","42","","12.9","","98.61","","26","","","","Mostly Cloudy"
"1958-10-09 17:00","1958","10","09","17:00","21.1","","17.2","","79","","23","","35","","16.1","","98.61","","27","","","","Mostly Cloudy"
"1958-10-09 18:00","1958","10","09","18:00","19.4","","16.1","","81","","25","","26","","16.1","","98.65","","","","","","Mainly Clear"
"1958-10-09 19:00","1958","10","09","19:00","18.9","","16.1","","84","","23","","16","","16.1","","98.67","","","","","","Mainly Clear"
"1958-10-09 20:00","1958","10","09","20:00","18.3","","16.1","","87","","23","","19","","16.1","","98.74","","","","","","Mostly Cloudy"
"1958-10-09 21:00","1958","10","09","21:00","17.8","","16.1","","90","","23","","19","","12.9","","98.73","","","","","","Mostly Cloudy"
"1958-10-09 22:00","1958","10","09","22:00","17.8","","16.1","","90","","23","","19","","8.0","","98.73","","","","","","Fog"
"1958-10-09 23:00","1958","10","09","23:00","17.8","","16.7","","93","","23","","16","","11.3","","98.74","","","","","","Mainly Clear"
"1958-10-10 00:00","1958","10","10","00:00","17.2","","16.1","","93","","20","","16","","11.3","","98.68","","","","","","Mainly Clear"
"1958-10-10 01:00","1958","10","10","01:00","17.2","","16.1","","93","","23","","19","","11.3","","98.69","","","","","","Clear"
"1958-10-10 02:00","1958","10","10","02:00","16.7","","15.6","","93","","20","","14","","11.3","","98.67","","","","","","Clear"
"1958-10-10 03:00","1958","10","10","03:00","16.7","","16.1","","96","","23","","13","","8.0","","98.63","","","","","","Fog"
"1958-10-10 04:00","1958","10","10","04:00","16.7","","16.1","","97","","23","","13","","4.0","","98.61","","","","","","Fog"
"1958-10-10 05:00","1958","10","10","05:00","17.2","","16.7","","96","","18","","13","","2.4","","98.57","","","","","","Fog"
"1958-10-10 06:00","1958","10","10","06:00","16.7","","16.1","","97","","16","","13","","0.4","","98.54","","","","","","Fog"
"1958-10-10 07:00","1958","10","10","07:00","17.2","","16.7","","96","","18","","16","","1.6","","98.42","","","","","","Fog"
"1958-10-10 08:00","1958","10","10","08:00","17.8","","17.2","","97","","18","","24","","1.2","","98.32","","","","","","Fog"
"1958-10-10 09:00","1958","10","10","09:00","18.3","","17.2","","93","","18","","31","","2.0","","98.19","","","","","","Fog"
"1958-10-10 10:00","1958","10","10","10:00","14.4","","13.9","","96","","27","","24","","2.0","","98.29","","","","","","Thunderstorms,Moderate Rain Showers,Fog"
"1958-10-10 11:00","1958","10","10","11:00","13.9","","11.7","","87","","29","","26","","12.9","","98.38","","","","","","Rain Showers"
"1958-10-10 12:00","1958","10","10","12:00","14.4","","9.4","","72","","29","","35","","16.1","","98.41","","","","","","Mostly Cloudy"
"1958-10-10 13:00","1958","10","10","13:00","14.4","","6.7","","60","","27","","55","","16.1","","98.39","","","","","","Mostly Cloudy"
"1958-10-10 14:00","1958","10","10","14:00","14.4","","1.7","","42","","27","","51","","19.3","","98.44","","","","","","Mainly Clear"
"1958-10-10 15:00","1958","10","10","15:00","13.9","","0.6","","40","","27","","53","","19.3","","98.53","","","","","","Mainly Clear"
"1958-10-10 16:00","1958","10","10","16:00","12.8","","0.0","","41","","27","","61","","25.0","","98.62","","","","","","Mainly Clear"
"1958-10-10 17:00","1958","10","10","17:00","11.7","","0.0","","45","","27","","55","","25.0","","98.69","","","","","","Mainly Clear"
"1958-10-10 18:00","1958","10","10","18:00","10.6","","0.0","","48","","27","","48","","25.0","","98.77","","","","","","Mainly Clear"
"1958-10-10 19:00","1958","10","10","19:00","9.4","","0.0","","52","","27","","39","","25.0","","98.83","","","","","","Mainly Clear"
"1958-10-10 20:00","1958","10","10","20:00","8.9","","0.6","","56","","27","","40","","25.0","","98.85","","","","","","Mainly Clear"
"1958-10-10 21:00","1958","10","10","21:00","8.9","","0.6","","56","","27","","37","","25.0","","98.88","","","","","","Mostly Cloudy"
"1958-10-10 22:00","1958","10","10","22:00","8.9","","1.7","","61","","27","","24","","25.0","","98.85","","","","","","Cloudy"
"1958-10-10 23:00","1958","10","10","23:00","8.9","","2.8","","66","","23","","18","","25.0","","98.78","","","","","","Cloudy"
"1958-10-11 00:00","1958","10","11","00:00","8.9","","3.3","","68","","27","","26","","25.0","","98.75","","","","","","Cloudy"
"1958-10-11 01:00","1958","10","11","01:00","8.3","","3.3","","71","","27","","42","","25.0","","98.75","","","","","","Cloudy"
"1958-10-11 02:00","1958","10","11","02:00","7.8","","2.8","","71","","27","","32","","25.0","","98.73","","","","","","Mostly Cloudy"
"1958-10-11 03:00","1958","10","11","03:00","8.3","","2.2","","65","","27","","43","","25.0","","98.72","","","","","","Cloudy"
"1958-10-11 04:00","1958","10","11","04:00","7.8","","2.8","","71","","27","","47","","25.0","","98.73","","","","","","Cloudy"
"1958-10-11 05:00","1958","10","11","05:00","7.8","","2.8","","71","","25","","35","","25.0","","98.75","","","","","","Cloudy"
"1958-10-11 06:00","1958","10","11","06:00","8.3","","2.8","","68","","27","","43","","25.0","","98.79","","","","","","Cloudy"
"1958-10-11 07:00","1958","10","11","07:00","7.8","","2.8","","71","","27","","39","","25.0","","98.81","","","","","","Mostly Cloudy"
"1958-10-11 08:00","1958","10","11","08:00","8.3","","3.3","","71","","27","","39","","25.0","","98.84","","","","","","Mostly Cloudy"
"1958-10-11 09:00","1958","10","11","09:00","9.4","","3.3","","66","","27","","55","","25.0","","98.90","","","","","","Mainly Clear"
"1958-10-11 10:00","1958","10","11","10:00","10.6","","3.3","","61","","27","","53","","25.0","","98.96","","","","","","Mostly Cloudy"
"1958-10-11 11:00","1958","10","11","11:00","10.0","","4.4","","68","","27","","50","","19.3","","99.05","","","","","","Mostly Cloudy"
"1958-10-11 12:00","1958","10","11","12:00","9.4","","5.6","","77","","32","","48","","25.0","","99.15","","","","","","Rain Showers"
"1958-10-11 13:00","1958","10","11","13:00","10.6","","4.4","","66","","29","","55","","25.0","","99.21","","","","","","Mostly Cloudy"
"1958-10-11 14:00","1958","10","11","14:00","9.4","","3.3","","66","","32","","45","","25.0","","99.32","","","","","","Cloudy"
"1958-10-11 15:00","1958","10","11","15:00","7.8","","3.9","","76","","32","","40","","25.0","","99.43","","","","","","Mostly Cloudy"
"1958-10-11 16:00","1958","10","11","16:00","8.3","","3.3","","71","","32","","29","","25.0","","99.53","","","","","","Mostly Cloudy"
"1958-10-11 17:00","1958","10","11","17:00","8.3","","1.7","","63","","32","","29","","25.0","","99.67","","","","","","Mostly Cloudy"
"1958-10-11 18:00","1958","10","11","18:00","6.7","","2.2","","73","","32","","27","","25.0","","99.80","","","","","","Mostly Cloudy"
"1958-10-11 19:00","1958","10","11","19:00","6.1","","0.0","","65","","29","","26","","25.0","","99.87","","","","","","Mainly Clear"
"1958-10-11 20:00","1958","10","11","20:00","6.1","","0.0","","65","","29","","23","","25.0","","99.97","","","","","","Mainly Clear"
"1958-10-11 21:00","1958","10","11","21:00","6.1","","-0.6","","62","","29","","26","","25.0","","100.05","","","","","","Mainly Clear"
"1958-10-11 22:00","1958","10","11","22:00","5.0","","0.0","","70","","29","","21","","25.0","","100.13","","","","","","Mainly Clear"
"1958-10-11 23:00","1958","10","11","23:00","5.0","","-0.6","","67","","34","","18","","25.0","","100.19","","","","","","Mostly Cloudy"
"1958-10-12 00:00","1958","10","12","00:00","5.0","","0.6","","73","","36","","19","","25.0","","100.27","","","","","","Mainly Clear"
"1958-10-12 01:00","1958","10","12","01:00","4.4","","0.0","","73","","36","","14","","25.0","","100.33","","","","","","Mostly Cloudy"
"1958-10-12 02:00","1958","10","12","02:00","3.3","","0.0","","79","","36","","13","","25.0","","100.38","","","","","","Mainly Clear"
"1958-10-12 03:00","1958","10","12","03:00","1.1","","-1.1","","85","","29","","13","","25.0","","100.39","","","","","","Mainly Clear"
"1958-10-12 04:00","1958","10","12","04:00","0.6","","-1.7","","85","","27","","11","","25.0","","100.46","","","","","","Clear"
"1958-10-12 05:00","1958","10","12","05:00","-0.6","","-2.2","","88","","32","","10","","25.0","","100.49","","","","-4","","Clear"
"1958-10-12 06:00","1958","10","12","06:00","0.0","","-2.2","","85","","29","","10","","25.0","","100.57","","","","-3","","Mainly Clear"
"1958-10-12 07:00","1958","10","12","07:00","1.7","","-1.7","","78","","32","","18","","25.0","","100.62","","","","","","Mainly Clear"
"1958-10-12 08:00","1958","10","12","08:00","3.3","","-1.1","","73","","32","","19","","25.0","","100.70","","","","","","Clear"
"1958-10-12 09:00","1958","10","12","09:00","6.1","","0.0","","65","","32","","19","","25.0","","100.70","","","","","","Clear"
"1958-10-12 10:00","1958","10","12","10:00","7.2","","-0.6","","58","","29","","29","","25.0","","100.71","","","","","","Mainly Clear"
"1958-10-12 11:00","1958","10","12","11:00","8.9","","-0.6","","52","","27","","32","","25.0","","100.70","","","","","","Mainly Clear"
"1958-10-12 12:00","1958","10","12","12:00","10.0","","-1.7","","44","","29","","35","","25.0","","100.68","","","","","","Mostly Cloudy"
"1958-10-12 13:00","1958","10","12","13:00","10.6","","-2.2","","41","","29","","32","","25.0","","100.62","","","","","","Mostly Cloudy"
"1958-10-12 14:00","1958","10","12","14:00","11.1","","-1.1","","43","","29","","32","","25.0","","100.60","","","","","","Cloudy"
"1958-10-12 15:00","1958","10","12","15:00","11.1","","-1.1","","43","","29","","32","","25.0","","100.60","","","","","","Mostly Cloudy"
"1958-10-12 16:00","1958","10","12","16:00","10.6","","-2.2","","41","","32","","29","","25.0","","100.60","","","","","","Mostly Cloudy"
"1958-10-12 17:00","1958","10","12","17:00","9.4","","-1.7","","46","","32","","23","","25.0","","100.61","","","","","","Cloudy"
"1958-10-12 18:00","1958","10","12","18:00","8.9","","-1.1","","49","","32","","19","","25.0","","100.62","","","","","","Cloudy"
"1958-10-12 19:00","1958","10","12","19:00","8.3","","-1.1","","51","","29","","16","","25.0","","100.66","","","","","","Cloudy"
"1958-10-12 20:00","1958","10","12","20:00","7.8","","0.6","","60","","27","","16","","25.0","","100.68","","","","","","Cloudy"
"1958-10-12 21:00","1958","10","12","21:00","7.2","","1.1","","65","","27","","23","","25.0","","100.68","","","","","","Rain Showers"
"1958-10-12 22:00","1958","10","12","22:00","6.7","","2.8","","76","","27","","13","","24.1","","100.67","","","","","","Rain Showers"
"1958-10-12 23:00","1958","10","12","23:00","6.1","","3.9","","86","","23","","11","","19.3","","100.63","","","","","","Rain"
"1958-10-13 00:00","1958","10","13","00:00","6.1","","4.4","","89","","23","","16","","19.3","","100.60","","","","","","Rain"
"1958-10-13 01:00","1958","10","13","01:00","6.1","","4.4","","89","","23","","14","","19.3","","100.57","","","","","","Rain"
"1958-10-13 02:00","1958","10","13","02:00","6.1","","4.4","","89","","23","","14","","19.3","","100.54","","","","","","Rain"
"1958-10-13 03:00","1958","10","13","03:00","6.1","","5.6","","96","","25","","13","","19.3","","100.49","","","","","","Rain"
"1958-10-13 04:00","1958","10","13","04:00","6.7","","5.6","","93","","25","","16","","24.1","","100.48","","","","","","Cloudy"
"1958-10-13 05:00","1958","10","13","05:00","7.2","","5.6","","89","","25","","18","","24.1","","100.46","","","","","","Rain"
"1958-10-13 06:00","1958","10","13","06:00","7.2","","5.6","","89","","27","","16","","24.1","","100.49","","","","","","Rain"
"1958-10-13 07:00","1958","10","13","07:00","7.2","","5.6","","89","","27","","14","","24.1","","100.52","","","","","","Cloudy"
"1958-10-13 08:00","1958","10","13","08:00","7.8","","5.6","","86","","32","","14","","24.1","","100.56","","","","","","Cloudy"
"1958-10-13 09:00","1958","10","13","09:00","7.8","","4.4","","79","","2","","21","","24.1","","100.61","","","","","","Mostly Cloudy"
"1958-10-13 10:00","1958","10","13","10:00","8.9","","3.9","","71","","2","","31","","24.1","","100.63","","","","","","Mostly Cloudy"
"1958-10-13 11:00","1958","10","13","11:00","8.9","","4.4","","74","","2","","24","","24.1","","100.68","","","","","","Mostly Cloudy"
"1958-10-13 12:00","1958","10","13","12:00","10.0","","5.0","","71","","2","","26","","24.1","","100.69","","","","","","Mostly Cloudy"
"1958-10-13 13:00","1958","10","13","13:00","10.6","","4.4","","66","","2","","23","","24.1","","100.69","","","","","","Mostly Cloudy"
"1958-10-13 14:00","1958","10","13","14:00","11.1","","1.1","","50","","2","","18","","24.1","","100.68","","","","","","Mostly Cloudy"
"1958-10-13 15:00","1958","10","13","15:00","11.7","","1.7","","50","","2","","18","","24.1","","100.66","","","","","","Mostly Cloudy"
"1958-10-13 16:00","1958","10","13","16:00","11.7","","-0.6","","43","","5","","16","","25.0","","100.70","","","","","","Mainly Clear"
"1958-10-13 17:00","1958","10","13","17:00","10.0","","1.1","","54","","16","","21","","25.0","","100.73","","","","","","Mainly Clear"
"1958-10-13 18:00","1958","10","13","18:00","8.3","","4.4","","76","","14","","24","","25.0","","100.80","","","","","","Mainly Clear"
"1958-10-13 19:00","1958","10","13","19:00","7.8","","4.4","","79","","11","","24","","25.0","","100.85","","","","","","Mostly Cloudy"
"1958-10-13 20:00","1958","10","13","20:00","7.8","","3.9","","76","","11","","24","","25.0","","100.87","","","","","","Mainly Clear"
"1958-10-13 21:00","1958","10","13","21:00","7.2","","3.3","","76","","9","","16","","25.0","","100.87","","","","","","Mainly Clear"
"1958-10-13 22:00","1958","10","13","22:00","7.2","","3.9","","79","","11","","18","","25.0","","100.85","","","","","","Mainly Clear"
"1958-10-13 23:00","1958","10","13","23:00","5.6","","3.3","","86","","7","","11","","25.0","","100.84","","","","","","Mainly Clear"
"1958-10-14 00:00","1958","10","14","00:00","3.9","","2.8","","92","","7","","10","","24.1","","100.80","","","","","","Mainly Clear"
"1958-10-14 01:00","1958","10","14","01:00","3.9","","2.8","","92","","5","","10","","24.1","","100.76","","","","","","Mainly Clear"
"1958-10-14 02:00","1958","10","14","02:00","4.4","","3.3","","93","","5","","10","","16.1","","100.73","","","","","","Cloudy"
"1958-10-14 03:00","1958","10","14","03:00","5.0","","3.9","","93","","2","","6","","16.1","","100.63","","","","","","Cloudy"
"1958-10-14 04:00","1958","10","14","04:00","5.0","","3.3","","89","","36","","8","","19.3","","100.58","","","","","","Cloudy"
"1958-10-14 05:00","1958","10","14","05:00","5.0","","3.3","","89","","36","","8","","19.3","","100.53","","","","","","Cloudy"
"1958-10-14 06:00","1958","10","14","06:00","5.6","","3.9","","89","","36","","6","","19.3","","100.48","","","","","","Cloudy"
"1958-10-14 07:00","1958","10","14","07:00","5.6","","3.9","","89","","5","","6","","19.3","","100.44","","","","","","Mostly Cloudy"
"1958-10-14 08:00","1958","10","14","08:00","7.2","","5.0","","86","","5","","6","","11.3","","100.42","","","","","","Cloudy"
"1958-10-14 09:00","1958","10","14","09:00","8.3","","5.6","","83","","11","","5","","4.0","","100.37","","","","","","Haze"
"1958-10-14 10:00","1958","10","14","10:00","11.1","","7.2","","77","","9","","3","","4.0","","100.34","","","","","","Haze"
"1958-10-14 11:00","1958","10","14","11:00","11.7","","7.8","","77","","16","","6","","4.8","","100.28","","","","","","Haze"
"1958-10-14 12:00","1958","10","14","12:00","11.7","","7.8","","77","","18","","13","","4.8","","100.24","","","","","","Haze"
"1958-10-14 13:00","1958","10","14","13:00","11.1","","7.8","","80","","14","","10","","4.0","","100.14","","","","","","Rain Showers,Haze"
"1958-10-14 14:00","1958","10","14","14:00","11.1","","8.3","","83","","11","","6","","4.0","","100.10","","","","","","Haze"
"1958-10-14 15:00","1958","10","14","15:00","11.7","","8.9","","83","","11","","10","","2.4","","100.06","","","","","","Haze"
"1958-10-14 16:00","1958","10","14","16:00","11.7","","9.4","","86","","18","","13","","2.4","","100.03","","","","","","Fog"
"1958-10-14 17:00","1958","10","14","17:00","11.7","","10.0","","90","","9","","10","","2.4","","100.08","","","","","","Fog"
"1958-10-14 18:00","1958","10","14","18:00","11.1","","9.4","","90","","7","","10","","4.8","","100.08","","","","","","Fog"
"1958-10-14 19:00","1958","10","14","19:00","10.6","","8.9","","89","","9","","10","","6.4","","100.08","","","","","","Haze"
"1958-10-14 20:00","1958","10","14","20:00","10.6","","8.9","","89","","7","","6","","6.4","","100.10","","","","","","Haze"
"1958-10-14 21:00","1958","10","14","21:00","10.6","","8.9","","89","","2","","6","","8.0","","100.14","","","","","","Haze"
"1958-10-14 22:00","1958","10","14","22:00","10.6","","9.4","","93","","2","","10","","9.7","","100.13","","","","","","Haze"
"1958-10-14 23:00","1958","10","14","23:00","10.0","","9.4","","96","","2","","10","","6.4","","100.08","","","","","","Fog,Smoke"
"1958-10-15 00:00","1958","10","15","00:00","10.0","","8.9","","93","","36","","13","","6.4","","100.12","","","","","","Fog,Smoke"
"1958-10-15 01:00","1958","10","15","01:00","10.6","","9.4","","93","","2","","11","","6.4","","100.16","","","","","","Fog,Smoke"
"1958-10-15 02:00","1958","10","15","02:00","11.1","","9.4","","90","","","","0","","8.0","","100.18","","","","","","Fog,Smoke"
"1958-10-15 03:00","1958","10","15","03:00","11.1","","9.4","","90","","5","","10","","8.0","","100.16","","","","","","Fog,Smoke"
"1958-10-15 04:00","1958","10","15","04:00","11.1","","10.0","","93","","5","","8","","8.0","","100.17","","","","","","Fog"
"1958-10-15 05:00","1958","10","15","05:00","11.1","","10.0","","93","","5","","8","","8.0","","100.18","","","","","","Fog"
"1958-10-15 06:00","1958","10","15","06:00","11.1","","10.0","","93","","5","","6","","4.0","","100.18","","","","","","Fog"
"1958-10-15 07:00","1958","10","15","07:00","11.1","","10.0","","93","","9","","6","","3.2","","100.20","","","","","","Fog"
"1958-10-15 08:00","1958","10","15","08:00","11.1","","9.4","","90","","9","","11","","2.4","","100.24","","","","","","Drizzle,Fog"
"1958-10-15 09:00","1958","10","15","09:00","11.1","","9.4","","90","","9","","14","","2.4","","100.24","","","","","","Fog"
"1958-10-15 10:00","1958","10","15","10:00","10.0","","9.4","","96","","11","","27","","0.8","","100.24","","","","","","Drizzle,Fog"
"1958-10-15 11:00","1958","10","15","11:00","10.0","","9.4","","96","","11","","24","","0.4","","100.20","","","","","","Drizzle,Fog"
"1958-10-15 12:00","1958","10","15","12:00","9.4","","8.9","","96","","9","","23","","0.6","","100.14","","","","","","Drizzle,Fog"
"1958-10-15 13:00","1958","10","15","13:00","9.4","","8.9","","96","","9","","16","","0.6","","100.05","","","","","","Drizzle,Fog"
"1958-10-15 14:00","1958","10","15","14:00","9.4","","8.9","","96","","11","","14","","0.4","","99.97","","","","","","Drizzle,Fog"
"1958-10-15 15:00","1958","10","15","15:00","9.4","","8.9","","96","","9","","11","","0.4","","99.85","","","","","","Drizzle,Fog"
"1958-10-15 16:00","1958","10","15","16:00","8.9","","8.9","","100","","9","","11","","0.8","","99.78","","","","","","Drizzle,Fog"
"1958-10-15 17:00","1958","10","15","17:00","9.4","","8.9","","96","","14","","11","","0.4","","99.67","","","","","","Fog"
"1958-10-15 18:00","1958","10","15","18:00","8.9","","8.9","","100","","14","","5","","0.2","","99.63","","","","","","Fog"
"1958-10-15 19:00","1958","10","15","19:00","9.4","","9.4","","100","","9","","5","","0.2","","99.61","","","","","","Fog"
"1958-10-15 20:00","1958","10","15","20:00","9.4","","9.4","","100","","9","","5","","0.0","","99.54","","","","","","Fog"
"1958-10-15 21:00","1958","10","15","21:00","9.4","","9.4","","100","","7","","5","","0.0","","99.48","","","","","","Fog"
"1958-10-15 22:00","1958","10","15","22:00","9.4","","9.4","","100","","","","0","","0.0","","99.38","","","","","","Fog"
"1958-10-15 23:00","1958","10","15","23:00","9.4","","9.4","","100","","18","","10","","0.0","","99.31","","","","","","Fog"
"1958-10-16 00:00","1958","10","16","00:00","8.9","","8.9","","100","","23","","10","","0.0","","99.29","","","","","","Fog"
"1958-10-16 01:00","1958","10","16","01:00","9.4","","9.4","","100","","18","","10","","0.0","","99.20","","","","","","Fog"
"1958-10-16 02:00","1958","10","16","02:00","8.9","","8.9","","100","","18","","6","","1.6","","99.13","","","","","","Fog"
"1958-10-16 03:00","1958","10","16","03:00","8.3","","8.3","","100","","18","","13","","4.0","","99.07","","","","","","Fog"
"1958-10-16 04:00","1958","10","16","04:00","11.1","","10.6","","96","","23","","19","","19.3","","99.01","","","","","","Clear"
"1958-10-16 05:00","1958","10","16","05:00","12.8","","11.7","","93","","23","","19","","24.1","","98.96","","","","","","Mainly Clear"
"1958-10-16 06:00","1958","10","16","06:00","13.9","","12.8","","93","","23","","32","","24.1","","98.87","","","","","","Mostly Cloudy"
"1958-10-16 07:00","1958","10","16","07:00","15.0","","12.8","","87","","23","","42","","24.1","","98.80","","","","","","Mostly Cloudy"
"1958-10-16 08:00","1958","10","16","08:00","16.1","","12.8","","81","","23","","43","","24.1","","98.80","","","","","","Mostly Cloudy"
"1958-10-16 09:00","1958","10","16","09:00","17.2","","12.8","","75","","23","","45","","19.3","","98.80","","","","","","Mostly Cloudy"
"1958-10-16 10:00","1958","10","16","10:00","19.4","","13.3","","68","","23","","43","","24.1","","98.81","","","","","","Mostly Cloudy"
"1958-10-16 11:00","1958","10","16","11:00","21.1","","14.4","","66","","27","","43","","24.1","","98.82","","25","","","","Mostly Cloudy"
"1958-10-16 12:00","1958","10","16","12:00","21.7","","14.4","","64","","27","","40","","16.1","","98.84","","25","","","","Cloudy"
"1958-10-16 13:00","1958","10","16","13:00","21.1","","14.4","","66","","27","","42","","16.1","","98.85","","25","","","","Cloudy"
"1958-10-16 14:00","1958","10","16","14:00","19.4","","13.9","","70","","27","","32","","11.3","","98.85","","","","","","Cloudy"
"1958-10-16 15:00","1958","10","16","15:00","18.9","","13.9","","73","","27","","34","","11.3","","98.87","","","","","","Cloudy"
"1958-10-16 16:00","1958","10","16","16:00","18.9","","14.4","","76","","27","","24","","11.3","","98.87","","","","","","Mainly Clear"
"1958-10-16 17:00","1958","10","16","17:00","18.3","","14.4","","78","","27","","19","","11.3","","98.89","","","","","","Mostly Cloudy"
"1958-10-16 18:00","1958","10","16","18:00","17.2","","13.9","","81","","27","","13","","8.0","","98.87","","","","","","Haze"
"1958-10-16 19:00","1958","10","16","19:00","16.1","","13.9","","87","","27","","10","","9.7","","98.88","","","","","","Haze"
"1958-10-16 20:00","1958","10","16","20:00","15.0","","13.3","","90","","25","","6","","9.7","","98.91","","","","","","Haze"
"1958-10-16 21:00","1958","10","16","21:00","13.3","","12.2","","93","","","","0","","6.4","","98.88","","","","","","Fog"
"1958-10-16 22:00","1958","10","16","22:00","14.4","","13.3","","93","","32","","13","","4.8","","98.91","","","","","","Fog"
"1958-10-16 23:00","1958","10","16","23:00","13.9","","12.8","","93","","36","","11","","4.8","","98.88","","","","","","Fog"
"1958-10-17 00:00","1958","10","17","00:00","13.3","","12.2","","93","","36","","16","","4.8","","98.86","","","","","","Fog"
"1958-10-17 01:00","1958","10","17","01:00","12.2","","11.1","","93","","36","","14","","6.4","","98.89","","","","","","Fog"
"1958-10-17 02:00","1958","10","17","02:00","11.1","","10.6","","96","","36","","16","","4.8","","98.91","","","","","","Fog"
"1958-10-17 03:00","1958","10","17","03:00","11.1","","10.0","","93","","23","","11","","8.0","","98.91","","","","","","Fog"
"1958-10-17 04:00","1958","10","17","04:00","10.0","","8.3","","89","","27","","13","","16.1","","98.96","","","","","","Mainly Clear"
"1958-10-17 05:00","1958","10","17","05:00","10.6","","5.6","","71","","32","","14","","19.3","","98.99","","","","","","Clear"
"1958-10-17 06:00","1958","10","17","06:00","8.9","","3.3","","68","","32","","16","","24.1","","99.04","","","","","","Mainly Clear"
"1958-10-17 07:00","1958","10","17","07:00","7.8","","2.8","","71","","32","","13","","24.1","","99.08","","","","","","Mainly Clear"
"1958-10-17 08:00","1958","10","17","08:00","8.3","","3.3","","71","","29","","14","","25.0","","99.11","","","","","","Mainly Clear"
"1958-10-17 09:00","1958","10","17","09:00","10.6","","3.3","","61","","29","","18","","25.0","","99.13","","","","","","Mainly Clear"
"1958-10-17 10:00","1958","10","17","10:00","12.8","","1.1","","45","","29","","18","","25.0","","99.15","","","","","","Mainly Clear"
"1958-10-17 11:00","1958","10","17","11:00","14.4","","1.7","","42","","34","","14","","25.0","","99.14","","","","","","Mainly Clear"
"1958-10-17 12:00","1958","10","17","12:00","16.7","","-0.6","","31","","32","","24","","25.0","","99.12","","","","","","Mainly Clear"
"1958-10-17 13:00","1958","10","17","13:00","17.2","","-2.2","","26","","29","","34","","25.0","","99.06","","","","","","Mainly Clear"
"1958-10-17 14:00","1958","10","17","14:00","17.2","","-2.2","","26","","29","","37","","25.0","","99.04","","","","","","Mainly Clear"
"1958-10-17 15:00","1958","10","17","15:00","16.1","","0.6","","35","","29","","35","","25.0","","99.06","","","","","","Mainly Clear"
"1958-10-17 16:00","1958","10","17","16:00","15.6","","1.7","","39","","32","","26","","25.0","","99.11","","","","","","Mainly Clear"
"1958-10-17 17:00","1958","10","17","17:00","14.4","","2.2","","44","","29","","23","","25.0","","99.14","","","","","","Mainly Clear"
"1958-10-17 18:00","1958","10","17","18:00","12.8","","3.9","","55","","27","","16","","25.0","","99.20","","","","","","Mostly Cloudy"
"1958-10-17 19:00","1958","10","17","19:00","12.8","","4.4","","57","","27","","40","","24.1","","99.27","","","","","","Rain Showers"
"1958-10-17 20:00","1958","10","17","20:00","11.1","","6.1","","71","","2","","39","","24.1","","99.40","","","","","","Mostly Cloudy"
"1958-10-17 21:00","1958","10","17","21:00","8.9","","6.1","","83","","34","","11","","25.0","","99.42","","","","","","Mainly Clear"
"1958-10-17 22:00","1958","10","17","22:00","8.3","","5.6","","83","","29","","19","","25.0","","99.51","","","","","","Mainly Clear"
"1958-10-17 23:00","1958","10","17","23:00","7.8","","4.4","","79","","32","","21","","25.0","","99.57","","","","","","Clear"
"1958-10-18 00:00","1958","10","18","00:00","7.8","","4.4","","79","","32","","26","","25.0","","99.62","","","","","","Clear"
"1958-10-18 01:00","1958","10","18","01:00","7.2","","3.9","","79","","32","","19","","25.0","","99.68","","","","","","Clear"
"1958-10-18 02:00","1958","10","18","02:00","6.1","","3.9","","86","","36","","14","","25.0","","99.74","","","","","","Clear"
"1958-10-18 03:00","1958","10","18","03:00","5.0","","2.8","","86","","29","","18","","25.0","","99.78","","","","","","Clear"
"1958-10-18 04:00","1958","10","18","04:00","5.0","","2.2","","82","","32","","16","","25.0","","99.84","","","","","","Clear"
"1958-10-18 05:00","1958","10","18","05:00","4.4","","2.2","","85","","32","","19","","25.0","","99.93","","","","","","Clear"
"1958-10-18 06:00","1958","10","18","06:00","3.9","","1.7","","85","","36","","16","","25.0","","100.00","","","","","","Clear"
"1958-10-18 07:00","1958","10","18","07:00","4.4","","1.1","","79","","36","","16","","25.0","","100.09","","","","","","Mainly Clear"
"1958-10-18 08:00","1958","10","18","08:00","5.6","","0.6","","70","","36","","16","","25.0","","100.22","","","","","","Mainly Clear"
"1958-10-18 09:00","1958","10","18","09:00","7.2","","3.9","","79","","36","","14","","25.0","","100.26","","","","","","Mainly Clear"
"1958-10-18 10:00","1958","10","18","10:00","8.3","","-1.1","","51","","2","","19","","25.0","","100.30","","","","","","Mainly Clear"
"1958-10-18 11:00","1958","10","18","11:00","10.0","","0.6","","52","","36","","16","","25.0","","100.28","","","","","","Mainly Clear"
"1958-10-18 12:00","1958","10","18","12:00","11.1","","0.6","","48","","36","","16","","25.0","","100.25","","","","","","Mainly Clear"
"1958-10-18 13:00","1958","10","18","13:00","11.1","","-0.6","","44","","27","","19","","25.0","","100.17","","","","","","Mainly Clear"
"1958-10-18 14:00","1958","10","18","14:00","12.8","","1.1","","45","","34","","18","","25.0","","100.15","","","","","","Mostly Cloudy"
"1958-10-18 15:00","1958","10","18","15:00","12.8","","-0.6","","40","","27","","19","","25.0","","100.12","","","","","","Mostly Cloudy"
"1958-10-18 16:00","1958","10","18","16:00","12.8","","1.1","","45","","18","","16","","25.0","","100.09","","","","","","Mainly Clear"
"1958-10-18 17:00","1958","10","18","17:00","10.6","","1.7","","54","","18","","16","","24.1","","100.09","","","","","","Mainly Clear"
"1958-10-18 18:00","1958","10","18","18:00","8.9","","2.2","","63","","16","","11","","24.1","","100.09","","","","","","Clear"
"1958-10-18 19:00","1958","10","18","19:00","7.8","","2.2","","68","","25","","8","","24.1","","100.10","","","","","","Clear"
"1958-10-18 20:00","1958","10","18","20:00","6.1","","0.6","","68","","36","","19","","25.0","","100.12","","","","","","Clear"
"1958-10-18 21:00","1958","10","18","21:00","6.1","","1.1","","70","","34","","16","","25.0","","100.17","","","","","","Clear"
"1958-10-18 22:00","1958","10","18","22:00","4.4","","1.1","","79","","32","","11","","25.0","","100.18","","","","","","Clear"
"1958-10-18 23:00","1958","10","18","23:00","3.3","","0.6","","82","","27","","6","","25.0","","100.16","","","","","","Clear"
"1958-10-19 00:00","1958","10","19","00:00","1.7","","-1.1","","82","","29","","10","","25.0","","100.17","","","","","","Clear"
"1958-10-19 01:00","1958","10","19","01:00","2.2","","-1.1","","78","","32","","5","","25.0","","100.18","","","","","","Clear"
"1958-10-19 02:00","1958","10","19","02:00","2.2","","-0.6","","82","","27","","5","","25.0","","100.13","","","","","","Clear"
"1958-10-19 03:00","1958","10","19","03:00","1.7","","-0.6","","85","","29","","6","","25.0","","100.15","","","","","","Clear"
"1958-10-19 04:00","1958","10","19","04:00","1.7","","-0.6","","85","","32","","6","","25.0","","100.16","","","","","","Clear"
"1958-10-19 05:00","1958","10","19","05:00","1.1","","-1.1","","85","","32","","3","","25.0","","100.15","","","","","","Clear"
"1958-10-19 06:00","1958","10","19","06:00","1.1","","-1.1","","85","","32","","3","","25.0","","100.17","","","","","","Mainly Clear"
"1958-10-19 07:00","1958","10","19","07:00","0.0","","-2.8","","82","","36","","6","","25.0","","100.19","","","","-2","","Mainly Clear"
"1958-10-19 08:00","1958","10","19","08:00","3.3","","-0.6","","76","","36","","6","","25.0","","100.19","","","","","","Mainly Clear"
"1958-10-19 09:00","1958","10","19","09:00","8.9","","1.1","","58","","27","","8","","25.0","","100.19","","","","","","Mainly Clear"
"1958-10-19 10:00","1958","10","19","10:00","12.2","","0.0","","43","","23","","16","","25.0","","100.14","","","","","","Mainly Clear"
"1958-10-19 11:00","1958","10","19","11:00","13.3","","1.7","","45","","25","","14","","25.0","","100.11","","","","","","Clear"
"1958-10-19 12:00","1958","10","19","12:00","14.4","","1.7","","42","","23","","16","","25.0","","100.01","","","","","","Mainly Clear"
"1958-10-19 13:00","1958","10","19","13:00","15.0","","1.7","","40","","23","","14","","25.0","","99.95","","","","","","Mainly Clear"
"1958-10-19 14:00","1958","10","19","14:00","15.6","","0.6","","37","","14","","24","","25.0","","99.84","","","","","","Clear"
"1958-10-19 15:00","1958","10","19","15:00","15.0","","1.7","","40","","18","","24","","25.0","","99.82","","","","","","Mainly Clear"
"1958-10-19 16:00","1958","10","19","16:00","14.4","","1.7","","42","","18","","24","","25.0","","99.79","","","","","","Mostly Cloudy"
"1958-10-19 17:00","1958","10","19","17:00","12.2","","1.7","","48","","18","","16","","24.1","","99.76","","","","","","Mostly Cloudy"
"1958-10-19 18:00","1958","10","19","18:00","10.6","","2.8","","59","","18","","11","","24.1","","99.75","","","","","","Mainly Clear"
"1958-10-19 19:00","1958","10","19","19:00","8.9","","2.2","","63","","18","","8","","25.0","","99.76","","","","","","Mainly Clear"
"1958-10-19 20:00","1958","10","19","20:00","7.2","","2.2","","70","","20","","6","","25.0","","99.77","","","","","","Clear"
"1958-10-19 21:00","1958","10","19","21:00","5.6","","1.7","","76","","36","","3","","25.0","","99.79","","","","","","Clear"
"1958-10-19 22:00","1958","10","19","22:00","5.6","","1.7","","76","","2","","6","","25.0","","99.76","","","","","","Clear"
"1958-10-19 23:00","1958","10","19","23:00","3.9","","1.7","","85","","2","","6","","24.1","","99.78","","","","","","Clear"
"1958-10-20 00:00","1958","10","20","00:00","3.3","","0.6","","82","","36","","8","","24.1","","99.76","","","","","","Clear"
"1958-10-20 01:00","1958","10","20","01:00","2.2","","0.0","","85","","36","","8","","24.1","","99.75","","","","","","Clear"
"1958-10-20 02:00","1958","10","20","02:00","1.7","","0.6","","92","","36","","8","","19.3","","99.77","","","","","","Clear"
"1958-10-20 03:00","1958","10","20","03:00","1.7","","0.6","","92","","36","","8","","19.3","","99.78","","","","","","Clear"
"1958-10-20 04:00","1958","10","20","04:00","1.7","","0.6","","92","","36","","10","","19.3","","99.77","","","","","","Clear"
"1958-10-20 05:00","1958","10","20","05:00","1.1","","0.0","","92","","36","","8","","16.1","","99.81","","","","","","Clear"
"1958-10-20 06:00","1958","10","20","06:00","1.1","","-1.1","","85","","36","","6","","12.9","","99.83","","","","","","Clear"
"1958-10-20 07:00","1958","10","20","07:00","1.1","","1.1","","100","","36","","8","","0.2","","99.88","","","","","","Fog,Smoke"
"1958-10-20 08:00","1958","10","20","08:00","2.2","","2.2","","100","","2","","6","","0.0","","99.92","","","","","","Fog,Smoke"
"1958-10-20 09:00","1958","10","20","09:00","7.2","","7.2","","100","","7","","8","","0.0","","99.94","","","","","","Fog"
"1958-10-20 10:00","1958","10","20","10:00","10.6","","4.4","","66","","14","","24","","16.1","","99.99","","","","","","Clear"
"1958-10-20 11:00","1958","10","20","11:00","13.3","","1.7","","45","","14","","24","","19.3","","100.04","","","","","","Clear"
"1958-10-20 12:00","1958","10","20","12:00","13.9","","2.2","","45","","14","","26","","24.1","","100.02","","","","","","Clear"
"1958-10-20 13:00","1958","10","20","13:00","13.9","","2.2","","45","","14","","24","","24.1","","99.98","","","","","","Mainly Clear"
"1958-10-20 14:00","1958","10","20","14:00","13.9","","2.8","","47","","14","","23","","24.1","","99.94","","","","","","Mainly Clear"
"1958-10-20 15:00","1958","10","20","15:00","13.9","","3.3","","49","","14","","21","","19.3","","99.94","","","","","","Mainly Clear"
"1958-10-20 16:00","1958","10","20","16:00","13.3","","4.4","","55","","11","","23","","19.3","","99.96","","","","","","Mainly Clear"
"1958-10-20 17:00","1958","10","20","17:00","11.7","","5.6","","66","","11","","18","","16.1","","99.97","","","","","","Mainly Clear"
"1958-10-20 18:00","1958","10","20","18:00","9.4","","5.6","","77","","9","","11","","16.1","","99.99","","","","","","Mainly Clear"
"1958-10-20 19:00","1958","10","20","19:00","8.9","","5.6","","80","","9","","11","","16.1","","100.00","","","","","","Mainly Clear"
"1958-10-20 20:00","1958","10","20","20:00","8.3","","6.1","","86","","2","","8","","12.9","","100.04","","","","","","Mainly Clear"
"1958-10-20 21:00","1958","10","20","21:00","6.7","","5.6","","93","","7","","5","","8.0","","100.06","","","","","","Fog,Smoke"
"1958-10-20 22:00","1958","10","20","22:00","6.1","","5.6","","96","","2","","13","","4.8","","100.07","","","","","","Fog,Smoke"
"1958-10-20 23:00","1958","10","20","23:00","5.6","","4.4","","93","","2","","11","","4.8","","100.07","","","","","","Fog,Smoke"
"1958-10-21 00:00","1958","10","21","00:00","5.0","","3.9","","93","","5","","10","","4.8","","100.07","","","","","","Fog,Smoke"
"1958-10-21 01:00","1958","10","21","01:00","4.4","","3.9","","96","","36","","6","","1.2","","100.07","","","","","","Fog"
"1958-10-21 02:00","1958","10","21","02:00","2.2","","2.2","","100","","36","","6","","0.2","","100.12","","","","","","Fog"
"1958-10-21 03:00","1958","10","21","03:00","3.3","","3.3","","100","","32","","5","","0.0","","100.15","","","","","","Fog"
"1958-10-21 04:00","1958","10","21","04:00","4.4","","4.4","","100","","32","","5","","0.0","","100.18","","","","","","Fog"
"1958-10-21 05:00","1958","10","21","05:00","3.3","","3.3","","100","","32","","5","","0.0","","100.24","","","","","","Fog"
"1958-10-21 06:00","1958","10","21","06:00","3.3","","2.8","","96","","36","","8","","1.6","","100.34","","","","","","Fog"
"1958-10-21 07:00","1958","10","21","07:00","2.8","","2.2","","96","","36","","8","","1.2","","100.37","","","","","","Fog"
"1958-10-21 08:00","1958","10","21","08:00","4.4","","3.9","","96","","36","","6","","1.6","","100.42","","","","","","Fog"
"1958-10-21 09:00","1958","10","21","09:00","8.3","","7.8","","96","","11","","8","","1.6","","100.44","","","","","","Fog"
"1958-10-21 10:00","1958","10","21","10:00","12.2","","7.2","","71","","18","","14","","6.4","","100.45","","","","","","Haze"
"1958-10-21 11:00","1958","10","21","11:00","15.0","","5.6","","53","","18","","16","","12.9","","100.42","","","","","","Mainly Clear"
"1958-10-21 12:00","1958","10","21","12:00","15.0","","5.0","","51","","14","","14","","12.9","","100.38","","","","","","Mainly Clear"
"1958-10-21 13:00","1958","10","21","13:00","15.6","","5.0","","49","","14","","16","","16.1","","100.35","","","","","","Mainly Clear"
"1958-10-21 14:00","1958","10","21","14:00","15.0","","3.9","","47","","16","","19","","16.1","","100.33","","","","","","Mostly Cloudy"
"1958-10-21 15:00","1958","10","21","15:00","15.6","","3.3","","44","","11","","19","","16.1","","100.34","","","","","","Mainly Clear"
"1958-10-21 16:00","1958","10","21","16:00","14.4","","3.9","","49","","9","","19","","8.0","","100.31","","","","","","Smoke,Haze"
"1958-10-21 17:00","1958","10","21","17:00","11.7","","5.0","","64","","9","","14","","8.0","","100.31","","","","","","Smoke,Haze"
"1958-10-21 18:00","1958","10","21","18:00","10.6","","6.1","","74","","9","","16","","8.0","","100.33","","","","","","Smoke,Haze"
"1958-10-21 19:00","1958","10","21","19:00","10.6","","5.6","","71","","9","","16","","12.9","","100.32","","","","","","Mostly Cloudy"
"1958-10-21 20:00","1958","10","21","20:00","10.6","","6.7","","77","","7","","14","","16.1","","100.30","","","","","","Mainly Clear"
"1958-10-21 21:00","1958","10","21","21:00","10.6","","6.1","","74","","9","","18","","16.1","","100.28","","","","","","Mostly Cloudy"
"1958-10-21 22:00","1958","10","21","22:00","11.1","","6.7","","74","","9","","11","","16.1","","100.24","","","","","","Mostly Cloudy"
"1958-10-21 23:00","1958","10","21","23:00","10.0","","6.7","","80","","9","","13","","16.1","","100.24","","","","","","Mostly Cloudy"
"1958-10-22 00:00","1958","10","22","00:00","8.9","","5.6","","80","","9","","10","","16.1","","100.22","","","","","","Mostly Cloudy"
"1958-10-22 01:00","1958","10","22","01:00","8.3","","5.0","","80","","9","","10","","16.1","","100.23","","","","","","Mainly Clear"
"1958-10-22 02:00","1958","10","22","02:00","7.2","","3.9","","79","","9","","10","","16.1","","100.21","","","","","","Mainly Clear"
"1958-10-22 03:00","1958","10","22","03:00","6.1","","3.9","","86","","9","","10","","19.3","","100.19","","","","","","Mainly Clear"
"1958-10-22 04:00","1958","10","22","04:00","6.7","","3.9","","82","","9","","11","","19.3","","100.21","","","","","","Mainly Clear"
"1958-10-22 05:00","1958","10","22","05:00","7.8","","4.4","","79","","11","","14","","19.3","","100.23","","","","","","Mainly Clear"
"1958-10-22 06:00","1958","10","22","06:00","7.8","","4.4","","79","","11","","14","","19.3","","100.25","","","","","","Mainly Clear"
"1958-10-22 07:00","1958","10","22","07:00","7.2","","3.9","","79","","14","","10","","8.0","","100.27","","","","","","Haze"
"1958-10-22 08:00","1958","10","22","08:00","7.2","","4.4","","82","","9","","13","","6.4","","100.27","","","","","","Haze"
"1958-10-22 09:00","1958","10","22","09:00","8.9","","5.6","","80","","9","","13","","3.2","","100.25","","","","","","Smoke,Haze"
"1958-10-22 10:00","1958","10","22","10:00","10.6","","7.8","","83","","11","","13","","3.2","","100.21","","","","","","Smoke,Haze"
"1958-10-22 11:00","1958","10","22","11:00","11.7","","7.8","","77","","11","","19","","8.0","","100.18","","","","","","Haze"
"1958-10-22 12:00","1958","10","22","12:00","12.2","","8.3","","77","","11","","19","","6.4","","100.12","","","","","","Rain,Haze"
"1958-10-22 13:00","1958","10","22","13:00","10.6","","9.4","","93","","11","","19","","2.0","","100.07","","","","","","Rain,Fog"
"1958-10-22 14:00","1958","10","22","14:00","10.6","","10.0","","96","","11","","26","","2.0","","99.99","","","","","","Rain,Fog"
"1958-10-22 15:00","1958","10","22","15:00","10.0","","10.0","","100","","11","","19","","2.0","","99.95","","","","","","Rain,Fog"
"1958-10-22 16:00","1958","10","22","16:00","10.0","","10.0","","100","","11","","19","","2.0","","99.82","","","","","","Drizzle,Fog"
"1958-10-22 17:00","1958","10","22","17:00","10.6","","10.0","","96","","9","","21","","1.6","","99.84","","","","","","Rain,Drizzle,Fog"
"1958-10-22 18:00","1958","10","22","18:00","11.7","","11.7","","100","","9","","19","","2.4","","99.78","","","","","","Rain,Drizzle,Fog"
"1958-10-22 19:00","1958","10","22","19:00","12.2","","12.2","","100","","11","","24","","4.8","","99.75","","","","","","Drizzle,Fog"
"1958-10-22 20:00","1958","10","22","20:00","11.1","","11.1","","100","","11","","23","","3.2","","99.70","","","","","","Fog"
"1958-10-22 21:00","1958","10","22","21:00","11.7","","11.7","","100","","11","","21","","4.0","","99.63","","","","","","Rain,Drizzle,Fog"
"1958-10-22 22:00","1958","10","22","22:00","11.7","","11.7","","100","","11","","24","","4.8","","99.55","","","","","","Drizzle,Fog"
"1958-10-22 23:00","1958","10","22","23:00","11.7","","11.7","","100","","11","","31","","4.8","","99.49","","","","","","Rain,Fog"
"1958-10-23 00:00","1958","10","23","00:00","11.7","","11.1","","96","","11","","23","","4.0","","99.44","","","","","","Rain,Fog"
"1958-10-23 01:00","1958","10","23","01:00","11.7","","11.1","","96","","11","","26","","2.4","","99.38","","","","","","Drizzle,Fog"
"1958-10-23 02:00","1958","10","23","02:00","11.7","","11.1","","96","","11","","18","","4.0","","99.36","","","","","","Drizzle,Fog"
"1958-10-23 03:00","1958","10","23","03:00","11.7","","11.1","","96","","11","","14","","4.8","","99.30","","","","","","Fog"
"1958-10-23 04:00","1958","10","23","04:00","11.7","","11.1","","96","","11","","11","","3.2","","99.24","","","","","","Fog"
"1958-10-23 05:00","1958","10","23","05:00","11.7","","11.1","","96","","11","","11","","0.4","","99.22","","","","","","Fog"
"1958-10-23 06:00","1958","10","23","06:00","11.1","","11.1","","100","","9","","8","","0.4","","99.19","","","","","","Fog"
"1958-10-23 07:00","1958","10","23","07:00","11.1","","11.1","","100","","9","","11","","0.6","","99.16","","","","","","Fog"
"1958-10-23 08:00","1958","10","23","08:00","11.7","","11.7","","100","","7","","8","","0.2","","99.14","","","","","","Fog"
"1958-10-23 09:00","1958","10","23","09:00","12.2","","12.2","","100","","9","","5","","1.0","","99.12","","","","","","Fog"
"1958-10-23 10:00","1958","10","23","10:00","12.8","","12.2","","96","","14","","5","","1.2","","99.08","","","","","","Fog"
"1958-10-23 11:00","1958","10","23","11:00","14.4","","12.8","","90","","14","","13","","2.0","","99.01","","","","","","Fog"
"1958-10-23 12:00","1958","10","23","12:00","15.0","","13.3","","90","","18","","13","","2.8","","98.98","","","","","","Fog"
"1958-10-23 13:00","1958","10","23","13:00","14.4","","13.3","","93","","16","","13","","2.8","","98.91","","","","","","Fog"
"1958-10-23 14:00","1958","10","23","14:00","13.9","","13.3","","96","","20","","5","","1.6","","98.90","","","","","","Rain,Fog"
"1958-10-23 15:00","1958","10","23","15:00","13.9","","13.3","","96","","14","","6","","1.2","","98.87","","","","","","Rain,Fog"
"1958-10-23 16:00","1958","10","23","16:00","13.9","","13.3","","96","","16","","6","","0.8","","98.88","","","","","","Rain,Fog"
"1958-10-23 17:00","1958","10","23","17:00","13.9","","13.3","","96","","11","","6","","0.0","","98.88","","","","","","Rain,Fog"
"1958-10-23 18:00","1958","10","23","18:00","13.3","","12.8","","96","","18","","6","","0.0","","98.92","","","","","","Rain,Fog"
"1958-10-23 19:00","1958","10","23","19:00","12.8","","12.2","","96","","18","","6","","0.0","","98.91","","","","","","Fog"
"1958-10-23 20:00","1958","10","23","20:00","12.2","","12.2","","100","","18","","8","","0.0","","98.90","","","","","","Fog"
"1958-10-23 21:00","1958","10","23","21:00","12.2","","11.7","","96","","23","","6","","0.4","","98.90","","","","","","Rain,Fog"
"1958-10-23 22:00","1958","10","23","22:00","12.2","","11.7","","96","","27","","6","","0.2","","98.89","","","","","","Fog"
"1958-10-23 23:00","1958","10","23","23:00","10.6","","10.0","","96","","27","","14","","4.8","","98.91","","","","","","Fog"
"1958-10-24 00:00","1958","10","24","00:00","10.0","","9.4","","96","","27","","13","","12.9","","98.95","","","","","","Clear"
"1958-10-24 01:00","1958","10","24","01:00","8.9","","8.3","","96","","27","","10","","4.8","","98.94","","","","","","Fog"
"1958-10-24 02:00","1958","10","24","02:00","8.9","","8.3","","96","","27","","8","","0.2","","98.94","","","","","","Fog"
"1958-10-24 03:00","1958","10","24","03:00","6.7","","6.1","","96","","27","","8","","0.2","","98.89","","","","","","Fog"
"1958-10-24 04:00","1958","10","24","04:00","5.0","","5.0","","100","","","","0","","0.4","","98.85","","","","","","Fog"
"1958-10-24 05:00","1958","10","24","05:00","5.0","","4.4","","96","","","","0","","0.4","","98.83","","","","","","Fog"
"1958-10-24 06:00","1958","10","24","06:00","4.4","","4.4","","100","","","","0","","0.0","","98.79","","","","","","Fog"
"1958-10-24 07:00","1958","10","24","07:00","5.6","","5.6","","100","","18","","8","","0.0","","98.77","","","","","","Fog"
"1958-10-24 08:00","1958","10","24","08:00","7.2","","7.2","","100","","34","","8","","0.0","","98.78","","","","","","Fog"
"1958-10-24 09:00","1958","10","24","09:00","7.2","","7.2","","100","","7","","10","","0.0","","98.74","","","","","","Rain,Fog"
"1958-10-24 10:00","1958","10","24","10:00","10.0","","10.0","","100","","14","","13","","1.2","","98.70","","","","","","Fog"
"1958-10-24 11:00","1958","10","24","11:00","11.1","","11.1","","100","","16","","19","","3.2","","98.64","","","","","","Fog"
"1958-10-24 12:00","1958","10","24","12:00","12.2","","11.7","","96","","18","","16","","6.4","","98.57","","","","","","Fog"
"1958-10-24 13:00","1958","10","24","13:00","12.8","","10.6","","86","","23","","19","","8.0","","98.54","","","","","","Fog"
"1958-10-24 14:00","1958","10","24","14:00","12.8","","7.2","","69","","25","","26","","16.1","","98.56","","","","","","Mostly Cloudy"
"1958-10-24 15:00","1958","10","24","15:00","12.8","","6.1","","64","","25","","16","","16.1","","98.59","","","","","","Cloudy"
"1958-10-24 16:00","1958","10","24","16:00","11.7","","6.7","","71","","27","","14","","25.0","","98.65","","","","","","Cloudy"
"1958-10-24 17:00","1958","10","24","17:00","11.1","","5.6","","69","","23","","14","","25.0","","98.68","","","","","","Mostly Cloudy"
"1958-10-24 18:00","1958","10","24","18:00","10.0","","5.0","","71","","20","","10","","25.0","","98.71","","","","","","Mainly Clear"
"1958-10-24 19:00","1958","10","24","19:00","8.9","","5.0","","77","","18","","11","","25.0","","98.70","","","","","","Mainly Clear"
"1958-10-24 20:00","1958","10","24","20:00","8.9","","5.6","","80","","20","","10","","25.0","","98.71","","","","","","Mostly Cloudy"
"1958-10-24 21:00","1958","10","24","21:00","9.4","","7.2","","86","","18","","10","","19.3","","98.74","","","","","","Rain Showers"
"1958-10-24 22:00","1958","10","24","22:00","8.9","","7.8","","93","","18","","10","","12.9","","98.71","","","","","","Rain Showers"
"1958-10-24 23:00","1958","10","24","23:00","8.9","","8.3","","96","","7","","10","","8.0","","98.68","","","","","","Rain Showers,Fog"
"1958-10-25 00:00","1958","10","25","00:00","7.8","","7.2","","96","","9","","8","","11.3","","98.68","","","","","","Rain"
"1958-10-25 01:00","1958","10","25","01:00","7.8","","7.2","","96","","7","","11","","11.3","","98.65","","","","","","Cloudy"
"1958-10-25 02:00","1958","10","25","02:00","7.8","","7.8","","100","","5","","10","","9.7","","98.66","","","","","","Rain Showers,Fog"
"1958-10-25 03:00","1958","10","25","03:00","7.8","","7.8","","100","","7","","14","","11.3","","98.66","","","","","","Cloudy"
"1958-10-25 04:00","1958","10","25","04:00","7.8","","7.8","","100","","7","","21","","19.3","","98.68","","","","","","Rain Showers"
"1958-10-25 05:00","1958","10","25","05:00","8.3","","8.3","","100","","7","","19","","11.3","","98.69","","","","","","Rain Showers"
"1958-10-25 06:00","1958","10","25","06:00","8.3","","8.3","","100","","9","","13","","6.4","","98.72","","","","","","Rain Showers,Fog"
"1958-10-25 07:00","1958","10","25","07:00","8.9","","8.3","","96","","9","","26","","6.4","","98.82","","","","","","Fog"
"1958-10-25 08:00","1958","10","25","08:00","8.9","","8.3","","96","","9","","23","","9.7","","98.97","","","","","","Fog"
"1958-10-25 09:00","1958","10","25","09:00","8.3","","7.8","","96","","7","","21","","8.0","","99.02","","","","","","Fog"
"1958-10-25 10:00","1958","10","25","10:00","8.3","","7.2","","93","","7","","26","","8.0","","99.06","","","","","","Fog"
"1958-10-25 11:00","1958","10","25","11:00","7.8","","6.7","","93","","7","","26","","12.9","","99.11","","","","","","Cloudy"
"1958-10-25 12:00","1958","10","25","12:00","8.9","","7.2","","89","","7","","23","","16.1","","99.11","","","","","","Rain"
"1958-10-25 13:00","1958","10","25","13:00","9.4","","8.3","","93","","7","","19","","16.1","","99.11","","","","","","Rain"
"1958-10-25 14:00","1958","10","25","14:00","8.9","","7.2","","89","","9","","24","","24.1","","99.17","","","","","","Cloudy"
"1958-10-25 15:00","1958","10","25","15:00","8.9","","6.7","","86","","9","","21","","24.1","","99.18","","","","","","Rain"
"1958-10-25 16:00","1958","10","25","16:00","7.8","","6.1","","89","","5","","19","","24.1","","99.21","","","","","","Rain"
"1958-10-25 17:00","1958","10","25","17:00","7.2","","6.1","","93","","5","","24","","19.3","","99.29","","","","","","Rain"
"1958-10-25 18:00","1958","10","25","18:00","7.2","","6.1","","93","","5","","21","","24.1","","99.36","","","","","","Rain"
"1958-10-25 19:00","1958","10","25","19:00","7.2","","6.1","","93","","5","","24","","24.1","","99.41","","","","","","Cloudy"
"1958-10-25 20:00","1958","10","25","20:00","6.7","","5.6","","93","","5","","19","","25.0","","99.42","","","","","","Cloudy"
"1958-10-25 21:00","1958","10","25","21:00","6.7","","5.6","","93","","5","","19","","25.0","","99.44","","","","","","Cloudy"
"1958-10-25 22:00","1958","10","25","22:00","6.7","","5.0","","89","","5","","18","","25.0","","99.47","","","","","","Cloudy"
"1958-10-25 23:00","1958","10","25","23:00","6.7","","5.0","","89","","5","","18","","25.0","","99.50","","","","","","Cloudy"
"1958-10-26 00:00","1958","10","26","00:00","6.1","","5.0","","93","","5","","24","","24.1","","99.50","","","","","","Cloudy"
"1958-10-26 01:00","1958","10","26","01:00","6.1","","4.4","","89","","5","","21","","24.1","","99.51","","","","","","Cloudy"
"1958-10-26 02:00","1958","10","26","02:00","6.1","","4.4","","89","","2","","13","","16.1","","99.50","","","","","","Rain"
"1958-10-26 03:00","1958","10","26","03:00","6.1","","4.4","","89","","5","","24","","16.1","","99.50","","","","","","Rain"
"1958-10-26 04:00","1958","10","26","04:00","6.1","","4.4","","89","","2","","21","","9.7","","99.52","","","","","","Fog"
"1958-10-26 05:00","1958","10","26","05:00","6.1","","4.4","","89","","2","","16","","4.8","","99.50","","","","","","Fog"
"1958-10-26 06:00","1958","10","26","06:00","5.6","","3.9","","89","","2","","14","","24.1","","99.50","","","","","","Mainly Clear"
"1958-10-26 07:00","1958","10","26","07:00","5.0","","3.3","","89","","2","","19","","24.1","","99.50","","","","","","Mostly Cloudy"
"1958-10-26 08:00","1958","10","26","08:00","5.0","","1.7","","79","","2","","21","","24.1","","99.55","","","","","","Mostly Cloudy"
"1958-10-26 09:00","1958","10","26","09:00","5.0","","0.6","","73","","2","","23","","25.0","","99.51","","","","","","Mostly Cloudy"
"1958-10-26 10:00","1958","10","26","10:00","7.2","","-0.6","","58","","5","","23","","25.0","","99.50","","","","","","Mostly Cloudy"
"1958-10-26 11:00","1958","10","26","11:00","8.9","","-2.8","","44","","5","","19","","25.0","","99.48","","","","","","Mostly Cloudy"
"1958-10-26 12:00","1958","10","26","12:00","10.0","","-3.3","","39","","5","","16","","25.0","","99.42","","","","","","Mostly Cloudy"
"1958-10-26 13:00","1958","10","26","13:00","10.0","","-3.9","","37","","2","","13","","25.0","","99.37","","","","","","Mostly Cloudy"
"1958-10-26 14:00","1958","10","26","14:00","10.6","","-2.2","","41","","5","","6","","25.0","","99.32","","","","","","Mostly Cloudy"
"1958-10-26 15:00","1958","10","26","15:00","11.7","","-2.8","","36","","5","","19","","25.0","","99.30","","","","","","Mostly Cloudy"
"1958-10-26 16:00","1958","10","26","16:00","10.6","","-0.6","","46","","36","","21","","25.0","","99.30","","","","","","Mostly Cloudy"
"1958-10-26 17:00","1958","10","26","17:00","10.0","","-0.6","","48","","36","","16","","25.0","","99.32","","","","","","Mostly Cloudy"
"1958-10-26 18:00","1958","10","26","18:00","9.4","","0.0","","52","","36","","13","","25.0","","99.36","","","","","","Mostly Cloudy"
"1958-10-26 19:00","1958","10","26","19:00","9.4","","0.0","","52","","36","","11","","25.0","","99.34","","","","","","Mostly Cloudy"
"1958-10-26 20:00","1958","10","26","20:00","8.9","","2.8","","66","","5","","6","","25.0","","99.35","","","","","","Cloudy"
"1958-10-26 21:00","1958","10","26","21:00","8.9","","1.7","","61","","5","","8","","25.0","","99.38","","","","","","Cloudy"
"1958-10-26 22:00","1958","10","26","22:00","8.9","","0.6","","56","","5","","13","","25.0","","99.33","","","","","","Cloudy"
"1958-10-26 23:00","1958","10","26","23:00","8.3","","0.6","","58","","5","","10","","25.0","","99.33","","","","","","Cloudy"
"1958-10-27 00:00","1958","10","27","00:00","7.8","","1.1","","63","","36","","11","","25.0","","99.33","","","","","","Mostly Cloudy"
"1958-10-27 01:00","1958","10","27","01:00","7.2","","2.8","","73","","5","","16","","25.0","","99.30","","","","","","Cloudy"
"1958-10-27 02:00","1958","10","27","02:00","7.2","","3.3","","76","","5","","11","","25.0","","99.24","","","","","","Cloudy"
"1958-10-27 03:00","1958","10","27","03:00","6.7","","3.9","","82","","36","","6","","25.0","","99.19","","","","","","Cloudy"
"1958-10-27 04:00","1958","10","27","04:00","7.2","","2.8","","73","","36","","10","","24.1","","99.17","","","","","","Rain Showers"
"1958-10-27 05:00","1958","10","27","05:00","6.7","","3.9","","82","","36","","10","","24.1","","99.16","","","","","","Rain"
"1958-10-27 06:00","1958","10","27","06:00","6.7","","3.9","","82","","32","","13","","25.0","","99.12","","","","","","Rain"
"1958-10-27 07:00","1958","10","27","07:00","6.7","","3.9","","82","","32","","14","","25.0","","99.13","","","","","","Cloudy"
"1958-10-27 08:00","1958","10","27","08:00","6.7","","3.9","","82","","36","","10","","25.0","","99.15","","","","","","Cloudy"
"1958-10-27 09:00","1958","10","27","09:00","7.2","","4.4","","82","","36","","14","","25.0","","99.12","","","","","","Mostly Cloudy"
"1958-10-27 10:00","1958","10","27","10:00","7.8","","3.9","","76","","2","","16","","25.0","","99.12","","","","","","Mostly Cloudy"
"1958-10-27 11:00","1958","10","27","11:00","8.9","","3.3","","68","","7","","19","","25.0","","99.12","","","","","","Rain"
"1958-10-27 12:00","1958","10","27","12:00","9.4","","1.1","","56","","5","","13","","25.0","","99.06","","","","","","Mostly Cloudy"
"1958-10-27 13:00","1958","10","27","13:00","10.0","","1.7","","56","","5","","16","","25.0","","99.01","","","","","","Mostly Cloudy"
"1958-10-27 14:00","1958","10","27","14:00","10.0","","1.7","","56","","5","","23","","25.0","","98.97","","","","","","Mostly Cloudy"
"1958-10-27 15:00","1958","10","27","15:00","10.0","","2.8","","61","","5","","24","","25.0","","99.00","","","","","","Mostly Cloudy"
"1958-10-27 16:00","1958","10","27","16:00","10.0","","1.7","","56","","5","","16","","25.0","","99.00","","","","","","Mostly Cloudy"
"1958-10-27 17:00","1958","10","27","17:00","9.4","","1.7","","58","","36","","13","","25.0","","99.05","","","","","","Mostly Cloudy"
"1958-10-27 18:00","1958","10","27","18:00","8.3","","2.8","","68","","36","","16","","25.0","","99.11","","","","","","Mostly Cloudy"
"1958-10-27 19:00","1958","10","27","19:00","7.8","","2.8","","71","","36","","10","","25.0","","99.12","","","","","","Mostly Cloudy"
"1958-10-27 20:00","1958","10","27","20:00","7.8","","1.7","","65","","32","","14","","25.0","","99.12","","","","","","Mostly Cloudy"
"1958-10-27 21:00","1958","10","27","21:00","7.2","","1.1","","65","","32","","13","","25.0","","99.15","","","","","","Mainly Clear"
"1958-10-27 22:00","1958","10","27","22:00","5.6","","0.6","","70","","5","","8","","25.0","","99.11","","","","","","Mainly Clear"
"1958-10-27 23:00","1958","10","27","23:00","4.4","","1.1","","79","","","","0","","25.0","","99.09","","","","","","Mainly Clear"
"1958-10-28 00:00","1958","10","28","00:00","3.9","","1.1","","82","","36","","11","","25.0","","99.11","","","","","","Mainly Clear"
"1958-10-28 01:00","1958","10","28","01:00","3.9","","0.0","","76","","36","","14","","25.0","","99.12","","","","","","Mostly Cloudy"
"1958-10-28 02:00","1958","10","28","02:00","3.9","","0.6","","79","","36","","16","","25.0","","99.14","","","","","","Mostly Cloudy"
"1958-10-28 03:00","1958","10","28","03:00","3.3","","0.6","","82","","36","","13","","25.0","","99.14","","","","","","Mostly Cloudy"
"1958-10-28 04:00","1958","10","28","04:00","3.9","","1.1","","82","","36","","18","","25.0","","99.16","","","","","","Mostly Cloudy"
"1958-10-28 05:00","1958","10","28","05:00","4.4","","1.1","","79","","36","","18","","25.0","","99.18","","","","","","Mostly Cloudy"
"1958-10-28 06:00","1958","10","28","06:00","4.4","","0.6","","76","","36","","19","","25.0","","99.20","","","","","","Mostly Cloudy"
"1958-10-28 07:00","1958","10","28","07:00","4.4","","0.0","","73","","34","","26","","25.0","","99.24","","","","","","Mostly Cloudy"
"1958-10-28 08:00","1958","10","28","08:00","5.0","","0.0","","70","","34","","26","","25.0","","99.28","","","","","","Mostly Cloudy"
"1958-10-28 09:00","1958","10","28","09:00","4.4","","1.1","","79","","34","","26","","25.0","","99.33","","","","","","Mostly Cloudy"
"1958-10-28 10:00","1958","10","28","10:00","5.0","","0.6","","73","","36","","26","","25.0","","99.39","","","","","","Cloudy"
"1958-10-28 11:00","1958","10","28","11:00","5.0","","0.6","","73","","34","","26","","25.0","","99.43","","","","","","Mostly Cloudy"
"1958-10-28 12:00","1958","10","28","12:00","5.6","","0.6","","70","","36","","26","","25.0","","99.44","","","","","","Cloudy"
"1958-10-28 13:00","1958","10","28","13:00","5.6","","0.6","","70","","36","","26","","25.0","","99.42","","","","","","Mostly Cloudy"
"1958-10-28 14:00","1958","10","28","14:00","6.7","","1.1","","68","","34","","29","","25.0","","99.38","","","","","","Cloudy"
"1958-10-28 15:00","1958","10","28","15:00","6.7","","0.6","","65","","36","","26","","25.0","","99.41","","","","","","Cloudy"
"1958-10-28 16:00","1958","10","28","16:00","7.2","","0.6","","63","","36","","23","","25.0","","99.42","","","","","","Mostly Cloudy"
"1958-10-28 17:00","1958","10","28","17:00","7.2","","1.1","","65","","36","","16","","25.0","","99.45","","","","","","Mostly Cloudy"
"1958-10-28 18:00","1958","10","28","18:00","6.1","","2.2","","76","","36","","10","","25.0","","99.50","","","","","","Mostly Cloudy"
"1958-10-28 19:00","1958","10","28","19:00","6.1","","2.2","","76","","36","","14","","25.0","","99.52","","","","","","Mostly Cloudy"
"1958-10-28 20:00","1958","10","28","20:00","7.2","","2.8","","73","","36","","14","","25.0","","99.57","","","","","","Mostly Cloudy"
"1958-10-28 21:00","1958","10","28","21:00","7.8","","2.8","","71","","36","","16","","25.0","","99.60","","","","","","Cloudy"
"1958-10-28 22:00","1958","10","28","22:00","7.2","","1.1","","65","","36","","21","","25.0","","99.62","","","","","","Cloudy"
"1958-10-28 23:00","1958","10","28","23:00","6.7","","0.0","","62","","36","","21","","25.0","","99.60","","","","","","Cloudy"
"1958-10-29 00:00","1958","10","29","00:00","6.7","","0.0","","62","","36","","19","","25.0","","99.58","","","","","","Cloudy"
"1958-10-29 01:00","1958","10","29","01:00","6.1","","0.0","","65","","36","","26","","25.0","","99.56","","","","","","Mostly Cloudy"
"1958-10-29 02:00","1958","10","29","02:00","5.6","","0.6","","70","","36","","24","","25.0","","99.54","","","","","","Mainly Clear"
"1958-10-29 03:00","1958","10","29","03:00","5.6","","2.2","","79","","36","","23","","25.0","","99.56","","","","","","Mainly Clear"
"1958-10-29 04:00","1958","10","29","04:00","5.6","","1.7","","79","","36","","19","","25.0","","99.57","","","","","","Mostly Cloudy"
"1958-10-29 05:00","1958","10","29","05:00","4.4","","1.7","","82","","36","","19","","25.0","","99.55","","","","","","Mainly Clear"
"1958-10-29 06:00","1958","10","29","06:00","4.4","","1.7","","82","","36","","24","","25.0","","99.56","","","","","","Mainly Clear"
"1958-10-29 07:00","1958","10","29","07:00","3.9","","2.2","","89","","36","","23","","25.0","","99.60","","","","","","Mainly Clear"
"1958-10-29 08:00","1958","10","29","08:00","5.0","","2.2","","82","","36","","21","","25.0","","99.64","","","","","","Mainly Clear"
"1958-10-29 09:00","1958","10","29","09:00","6.7","","2.2","","73","","36","","24","","25.0","","99.67","","","","","","Mainly Clear"
"1958-10-29 10:00","1958","10","29","10:00","7.2","","2.8","","73","","34","","29","","25.0","","99.69","","","","","","Mainly Clear"
"1958-10-29 11:00","1958","10","29","11:00","8.3","","2.2","","65","","36","","24","","25.0","","99.72","","","","","","Mainly Clear"
"1958-10-29 12:00","1958","10","29","12:00","9.4","","1.7","","58","","34","","29","","25.0","","99.68","","","","","","Mainly Clear"
"1958-10-29 13:00","1958","10","29","13:00","10.0","","2.2","","58","","34","","26","","25.0","","99.65","","","","","","Mainly Clear"
"1958-10-29 14:00","1958","10","29","14:00","10.6","","1.1","","52","","34","","29","","25.0","","99.64","","","","","","Mainly Clear"
"1958-10-29 15:00","1958","10","29","15:00","10.6","","1.1","","52","","36","","24","","25.0","","99.63","","","","","","Mainly Clear"
"1958-10-29 16:00","1958","10","29","16:00","10.0","","1.1","","54","","36","","19","","25.0","","99.64","","","","","","Clear"
"1958-10-29 17:00","1958","10","29","17:00","8.3","","0.6","","58","","36","","16","","25.0","","99.67","","","","","","Clear"
"1958-10-29 18:00","1958","10","29","18:00","6.1","","1.1","","70","","36","","18","","25.0","","99.71","","","","","","Clear"
"1958-10-29 19:00","1958","10","29","19:00","5.6","","0.6","","70","","36","","13","","25.0","","99.74","","","","","","Clear"
"1958-10-29 20:00","1958","10","29","20:00","4.4","","0.0","","73","","32","","16","","25.0","","99.76","","","","","","Clear"
"1958-10-29 21:00","1958","10","29","21:00","4.4","","1.7","","82","","29","","16","","25.0","","99.76","","","","","","Clear"
"1958-10-29 22:00","1958","10","29","22:00","4.4","","0.6","","76","","29","","14","","25.0","","99.76","","","","","","Clear"
"1958-10-29 23:00","1958","10","29","23:00","3.9","","1.1","","82","","29","","19","","25.0","","99.75","","","","","","Clear"
"1958-10-30 00:00","1958","10","30","00:00","3.9","","1.1","","82","","27","","13","","25.0","","99.77","","","","","","Clear"
"1958-10-30 01:00","1958","10","30","01:00","3.3","","2.2","","92","","25","","10","","25.0","","99.78","","","","","","Clear"
"1958-10-30 02:00","1958","10","30","02:00","3.3","","0.6","","82","","27","","16","","25.0","","99.78","","","","","","Clear"
"1958-10-30 03:00","1958","10","30","03:00","3.9","","0.0","","76","","27","","14","","25.0","","99.74","","","","","","Mainly Clear"
"1958-10-30 04:00","1958","10","30","04:00","5.0","","2.2","","82","","29","","26","","25.0","","99.78","","","","","","Mostly Cloudy"
"1958-10-30 05:00","1958","10","30","05:00","5.6","","3.3","","86","","32","","16","","25.0","","99.85","","","","","","Cloudy"
"1958-10-30 06:00","1958","10","30","06:00","4.4","","1.7","","82","","27","","10","","25.0","","99.88","","","","","","Mostly Cloudy"
"1958-10-30 07:00","1958","10","30","07:00","3.3","","1.1","","85","","27","","16","","25.0","","99.83","","","","","","Mostly Cloudy"
"1958-10-30 08:00","1958","10","30","08:00","3.9","","1.1","","82","","27","","19","","25.0","","99.89","","","","","","Mostly Cloudy"
"1958-10-30 09:00","1958","10","30","09:00","5.6","","1.1","","73","","29","","26","","25.0","","99.90","","","","","","Mostly Cloudy"
"1958-10-30 10:00","1958","10","30","10:00","7.8","","2.8","","71","","34","","24","","25.0","","99.92","","","","","","Mostly Cloudy"
"1958-10-30 11:00","1958","10","30","11:00","8.9","","2.8","","66","","32","","32","","25.0","","99.94","","","","","","Mostly Cloudy"
"1958-10-30 12:00","1958","10","30","12:00","10.0","","2.8","","61","","32","","32","","25.0","","99.92","","","","","","Mainly Clear"
"1958-10-30 13:00","1958","10","30","13:00","11.1","","2.8","","56","","32","","32","","25.0","","99.87","","","","","","Mainly Clear"
"1958-10-30 14:00","1958","10","30","14:00","12.8","","2.2","","49","","34","","24","","25.0","","99.80","","","","","","Mainly Clear"
"1958-10-30 15:00","1958","10","30","15:00","13.3","","1.7","","45","","32","","26","","25.0","","99.81","","","","","","Mainly Clear"
"1958-10-30 16:00","1958","10","30","16:00","12.8","","2.8","","51","","29","","26","","25.0","","99.79","","","","","","Mostly Cloudy"
"1958-10-30 17:00","1958","10","30","17:00","11.1","","2.8","","56","","29","","23","","25.0","","99.81","","","","","","Mostly Cloudy"
"1958-10-30 18:00","1958","10","30","18:00","10.0","","3.9","","66","","27","","16","","25.0","","99.86","","","","","","Mostly Cloudy"
"1958-10-30 19:00","1958","10","30","19:00","9.4","","3.9","","68","","27","","13","","25.0","","99.82","","","","","","Mainly Clear"
"1958-10-30 20:00","1958","10","30","20:00","8.3","","3.9","","74","","27","","13","","25.0","","99.84","","","","","","Mainly Clear"
"1958-10-30 21:00","1958","10","30","21:00","7.8","","3.9","","76","","27","","13","","25.0","","99.79","","","","","","Mainly Clear"
"1958-10-30 22:00","1958","10","30","22:00","6.7","","3.9","","82","","27","","13","","25.0","","99.71","","","","","","Mainly Clear"
"1958-10-30 23:00","1958","10","30","23:00","6.1","","3.3","","82","","27","","13","","25.0","","99.67","","","","","","Mainly Clear"
"1958-10-31 00:00","1958","10","31","00:00","5.6","","3.3","","86","","25","","19","","25.0","","99.60","","","","","","Mostly Cloudy"
"1958-10-31 01:00","1958","10","31","01:00","6.1","","3.3","","82","","27","","16","","25.0","","99.55","","","","","","Mostly Cloudy"
"1958-10-31 02:00","1958","10","31","02:00","6.7","","3.9","","82","","23","","8","","25.0","","99.47","","","","","","Clear"
"1958-10-31 03:00","1958","10","31","03:00","3.9","","2.2","","89","","23","","16","","25.0","","99.39","","","","","","Clear"
"1958-10-31 04:00","1958","10","31","04:00","5.0","","3.3","","89","","23","","11","","25.0","","99.36","","","","","","Mainly Clear"
"1958-10-31 05:00","1958","10","31","05:00","6.1","","3.9","","86","","25","","24","","25.0","","99.30","","","","","","Mainly Clear"
"1958-10-31 06:00","1958","10","31","06:00","6.7","","3.9","","82","","25","","16","","25.0","","99.25","","","","","","Mainly Clear"
"1958-10-31 07:00","1958","10","31","07:00","6.1","","3.9","","86","","23","","13","","25.0","","99.22","","","","","","Mostly Cloudy"
"1958-10-31 08:00","1958","10","31","08:00","7.2","","4.4","","82","","25","","13","","24.1","","99.22","","","","","","Mostly Cloudy"
"1958-10-31 09:00","1958","10","31","09:00","8.3","","4.4","","76","","25","","23","","24.1","","99.19","","","","","","Mostly Cloudy"
"1958-10-31 10:00","1958","10","31","10:00","8.9","","5.0","","77","","25","","21","","24.1","","99.15","","","","","","Mostly Cloudy"
"1958-10-31 11:00","1958","10","31","11:00","10.6","","6.1","","74","","27","","21","","25.0","","99.08","","","","","","Mostly Cloudy"
"1958-10-31 12:00","1958","10","31","12:00","13.3","","4.4","","55","","27","","32","","25.0","","99.00","","","","","","Mostly Cloudy"
"1958-10-31 13:00","1958","10","31","13:00","14.4","","4.4","","51","","29","","39","","25.0","","98.95","","","","","","Mainly Clear"
"1958-10-31 14:00","1958","10","31","14:00","15.6","","3.3","","44","","29","","45","","25.0","","98.88","","","","","","Mainly Clear"
"1958-10-31 15:00","1958","10","31","15:00","15.6","","3.9","","46","","29","","42","","25.0","","98.89","","","","","","Mainly Clear"
"1958-10-31 16:00","1958","10","31","16:00","15.0","","2.8","","44","","27","","39","","25.0","","98.89","","","","","","Mainly Clear"
"1958-10-31 17:00","1958","10","31","17:00","12.8","","3.3","","53","","29","","32","","25.0","","98.96","","","","","","Mainly Clear"
"1958-10-31 18:00","1958","10","31","18:00","11.7","","3.3","","57","","29","","31","","25.0","","99.04","","","","","","Mainly Clear"
"1958-10-31 19:00","1958","10","31","19:00","11.1","","3.9","","61","","29","","29","","25.0","","99.08","","","","","","Mainly Clear"
"1958-10-31 20:00","1958","10","31","20:00","10.0","","3.9","","66","","29","","24","","25.0","","99.14","","","","","","Clear"
"1958-10-31 21:00","1958","10","31","21:00","8.9","","3.9","","71","","32","","19","","25.0","","99.18","","","","","","Clear"
"1958-10-31 22:00","1958","10","31","22:00","7.8","","3.9","","76","","34","","19","","25.0","","99.25","","","","","","Clear"
"1958-10-31 23:00","1958","10","31","23:00","6.7","","2.8","","76","","36","","11","","25.0","","99.28","","","","","","Clear"
