"Station Name","TORONTO LESTER B. PEARSON INT'L A"
"Province","ONTARIO"
"Latitude","43.68"
"Longitude","-79.63"
"Elevation","173.40"
"Climate Identifier","6158733"
"WMO Identifier","71624"
"TC Identifier","YYZ"
"All times are specified in Local Standard Time (LST). Add 1 hour to adjust for Daylight Saving Time where and when it is observed."

"Legend"
"E","Estimated"
"M","Missing"
"NA","Not Available"

"Date/Time","Year","Month","Day","Time","Temp (°C)","Temp Flag","Dew Point Temp (°C)","Dew Point Temp Flag","Rel Hum (%)","Rel Hum Flag","Wind Dir (10s deg)","Wind Dir Flag","Wind Spd (km/h)","Wind Spd Flag","Visibility (km)","Visibility Flag","Stn Press (kPa)","Stn Press Flag","Hmdx","Hmdx Flag","Wind Chill","Wind Chill Flag","Weather"
"1961-02-01 00:00","1961","02","01","00:00","-17.8","","-25.0","","54","","36","","13","","25.0","","100.23","","","","-26","","Mostly Cloudy"
"1961-02-01 01:00","1961","02","01","01:00","-17.8","","-25.6","","51","","36","","13","","25.0","","100.22","","","","-26","","Mostly Cloudy"
"1961-02-01 02:00","1961","02","01","02:00","-18.3","","-25.0","","55","","36","","13","","25.0","","100.25","","","","-26","","Mostly Cloudy"
"1961-02-01 03:00","1961","02","01","03:00","-18.3","","-25.0","","55","","36","","11","","25.0","","100.30","","","","-26","","Cloudy"
"1961-02-01 04:00","1961","02","01","04:00","-17.8","","-25.0","","54","","2","","6","","25.0","","100.28","","","","-22","","Cloudy"
"1961-02-01 05:00","1961","02","01","05:00","-17.2","","-24.4","","53","","2","","6","","25.0","","100.26","","","","-22","","Cloudy"
"1961-02-01 06:00","1961","02","01","06:00","-17.8","","-23.9","","59","","36","","8","","25.0","","100.25","","","","-24","","Mostly Cloudy"
"1961-02-01 07:00","1961","02","01","07:00","-17.8","","-23.9","","59","","2","","13","","25.0","","100.29","","","","-26","","Mostly Cloudy"
"1961-02-01 08:00","1961","02","01","08:00","-18.3","","-24.4","","60","","2","","11","","25.0","","100.36","","","","-26","","Mainly Clear"
"1961-02-01 09:00","1961","02","01","09:00","-18.3","","-22.8","","68","","2","","11","","25.0","","100.42","","","","-26","","Mainly Clear"
"1961-02-01 10:00","1961","02","01","10:00","-16.7","","-24.4","","52","","2","","11","","25.0","","100.48","","","","-24","","Mainly Clear"
"1961-02-01 11:00","1961","02","01","11:00","-15.6","","-25.6","","43","","2","","13","","25.0","","100.54","","","","-23","","Mainly Clear"
"1961-02-01 12:00","1961","02","01","12:00","-15.6","","-25.0","","45","","2","","23","","25.0","","100.53","","","","-26","","Mainly Clear"
"1961-02-01 13:00","1961","02","01","13:00","-15.6","","-25.0","","45","","2","","19","","25.0","","100.55","","","","-25","","Mainly Clear"
"1961-02-01 14:00","1961","02","01","14:00","-15.6","","-23.9","","49","","2","","19","","25.0","","100.52","","","","-25","","Mostly Cloudy"
"1961-02-01 15:00","1961","02","01","15:00","-15.6","","-23.9","","49","","36","","27","","25.0","","100.61","","","","-26","","Mainly Clear"
"1961-02-01 16:00","1961","02","01","16:00","-15.6","","-23.9","","49","","36","","23","","25.0","","100.68","","","","-26","","Mainly Clear"
"1961-02-01 17:00","1961","02","01","17:00","-16.1","","-23.3","","54","","36","","21","","25.0","","100.82","","","","-26","","Mainly Clear"
"1961-02-01 18:00","1961","02","01","18:00","-17.8","","-22.8","","64","","36","","19","","25.0","","100.89","","","","-27","","Mainly Clear"
"1961-02-01 19:00","1961","02","01","19:00","-18.3","","-23.3","","65","","36","","6","","25.0","","100.97","","","","-23","","Clear"
"1961-02-01 20:00","1961","02","01","20:00","-19.4","","-25.6","","57","","36","","23","","25.0","","101.01","","","","-30","","Clear"
"1961-02-01 21:00","1961","02","01","21:00","-19.4","","-26.1","","54","","36","","16","","25.0","","101.07","","","","-29","","Clear"
"1961-02-01 22:00","1961","02","01","22:00","-20.6","","-26.7","","57","","36","","16","","25.0","","101.18","","","","-30","","Clear"
"1961-02-01 23:00","1961","02","01","23:00","-21.1","","-26.7","","62","","34","","14","","25.0","","101.24","","","","-30","","Clear"
"1961-02-02 00:00","1961","02","02","00:00","-21.7","","-26.1","","67","","34","","13","","25.0","","101.26","","","","-30","","Clear"
"1961-02-02 01:00","1961","02","02","01:00","-22.2","","-26.1","","70","","36","","19","","25.0","","101.31","","","","-33","","Clear"
"1961-02-02 02:00","1961","02","02","02:00","-22.2","","-26.7","","66","","36","","21","","25.0","","101.35","","","","-34","","Clear"
"1961-02-02 03:00","1961","02","02","03:00","-23.3","","-28.3","","64","","36","","16","","25.0","","101.42","","","","-33","","Clear"
"1961-02-02 04:00","1961","02","02","04:00","-23.3","","-28.3","","64","","36","","19","","25.0","","101.46","","","","-34","","Clear"
"1961-02-02 05:00","1961","02","02","05:00","-23.9","","-28.3","","67","","36","","19","","25.0","","101.51","","","","-35","","Clear"
"1961-02-02 06:00","1961","02","02","06:00","-23.9","","-28.3","","67","","2","","19","","25.0","","101.54","","","","-35","","Clear"
"1961-02-02 07:00","1961","02","02","07:00","-24.4","","-28.3","","70","","36","","19","","25.0","","101.56","","","","-36","","Clear"
"1961-02-02 08:00","1961","02","02","08:00","-24.4","","-28.9","","66","","36","","24","","25.0","","101.64","","","","-37","","Clear"
"1961-02-02 09:00","1961","02","02","09:00","-23.9","","-30.6","","55","","36","","27","","24.1","","101.66","","","","-37","","Mainly Clear"
"1961-02-02 10:00","1961","02","02","10:00","-22.2","","-28.9","","56","","36","","27","","24.1","","101.66","","","","-35","","Mainly Clear"
"1961-02-02 11:00","1961","02","02","11:00","-20.6","","-27.2","","54","","36","","26","","25.0","","101.66","","","","-33","","Mainly Clear"
"1961-02-02 12:00","1961","02","02","12:00","-18.3","","-24.4","","60","","2","","23","","25.0","","101.62","","","","-29","","Mainly Clear"
"1961-02-02 13:00","1961","02","02","13:00","-16.7","","-23.3","","57","","2","","11","","25.0","","101.56","","","","-24","","Mainly Clear"
"1961-02-02 14:00","1961","02","02","14:00","-15.0","","-21.7","","57","","2","","11","","25.0","","101.51","","","","-22","","Mainly Clear"
"1961-02-02 15:00","1961","02","02","15:00","-14.4","","-20.6","","59","","36","","16","","24.1","","101.48","","","","-22","","Mainly Clear"
"1961-02-02 16:00","1961","02","02","16:00","-14.4","","-20.6","","61","","36","","16","","24.1","","101.49","","","","-22","","Mainly Clear"
"1961-02-02 17:00","1961","02","02","17:00","-16.1","","-21.1","","65","","34","","14","","25.0","","101.53","","","","-24","","Mainly Clear"
"1961-02-02 18:00","1961","02","02","18:00","-17.8","","-21.7","","71","","36","","23","","25.0","","101.52","","","","-28","","Mainly Clear"
"1961-02-02 19:00","1961","02","02","19:00","-18.3","","-22.2","","73","","36","","19","","25.0","","101.54","","","","-28","","Mainly Clear"
"1961-02-02 20:00","1961","02","02","20:00","-19.4","","-23.9","","68","","36","","19","","25.0","","101.57","","","","-29","","Mainly Clear"
"1961-02-02 21:00","1961","02","02","21:00","-20.0","","-23.3","","73","","36","","19","","25.0","","101.55","","","","-30","","Mostly Cloudy"
"1961-02-02 22:00","1961","02","02","22:00","-20.6","","-24.4","","73","","36","","19","","25.0","","101.52","","","","-31","","Clear"
"1961-02-02 23:00","1961","02","02","23:00","-20.0","","-24.4","","67","","36","","16","","25.0","","101.45","","","","-29","","Mainly Clear"
"1961-02-03 00:00","1961","02","03","00:00","-20.6","","-24.4","","69","","36","","14","","25.0","","101.44","","","","-29","","Mostly Cloudy"
"1961-02-03 01:00","1961","02","03","01:00","-18.9","","-21.7","","78","","2","","13","","11.3","","101.36","","","","-27","","Snow"
"1961-02-03 02:00","1961","02","03","02:00","-15.6","","-17.8","","82","","7","","16","","1.6","","101.32","","","","-24","","Snow"
"1961-02-03 03:00","1961","02","03","03:00","-14.4","","-17.2","","79","","7","","16","","1.6","","101.27","","","","-22","","Snow"
"1961-02-03 04:00","1961","02","03","04:00","-14.4","","-17.2","","81","","7","","23","","6.4","","101.19","","","","-24","","Snow"
"1961-02-03 05:00","1961","02","03","05:00","-15.0","","-17.8","","80","","7","","19","","6.4","","101.15","","","","-24","","Snow"
"1961-02-03 06:00","1961","02","03","06:00","-15.0","","-17.8","","80","","7","","16","","6.4","","101.07","","","","-23","","Snow"
"1961-02-03 07:00","1961","02","03","07:00","-15.0","","-18.9","","72","","7","","19","","6.4","","101.02","","","","-24","","Snow"
"1961-02-03 08:00","1961","02","03","08:00","-15.6","","-17.8","","84","","7","","23","","6.4","","100.97","","","","-26","","Snow"
"1961-02-03 09:00","1961","02","03","09:00","-15.0","","-17.2","","82","","5","","26","","2.0","","100.92","","","","-25","","Snow"
"1961-02-03 10:00","1961","02","03","10:00","-14.4","","-17.2","","81","","5","","23","","1.6","","100.90","","","","-24","","Snow"
"1961-02-03 11:00","1961","02","03","11:00","-14.4","","-16.7","","83","","5","","19","","1.2","","100.82","","","","-23","","Snow"
"1961-02-03 12:00","1961","02","03","12:00","-12.8","","-15.0","","85","","7","","29","","1.2","","100.59","","","","-23","","Snow"
"1961-02-03 13:00","1961","02","03","13:00","-12.2","","-14.4","","83","","7","","32","","0.8","","100.51","","","","-23","","Moderate Snow"
"1961-02-03 14:00","1961","02","03","14:00","-11.1","","-13.3","","85","","7","","32","","1.0","","100.41","","","","-21","","Snow"
"1961-02-03 15:00","1961","02","03","15:00","-10.6","","-12.8","","85","","7","","27","","1.0","","100.38","","","","-20","","Snow"
"1961-02-03 16:00","1961","02","03","16:00","-8.9","","-10.6","","89","","7","","29","","1.0","","100.38","","","","-18","","Snow"
"1961-02-03 17:00","1961","02","03","17:00","-7.8","","-8.9","","90","","7","","32","","0.8","","100.34","","","","-17","","Moderate Snow"
"1961-02-03 18:00","1961","02","03","18:00","-6.7","","-8.3","","89","","7","","26","","1.6","","100.33","","","","-15","","Snow"
"1961-02-03 19:00","1961","02","03","19:00","-6.7","","-8.3","","89","","7","","18","","1.6","","100.33","","","","-13","","Snow"
"1961-02-03 20:00","1961","02","03","20:00","-7.8","","-9.4","","89","","5","","21","","4.0","","100.32","","","","-15","","Snow"
"1961-02-03 21:00","1961","02","03","21:00","-7.2","","-8.9","","89","","5","","21","","11.3","","100.30","","","","-15","","Snow"
"1961-02-03 22:00","1961","02","03","22:00","-8.9","","-10.6","","87","","5","","16","","1.6","","100.33","","","","-16","","Snow"
"1961-02-03 23:00","1961","02","03","23:00","-7.8","","-9.4","","89","","5","","19","","3.2","","100.29","","","","-15","","Snow"
"1961-02-04 00:00","1961","02","04","00:00","-7.2","","-8.3","","91","","5","","18","","3.2","","100.27","","","","-14","","Snow"
"1961-02-04 01:00","1961","02","04","01:00","-7.8","","-9.4","","89","","5","","13","","2.0","","100.21","","","","-14","","Snow"
"1961-02-04 02:00","1961","02","04","02:00","-7.8","","-9.4","","89","","2","","16","","3.2","","100.18","","","","-14","","Snow"
"1961-02-04 03:00","1961","02","04","03:00","-7.2","","-8.9","","89","","2","","23","","9.7","","100.16","","","","-15","","Snow"
"1961-02-04 04:00","1961","02","04","04:00","-7.2","","-8.9","","88","","2","","18","","12.9","","100.14","","","","-14","","Snow"
"1961-02-04 05:00","1961","02","04","05:00","-6.7","","-8.3","","87","","2","","13","","6.4","","100.18","","","","-12","","Snow Showers"
"1961-02-04 06:00","1961","02","04","06:00","-7.2","","-9.4","","84","","36","","19","","9.7","","100.16","","","","-14","","Snow Showers"
"1961-02-04 07:00","1961","02","04","07:00","-7.8","","-10.0","","86","","34","","13","","12.9","","100.29","","","","-14","","Cloudy"
"1961-02-04 08:00","1961","02","04","08:00","-7.2","","-8.9","","87","","34","","19","","16.1","","100.35","","","","-14","","Cloudy"
"1961-02-04 09:00","1961","02","04","09:00","-7.2","","-8.9","","87","","34","","26","","8.0","","100.38","","","","-15","","Fog"
"1961-02-04 10:00","1961","02","04","10:00","-6.7","","-8.9","","85","","34","","26","","8.0","","100.41","","","","-15","","Snow Showers"
"1961-02-04 11:00","1961","02","04","11:00","-5.6","","-7.8","","84","","36","","29","","12.9","","100.47","","","","-14","","Snow Showers"
"1961-02-04 12:00","1961","02","04","12:00","-5.0","","-9.4","","72","","36","","26","","12.9","","100.49","","","","-12","","Snow Showers"
"1961-02-04 13:00","1961","02","04","13:00","-4.4","","-6.7","","83","","34","","26","","12.9","","100.52","","","","-12","","Cloudy"
"1961-02-04 14:00","1961","02","04","14:00","-4.4","","-6.7","","83","","36","","23","","12.9","","100.55","","","","-11","","Snow Showers"
"1961-02-04 15:00","1961","02","04","15:00","-3.9","","-6.1","","86","","36","","19","","9.7","","100.61","","","","-10","","Snow Showers"
"1961-02-04 16:00","1961","02","04","16:00","-3.9","","-7.2","","78","","36","","26","","25.0","","100.66","","","","-11","","Mostly Cloudy"
"1961-02-04 17:00","1961","02","04","17:00","-3.9","","-7.2","","78","","36","","13","","24.1","","100.74","","","","-9","","Mainly Clear"
"1961-02-04 18:00","1961","02","04","18:00","-4.4","","-7.2","","82","","36","","13","","24.1","","100.80","","","","-9","","Mostly Cloudy"
"1961-02-04 19:00","1961","02","04","19:00","-5.0","","-7.2","","83","","34","","10","","24.1","","100.85","","","","-9","","Mostly Cloudy"
"1961-02-04 20:00","1961","02","04","20:00","-6.7","","-8.3","","87","","34","","11","","25.0","","100.92","","","","-12","","Mainly Clear"
"1961-02-04 21:00","1961","02","04","21:00","-7.2","","-9.4","","84","","34","","14","","25.0","","100.92","","","","-13","","Clear"
"1961-02-04 22:00","1961","02","04","22:00","-7.8","","-10.0","","83","","34","","14","","25.0","","100.96","","","","-14","","Clear"
"1961-02-04 23:00","1961","02","04","23:00","-8.9","","-11.1","","83","","34","","13","","25.0","","101.00","","","","-15","","Clear"
"1961-02-05 00:00","1961","02","05","00:00","-9.4","","-11.7","","82","","36","","11","","25.0","","101.04","","","","-15","","Clear"
"1961-02-05 01:00","1961","02","05","01:00","-8.9","","-11.7","","79","","36","","11","","25.0","","101.03","","","","-14","","Clear"
"1961-02-05 02:00","1961","02","05","02:00","-10.0","","-12.8","","78","","34","","13","","25.0","","101.05","","","","-16","","Clear"
"1961-02-05 03:00","1961","02","05","03:00","-10.6","","-12.8","","84","","34","","8","","25.0","","101.08","","","","-15","","Clear"
"1961-02-05 04:00","1961","02","05","04:00","-10.6","","-12.8","","85","","36","","11","","25.0","","101.12","","","","-16","","Clear"
"1961-02-05 05:00","1961","02","05","05:00","-10.6","","-12.8","","85","","34","","8","","25.0","","101.14","","","","-15","","Clear"
"1961-02-05 06:00","1961","02","05","06:00","-10.0","","-11.7","","88","","34","","13","","25.0","","101.18","","","","-16","","Clear"
"1961-02-05 07:00","1961","02","05","07:00","-11.7","","-14.4","","81","","32","","10","","25.0","","101.23","","","","-17","","Clear"
"1961-02-05 08:00","1961","02","05","08:00","-12.8","","-15.6","","79","","29","","5","","24.1","","101.26","","","","-16","","Clear"
"1961-02-05 09:00","1961","02","05","09:00","-11.7","","-15.0","","77","","27","","11","","25.0","","101.33","","","","-18","","Clear"
"1961-02-05 10:00","1961","02","05","10:00","-7.2","","-11.7","","72","","25","","5","","25.0","","101.36","","","","-10","","Clear"
"1961-02-05 11:00","1961","02","05","11:00","-4.4","","-10.6","","62","","23","","5","","25.0","","101.36","","","","-7","","Mainly Clear"
"1961-02-05 12:00","1961","02","05","12:00","-2.2","","-9.4","","59","","23","","5","","25.0","","101.30","","","","-4","","Clear"
"1961-02-05 13:00","1961","02","05","13:00","0.0","","-6.1","","63","","23","","5","","25.0","","101.23","","","","-2","","Mainly Clear"
"1961-02-05 14:00","1961","02","05","14:00","0.0","","-6.1","","63","","23","","6","","25.0","","101.18","","","","-2","","Mainly Clear"
"1961-02-05 15:00","1961","02","05","15:00","1.7","","-3.9","","67","","23","","5","","25.0","","101.15","","","","","","Mainly Clear"
"1961-02-05 16:00","1961","02","05","16:00","1.1","","-5.6","","61","","29","","13","","25.0","","101.13","","","","","","Mostly Cloudy"
"1961-02-05 17:00","1961","02","05","17:00","-1.7","","-7.8","","62","","29","","14","","24.1","","101.09","","","","-6","","Mostly Cloudy"
"1961-02-05 18:00","1961","02","05","18:00","-4.4","","-9.4","","67","","27","","16","","24.1","","101.07","","","","-10","","Mostly Cloudy"
"1961-02-05 19:00","1961","02","05","19:00","-5.0","","-9.4","","72","","27","","16","","25.0","","101.06","","","","-11","","Mainly Clear"
"1961-02-05 20:00","1961","02","05","20:00","-6.7","","-10.6","","73","","27","","19","","25.0","","101.06","","","","-14","","Mainly Clear"
"1961-02-05 21:00","1961","02","05","21:00","-7.8","","-11.1","","78","","25","","13","","24.1","","101.08","","","","-14","","Mainly Clear"
"1961-02-05 22:00","1961","02","05","22:00","-7.8","","-10.6","","82","","23","","6","","19.3","","101.03","","","","-11","","Mainly Clear"
"1961-02-05 23:00","1961","02","05","23:00","-10.6","","-11.7","","90","","23","","5","","11.3","","101.00","","","","-14","","Mainly Clear"
"1961-02-06 00:00","1961","02","06","00:00","-10.6","","-11.7","","90","","32","","8","","16.1","","100.95","","","","-15","","Clear"
"1961-02-06 01:00","1961","02","06","01:00","-11.1","","-12.2","","90","","27","","3","","16.1","","100.87","","","","-13","","Mainly Clear"
"1961-02-06 02:00","1961","02","06","02:00","-10.6","","-12.2","","87","","20","","5","","16.1","","100.88","","","","-14","","Mostly Cloudy"
"1961-02-06 03:00","1961","02","06","03:00","-8.9","","-10.6","","86","","","","0","","16.1","","100.85","","","","","","Mostly Cloudy"
"1961-02-06 04:00","1961","02","06","04:00","-8.9","","-10.6","","86","","","","0","","16.1","","100.79","","","","","","Mostly Cloudy"
"1961-02-06 05:00","1961","02","06","05:00","-10.6","","-12.2","","87","","","","0","","16.1","","100.77","","","","","","Cloudy"
"1961-02-06 06:00","1961","02","06","06:00","-9.4","","-11.1","","87","","","","0","","16.1","","100.74","","","","","","Mainly Clear"
"1961-02-06 07:00","1961","02","06","07:00","-9.4","","-11.1","","87","","","","0","","19.3","","100.77","","","","","","Mostly Cloudy"
"1961-02-06 08:00","1961","02","06","08:00","-9.4","","-11.1","","87","","","","0","","19.3","","100.78","","","","","","Mainly Clear"
"1961-02-06 09:00","1961","02","06","09:00","-7.8","","-11.1","","76","","32","","5","","16.1","","100.80","","","","-10","","Mainly Clear"
"1961-02-06 10:00","1961","02","06","10:00","-6.1","","-10.6","","70","","29","","6","","16.1","","100.83","","","","-9","","Mainly Clear"
"1961-02-06 11:00","1961","02","06","11:00","-3.3","","-8.9","","64","","27","","5","","16.1","","100.81","","","","-5","","Mainly Clear"
"1961-02-06 12:00","1961","02","06","12:00","-2.2","","-8.9","","61","","27","","8","","16.1","","100.74","","","","-5","","Clear"
"1961-02-06 13:00","1961","02","06","13:00","-1.1","","-6.7","","66","","29","","13","","19.3","","100.70","","","","-5","","Mainly Clear"
"1961-02-06 14:00","1961","02","06","14:00","-0.6","","-8.3","","56","","29","","10","","24.1","","100.63","","","","-4","","Mainly Clear"
"1961-02-06 15:00","1961","02","06","15:00","0.0","","-7.8","","55","","29","","8","","24.1","","100.62","","","","-3","","Mainly Clear"
"1961-02-06 16:00","1961","02","06","16:00","0.0","","-7.8","","55","","27","","11","","24.1","","100.62","","","","-4","","Mainly Clear"
"1961-02-06 17:00","1961","02","06","17:00","-1.1","","-7.8","","61","","27","","11","","24.1","","100.61","","","","-5","","Mainly Clear"
"1961-02-06 18:00","1961","02","06","18:00","-3.9","","-8.3","","70","","29","","16","","25.0","","100.64","","","","-9","","Mainly Clear"
"1961-02-06 19:00","1961","02","06","19:00","-3.9","","-7.8","","76","","34","","6","","25.0","","100.70","","","","-7","","Mainly Clear"
"1961-02-06 20:00","1961","02","06","20:00","-5.6","","-8.3","","82","","32","","6","","24.1","","100.72","","","","-8","","Mainly Clear"
"1961-02-06 21:00","1961","02","06","21:00","-7.2","","-9.4","","83","","34","","6","","24.1","","100.71","","","","-10","","Mainly Clear"
"1961-02-06 22:00","1961","02","06","22:00","-10.6","","-12.8","","84","","29","","3","","24.1","","100.73","","","","-12","","Mainly Clear"
"1961-02-06 23:00","1961","02","06","23:00","-11.1","","-12.8","","88","","27","","6","","24.1","","100.73","","","","-15","","Clear"
"1961-02-07 00:00","1961","02","07","00:00","-12.2","","-14.4","","85","","27","","6","","24.1","","100.76","","","","-16","","Clear"
"1961-02-07 01:00","1961","02","07","01:00","-12.2","","-14.4","","83","","32","","5","","24.1","","100.80","","","","-15","","Clear"
"1961-02-07 02:00","1961","02","07","02:00","-11.7","","-13.3","","86","","32","","6","","19.3","","100.81","","","","-15","","Clear"
"1961-02-07 03:00","1961","02","07","03:00","-12.2","","-14.4","","85","","32","","5","","19.3","","100.80","","","","-15","","Clear"
"1961-02-07 04:00","1961","02","07","04:00","-13.9","","-15.6","","85","","36","","5","","16.1","","100.80","","","","-17","","Clear"
"1961-02-07 05:00","1961","02","07","05:00","-12.8","","-14.4","","86","","36","","10","","16.1","","100.77","","","","-19","","Clear"
"1961-02-07 06:00","1961","02","07","06:00","-12.8","","-15.0","","85","","36","","13","","16.1","","100.76","","","","-20","","Clear"
"1961-02-07 07:00","1961","02","07","07:00","-12.2","","-13.3","","91","","36","","13","","0.2","","100.75","","","","-19","","Fog"
"1961-02-07 08:00","1961","02","07","08:00","-11.1","","-12.8","","88","","36","","6","","0.2","","100.82","","","","-15","","Fog"
"1961-02-07 09:00","1961","02","07","09:00","-10.6","","-11.7","","90","","32","","5","","0.2","","100.86","","","","-14","","Fog"
"1961-02-07 10:00","1961","02","07","10:00","-8.9","","-10.0","","92","","","","0","","0.8","","100.87","","","","","","Fog"
"1961-02-07 11:00","1961","02","07","11:00","-7.2","","-8.3","","92","","","","0","","2.0","","100.85","","","","","","Fog"
"1961-02-07 12:00","1961","02","07","12:00","-7.2","","-8.3","","92","","","","0","","4.8","","100.76","","","","","","Fog"
"1961-02-07 13:00","1961","02","07","13:00","-5.6","","-8.3","","81","","","","0","","6.4","","100.68","","","","","","Haze"
"1961-02-07 14:00","1961","02","07","14:00","-3.9","","-5.6","","88","","","","0","","4.0","","100.61","","","","","","Fog"
"1961-02-07 15:00","1961","02","07","15:00","-2.8","","-7.2","","73","","","","0","","4.0","","100.50","","","","","","Haze"
"1961-02-07 16:00","1961","02","07","16:00","-1.7","","-6.1","","71","","18","","6","","6.4","","100.43","","","","-4","","Haze"
"1961-02-07 17:00","1961","02","07","17:00","-2.2","","-6.1","","74","","18","","6","","6.4","","100.38","","","","-5","","Haze"
"1961-02-07 18:00","1961","02","07","18:00","-5.0","","-8.9","","75","","20","","6","","2.0","","100.36","","","","-8","","Haze"
"1961-02-07 19:00","1961","02","07","19:00","-6.1","","-8.9","","79","","20","","6","","2.0","","100.39","","","","-9","","Haze"
"1961-02-07 20:00","1961","02","07","20:00","-6.7","","-9.4","","81","","","","0","","2.8","","100.33","","","","","","Haze"
"1961-02-07 21:00","1961","02","07","21:00","-9.4","","-11.7","","85","","","","0","","3.2","","100.26","","","","","","Haze"
"1961-02-07 22:00","1961","02","07","22:00","-10.6","","-12.2","","87","","","","0","","1.6","","100.17","","","","","","Fog"
"1961-02-07 23:00","1961","02","07","23:00","-11.7","","-13.3","","88","","34","","3","","1.6","","100.14","","","","-14","","Fog"
"1961-02-08 00:00","1961","02","08","00:00","-11.7","","-13.3","","87","","","","0","","0.0","","100.05","","","","","","Fog"
"1961-02-08 01:00","1961","02","08","01:00","-12.2","","-14.4","","85","","34","","6","","0.4","","99.95","","","","-16","","Fog"
"1961-02-08 02:00","1961","02","08","02:00","-13.3","","-15.0","","86","","34","","13","","9.7","","99.83","","","","-20","","Fog"
"1961-02-08 03:00","1961","02","08","03:00","-13.3","","-15.0","","86","","27","","3","","16.1","","99.79","","","","-15","","Clear"
"1961-02-08 04:00","1961","02","08","04:00","-13.9","","-15.6","","85","","23","","3","","16.1","","99.75","","","","-16","","Clear"
"1961-02-08 05:00","1961","02","08","05:00","-13.9","","-16.1","","83","","32","","5","","25.0","","99.69","","","","-17","","Clear"
"1961-02-08 06:00","1961","02","08","06:00","-13.3","","-15.0","","88","","36","","8","","25.0","","99.60","","","","-18","","Clear"
"1961-02-08 07:00","1961","02","08","07:00","-13.3","","-15.0","","86","","32","","8","","25.0","","99.57","","","","-18","","Clear"
"1961-02-08 08:00","1961","02","08","08:00","-11.7","","-15.0","","77","","34","","8","","25.0","","99.61","","","","-16","","Clear"
"1961-02-08 09:00","1961","02","08","09:00","-9.4","","-14.4","","66","","","","0","","25.0","","99.54","","","","","","Clear"
"1961-02-08 10:00","1961","02","08","10:00","-3.3","","-7.8","","72","","29","","6","","25.0","","99.46","","","","-6","","Clear"
"1961-02-08 11:00","1961","02","08","11:00","1.1","","-4.4","","66","","18","","5","","25.0","","99.47","","","","","","Clear"
"1961-02-08 12:00","1961","02","08","12:00","2.8","","-5.6","","55","","","","0","","25.0","","99.39","","","","","","Clear"
"1961-02-08 13:00","1961","02","08","13:00","3.9","","-5.0","","52","","18","","5","","25.0","","99.27","","","","","","Clear"
"1961-02-08 14:00","1961","02","08","14:00","4.4","","-5.0","","51","","29","","10","","25.0","","99.19","","","","","","Clear"
"1961-02-08 15:00","1961","02","08","15:00","5.0","","-5.6","","46","","27","","19","","25.0","","99.14","","","","","","Clear"
"1961-02-08 16:00","1961","02","08","16:00","5.0","","-5.0","","48","","29","","21","","25.0","","99.09","","","","","","Clear"
"1961-02-08 17:00","1961","02","08","17:00","3.3","","-6.1","","51","","27","","16","","25.0","","99.05","","","","","","Clear"
"1961-02-08 18:00","1961","02","08","18:00","1.1","","-6.1","","58","","27","","16","","25.0","","99.03","","","","","","Clear"
"1961-02-08 19:00","1961","02","08","19:00","0.6","","-7.2","","57","","27","","14","","25.0","","99.02","","","","","","Clear"
"1961-02-08 20:00","1961","02","08","20:00","-1.1","","-7.2","","63","","25","","14","","25.0","","99.01","","","","-6","","Clear"
"1961-02-08 21:00","1961","02","08","21:00","-2.2","","-7.8","","66","","27","","16","","25.0","","98.98","","","","-7","","Clear"
"1961-02-08 22:00","1961","02","08","22:00","-2.2","","-7.2","","68","","27","","11","","25.0","","98.96","","","","-6","","Clear"
"1961-02-08 23:00","1961","02","08","23:00","-1.7","","-6.7","","69","","29","","8","","25.0","","98.94","","","","-5","","Clear"
"1961-02-09 00:00","1961","02","09","00:00","-1.7","","-6.7","","68","","29","","14","","25.0","","98.91","","","","-6","","Clear"
"1961-02-09 01:00","1961","02","09","01:00","-1.7","","-5.6","","74","","29","","8","","25.0","","98.86","","","","-5","","Clear"
"1961-02-09 02:00","1961","02","09","02:00","-3.9","","-7.2","","77","","","","0","","25.0","","98.86","","","","","","Clear"
"1961-02-09 03:00","1961","02","09","03:00","-2.8","","-7.2","","72","","29","","19","","24.1","","98.80","","","","-9","","Clear"
"1961-02-09 04:00","1961","02","09","04:00","-5.0","","-7.8","","81","","23","","10","","24.1","","98.77","","","","-9","","Clear"
"1961-02-09 05:00","1961","02","09","05:00","-3.3","","-6.7","","79","","25","","13","","24.1","","98.72","","","","-8","","Clear"
"1961-02-09 06:00","1961","02","09","06:00","-3.3","","-6.1","","80","","27","","16","","24.1","","98.65","","","","-9","","Clear"
"1961-02-09 07:00","1961","02","09","07:00","-3.9","","-6.7","","82","","","","0","","16.1","","98.64","","","","","","Clear"
"1961-02-09 08:00","1961","02","09","08:00","-3.9","","-6.7","","79","","27","","13","","11.3","","98.60","","","","-9","","Clear"
"1961-02-09 09:00","1961","02","09","09:00","-2.2","","-5.6","","78","","27","","8","","11.3","","98.60","","","","-5","","Clear"
"1961-02-09 10:00","1961","02","09","10:00","-0.6","","-4.4","","76","","27","","21","","8.0","","98.58","","","","-6","","Haze"
"1961-02-09 11:00","1961","02","09","11:00","1.1","","-3.3","","71","","27","","29","","8.0","","98.55","","","","","","Haze"
"1961-02-09 12:00","1961","02","09","12:00","2.2","","-3.9","","63","","27","","16","","8.0","","98.50","","","","","","Haze"
"1961-02-09 13:00","1961","02","09","13:00","2.8","","-3.9","","62","","27","","16","","8.0","","98.41","","","","","","Haze"
"1961-02-09 14:00","1961","02","09","14:00","4.4","","-2.8","","60","","23","","14","","8.0","","98.31","","","","","","Haze"
"1961-02-09 15:00","1961","02","09","15:00","4.4","","-2.2","","62","","27","","11","","9.7","","98.32","","","","","","Haze"
"1961-02-09 16:00","1961","02","09","16:00","3.3","","-2.8","","65","","29","","19","","9.7","","98.33","","","","","","Haze"
"1961-02-09 17:00","1961","02","09","17:00","2.8","","-1.7","","72","","27","","26","","9.7","","98.35","","","","","","Haze"
"1961-02-09 18:00","1961","02","09","18:00","1.7","","-1.7","","78","","27","","16","","12.9","","98.41","","","","","","Mostly Cloudy"
"1961-02-09 19:00","1961","02","09","19:00","1.1","","-2.2","","79","","27","","16","","12.9","","98.48","","","","","","Mainly Clear"
"1961-02-09 20:00","1961","02","09","20:00","0.6","","-1.7","","84","","32","","16","","24.1","","98.51","","","","","","Cloudy"
"1961-02-09 21:00","1961","02","09","21:00","0.6","","-1.7","","84","","34","","13","","24.1","","98.54","","","","","","Cloudy"
"1961-02-09 22:00","1961","02","09","22:00","0.0","","-2.8","","83","","34","","14","","24.1","","98.57","","","","-4","","Cloudy"
"1961-02-09 23:00","1961","02","09","23:00","0.0","","-2.2","","86","","34","","6","","24.1","","98.59","","","","-2","","Cloudy"
"1961-02-10 00:00","1961","02","10","00:00","0.0","","-2.2","","86","","29","","5","","24.1","","98.60","","","","-2","","Mostly Cloudy"
"1961-02-10 01:00","1961","02","10","01:00","0.0","","-2.8","","83","","29","","6","","24.1","","98.63","","","","-2","","Mostly Cloudy"
"1961-02-10 02:00","1961","02","10","02:00","-1.1","","-2.8","","88","","29","","8","","16.1","","98.64","","","","-4","","Snow Showers"
"1961-02-10 03:00","1961","02","10","03:00","-1.1","","-2.8","","88","","29","","8","","6.4","","98.64","","","","-4","","Snow Showers"
"1961-02-10 04:00","1961","02","10","04:00","-1.1","","-2.8","","90","","27","","6","","12.9","","98.70","","","","-3","","Snow Showers"
"1961-02-10 05:00","1961","02","10","05:00","-1.1","","-2.2","","94","","29","","10","","16.1","","98.74","","","","-5","","Snow Showers"
"1961-02-10 06:00","1961","02","10","06:00","-0.6","","-1.7","","91","","34","","11","","19.3","","98.75","","","","-4","","Snow Showers"
"1961-02-10 07:00","1961","02","10","07:00","-0.6","","-1.7","","91","","36","","16","","16.1","","98.84","","","","-5","","Snow Showers"
"1961-02-10 08:00","1961","02","10","08:00","-1.1","","-2.2","","93","","36","","14","","11.3","","98.92","","","","-6","","Mostly Cloudy"
"1961-02-10 09:00","1961","02","10","09:00","0.0","","-2.2","","86","","34","","16","","12.9","","98.98","","","","-5","","Mostly Cloudy"
"1961-02-10 10:00","1961","02","10","10:00","0.6","","-2.2","","81","","36","","24","","19.3","","98.99","","","","","","Mostly Cloudy"
"1961-02-10 11:00","1961","02","10","11:00","0.6","","-1.7","","84","","36","","26","","24.1","","99.06","","","","","","Mostly Cloudy"
"1961-02-10 12:00","1961","02","10","12:00","-0.6","","-4.4","","76","","34","","26","","25.0","","99.07","","","","-7","","Mostly Cloudy"
"1961-02-10 13:00","1961","02","10","13:00","-0.6","","-5.0","","73","","36","","23","","25.0","","99.07","","","","-6","","Mostly Cloudy"
"1961-02-10 14:00","1961","02","10","14:00","-1.1","","-5.0","","74","","36","","26","","25.0","","99.09","","","","-7","","Mostly Cloudy"
"1961-02-10 15:00","1961","02","10","15:00","-1.7","","-6.1","","72","","36","","23","","25.0","","99.14","","","","-8","","Mostly Cloudy"
"1961-02-10 16:00","1961","02","10","16:00","-2.2","","-7.2","","70","","36","","24","","25.0","","99.18","","","","-9","","Mainly Clear"
"1961-02-10 17:00","1961","02","10","17:00","-3.9","","-8.3","","73","","36","","21","","25.0","","99.26","","","","-10","","Mainly Clear"
"1961-02-10 18:00","1961","02","10","18:00","-5.0","","-8.3","","79","","36","","19","","25.0","","99.37","","","","-11","","Mainly Clear"
"1961-02-10 19:00","1961","02","10","19:00","-5.6","","-8.9","","79","","34","","16","","25.0","","99.44","","","","-12","","Mainly Clear"
"1961-02-10 20:00","1961","02","10","20:00","-7.2","","-9.4","","83","","34","","13","","25.0","","99.47","","","","-13","","Mainly Clear"
"1961-02-10 21:00","1961","02","10","21:00","-7.8","","-10.6","","79","","34","","16","","25.0","","99.53","","","","-14","","Mainly Clear"
"1961-02-10 22:00","1961","02","10","22:00","-8.9","","-11.7","","79","","36","","16","","25.0","","99.55","","","","-16","","Mainly Clear"
"1961-02-10 23:00","1961","02","10","23:00","-8.9","","-11.7","","81","","36","","16","","25.0","","99.59","","","","-16","","Mainly Clear"
"1961-02-11 00:00","1961","02","11","00:00","-9.4","","-11.7","","82","","36","","13","","25.0","","99.61","","","","-15","","Clear"
"1961-02-11 01:00","1961","02","11","01:00","-10.6","","-12.8","","82","","36","","11","","25.0","","99.62","","","","-16","","Mainly Clear"
"1961-02-11 02:00","1961","02","11","02:00","-10.6","","-12.8","","84","","36","","13","","25.0","","99.68","","","","-17","","Mostly Cloudy"
"1961-02-11 03:00","1961","02","11","03:00","-10.6","","-12.8","","84","","36","","16","","25.0","","99.71","","","","-18","","Mostly Cloudy"
"1961-02-11 04:00","1961","02","11","04:00","-11.1","","-13.3","","83","","36","","16","","25.0","","99.73","","","","-18","","Mostly Cloudy"
"1961-02-11 05:00","1961","02","11","05:00","-11.1","","-13.3","","83","","36","","16","","25.0","","99.75","","","","-18","","Mainly Clear"
"1961-02-11 06:00","1961","02","11","06:00","-10.6","","-13.9","","77","","36","","13","","25.0","","99.81","","","","-17","","Mostly Cloudy"
"1961-02-11 07:00","1961","02","11","07:00","-11.1","","-15.0","","73","","36","","13","","25.0","","99.81","","","","-18","","Mostly Cloudy"
"1961-02-11 08:00","1961","02","11","08:00","-12.2","","-16.1","","73","","36","","16","","25.0","","99.87","","","","-20","","Mainly Clear"
"1961-02-11 09:00","1961","02","11","09:00","-11.1","","-15.0","","73","","36","","16","","25.0","","99.87","","","","-18","","Mainly Clear"
"1961-02-11 10:00","1961","02","11","10:00","-11.1","","-16.1","","65","","36","","13","","25.0","","99.92","","","","-18","","Mostly Cloudy"
"1961-02-11 11:00","1961","02","11","11:00","-4.4","","-8.9","","70","","7","","11","","25.0","","99.89","","","","-9","","Mostly Cloudy"
"1961-02-11 12:00","1961","02","11","12:00","-3.9","","-8.3","","72","","9","","8","","25.0","","99.88","","","","-7","","Mostly Cloudy"
"1961-02-11 13:00","1961","02","11","13:00","-3.3","","-7.8","","70","","9","","18","","25.0","","99.82","","","","-9","","Mostly Cloudy"
"1961-02-11 14:00","1961","02","11","14:00","-3.3","","-7.2","","74","","11","","14","","25.0","","99.74","","","","-8","","Snow Showers"
"1961-02-11 15:00","1961","02","11","15:00","-2.8","","-7.2","","72","","14","","13","","25.0","","99.75","","","","-7","","Mostly Cloudy"
"1961-02-11 16:00","1961","02","11","16:00","-3.3","","-8.3","","68","","11","","16","","25.0","","99.72","","","","-9","","Mostly Cloudy"
"1961-02-11 17:00","1961","02","11","17:00","-3.9","","-7.8","","76","","9","","10","","19.3","","99.70","","","","-8","","Snow Showers"
"1961-02-11 18:00","1961","02","11","18:00","-3.9","","-7.2","","78","","11","","14","","12.9","","99.70","","","","-9","","Cloudy"
"1961-02-11 19:00","1961","02","11","19:00","-3.9","","-8.3","","72","","9","","19","","25.0","","99.63","","","","-10","","Cloudy"
"1961-02-11 20:00","1961","02","11","20:00","-3.3","","-6.7","","77","","11","","19","","25.0","","99.63","","","","-9","","Cloudy"
"1961-02-11 21:00","1961","02","11","21:00","-3.3","","-8.3","","68","","11","","14","","25.0","","99.64","","","","-8","","Cloudy"
"1961-02-11 22:00","1961","02","11","22:00","-3.3","","-7.8","","70","","11","","19","","25.0","","99.64","","","","-9","","Cloudy"
"1961-02-11 23:00","1961","02","11","23:00","-3.3","","-8.9","","66","","11","","26","","25.0","","99.58","","","","-10","","Cloudy"
"1961-02-12 00:00","1961","02","12","00:00","-3.9","","-8.3","","73","","11","","23","","25.0","","99.51","","","","-11","","Cloudy"
"1961-02-12 01:00","1961","02","12","01:00","-3.3","","-7.8","","70","","11","","23","","25.0","","99.49","","","","-10","","Cloudy"
"1961-02-12 02:00","1961","02","12","02:00","-3.9","","-8.3","","73","","9","","19","","25.0","","99.44","","","","-10","","Cloudy"
"1961-02-12 03:00","1961","02","12","03:00","-5.6","","-8.3","","81","","7","","23","","19.3","","99.42","","","","-13","","Cloudy"
"1961-02-12 04:00","1961","02","12","04:00","-5.6","","-7.8","","85","","7","","18","","19.3","","99.45","","","","-12","","Cloudy"
"1961-02-12 05:00","1961","02","12","05:00","-6.1","","-8.9","","82","","7","","19","","16.1","","99.45","","","","-13","","Cloudy"
"1961-02-12 06:00","1961","02","12","06:00","-6.1","","-8.9","","82","","7","","18","","16.1","","99.49","","","","-13","","Cloudy"
"1961-02-12 07:00","1961","02","12","07:00","-6.1","","-8.9","","82","","5","","16","","16.1","","99.59","","","","-12","","Cloudy"
"1961-02-12 08:00","1961","02","12","08:00","-6.1","","-8.9","","82","","5","","16","","19.3","","99.66","","","","-12","","Cloudy"
"1961-02-12 09:00","1961","02","12","09:00","-5.6","","-8.3","","81","","2","","13","","16.1","","99.69","","","","-11","","Cloudy"
"1961-02-12 10:00","1961","02","12","10:00","-5.0","","-7.2","","83","","5","","16","","16.1","","99.75","","","","-11","","Cloudy"
"1961-02-12 11:00","1961","02","12","11:00","-5.0","","-7.8","","82","","5","","23","","16.1","","99.83","","","","-12","","Cloudy"
"1961-02-12 12:00","1961","02","12","12:00","-4.4","","-7.2","","82","","5","","26","","9.7","","99.87","","","","-12","","Haze"
"1961-02-12 13:00","1961","02","12","13:00","-3.9","","-6.7","","82","","7","","23","","9.7","","99.88","","","","-11","","Haze"
"1961-02-12 14:00","1961","02","12","14:00","-2.2","","-6.1","","75","","7","","21","","12.9","","99.87","","","","-8","","Mainly Clear"
"1961-02-12 15:00","1961","02","12","15:00","-1.1","","-5.6","","72","","7","","19","","16.1","","99.89","","","","-6","","Mainly Clear"
"1961-02-12 16:00","1961","02","12","16:00","-1.1","","-6.1","","69","","11","","18","","16.1","","99.93","","","","-6","","Mainly Clear"
"1961-02-12 17:00","1961","02","12","17:00","-2.2","","-6.1","","76","","9","","16","","19.3","","100.06","","","","-7","","Mainly Clear"
"1961-02-12 18:00","1961","02","12","18:00","-2.8","","-5.6","","82","","9","","16","","19.3","","100.14","","","","-8","","Mostly Cloudy"
"1961-02-12 19:00","1961","02","12","19:00","-2.2","","-5.0","","80","","7","","13","","19.3","","100.16","","","","-7","","Cloudy"
"1961-02-12 20:00","1961","02","12","20:00","-2.2","","-4.4","","85","","9","","23","","19.3","","100.16","","","","-8","","Cloudy"
"1961-02-12 21:00","1961","02","12","21:00","-2.2","","-4.4","","84","","9","","16","","19.3","","100.25","","","","-7","","Cloudy"
"1961-02-12 22:00","1961","02","12","22:00","-2.2","","-5.6","","78","","7","","13","","19.3","","100.24","","","","-7","","Cloudy"
"1961-02-12 23:00","1961","02","12","23:00","-3.3","","-6.7","","78","","7","","16","","19.3","","100.23","","","","-9","","Cloudy"
"1961-02-13 00:00","1961","02","13","00:00","-3.9","","-6.1","","84","","5","","14","","19.3","","100.23","","","","-9","","Cloudy"
"1961-02-13 01:00","1961","02","13","01:00","-3.3","","-5.6","","85","","7","","24","","19.3","","100.23","","","","-10","","Cloudy"
"1961-02-13 02:00","1961","02","13","02:00","-3.9","","-6.7","","83","","7","","18","","19.3","","100.24","","","","-10","","Cloudy"
"1961-02-13 03:00","1961","02","13","03:00","-4.4","","-6.7","","83","","7","","21","","16.1","","100.19","","","","-11","","Cloudy"
"1961-02-13 04:00","1961","02","13","04:00","-4.4","","-6.1","","88","","7","","13","","16.1","","100.15","","","","-9","","Mostly Cloudy"
"1961-02-13 05:00","1961","02","13","05:00","-3.3","","-4.4","","92","","7","","16","","16.1","","100.13","","","","-9","","Mostly Cloudy"
"1961-02-13 06:00","1961","02","13","06:00","-3.9","","-4.4","","94","","7","","18","","8.0","","100.06","","","","-10","","Fog"
"1961-02-13 07:00","1961","02","13","07:00","-3.9","","-5.0","","93","","7","","19","","6.4","","100.00","","","","-10","","Fog"
"1961-02-13 08:00","1961","02","13","08:00","-2.2","","-4.4","","86","","11","","24","","8.0","","99.90","","","","-9","","Haze"
"1961-02-13 09:00","1961","02","13","09:00","-2.2","","-4.4","","83","","11","","26","","6.4","","99.83","","","","-9","","Haze"
"1961-02-13 10:00","1961","02","13","10:00","-2.2","","-4.4","","84","","11","","29","","6.4","","99.71","","","","-9","","Haze"
"1961-02-13 11:00","1961","02","13","11:00","-1.1","","-3.9","","83","","11","","24","","6.4","","99.52","","","","-7","","Haze"
"1961-02-13 12:00","1961","02","13","12:00","0.0","","-3.3","","80","","11","","32","","6.4","","99.41","","","","-7","","Haze"
"1961-02-13 13:00","1961","02","13","13:00","1.1","","-2.8","","74","","11","","26","","4.8","","99.26","","","","","","Haze"
"1961-02-13 14:00","1961","02","13","14:00","1.7","","-2.8","","73","","9","","27","","4.8","","99.06","","","","","","Haze"
"1961-02-13 15:00","1961","02","13","15:00","1.7","","-2.8","","73","","9","","23","","6.4","","98.96","","","","","","Haze"
"1961-02-13 16:00","1961","02","13","16:00","2.2","","-2.2","","74","","9","","21","","6.4","","98.84","","","","","","Haze"
"1961-02-13 17:00","1961","02","13","17:00","2.2","","-2.2","","74","","11","","19","","6.4","","98.76","","","","","","Haze"
"1961-02-13 18:00","1961","02","13","18:00","2.8","","-1.1","","74","","11","","29","","6.4","","98.69","","","","","","Haze"
"1961-02-13 19:00","1961","02","13","19:00","3.3","","-1.1","","72","","11","","19","","11.3","","98.66","","","","","","Cloudy"
"1961-02-13 20:00","1961","02","13","20:00","3.3","","0.0","","80","","14","","16","","11.3","","98.61","","","","","","Cloudy"
"1961-02-13 21:00","1961","02","13","21:00","2.8","","0.0","","82","","16","","19","","12.9","","98.56","","","","","","Cloudy"
"1961-02-13 22:00","1961","02","13","22:00","2.8","","0.6","","84","","16","","16","","16.1","","98.52","","","","","","Cloudy"
"1961-02-13 23:00","1961","02","13","23:00","2.8","","0.6","","87","","18","","13","","12.9","","98.51","","","","","","Rain"
"1961-02-14 00:00","1961","02","14","00:00","3.3","","1.7","","87","","18","","13","","12.9","","98.54","","","","","","Cloudy"
"1961-02-14 01:00","1961","02","14","01:00","3.3","","1.1","","85","","20","","16","","6.4","","98.54","","","","","","Fog"
"1961-02-14 02:00","1961","02","14","02:00","3.3","","0.6","","82","","25","","29","","6.4","","98.64","","","","","","Haze"
"1961-02-14 03:00","1961","02","14","03:00","1.7","","-1.1","","81","","27","","23","","6.4","","98.75","","","","","","Haze"
"1961-02-14 04:00","1961","02","14","04:00","2.2","","-0.6","","81","","27","","23","","6.4","","98.83","","","","","","Haze"
"1961-02-14 05:00","1961","02","14","05:00","2.2","","-0.6","","81","","25","","16","","8.0","","98.90","","","","","","Haze"
"1961-02-14 06:00","1961","02","14","06:00","2.2","","-1.1","","79","","25","","19","","11.3","","98.96","","","","","","Cloudy"
"1961-02-14 07:00","1961","02","14","07:00","2.8","","0.6","","84","","25","","19","","11.3","","99.06","","","","","","Cloudy"
"1961-02-14 08:00","1961","02","14","08:00","2.8","","0.0","","82","","25","","24","","11.3","","99.17","","","","","","Cloudy"
"1961-02-14 09:00","1961","02","14","09:00","2.8","","-1.1","","74","","25","","23","","11.3","","99.20","","","","","","Cloudy"
"1961-02-14 10:00","1961","02","14","10:00","2.8","","-1.1","","74","","25","","27","","12.9","","99.24","","","","","","Cloudy"
"1961-02-14 11:00","1961","02","14","11:00","2.8","","-1.7","","72","","25","","31","","16.1","","99.26","","","","","","Cloudy"
"1961-02-14 12:00","1961","02","14","12:00","2.8","","-1.7","","72","","25","","35","","16.1","","99.27","","","","","","Snow Grains"
"1961-02-14 13:00","1961","02","14","13:00","1.7","","-2.8","","72","","27","","37","","11.3","","99.31","","","","","","Snow"
"1961-02-14 14:00","1961","02","14","14:00","2.2","","-3.3","","66","","27","","42","","19.3","","99.34","","","","","","Cloudy"
"1961-02-14 15:00","1961","02","14","15:00","2.2","","-3.3","","66","","27","","37","","24.1","","99.42","","","","","","Mostly Cloudy"
"1961-02-14 16:00","1961","02","14","16:00","2.2","","-1.7","","76","","27","","39","","25.0","","99.47","","","","","","Mostly Cloudy"
"1961-02-14 17:00","1961","02","14","17:00","1.7","","-2.8","","73","","27","","34","","25.0","","99.58","","","","","","Mostly Cloudy"
"1961-02-14 18:00","1961","02","14","18:00","1.1","","-2.8","","74","","27","","29","","25.0","","99.68","","","","","","Cloudy"
"1961-02-14 19:00","1961","02","14","19:00","0.6","","-5.0","","67","","27","","26","","25.0","","99.78","","","","","","Cloudy"
"1961-02-14 20:00","1961","02","14","20:00","0.6","","-4.4","","70","","27","","27","","25.0","","99.84","","","","","","Cloudy"
"1961-02-14 21:00","1961","02","14","21:00","0.6","","-4.4","","70","","29","","34","","25.0","","99.95","","","","","","Cloudy"
"1961-02-14 22:00","1961","02","14","22:00","0.6","","-2.8","","78","","29","","19","","25.0","","100.02","","","","","","Cloudy"
"1961-02-14 23:00","1961","02","14","23:00","0.0","","-3.3","","77","","27","","24","","25.0","","100.05","","","","-6","","Cloudy"
"1961-02-15 00:00","1961","02","15","00:00","0.0","","-3.3","","80","","29","","24","","25.0","","100.11","","","","-6","","Cloudy"
"1961-02-15 01:00","1961","02","15","01:00","-0.6","","-2.2","","88","","29","","21","","25.0","","100.16","","","","-6","","Cloudy"
"1961-02-15 02:00","1961","02","15","02:00","-1.7","","-6.1","","71","","32","","23","","25.0","","100.18","","","","-8","","Cloudy"
"1961-02-15 03:00","1961","02","15","03:00","-1.7","","-6.7","","70","","29","","24","","25.0","","100.23","","","","-8","","Cloudy"
"1961-02-15 04:00","1961","02","15","04:00","-3.3","","-7.2","","76","","36","","14","","25.0","","100.28","","","","-8","","Cloudy"
"1961-02-15 05:00","1961","02","15","05:00","-4.4","","-7.8","","76","","36","","14","","25.0","","100.31","","","","-10","","Mostly Cloudy"
"1961-02-15 06:00","1961","02","15","06:00","-6.1","","-10.0","","73","","36","","14","","25.0","","100.33","","","","-12","","Mainly Clear"
"1961-02-15 07:00","1961","02","15","07:00","-6.7","","-11.1","","70","","34","","13","","25.0","","100.40","","","","-12","","Mainly Clear"
"1961-02-15 08:00","1961","02","15","08:00","-7.8","","-11.7","","74","","36","","24","","25.0","","100.36","","","","-16","","Mainly Clear"
"1961-02-15 09:00","1961","02","15","09:00","-6.7","","-11.1","","69","","36","","16","","25.0","","100.38","","","","-13","","Mostly Cloudy"
"1961-02-15 10:00","1961","02","15","10:00","-6.1","","-10.6","","70","","36","","14","","25.0","","100.36","","","","-12","","Mostly Cloudy"
"1961-02-15 11:00","1961","02","15","11:00","-4.4","","-9.4","","69","","2","","11","","24.1","","100.27","","","","-9","","Mostly Cloudy"
"1961-02-15 12:00","1961","02","15","12:00","-3.3","","-8.9","","66","","","","0","","25.0","","100.22","","","","","","Mostly Cloudy"
"1961-02-15 13:00","1961","02","15","13:00","-2.8","","-8.3","","64","","20","","8","","25.0","","100.14","","","","-6","","Cloudy"
"1961-02-15 14:00","1961","02","15","14:00","-2.8","","-7.8","","67","","14","","5","","12.9","","100.04","","","","-5","","Snow"
"1961-02-15 15:00","1961","02","15","15:00","-3.3","","-6.7","","79","","14","","13","","2.4","","99.92","","","","-8","","Snow"
"1961-02-15 16:00","1961","02","15","16:00","-3.9","","-5.6","","89","","11","","11","","1.2","","99.83","","","","-8","","Snow"
"1961-02-15 17:00","1961","02","15","17:00","-4.4","","-6.1","","90","","9","","16","","1.0","","99.79","","","","-10","","Snow"
"1961-02-15 18:00","1961","02","15","18:00","-5.0","","-6.1","","90","","7","","14","","0.8","","99.75","","","","-10","","Moderate Snow"
"1961-02-15 19:00","1961","02","15","19:00","-5.0","","-6.1","","92","","7","","11","","0.8","","99.73","","","","-10","","Moderate Snow"
"1961-02-15 20:00","1961","02","15","20:00","-5.6","","-7.2","","90","","5","","24","","1.6","","99.81","","","","-13","","Snow"
"1961-02-15 21:00","1961","02","15","21:00","-6.1","","-7.2","","90","","5","","32","","1.6","","99.85","","","","-15","","Snow"
"1961-02-15 22:00","1961","02","15","22:00","-6.1","","-7.8","","88","","2","","14","","8.0","","99.90","","","","-12","","Snow"
"1961-02-15 23:00","1961","02","15","23:00","-6.1","","-8.3","","85","","2","","19","","19.3","","99.98","","","","-13","","Snow"
"1961-02-16 00:00","1961","02","16","00:00","-6.1","","-7.8","","87","","36","","16","","25.0","","100.07","","","","-12","","Cloudy"
"1961-02-16 01:00","1961","02","16","01:00","-6.1","","-8.9","","80","","2","","16","","25.0","","100.16","","","","-12","","Cloudy"
"1961-02-16 02:00","1961","02","16","02:00","-7.2","","-8.9","","87","","36","","11","","25.0","","100.31","","","","-12","","Cloudy"
"1961-02-16 03:00","1961","02","16","03:00","-7.8","","-9.4","","87","","36","","8","","25.0","","100.33","","","","-12","","Mainly Clear"
"1961-02-16 04:00","1961","02","16","04:00","-8.3","","-10.0","","88","","34","","16","","25.0","","100.44","","","","-15","","Mainly Clear"
"1961-02-16 05:00","1961","02","16","05:00","-8.3","","-10.0","","88","","32","","10","","25.0","","100.59","","","","-13","","Cloudy"
"1961-02-16 06:00","1961","02","16","06:00","-7.8","","-8.9","","90","","29","","16","","25.0","","100.68","","","","-14","","Cloudy"
"1961-02-16 07:00","1961","02","16","07:00","-7.2","","-9.4","","83","","","","0","","25.0","","100.73","","","","","","Mostly Cloudy"
"1961-02-16 08:00","1961","02","16","08:00","-8.3","","-10.6","","82","","32","","6","","25.0","","100.77","","","","-12","","Mostly Cloudy"
"1961-02-16 09:00","1961","02","16","09:00","-7.8","","-11.1","","78","","23","","3","","25.0","","100.79","","","","-9","","Mainly Clear"
"1961-02-16 10:00","1961","02","16","10:00","-6.7","","-10.6","","74","","27","","5","","25.0","","100.85","","","","-9","","Mainly Clear"
"1961-02-16 11:00","1961","02","16","11:00","-6.1","","-10.0","","74","","32","","6","","25.0","","100.90","","","","-9","","Mainly Clear"
"1961-02-16 12:00","1961","02","16","12:00","-5.6","","-9.4","","73","","32","","8","","25.0","","100.91","","","","-9","","Mainly Clear"
"1961-02-16 13:00","1961","02","16","13:00","-5.0","","-9.4","","70","","27","","5","","25.0","","100.85","","","","-7","","Mainly Clear"
"1961-02-16 14:00","1961","02","16","14:00","-3.9","","-8.3","","70","","","","0","","25.0","","100.79","","","","","","Mainly Clear"
"1961-02-16 15:00","1961","02","16","15:00","-3.9","","-8.3","","72","","","","0","","25.0","","100.79","","","","","","Mainly Clear"
"1961-02-16 16:00","1961","02","16","16:00","-4.4","","-8.3","","72","","7","","5","","25.0","","100.79","","","","-7","","Mainly Clear"
"1961-02-16 17:00","1961","02","16","17:00","-4.4","","-7.8","","77","","","","0","","25.0","","100.79","","","","","","Mainly Clear"
"1961-02-16 18:00","1961","02","16","18:00","-5.0","","-8.3","","76","","14","","6","","25.0","","100.72","","","","-8","","Mainly Clear"
"1961-02-16 19:00","1961","02","16","19:00","-5.0","","-8.3","","77","","16","","8","","25.0","","100.72","","","","-9","","Mainly Clear"
"1961-02-16 20:00","1961","02","16","20:00","-4.4","","-7.8","","77","","","","0","","24.1","","100.71","","","","","","Mainly Clear"
"1961-02-16 21:00","1961","02","16","21:00","-6.1","","-8.9","","82","","","","0","","19.3","","100.64","","","","","","Mainly Clear"
"1961-02-16 22:00","1961","02","16","22:00","-6.1","","-8.3","","84","","18","","6","","19.3","","100.56","","","","-9","","Mostly Cloudy"
"1961-02-16 23:00","1961","02","16","23:00","-6.1","","-8.3","","84","","","","0","","19.3","","100.44","","","","","","Mainly Clear"
"1961-02-17 00:00","1961","02","17","00:00","-6.7","","-8.3","","87","","","","0","","16.1","","100.32","","","","","","Mainly Clear"
"1961-02-17 01:00","1961","02","17","01:00","-7.8","","-8.9","","90","","18","","6","","16.1","","100.21","","","","-11","","Mostly Cloudy"
"1961-02-17 02:00","1961","02","17","02:00","-5.0","","-6.7","","88","","16","","16","","12.9","","100.06","","","","-11","","Cloudy"
"1961-02-17 03:00","1961","02","17","03:00","-5.0","","-6.7","","87","","","","0","","6.4","","99.97","","","","","","Fog"
"1961-02-17 04:00","1961","02","17","04:00","-5.0","","-6.7","","87","","18","","5","","6.4","","99.82","","","","-7","","Fog"
"1961-02-17 05:00","1961","02","17","05:00","-3.9","","-5.0","","91","","14","","14","","4.8","","99.69","","","","-9","","Fog"
"1961-02-17 06:00","1961","02","17","06:00","-3.3","","-4.4","","92","","18","","14","","4.8","","99.54","","","","-8","","Fog"
"1961-02-17 07:00","1961","02","17","07:00","-2.2","","-3.3","","90","","18","","19","","3.2","","99.48","","","","-8","","Freezing Rain,Fog"
"1961-02-17 08:00","1961","02","17","08:00","-1.7","","-3.3","","88","","14","","10","","3.2","","99.44","","","","-5","","Fog"
"1961-02-17 09:00","1961","02","17","09:00","-1.1","","-2.8","","87","","5","","5","","3.2","","99.44","","","","-3","","Fog"
"1961-02-17 10:00","1961","02","17","10:00","-0.6","","-2.2","","88","","16","","16","","3.2","","99.25","","","","-5","","Drizzle,Fog"
"1961-02-17 11:00","1961","02","17","11:00","0.0","","-1.7","","88","","18","","14","","2.0","","99.20","","","","-4","","Fog"
"1961-02-17 12:00","1961","02","17","12:00","0.6","","-1.1","","89","","18","","10","","2.4","","99.14","","","","","","Fog"
"1961-02-17 13:00","1961","02","17","13:00","1.7","","0.0","","89","","18","","11","","2.4","","99.06","","","","","","Fog"
"1961-02-17 14:00","1961","02","17","14:00","2.2","","0.0","","87","","20","","6","","2.4","","99.04","","","","","","Fog"
"1961-02-17 15:00","1961","02","17","15:00","2.8","","1.1","","90","","18","","10","","2.4","","99.03","","","","","","Fog"
"1961-02-17 16:00","1961","02","17","16:00","3.3","","1.7","","90","","20","","13","","2.4","","99.04","","","","","","Fog"
"1961-02-17 17:00","1961","02","17","17:00","3.9","","2.8","","93","","20","","13","","3.2","","99.08","","","","","","Fog"
"1961-02-17 18:00","1961","02","17","18:00","3.3","","2.2","","92","","23","","10","","2.8","","99.11","","","","","","Fog"
"1961-02-17 19:00","1961","02","17","19:00","2.8","","1.7","","92","","23","","10","","4.0","","99.16","","","","","","Fog"
"1961-02-17 20:00","1961","02","17","20:00","2.8","","2.2","","95","","23","","8","","3.2","","99.21","","","","","","Fog"
"1961-02-17 21:00","1961","02","17","21:00","2.8","","2.2","","97","","23","","6","","2.8","","99.28","","","","","","Fog"
"1961-02-17 22:00","1961","02","17","22:00","2.8","","2.2","","97","","36","","5","","2.8","","99.32","","","","","","Fog"
"1961-02-17 23:00","1961","02","17","23:00","2.8","","1.7","","92","","36","","8","","4.8","","99.30","","","","","","Fog"
"1961-02-18 00:00","1961","02","18","00:00","2.2","","1.1","","92","","36","","10","","4.0","","99.34","","","","","","Fog"
"1961-02-18 01:00","1961","02","18","01:00","1.7","","1.1","","97","","36","","8","","4.0","","99.34","","","","","","Fog"
"1961-02-18 02:00","1961","02","18","02:00","1.7","","1.1","","94","","36","","6","","4.8","","99.36","","","","","","Fog"
"1961-02-18 03:00","1961","02","18","03:00","1.7","","0.6","","92","","2","","10","","4.8","","99.34","","","","","","Fog"
"1961-02-18 04:00","1961","02","18","04:00","1.1","","0.6","","94","","5","","10","","4.0","","99.30","","","","","","Fog"
"1961-02-18 05:00","1961","02","18","05:00","1.1","","0.6","","94","","2","","8","","2.8","","99.35","","","","","","Fog"
"1961-02-18 06:00","1961","02","18","06:00","1.1","","0.6","","94","","5","","8","","2.8","","99.33","","","","","","Fog"
"1961-02-18 07:00","1961","02","18","07:00","1.1","","0.6","","94","","2","","10","","2.0","","99.33","","","","","","Fog"
"1961-02-18 08:00","1961","02","18","08:00","1.1","","0.6","","97","","7","","16","","1.6","","99.34","","","","","","Rain,Fog"
"1961-02-18 09:00","1961","02","18","09:00","1.1","","0.6","","97","","9","","16","","1.0","","99.32","","","","","","Rain,Drizzle,Fog"
"1961-02-18 10:00","1961","02","18","10:00","1.1","","0.6","","97","","9","","19","","1.2","","99.28","","","","","","Rain,Drizzle,Fog"
"1961-02-18 11:00","1961","02","18","11:00","1.1","","0.6","","97","","9","","23","","1.2","","99.20","","","","","","Rain,Drizzle,Fog"
"1961-02-18 12:00","1961","02","18","12:00","1.1","","0.6","","97","","9","","23","","1.2","","99.12","","","","","","Rain,Drizzle,Fog"
"1961-02-18 13:00","1961","02","18","13:00","0.6","","0.0","","97","","9","","24","","1.0","","98.97","","","","","","Drizzle,Fog"
"1961-02-18 14:00","1961","02","18","14:00","0.0","","-0.6","","97","","9","","24","","1.2","","98.78","","","","-6","","Drizzle,Fog"
"1961-02-18 15:00","1961","02","18","15:00","0.0","","-0.6","","97","","9","","16","","1.2","","98.63","","","","-5","","Rain,Drizzle,Fog"
"1961-02-18 16:00","1961","02","18","16:00","0.0","","-0.6","","97","","9","","24","","2.0","","98.50","","","","-6","","Rain,Drizzle,Fog"
"1961-02-18 17:00","1961","02","18","17:00","0.0","","-0.6","","97","","9","","16","","1.6","","98.36","","","","-5","","Rain,Drizzle,Fog"
"1961-02-18 18:00","1961","02","18","18:00","0.6","","0.0","","97","","11","","8","","1.6","","98.27","","","","","","Moderate Rain,Fog"
"1961-02-18 19:00","1961","02","18","19:00","0.6","","0.0","","97","","","","0","","2.0","","98.25","","","","","","Rain,Drizzle,Fog"
"1961-02-18 20:00","1961","02","18","20:00","0.6","","0.0","","97","","","","0","","1.6","","98.16","","","","","","Fog"
"1961-02-18 21:00","1961","02","18","21:00","0.6","","0.0","","97","","","","0","","1.2","","98.13","","","","","","Fog"
"1961-02-18 22:00","1961","02","18","22:00","0.6","","0.0","","97","","","","0","","0.4","","98.07","","","","","","Fog"
"1961-02-18 23:00","1961","02","18","23:00","0.6","","0.0","","97","","","","0","","0.2","","98.00","","","","","","Fog"
"1961-02-19 00:00","1961","02","19","00:00","0.6","","0.0","","97","","","","0","","0.2","","98.02","","","","","","Fog"
"1961-02-19 01:00","1961","02","19","01:00","0.6","","0.6","","100","","","","0","","0.0","","97.97","","","","","","Fog"
"1961-02-19 02:00","1961","02","19","02:00","0.6","","0.6","","100","","","","0","","0.0","","97.92","","","","","","Fog"
"1961-02-19 03:00","1961","02","19","03:00","1.7","","1.7","","100","","18","","13","","0.4","","97.90","","","","","","Fog"
"1961-02-19 04:00","1961","02","19","04:00","5.6","","5.0","","98","","23","","27","","24.1","","97.90","","","","","","Clear"
"1961-02-19 05:00","1961","02","19","05:00","4.4","","1.7","","81","","25","","40","","24.1","","98.00","","","","","","Mostly Cloudy"
"1961-02-19 06:00","1961","02","19","06:00","4.4","","0.6","","76","","25","","45","","24.1","","98.12","","","","","","Mostly Cloudy"
"1961-02-19 07:00","1961","02","19","07:00","3.3","","0.0","","77","","25","","56","","25.0","","98.29","","","","","","Cloudy"
"1961-02-19 08:00","1961","02","19","08:00","2.8","","-1.7","","72","","25","","64","","25.0","","98.45","","","","","","Mostly Cloudy"
"1961-02-19 09:00","1961","02","19","09:00","1.7","","-2.2","","76","","25","","53","","25.0","","98.65","","","","","","Mostly Cloudy"
"1961-02-19 10:00","1961","02","19","10:00","1.1","","-2.2","","79","","25","","55","","25.0","","98.81","","","","","","Cloudy"
"1961-02-19 11:00","1961","02","19","11:00","0.0","","-3.9","","74","","27","","51","","19.3","","99.03","","","","-8","","Snow Showers"
"1961-02-19 12:00","1961","02","19","12:00","-0.6","","-5.6","","70","","27","","53","","24.1","","99.18","","","","-9","","Mostly Cloudy"
"1961-02-19 13:00","1961","02","19","13:00","-1.1","","-6.1","","70","","27","","51","","24.1","","99.25","","","","-10","","Snow Showers"
"1961-02-19 14:00","1961","02","19","14:00","-1.1","","-6.1","","70","","27","","48","","19.3","","99.38","","","","-9","","Snow Showers"
"1961-02-19 15:00","1961","02","19","15:00","-1.7","","-6.7","","70","","27","","45","","19.3","","99.56","","","","-10","","Snow Showers"
"1961-02-19 16:00","1961","02","19","16:00","-1.7","","-6.7","","70","","27","","42","","24.1","","99.70","","","","-10","","Mostly Cloudy"
"1961-02-19 17:00","1961","02","19","17:00","-2.2","","-5.6","","79","","27","","42","","24.1","","99.91","","","","-11","","Mostly Cloudy"
"1961-02-19 18:00","1961","02","19","18:00","-2.2","","-6.7","","73","","27","","29","","24.1","","100.01","","","","-9","","Snow Showers"
"1961-02-19 19:00","1961","02","19","19:00","-2.2","","-7.2","","69","","27","","32","","24.1","","100.14","","","","-10","","Snow Showers"
"1961-02-19 20:00","1961","02","19","20:00","-2.2","","-6.7","","73","","27","","29","","24.1","","100.19","","","","-9","","Snow Showers"
"1961-02-19 21:00","1961","02","19","21:00","-2.2","","-6.7","","72","","27","","29","","19.3","","100.31","","","","-9","","Snow Showers"
"1961-02-19 22:00","1961","02","19","22:00","-2.2","","-6.7","","72","","27","","24","","19.3","","100.31","","","","-9","","Snow Showers"
"1961-02-19 23:00","1961","02","19","23:00","-2.2","","-6.7","","71","","27","","29","","19.3","","100.34","","","","-9","","Snow Showers"
"1961-02-20 00:00","1961","02","20","00:00","-2.2","","-6.7","","71","","27","","29","","24.1","","100.38","","","","-9","","Snow Showers"
"1961-02-20 01:00","1961","02","20","01:00","-2.8","","-6.7","","75","","27","","24","","16.1","","100.46","","","","-9","","Snow Showers"
"1961-02-20 02:00","1961","02","20","02:00","-2.8","","-6.1","","79","","27","","24","","19.3","","100.54","","","","-9","","Snow Showers"
"1961-02-20 03:00","1961","02","20","03:00","-3.3","","-6.7","","79","","27","","24","","19.3","","100.62","","","","-10","","Snow Showers"
"1961-02-20 04:00","1961","02","20","04:00","-4.4","","-7.8","","77","","29","","26","","25.0","","100.67","","","","-12","","Mainly Clear"
"1961-02-20 05:00","1961","02","20","05:00","-5.6","","-8.3","","80","","29","","23","","25.0","","100.71","","","","-13","","Clear"
"1961-02-20 06:00","1961","02","20","06:00","-5.6","","-8.9","","78","","27","","16","","25.0","","100.79","","","","-12","","Clear"
"1961-02-20 07:00","1961","02","20","07:00","-5.6","","-10.0","","70","","27","","23","","25.0","","100.83","","","","-13","","Clear"
"1961-02-20 08:00","1961","02","20","08:00","-5.0","","-8.9","","74","","27","","19","","25.0","","100.91","","","","-11","","Clear"
"1961-02-20 09:00","1961","02","20","09:00","-4.4","","-8.9","","71","","27","","23","","25.0","","101.00","","","","-11","","Mainly Clear"
"1961-02-20 10:00","1961","02","20","10:00","-3.9","","-10.0","","63","","27","","23","","25.0","","101.04","","","","-11","","Mainly Clear"
"1961-02-20 11:00","1961","02","20","11:00","-3.3","","-9.4","","62","","29","","23","","25.0","","101.05","","","","-10","","Mainly Clear"
"1961-02-20 12:00","1961","02","20","12:00","-2.2","","-9.4","","59","","29","","8","","25.0","","101.02","","","","-5","","Mainly Clear"
"1961-02-20 13:00","1961","02","20","13:00","-2.2","","-9.4","","57","","27","","13","","25.0","","100.98","","","","-7","","Mostly Cloudy"
"1961-02-20 14:00","1961","02","20","14:00","-1.7","","-8.9","","58","","27","","16","","25.0","","100.91","","","","-7","","Mostly Cloudy"
"1961-02-20 15:00","1961","02","20","15:00","-1.7","","-8.9","","58","","25","","11","","25.0","","100.91","","","","-6","","Mostly Cloudy"
"1961-02-20 16:00","1961","02","20","16:00","-1.1","","-7.8","","60","","27","","13","","25.0","","100.90","","","","-5","","Mostly Cloudy"
"1961-02-20 17:00","1961","02","20","17:00","-1.1","","-7.8","","60","","23","","8","","25.0","","100.85","","","","-4","","Mainly Clear"
"1961-02-20 18:00","1961","02","20","18:00","-1.7","","-7.8","","63","","23","","5","","25.0","","100.84","","","","-4","","Mainly Clear"
"1961-02-20 19:00","1961","02","20","19:00","-2.2","","-6.1","","76","","20","","11","","25.0","","100.88","","","","-6","","Mostly Cloudy"
"1961-02-20 20:00","1961","02","20","20:00","-2.2","","-6.1","","76","","18","","8","","24.1","","100.89","","","","-5","","Mainly Clear"
"1961-02-20 21:00","1961","02","20","21:00","-2.8","","-6.1","","77","","18","","10","","24.1","","100.92","","","","-7","","Mainly Clear"
"1961-02-20 22:00","1961","02","20","22:00","-3.3","","-6.1","","80","","23","","13","","24.1","","100.92","","","","-8","","Mostly Cloudy"
"1961-02-20 23:00","1961","02","20","23:00","-3.9","","-6.1","","84","","23","","10","","24.1","","100.90","","","","-8","","Mainly Clear"
"1961-02-21 00:00","1961","02","21","00:00","-4.4","","-6.7","","85","","25","","10","","24.1","","100.85","","","","-9","","Mainly Clear"
"1961-02-21 01:00","1961","02","21","01:00","-4.4","","-6.1","","86","","29","","3","","24.1","","100.80","","","","-6","","Mainly Clear"
"1961-02-21 02:00","1961","02","21","02:00","-4.4","","-6.1","","86","","","","0","","24.1","","100.71","","","","","","Clear"
"1961-02-21 03:00","1961","02","21","03:00","-5.6","","-7.2","","89","","14","","3","","19.3","","100.68","","","","-7","","Clear"
"1961-02-21 04:00","1961","02","21","04:00","-5.6","","-7.2","","90","","18","","5","","16.1","","100.65","","","","-8","","Clear"
"1961-02-21 05:00","1961","02","21","05:00","-6.1","","-7.2","","90","","27","","5","","12.9","","100.65","","","","-9","","Clear"
"1961-02-21 06:00","1961","02","21","06:00","-6.1","","-7.2","","90","","","","0","","8.0","","100.67","","","","","","Fog"
"1961-02-21 07:00","1961","02","21","07:00","-7.2","","-8.3","","91","","36","","5","","3.6","","100.65","","","","-10","","Fog"
"1961-02-21 08:00","1961","02","21","08:00","-6.1","","-7.2","","92","","32","","3","","4.0","","100.66","","","","-8","","Fog"
"1961-02-21 09:00","1961","02","21","09:00","-4.4","","-7.8","","77","","","","0","","4.0","","100.65","","","","","","Haze"
"1961-02-21 10:00","1961","02","21","10:00","-2.8","","-5.6","","82","","","","0","","4.0","","100.60","","","","","","Haze"
"1961-02-21 11:00","1961","02","21","11:00","-0.6","","-5.0","","73","","","","0","","4.8","","100.50","","","","","","Haze"
"1961-02-21 12:00","1961","02","21","12:00","0.6","","-4.4","","70","","20","","6","","6.4","","100.43","","","","","","Haze"
"1961-02-21 13:00","1961","02","21","13:00","2.8","","-4.4","","59","","20","","6","","11.3","","100.26","","","","","","Mostly Cloudy"
"1961-02-21 14:00","1961","02","21","14:00","2.8","","-2.8","","67","","16","","11","","12.9","","100.20","","","","","","Mostly Cloudy"
"1961-02-21 15:00","1961","02","21","15:00","3.3","","-2.8","","65","","16","","10","","16.1","","100.13","","","","","","Mostly Cloudy"
"1961-02-21 16:00","1961","02","21","16:00","3.3","","-2.2","","68","","","","0","","16.1","","100.05","","","","","","Mainly Clear"
"1961-02-21 17:00","1961","02","21","17:00","2.8","","-2.8","","67","","16","","8","","8.0","","99.97","","","","","","Haze"
"1961-02-21 18:00","1961","02","21","18:00","1.1","","-2.8","","74","","16","","6","","4.8","","99.92","","","","","","Haze"
"1961-02-21 19:00","1961","02","21","19:00","-0.6","","-3.3","","82","","16","","8","","9.7","","99.92","","","","-3","","Haze"
"1961-02-21 20:00","1961","02","21","20:00","-1.1","","-2.8","","90","","18","","10","","9.7","","99.88","","","","-5","","Fog"
"1961-02-21 21:00","1961","02","21","21:00","-1.7","","-2.8","","91","","18","","11","","9.7","","99.82","","","","-6","","Fog"
"1961-02-21 22:00","1961","02","21","22:00","-1.7","","-3.3","","90","","20","","6","","6.4","","99.78","","","","-4","","Fog"
"1961-02-21 23:00","1961","02","21","23:00","-1.7","","-3.3","","88","","23","","18","","12.9","","99.68","","","","-7","","Mainly Clear"
"1961-02-22 00:00","1961","02","22","00:00","-1.1","","-2.8","","87","","23","","18","","19.3","","99.61","","","","-6","","Mainly Clear"
"1961-02-22 01:00","1961","02","22","01:00","0.6","","-6.1","","62","","23","","23","","19.3","","99.57","","","","","","Mainly Clear"
"1961-02-22 02:00","1961","02","22","02:00","0.0","","-6.1","","63","","25","","27","","24.1","","99.56","","","","-6","","Mainly Clear"
"1961-02-22 03:00","1961","02","22","03:00","0.6","","-6.1","","62","","25","","29","","25.0","","99.48","","","","","","Mainly Clear"
"1961-02-22 04:00","1961","02","22","04:00","0.6","","-6.1","","62","","27","","18","","25.0","","99.54","","","","","","Mainly Clear"
"1961-02-22 05:00","1961","02","22","05:00","1.1","","-5.0","","63","","27","","26","","24.1","","99.57","","","","","","Mainly Clear"
"1961-02-22 06:00","1961","02","22","06:00","1.1","","-5.0","","63","","27","","10","","24.1","","99.62","","","","","","Mainly Clear"
"1961-02-22 07:00","1961","02","22","07:00","0.0","","-6.7","","60","","23","","11","","24.1","","99.63","","","","-4","","Mainly Clear"
"1961-02-22 08:00","1961","02","22","08:00","0.0","","-5.0","","69","","27","","2","","16.1","","99.66","","","","-1","","Mostly Cloudy"
"1961-02-22 09:00","1961","02","22","09:00","2.2","","-2.8","","68","","","","0","","9.7","","99.65","","","","","","Haze"
"1961-02-22 10:00","1961","02","22","10:00","3.9","","-2.8","","61","","18","","5","","12.9","","99.65","","","","","","Mostly Cloudy"
"1961-02-22 11:00","1961","02","22","11:00","6.7","","-2.8","","51","","20","","8","","12.9","","99.60","","","","","","Mostly Cloudy"
"1961-02-22 12:00","1961","02","22","12:00","7.2","","-2.2","","50","","18","","10","","11.3","","99.52","","","","","","Mostly Cloudy"
"1961-02-22 13:00","1961","02","22","13:00","8.3","","-1.1","","50","","16","","8","","8.0","","99.40","","","","","","Haze"
"1961-02-22 14:00","1961","02","22","14:00","8.3","","-2.2","","47","","14","","8","","11.3","","99.28","","","","","","Mostly Cloudy"
"1961-02-22 15:00","1961","02","22","15:00","8.9","","-2.2","","46","","16","","13","","9.7","","99.22","","","","","","Haze"
"1961-02-22 16:00","1961","02","22","16:00","7.2","","-0.6","","58","","16","","6","","4.0","","99.14","","","","","","Haze"
"1961-02-22 17:00","1961","02","22","17:00","6.7","","-0.6","","59","","","","0","","3.2","","99.13","","","","","","Haze"
"1961-02-22 18:00","1961","02","22","18:00","5.0","","-1.1","","65","","9","","8","","2.4","","99.06","","","","","","Haze"
"1961-02-22 19:00","1961","02","22","19:00","5.0","","-1.1","","65","","","","0","","2.4","","99.04","","","","","","Haze"
"1961-02-22 20:00","1961","02","22","20:00","3.3","","-1.1","","72","","5","","8","","2.4","","98.99","","","","","","Haze"
"1961-02-22 21:00","1961","02","22","21:00","3.3","","-1.7","","70","","36","","6","","8.0","","98.95","","","","","","Rain,Haze"
"1961-02-22 22:00","1961","02","22","22:00","2.2","","-0.6","","81","","5","","6","","8.0","","98.84","","","","","","Rain,Haze"
"1961-02-22 23:00","1961","02","22","23:00","2.2","","0.0","","87","","5","","10","","8.0","","98.77","","","","","","Rain,Haze"
"1961-02-23 00:00","1961","02","23","00:00","2.2","","0.6","","89","","5","","8","","9.7","","98.71","","","","","","Rain,Fog"
"1961-02-23 01:00","1961","02","23","01:00","2.2","","1.1","","92","","5","","6","","6.4","","98.66","","","","","","Rain,Fog"
"1961-02-23 02:00","1961","02","23","02:00","1.7","","1.1","","97","","7","","5","","2.4","","98.61","","","","","","Rain,Fog"
"1961-02-23 03:00","1961","02","23","03:00","1.7","","1.7","","100","","7","","10","","1.2","","98.50","","","","","","Rain,Drizzle,Fog"
"1961-02-23 04:00","1961","02","23","04:00","1.7","","1.7","","100","","7","","5","","1.0","","98.43","","","","","","Drizzle,Fog"
"1961-02-23 05:00","1961","02","23","05:00","1.7","","1.7","","100","","5","","10","","0.2","","98.36","","","","","","Drizzle,Fog"
"1961-02-23 06:00","1961","02","23","06:00","1.7","","1.7","","100","","7","","8","","0.4","","98.26","","","","","","Drizzle,Fog"
"1961-02-23 07:00","1961","02","23","07:00","2.2","","2.2","","100","","","","0","","0.4","","98.32","","","","","","Drizzle,Fog"
"1961-02-23 08:00","1961","02","23","08:00","2.2","","2.2","","100","","5","","19","","0.6","","98.06","","","","","","Rain,Fog"
"1961-02-23 09:00","1961","02","23","09:00","2.2","","2.2","","100","","29","","29","","1.2","","98.10","","","","","","Rain,Fog"
"1961-02-23 10:00","1961","02","23","10:00","2.2","","1.7","","97","","34","","3","","1.6","","98.03","","","","","","Rain,Fog"
"1961-02-23 11:00","1961","02","23","11:00","2.8","","2.2","","97","","7","","10","","3.2","","97.91","","","","","","Fog"
"1961-02-23 12:00","1961","02","23","12:00","3.3","","2.8","","97","","14","","3","","0.8","","97.97","","","","","","Drizzle,Fog"
"1961-02-23 13:00","1961","02","23","13:00","3.9","","3.9","","100","","20","","6","","0.6","","97.97","","","","","","Drizzle,Fog"
"1961-02-23 14:00","1961","02","23","14:00","4.4","","3.9","","98","","25","","3","","1.2","","97.93","","","","","","Fog"
"1961-02-23 15:00","1961","02","23","15:00","5.6","","4.4","","98","","18","","5","","1.6","","97.95","","","","","","Fog"
"1961-02-23 16:00","1961","02","23","16:00","7.2","","6.1","","93","","25","","37","","11.3","","98.01","","","","","","Drizzle"
"1961-02-23 17:00","1961","02","23","17:00","7.2","","6.1","","91","","25","","31","","16.1","","98.06","","","","","","Cloudy"
"1961-02-23 18:00","1961","02","23","18:00","6.7","","5.0","","89","","25","","32","","12.9","","98.16","","","","","","Cloudy"
"1961-02-23 19:00","1961","02","23","19:00","6.7","","4.4","","87","","25","","26","","16.1","","98.30","","","","","","Cloudy"
"1961-02-23 20:00","1961","02","23","20:00","6.1","","3.9","","86","","25","","29","","16.1","","98.36","","","","","","Cloudy"
"1961-02-23 21:00","1961","02","23","21:00","6.1","","3.9","","86","","25","","32","","16.1","","98.45","","","","","","Cloudy"
"1961-02-23 22:00","1961","02","23","22:00","6.1","","3.9","","86","","25","","39","","16.1","","98.51","","","","","","Cloudy"
"1961-02-23 23:00","1961","02","23","23:00","6.1","","3.9","","86","","25","","29","","16.1","","98.59","","","","","","Mostly Cloudy"
"1961-02-24 00:00","1961","02","24","00:00","6.1","","4.4","","89","","25","","26","","11.3","","98.67","","","","","","Cloudy"
"1961-02-24 01:00","1961","02","24","01:00","5.6","","3.9","","91","","23","","11","","9.7","","98.73","","","","","","Fog"
"1961-02-24 02:00","1961","02","24","02:00","5.0","","4.4","","93","","23","","13","","9.7","","98.77","","","","","","Rain,Fog"
"1961-02-24 03:00","1961","02","24","03:00","4.4","","3.9","","98","","20","","8","","2.0","","98.78","","","","","","Rain,Fog"
"1961-02-24 04:00","1961","02","24","04:00","5.0","","3.9","","93","","","","0","","6.4","","98.73","","","","","","Fog"
"1961-02-24 05:00","1961","02","24","05:00","4.4","","3.9","","95","","18","","13","","3.2","","98.82","","","","","","Fog"
"1961-02-24 06:00","1961","02","24","06:00","4.4","","3.9","","98","","18","","8","","4.8","","98.86","","","","","","Fog"
"1961-02-24 07:00","1961","02","24","07:00","4.4","","3.3","","93","","18","","6","","2.4","","98.88","","","","","","Fog"
"1961-02-24 08:00","1961","02","24","08:00","4.4","","3.3","","93","","20","","6","","2.4","","98.95","","","","","","Fog"
"1961-02-24 09:00","1961","02","24","09:00","5.0","","4.4","","95","","20","","6","","2.4","","98.98","","","","","","Fog"
"1961-02-24 10:00","1961","02","24","10:00","5.6","","4.4","","93","","20","","10","","2.4","","98.99","","","","","","Fog"
"1961-02-24 11:00","1961","02","24","11:00","6.7","","5.6","","93","","20","","8","","3.2","","98.94","","","","","","Fog"
"1961-02-24 12:00","1961","02","24","12:00","7.8","","5.6","","87","","20","","8","","3.2","","98.88","","","","","","Fog"
"1961-02-24 13:00","1961","02","24","13:00","9.4","","7.2","","86","","20","","10","","6.4","","98.80","","","","","","Fog"
"1961-02-24 14:00","1961","02","24","14:00","10.6","","7.2","","81","","16","","16","","6.4","","98.78","","","","","","Fog"
"1961-02-24 15:00","1961","02","24","15:00","11.1","","7.2","","78","","18","","10","","6.4","","98.77","","","","","","Haze"
"1961-02-24 16:00","1961","02","24","16:00","11.1","","7.2","","78","","20","","6","","4.0","","98.74","","","","","","Haze"
"1961-02-24 17:00","1961","02","24","17:00","10.0","","7.2","","82","","","","0","","4.0","","98.74","","","","","","Haze"
"1961-02-24 18:00","1961","02","24","18:00","10.0","","6.7","","79","","11","","10","","3.2","","98.75","","","","","","Rain Showers,Haze"
"1961-02-24 19:00","1961","02","24","19:00","8.9","","6.1","","84","","14","","10","","4.0","","98.78","","","","","","Rain Showers,Haze"
"1961-02-24 20:00","1961","02","24","20:00","6.1","","5.0","","91","","11","","11","","3.2","","98.72","","","","","","Fog"
"1961-02-24 21:00","1961","02","24","21:00","6.1","","5.0","","93","","","","0","","2.4","","98.72","","","","","","Fog"
"1961-02-24 22:00","1961","02","24","22:00","5.6","","5.0","","95","","5","","5","","2.8","","98.67","","","","","","Fog"
"1961-02-24 23:00","1961","02","24","23:00","5.0","","4.4","","95","","","","0","","1.6","","98.57","","","","","","Rain Showers,Fog"
"1961-02-25 00:00","1961","02","25","00:00","4.4","","3.9","","98","","34","","13","","1.2","","98.50","","","","","","Fog"
"1961-02-25 01:00","1961","02","25","01:00","4.4","","3.9","","98","","36","","6","","0.8","","98.41","","","","","","Rain Showers,Fog"
"1961-02-25 02:00","1961","02","25","02:00","3.9","","3.3","","97","","36","","18","","1.2","","98.36","","","","","","Fog"
"1961-02-25 03:00","1961","02","25","03:00","3.9","","3.3","","95","","36","","26","","11.3","","98.24","","","","","","Cloudy"
"1961-02-25 04:00","1961","02","25","04:00","3.9","","3.3","","97","","36","","18","","19.3","","98.29","","","","","","Cloudy"
"1961-02-25 05:00","1961","02","25","05:00","2.8","","2.2","","97","","36","","16","","1.6","","98.21","","","","","","Fog"
"1961-02-25 06:00","1961","02","25","06:00","2.2","","1.7","","97","","36","","23","","8.0","","98.16","","","","","","Fog"
"1961-02-25 07:00","1961","02","25","07:00","2.2","","1.7","","97","","36","","26","","11.3","","98.08","","","","","","Cloudy"
"1961-02-25 08:00","1961","02","25","08:00","1.7","","1.1","","97","","36","","26","","8.0","","98.06","","","","","","Fog"
"1961-02-25 09:00","1961","02","25","09:00","1.7","","1.1","","97","","36","","29","","4.8","","98.01","","","","","","Fog"
"1961-02-25 10:00","1961","02","25","10:00","2.2","","1.7","","97","","36","","16","","4.8","","97.99","","","","","","Fog"
"1961-02-25 11:00","1961","02","25","11:00","3.3","","2.8","","97","","5","","11","","1.6","","97.89","","","","","","Rain,Fog"
"1961-02-25 12:00","1961","02","25","12:00","3.3","","2.8","","97","","2","","16","","0.8","","97.70","","","","","","Drizzle,Fog"
"1961-02-25 13:00","1961","02","25","13:00","2.2","","1.7","","97","","36","","32","","0.8","","97.48","","","","","","Fog"
"1961-02-25 14:00","1961","02","25","14:00","3.3","","2.8","","97","","2","","19","","1.6","","97.36","","","","","","Rain,Fog"
"1961-02-25 15:00","1961","02","25","15:00","3.9","","3.3","","97","","2","","29","","3.2","","97.21","","","","","","Rain,Fog"
"1961-02-25 16:00","1961","02","25","16:00","2.8","","2.2","","97","","5","","29","","3.2","","97.12","","","","","","Rain,Fog"
"1961-02-25 17:00","1961","02","25","17:00","2.8","","2.2","","97","","2","","29","","4.8","","96.87","","","","","","Rain,Fog"
"1961-02-25 18:00","1961","02","25","18:00","2.2","","1.7","","97","","2","","32","","9.7","","96.72","","","","","","Rain,Fog"
"1961-02-25 19:00","1961","02","25","19:00","2.2","","2.2","","100","","2","","37","","16.1","","96.64","","","","","","Rain"
"1961-02-25 20:00","1961","02","25","20:00","2.2","","2.2","","100","","2","","40","","16.1","","96.53","","","","","","Rain"
"1961-02-25 21:00","1961","02","25","21:00","1.7","","1.7","","100","","36","","43","","16.1","","96.41","","","","","","Rain"
"1961-02-25 22:00","1961","02","25","22:00","0.6","","0.6","","100","","36","","56","","16.1","","96.40","","","","","","Rain"
"1961-02-25 23:00","1961","02","25","23:00","0.6","","0.6","","100","","36","","48","","12.9","","96.40","","","","","","Rain,Ice Pellets"
"1961-02-26 00:00","1961","02","26","00:00","0.0","","0.0","","100","","36","","48","","12.9","","96.43","","","","-8","","Rain,Ice Pellets"
"1961-02-26 01:00","1961","02","26","01:00","0.0","","0.0","","100","","34","","51","","12.9","","96.49","","","","-8","","Freezing Rain,Ice Pellets"
"1961-02-26 02:00","1961","02","26","02:00","-0.6","","-0.6","","100","","34","","58","","12.9","","96.57","","","","-9","","Freezing Rain,Ice Pellets"
"1961-02-26 03:00","1961","02","26","03:00","-1.7","","-2.2","","97","","34","","56","","12.9","","96.69","","","","-11","","Freezing Rain,Ice Pellets"
"1961-02-26 04:00","1961","02","26","04:00","-2.2","","-3.3","","91","","34","","55","","25.0","","96.83","","","","-11","","Cloudy"
"1961-02-26 05:00","1961","02","26","05:00","-2.2","","-3.3","","90","","34","","55","","25.0","","97.00","","","","-11","","Cloudy"
"1961-02-26 06:00","1961","02","26","06:00","-2.8","","-4.4","","88","","34","","48","","25.0","","97.23","","","","-12","","Mostly Cloudy"
"1961-02-26 07:00","1961","02","26","07:00","-2.8","","-4.4","","88","","34","","27","","25.0","","97.43","","","","-10","","Mostly Cloudy"
"1961-02-26 08:00","1961","02","26","08:00","-2.8","","-5.0","","85","","34","","39","","25.0","","97.60","","","","-11","","Mostly Cloudy"
"1961-02-26 09:00","1961","02","26","09:00","-1.7","","-3.9","","84","","34","","32","","25.0","","97.74","","","","-9","","Mainly Clear"
"1961-02-26 10:00","1961","02","26","10:00","0.0","","-2.8","","83","","34","","27","","25.0","","97.90","","","","-6","","Mainly Clear"
"1961-02-26 11:00","1961","02","26","11:00","1.1","","-2.2","","79","","29","","31","","25.0","","98.04","","","","","","Mainly Clear"
"1961-02-26 12:00","1961","02","26","12:00","1.7","","-2.2","","76","","27","","32","","25.0","","98.22","","","","","","Mainly Clear"
"1961-02-26 13:00","1961","02","26","13:00","2.2","","-2.8","","68","","29","","32","","25.0","","98.26","","","","","","Mostly Cloudy"
"1961-02-26 14:00","1961","02","26","14:00","3.3","","-1.7","","70","","27","","29","","25.0","","98.38","","","","","","Mainly Clear"
"1961-02-26 15:00","1961","02","26","15:00","3.3","","-1.7","","70","","27","","35","","25.0","","98.39","","","","","","Mostly Cloudy"
"1961-02-26 16:00","1961","02","26","16:00","3.3","","-0.6","","75","","25","","29","","25.0","","98.61","","","","","","Mostly Cloudy"
"1961-02-26 17:00","1961","02","26","17:00","0.6","","-2.8","","78","","25","","29","","25.0","","98.70","","","","","","Mostly Cloudy"
"1961-02-26 18:00","1961","02","26","18:00","0.6","","-2.2","","81","","23","","24","","25.0","","98.73","","","","","","Cloudy"
"1961-02-26 19:00","1961","02","26","19:00","0.6","","-2.2","","81","","23","","29","","25.0","","98.78","","","","","","Mostly Cloudy"
"1961-02-26 20:00","1961","02","26","20:00","0.6","","-2.2","","81","","23","","21","","24.1","","98.82","","","","","","Cloudy"
"1961-02-26 21:00","1961","02","26","21:00","1.1","","0.0","","92","","20","","26","","19.3","","98.80","","","","","","Mostly Cloudy"
"1961-02-26 22:00","1961","02","26","22:00","1.7","","-0.6","","86","","20","","23","","16.1","","98.78","","","","","","Cloudy"
"1961-02-26 23:00","1961","02","26","23:00","2.2","","0.0","","84","","23","","26","","19.3","","98.82","","","","","","Cloudy"
"1961-02-27 00:00","1961","02","27","00:00","2.8","","-0.6","","79","","23","","26","","19.3","","98.85","","","","","","Cloudy"
"1961-02-27 01:00","1961","02","27","01:00","2.8","","0.0","","82","","23","","13","","19.3","","98.86","","","","","","Cloudy"
"1961-02-27 02:00","1961","02","27","02:00","1.7","","-0.6","","84","","18","","13","","19.3","","98.86","","","","","","Mostly Cloudy"
"1961-02-27 03:00","1961","02","27","03:00","1.1","","-0.6","","89","","20","","13","","19.3","","98.87","","","","","","Mostly Cloudy"
"1961-02-27 04:00","1961","02","27","04:00","2.2","","-1.7","","76","","25","","26","","19.3","","98.86","","","","","","Mostly Cloudy"
"1961-02-27 05:00","1961","02","27","05:00","2.2","","-1.7","","76","","25","","32","","24.1","","98.95","","","","","","Mostly Cloudy"
"1961-02-27 06:00","1961","02","27","06:00","1.7","","-2.8","","72","","25","","32","","24.1","","98.99","","","","","","Mainly Clear"
"1961-02-27 07:00","1961","02","27","07:00","1.7","","-2.8","","72","","27","","26","","24.1","","99.11","","","","","","Mainly Clear"
"1961-02-27 08:00","1961","02","27","08:00","1.7","","-2.8","","72","","27","","26","","24.1","","99.21","","","","","","Mostly Cloudy"
"1961-02-27 09:00","1961","02","27","09:00","2.2","","-3.9","","63","","27","","29","","24.1","","99.24","","","","","","Mostly Cloudy"
"1961-02-27 10:00","1961","02","27","10:00","3.3","","-3.9","","60","","27","","40","","24.1","","99.29","","","","","","Mostly Cloudy"
"1961-02-27 11:00","1961","02","27","11:00","3.3","","-3.9","","58","","27","","40","","25.0","","99.36","","","","","","Mainly Clear"
"1961-02-27 12:00","1961","02","27","12:00","3.9","","-3.3","","59","","27","","34","","25.0","","99.41","","","","","","Mostly Cloudy"
"1961-02-27 13:00","1961","02","27","13:00","4.4","","-3.9","","55","","27","","40","","25.0","","99.44","","","","","","Mostly Cloudy"
"1961-02-27 14:00","1961","02","27","14:00","4.4","","-3.3","","58","","27","","32","","25.0","","99.52","","","","","","Mostly Cloudy"
"1961-02-27 15:00","1961","02","27","15:00","3.9","","-3.3","","59","","27","","24","","25.0","","99.54","","","","","","Mostly Cloudy"
"1961-02-27 16:00","1961","02","27","16:00","3.9","","-3.9","","57","","27","","27","","25.0","","99.58","","","","","","Mostly Cloudy"
"1961-02-27 17:00","1961","02","27","17:00","3.3","","-3.9","","60","","29","","19","","25.0","","99.64","","","","","","Mostly Cloudy"
"1961-02-27 18:00","1961","02","27","18:00","2.2","","-3.3","","66","","27","","27","","25.0","","99.70","","","","","","Mostly Cloudy"
"1961-02-27 19:00","1961","02","27","19:00","1.7","","-2.8","","72","","27","","11","","25.0","","99.77","","","","","","Mostly Cloudy"
"1961-02-27 20:00","1961","02","27","20:00","1.7","","-2.8","","73","","27","","10","","24.1","","99.78","","","","","","Mostly Cloudy"
"1961-02-27 21:00","1961","02","27","21:00","1.1","","-2.8","","74","","","","0","","24.1","","99.84","","","","","","Cloudy"
"1961-02-27 22:00","1961","02","27","22:00","1.1","","-2.8","","76","","23","","6","","19.3","","99.83","","","","","","Cloudy"
"1961-02-27 23:00","1961","02","27","23:00","0.6","","-2.2","","81","","18","","8","","19.3","","99.83","","","","","","Cloudy"
"1961-02-28 00:00","1961","02","28","00:00","1.1","","-1.7","","82","","18","","10","","24.1","","99.84","","","","","","Cloudy"
"1961-02-28 01:00","1961","02","28","01:00","0.6","","-2.2","","81","","18","","3","","24.1","","99.85","","","","","","Cloudy"
"1961-02-28 02:00","1961","02","28","02:00","0.0","","-2.2","","86","","","","0","","24.1","","99.82","","","","","","Cloudy"
"1961-02-28 03:00","1961","02","28","03:00","0.6","","-1.7","","84","","34","","10","","24.1","","99.81","","","","","","Cloudy"
"1961-02-28 04:00","1961","02","28","04:00","0.0","","-2.2","","86","","36","","18","","24.1","","99.91","","","","-5","","Cloudy"
"1961-02-28 05:00","1961","02","28","05:00","-1.1","","-2.2","","92","","36","","10","","24.1","","99.93","","","","-5","","Mostly Cloudy"
"1961-02-28 06:00","1961","02","28","06:00","-1.1","","-3.3","","84","","36","","6","","24.1","","100.04","","","","-3","","Mainly Clear"
"1961-02-28 07:00","1961","02","28","07:00","-2.2","","-3.9","","88","","36","","5","","24.1","","99.96","","","","-4","","Mainly Clear"
"1961-02-28 08:00","1961","02","28","08:00","-1.1","","-2.8","","89","","36","","5","","24.1","","100.01","","","","-3","","Mainly Clear"
"1961-02-28 09:00","1961","02","28","09:00","-0.6","","-3.3","","82","","","","0","","25.0","","100.05","","","","","","Mostly Cloudy"
"1961-02-28 10:00","1961","02","28","10:00","0.0","","-3.3","","77","","","","0","","25.0","","100.12","","","","","","Mostly Cloudy"
"1961-02-28 11:00","1961","02","28","11:00","1.1","","-3.9","","68","","","","0","","25.0","","100.12","","","","","","Cloudy"
"1961-02-28 12:00","1961","02","28","12:00","2.2","","-3.9","","63","","2","","16","","25.0","","100.09","","","","","","Mostly Cloudy"
"1961-02-28 13:00","1961","02","28","13:00","3.3","","-3.9","","60","","2","","16","","25.0","","100.06","","","","","","Mostly Cloudy"
"1961-02-28 14:00","1961","02","28","14:00","4.4","","-2.8","","60","","34","","11","","25.0","","100.04","","","","","","Mostly Cloudy"
"1961-02-28 15:00","1961","02","28","15:00","3.3","","-5.6","","53","","36","","24","","25.0","","100.04","","","","","","Mostly Cloudy"
"1961-02-28 16:00","1961","02","28","16:00","3.3","","-5.6","","53","","36","","19","","25.0","","100.04","","","","","","Mainly Clear"
"1961-02-28 17:00","1961","02","28","17:00","3.3","","-5.6","","52","","36","","13","","25.0","","100.09","","","","","","Mainly Clear"
"1961-02-28 18:00","1961","02","28","18:00","2.2","","-6.1","","53","","2","","5","","25.0","","100.15","","","","","","Clear"
"1961-02-28 19:00","1961","02","28","19:00","1.1","","-6.1","","58","","36","","6","","25.0","","100.19","","","","","","Clear"
"1961-02-28 20:00","1961","02","28","20:00","0.0","","-5.6","","66","","2","","14","","25.0","","100.17","","","","-4","","Clear"
"1961-02-28 21:00","1961","02","28","21:00","-1.1","","-7.2","","64","","","","0","","25.0","","100.20","","","","","","Mainly Clear"
"1961-02-28 22:00","1961","02","28","22:00","-1.1","","-6.1","","70","","","","0","","25.0","","100.20","","","","","","Mostly Cloudy"
"1961-02-28 23:00","1961","02","28","23:00","-1.1","","-6.1","","69","","","","0","","25.0","","100.26","","","","","","Mostly Cloudy"
