"Station Name","TORONTO INTL A"
"Province","ONTARIO"
"Current Station Operator","NAV Canada"
"Latitude","43.68"
"Longitude","-79.63"
"Elevation","173.40"
"Climate Identifier","6158731"
"WMO Identifier","71624"
"TC Identifier","YYZ"
"All times are specified in Local Standard Time (LST). Add 1 hour to adjust for Daylight Saving Time where and when it is observed."

"Legend"
"E","Estimated"
"M","Missing"
"NA","Not Available"

"Date/Time","Year","Month","Day","Time","Temp (°C)","Temp Flag","Dew Point Temp (°C)","Dew Point Temp Flag","Rel Hum (%)","Rel Hum Flag","Wind Dir (10s deg)","Wind Dir Flag","Wind Spd (km/h)","Wind Spd Flag","Visibility (km)","Visibility Flag","Stn Press (kPa)","Stn Press Flag","Hmdx","Hmdx Flag","Wind Chill","Wind Chill Flag","Weather"
"2018-04-01 00:00","2018","04","01","00:00","1.1","","-2.6","","77","","29","","45","","24.1","","98.94","","","","","","NA"
"2018-04-01 01:00","2018","04","01","01:00","-0.6","","-5.0","","72","","29","","40","","24.1","","99.12","","","","-8","","Mostly Cloudy"
"2018-04-01 02:00","2018","04","01","02:00","-1.2","","-7.1","","64","","31","","44","","24.1","","99.26","","","","-9","","NA"
"2018-04-01 03:00","2018","04","01","03:00","-1.7","","-8.5","","60","","31","","36","","24.1","","99.38","","","","-9","","NA"
"2018-04-01 04:00","2018","04","01","04:00","-2.1","","-9.2","","58","","32","","40","","24.1","","99.50","","","","-10","","Mainly Clear"
"2018-04-01 05:00","2018","04","01","05:00","-3.0","","-10.5","","57","","31","","31","","24.1","","99.61","","","","-11","","NA"
"2018-04-01 06:00","2018","04","01","06:00","-3.4","","-10.9","","56","","30","","23","","24.1","","99.73","","","","-10","","NA"
"2018-04-01 07:00","2018","04","01","07:00","-2.9","","-9.9","","58","","27","","21","","24.1","","99.80","","","","-9","","Clear"
"2018-04-01 08:00","2018","04","01","08:00","-1.9","","-9.3","","57","","30","","25","","24.1","","99.84","","","","-8","","NA"
"2018-04-01 09:00","2018","04","01","09:00","-0.7","","-9.8","","50","","29","","33","","24.1","","99.87","","","","-8","","NA"
"2018-04-01 10:00","2018","04","01","10:00","0.1","","-10.8","","44","","28","","27","","24.1","","99.93","","","","","","Mainly Clear"
"2018-04-01 11:00","2018","04","01","11:00","1.4","","-10.0","","42","","28","","26","","24.1","","99.95","","","","","","NA"
"2018-04-01 12:00","2018","04","01","12:00","2.1","","-10.2","","40","","27","","29","","24.1","","99.92","","","","","","NA"
"2018-04-01 13:00","2018","04","01","13:00","2.4","","-11.0","","37","","26","","25","","24.1","","99.91","","","","","","Mainly Clear"
"2018-04-01 14:00","2018","04","01","14:00","3.3","","-10.5","","36","","27","","29","","24.1","","99.89","","","","","","NA"
"2018-04-01 15:00","2018","04","01","15:00","2.9","","-10.7","","36","","27","","26","","24.1","","99.88","","","","","","NA"
"2018-04-01 16:00","2018","04","01","16:00","1.8","","-11.0","","38","","27","","26","","24.1","","99.88","","","","","","Mostly Cloudy"
"2018-04-01 17:00","2018","04","01","17:00","1.7","","-10.9","","39","","27","","25","","24.1","","99.89","","","","","","NA"
"2018-04-01 18:00","2018","04","01","18:00","0.2","","-11.6","","41","","27","","23","","24.1","","99.91","","","","","","NA"
"2018-04-01 19:00","2018","04","01","19:00","-0.4","","-11.4","","43","","28","","16","","24.1","","99.84","","","","-5","","Mostly Cloudy"
"2018-04-01 20:00","2018","04","01","20:00","-0.7","","-11.1","","46","","28","","6","","24.1","","99.83","","","","-3","","NA"
"2018-04-01 21:00","2018","04","01","21:00","-1.0","","-11.0","","47","","23","","5","","24.1","","99.84","","","","-3","","NA"
"2018-04-01 22:00","2018","04","01","22:00","-0.3","","-10.7","","46","","20","","7","","24.1","","99.82","","","","-3","","Mostly Cloudy"
"2018-04-01 23:00","2018","04","01","23:00","-0.2","","-10.5","","46","","21","","6","","24.1","","99.80","","","","-2","","NA"
"2018-04-02 00:00","2018","04","02","00:00","-0.9","","-8.3","","57","","23","","8","","24.1","","99.74","","","","-4","","NA"
"2018-04-02 01:00","2018","04","02","01:00","-1.1","","-7.2","","63","","18","","4","","24.1","","99.69","","","","-2","","Mainly Clear"
"2018-04-02 02:00","2018","04","02","02:00","-1.3","","-7.0","","65","","22","","5","","24.1","","99.68","","","","-3","","NA"
"2018-04-02 03:00","2018","04","02","03:00","-2.0","","-7.2","","67","","21","","7","","24.1","","99.68","","","","-5","","NA"
"2018-04-02 04:00","2018","04","02","04:00","-2.2","","-6.8","","71","","23","","5","","24.1","","99.70","","","","-4","","Mainly Clear"
"2018-04-02 05:00","2018","04","02","05:00","-2.8","","-6.9","","73","","23","","8","","24.1","","99.74","","","","-6","","NA"
"2018-04-02 06:00","2018","04","02","06:00","-3.2","","-6.8","","76","","29","","8","","24.1","","99.77","","","","-6","","NA"
"2018-04-02 07:00","2018","04","02","07:00","-1.9","","-5.3","","78","","1","","10","","24.1","","99.81","","","","-6","","Mostly Cloudy"
"2018-04-02 08:00","2018","04","02","08:00","-1.0","","-5.0","","75","","1","","9","","24.1","","99.85","","","","-4","","NA"
"2018-04-02 09:00","2018","04","02","09:00","-0.1","","-5.3","","68","","32","","5","","24.1","","99.89","","","","-2","","NA"
"2018-04-02 10:00","2018","04","02","10:00","1.1","","-6.2","","58","","35","","5","","24.1","","99.88","","","","","","Mainly Clear"
"2018-04-02 11:00","2018","04","02","11:00","3.0","","-6.4","","50","","24","","10","","24.1","","99.87","","","","","","NA"
"2018-04-02 12:00","2018","04","02","12:00","4.5","","-10.1","","34","","22","","13","","24.1","","99.80","","","","","","NA"
"2018-04-02 13:00","2018","04","02","13:00","4.9","","-11.1","","31","","26","","14","","24.1","","99.80","","","","","","Mainly Clear"
"2018-04-02 14:00","2018","04","02","14:00","5.9","","-11.2","","28","","30","","22","","24.1","","99.72","","","","","","NA"
"2018-04-02 15:00","2018","04","02","15:00","7.0","","-10.0","","29","","24","","18","","24.1","","99.66","","","","","","NA"
"2018-04-02 16:00","2018","04","02","16:00","6.9","","-10.5","","28","","24","","12","","24.1","","99.69","","","","","","Mainly Clear"
"2018-04-02 17:00","2018","04","02","17:00","6.2","","-9.9","","31","","29","","20","","24.1","","99.68","","","","","","NA"
"2018-04-02 18:00","2018","04","02","18:00","5.2","","-9.1","","35","","29","","16","","24.1","","99.67","","","","","","NA"
"2018-04-02 19:00","2018","04","02","19:00","4.4","","-8.4","","39","","29","","14","","24.1","","99.71","","","","","","Cloudy"
"2018-04-02 20:00","2018","04","02","20:00","4.2","","-8.1","","41","","30","","12","","24.1","","99.73","","","","","","NA"
"2018-04-02 21:00","2018","04","02","21:00","3.5","","-8.6","","41","","32","","8","","24.1","","99.71","","","","","","NA"
"2018-04-02 22:00","2018","04","02","22:00","2.7","","-7.9","","46","","4","","8","","24.1","","99.70","","","","","","Cloudy"
"2018-04-02 23:00","2018","04","02","23:00","2.9","","-8.7","","42","","34","","11","","24.1","","99.71","","","","","","NA"
"2018-04-03 00:00","2018","04","03","00:00","2.5","","-8.2","","45","","1","","8","","24.1","","99.73","","","","","","NA"
"2018-04-03 01:00","2018","04","03","01:00","2.6","","-7.9","","46","","36","","2","","24.1","","99.75","","","","","","Cloudy"
"2018-04-03 02:00","2018","04","03","02:00","2.2","","-8.4","","45","","3","","5","","24.1","","99.63","","","","","","NA"
"2018-04-03 03:00","2018","04","03","03:00","2.0","","-6.2","","54","","6","","8","","24.1","","99.58","","","","","","NA"
"2018-04-03 04:00","2018","04","03","04:00","1.8","","-5.0","","61","","11","","8","","24.1","","99.54","","","","","","Mostly Cloudy"
"2018-04-03 05:00","2018","04","03","05:00","2.0","","-4.4","","62","","12","","11","","24.1","","99.47","","","","","","NA"
"2018-04-03 06:00","2018","04","03","06:00","1.9","","-3.4","","68","","8","","9","","24.1","","99.43","","","","","","NA"
"2018-04-03 07:00","2018","04","03","07:00","2.3","","-3.0","","68","","7","","14","","24.1","","99.45","","","","","","Mostly Cloudy"
"2018-04-03 08:00","2018","04","03","08:00","2.7","","-3.0","","66","","6","","11","","24.1","","99.44","","","","","","NA"
"2018-04-03 09:00","2018","04","03","09:00","3.2","","-4.3","","58","","9","","20","","24.1","","99.37","","","","","","NA"
"2018-04-03 10:00","2018","04","03","10:00","3.6","","-5.8","","50","","8","","21","","24.1","","99.36","","","","","","Cloudy"
"2018-04-03 11:00","2018","04","03","11:00","4.8","","-7.4","","41","","8","","21","","24.1","","99.22","","","","","","NA"
"2018-04-03 12:00","2018","04","03","12:00","4.3","","-5.8","","48","","9","","28","","24.1","","99.14","","","","","","NA"
"2018-04-03 13:00","2018","04","03","13:00","3.9","","-4.1","","56","","8","","22","","24.1","","99.07","","","","","","Cloudy"
"2018-04-03 14:00","2018","04","03","14:00","3.7","","-3.2","","61","","8","","26","","24.1","","98.97","","","","","","NA"
"2018-04-03 15:00","2018","04","03","15:00","3.3","","-2.4","","66","","7","","22","","24.1","","98.87","","","","","","Rain"
"2018-04-03 16:00","2018","04","03","16:00","2.5","","-1.1","","77","","6","","20","","4.8","","98.75","","","","","","Rain"
"2018-04-03 17:00","2018","04","03","17:00","2.4","","0.2","","85","","8","","25","","4.0","","98.63","","","","","","Rain,Fog"
"2018-04-03 18:00","2018","04","03","18:00","2.4","","0.6","","88","","8","","22","","6.4","","98.47","","","","","","Rain,Fog"
"2018-04-03 19:00","2018","04","03","19:00","2.5","","1.0","","90","","8","","19","","6.4","","98.33","","","","","","Rain,Fog"
"2018-04-03 20:00","2018","04","03","20:00","2.6","","1.3","","91","","6","","18","","6.4","","98.27","","","","","","Moderate Rain,Fog"
"2018-04-03 21:00","2018","04","03","21:00","2.9","","1.6","","91","","7","","19","","6.4","","98.12","","","","","","Rain Showers,Fog"
"2018-04-03 22:00","2018","04","03","22:00","3.0","","1.8","","92","","5","","20","","6.4","","97.96","","","","","","Moderate Rain Showers,Fog"
"2018-04-03 23:00","2018","04","03","23:00","2.5","","1.3","","92","","6","","12","","6.4","","97.83","","","","","","Rain Showers,Fog"
"2018-04-04 00:00","2018","04","04","00:00","2.5","","1.4","","92","","10","","17","","8.1","","97.52","","","","","","Rain Showers,Fog"
"2018-04-04 01:00","2018","04","04","01:00","3.0","","1.9","","93","","9","","8","","12.9","","97.44","","","","","","Rain"
"2018-04-04 02:00","2018","04","04","02:00","3.5","","2.4","","93","","4","","4","","8.1","","97.24","","","","","","Rain,Fog"
"2018-04-04 03:00","2018","04","04","03:00","3.6","","2.7","","93","","33","","11","","8.1","","97.14","","","","","","Rain,Fog"
"2018-04-04 04:00","2018","04","04","04:00","3.2","","2.3","","94","","32","","9","","8.1","","96.99","","","","","","Rain,Fog"
"2018-04-04 05:00","2018","04","04","05:00","2.5","","1.6","","94","","28","","11","","4.0","","96.96","","","","","","Drizzle,Fog"
"2018-04-04 06:00","2018","04","04","06:00","4.3","","3.5","","94","","22","","21","","14.5","","97.04","","","","","","NA"
"2018-04-04 07:00","2018","04","04","07:00","3.3","","2.2","","93","","24","","34","","24.1","","97.16","","","","","","Cloudy"
"2018-04-04 08:00","2018","04","04","08:00","3.2","","1.8","","91","","24","","44","","24.1","","97.22","","","","","","NA"
"2018-04-04 09:00","2018","04","04","09:00","4.0","","1.5","","84","","24","","48","","24.1","","97.23","","","","","","NA"
"2018-04-04 10:00","2018","04","04","10:00","3.7","","-1.2","","70","","25","","41","","24.1","","97.34","","","","","","Mostly Cloudy"
"2018-04-04 11:00","2018","04","04","11:00","2.4","","-4.5","","60","","26","","67","","24.1","","97.47","","","","","","NA"
"2018-04-04 12:00","2018","04","04","12:00","2.4","","-4.6","","60","","25","","58","","24.1","","97.59","","","","","","NA"
"2018-04-04 13:00","2018","04","04","13:00","-0.3","","-5.8","","66","","27","","68","","14.5","","97.79","","","","-10","","Snow Showers"
"2018-04-04 14:00","2018","04","04","14:00","-1.4","","-7.3","","64","","27","","65","","8.1","","97.98","","","","-11","","Snow Showers"
"2018-04-04 15:00","2018","04","04","15:00","-1.0","","-6.6","","66","","28","","66","","19.3","","98.16","","","","-11","","Snow Showers"
"2018-04-04 16:00","2018","04","04","16:00","1.2","","-4.7","","65","","27","","68","","24.1","","98.37","","","","","","Mostly Cloudy"
"2018-04-04 17:00","2018","04","04","17:00","-0.8","","-8.3","","57","","27","","68","","24.1","","98.60","","","","-10","","NA"
"2018-04-04 18:00","2018","04","04","18:00","-1.6","","-9.3","","55","","29","","49","","24.1","","98.87","","","","-10","","NA"
"2018-04-04 19:00","2018","04","04","19:00","-2.4","","-9.8","","57","","30","","43","","24.1","","99.04","","","","-11","","Mostly Cloudy"
"2018-04-04 20:00","2018","04","04","20:00","-3.0","","-9.2","","62","","30","","31","","24.1","","99.26","","","","-11","","NA"
"2018-04-04 21:00","2018","04","04","21:00","-3.2","","-8.9","","65","","30","","34","","24.1","","99.40","","","","-11","","NA"
"2018-04-04 22:00","2018","04","04","22:00","-3.0","","-8.9","","64","","31","","34","","24.1","","99.51","","","","-11","","Mainly Clear"
"2018-04-04 23:00","2018","04","04","23:00","-3.7","","-10.0","","62","","31","","26","","24.1","","99.59","","","","-11","","NA"
"2018-04-05 00:00","2018","04","05","00:00","-4.5","","-10.1","","66","","27","","16","","24.1","","99.65","","","","-10","","NA"
"2018-04-05 01:00","2018","04","05","01:00","-4.0","","-9.6","","66","","28","","18","","24.1","","99.65","","","","-10","","Mostly Cloudy"
"2018-04-05 02:00","2018","04","05","02:00","-3.5","","-9.7","","62","","28","","25","","24.1","","99.65","","","","-10","","NA"
"2018-04-05 03:00","2018","04","05","03:00","-4.0","","-10.9","","59","","29","","31","","24.1","","99.68","","","","-12","","NA"
"2018-04-05 04:00","2018","04","05","04:00","-4.8","","-11.4","","60","","28","","22","","24.1","","99.71","","","","-12","","Clear"
"2018-04-05 05:00","2018","04","05","05:00","-5.1","","-11.2","","63","","27","","21","","24.1","","99.74","","","","-12","","NA"
"2018-04-05 06:00","2018","04","05","06:00","-4.8","","-10.9","","63","","27","","23","","24.1","","99.80","","","","-12","","NA"
"2018-04-05 07:00","2018","04","05","07:00","-4.5","","-10.5","","64","","29","","25","","24.1","","99.85","","","","-12","","Snow Showers"
"2018-04-05 08:00","2018","04","05","08:00","-3.9","","-10.0","","63","","28","","21","","24.1","","99.88","","","","-10","","NA"
"2018-04-05 09:00","2018","04","05","09:00","-2.9","","-11.1","","54","","29","","26","","24.1","","99.91","","","","-10","","NA"
"2018-04-05 10:00","2018","04","05","10:00","-1.6","","-10.9","","49","","28","","26","","24.1","","99.93","","","","-8","","Mostly Cloudy"
"2018-04-05 11:00","2018","04","05","11:00","-0.3","","-11.0","","44","","30","","22","","24.1","","99.92","","","","-6","","NA"
"2018-04-05 12:00","2018","04","05","12:00","-0.4","","-11.3","","44","","30","","22","","24.1","","99.90","","","","-6","","NA"
"2018-04-05 13:00","2018","04","05","13:00","-0.2","","-11.0","","44","","26","","30","","24.1","","99.87","","","","-7","","Mostly Cloudy"
"2018-04-05 14:00","2018","04","05","14:00","0.3","","-9.4","","48","","30","","25","","24.1","","99.84","","","","","","NA"
"2018-04-05 15:00","2018","04","05","15:00","0.6","","-11.7","","40","","28","","28","","24.1","","99.80","","","","","","NA"
"2018-04-05 16:00","2018","04","05","16:00","1.2","","-12.7","","35","","28","","30","","24.1","","99.75","","","","","","Mostly Cloudy"
"2018-04-05 17:00","2018","04","05","17:00","0.8","","-13.4","","34","","31","","27","","24.1","","99.70","","","","","","NA"
"2018-04-05 18:00","2018","04","05","18:00","0.2","","-12.1","","39","","28","","24","","24.1","","99.72","","","","","","NA"
"2018-04-05 19:00","2018","04","05","19:00","-1.1","","-11.5","","45","","26","","16","","24.1","","99.69","","","","-6","","Mainly Clear"
"2018-04-05 20:00","2018","04","05","20:00","-1.5","","-11.2","","48","","25","","6","","24.1","","99.68","","","","-4","","NA"
"2018-04-05 21:00","2018","04","05","21:00","-0.2","","-11.3","","43","","20","","9","","24.1","","99.67","","","","-3","","NA"
"2018-04-05 22:00","2018","04","05","22:00","-0.7","","-11.4","","45","","19","","11","","24.1","","99.61","","","","-4","","Mainly Clear"
"2018-04-05 23:00","2018","04","05","23:00","-1.2","","-10.7","","49","","16","","8","","24.1","","99.53","","","","-4","","NA"
"2018-04-06 00:00","2018","04","06","00:00","-1.6","","-9.2","","57","","17","","9","","24.1","","99.46","","","","-5","","NA"
"2018-04-06 01:00","2018","04","06","01:00","-1.4","","-7.5","","63","","16","","10","","24.1","","99.40","","","","-5","","Clear"
"2018-04-06 02:00","2018","04","06","02:00","-1.3","","-6.6","","68","","17","","11","","24.1","","99.32","","","","-5","","NA"
"2018-04-06 03:00","2018","04","06","03:00","-1.8","","-6.5","","70","","18","","6","","24.1","","99.23","","","","-4","","NA"
"2018-04-06 04:00","2018","04","06","04:00","-2.0","","-6.2","","73","","22","","7","","24.1","","99.14","","","","-5","","Cloudy"
"2018-04-06 05:00","2018","04","06","05:00","-2.1","","-5.8","","76","","21","","8","","24.1","","99.00","","","","-5","","NA"
"2018-04-06 06:00","2018","04","06","06:00","-1.5","","-5.0","","77","","17","","7","","19.3","","98.91","","","","-4","","NA"
"2018-04-06 07:00","2018","04","06","07:00","-0.2","","-3.8","","77","","18","","7","","19.3","","98.87","","","","-3","","Cloudy"
"2018-04-06 08:00","2018","04","06","08:00","-0.1","","-3.7","","77","","19","","8","","3.2","","98.80","","","","-3","","Snow"
"2018-04-06 09:00","2018","04","06","09:00","-0.3","","-2.8","","83","","12","","7","","1.6","","98.62","","","","-3","","Snow"
"2018-04-06 10:00","2018","04","06","10:00","-0.1","","-2.1","","86","","9","","10","","1.2","","98.53","","","","-3","","Snow"
"2018-04-06 11:00","2018","04","06","11:00","-0.1","","-1.8","","89","","13","","11","","1.6","","98.42","","","","-4","","Snow"
"2018-04-06 12:00","2018","04","06","12:00","-0.2","","-1.7","","89","","13","","12","","6.4","","98.34","","","","-4","","Snow"
"2018-04-06 13:00","2018","04","06","13:00","0.2","","-1.2","","90","","15","","13","","9.7","","98.27","","","","","","Snow"
"2018-04-06 14:00","2018","04","06","14:00","1.6","","0.2","","91","","16","","12","","8.1","","98.24","","","","","","Snow Showers"
"2018-04-06 15:00","2018","04","06","15:00","3.5","","1.8","","89","","26","","32","","24.1","","98.21","","","","","","NA"
"2018-04-06 16:00","2018","04","06","16:00","3.9","","-0.2","","75","","26","","40","","24.1","","98.23","","","","","","Mostly Cloudy"
"2018-04-06 17:00","2018","04","06","17:00","1.8","","-1.8","","77","","30","","36","","19.3","","98.33","","","","","","Snow Showers"
"2018-04-06 18:00","2018","04","06","18:00","1.3","","-3.7","","69","","28","","35","","19.3","","98.43","","","","","","Snow Showers"
"2018-04-06 19:00","2018","04","06","19:00","-0.2","","-4.9","","71","","29","","29","","24.1","","98.54","","","","-7","","Cloudy"
"2018-04-06 20:00","2018","04","06","20:00","-1.0","","-6.6","","66","","30","","36","","24.1","","98.66","","","","-8","","NA"
"2018-04-06 21:00","2018","04","06","21:00","-1.6","","-7.4","","65","","29","","33","","24.1","","98.76","","","","-9","","NA"
"2018-04-06 22:00","2018","04","06","22:00","-1.8","","-7.9","","64","","30","","33","","24.1","","98.85","","","","-9","","Mostly Cloudy"
"2018-04-06 23:00","2018","04","06","23:00","-2.4","","-9.6","","58","","30","","32","","24.1","","98.91","","","","-10","","NA"
"2018-04-07 00:00","2018","04","07","00:00","-3.4","","-9.5","","63","","29","","28","","24.1","","98.97","","","","-11","","NA"
"2018-04-07 01:00","2018","04","07","01:00","-3.6","","-10.4","","59","","30","","32","","24.1","","99.07","","","","-11","","Mainly Clear"
"2018-04-07 02:00","2018","04","07","02:00","-3.8","","-11.0","","58","","30","","30","","24.1","","99.14","","","","-11","","NA"
"2018-04-07 03:00","2018","04","07","03:00","-4.3","","-11.7","","56","","29","","26","","24.1","","99.19","","","","-12","","NA"
"2018-04-07 04:00","2018","04","07","04:00","-4.9","","-11.5","","60","","29","","21","","24.1","","99.24","","","","-12","","Mainly Clear"
"2018-04-07 05:00","2018","04","07","05:00","-5.6","","-10.8","","67","","27","","22","","24.1","","99.28","","","","-13","","NA"
"2018-04-07 06:00","2018","04","07","06:00","-5.8","","-11.1","","67","","27","","18","","24.1","","99.32","","","","-12","","NA"
"2018-04-07 07:00","2018","04","07","07:00","-4.6","","-10.8","","62","","26","","20","","24.1","","99.39","","","","-11","","Mainly Clear"
"2018-04-07 08:00","2018","04","07","08:00","-2.5","","-9.8","","58","","27","","33","","24.1","","99.40","","","","-10","","NA"
"2018-04-07 09:00","2018","04","07","09:00","-1.2","","-10.2","","51","","29","","35","","24.1","","99.41","","","","-9","","NA"
"2018-04-07 10:00","2018","04","07","10:00","-0.7","","-10.5","","48","","32","","31","","24.1","","99.41","","","","-7","","Mostly Cloudy"
"2018-04-07 11:00","2018","04","07","11:00","-0.6","","-10.5","","47","","31","","28","","24.1","","99.42","","","","-7","","NA"
"2018-04-07 12:00","2018","04","07","12:00","-0.2","","-10.7","","45","","28","","21","","24.1","","99.39","","","","-6","","NA"
"2018-04-07 13:00","2018","04","07","13:00","0.3","","-10.7","","44","","31","","21","","24.1","","99.37","","","","","","Mostly Cloudy"
"2018-04-07 14:00","2018","04","07","14:00","0.0","","-10.9","","44","","28","","21","","24.1","","99.34","","","","-5","","NA"
"2018-04-07 15:00","2018","04","07","15:00","-0.3","","-11.0","","45","","27","","26","","24.1","","99.34","","","","-6","","NA"
"2018-04-07 16:00","2018","04","07","16:00","-0.8","","-10.1","","49","","27","","24","","24.1","","99.39","","","","-7","","Cloudy"
"2018-04-07 17:00","2018","04","07","17:00","-1.2","","-10.7","","49","","27","","24","","24.1","","99.42","","","","-7","","NA"
"2018-04-07 18:00","2018","04","07","18:00","-1.6","","-10.9","","49","","28","","25","","24.1","","99.45","","","","-8","","NA"
"2018-04-07 19:00","2018","04","07","19:00","-2.2","","-9.4","","58","","31","","18","","24.1","","99.44","","","","-8","","Mostly Cloudy"
"2018-04-07 20:00","2018","04","07","20:00","-2.5","","-10.6","","54","","28","","11","","24.1","","99.48","","","","-7","","NA"
"2018-04-07 21:00","2018","04","07","21:00","-2.4","","-10.2","","55","","29","","14","","24.1","","99.50","","","","-7","","NA"
"2018-04-07 22:00","2018","04","07","22:00","-2.6","","-9.9","","57","","27","","12","","24.1","","99.47","","","","-7","","Cloudy"
"2018-04-07 23:00","2018","04","07","23:00","-2.7","","-9.6","","59","","27","","13","","24.1","","99.44","","","","-7","","NA"
"2018-04-08 00:00","2018","04","08","00:00","-2.8","","-9.1","","62","","25","","10","","24.1","","99.40","","","","-7","","NA"
"2018-04-08 01:00","2018","04","08","01:00","-2.8","","-8.9","","63","","28","","16","","24.1","","99.36","","","","-8","","Cloudy"
"2018-04-08 02:00","2018","04","08","02:00","-2.8","","-8.8","","63","","28","","16","","24.1","","99.34","","","","-8","","NA"
"2018-04-08 03:00","2018","04","08","03:00","-3.2","","-8.7","","66","","28","","11","","24.1","","99.34","","","","-7","","NA"
"2018-04-08 04:00","2018","04","08","04:00","-3.4","","-8.5","","68","","29","","13","","24.1","","99.37","","","","-8","","Mostly Cloudy"
"2018-04-08 05:00","2018","04","08","05:00","-4.2","","-9.1","","69","","32","","20","","24.1","","99.39","","","","-11","","NA"
"2018-04-08 06:00","2018","04","08","06:00","-4.8","","-9.8","","69","","31","","15","","24.1","","99.45","","","","-10","","NA"
"2018-04-08 07:00","2018","04","08","07:00","-4.0","","-9.4","","66","","32","","21","","24.1","","99.48","","","","-10","","Mainly Clear"
"2018-04-08 08:00","2018","04","08","08:00","-2.6","","-9.5","","59","","34","","25","","24.1","","99.52","","","","-9","","NA"
"2018-04-08 09:00","2018","04","08","09:00","-2.3","","-10.1","","56","","31","","23","","24.1","","99.52","","","","-9","","NA"
"2018-04-08 10:00","2018","04","08","10:00","-1.5","","-11.2","","48","","29","","30","","24.1","","99.55","","","","-8","","Mostly Cloudy"
"2018-04-08 11:00","2018","04","08","11:00","0.0","","-11.0","","43","","31","","24","","24.1","","99.55","","","","-6","","NA"
"2018-04-08 12:00","2018","04","08","12:00","-0.2","","-12.0","","41","","30","","34","","24.1","","99.53","","","","-7","","NA"
"2018-04-08 13:00","2018","04","08","13:00","1.1","","-11.8","","38","","30","","27","","24.1","","99.52","","","","","","Mostly Cloudy"
"2018-04-08 14:00","2018","04","08","14:00","0.1","","-11.4","","42","","34","","23","","24.1","","99.54","","","","","","NA"
"2018-04-08 15:00","2018","04","08","15:00","0.1","","-10.6","","44","","35","","24","","24.1","","99.56","","","","","","NA"
"2018-04-08 16:00","2018","04","08","16:00","0.2","","-12.2","","39","","33","","26","","24.1","","99.61","","","","","","Mostly Cloudy"
"2018-04-08 17:00","2018","04","08","17:00","0.8","","-11.8","","39","","29","","27","","24.1","","99.65","","","","","","NA"
"2018-04-08 18:00","2018","04","08","18:00","0.0","","-11.4","","42","","31","","19","","24.1","","99.68","","","","-5","","NA"
"2018-04-08 19:00","2018","04","08","19:00","-1.0","","-12.1","","43","","29","","24","","24.1","","99.74","","","","-7","","Clear"
"2018-04-08 20:00","2018","04","08","20:00","-1.9","","-12.7","","44","","30","","21","","24.1","","99.82","","","","-8","","NA"
"2018-04-08 21:00","2018","04","08","21:00","-2.8","","-12.8","","46","","32","","21","","24.1","","99.88","","","","-9","","NA"
"2018-04-08 22:00","2018","04","08","22:00","-3.3","","-12.4","","50","","33","","16","","24.1","","99.89","","","","-9","","Clear"
"2018-04-08 23:00","2018","04","08","23:00","-3.8","","-11.8","","54","","34","","14","","24.1","","99.88","","","","-9","","NA"
"2018-04-09 00:00","2018","04","09","00:00","-4.0","","-11.4","","57","","31","","12","","24.1","","99.94","","","","-9","","NA"
"2018-04-09 01:00","2018","04","09","01:00","-5.3","","-11.5","","62","","28","","13","","24.1","","100.00","","","","-10","","Cloudy"
"2018-04-09 02:00","2018","04","09","02:00","-4.7","","-10.6","","64","","32","","9","","24.1","","99.95","","","","-9","","NA"
"2018-04-09 03:00","2018","04","09","03:00","-4.8","","-10.5","","65","","31","","9","","24.1","","99.98","","","","-9","","NA"
"2018-04-09 04:00","2018","04","09","04:00","-4.7","","-10.1","","66","","24","","5","","24.1","","100.02","","","","-7","","Cloudy"
"2018-04-09 05:00","2018","04","09","05:00","-5.2","","-10.3","","67","","25","","10","","24.1","","100.05","","","","-10","","NA"
"2018-04-09 06:00","2018","04","09","06:00","-4.9","","-9.7","","69","","25","","4","","24.1","","100.09","","","","-7","","NA"
"2018-04-09 07:00","2018","04","09","07:00","-3.1","","-8.2","","68","","26","","4","","24.1","","100.12","","","","-5","","Mostly Cloudy"
"2018-04-09 08:00","2018","04","09","08:00","-1.8","","-8.6","","60","","30","","4","","24.1","","100.16","","","","-3","","NA"
"2018-04-09 09:00","2018","04","09","09:00","-0.5","","-9.5","","51","","36","","3","","24.1","","100.16","","","","-1","","NA"
"2018-04-09 10:00","2018","04","09","10:00","0.2","","-10.5","","45","","11","","9","","24.1","","100.16","","","","","","Cloudy"
"2018-04-09 11:00","2018","04","09","11:00","1.3","","-10.1","","43","","14","","5","","24.1","","100.12","","","","","","NA"
"2018-04-09 12:00","2018","04","09","12:00","1.0","","-10.6","","42","","17","","7","","24.1","","100.12","","","","","","NA"
"2018-04-09 13:00","2018","04","09","13:00","1.7","","-9.9","","42","","11","","11","","24.1","","100.09","","","","","","Cloudy"
"2018-04-09 14:00","2018","04","09","14:00","2.0","","-10.8","","38","","17","","10","","24.1","","100.04","","","","","","NA"
"2018-04-09 15:00","2018","04","09","15:00","2.8","","-11.7","","34","","13","","16","","24.1","","100.01","","","","","","NA"
"2018-04-09 16:00","2018","04","09","16:00","2.9","","-12.5","","31","","14","","14","","24.1","","99.97","","","","","","Mostly Cloudy"
"2018-04-09 17:00","2018","04","09","17:00","1.8","","-10.8","","39","","17","","14","","24.1","","99.99","","","","","","NA"
"2018-04-09 18:00","2018","04","09","18:00","1.5","","-9.3","","45","","17","","8","","24.1","","100.02","","","","","","NA"
"2018-04-09 19:00","2018","04","09","19:00","1.0","","-8.0","","51","","15","","9","","24.1","","100.03","","","","","","Cloudy"
"2018-04-09 20:00","2018","04","09","20:00","0.7","","-7.4","","55","","19","","8","","24.1","","100.08","","","","","","NA"
"2018-04-09 21:00","2018","04","09","21:00","0.6","","-6.0","","61","","34","","16","","24.1","","100.10","","","","","","NA"
"2018-04-09 22:00","2018","04","09","22:00","0.1","","-4.0","","74","","32","","14","","24.1","","100.11","","","","","","Mostly Cloudy"
"2018-04-09 23:00","2018","04","09","23:00","-0.4","","-3.6","","79","","34","","17","","16.1","","100.11","","","","-5","","Snow Showers"
"2018-04-10 00:00","2018","04","10","00:00","-1.1","","-4.0","","81","","36","","12","","24.1","","100.11","","","","-5","","NA"
"2018-04-10 01:00","2018","04","10","01:00","-1.0","","-3.8","","81","","33","","14","","24.1","","100.12","","","","-5","","Mostly Cloudy"
"2018-04-10 02:00","2018","04","10","02:00","-1.0","","-3.8","","81","","32","","11","","24.1","","100.10","","","","-5","","Snow Showers"
"2018-04-10 03:00","2018","04","10","03:00","-1.6","","-4.3","","81","","31","","7","","24.1","","100.11","","","","-4","","NA"
"2018-04-10 04:00","2018","04","10","04:00","-2.1","","-4.8","","82","","31","","10","","24.1","","100.13","","","","-6","","Mostly Cloudy"
"2018-04-10 05:00","2018","04","10","05:00","-2.2","","-5.0","","81","","27","","4","","24.1","","100.12","","","","-4","","NA"
"2018-04-10 06:00","2018","04","10","06:00","-2.8","","-5.4","","82","","27","","7","","24.1","","100.17","","","","-6","","NA"
"2018-04-10 07:00","2018","04","10","07:00","-0.9","","-3.4","","83","","24","","5","","24.1","","100.22","","","","-3","","Mainly Clear"
"2018-04-10 08:00","2018","04","10","08:00","0.9","","-3.1","","74","","25","","12","","24.1","","100.24","","","","","","NA"
"2018-04-10 09:00","2018","04","10","09:00","2.6","","-5.0","","57","","25","","8","","24.1","","100.23","","","","","","NA"
"2018-04-10 10:00","2018","04","10","10:00","3.6","","-6.7","","47","","22","","8","","24.1","","100.21","","","","","","Mainly Clear"
"2018-04-10 11:00","2018","04","10","11:00","4.8","","-7.5","","41","","25","","10","","24.1","","100.19","","","","","","NA"
"2018-04-10 12:00","2018","04","10","12:00","4.3","","-7.7","","41","","27","","13","","24.1","","100.14","","","","","","NA"
"2018-04-10 13:00","2018","04","10","13:00","4.3","","-6.7","","44","","23","","13","","24.1","","100.10","","","","","","Mostly Cloudy"
"2018-04-10 14:00","2018","04","10","14:00","5.5","","-5.3","","46","","27","","21","","24.1","","100.05","","","","","","NA"
"2018-04-10 15:00","2018","04","10","15:00","5.9","","-3.8","","50","","24","","18","","24.1","","100.01","","","","","","NA"
"2018-04-10 16:00","2018","04","10","16:00","5.0","","-5.4","","47","","24","","24","","24.1","","99.97","","","","","","Mostly Cloudy"
"2018-04-10 17:00","2018","04","10","17:00","4.7","","-4.2","","53","","29","","3","","24.1","","99.96","","","","","","Snow Showers"
"2018-04-10 18:00","2018","04","10","18:00","4.4","","-5.7","","48","","29","","21","","24.1","","99.95","","","","","","NA"
"2018-04-10 19:00","2018","04","10","19:00","2.9","","-5.8","","53","","27","","13","","24.1","","99.94","","","","","","Mostly Cloudy"
"2018-04-10 20:00","2018","04","10","20:00","2.3","","-5.3","","57","","22","","10","","24.1","","99.97","","","","","","NA"
"2018-04-10 21:00","2018","04","10","21:00","1.9","","-5.0","","60","","23","","15","","24.1","","99.98","","","","","","NA"
"2018-04-10 22:00","2018","04","10","22:00","0.5","","-4.5","","69","","24","","16","","24.1","","99.96","","","","","","Clear"
"2018-04-10 23:00","2018","04","10","23:00","0.5","","-3.5","","74","","23","","12","","24.1","","99.92","","","","","","NA"
"2018-04-11 00:00","2018","04","11","00:00","-0.1","","-3.7","","77","","24","","12","","24.1","","99.91","","","","-4","","NA"
"2018-04-11 01:00","2018","04","11","01:00","0.1","","-3.6","","76","","22","","9","","24.1","","99.90","","","","","","Cloudy"
"2018-04-11 02:00","2018","04","11","02:00","0.2","","-4.4","","72","","19","","8","","24.1","","99.83","","","","","","NA"
"2018-04-11 03:00","2018","04","11","03:00","1.0","","-4.6","","66","","20","","19","","24.1","","99.75","","","","","","NA"
"2018-04-11 04:00","2018","04","11","04:00","0.8","","-4.2","","69","","22","","14","","24.1","","99.73","","","","","","Cloudy"
"2018-04-11 05:00","2018","04","11","05:00","0.9","","-3.4","","73","","21","","11","","24.1","","99.71","","","","","","NA"
"2018-04-11 06:00","2018","04","11","06:00","0.8","","-3.5","","73","","20","","12","","19.3","","99.67","","","","","","NA"
"2018-04-11 07:00","2018","04","11","07:00","1.5","","-2.8","","73","","24","","13","","24.1","","99.67","","","","","","Mostly Cloudy"
"2018-04-11 08:00","2018","04","11","08:00","2.9","","-2.1","","70","","21","","22","","24.1","","99.65","","","","","","NA"
"2018-04-11 09:00","2018","04","11","09:00","4.6","","-1.9","","63","","23","","21","","24.1","","99.58","","","","","","NA"
"2018-04-11 10:00","2018","04","11","10:00","4.6","","-2.9","","58","","21","","22","","24.1","","99.55","","","","","","Cloudy"
"2018-04-11 11:00","2018","04","11","11:00","4.7","","-2.6","","59","","23","","27","","24.1","","99.51","","","","","","NA"
"2018-04-11 12:00","2018","04","11","12:00","5.0","","-0.5","","68","","24","","27","","19.3","","99.46","","","","","","Rain"
"2018-04-11 13:00","2018","04","11","13:00","5.1","","-0.1","","69","","24","","30","","19.3","","99.41","","","","","","Rain"
"2018-04-11 14:00","2018","04","11","14:00","4.4","","0.9","","78","","24","","24","","19.3","","99.38","","","","","","Rain"
"2018-04-11 15:00","2018","04","11","15:00","3.4","","0.8","","83","","22","","21","","16.1","","99.38","","","","","","Rain"
"2018-04-11 16:00","2018","04","11","16:00","3.4","","0.8","","83","","24","","21","","16.1","","99.39","","","","","","Rain"
"2018-04-11 17:00","2018","04","11","17:00","3.8","","1.0","","82","","25","","23","","19.3","","99.40","","","","","","Rain"
"2018-04-11 18:00","2018","04","11","18:00","4.1","","1.2","","82","","26","","18","","19.3","","99.43","","","","","","NA"
"2018-04-11 19:00","2018","04","11","19:00","3.1","","0.3","","82","","28","","10","","19.3","","99.44","","","","","","Mainly Clear"
"2018-04-11 20:00","2018","04","11","20:00","2.3","","-0.1","","84","","26","","8","","16.1","","99.51","","","","","","NA"
"2018-04-11 21:00","2018","04","11","21:00","1.9","","-0.3","","85","","26","","7","","16.1","","99.56","","","","","","NA"
"2018-04-11 22:00","2018","04","11","22:00","1.4","","-0.6","","86","","25","","7","","16.1","","99.56","","","","","","Clear"
"2018-04-11 23:00","2018","04","11","23:00","0.7","","-0.9","","89","","25","","5","","19.3","","99.56","","","","","","NA"
"2018-04-12 00:00","2018","04","12","00:00","1.2","","-0.3","","90","","31","","4","","19.3","","99.53","","","","","","NA"
"2018-04-12 01:00","2018","04","12","01:00","0.6","","-0.8","","90","","32","","7","","19.3","","99.51","","","","","","Clear"
"2018-04-12 02:00","2018","04","12","02:00","0.1","","-1.3","","90","","5","","5","","16.1","","99.43","","","","","","NA"
"2018-04-12 03:00","2018","04","12","03:00","-1.2","","-2.7","","90","","36","","2","","12.9","","99.43","","","","-2","","NA"
"2018-04-12 04:00","2018","04","12","04:00","-1.4","","-2.7","","91","","1","","8","","12.9","","99.39","","","","-4","","Mostly Cloudy"
"2018-04-12 05:00","2018","04","12","05:00","-0.3","","-1.5","","92","","4","","4","","9.7","","99.33","","","","-2","","Fog"
"2018-04-12 06:00","2018","04","12","06:00","0.8","","-0.3","","92","","10","","7","","8.1","","99.27","","","","","","Fog"
"2018-04-12 07:00","2018","04","12","07:00","1.3","","0.1","","92","","10","","6","","8.1","","99.23","","","","","","Rain,Fog"
"2018-04-12 08:00","2018","04","12","08:00","2.0","","0.8","","92","","10","","11","","4.8","","99.15","","","","","","Rain,Fog"
"2018-04-12 09:00","2018","04","12","09:00","2.9","","1.6","","92","","11","","16","","8.1","","98.99","","","","","","Rain,Fog"
"2018-04-12 10:00","2018","04","12","10:00","3.2","","1.9","","91","","11","","17","","6.4","","98.85","","","","","","Rain,Fog"
"2018-04-12 11:00","2018","04","12","11:00","3.0","","1.7","","91","","10","","17","","4.8","","98.66","","","","","","Rain,Fog"
"2018-04-12 12:00","2018","04","12","12:00","4.4","","3.2","","92","","11","","13","","6.4","","98.45","","","","","","Fog"
"2018-04-12 13:00","2018","04","12","13:00","6.0","","4.8","","92","","11","","10","","8.1","","98.28","","","","","","Rain Showers,Fog"
"2018-04-12 14:00","2018","04","12","14:00","9.3","","7.7","","90","","15","","12","","9.7","","98.14","","","","","","Fog"
"2018-04-12 15:00","2018","04","12","15:00","9.8","","7.0","","82","","18","","13","","12.9","","98.02","","","","","","NA"
"2018-04-12 16:00","2018","04","12","16:00","11.8","","7.0","","72","","28","","4","","16.1","","97.97","","","","","","Mostly Cloudy"
"2018-04-12 17:00","2018","04","12","17:00","12.9","","7.2","","68","","14","","11","","16.1","","97.96","","","","","","NA"
"2018-04-12 18:00","2018","04","12","18:00","12.1","","6.2","","67","","14","","8","","24.1","","98.02","","","","","","NA"
"2018-04-12 19:00","2018","04","12","19:00","13.5","","7.3","","66","","31","","29","","16.1","","98.21","","","","","","Mostly Cloudy"
"2018-04-12 20:00","2018","04","12","20:00","10.7","","5.8","","71","","30","","28","","16.1","","98.33","","","","","","NA"
"2018-04-12 21:00","2018","04","12","21:00","8.1","","3.1","","71","","31","","28","","16.1","","98.57","","","","","","NA"
"2018-04-12 22:00","2018","04","12","22:00","6.2","","1.9","","74","","32","","23","","19.3","","98.72","","","","","","Mostly Cloudy"
"2018-04-12 23:00","2018","04","12","23:00","5.1","","1.2","","76","","32","","22","","24.1","","98.81","","","","","","NA"
"2018-04-13 00:00","2018","04","13","00:00","4.0","","0.5","","78","","35","","27","","24.1","","98.81","","","","","","NA"
"2018-04-13 01:00","2018","04","13","01:00","3.8","","0.2","","77","","34","","19","","24.1","","98.92","","","","","","Mostly Cloudy"
"2018-04-13 02:00","2018","04","13","02:00","3.4","","-0.4","","76","","35","","16","","24.1","","98.99","","","","","","NA"
"2018-04-13 03:00","2018","04","13","03:00","2.5","","-0.9","","78","","36","","13","","24.1","","99.09","","","","","","NA"
"2018-04-13 04:00","2018","04","13","04:00","2.2","","-0.8","","80","","34","","14","","24.1","","99.21","","","","","","Mostly Cloudy"
"2018-04-13 05:00","2018","04","13","05:00","1.8","","-0.9","","82","","36","","20","","24.1","","99.21","","","","","","NA"
"2018-04-13 06:00","2018","04","13","06:00","1.8","","-0.6","","84","","2","","14","","24.1","","99.28","","","","","","NA"
"2018-04-13 07:00","2018","04","13","07:00","2.0","","-0.3","","85","","4","","13","","24.1","","99.33","","","","","","Cloudy"
"2018-04-13 08:00","2018","04","13","08:00","2.3","","0.0","","85","","6","","9","","24.1","","99.34","","","","","","NA"
"2018-04-13 09:00","2018","04","13","09:00","3.0","","0.7","","85","","6","","9","","24.1","","99.32","","","","","","NA"
"2018-04-13 10:00","2018","04","13","10:00","3.6","","0.8","","82","","3","","9","","24.1","","99.34","","","","","","Mostly Cloudy"
"2018-04-13 11:00","2018","04","13","11:00","4.2","","0.4","","76","","9","","9","","24.1","","99.36","","","","","","Rain"
"2018-04-13 12:00","2018","04","13","12:00","4.3","","1.3","","81","","8","","14","","24.1","","99.25","","","","","","Rain"
"2018-04-13 13:00","2018","04","13","13:00","5.2","","2.2","","81","","8","","13","","24.1","","99.20","","","","","","Rain"
"2018-04-13 14:00","2018","04","13","14:00","5.3","","2.0","","79","","8","","13","","24.1","","99.19","","","","","","NA"
"2018-04-13 15:00","2018","04","13","15:00","5.1","","1.0","","75","","8","","15","","24.1","","99.14","","","","","","NA"
"2018-04-13 16:00","2018","04","13","16:00","4.7","","0.9","","77","","6","","13","","24.1","","99.28","","","","","","Rain"
"2018-04-13 17:00","2018","04","13","17:00","4.7","","2.1","","83","","9","","8","","9.7","","99.26","","","","","","Rain,Fog"
"2018-04-13 18:00","2018","04","13","18:00","4.2","","2.3","","87","","3","","9","","12.9","","99.29","","","","","","NA"
"2018-04-13 19:00","2018","04","13","19:00","4.5","","2.9","","89","","7","","10","","6.4","","99.27","","","","","","Drizzle,Fog"
"2018-04-13 20:00","2018","04","13","20:00","4.6","","3.1","","90","","3","","14","","9.7","","99.48","","","","","","Rain,Fog"
"2018-04-13 21:00","2018","04","13","21:00","3.9","","2.6","","91","","5","","12","","9.7","","99.56","","","","","","Drizzle,Fog"
"2018-04-13 22:00","2018","04","13","22:00","3.9","","2.7","","92","","6","","14","","9.7","","99.38","","","","","","Drizzle,Fog"
"2018-04-13 23:00","2018","04","13","23:00","4.0","","2.9","","92","","5","","14","","9.7","","99.50","","","","","","Drizzle,Fog"
"2018-04-14 00:00","2018","04","14","00:00","3.8","","2.6","","92","","3","","17","","9.7","","99.50","","","","","","Drizzle,Fog"
"2018-04-14 01:00","2018","04","14","01:00","3.6","","2.5","","93","","1","","14","","9.7","","99.57","","","","","","Rain,Fog"
"2018-04-14 02:00","2018","04","14","02:00","3.3","","2.2","","93","","3","","19","","9.7","","99.58","","","","","","Drizzle,Fog"
"2018-04-14 03:00","2018","04","14","03:00","3.3","","2.2","","93","","3","","23","","12.9","","99.64","","","","","","Drizzle"
"2018-04-14 04:00","2018","04","14","04:00","2.9","","1.7","","92","","4","","26","","12.9","","99.69","","","","","","Cloudy"
"2018-04-14 05:00","2018","04","14","05:00","2.6","","1.2","","91","","4","","20","","12.9","","99.72","","","","","","Drizzle"
"2018-04-14 06:00","2018","04","14","06:00","2.1","","0.6","","90","","5","","30","","9.7","","99.77","","","","","","Drizzle,Fog"
"2018-04-14 07:00","2018","04","14","07:00","1.5","","-0.3","","88","","6","","26","","16.1","","99.86","","","","","","Drizzle"
"2018-04-14 08:00","2018","04","14","08:00","1.1","","-1.1","","85","","5","","22","","6.4","","100.12","","","","","","Rain,Fog"
"2018-04-14 09:00","2018","04","14","09:00","0.2","","-2.2","","84","","5","","33","","9.7","","99.99","","","","","","Rain,Ice Pellets,Fog"
"2018-04-14 10:00","2018","04","14","10:00","-0.2","","-2.6","","84","","6","","22","","9.7","","100.03","","","","-6","","Freezing Rain,Ice Pellets,Fog"
"2018-04-14 11:00","2018","04","14","11:00","-0.5","","-2.7","","85","","7","","28","","6.4","","100.05","","","","-7","","Freezing Rain,Ice Pellets,Fog"
"2018-04-14 12:00","2018","04","14","12:00","-0.9","","-2.8","","87","","5","","29","","4.0","","100.04","","","","-8","","Ice Pellets,Fog"
"2018-04-14 13:00","2018","04","14","13:00","-1.3","","-3.1","","88","","7","","22","","6.4","","100.09","","","","-7","","Ice Pellets,Fog"
"2018-04-14 14:00","2018","04","14","14:00","-2.0","","-3.8","","88","","6","","19","","1.6","","100.20","","","","-8","","Ice Pellets,Fog"
"2018-04-14 15:00","2018","04","14","15:00","-2.7","","-4.3","","89","","5","","24","","4.8","","100.18","","","","-9","","Ice Pellets,Fog"
"2018-04-14 16:00","2018","04","14","16:00","-3.4","","-5.1","","88","","5","","26","","3.2","","100.05","","","","-10","","Ice Pellets,Fog"
"2018-04-14 17:00","2018","04","14","17:00","-4.1","","-5.9","","88","","5","","22","","1.6","","100.27","","","","-11","","Ice Pellets,Fog"
"2018-04-14 18:00","2018","04","14","18:00","-4.4","","-6.1","","88","","4","","23","","1.6","","100.32","","","","-11","","Ice Pellets,Fog"
"2018-04-14 19:00","2018","04","14","19:00","-4.4","","-6.2","","87","","3","","30","","6.4","","100.33","","","","-12","","Freezing Rain,Ice Pellets"
"2018-04-14 20:00","2018","04","14","20:00","-4.2","","-6.1","","87","","4","","30","","24.1","","100.33","","","","-12","","NA"
"2018-04-14 21:00","2018","04","14","21:00","-3.9","","-6.3","","84","","6","","23","","24.1","","100.41","","","","-11","","NA"
"2018-04-14 22:00","2018","04","14","22:00","-4.0","","-6.8","","81","","5","","27","","24.1","","100.44","","","","-11","","Cloudy"
"2018-04-14 23:00","2018","04","14","23:00","-4.0","","-7.2","","79","","6","","25","","24.1","","100.37","","","","-11","","NA"
"2018-04-15 00:00","2018","04","15","00:00","-4.1","","-7.7","","76","","6","","26","","24.1","","100.41","","","","-11","","NA"
"2018-04-15 01:00","2018","04","15","01:00","-4.0","","-7.7","","75","","6","","24","","24.1","","100.34","","","","-11","","Cloudy"
"2018-04-15 02:00","2018","04","15","02:00","-3.7","","-7.5","","75","","6","","22","","24.1","","100.27","","","","-10","","NA"
"2018-04-15 03:00","2018","04","15","03:00","-3.5","","-7.2","","75","","6","","20","","24.1","","100.27","","","","-10","","NA"
"2018-04-15 04:00","2018","04","15","04:00","-3.2","","-6.9","","76","","6","","28","","24.1","","100.22","","","","-10","","Cloudy"
"2018-04-15 05:00","2018","04","15","05:00","-3.2","","-6.8","","76","","8","","26","","24.1","","100.12","","","","-10","","NA"
"2018-04-15 06:00","2018","04","15","06:00","-3.1","","-6.5","","78","","8","","23","","16.1","","100.13","","","","-10","","Ice Pellets"
"2018-04-15 07:00","2018","04","15","07:00","-3.3","","-6.0","","81","","7","","18","","2.4","","100.14","","","","-9","","Ice Pellets"
"2018-04-15 08:00","2018","04","15","08:00","-3.4","","-5.7","","84","","8","","25","","2.8","","100.13","","","","-10","","Ice Pellets"
"2018-04-15 09:00","2018","04","15","09:00","-2.9","","-5.0","","86","","6","","19","","4.0","","100.04","","","","-9","","Ice Pellets"
"2018-04-15 10:00","2018","04","15","10:00","-2.3","","-4.3","","86","","7","","22","","3.2","","99.93","","","","-8","","Ice Pellets"
"2018-04-15 11:00","2018","04","15","11:00","-1.2","","-3.3","","86","","7","","34","","4.8","","99.84","","","","-8","","Ice Pellets"
"2018-04-15 12:00","2018","04","15","12:00","-1.0","","-3.1","","86","","8","","37","","4.8","","99.75","","","","-8","","Ice Pellets"
"2018-04-15 13:00","2018","04","15","13:00","-1.1","","-3.2","","85","","9","","33","","4.8","","99.65","","","","-8","","Ice Pellets"
"2018-04-15 14:00","2018","04","15","14:00","-1.0","","-3.2","","85","","8","","35","","8.1","","99.48","","","","-8","","Ice Pellets"
"2018-04-15 15:00","2018","04","15","15:00","-0.8","","-2.9","","86","","9","","35","","16.1","","99.47","","","","-8","","Freezing Drizzle,Ice Pellets"
"2018-04-15 16:00","2018","04","15","16:00","-0.7","","-2.6","","87","","8","","38","","8.1","","99.41","","","","-8","","Freezing Rain"
"2018-04-15 17:00","2018","04","15","17:00","-0.7","","-2.5","","88","","9","","40","","8.1","","99.31","","","","-8","","Freezing Rain"
"2018-04-15 18:00","2018","04","15","18:00","-0.6","","-2.4","","88","","8","","34","","24.1","","99.18","","","","-8","","Freezing Rain"
"2018-04-15 19:00","2018","04","15","19:00","-0.5","","-2.1","","89","","8","","32","","9.7","","99.11","","","","-7","","Freezing Rain"
"2018-04-15 20:00","2018","04","15","20:00","-0.2","","-1.6","","90","","8","","31","","9.7","","99.04","","","","-7","","Freezing Rain"
"2018-04-15 21:00","2018","04","15","21:00","0.1","","-1.3","","90","","9","","40","","6.4","","98.98","","","","","","Rain"
"2018-04-15 22:00","2018","04","15","22:00","0.4","","-1.0","","90","","8","","41","","8.1","","98.89","","","","","","Rain"
"2018-04-15 23:00","2018","04","15","23:00","0.6","","-0.8","","91","","9","","35","","12.9","","98.80","","","","","","Rain"
"2018-04-16 00:00","2018","04","16","00:00","0.7","","-0.6","","91","","9","","36","","11.3","","98.71","","","","","","Rain"
"2018-04-16 01:00","2018","04","16","01:00","0.8","","-0.5","","91","","9","","37","","11.3","","98.60","","","","","","Rain"
"2018-04-16 02:00","2018","04","16","02:00","0.9","","-0.4","","91","","8","","32","","11.3","","98.47","","","","","","Rain"
"2018-04-16 03:00","2018","04","16","03:00","1.0","","-0.3","","92","","9","","37","","11.3","","98.29","","","","","","Rain"
"2018-04-16 04:00","2018","04","16","04:00","1.0","","0.1","","94","","9","","34","","4.8","","98.22","","","","","","Rain,Fog"
"2018-04-16 05:00","2018","04","16","05:00","1.2","","0.5","","95","","9","","37","","6.4","","98.16","","","","","","Rain"
"2018-04-16 06:00","2018","04","16","06:00","1.3","","0.6","","95","","8","","31","","6.4","","98.02","","","","","","Rain,Fog"
"2018-04-16 07:00","2018","04","16","07:00","1.5","","0.9","","95","","8","","28","","6.4","","97.96","","","","","","Rain,Fog"
"2018-04-16 08:00","2018","04","16","08:00","1.7","","1.0","","95","","9","","24","","9.7","","98.01","","","","","","Rain,Fog"
"2018-04-16 09:00","2018","04","16","09:00","1.9","","1.2","","95","","9","","26","","9.7","","97.95","","","","","","Rain,Fog"
"2018-04-16 10:00","2018","04","16","10:00","2.2","","1.5","","95","","10","","18","","8.1","","97.96","","","","","","Rain,Fog"
"2018-04-16 11:00","2018","04","16","11:00","2.5","","1.8","","95","","9","","12","","8.1","","97.90","","","","","","Rain,Fog"
"2018-04-16 12:00","2018","04","16","12:00","2.6","","1.9","","95","","9","","3","","8.1","","97.86","","","","","","Rain,Fog"
"2018-04-16 13:00","2018","04","16","13:00","2.6","","1.8","","94","","28","","7","","16.1","","97.87","","","","","","Rain"
"2018-04-16 14:00","2018","04","16","14:00","2.3","","1.4","","94","","27","","18","","12.9","","97.87","","","","","","Rain"
"2018-04-16 15:00","2018","04","16","15:00","2.1","","1.2","","93","","27","","23","","12.9","","97.87","","","","","","Rain"
"2018-04-16 16:00","2018","04","16","16:00","1.9","","0.8","","92","","27","","24","","12.9","","97.93","","","","","","Rain"
"2018-04-16 17:00","2018","04","16","17:00","2.1","","0.8","","91","","27","","20","","19.3","","98.00","","","","","","Rain"
"2018-04-16 18:00","2018","04","16","18:00","2.2","","0.5","","89","","26","","27","","24.1","","98.02","","","","","","Rain"
"2018-04-16 19:00","2018","04","16","19:00","2.3","","0.0","","85","","28","","27","","24.1","","98.04","","","","","","Cloudy"
"2018-04-16 20:00","2018","04","16","20:00","2.1","","-0.6","","82","","27","","16","","24.1","","98.05","","","","","","NA"
"2018-04-16 21:00","2018","04","16","21:00","1.9","","-1.2","","80","","26","","18","","24.1","","98.09","","","","","","Rain,Snow"
"2018-04-16 22:00","2018","04","16","22:00","1.6","","-1.2","","81","","28","","17","","24.1","","98.09","","","","","","Rain,Snow"
"2018-04-16 23:00","2018","04","16","23:00","1.4","","-1.8","","80","","28","","22","","24.1","","98.13","","","","","","NA"
"2018-04-17 00:00","2018","04","17","00:00","1.1","","-2.2","","78","","27","","18","","24.1","","98.14","","","","","","NA"
"2018-04-17 01:00","2018","04","17","01:00","1.0","","-2.4","","78","","27","","19","","24.1","","98.16","","","","","","Cloudy"
"2018-04-17 02:00","2018","04","17","02:00","0.5","","-3.2","","76","","27","","35","","24.1","","98.17","","","","","","NA"
"2018-04-17 03:00","2018","04","17","03:00","-0.2","","-4.0","","75","","28","","24","","24.1","","98.20","","","","-6","","NA"
"2018-04-17 04:00","2018","04","17","04:00","-0.7","","-5.1","","72","","28","","35","","24.1","","98.22","","","","-8","","Mostly Cloudy"
"2018-04-17 05:00","2018","04","17","05:00","-1.0","","-5.6","","71","","25","","31","","24.1","","98.24","","","","-8","","NA"
"2018-04-17 06:00","2018","04","17","06:00","-1.2","","-5.8","","71","","26","","23","","24.1","","98.27","","","","-7","","Snow Showers"
"2018-04-17 07:00","2018","04","17","07:00","-1.1","","-6.3","","68","","26","","33","","24.1","","98.29","","","","-8","","Mostly Cloudy"
"2018-04-17 08:00","2018","04","17","08:00","-0.9","","-7.2","","63","","27","","30","","24.1","","98.28","","","","-8","","NA"
"2018-04-17 09:00","2018","04","17","09:00","-0.1","","-6.6","","62","","27","","28","","24.1","","98.24","","","","-6","","NA"
"2018-04-17 10:00","2018","04","17","10:00","-0.2","","-6.5","","62","","27","","31","","24.1","","98.23","","","","-7","","Cloudy"
"2018-04-17 11:00","2018","04","17","11:00","-0.5","","-6.7","","63","","28","","29","","19.3","","98.24","","","","-7","","Snow Showers"
"2018-04-17 12:00","2018","04","17","12:00","-1.0","","-5.8","","70","","27","","24","","6.4","","98.26","","","","-7","","Snow"
"2018-04-17 13:00","2018","04","17","13:00","-1.4","","-4.9","","77","","27","","15","","4.8","","98.29","","","","-6","","Snow"
"2018-04-17 14:00","2018","04","17","14:00","-0.3","","-4.6","","73","","26","","29","","19.3","","98.31","","","","-7","","Snow"
"2018-04-17 15:00","2018","04","17","15:00","0.2","","-4.7","","70","","26","","23","","24.1","","98.33","","","","","","NA"
"2018-04-17 16:00","2018","04","17","16:00","0.7","","-5.2","","64","","26","","26","","24.1","","98.34","","","","","","Mostly Cloudy"
"2018-04-17 17:00","2018","04","17","17:00","0.9","","-5.1","","64","","27","","34","","24.1","","98.38","","","","","","NA"
"2018-04-17 18:00","2018","04","17","18:00","0.9","","-4.6","","66","","25","","23","","24.1","","98.40","","","","","","NA"
"2018-04-17 19:00","2018","04","17","19:00","0.4","","-4.1","","72","","26","","27","","19.3","","98.46","","","","","","Snow Showers"
"2018-04-17 20:00","2018","04","17","20:00","0.5","","-3.1","","77","","26","","30","","24.1","","98.50","","","","","","Snow Showers"
"2018-04-17 21:00","2018","04","17","21:00","0.8","","-2.5","","79","","27","","25","","24.1","","98.55","","","","","","Snow Showers"
"2018-04-17 22:00","2018","04","17","22:00","1.0","","-2.4","","78","","28","","30","","24.1","","98.59","","","","","","Mostly Cloudy"
"2018-04-17 23:00","2018","04","17","23:00","1.0","","-2.6","","77","","28","","34","","24.1","","98.60","","","","","","Snow"
"2018-04-18 00:00","2018","04","18","00:00","1.0","","-2.8","","76","","28","","31","","24.1","","98.66","","","","","","NA"
"2018-04-18 01:00","2018","04","18","01:00","0.8","","-3.1","","75","","29","","28","","24.1","","98.65","","","","","","Mostly Cloudy"
"2018-04-18 02:00","2018","04","18","02:00","0.6","","-3.2","","76","","28","","21","","24.1","","98.68","","","","","","NA"
"2018-04-18 03:00","2018","04","18","03:00","0.1","","-3.5","","77","","28","","27","","24.1","","98.70","","","","","","NA"
"2018-04-18 04:00","2018","04","18","04:00","0.2","","-3.3","","77","","27","","28","","24.1","","98.71","","","","","","Mostly Cloudy"
"2018-04-18 05:00","2018","04","18","05:00","0.3","","-3.1","","78","","27","","27","","24.1","","98.73","","","","","","NA"
"2018-04-18 06:00","2018","04","18","06:00","0.6","","-2.8","","78","","30","","18","","24.1","","98.81","","","","","","NA"
"2018-04-18 07:00","2018","04","18","07:00","1.3","","-2.3","","77","","27","","16","","24.1","","98.81","","","","","","Mostly Cloudy"
"2018-04-18 08:00","2018","04","18","08:00","2.4","","-1.9","","73","","28","","22","","24.1","","98.80","","","","","","NA"
"2018-04-18 09:00","2018","04","18","09:00","3.1","","-2.6","","66","","30","","25","","24.1","","98.81","","","","","","NA"
"2018-04-18 10:00","2018","04","18","10:00","2.6","","-2.8","","67","","28","","25","","24.1","","98.84","","","","","","Cloudy"
"2018-04-18 11:00","2018","04","18","11:00","2.9","","-2.8","","66","","26","","23","","24.1","","98.87","","","","","","NA"
"2018-04-18 12:00","2018","04","18","12:00","2.9","","-2.5","","67","","27","","23","","24.1","","98.88","","","","","","NA"
"2018-04-18 13:00","2018","04","18","13:00","3.0","","-2.4","","68","","27","","20","","24.1","","98.86","","","","","","Cloudy"
"2018-04-18 14:00","2018","04","18","14:00","3.2","","-2.4","","67","","27","","19","","24.1","","98.85","","","","","","NA"
"2018-04-18 15:00","2018","04","18","15:00","3.1","","-2.6","","66","","27","","22","","24.1","","98.88","","","","","","NA"
"2018-04-18 16:00","2018","04","18","16:00","3.0","","-2.8","","66","","28","","27","","24.1","","98.87","","","","","","Cloudy"
"2018-04-18 17:00","2018","04","18","17:00","2.8","","-2.9","","66","","28","","25","","24.1","","98.86","","","","","","NA"
"2018-04-18 18:00","2018","04","18","18:00","2.6","","-2.8","","67","","28","","21","","24.1","","98.85","","","","","","NA"
"2018-04-18 19:00","2018","04","18","19:00","2.4","","-3.1","","67","","32","","16","","24.1","","98.79","","","","","","Cloudy"
"2018-04-18 20:00","2018","04","18","20:00","1.7","","-2.7","","73","","35","","12","","24.1","","98.92","","","","","","NA"
"2018-04-18 21:00","2018","04","18","21:00","1.6","","-3.2","","70","","28","","17","","24.1","","99.03","","","","","","NA"
"2018-04-18 22:00","2018","04","18","22:00","1.4","","-3.7","","69","","28","","14","","24.1","","98.94","","","","","","Mostly Cloudy"
"2018-04-18 23:00","2018","04","18","23:00","1.5","","-3.5","","69","","32","","15","","24.1","","98.82","","","","","","NA"
"2018-04-19 00:00","2018","04","19","00:00","1.3","","-4.0","","68","","34","","23","","24.1","","98.69","","","","","","NA"
"2018-04-19 01:00","2018","04","19","01:00","1.0","","-3.9","","70","","34","","16","","24.1","","98.74","","","","","","Mostly Cloudy"
"2018-04-19 02:00","2018","04","19","02:00","1.0","","-3.6","","72","","34","","18","","24.1","","98.82","","","","","","NA"
"2018-04-19 03:00","2018","04","19","03:00","0.6","","-3.9","","72","","34","","22","","24.1","","98.89","","","","","","NA"
"2018-04-19 04:00","2018","04","19","04:00","0.4","","-4.9","","67","","34","","24","","24.1","","98.86","","","","","","Cloudy"
"2018-04-19 05:00","2018","04","19","05:00","0.3","","-5.9","","63","","36","","23","","24.1","","98.89","","","","","","NA"
"2018-04-19 06:00","2018","04","19","06:00","0.3","","-6.2","","62","","36","","20","","24.1","","98.95","","","","","","NA"
"2018-04-19 07:00","2018","04","19","07:00","-0.1","","-6.0","","64","","35","","25","","24.1","","99.05","","","","-6","","Cloudy"
"2018-04-19 08:00","2018","04","19","08:00","0.7","","-5.3","","64","","34","","29","","24.1","","99.14","","","","","","NA"
"2018-04-19 09:00","2018","04","19","09:00","1.1","","-5.4","","62","","35","","27","","24.1","","99.22","","","","","","NA"
"2018-04-19 10:00","2018","04","19","10:00","1.0","","-4.9","","65","","34","","32","","24.1","","99.30","","","","","","Snow"
"2018-04-19 11:00","2018","04","19","11:00","1.9","","-3.9","","65","","34","","26","","24.1","","99.36","","","","","","NA"
"2018-04-19 12:00","2018","04","19","12:00","2.5","","-4.3","","61","","33","","27","","24.1","","99.45","","","","","","NA"
"2018-04-19 13:00","2018","04","19","13:00","2.6","","-4.7","","59","","33","","25","","24.1","","99.50","","","","","","Mostly Cloudy"
"2018-04-19 14:00","2018","04","19","14:00","2.7","","-4.7","","58","","32","","37","","24.1","","99.57","","","","","","NA"
"2018-04-19 15:00","2018","04","19","15:00","2.5","","-5.3","","56","","32","","35","","24.1","","99.62","","","","","","NA"
"2018-04-19 16:00","2018","04","19","16:00","2.9","","-5.3","","55","","35","","31","","24.1","","99.67","","","","","","Mostly Cloudy"
"2018-04-19 17:00","2018","04","19","17:00","3.0","","-5.6","","53","","33","","36","","24.1","","99.76","","","","","","NA"
"2018-04-19 18:00","2018","04","19","18:00","2.6","","-6.7","","50","","34","","30","","24.1","","99.86","","","","","","NA"
"2018-04-19 19:00","2018","04","19","19:00","2.3","","-7.0","","50","","34","","27","","24.1","","99.93","","","","","","Mostly Cloudy"
"2018-04-19 20:00","2018","04","19","20:00","2.3","","-6.8","","51","","32","","26","","24.1","","100.03","","","","","","NA"
"2018-04-19 21:00","2018","04","19","21:00","1.9","","-6.6","","54","","30","","19","","24.1","","100.09","","","","","","NA"
"2018-04-19 22:00","2018","04","19","22:00","1.0","","-5.6","","61","","31","","16","","24.1","","100.14","","","","","","Mainly Clear"
"2018-04-19 23:00","2018","04","19","23:00","0.7","","-5.7","","63","","35","","15","","24.1","","100.18","","","","","","NA"
"2018-04-20 00:00","2018","04","20","00:00","0.4","","-6.3","","61","","34","","24","","24.1","","100.24","","","","","","NA"
"2018-04-20 01:00","2018","04","20","01:00","-0.4","","-6.9","","62","","33","","22","","24.1","","100.28","","","","-6","","Clear"
"2018-04-20 02:00","2018","04","20","02:00","-1.1","","-7.5","","62","","32","","21","","24.1","","100.33","","","","-7","","NA"
"2018-04-20 03:00","2018","04","20","03:00","-1.6","","-7.5","","64","","32","","17","","24.1","","100.35","","","","-7","","NA"
"2018-04-20 04:00","2018","04","20","04:00","-1.0","","-6.7","","65","","31","","22","","24.1","","100.41","","","","-7","","Clear"
"2018-04-20 05:00","2018","04","20","05:00","-1.6","","-7.1","","66","","30","","19","","24.1","","100.48","","","","-7","","NA"
"2018-04-20 06:00","2018","04","20","06:00","-1.1","","-6.5","","67","","32","","23","","24.1","","100.53","","","","-7","","NA"
"2018-04-20 07:00","2018","04","20","07:00","0.0","","-6.2","","64","","35","","27","","24.1","","100.62","","","","-6","","Clear"
"2018-04-20 08:00","2018","04","20","08:00","0.7","","-6.6","","58","","35","","33","","24.1","","100.68","","","","","","NA"
"2018-04-20 09:00","2018","04","20","09:00","2.0","","-6.2","","55","","33","","25","","24.1","","100.76","","","","","","NA"
"2018-04-20 10:00","2018","04","20","10:00","3.1","","-5.8","","52","","32","","22","","24.1","","100.84","","","","","","Mainly Clear"
"2018-04-20 11:00","2018","04","20","11:00","4.0","","-4.9","","52","","32","","25","","24.1","","100.85","","","","","","NA"
"2018-04-20 12:00","2018","04","20","12:00","4.6","","-5.1","","49","","35","","23","","24.1","","100.83","","","","","","NA"
"2018-04-20 13:00","2018","04","20","13:00","5.9","","-4.4","","48","","34","","26","","24.1","","100.81","","","","","","Mainly Clear"
"2018-04-20 14:00","2018","04","20","14:00","6.5","","-5.3","","43","","32","","21","","24.1","","100.84","","","","","","NA"
"2018-04-20 15:00","2018","04","20","15:00","7.2","","-5.2","","41","","35","","13","","24.1","","100.83","","","","","","NA"
"2018-04-20 16:00","2018","04","20","16:00","7.8","","-4.5","","42","","29","","15","","24.1","","100.85","","","","","","Clear"
"2018-04-20 17:00","2018","04","20","17:00","7.0","","-4.3","","44","","1","","23","","24.1","","100.86","","","","","","NA"
"2018-04-20 18:00","2018","04","20","18:00","5.8","","-4.2","","49","","1","","21","","24.1","","100.88","","","","","","NA"
"2018-04-20 19:00","2018","04","20","19:00","4.5","","-4.8","","51","","36","","16","","24.1","","100.92","","","","","","Clear"
"2018-04-20 20:00","2018","04","20","20:00","4.0","","-5.5","","50","","35","","15","","24.1","","100.96","","","","","","NA"
"2018-04-20 21:00","2018","04","20","21:00","3.1","","-5.3","","54","","34","","10","","24.1","","100.95","","","","","","NA"
"2018-04-20 22:00","2018","04","20","22:00","2.4","","-5.0","","58","","32","","9","","24.1","","100.91","","","","","","Clear"
"2018-04-20 23:00","2018","04","20","23:00","1.5","","-5.1","","61","","28","","9","","24.1","","100.95","","","","","","NA"
"2018-04-21 00:00","2018","04","21","00:00","1.0","","-5.0","","65","","31","","12","","24.1","","101.00","","","","","","NA"
"2018-04-21 01:00","2018","04","21","01:00","-1.2","","-6.8","","66","","27","","7","","24.1","","101.02","","","","-4","","Mainly Clear"
"2018-04-21 02:00","2018","04","21","02:00","0.3","","-5.2","","66","","31","","10","","24.1","","100.99","","","","","","NA"
"2018-04-21 03:00","2018","04","21","03:00","-0.3","","-5.6","","67","","33","","8","","24.1","","101.01","","","","-3","","NA"
"2018-04-21 04:00","2018","04","21","04:00","0.3","","-5.4","","66","","35","","5","","24.1","","100.97","","","","","","Clear"
"2018-04-21 05:00","2018","04","21","05:00","-1.1","","-6.7","","66","","30","","5","","24.1","","100.94","","","","-3","","NA"
"2018-04-21 06:00","2018","04","21","06:00","0.5","","-5.7","","63","","34","","4","","24.1","","101.00","","","","","","NA"
"2018-04-21 07:00","2018","04","21","07:00","2.7","","-4.0","","61","","25","","4","","24.1","","101.10","","","","","","Mostly Cloudy"
"2018-04-21 08:00","2018","04","21","08:00","5.8","","-5.5","","44","","24","","3","","24.1","","101.12","","","","","","NA"
"2018-04-21 09:00","2018","04","21","09:00","8.1","","-5.1","","39","","27","","3","","24.1","","101.10","","","","","","NA"
"2018-04-21 10:00","2018","04","21","10:00","10.0","","-8.1","","27","","30","","10","","24.1","","101.05","","","","","","Mainly Clear"
"2018-04-21 11:00","2018","04","21","11:00","11.1","","-7.5","","26","","27","","8","","24.1","","101.01","","","","","","NA"
"2018-04-21 12:00","2018","04","21","12:00","11.9","","-6.6","","27","","29","","3","","24.1","","100.94","","","","","","NA"
"2018-04-21 13:00","2018","04","21","13:00","13.0","","-6.3","","25","","28","","15","","24.1","","100.91","","","","","","Mainly Clear"
"2018-04-21 14:00","2018","04","21","14:00","13.1","","-7.0","","24","","27","","9","","24.1","","100.87","","","","","","NA"
"2018-04-21 15:00","2018","04","21","15:00","13.7","","-6.3","","24","","31","","19","","24.1","","100.80","","","","","","NA"
"2018-04-21 16:00","2018","04","21","16:00","13.3","","-7.2","","23","","32","","13","","24.1","","100.76","","","","","","Mainly Clear"
"2018-04-21 17:00","2018","04","21","17:00","13.6","","-6.7","","24","","30","","16","","24.1","","100.77","","","","","","NA"
"2018-04-21 18:00","2018","04","21","18:00","12.8","","-7.4","","24","","32","","21","","24.1","","100.77","","","","","","NA"
"2018-04-21 19:00","2018","04","21","19:00","11.1","","-7.2","","27","","30","","17","","24.1","","100.79","","","","","","Mainly Clear"
"2018-04-21 20:00","2018","04","21","20:00","9.6","","-5.6","","34","","31","","12","","24.1","","100.83","","","","","","NA"
"2018-04-21 21:00","2018","04","21","21:00","8.6","","-5.8","","36","","35","","12","","24.1","","100.87","","","","","","NA"
"2018-04-21 22:00","2018","04","21","22:00","7.3","","-5.3","","40","","32","","11","","24.1","","100.88","","","","","","Clear"
"2018-04-21 23:00","2018","04","21","23:00","6.0","","-4.2","","48","","32","","11","","24.1","","100.87","","","","","","NA"
"2018-04-22 00:00","2018","04","22","00:00","3.2","","-4.3","","58","","31","","5","","24.1","","100.88","","","","","","NA"
"2018-04-22 01:00","2018","04","22","01:00","5.2","","-4.4","","50","","34","","6","","24.1","","100.88","","","","","","Clear"
"2018-04-22 02:00","2018","04","22","02:00","4.6","","-5.4","","48","","35","","12","","24.1","","100.84","","","","","","NA"
"2018-04-22 03:00","2018","04","22","03:00","3.8","","-4.8","","54","","33","","10","","24.1","","100.84","","","","","","NA"
"2018-04-22 04:00","2018","04","22","04:00","1.9","","-4.6","","62","","32","","9","","24.1","","100.87","","","","","","Clear"
"2018-04-22 05:00","2018","04","22","05:00","0.8","","-5.7","","62","","30","","8","","24.1","","100.89","","","","","","NA"
"2018-04-22 06:00","2018","04","22","06:00","2.5","","-5.0","","58","","29","","8","","24.1","","100.93","","","","","","NA"
"2018-04-22 07:00","2018","04","22","07:00","5.1","","-3.1","","55","","31","","7","","24.1","","100.98","","","","","","Clear"
"2018-04-22 08:00","2018","04","22","08:00","8.3","","-4.5","","40","","30","","8","","24.1","","101.04","","","","","","NA"
"2018-04-22 09:00","2018","04","22","09:00","10.9","","-6.7","","28","","34","","5","","24.1","","101.04","","","","","","NA"
"2018-04-22 10:00","2018","04","22","10:00","12.2","","-7.2","","25","","36","","4","","24.1","","101.05","","","","","","Clear"
"2018-04-22 11:00","2018","04","22","11:00","13.7","","-7.5","","22","","36","","2","","24.1","","101.01","","","","","","NA"
"2018-04-22 12:00","2018","04","22","12:00","14.7","","-5.0","","25","","17","","12","","24.1","","100.95","","","","","","NA"
"2018-04-22 13:00","2018","04","22","13:00","15.1","","-5.1","","24","","24","","6","","24.1","","100.89","","","","","","Clear"
"2018-04-22 14:00","2018","04","22","14:00","16.0","","-4.6","","24","","19","","18","","24.1","","100.83","","","","","","NA"
"2018-04-22 15:00","2018","04","22","15:00","16.2","","-5.6","","22","","13","","15","","24.1","","100.77","","","","","","NA"
"2018-04-22 16:00","2018","04","22","16:00","15.0","","-8.0","","20","","17","","18","","24.1","","100.73","","","","","","Clear"
"2018-04-22 17:00","2018","04","22","17:00","14.1","","-9.1","","19","","14","","15","","24.1","","100.74","","","","","","NA"
"2018-04-22 18:00","2018","04","22","18:00","13.9","","-8.3","","20","","15","","10","","24.1","","100.73","","","","","","NA"
"2018-04-22 19:00","2018","04","22","19:00","12.6","","-10.2","","19","","13","","9","","24.1","","100.75","","","","","","Mainly Clear"
"2018-04-22 20:00","2018","04","22","20:00","12.0","","-10.3","","20","","6","","3","","24.1","","100.81","","","","","","NA"
"2018-04-22 21:00","2018","04","22","21:00","11.4","","-9.7","","22","","7","","5","","24.1","","100.82","","","","","","NA"
"2018-04-22 22:00","2018","04","22","22:00","9.5","","-6.3","","32","","2","","8","","24.1","","100.81","","","","","","Clear"
"2018-04-22 23:00","2018","04","22","23:00","8.1","","-6.3","","35","","33","","6","","24.1","","100.80","","","","","","NA"
"2018-04-23 00:00","2018","04","23","00:00","6.3","","-4.5","","46","","36","","10","","24.1","","100.82","","","","","","NA"
"2018-04-23 01:00","2018","04","23","01:00","5.4","","-4.0","","51","","3","","10","","24.1","","100.76","","","","","","Clear"
"2018-04-23 02:00","2018","04","23","02:00","4.2","","-3.6","","57","","2","","4","","24.1","","100.75","","","","","","NA"
"2018-04-23 03:00","2018","04","23","03:00","3.3","","-4.4","","57","","22","","5","","24.1","","100.80","","","","","","NA"
"2018-04-23 04:00","2018","04","23","04:00","3.1","","-4.7","","57","","35","","7","","24.1","","100.80","","","","","","Clear"
"2018-04-23 05:00","2018","04","23","05:00","2.8","","-4.2","","60","","1","","10","","24.1","","100.81","","","","","","NA"
"2018-04-23 06:00","2018","04","23","06:00","3.4","","-3.8","","59","","3","","14","","24.1","","100.83","","","","","","NA"
"2018-04-23 07:00","2018","04","23","07:00","6.9","","-2.8","","50","","2","","5","","24.1","","100.86","","","","","","Mainly Clear"
"2018-04-23 08:00","2018","04","23","08:00","11.0","","-4.7","","33","","10","","10","","24.1","","100.87","","","","","","NA"
"2018-04-23 09:00","2018","04","23","09:00","13.4","","-6.2","","25","","13","","13","","24.1","","100.84","","","","","","NA"
"2018-04-23 10:00","2018","04","23","10:00","14.0","","-6.0","","24","","11","","14","","24.1","","100.80","","","","","","Mainly Clear"
"2018-04-23 11:00","2018","04","23","11:00","15.0","","-5.3","","24","","15","","15","","24.1","","100.73","","","","","","NA"
"2018-04-23 12:00","2018","04","23","12:00","15.4","","-3.8","","26","","14","","16","","24.1","","100.66","","","","","","NA"
"2018-04-23 13:00","2018","04","23","13:00","17.5","","-2.0","","26","","12","","14","","24.1","","100.57","","","","","","Mainly Clear"
"2018-04-23 14:00","2018","04","23","14:00","17.3","","-5.3","","21","","8","","18","","24.1","","100.50","","","","","","NA"
"2018-04-23 15:00","2018","04","23","15:00","17.9","","-5.7","","19","","10","","16","","24.1","","100.40","","","","","","NA"
"2018-04-23 16:00","2018","04","23","16:00","17.2","","-6.1","","20","","10","","21","","24.1","","100.36","","","","","","Mainly Clear"
"2018-04-23 17:00","2018","04","23","17:00","16.7","","-7.0","","19","","11","","23","","24.1","","100.29","","","","","","NA"
"2018-04-23 18:00","2018","04","23","18:00","15.4","","-7.5","","20","","9","","17","","24.1","","100.24","","","","","","NA"
"2018-04-23 19:00","2018","04","23","19:00","14.0","","-7.8","","21","","8","","10","","24.1","","100.26","","","","","","Mostly Cloudy"
"2018-04-23 20:00","2018","04","23","20:00","13.1","","-8.1","","22","","7","","9","","24.1","","100.28","","","","","","NA"
"2018-04-23 21:00","2018","04","23","21:00","12.6","","-7.5","","24","","5","","6","","24.1","","100.26","","","","","","NA"
"2018-04-23 22:00","2018","04","23","22:00","12.4","","-7.4","","24","","3","","7","","24.1","","100.19","","","","","","Cloudy"
"2018-04-23 23:00","2018","04","23","23:00","11.7","","-6.2","","28","","18","","4","","24.1","","100.18","","","","","","NA"
"2018-04-24 00:00","2018","04","24","00:00","10.9","","-6.7","","28","","15","","7","","24.1","","100.15","","","","","","NA"
"2018-04-24 01:00","2018","04","24","01:00","8.7","","-4.3","","39","","36","","2","","24.1","","100.13","","","","","","Cloudy"
"2018-04-24 02:00","2018","04","24","02:00","8.7","","-3.5","","42","","36","","3","","24.1","","100.11","","","","","","NA"
"2018-04-24 03:00","2018","04","24","03:00","8.0","","-2.9","","46","","13","","4","","24.1","","100.09","","","","","","NA"
"2018-04-24 04:00","2018","04","24","04:00","7.4","","-1.9","","51","","22","","5","","24.1","","100.10","","","","","","Mostly Cloudy"
"2018-04-24 05:00","2018","04","24","05:00","7.1","","-1.2","","55","","15","","5","","24.1","","100.10","","","","","","NA"
"2018-04-24 06:00","2018","04","24","06:00","6.9","","-0.5","","59","","15","","8","","24.1","","100.14","","","","","","NA"
"2018-04-24 07:00","2018","04","24","07:00","9.4","","1.4","","57","","23","","5","","24.1","","100.17","","","","","","Mostly Cloudy"
"2018-04-24 08:00","2018","04","24","08:00","12.0","","2.1","","51","","20","","7","","19.3","","100.17","","","","","","NA"
"2018-04-24 09:00","2018","04","24","09:00","13.6","","5.4","","57","","20","","23","","24.1","","100.18","","","","","","NA"
"2018-04-24 10:00","2018","04","24","10:00","14.0","","5.9","","58","","18","","8","","24.1","","100.13","","","","","","Cloudy"
"2018-04-24 11:00","2018","04","24","11:00","15.4","","6.8","","56","","14","","10","","24.1","","100.05","","","","","","NA"
"2018-04-24 12:00","2018","04","24","12:00","15.5","","6.6","","55","","15","","13","","24.1","","100.00","","","","","","NA"
"2018-04-24 13:00","2018","04","24","13:00","15.4","","5.2","","50","","17","","13","","24.1","","99.98","","","","","","Cloudy"
"2018-04-24 14:00","2018","04","24","14:00","15.9","","4.8","","47","","18","","12","","24.1","","99.92","","","","","","NA"
"2018-04-24 15:00","2018","04","24","15:00","16.6","","4.7","","45","","17","","14","","24.1","","99.84","","","","","","NA"
"2018-04-24 16:00","2018","04","24","16:00","15.1","","4.3","","48","","17","","17","","24.1","","99.81","","","","","","Cloudy"
"2018-04-24 17:00","2018","04","24","17:00","9.8","","3.6","","65","","15","","13","","24.1","","99.84","","","","","","NA"
"2018-04-24 18:00","2018","04","24","18:00","9.2","","4.4","","72","","13","","9","","17.7","","99.81","","","","","","Rain"
"2018-04-24 19:00","2018","04","24","19:00","9.0","","6.3","","83","","12","","5","","16.1","","99.78","","","","","","Rain"
"2018-04-24 20:00","2018","04","24","20:00","9.4","","7.6","","88","","4","","7","","9.7","","99.76","","","","","","Rain,Fog"
"2018-04-24 21:00","2018","04","24","21:00","10.0","","8.5","","91","","6","","5","","8.1","","99.76","","","","","","Rain,Fog"
"2018-04-24 22:00","2018","04","24","22:00","10.3","","9.1","","92","","9","","5","","8.1","","99.71","","","","","","Rain,Fog"
"2018-04-24 23:00","2018","04","24","23:00","10.1","","9.1","","93","","12","","11","","6.4","","99.65","","","","","","Rain,Fog"
"2018-04-25 00:00","2018","04","25","00:00","10.0","","9.1","","94","","11","","13","","8.1","","99.56","","","","","","Rain,Fog"
"2018-04-25 01:00","2018","04","25","01:00","9.7","","8.8","","94","","10","","13","","8.1","","99.50","","","","","","Rain,Fog"
"2018-04-25 02:00","2018","04","25","02:00","9.5","","8.6","","94","","10","","13","","9.7","","99.40","","","","","","Rain,Fog"
"2018-04-25 03:00","2018","04","25","03:00","9.2","","8.3","","94","","10","","19","","9.7","","99.33","","","","","","Rain,Fog"
"2018-04-25 04:00","2018","04","25","04:00","9.1","","8.2","","94","","10","","14","","9.7","","99.28","","","","","","Rain,Fog"
"2018-04-25 05:00","2018","04","25","05:00","8.8","","8.0","","94","","10","","13","","8.1","","99.24","","","","","","Rain,Fog"
"2018-04-25 06:00","2018","04","25","06:00","8.7","","7.9","","94","","10","","15","","6.4","","99.22","","","","","","Rain,Fog"
"2018-04-25 07:00","2018","04","25","07:00","8.4","","7.6","","95","","10","","14","","6.4","","99.18","","","","","","Rain,Fog"
"2018-04-25 08:00","2018","04","25","08:00","8.7","","7.9","","95","","9","","7","","8.1","","99.11","","","","","","Rain,Fog"
"2018-04-25 09:00","2018","04","25","09:00","8.8","","8.0","","95","","7","","8","","9.7","","99.06","","","","","","Rain"
"2018-04-25 10:00","2018","04","25","10:00","9.2","","8.4","","95","","8","","5","","8.1","","99.03","","","","","","Rain"
"2018-04-25 11:00","2018","04","25","11:00","9.3","","8.5","","95","","3","","6","","9.7","","98.96","","","","","","Rain"
"2018-04-25 12:00","2018","04","25","12:00","10.1","","9.2","","94","","2","","5","","9.7","","98.89","","","","","","Rain"
"2018-04-25 13:00","2018","04","25","13:00","10.6","","9.5","","93","","36","","3","","12.9","","98.83","","","","","","Rain"
"2018-04-25 14:00","2018","04","25","14:00","11.0","","9.7","","91","","10","","4","","9.7","","98.78","","","","","","Rain"
"2018-04-25 15:00","2018","04","25","15:00","10.2","","9.1","","93","","14","","10","","6.4","","98.74","","","","","","Rain,Fog"
"2018-04-25 16:00","2018","04","25","16:00","9.6","","8.7","","94","","14","","8","","3.2","","98.73","","","","","","Rain,Fog"
"2018-04-25 17:00","2018","04","25","17:00","8.6","","7.5","","93","","35","","30","","6.4","","98.75","","","","","","Rain,Fog"
"2018-04-25 18:00","2018","04","25","18:00","7.6","","6.5","","93","","32","","31","","6.4","","98.78","","","","","","Moderate Rain,Fog"
"2018-04-25 19:00","2018","04","25","19:00","6.0","","4.8","","92","","32","","28","","16.1","","98.82","","","","","","Rain"
"2018-04-25 20:00","2018","04","25","20:00","4.9","","3.4","","90","","32","","35","","24.1","","98.86","","","","","","NA"
"2018-04-25 21:00","2018","04","25","21:00","4.3","","2.5","","88","","32","","32","","24.1","","98.86","","","","","","NA"
"2018-04-25 22:00","2018","04","25","22:00","4.1","","2.1","","87","","33","","30","","24.1","","98.85","","","","","","Mostly Cloudy"
"2018-04-25 23:00","2018","04","25","23:00","4.2","","2.1","","86","","32","","30","","24.1","","98.83","","","","","","NA"
"2018-04-26 00:00","2018","04","26","00:00","3.9","","1.8","","86","","31","","21","","19.3","","98.83","","","","","","Rain Showers"
"2018-04-26 01:00","2018","04","26","01:00","3.8","","1.7","","86","","33","","27","","24.1","","98.79","","","","","","Rain Showers"
"2018-04-26 02:00","2018","04","26","02:00","3.6","","1.6","","87","","33","","26","","24.1","","98.78","","","","","","NA"
"2018-04-26 03:00","2018","04","26","03:00","3.7","","1.7","","87","","33","","31","","19.3","","98.79","","","","","","Rain"
"2018-04-26 04:00","2018","04","26","04:00","3.8","","1.8","","87","","33","","31","","24.1","","98.78","","","","","","Rain"
"2018-04-26 05:00","2018","04","26","05:00","4.0","","1.7","","85","","31","","32","","24.1","","98.81","","","","","","NA"
"2018-04-26 06:00","2018","04","26","06:00","4.2","","1.2","","81","","31","","23","","24.1","","98.89","","","","","","NA"
"2018-04-26 07:00","2018","04","26","07:00","4.8","","0.6","","74","","32","","27","","24.1","","98.95","","","","","","Mostly Cloudy"
"2018-04-26 08:00","2018","04","26","08:00","6.6","","0.9","","67","","33","","38","","24.1","","98.96","","","","","","NA"
"2018-04-26 09:00","2018","04","26","09:00","8.3","","1.5","","62","","32","","31","","24.1","","98.99","","","","","","NA"
"2018-04-26 10:00","2018","04","26","10:00","9.4","","1.5","","58","","31","","21","","24.1","","99.02","","","","","","Mainly Clear"
"2018-04-26 11:00","2018","04","26","11:00","10.9","","1.8","","53","","33","","19","","24.1","","99.03","","","","","","NA"
"2018-04-26 12:00","2018","04","26","12:00","12.0","","1.5","","48","","31","","13","","24.1","","99.00","","","","","","NA"
"2018-04-26 13:00","2018","04","26","13:00","13.0","","1.5","","45","","30","","17","","24.1","","98.99","","","","","","Mainly Clear"
"2018-04-26 14:00","2018","04","26","14:00","14.1","","0.7","","40","","29","","14","","24.1","","98.98","","","","","","NA"
"2018-04-26 15:00","2018","04","26","15:00","14.9","","1.6","","40","","28","","22","","24.1","","98.96","","","","","","NA"
"2018-04-26 16:00","2018","04","26","16:00","15.3","","2.3","","41","","27","","19","","24.1","","98.92","","","","","","Mainly Clear"
"2018-04-26 17:00","2018","04","26","17:00","15.5","","1.6","","39","","26","","19","","24.1","","98.94","","","","","","NA"
"2018-04-26 18:00","2018","04","26","18:00","14.4","","2.7","","45","","28","","12","","24.1","","98.93","","","","","","NA"
"2018-04-26 19:00","2018","04","26","19:00","12.0","","3.0","","54","","26","","24","","24.1","","98.95","","","","","","Mainly Clear"
"2018-04-26 20:00","2018","04","26","20:00","10.2","","1.8","","56","","27","","14","","24.1","","99.01","","","","","","NA"
"2018-04-26 21:00","2018","04","26","21:00","9.0","","1.3","","58","","28","","12","","24.1","","99.06","","","","","","NA"
"2018-04-26 22:00","2018","04","26","22:00","8.1","","1.0","","61","","26","","4","","24.1","","99.06","","","","","","Mainly Clear"
"2018-04-26 23:00","2018","04","26","23:00","7.7","","-0.2","","58","","2","","8","","24.1","","98.98","","","","","","NA"
"2018-04-27 00:00","2018","04","27","00:00","6.1","","-0.3","","63","","30","","4","","24.1","","98.96","","","","","","NA"
"2018-04-27 01:00","2018","04","27","01:00","5.8","","0.4","","68","","24","","3","","24.1","","98.94","","","","","","Clear"
"2018-04-27 02:00","2018","04","27","02:00","6.2","","0.9","","69","","31","","7","","24.1","","98.86","","","","","","NA"
"2018-04-27 03:00","2018","04","27","03:00","4.3","","-0.6","","71","","1","","8","","24.1","","98.83","","","","","","NA"
"2018-04-27 04:00","2018","04","27","04:00","4.7","","0.2","","73","","1","","5","","24.1","","98.79","","","","","","Mainly Clear"
"2018-04-27 05:00","2018","04","27","05:00","4.6","","0.9","","77","","17","","4","","24.1","","98.80","","","","","","NA"
"2018-04-27 06:00","2018","04","27","06:00","5.5","","1.4","","75","","15","","9","","24.1","","98.85","","","","","","NA"
"2018-04-27 07:00","2018","04","27","07:00","6.3","","1.8","","73","","14","","4","","24.1","","98.83","","","","","","Mostly Cloudy"
"2018-04-27 08:00","2018","04","27","08:00","8.6","","3.0","","68","","13","","4","","24.1","","98.79","","","","","","NA"
"2018-04-27 09:00","2018","04","27","09:00","10.6","","3.3","","60","","16","","3","","24.1","","98.75","","","","","","NA"
"2018-04-27 10:00","2018","04","27","10:00","11.4","","2.8","","55","","15","","8","","24.1","","98.70","","","","","","Mostly Cloudy"
"2018-04-27 11:00","2018","04","27","11:00","11.7","","2.8","","54","","15","","15","","24.1","","98.66","","","","","","NA"
"2018-04-27 12:00","2018","04","27","12:00","12.6","","2.8","","51","","16","","14","","24.1","","98.61","","","","","","NA"
"2018-04-27 13:00","2018","04","27","13:00","12.5","","1.9","","48","","13","","12","","24.1","","98.58","","","","","","Mostly Cloudy"
"2018-04-27 14:00","2018","04","27","14:00","13.3","","0.6","","42","","13","","13","","24.1","","98.51","","","","","","NA"
"2018-04-27 15:00","2018","04","27","15:00","14.1","","0.5","","39","","14","","13","","24.1","","98.44","","","","","","NA"
"2018-04-27 16:00","2018","04","27","16:00","12.5","","1.3","","46","","11","","17","","24.1","","98.41","","","","","","Mostly Cloudy"
"2018-04-27 17:00","2018","04","27","17:00","11.8","","0.1","","45","","12","","17","","24.1","","98.40","","","","","","NA"
"2018-04-27 18:00","2018","04","27","18:00","11.4","","1.1","","49","","13","","8","","24.1","","98.37","","","","","","NA"
"2018-04-27 19:00","2018","04","27","19:00","11.6","","2.1","","52","","32","","30","","24.1","","98.44","","","","","","Mostly Cloudy"
"2018-04-27 20:00","2018","04","27","20:00","10.7","","3.3","","60","","34","","22","","24.1","","98.47","","","","","","NA"
"2018-04-27 21:00","2018","04","27","21:00","10.0","","3.4","","63","","1","","19","","24.1","","98.52","","","","","","NA"
"2018-04-27 22:00","2018","04","27","22:00","8.9","","3.9","","70","","1","","17","","24.1","","98.51","","","","","","Rain Showers"
"2018-04-27 23:00","2018","04","27","23:00","8.5","","4.9","","78","","27","","10","","19.3","","98.55","","","","","","Rain Showers"
"2018-04-28 00:00","2018","04","28","00:00","8.1","","5.9","","86","","18","","5","","19.3","","98.52","","","","","","Rain Showers"
"2018-04-28 01:00","2018","04","28","01:00","8.0","","6.3","","89","","28","","8","","24.1","","98.48","","","","","","Cloudy"
"2018-04-28 02:00","2018","04","28","02:00","7.1","","5.6","","90","","32","","20","","24.1","","98.52","","","","","","NA"
"2018-04-28 03:00","2018","04","28","03:00","6.6","","5.0","","90","","34","","16","","24.1","","98.49","","","","","","NA"
"2018-04-28 04:00","2018","04","28","04:00","6.5","","4.9","","90","","34","","17","","24.1","","98.51","","","","","","Mostly Cloudy"
"2018-04-28 05:00","2018","04","28","05:00","6.3","","4.7","","90","","36","","19","","24.1","","98.51","","","","","","NA"
"2018-04-28 06:00","2018","04","28","06:00","6.5","","4.9","","89","","36","","22","","24.1","","98.58","","","","","","NA"
"2018-04-28 07:00","2018","04","28","07:00","6.6","","4.9","","89","","35","","14","","19.3","","98.65","","","","","","Cloudy"
"2018-04-28 08:00","2018","04","28","08:00","6.4","","4.7","","89","","2","","17","","19.3","","98.72","","","","","","Rain"
"2018-04-28 09:00","2018","04","28","09:00","4.8","","3.2","","89","","36","","23","","24.1","","98.79","","","","","","NA"
"2018-04-28 10:00","2018","04","28","10:00","5.0","","3.4","","89","","34","","20","","24.1","","98.84","","","","","","Rain"
"2018-04-28 11:00","2018","04","28","11:00","4.7","","2.9","","88","","34","","24","","24.1","","98.90","","","","","","Rain"
"2018-04-28 12:00","2018","04","28","12:00","5.0","","2.8","","86","","33","","23","","24.1","","98.95","","","","","","Rain"
"2018-04-28 13:00","2018","04","28","13:00","6.5","","3.6","","82","","36","","26","","24.1","","98.99","","","","","","Cloudy"
"2018-04-28 14:00","2018","04","28","14:00","6.5","","2.1","","74","","35","","27","","24.1","","99.08","","","","","","NA"
"2018-04-28 15:00","2018","04","28","15:00","6.1","","1.1","","70","","33","","27","","24.1","","99.15","","","","","","NA"
"2018-04-28 16:00","2018","04","28","16:00","5.0","","-0.4","","68","","33","","29","","24.1","","99.25","","","","","","Mostly Cloudy"
"2018-04-28 17:00","2018","04","28","17:00","3.7","","-1.7","","68","","32","","32","","24.1","","99.37","","","","","","NA"
"2018-04-28 18:00","2018","04","28","18:00","2.8","","-2.6","","68","","34","","27","","24.1","","99.43","","","","","","NA"
"2018-04-28 19:00","2018","04","28","19:00","1.8","","-3.2","","70","","33","","33","","24.1","","99.51","","","","","","Cloudy"
"2018-04-28 20:00","2018","04","28","20:00","1.4","","-3.4","","71","","33","","32","","24.1","","99.59","","","","","","NA"
"2018-04-28 21:00","2018","04","28","21:00","1.4","","-3.4","","71","","33","","32","","24.1","","99.64","","","","","","NA"
"2018-04-28 22:00","2018","04","28","22:00","1.1","","-3.7","","70","","33","","32","","24.1","","99.68","","","","","","Cloudy"
"2018-04-28 23:00","2018","04","28","23:00","0.8","","-3.6","","72","","34","","27","","24.1","","99.70","","","","","","NA"
"2018-04-29 00:00","2018","04","29","00:00","0.8","","-3.0","","75","","34","","30","","24.1","","99.73","","","","","","NA"
"2018-04-29 01:00","2018","04","29","01:00","0.8","","-2.8","","77","","34","","26","","24.1","","99.73","","","","","","Cloudy"
"2018-04-29 02:00","2018","04","29","02:00","0.8","","-2.6","","78","","35","","31","","24.1","","99.73","","","","","","NA"
"2018-04-29 03:00","2018","04","29","03:00","0.8","","-2.5","","78","","34","","22","","24.1","","99.78","","","","","","NA"
"2018-04-29 04:00","2018","04","29","04:00","0.6","","-2.8","","78","","34","","26","","24.1","","99.80","","","","","","Snow"
"2018-04-29 05:00","2018","04","29","05:00","0.0","","-3.0","","80","","34","","30","","2.8","","99.85","","","","-6","","Snow"
"2018-04-29 06:00","2018","04","29","06:00","0.8","","-2.2","","80","","34","","27","","24.1","","99.91","","","","","","NA"
"2018-04-29 07:00","2018","04","29","07:00","2.1","","-2.0","","74","","33","","24","","24.1","","99.95","","","","","","Mostly Cloudy"
"2018-04-29 08:00","2018","04","29","08:00","3.5","","-2.4","","65","","34","","28","","24.1","","99.99","","","","","","NA"
"2018-04-29 09:00","2018","04","29","09:00","4.5","","-3.9","","54","","34","","35","","24.1","","100.04","","","","","","NA"
"2018-04-29 10:00","2018","04","29","10:00","6.5","","-4.8","","44","","35","","35","","24.1","","100.05","","","","","","Clear"
"2018-04-29 11:00","2018","04","29","11:00","7.5","","-5.6","","39","","34","","29","","24.1","","100.06","","","","","","NA"
"2018-04-29 12:00","2018","04","29","12:00","9.2","","-8.5","","28","","33","","43","","24.1","","99.98","","","","","","NA"
"2018-04-29 13:00","2018","04","29","13:00","10.3","","-9.1","","25","","33","","32","","24.1","","99.94","","","","","","Clear"
"2018-04-29 14:00","2018","04","29","14:00","11.1","","-10.6","","21","","33","","39","","24.1","","99.91","","","","","","NA"
"2018-04-29 15:00","2018","04","29","15:00","11.5","","-12.3","","18","","31","","37","","24.1","","99.87","","","","","","NA"
"2018-04-29 16:00","2018","04","29","16:00","10.4","","-12.2","","19","","35","","29","","24.1","","99.88","","","","","","Clear"
"2018-04-29 17:00","2018","04","29","17:00","10.4","","-11.9","","20","","34","","29","","24.1","","99.90","","","","","","NA"
"2018-04-29 18:00","2018","04","29","18:00","9.1","","-13.0","","20","","35","","27","","24.1","","99.91","","","","","","NA"
"2018-04-29 19:00","2018","04","29","19:00","7.7","","-11.8","","24","","34","","27","","24.1","","99.95","","","","","","Clear"
"2018-04-29 20:00","2018","04","29","20:00","6.7","","-11.4","","26","","34","","24","","24.1","","99.99","","","","","","NA"
"2018-04-29 21:00","2018","04","29","21:00","5.1","","-10.6","","31","","31","","16","","24.1","","100.04","","","","","","NA"
"2018-04-29 22:00","2018","04","29","22:00","4.8","","-7.4","","41","","29","","23","","24.1","","100.01","","","","","","Clear"
"2018-04-29 23:00","2018","04","29","23:00","4.5","","-8.3","","39","","31","","21","","24.1","","100.03","","","","","","NA"
"2018-04-30 00:00","2018","04","30","00:00","3.5","","-9.4","","39","","31","","18","","24.1","","100.03","","","","","","NA"
"2018-04-30 01:00","2018","04","30","01:00","2.5","","-8.9","","43","","32","","16","","24.1","","100.01","","","","","","Clear"
"2018-04-30 02:00","2018","04","30","02:00","2.1","","-8.8","","44","","31","","16","","24.1","","100.01","","","","","","NA"
"2018-04-30 03:00","2018","04","30","03:00","2.3","","-9.3","","42","","31","","13","","24.1","","100.03","","","","","","NA"
"2018-04-30 04:00","2018","04","30","04:00","1.8","","-9.3","","44","","31","","14","","24.1","","100.02","","","","","","Clear"
"2018-04-30 05:00","2018","04","30","05:00","1.3","","-8.5","","48","","31","","16","","24.1","","100.02","","","","","","NA"
"2018-04-30 06:00","2018","04","30","06:00","3.3","","-7.9","","44","","32","","17","","24.1","","100.06","","","","","","NA"
"2018-04-30 07:00","2018","04","30","07:00","7.3","","-6.8","","36","","32","","22","","24.1","","100.09","","","","","","Clear"
"2018-04-30 08:00","2018","04","30","08:00","10.5","","-7.5","","28","","35","","25","","24.1","","100.13","","","","","","NA"
"2018-04-30 09:00","2018","04","30","09:00","12.1","","-7.0","","26","","36","","19","","24.1","","100.12","","","","","","NA"
"2018-04-30 10:00","2018","04","30","10:00","13.6","","-8.4","","21","","36","","20","","24.1","","100.09","","","","","","Clear"
"2018-04-30 11:00","2018","04","30","11:00","15.0","","-10.1","","17","","33","","11","","24.1","","100.03","","","","","","NA"
"2018-04-30 12:00","2018","04","30","12:00","16.8","","-9.4","","16","","29","","16","","24.1","","99.95","","","","","","NA"
"2018-04-30 13:00","2018","04","30","13:00","17.6","","-10.2","","14","","30","","16","","24.1","","99.91","","","","","","Clear"
"2018-04-30 14:00","2018","04","30","14:00","18.4","","-8.8","","15","","30","","22","","24.1","","99.84","","","","","","NA"
"2018-04-30 15:00","2018","04","30","15:00","19.7","","-7.9","","15","","31","","25","","24.1","","99.78","","","","","","NA"
"2018-04-30 16:00","2018","04","30","16:00","19.4","","-8.6","","14","","31","","21","","24.1","","99.72","","","","","","Clear"
"2018-04-30 17:00","2018","04","30","17:00","19.3","","-7.8","","15","","29","","19","","24.1","","99.71","","","","","","NA"
"2018-04-30 18:00","2018","04","30","18:00","18.6","","-5.5","","19","","28","","24","","24.1","","99.69","","","","","","NA"
"2018-04-30 19:00","2018","04","30","19:00","16.6","","-6.5","","20","","28","","16","","24.1","","99.70","","","","","","Clear"
"2018-04-30 20:00","2018","04","30","20:00","14.8","","-4.1","","27","","29","","13","","24.1","","99.69","","","","","","NA"
"2018-04-30 21:00","2018","04","30","21:00","12.4","","-3.8","","32","","27","","12","","24.1","","99.69","","","","","","NA"
"2018-04-30 22:00","2018","04","30","22:00","11.8","","-3.8","","34","","26","","8","","24.1","","99.69","","","","","","Clear"
"2018-04-30 23:00","2018","04","30","23:00","11.9","","-3.8","","33","","22","","4","","24.1","","99.68","","","","","","NA"
