"Station Name","TORONTO INTL A"
"Province","ONTARIO"
"Latitude","43.68"
"Longitude","-79.63"
"Elevation","173.40"
"Climate Identifier","6158731"
"WMO Identifier","71624"
"TC Identifier","YYZ"
"All times are specified in Local Standard Time (LST). Add 1 hour to adjust for Daylight Saving Time where and when it is observed."

"Legend"
"E","Estimated"
"M","Missing"
"NA","Not Available"

"Date/Time","Year","Month","Day","Time","Temp (°C)","Temp Flag","Dew Point Temp (°C)","Dew Point Temp Flag","Rel Hum (%)","Rel Hum Flag","Wind Dir (10s deg)","Wind Dir Flag","Wind Spd (km/h)","Wind Spd Flag","Visibility (km)","Visibility Flag","Stn Press (kPa)","Stn Press Flag","Hmdx","Hmdx Flag","Wind Chill","Wind Chill Flag","Weather"
"2016-04-01 00:00","2016","04","01","00:00","13.8","","9.7","","76","","23","","25","","24.1","","97.49","","","","","","NA"
"2016-04-01 01:00","2016","04","01","01:00","12.4","","9.3","","81","","24","","25","","24.1","","97.55","","","","","","Mostly Cloudy"
"2016-04-01 02:00","2016","04","01","02:00","11.6","","8.1","","79","","25","","27","","24.1","","97.64","","","","","","NA"
"2016-04-01 03:00","2016","04","01","03:00","11.0","","6.8","","75","","27","","28","","24.1","","97.59","","","","","","NA"
"2016-04-01 04:00","2016","04","01","04:00","10.0","","6.7","","80","","25","","20","","24.1","","97.65","","","","","","Mainly Clear"
"2016-04-01 05:00","2016","04","01","05:00","8.9","","6.2","","83","","28","","12","","24.1","","97.72","","","","","","NA"
"2016-04-01 06:00","2016","04","01","06:00","9.3","","6.4","","82","","26","","11","","24.1","","97.75","","","","","","NA"
"2016-04-01 07:00","2016","04","01","07:00","8.9","","5.1","","77","","27","","22","","24.1","","97.80","","","","","","Mostly Cloudy"
"2016-04-01 08:00","2016","04","01","08:00","8.9","","4.7","","75","","26","","26","","24.1","","97.84","","","","","","NA"
"2016-04-01 09:00","2016","04","01","09:00","7.8","","4.4","","79","","28","","32","","24.1","","97.91","","","","","","NA"
"2016-04-01 10:00","2016","04","01","10:00","7.7","","3.6","","75","","28","","26","","24.1","","97.95","","","","","","Cloudy"
"2016-04-01 11:00","2016","04","01","11:00","6.4","","2.3","","75","","30","","29","","24.1","","98.00","","","","","","NA"
"2016-04-01 12:00","2016","04","01","12:00","6.8","","1.3","","68","","28","","34","","24.1","","98.02","","","","","","NA"
"2016-04-01 13:00","2016","04","01","13:00","7.4","","1.5","","66","","26","","29","","24.1","","98.13","","","","","","Mostly Cloudy"
"2016-04-01 14:00","2016","04","01","14:00","8.3","","0.8","","59","","25","","32","","24.1","","98.17","","","","","","NA"
"2016-04-01 15:00","2016","04","01","15:00","7.7","","0.2","","59","","27","","35","","24.1","","98.16","","","","","","NA"
"2016-04-01 16:00","2016","04","01","16:00","6.2","","-1.2","","59","","29","","36","","24.1","","98.27","","","","","","Mostly Cloudy"
"2016-04-01 17:00","2016","04","01","17:00","5.9","","-2.0","","57","","29","","27","","24.1","","98.39","","","","","","NA"
"2016-04-01 18:00","2016","04","01","18:00","6.1","","-2.3","","55","","30","","21","","24.1","","98.48","","","","","","NA"
"2016-04-01 19:00","2016","04","01","19:00","4.9","","-2.4","","59","","31","","15","","24.1","","98.39","","","","","","Mainly Clear"
"2016-04-01 20:00","2016","04","01","20:00","3.9","","-2.5","","63","","27","","13","","24.1","","98.53","","","","","","NA"
"2016-04-01 21:00","2016","04","01","21:00","3.6","","-2.8","","63","","28","","10","","24.1","","98.54","","","","","","NA"
"2016-04-01 22:00","2016","04","01","22:00","4.1","","-2.5","","62","","14","","4","","24.1","","98.42","","","","","","Mainly Clear"
"2016-04-01 23:00","2016","04","01","23:00","3.8","","-2.4","","64","","16","","5","","24.1","","98.37","","","","","","NA"
"2016-04-02 00:00","2016","04","02","00:00","3.0","","-2.1","","69","","17","","8","","24.1","","98.29","","","","","","NA"
"2016-04-02 01:00","2016","04","02","01:00","2.8","","-0.8","","77","","17","","8","","24.1","","98.17","","","","","","Clear"
"2016-04-02 02:00","2016","04","02","02:00","2.7","","0.1","","83","","19","","7","","24.1","","98.07","","","","","","NA"
"2016-04-02 03:00","2016","04","02","03:00","2.2","","0.1","","86","","22","","12","","24.1","","97.94","","","","","","NA"
"2016-04-02 04:00","2016","04","02","04:00","2.3","","-0.5","","82","","27","","18","","24.1","","97.91","","","","","","Mostly Cloudy"
"2016-04-02 05:00","2016","04","02","05:00","1.7","","-2.4","","74","","31","","33","","19.3","","97.94","","","","","","Snow"
"2016-04-02 06:00","2016","04","02","06:00","0.9","","-3.6","","72","","32","","19","","24.1","","97.92","","","","","","NA"
"2016-04-02 07:00","2016","04","02","07:00","0.2","","-6.7","","60","","30","","26","","24.1","","98.00","","","","","","Clear"
"2016-04-02 08:00","2016","04","02","08:00","0.3","","-6.2","","62","","30","","25","","24.1","","98.00","","","","","","NA"
"2016-04-02 09:00","2016","04","02","09:00","1.4","","-6.2","","57","","29","","22","","24.1","","97.99","","","","","","NA"
"2016-04-02 10:00","2016","04","02","10:00","2.5","","-6.4","","52","","28","","21","","24.1","","97.98","","","","","","Mostly Cloudy"
"2016-04-02 11:00","2016","04","02","11:00","4.2","","-5.1","","51","","25","","16","","24.1","","97.90","","","","","","NA"
"2016-04-02 12:00","2016","04","02","12:00","4.2","","-5.9","","48","","26","","24","","24.1","","97.78","","","","","","NA"
"2016-04-02 13:00","2016","04","02","13:00","3.2","","-3.4","","62","","24","","19","","12.9","","97.73","","","","","","Snow"
"2016-04-02 14:00","2016","04","02","14:00","2.4","","0.0","","84","","33","","16","","24.1","","97.67","","","","","","NA"
"2016-04-02 15:00","2016","04","02","15:00","3.0","","-5.7","","53","","31","","12","","24.1","","97.56","","","","","","NA"
"2016-04-02 16:00","2016","04","02","16:00","2.2","","-4.1","","63","","3","","10","","9.7","","97.54","","","","","","Snow Showers"
"2016-04-02 17:00","2016","04","02","17:00","1.6","","-2.5","","74","","17","","14","","9.7","","97.55","","","","","","Snow Showers"
"2016-04-02 18:00","2016","04","02","18:00","1.1","","-1.8","","81","","6","","7","","9.7","","97.55","","","","","","Snow Showers"
"2016-04-02 19:00","2016","04","02","19:00","0.0","","-3.2","","79","","36","","35","","9.7","","97.61","","","","-7","","Snow"
"2016-04-02 20:00","2016","04","02","20:00","-1.1","","-4.0","","81","","35","","35","","8.1","","97.76","","","","-8","","Snow"
"2016-04-02 21:00","2016","04","02","21:00","-1.4","","-6.0","","71","","34","","30","","24.1","","97.88","","","","-8","","NA"
"2016-04-02 22:00","2016","04","02","22:00","-1.3","","-7.5","","63","","32","","40","","24.1","","97.97","","","","-9","","Mostly Cloudy"
"2016-04-02 23:00","2016","04","02","23:00","-2.3","","-6.1","","75","","32","","36","","24.1","","98.10","","","","-10","","NA"
"2016-04-03 00:00","2016","04","03","00:00","-2.8","","-10.6","","55","","30","","31","","24.1","","98.21","","","","-10","","NA"
"2016-04-03 01:00","2016","04","03","01:00","-3.5","","-9.2","","65","","29","","36","","24.1","","98.26","","","","-12","","Mainly Clear"
"2016-04-03 02:00","2016","04","03","02:00","-4.2","","-11.7","","56","","31","","45","","24.1","","98.38","","","","-13","","NA"
"2016-04-03 03:00","2016","04","03","03:00","-5.1","","-11.9","","59","","31","","47","","24.1","","98.55","","","","-15","","NA"
"2016-04-03 04:00","2016","04","03","04:00","-6.0","","-12.4","","61","","32","","48","","24.1","","98.70","","","","-16","","Mainly Clear"
"2016-04-03 05:00","2016","04","03","05:00","-6.3","","-12.9","","60","","33","","37","","24.1","","98.89","","","","-16","","NA"
"2016-04-03 06:00","2016","04","03","06:00","-6.8","","-12.1","","66","","34","","28","","24.1","","99.04","","","","-15","","NA"
"2016-04-03 07:00","2016","04","03","07:00","-7.2","","-11.6","","71","","35","","22","","24.1","","99.18","","","","-15","","Mainly Clear"
"2016-04-03 08:00","2016","04","03","08:00","-5.9","","-12.1","","62","","34","","16","","24.1","","99.30","","","","-12","","NA"
"2016-04-03 09:00","2016","04","03","09:00","-5.0","","-14.4","","48","","33","","26","","24.1","","99.35","","","","-12","","NA"
"2016-04-03 10:00","2016","04","03","10:00","-3.6","","-16.0","","38","","32","","39","","24.1","","99.39","","","","-12","","Mainly Clear"
"2016-04-03 11:00","2016","04","03","11:00","-2.5","","-14.4","","40","","29","","25","","24.1","","99.41","","","","-9","","NA"
"2016-04-03 12:00","2016","04","03","12:00","-1.3","","-12.7","","42","","29","","30","","24.1","","99.41","","","","-8","","NA"
"2016-04-03 13:00","2016","04","03","13:00","-2.4","","-12.0","","48","","28","","20","","24.1","","99.38","","","","-8","","Cloudy"
"2016-04-03 14:00","2016","04","03","14:00","-1.9","","-12.3","","45","","26","","28","","24.1","","99.36","","","","-9","","NA"
"2016-04-03 15:00","2016","04","03","15:00","-3.4","","-8.1","","70","","26","","27","","1.6","","99.33","","","","-11","","Snow"
"2016-04-03 16:00","2016","04","03","16:00","-4.0","","-6.5","","83","","28","","15","","1.2","","99.29","","","","-9","","Snow"
"2016-04-03 17:00","2016","04","03","17:00","-3.9","","-7.9","","74","","29","","12","","1.6","","99.28","","","","-9","","Snow"
"2016-04-03 18:00","2016","04","03","18:00","-4.3","","-6.3","","86","","23","","11","","0.8","","99.32","","","","-9","","Moderate Snow"
"2016-04-03 19:00","2016","04","03","19:00","-4.6","","-6.3","","88","","19","","5","","1.2","","99.32","","","","-7","","Snow"
"2016-04-03 20:00","2016","04","03","20:00","-4.4","","-6.3","","87","","5","","9","","2.0","","99.32","","","","-8","","Snow"
"2016-04-03 21:00","2016","04","03","21:00","-4.6","","-6.4","","87","","7","","10","","3.2","","99.31","","","","-9","","Snow"
"2016-04-03 22:00","2016","04","03","22:00","-4.8","","-6.5","","88","","7","","15","","2.0","","99.21","","","","-10","","Snow"
"2016-04-03 23:00","2016","04","03","23:00","-5.0","","-6.7","","88","","5","","16","","3.2","","99.12","","","","-11","","Snow"
"2016-04-04 00:00","2016","04","04","00:00","-5.1","","-7.1","","86","","6","","15","","6.4","","99.06","","","","-11","","Snow"
"2016-04-04 01:00","2016","04","04","01:00","-5.4","","-7.2","","87","","5","","22","","1.2","","99.02","","","","-12","","Snow,Ice Pellets"
"2016-04-04 02:00","2016","04","04","02:00","-5.5","","-7.3","","87","","5","","21","","1.6","","98.97","","","","-12","","Snow"
"2016-04-04 03:00","2016","04","04","03:00","-5.8","","-8.2","","83","","5","","28","","4.8","","98.98","","","","-14","","Snow"
"2016-04-04 04:00","2016","04","04","04:00","-6.0","","-8.8","","81","","4","","26","","9.7","","99.01","","","","-14","","Snow,Ice Pellets"
"2016-04-04 05:00","2016","04","04","05:00","-5.9","","-9.0","","79","","5","","23","","9.7","","99.05","","","","-13","","Snow,Ice Pellets"
"2016-04-04 06:00","2016","04","04","06:00","-6.0","","-9.6","","76","","4","","26","","12.9","","99.16","","","","-14","","Snow,Ice Pellets"
"2016-04-04 07:00","2016","04","04","07:00","-6.2","","-10.3","","73","","4","","29","","12.9","","99.23","","","","-14","","Snow"
"2016-04-04 08:00","2016","04","04","08:00","-6.2","","-11.0","","69","","4","","21","","16.1","","99.37","","","","-13","","Snow"
"2016-04-04 09:00","2016","04","04","09:00","-6.1","","-10.9","","69","","3","","26","","16.1","","99.47","","","","-14","","Snow"
"2016-04-04 10:00","2016","04","04","10:00","-5.6","","-11.0","","66","","4","","30","","9.7","","99.57","","","","-14","","Snow"
"2016-04-04 11:00","2016","04","04","11:00","-4.4","","-10.8","","61","","3","","22","","16.1","","99.64","","","","-11","","Snow"
"2016-04-04 12:00","2016","04","04","12:00","-4.1","","-11.4","","57","","2","","23","","19.3","","99.69","","","","-11","","NA"
"2016-04-04 13:00","2016","04","04","13:00","-3.7","","-12.9","","49","","3","","23","","24.1","","99.75","","","","-10","","Mostly Cloudy"
"2016-04-04 14:00","2016","04","04","14:00","-3.1","","-13.5","","45","","1","","21","","24.1","","99.78","","","","-9","","NA"
"2016-04-04 15:00","2016","04","04","15:00","-2.7","","-13.7","","43","","1","","25","","24.1","","99.82","","","","-9","","NA"
"2016-04-04 16:00","2016","04","04","16:00","-2.4","","-14.6","","39","","34","","24","","24.1","","99.85","","","","-9","","Mostly Cloudy"
"2016-04-04 17:00","2016","04","04","17:00","-2.7","","-15.2","","38","","35","","27","","24.1","","99.93","","","","-10","","NA"
"2016-04-04 18:00","2016","04","04","18:00","-3.2","","-14.7","","41","","34","","25","","24.1","","100.02","","","","-10","","Blowing Snow"
"2016-04-04 19:00","2016","04","04","19:00","-4.4","","-15.2","","43","","35","","28","","24.1","","100.13","","","","-12","","Mainly Clear"
"2016-04-04 20:00","2016","04","04","20:00","-4.8","","-14.8","","46","","33","","26","","24.1","","100.22","","","","-12","","NA"
"2016-04-04 21:00","2016","04","04","21:00","-5.4","","-14.8","","48","","33","","27","","24.1","","100.29","","","","-13","","NA"
"2016-04-04 22:00","2016","04","04","22:00","-5.9","","-14.8","","50","","34","","27","","24.1","","100.34","","","","-14","","Clear"
"2016-04-04 23:00","2016","04","04","23:00","-6.2","","-15.0","","50","","34","","26","","24.1","","100.39","","","","-14","","NA"
"2016-04-05 00:00","2016","04","05","00:00","-6.7","","-15.0","","52","","34","","24","","24.1","","100.45","","","","-14","","NA"
"2016-04-05 01:00","2016","04","05","01:00","-7.1","","-15.4","","52","","35","","20","","24.1","","100.52","","","","-14","","Clear"
"2016-04-05 02:00","2016","04","05","02:00","-7.4","","-15.7","","52","","34","","21","","24.1","","100.55","","","","-15","","NA"
"2016-04-05 03:00","2016","04","05","03:00","-7.6","","-16.1","","51","","34","","21","","24.1","","100.61","","","","-15","","NA"
"2016-04-05 04:00","2016","04","05","04:00","-8.3","","-16.8","","51","","36","","16","","24.1","","100.71","","","","-15","","Clear"
"2016-04-05 05:00","2016","04","05","05:00","-8.9","","-16.9","","53","","35","","14","","24.1","","100.80","","","","-15","","NA"
"2016-04-05 06:00","2016","04","05","06:00","-8.8","","-17.0","","52","","35","","15","","24.1","","100.93","","","","-15","","NA"
"2016-04-05 07:00","2016","04","05","07:00","-8.2","","-16.7","","51","","35","","8","","24.1","","101.02","","","","-12","","Clear"
"2016-04-05 08:00","2016","04","05","08:00","-6.7","","-16.3","","47","","36","","10","","24.1","","101.12","","","","-11","","NA"
"2016-04-05 09:00","2016","04","05","09:00","-5.4","","-16.4","","42","","3","","9","","24.1","","101.17","","","","-9","","NA"
"2016-04-05 10:00","2016","04","05","10:00","-4.5","","-17.5","","36","","33","","7","","24.1","","101.18","","","","-8","","Clear"
"2016-04-05 11:00","2016","04","05","11:00","-3.2","","-17.7","","32","","36","","2","","24.1","","101.16","","","","-4","","NA"
"2016-04-05 12:00","2016","04","05","12:00","-2.4","","-17.8","","30","","26","","5","","24.1","","101.10","","","","-4","","NA"
"2016-04-05 13:00","2016","04","05","13:00","-1.7","","-17.6","","29","","27","","9","","24.1","","101.04","","","","-5","","Clear"
"2016-04-05 14:00","2016","04","05","14:00","-0.8","","-17.6","","27","","27","","7","","24.1","","101.00","","","","-3","","NA"
"2016-04-05 15:00","2016","04","05","15:00","0.2","","-15.5","","30","","26","","4","","24.1","","100.93","","","","","","NA"
"2016-04-05 16:00","2016","04","05","16:00","0.6","","-12.9","","36","","25","","15","","24.1","","100.89","","","","","","Clear"
"2016-04-05 17:00","2016","04","05","17:00","0.3","","-12.8","","37","","23","","16","","24.1","","100.85","","","","","","NA"
"2016-04-05 18:00","2016","04","05","18:00","-0.4","","-13.1","","38","","29","","20","","24.1","","100.78","","","","-6","","NA"
"2016-04-05 19:00","2016","04","05","19:00","-1.2","","-12.9","","41","","29","","16","","24.1","","100.70","","","","-6","","Mainly Clear"
"2016-04-05 20:00","2016","04","05","20:00","-2.5","","-11.3","","51","","26","","10","","24.1","","100.70","","","","-6","","NA"
"2016-04-05 21:00","2016","04","05","21:00","-1.5","","-11.7","","46","","21","","12","","24.1","","100.69","","","","-6","","NA"
"2016-04-05 22:00","2016","04","05","22:00","-1.9","","-10.8","","51","","21","","17","","24.1","","100.61","","","","-7","","Clear"
"2016-04-05 23:00","2016","04","05","23:00","-2.5","","-9.5","","59","","21","","14","","24.1","","100.56","","","","-7","","NA"
"2016-04-06 00:00","2016","04","06","00:00","-2.7","","-9.4","","60","","22","","12","","24.1","","100.54","","","","-7","","NA"
"2016-04-06 01:00","2016","04","06","01:00","-2.8","","-10.0","","58","","20","","6","","24.1","","100.42","","","","-5","","Cloudy"
"2016-04-06 02:00","2016","04","06","02:00","-2.8","","-9.3","","61","","17","","5","","24.1","","100.32","","","","-5","","NA"
"2016-04-06 03:00","2016","04","06","03:00","-2.4","","-8.9","","61","","17","","5","","24.1","","100.24","","","","-4","","NA"
"2016-04-06 04:00","2016","04","06","04:00","-2.0","","-8.1","","63","","17","","4","","24.1","","100.18","","","","-3","","Cloudy"
"2016-04-06 05:00","2016","04","06","05:00","-1.2","","-9.1","","55","","15","","11","","24.1","","100.13","","","","-5","","NA"
"2016-04-06 06:00","2016","04","06","06:00","-0.8","","-8.8","","55","","14","","10","","24.1","","100.11","","","","-4","","NA"
"2016-04-06 07:00","2016","04","06","07:00","-0.2","","-7.5","","58","","15","","9","","24.1","","99.99","","","","-3","","Cloudy"
"2016-04-06 08:00","2016","04","06","08:00","-1.1","","-4.0","","81","","13","","15","","1.6","","99.76","","","","-6","","Snow"
"2016-04-06 09:00","2016","04","06","09:00","-1.4","","-2.8","","90","","13","","9","","0.8","","99.72","","","","-5","","Moderate Snow"
"2016-04-06 10:00","2016","04","06","10:00","-0.6","","-1.9","","91","","11","","17","","11.3","","99.54","","","","-6","","Cloudy"
"2016-04-06 11:00","2016","04","06","11:00","0.0","","-2.1","","86","","12","","23","","19.3","","99.28","","","","-6","","NA"
"2016-04-06 12:00","2016","04","06","12:00","0.6","","-2.1","","82","","12","","23","","24.1","","99.03","","","","","","NA"
"2016-04-06 13:00","2016","04","06","13:00","1.0","","-3.1","","74","","13","","21","","24.1","","98.87","","","","","","Cloudy"
"2016-04-06 14:00","2016","04","06","14:00","1.8","","-3.5","","68","","11","","15","","24.1","","98.74","","","","","","NA"
"2016-04-06 15:00","2016","04","06","15:00","1.5","","-2.8","","73","","11","","19","","24.1","","98.62","","","","","","NA"
"2016-04-06 16:00","2016","04","06","16:00","1.7","","-2.4","","74","","11","","18","","24.1","","98.49","","","","","","Ice Pellets"
"2016-04-06 17:00","2016","04","06","17:00","1.5","","-1.1","","83","","10","","18","","19.3","","98.34","","","","","","Rain"
"2016-04-06 18:00","2016","04","06","18:00","1.4","","-0.2","","89","","9","","8","","9.7","","98.35","","","","","","Rain,Fog"
"2016-04-06 19:00","2016","04","06","19:00","1.5","","0.2","","91","","9","","9","","9.7","","98.16","","","","","","Rain,Fog"
"2016-04-06 20:00","2016","04","06","20:00","1.8","","0.6","","92","","9","","6","","9.7","","98.09","","","","","","Rain,Fog"
"2016-04-06 21:00","2016","04","06","21:00","2.8","","1.5","","91","","12","","14","","19.3","","97.96","","","","","","Rain"
"2016-04-06 22:00","2016","04","06","22:00","3.8","","2.3","","90","","13","","11","","16.1","","97.85","","","","","","Rain"
"2016-04-06 23:00","2016","04","06","23:00","4.2","","3.2","","93","","14","","14","","9.7","","97.76","","","","","","Rain,Fog"
"2016-04-07 00:00","2016","04","07","00:00","5.4","","4.5","","94","","16","","14","","9.7","","97.62","","","","","","Rain,Fog"
"2016-04-07 01:00","2016","04","07","01:00","6.7","","6.0","","95","","18","","23","","16.1","","97.52","","","","","","Rain"
"2016-04-07 02:00","2016","04","07","02:00","7.4","","5.9","","90","","17","","14","","16.1","","97.40","","","","","","Rain"
"2016-04-07 03:00","2016","04","07","03:00","6.6","","5.6","","93","","16","","16","","9.7","","97.31","","","","","","Rain"
"2016-04-07 04:00","2016","04","07","04:00","6.0","","5.1","","94","","15","","10","","9.7","","97.24","","","","","","Rain"
"2016-04-07 05:00","2016","04","07","05:00","5.8","","4.1","","89","","12","","11","","19.3","","97.11","","","","","","Rain"
"2016-04-07 06:00","2016","04","07","06:00","6.5","","2.8","","77","","13","","15","","24.1","","96.97","","","","","","NA"
"2016-04-07 07:00","2016","04","07","07:00","6.7","","5.0","","89","","23","","28","","24.1","","97.06","","","","","","Rain"
"2016-04-07 08:00","2016","04","07","08:00","5.0","","2.9","","86","","25","","32","","24.1","","97.24","","","","","","Rain"
"2016-04-07 09:00","2016","04","07","09:00","4.1","","1.5","","83","","25","","30","","24.1","","97.36","","","","","","NA"
"2016-04-07 10:00","2016","04","07","10:00","4.5","","1.5","","81","","25","","33","","24.1","","97.38","","","","","","Mostly Cloudy"
"2016-04-07 11:00","2016","04","07","11:00","5.3","","1.8","","78","","26","","33","","24.1","","97.41","","","","","","NA"
"2016-04-07 12:00","2016","04","07","12:00","4.3","","0.8","","78","","26","","32","","24.1","","97.47","","","","","","NA"
"2016-04-07 13:00","2016","04","07","13:00","5.4","","0.6","","71","","26","","28","","24.1","","97.45","","","","","","Cloudy"
"2016-04-07 14:00","2016","04","07","14:00","5.8","","0.4","","68","","26","","26","","24.1","","97.41","","","","","","NA"
"2016-04-07 15:00","2016","04","07","15:00","4.3","","-0.7","","70","","29","","27","","24.1","","97.40","","","","","","NA"
"2016-04-07 16:00","2016","04","07","16:00","3.6","","-1.6","","69","","28","","29","","24.1","","97.42","","","","","","Cloudy"
"2016-04-07 17:00","2016","04","07","17:00","2.6","","-1.9","","72","","29","","27","","24.1","","97.49","","","","","","NA"
"2016-04-07 18:00","2016","04","07","18:00","1.7","","-3.0","","71","","29","","29","","24.1","","97.61","","","","","","NA"
"2016-04-07 19:00","2016","04","07","19:00","1.2","","-4.5","","66","","30","","26","","24.1","","97.69","","","","","","Cloudy"
"2016-04-07 20:00","2016","04","07","20:00","0.8","","-4.5","","68","","31","","28","","24.1","","97.76","","","","","","NA"
"2016-04-07 21:00","2016","04","07","21:00","0.5","","-4.5","","69","","29","","26","","24.1","","97.81","","","","","","NA"
"2016-04-07 22:00","2016","04","07","22:00","0.2","","-4.5","","71","","28","","25","","24.1","","97.77","","","","","","Snow Grains"
"2016-04-07 23:00","2016","04","07","23:00","-0.1","","-5.5","","67","","30","","32","","24.1","","97.78","","","","-7","","NA"
"2016-04-08 00:00","2016","04","08","00:00","-0.5","","-6.1","","66","","31","","28","","24.1","","97.81","","","","-7","","NA"
"2016-04-08 01:00","2016","04","08","01:00","-1.4","","-6.6","","68","","30","","30","","24.1","","97.84","","","","-8","","Snow"
"2016-04-08 02:00","2016","04","08","02:00","-1.9","","-8.3","","62","","30","","31","","16.1","","97.85","","","","-9","","Snow"
"2016-04-08 03:00","2016","04","08","03:00","-2.5","","-8.4","","64","","31","","27","","16.1","","97.90","","","","-9","","NA"
"2016-04-08 04:00","2016","04","08","04:00","-3.0","","-9.3","","62","","30","","33","","24.1","","97.93","","","","-11","","Cloudy"
"2016-04-08 05:00","2016","04","08","05:00","-3.3","","-10.0","","60","","30","","36","","24.1","","97.97","","","","-11","","NA"
"2016-04-08 06:00","2016","04","08","06:00","-3.6","","-9.7","","63","","29","","30","","19.3","","98.05","","","","-11","","NA"
"2016-04-08 07:00","2016","04","08","07:00","-3.8","","-9.9","","63","","29","","30","","24.1","","98.12","","","","-11","","Mostly Cloudy"
"2016-04-08 08:00","2016","04","08","08:00","-2.3","","-10.2","","55","","30","","44","","24.1","","98.14","","","","-11","","NA"
"2016-04-08 09:00","2016","04","08","09:00","-1.3","","-9.5","","54","","31","","37","","24.1","","98.19","","","","-9","","NA"
"2016-04-08 10:00","2016","04","08","10:00","-0.1","","-7.6","","57","","29","","32","","24.1","","98.25","","","","-7","","Mostly Cloudy"
"2016-04-08 11:00","2016","04","08","11:00","0.8","","-7.5","","54","","30","","24","","24.1","","98.33","","","","","","NA"
"2016-04-08 12:00","2016","04","08","12:00","1.3","","-7.3","","53","","29","","29","","24.1","","98.40","","","","","","NA"
"2016-04-08 13:00","2016","04","08","13:00","2.0","","-7.6","","49","","29","","27","","24.1","","98.45","","","","","","Mostly Cloudy"
"2016-04-08 14:00","2016","04","08","14:00","3.4","","-7.2","","46","","29","","26","","24.1","","98.48","","","","","","NA"
"2016-04-08 15:00","2016","04","08","15:00","3.4","","-9.0","","40","","30","","22","","24.1","","98.51","","","","","","NA"
"2016-04-08 16:00","2016","04","08","16:00","3.7","","-8.7","","40","","31","","26","","24.1","","98.53","","","","","","Mostly Cloudy"
"2016-04-08 17:00","2016","04","08","17:00","3.2","","-8.5","","42","","31","","22","","24.1","","98.59","","","","","","NA"
"2016-04-08 18:00","2016","04","08","18:00","2.3","","-9.4","","42","","29","","20","","24.1","","98.65","","","","","","NA"
"2016-04-08 19:00","2016","04","08","19:00","-0.7","","-6.5","","65","","1","","26","","24.1","","98.74","","","","-7","","Mostly Cloudy"
"2016-04-08 20:00","2016","04","08","20:00","-2.2","","-7.5","","67","","1","","27","","24.1","","98.81","","","","-9","","NA"
"2016-04-08 21:00","2016","04","08","21:00","-2.9","","-8.6","","65","","1","","27","","24.1","","98.87","","","","-10","","NA"
"2016-04-08 22:00","2016","04","08","22:00","-2.9","","-9.6","","60","","1","","28","","24.1","","98.85","","","","-10","","Mostly Cloudy"
"2016-04-08 23:00","2016","04","08","23:00","-3.2","","-10.8","","56","","36","","26","","24.1","","98.82","","","","-10","","NA"
"2016-04-09 00:00","2016","04","09","00:00","-3.5","","-10.6","","58","","36","","23","","24.1","","98.81","","","","-10","","NA"
"2016-04-09 01:00","2016","04","09","01:00","-3.9","","-10.6","","60","","1","","18","","24.1","","98.80","","","","-10","","Mainly Clear"
"2016-04-09 02:00","2016","04","09","02:00","-3.9","","-11.2","","57","","2","","20","","24.1","","98.79","","","","-10","","NA"
"2016-04-09 03:00","2016","04","09","03:00","-4.1","","-11.9","","55","","3","","26","","24.1","","98.83","","","","-11","","NA"
"2016-04-09 04:00","2016","04","09","04:00","-4.7","","-12.4","","55","","2","","30","","24.1","","98.88","","","","-13","","Mostly Cloudy"
"2016-04-09 05:00","2016","04","09","05:00","-5.1","","-13.5","","52","","2","","29","","24.1","","98.93","","","","-13","","NA"
"2016-04-09 06:00","2016","04","09","06:00","-5.5","","-13.4","","54","","1","","32","","24.1","","99.05","","","","-14","","NA"
"2016-04-09 07:00","2016","04","09","07:00","-5.3","","-14.2","","50","","1","","30","","24.1","","99.16","","","","-13","","Mostly Cloudy"
"2016-04-09 08:00","2016","04","09","08:00","-5.2","","-13.4","","53","","35","","31","","24.1","","99.25","","","","-13","","NA"
"2016-04-09 09:00","2016","04","09","09:00","-4.1","","-13.3","","49","","34","","32","","24.1","","99.34","","","","-12","","NA"
"2016-04-09 10:00","2016","04","09","10:00","-3.5","","-15.3","","40","","34","","38","","24.1","","99.42","","","","-12","","Mostly Cloudy"
"2016-04-09 11:00","2016","04","09","11:00","-2.5","","-15.0","","38","","34","","36","","24.1","","99.51","","","","-10","","NA"
"2016-04-09 12:00","2016","04","09","12:00","-2.0","","-13.9","","40","","35","","36","","24.1","","99.58","","","","-10","","NA"
"2016-04-09 13:00","2016","04","09","13:00","-1.6","","-13.9","","39","","35","","38","","24.1","","99.64","","","","-9","","Mostly Cloudy"
"2016-04-09 14:00","2016","04","09","14:00","-1.1","","-13.1","","40","","35","","27","","24.1","","99.67","","","","-8","","NA"
"2016-04-09 15:00","2016","04","09","15:00","-1.8","","-16.9","","31","","35","","33","","24.1","","99.71","","","","-9","","NA"
"2016-04-09 16:00","2016","04","09","16:00","-1.1","","-15.8","","32","","34","","29","","24.1","","99.79","","","","-8","","Mainly Clear"
"2016-04-09 17:00","2016","04","09","17:00","-2.0","","-14.9","","37","","35","","26","","24.1","","99.87","","","","-9","","NA"
"2016-04-09 18:00","2016","04","09","18:00","-2.7","","-13.9","","42","","35","","32","","24.1","","99.94","","","","-10","","NA"
"2016-04-09 19:00","2016","04","09","19:00","-4.3","","-13.3","","50","","36","","26","","24.1","","100.04","","","","-12","","Clear"
"2016-04-09 20:00","2016","04","09","20:00","-4.8","","-12.8","","54","","35","","20","","24.1","","100.18","","","","-11","","NA"
"2016-04-09 21:00","2016","04","09","21:00","-5.3","","-12.8","","56","","35","","21","","24.1","","100.25","","","","-12","","NA"
"2016-04-09 22:00","2016","04","09","22:00","-5.5","","-12.7","","57","","33","","19","","24.1","","100.27","","","","-12","","Clear"
"2016-04-09 23:00","2016","04","09","23:00","-5.9","","-13.1","","57","","33","","18","","24.1","","100.32","","","","-12","","NA"
"2016-04-10 00:00","2016","04","10","00:00","-5.9","","-12.7","","59","","30","","14","","24.1","","100.35","","","","-11","","NA"
"2016-04-10 01:00","2016","04","10","01:00","-6.8","","-12.3","","65","","28","","11","","24.1","","100.37","","","","-12","","Clear"
"2016-04-10 02:00","2016","04","10","02:00","-6.8","","-12.5","","64","","30","","9","","24.1","","100.37","","","","-11","","NA"
"2016-04-10 03:00","2016","04","10","03:00","-7.2","","-12.3","","67","","29","","8","","24.1","","100.41","","","","-11","","NA"
"2016-04-10 04:00","2016","04","10","04:00","-7.0","","-12.0","","68","","29","","9","","24.1","","100.43","","","","-11","","Clear"
"2016-04-10 05:00","2016","04","10","05:00","-7.1","","-12.1","","68","","29","","5","","24.1","","100.42","","","","-10","","NA"
"2016-04-10 06:00","2016","04","10","06:00","-7.4","","-11.6","","72","","26","","7","","24.1","","100.48","","","","-11","","NA"
"2016-04-10 07:00","2016","04","10","07:00","-5.3","","-10.7","","66","","36","","1","","24.1","","100.49","","","","-6","","Mostly Cloudy"
"2016-04-10 08:00","2016","04","10","08:00","-4.3","","-10.7","","61","","18","","7","","24.1","","100.49","","","","-7","","NA"
"2016-04-10 09:00","2016","04","10","09:00","-4.2","","-11.7","","56","","13","","9","","24.1","","100.46","","","","-8","","NA"
"2016-04-10 10:00","2016","04","10","10:00","-3.6","","-10.9","","57","","14","","10","","24.1","","100.47","","","","-8","","Cloudy"
"2016-04-10 11:00","2016","04","10","11:00","-2.4","","-9.6","","58","","20","","13","","24.1","","100.49","","","","-7","","NA"
"2016-04-10 12:00","2016","04","10","12:00","-1.8","","-9.9","","54","","14","","14","","24.1","","100.40","","","","-6","","NA"
"2016-04-10 13:00","2016","04","10","13:00","-1.9","","-10.3","","53","","14","","16","","24.1","","100.35","","","","-7","","Cloudy"
"2016-04-10 14:00","2016","04","10","14:00","-1.1","","-9.8","","52","","15","","15","","24.1","","100.19","","","","-6","","NA"
"2016-04-10 15:00","2016","04","10","15:00","-1.0","","-9.7","","52","","14","","15","","24.1","","100.07","","","","-6","","NA"
"2016-04-10 16:00","2016","04","10","16:00","-1.2","","-7.6","","62","","16","","22","","9.7","","100.00","","","","-7","","Snow"
"2016-04-10 17:00","2016","04","10","17:00","-1.6","","-5.1","","77","","14","","16","","6.4","","99.94","","","","-7","","Snow"
"2016-04-10 18:00","2016","04","10","18:00","-2.0","","-4.2","","85","","12","","17","","9.7","","99.84","","","","-7","","Snow"
"2016-04-10 19:00","2016","04","10","19:00","-1.8","","-3.2","","90","","14","","17","","4.8","","99.80","","","","-7","","Snow"
"2016-04-10 20:00","2016","04","10","20:00","-1.4","","-2.5","","92","","13","","16","","1.2","","99.70","","","","-6","","Snow"
"2016-04-10 21:00","2016","04","10","21:00","-1.0","","-2.0","","93","","12","","21","","1.2","","99.58","","","","-7","","Snow"
"2016-04-10 22:00","2016","04","10","22:00","-0.3","","-1.3","","93","","13","","17","","12.9","","99.48","","","","-5","","Freezing Rain,Ice Pellets"
"2016-04-10 23:00","2016","04","10","23:00","0.1","","-0.9","","93","","16","","13","","8.1","","99.40","","","","","","Rain"
"2016-04-11 00:00","2016","04","11","00:00","0.4","","-0.5","","94","","13","","17","","6.4","","99.24","","","","","","Rain,Fog"
"2016-04-11 01:00","2016","04","11","01:00","0.7","","-0.2","","94","","12","","16","","8.1","","99.14","","","","","","Rain"
"2016-04-11 02:00","2016","04","11","02:00","0.9","","0.0","","94","","12","","13","","6.4","","98.99","","","","","","Rain"
"2016-04-11 03:00","2016","04","11","03:00","1.3","","0.4","","94","","13","","14","","4.8","","98.86","","","","","","Rain,Fog"
"2016-04-11 04:00","2016","04","11","04:00","1.8","","1.1","","95","","13","","8","","2.4","","98.82","","","","","","Rain,Fog"
"2016-04-11 05:00","2016","04","11","05:00","2.1","","1.4","","95","","11","","10","","1.2","","98.75","","","","","","Rain,Fog"
"2016-04-11 06:00","2016","04","11","06:00","2.6","","1.9","","95","","14","","7","","0.6","","98.75","","","","","","Rain,Fog"
"2016-04-11 07:00","2016","04","11","07:00","3.1","","2.5","","96","","16","","5","","0.6","","98.78","","","","","","Rain,Fog"
"2016-04-11 08:00","2016","04","11","08:00","4.0","","3.4","","96","","16","","7","","3.2","","98.71","","","","","","Fog"
"2016-04-11 09:00","2016","04","11","09:00","4.9","","4.3","","96","","16","","4","","4.8","","98.76","","","","","","Fog"
"2016-04-11 10:00","2016","04","11","10:00","6.4","","5.8","","96","","20","","9","","2.4","","98.75","","","","","","Fog"
"2016-04-11 11:00","2016","04","11","11:00","7.3","","6.7","","96","","23","","10","","8.1","","98.76","","","","","","Fog"
"2016-04-11 12:00","2016","04","11","12:00","8.9","","8.0","","94","","21","","13","","9.7","","98.74","","","","","","Fog"
"2016-04-11 13:00","2016","04","11","13:00","10.1","","8.1","","87","","21","","14","","9.7","","98.71","","","","","","Fog"
"2016-04-11 14:00","2016","04","11","14:00","11.1","","8.5","","84","","22","","13","","12.9","","98.70","","","","","","NA"
"2016-04-11 15:00","2016","04","11","15:00","10.8","","8.1","","83","","20","","18","","16.1","","98.69","","","","","","NA"
"2016-04-11 16:00","2016","04","11","16:00","10.2","","8.3","","88","","21","","15","","12.9","","98.70","","","","","","Cloudy"
"2016-04-11 17:00","2016","04","11","17:00","10.4","","8.7","","89","","21","","10","","12.9","","98.70","","","","","","NA"
"2016-04-11 18:00","2016","04","11","18:00","10.3","","8.3","","87","","20","","14","","12.9","","98.67","","","","","","NA"
"2016-04-11 19:00","2016","04","11","19:00","9.6","","8.4","","92","","25","","16","","6.4","","98.71","","","","","","Rain,Fog"
"2016-04-11 20:00","2016","04","11","20:00","4.9","","2.9","","87","","34","","35","","24.1","","98.94","","","","","","NA"
"2016-04-11 21:00","2016","04","11","21:00","4.7","","2.2","","84","","35","","26","","24.1","","99.07","","","","","","NA"
"2016-04-11 22:00","2016","04","11","22:00","3.5","","-1.5","","70","","33","","30","","24.1","","99.18","","","","","","Mostly Cloudy"
"2016-04-11 23:00","2016","04","11","23:00","1.6","","-2.2","","76","","32","","16","","24.1","","99.20","","","","","","NA"
"2016-04-12 00:00","2016","04","12","00:00","1.2","","-3.1","","73","","28","","16","","24.1","","99.29","","","","","","NA"
"2016-04-12 01:00","2016","04","12","01:00","-0.1","","-3.5","","78","","26","","14","","24.1","","99.35","","","","-4","","Mainly Clear"
"2016-04-12 02:00","2016","04","12","02:00","-0.6","","-3.1","","83","","24","","14","","24.1","","99.39","","","","-5","","NA"
"2016-04-12 03:00","2016","04","12","03:00","-0.4","","-2.9","","83","","25","","18","","24.1","","99.48","","","","-5","","NA"
"2016-04-12 04:00","2016","04","12","04:00","-0.9","","-3.4","","83","","24","","16","","24.1","","99.57","","","","-6","","Mainly Clear"
"2016-04-12 05:00","2016","04","12","05:00","-0.7","","-3.6","","81","","25","","18","","24.1","","99.62","","","","-6","","NA"
"2016-04-12 06:00","2016","04","12","06:00","-0.3","","-3.2","","81","","25","","18","","24.1","","99.72","","","","-5","","NA"
"2016-04-12 07:00","2016","04","12","07:00","1.1","","-2.7","","76","","25","","17","","24.1","","99.79","","","","","","Mainly Clear"
"2016-04-12 08:00","2016","04","12","08:00","2.7","","-2.4","","69","","27","","18","","24.1","","99.85","","","","","","NA"
"2016-04-12 09:00","2016","04","12","09:00","3.5","","-1.9","","68","","27","","26","","24.1","","99.92","","","","","","NA"
"2016-04-12 10:00","2016","04","12","10:00","4.4","","-1.8","","64","","29","","28","","24.1","","99.98","","","","","","Mostly Cloudy"
"2016-04-12 11:00","2016","04","12","11:00","5.1","","-1.4","","63","","30","","28","","24.1","","100.02","","","","","","NA"
"2016-04-12 12:00","2016","04","12","12:00","6.2","","-2.4","","54","","33","","36","","24.1","","100.09","","","","","","NA"
"2016-04-12 13:00","2016","04","12","13:00","6.7","","-2.7","","51","","30","","37","","24.1","","100.18","","","","","","Mostly Cloudy"
"2016-04-12 14:00","2016","04","12","14:00","6.4","","-3.3","","50","","29","","41","","24.1","","100.24","","","","","","NA"
"2016-04-12 15:00","2016","04","12","15:00","4.7","","-4.1","","53","","31","","40","","24.1","","100.34","","","","","","NA"
"2016-04-12 16:00","2016","04","12","16:00","4.5","","-4.8","","51","","31","","41","","24.1","","100.40","","","","","","Mostly Cloudy"
"2016-04-12 17:00","2016","04","12","17:00","3.7","","-5.5","","51","","31","","34","","24.1","","100.48","","","","","","NA"
"2016-04-12 18:00","2016","04","12","18:00","3.2","","-7.1","","47","","30","","28","","24.1","","100.56","","","","","","NA"
"2016-04-12 19:00","2016","04","12","19:00","2.4","","-6.7","","51","","29","","22","","24.1","","100.62","","","","","","Mostly Cloudy"
"2016-04-12 20:00","2016","04","12","20:00","1.2","","-5.5","","61","","1","","12","","24.1","","100.71","","","","","","NA"
"2016-04-12 21:00","2016","04","12","21:00","0.8","","-5.7","","62","","35","","13","","24.1","","100.76","","","","","","NA"
"2016-04-12 22:00","2016","04","12","22:00","0.5","","-5.8","","63","","32","","11","","24.1","","100.79","","","","","","Clear"
"2016-04-12 23:00","2016","04","12","23:00","-0.2","","-6.0","","65","","28","","3","","24.1","","100.83","","","","-1","","NA"
"2016-04-13 00:00","2016","04","13","00:00","-1.1","","-6.3","","68","","29","","5","","24.1","","100.85","","","","-3","","NA"
"2016-04-13 01:00","2016","04","13","01:00","-1.2","","-6.4","","68","","25","","5","","24.1","","100.88","","","","-3","","Clear"
"2016-04-13 02:00","2016","04","13","02:00","-2.5","","-6.7","","73","","29","","9","","24.1","","100.94","","","","-6","","NA"
"2016-04-13 03:00","2016","04","13","03:00","-3.1","","-6.4","","78","","28","","7","","24.1","","100.98","","","","-6","","NA"
"2016-04-13 04:00","2016","04","13","04:00","-2.7","","-7.3","","71","","32","","5","","24.1","","101.02","","","","-5","","Clear"
"2016-04-13 05:00","2016","04","13","05:00","-2.8","","-6.0","","79","","2","","9","","24.1","","101.06","","","","-6","","NA"
"2016-04-13 06:00","2016","04","13","06:00","-2.5","","-5.7","","79","","2","","9","","24.1","","101.10","","","","-6","","NA"
"2016-04-13 07:00","2016","04","13","07:00","-0.2","","-4.1","","75","","3","","5","","24.1","","101.13","","","","-2","","Mainly Clear"
"2016-04-13 08:00","2016","04","13","08:00","1.8","","-4.9","","61","","3","","7","","24.1","","101.17","","","","","","NA"
"2016-04-13 09:00","2016","04","13","09:00","3.6","","-7.0","","46","","10","","8","","24.1","","101.14","","","","","","NA"
"2016-04-13 10:00","2016","04","13","10:00","4.0","","-7.2","","44","","20","","7","","24.1","","101.11","","","","","","Mostly Cloudy"
"2016-04-13 11:00","2016","04","13","11:00","4.6","","-5.2","","49","","13","","11","","24.1","","101.08","","","","","","NA"
"2016-04-13 12:00","2016","04","13","12:00","4.4","","-5.4","","49","","12","","16","","24.1","","101.03","","","","","","NA"
"2016-04-13 13:00","2016","04","13","13:00","4.1","","-6.0","","48","","16","","8","","24.1","","100.97","","","","","","Mostly Cloudy"
"2016-04-13 14:00","2016","04","13","14:00","4.7","","-6.8","","43","","13","","8","","24.1","","100.93","","","","","","NA"
"2016-04-13 15:00","2016","04","13","15:00","5.8","","-5.5","","44","","9","","3","","24.1","","100.91","","","","","","NA"
"2016-04-13 16:00","2016","04","13","16:00","6.1","","-5.9","","42","","15","","13","","24.1","","100.87","","","","","","Mainly Clear"
"2016-04-13 17:00","2016","04","13","17:00","4.3","","-6.3","","46","","14","","15","","24.1","","100.90","","","","","","NA"
"2016-04-13 18:00","2016","04","13","18:00","3.6","","-6.1","","49","","14","","13","","24.1","","100.88","","","","","","NA"
"2016-04-13 19:00","2016","04","13","19:00","2.8","","-6.1","","52","","12","","9","","24.1","","100.89","","","","","","Clear"
"2016-04-13 20:00","2016","04","13","20:00","2.2","","-5.0","","59","","36","","1","","24.1","","100.92","","","","","","NA"
"2016-04-13 21:00","2016","04","13","21:00","2.1","","-6.5","","53","","6","","4","","24.1","","100.87","","","","","","NA"
"2016-04-13 22:00","2016","04","13","22:00","1.6","","-6.5","","55","","2","","8","","24.1","","100.86","","","","","","Clear"
"2016-04-13 23:00","2016","04","13","23:00","1.8","","-7.0","","52","","4","","8","","24.1","","100.81","","","","","","NA"
"2016-04-14 00:00","2016","04","14","00:00","1.8","","-7.0","","52","","1","","6","","24.1","","100.82","","","","","","NA"
"2016-04-14 01:00","2016","04","14","01:00","0.9","","-6.5","","58","","36","","5","","24.1","","100.84","","","","","","Clear"
"2016-04-14 02:00","2016","04","14","02:00","-1.2","","-5.4","","73","","35","","8","","24.1","","100.82","","","","-4","","NA"
"2016-04-14 03:00","2016","04","14","03:00","-1.0","","-5.8","","70","","1","","8","","24.1","","100.80","","","","-4","","NA"
"2016-04-14 04:00","2016","04","14","04:00","-1.2","","-5.8","","71","","1","","8","","24.1","","100.82","","","","-4","","Clear"
"2016-04-14 05:00","2016","04","14","05:00","-1.4","","-5.6","","73","","33","","3","","24.1","","100.87","","","","-2","","NA"
"2016-04-14 06:00","2016","04","14","06:00","-1.4","","-6.0","","71","","34","","6","","24.1","","100.94","","","","-4","","NA"
"2016-04-14 07:00","2016","04","14","07:00","1.2","","-4.3","","67","","3","","7","","24.1","","100.98","","","","","","Clear"
"2016-04-14 08:00","2016","04","14","08:00","4.6","","-5.2","","49","","8","","10","","24.1","","101.00","","","","","","NA"
"2016-04-14 09:00","2016","04","14","09:00","6.3","","-5.1","","44","","12","","9","","24.1","","101.00","","","","","","NA"
"2016-04-14 10:00","2016","04","14","10:00","7.1","","-6.6","","37","","10","","14","","24.1","","101.03","","","","","","Clear"
"2016-04-14 11:00","2016","04","14","11:00","7.8","","-6.7","","35","","11","","19","","24.1","","101.01","","","","","","NA"
"2016-04-14 12:00","2016","04","14","12:00","8.4","","-6.2","","35","","11","","16","","24.1","","100.99","","","","","","NA"
"2016-04-14 13:00","2016","04","14","13:00","8.9","","-6.5","","33","","8","","11","","24.1","","100.94","","","","","","Clear"
"2016-04-14 14:00","2016","04","14","14:00","9.3","","-10.8","","23","","10","","25","","24.1","","100.88","","","","","","NA"
"2016-04-14 15:00","2016","04","14","15:00","9.1","","-11.6","","22","","12","","22","","24.1","","100.80","","","","","","NA"
"2016-04-14 16:00","2016","04","14","16:00","9.0","","-9.0","","27","","12","","17","","24.1","","100.77","","","","","","Clear"
"2016-04-14 17:00","2016","04","14","17:00","8.8","","-9.2","","27","","11","","14","","24.1","","100.76","","","","","","NA"
"2016-04-14 18:00","2016","04","14","18:00","8.2","","-10.7","","25","","9","","8","","24.1","","100.74","","","","","","NA"
"2016-04-14 19:00","2016","04","14","19:00","6.8","","-9.6","","30","","11","","9","","24.1","","100.73","","","","","","Mainly Clear"
"2016-04-14 20:00","2016","04","14","20:00","6.2","","-10.6","","29","","7","","11","","24.1","","100.75","","","","","","NA"
"2016-04-14 21:00","2016","04","14","21:00","5.4","","-10.0","","32","","6","","8","","24.1","","100.77","","","","","","NA"
"2016-04-14 22:00","2016","04","14","22:00","5.2","","-11.5","","29","","6","","8","","24.1","","100.78","","","","","","Clear"
"2016-04-14 23:00","2016","04","14","23:00","4.2","","-11.5","","31","","7","","7","","24.1","","100.80","","","","","","NA"
"2016-04-15 00:00","2016","04","15","00:00","4.2","","-11.9","","30","","6","","5","","24.1","","100.82","","","","","","NA"
"2016-04-15 01:00","2016","04","15","01:00","3.4","","-10.3","","36","","4","","10","","24.1","","100.80","","","","","","Clear"
"2016-04-15 02:00","2016","04","15","02:00","2.8","","-9.2","","41","","4","","8","","24.1","","100.77","","","","","","NA"
"2016-04-15 03:00","2016","04","15","03:00","2.1","","-8.6","","45","","4","","8","","24.1","","100.74","","","","","","NA"
"2016-04-15 04:00","2016","04","15","04:00","-0.1","","-7.4","","58","","1","","7","","24.1","","100.76","","","","-3","","Clear"
"2016-04-15 05:00","2016","04","15","05:00","0.8","","-6.8","","57","","2","","13","","24.1","","100.75","","","","","","NA"
"2016-04-15 06:00","2016","04","15","06:00","1.3","","-5.6","","60","","2","","12","","24.1","","100.78","","","","","","NA"
"2016-04-15 07:00","2016","04","15","07:00","4.6","","-4.9","","50","","4","","7","","24.1","","100.84","","","","","","Clear"
"2016-04-15 08:00","2016","04","15","08:00","7.0","","-5.0","","42","","8","","10","","24.1","","100.88","","","","","","NA"
"2016-04-15 09:00","2016","04","15","09:00","9.2","","-3.7","","40","","8","","9","","24.1","","100.90","","","","","","NA"
"2016-04-15 10:00","2016","04","15","10:00","10.6","","-2.8","","39","","10","","12","","24.1","","100.92","","","","","","Mainly Clear"
"2016-04-15 11:00","2016","04","15","11:00","11.7","","-2.8","","36","","8","","13","","24.1","","100.94","","","","","","NA"
"2016-04-15 12:00","2016","04","15","12:00","12.3","","-3.5","","33","","12","","17","","24.1","","100.94","","","","","","NA"
"2016-04-15 13:00","2016","04","15","13:00","13.8","","-2.1","","33","","11","","19","","24.1","","100.92","","","","","","Mostly Cloudy"
"2016-04-15 14:00","2016","04","15","14:00","13.6","","-2.3","","33","","9","","14","","24.1","","100.90","","","","","","NA"
"2016-04-15 15:00","2016","04","15","15:00","14.0","","-4.7","","27","","10","","18","","24.1","","100.88","","","","","","NA"
"2016-04-15 16:00","2016","04","15","16:00","14.1","","-4.1","","28","","11","","13","","24.1","","100.84","","","","","","Mainly Clear"
"2016-04-15 17:00","2016","04","15","17:00","14.0","","-5.7","","25","","9","","13","","24.1","","100.82","","","","","","NA"
"2016-04-15 18:00","2016","04","15","18:00","12.9","","-7.2","","24","","9","","16","","24.1","","100.82","","","","","","NA"
"2016-04-15 19:00","2016","04","15","19:00","11.3","","-9.1","","23","","9","","15","","24.1","","100.82","","","","","","Mainly Clear"
"2016-04-15 20:00","2016","04","15","20:00","10.4","","-8.3","","26","","9","","12","","24.1","","100.89","","","","","","NA"
"2016-04-15 21:00","2016","04","15","21:00","9.6","","-8.5","","27","","8","","9","","24.1","","100.93","","","","","","NA"
"2016-04-15 22:00","2016","04","15","22:00","8.9","","-8.7","","28","","8","","8","","24.1","","100.91","","","","","","Clear"
"2016-04-15 23:00","2016","04","15","23:00","8.3","","-8.3","","30","","6","","5","","24.1","","100.89","","","","","","NA"
"2016-04-16 00:00","2016","04","16","00:00","7.9","","-8.2","","31","","8","","5","","24.1","","100.90","","","","","","NA"
"2016-04-16 01:00","2016","04","16","01:00","7.3","","-7.9","","33","","4","","5","","24.1","","100.88","","","","","","Clear"
"2016-04-16 02:00","2016","04","16","02:00","5.2","","-5.8","","45","","2","","12","","24.1","","100.91","","","","","","NA"
"2016-04-16 03:00","2016","04","16","03:00","6.1","","-5.3","","44","","7","","8","","24.1","","100.90","","","","","","NA"
"2016-04-16 04:00","2016","04","16","04:00","6.8","","-3.4","","48","","8","","11","","24.1","","100.92","","","","","","Clear"
"2016-04-16 05:00","2016","04","16","05:00","4.7","","-3.8","","54","","1","","7","","24.1","","100.95","","","","","","NA"
"2016-04-16 06:00","2016","04","16","06:00","5.6","","-3.7","","51","","3","","9","","24.1","","101.03","","","","","","NA"
"2016-04-16 07:00","2016","04","16","07:00","7.4","","-3.5","","46","","1","","8","","24.1","","101.07","","","","","","Clear"
"2016-04-16 08:00","2016","04","16","08:00","10.1","","-2.5","","41","","9","","11","","24.1","","101.08","","","","","","NA"
"2016-04-16 09:00","2016","04","16","09:00","11.8","","-3.1","","35","","9","","12","","24.1","","101.10","","","","","","NA"
"2016-04-16 10:00","2016","04","16","10:00","12.9","","-2.1","","35","","11","","10","","24.1","","101.10","","","","","","Clear"
"2016-04-16 11:00","2016","04","16","11:00","14.9","","-2.5","","30","","9","","10","","24.1","","101.09","","","","","","NA"
"2016-04-16 12:00","2016","04","16","12:00","16.3","","-0.3","","32","","13","","8","","24.1","","101.07","","","","","","NA"
"2016-04-16 13:00","2016","04","16","13:00","16.4","","0.2","","33","","17","","15","","24.1","","101.06","","","","","","Clear"
"2016-04-16 14:00","2016","04","16","14:00","15.8","","-0.8","","32","","16","","17","","24.1","","101.04","","","","","","NA"
"2016-04-16 15:00","2016","04","16","15:00","16.0","","-2.4","","28","","14","","18","","24.1","","101.00","","","","","","NA"
"2016-04-16 16:00","2016","04","16","16:00","16.3","","-2.2","","28","","12","","14","","24.1","","100.97","","","","","","Clear"
"2016-04-16 17:00","2016","04","16","17:00","16.2","","-4.3","","24","","11","","11","","24.1","","100.97","","","","","","NA"
"2016-04-16 18:00","2016","04","16","18:00","14.8","","-5.0","","25","","13","","10","","24.1","","100.97","","","","","","NA"
"2016-04-16 19:00","2016","04","16","19:00","12.5","","-6.5","","26","","15","","9","","24.1","","100.97","","","","","","Clear"
"2016-04-16 20:00","2016","04","16","20:00","11.9","","-7.0","","26","","36","","1","","24.1","","101.01","","","","","","NA"
"2016-04-16 21:00","2016","04","16","21:00","11.5","","-6.4","","28","","6","","5","","24.1","","101.03","","","","","","NA"
"2016-04-16 22:00","2016","04","16","22:00","11.6","","-6.3","","28","","2","","7","","24.1","","101.02","","","","","","Clear"
"2016-04-16 23:00","2016","04","16","23:00","10.4","","-6.0","","31","","3","","8","","24.1","","101.00","","","","","","NA"
"2016-04-17 00:00","2016","04","17","00:00","8.6","","-3.3","","43","","2","","11","","24.1","","100.99","","","","","","NA"
"2016-04-17 01:00","2016","04","17","01:00","8.9","","-4.3","","39","","36","","8","","24.1","","100.99","","","","","","Clear"
"2016-04-17 02:00","2016","04","17","02:00","7.5","","-4.0","","44","","35","","9","","24.1","","100.96","","","","","","NA"
"2016-04-17 03:00","2016","04","17","03:00","6.1","","-2.5","","54","","36","","4","","24.1","","100.94","","","","","","NA"
"2016-04-17 04:00","2016","04","17","04:00","5.6","","-3.5","","52","","35","","3","","24.1","","100.96","","","","","","Clear"
"2016-04-17 05:00","2016","04","17","05:00","5.5","","-3.6","","52","","1","","9","","24.1","","100.99","","","","","","NA"
"2016-04-17 06:00","2016","04","17","06:00","6.1","","-3.8","","49","","3","","3","","24.1","","101.05","","","","","","NA"
"2016-04-17 07:00","2016","04","17","07:00","9.6","","-2.0","","44","","1","","5","","24.1","","101.10","","","","","","Mainly Clear"
"2016-04-17 08:00","2016","04","17","08:00","13.0","","-1.3","","37","","13","","4","","24.1","","101.12","","","","","","NA"
"2016-04-17 09:00","2016","04","17","09:00","14.9","","-3.9","","27","","16","","9","","24.1","","101.13","","","","","","NA"
"2016-04-17 10:00","2016","04","17","10:00","15.8","","-4.1","","25","","16","","9","","24.1","","101.13","","","","","","Mainly Clear"
"2016-04-17 11:00","2016","04","17","11:00","16.9","","-3.7","","24","","36","","1","","24.1","","101.10","","","","","","NA"
"2016-04-17 12:00","2016","04","17","12:00","18.3","","-3.7","","22","","17","","5","","24.1","","101.03","","","","","","NA"
"2016-04-17 13:00","2016","04","17","13:00","19.3","","-1.6","","24","","11","","9","","24.1","","100.98","","","","","","Mainly Clear"
"2016-04-17 14:00","2016","04","17","14:00","20.5","","-1.2","","23","","16","","10","","24.1","","100.89","","","","","","NA"
"2016-04-17 15:00","2016","04","17","15:00","20.8","","-0.9","","23","","16","","14","","24.1","","100.80","","","","","","NA"
"2016-04-17 16:00","2016","04","17","16:00","20.1","","-1.5","","23","","16","","13","","24.1","","100.74","","","","","","Mainly Clear"
"2016-04-17 17:00","2016","04","17","17:00","19.4","","-3.4","","21","","15","","13","","24.1","","100.72","","","","","","NA"
"2016-04-17 18:00","2016","04","17","18:00","19.1","","-2.4","","23","","14","","9","","24.1","","100.72","","","","","","NA"
"2016-04-17 19:00","2016","04","17","19:00","17.8","","-3.5","","23","","15","","8","","24.1","","100.68","","","","","","Mainly Clear"
"2016-04-17 20:00","2016","04","17","20:00","17.0","","-3.1","","25","","17","","4","","24.1","","100.68","","","","","","NA"
"2016-04-17 21:00","2016","04","17","21:00","16.4","","1.4","","36","","35","","14","","24.1","","100.71","","","","","","NA"
"2016-04-17 22:00","2016","04","17","22:00","15.8","","1.2","","37","","33","","13","","24.1","","100.69","","","","","","Clear"
"2016-04-17 23:00","2016","04","17","23:00","13.8","","0.5","","40","","33","","13","","24.1","","100.67","","","","","","NA"
"2016-04-18 00:00","2016","04","18","00:00","13.4","","0.1","","40","","34","","4","","24.1","","100.66","","","","","","NA"
"2016-04-18 01:00","2016","04","18","01:00","11.4","","-0.1","","45","","33","","5","","24.1","","100.64","","","","","","Clear"
"2016-04-18 02:00","2016","04","18","02:00","10.9","","0.4","","48","","35","","9","","24.1","","100.63","","","","","","NA"
"2016-04-18 03:00","2016","04","18","03:00","8.9","","1.6","","60","","33","","8","","24.1","","100.62","","","","","","NA"
"2016-04-18 04:00","2016","04","18","04:00","7.5","","1.2","","64","","31","","5","","24.1","","100.60","","","","","","Clear"
"2016-04-18 05:00","2016","04","18","05:00","7.5","","1.2","","64","","30","","10","","24.1","","100.57","","","","","","NA"
"2016-04-18 06:00","2016","04","18","06:00","9.1","","1.8","","60","","31","","9","","24.1","","100.59","","","","","","NA"
"2016-04-18 07:00","2016","04","18","07:00","12.2","","2.7","","52","","29","","7","","24.1","","100.61","","","","","","Mostly Cloudy"
"2016-04-18 08:00","2016","04","18","08:00","15.6","","0.7","","36","","28","","9","","24.1","","100.60","","","","","","NA"
"2016-04-18 09:00","2016","04","18","09:00","17.9","","1.5","","33","","32","","7","","24.1","","100.59","","","","","","NA"
"2016-04-18 10:00","2016","04","18","10:00","19.8","","0.4","","27","","36","","3","","24.1","","100.53","","","","","","Mainly Clear"
"2016-04-18 11:00","2016","04","18","11:00","21.5","","1.4","","26","","23","","11","","24.1","","100.46","","","","","","NA"
"2016-04-18 12:00","2016","04","18","12:00","22.0","","2.8","","28","","14","","17","","24.1","","100.40","","","","","","NA"
"2016-04-18 13:00","2016","04","18","13:00","22.2","","2.5","","27","","17","","23","","24.1","","100.31","","","","","","Mostly Cloudy"
"2016-04-18 14:00","2016","04","18","14:00","22.7","","4.0","","29","","15","","20","","24.1","","100.20","","","","","","NA"
"2016-04-18 15:00","2016","04","18","15:00","22.2","","3.0","","28","","16","","21","","24.1","","100.07","","","","","","NA"
"2016-04-18 16:00","2016","04","18","16:00","22.9","","4.6","","30","","14","","12","","24.1","","99.99","","","","","","Mostly Cloudy"
"2016-04-18 17:00","2016","04","18","17:00","25.4","","5.3","","27","","28","","22","","24.1","","99.94","","25","","","","NA"
"2016-04-18 18:00","2016","04","18","18:00","24.6","","3.5","","25","","30","","26","","24.1","","99.93","","","","","","NA"
"2016-04-18 19:00","2016","04","18","19:00","23.3","","3.5","","27","","30","","25","","24.1","","99.89","","","","","","Mostly Cloudy"
"2016-04-18 20:00","2016","04","18","20:00","15.6","","3.5","","44","","36","","34","","24.1","","100.00","","","","","","NA"
"2016-04-18 21:00","2016","04","18","21:00","13.8","","2.1","","45","","34","","27","","24.1","","100.04","","","","","","NA"
"2016-04-18 22:00","2016","04","18","22:00","12.8","","2.4","","49","","35","","31","","24.1","","100.02","","","","","","Mostly Cloudy"
"2016-04-18 23:00","2016","04","18","23:00","11.8","","4.1","","59","","34","","31","","24.1","","100.02","","","","","","NA"
"2016-04-19 00:00","2016","04","19","00:00","10.0","","3.1","","62","","35","","38","","24.1","","100.02","","","","","","NA"
"2016-04-19 01:00","2016","04","19","01:00","7.8","","2.7","","70","","35","","35","","24.1","","100.10","","","","","","Mostly Cloudy"
"2016-04-19 02:00","2016","04","19","02:00","6.5","","3.3","","80","","35","","28","","24.1","","100.12","","","","","","NA"
"2016-04-19 03:00","2016","04","19","03:00","6.6","","3.4","","80","","36","","23","","24.1","","100.21","","","","","","NA"
"2016-04-19 04:00","2016","04","19","04:00","6.1","","2.9","","80","","36","","23","","24.1","","100.26","","","","","","Mostly Cloudy"
"2016-04-19 05:00","2016","04","19","05:00","6.6","","2.7","","76","","2","","25","","24.1","","100.37","","","","","","NA"
"2016-04-19 06:00","2016","04","19","06:00","6.3","","2.2","","75","","1","","26","","24.1","","100.44","","","","","","NA"
"2016-04-19 07:00","2016","04","19","07:00","7.2","","1.9","","69","","1","","22","","24.1","","100.48","","","","","","Mostly Cloudy"
"2016-04-19 08:00","2016","04","19","08:00","8.4","","2.0","","64","","36","","19","","24.1","","100.53","","","","","","NA"
"2016-04-19 09:00","2016","04","19","09:00","9.2","","0.7","","55","","36","","19","","24.1","","100.55","","","","","","NA"
"2016-04-19 10:00","2016","04","19","10:00","10.2","","-0.9","","46","","2","","20","","24.1","","100.57","","","","","","Mainly Clear"
"2016-04-19 11:00","2016","04","19","11:00","12.0","","-0.1","","43","","35","","14","","24.1","","100.55","","","","","","NA"
"2016-04-19 12:00","2016","04","19","12:00","13.3","","-2.6","","33","","36","","17","","24.1","","100.52","","","","","","NA"
"2016-04-19 13:00","2016","04","19","13:00","14.4","","0.0","","37","","31","","13","","24.1","","100.46","","","","","","Mostly Cloudy"
"2016-04-19 14:00","2016","04","19","14:00","15.0","","-0.3","","35","","32","","18","","24.1","","100.43","","","","","","NA"
"2016-04-19 15:00","2016","04","19","15:00","15.8","","-0.4","","33","","36","","22","","24.1","","100.39","","","","","","NA"
"2016-04-19 16:00","2016","04","19","16:00","15.6","","-2.8","","28","","32","","21","","24.1","","100.38","","","","","","Mostly Cloudy"
"2016-04-19 17:00","2016","04","19","17:00","14.9","","-3.9","","27","","1","","24","","24.1","","100.38","","","","","","NA"
"2016-04-19 18:00","2016","04","19","18:00","13.7","","-3.5","","30","","36","","24","","24.1","","100.38","","","","","","NA"
"2016-04-19 19:00","2016","04","19","19:00","11.8","","-3.5","","34","","36","","24","","24.1","","100.43","","","","","","Mostly Cloudy"
"2016-04-19 20:00","2016","04","19","20:00","10.4","","-4.4","","35","","35","","23","","24.1","","100.48","","","","","","NA"
"2016-04-19 21:00","2016","04","19","21:00","8.8","","-5.5","","36","","36","","22","","24.1","","100.50","","","","","","NA"
"2016-04-19 22:00","2016","04","19","22:00","7.9","","-4.9","","40","","36","","22","","24.1","","100.52","","","","","","Mainly Clear"
"2016-04-19 23:00","2016","04","19","23:00","7.0","","-6.0","","39","","35","","23","","24.1","","100.53","","","","","","NA"
"2016-04-20 00:00","2016","04","20","00:00","6.4","","-6.6","","39","","35","","22","","24.1","","100.56","","","","","","NA"
"2016-04-20 01:00","2016","04","20","01:00","5.7","","-5.6","","44","","34","","17","","24.1","","100.56","","","","","","Clear"
"2016-04-20 02:00","2016","04","20","02:00","4.8","","-4.8","","50","","36","","14","","24.1","","100.55","","","","","","NA"
"2016-04-20 03:00","2016","04","20","03:00","4.3","","-4.2","","54","","36","","14","","24.1","","100.59","","","","","","NA"
"2016-04-20 04:00","2016","04","20","04:00","4.1","","-4.1","","55","","35","","14","","24.1","","100.61","","","","","","Clear"
"2016-04-20 05:00","2016","04","20","05:00","2.8","","-3.3","","64","","2","","13","","24.1","","100.64","","","","","","NA"
"2016-04-20 06:00","2016","04","20","06:00","3.6","","-3.2","","61","","34","","11","","24.1","","100.70","","","","","","NA"
"2016-04-20 07:00","2016","04","20","07:00","6.9","","-2.0","","53","","3","","7","","24.1","","100.72","","","","","","Clear"
"2016-04-20 08:00","2016","04","20","08:00","9.3","","-1.4","","47","","9","","12","","24.1","","100.71","","","","","","NA"
"2016-04-20 09:00","2016","04","20","09:00","10.4","","-1.6","","43","","14","","10","","24.1","","100.70","","","","","","NA"
"2016-04-20 10:00","2016","04","20","10:00","10.2","","-2.1","","42","","13","","17","","24.1","","100.71","","","","","","Clear"
"2016-04-20 11:00","2016","04","20","11:00","11.5","","-3.0","","36","","1","","17","","24.1","","100.66","","","","","","NA"
"2016-04-20 12:00","2016","04","20","12:00","12.0","","-5.5","","29","","11","","19","","24.1","","100.60","","","","","","NA"
"2016-04-20 13:00","2016","04","20","13:00","12.8","","-10.3","","19","","10","","18","","24.1","","100.55","","","","","","Clear"
"2016-04-20 14:00","2016","04","20","14:00","13.8","","-13.3","","14","","16","","14","","24.1","","100.46","","","","","","NA"
"2016-04-20 15:00","2016","04","20","15:00","14.4","","-12.8","","14","","14","","13","","24.1","","100.40","","","","","","NA"
"2016-04-20 16:00","2016","04","20","16:00","14.8","","-13.4","","13","","13","","12","","24.1","","100.27","","","","","","Mainly Clear"
"2016-04-20 17:00","2016","04","20","17:00","14.5","","-11.0","","16","","15","","10","","24.1","","100.24","","","","","","NA"
"2016-04-20 18:00","2016","04","20","18:00","12.1","","-11.6","","18","","16","","11","","24.1","","100.17","","","","","","NA"
"2016-04-20 19:00","2016","04","20","19:00","9.4","","-13.8","","18","","15","","9","","24.1","","100.11","","","","","","Mostly Cloudy"
"2016-04-20 20:00","2016","04","20","20:00","9.4","","-14.5","","17","","13","","7","","24.1","","100.08","","","","","","NA"
"2016-04-20 21:00","2016","04","20","21:00","8.3","","-11.7","","23","","17","","4","","24.1","","100.05","","","","","","NA"
"2016-04-20 22:00","2016","04","20","22:00","8.1","","-10.3","","26","","10","","4","","24.1","","100.01","","","","","","Mostly Cloudy"
"2016-04-20 23:00","2016","04","20","23:00","7.7","","-11.7","","24","","6","","4","","24.1","","99.94","","","","","","NA"
"2016-04-21 00:00","2016","04","21","00:00","7.1","","-10.2","","28","","4","","8","","24.1","","99.87","","","","","","NA"
"2016-04-21 01:00","2016","04","21","01:00","6.8","","-9.2","","31","","1","","9","","24.1","","99.78","","","","","","Mostly Cloudy"
"2016-04-21 02:00","2016","04","21","02:00","5.4","","-7.8","","38","","2","","10","","24.1","","99.68","","","","","","NA"
"2016-04-21 03:00","2016","04","21","03:00","6.1","","-7.9","","36","","2","","9","","24.1","","99.62","","","","","","NA"
"2016-04-21 04:00","2016","04","21","04:00","6.5","","-7.9","","35","","1","","7","","24.1","","99.59","","","","","","Mostly Cloudy"
"2016-04-21 05:00","2016","04","21","05:00","6.5","","-6.1","","40","","1","","8","","24.1","","99.56","","","","","","NA"
"2016-04-21 06:00","2016","04","21","06:00","7.5","","-4.9","","41","","5","","7","","24.1","","99.54","","","","","","NA"
"2016-04-21 07:00","2016","04","21","07:00","8.2","","-3.0","","45","","3","","5","","24.1","","99.55","","","","","","Mostly Cloudy"
"2016-04-21 08:00","2016","04","21","08:00","9.1","","-3.1","","42","","4","","9","","24.1","","99.51","","","","","","NA"
"2016-04-21 09:00","2016","04","21","09:00","11.7","","-0.7","","42","","36","","2","","24.1","","99.43","","","","","","NA"
"2016-04-21 10:00","2016","04","21","10:00","13.8","","-1.7","","34","","16","","7","","24.1","","99.36","","","","","","Mostly Cloudy"
"2016-04-21 11:00","2016","04","21","11:00","12.7","","-0.2","","41","","15","","13","","24.1","","99.37","","","","","","NA"
"2016-04-21 12:00","2016","04","21","12:00","13.4","","0.8","","42","","14","","12","","24.1","","99.32","","","","","","NA"
"2016-04-21 13:00","2016","04","21","13:00","14.2","","2.5","","45","","16","","7","","24.1","","99.31","","","","","","Rain"
"2016-04-21 14:00","2016","04","21","14:00","13.5","","4.7","","55","","16","","10","","24.1","","99.28","","","","","","Rain"
"2016-04-21 15:00","2016","04","21","15:00","11.4","","5.7","","68","","14","","12","","19.3","","99.24","","","","","","Rain"
"2016-04-21 16:00","2016","04","21","16:00","10.8","","6.2","","73","","15","","14","","19.3","","99.18","","","","","","Rain"
"2016-04-21 17:00","2016","04","21","17:00","11.1","","6.1","","71","","15","","13","","24.1","","99.07","","","","","","NA"
"2016-04-21 18:00","2016","04","21","18:00","11.4","","6.4","","71","","14","","9","","24.1","","99.05","","","","","","NA"
"2016-04-21 19:00","2016","04","21","19:00","11.4","","7.4","","76","","15","","11","","24.1","","99.04","","","","","","Cloudy"
"2016-04-21 20:00","2016","04","21","20:00","11.5","","7.6","","77","","15","","9","","24.1","","99.05","","","","","","NA"
"2016-04-21 21:00","2016","04","21","21:00","12.1","","8.6","","79","","14","","9","","19.3","","99.01","","","","","","Rain"
"2016-04-21 22:00","2016","04","21","22:00","11.6","","9.4","","86","","14","","9","","19.3","","98.98","","","","","","Rain"
"2016-04-21 23:00","2016","04","21","23:00","11.4","","9.5","","88","","14","","7","","16.1","","98.93","","","","","","Rain"
"2016-04-22 00:00","2016","04","22","00:00","11.3","","9.4","","88","","17","","5","","16.1","","98.93","","","","","","NA"
"2016-04-22 01:00","2016","04","22","01:00","11.1","","9.2","","88","","16","","5","","16.1","","98.90","","","","","","Cloudy"
"2016-04-22 02:00","2016","04","22","02:00","11.3","","9.6","","89","","16","","5","","12.9","","98.87","","","","","","Rain"
"2016-04-22 03:00","2016","04","22","03:00","11.5","","10.3","","92","","17","","6","","9.7","","98.81","","","","","","Rain,Fog"
"2016-04-22 04:00","2016","04","22","04:00","10.9","","9.8","","93","","20","","3","","9.7","","98.81","","","","","","Fog"
"2016-04-22 05:00","2016","04","22","05:00","13.0","","11.9","","93","","23","","8","","9.7","","98.85","","","","","","Fog"
"2016-04-22 06:00","2016","04","22","06:00","13.6","","12.3","","92","","20","","9","","4.8","","98.90","","","","","","Fog"
"2016-04-22 07:00","2016","04","22","07:00","14.2","","12.8","","91","","26","","9","","9.7","","98.98","","","","","","Fog"
"2016-04-22 08:00","2016","04","22","08:00","15.2","","13.3","","88","","24","","14","","9.7","","99.01","","","","","","Fog"
"2016-04-22 09:00","2016","04","22","09:00","16.1","","12.9","","81","","29","","14","","19.3","","99.02","","","","","","NA"
"2016-04-22 10:00","2016","04","22","10:00","17.6","","12.4","","71","","28","","15","","24.1","","99.03","","","","","","Mostly Cloudy"
"2016-04-22 11:00","2016","04","22","11:00","15.2","","11.6","","79","","35","","21","","19.3","","99.09","","","","","","NA"
"2016-04-22 12:00","2016","04","22","12:00","17.5","","12.0","","70","","35","","16","","24.1","","99.10","","","","","","NA"
"2016-04-22 13:00","2016","04","22","13:00","13.5","","10.3","","81","","36","","28","","19.3","","99.14","","","","","","Rain Showers"
"2016-04-22 14:00","2016","04","22","14:00","15.9","","9.2","","64","","36","","26","","24.1","","99.13","","","","","","NA"
"2016-04-22 15:00","2016","04","22","15:00","16.6","","8.6","","59","","35","","31","","24.1","","99.16","","","","","","NA"
"2016-04-22 16:00","2016","04","22","16:00","13.9","","5.6","","57","","36","","41","","24.1","","99.20","","","","","","Mostly Cloudy"
"2016-04-22 17:00","2016","04","22","17:00","13.3","","6.2","","62","","36","","36","","24.1","","99.25","","","","","","NA"
"2016-04-22 18:00","2016","04","22","18:00","11.1","","5.5","","68","","35","","30","","24.1","","99.34","","","","","","NA"
"2016-04-22 19:00","2016","04","22","19:00","9.4","","4.8","","73","","36","","22","","24.1","","99.45","","","","","","Mainly Clear"
"2016-04-22 20:00","2016","04","22","20:00","7.8","","2.9","","71","","35","","28","","24.1","","99.53","","","","","","NA"
"2016-04-22 21:00","2016","04","22","21:00","7.3","","2.4","","71","","34","","23","","24.1","","99.59","","","","","","NA"
"2016-04-22 22:00","2016","04","22","22:00","6.3","","2.0","","74","","35","","23","","24.1","","99.64","","","","","","Mainly Clear"
"2016-04-22 23:00","2016","04","22","23:00","6.2","","2.5","","77","","36","","26","","24.1","","99.67","","","","","","NA"
"2016-04-23 00:00","2016","04","23","00:00","6.2","","2.5","","77","","1","","28","","24.1","","99.69","","","","","","NA"
"2016-04-23 01:00","2016","04","23","01:00","5.7","","1.8","","76","","36","","32","","24.1","","99.69","","","","","","Cloudy"
"2016-04-23 02:00","2016","04","23","02:00","4.9","","1.0","","76","","35","","32","","24.1","","99.71","","","","","","NA"
"2016-04-23 03:00","2016","04","23","03:00","4.1","","0.1","","75","","2","","30","","24.1","","99.76","","","","","","NA"
"2016-04-23 04:00","2016","04","23","04:00","3.3","","-1.1","","73","","1","","24","","24.1","","99.81","","","","","","Clear"
"2016-04-23 05:00","2016","04","23","05:00","2.5","","-2.4","","70","","1","","22","","24.1","","99.86","","","","","","NA"
"2016-04-23 06:00","2016","04","23","06:00","2.0","","-2.2","","74","","36","","25","","24.1","","99.95","","","","","","NA"
"2016-04-23 07:00","2016","04","23","07:00","3.0","","-2.3","","68","","36","","22","","24.1","","100.03","","","","","","Clear"
"2016-04-23 08:00","2016","04","23","08:00","4.5","","-2.6","","60","","36","","15","","24.1","","100.06","","","","","","NA"
"2016-04-23 09:00","2016","04","23","09:00","6.0","","-4.8","","46","","1","","17","","24.1","","100.08","","","","","","NA"
"2016-04-23 10:00","2016","04","23","10:00","7.4","","-7.5","","34","","2","","15","","24.1","","100.07","","","","","","Clear"
"2016-04-23 11:00","2016","04","23","11:00","8.9","","-5.7","","35","","33","","12","","24.1","","100.06","","","","","","NA"
"2016-04-23 12:00","2016","04","23","12:00","10.0","","-8.6","","26","","32","","13","","24.1","","100.02","","","","","","NA"
"2016-04-23 13:00","2016","04","23","13:00","11.3","","-6.5","","28","","5","","18","","24.1","","100.00","","","","","","Clear"
"2016-04-23 14:00","2016","04","23","14:00","12.1","","-7.3","","25","","35","","21","","24.1","","99.97","","","","","","NA"
"2016-04-23 15:00","2016","04","23","15:00","12.6","","-6.9","","25","","33","","27","","24.1","","99.93","","","","","","NA"
"2016-04-23 16:00","2016","04","23","16:00","12.0","","-9.7","","21","","36","","23","","24.1","","99.88","","","","","","Clear"
"2016-04-23 17:00","2016","04","23","17:00","11.6","","-9.4","","22","","2","","27","","24.1","","99.86","","","","","","NA"
"2016-04-23 18:00","2016","04","23","18:00","10.1","","-11.3","","21","","1","","27","","24.1","","99.86","","","","","","NA"
"2016-04-23 19:00","2016","04","23","19:00","7.8","","-13.3","","21","","35","","21","","24.1","","99.89","","","","","","Mainly Clear"
"2016-04-23 20:00","2016","04","23","20:00","6.1","","-13.6","","23","","1","","20","","24.1","","99.92","","","","","","NA"
"2016-04-23 21:00","2016","04","23","21:00","4.9","","-15.2","","22","","35","","19","","24.1","","99.98","","","","","","NA"
"2016-04-23 22:00","2016","04","23","22:00","3.8","","-14.1","","26","","34","","18","","24.1","","100.01","","","","","","Mainly Clear"
"2016-04-23 23:00","2016","04","23","23:00","3.0","","-12.6","","31","","34","","19","","24.1","","100.00","","","","","","NA"
"2016-04-24 00:00","2016","04","24","00:00","2.3","","-11.0","","37","","33","","13","","24.1","","99.99","","","","","","NA"
"2016-04-24 01:00","2016","04","24","01:00","2.4","","-9.9","","40","","35","","14","","24.1","","99.99","","","","","","Mostly Cloudy"
"2016-04-24 02:00","2016","04","24","02:00","2.1","","-8.9","","44","","35","","10","","24.1","","99.95","","","","","","NA"
"2016-04-24 03:00","2016","04","24","03:00","2.3","","-7.9","","47","","35","","12","","24.1","","100.01","","","","","","NA"
"2016-04-24 04:00","2016","04","24","04:00","1.9","","-7.0","","52","","35","","15","","24.1","","100.04","","","","","","Mainly Clear"
"2016-04-24 05:00","2016","04","24","05:00","1.3","","-6.1","","58","","36","","15","","24.1","","100.05","","","","","","NA"
"2016-04-24 06:00","2016","04","24","06:00","2.0","","-5.0","","60","","1","","10","","24.1","","100.07","","","","","","NA"
"2016-04-24 07:00","2016","04","24","07:00","4.3","","-5.5","","49","","4","","11","","24.1","","100.10","","","","","","Mostly Cloudy"
"2016-04-24 08:00","2016","04","24","08:00","6.6","","-8.2","","34","","13","","10","","24.1","","100.08","","","","","","NA"
"2016-04-24 09:00","2016","04","24","09:00","6.7","","-8.1","","34","","15","","14","","24.1","","100.10","","","","","","NA"
"2016-04-24 10:00","2016","04","24","10:00","7.3","","-5.8","","39","","11","","7","","24.1","","100.12","","","","","","Mostly Cloudy"
"2016-04-24 11:00","2016","04","24","11:00","8.5","","-4.3","","40","","11","","9","","24.1","","100.03","","","","","","NA"
"2016-04-24 12:00","2016","04","24","12:00","9.1","","-2.8","","43","","17","","7","","24.1","","99.98","","","","","","NA"
"2016-04-24 13:00","2016","04","24","13:00","9.8","","-3.8","","38","","14","","14","","24.1","","99.93","","","","","","Mostly Cloudy"
"2016-04-24 14:00","2016","04","24","14:00","10.1","","-4.3","","36","","14","","11","","24.1","","99.87","","","","","","NA"
"2016-04-24 15:00","2016","04","24","15:00","9.8","","-4.6","","36","","15","","15","","24.1","","99.84","","","","","","NA"
"2016-04-24 16:00","2016","04","24","16:00","9.6","","-6.3","","32","","16","","14","","24.1","","99.78","","","","","","Cloudy"
"2016-04-24 17:00","2016","04","24","17:00","8.9","","-5.0","","37","","13","","13","","24.1","","99.80","","","","","","NA"
"2016-04-24 18:00","2016","04","24","18:00","7.4","","-3.2","","47","","15","","10","","24.1","","99.78","","","","","","NA"
"2016-04-24 19:00","2016","04","24","19:00","6.3","","-1.4","","58","","15","","7","","24.1","","99.78","","","","","","Cloudy"
"2016-04-24 20:00","2016","04","24","20:00","5.9","","-1.5","","59","","15","","5","","24.1","","99.78","","","","","","NA"
"2016-04-24 21:00","2016","04","24","21:00","6.6","","-1.1","","58","","15","","5","","24.1","","99.77","","","","","","NA"
"2016-04-24 22:00","2016","04","24","22:00","6.4","","-2.2","","54","","12","","3","","24.1","","99.72","","","","","","Mostly Cloudy"
"2016-04-24 23:00","2016","04","24","23:00","6.8","","-2.1","","53","","36","","2","","24.1","","99.70","","","","","","NA"
"2016-04-25 00:00","2016","04","25","00:00","6.7","","-2.2","","53","","0","","1","","24.1","","99.70","","","","","","NA"
"2016-04-25 01:00","2016","04","25","01:00","7.1","","-3.2","","48","","36","","1","","24.1","","99.69","","","","","","Cloudy"
"2016-04-25 02:00","2016","04","25","02:00","7.5","","-4.0","","44","","9","","7","","24.1","","99.68","","","","","","Rain"
"2016-04-25 03:00","2016","04","25","03:00","7.0","","-4.7","","43","","13","","5","","24.1","","99.66","","","","","","Rain"
"2016-04-25 04:00","2016","04","25","04:00","6.7","","-3.5","","48","","2","","7","","24.1","","99.72","","","","","","Rain"
"2016-04-25 05:00","2016","04","25","05:00","7.2","","-3.9","","45","","6","","10","","24.1","","99.71","","","","","","Rain"
"2016-04-25 06:00","2016","04","25","06:00","7.1","","-3.7","","46","","7","","14","","24.1","","99.74","","","","","","Rain"
"2016-04-25 07:00","2016","04","25","07:00","6.8","","-2.1","","53","","9","","21","","24.1","","99.75","","","","","","Rain"
"2016-04-25 08:00","2016","04","25","08:00","6.0","","-1.2","","60","","8","","22","","24.1","","99.75","","","","","","Rain"
"2016-04-25 09:00","2016","04","25","09:00","5.2","","0.2","","70","","9","","18","","24.1","","99.74","","","","","","Rain"
"2016-04-25 10:00","2016","04","25","10:00","4.5","","-0.1","","72","","9","","14","","24.1","","99.72","","","","","","Rain"
"2016-04-25 11:00","2016","04","25","11:00","5.7","","-2.2","","57","","9","","19","","24.1","","99.71","","","","","","NA"
"2016-04-25 12:00","2016","04","25","12:00","7.0","","-1.7","","54","","8","","21","","24.1","","99.66","","","","","","NA"
"2016-04-25 13:00","2016","04","25","13:00","7.4","","-1.3","","54","","8","","25","","24.1","","99.58","","","","","","Mostly Cloudy"
"2016-04-25 14:00","2016","04","25","14:00","7.4","","-1.0","","55","","8","","23","","24.1","","99.51","","","","","","NA"
"2016-04-25 15:00","2016","04","25","15:00","7.1","","-0.4","","59","","10","","18","","24.1","","99.43","","","","","","NA"
"2016-04-25 16:00","2016","04","25","16:00","6.0","","-0.3","","64","","9","","18","","32.2","","99.35","","","","","","Cloudy"
"2016-04-25 17:00","2016","04","25","17:00","4.8","","-0.2","","70","","9","","15","","24.1","","99.30","","","","","","Rain Showers"
"2016-04-25 18:00","2016","04","25","18:00","5.1","","-0.5","","67","","10","","26","","24.1","","99.19","","","","","","NA"
"2016-04-25 19:00","2016","04","25","19:00","5.0","","-1.5","","63","","7","","17","","24.1","","99.23","","","","","","Rain Showers"
"2016-04-25 20:00","2016","04","25","20:00","3.8","","0.7","","80","","6","","18","","24.1","","99.22","","","","","","Thunderstorms,Rain Showers"
"2016-04-25 21:00","2016","04","25","21:00","3.7","","0.8","","81","","8","","15","","24.1","","99.18","","","","","","Rain Showers"
"2016-04-25 22:00","2016","04","25","22:00","4.0","","0.3","","77","","7","","15","","24.1","","99.14","","","","","","Rain Showers"
"2016-04-25 23:00","2016","04","25","23:00","4.4","","0.2","","74","","7","","23","","24.1","","99.00","","","","","","NA"
"2016-04-26 00:00","2016","04","26","00:00","3.7","","1.4","","85","","7","","15","","16.1","","98.94","","","","","","Rain Showers"
"2016-04-26 01:00","2016","04","26","01:00","3.6","","1.2","","84","","9","","12","","16.1","","98.86","","","","","","Thunderstorms,Rain Showers"
"2016-04-26 02:00","2016","04","26","02:00","3.2","","1.3","","87","","4","","8","","9.7","","98.92","","","","","","Moderate Rain Showers"
"2016-04-26 03:00","2016","04","26","03:00","2.6","","0.7","","87","","8","","20","","9.7","","98.71","","","","","","Rain Showers,Fog"
"2016-04-26 04:00","2016","04","26","04:00","2.5","","0.4","","86","","8","","12","","24.1","","98.66","","","","","","Cloudy"
"2016-04-26 05:00","2016","04","26","05:00","2.6","","-0.2","","82","","7","","15","","24.1","","98.67","","","","","","NA"
"2016-04-26 06:00","2016","04","26","06:00","2.5","","0.1","","84","","5","","15","","12.9","","98.70","","","","","","NA"
"2016-04-26 07:00","2016","04","26","07:00","2.5","","0.7","","88","","2","","18","","4.8","","98.76","","","","","","Rain Showers,Fog"
"2016-04-26 08:00","2016","04","26","08:00","2.3","","0.8","","90","","4","","17","","6.4","","98.89","","","","","","Rain Showers,Fog"
"2016-04-26 09:00","2016","04","26","09:00","2.2","","0.6","","89","","4","","23","","9.7","","98.91","","","","","","Rain Showers,Fog"
"2016-04-26 10:00","2016","04","26","10:00","3.5","","1.1","","84","","6","","16","","24.1","","98.94","","","","","","Cloudy"
"2016-04-26 11:00","2016","04","26","11:00","3.7","","1.1","","83","","5","","13","","24.1","","99.03","","","","","","NA"
"2016-04-26 12:00","2016","04","26","12:00","4.0","","1.0","","81","","5","","11","","24.1","","99.07","","","","","","NA"
"2016-04-26 13:00","2016","04","26","13:00","4.2","","1.1","","80","","3","","18","","24.1","","99.14","","","","","","Cloudy"
"2016-04-26 14:00","2016","04","26","14:00","4.2","","0.9","","79","","36","","16","","24.1","","99.19","","","","","","NA"
"2016-04-26 15:00","2016","04","26","15:00","4.7","","0.7","","75","","1","","10","","24.1","","99.22","","","","","","NA"
"2016-04-26 16:00","2016","04","26","16:00","4.9","","0.7","","74","","2","","13","","24.1","","99.26","","","","","","Cloudy"
"2016-04-26 17:00","2016","04","26","17:00","5.1","","0.5","","72","","35","","13","","24.1","","99.30","","","","","","NA"
"2016-04-26 18:00","2016","04","26","18:00","5.9","","-0.2","","65","","35","","9","","24.1","","99.28","","","","","","NA"
"2016-04-26 19:00","2016","04","26","19:00","5.3","","0.3","","70","","31","","13","","24.1","","99.27","","","","","","Mainly Clear"
"2016-04-26 20:00","2016","04","26","20:00","4.3","","0.1","","74","","32","","14","","24.1","","99.30","","","","","","NA"
"2016-04-26 21:00","2016","04","26","21:00","3.5","","0.2","","79","","31","","9","","24.1","","99.32","","","","","","NA"
"2016-04-26 22:00","2016","04","26","22:00","3.0","","0.2","","82","","32","","12","","24.1","","99.29","","","","","","Clear"
"2016-04-26 23:00","2016","04","26","23:00","3.6","","-1.8","","68","","33","","18","","24.1","","99.30","","","","","","NA"
"2016-04-27 00:00","2016","04","27","00:00","2.8","","-3.3","","64","","34","","20","","24.1","","99.39","","","","","","NA"
"2016-04-27 01:00","2016","04","27","01:00","1.7","","-4.0","","66","","1","","18","","24.1","","99.44","","","","","","Mainly Clear"
"2016-04-27 02:00","2016","04","27","02:00","1.2","","-4.1","","68","","35","","14","","24.1","","99.44","","","","","","NA"
"2016-04-27 03:00","2016","04","27","03:00","1.4","","-4.1","","67","","36","","18","","24.1","","99.45","","","","","","NA"
"2016-04-27 04:00","2016","04","27","04:00","0.7","","-4.0","","71","","36","","12","","24.1","","99.46","","","","","","Clear"
"2016-04-27 05:00","2016","04","27","05:00","0.6","","-3.5","","74","","35","","17","","24.1","","99.57","","","","","","NA"
"2016-04-27 06:00","2016","04","27","06:00","0.9","","-3.0","","75","","36","","16","","24.1","","99.63","","","","","","NA"
"2016-04-27 07:00","2016","04","27","07:00","2.7","","-3.0","","66","","1","","12","","24.1","","99.62","","","","","","Clear"
"2016-04-27 08:00","2016","04","27","08:00","4.4","","-4.1","","54","","1","","11","","24.1","","99.59","","","","","","NA"
"2016-04-27 09:00","2016","04","27","09:00","5.8","","-4.9","","46","","33","","3","","24.1","","99.55","","","","","","NA"
"2016-04-27 10:00","2016","04","27","10:00","7.0","","-5.7","","40","","16","","10","","24.1","","99.56","","","","","","Clear"
"2016-04-27 11:00","2016","04","27","11:00","7.1","","-5.6","","40","","20","","9","","24.1","","99.53","","","","","","NA"
"2016-04-27 12:00","2016","04","27","12:00","7.6","","-4.5","","42","","15","","5","","24.1","","99.43","","","","","","NA"
"2016-04-27 13:00","2016","04","27","13:00","9.9","","-2.7","","41","","21","","5","","24.1","","99.39","","","","","","Clear"
"2016-04-27 14:00","2016","04","27","14:00","10.2","","-2.1","","42","","17","","13","","24.1","","99.37","","","","","","NA"
"2016-04-27 15:00","2016","04","27","15:00","9.4","","-2.8","","42","","16","","22","","24.1","","99.34","","","","","","NA"
"2016-04-27 16:00","2016","04","27","16:00","10.4","","-3.6","","37","","15","","17","","24.1","","99.29","","","","","","Mainly Clear"
"2016-04-27 17:00","2016","04","27","17:00","10.7","","-3.0","","38","","13","","10","","24.1","","99.30","","","","","","NA"
"2016-04-27 18:00","2016","04","27","18:00","9.9","","-5.6","","33","","36","","25","","24.1","","99.34","","","","","","NA"
"2016-04-27 19:00","2016","04","27","19:00","6.6","","-7.8","","35","","1","","28","","24.1","","99.47","","","","","","Mostly Cloudy"
"2016-04-27 20:00","2016","04","27","20:00","5.6","","-8.0","","37","","35","","26","","24.1","","99.47","","","","","","NA"
"2016-04-27 21:00","2016","04","27","21:00","4.7","","-5.1","","49","","36","","21","","24.1","","99.51","","","","","","NA"
"2016-04-27 22:00","2016","04","27","22:00","4.0","","-7.5","","43","","1","","17","","24.1","","99.58","","","","","","Mainly Clear"
"2016-04-27 23:00","2016","04","27","23:00","3.5","","-8.3","","42","","36","","22","","24.1","","99.55","","","","","","NA"
"2016-04-28 00:00","2016","04","28","00:00","2.7","","-8.1","","45","","1","","16","","24.1","","99.57","","","","","","NA"
"2016-04-28 01:00","2016","04","28","01:00","2.4","","-9.0","","43","","33","","7","","24.1","","99.59","","","","","","Mainly Clear"
"2016-04-28 02:00","2016","04","28","02:00","1.6","","-8.3","","48","","1","","9","","24.1","","99.59","","","","","","NA"
"2016-04-28 03:00","2016","04","28","03:00","1.4","","-7.7","","51","","35","","10","","24.1","","99.64","","","","","","NA"
"2016-04-28 04:00","2016","04","28","04:00","1.0","","-6.8","","56","","36","","9","","24.1","","99.69","","","","","","Mostly Cloudy"
"2016-04-28 05:00","2016","04","28","05:00","0.5","","-5.5","","64","","32","","13","","24.1","","99.74","","","","","","NA"
"2016-04-28 06:00","2016","04","28","06:00","1.2","","-4.7","","65","","2","","10","","24.1","","99.81","","","","","","NA"
"2016-04-28 07:00","2016","04","28","07:00","3.0","","-4.2","","59","","3","","12","","24.1","","99.82","","","","","","Mostly Cloudy"
"2016-04-28 08:00","2016","04","28","08:00","5.6","","-6.0","","43","","8","","15","","24.1","","99.83","","","","","","NA"
"2016-04-28 09:00","2016","04","28","09:00","7.6","","-7.7","","33","","10","","18","","24.1","","99.84","","","","","","NA"
"2016-04-28 10:00","2016","04","28","10:00","7.5","","-6.3","","37","","10","","21","","24.1","","99.83","","","","","","Mostly Cloudy"
"2016-04-28 11:00","2016","04","28","11:00","6.6","","-6.1","","40","","10","","19","","24.1","","99.82","","","","","","NA"
"2016-04-28 12:00","2016","04","28","12:00","6.9","","-6.5","","38","","10","","21","","24.1","","99.78","","","","","","NA"
"2016-04-28 13:00","2016","04","28","13:00","7.6","","-6.5","","36","","11","","18","","24.1","","99.73","","","","","","Cloudy"
"2016-04-28 14:00","2016","04","28","14:00","7.3","","-6.4","","37","","8","","17","","24.1","","99.72","","","","","","NA"
"2016-04-28 15:00","2016","04","28","15:00","8.6","","-5.3","","37","","7","","20","","24.1","","99.65","","","","","","NA"
"2016-04-28 16:00","2016","04","28","16:00","7.8","","-5.6","","38","","8","","17","","24.1","","99.64","","","","","","Cloudy"
"2016-04-28 17:00","2016","04","28","17:00","7.6","","-4.8","","41","","8","","16","","24.1","","99.70","","","","","","NA"
"2016-04-28 18:00","2016","04","28","18:00","7.1","","-5.0","","42","","9","","13","","24.1","","99.73","","","","","","NA"
"2016-04-28 19:00","2016","04","28","19:00","6.6","","-5.1","","43","","5","","10","","24.1","","99.76","","","","","","Cloudy"
"2016-04-28 20:00","2016","04","28","20:00","6.6","","-5.4","","42","","6","","14","","24.1","","99.74","","","","","","NA"
"2016-04-28 21:00","2016","04","28","21:00","6.7","","-5.0","","43","","8","","9","","24.1","","99.76","","","","","","NA"
"2016-04-28 22:00","2016","04","28","22:00","6.2","","-4.3","","47","","10","","9","","24.1","","99.77","","","","","","Mostly Cloudy"
"2016-04-28 23:00","2016","04","28","23:00","6.2","","-4.6","","46","","9","","14","","24.1","","99.77","","","","","","NA"
"2016-04-29 00:00","2016","04","29","00:00","6.1","","-4.7","","46","","8","","13","","24.1","","99.76","","","","","","NA"
"2016-04-29 01:00","2016","04","29","01:00","5.9","","-4.0","","49","","8","","5","","24.1","","99.78","","","","","","Cloudy"
"2016-04-29 02:00","2016","04","29","02:00","5.8","","-3.3","","52","","11","","14","","24.1","","99.77","","","","","","NA"
"2016-04-29 03:00","2016","04","29","03:00","5.6","","-5.7","","44","","10","","21","","24.1","","99.78","","","","","","NA"
"2016-04-29 04:00","2016","04","29","04:00","5.2","","-4.7","","49","","8","","14","","24.1","","99.77","","","","","","Mostly Cloudy"
"2016-04-29 05:00","2016","04","29","05:00","5.3","","-5.1","","47","","8","","10","","24.1","","99.78","","","","","","NA"
"2016-04-29 06:00","2016","04","29","06:00","5.3","","-4.8","","48","","8","","8","","24.1","","99.83","","","","","","NA"
"2016-04-29 07:00","2016","04","29","07:00","5.9","","-6.1","","42","","7","","12","","24.1","","99.85","","","","","","Mostly Cloudy"
"2016-04-29 08:00","2016","04","29","08:00","6.8","","-8.4","","33","","8","","23","","24.1","","99.85","","","","","","NA"
"2016-04-29 09:00","2016","04","29","09:00","7.4","","-7.5","","34","","6","","17","","24.1","","99.83","","","","","","NA"
"2016-04-29 10:00","2016","04","29","10:00","8.0","","-6.2","","36","","6","","14","","24.1","","99.83","","","","","","Mostly Cloudy"
"2016-04-29 11:00","2016","04","29","11:00","8.6","","-6.8","","33","","5","","18","","24.1","","99.81","","","","","","NA"
"2016-04-29 12:00","2016","04","29","12:00","10.2","","-5.8","","32","","6","","12","","24.1","","99.72","","","","","","NA"
"2016-04-29 13:00","2016","04","29","13:00","8.7","","-1.1","","50","","14","","13","","24.1","","99.72","","","","","","Mostly Cloudy"
"2016-04-29 14:00","2016","04","29","14:00","9.1","","-3.1","","42","","17","","11","","24.1","","99.77","","","","","","NA"
"2016-04-29 15:00","2016","04","29","15:00","8.0","","-3.2","","45","","17","","12","","24.1","","99.79","","","","","","NA"
"2016-04-29 16:00","2016","04","29","16:00","9.9","","-3.4","","39","","11","","12","","24.1","","99.73","","","","","","Mostly Cloudy"
"2016-04-29 17:00","2016","04","29","17:00","9.5","","-4.1","","38","","15","","13","","24.1","","99.77","","","","","","NA"
"2016-04-29 18:00","2016","04","29","18:00","8.6","","-3.6","","42","","18","","5","","24.1","","99.87","","","","","","NA"
"2016-04-29 19:00","2016","04","29","19:00","8.6","","-3.0","","44","","19","","8","","24.1","","99.91","","","","","","Mostly Cloudy"
"2016-04-29 20:00","2016","04","29","20:00","8.4","","-3.1","","44","","17","","6","","24.1","","100.02","","","","","","NA"
"2016-04-29 21:00","2016","04","29","21:00","6.9","","-2.8","","50","","4","","6","","24.1","","99.99","","","","","","NA"
"2016-04-29 22:00","2016","04","29","22:00","6.8","","-2.6","","51","","31","","15","","24.1","","100.04","","","","","","Mainly Clear"
"2016-04-29 23:00","2016","04","29","23:00","5.4","","-3.2","","54","","32","","13","","24.1","","100.12","","","","","","NA"
"2016-04-30 00:00","2016","04","30","00:00","6.2","","-4.0","","48","","33","","11","","24.1","","100.09","","","","","","NA"
"2016-04-30 01:00","2016","04","30","01:00","4.6","","-3.4","","56","","1","","8","","24.1","","100.09","","","","","","Clear"
"2016-04-30 02:00","2016","04","30","02:00","4.3","","-3.2","","58","","33","","14","","24.1","","100.09","","","","","","NA"
"2016-04-30 03:00","2016","04","30","03:00","3.3","","-3.5","","61","","2","","9","","24.1","","100.07","","","","","","NA"
"2016-04-30 04:00","2016","04","30","04:00","3.3","","-3.5","","61","","36","","2","","24.1","","100.12","","","","","","Clear"
"2016-04-30 05:00","2016","04","30","05:00","3.2","","-3.4","","62","","34","","7","","24.1","","100.18","","","","","","NA"
"2016-04-30 06:00","2016","04","30","06:00","3.4","","-2.8","","64","","2","","6","","24.1","","100.18","","","","","","NA"
"2016-04-30 07:00","2016","04","30","07:00","6.4","","-1.7","","56","","3","","7","","24.1","","100.21","","","","","","Clear"
"2016-04-30 08:00","2016","04","30","08:00","9.9","","-2.4","","42","","9","","13","","24.1","","100.22","","","","","","NA"
"2016-04-30 09:00","2016","04","30","09:00","11.4","","-2.7","","37","","14","","11","","24.1","","100.23","","","","","","NA"
"2016-04-30 10:00","2016","04","30","10:00","12.2","","-4.4","","31","","12","","17","","24.1","","100.24","","","","","","Mainly Clear"
"2016-04-30 11:00","2016","04","30","11:00","12.6","","-4.0","","31","","13","","12","","24.1","","100.17","","","","","","NA"
"2016-04-30 12:00","2016","04","30","12:00","13.0","","-4.1","","30","","14","","21","","24.1","","100.14","","","","","","NA"
"2016-04-30 13:00","2016","04","30","13:00","13.2","","-4.0","","30","","12","","20","","24.1","","100.15","","","","","","Mostly Cloudy"
"2016-04-30 14:00","2016","04","30","14:00","13.5","","-2.0","","34","","10","","19","","24.1","","100.08","","","","","","NA"
"2016-04-30 15:00","2016","04","30","15:00","14.1","","-1.1","","35","","11","","20","","24.1","","99.99","","","","","","NA"
"2016-04-30 16:00","2016","04","30","16:00","13.9","","-0.9","","36","","8","","14","","24.1","","99.98","","","","","","Cloudy"
"2016-04-30 17:00","2016","04","30","17:00","12.6","","-4.5","","30","","12","","16","","24.1","","99.96","","","","","","NA"
"2016-04-30 18:00","2016","04","30","18:00","11.7","","-4.0","","33","","9","","17","","24.1","","99.94","","","","","","NA"
"2016-04-30 19:00","2016","04","30","19:00","11.3","","-5.2","","31","","8","","14","","24.1","","99.94","","","","","","Mostly Cloudy"
"2016-04-30 20:00","2016","04","30","20:00","10.9","","-4.3","","34","","9","","7","","24.1","","99.91","","","","","","NA"
"2016-04-30 21:00","2016","04","30","21:00","10.7","","-3.4","","37","","10","","8","","24.1","","99.89","","","","","","NA"
"2016-04-30 22:00","2016","04","30","22:00","10.6","","-2.4","","40","","8","","9","","24.1","","99.85","","","","","","Cloudy"
"2016-04-30 23:00","2016","04","30","23:00","10.9","","-1.2","","43","","8","","13","","24.1","","99.79","","","","","","NA"
