"Station Name","TORONTO LESTER B. PEARSON INT'L A"
"Province","ONTARIO"
"Latitude","43.68"
"Longitude","-79.63"
"Elevation","173.40"
"Climate Identifier","6158733"
"WMO Identifier","71624"
"TC Identifier","YYZ"
"All times are specified in Local Standard Time (LST). Add 1 hour to adjust for Daylight Saving Time where and when it is observed."

"Legend"
"E","Estimated"
"M","Missing"
"NA","Not Available"

"Date/Time","Year","Month","Day","Time","Temp (°C)","Temp Flag","Dew Point Temp (°C)","Dew Point Temp Flag","Rel Hum (%)","Rel Hum Flag","Wind Dir (10s deg)","Wind Dir Flag","Wind Spd (km/h)","Wind Spd Flag","Visibility (km)","Visibility Flag","Stn Press (kPa)","Stn Press Flag","Hmdx","Hmdx Flag","Wind Chill","Wind Chill Flag","Weather"
"2004-11-01 00:00","2004","11","01","00:00","7.2","","4.1","","81","","28","","11","","24.1","","99.57","","","","","","Mostly Cloudy"
"2004-11-01 01:00","2004","11","01","01:00","7.7","","3.6","","75","","31","","24","","24.1","","99.62","","","","","","Mostly Cloudy"
"2004-11-01 02:00","2004","11","01","02:00","7.6","","3.9","","77","","30","","17","","24.1","","99.68","","","","","","Mostly Cloudy"
"2004-11-01 03:00","2004","11","01","03:00","7.2","","4.2","","81","","30","","20","","24.1","","99.70","","","","","","Mostly Cloudy"
"2004-11-01 04:00","2004","11","01","04:00","6.9","","3.8","","81","","32","","19","","24.1","","99.78","","","","","","Mostly Cloudy"
"2004-11-01 05:00","2004","11","01","05:00","7.2","","3.5","","77","","31","","17","","24.1","","99.84","","","","","","Cloudy"
"2004-11-01 06:00","2004","11","01","06:00","7.0","","3.3","","77","","32","","13","","24.1","","99.91","","","","","","Mostly Cloudy"
"2004-11-01 07:00","2004","11","01","07:00","6.8","","3.6","","80","","36","","11","","24.1","","100.01","","","","","","Cloudy"
"2004-11-01 08:00","2004","11","01","08:00","7.0","","3.4","","78","","35","","9","","24.1","","100.14","","","","","","Cloudy"
"2004-11-01 09:00","2004","11","01","09:00","6.9","","3.8","","81","","1","","9","","24.1","","100.15","","","","","","Cloudy"
"2004-11-01 10:00","2004","11","01","10:00","7.2","","2.9","","74","","36","","9","","24.1","","100.17","","","","","","Cloudy"
"2004-11-01 11:00","2004","11","01","11:00","7.9","","2.2","","67","","29","","9","","24.1","","100.19","","","","","","Mostly Cloudy"
"2004-11-01 12:00","2004","11","01","12:00","8.6","","1.8","","62","","24","","6","","24.1","","100.13","","","","","","Mostly Cloudy"
"2004-11-01 13:00","2004","11","01","13:00","10.0","","1.8","","57","","2","","7","","24.1","","100.12","","","","","","Mainly Clear"
"2004-11-01 14:00","2004","11","01","14:00","10.6","","1.6","","54","","7","","6","","24.1","","100.04","","","","","","Mainly Clear"
"2004-11-01 15:00","2004","11","01","15:00","10.5","","1.9","","55","","12","","4","","24.1","","100.04","","","","","","Mostly Cloudy"
"2004-11-01 16:00","2004","11","01","16:00","9.0","","2.7","","65","","16","","15","","24.1","","100.09","","","","","","Mostly Cloudy"
"2004-11-01 17:00","2004","11","01","17:00","8.0","","3.3","","72","","14","","11","","24.1","","100.11","","","","","","Mostly Cloudy"
"2004-11-01 18:00","2004","11","01","18:00","7.9","","3.0","","71","","8","","11","","24.1","","100.10","","","","","","Cloudy"
"2004-11-01 19:00","2004","11","01","19:00","8.0","","2.2","","67","","9","","15","","24.1","","100.09","","","","","","Mostly Cloudy"
"2004-11-01 20:00","2004","11","01","20:00","7.8","","1.5","","64","","9","","13","","24.1","","100.06","","","","","","Cloudy"
"2004-11-01 21:00","2004","11","01","21:00","7.6","","1.7","","66","","8","","13","","24.1","","100.03","","","","","","Cloudy"
"2004-11-01 22:00","2004","11","01","22:00","7.5","","2.0","","68","","9","","11","","24.1","","100.02","","","","","","Cloudy"
"2004-11-01 23:00","2004","11","01","23:00","7.7","","2.3","","69","","9","","6","","24.1","","99.95","","","","","","Cloudy"
"2004-11-02 00:00","2004","11","02","00:00","7.9","","3.3","","73","","8","","7","","24.1","","99.88","","","","","","Cloudy"
"2004-11-02 01:00","2004","11","02","01:00","8.1","","3.7","","74","","9","","7","","24.1","","99.78","","","","","","Cloudy"
"2004-11-02 02:00","2004","11","02","02:00","7.4","","5.1","","85","","9","","17","","19.3","","99.67","","","","","","Cloudy"
"2004-11-02 03:00","2004","11","02","03:00","7.5","","5.4","","87","","9","","17","","19.3","","99.56","","","","","","Rain Showers"
"2004-11-02 04:00","2004","11","02","04:00","7.5","","5.8","","89","","8","","6","","11.3","","99.56","","","","","","Rain"
"2004-11-02 05:00","2004","11","02","05:00","7.5","","6.4","","93","","9","","13","","8.0","","99.44","","","","","","Rain,Fog"
"2004-11-02 06:00","2004","11","02","06:00","7.6","","6.8","","95","","9","","15","","8.0","","99.34","","","","","","Rain,Fog"
"2004-11-02 07:00","2004","11","02","07:00","7.6","","7.1","","97","","9","","13","","6.4","","99.31","","","","","","Rain,Fog"
"2004-11-02 08:00","2004","11","02","08:00","8.0","","7.6","","97","","9","","15","","8.0","","99.32","","","","","","Rain,Fog"
"2004-11-02 09:00","2004","11","02","09:00","8.2","","7.9","","98","","9","","9","","8.0","","99.25","","","","","","Rain,Fog"
"2004-11-02 10:00","2004","11","02","10:00","8.6","","8.3","","98","","11","","9","","6.4","","99.13","","","","","","Rain,Fog"
"2004-11-02 11:00","2004","11","02","11:00","8.9","","8.6","","98","","8","","9","","6.4","","99.09","","","","","","Rain,Fog"
"2004-11-02 12:00","2004","11","02","12:00","8.3","","7.9","","97","","1","","13","","2.8","","99.09","","","","","","Rain,Fog"
"2004-11-02 13:00","2004","11","02","13:00","8.2","","8.0","","99","","3","","7","","3.2","","99.01","","","","","","Rain,Fog"
"2004-11-02 14:00","2004","11","02","14:00","8.6","","8.4","","99","","34","","7","","6.4","","99.00","","","","","","Rain,Fog"
"2004-11-02 15:00","2004","11","02","15:00","8.6","","8.1","","97","","34","","17","","8.0","","99.06","","","","","","Rain,Fog"
"2004-11-02 16:00","2004","11","02","16:00","8.3","","7.8","","97","","34","","19","","8.0","","99.11","","","","","","Fog"
"2004-11-02 17:00","2004","11","02","17:00","7.8","","7.0","","95","","35","","19","","12.9","","99.17","","","","","","Cloudy"
"2004-11-02 18:00","2004","11","02","18:00","7.8","","6.6","","92","","34","","19","","16.1","","99.24","","","","","","Cloudy"
"2004-11-02 19:00","2004","11","02","19:00","7.2","","6.1","","93","","36","","22","","24.1","","99.31","","","","","","Cloudy"
"2004-11-02 20:00","2004","11","02","20:00","7.1","","6.0","","93","","34","","19","","24.1","","99.41","","","","","","Mostly Cloudy"
"2004-11-02 21:00","2004","11","02","21:00","7.3","","5.4","","88","","34","","28","","24.1","","99.49","","","","","","Cloudy"
"2004-11-02 22:00","2004","11","02","22:00","7.1","","4.4","","83","","32","","35","","24.1","","99.60","","","","","","Cloudy"
"2004-11-02 23:00","2004","11","02","23:00","6.3","","2.5","","77","","33","","35","","24.1","","99.67","","","","","","Cloudy"
"2004-11-03 00:00","2004","11","03","00:00","5.8","","2.0","","77","","33","","33","","24.1","","99.75","","","","","","Mostly Cloudy"
"2004-11-03 01:00","2004","11","03","01:00","5.4","","1.4","","75","","31","","30","","24.1","","99.83","","","","","","Cloudy"
"2004-11-03 02:00","2004","11","03","02:00","5.4","","1.1","","74","","31","","33","","24.1","","99.91","","","","","","Mostly Cloudy"
"2004-11-03 03:00","2004","11","03","03:00","5.3","","1.1","","74","","34","","24","","24.1","","100.00","","","","","","Cloudy"
"2004-11-03 04:00","2004","11","03","04:00","5.0","","0.6","","73","","34","","33","","24.1","","100.09","","","","","","Cloudy"
"2004-11-03 05:00","2004","11","03","05:00","4.3","","0.6","","77","","35","","19","","24.1","","100.19","","","","","","Mostly Cloudy"
"2004-11-03 06:00","2004","11","03","06:00","3.9","","0.1","","76","","36","","20","","24.1","","100.29","","","","","","Mostly Cloudy"
"2004-11-03 07:00","2004","11","03","07:00","3.6","","-0.4","","75","","35","","19","","24.1","","100.38","","","","","","Cloudy"
"2004-11-03 08:00","2004","11","03","08:00","3.2","","-0.8","","75","","36","","19","","24.1","","100.44","","","","","","Mainly Clear"
"2004-11-03 09:00","2004","11","03","09:00","4.7","","0.2","","73","","36","","20","","24.1","","100.48","","","","","","Mainly Clear"
"2004-11-03 10:00","2004","11","03","10:00","5.7","","0.6","","70","","35","","15","","24.1","","100.50","","","","","","Mainly Clear"
"2004-11-03 11:00","2004","11","03","11:00","6.3","","0.3","","65","","34","","17","","24.1","","100.55","","","","","","Clear"
"2004-11-03 12:00","2004","11","03","12:00","7.0","","0.7","","64","","35","","13","","24.1","","100.53","","","","","","Clear"
"2004-11-03 13:00","2004","11","03","13:00","8.1","","0.2","","57","","2","","6","","24.1","","100.49","","","","","","Clear"
"2004-11-03 14:00","2004","11","03","14:00","9.0","","0.3","","54","","31","","7","","24.1","","100.45","","","","","","Clear"
"2004-11-03 15:00","2004","11","03","15:00","9.2","","0.2","","53","","34","","6","","24.1","","100.41","","","","","","Clear"
"2004-11-03 16:00","2004","11","03","16:00","7.9","","1.7","","65","","14","","11","","24.1","","100.38","","","","","","Clear"
"2004-11-03 17:00","2004","11","03","17:00","6.9","","1.7","","69","","13","","7","","24.1","","100.38","","","","","","Clear"
"2004-11-03 18:00","2004","11","03","18:00","6.3","","1.9","","73","","16","","7","","24.1","","100.38","","","","","","Clear"
"2004-11-03 19:00","2004","11","03","19:00","6.0","","2.3","","77","","16","","6","","24.1","","100.40","","","","","","Clear"
"2004-11-03 20:00","2004","11","03","20:00","6.0","","2.9","","80","","11","","4","","24.1","","100.36","","","","","","Clear"
"2004-11-03 21:00","2004","11","03","21:00","5.7","","2.7","","81","","10","","7","","24.1","","100.30","","","","","","Clear"
"2004-11-03 22:00","2004","11","03","22:00","5.0","","2.2","","82","","10","","7","","24.1","","100.25","","","","","","Clear"
"2004-11-03 23:00","2004","11","03","23:00","5.0","","2.2","","82","","11","","6","","24.1","","100.20","","","","","","Clear"
"2004-11-04 00:00","2004","11","04","00:00","4.6","","1.5","","80","","14","","6","","24.1","","100.13","","","","","","Clear"
"2004-11-04 01:00","2004","11","04","01:00","4.7","","1.2","","78","","11","","7","","24.1","","100.03","","","","","","Clear"
"2004-11-04 02:00","2004","11","04","02:00","4.4","","1.3","","80","","10","","7","","24.1","","99.91","","","","","","Mainly Clear"
"2004-11-04 03:00","2004","11","04","03:00","4.1","","0.5","","77","","13","","9","","24.1","","99.80","","","","","","Mainly Clear"
"2004-11-04 04:00","2004","11","04","04:00","3.6","","0.6","","81","","10","","7","","24.1","","99.67","","","","","","Mostly Cloudy"
"2004-11-04 05:00","2004","11","04","05:00","3.7","","0.4","","79","","7","","7","","24.1","","99.52","","","","","","Mainly Clear"
"2004-11-04 06:00","2004","11","04","06:00","3.7","","0.5","","80","","7","","11","","24.1","","99.29","","","","","","Mainly Clear"
"2004-11-04 07:00","2004","11","04","07:00","5.4","","2.7","","83","","9","","13","","24.1","","99.19","","","","","","Mostly Cloudy"
"2004-11-04 08:00","2004","11","04","08:00","6.9","","3.6","","79","","10","","17","","24.1","","99.00","","","","","","Cloudy"
"2004-11-04 09:00","2004","11","04","09:00","7.4","","2.7","","72","","13","","13","","24.1","","98.90","","","","","","Cloudy"
"2004-11-04 10:00","2004","11","04","10:00","7.2","","2.4","","72","","10","","17","","24.1","","98.70","","","","","","Rain"
"2004-11-04 11:00","2004","11","04","11:00","6.2","","3.1","","81","","12","","19","","24.1","","98.56","","","","","","Rain"
"2004-11-04 12:00","2004","11","04","12:00","5.2","","3.2","","87","","12","","17","","8.0","","98.23","","","","","","Rain,Fog"
"2004-11-04 13:00","2004","11","04","13:00","5.7","","4.6","","93","","12","","11","","4.8","","98.02","","","","","","Rain,Fog"
"2004-11-04 14:00","2004","11","04","14:00","5.7","","5.2","","97","","14","","13","","8.0","","97.82","","","","","","Rain"
"2004-11-04 15:00","2004","11","04","15:00","5.8","","5.5","","98","","12","","11","","4.8","","97.71","","","","","","Drizzle,Fog"
"2004-11-04 16:00","2004","11","04","16:00","6.2","","6.1","","99","","10","","9","","2.4","","97.54","","","","","","Drizzle,Fog"
"2004-11-04 17:00","2004","11","04","17:00","6.4","","6.4","","100","","5","","4","","2.4","","97.41","","","","","","Drizzle,Fog"
"2004-11-04 18:00","2004","11","04","18:00","6.6","","6.3","","98","","31","","11","","4.0","","97.42","","","","","","Drizzle,Fog"
"2004-11-04 19:00","2004","11","04","19:00","5.8","","5.5","","98","","30","","22","","19.3","","97.54","","","","","","Rain Showers"
"2004-11-04 20:00","2004","11","04","20:00","5.1","","3.9","","92","","29","","33","","24.1","","97.59","","","","","","Rain Showers"
"2004-11-04 21:00","2004","11","04","21:00","4.8","","3.2","","89","","27","","24","","24.1","","97.64","","","","","","Cloudy"
"2004-11-04 22:00","2004","11","04","22:00","5.8","","4.2","","89","","27","","30","","24.1","","97.65","","","","","","Rain Showers"
"2004-11-04 23:00","2004","11","04","23:00","6.1","","3.0","","80","","30","","41","","24.1","","97.71","","","","","","Cloudy"
"2004-11-05 00:00","2004","11","05","00:00","4.9","","2.1","","82","","29","","43","","24.1","","97.83","","","","","","Rain Showers"
"2004-11-05 01:00","2004","11","05","01:00","4.2","","1.7","","84","","28","","46","","24.1","","97.96","","","","","","Rain Showers"
"2004-11-05 02:00","2004","11","05","02:00","3.7","","1.9","","88","","28","","30","","12.9","","98.06","","","","","","Rain Showers"
"2004-11-05 03:00","2004","11","05","03:00","3.1","","1.2","","87","","29","","41","","16.1","","98.10","","","","","","Rain Showers"
"2004-11-05 04:00","2004","11","05","04:00","3.7","","1.6","","86","","28","","44","","24.1","","98.16","","","","","","Rain Showers"
"2004-11-05 05:00","2004","11","05","05:00","3.3","","1.3","","87","","29","","43","","19.3","","98.22","","","","","","Rain Showers"
"2004-11-05 06:00","2004","11","05","06:00","3.8","","1.6","","86","","31","","57","","19.3","","98.34","","","","","","Rain Showers"
"2004-11-05 07:00","2004","11","05","07:00","3.1","","1.1","","87","","29","","30","","24.1","","98.46","","","","","","Mainly Clear"
"2004-11-05 08:00","2004","11","05","08:00","4.2","","1.5","","83","","29","","35","","24.1","","98.57","","","","","","Mostly Cloudy"
"2004-11-05 09:00","2004","11","05","09:00","5.1","","1.4","","77","","30","","33","","24.1","","98.65","","","","","","Mostly Cloudy"
"2004-11-05 10:00","2004","11","05","10:00","4.3","","1.7","","83","","33","","32","","16.1","","98.72","","","","","","Rain Showers"
"2004-11-05 11:00","2004","11","05","11:00","4.6","","3.0","","89","","33","","30","","24.1","","98.75","","","","","","Rain Showers"
"2004-11-05 12:00","2004","11","05","12:00","6.7","","2.0","","72","","30","","44","","24.1","","98.71","","","","","","Mostly Cloudy"
"2004-11-05 13:00","2004","11","05","13:00","7.7","","-1.1","","54","","30","","57","","24.1","","98.73","","","","","","Mainly Clear"
"2004-11-05 14:00","2004","11","05","14:00","7.8","","-2.2","","49","","31","","48","","24.1","","98.78","","","","","","Mostly Cloudy"
"2004-11-05 15:00","2004","11","05","15:00","7.9","","-2.0","","50","","28","","54","","24.1","","98.81","","","","","","Mainly Clear"
"2004-11-05 16:00","2004","11","05","16:00","7.1","","-2.0","","52","","29","","39","","24.1","","98.82","","","","","","Mostly Cloudy"
"2004-11-05 17:00","2004","11","05","17:00","6.4","","-1.6","","57","","26","","22","","24.1","","98.82","","","","","","Mostly Cloudy"
"2004-11-05 18:00","2004","11","05","18:00","5.7","","-1.0","","62","","25","","24","","24.1","","98.79","","","","","","Mostly Cloudy"
"2004-11-05 19:00","2004","11","05","19:00","6.0","","-0.4","","63","","24","","20","","24.1","","98.76","","","","","","Cloudy"
"2004-11-05 20:00","2004","11","05","20:00","6.2","","-0.4","","63","","23","","17","","24.1","","98.70","","","","","","Cloudy"
"2004-11-05 21:00","2004","11","05","21:00","5.9","","-0.5","","63","","23","","20","","24.1","","98.64","","","","","","Cloudy"
"2004-11-05 22:00","2004","11","05","22:00","5.7","","-0.3","","65","","24","","19","","24.1","","98.63","","","","","","Cloudy"
"2004-11-05 23:00","2004","11","05","23:00","5.8","","-0.1","","66","","23","","19","","24.1","","98.59","","","","","","Cloudy"
"2004-11-06 00:00","2004","11","06","00:00","5.8","","0.1","","67","","23","","17","","24.1","","98.56","","","","","","Mostly Cloudy"
"2004-11-06 01:00","2004","11","06","01:00","6.0","","0.0","","65","","24","","19","","24.1","","98.53","","","","","","Mostly Cloudy"
"2004-11-06 02:00","2004","11","06","02:00","6.5","","0.4","","65","","25","","22","","24.1","","98.46","","","","","","Mostly Cloudy"
"2004-11-06 03:00","2004","11","06","03:00","6.5","","0.4","","65","","25","","30","","24.1","","98.44","","","","","","Mostly Cloudy"
"2004-11-06 04:00","2004","11","06","04:00","5.7","","0.4","","69","","24","","19","","24.1","","98.43","","","","","","Mostly Cloudy"
"2004-11-06 05:00","2004","11","06","05:00","5.8","","0.7","","70","","25","","22","","24.1","","98.39","","","","","","Mostly Cloudy"
"2004-11-06 06:00","2004","11","06","06:00","6.2","","1.0","","69","","25","","20","","24.1","","98.38","","","","","","Mostly Cloudy"
"2004-11-06 07:00","2004","11","06","07:00","6.3","","1.1","","69","","25","","15","","24.1","","98.37","","","","","","Mostly Cloudy"
"2004-11-06 08:00","2004","11","06","08:00","6.6","","1.2","","68","","25","","13","","24.1","","98.39","","","","","","Mostly Cloudy"
"2004-11-06 09:00","2004","11","06","09:00","7.3","","1.6","","67","","25","","15","","24.1","","98.39","","","","","","Mostly Cloudy"
"2004-11-06 10:00","2004","11","06","10:00","9.9","","2.9","","62","","27","","28","","24.1","","98.36","","","","","","Mostly Cloudy"
"2004-11-06 11:00","2004","11","06","11:00","10.5","","3.2","","61","","26","","33","","24.1","","98.31","","","","","","Mostly Cloudy"
"2004-11-06 12:00","2004","11","06","12:00","11.8","","3.7","","58","","26","","44","","24.1","","98.25","","","","","","Mostly Cloudy"
"2004-11-06 13:00","2004","11","06","13:00","13.1","","4.0","","54","","27","","39","","24.1","","98.25","","","","","","Mostly Cloudy"
"2004-11-06 14:00","2004","11","06","14:00","13.3","","4.7","","56","","26","","39","","24.1","","98.24","","","","","","Mostly Cloudy"
"2004-11-06 15:00","2004","11","06","15:00","13.3","","4.6","","56","","27","","33","","24.1","","98.31","","","","","","Mostly Cloudy"
"2004-11-06 16:00","2004","11","06","16:00","12.5","","4.2","","57","","26","","37","","24.1","","98.35","","","","","","Mostly Cloudy"
"2004-11-06 17:00","2004","11","06","17:00","11.8","","4.5","","61","","26","","26","","24.1","","98.42","","","","","","Mostly Cloudy"
"2004-11-06 18:00","2004","11","06","18:00","11.5","","4.9","","64","","27","","20","","24.1","","98.51","","","","","","Mostly Cloudy"
"2004-11-06 19:00","2004","11","06","19:00","11.4","","4.9","","64","","27","","19","","24.1","","98.55","","","","","","Mostly Cloudy"
"2004-11-06 20:00","2004","11","06","20:00","11.3","","4.4","","62","","30","","13","","24.1","","98.61","","","","","","Mostly Cloudy"
"2004-11-06 21:00","2004","11","06","21:00","10.4","","4.6","","67","","32","","7","","24.1","","98.64","","","","","","Mostly Cloudy"
"2004-11-06 22:00","2004","11","06","22:00","10.4","","4.7","","68","","22","","6","","24.1","","98.62","","","","","","Mostly Cloudy"
"2004-11-06 23:00","2004","11","06","23:00","10.4","","4.9","","69","","23","","11","","24.1","","98.61","","","","","","Mostly Cloudy"
"2004-11-07 00:00","2004","11","07","00:00","10.0","","5.0","","71","","","","0","","24.1","","98.58","","","","","","Mostly Cloudy"
"2004-11-07 01:00","2004","11","07","01:00","9.6","","4.6","","71","","15","","7","","24.1","","98.49","","","","","","Mostly Cloudy"
"2004-11-07 02:00","2004","11","07","02:00","9.3","","4.7","","73","","23","","7","","24.1","","98.48","","","","","","Mostly Cloudy"
"2004-11-07 03:00","2004","11","07","03:00","8.4","","4.8","","78","","21","","4","","19.3","","98.41","","","","","","Mostly Cloudy"
"2004-11-07 04:00","2004","11","07","04:00","8.7","","5.2","","79","","18","","11","","19.3","","98.37","","","","","","Mostly Cloudy"
"2004-11-07 05:00","2004","11","07","05:00","8.8","","5.4","","79","","20","","13","","24.1","","98.29","","","","","","Mostly Cloudy"
"2004-11-07 06:00","2004","11","07","06:00","9.6","","6.8","","83","","23","","20","","16.1","","98.26","","","","","","Cloudy"
"2004-11-07 07:00","2004","11","07","07:00","9.7","","7.6","","87","","24","","22","","16.1","","98.24","","","","","","Mostly Cloudy"
"2004-11-07 08:00","2004","11","07","08:00","9.7","","7.9","","89","","25","","26","","19.3","","98.28","","","","","","Mostly Cloudy"
"2004-11-07 09:00","2004","11","07","09:00","10.9","","7.9","","82","","26","","22","","24.1","","98.31","","","","","","Mostly Cloudy"
"2004-11-07 10:00","2004","11","07","10:00","11.6","","7.9","","78","","27","","28","","24.1","","98.32","","","","","","Mostly Cloudy"
"2004-11-07 11:00","2004","11","07","11:00","12.9","","6.9","","67","","28","","26","","24.1","","98.37","","","","","","Mostly Cloudy"
"2004-11-07 12:00","2004","11","07","12:00","13.9","","6.4","","61","","29","","33","","24.1","","98.41","","","","","","Mainly Clear"
"2004-11-07 13:00","2004","11","07","13:00","14.0","","3.8","","50","","29","","37","","24.1","","98.46","","","","","","Mainly Clear"
"2004-11-07 14:00","2004","11","07","14:00","12.4","","-0.1","","42","","30","","41","","24.1","","98.58","","","","","","Mostly Cloudy"
"2004-11-07 15:00","2004","11","07","15:00","10.4","","0.3","","50","","29","","44","","24.1","","98.70","","","","","","Mostly Cloudy"
"2004-11-07 16:00","2004","11","07","16:00","9.3","","-0.5","","50","","30","","39","","24.1","","98.81","","","","","","Mostly Cloudy"
"2004-11-07 17:00","2004","11","07","17:00","7.5","","-0.7","","56","","31","","48","","24.1","","98.99","","","","","","Mainly Clear"
"2004-11-07 18:00","2004","11","07","18:00","5.7","","-0.5","","64","","30","","30","","24.1","","99.16","","","","","","Mainly Clear"
"2004-11-07 19:00","2004","11","07","19:00","5.3","","-0.6","","66","","32","","19","","24.1","","99.33","","","","","","Mainly Clear"
"2004-11-07 20:00","2004","11","07","20:00","4.0","","-1.2","","69","","29","","17","","24.1","","99.37","","","","","","Mainly Clear"
"2004-11-07 21:00","2004","11","07","21:00","4.0","","-1.3","","68","","33","","7","","24.1","","99.46","","","","","","Mostly Cloudy"
"2004-11-07 22:00","2004","11","07","22:00","3.0","","-0.4","","78","","3","","6","","24.1","","99.55","","","","","","Mostly Cloudy"
"2004-11-07 23:00","2004","11","07","23:00","3.4","","0.2","","80","","31","","9","","24.1","","99.58","","","","","","Mostly Cloudy"
"2004-11-08 00:00","2004","11","08","00:00","3.2","","-1.1","","73","","30","","19","","24.1","","99.63","","","","","","Mostly Cloudy"
"2004-11-08 01:00","2004","11","08","01:00","2.5","","-1.4","","75","","29","","19","","24.1","","99.65","","","","","","Mainly Clear"
"2004-11-08 02:00","2004","11","08","02:00","1.3","","-1.6","","81","","27","","20","","24.1","","99.66","","","","","","Mainly Clear"
"2004-11-08 03:00","2004","11","08","03:00","1.4","","-2.3","","76","","28","","24","","24.1","","99.72","","","","","","Clear"
"2004-11-08 04:00","2004","11","08","04:00","1.4","","-1.6","","80","","28","","22","","24.1","","99.78","","","","","","Mainly Clear"
"2004-11-08 05:00","2004","11","08","05:00","1.1","","-3.2","","73","","29","","22","","24.1","","99.82","","","","","","Clear"
"2004-11-08 06:00","2004","11","08","06:00","0.8","","-3.5","","73","","29","","20","","24.1","","99.91","","","","","","Clear"
"2004-11-08 07:00","2004","11","08","07:00","1.0","","-4.2","","68","","30","","26","","24.1","","100.00","","","","","","Clear"
"2004-11-08 08:00","2004","11","08","08:00","1.6","","-5.6","","59","","30","","28","","24.1","","100.08","","","","","","Clear"
"2004-11-08 09:00","2004","11","08","09:00","2.7","","-6.7","","50","","32","","35","","24.1","","100.20","","","","","","Clear"
"2004-11-08 10:00","2004","11","08","10:00","4.1","","-9.1","","38","","31","","37","","24.1","","100.27","","","","","","Mainly Clear"
"2004-11-08 11:00","2004","11","08","11:00","5.0","","-7.7","","39","","29","","28","","24.1","","100.31","","","","","","Mostly Cloudy"
"2004-11-08 12:00","2004","11","08","12:00","4.6","","-8.1","","39","","31","","33","","24.1","","100.31","","","","","","Mostly Cloudy"
"2004-11-08 13:00","2004","11","08","13:00","5.2","","-8.3","","37","","28","","28","","24.1","","100.30","","","","","","Mostly Cloudy"
"2004-11-08 14:00","2004","11","08","14:00","4.2","","-8.0","","41","","29","","26","","24.1","","100.28","","","","","","Mostly Cloudy"
"2004-11-08 15:00","2004","11","08","15:00","3.7","","-7.1","","45","","29","","30","","24.1","","100.32","","","","","","Cloudy"
"2004-11-08 16:00","2004","11","08","16:00","2.3","","-3.8","","64","","2","","20","","24.1","","100.38","","","","","","Mostly Cloudy"
"2004-11-08 17:00","2004","11","08","17:00","1.8","","-4.6","","62","","32","","11","","24.1","","100.42","","","","","","Mostly Cloudy"
"2004-11-08 18:00","2004","11","08","18:00","1.5","","-6.7","","54","","31","","24","","24.1","","100.54","","","","","","Mostly Cloudy"
"2004-11-08 19:00","2004","11","08","19:00","0.9","","-6.2","","59","","31","","28","","24.1","","100.62","","","","","","Mostly Cloudy"
"2004-11-08 20:00","2004","11","08","20:00","-0.3","","-5.9","","66","","31","","22","","24.1","","100.62","","","","-6","","Clear"
"2004-11-08 21:00","2004","11","08","21:00","-0.7","","-6.4","","65","","30","","17","","24.1","","100.69","","","","-6","","Clear"
"2004-11-08 22:00","2004","11","08","22:00","-1.5","","-6.9","","67","","32","","17","","24.1","","100.71","","","","-7","","Clear"
"2004-11-08 23:00","2004","11","08","23:00","-2.4","","-7.8","","66","","32","","11","","24.1","","100.75","","","","-6","","Clear"
"2004-11-09 00:00","2004","11","09","00:00","-2.7","","-7.6","","69","","35","","13","","24.1","","100.77","","","","-7","","Clear"
"2004-11-09 01:00","2004","11","09","01:00","-3.2","","-7.0","","75","","32","","13","","24.1","","100.81","","","","-8","","Clear"
"2004-11-09 02:00","2004","11","09","02:00","-3.2","","-6.6","","77","","33","","11","","24.1","","100.88","","","","-7","","Mostly Cloudy"
"2004-11-09 03:00","2004","11","09","03:00","-4.5","","-6.8","","84","","2","","11","","24.1","","100.91","","","","-9","","Clear"
"2004-11-09 04:00","2004","11","09","04:00","-3.8","","-6.6","","81","","34","","15","","24.1","","100.99","","","","-9","","Mainly Clear"
"2004-11-09 05:00","2004","11","09","05:00","-3.9","","-6.4","","83","","34","","17","","24.1","","101.05","","","","-10","","Mostly Cloudy"
"2004-11-09 06:00","2004","11","09","06:00","-3.8","","-6.9","","79","","36","","15","","24.1","","101.10","","","","-9","","Mostly Cloudy"
"2004-11-09 07:00","2004","11","09","07:00","-4.3","","-7.7","","77","","34","","15","","24.1","","101.17","","","","-10","","Mostly Cloudy"
"2004-11-09 08:00","2004","11","09","08:00","-3.3","","-7.2","","74","","36","","11","","24.1","","101.25","","","","-8","","Mostly Cloudy"
"2004-11-09 09:00","2004","11","09","09:00","-2.3","","-7.8","","66","","2","","11","","24.1","","101.31","","","","-6","","Clear"
"2004-11-09 10:00","2004","11","09","10:00","-0.7","","-7.9","","58","","4","","9","","24.1","","101.30","","","","-4","","Clear"
"2004-11-09 11:00","2004","11","09","11:00","0.2","","-8.0","","54","","27","","4","","24.1","","101.36","","","","","","Mainly Clear"
"2004-11-09 12:00","2004","11","09","12:00","0.7","","-7.9","","53","","28","","7","","24.1","","101.30","","","","","","Mostly Cloudy"
"2004-11-09 13:00","2004","11","09","13:00","1.3","","-8.0","","50","","","","0","","24.1","","101.27","","","","","","Mostly Cloudy"
"2004-11-09 14:00","2004","11","09","14:00","1.4","","-6.7","","55","","17","","11","","24.1","","101.21","","","","","","Mostly Cloudy"
"2004-11-09 15:00","2004","11","09","15:00","1.4","","-7.0","","54","","16","","13","","24.1","","101.17","","","","","","Mostly Cloudy"
"2004-11-09 16:00","2004","11","09","16:00","1.1","","-6.0","","59","","17","","15","","24.1","","101.16","","","","","","Mostly Cloudy"
"2004-11-09 17:00","2004","11","09","17:00","1.1","","-6.0","","59","","16","","9","","24.1","","101.16","","","","","","Mostly Cloudy"
"2004-11-09 18:00","2004","11","09","18:00","0.7","","-5.8","","62","","16","","7","","24.1","","101.11","","","","","","Cloudy"
"2004-11-09 19:00","2004","11","09","19:00","0.8","","-5.4","","63","","15","","7","","24.1","","101.15","","","","","","Mainly Clear"
"2004-11-09 20:00","2004","11","09","20:00","0.7","","-5.2","","65","","15","","7","","24.1","","101.12","","","","","","Mainly Clear"
"2004-11-09 21:00","2004","11","09","21:00","1.1","","-4.8","","65","","19","","7","","24.1","","101.09","","","","","","Mainly Clear"
"2004-11-09 22:00","2004","11","09","22:00","1.9","","-4.5","","62","","17","","9","","24.1","","101.03","","","","","","Cloudy"
"2004-11-09 23:00","2004","11","09","23:00","2.4","","-3.9","","63","","15","","11","","24.1","","101.00","","","","","","Cloudy"
"2004-11-10 00:00","2004","11","10","00:00","2.5","","-3.3","","66","","16","","11","","24.1","","100.93","","","","","","Cloudy"
"2004-11-10 01:00","2004","11","10","01:00","2.7","","-2.7","","68","","17","","9","","24.1","","100.90","","","","","","Cloudy"
"2004-11-10 02:00","2004","11","10","02:00","3.4","","-2.1","","67","","18","","13","","24.1","","100.82","","","","","","Mostly Cloudy"
"2004-11-10 03:00","2004","11","10","03:00","3.6","","-1.1","","71","","16","","13","","24.1","","100.77","","","","","","Mostly Cloudy"
"2004-11-10 04:00","2004","11","10","04:00","4.1","","-0.9","","70","","16","","11","","24.1","","100.75","","","","","","Mostly Cloudy"
"2004-11-10 05:00","2004","11","10","05:00","4.4","","-0.2","","72","","17","","11","","24.1","","100.70","","","","","","Cloudy"
"2004-11-10 06:00","2004","11","10","06:00","4.7","","-0.3","","70","","17","","13","","24.1","","100.64","","","","","","Mostly Cloudy"
"2004-11-10 07:00","2004","11","10","07:00","4.6","","-0.1","","72","","16","","11","","24.1","","100.60","","","","","","Mostly Cloudy"
"2004-11-10 08:00","2004","11","10","08:00","5.6","","1.2","","73","","16","","13","","24.1","","100.55","","","","","","Mostly Cloudy"
"2004-11-10 09:00","2004","11","10","09:00","7.2","","0.9","","64","","19","","20","","24.1","","100.48","","","","","","Mostly Cloudy"
"2004-11-10 10:00","2004","11","10","10:00","7.7","","1.1","","63","","20","","24","","24.1","","100.42","","","","","","Mostly Cloudy"
"2004-11-10 11:00","2004","11","10","11:00","9.0","","1.5","","59","","21","","17","","24.1","","100.33","","","","","","Cloudy"
"2004-11-10 12:00","2004","11","10","12:00","10.0","","1.3","","55","","21","","19","","24.1","","100.15","","","","","","Mostly Cloudy"
"2004-11-10 13:00","2004","11","10","13:00","10.8","","2.0","","54","","23","","30","","24.1","","100.09","","","","","","Mostly Cloudy"
"2004-11-10 14:00","2004","11","10","14:00","11.7","","2.3","","52","","21","","20","","24.1","","99.95","","","","","","Mostly Cloudy"
"2004-11-10 15:00","2004","11","10","15:00","12.8","","2.9","","51","","21","","30","","24.1","","99.89","","","","","","Mostly Cloudy"
"2004-11-10 16:00","2004","11","10","16:00","13.1","","3.6","","52","","23","","33","","24.1","","99.82","","","","","","Mostly Cloudy"
"2004-11-10 17:00","2004","11","10","17:00","12.9","","2.9","","51","","22","","24","","24.1","","99.78","","","","","","Mostly Cloudy"
"2004-11-10 18:00","2004","11","10","18:00","12.7","","1.9","","48","","22","","26","","24.1","","99.79","","","","","","Mostly Cloudy"
"2004-11-10 19:00","2004","11","10","19:00","12.1","","2.5","","52","","23","","22","","24.1","","99.82","","","","","","Mainly Clear"
"2004-11-10 20:00","2004","11","10","20:00","12.1","","2.4","","51","","22","","22","","24.1","","99.77","","","","","","Mainly Clear"
"2004-11-10 21:00","2004","11","10","21:00","12.5","","3.1","","53","","22","","26","","24.1","","99.71","","","","","","Cloudy"
"2004-11-10 22:00","2004","11","10","22:00","12.5","","2.9","","52","","22","","19","","24.1","","99.69","","","","","","Mostly Cloudy"
"2004-11-10 23:00","2004","11","10","23:00","12.5","","3.4","","54","","23","","20","","24.1","","99.70","","","","","","Mostly Cloudy"
"2004-11-11 00:00","2004","11","11","00:00","12.4","","4.0","","56","","23","","24","","24.1","","99.68","","","","","","Mostly Cloudy"
"2004-11-11 01:00","2004","11","11","01:00","12.2","","4.6","","60","","23","","22","","24.1","","99.63","","","","","","Mostly Cloudy"
"2004-11-11 02:00","2004","11","11","02:00","11.8","","4.7","","62","","23","","17","","24.1","","99.60","","","","","","Mostly Cloudy"
"2004-11-11 03:00","2004","11","11","03:00","11.8","","4.9","","63","","24","","22","","24.1","","99.61","","","","","","Cloudy"
"2004-11-11 04:00","2004","11","11","04:00","11.4","","4.9","","64","","25","","15","","24.1","","99.59","","","","","","Cloudy"
"2004-11-11 05:00","2004","11","11","05:00","11.4","","5.3","","66","","28","","28","","24.1","","99.67","","","","","","Cloudy"
"2004-11-11 06:00","2004","11","11","06:00","8.5","","4.9","","78","","32","","37","","24.1","","99.81","","","","","","Cloudy"
"2004-11-11 07:00","2004","11","11","07:00","7.0","","2.0","","70","","33","","39","","24.1","","99.97","","","","","","Cloudy"
"2004-11-11 08:00","2004","11","11","08:00","5.1","","1.4","","77","","34","","33","","24.1","","100.16","","","","","","Cloudy"
"2004-11-11 09:00","2004","11","11","09:00","3.9","","-1.4","","68","","35","","37","","24.1","","100.32","","","","","","Cloudy"
"2004-11-11 10:00","2004","11","11","10:00","4.1","","-4.4","","54","","35","","32","","24.1","","100.47","","","","","","Cloudy"
"2004-11-11 11:00","2004","11","11","11:00","4.4","","-4.0","","54","","36","","32","","24.1","","100.58","","","","","","Cloudy"
"2004-11-11 12:00","2004","11","11","12:00","4.0","","-3.9","","56","","35","","28","","24.1","","100.63","","","","","","Mostly Cloudy"
"2004-11-11 13:00","2004","11","11","13:00","4.1","","-5.6","","49","","1","","33","","24.1","","100.67","","","","","","Mostly Cloudy"
"2004-11-11 14:00","2004","11","11","14:00","4.1","","-5.5","","50","","36","","26","","24.1","","100.70","","","","","","Mostly Cloudy"
"2004-11-11 15:00","2004","11","11","15:00","3.7","","-6.3","","48","","34","","22","","24.1","","100.70","","","","","","Mostly Cloudy"
"2004-11-11 16:00","2004","11","11","16:00","2.9","","-7.9","","45","","36","","19","","24.1","","100.73","","","","","","Mostly Cloudy"
"2004-11-11 17:00","2004","11","11","17:00","2.4","","-7.1","","49","","36","","17","","24.1","","100.77","","","","","","Mostly Cloudy"
"2004-11-11 18:00","2004","11","11","18:00","2.0","","-6.9","","52","","36","","15","","24.1","","100.83","","","","","","Mostly Cloudy"
"2004-11-11 19:00","2004","11","11","19:00","1.3","","-6.6","","56","","36","","19","","24.1","","100.84","","","","","","Cloudy"
"2004-11-11 20:00","2004","11","11","20:00","0.9","","-6.5","","58","","1","","17","","24.1","","100.83","","","","","","Cloudy"
"2004-11-11 21:00","2004","11","11","21:00","0.5","","-6.4","","60","","36","","17","","24.1","","100.83","","","","","","Cloudy"
"2004-11-11 22:00","2004","11","11","22:00","-0.3","","-6.7","","62","","2","","17","","24.1","","100.81","","","","-5","","Cloudy"
"2004-11-11 23:00","2004","11","11","23:00","-1.1","","-7.2","","63","","1","","13","","24.1","","100.84","","","","-5","","Mostly Cloudy"
"2004-11-12 00:00","2004","11","12","00:00","-2.0","","-7.3","","67","","2","","9","","24.1","","100.82","","","","-5","","Mostly Cloudy"
"2004-11-12 01:00","2004","11","12","01:00","-2.2","","-7.4","","67","","36","","11","","24.1","","100.82","","","","-6","","Mostly Cloudy"
"2004-11-12 02:00","2004","11","12","02:00","-2.8","","-7.1","","72","","2","","9","","24.1","","100.81","","","","-6","","Mostly Cloudy"
"2004-11-12 03:00","2004","11","12","03:00","-2.6","","-7.0","","72","","3","","9","","24.1","","100.78","","","","-6","","Mostly Cloudy"
"2004-11-12 04:00","2004","11","12","04:00","-1.9","","-7.7","","64","","3","","13","","24.1","","100.75","","","","-6","","Mostly Cloudy"
"2004-11-12 05:00","2004","11","12","05:00","-2.5","","-7.3","","70","","1","","15","","24.1","","100.79","","","","-7","","Mostly Cloudy"
"2004-11-12 06:00","2004","11","12","06:00","-2.0","","-7.0","","69","","4","","11","","24.1","","100.79","","","","-6","","Mostly Cloudy"
"2004-11-12 07:00","2004","11","12","07:00","-1.8","","-7.5","","65","","4","","9","","24.1","","100.79","","","","-5","","Mostly Cloudy"
"2004-11-12 08:00","2004","11","12","08:00","-0.9","","-6.9","","64","","3","","13","","24.1","","100.86","","","","-5","","Mostly Cloudy"
"2004-11-12 09:00","2004","11","12","09:00","-0.2","","-6.8","","61","","3","","11","","24.1","","100.94","","","","-4","","Mainly Clear"
"2004-11-12 10:00","2004","11","12","10:00","1.8","","-6.7","","53","","4","","15","","24.1","","100.98","","","","","","Mainly Clear"
"2004-11-12 11:00","2004","11","12","11:00","2.8","","-7.5","","47","","7","","9","","24.1","","100.94","","","","","","Clear"
"2004-11-12 12:00","2004","11","12","12:00","4.1","","-9.0","","38","","7","","13","","24.1","","100.89","","","","","","Clear"
"2004-11-12 13:00","2004","11","12","13:00","4.3","","-9.5","","36","","7","","9","","24.1","","100.86","","","","","","Clear"
"2004-11-12 14:00","2004","11","12","14:00","4.7","","-9.8","","34","","2","","6","","24.1","","100.84","","","","","","Clear"
"2004-11-12 15:00","2004","11","12","15:00","5.0","","-9.6","","34","","5","","7","","24.1","","100.83","","","","","","Clear"
"2004-11-12 16:00","2004","11","12","16:00","4.8","","-9.0","","36","","36","","6","","24.1","","100.88","","","","","","Clear"
"2004-11-12 17:00","2004","11","12","17:00","2.9","","-11.3","","34","","1","","15","","24.1","","100.92","","","","","","Clear"
"2004-11-12 18:00","2004","11","12","18:00","2.3","","-10.6","","38","","3","","9","","24.1","","100.96","","","","","","Clear"
"2004-11-12 19:00","2004","11","12","19:00","1.3","","-8.6","","48","","3","","11","","24.1","","101.01","","","","","","Clear"
"2004-11-12 20:00","2004","11","12","20:00","1.1","","-7.1","","54","","3","","7","","24.1","","101.07","","","","","","Clear"
"2004-11-12 21:00","2004","11","12","21:00","0.7","","-6.7","","58","","3","","6","","24.1","","101.12","","","","","","Mainly Clear"
"2004-11-12 22:00","2004","11","12","22:00","0.3","","-6.2","","62","","35","","11","","24.1","","101.16","","","","","","Mostly Cloudy"
"2004-11-12 23:00","2004","11","12","23:00","1.4","","-4.7","","64","","35","","17","","24.1","","101.19","","","","","","Mostly Cloudy"
"2004-11-13 00:00","2004","11","13","00:00","1.4","","-3.6","","69","","36","","19","","24.1","","101.25","","","","","","Mostly Cloudy"
"2004-11-13 01:00","2004","11","13","01:00","1.1","","-2.9","","75","","36","","20","","24.1","","101.28","","","","","","Mostly Cloudy"
"2004-11-13 02:00","2004","11","13","02:00","-0.1","","-6.0","","64","","35","","22","","24.1","","101.31","","","","-6","","Mainly Clear"
"2004-11-13 03:00","2004","11","13","03:00","-0.8","","-6.6","","65","","36","","20","","24.1","","101.38","","","","-6","","Clear"
"2004-11-13 04:00","2004","11","13","04:00","-1.4","","-7.5","","63","","36","","19","","24.1","","101.43","","","","-7","","Clear"
"2004-11-13 05:00","2004","11","13","05:00","-1.9","","-8.3","","62","","36","","19","","24.1","","101.51","","","","-7","","Clear"
"2004-11-13 06:00","2004","11","13","06:00","-2.3","","-8.5","","62","","36","","19","","24.1","","101.57","","","","-8","","Clear"
"2004-11-13 07:00","2004","11","13","07:00","-2.5","","-7.8","","67","","2","","17","","24.1","","101.63","","","","-8","","Clear"
"2004-11-13 08:00","2004","11","13","08:00","-2.2","","-6.9","","70","","36","","15","","24.1","","101.72","","","","-7","","Clear"
"2004-11-13 09:00","2004","11","13","09:00","-0.6","","-6.2","","66","","1","","15","","24.1","","101.74","","","","-5","","Clear"
"2004-11-13 10:00","2004","11","13","10:00","0.6","","-7.2","","56","","36","","15","","24.1","","101.79","","","","","","Clear"
"2004-11-13 11:00","2004","11","13","11:00","1.4","","-8.4","","48","","34","","19","","24.1","","101.84","","","","","","Clear"
"2004-11-13 12:00","2004","11","13","12:00","3.0","","-9.3","","40","","2","","20","","24.1","","101.80","","","","","","Clear"
"2004-11-13 13:00","2004","11","13","13:00","4.4","","-8.1","","40","","4","","20","","24.1","","101.74","","","","","","Clear"
"2004-11-13 14:00","2004","11","13","14:00","4.4","","-8.0","","40","","3","","13","","24.1","","101.75","","","","","","Clear"
"2004-11-13 15:00","2004","11","13","15:00","4.2","","-7.7","","42","","1","","15","","24.1","","101.77","","","","","","Clear"
"2004-11-13 16:00","2004","11","13","16:00","3.8","","-7.4","","44","","36","","7","","24.1","","101.78","","","","","","Clear"
"2004-11-13 17:00","2004","11","13","17:00","2.6","","-7.9","","46","","35","","11","","24.1","","101.82","","","","","","Clear"
"2004-11-13 18:00","2004","11","13","18:00","1.8","","-8.3","","47","","36","","4","","24.1","","101.86","","","","","","Clear"
"2004-11-13 19:00","2004","11","13","19:00","1.2","","-8.1","","50","","7","","4","","24.1","","101.89","","","","","","Clear"
"2004-11-13 20:00","2004","11","13","20:00","1.6","","-8.1","","48","","","","0","","24.1","","101.88","","","","","","Clear"
"2004-11-13 21:00","2004","11","13","21:00","0.4","","-8.2","","52","","26","","9","","24.1","","101.90","","","","","","Clear"
"2004-11-13 22:00","2004","11","13","22:00","-0.9","","-8.0","","59","","27","","6","","24.1","","101.91","","","","-3","","Clear"
"2004-11-13 23:00","2004","11","13","23:00","-1.9","","-7.9","","63","","28","","9","","24.1","","101.93","","","","-5","","Clear"
"2004-11-14 00:00","2004","11","14","00:00","-1.7","","-7.7","","64","","27","","6","","24.1","","101.96","","","","-4","","Clear"
"2004-11-14 01:00","2004","11","14","01:00","-1.3","","-7.7","","62","","29","","4","","24.1","","101.96","","","","-3","","Clear"
"2004-11-14 02:00","2004","11","14","02:00","-2.0","","-7.9","","64","","25","","6","","24.1","","102.01","","","","-4","","Clear"
"2004-11-14 03:00","2004","11","14","03:00","-2.1","","-7.6","","66","","22","","6","","24.1","","102.00","","","","-4","","Clear"
"2004-11-14 04:00","2004","11","14","04:00","-2.0","","-7.4","","66","","24","","7","","24.1","","101.99","","","","-5","","Clear"
"2004-11-14 05:00","2004","11","14","05:00","-1.9","","-7.1","","68","","26","","7","","24.1","","101.98","","","","-5","","Clear"
"2004-11-14 06:00","2004","11","14","06:00","-2.8","","-7.4","","71","","29","","11","","24.1","","102.02","","","","-7","","Clear"
"2004-11-14 07:00","2004","11","14","07:00","-2.1","","-6.5","","72","","28","","11","","24.1","","102.05","","","","-6","","Clear"
"2004-11-14 08:00","2004","11","14","08:00","-1.3","","-5.3","","74","","27","","11","","24.1","","102.09","","","","-5","","Clear"
"2004-11-14 09:00","2004","11","14","09:00","2.0","","-2.8","","70","","25","","7","","24.1","","102.09","","","","","","Clear"
"2004-11-14 10:00","2004","11","14","10:00","5.5","","-1.7","","60","","27","","19","","24.1","","102.08","","","","","","Clear"
"2004-11-14 11:00","2004","11","14","11:00","7.3","","-3.2","","47","","28","","19","","24.1","","102.03","","","","","","Clear"
"2004-11-14 12:00","2004","11","14","12:00","8.5","","-3.2","","44","","29","","19","","24.1","","101.94","","","","","","Clear"
"2004-11-14 13:00","2004","11","14","13:00","9.9","","-3.5","","39","","29","","19","","24.1","","101.87","","","","","","Clear"
"2004-11-14 14:00","2004","11","14","14:00","9.9","","-3.5","","39","","28","","28","","24.1","","101.84","","","","","","Clear"
"2004-11-14 15:00","2004","11","14","15:00","9.8","","-3.4","","39","","28","","22","","24.1","","101.81","","","","","","Clear"
"2004-11-14 16:00","2004","11","14","16:00","8.9","","-2.8","","44","","27","","19","","24.1","","101.81","","","","","","Clear"
"2004-11-14 17:00","2004","11","14","17:00","6.1","","-3.5","","50","","27","","15","","24.1","","101.80","","","","","","Clear"
"2004-11-14 18:00","2004","11","14","18:00","3.9","","-3.4","","59","","26","","15","","24.1","","101.78","","","","","","Clear"
"2004-11-14 19:00","2004","11","14","19:00","2.5","","-3.3","","66","","26","","13","","24.1","","101.77","","","","","","Clear"
"2004-11-14 20:00","2004","11","14","20:00","2.0","","-3.2","","68","","26","","9","","24.1","","101.78","","","","","","Clear"
"2004-11-14 21:00","2004","11","14","21:00","1.1","","-4.0","","69","","28","","9","","24.1","","101.76","","","","","","Clear"
"2004-11-14 22:00","2004","11","14","22:00","-0.6","","-3.3","","82","","26","","4","","24.1","","101.73","","","","-2","","Clear"
"2004-11-14 23:00","2004","11","14","23:00","2.4","","-2.5","","70","","","","0","","24.1","","101.69","","","","","","Clear"
"2004-11-15 00:00","2004","11","15","00:00","1.3","","-3.0","","73","","14","","4","","24.1","","101.71","","","","","","Clear"
"2004-11-15 01:00","2004","11","15","01:00","0.9","","-3.1","","75","","","","0","","24.1","","101.68","","","","","","Clear"
"2004-11-15 02:00","2004","11","15","02:00","1.3","","-2.9","","74","","16","","4","","24.1","","101.63","","","","","","Mainly Clear"
"2004-11-15 03:00","2004","11","15","03:00","-0.7","","-4.5","","75","","","","0","","24.1","","101.61","","","","","","Mainly Clear"
"2004-11-15 04:00","2004","11","15","04:00","-0.3","","-3.8","","77","","25","","6","","24.1","","101.59","","","","-2","","Mostly Cloudy"
"2004-11-15 05:00","2004","11","15","05:00","-0.3","","-3.3","","80","","25","","7","","24.1","","101.56","","","","-3","","Mostly Cloudy"
"2004-11-15 06:00","2004","11","15","06:00","0.6","","-2.6","","79","","","","0","","24.1","","101.56","","","","","","Mostly Cloudy"
"2004-11-15 07:00","2004","11","15","07:00","0.7","","-2.4","","80","","","","0","","24.1","","101.51","","","","","","Mostly Cloudy"
"2004-11-15 08:00","2004","11","15","08:00","1.3","","-2.5","","76","","20","","4","","19.3","","101.56","","","","","","Mainly Clear"
"2004-11-15 09:00","2004","11","15","09:00","4.1","","0.4","","77","","24","","6","","24.1","","101.54","","","","","","Mostly Cloudy"
"2004-11-15 10:00","2004","11","15","10:00","6.4","","0.5","","66","","","","0","","19.3","","101.51","","","","","","Mostly Cloudy"
"2004-11-15 11:00","2004","11","15","11:00","9.7","","0.1","","51","","","","0","","19.3","","101.47","","","","","","Mostly Cloudy"
"2004-11-15 12:00","2004","11","15","12:00","10.4","","-0.8","","46","","24","","9","","19.3","","101.43","","","","","","Mostly Cloudy"
"2004-11-15 13:00","2004","11","15","13:00","12.4","","-3.4","","33","","31","","15","","24.1","","101.35","","","","","","Mostly Cloudy"
"2004-11-15 14:00","2004","11","15","14:00","12.7","","-3.2","","33","","32","","4","","24.1","","101.29","","","","","","Mostly Cloudy"
"2004-11-15 15:00","2004","11","15","15:00","13.4","","-2.9","","32","","26","","22","","24.1","","101.25","","","","","","Mostly Cloudy"
"2004-11-15 16:00","2004","11","15","16:00","10.7","","-2.3","","40","","27","","17","","24.1","","101.23","","","","","","Mostly Cloudy"
"2004-11-15 17:00","2004","11","15","17:00","9.0","","-1.6","","47","","27","","15","","24.1","","101.19","","","","","","Mostly Cloudy"
"2004-11-15 18:00","2004","11","15","18:00","7.0","","-2.1","","52","","24","","11","","24.1","","101.14","","","","","","Mostly Cloudy"
"2004-11-15 19:00","2004","11","15","19:00","5.6","","-1.6","","60","","27","","19","","24.1","","101.12","","","","","","Mainly Clear"
"2004-11-15 20:00","2004","11","15","20:00","6.1","","-0.9","","61","","25","","13","","24.1","","101.09","","","","","","Mostly Cloudy"
"2004-11-15 21:00","2004","11","15","21:00","5.9","","-1.3","","60","","27","","7","","24.1","","101.07","","","","","","Mostly Cloudy"
"2004-11-15 22:00","2004","11","15","22:00","4.7","","-1.5","","64","","27","","7","","24.1","","101.06","","","","","","Mostly Cloudy"
"2004-11-15 23:00","2004","11","15","23:00","4.7","","-2.2","","61","","23","","9","","24.1","","101.00","","","","","","Mostly Cloudy"
"2004-11-16 00:00","2004","11","16","00:00","4.7","","-2.3","","60","","25","","9","","24.1","","100.97","","","","","","Mostly Cloudy"
"2004-11-16 01:00","2004","11","16","01:00","4.6","","-2.2","","61","","23","","6","","24.1","","100.92","","","","","","Mostly Cloudy"
"2004-11-16 02:00","2004","11","16","02:00","4.9","","-2.3","","60","","27","","6","","24.1","","100.93","","","","","","Mostly Cloudy"
"2004-11-16 03:00","2004","11","16","03:00","2.8","","-2.9","","66","","31","","4","","24.1","","100.94","","","","","","Mostly Cloudy"
"2004-11-16 04:00","2004","11","16","04:00","4.2","","-1.4","","67","","29","","6","","24.1","","100.84","","","","","","Mostly Cloudy"
"2004-11-16 05:00","2004","11","16","05:00","2.4","","-2.5","","70","","","","0","","24.1","","100.82","","","","","","Mainly Clear"
"2004-11-16 06:00","2004","11","16","06:00","4.6","","-2.2","","61","","23","","6","","24.1","","100.79","","","","","","Clear"
"2004-11-16 07:00","2004","11","16","07:00","2.9","","-3.2","","64","","27","","4","","24.1","","100.80","","","","","","Mainly Clear"
"2004-11-16 08:00","2004","11","16","08:00","2.2","","-2.6","","71","","29","","6","","24.1","","100.85","","","","","","Mainly Clear"
"2004-11-16 09:00","2004","11","16","09:00","6.0","","1.0","","70","","25","","9","","16.1","","100.84","","","","","","Mainly Clear"
"2004-11-16 10:00","2004","11","16","10:00","8.3","","1.1","","60","","28","","7","","16.1","","100.82","","","","","","Mostly Cloudy"
"2004-11-16 11:00","2004","11","16","11:00","9.4","","0.7","","55","","29","","4","","16.1","","100.80","","","","","","Mostly Cloudy"
"2004-11-16 12:00","2004","11","16","12:00","10.1","","0.3","","51","","27","","6","","19.3","","100.72","","","","","","Mostly Cloudy"
"2004-11-16 13:00","2004","11","16","13:00","11.8","","-0.1","","44","","25","","11","","19.3","","100.64","","","","","","Mostly Cloudy"
"2004-11-16 14:00","2004","11","16","14:00","13.5","","-1.9","","34","","23","","11","","19.3","","100.59","","","","","","Mostly Cloudy"
"2004-11-16 15:00","2004","11","16","15:00","13.6","","-0.9","","37","","25","","11","","19.3","","100.54","","","","","","Mostly Cloudy"
"2004-11-16 16:00","2004","11","16","16:00","13.0","","-1.2","","37","","23","","9","","19.3","","100.54","","","","","","Mainly Clear"
"2004-11-16 17:00","2004","11","16","17:00","11.5","","0.7","","47","","16","","6","","24.1","","100.55","","","","","","Mostly Cloudy"
"2004-11-16 18:00","2004","11","16","18:00","11.1","","-0.1","","46","","26","","13","","24.1","","100.54","","","","","","Mostly Cloudy"
"2004-11-16 19:00","2004","11","16","19:00","10.9","","-0.4","","46","","22","","9","","24.1","","100.53","","","","","","Mostly Cloudy"
"2004-11-16 20:00","2004","11","16","20:00","10.4","","-0.1","","48","","22","","9","","24.1","","100.49","","","","","","Mostly Cloudy"
"2004-11-16 21:00","2004","11","16","21:00","9.1","","1.8","","60","","24","","15","","24.1","","100.50","","","","","","Mostly Cloudy"
"2004-11-16 22:00","2004","11","16","22:00","8.7","","3.5","","70","","25","","15","","24.1","","100.50","","","","","","Mostly Cloudy"
"2004-11-16 23:00","2004","11","16","23:00","9.3","","4.6","","72","","21","","7","","24.1","","100.47","","","","","","Cloudy"
"2004-11-17 00:00","2004","11","17","00:00","9.0","","5.1","","77","","20","","6","","24.1","","100.48","","","","","","Cloudy"
"2004-11-17 01:00","2004","11","17","01:00","8.9","","5.8","","81","","22","","6","","24.1","","100.46","","","","","","Cloudy"
"2004-11-17 02:00","2004","11","17","02:00","8.7","","5.7","","81","","23","","6","","24.1","","100.46","","","","","","Cloudy"
"2004-11-17 03:00","2004","11","17","03:00","8.3","","6.1","","86","","25","","7","","24.1","","100.47","","","","","","Cloudy"
"2004-11-17 04:00","2004","11","17","04:00","8.0","","6.4","","90","","26","","9","","16.1","","100.44","","","","","","Cloudy"
"2004-11-17 05:00","2004","11","17","05:00","8.0","","6.7","","91","","23","","6","","16.1","","100.41","","","","","","Cloudy"
"2004-11-17 06:00","2004","11","17","06:00","8.1","","6.7","","91","","25","","7","","14.5","","100.39","","","","","","Mostly Cloudy"
"2004-11-17 07:00","2004","11","17","07:00","8.7","","7.2","","90","","18","","4","","6.4","","100.41","","","","","","Fog"
"2004-11-17 08:00","2004","11","17","08:00","8.8","","7.1","","89","","18","","7","","6.4","","100.41","","","","","","Fog"
"2004-11-17 09:00","2004","11","17","09:00","9.5","","7.6","","88","","22","","11","","4.8","","100.42","","","","","","Fog"
"2004-11-17 10:00","2004","11","17","10:00","10.2","","7.9","","86","","21","","11","","6.4","","100.40","","","","","","Haze"
"2004-11-17 11:00","2004","11","17","11:00","11.1","","8.6","","85","","22","","11","","6.4","","100.37","","","","","","Haze"
"2004-11-17 12:00","2004","11","17","12:00","11.7","","9.2","","85","","21","","11","","8.0","","100.26","","","","","","Haze"
"2004-11-17 13:00","2004","11","17","13:00","12.1","","9.7","","85","","20","","15","","6.4","","100.22","","","","","","Haze"
"2004-11-17 14:00","2004","11","17","14:00","11.9","","9.9","","88","","23","","15","","8.0","","100.17","","","","","","Haze"
"2004-11-17 15:00","2004","11","17","15:00","11.4","","10.3","","93","","19","","9","","6.4","","100.15","","","","","","Drizzle,Fog"
"2004-11-17 16:00","2004","11","17","16:00","11.0","","10.2","","95","","16","","7","","4.8","","100.14","","","","","","Drizzle,Fog"
"2004-11-17 17:00","2004","11","17","17:00","10.4","","9.8","","96","","15","","9","","4.8","","100.13","","","","","","Fog"
"2004-11-17 18:00","2004","11","17","18:00","10.0","","9.6","","97","","16","","7","","6.4","","100.13","","","","","","Fog"
"2004-11-17 19:00","2004","11","17","19:00","10.7","","10.1","","96","","20","","7","","6.4","","100.13","","","","","","Fog"
"2004-11-17 20:00","2004","11","17","20:00","10.7","","10.1","","96","","22","","9","","4.8","","100.12","","","","","","Drizzle,Fog"
"2004-11-17 21:00","2004","11","17","21:00","10.4","","10.1","","98","","21","","4","","6.4","","100.10","","","","","","Drizzle,Fog"
"2004-11-17 22:00","2004","11","17","22:00","10.3","","10.0","","98","","18","","9","","4.0","","100.03","","","","","","Fog"
"2004-11-17 23:00","2004","11","17","23:00","10.2","","10.0","","99","","22","","9","","4.0","","100.02","","","","","","Fog"
"2004-11-18 00:00","2004","11","18","00:00","10.2","","10.1","","99","","22","","6","","4.0","","100.01","","","","","","Fog"
"2004-11-18 01:00","2004","11","18","01:00","10.0","","10.0","","100","","24","","6","","4.0","","99.98","","","","","","Fog"
"2004-11-18 02:00","2004","11","18","02:00","10.0","","9.8","","99","","25","","9","","6.4","","99.98","","","","","","Fog"
"2004-11-18 03:00","2004","11","18","03:00","10.0","","10.0","","100","","","","0","","6.4","","99.98","","","","","","Rain,Fog"
"2004-11-18 04:00","2004","11","18","04:00","10.0","","9.8","","99","","22","","4","","6.4","","99.94","","","","","","Fog"
"2004-11-18 05:00","2004","11","18","05:00","10.1","","9.9","","99","","25","","7","","6.4","","99.96","","","","","","Fog"
"2004-11-18 06:00","2004","11","18","06:00","10.0","","9.8","","99","","24","","9","","6.4","","99.95","","","","","","Fog"
"2004-11-18 07:00","2004","11","18","07:00","10.0","","9.8","","99","","25","","7","","6.4","","99.95","","","","","","Fog"
"2004-11-18 08:00","2004","11","18","08:00","10.1","","10.0","","99","","25","","6","","8.0","","99.94","","","","","","Fog"
"2004-11-18 09:00","2004","11","18","09:00","11.0","","10.5","","97","","26","","11","","8.0","","99.92","","","","","","Fog"
"2004-11-18 10:00","2004","11","18","10:00","11.5","","11.0","","97","","22","","7","","9.7","","99.91","","","","","","Fog"
"2004-11-18 11:00","2004","11","18","11:00","12.2","","11.4","","95","","26","","11","","9.7","","99.88","","","","","","Fog"
"2004-11-18 12:00","2004","11","18","12:00","12.6","","11.3","","92","","28","","6","","9.7","","99.82","","","","","","Fog"
"2004-11-18 13:00","2004","11","18","13:00","13.4","","11.5","","88","","25","","9","","9.7","","99.79","","","","","","Fog"
"2004-11-18 14:00","2004","11","18","14:00","14.0","","10.9","","82","","32","","19","","14.5","","99.78","","","","","","Cloudy"
"2004-11-18 15:00","2004","11","18","15:00","14.8","","10.6","","76","","31","","15","","8.0","","99.78","","","","","","Haze"
"2004-11-18 16:00","2004","11","18","16:00","13.9","","9.7","","76","","29","","17","","12.9","","99.81","","","","","","Mostly Cloudy"
"2004-11-18 17:00","2004","11","18","17:00","12.0","","8.8","","81","","27","","15","","11.3","","99.86","","","","","","Mainly Clear"
"2004-11-18 18:00","2004","11","18","18:00","11.3","","8.9","","85","","29","","11","","11.3","","99.85","","","","","","Mainly Clear"
"2004-11-18 19:00","2004","11","18","19:00","10.7","","8.8","","88","","28","","9","","14.5","","99.86","","","","","","Mainly Clear"
"2004-11-18 20:00","2004","11","18","20:00","9.9","","7.9","","87","","29","","13","","14.5","","99.93","","","","","","Clear"
"2004-11-18 21:00","2004","11","18","21:00","8.7","","7.4","","92","","29","","9","","12.9","","99.96","","","","","","Mainly Clear"
"2004-11-18 22:00","2004","11","18","22:00","8.5","","7.3","","92","","32","","19","","12.9","","99.98","","","","","","Mainly Clear"
"2004-11-18 23:00","2004","11","18","23:00","9.1","","7.2","","88","","32","","17","","14.5","","100.00","","","","","","Mostly Cloudy"
"2004-11-19 00:00","2004","11","19","00:00","8.3","","6.5","","88","","32","","13","","16.1","","100.03","","","","","","Mostly Cloudy"
"2004-11-19 01:00","2004","11","19","01:00","6.9","","5.0","","88","","33","","20","","16.1","","100.03","","","","","","Mostly Cloudy"
"2004-11-19 02:00","2004","11","19","02:00","7.2","","4.7","","84","","35","","15","","24.1","","100.05","","","","","","Cloudy"
"2004-11-19 03:00","2004","11","19","03:00","6.8","","4.3","","84","","36","","11","","24.1","","100.09","","","","","","Mostly Cloudy"
"2004-11-19 04:00","2004","11","19","04:00","7.0","","4.6","","85","","36","","6","","24.1","","100.09","","","","","","Mostly Cloudy"
"2004-11-19 05:00","2004","11","19","05:00","6.6","","4.4","","86","","27","","4","","24.1","","100.13","","","","","","Mostly Cloudy"
"2004-11-19 06:00","2004","11","19","06:00","7.2","","4.8","","85","","34","","7","","24.1","","100.15","","","","","","Cloudy"
"2004-11-19 07:00","2004","11","19","07:00","6.8","","4.5","","85","","1","","13","","16.1","","100.17","","","","","","Cloudy"
"2004-11-19 08:00","2004","11","19","08:00","6.7","","5.0","","89","","2","","11","","14.5","","100.22","","","","","","Cloudy"
"2004-11-19 09:00","2004","11","19","09:00","7.6","","5.7","","88","","4","","17","","14.5","","100.28","","","","","","Cloudy"
"2004-11-19 10:00","2004","11","19","10:00","8.3","","5.5","","83","","4","","15","","14.5","","100.28","","","","","","Cloudy"
"2004-11-19 11:00","2004","11","19","11:00","8.7","","5.3","","79","","6","","9","","19.3","","100.28","","","","","","Cloudy"
"2004-11-19 12:00","2004","11","19","12:00","9.3","","4.6","","72","","7","","13","","24.1","","100.20","","","","","","Mostly Cloudy"
"2004-11-19 13:00","2004","11","19","13:00","9.7","","2.4","","60","","10","","15","","24.1","","100.14","","","","","","Mostly Cloudy"
"2004-11-19 14:00","2004","11","19","14:00","9.3","","1.5","","58","","10","","17","","24.1","","100.11","","","","","","Mostly Cloudy"
"2004-11-19 15:00","2004","11","19","15:00","8.6","","1.4","","61","","10","","13","","24.1","","100.10","","","","","","Mostly Cloudy"
"2004-11-19 16:00","2004","11","19","16:00","8.1","","1.3","","62","","9","","15","","24.1","","100.13","","","","","","Mostly Cloudy"
"2004-11-19 17:00","2004","11","19","17:00","8.0","","1.5","","63","","9","","15","","24.1","","100.12","","","","","","Cloudy"
"2004-11-19 18:00","2004","11","19","18:00","7.6","","3.7","","76","","9","","17","","24.1","","100.11","","","","","","Cloudy"
"2004-11-19 19:00","2004","11","19","19:00","7.6","","4.6","","81","","10","","13","","24.1","","100.10","","","","","","Cloudy"
"2004-11-19 20:00","2004","11","19","20:00","7.7","","5.1","","84","","9","","9","","24.1","","100.09","","","","","","Cloudy"
"2004-11-19 21:00","2004","11","19","21:00","7.8","","4.9","","82","","10","","11","","24.1","","100.09","","","","","","Cloudy"
"2004-11-19 22:00","2004","11","19","22:00","7.7","","4.1","","78","","10","","15","","24.1","","100.04","","","","","","Cloudy"
"2004-11-19 23:00","2004","11","19","23:00","7.4","","4.5","","82","","10","","17","","24.1","","100.00","","","","","","Rain"
"2004-11-20 00:00","2004","11","20","00:00","7.2","","4.7","","84","","11","","22","","24.1","","99.99","","","","","","Rain"
"2004-11-20 01:00","2004","11","20","01:00","6.8","","4.2","","83","","9","","19","","24.1","","99.96","","","","","","Rain"
"2004-11-20 02:00","2004","11","20","02:00","5.8","","3.9","","88","","9","","19","","19.3","","99.92","","","","","","Rain"
"2004-11-20 03:00","2004","11","20","03:00","5.7","","3.7","","87","","9","","24","","16.1","","99.83","","","","","","Cloudy"
"2004-11-20 04:00","2004","11","20","04:00","5.3","","3.4","","88","","9","","28","","14.5","","99.75","","","","","","Drizzle"
"2004-11-20 05:00","2004","11","20","05:00","5.4","","3.8","","89","","9","","24","","11.3","","99.68","","","","","","Rain"
"2004-11-20 06:00","2004","11","20","06:00","5.5","","4.2","","91","","9","","20","","11.3","","99.64","","","","","","Rain"
"2004-11-20 07:00","2004","11","20","07:00","5.3","","4.1","","92","","9","","22","","6.4","","99.62","","","","","","Rain,Fog"
"2004-11-20 08:00","2004","11","20","08:00","5.2","","4.4","","95","","9","","22","","4.8","","99.64","","","","","","Rain,Fog"
"2004-11-20 09:00","2004","11","20","09:00","5.6","","4.9","","95","","9","","19","","4.8","","99.59","","","","","","Rain,Fog"
"2004-11-20 10:00","2004","11","20","10:00","5.8","","5.2","","96","","9","","17","","3.6","","99.57","","","","","","Drizzle,Fog"
"2004-11-20 11:00","2004","11","20","11:00","6.1","","5.8","","98","","10","","15","","2.8","","99.53","","","","","","Drizzle,Fog"
"2004-11-20 12:00","2004","11","20","12:00","6.5","","6.3","","99","","8","","7","","4.8","","99.47","","","","","","Rain,Fog"
"2004-11-20 13:00","2004","11","20","13:00","6.6","","6.3","","98","","8","","13","","6.4","","99.40","","","","","","Fog"
"2004-11-20 14:00","2004","11","20","14:00","6.8","","6.4","","97","","3","","6","","6.4","","99.41","","","","","","Rain,Fog"
"2004-11-20 15:00","2004","11","20","15:00","6.6","","6.3","","98","","9","","7","","4.8","","99.42","","","","","","Fog"
"2004-11-20 16:00","2004","11","20","16:00","6.8","","6.8","","100","","","","0","","2.0","","99.47","","","","","","Fog"
"2004-11-20 17:00","2004","11","20","17:00","6.7","","6.7","","100","","","","0","","0.6","","99.50","","","","","","Rain,Fog"
"2004-11-20 18:00","2004","11","20","18:00","6.8","","6.8","","100","","9","","4","","0.6","","99.53","","","","","","Fog"
"2004-11-20 19:00","2004","11","20","19:00","6.8","","6.8","","100","","","","0","","0.2","","99.55","","","","","","Fog"
"2004-11-20 20:00","2004","11","20","20:00","6.9","","6.9","","100","","14","","4","","0.2","","99.56","","","","","","Fog"
"2004-11-20 21:00","2004","11","20","21:00","7.2","","7.2","","100","","17","","6","","0.2","","99.58","","","","","","Fog"
"2004-11-20 22:00","2004","11","20","22:00","7.2","","7.2","","100","","14","","6","","0.2","","99.61","","","","","","Fog"
"2004-11-20 23:00","2004","11","20","23:00","7.6","","7.6","","100","","17","","6","","0.6","","99.64","","","","","","Fog"
"2004-11-21 00:00","2004","11","21","00:00","7.1","","7.1","","100","","18","","6","","0.4","","99.68","","","","","","Fog"
"2004-11-21 01:00","2004","11","21","01:00","7.4","","7.4","","100","","19","","6","","9.7","","99.69","","","","","","Fog"
"2004-11-21 02:00","2004","11","21","02:00","9.3","","8.7","","96","","28","","15","","12.9","","99.72","","","","","","Mostly Cloudy"
"2004-11-21 03:00","2004","11","21","03:00","9.3","","9.0","","98","","28","","17","","19.3","","99.84","","","","","","Mostly Cloudy"
"2004-11-21 04:00","2004","11","21","04:00","8.4","","7.0","","91","","27","","19","","24.1","","99.88","","","","","","Mainly Clear"
"2004-11-21 05:00","2004","11","21","05:00","8.6","","6.9","","89","","27","","20","","24.1","","99.93","","","","","","Mostly Cloudy"
"2004-11-21 06:00","2004","11","21","06:00","8.2","","6.8","","91","","27","","19","","24.1","","99.98","","","","","","Mostly Cloudy"
"2004-11-21 07:00","2004","11","21","07:00","8.3","","7.0","","92","","28","","13","","24.1","","100.10","","","","","","Mostly Cloudy"
"2004-11-21 08:00","2004","11","21","08:00","8.0","","6.6","","91","","28","","9","","24.1","","100.22","","","","","","Mostly Cloudy"
"2004-11-21 09:00","2004","11","21","09:00","8.2","","6.2","","87","","29","","7","","24.1","","100.25","","","","","","Mostly Cloudy"
"2004-11-21 10:00","2004","11","21","10:00","9.3","","6.0","","80","","31","","20","","24.1","","100.30","","","","","","Cloudy"
"2004-11-21 11:00","2004","11","21","11:00","8.7","","4.2","","73","","31","","22","","24.1","","100.34","","","","","","Mostly Cloudy"
"2004-11-21 12:00","2004","11","21","12:00","8.8","","2.0","","62","","29","","30","","24.1","","100.33","","","","","","Mostly Cloudy"
"2004-11-21 13:00","2004","11","21","13:00","9.6","","2.0","","59","","31","","22","","24.1","","100.27","","","","","","Mainly Clear"
"2004-11-21 14:00","2004","11","21","14:00","9.7","","1.5","","57","","28","","26","","24.1","","100.23","","","","","","Mainly Clear"
"2004-11-21 15:00","2004","11","21","15:00","9.6","","1.6","","57","","29","","20","","24.1","","100.23","","","","","","Mainly Clear"
"2004-11-21 16:00","2004","11","21","16:00","8.7","","1.2","","59","","27","","17","","24.1","","100.28","","","","","","Mostly Cloudy"
"2004-11-21 17:00","2004","11","21","17:00","7.2","","0.5","","62","","30","","17","","24.1","","100.31","","","","","","Mainly Clear"
"2004-11-21 18:00","2004","11","21","18:00","6.0","","-0.3","","64","","30","","17","","24.1","","100.32","","","","","","Mainly Clear"
"2004-11-21 19:00","2004","11","21","19:00","5.5","","-0.3","","66","","32","","15","","24.1","","100.30","","","","","","Mostly Cloudy"
"2004-11-21 20:00","2004","11","21","20:00","4.9","","-0.3","","69","","29","","9","","24.1","","100.29","","","","","","Mostly Cloudy"
"2004-11-21 21:00","2004","11","21","21:00","4.5","","-0.3","","71","","28","","9","","24.1","","100.27","","","","","","Mostly Cloudy"
"2004-11-21 22:00","2004","11","21","22:00","4.4","","0.2","","74","","28","","4","","24.1","","100.25","","","","","","Cloudy"
"2004-11-21 23:00","2004","11","21","23:00","4.5","","-0.2","","71","","","","0","","24.1","","100.19","","","","","","Mostly Cloudy"
"2004-11-22 00:00","2004","11","22","00:00","4.8","","0.4","","73","","19","","6","","24.1","","100.17","","","","","","Cloudy"
"2004-11-22 01:00","2004","11","22","01:00","4.6","","0.8","","76","","24","","6","","24.1","","100.15","","","","","","Mostly Cloudy"
"2004-11-22 02:00","2004","11","22","02:00","4.5","","0.8","","77","","24","","7","","24.1","","100.09","","","","","","Mostly Cloudy"
"2004-11-22 03:00","2004","11","22","03:00","3.6","","0.8","","82","","25","","7","","24.1","","100.06","","","","","","Mostly Cloudy"
"2004-11-22 04:00","2004","11","22","04:00","4.1","","1.3","","82","","27","","7","","24.1","","99.99","","","","","","Cloudy"
"2004-11-22 05:00","2004","11","22","05:00","4.1","","1.4","","83","","27","","9","","24.1","","100.02","","","","","","Mostly Cloudy"
"2004-11-22 06:00","2004","11","22","06:00","3.3","","0.8","","84","","29","","13","","24.1","","100.04","","","","","","Mainly Clear"
"2004-11-22 07:00","2004","11","22","07:00","3.0","","0.8","","85","","29","","15","","24.1","","100.03","","","","","","Mostly Cloudy"
"2004-11-22 08:00","2004","11","22","08:00","3.6","","1.3","","85","","28","","13","","24.1","","100.05","","","","","","Mostly Cloudy"
"2004-11-22 09:00","2004","11","22","09:00","4.7","","1.2","","78","","29","","13","","24.1","","100.09","","","","","","Mostly Cloudy"
"2004-11-22 10:00","2004","11","22","10:00","5.2","","0.5","","72","","26","","9","","24.1","","100.07","","","","","","Mostly Cloudy"
"2004-11-22 11:00","2004","11","22","11:00","6.2","","0.8","","68","","27","","11","","24.1","","100.05","","","","","","Mainly Clear"
"2004-11-22 12:00","2004","11","22","12:00","7.0","","-0.4","","59","","27","","15","","24.1","","99.98","","","","","","Mainly Clear"
"2004-11-22 13:00","2004","11","22","13:00","8.4","","-1.8","","49","","29","","19","","24.1","","99.90","","","","","","Mainly Clear"
"2004-11-22 14:00","2004","11","22","14:00","8.9","","-0.8","","51","","28","","9","","24.1","","99.86","","","","","","Clear"
"2004-11-22 15:00","2004","11","22","15:00","8.6","","-1.1","","50","","27","","13","","24.1","","99.81","","","","","","Clear"
"2004-11-22 16:00","2004","11","22","16:00","7.9","","-1.2","","53","","24","","9","","24.1","","99.80","","","","","","Mainly Clear"
"2004-11-22 17:00","2004","11","22","17:00","5.3","","-1.6","","61","","24","","11","","24.1","","99.76","","","","","","Mainly Clear"
"2004-11-22 18:00","2004","11","22","18:00","4.2","","-1.6","","66","","25","","13","","24.1","","99.77","","","","","","Clear"
"2004-11-22 19:00","2004","11","22","19:00","3.1","","-2.0","","69","","24","","11","","24.1","","99.77","","","","","","Clear"
"2004-11-22 20:00","2004","11","22","20:00","2.9","","-1.5","","73","","25","","13","","24.1","","99.75","","","","","","Clear"
"2004-11-22 21:00","2004","11","22","21:00","2.8","","-1.5","","73","","27","","7","","24.1","","99.75","","","","","","Clear"
"2004-11-22 22:00","2004","11","22","22:00","2.8","","-1.0","","76","","25","","4","","24.1","","99.71","","","","","","Clear"
"2004-11-22 23:00","2004","11","22","23:00","2.8","","-1.3","","74","","25","","4","","24.1","","99.66","","","","","","Clear"
"2004-11-23 00:00","2004","11","23","00:00","1.4","","-1.9","","79","","","","0","","24.1","","99.65","","","","","","Clear"
"2004-11-23 01:00","2004","11","23","01:00","1.1","","-2.1","","79","","21","","6","","24.1","","99.63","","","","","","Mainly Clear"
"2004-11-23 02:00","2004","11","23","02:00","1.2","","-1.9","","80","","","","0","","24.1","","99.59","","","","","","Cloudy"
"2004-11-23 03:00","2004","11","23","03:00","2.7","","-0.9","","77","","17","","4","","24.1","","99.57","","","","","","Cloudy"
"2004-11-23 04:00","2004","11","23","04:00","2.8","","-0.7","","78","","18","","6","","24.1","","99.50","","","","","","Mostly Cloudy"
"2004-11-23 05:00","2004","11","23","05:00","3.4","","-0.6","","75","","19","","7","","24.1","","99.47","","","","","","Cloudy"
"2004-11-23 06:00","2004","11","23","06:00","3.9","","0.3","","77","","18","","6","","24.1","","99.44","","","","","","Mostly Cloudy"
"2004-11-23 07:00","2004","11","23","07:00","4.5","","1.7","","82","","18","","9","","12.9","","99.43","","","","","","Cloudy"
"2004-11-23 08:00","2004","11","23","08:00","5.4","","2.9","","84","","17","","9","","8.0","","99.39","","","","","","Haze"
"2004-11-23 09:00","2004","11","23","09:00","6.2","","3.9","","85","","18","","13","","8.0","","99.37","","","","","","Haze"
"2004-11-23 10:00","2004","11","23","10:00","6.6","","4.6","","87","","18","","13","","6.4","","99.33","","","","","","Fog"
"2004-11-23 11:00","2004","11","23","11:00","7.5","","5.6","","88","","20","","17","","4.8","","99.26","","","","","","Fog"
"2004-11-23 12:00","2004","11","23","12:00","8.5","","5.6","","82","","20","","20","","9.7","","99.19","","","","","","Haze"
"2004-11-23 13:00","2004","11","23","13:00","8.4","","5.4","","81","","20","","20","","11.3","","99.16","","","","","","Cloudy"
"2004-11-23 14:00","2004","11","23","14:00","9.0","","5.7","","80","","20","","17","","12.9","","99.14","","","","","","Cloudy"
"2004-11-23 15:00","2004","11","23","15:00","9.4","","6.3","","81","","22","","11","","11.3","","99.11","","","","","","Cloudy"
"2004-11-23 16:00","2004","11","23","16:00","9.6","","6.6","","82","","20","","13","","11.3","","99.14","","","","","","Cloudy"
"2004-11-23 17:00","2004","11","23","17:00","9.5","","6.8","","83","","20","","15","","9.7","","99.13","","","","","","Haze"
"2004-11-23 18:00","2004","11","23","18:00","9.6","","7.1","","84","","20","","15","","9.7","","99.16","","","","","","Haze"
"2004-11-23 19:00","2004","11","23","19:00","9.0","","7.9","","93","","20","","13","","4.0","","99.18","","","","","","Drizzle"
"2004-11-23 20:00","2004","11","23","20:00","8.9","","8.3","","96","","21","","9","","4.0","","99.23","","","","","","Drizzle"
"2004-11-23 21:00","2004","11","23","21:00","9.1","","8.3","","95","","20","","7","","8.0","","99.25","","","","","","Fog"
"2004-11-23 22:00","2004","11","23","22:00","8.9","","8.1","","95","","21","","7","","9.7","","99.23","","","","","","Fog"
"2004-11-23 23:00","2004","11","23","23:00","9.0","","8.2","","95","","22","","13","","9.7","","99.26","","","","","","Fog"
"2004-11-24 00:00","2004","11","24","00:00","8.9","","8.1","","95","","22","","7","","9.7","","99.29","","","","","","Fog"
"2004-11-24 01:00","2004","11","24","01:00","7.6","","7.5","","99","","27","","7","","12.9","","99.30","","","","","","Mostly Cloudy"
"2004-11-24 02:00","2004","11","24","02:00","6.8","","6.7","","99","","27","","7","","11.3","","99.28","","","","","","Mostly Cloudy"
"2004-11-24 03:00","2004","11","24","03:00","6.9","","6.1","","95","","32","","11","","11.3","","99.30","","","","","","Mostly Cloudy"
"2004-11-24 04:00","2004","11","24","04:00","6.5","","4.9","","89","","36","","22","","19.3","","99.33","","","","","","Mostly Cloudy"
"2004-11-24 05:00","2004","11","24","05:00","5.4","","3.3","","86","","2","","22","","24.1","","99.38","","","","","","Mostly Cloudy"
"2004-11-24 06:00","2004","11","24","06:00","5.3","","2.6","","83","","1","","17","","24.1","","99.40","","","","","","Cloudy"
"2004-11-24 07:00","2004","11","24","07:00","5.1","","2.2","","82","","2","","22","","24.1","","99.34","","","","","","Mostly Cloudy"
"2004-11-24 08:00","2004","11","24","08:00","4.9","","2.3","","83","","1","","17","","24.1","","99.35","","","","","","Cloudy"
"2004-11-24 09:00","2004","11","24","09:00","4.7","","2.0","","83","","3","","20","","16.1","","99.29","","","","","","Rain"
"2004-11-24 10:00","2004","11","24","10:00","4.1","","1.4","","83","","3","","26","","12.9","","99.20","","","","","","Rain"
"2004-11-24 11:00","2004","11","24","11:00","3.4","","1.1","","85","","3","","28","","9.7","","99.07","","","","","","Rain"
"2004-11-24 12:00","2004","11","24","12:00","2.7","","0.3","","84","","2","","26","","8.0","","98.87","","","","","","Rain"
"2004-11-24 13:00","2004","11","24","13:00","1.9","","-0.4","","85","","1","","26","","6.4","","98.80","","","","","","Rain,Ice Pellets"
"2004-11-24 14:00","2004","11","24","14:00","0.1","","-1.2","","91","","1","","37","","1.6","","98.68","","","","","","Snow,Ice Pellets,Fog"
"2004-11-24 15:00","2004","11","24","15:00","1.1","","-0.7","","88","","2","","32","","6.4","","98.48","","","","","","Snow,Ice Pellets,Fog"
"2004-11-24 16:00","2004","11","24","16:00","1.4","","-0.2","","89","","3","","30","","16.1","","98.20","","","","","","Rain"
"2004-11-24 17:00","2004","11","24","17:00","1.4","","0.3","","92","","2","","32","","4.0","","98.05","","","","","","Rain,Fog"
"2004-11-24 18:00","2004","11","24","18:00","1.3","","0.5","","94","","3","","30","","6.4","","97.89","","","","","","Rain,Fog"
"2004-11-24 19:00","2004","11","24","19:00","1.3","","0.6","","95","","3","","20","","4.8","","97.78","","","","","","Rain,Fog"
"2004-11-24 20:00","2004","11","24","20:00","1.3","","0.7","","96","","2","","22","","4.0","","97.62","","","","","","Rain,Fog"
"2004-11-24 21:00","2004","11","24","21:00","1.1","","0.5","","96","","2","","26","","4.8","","97.51","","","","","","Rain,Fog"
"2004-11-24 22:00","2004","11","24","22:00","1.1","","0.4","","95","","1","","30","","9.7","","97.43","","","","","","Rain,Fog"
"2004-11-24 23:00","2004","11","24","23:00","0.7","","0.0","","95","","1","","26","","2.8","","97.28","","","","","","Drizzle"
"2004-11-25 00:00","2004","11","25","00:00","0.2","","-0.7","","94","","36","","35","","4.0","","97.22","","","","","","Rain,Fog"
"2004-11-25 01:00","2004","11","25","01:00","0.0","","-0.8","","94","","36","","33","","24.1","","97.17","","","","-7","","Cloudy"
"2004-11-25 02:00","2004","11","25","02:00","0.1","","-1.2","","91","","36","","33","","24.1","","97.19","","","","","","Cloudy"
"2004-11-25 03:00","2004","11","25","03:00","-0.2","","-1.8","","89","","35","","33","","9.7","","97.29","","","","-7","","Freezing Rain,Fog"
"2004-11-25 04:00","2004","11","25","04:00","-0.2","","-1.8","","89","","35","","32","","11.3","","97.25","","","","-7","","Freezing Rain"
"2004-11-25 05:00","2004","11","25","05:00","-0.8","","-2.7","","87","","34","","28","","19.3","","97.39","","","","-7","","Snow"
"2004-11-25 06:00","2004","11","25","06:00","-1.1","","-3.7","","82","","35","","35","","24.1","","97.48","","","","-8","","Cloudy"
"2004-11-25 07:00","2004","11","25","07:00","-1.5","","-4.9","","78","","35","","35","","19.3","","97.62","","","","-9","","Cloudy"
"2004-11-25 08:00","2004","11","25","08:00","-1.3","","-4.6","","78","","34","","32","","24.1","","97.73","","","","-8","","Cloudy"
"2004-11-25 09:00","2004","11","25","09:00","-1.1","","-4.5","","78","","33","","33","","24.1","","97.90","","","","-8","","Cloudy"
"2004-11-25 10:00","2004","11","25","10:00","-0.9","","-4.9","","74","","33","","37","","24.1","","97.98","","","","-8","","Cloudy"
"2004-11-25 11:00","2004","11","25","11:00","-0.6","","-4.3","","76","","33","","33","","24.1","","98.06","","","","-8","","Mostly Cloudy"
"2004-11-25 12:00","2004","11","25","12:00","-0.5","","-4.7","","73","","33","","33","","24.1","","98.11","","","","-7","","Mostly Cloudy"
"2004-11-25 13:00","2004","11","25","13:00","0.0","","-5.7","","65","","32","","33","","24.1","","98.22","","","","-7","","Mostly Cloudy"
"2004-11-25 14:00","2004","11","25","14:00","0.1","","-6.0","","63","","31","","37","","24.1","","98.33","","","","","","Mostly Cloudy"
"2004-11-25 15:00","2004","11","25","15:00","-0.6","","-7.9","","58","","32","","43","","24.1","","98.45","","","","-8","","Mostly Cloudy"
"2004-11-25 16:00","2004","11","25","16:00","-0.7","","-6.0","","67","","31","","26","","24.1","","98.57","","","","-7","","Mainly Clear"
"2004-11-25 17:00","2004","11","25","17:00","-1.7","","-9.3","","56","","31","","30","","24.1","","98.67","","","","-9","","Clear"
"2004-11-25 18:00","2004","11","25","18:00","-2.1","","-8.3","","62","","29","","19","","24.1","","98.77","","","","-8","","Clear"
"2004-11-25 19:00","2004","11","25","19:00","-2.6","","-8.3","","65","","29","","17","","24.1","","98.88","","","","-8","","Clear"
"2004-11-25 20:00","2004","11","25","20:00","-3.0","","-8.2","","67","","28","","17","","24.1","","98.92","","","","-9","","Mainly Clear"
"2004-11-25 21:00","2004","11","25","21:00","-2.8","","-7.5","","70","","27","","15","","24.1","","99.00","","","","-8","","Mostly Cloudy"
"2004-11-25 22:00","2004","11","25","22:00","-2.0","","-6.1","","73","","25","","15","","24.1","","99.03","","","","-7","","Mostly Cloudy"
"2004-11-25 23:00","2004","11","25","23:00","-1.3","","-4.9","","76","","23","","15","","12.9","","98.99","","","","-6","","Cloudy"
"2004-11-26 00:00","2004","11","26","00:00","-1.3","","-4.9","","76","","23","","20","","24.1","","98.95","","","","-7","","Mostly Cloudy"
"2004-11-26 01:00","2004","11","26","01:00","-1.1","","-4.8","","76","","24","","28","","24.1","","98.97","","","","-8","","Mainly Clear"
"2004-11-26 02:00","2004","11","26","02:00","-0.8","","-5.0","","73","","25","","32","","24.1","","99.01","","","","-8","","Mostly Cloudy"
"2004-11-26 03:00","2004","11","26","03:00","-1.0","","-4.4","","78","","25","","22","","24.1","","99.07","","","","-7","","Mostly Cloudy"
"2004-11-26 04:00","2004","11","26","04:00","-0.7","","-4.0","","78","","25","","24","","24.1","","99.09","","","","-7","","Mostly Cloudy"
"2004-11-26 05:00","2004","11","26","05:00","-0.7","","-3.5","","81","","28","","19","","4.8","","99.17","","","","-6","","Snow Showers"
"2004-11-26 06:00","2004","11","26","06:00","-0.7","","-2.7","","86","","28","","13","","11.3","","99.27","","","","-5","","Snow Showers"
"2004-11-26 07:00","2004","11","26","07:00","-0.8","","-2.9","","86","","27","","9","","19.3","","99.36","","","","-4","","Cloudy"
"2004-11-26 08:00","2004","11","26","08:00","-0.8","","-3.6","","81","","27","","11","","24.1","","99.45","","","","-5","","Mostly Cloudy"
"2004-11-26 09:00","2004","11","26","09:00","-0.2","","-3.3","","80","","24","","6","","24.1","","99.50","","","","-2","","Cloudy"
"2004-11-26 10:00","2004","11","26","10:00","0.1","","-3.4","","77","","24","","13","","19.3","","99.59","","","","","","Snow"
"2004-11-26 11:00","2004","11","26","11:00","0.2","","-3.5","","76","","21","","9","","24.1","","99.64","","","","","","Snow"
"2004-11-26 12:00","2004","11","26","12:00","1.3","","-3.5","","70","","19","","7","","24.1","","99.64","","","","","","Cloudy"
"2004-11-26 13:00","2004","11","26","13:00","1.7","","-2.2","","75","","25","","9","","24.1","","99.62","","","","","","Mostly Cloudy"
"2004-11-26 14:00","2004","11","26","14:00","2.4","","-2.4","","71","","27","","15","","24.1","","99.63","","","","","","Mostly Cloudy"
"2004-11-26 15:00","2004","11","26","15:00","3.0","","-2.8","","66","","24","","13","","24.1","","99.67","","","","","","Mostly Cloudy"
"2004-11-26 16:00","2004","11","26","16:00","2.0","","-3.6","","66","","25","","13","","24.1","","99.70","","","","","","Mostly Cloudy"
"2004-11-26 17:00","2004","11","26","17:00","2.4","","-3.8","","64","","22","","7","","24.1","","99.72","","","","","","Mostly Cloudy"
"2004-11-26 18:00","2004","11","26","18:00","2.2","","-3.8","","64","","16","","6","","24.1","","99.75","","","","","","Mostly Cloudy"
"2004-11-26 19:00","2004","11","26","19:00","2.7","","-3.7","","63","","13","","6","","24.1","","99.76","","","","","","Mostly Cloudy"
"2004-11-26 20:00","2004","11","26","20:00","2.8","","-3.4","","64","","12","","6","","24.1","","99.79","","","","","","Mostly Cloudy"
"2004-11-26 21:00","2004","11","26","21:00","2.8","","-2.9","","66","","10","","7","","24.1","","99.79","","","","","","Mostly Cloudy"
"2004-11-26 22:00","2004","11","26","22:00","2.9","","-1.6","","72","","11","","11","","24.1","","99.79","","","","","","Mostly Cloudy"
"2004-11-26 23:00","2004","11","26","23:00","3.3","","-0.3","","77","","10","","7","","24.1","","99.77","","","","","","Mostly Cloudy"
"2004-11-27 00:00","2004","11","27","00:00","3.7","","0.5","","80","","10","","6","","24.1","","99.78","","","","","","Mostly Cloudy"
"2004-11-27 01:00","2004","11","27","01:00","4.4","","1.1","","79","","14","","7","","24.1","","99.76","","","","","","Cloudy"
"2004-11-27 02:00","2004","11","27","02:00","4.4","","1.4","","81","","13","","9","","24.1","","99.75","","","","","","Cloudy"
"2004-11-27 03:00","2004","11","27","03:00","4.2","","1.9","","85","","13","","13","","12.9","","99.77","","","","","","Rain"
"2004-11-27 04:00","2004","11","27","04:00","4.1","","2.4","","89","","15","","11","","11.3","","99.74","","","","","","Rain"
"2004-11-27 05:00","2004","11","27","05:00","4.0","","2.7","","91","","14","","15","","6.4","","99.72","","","","","","Rain,Fog"
"2004-11-27 06:00","2004","11","27","06:00","4.5","","3.8","","95","","14","","15","","4.0","","99.67","","","","","","Rain,Fog"
"2004-11-27 07:00","2004","11","27","07:00","4.5","","3.9","","96","","14","","17","","8.0","","99.63","","","","","","Rain"
"2004-11-27 08:00","2004","11","27","08:00","4.4","","3.9","","97","","14","","11","","16.1","","99.65","","","","","","Rain"
"2004-11-27 09:00","2004","11","27","09:00","4.9","","4.1","","95","","13","","11","","24.1","","99.58","","","","","","Cloudy"
"2004-11-27 10:00","2004","11","27","10:00","5.8","","4.0","","88","","14","","17","","24.1","","99.55","","","","","","Cloudy"
"2004-11-27 11:00","2004","11","27","11:00","6.3","","2.9","","79","","13","","15","","24.1","","99.48","","","","","","Cloudy"
"2004-11-27 12:00","2004","11","27","12:00","7.4","","2.9","","73","","13","","17","","24.1","","99.30","","","","","","Mostly Cloudy"
"2004-11-27 13:00","2004","11","27","13:00","8.1","","2.9","","70","","14","","19","","24.1","","99.26","","","","","","Mostly Cloudy"
"2004-11-27 14:00","2004","11","27","14:00","9.2","","2.4","","62","","13","","17","","24.1","","99.15","","","","","","Mostly Cloudy"
"2004-11-27 15:00","2004","11","27","15:00","10.0","","1.9","","57","","14","","17","","24.1","","99.04","","","","","","Mostly Cloudy"
"2004-11-27 16:00","2004","11","27","16:00","8.7","","2.4","","65","","12","","11","","24.1","","98.99","","","","","","Cloudy"
"2004-11-27 17:00","2004","11","27","17:00","8.2","","1.7","","64","","13","","9","","24.1","","98.97","","","","","","Cloudy"
"2004-11-27 18:00","2004","11","27","18:00","8.3","","1.1","","60","","14","","15","","24.1","","98.93","","","","","","Cloudy"
"2004-11-27 19:00","2004","11","27","19:00","8.5","","-0.8","","52","","14","","20","","24.1","","98.87","","","","","","Cloudy"
"2004-11-27 20:00","2004","11","27","20:00","7.8","","-1.8","","51","","14","","19","","24.1","","98.84","","","","","","Cloudy"
"2004-11-27 21:00","2004","11","27","21:00","7.8","","-0.8","","54","","16","","19","","24.1","","98.79","","","","","","Mostly Cloudy"
"2004-11-27 22:00","2004","11","27","22:00","7.5","","0.9","","63","","14","","9","","24.1","","98.76","","","","","","Mostly Cloudy"
"2004-11-27 23:00","2004","11","27","23:00","7.7","","2.6","","70","","14","","15","","24.1","","98.67","","","","","","Mostly Cloudy"
"2004-11-28 00:00","2004","11","28","00:00","8.0","","3.9","","75","","15","","15","","24.1","","98.62","","","","","","Cloudy"
"2004-11-28 01:00","2004","11","28","01:00","8.2","","5.0","","80","","16","","19","","24.1","","98.56","","","","","","Rain Showers"
"2004-11-28 02:00","2004","11","28","02:00","8.8","","6.1","","83","","15","","22","","19.3","","98.48","","","","","","Rain Showers"
"2004-11-28 03:00","2004","11","28","03:00","7.8","","6.8","","93","","15","","19","","9.7","","98.35","","","","","","Rain"
"2004-11-28 04:00","2004","11","28","04:00","7.7","","7.3","","97","","14","","15","","6.4","","98.23","","","","","","Rain"
"2004-11-28 05:00","2004","11","28","05:00","7.5","","7.4","","99","","24","","19","","4.8","","98.19","","","","","","Rain"
"2004-11-28 06:00","2004","11","28","06:00","7.3","","7.2","","99","","22","","13","","9.7","","98.12","","","","","","Rain"
"2004-11-28 07:00","2004","11","28","07:00","7.0","","6.6","","97","","20","","19","","8.0","","98.16","","","","","","Rain"
"2004-11-28 08:00","2004","11","28","08:00","6.5","","5.6","","94","","21","","20","","24.1","","98.19","","","","","","Rain"
"2004-11-28 09:00","2004","11","28","09:00","5.1","","3.2","","88","","24","","33","","24.1","","98.34","","","","","","Cloudy"
"2004-11-28 10:00","2004","11","28","10:00","4.9","","2.7","","86","","22","","33","","24.1","","98.43","","","","","","Cloudy"
"2004-11-28 11:00","2004","11","28","11:00","5.8","","2.3","","78","","22","","28","","24.1","","98.45","","","","","","Mostly Cloudy"
"2004-11-28 12:00","2004","11","28","12:00","5.9","","2.0","","76","","22","","41","","24.1","","98.47","","","","","","Mostly Cloudy"
"2004-11-28 13:00","2004","11","28","13:00","5.3","","1.4","","76","","25","","39","","24.1","","98.58","","","","","","Mostly Cloudy"
"2004-11-28 14:00","2004","11","28","14:00","5.2","","1.8","","79","","24","","41","","24.1","","98.70","","","","","","Mostly Cloudy"
"2004-11-28 15:00","2004","11","28","15:00","5.1","","0.4","","72","","25","","41","","24.1","","98.89","","","","","","Cloudy"
"2004-11-28 16:00","2004","11","28","16:00","4.8","","0.2","","72","","27","","44","","24.1","","99.08","","","","","","Mostly Cloudy"
"2004-11-28 17:00","2004","11","28","17:00","4.4","","0.2","","74","","27","","33","","24.1","","99.24","","","","","","Rain"
"2004-11-28 18:00","2004","11","28","18:00","4.2","","-0.3","","72","","28","","46","","24.1","","99.44","","","","","","Cloudy"
"2004-11-28 19:00","2004","11","28","19:00","3.8","","-1.3","","69","","28","","32","","24.1","","99.62","","","","","","Mostly Cloudy"
"2004-11-28 20:00","2004","11","28","20:00","3.4","","-0.9","","73","","27","","32","","24.1","","99.79","","","","","","Mostly Cloudy"
"2004-11-28 21:00","2004","11","28","21:00","3.1","","-1.4","","72","","30","","22","","24.1","","99.91","","","","","","Snow"
"2004-11-28 22:00","2004","11","28","22:00","2.8","","-2.6","","68","","30","","22","","24.1","","100.02","","","","","","Cloudy"
"2004-11-28 23:00","2004","11","28","23:00","2.8","","-2.0","","71","","29","","15","","24.1","","100.12","","","","","","Cloudy"
"2004-11-29 00:00","2004","11","29","00:00","2.4","","-4.4","","61","","32","","26","","24.1","","100.15","","","","","","Mostly Cloudy"
"2004-11-29 01:00","2004","11","29","01:00","2.1","","-4.6","","61","","32","","32","","24.1","","100.18","","","","","","Mostly Cloudy"
"2004-11-29 02:00","2004","11","29","02:00","2.1","","-4.8","","60","","29","","32","","24.1","","100.26","","","","","","Mostly Cloudy"
"2004-11-29 03:00","2004","11","29","03:00","2.0","","-4.6","","62","","29","","20","","24.1","","100.30","","","","","","Mostly Cloudy"
"2004-11-29 04:00","2004","11","29","04:00","1.8","","-4.1","","65","","29","","11","","24.1","","100.30","","","","","","Mostly Cloudy"
"2004-11-29 05:00","2004","11","29","05:00","1.4","","-3.7","","69","","25","","9","","24.1","","100.40","","","","","","Mostly Cloudy"
"2004-11-29 06:00","2004","11","29","06:00","1.4","","-3.6","","69","","24","","9","","24.1","","100.42","","","","","","Mostly Cloudy"
"2004-11-29 07:00","2004","11","29","07:00","1.6","","-3.7","","68","","25","","13","","24.1","","100.52","","","","","","Cloudy"
"2004-11-29 08:00","2004","11","29","08:00","1.8","","-3.8","","66","","26","","17","","24.1","","100.58","","","","","","Cloudy"
"2004-11-29 09:00","2004","11","29","09:00","2.0","","-3.3","","68","","25","","19","","24.1","","100.62","","","","","","Cloudy"
"2004-11-29 10:00","2004","11","29","10:00","2.7","","-3.1","","66","","24","","15","","24.1","","100.65","","","","","","Cloudy"
"2004-11-29 11:00","2004","11","29","11:00","3.5","","-3.4","","61","","25","","15","","24.1","","100.60","","","","","","Mostly Cloudy"
"2004-11-29 12:00","2004","11","29","12:00","4.7","","-3.0","","57","","25","","13","","24.1","","100.52","","","","","","Mainly Clear"
"2004-11-29 13:00","2004","11","29","13:00","4.7","","-3.8","","54","","23","","6","","24.1","","100.47","","","","","","Mainly Clear"
"2004-11-29 14:00","2004","11","29","14:00","5.0","","-4.1","","52","","19","","15","","24.1","","100.46","","","","","","Mostly Cloudy"
"2004-11-29 15:00","2004","11","29","15:00","4.4","","-3.0","","59","","15","","17","","24.1","","100.41","","","","","","Cloudy"
"2004-11-29 16:00","2004","11","29","16:00","4.0","","-3.8","","57","","14","","7","","24.1","","100.42","","","","","","Cloudy"
"2004-11-29 17:00","2004","11","29","17:00","3.5","","-3.0","","62","","16","","7","","24.1","","100.42","","","","","","Cloudy"
"2004-11-29 18:00","2004","11","29","18:00","3.4","","-2.7","","64","","16","","6","","24.1","","100.41","","","","","","Cloudy"
"2004-11-29 19:00","2004","11","29","19:00","3.5","","-2.3","","66","","15","","7","","24.1","","100.37","","","","","","Cloudy"
"2004-11-29 20:00","2004","11","29","20:00","3.1","","-2.0","","69","","15","","7","","24.1","","100.30","","","","","","Mainly Clear"
"2004-11-29 21:00","2004","11","29","21:00","3.1","","-1.9","","70","","22","","6","","24.1","","100.31","","","","","","Mainly Clear"
"2004-11-29 22:00","2004","11","29","22:00","2.9","","-1.8","","71","","22","","7","","24.1","","100.31","","","","","","Mostly Cloudy"
"2004-11-29 23:00","2004","11","29","23:00","2.0","","-2.0","","75","","24","","9","","24.1","","100.30","","","","","","Mostly Cloudy"
"2004-11-30 00:00","2004","11","30","00:00","2.8","","-1.6","","73","","","","0","","24.1","","100.25","","","","","","Mostly Cloudy"
"2004-11-30 01:00","2004","11","30","01:00","2.2","","-1.5","","76","","27","","4","","24.1","","100.22","","","","","","Mostly Cloudy"
"2004-11-30 02:00","2004","11","30","02:00","2.4","","-1.2","","77","","30","","6","","24.1","","100.20","","","","","","Cloudy"
"2004-11-30 03:00","2004","11","30","03:00","2.0","","-1.0","","80","","27","","4","","24.1","","100.19","","","","","","Mostly Cloudy"
"2004-11-30 04:00","2004","11","30","04:00","1.8","","-1.2","","80","","","","0","","24.1","","100.17","","","","","","Mostly Cloudy"
"2004-11-30 05:00","2004","11","30","05:00","1.3","","-1.8","","80","","","","0","","24.1","","100.18","","","","","","Mostly Cloudy"
"2004-11-30 06:00","2004","11","30","06:00","0.9","","-1.7","","83","","","","0","","24.1","","100.17","","","","","","Clear"
"2004-11-30 07:00","2004","11","30","07:00","-0.1","","-2.2","","86","","27","","6","","19.3","","100.22","","","","-2","","Clear"
"2004-11-30 08:00","2004","11","30","08:00","0.4","","-1.9","","85","","31","","7","","24.1","","100.26","","","","","","Clear"
"2004-11-30 09:00","2004","11","30","09:00","1.9","","0.0","","87","","22","","4","","24.1","","100.27","","","","","","Clear"
"2004-11-30 10:00","2004","11","30","10:00","3.7","","0.3","","78","","","","0","","24.1","","100.15","","","","","","Mainly Clear"
"2004-11-30 11:00","2004","11","30","11:00","4.8","","-0.9","","67","","32","","6","","24.1","","100.10","","","","","","Clear"
"2004-11-30 12:00","2004","11","30","12:00","6.2","","-0.4","","63","","21","","7","","24.1","","100.08","","","","","","Mainly Clear"
"2004-11-30 13:00","2004","11","30","13:00","6.2","","-0.9","","60","","23","","9","","24.1","","99.98","","","","","","Mostly Cloudy"
"2004-11-30 14:00","2004","11","30","14:00","5.6","","0.2","","68","","16","","11","","24.1","","99.95","","","","","","Cloudy"
"2004-11-30 15:00","2004","11","30","15:00","4.8","","0.0","","71","","16","","9","","24.1","","99.92","","","","","","Cloudy"
"2004-11-30 16:00","2004","11","30","16:00","4.4","","-0.3","","71","","14","","7","","24.1","","99.84","","","","","","Cloudy"
"2004-11-30 17:00","2004","11","30","17:00","4.4","","-0.4","","71","","17","","6","","19.3","","99.77","","","","","","Cloudy"
"2004-11-30 18:00","2004","11","30","18:00","4.6","","-0.3","","70","","13","","6","","19.3","","99.68","","","","","","Cloudy"
"2004-11-30 19:00","2004","11","30","19:00","4.5","","-0.4","","70","","13","","6","","19.3","","99.61","","","","","","Cloudy"
"2004-11-30 20:00","2004","11","30","20:00","4.5","","-0.6","","69","","11","","7","","19.3","","99.52","","","","","","Cloudy"
"2004-11-30 21:00","2004","11","30","21:00","4.3","","1.0","","79","","8","","9","","24.1","","99.35","","","","","","Rain"
"2004-11-30 22:00","2004","11","30","22:00","4.0","","2.0","","87","","9","","9","","16.1","","99.21","","","","","","Rain"
"2004-11-30 23:00","2004","11","30","23:00","4.0","","2.3","","89","","9","","9","","11.3","","99.02","","","","","","Rain"
