"Station Name","TORONTO LESTER B. PEARSON INT'L A"
"Province","ONTARIO"
"Latitude","43.68"
"Longitude","-79.63"
"Elevation","173.40"
"Climate Identifier","6158733"
"WMO Identifier","71624"
"TC Identifier","YYZ"
"All times are specified in Local Standard Time (LST). Add 1 hour to adjust for Daylight Saving Time where and when it is observed."

"Legend"
"E","Estimated"
"M","Missing"
"NA","Not Available"

"Date/Time","Year","Month","Day","Time","Temp (°C)","Temp Flag","Dew Point Temp (°C)","Dew Point Temp Flag","Rel Hum (%)","Rel Hum Flag","Wind Dir (10s deg)","Wind Dir Flag","Wind Spd (km/h)","Wind Spd Flag","Visibility (km)","Visibility Flag","Stn Press (kPa)","Stn Press Flag","Hmdx","Hmdx Flag","Wind Chill","Wind Chill Flag","Weather"
"1953-04-01 00:00","1953","04","01","00:00","5.6","","1.7","","78","","34","","14","","19.3","","98.93","","","","","","Cloudy"
"1953-04-01 01:00","1953","04","01","01:00","5.6","","2.2","","81","","34","","13","","19.3","","98.84","","","","","","Cloudy"
"1953-04-01 02:00","1953","04","01","02:00","4.4","","1.7","","83","","34","","11","","25.0","","98.82","","","","","","Cloudy"
"1953-04-01 03:00","1953","04","01","03:00","4.4","","1.7","","83","","36","","11","","25.0","","98.78","","","","","","Cloudy"
"1953-04-01 04:00","1953","04","01","04:00","3.9","","2.2","","90","","36","","10","","25.0","","98.75","","","","","","Cloudy"
"1953-04-01 05:00","1953","04","01","05:00","3.9","","2.2","","90","","36","","10","","25.0","","98.75","","","","","","Cloudy"
"1953-04-01 06:00","1953","04","01","06:00","3.9","","2.2","","90","","36","","14","","25.0","","98.71","","","","","","Cloudy"
"1953-04-01 07:00","1953","04","01","07:00","4.4","","1.7","","83","","36","","14","","25.0","","98.72","","","","","","Cloudy"
"1953-04-01 08:00","1953","04","01","08:00","5.6","","3.3","","86","","36","","10","","25.0","","98.72","","","","","","Cloudy"
"1953-04-01 09:00","1953","04","01","09:00","6.7","","5.0","","89","","2","","8","","25.0","","98.68","","","","","","Cloudy"
"1953-04-01 10:00","1953","04","01","10:00","8.9","","6.1","","83","","9","","8","","16.1","","98.70","","","","","","Cloudy"
"1953-04-01 11:00","1953","04","01","11:00","9.4","","6.1","","80","","11","","3","","4.8","","98.62","","","","","","Smoke,Haze"
"1953-04-01 12:00","1953","04","01","12:00","8.9","","7.8","","90","","7","","3","","8.0","","98.52","","","","","","Smoke,Haze"
"1953-04-01 13:00","1953","04","01","13:00","10.0","","9.4","","96","","5","","16","","16.1","","98.54","","","","","","Cloudy"
"1953-04-01 14:00","1953","04","01","14:00","10.6","","7.2","","83","","5","","13","","24.1","","98.51","","","","","","Cloudy"
"1953-04-01 15:00","1953","04","01","15:00","9.4","","7.8","","90","","5","","16","","24.1","","98.36","","","","","","Cloudy"
"1953-04-01 16:00","1953","04","01","16:00","9.4","","7.2","","86","","5","","14","","24.1","","98.42","","","","","","Cloudy"
"1953-04-01 17:00","1953","04","01","17:00","9.4","","6.7","","84","","5","","11","","24.1","","98.42","","","","","","Cloudy"
"1953-04-01 18:00","1953","04","01","18:00","9.4","","6.7","","86","","5","","5","","16.1","","98.43","","","","","","Cloudy"
"1953-04-01 19:00","1953","04","01","19:00","8.9","","7.2","","90","","36","","3","","16.1","","98.46","","","","","","Cloudy"
"1953-04-01 20:00","1953","04","01","20:00","8.3","","5.0","","79","","2","","11","","25.0","","98.53","","","","","","Cloudy"
"1953-04-01 21:00","1953","04","01","21:00","7.8","","5.0","","82","","2","","19","","25.0","","98.52","","","","","","Cloudy"
"1953-04-01 22:00","1953","04","01","22:00","6.7","","2.8","","78","","2","","16","","25.0","","98.54","","","","","","Mostly Cloudy"
"1953-04-01 23:00","1953","04","01","23:00","5.6","","2.2","","81","","36","","26","","25.0","","98.57","","","","","","Mainly Clear"
"1953-04-02 00:00","1953","04","02","00:00","4.4","","1.1","","79","","36","","27","","25.0","","98.60","","","","","","Mainly Clear"
"1953-04-02 01:00","1953","04","02","01:00","3.3","","0.6","","83","","36","","27","","25.0","","98.63","","","","","","Clear"
"1953-04-02 02:00","1953","04","02","02:00","1.7","","-0.6","","86","","36","","27","","25.0","","98.66","","","","","","Mainly Clear"
"1953-04-02 03:00","1953","04","02","03:00","1.1","","-1.1","","86","","36","","26","","25.0","","98.68","","","","","","Mostly Cloudy"
"1953-04-02 04:00","1953","04","02","04:00","1.1","","-1.1","","86","","36","","24","","25.0","","98.73","","","","","","Mainly Clear"
"1953-04-02 05:00","1953","04","02","05:00","0.6","","-1.7","","85","","36","","23","","25.0","","98.79","","","","","","Mainly Clear"
"1953-04-02 06:00","1953","04","02","06:00","0.6","","-0.6","","90","","36","","24","","25.0","","98.91","","","","","","Clear"
"1953-04-02 07:00","1953","04","02","07:00","1.1","","-1.7","","81","","36","","24","","25.0","","99.01","","","","","","Clear"
"1953-04-02 08:00","1953","04","02","08:00","2.2","","-0.6","","80","","36","","29","","25.0","","99.07","","","","","","Clear"
"1953-04-02 09:00","1953","04","02","09:00","3.9","","0.0","","75","","36","","27","","25.0","","99.11","","","","","","Clear"
"1953-04-02 10:00","1953","04","02","10:00","5.0","","1.1","","76","","2","","19","","25.0","","99.19","","","","","","Clear"
"1953-04-02 11:00","1953","04","02","11:00","6.1","","1.1","","70","","36","","19","","25.0","","99.02","","","","","","Mainly Clear"
"1953-04-02 12:00","1953","04","02","12:00","7.8","","4.4","","79","","36","","13","","25.0","","99.15","","","","","","Mainly Clear"
"1953-04-02 13:00","1953","04","02","13:00","8.9","","5.6","","76","","36","","19","","25.0","","99.13","","","","","","Mainly Clear"
"1953-04-02 14:00","1953","04","02","14:00","9.4","","3.3","","67","","36","","23","","25.0","","99.09","","","","","","Mainly Clear"
"1953-04-02 15:00","1953","04","02","15:00","10.0","","4.4","","71","","36","","13","","25.0","","99.05","","","","","","Mainly Clear"
"1953-04-02 16:00","1953","04","02","16:00","9.4","","3.3","","67","","36","","19","","25.0","","99.15","","","","","","Mainly Clear"
"1953-04-02 17:00","1953","04","02","17:00","8.3","","2.2","","66","","34","","19","","25.0","","99.21","","","","","","Mainly Clear"
"1953-04-02 18:00","1953","04","02","18:00","7.2","","1.7","","67","","2","","16","","25.0","","99.30","","","","","","Mainly Clear"
"1953-04-02 19:00","1953","04","02","19:00","5.6","","1.1","","73","","2","","16","","25.0","","99.33","","","","","","Mainly Clear"
"1953-04-02 20:00","1953","04","02","20:00","4.4","","0.6","","75","","36","","19","","25.0","","99.42","","","","","","Clear"
"1953-04-02 21:00","1953","04","02","21:00","2.2","","-0.6","","82","","36","","16","","25.0","","99.48","","","","","","Clear"
"1953-04-02 22:00","1953","04","02","22:00","1.7","","-0.6","","86","","36","","16","","25.0","","99.48","","","","","","Clear"
"1953-04-02 23:00","1953","04","02","23:00","1.1","","-0.6","","88","","36","","24","","25.0","","99.46","","","","","","Mainly Clear"
"1953-04-03 00:00","1953","04","03","00:00","0.6","","-0.6","","90","","36","","14","","25.0","","99.44","","","","","","Mainly Clear"
"1953-04-03 01:00","1953","04","03","01:00","0.0","","-0.6","","95","","29","","8","","25.0","","99.44","","","","-3","","Mainly Clear"
"1953-04-03 02:00","1953","04","03","02:00","0.0","","-0.6","","95","","32","","11","","25.0","","99.41","","","","-4","","Clear"
"1953-04-03 03:00","1953","04","03","03:00","0.0","","-0.6","","95","","34","","5","","25.0","","99.43","","","","-2","","Clear"
"1953-04-03 04:00","1953","04","03","04:00","-0.6","","-1.1","","94","","34","","8","","25.0","","99.46","","","","-3","","Clear"
"1953-04-03 05:00","1953","04","03","05:00","0.0","","-0.6","","95","","34","","8","","25.0","","99.46","","","","-3","","Clear"
"1953-04-03 06:00","1953","04","03","06:00","-1.1","","-1.7","","94","","32","","8","","25.0","","99.54","","","","-4","","Clear"
"1953-04-03 07:00","1953","04","03","07:00","1.1","","-1.7","","83","","36","","8","","25.0","","99.59","","","","","","Clear"
"1953-04-03 08:00","1953","04","03","08:00","3.9","","0.6","","79","","36","","6","","25.0","","99.57","","","","","","Clear"
"1953-04-03 09:00","1953","04","03","09:00","7.2","","1.1","","64","","7","","3","","25.0","","99.52","","","","","","Mainly Clear"
"1953-04-03 10:00","1953","04","03","10:00","8.9","","2.2","","69","","16","","3","","25.0","","99.49","","","","","","Mostly Cloudy"
"1953-04-03 11:00","1953","04","03","11:00","10.0","","2.8","","61","","18","","11","","19.3","","99.41","","","","","","Mostly Cloudy"
"1953-04-03 12:00","1953","04","03","12:00","10.0","","2.8","","61","","16","","18","","16.1","","99.34","","","","","","Mostly Cloudy"
"1953-04-03 13:00","1953","04","03","13:00","10.6","","2.8","","59","","16","","19","","16.1","","99.32","","","","","","Mostly Cloudy"
"1953-04-03 14:00","1953","04","03","14:00","11.1","","4.4","","61","","16","","19","","19.3","","99.23","","","","","","Mostly Cloudy"
"1953-04-03 15:00","1953","04","03","15:00","11.7","","3.3","","57","","20","","23","","19.3","","99.18","","","","","","Mostly Cloudy"
"1953-04-03 16:00","1953","04","03","16:00","11.7","","4.4","","61","","18","","13","","19.3","","99.13","","","","","","Mainly Clear"
"1953-04-03 17:00","1953","04","03","17:00","10.0","","2.2","","57","","14","","16","","16.1","","99.09","","","","","","Mainly Clear"
"1953-04-03 18:00","1953","04","03","18:00","8.3","","0.6","","59","","14","","18","","8.0","","99.06","","","","","","Haze"
"1953-04-03 19:00","1953","04","03","19:00","6.7","","1.7","","72","","14","","6","","6.4","","99.07","","","","","","Haze"
"1953-04-03 20:00","1953","04","03","20:00","6.1","","1.7","","73","","9","","3","","6.4","","99.06","","","","","","Haze"
"1953-04-03 21:00","1953","04","03","21:00","4.4","","1.7","","83","","","","0","","11.3","","98.99","","","","","","Mostly Cloudy"
"1953-04-03 22:00","1953","04","03","22:00","3.9","","1.1","","83","","","","0","","12.9","","98.94","","","","","","Mostly Cloudy"
"1953-04-03 23:00","1953","04","03","23:00","4.4","","1.7","","83","","","","0","","19.3","","98.86","","","","","","Cloudy"
"1953-04-04 00:00","1953","04","04","00:00","4.4","","1.7","","83","","7","","5","","19.3","","98.79","","","","","","Cloudy"
"1953-04-04 01:00","1953","04","04","01:00","5.0","","1.7","","80","","7","","5","","19.3","","98.73","","","","","","Cloudy"
"1953-04-04 02:00","1953","04","04","02:00","5.0","","1.7","","80","","11","","5","","16.1","","98.66","","","","","","Cloudy"
"1953-04-04 03:00","1953","04","04","03:00","5.6","","3.3","","85","","23","","5","","16.1","","98.64","","","","","","Rain Showers"
"1953-04-04 04:00","1953","04","04","04:00","5.6","","3.3","","86","","23","","5","","16.1","","98.66","","","","","","Rain Showers"
"1953-04-04 05:00","1953","04","04","05:00","4.4","","3.3","","92","","27","","26","","12.9","","98.71","","","","","","Rain"
"1953-04-04 06:00","1953","04","04","06:00","4.4","","3.3","","92","","27","","6","","25.0","","98.75","","","","","","Cloudy"
"1953-04-04 07:00","1953","04","04","07:00","4.4","","3.3","","92","","18","","10","","25.0","","98.83","","","","","","Mainly Clear"
"1953-04-04 08:00","1953","04","04","08:00","6.1","","2.2","","84","","23","","26","","25.0","","98.80","","","","","","Mainly Clear"
"1953-04-04 09:00","1953","04","04","09:00","7.8","","1.7","","60","","23","","27","","25.0","","98.76","","","","","","Mainly Clear"
"1953-04-04 10:00","1953","04","04","10:00","9.4","","-1.1","","48","","23","","39","","25.0","","98.74","","","","","","Mainly Clear"
"1953-04-04 11:00","1953","04","04","11:00","10.6","","-1.7","","42","","23","","48","","25.0","","98.68","","","","","","Mostly Cloudy"
"1953-04-04 12:00","1953","04","04","12:00","11.7","","0.0","","43","","23","","48","","25.0","","98.68","","","","","","Mostly Cloudy"
"1953-04-04 13:00","1953","04","04","13:00","11.1","","0.6","","49","","23","","53","","25.0","","98.68","","","","","","Mostly Cloudy"
"1953-04-04 14:00","1953","04","04","14:00","10.0","","1.1","","55","","23","","45","","25.0","","98.68","","","","","","Mostly Cloudy"
"1953-04-04 15:00","1953","04","04","15:00","10.0","","1.1","","56","","23","","48","","25.0","","98.69","","","","","","Mostly Cloudy"
"1953-04-04 16:00","1953","04","04","16:00","8.9","","1.7","","58","","23","","40","","25.0","","98.74","","","","","","Mostly Cloudy"
"1953-04-04 17:00","1953","04","04","17:00","6.7","","1.7","","73","","23","","53","","25.0","","98.77","","","","","","Mostly Cloudy"
"1953-04-04 18:00","1953","04","04","18:00","6.7","","2.8","","76","","23","","42","","25.0","","98.79","","","","","","Mostly Cloudy"
"1953-04-04 19:00","1953","04","04","19:00","5.0","","1.7","","79","","23","","13","","25.0","","98.84","","","","","","Mostly Cloudy"
"1953-04-04 20:00","1953","04","04","20:00","5.0","","1.1","","69","","23","","19","","25.0","","98.88","","","","","","Mainly Clear"
"1953-04-04 21:00","1953","04","04","21:00","4.4","","0.6","","75","","23","","27","","25.0","","98.88","","","","","","Mainly Clear"
"1953-04-04 22:00","1953","04","04","22:00","5.0","","1.7","","82","","23","","24","","25.0","","98.86","","","","","","Cloudy"
"1953-04-04 23:00","1953","04","04","23:00","4.4","","1.7","","83","","23","","26","","25.0","","98.86","","","","","","Mainly Clear"
"1953-04-05 00:00","1953","04","05","00:00","4.4","","2.8","","87","","23","","26","","25.0","","98.85","","","","","","Clear"
"1953-04-05 01:00","1953","04","05","01:00","4.4","","1.7","","82","","23","","26","","25.0","","98.85","","","","","","Mainly Clear"
"1953-04-05 02:00","1953","04","05","02:00","4.4","","1.7","","82","","23","","18","","25.0","","98.82","","","","","","Mainly Clear"
"1953-04-05 03:00","1953","04","05","03:00","2.8","","1.7","","91","","23","","16","","25.0","","98.82","","","","","","Mainly Clear"
"1953-04-05 04:00","1953","04","05","04:00","2.8","","1.7","","90","","23","","14","","25.0","","98.83","","","","","","Mostly Cloudy"
"1953-04-05 05:00","1953","04","05","05:00","2.2","","1.1","","90","","20","","13","","25.0","","98.83","","","","","","Cloudy"
"1953-04-05 06:00","1953","04","05","06:00","2.8","","1.7","","90","","23","","11","","25.0","","98.85","","","","","","Cloudy"
"1953-04-05 07:00","1953","04","05","07:00","3.3","","2.2","","90","","23","","13","","25.0","","98.90","","","","","","Cloudy"
"1953-04-05 08:00","1953","04","05","08:00","3.9","","1.1","","81","","25","","32","","25.0","","98.96","","","","","","Cloudy"
"1953-04-05 09:00","1953","04","05","09:00","5.0","","1.1","","76","","25","","26","","25.0","","98.94","","","","","","Cloudy"
"1953-04-05 10:00","1953","04","05","10:00","6.1","","1.1","","70","","25","","26","","25.0","","98.97","","","","","","Cloudy"
"1953-04-05 11:00","1953","04","05","11:00","5.6","","1.1","","73","","25","","31","","25.0","","98.98","","","","","","Rain Showers"
"1953-04-05 12:00","1953","04","05","12:00","5.6","","1.1","","73","","27","","39","","25.0","","99.04","","","","","","Cloudy"
"1953-04-05 13:00","1953","04","05","13:00","4.4","","0.6","","75","","27","","35","","25.0","","99.10","","","","","","Cloudy"
"1953-04-05 14:00","1953","04","05","14:00","5.0","","0.0","","70","","27","","32","","25.0","","99.12","","","","","","Cloudy"
"1953-04-05 15:00","1953","04","05","15:00","5.0","","0.0","","70","","27","","27","","25.0","","99.13","","","","","","Cloudy"
"1953-04-05 16:00","1953","04","05","16:00","4.4","","0.6","","75","","29","","24","","25.0","","99.19","","","","","","Cloudy"
"1953-04-05 17:00","1953","04","05","17:00","4.4","","0.6","","75","","27","","29","","25.0","","99.25","","","","","","Cloudy"
"1953-04-05 18:00","1953","04","05","18:00","3.9","","0.0","","75","","27","","26","","25.0","","99.29","","","","","","Cloudy"
"1953-04-05 19:00","1953","04","05","19:00","3.9","","0.0","","75","","27","","19","","25.0","","99.32","","","","","","Cloudy"
"1953-04-05 20:00","1953","04","05","20:00","2.8","","-0.6","","78","","27","","13","","25.0","","99.33","","","","","","Mostly Cloudy"
"1953-04-05 21:00","1953","04","05","21:00","1.7","","-1.1","","81","","27","","13","","25.0","","99.38","","","","","","Cloudy"
"1953-04-05 22:00","1953","04","05","22:00","2.2","","0.0","","86","","29","","10","","25.0","","99.36","","","","","","Cloudy"
"1953-04-05 23:00","1953","04","05","23:00","1.7","","-0.6","","87","","23","","8","","25.0","","99.34","","","","","","Cloudy"
"1953-04-06 00:00","1953","04","06","00:00","1.7","","0.0","","90","","23","","6","","25.0","","99.35","","","","","","Cloudy"
"1953-04-06 01:00","1953","04","06","01:00","1.7","","-1.1","","81","","23","","3","","25.0","","99.30","","","","","","Mostly Cloudy"
"1953-04-06 02:00","1953","04","06","02:00","1.7","","-1.1","","82","","23","","6","","25.0","","99.31","","","","","","Mostly Cloudy"
"1953-04-06 03:00","1953","04","06","03:00","0.6","","-0.6","","90","","23","","3","","25.0","","99.31","","","","","","Cloudy"
"1953-04-06 04:00","1953","04","06","04:00","0.0","","-1.1","","88","","","","0","","25.0","","99.31","","","","","","Cloudy"
"1953-04-06 05:00","1953","04","06","05:00","0.0","","-1.1","","88","","9","","5","","25.0","","99.26","","","","-2","","Cloudy"
"1953-04-06 06:00","1953","04","06","06:00","0.6","","-0.6","","90","","7","","3","","12.9","","99.31","","","","","","Cloudy"
"1953-04-06 07:00","1953","04","06","07:00","1.1","","-0.6","","88","","9","","3","","12.9","","99.31","","","","","","Cloudy"
"1953-04-06 08:00","1953","04","06","08:00","2.8","","1.7","","91","","5","","3","","6.4","","99.29","","","","","","Fog,Smoke"
"1953-04-06 09:00","1953","04","06","09:00","5.0","","1.1","","76","","16","","6","","9.7","","99.26","","","","","","Haze"
"1953-04-06 10:00","1953","04","06","10:00","5.6","","0.6","","70","","14","","6","","11.3","","99.21","","","","","","Cloudy"
"1953-04-06 11:00","1953","04","06","11:00","7.2","","1.1","","64","","9","","6","","12.9","","99.17","","","","","","Mostly Cloudy"
"1953-04-06 12:00","1953","04","06","12:00","7.8","","1.1","","63","","20","","6","","12.9","","99.10","","","","","","Cloudy"
"1953-04-06 13:00","1953","04","06","13:00","7.2","","1.7","","65","","16","","19","","12.9","","99.08","","","","","","Cloudy"
"1953-04-06 14:00","1953","04","06","14:00","7.8","","1.7","","65","","9","","18","","16.1","","99.02","","","","","","Mostly Cloudy"
"1953-04-06 15:00","1953","04","06","15:00","7.8","","1.7","","65","","11","","16","","19.3","","98.93","","","","","","Mostly Cloudy"
"1953-04-06 16:00","1953","04","06","16:00","6.7","","1.1","","67","","9","","19","","19.3","","98.91","","","","","","Cloudy"
"1953-04-06 17:00","1953","04","06","17:00","6.1","","1.1","","68","","9","","14","","19.3","","98.91","","","","","","Cloudy"
"1953-04-06 18:00","1953","04","06","18:00","5.6","","1.1","","75","","9","","13","","16.1","","98.94","","","","","","Cloudy"
"1953-04-06 19:00","1953","04","06","19:00","5.0","","0.6","","74","","9","","11","","16.1","","98.94","","","","","","Cloudy"
"1953-04-06 20:00","1953","04","06","20:00","4.4","","1.1","","69","","2","","6","","16.1","","98.94","","","","","","Cloudy"
"1953-04-06 21:00","1953","04","06","21:00","4.4","","0.6","","77","","2","","8","","25.0","","98.93","","","","","","Cloudy"
"1953-04-06 22:00","1953","04","06","22:00","3.9","","0.6","","78","","2","","10","","25.0","","98.84","","","","","","Cloudy"
"1953-04-06 23:00","1953","04","06","23:00","4.4","","0.6","","77","","2","","6","","25.0","","98.86","","","","","","Cloudy"
"1953-04-07 00:00","1953","04","07","00:00","3.9","","1.7","","87","","5","","6","","25.0","","98.85","","","","","","Cloudy"
"1953-04-07 01:00","1953","04","07","01:00","3.9","","1.1","","84","","5","","6","","25.0","","98.83","","","","","","Cloudy"
"1953-04-07 02:00","1953","04","07","02:00","2.8","","1.1","","89","","36","","10","","25.0","","98.84","","","","","","Cloudy"
"1953-04-07 03:00","1953","04","07","03:00","2.8","","1.7","","91","","36","","13","","25.0","","98.83","","","","","","Cloudy"
"1953-04-07 04:00","1953","04","07","04:00","2.2","","1.1","","90","","36","","10","","25.0","","98.87","","","","","","Cloudy"
"1953-04-07 05:00","1953","04","07","05:00","1.7","","0.6","","91","","34","","13","","25.0","","98.86","","","","","","Mostly Cloudy"
"1953-04-07 06:00","1953","04","07","06:00","1.1","","0.0","","91","","36","","14","","25.0","","98.96","","","","","","Mainly Clear"
"1953-04-07 07:00","1953","04","07","07:00","1.7","","0.0","","89","","36","","18","","25.0","","98.99","","","","","","Mainly Clear"
"1953-04-07 08:00","1953","04","07","08:00","4.4","","1.7","","81","","2","","19","","24.1","","99.02","","","","","","Clear"
"1953-04-07 09:00","1953","04","07","09:00","6.7","","1.7","","72","","2","","18","","25.0","","99.05","","","","","","Clear"
"1953-04-07 10:00","1953","04","07","10:00","7.8","","1.7","","66","","2","","23","","25.0","","99.07","","","","","","Mainly Clear"
"1953-04-07 11:00","1953","04","07","11:00","8.9","","2.2","","63","","5","","19","","25.0","","99.05","","","","","","Mostly Cloudy"
"1953-04-07 12:00","1953","04","07","12:00","10.0","","2.8","","60","","5","","23","","25.0","","99.01","","","","","","Mostly Cloudy"
"1953-04-07 13:00","1953","04","07","13:00","10.6","","2.8","","60","","2","","19","","25.0","","99.02","","","","","","Mainly Clear"
"1953-04-07 14:00","1953","04","07","14:00","10.6","","2.8","","60","","2","","16","","25.0","","99.00","","","","","","Mostly Cloudy"
"1953-04-07 15:00","1953","04","07","15:00","10.6","","2.8","","60","","36","","21","","25.0","","99.00","","","","","","Mostly Cloudy"
"1953-04-07 16:00","1953","04","07","16:00","10.6","","2.8","","58","","2","","24","","25.0","","99.01","","","","","","Mostly Cloudy"
"1953-04-07 17:00","1953","04","07","17:00","10.6","","3.3","","60","","2","","23","","25.0","","99.07","","","","","","Mainly Clear"
"1953-04-07 18:00","1953","04","07","18:00","9.4","","4.4","","70","","34","","16","","25.0","","99.15","","","","","","Clear"
"1953-04-07 19:00","1953","04","07","19:00","7.2","","2.8","","74","","34","","19","","25.0","","99.25","","","","","","Clear"
"1953-04-07 20:00","1953","04","07","20:00","5.0","","1.1","","75","","36","","23","","25.0","","99.33","","","","","","Clear"
"1953-04-07 21:00","1953","04","07","21:00","3.9","","0.6","","80","","34","","16","","25.0","","99.30","","","","","","Clear"
"1953-04-07 22:00","1953","04","07","22:00","3.3","","0.6","","83","","34","","16","","25.0","","99.29","","","","","","Clear"
"1953-04-07 23:00","1953","04","07","23:00","2.8","","0.0","","81","","34","","16","","25.0","","99.37","","","","","","Mainly Clear"
"1953-04-08 00:00","1953","04","08","00:00","2.2","","-0.6","","82","","36","","26","","25.0","","99.41","","","","","","Clear"
"1953-04-08 01:00","1953","04","08","01:00","2.2","","-0.6","","82","","36","","19","","25.0","","99.43","","","","","","Clear"
"1953-04-08 02:00","1953","04","08","02:00","2.2","","-0.6","","82","","36","","19","","25.0","","99.47","","","","","","Clear"
"1953-04-08 03:00","1953","04","08","03:00","1.7","","-1.1","","83","","36","","16","","25.0","","99.50","","","","","","Clear"
"1953-04-08 04:00","1953","04","08","04:00","1.7","","-1.1","","83","","36","","19","","25.0","","99.55","","","","","","Clear"
"1953-04-08 05:00","1953","04","08","05:00","1.1","","-1.1","","88","","36","","10","","25.0","","99.63","","","","","","Mainly Clear"
"1953-04-08 06:00","1953","04","08","06:00","0.6","","-0.6","","90","","36","","14","","25.0","","99.71","","","","","","Mainly Clear"
"1953-04-08 07:00","1953","04","08","07:00","2.8","","-0.6","","80","","36","","13","","25.0","","99.74","","","","","","Mainly Clear"
"1953-04-08 08:00","1953","04","08","08:00","5.6","","1.7","","77","","36","","13","","25.0","","99.80","","","","","","Mainly Clear"
"1953-04-08 09:00","1953","04","08","09:00","8.3","","3.3","","72","","36","","5","","25.0","","99.83","","","","","","Mainly Clear"
"1953-04-08 10:00","1953","04","08","10:00","10.6","","4.4","","65","","2","","5","","25.0","","99.74","","","","","","Mainly Clear"
"1953-04-08 11:00","1953","04","08","11:00","11.1","","4.4","","63","","16","","11","","25.0","","99.77","","","","","","Mostly Cloudy"
"1953-04-08 12:00","1953","04","08","12:00","11.7","","5.0","","63","","14","","10","","25.0","","99.77","","","","","","Mostly Cloudy"
"1953-04-08 13:00","1953","04","08","13:00","12.2","","3.3","","56","","18","","14","","25.0","","99.70","","","","","","Mostly Cloudy"
"1953-04-08 14:00","1953","04","08","14:00","12.2","","3.3","","56","","18","","18","","25.0","","99.63","","","","","","Mainly Clear"
"1953-04-08 15:00","1953","04","08","15:00","12.2","","3.3","","56","","18","","14","","25.0","","99.58","","","","","","Mainly Clear"
"1953-04-08 16:00","1953","04","08","16:00","11.7","","3.3","","58","","18","","16","","25.0","","99.54","","","","","","Mainly Clear"
"1953-04-08 17:00","1953","04","08","17:00","11.1","","2.8","","57","","18","","16","","25.0","","99.50","","","","","","Mainly Clear"
"1953-04-08 18:00","1953","04","08","18:00","9.4","","2.8","","64","","23","","10","","25.0","","99.49","","","","","","Mostly Cloudy"
"1953-04-08 19:00","1953","04","08","19:00","7.8","","2.2","","68","","23","","8","","12.9","","99.47","","","","","","Cloudy"
"1953-04-08 20:00","1953","04","08","20:00","7.8","","2.8","","72","","29","","6","","16.1","","99.58","","","","","","Cloudy"
"1953-04-08 21:00","1953","04","08","21:00","7.2","","2.8","","74","","34","","6","","25.0","","99.60","","","","","","Cloudy"
"1953-04-08 22:00","1953","04","08","22:00","7.2","","1.7","","67","","2","","6","","25.0","","99.56","","","","","","Cloudy"
"1953-04-08 23:00","1953","04","08","23:00","7.8","","2.8","","73","","5","","6","","12.9","","99.49","","","","","","Cloudy"
"1953-04-09 00:00","1953","04","09","00:00","7.2","","3.3","","78","","5","","13","","16.1","","99.39","","","","","","Cloudy"
"1953-04-09 01:00","1953","04","09","01:00","7.2","","2.8","","74","","9","","6","","16.1","","99.37","","","","","","Cloudy"
"1953-04-09 02:00","1953","04","09","02:00","7.2","","2.8","","76","","9","","3","","16.1","","99.31","","","","","","Mostly Cloudy"
"1953-04-09 03:00","1953","04","09","03:00","6.7","","2.2","","74","","9","","10","","24.1","","99.28","","","","","","Mostly Cloudy"
"1953-04-09 04:00","1953","04","09","04:00","7.2","","2.8","","74","","9","","13","","24.1","","99.22","","","","","","Mostly Cloudy"
"1953-04-09 05:00","1953","04","09","05:00","6.7","","2.2","","74","","9","","19","","24.1","","99.16","","","","","","Mostly Cloudy"
"1953-04-09 06:00","1953","04","09","06:00","6.7","","3.3","","81","","9","","14","","19.3","","99.13","","","","","","Mostly Cloudy"
"1953-04-09 07:00","1953","04","09","07:00","7.2","","2.8","","74","","9","","16","","19.3","","99.05","","","","","","Mostly Cloudy"
"1953-04-09 08:00","1953","04","09","08:00","8.9","","5.0","","76","","9","","13","","19.3","","99.13","","","","","","Mostly Cloudy"
"1953-04-09 09:00","1953","04","09","09:00","10.0","","5.0","","71","","9","","14","","16.1","","99.10","","","","","","Mostly Cloudy"
"1953-04-09 10:00","1953","04","09","10:00","10.6","","5.6","","72","","11","","18","","16.1","","99.03","","","","","","Mostly Cloudy"
"1953-04-09 11:00","1953","04","09","11:00","11.7","","6.1","","70","","9","","13","","16.1","","99.00","","","","","","Mostly Cloudy"
"1953-04-09 12:00","1953","04","09","12:00","11.7","","6.7","","72","","9","","18","","24.1","","98.97","","","","","","Cloudy"
"1953-04-09 13:00","1953","04","09","13:00","11.7","","6.7","","72","","7","","18","","25.0","","98.89","","","","","","Cloudy"
"1953-04-09 14:00","1953","04","09","14:00","11.1","","6.7","","75","","9","","13","","25.0","","98.85","","","","","","Cloudy"
"1953-04-09 15:00","1953","04","09","15:00","11.1","","7.2","","78","","7","","13","","25.0","","98.83","","","","","","Cloudy"
"1953-04-09 16:00","1953","04","09","16:00","11.1","","6.1","","72","","9","","16","","11.3","","98.77","","","","","","Mostly Cloudy"
"1953-04-09 17:00","1953","04","09","17:00","11.7","","6.7","","70","","7","","16","","11.3","","98.73","","","","","","Mostly Cloudy"
"1953-04-09 18:00","1953","04","09","18:00","10.6","","6.1","","76","","7","","10","","11.3","","98.69","","","","","","Mainly Clear"
"1953-04-09 19:00","1953","04","09","19:00","9.4","","6.1","","78","","5","","6","","8.0","","98.68","","","","","","Haze"
"1953-04-09 20:00","1953","04","09","20:00","8.3","","5.6","","84","","7","","6","","11.3","","98.63","","","","","","Cloudy"
"1953-04-09 21:00","1953","04","09","21:00","7.8","","5.6","","84","","7","","10","","11.3","","98.54","","","","","","Cloudy"
"1953-04-09 22:00","1953","04","09","22:00","7.8","","5.6","","87","","7","","13","","11.3","","98.41","","","","","","Cloudy"
"1953-04-09 23:00","1953","04","09","23:00","7.8","","5.6","","86","","7","","10","","12.9","","98.32","","","","","","Cloudy"
"1953-04-10 00:00","1953","04","10","00:00","7.8","","5.6","","86","","7","","10","","16.1","","98.16","","","","","","Cloudy"
"1953-04-10 01:00","1953","04","10","01:00","10.0","","6.7","","80","","9","","23","","16.1","","98.02","","","","","","Cloudy"
"1953-04-10 02:00","1953","04","10","02:00","8.9","","7.8","","92","","9","","13","","11.3","","97.92","","","","","","Rain Showers"
"1953-04-10 03:00","1953","04","10","03:00","8.3","","7.8","","95","","9","","19","","6.4","","97.87","","","","","","Rain Showers,Fog"
"1953-04-10 04:00","1953","04","10","04:00","8.3","","7.8","","96","","9","","19","","2.0","","97.69","","","","","","Rain,Fog"
"1953-04-10 05:00","1953","04","10","05:00","7.8","","7.8","","100","","9","","19","","0.4","","97.54","","","","","","Rain,Fog"
"1953-04-10 06:00","1953","04","10","06:00","8.3","","8.3","","100","","11","","16","","0.4","","97.49","","","","","","Drizzle,Fog"
"1953-04-10 07:00","1953","04","10","07:00","8.3","","8.3","","100","","11","","13","","0.2","","97.43","","","","","","Fog"
"1953-04-10 08:00","1953","04","10","08:00","11.1","","10.6","","97","","14","","24","","1.6","","97.26","","","","","","Fog"
"1953-04-10 09:00","1953","04","10","09:00","10.0","","10.0","","100","","14","","24","","1.6","","97.23","","","","","","Fog"
"1953-04-10 10:00","1953","04","10","10:00","10.0","","10.0","","97","","20","","26","","25.0","","97.20","","","","","","Cloudy"
"1953-04-10 11:00","1953","04","10","11:00","13.3","","9.4","","75","","23","","37","","25.0","","97.15","","","","","","Mostly Cloudy"
"1953-04-10 12:00","1953","04","10","12:00","13.9","","7.8","","66","","23","","56","","25.0","","97.15","","","","","","Mostly Cloudy"
"1953-04-10 13:00","1953","04","10","13:00","12.2","","6.1","","67","","23","","63","","25.0","","97.22","","","","","","Mostly Cloudy"
"1953-04-10 14:00","1953","04","10","14:00","9.4","","5.0","","73","","23","","69","","25.0","","97.26","","","","","","Cloudy"
"1953-04-10 15:00","1953","04","10","15:00","8.3","","5.0","","79","","23","","76","","25.0","","97.28","","","","","","Rain Showers"
"1953-04-10 16:00","1953","04","10","16:00","7.8","","4.4","","79","","23","","60","","25.0","","97.26","","","","","","Rain Showers"
"1953-04-10 17:00","1953","04","10","17:00","6.7","","5.0","","89","","23","","45","","12.9","","97.28","","","","","","Rain Showers"
"1953-04-10 18:00","1953","04","10","18:00","6.1","","4.4","","88","","23","","45","","12.9","","97.32","","","","","","Rain Showers"
"1953-04-10 19:00","1953","04","10","19:00","6.1","","4.4","","88","","23","","40","","12.9","","97.34","","","","","","Rain Showers"
"1953-04-10 20:00","1953","04","10","20:00","5.6","","3.9","","88","","23","","48","","16.1","","97.40","","","","","","Rain Showers"
"1953-04-10 21:00","1953","04","10","21:00","5.6","","3.9","","88","","23","","32","","25.0","","97.50","","","","","","Rain Showers"
"1953-04-10 22:00","1953","04","10","22:00","5.0","","2.2","","84","","25","","51","","25.0","","97.58","","","","","","Rain Showers"
"1953-04-10 23:00","1953","04","10","23:00","5.0","","2.2","","84","","25","","45","","25.0","","97.71","","","","","","Rain Showers"
"1953-04-11 00:00","1953","04","11","00:00","4.4","","1.7","","81","","25","","48","","25.0","","97.80","","","","","","Rain Showers"
"1953-04-11 01:00","1953","04","11","01:00","4.4","","1.7","","81","","25","","45","","25.0","","97.84","","","","","","Rain Showers"
"1953-04-11 02:00","1953","04","11","02:00","4.4","","1.7","","80","","27","","45","","25.0","","97.92","","","","","","Cloudy"
"1953-04-11 03:00","1953","04","11","03:00","4.4","","1.1","","80","","25","","40","","25.0","","98.02","","","","","","Cloudy"
"1953-04-11 04:00","1953","04","11","04:00","4.4","","1.1","","80","","25","","40","","25.0","","98.09","","","","","","Cloudy"
"1953-04-11 05:00","1953","04","11","05:00","4.4","","1.1","","78","","25","","39","","25.0","","98.19","","","","","","Cloudy"
"1953-04-11 06:00","1953","04","11","06:00","3.9","","0.6","","78","","25","","35","","25.0","","98.31","","","","","","Mainly Clear"
"1953-04-11 07:00","1953","04","11","07:00","5.0","","1.1","","77","","25","","40","","25.0","","98.34","","","","","","Mainly Clear"
"1953-04-11 08:00","1953","04","11","08:00","6.7","","1.7","","74","","27","","40","","25.0","","98.35","","","","","","Mainly Clear"
"1953-04-11 09:00","1953","04","11","09:00","7.8","","2.8","","72","","27","","45","","25.0","","98.48","","","","","","Mostly Cloudy"
"1953-04-11 10:00","1953","04","11","10:00","8.3","","3.9","","70","","27","","51","","25.0","","98.54","","","","","","Mostly Cloudy"
"1953-04-11 11:00","1953","04","11","11:00","9.4","","3.3","","67","","27","","47","","25.0","","98.52","","","","","","Mainly Clear"
"1953-04-11 12:00","1953","04","11","12:00","9.4","","3.3","","67","","27","","53","","25.0","","98.58","","","","","","Mostly Cloudy"
"1953-04-11 13:00","1953","04","11","13:00","8.9","","2.2","","65","","27","","48","","25.0","","98.64","","","","","","Cloudy"
"1953-04-11 14:00","1953","04","11","14:00","8.9","","2.8","","66","","27","","42","","25.0","","98.68","","","","","","Cloudy"
"1953-04-11 15:00","1953","04","11","15:00","8.9","","2.8","","66","","27","","35","","25.0","","98.68","","","","","","Cloudy"
"1953-04-11 16:00","1953","04","11","16:00","9.4","","2.8","","64","","27","","31","","25.0","","98.68","","","","","","Mostly Cloudy"
"1953-04-11 17:00","1953","04","11","17:00","8.9","","2.8","","66","","27","","29","","25.0","","98.76","","","","","","Cloudy"
"1953-04-11 18:00","1953","04","11","18:00","8.3","","2.2","","66","","27","","27","","25.0","","98.85","","","","","","Mainly Clear"
"1953-04-11 19:00","1953","04","11","19:00","6.1","","1.7","","73","","27","","16","","25.0","","98.87","","","","","","Mainly Clear"
"1953-04-11 20:00","1953","04","11","20:00","5.0","","1.7","","80","","25","","6","","25.0","","98.97","","","","","","Clear"
"1953-04-11 21:00","1953","04","11","21:00","3.9","","1.1","","81","","25","","3","","25.0","","98.98","","","","","","Mainly Clear"
"1953-04-11 22:00","1953","04","11","22:00","3.9","","1.1","","83","","25","","5","","25.0","","98.95","","","","","","Cloudy"
"1953-04-11 23:00","1953","04","11","23:00","3.9","","1.7","","87","","23","","3","","25.0","","98.96","","","","","","Cloudy"
"1953-04-12 00:00","1953","04","12","00:00","4.4","","1.7","","85","","25","","5","","25.0","","98.93","","","","","","Mostly Cloudy"
"1953-04-12 01:00","1953","04","12","01:00","4.4","","2.8","","90","","27","","5","","25.0","","98.91","","","","","","Cloudy"
"1953-04-12 02:00","1953","04","12","02:00","3.9","","2.2","","88","","32","","8","","25.0","","98.90","","","","","","Cloudy"
"1953-04-12 03:00","1953","04","12","03:00","3.3","","1.1","","87","","36","","10","","25.0","","98.92","","","","","","Cloudy"
"1953-04-12 04:00","1953","04","12","04:00","2.8","","0.0","","84","","36","","8","","25.0","","98.87","","","","","","Cloudy"
"1953-04-12 05:00","1953","04","12","05:00","1.7","","0.0","","89","","36","","6","","25.0","","98.85","","","","","","Mostly Cloudy"
"1953-04-12 06:00","1953","04","12","06:00","1.7","","-0.6","","86","","36","","6","","25.0","","98.85","","","","","","Mostly Cloudy"
"1953-04-12 07:00","1953","04","12","07:00","2.8","","1.1","","88","","36","","8","","25.0","","98.88","","","","","","Mostly Cloudy"
"1953-04-12 08:00","1953","04","12","08:00","3.9","","-1.7","","66","","2","","13","","25.0","","98.92","","","","","","Mostly Cloudy"
"1953-04-12 09:00","1953","04","12","09:00","5.0","","0.6","","74","","5","","14","","25.0","","98.90","","","","","","Cloudy"
"1953-04-12 10:00","1953","04","12","10:00","6.1","","1.1","","70","","5","","5","","25.0","","98.89","","","","","","Cloudy"
"1953-04-12 11:00","1953","04","12","11:00","6.7","","2.2","","72","","2","","3","","25.0","","98.80","","","","","","Cloudy"
"1953-04-12 12:00","1953","04","12","12:00","8.3","","2.2","","66","","5","","8","","25.0","","98.70","","","","","","Cloudy"
"1953-04-12 13:00","1953","04","12","13:00","8.3","","2.2","","66","","5","","8","","25.0","","98.65","","","","","","Cloudy"
"1953-04-12 14:00","1953","04","12","14:00","8.9","","2.8","","66","","5","","5","","25.0","","98.60","","","","","","Cloudy"
"1953-04-12 15:00","1953","04","12","15:00","7.2","","2.2","","71","","18","","14","","25.0","","98.56","","","","","","Cloudy"
"1953-04-12 16:00","1953","04","12","16:00","7.2","","1.7","","68","","11","","11","","25.0","","98.52","","","","","","Cloudy"
"1953-04-12 17:00","1953","04","12","17:00","6.7","","1.1","","65","","16","","10","","25.0","","98.48","","","","","","Cloudy"
"1953-04-12 18:00","1953","04","12","18:00","6.1","","1.7","","73","","20","","6","","19.3","","98.47","","","","","","Rain"
"1953-04-12 19:00","1953","04","12","19:00","6.1","","1.7","","73","","20","","3","","19.3","","98.49","","","","","","Cloudy"
"1953-04-12 20:00","1953","04","12","20:00","5.6","","1.7","","79","","34","","16","","25.0","","98.54","","","","","","Cloudy"
"1953-04-12 21:00","1953","04","12","21:00","4.4","","0.6","","77","","34","","14","","25.0","","98.53","","","","","","Rain Showers"
"1953-04-12 22:00","1953","04","12","22:00","3.9","","0.0","","77","","34","","16","","25.0","","98.53","","","","","","Cloudy"
"1953-04-12 23:00","1953","04","12","23:00","3.3","","0.0","","79","","34","","16","","25.0","","98.48","","","","","","Cloudy"
"1953-04-13 00:00","1953","04","13","00:00","3.3","","0.0","","81","","34","","19","","25.0","","98.47","","","","","","Cloudy"
"1953-04-13 01:00","1953","04","13","01:00","3.9","","0.6","","80","","36","","19","","25.0","","98.43","","","","","","Cloudy"
"1953-04-13 02:00","1953","04","13","02:00","4.4","","0.6","","75","","2","","23","","25.0","","98.42","","","","","","Cloudy"
"1953-04-13 03:00","1953","04","13","03:00","3.3","","0.6","","83","","5","","13","","25.0","","98.42","","","","","","Cloudy"
"1953-04-13 04:00","1953","04","13","04:00","2.8","","0.6","","88","","2","","13","","25.0","","98.39","","","","","","Cloudy"
"1953-04-13 05:00","1953","04","13","05:00","2.8","","0.6","","85","","2","","6","","25.0","","98.38","","","","","","Cloudy"
"1953-04-13 06:00","1953","04","13","06:00","2.8","","-0.6","","79","","2","","13","","25.0","","98.44","","","","","","Cloudy"
"1953-04-13 07:00","1953","04","13","07:00","2.8","","-1.1","","76","","2","","21","","25.0","","98.43","","","","","","Mostly Cloudy"
"1953-04-13 08:00","1953","04","13","08:00","3.9","","-0.6","","72","","5","","29","","25.0","","98.48","","","","","","Mostly Cloudy"
"1953-04-13 09:00","1953","04","13","09:00","6.1","","0.6","","70","","5","","27","","25.0","","98.54","","","","","","Mainly Clear"
"1953-04-13 10:00","1953","04","13","10:00","5.6","","0.6","","69","","5","","21","","25.0","","98.59","","","","","","Cloudy"
"1953-04-13 11:00","1953","04","13","11:00","6.7","","1.1","","67","","5","","18","","25.0","","98.59","","","","","","Cloudy"
"1953-04-13 12:00","1953","04","13","12:00","7.8","","0.6","","61","","2","","21","","25.0","","98.54","","","","","","Mostly Cloudy"
"1953-04-13 13:00","1953","04","13","13:00","7.8","","-2.8","","45","","2","","23","","25.0","","98.50","","","","","","Mainly Clear"
"1953-04-13 14:00","1953","04","13","14:00","7.8","","-2.8","","47","","36","","26","","25.0","","98.46","","","","","","Cloudy"
"1953-04-13 15:00","1953","04","13","15:00","8.3","","-2.2","","46","","36","","27","","25.0","","98.43","","","","","","Mostly Cloudy"
"1953-04-13 16:00","1953","04","13","16:00","7.8","","-3.9","","43","","36","","32","","25.0","","98.44","","","","","","Mainly Clear"
"1953-04-13 17:00","1953","04","13","17:00","6.1","","-2.2","","54","","36","","29","","25.0","","98.49","","","","","","Mostly Cloudy"
"1953-04-13 18:00","1953","04","13","18:00","4.4","","-3.3","","56","","36","","32","","25.0","","98.54","","","","","","Mainly Clear"
"1953-04-13 19:00","1953","04","13","19:00","3.3","","-1.7","","70","","36","","29","","25.0","","98.60","","","","","","Mainly Clear"
"1953-04-13 20:00","1953","04","13","20:00","2.8","","-4.4","","57","","34","","26","","25.0","","98.65","","","","","","Mainly Clear"
"1953-04-13 21:00","1953","04","13","21:00","1.7","","-3.9","","63","","34","","21","","25.0","","98.72","","","","","","Mainly Clear"
"1953-04-13 22:00","1953","04","13","22:00","1.1","","-3.9","","66","","34","","16","","25.0","","98.76","","","","","","Mainly Clear"
"1953-04-13 23:00","1953","04","13","23:00","0.0","","-3.9","","75","","34","","23","","25.0","","98.80","","","","-6","","Clear"
"1953-04-14 00:00","1953","04","14","00:00","0.0","","-2.8","","77","","29","","19","","25.0","","98.84","","","","-5","","Clear"
"1953-04-14 01:00","1953","04","14","01:00","0.0","","-3.9","","76","","32","","19","","25.0","","98.87","","","","-5","","Clear"
"1953-04-14 02:00","1953","04","14","02:00","0.0","","-4.4","","68","","32","","19","","25.0","","98.90","","","","-5","","Clear"
"1953-04-14 03:00","1953","04","14","03:00","-0.6","","-5.0","","67","","32","","16","","25.0","","98.95","","","","-5","","Clear"
"1953-04-14 04:00","1953","04","14","04:00","-1.1","","-6.1","","66","","34","","16","","25.0","","98.99","","","","-6","","Clear"
"1953-04-14 05:00","1953","04","14","05:00","-1.7","","-5.6","","71","","29","","13","","25.0","","99.08","","","","-6","","Clear"
"1953-04-14 06:00","1953","04","14","06:00","-2.2","","-6.1","","71","","27","","13","","25.0","","99.16","","","","-7","","Clear"
"1953-04-14 07:00","1953","04","14","07:00","0.6","","-3.9","","71","","29","","29","","25.0","","99.17","","","","","","Clear"
"1953-04-14 08:00","1953","04","14","08:00","2.2","","-4.4","","60","","34","","40","","25.0","","99.19","","","","","","Clear"
"1953-04-14 09:00","1953","04","14","09:00","3.3","","2.2","","91","","36","","48","","25.0","","99.24","","","","","","Clear"
"1953-04-14 10:00","1953","04","14","10:00","4.4","","-5.0","","48","","34","","39","","25.0","","99.30","","","","","","Clear"
"1953-04-14 11:00","1953","04","14","11:00","5.6","","-6.1","","40","","34","","45","","25.0","","99.29","","","","","","Clear"
"1953-04-14 12:00","1953","04","14","12:00","7.2","","-5.6","","38","","32","","39","","25.0","","99.31","","","","","","Clear"
"1953-04-14 13:00","1953","04","14","13:00","7.8","","-5.0","","39","","32","","45","","25.0","","99.31","","","","","","Clear"
"1953-04-14 14:00","1953","04","14","14:00","8.3","","-5.6","","36","","32","","45","","25.0","","99.33","","","","","","Clear"
"1953-04-14 15:00","1953","04","14","15:00","7.8","","-6.7","","32","","34","","45","","25.0","","99.37","","","","","","Clear"
"1953-04-14 16:00","1953","04","14","16:00","7.8","","-5.6","","37","","36","","35","","25.0","","99.39","","","","","","Clear"
"1953-04-14 17:00","1953","04","14","17:00","7.8","","-6.1","","35","","34","","39","","25.0","","99.44","","","","","","Clear"
"1953-04-14 18:00","1953","04","14","18:00","7.2","","-7.8","","31","","34","","32","","25.0","","99.50","","","","","","Clear"
"1953-04-14 19:00","1953","04","14","19:00","6.7","","-6.7","","36","","34","","23","","25.0","","99.48","","","","","","Clear"
"1953-04-14 20:00","1953","04","14","20:00","2.8","","-4.4","","57","","27","","21","","25.0","","99.56","","","","","","Clear"
"1953-04-14 21:00","1953","04","14","21:00","2.8","","-7.2","","44","","27","","26","","25.0","","99.61","","","","","","Clear"
"1953-04-14 22:00","1953","04","14","22:00","1.7","","-8.3","","45","","27","","23","","25.0","","99.61","","","","","","Clear"
"1953-04-14 23:00","1953","04","14","23:00","1.1","","-3.9","","68","","27","","18","","25.0","","99.62","","","","","","Clear"
"1953-04-15 00:00","1953","04","15","00:00","0.6","","-6.7","","56","","29","","23","","25.0","","99.72","","","","","","Clear"
"1953-04-15 01:00","1953","04","15","01:00","0.0","","-6.1","","58","","29","","18","","25.0","","99.65","","","","-5","","Clear"
"1953-04-15 02:00","1953","04","15","02:00","0.0","","-7.2","","56","","29","","13","","25.0","","99.64","","","","-4","","Clear"
"1953-04-15 03:00","1953","04","15","03:00","-0.6","","-6.1","","65","","34","","6","","25.0","","99.59","","","","-3","","Clear"
"1953-04-15 04:00","1953","04","15","04:00","-1.1","","-5.0","","73","","27","","11","","25.0","","99.59","","","","-5","","Clear"
"1953-04-15 05:00","1953","04","15","05:00","-1.1","","-6.1","","68","","27","","13","","25.0","","99.63","","","","-5","","Clear"
"1953-04-15 06:00","1953","04","15","06:00","0.0","","-5.6","","62","","27","","11","","25.0","","99.67","","","","-4","","Clear"
"1953-04-15 07:00","1953","04","15","07:00","3.9","","-6.7","","42","","","","0","","25.0","","99.63","","","","","","Clear"
"1953-04-15 08:00","1953","04","15","08:00","8.3","","-5.0","","39","","25","","18","","25.0","","99.60","","","","","","Cloudy"
"1953-04-15 09:00","1953","04","15","09:00","9.4","","-4.4","","36","","23","","16","","25.0","","99.55","","","","","","Mostly Cloudy"
"1953-04-15 10:00","1953","04","15","10:00","10.6","","-3.3","","36","","20","","16","","25.0","","99.47","","","","","","Mostly Cloudy"
"1953-04-15 11:00","1953","04","15","11:00","11.1","","-4.4","","31","","16","","26","","24.1","","99.40","","","","","","Mostly Cloudy"
"1953-04-15 12:00","1953","04","15","12:00","10.6","","-4.4","","34","","18","","26","","24.1","","99.31","","","","","","Mostly Cloudy"
"1953-04-15 13:00","1953","04","15","13:00","11.1","","-4.4","","32","","16","","29","","25.0","","99.19","","","","","","Mostly Cloudy"
"1953-04-15 14:00","1953","04","15","14:00","10.6","","-4.4","","33","","16","","29","","25.0","","99.04","","","","","","Cloudy"
"1953-04-15 15:00","1953","04","15","15:00","10.0","","-4.4","","35","","14","","26","","24.1","","98.91","","","","","","Cloudy"
"1953-04-15 16:00","1953","04","15","16:00","10.6","","-1.7","","42","","11","","26","","16.1","","98.78","","","","","","Cloudy"
"1953-04-15 17:00","1953","04","15","17:00","9.4","","-3.3","","39","","9","","32","","14.5","","98.69","","","","","","Cloudy"
"1953-04-15 18:00","1953","04","15","18:00","8.3","","-3.3","","43","","9","","27","","12.9","","98.59","","","","","","Cloudy"
"1953-04-15 19:00","1953","04","15","19:00","7.8","","-3.9","","43","","9","","32","","12.9","","98.49","","","","","","Cloudy"
"1953-04-15 20:00","1953","04","15","20:00","6.7","","-2.2","","53","","9","","29","","25.0","","98.39","","","","","","Cloudy"
"1953-04-15 21:00","1953","04","15","21:00","7.2","","-0.6","","58","","9","","26","","25.0","","98.30","","","","","","Cloudy"
"1953-04-15 22:00","1953","04","15","22:00","7.2","","1.1","","64","","14","","24","","25.0","","98.21","","","","","","Cloudy"
"1953-04-15 23:00","1953","04","15","23:00","7.2","","1.7","","67","","14","","23","","25.0","","98.10","","","","","","Cloudy"
"1953-04-16 00:00","1953","04","16","00:00","7.8","","2.2","","66","","14","","32","","25.0","","98.06","","","","","","Rain"
"1953-04-16 01:00","1953","04","16","01:00","6.7","","2.8","","77","","14","","26","","16.1","","97.95","","","","","","Rain"
"1953-04-16 02:00","1953","04","16","02:00","5.0","","3.9","","92","","14","","24","","4.8","","97.81","","","","","","Moderate Rain"
"1953-04-16 03:00","1953","04","16","03:00","5.0","","3.9","","92","","11","","24","","4.8","","97.64","","","","","","Moderate Rain"
"1953-04-16 04:00","1953","04","16","04:00","5.0","","3.9","","92","","14","","29","","12.9","","97.54","","","","","","Rain"
"1953-04-16 05:00","1953","04","16","05:00","5.6","","4.4","","94","","16","","23","","19.3","","97.51","","","","","","Cloudy"
"1953-04-16 06:00","1953","04","16","06:00","5.6","","3.9","","89","","20","","16","","19.3","","97.55","","","","","","Cloudy"
"1953-04-16 07:00","1953","04","16","07:00","5.6","","3.9","","89","","20","","24","","19.3","","97.56","","","","","","Rain"
"1953-04-16 08:00","1953","04","16","08:00","5.0","","2.2","","83","","20","","23","","19.3","","97.58","","","","","","Cloudy"
"1953-04-16 09:00","1953","04","16","09:00","5.0","","2.2","","84","","23","","26","","24.1","","97.59","","","","","","Cloudy"
"1953-04-16 10:00","1953","04","16","10:00","5.0","","1.7","","80","","20","","23","","16.1","","97.59","","","","","","Rain Showers"
"1953-04-16 11:00","1953","04","16","11:00","5.0","","2.2","","84","","20","","32","","8.0","","97.59","","","","","","Rain,Fog"
"1953-04-16 12:00","1953","04","16","12:00","4.4","","3.3","","91","","18","","35","","8.0","","97.58","","","","","","Rain,Fog"
"1953-04-16 13:00","1953","04","16","13:00","3.9","","2.8","","92","","18","","32","","16.1","","97.58","","","","","","Rain"
"1953-04-16 14:00","1953","04","16","14:00","3.9","","2.8","","92","","18","","27","","16.1","","97.51","","","","","","Rain"
"1953-04-16 15:00","1953","04","16","15:00","3.9","","2.8","","92","","18","","26","","12.9","","97.51","","","","","","Drizzle"
"1953-04-16 16:00","1953","04","16","16:00","5.0","","2.8","","92","","23","","16","","16.1","","97.52","","","","","","Cloudy"
"1953-04-16 17:00","1953","04","16","17:00","4.4","","3.3","","92","","27","","26","","12.9","","97.61","","","","","","Rain Showers"
"1953-04-16 18:00","1953","04","16","18:00","3.9","","2.8","","92","","27","","51","","16.1","","97.74","","","","","","Rain Showers"
"1953-04-16 19:00","1953","04","16","19:00","3.3","","0.0","","79","","29","","51","","25.0","","97.81","","","","","","Cloudy"
"1953-04-16 20:00","1953","04","16","20:00","3.3","","0.0","","79","","29","","32","","25.0","","98.06","","","","","","Mostly Cloudy"
"1953-04-16 21:00","1953","04","16","21:00","3.3","","0.6","","83","","27","","19","","25.0","","98.18","","","","","","Mostly Cloudy"
"1953-04-16 22:00","1953","04","16","22:00","2.2","","0.0","","90","","25","","16","","25.0","","98.24","","","","","","Mainly Clear"
"1953-04-16 23:00","1953","04","16","23:00","1.1","","-1.1","","86","","25","","10","","25.0","","98.22","","","","","","Clear"
"1953-04-17 00:00","1953","04","17","00:00","0.6","","-0.6","","90","","25","","18","","25.0","","98.26","","","","","","Clear"
"1953-04-17 01:00","1953","04","17","01:00","0.6","","-1.7","","87","","23","","14","","25.0","","98.26","","","","","","Clear"
"1953-04-17 02:00","1953","04","17","02:00","1.1","","-1.1","","85","","20","","13","","25.0","","98.24","","","","","","Clear"
"1953-04-17 03:00","1953","04","17","03:00","0.6","","-1.7","","87","","20","","6","","25.0","","98.22","","","","","","Clear"
"1953-04-17 04:00","1953","04","17","04:00","0.0","","-1.1","","87","","20","","3","","25.0","","98.23","","","","-1","","Mainly Clear"
"1953-04-17 05:00","1953","04","17","05:00","0.0","","-2.2","","84","","27","","10","","25.0","","98.26","","","","-3","","Mainly Clear"
"1953-04-17 06:00","1953","04","17","06:00","0.6","","-3.9","","71","","27","","23","","25.0","","98.30","","","","","","Mostly Cloudy"
"1953-04-17 07:00","1953","04","17","07:00","0.0","","-0.6","","93","","29","","39","","25.0","","98.40","","","","-7","","Mainly Clear"
"1953-04-17 08:00","1953","04","17","08:00","1.1","","-5.6","","56","","27","","51","","25.0","","98.45","","","","","","Mostly Cloudy"
"1953-04-17 09:00","1953","04","17","09:00","1.1","","-3.9","","66","","27","","42","","11.3","","98.49","","","","","","Mostly Cloudy"
"1953-04-17 10:00","1953","04","17","10:00","2.8","","-4.4","","57","","27","","45","","11.3","","98.53","","","","","","Mostly Cloudy"
"1953-04-17 11:00","1953","04","17","11:00","3.3","","-5.6","","50","","27","","45","","12.9","","98.53","","","","","","Mostly Cloudy"
"1953-04-17 12:00","1953","04","17","12:00","3.9","","-5.0","","51","","27","","39","","12.9","","98.54","","","","","","Mostly Cloudy"
"1953-04-17 13:00","1953","04","17","13:00","4.4","","-2.2","","60","","27","","42","","11.3","","98.55","","","","","","Mostly Cloudy"
"1953-04-17 14:00","1953","04","17","14:00","2.2","","-1.7","","73","","27","","39","","8.0","","98.62","","","","","","Snow Showers,Snow Pellets"
"1953-04-17 15:00","1953","04","17","15:00","3.3","","-2.2","","66","","27","","39","","12.9","","98.62","","","","","","Snow Showers"
"1953-04-17 16:00","1953","04","17","16:00","3.3","","-3.3","","60","","32","","42","","16.1","","98.63","","","","","","Snow Showers"
"1953-04-17 17:00","1953","04","17","17:00","3.9","","-5.0","","51","","29","","35","","19.3","","98.64","","","","","","Mainly Clear"
"1953-04-17 18:00","1953","04","17","18:00","3.3","","-4.4","","54","","29","","35","","25.0","","98.66","","","","","","Mainly Clear"
"1953-04-17 19:00","1953","04","17","19:00","2.2","","-2.8","","68","","29","","18","","25.0","","98.75","","","","","","Mainly Clear"
"1953-04-17 20:00","1953","04","17","20:00","0.0","","-4.4","","69","","27","","8","","25.0","","98.82","","","","-3","","Clear"
"1953-04-17 21:00","1953","04","17","21:00","0.0","","-4.4","","69","","25","","11","","25.0","","98.84","","","","-4","","Clear"
"1953-04-17 22:00","1953","04","17","22:00","-1.1","","-4.4","","76","","25","","11","","25.0","","98.86","","","","-5","","Clear"
"1953-04-17 23:00","1953","04","17","23:00","-1.7","","-5.6","","72","","25","","11","","25.0","","98.83","","","","-6","","Clear"
"1953-04-18 00:00","1953","04","18","00:00","-2.8","","","","","","23","","13","","25.0","","98.94","","","","-7","","Clear"
"1953-04-18 01:00","1953","04","18","01:00","-2.2","","","","","","23","","18","","25.0","","98.93","","","","-8","","Clear"
"1953-04-18 02:00","1953","04","18","02:00","-3.3","","-5.6","","82","","25","","11","","25.0","","98.90","","","","-8","","Clear"
"1953-04-18 03:00","1953","04","18","03:00","-3.3","","-5.6","","83","","25","","8","","25.0","","98.91","","","","-7","","Clear"
"1953-04-18 04:00","1953","04","18","04:00","-3.9","","-6.1","","83","","25","","16","","25.0","","98.91","","","","-9","","Clear"
"1953-04-18 05:00","1953","04","18","05:00","-4.4","","-6.1","","86","","25","","14","","25.0","","98.90","","","","-10","","Clear"
"1953-04-18 06:00","1953","04","18","06:00","-3.3","","-5.6","","83","","25","","8","","25.0","","98.88","","","","-7","","Clear"
"1953-04-18 07:00","1953","04","18","07:00","-1.1","","-5.0","","73","","25","","16","","25.0","","98.95","","","","-6","","Mainly Clear"
"1953-04-18 08:00","1953","04","18","08:00","1.7","","-3.9","","63","","25","","16","","25.0","","99.02","","","","","","Mainly Clear"
"1953-04-18 09:00","1953","04","18","09:00","3.3","","-5.6","","50","","27","","19","","25.0","","99.00","","","","","","Mainly Clear"
"1953-04-18 10:00","1953","04","18","10:00","3.9","","-6.7","","43","","25","","26","","25.0","","98.97","","","","","","Mostly Cloudy"
"1953-04-18 11:00","1953","04","18","11:00","4.4","","-5.0","","48","","27","","23","","25.0","","98.93","","","","","","Cloudy"
"1953-04-18 12:00","1953","04","18","12:00","5.0","","-5.0","","46","","29","","19","","25.0","","98.89","","","","","","Mostly Cloudy"
"1953-04-18 13:00","1953","04","18","13:00","5.6","","-6.1","","40","","27","","26","","25.0","","98.84","","","","","","Mostly Cloudy"
"1953-04-18 14:00","1953","04","18","14:00","5.0","","-6.1","","42","","29","","16","","25.0","","98.80","","","","","","Cloudy"
"1953-04-18 15:00","1953","04","18","15:00","5.6","","-5.0","","44","","27","","19","","25.0","","98.79","","","","","","Cloudy"
"1953-04-18 16:00","1953","04","18","16:00","5.0","","-4.4","","50","","29","","13","","25.0","","98.79","","","","","","Mostly Cloudy"
"1953-04-18 17:00","1953","04","18","17:00","5.0","","-4.4","","49","","29","","14","","25.0","","98.79","","","","","","Mostly Cloudy"
"1953-04-18 18:00","1953","04","18","18:00","5.0","","-4.4","","49","","2","","24","","25.0","","98.87","","","","","","Mostly Cloudy"
"1953-04-18 19:00","1953","04","18","19:00","2.2","","-1.1","","76","","2","","14","","25.0","","98.90","","","","","","Mostly Cloudy"
"1953-04-18 20:00","1953","04","18","20:00","1.1","","-2.8","","73","","2","","11","","25.0","","98.95","","","","","","Mainly Clear"
"1953-04-18 21:00","1953","04","18","21:00","1.1","","-2.2","","75","","36","","8","","25.0","","98.95","","","","","","Mainly Clear"
"1953-04-18 22:00","1953","04","18","22:00","0.0","","-1.1","","88","","36","","8","","25.0","","98.95","","","","-3","","Mainly Clear"
"1953-04-18 23:00","1953","04","18","23:00","-1.1","","-3.9","","78","","34","","8","","25.0","","98.95","","","","-4","","Mainly Clear"
"1953-04-19 00:00","1953","04","19","00:00","-0.6","","-4.4","","73","","34","","10","","25.0","","98.95","","","","-4","","Mainly Clear"
"1953-04-19 01:00","1953","04","19","01:00","0.0","","-4.4","","70","","34","","10","","25.0","","98.96","","","","-3","","Mostly Cloudy"
"1953-04-19 02:00","1953","04","19","02:00","0.0","","-3.9","","72","","34","","13","","25.0","","98.96","","","","-4","","Cloudy"
"1953-04-19 03:00","1953","04","19","03:00","0.0","","-3.9","","73","","36","","10","","25.0","","98.94","","","","-3","","Cloudy"
"1953-04-19 04:00","1953","04","19","04:00","0.0","","-3.9","","75","","34","","10","","25.0","","98.95","","","","-3","","Cloudy"
"1953-04-19 05:00","1953","04","19","05:00","-0.6","","-3.9","","75","","32","","6","","25.0","","98.97","","","","-3","","Mainly Clear"
"1953-04-19 06:00","1953","04","19","06:00","-1.7","","-5.0","","78","","32","","8","","25.0","","98.98","","","","-5","","Mainly Clear"
"1953-04-19 07:00","1953","04","19","07:00","0.0","","-5.6","","65","","36","","8","","25.0","","98.98","","","","-3","","Mainly Clear"
"1953-04-19 08:00","1953","04","19","08:00","2.2","","-5.0","","56","","5","","6","","25.0","","98.96","","","","","","Mainly Clear"
"1953-04-19 09:00","1953","04","19","09:00","3.3","","-5.6","","50","","18","","10","","25.0","","98.94","","","","","","Mainly Clear"
"1953-04-19 10:00","1953","04","19","10:00","4.4","","-6.1","","45","","20","","6","","25.0","","98.90","","","","","","Mostly Cloudy"
"1953-04-19 11:00","1953","04","19","11:00","5.6","","-4.4","","47","","18","","8","","25.0","","98.84","","","","","","Mostly Cloudy"
"1953-04-19 12:00","1953","04","19","12:00","3.9","","-3.9","","55","","18","","19","","25.0","","98.75","","","","","","Mostly Cloudy"
"1953-04-19 13:00","1953","04","19","13:00","4.4","","-3.9","","52","","18","","16","","25.0","","98.71","","","","","","Mostly Cloudy"
"1953-04-19 14:00","1953","04","19","14:00","4.4","","-3.9","","52","","18","","16","","19.3","","98.69","","","","","","Cloudy"
"1953-04-19 15:00","1953","04","19","15:00","3.9","","-2.8","","59","","18","","16","","1.6","","98.65","","","","","","Snow Showers"
"1953-04-19 16:00","1953","04","19","16:00","2.8","","0.6","","85","","20","","18","","16.1","","98.70","","","","","","Snow Showers"
"1953-04-19 17:00","1953","04","19","17:00","2.2","","0.0","","85","","23","","8","","12.9","","98.74","","","","","","Snow Showers"
"1953-04-19 18:00","1953","04","19","18:00","2.2","","0.0","","86","","23","","8","","12.9","","98.76","","","","","","Snow Showers"
"1953-04-19 19:00","1953","04","19","19:00","1.7","","-1.7","","77","","","","0","","12.9","","98.76","","","","","","Snow Showers"
"1953-04-19 20:00","1953","04","19","20:00","1.1","","0.0","","90","","32","","8","","12.9","","98.74","","","","","","Cloudy"
"1953-04-19 21:00","1953","04","19","21:00","1.1","","-0.6","","88","","32","","6","","16.1","","98.66","","","","","","Cloudy"
"1953-04-19 22:00","1953","04","19","22:00","1.1","","-1.1","","86","","32","","11","","25.0","","98.57","","","","","","Cloudy"
"1953-04-19 23:00","1953","04","19","23:00","0.6","","-1.7","","85","","32","","10","","25.0","","98.52","","","","","","Cloudy"
"1953-04-20 00:00","1953","04","20","00:00","0.6","","-2.2","","82","","34","","14","","25.0","","98.51","","","","","","Cloudy"
"1953-04-20 01:00","1953","04","20","01:00","0.6","","-1.7","","84","","32","","11","","25.0","","98.47","","","","","","Snow Showers"
"1953-04-20 02:00","1953","04","20","02:00","0.6","","-1.7","","86","","32","","11","","25.0","","98.43","","","","","","Mostly Cloudy"
"1953-04-20 03:00","1953","04","20","03:00","0.0","","-1.1","","91","","29","","13","","25.0","","98.38","","","","-4","","Cloudy"
"1953-04-20 04:00","1953","04","20","04:00","0.6","","-2.2","","79","","32","","16","","25.0","","98.34","","","","","","Cloudy"
"1953-04-20 05:00","1953","04","20","05:00","0.6","","-2.8","","77","","32","","19","","25.0","","98.31","","","","","","Cloudy"
"1953-04-20 06:00","1953","04","20","06:00","0.6","","-2.8","","77","","32","","19","","25.0","","98.29","","","","","","Cloudy"
"1953-04-20 07:00","1953","04","20","07:00","1.7","","-1.7","","77","","32","","23","","25.0","","98.28","","","","","","Cloudy"
"1953-04-20 08:00","1953","04","20","08:00","3.3","","-0.6","","75","","32","","34","","25.0","","98.23","","","","","","Cloudy"
"1953-04-20 09:00","1953","04","20","09:00","4.4","","-1.7","","63","","34","","32","","25.0","","98.22","","","","","","Cloudy"
"1953-04-20 10:00","1953","04","20","10:00","5.6","","-1.7","","59","","32","","32","","25.0","","98.22","","","","","","Cloudy"
"1953-04-20 11:00","1953","04","20","11:00","6.1","","-4.4","","47","","32","","37","","25.0","","98.20","","","","","","Cloudy"
"1953-04-20 12:00","1953","04","20","12:00","6.7","","-2.8","","48","","32","","39","","25.0","","98.15","","","","","","Mostly Cloudy"
"1953-04-20 13:00","1953","04","20","13:00","6.7","","-2.8","","48","","34","","34","","25.0","","98.14","","","","","","Cloudy"
"1953-04-20 14:00","1953","04","20","14:00","6.7","","-2.2","","52","","34","","27","","25.0","","98.15","","","","","","Cloudy"
"1953-04-20 15:00","1953","04","20","15:00","6.1","","-2.2","","54","","34","","26","","25.0","","98.16","","","","","","Cloudy"
"1953-04-20 16:00","1953","04","20","16:00","5.6","","-2.8","","54","","32","","39","","25.0","","98.20","","","","","","Cloudy"
"1953-04-20 17:00","1953","04","20","17:00","3.9","","-2.2","","62","","29","","47","","25.0","","98.26","","","","","","Mostly Cloudy"
"1953-04-20 18:00","1953","04","20","18:00","1.7","","-3.3","","55","","29","","40","","25.0","","98.37","","","","","","Cloudy"
"1953-04-20 19:00","1953","04","20","19:00","0.6","","-3.9","","70","","29","","40","","25.0","","98.36","","","","","","Mostly Cloudy"
"1953-04-20 20:00","1953","04","20","20:00","0.0","","-2.8","","78","","29","","34","","25.0","","98.41","","","","-7","","Mainly Clear"
"1953-04-20 21:00","1953","04","20","21:00","-0.6","","-2.8","","87","","29","","29","","25.0","","98.42","","","","-7","","Mainly Clear"
"1953-04-20 22:00","1953","04","20","22:00","-0.6","","-2.8","","87","","29","","27","","25.0","","98.41","","","","-7","","Mainly Clear"
"1953-04-20 23:00","1953","04","20","23:00","0.0","","-2.8","","78","","29","","26","","25.0","","98.40","","","","-6","","Mainly Clear"
"1953-04-21 00:00","1953","04","21","00:00","0.0","","-3.9","","75","","29","","24","","25.0","","98.40","","","","-6","","Clear"
"1953-04-21 01:00","1953","04","21","01:00","0.0","","-3.9","","76","","29","","26","","25.0","","98.37","","","","-6","","Clear"
"1953-04-21 02:00","1953","04","21","02:00","-0.6","","-2.8","","83","","27","","23","","25.0","","98.36","","","","-6","","Clear"
"1953-04-21 03:00","1953","04","21","03:00","-0.6","","-2.8","","83","","29","","18","","25.0","","98.39","","","","-6","","Clear"
"1953-04-21 04:00","1953","04","21","04:00","-0.6","","-3.3","","79","","29","","19","","25.0","","98.42","","","","-6","","Clear"
"1953-04-21 05:00","1953","04","21","05:00","-1.1","","-3.3","","82","","27","","21","","25.0","","98.48","","","","-7","","Mainly Clear"
"1953-04-21 06:00","1953","04","21","06:00","0.6","","-2.8","","76","","27","","26","","25.0","","98.57","","","","","","Mainly Clear"
"1953-04-21 07:00","1953","04","21","07:00","1.7","","-3.3","","67","","29","","39","","25.0","","98.62","","","","","","Mainly Clear"
"1953-04-21 08:00","1953","04","21","08:00","3.3","","-2.8","","62","","29","","45","","25.0","","98.66","","","","","","Mainly Clear"
"1953-04-21 09:00","1953","04","21","09:00","5.0","","-2.8","","58","","29","","45","","25.0","","98.71","","","","","","Mainly Clear"
"1953-04-21 10:00","1953","04","21","10:00","5.6","","0.6","","69","","29","","48","","25.0","","98.76","","","","","","Mostly Cloudy"
"1953-04-21 11:00","1953","04","21","11:00","6.1","","-2.8","","52","","29","","48","","25.0","","98.78","","","","","","Cloudy"
"1953-04-21 12:00","1953","04","21","12:00","6.7","","-2.8","","48","","29","","43","","25.0","","98.79","","","","","","Cloudy"
"1953-04-21 13:00","1953","04","21","13:00","7.8","","-2.2","","47","","27","","42","","25.0","","98.79","","","","","","Mostly Cloudy"
"1953-04-21 14:00","1953","04","21","14:00","9.4","","-2.2","","41","","29","","42","","25.0","","98.76","","","","","","Mainly Clear"
"1953-04-21 15:00","1953","04","21","15:00","10.6","","-3.3","","35","","29","","42","","25.0","","98.74","","","","","","Mainly Clear"
"1953-04-21 16:00","1953","04","21","16:00","10.6","","-3.9","","35","","27","","43","","25.0","","98.76","","","","","","Mostly Cloudy"
"1953-04-21 17:00","1953","04","21","17:00","10.0","","-4.4","","35","","27","","45","","25.0","","98.77","","","","","","Mostly Cloudy"
"1953-04-21 18:00","1953","04","21","18:00","10.0","","-3.3","","38","","27","","35","","25.0","","98.77","","","","","","Mostly Cloudy"
"1953-04-21 19:00","1953","04","21","19:00","7.2","","-2.2","","49","","27","","16","","25.0","","98.79","","","","","","Mainly Clear"
"1953-04-21 20:00","1953","04","21","20:00","5.6","","-0.6","","65","","23","","21","","25.0","","98.83","","","","","","Mainly Clear"
"1953-04-21 21:00","1953","04","21","21:00","4.4","","-0.6","","69","","23","","16","","25.0","","98.84","","","","","","Clear"
"1953-04-21 22:00","1953","04","21","22:00","3.9","","-0.6","","70","","23","","11","","25.0","","98.83","","","","","","Clear"
"1953-04-21 23:00","1953","04","21","23:00","2.8","","-0.6","","78","","23","","6","","25.0","","98.80","","","","","","Clear"
"1953-04-22 00:00","1953","04","22","00:00","2.2","","-1.1","","77","","27","","13","","25.0","","98.75","","","","","","Clear"
"1953-04-22 01:00","1953","04","22","01:00","2.8","","-1.1","","74","","27","","13","","25.0","","98.76","","","","","","Clear"
"1953-04-22 02:00","1953","04","22","02:00","2.2","","-1.7","","74","","25","","16","","25.0","","98.75","","","","","","Clear"
"1953-04-22 03:00","1953","04","22","03:00","1.7","","-2.2","","74","","25","","16","","25.0","","98.74","","","","","","Clear"
"1953-04-22 04:00","1953","04","22","04:00","1.1","","-2.2","","78","","25","","14","","25.0","","98.74","","","","","","Clear"
"1953-04-22 05:00","1953","04","22","05:00","1.1","","-2.2","","76","","25","","16","","16.1","","98.70","","","","","","Mainly Clear"
"1953-04-22 06:00","1953","04","22","06:00","2.8","","-0.6","","77","","23","","13","","11.3","","98.73","","","","","","Mostly Cloudy"
"1953-04-22 07:00","1953","04","22","07:00","5.6","","-0.6","","66","","25","","26","","11.3","","98.70","","","","","","Cloudy"
"1953-04-22 08:00","1953","04","22","08:00","8.3","","2.2","","66","","23","","14","","11.3","","98.67","","","","","","Cloudy"
"1953-04-22 09:00","1953","04","22","09:00","11.1","","2.2","","54","","23","","32","","11.3","","98.59","","","","","","Cloudy"
"1953-04-22 10:00","1953","04","22","10:00","12.8","","2.8","","50","","20","","35","","12.9","","98.47","","","","","","Cloudy"
"1953-04-22 11:00","1953","04","22","11:00","13.3","","3.9","","52","","20","","32","","8.0","","98.34","","","","","","Haze"
"1953-04-22 12:00","1953","04","22","12:00","12.8","","2.8","","51","","20","","35","","9.7","","98.24","","","","","","Rain Showers,Haze"
"1953-04-22 13:00","1953","04","22","13:00","10.0","","6.7","","80","","23","","35","","9.7","","98.19","","","","","","Rain,Haze"
"1953-04-22 14:00","1953","04","22","14:00","10.6","","7.2","","81","","20","","32","","12.9","","97.91","","","","","","Mostly Cloudy"
"1953-04-22 15:00","1953","04","22","15:00","14.4","","7.8","","63","","20","","40","","12.9","","97.74","","","","","","Mostly Cloudy"
"1953-04-22 16:00","1953","04","22","16:00","17.2","","6.1","","48","","23","","48","","16.1","","97.58","","","","","","Mostly Cloudy"
"1953-04-22 17:00","1953","04","22","17:00","16.1","","6.1","","52","","23","","58","","16.1","","97.51","","","","","","Mostly Cloudy"
"1953-04-22 18:00","1953","04","22","18:00","15.0","","7.2","","58","","23","","39","","16.1","","97.49","","","","","","Mostly Cloudy"
"1953-04-22 19:00","1953","04","22","19:00","13.3","","6.7","","64","","23","","42","","16.1","","97.51","","","","","","Mostly Cloudy"
"1953-04-22 20:00","1953","04","22","20:00","13.3","","7.8","","68","","23","","39","","16.1","","97.49","","","","","","Mainly Clear"
"1953-04-22 21:00","1953","04","22","21:00","13.9","","7.2","","71","","23","","27","","19.3","","97.40","","","","","","Mainly Clear"
"1953-04-22 22:00","1953","04","22","22:00","13.3","","8.3","","71","","23","","26","","19.3","","97.38","","","","","","Mostly Cloudy"
"1953-04-22 23:00","1953","04","22","23:00","12.8","","7.2","","71","","32","","26","","19.3","","97.59","","","","","","Mostly Cloudy"
"1953-04-23 00:00","1953","04","23","00:00","10.6","","7.2","","82","","29","","14","","24.1","","97.74","","","","","","Mainly Clear"
"1953-04-23 01:00","1953","04","23","01:00","9.4","","5.6","","78","","27","","19","","25.0","","97.75","","","","","","Clear"
"1953-04-23 02:00","1953","04","23","02:00","8.9","","5.6","","79","","27","","32","","25.0","","97.79","","","","","","Clear"
"1953-04-23 03:00","1953","04","23","03:00","7.8","","4.4","","79","","27","","35","","25.0","","97.81","","","","","","Clear"
"1953-04-23 04:00","1953","04","23","04:00","7.2","","3.3","","77","","27","","40","","25.0","","97.89","","","","","","Clear"
"1953-04-23 05:00","1953","04","23","05:00","7.2","","2.2","","72","","27","","47","","25.0","","97.95","","","","","","Clear"
"1953-04-23 06:00","1953","04","23","06:00","7.2","","2.2","","71","","27","","40","","25.0","","98.07","","","","","","Clear"
"1953-04-23 07:00","1953","04","23","07:00","8.9","","2.8","","65","","27","","45","","25.0","","98.14","","","","","","Clear"
"1953-04-23 08:00","1953","04","23","08:00","11.1","","2.8","","56","","29","","43","","25.0","","98.21","","","","","","Clear"
"1953-04-23 09:00","1953","04","23","09:00","13.3","","2.2","","45","","29","","51","","25.0","","98.24","","","","","","Clear"
"1953-04-23 10:00","1953","04","23","10:00","14.4","","2.2","","44","","29","","53","","25.0","","98.31","","","","","","Mainly Clear"
"1953-04-23 11:00","1953","04","23","11:00","15.6","","0.6","","37","","29","","53","","25.0","","98.34","","","","","","Mainly Clear"
"1953-04-23 12:00","1953","04","23","12:00","16.1","","1.7","","37","","29","","48","","25.0","","98.36","","","","","","Mostly Cloudy"
"1953-04-23 13:00","1953","04","23","13:00","15.6","","-1.1","","33","","29","","53","","25.0","","98.40","","","","","","Mostly Cloudy"
"1953-04-23 14:00","1953","04","23","14:00","15.6","","0.0","","34","","29","","42","","25.0","","98.45","","","","","","Mostly Cloudy"
"1953-04-23 15:00","1953","04","23","15:00","16.7","","0.0","","32","","29","","42","","25.0","","98.40","","","","","","Mostly Cloudy"
"1953-04-23 16:00","1953","04","23","16:00","16.1","","0.6","","35","","29","","40","","25.0","","98.39","","","","","","Mostly Cloudy"
"1953-04-23 17:00","1953","04","23","17:00","16.1","","0.6","","35","","29","","39","","24.1","","98.39","","","","","","Mostly Cloudy"
"1953-04-23 18:00","1953","04","23","18:00","15.6","","0.0","","34","","32","","27","","19.3","","98.40","","","","","","Mostly Cloudy"
"1953-04-23 19:00","1953","04","23","19:00","12.8","","0.6","","43","","36","","32","","25.0","","98.53","","","","","","Mostly Cloudy"
"1953-04-23 20:00","1953","04","23","20:00","10.6","","2.2","","57","","34","","18","","25.0","","98.72","","","","","","Mainly Clear"
"1953-04-23 21:00","1953","04","23","21:00","8.9","","0.6","","57","","32","","29","","25.0","","98.81","","","","","","Clear"
"1953-04-23 22:00","1953","04","23","22:00","7.2","","1.7","","66","","32","","29","","25.0","","98.87","","","","","","Clear"
"1953-04-23 23:00","1953","04","23","23:00","6.1","","2.2","","77","","32","","29","","25.0","","98.96","","","","","","Clear"
"1953-04-24 00:00","1953","04","24","00:00","5.6","","2.2","","81","","32","","24","","25.0","","99.10","","","","","","Clear"
"1953-04-24 01:00","1953","04","24","01:00","4.4","","2.2","","85","","32","","18","","25.0","","99.18","","","","","","Clear"
"1953-04-24 02:00","1953","04","24","02:00","2.8","","1.7","","92","","29","","13","","25.0","","99.31","","","","","","Clear"
"1953-04-24 03:00","1953","04","24","03:00","2.2","","1.1","","90","","29","","13","","25.0","","99.44","","","","","","Clear"
"1953-04-24 04:00","1953","04","24","04:00","2.2","","0.0","","84","","36","","11","","25.0","","99.41","","","","","","Clear"
"1953-04-24 05:00","1953","04","24","05:00","0.0","","-0.6","","95","","27","","13","","25.0","","99.59","","","","-4","","Clear"
"1953-04-24 06:00","1953","04","24","06:00","1.7","","0.6","","92","","29","","8","","25.0","","99.69","","","","","","Mainly Clear"
"1953-04-24 07:00","1953","04","24","07:00","4.4","","2.8","","88","","32","","8","","25.0","","99.73","","","","","","Mainly Clear"
"1953-04-24 08:00","1953","04","24","08:00","7.8","","4.4","","79","","2","","8","","25.0","","99.64","","","","","","Mostly Cloudy"
"1953-04-24 09:00","1953","04","24","09:00","11.1","","2.2","","53","","16","","3","","25.0","","99.64","","","","","","Mainly Clear"
"1953-04-24 10:00","1953","04","24","10:00","12.8","","2.2","","50","","18","","5","","25.0","","99.63","","","","","","Mostly Cloudy"
"1953-04-24 11:00","1953","04","24","11:00","13.9","","4.4","","52","","18","","16","","25.0","","99.63","","","","","","Mostly Cloudy"
"1953-04-24 12:00","1953","04","24","12:00","13.3","","3.9","","52","","16","","23","","19.3","","99.57","","","","","","Cloudy"
"1953-04-24 13:00","1953","04","24","13:00","13.3","","3.9","","52","","16","","23","","16.1","","99.50","","","","","","Cloudy"
"1953-04-24 14:00","1953","04","24","14:00","13.9","","5.0","","54","","18","","26","","16.1","","99.48","","","","","","Cloudy"
"1953-04-24 15:00","1953","04","24","15:00","13.9","","5.6","","56","","16","","26","","16.1","","99.43","","","","","","Cloudy"
"1953-04-24 16:00","1953","04","24","16:00","13.3","","5.0","","57","","16","","23","","16.1","","99.40","","","","","","Cloudy"
"1953-04-24 17:00","1953","04","24","17:00","13.3","","5.0","","57","","18","","23","","24.1","","99.34","","","","","","Cloudy"
"1953-04-24 18:00","1953","04","24","18:00","12.8","","6.1","","59","","20","","13","","19.3","","99.28","","","","","","Cloudy"
"1953-04-24 19:00","1953","04","24","19:00","12.2","","5.0","","61","","18","","13","","16.1","","99.29","","","","","","Cloudy"
"1953-04-24 20:00","1953","04","24","20:00","11.7","","5.0","","63","","20","","6","","25.0","","99.24","","","","","","Cloudy"
"1953-04-24 21:00","1953","04","24","21:00","11.1","","5.6","","69","","20","","13","","12.9","","99.31","","","","","","Rain Showers"
"1953-04-24 22:00","1953","04","24","22:00","10.0","","5.6","","74","","16","","13","","24.1","","99.25","","","","","","Rain"
"1953-04-24 23:00","1953","04","24","23:00","10.0","","6.7","","80","","18","","6","","19.3","","99.24","","","","","","Rain"
"1953-04-25 00:00","1953","04","25","00:00","8.9","","6.7","","87","","7","","5","","16.1","","99.19","","","","","","Rain"
"1953-04-25 01:00","1953","04","25","01:00","8.3","","7.2","","91","","11","","8","","12.9","","99.11","","","","","","Rain"
"1953-04-25 02:00","1953","04","25","02:00","7.2","","6.1","","92","","7","","11","","12.9","","99.01","","","","","","Rain"
"1953-04-25 03:00","1953","04","25","03:00","7.8","","6.7","","93","","7","","13","","12.9","","98.93","","","","","","Cloudy"
"1953-04-25 04:00","1953","04","25","04:00","7.8","","6.7","","91","","7","","14","","16.1","","98.83","","","","","","Cloudy"
"1953-04-25 05:00","1953","04","25","05:00","6.7","","5.6","","93","","7","","8","","6.4","","98.88","","","","","","Rain,Fog"
"1953-04-25 06:00","1953","04","25","06:00","6.1","","5.6","","97","","7","","19","","4.8","","98.73","","","","","","Moderate Rain,Fog"
"1953-04-25 07:00","1953","04","25","07:00","6.7","","6.1","","95","","7","","16","","9.7","","98.66","","","","","","Moderate Rain,Fog"
"1953-04-25 08:00","1953","04","25","08:00","7.8","","7.2","","98","","7","","18","","6.4","","98.58","","","","","","Rain,Fog"
"1953-04-25 09:00","1953","04","25","09:00","7.2","","6.7","","98","","9","","23","","6.4","","98.52","","","","","","Rain,Fog"
"1953-04-25 10:00","1953","04","25","10:00","7.2","","7.2","","99","","9","","18","","4.0","","98.48","","","","","","Rain,Fog"
"1953-04-25 11:00","1953","04","25","11:00","7.2","","7.2","","99","","7","","16","","4.0","","98.51","","","","","","Drizzle,Fog"
"1953-04-25 12:00","1953","04","25","12:00","7.8","","7.8","","99","","7","","19","","4.0","","98.42","","","","","","Fog"
"1953-04-25 13:00","1953","04","25","13:00","8.3","","7.8","","97","","9","","16","","2.4","","98.40","","","","","","Rain,Fog"
"1953-04-25 14:00","1953","04","25","14:00","8.3","","8.3","","99","","9","","14","","2.0","","98.33","","","","","","Rain,Fog"
"1953-04-25 15:00","1953","04","25","15:00","8.9","","8.9","","98","","9","","16","","4.8","","98.34","","","","","","Fog"
"1953-04-25 16:00","1953","04","25","16:00","8.9","","8.9","","98","","9","","10","","1.6","","98.31","","","","","","Fog"
"1953-04-25 17:00","1953","04","25","17:00","8.9","","8.9","","98","","11","","8","","2.4","","98.37","","","","","","Fog"
"1953-04-25 18:00","1953","04","25","18:00","8.9","","8.3","","96","","9","","13","","2.4","","98.39","","","","","","Drizzle,Fog"
"1953-04-25 19:00","1953","04","25","19:00","8.3","","7.8","","96","","11","","13","","2.4","","98.43","","","","","","Drizzle,Fog"
"1953-04-25 20:00","1953","04","25","20:00","8.3","","8.3","","98","","11","","16","","2.4","","98.43","","","","","","Moderate Drizzle,Fog"
"1953-04-25 21:00","1953","04","25","21:00","8.3","","8.3","","99","","9","","16","","1.2","","98.45","","","","","","Moderate Drizzle,Fog"
"1953-04-25 22:00","1953","04","25","22:00","7.8","","7.8","","99","","7","","19","","1.2","","98.40","","","","","","Moderate Drizzle,Fog"
"1953-04-25 23:00","1953","04","25","23:00","7.2","","7.2","","100","","9","","24","","2.0","","98.34","","","","","","Drizzle,Fog"
"1953-04-26 00:00","1953","04","26","00:00","7.2","","7.2","","100","","7","","14","","2.0","","98.29","","","","","","Drizzle,Fog"
"1953-04-26 01:00","1953","04","26","01:00","7.2","","7.2","","100","","7","","19","","2.0","","98.19","","","","","","Drizzle,Fog"
"1953-04-26 02:00","1953","04","26","02:00","6.7","","6.7","","100","","2","","13","","4.8","","98.21","","","","","","Thunderstorms,Moderate Rain,Fog"
"1953-04-26 03:00","1953","04","26","03:00","7.2","","7.2","","100","","7","","11","","4.8","","98.18","","","","","","Rain,Fog"
"1953-04-26 04:00","1953","04","26","04:00","7.2","","7.2","","100","","11","","19","","16.1","","98.08","","","","","","Cloudy"
"1953-04-26 05:00","1953","04","26","05:00","7.2","","7.2","","100","","20","","8","","2.4","","98.18","","","","","","Rain,Fog"
"1953-04-26 06:00","1953","04","26","06:00","7.2","","7.2","","100","","11","","18","","2.4","","98.15","","","","","","Rain,Fog"
"1953-04-26 07:00","1953","04","26","07:00","7.2","","6.7","","97","","14","","13","","4.8","","98.22","","","","","","Fog"
"1953-04-26 08:00","1953","04","26","08:00","7.8","","7.2","","95","","11","","16","","24.1","","98.17","","","","","","Cloudy"
"1953-04-26 09:00","1953","04","26","09:00","7.2","","6.7","","94","","14","","19","","16.1","","98.15","","","","","","Cloudy"
"1953-04-26 10:00","1953","04","26","10:00","7.2","","6.7","","97","","11","","19","","8.0","","98.13","","","","","","Fog"
"1953-04-26 11:00","1953","04","26","11:00","7.8","","7.2","","96","","14","","10","","3.2","","98.12","","","","","","Fog"
"1953-04-26 12:00","1953","04","26","12:00","8.3","","7.2","","93","","9","","14","","4.8","","98.06","","","","","","Fog"
"1953-04-26 13:00","1953","04","26","13:00","8.9","","7.8","","92","","9","","10","","4.8","","98.01","","","","","","Fog"
"1953-04-26 14:00","1953","04","26","14:00","8.9","","7.8","","92","","20","","5","","3.2","","98.04","","","","","","Fog"
"1953-04-26 15:00","1953","04","26","15:00","8.9","","7.8","","96","","16","","16","","2.4","","98.03","","","","","","Rain Showers,Fog"
"1953-04-26 16:00","1953","04","26","16:00","7.8","","7.8","","99","","16","","14","","2.4","","98.07","","","","","","Rain,Fog"
"1953-04-26 17:00","1953","04","26","17:00","7.2","","7.2","","99","","18","","13","","2.0","","98.11","","","","","","Rain,Fog"
"1953-04-26 18:00","1953","04","26","18:00","6.7","","6.7","","100","","18","","8","","1.6","","98.13","","","","","","Fog"
"1953-04-26 19:00","1953","04","26","19:00","6.7","","6.7","","100","","16","","8","","0.2","","98.15","","","","","","Drizzle,Fog"
"1953-04-26 20:00","1953","04","26","20:00","6.7","","6.7","","99","","20","","11","","11.3","","98.14","","","","","","Mostly Cloudy"
"1953-04-26 21:00","1953","04","26","21:00","5.6","","5.0","","95","","25","","3","","0.8","","98.00","","","","","","Fog"
"1953-04-26 22:00","1953","04","26","22:00","5.0","","5.0","","99","","18","","8","","19.3","","98.04","","","","","","Cloudy"
"1953-04-26 23:00","1953","04","26","23:00","5.6","","5.6","","99","","20","","11","","4.8","","98.03","","","","","","Fog"
"1953-04-27 00:00","1953","04","27","00:00","5.6","","5.0","","98","","20","","14","","25.0","","98.03","","","","","","Cloudy"
"1953-04-27 01:00","1953","04","27","01:00","6.7","","5.6","","92","","20","","18","","25.0","","98.03","","","","","","Cloudy"
"1953-04-27 02:00","1953","04","27","02:00","5.6","","4.4","","92","","20","","24","","25.0","","97.97","","","","","","Rain Showers"
"1953-04-27 03:00","1953","04","27","03:00","5.6","","4.4","","91","","23","","23","","25.0","","97.92","","","","","","Mostly Cloudy"
"1953-04-27 04:00","1953","04","27","04:00","5.6","","4.4","","90","","23","","14","","25.0","","97.86","","","","","","Drizzle"
"1953-04-27 05:00","1953","04","27","05:00","4.4","","3.9","","95","","23","","14","","16.1","","97.84","","","","","","Mostly Cloudy"
"1953-04-27 06:00","1953","04","27","06:00","5.0","","4.4","","95","","20","","11","","16.1","","97.85","","","","","","Mostly Cloudy"
"1953-04-27 07:00","1953","04","27","07:00","6.1","","5.0","","94","","23","","18","","19.3","","97.85","","","","","","Mostly Cloudy"
"1953-04-27 08:00","1953","04","27","08:00","6.7","","5.6","","93","","20","","13","","19.3","","97.87","","","","","","Rain Showers"
"1953-04-27 09:00","1953","04","27","09:00","6.7","","5.0","","91","","25","","14","","12.9","","97.90","","","","","","Rain Showers"
"1953-04-27 10:00","1953","04","27","10:00","7.2","","5.6","","91","","25","","21","","16.1","","97.91","","","","","","Rain Showers"
"1953-04-27 11:00","1953","04","27","11:00","6.7","","5.6","","92","","25","","32","","16.1","","97.92","","","","","","Rain Showers"
"1953-04-27 12:00","1953","04","27","12:00","6.7","","5.0","","89","","25","","32","","19.3","","97.92","","","","","","Rain Showers"
"1953-04-27 13:00","1953","04","27","13:00","7.2","","5.6","","88","","25","","37","","19.3","","97.92","","","","","","Rain Showers"
"1953-04-27 14:00","1953","04","27","14:00","6.7","","4.4","","85","","25","","39","","25.0","","97.96","","","","","","Cloudy"
"1953-04-27 15:00","1953","04","27","15:00","6.1","","4.4","","88","","25","","37","","19.3","","98.01","","","","","","Rain Showers"
"1953-04-27 16:00","1953","04","27","16:00","6.1","","4.4","","88","","25","","32","","25.0","","98.04","","","","","","Rain Showers"
"1953-04-27 17:00","1953","04","27","17:00","5.6","","3.3","","85","","29","","35","","25.0","","98.12","","","","","","Rain Showers"
"1953-04-27 18:00","1953","04","27","18:00","4.4","","2.8","","87","","27","","35","","24.1","","98.19","","","","","","Cloudy"
"1953-04-27 19:00","1953","04","27","19:00","4.4","","1.7","","83","","27","","35","","25.0","","98.27","","","","","","Cloudy"
"1953-04-27 20:00","1953","04","27","20:00","3.9","","2.8","","87","","27","","32","","25.0","","98.33","","","","","","Cloudy"
"1953-04-27 21:00","1953","04","27","21:00","3.9","","1.7","","87","","27","","32","","25.0","","98.41","","","","","","Cloudy"
"1953-04-27 22:00","1953","04","27","22:00","3.3","","1.1","","87","","27","","35","","25.0","","98.43","","","","","","Cloudy"
"1953-04-27 23:00","1953","04","27","23:00","3.3","","1.7","","89","","27","","32","","25.0","","98.44","","","","","","Rain Showers"
"1953-04-28 00:00","1953","04","28","00:00","2.8","","1.1","","89","","27","","31","","25.0","","98.47","","","","","","Cloudy"
"1953-04-28 01:00","1953","04","28","01:00","2.8","","1.1","","88","","27","","32","","25.0","","98.48","","","","","","Mostly Cloudy"
"1953-04-28 02:00","1953","04","28","02:00","2.8","","1.7","","90","","27","","27","","25.0","","98.49","","","","","","Mostly Cloudy"
"1953-04-28 03:00","1953","04","28","03:00","1.1","","-2.2","","76","","27","","27","","25.0","","98.55","","","","","","Mainly Clear"
"1953-04-28 04:00","1953","04","28","04:00","0.6","","-2.8","","84","","27","","32","","25.0","","98.56","","","","","","Mainly Clear"
"1953-04-28 05:00","1953","04","28","05:00","2.2","","0.0","","86","","29","","24","","25.0","","98.65","","","","","","Mostly Cloudy"
"1953-04-28 06:00","1953","04","28","06:00","2.8","","0.0","","83","","27","","34","","25.0","","98.73","","","","","","Mostly Cloudy"
"1953-04-28 07:00","1953","04","28","07:00","2.8","","0.6","","87","","27","","35","","25.0","","98.78","","","","","","Cloudy"
"1953-04-28 08:00","1953","04","28","08:00","3.9","","0.6","","79","","29","","35","","25.0","","98.83","","","","","","Cloudy"
"1953-04-28 09:00","1953","04","28","09:00","4.4","","0.6","","75","","32","","34","","25.0","","98.86","","","","","","Cloudy"
"1953-04-28 10:00","1953","04","28","10:00","4.4","","0.6","","75","","29","","42","","25.0","","98.89","","","","","","Cloudy"
"1953-04-28 11:00","1953","04","28","11:00","6.1","","1.1","","70","","29","","43","","25.0","","98.89","","","","","","Mostly Cloudy"
"1953-04-28 12:00","1953","04","28","12:00","7.2","","1.7","","67","","29","","37","","25.0","","98.91","","","","","","Mostly Cloudy"
"1953-04-28 13:00","1953","04","28","13:00","8.3","","2.8","","69","","29","","45","","25.0","","98.93","","","","","","Mostly Cloudy"
"1953-04-28 14:00","1953","04","28","14:00","7.8","","2.2","","67","","29","","43","","25.0","","98.96","","","","","","Mostly Cloudy"
"1953-04-28 15:00","1953","04","28","15:00","8.3","","2.2","","67","","29","","48","","25.0","","99.00","","","","","","Mostly Cloudy"
"1953-04-28 16:00","1953","04","28","16:00","7.8","","2.2","","70","","29","","43","","25.0","","99.02","","","","","","Mainly Clear"
"1953-04-28 17:00","1953","04","28","17:00","7.2","","2.8","","76","","32","","35","","25.0","","99.07","","","","","","Mainly Clear"
"1953-04-28 18:00","1953","04","28","18:00","6.7","","3.3","","80","","29","","35","","25.0","","99.12","","","","","","Mainly Clear"
"1953-04-28 19:00","1953","04","28","19:00","5.6","","3.3","","86","","29","","24","","25.0","","99.17","","","","","","Clear"
"1953-04-28 20:00","1953","04","28","20:00","3.3","","1.1","","89","","29","","16","","25.0","","99.30","","","","","","Mainly Clear"
"1953-04-28 21:00","1953","04","28","21:00","2.2","","1.1","","90","","29","","19","","25.0","","99.35","","","","","","Cloudy"
"1953-04-28 22:00","1953","04","28","22:00","2.2","","0.0","","88","","27","","18","","25.0","","99.35","","","","","","Cloudy"
"1953-04-28 23:00","1953","04","28","23:00","2.2","","1.7","","95","","27","","13","","25.0","","99.39","","","","","","Mainly Clear"
"1953-04-29 00:00","1953","04","29","00:00","2.2","","1.7","","86","","27","","8","","25.0","","99.40","","","","","","Clear"
"1953-04-29 01:00","1953","04","29","01:00","1.1","","-1.1","","85","","29","","10","","25.0","","99.39","","","","","","Clear"
"1953-04-29 02:00","1953","04","29","02:00","0.0","","-1.1","","90","","29","","8","","25.0","","99.38","","","","-3","","Clear"
"1953-04-29 03:00","1953","04","29","03:00","0.0","","-1.1","","91","","32","","8","","25.0","","99.39","","","","-3","","Clear"
"1953-04-29 04:00","1953","04","29","04:00","0.6","","0.0","","95","","32","","11","","25.0","","99.39","","","","","","Mainly Clear"
"1953-04-29 05:00","1953","04","29","05:00","0.0","","-0.6","","93","","32","","8","","25.0","","99.48","","","","-3","","Mainly Clear"
"1953-04-29 06:00","1953","04","29","06:00","0.6","","-2.2","","81","","29","","8","","25.0","","99.48","","","","","","Mainly Clear"
"1953-04-29 07:00","1953","04","29","07:00","3.3","","0.6","","82","","29","","8","","25.0","","99.56","","","","","","Mainly Clear"
"1953-04-29 08:00","1953","04","29","08:00","6.1","","1.7","","73","","34","","16","","25.0","","99.66","","","","","","Mainly Clear"
"1953-04-29 09:00","1953","04","29","09:00","7.8","","2.2","","68","","34","","14","","25.0","","99.72","","","","","","Mostly Cloudy"
"1953-04-29 10:00","1953","04","29","10:00","9.4","","3.3","","67","","34","","16","","25.0","","99.72","","","","","","Mostly Cloudy"
"1953-04-29 11:00","1953","04","29","11:00","10.6","","4.4","","65","","36","","16","","25.0","","99.72","","","","","","Mostly Cloudy"
"1953-04-29 12:00","1953","04","29","12:00","11.7","","5.6","","65","","36","","13","","25.0","","99.63","","","","","","Cloudy"
"1953-04-29 13:00","1953","04","29","13:00","12.2","","6.1","","67","","36","","14","","25.0","","99.63","","","","","","Cloudy"
"1953-04-29 14:00","1953","04","29","14:00","12.2","","7.8","","76","","36","","16","","25.0","","99.59","","","","","","Mostly Cloudy"
"1953-04-29 15:00","1953","04","29","15:00","12.8","","9.4","","79","","36","","16","","25.0","","99.56","","","","","","Mostly Cloudy"
"1953-04-29 16:00","1953","04","29","16:00","12.8","","10.6","","88","","36","","13","","25.0","","99.60","","","","","","Mostly Cloudy"
"1953-04-29 17:00","1953","04","29","17:00","12.2","","10.6","","90","","5","","16","","25.0","","99.60","","","","","","Mostly Cloudy"
"1953-04-29 18:00","1953","04","29","18:00","11.7","","11.1","","97","","36","","11","","25.0","","99.63","","","","","","Mostly Cloudy"
"1953-04-29 19:00","1953","04","29","19:00","9.4","","0.0","","52","","2","","13","","25.0","","99.64","","","","","","Mostly Cloudy"
"1953-04-29 20:00","1953","04","29","20:00","7.2","","0.0","","62","","36","","14","","25.0","","99.69","","","","","","Mostly Cloudy"
"1953-04-29 21:00","1953","04","29","21:00","6.7","","-2.8","","54","","36","","16","","25.0","","99.67","","","","","","Cloudy"
"1953-04-29 22:00","1953","04","29","22:00","5.0","","-2.8","","58","","36","","13","","25.0","","99.63","","","","","","Cloudy"
"1953-04-29 23:00","1953","04","29","23:00","4.4","","-2.8","","58","","2","","14","","25.0","","99.59","","","","","","Cloudy"
"1953-04-30 00:00","1953","04","30","00:00","3.9","","-0.6","","73","","36","","14","","25.0","","99.64","","","","","","Cloudy"
"1953-04-30 01:00","1953","04","30","01:00","3.9","","0.0","","75","","36","","13","","25.0","","99.63","","","","","","Cloudy"
"1953-04-30 02:00","1953","04","30","02:00","4.4","","0.6","","77","","2","","10","","25.0","","99.67","","","","","","Cloudy"
"1953-04-30 03:00","1953","04","30","03:00","4.4","","1.1","","78","","5","","13","","25.0","","99.68","","","","","","Cloudy"
"1953-04-30 04:00","1953","04","30","04:00","5.6","","1.7","","75","","5","","16","","25.0","","99.63","","","","","","Cloudy"
"1953-04-30 05:00","1953","04","30","05:00","5.6","","1.1","","73","","7","","26","","25.0","","99.58","","","","","","Mostly Cloudy"
"1953-04-30 06:00","1953","04","30","06:00","5.6","","1.7","","70","","9","","29","","25.0","","99.58","","","","","","Mostly Cloudy"
"1953-04-30 07:00","1953","04","30","07:00","6.1","","1.1","","70","","7","","32","","25.0","","99.53","","","","","","Mostly Cloudy"
"1953-04-30 08:00","1953","04","30","08:00","7.8","","2.2","","69","","7","","32","","25.0","","99.53","","","","","","Mostly Cloudy"
"1953-04-30 09:00","1953","04","30","09:00","8.3","","1.7","","62","","9","","39","","25.0","","99.48","","","","","","Mostly Cloudy"
"1953-04-30 10:00","1953","04","30","10:00","8.3","","1.7","","62","","9","","39","","25.0","","99.39","","","","","","Mostly Cloudy"
"1953-04-30 11:00","1953","04","30","11:00","10.6","","2.8","","59","","9","","40","","25.0","","99.19","","","","","","Mostly Cloudy"
"1953-04-30 12:00","1953","04","30","12:00","11.1","","3.3","","60","","9","","42","","25.0","","99.13","","","","","","Mostly Cloudy"
"1953-04-30 13:00","1953","04","30","13:00","11.7","","2.8","","54","","9","","43","","25.0","","99.05","","","","","","Mostly Cloudy"
"1953-04-30 14:00","1953","04","30","14:00","11.7","","2.2","","53","","7","","40","","25.0","","98.90","","","","","","Cloudy"
"1953-04-30 15:00","1953","04","30","15:00","11.7","","2.8","","55","","7","","39","","25.0","","98.77","","","","","","Cloudy"
"1953-04-30 16:00","1953","04","30","16:00","11.7","","2.8","","56","","9","","39","","25.0","","98.67","","","","","","Cloudy"
"1953-04-30 17:00","1953","04","30","17:00","11.7","","2.2","","52","","7","","32","","25.0","","98.54","","","","","","Cloudy"
"1953-04-30 18:00","1953","04","30","18:00","11.7","","2.8","","55","","7","","32","","25.0","","98.47","","","","","","Rain"
"1953-04-30 19:00","1953","04","30","19:00","12.2","","5.0","","61","","7","","32","","24.1","","98.43","","","","","","Rain"
"1953-04-30 20:00","1953","04","30","20:00","10.0","","8.9","","92","","9","","21","","12.9","","98.51","","","","","","Rain"
"1953-04-30 21:00","1953","04","30","21:00","7.8","","6.7","","94","","7","","29","","8.0","","98.46","","","","","","Rain"
"1953-04-30 22:00","1953","04","30","22:00","7.2","","6.1","","93","","7","","26","","4.8","","98.41","","","","","","Moderate Rain"
"1953-04-30 23:00","1953","04","30","23:00","7.2","","6.7","","96","","7","","29","","4.8","","98.33","","","","","","Moderate Rain"
