"Station Name","TORONTO LESTER B. PEARSON INT'L A"
"Province","ONTARIO"
"Latitude","43.68"
"Longitude","-79.63"
"Elevation","173.40"
"Climate Identifier","6158733"
"WMO Identifier","71624"
"TC Identifier","YYZ"
"All times are specified in Local Standard Time (LST). Add 1 hour to adjust for Daylight Saving Time where and when it is observed."

"Legend"
"E","Estimated"
"M","Missing"
"NA","Not Available"

"Date/Time","Year","Month","Day","Time","Temp (°C)","Temp Flag","Dew Point Temp (°C)","Dew Point Temp Flag","Rel Hum (%)","Rel Hum Flag","Wind Dir (10s deg)","Wind Dir Flag","Wind Spd (km/h)","Wind Spd Flag","Visibility (km)","Visibility Flag","Stn Press (kPa)","Stn Press Flag","Hmdx","Hmdx Flag","Wind Chill","Wind Chill Flag","Weather"
"1978-09-01 00:00","1978","09","01","00:00","12.6","","9.3","","80","","34","","2","","25.0","","99.99","","","","","","Mainly Clear"
"1978-09-01 01:00","1978","09","01","01:00","11.1","","8.4","","83","","32","","9","","25.0","","99.99","","","","","","Mainly Clear"
"1978-09-01 02:00","1978","09","01","02:00","10.9","","8.4","","85","","33","","11","","25.0","","99.99","","","","","","Mainly Clear"
"1978-09-01 03:00","1978","09","01","03:00","10.4","","8.3","","87","","34","","11","","25.0","","100.02","","","","","","Clear"
"1978-09-01 04:00","1978","09","01","04:00","10.5","","8.3","","86","","35","","7","","25.0","","100.06","","","","","","Clear"
"1978-09-01 05:00","1978","09","01","05:00","9.5","","7.5","","87","","34","","6","","25.0","","100.06","","","","","","Clear"
"1978-09-01 06:00","1978","09","01","06:00","9.4","","8.0","","91","","34","","7","","40.2","","100.16","","","","","","Mainly Clear"
"1978-09-01 07:00","1978","09","01","07:00","12.1","","10.2","","88","","34","","7","","40.2","","100.16","","","","","","Mainly Clear"
"1978-09-01 08:00","1978","09","01","08:00","15.0","","12.0","","82","","35","","11","","40.2","","100.19","","","","","","Mainly Clear"
"1978-09-01 09:00","1978","09","01","09:00","18.2","","11.7","","66","","36","","7","","40.2","","100.26","","","","","","Mainly Clear"
"1978-09-01 10:00","1978","09","01","10:00","19.5","","11.2","","59","","30","","6","","40.2","","100.26","","","","","","Mainly Clear"
"1978-09-01 11:00","1978","09","01","11:00","20.8","","11.4","","55","","","","0","","40.2","","100.29","","","","","","Mainly Clear"
"1978-09-01 12:00","1978","09","01","12:00","22.6","","9.2","","43","","31","","6","","40.2","","100.22","","","","","","Mainly Clear"
"1978-09-01 13:00","1978","09","01","13:00","23.0","","10.3","","45","","3","","2","","40.2","","100.19","","","","","","Mainly Clear"
"1978-09-01 14:00","1978","09","01","14:00","22.6","","12.1","","52","","2","","11","","40.2","","100.19","","25","","","","Clear"
"1978-09-01 15:00","1978","09","01","15:00","23.0","","11.6","","49","","16","","9","","32.2","","100.09","","25","","","","Clear"
"1978-09-01 16:00","1978","09","01","16:00","23.5","","11.4","","47","","16","","11","","32.2","","100.06","","25","","","","Clear"
"1978-09-01 17:00","1978","09","01","17:00","23.5","","10.2","","43","","18","","11","","32.2","","100.06","","25","","","","Mainly Clear"
"1978-09-01 18:00","1978","09","01","18:00","22.0","","10.7","","49","","18","","9","","24.1","","100.06","","","","","","Mainly Clear"
"1978-09-01 19:00","1978","09","01","19:00","20.1","","11.4","","57","","17","","7","","24.1","","100.06","","","","","","Mainly Clear"
"1978-09-01 20:00","1978","09","01","20:00","18.0","","13.1","","73","","16","","7","","24.1","","100.06","","","","","","Mainly Clear"
"1978-09-01 21:00","1978","09","01","21:00","18.5","","13.7","","74","","17","","7","","24.1","","100.12","","","","","","Mainly Clear"
"1978-09-01 22:00","1978","09","01","22:00","16.5","","12.9","","79","","21","","6","","25.0","","100.16","","","","","","Clear"
"1978-09-01 23:00","1978","09","01","23:00","14.7","","11.1","","79","","24","","4","","25.0","","100.16","","","","","","Clear"
"1978-09-02 00:00","1978","09","02","00:00","13.6","","10.7","","83","","25","","4","","24.1","","100.16","","","","","","Clear"
"1978-09-02 01:00","1978","09","02","01:00","12.4","","10.8","","90","","26","","4","","19.3","","100.16","","","","","","Mainly Clear"
"1978-09-02 02:00","1978","09","02","02:00","12.5","","10.4","","87","","29","","4","","19.3","","100.09","","","","","","Mainly Clear"
"1978-09-02 03:00","1978","09","02","03:00","12.0","","10.2","","89","","16","","6","","19.3","","100.06","","","","","","Mainly Clear"
"1978-09-02 04:00","1978","09","02","04:00","13.8","","11.3","","85","","20","","6","","19.3","","100.02","","","","","","Mainly Clear"
"1978-09-02 05:00","1978","09","02","05:00","12.0","","10.2","","89","","25","","4","","19.3","","100.02","","","","","","Mainly Clear"
"1978-09-02 06:00","1978","09","02","06:00","13.0","","10.6","","85","","","","0","","16.1","","100.06","","","","","","Mostly Cloudy"
"1978-09-02 07:00","1978","09","02","07:00","14.1","","11.3","","83","","","","0","","24.1","","100.06","","","","","","Mostly Cloudy"
"1978-09-02 08:00","1978","09","02","08:00","17.8","","13.8","","77","","21","","7","","32.2","","100.06","","","","","","Mostly Cloudy"
"1978-09-02 09:00","1978","09","02","09:00","20.5","","12.4","","60","","22","","11","","32.2","","100.06","","","","","","Mostly Cloudy"
"1978-09-02 10:00","1978","09","02","10:00","23.0","","6.7","","35","","20","","13","","32.2","","99.99","","","","","","Mostly Cloudy"
"1978-09-02 11:00","1978","09","02","11:00","24.7","","10.2","","40","","25","","13","","32.2","","99.92","","26","","","","Mostly Cloudy"
"1978-09-02 12:00","1978","09","02","12:00","25.8","","11.5","","41","","24","","11","","32.2","","99.86","","28","","","","Mostly Cloudy"
"1978-09-02 13:00","1978","09","02","13:00","26.8","","11.6","","39","","23","","17","","32.2","","99.79","","29","","","","Mostly Cloudy"
"1978-09-02 14:00","1978","09","02","14:00","27.3","","12.0","","39","","22","","19","","32.2","","99.66","","30","","","","Mostly Cloudy"
"1978-09-02 15:00","1978","09","02","15:00","27.8","","10.8","","35","","23","","17","","32.2","","99.59","","29","","","","Mostly Cloudy"
"1978-09-02 16:00","1978","09","02","16:00","28.1","","10.8","","34","","19","","15","","32.2","","99.52","","30","","","","Mostly Cloudy"
"1978-09-02 17:00","1978","09","02","17:00","27.1","","10.7","","36","","20","","20","","32.2","","99.46","","29","","","","Mostly Cloudy"
"1978-09-02 18:00","1978","09","02","18:00","25.8","","11.0","","40","","21","","19","","32.2","","99.46","","28","","","","Mainly Clear"
"1978-09-02 19:00","1978","09","02","19:00","23.6","","10.2","","43","","19","","17","","40.2","","99.39","","25","","","","Clear"
"1978-09-02 20:00","1978","09","02","20:00","20.2","","9.8","","51","","24","","7","","25.0","","99.46","","","","","","Mainly Clear"
"1978-09-02 21:00","1978","09","02","21:00","18.5","","11.5","","64","","23","","9","","25.0","","99.42","","","","","","Mainly Clear"
"1978-09-02 22:00","1978","09","02","22:00","17.4","","10.3","","63","","24","","9","","25.0","","99.36","","","","","","Mainly Clear"
"1978-09-02 23:00","1978","09","02","23:00","19.0","","11.7","","63","","23","","15","","25.0","","99.32","","","","","","Mostly Cloudy"
"1978-09-03 00:00","1978","09","03","00:00","18.8","","12.8","","68","","20","","11","","25.0","","99.29","","","","","","Mostly Cloudy"
"1978-09-03 01:00","1978","09","03","01:00","17.8","","14.2","","80","","","","0","","12.9","","99.29","","","","","","Rain Showers"
"1978-09-03 02:00","1978","09","03","02:00","18.1","","14.5","","79","","21","","4","","12.9","","99.22","","","","","","Thunderstorms"
"1978-09-03 03:00","1978","09","03","03:00","17.7","","15.6","","87","","19","","4","","6.4","","99.09","","","","","","Fog"
"1978-09-03 04:00","1978","09","03","04:00","17.2","","16.1","","93","","14","","4","","4.8","","99.09","","","","","","Thunderstorms,Rain Showers,Fog"
"1978-09-03 05:00","1978","09","03","05:00","17.4","","16.6","","95","","14","","2","","6.4","","99.06","","","","","","Rain Showers,Fog"
"1978-09-03 06:00","1978","09","03","06:00","17.4","","16.3","","93","","18","","6","","2.0","","99.06","","","","","","Fog"
"1978-09-03 07:00","1978","09","03","07:00","17.5","","16.6","","95","","19","","6","","2.0","","99.06","","","","","","Fog"
"1978-09-03 08:00","1978","09","03","08:00","18.7","","17.3","","91","","23","","7","","4.8","","99.02","","","","","","Fog"
"1978-09-03 09:00","1978","09","03","09:00","20.6","","17.5","","82","","30","","7","","6.4","","99.06","","26","","","","Fog"
"1978-09-03 10:00","1978","09","03","10:00","22.3","","18.1","","77","","5","","4","","9.7","","99.06","","28","","","","Haze"
"1978-09-03 11:00","1978","09","03","11:00","24.1","","18.7","","72","","3","","13","","9.7","","99.06","","31","","","","Haze"
"1978-09-03 12:00","1978","09","03","12:00","24.6","","17.7","","66","","3","","11","","11.3","","99.06","","30","","","","Mostly Cloudy"
"1978-09-03 13:00","1978","09","03","13:00","23.4","","17.2","","68","","34","","15","","12.9","","99.06","","29","","","","Thunderstorms"
"1978-09-03 14:00","1978","09","03","14:00","25.3","","17.8","","63","","36","","15","","9.7","","99.06","","31","","","","Haze"
"1978-09-03 15:00","1978","09","03","15:00","25.0","","16.3","","58","","34","","22","","16.1","","99.02","","30","","","","Mainly Clear"
"1978-09-03 16:00","1978","09","03","16:00","23.8","","16.8","","65","","35","","28","","16.1","","99.06","","29","","","","Mainly Clear"
"1978-09-03 17:00","1978","09","03","17:00","20.1","","14.7","","71","","35","","30","","16.1","","99.19","","","","","","Mainly Clear"
"1978-09-03 18:00","1978","09","03","18:00","17.8","","14.2","","80","","33","","28","","19.3","","99.26","","","","","","Mainly Clear"
"1978-09-03 19:00","1978","09","03","19:00","16.0","","12.7","","81","","33","","26","","19.3","","99.36","","","","","","Mainly Clear"
"1978-09-03 20:00","1978","09","03","20:00","15.9","","12.3","","79","","34","","24","","25.0","","99.39","","","","","","Cloudy"
"1978-09-03 21:00","1978","09","03","21:00","15.2","","10.9","","75","","1","","26","","24.1","","99.46","","","","","","Mostly Cloudy"
"1978-09-03 22:00","1978","09","03","22:00","14.5","","10.3","","76","","36","","17","","25.0","","99.49","","","","","","Mostly Cloudy"
"1978-09-03 23:00","1978","09","03","23:00","14.2","","10.2","","77","","35","","19","","24.1","","99.56","","","","","","Mostly Cloudy"
"1978-09-04 00:00","1978","09","04","00:00","12.0","","9.5","","85","","35","","11","","24.1","","99.62","","","","","","Mainly Clear"
"1978-09-04 01:00","1978","09","04","01:00","10.2","","8.5","","89","","35","","11","","24.1","","99.62","","","","","","Clear"
"1978-09-04 02:00","1978","09","04","02:00","8.7","","7.4","","91","","33","","7","","24.1","","99.62","","","","","","Clear"
"1978-09-04 03:00","1978","09","04","03:00","7.9","","6.8","","93","","33","","9","","24.1","","99.66","","","","","","Clear"
"1978-09-04 04:00","1978","09","04","04:00","8.0","","6.8","","92","","33","","11","","19.3","","99.66","","","","","","Clear"
"1978-09-04 05:00","1978","09","04","05:00","8.4","","7.4","","93","","34","","13","","19.3","","99.69","","","","","","Clear"
"1978-09-04 06:00","1978","09","04","06:00","8.6","","7.0","","90","","34","","11","","24.1","","99.76","","","","","","Mainly Clear"
"1978-09-04 07:00","1978","09","04","07:00","10.0","","8.5","","90","","32","","9","","40.2","","99.79","","","","","","Mainly Clear"
"1978-09-04 08:00","1978","09","04","08:00","13.1","","10.2","","83","","35","","9","","40.2","","99.79","","","","","","Clear"
"1978-09-04 09:00","1978","09","04","09:00","15.9","","9.3","","65","","32","","13","","40.2","","99.79","","","","","","Clear"
"1978-09-04 10:00","1978","09","04","10:00","17.0","","7.6","","54","","34","","9","","40.2","","99.79","","","","","","Clear"
"1978-09-04 11:00","1978","09","04","11:00","19.5","","7.8","","47","","33","","11","","40.2","","99.79","","","","","","Clear"
"1978-09-04 12:00","1978","09","04","12:00","20.9","","6.6","","40","","36","","6","","40.2","","99.76","","","","","","Clear"
"1978-09-04 13:00","1978","09","04","13:00","22.0","","5.7","","35","","30","","7","","40.2","","99.69","","","","","","Clear"
"1978-09-04 14:00","1978","09","04","14:00","23.4","","7.4","","36","","33","","4","","40.2","","99.59","","","","","","Clear"
"1978-09-04 15:00","1978","09","04","15:00","24.0","","10.0","","41","","26","","6","","40.2","","99.52","","25","","","","Clear"
"1978-09-04 16:00","1978","09","04","16:00","24.9","","7.3","","33","","30","","17","","40.2","","99.49","","25","","","","Clear"
"1978-09-04 17:00","1978","09","04","17:00","25.0","","7.8","","33","","27","","13","","40.2","","99.49","","25","","","","Clear"
"1978-09-04 18:00","1978","09","04","18:00","23.6","","8.4","","38","","28","","19","","40.2","","99.46","","","","","","Mainly Clear"
"1978-09-04 19:00","1978","09","04","19:00","19.9","","11.8","","60","","29","","9","","40.2","","99.49","","","","","","Mainly Clear"
"1978-09-04 20:00","1978","09","04","20:00","20.6","","6.4","","40","","29","","13","","25.0","","99.59","","","","","","Mostly Cloudy"
"1978-09-04 21:00","1978","09","04","21:00","18.7","","12.2","","66","","24","","9","","25.0","","99.36","","","","","","Rain Showers"
"1978-09-04 22:00","1978","09","04","22:00","17.6","","11.8","","69","","26","","6","","25.0","","99.46","","","","","","Mostly Cloudy"
"1978-09-04 23:00","1978","09","04","23:00","16.1","","11.3","","73","","28","","4","","25.0","","99.49","","","","","","Mainly Clear"
"1978-09-05 00:00","1978","09","05","00:00","15.6","","11.8","","78","","6","","4","","25.0","","99.52","","","","","","Mainly Clear"
"1978-09-05 01:00","1978","09","05","01:00","16.1","","11.6","","75","","","","0","","25.0","","99.56","","","","","","Mainly Clear"
"1978-09-05 02:00","1978","09","05","02:00","14.7","","10.0","","73","","25","","6","","25.0","","99.56","","","","","","Mostly Cloudy"
"1978-09-05 03:00","1978","09","05","03:00","15.6","","10.3","","71","","23","","4","","25.0","","99.52","","","","","","Mainly Clear"
"1978-09-05 04:00","1978","09","05","04:00","14.9","","10.9","","77","","23","","4","","25.0","","99.49","","","","","","Mainly Clear"
"1978-09-05 05:00","1978","09","05","05:00","14.5","","9.6","","72","","24","","6","","25.0","","99.49","","","","","","Mainly Clear"
"1978-09-05 06:00","1978","09","05","06:00","13.1","","12.3","","95","","26","","2","","40.2","","99.59","","","","","","Mainly Clear"
"1978-09-05 07:00","1978","09","05","07:00","15.6","","12.9","","84","","","","0","","24.1","","99.59","","","","","","Mostly Cloudy"
"1978-09-05 08:00","1978","09","05","08:00","18.9","","14.9","","78","","31","","2","","24.1","","99.66","","","","","","Mostly Cloudy"
"1978-09-05 09:00","1978","09","05","09:00","18.8","","15.6","","82","","33","","7","","32.2","","99.69","","","","","","Cloudy"
"1978-09-05 10:00","1978","09","05","10:00","19.9","","16.3","","80","","36","","4","","32.2","","99.69","","","","","","Cloudy"
"1978-09-05 11:00","1978","09","05","11:00","21.5","","17.0","","76","","36","","4","","32.2","","99.69","","27","","","","Mostly Cloudy"
"1978-09-05 12:00","1978","09","05","12:00","22.8","","15.7","","64","","1","","7","","32.2","","99.69","","27","","","","Cloudy"
"1978-09-05 13:00","1978","09","05","13:00","22.5","","16.8","","70","","36","","9","","24.1","","99.69","","28","","","","Cloudy"
"1978-09-05 14:00","1978","09","05","14:00","23.6","","16.6","","65","","34","","6","","32.2","","99.66","","29","","","","Mostly Cloudy"
"1978-09-05 15:00","1978","09","05","15:00","24.1","","16.8","","64","","1","","7","","19.3","","99.62","","29","","","","Mostly Cloudy"
"1978-09-05 16:00","1978","09","05","16:00","24.8","","17.6","","64","","12","","2","","24.1","","99.59","","31","","","","Mostly Cloudy"
"1978-09-05 17:00","1978","09","05","17:00","23.6","","16.6","","65","","17","","11","","19.3","","99.59","","29","","","","Mostly Cloudy"
"1978-09-05 18:00","1978","09","05","18:00","23.2","","16.3","","65","","17","","9","","19.3","","99.59","","28","","","","Mainly Clear"
"1978-09-05 19:00","1978","09","05","19:00","22.3","","16.8","","71","","17","","6","","12.9","","99.59","","27","","","","Mainly Clear"
"1978-09-05 20:00","1978","09","05","20:00","20.5","","17.5","","83","","17","","4","","16.1","","99.59","","26","","","","Mainly Clear"
"1978-09-05 21:00","1978","09","05","21:00","19.5","","16.1","","81","","15","","7","","16.1","","99.56","","","","","","Mainly Clear"
"1978-09-05 22:00","1978","09","05","22:00","20.2","","16.7","","80","","18","","4","","16.1","","99.56","","25","","","","Mostly Cloudy"
"1978-09-05 23:00","1978","09","05","23:00","19.5","","16.4","","82","","21","","6","","16.1","","99.52","","","","","","Mostly Cloudy"
"1978-09-06 00:00","1978","09","06","00:00","18.6","","16.3","","86","","24","","4","","16.1","","99.52","","","","","","Mostly Cloudy"
"1978-09-06 01:00","1978","09","06","01:00","19.1","","16.6","","85","","18","","4","","19.3","","99.49","","","","","","Mostly Cloudy"
"1978-09-06 02:00","1978","09","06","02:00","18.9","","16.6","","87","","15","","4","","19.3","","99.46","","","","","","Mostly Cloudy"
"1978-09-06 03:00","1978","09","06","03:00","18.8","","16.9","","89","","17","","4","","19.3","","99.39","","","","","","Mostly Cloudy"
"1978-09-06 04:00","1978","09","06","04:00","20.0","","17.0","","83","","21","","4","","19.3","","99.36","","25","","","","Mostly Cloudy"
"1978-09-06 05:00","1978","09","06","05:00","20.4","","17.2","","82","","20","","4","","19.3","","99.36","","26","","","","Rain"
"1978-09-06 06:00","1978","09","06","06:00","20.0","","17.0","","83","","21","","7","","12.9","","99.39","","25","","","","Mostly Cloudy"
"1978-09-06 07:00","1978","09","06","07:00","20.3","","17.5","","84","","22","","7","","12.9","","99.39","","26","","","","Mostly Cloudy"
"1978-09-06 08:00","1978","09","06","08:00","22.6","","16.1","","67","","25","","11","","24.1","","99.36","","27","","","","Mostly Cloudy"
"1978-09-06 09:00","1978","09","06","09:00","25.5","","14.1","","49","","24","","9","","32.2","","99.32","","29","","","","Mostly Cloudy"
"1978-09-06 10:00","1978","09","06","10:00","28.5","","14.0","","41","","26","","24","","32.2","","99.32","","32","","","","Mostly Cloudy"
"1978-09-06 11:00","1978","09","06","11:00","30.3","","12.7","","34","","27","","28","","32.2","","99.26","","33","","","","Mostly Cloudy"
"1978-09-06 12:00","1978","09","06","12:00","31.0","","12.2","","32","","27","","33","","32.2","","99.19","","33","","","","Cloudy"
"1978-09-06 13:00","1978","09","06","13:00","30.9","","12.2","","32","","27","","41","","32.2","","99.26","","33","","","","Cloudy"
"1978-09-06 14:00","1978","09","06","14:00","29.5","","12.6","","35","","27","","31","","24.1","","99.12","","32","","","","Cloudy"
"1978-09-06 15:00","1978","09","06","15:00","29.2","","13.1","","37","","28","","26","","16.1","","99.09","","32","","","","Cloudy"
"1978-09-06 16:00","1978","09","06","16:00","28.5","","12.4","","37","","23","","22","","12.9","","98.96","","31","","","","Cloudy"
"1978-09-06 17:00","1978","09","06","17:00","28.5","","12.8","","38","","25","","24","","16.1","","98.86","","31","","","","Cloudy"
"1978-09-06 18:00","1978","09","06","18:00","27.5","","13.1","","41","","23","","4","","12.9","","98.92","","30","","","","Cloudy"
"1978-09-06 19:00","1978","09","06","19:00","27.6","","12.7","","40","","18","","2","","12.9","","98.96","","30","","","","Cloudy"
"1978-09-06 20:00","1978","09","06","20:00","26.0","","14.2","","48","","20","","2","","12.9","","98.96","","29","","","","Mostly Cloudy"
"1978-09-06 21:00","1978","09","06","21:00","26.4","","12.1","","41","","28","","22","","14.5","","98.96","","29","","","","Mostly Cloudy"
"1978-09-06 22:00","1978","09","06","22:00","25.1","","12.6","","46","","29","","26","","16.1","","98.92","","28","","","","Mostly Cloudy"
"1978-09-06 23:00","1978","09","06","23:00","23.6","","14.5","","57","","30","","19","","19.3","","98.96","","27","","","","Mostly Cloudy"
"1978-09-07 00:00","1978","09","07","00:00","23.2","","16.7","","67","","31","","22","","19.3","","98.99","","28","","","","Mostly Cloudy"
"1978-09-07 01:00","1978","09","07","01:00","22.4","","18.1","","77","","31","","19","","19.3","","99.06","","28","","","","Mostly Cloudy"
"1978-09-07 02:00","1978","09","07","02:00","21.9","","18.2","","80","","32","","15","","19.3","","99.06","","28","","","","Mostly Cloudy"
"1978-09-07 03:00","1978","09","07","03:00","21.6","","18.2","","81","","32","","9","","19.3","","99.09","","28","","","","Mostly Cloudy"
"1978-09-07 04:00","1978","09","07","04:00","21.6","","17.3","","76","","24","","2","","19.3","","99.09","","27","","","","Cloudy"
"1978-09-07 05:00","1978","09","07","05:00","20.6","","17.8","","84","","33","","13","","16.1","","99.16","","26","","","","Cloudy"
"1978-09-07 06:00","1978","09","07","06:00","20.2","","17.6","","85","","34","","13","","16.1","","99.26","","26","","","","Cloudy"
"1978-09-07 07:00","1978","09","07","07:00","20.0","","17.0","","83","","35","","15","","16.1","","99.22","","25","","","","Cloudy"
"1978-09-07 08:00","1978","09","07","08:00","19.5","","16.4","","82","","35","","17","","24.1","","99.36","","","","","","Cloudy"
"1978-09-07 09:00","1978","09","07","09:00","18.7","","14.0","","74","","36","","20","","32.2","","99.42","","","","","","Cloudy"
"1978-09-07 10:00","1978","09","07","10:00","19.3","","13.0","","67","","36","","22","","40.2","","99.49","","","","","","Mostly Cloudy"
"1978-09-07 11:00","1978","09","07","11:00","19.9","","12.5","","62","","35","","15","","40.2","","99.49","","","","","","Mostly Cloudy"
"1978-09-07 12:00","1978","09","07","12:00","20.2","","11.8","","58","","1","","13","","40.2","","99.52","","","","","","Mostly Cloudy"
"1978-09-07 13:00","1978","09","07","13:00","20.9","","11.8","","56","","36","","11","","40.2","","99.49","","","","","","Cloudy"
"1978-09-07 14:00","1978","09","07","14:00","21.0","","11.4","","54","","3","","9","","40.2","","99.46","","","","","","Mostly Cloudy"
"1978-09-07 15:00","1978","09","07","15:00","20.6","","12.0","","58","","12","","13","","32.2","","99.42","","","","","","Mostly Cloudy"
"1978-09-07 16:00","1978","09","07","16:00","19.6","","11.5","","60","","4","","11","","24.1","","99.46","","","","","","Mostly Cloudy"
"1978-09-07 17:00","1978","09","07","17:00","18.7","","11.9","","65","","2","","9","","24.1","","99.52","","","","","","Mostly Cloudy"
"1978-09-07 18:00","1978","09","07","18:00","17.9","","12.0","","68","","15","","11","","12.9","","99.56","","","","","","Mostly Cloudy"
"1978-09-07 19:00","1978","09","07","19:00","17.2","","11.6","","70","","11","","13","","12.9","","99.56","","","","","","Cloudy"
"1978-09-07 20:00","1978","09","07","20:00","16.5","","11.4","","72","","11","","13","","14.5","","99.59","","","","","","Cloudy"
"1978-09-07 21:00","1978","09","07","21:00","16.5","","11.1","","70","","10","","11","","14.5","","99.62","","","","","","Mostly Cloudy"
"1978-09-07 22:00","1978","09","07","22:00","16.5","","10.7","","69","","10","","17","","14.5","","99.62","","","","","","Mostly Cloudy"
"1978-09-07 23:00","1978","09","07","23:00","15.7","","8.7","","63","","10","","15","","25.0","","99.69","","","","","","Mostly Cloudy"
"1978-09-08 00:00","1978","09","08","00:00","14.7","","12.5","","87","","12","","15","","6.4","","99.66","","","","","","Moderate Rain Showers,Fog"
"1978-09-08 01:00","1978","09","08","01:00","14.6","","12.2","","86","","10","","11","","19.3","","99.62","","","","","","Rain"
"1978-09-08 02:00","1978","09","08","02:00","14.1","","12.3","","89","","9","","9","","6.4","","99.59","","","","","","Moderate Rain Showers,Fog"
"1978-09-08 03:00","1978","09","08","03:00","13.0","","11.6","","91","","6","","11","","16.1","","99.62","","","","","","Rain Showers"
"1978-09-08 04:00","1978","09","08","04:00","13.1","","11.6","","91","","11","","4","","24.1","","99.56","","","","","","Cloudy"
"1978-09-08 05:00","1978","09","08","05:00","13.4","","12.5","","94","","","","0","","12.9","","99.49","","","","","","Cloudy"
"1978-09-08 06:00","1978","09","08","06:00","14.0","","12.3","","89","","11","","9","","24.1","","99.49","","","","","","Cloudy"
"1978-09-08 07:00","1978","09","08","07:00","14.1","","10.9","","81","","11","","13","","24.1","","99.49","","","","","","Cloudy"
"1978-09-08 08:00","1978","09","08","08:00","14.6","","9.6","","72","","12","","11","","24.1","","99.49","","","","","","Cloudy"
"1978-09-08 09:00","1978","09","08","09:00","14.2","","10.5","","78","","13","","6","","32.2","","99.52","","","","","","Rain Showers"
"1978-09-08 10:00","1978","09","08","10:00","15.1","","11.3","","78","","11","","11","","32.2","","99.46","","","","","","Cloudy"
"1978-09-08 11:00","1978","09","08","11:00","15.4","","9.9","","70","","10","","13","","32.2","","99.42","","","","","","Cloudy"
"1978-09-08 12:00","1978","09","08","12:00","15.4","","9.9","","70","","7","","13","","32.2","","99.39","","","","","","Cloudy"
"1978-09-08 13:00","1978","09","08","13:00","15.4","","9.5","","68","","7","","7","","32.2","","99.36","","","","","","Cloudy"
"1978-09-08 14:00","1978","09","08","14:00","15.6","","11.1","","75","","9","","11","","32.2","","99.29","","","","","","Cloudy"
"1978-09-08 15:00","1978","09","08","15:00","15.7","","11.4","","75","","12","","4","","32.2","","99.26","","","","","","Cloudy"
"1978-09-08 16:00","1978","09","08","16:00","15.9","","12.0","","78","","6","","4","","32.2","","99.26","","","","","","Cloudy"
"1978-09-08 17:00","1978","09","08","17:00","16.0","","12.0","","77","","35","","2","","32.2","","99.26","","","","","","Cloudy"
"1978-09-08 18:00","1978","09","08","18:00","15.4","","12.5","","83","","30","","6","","32.2","","99.19","","","","","","Mostly Cloudy"
"1978-09-08 19:00","1978","09","08","19:00","14.9","","12.7","","87","","30","","4","","25.0","","99.19","","","","","","Mostly Cloudy"
"1978-09-08 20:00","1978","09","08","20:00","13.7","","11.8","","88","","30","","7","","24.1","","99.26","","","","","","Cloudy"
"1978-09-08 21:00","1978","09","08","21:00","14.4","","12.5","","88","","31","","4","","16.1","","99.29","","","","","","Cloudy"
"1978-09-08 22:00","1978","09","08","22:00","15.1","","13.0","","87","","34","","13","","16.1","","99.29","","","","","","Cloudy"
"1978-09-08 23:00","1978","09","08","23:00","15.3","","14.2","","93","","32","","11","","9.7","","99.36","","","","","","Fog"
"1978-09-09 00:00","1978","09","09","00:00","15.5","","14.2","","92","","31","","7","","12.9","","99.39","","","","","","Mostly Cloudy"
"1978-09-09 01:00","1978","09","09","01:00","13.8","","13.7","","100","","32","","7","","12.9","","99.46","","","","","","Mostly Cloudy"
"1978-09-09 02:00","1978","09","09","02:00","12.9","","12.7","","99","","32","","6","","12.9","","99.49","","","","","","Mostly Cloudy"
"1978-09-09 03:00","1978","09","09","03:00","13.6","","12.8","","95","","30","","2","","16.1","","99.52","","","","","","Mostly Cloudy"
"1978-09-09 04:00","1978","09","09","04:00","13.4","","12.5","","94","","32","","6","","19.3","","99.56","","","","","","Mostly Cloudy"
"1978-09-09 05:00","1978","09","09","05:00","14.5","","13.2","","92","","36","","9","","19.3","","99.66","","","","","","Mostly Cloudy"
"1978-09-09 06:00","1978","09","09","06:00","13.5","","11.5","","88","","36","","15","","32.2","","99.79","","","","","","Mostly Cloudy"
"1978-09-09 07:00","1978","09","09","07:00","13.4","","11.8","","90","","3","","19","","40.2","","99.86","","","","","","Mostly Cloudy"
"1978-09-09 08:00","1978","09","09","08:00","14.1","","7.8","","66","","2","","13","","40.2","","99.96","","","","","","Clear"
"1978-09-09 09:00","1978","09","09","09:00","14.9","","8.1","","64","","3","","9","","40.2","","99.96","","","","","","Mainly Clear"
"1978-09-09 10:00","1978","09","09","10:00","15.7","","6.6","","55","","3","","9","","40.2","","99.99","","","","","","Mainly Clear"
"1978-09-09 11:00","1978","09","09","11:00","16.1","","4.4","","46","","2","","13","","40.2","","100.02","","","","","","Mainly Clear"
"1978-09-09 12:00","1978","09","09","12:00","18.2","","3.7","","38","","4","","7","","40.2","","99.99","","","","","","Mainly Clear"
"1978-09-09 13:00","1978","09","09","13:00","18.3","","2.3","","34","","7","","4","","40.2","","99.99","","","","","","Mainly Clear"
"1978-09-09 14:00","1978","09","09","14:00","18.4","","2.3","","34","","16","","15","","40.2","","99.96","","","","","","Mainly Clear"
"1978-09-09 15:00","1978","09","09","15:00","18.0","","4.8","","42","","15","","15","","40.2","","99.99","","","","","","Mainly Clear"
"1978-09-09 16:00","1978","09","09","16:00","17.6","","4.0","","40","","13","","9","","40.2","","99.99","","","","","","Mainly Clear"
"1978-09-09 17:00","1978","09","09","17:00","16.4","","4.6","","46","","17","","15","","40.2","","99.99","","","","","","Mainly Clear"
"1978-09-09 18:00","1978","09","09","18:00","16.0","","5.9","","51","","17","","9","","40.2","","100.02","","","","","","Mainly Clear"
"1978-09-09 19:00","1978","09","09","19:00","14.8","","6.4","","57","","15","","6","","40.2","","100.06","","","","","","Mainly Clear"
"1978-09-09 20:00","1978","09","09","20:00","14.2","","6.5","","60","","14","","6","","25.0","","100.09","","","","","","Mainly Clear"
"1978-09-09 21:00","1978","09","09","21:00","14.2","","6.5","","60","","12","","7","","25.0","","100.09","","","","","","Mainly Clear"
"1978-09-09 22:00","1978","09","09","22:00","14.5","","7.1","","61","","11","","9","","25.0","","100.12","","","","","","Mostly Cloudy"
"1978-09-09 23:00","1978","09","09","23:00","15.0","","4.0","","48","","14","","9","","25.0","","100.16","","","","","","Mostly Cloudy"
"1978-09-10 00:00","1978","09","10","00:00","14.7","","3.3","","46","","14","","15","","25.0","","100.09","","","","","","Mostly Cloudy"
"1978-09-10 01:00","1978","09","10","01:00","14.0","","4.2","","52","","13","","15","","25.0","","100.09","","","","","","Mainly Clear"
"1978-09-10 02:00","1978","09","10","02:00","14.0","","3.2","","48","","13","","15","","25.0","","100.06","","","","","","Mainly Clear"
"1978-09-10 03:00","1978","09","10","03:00","13.7","","6.3","","61","","14","","15","","25.0","","99.99","","","","","","Mostly Cloudy"
"1978-09-10 04:00","1978","09","10","04:00","14.3","","6.7","","60","","13","","20","","25.0","","99.92","","","","","","Mostly Cloudy"
"1978-09-10 05:00","1978","09","10","05:00","14.5","","5.8","","56","","12","","19","","25.0","","99.89","","","","","","Mostly Cloudy"
"1978-09-10 06:00","1978","09","10","06:00","14.2","","6.5","","60","","11","","13","","40.2","","99.89","","","","","","Mostly Cloudy"
"1978-09-10 07:00","1978","09","10","07:00","14.1","","6.9","","62","","13","","11","","40.2","","99.89","","","","","","Thunderstorms"
"1978-09-10 08:00","1978","09","10","08:00","13.0","","8.7","","75","","10","","13","","40.2","","99.92","","","","","","Rain Showers"
"1978-09-10 09:00","1978","09","10","09:00","14.0","","9.0","","72","","11","","13","","40.2","","99.89","","","","","","Cloudy"
"1978-09-10 10:00","1978","09","10","10:00","14.3","","8.8","","70","","10","","9","","16.1","","99.89","","","","","","Thunderstorms,Rain Showers"
"1978-09-10 11:00","1978","09","10","11:00","13.2","","10.9","","86","","36","","9","","16.1","","99.96","","","","","","Thunderstorms,Rain Showers"
"1978-09-10 12:00","1978","09","10","12:00","13.4","","10.0","","80","","14","","6","","32.2","","99.79","","","","","","Thunderstorms"
"1978-09-10 13:00","1978","09","10","13:00","14.9","","9.8","","71","","15","","7","","40.2","","99.69","","","","","","Cloudy"
"1978-09-10 14:00","1978","09","10","14:00","16.6","","11.8","","73","","9","","7","","40.2","","99.66","","","","","","Mostly Cloudy"
"1978-09-10 15:00","1978","09","10","15:00","16.6","","11.4","","71","","15","","11","","40.2","","99.56","","","","","","Rain Showers"
"1978-09-10 16:00","1978","09","10","16:00","16.7","","11.4","","71","","15","","9","","40.2","","99.46","","","","","","Mostly Cloudy"
"1978-09-10 17:00","1978","09","10","17:00","16.4","","11.4","","72","","16","","4","","16.1","","99.56","","","","","","Thunderstorms,Rain Showers"
"1978-09-10 18:00","1978","09","10","18:00","15.8","","14.1","","90","","14","","13","","16.1","","99.36","","","","","","Mostly Cloudy"
"1978-09-10 19:00","1978","09","10","19:00","15.0","","13.4","","90","","13","","4","","16.1","","99.36","","","","","","Mostly Cloudy"
"1978-09-10 20:00","1978","09","10","20:00","14.9","","13.7","","93","","10","","6","","16.1","","99.39","","","","","","Mostly Cloudy"
"1978-09-10 21:00","1978","09","10","21:00","14.8","","14.0","","95","","11","","7","","16.1","","99.36","","","","","","Cloudy"
"1978-09-10 22:00","1978","09","10","22:00","15.2","","13.7","","91","","","","0","","16.1","","99.29","","","","","","Cloudy"
"1978-09-10 23:00","1978","09","10","23:00","13.6","","13.2","","97","","29","","2","","8.0","","99.29","","","","","","Fog"
"1978-09-11 00:00","1978","09","11","00:00","13.5","","13.2","","98","","23","","2","","6.4","","99.26","","","","","","Fog"
"1978-09-11 01:00","1978","09","11","01:00","13.6","","13.2","","97","","","","0","","6.4","","99.16","","","","","","Fog"
"1978-09-11 02:00","1978","09","11","02:00","13.4","","13.2","","99","","","","0","","6.4","","99.09","","","","","","Fog"
"1978-09-11 03:00","1978","09","11","03:00","14.0","","13.7","","98","","","","0","","4.8","","98.99","","","","","","Fog"
"1978-09-11 04:00","1978","09","11","04:00","14.2","","13.3","","94","","14","","4","","6.4","","98.96","","","","","","Fog"
"1978-09-11 05:00","1978","09","11","05:00","13.2","","12.7","","97","","","","0","","4.8","","98.89","","","","","","Fog"
"1978-09-11 06:00","1978","09","11","06:00","13.6","","13.2","","97","","23","","4","","4.0","","98.92","","","","","","Fog"
"1978-09-11 07:00","1978","09","11","07:00","15.2","","14.4","","95","","4","","7","","4.0","","98.96","","","","","","Fog"
"1978-09-11 08:00","1978","09","11","08:00","18.2","","16.5","","90","","","","0","","3.2","","98.96","","","","","","Fog"
"1978-09-11 09:00","1978","09","11","09:00","20.2","","18.5","","90","","","","0","","3.2","","98.92","","27","","","","Fog"
"1978-09-11 10:00","1978","09","11","10:00","23.8","","19.7","","78","","30","","4","","4.0","","98.89","","31","","","","Haze"
"1978-09-11 11:00","1978","09","11","11:00","25.5","","19.5","","69","","26","","7","","4.8","","98.86","","33","","","","Haze"
"1978-09-11 12:00","1978","09","11","12:00","26.9","","19.6","","64","","21","","13","","4.8","","98.79","","34","","","","Haze"
"1978-09-11 13:00","1978","09","11","13:00","28.0","","19.4","","60","","22","","22","","4.8","","98.69","","35","","","","Haze"
"1978-09-11 14:00","1978","09","11","14:00","29.3","","20.8","","60","","26","","24","","4.8","","98.62","","38","","","","Haze"
"1978-09-11 15:00","1978","09","11","15:00","29.6","","18.2","","50","","26","","24","","6.4","","98.59","","36","","","","Haze"
"1978-09-11 16:00","1978","09","11","16:00","29.5","","18.2","","51","","26","","26","","8.0","","98.59","","36","","","","Haze"
"1978-09-11 17:00","1978","09","11","17:00","25.6","","19.1","","67","","23","","19","","4.0","","98.59","","32","","","","Haze"
"1978-09-11 18:00","1978","09","11","18:00","24.6","","17.7","","66","","27","","19","","8.0","","98.62","","30","","","","Haze"
"1978-09-11 19:00","1978","09","11","19:00","21.7","","18.6","","83","","35","","11","","8.0","","98.66","","28","","","","Haze"
"1978-09-11 20:00","1978","09","11","20:00","20.4","","19.0","","92","","36","","9","","8.0","","98.69","","27","","","","Fog"
"1978-09-11 21:00","1978","09","11","21:00","19.9","","19.4","","97","","3","","4","","6.4","","98.76","","","","","","Thunderstorms,Fog"
"1978-09-11 22:00","1978","09","11","22:00","19.7","","18.9","","95","","22","","9","","6.4","","98.76","","","","","","Thunderstorms,Fog"
"1978-09-11 23:00","1978","09","11","23:00","18.4","","17.9","","97","","35","","9","","8.0","","98.79","","","","","","Thunderstorms,Rain Showers,Fog"
"1978-09-12 00:00","1978","09","12","00:00","18.2","","17.4","","95","","22","","4","","6.4","","98.76","","","","","","Rain,Fog"
"1978-09-12 01:00","1978","09","12","01:00","18.0","","17.7","","98","","30","","6","","3.2","","98.82","","","","","","Heavy Rain Showers,Fog"
"1978-09-12 02:00","1978","09","12","02:00","18.0","","17.7","","98","","35","","7","","4.8","","98.79","","","","","","Rain Showers,Fog"
"1978-09-12 03:00","1978","09","12","03:00","17.7","","16.9","","95","","34","","7","","4.8","","98.79","","","","","","Rain,Fog"
"1978-09-12 04:00","1978","09","12","04:00","16.3","","15.9","","98","","36","","24","","8.0","","98.89","","","","","","Rain Showers,Fog"
"1978-09-12 05:00","1978","09","12","05:00","14.5","","13.5","","94","","2","","26","","12.9","","98.99","","","","","","Rain Showers"
"1978-09-12 06:00","1978","09","12","06:00","14.2","","13.0","","92","","1","","15","","8.0","","99.19","","","","","","Rain Showers,Fog"
"1978-09-12 07:00","1978","09","12","07:00","12.5","","11.5","","94","","1","","24","","3.2","","99.36","","","","","","Rain,Fog"
"1978-09-12 08:00","1978","09","12","08:00","11.8","","11.3","","97","","3","","26","","16.1","","99.39","","","","","","Rain"
"1978-09-12 09:00","1978","09","12","09:00","11.3","","9.3","","87","","3","","20","","24.1","","99.46","","","","","","Mostly Cloudy"
"1978-09-12 10:00","1978","09","12","10:00","11.4","","8.2","","81","","6","","26","","24.1","","99.52","","","","","","Mostly Cloudy"
"1978-09-12 11:00","1978","09","12","11:00","12.5","","7.3","","70","","6","","19","","24.1","","99.56","","","","","","Mostly Cloudy"
"1978-09-12 12:00","1978","09","12","12:00","14.4","","7.5","","63","","6","","17","","24.1","","99.59","","","","","","Mostly Cloudy"
"1978-09-12 13:00","1978","09","12","13:00","15.8","","8.5","","62","","6","","17","","32.2","","99.59","","","","","","Mostly Cloudy"
"1978-09-12 14:00","1978","09","12","14:00","15.9","","8.1","","60","","4","","19","","32.2","","99.56","","","","","","Mostly Cloudy"
"1978-09-12 15:00","1978","09","12","15:00","16.8","","7.6","","55","","3","","13","","40.2","","99.59","","","","","","Mostly Cloudy"
"1978-09-12 16:00","1978","09","12","16:00","16.3","","7.4","","56","","3","","17","","40.2","","99.66","","","","","","Mostly Cloudy"
"1978-09-12 17:00","1978","09","12","17:00","15.5","","6.6","","55","","3","","15","","40.2","","99.76","","","","","","Mostly Cloudy"
"1978-09-12 18:00","1978","09","12","18:00","15.2","","5.0","","50","","7","","13","","40.2","","99.76","","","","","","Mostly Cloudy"
"1978-09-12 19:00","1978","09","12","19:00","15.0","","5.0","","51","","6","","15","","25.0","","99.82","","","","","","Cloudy"
"1978-09-12 20:00","1978","09","12","20:00","14.7","","4.8","","51","","6","","11","","25.0","","99.89","","","","","","Cloudy"
"1978-09-12 21:00","1978","09","12","21:00","14.1","","6.1","","59","","6","","15","","25.0","","99.92","","","","","","Mostly Cloudy"
"1978-09-12 22:00","1978","09","12","22:00","13.5","","5.9","","60","","5","","17","","25.0","","99.96","","","","","","Mostly Cloudy"
"1978-09-12 23:00","1978","09","12","23:00","12.7","","5.1","","60","","6","","22","","25.0","","100.06","","","","","","Mostly Cloudy"
"1978-09-13 00:00","1978","09","13","00:00","12.0","","4.9","","62","","5","","20","","25.0","","100.09","","","","","","Mostly Cloudy"
"1978-09-13 01:00","1978","09","13","01:00","11.3","","4.8","","64","","6","","20","","25.0","","100.16","","","","","","Mostly Cloudy"
"1978-09-13 02:00","1978","09","13","02:00","10.6","","4.0","","64","","6","","15","","25.0","","100.19","","","","","","Mainly Clear"
"1978-09-13 03:00","1978","09","13","03:00","9.6","","4.2","","69","","5","","19","","25.0","","100.19","","","","","","Mainly Clear"
"1978-09-13 04:00","1978","09","13","04:00","8.5","","3.5","","71","","5","","15","","25.0","","100.26","","","","","","Mainly Clear"
"1978-09-13 05:00","1978","09","13","05:00","8.4","","3.5","","71","","5","","19","","25.0","","100.26","","","","","","Clear"
"1978-09-13 06:00","1978","09","13","06:00","8.3","","3.5","","72","","6","","17","","40.2","","100.29","","","","","","Mainly Clear"
"1978-09-13 07:00","1978","09","13","07:00","8.9","","4.1","","72","","5","","17","","40.2","","100.36","","","","","","Mainly Clear"
"1978-09-13 08:00","1978","09","13","08:00","10.8","","6.0","","72","","8","","26","","40.2","","100.39","","","","","","Mainly Clear"
"1978-09-13 09:00","1978","09","13","09:00","12.1","","6.3","","68","","9","","26","","32.2","","100.46","","","","","","Mainly Clear"
"1978-09-13 10:00","1978","09","13","10:00","14.3","","8.4","","68","","10","","30","","32.2","","100.46","","","","","","Mostly Cloudy"
"1978-09-13 11:00","1978","09","13","11:00","13.4","","5.9","","60","","9","","26","","32.2","","100.46","","","","","","Mostly Cloudy"
"1978-09-13 12:00","1978","09","13","12:00","14.6","","6.7","","59","","10","","30","","32.2","","100.46","","","","","","Mostly Cloudy"
"1978-09-13 13:00","1978","09","13","13:00","14.4","","6.7","","60","","11","","24","","32.2","","100.39","","","","","","Mostly Cloudy"
"1978-09-13 14:00","1978","09","13","14:00","14.3","","6.7","","60","","11","","24","","32.2","","100.32","","","","","","Mostly Cloudy"
"1978-09-13 15:00","1978","09","13","15:00","13.4","","7.6","","68","","10","","28","","40.2","","100.29","","","","","","Cloudy"
"1978-09-13 16:00","1978","09","13","16:00","14.2","","5.1","","54","","9","","28","","40.2","","100.19","","","","","","Mostly Cloudy"
"1978-09-13 17:00","1978","09","13","17:00","14.0","","5.6","","57","","10","","26","","40.2","","100.26","","","","","","Cloudy"
"1978-09-13 18:00","1978","09","13","18:00","14.0","","4.7","","54","","9","","28","","40.2","","100.26","","","","","","Cloudy"
"1978-09-13 19:00","1978","09","13","19:00","13.8","","5.1","","56","","8","","22","","25.0","","100.26","","","","","","Cloudy"
"1978-09-13 20:00","1978","09","13","20:00","14.0","","5.6","","57","","8","","22","","25.0","","100.26","","","","","","Cloudy"
"1978-09-13 21:00","1978","09","13","21:00","14.2","","6.5","","60","","10","","20","","25.0","","100.26","","","","","","Cloudy"
"1978-09-13 22:00","1978","09","13","22:00","14.4","","7.1","","62","","10","","24","","25.0","","100.22","","","","","","Mostly Cloudy"
"1978-09-13 23:00","1978","09","13","23:00","14.3","","8.0","","66","","11","","24","","25.0","","100.19","","","","","","Rain"
"1978-09-14 00:00","1978","09","14","00:00","14.2","","8.6","","69","","11","","24","","25.0","","100.12","","","","","","Mostly Cloudy"
"1978-09-14 01:00","1978","09","14","01:00","14.5","","8.8","","69","","10","","24","","25.0","","100.09","","","","","","Mostly Cloudy"
"1978-09-14 02:00","1978","09","14","02:00","14.5","","8.8","","69","","11","","22","","25.0","","100.06","","","","","","Mostly Cloudy"
"1978-09-14 03:00","1978","09","14","03:00","14.1","","9.0","","71","","11","","22","","24.1","","100.02","","","","","","Rain"
"1978-09-14 04:00","1978","09","14","04:00","13.2","","10.2","","82","","11","","15","","19.3","","99.96","","","","","","Rain"
"1978-09-14 05:00","1978","09","14","05:00","12.9","","10.2","","84","","11","","13","","24.1","","99.89","","","","","","Rain"
"1978-09-14 06:00","1978","09","14","06:00","12.8","","10.6","","87","","11","","15","","32.2","","99.89","","","","","","Rain"
"1978-09-14 07:00","1978","09","14","07:00","13.4","","10.7","","84","","11","","11","","32.2","","99.96","","","","","","Cloudy"
"1978-09-14 08:00","1978","09","14","08:00","14.5","","11.4","","82","","11","","19","","32.2","","99.86","","","","","","Cloudy"
"1978-09-14 09:00","1978","09","14","09:00","15.0","","10.9","","76","","11","","17","","32.2","","99.82","","","","","","Cloudy"
"1978-09-14 10:00","1978","09","14","10:00","16.4","","11.4","","72","","13","","19","","32.2","","99.79","","","","","","Cloudy"
"1978-09-14 11:00","1978","09","14","11:00","16.1","","11.3","","73","","12","","20","","32.2","","99.76","","","","","","Cloudy"
"1978-09-14 12:00","1978","09","14","12:00","16.7","","11.4","","71","","11","","22","","32.2","","99.62","","","","","","Cloudy"
"1978-09-14 13:00","1978","09","14","13:00","16.6","","11.8","","73","","9","","20","","32.2","","99.56","","","","","","Cloudy"
"1978-09-14 14:00","1978","09","14","14:00","18.1","","12.8","","71","","12","","19","","32.2","","99.46","","","","","","Cloudy"
"1978-09-14 15:00","1978","09","14","15:00","18.5","","13.0","","70","","12","","20","","24.1","","99.29","","","","","","Cloudy"
"1978-09-14 16:00","1978","09","14","16:00","17.5","","15.0","","85","","13","","17","","6.4","","99.22","","","","","","Rain Showers,Fog"
"1978-09-14 17:00","1978","09","14","17:00","17.9","","15.8","","87","","14","","17","","12.9","","99.09","","","","","","Cloudy"
"1978-09-14 18:00","1978","09","14","18:00","18.8","","15.3","","80","","15","","22","","9.7","","98.99","","","","","","Rain Showers,Haze"
"1978-09-14 19:00","1978","09","14","19:00","17.5","","15.6","","89","","15","","19","","16.1","","98.89","","","","","","Rain Showers"
"1978-09-14 20:00","1978","09","14","20:00","17.1","","16.1","","94","","16","","26","","4.8","","98.79","","","","","","Heavy Rain Showers,Fog"
"1978-09-14 21:00","1978","09","14","21:00","16.9","","16.4","","97","","20","","39","","6.4","","98.76","","","","","","Rain Showers,Fog"
"1978-09-14 22:00","1978","09","14","22:00","19.0","","18.1","","95","","22","","19","","9.7","","98.82","","","","","","Rain Showers,Fog"
"1978-09-14 23:00","1978","09","14","23:00","19.5","","18.6","","95","","19","","13","","8.0","","98.86","","","","","","Rain,Fog"
"1978-09-15 00:00","1978","09","15","00:00","19.7","","18.9","","95","","20","","19","","6.4","","98.79","","","","","","Rain Showers,Fog"
"1978-09-15 01:00","1978","09","15","01:00","19.5","","18.9","","96","","20","","15","","6.4","","98.86","","","","","","Fog"
"1978-09-15 02:00","1978","09","15","02:00","19.2","","18.1","","93","","24","","7","","12.9","","98.86","","","","","","Mostly Cloudy"
"1978-09-15 03:00","1978","09","15","03:00","17.8","","16.5","","92","","28","","15","","24.1","","98.89","","","","","","Mostly Cloudy"
"1978-09-15 04:00","1978","09","15","04:00","16.2","","14.7","","91","","28","","13","","19.3","","98.99","","","","","","Mainly Clear"
"1978-09-15 05:00","1978","09","15","05:00","15.0","","14.0","","94","","27","","7","","24.1","","99.06","","","","","","Mainly Clear"
"1978-09-15 06:00","1978","09","15","06:00","14.8","","13.7","","93","","22","","6","","24.1","","99.12","","","","","","Mainly Clear"
"1978-09-15 07:00","1978","09","15","07:00","15.2","","13.7","","91","","22","","7","","24.1","","99.19","","","","","","Mostly Cloudy"
"1978-09-15 08:00","1978","09","15","08:00","17.0","","14.8","","87","","21","","11","","24.1","","99.26","","","","","","Mostly Cloudy"
"1978-09-15 09:00","1978","09","15","09:00","18.2","","14.5","","79","","27","","13","","32.2","","99.26","","","","","","Mostly Cloudy"
"1978-09-15 10:00","1978","09","15","10:00","18.7","","13.0","","69","","25","","19","","40.2","","99.22","","","","","","Mainly Clear"
"1978-09-15 11:00","1978","09","15","11:00","20.4","","14.2","","68","","24","","22","","40.2","","99.22","","","","","","Mainly Clear"
"1978-09-15 12:00","1978","09","15","12:00","20.8","","13.3","","62","","25","","24","","40.2","","99.19","","","","","","Mainly Clear"
"1978-09-15 13:00","1978","09","15","13:00","20.8","","13.0","","61","","27","","30","","40.2","","99.19","","","","","","Mostly Cloudy"
"1978-09-15 14:00","1978","09","15","14:00","20.8","","11.0","","54","","29","","28","","40.2","","99.16","","","","","","Mostly Cloudy"
"1978-09-15 15:00","1978","09","15","15:00","20.7","","10.4","","52","","27","","26","","40.2","","99.12","","","","","","Mostly Cloudy"
"1978-09-15 16:00","1978","09","15","16:00","20.9","","11.8","","56","","24","","26","","40.2","","99.12","","","","","","Mostly Cloudy"
"1978-09-15 17:00","1978","09","15","17:00","20.1","","12.1","","60","","23","","19","","40.2","","99.12","","","","","","Mostly Cloudy"
"1978-09-15 18:00","1978","09","15","18:00","19.8","","12.1","","61","","20","","11","","40.2","","99.02","","","","","","Mostly Cloudy"
"1978-09-15 19:00","1978","09","15","19:00","18.8","","12.8","","68","","19","","15","","25.0","","98.96","","","","","","Mostly Cloudy"
"1978-09-15 20:00","1978","09","15","20:00","18.4","","14.0","","76","","20","","17","","25.0","","98.92","","","","","","Mostly Cloudy"
"1978-09-15 21:00","1978","09","15","21:00","18.0","","14.2","","79","","21","","19","","25.0","","98.89","","","","","","Mostly Cloudy"
"1978-09-15 22:00","1978","09","15","22:00","18.0","","14.2","","79","","22","","17","","25.0","","98.86","","","","","","Rain Showers"
"1978-09-15 23:00","1978","09","15","23:00","18.5","","14.4","","77","","26","","26","","24.1","","98.86","","","","","","Rain Showers"
"1978-09-16 00:00","1978","09","16","00:00","17.0","","15.1","","89","","27","","19","","16.1","","98.86","","","","","","Rain Showers"
"1978-09-16 01:00","1978","09","16","01:00","16.0","","14.7","","92","","23","","9","","24.1","","98.82","","","","","","Rain Showers"
"1978-09-16 02:00","1978","09","16","02:00","15.9","","14.7","","93","","26","","9","","19.3","","98.79","","","","","","Mostly Cloudy"
"1978-09-16 03:00","1978","09","16","03:00","15.3","","14.9","","98","","28","","9","","19.3","","98.79","","","","","","Mostly Cloudy"
"1978-09-16 04:00","1978","09","16","04:00","15.3","","14.9","","98","","33","","7","","19.3","","98.79","","","","","","Mostly Cloudy"
"1978-09-16 05:00","1978","09","16","05:00","14.5","","13.5","","94","","34","","9","","24.1","","98.79","","","","","","Mostly Cloudy"
"1978-09-16 06:00","1978","09","16","06:00","12.3","","10.8","","91","","32","","7","","40.2","","98.82","","","","","","Mainly Clear"
"1978-09-16 07:00","1978","09","16","07:00","12.6","","10.8","","89","","32","","9","","40.2","","98.89","","","","","","Mainly Clear"
"1978-09-16 08:00","1978","09","16","08:00","15.0","","12.0","","82","","33","","15","","40.2","","98.89","","","","","","Mainly Clear"
"1978-09-16 09:00","1978","09","16","09:00","16.1","","11.3","","73","","34","","17","","40.2","","98.89","","","","","","Mainly Clear"
"1978-09-16 10:00","1978","09","16","10:00","17.8","","11.7","","68","","33","","15","","40.2","","98.92","","","","","","Mainly Clear"
"1978-09-16 11:00","1978","09","16","11:00","18.8","","10.1","","57","","31","","22","","40.2","","98.92","","","","","","Mainly Clear"
"1978-09-16 12:00","1978","09","16","12:00","18.3","","9.1","","55","","29","","22","","40.2","","98.89","","","","","","Mainly Clear"
"1978-09-16 13:00","1978","09","16","13:00","18.5","","7.8","","50","","30","","28","","40.2","","98.86","","","","","","Mainly Clear"
"1978-09-16 14:00","1978","09","16","14:00","17.4","","10.3","","63","","34","","17","","40.2","","98.89","","","","","","Mainly Clear"
"1978-09-16 15:00","1978","09","16","15:00","18.9","","8.0","","49","","33","","22","","25.0","","98.86","","","","","","Mainly Clear"
"1978-09-16 16:00","1978","09","16","16:00","19.1","","8.9","","52","","30","","19","","40.2","","98.86","","","","","","Mainly Clear"
"1978-09-16 17:00","1978","09","16","17:00","17.7","","8.7","","56","","35","","17","","40.2","","98.92","","","","","","Mainly Clear"
"1978-09-16 18:00","1978","09","16","18:00","14.7","","9.2","","70","","34","","22","","40.2","","98.99","","","","","","Mainly Clear"
"1978-09-16 19:00","1978","09","16","19:00","13.3","","8.4","","72","","35","","15","","25.0","","99.06","","","","","","Mainly Clear"
"1978-09-16 20:00","1978","09","16","20:00","11.6","","7.8","","77","","35","","13","","25.0","","99.16","","","","","","Mainly Clear"
"1978-09-16 21:00","1978","09","16","21:00","9.7","","6.4","","80","","33","","9","","25.0","","99.19","","","","","","Mainly Clear"
"1978-09-16 22:00","1978","09","16","22:00","8.7","","7.0","","89","","33","","11","","25.0","","99.22","","","","","","Mainly Clear"
"1978-09-16 23:00","1978","09","16","23:00","8.4","","7.0","","91","","32","","7","","25.0","","99.29","","","","","","Mainly Clear"
"1978-09-17 00:00","1978","09","17","00:00","9.6","","6.8","","82","","","","0","","25.0","","99.29","","","","","","Mainly Clear"
"1978-09-17 01:00","1978","09","17","01:00","8.0","","6.8","","92","","30","","4","","25.0","","99.29","","","","","","Mainly Clear"
"1978-09-17 02:00","1978","09","17","02:00","8.9","","6.7","","86","","33","","4","","25.0","","99.29","","","","","","Mainly Clear"
"1978-09-17 03:00","1978","09","17","03:00","9.1","","6.8","","85","","34","","4","","25.0","","99.32","","","","","","Mainly Clear"
"1978-09-17 04:00","1978","09","17","04:00","7.1","","5.8","","91","","3","","4","","25.0","","99.29","","","","","","Mainly Clear"
"1978-09-17 05:00","1978","09","17","05:00","8.2","","7.2","","93","","33","","2","","25.0","","99.39","","","","","","Mostly Cloudy"
"1978-09-17 06:00","1978","09","17","06:00","9.4","","8.8","","96","","3","","6","","40.2","","99.39","","","","","","Mostly Cloudy"
"1978-09-17 07:00","1978","09","17","07:00","10.8","","9.6","","93","","6","","7","","40.2","","99.42","","","","","","Mostly Cloudy"
"1978-09-17 08:00","1978","09","17","08:00","11.6","","9.7","","88","","6","","9","","32.2","","99.46","","","","","","Rain"
"1978-09-17 09:00","1978","09","17","09:00","11.2","","9.6","","90","","7","","9","","9.7","","99.52","","","","","","Rain Showers,Fog"
"1978-09-17 10:00","1978","09","17","10:00","11.0","","10.6","","97","","4","","4","","3.2","","99.56","","","","","","Heavy Rain Showers,Fog"
"1978-09-17 11:00","1978","09","17","11:00","12.5","","12.2","","98","","8","","15","","6.4","","99.49","","","","","","Rain Showers,Fog"
"1978-09-17 12:00","1978","09","17","12:00","12.7","","11.8","","94","","10","","15","","8.0","","99.46","","","","","","Rain Showers,Fog"
"1978-09-17 13:00","1978","09","17","13:00","12.8","","11.6","","93","","23","","9","","8.0","","99.56","","","","","","Rain,Fog"
"1978-09-17 14:00","1978","09","17","14:00","13.1","","11.6","","91","","10","","19","","24.1","","99.49","","","","","","Cloudy"
"1978-09-17 15:00","1978","09","17","15:00","13.5","","11.1","","85","","11","","11","","24.1","","99.49","","","","","","Cloudy"
"1978-09-17 16:00","1978","09","17","16:00","13.8","","10.9","","83","","8","","9","","24.1","","99.49","","","","","","Cloudy"
"1978-09-17 17:00","1978","09","17","17:00","13.5","","10.0","","79","","8","","15","","24.1","","99.52","","","","","","Cloudy"
"1978-09-17 18:00","1978","09","17","18:00","13.5","","10.7","","83","","10","","15","","24.1","","99.56","","","","","","Cloudy"
"1978-09-17 19:00","1978","09","17","19:00","12.8","","11.3","","91","","4","","17","","12.9","","99.66","","","","","","Rain"
"1978-09-17 20:00","1978","09","17","20:00","11.7","","10.1","","90","","5","","17","","6.4","","99.69","","","","","","Drizzle,Fog"
"1978-09-17 21:00","1978","09","17","21:00","11.4","","9.6","","89","","5","","17","","6.4","","99.76","","","","","","Drizzle,Fog"
"1978-09-17 22:00","1978","09","17","22:00","10.7","","9.8","","94","","5","","15","","4.8","","99.86","","","","","","Rain,Drizzle,Fog"
"1978-09-17 23:00","1978","09","17","23:00","10.7","","9.0","","89","","3","","9","","9.7","","99.89","","","","","","Fog"
"1978-09-18 00:00","1978","09","18","00:00","10.8","","9.2","","90","","6","","6","","12.9","","99.89","","","","","","Cloudy"
"1978-09-18 01:00","1978","09","18","01:00","11.1","","8.4","","83","","5","","7","","19.3","","99.89","","","","","","Cloudy"
"1978-09-18 02:00","1978","09","18","02:00","11.2","","7.6","","78","","6","","11","","25.0","","99.89","","","","","","Cloudy"
"1978-09-18 03:00","1978","09","18","03:00","11.4","","7.4","","76","","6","","7","","25.0","","99.86","","","","","","Cloudy"
"1978-09-18 04:00","1978","09","18","04:00","11.6","","7.4","","75","","6","","15","","25.0","","99.89","","","","","","Cloudy"
"1978-09-18 05:00","1978","09","18","05:00","11.7","","7.4","","75","","4","","13","","25.0","","99.99","","","","","","Cloudy"
"1978-09-18 06:00","1978","09","18","06:00","10.2","","8.5","","89","","4","","11","","2.4","","100.09","","","","","","Heavy Rain Showers,Fog"
"1978-09-18 07:00","1978","09","18","07:00","10.0","","8.5","","90","","6","","6","","12.9","","100.09","","","","","","Rain"
"1978-09-18 08:00","1978","09","18","08:00","10.4","","8.7","","89","","8","","17","","24.1","","100.06","","","","","","Cloudy"
"1978-09-18 09:00","1978","09","18","09:00","10.9","","8.4","","85","","4","","15","","32.2","","100.06","","","","","","Cloudy"
"1978-09-18 10:00","1978","09","18","10:00","11.6","","8.6","","82","","9","","17","","32.2","","99.99","","","","","","Cloudy"
"1978-09-18 11:00","1978","09","18","11:00","12.4","","8.1","","75","","11","","22","","32.2","","99.99","","","","","","Rain"
"1978-09-18 12:00","1978","09","18","12:00","11.5","","9.3","","86","","7","","13","","12.9","","99.92","","","","","","Rain Showers"
"1978-09-18 13:00","1978","09","18","13:00","11.5","","9.3","","86","","9","","26","","19.3","","99.82","","","","","","Cloudy"
"1978-09-18 14:00","1978","09","18","14:00","11.1","","8.4","","83","","9","","19","","9.7","","99.79","","","","","","Rain Showers,Fog"
"1978-09-18 15:00","1978","09","18","15:00","10.3","","9.0","","92","","36","","9","","9.7","","99.76","","","","","","Rain Showers,Fog"
"1978-09-18 16:00","1978","09","18","16:00","9.8","","8.9","","94","","4","","7","","40.2","","99.66","","","","","","Cloudy"
"1978-09-18 17:00","1978","09","18","17:00","10.3","","9.4","","94","","1","","7","","24.1","","99.62","","","","","","Cloudy"
"1978-09-18 18:00","1978","09","18","18:00","11.0","","10.6","","97","","6","","11","","4.0","","99.59","","","","","","Thunderstorms,Heavy Rain Showers,Fog"
"1978-09-18 19:00","1978","09","18","19:00","9.5","","9.1","","97","","1","","15","","8.0","","99.59","","","","","","Moderate Rain,Fog"
"1978-09-18 20:00","1978","09","18","20:00","9.2","","8.3","","94","","4","","13","","12.9","","99.66","","","","","","Rain"
"1978-09-18 21:00","1978","09","18","21:00","9.2","","8.3","","94","","36","","11","","19.3","","99.66","","","","","","Rain"
"1978-09-18 22:00","1978","09","18","22:00","9.2","","8.3","","94","","34","","7","","19.3","","99.69","","","","","","Rain"
"1978-09-18 23:00","1978","09","18","23:00","9.0","","8.6","","97","","35","","11","","9.7","","99.76","","","","","","Drizzle,Fog"
"1978-09-19 00:00","1978","09","19","00:00","8.7","","7.7","","93","","35","","11","","8.0","","99.79","","","","","","Drizzle,Fog"
"1978-09-19 01:00","1978","09","19","01:00","8.5","","8.1","","97","","36","","13","","4.8","","99.86","","","","","","Drizzle,Fog"
"1978-09-19 02:00","1978","09","19","02:00","8.4","","8.1","","98","","36","","15","","4.0","","99.89","","","","","","Drizzle,Fog"
"1978-09-19 03:00","1978","09","19","03:00","8.4","","8.1","","98","","36","","9","","3.2","","99.96","","","","","","Drizzle,Fog"
"1978-09-19 04:00","1978","09","19","04:00","8.5","","8.1","","97","","36","","9","","3.2","","100.02","","","","","","Drizzle,Fog"
"1978-09-19 05:00","1978","09","19","05:00","8.8","","8.6","","99","","36","","9","","6.4","","100.06","","","","","","Fog"
"1978-09-19 06:00","1978","09","19","06:00","8.8","","8.6","","99","","35","","9","","8.0","","100.12","","","","","","Fog"
"1978-09-19 07:00","1978","09","19","07:00","9.3","","8.8","","97","","34","","7","","19.3","","100.16","","","","","","Mostly Cloudy"
"1978-09-19 08:00","1978","09","19","08:00","10.3","","9.4","","94","","33","","6","","32.2","","100.19","","","","","","Cloudy"
"1978-09-19 09:00","1978","09","19","09:00","11.4","","9.0","","85","","33","","6","","40.2","","100.22","","","","","","Cloudy"
"1978-09-19 10:00","1978","09","19","10:00","12.1","","8.3","","77","","35","","4","","40.2","","100.19","","","","","","Mostly Cloudy"
"1978-09-19 11:00","1978","09","19","11:00","13.6","","9.2","","75","","","","0","","40.2","","100.22","","","","","","Mostly Cloudy"
"1978-09-19 12:00","1978","09","19","12:00","14.6","","10.0","","74","","","","0","","32.2","","100.19","","","","","","Cloudy"
"1978-09-19 13:00","1978","09","19","13:00","14.4","","9.2","","71","","16","","7","","24.1","","100.19","","","","","","Cloudy"
"1978-09-19 14:00","1978","09","19","14:00","14.4","","8.8","","69","","16","","11","","19.3","","100.16","","","","","","Cloudy"
"1978-09-19 15:00","1978","09","19","15:00","14.2","","8.6","","69","","15","","9","","24.1","","100.16","","","","","","Cloudy"
"1978-09-19 16:00","1978","09","19","16:00","14.4","","9.6","","73","","10","","6","","24.1","","100.12","","","","","","Cloudy"
"1978-09-19 17:00","1978","09","19","17:00","14.5","","8.8","","69","","","","0","","24.1","","100.09","","","","","","Cloudy"
"1978-09-19 18:00","1978","09","19","18:00","14.5","","9.2","","71","","18","","4","","24.1","","100.09","","","","","","Cloudy"
"1978-09-19 19:00","1978","09","19","19:00","14.2","","9.4","","73","","","","0","","19.3","","100.09","","","","","","Cloudy"
"1978-09-19 20:00","1978","09","19","20:00","13.8","","10.2","","79","","16","","4","","19.3","","100.09","","","","","","Cloudy"
"1978-09-19 21:00","1978","09","19","21:00","13.8","","9.8","","77","","15","","4","","19.3","","100.06","","","","","","Cloudy"
"1978-09-19 22:00","1978","09","19","22:00","13.7","","8.8","","72","","15","","2","","19.3","","100.02","","","","","","Mostly Cloudy"
"1978-09-19 23:00","1978","09","19","23:00","12.7","","10.0","","84","","18","","4","","19.3","","99.99","","","","","","Mostly Cloudy"
"1978-09-20 00:00","1978","09","20","00:00","11.6","","9.3","","86","","","","0","","19.3","","99.99","","","","","","Cloudy"
"1978-09-20 01:00","1978","09","20","01:00","11.6","","10.1","","91","","","","0","","19.3","","99.96","","","","","","Cloudy"
"1978-09-20 02:00","1978","09","20","02:00","12.5","","11.1","","91","","","","0","","19.3","","99.89","","","","","","Cloudy"
"1978-09-20 03:00","1978","09","20","03:00","12.6","","11.1","","91","","","","0","","19.3","","99.89","","","","","","Cloudy"
"1978-09-20 04:00","1978","09","20","04:00","12.6","","11.1","","91","","","","0","","19.3","","99.86","","","","","","Mostly Cloudy"
"1978-09-20 05:00","1978","09","20","05:00","12.2","","11.0","","92","","","","0","","19.3","","99.86","","","","","","Mostly Cloudy"
"1978-09-20 06:00","1978","09","20","06:00","13.1","","11.6","","91","","","","0","","12.9","","99.86","","","","","","Cloudy"
"1978-09-20 07:00","1978","09","20","07:00","13.1","","11.6","","91","","","","0","","8.0","","99.86","","","","","","Fog"
"1978-09-20 08:00","1978","09","20","08:00","14.9","","13.4","","91","","","","0","","8.0","","99.86","","","","","","Fog"
"1978-09-20 09:00","1978","09","20","09:00","16.0","","13.7","","86","","14","","4","","9.7","","99.79","","","","","","Fog"
"1978-09-20 10:00","1978","09","20","10:00","17.5","","14.6","","83","","20","","4","","8.0","","99.82","","","","","","Fog"
"1978-09-20 11:00","1978","09","20","11:00","17.9","","15.5","","86","","16","","9","","6.4","","99.76","","","","","","Fog"
"1978-09-20 12:00","1978","09","20","12:00","17.2","","15.4","","89","","16","","9","","4.0","","99.72","","","","","","Fog"
"1978-09-20 13:00","1978","09","20","13:00","18.0","","15.8","","87","","16","","11","","4.8","","99.66","","","","","","Fog"
"1978-09-20 14:00","1978","09","20","14:00","20.3","","16.9","","81","","15","","9","","4.8","","99.52","","26","","","","Haze"
"1978-09-20 15:00","1978","09","20","15:00","20.9","","16.8","","77","","15","","9","","4.8","","99.46","","26","","","","Haze"
"1978-09-20 16:00","1978","09","20","16:00","21.1","","17.1","","78","","16","","11","","4.8","","99.39","","26","","","","Haze"
"1978-09-20 17:00","1978","09","20","17:00","20.2","","16.3","","78","","17","","6","","4.8","","99.36","","25","","","","Haze"
"1978-09-20 18:00","1978","09","20","18:00","18.4","","16.3","","88","","15","","7","","4.8","","99.36","","","","","","Fog"
"1978-09-20 19:00","1978","09","20","19:00","17.6","","15.6","","88","","18","","6","","4.0","","99.32","","","","","","Fog"
"1978-09-20 20:00","1978","09","20","20:00","16.4","","15.9","","97","","17","","2","","4.8","","99.36","","","","","","Fog"
"1978-09-20 21:00","1978","09","20","21:00","16.5","","16.2","","98","","34","","11","","4.8","","99.46","","","","","","Thunderstorms,Fog"
"1978-09-20 22:00","1978","09","20","22:00","17.9","","16.8","","93","","19","","2","","4.8","","99.36","","","","","","Fog"
"1978-09-20 23:00","1978","09","20","23:00","16.9","","16.1","","95","","22","","4","","4.8","","99.36","","","","","","Fog"
"1978-09-21 00:00","1978","09","21","00:00","16.6","","15.9","","96","","24","","4","","4.8","","99.29","","","","","","Fog"
"1978-09-21 01:00","1978","09","21","01:00","17.4","","16.6","","95","","18","","6","","4.8","","99.26","","","","","","Fog"
"1978-09-21 02:00","1978","09","21","02:00","17.4","","16.9","","97","","19","","2","","3.2","","99.19","","","","","","Fog"
"1978-09-21 03:00","1978","09","21","03:00","17.1","","16.7","","98","","","","0","","2.4","","99.19","","","","","","Fog"
"1978-09-21 04:00","1978","09","21","04:00","17.8","","17.8","","100","","","","0","","1.6","","99.16","","","","","","Fog"
"1978-09-21 05:00","1978","09","21","05:00","17.6","","17.2","","98","","","","0","","1.6","","99.19","","","","","","Fog"
"1978-09-21 06:00","1978","09","21","06:00","16.3","","16.3","","100","","","","0","","0.4","","99.19","","","","","","Fog"
"1978-09-21 07:00","1978","09","21","07:00","16.5","","16.5","","100","","","","0","","0.8","","99.22","","","","","","Fog"
"1978-09-21 08:00","1978","09","21","08:00","18.5","","17.6","","95","","","","0","","3.2","","99.26","","","","","","Fog"
"1978-09-21 09:00","1978","09","21","09:00","19.5","","18.6","","95","","36","","17","","12.9","","99.36","","","","","","Cloudy"
"1978-09-21 10:00","1978","09","21","10:00","19.5","","17.1","","86","","2","","6","","16.1","","99.32","","","","","","Mostly Cloudy"
"1978-09-21 11:00","1978","09","21","11:00","19.6","","17.1","","86","","1","","17","","32.2","","99.36","","","","","","Mostly Cloudy"
"1978-09-21 12:00","1978","09","21","12:00","18.5","","16.0","","85","","34","","17","","24.1","","99.39","","","","","","Cloudy"
"1978-09-21 13:00","1978","09","21","13:00","18.0","","15.8","","87","","31","","26","","6.4","","99.49","","","","","","Rain Showers,Fog"
"1978-09-21 14:00","1978","09","21","14:00","17.0","","16.4","","96","","33","","11","","9.7","","99.46","","","","","","Rain Showers,Fog"
"1978-09-21 15:00","1978","09","21","15:00","17.5","","15.0","","85","","32","","19","","32.2","","99.49","","","","","","Mostly Cloudy"
"1978-09-21 16:00","1978","09","21","16:00","16.7","","13.6","","82","","32","","22","","24.1","","99.49","","","","","","Mostly Cloudy"
"1978-09-21 17:00","1978","09","21","17:00","16.4","","13.2","","82","","32","","22","","24.1","","99.56","","","","","","Mostly Cloudy"
"1978-09-21 18:00","1978","09","21","18:00","16.0","","13.0","","82","","33","","17","","24.1","","99.66","","","","","","Mostly Cloudy"
"1978-09-21 19:00","1978","09","21","19:00","15.3","","12.9","","86","","33","","15","","24.1","","99.69","","","","","","Cloudy"
"1978-09-21 20:00","1978","09","21","20:00","14.8","","12.7","","88","","33","","15","","24.1","","99.79","","","","","","Rain Showers"
"1978-09-21 21:00","1978","09","21","21:00","14.1","","12.7","","91","","35","","17","","24.1","","99.86","","","","","","Rain Showers"
"1978-09-21 22:00","1978","09","21","22:00","13.9","","12.0","","88","","33","","15","","24.1","","99.96","","","","","","Mostly Cloudy"
"1978-09-21 23:00","1978","09","21","23:00","13.5","","11.5","","88","","35","","17","","25.0","","100.02","","","","","","Cloudy"
"1978-09-22 00:00","1978","09","22","00:00","13.1","","10.9","","86","","33","","15","","25.0","","100.06","","","","","","Mostly Cloudy"
"1978-09-22 01:00","1978","09","22","01:00","13.0","","10.9","","87","","35","","17","","25.0","","100.16","","","","","","Cloudy"
"1978-09-22 02:00","1978","09","22","02:00","12.9","","10.9","","88","","35","","19","","25.0","","100.16","","","","","","Cloudy"
"1978-09-22 03:00","1978","09","22","03:00","12.2","","9.5","","83","","1","","15","","25.0","","100.19","","","","","","Mostly Cloudy"
"1978-09-22 04:00","1978","09","22","04:00","10.8","","9.6","","93","","35","","11","","25.0","","100.29","","","","","","Mostly Cloudy"
"1978-09-22 05:00","1978","09","22","05:00","8.9","","8.3","","96","","34","","11","","25.0","","100.39","","","","","","Mainly Clear"
"1978-09-22 06:00","1978","09","22","06:00","8.5","","7.7","","95","","34","","13","","25.0","","100.46","","","","","","Mainly Clear"
"1978-09-22 07:00","1978","09","22","07:00","9.2","","7.9","","91","","34","","13","","24.1","","100.56","","","","","","Mainly Clear"
"1978-09-22 08:00","1978","09","22","08:00","11.6","","9.7","","88","","36","","15","","40.2","","100.59","","","","","","Mainly Clear"
"1978-09-22 09:00","1978","09","22","09:00","13.5","","10.0","","79","","1","","13","","40.2","","100.66","","","","","","Mainly Clear"
"1978-09-22 10:00","1978","09","22","10:00","15.1","","9.4","","69","","3","","9","","40.2","","100.72","","","","","","Mainly Clear"
"1978-09-22 11:00","1978","09","22","11:00","15.0","","8.1","","63","","1","","11","","40.2","","100.76","","","","","","Mainly Clear"
"1978-09-22 12:00","1978","09","22","12:00","16.6","","7.0","","53","","1","","19","","40.2","","100.79","","","","","","Mainly Clear"
"1978-09-22 13:00","1978","09","22","13:00","16.5","","5.6","","49","","3","","20","","40.2","","100.82","","","","","","Mainly Clear"
"1978-09-22 14:00","1978","09","22","14:00","16.9","","7.2","","53","","5","","15","","40.2","","100.82","","","","","","Mainly Clear"
"1978-09-22 15:00","1978","09","22","15:00","17.1","","5.3","","46","","3","","17","","40.2","","100.79","","","","","","Mainly Clear"
"1978-09-22 16:00","1978","09","22","16:00","17.1","","4.3","","43","","3","","13","","40.2","","100.85","","","","","","Mostly Cloudy"
"1978-09-22 17:00","1978","09","22","17:00","15.7","","5.2","","50","","1","","15","","40.2","","100.89","","","","","","Mainly Clear"
"1978-09-22 18:00","1978","09","22","18:00","14.4","","6.2","","58","","1","","13","","40.2","","100.89","","","","","","Mainly Clear"
"1978-09-22 19:00","1978","09","22","19:00","12.5","","6.0","","65","","34","","9","","25.0","","100.95","","","","","","Mainly Clear"
"1978-09-22 20:00","1978","09","22","20:00","10.9","","4.6","","65","","35","","15","","25.0","","101.02","","","","","","Mainly Clear"
"1978-09-22 21:00","1978","09","22","21:00","9.5","","5.1","","74","","35","","13","","25.0","","101.05","","","","","","Mainly Clear"
"1978-09-22 22:00","1978","09","22","22:00","7.3","","5.1","","86","","34","","9","","25.0","","101.09","","","","","","Mainly Clear"
"1978-09-22 23:00","1978","09","22","23:00","6.8","","4.5","","85","","35","","9","","25.0","","101.12","","","","","","Clear"
"1978-09-23 00:00","1978","09","23","00:00","6.2","","3.9","","85","","34","","7","","25.0","","101.15","","","","","","Clear"
"1978-09-23 01:00","1978","09","23","01:00","6.1","","3.4","","83","","35","","7","","25.0","","101.15","","","","","","Clear"
"1978-09-23 02:00","1978","09","23","02:00","6.0","","3.9","","86","","34","","7","","25.0","","101.15","","","","","","Clear"
"1978-09-23 03:00","1978","09","23","03:00","4.8","","3.7","","93","","34","","6","","25.0","","101.15","","","","","","Clear"
"1978-09-23 04:00","1978","09","23","04:00","4.6","","3.2","","91","","33","","4","","25.0","","101.15","","","","","","Clear"
"1978-09-23 05:00","1978","09","23","05:00","4.4","","3.2","","92","","33","","6","","25.0","","101.19","","","","","","Clear"
"1978-09-23 06:00","1978","09","23","06:00","4.2","","2.7","","90","","34","","4","","40.2","","101.19","","","","","","Clear"
"1978-09-23 07:00","1978","09","23","07:00","6.5","","4.9","","89","","33","","7","","40.2","","101.25","","","","","","Clear"
"1978-09-23 08:00","1978","09","23","08:00","10.0","","6.9","","81","","34","","4","","40.2","","101.25","","","","","","Clear"
"1978-09-23 09:00","1978","09","23","09:00","12.5","","8.9","","79","","2","","2","","40.2","","101.25","","","","","","Clear"
"1978-09-23 10:00","1978","09","23","10:00","15.5","","9.5","","67","","24","","4","","40.2","","101.22","","","","","","Mainly Clear"
"1978-09-23 11:00","1978","09","23","11:00","15.9","","5.9","","51","","32","","2","","40.2","","101.15","","","","","","Mainly Clear"
"1978-09-23 12:00","1978","09","23","12:00","17.0","","7.2","","53","","9","","2","","40.2","","101.09","","","","","","Mainly Clear"
"1978-09-23 13:00","1978","09","23","13:00","17.0","","8.1","","56","","18","","4","","40.2","","100.99","","","","","","Mainly Clear"
"1978-09-23 14:00","1978","09","23","14:00","17.4","","7.4","","52","","15","","13","","40.2","","100.92","","","","","","Mainly Clear"
"1978-09-23 15:00","1978","09","23","15:00","17.6","","6.9","","49","","13","","9","","40.2","","100.89","","","","","","Mainly Clear"
"1978-09-23 16:00","1978","09","23","16:00","17.0","","5.8","","48","","15","","9","","40.2","","100.79","","","","","","Mainly Clear"
"1978-09-23 17:00","1978","09","23","17:00","16.4","","5.1","","47","","14","","9","","40.2","","100.79","","","","","","Mainly Clear"
"1978-09-23 18:00","1978","09","23","18:00","14.5","","6.7","","60","","14","","9","","40.2","","100.72","","","","","","Mainly Clear"
"1978-09-23 19:00","1978","09","23","19:00","12.7","","8.1","","74","","14","","9","","25.0","","100.69","","","","","","Mainly Clear"
"1978-09-23 20:00","1978","09","23","20:00","12.8","","9.4","","80","","14","","7","","25.0","","100.66","","","","","","Mainly Clear"
"1978-09-23 21:00","1978","09","23","21:00","12.4","","9.3","","81","","16","","2","","25.0","","100.62","","","","","","Mainly Clear"
"1978-09-23 22:00","1978","09","23","22:00","9.4","","8.4","","93","","32","","4","","25.0","","100.59","","","","","","Mainly Clear"
"1978-09-23 23:00","1978","09","23","23:00","8.2","","6.8","","91","","34","","4","","24.1","","100.56","","","","","","Clear"
"1978-09-24 00:00","1978","09","24","00:00","7.6","","6.3","","91","","35","","4","","24.1","","100.49","","","","","","Clear"
"1978-09-24 01:00","1978","09","24","01:00","6.5","","5.7","","95","","","","0","","24.1","","100.49","","","","","","Clear"
"1978-09-24 02:00","1978","09","24","02:00","6.4","","6.1","","98","","34","","4","","19.3","","100.42","","","","","","Mainly Clear"
"1978-09-24 03:00","1978","09","24","03:00","6.3","","6.1","","99","","1","","6","","8.0","","100.36","","","","","","Fog"
"1978-09-24 04:00","1978","09","24","04:00","5.4","","5.1","","98","","33","","6","","4.0","","100.32","","","","","","Fog"
"1978-09-24 05:00","1978","09","24","05:00","5.9","","5.9","","100","","34","","9","","1.2","","100.32","","","","","","Fog"
"1978-09-24 06:00","1978","09","24","06:00","4.6","","4.6","","100","","33","","4","","4.8","","100.29","","","","","","Fog"
"1978-09-24 07:00","1978","09","24","07:00","6.5","","5.7","","95","","","","0","","12.9","","100.26","","","","","","Mainly Clear"
"1978-09-24 08:00","1978","09","24","08:00","10.5","","8.3","","86","","","","0","","16.1","","100.22","","","","","","Clear"
"1978-09-24 09:00","1978","09","24","09:00","14.8","","11.3","","80","","24","","7","","32.2","","100.16","","","","","","Clear"
"1978-09-24 10:00","1978","09","24","10:00","17.0","","10.5","","66","","27","","11","","40.2","","100.09","","","","","","Mainly Clear"
"1978-09-24 11:00","1978","09","24","11:00","18.2","","8.9","","54","","27","","11","","40.2","","100.02","","","","","","Mainly Clear"
"1978-09-24 12:00","1978","09","24","12:00","18.6","","9.1","","54","","22","","11","","40.2","","99.92","","","","","","Mainly Clear"
"1978-09-24 13:00","1978","09","24","13:00","19.7","","9.5","","52","","27","","15","","40.2","","99.86","","","","","","Mainly Clear"
"1978-09-24 14:00","1978","09","24","14:00","20.4","","10.0","","51","","24","","17","","40.2","","99.76","","","","","","Mainly Clear"
"1978-09-24 15:00","1978","09","24","15:00","20.5","","10.0","","51","","27","","15","","40.2","","99.72","","","","","","Mainly Clear"
"1978-09-24 16:00","1978","09","24","16:00","20.4","","10.0","","51","","27","","19","","40.2","","99.69","","","","","","Mainly Clear"
"1978-09-24 17:00","1978","09","24","17:00","19.5","","9.5","","52","","27","","20","","40.2","","99.69","","","","","","Mainly Clear"
"1978-09-24 18:00","1978","09","24","18:00","17.6","","9.9","","61","","25","","13","","32.2","","99.69","","","","","","Clear"
"1978-09-24 19:00","1978","09","24","19:00","15.9","","9.7","","67","","24","","6","","25.0","","99.69","","","","","","Mainly Clear"
"1978-09-24 20:00","1978","09","24","20:00","14.8","","9.4","","70","","24","","6","","25.0","","99.69","","","","","","Mainly Clear"
"1978-09-24 21:00","1978","09","24","21:00","14.4","","10.7","","79","","27","","6","","25.0","","99.69","","","","","","Mainly Clear"
"1978-09-24 22:00","1978","09","24","22:00","14.5","","10.0","","74","","27","","7","","25.0","","99.69","","","","","","Mainly Clear"
"1978-09-24 23:00","1978","09","24","23:00","13.0","","10.2","","83","","28","","7","","24.1","","99.69","","","","","","Mainly Clear"
"1978-09-25 00:00","1978","09","25","00:00","13.3","","9.6","","78","","29","","22","","25.0","","99.66","","","","","","Mainly Clear"
"1978-09-25 01:00","1978","09","25","01:00","12.3","","8.1","","76","","30","","20","","25.0","","99.69","","","","","","Mainly Clear"
"1978-09-25 02:00","1978","09","25","02:00","11.1","","7.2","","77","","30","","19","","25.0","","99.76","","","","","","Clear"
"1978-09-25 03:00","1978","09","25","03:00","10.7","","7.5","","80","","32","","17","","25.0","","99.79","","","","","","Clear"
"1978-09-25 04:00","1978","09","25","04:00","9.6","","7.2","","85","","33","","13","","25.0","","99.89","","","","","","Mainly Clear"
"1978-09-25 05:00","1978","09","25","05:00","8.2","","6.4","","88","","32","","11","","25.0","","99.96","","","","","","Clear"
"1978-09-25 06:00","1978","09","25","06:00","7.2","","5.4","","88","","33","","13","","25.0","","100.02","","","","","","Clear"
"1978-09-25 07:00","1978","09","25","07:00","8.5","","7.0","","90","","32","","11","","40.2","","100.09","","","","","","Clear"
"1978-09-25 08:00","1978","09","25","08:00","10.8","","7.2","","79","","35","","24","","40.2","","100.12","","","","","","Clear"
"1978-09-25 09:00","1978","09","25","09:00","11.6","","6.5","","71","","34","","30","","40.2","","100.22","","","","","","Clear"
"1978-09-25 10:00","1978","09","25","10:00","12.9","","6.6","","66","","35","","22","","40.2","","100.26","","","","","","Mainly Clear"
"1978-09-25 11:00","1978","09","25","11:00","13.5","","4.5","","54","","35","","24","","40.2","","100.29","","","","","","Mainly Clear"
"1978-09-25 12:00","1978","09","25","12:00","13.9","","6.1","","59","","35","","24","","40.2","","100.32","","","","","","Mostly Cloudy"
"1978-09-25 13:00","1978","09","25","13:00","14.9","","6.9","","59","","35","","19","","40.2","","100.29","","","","","","Mainly Clear"
"1978-09-25 14:00","1978","09","25","14:00","15.0","","4.5","","49","","35","","22","","40.2","","100.26","","","","","","Mainly Clear"
"1978-09-25 15:00","1978","09","25","15:00","14.7","","2.8","","45","","34","","22","","40.2","","100.26","","","","","","Mainly Clear"
"1978-09-25 16:00","1978","09","25","16:00","14.1","","3.7","","50","","33","","20","","40.2","","100.26","","","","","","Mainly Clear"
"1978-09-25 17:00","1978","09","25","17:00","12.8","","3.8","","54","","35","","26","","40.2","","100.29","","","","","","Mainly Clear"
"1978-09-25 18:00","1978","09","25","18:00","11.1","","2.7","","56","","36","","19","","40.2","","100.32","","","","","","Mainly Clear"
"1978-09-25 19:00","1978","09","25","19:00","9.7","","2.8","","62","","36","","17","","25.0","","100.36","","","","","","Mainly Clear"
"1978-09-25 20:00","1978","09","25","20:00","7.5","","3.7","","77","","35","","9","","25.0","","100.46","","","","","","Mainly Clear"
"1978-09-25 21:00","1978","09","25","21:00","5.2","","2.8","","84","","33","","7","","25.0","","100.49","","","","","","Mainly Clear"
"1978-09-25 22:00","1978","09","25","22:00","3.9","","2.7","","92","","33","","7","","25.0","","100.49","","","","","","Mainly Clear"
"1978-09-25 23:00","1978","09","25","23:00","3.9","","2.7","","92","","32","","6","","25.0","","100.49","","","","","","Mainly Clear"
"1978-09-26 00:00","1978","09","26","00:00","3.0","","2.1","","94","","32","","7","","25.0","","100.49","","","","","","Mainly Clear"
"1978-09-26 01:00","1978","09","26","01:00","3.5","","2.2","","91","","31","","2","","25.0","","100.49","","","","","","Clear"
"1978-09-26 02:00","1978","09","26","02:00","3.0","","1.6","","91","","34","","4","","25.0","","100.49","","","","","","Clear"
"1978-09-26 03:00","1978","09","26","03:00","1.5","","0.5","","93","","34","","7","","25.0","","100.49","","","","","","Clear"
"1978-09-26 04:00","1978","09","26","04:00","1.2","","0.0","","92","","35","","6","","25.0","","100.49","","","","","","Clear"
"1978-09-26 05:00","1978","09","26","05:00","0.6","","-0.5","","92","","1","","2","","25.0","","100.49","","","","","","Clear"
"1978-09-26 06:00","1978","09","26","06:00","0.3","","-0.4","","95","","2","","2","","25.0","","100.46","","","","","","Mainly Clear"
"1978-09-26 07:00","1978","09","26","07:00","1.2","","0.0","","92","","33","","9","","32.2","","100.49","","","","","","Mainly Clear"
"1978-09-26 08:00","1978","09","26","08:00","5.0","","2.8","","86","","32","","6","","32.2","","100.49","","","","","","Mainly Clear"
"1978-09-26 09:00","1978","09","26","09:00","8.5","","4.9","","78","","30","","2","","32.2","","100.52","","","","","","Mainly Clear"
"1978-09-26 10:00","1978","09","26","10:00","12.4","","6.0","","65","","21","","9","","32.2","","100.49","","","","","","Mainly Clear"
"1978-09-26 11:00","1978","09","26","11:00","13.7","","6.3","","61","","20","","9","","40.2","","100.42","","","","","","Mainly Clear"
"1978-09-26 12:00","1978","09","26","12:00","14.9","","6.9","","59","","15","","13","","32.2","","100.26","","","","","","Mainly Clear"
"1978-09-26 13:00","1978","09","26","13:00","15.5","","7.5","","59","","16","","17","","32.2","","100.16","","","","","","Mainly Clear"
"1978-09-26 14:00","1978","09","26","14:00","16.5","","7.9","","57","","16","","17","","32.2","","100.06","","","","","","Mainly Clear"
"1978-09-26 15:00","1978","09","26","15:00","17.2","","8.9","","58","","15","","17","","32.2","","99.99","","","","","","Mainly Clear"
"1978-09-26 16:00","1978","09","26","16:00","18.2","","8.5","","53","","18","","22","","32.2","","99.92","","","","","","Mainly Clear"
"1978-09-26 17:00","1978","09","26","17:00","17.6","","9.1","","57","","18","","19","","32.2","","99.89","","","","","","Mainly Clear"
"1978-09-26 18:00","1978","09","26","18:00","16.6","","9.9","","65","","20","","15","","32.2","","99.89","","","","","","Mostly Cloudy"
"1978-09-26 19:00","1978","09","26","19:00","14.8","","9.4","","70","","18","","11","","25.0","","99.89","","","","","","Mostly Cloudy"
"1978-09-26 20:00","1978","09","26","20:00","14.0","","8.2","","68","","19","","15","","25.0","","99.89","","","","","","Mostly Cloudy"
"1978-09-26 21:00","1978","09","26","21:00","14.0","","8.2","","68","","18","","13","","25.0","","99.79","","","","","","Mostly Cloudy"
"1978-09-26 22:00","1978","09","26","22:00","12.8","","8.3","","74","","18","","11","","25.0","","99.76","","","","","","Mostly Cloudy"
"1978-09-26 23:00","1978","09","26","23:00","12.0","","8.3","","78","","19","","11","","24.1","","99.69","","","","","","Mostly Cloudy"
"1978-09-27 00:00","1978","09","27","00:00","11.4","","8.6","","83","","19","","11","","24.1","","99.66","","","","","","Mostly Cloudy"
"1978-09-27 01:00","1978","09","27","01:00","11.9","","9.1","","83","","20","","4","","24.1","","99.66","","","","","","Mostly Cloudy"
"1978-09-27 02:00","1978","09","27","02:00","12.6","","9.3","","80","","20","","9","","24.1","","99.66","","","","","","Mostly Cloudy"
"1978-09-27 03:00","1978","09","27","03:00","12.6","","9.7","","83","","19","","13","","24.1","","99.59","","","","","","Mainly Clear"
"1978-09-27 04:00","1978","09","27","04:00","12.6","","8.9","","78","","18","","9","","24.1","","99.59","","","","","","Mainly Clear"
"1978-09-27 05:00","1978","09","27","05:00","12.5","","9.3","","81","","18","","11","","19.3","","99.56","","","","","","Mainly Clear"
"1978-09-27 06:00","1978","09","27","06:00","12.2","","9.1","","81","","18","","11","","12.9","","99.52","","","","","","Mostly Cloudy"
"1978-09-27 07:00","1978","09","27","07:00","12.3","","9.7","","84","","19","","6","","8.0","","99.49","","","","","","Haze"
"1978-09-27 08:00","1978","09","27","08:00","13.8","","11.6","","87","","20","","11","","9.7","","99.46","","","","","","Fog"
"1978-09-27 09:00","1978","09","27","09:00","16.4","","12.5","","78","","21","","13","","16.1","","99.42","","","","","","Mostly Cloudy"
"1978-09-27 10:00","1978","09","27","10:00","19.1","","11.7","","62","","21","","26","","19.3","","99.36","","","","","","Mostly Cloudy"
"1978-09-27 11:00","1978","09","27","11:00","20.9","","11.4","","55","","20","","24","","24.1","","99.26","","","","","","Mostly Cloudy"
"1978-09-27 12:00","1978","09","27","12:00","22.1","","11.1","","50","","22","","28","","24.1","","99.19","","","","","","Mostly Cloudy"
"1978-09-27 13:00","1978","09","27","13:00","22.1","","11.1","","50","","22","","26","","24.1","","99.09","","","","","","Mostly Cloudy"
"1978-09-27 14:00","1978","09","27","14:00","22.1","","11.1","","50","","21","","22","","19.3","","99.06","","","","","","Mostly Cloudy"
"1978-09-27 15:00","1978","09","27","15:00","22.0","","9.8","","46","","20","","24","","19.3","","98.99","","","","","","Mostly Cloudy"
"1978-09-27 16:00","1978","09","27","16:00","21.0","","8.9","","46","","21","","20","","19.3","","98.99","","","","","","Mostly Cloudy"
"1978-09-27 17:00","1978","09","27","17:00","20.0","","11.4","","58","","20","","15","","19.3","","98.96","","","","","","Mostly Cloudy"
"1978-09-27 18:00","1978","09","27","18:00","14.0","","13.3","","95","","34","","9","","4.8","","99.06","","","","","","Rain,Fog"
"1978-09-27 19:00","1978","09","27","19:00","14.2","","13.0","","92","","30","","6","","9.7","","99.06","","","","","","Fog"
"1978-09-27 20:00","1978","09","27","20:00","14.1","","12.7","","91","","31","","19","","16.1","","99.09","","","","","","Cloudy"
"1978-09-27 21:00","1978","09","27","21:00","11.1","","9.2","","88","","33","","35","","25.0","","99.16","","","","","","Mostly Cloudy"
"1978-09-27 22:00","1978","09","27","22:00","10.0","","8.9","","93","","33","","35","","25.0","","99.22","","","","","","Mostly Cloudy"
"1978-09-27 23:00","1978","09","27","23:00","9.1","","7.1","","87","","33","","30","","25.0","","99.32","","","","","","Mostly Cloudy"
"1978-09-28 00:00","1978","09","28","00:00","8.3","","6.1","","86","","33","","35","","25.0","","99.39","","","","","","Mostly Cloudy"
"1978-09-28 01:00","1978","09","28","01:00","7.5","","4.6","","82","","35","","28","","25.0","","99.49","","","","","","Mostly Cloudy"
"1978-09-28 02:00","1978","09","28","02:00","6.6","","3.5","","80","","34","","28","","25.0","","99.59","","","","","","Mostly Cloudy"
"1978-09-28 03:00","1978","09","28","03:00","5.1","","3.3","","88","","33","","19","","25.0","","99.66","","","","","","Mainly Clear"
"1978-09-28 04:00","1978","09","28","04:00","4.6","","2.3","","85","","33","","22","","25.0","","99.76","","","","","","Mainly Clear"
"1978-09-28 05:00","1978","09","28","05:00","4.3","","2.3","","87","","33","","24","","25.0","","99.79","","","","","","Clear"
"1978-09-28 06:00","1978","09","28","06:00","3.7","","0.7","","81","","33","","20","","25.0","","99.86","","","","","","Clear"
"1978-09-28 07:00","1978","09","28","07:00","4.0","","1.3","","82","","32","","13","","40.2","","99.99","","","","","","Mainly Clear"
"1978-09-28 08:00","1978","09","28","08:00","6.3","","1.5","","71","","33","","7","","40.2","","99.99","","","","","","Mainly Clear"
"1978-09-28 09:00","1978","09","28","09:00","8.5","","2.0","","64","","36","","22","","40.2","","100.06","","","","","","Mainly Clear"
"1978-09-28 10:00","1978","09","28","10:00","9.4","","2.8","","63","","35","","24","","40.2","","100.12","","","","","","Mainly Clear"
"1978-09-28 11:00","1978","09","28","11:00","10.4","","2.0","","56","","34","","19","","40.2","","100.12","","","","","","Mainly Clear"
"1978-09-28 12:00","1978","09","28","12:00","9.7","","2.3","","60","","33","","20","","40.2","","100.12","","","","","","Mainly Clear"
"1978-09-28 13:00","1978","09","28","13:00","12.5","","3.2","","53","","36","","17","","40.2","","100.06","","","","","","Mainly Clear"
"1978-09-28 14:00","1978","09","28","14:00","13.7","","1.4","","43","","33","","24","","40.2","","100.06","","","","","","Mainly Clear"
"1978-09-28 15:00","1978","09","28","15:00","13.4","","1.4","","44","","1","","26","","40.2","","100.02","","","","","","Mainly Clear"
"1978-09-28 16:00","1978","09","28","16:00","13.1","","1.7","","46","","36","","20","","40.2","","100.06","","","","","","Mainly Clear"
"1978-09-28 17:00","1978","09","28","17:00","12.0","","2.0","","50","","36","","19","","40.2","","100.09","","","","","","Mainly Clear"
"1978-09-28 18:00","1978","09","28","18:00","10.0","","1.4","","55","","36","","17","","40.2","","100.12","","","","","","Mainly Clear"
"1978-09-28 19:00","1978","09","28","19:00","8.6","","1.0","","59","","1","","9","","25.0","","100.19","","","","","","Mainly Clear"
"1978-09-28 20:00","1978","09","28","20:00","6.7","","1.1","","67","","30","","4","","25.0","","100.22","","","","","","Mainly Clear"
"1978-09-28 21:00","1978","09","28","21:00","6.7","","2.6","","75","","30","","4","","25.0","","100.29","","","","","","Mainly Clear"
"1978-09-28 22:00","1978","09","28","22:00","5.0","","1.9","","80","","31","","4","","25.0","","100.29","","","","","","Clear"
"1978-09-28 23:00","1978","09","28","23:00","5.7","","2.4","","79","","32","","4","","25.0","","100.29","","","","","","Clear"
"1978-09-29 00:00","1978","09","29","00:00","3.7","","0.2","","78","","30","","4","","25.0","","100.26","","","","","","Mainly Clear"
"1978-09-29 01:00","1978","09","29","01:00","3.2","","0.9","","85","","","","0","","25.0","","100.26","","","","","","Mainly Clear"
"1978-09-29 02:00","1978","09","29","02:00","3.2","","0.2","","81","","","","0","","25.0","","100.26","","","","","","Mainly Clear"
"1978-09-29 03:00","1978","09","29","03:00","1.6","","0.1","","90","","32","","4","","25.0","","100.26","","","","","","Mainly Clear"
"1978-09-29 04:00","1978","09","29","04:00","2.4","","0.6","","88","","33","","6","","25.0","","100.32","","","","","","Mainly Clear"
"1978-09-29 05:00","1978","09","29","05:00","2.4","","0.6","","88","","","","0","","25.0","","100.32","","","","","","Mainly Clear"
"1978-09-29 06:00","1978","09","29","06:00","2.3","","0.6","","89","","","","0","","25.0","","100.29","","","","","","Mainly Clear"
"1978-09-29 07:00","1978","09","29","07:00","2.2","","0.6","","89","","","","0","","19.3","","100.29","","","","","","Mostly Cloudy"
"1978-09-29 08:00","1978","09","29","08:00","6.9","","4.1","","82","","34","","2","","16.1","","100.33","","","","","","Mostly Cloudy"
"1978-09-29 09:00","1978","09","29","09:00","9.1","","3.6","","68","","","","0","","16.1","","100.42","","","","","","Mostly Cloudy"
"1978-09-29 10:00","1978","09","29","10:00","12.1","","4.9","","61","","18","","2","","25.0","","100.46","","","","","","Mostly Cloudy"
"1978-09-29 11:00","1978","09","29","11:00","13.7","","4.5","","54","","16","","7","","32.2","","100.39","","","","","","Mainly Clear"
"1978-09-29 12:00","1978","09","29","12:00","14.1","","6.1","","59","","17","","11","","32.2","","100.36","","","","","","Mainly Clear"
"1978-09-29 13:00","1978","09","29","13:00","14.6","","5.8","","55","","15","","13","","32.2","","100.29","","","","","","Mainly Clear"
"1978-09-29 14:00","1978","09","29","14:00","14.4","","3.3","","47","","13","","15","","32.2","","100.22","","","","","","Mainly Clear"
"1978-09-29 15:00","1978","09","29","15:00","14.9","","5.0","","52","","15","","13","","40.2","","100.12","","","","","","Mostly Cloudy"
"1978-09-29 16:00","1978","09","29","16:00","14.5","","5.3","","54","","13","","15","","40.2","","100.06","","","","","","Mostly Cloudy"
"1978-09-29 17:00","1978","09","29","17:00","13.5","","5.4","","58","","13","","13","","32.2","","100.06","","","","","","Mostly Cloudy"
"1978-09-29 18:00","1978","09","29","18:00","12.5","","5.5","","62","","12","","13","","32.2","","99.99","","","","","","Mostly Cloudy"
"1978-09-29 19:00","1978","09","29","19:00","12.2","","5.8","","65","","10","","17","","25.0","","99.96","","","","","","Mostly Cloudy"
"1978-09-29 20:00","1978","09","29","20:00","12.0","","7.1","","72","","11","","15","","25.0","","99.96","","","","","","Mostly Cloudy"
"1978-09-29 21:00","1978","09","29","21:00","11.8","","9.1","","84","","10","","15","","25.0","","99.92","","","","","","Mainly Clear"
"1978-09-29 22:00","1978","09","29","22:00","12.6","","9.3","","80","","11","","11","","25.0","","99.96","","","","","","Mostly Cloudy"
"1978-09-29 23:00","1978","09","29","23:00","11.0","","8.4","","84","","10","","7","","25.0","","99.89","","","","","","Mainly Clear"
"1978-09-30 00:00","1978","09","30","00:00","8.3","","7.0","","92","","35","","2","","25.0","","99.86","","","","","","Mostly Cloudy"
"1978-09-30 01:00","1978","09","30","01:00","6.6","","5.7","","94","","3","","2","","25.0","","99.82","","","","","","Mostly Cloudy"
"1978-09-30 02:00","1978","09","30","02:00","6.0","","5.2","","95","","","","0","","24.1","","99.72","","","","","","Mainly Clear"
"1978-09-30 03:00","1978","09","30","03:00","6.0","","5.6","","97","","","","0","","24.1","","99.69","","","","","","Mainly Clear"
"1978-09-30 04:00","1978","09","30","04:00","5.0","","4.6","","97","","","","0","","24.1","","99.66","","","","","","Mainly Clear"
"1978-09-30 05:00","1978","09","30","05:00","5.5","","5.1","","97","","31","","2","","24.1","","99.66","","","","","","Mainly Clear"
"1978-09-30 06:00","1978","09","30","06:00","5.4","","5.1","","98","","33","","2","","9.7","","99.66","","","","","","Fog"
"1978-09-30 07:00","1978","09","30","07:00","5.5","","5.1","","97","","","","0","","12.9","","99.66","","","","","","Mostly Cloudy"
"1978-09-30 08:00","1978","09","30","08:00","10.4","","9.4","","94","","","","0","","12.9","","99.62","","","","","","Mainly Clear"
"1978-09-30 09:00","1978","09","30","09:00","15.3","","11.8","","80","","18","","13","","16.1","","99.59","","","","","","Mainly Clear"
"1978-09-30 10:00","1978","09","30","10:00","16.4","","12.2","","76","","18","","15","","16.1","","99.56","","","","","","Mostly Cloudy"
"1978-09-30 11:00","1978","09","30","11:00","17.8","","13.5","","76","","18","","13","","16.1","","99.52","","","","","","Mostly Cloudy"
"1978-09-30 12:00","1978","09","30","12:00","19.6","","13.4","","67","","18","","19","","19.3","","99.46","","","","","","Mostly Cloudy"
"1978-09-30 13:00","1978","09","30","13:00","20.1","","12.9","","63","","16","","19","","19.3","","99.36","","","","","","Mostly Cloudy"
"1978-09-30 14:00","1978","09","30","14:00","20.5","","13.8","","65","","17","","19","","12.9","","99.29","","","","","","Mostly Cloudy"
"1978-09-30 15:00","1978","09","30","15:00","20.4","","14.2","","68","","16","","20","","8.0","","99.22","","","","","","Haze"
"1978-09-30 16:00","1978","09","30","16:00","21.0","","14.4","","66","","16","","20","","8.0","","99.16","","25","","","","Haze"
"1978-09-30 17:00","1978","09","30","17:00","20.0","","14.3","","70","","15","","13","","8.0","","99.06","","","","","","Haze"
"1978-09-30 18:00","1978","09","30","18:00","18.6","","14.4","","76","","14","","9","","6.4","","99.09","","","","","","Haze"
"1978-09-30 19:00","1978","09","30","19:00","15.7","","14.2","","91","","27","","19","","4.8","","99.19","","","","","","Thunderstorms,Moderate Rain Showers,Fog"
"1978-09-30 20:00","1978","09","30","20:00","15.4","","14.2","","93","","16","","6","","12.9","","99.19","","","","","","Rain Showers"
"1978-09-30 21:00","1978","09","30","21:00","15.2","","14.0","","92","","16","","7","","9.7","","99.22","","","","","","Fog"
"1978-09-30 22:00","1978","09","30","22:00","15.6","","15.2","","98","","17","","13","","3.2","","99.26","","","","","","Rain,Fog"
"1978-09-30 23:00","1978","09","30","23:00","15.4","","14.9","","97","","18","","13","","6.4","","99.19","","","","","","Rain,Fog"
