"Station Name","TORONTO INTL A"
"Province","ONTARIO"
"Latitude","43.68"
"Longitude","-79.63"
"Elevation","173.40"
"Climate Identifier","6158731"
"WMO Identifier","71624"
"TC Identifier","YYZ"
"All times are specified in Local Standard Time (LST). Add 1 hour to adjust for Daylight Saving Time where and when it is observed."

"Legend"
"E","Estimated"
"M","Missing"
"NA","Not Available"

"Date/Time","Year","Month","Day","Time","Temp (°C)","Temp Flag","Dew Point Temp (°C)","Dew Point Temp Flag","Rel Hum (%)","Rel Hum Flag","Wind Dir (10s deg)","Wind Dir Flag","Wind Spd (km/h)","Wind Spd Flag","Visibility (km)","Visibility Flag","Stn Press (kPa)","Stn Press Flag","Hmdx","Hmdx Flag","Wind Chill","Wind Chill Flag","Weather"
"2015-02-01 00:00","2015","02","01","00:00","-3.1","","-5.4","","84","","26","","19","","24.1","","100.01","","","","-9","","NA"
"2015-02-01 01:00","2015","02","01","01:00","-2.9","","-5.1","","85","","26","","18","","19.3","","99.99","","","","-9","","Snow Showers"
"2015-02-01 02:00","2015","02","01","02:00","-3.0","","-5.2","","85","","25","","14","","19.3","","100.01","","","","-8","","Snow Showers"
"2015-02-01 03:00","2015","02","01","03:00","-3.4","","-6.2","","81","","36","","21","","19.3","","100.04","","","","-10","","Snow Showers"
"2015-02-01 04:00","2015","02","01","04:00","-3.9","","-6.9","","80","","36","","15","","19.3","","100.09","","","","-9","","Snow Showers"
"2015-02-01 05:00","2015","02","01","05:00","-5.8","","-9.7","","74","","35","","26","","19.3","","100.19","","","","-14","","Snow Showers"
"2015-02-01 06:00","2015","02","01","06:00","-7.1","","-10.3","","78","","36","","28","","19.3","","100.24","","","","-15","","Snow Showers"
"2015-02-01 07:00","2015","02","01","07:00","-8.6","","-11.6","","79","","36","","27","","19.3","","100.33","","","","-17","","Snow"
"2015-02-01 08:00","2015","02","01","08:00","-10.7","","-14.0","","77","","34","","26","","12.9","","100.35","","","","-20","","Snow"
"2015-02-01 09:00","2015","02","01","09:00","-12.1","","-16.2","","72","","1","","28","","19.3","","100.36","","","","-22","","Snow"
"2015-02-01 10:00","2015","02","01","10:00","-12.7","","-17.3","","69","","36","","18","","24.1","","100.42","","","","-21","","Mostly Cloudy"
"2015-02-01 11:00","2015","02","01","11:00","-12.3","","-17.6","","65","","36","","22","","24.1","","100.40","","","","-21","","NA"
"2015-02-01 12:00","2015","02","01","12:00","-11.6","","-17.1","","64","","2","","18","","12.9","","100.31","","","","-19","","NA"
"2015-02-01 13:00","2015","02","01","13:00","-11.3","","-16.8","","64","","5","","15","","12.9","","100.22","","","","-18","","Snow"
"2015-02-01 14:00","2015","02","01","14:00","-10.8","","-16.4","","64","","4","","16","","19.3","","100.15","","","","-18","","Snow"
"2015-02-01 15:00","2015","02","01","15:00","-10.6","","-16.4","","63","","5","","19","","19.3","","100.05","","","","-18","","NA"
"2015-02-01 16:00","2015","02","01","16:00","-10.1","","-16.3","","61","","10","","17","","11.3","","99.99","","","","-17","","Cloudy"
"2015-02-01 17:00","2015","02","01","17:00","-11.1","","-17.4","","60","","7","","18","","9.7","","99.95","","","","-19","","Snow"
"2015-02-01 18:00","2015","02","01","18:00","-12.1","","-15.2","","78","","5","","19","","6.4","","99.84","","","","-20","","Snow"
"2015-02-01 19:00","2015","02","01","19:00","-12.4","","-15.5","","78","","6","","20","","6.4","","99.72","","","","-21","","Snow"
"2015-02-01 20:00","2015","02","01","20:00","-12.8","","-15.6","","80","","4","","21","","2.4","","99.59","","","","-22","","Snow"
"2015-02-01 21:00","2015","02","01","21:00","-13.1","","-15.4","","83","","5","","22","","2.0","","99.47","","","","-22","","Snow"
"2015-02-01 22:00","2015","02","01","22:00","-13.5","","-16.0","","82","","4","","31","","1.6","","99.34","","","","-24","","Snow"
"2015-02-01 23:00","2015","02","01","23:00","-13.7","","-16.0","","83","","5","","22","","1.2","","99.18","","","","-23","","Snow"
"2015-02-02 00:00","2015","02","02","00:00","-14.0","","-16.3","","83","","4","","24","","1.2","","98.98","","","","-24","","Snow"
"2015-02-02 01:00","2015","02","02","01:00","-14.2","","-16.5","","83","","5","","25","","1.2","","98.84","","","","-24","","Snow"
"2015-02-02 02:00","2015","02","02","02:00","-14.4","","-16.7","","83","","3","","25","","1.2","","98.71","","","","-24","","Snow"
"2015-02-02 03:00","2015","02","02","03:00","-14.9","","-17.2","","83","","2","","32","","1.2","","98.59","","","","-26","","Snow,Blowing Snow"
"2015-02-02 04:00","2015","02","02","04:00","-15.3","","-17.7","","82","","1","","31","","1.2","","98.54","","","","-27","","Snow,Blowing Snow"
"2015-02-02 05:00","2015","02","02","05:00","-15.1","","-17.4","","83","","1","","29","","1.6","","98.45","","","","-26","","Snow,Blowing Snow"
"2015-02-02 06:00","2015","02","02","06:00","-14.9","","-17.5","","81","","36","","25","","2.0","","98.44","","","","-25","","Snow,Blowing Snow"
"2015-02-02 07:00","2015","02","02","07:00","-15.1","","-17.7","","81","","1","","28","","1.2","","98.45","","","","-26","","Snow,Blowing Snow"
"2015-02-02 08:00","2015","02","02","08:00","-15.4","","-17.8","","82","","36","","30","","1.0","","98.54","","","","-27","","Snow,Blowing Snow"
"2015-02-02 09:00","2015","02","02","09:00","-15.2","","-17.9","","80","","36","","37","","1.6","","98.66","","","","-27","","Snow,Blowing Snow"
"2015-02-02 10:00","2015","02","02","10:00","-14.5","","-17.4","","79","","36","","32","","1.0","","98.78","","","","-26","","Snow,Blowing Snow"
"2015-02-02 11:00","2015","02","02","11:00","-14.4","","-17.8","","76","","36","","33","","1.6","","98.92","","","","-26","","Snow,Blowing Snow"
"2015-02-02 12:00","2015","02","02","12:00","-13.7","","-18.1","","70","","35","","34","","12.9","","98.98","","","","-25","","Snow,Blowing Snow"
"2015-02-02 13:00","2015","02","02","13:00","-13.4","","-17.9","","69","","35","","35","","16.1","","99.02","","","","-25","","Snow,Blowing Snow"
"2015-02-02 14:00","2015","02","02","14:00","-12.1","","-16.9","","68","","35","","28","","24.1","","99.09","","","","-22","","NA"
"2015-02-02 15:00","2015","02","02","15:00","-11.3","","-15.9","","69","","34","","28","","24.1","","99.19","","","","-21","","NA"
"2015-02-02 16:00","2015","02","02","16:00","-11.3","","-16.3","","67","","35","","25","","24.1","","99.28","","","","-20","","Mainly Clear"
"2015-02-02 17:00","2015","02","02","17:00","-11.6","","-16.4","","68","","34","","21","","24.1","","99.39","","","","-20","","NA"
"2015-02-02 18:00","2015","02","02","18:00","-12.4","","-16.5","","72","","34","","18","","24.1","","99.49","","","","-20","","NA"
"2015-02-02 19:00","2015","02","02","19:00","-13.4","","-19.0","","63","","31","","18","","24.1","","99.59","","","","-22","","Clear"
"2015-02-02 20:00","2015","02","02","20:00","-14.1","","-19.2","","66","","30","","17","","24.1","","99.70","","","","-22","","NA"
"2015-02-02 21:00","2015","02","02","21:00","-14.6","","-18.9","","70","","29","","20","","24.1","","99.81","","","","-24","","NA"
"2015-02-02 22:00","2015","02","02","22:00","-15.9","","-20.2","","70","","29","","14","","24.1","","99.85","","","","-24","","Mainly Clear"
"2015-02-02 23:00","2015","02","02","23:00","-15.6","","-19.1","","75","","27","","10","","24.1","","99.86","","","","-22","","NA"
"2015-02-03 00:00","2015","02","03","00:00","-14.8","","-18.6","","73","","24","","14","","24.1","","99.89","","","","-22","","NA"
"2015-02-03 01:00","2015","02","03","01:00","-15.1","","-18.6","","75","","23","","14","","24.1","","99.85","","","","-23","","Mostly Cloudy"
"2015-02-03 02:00","2015","02","03","02:00","-16.0","","-18.7","","80","","24","","12","","24.1","","99.84","","","","-23","","NA"
"2015-02-03 03:00","2015","02","03","03:00","-15.9","","-18.6","","80","","25","","16","","24.1","","99.84","","","","-24","","NA"
"2015-02-03 04:00","2015","02","03","04:00","-15.4","","-18.3","","79","","24","","12","","24.1","","99.83","","","","-22","","Mostly Cloudy"
"2015-02-03 05:00","2015","02","03","05:00","-15.4","","-19.2","","73","","23","","11","","24.1","","99.84","","","","-22","","NA"
"2015-02-03 06:00","2015","02","03","06:00","-14.2","","-18.9","","68","","21","","7","","24.1","","99.79","","","","-19","","NA"
"2015-02-03 07:00","2015","02","03","07:00","-13.7","","-18.1","","70","","20","","9","","24.1","","99.83","","","","-19","","Mostly Cloudy"
"2015-02-03 08:00","2015","02","03","08:00","-13.3","","-17.2","","73","","20","","9","","24.1","","99.83","","","","-19","","NA"
"2015-02-03 09:00","2015","02","03","09:00","-11.9","","-15.3","","76","","25","","23","","24.1","","99.84","","","","-21","","NA"
"2015-02-03 10:00","2015","02","03","10:00","-11.3","","-14.9","","75","","24","","22","","24.1","","99.89","","","","-20","","Mostly Cloudy"
"2015-02-03 11:00","2015","02","03","11:00","-8.9","","-13.8","","68","","23","","24","","24.1","","99.93","","","","-17","","NA"
"2015-02-03 12:00","2015","02","03","12:00","-6.7","","-12.4","","64","","24","","24","","24.1","","99.90","","","","-14","","NA"
"2015-02-03 13:00","2015","02","03","13:00","-5.7","","-11.7","","63","","23","","35","","24.1","","99.84","","","","-14","","Mostly Cloudy"
"2015-02-03 14:00","2015","02","03","14:00","-6.0","","-12.0","","63","","25","","39","","24.1","","99.83","","","","-15","","NA"
"2015-02-03 15:00","2015","02","03","15:00","-6.3","","-11.7","","66","","24","","37","","24.1","","99.85","","","","-16","","NA"
"2015-02-03 16:00","2015","02","03","16:00","-6.4","","-13.0","","60","","23","","28","","24.1","","99.86","","","","-15","","Mostly Cloudy"
"2015-02-03 17:00","2015","02","03","17:00","-7.0","","-12.9","","63","","24","","25","","24.1","","99.86","","","","-15","","NA"
"2015-02-03 18:00","2015","02","03","18:00","-7.1","","-12.1","","68","","22","","24","","24.1","","99.90","","","","-15","","NA"
"2015-02-03 19:00","2015","02","03","19:00","-7.1","","-12.2","","67","","24","","27","","24.1","","99.94","","","","-15","","Mostly Cloudy"
"2015-02-03 20:00","2015","02","03","20:00","-7.8","","-12.4","","70","","23","","17","","24.1","","99.97","","","","-14","","NA"
"2015-02-03 21:00","2015","02","03","21:00","-7.9","","-11.9","","73","","24","","16","","24.1","","99.97","","","","-14","","NA"
"2015-02-03 22:00","2015","02","03","22:00","-7.6","","-10.5","","80","","23","","9","","8.1","","99.92","","","","-12","","Snow"
"2015-02-03 23:00","2015","02","03","23:00","-7.2","","-9.0","","87","","21","","8","","9.7","","99.88","","","","-11","","Snow"
"2015-02-04 00:00","2015","02","04","00:00","-6.9","","-8.4","","89","","18","","3","","6.4","","99.83","","","","-8","","Snow"
"2015-02-04 01:00","2015","02","04","01:00","-6.7","","-7.9","","91","","36","","3","","4.8","","99.75","","","","-8","","Snow"
"2015-02-04 02:00","2015","02","04","02:00","-6.2","","-7.4","","91","","16","","4","","6.4","","99.69","","","","-8","","Snow"
"2015-02-04 03:00","2015","02","04","03:00","-5.5","","-6.9","","90","","21","","12","","6.4","","99.61","","","","-10","","Snow"
"2015-02-04 04:00","2015","02","04","04:00","-5.0","","-6.4","","90","","21","","11","","6.4","","99.50","","","","-10","","Snow"
"2015-02-04 05:00","2015","02","04","05:00","-4.9","","-6.3","","90","","20","","9","","12.9","","99.40","","","","-9","","NA"
"2015-02-04 06:00","2015","02","04","06:00","-4.3","","-5.7","","90","","20","","9","","6.4","","99.36","","","","-8","","Snow"
"2015-02-04 07:00","2015","02","04","07:00","-3.9","","-5.3","","90","","36","","3","","6.4","","99.34","","","","-5","","Snow"
"2015-02-04 08:00","2015","02","04","08:00","-3.5","","-5.1","","89","","24","","3","","6.4","","99.32","","","","-5","","Snow"
"2015-02-04 09:00","2015","02","04","09:00","-3.1","","-4.5","","90","","22","","4","","4.8","","99.33","","","","-5","","Snow"
"2015-02-04 10:00","2015","02","04","10:00"
"2015-02-04 11:00","2015","02","04","11:00","-2.8","","-3.8","","93","","36","","1","","2.8","","99.27","","","","-3","","Snow"
"2015-02-04 12:00","2015","02","04","12:00","-2.3","","-3.6","","91","","26","","9","","6.4","","99.24","","","","-6","","Snow"
"2015-02-04 13:00","2015","02","04","13:00","-1.9","","-3.8","","87","","25","","17","","6.4","","99.17","","","","-7","","Snow"
"2015-02-04 14:00","2015","02","04","14:00","-1.6","","-5.1","","77","","28","","32","","19.3","","99.14","","","","-9","","Snow"
"2015-02-04 15:00","2015","02","04","15:00","-2.3","","-4.8","","83","","29","","25","","4.0","","99.13","","","","-9","","Snow"
"2015-02-04 16:00","2015","02","04","16:00","-2.6","","-5.9","","78","","29","","24","","4.0","","99.15","","","","-9","","Snow"
"2015-02-04 17:00","2015","02","04","17:00","-3.6","","-7.2","","76","","28","","26","","6.4","","99.25","","","","-11","","Snow"
"2015-02-04 18:00","2015","02","04","18:00","-5.6","","-7.6","","86","","35","","20","","4.8","","99.38","","","","-12","","Snow"
"2015-02-04 19:00","2015","02","04","19:00","-5.8","","-8.2","","83","","35","","14","","6.4","","99.46","","","","-11","","Snow"
"2015-02-04 20:00","2015","02","04","20:00","-6.1","","-8.4","","84","","35","","19","","12.9","","99.50","","","","-13","","NA"
"2015-02-04 21:00","2015","02","04","21:00","-6.9","","-10.1","","78","","35","","20","","24.1","","99.59","","","","-14","","NA"
"2015-02-04 22:00","2015","02","04","22:00","-7.4","","-9.5","","85","","30","","11","","19.3","","99.66","","","","-12","","Snow"
"2015-02-04 23:00","2015","02","04","23:00","-8.7","","-10.9","","84","","32","","14","","24.1","","99.67","","","","-15","","NA"
"2015-02-05 00:00","2015","02","05","00:00","-8.3","","-11.3","","79","","33","","23","","12.9","","99.75","","","","-16","","Snow,Blowing Snow"
"2015-02-05 01:00","2015","02","05","01:00","-9.5","","-14.2","","69","","33","","30","","24.1","","99.81","","","","-19","","Blowing Snow"
"2015-02-05 02:00","2015","02","05","02:00","-11.5","","-16.3","","68","","32","","18","","24.1","","99.86","","","","-19","","NA"
"2015-02-05 03:00","2015","02","05","03:00","-12.4","","-17.9","","64","","31","","20","","24.1","","99.95","","","","-21","","NA"
"2015-02-05 04:00","2015","02","05","04:00","-12.5","","-18.2","","63","","31","","22","","24.1","","99.99","","","","-21","","Mainly Clear"
"2015-02-05 05:00","2015","02","05","05:00","-12.9","","-18.0","","66","","30","","23","","24.1","","100.06","","","","-22","","NA"
"2015-02-05 06:00","2015","02","05","06:00","-14.1","","-18.6","","69","","32","","23","","24.1","","100.18","","","","-24","","NA"
"2015-02-05 07:00","2015","02","05","07:00","-14.9","","-19.4","","69","","32","","19","","24.1","","100.31","","","","-24","","Mainly Clear"
"2015-02-05 08:00","2015","02","05","08:00","-14.8","","-18.3","","75","","33","","24","","24.1","","100.44","","","","-25","","NA"
"2015-02-05 09:00","2015","02","05","09:00","-15.1","","-18.9","","73","","34","","23","","24.1","","100.55","","","","-25","","NA"
"2015-02-05 10:00","2015","02","05","10:00","-14.4","","-19.4","","66","","34","","14","","24.1","","100.61","","","","-22","","Mainly Clear"
"2015-02-05 11:00","2015","02","05","11:00","-13.5","","-20.1","","58","","35","","18","","24.1","","100.68","","","","-22","","NA"
"2015-02-05 12:00","2015","02","05","12:00","-12.5","","-19.2","","58","","32","","8","","24.1","","100.66","","","","-17","","NA"
"2015-02-05 13:00","2015","02","05","13:00","-11.5","","-20.2","","49","","30","","10","","24.1","","100.60","","","","-17","","Mainly Clear"
"2015-02-05 14:00","2015","02","05","14:00","-10.9","","-19.9","","48","","","","0","","24.1","","100.54","","","","","","NA"
"2015-02-05 15:00","2015","02","05","15:00","-9.6","","-19.0","","47","","28","","19","","24.1","","100.49","","","","-17","","NA"
"2015-02-05 16:00","2015","02","05","16:00","-10.2","","-18.5","","51","","26","","30","","24.1","","100.47","","","","-20","","Mostly Cloudy"
"2015-02-05 17:00","2015","02","05","17:00","-10.8","","-18.6","","53","","28","","23","","24.1","","100.45","","","","-19","","NA"
"2015-02-05 18:00","2015","02","05","18:00","-12.1","","-18.8","","58","","27","","16","","24.1","","100.45","","","","-20","","NA"
"2015-02-05 19:00","2015","02","05","19:00","-12.0","","-18.3","","60","","23","","16","","24.1","","100.42","","","","-19","","Clear"
"2015-02-05 20:00","2015","02","05","20:00","-12.4","","-17.9","","64","","23","","15","","24.1","","100.40","","","","-20","","NA"
"2015-02-05 21:00","2015","02","05","21:00","-13.5","","-18.4","","67","","24","","18","","24.1","","100.32","","","","-22","","NA"
"2015-02-05 22:00","2015","02","05","22:00","-13.3","","-18.8","","64","","22","","17","","24.1","","100.23","","","","-21","","Mostly Cloudy"
"2015-02-05 23:00","2015","02","05","23:00","-13.1","","-19.1","","61","","22","","18","","24.1","","100.14","","","","-21","","NA"
"2015-02-06 00:00","2015","02","06","00:00","-12.7","","-18.0","","65","","22","","21","","24.1","","100.04","","","","-21","","NA"
"2015-02-06 01:00","2015","02","06","01:00","-12.6","","-17.7","","66","","23","","23","","24.1","","99.93","","","","-22","","Mostly Cloudy"
"2015-02-06 02:00","2015","02","06","02:00","-13.1","","-17.5","","70","","20","","22","","24.1","","99.82","","","","-22","","NA"
"2015-02-06 03:00","2015","02","06","03:00","-12.5","","-16.2","","74","","22","","18","","19.3","","99.74","","","","-21","","Snow Showers"
"2015-02-06 04:00","2015","02","06","04:00","-11.7","","-15.0","","77","","23","","13","","1.2","","99.66","","","","-18","","Snow Showers"
"2015-02-06 05:00","2015","02","06","05:00","-10.7","","-12.9","","84","","24","","25","","4.8","","99.61","","","","-20","","Snow Showers"
"2015-02-06 06:00","2015","02","06","06:00","-10.1","","-13.9","","74","","26","","31","","9.7","","99.64","","","","-20","","Snow Showers,Blowing Snow"
"2015-02-06 07:00","2015","02","06","07:00","-10.1","","-13.9","","74","","25","","23","","9.7","","99.66","","","","-19","","Snow Showers,Blowing Snow"
"2015-02-06 08:00","2015","02","06","08:00","-10.4","","-14.2","","74","","23","","27","","24.1","","99.60","","","","-20","","Blowing Snow"
"2015-02-06 09:00","2015","02","06","09:00","-10.0","","-14.1","","72","","25","","29","","24.1","","99.64","","","","-19","","Blowing Snow"
"2015-02-06 10:00","2015","02","06","10:00","-8.9","","-13.3","","71","","25","","36","","24.1","","99.64","","","","-19","","Blowing Snow"
"2015-02-06 11:00","2015","02","06","11:00","-8.0","","-12.7","","69","","25","","39","","24.1","","99.66","","","","-18","","Blowing Snow"
"2015-02-06 12:00","2015","02","06","12:00","-7.2","","-12.5","","66","","25","","35","","24.1","","99.65","","","","-16","","Blowing Snow"
"2015-02-06 13:00","2015","02","06","13:00","-5.4","","-11.6","","62","","26","","26","","24.1","","99.66","","","","-13","","Blowing Snow"
"2015-02-06 14:00","2015","02","06","14:00","-4.9","","-10.7","","64","","25","","29","","24.1","","99.59","","","","-13","","Blowing Snow"
"2015-02-06 15:00","2015","02","06","15:00","-4.8","","-10.8","","63","","26","","31","","24.1","","99.65","","","","-13","","NA"
"2015-02-06 16:00","2015","02","06","16:00","-5.6","","-10.8","","67","","26","","19","","24.1","","99.64","","","","-12","","Mainly Clear"
"2015-02-06 17:00","2015","02","06","17:00","-5.7","","-10.7","","68","","27","","18","","24.1","","99.69","","","","-12","","NA"
"2015-02-06 18:00","2015","02","06","18:00","-5.7","","-10.2","","71","","26","","27","","24.1","","99.75","","","","-14","","NA"
"2015-02-06 19:00","2015","02","06","19:00","-5.8","","-10.3","","71","","26","","23","","24.1","","99.77","","","","-13","","Mostly Cloudy"
"2015-02-06 20:00","2015","02","06","20:00","-5.7","","-10.0","","72","","27","","16","","24.1","","99.79","","","","-12","","NA"
"2015-02-06 21:00","2015","02","06","21:00","-5.6","","-9.7","","73","","25","","19","","24.1","","99.78","","","","-12","","NA"
"2015-02-06 22:00","2015","02","06","22:00","-5.2","","-9.5","","72","","26","","22","","24.1","","99.72","","","","-12","","Cloudy"
"2015-02-06 23:00","2015","02","06","23:00","-5.2","","-9.0","","75","","24","","12","","24.1","","99.68","","","","-10","","NA"
"2015-02-07 00:00","2015","02","07","00:00","-5.3","","-9.1","","75","","22","","10","","24.1","","99.68","","","","-10","","NA"
"2015-02-07 01:00","2015","02","07","01:00","-4.6","","-8.2","","76","","26","","14","","24.1","","99.68","","","","-10","","Cloudy"
"2015-02-07 02:00","2015","02","07","02:00","-4.3","","-8.1","","75","","24","","8","","24.1","","99.63","","","","-8","","NA"
"2015-02-07 03:00","2015","02","07","03:00","-4.4","","-8.2","","75","","18","","5","","24.1","","99.64","","","","-7","","NA"
"2015-02-07 04:00","2015","02","07","04:00","-4.5","","-8.1","","76","","21","","12","","24.1","","99.54","","","","-9","","Cloudy"
"2015-02-07 05:00","2015","02","07","05:00","-4.8","","-8.4","","76","","22","","12","","24.1","","99.54","","","","-10","","NA"
"2015-02-07 06:00","2015","02","07","06:00","-4.6","","-8.4","","75","","20","","5","","24.1","","99.48","","","","-7","","NA"
"2015-02-07 07:00","2015","02","07","07:00","-5.2","","-7.0","","87","","21","","10","","2.0","","99.52","","","","-10","","Snow"
"2015-02-07 08:00","2015","02","07","08:00","-5.3","","-6.5","","91","","20","","8","","2.8","","99.50","","","","-9","","Snow"
"2015-02-07 09:00","2015","02","07","09:00","-4.9","","-6.4","","89","","15","","3","","6.4","","99.45","","","","-6","","Snow"
"2015-02-07 10:00","2015","02","07","10:00","-4.5","","-6.2","","88","","36","","1","","6.4","","99.40","","","","-5","","Snow"
"2015-02-07 11:00","2015","02","07","11:00","-3.8","","-5.8","","86","","36","","1","","3.2","","99.43","","","","-4","","Snow"
"2015-02-07 12:00","2015","02","07","12:00","-3.5","","-5.1","","89","","4","","7","","3.2","","99.36","","","","-6","","Snow"
"2015-02-07 13:00","2015","02","07","13:00","-3.0","","-4.9","","87","","11","","7","","3.2","","99.23","","","","-6","","Snow"
"2015-02-07 14:00","2015","02","07","14:00","-2.8","","-4.8","","86","","14","","7","","6.4","","99.20","","","","-6","","Snow"
"2015-02-07 15:00","2015","02","07","15:00","-2.5","","-4.5","","86","","13","","8","","6.4","","99.19","","","","-6","","Snow"
"2015-02-07 16:00","2015","02","07","16:00","-2.6","","-4.3","","88","","12","","9","","8.1","","99.17","","","","-6","","Snow"
"2015-02-07 17:00","2015","02","07","17:00","-2.7","","-4.0","","91","","10","","8","","2.0","","99.19","","","","-6","","Snow"
"2015-02-07 18:00","2015","02","07","18:00","-2.9","","-3.9","","93","","7","","10","","2.4","","99.19","","","","-7","","Snow"
"2015-02-07 19:00","2015","02","07","19:00","-3.1","","-4.2","","92","","6","","11","","4.8","","99.25","","","","-7","","Snow"
"2015-02-07 20:00","2015","02","07","20:00","-3.1","","-4.1","","93","","8","","17","","8.1","","99.22","","","","-9","","Snow"
"2015-02-07 21:00","2015","02","07","21:00","-4.4","","-5.7","","91","","8","","21","","3.2","","99.25","","","","-11","","Snow"
"2015-02-07 22:00","2015","02","07","22:00","-5.4","","-6.9","","89","","10","","28","","6.4","","99.28","","","","-13","","Snow"
"2015-02-07 23:00","2015","02","07","23:00","-6.5","","-8.0","","89","","8","","20","","16.1","","99.22","","","","-13","","NA"
"2015-02-08 00:00","2015","02","08","00:00","-7.9","","-9.6","","88","","7","","14","","19.3","","99.25","","","","-14","","NA"
"2015-02-08 01:00","2015","02","08","01:00","-8.3","","-10.0","","88","","7","","16","","19.3","","99.23","","","","-15","","Cloudy"
"2015-02-08 02:00","2015","02","08","02:00","-8.2","","-9.6","","90","","7","","18","","19.3","","99.14","","","","-15","","Snow"
"2015-02-08 03:00","2015","02","08","03:00","-9.7","","-11.5","","87","","7","","22","","19.3","","99.08","","","","-18","","Snow"
"2015-02-08 04:00","2015","02","08","04:00","-9.9","","-11.7","","87","","6","","15","","19.3","","99.01","","","","-17","","Snow"
"2015-02-08 05:00","2015","02","08","05:00","-10.2","","-12.1","","86","","4","","22","","19.3","","99.00","","","","-18","","Snow"
"2015-02-08 06:00","2015","02","08","06:00","-10.3","","-11.9","","88","","6","","17","","19.3","","98.94","","","","-18","","Snow"
"2015-02-08 07:00","2015","02","08","07:00","-10.3","","-12.1","","87","","6","","16","","16.1","","98.97","","","","-17","","Snow"
"2015-02-08 08:00","2015","02","08","08:00","-10.2","","-12.1","","86","","5","","18","","9.7","","99.01","","","","-18","","Snow"
"2015-02-08 09:00","2015","02","08","09:00","-9.9","","-11.2","","90","","5","","14","","4.8","","98.96","","","","-16","","Freezing Drizzle,Snow"
"2015-02-08 10:00","2015","02","08","10:00","-9.8","","-11.1","","90","","3","","19","","3.2","","99.02","","","","-17","","Freezing Drizzle,Snow,Fog"
"2015-02-08 11:00","2015","02","08","11:00","-9.7","","-11.3","","88","","3","","21","","4.0","","99.00","","","","-18","","Freezing Drizzle,Snow,Fog"
"2015-02-08 12:00","2015","02","08","12:00","-10.2","","-11.8","","88","","3","","21","","4.0","","99.01","","","","-18","","Freezing Drizzle,Snow,Fog"
"2015-02-08 13:00","2015","02","08","13:00","-9.9","","-11.5","","88","","4","","15","","2.8","","98.98","","","","-17","","Freezing Drizzle,Snow,Fog"
"2015-02-08 14:00","2015","02","08","14:00","-9.9","","-11.7","","87","","2","","19","","2.8","","99.03","","","","-18","","Snow"
"2015-02-08 15:00","2015","02","08","15:00","-9.9","","-12.0","","85","","3","","18","","3.2","","99.06","","","","-17","","Snow"
"2015-02-08 16:00","2015","02","08","16:00","-10.1","","-12.0","","86","","5","","12","","3.2","","99.11","","","","-16","","Snow"
"2015-02-08 17:00","2015","02","08","17:00","-10.3","","-12.8","","82","","6","","17","","12.9","","99.20","","","","-18","","NA"
"2015-02-08 18:00","2015","02","08","18:00","-10.8","","-13.2","","83","","5","","19","","6.4","","99.31","","","","-19","","Snow"
"2015-02-08 19:00","2015","02","08","19:00","-11.3","","-13.6","","83","","4","","24","","8.1","","99.40","","","","-20","","Snow"
"2015-02-08 20:00","2015","02","08","20:00","-11.8","","-13.8","","85","","4","","19","","4.8","","99.49","","","","-20","","Snow"
"2015-02-08 21:00","2015","02","08","21:00","-11.9","","-14.1","","84","","4","","23","","4.8","","99.52","","","","-21","","Snow"
"2015-02-08 22:00","2015","02","08","22:00","-12.5","","-15.0","","82","","3","","25","","8.1","","99.54","","","","-22","","Snow"
"2015-02-08 23:00","2015","02","08","23:00","-12.9","","-15.7","","80","","4","","24","","9.7","","99.58","","","","-22","","Snow,Blowing Snow"
"2015-02-09 00:00","2015","02","09","00:00","-13.0","","-15.9","","79","","5","","19","","12.9","","99.58","","","","-21","","Snow,Blowing Snow"
"2015-02-09 01:00","2015","02","09","01:00","-13.2","","-16.1","","79","","3","","20","","19.3","","99.57","","","","-22","","Snow,Blowing Snow"
"2015-02-09 02:00","2015","02","09","02:00","-13.2","","-16.3","","78","","4","","24","","19.3","","99.60","","","","-23","","Snow,Blowing Snow"
"2015-02-09 03:00","2015","02","09","03:00","-13.1","","-16.2","","78","","3","","18","","24.1","","99.63","","","","-21","","Snow"
"2015-02-09 04:00","2015","02","09","04:00","-13.0","","-16.2","","77","","4","","19","","24.1","","99.62","","","","-21","","Snow"
"2015-02-09 05:00","2015","02","09","05:00","-12.9","","-16.1","","77","","3","","24","","24.1","","99.63","","","","-22","","NA"
"2015-02-09 06:00","2015","02","09","06:00","-12.7","","-15.8","","78","","3","","19","","24.1","","99.66","","","","-21","","NA"
"2015-02-09 07:00","2015","02","09","07:00","-12.7","","-15.8","","78","","1","","21","","16.1","","99.73","","","","-21","","Cloudy"
"2015-02-09 08:00","2015","02","09","08:00","-12.5","","-15.6","","78","","3","","20","","19.3","","99.77","","","","-21","","NA"
"2015-02-09 09:00","2015","02","09","09:00","-12.4","","-15.6","","77","","3","","20","","19.3","","99.79","","","","-21","","NA"
"2015-02-09 10:00","2015","02","09","10:00","-12.0","","-15.4","","76","","3","","17","","6.4","","99.83","","","","-20","","Snow"
"2015-02-09 11:00","2015","02","09","11:00","-11.6","","-15.0","","76","","36","","11","","6.4","","99.87","","","","-18","","Snow"
"2015-02-09 12:00","2015","02","09","12:00","-11.6","","-14.9","","77","","34","","17","","12.9","","99.91","","","","-19","","Snow"
"2015-02-09 13:00","2015","02","09","13:00","-11.7","","-15.3","","75","","34","","19","","19.3","","99.89","","","","-20","","Snow"
"2015-02-09 14:00","2015","02","09","14:00","-11.4","","-15.2","","74","","35","","18","","24.1","","99.83","","","","-19","","NA"
"2015-02-09 15:00","2015","02","09","15:00","-11.0","","-14.9","","73","","1","","17","","16.1","","99.85","","","","-18","","Snow"
"2015-02-09 16:00","2015","02","09","16:00","-10.6","","-14.6","","73","","35","","15","","19.3","","99.87","","","","-17","","Snow"
"2015-02-09 17:00","2015","02","09","17:00","-10.8","","-14.1","","77","","1","","16","","4.8","","99.92","","","","-18","","Snow"
"2015-02-09 18:00","2015","02","09","18:00","-11.1","","-14.2","","78","","1","","17","","19.3","","99.98","","","","-19","","NA"
"2015-02-09 19:00","2015","02","09","19:00","-10.7","","-14.5","","74","","1","","20","","16.1","","100.03","","","","-19","","Snow"
"2015-02-09 20:00","2015","02","09","20:00","-10.6","","-14.2","","75","","35","","13","","19.3","","100.06","","","","-17","","Snow"
"2015-02-09 21:00","2015","02","09","21:00","-10.6","","-14.1","","76","","36","","12","","24.1","","100.10","","","","-17","","NA"
"2015-02-09 22:00","2015","02","09","22:00","-10.8","","-13.9","","78","","35","","11","","24.1","","100.12","","","","-17","","Mostly Cloudy"
"2015-02-09 23:00","2015","02","09","23:00","-11.0","","-14.1","","78","","34","","14","","16.1","","100.16","","","","-18","","Snow Showers"
"2015-02-10 00:00","2015","02","10","00:00","-10.8","","-14.1","","77","","35","","14","","24.1","","100.17","","","","-17","","NA"
"2015-02-10 01:00","2015","02","10","01:00","-10.4","","-13.7","","77","","1","","8","","24.1","","100.17","","","","-15","","Cloudy"
"2015-02-10 02:00","2015","02","10","02:00","-10.2","","-13.3","","78","","36","","8","","24.1","","100.19","","","","-15","","NA"
"2015-02-10 03:00","2015","02","10","03:00","-10.0","","-13.3","","77","","2","","4","","24.1","","100.17","","","","-12","","NA"
"2015-02-10 04:00","2015","02","10","04:00","-9.8","","-13.6","","74","","1","","5","","24.1","","100.17","","","","-13","","Cloudy"
"2015-02-10 05:00","2015","02","10","05:00","-9.5","","-13.1","","75","","34","","7","","24.1","","100.23","","","","-13","","NA"
"2015-02-10 06:00","2015","02","10","06:00","-9.4","","-12.2","","80","","2","","9","","24.1","","100.24","","","","-14","","NA"
"2015-02-10 07:00","2015","02","10","07:00","-9.8","","-13.0","","78","","35","","15","","24.1","","100.26","","","","-16","","Mostly Cloudy"
"2015-02-10 08:00","2015","02","10","08:00","-9.7","","-12.5","","80","","35","","16","","19.3","","100.38","","","","-17","","NA"
"2015-02-10 09:00","2015","02","10","09:00","-8.5","","-12.2","","75","","1","","15","","19.3","","100.45","","","","-15","","Snow Showers"
"2015-02-10 10:00","2015","02","10","10:00","-8.4","","-12.2","","74","","36","","18","","24.1","","100.44","","","","-15","","Mostly Cloudy"
"2015-02-10 11:00","2015","02","10","11:00","-7.0","","-11.2","","72","","35","","15","","24.1","","100.46","","","","-13","","NA"
"2015-02-10 12:00","2015","02","10","12:00","-6.8","","-11.2","","71","","36","","10","","24.1","","100.43","","","","-11","","NA"
"2015-02-10 13:00","2015","02","10","13:00","-6.3","","-11.3","","68","","34","","13","","24.1","","100.38","","","","-12","","Mainly Clear"
"2015-02-10 14:00","2015","02","10","14:00","-5.9","","-11.1","","67","","2","","11","","24.1","","100.33","","","","-11","","NA"
"2015-02-10 15:00","2015","02","10","15:00","-5.4","","-11.0","","65","","30","","8","","24.1","","100.32","","","","-9","","NA"
"2015-02-10 16:00","2015","02","10","16:00","-5.2","","-10.6","","66","","2","","12","","24.1","","100.30","","","","-10","","Mostly Cloudy"
"2015-02-10 17:00","2015","02","10","17:00","-5.6","","-9.5","","74","","15","","10","","24.1","","100.32","","","","-10","","NA"
"2015-02-10 18:00","2015","02","10","18:00","-6.1","","-9.2","","79","","12","","7","","24.1","","100.35","","","","-9","","NA"
"2015-02-10 19:00","2015","02","10","19:00","-6.0","","-9.4","","77","","13","","5","","24.1","","100.37","","","","-8","","Mostly Cloudy"
"2015-02-10 20:00","2015","02","10","20:00","-7.9","","-11.6","","75","","2","","7","","24.1","","100.36","","","","-12","","NA"
"2015-02-10 21:00","2015","02","10","21:00","-7.4","","-10.6","","78","","4","","3","","24.1","","100.37","","","","-9","","NA"
"2015-02-10 22:00","2015","02","10","22:00","-8.2","","-10.9","","81","","2","","3","","24.1","","100.32","","","","-10","","Mostly Cloudy"
"2015-02-10 23:00","2015","02","10","23:00","-8.7","","-11.1","","83","","3","","6","","24.1","","100.23","","","","-12","","NA"
"2015-02-11 00:00","2015","02","11","00:00","-7.9","","-10.6","","81","","4","","8","","24.1","","100.15","","","","-12","","NA"
"2015-02-11 01:00","2015","02","11","01:00","-8.1","","-10.7","","82","","25","","3","","24.1","","100.13","","","","-10","","Mostly Cloudy"
"2015-02-11 02:00","2015","02","11","02:00","-7.8","","-10.2","","83","","30","","3","","24.1","","100.09","","","","-9","","NA"
"2015-02-11 03:00","2015","02","11","03:00","-9.1","","-11.3","","84","","3","","5","","24.1","","100.02","","","","-12","","NA"
"2015-02-11 04:00","2015","02","11","04:00","-5.8","","-8.9","","79","","14","","11","","24.1","","99.90","","","","-11","","Cloudy"
"2015-02-11 05:00","2015","02","11","05:00","-5.9","","-8.7","","81","","13","","22","","24.1","","99.83","","","","-13","","NA"
"2015-02-11 06:00","2015","02","11","06:00","-5.9","","-8.5","","82","","15","","21","","24.1","","99.84","","","","-13","","NA"
"2015-02-11 07:00","2015","02","11","07:00","-6.1","","-9.0","","80","","14","","19","","24.1","","99.78","","","","-13","","Cloudy"
"2015-02-11 08:00","2015","02","11","08:00","-5.6","","-8.7","","79","","13","","16","","24.1","","99.71","","","","-12","","NA"
"2015-02-11 09:00","2015","02","11","09:00","-4.9","","-9.0","","73","","13","","20","","24.1","","99.63","","","","-11","","NA"
"2015-02-11 10:00","2015","02","11","10:00","-5.1","","-9.0","","74","","19","","19","","19.3","","99.58","","","","-12","","Cloudy"
"2015-02-11 11:00","2015","02","11","11:00","-5.0","","-8.3","","78","","15","","12","","12.9","","99.44","","","","-10","","NA"
"2015-02-11 12:00","2015","02","11","12:00","-4.7","","-7.5","","81","","15","","15","","12.9","","99.30","","","","-10","","NA"
"2015-02-11 13:00","2015","02","11","13:00","-4.1","","-6.9","","81","","18","","12","","9.7","","99.15","","","","-9","","Snow Showers"
"2015-02-11 14:00","2015","02","11","14:00","-3.8","","-6.8","","80","","18","","10","","9.7","","99.05","","","","-8","","Snow Showers"
"2015-02-11 15:00","2015","02","11","15:00","-3.9","","-5.9","","86","","14","","12","","1.2","","98.95","","","","-9","","Snow"
"2015-02-11 16:00","2015","02","11","16:00","-3.2","","-4.5","","91","","19","","5","","2.0","","98.90","","","","-5","","Snow"
"2015-02-11 17:00","2015","02","11","17:00","-2.7","","-4.3","","89","","19","","8","","6.4","","98.89","","","","-6","","Snow"
"2015-02-11 18:00","2015","02","11","18:00","-2.4","","-4.6","","85","","23","","18","","9.7","","98.88","","","","-8","","Freezing Drizzle"
"2015-02-11 19:00","2015","02","11","19:00","-2.6","","-4.5","","87","","25","","21","","9.7","","98.87","","","","-9","","Snow"
"2015-02-11 20:00","2015","02","11","20:00","-2.7","","-4.3","","89","","25","","22","","9.7","","98.84","","","","-9","","NA"
"2015-02-11 21:00","2015","02","11","21:00","-2.7","","-4.3","","89","","25","","21","","9.7","","98.81","","","","-9","","NA"
"2015-02-11 22:00","2015","02","11","22:00","-2.5","","-4.2","","88","","25","","22","","8.1","","98.76","","","","-9","","Snow"
"2015-02-11 23:00","2015","02","11","23:00","-2.1","","-5.3","","79","","28","","22","","24.1","","98.73","","","","-8","","NA"
"2015-02-12 00:00","2015","02","12","00:00","-2.4","","-5.4","","80","","28","","25","","24.1","","98.72","","","","-9","","NA"
"2015-02-12 01:00","2015","02","12","01:00","-2.7","","-5.2","","83","","30","","22","","24.1","","98.77","","","","-9","","Cloudy"
"2015-02-12 02:00","2015","02","12","02:00","-3.4","","-7.2","","75","","31","","25","","24.1","","98.80","","","","-10","","NA"
"2015-02-12 03:00","2015","02","12","03:00","-4.4","","-9.5","","68","","31","","33","","24.1","","98.82","","","","-13","","NA"
"2015-02-12 04:00","2015","02","12","04:00","-6.1","","-10.9","","69","","31","","35","","24.1","","98.87","","","","-15","","Blowing Snow"
"2015-02-12 05:00","2015","02","12","05:00","-6.8","","-12.3","","65","","30","","37","","24.1","","98.93","","","","-16","","Blowing Snow"
"2015-02-12 06:00","2015","02","12","06:00","-8.2","","-13.1","","68","","28","","24","","24.1","","98.95","","","","-16","","Blowing Snow"
"2015-02-12 07:00","2015","02","12","07:00","-8.9","","-13.3","","71","","27","","23","","24.1","","98.99","","","","-17","","Blowing Snow"
"2015-02-12 08:00","2015","02","12","08:00","-9.4","","-13.2","","74","","29","","19","","24.1","","99.04","","","","-17","","NA"
"2015-02-12 09:00","2015","02","12","09:00","-10.6","","-16.8","","61","","33","","37","","24.1","","99.15","","","","-21","","Blowing Snow"
"2015-02-12 10:00","2015","02","12","10:00","-12.3","","-18.0","","63","","33","","37","","24.1","","99.28","","","","-23","","Mainly Clear"
"2015-02-12 11:00","2015","02","12","11:00","-14.5","","-20.5","","61","","35","","39","","24.1","","99.41","","","","-27","","NA"
"2015-02-12 12:00","2015","02","12","12:00","-15.2","","-21.1","","61","","34","","37","","24.1","","99.48","","","","-27","","NA"
"2015-02-12 13:00","2015","02","12","13:00","-14.9","","-21.9","","56","","34","","39","","24.1","","99.51","","","","-27","","Mainly Clear"
"2015-02-12 14:00","2015","02","12","14:00","-15.0","","-22.2","","55","","33","","32","","24.1","","99.57","","","","-26","","NA"
"2015-02-12 15:00","2015","02","12","15:00","-15.0","","-21.7","","57","","34","","31","","24.1","","99.68","","","","-26","","NA"
"2015-02-12 16:00","2015","02","12","16:00","-15.2","","-21.7","","58","","34","","30","","24.1","","99.79","","","","-26","","Mostly Cloudy"
"2015-02-12 17:00","2015","02","12","17:00","-15.3","","-22.2","","56","","33","","39","","24.1","","99.87","","","","-28","","NA"
"2015-02-12 18:00","2015","02","12","18:00","-16.1","","-22.6","","58","","31","","33","","24.1","","100.02","","","","-28","","NA"
"2015-02-12 19:00","2015","02","12","19:00","-16.3","","-22.2","","61","","31","","29","","24.1","","100.10","","","","-28","","Mainly Clear"
"2015-02-12 20:00","2015","02","12","20:00","-16.4","","-21.4","","66","","32","","28","","24.1","","100.15","","","","-28","","NA"
"2015-02-12 21:00","2015","02","12","21:00","-16.5","","-21.1","","68","","31","","19","","24.1","","100.22","","","","-26","","NA"
"2015-02-12 22:00","2015","02","12","22:00","-16.8","","-20.3","","75","","33","","20","","24.1","","100.25","","","","-26","","Mainly Clear"
"2015-02-12 23:00","2015","02","12","23:00","-17.2","","-21.8","","68","","34","","28","","24.1","","100.28","","","","-29","","NA"
"2015-02-13 00:00","2015","02","13","00:00","-18.2","","-23.1","","66","","32","","20","","24.1","","100.30","","","","-28","","NA"
"2015-02-13 01:00","2015","02","13","01:00","-18.8","","-23.7","","66","","33","","22","","24.1","","100.34","","","","-29","","Clear"
"2015-02-13 02:00","2015","02","13","02:00","-19.5","","-24.3","","66","","32","","24","","24.1","","100.34","","","","-31","","NA"
"2015-02-13 03:00","2015","02","13","03:00","-20.6","","-25.6","","65","","33","","23","","24.1","","100.34","","","","-32","","NA"
"2015-02-13 04:00","2015","02","13","04:00","-21.2","","-26.3","","64","","33","","21","","24.1","","100.34","","","","-32","","Clear"
"2015-02-13 05:00","2015","02","13","05:00","-22.1","","-26.7","","67","","32","","18","","24.1","","100.37","","","","-33","","NA"
"2015-02-13 06:00","2015","02","13","06:00","-22.5","","-26.6","","70","","31","","14","","24.1","","100.42","","","","-32","","NA"
"2015-02-13 07:00","2015","02","13","07:00","-22.4","","-26.8","","68","","31","","14","","24.1","","100.45","","","","-32","","Clear"
"2015-02-13 08:00","2015","02","13","08:00","-22.1","","-26.9","","66","","31","","11","","24.1","","100.48","","","","-30","","NA"
"2015-02-13 09:00","2015","02","13","09:00","-21.0","","-26.0","","65","","32","","9","","24.1","","100.49","","","","-28","","NA"
"2015-02-13 10:00","2015","02","13","10:00","-19.6","","-25.3","","61","","32","","3","","24.1","","100.48","","","","-22","","Mainly Clear"
"2015-02-13 11:00","2015","02","13","11:00","-17.3","","-23.1","","61","","26","","10","","24.1","","100.41","","","","-24","","NA"
"2015-02-13 12:00","2015","02","13","12:00","-15.1","","-21.4","","59","","24","","16","","24.1","","100.33","","","","-23","","NA"
"2015-02-13 13:00","2015","02","13","13:00","-13.2","","-20.0","","57","","23","","14","","24.1","","100.23","","","","-20","","Mostly Cloudy"
"2015-02-13 14:00","2015","02","13","14:00","-12.1","","-18.8","","58","","24","","14","","24.1","","100.07","","","","-19","","NA"
"2015-02-13 15:00","2015","02","13","15:00","-11.1","","-17.8","","58","","19","","14","","24.1","","99.93","","","","-18","","NA"
"2015-02-13 16:00","2015","02","13","16:00","-11.1","","-17.6","","59","","21","","17","","24.1","","99.85","","","","-19","","Mostly Cloudy"
"2015-02-13 17:00","2015","02","13","17:00","-11.3","","-18.0","","58","","22","","27","","24.1","","99.80","","","","-21","","NA"
"2015-02-13 18:00","2015","02","13","18:00","-11.6","","-17.1","","64","","20","","17","","24.1","","99.70","","","","-19","","NA"
"2015-02-13 19:00","2015","02","13","19:00","-12.0","","-17.1","","66","","21","","17","","24.1","","99.65","","","","-20","","Cloudy"
"2015-02-13 20:00","2015","02","13","20:00","-11.9","","-16.3","","70","","19","","14","","16.1","","99.52","","","","-19","","NA"
"2015-02-13 21:00","2015","02","13","21:00","-11.7","","-15.1","","76","","21","","19","","9.7","","99.40","","","","-20","","Snow"
"2015-02-13 22:00","2015","02","13","22:00","-11.1","","-14.1","","79","","21","","27","","9.7","","99.25","","","","-21","","Snow"
"2015-02-13 23:00","2015","02","13","23:00","-10.7","","-13.4","","81","","21","","23","","6.4","","99.10","","","","-19","","Snow,Blowing Snow"
"2015-02-14 00:00","2015","02","14","00:00","-10.4","","-12.8","","83","","21","","22","","9.7","","98.94","","","","-19","","Snow,Blowing Snow"
"2015-02-14 01:00","2015","02","14","01:00","-9.9","","-12.6","","81","","21","","23","","9.7","","98.77","","","","-18","","Snow,Blowing Snow"
"2015-02-14 02:00","2015","02","14","02:00","-9.3","","-11.7","","83","","22","","18","","9.7","","98.61","","","","-17","","Snow,Blowing Snow"
"2015-02-14 03:00","2015","02","14","03:00","-8.6","","-10.8","","84","","22","","16","","9.7","","98.45","","","","-15","","Snow,Blowing Snow"
"2015-02-14 04:00","2015","02","14","04:00","-7.9","","-9.9","","86","","21","","15","","6.4","","98.34","","","","-14","","Snow,Blowing Snow"
"2015-02-14 05:00","2015","02","14","05:00","-7.3","","-9.3","","86","","20","","17","","6.4","","98.25","","","","-14","","Snow,Blowing Snow"
"2015-02-14 06:00","2015","02","14","06:00","-7.2","","-9.0","","87","","20","","13","","9.7","","98.19","","","","-13","","Snow,Blowing Snow"
"2015-02-14 07:00","2015","02","14","07:00","-7.0","","-10.1","","79","","25","","26","","8.1","","98.15","","","","-15","","Snow"
"2015-02-14 08:00","2015","02","14","08:00","-7.6","","-10.5","","80","","27","","20","","8.1","","98.15","","","","-15","","Snow"
"2015-02-14 09:00","2015","02","14","09:00","-7.5","","-11.5","","73","","28","","17","","19.3","","98.07","","","","-14","","NA"
"2015-02-14 10:00","2015","02","14","10:00","-7.1","","-11.7","","70","","29","","21","","19.3","","98.00","","","","-14","","Cloudy"
"2015-02-14 11:00","2015","02","14","11:00","-9.3","","-12.8","","76","","35","","27","","6.4","","98.04","","","","-18","","Snow,Blowing Snow"
"2015-02-14 12:00","2015","02","14","12:00","-9.2","","-13.9","","69","","36","","24","","19.3","","98.05","","","","-18","","NA"
"2015-02-14 13:00","2015","02","14","13:00","-8.8","","-14.3","","65","","35","","18","","12.9","","98.07","","","","-16","","Snow Showers"
"2015-02-14 14:00","2015","02","14","14:00","-9.5","","-13.0","","76","","36","","23","","8.1","","98.07","","","","-18","","Snow Showers,Blowing Snow"
"2015-02-14 15:00","2015","02","14","15:00","-10.9","","-15.2","","71","","36","","35","","6.4","","98.20","","","","-21","","Snow Showers,Blowing Snow"
"2015-02-14 16:00","2015","02","14","16:00","-11.9","","-17.4","","64","","36","","31","","16.1","","98.36","","","","-22","","Mostly Cloudy"
"2015-02-14 17:00","2015","02","14","17:00","-13.1","","-16.0","","79","","35","","23","","12.9","","98.50","","","","-22","","Snow Showers,Blowing Snow"
"2015-02-14 18:00","2015","02","14","18:00","-13.4","","-20.7","","55","","31","","33","","24.1","","98.64","","","","-24","","NA"
"2015-02-14 19:00","2015","02","14","19:00","-14.6","","-19.8","","65","","31","","35","","24.1","","98.76","","","","-26","","Mainly Clear"
"2015-02-14 20:00","2015","02","14","20:00","-15.2","","-18.7","","75","","34","","39","","4.8","","98.91","","","","-28","","Snow Showers,Blowing Snow"
"2015-02-14 21:00","2015","02","14","21:00","-16.9","","-21.5","","68","","33","","46","","16.1","","99.10","","","","-31","","Blowing Snow"
"2015-02-14 22:00","2015","02","14","22:00","-18.2","","-23.3","","65","","34","","38","","16.1","","99.24","","","","-31","","Blowing Snow"
"2015-02-14 23:00","2015","02","14","23:00","-19.2","","-23.6","","69","","34","","46","","9.7","","99.35","","","","-34","","Blowing Snow"
"2015-02-15 00:00","2015","02","15","00:00","-19.8","","-24.6","","66","","34","","42","","9.7","","99.46","","","","-34","","Blowing Snow"
"2015-02-15 01:00","2015","02","15","01:00","-20.5","","-24.8","","69","","34","","38","","16.1","","99.55","","","","-35","","Blowing Snow"
"2015-02-15 02:00","2015","02","15","02:00","-21.8","","-26.9","","64","","34","","48","","16.1","","99.66","","","","-38","","Blowing Snow"
"2015-02-15 03:00","2015","02","15","03:00","-22.7","","-28.1","","62","","34","","50","","24.1","","99.80","","","","-39","","Blowing Snow"
"2015-02-15 04:00","2015","02","15","04:00","-23.6","","-29.3","","60","","34","","42","","24.1","","99.91","","","","-39","","Blowing Snow"
"2015-02-15 05:00","2015","02","15","05:00","-24.3","","-30.0","","60","","35","","30","","24.1","","100.12","","","","-38","","Blowing Snow"
"2015-02-15 06:00","2015","02","15","06:00","-24.6","","-30.5","","59","","35","","42","","24.1","","100.21","","","","-41","","NA"
"2015-02-15 07:00","2015","02","15","07:00","-25.2","","-30.9","","60","","35","","34","","24.1","","100.31","","","","-40","","Mainly Clear"
"2015-02-15 08:00","2015","02","15","08:00","-25.4","","-31.4","","58","","34","","34","","24.1","","100.49","","","","-40","","NA"
"2015-02-15 09:00","2015","02","15","09:00","-24.8","","-31.0","","57","","35","","36","","24.1","","100.59","","","","-40","","NA"
"2015-02-15 10:00","2015","02","15","10:00","-23.9","","-30.6","","55","","34","","31","","24.1","","100.66","","","","-38","","Clear"
"2015-02-15 11:00","2015","02","15","11:00","-22.4","","-29.0","","56","","33","","43","","24.1","","100.69","","","","-38","","NA"
"2015-02-15 12:00","2015","02","15","12:00","-21.2","","-28.0","","55","","34","","39","","24.1","","100.71","","","","-36","","NA"
"2015-02-15 13:00","2015","02","15","13:00","-20.4","","-27.7","","53","","34","","30","","24.1","","100.67","","","","-33","","Clear"
"2015-02-15 14:00","2015","02","15","14:00","-19.7","","-27.2","","52","","35","","35","","24.1","","100.64","","","","-33","","NA"
"2015-02-15 15:00","2015","02","15","15:00","-19.3","","-26.9","","52","","34","","32","","24.1","","100.67","","","","-32","","NA"
"2015-02-15 16:00","2015","02","15","16:00","-19.6","","-26.9","","53","","34","","34","","24.1","","100.71","","","","-33","","Clear"
"2015-02-15 17:00","2015","02","15","17:00","-20.0","","-27.5","","52","","33","","31","","24.1","","100.72","","","","-33","","NA"
"2015-02-15 18:00","2015","02","15","18:00","-20.6","","-27.5","","55","","33","","30","","24.1","","100.77","","","","-33","","NA"
"2015-02-15 19:00","2015","02","15","19:00","-20.6","","-27.9","","53","","33","","29","","24.1","","100.84","","","","-33","","Clear"
"2015-02-15 20:00","2015","02","15","20:00","-21.3","","-27.2","","60","","32","","37","","24.1","","100.88","","","","-35","","NA"
"2015-02-15 21:00","2015","02","15","21:00","-21.5","","-26.8","","63","","32","","32","","24.1","","100.87","","","","-35","","NA"
"2015-02-15 22:00","2015","02","15","22:00","-21.0","","-26.5","","62","","34","","32","","24.1","","100.85","","","","-34","","Clear"
"2015-02-15 23:00","2015","02","15","23:00","-21.2","","-26.3","","64","","35","","31","","24.1","","100.78","","","","-34","","NA"
"2015-02-16 00:00","2015","02","16","00:00","-21.3","","-26.4","","64","","34","","25","","24.1","","100.80","","","","-33","","NA"
"2015-02-16 01:00","2015","02","16","01:00","-21.3","","-27.3","","59","","34","","24","","24.1","","100.83","","","","-33","","Clear"
"2015-02-16 02:00","2015","02","16","02:00","-21.7","","-28.3","","56","","32","","25","","24.1","","100.84","","","","-34","","NA"
"2015-02-16 03:00","2015","02","16","03:00","-21.7","","-28.5","","55","","32","","21","","24.1","","100.82","","","","-33","","NA"
"2015-02-16 04:00","2015","02","16","04:00","-22.2","","-28.4","","58","","33","","18","","24.1","","100.81","","","","-33","","Clear"
"2015-02-16 05:00","2015","02","16","05:00","-22.5","","-28.5","","59","","34","","16","","24.1","","100.79","","","","-32","","NA"
"2015-02-16 06:00","2015","02","16","06:00","-23.2","","-29.0","","60","","32","","14","","24.1","","100.75","","","","-33","","NA"
"2015-02-16 07:00","2015","02","16","07:00","-23.4","","-28.8","","62","","32","","15","","24.1","","100.76","","","","-33","","Clear"
"2015-02-16 08:00","2015","02","16","08:00","-23.0","","-28.6","","61","","31","","12","","24.1","","100.76","","","","-32","","NA"
"2015-02-16 09:00","2015","02","16","09:00","-21.8","","-28.0","","58","","31","","12","","24.1","","100.76","","","","-30","","NA"
"2015-02-16 10:00","2015","02","16","10:00","-20.4","","-27.9","","52","","31","","12","","24.1","","100.69","","","","-29","","Mostly Cloudy"
"2015-02-16 11:00","2015","02","16","11:00","-19.0","","-25.9","","55","","32","","9","","24.1","","100.58","","","","-26","","NA"
"2015-02-16 12:00","2015","02","16","12:00","-17.5","","-26.1","","48","","29","","7","","24.1","","100.48","","","","-23","","NA"
"2015-02-16 13:00","2015","02","16","13:00","-15.2","","-24.7","","45","","26","","6","","24.1","","100.40","","","","-19","","Mainly Clear"
"2015-02-16 14:00","2015","02","16","14:00","-15.4","","-25.6","","42","","28","","3","","24.1","","100.27","","","","-18","","NA"
"2015-02-16 15:00","2015","02","16","15:00","-14.1","","-26.8","","34","","30","","4","","24.1","","100.17","","","","-17","","NA"
"2015-02-16 16:00","2015","02","16","16:00","-13.7","","-26.1","","35","","36","","1","","24.1","","100.09","","","","-14","","Mostly Cloudy"
"2015-02-16 17:00","2015","02","16","17:00","-14.1","","-28.2","","30","","36","","3","","24.1","","99.95","","","","-16","","NA"
"2015-02-16 18:00","2015","02","16","18:00","-14.4","","-20.6","","60","","15","","7","","24.1","","99.92","","","","-19","","NA"
"2015-02-16 19:00","2015","02","16","19:00","-14.6","","-20.8","","60","","17","","4","","24.1","","99.88","","","","-17","","Cloudy"
"2015-02-16 20:00","2015","02","16","20:00","-14.6","","-21.2","","58","","19","","5","","24.1","","99.85","","","","-18","","NA"
"2015-02-16 21:00","2015","02","16","21:00","-14.6","","-21.4","","57","","26","","5","","24.1","","99.79","","","","-18","","NA"
"2015-02-16 22:00","2015","02","16","22:00","-14.5","","-21.3","","57","","36","","3","","24.1","","99.71","","","","-17","","Mostly Cloudy"
"2015-02-16 23:00","2015","02","16","23:00","-14.6","","-21.0","","59","","28","","4","","24.1","","99.67","","","","-17","","NA"
"2015-02-17 00:00","2015","02","17","00:00","-14.6","","-20.8","","60","","1","","9","","24.1","","99.59","","","","-20","","NA"
"2015-02-17 01:00","2015","02","17","01:00","-15.1","","-20.7","","63","","36","","11","","24.1","","99.52","","","","-22","","Mostly Cloudy"
"2015-02-17 02:00","2015","02","17","02:00","-16.0","","-22.1","","60","","36","","9","","24.1","","99.44","","","","-22","","NA"
"2015-02-17 03:00","2015","02","17","03:00","-16.3","","-22.4","","60","","34","","10","","24.1","","99.38","","","","-23","","NA"
"2015-02-17 04:00","2015","02","17","04:00","-15.9","","-22.2","","59","","31","","12","","24.1","","99.29","","","","-23","","Mostly Cloudy"
"2015-02-17 05:00","2015","02","17","05:00","-15.2","","-21.7","","58","","35","","8","","24.1","","99.22","","","","-21","","NA"
"2015-02-17 06:00","2015","02","17","06:00","-15.2","","-21.1","","61","","36","","7","","24.1","","99.21","","","","-20","","NA"
"2015-02-17 07:00","2015","02","17","07:00","-15.3","","-21.2","","61","","32","","14","","24.1","","99.20","","","","-23","","Cloudy"
"2015-02-17 08:00","2015","02","17","08:00","-14.6","","-20.2","","63","","1","","7","","24.1","","99.21","","","","-19","","NA"
"2015-02-17 09:00","2015","02","17","09:00","-13.6","","-19.6","","61","","31","","10","","24.1","","99.21","","","","-20","","NA"
"2015-02-17 10:00","2015","02","17","10:00","-12.6","","-18.9","","60","","30","","6","","24.1","","99.22","","","","-17","","Mostly Cloudy"
"2015-02-17 11:00","2015","02","17","11:00","-11.0","","-19.5","","50","","25","","15","","24.1","","99.17","","","","-18","","NA"
"2015-02-17 12:00","2015","02","17","12:00","-9.7","","-21.9","","37","","26","","8","","24.1","","99.09","","","","-14","","NA"
"2015-02-17 13:00","2015","02","17","13:00","-9.2","","-24.6","","28","","21","","10","","24.1","","99.02","","","","-14","","Mostly Cloudy"
"2015-02-17 14:00","2015","02","17","14:00","-8.7","","-23.8","","29","","24","","16","","24.1","","98.99","","","","-15","","NA"
"2015-02-17 15:00","2015","02","17","15:00","-9.0","","-25.7","","25","","24","","17","","24.1","","98.97","","","","-16","","NA"
"2015-02-17 16:00","2015","02","17","16:00","-9.2","","-24.6","","28","","21","","19","","24.1","","98.96","","","","-17","","Mainly Clear"
"2015-02-17 17:00","2015","02","17","17:00","-9.9","","-22.7","","35","","20","","13","","24.1","","98.95","","","","-16","","NA"
"2015-02-17 18:00","2015","02","17","18:00","-10.6","","-21.2","","42","","21","","12","","24.1","","98.96","","","","-17","","NA"
"2015-02-17 19:00","2015","02","17","19:00","-10.9","","-17.6","","58","","22","","22","","24.1","","99.04","","","","-19","","Mostly Cloudy"
"2015-02-17 20:00","2015","02","17","20:00","-11.8","","-16.6","","68","","23","","19","","24.1","","99.03","","","","-20","","NA"
"2015-02-17 21:00","2015","02","17","21:00","-12.2","","-15.8","","75","","24","","14","","24.1","","99.01","","","","-19","","NA"
"2015-02-17 22:00","2015","02","17","22:00","-12.9","","-16.0","","78","","23","","10","","24.1","","99.00","","","","-19","","Mainly Clear"
"2015-02-17 23:00","2015","02","17","23:00","-12.9","","-15.7","","80","","25","","7","","24.1","","98.98","","","","-17","","NA"
"2015-02-18 00:00","2015","02","18","00:00","-12.6","","-15.1","","82","","23","","11","","24.1","","98.91","","","","-19","","NA"
"2015-02-18 01:00","2015","02","18","01:00","-12.0","","-14.3","","83","","21","","11","","19.3","","98.87","","","","-18","","Mostly Cloudy"
"2015-02-18 02:00","2015","02","18","02:00","-11.5","","-13.8","","83","","21","","9","","6.4","","98.84","","","","-17","","Snow Showers"
"2015-02-18 03:00","2015","02","18","03:00","-11.4","","-13.4","","85","","22","","6","","16.1","","98.75","","","","-15","","Snow Showers"
"2015-02-18 04:00","2015","02","18","04:00","-12.0","","-13.7","","87","","24","","7","","19.3","","98.68","","","","-16","","Cloudy"
"2015-02-18 05:00","2015","02","18","05:00","-11.9","","-13.6","","87","","23","","10","","24.1","","98.66","","","","-18","","NA"
"2015-02-18 06:00","2015","02","18","06:00","-12.6","","-14.2","","88","","24","","9","","24.1","","98.64","","","","-18","","NA"
"2015-02-18 07:00","2015","02","18","07:00","-12.4","","-14.3","","86","","25","","10","","9.7","","98.62","","","","-18","","Snow"
"2015-02-18 08:00","2015","02","18","08:00","-12.0","","-14.0","","85","","26","","11","","12.9","","98.64","","","","-18","","NA"
"2015-02-18 09:00","2015","02","18","09:00","-11.2","","-14.3","","78","","28","","13","","16.1","","98.66","","","","-18","","NA"
"2015-02-18 10:00","2015","02","18","10:00","-9.9","","-14.4","","70","","29","","14","","19.3","","98.63","","","","-16","","Mostly Cloudy"
"2015-02-18 11:00","2015","02","18","11:00","-9.1","","-16.4","","56","","29","","15","","24.1","","98.62","","","","-16","","NA"
"2015-02-18 12:00","2015","02","18","12:00","-8.9","","-16.6","","54","","28","","9","","24.1","","98.60","","","","-14","","NA"
"2015-02-18 13:00","2015","02","18","13:00","-8.8","","-15.4","","59","","31","","11","","24.1","","98.50","","","","-14","","Cloudy"
"2015-02-18 14:00","2015","02","18","14:00","-8.7","","-14.2","","65","","25","","5","","9.7","","98.45","","","","-11","","Snow"
"2015-02-18 15:00","2015","02","18","15:00","-8.9","","-13.1","","72","","27","","7","","8.1","","98.47","","","","-13","","Snow"
"2015-02-18 16:00","2015","02","18","16:00","-9.1","","-12.4","","77","","28","","8","","4.0","","98.55","","","","-13","","Snow"
"2015-02-18 17:00","2015","02","18","17:00","-9.4","","-11.6","","84","","28","","9","","1.0","","98.62","","","","-14","","Snow"
"2015-02-18 18:00","2015","02","18","18:00","-9.4","","-13.4","","73","","31","","19","","9.7","","98.71","","","","-17","","Snow"
"2015-02-18 19:00","2015","02","18","19:00","-10.8","","-13.6","","80","","35","","26","","12.9","","98.80","","","","-20","","Snow"
"2015-02-18 20:00","2015","02","18","20:00","-11.8","","-15.4","","75","","34","","32","","16.1","","98.87","","","","-22","","Snow,Blowing Snow"
"2015-02-18 21:00","2015","02","18","21:00","-12.3","","-16.7","","70","","34","","23","","19.3","","98.92","","","","-21","","Snow,Blowing Snow"
"2015-02-18 22:00","2015","02","18","22:00","-12.8","","-17.5","","68","","32","","23","","24.1","","98.98","","","","-22","","Blowing Snow"
"2015-02-18 23:00","2015","02","18","23:00","-13.5","","-18.2","","68","","31","","22","","24.1","","99.02","","","","-23","","Blowing Snow"
"2015-02-19 00:00","2015","02","19","00:00","-14.0","","-20.4","","59","","31","","23","","24.1","","99.04","","","","-24","","NA"
"2015-02-19 01:00","2015","02","19","01:00","-14.5","","-19.7","","65","","31","","25","","24.1","","99.07","","","","-25","","Mostly Cloudy"
"2015-02-19 02:00","2015","02","19","02:00","-15.6","","-19.6","","72","","29","","21","","24.1","","99.08","","","","-25","","NA"
"2015-02-19 03:00","2015","02","19","03:00","-16.2","","-20.0","","73","","31","","23","","24.1","","99.11","","","","-26","","NA"
"2015-02-19 04:00","2015","02","19","04:00","-17.0","","-21.1","","71","","31","","25","","24.1","","99.17","","","","-28","","Clear"
"2015-02-19 05:00","2015","02","19","05:00","-17.4","","-21.3","","72","","30","","22","","24.1","","99.24","","","","-28","","NA"
"2015-02-19 06:00","2015","02","19","06:00","-18.0","","-22.1","","71","","31","","22","","24.1","","99.30","","","","-28","","NA"
"2015-02-19 07:00","2015","02","19","07:00","-18.5","","-23.0","","68","","31","","24","","24.1","","99.38","","","","-29","","Mainly Clear"
"2015-02-19 08:00","2015","02","19","08:00","-18.9","","-23.6","","67","","32","","23","","24.1","","99.47","","","","-30","","NA"
"2015-02-19 09:00","2015","02","19","09:00","-18.4","","-23.1","","67","","33","","23","","24.1","","99.52","","","","-29","","NA"
"2015-02-19 10:00","2015","02","19","10:00","-17.6","","-23.4","","61","","32","","23","","24.1","","99.55","","","","-28","","Clear"
"2015-02-19 11:00","2015","02","19","11:00","-16.5","","-23.4","","56","","29","","30","","24.1","","99.55","","","","-28","","NA"
"2015-02-19 12:00","2015","02","19","12:00","-15.8","","-23.8","","51","","30","","34","","24.1","","99.58","","","","-28","","Blowing Snow"
"2015-02-19 13:00","2015","02","19","13:00","-16.2","","-24.6","","49","","30","","33","","24.1","","99.61","","","","-28","","Blowing Snow"
"2015-02-19 14:00","2015","02","19","14:00","-16.4","","-25.0","","48","","32","","30","","24.1","","99.62","","","","-28","","NA"
"2015-02-19 15:00","2015","02","19","15:00","-17.0","","-26.3","","45","","30","","28","","24.1","","99.68","","","","-28","","NA"
"2015-02-19 16:00","2015","02","19","16:00","-17.4","","-26.7","","45","","32","","35","","24.1","","99.75","","","","-30","","Clear"
"2015-02-19 17:00","2015","02","19","17:00","-17.7","","-27.0","","45","","30","","34","","24.1","","99.80","","","","-30","","NA"
"2015-02-19 18:00","2015","02","19","18:00","-19.0","","-27.0","","50","","32","","34","","24.1","","99.90","","","","-32","","NA"
"2015-02-19 19:00","2015","02","19","19:00","-19.5","","-27.3","","51","","30","","27","","24.1","","99.98","","","","-31","","Clear"
"2015-02-19 20:00","2015","02","19","20:00","-20.2","","-27.9","","51","","30","","28","","24.1","","100.00","","","","-32","","NA"
"2015-02-19 21:00","2015","02","19","21:00","-20.6","","-27.5","","55","","30","","28","","24.1","","100.01","","","","-33","","NA"
"2015-02-19 22:00","2015","02","19","22:00","-21.1","","-26.8","","61","","30","","29","","24.1","","100.04","","","","-34","","Clear"
"2015-02-19 23:00","2015","02","19","23:00","-21.5","","-27.3","","60","","29","","20","","24.1","","100.04","","","","-32","","NA"
"2015-02-20 00:00","2015","02","20","00:00","-22.0","","-27.8","","60","","29","","20","","24.1","","100.07","","","","-33","","NA"
"2015-02-20 01:00","2015","02","20","01:00","-21.6","","-27.6","","59","","29","","22","","24.1","","100.09","","","","-33","","Clear"
"2015-02-20 02:00","2015","02","20","02:00","-21.8","","-27.8","","59","","29","","19","","24.1","","100.12","","","","-32","","NA"
"2015-02-20 03:00","2015","02","20","03:00","-22.6","","-28.0","","62","","28","","18","","24.1","","100.16","","","","-33","","NA"
"2015-02-20 04:00","2015","02","20","04:00","-22.2","","-27.5","","63","","30","","22","","24.1","","100.19","","","","-34","","Clear"
"2015-02-20 05:00","2015","02","20","05:00","-23.2","","-28.1","","65","","29","","18","","24.1","","100.28","","","","-34","","NA"
"2015-02-20 06:00","2015","02","20","06:00","-22.5","","-27.8","","63","","30","","22","","24.1","","100.35","","","","-34","","NA"
"2015-02-20 07:00","2015","02","20","07:00","-22.4","","-27.5","","64","","30","","18","","24.1","","100.43","","","","-33","","Clear"
"2015-02-20 08:00","2015","02","20","08:00","-22.8","","-27.7","","65","","27","","11","","24.1","","100.52","","","","-31","","NA"
"2015-02-20 09:00","2015","02","20","09:00","-21.2","","-26.5","","63","","26","","10","","24.1","","100.57","","","","-29","","NA"
"2015-02-20 10:00","2015","02","20","10:00","-19.2","","-25.1","","60","","26","","14","","24.1","","100.61","","","","-28","","Clear"
"2015-02-20 11:00","2015","02","20","11:00","-18.0","","-24.4","","58","","23","","13","","24.1","","100.62","","","","-26","","NA"
"2015-02-20 12:00","2015","02","20","12:00","-16.5","","-23.6","","55","","23","","19","","24.1","","100.61","","","","-26","","NA"
"2015-02-20 13:00","2015","02","20","13:00","-15.1","","-22.5","","54","","24","","24","","24.1","","100.57","","","","-25","","Mainly Clear"
"2015-02-20 14:00","2015","02","20","14:00","-14.2","","-22.1","","52","","25","","15","","24.1","","100.53","","","","-22","","NA"
"2015-02-20 15:00","2015","02","20","15:00","-13.9","","-23.2","","46","","23","","21","","24.1","","100.50","","","","-23","","NA"
"2015-02-20 16:00","2015","02","20","16:00","-14.5","","-23.8","","46","","21","","19","","24.1","","100.49","","","","-23","","Mainly Clear"
"2015-02-20 17:00","2015","02","20","17:00","-15.4","","-27.1","","37","","22","","20","","24.1","","100.47","","","","-25","","NA"
"2015-02-20 18:00","2015","02","20","18:00","-16.0","","-26.5","","41","","22","","25","","24.1","","100.50","","","","-26","","NA"
"2015-02-20 19:00","2015","02","20","19:00","-16.6","","-25.2","","48","","21","","13","","24.1","","100.50","","","","-24","","Clear"
"2015-02-20 20:00","2015","02","20","20:00","-16.8","","-24.7","","51","","20","","12","","24.1","","100.43","","","","-24","","NA"
"2015-02-20 21:00","2015","02","20","21:00","-16.4","","-24.4","","51","","21","","12","","24.1","","100.41","","","","-24","","NA"
"2015-02-20 22:00","2015","02","20","22:00","-16.3","","-23.8","","53","","19","","10","","24.1","","100.36","","","","-23","","Mostly Cloudy"
"2015-02-20 23:00","2015","02","20","23:00","-16.1","","-23.8","","52","","18","","9","","24.1","","100.28","","","","-22","","NA"
"2015-02-21 00:00","2015","02","21","00:00","-15.3","","-22.0","","57","","20","","8","","24.1","","100.21","","","","-21","","NA"
"2015-02-21 01:00","2015","02","21","01:00","-14.8","","-19.7","","67","","17","","7","","24.1","","100.15","","","","-20","","Cloudy"
"2015-02-21 02:00","2015","02","21","02:00","-14.0","","-19.1","","66","","18","","9","","24.1","","100.09","","","","-20","","NA"
"2015-02-21 03:00","2015","02","21","03:00","-13.5","","-18.8","","65","","19","","10","","24.1","","99.98","","","","-19","","NA"
"2015-02-21 04:00","2015","02","21","04:00","-13.2","","-17.1","","73","","18","","8","","8.1","","99.90","","","","-18","","Snow"
"2015-02-21 05:00","2015","02","21","05:00","-12.4","","-16.1","","74","","18","","8","","11.3","","99.82","","","","-17","","Snow"
"2015-02-21 06:00","2015","02","21","06:00","-11.4","","-15.7","","71","","18","","11","","11.3","","99.84","","","","-17","","Snow"
"2015-02-21 07:00","2015","02","21","07:00","-10.8","","-15.1","","71","","21","","9","","9.7","","99.74","","","","-16","","Snow"
"2015-02-21 08:00","2015","02","21","08:00","-9.9","","-14.4","","70","","21","","7","","4.8","","99.69","","","","-14","","Snow"
"2015-02-21 09:00","2015","02","21","09:00","-10.0","","-12.8","","80","","18","","5","","4.0","","99.58","","","","-13","","Snow"
"2015-02-21 10:00","2015","02","21","10:00","-9.6","","-12.1","","82","","25","","5","","1.6","","99.57","","","","-12","","Snow"
"2015-02-21 11:00","2015","02","21","11:00","-9.5","","-11.6","","85","","27","","4","","0.8","","99.58","","","","-12","","Moderate Snow"
"2015-02-21 12:00","2015","02","21","12:00","-9.1","","-11.2","","85","","26","","7","","0.8","","99.54","","","","-13","","Moderate Snow"
"2015-02-21 13:00","2015","02","21","13:00","-8.9","","-11.1","","84","","29","","3","","0.8","","99.41","","","","-11","","Moderate Snow"
"2015-02-21 14:00","2015","02","21","14:00","-8.3","","-10.4","","85","","27","","3","","0.8","","99.34","","","","-10","","Moderate Snow"
"2015-02-21 15:00","2015","02","21","15:00","-8.0","","-10.4","","83","","26","","6","","3.2","","99.37","","","","-11","","Snow"
"2015-02-21 16:00","2015","02","21","16:00","-7.9","","-10.0","","85","","24","","6","","2.8","","99.33","","","","-11","","Snow"
"2015-02-21 17:00","2015","02","21","17:00","-8.3","","-10.4","","85","","32","","8","","2.8","","99.38","","","","-12","","Snow"
"2015-02-21 18:00","2015","02","21","18:00","-8.1","","-10.0","","86","","29","","7","","3.2","","99.44","","","","-12","","Snow"
"2015-02-21 19:00","2015","02","21","19:00","-8.6","","-10.4","","87","","32","","9","","11.3","","99.53","","","","-13","","Mainly Clear"
"2015-02-21 20:00","2015","02","21","20:00","-8.6","","-10.7","","85","","32","","11","","19.3","","99.59","","","","-14","","NA"
"2015-02-21 21:00","2015","02","21","21:00","-9.4","","-11.3","","86","","28","","8","","24.1","","99.66","","","","-14","","NA"
"2015-02-21 22:00","2015","02","21","22:00","-10.8","","-12.6","","87","","27","","8","","19.3","","99.76","","","","-15","","Clear"
"2015-02-21 23:00","2015","02","21","23:00","-11.2","","-13.0","","87","","27","","4","","19.3","","99.76","","","","-14","","NA"
"2015-02-22 00:00","2015","02","22","00:00","-12.5","","-14.2","","87","","32","","5","","19.3","","99.81","","","","-16","","NA"
"2015-02-22 01:00","2015","02","22","01:00","-13.0","","-15.0","","85","","36","","6","","19.3","","99.87","","","","-17","","Clear"
"2015-02-22 02:00","2015","02","22","02:00","-13.8","","-15.1","","90","","32","","9","","19.3","","99.90","","","","-19","","NA"
"2015-02-22 03:00","2015","02","22","03:00","-15.2","","-16.6","","89","","30","","5","","19.3","","99.95","","","","-19","","NA"
"2015-02-22 04:00","2015","02","22","04:00","-14.2","","-15.6","","89","","26","","4","","19.3","","99.95","","","","-17","","Clear"
"2015-02-22 05:00","2015","02","22","05:00","-13.3","","-14.9","","88","","29","","5","","24.1","","99.96","","","","-17","","NA"
"2015-02-22 06:00","2015","02","22","06:00","-12.9","","-14.5","","88","","27","","4","","24.1","","100.05","","","","-16","","NA"
"2015-02-22 07:00","2015","02","22","07:00","-12.0","","-13.7","","87","","27","","4","","16.1","","100.08","","","","-15","","Mostly Cloudy"
"2015-02-22 08:00","2015","02","22","08:00","-10.8","","-12.9","","85","","36","","1","","12.9","","100.09","","","","-11","","NA"
"2015-02-22 09:00","2015","02","22","09:00","-8.3","","-10.2","","86","","21","","4","","8.1","","100.14","","","","-10","","Snow,Fog"
"2015-02-22 10:00","2015","02","22","10:00","-6.8","","-10.0","","78","","21","","10","","8.1","","100.16","","","","-11","","Snow,Haze"
"2015-02-22 11:00","2015","02","22","11:00","-6.1","","-9.0","","80","","21","","8","","4.0","","100.16","","","","-10","","Snow"
"2015-02-22 12:00","2015","02","22","12:00","-5.8","","-8.4","","82","","25","","14","","4.8","","100.19","","","","-11","","Snow"
"2015-02-22 13:00","2015","02","22","13:00","-4.5","","-7.8","","78","","23","","13","","4.8","","100.12","","","","-10","","Snow"
"2015-02-22 14:00","2015","02","22","14:00","-3.9","","-7.7","","75","","24","","18","","8.1","","100.05","","","","-10","","Haze"
"2015-02-22 15:00","2015","02","22","15:00","-3.9","","-9.0","","68","","29","","24","","16.1","","100.12","","","","-11","","NA"
"2015-02-22 16:00","2015","02","22","16:00","-5.2","","-10.4","","67","","30","","29","","24.1","","100.21","","","","-13","","Mostly Cloudy"
"2015-02-22 17:00","2015","02","22","17:00","-6.7","","-12.8","","62","","31","","27","","24.1","","100.25","","","","-15","","NA"
"2015-02-22 18:00","2015","02","22","18:00","-7.9","","-14.2","","61","","31","","27","","24.1","","100.37","","","","-16","","Blowing Snow"
"2015-02-22 19:00","2015","02","22","19:00","-11.0","","-16.6","","64","","31","","27","","24.1","","100.55","","","","-20","","Blowing Snow"
"2015-02-22 20:00","2015","02","22","20:00","-12.3","","-18.2","","62","","31","","17","","24.1","","100.62","","","","-20","","Blowing Snow"
"2015-02-22 21:00","2015","02","22","21:00","-12.9","","-18.9","","61","","31","","24","","24.1","","100.68","","","","-22","","NA"
"2015-02-22 22:00","2015","02","22","22:00","-13.8","","-19.1","","65","","30","","19","","24.1","","100.75","","","","-22","","Clear"
"2015-02-22 23:00","2015","02","22","23:00","-14.7","","-19.7","","66","","31","","27","","24.1","","100.81","","","","-25","","NA"
"2015-02-23 00:00","2015","02","23","00:00","-15.6","","-20.8","","65","","31","","32","","24.1","","100.86","","","","-27","","Blowing Snow"
"2015-02-23 01:00","2015","02","23","01:00","-16.7","","-22.8","","60","","31","","32","","24.1","","100.92","","","","-29","","Blowing Snow"
"2015-02-23 02:00","2015","02","23","02:00","-17.9","","-23.7","","61","","30","","29","","24.1","","100.97","","","","-30","","Blowing Snow"
"2015-02-23 03:00","2015","02","23","03:00","-18.8","","-24.6","","61","","30","","25","","24.1","","101.02","","","","-30","","Blowing Snow"
"2015-02-23 04:00","2015","02","23","04:00","-19.3","","-25.2","","60","","31","","28","","24.1","","101.06","","","","-31","","Blowing Snow"
"2015-02-23 05:00","2015","02","23","05:00","-20.1","","-25.6","","62","","30","","30","","24.1","","101.13","","","","-33","","Blowing Snow"
"2015-02-23 06:00","2015","02","23","06:00","-20.7","","-26.4","","61","","29","","23","","24.1","","101.16","","","","-32","","Blowing Snow"
"2015-02-23 07:00","2015","02","23","07:00","-21.3","","-27.0","","61","","31","","23","","24.1","","101.22","","","","-33","","Clear"
"2015-02-23 08:00","2015","02","23","08:00","-21.2","","-26.9","","61","","31","","18","","24.1","","101.31","","","","-31","","NA"
"2015-02-23 09:00","2015","02","23","09:00","-20.5","","-26.2","","61","","33","","17","","24.1","","101.37","","","","-30","","NA"
"2015-02-23 10:00","2015","02","23","10:00","-19.9","","-26.2","","58","","29","","8","","24.1","","101.38","","","","-26","","Clear"
"2015-02-23 11:00","2015","02","23","11:00","-18.0","","-25.9","","51","","25","","12","","24.1","","101.36","","","","-26","","NA"
"2015-02-23 12:00","2015","02","23","12:00","-16.5","","-24.9","","49","","29","","31","","24.1","","101.29","","","","-28","","NA"
"2015-02-23 13:00","2015","02","23","13:00","-16.3","","-24.7","","49","","29","","33","","24.1","","101.21","","","","-28","","Blowing Snow"
"2015-02-23 14:00","2015","02","23","14:00","-16.0","","-23.8","","52","","27","","30","","24.1","","101.15","","","","-27","","Blowing Snow"
"2015-02-23 15:00","2015","02","23","15:00","-15.6","","-22.9","","54","","26","","32","","24.1","","101.10","","","","-27","","Blowing Snow"
"2015-02-23 16:00","2015","02","23","16:00","-15.5","","-22.8","","54","","26","","24","","24.1","","101.03","","","","-26","","Blowing Snow"
"2015-02-23 17:00","2015","02","23","17:00","-16.5","","-22.2","","62","","26","","26","","24.1","","100.98","","","","-27","","Blowing Snow"
"2015-02-23 18:00","2015","02","23","18:00","-17.5","","-23.5","","60","","26","","25","","24.1","","100.92","","","","-28","","Blowing Snow"
"2015-02-23 19:00","2015","02","23","19:00","-18.3","","-23.9","","62","","26","","21","","24.1","","100.92","","","","-29","","Blowing Snow"
"2015-02-23 20:00","2015","02","23","20:00","-19.1","","-24.5","","63","","26","","15","","24.1","","100.88","","","","-28","","NA"
"2015-02-23 21:00","2015","02","23","21:00","-19.3","","-24.7","","63","","24","","19","","24.1","","100.82","","","","-29","","NA"
"2015-02-23 22:00","2015","02","23","22:00","-19.7","","-24.9","","64","","24","","17","","24.1","","100.75","","","","-29","","Clear"
"2015-02-23 23:00","2015","02","23","23:00","-19.5","","-25.2","","61","","23","","14","","24.1","","100.65","","","","-28","","NA"
"2015-02-24 00:00","2015","02","24","00:00","-20.2","","-25.0","","66","","21","","13","","24.1","","100.53","","","","-29","","NA"
"2015-02-24 01:00","2015","02","24","01:00","-20.0","","-24.8","","66","","23","","19","","24.1","","100.41","","","","-30","","Mainly Clear"
"2015-02-24 02:00","2015","02","24","02:00","-19.7","","-24.4","","67","","24","","18","","24.1","","100.28","","","","-30","","NA"
"2015-02-24 03:00","2015","02","24","03:00","-19.5","","-24.2","","67","","21","","19","","24.1","","100.13","","","","-30","","NA"
"2015-02-24 04:00","2015","02","24","04:00","-18.5","","-23.0","","68","","21","","19","","24.1","","100.02","","","","-28","","Mostly Cloudy"
"2015-02-24 05:00","2015","02","24","05:00","-18.3","","-22.7","","69","","22","","21","","24.1","","99.89","","","","-29","","NA"
"2015-02-24 06:00","2015","02","24","06:00","-17.6","","-22.2","","68","","22","","25","","24.1","","99.76","","","","-29","","Blowing Snow"
"2015-02-24 07:00","2015","02","24","07:00","-16.8","","-21.4","","68","","22","","26","","24.1","","99.65","","","","-28","","Mostly Cloudy"
"2015-02-24 08:00","2015","02","24","08:00","-15.9","","-20.5","","68","","22","","28","","24.1","","99.50","","","","-27","","NA"
"2015-02-24 09:00","2015","02","24","09:00","-14.7","","-19.6","","67","","20","","26","","24.1","","99.39","","","","-25","","NA"
"2015-02-24 10:00","2015","02","24","10:00","-13.5","","-19.1","","63","","20","","16","","24.1","","99.25","","","","-21","","Mostly Cloudy"
"2015-02-24 11:00","2015","02","24","11:00","-12.2","","-18.7","","59","","20","","27","","24.1","","99.09","","","","-22","","NA"
"2015-02-24 12:00","2015","02","24","12:00","-10.6","","-18.2","","54","","21","","32","","24.1","","98.94","","","","-21","","NA"
"2015-02-24 13:00","2015","02","24","13:00","-11.4","","-18.1","","58","","17","","22","","24.1","","98.75","","","","-20","","Cloudy"
"2015-02-24 14:00","2015","02","24","14:00","-10.1","","-18.2","","52","","20","","18","","24.1","","98.57","","","","-18","","NA"
"2015-02-24 15:00","2015","02","24","15:00","-9.1","","-18.5","","47","","21","","34","","24.1","","98.41","","","","-19","","NA"
"2015-02-24 16:00","2015","02","24","16:00","-9.2","","-17.6","","51","","22","","39","","19.3","","98.35","","","","-20","","Blowing Snow"
"2015-02-24 17:00","2015","02","24","17:00","-9.8","","-14.1","","71","","23","","37","","2.0","","98.34","","","","-20","","Snow,Blowing Snow"
"2015-02-24 18:00","2015","02","24","18:00","-10.1","","-13.2","","78","","21","","28","","6.4","","98.35","","","","-19","","Snow,Blowing Snow"
"2015-02-24 19:00","2015","02","24","19:00","-9.9","","-13.7","","74","","22","","25","","19.3","","98.32","","","","-19","","Mostly Cloudy"
"2015-02-24 20:00","2015","02","24","20:00","-9.5","","-13.7","","72","","23","","23","","24.1","","98.31","","","","-18","","Blowing Snow"
"2015-02-24 21:00","2015","02","24","21:00","-9.2","","-13.0","","74","","22","","26","","16.1","","98.27","","","","-18","","Snow,Blowing Snow"
"2015-02-24 22:00","2015","02","24","22:00","-9.3","","-12.5","","78","","23","","20","","12.9","","98.25","","","","-17","","Snow,Blowing Snow"
"2015-02-24 23:00","2015","02","24","23:00","-9.1","","-11.6","","82","","22","","25","","9.7","","98.20","","","","-18","","Snow,Blowing Snow"
"2015-02-25 00:00","2015","02","25","00:00","-9.5","","-12.0","","82","","23","","19","","16.1","","98.14","","","","-17","","NA"
"2015-02-25 01:00","2015","02","25","01:00","-9.4","","-12.4","","79","","24","","23","","16.1","","98.10","","","","-18","","Mostly Cloudy"
"2015-02-25 02:00","2015","02","25","02:00","-8.7","","-10.8","","85","","24","","24","","4.8","","98.10","","","","-17","","Snow"
"2015-02-25 03:00","2015","02","25","03:00","-8.6","","-10.5","","86","","25","","24","","9.7","","98.10","","","","-17","","Snow"
"2015-02-25 04:00","2015","02","25","04:00","-8.6","","-13.0","","71","","30","","32","","19.3","","98.22","","","","-18","","Mostly Cloudy"
"2015-02-25 05:00","2015","02","25","05:00","-9.8","","-14.5","","69","","30","","31","","24.1","","98.38","","","","-19","","NA"
"2015-02-25 06:00","2015","02","25","06:00","-12.3","","-18.4","","61","","29","","25","","24.1","","98.58","","","","-22","","Blowing Snow"
"2015-02-25 07:00","2015","02","25","07:00","-13.3","","-18.2","","67","","28","","27","","24.1","","98.71","","","","-23","","Mainly Clear"
"2015-02-25 08:00","2015","02","25","08:00","-13.0","","-17.9","","67","","27","","28","","24.1","","98.92","","","","-23","","NA"
"2015-02-25 09:00","2015","02","25","09:00","-12.0","","-17.5","","64","","29","","32","","24.1","","99.02","","","","-22","","NA"
"2015-02-25 10:00","2015","02","25","10:00","-11.1","","-17.6","","59","","31","","27","","24.1","","99.08","","","","-21","","Mainly Clear"
"2015-02-25 11:00","2015","02","25","11:00","-10.5","","-17.7","","56","","31","","23","","24.1","","99.17","","","","-19","","NA"
"2015-02-25 12:00","2015","02","25","12:00","-10.1","","-18.4","","51","","30","","30","","24.1","","99.21","","","","-20","","NA"
"2015-02-25 13:00","2015","02","25","13:00","-10.0","","-18.3","","51","","31","","26","","24.1","","99.26","","","","-19","","Mainly Clear"
"2015-02-25 14:00","2015","02","25","14:00","-10.4","","-19.0","","50","","28","","23","","24.1","","99.33","","","","-19","","NA"
"2015-02-25 15:00","2015","02","25","15:00","-10.4","","-18.3","","53","","28","","27","","24.1","","99.40","","","","-20","","NA"
"2015-02-25 16:00","2015","02","25","16:00","-10.8","","-18.6","","53","","28","","26","","24.1","","99.45","","","","-20","","Mainly Clear"
"2015-02-25 17:00","2015","02","25","17:00","-11.3","","-18.7","","55","","28","","19","","24.1","","99.51","","","","-19","","NA"
"2015-02-25 18:00","2015","02","25","18:00","-12.4","","-19.1","","58","","31","","21","","24.1","","99.57","","","","-21","","NA"
"2015-02-25 19:00","2015","02","25","19:00","-12.7","","-19.4","","58","","30","","17","","24.1","","99.67","","","","-21","","Clear"
"2015-02-25 20:00","2015","02","25","20:00","-13.3","","-19.7","","59","","31","","18","","24.1","","99.76","","","","-22","","NA"
"2015-02-25 21:00","2015","02","25","21:00","-13.3","","-19.5","","60","","33","","18","","24.1","","99.75","","","","-22","","NA"
"2015-02-25 22:00","2015","02","25","22:00","-14.7","","-20.3","","63","","2","","8","","24.1","","99.84","","","","-20","","Mostly Cloudy"
"2015-02-25 23:00","2015","02","25","23:00","-14.0","","-19.6","","63","","32","","11","","24.1","","99.87","","","","-20","","NA"
"2015-02-26 00:00","2015","02","26","00:00","-15.0","","-20.2","","65","","32","","14","","24.1","","99.85","","","","-23","","NA"
"2015-02-26 01:00","2015","02","26","01:00","-15.7","","-20.3","","68","","32","","16","","24.1","","99.85","","","","-24","","Mainly Clear"
"2015-02-26 02:00","2015","02","26","02:00","-15.5","","-20.0","","69","","34","","18","","24.1","","99.83","","","","-24","","NA"
"2015-02-26 03:00","2015","02","26","03:00","-16.5","","-20.3","","73","","1","","11","","24.1","","99.82","","","","-23","","NA"
"2015-02-26 04:00","2015","02","26","04:00","-16.5","","-20.3","","73","","1","","9","","24.1","","99.87","","","","-23","","Cloudy"
"2015-02-26 05:00","2015","02","26","05:00","-16.0","","-20.0","","72","","33","","15","","24.1","","99.84","","","","-24","","NA"
"2015-02-26 06:00","2015","02","26","06:00","-16.3","","-20.2","","72","","36","","19","","24.1","","99.83","","","","-26","","NA"
"2015-02-26 07:00","2015","02","26","07:00","-16.4","","-19.9","","75","","1","","15","","24.1","","99.88","","","","-25","","Cloudy"
"2015-02-26 08:00","2015","02","26","08:00","-16.2","","-19.5","","76","","1","","12","","24.1","","99.93","","","","-23","","NA"
"2015-02-26 09:00","2015","02","26","09:00","-15.1","","-18.9","","73","","1","","13","","24.1","","99.98","","","","-22","","NA"
"2015-02-26 10:00","2015","02","26","10:00","-13.8","","-19.4","","63","","36","","14","","24.1","","99.97","","","","-21","","Mostly Cloudy"
"2015-02-26 11:00","2015","02","26","11:00","-13.3","","-20.6","","55","","1","","16","","24.1","","99.97","","","","-21","","NA"
"2015-02-26 12:00","2015","02","26","12:00","-12.3","","-20.7","","50","","1","","17","","16.1","","99.96","","","","-20","","NA"
"2015-02-26 13:00","2015","02","26","13:00","-11.3","","-20.3","","48","","36","","19","","24.1","","99.92","","","","-19","","Cloudy"
"2015-02-26 14:00","2015","02","26","14:00","-11.0","","-19.8","","49","","35","","15","","24.1","","99.91","","","","-18","","NA"
"2015-02-26 15:00","2015","02","26","15:00","-10.6","","-19.9","","47","","34","","16","","24.1","","99.92","","","","-18","","NA"
"2015-02-26 16:00","2015","02","26","16:00","-10.7","","-20.8","","44","","36","","16","","24.1","","99.98","","","","-18","","Cloudy"
"2015-02-26 17:00","2015","02","26","17:00","-11.1","","-21.7","","42","","36","","21","","24.1","","100.02","","","","-19","","NA"
"2015-02-26 18:00","2015","02","26","18:00","-12.1","","-20.1","","52","","34","","22","","24.1","","100.08","","","","-21","","NA"
"2015-02-26 19:00","2015","02","26","19:00","-13.5","","-20.5","","56","","36","","29","","24.1","","100.18","","","","-24","","Mainly Clear"
"2015-02-26 20:00","2015","02","26","20:00","-14.8","","-21.6","","57","","35","","24","","24.1","","100.24","","","","-25","","NA"
"2015-02-26 21:00","2015","02","26","21:00","-15.4","","-21.5","","60","","35","","20","","24.1","","100.32","","","","-25","","NA"
"2015-02-26 22:00","2015","02","26","22:00","-15.4","","-21.1","","62","","34","","20","","24.1","","100.39","","","","-25","","Cloudy"
"2015-02-26 23:00","2015","02","26","23:00","-16.2","","-22.1","","61","","33","","17","","24.1","","100.42","","","","-25","","NA"
"2015-02-27 00:00","2015","02","27","00:00","-16.6","","-22.3","","62","","32","","14","","24.1","","100.47","","","","-25","","NA"
"2015-02-27 01:00","2015","02","27","01:00","-17.6","","-22.9","","64","","32","","11","","24.1","","100.51","","","","-25","","Mainly Clear"
"2015-02-27 02:00","2015","02","27","02:00","-18.0","","-22.6","","68","","32","","14","","24.1","","100.56","","","","-26","","NA"
"2015-02-27 03:00","2015","02","27","03:00","-18.4","","-22.6","","70","","31","","10","","24.1","","100.60","","","","-25","","NA"
"2015-02-27 04:00","2015","02","27","04:00","-19.3","","-23.3","","71","","28","","10","","24.1","","100.59","","","","-26","","Clear"
"2015-02-27 05:00","2015","02","27","05:00","-19.2","","-22.9","","73","","27","","11","","24.1","","100.68","","","","-27","","NA"
"2015-02-27 06:00","2015","02","27","06:00","-20.1","","-23.5","","75","","27","","9","","24.1","","100.78","","","","-27","","NA"
"2015-02-27 07:00","2015","02","27","07:00","-19.3","","-22.5","","76","","28","","12","","24.1","","100.85","","","","-27","","Mostly Cloudy"
"2015-02-27 08:00","2015","02","27","08:00","-17.9","","-21.6","","73","","27","","10","","24.1","","100.95","","","","-25","","NA"
"2015-02-27 09:00","2015","02","27","09:00","-15.1","","-20.1","","66","","29","","12","","24.1","","101.03","","","","-22","","NA"
"2015-02-27 10:00","2015","02","27","10:00","-13.0","","-19.6","","58","","32","","22","","24.1","","101.06","","","","-22","","Mainly Clear"
"2015-02-27 11:00","2015","02","27","11:00","-12.2","","-19.1","","57","","27","","18","","24.1","","101.10","","","","-20","","NA"
"2015-02-27 12:00","2015","02","27","12:00","-11.1","","-18.3","","56","","29","","19","","24.1","","101.15","","","","-19","","NA"
"2015-02-27 13:00","2015","02","27","13:00","-10.7","","-18.3","","54","","24","","20","","24.1","","101.14","","","","-19","","Mainly Clear"
"2015-02-27 14:00","2015","02","27","14:00","-10.4","","-18.5","","52","","25","","21","","24.1","","101.13","","","","-19","","NA"
"2015-02-27 15:00","2015","02","27","15:00","-10.2","","-17.8","","54","","24","","28","","24.1","","101.18","","","","-19","","NA"
"2015-02-27 16:00","2015","02","27","16:00","-10.5","","-18.1","","54","","26","","26","","24.1","","101.23","","","","-20","","Mainly Clear"
"2015-02-27 17:00","2015","02","27","17:00","-11.3","","-18.5","","56","","26","","27","","24.1","","101.28","","","","-21","","NA"
"2015-02-27 18:00","2015","02","27","18:00","-12.3","","-19.0","","58","","27","","22","","24.1","","101.34","","","","-21","","NA"
"2015-02-27 19:00","2015","02","27","19:00","-13.3","","-19.5","","60","","28","","22","","24.1","","101.40","","","","-22","","Clear"
"2015-02-27 20:00","2015","02","27","20:00","-14.3","","-19.7","","64","","27","","14","","24.1","","101.46","","","","-22","","NA"
"2015-02-27 21:00","2015","02","27","21:00","-14.6","","-19.6","","66","","26","","8","","24.1","","101.50","","","","-20","","NA"
"2015-02-27 22:00","2015","02","27","22:00","-15.4","","-20.4","","66","","26","","7","","24.1","","101.57","","","","-20","","Clear"
"2015-02-27 23:00","2015","02","27","23:00","-15.7","","-20.9","","65","","24","","14","","24.1","","101.60","","","","-23","","NA"
"2015-02-28 00:00","2015","02","28","00:00","-16.2","","-20.7","","69","","26","","11","","24.1","","101.61","","","","-23","","NA"
"2015-02-28 01:00","2015","02","28","01:00","-17.1","","-21.2","","71","","25","","10","","24.1","","101.65","","","","-24","","Clear"
"2015-02-28 02:00","2015","02","28","02:00","-16.6","","-20.2","","74","","25","","10","","24.1","","101.68","","","","-23","","NA"
"2015-02-28 03:00","2015","02","28","03:00","-16.8","","-20.4","","74","","24","","8","","24.1","","101.66","","","","-22","","NA"
"2015-02-28 04:00","2015","02","28","04:00","-16.8","","-20.6","","73","","23","","9","","24.1","","101.71","","","","-23","","Clear"
"2015-02-28 05:00","2015","02","28","05:00","-17.0","","-20.3","","76","","24","","12","","24.1","","101.78","","","","-24","","NA"
"2015-02-28 06:00","2015","02","28","06:00","-18.4","","-21.8","","75","","26","","12","","24.1","","101.84","","","","-26","","NA"
"2015-02-28 07:00","2015","02","28","07:00","-18.3","","-21.9","","74","","27","","9","","19.3","","101.90","","","","-25","","Mainly Clear"
"2015-02-28 08:00","2015","02","28","08:00","-17.0","","-20.9","","72","","25","","8","","24.1","","101.97","","","","-23","","NA"
"2015-02-28 09:00","2015","02","28","09:00","-14.4","","-19.1","","68","","24","","8","","24.1","","102.02","","","","-20","","NA"
"2015-02-28 10:00","2015","02","28","10:00","-11.8","","-17.3","","64","","27","","13","","24.1","","102.03","","","","-18","","Clear"
"2015-02-28 11:00","2015","02","28","11:00","-9.0","","-15.6","","59","","24","","15","","24.1","","102.02","","","","-16","","NA"
"2015-02-28 12:00","2015","02","28","12:00","-7.4","","-14.8","","56","","25","","17","","24.1","","102.01","","","","-14","","NA"
"2015-02-28 13:00","2015","02","28","13:00","-6.5","","-15.1","","51","","20","","11","","24.1","","101.94","","","","-11","","Mainly Clear"
"2015-02-28 14:00","2015","02","28","14:00","-5.3","","-14.4","","49","","23","","16","","24.1","","101.86","","","","-11","","NA"
"2015-02-28 15:00","2015","02","28","15:00","-5.0","","-14.9","","46","","24","","12","","24.1","","101.83","","","","-10","","NA"
"2015-02-28 16:00","2015","02","28","16:00","-5.3","","-14.7","","48","","25","","18","","24.1","","101.79","","","","-12","","Clear"
"2015-02-28 17:00","2015","02","28","17:00","-6.1","","-15.4","","48","","24","","14","","24.1","","101.77","","","","-12","","NA"
"2015-02-28 18:00","2015","02","28","18:00","-7.1","","-16.4","","48","","22","","16","","24.1","","101.73","","","","-13","","NA"
"2015-02-28 19:00","2015","02","28","19:00","-8.0","","-16.7","","50","","21","","14","","24.1","","101.74","","","","-14","","Clear"
"2015-02-28 20:00","2015","02","28","20:00","-8.8","","-16.5","","54","","23","","10","","24.1","","101.72","","","","-14","","NA"
"2015-02-28 21:00","2015","02","28","21:00","-9.5","","-16.3","","58","","23","","7","","24.1","","101.66","","","","-13","","NA"
"2015-02-28 22:00","2015","02","28","22:00","-11.3","","-17.2","","62","","25","","8","","24.1","","101.61","","","","-16","","Clear"
"2015-02-28 23:00","2015","02","28","23:00","-11.2","","-16.6","","65","","28","","7","","24.1","","101.54","","","","-15","","NA"
