"Station Name","TORONTO LESTER B. PEARSON INT'L A"
"Province","ONTARIO"
"Latitude","43.68"
"Longitude","-79.63"
"Elevation","173.40"
"Climate Identifier","6158733"
"WMO Identifier","71624"
"TC Identifier","YYZ"
"All times are specified in Local Standard Time (LST). Add 1 hour to adjust for Daylight Saving Time where and when it is observed."

"Legend"
"E","Estimated"
"M","Missing"
"NA","Not Available"

"Date/Time","Year","Month","Day","Time","Temp (°C)","Temp Flag","Dew Point Temp (°C)","Dew Point Temp Flag","Rel Hum (%)","Rel Hum Flag","Wind Dir (10s deg)","Wind Dir Flag","Wind Spd (km/h)","Wind Spd Flag","Visibility (km)","Visibility Flag","Stn Press (kPa)","Stn Press Flag","Hmdx","Hmdx Flag","Wind Chill","Wind Chill Flag","Weather"
"2013-02-01 00:00","2013","02","01","00:00","-6.7","","-10.9","","72","","27","","28","","24.1","","98.48","","","","-15","","Mostly Cloudy"
"2013-02-01 01:00","2013","02","01","01:00","-6.6","","-11.1","","70","","28","","26","","24.1","","98.53","","","","-15","","Cloudy"
"2013-02-01 02:00","2013","02","01","02:00","-7.5","","-11.1","","75","","32","","19","","24.1","","98.60","","","","-15","","Cloudy"
"2013-02-01 03:00","2013","02","01","03:00","-8.2","","-12.4","","72","","29","","19","","24.1","","98.66","","","","-15","","Mostly Cloudy"
"2013-02-01 04:00","2013","02","01","04:00","-8.9","","-13.2","","71","","31","","19","","24.1","","98.72","","","","-16","","Mostly Cloudy"
"2013-02-01 05:00","2013","02","01","05:00","-9.2","","-13.4","","71","","30","","17","","24.1","","98.81","","","","-16","","Cloudy"
"2013-02-01 06:00","2013","02","01","06:00","-9.6","","-13.8","","71","","28","","17","","24.1","","98.92","","","","-17","","Cloudy"
"2013-02-01 07:00","2013","02","01","07:00","-10.0","","-14.0","","72","","29","","15","","24.1","","99.05","","","","-17","","Cloudy"
"2013-02-01 08:00","2013","02","01","08:00","-9.9","","-13.9","","73","","29","","19","","24.1","","99.20","","","","-18","","Mostly Cloudy"
"2013-02-01 09:00","2013","02","01","09:00","-9.7","","-12.5","","80","","27","","24","","24.1","","99.32","","","","-18","","Mostly Cloudy"
"2013-02-01 10:00","2013","02","01","10:00","-8.8","","-13.7","","68","","29","","19","","24.1","","99.40","","","","-16","","Mostly Cloudy"
"2013-02-01 11:00","2013","02","01","11:00","-8.3","","-13.9","","64","","34","","26","","24.1","","99.51","","","","-17","","Mostly Cloudy"
"2013-02-01 12:00","2013","02","01","12:00","-8.1","","-13.1","","67","","32","","20","","24.1","","99.57","","","","-15","","Mostly Cloudy"
"2013-02-01 13:00","2013","02","01","13:00","-7.8","","-13.5","","64","","32","","32","","24.1","","99.59","","","","-17","","Mostly Cloudy"
"2013-02-01 14:00","2013","02","01","14:00","-7.1","","-13.7","","59","","32","","28","","24.1","","99.62","","","","-15","","Mostly Cloudy"
"2013-02-01 15:00","2013","02","01","15:00","-7.5","","-15.1","","54","","31","","32","","24.1","","99.68","","","","-17","","Mostly Cloudy"
"2013-02-01 16:00","2013","02","01","16:00","-7.2","","-14.2","","57","","30","","22","","24.1","","99.78","","","","-15","","Mostly Cloudy"
"2013-02-01 17:00","2013","02","01","17:00","-8.2","","-14.0","","63","","32","","19","","24.1","","99.82","","","","-15","","Mostly Cloudy"
"2013-02-01 18:00","2013","02","01","18:00","-8.8","","-14.3","","64","","31","","13","","19.3","","99.89","","","","-15","","Mainly Clear"
"2013-02-01 19:00","2013","02","01","19:00","-8.9","","-14.1","","66","","32","","9","","19.3","","99.95","","","","-14","","Mainly Clear"
"2013-02-01 20:00","2013","02","01","20:00","-9.2","","-13.2","","73","","29","","4","","12.9","","99.99","","","","-11","","Snow Showers"
"2013-02-01 21:00","2013","02","01","21:00","-8.6","","-11.9","","77","","25","","13","","24.1","","99.99","","","","-15","","Mainly Clear"
"2013-02-01 22:00","2013","02","01","22:00","-8.7","","-11.9","","78","","25","","24","","24.1","","100.00","","","","-17","","Mainly Clear"
"2013-02-01 23:00","2013","02","01","23:00","-8.3","","-12.7","","71","","25","","22","","24.1","","99.99","","","","-16","","Mainly Clear"
"2013-02-02 00:00","2013","02","02","00:00","-8.4","","-13.4","","67","","24","","19","","24.1","","99.99","","","","-16","","Mainly Clear"
"2013-02-02 01:00","2013","02","02","01:00","-8.6","","-12.9","","71","","23","","20","","24.1","","99.95","","","","-16","","Mainly Clear"
"2013-02-02 02:00","2013","02","02","02:00","-9.2","","-12.8","","75","","23","","20","","24.1","","99.91","","","","-17","","Mostly Cloudy"
"2013-02-02 03:00","2013","02","02","03:00","-9.4","","-14.1","","69","","25","","24","","24.1","","99.95","","","","-18","","Cloudy"
"2013-02-02 04:00","2013","02","02","04:00","-9.9","","-15.0","","66","","24","","28","","24.1","","99.90","","","","-19","","Mostly Cloudy"
"2013-02-02 05:00","2013","02","02","05:00","-10.1","","-14.7","","69","","23","","30","","24.1","","99.88","","","","-20","","Cloudy"
"2013-02-02 06:00","2013","02","02","06:00","-9.9","","-14.6","","68","","23","","19","","24.1","","99.80","","","","-18","","Cloudy"
"2013-02-02 07:00","2013","02","02","07:00","-9.7","","-13.9","","71","","22","","19","","16.1","","99.77","","","","-17","","Snow Showers"
"2013-02-02 08:00","2013","02","02","08:00","-9.3","","-13.3","","73","","23","","13","","6.4","","99.72","","","","-15","","Snow Showers"
"2013-02-02 09:00","2013","02","02","09:00","-9.1","","-12.1","","79","","22","","20","","6.4","","99.69","","","","-17","","Snow Showers"
"2013-02-02 10:00","2013","02","02","10:00","-8.2","","-11.1","","80","","23","","20","","9.7","","99.62","","","","-16","","Snow Showers"
"2013-02-02 11:00","2013","02","02","11:00","-7.3","","-10.6","","77","","23","","17","","16.1","","99.59","","","","-14","","Snow Showers"
"2013-02-02 12:00","2013","02","02","12:00","-7.1","","-11.4","","71","","24","","24","","16.1","","99.51","","","","-15","","Snow Showers"
"2013-02-02 13:00","2013","02","02","13:00","-6.5","","-11.2","","69","","25","","22","","16.1","","99.43","","","","-14","","Snow Showers"
"2013-02-02 14:00","2013","02","02","14:00","-5.9","","-10.8","","68","","25","","19","","19.3","","99.35","","","","-13","","Snow Showers"
"2013-02-02 15:00","2013","02","02","15:00","-5.7","","-11.0","","66","","25","","17","","16.1","","99.31","","","","-12","","Snow Showers"
"2013-02-02 16:00","2013","02","02","16:00","-6.1","","-10.4","","72","","29","","15","","12.9","","99.33","","","","-12","","Snow"
"2013-02-02 17:00","2013","02","02","17:00","-6.2","","-11.0","","69","","29","","13","","24.1","","99.34","","","","-12","","Mostly Cloudy"
"2013-02-02 18:00","2013","02","02","18:00","-6.8","","-11.6","","69","","29","","15","","24.1","","99.37","","","","-13","","Mostly Cloudy"
"2013-02-02 19:00","2013","02","02","19:00","-7.6","","-12.1","","70","","31","","13","","24.1","","99.42","","","","-13","","Mostly Cloudy"
"2013-02-02 20:00","2013","02","02","20:00","-8.3","","-12.8","","70","","31","","13","","24.1","","99.43","","","","-14","","Mainly Clear"
"2013-02-02 21:00","2013","02","02","21:00","-9.0","","-13.0","","73","","35","","13","","24.1","","99.43","","","","-15","","Mainly Clear"
"2013-02-02 22:00","2013","02","02","22:00","-9.7","","-13.0","","77","","34","","11","","24.1","","99.43","","","","-15","","Mainly Clear"
"2013-02-02 23:00","2013","02","02","23:00","-10.8","","-13.5","","80","","1","","6","","24.1","","99.41","","","","-14","","Mainly Clear"
"2013-02-03 00:00","2013","02","03","00:00","-10.7","","-13.0","","83","","","","0","","24.1","","99.40","","","","","","Clear"
"2013-02-03 01:00","2013","02","03","01:00","-12.0","","-14.4","","82","","36","","6","","24.1","","99.40","","","","-16","","Clear"
"2013-02-03 02:00","2013","02","03","02:00","-12.3","","-14.4","","84","","33","","6","","24.1","","99.37","","","","-16","","Clear"
"2013-02-03 03:00","2013","02","03","03:00","-12.8","","-14.4","","88","","","","0","","24.1","","99.36","","","","","","Clear"
"2013-02-03 04:00","2013","02","03","04:00","-13.0","","-14.8","","86","","34","","4","","24.1","","99.29","","","","-16","","Clear"
"2013-02-03 05:00","2013","02","03","05:00","-12.4","","-14.9","","82","","34","","9","","24.1","","99.24","","","","-18","","Mainly Clear"
"2013-02-03 06:00","2013","02","03","06:00","-13.7","","-15.7","","85","","32","","7","","24.1","","99.18","","","","-18","","Mainly Clear"
"2013-02-03 07:00","2013","02","03","07:00","-12.8","","-14.7","","86","","","","0","","19.3","","99.17","","","","","","Mostly Cloudy"
"2013-02-03 08:00","2013","02","03","08:00","-12.8","","-15.0","","84","","34","","4","","24.1","","99.15","","","","-15","","Mostly Cloudy"
"2013-02-03 09:00","2013","02","03","09:00","-10.9","","-13.1","","84","","32","","4","","24.1","","99.17","","","","-13","","Mostly Cloudy"
"2013-02-03 10:00","2013","02","03","10:00","-9.3","","-12.6","","77","","36","","7","","24.1","","99.09","","","","-13","","Mostly Cloudy"
"2013-02-03 11:00","2013","02","03","11:00","-7.5","","-12.3","","68","","4","","4","","24.1","","99.07","","","","-10","","Mostly Cloudy"
"2013-02-03 12:00","2013","02","03","12:00","-6.4","","-12.5","","62","","","","0","","24.1","","98.98","","","","","","Mostly Cloudy"
"2013-02-03 13:00","2013","02","03","13:00","-5.8","","-14.2","","51","","31","","4","","24.1","","98.93","","","","-8","","Mostly Cloudy"
"2013-02-03 14:00","2013","02","03","14:00","-5.7","","-15.2","","47","","1","","6","","24.1","","98.86","","","","-9","","Mostly Cloudy"
"2013-02-03 15:00","2013","02","03","15:00","-5.1","","-13.5","","52","","13","","4","","24.1","","98.81","","","","-7","","Mostly Cloudy"
"2013-02-03 16:00","2013","02","03","16:00","-5.4","","-12.5","","57","","","","0","","24.1","","98.80","","","","","","Cloudy"
"2013-02-03 17:00","2013","02","03","17:00","-6.1","","-10.9","","69","","30","","19","","6.4","","98.82","","","","-13","","Snow Showers"
"2013-02-03 18:00","2013","02","03","18:00","-6.4","","-11.6","","67","","28","","19","","19.3","","98.86","","","","-13","","Snow Showers"
"2013-02-03 19:00","2013","02","03","19:00","-6.9","","-11.4","","70","","27","","19","","19.3","","98.92","","","","-14","","Snow Showers"
"2013-02-03 20:00","2013","02","03","20:00","-7.3","","-11.3","","73","","26","","19","","24.1","","98.95","","","","-14","","Mostly Cloudy"
"2013-02-03 21:00","2013","02","03","21:00","-7.6","","-11.9","","71","","24","","20","","24.1","","98.97","","","","-15","","Mostly Cloudy"
"2013-02-03 22:00","2013","02","03","22:00","-8.1","","-11.8","","75","","25","","24","","24.1","","98.97","","","","-16","","Mostly Cloudy"
"2013-02-03 23:00","2013","02","03","23:00","-8.8","","-11.8","","79","","25","","15","","24.1","","98.97","","","","-15","","Mainly Clear"
"2013-02-04 00:00","2013","02","04","00:00","-8.7","","-11.6","","79","","26","","22","","24.1","","98.96","","","","-17","","Mainly Clear"
"2013-02-04 01:00","2013","02","04","01:00","-8.1","","-11.2","","78","","27","","24","","24.1","","98.98","","","","-16","","Mainly Clear"
"2013-02-04 02:00","2013","02","04","02:00","-8.0","","-11.0","","79","","27","","22","","24.1","","99.01","","","","-16","","Mainly Clear"
"2013-02-04 03:00","2013","02","04","03:00","-7.9","","-10.6","","81","","27","","22","","24.1","","99.10","","","","-16","","Mostly Cloudy"
"2013-02-04 04:00","2013","02","04","04:00","-7.9","","-11.2","","77","","27","","19","","24.1","","99.16","","","","-15","","Mostly Cloudy"
"2013-02-04 05:00","2013","02","04","05:00","-8.5","","-13.0","","70","","28","","22","","24.1","","99.20","","","","-16","","Mostly Cloudy"
"2013-02-04 06:00","2013","02","04","06:00","-9.1","","-14.8","","63","","28","","20","","24.1","","99.23","","","","-17","","Mostly Cloudy"
"2013-02-04 07:00","2013","02","04","07:00","-9.6","","-14.9","","65","","27","","20","","24.1","","99.27","","","","-17","","Mostly Cloudy"
"2013-02-04 08:00","2013","02","04","08:00","-9.7","","-14.4","","69","","27","","13","","24.1","","99.29","","","","-16","","Mostly Cloudy"
"2013-02-04 09:00","2013","02","04","09:00","-8.2","","-13.3","","67","","27","","9","","24.1","","99.32","","","","-13","","Mostly Cloudy"
"2013-02-04 10:00","2013","02","04","10:00","-7.2","","-12.3","","67","","27","","20","","24.1","","99.31","","","","-14","","Mostly Cloudy"
"2013-02-04 11:00","2013","02","04","11:00","-6.6","","-12.7","","62","","29","","22","","24.1","","99.31","","","","-14","","Mostly Cloudy"
"2013-02-04 12:00","2013","02","04","12:00","-6.3","","-12.9","","59","","27","","20","","24.1","","99.27","","","","-13","","Mostly Cloudy"
"2013-02-04 13:00","2013","02","04","13:00","-6.4","","-12.7","","61","","27","","20","","24.1","","99.21","","","","-13","","Mostly Cloudy"
"2013-02-04 14:00","2013","02","04","14:00","-6.0","","-12.5","","60","","26","","24","","24.1","","99.17","","","","-13","","Mostly Cloudy"
"2013-02-04 15:00","2013","02","04","15:00","-5.8","","-13.4","","55","","26","","24","","24.1","","99.16","","","","-13","","Mostly Cloudy"
"2013-02-04 16:00","2013","02","04","16:00","-6.5","","-12.4","","63","","27","","19","","24.1","","99.16","","","","-13","","Mostly Cloudy"
"2013-02-04 17:00","2013","02","04","17:00","-6.8","","-11.0","","72","","33","","11","","24.1","","99.14","","","","-12","","Mostly Cloudy"
"2013-02-04 18:00","2013","02","04","18:00","-8.0","","-11.1","","78","","1","","11","","24.1","","99.15","","","","-13","","Mostly Cloudy"
"2013-02-04 19:00","2013","02","04","19:00","-9.2","","-12.2","","79","","35","","11","","24.1","","99.20","","","","-15","","Mainly Clear"
"2013-02-04 20:00","2013","02","04","20:00","-10.2","","-13.9","","74","","36","","9","","24.1","","99.24","","","","-15","","Mainly Clear"
"2013-02-04 21:00","2013","02","04","21:00","-10.4","","-14.3","","73","","1","","9","","24.1","","99.25","","","","-15","","Mainly Clear"
"2013-02-04 22:00","2013","02","04","22:00","-10.8","","-14.4","","75","","1","","9","","24.1","","99.27","","","","-16","","Mainly Clear"
"2013-02-04 23:00","2013","02","04","23:00","-11.7","","-15.1","","76","","2","","11","","24.1","","99.28","","","","-18","","Mainly Clear"
"2013-02-05 00:00","2013","02","05","00:00","-12.3","","-16.0","","74","","1","","9","","24.1","","99.29","","","","-18","","Mainly Clear"
"2013-02-05 01:00","2013","02","05","01:00","-12.1","","-15.7","","75","","1","","7","","24.1","","99.27","","","","-16","","Mainly Clear"
"2013-02-05 02:00","2013","02","05","02:00","-12.4","","-15.8","","76","","32","","7","","24.1","","99.26","","","","-17","","Mainly Clear"
"2013-02-05 03:00","2013","02","05","03:00","-12.3","","-15.7","","76","","32","","7","","24.1","","99.29","","","","-17","","Mostly Cloudy"
"2013-02-05 04:00","2013","02","05","04:00","-11.7","","-15.0","","76","","3","","6","","24.1","","99.25","","","","-15","","Mainly Clear"
"2013-02-05 05:00","2013","02","05","05:00","-12.2","","-15.5","","76","","","","0","","24.1","","99.26","","","","","","Mostly Cloudy"
"2013-02-05 06:00","2013","02","05","06:00","-11.7","","-15.0","","76","","","","0","","24.1","","99.26","","","","","","Mostly Cloudy"
"2013-02-05 07:00","2013","02","05","07:00","-11.5","","-14.8","","76","","27","","4","","24.1","","99.25","","","","-14","","Mostly Cloudy"
"2013-02-05 08:00","2013","02","05","08:00","-9.8","","-13.2","","76","","","","0","","24.1","","99.27","","","","","","Mostly Cloudy"
"2013-02-05 09:00","2013","02","05","09:00","-9.7","","-12.9","","77","","","","0","","24.1","","99.30","","","","","","Mostly Cloudy"
"2013-02-05 10:00","2013","02","05","10:00","-6.5","","-10.6","","73","","22","","6","","24.1","","99.29","","","","-9","","Mostly Cloudy"
"2013-02-05 11:00","2013","02","05","11:00","-5.8","","-11.6","","64","","22","","9","","24.1","","99.26","","","","-10","","Mostly Cloudy"
"2013-02-05 12:00","2013","02","05","12:00","-5.1","","-11.1","","63","","18","","7","","24.1","","99.15","","","","-8","","Cloudy"
"2013-02-05 13:00","2013","02","05","13:00","-4.9","","-10.8","","63","","19","","7","","24.1","","99.04","","","","-8","","Cloudy"
"2013-02-05 14:00","2013","02","05","14:00","-4.5","","-11.8","","57","","16","","13","","24.1","","98.93","","","","-10","","Cloudy"
"2013-02-05 15:00","2013","02","05","15:00","-3.9","","-10.9","","58","","19","","13","","24.1","","98.91","","","","-9","","Mostly Cloudy"
"2013-02-05 16:00","2013","02","05","16:00","-4.2","","-11.2","","58","","22","","20","","24.1","","98.93","","","","-11","","Cloudy"
"2013-02-05 17:00","2013","02","05","17:00","-4.4","","-11.6","","57","","25","","22","","24.1","","98.95","","","","-11","","Cloudy"
"2013-02-05 18:00","2013","02","05","18:00","-4.8","","-11.7","","58","","26","","19","","24.1","","98.97","","","","-11","","Cloudy"
"2013-02-05 19:00","2013","02","05","19:00","-4.8","","-11.0","","62","","20","","7","","24.1","","98.92","","","","-8","","Cloudy"
"2013-02-05 20:00","2013","02","05","20:00","-4.5","","-10.9","","61","","21","","13","","24.1","","98.92","","","","-10","","Cloudy"
"2013-02-05 21:00","2013","02","05","21:00","-4.4","","-10.4","","63","","23","","17","","24.1","","98.93","","","","-10","","Cloudy"
"2013-02-05 22:00","2013","02","05","22:00","-4.7","","-9.1","","71","","25","","20","","19.3","","98.94","","","","-11","","Snow"
"2013-02-05 23:00","2013","02","05","23:00","-4.3","","-7.7","","77","","25","","24","","24.1","","98.97","","","","-11","","Snow"
"2013-02-06 00:00","2013","02","06","00:00","-4.0","","-6.8","","81","","25","","19","","24.1","","98.98","","","","-10","","Snow Showers"
"2013-02-06 01:00","2013","02","06","01:00","-3.8","","-5.9","","85","","24","","19","","19.3","","99.00","","","","-10","","Snow Showers"
"2013-02-06 02:00","2013","02","06","02:00","-3.6","","-5.1","","89","","25","","17","","16.1","","99.07","","","","-9","","Snow Showers"
"2013-02-06 03:00","2013","02","06","03:00","-3.3","","-6.0","","82","","28","","20","","24.1","","99.14","","","","-9","","Cloudy"
"2013-02-06 04:00","2013","02","06","04:00","-3.8","","-6.8","","80","","29","","19","","24.1","","99.26","","","","-10","","Mostly Cloudy"
"2013-02-06 05:00","2013","02","06","05:00","-4.2","","-7.5","","78","","31","","32","","24.1","","99.40","","","","-12","","Mostly Cloudy"
"2013-02-06 06:00","2013","02","06","06:00","-5.1","","-8.7","","76","","31","","24","","19.3","","99.53","","","","-12","","Snow Showers"
"2013-02-06 07:00","2013","02","06","07:00","-5.8","","-10.4","","70","","33","","30","","16.1","","99.73","","","","-14","","Snow Showers"
"2013-02-06 08:00","2013","02","06","08:00","-7.7","","-13.2","","65","","32","","22","","24.1","","99.91","","","","-15","","Mainly Clear"
"2013-02-06 09:00","2013","02","06","09:00","-7.7","","-14.1","","60","","33","","24","","24.1","","100.04","","","","-16","","Mainly Clear"
"2013-02-06 10:00","2013","02","06","10:00","-7.3","","-14.0","","59","","32","","28","","24.1","","100.17","","","","-16","","Mainly Clear"
"2013-02-06 11:00","2013","02","06","11:00","-6.5","","-14.3","","54","","31","","24","","24.1","","100.24","","","","-14","","Mainly Clear"
"2013-02-06 12:00","2013","02","06","12:00","-6.4","","-14.6","","52","","31","","17","","24.1","","100.29","","","","-13","","Mainly Clear"
"2013-02-06 13:00","2013","02","06","13:00","-5.4","","-15.0","","47","","30","","17","","24.1","","100.29","","","","-11","","Mainly Clear"
"2013-02-06 14:00","2013","02","06","14:00","-5.0","","-15.3","","44","","31","","20","","24.1","","100.33","","","","-12","","Mainly Clear"
"2013-02-06 15:00","2013","02","06","15:00","-4.2","","-14.6","","44","","30","","17","","24.1","","100.37","","","","-10","","Mainly Clear"
"2013-02-06 16:00","2013","02","06","16:00","-4.2","","-13.8","","47","","31","","19","","24.1","","100.41","","","","-10","","Mainly Clear"
"2013-02-06 17:00","2013","02","06","17:00","-4.8","","-13.6","","50","","29","","9","","24.1","","100.41","","","","-9","","Mostly Cloudy"
"2013-02-06 18:00","2013","02","06","18:00","-6.0","","-12.8","","59","","30","","9","","24.1","","100.47","","","","-10","","Mainly Clear"
"2013-02-06 19:00","2013","02","06","19:00","-6.1","","-12.4","","61","","29","","9","","24.1","","100.62","","","","-10","","Mainly Clear"
"2013-02-06 20:00","2013","02","06","20:00","-6.5","","-12.6","","62","","32","","7","","24.1","","100.62","","","","-10","","Mainly Clear"
"2013-02-06 21:00","2013","02","06","21:00","-7.3","","-12.9","","64","","3","","7","","24.1","","100.62","","","","-11","","Mainly Clear"
"2013-02-06 22:00","2013","02","06","22:00","-7.1","","-12.4","","66","","","","0","","24.1","","100.67","","","","","","Mainly Clear"
"2013-02-06 23:00","2013","02","06","23:00","-7.8","","-12.7","","68","","9","","4","","24.1","","100.64","","","","-10","","Mainly Clear"
"2013-02-07 00:00","2013","02","07","00:00","-7.1","","-12.2","","67","","5","","6","","24.1","","100.62","","","","-10","","Mostly Cloudy"
"2013-02-07 01:00","2013","02","07","01:00","-7.0","","-11.8","","69","","4","","7","","24.1","","100.64","","","","-11","","Cloudy"
"2013-02-07 02:00","2013","02","07","02:00","-6.7","","-11.2","","70","","4","","9","","24.1","","100.63","","","","-11","","Cloudy"
"2013-02-07 03:00","2013","02","07","03:00","-6.9","","-10.9","","73","","3","","7","","24.1","","100.65","","","","-10","","Cloudy"
"2013-02-07 04:00","2013","02","07","04:00","-6.7","","-10.5","","74","","5","","7","","24.1","","100.62","","","","-10","","Cloudy"
"2013-02-07 05:00","2013","02","07","05:00","-6.5","","-9.7","","78","","6","","9","","24.1","","100.65","","","","-11","","Cloudy"
"2013-02-07 06:00","2013","02","07","06:00","-6.2","","-9.2","","79","","7","","7","","12.9","","100.64","","","","-10","","Snow"
"2013-02-07 07:00","2013","02","07","07:00","-5.0","","-7.5","","83","","10","","9","","12.9","","100.63","","","","-9","","Snow"
"2013-02-07 08:00","2013","02","07","08:00","-4.1","","-6.8","","81","","10","","15","","12.9","","100.68","","","","-9","","Snow"
"2013-02-07 09:00","2013","02","07","09:00","-6.0","","-8.4","","83","","7","","13","","24.1","","100.70","","","","-11","","Cloudy"
"2013-02-07 10:00","2013","02","07","10:00","-5.0","","-7.4","","83","","6","","9","","24.1","","100.69","","","","-9","","Cloudy"
"2013-02-07 11:00","2013","02","07","11:00","-3.1","","-7.6","","71","","12","","26","","24.1","","100.65","","","","-10","","Cloudy"
"2013-02-07 12:00","2013","02","07","12:00","-2.7","","-7.2","","71","","11","","24","","9.7","","100.55","","","","-9","","Snow Showers"
"2013-02-07 13:00","2013","02","07","13:00","-2.6","","-6.8","","73","","10","","24","","16.1","","100.45","","","","-9","","Snow Showers"
"2013-02-07 14:00","2013","02","07","14:00","-2.2","","-6.6","","72","","9","","20","","6.4","","100.37","","","","-8","","Snow Showers"
"2013-02-07 15:00","2013","02","07","15:00","-4.6","","-6.3","","88","","8","","19","","2.4","","100.36","","","","-11","","Snow"
"2013-02-07 16:00","2013","02","07","16:00","-4.8","","-6.4","","89","","8","","24","","2.0","","100.29","","","","-12","","Snow"
"2013-02-07 17:00","2013","02","07","17:00","-4.9","","-6.4","","89","","9","","26","","1.6","","100.26","","","","-12","","Snow"
"2013-02-07 18:00","2013","02","07","18:00","-4.7","","-6.1","","90","","8","","17","","1.6","","100.23","","","","-11","","Snow"
"2013-02-07 19:00","2013","02","07","19:00","-5.6","","-6.5","","93","","6","","17","","2.4","","100.18","","","","-12","","Snow"
"2013-02-07 20:00","2013","02","07","20:00","-6.3","","-7.5","","91","","6","","20","","4.8","","100.11","","","","-13","","Snow"
"2013-02-07 21:00","2013","02","07","21:00","-6.6","","-8.0","","90","","6","","15","","4.8","","99.99","","","","-13","","Snow"
"2013-02-07 22:00","2013","02","07","22:00","-6.9","","-8.4","","89","","6","","17","","8.0","","99.93","","","","-13","","Snow"
"2013-02-07 23:00","2013","02","07","23:00","-7.0","","-8.4","","90","","5","","13","","8.0","","99.89","","","","-13","","Snow"
"2013-02-08 00:00","2013","02","08","00:00","-7.0","","-8.2","","91","","5","","15","","9.7","","99.81","","","","-13","","Snow"
"2013-02-08 01:00","2013","02","08","01:00","-6.8","","-8.0","","91","","6","","17","","9.7","","99.73","","","","-13","","Snow"
"2013-02-08 02:00","2013","02","08","02:00","-7.0","","-8.1","","92","","5","","13","","12.9","","99.62","","","","-13","","Cloudy"
"2013-02-08 03:00","2013","02","08","03:00","-7.2","","-8.4","","91","","5","","19","","12.9","","99.58","","","","-14","","Cloudy"
"2013-02-08 04:00","2013","02","08","04:00","-7.1","","-8.1","","93","","5","","11","","1.6","","99.46","","","","-12","","Snow"
"2013-02-08 05:00","2013","02","08","05:00","-6.8","","-7.9","","92","","7","","15","","2.0","","99.33","","","","-13","","Snow"
"2013-02-08 06:00","2013","02","08","06:00","-6.1","","-7.4","","90","","6","","17","","1.6","","99.23","","","","-12","","Snow"
"2013-02-08 07:00","2013","02","08","07:00","-6.4","","-7.5","","92","","4","","20","","0.6","","99.24","","","","-13","","Moderate Snow"
"2013-02-08 08:00","2013","02","08","08:00","-7.0","","-7.9","","93","","2","","24","","0.4","","99.20","","","","-15","","Heavy Snow"
"2013-02-08 09:00","2013","02","08","09:00","-8.0","","-8.8","","94","","36","","22","","0.4","","99.19","","","","-16","","Heavy Snow"
"2013-02-08 10:00","2013","02","08","10:00","-8.0","","-8.8","","94","","1","","22","","0.4","","99.17","","","","-16","","Heavy Snow"
"2013-02-08 11:00","2013","02","08","11:00","-8.7","","-9.7","","92","","1","","24","","0.4","","99.16","","","","-17","","Heavy Snow"
"2013-02-08 12:00","2013","02","08","12:00","-8.7","","-9.7","","92","","1","","24","","0.4","","99.16","","","","-17","","Heavy Snow"
"2013-02-08 13:00","2013","02","08","13:00","-8.8","","-10.0","","91","","36","","32","","0.4","","99.13","","","","-18","","Heavy Snow"
"2013-02-08 14:00","2013","02","08","14:00","-9.2","","-10.3","","92","","35","","30","","0.4","","99.15","","","","-18","","Heavy Snow"
"2013-02-08 15:00","2013","02","08","15:00","-9.3","","-10.6","","90","","36","","30","","0.4","","99.24","","","","-19","","Heavy Snow"
"2013-02-08 16:00","2013","02","08","16:00","-9.1","","-10.4","","90","","1","","35","","1.0","","99.34","","","","-19","","Snow,Blowing Snow"
"2013-02-08 17:00","2013","02","08","17:00","-8.9","","-10.2","","90","","36","","35","","0.6","","99.46","","","","-19","","Moderate Snow,Blowing Snow"
"2013-02-08 18:00","2013","02","08","18:00","-8.9","","-10.5","","88","","36","","35","","1.2","","99.58","","","","-19","","Snow,Blowing Snow"
"2013-02-08 19:00","2013","02","08","19:00","-9.0","","-10.6","","88","","36","","32","","2.0","","99.73","","","","-18","","Snow,Blowing Snow"
"2013-02-08 20:00","2013","02","08","20:00","-9.4","","-11.1","","87","","35","","30","","3.2","","99.81","","","","-19","","Snow"
"2013-02-08 21:00","2013","02","08","21:00","-9.3","","-11.7","","83","","35","","26","","8.0","","99.92","","","","-18","","Snow"
"2013-02-08 22:00","2013","02","08","22:00","-9.3","","-11.9","","81","","35","","30","","9.7","","100.00","","","","-19","","Snow"
"2013-02-08 23:00","2013","02","08","23:00","-9.1","","-12.0","","79","","35","","28","","12.9","","100.05","","","","-18","","Cloudy"
"2013-02-09 00:00","2013","02","09","00:00","-9.3","","-12.4","","78","","35","","24","","19.3","","100.10","","","","-18","","Mostly Cloudy"
"2013-02-09 01:00","2013","02","09","01:00","-9.6","","-13.0","","76","","34","","22","","19.3","","100.20","","","","-18","","Mainly Clear"
"2013-02-09 02:00","2013","02","09","02:00","-10.1","","-13.0","","79","","34","","28","","19.3","","100.28","","","","-19","","Mainly Clear"
"2013-02-09 03:00","2013","02","09","03:00","-10.5","","-13.3","","80","","34","","26","","19.3","","100.33","","","","-20","","Clear"
"2013-02-09 04:00","2013","02","09","04:00","-10.8","","-13.5","","80","","35","","24","","19.3","","100.42","","","","-20","","Clear"
"2013-02-09 05:00","2013","02","09","05:00","-11.0","","-13.3","","83","","35","","30","","24.1","","100.47","","","","-21","","Mainly Clear"
"2013-02-09 06:00","2013","02","09","06:00","-11.2","","-13.1","","86","","1","","26","","24.1","","100.49","","","","-20","","Mostly Cloudy"
"2013-02-09 07:00","2013","02","09","07:00","-11.2","","-12.9","","87","","36","","24","","24.1","","100.62","","","","-20","","Mainly Clear"
"2013-02-09 08:00","2013","02","09","08:00","-11.8","","-13.4","","88","","36","","15","","24.1","","100.78","","","","-19","","Clear"
"2013-02-09 09:00","2013","02","09","09:00","-11.3","","-12.7","","89","","2","","11","","24.1","","100.81","","","","-17","","Clear"
"2013-02-09 10:00","2013","02","09","10:00","-10.2","","-12.1","","86","","1","","13","","24.1","","100.79","","","","-16","","Clear"
"2013-02-09 11:00","2013","02","09","11:00","-8.7","","-11.2","","82","","34","","24","","24.1","","100.82","","","","-17","","Clear"
"2013-02-09 12:00","2013","02","09","12:00","-7.5","","-10.8","","77","","36","","15","","24.1","","100.79","","","","-14","","Clear"
"2013-02-09 13:00","2013","02","09","13:00","-6.2","","-10.4","","72","","35","","11","","24.1","","100.77","","","","-11","","Clear"
"2013-02-09 14:00","2013","02","09","14:00","-5.4","","-10.7","","66","","36","","17","","24.1","","100.71","","","","-11","","Clear"
"2013-02-09 15:00","2013","02","09","15:00","-4.5","","-10.3","","64","","36","","7","","24.1","","100.75","","","","-8","","Clear"
"2013-02-09 16:00","2013","02","09","16:00","-4.3","","-10.7","","61","","4","","9","","24.1","","100.74","","","","-8","","Clear"
"2013-02-09 17:00","2013","02","09","17:00","-5.2","","-11.4","","62","","3","","6","","24.1","","100.72","","","","-8","","Clear"
"2013-02-09 18:00","2013","02","09","18:00","-5.4","","-11.5","","62","","","","0","","24.1","","100.74","","","","","","Clear"
"2013-02-09 19:00","2013","02","09","19:00","-5.9","","-11.6","","64","","","","0","","24.1","","100.74","","","","","","Clear"
"2013-02-09 20:00","2013","02","09","20:00","-7.8","","-12.4","","69","","","","0","","24.1","","100.77","","","","","","Clear"
"2013-02-09 21:00","2013","02","09","21:00","-7.9","","-11.9","","73","","","","0","","24.1","","100.76","","","","","","Mainly Clear"
"2013-02-09 22:00","2013","02","09","22:00","-8.6","","-12.1","","76","","","","0","","24.1","","100.76","","","","","","Mainly Clear"
"2013-02-09 23:00","2013","02","09","23:00","-9.5","","-13.5","","73","","","","0","","24.1","","100.73","","","","","","Mainly Clear"
"2013-02-10 00:00","2013","02","10","00:00","-12.2","","-14.7","","82","","30","","4","","24.1","","100.73","","","","-15","","Mainly Clear"
"2013-02-10 01:00","2013","02","10","01:00","-11.3","","-13.8","","82","","","","0","","24.1","","100.70","","","","","","Mainly Clear"
"2013-02-10 02:00","2013","02","10","02:00","-11.6","","-13.4","","86","","","","0","","24.1","","100.71","","","","","","Mainly Clear"
"2013-02-10 03:00","2013","02","10","03:00","-11.7","","-14.0","","83","","","","0","","24.1","","100.69","","","","","","Mainly Clear"
"2013-02-10 04:00","2013","02","10","04:00","-13.2","","-14.6","","89","","33","","6","","24.1","","100.62","","","","-17","","Clear"
"2013-02-10 05:00","2013","02","10","05:00","-14.2","","-15.6","","89","","1","","6","","24.1","","100.59","","","","-18","","Clear"
"2013-02-10 06:00","2013","02","10","06:00","-15.5","","-16.3","","94","","34","","7","","24.1","","100.60","","","","-20","","Mainly Clear"
"2013-02-10 07:00","2013","02","10","07:00","-13.8","","-15.2","","89","","35","","4","","19.3","","100.63","","","","-17","","Mainly Clear"
"2013-02-10 08:00","2013","02","10","08:00","-14.7","","-15.6","","93","","31","","4","","19.3","","100.67","","","","-18","","Mostly Cloudy"
"2013-02-10 09:00","2013","02","10","09:00","-11.7","","-12.1","","97","","","","0","","24.1","","100.61","","","","","","Mainly Clear"
"2013-02-10 10:00","2013","02","10","10:00","-8.8","","-9.8","","92","","","","0","","19.3","","100.53","","","","","","Mostly Cloudy"
"2013-02-10 11:00","2013","02","10","11:00","-2.9","","-5.3","","83","","10","","11","","24.1","","100.43","","","","-7","","Mostly Cloudy"
"2013-02-10 12:00","2013","02","10","12:00","-1.0","","-9.5","","52","","11","","11","","24.1","","100.30","","","","-5","","Mainly Clear"
"2013-02-10 13:00","2013","02","10","13:00","-0.2","","-12.0","","41","","10","","15","","24.1","","100.21","","","","-5","","Mostly Cloudy"
"2013-02-10 14:00","2013","02","10","14:00","0.5","","-11.7","","39","","10","","17","","24.1","","100.17","","","","","","Mostly Cloudy"
"2013-02-10 15:00","2013","02","10","15:00","0.6","","-8.0","","52","","9","","17","","24.1","","100.02","","","","","","Mostly Cloudy"
"2013-02-10 16:00","2013","02","10","16:00","0.7","","-7.4","","55","","10","","20","","24.1","","99.98","","","","","","Cloudy"
"2013-02-10 17:00","2013","02","10","17:00","-0.5","","-4.4","","75","","8","","22","","24.1","","99.87","","","","-6","","Cloudy"
"2013-02-10 18:00","2013","02","10","18:00","-0.6","","-3.8","","79","","10","","13","","24.1","","99.84","","","","-5","","Cloudy"
"2013-02-10 19:00","2013","02","10","19:00","-0.1","","-3.2","","80","","11","","13","","24.1","","99.73","","","","-4","","Mostly Cloudy"
"2013-02-10 20:00","2013","02","10","20:00","0.8","","-2.3","","80","","10","","13","","24.1","","99.66","","","","","","Cloudy"
"2013-02-10 21:00","2013","02","10","21:00","1.3","","-1.8","","80","","9","","15","","24.1","","99.45","","","","","","Cloudy"
"2013-02-10 22:00","2013","02","10","22:00","1.7","","-1.4","","80","","13","","7","","24.1","","99.45","","","","","","Cloudy"
"2013-02-10 23:00","2013","02","10","23:00","1.6","","-0.9","","83","","","","0","","24.1","","99.36","","","","","","Cloudy"
"2013-02-11 00:00","2013","02","11","00:00","1.3","","-0.7","","87","","9","","13","","24.1","","99.14","","","","","","Rain,Snow"
"2013-02-11 01:00","2013","02","11","01:00","1.9","","-0.5","","84","","13","","6","","24.1","","99.03","","","","","","Mostly Cloudy"
"2013-02-11 02:00","2013","02","11","02:00","2.6","","-1.4","","75","","14","","11","","24.1","","98.93","","","","","","Ice Pellets"
"2013-02-11 03:00","2013","02","11","03:00","2.1","","-0.2","","85","","14","","11","","8.0","","98.86","","","","","","Rain"
"2013-02-11 04:00","2013","02","11","04:00","1.5","","0.4","","92","","14","","11","","9.7","","98.70","","","","","","Rain"
"2013-02-11 05:00","2013","02","11","05:00","1.4","","0.9","","96","","14","","9","","4.8","","98.60","","","","","","Rain,Fog"
"2013-02-11 06:00","2013","02","11","06:00","1.7","","1.5","","99","","15","","11","","2.4","","98.52","","","","","","Drizzle,Fog"
"2013-02-11 07:00","2013","02","11","07:00","2.0","","1.9","","99","","14","","11","","4.0","","98.43","","","","","","Drizzle,Fog"
"2013-02-11 08:00","2013","02","11","08:00","2.4","","2.4","","100","","16","","13","","2.4","","98.37","","","","","","Drizzle,Fog"
"2013-02-11 09:00","2013","02","11","09:00","3.1","","3.1","","100","","19","","13","","9.7","","98.26","","","","","","Drizzle,Fog"
"2013-02-11 10:00","2013","02","11","10:00","4.8","","4.8","","100","","18","","15","","16.1","","98.11","","","","","","Cloudy"
"2013-02-11 11:00","2013","02","11","11:00","5.3","","4.6","","95","","22","","17","","6.4","","98.07","","","","","","Rain Showers,Fog"
"2013-02-11 12:00","2013","02","11","12:00","6.6","","6.0","","96","","21","","15","","19.3","","97.99","","","","","","Cloudy"
"2013-02-11 13:00","2013","02","11","13:00","6.0","","-0.2","","64","","25","","46","","24.1","","97.91","","","","","","Mostly Cloudy"
"2013-02-11 14:00","2013","02","11","14:00","4.7","","-0.9","","67","","25","","50","","24.1","","97.99","","","","","","Cloudy"
"2013-02-11 15:00","2013","02","11","15:00","3.6","","-1.4","","70","","24","","37","","19.3","","98.03","","","","","","Rain Showers"
"2013-02-11 16:00","2013","02","11","16:00","2.4","","-0.6","","81","","25","","32","","24.1","","98.12","","","","","","Rain Showers,Snow Showers"
"2013-02-11 17:00","2013","02","11","17:00","2.0","","-1.9","","75","","24","","35","","24.1","","98.21","","","","","","Mostly Cloudy"
"2013-02-11 18:00","2013","02","11","18:00","2.0","","-2.3","","73","","23","","28","","24.1","","98.23","","","","","","Mostly Cloudy"
"2013-02-11 19:00","2013","02","11","19:00","1.6","","-2.5","","74","","24","","28","","24.1","","98.29","","","","","","Mostly Cloudy"
"2013-02-11 20:00","2013","02","11","20:00","1.6","","-2.2","","76","","23","","22","","24.1","","98.33","","","","","","Cloudy"
"2013-02-11 21:00","2013","02","11","21:00","1.7","","-2.1","","76","","24","","35","","16.1","","98.33","","","","","","Snow Showers"
"2013-02-11 22:00","2013","02","11","22:00","1.7","","-1.5","","79","","23","","26","","19.3","","98.35","","","","","","Snow Showers"
"2013-02-11 23:00","2013","02","11","23:00","1.2","","-1.3","","83","","24","","28","","16.1","","98.37","","","","","","Snow Showers"
"2013-02-12 00:00","2013","02","12","00:00","1.1","","-0.9","","86","","24","","26","","19.3","","98.41","","","","","","Snow Showers"
"2013-02-12 01:00","2013","02","12","01:00","1.7","","-1.4","","80","","25","","39","","24.1","","98.47","","","","","","Cloudy"
"2013-02-12 02:00","2013","02","12","02:00","1.7","","-1.4","","80","","26","","28","","24.1","","98.53","","","","","","Cloudy"
"2013-02-12 03:00","2013","02","12","03:00","1.4","","-1.0","","84","","26","","28","","24.1","","98.60","","","","","","Cloudy"
"2013-02-12 04:00","2013","02","12","04:00","1.2","","-1.1","","85","","27","","37","","24.1","","98.67","","","","","","Cloudy"
"2013-02-12 05:00","2013","02","12","05:00","0.9","","-1.4","","85","","26","","32","","24.1","","98.77","","","","","","Cloudy"
"2013-02-12 06:00","2013","02","12","06:00","0.8","","-1.5","","85","","27","","24","","24.1","","98.86","","","","","","Snow Showers"
"2013-02-12 07:00","2013","02","12","07:00","0.6","","-3.2","","76","","28","","32","","19.3","","98.98","","","","","","Snow Showers"
"2013-02-12 08:00","2013","02","12","08:00","0.2","","-3.6","","76","","27","","28","","24.1","","99.07","","","","","","Cloudy"
"2013-02-12 09:00","2013","02","12","09:00","0.0","","-3.7","","76","","28","","24","","24.1","","99.14","","","","-6","","Cloudy"
"2013-02-12 10:00","2013","02","12","10:00","0.0","","-4.8","","70","","28","","33","","24.1","","99.19","","","","-7","","Cloudy"
"2013-02-12 11:00","2013","02","12","11:00","-0.2","","-5.8","","66","","27","","30","","24.1","","99.21","","","","-7","","Mostly Cloudy"
"2013-02-12 12:00","2013","02","12","12:00","0.3","","-5.9","","63","","27","","33","","24.1","","99.24","","","","","","Mostly Cloudy"
"2013-02-12 13:00","2013","02","12","13:00","0.6","","-5.3","","65","","28","","39","","24.1","","99.18","","","","","","Mostly Cloudy"
"2013-02-12 14:00","2013","02","12","14:00","0.2","","-4.8","","69","","28","","28","","24.1","","99.17","","","","","","Mostly Cloudy"
"2013-02-12 15:00","2013","02","12","15:00","0.2","","-5.3","","66","","27","","22","","24.1","","99.19","","","","","","Cloudy"
"2013-02-12 16:00","2013","02","12","16:00","-0.5","","-4.5","","74","","27","","24","","24.1","","99.10","","","","-6","","Cloudy"
"2013-02-12 17:00","2013","02","12","17:00","-0.5","","-4.8","","73","","27","","26","","24.1","","99.16","","","","-7","","Cloudy"
"2013-02-12 18:00","2013","02","12","18:00","-0.6","","-5.0","","72","","27","","24","","24.1","","99.22","","","","-7","","Cloudy"
"2013-02-12 19:00","2013","02","12","19:00","-0.7","","-5.0","","73","","26","","20","","24.1","","99.27","","","","-6","","Cloudy"
"2013-02-12 20:00","2013","02","12","20:00","-0.7","","-4.8","","74","","27","","20","","24.1","","99.30","","","","-6","","Cloudy"
"2013-02-12 21:00","2013","02","12","21:00","-0.7","","-5.1","","72","","27","","24","","24.1","","99.26","","","","-7","","Cloudy"
"2013-02-12 22:00","2013","02","12","22:00","-0.9","","-4.8","","75","","26","","17","","24.1","","99.21","","","","-6","","Cloudy"
"2013-02-12 23:00","2013","02","12","23:00","-0.7","","-4.9","","73","","28","","11","","24.1","","99.15","","","","-4","","Cloudy"
"2013-02-13 00:00","2013","02","13","00:00","-1.2","","-4.8","","76","","26","","11","","24.1","","99.11","","","","-5","","Cloudy"
"2013-02-13 01:00","2013","02","13","01:00","-1.1","","-4.8","","76","","26","","11","","24.1","","99.10","","","","-5","","Cloudy"
"2013-02-13 02:00","2013","02","13","02:00","-1.2","","-5.1","","75","","25","","7","","24.1","","99.08","","","","-4","","Cloudy"
"2013-02-13 03:00","2013","02","13","03:00","-1.1","","-5.0","","75","","22","","7","","24.1","","99.05","","","","-4","","Cloudy"
"2013-02-13 04:00","2013","02","13","04:00","-1.2","","-5.1","","75","","22","","6","","24.1","","99.00","","","","-3","","Cloudy"
"2013-02-13 05:00","2013","02","13","05:00","-1.3","","-4.7","","78","","24","","9","","24.1","","98.98","","","","-5","","Cloudy"
"2013-02-13 06:00","2013","02","13","06:00","-1.7","","-4.8","","79","","26","","13","","24.1","","99.00","","","","-6","","Cloudy"
"2013-02-13 07:00","2013","02","13","07:00","-1.7","","-5.7","","74","","26","","13","","24.1","","99.00","","","","-6","","Cloudy"
"2013-02-13 08:00","2013","02","13","08:00","-2.2","","-7.2","","69","","29","","11","","24.1","","98.98","","","","-6","","Mostly Cloudy"
"2013-02-13 09:00","2013","02","13","09:00","-2.1","","-7.3","","68","","25","","9","","24.1","","98.95","","","","-6","","Mostly Cloudy"
"2013-02-13 10:00","2013","02","13","10:00","-2.1","","-7.4","","67","","26","","13","","24.1","","98.91","","","","-7","","Mostly Cloudy"
"2013-02-13 11:00","2013","02","13","11:00","-1.6","","-7.4","","65","","28","","13","","24.1","","98.87","","","","-6","","Mostly Cloudy"
"2013-02-13 12:00","2013","02","13","12:00","-1.1","","-6.3","","68","","27","","9","","24.1","","98.79","","","","-4","","Mainly Clear"
"2013-02-13 13:00","2013","02","13","13:00","-0.7","","-6.2","","66","","","","0","","24.1","","98.76","","","","","","Mainly Clear"
"2013-02-13 14:00","2013","02","13","14:00","-0.1","","-6.2","","63","","28","","9","","24.1","","98.71","","","","-3","","Mainly Clear"
"2013-02-13 15:00","2013","02","13","15:00","0.3","","-6.4","","61","","32","","13","","24.1","","98.64","","","","","","Mainly Clear"
"2013-02-13 16:00","2013","02","13","16:00","0.6","","-6.3","","60","","28","","11","","24.1","","98.64","","","","","","Mainly Clear"
"2013-02-13 17:00","2013","02","13","17:00","-0.6","","-6.5","","64","","32","","15","","24.1","","98.67","","","","-5","","Mainly Clear"
"2013-02-13 18:00","2013","02","13","18:00","-1.7","","-6.8","","68","","32","","17","","24.1","","98.69","","","","-7","","Mainly Clear"
"2013-02-13 19:00","2013","02","13","19:00","-2.4","","-7.1","","70","","32","","17","","24.1","","98.70","","","","-8","","Clear"
"2013-02-13 20:00","2013","02","13","20:00","-3.4","","-7.5","","73","","31","","11","","24.1","","98.74","","","","-8","","Clear"
"2013-02-13 21:00","2013","02","13","21:00","-2.9","","-7.1","","73","","31","","13","","24.1","","98.77","","","","-8","","Mostly Cloudy"
"2013-02-13 22:00","2013","02","13","22:00","-3.6","","-7.5","","74","","31","","9","","24.1","","98.81","","","","-7","","Clear"
"2013-02-13 23:00","2013","02","13","23:00","-4.4","","-7.9","","77","","29","","7","","24.1","","98.85","","","","-8","","Mainly Clear"
"2013-02-14 00:00","2013","02","14","00:00","-5.5","","-8.4","","80","","27","","7","","24.1","","98.88","","","","-9","","Mostly Cloudy"
"2013-02-14 01:00","2013","02","14","01:00","-5.1","","-8.2","","79","","","","0","","24.1","","98.90","","","","","","Cloudy"
"2013-02-14 02:00","2013","02","14","02:00","-4.3","","-6.8","","83","","27","","6","","24.1","","98.91","","","","-7","","Cloudy"
"2013-02-14 03:00","2013","02","14","03:00","-3.6","","-6.4","","81","","22","","6","","24.1","","98.92","","","","-6","","Cloudy"
"2013-02-14 04:00","2013","02","14","04:00","-3.2","","-5.4","","85","","","","0","","24.1","","98.93","","","","","","Cloudy"
"2013-02-14 05:00","2013","02","14","05:00","-2.7","","-5.7","","80","","17","","7","","24.1","","98.95","","","","-6","","Cloudy"
"2013-02-14 06:00","2013","02","14","06:00","-2.6","","-6.0","","77","","17","","7","","19.3","","98.95","","","","-5","","Cloudy"
"2013-02-14 07:00","2013","02","14","07:00","-2.6","","-5.1","","83","","16","","7","","16.1","","98.97","","","","-5","","Cloudy"
"2013-02-14 08:00","2013","02","14","08:00","-2.2","","-4.1","","87","","17","","6","","8.0","","99.00","","","","-5","","Fog"
"2013-02-14 09:00","2013","02","14","09:00","-1.5","","-3.1","","89","","17","","7","","8.0","","99.03","","","","-4","","Fog"
"2013-02-14 10:00","2013","02","14","10:00","-0.5","","-2.3","","88","","18","","9","","9.7","","99.01","","","","-4","","Fog"
"2013-02-14 11:00","2013","02","14","11:00","0.1","","-2.7","","81","","15","","9","","16.1","","98.95","","","","","","Cloudy"
"2013-02-14 12:00","2013","02","14","12:00","0.5","","-2.4","","81","","16","","13","","16.1","","98.91","","","","","","Cloudy"
"2013-02-14 13:00","2013","02","14","13:00","0.9","","-1.9","","82","","18","","13","","4.0","","98.84","","","","","","Snow"
"2013-02-14 14:00","2013","02","14","14:00","1.1","","-0.7","","88","","16","","9","","4.8","","98.77","","","","","","Snow"
"2013-02-14 15:00","2013","02","14","15:00","1.1","","-0.3","","90","","17","","13","","4.0","","98.75","","","","","","Snow"
"2013-02-14 16:00","2013","02","14","16:00","1.5","","0.0","","90","","18","","13","","4.8","","98.74","","","","","","Rain,Snow"
"2013-02-14 17:00","2013","02","14","17:00","1.4","","0.3","","92","","17","","11","","6.4","","98.72","","","","","","Rain,Snow,Fog"
"2013-02-14 18:00","2013","02","14","18:00","1.3","","0.5","","94","","16","","13","","4.8","","98.69","","","","","","Rain,Fog"
"2013-02-14 19:00","2013","02","14","19:00","0.7","","0.2","","96","","17","","15","","2.0","","98.71","","","","","","Rain,Snow,Fog"
"2013-02-14 20:00","2013","02","14","20:00","0.9","","0.5","","97","","18","","9","","4.0","","98.65","","","","","","Snow,Fog"
"2013-02-14 21:00","2013","02","14","21:00","1.7","","0.9","","94","","20","","17","","8.0","","98.61","","","","","","Snow"
"2013-02-14 22:00","2013","02","14","22:00","1.6","","0.7","","94","","19","","11","","8.0","","98.56","","","","","","Snow"
"2013-02-14 23:00","2013","02","14","23:00","1.6","","0.7","","94","","21","","17","","9.7","","98.51","","","","","","Snow"
"2013-02-15 00:00","2013","02","15","00:00","2.1","","0.6","","90","","22","","19","","12.9","","98.52","","","","","","Snow"
"2013-02-15 01:00","2013","02","15","01:00","2.3","","0.3","","87","","22","","19","","14.5","","98.49","","","","","","Rain"
"2013-02-15 02:00","2013","02","15","02:00","2.2","","-0.5","","82","","22","","19","","19.3","","98.48","","","","","","Rain"
"2013-02-15 03:00","2013","02","15","03:00","2.0","","-0.8","","82","","23","","22","","24.1","","98.48","","","","","","Rain"
"2013-02-15 04:00","2013","02","15","04:00","1.9","","-1.1","","80","","25","","33","","24.1","","98.51","","","","","","Cloudy"
"2013-02-15 05:00","2013","02","15","05:00","0.4","","-3.4","","76","","27","","28","","24.1","","98.70","","","","","","Mostly Cloudy"
"2013-02-15 06:00","2013","02","15","06:00","-0.4","","-4.3","","75","","27","","35","","24.1","","98.83","","","","-7","","Mostly Cloudy"
"2013-02-15 07:00","2013","02","15","07:00","-0.7","","-4.4","","76","","26","","22","","24.1","","98.94","","","","-6","","Mostly Cloudy"
"2013-02-15 08:00","2013","02","15","08:00","-1.1","","-4.7","","76","","26","","33","","24.1","","99.03","","","","-8","","Cloudy"
"2013-02-15 09:00","2013","02","15","09:00","-1.9","","-5.6","","76","","27","","35","","24.1","","99.16","","","","-9","","Ice Pellets"
"2013-02-15 10:00","2013","02","15","10:00","-1.9","","-6.3","","72","","27","","26","","24.1","","99.23","","","","-8","","Snow Grains"
"2013-02-15 11:00","2013","02","15","11:00","-1.9","","-6.4","","71","","26","","35","","24.1","","99.28","","","","-9","","Snow Grains"
"2013-02-15 12:00","2013","02","15","12:00","-1.9","","-6.8","","69","","27","","32","","24.1","","99.31","","","","-9","","Snow Grains"
"2013-02-15 13:00","2013","02","15","13:00","-2.1","","-7.1","","69","","27","","32","","16.1","","99.32","","","","-9","","Snow"
"2013-02-15 14:00","2013","02","15","14:00","-2.1","","-8.6","","61","","29","","32","","24.1","","99.35","","","","-9","","Mostly Cloudy"
"2013-02-15 15:00","2013","02","15","15:00","-2.1","","-9.7","","56","","27","","35","","24.1","","99.39","","","","-10","","Mostly Cloudy"
"2013-02-15 16:00","2013","02","15","16:00","-2.6","","-10.2","","56","","26","","32","","24.1","","99.43","","","","-10","","Mainly Clear"
"2013-02-15 17:00","2013","02","15","17:00","-3.3","","-10.9","","56","","28","","28","","24.1","","99.48","","","","-11","","Mainly Clear"
"2013-02-15 18:00","2013","02","15","18:00","-4.3","","-9.8","","65","","27","","28","","24.1","","99.55","","","","-12","","Mostly Cloudy"
"2013-02-15 19:00","2013","02","15","19:00","-5.1","","-9.6","","71","","27","","17","","24.1","","99.65","","","","-11","","Mainly Clear"
"2013-02-15 20:00","2013","02","15","20:00","-5.7","","-9.2","","76","","27","","15","","24.1","","99.68","","","","-11","","Mainly Clear"
"2013-02-15 21:00","2013","02","15","21:00","-6.0","","-10.2","","72","","28","","17","","24.1","","99.74","","","","-12","","Mainly Clear"
"2013-02-15 22:00","2013","02","15","22:00","-6.8","","-10.5","","75","","28","","17","","24.1","","99.74","","","","-13","","Mainly Clear"
"2013-02-15 23:00","2013","02","15","23:00","-6.8","","-10.7","","74","","29","","17","","24.1","","99.73","","","","-13","","Mainly Clear"
"2013-02-16 00:00","2013","02","16","00:00","-7.1","","-10.5","","77","","29","","9","","24.1","","99.71","","","","-11","","Mainly Clear"
"2013-02-16 01:00","2013","02","16","01:00","-8.2","","-11.0","","80","","25","","7","","24.1","","99.68","","","","-12","","Mainly Clear"
"2013-02-16 02:00","2013","02","16","02:00","-8.4","","-11.0","","81","","22","","6","","24.1","","99.65","","","","-12","","Mainly Clear"
"2013-02-16 03:00","2013","02","16","03:00","-8.8","","-10.9","","85","","28","","4","","24.1","","99.64","","","","-11","","Mostly Cloudy"
"2013-02-16 04:00","2013","02","16","04:00","-8.0","","-10.1","","85","","26","","4","","24.1","","99.62","","","","-10","","Mostly Cloudy"
"2013-02-16 05:00","2013","02","16","05:00","-7.5","","-9.8","","84","","","","0","","19.3","","99.59","","","","","","Cloudy"
"2013-02-16 06:00","2013","02","16","06:00","-6.8","","-9.0","","84","","","","0","","16.1","","99.58","","","","","","Snow Showers"
"2013-02-16 07:00","2013","02","16","07:00","-6.6","","-8.9","","84","","14","","4","","16.1","","99.57","","","","-9","","Snow Showers"
"2013-02-16 08:00","2013","02","16","08:00","-6.0","","-9.5","","76","","18","","4","","17.7","","99.59","","","","-8","","Snow Showers"
"2013-02-16 09:00","2013","02","16","09:00","-5.8","","-8.9","","79","","26","","6","","19.3","","99.56","","","","-9","","Mostly Cloudy"
"2013-02-16 10:00","2013","02","16","10:00","-4.6","","-8.4","","75","","20","","4","","19.3","","99.55","","","","-6","","Mostly Cloudy"
"2013-02-16 11:00","2013","02","16","11:00","-4.0","","-8.2","","73","","","","0","","19.3","","99.53","","","","","","Snow Showers"
"2013-02-16 12:00","2013","02","16","12:00","-4.0","","-8.2","","73","","35","","4","","19.3","","99.49","","","","-6","","Snow Showers"
"2013-02-16 13:00","2013","02","16","13:00","-4.0","","-7.3","","78","","","","0","","4.0","","99.42","","","","","","Snow Showers"
"2013-02-16 14:00","2013","02","16","14:00","-3.8","","-7.9","","73","","","","0","","6.4","","99.35","","","","","","Snow Showers"
"2013-02-16 15:00","2013","02","16","15:00","-4.5","","-6.2","","88","","29","","6","","1.2","","99.32","","","","-7","","Snow Showers"
"2013-02-16 16:00","2013","02","16","16:00","-4.9","","-5.8","","93","","4","","11","","0.8","","99.33","","","","-9","","Moderate Snow Showers"
"2013-02-16 17:00","2013","02","16","17:00","-6.1","","-7.2","","92","","1","","20","","1.6","","99.36","","","","-13","","Snow Showers"
"2013-02-16 18:00","2013","02","16","18:00","-6.5","","-7.6","","92","","1","","17","","0.4","","99.44","","","","-13","","Heavy Snow Showers"
"2013-02-16 19:00","2013","02","16","19:00","-6.7","","-7.7","","93","","2","","17","","0.6","","99.49","","","","-13","","Moderate Snow Showers"
"2013-02-16 20:00","2013","02","16","20:00","-7.3","","-8.4","","92","","3","","15","","4.8","","99.51","","","","-13","","Snow Showers"
"2013-02-16 21:00","2013","02","16","21:00","-7.2","","-8.3","","92","","34","","17","","1.2","","99.49","","","","-14","","Snow Showers"
"2013-02-16 22:00","2013","02","16","22:00","-7.8","","-9.1","","90","","36","","19","","9.7","","99.45","","","","-15","","Snow Showers"
"2013-02-16 23:00","2013","02","16","23:00","-8.2","","-10.8","","81","","36","","17","","19.3","","99.43","","","","-15","","Mostly Cloudy"
"2013-02-17 00:00","2013","02","17","00:00","-9.7","","-12.4","","81","","35","","19","","24.1","","99.40","","","","-17","","Mainly Clear"
"2013-02-17 01:00","2013","02","17","01:00","-10.7","","-13.6","","79","","36","","17","","24.1","","99.40","","","","-18","","Mainly Clear"
"2013-02-17 02:00","2013","02","17","02:00","-11.6","","-14.8","","77","","34","","19","","24.1","","99.42","","","","-20","","Mainly Clear"
"2013-02-17 03:00","2013","02","17","03:00","-12.7","","-15.5","","80","","35","","22","","24.1","","99.45","","","","-22","","Mainly Clear"
"2013-02-17 04:00","2013","02","17","04:00","-14.0","","-16.6","","81","","36","","24","","24.1","","99.49","","","","-24","","Mainly Clear"
"2013-02-17 05:00","2013","02","17","05:00","-14.4","","-17.0","","81","","35","","20","","24.1","","99.54","","","","-23","","Mainly Clear"
"2013-02-17 06:00","2013","02","17","06:00","-15.6","","-17.9","","82","","35","","24","","24.1","","99.59","","","","-26","","Mainly Clear"
"2013-02-17 07:00","2013","02","17","07:00","-16.5","","-18.8","","82","","36","","22","","24.1","","99.60","","","","-27","","Mainly Clear"
"2013-02-17 08:00","2013","02","17","08:00","-15.9","","-20.1","","70","","33","","19","","24.1","","99.64","","","","-25","","Mainly Clear"
"2013-02-17 09:00","2013","02","17","09:00","-15.4","","-20.1","","67","","35","","24","","24.1","","99.67","","","","-26","","Mainly Clear"
"2013-02-17 10:00","2013","02","17","10:00","-14.6","","-19.0","","69","","34","","26","","24.1","","99.70","","","","-25","","Mainly Clear"
"2013-02-17 11:00","2013","02","17","11:00","-13.8","","-18.9","","65","","35","","20","","24.1","","99.75","","","","-23","","Mainly Clear"
"2013-02-17 12:00","2013","02","17","12:00","-12.7","","-17.9","","65","","33","","15","","24.1","","99.73","","","","-20","","Mainly Clear"
"2013-02-17 13:00","2013","02","17","13:00","-11.6","","-16.8","","65","","32","","19","","24.1","","99.72","","","","-20","","Mostly Cloudy"
"2013-02-17 14:00","2013","02","17","14:00","-10.8","","-16.2","","64","","34","","20","","24.1","","99.71","","","","-19","","Mostly Cloudy"
"2013-02-17 15:00","2013","02","17","15:00","-10.8","","-16.8","","61","","36","","20","","24.1","","99.70","","","","-19","","Mainly Clear"
"2013-02-17 16:00","2013","02","17","16:00","-10.7","","-16.0","","65","","36","","22","","24.1","","99.74","","","","-19","","Mainly Clear"
"2013-02-17 17:00","2013","02","17","17:00","-11.0","","-16.1","","66","","34","","19","","24.1","","99.77","","","","-19","","Mainly Clear"
"2013-02-17 18:00","2013","02","17","18:00","-11.1","","-16.6","","64","","31","","26","","24.1","","99.85","","","","-20","","Mainly Clear"
"2013-02-17 19:00","2013","02","17","19:00","-11.5","","-16.7","","65","","30","","15","","24.1","","99.96","","","","-19","","Clear"
"2013-02-17 20:00","2013","02","17","20:00","-12.2","","-18.0","","62","","31","","20","","24.1","","99.98","","","","-21","","Clear"
"2013-02-17 21:00","2013","02","17","21:00","-12.9","","-18.1","","65","","29","","15","","24.1","","100.05","","","","-20","","Mainly Clear"
"2013-02-17 22:00","2013","02","17","22:00","-12.3","","-18.0","","62","","34","","13","","24.1","","100.16","","","","-19","","Mostly Cloudy"
"2013-02-17 23:00","2013","02","17","23:00","-13.4","","-18.5","","65","","28","","7","","24.1","","100.20","","","","-18","","Clear"
"2013-02-18 00:00","2013","02","18","00:00","-14.8","","-18.5","","73","","27","","4","","24.1","","100.19","","","","-18","","Clear"
"2013-02-18 01:00","2013","02","18","01:00","-16.3","","-20.1","","72","","28","","15","","24.1","","100.22","","","","-25","","Clear"
"2013-02-18 02:00","2013","02","18","02:00","-15.7","","-19.0","","76","","30","","11","","24.1","","100.25","","","","-22","","Clear"
"2013-02-18 03:00","2013","02","18","03:00","-15.8","","-19.0","","76","","28","","13","","24.1","","100.24","","","","-23","","Clear"
"2013-02-18 04:00","2013","02","18","04:00","-14.8","","-17.6","","79","","28","","4","","24.1","","100.26","","","","-18","","Clear"
"2013-02-18 05:00","2013","02","18","05:00","-14.5","","-16.9","","82","","27","","4","","24.1","","100.29","","","","-17","","Mainly Clear"
"2013-02-18 06:00","2013","02","18","06:00","-15.3","","-17.4","","84","","","","0","","24.1","","100.30","","","","","","Mostly Cloudy"
"2013-02-18 07:00","2013","02","18","07:00","-14.2","","-16.3","","84","","","","0","","24.1","","100.30","","","","","","Mostly Cloudy"
"2013-02-18 08:00","2013","02","18","08:00","-13.4","","-15.7","","83","","29","","6","","24.1","","100.30","","","","-17","","Mainly Clear"
"2013-02-18 09:00","2013","02","18","09:00","-11.5","","-14.3","","80","","","","0","","24.1","","100.29","","","","","","Mainly Clear"
"2013-02-18 10:00","2013","02","18","10:00","-7.3","","-13.1","","63","","19","","6","","24.1","","100.20","","","","-10","","Mainly Clear"
"2013-02-18 11:00","2013","02","18","11:00","-5.4","","-13.4","","53","","19","","17","","24.1","","100.13","","","","-11","","Mainly Clear"
"2013-02-18 12:00","2013","02","18","12:00","-4.2","","-11.0","","59","","19","","15","","24.1","","100.06","","","","-10","","Mainly Clear"
"2013-02-18 13:00","2013","02","18","13:00","-3.9","","-9.4","","66","","18","","20","","24.1","","99.95","","","","-10","","Mostly Cloudy"
"2013-02-18 14:00","2013","02","18","14:00","-3.2","","-8.8","","65","","17","","17","","24.1","","99.88","","","","-9","","Mostly Cloudy"
"2013-02-18 15:00","2013","02","18","15:00","-3.3","","-9.4","","63","","13","","17","","24.1","","99.77","","","","-9","","Mostly Cloudy"
"2013-02-18 16:00","2013","02","18","16:00","-2.9","","-8.9","","63","","14","","19","","24.1","","99.70","","","","-9","","Mostly Cloudy"
"2013-02-18 17:00","2013","02","18","17:00","-2.9","","-8.6","","65","","13","","13","","24.1","","99.60","","","","-8","","Cloudy"
"2013-02-18 18:00","2013","02","18","18:00","-2.9","","-8.0","","68","","11","","15","","24.1","","99.53","","","","-8","","Mostly Cloudy"
"2013-02-18 19:00","2013","02","18","19:00","-2.4","","-7.7","","67","","12","","17","","24.1","","99.41","","","","-8","","Mostly Cloudy"
"2013-02-18 20:00","2013","02","18","20:00","-1.9","","-6.4","","71","","11","","17","","24.1","","99.29","","","","-7","","Mostly Cloudy"
"2013-02-18 21:00","2013","02","18","21:00","-1.4","","-6.1","","70","","10","","15","","24.1","","99.24","","","","-6","","Mostly Cloudy"
"2013-02-18 22:00","2013","02","18","22:00","-0.5","","-5.2","","70","","11","","13","","24.1","","99.17","","","","-5","","Cloudy"
"2013-02-18 23:00","2013","02","18","23:00","0.0","","-4.8","","70","","10","","11","","24.1","","99.03","","","","-4","","Cloudy"
"2013-02-19 00:00","2013","02","19","00:00","0.4","","-4.4","","70","","11","","9","","24.1","","98.94","","","","","","Cloudy"
"2013-02-19 01:00","2013","02","19","01:00","0.6","","-3.6","","73","","10","","13","","24.1","","98.83","","","","","","Cloudy"
"2013-02-19 02:00","2013","02","19","02:00","1.0","","-2.9","","75","","10","","9","","24.1","","98.75","","","","","","Cloudy"
"2013-02-19 03:00","2013","02","19","03:00","1.3","","-2.7","","75","","9","","11","","24.1","","98.60","","","","","","Cloudy"
"2013-02-19 04:00","2013","02","19","04:00","2.0","","-1.9","","75","","12","","13","","24.1","","98.48","","","","","","Cloudy"
"2013-02-19 05:00","2013","02","19","05:00","2.3","","-1.4","","77","","13","","13","","24.1","","98.38","","","","","","Cloudy"
"2013-02-19 06:00","2013","02","19","06:00","2.0","","0.8","","92","","12","","11","","11.3","","98.22","","","","","","Rain"
"2013-02-19 07:00","2013","02","19","07:00","2.3","","1.9","","97","","13","","15","","9.7","","98.08","","","","","","Rain,Fog"
"2013-02-19 08:00","2013","02","19","08:00","3.3","","2.9","","97","","17","","32","","12.9","","98.02","","","","","","Rain"
"2013-02-19 09:00","2013","02","19","09:00","3.4","","2.7","","95","","19","","22","","16.1","","97.93","","","","","","Rain"
"2013-02-19 10:00","2013","02","19","10:00","3.7","","2.6","","93","","19","","19","","16.1","","97.86","","","","","","Rain"
"2013-02-19 11:00","2013","02","19","11:00","3.9","","2.3","","89","","22","","26","","24.1","","97.84","","","","","","Cloudy"
"2013-02-19 12:00","2013","02","19","12:00","3.2","","0.5","","82","","25","","32","","24.1","","97.87","","","","","","Cloudy"
"2013-02-19 13:00","2013","02","19","13:00","2.9","","0.5","","84","","23","","33","","24.1","","97.87","","","","","","Rain Showers"
"2013-02-19 14:00","2013","02","19","14:00","1.5","","-0.5","","87","","23","","37","","24.1","","97.92","","","","","","Cloudy"
"2013-02-19 15:00","2013","02","19","15:00","0.1","","-1.9","","86","","22","","33","","16.1","","98.00","","","","","","Cloudy"
"2013-02-19 16:00","2013","02","19","16:00","-0.5","","-4.2","","76","","22","","35","","24.1","","98.09","","","","-8","","Cloudy"
"2013-02-19 17:00","2013","02","19","17:00","-1.6","","-4.5","","81","","22","","24","","4.8","","98.22","","","","-8","","Snow Showers"
"2013-02-19 18:00","2013","02","19","18:00","-2.1","","-6.1","","74","","24","","30","","24.1","","98.30","","","","-9","","Cloudy"
"2013-02-19 19:00","2013","02","19","19:00","-2.8","","-7.1","","72","","24","","39","","24.1","","98.40","","","","-11","","Cloudy"
"2013-02-19 20:00","2013","02","19","20:00","-3.8","","-7.2","","77","","24","","37","","24.1","","98.45","","","","-12","","Snow Showers"
"2013-02-19 21:00","2013","02","19","21:00","-4.2","","-8.1","","74","","24","","35","","24.1","","98.47","","","","-13","","Snow Showers"
"2013-02-19 22:00","2013","02","19","22:00","-4.3","","-8.3","","74","","24","","35","","19.3","","98.51","","","","-13","","Snow Showers"
"2013-02-19 23:00","2013","02","19","23:00","-4.6","","-7.7","","79","","25","","33","","16.1","","98.53","","","","-13","","Snow Showers"
"2013-02-20 00:00","2013","02","20","00:00","-5.3","","-6.8","","89","","25","","17","","4.8","","98.56","","","","-11","","Snow Showers"
"2013-02-20 01:00","2013","02","20","01:00","-5.5","","-9.9","","71","","27","","41","","24.1","","98.62","","","","-15","","Cloudy"
"2013-02-20 02:00","2013","02","20","02:00","-5.9","","-10.6","","69","","26","","35","","24.1","","98.66","","","","-15","","Cloudy"
"2013-02-20 03:00","2013","02","20","03:00","-6.2","","-10.6","","71","","26","","37","","24.1","","98.71","","","","-15","","Cloudy"
"2013-02-20 04:00","2013","02","20","04:00","-6.4","","-11.0","","70","","26","","32","","24.1","","98.75","","","","-15","","Cloudy"
"2013-02-20 05:00","2013","02","20","05:00","-6.9","","-11.0","","73","","26","","30","","19.3","","98.81","","","","-15","","Cloudy"
"2013-02-20 06:00","2013","02","20","06:00","-7.4","","-10.8","","77","","27","","32","","11.3","","98.85","","","","-16","","Snow Showers"
"2013-02-20 07:00","2013","02","20","07:00","-7.8","","-10.6","","80","","27","","26","","9.7","","98.92","","","","-16","","Snow Showers"
"2013-02-20 08:00","2013","02","20","08:00","-7.6","","-12.8","","66","","27","","33","","24.1","","98.98","","","","-17","","Mostly Cloudy"
"2013-02-20 09:00","2013","02","20","09:00","-7.2","","-12.2","","67","","27","","39","","24.1","","99.02","","","","-17","","Mostly Cloudy"
"2013-02-20 10:00","2013","02","20","10:00","-7.0","","-11.4","","71","","27","","35","","16.1","","99.04","","","","-16","","Snow Showers"
"2013-02-20 11:00","2013","02","20","11:00","-6.0","","-10.8","","69","","27","","37","","19.3","","99.10","","","","-15","","Mostly Cloudy"
"2013-02-20 12:00","2013","02","20","12:00","-5.8","","-11.2","","66","","29","","28","","19.3","","99.16","","","","-14","","Snow Showers"
"2013-02-20 13:00","2013","02","20","13:00","-5.6","","-11.4","","64","","31","","37","","24.1","","99.22","","","","-15","","Cloudy"
"2013-02-20 14:00","2013","02","20","14:00","-5.7","","-11.7","","63","","31","","39","","24.1","","99.28","","","","-15","","Cloudy"
"2013-02-20 15:00","2013","02","20","15:00","-5.5","","-11.1","","65","","30","","32","","19.3","","99.37","","","","-14","","Snow Showers"
"2013-02-20 16:00","2013","02","20","16:00","-5.8","","-11.3","","65","","30","","32","","19.3","","99.47","","","","-14","","Snow Showers"
"2013-02-20 17:00","2013","02","20","17:00","-6.1","","-11.0","","68","","29","","35","","19.3","","99.52","","","","-15","","Snow Showers"
"2013-02-20 18:00","2013","02","20","18:00","-6.2","","-11.4","","67","","29","","37","","19.3","","99.63","","","","-15","","Snow Showers"
"2013-02-20 19:00","2013","02","20","19:00","-6.9","","-11.5","","70","","27","","35","","19.3","","99.68","","","","-16","","Snow Showers"
"2013-02-20 20:00","2013","02","20","20:00","-7.2","","-11.5","","71","","27","","32","","24.1","","99.72","","","","-16","","Snow Showers"
"2013-02-20 21:00","2013","02","20","21:00","-7.3","","-11.7","","71","","29","","24","","24.1","","99.71","","","","-15","","Mostly Cloudy"
"2013-02-20 22:00","2013","02","20","22:00","-6.8","","-11.3","","70","","29","","32","","24.1","","99.74","","","","-16","","Cloudy"
"2013-02-20 23:00","2013","02","20","23:00","-6.7","","-10.9","","72","","30","","30","","24.1","","99.71","","","","-15","","Cloudy"
"2013-02-21 00:00","2013","02","21","00:00","-7.3","","-11.7","","71","","33","","24","","24.1","","99.73","","","","-15","","Snow Showers"
"2013-02-21 01:00","2013","02","21","01:00","-8.0","","-12.5","","70","","31","","33","","24.1","","99.77","","","","-17","","Snow Showers"
"2013-02-21 02:00","2013","02","21","02:00","-8.1","","-12.7","","69","","31","","26","","24.1","","99.82","","","","-16","","Cloudy"
"2013-02-21 03:00","2013","02","21","03:00","-9.0","","-13.5","","70","","32","","32","","24.1","","99.84","","","","-18","","Cloudy"
"2013-02-21 04:00","2013","02","21","04:00","-9.8","","-14.4","","69","","32","","32","","24.1","","99.89","","","","-20","","Mostly Cloudy"
"2013-02-21 05:00","2013","02","21","05:00","-12.7","","-15.7","","78","","1","","20","","24.1","","100.06","","","","-21","","Mostly Cloudy"
"2013-02-21 06:00","2013","02","21","06:00","-13.4","","-16.6","","77","","35","","20","","24.1","","100.14","","","","-22","","Mainly Clear"
"2013-02-21 07:00","2013","02","21","07:00","-13.3","","-16.3","","78","","34","","20","","24.1","","100.17","","","","-22","","Mainly Clear"
"2013-02-21 08:00","2013","02","21","08:00","-13.1","","-16.1","","78","","35","","19","","24.1","","100.30","","","","-22","","Mainly Clear"
"2013-02-21 09:00","2013","02","21","09:00","-12.4","","-15.6","","77","","33","","20","","24.1","","100.37","","","","-21","","Mainly Clear"
"2013-02-21 10:00","2013","02","21","10:00","-11.0","","-14.6","","75","","32","","26","","24.1","","100.46","","","","-20","","Mainly Clear"
"2013-02-21 11:00","2013","02","21","11:00","-9.3","","-14.0","","69","","35","","22","","24.1","","100.43","","","","-17","","Mainly Clear"
"2013-02-21 12:00","2013","02","21","12:00","-7.9","","-12.8","","68","","34","","32","","24.1","","100.39","","","","-17","","Mainly Clear"
"2013-02-21 13:00","2013","02","21","13:00","-6.7","","-11.9","","66","","35","","20","","24.1","","100.41","","","","-14","","Mainly Clear"
"2013-02-21 14:00","2013","02","21","14:00","-5.4","","-10.5","","67","","35","","17","","24.1","","100.39","","","","-11","","Mainly Clear"
"2013-02-21 15:00","2013","02","21","15:00","-5.1","","-10.0","","68","","34","","26","","24.1","","100.45","","","","-13","","Mainly Clear"
"2013-02-21 16:00","2013","02","21","16:00","-4.4","","-9.9","","65","","35","","13","","24.1","","100.50","","","","-9","","Mainly Clear"
"2013-02-21 17:00","2013","02","21","17:00","-4.9","","-9.8","","68","","1","","19","","24.1","","100.51","","","","-11","","Mainly Clear"
"2013-02-21 18:00","2013","02","21","18:00","-6.0","","-9.7","","75","","35","","15","","24.1","","100.64","","","","-12","","Mainly Clear"
"2013-02-21 19:00","2013","02","21","19:00","-6.4","","-9.3","","80","","36","","17","","24.1","","100.77","","","","-13","","Mostly Cloudy"
"2013-02-21 20:00","2013","02","21","20:00","-6.7","","-9.1","","83","","1","","22","","24.1","","100.83","","","","-14","","Mostly Cloudy"
"2013-02-21 21:00","2013","02","21","21:00","-7.5","","-10.2","","81","","2","","22","","24.1","","100.78","","","","-15","","Mainly Clear"
"2013-02-21 22:00","2013","02","21","22:00","-8.2","","-11.3","","78","","1","","15","","24.1","","100.84","","","","-15","","Mainly Clear"
"2013-02-21 23:00","2013","02","21","23:00","-8.6","","-11.6","","79","","1","","13","","24.1","","100.77","","","","-15","","Mainly Clear"
"2013-02-22 00:00","2013","02","22","00:00","-8.9","","-11.9","","79","","1","","13","","24.1","","100.73","","","","-15","","Clear"
"2013-02-22 01:00","2013","02","22","01:00","-9.2","","-12.0","","80","","1","","4","","24.1","","100.75","","","","-11","","Clear"
"2013-02-22 02:00","2013","02","22","02:00","-9.5","","-11.9","","83","","","","0","","24.1","","100.75","","","","","","Mainly Clear"
"2013-02-22 03:00","2013","02","22","03:00","-8.9","","-11.4","","82","","2","","6","","24.1","","100.71","","","","-12","","Cloudy"
"2013-02-22 04:00","2013","02","22","04:00","-8.0","","-10.6","","82","","4","","11","","24.1","","100.65","","","","-13","","Cloudy"
"2013-02-22 05:00","2013","02","22","05:00","-7.3","","-10.1","","80","","3","","9","","24.1","","100.60","","","","-12","","Cloudy"
"2013-02-22 06:00","2013","02","22","06:00","-6.2","","-8.8","","82","","7","","7","","24.1","","100.57","","","","-10","","Cloudy"
"2013-02-22 07:00","2013","02","22","07:00","-3.4","","-5.8","","83","","12","","20","","24.1","","100.45","","","","-10","","Cloudy"
"2013-02-22 08:00","2013","02","22","08:00","-2.9","","-5.3","","83","","12","","24","","24.1","","100.43","","","","-10","","Cloudy"
"2013-02-22 09:00","2013","02","22","09:00","-2.6","","-5.1","","83","","11","","22","","24.1","","100.37","","","","-9","","Cloudy"
"2013-02-22 10:00","2013","02","22","10:00","-2.1","","-4.7","","82","","10","","22","","24.1","","100.17","","","","-8","","Cloudy"
"2013-02-22 11:00","2013","02","22","11:00","-1.4","","-4.5","","79","","10","","26","","24.1","","100.11","","","","-8","","Cloudy"
"2013-02-22 12:00","2013","02","22","12:00","-0.7","","-3.7","","80","","10","","30","","24.1","","99.97","","","","-7","","Cloudy"
"2013-02-22 13:00","2013","02","22","13:00","-0.6","","-3.6","","80","","10","","33","","24.1","","99.87","","","","-8","","Cloudy"
"2013-02-22 14:00","2013","02","22","14:00","-1.2","","-3.5","","84","","9","","26","","9.7","","99.81","","","","-8","","Snow"
"2013-02-22 15:00","2013","02","22","15:00","-0.8","","-2.7","","87","","11","","26","","4.0","","99.64","","","","-7","","Snow"
"2013-02-22 16:00","2013","02","22","16:00","-1.2","","-2.8","","89","","10","","22","","3.2","","99.57","","","","-7","","Snow"
"2013-02-22 17:00","2013","02","22","17:00","-1.2","","-2.2","","93","","11","","19","","2.0","","99.58","","","","-7","","Snow"
"2013-02-22 18:00","2013","02","22","18:00","-0.7","","-1.5","","94","","10","","24","","3.2","","99.53","","","","-7","","Snow"
"2013-02-22 19:00","2013","02","22","19:00","-0.5","","-0.9","","97","","10","","17","","2.4","","99.52","","","","-5","","Freezing Rain,Snow"
"2013-02-22 20:00","2013","02","22","20:00","-0.1","","-0.5","","97","","12","","19","","6.4","","99.47","","","","-5","","Snow"
"2013-02-22 21:00","2013","02","22","21:00","-0.1","","-0.4","","98","","12","","17","","6.4","","99.44","","","","-5","","Freezing Drizzle,Snow"
"2013-02-22 22:00","2013","02","22","22:00","0.4","","0.2","","99","","12","","11","","4.8","","99.39","","","","","","Drizzle,Snow"
"2013-02-22 23:00","2013","02","22","23:00","0.6","","0.4","","99","","13","","11","","6.4","","99.32","","","","","","Drizzle,Fog"
"2013-02-23 00:00","2013","02","23","00:00","0.9","","0.7","","99","","15","","11","","3.2","","99.30","","","","","","Drizzle,Fog"
"2013-02-23 01:00","2013","02","23","01:00","1.1","","1.0","","99","","18","","11","","6.4","","99.25","","","","","","Drizzle,Fog"
"2013-02-23 02:00","2013","02","23","02:00","1.3","","1.0","","98","","18","","11","","11.3","","99.24","","","","","","Cloudy"
"2013-02-23 03:00","2013","02","23","03:00","1.6","","1.1","","96","","18","","9","","19.3","","99.20","","","","","","Cloudy"
"2013-02-23 04:00","2013","02","23","04:00","1.6","","1.1","","96","","17","","11","","24.1","","99.15","","","","","","Cloudy"
"2013-02-23 05:00","2013","02","23","05:00","1.5","","0.7","","94","","19","","9","","24.1","","99.16","","","","","","Cloudy"
"2013-02-23 06:00","2013","02","23","06:00","1.4","","0.4","","93","","19","","15","","24.1","","99.16","","","","","","Cloudy"
"2013-02-23 07:00","2013","02","23","07:00","1.4","","-0.5","","87","","21","","13","","24.1","","99.20","","","","","","Cloudy"
"2013-02-23 08:00","2013","02","23","08:00","1.3","","-0.5","","88","","18","","6","","16.1","","99.18","","","","","","Cloudy"
"2013-02-23 09:00","2013","02","23","09:00","1.4","","0.0","","90","","17","","6","","12.9","","99.19","","","","","","Drizzle"
"2013-02-23 10:00","2013","02","23","10:00","1.6","","0.3","","91","","18","","9","","12.9","","99.12","","","","","","Drizzle"
"2013-02-23 11:00","2013","02","23","11:00","2.0","","0.1","","87","","19","","9","","12.9","","99.08","","","","","","Drizzle"
"2013-02-23 12:00","2013","02","23","12:00","2.0","","0.0","","87","","22","","15","","16.1","","99.06","","","","","","Cloudy"
"2013-02-23 13:00","2013","02","23","13:00","1.4","","-1.8","","79","","25","","20","","19.3","","99.01","","","","","","Snow Grains"
"2013-02-23 14:00","2013","02","23","14:00","1.7","","-3.7","","67","","23","","24","","24.1","","98.98","","","","","","Cloudy"
"2013-02-23 15:00","2013","02","23","15:00","0.8","","-3.4","","73","","28","","20","","24.1","","99.01","","","","","","Cloudy"
"2013-02-23 16:00","2013","02","23","16:00","0.9","","-5.1","","64","","26","","20","","24.1","","99.01","","","","","","Mostly Cloudy"
"2013-02-23 17:00","2013","02","23","17:00","0.6","","-4.5","","69","","27","","11","","24.1","","99.04","","","","","","Mostly Cloudy"
"2013-02-23 18:00","2013","02","23","18:00","0.4","","-4.5","","70","","25","","13","","24.1","","99.05","","","","","","Cloudy"
"2013-02-23 19:00","2013","02","23","19:00","-0.3","","-4.1","","75","","27","","9","","24.1","","99.11","","","","-3","","Mostly Cloudy"
"2013-02-23 20:00","2013","02","23","20:00","-0.6","","-3.7","","80","","25","","11","","24.1","","99.12","","","","-4","","Mostly Cloudy"
"2013-02-23 21:00","2013","02","23","21:00","-0.6","","-3.8","","79","","25","","15","","24.1","","99.13","","","","-5","","Mostly Cloudy"
"2013-02-23 22:00","2013","02","23","22:00","-2.2","","-4.7","","83","","26","","9","","24.1","","99.06","","","","-6","","Mostly Cloudy"
"2013-02-23 23:00","2013","02","23","23:00","-2.5","","-4.6","","85","","25","","6","","24.1","","99.04","","","","-5","","Mostly Cloudy"
"2013-02-24 00:00","2013","02","24","00:00","-1.2","","-4.0","","81","","23","","4","","19.3","","99.00","","","","-3","","Cloudy"
"2013-02-24 01:00","2013","02","24","01:00","-1.4","","-4.2","","81","","24","","7","","19.3","","98.98","","","","-4","","Cloudy"
"2013-02-24 02:00","2013","02","24","02:00","-1.5","","-4.4","","81","","23","","6","","16.1","","98.97","","","","-4","","Cloudy"
"2013-02-24 03:00","2013","02","24","03:00","-1.6","","-4.2","","82","","26","","9","","16.1","","98.96","","","","-5","","Snow"
"2013-02-24 04:00","2013","02","24","04:00","-1.9","","-3.7","","87","","26","","7","","12.9","","98.97","","","","-5","","Snow"
"2013-02-24 05:00","2013","02","24","05:00","-2.0","","-3.7","","88","","26","","9","","6.4","","98.99","","","","-5","","Snow"
"2013-02-24 06:00","2013","02","24","06:00","-2.2","","-3.2","","93","","27","","9","","1.6","","99.02","","","","-6","","Snow"
"2013-02-24 07:00","2013","02","24","07:00","-2.4","","-3.4","","93","","28","","13","","1.6","","99.05","","","","-7","","Snow"
"2013-02-24 08:00","2013","02","24","08:00","-2.5","","-3.8","","91","","27","","11","","4.8","","99.08","","","","-7","","Snow"
"2013-02-24 09:00","2013","02","24","09:00","-2.3","","-4.5","","85","","26","","13","","12.9","","99.09","","","","-7","","Cloudy"
"2013-02-24 10:00","2013","02","24","10:00","-1.8","","-4.7","","81","","26","","17","","14.5","","99.12","","","","-7","","Cloudy"
"2013-02-24 11:00","2013","02","24","11:00","-1.2","","-4.8","","76","","28","","22","","14.5","","99.14","","","","-7","","Cloudy"
"2013-02-24 12:00","2013","02","24","12:00","-0.8","","-3.6","","81","","26","","19","","3.2","","99.16","","","","-6","","Snow"
"2013-02-24 13:00","2013","02","24","13:00","0.4","","-3.5","","75","","28","","26","","16.1","","99.18","","","","","","Snow"
"2013-02-24 14:00","2013","02","24","14:00","0.9","","-3.9","","70","","29","","28","","24.1","","99.18","","","","","","Mostly Cloudy"
"2013-02-24 15:00","2013","02","24","15:00","1.0","","-3.6","","71","","29","","32","","24.1","","99.24","","","","","","Cloudy"
"2013-02-24 16:00","2013","02","24","16:00","1.1","","-3.7","","70","","31","","28","","24.1","","99.34","","","","","","Cloudy"
"2013-02-24 17:00","2013","02","24","17:00","1.1","","-3.8","","70","","30","","24","","24.1","","99.42","","","","","","Mostly Cloudy"
"2013-02-24 18:00","2013","02","24","18:00","0.7","","-3.9","","71","","29","","22","","24.1","","99.51","","","","","","Cloudy"
"2013-02-24 19:00","2013","02","24","19:00","0.2","","-3.9","","74","","28","","24","","24.1","","99.60","","","","","","Cloudy"
"2013-02-24 20:00","2013","02","24","20:00","-0.1","","-4.1","","74","","29","","22","","24.1","","99.67","","","","-6","","Cloudy"
"2013-02-24 21:00","2013","02","24","21:00","0.0","","-4.2","","73","","28","","19","","24.1","","99.71","","","","-5","","Cloudy"
"2013-02-24 22:00","2013","02","24","22:00","-0.3","","-3.9","","77","","27","","15","","24.1","","99.74","","","","-5","","Cloudy"
"2013-02-24 23:00","2013","02","24","23:00","-0.2","","-3.6","","78","","27","","15","","24.1","","99.75","","","","-5","","Cloudy"
"2013-02-25 00:00","2013","02","25","00:00","-0.3","","-3.7","","78","","28","","15","","24.1","","99.80","","","","-5","","Cloudy"
"2013-02-25 01:00","2013","02","25","01:00","0.0","","-4.1","","74","","29","","13","","24.1","","99.84","","","","-4","","Cloudy"
"2013-02-25 02:00","2013","02","25","02:00","-0.3","","-3.9","","77","","29","","15","","24.1","","99.87","","","","-5","","Cloudy"
"2013-02-25 03:00","2013","02","25","03:00","-0.6","","-3.4","","81","","28","","15","","24.1","","99.89","","","","-5","","Mostly Cloudy"
"2013-02-25 04:00","2013","02","25","04:00","-0.7","","-3.3","","83","","27","","13","","24.1","","99.92","","","","-5","","Mostly Cloudy"
"2013-02-25 05:00","2013","02","25","05:00","-0.7","","-3.4","","82","","28","","9","","24.1","","99.96","","","","-4","","Cloudy"
"2013-02-25 06:00","2013","02","25","06:00","-0.6","","-3.3","","82","","28","","9","","24.1","","99.98","","","","-4","","Cloudy"
"2013-02-25 07:00","2013","02","25","07:00","-0.5","","-3.4","","81","","29","","9","","24.1","","100.01","","","","-4","","Cloudy"
"2013-02-25 08:00","2013","02","25","08:00","-0.2","","-3.4","","79","","31","","7","","19.3","","100.06","","","","-3","","Cloudy"
"2013-02-25 09:00","2013","02","25","09:00","0.1","","-3.0","","80","","28","","7","","19.3","","100.14","","","","","","Cloudy"
"2013-02-25 10:00","2013","02","25","10:00","0.2","","-3.0","","79","","28","","11","","16.1","","100.16","","","","","","Snow Grains"
"2013-02-25 11:00","2013","02","25","11:00","0.6","","-3.0","","77","","27","","6","","19.3","","100.17","","","","","","Cloudy"
"2013-02-25 12:00","2013","02","25","12:00","1.3","","-3.4","","71","","26","","7","","19.3","","100.19","","","","","","Cloudy"
"2013-02-25 13:00","2013","02","25","13:00","1.6","","-3.8","","67","","28","","9","","24.1","","100.19","","","","","","Cloudy"
"2013-02-25 14:00","2013","02","25","14:00","1.5","","-3.4","","70","","23","","7","","24.1","","100.18","","","","","","Cloudy"
"2013-02-25 15:00","2013","02","25","15:00","1.6","","-3.3","","70","","24","","9","","24.1","","100.12","","","","","","Cloudy"
"2013-02-25 16:00","2013","02","25","16:00","1.7","","-3.9","","66","","29","","11","","24.1","","100.14","","","","","","Cloudy"
"2013-02-25 17:00","2013","02","25","17:00","1.8","","-4.5","","63","","31","","7","","24.1","","100.12","","","","","","Cloudy"
"2013-02-25 18:00","2013","02","25","18:00","1.6","","-4.3","","65","","31","","6","","24.1","","100.15","","","","","","Cloudy"
"2013-02-25 19:00","2013","02","25","19:00","1.6","","-4.6","","63","","12","","4","","24.1","","100.17","","","","","","Mostly Cloudy"
"2013-02-25 20:00","2013","02","25","20:00","1.4","","-3.4","","70","","14","","4","","24.1","","100.18","","","","","","Mostly Cloudy"
"2013-02-25 21:00","2013","02","25","21:00","1.5","","-3.5","","69","","16","","4","","24.1","","100.20","","","","","","Cloudy"
"2013-02-25 22:00","2013","02","25","22:00","1.3","","-3.4","","71","","19","","4","","24.1","","100.23","","","","","","Cloudy"
"2013-02-25 23:00","2013","02","25","23:00","1.3","","-3.3","","71","","10","","4","","24.1","","100.16","","","","","","Cloudy"
"2013-02-26 00:00","2013","02","26","00:00","1.2","","-3.1","","73","","9","","6","","24.1","","100.09","","","","","","Cloudy"
"2013-02-26 01:00","2013","02","26","01:00","1.1","","-2.5","","77","","13","","4","","24.1","","100.17","","","","","","Cloudy"
"2013-02-26 02:00","2013","02","26","02:00","0.9","","-2.3","","79","","12","","6","","24.1","","100.16","","","","","","Cloudy"
"2013-02-26 03:00","2013","02","26","03:00","0.7","","-2.3","","80","","9","","7","","24.1","","100.09","","","","","","Mostly Cloudy"
"2013-02-26 04:00","2013","02","26","04:00","-0.2","","-3.8","","77","","9","","6","","24.1","","100.15","","","","-2","","Mainly Clear"
"2013-02-26 05:00","2013","02","26","05:00","-1.1","","-4.5","","78","","6","","7","","24.1","","100.10","","","","-4","","Mainly Clear"
"2013-02-26 06:00","2013","02","26","06:00","-0.6","","-3.2","","83","","7","","11","","24.1","","100.06","","","","-4","","Clear"
"2013-02-26 07:00","2013","02","26","07:00","-0.6","","-3.7","","80","","6","","9","","24.1","","100.00","","","","-4","","Mainly Clear"
"2013-02-26 08:00","2013","02","26","08:00","0.1","","-2.8","","81","","7","","13","","24.1","","99.95","","","","","","Mostly Cloudy"
"2013-02-26 09:00","2013","02","26","09:00","1.6","","-2.0","","77","","9","","17","","24.1","","100.00","","","","","","Mostly Cloudy"
"2013-02-26 10:00","2013","02","26","10:00","2.7","","-1.9","","72","","9","","22","","24.1","","100.00","","","","","","Mostly Cloudy"
"2013-02-26 11:00","2013","02","26","11:00","2.9","","-2.7","","67","","9","","28","","24.1","","99.84","","","","","","Mostly Cloudy"
"2013-02-26 12:00","2013","02","26","12:00","3.3","","-2.4","","66","","9","","26","","24.1","","99.74","","","","","","Mostly Cloudy"
"2013-02-26 13:00","2013","02","26","13:00","3.1","","-1.9","","70","","9","","22","","24.1","","99.59","","","","","","Mostly Cloudy"
"2013-02-26 14:00","2013","02","26","14:00","2.7","","-2.3","","70","","9","","28","","24.1","","99.47","","","","","","Mostly Cloudy"
"2013-02-26 15:00","2013","02","26","15:00","2.8","","-2.5","","68","","9","","30","","24.1","","99.39","","","","","","Mostly Cloudy"
"2013-02-26 16:00","2013","02","26","16:00","2.9","","-2.5","","68","","9","","30","","24.1","","99.33","","","","","","Mostly Cloudy"
"2013-02-26 17:00","2013","02","26","17:00","2.9","","-2.7","","67","","9","","32","","24.1","","99.20","","","","","","Cloudy"
"2013-02-26 18:00","2013","02","26","18:00","3.1","","-2.3","","68","","9","","37","","24.1","","99.23","","","","","","Cloudy"
"2013-02-26 19:00","2013","02","26","19:00","3.4","","-2.0","","68","","9","","28","","19.3","","99.20","","","","","","Cloudy"
"2013-02-26 20:00","2013","02","26","20:00","2.5","","-0.7","","79","","9","","30","","16.1","","99.12","","","","","","Rain Showers,Snow Showers"
"2013-02-26 21:00","2013","02","26","21:00","1.8","","0.2","","89","","10","","22","","12.9","","99.09","","","","","","Rain Showers,Snow Showers"
"2013-02-26 22:00","2013","02","26","22:00","0.7","","-0.1","","94","","9","","28","","0.8","","99.01","","","","","","Moderate Snow"
"2013-02-26 23:00","2013","02","26","23:00","0.5","","0.0","","96","","10","","32","","1.6","","98.87","","","","","","Snow"
"2013-02-27 00:00","2013","02","27","00:00","0.7","","0.3","","97","","8","","37","","6.4","","98.65","","","","","","Rain,Snow"
"2013-02-27 01:00","2013","02","27","01:00","0.9","","0.5","","97","","9","","33","","12.9","","98.63","","","","","","Rain,Snow"
"2013-02-27 02:00","2013","02","27","02:00","0.5","","0.2","","98","","10","","20","","1.2","","98.66","","","","","","Snow"
"2013-02-27 03:00","2013","02","27","03:00","0.6","","0.2","","97","","9","","33","","4.8","","98.55","","","","","","Snow"
"2013-02-27 04:00","2013","02","27","04:00","0.7","","0.4","","98","","10","","26","","6.4","","98.40","","","","","","Snow"
"2013-02-27 05:00","2013","02","27","05:00","0.9","","0.5","","97","","10","","24","","9.7","","98.36","","","","","","Snow"
"2013-02-27 06:00","2013","02","27","06:00","1.0","","0.7","","98","","9","","24","","9.7","","98.32","","","","","","Snow"
"2013-02-27 07:00","2013","02","27","07:00","0.9","","0.5","","97","","9","","26","","4.8","","98.30","","","","","","Snow"
"2013-02-27 08:00","2013","02","27","08:00","0.9","","0.5","","97","","11","","30","","4.8","","98.31","","","","","","Snow"
"2013-02-27 09:00","2013","02","27","09:00","0.7","","0.4","","98","","9","","28","","4.8","","98.29","","","","","","Snow"
"2013-02-27 10:00","2013","02","27","10:00","0.9","","0.6","","98","","9","","19","","2.4","","98.27","","","","","","Snow"
"2013-02-27 11:00","2013","02","27","11:00","0.9","","0.7","","99","","10","","22","","6.4","","98.24","","","","","","Snow"
"2013-02-27 12:00","2013","02","27","12:00","1.3","","1.0","","98","","9","","15","","8.0","","98.23","","","","","","Snow"
"2013-02-27 13:00","2013","02","27","13:00","1.4","","1.1","","98","","9","","15","","8.0","","98.19","","","","","","Snow"
"2013-02-27 14:00","2013","02","27","14:00","1.4","","1.2","","99","","9","","11","","8.0","","98.14","","","","","","Snow"
"2013-02-27 15:00","2013","02","27","15:00","1.5","","1.3","","99","","9","","13","","8.0","","98.14","","","","","","Snow"
"2013-02-27 16:00","2013","02","27","16:00","1.2","","1.0","","99","","9","","11","","4.8","","98.15","","","","","","Snow"
"2013-02-27 17:00","2013","02","27","17:00","0.7","","0.7","","100","","7","","4","","2.4","","98.17","","","","","","Snow"
"2013-02-27 18:00","2013","02","27","18:00","0.4","","0.4","","100","","4","","4","","1.6","","98.21","","","","","","Snow,Fog"
"2013-02-27 19:00","2013","02","27","19:00","0.6","","0.4","","99","","10","","4","","3.2","","98.22","","","","","","Snow,Fog"
"2013-02-27 20:00","2013","02","27","20:00","0.5","","0.4","","99","","11","","6","","4.0","","98.17","","","","","","Snow,Fog"
"2013-02-27 21:00","2013","02","27","21:00","0.4","","0.4","","100","","9","","6","","4.8","","98.13","","","","","","Snow"
"2013-02-27 22:00","2013","02","27","22:00","0.3","","0.3","","100","","9","","4","","2.4","","98.11","","","","","","Snow"
"2013-02-27 23:00","2013","02","27","23:00","0.3","","0.3","","100","","8","","4","","2.0","","98.08","","","","","","Snow"
"2013-02-28 00:00","2013","02","28","00:00","0.2","","0.2","","100","","9","","4","","2.0","","98.04","","","","","","Snow"
"2013-02-28 01:00","2013","02","28","01:00","0.1","","0.1","","100","","","","0","","2.4","","97.99","","","","","","Snow"
"2013-02-28 02:00","2013","02","28","02:00","0.0","","-0.1","","99","","18","","4","","3.2","","97.95","","","","-1","","Snow"
"2013-02-28 03:00","2013","02","28","03:00","0.0","","0.0","","100","","","","0","","3.2","","97.90","","","","","","Snow"
"2013-02-28 04:00","2013","02","28","04:00","0.1","","0.1","","100","","32","","4","","2.8","","97.90","","","","","","Snow"
"2013-02-28 05:00","2013","02","28","05:00","0.1","","0.0","","99","","24","","4","","8.0","","97.92","","","","","","Snow"
"2013-02-28 06:00","2013","02","28","06:00","0.3","","0.2","","99","","27","","6","E","6.4","","97.93","","","","","","Snow"
"2013-02-28 07:00","2013","02","28","07:00","0.2","","-0.1","","98","","1","","7","","8.0","","97.97","","","","","","Snow"
"2013-02-28 08:00","2013","02","28","08:00","0.3","","0.0","","98","","31","","7","","4.8","","97.99","","","","","","Snow"
"2013-02-28 09:00","2013","02","28","09:00","0.6","","0.0","","96","","36","","13","","11.3","","98.04","","","","","","Snow"
"2013-02-28 10:00","2013","02","28","10:00","0.8","","-0.2","","93","","36","","17","","19.3","","98.07","","","","","","Cloudy"
"2013-02-28 11:00","2013","02","28","11:00","1.2","","-0.3","","90","","36","","15","","24.1","","98.10","","","","","","Mostly Cloudy"
"2013-02-28 12:00","2013","02","28","12:00","1.3","","-0.8","","86","","36","","20","","19.3","","98.15","","","","","","Snow"
"2013-02-28 13:00","2013","02","28","13:00","1.5","","-0.5","","87","","34","","19","","24.1","","98.16","","","","","","Cloudy"
"2013-02-28 14:00","2013","02","28","14:00","2.0","","-0.9","","81","","3","","17","","24.1","","98.19","","","","","","Cloudy"
"2013-02-28 15:00","2013","02","28","15:00","2.5","","-1.4","","75","","34","","20","","24.1","","98.23","","","","","","Cloudy"
"2013-02-28 16:00","2013","02","28","16:00","2.2","","-0.4","","83","","34","","24","","24.1","","98.30","","","","","","Cloudy"
"2013-02-28 17:00","2013","02","28","17:00","1.5","","-0.5","","87","","33","","22","","24.1","","98.38","","","","","","Cloudy"
"2013-02-28 18:00","2013","02","28","18:00","1.1","","-0.7","","88","","34","","24","","12.9","","98.48","","","","","","Snow"
"2013-02-28 19:00","2013","02","28","19:00","0.8","","-1.2","","86","","34","","28","","14.5","","98.57","","","","","","Snow"
"2013-02-28 20:00","2013","02","28","20:00","0.1","","-2.0","","86","","35","","24","","16.1","","98.67","","","","","","Cloudy"
"2013-02-28 21:00","2013","02","28","21:00","0.1","","-2.6","","82","","35","","30","","24.1","","98.71","","","","","","Mostly Cloudy"
"2013-02-28 22:00","2013","02","28","22:00","-0.3","","-3.3","","80","","35","","32","","24.1","","98.75","","","","-7","","Mostly Cloudy"
"2013-02-28 23:00","2013","02","28","23:00","-0.7","","-3.5","","81","","34","","28","","24.1","","98.79","","","","-7","","Mostly Cloudy"
