"Station Name","TORONTO LESTER B. PEARSON INT'L A"
"Province","ONTARIO"
"Latitude","43.68"
"Longitude","-79.63"
"Elevation","173.40"
"Climate Identifier","6158733"
"WMO Identifier","71624"
"TC Identifier","YYZ"
"All times are specified in Local Standard Time (LST). Add 1 hour to adjust for Daylight Saving Time where and when it is observed."

"Legend"
"E","Estimated"
"M","Missing"
"NA","Not Available"

"Date/Time","Year","Month","Day","Time","Temp (°C)","Temp Flag","Dew Point Temp (°C)","Dew Point Temp Flag","Rel Hum (%)","Rel Hum Flag","Wind Dir (10s deg)","Wind Dir Flag","Wind Spd (km/h)","Wind Spd Flag","Visibility (km)","Visibility Flag","Stn Press (kPa)","Stn Press Flag","Hmdx","Hmdx Flag","Wind Chill","Wind Chill Flag","Weather"
"1985-06-01 00:00","1985","06","01","00:00","15.4","","9.1","","66","","28","","35","","25.0","","97.70","","","","","","Cloudy"
"1985-06-01 01:00","1985","06","01","01:00","14.2","","8.2","","67","","25","","22","","24.1","","97.73","","","","","","Rain Showers"
"1985-06-01 02:00","1985","06","01","02:00","14.2","","7.8","","65","","27","","33","","25.0","","97.73","","","","","","Cloudy"
"1985-06-01 03:00","1985","06","01","03:00","13.1","","8.3","","72","","28","","33","","24.1","","97.83","","","","","","Rain Showers"
"1985-06-01 04:00","1985","06","01","04:00","12.5","","7.7","","73","","27","","33","","25.0","","97.90","","","","","","Cloudy"
"1985-06-01 05:00","1985","06","01","05:00","12.4","","8.5","","77","","27","","33","","32.2","","97.93","","","","","","Cloudy"
"1985-06-01 06:00","1985","06","01","06:00","12.6","","8.1","","74","","28","","43","","40.2","","98.03","","","","","","Cloudy"
"1985-06-01 07:00","1985","06","01","07:00","12.8","","8.3","","74","","29","","43","","40.2","","98.13","","","","","","Mostly Cloudy"
"1985-06-01 08:00","1985","06","01","08:00","13.3","","8.4","","72","","30","","46","","40.2","","98.27","","","","","","Mostly Cloudy"
"1985-06-01 09:00","1985","06","01","09:00","14.6","","8.8","","68","","28","","37","","40.2","","98.40","","","","","","Mainly Clear"
"1985-06-01 10:00","1985","06","01","10:00","16.0","","9.3","","64","","29","","33","","40.2","","98.50","","","","","","Mostly Cloudy"
"1985-06-01 11:00","1985","06","01","11:00","16.3","","9.9","","66","","28","","33","","40.2","","98.57","","","","","","Mostly Cloudy"
"1985-06-01 12:00","1985","06","01","12:00","18.5","","10.7","","61","","28","","30","","40.2","","98.63","","","","","","Mostly Cloudy"
"1985-06-01 13:00","1985","06","01","13:00","18.6","","9.1","","54","","29","","39","","40.2","","98.70","","","","","","Mainly Clear"
"1985-06-01 14:00","1985","06","01","14:00","19.9","","10.2","","54","","28","","37","","40.2","","98.70","","","","","","Mainly Clear"
"1985-06-01 15:00","1985","06","01","15:00","20.2","","8.5","","47","","27","","30","","40.2","","98.73","","","","","","Clear"
"1985-06-01 16:00","1985","06","01","16:00","20.2","","9.3","","49","","29","","28","","40.2","","98.73","","","","","","Clear"
"1985-06-01 17:00","1985","06","01","17:00","20.0","","8.9","","49","","28","","26","","40.2","","98.77","","","","","","Clear"
"1985-06-01 18:00","1985","06","01","18:00","19.5","","8.3","","48","","27","","24","","40.2","","98.80","","","","","","Clear"
"1985-06-01 19:00","1985","06","01","19:00","18.3","","8.7","","54","","26","","13","","40.2","","98.80","","","","","","Clear"
"1985-06-01 20:00","1985","06","01","20:00","16.9","","8.5","","58","","21","","9","","25.0","","98.83","","","","","","Clear"
"1985-06-01 21:00","1985","06","01","21:00","17.2","","8.1","","55","","17","","9","","25.0","","98.83","","","","","","Clear"
"1985-06-01 22:00","1985","06","01","22:00","16.2","","8.1","","59","","18","","11","","25.0","","98.87","","","","","","Mainly Clear"
"1985-06-01 23:00","1985","06","01","23:00","14.5","","8.8","","69","","19","","11","","25.0","","98.80","","","","","","Mainly Clear"
"1985-06-02 00:00","1985","06","02","00:00","13.5","","8.4","","71","","25","","6","","25.0","","98.80","","","","","","Clear"
"1985-06-02 01:00","1985","06","02","01:00","14.6","","8.8","","68","","20","","6","","25.0","","98.77","","","","","","Clear"
"1985-06-02 02:00","1985","06","02","02:00","13.0","","7.9","","71","","18","","7","","25.0","","98.73","","","","","","Clear"
"1985-06-02 03:00","1985","06","02","03:00","13.1","","9.8","","80","","18","","7","","25.0","","98.70","","","","","","Clear"
"1985-06-02 04:00","1985","06","02","04:00","11.6","","9.0","","84","","22","","6","","16.1","","98.73","","","","","","Clear"
"1985-06-02 05:00","1985","06","02","05:00","11.9","","9.5","","85","","12","","4","","12.9","","98.73","","","","","","Mainly Clear"
"1985-06-02 06:00","1985","06","02","06:00","13.2","","9.8","","80","","11","","4","","19.3","","98.73","","","","","","Mostly Cloudy"
"1985-06-02 07:00","1985","06","02","07:00","15.4","","11.4","","77","","13","","6","","19.3","","98.80","","","","","","Mainly Clear"
"1985-06-02 08:00","1985","06","02","08:00","17.7","","12.2","","70","","18","","6","","19.3","","98.80","","","","","","Mainly Clear"
"1985-06-02 09:00","1985","06","02","09:00","19.3","","13.4","","69","","14","","9","","19.3","","98.80","","","","","","Mostly Cloudy"
"1985-06-02 10:00","1985","06","02","10:00","19.8","","13.6","","68","","17","","7","","19.3","","98.80","","","","","","Mostly Cloudy"
"1985-06-02 11:00","1985","06","02","11:00","22.5","","15.1","","63","","10","","11","","40.2","","98.80","","27","","","","Mostly Cloudy"
"1985-06-02 12:00","1985","06","02","12:00","23.0","","13.5","","55","","31","","17","","40.2","","98.83","","26","","","","Mostly Cloudy"
"1985-06-02 13:00","1985","06","02","13:00","24.0","","13.2","","51","","27","","20","","40.2","","98.83","","27","","","","Mostly Cloudy"
"1985-06-02 14:00","1985","06","02","14:00","23.7","","13.4","","52","","29","","26","","40.2","","98.83","","27","","","","Mostly Cloudy"
"1985-06-02 15:00","1985","06","02","15:00","22.4","","13.6","","58","","30","","31","","40.2","","98.90","","26","","","","Mostly Cloudy"
"1985-06-02 16:00","1985","06","02","16:00","22.5","","12.9","","55","","30","","19","","40.2","","98.90","","25","","","","Mainly Clear"
"1985-06-02 17:00","1985","06","02","17:00","21.7","","11.3","","51","","30","","28","","40.2","","98.90","","","","","","Mainly Clear"
"1985-06-02 18:00","1985","06","02","18:00","19.6","","4.4","","37","","30","","26","","40.2","","98.97","","","","","","Mainly Clear"
"1985-06-02 19:00","1985","06","02","19:00","17.4","","6.5","","49","","36","","19","","40.2","","99.03","","","","","","Mostly Cloudy"
"1985-06-02 20:00","1985","06","02","20:00","15.3","","4.2","","48","","35","","15","","25.0","","99.10","","","","","","Mostly Cloudy"
"1985-06-02 21:00","1985","06","02","21:00","12.0","","4.9","","62","","34","","11","","25.0","","99.13","","","","","","Mostly Cloudy"
"1985-06-02 22:00","1985","06","02","22:00","12.9","","4.3","","56","","34","","17","","25.0","","99.20","","","","","","Mostly Cloudy"
"1985-06-02 23:00","1985","06","02","23:00","12.2","","4.5","","59","","33","","13","","25.0","","99.23","","","","","","Cloudy"
"1985-06-03 00:00","1985","06","03","00:00","12.3","","4.6","","59","","32","","11","","25.0","","99.23","","","","","","Mostly Cloudy"
"1985-06-03 01:00","1985","06","03","01:00","10.9","","6.0","","72","","28","","6","","25.0","","99.27","","","","","","Mostly Cloudy"
"1985-06-03 02:00","1985","06","03","02:00","11.8","","6.3","","69","","32","","9","","25.0","","99.27","","","","","","Mostly Cloudy"
"1985-06-03 03:00","1985","06","03","03:00","11.1","","2.7","","56","","33","","13","","25.0","","99.30","","","","","","Rain Showers"
"1985-06-03 04:00","1985","06","03","04:00","10.4","","2.6","","59","","34","","11","","25.0","","99.33","","","","","","Mostly Cloudy"
"1985-06-03 05:00","1985","06","03","05:00","10.1","","3.4","","63","","34","","11","","40.2","","99.40","","","","","","Mostly Cloudy"
"1985-06-03 06:00","1985","06","03","06:00","9.8","","3.9","","67","","36","","17","","40.2","","99.47","","","","","","Mostly Cloudy"
"1985-06-03 07:00","1985","06","03","07:00","10.2","","1.4","","54","","34","","22","","40.2","","99.53","","","","","","Mostly Cloudy"
"1985-06-03 08:00","1985","06","03","08:00","11.5","","2.3","","53","","34","","15","","40.2","","99.50","","","","","","Mostly Cloudy"
"1985-06-03 09:00","1985","06","03","09:00","13.0","","2.8","","50","","33","","19","","40.2","","99.47","","","","","","Mainly Clear"
"1985-06-03 10:00","1985","06","03","10:00","14.2","","3.2","","48","","33","","11","","40.2","","99.50","","","","","","Mainly Clear"
"1985-06-03 11:00","1985","06","03","11:00","14.8","","3.0","","45","","33","","13","","40.2","","99.53","","","","","","Clear"
"1985-06-03 12:00","1985","06","03","12:00","16.4","","4.1","","44","","1","","9","","40.2","","99.50","","","","","","Mainly Clear"
"1985-06-03 13:00","1985","06","03","13:00","17.5","","4.0","","41","","2","","13","","40.2","","99.50","","","","","","Mainly Clear"
"1985-06-03 14:00","1985","06","03","14:00","19.2","","5.2","","40","","32","","15","","40.2","","99.47","","","","","","Clear"
"1985-06-03 15:00","1985","06","03","15:00","19.8","","8.0","","47","","32","","19","","40.2","","99.50","","","","","","Clear"
"1985-06-03 16:00","1985","06","03","16:00","18.6","","6.4","","45","","36","","24","","40.2","","99.50","","","","","","Mainly Clear"
"1985-06-03 17:00","1985","06","03","17:00","17.8","","5.3","","44","","1","","22","","40.2","","99.50","","","","","","Clear"
"1985-06-03 18:00","1985","06","03","18:00","16.8","","5.3","","47","","35","","20","","40.2","","99.53","","","","","","Clear"
"1985-06-03 19:00","1985","06","03","19:00","15.0","","5.5","","53","","35","","20","","40.2","","99.63","","","","","","Mainly Clear"
"1985-06-03 20:00","1985","06","03","20:00","12.5","","4.6","","59","","35","","20","","40.2","","99.73","","","","","","Mainly Clear"
"1985-06-03 21:00","1985","06","03","21:00","11.1","","3.7","","60","","35","","20","","25.0","","99.77","","","","","","Clear"
"1985-06-03 22:00","1985","06","03","22:00","8.1","","3.4","","72","","33","","11","","25.0","","99.77","","","","","","Clear"
"1985-06-03 23:00","1985","06","03","23:00","7.3","","3.3","","76","","32","","15","","25.0","","99.77","","","","","","Clear"
"1985-06-04 00:00","1985","06","04","00:00","5.8","","3.0","","82","","31","","11","","25.0","","99.80","","","","","","Clear"
"1985-06-04 01:00","1985","06","04","01:00","6.4","","3.5","","82","","29","","4","","25.0","","99.80","","","","","","Mainly Clear"
"1985-06-04 02:00","1985","06","04","02:00","5.9","","3.4","","84","","26","","7","","25.0","","99.87","","","","","","Mainly Clear"
"1985-06-04 03:00","1985","06","04","03:00","5.2","","2.4","","82","","27","","7","","25.0","","99.83","","","","","","Mainly Clear"
"1985-06-04 04:00","1985","06","04","04:00","3.6","","1.2","","84","","28","","7","","25.0","","99.87","","","","","","Clear"
"1985-06-04 05:00","1985","06","04","05:00","4.2","","1.7","","84","","33","","11","","40.2","","99.83","","","","","","Mainly Clear"
"1985-06-04 06:00","1985","06","04","06:00","6.0","","3.0","","81","","33","","11","","40.2","","99.87","","","","","","Mainly Clear"
"1985-06-04 07:00","1985","06","04","07:00","9.4","","3.8","","68","","35","","15","","25.0","","99.97","","","","","","Mainly Clear"
"1985-06-04 08:00","1985","06","04","08:00","11.7","","4.8","","62","","3","","11","","40.2","","99.97","","","","","","Mainly Clear"
"1985-06-04 09:00","1985","06","04","09:00","14.7","","6.2","","57","","3","","9","","40.2","","99.93","","","","","","Mostly Cloudy"
"1985-06-04 10:00","1985","06","04","10:00","16.4","","6.5","","52","","10","","7","","40.2","","99.97","","","","","","Mostly Cloudy"
"1985-06-04 11:00","1985","06","04","11:00","16.3","","6.1","","51","","12","","11","","40.2","","100.00","","","","","","Mainly Clear"
"1985-06-04 12:00","1985","06","04","12:00","17.4","","5.5","","46","","9","","7","","40.2","","99.97","","","","","","Mainly Clear"
"1985-06-04 13:00","1985","06","04","13:00","18.6","","5.0","","41","","7","","11","","40.2","","99.93","","","","","","Mainly Clear"
"1985-06-04 14:00","1985","06","04","14:00","18.6","","5.5","","42","","14","","19","","40.2","","99.87","","","","","","Mainly Clear"
"1985-06-04 15:00","1985","06","04","15:00","18.4","","2.3","","34","","13","","17","","40.2","","99.80","","","","","","Mostly Cloudy"
"1985-06-04 16:00","1985","06","04","16:00","18.3","","2.3","","34","","15","","19","","40.2","","99.80","","","","","","Mostly Cloudy"
"1985-06-04 17:00","1985","06","04","17:00","17.8","","3.2","","38","","14","","19","","40.2","","99.80","","","","","","Mostly Cloudy"
"1985-06-04 18:00","1985","06","04","18:00","16.8","","4.8","","45","","14","","15","","40.2","","99.77","","","","","","Mostly Cloudy"
"1985-06-04 19:00","1985","06","04","19:00","15.7","","4.7","","48","","13","","13","","40.2","","99.77","","","","","","Mostly Cloudy"
"1985-06-04 20:00","1985","06","04","20:00","15.2","","4.0","","47","","14","","11","","25.0","","99.73","","","","","","Mostly Cloudy"
"1985-06-04 21:00","1985","06","04","21:00","14.8","","5.0","","52","","19","","4","","25.0","","99.77","","","","","","Cloudy"
"1985-06-04 22:00","1985","06","04","22:00","15.0","","4.5","","49","","","","0","","25.0","","99.73","","","","","","Cloudy"
"1985-06-04 23:00","1985","06","04","23:00","14.4","","5.3","","54","","14","","6","","25.0","","99.70","","","","","","Mostly Cloudy"
"1985-06-05 00:00","1985","06","05","00:00","13.8","","6.5","","61","","19","","4","","25.0","","99.70","","","","","","Rain Showers"
"1985-06-05 01:00","1985","06","05","01:00","13.9","","6.1","","59","","29","","4","","25.0","","99.63","","","","","","Mostly Cloudy"
"1985-06-05 02:00","1985","06","05","02:00","13.5","","8.4","","71","","2","","6","","25.0","","99.57","","","","","","Mostly Cloudy"
"1985-06-05 03:00","1985","06","05","03:00","14.0","","6.9","","62","","8","","7","","25.0","","99.50","","","","","","Cloudy"
"1985-06-05 04:00","1985","06","05","04:00","13.8","","6.9","","63","","4","","4","","25.0","","99.50","","","","","","Mostly Cloudy"
"1985-06-05 05:00","1985","06","05","05:00","13.3","","8.0","","70","","4","","6","","24.1","","99.50","","","","","","Mostly Cloudy"
"1985-06-05 06:00","1985","06","05","06:00","12.9","","9.8","","81","","1","","9","","24.1","","99.50","","","","","","Mostly Cloudy"
"1985-06-05 07:00","1985","06","05","07:00","14.2","","6.5","","60","","1","","9","","24.1","","99.50","","","","","","Mostly Cloudy"
"1985-06-05 08:00","1985","06","05","08:00","15.0","","7.7","","62","","36","","7","","24.1","","99.50","","","","","","Mostly Cloudy"
"1985-06-05 09:00","1985","06","05","09:00","15.3","","8.3","","63","","1","","11","","24.1","","99.50","","","","","","Mostly Cloudy"
"1985-06-05 10:00","1985","06","05","10:00","16.2","","7.7","","57","","4","","11","","24.1","","99.47","","","","","","Cloudy"
"1985-06-05 11:00","1985","06","05","11:00","17.5","","7.8","","53","","2","","7","","24.1","","99.47","","","","","","Mostly Cloudy"
"1985-06-05 12:00","1985","06","05","12:00","18.6","","8.7","","53","","4","","7","","24.1","","99.40","","","","","","Mostly Cloudy"
"1985-06-05 13:00","1985","06","05","13:00","19.5","","6.4","","42","","28","","7","","24.1","","99.40","","","","","","Mostly Cloudy"
"1985-06-05 14:00","1985","06","05","14:00","18.5","","9.5","","56","","17","","11","","24.1","","99.40","","","","","","Mostly Cloudy"
"1985-06-05 15:00","1985","06","05","15:00","18.0","","10.1","","60","","13","","15","","40.2","","99.47","","","","","","Mostly Cloudy"
"1985-06-05 16:00","1985","06","05","16:00","18.7","","10.3","","58","","15","","11","","32.2","","99.40","","","","","","Mainly Clear"
"1985-06-05 17:00","1985","06","05","17:00","18.0","","10.5","","62","","17","","13","","32.2","","99.33","","","","","","Mostly Cloudy"
"1985-06-05 18:00","1985","06","05","18:00","15.0","","10.9","","76","","16","","15","","40.2","","99.33","","","","","","Mostly Cloudy"
"1985-06-05 19:00","1985","06","05","19:00","14.6","","10.7","","78","","14","","11","","32.2","","99.40","","","","","","Mostly Cloudy"
"1985-06-05 20:00","1985","06","05","20:00","14.0","","10.9","","82","","","","0","","24.1","","99.47","","","","","","Mostly Cloudy"
"1985-06-05 21:00","1985","06","05","21:00","13.4","","10.7","","84","","32","","6","","19.3","","99.50","","","","","","Mainly Clear"
"1985-06-05 22:00","1985","06","05","22:00","13.0","","7.9","","71","","35","","15","","24.1","","99.57","","","","","","Mainly Clear"
"1985-06-05 23:00","1985","06","05","23:00","11.9","","6.7","","71","","34","","13","","25.0","","99.57","","","","","","Mainly Clear"
"1985-06-06 00:00","1985","06","06","00:00","10.0","","6.5","","79","","33","","13","","25.0","","99.57","","","","","","Mainly Clear"
"1985-06-06 01:00","1985","06","06","01:00","9.9","","6.5","","79","","32","","15","","25.0","","99.60","","","","","","Clear"
"1985-06-06 02:00","1985","06","06","02:00","8.3","","7.0","","92","","32","","17","","24.1","","99.60","","","","","","Clear"
"1985-06-06 03:00","1985","06","06","03:00","7.8","","6.4","","91","","33","","13","","19.3","","99.63","","","","","","Clear"
"1985-06-06 04:00","1985","06","06","04:00","7.5","","5.9","","90","","33","","11","","24.1","","99.67","","","","","","Clear"
"1985-06-06 05:00","1985","06","06","05:00","6.7","","5.3","","90","","32","","13","","24.1","","99.77","","","","","","Mainly Clear"
"1985-06-06 06:00","1985","06","06","06:00","9.8","","7.4","","85","","33","","13","","32.2","","99.87","","","","","","Mainly Clear"
"1985-06-06 07:00","1985","06","06","07:00","11.0","","7.2","","78","","34","","19","","32.2","","99.87","","","","","","Mainly Clear"
"1985-06-06 08:00","1985","06","06","08:00","13.3","","8.0","","70","","1","","19","","32.2","","99.93","","","","","","Clear"
"1985-06-06 09:00","1985","06","06","09:00","14.5","","8.4","","67","","35","","17","","32.2","","99.97","","","","","","Mainly Clear"
"1985-06-06 10:00","1985","06","06","10:00","15.6","","7.5","","59","","32","","20","","32.2","","100.00","","","","","","Mainly Clear"
"1985-06-06 11:00","1985","06","06","11:00","17.5","","8.7","","56","","35","","24","","32.2","","100.00","","","","","","Mainly Clear"
"1985-06-06 12:00","1985","06","06","12:00","17.6","","7.8","","53","","1","","17","","40.2","","100.00","","","","","","Mainly Clear"
"1985-06-06 13:00","1985","06","06","13:00","18.6","","8.3","","51","","3","","11","","40.2","","99.93","","","","","","Mainly Clear"
"1985-06-06 14:00","1985","06","06","14:00","19.5","","9.1","","51","","4","","11","","40.2","","99.93","","","","","","Mainly Clear"
"1985-06-06 15:00","1985","06","06","15:00","20.2","","8.0","","45","","20","","17","","40.2","","99.90","","","","","","Mainly Clear"
"1985-06-06 16:00","1985","06","06","16:00","19.5","","8.7","","50","","16","","17","","40.2","","99.93","","","","","","Mainly Clear"
"1985-06-06 17:00","1985","06","06","17:00","19.5","","7.8","","47","","20","","11","","32.2","","99.90","","","","","","Mainly Clear"
"1985-06-06 18:00","1985","06","06","18:00","20.0","","8.9","","49","","19","","11","","32.2","","99.93","","","","","","Mainly Clear"
"1985-06-06 19:00","1985","06","06","19:00","18.4","","8.3","","52","","15","","17","","32.2","","99.93","","","","","","Clear"
"1985-06-06 20:00","1985","06","06","20:00","15.8","","8.1","","60","","14","","11","","32.2","","99.97","","","","","","Mainly Clear"
"1985-06-06 21:00","1985","06","06","21:00","15.6","","7.5","","59","","16","","11","","25.0","","100.00","","","","","","Clear"
"1985-06-06 22:00","1985","06","06","22:00","15.7","","7.0","","56","","12","","9","","25.0","","100.00","","","","","","Clear"
"1985-06-06 23:00","1985","06","06","23:00","14.8","","7.3","","61","","12","","13","","25.0","","100.00","","","","","","Clear"
"1985-06-07 00:00","1985","06","07","00:00","13.7","","7.2","","65","","12","","9","","25.0","","100.00","","","","","","Clear"
"1985-06-07 01:00","1985","06","07","01:00","12.8","","7.9","","72","","","","0","","25.0","","100.00","","","","","","Mainly Clear"
"1985-06-07 02:00","1985","06","07","02:00","11.5","","7.8","","78","","","","0","","25.0","","100.00","","","","","","Mainly Clear"
"1985-06-07 03:00","1985","06","07","03:00","7.9","","6.0","","88","","36","","4","","24.1","","100.00","","","","","","Mainly Clear"
"1985-06-07 04:00","1985","06","07","04:00","7.0","","5.8","","92","","","","0","","24.1","","100.00","","","","","","Mainly Clear"
"1985-06-07 05:00","1985","06","07","05:00","8.3","","6.6","","89","","3","","6","","24.1","","100.00","","","","","","Mainly Clear"
"1985-06-07 06:00","1985","06","07","06:00","12.3","","8.9","","80","","12","","6","","19.3","","99.97","","","","","","Mainly Clear"
"1985-06-07 07:00","1985","06","07","07:00","14.2","","9.0","","71","","13","","11","","19.3","","99.97","","","","","","Mainly Clear"
"1985-06-07 08:00","1985","06","07","08:00","14.9","","8.6","","66","","15","","11","","32.2","","99.93","","","","","","Mainly Clear"
"1985-06-07 09:00","1985","06","07","09:00","16.9","","8.5","","58","","10","","22","","40.2","","99.83","","","","","","Mainly Clear"
"1985-06-07 10:00","1985","06","07","10:00","17.3","","7.8","","54","","14","","22","","40.2","","99.77","","","","","","Mainly Clear"
"1985-06-07 11:00","1985","06","07","11:00","17.4","","9.1","","58","","13","","17","","40.2","","99.70","","","","","","Mostly Cloudy"
"1985-06-07 12:00","1985","06","07","12:00","17.2","","8.5","","57","","13","","20","","32.2","","99.60","","","","","","Cloudy"
"1985-06-07 13:00","1985","06","07","13:00","17.5","","9.1","","58","","14","","15","","24.1","","99.53","","","","","","Cloudy"
"1985-06-07 14:00","1985","06","07","14:00","17.9","","9.3","","57","","14","","9","","24.1","","99.47","","","","","","Mostly Cloudy"
"1985-06-07 15:00","1985","06","07","15:00","19.5","","9.5","","52","","11","","7","","40.2","","99.33","","","","","","Mostly Cloudy"
"1985-06-07 16:00","1985","06","07","16:00","19.0","","9.3","","53","","14","","9","","40.2","","99.30","","","","","","Mostly Cloudy"
"1985-06-07 17:00","1985","06","07","17:00","18.4","","9.1","","55","","16","","11","","40.2","","99.23","","","","","","Mostly Cloudy"
"1985-06-07 18:00","1985","06","07","18:00","18.0","","8.9","","55","","17","","9","","32.2","","99.23","","","","","","Mostly Cloudy"
"1985-06-07 19:00","1985","06","07","19:00","17.0","","8.1","","56","","16","","9","","32.2","","99.17","","","","","","Mostly Cloudy"
"1985-06-07 20:00","1985","06","07","20:00","15.7","","7.5","","58","","15","","7","","25.0","","99.13","","","","","","Cloudy"
"1985-06-07 21:00","1985","06","07","21:00","15.0","","7.7","","62","","26","","9","","25.0","","99.20","","","","","","Cloudy"
"1985-06-07 22:00","1985","06","07","22:00","14.7","","8.0","","64","","","","0","","16.1","","99.10","","","","","","Rain Showers"
"1985-06-07 23:00","1985","06","07","23:00","13.8","","10.5","","81","","21","","6","","25.0","","99.13","","","","","","Mostly Cloudy"
"1985-06-08 00:00","1985","06","08","00:00","14.6","","10.0","","74","","","","0","","25.0","","99.03","","","","","","Cloudy"
"1985-06-08 01:00","1985","06","08","01:00","14.4","","10.7","","79","","17","","4","","25.0","","99.00","","","","","","Cloudy"
"1985-06-08 02:00","1985","06","08","02:00","13.2","","10.6","","84","","","","0","","19.3","","98.97","","","","","","Cloudy"
"1985-06-08 03:00","1985","06","08","03:00","14.1","","10.5","","79","","","","0","","19.3","","98.93","","","","","","Cloudy"
"1985-06-08 04:00","1985","06","08","04:00","14.3","","10.7","","79","","9","","7","","16.1","","98.90","","","","","","Mostly Cloudy"
"1985-06-08 05:00","1985","06","08","05:00","14.0","","10.2","","78","","","","0","","19.3","","98.90","","","","","","Mostly Cloudy"
"1985-06-08 06:00","1985","06","08","06:00","14.2","","10.9","","80","","16","","4","","19.3","","98.90","","","","","","Mainly Clear"
"1985-06-08 07:00","1985","06","08","07:00","15.0","","10.9","","76","","18","","4","","19.3","","98.90","","","","","","Mainly Clear"
"1985-06-08 08:00","1985","06","08","08:00","17.0","","11.3","","69","","20","","6","","19.3","","98.87","","","","","","Clear"
"1985-06-08 09:00","1985","06","08","09:00","20.0","","11.8","","59","","17","","11","","24.1","","98.83","","","","","","Mainly Clear"
"1985-06-08 10:00","1985","06","08","10:00","20.8","","11.8","","56","","20","","15","","24.1","","98.80","","","","","","Mostly Cloudy"
"1985-06-08 11:00","1985","06","08","11:00","23.0","","12.4","","51","","23","","11","","24.1","","98.73","","25","","","","Mostly Cloudy"
"1985-06-08 12:00","1985","06","08","12:00","23.4","","12.6","","51","","19","","11","","32.2","","98.73","","26","","","","Mainly Clear"
"1985-06-08 13:00","1985","06","08","13:00","23.7","","13.4","","52","","15","","20","","24.1","","98.70","","27","","","","Mainly Clear"
"1985-06-08 14:00","1985","06","08","14:00","22.6","","13.3","","56","","15","","20","","24.1","","98.63","","26","","","","Mostly Cloudy"
"1985-06-08 15:00","1985","06","08","15:00","23.3","","13.4","","54","","15","","17","","19.3","","98.63","","26","","","","Mainly Clear"
"1985-06-08 16:00","1985","06","08","16:00","23.1","","13.1","","53","","17","","19","","19.3","","98.60","","26","","","","Mostly Cloudy"
"1985-06-08 17:00","1985","06","08","17:00","22.4","","13.6","","58","","17","","13","","19.3","","98.60","","26","","","","Cloudy"
"1985-06-08 18:00","1985","06","08","18:00","21.8","","14.1","","62","","16","","11","","19.3","","98.60","","25","","","","Cloudy"
"1985-06-08 19:00","1985","06","08","19:00","21.0","","13.3","","61","","16","","11","","16.1","","98.60","","","","","","Cloudy"
"1985-06-08 20:00","1985","06","08","20:00","19.8","","14.0","","69","","17","","6","","9.7","","98.60","","","","","","Haze"
"1985-06-08 21:00","1985","06","08","21:00","20.0","","13.6","","67","","19","","7","","9.7","","98.60","","","","","","Haze"
"1985-06-08 22:00","1985","06","08","22:00","17.5","","13.3","","76","","15","","7","","8.0","","98.53","","","","","","Haze"
"1985-06-08 23:00","1985","06","08","23:00","17.0","","13.1","","78","","12","","9","","8.0","","98.50","","","","","","Haze"
"1985-06-09 00:00","1985","06","09","00:00","16.6","","12.5","","77","","14","","7","","8.0","","98.40","","","","","","Haze"
"1985-06-09 01:00","1985","06","09","01:00","16.8","","13.1","","79","","14","","7","","8.0","","98.40","","","","","","Haze"
"1985-06-09 02:00","1985","06","09","02:00","16.2","","12.3","","77","","10","","6","","8.0","","98.37","","","","","","Haze"
"1985-06-09 03:00","1985","06","09","03:00","15.8","","13.7","","88","","","","0","","6.4","","98.40","","","","","","Rain Showers,Fog"
"1985-06-09 04:00","1985","06","09","04:00","15.9","","13.4","","85","","17","","7","","4.8","","98.33","","","","","","Fog"
"1985-06-09 05:00","1985","06","09","05:00","16.4","","14.3","","87","","12","","20","","4.0","","98.13","","","","","","Fog"
"1985-06-09 06:00","1985","06","09","06:00","16.9","","14.8","","87","","12","","9","","4.0","","98.20","","","","","","Fog"
"1985-06-09 07:00","1985","06","09","07:00","18.0","","15.5","","85","","14","","11","","4.0","","98.17","","","","","","Haze"
"1985-06-09 08:00","1985","06","09","08:00","20.9","","16.4","","75","","16","","15","","8.0","","98.13","","26","","","","Haze"
"1985-06-09 09:00","1985","06","09","09:00","21.2","","16.8","","76","","17","","17","","9.7","","98.07","","26","","","","Haze"
"1985-06-09 10:00","1985","06","09","10:00","21.8","","17.8","","78","","17","","13","","8.0","","98.00","","28","","","","Haze"
"1985-06-09 11:00","1985","06","09","11:00","23.1","","19.5","","80","","24","","19","","8.0","","97.97","","30","","","","Rain Showers,Haze"
"1985-06-09 12:00","1985","06","09","12:00","25.5","","21.3","","78","","26","","30","","6.4","","97.93","","34","","","","Haze"
"1985-06-09 13:00","1985","06","09","13:00","25.9","","18.7","","65","","29","","41","","9.7","","97.93","","32","","","","Haze"
"1985-06-09 14:00","1985","06","09","14:00","26.9","","15.5","","50","","27","","41","","32.2","","98.00","","31","","","","Mainly Clear"
"1985-06-09 15:00","1985","06","09","15:00","27.5","","12.7","","40","","28","","41","","32.2","","98.03","","30","","","","Mainly Clear"
"1985-06-09 16:00","1985","06","09","16:00","27.0","","11.6","","38","","29","","35","","19.3","","98.07","","29","","","","Mainly Clear"
"1985-06-09 17:00","1985","06","09","17:00","25.6","","9.4","","36","","27","","41","","19.3","","98.13","","27","","","","Mostly Cloudy"
"1985-06-09 18:00","1985","06","09","18:00","25.1","","10.1","","39","","28","","44","","16.1","","98.20","","26","","","","Mainly Clear"
"1985-06-09 19:00","1985","06","09","19:00","22.9","","10.8","","46","","31","","28","","9.7","","98.33","","25","","","","Haze"
"1985-06-09 20:00","1985","06","09","20:00","20.4","","10.0","","51","","32","","22","","8.0","","98.43","","","","","","Haze"
"1985-06-09 21:00","1985","06","09","21:00","17.2","","10.1","","63","","32","","17","","8.0","","98.53","","","","","","Haze"
"1985-06-09 22:00","1985","06","09","22:00","16.3","","9.5","","64","","29","","20","","9.7","","98.60","","","","","","Haze"
"1985-06-09 23:00","1985","06","09","23:00","15.4","","8.7","","64","","29","","20","","16.1","","98.70","","","","","","Mainly Clear"
"1985-06-10 00:00","1985","06","10","00:00","13.5","","8.0","","69","","30","","17","","19.3","","98.80","","","","","","Clear"
"1985-06-10 01:00","1985","06","10","01:00","12.9","","7.9","","72","","29","","15","","25.0","","98.83","","","","","","Clear"
"1985-06-10 02:00","1985","06","10","02:00","12.8","","7.9","","72","","29","","19","","24.1","","98.90","","","","","","Clear"
"1985-06-10 03:00","1985","06","10","03:00","12.1","","6.7","","70","","29","","17","","25.0","","98.90","","","","","","Clear"
"1985-06-10 04:00","1985","06","10","04:00","12.6","","6.4","","66","","30","","19","","25.0","","98.93","","","","","","Clear"
"1985-06-10 05:00","1985","06","10","05:00","12.9","","6.2","","64","","30","","31","","40.2","","99.03","","","","","","Clear"
"1985-06-10 06:00","1985","06","10","06:00","12.9","","6.6","","66","","30","","35","","40.2","","99.07","","","","","","Clear"
"1985-06-10 07:00","1985","06","10","07:00","13.8","","5.6","","58","","30","","22","","40.2","","99.20","","","","","","Mostly Cloudy"
"1985-06-10 08:00","1985","06","10","08:00","15.3","","6.6","","56","","29","","28","","40.2","","99.20","","","","","","Mainly Clear"
"1985-06-10 09:00","1985","06","10","09:00","16.5","","5.6","","49","","29","","26","","40.2","","99.20","","","","","","Mainly Clear"
"1985-06-10 10:00","1985","06","10","10:00","17.7","","6.9","","49","","30","","28","","40.2","","99.20","","","","","","Mainly Clear"
"1985-06-10 11:00","1985","06","10","11:00","19.2","","7.1","","45","","30","","28","","40.2","","99.20","","","","","","Mainly Clear"
"1985-06-10 12:00","1985","06","10","12:00","20.2","","6.6","","41","","27","","28","","40.2","","99.23","","","","","","Mainly Clear"
"1985-06-10 13:00","1985","06","10","13:00","20.8","","7.6","","43","","29","","28","","40.2","","99.23","","","","","","Mainly Clear"
"1985-06-10 14:00","1985","06","10","14:00","21.5","","5.9","","36","","29","","28","","40.2","","99.23","","","","","","Mainly Clear"
"1985-06-10 15:00","1985","06","10","15:00","21.0","","4.6","","34","","31","","24","","40.2","","99.27","","","","","","Mainly Clear"
"1985-06-10 16:00","1985","06","10","16:00","20.9","","4.1","","33","","31","","28","","40.2","","99.30","","","","","","Mainly Clear"
"1985-06-10 17:00","1985","06","10","17:00","19.8","","6.6","","42","","29","","28","","40.2","","99.33","","","","","","Mostly Cloudy"
"1985-06-10 18:00","1985","06","10","18:00","19.5","","4.4","","37","","31","","24","","40.2","","99.40","","","","","","Mainly Clear"
"1985-06-10 19:00","1985","06","10","19:00","18.8","","6.7","","45","","30","","19","","40.2","","99.40","","","","","","Mostly Cloudy"
"1985-06-10 20:00","1985","06","10","20:00","17.1","","6.3","","49","","30","","20","","25.0","","99.43","","","","","","Mostly Cloudy"
"1985-06-10 21:00","1985","06","10","21:00","16.0","","6.3","","52","","29","","19","","25.0","","99.47","","","","","","Mostly Cloudy"
"1985-06-10 22:00","1985","06","10","22:00","14.9","","6.4","","57","","30","","13","","25.0","","99.47","","","","","","Mostly Cloudy"
"1985-06-10 23:00","1985","06","10","23:00","13.4","","5.4","","58","","31","","13","","25.0","","99.50","","","","","","Mostly Cloudy"
"1985-06-11 00:00","1985","06","11","00:00","10.6","","5.4","","70","","33","","15","","25.0","","99.47","","","","","","Mainly Clear"
"1985-06-11 01:00","1985","06","11","01:00","10.8","","5.5","","70","","29","","11","","25.0","","99.47","","","","","","Mostly Cloudy"
"1985-06-11 02:00","1985","06","11","02:00","11.7","","4.3","","60","","26","","17","","25.0","","99.53","","","","","","Cloudy"
"1985-06-11 03:00","1985","06","11","03:00","11.0","","4.2","","63","","29","","11","","25.0","","99.47","","","","","","Mostly Cloudy"
"1985-06-11 04:00","1985","06","11","04:00","10.6","","2.6","","58","","26","","6","","25.0","","99.47","","","","","","Mostly Cloudy"
"1985-06-11 05:00","1985","06","11","05:00","9.7","","3.8","","66","","29","","6","","40.2","","99.50","","","","","","Mostly Cloudy"
"1985-06-11 06:00","1985","06","11","06:00","10.7","","2.6","","57","","30","","7","","40.2","","99.57","","","","","","Mostly Cloudy"
"1985-06-11 07:00","1985","06","11","07:00","11.1","","2.7","","56","","31","","9","","40.2","","99.50","","","","","","Mostly Cloudy"
"1985-06-11 08:00","1985","06","11","08:00","11.2","","3.2","","58","","33","","13","","40.2","","99.50","","","","","","Mostly Cloudy"
"1985-06-11 09:00","1985","06","11","09:00","11.5","","3.3","","57","","33","","11","","40.2","","99.50","","","","","","Cloudy"
"1985-06-11 10:00","1985","06","11","10:00","12.5","","4.6","","59","","33","","11","","40.2","","99.47","","","","","","Cloudy"
"1985-06-11 11:00","1985","06","11","11:00","11.8","","4.5","","61","","35","","6","","40.2","","99.40","","","","","","Cloudy"
"1985-06-11 12:00","1985","06","11","12:00","12.1","","5.8","","65","","26","","4","","32.2","","99.37","","","","","","Rain Showers"
"1985-06-11 13:00","1985","06","11","13:00","12.6","","6.9","","68","","25","","7","","32.2","","99.30","","","","","","Rain Showers"
"1985-06-11 14:00","1985","06","11","14:00","13.4","","7.6","","68","","25","","9","","32.2","","99.30","","","","","","Rain Showers"
"1985-06-11 15:00","1985","06","11","15:00","12.7","","8.9","","78","","23","","6","","19.3","","99.23","","","","","","Rain"
"1985-06-11 16:00","1985","06","11","16:00","12.7","","9.3","","80","","25","","4","","19.3","","99.10","","","","","","Rain"
"1985-06-11 17:00","1985","06","11","17:00","12.0","","9.5","","85","","","","0","","16.1","","99.03","","","","","","Rain"
"1985-06-11 18:00","1985","06","11","18:00","12.2","","9.9","","86","","","","0","","12.9","","98.93","","","","","","Rain"
"1985-06-11 19:00","1985","06","11","19:00","12.2","","9.9","","86","","1","","13","","12.9","","98.83","","","","","","Rain"
"1985-06-11 20:00","1985","06","11","20:00","12.0","","10.6","","91","","6","","4","","9.7","","98.87","","","","","","Rain,Fog"
"1985-06-11 21:00","1985","06","11","21:00","11.2","","9.9","","91","","1","","11","","9.7","","98.90","","","","","","Fog"
"1985-06-11 22:00","1985","06","11","22:00","12.0","","8.7","","80","","36","","11","","19.3","","98.80","","","","","","Cloudy"
"1985-06-11 23:00","1985","06","11","23:00","10.9","","9.2","","89","","35","","13","","12.9","","98.70","","","","","","Rain"
"1985-06-12 00:00","1985","06","12","00:00","10.0","","8.5","","90","","36","","13","","12.9","","98.57","","","","","","Rain"
"1985-06-12 01:00","1985","06","12","01:00","10.6","","9.4","","92","","33","","11","","19.3","","98.50","","","","","","Rain"
"1985-06-12 02:00","1985","06","12","02:00","9.8","","8.1","","89","","32","","26","","19.3","","98.50","","","","","","Cloudy"
"1985-06-12 03:00","1985","06","12","03:00","9.7","","6.0","","78","","35","","13","","19.3","","98.43","","","","","","Cloudy"
"1985-06-12 04:00","1985","06","12","04:00","9.6","","6.4","","80","","36","","11","","19.3","","98.43","","","","","","Cloudy"
"1985-06-12 05:00","1985","06","12","05:00","9.3","","5.6","","78","","35","","15","","40.2","","98.37","","","","","","Cloudy"
"1985-06-12 06:00","1985","06","12","06:00","9.1","","5.4","","78","","33","","15","","40.2","","98.40","","","","","","Cloudy"
"1985-06-12 07:00","1985","06","12","07:00","9.9","","5.3","","73","","34","","15","","40.2","","98.40","","","","","","Mostly Cloudy"
"1985-06-12 08:00","1985","06","12","08:00","11.3","","5.7","","69","","34","","15","","40.2","","98.43","","","","","","Mostly Cloudy"
"1985-06-12 09:00","1985","06","12","09:00","13.1","","6.2","","63","","34","","20","","40.2","","98.47","","","","","","Mostly Cloudy"
"1985-06-12 10:00","1985","06","12","10:00","15.0","","6.4","","56","","33","","15","","40.2","","98.43","","","","","","Mostly Cloudy"
"1985-06-12 11:00","1985","06","12","11:00","16.0","","6.8","","54","","28","","7","","40.2","","98.43","","","","","","Mostly Cloudy"
"1985-06-12 12:00","1985","06","12","12:00","17.2","","6.3","","49","","25","","9","","40.2","","98.40","","","","","","Mostly Cloudy"
"1985-06-12 13:00","1985","06","12","13:00","18.5","","6.4","","45","","12","","6","","40.2","","98.33","","","","","","Mostly Cloudy"
"1985-06-12 14:00","1985","06","12","14:00","19.1","","5.2","","40","","31","","15","","40.2","","98.33","","","","","","Mostly Cloudy"
"1985-06-12 15:00","1985","06","12","15:00","18.2","","3.7","","38","","26","","9","","40.2","","98.30","","","","","","Mostly Cloudy"
"1985-06-12 16:00","1985","06","12","16:00","18.6","","4.5","","39","","1","","17","","40.2","","98.27","","","","","","Mostly Cloudy"
"1985-06-12 17:00","1985","06","12","17:00","16.9","","6.7","","51","","35","","19","","40.2","","98.30","","","","","","Mostly Cloudy"
"1985-06-12 18:00","1985","06","12","18:00","14.3","","4.8","","53","","35","","28","","40.2","","98.33","","","","","","Mostly Cloudy"
"1985-06-12 19:00","1985","06","12","19:00","13.9","","3.7","","50","","35","","28","","40.2","","98.40","","","","","","Mostly Cloudy"
"1985-06-12 20:00","1985","06","12","20:00","12.3","","4.6","","59","","35","","19","","40.2","","98.40","","","","","","Mostly Cloudy"
"1985-06-12 21:00","1985","06","12","21:00","10.8","","5.5","","70","","33","","17","","25.0","","98.43","","","","","","Mostly Cloudy"
"1985-06-12 22:00","1985","06","12","22:00","10.4","","5.8","","73","","31","","15","","25.0","","98.43","","","","","","Mostly Cloudy"
"1985-06-12 23:00","1985","06","12","23:00","10.0","","3.9","","66","","30","","17","","25.0","","98.50","","","","","","Mostly Cloudy"
"1985-06-13 00:00","1985","06","13","00:00","8.4","","4.4","","76","","29","","15","","25.0","","98.47","","","","","","Mostly Cloudy"
"1985-06-13 01:00","1985","06","13","01:00","7.9","","4.8","","81","","27","","15","","25.0","","98.43","","","","","","Mostly Cloudy"
"1985-06-13 02:00","1985","06","13","02:00","7.4","","4.6","","83","","28","","22","","25.0","","98.40","","","","","","Mostly Cloudy"
"1985-06-13 03:00","1985","06","13","03:00","7.5","","5.1","","85","","29","","22","","25.0","","98.33","","","","","","Mostly Cloudy"
"1985-06-13 04:00","1985","06","13","04:00","7.8","","5.2","","84","","29","","24","","25.0","","98.37","","","","","","Mostly Cloudy"
"1985-06-13 05:00","1985","06","13","05:00","8.1","","4.8","","79","","30","","22","","40.2","","98.43","","","","","","Mostly Cloudy"
"1985-06-13 06:00","1985","06","13","06:00","8.4","","4.9","","79","","31","","22","","40.2","","98.50","","","","","","Mostly Cloudy"
"1985-06-13 07:00","1985","06","13","07:00","9.2","","5.0","","75","","32","","28","","40.2","","98.50","","","","","","Mostly Cloudy"
"1985-06-13 08:00","1985","06","13","08:00","9.7","","3.8","","66","","30","","28","","40.2","","98.57","","","","","","Mostly Cloudy"
"1985-06-13 09:00","1985","06","13","09:00","9.4","","4.2","","70","","30","","28","","40.2","","98.60","","","","","","Mostly Cloudy"
"1985-06-13 10:00","1985","06","13","10:00","11.3","","4.3","","62","","32","","28","","32.2","","98.60","","","","","","Rain Showers"
"1985-06-13 11:00","1985","06","13","11:00","10.7","","3.5","","61","","31","","28","","40.2","","98.63","","","","","","Cloudy"
"1985-06-13 12:00","1985","06","13","12:00","11.3","","4.8","","64","","29","","28","","40.2","","98.63","","","","","","Cloudy"
"1985-06-13 13:00","1985","06","13","13:00","11.9","","5.4","","64","","28","","28","","40.2","","98.63","","","","","","Mostly Cloudy"
"1985-06-13 14:00","1985","06","13","14:00","12.8","","5.7","","62","","29","","28","","40.2","","98.67","","","","","","Mostly Cloudy"
"1985-06-13 15:00","1985","06","13","15:00","12.8","","5.3","","60","","29","","31","","40.2","","98.73","","","","","","Cloudy"
"1985-06-13 16:00","1985","06","13","16:00","12.4","","5.1","","61","","31","","26","","40.2","","98.77","","","","","","Mostly Cloudy"
"1985-06-13 17:00","1985","06","13","17:00","13.1","","4.8","","57","","30","","26","","40.2","","98.80","","","","","","Mostly Cloudy"
"1985-06-13 18:00","1985","06","13","18:00","13.0","","6.2","","63","","29","","33","","40.2","","98.83","","","","","","Mostly Cloudy"
"1985-06-13 19:00","1985","06","13","19:00","12.5","","6.0","","65","","29","","20","","40.2","","98.87","","","","","","Cloudy"
"1985-06-13 20:00","1985","06","13","20:00","11.1","","4.6","","64","","31","","20","","40.2","","98.90","","","","","","Cloudy"
"1985-06-13 21:00","1985","06","13","21:00","9.1","","4.1","","71","","26","","7","","25.0","","98.93","","","","","","Mostly Cloudy"
"1985-06-13 22:00","1985","06","13","22:00","8.1","","4.8","","79","","25","","11","","25.0","","98.97","","","","","","Mostly Cloudy"
"1985-06-13 23:00","1985","06","13","23:00","8.9","","5.4","","79","","25","","9","","25.0","","99.03","","","","","","Mostly Cloudy"
"1985-06-14 00:00","1985","06","14","00:00","8.8","","5.9","","82","","27","","15","","25.0","","99.03","","","","","","Mostly Cloudy"
"1985-06-14 01:00","1985","06","14","01:00","9.0","","5.0","","76","","27","","13","","25.0","","99.03","","","","","","Cloudy"
"1985-06-14 02:00","1985","06","14","02:00","8.8","","4.5","","75","","28","","19","","25.0","","99.03","","","","","","Mostly Cloudy"
"1985-06-14 03:00","1985","06","14","03:00","7.3","","4.2","","81","","29","","11","","25.0","","99.10","","","","","","Mainly Clear"
"1985-06-14 04:00","1985","06","14","04:00","6.8","","4.1","","83","","28","","11","","25.0","","99.10","","","","","","Mostly Cloudy"
"1985-06-14 05:00","1985","06","14","05:00","7.7","","4.6","","81","","25","","13","","40.2","","99.13","","","","","","Mainly Clear"
"1985-06-14 06:00","1985","06","14","06:00","8.8","","5.9","","82","","28","","9","","40.2","","99.23","","","","","","Mainly Clear"
"1985-06-14 07:00","1985","06","14","07:00","11.2","","8.0","","81","","27","","15","","40.2","","99.27","","","","","","Mostly Cloudy"
"1985-06-14 08:00","1985","06","14","08:00","12.6","","5.1","","60","","30","","15","","40.2","","99.30","","","","","","Mostly Cloudy"
"1985-06-14 09:00","1985","06","14","09:00","13.8","","5.1","","56","","29","","26","","40.2","","99.30","","","","","","Mostly Cloudy"
"1985-06-14 10:00","1985","06","14","10:00","15.6","","6.1","","53","","29","","30","","40.2","","99.30","","","","","","Mostly Cloudy"
"1985-06-14 11:00","1985","06","14","11:00","15.2","","5.5","","52","","30","","26","","40.2","","99.30","","","","","","Mostly Cloudy"
"1985-06-14 12:00","1985","06","14","12:00","16.5","","6.1","","50","","29","","26","","40.2","","99.30","","","","","","Mostly Cloudy"
"1985-06-14 13:00","1985","06","14","13:00","15.7","","5.7","","51","","29","","22","","40.2","","99.30","","","","","","Mostly Cloudy"
"1985-06-14 14:00","1985","06","14","14:00","17.2","","5.8","","47","","30","","22","","40.2","","99.30","","","","","","Mostly Cloudy"
"1985-06-14 15:00","1985","06","14","15:00","17.9","","6.7","","48","","27","","19","","40.2","","99.27","","","","","","Mostly Cloudy"
"1985-06-14 16:00","1985","06","14","16:00","19.0","","7.1","","46","","27","","22","","40.2","","99.23","","","","","","Mostly Cloudy"
"1985-06-14 17:00","1985","06","14","17:00","18.9","","6.2","","44","","27","","22","","40.2","","99.27","","","","","","Mainly Clear"
"1985-06-14 18:00","1985","06","14","18:00","18.4","","6.0","","44","","29","","22","","40.2","","99.30","","","","","","Mainly Clear"
"1985-06-14 19:00","1985","06","14","19:00","17.4","","5.5","","46","","31","","17","","40.2","","99.33","","","","","","Clear"
"1985-06-14 20:00","1985","06","14","20:00","14.3","","5.3","","55","","32","","13","","40.2","","99.40","","","","","","Clear"
"1985-06-14 21:00","1985","06","14","21:00","13.5","","5.9","","60","","32","","9","","25.0","","99.43","","","","","","Clear"
"1985-06-14 22:00","1985","06","14","22:00","12.6","","5.5","","62","","28","","7","","25.0","","99.47","","","","","","Clear"
"1985-06-14 23:00","1985","06","14","23:00","11.0","","5.1","","67","","29","","6","","25.0","","99.50","","","","","","Clear"
"1985-06-15 00:00","1985","06","15","00:00","8.0","","4.8","","80","","25","","6","","25.0","","99.53","","","","","","Clear"
"1985-06-15 01:00","1985","06","15","01:00","9.1","","5.0","","75","","26","","7","","25.0","","99.53","","","","","","Clear"
"1985-06-15 02:00","1985","06","15","02:00","8.7","","4.4","","74","","30","","7","","25.0","","99.50","","","","","","Clear"
"1985-06-15 03:00","1985","06","15","03:00","6.5","","4.4","","86","","33","","6","","25.0","","99.47","","","","","","Clear"
"1985-06-15 04:00","1985","06","15","04:00","6.0","","4.3","","89","","35","","6","","25.0","","99.47","","","","","","Clear"
"1985-06-15 05:00","1985","06","15","05:00","6.5","","4.9","","89","","","","0","","32.2","","99.50","","","","","","Mainly Clear"
"1985-06-15 06:00","1985","06","15","06:00","9.9","","6.9","","82","","","","0","","32.2","","99.50","","","","","","Mainly Clear"
"1985-06-15 07:00","1985","06","15","07:00","13.1","","7.9","","71","","14","","4","","24.1","","99.57","","","","","","Clear"
"1985-06-15 08:00","1985","06","15","08:00","14.8","","8.1","","64","","15","","7","","24.1","","99.57","","","","","","Mainly Clear"
"1985-06-15 09:00","1985","06","15","09:00","16.0","","7.7","","58","","13","","11","","24.1","","99.53","","","","","","Mainly Clear"
"1985-06-15 10:00","1985","06","15","10:00","17.6","","9.1","","57","","13","","7","","24.1","","99.50","","","","","","Mainly Clear"
"1985-06-15 11:00","1985","06","15","11:00","17.5","","9.5","","59","","13","","15","","24.1","","99.50","","","","","","Mostly Cloudy"
"1985-06-15 12:00","1985","06","15","12:00","17.0","","10.5","","66","","15","","13","","19.3","","99.47","","","","","","Mostly Cloudy"
"1985-06-15 13:00","1985","06","15","13:00","20.5","","12.4","","60","","15","","17","","19.3","","99.33","","","","","","Mostly Cloudy"
"1985-06-15 14:00","1985","06","15","14:00","18.8","","11.3","","62","","16","","17","","19.3","","99.33","","","","","","Mostly Cloudy"
"1985-06-15 15:00","1985","06","15","15:00","16.9","","10.5","","66","","13","","11","","16.1","","99.23","","","","","","Cloudy"
"1985-06-15 16:00","1985","06","15","16:00","18.0","","10.9","","63","","12","","11","","19.3","","99.20","","","","","","Cloudy"
"1985-06-15 17:00","1985","06","15","17:00","18.4","","11.1","","63","","12","","13","","19.3","","99.13","","","","","","Cloudy"
"1985-06-15 18:00","1985","06","15","18:00","18.5","","9.9","","57","","19","","13","","19.3","","99.20","","","","","","Cloudy"
"1985-06-15 19:00","1985","06","15","19:00","14.5","","11.8","","84","","20","","11","","11.3","","99.20","","","","","","Rain Showers"
"1985-06-15 20:00","1985","06","15","20:00","14.8","","13.0","","89","","19","","9","","8.0","","99.20","","","","","","Rain,Fog"
"1985-06-15 21:00","1985","06","15","21:00","14.5","","13.5","","94","","12","","9","","8.0","","99.17","","","","","","Rain,Fog"
"1985-06-15 22:00","1985","06","15","22:00","14.3","","13.5","","95","","11","","7","","8.0","","99.10","","","","","","Rain,Fog"
"1985-06-15 23:00","1985","06","15","23:00","13.8","","13.3","","97","","11","","9","","4.0","","99.07","","","","","","Rain,Fog"
"1985-06-16 00:00","1985","06","16","00:00","13.8","","13.3","","97","","11","","7","","4.0","","98.97","","","","","","Rain,Fog"
"1985-06-16 01:00","1985","06","16","01:00","13.8","","13.7","","100","","15","","9","","4.0","","98.90","","","","","","Rain,Fog"
"1985-06-16 02:00","1985","06","16","02:00","13.9","","13.7","","99","","11","","20","","3.2","","98.80","","","","","","Rain,Drizzle,Fog"
"1985-06-16 03:00","1985","06","16","03:00","13.7","","13.2","","97","","11","","19","","3.2","","98.73","","","","","","Rain,Drizzle,Fog"
"1985-06-16 04:00","1985","06","16","04:00","13.3","","13.3","","100","","10","","13","","3.2","","98.70","","","","","","Rain,Drizzle,Fog"
"1985-06-16 05:00","1985","06","16","05:00","13.1","","12.7","","97","","10","","13","","1.0","","98.70","","","","","","Drizzle,Fog"
"1985-06-16 06:00","1985","06","16","06:00","13.3","","13.3","","100","","7","","13","","2.4","","98.70","","","","","","Drizzle,Fog"
"1985-06-16 07:00","1985","06","16","07:00","13.5","","13.2","","98","","9","","11","","4.0","","98.70","","","","","","Fog"
"1985-06-16 08:00","1985","06","16","08:00","13.8","","13.3","","97","","8","","11","","4.8","","98.67","","","","","","Fog"
"1985-06-16 09:00","1985","06","16","09:00","14.2","","13.3","","94","","7","","11","","3.2","","98.67","","","","","","Fog"
"1985-06-16 10:00","1985","06","16","10:00","15.3","","14.2","","93","","8","","11","","4.8","","98.67","","","","","","Fog"
"1985-06-16 11:00","1985","06","16","11:00","15.7","","13.5","","87","","11","","6","","6.4","","98.63","","","","","","Fog"
"1985-06-16 12:00","1985","06","16","12:00","16.6","","14.3","","86","","10","","4","","6.4","","98.63","","","","","","Drizzle,Fog"
"1985-06-16 13:00","1985","06","16","13:00","17.4","","14.6","","84","","2","","6","","6.4","","98.57","","","","","","Fog"
"1985-06-16 14:00","1985","06","16","14:00","17.1","","14.4","","84","","1","","11","","6.4","","98.60","","","","","","Fog"
"1985-06-16 15:00","1985","06","16","15:00","17.9","","14.8","","82","","35","","7","","6.4","","98.57","","","","","","Rain,Fog"
"1985-06-16 16:00","1985","06","16","16:00","17.0","","15.8","","93","","35","","15","","4.0","","98.57","","","","","","Rain,Fog"
"1985-06-16 17:00","1985","06","16","17:00","18.0","","16.5","","91","","35","","11","","4.8","","98.57","","","","","","Fog"
"1985-06-16 18:00","1985","06","16","18:00","18.6","","16.7","","89","","2","","11","","8.0","","98.60","","","","","","Fog"
"1985-06-16 19:00","1985","06","16","19:00","18.0","","14.8","","81","","36","","15","","16.1","","98.63","","","","","","Mostly Cloudy"
"1985-06-16 20:00","1985","06","16","20:00","17.0","","13.8","","81","","34","","13","","16.1","","98.70","","","","","","Cloudy"
"1985-06-16 21:00","1985","06","16","21:00","15.9","","14.1","","89","","1","","13","","12.9","","98.73","","","","","","Mostly Cloudy"
"1985-06-16 22:00","1985","06","16","22:00","14.4","","12.8","","90","","31","","7","","12.9","","98.80","","","","","","Mostly Cloudy"
"1985-06-16 23:00","1985","06","16","23:00","13.2","","11.6","","90","","33","","7","","12.9","","98.83","","","","","","Mainly Clear"
"1985-06-17 00:00","1985","06","17","00:00","12.8","","12.0","","95","","33","","6","","9.7","","98.90","","","","","","Fog"
"1985-06-17 01:00","1985","06","17","01:00","12.4","","11.8","","96","","","","0","","6.4","","98.90","","","","","","Fog"
"1985-06-17 02:00","1985","06","17","02:00","13.2","","12.0","","92","","","","0","","6.4","","98.87","","","","","","Fog"
"1985-06-17 03:00","1985","06","17","03:00","13.3","","12.5","","95","","","","0","","8.0","","98.87","","","","","","Fog"
"1985-06-17 04:00","1985","06","17","04:00","13.7","","12.5","","92","","33","","4","","9.7","","98.87","","","","","","Fog"
"1985-06-17 05:00","1985","06","17","05:00","14.0","","13.3","","95","","31","","4","","9.7","","98.90","","","","","","Fog"
"1985-06-17 06:00","1985","06","17","06:00","14.0","","13.3","","95","","24","","6","","8.0","","99.00","","","","","","Fog"
"1985-06-17 07:00","1985","06","17","07:00","14.4","","13.5","","94","","","","0","","9.7","","99.03","","","","","","Fog"
"1985-06-17 08:00","1985","06","17","08:00","15.9","","13.7","","87","","21","","4","","9.7","","99.03","","","","","","Fog"
"1985-06-17 09:00","1985","06","17","09:00","16.9","","13.8","","82","","19","","9","","8.0","","99.00","","","","","","Haze"
"1985-06-17 10:00","1985","06","17","10:00","17.5","","13.6","","78","","22","","17","","12.9","","98.97","","","","","","Mostly Cloudy"
"1985-06-17 11:00","1985","06","17","11:00","18.5","","13.7","","74","","19","","9","","16.1","","98.90","","","","","","Mostly Cloudy"
"1985-06-17 12:00","1985","06","17","12:00","19.0","","13.2","","69","","20","","17","","16.1","","98.87","","","","","","Cloudy"
"1985-06-17 13:00","1985","06","17","13:00","20.0","","14.3","","70","","16","","13","","12.9","","98.73","","","","","","Mostly Cloudy"
"1985-06-17 14:00","1985","06","17","14:00","19.5","","14.4","","72","","15","","22","","12.9","","98.70","","","","","","Mostly Cloudy"
"1985-06-17 15:00","1985","06","17","15:00","19.0","","14.2","","74","","16","","19","","8.0","","98.63","","","","","","Haze"
"1985-06-17 16:00","1985","06","17","16:00","19.6","","14.8","","74","","15","","17","","6.4","","98.50","","","","","","Haze"
"1985-06-17 17:00","1985","06","17","17:00","18.1","","17.1","","94","","18","","15","","3.2","","98.43","","","","","","Rain Showers,Fog"
"1985-06-17 18:00","1985","06","17","18:00","18.0","","17.4","","96","","19","","11","","4.8","","98.40","","","","","","Rain Showers,Fog"
"1985-06-17 19:00","1985","06","17","19:00","18.0","","17.4","","96","","14","","13","","2.4","","98.30","","","","","","Moderate Rain Showers,Fog"
"1985-06-17 20:00","1985","06","17","20:00","16.2","","16.2","","100","","15","","11","","1.2","","98.33","","","","","","Rain Showers,Fog"
"1985-06-17 21:00","1985","06","17","21:00","15.8","","15.8","","100","","15","","6","","2.8","","98.30","","","","","","Fog"
"1985-06-17 22:00","1985","06","17","22:00","15.8","","15.8","","100","","15","","6","","1.6","","98.30","","","","","","Fog"
"1985-06-17 23:00","1985","06","17","23:00","17.0","","16.7","","98","","23","","7","","4.0","","98.23","","","","","","Fog"
"1985-06-18 00:00","1985","06","18","00:00","17.3","","16.6","","96","","27","","9","","6.4","","98.13","","","","","","Fog"
"1985-06-18 01:00","1985","06","18","01:00","15.8","","15.0","","95","","25","","11","","6.4","","98.13","","","","","","Fog"
"1985-06-18 02:00","1985","06","18","02:00","14.3","","14.3","","100","","28","","7","","3.6","","98.07","","","","","","Fog"
"1985-06-18 03:00","1985","06","18","03:00","14.3","","14.3","","100","","33","","4","","1.0","","98.00","","","","","","Fog"
"1985-06-18 04:00","1985","06","18","04:00","12.7","","12.7","","100","","27","","9","","3.6","","98.03","","","","","","Fog"
"1985-06-18 05:00","1985","06","18","05:00","13.0","","13.0","","100","","","","0","","1.6","","98.00","","","","","","Fog"
"1985-06-18 06:00","1985","06","18","06:00","15.6","","14.9","","95","","23","","9","","4.0","","97.97","","","","","","Fog"
"1985-06-18 07:00","1985","06","18","07:00","16.1","","13.7","","86","","20","","13","","8.0","","97.97","","","","","","Fog"
"1985-06-18 08:00","1985","06","18","08:00","17.2","","12.7","","75","","20","","24","","16.1","","97.90","","","","","","Mostly Cloudy"
"1985-06-18 09:00","1985","06","18","09:00","17.8","","12.0","","69","","25","","26","","24.1","","97.90","","","","","","Mostly Cloudy"
"1985-06-18 10:00","1985","06","18","10:00","18.8","","12.1","","65","","24","","30","","32.2","","97.90","","","","","","Mostly Cloudy"
"1985-06-18 11:00","1985","06","18","11:00","19.2","","9.7","","54","","25","","37","","40.2","","97.90","","","","","","Mainly Clear"
"1985-06-18 12:00","1985","06","18","12:00","18.6","","9.5","","55","","26","","30","","40.2","","98.00","","","","","","Mainly Clear"
"1985-06-18 13:00","1985","06","18","13:00","18.2","","8.9","","54","","26","","33","","40.2","","98.07","","","","","","Mostly Cloudy"
"1985-06-18 14:00","1985","06","18","14:00","19.3","","9.5","","53","","26","","30","","40.2","","98.10","","","","","","Mostly Cloudy"
"1985-06-18 15:00","1985","06","18","15:00","19.6","","9.1","","51","","26","","33","","40.2","","98.13","","","","","","Mainly Clear"
"1985-06-18 16:00","1985","06","18","16:00","19.1","","8.5","","50","","25","","30","","40.2","","98.10","","","","","","Mainly Clear"
"1985-06-18 17:00","1985","06","18","17:00","17.8","","8.5","","55","","27","","33","","40.2","","98.10","","","","","","Mostly Cloudy"
"1985-06-18 18:00","1985","06","18","18:00","16.4","","9.5","","64","","24","","28","","40.2","","98.10","","","","","","Mostly Cloudy"
"1985-06-18 19:00","1985","06","18","19:00","14.7","","7.5","","62","","28","","26","","40.2","","98.13","","","","","","Mainly Clear"
"1985-06-18 20:00","1985","06","18","20:00","13.0","","9.1","","77","","27","","15","","25.0","","98.20","","","","","","Mainly Clear"
"1985-06-18 21:00","1985","06","18","21:00","13.0","","8.3","","73","","26","","15","","25.0","","98.23","","","","","","Mainly Clear"
"1985-06-18 22:00","1985","06","18","22:00","12.2","","7.9","","75","","26","","15","","25.0","","98.27","","","","","","Clear"
"1985-06-18 23:00","1985","06","18","23:00","12.4","","7.7","","73","","26","","15","","25.0","","98.27","","","","","","Mainly Clear"
"1985-06-19 00:00","1985","06","19","00:00","12.4","","8.5","","77","","27","","22","","25.0","","98.23","","","","","","Mainly Clear"
"1985-06-19 01:00","1985","06","19","01:00","12.2","","8.3","","77","","27","","19","","25.0","","98.20","","","","","","Mainly Clear"
"1985-06-19 02:00","1985","06","19","02:00","11.4","","7.8","","78","","25","","9","","25.0","","98.27","","","","","","Mainly Clear"
"1985-06-19 03:00","1985","06","19","03:00","10.5","","7.9","","84","","23","","13","","25.0","","98.23","","","","","","Mainly Clear"
"1985-06-19 04:00","1985","06","19","04:00","10.4","","7.9","","84","","25","","7","","25.0","","98.27","","","","","","Mainly Clear"
"1985-06-19 05:00","1985","06","19","05:00","9.7","","7.2","","84","","24","","6","","32.2","","98.30","","","","","","Mostly Cloudy"
"1985-06-19 06:00","1985","06","19","06:00","11.8","","9.1","","84","","27","","6","","32.2","","98.30","","","","","","Mainly Clear"
"1985-06-19 07:00","1985","06","19","07:00","13.4","","10.0","","80","","26","","19","","40.2","","98.37","","","","","","Mainly Clear"
"1985-06-19 08:00","1985","06","19","08:00","14.8","","10.1","","74","","26","","28","","40.2","","98.33","","","","","","Mainly Clear"
"1985-06-19 09:00","1985","06","19","09:00","15.8","","10.1","","69","","27","","26","","40.2","","98.40","","","","","","Mostly Cloudy"
"1985-06-19 10:00","1985","06","19","10:00","14.8","","8.1","","64","","27","","39","","40.2","","98.40","","","","","","Mainly Clear"
"1985-06-19 11:00","1985","06","19","11:00","16.3","","9.1","","63","","26","","33","","40.2","","98.43","","","","","","Mainly Clear"
"1985-06-19 12:00","1985","06","19","12:00","17.4","","9.9","","61","","26","","24","","40.2","","98.43","","","","","","Mainly Clear"
"1985-06-19 13:00","1985","06","19","13:00","17.8","","10.9","","64","","26","","26","","40.2","","98.47","","","","","","Mostly Cloudy"
"1985-06-19 14:00","1985","06","19","14:00","18.4","","9.5","","56","","27","","31","","40.2","","98.47","","","","","","Mostly Cloudy"
"1985-06-19 15:00","1985","06","19","15:00","18.0","","10.5","","62","","27","","26","","40.2","","98.53","","","","","","Mostly Cloudy"
"1985-06-19 16:00","1985","06","19","16:00","19.0","","10.5","","58","","28","","26","","40.2","","98.57","","","","","","Mostly Cloudy"
"1985-06-19 17:00","1985","06","19","17:00","18.5","","10.7","","61","","30","","30","","40.2","","98.57","","","","","","Mostly Cloudy"
"1985-06-19 18:00","1985","06","19","18:00","19.4","","10.4","","56","","30","","26","","40.2","","98.60","","","","","","Mainly Clear"
"1985-06-19 19:00","1985","06","19","19:00","19.9","","16.0","","78","","29","","22","","40.2","","98.63","","","","","","Mainly Clear"
"1985-06-19 20:00","1985","06","19","20:00","16.5","","9.5","","63","","29","","15","","40.2","","98.70","","","","","","Mostly Cloudy"
"1985-06-19 21:00","1985","06","19","21:00","14.6","","9.2","","70","","29","","13","","25.0","","98.73","","","","","","Mostly Cloudy"
"1985-06-19 22:00","1985","06","19","22:00","13.5","","8.8","","73","","30","","9","","25.0","","98.77","","","","","","Mainly Clear"
"1985-06-19 23:00","1985","06","19","23:00","11.9","","8.7","","81","","28","","9","","25.0","","98.80","","","","","","Mainly Clear"
"1985-06-20 00:00","1985","06","20","00:00","10.7","","7.9","","83","","27","","11","","25.0","","98.80","","","","","","Mainly Clear"
"1985-06-20 01:00","1985","06","20","01:00","11.0","","8.0","","82","","26","","11","","25.0","","98.77","","","","","","Mainly Clear"
"1985-06-20 02:00","1985","06","20","02:00","9.9","","7.4","","84","","28","","13","","25.0","","98.77","","","","","","Mainly Clear"
"1985-06-20 03:00","1985","06","20","03:00","9.4","","6.8","","84","","31","","13","","25.0","","98.80","","","","","","Mainly Clear"
"1985-06-20 04:00","1985","06","20","04:00","9.7","","6.8","","82","","31","","9","","25.0","","98.80","","","","","","Mainly Clear"
"1985-06-20 05:00","1985","06","20","05:00","10.5","","8.3","","86","","31","","11","","40.2","","98.83","","","","","","Mostly Cloudy"
"1985-06-20 06:00","1985","06","20","06:00","12.3","","9.3","","82","","29","","13","","40.2","","98.87","","","","","","Rain Showers"
"1985-06-20 07:00","1985","06","20","07:00","14.6","","9.2","","70","","30","","7","","40.2","","98.90","","","","","","Mostly Cloudy"
"1985-06-20 08:00","1985","06","20","08:00","15.1","","9.4","","69","","23","","6","","40.2","","98.97","","","","","","Mostly Cloudy"
"1985-06-20 09:00","1985","06","20","09:00","16.4","","10.3","","67","","24","","11","","40.2","","99.03","","","","","","Mostly Cloudy"
"1985-06-20 10:00","1985","06","20","10:00","18.8","","9.7","","56","","26","","15","","40.2","","99.07","","","","","","Mostly Cloudy"
"1985-06-20 11:00","1985","06","20","11:00","16.7","","7.9","","56","","26","","19","","40.2","","99.10","","","","","","Mostly Cloudy"
"1985-06-20 12:00","1985","06","20","12:00","19.0","","9.7","","55","","25","","22","","40.2","","99.10","","","","","","Mainly Clear"
"1985-06-20 13:00","1985","06","20","13:00","21.4","","12.0","","55","","21","","17","","40.2","","99.00","","","","","","Thunderstorms"
"1985-06-20 14:00","1985","06","20","14:00","16.4","","9.9","","65","","9","","15","","40.2","","99.00","","","","","","Thunderstorms"
"1985-06-20 15:00","1985","06","20","15:00","16.3","","9.9","","66","","14","","20","","40.2","","99.07","","","","","","Mostly Cloudy"
"1985-06-20 16:00","1985","06","20","16:00","18.1","","8.5","","53","","16","","20","","40.2","","99.10","","","","","","Mostly Cloudy"
"1985-06-20 17:00","1985","06","20","17:00","18.8","","8.9","","53","","17","","20","","40.2","","99.10","","","","","","Mostly Cloudy"
"1985-06-20 18:00","1985","06","20","18:00","17.8","","9.7","","59","","16","","13","","40.2","","99.13","","","","","","Mainly Clear"
"1985-06-20 19:00","1985","06","20","19:00","17.5","","11.1","","66","","15","","11","","40.2","","99.20","","","","","","Mainly Clear"
"1985-06-20 20:00","1985","06","20","20:00","15.8","","10.9","","73","","19","","11","","40.2","","99.23","","","","","","Mainly Clear"
"1985-06-20 21:00","1985","06","20","21:00","15.4","","10.7","","74","","","","0","","25.0","","99.30","","","","","","Mainly Clear"
"1985-06-20 22:00","1985","06","20","22:00","12.8","","9.8","","82","","27","","6","","25.0","","99.33","","","","","","Clear"
"1985-06-20 23:00","1985","06","20","23:00","12.2","","8.7","","79","","29","","4","","25.0","","99.37","","","","","","Clear"
"1985-06-21 00:00","1985","06","21","00:00","12.0","","8.3","","78","","32","","4","","25.0","","99.40","","","","","","Clear"
"1985-06-21 01:00","1985","06","21","01:00","10.6","","6.3","","75","","","","0","","25.0","","99.40","","","","","","Clear"
"1985-06-21 02:00","1985","06","21","02:00","9.4","","5.6","","77","","29","","2","","25.0","","99.47","","","","","","Clear"
"1985-06-21 03:00","1985","06","21","03:00","9.1","","5.9","","80","","33","","4","","25.0","","99.50","","","","","","Clear"
"1985-06-21 04:00","1985","06","21","04:00","6.5","","4.4","","86","","35","","6","","25.0","","99.50","","","","","","Clear"
"1985-06-21 05:00","1985","06","21","05:00","7.3","","5.1","","86","","34","","4","","40.2","","99.57","","","","","","Clear"
"1985-06-21 06:00","1985","06","21","06:00","10.1","","6.5","","78","","","","0","","40.2","","99.60","","","","","","Clear"
"1985-06-21 07:00","1985","06","21","07:00","13.4","","7.6","","68","","14","","6","","32.2","","99.67","","","","","","Mainly Clear"
"1985-06-21 08:00","1985","06","21","08:00","16.2","","5.9","","50","","13","","4","","32.2","","99.70","","","","","","Mainly Clear"
"1985-06-21 09:00","1985","06","21","09:00","18.9","","9.3","","54","","17","","4","","32.2","","99.70","","","","","","Mainly Clear"
"1985-06-21 10:00","1985","06","21","10:00","20.1","","9.8","","51","","16","","11","","24.1","","99.70","","","","","","Mainly Clear"
"1985-06-21 11:00","1985","06","21","11:00","21.4","","10.4","","50","","17","","13","","24.1","","99.70","","","","","","Mainly Clear"
"1985-06-21 12:00","1985","06","21","12:00","21.9","","10.3","","48","","15","","17","","24.1","","99.63","","","","","","Mostly Cloudy"
"1985-06-21 13:00","1985","06","21","13:00","22.2","","8.5","","41","","14","","24","","40.2","","99.60","","","","","","Mainly Clear"
"1985-06-21 14:00","1985","06","21","14:00","23.0","","11.6","","49","","14","","22","","40.2","","99.60","","25","","","","Mainly Clear"
"1985-06-21 15:00","1985","06","21","15:00","22.7","","8.8","","41","","15","","22","","32.2","","99.60","","","","","","Mostly Cloudy"
"1985-06-21 16:00","1985","06","21","16:00","22.9","","9.5","","43","","15","","24","","32.2","","99.57","","","","","","Mostly Cloudy"
"1985-06-21 17:00","1985","06","21","17:00","22.4","","9.7","","45","","13","","20","","32.2","","99.57","","","","","","Mainly Clear"
"1985-06-21 18:00","1985","06","21","18:00","21.3","","10.0","","49","","13","","17","","32.2","","99.53","","","","","","Mainly Clear"
"1985-06-21 19:00","1985","06","21","19:00","19.3","","10.0","","55","","14","","15","","32.2","","99.57","","","","","","Mainly Clear"
"1985-06-21 20:00","1985","06","21","20:00","18.1","","8.9","","55","","14","","15","","32.2","","99.57","","","","","","Mostly Cloudy"
"1985-06-21 21:00","1985","06","21","21:00","17.0","","9.7","","62","","13","","13","","25.0","","99.57","","","","","","Mostly Cloudy"
"1985-06-21 22:00","1985","06","21","22:00","16.5","","9.5","","63","","13","","9","","25.0","","99.60","","","","","","Mostly Cloudy"
"1985-06-21 23:00","1985","06","21","23:00","16.7","","9.5","","62","","11","","11","","25.0","","99.57","","","","","","Mostly Cloudy"
"1985-06-22 00:00","1985","06","22","00:00","16.8","","10.1","","65","","11","","6","","24.1","","99.50","","","","","","Mostly Cloudy"
"1985-06-22 01:00","1985","06","22","01:00","17.2","","10.1","","63","","12","","6","","24.1","","99.50","","","","","","Mostly Cloudy"
"1985-06-22 02:00","1985","06","22","02:00","16.9","","10.9","","68","","14","","9","","24.1","","99.47","","","","","","Cloudy"
"1985-06-22 03:00","1985","06","22","03:00","15.7","","11.1","","74","","14","","7","","19.3","","99.43","","","","","","Mostly Cloudy"
"1985-06-22 04:00","1985","06","22","04:00","15.3","","11.8","","80","","15","","9","","16.1","","99.43","","","","","","Mostly Cloudy"
"1985-06-22 05:00","1985","06","22","05:00","15.4","","12.9","","85","","14","","11","","12.9","","99.43","","","","","","Cloudy"
"1985-06-22 06:00","1985","06","22","06:00","16.1","","13.0","","82","","14","","15","","9.7","","99.37","","","","","","Haze"
"1985-06-22 07:00","1985","06","22","07:00","18.0","","13.1","","73","","15","","15","","9.7","","99.30","","","","","","Haze"
"1985-06-22 08:00","1985","06","22","08:00","20.6","","14.5","","68","","17","","20","","11.3","","99.30","","","","","","Mostly Cloudy"
"1985-06-22 09:00","1985","06","22","09:00","23.0","","13.9","","57","","18","","28","","12.9","","99.23","","26","","","","Mostly Cloudy"
"1985-06-22 10:00","1985","06","22","10:00","23.5","","14.5","","57","","17","","30","","16.1","","99.13","","27","","","","Cloudy"
"1985-06-22 11:00","1985","06","22","11:00","25.3","","15.1","","53","","18","","41","","16.1","","99.10","","29","","","","Cloudy"
"1985-06-22 12:00","1985","06","22","12:00","26.5","","14.9","","49","","18","","37","","19.3","","99.03","","30","","","","Mostly Cloudy"
"1985-06-22 13:00","1985","06","22","13:00","25.8","","15.0","","51","","18","","37","","19.3","","98.97","","30","","","","Cloudy"
"1985-06-22 14:00","1985","06","22","14:00","21.7","","17.3","","76","","23","","28","","6.4","","98.97","","27","","","","Rain Showers,Haze"
"1985-06-22 15:00","1985","06","22","15:00","19.5","","18.6","","95","","20","","33","","3.2","","99.03","","","","","","Moderate Rain Showers,Fog"
"1985-06-22 16:00","1985","06","22","16:00","19.7","","18.6","","93","","20","","24","","4.8","","99.03","","","","","","Rain Showers,Fog"
"1985-06-22 17:00","1985","06","22","17:00","19.5","","18.3","","93","","21","","22","","8.0","","99.03","","","","","","Rain Showers,Fog"
"1985-06-22 18:00","1985","06","22","18:00","20.2","","18.2","","88","","27","","11","","12.9","","99.07","","26","","","","Rain Showers"
"1985-06-22 19:00","1985","06","22","19:00","20.9","","17.7","","82","","21","","17","","11.3","","99.07","","27","","","","Mainly Clear"
"1985-06-22 20:00","1985","06","22","20:00","20.0","","17.3","","84","","21","","17","","9.7","","99.10","","25","","","","Haze"
"1985-06-22 21:00","1985","06","22","21:00","19.0","","17.5","","91","","19","","11","","8.0","","99.20","","","","","","Fog"
"1985-06-22 22:00","1985","06","22","22:00","18.3","","17.6","","96","","19","","11","","8.0","","99.23","","","","","","Fog"
"1985-06-22 23:00","1985","06","22","23:00","17.5","","16.6","","95","","19","","11","","8.0","","99.23","","","","","","Fog"
"1985-06-23 00:00","1985","06","23","00:00","17.6","","15.6","","88","","18","","11","","6.4","","99.27","","","","","","Fog"
"1985-06-23 01:00","1985","06","23","01:00","16.5","","14.6","","89","","18","","11","","19.3","","99.30","","","","","","Clear"
"1985-06-23 02:00","1985","06","23","02:00","15.5","","14.2","","92","","19","","11","","19.3","","99.30","","","","","","Mainly Clear"
"1985-06-23 03:00","1985","06","23","03:00","15.4","","13.2","","87","","20","","11","","25.0","","99.30","","","","","","Mainly Clear"
"1985-06-23 04:00","1985","06","23","04:00","15.0","","12.0","","82","","21","","13","","25.0","","99.27","","","","","","Mainly Clear"
"1985-06-23 05:00","1985","06","23","05:00","13.5","","11.5","","88","","24","","7","","24.1","","99.30","","","","","","Clear"
"1985-06-23 06:00","1985","06","23","06:00","15.5","","12.2","","81","","21","","7","","32.2","","99.33","","","","","","Mainly Clear"
"1985-06-23 07:00","1985","06","23","07:00","18.1","","12.4","","69","","23","","19","","24.1","","99.33","","","","","","Mostly Cloudy"
"1985-06-23 08:00","1985","06","23","08:00","20.0","","14.7","","72","","24","","22","","32.2","","99.33","","","","","","Mainly Clear"
"1985-06-23 09:00","1985","06","23","09:00","22.2","","14.8","","63","","24","","26","","32.2","","99.33","","26","","","","Mainly Clear"
"1985-06-23 10:00","1985","06","23","10:00","24.3","","15.3","","57","","25","","26","","32.2","","99.33","","28","","","","Mainly Clear"
"1985-06-23 11:00","1985","06","23","11:00","25.1","","14.5","","52","","24","","26","","32.2","","99.33","","29","","","","Mostly Cloudy"
"1985-06-23 12:00","1985","06","23","12:00","25.7","","15.8","","54","","28","","20","","32.2","","99.33","","30","","","","Mainly Clear"
"1985-06-23 13:00","1985","06","23","13:00","25.8","","14.6","","50","","27","","15","","32.2","","99.23","","30","","","","Mainly Clear"
"1985-06-23 14:00","1985","06","23","14:00","26.3","","14.9","","50","","21","","28","","32.2","","99.17","","30","","","","Mostly Cloudy"
"1985-06-23 15:00","1985","06","23","15:00","26.3","","14.5","","48","","22","","35","","32.2","","99.20","","30","","","","Mostly Cloudy"
"1985-06-23 16:00","1985","06","23","16:00","25.5","","12.0","","43","","22","","31","","32.2","","99.13","","28","","","","Mostly Cloudy"
"1985-06-23 17:00","1985","06","23","17:00","24.6","","11.5","","44","","22","","37","","32.2","","99.07","","27","","","","Mostly Cloudy"
"1985-06-23 18:00","1985","06","23","18:00","25.5","","13.6","","48","","22","","31","","32.2","","99.00","","29","","","","Mainly Clear"
"1985-06-23 19:00","1985","06","23","19:00","25.1","","13.3","","48","","21","","31","","32.2","","98.97","","28","","","","Mainly Clear"
"1985-06-23 20:00","1985","06","23","20:00","24.1","","14.4","","55","","20","","22","","32.2","","98.90","","28","","","","Mainly Clear"
"1985-06-23 21:00","1985","06","23","21:00","22.2","","13.4","","57","","22","","24","","25.0","","98.93","","25","","","","Mainly Clear"
"1985-06-23 22:00","1985","06","23","22:00","21.5","","16.0","","71","","22","","19","","24.1","","98.93","","26","","","","Clear"
"1985-06-23 23:00","1985","06","23","23:00","20.3","","15.9","","76","","26","","13","","24.1","","99.00","","25","","","","Mainly Clear"
"1985-06-24 00:00","1985","06","24","00:00","19.1","","13.5","","70","","33","","37","","24.1","","99.17","","","","","","Mostly Cloudy"
"1985-06-24 01:00","1985","06","24","01:00","16.6","","12.2","","75","","33","","26","","24.1","","99.23","","","","","","Mostly Cloudy"
"1985-06-24 02:00","1985","06","24","02:00","13.8","","7.8","","67","","33","","11","","25.0","","99.27","","","","","","Mainly Clear"
"1985-06-24 03:00","1985","06","24","03:00","13.3","","9.2","","76","","32","","17","","25.0","","99.33","","","","","","Clear"
"1985-06-24 04:00","1985","06","24","04:00","10.4","","6.3","","76","","31","","9","","25.0","","99.40","","","","","","Clear"
"1985-06-24 05:00","1985","06","24","05:00","9.4","","6.4","","82","","29","","11","","40.2","","99.50","","","","","","Mainly Clear"
"1985-06-24 06:00","1985","06","24","06:00","11.6","","7.8","","77","","27","","9","","40.2","","99.60","","","","","","Mainly Clear"
"1985-06-24 07:00","1985","06","24","07:00","13.7","","6.8","","63","","29","","17","","40.2","","99.63","","","","","","Mainly Clear"
"1985-06-24 08:00","1985","06","24","08:00","14.8","","7.3","","61","","30","","22","","40.2","","99.70","","","","","","Mainly Clear"
"1985-06-24 09:00","1985","06","24","09:00","15.4","","7.0","","57","","29","","28","","40.2","","99.77","","","","","","Mostly Cloudy"
"1985-06-24 10:00","1985","06","24","10:00","16.1","","5.9","","51","","29","","30","","40.2","","99.80","","","","","","Mainly Clear"
"1985-06-24 11:00","1985","06","24","11:00","16.9","","5.8","","48","","29","","26","","40.2","","99.80","","","","","","Clear"
"1985-06-24 12:00","1985","06","24","12:00","17.9","","5.3","","43","","30","","31","","40.2","","99.80","","","","","","Clear"
"1985-06-24 13:00","1985","06","24","13:00","18.7","","3.4","","36","","31","","31","","40.2","","99.77","","","","","","Clear"
"1985-06-24 14:00","1985","06","24","14:00","19.4","","5.9","","41","","29","","35","","40.2","","99.77","","","","","","Clear"
"1985-06-24 15:00","1985","06","24","15:00","19.7","","6.4","","42","","29","","30","","40.2","","99.70","","","","","","Clear"
"1985-06-24 16:00","1985","06","24","16:00","19.7","","5.9","","40","","31","","31","","40.2","","99.70","","","","","","Clear"
"1985-06-24 17:00","1985","06","24","17:00","19.0","","4.7","","39","","29","","39","","40.2","","99.67","","","","","","Clear"
"1985-06-24 18:00","1985","06","24","18:00","17.8","","4.8","","42","","29","","28","","40.2","","99.70","","","","","","Clear"
"1985-06-24 19:00","1985","06","24","19:00","17.9","","4.8","","42","","30","","35","","40.2","","99.77","","","","","","Clear"
"1985-06-24 20:00","1985","06","24","20:00","15.7","","4.2","","46","","32","","17","","40.2","","99.80","","","","","","Clear"
"1985-06-24 21:00","1985","06","24","21:00","14.9","","4.5","","50","","3","","6","","25.0","","99.83","","","","","","Clear"
"1985-06-24 22:00","1985","06","24","22:00","14.0","","4.7","","54","","34","","6","","25.0","","99.87","","","","","","Clear"
"1985-06-24 23:00","1985","06","24","23:00","12.9","","5.3","","60","","24","","4","","25.0","","99.90","","","","","","Clear"
"1985-06-25 00:00","1985","06","25","00:00","11.6","","7.0","","73","","27","","7","","25.0","","99.90","","","","","","Mainly Clear"
"1985-06-25 01:00","1985","06","25","01:00","9.9","","5.7","","75","","28","","7","","25.0","","99.87","","","","","","Clear"
"1985-06-25 02:00","1985","06","25","02:00","9.5","","5.1","","74","","34","","13","","25.0","","99.87","","","","","","Mainly Clear"
"1985-06-25 03:00","1985","06","25","03:00","9.5","","5.1","","74","","29","","11","","25.0","","99.80","","","","","","Mainly Clear"
"1985-06-25 04:00","1985","06","25","04:00","8.0","","4.8","","80","","29","","11","","25.0","","99.87","","","","","","Mostly Cloudy"
"1985-06-25 05:00","1985","06","25","05:00","7.5","","4.2","","80","","30","","11","","24.1","","99.90","","","","","","Mainly Clear"
"1985-06-25 06:00","1985","06","25","06:00","9.5","","6.0","","79","","33","","15","","40.2","","99.93","","","","","","Mainly Clear"
"1985-06-25 07:00","1985","06","25","07:00","12.3","","7.3","","72","","34","","19","","40.2","","99.97","","","","","","Mainly Clear"
"1985-06-25 08:00","1985","06","25","08:00","15.0","","7.7","","62","","34","","15","","40.2","","99.97","","","","","","Mainly Clear"
"1985-06-25 09:00","1985","06","25","09:00","17.5","","7.8","","53","","31","","15","","40.2","","99.93","","","","","","Mainly Clear"
"1985-06-25 10:00","1985","06","25","10:00","18.8","","7.6","","48","","34","","22","","40.2","","99.87","","","","","","Mainly Clear"
"1985-06-25 11:00","1985","06","25","11:00","19.4","","6.9","","44","","33","","20","","40.2","","99.80","","","","","","Mainly Clear"
"1985-06-25 12:00","1985","06","25","12:00","20.3","","7.4","","43","","33","","22","","40.2","","99.77","","","","","","Mainly Clear"
"1985-06-25 13:00","1985","06","25","13:00","21.3","","9.2","","46","","29","","17","","40.2","","99.70","","","","","","Mainly Clear"
"1985-06-25 14:00","1985","06","25","14:00","21.3","","6.4","","38","","34","","20","","40.2","","99.63","","","","","","Mainly Clear"
"1985-06-25 15:00","1985","06","25","15:00","22.0","","7.6","","40","","29","","22","","40.2","","99.63","","","","","","Mostly Cloudy"
"1985-06-25 16:00","1985","06","25","16:00","21.9","","7.6","","40","","32","","26","","40.2","","99.60","","","","","","Mainly Clear"
"1985-06-25 17:00","1985","06","25","17:00","21.7","","5.4","","35","","1","","30","","40.2","","99.57","","","","","","Mostly Cloudy"
"1985-06-25 18:00","1985","06","25","18:00","19.8","","5.7","","40","","36","","26","","40.2","","99.60","","","","","","Mostly Cloudy"
"1985-06-25 19:00","1985","06","25","19:00","18.8","","4.2","","38","","35","","22","","40.2","","99.63","","","","","","Cloudy"
"1985-06-25 20:00","1985","06","25","20:00","17.1","","3.8","","41","","34","","15","","40.2","","99.60","","","","","","Mostly Cloudy"
"1985-06-25 21:00","1985","06","25","21:00","12.9","","6.2","","64","","32","","13","","25.0","","99.63","","","","","","Cloudy"
"1985-06-25 22:00","1985","06","25","22:00","13.1","","6.2","","63","","33","","15","","25.0","","99.63","","","","","","Cloudy"
"1985-06-25 23:00","1985","06","25","23:00","11.0","","6.8","","75","","32","","15","","25.0","","99.63","","","","","","Mainly Clear"
"1985-06-26 00:00","1985","06","26","00:00","10.3","","6.7","","79","","34","","15","","25.0","","99.70","","","","","","Mainly Clear"
"1985-06-26 01:00","1985","06","26","01:00","10.9","","6.4","","74","","35","","17","","25.0","","99.70","","","","","","Mainly Clear"
"1985-06-26 02:00","1985","06","26","02:00","10.2","","6.1","","76","","34","","15","","25.0","","99.70","","","","","","Clear"
"1985-06-26 03:00","1985","06","26","03:00","9.5","","6.4","","81","","34","","17","","25.0","","99.77","","","","","","Clear"
"1985-06-26 04:00","1985","06","26","04:00","9.5","","6.8","","83","","1","","15","","25.0","","99.87","","","","","","Clear"
"1985-06-26 05:00","1985","06","26","05:00","9.3","","6.8","","84","","33","","11","","25.0","","99.90","","","","","","Mainly Clear"
"1985-06-26 06:00","1985","06","26","06:00","10.0","","7.4","","84","","1","","11","","40.2","","99.93","","","","","","Mainly Clear"
"1985-06-26 07:00","1985","06","26","07:00","12.2","","5.8","","65","","1","","11","","40.2","","99.97","","","","","","Clear"
"1985-06-26 08:00","1985","06","26","08:00","14.4","","6.2","","58","","6","","9","","40.2","","99.97","","","","","","Mainly Clear"
"1985-06-26 09:00","1985","06","26","09:00","15.7","","6.1","","53","","5","","6","","40.2","","99.97","","","","","","Mainly Clear"
"1985-06-26 10:00","1985","06","26","10:00","16.2","","5.9","","50","","29","","9","","40.2","","99.97","","","","","","Mainly Clear"
"1985-06-26 11:00","1985","06","26","11:00","18.1","","7.2","","49","","30","","13","","40.2","","99.93","","","","","","Mainly Clear"
"1985-06-26 12:00","1985","06","26","12:00","18.1","","6.2","","46","","12","","9","","40.2","","99.93","","","","","","Mainly Clear"
"1985-06-26 13:00","1985","06","26","13:00","19.9","","8.5","","48","","23","","13","","40.2","","99.90","","","","","","Mainly Clear"
"1985-06-26 14:00","1985","06","26","14:00","20.4","","8.3","","46","","30","","9","","40.2","","99.87","","","","","","Mainly Clear"
"1985-06-26 15:00","1985","06","26","15:00","20.6","","7.4","","42","","18","","9","","40.2","","99.87","","","","","","Mainly Clear"
"1985-06-26 16:00","1985","06","26","16:00","21.2","","7.6","","41","","11","","7","","40.2","","99.80","","","","","","Mainly Clear"
"1985-06-26 17:00","1985","06","26","17:00","21.1","","7.1","","40","","12","","4","","40.2","","99.80","","","","","","Mainly Clear"
"1985-06-26 18:00","1985","06","26","18:00","20.0","","7.1","","43","","14","","13","","40.2","","99.83","","","","","","Mainly Clear"
"1985-06-26 19:00","1985","06","26","19:00","19.7","","6.9","","43","","17","","7","","40.2","","99.87","","","","","","Clear"
"1985-06-26 20:00","1985","06","26","20:00","18.7","","7.8","","49","","20","","6","","40.2","","99.90","","","","","","Mainly Clear"
"1985-06-26 21:00","1985","06","26","21:00","17.0","","7.6","","54","","18","","4","","25.0","","99.97","","","","","","Clear"
"1985-06-26 22:00","1985","06","26","22:00","16.6","","7.9","","56","","19","","6","","25.0","","100.00","","","","","","Clear"
"1985-06-26 23:00","1985","06","26","23:00","14.8","","8.1","","64","","25","","4","","25.0","","100.00","","","","","","Mainly Clear"
"1985-06-27 00:00","1985","06","27","00:00","14.2","","10.9","","80","","32","","13","","25.0","","100.07","","","","","","Mostly Cloudy"
"1985-06-27 01:00","1985","06","27","01:00","12.8","","10.2","","84","","35","","9","","25.0","","100.10","","","","","","Mainly Clear"
"1985-06-27 02:00","1985","06","27","02:00","13.0","","9.4","","79","","34","","15","","25.0","","100.07","","","","","","Mostly Cloudy"
"1985-06-27 03:00","1985","06","27","03:00","13.0","","9.4","","79","","34","","15","","25.0","","100.03","","","","","","Mostly Cloudy"
"1985-06-27 04:00","1985","06","27","04:00","11.4","","9.0","","85","","34","","11","","25.0","","100.03","","","","","","Mainly Clear"
"1985-06-27 05:00","1985","06","27","05:00","11.2","","8.8","","85","","35","","13","","40.2","","100.07","","","","","","Clear"
"1985-06-27 06:00","1985","06","27","06:00","12.8","","10.6","","87","","34","","11","","40.2","","100.10","","","","","","Clear"
"1985-06-27 07:00","1985","06","27","07:00","15.2","","10.9","","75","","3","","11","","40.2","","100.13","","","","","","Mainly Clear"
"1985-06-27 08:00","1985","06","27","08:00","19.8","","11.0","","57","","6","","19","","40.2","","100.13","","","","","","Mainly Clear"
"1985-06-27 09:00","1985","06","27","09:00","20.4","","10.8","","54","","7","","19","","40.2","","100.13","","","","","","Mainly Clear"
"1985-06-27 10:00","1985","06","27","10:00","21.1","","11.4","","54","","8","","15","","40.2","","100.10","","","","","","Mainly Clear"
"1985-06-27 11:00","1985","06","27","11:00","22.2","","12.3","","53","","7","","17","","40.2","","100.07","","25","","","","Mainly Clear"
"1985-06-27 12:00","1985","06","27","12:00","21.9","","11.9","","53","","13","","20","","40.2","","100.03","","","","","","Mainly Clear"
"1985-06-27 13:00","1985","06","27","13:00","20.6","","10.0","","51","","12","","22","","40.2","","100.00","","","","","","Mainly Clear"
"1985-06-27 14:00","1985","06","27","14:00","21.5","","10.9","","51","","13","","11","","40.2","","99.97","","","","","","Clear"
"1985-06-27 15:00","1985","06","27","15:00","22.8","","11.6","","49","","15","","13","","40.2","","99.93","","25","","","","Clear"
"1985-06-27 16:00","1985","06","27","16:00","22.9","","11.2","","48","","16","","15","","40.2","","99.90","","25","","","","Mainly Clear"
"1985-06-27 17:00","1985","06","27","17:00","21.9","","10.3","","48","","15","","17","","40.2","","99.87","","","","","","Clear"
"1985-06-27 18:00","1985","06","27","18:00","21.8","","9.4","","45","","13","","17","","40.2","","99.90","","","","","","Clear"
"1985-06-27 19:00","1985","06","27","19:00","20.7","","7.8","","43","","11","","17","","40.2","","99.90","","","","","","Clear"
"1985-06-27 20:00","1985","06","27","20:00","19.5","","6.9","","44","","13","","13","","40.2","","99.93","","","","","","Mainly Clear"
"1985-06-27 21:00","1985","06","27","21:00","17.7","","7.8","","52","","15","","9","","25.0","","100.00","","","","","","Mostly Cloudy"
"1985-06-27 22:00","1985","06","27","22:00","17.6","","7.8","","53","","15","","4","","25.0","","100.03","","","","","","Mostly Cloudy"
"1985-06-27 23:00","1985","06","27","23:00","16.0","","8.9","","63","","17","","4","","25.0","","100.03","","","","","","Clear"
"1985-06-28 00:00","1985","06","28","00:00","15.6","","9.1","","65","","4","","11","","25.0","","100.00","","","","","","Mainly Clear"
"1985-06-28 01:00","1985","06","28","01:00","14.8","","9.8","","72","","1","","13","","25.0","","99.93","","","","","","Mainly Clear"
"1985-06-28 02:00","1985","06","28","02:00","13.7","","10.0","","78","","3","","11","","25.0","","99.90","","","","","","Clear"
"1985-06-28 03:00","1985","06","28","03:00","13.2","","9.4","","78","","2","","11","","25.0","","99.90","","","","","","Clear"
"1985-06-28 04:00","1985","06","28","04:00","13.5","","8.8","","73","","2","","11","","25.0","","99.87","","","","","","Clear"
"1985-06-28 05:00","1985","06","28","05:00","10.8","","9.6","","93","","33","","13","","40.2","","99.87","","","","","","Mainly Clear"
"1985-06-28 06:00","1985","06","28","06:00","11.2","","8.8","","85","","34","","13","","40.2","","99.87","","","","","","Mainly Clear"
"1985-06-28 07:00","1985","06","28","07:00","15.5","","11.1","","75","","1","","11","","40.2","","99.90","","","","","","Mainly Clear"
"1985-06-28 08:00","1985","06","28","08:00","18.3","","12.2","","68","","34","","15","","40.2","","99.87","","","","","","Mainly Clear"
"1985-06-28 09:00","1985","06","28","09:00","20.7","","10.8","","53","","3","","17","","40.2","","99.80","","","","","","Clear"
"1985-06-28 10:00","1985","06","28","10:00","22.6","","9.7","","44","","34","","17","","40.2","","99.73","","","","","","Mainly Clear"
"1985-06-28 11:00","1985","06","28","11:00","23.7","","8.8","","39","","35","","15","","40.2","","99.63","","","","","","Mainly Clear"
"1985-06-28 12:00","1985","06","28","12:00","24.0","","9.5","","40","","3","","17","","40.2","","99.57","","25","","","","Mostly Cloudy"
"1985-06-28 13:00","1985","06","28","13:00","24.4","","10.2","","41","","2","","26","","40.2","","99.53","","26","","","","Mostly Cloudy"
"1985-06-28 14:00","1985","06","28","14:00","24.1","","10.4","","42","","36","","24","","40.2","","99.50","","26","","","","Mostly Cloudy"
"1985-06-28 15:00","1985","06","28","15:00","24.2","","12.1","","47","","34","","28","","40.2","","99.43","","27","","","","Mostly Cloudy"
"1985-06-28 16:00","1985","06","28","16:00","24.0","","12.8","","50","","33","","26","","40.2","","99.40","","27","","","","Mostly Cloudy"
"1985-06-28 17:00","1985","06","28","17:00","23.9","","12.5","","49","","9","","22","","40.2","","99.43","","26","","","","Mostly Cloudy"
"1985-06-28 18:00","1985","06","28","18:00","21.8","","9.8","","46","","12","","11","","40.2","","99.43","","","","","","Mostly Cloudy"
"1985-06-28 19:00","1985","06","28","19:00","19.5","","10.4","","56","","15","","11","","40.2","","99.43","","","","","","Mostly Cloudy"
"1985-06-28 20:00","1985","06","28","20:00","18.7","","10.7","","60","","20","","6","","40.2","","99.47","","","","","","Mostly Cloudy"
"1985-06-28 21:00","1985","06","28","21:00","16.9","","13.1","","78","","26","","11","","25.0","","99.43","","","","","","Rain Showers"
"1985-06-28 22:00","1985","06","28","22:00","17.8","","12.4","","71","","18","","4","","25.0","","99.40","","","","","","Mostly Cloudy"
"1985-06-28 23:00","1985","06","28","23:00","16.5","","13.9","","85","","25","","6","","24.1","","99.53","","","","","","Mostly Cloudy"
"1985-06-29 00:00","1985","06","29","00:00","16.5","","13.6","","83","","28","","9","","25.0","","99.30","","","","","","Mostly Cloudy"
"1985-06-29 01:00","1985","06","29","01:00","17.1","","12.7","","75","","28","","7","","24.1","","99.23","","","","","","Rain Showers"
"1985-06-29 02:00","1985","06","29","02:00","16.2","","12.0","","76","","36","","7","","25.0","","99.20","","","","","","Mostly Cloudy"
"1985-06-29 03:00","1985","06","29","03:00","16.5","","13.9","","85","","31","","13","","25.0","","99.17","","","","","","Mostly Cloudy"
"1985-06-29 04:00","1985","06","29","04:00","15.2","","12.7","","85","","34","","11","","24.1","","99.20","","","","","","Mostly Cloudy"
"1985-06-29 05:00","1985","06","29","05:00","16.0","","14.4","","90","","29","","11","","24.1","","99.23","","","","","","Rain Showers"
"1985-06-29 06:00","1985","06","29","06:00","16.4","","13.9","","85","","35","","4","","40.2","","99.30","","","","","","Mostly Cloudy"
"1985-06-29 07:00","1985","06","29","07:00","18.9","","13.5","","71","","35","","6","","40.2","","99.33","","","","","","Mainly Clear"
"1985-06-29 08:00","1985","06","29","08:00","19.6","","13.7","","69","","32","","6","","40.2","","99.40","","","","","","Mostly Cloudy"
"1985-06-29 09:00","1985","06","29","09:00","19.8","","14.7","","73","","5","","9","","40.2","","99.40","","","","","","Mostly Cloudy"
"1985-06-29 10:00","1985","06","29","10:00","20.5","","14.2","","67","","31","","7","","40.2","","99.40","","","","","","Mostly Cloudy"
"1985-06-29 11:00","1985","06","29","11:00","21.1","","14.4","","66","","36","","11","","40.2","","99.43","","25","","","","Mostly Cloudy"
"1985-06-29 12:00","1985","06","29","12:00","18.2","","15.2","","83","","13","","13","","40.2","","99.50","","","","","","Mostly Cloudy"
"1985-06-29 13:00","1985","06","29","13:00","18.1","","15.2","","83","","11","","17","","32.2","","99.53","","","","","","Rain Showers"
"1985-06-29 14:00","1985","06","29","14:00","19.5","","16.8","","84","","13","","9","","40.2","","99.53","","","","","","Mostly Cloudy"
"1985-06-29 15:00","1985","06","29","15:00","20.8","","16.1","","75","","14","","19","","40.2","","99.53","","25","","","","Mostly Cloudy"
"1985-06-29 16:00","1985","06","29","16:00","18.4","","14.4","","78","","14","","15","","40.2","","99.63","","","","","","Rain Showers"
"1985-06-29 17:00","1985","06","29","17:00","19.1","","13.9","","72","","12","","15","","40.2","","99.67","","","","","","Mostly Cloudy"
"1985-06-29 18:00","1985","06","29","18:00","18.7","","13.7","","73","","15","","13","","32.2","","99.70","","","","","","Mostly Cloudy"
"1985-06-29 19:00","1985","06","29","19:00","18.7","","13.3","","71","","15","","11","","32.2","","99.77","","","","","","Mostly Cloudy"
"1985-06-29 20:00","1985","06","29","20:00","17.8","","13.8","","77","","","","0","","32.2","","99.83","","","","","","Mostly Cloudy"
"1985-06-29 21:00","1985","06","29","21:00","16.3","","13.2","","82","","","","0","","25.0","","99.90","","","","","","Mainly Clear"
"1985-06-29 22:00","1985","06","29","22:00","15.2","","13.0","","87","","25","","6","","25.0","","99.90","","","","","","Mainly Clear"
"1985-06-29 23:00","1985","06","29","23:00","14.0","","12.3","","89","","33","","7","","25.0","","99.93","","","","","","Clear"
"1985-06-30 00:00","1985","06","30","00:00","14.6","","12.5","","87","","35","","7","","25.0","","99.97","","","","","","Mainly Clear"
"1985-06-30 01:00","1985","06","30","01:00","15.0","","13.4","","90","","2","","11","","24.1","","99.97","","","","","","Mainly Clear"
"1985-06-30 02:00","1985","06","30","02:00","15.6","","13.9","","90","","2","","11","","24.1","","100.00","","","","","","Mostly Cloudy"
"1985-06-30 03:00","1985","06","30","03:00","16.0","","13.4","","85","","2","","11","","24.1","","100.00","","","","","","Cloudy"
"1985-06-30 04:00","1985","06","30","04:00","14.9","","12.7","","87","","2","","7","","24.1","","100.03","","","","","","Cloudy"
"1985-06-30 05:00","1985","06","30","05:00","14.5","","12.8","","89","","35","","13","","24.1","","100.07","","","","","","Clear"
"1985-06-30 06:00","1985","06","30","06:00","15.4","","13.2","","87","","2","","7","","24.1","","100.13","","","","","","Clear"
"1985-06-30 07:00","1985","06","30","07:00","17.2","","13.8","","80","","7","","11","","24.1","","100.20","","","","","","Clear"
"1985-06-30 08:00","1985","06","30","08:00","18.9","","14.2","","74","","9","","4","","32.2","","100.23","","","","","","Mainly Clear"
"1985-06-30 09:00","1985","06","30","09:00","19.8","","14.7","","73","","14","","11","","40.2","","100.27","","","","","","Mostly Cloudy"
"1985-06-30 10:00","1985","06","30","10:00","20.4","","14.9","","71","","14","","13","","40.2","","100.30","","","","","","Mainly Clear"
"1985-06-30 11:00","1985","06","30","11:00","21.4","","14.6","","65","","11","","15","","40.2","","100.30","","25","","","","Mainly Clear"
"1985-06-30 12:00","1985","06","30","12:00","22.4","","13.6","","58","","11","","19","","40.2","","100.30","","26","","","","Mainly Clear"
"1985-06-30 13:00","1985","06","30","13:00","23.2","","13.1","","53","","10","","24","","40.2","","100.27","","26","","","","Mainly Clear"
"1985-06-30 14:00","1985","06","30","14:00","22.4","","13.3","","56","","11","","28","","40.2","","100.27","","25","","","","Mainly Clear"
"1985-06-30 15:00","1985","06","30","15:00","23.0","","13.1","","54","","13","","22","","40.2","","100.27","","26","","","","Clear"
"1985-06-30 16:00","1985","06","30","16:00","21.9","","12.3","","54","","13","","26","","32.2","","100.27","","","","","","Clear"
"1985-06-30 17:00","1985","06","30","17:00","22.4","","12.1","","52","","10","","20","","32.2","","100.23","","25","","","","Clear"
"1985-06-30 18:00","1985","06","30","18:00","22.4","","11.7","","51","","10","","20","","32.2","","100.20","","25","","","","Clear"
"1985-06-30 19:00","1985","06","30","19:00","21.4","","11.3","","53","","10","","20","","32.2","","100.23","","","","","","Mainly Clear"
"1985-06-30 20:00","1985","06","30","20:00","20.0","","11.2","","57","","7","","15","","32.2","","100.23","","","","","","Mainly Clear"
"1985-06-30 21:00","1985","06","30","21:00","19.0","","11.3","","61","","8","","13","","25.0","","100.27","","","","","","Mainly Clear"
"1985-06-30 22:00","1985","06","30","22:00","18.3","","11.9","","66","","9","","11","","25.0","","100.27","","","","","","Mainly Clear"
"1985-06-30 23:00","1985","06","30","23:00","17.7","","11.8","","68","","7","","7","","25.0","","100.27","","","","","","Mainly Clear"
