"Station Name","TORONTO LESTER B. PEARSON INT'L A"
"Province","ONTARIO"
"Latitude","43.68"
"Longitude","-79.63"
"Elevation","173.40"
"Climate Identifier","6158733"
"WMO Identifier","71624"
"TC Identifier","YYZ"
"All times are specified in Local Standard Time (LST). Add 1 hour to adjust for Daylight Saving Time where and when it is observed."

"Legend"
"E","Estimated"
"M","Missing"
"NA","Not Available"

"Date/Time","Year","Month","Day","Time","Temp (°C)","Temp Flag","Dew Point Temp (°C)","Dew Point Temp Flag","Rel Hum (%)","Rel Hum Flag","Wind Dir (10s deg)","Wind Dir Flag","Wind Spd (km/h)","Wind Spd Flag","Visibility (km)","Visibility Flag","Stn Press (kPa)","Stn Press Flag","Hmdx","Hmdx Flag","Wind Chill","Wind Chill Flag","Weather"
"1988-08-01 00:00","1988","08","01","00:00","18.7","","13.3","","71","","30","","11","","25.0","","99.61","","","","","","Mainly Clear"
"1988-08-01 01:00","1988","08","01","01:00","17.6","","13.6","","77","","28","","6","","25.0","","99.61","","","","","","Mainly Clear"
"1988-08-01 02:00","1988","08","01","02:00","17.5","","13.3","","76","","27","","6","","25.0","","99.54","","","","","","Mainly Clear"
"1988-08-01 03:00","1988","08","01","03:00","17.5","","14.3","","81","","26","","7","","25.0","","99.51","","","","","","Mainly Clear"
"1988-08-01 04:00","1988","08","01","04:00","17.4","","12.9","","75","","26","","7","","25.0","","99.54","","","","","","Mainly Clear"
"1988-08-01 05:00","1988","08","01","05:00","17.5","","13.3","","76","","21","","7","","32.2","","99.54","","","","","","Mostly Cloudy"
"1988-08-01 06:00","1988","08","01","06:00","17.5","","15.0","","85","","32","","17","","24.1","","99.91","","","","","","Thunderstorms"
"1988-08-01 07:00","1988","08","01","07:00","18.5","","15.4","","82","","26","","7","","16.1","","99.84","","","","","","Thunderstorms,Rain"
"1988-08-01 08:00","1988","08","01","08:00","19.4","","16.4","","83","","23","","26","","16.1","","99.41","","","","","","Rain"
"1988-08-01 09:00","1988","08","01","09:00","19.0","","16.6","","86","","23","","24","","32.2","","99.57","","","","","","Cloudy"
"1988-08-01 10:00","1988","08","01","10:00","21.2","","17.1","","77","","21","","20","","32.2","","99.54","","27","","","","Cloudy"
"1988-08-01 11:00","1988","08","01","11:00","23.4","","17.6","","70","","22","","20","","32.2","","99.54","","29","","","","Cloudy"
"1988-08-01 12:00","1988","08","01","12:00","24.8","","17.9","","66","","23","","24","","32.2","","99.47","","31","","","","Cloudy"
"1988-08-01 13:00","1988","08","01","13:00","26.5","","19.6","","66","","23","","15","","32.2","","99.54","","34","","","","Cloudy"
"1988-08-01 14:00","1988","08","01","14:00","27.8","","19.7","","62","","24","","11","","32.2","","99.57","","35","","","","Cloudy"
"1988-08-01 15:00","1988","08","01","15:00","29.0","","19.3","","56","","23","","20","","24.1","","99.57","","36","","","","Mostly Cloudy"
"1988-08-01 16:00","1988","08","01","16:00","26.9","","19.6","","64","","15","","11","","24.1","","99.54","","34","","","","Cloudy"
"1988-08-01 17:00","1988","08","01","17:00","26.1","","18.7","","64","","17","","13","","24.1","","99.57","","33","","","","Cloudy"
"1988-08-01 18:00","1988","08","01","18:00","25.9","","18.7","","65","","16","","15","","19.3","","99.57","","32","","","","Mainly Clear"
"1988-08-01 19:00","1988","08","01","19:00","25.0","","18.6","","68","","14","","11","","19.3","","99.61","","31","","","","Mostly Cloudy"
"1988-08-01 20:00","1988","08","01","20:00","24.2","","18.7","","71","","14","","9","","16.1","","99.61","","31","","","","Mostly Cloudy"
"1988-08-01 21:00","1988","08","01","21:00","24.1","","19.1","","74","","11","","6","","16.1","","99.67","","31","","","","Mostly Cloudy"
"1988-08-01 22:00","1988","08","01","22:00","23.4","","19.4","","78","","12","","9","","12.9","","99.71","","30","","","","Mainly Clear"
"1988-08-01 23:00","1988","08","01","23:00","22.6","","19.3","","82","","14","","6","","12.9","","99.74","","30","","","","Mainly Clear"
"1988-08-02 00:00","1988","08","02","00:00","22.2","","19.4","","84","","8","","4","","12.9","","99.81","","29","","","","Clear"
"1988-08-02 01:00","1988","08","02","01:00","21.0","","18.9","","88","","","","0","","9.7","","99.84","","28","","","","Fog"
"1988-08-02 02:00","1988","08","02","02:00","19.7","","18.3","","91","","32","","6","","8.0","","99.87","","","","","","Fog"
"1988-08-02 03:00","1988","08","02","03:00","19.3","","18.3","","94","","1","","4","","6.4","","99.87","","","","","","Fog"
"1988-08-02 04:00","1988","08","02","04:00","19.6","","18.3","","92","","4","","6","","6.4","","99.87","","","","","","Fog"
"1988-08-02 05:00","1988","08","02","05:00","19.0","","18.1","","95","","29","","4","","4.8","","99.94","","","","","","Fog"
"1988-08-02 06:00","1988","08","02","06:00","20.0","","18.8","","93","","34","","4","","4.8","","100.01","","27","","","","Fog"
"1988-08-02 07:00","1988","08","02","07:00","22.1","","19.7","","86","","4","","6","","4.8","","100.01","","29","","","","Fog"
"1988-08-02 08:00","1988","08","02","08:00","24.4","","20.8","","80","","","","0","","6.4","","100.04","","33","","","","Haze"
"1988-08-02 09:00","1988","08","02","09:00","26.1","","21.5","","76","","13","","7","","6.4","","100.01","","35","","","","Haze"
"1988-08-02 10:00","1988","08","02","10:00","27.3","","21.9","","72","","15","","11","","9.7","","100.04","","37","","","","Haze"
"1988-08-02 11:00","1988","08","02","11:00","28.1","","21.0","","65","","14","","13","","11.3","","100.04","","37","","","","Mainly Clear"
"1988-08-02 12:00","1988","08","02","12:00","28.4","","21.5","","66","","14","","15","","12.9","","100.01","","37","","","","Clear"
"1988-08-02 13:00","1988","08","02","13:00","29.3","","22.0","","65","","13","","15","","12.9","","100.01","","39","","","","Clear"
"1988-08-02 14:00","1988","08","02","14:00","29.7","","21.4","","61","","15","","15","","12.9","","99.97","","38","","","","Clear"
"1988-08-02 15:00","1988","08","02","15:00","30.0","","21.7","","61","","12","","17","","11.3","","99.97","","39","","","","Clear"
"1988-08-02 16:00","1988","08","02","16:00","30.8","","22.5","","61","","14","","15","","11.3","","99.91","","41","","","","Mainly Clear"
"1988-08-02 17:00","1988","08","02","17:00","29.1","","21.5","","64","","14","","17","","11.3","","99.97","","38","","","","Mostly Cloudy"
"1988-08-02 18:00","1988","08","02","18:00","27.7","","20.7","","66","","14","","15","","12.9","","99.91","","36","","","","Mostly Cloudy"
"1988-08-02 19:00","1988","08","02","19:00","26.9","","21.4","","72","","2","","6","","16.1","","100.01","","36","","","","Mostly Cloudy"
"1988-08-02 20:00","1988","08","02","20:00","26.9","","21.4","","72","","22","","7","","11.3","","99.94","","36","","","","Mostly Cloudy"
"1988-08-02 21:00","1988","08","02","21:00","25.9","","21.2","","76","","19","","7","","11.3","","99.91","","34","","","","Mostly Cloudy"
"1988-08-02 22:00","1988","08","02","22:00","24.0","","21.2","","85","","26","","7","","9.7","","99.91","","33","","","","Haze"
"1988-08-02 23:00","1988","08","02","23:00","24.0","","21.2","","85","","25","","7","","9.7","","99.91","","33","","","","Haze"
"1988-08-03 00:00","1988","08","03","00:00","25.2","","21.0","","77","","17","","6","","6.4","","99.97","","34","","","","Haze"
"1988-08-03 01:00","1988","08","03","01:00","25.3","","21.9","","82","","18","","9","","6.4","","100.01","","35","","","","Haze"
"1988-08-03 02:00","1988","08","03","02:00","24.3","","22.0","","87","","28","","4","","8.0","","99.97","","34","","","","Fog"
"1988-08-03 03:00","1988","08","03","03:00","23.8","","20.3","","81","","","","0","","11.3","","99.91","","32","","","","Mainly Clear"
"1988-08-03 04:00","1988","08","03","04:00","23.4","","19.8","","80","","","","0","","16.1","","99.91","","31","","","","Mainly Clear"
"1988-08-03 05:00","1988","08","03","05:00","23.6","","19.1","","76","","","","0","","11.3","","99.97","","30","","","","Mainly Clear"
"1988-08-03 06:00","1988","08","03","06:00","23.5","","20.1","","81","","18","","7","","12.9","","100.04","","31","","","","Mainly Clear"
"1988-08-03 07:00","1988","08","03","07:00","25.6","","18.8","","66","","23","","7","","16.1","","100.04","","32","","","","Mainly Clear"
"1988-08-03 08:00","1988","08","03","08:00","27.2","","19.2","","62","","24","","6","","16.1","","100.01","","34","","","","Mainly Clear"
"1988-08-03 09:00","1988","08","03","09:00","29.5","","18.9","","53","","17","","9","","16.1","","100.01","","36","","","","Mainly Clear"
"1988-08-03 10:00","1988","08","03","10:00","30.9","","20.3","","53","","20","","13","","16.1","","100.04","","39","","","","Clear"
"1988-08-03 11:00","1988","08","03","11:00","31.8","","20.2","","50","","19","","15","","19.3","","100.01","","40","","","","Clear"
"1988-08-03 12:00","1988","08","03","12:00","33.4","","17.9","","40","","20","","15","","19.3","","99.97","","39","","","","Clear"
"1988-08-03 13:00","1988","08","03","13:00","34.2","","15.6","","33","","23","","15","","24.1","","99.94","","39","","","","Mainly Clear"
"1988-08-03 14:00","1988","08","03","14:00","34.1","","20.0","","44","","16","","17","","16.1","","99.87","","42","","","","Clear"
"1988-08-03 15:00","1988","08","03","15:00","33.2","","20.4","","47","","15","","15","","16.1","","99.81","","41","","","","Clear"
"1988-08-03 16:00","1988","08","03","16:00","32.8","","20.1","","47","","19","","11","","16.1","","99.74","","40","","","","Mainly Clear"
"1988-08-03 17:00","1988","08","03","17:00","33.0","","20.4","","48","","25","","19","","16.1","","99.74","","41","","","","Clear"
"1988-08-03 18:00","1988","08","03","18:00","32.5","","22.1","","54","","23","","19","","16.1","","99.77","","42","","","","Clear"
"1988-08-03 19:00","1988","08","03","19:00","31.4","","24.0","","65","","22","","17","","11.3","","99.77","","43","","","","Clear"
"1988-08-03 20:00","1988","08","03","20:00","30.4","","24.0","","69","","20","","11","","8.0","","99.81","","42","","","","Haze"
"1988-08-03 21:00","1988","08","03","21:00","29.3","","23.5","","71","","21","","9","","8.0","","99.81","","40","","","","Haze"
"1988-08-03 22:00","1988","08","03","22:00","28.0","","22.5","","72","","22","","11","","8.0","","99.81","","38","","","","Haze"
"1988-08-03 23:00","1988","08","03","23:00","27.3","","22.8","","77","","22","","9","","6.4","","99.84","","37","","","","Haze"
"1988-08-04 00:00","1988","08","04","00:00","27.1","","22.3","","75","","25","","6","","6.4","","99.87","","37","","","","Haze"
"1988-08-04 01:00","1988","08","04","01:00","25.1","","22.2","","84","","26","","4","","6.4","","99.84","","35","","","","Haze"
"1988-08-04 02:00","1988","08","04","02:00","25.7","","22.2","","81","","21","","4","","6.4","","99.87","","35","","","","Haze"
"1988-08-04 03:00","1988","08","04","03:00","25.8","","21.8","","79","","20","","9","","6.4","","99.84","","35","","","","Haze"
"1988-08-04 04:00","1988","08","04","04:00","25.5","","21.3","","78","","19","","6","","6.4","","99.81","","34","","","","Haze"
"1988-08-04 05:00","1988","08","04","05:00","24.7","","21.4","","82","","21","","6","","4.8","","99.84","","33","","","","Haze"
"1988-08-04 06:00","1988","08","04","06:00","25.2","","21.3","","79","","20","","13","","4.0","","99.87","","34","","","","Haze"
"1988-08-04 07:00","1988","08","04","07:00","25.7","","21.6","","78","","21","","11","","4.8","","99.87","","35","","","","Haze"
"1988-08-04 08:00","1988","08","04","08:00","26.8","","22.3","","76","","21","","13","","4.8","","99.87","","36","","","","Haze"
"1988-08-04 09:00","1988","08","04","09:00","28.1","","23.1","","74","","21","","9","","4.8","","99.84","","38","","","","Haze"
"1988-08-04 10:00","1988","08","04","10:00","29.8","","23.8","","70","","19","","9","","4.8","","99.81","","41","","","","Haze"
"1988-08-04 11:00","1988","08","04","11:00","31.2","","23.4","","63","","21","","11","","6.4","","99.81","","42","","","","Haze"
"1988-08-04 12:00","1988","08","04","12:00","32.9","","23.9","","59","","22","","13","","6.4","","99.77","","44","","","","Haze"
"1988-08-04 13:00","1988","08","04","13:00","33.5","","22.9","","54","","23","","17","","6.4","","99.71","","44","","","","Haze"
"1988-08-04 14:00","1988","08","04","14:00","32.6","","22.7","","56","","23","","20","","4.8","","99.64","","43","","","","Haze"
"1988-08-04 15:00","1988","08","04","15:00","33.7","","23.5","","55","","23","","20","","4.8","","99.57","","44","","","","Haze"
"1988-08-04 16:00","1988","08","04","16:00","32.4","","23.9","","61","","22","","24","","4.8","","99.57","","44","","","","Haze"
"1988-08-04 17:00","1988","08","04","17:00","29.3","","20.5","","59","","27","","17","","4.8","","99.57","","37","","","","Haze"
"1988-08-04 18:00","1988","08","04","18:00","29.0","","19.9","","58","","25","","13","","6.4","","99.61","","36","","","","Haze"
"1988-08-04 19:00","1988","08","04","19:00","27.7","","20.1","","63","","26","","7","","6.4","","99.61","","35","","","","Haze"
"1988-08-04 20:00","1988","08","04","20:00","26.3","","20.6","","71","","","","0","","6.4","","99.61","","34","","","","Haze"
"1988-08-04 21:00","1988","08","04","21:00","27.7","","21.3","","68","","","","0","","8.0","","99.61","","36","","","","Haze"
"1988-08-04 22:00","1988","08","04","22:00","27.6","","21.9","","71","","19","","6","","8.0","","99.57","","37","","","","Haze"
"1988-08-04 23:00","1988","08","04","23:00","26.6","","20.6","","70","","16","","6","","8.0","","99.57","","35","","","","Haze"
"1988-08-05 00:00","1988","08","05","00:00","25.7","","20.1","","71","","","","0","","8.0","","99.57","","33","","","","Haze"
"1988-08-05 01:00","1988","08","05","01:00","25.3","","21.0","","77","","16","","4","","8.0","","99.57","","34","","","","Haze"
"1988-08-05 02:00","1988","08","05","02:00","24.2","","19.7","","76","","","","0","","8.0","","99.51","","32","","","","Haze"
"1988-08-05 03:00","1988","08","05","03:00","24.8","","21.3","","81","","18","","6","","8.0","","99.44","","33","","","","Haze"
"1988-08-05 04:00","1988","08","05","04:00","24.5","","21.4","","83","","","","0","","8.0","","99.47","","33","","","","Haze"
"1988-08-05 05:00","1988","08","05","05:00","24.5","","21.4","","83","","18","","7","","4.8","","99.47","","33","","","","Haze"
"1988-08-05 06:00","1988","08","05","06:00","24.4","","21.5","","84","","16","","4","","3.2","","99.51","","33","","","","Haze"
"1988-08-05 07:00","1988","08","05","07:00","25.6","","22.5","","83","","18","","9","","4.0","","99.47","","35","","","","Haze"
"1988-08-05 08:00","1988","08","05","08:00","27.1","","22.9","","78","","23","","11","","4.8","","99.47","","37","","","","Haze"
"1988-08-05 09:00","1988","08","05","09:00","28.8","","23.3","","72","","20","","13","","6.4","","99.44","","39","","","","Haze"
"1988-08-05 10:00","1988","08","05","10:00","30.0","","23.5","","68","","19","","13","","8.0","","99.41","","41","","","","Haze"
"1988-08-05 11:00","1988","08","05","11:00","31.0","","23.7","","65","","18","","13","","8.0","","99.37","","42","","","","Haze"
"1988-08-05 12:00","1988","08","05","12:00","31.4","","23.7","","64","","17","","20","","9.7","","99.34","","42","","","","Haze"
"1988-08-05 13:00","1988","08","05","13:00","31.4","","23.7","","64","","17","","22","","9.7","","99.24","","42","","","","Haze"
"1988-08-05 14:00","1988","08","05","14:00","31.4","","23.1","","62","","17","","30","","8.0","","99.14","","42","","","","Haze"
"1988-08-05 15:00","1988","08","05","15:00","30.7","","22.6","","62","","18","","24","","8.0","","99.07","","41","","","","Haze"
"1988-08-05 16:00","1988","08","05","16:00","31.0","","21.9","","58","","20","","17","","6.4","","99.11","","40","","","","Haze"
"1988-08-05 17:00","1988","08","05","17:00","30.7","","20.7","","55","","21","","24","","6.4","","99.07","","39","","","","Haze"
"1988-08-05 18:00","1988","08","05","18:00","30.1","","20.8","","57","","21","","19","","4.8","","98.97","","38","","","","Haze"
"1988-08-05 19:00","1988","08","05","19:00","29.6","","20.8","","59","","21","","19","","4.8","","99.04","","38","","","","Haze"
"1988-08-05 20:00","1988","08","05","20:00","28.0","","21.6","","68","","22","","11","","4.8","","99.04","","37","","","","Haze"
"1988-08-05 21:00","1988","08","05","21:00","26.9","","19.6","","64","","24","","17","","9.7","","99.11","","34","","","","Haze"
"1988-08-05 22:00","1988","08","05","22:00","24.6","","18.7","","70","","22","","7","","12.9","","99.07","","31","","","","Mostly Cloudy"
"1988-08-05 23:00","1988","08","05","23:00","24.5","","19.6","","74","","22","","11","","11.3","","99.01","","32","","","","Rain Showers"
"1988-08-06 00:00","1988","08","06","00:00","22.5","","19.9","","85","","23","","9","","12.9","","99.04","","30","","","","Cloudy"
"1988-08-06 01:00","1988","08","06","01:00","22.0","","20.0","","88","","23","","7","","11.3","","99.01","","30","","","","Cloudy"
"1988-08-06 02:00","1988","08","06","02:00","22.1","","19.7","","86","","20","","17","","11.3","","99.07","","29","","","","Cloudy"
"1988-08-06 03:00","1988","08","06","03:00","22.0","","20.3","","90","","22","","17","","9.7","","99.04","","30","","","","Fog"
"1988-08-06 04:00","1988","08","06","04:00","22.1","","20.3","","89","","23","","13","","9.7","","99.04","","30","","","","Fog"
"1988-08-06 05:00","1988","08","06","05:00","22.1","","20.3","","89","","24","","11","","9.7","","99.07","","30","","","","Fog"
"1988-08-06 06:00","1988","08","06","06:00","22.2","","20.3","","89","","25","","9","","9.7","","99.14","","30","","","","Fog"
"1988-08-06 07:00","1988","08","06","07:00","22.1","","20.0","","88","","26","","9","","11.3","","99.21","","30","","","","Mostly Cloudy"
"1988-08-06 08:00","1988","08","06","08:00","23.2","","19.2","","78","","25","","11","","16.1","","99.24","","30","","","","Mainly Clear"
"1988-08-06 09:00","1988","08","06","09:00","24.8","","18.3","","67","","23","","17","","32.2","","99.21","","31","","","","Mainly Clear"
"1988-08-06 10:00","1988","08","06","10:00","26.8","","18.3","","60","","26","","22","","32.2","","99.21","","33","","","","Mainly Clear"
"1988-08-06 11:00","1988","08","06","11:00","27.7","","15.0","","46","","26","","22","","40.2","","99.21","","32","","","","Mainly Clear"
"1988-08-06 12:00","1988","08","06","12:00","28.2","","12.9","","39","","26","","19","","40.2","","99.17","","31","","","","Mainly Clear"
"1988-08-06 13:00","1988","08","06","13:00","27.8","","13.7","","42","","27","","22","","40.2","","99.14","","31","","","","Mainly Clear"
"1988-08-06 14:00","1988","08","06","14:00","29.0","","13.5","","39","","26","","19","","40.2","","99.14","","32","","","","Mostly Cloudy"
"1988-08-06 15:00","1988","08","06","15:00","28.6","","14.0","","41","","25","","19","","40.2","","99.04","","32","","","","Mostly Cloudy"
"1988-08-06 16:00","1988","08","06","16:00","28.2","","14.5","","43","","28","","20","","40.2","","99.01","","32","","","","Mostly Cloudy"
"1988-08-06 17:00","1988","08","06","17:00","27.9","","14.1","","43","","27","","22","","32.2","","99.04","","31","","","","Mainly Clear"
"1988-08-06 18:00","1988","08","06","18:00","25.5","","15.4","","54","","29","","20","","32.2","","99.04","","30","","","","Mostly Cloudy"
"1988-08-06 19:00","1988","08","06","19:00","24.8","","14.8","","54","","29","","17","","40.2","","99.11","","29","","","","Mostly Cloudy"
"1988-08-06 20:00","1988","08","06","20:00","24.1","","15.4","","58","","27","","7","","25.0","","99.14","","28","","","","Cloudy"
"1988-08-06 21:00","1988","08","06","21:00","23.3","","16.2","","65","","27","","11","","25.0","","99.21","","28","","","","Cloudy"
"1988-08-06 22:00","1988","08","06","22:00","22.6","","14.7","","61","","31","","11","","25.0","","99.24","","26","","","","Cloudy"
"1988-08-06 23:00","1988","08","06","23:00","21.7","","14.6","","64","","31","","19","","25.0","","99.27","","25","","","","Cloudy"
"1988-08-07 00:00","1988","08","07","00:00","19.5","","14.8","","74","","29","","9","","25.0","","99.27","","","","","","Mainly Clear"
"1988-08-07 01:00","1988","08","07","01:00","19.0","","14.9","","77","","29","","9","","25.0","","99.24","","","","","","Clear"
"1988-08-07 02:00","1988","08","07","02:00","18.0","","14.8","","81","","29","","13","","25.0","","99.24","","","","","","Clear"
"1988-08-07 03:00","1988","08","07","03:00","17.5","","15.0","","85","","27","","13","","25.0","","99.24","","","","","","Clear"
"1988-08-07 04:00","1988","08","07","04:00","17.0","","15.1","","89","","27","","7","","25.0","","99.27","","","","","","Mainly Clear"
"1988-08-07 05:00","1988","08","07","05:00","16.7","","14.6","","87","","27","","7","","25.0","","99.34","","","","","","Mostly Cloudy"
"1988-08-07 06:00","1988","08","07","06:00","18.0","","16.1","","89","","29","","13","","40.2","","99.37","","","","","","Mostly Cloudy"
"1988-08-07 07:00","1988","08","07","07:00","19.3","","16.1","","82","","30","","17","","40.2","","99.47","","","","","","Mostly Cloudy"
"1988-08-07 08:00","1988","08","07","08:00","20.3","","15.9","","76","","31","","15","","40.2","","99.47","","25","","","","Mostly Cloudy"
"1988-08-07 09:00","1988","08","07","09:00","21.8","","16.9","","74","","33","","22","","40.2","","99.44","","27","","","","Mostly Cloudy"
"1988-08-07 10:00","1988","08","07","10:00","22.7","","15.4","","63","","32","","19","","40.2","","99.47","","27","","","","Mostly Cloudy"
"1988-08-07 11:00","1988","08","07","11:00","23.1","","15.7","","63","","33","","19","","40.2","","99.51","","28","","","","Mostly Cloudy"
"1988-08-07 12:00","1988","08","07","12:00","23.1","","15.3","","61","","31","","11","","40.2","","99.44","","27","","","","Mostly Cloudy"
"1988-08-07 13:00","1988","08","07","13:00","24.6","","16.7","","62","","29","","11","","40.2","","99.44","","30","","","","Mostly Cloudy"
"1988-08-07 14:00","1988","08","07","14:00","25.1","","14.8","","53","","26","","9","","40.2","","99.44","","29","","","","Mostly Cloudy"
"1988-08-07 15:00","1988","08","07","15:00","26.2","","15.3","","51","","24","","11","","40.2","","99.37","","30","","","","Mostly Cloudy"
"1988-08-07 16:00","1988","08","07","16:00","26.9","","16.2","","52","","27","","7","","40.2","","99.34","","32","","","","Mostly Cloudy"
"1988-08-07 17:00","1988","08","07","17:00","27.1","","15.1","","48","","36","","15","","40.2","","99.31","","31","","","","Mainly Clear"
"1988-08-07 18:00","1988","08","07","18:00","25.2","","14.1","","50","","35","","15","","40.2","","99.34","","29","","","","Mainly Clear"
"1988-08-07 19:00","1988","08","07","19:00","23.6","","13.0","","51","","1","","15","","32.2","","99.37","","26","","","","Mainly Clear"
"1988-08-07 20:00","1988","08","07","20:00","21.8","","13.4","","59","","1","","7","","25.0","","99.41","","25","","","","Mainly Clear"
"1988-08-07 21:00","1988","08","07","21:00","20.6","","13.8","","65","","2","","6","","25.0","","99.44","","","","","","Mainly Clear"
"1988-08-07 22:00","1988","08","07","22:00","19.0","","13.9","","72","","32","","6","","25.0","","99.47","","","","","","Clear"
"1988-08-07 23:00","1988","08","07","23:00","18.9","","13.9","","73","","28","","4","","25.0","","99.51","","","","","","Clear"
"1988-08-08 00:00","1988","08","08","00:00","17.9","","14.2","","79","","27","","4","","19.3","","99.51","","","","","","Clear"
"1988-08-08 01:00","1988","08","08","01:00","17.0","","13.8","","81","","27","","6","","16.1","","99.54","","","","","","Clear"
"1988-08-08 02:00","1988","08","08","02:00","15.6","","13.5","","87","","27","","7","","16.1","","99.51","","","","","","Clear"
"1988-08-08 03:00","1988","08","08","03:00","16.4","","13.6","","84","","27","","6","","16.1","","99.47","","","","","","Clear"
"1988-08-08 04:00","1988","08","08","04:00","15.9","","13.0","","83","","30","","4","","16.1","","99.47","","","","","","Mostly Cloudy"
"1988-08-08 05:00","1988","08","08","05:00","15.4","","12.9","","85","","34","","4","","24.1","","99.54","","","","","","Mainly Clear"
"1988-08-08 06:00","1988","08","08","06:00","16.9","","12.7","","76","","","","0","","32.2","","99.57","","","","","","Clear"
"1988-08-08 07:00","1988","08","08","07:00","18.2","","13.8","","75","","","","0","","32.2","","99.57","","","","","","Clear"
"1988-08-08 08:00","1988","08","08","08:00","20.7","","13.8","","64","","","","0","","19.3","","99.61","","","","","","Clear"
"1988-08-08 09:00","1988","08","08","09:00","23.6","","14.5","","57","","13","","4","","19.3","","99.61","","27","","","","Clear"
"1988-08-08 10:00","1988","08","08","10:00","25.5","","13.2","","47","","16","","7","","19.3","","99.61","","28","","","","Mainly Clear"
"1988-08-08 11:00","1988","08","08","11:00","27.7","","14.6","","45","","24","","6","","24.1","","99.64","","31","","","","Mainly Clear"
"1988-08-08 12:00","1988","08","08","12:00","27.7","","15.7","","48","","14","","17","","16.1","","99.57","","32","","","","Mainly Clear"
"1988-08-08 13:00","1988","08","08","13:00","28.2","","16.0","","48","","16","","17","","16.1","","99.54","","33","","","","Mainly Clear"
"1988-08-08 14:00","1988","08","08","14:00","28.9","","17.6","","51","","15","","17","","16.1","","99.47","","35","","","","Mainly Clear"
"1988-08-08 15:00","1988","08","08","15:00","29.3","","19.2","","55","","17","","19","","24.1","","99.41","","36","","","","Mostly Cloudy"
"1988-08-08 16:00","1988","08","08","16:00","29.2","","20.2","","58","","17","","15","","24.1","","99.41","","37","","","","Mostly Cloudy"
"1988-08-08 17:00","1988","08","08","17:00","29.4","","20.2","","58","","17","","22","","24.1","","99.37","","37","","","","Mostly Cloudy"
"1988-08-08 18:00","1988","08","08","18:00","29.1","","20.9","","61","","16","","15","","24.1","","99.41","","37","","","","Mostly Cloudy"
"1988-08-08 19:00","1988","08","08","19:00","28.3","","20.0","","61","","20","","17","","12.9","","99.41","","36","","","","Mostly Cloudy"
"1988-08-08 20:00","1988","08","08","20:00","27.1","","17.9","","57","","20","","15","","12.9","","99.41","","33","","","","Mostly Cloudy"
"1988-08-08 21:00","1988","08","08","21:00","25.9","","18.7","","65","","20","","7","","19.3","","99.41","","32","","","","Mostly Cloudy"
"1988-08-08 22:00","1988","08","08","22:00","24.9","","18.6","","68","","20","","6","","19.3","","99.41","","31","","","","Mainly Clear"
"1988-08-08 23:00","1988","08","08","23:00","23.0","","18.3","","75","","23","","7","","19.3","","99.47","","29","","","","Mainly Clear"
"1988-08-09 00:00","1988","08","09","00:00","22.1","","18.5","","80","","20","","6","","16.1","","99.47","","28","","","","Mainly Clear"
"1988-08-09 01:00","1988","08","09","01:00","22.7","","18.4","","77","","21","","6","","16.1","","99.41","","29","","","","Mainly Clear"
"1988-08-09 02:00","1988","08","09","02:00","22.9","","18.9","","78","","21","","4","","12.9","","99.41","","30","","","","Mostly Cloudy"
"1988-08-09 03:00","1988","08","09","03:00","22.6","","18.4","","77","","18","","6","","12.9","","99.41","","29","","","","Mainly Clear"
"1988-08-09 04:00","1988","08","09","04:00","22.2","","17.8","","76","","17","","4","","12.9","","99.41","","28","","","","Mainly Clear"
"1988-08-09 05:00","1988","08","09","05:00","22.1","","18.2","","79","","19","","6","","11.3","","99.41","","28","","","","Mostly Cloudy"
"1988-08-09 06:00","1988","08","09","06:00","23.0","","18.9","","78","","21","","7","","11.3","","99.37","","30","","","","Cloudy"
"1988-08-09 07:00","1988","08","09","07:00","24.5","","19.3","","73","","19","","7","","11.3","","99.37","","32","","","","Cloudy"
"1988-08-09 08:00","1988","08","09","08:00","25.8","","20.3","","72","","15","","6","","12.9","","99.37","","34","","","","Cloudy"
"1988-08-09 09:00","1988","08","09","09:00","27.4","","20.4","","66","","22","","11","","12.9","","99.37","","35","","","","Cloudy"
"1988-08-09 10:00","1988","08","09","10:00","29.4","","19.2","","54","","22","","15","","16.1","","99.34","","36","","","","Cloudy"
"1988-08-09 11:00","1988","08","09","11:00","29.7","","18.9","","52","","22","","15","","16.1","","99.37","","36","","","","Cloudy"
"1988-08-09 12:00","1988","08","09","12:00","30.6","","19.1","","50","","25","","28","","16.1","","99.37","","37","","","","Cloudy"
"1988-08-09 13:00","1988","08","09","13:00","31.0","","19.7","","51","","24","","26","","16.1","","99.34","","38","","","","Cloudy"
"1988-08-09 14:00","1988","08","09","14:00","31.9","","17.8","","43","","23","","24","","16.1","","99.31","","38","","","","Cloudy"
"1988-08-09 15:00","1988","08","09","15:00","31.7","","17.5","","43","","24","","22","","8.0","","99.27","","37","","","","Haze"
"1988-08-09 16:00","1988","08","09","16:00","31.2","","16.9","","42","","21","","22","","8.0","","99.21","","36","","","","Haze"
"1988-08-09 17:00","1988","08","09","17:00","30.4","","18.7","","50","","22","","22","","8.0","","99.21","","37","","","","Haze"
"1988-08-09 18:00","1988","08","09","18:00","29.7","","18.5","","51","","22","","22","","6.4","","99.24","","36","","","","Haze"
"1988-08-09 19:00","1988","08","09","19:00","28.7","","18.7","","55","","21","","19","","4.8","","99.24","","35","","","","Haze"
"1988-08-09 20:00","1988","08","09","20:00","27.6","","19.5","","61","","24","","15","","4.8","","99.27","","35","","","","Rain Showers,Haze"
"1988-08-09 21:00","1988","08","09","21:00","26.8","","19.9","","66","","24","","13","","4.8","","99.31","","34","","","","Haze"
"1988-08-09 22:00","1988","08","09","22:00","26.4","","19.6","","66","","23","","9","","4.8","","99.34","","34","","","","Haze"
"1988-08-09 23:00","1988","08","09","23:00","25.0","","19.8","","73","","25","","7","","4.8","","99.34","","32","","","","Haze"
"1988-08-10 00:00","1988","08","10","00:00","24.1","","20.9","","82","","28","","4","","4.8","","99.34","","32","","","","Haze"
"1988-08-10 01:00","1988","08","10","01:00","23.9","","21.5","","87","","28","","9","","4.8","","99.34","","33","","","","Fog"
"1988-08-10 02:00","1988","08","10","02:00","24.2","","20.9","","82","","24","","11","","6.4","","99.44","","33","","","","Haze"
"1988-08-10 03:00","1988","08","10","03:00","23.6","","21.2","","87","","26","","7","","6.4","","99.47","","32","","","","Fog"
"1988-08-10 04:00","1988","08","10","04:00","23.2","","18.3","","74","","32","","15","","12.9","","99.51","","29","","","","Cloudy"
"1988-08-10 05:00","1988","08","10","05:00","21.9","","18.2","","80","","32","","13","","16.1","","99.57","","28","","","","Mostly Cloudy"
"1988-08-10 06:00","1988","08","10","06:00","21.6","","17.3","","76","","32","","9","","24.1","","99.64","","27","","","","Mostly Cloudy"
"1988-08-10 07:00","1988","08","10","07:00","22.8","","16.7","","69","","32","","15","","32.2","","99.67","","28","","","","Mostly Cloudy"
"1988-08-10 08:00","1988","08","10","08:00","23.6","","13.7","","54","","33","","19","","32.2","","99.74","","27","","","","Mainly Clear"
"1988-08-10 09:00","1988","08","10","09:00","24.9","","12.6","","46","","33","","11","","40.2","","99.77","","27","","","","Mostly Cloudy"
"1988-08-10 10:00","1988","08","10","10:00","25.4","","12.8","","46","","35","","11","","40.2","","99.77","","28","","","","Mostly Cloudy"
"1988-08-10 11:00","1988","08","10","11:00","26.8","","13.2","","43","","34","","9","","40.2","","99.77","","30","","","","Mainly Clear"
"1988-08-10 12:00","1988","08","10","12:00","28.1","","12.1","","37","","1","","13","","40.2","","99.77","","30","","","","Mostly Cloudy"
"1988-08-10 13:00","1988","08","10","13:00","29.6","","13.0","","36","","1","","15","","40.2","","99.77","","32","","","","Mostly Cloudy"
"1988-08-10 14:00","1988","08","10","14:00","30.5","","11.0","","30","","29","","4","","40.2","","99.74","","32","","","","Mostly Cloudy"
"1988-08-10 15:00","1988","08","10","15:00","30.2","","13.3","","36","","35","","7","","40.2","","99.74","","33","","","","Mostly Cloudy"
"1988-08-10 16:00","1988","08","10","16:00","29.7","","11.7","","33","","15","","9","","40.2","","99.71","","32","","","","Mostly Cloudy"
"1988-08-10 17:00","1988","08","10","17:00","28.1","","11.7","","36","","16","","6","","40.2","","99.71","","30","","","","Mostly Cloudy"
"1988-08-10 18:00","1988","08","10","18:00","26.7","","14.1","","46","","34","","15","","40.2","","99.77","","30","","","","Mostly Cloudy"
"1988-08-10 19:00","1988","08","10","19:00","25.3","","14.4","","51","","36","","13","","40.2","","99.81","","29","","","","Mostly Cloudy"
"1988-08-10 20:00","1988","08","10","20:00","23.1","","13.5","","55","","36","","7","","25.0","","99.84","","26","","","","Mostly Cloudy"
"1988-08-10 21:00","1988","08","10","21:00","22.3","","13.5","","58","","1","","7","","25.0","","99.87","","25","","","","Mostly Cloudy"
"1988-08-10 22:00","1988","08","10","22:00","21.7","","12.8","","57","","1","","9","","25.0","","99.87","","","","","","Mainly Clear"
"1988-08-10 23:00","1988","08","10","23:00","19.5","","14.1","","71","","32","","4","","25.0","","99.87","","","","","","Mostly Cloudy"
"1988-08-11 00:00","1988","08","11","00:00","18.5","","14.0","","75","","31","","4","","24.1","","99.87","","","","","","Mostly Cloudy"
"1988-08-11 01:00","1988","08","11","01:00","19.7","","13.7","","68","","","","0","","16.1","","99.81","","","","","","Mostly Cloudy"
"1988-08-11 02:00","1988","08","11","02:00","18.1","","14.8","","81","","33","","6","","16.1","","99.77","","","","","","Cloudy"
"1988-08-11 03:00","1988","08","11","03:00","18.5","","15.0","","80","","","","0","","19.3","","99.81","","","","","","Mostly Cloudy"
"1988-08-11 04:00","1988","08","11","04:00","19.5","","15.1","","76","","","","0","","19.3","","99.84","","","","","","Cloudy"
"1988-08-11 05:00","1988","08","11","05:00","19.3","","15.5","","79","","","","0","","24.1","","99.87","","","","","","Mostly Cloudy"
"1988-08-11 06:00","1988","08","11","06:00","18.1","","15.2","","83","","","","0","","24.1","","99.94","","","","","","Mostly Cloudy"
"1988-08-11 07:00","1988","08","11","07:00","19.9","","15.3","","75","","30","","4","","24.1","","99.97","","","","","","Mostly Cloudy"
"1988-08-11 08:00","1988","08","11","08:00","22.3","","15.4","","65","","","","0","","24.1","","99.97","","27","","","","Mainly Clear"
"1988-08-11 09:00","1988","08","11","09:00","24.7","","15.3","","56","","15","","4","","24.1","","99.91","","29","","","","Mostly Cloudy"
"1988-08-11 10:00","1988","08","11","10:00","25.8","","15.3","","52","","14","","9","","24.1","","99.91","","30","","","","Mainly Clear"
"1988-08-11 11:00","1988","08","11","11:00","27.5","","15.0","","46","","16","","13","","24.1","","99.87","","31","","","","Cloudy"
"1988-08-11 12:00","1988","08","11","12:00","28.4","","14.4","","42","","14","","9","","24.1","","99.84","","32","","","","Cloudy"
"1988-08-11 13:00","1988","08","11","13:00","21.0","","18.6","","86","","11","","9","","19.3","","99.87","","27","","","","Mostly Cloudy"
"1988-08-11 14:00","1988","08","11","14:00","23.0","","18.9","","78","","9","","7","","16.1","","99.77","","30","","","","Cloudy"
"1988-08-11 15:00","1988","08","11","15:00","24.1","","17.8","","68","","18","","4","","16.1","","99.74","","30","","","","Rain Showers"
"1988-08-11 16:00","1988","08","11","16:00","24.0","","19.4","","75","","16","","9","","12.9","","99.64","","31","","","","Mainly Clear"
"1988-08-11 17:00","1988","08","11","17:00","23.7","","18.2","","71","","18","","15","","11.3","","99.61","","30","","","","Mostly Cloudy"
"1988-08-11 18:00","1988","08","11","18:00","23.6","","18.2","","72","","19","","7","","16.1","","99.64","","30","","","","Mainly Clear"
"1988-08-11 19:00","1988","08","11","19:00","23.3","","19.8","","81","","24","","4","","11.3","","99.64","","31","","","","Mainly Clear"
"1988-08-11 20:00","1988","08","11","20:00","21.7","","19.8","","89","","26","","4","","6.4","","99.61","","29","","","","Fog"
"1988-08-11 21:00","1988","08","11","21:00","21.7","","19.8","","89","","27","","7","","9.7","","99.64","","29","","","","Fog"
"1988-08-11 22:00","1988","08","11","22:00","21.2","","18.9","","87","","30","","6","","12.9","","99.64","","28","","","","Mainly Clear"
"1988-08-11 23:00","1988","08","11","23:00","21.6","","19.2","","86","","","","0","","9.7","","99.61","","29","","","","Fog"
"1988-08-12 00:00","1988","08","12","00:00","22.1","","19.4","","85","","","","0","","8.0","","99.61","","29","","","","Fog,Haze"
"1988-08-12 01:00","1988","08","12","01:00","21.1","","19.2","","89","","18","","4","","6.4","","99.61","","28","","","","Fog"
"1988-08-12 02:00","1988","08","12","02:00","19.4","","18.6","","95","","30","","2","","6.4","","99.64","","","","","","Fog"
"1988-08-12 03:00","1988","08","12","03:00","20.1","","19.1","","94","","","","0","","4.8","","99.64","","27","","","","Fog"
"1988-08-12 04:00","1988","08","12","04:00","18.6","","18.2","","98","","25","","4","","4.8","","99.64","","","","","","Fog"
"1988-08-12 05:00","1988","08","12","05:00","19.2","","18.4","","95","","31","","2","","3.2","","99.71","","","","","","Fog"
"1988-08-12 06:00","1988","08","12","06:00","19.1","","18.4","","96","","","","0","","3.6","","99.77","","","","","","Fog"
"1988-08-12 07:00","1988","08","12","07:00","21.9","","19.5","","86","","","","0","","4.8","","99.77","","29","","","","Fog"
"1988-08-12 08:00","1988","08","12","08:00","24.5","","21.7","","85","","18","","4","","4.8","","99.84","","34","","","","Haze"
"1988-08-12 09:00","1988","08","12","09:00","26.5","","22.3","","78","","21","","4","","6.4","","99.81","","36","","","","Haze"
"1988-08-12 10:00","1988","08","12","10:00","29.2","","22.7","","68","","18","","6","","8.0","","99.81","","39","","","","Haze"
"1988-08-12 11:00","1988","08","12","11:00","29.6","","22.0","","64","","13","","9","","9.7","","99.81","","39","","","","Haze"
"1988-08-12 12:00","1988","08","12","12:00","30.5","","22.6","","63","","15","","13","","12.9","","99.77","","40","","","","Mainly Clear"
"1988-08-12 13:00","1988","08","12","13:00","30.6","","22.9","","64","","16","","15","","16.1","","99.74","","41","","","","Mostly Cloudy"
"1988-08-12 14:00","1988","08","12","14:00","32.0","","20.2","","50","","21","","17","","12.9","","99.77","","40","","","","Mostly Cloudy"
"1988-08-12 15:00","1988","08","12","15:00","31.1","","22.8","","61","","18","","9","","12.9","","99.71","","41","","","","Mostly Cloudy"
"1988-08-12 16:00","1988","08","12","16:00","29.7","","23.5","","69","","16","","20","","12.9","","99.71","","40","","","","Mostly Cloudy"
"1988-08-12 17:00","1988","08","12","17:00","29.0","","24.1","","75","","23","","15","","9.7","","99.61","","40","","","","Thunderstorms,Rain Showers,Haze"
"1988-08-12 18:00","1988","08","12","18:00","29.1","","21.2","","63","","22","","9","","9.7","","99.71","","38","","","","Haze"
"1988-08-12 19:00","1988","08","12","19:00","28.1","","20.4","","63","","22","","11","","9.7","","99.64","","36","","","","Haze"
"1988-08-12 20:00","1988","08","12","20:00","27.1","","20.8","","68","","25","","7","","8.0","","99.64","","35","","","","Haze"
"1988-08-12 21:00","1988","08","12","21:00","25.0","","21.3","","80","","26","","9","","9.7","","99.74","","34","","","","Haze"
"1988-08-12 22:00","1988","08","12","22:00","24.5","","21.7","","85","","26","","4","","8.0","","99.77","","34","","","","Haze"
"1988-08-12 23:00","1988","08","12","23:00","24.0","","20.9","","83","","23","","6","","9.7","","99.71","","32","","","","Haze"
"1988-08-13 00:00","1988","08","13","00:00","23.4","","21.2","","88","","26","","2","","6.4","","99.71","","32","","","","Fog"
"1988-08-13 01:00","1988","08","13","01:00","24.2","","21.8","","86","","20","","4","","4.8","","99.64","","33","","","","Fog"
"1988-08-13 02:00","1988","08","13","02:00","23.1","","21.6","","91","","28","","4","","4.8","","99.64","","32","","","","Fog"
"1988-08-13 03:00","1988","08","13","03:00","22.9","","21.9","","94","","30","","4","","4.8","","99.64","","32","","","","Fog"
"1988-08-13 04:00","1988","08","13","04:00","23.0","","21.6","","92","","31","","4","","4.8","","99.67","","32","","","","Fog"
"1988-08-13 05:00","1988","08","13","05:00","23.0","","21.6","","92","","23","","6","","3.6","","99.71","","32","","","","Fog"
"1988-08-13 06:00","1988","08","13","06:00","23.4","","22.1","","93","","26","","7","","2.8","","99.71","","33","","","","Fog"
"1988-08-13 07:00","1988","08","13","07:00","24.9","","22.2","","85","","24","","9","","4.0","","99.74","","34","","","","Haze"
"1988-08-13 08:00","1988","08","13","08:00","26.3","","22.1","","78","","24","","7","","4.0","","99.74","","36","","","","Haze"
"1988-08-13 09:00","1988","08","13","09:00","28.7","","22.4","","69","","23","","7","","8.0","","99.71","","38","","","","Haze"
"1988-08-13 10:00","1988","08","13","10:00","30.7","","22.9","","63","","24","","11","","11.3","","99.71","","41","","","","Clear"
"1988-08-13 11:00","1988","08","13","11:00","32.5","","22.4","","55","","25","","17","","12.9","","99.67","","42","","","","Mainly Clear"
"1988-08-13 12:00","1988","08","13","12:00","32.5","","21.4","","52","","25","","15","","14.5","","99.64","","41","","","","Mainly Clear"
"1988-08-13 13:00","1988","08","13","13:00","33.5","","20.7","","47","","25","","17","","12.9","","99.64","","42","","","","Mainly Clear"
"1988-08-13 14:00","1988","08","13","14:00","34.2","","20.0","","43","","24","","19","","12.9","","99.61","","42","","","","Mainly Clear"
"1988-08-13 15:00","1988","08","13","15:00","33.6","","19.7","","44","","26","","19","","12.9","","99.57","","41","","","","Mostly Cloudy"
"1988-08-13 16:00","1988","08","13","16:00","34.0","","18.9","","41","","26","","19","","19.3","","99.54","","41","","","","Mostly Cloudy"
"1988-08-13 17:00","1988","08","13","17:00","33.4","","19.4","","44","","26","","15","","19.3","","99.44","","40","","","","Mainly Clear"
"1988-08-13 18:00","1988","08","13","18:00","32.8","","19.4","","45","","24","","15","","19.3","","99.41","","40","","","","Mostly Cloudy"
"1988-08-13 19:00","1988","08","13","19:00","31.1","","20.6","","54","","22","","17","","19.3","","99.47","","39","","","","Mostly Cloudy"
"1988-08-13 20:00","1988","08","13","20:00","29.6","","22.6","","66","","23","","7","","9.7","","99.51","","39","","","","Haze"
"1988-08-13 21:00","1988","08","13","21:00","28.9","","22.7","","69","","23","","15","","9.7","","99.54","","39","","","","Haze"
"1988-08-13 22:00","1988","08","13","22:00","28.0","","22.5","","72","","23","","9","","9.7","","99.51","","38","","","","Haze"
"1988-08-13 23:00","1988","08","13","23:00","26.4","","22.1","","77","","22","","7","","9.7","","99.51","","36","","","","Haze"
"1988-08-14 00:00","1988","08","14","00:00","26.4","","22.1","","77","","18","","9","","8.0","","99.51","","36","","","","Haze"
"1988-08-14 01:00","1988","08","14","01:00","25.8","","21.8","","79","","18","","7","","6.4","","99.41","","35","","","","Haze"
"1988-08-14 02:00","1988","08","14","02:00","25.7","","21.3","","77","","21","","13","","6.4","","99.34","","34","","","","Haze"
"1988-08-14 03:00","1988","08","14","03:00","25.4","","21.9","","81","","22","","11","","6.4","","99.31","","35","","","","Haze"
"1988-08-14 04:00","1988","08","14","04:00","26.0","","21.5","","76","","20","","19","","6.4","","99.24","","35","","","","Haze"
"1988-08-14 05:00","1988","08","14","05:00","25.7","","21.9","","79","","22","","11","","4.8","","99.31","","35","","","","Haze"
"1988-08-14 06:00","1988","08","14","06:00","26.0","","22.7","","82","","22","","11","","4.8","","99.31","","36","","","","Haze"
"1988-08-14 07:00","1988","08","14","07:00","26.5","","23.2","","82","","21","","15","","4.8","","99.31","","37","","","","Haze"
"1988-08-14 08:00","1988","08","14","08:00","27.8","","22.8","","74","","23","","19","","4.8","","99.34","","38","","","","Rain Showers,Haze"
"1988-08-14 09:00","1988","08","14","09:00","26.7","","23.2","","81","","22","","11","","6.4","","99.27","","37","","","","Haze"
"1988-08-14 10:00","1988","08","14","10:00","29.2","","23.6","","72","","22","","22","","6.4","","99.21","","40","","","","Haze"
"1988-08-14 11:00","1988","08","14","11:00","30.2","","22.0","","62","","23","","22","","11.3","","99.17","","40","","","","Mainly Clear"
"1988-08-14 12:00","1988","08","14","12:00","31.6","","22.2","","58","","24","","28","","12.9","","99.14","","41","","","","Mostly Cloudy"
"1988-08-14 13:00","1988","08","14","13:00","32.7","","22.1","","54","","22","","20","","12.9","","99.07","","42","","","","Mainly Clear"
"1988-08-14 14:00","1988","08","14","14:00","33.5","","22.0","","51","","23","","26","","16.1","","99.01","","43","","","","Mainly Clear"
"1988-08-14 15:00","1988","08","14","15:00","33.0","","22.0","","53","","23","","24","","16.1","","98.91","","42","","","","Mainly Clear"
"1988-08-14 16:00","1988","08","14","16:00","32.1","","22.7","","58","","22","","26","","16.1","","98.91","","42","","","","Mainly Clear"
"1988-08-14 17:00","1988","08","14","17:00","31.3","","23.4","","63","","22","","26","","16.1","","98.84","","42","","","","Mainly Clear"
"1988-08-14 18:00","1988","08","14","18:00","30.6","","23.2","","65","","23","","28","","12.9","","98.84","","41","","","","Mainly Clear"
"1988-08-14 19:00","1988","08","14","19:00","30.0","","22.9","","66","","22","","26","","12.9","","98.77","","40","","","","Mostly Cloudy"
"1988-08-14 20:00","1988","08","14","20:00","27.4","","22.5","","75","","22","","19","","11.3","","98.81","","37","","","","Thunderstorms"
"1988-08-14 21:00","1988","08","14","21:00","25.7","","19.8","","70","","23","","15","","11.3","","98.81","","33","","","","Rain Showers"
"1988-08-14 22:00","1988","08","14","22:00","23.8","","21.2","","86","","25","","15","","9.7","","98.81","","32","","","","Rain Showers,Haze"
"1988-08-14 23:00","1988","08","14","23:00","24.2","","20.9","","82","","22","","6","","16.1","","98.81","","33","","","","Mainly Clear"
"1988-08-15 00:00","1988","08","15","00:00","22.8","","20.4","","86","","4","","4","","9.7","","98.77","","31","","","","Fog"
"1988-08-15 01:00","1988","08","15","01:00","23.3","","21.2","","88","","24","","7","","12.9","","98.77","","32","","","","Thunderstorms"
"1988-08-15 02:00","1988","08","15","02:00","23.3","","20.4","","84","","24","","15","","17.7","","98.74","","31","","","","Mainly Clear"
"1988-08-15 03:00","1988","08","15","03:00","22.0","","20.0","","88","","22","","9","","11.3","","98.74","","30","","","","Mainly Clear"
"1988-08-15 04:00","1988","08","15","04:00","21.6","","19.5","","88","","24","","13","","19.3","","98.71","","29","","","","Mainly Clear"
"1988-08-15 05:00","1988","08","15","05:00","21.7","","19.2","","86","","24","","11","","19.3","","98.77","","29","","","","Mainly Clear"
"1988-08-15 06:00","1988","08","15","06:00","22.3","","18.4","","79","","27","","24","","24.1","","98.77","","29","","","","Mostly Cloudy"
"1988-08-15 07:00","1988","08","15","07:00","22.0","","15.9","","68","","27","","26","","40.2","","98.81","","27","","","","Mostly Cloudy"
"1988-08-15 08:00","1988","08","15","08:00","21.0","","15.4","","70","","28","","37","","40.2","","98.87","","25","","","","Mostly Cloudy"
"1988-08-15 09:00","1988","08","15","09:00","21.9","","16.2","","70","","28","","37","","32.2","","98.94","","27","","","","Mostly Cloudy"
"1988-08-15 10:00","1988","08","15","10:00","21.4","","16.3","","73","","28","","33","","40.2","","99.01","","26","","","","Mostly Cloudy"
"1988-08-15 11:00","1988","08","15","11:00","22.9","","16.0","","65","","29","","28","","40.2","","99.01","","28","","","","Mostly Cloudy"
"1988-08-15 12:00","1988","08","15","12:00","23.7","","15.9","","62","","29","","35","","40.2","","99.07","","28","","","","Mostly Cloudy"
"1988-08-15 13:00","1988","08","15","13:00","22.6","","15.4","","64","","30","","37","","40.2","","99.11","","27","","","","Mostly Cloudy"
"1988-08-15 14:00","1988","08","15","14:00","23.0","","16.0","","65","","29","","39","","40.2","","99.14","","28","","","","Mostly Cloudy"
"1988-08-15 15:00","1988","08","15","15:00","23.5","","16.6","","65","","31","","33","","40.2","","99.14","","29","","","","Mostly Cloudy"
"1988-08-15 16:00","1988","08","15","16:00","25.5","","16.2","","57","","30","","35","","40.2","","99.11","","30","","","","Mainly Clear"
"1988-08-15 17:00","1988","08","15","17:00","25.2","","15.6","","55","","31","","26","","40.2","","99.11","","30","","","","Mainly Clear"
"1988-08-15 18:00","1988","08","15","18:00","25.5","","14.0","","49","","30","","26","","40.2","","99.17","","29","","","","Clear"
"1988-08-15 19:00","1988","08","15","19:00","23.8","","13.2","","52","","31","","17","","40.2","","99.17","","27","","","","Clear"
"1988-08-15 20:00","1988","08","15","20:00","21.7","","10.4","","49","","30","","19","","25.0","","99.24","","","","","","Clear"
"1988-08-15 21:00","1988","08","15","21:00","19.5","","12.3","","63","","31","","11","","25.0","","99.31","","","","","","Clear"
"1988-08-15 22:00","1988","08","15","22:00","18.4","","14.0","","76","","30","","11","","25.0","","99.31","","","","","","Clear"
"1988-08-15 23:00","1988","08","15","23:00","17.6","","14.0","","79","","","","0","","25.0","","99.34","","","","","","Clear"
"1988-08-16 00:00","1988","08","16","00:00","17.3","","14.3","","83","","27","","7","","25.0","","99.37","","","","","","Clear"
"1988-08-16 01:00","1988","08","16","01:00","17.1","","14.4","","84","","29","","7","","25.0","","99.41","","","","","","Clear"
"1988-08-16 02:00","1988","08","16","02:00","16.2","","14.1","","87","","31","","11","","25.0","","99.44","","","","","","Clear"
"1988-08-16 03:00","1988","08","16","03:00","15.8","","14.1","","90","","32","","7","","25.0","","99.44","","","","","","Clear"
"1988-08-16 04:00","1988","08","16","04:00","15.0","","13.4","","90","","32","","7","","25.0","","99.47","","","","","","Clear"
"1988-08-16 05:00","1988","08","16","05:00","15.1","","13.4","","89","","32","","6","","25.0","","99.51","","","","","","Clear"
"1988-08-16 06:00","1988","08","16","06:00","14.9","","13.7","","93","","28","","6","","40.2","","99.54","","","","","","Mainly Clear"
"1988-08-16 07:00","1988","08","16","07:00","18.3","","16.0","","87","","","","0","","40.2","","99.51","","","","","","Clear"
"1988-08-16 08:00","1988","08","16","08:00","22.5","","15.1","","63","","27","","7","","32.2","","99.57","","27","","","","Clear"
"1988-08-16 09:00","1988","08","16","09:00","25.0","","13.7","","50","","29","","9","","32.2","","99.57","","28","","","","Mainly Clear"
"1988-08-16 10:00","1988","08","16","10:00","26.9","","14.4","","46","","28","","17","","32.2","","99.61","","31","","","","Mainly Clear"
"1988-08-16 11:00","1988","08","16","11:00","28.4","","13.2","","39","","27","","19","","40.2","","99.61","","31","","","","Mainly Clear"
"1988-08-16 12:00","1988","08","16","12:00","29.1","","13.5","","38","","29","","24","","32.2","","99.61","","32","","","","Mainly Clear"
"1988-08-16 13:00","1988","08","16","13:00","29.6","","15.7","","43","","26","","19","","32.2","","99.57","","34","","","","Mostly Cloudy"
"1988-08-16 14:00","1988","08","16","14:00","30.0","","16.3","","44","","26","","13","","32.2","","99.44","","35","","","","Cloudy"
"1988-08-16 15:00","1988","08","16","15:00","29.0","","16.2","","46","","25","","15","","32.2","","99.41","","34","","","","Cloudy"
"1988-08-16 16:00","1988","08","16","16:00","29.4","","16.4","","46","","21","","11","","32.2","","99.14","","34","","","","Mostly Cloudy"
"1988-08-16 17:00","1988","08","16","17:00","29.2","","16.2","","45","","24","","13","","40.2","","99.24","","34","","","","Mostly Cloudy"
"1988-08-16 18:00","1988","08","16","18:00","27.8","","18.4","","57","","22","","17","","40.2","","99.27","","34","","","","Mostly Cloudy"
"1988-08-16 19:00","1988","08","16","19:00","26.8","","18.6","","61","","24","","9","","40.2","","99.24","","33","","","","Mostly Cloudy"
"1988-08-16 20:00","1988","08","16","20:00","23.4","","18.5","","74","","24","","7","","25.0","","99.27","","30","","","","Mainly Clear"
"1988-08-16 21:00","1988","08","16","21:00","23.0","","18.6","","76","","26","","6","","25.0","","99.37","","29","","","","Clear"
"1988-08-16 22:00","1988","08","16","22:00","21.7","","17.6","","78","","28","","6","","25.0","","99.34","","27","","","","Clear"
"1988-08-16 23:00","1988","08","16","23:00","21.6","","17.9","","79","","27","","6","","25.0","","99.24","","28","","","","Mainly Clear"
"1988-08-17 00:00","1988","08","17","00:00","20.6","","18.1","","86","","25","","7","","25.0","","99.27","","27","","","","Mostly Cloudy"
"1988-08-17 01:00","1988","08","17","01:00","20.8","","18.6","","87","","24","","7","","24.1","","99.24","","27","","","","Mostly Cloudy"
"1988-08-17 02:00","1988","08","17","02:00","20.8","","19.2","","91","","23","","9","","24.1","","99.17","","28","","","","Cloudy"
"1988-08-17 03:00","1988","08","17","03:00","21.1","","18.9","","87","","33","","9","","24.1","","99.27","","28","","","","Thunderstorms,Rain Showers"
"1988-08-17 04:00","1988","08","17","04:00","20.7","","19.0","","90","","24","","7","","9.7","","99.31","","27","","","","Thunderstorms,Rain Showers,Fog"
"1988-08-17 05:00","1988","08","17","05:00","20.9","","19.8","","93","","20","","9","","24.1","","99.11","","28","","","","Cloudy"
"1988-08-17 06:00","1988","08","17","06:00","21.4","","19.5","","89","","21","","15","","19.3","","99.07","","29","","","","Cloudy"
"1988-08-17 07:00","1988","08","17","07:00","21.8","","20.0","","90","","3","","20","","19.3","","99.11","","29","","","","Cloudy"
"1988-08-17 08:00","1988","08","17","08:00","21.4","","20.4","","94","","15","","17","","2.0","","99.04","","29","","","","Thunderstorms,Heavy Rain Showers,Fog"
"1988-08-17 09:00","1988","08","17","09:00","21.8","","20.9","","95","","15","","13","","9.7","","98.97","","30","","","","Fog"
"1988-08-17 10:00","1988","08","17","10:00","22.3","","20.5","","90","","17","","15","","8.0","","98.87","","30","","","","Fog"
"1988-08-17 11:00","1988","08","17","11:00","23.7","","20.9","","84","","16","","4","","9.7","","98.74","","32","","","","Haze"
"1988-08-17 12:00","1988","08","17","12:00","28.4","","21.8","","67","","30","","37","","11.3","","98.74","","38","","","","Mostly Cloudy"
"1988-08-17 13:00","1988","08","17","13:00","29.9","","21.1","","59","","29","","26","","19.3","","98.74","","38","","","","Mostly Cloudy"
"1988-08-17 14:00","1988","08","17","14:00","28.1","","21.6","","68","","34","","33","","24.1","","98.81","","37","","","","Mostly Cloudy"
"1988-08-17 15:00","1988","08","17","15:00","28.0","","20.4","","63","","33","","30","","40.2","","98.91","","36","","","","Mostly Cloudy"
"1988-08-17 16:00","1988","08","17","16:00","26.8","","19.6","","65","","32","","24","","40.2","","98.94","","34","","","","Mainly Clear"
"1988-08-17 17:00","1988","08","17","17:00","27.1","","18.3","","59","","32","","24","","40.2","","98.97","","33","","","","Mostly Cloudy"
"1988-08-17 18:00","1988","08","17","18:00","25.7","","18.5","","64","","34","","30","","40.2","","99.01","","32","","","","Mostly Cloudy"
"1988-08-17 19:00","1988","08","17","19:00","24.0","","19.1","","74","","34","","20","","40.2","","99.07","","31","","","","Mainly Clear"
"1988-08-17 20:00","1988","08","17","20:00","22.2","","18.5","","79","","33","","11","","40.2","","99.21","","29","","","","Mainly Clear"
"1988-08-17 21:00","1988","08","17","21:00","21.9","","19.1","","84","","34","","19","","25.0","","99.21","","29","","","","Clear"
"1988-08-17 22:00","1988","08","17","22:00","21.3","","18.9","","86","","35","","17","","25.0","","99.14","","28","","","","Clear"
"1988-08-17 23:00","1988","08","17","23:00","21.0","","18.9","","88","","35","","17","","25.0","","99.21","","28","","","","Clear"
"1988-08-18 00:00","1988","08","18","00:00","20.6","","18.1","","86","","36","","17","","25.0","","99.24","","27","","","","Clear"
"1988-08-18 01:00","1988","08","18","01:00","19.7","","16.8","","83","","35","","13","","25.0","","99.31","","","","","","Clear"
"1988-08-18 02:00","1988","08","18","02:00","19.0","","15.9","","82","","36","","11","","25.0","","99.37","","","","","","Mostly Cloudy"
"1988-08-18 03:00","1988","08","18","03:00","18.2","","14.5","","79","","2","","17","","25.0","","99.47","","","","","","Mostly Cloudy"
"1988-08-18 04:00","1988","08","18","04:00","17.4","","9.5","","60","","4","","19","","25.0","","99.47","","","","","","Mainly Clear"
"1988-08-18 05:00","1988","08","18","05:00","16.5","","8.7","","60","","3","","13","","25.0","","99.57","","","","","","Mainly Clear"
"1988-08-18 06:00","1988","08","18","06:00","15.7","","7.9","","60","","3","","17","","40.2","","99.64","","","","","","Mostly Cloudy"
"1988-08-18 07:00","1988","08","18","07:00","16.1","","8.1","","59","","1","","17","","40.2","","99.64","","","","","","Mostly Cloudy"
"1988-08-18 08:00","1988","08","18","08:00","15.7","","6.6","","55","","2","","15","","40.2","","99.64","","","","","","Mostly Cloudy"
"1988-08-18 09:00","1988","08","18","09:00","16.5","","7.0","","53","","1","","13","","40.2","","99.67","","","","","","Mainly Clear"
"1988-08-18 10:00","1988","08","18","10:00","17.8","","7.6","","51","","1","","9","","40.2","","99.71","","","","","","Mainly Clear"
"1988-08-18 11:00","1988","08","18","11:00","19.3","","6.4","","43","","35","","9","","40.2","","99.64","","","","","","Mainly Clear"
"1988-08-18 12:00","1988","08","18","12:00","20.6","","4.9","","36","","30","","11","","40.2","","99.61","","","","","","Mainly Clear"
"1988-08-18 13:00","1988","08","18","13:00","21.2","","5.7","","36","","32","","9","","40.2","","99.61","","","","","","Mainly Clear"
"1988-08-18 14:00","1988","08","18","14:00","21.5","","3.8","","31","","1","","15","","40.2","","99.57","","","","","","Mostly Cloudy"
"1988-08-18 15:00","1988","08","18","15:00","22.2","","1.7","","26","","4","","9","","40.2","","99.51","","","","","","Mostly Cloudy"
"1988-08-18 16:00","1988","08","18","16:00","22.6","","0.7","","23","","1","","19","","40.2","","99.51","","","","","","Mostly Cloudy"
"1988-08-18 17:00","1988","08","18","17:00","21.2","","1.1","","26","","2","","13","","40.2","","99.51","","","","","","Mostly Cloudy"
"1988-08-18 18:00","1988","08","18","18:00","20.9","","5.1","","36","","2","","13","","40.2","","99.47","","","","","","Mostly Cloudy"
"1988-08-18 19:00","1988","08","18","19:00","19.7","","4.4","","36","","34","","13","","40.2","","99.51","","","","","","Mostly Cloudy"
"1988-08-18 20:00","1988","08","18","20:00","16.4","","8.3","","59","","33","","13","","25.0","","99.54","","","","","","Mostly Cloudy"
"1988-08-18 21:00","1988","08","18","21:00","15.9","","8.5","","62","","34","","11","","25.0","","99.51","","","","","","Mostly Cloudy"
"1988-08-18 22:00","1988","08","18","22:00","14.7","","8.4","","66","","33","","11","","25.0","","99.54","","","","","","Mainly Clear"
"1988-08-18 23:00","1988","08","18","23:00","14.0","","8.6","","70","","34","","11","","25.0","","99.51","","","","","","Mainly Clear"
"1988-08-19 00:00","1988","08","19","00:00","12.9","","8.3","","74","","35","","13","","25.0","","99.51","","","","","","Clear"
"1988-08-19 01:00","1988","08","19","01:00","12.7","","8.1","","74","","35","","9","","25.0","","99.51","","","","","","Mainly Clear"
"1988-08-19 02:00","1988","08","19","02:00","11.5","","8.6","","82","","35","","7","","25.0","","99.54","","","","","","Mostly Cloudy"
"1988-08-19 03:00","1988","08","19","03:00","10.5","","7.9","","84","","33","","7","","25.0","","99.54","","","","","","Clear"
"1988-08-19 04:00","1988","08","19","04:00","9.9","","7.7","","86","","33","","7","","25.0","","99.54","","","","","","Clear"
"1988-08-19 05:00","1988","08","19","05:00","9.4","","7.6","","89","","32","","7","","25.0","","99.57","","","","","","Clear"
"1988-08-19 06:00","1988","08","19","06:00","9.7","","6.8","","82","","32","","7","","40.2","","99.57","","","","","","Clear"
"1988-08-19 07:00","1988","08","19","07:00","12.6","","8.1","","74","","35","","7","","40.2","","99.57","","","","","","Mainly Clear"
"1988-08-19 08:00","1988","08","19","08:00","15.9","","8.5","","62","","1","","6","","40.2","","99.57","","","","","","Mainly Clear"
"1988-08-19 09:00","1988","08","19","09:00","19.3","","7.8","","47","","11","","9","","40.2","","99.57","","","","","","Mainly Clear"
"1988-08-19 10:00","1988","08","19","10:00","19.4","","9.1","","51","","","","0","","40.2","","99.61","","","","","","Mainly Clear"
"1988-08-19 11:00","1988","08","19","11:00","20.2","","9.8","","51","","14","","9","","40.2","","99.57","","","","","","Mainly Clear"
"1988-08-19 12:00","1988","08","19","12:00","20.7","","9.6","","49","","18","","6","","40.2","","99.54","","","","","","Mainly Clear"
"1988-08-19 13:00","1988","08","19","13:00","22.1","","10.7","","48","","14","","13","","40.2","","99.47","","","","","","Mainly Clear"
"1988-08-19 14:00","1988","08","19","14:00","21.0","","8.9","","46","","13","","9","","40.2","","99.41","","","","","","Mainly Clear"
"1988-08-19 15:00","1988","08","19","15:00","21.9","","9.4","","45","","13","","9","","40.2","","99.34","","","","","","Clear"
"1988-08-19 16:00","1988","08","19","16:00","21.6","","8.3","","42","","14","","9","","40.2","","99.31","","","","","","Clear"
"1988-08-19 17:00","1988","08","19","17:00","21.7","","8.3","","42","","16","","7","","40.2","","99.27","","","","","","Clear"
"1988-08-19 18:00","1988","08","19","18:00","20.8","","8.1","","44","","14","","7","","40.2","","99.24","","","","","","Clear"
"1988-08-19 19:00","1988","08","19","19:00","19.1","","8.5","","50","","16","","7","","40.2","","99.24","","","","","","Mainly Clear"
"1988-08-19 20:00","1988","08","19","20:00","18.6","","8.7","","53","","17","","2","","25.0","","99.27","","","","","","Mainly Clear"
"1988-08-19 21:00","1988","08","19","21:00","17.7","","8.3","","54","","","","0","","25.0","","99.31","","","","","","Clear"
"1988-08-19 22:00","1988","08","19","22:00","13.8","","9.8","","77","","34","","9","","25.0","","99.27","","","","","","Clear"
"1988-08-19 23:00","1988","08","19","23:00","14.0","","9.4","","74","","34","","9","","25.0","","99.31","","","","","","Clear"
"1988-08-20 00:00","1988","08","20","00:00","12.7","","8.5","","75","","34","","7","","25.0","","99.27","","","","","","Clear"
"1988-08-20 01:00","1988","08","20","01:00","11.3","","9.0","","86","","34","","6","","25.0","","99.24","","","","","","Clear"
"1988-08-20 02:00","1988","08","20","02:00","11.1","","8.0","","81","","34","","7","","25.0","","99.24","","","","","","Clear"
"1988-08-20 03:00","1988","08","20","03:00","10.2","","7.4","","83","","33","","6","","25.0","","99.21","","","","","","Clear"
"1988-08-20 04:00","1988","08","20","04:00","11.1","","6.8","","75","","34","","4","","25.0","","99.21","","","","","","Clear"
"1988-08-20 05:00","1988","08","20","05:00","11.0","","7.2","","78","","34","","11","","25.0","","99.21","","","","","","Mainly Clear"
"1988-08-20 06:00","1988","08","20","06:00","11.1","","7.2","","77","","33","","4","","40.2","","99.17","","","","","","Mainly Clear"
"1988-08-20 07:00","1988","08","20","07:00","13.3","","9.2","","76","","33","","6","","40.2","","99.17","","","","","","Mainly Clear"
"1988-08-20 08:00","1988","08","20","08:00","17.0","","9.3","","60","","36","","6","","40.2","","99.17","","","","","","Mainly Clear"
"1988-08-20 09:00","1988","08","20","09:00","20.2","","8.5","","47","","4","","4","","40.2","","99.17","","","","","","Mainly Clear"
"1988-08-20 10:00","1988","08","20","10:00","21.3","","7.4","","41","","","","0","","40.2","","99.14","","","","","","Mostly Cloudy"
"1988-08-20 11:00","1988","08","20","11:00","22.6","","6.9","","36","","15","","4","","40.2","","99.11","","","","","","Mostly Cloudy"
"1988-08-20 12:00","1988","08","20","12:00","23.3","","7.4","","36","","6","","4","","40.2","","99.04","","","","","","Mainly Clear"
"1988-08-20 13:00","1988","08","20","13:00","24.1","","5.7","","31","","16","","6","","40.2","","99.01","","","","","","Mainly Clear"
"1988-08-20 14:00","1988","08","20","14:00","24.7","","5.4","","29","","16","","11","","40.2","","98.94","","","","","","Mainly Clear"
"1988-08-20 15:00","1988","08","20","15:00","24.2","","5.7","","30","","13","","9","","40.2","","98.87","","","","","","Mainly Clear"
"1988-08-20 16:00","1988","08","20","16:00","23.8","","6.2","","32","","15","","11","","40.2","","98.84","","","","","","Mainly Clear"
"1988-08-20 17:00","1988","08","20","17:00","23.6","","4.9","","30","","15","","13","","40.2","","98.81","","","","","","Mainly Clear"
"1988-08-20 18:00","1988","08","20","18:00","22.1","","4.6","","32","","15","","7","","40.2","","98.81","","","","","","Mainly Clear"
"1988-08-20 19:00","1988","08","20","19:00","20.9","","6.6","","40","","14","","6","","40.2","","98.81","","","","","","Mainly Clear"
"1988-08-20 20:00","1988","08","20","20:00","19.0","","5.7","","42","","3","","6","","25.0","","98.91","","","","","","Mainly Clear"
"1988-08-20 21:00","1988","08","20","21:00","19.5","","11.9","","61","","35","","9","","25.0","","98.94","","","","","","Clear"
"1988-08-20 22:00","1988","08","20","22:00","17.9","","12.8","","72","","34","","7","","25.0","","99.01","","","","","","Clear"
"1988-08-20 23:00","1988","08","20","23:00","17.1","","12.7","","75","","35","","9","","25.0","","99.04","","","","","","Clear"
"1988-08-21 00:00","1988","08","21","00:00","14.9","","12.7","","87","","32","","7","","25.0","","99.04","","","","","","Mainly Clear"
"1988-08-21 01:00","1988","08","21","01:00","14.7","","11.8","","83","","32","","7","","25.0","","99.11","","","","","","Clear"
"1988-08-21 02:00","1988","08","21","02:00","13.5","","11.5","","88","","32","","7","","25.0","","99.07","","","","","","Clear"
"1988-08-21 03:00","1988","08","21","03:00","13.0","","10.9","","87","","29","","4","","25.0","","99.14","","","","","","Mostly Cloudy"
"1988-08-21 04:00","1988","08","21","04:00","12.3","","10.6","","90","","33","","11","","25.0","","99.21","","","","","","Clear"
"1988-08-21 05:00","1988","08","21","05:00","12.0","","11.1","","94","","34","","17","","25.0","","99.31","","","","","","Clear"
"1988-08-21 06:00","1988","08","21","06:00","14.0","","12.0","","88","","35","","13","","40.2","","99.41","","","","","","Clear"
"1988-08-21 07:00","1988","08","21","07:00","15.0","","11.3","","78","","35","","15","","40.2","","99.47","","","","","","Mainly Clear"
"1988-08-21 08:00","1988","08","21","08:00","16.8","","8.1","","57","","36","","19","","40.2","","99.57","","","","","","Mainly Clear"
"1988-08-21 09:00","1988","08","21","09:00","18.0","","5.3","","43","","35","","15","","40.2","","99.61","","","","","","Mainly Clear"
"1988-08-21 10:00","1988","08","21","10:00","18.6","","4.5","","39","","35","","15","","40.2","","99.64","","","","","","Mainly Clear"
"1988-08-21 11:00","1988","08","21","11:00","19.8","","4.6","","37","","35","","15","","40.2","","99.71","","","","","","Mainly Clear"
"1988-08-21 12:00","1988","08","21","12:00","20.6","","3.3","","32","","36","","11","","40.2","","99.71","","","","","","Mainly Clear"
"1988-08-21 13:00","1988","08","21","13:00","21.2","","2.9","","30","","32","","7","","40.2","","99.71","","","","","","Clear"
"1988-08-21 14:00","1988","08","21","14:00","21.4","","3.8","","31","","30","","13","","40.2","","99.71","","","","","","Clear"
"1988-08-21 15:00","1988","08","21","15:00","21.5","","3.2","","30","","36","","9","","40.2","","99.71","","","","","","Mainly Clear"
"1988-08-21 16:00","1988","08","21","16:00","22.2","","2.9","","28","","35","","13","","40.2","","99.71","","","","","","Mainly Clear"
"1988-08-21 17:00","1988","08","21","17:00","21.4","","3.8","","31","","34","","9","","40.2","","99.71","","","","","","Mainly Clear"
"1988-08-21 18:00","1988","08","21","18:00","19.7","","3.9","","35","","35","","15","","40.2","","99.71","","","","","","Clear"
"1988-08-21 19:00","1988","08","21","19:00","17.5","","5.0","","44","","35","","13","","40.2","","99.74","","","","","","Clear"
"1988-08-21 20:00","1988","08","21","20:00","15.4","","6.1","","54","","35","","13","","25.0","","99.81","","","","","","Clear"
"1988-08-21 21:00","1988","08","21","21:00","13.5","","5.9","","60","","35","","9","","25.0","","99.91","","","","","","Clear"
"1988-08-21 22:00","1988","08","21","22:00","10.8","","6.0","","72","","33","","9","","25.0","","99.97","","","","","","Clear"
"1988-08-21 23:00","1988","08","21","23:00","10.2","","6.1","","76","","34","","7","","25.0","","99.97","","","","","","Clear"
"1988-08-22 00:00","1988","08","22","00:00","10.2","","6.1","","76","","35","","9","","25.0","","100.01","","","","","","Clear"
"1988-08-22 01:00","1988","08","22","01:00","9.0","","5.9","","81","","34","","6","","25.0","","100.07","","","","","","Clear"
"1988-08-22 02:00","1988","08","22","02:00","9.1","","5.9","","80","","2","","4","","25.0","","100.11","","","","","","Clear"
"1988-08-22 03:00","1988","08","22","03:00","7.1","","5.0","","86","","34","","4","","25.0","","100.14","","","","","","Clear"
"1988-08-22 04:00","1988","08","22","04:00","7.0","","5.0","","87","","33","","4","","25.0","","100.11","","","","","","Clear"
"1988-08-22 05:00","1988","08","22","05:00","7.1","","5.4","","89","","35","","4","","25.0","","100.14","","","","","","Clear"
"1988-08-22 06:00","1988","08","22","06:00","7.0","","5.8","","92","","32","","6","","40.2","","100.21","","","","","","Clear"
"1988-08-22 07:00","1988","08","22","07:00","11.1","","6.8","","75","","34","","6","","40.2","","100.27","","","","","","Mainly Clear"
"1988-08-22 08:00","1988","08","22","08:00","15.0","","8.1","","63","","","","0","","40.2","","100.27","","","","","","Mainly Clear"
"1988-08-22 09:00","1988","08","22","09:00","17.3","","9.9","","62","","19","","7","","40.2","","100.27","","","","","","Mainly Clear"
"1988-08-22 10:00","1988","08","22","10:00","18.1","","9.7","","58","","9","","7","","40.2","","100.27","","","","","","Mainly Clear"
"1988-08-22 11:00","1988","08","22","11:00","18.4","","9.9","","58","","18","","7","","40.2","","100.27","","","","","","Mainly Clear"
"1988-08-22 12:00","1988","08","22","12:00","19.4","","9.5","","53","","15","","13","","40.2","","100.24","","","","","","Clear"
"1988-08-22 13:00","1988","08","22","13:00","19.3","","9.1","","52","","15","","11","","40.2","","100.24","","","","","","Clear"
"1988-08-22 14:00","1988","08","22","14:00","19.2","","6.7","","44","","16","","13","","40.2","","100.21","","","","","","Clear"
"1988-08-22 15:00","1988","08","22","15:00","19.4","","6.9","","44","","14","","11","","40.2","","100.21","","","","","","Clear"
"1988-08-22 16:00","1988","08","22","16:00","20.0","","5.7","","39","","15","","11","","40.2","","100.17","","","","","","Clear"
"1988-08-22 17:00","1988","08","22","17:00","19.7","","5.4","","39","","17","","11","","40.2","","100.17","","","","","","Mainly Clear"
"1988-08-22 18:00","1988","08","22","18:00","19.0","","6.2","","43","","15","","9","","40.2","","100.11","","","","","","Mostly Cloudy"
"1988-08-22 19:00","1988","08","22","19:00","17.7","","7.4","","51","","13","","6","","40.2","","100.11","","","","","","Mostly Cloudy"
"1988-08-22 20:00","1988","08","22","20:00","17.1","","8.5","","57","","11","","7","","25.0","","100.07","","","","","","Cloudy"
"1988-08-22 21:00","1988","08","22","21:00","16.9","","8.1","","56","","10","","9","","25.0","","100.04","","","","","","Cloudy"
"1988-08-22 22:00","1988","08","22","22:00","16.9","","7.6","","54","","12","","7","","25.0","","100.04","","","","","","Cloudy"
"1988-08-22 23:00","1988","08","22","23:00","16.3","","8.3","","59","","11","","7","","25.0","","100.01","","","","","","Cloudy"
"1988-08-23 00:00","1988","08","23","00:00","15.6","","8.3","","62","","10","","6","","25.0","","100.01","","","","","","Mostly Cloudy"
"1988-08-23 01:00","1988","08","23","01:00","15.3","","10.3","","72","","10","","7","","25.0","","99.94","","","","","","Mostly Cloudy"
"1988-08-23 02:00","1988","08","23","02:00","14.8","","9.0","","68","","10","","7","","25.0","","99.87","","","","","","Cloudy"
"1988-08-23 03:00","1988","08","23","03:00","15.1","","8.1","","63","","5","","6","","25.0","","99.81","","","","","","Cloudy"
"1988-08-23 04:00","1988","08","23","04:00","15.6","","8.3","","62","","9","","9","","25.0","","99.77","","","","","","Cloudy"
"1988-08-23 05:00","1988","08","23","05:00","15.8","","9.7","","67","","9","","11","","25.0","","99.71","","","","","","Mostly Cloudy"
"1988-08-23 06:00","1988","08","23","06:00","16.2","","9.7","","65","","10","","11","","40.2","","99.67","","","","","","Mostly Cloudy"
"1988-08-23 07:00","1988","08","23","07:00","16.8","","10.1","","65","","10","","9","","40.2","","99.64","","","","","","Cloudy"
"1988-08-23 08:00","1988","08","23","08:00","17.8","","10.1","","61","","11","","11","","40.2","","99.57","","","","","","Cloudy"
"1988-08-23 09:00","1988","08","23","09:00","18.1","","10.5","","61","","12","","7","","40.2","","99.51","","","","","","Cloudy"
"1988-08-23 10:00","1988","08","23","10:00","18.0","","10.5","","62","","10","","9","","40.2","","99.47","","","","","","Cloudy"
"1988-08-23 11:00","1988","08","23","11:00","17.7","","10.7","","64","","7","","17","","32.2","","99.41","","","","","","Rain Showers"
"1988-08-23 12:00","1988","08","23","12:00","17.9","","11.3","","65","","10","","17","","40.2","","99.31","","","","","","Cloudy"
"1988-08-23 13:00","1988","08","23","13:00","17.3","","13.3","","77","","11","","15","","12.9","","99.27","","","","","","Rain"
"1988-08-23 14:00","1988","08","23","14:00","17.2","","13.8","","80","","11","","15","","16.1","","99.17","","","","","","Rain"
"1988-08-23 15:00","1988","08","23","15:00","16.7","","14.3","","86","","11","","13","","2.0","","99.11","","","","","","Heavy Rain,Fog"
"1988-08-23 16:00","1988","08","23","16:00","17.0","","15.8","","93","","11","","17","","4.8","","99.04","","","","","","Rain,Fog"
"1988-08-23 17:00","1988","08","23","17:00","17.5","","17.2","","98","","14","","11","","2.0","","98.94","","","","","","Moderate Rain,Fog"
"1988-08-23 18:00","1988","08","23","18:00","16.8","","16.4","","98","","13","","13","","2.4","","98.94","","","","","","Rain,Fog"
"1988-08-23 19:00","1988","08","23","19:00","16.5","","15.9","","96","","10","","7","","3.2","","98.91","","","","","","Rain,Fog"
"1988-08-23 20:00","1988","08","23","20:00","16.9","","16.7","","99","","10","","13","","6.4","","98.84","","","","","","Rain,Fog"
"1988-08-23 21:00","1988","08","23","21:00","17.0","","16.4","","96","","11","","15","","9.7","","98.81","","","","","","Drizzle,Fog"
"1988-08-23 22:00","1988","08","23","22:00","16.7","","15.9","","95","","11","","15","","4.8","","98.77","","","","","","Fog"
"1988-08-23 23:00","1988","08","23","23:00","16.8","","16.4","","98","","11","","7","","6.4","","98.67","","","","","","Fog"
"1988-08-24 00:00","1988","08","24","00:00","16.9","","16.1","","95","","9","","4","","6.4","","98.64","","","","","","Fog"
"1988-08-24 01:00","1988","08","24","01:00","16.8","","16.4","","98","","","","0","","4.0","","98.61","","","","","","Fog"
"1988-08-24 02:00","1988","08","24","02:00","16.5","","16.2","","98","","32","","7","","1.2","","98.61","","","","","","Fog"
"1988-08-24 03:00","1988","08","24","03:00","16.5","","16.2","","98","","29","","4","","2.4","","98.57","","","","","","Fog"
"1988-08-24 04:00","1988","08","24","04:00","16.6","","16.2","","98","","27","","4","","3.2","","98.57","","","","","","Fog"
"1988-08-24 05:00","1988","08","24","05:00","16.6","","15.6","","94","","28","","7","","8.0","","98.61","","","","","","Fog"
"1988-08-24 06:00","1988","08","24","06:00","15.4","","14.5","","94","","25","","6","","9.7","","98.61","","","","","","Fog"
"1988-08-24 07:00","1988","08","24","07:00","16.5","","15.2","","92","","26","","6","","4.8","","98.64","","","","","","Fog"
"1988-08-24 08:00","1988","08","24","08:00","17.6","","15.6","","88","","25","","9","","6.4","","98.64","","","","","","Fog"
"1988-08-24 09:00","1988","08","24","09:00","18.6","","15.4","","82","","27","","15","","12.9","","98.61","","","","","","Mostly Cloudy"
"1988-08-24 10:00","1988","08","24","10:00","19.9","","16.0","","78","","22","","7","","12.9","","98.57","","","","","","Mostly Cloudy"
"1988-08-24 11:00","1988","08","24","11:00","22.0","","18.5","","81","","20","","9","","11.3","","98.51","","28","","","","Mostly Cloudy"
"1988-08-24 12:00","1988","08","24","12:00","23.0","","16.3","","66","","17","","13","","12.9","","98.41","","28","","","","Mostly Cloudy"
"1988-08-24 13:00","1988","08","24","13:00","21.7","","16.3","","71","","16","","11","","12.9","","98.37","","27","","","","Thunderstorms,Rain Showers"
"1988-08-24 14:00","1988","08","24","14:00","17.6","","15.0","","85","","16","","13","","16.1","","98.37","","","","","","Mostly Cloudy"
"1988-08-24 15:00","1988","08","24","15:00","20.8","","14.4","","67","","16","","13","","24.1","","98.31","","","","","","Mostly Cloudy"
"1988-08-24 16:00","1988","08","24","16:00","21.1","","16.4","","74","","20","","15","","16.1","","98.24","","26","","","","Thunderstorms"
"1988-08-24 17:00","1988","08","24","17:00","20.9","","15.4","","71","","17","","11","","24.1","","98.24","","25","","","","Mostly Cloudy"
"1988-08-24 18:00","1988","08","24","18:00","21.2","","14.0","","63","","29","","24","","24.1","","98.31","","25","","","","Mainly Clear"
"1988-08-24 19:00","1988","08","24","19:00","19.6","","13.7","","69","","35","","15","","24.1","","98.31","","","","","","Mostly Cloudy"
"1988-08-24 20:00","1988","08","24","20:00","17.4","","15.0","","86","","33","","11","","24.1","","98.34","","","","","","Mainly Clear"
"1988-08-24 21:00","1988","08","24","21:00","16.3","","15.2","","93","","","","0","","24.1","","98.34","","","","","","Mostly Cloudy"
"1988-08-24 22:00","1988","08","24","22:00","17.1","","14.1","","83","","25","","9","","25.0","","98.34","","","","","","Mostly Cloudy"
"1988-08-24 23:00","1988","08","24","23:00","16.0","","14.1","","89","","26","","9","","24.1","","98.34","","","","","","Mostly Cloudy"
"1988-08-25 00:00","1988","08","25","00:00","15.2","","13.4","","89","","24","","6","","24.1","","98.34","","","","","","Mostly Cloudy"
"1988-08-25 01:00","1988","08","25","01:00","14.7","","12.8","","88","","26","","4","","24.1","","98.27","","","","","","Mostly Cloudy"
"1988-08-25 02:00","1988","08","25","02:00","14.9","","13.4","","91","","22","","6","","24.1","","98.24","","","","","","Mostly Cloudy"
"1988-08-25 03:00","1988","08","25","03:00","15.0","","13.4","","90","","22","","7","","24.1","","98.21","","","","","","Cloudy"
"1988-08-25 04:00","1988","08","25","04:00","15.1","","13.4","","89","","23","","9","","19.3","","98.21","","","","","","Cloudy"
"1988-08-25 05:00","1988","08","25","05:00","15.4","","13.9","","91","","21","","7","","16.1","","98.21","","","","","","Mostly Cloudy"
"1988-08-25 06:00","1988","08","25","06:00","15.9","","14.4","","91","","20","","7","","12.9","","98.21","","","","","","Mostly Cloudy"
"1988-08-25 07:00","1988","08","25","07:00","16.3","","14.6","","90","","22","","11","","9.7","","98.17","","","","","","Fog"
"1988-08-25 08:00","1988","08","25","08:00","17.7","","14.6","","82","","21","","13","","16.1","","98.14","","","","","","Mostly Cloudy"
"1988-08-25 09:00","1988","08","25","09:00","20.0","","14.3","","70","","25","","19","","24.1","","98.14","","","","","","Mainly Clear"
"1988-08-25 10:00","1988","08","25","10:00","21.0","","15.8","","72","","24","","20","","24.1","","98.11","","25","","","","Mostly Cloudy"
"1988-08-25 11:00","1988","08","25","11:00","22.1","","14.1","","61","","22","","31","","32.2","","98.04","","26","","","","Mostly Cloudy"
"1988-08-25 12:00","1988","08","25","12:00","23.3","","13.7","","55","","23","","30","","32.2","","97.94","","26","","","","Mostly Cloudy"
"1988-08-25 13:00","1988","08","25","13:00","24.5","","14.2","","53","","21","","30","","32.2","","97.87","","28","","","","Mostly Cloudy"
"1988-08-25 14:00","1988","08","25","14:00","24.0","","12.8","","50","","23","","24","","24.1","","97.81","","27","","","","Mostly Cloudy"
"1988-08-25 15:00","1988","08","25","15:00","17.3","","14.3","","83","","23","","17","","24.1","","97.94","","","","","","Thunderstorms"
"1988-08-25 16:00","1988","08","25","16:00","20.7","","14.9","","69","","24","","15","","40.2","","97.94","","25","","","","Mainly Clear"
"1988-08-25 17:00","1988","08","25","17:00","22.4","","10.5","","47","","26","","15","","40.2","","97.94","","","","","","Mainly Clear"
"1988-08-25 18:00","1988","08","25","18:00","21.6","","10.9","","51","","26","","9","","40.2","","97.97","","","","","","Mainly Clear"
"1988-08-25 19:00","1988","08","25","19:00","18.6","","11.1","","62","","36","","6","","40.2","","98.01","","","","","","Mainly Clear"
"1988-08-25 20:00","1988","08","25","20:00","18.4","","9.9","","58","","5","","4","","25.0","","98.04","","","","","","Mainly Clear"
"1988-08-25 21:00","1988","08","25","21:00","16.8","","8.9","","60","","36","","13","","25.0","","98.14","","","","","","Mainly Clear"
"1988-08-25 22:00","1988","08","25","22:00","14.9","","10.5","","75","","27","","11","","25.0","","98.14","","","","","","Mostly Cloudy"
"1988-08-25 23:00","1988","08","25","23:00","16.0","","10.5","","70","","27","","17","","25.0","","98.11","","","","","","Mostly Cloudy"
"1988-08-26 00:00","1988","08","26","00:00","14.8","","10.9","","78","","27","","9","","25.0","","98.17","","","","","","Mainly Clear"
"1988-08-26 01:00","1988","08","26","01:00","13.1","","10.6","","85","","22","","9","","25.0","","98.17","","","","","","Clear"
"1988-08-26 02:00","1988","08","26","02:00","13.0","","10.6","","85","","19","","7","","25.0","","98.17","","","","","","Mainly Clear"
"1988-08-26 03:00","1988","08","26","03:00","13.1","","10.9","","86","","19","","11","","25.0","","98.21","","","","","","Mainly Clear"
"1988-08-26 04:00","1988","08","26","04:00","13.4","","11.1","","86","","23","","13","","25.0","","98.21","","","","","","Clear"
"1988-08-26 05:00","1988","08","26","05:00","14.4","","11.4","","82","","23","","19","","25.0","","98.24","","","","","","Mainly Clear"
"1988-08-26 06:00","1988","08","26","06:00","15.1","","11.6","","80","","23","","20","","40.2","","98.31","","","","","","Mainly Clear"
"1988-08-26 07:00","1988","08","26","07:00","15.9","","12.0","","78","","25","","13","","40.2","","98.41","","","","","","Mostly Cloudy"
"1988-08-26 08:00","1988","08","26","08:00","17.7","","12.9","","73","","25","","26","","40.2","","98.44","","","","","","Mostly Cloudy"
"1988-08-26 09:00","1988","08","26","09:00","18.4","","13.7","","74","","24","","26","","40.2","","98.54","","","","","","Mostly Cloudy"
"1988-08-26 10:00","1988","08","26","10:00","20.1","","13.6","","66","","27","","20","","40.2","","98.61","","","","","","Mostly Cloudy"
"1988-08-26 11:00","1988","08","26","11:00","21.6","","13.2","","59","","28","","22","","40.2","","98.64","","25","","","","Mostly Cloudy"
"1988-08-26 12:00","1988","08","26","12:00","21.1","","13.7","","63","","24","","20","","40.2","","98.74","","","","","","Rain Showers"
"1988-08-26 13:00","1988","08","26","13:00","22.0","","13.4","","58","","24","","22","","40.2","","98.74","","25","","","","Mostly Cloudy"
"1988-08-26 14:00","1988","08","26","14:00","21.0","","12.6","","59","","29","","19","","40.2","","98.84","","","","","","Mostly Cloudy"
"1988-08-26 15:00","1988","08","26","15:00","21.8","","11.9","","53","","27","","19","","40.2","","98.84","","","","","","Mostly Cloudy"
"1988-08-26 16:00","1988","08","26","16:00","22.6","","11.7","","50","","25","","19","","40.2","","98.91","","25","","","","Mainly Clear"
"1988-08-26 17:00","1988","08","26","17:00","21.1","","12.2","","57","","27","","17","","40.2","","99.01","","","","","","Mainly Clear"
"1988-08-26 18:00","1988","08","26","18:00","21.0","","11.0","","53","","29","","13","","40.2","","99.04","","","","","","Mainly Clear"
"1988-08-26 19:00","1988","08","26","19:00","18.5","","10.7","","61","","30","","7","","40.2","","99.14","","","","","","Mainly Clear"
"1988-08-26 20:00","1988","08","26","20:00","16.9","","10.9","","68","","27","","4","","25.0","","99.24","","","","","","Clear"
"1988-08-26 21:00","1988","08","26","21:00","17.3","","10.7","","65","","25","","4","","25.0","","99.31","","","","","","Clear"
"1988-08-26 22:00","1988","08","26","22:00","15.6","","10.7","","73","","26","","4","","25.0","","99.34","","","","","","Clear"
"1988-08-26 23:00","1988","08","26","23:00","13.8","","10.9","","83","","28","","4","","25.0","","99.41","","","","","","Clear"
"1988-08-27 00:00","1988","08","27","00:00","13.8","","10.9","","83","","32","","4","","25.0","","99.41","","","","","","Clear"
"1988-08-27 01:00","1988","08","27","01:00","13.5","","10.7","","83","","","","0","","25.0","","99.44","","","","","","Clear"
"1988-08-27 02:00","1988","08","27","02:00","11.5","","9.7","","89","","31","","4","","25.0","","99.47","","","","","","Mainly Clear"
"1988-08-27 03:00","1988","08","27","03:00","11.8","","10.2","","90","","35","","4","","25.0","","99.47","","","","","","Mainly Clear"
"1988-08-27 04:00","1988","08","27","04:00","11.1","","9.6","","90","","36","","4","","25.0","","99.47","","","","","","Clear"
"1988-08-27 05:00","1988","08","27","05:00","9.5","","8.8","","95","","31","","4","","25.0","","99.47","","","","","","Clear"
"1988-08-27 06:00","1988","08","27","06:00","10.7","","9.0","","89","","","","0","","40.2","","99.54","","","","","","Clear"
"1988-08-27 07:00","1988","08","27","07:00","12.6","","11.1","","91","","","","0","","32.2","","99.57","","","","","","Mainly Clear"
"1988-08-27 08:00","1988","08","27","08:00","17.6","","14.6","","83","","16","","7","","24.1","","99.57","","","","","","Mostly Cloudy"
"1988-08-27 09:00","1988","08","27","09:00","19.8","","16.3","","80","","17","","13","","24.1","","99.54","","","","","","Mostly Cloudy"
"1988-08-27 10:00","1988","08","27","10:00","20.9","","14.7","","68","","16","","17","","40.2","","99.51","","25","","","","Mostly Cloudy"
"1988-08-27 11:00","1988","08","27","11:00","20.9","","15.1","","70","","15","","19","","40.2","","99.47","","25","","","","Mostly Cloudy"
"1988-08-27 12:00","1988","08","27","12:00","21.0","","14.7","","67","","15","","15","","40.2","","99.47","","25","","","","Mostly Cloudy"
"1988-08-27 13:00","1988","08","27","13:00","22.0","","13.8","","60","","15","","9","","32.2","","99.44","","25","","","","Mostly Cloudy"
"1988-08-27 14:00","1988","08","27","14:00","22.4","","12.1","","52","","14","","13","","32.2","","99.41","","25","","","","Mostly Cloudy"
"1988-08-27 15:00","1988","08","27","15:00","22.5","","12.5","","53","","13","","7","","32.2","","99.34","","25","","","","Mostly Cloudy"
"1988-08-27 16:00","1988","08","27","16:00","22.0","","13.0","","57","","11","","9","","32.2","","99.27","","25","","","","Cloudy"
"1988-08-27 17:00","1988","08","27","17:00","21.7","","12.8","","57","","11","","11","","32.2","","99.27","","","","","","Mostly Cloudy"
"1988-08-27 18:00","1988","08","27","18:00","20.6","","13.8","","65","","11","","11","","32.2","","99.21","","","","","","Cloudy"
"1988-08-27 19:00","1988","08","27","19:00","19.7","","14.4","","71","","12","","7","","32.2","","99.21","","","","","","Cloudy"
"1988-08-27 20:00","1988","08","27","20:00","19.5","","15.8","","79","","13","","9","","24.1","","99.21","","","","","","Rain Showers"
"1988-08-27 21:00","1988","08","27","21:00","19.2","","16.9","","86","","15","","7","","19.3","","99.17","","","","","","Rain Showers"
"1988-08-27 22:00","1988","08","27","22:00","19.1","","16.9","","87","","16","","6","","19.3","","99.11","","","","","","Cloudy"
"1988-08-27 23:00","1988","08","27","23:00","19.2","","16.9","","86","","16","","4","","24.1","","99.14","","","","","","Cloudy"
"1988-08-28 00:00","1988","08","28","00:00","19.1","","16.9","","87","","19","","4","","16.1","","99.14","","","","","","Rain"
"1988-08-28 01:00","1988","08","28","01:00","18.7","","15.4","","81","","22","","9","","16.1","","99.11","","","","","","Cloudy"
"1988-08-28 02:00","1988","08","28","02:00","19.1","","14.9","","77","","21","","13","","19.3","","99.14","","","","","","Cloudy"
"1988-08-28 03:00","1988","08","28","03:00","18.6","","15.4","","82","","20","","15","","16.1","","99.21","","","","","","Rain Showers"
"1988-08-28 04:00","1988","08","28","04:00","18.2","","15.2","","83","","21","","15","","16.1","","99.17","","","","","","Cloudy"
"1988-08-28 05:00","1988","08","28","05:00","17.8","","15.5","","87","","21","","9","","16.1","","99.21","","","","","","Cloudy"
"1988-08-28 06:00","1988","08","28","06:00","17.6","","15.3","","86","","21","","7","","12.9","","99.27","","","","","","Cloudy"
"1988-08-28 07:00","1988","08","28","07:00","17.5","","15.6","","89","","21","","7","","12.9","","99.27","","","","","","Rain Showers"
"1988-08-28 08:00","1988","08","28","08:00","17.6","","15.6","","88","","20","","9","","12.9","","99.31","","","","","","Rain"
"1988-08-28 09:00","1988","08","28","09:00","17.4","","16.3","","93","","21","","6","","11.3","","99.34","","","","","","Rain"
"1988-08-28 10:00","1988","08","28","10:00","17.8","","16.8","","94","","21","","6","","11.3","","99.37","","","","","","Cloudy"
"1988-08-28 11:00","1988","08","28","11:00","17.9","","16.5","","92","","24","","4","","11.3","","99.41","","","","","","Rain Showers"
"1988-08-28 12:00","1988","08","28","12:00","18.8","","16.9","","89","","26","","7","","12.9","","99.41","","","","","","Cloudy"
"1988-08-28 13:00","1988","08","28","13:00","21.1","","16.1","","73","","24","","9","","12.9","","99.41","","26","","","","Mostly Cloudy"
"1988-08-28 14:00","1988","08","28","14:00","22.7","","14.7","","61","","28","","9","","32.2","","99.41","","26","","","","Mostly Cloudy"
"1988-08-28 15:00","1988","08","28","15:00","23.5","","14.1","","56","","28","","11","","24.1","","99.41","","27","","","","Mostly Cloudy"
"1988-08-28 16:00","1988","08","28","16:00","23.0","","13.5","","55","","31","","17","","32.2","","99.41","","26","","","","Mostly Cloudy"
"1988-08-28 17:00","1988","08","28","17:00","22.4","","12.9","","55","","31","","17","","32.2","","99.47","","25","","","","Mostly Cloudy"
"1988-08-28 18:00","1988","08","28","18:00","21.4","","11.7","","54","","32","","13","","32.2","","99.51","","","","","","Mostly Cloudy"
"1988-08-28 19:00","1988","08","28","19:00","19.5","","11.2","","59","","35","","13","","32.2","","99.57","","","","","","Mostly Cloudy"
"1988-08-28 20:00","1988","08","28","20:00","18.2","","10.5","","61","","36","","7","","25.0","","99.64","","","","","","Mostly Cloudy"
"1988-08-28 21:00","1988","08","28","21:00","17.5","","10.7","","64","","2","","4","","25.0","","99.71","","","","","","Mostly Cloudy"
"1988-08-28 22:00","1988","08","28","22:00","16.1","","10.1","","68","","","","0","","25.0","","99.74","","","","","","Mostly Cloudy"
"1988-08-28 23:00","1988","08","28","23:00","15.6","","11.1","","75","","","","0","","25.0","","99.77","","","","","","Cloudy"
"1988-08-29 00:00","1988","08","29","00:00","14.4","","11.1","","81","","32","","4","","25.0","","99.77","","","","","","Cloudy"
"1988-08-29 01:00","1988","08","29","01:00","14.9","","11.3","","79","","34","","4","","25.0","","99.77","","","","","","Cloudy"
"1988-08-29 02:00","1988","08","29","02:00","14.4","","11.4","","82","","","","0","","25.0","","99.74","","","","","","Cloudy"
"1988-08-29 03:00","1988","08","29","03:00","13.6","","11.5","","87","","35","","4","","25.0","","99.71","","","","","","Cloudy"
"1988-08-29 04:00","1988","08","29","04:00","13.1","","11.3","","89","","1","","4","","25.0","","99.71","","","","","","Cloudy"
"1988-08-29 05:00","1988","08","29","05:00","13.6","","10.7","","83","","","","0","","25.0","","99.67","","","","","","Cloudy"
"1988-08-29 06:00","1988","08","29","06:00","12.7","","11.1","","90","","34","","9","","40.2","","99.71","","","","","","Mostly Cloudy"
"1988-08-29 07:00","1988","08","29","07:00","12.9","","11.3","","90","","33","","4","","40.2","","99.71","","","","","","Mostly Cloudy"
"1988-08-29 08:00","1988","08","29","08:00","14.0","","12.0","","88","","33","","4","","40.2","","99.74","","","","","","Mostly Cloudy"
"1988-08-29 09:00","1988","08","29","09:00","15.9","","12.3","","79","","1","","4","","40.2","","99.71","","","","","","Mostly Cloudy"
"1988-08-29 10:00","1988","08","29","10:00","17.4","","12.2","","72","","4","","6","","40.2","","99.71","","","","","","Mostly Cloudy"
"1988-08-29 11:00","1988","08","29","11:00","18.3","","14.0","","76","","14","","7","","32.2","","99.71","","","","","","Mostly Cloudy"
"1988-08-29 12:00","1988","08","29","12:00","18.9","","11.7","","63","","12","","13","","32.2","","99.71","","","","","","Mostly Cloudy"
"1988-08-29 13:00","1988","08","29","13:00","18.2","","12.8","","71","","13","","13","","32.2","","99.71","","","","","","Mostly Cloudy"
"1988-08-29 14:00","1988","08","29","14:00","18.5","","11.5","","64","","14","","11","","40.2","","99.64","","","","","","Mostly Cloudy"
"1988-08-29 15:00","1988","08","29","15:00","19.3","","11.2","","60","","15","","13","","40.2","","99.61","","","","","","Mostly Cloudy"
"1988-08-29 16:00","1988","08","29","16:00","18.3","","11.9","","66","","14","","15","","40.2","","99.54","","","","","","Mostly Cloudy"
"1988-08-29 17:00","1988","08","29","17:00","18.2","","11.3","","64","","15","","15","","40.2","","99.61","","","","","","Mostly Cloudy"
"1988-08-29 18:00","1988","08","29","18:00","17.8","","11.7","","68","","14","","11","","40.2","","99.61","","","","","","Mostly Cloudy"
"1988-08-29 19:00","1988","08","29","19:00","16.7","","10.3","","66","","14","","4","","25.0","","99.67","","","","","","Mainly Clear"
"1988-08-29 20:00","1988","08","29","20:00","15.7","","10.3","","70","","15","","4","","25.0","","99.67","","","","","","Mainly Clear"
"1988-08-29 21:00","1988","08","29","21:00","15.3","","11.1","","76","","","","0","","25.0","","99.71","","","","","","Mainly Clear"
"1988-08-29 22:00","1988","08","29","22:00","13.8","","11.6","","87","","","","0","","25.0","","99.71","","","","","","Mostly Cloudy"
"1988-08-29 23:00","1988","08","29","23:00","12.8","","10.9","","88","","33","","6","","25.0","","99.71","","","","","","Mostly Cloudy"
"1988-08-30 00:00","1988","08","30","00:00","12.1","","10.2","","88","","","","0","","25.0","","99.71","","","","","","Clear"
"1988-08-30 01:00","1988","08","30","01:00","10.8","","9.9","","94","","31","","6","","19.3","","99.71","","","","","","Clear"
"1988-08-30 02:00","1988","08","30","02:00","11.0","","9.6","","91","","32","","7","","19.3","","99.67","","","","","","Clear"
"1988-08-30 03:00","1988","08","30","03:00","9.8","","8.9","","94","","34","","9","","19.3","","99.67","","","","","","Clear"
"1988-08-30 04:00","1988","08","30","04:00","9.1","","8.3","","95","","34","","9","","25.0","","99.67","","","","","","Clear"
"1988-08-30 05:00","1988","08","30","05:00","10.1","","9.3","","95","","31","","4","","25.0","","99.74","","","","","","Clear"
"1988-08-30 06:00","1988","08","30","06:00","10.4","","9.0","","91","","30","","6","","40.2","","99.81","","","","","","Clear"
"1988-08-30 07:00","1988","08","30","07:00","12.4","","10.8","","90","","","","0","","40.2","","99.87","","","","","","Clear"
"1988-08-30 08:00","1988","08","30","08:00","16.0","","10.9","","72","","31","","11","","40.2","","99.87","","","","","","Clear"
"1988-08-30 09:00","1988","08","30","09:00","17.6","","10.3","","62","","34","","15","","40.2","","99.87","","","","","","Clear"
"1988-08-30 10:00","1988","08","30","10:00","19.2","","8.9","","51","","36","","4","","40.2","","99.84","","","","","","Mainly Clear"
"1988-08-30 11:00","1988","08","30","11:00","20.5","","8.3","","45","","30","","13","","40.2","","99.81","","","","","","Mostly Cloudy"
"1988-08-30 12:00","1988","08","30","12:00","20.3","","8.7","","47","","24","","9","","40.2","","99.81","","","","","","Mostly Cloudy"
"1988-08-30 13:00","1988","08","30","13:00","21.0","","8.9","","46","","26","","9","","40.2","","99.77","","","","","","Mostly Cloudy"
"1988-08-30 14:00","1988","08","30","14:00","22.1","","9.4","","44","","22","","15","","40.2","","99.71","","","","","","Mostly Cloudy"
"1988-08-30 15:00","1988","08","30","15:00","20.4","","8.3","","46","","33","","13","","40.2","","99.74","","","","","","Mostly Cloudy"
"1988-08-30 16:00","1988","08","30","16:00","21.1","","7.6","","42","","31","","17","","40.2","","99.71","","","","","","Mostly Cloudy"
"1988-08-30 17:00","1988","08","30","17:00","20.9","","9.4","","48","","30","","11","","40.2","","99.71","","","","","","Mostly Cloudy"
"1988-08-30 18:00","1988","08","30","18:00","19.4","","8.7","","50","","31","","9","","40.2","","99.71","","","","","","Mainly Clear"
"1988-08-30 19:00","1988","08","30","19:00","17.6","","9.5","","59","","29","","9","","40.2","","99.71","","","","","","Mainly Clear"
"1988-08-30 20:00","1988","08","30","20:00","15.2","","7.7","","61","","30","","11","","25.0","","99.77","","","","","","Mainly Clear"
"1988-08-30 21:00","1988","08","30","21:00","13.7","","7.6","","67","","32","","11","","25.0","","99.81","","","","","","Clear"
"1988-08-30 22:00","1988","08","30","22:00","11.7","","7.8","","77","","32","","9","","25.0","","99.84","","","","","","Clear"
"1988-08-30 23:00","1988","08","30","23:00","11.4","","7.8","","78","","34","","11","","25.0","","99.84","","","","","","Mainly Clear"
"1988-08-31 00:00","1988","08","31","00:00","10.3","","7.9","","85","","32","","11","","25.0","","99.91","","","","","","Mainly Clear"
"1988-08-31 01:00","1988","08","31","01:00","11.2","","7.6","","78","","31","","4","","25.0","","99.91","","","","","","Mainly Clear"
"1988-08-31 02:00","1988","08","31","02:00","8.8","","7.5","","92","","30","","7","","25.0","","99.94","","","","","","Mainly Clear"
"1988-08-31 03:00","1988","08","31","03:00","10.3","","8.7","","90","","32","","4","","25.0","","99.94","","","","","","Mainly Clear"
"1988-08-31 04:00","1988","08","31","04:00","9.6","","7.6","","87","","27","","6","","25.0","","99.97","","","","","","Mainly Clear"
"1988-08-31 05:00","1988","08","31","05:00","8.7","","7.4","","91","","26","","7","","25.0","","100.01","","","","","","Mainly Clear"
"1988-08-31 06:00","1988","08","31","06:00","9.0","","7.5","","90","","34","","6","","40.2","","100.07","","","","","","Mainly Clear"
"1988-08-31 07:00","1988","08","31","07:00","11.5","","9.7","","89","","30","","4","","40.2","","100.11","","","","","","Clear"
"1988-08-31 08:00","1988","08","31","08:00","15.7","","10.7","","72","","32","","9","","40.2","","100.14","","","","","","Clear"
"1988-08-31 09:00","1988","08","31","09:00","18.0","","10.1","","60","","32","","13","","40.2","","100.17","","","","","","Clear"
"1988-08-31 10:00","1988","08","31","10:00","19.2","","8.9","","51","","36","","7","","40.2","","100.21","","","","","","Clear"
"1988-08-31 11:00","1988","08","31","11:00","20.9","","8.5","","45","","5","","6","","40.2","","100.17","","","","","","Mainly Clear"
"1988-08-31 12:00","1988","08","31","12:00","21.4","","7.8","","42","","26","","7","","40.2","","100.17","","","","","","Mainly Clear"
"1988-08-31 13:00","1988","08","31","13:00","23.0","","4.6","","30","","35","","11","","40.2","","100.14","","","","","","Mainly Clear"
"1988-08-31 14:00","1988","08","31","14:00","23.0","","4.0","","29","","36","","11","","40.2","","100.11","","","","","","Mainly Clear"
"1988-08-31 15:00","1988","08","31","15:00","21.6","","8.3","","42","","12","","15","","40.2","","100.07","","","","","","Mainly Clear"
"1988-08-31 16:00","1988","08","31","16:00","21.3","","7.8","","42","","15","","17","","40.2","","100.07","","","","","","Mainly Clear"
"1988-08-31 17:00","1988","08","31","17:00","21.3","","8.3","","43","","17","","13","","40.2","","100.07","","","","","","Mainly Clear"
"1988-08-31 18:00","1988","08","31","18:00","20.1","","8.0","","46","","16","","7","","40.2","","100.07","","","","","","Mainly Clear"
"1988-08-31 19:00","1988","08","31","19:00","19.1","","10.1","","56","","15","","9","","25.0","","100.11","","","","","","Mainly Clear"
"1988-08-31 20:00","1988","08","31","20:00","18.8","","13.5","","71","","15","","7","","25.0","","100.14","","","","","","Mainly Clear"
"1988-08-31 21:00","1988","08","31","21:00","18.5","","13.0","","70","","17","","7","","25.0","","100.21","","","","","","Clear"
"1988-08-31 22:00","1988","08","31","22:00","17.4","","13.3","","77","","19","","7","","24.1","","100.21","","","","","","Clear"
"1988-08-31 23:00","1988","08","31","23:00","16.8","","13.8","","82","","21","","7","","25.0","","100.21","","","","","","Clear"
