"Station Name","TORONTO LESTER B. PEARSON INT'L A"
"Province","ONTARIO"
"Latitude","43.68"
"Longitude","-79.63"
"Elevation","173.40"
"Climate Identifier","6158733"
"WMO Identifier","71624"
"TC Identifier","YYZ"
"All times are specified in Local Standard Time (LST). Add 1 hour to adjust for Daylight Saving Time where and when it is observed."

"Legend"
"E","Estimated"
"M","Missing"
"NA","Not Available"

"Date/Time","Year","Month","Day","Time","Temp (°C)","Temp Flag","Dew Point Temp (°C)","Dew Point Temp Flag","Rel Hum (%)","Rel Hum Flag","Wind Dir (10s deg)","Wind Dir Flag","Wind Spd (km/h)","Wind Spd Flag","Visibility (km)","Visibility Flag","Stn Press (kPa)","Stn Press Flag","Hmdx","Hmdx Flag","Wind Chill","Wind Chill Flag","Weather"
"1988-09-01 00:00","1988","09","01","00:00","16.7","","13.2","","80","","19","","6","","25.0","","100.27","","","","","","Mainly Clear"
"1988-09-01 01:00","1988","09","01","01:00","15.0","","13.0","","88","","24","","4","","16.1","","100.27","","","","","","Mainly Clear"
"1988-09-01 02:00","1988","09","01","02:00","15.7","","13.2","","85","","21","","9","","14.5","","100.31","","","","","","Mostly Cloudy"
"1988-09-01 03:00","1988","09","01","03:00","15.8","","13.4","","86","","21","","4","","16.1","","100.31","","","","","","Mostly Cloudy"
"1988-09-01 04:00","1988","09","01","04:00","15.8","","13.4","","86","","18","","7","","19.3","","100.31","","","","","","Mostly Cloudy"
"1988-09-01 05:00","1988","09","01","05:00","15.9","","13.4","","85","","27","","7","","19.3","","100.37","","","","","","Mostly Cloudy"
"1988-09-01 06:00","1988","09","01","06:00","16.2","","12.7","","80","","19","","7","","11.3","","100.37","","","","","","Mostly Cloudy"
"1988-09-01 07:00","1988","09","01","07:00","16.8","","14.1","","84","","24","","4","","9.7","","100.41","","","","","","Haze"
"1988-09-01 08:00","1988","09","01","08:00","19.9","","15.3","","75","","24","","7","","11.3","","100.41","","","","","","Mainly Clear"
"1988-09-01 09:00","1988","09","01","09:00","22.1","","14.8","","63","","25","","11","","16.1","","100.47","","26","","","","Clear"
"1988-09-01 10:00","1988","09","01","10:00","23.6","","14.1","","55","","24","","15","","19.3","","100.44","","27","","","","Clear"
"1988-09-01 11:00","1988","09","01","11:00","25.5","","12.8","","45","","22","","15","","19.3","","100.44","","28","","","","Clear"
"1988-09-01 12:00","1988","09","01","12:00","26.0","","12.7","","44","","24","","15","","24.1","","100.44","","29","","","","Clear"
"1988-09-01 13:00","1988","09","01","13:00","27.0","","13.6","","44","","22","","15","","32.2","","100.41","","30","","","","Mainly Clear"
"1988-09-01 14:00","1988","09","01","14:00","27.6","","13.1","","41","","22","","13","","32.2","","100.37","","30","","","","Mainly Clear"
"1988-09-01 15:00","1988","09","01","15:00","27.5","","13.9","","43","","20","","20","","32.2","","100.37","","31","","","","Mainly Clear"
"1988-09-01 16:00","1988","09","01","16:00","26.2","","13.1","","44","","19","","17","","32.2","","100.31","","29","","","","Mainly Clear"
"1988-09-01 17:00","1988","09","01","17:00","26.1","","11.9","","41","","21","","20","","32.2","","100.31","","28","","","","Mainly Clear"
"1988-09-01 18:00","1988","09","01","18:00","24.9","","12.6","","46","","20","","22","","32.2","","100.34","","27","","","","Mainly Clear"
"1988-09-01 19:00","1988","09","01","19:00","23.1","","11.6","","48","","19","","15","","24.1","","100.34","","25","","","","Mainly Clear"
"1988-09-01 20:00","1988","09","01","20:00","21.4","","11.3","","53","","20","","13","","24.1","","100.34","","","","","","Mainly Clear"
"1988-09-01 21:00","1988","09","01","21:00","20.2","","11.4","","57","","20","","7","","24.1","","100.37","","","","","","Mainly Clear"
"1988-09-01 22:00","1988","09","01","22:00","18.5","","11.1","","62","","","","0","","24.1","","100.37","","","","","","Mainly Clear"
"1988-09-01 23:00","1988","09","01","23:00","17.4","","11.8","","70","","","","0","","24.1","","100.37","","","","","","Mainly Clear"
"1988-09-02 00:00","1988","09","02","00:00","17.9","","11.7","","67","","","","0","","24.1","","100.34","","","","","","Mainly Clear"
"1988-09-02 01:00","1988","09","02","01:00","17.2","","11.3","","68","","","","0","","19.3","","100.31","","","","","","Mainly Clear"
"1988-09-02 02:00","1988","09","02","02:00","16.0","","11.3","","74","","","","0","","24.1","","100.27","","","","","","Clear"
"1988-09-02 03:00","1988","09","02","03:00","15.2","","10.9","","75","","","","0","","16.1","","100.27","","","","","","Clear"
"1988-09-02 04:00","1988","09","02","04:00","13.7","","11.1","","84","","","","0","","16.1","","100.21","","","","","","Clear"
"1988-09-02 05:00","1988","09","02","05:00","12.3","","10.4","","88","","","","0","","16.1","","100.21","","","","","","Clear"
"1988-09-02 06:00","1988","09","02","06:00","11.2","","9.6","","90","","35","","4","","6.4","","100.27","","","","","","Fog"
"1988-09-02 07:00","1988","09","02","07:00","14.4","","12.2","","87","","","","0","","6.4","","100.21","","","","","","Fog"
"1988-09-02 08:00","1988","09","02","08:00","18.5","","13.7","","74","","18","","9","","6.4","","100.17","","","","","","Haze"
"1988-09-02 09:00","1988","09","02","09:00","20.8","","11.0","","54","","19","","13","","16.1","","100.11","","","","","","Mainly Clear"
"1988-09-02 10:00","1988","09","02","10:00","23.6","","15.2","","59","","22","","17","","12.9","","100.07","","28","","","","Mainly Clear"
"1988-09-02 11:00","1988","09","02","11:00","24.5","","15.7","","58","","14","","13","","16.1","","100.01","","29","","","","Mostly Cloudy"
"1988-09-02 12:00","1988","09","02","12:00","24.7","","16.0","","58","","13","","19","","12.9","","99.97","","29","","","","Cloudy"
"1988-09-02 13:00","1988","09","02","13:00","26.0","","16.1","","55","","14","","19","","11.3","","99.91","","31","","","","Cloudy"
"1988-09-02 14:00","1988","09","02","14:00","25.9","","16.4","","56","","15","","22","","9.7","","99.84","","31","","","","Haze"
"1988-09-02 15:00","1988","09","02","15:00","25.7","","16.5","","57","","16","","20","","9.7","","99.77","","31","","","","Haze"
"1988-09-02 16:00","1988","09","02","16:00","25.8","","16.7","","57","","17","","15","","9.7","","99.77","","31","","","","Haze"
"1988-09-02 17:00","1988","09","02","17:00","25.7","","16.5","","57","","16","","15","","11.3","","99.77","","31","","","","Cloudy"
"1988-09-02 18:00","1988","09","02","18:00","25.2","","16.3","","58","","19","","17","","11.3","","99.71","","30","","","","Cloudy"
"1988-09-02 19:00","1988","09","02","19:00","24.3","","16.4","","61","","19","","11","","9.7","","99.71","","29","","","","Haze"
"1988-09-02 20:00","1988","09","02","20:00","23.6","","15.5","","60","","20","","7","","9.7","","99.71","","28","","","","Haze"
"1988-09-02 21:00","1988","09","02","21:00","23.0","","15.3","","62","","20","","11","","9.7","","99.71","","27","","","","Haze"
"1988-09-02 22:00","1988","09","02","22:00","22.4","","15.4","","65","","15","","7","","9.7","","99.67","","27","","","","Haze"
"1988-09-02 23:00","1988","09","02","23:00","21.4","","15.7","","70","","13","","7","","12.9","","99.64","","26","","","","Cloudy"
"1988-09-03 00:00","1988","09","03","00:00","20.7","","15.9","","74","","12","","7","","11.3","","99.61","","25","","","","Cloudy"
"1988-09-03 01:00","1988","09","03","01:00","19.9","","16.3","","80","","15","","7","","11.3","","99.61","","","","","","Cloudy"
"1988-09-03 02:00","1988","09","03","02:00","20.0","","16.3","","79","","15","","7","","11.3","","99.54","","25","","","","Cloudy"
"1988-09-03 03:00","1988","09","03","03:00","20.0","","16.7","","81","","27","","9","","12.9","","99.51","","25","","","","Rain Showers"
"1988-09-03 04:00","1988","09","03","04:00","19.2","","16.2","","83","","22","","15","","12.9","","99.47","","","","","","Rain Showers"
"1988-09-03 05:00","1988","09","03","05:00","18.9","","16.6","","87","","19","","11","","6.4","","99.51","","","","","","Rain Showers,Fog"
"1988-09-03 06:00","1988","09","03","06:00","18.2","","17.1","","93","","21","","11","","4.8","","99.57","","","","","","Rain Showers,Fog"
"1988-09-03 07:00","1988","09","03","07:00","17.8","","16.8","","94","","22","","7","","9.7","","99.51","","","","","","Rain,Fog"
"1988-09-03 08:00","1988","09","03","08:00","17.8","","17.1","","96","","14","","7","","9.7","","99.44","","","","","","Rain Showers,Fog"
"1988-09-03 09:00","1988","09","03","09:00","17.8","","17.1","","96","","12","","7","","8.0","","99.47","","","","","","Rain,Fog"
"1988-09-03 10:00","1988","09","03","10:00","18.4","","17.0","","92","","17","","4","","8.0","","99.47","","","","","","Fog"
"1988-09-03 11:00","1988","09","03","11:00","19.6","","17.1","","86","","19","","7","","9.7","","99.44","","","","","","Fog"
"1988-09-03 12:00","1988","09","03","12:00","19.8","","16.7","","83","","16","","11","","11.3","","99.37","","","","","","Cloudy"
"1988-09-03 13:00","1988","09","03","13:00","18.6","","17.3","","92","","11","","13","","8.0","","99.37","","","","","","Fog"
"1988-09-03 14:00","1988","09","03","14:00","19.6","","17.1","","86","","12","","11","","6.4","","99.34","","","","","","Fog"
"1988-09-03 15:00","1988","09","03","15:00","20.0","","17.3","","84","","12","","17","","6.4","","99.31","","25","","","","Haze"
"1988-09-03 16:00","1988","09","03","16:00","19.8","","17.3","","86","","11","","17","","6.4","","99.27","","","","","","Haze"
"1988-09-03 17:00","1988","09","03","17:00","19.3","","17.1","","87","","10","","13","","6.4","","99.24","","","","","","Fog"
"1988-09-03 18:00","1988","09","03","18:00","18.7","","17.6","","93","","11","","15","","2.4","","99.24","","","","","","Rain Showers,Fog"
"1988-09-03 19:00","1988","09","03","19:00","18.0","","17.4","","96","","11","","11","","2.0","","99.24","","","","","","Rain,Fog"
"1988-09-03 20:00","1988","09","03","20:00","17.6","","16.9","","96","","10","","13","","2.4","","99.24","","","","","","Rain,Fog"
"1988-09-03 21:00","1988","09","03","21:00","17.7","","17.2","","97","","11","","15","","2.4","","99.17","","","","","","Rain,Fog"
"1988-09-03 22:00","1988","09","03","22:00","17.8","","17.4","","98","","9","","13","","2.4","","99.11","","","","","","Rain,Fog"
"1988-09-03 23:00","1988","09","03","23:00","17.7","","17.2","","97","","8","","11","","4.8","","99.01","","","","","","Moderate Rain,Fog"
"1988-09-04 00:00","1988","09","04","00:00","17.4","","16.9","","97","","8","","22","","4.8","","98.91","","","","","","Moderate Rain,Fog"
"1988-09-04 01:00","1988","09","04","01:00","17.2","","16.4","","95","","8","","24","","4.8","","98.81","","","","","","Moderate Rain,Fog"
"1988-09-04 02:00","1988","09","04","02:00","17.6","","16.9","","96","","11","","20","","4.8","","98.71","","","","","","Rain,Fog"
"1988-09-04 03:00","1988","09","04","03:00","17.8","","17.7","","100","","10","","22","","4.0","","98.61","","","","","","Rain,Fog"
"1988-09-04 04:00","1988","09","04","04:00","17.8","","17.1","","96","","9","","22","","4.8","","98.54","","","","","","Rain,Fog"
"1988-09-04 05:00","1988","09","04","05:00","17.6","","16.6","","94","","9","","20","","4.8","","98.47","","","","","","Rain,Fog"
"1988-09-04 06:00","1988","09","04","06:00","17.8","","17.1","","96","","8","","15","","4.0","","98.44","","","","","","Fog"
"1988-09-04 07:00","1988","09","04","07:00","17.8","","17.1","","96","","10","","17","","4.0","","98.37","","","","","","Drizzle,Fog"
"1988-09-04 08:00","1988","09","04","08:00","17.4","","16.9","","97","","9","","20","","2.8","","98.31","","","","","","Drizzle,Fog"
"1988-09-04 09:00","1988","09","04","09:00","17.4","","16.9","","97","","9","","19","","2.8","","98.24","","","","","","Drizzle,Fog"
"1988-09-04 10:00","1988","09","04","10:00","16.7","","16.6","","99","","7","","13","","3.2","","98.14","","","","","","Drizzle,Fog"
"1988-09-04 11:00","1988","09","04","11:00","18.1","","16.5","","90","","8","","13","","4.8","","98.11","","","","","","Fog"
"1988-09-04 12:00","1988","09","04","12:00","18.0","","16.5","","91","","7","","7","","6.4","","98.04","","","","","","Fog"
"1988-09-04 13:00","1988","09","04","13:00","19.3","","16.8","","85","","","","0","","6.4","","97.94","","","","","","Fog"
"1988-09-04 14:00","1988","09","04","14:00","19.9","","16.7","","82","","19","","4","","6.4","","97.87","","","","","","Haze"
"1988-09-04 15:00","1988","09","04","15:00","20.0","","17.3","","84","","24","","7","","6.4","","97.74","","25","","","","Haze"
"1988-09-04 16:00","1988","09","04","16:00","19.6","","18.3","","92","","18","","7","","4.8","","97.74","","","","","","Rain,Fog"
"1988-09-04 17:00","1988","09","04","17:00","18.4","","17.3","","93","","21","","4","","1.6","","97.64","","","","","","Thunderstorms,Fog"
"1988-09-04 18:00","1988","09","04","18:00","18.8","","17.8","","94","","17","","15","","1.2","","97.61","","","","","","Fog"
"1988-09-04 19:00","1988","09","04","19:00","17.2","","15.8","","91","","21","","11","","16.1","","97.54","","","","","","Mainly Clear"
"1988-09-04 20:00","1988","09","04","20:00","16.5","","15.2","","92","","21","","13","","19.3","","97.51","","","","","","Mainly Clear"
"1988-09-04 21:00","1988","09","04","21:00","17.0","","15.8","","93","","24","","20","","24.1","","97.47","","","","","","Mainly Clear"
"1988-09-04 22:00","1988","09","04","22:00","17.2","","15.1","","87","","24","","19","","24.1","","97.44","","","","","","Mostly Cloudy"
"1988-09-04 23:00","1988","09","04","23:00","17.0","","15.4","","90","","24","","15","","16.1","","97.44","","","","","","Mostly Cloudy"
"1988-09-05 00:00","1988","09","05","00:00","16.0","","13.4","","85","","29","","20","","24.1","","97.41","","","","","","Mostly Cloudy"
"1988-09-05 01:00","1988","09","05","01:00","13.5","","11.5","","88","","33","","22","","24.1","","97.44","","","","","","Cloudy"
"1988-09-05 02:00","1988","09","05","02:00","12.0","","10.2","","89","","33","","28","","12.9","","97.47","","","","","","Rain Showers"
"1988-09-05 03:00","1988","09","05","03:00","10.8","","9.6","","93","","34","","24","","12.9","","97.54","","","","","","Rain Showers"
"1988-09-05 04:00","1988","09","05","04:00","10.4","","9.0","","91","","34","","26","","12.9","","97.57","","","","","","Rain Showers"
"1988-09-05 05:00","1988","09","05","05:00","10.1","","8.5","","90","","34","","41","","12.9","","97.67","","","","","","Rain Showers"
"1988-09-05 06:00","1988","09","05","06:00","9.6","","8.0","","90","","34","","31","","32.2","","97.81","","","","","","Cloudy"
"1988-09-05 07:00","1988","09","05","07:00","9.6","","8.0","","90","","35","","26","","32.2","","97.91","","","","","","Cloudy"
"1988-09-05 08:00","1988","09","05","08:00","10.0","","7.4","","84","","32","","44","","40.2","","98.01","","","","","","Mostly Cloudy"
"1988-09-05 09:00","1988","09","05","09:00","11.1","","6.0","","71","","32","","37","","40.2","","98.14","","","","","","Mostly Cloudy"
"1988-09-05 10:00","1988","09","05","10:00","12.1","","5.4","","63","","32","","44","","40.2","","98.21","","","","","","Mainly Clear"
"1988-09-05 11:00","1988","09","05","11:00","13.3","","4.5","","55","","34","","43","","40.2","","98.31","","","","","","Mostly Cloudy"
"1988-09-05 12:00","1988","09","05","12:00","13.5","","4.0","","53","","34","","28","","40.2","","98.34","","","","","","Mostly Cloudy"
"1988-09-05 13:00","1988","09","05","13:00","13.7","","4.0","","52","","34","","30","","40.2","","98.37","","","","","","Mostly Cloudy"
"1988-09-05 14:00","1988","09","05","14:00","13.0","","5.3","","59","","32","","26","","40.2","","98.44","","","","","","Mostly Cloudy"
"1988-09-05 15:00","1988","09","05","15:00","12.2","","4.5","","59","","32","","20","","40.2","","98.51","","","","","","Mostly Cloudy"
"1988-09-05 16:00","1988","09","05","16:00","15.3","","4.2","","48","","32","","28","","40.2","","98.54","","","","","","Mostly Cloudy"
"1988-09-05 17:00","1988","09","05","17:00","12.6","","4.6","","58","","29","","30","","40.2","","98.61","","","","","","Rain Showers"
"1988-09-05 18:00","1988","09","05","18:00","12.0","","4.5","","60","","31","","15","","40.2","","98.61","","","","","","Mainly Clear"
"1988-09-05 19:00","1988","09","05","19:00","10.4","","4.5","","67","","29","","17","","25.0","","98.71","","","","","","Mainly Clear"
"1988-09-05 20:00","1988","09","05","20:00","8.7","","4.0","","72","","28","","15","","25.0","","98.81","","","","","","Mainly Clear"
"1988-09-05 21:00","1988","09","05","21:00","7.5","","3.7","","77","","26","","13","","25.0","","98.84","","","","","","Clear"
"1988-09-05 22:00","1988","09","05","22:00","6.8","","4.1","","83","","26","","11","","25.0","","98.91","","","","","","Mainly Clear"
"1988-09-05 23:00","1988","09","05","23:00","6.0","","3.9","","86","","30","","13","","25.0","","98.94","","","","","","Mainly Clear"
"1988-09-06 00:00","1988","09","06","00:00","6.0","","3.9","","86","","29","","7","","25.0","","98.97","","","","","","Clear"
"1988-09-06 01:00","1988","09","06","01:00","5.1","","3.3","","88","","32","","9","","25.0","","99.01","","","","","","Mainly Clear"
"1988-09-06 02:00","1988","09","06","02:00","5.2","","3.3","","87","","34","","6","","25.0","","98.97","","","","","","Clear"
"1988-09-06 03:00","1988","09","06","03:00","5.0","","3.7","","91","","30","","6","","25.0","","99.01","","","","","","Mainly Clear"
"1988-09-06 04:00","1988","09","06","04:00","6.0","","4.8","","92","","30","","9","","25.0","","99.04","","","","","","Mostly Cloudy"
"1988-09-06 05:00","1988","09","06","05:00","6.8","","5.4","","91","","32","","9","","25.0","","99.11","","","","","","Mostly Cloudy"
"1988-09-06 06:00","1988","09","06","06:00","6.8","","5.4","","91","","32","","6","","40.2","","99.14","","","","","","Mostly Cloudy"
"1988-09-06 07:00","1988","09","06","07:00","8.6","","6.1","","84","","29","","6","","40.2","","99.24","","","","","","Clear"
"1988-09-06 08:00","1988","09","06","08:00","10.7","","6.3","","74","","28","","11","","40.2","","99.24","","","","","","Clear"
"1988-09-06 09:00","1988","09","06","09:00","13.1","","4.3","","55","","31","","20","","40.2","","99.31","","","","","","Clear"
"1988-09-06 10:00","1988","09","06","10:00","14.3","","3.3","","48","","30","","22","","40.2","","99.34","","","","","","Mainly Clear"
"1988-09-06 11:00","1988","09","06","11:00","15.5","","4.2","","47","","29","","20","","40.2","","99.34","","","","","","Mostly Cloudy"
"1988-09-06 12:00","1988","09","06","12:00","16.4","","4.1","","44","","30","","20","","40.2","","99.34","","","","","","Mostly Cloudy"
"1988-09-06 13:00","1988","09","06","13:00","17.1","","2.7","","38","","28","","19","","40.2","","99.31","","","","","","Mostly Cloudy"
"1988-09-06 14:00","1988","09","06","14:00","16.6","","3.1","","40","","27","","20","","40.2","","99.24","","","","","","Mostly Cloudy"
"1988-09-06 15:00","1988","09","06","15:00","17.1","","3.3","","40","","28","","17","","40.2","","99.24","","","","","","Mostly Cloudy"
"1988-09-06 16:00","1988","09","06","16:00","15.9","","4.9","","48","","31","","19","","40.2","","99.21","","","","","","Rain Showers"
"1988-09-06 17:00","1988","09","06","17:00","15.5","","4.7","","49","","28","","22","","40.2","","99.24","","","","","","Mostly Cloudy"
"1988-09-06 18:00","1988","09","06","18:00","14.7","","4.3","","50","","29","","20","","40.2","","99.27","","","","","","Mostly Cloudy"
"1988-09-06 19:00","1988","09","06","19:00","12.6","","5.5","","62","","27","","11","","25.0","","99.31","","","","","","Mostly Cloudy"
"1988-09-06 20:00","1988","09","06","20:00","11.0","","5.5","","69","","25","","9","","25.0","","99.41","","","","","","Clear"
"1988-09-06 21:00","1988","09","06","21:00","9.8","","6.5","","80","","26","","11","","25.0","","99.44","","","","","","Clear"
"1988-09-06 22:00","1988","09","06","22:00","10.4","","5.4","","71","","25","","11","","25.0","","99.47","","","","","","Clear"
"1988-09-06 23:00","1988","09","06","23:00","10.4","","5.4","","71","","26","","15","","25.0","","99.47","","","","","","Clear"
"1988-09-07 00:00","1988","09","07","00:00","9.1","","5.4","","78","","26","","11","","25.0","","99.47","","","","","","Mostly Cloudy"
"1988-09-07 01:00","1988","09","07","01:00","11.4","","6.1","","70","","26","","13","","24.1","","99.47","","","","","","Rain Showers"
"1988-09-07 02:00","1988","09","07","02:00","11.6","","6.1","","69","","25","","9","","24.1","","99.51","","","","","","Mostly Cloudy"
"1988-09-07 03:00","1988","09","07","03:00","10.8","","7.2","","79","","26","","15","","24.1","","99.54","","","","","","Mostly Cloudy"
"1988-09-07 04:00","1988","09","07","04:00","10.3","","6.7","","79","","26","","9","","25.0","","99.57","","","","","","Mostly Cloudy"
"1988-09-07 05:00","1988","09","07","05:00","8.5","","6.1","","85","","26","","11","","25.0","","99.64","","","","","","Clear"
"1988-09-07 06:00","1988","09","07","06:00","8.0","","6.0","","87","","26","","7","","40.2","","99.71","","","","","","Clear"
"1988-09-07 07:00","1988","09","07","07:00","10.0","","6.9","","81","","26","","11","","40.2","","99.77","","","","","","Clear"
"1988-09-07 08:00","1988","09","07","08:00","13.6","","7.6","","67","","27","","13","","40.2","","99.81","","","","","","Mainly Clear"
"1988-09-07 09:00","1988","09","07","09:00","16.5","","7.9","","57","","29","","17","","40.2","","99.87","","","","","","Clear"
"1988-09-07 10:00","1988","09","07","10:00","17.2","","5.3","","45","","27","","13","","40.2","","99.87","","","","","","Mainly Clear"
"1988-09-07 11:00","1988","09","07","11:00","17.7","","4.5","","42","","25","","17","","40.2","","99.87","","","","","","Mainly Clear"
"1988-09-07 12:00","1988","09","07","12:00","19.4","","5.4","","40","","22","","11","","40.2","","99.81","","","","","","Mainly Clear"
"1988-09-07 13:00","1988","09","07","13:00","19.0","","6.2","","43","","27","","13","","40.2","","99.81","","","","","","Mainly Clear"
"1988-09-07 14:00","1988","09","07","14:00","19.7","","6.9","","43","","25","","17","","40.2","","99.77","","","","","","Mainly Clear"
"1988-09-07 15:00","1988","09","07","15:00","19.8","","8.0","","47","","26","","13","","40.2","","99.74","","","","","","Mainly Clear"
"1988-09-07 16:00","1988","09","07","16:00","19.9","","7.1","","44","","24","","11","","40.2","","99.71","","","","","","Mainly Clear"
"1988-09-07 17:00","1988","09","07","17:00","19.3","","6.4","","43","","21","","13","","40.2","","99.71","","","","","","Mainly Clear"
"1988-09-07 18:00","1988","09","07","18:00","18.4","","6.4","","45","","21","","11","","40.2","","99.71","","","","","","Clear"
"1988-09-07 19:00","1988","09","07","19:00","16.4","","7.0","","54","","21","","17","","25.0","","99.77","","","","","","Clear"
"1988-09-07 20:00","1988","09","07","20:00","15.0","","7.3","","60","","21","","15","","25.0","","99.81","","","","","","Clear"
"1988-09-07 21:00","1988","09","07","21:00","13.4","","8.0","","70","","22","","11","","25.0","","99.84","","","","","","Clear"
"1988-09-07 22:00","1988","09","07","22:00","12.1","","7.5","","73","","23","","9","","25.0","","99.87","","","","","","Clear"
"1988-09-07 23:00","1988","09","07","23:00","11.1","","7.6","","79","","22","","9","","24.1","","99.87","","","","","","Clear"
"1988-09-08 00:00","1988","09","08","00:00","10.7","","7.5","","80","","25","","7","","24.1","","99.91","","","","","","Clear"
"1988-09-08 01:00","1988","09","08","01:00","10.4","","7.9","","84","","23","","7","","16.1","","99.87","","","","","","Clear"
"1988-09-08 02:00","1988","09","08","02:00","10.0","","7.7","","86","","30","","4","","16.1","","99.91","","","","","","Clear"
"1988-09-08 03:00","1988","09","08","03:00","9.4","","7.6","","89","","34","","4","","16.1","","99.91","","","","","","Clear"
"1988-09-08 04:00","1988","09","08","04:00","9.2","","7.5","","89","","","","0","","16.1","","99.91","","","","","","Clear"
"1988-09-08 05:00","1988","09","08","05:00","8.6","","7.0","","90","","2","","4","","16.1","","99.91","","","","","","Clear"
"1988-09-08 06:00","1988","09","08","06:00","7.5","","6.7","","95","","","","0","","11.3","","99.97","","","","","","Clear"
"1988-09-08 07:00","1988","09","08","07:00","9.4","","8.0","","91","","","","0","","11.3","","99.97","","","","","","Clear"
"1988-09-08 08:00","1988","09","08","08:00","15.2","","10.5","","73","","","","0","","11.3","","99.97","","","","","","Clear"
"1988-09-08 09:00","1988","09","08","09:00","17.6","","10.7","","64","","16","","11","","12.9","","99.97","","","","","","Clear"
"1988-09-08 10:00","1988","09","08","10:00","18.9","","11.3","","61","","18","","13","","19.3","","99.94","","","","","","Clear"
"1988-09-08 11:00","1988","09","08","11:00","20.0","","11.4","","58","","15","","20","","24.1","","99.91","","","","","","Mainly Clear"
"1988-09-08 12:00","1988","09","08","12:00","20.8","","11.0","","54","","18","","20","","24.1","","99.81","","","","","","Mainly Clear"
"1988-09-08 13:00","1988","09","08","13:00","20.3","","10.0","","52","","16","","20","","24.1","","99.77","","","","","","Mainly Clear"
"1988-09-08 14:00","1988","09","08","14:00","20.7","","9.6","","49","","17","","15","","32.2","","99.74","","","","","","Clear"
"1988-09-08 15:00","1988","09","08","15:00","21.7","","7.8","","41","","19","","19","","32.2","","99.64","","","","","","Clear"
"1988-09-08 16:00","1988","09","08","16:00","21.8","","7.6","","40","","19","","19","","24.1","","99.57","","","","","","Clear"
"1988-09-08 17:00","1988","09","08","17:00","21.4","","8.3","","43","","20","","22","","24.1","","99.57","","","","","","Clear"
"1988-09-08 18:00","1988","09","08","18:00","20.6","","9.1","","48","","19","","19","","24.1","","99.51","","","","","","Clear"
"1988-09-08 19:00","1988","09","08","19:00","19.1","","9.7","","55","","16","","9","","16.1","","99.47","","","","","","Clear"
"1988-09-08 20:00","1988","09","08","20:00","17.9","","10.5","","62","","16","","9","","24.1","","99.51","","","","","","Clear"
"1988-09-08 21:00","1988","09","08","21:00","17.4","","11.5","","68","","16","","11","","24.1","","99.51","","","","","","Clear"
"1988-09-08 22:00","1988","09","08","22:00","15.9","","11.3","","74","","14","","11","","19.3","","99.51","","","","","","Clear"
"1988-09-08 23:00","1988","09","08","23:00","14.9","","12.7","","87","","15","","7","","16.1","","99.47","","","","","","Clear"
"1988-09-09 00:00","1988","09","09","00:00","15.4","","11.4","","77","","17","","7","","16.1","","99.44","","","","","","Clear"
"1988-09-09 01:00","1988","09","09","01:00","15.3","","12.5","","84","","16","","9","","12.9","","99.41","","","","","","Clear"
"1988-09-09 02:00","1988","09","09","02:00","15.5","","12.2","","81","","17","","7","","12.9","","99.34","","","","","","Clear"
"1988-09-09 03:00","1988","09","09","03:00","14.0","","12.0","","88","","16","","7","","11.3","","99.31","","","","","","Mainly Clear"
"1988-09-09 04:00","1988","09","09","04:00","14.9","","12.0","","83","","18","","11","","12.9","","99.27","","","","","","Mainly Clear"
"1988-09-09 05:00","1988","09","09","05:00","15.3","","12.2","","82","","18","","11","","12.9","","99.24","","","","","","Clear"
"1988-09-09 06:00","1988","09","09","06:00","15.2","","11.6","","79","","18","","11","","12.9","","99.24","","","","","","Mainly Clear"
"1988-09-09 07:00","1988","09","09","07:00","16.1","","12.3","","78","","19","","11","","11.3","","99.24","","","","","","Mainly Clear"
"1988-09-09 08:00","1988","09","09","08:00","18.0","","13.1","","73","","21","","17","","16.1","","99.24","","","","","","Clear"
"1988-09-09 09:00","1988","09","09","09:00","20.4","","14.2","","68","","23","","22","","19.3","","99.24","","","","","","Mostly Cloudy"
"1988-09-09 10:00","1988","09","09","10:00","21.6","","15.0","","66","","23","","28","","16.1","","99.24","","26","","","","Clear"
"1988-09-09 11:00","1988","09","09","11:00","23.5","","15.9","","62","","25","","26","","16.1","","99.24","","28","","","","Clear"
"1988-09-09 12:00","1988","09","09","12:00","24.0","","15.4","","59","","24","","30","","16.1","","99.21","","28","","","","Mostly Cloudy"
"1988-09-09 13:00","1988","09","09","13:00","24.2","","15.1","","57","","24","","22","","16.1","","99.24","","28","","","","Mostly Cloudy"
"1988-09-09 14:00","1988","09","09","14:00","24.8","","15.2","","55","","26","","24","","16.1","","99.17","","29","","","","Mainly Clear"
"1988-09-09 15:00","1988","09","09","15:00","25.4","","15.4","","54","","27","","24","","12.9","","99.17","","30","","","","Mainly Clear"
"1988-09-09 16:00","1988","09","09","16:00","24.5","","12.7","","48","","27","","15","","16.1","","99.21","","27","","","","Mainly Clear"
"1988-09-09 17:00","1988","09","09","17:00","24.1","","11.7","","46","","26","","15","","16.1","","99.24","","26","","","","Mainly Clear"
"1988-09-09 18:00","1988","09","09","18:00","22.1","","10.3","","47","","27","","13","","24.1","","99.27","","","","","","Clear"
"1988-09-09 19:00","1988","09","09","19:00","19.0","","10.5","","58","","28","","7","","24.1","","99.31","","","","","","Clear"
"1988-09-09 20:00","1988","09","09","20:00","17.1","","8.9","","58","","30","","7","","25.0","","99.34","","","","","","Clear"
"1988-09-09 21:00","1988","09","09","21:00","15.5","","9.1","","66","","32","","6","","25.0","","99.41","","","","","","Clear"
"1988-09-09 22:00","1988","09","09","22:00","15.9","","8.9","","63","","23","","4","","25.0","","99.47","","","","","","Clear"
"1988-09-09 23:00","1988","09","09","23:00","14.2","","9.0","","71","","","","0","","25.0","","99.47","","","","","","Clear"
"1988-09-10 00:00","1988","09","10","00:00","12.2","","9.1","","81","","25","","6","","24.1","","99.44","","","","","","Clear"
"1988-09-10 01:00","1988","09","10","01:00","12.7","","8.5","","75","","22","","7","","24.1","","99.44","","","","","","Clear"
"1988-09-10 02:00","1988","09","10","02:00","12.0","","8.3","","78","","26","","7","","19.3","","99.44","","","","","","Clear"
"1988-09-10 03:00","1988","09","10","03:00","10.9","","8.0","","82","","25","","6","","19.3","","99.41","","","","","","Clear"
"1988-09-10 04:00","1988","09","10","04:00","12.4","","8.5","","77","","26","","11","","19.3","","99.41","","","","","","Clear"
"1988-09-10 05:00","1988","09","10","05:00","12.4","","8.5","","77","","26","","13","","19.3","","99.47","","","","","","Clear"
"1988-09-10 06:00","1988","09","10","06:00","11.3","","8.6","","84","","27","","13","","19.3","","99.51","","","","","","Clear"
"1988-09-10 07:00","1988","09","10","07:00","14.1","","9.0","","71","","27","","15","","32.2","","99.57","","","","","","Mainly Clear"
"1988-09-10 08:00","1988","09","10","08:00","16.5","","9.9","","65","","27","","20","","32.2","","99.61","","","","","","Clear"
"1988-09-10 09:00","1988","09","10","09:00","19.5","","10.4","","56","","29","","17","","32.2","","99.64","","","","","","Mostly Cloudy"
"1988-09-10 10:00","1988","09","10","10:00","20.0","","8.5","","48","","28","","19","","40.2","","99.64","","","","","","Mostly Cloudy"
"1988-09-10 11:00","1988","09","10","11:00","21.0","","9.4","","47","","28","","17","","40.2","","99.71","","","","","","Mostly Cloudy"
"1988-09-10 12:00","1988","09","10","12:00","22.6","","6.4","","35","","29","","26","","40.2","","99.71","","","","","","Cloudy"
"1988-09-10 13:00","1988","09","10","13:00","23.7","","6.9","","34","","29","","20","","40.2","","99.74","","","","","","Cloudy"
"1988-09-10 14:00","1988","09","10","14:00","23.5","","6.4","","33","","31","","19","","40.2","","99.74","","","","","","Cloudy"
"1988-09-10 15:00","1988","09","10","15:00","22.9","","6.2","","34","","27","","19","","40.2","","99.77","","","","","","Mostly Cloudy"
"1988-09-10 16:00","1988","09","10","16:00","22.0","","5.7","","35","","28","","20","","40.2","","99.77","","","","","","Cloudy"
"1988-09-10 17:00","1988","09","10","17:00","20.5","","6.4","","40","","29","","19","","40.2","","99.81","","","","","","Mostly Cloudy"
"1988-09-10 18:00","1988","09","10","18:00","18.6","","6.9","","46","","30","","17","","40.2","","99.81","","","","","","Mostly Cloudy"
"1988-09-10 19:00","1988","09","10","19:00","15.9","","6.8","","55","","30","","13","","25.0","","99.91","","","","","","Mostly Cloudy"
"1988-09-10 20:00","1988","09","10","20:00","13.4","","6.8","","64","","27","","9","","25.0","","99.97","","","","","","Mostly Cloudy"
"1988-09-10 21:00","1988","09","10","21:00","12.4","","6.4","","67","","28","","7","","25.0","","100.04","","","","","","Mainly Clear"
"1988-09-10 22:00","1988","09","10","22:00","11.2","","6.4","","72","","29","","7","","25.0","","100.07","","","","","","Mostly Cloudy"
"1988-09-10 23:00","1988","09","10","23:00","9.4","","6.4","","82","","27","","7","","25.0","","100.07","","","","","","Mostly Cloudy"
"1988-09-11 00:00","1988","09","11","00:00","9.7","","6.8","","82","","26","","11","","25.0","","100.11","","","","","","Mostly Cloudy"
"1988-09-11 01:00","1988","09","11","01:00","9.0","","6.7","","86","","29","","6","","25.0","","100.14","","","","","","Mostly Cloudy"
"1988-09-11 02:00","1988","09","11","02:00","9.6","","7.2","","85","","29","","6","","25.0","","100.14","","","","","","Mostly Cloudy"
"1988-09-11 03:00","1988","09","11","03:00","9.3","","7.5","","89","","29","","7","","25.0","","100.17","","","","","","Mostly Cloudy"
"1988-09-11 04:00","1988","09","11","04:00","8.1","","6.8","","91","","33","","7","","25.0","","100.21","","","","","","Mostly Cloudy"
"1988-09-11 05:00","1988","09","11","05:00","9.0","","7.9","","93","","26","","7","","25.0","","100.27","","","","","","Mainly Clear"
"1988-09-11 06:00","1988","09","11","06:00","7.5","","6.7","","95","","26","","7","","40.2","","100.34","","","","","","Mostly Cloudy"
"1988-09-11 07:00","1988","09","11","07:00","8.4","","7.4","","93","","30","","6","","40.2","","100.37","","","","","","Cloudy"
"1988-09-11 08:00","1988","09","11","08:00","12.1","","8.3","","77","","32","","9","","40.2","","100.41","","","","","","Cloudy"
"1988-09-11 09:00","1988","09","11","09:00","14.8","","10.5","","76","","34","","13","","40.2","","100.47","","","","","","Cloudy"
"1988-09-11 10:00","1988","09","11","10:00","16.2","","12.3","","77","","34","","11","","40.2","","100.51","","","","","","Mostly Cloudy"
"1988-09-11 11:00","1988","09","11","11:00","17.3","","10.3","","63","","31","","17","","40.2","","100.47","","","","","","Mostly Cloudy"
"1988-09-11 12:00","1988","09","11","12:00","18.7","","8.7","","52","","1","","13","","40.2","","100.47","","","","","","Mostly Cloudy"
"1988-09-11 13:00","1988","09","11","13:00","18.6","","9.1","","54","","36","","9","","40.2","","100.44","","","","","","Mostly Cloudy"
"1988-09-11 14:00","1988","09","11","14:00","19.7","","10.0","","53","","32","","11","","40.2","","100.41","","","","","","Mostly Cloudy"
"1988-09-11 15:00","1988","09","11","15:00","19.7","","9.5","","52","","35","","7","","40.2","","100.41","","","","","","Mostly Cloudy"
"1988-09-11 16:00","1988","09","11","16:00","19.9","","9.8","","52","","34","","4","","40.2","","100.31","","","","","","Mostly Cloudy"
"1988-09-11 17:00","1988","09","11","17:00","19.6","","10.0","","54","","34","","6","","40.2","","100.31","","","","","","Mostly Cloudy"
"1988-09-11 18:00","1988","09","11","18:00","17.9","","9.7","","59","","1","","9","","40.2","","100.31","","","","","","Cloudy"
"1988-09-11 19:00","1988","09","11","19:00","16.2","","8.9","","62","","2","","7","","25.0","","100.37","","","","","","Cloudy"
"1988-09-11 20:00","1988","09","11","20:00","14.6","","8.0","","65","","33","","6","","25.0","","100.37","","","","","","Cloudy"
"1988-09-11 21:00","1988","09","11","21:00","12.9","","7.9","","72","","34","","9","","25.0","","100.41","","","","","","Cloudy"
"1988-09-11 22:00","1988","09","11","22:00","12.2","","7.9","","75","","35","","9","","25.0","","100.41","","","","","","Cloudy"
"1988-09-11 23:00","1988","09","11","23:00","10.4","","7.9","","84","","33","","7","","25.0","","100.37","","","","","","Cloudy"
"1988-09-12 00:00","1988","09","12","00:00","10.0","","7.4","","84","","33","","6","","25.0","","100.37","","","","","","Cloudy"
"1988-09-12 01:00","1988","09","12","01:00","9.1","","6.3","","82","","29","","6","","25.0","","100.41","","","","","","Cloudy"
"1988-09-12 02:00","1988","09","12","02:00","10.0","","7.4","","84","","3","","4","","25.0","","100.37","","","","","","Mostly Cloudy"
"1988-09-12 03:00","1988","09","12","03:00","7.8","","6.4","","91","","34","","6","","25.0","","100.34","","","","","","Mostly Cloudy"
"1988-09-12 04:00","1988","09","12","04:00","8.1","","6.4","","89","","31","","6","","25.0","","100.37","","","","","","Mostly Cloudy"
"1988-09-12 05:00","1988","09","12","05:00","7.8","","6.4","","91","","","","0","","25.0","","100.34","","","","","","Mostly Cloudy"
"1988-09-12 06:00","1988","09","12","06:00","8.6","","6.6","","87","","4","","7","","32.2","","100.31","","","","","","Cloudy"
"1988-09-12 07:00","1988","09","12","07:00","8.6","","6.6","","87","","","","0","","40.2","","100.27","","","","","","Cloudy"
"1988-09-12 08:00","1988","09","12","08:00","12.2","","9.1","","81","","","","0","","8.0","","100.24","","","","","","Haze"
"1988-09-12 09:00","1988","09","12","09:00","15.8","","11.6","","76","","15","","7","","9.7","","100.21","","","","","","Haze"
"1988-09-12 10:00","1988","09","12","10:00","17.8","","11.3","","66","","14","","13","","24.1","","100.17","","","","","","Clear"
"1988-09-12 11:00","1988","09","12","11:00","19.1","","10.5","","57","","13","","13","","32.2","","100.07","","","","","","Clear"
"1988-09-12 12:00","1988","09","12","12:00","18.9","","10.1","","57","","13","","13","","32.2","","99.94","","","","","","Mainly Clear"
"1988-09-12 13:00","1988","09","12","13:00","19.8","","11.8","","60","","15","","13","","32.2","","99.81","","","","","","Mostly Cloudy"
"1988-09-12 14:00","1988","09","12","14:00","21.2","","12.6","","58","","14","","11","","32.2","","99.71","","","","","","Mostly Cloudy"
"1988-09-12 15:00","1988","09","12","15:00","20.9","","13.0","","61","","15","","13","","32.2","","99.61","","","","","","Mostly Cloudy"
"1988-09-12 16:00","1988","09","12","16:00","19.0","","12.1","","64","","16","","15","","24.1","","99.51","","","","","","Cloudy"
"1988-09-12 17:00","1988","09","12","17:00","18.1","","12.8","","71","","16","","9","","19.3","","99.41","","","","","","Rain Showers"
"1988-09-12 18:00","1988","09","12","18:00","17.7","","13.3","","75","","16","","9","","19.3","","99.27","","","","","","Mostly Cloudy"
"1988-09-12 19:00","1988","09","12","19:00","18.0","","14.8","","81","","15","","7","","16.1","","99.24","","","","","","Mostly Cloudy"
"1988-09-12 20:00","1988","09","12","20:00","19.7","","16.1","","80","","21","","17","","12.9","","99.21","","","","","","Mostly Cloudy"
"1988-09-12 21:00","1988","09","12","21:00","19.2","","17.2","","88","","23","","17","","11.3","","99.11","","","","","","Mostly Cloudy"
"1988-09-12 22:00","1988","09","12","22:00","20.0","","17.9","","88","","23","","20","","11.3","","99.04","","26","","","","Mainly Clear"
"1988-09-12 23:00","1988","09","12","23:00","20.6","","18.1","","86","","23","","24","","11.3","","98.94","","27","","","","Mostly Cloudy"
"1988-09-13 00:00","1988","09","13","00:00","21.1","","18.6","","86","","23","","22","","11.3","","98.84","","28","","","","Mostly Cloudy"
"1988-09-13 01:00","1988","09","13","01:00","21.4","","19.2","","87","","25","","13","","11.3","","98.84","","28","","","","Mostly Cloudy"
"1988-09-13 02:00","1988","09","13","02:00","21.8","","19.4","","86","","25","","17","","11.3","","98.77","","29","","","","Rain Showers"
"1988-09-13 03:00","1988","09","13","03:00","20.7","","18.4","","87","","27","","15","","9.7","","98.74","","27","","","","Fog"
"1988-09-13 04:00","1988","09","13","04:00","19.8","","18.8","","94","","27","","9","","11.3","","98.74","","","","","","Mostly Cloudy"
"1988-09-13 05:00","1988","09","13","05:00","18.8","","16.9","","89","","30","","22","","16.1","","98.81","","","","","","Mostly Cloudy"
"1988-09-13 06:00","1988","09","13","06:00","16.7","","14.6","","87","","32","","24","","19.3","","98.87","","","","","","Mainly Clear"
"1988-09-13 07:00","1988","09","13","07:00","15.4","","12.5","","83","","30","","24","","24.1","","98.94","","","","","","Cloudy"
"1988-09-13 08:00","1988","09","13","08:00","15.6","","12.9","","84","","30","","20","","40.2","","99.04","","","","","","Cloudy"
"1988-09-13 09:00","1988","09","13","09:00","15.2","","11.6","","79","","34","","31","","40.2","","99.14","","","","","","Mostly Cloudy"
"1988-09-13 10:00","1988","09","13","10:00","15.7","","11.1","","74","","32","","24","","40.2","","99.21","","","","","","Cloudy"
"1988-09-13 11:00","1988","09","13","11:00","16.1","","10.9","","71","","33","","24","","40.2","","99.21","","","","","","Mainly Clear"
"1988-09-13 12:00","1988","09","13","12:00","16.5","","9.9","","65","","32","","26","","40.2","","99.24","","","","","","Mainly Clear"
"1988-09-13 13:00","1988","09","13","13:00","17.1","","7.6","","54","","29","","24","","40.2","","99.21","","","","","","Mainly Clear"
"1988-09-13 14:00","1988","09","13","14:00","17.8","","8.5","","55","","31","","20","","40.2","","99.17","","","","","","Mainly Clear"
"1988-09-13 15:00","1988","09","13","15:00","18.1","","6.7","","47","","29","","17","","40.2","","99.17","","","","","","Mainly Clear"
"1988-09-13 16:00","1988","09","13","16:00","17.7","","6.0","","46","","29","","17","","40.2","","99.21","","","","","","Clear"
"1988-09-13 17:00","1988","09","13","17:00","17.2","","5.8","","47","","28","","19","","40.2","","99.21","","","","","","Clear"
"1988-09-13 18:00","1988","09","13","18:00","16.4","","7.4","","55","","31","","19","","40.2","","99.24","","","","","","Clear"
"1988-09-13 19:00","1988","09","13","19:00","14.4","","6.7","","60","","30","","19","","25.0","","99.34","","","","","","Clear"
"1988-09-13 20:00","1988","09","13","20:00","12.3","","7.3","","72","","30","","17","","25.0","","99.44","","","","","","Clear"
"1988-09-13 21:00","1988","09","13","21:00","11.1","","6.8","","75","","28","","9","","25.0","","99.44","","","","","","Clear"
"1988-09-13 22:00","1988","09","13","22:00","9.8","","6.9","","82","","26","","9","","25.0","","99.47","","","","","","Clear"
"1988-09-13 23:00","1988","09","13","23:00","9.4","","7.2","","86","","25","","11","","25.0","","99.47","","","","","","Clear"
"1988-09-14 00:00","1988","09","14","00:00","8.8","","7.1","","89","","25","","9","","25.0","","99.47","","","","","","Clear"
"1988-09-14 01:00","1988","09","14","01:00","8.8","","7.5","","92","","25","","11","","25.0","","99.47","","","","","","Clear"
"1988-09-14 02:00","1988","09","14","02:00","8.6","","7.0","","90","","25","","11","","25.0","","99.44","","","","","","Clear"
"1988-09-14 03:00","1988","09","14","03:00","8.4","","6.6","","89","","24","","7","","25.0","","99.41","","","","","","Clear"
"1988-09-14 04:00","1988","09","14","04:00","7.8","","6.4","","91","","21","","11","","25.0","","99.41","","","","","","Clear"
"1988-09-14 05:00","1988","09","14","05:00","9.5","","6.8","","83","","20","","9","","25.0","","99.37","","","","","","Clear"
"1988-09-14 06:00","1988","09","14","06:00","9.4","","7.2","","86","","18","","9","","32.2","","99.34","","","","","","Clear"
"1988-09-14 07:00","1988","09","14","07:00","10.1","","7.7","","85","","21","","7","","32.2","","99.34","","","","","","Clear"
"1988-09-14 08:00","1988","09","14","08:00","13.9","","10.2","","79","","27","","24","","40.2","","99.31","","","","","","Clear"
"1988-09-14 09:00","1988","09","14","09:00","17.0","","11.3","","69","","27","","26","","32.2","","99.31","","","","","","Clear"
"1988-09-14 10:00","1988","09","14","10:00","19.0","","12.1","","64","","27","","28","","40.2","","99.31","","","","","","Clear"
"1988-09-14 11:00","1988","09","14","11:00","21.0","","10.6","","51","","28","","26","","40.2","","99.31","","","","","","Clear"
"1988-09-14 12:00","1988","09","14","12:00","20.5","","7.8","","44","","29","","28","","40.2","","99.31","","","","","","Mainly Clear"
"1988-09-14 13:00","1988","09","14","13:00","21.7","","4.9","","33","","30","","28","","40.2","","99.31","","","","","","Mainly Clear"
"1988-09-14 14:00","1988","09","14","14:00","21.4","","6.4","","38","","32","","28","","40.2","","99.31","","","","","","Mainly Clear"
"1988-09-14 15:00","1988","09","14","15:00","19.6","","4.9","","38","","29","","30","","40.2","","99.37","","","","","","Mainly Clear"
"1988-09-14 16:00","1988","09","14","16:00","18.9","","5.2","","41","","30","","28","","40.2","","99.47","","","","","","Mainly Clear"
"1988-09-14 17:00","1988","09","14","17:00","17.8","","5.3","","44","","31","","31","","40.2","","99.57","","","","","","Mainly Clear"
"1988-09-14 18:00","1988","09","14","18:00","16.3","","4.6","","46","","30","","20","","40.2","","99.64","","","","","","Clear"
"1988-09-14 19:00","1988","09","14","19:00","14.6","","4.8","","52","","30","","19","","25.0","","99.74","","","","","","Mainly Clear"
"1988-09-14 20:00","1988","09","14","20:00","13.8","","6.9","","63","","30","","15","","25.0","","99.87","","","","","","Mostly Cloudy"
"1988-09-14 21:00","1988","09","14","21:00","13.1","","7.0","","66","","31","","15","","25.0","","99.91","","","","","","Clear"
"1988-09-14 22:00","1988","09","14","22:00","11.6","","7.4","","75","","31","","13","","25.0","","100.01","","","","","","Clear"
"1988-09-14 23:00","1988","09","14","23:00","10.4","","7.5","","82","","30","","9","","25.0","","100.04","","","","","","Clear"
"1988-09-15 00:00","1988","09","15","00:00","8.9","","7.5","","91","","30","","7","","25.0","","100.14","","","","","","Mainly Clear"
"1988-09-15 01:00","1988","09","15","01:00","9.1","","7.1","","87","","34","","11","","25.0","","100.24","","","","","","Clear"
"1988-09-15 02:00","1988","09","15","02:00","8.2","","6.0","","86","","33","","11","","25.0","","100.31","","","","","","Clear"
"1988-09-15 03:00","1988","09","15","03:00","8.5","","6.1","","85","","33","","9","","25.0","","100.37","","","","","","Clear"
"1988-09-15 04:00","1988","09","15","04:00","6.7","","4.9","","88","","34","","9","","25.0","","100.41","","","","","","Clear"
"1988-09-15 05:00","1988","09","15","05:00","7.1","","5.0","","86","","35","","9","","25.0","","100.47","","","","","","Clear"
"1988-09-15 06:00","1988","09","15","06:00","5.4","","4.2","","92","","34","","11","","40.2","","100.57","","","","","","Clear"
"1988-09-15 07:00","1988","09","15","07:00","7.1","","5.0","","86","","34","","9","","40.2","","100.67","","","","","","Clear"
"1988-09-15 08:00","1988","09","15","08:00","9.6","","5.6","","76","","36","","9","","40.2","","100.74","","","","","","Clear"
"1988-09-15 09:00","1988","09","15","09:00","12.0","","6.3","","68","","2","","11","","40.2","","100.81","","","","","","Clear"
"1988-09-15 10:00","1988","09","15","10:00","13.5","","5.4","","58","","1","","7","","40.2","","100.87","","","","","","Clear"
"1988-09-15 11:00","1988","09","15","11:00","14.9","","4.0","","48","","35","","7","","40.2","","100.84","","","","","","Clear"
"1988-09-15 12:00","1988","09","15","12:00","15.4","","3.2","","44","","2","","7","","40.2","","100.84","","","","","","Mainly Clear"
"1988-09-15 13:00","1988","09","15","13:00","15.1","","5.0","","51","","18","","9","","40.2","","100.84","","","","","","Mostly Cloudy"
"1988-09-15 14:00","1988","09","15","14:00","17.1","","3.3","","40","","29","","7","","40.2","","100.81","","","","","","Mostly Cloudy"
"1988-09-15 15:00","1988","09","15","15:00","17.0","","5.3","","46","","11","","9","","40.2","","100.74","","","","","","Mostly Cloudy"
"1988-09-15 16:00","1988","09","15","16:00","17.4","","5.5","","46","","29","","9","","40.2","","100.77","","","","","","Mostly Cloudy"
"1988-09-15 17:00","1988","09","15","17:00","16.8","","6.7","","51","","33","","9","","40.2","","100.77","","","","","","Mainly Clear"
"1988-09-15 18:00","1988","09","15","18:00","14.3","","7.1","","62","","14","","4","","40.2","","100.81","","","","","","Mostly Cloudy"
"1988-09-15 19:00","1988","09","15","19:00","13.4","","6.3","","62","","15","","4","","25.0","","100.81","","","","","","Mainly Clear"
"1988-09-15 20:00","1988","09","15","20:00","12.8","","5.3","","60","","1","","11","","25.0","","100.87","","","","","","Mainly Clear"
"1988-09-15 21:00","1988","09","15","21:00","10.9","","5.5","","69","","35","","9","","25.0","","100.91","","","","","","Clear"
"1988-09-15 22:00","1988","09","15","22:00","8.6","","4.9","","77","","33","","7","","25.0","","100.94","","","","","","Clear"
"1988-09-15 23:00","1988","09","15","23:00","7.4","","4.6","","83","","33","","7","","25.0","","100.97","","","","","","Clear"
"1988-09-16 00:00","1988","09","16","00:00","7.3","","5.1","","86","","32","","7","","25.0","","100.97","","","","","","Clear"
"1988-09-16 01:00","1988","09","16","01:00","6.3","","4.4","","88","","32","","11","","25.0","","101.01","","","","","","Mainly Clear"
"1988-09-16 02:00","1988","09","16","02:00","6.6","","4.4","","86","","32","","9","","25.0","","101.01","","","","","","Mainly Clear"
"1988-09-16 03:00","1988","09","16","03:00","6.2","","4.3","","87","","34","","7","","25.0","","100.97","","","","","","Mainly Clear"
"1988-09-16 04:00","1988","09","16","04:00","6.2","","4.3","","87","","33","","6","","25.0","","101.01","","","","","","Clear"
"1988-09-16 05:00","1988","09","16","05:00","5.5","","4.2","","91","","1","","6","","25.0","","100.97","","","","","","Clear"
"1988-09-16 06:00","1988","09","16","06:00","4.1","","3.1","","93","","36","","6","","32.2","","101.01","","","","","","Mostly Cloudy"
"1988-09-16 07:00","1988","09","16","07:00","8.5","","6.1","","85","","36","","4","","24.1","","101.01","","","","","","Mostly Cloudy"
"1988-09-16 08:00","1988","09","16","08:00","11.5","","8.6","","82","","13","","6","","16.1","","101.04","","","","","","Mostly Cloudy"
"1988-09-16 09:00","1988","09","16","09:00","13.8","","9.0","","73","","14","","11","","24.1","","101.04","","","","","","Mostly Cloudy"
"1988-09-16 10:00","1988","09","16","10:00","15.2","","8.1","","63","","12","","20","","32.2","","101.01","","","","","","Mostly Cloudy"
"1988-09-16 11:00","1988","09","16","11:00","16.4","","5.6","","49","","13","","19","","40.2","","100.97","","","","","","Mostly Cloudy"
"1988-09-16 12:00","1988","09","16","12:00","15.9","","5.9","","51","","11","","17","","40.2","","100.87","","","","","","Mostly Cloudy"
"1988-09-16 13:00","1988","09","16","13:00","17.0","","5.8","","48","","11","","19","","40.2","","100.81","","","","","","Mostly Cloudy"
"1988-09-16 14:00","1988","09","16","14:00","17.6","","7.4","","51","","9","","19","","40.2","","100.67","","","","","","Mostly Cloudy"
"1988-09-16 15:00","1988","09","16","15:00","17.6","","7.4","","51","","9","","19","","40.2","","100.57","","","","","","Mostly Cloudy"
"1988-09-16 16:00","1988","09","16","16:00","16.2","","7.7","","57","","9","","17","","40.2","","100.51","","","","","","Mostly Cloudy"
"1988-09-16 17:00","1988","09","16","17:00","16.0","","8.1","","59","","10","","20","","40.2","","100.44","","","","","","Cloudy"
"1988-09-16 18:00","1988","09","16","18:00","14.3","","8.4","","68","","9","","19","","40.2","","100.37","","","","","","Mostly Cloudy"
"1988-09-16 19:00","1988","09","16","19:00","13.8","","9.4","","75","","9","","22","","25.0","","100.31","","","","","","Cloudy"
"1988-09-16 20:00","1988","09","16","20:00","13.8","","10.5","","81","","9","","20","","25.0","","100.27","","","","","","Cloudy"
"1988-09-16 21:00","1988","09","16","21:00","14.5","","11.1","","80","","9","","17","","25.0","","100.21","","","","","","Cloudy"
"1988-09-16 22:00","1988","09","16","22:00","15.3","","11.4","","78","","10","","11","","25.0","","100.14","","","","","","Cloudy"
"1988-09-16 23:00","1988","09","16","23:00","15.8","","10.5","","71","","12","","11","","25.0","","100.07","","","","","","Cloudy"
"1988-09-17 00:00","1988","09","17","00:00","15.3","","10.3","","72","","12","","7","","25.0","","100.01","","","","","","Cloudy"
"1988-09-17 01:00","1988","09","17","01:00","15.2","","11.3","","77","","13","","7","","19.3","","99.94","","","","","","Rain Showers"
"1988-09-17 02:00","1988","09","17","02:00","14.1","","12.7","","91","","11","","6","","4.0","","99.91","","","","","","Thunderstorms,Heavy Rain Showers,Fog"
"1988-09-17 03:00","1988","09","17","03:00","13.4","","13.2","","99","","8","","7","","12.9","","99.84","","","","","","Rain Showers"
"1988-09-17 04:00","1988","09","17","04:00","13.6","","13.2","","97","","11","","9","","4.0","","99.84","","","","","","Rain Showers,Fog"
"1988-09-17 05:00","1988","09","17","05:00","13.3","","13.2","","100","","12","","7","","4.0","","99.81","","","","","","Drizzle,Fog"
"1988-09-17 06:00","1988","09","17","06:00","13.3","","13.2","","100","","9","","6","","2.4","","99.81","","","","","","Drizzle,Fog"
"1988-09-17 07:00","1988","09","17","07:00","13.6","","13.2","","97","","11","","7","","2.4","","99.74","","","","","","Fog"
"1988-09-17 08:00","1988","09","17","08:00","14.0","","13.7","","98","","","","0","","1.6","","99.77","","","","","","Fog"
"1988-09-17 09:00","1988","09","17","09:00","15.0","","14.4","","96","","11","","4","","2.4","","99.71","","","","","","Fog"
"1988-09-17 10:00","1988","09","17","10:00","16.0","","15.0","","94","","18","","6","","2.4","","99.67","","","","","","Fog"
"1988-09-17 11:00","1988","09","17","11:00","18.1","","16.8","","92","","19","","11","","3.2","","99.64","","","","","","Fog"
"1988-09-17 12:00","1988","09","17","12:00","19.0","","17.2","","89","","17","","13","","4.0","","99.54","","","","","","Fog"
"1988-09-17 13:00","1988","09","17","13:00","18.4","","16.7","","90","","17","","15","","4.8","","99.51","","","","","","Fog"
"1988-09-17 14:00","1988","09","17","14:00","22.1","","19.1","","83","","20","","20","","11.3","","99.41","","29","","","","Mainly Clear"
"1988-09-17 15:00","1988","09","17","15:00","24.0","","19.7","","77","","21","","30","","8.0","","99.31","","31","","","","Haze"
"1988-09-17 16:00","1988","09","17","16:00","23.1","","18.9","","77","","22","","24","","6.4","","99.31","","30","","","","Haze"
"1988-09-17 17:00","1988","09","17","17:00","23.1","","19.2","","79","","24","","20","","11.3","","99.31","","30","","","","Mostly Cloudy"
"1988-09-17 18:00","1988","09","17","18:00","22.5","","19.0","","81","","22","","11","","9.7","","99.34","","29","","","","Haze"
"1988-09-17 19:00","1988","09","17","19:00","21.5","","18.6","","84","","22","","15","","8.0","","99.34","","28","","","","Haze"
"1988-09-17 20:00","1988","09","17","20:00","20.6","","18.4","","87","","25","","11","","9.7","","99.37","","27","","","","Fog"
"1988-09-17 21:00","1988","09","17","21:00","20.6","","18.4","","87","","24","","13","","9.7","","99.37","","27","","","","Fog"
"1988-09-17 22:00","1988","09","17","22:00","19.4","","18.0","","92","","24","","11","","8.0","","99.37","","","","","","Fog"
"1988-09-17 23:00","1988","09","17","23:00","18.4","","17.9","","97","","23","","13","","6.4","","99.44","","","","","","Fog"
"1988-09-18 00:00","1988","09","18","00:00","18.0","","17.4","","96","","22","","11","","4.8","","99.44","","","","","","Fog"
"1988-09-18 01:00","1988","09","18","01:00","18.1","","17.4","","96","","22","","13","","4.8","","99.47","","","","","","Fog"
"1988-09-18 02:00","1988","09","18","02:00","17.8","","17.4","","98","","25","","7","","4.8","","99.51","","","","","","Fog"
"1988-09-18 03:00","1988","09","18","03:00","17.6","","16.9","","96","","23","","6","","4.0","","99.51","","","","","","Fog"
"1988-09-18 04:00","1988","09","18","04:00","17.0","","16.4","","96","","24","","11","","4.8","","99.51","","","","","","Fog"
"1988-09-18 05:00","1988","09","18","05:00","17.2","","16.4","","95","","25","","7","","4.8","","99.51","","","","","","Fog"
"1988-09-18 06:00","1988","09","18","06:00","16.7","","15.9","","95","","","","0","","1.6","","99.57","","","","","","Fog"
"1988-09-18 07:00","1988","09","18","07:00","17.2","","16.4","","95","","25","","7","","3.2","","99.57","","","","","","Fog"
"1988-09-18 08:00","1988","09","18","08:00","19.3","","18.0","","92","","25","","13","","4.8","","99.61","","","","","","Fog"
"1988-09-18 09:00","1988","09","18","09:00","21.1","","18.6","","86","","25","","11","","8.0","","99.61","","28","","","","Fog"
"1988-09-18 10:00","1988","09","18","10:00","23.0","","18.3","","75","","20","","7","","12.9","","99.61","","29","","","","Mainly Clear"
"1988-09-18 11:00","1988","09","18","11:00","24.0","","18.7","","72","","25","","13","","12.9","","99.61","","31","","","","Mainly Clear"
"1988-09-18 12:00","1988","09","18","12:00","25.8","","18.1","","63","","25","","11","","24.1","","99.61","","32","","","","Mostly Cloudy"
"1988-09-18 13:00","1988","09","18","13:00","26.7","","19.0","","63","","23","","17","","24.1","","99.54","","33","","","","Mostly Cloudy"
"1988-09-18 14:00","1988","09","18","14:00","26.9","","18.3","","59","","23","","15","","24.1","","99.51","","33","","","","Mostly Cloudy"
"1988-09-18 15:00","1988","09","18","15:00","26.9","","18.3","","59","","24","","13","","24.1","","99.44","","33","","","","Mostly Cloudy"
"1988-09-18 16:00","1988","09","18","16:00","25.9","","17.1","","58","","24","","15","","32.2","","99.47","","31","","","","Cloudy"
"1988-09-18 17:00","1988","09","18","17:00","25.4","","17.2","","61","","26","","7","","24.1","","99.51","","31","","","","Cloudy"
"1988-09-18 18:00","1988","09","18","18:00","24.8","","17.3","","63","","","","0","","24.1","","99.51","","30","","","","Cloudy"
"1988-09-18 19:00","1988","09","18","19:00","24.1","","16.8","","64","","18","","7","","16.1","","99.54","","29","","","","Cloudy"
"1988-09-18 20:00","1988","09","18","20:00","23.2","","15.3","","61","","32","","28","","16.1","","99.64","","27","","","","Rain Showers"
"1988-09-18 21:00","1988","09","18","21:00","22.2","","18.2","","78","","3","","20","","24.1","","99.47","","28","","","","Cloudy"
"1988-09-18 22:00","1988","09","18","22:00","21.9","","18.5","","81","","17","","7","","16.1","","99.57","","28","","","","Cloudy"
"1988-09-18 23:00","1988","09","18","23:00","19.4","","16.4","","83","","27","","7","","16.1","","99.64","","","","","","Cloudy"
"1988-09-19 00:00","1988","09","19","00:00","19.1","","15.9","","82","","","","0","","16.1","","99.57","","","","","","Cloudy"
"1988-09-19 01:00","1988","09","19","01:00","17.9","","16.1","","89","","27","","6","","11.3","","99.61","","","","","","Mostly Cloudy"
"1988-09-19 02:00","1988","09","19","02:00","18.1","","16.1","","88","","34","","6","","11.3","","99.57","","","","","","Mostly Cloudy"
"1988-09-19 03:00","1988","09","19","03:00","17.5","","15.3","","87","","36","","4","","16.1","","99.57","","","","","","Mostly Cloudy"
"1988-09-19 04:00","1988","09","19","04:00","17.6","","15.3","","86","","","","0","","16.1","","99.57","","","","","","Cloudy"
"1988-09-19 05:00","1988","09","19","05:00","17.7","","15.9","","89","","3","","4","","9.7","","99.57","","","","","","Fog"
"1988-09-19 06:00","1988","09","19","06:00","17.9","","16.5","","92","","3","","4","","6.4","","99.61","","","","","","Fog"
"1988-09-19 07:00","1988","09","19","07:00","18.0","","16.5","","91","","15","","7","","4.8","","99.61","","","","","","Fog"
"1988-09-19 08:00","1988","09","19","08:00","18.3","","17.0","","92","","16","","4","","4.0","","99.61","","","","","","Fog"
"1988-09-19 09:00","1988","09","19","09:00","19.9","","17.6","","87","","11","","7","","4.0","","99.61","","","","","","Fog"
"1988-09-19 10:00","1988","09","19","10:00","19.5","","17.7","","89","","14","","13","","2.4","","99.61","","","","","","Fog"
"1988-09-19 11:00","1988","09","19","11:00","19.1","","18.7","","98","","12","","11","","0.6","","99.54","","","","","","Drizzle,Fog"
"1988-09-19 12:00","1988","09","19","12:00","19.4","","19.2","","99","","14","","9","","0.6","","99.51","","","","","","Fog"
"1988-09-19 13:00","1988","09","19","13:00","20.9","","19.5","","92","","14","","11","","2.4","","99.41","","28","","","","Fog"
"1988-09-19 14:00","1988","09","19","14:00","23.0","","20.1","","84","","13","","19","","3.2","","99.34","","31","","","","Haze"
"1988-09-19 15:00","1988","09","19","15:00","22.9","","20.1","","84","","12","","17","","3.2","","99.31","","31","","","","Haze"
"1988-09-19 16:00","1988","09","19","16:00","22.2","","19.7","","86","","11","","20","","3.2","","99.24","","30","","","","Haze"
"1988-09-19 17:00","1988","09","19","17:00","21.5","","19.2","","87","","10","","19","","3.2","","99.21","","28","","","","Fog"
"1988-09-19 18:00","1988","09","19","18:00","21.1","","18.9","","87","","10","","19","","3.2","","99.14","","28","","","","Fog"
"1988-09-19 19:00","1988","09","19","19:00","20.4","","18.4","","88","","10","","17","","4.0","","99.04","","27","","","","Rain Showers,Fog"
"1988-09-19 20:00","1988","09","19","20:00","20.3","","18.4","","89","","11","","13","","4.8","","98.97","","27","","","","Fog"
"1988-09-19 21:00","1988","09","19","21:00","20.6","","18.1","","86","","13","","13","","4.8","","98.87","","27","","","","Haze"
"1988-09-19 22:00","1988","09","19","22:00","19.4","","17.7","","90","","15","","13","","4.8","","98.84","","","","","","Fog"
"1988-09-19 23:00","1988","09","19","23:00","19.3","","18.0","","92","","14","","7","","4.8","","98.81","","","","","","Fog"
"1988-09-20 00:00","1988","09","20","00:00","20.3","","17.5","","84","","15","","13","","11.3","","98.77","","26","","","","Rain Showers"
"1988-09-20 01:00","1988","09","20","01:00","19.6","","17.1","","86","","13","","22","","16.1","","98.67","","","","","","Mostly Cloudy"
"1988-09-20 02:00","1988","09","20","02:00","20.1","","17.3","","84","","15","","22","","19.3","","98.61","","26","","","","Mostly Cloudy"
"1988-09-20 03:00","1988","09","20","03:00","19.9","","17.3","","85","","15","","19","","24.1","","98.54","","","","","","Mostly Cloudy"
"1988-09-20 04:00","1988","09","20","04:00","19.6","","17.4","","87","","17","","11","","9.7","","98.51","","","","","","Rain Showers,Fog"
"1988-09-20 05:00","1988","09","20","05:00","20.2","","18.2","","88","","17","","13","","9.7","","98.51","","26","","","","Fog"
"1988-09-20 06:00","1988","09","20","06:00","20.5","","17.8","","84","","18","","19","","12.9","","98.54","","26","","","","Rain Showers"
"1988-09-20 07:00","1988","09","20","07:00","18.8","","15.6","","82","","21","","17","","40.2","","98.54","","","","","","Mainly Clear"
"1988-09-20 08:00","1988","09","20","08:00","18.8","","13.9","","73","","19","","22","","40.2","","98.54","","","","","","Mainly Clear"
"1988-09-20 09:00","1988","09","20","09:00","20.4","","13.8","","66","","18","","28","","40.2","","98.51","","","","","","Mainly Clear"
"1988-09-20 10:00","1988","09","20","10:00","21.7","","12.4","","55","","21","","31","","40.2","","98.44","","","","","","Mostly Cloudy"
"1988-09-20 11:00","1988","09","20","11:00","20.8","","13.0","","61","","22","","31","","40.2","","98.47","","","","","","Cloudy"
"1988-09-20 12:00","1988","09","20","12:00","19.0","","12.1","","64","","23","","37","","40.2","","98.54","","","","","","Cloudy"
"1988-09-20 13:00","1988","09","20","13:00","16.3","","11.1","","71","","25","","30","","40.2","","98.64","","","","","","Mostly Cloudy"
"1988-09-20 14:00","1988","09","20","14:00","17.2","","9.7","","61","","24","","37","","40.2","","98.67","","","","","","Cloudy"
"1988-09-20 15:00","1988","09","20","15:00","16.6","","9.9","","65","","22","","24","","32.2","","98.71","","","","","","Cloudy"
"1988-09-20 16:00","1988","09","20","16:00","16.4","","10.7","","69","","23","","26","","32.2","","98.74","","","","","","Cloudy"
"1988-09-20 17:00","1988","09","20","17:00","16.6","","10.7","","68","","25","","26","","24.1","","98.81","","","","","","Mostly Cloudy"
"1988-09-20 18:00","1988","09","20","18:00","15.5","","11.8","","79","","24","","30","","19.3","","98.91","","","","","","Cloudy"
"1988-09-20 19:00","1988","09","20","19:00","15.2","","11.6","","79","","23","","26","","16.1","","98.94","","","","","","Rain Showers"
"1988-09-20 20:00","1988","09","20","20:00","14.5","","12.5","","88","","23","","24","","12.9","","99.04","","","","","","Cloudy"
"1988-09-20 21:00","1988","09","20","21:00","14.7","","12.2","","85","","24","","20","","19.3","","99.04","","","","","","Mostly Cloudy"
"1988-09-20 22:00","1988","09","20","22:00","14.8","","12.3","","85","","25","","22","","19.3","","99.11","","","","","","Mostly Cloudy"
"1988-09-20 23:00","1988","09","20","23:00","15.1","","12.0","","82","","25","","17","","25.0","","99.14","","","","","","Cloudy"
"1988-09-21 00:00","1988","09","21","00:00","15.1","","12.0","","82","","24","","17","","24.1","","99.11","","","","","","Cloudy"
"1988-09-21 01:00","1988","09","21","01:00","15.1","","12.0","","82","","25","","19","","24.1","","99.14","","","","","","Mostly Cloudy"
"1988-09-21 02:00","1988","09","21","02:00","15.1","","12.0","","82","","25","","15","","24.1","","99.14","","","","","","Cloudy"
"1988-09-21 03:00","1988","09","21","03:00","14.8","","12.7","","88","","27","","19","","19.3","","99.17","","","","","","Cloudy"
"1988-09-21 04:00","1988","09","21","04:00","14.4","","11.1","","81","","28","","22","","24.1","","99.21","","","","","","Mostly Cloudy"
"1988-09-21 05:00","1988","09","21","05:00","13.7","","10.0","","78","","27","","6","","24.1","","99.24","","","","","","Mostly Cloudy"
"1988-09-21 06:00","1988","09","21","06:00","13.7","","10.0","","78","","27","","15","","24.1","","99.31","","","","","","Cloudy"
"1988-09-21 07:00","1988","09","21","07:00","13.5","","10.7","","83","","29","","17","","40.2","","99.37","","","","","","Mostly Cloudy"
"1988-09-21 08:00","1988","09","21","08:00","14.0","","10.2","","78","","29","","20","","40.2","","99.41","","","","","","Mostly Cloudy"
"1988-09-21 09:00","1988","09","21","09:00","13.9","","10.2","","79","","28","","24","","40.2","","99.47","","","","","","Cloudy"
"1988-09-21 10:00","1988","09","21","10:00","15.0","","10.5","","74","","29","","28","","40.2","","99.51","","","","","","Mostly Cloudy"
"1988-09-21 11:00","1988","09","21","11:00","16.0","","10.5","","70","","29","","33","","40.2","","99.51","","","","","","Mostly Cloudy"
"1988-09-21 12:00","1988","09","21","12:00","17.1","","9.7","","62","","29","","28","","40.2","","99.51","","","","","","Mostly Cloudy"
"1988-09-21 13:00","1988","09","21","13:00","15.7","","9.1","","65","","32","","28","","40.2","","99.54","","","","","","Cloudy"
"1988-09-21 14:00","1988","09","21","14:00","15.7","","9.1","","65","","29","","20","","40.2","","99.57","","","","","","Mostly Cloudy"
"1988-09-21 15:00","1988","09","21","15:00","16.6","","9.5","","63","","29","","20","","40.2","","99.57","","","","","","Mostly Cloudy"
"1988-09-21 16:00","1988","09","21","16:00","17.1","","9.7","","62","","29","","20","","40.2","","99.57","","","","","","Mostly Cloudy"
"1988-09-21 17:00","1988","09","21","17:00","16.3","","9.9","","66","","30","","28","","40.2","","99.57","","","","","","Mostly Cloudy"
"1988-09-21 18:00","1988","09","21","18:00","14.4","","9.2","","71","","29","","19","","40.2","","99.64","","","","","","Mainly Clear"
"1988-09-21 19:00","1988","09","21","19:00","13.3","","8.8","","74","","28","","17","","25.0","","99.67","","","","","","Mainly Clear"
"1988-09-21 20:00","1988","09","21","20:00","13.2","","8.7","","74","","30","","24","","25.0","","99.77","","","","","","Mostly Cloudy"
"1988-09-21 21:00","1988","09","21","21:00","13.3","","9.2","","76","","30","","19","","25.0","","99.74","","","","","","Mostly Cloudy"
"1988-09-21 22:00","1988","09","21","22:00","12.9","","9.4","","79","","31","","22","","25.0","","99.77","","","","","","Mostly Cloudy"
"1988-09-21 23:00","1988","09","21","23:00","12.7","","8.9","","78","","30","","19","","25.0","","99.77","","","","","","Mostly Cloudy"
"1988-09-22 00:00","1988","09","22","00:00","12.9","","9.4","","79","","30","","19","","25.0","","99.74","","","","","","Mostly Cloudy"
"1988-09-22 01:00","1988","09","22","01:00","13.1","","9.1","","77","","31","","19","","25.0","","99.71","","","","","","Mostly Cloudy"
"1988-09-22 02:00","1988","09","22","02:00","13.0","","9.4","","79","","29","","9","","25.0","","99.64","","","","","","Mostly Cloudy"
"1988-09-22 03:00","1988","09","22","03:00","13.1","","9.4","","78","","30","","11","","25.0","","99.64","","","","","","Mostly Cloudy"
"1988-09-22 04:00","1988","09","22","04:00","12.8","","10.2","","84","","25","","6","","25.0","","99.67","","","","","","Mostly Cloudy"
"1988-09-22 05:00","1988","09","22","05:00","12.4","","10.4","","88","","25","","4","","25.0","","99.71","","","","","","Mostly Cloudy"
"1988-09-22 06:00","1988","09","22","06:00","12.7","","10.0","","84","","","","0","","24.1","","99.64","","","","","","Cloudy"
"1988-09-22 07:00","1988","09","22","07:00","12.9","","10.6","","86","","20","","2","","32.2","","99.67","","","","","","Cloudy"
"1988-09-22 08:00","1988","09","22","08:00","13.7","","10.4","","80","","23","","9","","16.1","","99.67","","","","","","Cloudy"
"1988-09-22 09:00","1988","09","22","09:00","14.8","","10.9","","78","","21","","9","","24.1","","99.64","","","","","","Cloudy"
"1988-09-22 10:00","1988","09","22","10:00","15.8","","10.5","","71","","24","","15","","32.2","","99.61","","","","","","Mostly Cloudy"
"1988-09-22 11:00","1988","09","22","11:00","16.2","","10.5","","69","","21","","15","","40.2","","99.54","","","","","","Cloudy"
"1988-09-22 12:00","1988","09","22","12:00","18.2","","10.9","","62","","21","","11","","40.2","","99.44","","","","","","Mostly Cloudy"
"1988-09-22 13:00","1988","09","22","13:00","18.3","","11.1","","63","","25","","22","","16.1","","99.41","","","","","","Cloudy"
"1988-09-22 14:00","1988","09","22","14:00","17.8","","12.0","","69","","24","","17","","16.1","","99.31","","","","","","Cloudy"
"1988-09-22 15:00","1988","09","22","15:00","18.1","","12.0","","68","","17","","15","","16.1","","99.14","","","","","","Rain Showers"
"1988-09-22 16:00","1988","09","22","16:00","16.9","","12.4","","75","","19","","19","","16.1","","99.07","","","","","","Cloudy"
"1988-09-22 17:00","1988","09","22","17:00","17.2","","12.4","","73","","19","","20","","16.1","","99.01","","","","","","Cloudy"
"1988-09-22 18:00","1988","09","22","18:00","16.6","","12.9","","79","","15","","15","","16.1","","98.87","","","","","","Mostly Cloudy"
"1988-09-22 19:00","1988","09","22","19:00","16.4","","13.2","","82","","16","","11","","11.3","","98.91","","","","","","Cloudy"
"1988-09-22 20:00","1988","09","22","20:00","16.0","","13.0","","82","","13","","15","","11.3","","98.84","","","","","","Cloudy"
"1988-09-22 21:00","1988","09","22","21:00","15.2","","13.7","","91","","15","","15","","6.4","","98.71","","","","","","Fog"
"1988-09-22 22:00","1988","09","22","22:00","15.4","","13.9","","91","","14","","17","","6.4","","98.54","","","","","","Fog"
"1988-09-22 23:00","1988","09","22","23:00","15.4","","14.2","","93","","13","","17","","4.8","","98.44","","","","","","Rain Showers,Fog"
"1988-09-23 00:00","1988","09","23","00:00","15.2","","14.0","","92","","14","","13","","6.4","","98.31","","","","","","Rain Showers,Fog"
"1988-09-23 01:00","1988","09","23","01:00","15.2","","14.0","","92","","16","","11","","4.0","","98.17","","","","","","Rain Showers,Fog"
"1988-09-23 02:00","1988","09","23","02:00","15.5","","14.9","","96","","5","","7","","3.2","","97.97","","","","","","Rain Showers,Fog"
"1988-09-23 03:00","1988","09","23","03:00","16.3","","15.9","","98","","19","","11","","4.0","","97.94","","","","","","Fog"
"1988-09-23 04:00","1988","09","23","04:00","17.2","","16.1","","93","","20","","6","","4.8","","97.94","","","","","","Fog"
"1988-09-23 05:00","1988","09","23","05:00","18.0","","16.5","","91","","26","","15","","6.4","","97.94","","","","","","Fog"
"1988-09-23 06:00","1988","09","23","06:00","18.2","","16.8","","91","","25","","9","","8.0","","97.97","","","","","","Fog"
"1988-09-23 07:00","1988","09","23","07:00","18.6","","17.0","","90","","26","","9","","9.7","","98.04","","","","","","Fog"
"1988-09-23 08:00","1988","09","23","08:00","19.3","","16.1","","82","","30","","22","","32.2","","98.14","","","","","","Cloudy"
"1988-09-23 09:00","1988","09","23","09:00","17.9","","14.2","","79","","31","","35","","40.2","","98.31","","","","","","Cloudy"
"1988-09-23 10:00","1988","09","23","10:00","18.3","","13.3","","73","","31","","35","","40.2","","98.37","","","","","","Mainly Clear"
"1988-09-23 11:00","1988","09","23","11:00","18.7","","9.5","","55","","31","","39","","40.2","","98.44","","","","","","Clear"
"1988-09-23 12:00","1988","09","23","12:00","18.8","","8.5","","51","","29","","35","","40.2","","98.54","","","","","","Clear"
"1988-09-23 13:00","1988","09","23","13:00","19.4","","7.8","","47","","30","","33","","40.2","","98.61","","","","","","Clear"
"1988-09-23 14:00","1988","09","23","14:00","19.9","","6.2","","41","","30","","26","","40.2","","98.64","","","","","","Clear"
"1988-09-23 15:00","1988","09","23","15:00","19.4","","5.9","","41","","28","","22","","40.2","","98.74","","","","","","Clear"
"1988-09-23 16:00","1988","09","23","16:00","18.7","","5.5","","42","","30","","26","","40.2","","98.81","","","","","","Clear"
"1988-09-23 17:00","1988","09","23","17:00","17.8","","6.7","","48","","29","","24","","40.2","","98.91","","","","","","Clear"
"1988-09-23 18:00","1988","09","23","18:00","16.4","","6.5","","52","","29","","19","","40.2","","98.94","","","","","","Clear"
"1988-09-23 19:00","1988","09","23","19:00","13.8","","7.4","","65","","27","","13","","25.0","","99.04","","","","","","Mainly Clear"
"1988-09-23 20:00","1988","09","23","20:00","12.2","","7.1","","71","","26","","9","","25.0","","99.17","","","","","","Mainly Clear"
"1988-09-23 21:00","1988","09","23","21:00","11.2","","7.6","","78","","28","","9","","25.0","","99.24","","","","","","Mainly Clear"
"1988-09-23 22:00","1988","09","23","22:00","11.2","","7.6","","78","","30","","7","","25.0","","99.34","","","","","","Mainly Clear"
"1988-09-23 23:00","1988","09","23","23:00","10.2","","7.4","","83","","33","","11","","25.0","","99.34","","","","","","Clear"
"1988-09-24 00:00","1988","09","24","00:00","9.4","","7.6","","89","","32","","11","","25.0","","99.41","","","","","","Clear"
"1988-09-24 01:00","1988","09","24","01:00","9.4","","7.2","","86","","30","","9","","25.0","","99.44","","","","","","Mainly Clear"
"1988-09-24 02:00","1988","09","24","02:00","10.5","","7.1","","80","","22","","7","","25.0","","99.44","","","","","","Mainly Clear"
"1988-09-24 03:00","1988","09","24","03:00","9.3","","7.2","","87","","24","","6","","25.0","","99.51","","","","","","Mainly Clear"
"1988-09-24 04:00","1988","09","24","04:00","9.2","","6.7","","84","","23","","7","","25.0","","99.57","","","","","","Clear"
"1988-09-24 05:00","1988","09","24","05:00","8.2","","6.0","","86","","25","","7","","25.0","","99.57","","","","","","Clear"
"1988-09-24 06:00","1988","09","24","06:00","6.6","","5.3","","91","","28","","7","","25.0","","99.64","","","","","","Clear"
"1988-09-24 07:00","1988","09","24","07:00","7.5","","6.3","","92","","","","0","","40.2","","99.71","","","","","","Clear"
"1988-09-24 08:00","1988","09","24","08:00","12.1","","9.5","","84","","30","","4","","40.2","","99.77","","","","","","Mainly Clear"
"1988-09-24 09:00","1988","09","24","09:00","14.7","","6.7","","59","","33","","7","","40.2","","99.81","","","","","","Mostly Cloudy"
"1988-09-24 10:00","1988","09","24","10:00","16.1","","2.9","","41","","34","","9","","40.2","","99.84","","","","","","Mostly Cloudy"
"1988-09-24 11:00","1988","09","24","11:00","17.0","","5.3","","46","","32","","6","","40.2","","99.84","","","","","","Mostly Cloudy"
"1988-09-24 12:00","1988","09","24","12:00","17.3","","4.5","","43","","33","","7","","40.2","","99.81","","","","","","Mostly Cloudy"
"1988-09-24 13:00","1988","09","24","13:00","18.6","","3.9","","38","","32","","7","","40.2","","99.77","","","","","","Mostly Cloudy"
"1988-09-24 14:00","1988","09","24","14:00","19.0","","7.6","","48","","27","","9","","40.2","","99.71","","","","","","Mostly Cloudy"
"1988-09-24 15:00","1988","09","24","15:00","18.6","","6.4","","45","","12","","7","","40.2","","99.64","","","","","","Mostly Cloudy"
"1988-09-24 16:00","1988","09","24","16:00","17.6","","5.5","","45","","14","","15","","40.2","","99.64","","","","","","Mostly Cloudy"
"1988-09-24 17:00","1988","09","24","17:00","16.9","","4.8","","45","","16","","13","","40.2","","99.67","","","","","","Mainly Clear"
"1988-09-24 18:00","1988","09","24","18:00","15.2","","5.5","","52","","14","","9","","40.2","","99.74","","","","","","Mostly Cloudy"
"1988-09-24 19:00","1988","09","24","19:00","14.2","","6.1","","58","","11","","7","","25.0","","99.77","","","","","","Mostly Cloudy"
"1988-09-24 20:00","1988","09","24","20:00","13.5","","6.3","","62","","13","","6","","25.0","","99.81","","","","","","Mostly Cloudy"
"1988-09-24 21:00","1988","09","24","21:00","12.3","","6.0","","65","","","","0","","25.0","","99.84","","","","","","Mostly Cloudy"
"1988-09-24 22:00","1988","09","24","22:00","9.8","","6.5","","80","","34","","6","","25.0","","99.84","","","","","","Mostly Cloudy"
"1988-09-24 23:00","1988","09","24","23:00","9.6","","6.4","","80","","1","","7","","25.0","","99.84","","","","","","Mostly Cloudy"
"1988-09-25 00:00","1988","09","25","00:00","8.0","","6.0","","87","","35","","4","","25.0","","99.81","","","","","","Mostly Cloudy"
"1988-09-25 01:00","1988","09","25","01:00","7.9","","6.0","","88","","31","","7","","25.0","","99.84","","","","","","Mostly Cloudy"
"1988-09-25 02:00","1988","09","25","02:00","7.9","","5.6","","86","","32","","6","","25.0","","99.81","","","","","","Mainly Clear"
"1988-09-25 03:00","1988","09","25","03:00","8.1","","5.2","","82","","30","","4","","25.0","","99.81","","","","","","Mainly Clear"
"1988-09-25 04:00","1988","09","25","04:00","7.6","","5.1","","84","","","","0","","25.0","","99.81","","","","","","Mainly Clear"
"1988-09-25 05:00","1988","09","25","05:00","7.0","","5.4","","89","","","","0","","25.0","","99.81","","","","","","Mainly Clear"
"1988-09-25 06:00","1988","09","25","06:00","5.1","","3.7","","91","","36","","6","","25.0","","99.87","","","","","","Mainly Clear"
"1988-09-25 07:00","1988","09","25","07:00","6.2","","4.8","","90","","33","","6","","40.2","","99.91","","","","","","Mainly Clear"
"1988-09-25 08:00","1988","09","25","08:00","10.5","","6.3","","75","","33","","4","","40.2","","99.91","","","","","","Mostly Cloudy"
"1988-09-25 09:00","1988","09","25","09:00","13.6","","6.8","","63","","","","0","","40.2","","99.91","","","","","","Mostly Cloudy"
"1988-09-25 10:00","1988","09","25","10:00","16.9","","8.9","","59","","","","0","","40.2","","99.94","","","","","","Mainly Clear"
"1988-09-25 11:00","1988","09","25","11:00","18.2","","7.2","","49","","17","","9","","40.2","","99.91","","","","","","Mainly Clear"
"1988-09-25 12:00","1988","09","25","12:00","18.4","","6.4","","45","","22","","6","","40.2","","99.87","","","","","","Clear"
"1988-09-25 13:00","1988","09","25","13:00","19.0","","7.6","","48","","14","","7","","40.2","","99.81","","","","","","Clear"
"1988-09-25 14:00","1988","09","25","14:00","18.7","","7.4","","48","","17","","9","","40.2","","99.77","","","","","","Clear"
"1988-09-25 15:00","1988","09","25","15:00","18.8","","8.5","","51","","13","","11","","40.2","","99.71","","","","","","Clear"
"1988-09-25 16:00","1988","09","25","16:00","18.7","","7.8","","49","","13","","11","","40.2","","99.71","","","","","","Clear"
"1988-09-25 17:00","1988","09","25","17:00","18.4","","8.3","","52","","15","","7","","40.2","","99.71","","","","","","Clear"
"1988-09-25 18:00","1988","09","25","18:00","17.2","","8.1","","55","","17","","9","","40.2","","99.67","","","","","","Clear"
"1988-09-25 19:00","1988","09","25","19:00","16.5","","8.7","","60","","18","","7","","25.0","","99.71","","","","","","Clear"
"1988-09-25 20:00","1988","09","25","20:00","15.2","","6.9","","58","","27","","6","","25.0","","99.81","","","","","","Clear"
"1988-09-25 21:00","1988","09","25","21:00","14.0","","6.9","","62","","25","","6","","25.0","","99.81","","","","","","Clear"
"1988-09-25 22:00","1988","09","25","22:00","13.8","","7.8","","67","","25","","13","","25.0","","99.84","","","","","","Clear"
"1988-09-25 23:00","1988","09","25","23:00","13.2","","7.0","","66","","27","","13","","25.0","","99.91","","","","","","Clear"
"1988-09-26 00:00","1988","09","26","00:00","11.8","","7.9","","77","","28","","7","","25.0","","99.91","","","","","","Clear"
"1988-09-26 01:00","1988","09","26","01:00","11.1","","7.6","","79","","30","","9","","25.0","","99.94","","","","","","Clear"
"1988-09-26 02:00","1988","09","26","02:00","11.6","","7.8","","77","","32","","19","","25.0","","99.97","","","","","","Clear"
"1988-09-26 03:00","1988","09","26","03:00","10.4","","7.9","","84","","31","","17","","25.0","","100.01","","","","","","Clear"
"1988-09-26 04:00","1988","09","26","04:00","10.1","","8.1","","87","","32","","13","","25.0","","100.04","","","","","","Clear"
"1988-09-26 05:00","1988","09","26","05:00","9.4","","8.0","","91","","33","","13","","25.0","","100.11","","","","","","Clear"
"1988-09-26 06:00","1988","09","26","06:00","9.4","","8.0","","91","","33","","13","","25.0","","100.21","","","","","","Clear"
"1988-09-26 07:00","1988","09","26","07:00","9.1","","7.9","","92","","33","","13","","40.2","","100.31","","","","","","Mainly Clear"
"1988-09-26 08:00","1988","09","26","08:00","11.0","","7.2","","78","","35","","17","","40.2","","100.44","","","","","","Mostly Cloudy"
"1988-09-26 09:00","1988","09","26","09:00","12.4","","7.7","","73","","35","","17","","40.2","","100.47","","","","","","Mainly Clear"
"1988-09-26 10:00","1988","09","26","10:00","13.9","","8.2","","69","","34","","13","","40.2","","100.47","","","","","","Mostly Cloudy"
"1988-09-26 11:00","1988","09","26","11:00","14.7","","7.5","","62","","9","","6","","40.2","","100.44","","","","","","Mainly Clear"
"1988-09-26 12:00","1988","09","26","12:00","15.2","","4.5","","49","","","","0","","40.2","","100.44","","","","","","Mostly Cloudy"
"1988-09-26 13:00","1988","09","26","13:00","16.2","","4.4","","45","","30","","6","","40.2","","100.41","","","","","","Mostly Cloudy"
"1988-09-26 14:00","1988","09","26","14:00","17.2","","5.3","","45","","6","","6","","40.2","","100.37","","","","","","Mostly Cloudy"
"1988-09-26 15:00","1988","09","26","15:00","16.0","","8.1","","59","","15","","9","","40.2","","100.34","","","","","","Mostly Cloudy"
"1988-09-26 16:00","1988","09","26","16:00","15.5","","7.5","","59","","16","","15","","40.2","","100.27","","","","","","Mainly Clear"
"1988-09-26 17:00","1988","09","26","17:00","14.8","","7.7","","63","","15","","9","","40.2","","100.27","","","","","","Mainly Clear"
"1988-09-26 18:00","1988","09","26","18:00","13.9","","7.8","","67","","16","","9","","40.2","","100.27","","","","","","Mostly Cloudy"
"1988-09-26 19:00","1988","09","26","19:00","13.1","","6.2","","63","","14","","7","","25.0","","100.27","","","","","","Mostly Cloudy"
"1988-09-26 20:00","1988","09","26","20:00","13.1","","7.0","","66","","16","","7","","25.0","","100.21","","","","","","Mostly Cloudy"
"1988-09-26 21:00","1988","09","26","21:00","13.0","","8.3","","73","","16","","9","","25.0","","100.17","","","","","","Mostly Cloudy"
"1988-09-26 22:00","1988","09","26","22:00","11.9","","8.3","","79","","15","","9","","25.0","","100.14","","","","","","Mainly Clear"
"1988-09-26 23:00","1988","09","26","23:00","11.9","","8.3","","79","","14","","4","","25.0","","100.17","","","","","","Mostly Cloudy"
"1988-09-27 00:00","1988","09","27","00:00","11.8","","8.7","","82","","13","","4","","25.0","","100.17","","","","","","Mostly Cloudy"
"1988-09-27 01:00","1988","09","27","01:00","11.7","","8.2","","79","","13","","6","","25.0","","100.11","","","","","","Mainly Clear"
"1988-09-27 02:00","1988","09","27","02:00","11.5","","8.2","","80","","16","","6","","25.0","","100.07","","","","","","Mainly Clear"
"1988-09-27 03:00","1988","09","27","03:00","10.4","","8.3","","87","","9","","4","","25.0","","100.01","","","","","","Mostly Cloudy"
"1988-09-27 04:00","1988","09","27","04:00","11.1","","8.8","","86","","16","","4","","25.0","","99.97","","","","","","Cloudy"
"1988-09-27 05:00","1988","09","27","05:00","10.9","","9.2","","89","","14","","6","","24.1","","99.91","","","","","","Mostly Cloudy"
"1988-09-27 06:00","1988","09","27","06:00","11.1","","9.9","","92","","17","","6","","11.3","","99.91","","","","","","Mostly Cloudy"
"1988-09-27 07:00","1988","09","27","07:00","11.9","","10.2","","90","","16","","11","","11.3","","99.77","","","","","","Mostly Cloudy"
"1988-09-27 08:00","1988","09","27","08:00","15.7","","12.9","","83","","22","","26","","12.9","","99.77","","","","","","Mostly Cloudy"
"1988-09-27 09:00","1988","09","27","09:00","18.0","","13.8","","76","","22","","33","","12.9","","99.71","","","","","","Mostly Cloudy"
"1988-09-27 10:00","1988","09","27","10:00","20.0","","13.6","","67","","22","","30","","16.1","","99.64","","","","","","Mostly Cloudy"
"1988-09-27 11:00","1988","09","27","11:00","23.1","","13.1","","53","","22","","35","","16.1","","99.57","","26","","","","Mostly Cloudy"
"1988-09-27 12:00","1988","09","27","12:00","24.6","","12.3","","46","","24","","30","","19.3","","99.47","","27","","","","Mainly Clear"
"1988-09-27 13:00","1988","09","27","13:00","24.6","","11.5","","44","","23","","30","","19.3","","99.44","","27","","","","Mostly Cloudy"
"1988-09-27 14:00","1988","09","27","14:00","25.9","","12.3","","43","","24","","28","","19.3","","99.41","","28","","","","Mostly Cloudy"
"1988-09-27 15:00","1988","09","27","15:00","25.1","","13.3","","48","","22","","28","","19.3","","99.41","","28","","","","Mostly Cloudy"
"1988-09-27 16:00","1988","09","27","16:00","23.7","","13.0","","51","","24","","19","","19.3","","99.44","","26","","","","Thunderstorms"
"1988-09-27 17:00","1988","09","27","17:00","19.5","","14.8","","74","","32","","19","","16.1","","99.57","","","","","","Rain Showers"
"1988-09-27 18:00","1988","09","27","18:00","18.7","","14.0","","74","","30","","11","","16.1","","99.61","","","","","","Cloudy"
"1988-09-27 19:00","1988","09","27","19:00","18.9","","13.5","","71","","29","","15","","16.1","","99.61","","","","","","Thunderstorms"
"1988-09-27 20:00","1988","09","27","20:00","16.4","","13.6","","84","","29","","13","","9.7","","99.77","","","","","","Rain Showers,Fog"
"1988-09-27 21:00","1988","09","27","21:00","15.5","","12.9","","84","","32","","15","","9.7","","99.81","","","","","","Fog"
"1988-09-27 22:00","1988","09","27","22:00","14.8","","10.9","","78","","32","","19","","19.3","","99.84","","","","","","Mostly Cloudy"
"1988-09-27 23:00","1988","09","27","23:00","13.2","","9.4","","78","","32","","17","","25.0","","99.87","","","","","","Mostly Cloudy"
"1988-09-28 00:00","1988","09","28","00:00","11.9","","9.5","","85","","32","","15","","25.0","","99.91","","","","","","Mainly Clear"
"1988-09-28 01:00","1988","09","28","01:00","11.6","","8.6","","82","","31","","11","","25.0","","100.01","","","","","","Mainly Clear"
"1988-09-28 02:00","1988","09","28","02:00","11.1","","8.0","","81","","33","","22","","25.0","","100.07","","","","","","Mainly Clear"
"1988-09-28 03:00","1988","09","28","03:00","10.4","","7.1","","80","","36","","19","","25.0","","100.14","","","","","","Clear"
"1988-09-28 04:00","1988","09","28","04:00","8.5","","6.6","","88","","33","","11","","25.0","","100.24","","","","","","Clear"
"1988-09-28 05:00","1988","09","28","05:00","9.6","","6.4","","80","","36","","19","","25.0","","100.31","","","","","","Mostly Cloudy"
"1988-09-28 06:00","1988","09","28","06:00","8.9","","4.5","","74","","2","","31","","25.0","","100.41","","","","","","Cloudy"
"1988-09-28 07:00","1988","09","28","07:00","8.0","","3.4","","73","","35","","24","","40.2","","100.57","","","","","","Mostly Cloudy"
"1988-09-28 08:00","1988","09","28","08:00","8.0","","3.4","","73","","3","","24","","40.2","","100.71","","","","","","Mostly Cloudy"
"1988-09-28 09:00","1988","09","28","09:00","9.0","","2.7","","65","","3","","24","","40.2","","100.77","","","","","","Clear"
"1988-09-28 10:00","1988","09","28","10:00","10.0","","2.4","","59","","1","","24","","40.2","","100.77","","","","","","Clear"
"1988-09-28 11:00","1988","09","28","11:00","11.1","","3.2","","58","","3","","17","","40.2","","100.81","","","","","","Mainly Clear"
"1988-09-28 12:00","1988","09","28","12:00","11.2","","2.2","","54","","3","","15","","40.2","","100.81","","","","","","Mainly Clear"
"1988-09-28 13:00","1988","09","28","13:00","12.9","","2.8","","50","","3","","15","","40.2","","100.77","","","","","","Mostly Cloudy"
"1988-09-28 14:00","1988","09","28","14:00","13.6","","4.0","","52","","4","","19","","40.2","","100.81","","","","","","Mostly Cloudy"
"1988-09-28 15:00","1988","09","28","15:00","13.2","","3.8","","53","","11","","11","","40.2","","100.81","","","","","","Cloudy"
"1988-09-28 16:00","1988","09","28","16:00","12.2","","3.5","","55","","13","","15","","40.2","","100.81","","","","","","Mainly Clear"
"1988-09-28 17:00","1988","09","28","17:00","11.8","","4.0","","59","","13","","17","","40.2","","100.87","","","","","","Mainly Clear"
"1988-09-28 18:00","1988","09","28","18:00","10.8","","4.6","","66","","12","","15","","40.2","","100.91","","","","","","Mainly Clear"
"1988-09-28 19:00","1988","09","28","19:00","10.0","","4.4","","68","","10","","11","","25.0","","100.97","","","","","","Mainly Clear"
"1988-09-28 20:00","1988","09","28","20:00","9.5","","4.2","","70","","7","","13","","25.0","","100.97","","","","","","Clear"
"1988-09-28 21:00","1988","09","28","21:00","8.3","","4.9","","79","","2","","7","","25.0","","101.01","","","","","","Mainly Clear"
"1988-09-28 22:00","1988","09","28","22:00","7.7","","4.6","","81","","2","","9","","25.0","","101.04","","","","","","Mostly Cloudy"
"1988-09-28 23:00","1988","09","28","23:00","7.6","","5.5","","86","","4","","13","","25.0","","101.01","","","","","","Mostly Cloudy"
"1988-09-29 00:00","1988","09","29","00:00","8.7","","2.5","","65","","7","","22","","25.0","","101.01","","","","","","Mostly Cloudy"
"1988-09-29 01:00","1988","09","29","01:00","8.5","","2.5","","66","","6","","20","","25.0","","101.04","","","","","","Mostly Cloudy"
"1988-09-29 02:00","1988","09","29","02:00","8.5","","3.0","","68","","8","","19","","25.0","","101.01","","","","","","Mostly Cloudy"
"1988-09-29 03:00","1988","09","29","03:00","8.4","","3.5","","71","","7","","15","","25.0","","100.97","","","","","","Mostly Cloudy"
"1988-09-29 04:00","1988","09","29","04:00","8.7","","3.0","","67","","7","","13","","25.0","","101.01","","","","","","Mostly Cloudy"
"1988-09-29 05:00","1988","09","29","05:00","9.1","","4.5","","73","","8","","15","","25.0","","101.01","","","","","","Mostly Cloudy"
"1988-09-29 06:00","1988","09","29","06:00","9.1","","5.4","","78","","8","","17","","25.0","","101.01","","","","","","Mostly Cloudy"
"1988-09-29 07:00","1988","09","29","07:00","9.9","","5.3","","73","","11","","17","","40.2","","100.97","","","","","","Mostly Cloudy"
"1988-09-29 08:00","1988","09","29","08:00","12.1","","5.4","","63","","12","","20","","40.2","","100.97","","","","","","Mostly Cloudy"
"1988-09-29 09:00","1988","09","29","09:00","12.2","","4.0","","57","","10","","28","","40.2","","100.97","","","","","","Mostly Cloudy"
"1988-09-29 10:00","1988","09","29","10:00","12.3","","3.7","","56","","10","","22","","40.2","","100.91","","","","","","Mostly Cloudy"
"1988-09-29 11:00","1988","09","29","11:00","12.8","","3.8","","54","","8","","22","","40.2","","100.87","","","","","","Mostly Cloudy"
"1988-09-29 12:00","1988","09","29","12:00","13.3","","4.0","","53","","8","","28","","40.2","","100.81","","","","","","Mostly Cloudy"
"1988-09-29 13:00","1988","09","29","13:00","13.9","","6.9","","63","","8","","20","","40.2","","100.71","","","","","","Mainly Clear"
"1988-09-29 14:00","1988","09","29","14:00","14.9","","6.4","","57","","9","","19","","40.2","","100.64","","","","","","Mainly Clear"
"1988-09-29 15:00","1988","09","29","15:00","14.2","","6.1","","58","","11","","15","","40.2","","100.61","","","","","","Mostly Cloudy"
"1988-09-29 16:00","1988","09","29","16:00","14.2","","6.5","","60","","12","","15","","40.2","","100.57","","","","","","Mostly Cloudy"
"1988-09-29 17:00","1988","09","29","17:00","13.4","","7.2","","66","","11","","13","","40.2","","100.54","","","","","","Mostly Cloudy"
"1988-09-29 18:00","1988","09","29","18:00","13.0","","7.4","","69","","10","","13","","40.2","","100.51","","","","","","Cloudy"
"1988-09-29 19:00","1988","09","29","19:00","12.5","","7.7","","73","","10","","7","","25.0","","100.51","","","","","","Mainly Clear"
"1988-09-29 20:00","1988","09","29","20:00","11.8","","8.3","","79","","7","","7","","25.0","","100.51","","","","","","Mainly Clear"
"1988-09-29 21:00","1988","09","29","21:00","11.1","","8.4","","83","","2","","7","","25.0","","100.51","","","","","","Mainly Clear"
"1988-09-29 22:00","1988","09","29","22:00","10.2","","8.1","","87","","35","","4","","25.0","","100.41","","","","","","Mainly Clear"
"1988-09-29 23:00","1988","09","29","23:00","8.8","","7.5","","92","","33","","7","","25.0","","100.41","","","","","","Clear"
"1988-09-30 00:00","1988","09","30","00:00","8.5","","7.0","","90","","27","","7","","25.0","","100.37","","","","","","Mostly Cloudy"
"1988-09-30 01:00","1988","09","30","01:00","8.9","","7.5","","91","","25","","2","","24.1","","100.37","","","","","","Mostly Cloudy"
"1988-09-30 02:00","1988","09","30","02:00","8.3","","7.4","","94","","","","0","","25.0","","100.34","","","","","","Cloudy"
"1988-09-30 03:00","1988","09","30","03:00","8.3","","7.4","","94","","","","0","","24.1","","100.31","","","","","","Mostly Cloudy"
"1988-09-30 04:00","1988","09","30","04:00","9.0","","7.1","","88","","","","0","","24.1","","100.27","","","","","","Mainly Clear"
"1988-09-30 05:00","1988","09","30","05:00","8.8","","7.5","","92","","","","0","","25.0","","100.31","","","","","","Clear"
"1988-09-30 06:00","1988","09","30","06:00","8.5","","7.4","","93","","","","0","","8.0","","100.31","","","","","","Fog"
"1988-09-30 07:00","1988","09","30","07:00","10.5","","8.7","","89","","17","","4","","8.0","","100.31","","","","","","Fog"
"1988-09-30 08:00","1988","09","30","08:00","12.5","","9.7","","83","","","","0","","8.0","","100.31","","","","","","Haze"
"1988-09-30 09:00","1988","09","30","09:00","15.1","","12.7","","86","","20","","11","","8.0","","100.27","","","","","","Fog"
"1988-09-30 10:00","1988","09","30","10:00","17.1","","14.1","","83","","20","","11","","9.7","","100.21","","","","","","Haze"
"1988-09-30 11:00","1988","09","30","11:00","18.5","","13.7","","74","","17","","7","","9.7","","100.14","","","","","","Haze"
"1988-09-30 12:00","1988","09","30","12:00","22.7","","15.1","","62","","18","","13","","11.3","","100.07","","27","","","","Clear"
"1988-09-30 13:00","1988","09","30","13:00","23.5","","15.5","","61","","20","","15","","11.3","","99.97","","28","","","","Clear"
"1988-09-30 14:00","1988","09","30","14:00","25.5","","16.2","","57","","22","","26","","12.9","","99.97","","30","","","","Mostly Cloudy"
"1988-09-30 15:00","1988","09","30","15:00","24.8","","15.9","","58","","23","","15","","11.3","","99.91","","29","","","","Mainly Clear"
"1988-09-30 16:00","1988","09","30","16:00","23.5","","16.2","","64","","21","","13","","11.3","","99.87","","28","","","","Mainly Clear"
"1988-09-30 17:00","1988","09","30","17:00","24.0","","16.1","","61","","22","","17","","11.3","","99.84","","29","","","","Mainly Clear"
"1988-09-30 18:00","1988","09","30","18:00","22.7","","15.8","","65","","21","","20","","11.3","","99.84","","27","","","","Mainly Clear"
"1988-09-30 19:00","1988","09","30","19:00","21.1","","16.1","","73","","21","","19","","11.3","","99.84","","26","","","","Clear"
"1988-09-30 20:00","1988","09","30","20:00","19.5","","16.1","","81","","22","","13","","11.3","","99.87","","","","","","Clear"
"1988-09-30 21:00","1988","09","30","21:00","18.7","","15.7","","83","","23","","15","","11.3","","99.81","","","","","","Mainly Clear"
"1988-09-30 22:00","1988","09","30","22:00","17.4","","15.6","","89","","25","","7","","6.4","","99.81","","","","","","Fog"
"1988-09-30 23:00","1988","09","30","23:00","17.0","","15.1","","89","","22","","11","","8.0","","99.81","","","","","","Fog"
