"Station Name","TORONTO LESTER B. PEARSON INT'L A"
"Province","ONTARIO"
"Latitude","43.68"
"Longitude","-79.63"
"Elevation","173.40"
"Climate Identifier","6158733"
"WMO Identifier","71624"
"TC Identifier","YYZ"
"All times are specified in Local Standard Time (LST). Add 1 hour to adjust for Daylight Saving Time where and when it is observed."

"Legend"
"E","Estimated"
"M","Missing"
"NA","Not Available"

"Date/Time","Year","Month","Day","Time","Temp (°C)","Temp Flag","Dew Point Temp (°C)","Dew Point Temp Flag","Rel Hum (%)","Rel Hum Flag","Wind Dir (10s deg)","Wind Dir Flag","Wind Spd (km/h)","Wind Spd Flag","Visibility (km)","Visibility Flag","Stn Press (kPa)","Stn Press Flag","Hmdx","Hmdx Flag","Wind Chill","Wind Chill Flag","Weather"
"1958-11-01 00:00","1958","11","01","00:00","5.6","","1.7","","76","","36","","13","","25.0","","99.36","","","","","","Clear"
"1958-11-01 01:00","1958","11","01","01:00","5.6","","-1.1","","62","","2","","26","","25.0","","99.40","","","","","","Clear"
"1958-11-01 02:00","1958","11","01","02:00","3.3","","-1.1","","73","","2","","23","","25.0","","99.46","","","","","","Clear"
"1958-11-01 03:00","1958","11","01","03:00","1.7","","-2.2","","75","","36","","21","","25.0","","99.53","","","","","","Clear"
"1958-11-01 04:00","1958","11","01","04:00","0.6","","-3.3","","75","","2","","23","","25.0","","99.55","","","","","","Clear"
"1958-11-01 05:00","1958","11","01","05:00","-0.6","","-3.3","","81","","36","","10","","25.0","","99.63","","","","-4","","Clear"
"1958-11-01 06:00","1958","11","01","06:00","-0.6","","-4.4","","75","","29","","8","","25.0","","99.70","","","","-3","","Clear"
"1958-11-01 07:00","1958","11","01","07:00","-1.1","","-4.4","","78","","36","","10","","25.0","","99.71","","","","-5","","Mainly Clear"
"1958-11-01 08:00","1958","11","01","08:00","0.0","","-4.4","","72","","36","","10","","25.0","","99.81","","","","-3","","Mainly Clear"
"1958-11-01 09:00","1958","11","01","09:00","2.2","","-3.3","","67","","2","","18","","25.0","","99.84","","","","","","Mainly Clear"
"1958-11-01 10:00","1958","11","01","10:00","4.4","","-3.3","","57","","5","","18","","25.0","","99.81","","","","","","Mainly Clear"
"1958-11-01 11:00","1958","11","01","11:00","5.0","","-3.3","","55","","5","","16","","25.0","","99.83","","","","","","Mainly Clear"
"1958-11-01 12:00","1958","11","01","12:00","6.1","","-2.8","","53","","5","","14","","25.0","","99.79","","","","","","Mainly Clear"
"1958-11-01 13:00","1958","11","01","13:00","6.7","","-3.9","","47","","2","","18","","25.0","","99.74","","","","","","Mostly Cloudy"
"1958-11-01 14:00","1958","11","01","14:00","7.2","","-3.9","","45","","2","","23","","25.0","","99.62","","","","","","Mostly Cloudy"
"1958-11-01 15:00","1958","11","01","15:00","7.8","","-3.3","","45","","2","","23","","25.0","","99.59","","","","","","Mostly Cloudy"
"1958-11-01 16:00","1958","11","01","16:00","7.2","","-2.8","","49","","5","","21","","25.0","","99.64","","","","","","Mostly Cloudy"
"1958-11-01 17:00","1958","11","01","17:00","6.1","","-2.8","","53","","5","","18","","25.0","","99.68","","","","","","Mainly Clear"
"1958-11-01 18:00","1958","11","01","18:00","5.0","","-3.3","","55","","7","","8","","25.0","","99.74","","","","","","Mainly Clear"
"1958-11-01 19:00","1958","11","01","19:00","3.9","","-2.8","","62","","2","","8","","25.0","","99.71","","","","","","Mainly Clear"
"1958-11-01 20:00","1958","11","01","20:00","2.2","","-3.9","","64","","34","","11","","25.0","","99.72","","","","","","Mainly Clear"
"1958-11-01 21:00","1958","11","01","21:00","1.7","","-3.9","","67","","34","","11","","25.0","","99.75","","","","","","Mainly Clear"
"1958-11-01 22:00","1958","11","01","22:00","0.6","","-2.8","","78","","36","","13","","25.0","","99.76","","","","","","Clear"
"1958-11-01 23:00","1958","11","01","23:00","0.0","","-2.8","","82","","7","","14","","25.0","","99.76","","","","-4","","Clear"
"1958-11-02 00:00","1958","11","02","00:00","0.0","","-3.9","","75","","7","","16","","25.0","","99.75","","","","-5","","Mainly Clear"
"1958-11-02 01:00","1958","11","02","01:00","0.6","","-3.3","","75","","7","","16","","25.0","","99.72","","","","","","Mainly Clear"
"1958-11-02 02:00","1958","11","02","02:00","0.0","","-4.4","","72","","7","","13","","25.0","","99.69","","","","-4","","Mostly Cloudy"
"1958-11-02 03:00","1958","11","02","03:00","0.6","","-4.4","","69","","5","","16","","25.0","","99.65","","","","","","Mostly Cloudy"
"1958-11-02 04:00","1958","11","02","04:00","0.0","","-4.4","","72","","5","","16","","25.0","","99.61","","","","-5","","Mostly Cloudy"
"1958-11-02 05:00","1958","11","02","05:00","1.1","","-3.9","","69","","7","","14","","25.0","","99.61","","","","","","Cloudy"
"1958-11-02 06:00","1958","11","02","06:00","1.1","","-2.8","","75","","7","","13","","25.0","","99.59","","","","","","Cloudy"
"1958-11-02 07:00","1958","11","02","07:00","1.1","","-2.2","","78","","7","","11","","25.0","","99.60","","","","","","Mostly Cloudy"
"1958-11-02 08:00","1958","11","02","08:00","1.1","","-1.7","","82","","7","","13","","25.0","","99.58","","","","","","Mostly Cloudy"
"1958-11-02 09:00","1958","11","02","09:00","2.2","","-1.7","","75","","5","","13","","25.0","","99.51","","","","","","Mostly Cloudy"
"1958-11-02 10:00","1958","11","02","10:00","4.4","","1.1","","79","","9","","23","","25.0","","99.47","","","","","","Mostly Cloudy"
"1958-11-02 11:00","1958","11","02","11:00","5.6","","1.7","","76","","9","","19","","25.0","","99.41","","","","","","Mostly Cloudy"
"1958-11-02 12:00","1958","11","02","12:00","6.1","","1.1","","70","","9","","19","","25.0","","99.30","","","","","","Mostly Cloudy"
"1958-11-02 13:00","1958","11","02","13:00","5.6","","1.7","","76","","7","","23","","25.0","","99.22","","","","","","Mostly Cloudy"
"1958-11-02 14:00","1958","11","02","14:00","5.6","","2.2","","79","","5","","16","","19.3","","99.15","","","","","","Mostly Cloudy"
"1958-11-02 15:00","1958","11","02","15:00","5.6","","1.7","","76","","7","","18","","24.1","","99.11","","","","","","Mostly Cloudy"
"1958-11-02 16:00","1958","11","02","16:00","5.6","","0.0","","67","","7","","16","","25.0","","99.10","","","","","","Mostly Cloudy"
"1958-11-02 17:00","1958","11","02","17:00","5.0","","0.6","","73","","5","","11","","25.0","","99.08","","","","","","Mostly Cloudy"
"1958-11-02 18:00","1958","11","02","18:00","3.9","","0.0","","76","","5","","11","","25.0","","99.04","","","","","","Mostly Cloudy"
"1958-11-02 19:00","1958","11","02","19:00","3.9","","-0.6","","73","","5","","11","","25.0","","99.00","","","","","","Mostly Cloudy"
"1958-11-02 20:00","1958","11","02","20:00","3.3","","-0.6","","76","","5","","8","","25.0","","99.00","","","","","","Mainly Clear"
"1958-11-02 21:00","1958","11","02","21:00","2.8","","-1.1","","75","","36","","10","","25.0","","98.92","","","","","","Mostly Cloudy"
"1958-11-02 22:00","1958","11","02","22:00","2.8","","-1.1","","75","","36","","14","","25.0","","98.89","","","","","","Mostly Cloudy"
"1958-11-02 23:00","1958","11","02","23:00","2.2","","-0.6","","82","","36","","13","","25.0","","98.89","","","","","","Mostly Cloudy"
"1958-11-03 00:00","1958","11","03","00:00","2.2","","-0.6","","82","","36","","11","","25.0","","98.85","","","","","","Mostly Cloudy"
"1958-11-03 01:00","1958","11","03","01:00","1.7","","-0.6","","85","","36","","13","","25.0","","98.82","","","","","","Mostly Cloudy"
"1958-11-03 02:00","1958","11","03","02:00","0.6","","-1.7","","85","","36","","13","","25.0","","98.80","","","","","","Mainly Clear"
"1958-11-03 03:00","1958","11","03","03:00","1.1","","-1.7","","82","","34","","11","","25.0","","98.80","","","","","","Mainly Clear"
"1958-11-03 04:00","1958","11","03","04:00","-0.6","","-2.2","","88","","32","","10","","25.0","","98.80","","","","-4","","Mainly Clear"
"1958-11-03 05:00","1958","11","03","05:00","0.0","","-2.2","","85","","32","","10","","25.0","","98.84","","","","-3","","Mainly Clear"
"1958-11-03 06:00","1958","11","03","06:00","-1.1","","-2.8","","88","","27","","8","","25.0","","98.89","","","","-4","","Mainly Clear"
"1958-11-03 07:00","1958","11","03","07:00","-0.6","","-2.2","","88","","27","","8","","24.1","","98.91","","","","-3","","Mainly Clear"
"1958-11-03 08:00","1958","11","03","08:00","1.1","","-1.1","","85","","27","","10","","24.1","","99.00","","","","","","Mainly Clear"
"1958-11-03 09:00","1958","11","03","09:00","5.0","","1.7","","79","","29","","13","","24.1","","99.02","","","","","","Mainly Clear"
"1958-11-03 10:00","1958","11","03","10:00","7.8","","2.8","","71","","32","","11","","25.0","","99.08","","","","","","Clear"
"1958-11-03 11:00","1958","11","03","11:00","9.4","","3.3","","66","","34","","13","","25.0","","99.11","","","","","","Mainly Clear"
"1958-11-03 12:00","1958","11","03","12:00","10.6","","2.8","","59","","29","","14","","25.0","","99.08","","","","","","Mainly Clear"
"1958-11-03 13:00","1958","11","03","13:00","11.7","","1.7","","50","","27","","18","","25.0","","99.04","","","","","","Clear"
"1958-11-03 14:00","1958","11","03","14:00","12.8","","1.1","","45","","29","","16","","25.0","","99.00","","","","","","Clear"
"1958-11-03 15:00","1958","11","03","15:00","13.3","","1.1","","43","","27","","21","","25.0","","99.02","","","","","","Clear"
"1958-11-03 16:00","1958","11","03","16:00","13.3","","1.1","","43","","27","","19","","25.0","","99.04","","","","","","Clear"
"1958-11-03 17:00","1958","11","03","17:00","10.6","","1.7","","54","","27","","19","","25.0","","99.07","","","","","","Mainly Clear"
"1958-11-03 18:00","1958","11","03","18:00","8.9","","0.6","","56","","27","","21","","25.0","","99.13","","","","","","Clear"
"1958-11-03 19:00","1958","11","03","19:00","7.8","","-0.6","","56","","27","","16","","25.0","","99.18","","","","","","Clear"
"1958-11-03 20:00","1958","11","03","20:00","7.2","","1.1","","65","","27","","10","","25.0","","99.23","","","","","","Clear"
"1958-11-03 21:00","1958","11","03","21:00","6.7","","0.0","","62","","27","","10","","25.0","","99.26","","","","","","Clear"
"1958-11-03 22:00","1958","11","03","22:00","3.3","","-0.6","","76","","23","","10","","25.0","","99.29","","","","","","Clear"
"1958-11-03 23:00","1958","11","03","23:00","5.0","","0.0","","70","","18","","10","","25.0","","99.26","","","","","","Clear"
"1958-11-04 00:00","1958","11","04","00:00","5.0","","1.1","","76","","18","","8","","19.3","","99.27","","","","","","Clear"
"1958-11-04 01:00","1958","11","04","01:00","4.4","","1.7","","82","","18","","10","","19.3","","99.25","","","","","","Clear"
"1958-11-04 02:00","1958","11","04","02:00","1.1","","-1.1","","85","","20","","6","","19.3","","99.23","","","","","","Clear"
"1958-11-04 03:00","1958","11","04","03:00","1.7","","0.0","","89","","23","","8","","19.3","","99.19","","","","","","Clear"
"1958-11-04 04:00","1958","11","04","04:00","2.2","","1.1","","92","","20","","6","","9.7","","99.19","","","","","","Fog"
"1958-11-04 05:00","1958","11","04","05:00","1.1","","0.0","","92","","23","","10","","8.0","","99.16","","","","","","Fog"
"1958-11-04 06:00","1958","11","04","06:00","0.6","","-0.6","","92","","27","","8","","8.0","","99.16","","","","","","Fog"
"1958-11-04 07:00","1958","11","04","07:00","2.8","","1.7","","92","","23","","14","","2.0","","99.14","","","","","","Fog"
"1958-11-04 08:00","1958","11","04","08:00","4.4","","3.3","","92","","25","","23","","2.0","","99.11","","","","","","Fog"
"1958-11-04 09:00","1958","11","04","09:00","6.7","","3.9","","82","","25","","19","","4.0","","99.10","","","","","","Haze"
"1958-11-04 10:00","1958","11","04","10:00","8.9","","6.7","","86","","25","","21","","4.8","","99.06","","","","","","Haze"
"1958-11-04 11:00","1958","11","04","11:00","10.6","","7.8","","83","","25","","31","","6.4","","99.05","","","","","","Haze"
"1958-11-04 12:00","1958","11","04","12:00","12.2","","6.7","","69","","23","","31","","6.4","","98.96","","","","","","Haze"
"1958-11-04 13:00","1958","11","04","13:00","13.3","","8.3","","72","","23","","31","","12.9","","98.90","","","","","","Mostly Cloudy"
"1958-11-04 14:00","1958","11","04","14:00","13.9","","7.8","","67","","23","","31","","12.9","","98.83","","","","","","Mostly Cloudy"
"1958-11-04 15:00","1958","11","04","15:00","14.4","","7.2","","62","","23","","27","","12.9","","98.81","","","","","","Mostly Cloudy"
"1958-11-04 16:00","1958","11","04","16:00","15.0","","7.2","","60","","23","","27","","12.9","","98.78","","","","","","Mainly Clear"
"1958-11-04 17:00","1958","11","04","17:00","15.0","","7.2","","60","","20","","24","","9.7","","98.72","","","","","","Haze"
"1958-11-04 18:00","1958","11","04","18:00","11.1","","6.7","","74","","20","","16","","8.0","","98.83","","","","","","Haze"
"1958-11-04 19:00","1958","11","04","19:00","10.0","","6.7","","80","","20","","16","","9.7","","98.88","","","","","","Haze"
"1958-11-04 20:00","1958","11","04","20:00","10.0","","6.1","","77","","23","","10","","8.0","","98.90","","","","","","Haze"
"1958-11-04 21:00","1958","11","04","21:00","9.4","","5.0","","74","","20","","8","","6.4","","98.92","","","","","","Haze"
"1958-11-04 22:00","1958","11","04","22:00","8.9","","5.6","","80","","20","","11","","6.4","","98.96","","","","","","Haze"
"1958-11-04 23:00","1958","11","04","23:00","7.8","","5.0","","82","","20","","14","","12.9","","98.90","","","","","","Clear"
"1958-11-05 00:00","1958","11","05","00:00","8.3","","5.6","","83","","20","","18","","19.3","","98.87","","","","","","Clear"
"1958-11-05 01:00","1958","11","05","01:00","7.8","","6.1","","89","","18","","13","","12.9","","98.85","","","","","","Clear"
"1958-11-05 02:00","1958","11","05","02:00","7.8","","5.6","","86","","18","","16","","12.9","","98.84","","","","","","Clear"
"1958-11-05 03:00","1958","11","05","03:00","7.2","","5.6","","89","","18","","13","","11.3","","98.80","","","","","","Mainly Clear"
"1958-11-05 04:00","1958","11","05","04:00","6.7","","5.0","","89","","18","","16","","12.9","","98.75","","","","","","Mainly Clear"
"1958-11-05 05:00","1958","11","05","05:00","7.2","","6.1","","93","","18","","13","","9.7","","98.72","","","","","","Fog"
"1958-11-05 06:00","1958","11","05","06:00","8.3","","6.7","","89","","18","","10","","9.7","","98.70","","","","","","Fog"
"1958-11-05 07:00","1958","11","05","07:00","7.8","","6.7","","93","","14","","10","","3.2","","98.69","","","","","","Fog"
"1958-11-05 08:00","1958","11","05","08:00","7.8","","7.2","","96","","16","","10","","2.4","","98.70","","","","","","Fog"
"1958-11-05 09:00","1958","11","05","09:00","9.4","","8.3","","93","","18","","18","","2.4","","98.65","","","","","","Fog"
"1958-11-05 10:00","1958","11","05","10:00","11.1","","8.3","","83","","18","","19","","3.2","","98.58","","","","","","Fog"
"1958-11-05 11:00","1958","11","05","11:00","12.2","","8.9","","80","","18","","21","","4.0","","98.53","","","","","","Fog"
"1958-11-05 12:00","1958","11","05","12:00","12.8","","8.9","","77","","18","","26","","6.4","","98.41","","","","","","Haze"
"1958-11-05 13:00","1958","11","05","13:00","13.3","","8.3","","72","","23","","32","","8.0","","98.32","","","","","","Haze"
"1958-11-05 14:00","1958","11","05","14:00","14.4","","7.2","","62","","23","","27","","8.0","","98.19","","","","","","Haze"
"1958-11-05 15:00","1958","11","05","15:00","15.0","","6.7","","57","","18","","29","","8.0","","98.05","","","","","","Haze"
"1958-11-05 16:00","1958","11","05","16:00","15.6","","5.0","","49","","23","","32","","8.0","","97.95","","","","","","Haze"
"1958-11-05 17:00","1958","11","05","17:00","15.0","","5.0","","51","","18","","37","","11.3","","97.94","","","","","","Mostly Cloudy"
"1958-11-05 18:00","1958","11","05","18:00","15.0","","5.0","","51","","18","","37","","16.1","","97.88","","","","","","Mostly Cloudy"
"1958-11-05 19:00","1958","11","05","19:00","15.0","","5.0","","51","","18","","45","","24.1","","97.79","","","","","","Mostly Cloudy"
"1958-11-05 20:00","1958","11","05","20:00","12.8","","8.9","","77","","23","","48","","16.1","","97.78","","","","","","Rain"
"1958-11-05 21:00","1958","11","05","21:00","12.8","","9.4","","80","","23","","39","","24.1","","97.72","","","","","","Cloudy"
"1958-11-05 22:00","1958","11","05","22:00","12.8","","8.9","","77","","23","","48","","24.1","","97.68","","","","","","Cloudy"
"1958-11-05 23:00","1958","11","05","23:00","9.4","","4.4","","71","","27","","48","","24.1","","97.79","","","","","","Mostly Cloudy"
"1958-11-06 00:00","1958","11","06","00:00","8.9","","3.9","","71","","25","","40","","25.0","","97.93","","","","","","Mostly Cloudy"
"1958-11-06 01:00","1958","11","06","01:00","8.9","","3.3","","68","","25","","48","","25.0","","98.01","","","","","","Rain Showers"
"1958-11-06 02:00","1958","11","06","02:00","7.8","","3.3","","73","","27","","43","","25.0","","98.18","","","","","","Cloudy"
"1958-11-06 03:00","1958","11","06","03:00","6.7","","2.8","","76","","27","","26","","25.0","","98.31","","","","","","Mostly Cloudy"
"1958-11-06 04:00","1958","11","06","04:00","6.1","","1.7","","73","","27","","24","","25.0","","98.41","","","","","","Mostly Cloudy"
"1958-11-06 05:00","1958","11","06","05:00","6.7","","1.1","","68","","25","","37","","25.0","","98.50","","","","","","Cloudy"
"1958-11-06 06:00","1958","11","06","06:00","6.1","","0.6","","68","","25","","24","","25.0","","98.57","","","","","","Mostly Cloudy"
"1958-11-06 07:00","1958","11","06","07:00","6.1","","0.6","","68","","25","","29","","25.0","","98.65","","","","","","Mainly Clear"
"1958-11-06 08:00","1958","11","06","08:00","5.0","","1.7","","79","","27","","19","","25.0","","98.77","","","","","","Rain Showers"
"1958-11-06 09:00","1958","11","06","09:00","6.7","","0.0","","62","","27","","31","","25.0","","98.81","","","","","","Mainly Clear"
"1958-11-06 10:00","1958","11","06","10:00","7.8","","-0.6","","56","","27","","32","","25.0","","98.83","","","","","","Mostly Cloudy"
"1958-11-06 11:00","1958","11","06","11:00","7.8","","-0.6","","56","","29","","34","","25.0","","98.87","","","","","","Mostly Cloudy"
"1958-11-06 12:00","1958","11","06","12:00","7.2","","-1.1","","55","","27","","27","","25.0","","98.89","","","","","","Mostly Cloudy"
"1958-11-06 13:00","1958","11","06","13:00","7.8","","-0.6","","56","","27","","34","","25.0","","98.87","","","","","","Mostly Cloudy"
"1958-11-06 14:00","1958","11","06","14:00","7.8","","-2.2","","49","","27","","27","","25.0","","98.88","","","","","","Mostly Cloudy"
"1958-11-06 15:00","1958","11","06","15:00","8.3","","-1.1","","51","","27","","23","","25.0","","98.89","","","","","","Mostly Cloudy"
"1958-11-06 16:00","1958","11","06","16:00","8.3","","-1.7","","49","","27","","29","","25.0","","98.92","","","","","","Mostly Cloudy"
"1958-11-06 17:00","1958","11","06","17:00","7.2","","-1.7","","53","","27","","16","","25.0","","98.95","","","","","","Mostly Cloudy"
"1958-11-06 18:00","1958","11","06","18:00","6.1","","-1.7","","57","","25","","13","","25.0","","98.96","","","","","","Mostly Cloudy"
"1958-11-06 19:00","1958","11","06","19:00","5.6","","-1.7","","60","","23","","10","","25.0","","98.97","","","","","","Cloudy"
"1958-11-06 20:00","1958","11","06","20:00","6.1","","-1.1","","60","","23","","11","","25.0","","98.95","","","","","","Cloudy"
"1958-11-06 21:00","1958","11","06","21:00","5.0","","-1.1","","65","","23","","10","","25.0","","98.94","","","","","","Mostly Cloudy"
"1958-11-06 22:00","1958","11","06","22:00","4.4","","1.1","","79","","27","","24","","25.0","","98.99","","","","","","Mostly Cloudy"
"1958-11-06 23:00","1958","11","06","23:00","2.8","","0.0","","82","","27","","10","","25.0","","98.97","","","","","","Clear"
"1958-11-07 00:00","1958","11","07","00:00","1.7","","-1.7","","78","","27","","16","","25.0","","98.97","","","","","","Clear"
"1958-11-07 01:00","1958","11","07","01:00","1.1","","-2.8","","75","","27","","19","","25.0","","99.01","","","","","","Clear"
"1958-11-07 02:00","1958","11","07","02:00","0.6","","-1.7","","85","","27","","16","","25.0","","99.06","","","","","","Mainly Clear"
"1958-11-07 03:00","1958","11","07","03:00","0.0","","-1.7","","88","","25","","13","","25.0","","99.08","","","","-4","","Clear"
"1958-11-07 04:00","1958","11","07","04:00","0.0","","-1.7","","88","","27","","14","","25.0","","99.10","","","","-4","","Clear"
"1958-11-07 05:00","1958","11","07","05:00","0.0","","-1.7","","88","","27","","18","","25.0","","99.15","","","","-5","","Clear"
"1958-11-07 06:00","1958","11","07","06:00","-1.1","","-2.2","","92","","25","","19","","25.0","","99.19","","","","-6","","Clear"
"1958-11-07 07:00","1958","11","07","07:00","-0.6","","-2.2","","88","","29","","11","","25.0","","99.25","","","","-4","","Clear"
"1958-11-07 08:00","1958","11","07","08:00","0.6","","-1.7","","85","","27","","16","","25.0","","99.34","","","","","","Mainly Clear"
"1958-11-07 09:00","1958","11","07","09:00","2.8","","0.0","","82","","27","","19","","25.0","","99.40","","","","","","Mainly Clear"
"1958-11-07 10:00","1958","11","07","10:00","5.0","","0.0","","70","","29","","19","","25.0","","99.43","","","","","","Mainly Clear"
"1958-11-07 11:00","1958","11","07","11:00","5.6","","-0.6","","65","","29","","24","","25.0","","99.47","","","","","","Mostly Cloudy"
"1958-11-07 12:00","1958","11","07","12:00","6.7","","-1.7","","55","","27","","26","","25.0","","99.46","","","","","","Mostly Cloudy"
"1958-11-07 13:00","1958","11","07","13:00","7.8","","-2.8","","47","","27","","27","","25.0","","99.45","","","","","","Mostly Cloudy"
"1958-11-07 14:00","1958","11","07","14:00","7.8","","-2.8","","47","","27","","31","","25.0","","99.44","","","","","","Mainly Clear"
"1958-11-07 15:00","1958","11","07","15:00","6.7","","1.1","","68","","32","","18","","25.0","","99.49","","","","","","Mostly Cloudy"
"1958-11-07 16:00","1958","11","07","16:00","7.2","","-2.2","","51","","27","","23","","25.0","","99.55","","","","","","Mainly Clear"
"1958-11-07 17:00","1958","11","07","17:00","5.0","","-1.7","","62","","27","","16","","25.0","","99.59","","","","","","Mainly Clear"
"1958-11-07 18:00","1958","11","07","18:00","3.9","","-1.1","","70","","27","","16","","25.0","","99.63","","","","","","Mainly Clear"
"1958-11-07 19:00","1958","11","07","19:00","2.8","","-2.8","","67","","27","","13","","25.0","","99.68","","","","","","Clear"
"1958-11-07 20:00","1958","11","07","20:00","1.7","","-3.3","","69","","27","","10","","25.0","","99.70","","","","","","Clear"
"1958-11-07 21:00","1958","11","07","21:00","1.7","","-3.9","","67","","27","","6","","25.0","","99.70","","","","","","Clear"
"1958-11-07 22:00","1958","11","07","22:00","0.6","","-3.9","","72","","27","","6","","25.0","","99.72","","","","","","Clear"
"1958-11-07 23:00","1958","11","07","23:00","-1.1","","-3.9","","81","","","","0","","25.0","","99.72","","","","","","Clear"
"1958-11-08 00:00","1958","11","08","00:00","-2.2","","-4.4","","85","","","","0","","25.0","","99.72","","","","","","Clear"
"1958-11-08 01:00","1958","11","08","01:00","-1.7","","-3.9","","85","","","","0","","25.0","","99.68","","","","","","Clear"
"1958-11-08 02:00","1958","11","08","02:00","-2.2","","-4.4","","85","","36","","8","","25.0","","99.70","","","","-5","","Mainly Clear"
"1958-11-08 03:00","1958","11","08","03:00","-2.2","","-4.4","","85","","36","","3","","25.0","","99.70","","","","-3","","Mainly Clear"
"1958-11-08 04:00","1958","11","08","04:00","-2.2","","-4.4","","85","","36","","3","","25.0","","99.69","","","","-3","","Mainly Clear"
"1958-11-08 05:00","1958","11","08","05:00","-2.2","","-3.9","","88","","36","","5","","19.3","","99.67","","","","-4","","Mainly Clear"
"1958-11-08 06:00","1958","11","08","06:00","-2.2","","-3.9","","88","","36","","6","","16.1","","99.62","","","","-5","","Mainly Clear"
"1958-11-08 07:00","1958","11","08","07:00","-2.2","","-3.9","","88","","5","","6","","12.9","","99.55","","","","-5","","Mostly Cloudy"
"1958-11-08 08:00","1958","11","08","08:00","-0.6","","-2.2","","88","","5","","6","","12.9","","99.52","","","","-3","","Cloudy"
"1958-11-08 09:00","1958","11","08","09:00","3.3","","-5.0","","54","","14","","16","","6.4","","99.45","","","","","","Fog"
"1958-11-08 10:00","1958","11","08","10:00","6.7","","2.2","","73","","18","","19","","6.4","","99.38","","","","","","Fog"
"1958-11-08 11:00","1958","11","08","11:00","7.8","","0.6","","60","","18","","27","","11.3","","99.32","","","","","","Cloudy"
"1958-11-08 12:00","1958","11","08","12:00","8.3","","1.1","","60","","18","","32","","12.9","","99.19","","","","","","Cloudy"
"1958-11-08 13:00","1958","11","08","13:00","8.9","","0.6","","56","","18","","32","","16.1","","99.06","","","","","","Cloudy"
"1958-11-08 14:00","1958","11","08","14:00","8.9","","0.6","","56","","16","","29","","16.1","","98.89","","","","","","Cloudy"
"1958-11-08 15:00","1958","11","08","15:00","8.9","","-3.3","","42","","16","","26","","16.1","","98.79","","","","","","Cloudy"
"1958-11-08 16:00","1958","11","08","16:00","8.9","","-3.3","","42","","14","","27","","16.1","","98.57","","","","","","Cloudy"
"1958-11-08 17:00","1958","11","08","17:00","8.3","","-2.8","","45","","14","","27","","16.1","","98.43","","","","","","Cloudy"
"1958-11-08 18:00","1958","11","08","18:00","8.9","","-1.7","","48","","14","","29","","16.1","","98.33","","","","","","Cloudy"
"1958-11-08 19:00","1958","11","08","19:00","8.9","","-1.1","","49","","14","","35","","16.1","","98.29","","","","","","Cloudy"
"1958-11-08 20:00","1958","11","08","20:00","8.9","","0.6","","56","","16","","21","","16.1","","98.15","","","","","","Rain"
"1958-11-08 21:00","1958","11","08","21:00","8.9","","1.1","","58","","16","","29","","24.1","","98.03","","","","","","Cloudy"
"1958-11-08 22:00","1958","11","08","22:00","8.3","","1.1","","60","","16","","32","","24.1","","97.93","","","","","","Cloudy"
"1958-11-08 23:00","1958","11","08","23:00","6.1","","4.4","","89","","23","","26","","19.3","","97.88","","","","","","Rain"
"1958-11-09 00:00","1958","11","09","00:00","6.1","","2.8","","79","","23","","27","","25.0","","97.91","","","","","","Cloudy"
"1958-11-09 01:00","1958","11","09","01:00","4.4","","1.7","","82","","23","","18","","25.0","","97.93","","","","","","Mainly Clear"
"1958-11-09 02:00","1958","11","09","02:00","3.3","","1.7","","89","","20","","16","","25.0","","97.88","","","","","","Mainly Clear"
"1958-11-09 03:00","1958","11","09","03:00","4.4","","2.2","","85","","23","","19","","25.0","","97.81","","","","","","Mainly Clear"
"1958-11-09 04:00","1958","11","09","04:00","3.9","","1.1","","82","","18","","16","","25.0","","97.77","","","","","","Mainly Clear"
"1958-11-09 05:00","1958","11","09","05:00","3.9","","1.1","","82","","20","","26","","25.0","","97.70","","","","","","Mostly Cloudy"
"1958-11-09 06:00","1958","11","09","06:00","3.9","","1.1","","82","","20","","19","","25.0","","97.65","","","","","","Mainly Clear"
"1958-11-09 07:00","1958","11","09","07:00","3.9","","1.1","","82","","20","","18","","25.0","","97.64","","","","","","Mainly Clear"
"1958-11-09 08:00","1958","11","09","08:00","4.4","","1.7","","82","","20","","16","","25.0","","97.63","","","","","","Mostly Cloudy"
"1958-11-09 09:00","1958","11","09","09:00","7.2","","0.0","","60","","25","","34","","25.0","","97.66","","","","","","Mostly Cloudy"
"1958-11-09 10:00","1958","11","09","10:00","7.8","","-0.6","","56","","25","","39","","25.0","","97.63","","","","","","Mostly Cloudy"
"1958-11-09 11:00","1958","11","09","11:00","9.4","","-1.1","","48","","25","","45","","25.0","","97.60","","","","","","Mostly Cloudy"
"1958-11-09 12:00","1958","11","09","12:00","10.0","","-0.6","","48","","25","","29","","25.0","","97.51","","","","","","Mostly Cloudy"
"1958-11-09 13:00","1958","11","09","13:00","10.0","","-2.2","","42","","25","","29","","25.0","","97.45","","","","","","Mostly Cloudy"
"1958-11-09 14:00","1958","11","09","14:00","9.4","","1.1","","56","","20","","35","","25.0","","97.40","","","","","","Mostly Cloudy"
"1958-11-09 15:00","1958","11","09","15:00","8.3","","3.3","","71","","20","","27","","25.0","","97.38","","","","","","Rain Showers"
"1958-11-09 16:00","1958","11","09","16:00","8.3","","4.4","","76","","16","","14","","25.0","","97.37","","","","","","Mostly Cloudy"
"1958-11-09 17:00","1958","11","09","17:00","6.1","","3.3","","82","","23","","11","","25.0","","97.39","","","","","","Rain Showers"
"1958-11-09 18:00","1958","11","09","18:00","6.1","","2.8","","79","","27","","13","","25.0","","97.44","","","","","","Mostly Cloudy"
"1958-11-09 19:00","1958","11","09","19:00","5.6","","2.8","","82","","27","","10","","25.0","","97.50","","","","","","Mostly Cloudy"
"1958-11-09 20:00","1958","11","09","20:00","5.0","","1.7","","79","","27","","5","","25.0","","97.56","","","","","","Mostly Cloudy"
"1958-11-09 21:00","1958","11","09","21:00","4.4","","1.1","","79","","27","","3","","25.0","","97.57","","","","","","Mainly Clear"
"1958-11-09 22:00","1958","11","09","22:00","3.9","","1.7","","85","","27","","2","","25.0","","97.58","","","","","","Mostly Cloudy"
"1958-11-09 23:00","1958","11","09","23:00","3.9","","1.1","","82","","27","","3","","25.0","","97.64","","","","","","Mostly Cloudy"
"1958-11-10 00:00","1958","11","10","00:00","3.9","","1.7","","85","","25","","6","","25.0","","97.67","","","","","","Rain Showers"
"1958-11-10 01:00","1958","11","10","01:00","3.9","","1.7","","85","","25","","10","","16.1","","97.69","","","","","","Rain Showers"
"1958-11-10 02:00","1958","11","10","02:00","3.3","","2.2","","92","","23","","10","","12.9","","97.74","","","","","","Rain Showers"
"1958-11-10 03:00","1958","11","10","03:00","3.9","","2.8","","92","","20","","11","","9.7","","97.74","","","","","","Rain Showers,Fog"
"1958-11-10 04:00","1958","11","10","04:00","3.9","","2.8","","92","","27","","10","","9.7","","97.78","","","","","","Rain Showers,Fog"
"1958-11-10 05:00","1958","11","10","05:00","2.8","","1.1","","89","","29","","13","","25.0","","97.86","","","","","","Mostly Cloudy"
"1958-11-10 06:00","1958","11","10","06:00","2.2","","1.1","","92","","32","","11","","25.0","","97.93","","","","","","Cloudy"
"1958-11-10 07:00","1958","11","10","07:00","3.3","","1.7","","89","","32","","14","","25.0","","98.05","","","","","","Mostly Cloudy"
"1958-11-10 08:00","1958","11","10","08:00","2.8","","1.1","","89","","29","","24","","25.0","","98.18","","","","","","Mostly Cloudy"
"1958-11-10 09:00","1958","11","10","09:00","4.4","","2.8","","89","","32","","21","","25.0","","98.28","","","","","","Mainly Clear"
"1958-11-10 10:00","1958","11","10","10:00","6.7","","2.2","","73","","34","","24","","25.0","","98.37","","","","","","Mostly Cloudy"
"1958-11-10 11:00","1958","11","10","11:00","7.2","","2.2","","70","","36","","26","","25.0","","98.50","","","","","","Mostly Cloudy"
"1958-11-10 12:00","1958","11","10","12:00","7.8","","2.2","","68","","36","","24","","25.0","","98.55","","","","","","Mostly Cloudy"
"1958-11-10 13:00","1958","11","10","13:00","7.2","","2.2","","70","","36","","23","","24.1","","98.60","","","","","","Mainly Clear"
"1958-11-10 14:00","1958","11","10","14:00","8.9","","1.7","","61","","36","","27","","24.1","","98.68","","","","","","Mostly Cloudy"
"1958-11-10 15:00","1958","11","10","15:00","7.2","","1.1","","65","","36","","27","","25.0","","98.83","","","","","","Mostly Cloudy"
"1958-11-10 16:00","1958","11","10","16:00","7.2","","2.8","","73","","36","","23","","25.0","","98.95","","","","","","Mostly Cloudy"
"1958-11-10 17:00","1958","11","10","17:00","7.2","","1.7","","68","","36","","26","","25.0","","99.04","","","","","","Mostly Cloudy"
"1958-11-10 18:00","1958","11","10","18:00","6.7","","2.2","","73","","36","","13","","25.0","","99.17","","","","","","Mostly Cloudy"
"1958-11-10 19:00","1958","11","10","19:00","6.1","","2.2","","76","","36","","10","","25.0","","99.26","","","","","","Mostly Cloudy"
"1958-11-10 20:00","1958","11","10","20:00","6.1","","2.8","","79","","32","","19","","25.0","","99.35","","","","","","Mostly Cloudy"
"1958-11-10 21:00","1958","11","10","21:00","6.1","","2.2","","76","","34","","23","","25.0","","99.44","","","","","","Cloudy"
"1958-11-10 22:00","1958","11","10","22:00","5.0","","2.8","","86","","32","","16","","25.0","","99.51","","","","","","Cloudy"
"1958-11-10 23:00","1958","11","10","23:00","5.0","","2.8","","86","","32","","18","","25.0","","99.55","","","","","","Cloudy"
"1958-11-11 00:00","1958","11","11","00:00","5.0","","2.2","","82","","32","","16","","25.0","","99.56","","","","","","Mostly Cloudy"
"1958-11-11 01:00","1958","11","11","01:00","3.9","","1.7","","85","","27","","14","","25.0","","99.60","","","","","","Mainly Clear"
"1958-11-11 02:00","1958","11","11","02:00","2.2","","0.6","","89","","27","","10","","25.0","","99.64","","","","","","Mainly Clear"
"1958-11-11 03:00","1958","11","11","03:00","1.1","","0.0","","92","","27","","16","","25.0","","99.70","","","","","","Clear"
"1958-11-11 04:00","1958","11","11","04:00","0.6","","-1.1","","88","","27","","16","","25.0","","99.74","","","","","","Clear"
"1958-11-11 05:00","1958","11","11","05:00","0.6","","-1.1","","88","","27","","13","","25.0","","99.78","","","","","","Mainly Clear"
"1958-11-11 06:00","1958","11","11","06:00","0.0","","-1.7","","88","","27","","13","","25.0","","99.78","","","","-4","","Clear"
"1958-11-11 07:00","1958","11","11","07:00","1.7","","0.6","","92","","27","","16","","16.1","","99.75","","","","","","Mostly Cloudy"
"1958-11-11 08:00","1958","11","11","08:00","2.8","","0.0","","82","","25","","13","","19.3","","99.76","","","","","","Cloudy"
"1958-11-11 09:00","1958","11","11","09:00","5.6","","2.8","","82","","27","","19","","16.1","","99.74","","","","","","Mostly Cloudy"
"1958-11-11 10:00","1958","11","11","10:00","6.1","","2.8","","79","","23","","16","","19.3","","99.70","","","","","","Mostly Cloudy"
"1958-11-11 11:00","1958","11","11","11:00","7.2","","1.1","","65","","23","","26","","24.1","","99.58","","","","","","Mostly Cloudy"
"1958-11-11 12:00","1958","11","11","12:00","9.4","","1.7","","58","","23","","35","","25.0","","99.44","","","","","","Mostly Cloudy"
"1958-11-11 13:00","1958","11","11","13:00","9.4","","1.7","","58","","23","","34","","24.1","","99.38","","","","","","Mostly Cloudy"
"1958-11-11 14:00","1958","11","11","14:00","10.6","","0.6","","50","","23","","32","","24.1","","99.27","","","","","","Mostly Cloudy"
"1958-11-11 15:00","1958","11","11","15:00","11.7","","3.3","","57","","18","","18","","24.1","","99.17","","","","","","Mostly Cloudy"
"1958-11-11 16:00","1958","11","11","16:00","11.1","","1.1","","50","","23","","37","","24.1","","99.07","","","","","","Mainly Clear"
"1958-11-11 17:00","1958","11","11","17:00","10.0","","1.7","","56","","25","","42","","24.1","","99.01","","","","","","Mainly Clear"
"1958-11-11 18:00","1958","11","11","18:00","9.4","","1.7","","58","","27","","39","","24.1","","99.11","","","","","","Mainly Clear"
"1958-11-11 19:00","1958","11","11","19:00","9.4","","1.7","","58","","25","","32","","24.1","","99.09","","","","","","Mainly Clear"
"1958-11-11 20:00","1958","11","11","20:00","8.9","","2.8","","66","","25","","26","","24.1","","99.09","","","","","","Mainly Clear"
"1958-11-11 21:00","1958","11","11","21:00","8.3","","1.7","","63","","27","","23","","24.1","","99.14","","","","","","Mainly Clear"
"1958-11-11 22:00","1958","11","11","22:00","8.9","","2.8","","66","","27","","24","","24.1","","99.21","","","","","","Mostly Cloudy"
"1958-11-11 23:00","1958","11","11","23:00","9.4","","3.3","","66","","32","","35","","24.1","","99.29","","","","","","Cloudy"
"1958-11-12 00:00","1958","11","12","00:00","8.3","","2.8","","68","","32","","37","","25.0","","99.43","","","","","","Mostly Cloudy"
"1958-11-12 01:00","1958","11","12","01:00","6.7","","2.2","","73","","32","","24","","25.0","","99.53","","","","","","Clear"
"1958-11-12 02:00","1958","11","12","02:00","5.6","","0.6","","70","","32","","16","","25.0","","99.65","","","","","","Clear"
"1958-11-12 03:00","1958","11","12","03:00","2.8","","-0.6","","79","","29","","16","","25.0","","99.77","","","","","","Clear"
"1958-11-12 04:00","1958","11","12","04:00","2.8","","-0.6","","79","","25","","11","","25.0","","99.82","","","","","","Clear"
"1958-11-12 05:00","1958","11","12","05:00","2.2","","-1.7","","75","","27","","14","","25.0","","99.88","","","","","","Clear"
"1958-11-12 06:00","1958","11","12","06:00","2.2","","-1.1","","78","","29","","18","","25.0","","99.96","","","","","","Clear"
"1958-11-12 07:00","1958","11","12","07:00","0.0","","-2.2","","85","","23","","11","","25.0","","100.06","","","","-4","","Clear"
"1958-11-12 08:00","1958","11","12","08:00","1.1","","-1.1","","85","","27","","19","","25.0","","100.14","","","","","","Clear"
"1958-11-12 09:00","1958","11","12","09:00","5.6","","0.0","","67","","32","","27","","25.0","","100.21","","","","","","Mainly Clear"
"1958-11-12 10:00","1958","11","12","10:00","7.8","","-0.6","","56","","32","","40","","25.0","","100.27","","","","","","Mainly Clear"
"1958-11-12 11:00","1958","11","12","11:00","8.9","","0.6","","56","","29","","37","","25.0","","100.27","","","","","","Mainly Clear"
"1958-11-12 12:00","1958","11","12","12:00","9.4","","0.0","","52","","29","","35","","25.0","","100.24","","","","","","Mainly Clear"
"1958-11-12 13:00","1958","11","12","13:00","10.0","","1.1","","54","","29","","26","","25.0","","100.19","","","","","","Mainly Clear"
"1958-11-12 14:00","1958","11","12","14:00","10.6","","-0.6","","46","","29","","21","","25.0","","100.16","","","","","","Mainly Clear"
"1958-11-12 15:00","1958","11","12","15:00","10.6","","0.0","","48","","27","","31","","25.0","","100.14","","","","","","Mainly Clear"
"1958-11-12 16:00","1958","11","12","16:00","10.6","","0.0","","48","","29","","24","","25.0","","100.15","","","","","","Mostly Cloudy"
"1958-11-12 17:00","1958","11","12","17:00","7.8","","0.6","","60","","27","","16","","25.0","","100.17","","","","","","Mostly Cloudy"
"1958-11-12 18:00","1958","11","12","18:00","6.7","","0.0","","62","","27","","11","","25.0","","100.22","","","","","","Mostly Cloudy"
"1958-11-12 19:00","1958","11","12","19:00","5.6","","0.0","","67","","27","","13","","25.0","","100.22","","","","","","Mostly Cloudy"
"1958-11-12 20:00","1958","11","12","20:00","5.6","","0.6","","70","","27","","13","","25.0","","100.21","","","","","","Mostly Cloudy"
"1958-11-12 21:00","1958","11","12","21:00","6.1","","0.6","","68","","32","","13","","25.0","","100.22","","","","","","Cloudy"
"1958-11-12 22:00","1958","11","12","22:00","5.0","","0.6","","73","","2","","3","","25.0","","100.20","","","","","","Cloudy"
"1958-11-12 23:00","1958","11","12","23:00","3.9","","0.6","","79","","","","0","","25.0","","100.19","","","","","","Mostly Cloudy"
"1958-11-13 00:00","1958","11","13","00:00","3.3","","1.1","","85","","","","0","","25.0","","100.16","","","","","","Mainly Clear"
"1958-11-13 01:00","1958","11","13","01:00","1.7","","-0.6","","85","","25","","3","","24.1","","100.16","","","","","","Mainly Clear"
"1958-11-13 02:00","1958","11","13","02:00","1.7","","0.0","","89","","","","0","","24.1","","100.18","","","","","","Mainly Clear"
"1958-11-13 03:00","1958","11","13","03:00","0.6","","-1.7","","85","","36","","5","","24.1","","100.16","","","","","","Mainly Clear"
"1958-11-13 04:00","1958","11","13","04:00","0.6","","-1.1","","88","","36","","8","","24.1","","100.11","","","","","","Mainly Clear"
"1958-11-13 05:00","1958","11","13","05:00","0.6","","-1.1","","88","","36","","5","","24.1","","100.12","","","","","","Mainly Clear"
"1958-11-13 06:00","1958","11","13","06:00","0.6","","-1.1","","88","","36","","10","","24.1","","100.09","","","","","","Mainly Clear"
"1958-11-13 07:00","1958","11","13","07:00","-0.6","","-2.8","","85","","36","","8","","16.1","","100.10","","","","-3","","Mainly Clear"
"1958-11-13 08:00","1958","11","13","08:00","1.1","","-0.6","","89","","36","","8","","8.0","","100.13","","","","","","Smoke,Haze"
"1958-11-13 09:00","1958","11","13","09:00","1.7","","0.6","","92","","2","","10","","6.4","","100.13","","","","","","Fog,Smoke"
"1958-11-13 10:00","1958","11","13","10:00","3.9","","1.1","","82","","5","","11","","6.4","","100.05","","","","","","Smoke,Haze"
"1958-11-13 11:00","1958","11","13","11:00","6.1","","3.3","","82","","20","","6","","3.2","","100.10","","","","","","Smoke,Haze"
"1958-11-13 12:00","1958","11","13","12:00","7.2","","4.4","","82","","9","","6","","2.0","","99.98","","","","","","Rain Showers,Smoke,Haze"
"1958-11-13 13:00","1958","11","13","13:00","8.9","","2.8","","66","","14","","16","","12.9","","99.89","","","","","","Rain Showers"
"1958-11-13 14:00","1958","11","13","14:00","7.8","","3.9","","76","","11","","16","","11.3","","99.82","","","","","","Rain"
"1958-11-13 15:00","1958","11","13","15:00","6.7","","4.4","","86","","11","","16","","9.7","","99.73","","","","","","Rain,Fog"
"1958-11-13 16:00","1958","11","13","16:00","6.7","","5.0","","89","","11","","13","","4.0","","99.63","","","","","","Fog"
"1958-11-13 17:00","1958","11","13","17:00","6.7","","5.6","","93","","11","","10","","3.2","","99.60","","","","","","Rain,Fog"
"1958-11-13 18:00","1958","11","13","18:00","7.2","","6.7","","96","","11","","11","","3.2","","99.51","","","","","","Fog"
"1958-11-13 19:00","1958","11","13","19:00","7.8","","7.2","","96","","14","","16","","1.2","","99.48","","","","","","Rain,Fog"
"1958-11-13 20:00","1958","11","13","20:00","7.8","","7.2","","96","","18","","16","","0.8","","99.44","","","","","","Moderate Rain Showers,Fog"
"1958-11-13 21:00","1958","11","13","21:00","8.3","","7.8","","96","","16","","16","","0.8","","99.35","","","","","","Rain Showers,Fog"
"1958-11-13 22:00","1958","11","13","22:00","8.3","","8.3","","100","","18","","19","","0.4","","99.25","","","","","","Rain,Fog"
"1958-11-13 23:00","1958","11","13","23:00","8.9","","8.9","","100","","18","","16","","0.0","","99.22","","","","","","Rain,Fog"
"1958-11-14 00:00","1958","11","14","00:00","8.9","","8.9","","100","","23","","13","","0.4","","99.23","","","","","","Moderate Rain,Fog"
"1958-11-14 01:00","1958","11","14","01:00","10.0","","9.4","","96","","23","","21","","4.0","","99.16","","","","","","Rain,Fog"
"1958-11-14 02:00","1958","11","14","02:00","11.1","","10.0","","93","","23","","23","","4.8","","99.06","","","","","","Rain,Fog"
"1958-11-14 03:00","1958","11","14","03:00","11.7","","10.0","","90","","25","","32","","6.4","","99.03","","","","","","Rain,Fog"
"1958-11-14 04:00","1958","11","14","04:00","11.7","","10.6","","93","","25","","27","","6.4","","98.98","","","","","","Rain,Fog"
"1958-11-14 05:00","1958","11","14","05:00","11.7","","10.0","","90","","25","","26","","6.4","","98.99","","","","","","Rain,Fog"
"1958-11-14 06:00","1958","11","14","06:00","11.1","","10.0","","93","","23","","23","","8.0","","98.99","","","","","","Rain,Fog"
"1958-11-14 07:00","1958","11","14","07:00","11.1","","9.4","","90","","23","","11","","4.0","","99.10","","","","","","Rain,Fog"
"1958-11-14 08:00","1958","11","14","08:00","11.1","","10.6","","96","","23","","21","","4.0","","99.15","","","","","","Rain,Fog"
"1958-11-14 09:00","1958","11","14","09:00","11.7","","10.6","","93","","23","","23","","6.4","","99.15","","","","","","Fog"
"1958-11-14 10:00","1958","11","14","10:00","12.8","","11.1","","90","","23","","24","","8.0","","99.09","","","","","","Fog"
"1958-11-14 11:00","1958","11","14","11:00","13.9","","11.1","","83","","23","","26","","11.3","","99.09","","","","","","Mostly Cloudy"
"1958-11-14 12:00","1958","11","14","12:00","15.0","","11.7","","81","","23","","35","","16.1","","99.01","","","","","","Mostly Cloudy"
"1958-11-14 13:00","1958","11","14","13:00","15.6","","12.2","","81","","23","","39","","16.1","","98.97","","","","","","Mostly Cloudy"
"1958-11-14 14:00","1958","11","14","14:00","15.6","","12.2","","81","","23","","31","","16.1","","98.97","","","","","","Mainly Clear"
"1958-11-14 15:00","1958","11","14","15:00","15.6","","11.7","","78","","23","","34","","9.7","","99.03","","","","","","Haze"
"1958-11-14 16:00","1958","11","14","16:00","15.0","","11.1","","78","","23","","34","","11.3","","99.03","","","","","","Mainly Clear"
"1958-11-14 17:00","1958","11","14","17:00","14.4","","12.2","","87","","23","","29","","11.3","","99.10","","","","","","Mostly Cloudy"
"1958-11-14 18:00","1958","11","14","18:00","13.9","","12.2","","90","","23","","32","","8.0","","99.15","","","","","","Haze"
"1958-11-14 19:00","1958","11","14","19:00","13.9","","11.7","","87","","23","","32","","12.9","","99.24","","","","","","Mainly Clear"
"1958-11-14 20:00","1958","11","14","20:00","14.4","","12.2","","87","","25","","32","","12.9","","99.21","","","","","","Mainly Clear"
"1958-11-14 21:00","1958","11","14","21:00","14.4","","12.2","","87","","27","","32","","12.9","","99.30","","","","","","Mainly Clear"
"1958-11-14 22:00","1958","11","14","22:00","14.4","","12.2","","87","","27","","29","","16.1","","99.34","","","","","","Mainly Clear"
"1958-11-14 23:00","1958","11","14","23:00","13.9","","12.8","","93","","23","","32","","12.9","","99.33","","","","","","Mainly Clear"
"1958-11-15 00:00","1958","11","15","00:00","13.9","","12.8","","93","","25","","27","","12.9","","99.30","","","","","","Clear"
"1958-11-15 01:00","1958","11","15","01:00","14.4","","12.8","","90","","25","","27","","12.9","","99.22","","","","","","Clear"
"1958-11-15 02:00","1958","11","15","02:00","14.4","","12.8","","90","","27","","14","","12.9","","99.33","","","","","","Clear"
"1958-11-15 03:00","1958","11","15","03:00","13.3","","12.2","","93","","20","","10","","11.3","","99.30","","","","","","Mainly Clear"
"1958-11-15 04:00","1958","11","15","04:00","13.3","","12.2","","93","","18","","5","","9.7","","99.31","","","","","","Fog"
"1958-11-15 05:00","1958","11","15","05:00","13.3","","12.8","","96","","20","","16","","8.0","","99.34","","","","","","Rain,Fog"
"1958-11-15 06:00","1958","11","15","06:00","12.8","","12.2","","96","","20","","13","","6.4","","99.37","","","","","","Rain,Fog"
"1958-11-15 07:00","1958","11","15","07:00","12.8","","12.2","","96","","18","","10","","2.4","","99.40","","","","","","Rain,Fog"
"1958-11-15 08:00","1958","11","15","08:00","12.8","","12.8","","100","","18","","10","","1.0","","99.42","","","","","","Rain,Fog"
"1958-11-15 09:00","1958","11","15","09:00","12.8","","12.2","","96","","18","","10","","0.6","","99.46","","","","","","Rain,Fog"
"1958-11-15 10:00","1958","11","15","10:00","13.3","","12.8","","96","","18","","13","","0.8","","99.43","","","","","","Rain,Fog"
"1958-11-15 11:00","1958","11","15","11:00","14.4","","13.9","","96","","18","","11","","1.6","","99.39","","","","","","Rain,Fog"
"1958-11-15 12:00","1958","11","15","12:00","14.4","","13.9","","96","","18","","14","","1.6","","99.32","","","","","","Rain,Fog"
"1958-11-15 13:00","1958","11","15","13:00","14.4","","13.9","","96","","18","","10","","1.2","","99.29","","","","","","Rain,Fog"
"1958-11-15 14:00","1958","11","15","14:00","14.4","","13.9","","96","","23","","13","","4.8","","99.28","","","","","","Rain,Fog"
"1958-11-15 15:00","1958","11","15","15:00","10.6","","10.0","","96","","36","","23","","6.4","","99.38","","","","","","Rain,Fog"
"1958-11-15 16:00","1958","11","15","16:00","9.4","","8.3","","93","","36","","29","","9.7","","99.43","","","","","","Rain,Fog"
"1958-11-15 17:00","1958","11","15","17:00","8.9","","7.8","","93","","36","","24","","12.9","","99.53","","","","","","Rain"
"1958-11-15 18:00","1958","11","15","18:00","8.9","","8.3","","96","","2","","24","","16.1","","99.63","","","","","","Rain"
"1958-11-15 19:00","1958","11","15","19:00","8.3","","6.7","","89","","2","","23","","16.1","","99.71","","","","","","Cloudy"
"1958-11-15 20:00","1958","11","15","20:00","7.2","","6.1","","93","","5","","19","","16.1","","99.80","","","","","","Cloudy"
"1958-11-15 21:00","1958","11","15","21:00","6.7","","5.6","","93","","5","","11","","12.9","","99.91","","","","","","Drizzle"
"1958-11-15 22:00","1958","11","15","22:00","6.1","","5.6","","96","","2","","16","","9.7","","100.06","","","","","","Drizzle"
"1958-11-15 23:00","1958","11","15","23:00","6.1","","5.0","","93","","5","","18","","6.4","","100.08","","","","","","Drizzle"
"1958-11-16 00:00","1958","11","16","00:00","6.1","","4.4","","89","","2","","14","","12.9","","100.15","","","","","","Cloudy"
"1958-11-16 01:00","1958","11","16","01:00","6.7","","5.0","","89","","2","","13","","19.3","","100.18","","","","","","Cloudy"
"1958-11-16 02:00","1958","11","16","02:00","6.7","","5.0","","89","","2","","16","","19.3","","100.23","","","","","","Cloudy"
"1958-11-16 03:00","1958","11","16","03:00","5.6","","1.1","","73","","5","","23","","19.3","","100.32","","","","","","Cloudy"
"1958-11-16 04:00","1958","11","16","04:00","5.6","","1.1","","73","","5","","11","","19.3","","100.40","","","","","","Cloudy"
"1958-11-16 05:00","1958","11","16","05:00","5.6","","1.1","","73","","5","","13","","19.3","","100.41","","","","","","Cloudy"
"1958-11-16 06:00","1958","11","16","06:00","5.0","","0.0","","70","","5","","14","","24.1","","100.43","","","","","","Cloudy"
"1958-11-16 07:00","1958","11","16","07:00","5.0","","-0.6","","67","","5","","16","","24.1","","100.52","","","","","","Cloudy"
"1958-11-16 08:00","1958","11","16","08:00","5.0","","-0.6","","67","","5","","19","","24.1","","100.63","","","","","","Cloudy"
"1958-11-16 09:00","1958","11","16","09:00","5.0","","-1.1","","65","","5","","13","","25.0","","100.65","","","","","","Cloudy"
"1958-11-16 10:00","1958","11","16","10:00","4.4","","-1.1","","67","","9","","26","","25.0","","100.61","","","","","","Cloudy"
"1958-11-16 11:00","1958","11","16","11:00","5.0","","-1.7","","62","","11","","19","","25.0","","100.55","","","","","","Rain"
"1958-11-16 12:00","1958","11","16","12:00","5.0","","-0.6","","67","","11","","13","","25.0","","100.52","","","","","","Cloudy"
"1958-11-16 13:00","1958","11","16","13:00","5.0","","0.0","","70","","9","","26","","25.0","","100.47","","","","","","Cloudy"
"1958-11-16 14:00","1958","11","16","14:00","5.0","","0.0","","70","","9","","16","","25.0","","100.43","","","","","","Rain,Drizzle"
"1958-11-16 15:00","1958","11","16","15:00","4.4","","0.6","","76","","9","","16","","24.1","","100.39","","","","","","Cloudy"
"1958-11-16 16:00","1958","11","16","16:00","5.0","","1.1","","76","","9","","19","","24.1","","100.44","","","","","","Cloudy"
"1958-11-16 17:00","1958","11","16","17:00","4.4","","1.1","","79","","11","","18","","16.1","","100.42","","","","","","Drizzle"
"1958-11-16 18:00","1958","11","16","18:00","4.4","","1.1","","79","","9","","19","","16.1","","100.40","","","","","","Cloudy"
"1958-11-16 19:00","1958","11","16","19:00","4.4","","1.7","","82","","9","","13","","19.3","","100.40","","","","","","Cloudy"
"1958-11-16 20:00","1958","11","16","20:00","5.6","","2.2","","79","","9","","16","","24.1","","100.32","","","","","","Cloudy"
"1958-11-16 21:00","1958","11","16","21:00","5.0","","2.8","","86","","9","","19","","16.1","","100.20","","","","","","Cloudy"
"1958-11-16 22:00","1958","11","16","22:00","5.0","","3.3","","89","","7","","13","","16.1","","100.20","","","","","","Cloudy"
"1958-11-16 23:00","1958","11","16","23:00","5.6","","3.3","","86","","11","","10","","16.1","","100.13","","","","","","Cloudy"
"1958-11-17 00:00","1958","11","17","00:00","5.6","","3.3","","86","","7","","11","","8.0","","100.09","","","","","","Drizzle"
"1958-11-17 01:00","1958","11","17","01:00","5.0","","3.9","","93","","5","","5","","6.4","","100.13","","","","","","Fog"
"1958-11-17 02:00","1958","11","17","02:00","5.6","","3.9","","89","","7","","6","","6.4","","100.03","","","","","","Fog"
"1958-11-17 03:00","1958","11","17","03:00","5.6","","3.9","","89","","7","","5","","8.0","","99.96","","","","","","Fog"
"1958-11-17 04:00","1958","11","17","04:00","6.1","","4.4","","89","","5","","5","","9.7","","99.88","","","","","","Fog"
"1958-11-17 05:00","1958","11","17","05:00","6.1","","4.4","","89","","36","","10","","6.4","","99.88","","","","","","Fog"
"1958-11-17 06:00","1958","11","17","06:00","5.6","","4.4","","93","","36","","8","","4.0","","99.90","","","","","","Fog"
"1958-11-17 07:00","1958","11","17","07:00","5.6","","5.0","","96","","16","","29","","2.4","","99.68","","","","","","Fog"
"1958-11-17 08:00","1958","11","17","08:00","6.7","","5.6","","89","","34","","5","","2.0","","99.79","","","","","","Fog"
"1958-11-17 09:00","1958","11","17","09:00","6.7","","5.6","","93","","36","","6","","2.0","","99.78","","","","","","Fog"
"1958-11-17 10:00","1958","11","17","10:00","7.8","","6.7","","93","","36","","6","","2.0","","99.74","","","","","","Fog"
"1958-11-17 11:00","1958","11","17","11:00","8.9","","7.2","","89","","","","0","","2.0","","99.73","","","","","","Fog"
"1958-11-17 12:00","1958","11","17","12:00","10.0","","8.3","","89","","2","","6","","2.0","","99.64","","","","","","Fog"
"1958-11-17 13:00","1958","11","17","13:00","11.1","","8.9","","86","","2","","6","","2.0","","99.57","","","","","","Fog"
"1958-11-17 14:00","1958","11","17","14:00","11.7","","9.4","","86","","","","0","","1.6","","99.52","","","","","","Rain,Fog"
"1958-11-17 15:00","1958","11","17","15:00","11.7","","10.0","","90","","18","","13","","1.6","","99.48","","","","","","Rain,Fog"
"1958-11-17 16:00","1958","11","17","16:00","11.7","","10.6","","93","","18","","6","","0.8","","99.46","","","","","","Fog"
"1958-11-17 17:00","1958","11","17","17:00","10.6","","10.6","","100","","18","","3","","0.2","","99.48","","","","","","Drizzle,Fog"
"1958-11-17 18:00","1958","11","17","18:00","10.6","","10.6","","100","","","","0","","0.2","","99.49","","","","","","Fog"
"1958-11-17 19:00","1958","11","17","19:00","10.6","","10.6","","100","","9","","3","","0.2","","99.41","","","","","","Fog"
"1958-11-17 20:00","1958","11","17","20:00","10.6","","10.6","","100","","","","0","","0.2","","99.41","","","","","","Fog"
"1958-11-17 21:00","1958","11","17","21:00","10.6","","10.6","","100","","","","0","","0.2","","99.40","","","","","","Fog"
"1958-11-17 22:00","1958","11","17","22:00","10.6","","10.6","","100","","23","","5","","0.0","","99.34","","","","","","Fog"
"1958-11-17 23:00","1958","11","17","23:00","10.0","","10.0","","100","","36","","3","","0.0","","99.34","","","","","","Rain,Fog"
"1958-11-18 00:00","1958","11","18","00:00","11.1","","11.1","","100","","","","0","","0.0","","99.22","","","","","","Fog"
"1958-11-18 01:00","1958","11","18","01:00","10.6","","10.6","","100","","18","","5","","0.0","","99.16","","","","","","Fog"
"1958-11-18 02:00","1958","11","18","02:00","10.6","","10.6","","100","","","","0","","0.0","","99.12","","","","","","Fog"
"1958-11-18 03:00","1958","11","18","03:00","10.6","","10.6","","100","","","","0","","0.0","","99.08","","","","","","Fog"
"1958-11-18 04:00","1958","11","18","04:00","10.6","","10.6","","100","","","","0","","0.0","","99.06","","","","","","Fog"
"1958-11-18 05:00","1958","11","18","05:00","10.6","","10.6","","100","","","","0","","0.0","","98.98","","","","","","Fog"
"1958-11-18 06:00","1958","11","18","06:00","10.6","","10.6","","100","","","","0","","0.0","","98.93","","","","","","Fog"
"1958-11-18 07:00","1958","11","18","07:00","10.0","","10.0","","100","","20","","8","","0.0","","98.91","","","","","","Fog"
"1958-11-18 08:00","1958","11","18","08:00","9.4","","9.4","","100","","14","","5","","0.4","","98.87","","","","","","Fog"
"1958-11-18 09:00","1958","11","18","09:00","11.7","","11.1","","96","","16","","10","","2.4","","98.81","","","","","","Fog"
"1958-11-18 10:00","1958","11","18","10:00","13.3","","12.8","","96","","16","","14","","3.2","","98.75","","","","","","Fog"
"1958-11-18 11:00","1958","11","18","11:00","14.4","","13.9","","96","","20","","16","","8.0","","98.68","","","","","","Fog"
"1958-11-18 12:00","1958","11","18","12:00","18.9","","16.1","","84","","23","","40","","11.3","","98.60","","","","","","Cloudy"
"1958-11-18 13:00","1958","11","18","13:00","19.4","","15.6","","78","","23","","48","","12.9","","98.49","","","","","","Cloudy"
"1958-11-18 14:00","1958","11","18","14:00","18.9","","15.6","","81","","23","","56","","12.9","","98.45","","","","","","Cloudy"
"1958-11-18 15:00","1958","11","18","15:00","18.3","","15.0","","81","","23","","47","","16.1","","98.41","","","","","","Mostly Cloudy"
"1958-11-18 16:00","1958","11","18","16:00","18.3","","14.4","","78","","23","","56","","24.1","","98.41","","","","","","Cloudy"
"1958-11-18 17:00","1958","11","18","17:00","16.7","","13.3","","81","","23","","40","","24.1","","98.39","","","","","","Mostly Cloudy"
"1958-11-18 18:00","1958","11","18","18:00","15.6","","12.2","","81","","25","","43","","25.0","","98.48","","","","","","Mostly Cloudy"
"1958-11-18 19:00","1958","11","18","19:00","14.4","","5.0","","53","","25","","56","","25.0","","98.49","","","","","","Mostly Cloudy"
"1958-11-18 20:00","1958","11","18","20:00","12.8","","4.4","","57","","25","","45","","25.0","","98.52","","","","","","Mostly Cloudy"
"1958-11-18 21:00","1958","11","18","21:00","11.1","","6.1","","71","","23","","50","","25.0","","98.56","","","","","","Mainly Clear"
"1958-11-18 22:00","1958","11","18","22:00","10.0","","4.4","","68","","25","","48","","25.0","","98.56","","","","","","Mostly Cloudy"
"1958-11-18 23:00","1958","11","18","23:00","9.4","","0.0","","52","","25","","48","","25.0","","98.56","","","","","","Mainly Clear"
"1958-11-19 00:00","1958","11","19","00:00","8.3","","0.6","","58","","23","","43","","25.0","","98.60","","","","","","Mainly Clear"
"1958-11-19 01:00","1958","11","19","01:00","7.2","","0.0","","60","","23","","42","","25.0","","98.57","","","","","","Clear"
"1958-11-19 02:00","1958","11","19","02:00","6.1","","0.0","","65","","25","","37","","25.0","","98.57","","","","","","Mainly Clear"
"1958-11-19 03:00","1958","11","19","03:00","5.6","","-0.6","","65","","27","","35","","25.0","","98.64","","","","","","Mainly Clear"
"1958-11-19 04:00","1958","11","19","04:00","4.4","","0.0","","73","","27","","32","","25.0","","98.65","","","","","","Mainly Clear"
"1958-11-19 05:00","1958","11","19","05:00","3.9","","-1.1","","70","","27","","39","","25.0","","98.60","","","","","","Clear"
"1958-11-19 06:00","1958","11","19","06:00","3.3","","-1.1","","73","","25","","39","","25.0","","98.48","","","","","","Clear"
"1958-11-19 07:00","1958","11","19","07:00","2.8","","-1.7","","72","","25","","39","","25.0","","98.51","","","","","","Clear"
"1958-11-19 08:00","1958","11","19","08:00","2.8","","-1.7","","72","","25","","31","","25.0","","98.70","","","","","","Mainly Clear"
"1958-11-19 09:00","1958","11","19","09:00","4.4","","-1.7","","65","","25","","37","","25.0","","98.68","","","","","","Mainly Clear"
"1958-11-19 10:00","1958","11","19","10:00","5.0","","-2.2","","60","","25","","45","","25.0","","98.64","","","","","","Mainly Clear"
"1958-11-19 11:00","1958","11","19","11:00","5.6","","-1.7","","60","","27","","51","","25.0","","98.65","","","","","","Mostly Cloudy"
"1958-11-19 12:00","1958","11","19","12:00","5.6","","-2.2","","57","","27","","60","","25.0","","98.67","","","","","","Mostly Cloudy"
"1958-11-19 13:00","1958","11","19","13:00","5.6","","-1.1","","62","","27","","55","","25.0","","98.64","","","","","","Mostly Cloudy"
"1958-11-19 14:00","1958","11","19","14:00","6.7","","0.0","","62","","27","","48","","25.0","","98.74","","","","","","Mostly Cloudy"
"1958-11-19 15:00","1958","11","19","15:00","7.8","","-0.6","","56","","27","","45","","25.0","","98.80","","","","","","Mostly Cloudy"
"1958-11-19 16:00","1958","11","19","16:00","7.8","","-0.6","","56","","27","","42","","25.0","","98.90","","","","","","Mainly Clear"
"1958-11-19 17:00","1958","11","19","17:00","6.7","","0.0","","62","","27","","27","","25.0","","99.00","","","","","","Mainly Clear"
"1958-11-19 18:00","1958","11","19","18:00","6.1","","0.6","","68","","25","","26","","25.0","","99.07","","","","","","Clear"
"1958-11-19 19:00","1958","11","19","19:00","5.6","","0.0","","67","","25","","21","","25.0","","99.11","","","","","","Clear"
"1958-11-19 20:00","1958","11","19","20:00","5.0","","-0.6","","67","","25","","29","","25.0","","99.14","","","","","","Clear"
"1958-11-19 21:00","1958","11","19","21:00","4.4","","-1.7","","65","","25","","27","","25.0","","99.17","","","","","","Clear"
"1958-11-19 22:00","1958","11","19","22:00","3.9","","-1.7","","67","","23","","21","","25.0","","99.25","","","","","","Clear"
"1958-11-19 23:00","1958","11","19","23:00","2.8","","-2.2","","70","","23","","16","","25.0","","99.28","","","","","","Clear"
"1958-11-20 00:00","1958","11","20","00:00","2.8","","-1.7","","72","","20","","16","","25.0","","99.26","","","","","","Mainly Clear"
"1958-11-20 01:00","1958","11","20","01:00","2.8","","-1.7","","72","","23","","18","","25.0","","99.23","","","","","","Mostly Cloudy"
"1958-11-20 02:00","1958","11","20","02:00","3.3","","-1.1","","73","","23","","21","","25.0","","99.19","","","","","","Mainly Clear"
"1958-11-20 03:00","1958","11","20","03:00","2.2","","-1.1","","78","","25","","18","","25.0","","99.16","","","","","","Mainly Clear"
"1958-11-20 04:00","1958","11","20","04:00","2.2","","-0.6","","82","","25","","19","","25.0","","99.18","","","","","","Mainly Clear"
"1958-11-20 05:00","1958","11","20","05:00","2.8","","0.0","","82","","23","","26","","25.0","","99.16","","","","","","Mainly Clear"
"1958-11-20 06:00","1958","11","20","06:00","2.2","","0.0","","85","","23","","16","","25.0","","99.14","","","","","","Mainly Clear"
"1958-11-20 07:00","1958","11","20","07:00","2.2","","-0.6","","82","","23","","13","","25.0","","99.05","","","","","","Mainly Clear"
"1958-11-20 08:00","1958","11","20","08:00","2.2","","0.0","","85","","20","","16","","24.1","","99.04","","","","","","Mostly Cloudy"
"1958-11-20 09:00","1958","11","20","09:00","5.0","","1.7","","79","","20","","16","","24.1","","98.98","","","","","","Mostly Cloudy"
"1958-11-20 10:00","1958","11","20","10:00","7.8","","1.7","","65","","25","","29","","24.1","","98.94","","","","","","Mainly Clear"
"1958-11-20 11:00","1958","11","20","11:00","9.4","","2.8","","63","","25","","29","","24.1","","98.87","","","","","","Mainly Clear"
"1958-11-20 12:00","1958","11","20","12:00","11.1","","2.8","","56","","27","","32","","24.1","","98.73","","","","","","Mainly Clear"
"1958-11-20 13:00","1958","11","20","13:00","11.1","","2.8","","56","","29","","40","","24.1","","98.72","","","","","","Mainly Clear"
"1958-11-20 14:00","1958","11","20","14:00","11.7","","2.8","","54","","29","","35","","25.0","","98.69","","","","","","Mostly Cloudy"
"1958-11-20 15:00","1958","11","20","15:00","11.1","","1.1","","50","","29","","42","","25.0","","98.79","","","","","","Mainly Clear"
"1958-11-20 16:00","1958","11","20","16:00","10.0","","1.1","","54","","29","","39","","25.0","","98.84","","","","","","Mostly Cloudy"
"1958-11-20 17:00","1958","11","20","17:00","8.9","","0.0","","54","","29","","29","","24.1","","98.84","","","","","","Mostly Cloudy"
"1958-11-20 18:00","1958","11","20","18:00","7.2","","1.1","","65","","27","","14","","24.1","","98.86","","","","","","Mostly Cloudy"
"1958-11-20 19:00","1958","11","20","19:00","7.8","","1.1","","63","","32","","18","","24.1","","98.89","","","","","","Cloudy"
"1958-11-20 20:00","1958","11","20","20:00","7.2","","0.6","","63","","27","","26","","25.0","","98.89","","","","","","Cloudy"
"1958-11-20 21:00","1958","11","20","21:00","6.7","","0.0","","62","","27","","26","","25.0","","98.87","","","","","","Cloudy"
"1958-11-20 22:00","1958","11","20","22:00","6.1","","0.0","","65","","27","","32","","25.0","","98.89","","","","","","Cloudy"
"1958-11-20 23:00","1958","11","20","23:00","4.4","","0.0","","73","","27","","26","","25.0","","98.89","","","","","","Mainly Clear"
"1958-11-21 00:00","1958","11","21","00:00","3.3","","0.6","","82","","27","","19","","25.0","","98.85","","","","","","Mainly Clear"
"1958-11-21 01:00","1958","11","21","01:00","3.9","","0.0","","76","","27","","29","","25.0","","98.85","","","","","","Clear"
"1958-11-21 02:00","1958","11","21","02:00","2.8","","1.1","","89","","32","","29","","19.3","","98.90","","","","","","Rain Showers"
"1958-11-21 03:00","1958","11","21","03:00","2.8","","0.6","","85","","27","","19","","25.0","","98.86","","","","","","Mainly Clear"
"1958-11-21 04:00","1958","11","21","04:00","2.2","","0.0","","85","","27","","26","","25.0","","98.86","","","","","","Mainly Clear"
"1958-11-21 05:00","1958","11","21","05:00","1.7","","-0.6","","85","","27","","29","","25.0","","98.91","","","","","","Mainly Clear"
"1958-11-21 06:00","1958","11","21","06:00","1.7","","-1.7","","78","","27","","23","","25.0","","98.95","","","","","","Mainly Clear"
"1958-11-21 07:00","1958","11","21","07:00","1.1","","-2.2","","78","","27","","16","","25.0","","98.98","","","","","","Mainly Clear"
"1958-11-21 08:00","1958","11","21","08:00","1.7","","-2.2","","75","","32","","23","","25.0","","99.11","","","","","","Mainly Clear"
"1958-11-21 09:00","1958","11","21","09:00","1.7","","-1.1","","82","","29","","32","","24.1","","99.14","","","","","","Mainly Clear"
"1958-11-21 10:00","1958","11","21","10:00","2.8","","-1.1","","75","","29","","35","","24.1","","99.17","","","","","","Mainly Clear"
"1958-11-21 11:00","1958","11","21","11:00","3.3","","-1.7","","70","","29","","34","","25.0","","99.20","","","","","","Mostly Cloudy"
"1958-11-21 12:00","1958","11","21","12:00","4.4","","-2.8","","59","","29","","32","","25.0","","99.12","","","","","","Mostly Cloudy"
"1958-11-21 13:00","1958","11","21","13:00","3.3","","-0.6","","76","","32","","32","","24.1","","99.14","","","","","","Mostly Cloudy"
"1958-11-21 14:00","1958","11","21","14:00","5.0","","-3.3","","55","","29","","37","","25.0","","99.08","","","","","","Mostly Cloudy"
"1958-11-21 15:00","1958","11","21","15:00","4.4","","-1.1","","67","","32","","19","","24.1","","99.10","","","","","","Mostly Cloudy"
"1958-11-21 16:00","1958","11","21","16:00","4.4","","-3.9","","55","","29","","34","","24.1","","99.10","","","","","","Mostly Cloudy"
"1958-11-21 17:00","1958","11","21","17:00","2.8","","-2.8","","67","","27","","27","","25.0","","99.17","","","","","","Mostly Cloudy"
"1958-11-21 18:00","1958","11","21","18:00","2.8","","-2.8","","67","","27","","32","","25.0","","99.19","","","","","","Snow Showers"
"1958-11-21 19:00","1958","11","21","19:00","2.2","","-1.7","","75","","27","","27","","25.0","","99.15","","","","","","Snow Showers"
"1958-11-21 20:00","1958","11","21","20:00","2.2","","-1.7","","75","","27","","24","","25.0","","99.22","","","","","","Mostly Cloudy"
"1958-11-21 21:00","1958","11","21","21:00","1.7","","-1.1","","82","","27","","19","","25.0","","99.25","","","","","","Mostly Cloudy"
"1958-11-21 22:00","1958","11","21","22:00","1.7","","-1.1","","82","","27","","21","","25.0","","99.26","","","","","","Mostly Cloudy"
"1958-11-21 23:00","1958","11","21","23:00","1.7","","-1.1","","82","","27","","16","","25.0","","99.26","","","","","","Mostly Cloudy"
"1958-11-22 00:00","1958","11","22","00:00","1.1","","-1.7","","82","","27","","19","","25.0","","99.26","","","","","","Cloudy"
"1958-11-22 01:00","1958","11","22","01:00","1.1","","-1.1","","85","","27","","16","","25.0","","99.26","","","","","","Cloudy"
"1958-11-22 02:00","1958","11","22","02:00","1.1","","-1.1","","85","","27","","18","","25.0","","99.29","","","","","","Snow Showers"
"1958-11-22 03:00","1958","11","22","03:00","0.0","","-2.2","","85","","36","","11","","25.0","","99.35","","","","-4","","Mostly Cloudy"
"1958-11-22 04:00","1958","11","22","04:00","-1.1","","-2.8","","88","","32","","11","","25.0","","99.38","","","","-5","","Snow Showers"
"1958-11-22 05:00","1958","11","22","05:00","-0.6","","-2.8","","85","","32","","11","","25.0","","99.44","","","","-4","","Cloudy"
"1958-11-22 06:00","1958","11","22","06:00","-0.6","","-3.9","","78","","36","","16","","25.0","","99.52","","","","-5","","Cloudy"
"1958-11-22 07:00","1958","11","22","07:00","-0.6","","-3.9","","78","","36","","10","","25.0","","99.59","","","","-4","","Mainly Clear"
"1958-11-22 08:00","1958","11","22","08:00","-0.6","","-5.0","","72","","36","","13","","25.0","","99.71","","","","-5","","Mostly Cloudy"
"1958-11-22 09:00","1958","11","22","09:00","0.0","","-3.9","","75","","36","","13","","25.0","","99.84","","","","-4","","Snow Showers"
"1958-11-22 10:00","1958","11","22","10:00","0.0","","-4.4","","72","","36","","16","","25.0","","99.89","","","","-5","","Mainly Clear"
"1958-11-22 11:00","1958","11","22","11:00","1.1","","-5.0","","64","","34","","19","","25.0","","99.95","","","","","","Mainly Clear"
"1958-11-22 12:00","1958","11","22","12:00","1.7","","-4.4","","64","","34","","26","","25.0","","99.99","","","","","","Mostly Cloudy"
"1958-11-22 13:00","1958","11","22","13:00","1.1","","-3.9","","69","","36","","19","","25.0","","99.99","","","","","","Mostly Cloudy"
"1958-11-22 14:00","1958","11","22","14:00","2.8","","-6.1","","52","","34","","24","","25.0","","99.97","","","","","","Mainly Clear"
"1958-11-22 15:00","1958","11","22","15:00","2.2","","-6.7","","52","","32","","26","","25.0","","100.06","","","","","","Mainly Clear"
"1958-11-22 16:00","1958","11","22","16:00","1.7","","-5.0","","61","","32","","23","","25.0","","100.12","","","","","","Mainly Clear"
"1958-11-22 17:00","1958","11","22","17:00","0.6","","-5.0","","66","","32","","19","","25.0","","100.19","","","","","","Mainly Clear"
"1958-11-22 18:00","1958","11","22","18:00","-0.6","","-2.2","","88","","32","","16","","25.0","","100.29","","","","-5","","Mainly Clear"
"1958-11-22 19:00","1958","11","22","19:00","-1.1","","-5.0","","75","","29","","10","","25.0","","100.31","","","","-5","","Mainly Clear"
"1958-11-22 20:00","1958","11","22","20:00","-1.1","","-2.2","","92","","","","0","","25.0","","100.29","","","","","","Mainly Clear"
"1958-11-22 21:00","1958","11","22","21:00","-2.2","","-5.0","","81","","","","0","","25.0","","100.25","","","","","","Mainly Clear"
"1958-11-22 22:00","1958","11","22","22:00","-2.8","","-6.1","","78","","20","","10","","25.0","","100.23","","","","-7","","Mainly Clear"
"1958-11-22 23:00","1958","11","22","23:00","-2.2","","-4.4","","85","","18","","10","","25.0","","100.21","","","","-6","","Mainly Clear"
"1958-11-23 00:00","1958","11","23","00:00","-1.7","","-4.4","","81","","18","","13","","25.0","","100.14","","","","-6","","Clear"
"1958-11-23 01:00","1958","11","23","01:00","-1.7","","-6.1","","72","","18","","10","","25.0","","100.13","","","","-5","","Mainly Clear"
"1958-11-23 02:00","1958","11","23","02:00","-1.7","","-5.6","","75","","18","","6","","25.0","","100.21","","","","-4","","Mostly Cloudy"
"1958-11-23 03:00","1958","11","23","03:00","-1.7","","-4.4","","81","","18","","5","","25.0","","100.16","","","","-4","","Cloudy"
"1958-11-23 04:00","1958","11","23","04:00","-1.7","","-4.4","","81","","18","","5","","25.0","","100.06","","","","-4","","Mostly Cloudy"
"1958-11-23 05:00","1958","11","23","05:00","-0.6","","-2.8","","85","","23","","11","","25.0","","99.97","","","","-4","","Cloudy"
"1958-11-23 06:00","1958","11","23","06:00","1.1","","-1.7","","82","","18","","16","","25.0","","99.93","","","","","","Cloudy"
"1958-11-23 07:00","1958","11","23","07:00","1.1","","-1.7","","82","","18","","21","","25.0","","99.80","","","","","","Cloudy"
"1958-11-23 08:00","1958","11","23","08:00","2.8","","-1.1","","75","","20","","29","","25.0","","99.72","","","","","","Mostly Cloudy"
"1958-11-23 09:00","1958","11","23","09:00","3.9","","-0.6","","73","","20","","35","","16.1","","99.60","","","","","","Cloudy"
"1958-11-23 10:00","1958","11","23","10:00","5.0","","-2.8","","57","","20","","29","","19.3","","99.58","","","","","","Cloudy"
"1958-11-23 11:00","1958","11","23","11:00","5.6","","-1.1","","62","","23","","32","","19.3","","99.60","","","","","","Cloudy"
"1958-11-23 12:00","1958","11","23","12:00","7.2","","1.1","","65","","23","","26","","19.3","","99.50","","","","","","Mostly Cloudy"
"1958-11-23 13:00","1958","11","23","13:00","8.3","","2.2","","65","","23","","26","","19.3","","99.41","","","","","","Mostly Cloudy"
"1958-11-23 14:00","1958","11","23","14:00","8.9","","2.2","","63","","23","","24","","19.3","","99.38","","","","","","Mostly Cloudy"
"1958-11-23 15:00","1958","11","23","15:00","11.1","","1.1","","50","","27","","29","","25.0","","99.40","","","","","","Mostly Cloudy"
"1958-11-23 16:00","1958","11","23","16:00","10.6","","1.7","","54","","27","","23","","25.0","","99.41","","","","","","Mostly Cloudy"
"1958-11-23 17:00","1958","11","23","17:00","8.9","","2.2","","63","","29","","14","","19.3","","99.45","","","","","","Mostly Cloudy"
"1958-11-23 18:00","1958","11","23","18:00","7.2","","2.2","","70","","32","","18","","19.3","","99.51","","","","","","Mostly Cloudy"
"1958-11-23 19:00","1958","11","23","19:00","7.2","","1.1","","65","","32","","10","","19.3","","99.56","","","","","","Mostly Cloudy"
"1958-11-23 20:00","1958","11","23","20:00","6.7","","1.7","","70","","27","","8","","19.3","","99.54","","","","","","Cloudy"
"1958-11-23 21:00","1958","11","23","21:00","6.7","","1.7","","70","","32","","10","","19.3","","99.50","","","","","","Cloudy"
"1958-11-23 22:00","1958","11","23","22:00","6.1","","2.2","","76","","36","","8","","19.3","","99.51","","","","","","Cloudy"
"1958-11-23 23:00","1958","11","23","23:00","5.6","","2.2","","79","","36","","23","","19.3","","99.53","","","","","","Cloudy"
"1958-11-24 00:00","1958","11","24","00:00","5.0","","2.2","","82","","5","","16","","24.1","","99.47","","","","","","Cloudy"
"1958-11-24 01:00","1958","11","24","01:00","4.4","","1.7","","82","","36","","16","","19.3","","99.46","","","","","","Cloudy"
"1958-11-24 02:00","1958","11","24","02:00","3.9","","1.1","","82","","36","","23","","24.1","","99.49","","","","","","Cloudy"
"1958-11-24 03:00","1958","11","24","03:00","3.3","","0.6","","82","","36","","26","","24.1","","99.51","","","","","","Cloudy"
"1958-11-24 04:00","1958","11","24","04:00","2.8","","0.6","","85","","2","","26","","24.1","","99.51","","","","","","Snow"
"1958-11-24 05:00","1958","11","24","05:00","1.7","","-0.6","","85","","36","","29","","3.2","","99.52","","","","","","Snow"
"1958-11-24 06:00","1958","11","24","06:00","0.6","","-0.6","","92","","36","","24","","4.0","","99.58","","","","","","Snow"
"1958-11-24 07:00","1958","11","24","07:00","0.0","","0.0","","100","","36","","24","","0.8","","99.62","","","","-6","","Moderate Snow"
"1958-11-24 08:00","1958","11","24","08:00","0.0","","0.0","","100","","2","","19","","1.2","","99.72","","","","-5","","Snow"
"1958-11-24 09:00","1958","11","24","09:00","-0.6","","-0.6","","100","","2","","21","","1.0","","99.74","","","","-6","","Snow"
"1958-11-24 10:00","1958","11","24","10:00","-1.1","","-1.7","","96","","2","","19","","11.3","","99.74","","","","-6","","Cloudy"
"1958-11-24 11:00","1958","11","24","11:00","-0.6","","-2.8","","85","","2","","19","","16.1","","99.87","","","","-6","","Cloudy"
"1958-11-24 12:00","1958","11","24","12:00","0.0","","-2.2","","85","","36","","21","","24.1","","99.95","","","","-5","","Cloudy"
"1958-11-24 13:00","1958","11","24","13:00","0.6","","-2.8","","78","","34","","19","","24.1","","99.95","","","","","","Cloudy"
"1958-11-24 14:00","1958","11","24","14:00","1.1","","-1.7","","82","","34","","19","","24.1","","100.02","","","","","","Mostly Cloudy"
"1958-11-24 15:00","1958","11","24","15:00","1.7","","-2.2","","75","","34","","24","","25.0","","100.12","","","","","","Mainly Clear"
"1958-11-24 16:00","1958","11","24","16:00","0.6","","-2.2","","82","","34","","24","","25.0","","100.23","","","","","","Mainly Clear"
"1958-11-24 17:00","1958","11","24","17:00","0.0","","-4.4","","72","","32","","23","","25.0","","100.37","","","","-6","","Mainly Clear"
"1958-11-24 18:00","1958","11","24","18:00","-1.1","","-5.6","","72","","32","","18","","25.0","","100.50","","","","-6","","Mainly Clear"
"1958-11-24 19:00","1958","11","24","19:00","-1.7","","-6.1","","72","","34","","14","","25.0","","100.54","","","","-6","","Mainly Clear"
"1958-11-24 20:00","1958","11","24","20:00","-1.7","","-4.4","","81","","36","","10","","25.0","","100.60","","","","-5","","Mostly Cloudy"
"1958-11-24 21:00","1958","11","24","21:00","-3.3","","-5.6","","85","","27","","13","","25.0","","100.64","","","","-8","","Mostly Cloudy"
"1958-11-24 22:00","1958","11","24","22:00","-3.3","","-6.1","","81","","27","","16","","25.0","","100.70","","","","-9","","Mainly Clear"
"1958-11-24 23:00","1958","11","24","23:00","-3.9","","-7.2","","78","","27","","10","","25.0","","100.72","","","","-8","","Mainly Clear"
"1958-11-25 00:00","1958","11","25","00:00","-2.8","","-6.1","","78","","27","","13","","25.0","","100.78","","","","-7","","Mainly Clear"
"1958-11-25 01:00","1958","11","25","01:00","-4.4","","-6.7","","84","","5","","10","","25.0","","100.80","","","","-9","","Mainly Clear"
"1958-11-25 02:00","1958","11","25","02:00","-4.4","","-6.7","","84","","36","","10","","25.0","","100.84","","","","-9","","Mainly Clear"
"1958-11-25 03:00","1958","11","25","03:00","-4.4","","-6.7","","84","","36","","8","","25.0","","100.92","","","","-8","","Mostly Cloudy"
"1958-11-25 04:00","1958","11","25","04:00","-4.4","","-6.7","","84","","36","","5","","25.0","","100.88","","","","-7","","Mostly Cloudy"
"1958-11-25 05:00","1958","11","25","05:00","-4.4","","-7.8","","78","","9","","10","","24.1","","100.88","","","","-9","","Mostly Cloudy"
"1958-11-25 06:00","1958","11","25","06:00","-4.4","","-8.3","","74","","9","","10","","24.1","","100.94","","","","-9","","Mostly Cloudy"
"1958-11-25 07:00","1958","11","25","07:00","-5.0","","-7.2","","84","","9","","6","","24.1","","101.01","","","","-8","","Mainly Clear"
"1958-11-25 08:00","1958","11","25","08:00","-5.0","","-7.8","","81","","9","","6","","24.1","","101.01","","","","-8","","Mainly Clear"
"1958-11-25 09:00","1958","11","25","09:00","-2.8","","-6.7","","75","","9","","16","","8.0","","100.92","","","","-8","","Smoke"
"1958-11-25 10:00","1958","11","25","10:00","-0.6","","-3.9","","78","","9","","11","","8.0","","100.92","","","","-4","","Smoke"
"1958-11-25 11:00","1958","11","25","11:00","0.6","","-3.3","","75","","14","","27","","25.0","","100.79","","","","","","Mostly Cloudy"
"1958-11-25 12:00","1958","11","25","12:00","0.6","","-3.3","","75","","11","","35","","25.0","","100.58","","","","","","Mostly Cloudy"
"1958-11-25 13:00","1958","11","25","13:00","0.6","","-3.3","","75","","11","","32","","25.0","","100.48","","","","","","Cloudy"
"1958-11-25 14:00","1958","11","25","14:00","1.1","","-2.2","","78","","11","","35","","25.0","","100.24","","","","","","Cloudy"
"1958-11-25 15:00","1958","11","25","15:00","1.1","","-2.8","","75","","11","","37","","25.0","","100.03","","","","","","Cloudy"
"1958-11-25 16:00","1958","11","25","16:00","1.1","","-3.9","","69","","11","","37","","25.0","","99.94","","","","","","Cloudy"
"1958-11-25 17:00","1958","11","25","17:00","1.7","","-2.8","","72","","11","","32","","25.0","","99.81","","","","","","Cloudy"
"1958-11-25 18:00","1958","11","25","18:00","1.7","","-1.7","","78","","11","","29","","24.1","","99.66","","","","","","Cloudy"
"1958-11-25 19:00","1958","11","25","19:00","2.2","","-1.7","","75","","11","","27","","25.0","","99.41","","","","","","Cloudy"
"1958-11-25 20:00","1958","11","25","20:00","3.3","","-0.6","","79","","11","","29","","19.3","","99.23","","","","","","Rain Showers"
"1958-11-25 21:00","1958","11","25","21:00","2.8","","0.0","","82","","11","","23","","16.1","","99.08","","","","","","Rain"
"1958-11-25 22:00","1958","11","25","22:00","2.8","","1.1","","89","","14","","26","","8.0","","98.94","","","","","","Rain,Fog"
"1958-11-25 23:00","1958","11","25","23:00","2.8","","2.2","","96","","14","","24","","6.4","","98.70","","","","","","Rain,Fog"
"1958-11-26 00:00","1958","11","26","00:00","3.9","","3.3","","96","","16","","23","","6.4","","98.58","","","","","","Rain,Fog"
"1958-11-26 01:00","1958","11","26","01:00","4.4","","3.9","","96","","16","","23","","6.4","","98.41","","","","","","Rain,Fog"
"1958-11-26 02:00","1958","11","26","02:00","6.7","","5.0","","89","","23","","19","","6.4","","98.30","","","","","","Rain,Fog"
"1958-11-26 03:00","1958","11","26","03:00","8.3","","5.6","","83","","23","","35","","12.9","","98.18","","","","","","Cloudy"
"1958-11-26 04:00","1958","11","26","04:00","8.9","","7.2","","89","","23","","35","","9.7","","98.08","","","","","","Fog"
"1958-11-26 05:00","1958","11","26","05:00","9.4","","8.3","","93","","23","","35","","9.7","","98.03","","","","","","Drizzle,Fog"
"1958-11-26 06:00","1958","11","26","06:00","8.9","","6.7","","86","","27","","35","","12.9","","98.07","","","","","","Cloudy"
"1958-11-26 07:00","1958","11","26","07:00","6.1","","2.8","","79","","27","","43","","25.0","","98.17","","","","","","Mainly Clear"
"1958-11-26 08:00","1958","11","26","08:00","2.8","","-1.7","","72","","27","","48","","25.0","","98.31","","","","","","Mainly Clear"
"1958-11-26 09:00","1958","11","26","09:00","1.7","","-2.2","","75","","27","","48","","25.0","","98.40","","","","","","Mostly Cloudy"
"1958-11-26 10:00","1958","11","26","10:00","2.2","","-3.3","","67","","27","","40","","25.0","","98.50","","","","","","Mostly Cloudy"
"1958-11-26 11:00","1958","11","26","11:00","1.7","","-6.1","","56","","27","","51","","25.0","","98.60","","","","","","Mostly Cloudy"
"1958-11-26 12:00","1958","11","26","12:00","1.7","","-4.4","","64","","25","","55","","24.1","","98.60","","","","","","Snow Showers"
"1958-11-26 13:00","1958","11","26","13:00","1.1","","-3.3","","72","","25","","51","","25.0","","98.56","","","","","","Mostly Cloudy"
"1958-11-26 14:00","1958","11","26","14:00","0.6","","-2.8","","78","","25","","48","","25.0","","98.61","","","","","","Mostly Cloudy"
"1958-11-26 15:00","1958","11","26","15:00","0.6","","-2.8","","78","","25","","51","","25.0","","98.69","","","","","","Mostly Cloudy"
"1958-11-26 16:00","1958","11","26","16:00","-0.6","","-2.2","","88","","25","","48","","25.0","","98.71","","","","-9","","Mainly Clear"
"1958-11-26 17:00","1958","11","26","17:00","-1.1","","-2.8","","88","","25","","60","","25.0","","98.81","","","","-10","","Mainly Clear"
"1958-11-26 18:00","1958","11","26","18:00","-1.7","","-3.9","","85","","25","","60","","12.9","","98.88","","","","-11","","Snow Showers"
"1958-11-26 19:00","1958","11","26","19:00","-2.2","","-3.3","","92","","25","","53","","24.1","","98.96","","","","-11","","Snow Showers"
"1958-11-26 20:00","1958","11","26","20:00","-3.3","","-5.6","","85","","27","","34","","8.0","","99.04","","","","-11","","Snow Showers"
"1958-11-26 21:00","1958","11","26","21:00","-4.4","","-5.6","","92","","27","","40","","9.7","","99.10","","","","-13","","Snow Showers"
"1958-11-26 22:00","1958","11","26","22:00","-5.0","","-6.1","","92","","27","","43","","12.9","","99.15","","","","-14","","Snow Showers"
"1958-11-26 23:00","1958","11","26","23:00","-5.6","","-7.2","","88","","27","","37","","24.1","","99.21","","","","-15","","Mainly Clear"
"1958-11-27 00:00","1958","11","27","00:00","-5.6","","-8.9","","77","","25","","26","","25.0","","99.27","","","","-13","","Mainly Clear"
"1958-11-27 01:00","1958","11","27","01:00","-5.6","","-9.4","","74","","25","","29","","24.1","","99.29","","","","-14","","Snow Showers"
"1958-11-27 02:00","1958","11","27","02:00","-5.6","","-8.9","","77","","25","","32","","25.0","","99.32","","","","-14","","Snow Showers"
"1958-11-27 03:00","1958","11","27","03:00","-5.6","","-8.3","","81","","25","","29","","25.0","","99.36","","","","-14","","Clear"
"1958-11-27 04:00","1958","11","27","04:00","-4.4","","-7.2","","81","","25","","32","","25.0","","99.44","","","","-12","","Snow Showers"
"1958-11-27 05:00","1958","11","27","05:00","-3.3","","-5.6","","85","","27","","26","","16.1","","99.53","","","","-10","","Snow Showers"
"1958-11-27 06:00","1958","11","27","06:00","-3.3","","-5.6","","85","","27","","19","","8.0","","99.65","","","","-9","","Snow Showers"
"1958-11-27 07:00","1958","11","27","07:00","-3.3","","-5.6","","85","","29","","19","","3.2","","99.71","","","","-9","","Snow Showers"
"1958-11-27 08:00","1958","11","27","08:00","-3.9","","-6.7","","81","","29","","13","","19.3","","99.83","","","","-9","","Snow Showers"
"1958-11-27 09:00","1958","11","27","09:00","-3.9","","-6.7","","81","","27","","19","","3.2","","99.94","","","","-10","","Snow Showers"
"1958-11-27 10:00","1958","11","27","10:00","-3.3","","-6.7","","78","","29","","21","","25.0","","100.00","","","","-10","","Mainly Clear"
"1958-11-27 11:00","1958","11","27","11:00","-2.2","","-6.7","","72","","27","","21","","25.0","","100.05","","","","-8","","Mainly Clear"
"1958-11-27 12:00","1958","11","27","12:00","-1.7","","-5.0","","78","","29","","18","","25.0","","100.08","","","","-7","","Mainly Clear"
"1958-11-27 13:00","1958","11","27","13:00","-1.7","","-7.2","","66","","27","","16","","25.0","","100.05","","","","-7","","Mainly Clear"
"1958-11-27 14:00","1958","11","27","14:00","-1.7","","-5.6","","75","","27","","13","","25.0","","100.06","","","","-6","","Snow Showers"
"1958-11-27 15:00","1958","11","27","15:00","-1.7","","-5.6","","75","","27","","11","","24.1","","100.11","","","","-6","","Snow Showers"
"1958-11-27 16:00","1958","11","27","16:00","-1.7","","-5.6","","75","","27","","13","","25.0","","100.10","","","","-6","","Snow Showers"
"1958-11-27 17:00","1958","11","27","17:00","-2.2","","-7.8","","66","","27","","14","","25.0","","100.14","","","","-7","","Mainly Clear"
"1958-11-27 18:00","1958","11","27","18:00","-3.9","","-7.8","","74","","25","","14","","25.0","","100.18","","","","-9","","Mainly Clear"
"1958-11-27 19:00","1958","11","27","19:00","-5.0","","-9.4","","71","","27","","14","","25.0","","100.24","","","","-10","","Clear"
"1958-11-27 20:00","1958","11","27","20:00","-5.6","","-9.4","","74","","25","","14","","25.0","","100.26","","","","-11","","Clear"
"1958-11-27 21:00","1958","11","27","21:00","-6.1","","-10.0","","74","","25","","13","","25.0","","100.24","","","","-11","","Mainly Clear"
"1958-11-27 22:00","1958","11","27","22:00","-6.7","","-10.6","","74","","25","","11","","25.0","","100.20","","","","-12","","Mostly Cloudy"
"1958-11-27 23:00","1958","11","27","23:00","-5.6","","-9.4","","74","","23","","11","","25.0","","100.24","","","","-10","","Mostly Cloudy"
"1958-11-28 00:00","1958","11","28","00:00","-5.0","","-8.9","","74","","27","","10","","25.0","","100.24","","","","-9","","Mostly Cloudy"
"1958-11-28 01:00","1958","11","28","01:00","-4.4","","-8.9","","71","","27","","8","","25.0","","100.22","","","","-8","","Cloudy"
"1958-11-28 02:00","1958","11","28","02:00","-4.4","","-8.9","","71","","25","","8","","25.0","","100.22","","","","-8","","Cloudy"
"1958-11-28 03:00","1958","11","28","03:00","-3.9","","-8.9","","68","","18","","6","","25.0","","100.13","","","","-7","","Cloudy"
"1958-11-28 04:00","1958","11","28","04:00","-3.9","","-7.8","","74","","20","","8","","25.0","","100.10","","","","-7","","Cloudy"
"1958-11-28 05:00","1958","11","28","05:00","-3.9","","-7.8","","74","","","","0","","25.0","","100.07","","","","","","Cloudy"
"1958-11-28 06:00","1958","11","28","06:00","-3.9","","-6.7","","81","","","","0","","6.4","","99.98","","","","","","Snow"
"1958-11-28 07:00","1958","11","28","07:00","-4.4","","-6.1","","88","","","","0","","3.2","","99.91","","","","","","Snow"
"1958-11-28 08:00","1958","11","28","08:00","-5.0","","-6.1","","92","","","","0","","1.2","","99.88","","","","","","Snow"
"1958-11-28 09:00","1958","11","28","09:00","-4.4","","-5.6","","92","","36","","6","","1.0","","99.74","","","","-7","","Snow"
"1958-11-28 10:00","1958","11","28","10:00","-4.4","","-5.6","","92","","2","","8","","1.0","","99.58","","","","-8","","Snow"
"1958-11-28 11:00","1958","11","28","11:00","-4.4","","-5.6","","92","","5","","10","","1.0","","99.51","","","","-9","","Snow"
"1958-11-28 12:00","1958","11","28","12:00","-3.9","","-5.6","","88","","5","","10","","1.0","","99.24","","","","-8","","Snow"
"1958-11-28 13:00","1958","11","28","13:00","-3.9","","-5.0","","92","","36","","11","","1.0","","99.14","","","","-8","","Snow"
"1958-11-28 14:00","1958","11","28","14:00","-3.3","","-5.0","","88","","2","","11","","1.2","","98.95","","","","-8","","Snow"
"1958-11-28 15:00","1958","11","28","15:00","-3.3","","-5.0","","88","","36","","14","","1.0","","98.85","","","","-8","","Snow"
"1958-11-28 16:00","1958","11","28","16:00","-3.3","","-5.0","","88","","36","","14","","1.0","","98.79","","","","-8","","Snow"
"1958-11-28 17:00","1958","11","28","17:00","-3.9","","-5.6","","88","","34","","16","","1.6","","98.71","","","","-9","","Snow"
"1958-11-28 18:00","1958","11","28","18:00","-3.9","","-5.6","","88","","34","","14","","1.6","","98.67","","","","-9","","Snow"
"1958-11-28 19:00","1958","11","28","19:00","-3.9","","-5.0","","92","","29","","13","","1.6","","98.64","","","","-9","","Snow"
"1958-11-28 20:00","1958","11","28","20:00","-3.9","","-5.6","","88","","27","","16","","6.4","","98.66","","","","-9","","Snow"
"1958-11-28 21:00","1958","11","28","21:00","-4.4","","-6.7","","84","","27","","21","","16.1","","98.67","","","","-11","","Mostly Cloudy"
"1958-11-28 22:00","1958","11","28","22:00","-4.4","","-7.2","","81","","27","","21","","25.0","","98.68","","","","-11","","Mainly Clear"
"1958-11-28 23:00","1958","11","28","23:00","-5.6","","-8.3","","81","","27","","21","","25.0","","98.71","","","","-12","","Clear"
"1958-11-29 00:00","1958","11","29","00:00","-5.6","","-8.3","","81","","27","","26","","25.0","","98.70","","","","-13","","Clear"
"1958-11-29 01:00","1958","11","29","01:00","-6.1","","-8.9","","81","","25","","23","","25.0","","98.74","","","","-13","","Mainly Clear"
"1958-11-29 02:00","1958","11","29","02:00","-6.7","","-8.3","","88","","23","","19","","25.0","","98.65","","","","-14","","Mostly Cloudy"
"1958-11-29 03:00","1958","11","29","03:00","-6.1","","-8.3","","84","","23","","32","","6.4","","98.65","","","","-15","","Snow"
"1958-11-29 04:00","1958","11","29","04:00","-6.1","","-8.9","","81","","23","","32","","6.4","","98.63","","","","-15","","Blowing Snow"
"1958-11-29 05:00","1958","11","29","05:00","-5.6","","-8.3","","81","","25","","45","","6.4","","98.70","","","","-15","","Snow,Blowing Snow"
"1958-11-29 06:00","1958","11","29","06:00","-6.7","","-11.1","","71","","27","","35","","16.1","","98.70","","","","-16","","Mainly Clear"
"1958-11-29 07:00","1958","11","29","07:00","-7.8","","-12.8","","67","","25","","26","","24.1","","98.68","","","","-16","","Mainly Clear"
"1958-11-29 08:00","1958","11","29","08:00","-7.8","","-10.6","","81","","23","","32","","16.1","","98.62","","","","-17","","Snow"
"1958-11-29 09:00","1958","11","29","09:00","-7.2","","-9.4","","84","","25","","37","","4.8","","98.59","","","","-17","","Snow"
"1958-11-29 10:00","1958","11","29","10:00","-6.1","","-9.4","","77","","25","","42","","4.8","","98.54","","","","-16","","Snow,Blowing Snow"
"1958-11-29 11:00","1958","11","29","11:00","-6.7","","-8.3","","88","","27","","55","","1.2","","98.51","","","","-18","","Snow,Blowing Snow"
"1958-11-29 12:00","1958","11","29","12:00","-7.2","","-10.0","","81","","27","","48","","2.4","","98.50","","","","-18","","Snow,Blowing Snow"
"1958-11-29 13:00","1958","11","29","13:00","-6.7","","-11.1","","71","","27","","55","","2.4","","98.52","","","","-18","","Snow,Blowing Snow"
"1958-11-29 14:00","1958","11","29","14:00","-7.2","","-11.7","","71","","27","","55","","4.8","","98.53","","","","-18","","Blowing Snow"
"1958-11-29 15:00","1958","11","29","15:00","-8.3","","-14.4","","61","","27","","50","","6.4","","98.57","","","","-19","","Blowing Snow"
"1958-11-29 16:00","1958","11","29","16:00","-9.4","","-15.6","","61","","27","","48","","11.3","","98.68","","","","-21","","Mainly Clear"
"1958-11-29 17:00","1958","11","29","17:00","-10.0","","-13.3","","77","","27","","43","","0.8","","98.79","","","","-21","","Snow,Blowing Snow"
"1958-11-29 18:00","1958","11","29","18:00","-10.0","","-12.2","","84","","27","","40","","0.4","","98.96","","","","-21","","Moderate Snow Showers,Blowing Snow"
"1958-11-29 19:00","1958","11","29","19:00","-9.4","","-12.8","","77","","29","","43","","9.7","","99.20","","","","-20","","Blowing Snow"
"1958-11-29 20:00","1958","11","29","20:00","-9.4","","-12.8","","77","","27","","31","","11.3","","99.39","","","","-19","","Mainly Clear"
"1958-11-29 21:00","1958","11","29","21:00","-10.6","","-14.4","","73","","29","","40","","6.4","","99.59","","","","-22","","Blowing Snow"
"1958-11-29 22:00","1958","11","29","22:00","-12.2","","-16.7","","70","","29","","47","","11.3","","99.85","","","","-24","","Mainly Clear"
"1958-11-29 23:00","1958","11","29","23:00","-12.8","","-17.2","","69","","32","","43","","12.9","","100.08","","","","-25","","Mainly Clear"
"1958-11-30 00:00","1958","11","30","00:00","-12.8","","-16.7","","73","","34","","19","","25.0","","100.31","","","","-21","","Mainly Clear"
"1958-11-30 01:00","1958","11","30","01:00","-12.8","","-19.4","","58","","32","","24","","25.0","","100.39","","","","-22","","Mainly Clear"
"1958-11-30 02:00","1958","11","30","02:00","-12.8","","-20.0","","55","","32","","24","","25.0","","100.53","","","","-22","","Mainly Clear"
"1958-11-30 03:00","1958","11","30","03:00","-12.8","","-17.8","","66","","32","","23","","25.0","","100.65","","","","-22","","Mainly Clear"
"1958-11-30 04:00","1958","11","30","04:00","-12.8","","-18.9","","60","","29","","19","","25.0","","100.75","","","","-21","","Mainly Clear"
"1958-11-30 05:00","1958","11","30","05:00","-15.0","","-20.6","","63","","27","","26","","25.0","","100.89","","","","-25","","Mainly Clear"
"1958-11-30 06:00","1958","11","30","06:00","-13.9","","-18.3","","69","","27","","24","","16.1","","100.97","","","","-24","","Snow Showers"
"1958-11-30 07:00","1958","11","30","07:00","-13.3","","-17.8","","69","","27","","16","","6.4","","101.04","","","","-21","","Snow Showers"
"1958-11-30 08:00","1958","11","30","08:00","-13.9","","-18.3","","69","","25","","19","","24.1","","101.09","","","","-23","","Mainly Clear"
"1958-11-30 09:00","1958","11","30","09:00","-12.8","","-17.2","","69","","27","","26","","25.0","","101.12","","","","-23","","Mainly Clear"
"1958-11-30 10:00","1958","11","30","10:00","-10.0","","-18.9","","48","","29","","26","","25.0","","101.20","","","","-19","","Mainly Clear"
"1958-11-30 11:00","1958","11","30","11:00","-7.8","","-16.7","","49","","29","","27","","25.0","","101.28","","","","-16","","Mainly Clear"
"1958-11-30 12:00","1958","11","30","12:00","-7.2","","-13.9","","59","","32","","19","","25.0","","101.25","","","","-14","","Mainly Clear"
"1958-11-30 13:00","1958","11","30","13:00","-7.2","","-18.3","","41","","27","","23","","25.0","","101.21","","","","-15","","Mainly Clear"
"1958-11-30 14:00","1958","11","30","14:00","-7.2","","-18.3","","41","","27","","19","","25.0","","101.19","","","","-14","","Mainly Clear"
"1958-11-30 15:00","1958","11","30","15:00","-7.2","","-16.7","","47","","27","","18","","25.0","","101.20","","","","-14","","Mostly Cloudy"
"1958-11-30 16:00","1958","11","30","16:00","-7.2","","-13.9","","59","","25","","6","","25.0","","101.17","","","","-10","","Mostly Cloudy"
"1958-11-30 17:00","1958","11","30","17:00","-7.8","","-13.3","","64","","25","","13","","25.0","","101.19","","","","-14","","Cloudy"
"1958-11-30 18:00","1958","11","30","18:00","-7.8","","-11.7","","74","","23","","19","","25.0","","101.14","","","","-15","","Cloudy"
"1958-11-30 19:00","1958","11","30","19:00","-7.8","","-11.7","","74","","23","","19","","25.0","","101.11","","","","-15","","Cloudy"
"1958-11-30 20:00","1958","11","30","20:00","-8.3","","-12.2","","74","","23","","24","","25.0","","101.02","","","","-16","","Cloudy"
"1958-11-30 21:00","1958","11","30","21:00","-8.3","","-12.2","","74","","25","","13","","25.0","","100.94","","","","-14","","Cloudy"
"1958-11-30 22:00","1958","11","30","22:00","-8.3","","-13.3","","67","","27","","13","","16.1","","100.82","","","","-14","","Snow"
"1958-11-30 23:00","1958","11","30","23:00","-8.9","","-11.1","","84","","23","","6","","1.2","","100.79","","","","-12","","Snow"
