"Station Name","TORONTO LESTER B. PEARSON INT'L A"
"Province","ONTARIO"
"Latitude","43.68"
"Longitude","-79.63"
"Elevation","173.40"
"Climate Identifier","6158733"
"WMO Identifier","71624"
"TC Identifier","YYZ"
"All times are specified in Local Standard Time (LST). Add 1 hour to adjust for Daylight Saving Time where and when it is observed."

"Legend"
"E","Estimated"
"M","Missing"
"NA","Not Available"

"Date/Time","Year","Month","Day","Time","Temp (°C)","Temp Flag","Dew Point Temp (°C)","Dew Point Temp Flag","Rel Hum (%)","Rel Hum Flag","Wind Dir (10s deg)","Wind Dir Flag","Wind Spd (km/h)","Wind Spd Flag","Visibility (km)","Visibility Flag","Stn Press (kPa)","Stn Press Flag","Hmdx","Hmdx Flag","Wind Chill","Wind Chill Flag","Weather"
"1956-08-01 00:00","1956","08","01","00:00","16.7","","15.6","","93","","23","","10","","6.4","","99.64","","","","","","Fog"
"1956-08-01 01:00","1956","08","01","01:00","16.7","","15.6","","93","","27","","10","","6.4","","99.64","","","","","","Fog"
"1956-08-01 02:00","1956","08","01","02:00","16.7","","15.0","","90","","","","0","","6.4","","99.62","","","","","","Fog"
"1956-08-01 03:00","1956","08","01","03:00","16.7","","15.6","","93","","","","0","","4.8","","99.61","","","","","","Fog"
"1956-08-01 04:00","1956","08","01","04:00","16.7","","15.6","","93","","","","0","","3.2","","99.59","","","","","","Drizzle,Fog"
"1956-08-01 05:00","1956","08","01","05:00","16.7","","15.6","","93","","32","","10","","3.2","","99.62","","","","","","Fog"
"1956-08-01 06:00","1956","08","01","06:00","16.1","","14.4","","90","","32","","14","","8.0","","99.71","","","","","","Fog"
"1956-08-01 07:00","1956","08","01","07:00","16.7","","15.0","","90","","34","","16","","12.9","","99.76","","","","","","Mainly Clear"
"1956-08-01 08:00","1956","08","01","08:00","18.3","","15.0","","81","","34","","16","","12.9","","99.81","","","","","","Mainly Clear"
"1956-08-01 09:00","1956","08","01","09:00","19.4","","15.6","","78","","36","","16","","12.9","","99.81","","","","","","Mostly Cloudy"
"1956-08-01 10:00","1956","08","01","10:00","19.4","","14.4","","73","","36","","19","","16.1","","99.84","","","","","","Mostly Cloudy"
"1956-08-01 11:00","1956","08","01","11:00","21.7","","15.0","","66","","36","","16","","16.1","","99.84","","26","","","","Mostly Cloudy"
"1956-08-01 12:00","1956","08","01","12:00","22.2","","15.0","","64","","36","","16","","24.1","","99.81","","26","","","","Mostly Cloudy"
"1956-08-01 13:00","1956","08","01","13:00","22.8","","13.3","","55","","36","","16","","24.1","","99.81","","26","","","","Mostly Cloudy"
"1956-08-01 14:00","1956","08","01","14:00","24.4","","16.7","","62","","36","","19","","24.1","","99.80","","29","","","","Mostly Cloudy"
"1956-08-01 15:00","1956","08","01","15:00","25.0","","22.2","","85","","36","","10","","24.1","","99.77","","35","","","","Mostly Cloudy"
"1956-08-01 16:00","1956","08","01","16:00","24.4","","22.2","","88","","36","","16","","24.1","","99.77","","34","","","","Mostly Cloudy"
"1956-08-01 17:00","1956","08","01","17:00","23.3","","11.7","","48","","36","","19","","24.1","","99.76","","25","","","","Mainly Clear"
"1956-08-01 18:00","1956","08","01","18:00","22.8","","12.8","","53","","36","","23","","24.1","","99.81","","25","","","","Mainly Clear"
"1956-08-01 19:00","1956","08","01","19:00","20.6","","13.3","","63","","36","","23","","24.1","","99.85","","","","","","Mainly Clear"
"1956-08-01 20:00","1956","08","01","20:00","18.3","","13.3","","73","","36","","19","","24.1","","99.89","","","","","","Mainly Clear"
"1956-08-01 21:00","1956","08","01","21:00","16.7","","13.9","","84","","36","","23","","24.1","","99.99","","","","","","Clear"
"1956-08-01 22:00","1956","08","01","22:00","16.1","","13.9","","87","","36","","19","","16.1","","100.02","","","","","","Clear"
"1956-08-01 23:00","1956","08","01","23:00","15.0","","12.2","","84","","36","","16","","25.0","","100.11","","","","","","Mainly Clear"
"1956-08-02 00:00","1956","08","02","00:00","13.9","","10.6","","80","","36","","16","","25.0","","100.15","","","","","","Mainly Clear"
"1956-08-02 01:00","1956","08","02","01:00","12.8","","10.0","","83","","36","","13","","25.0","","100.18","","","","","","Clear"
"1956-08-02 02:00","1956","08","02","02:00","12.2","","8.3","","77","","36","","13","","25.0","","100.22","","","","","","Clear"
"1956-08-02 03:00","1956","08","02","03:00","11.1","","8.3","","83","","36","","16","","25.0","","100.22","","","","","","Clear"
"1956-08-02 04:00","1956","08","02","04:00","11.1","","7.8","","80","","36","","13","","25.0","","100.26","","","","","","Clear"
"1956-08-02 05:00","1956","08","02","05:00","10.0","","7.2","","83","","36","","14","","25.0","","100.33","","","","","","Mainly Clear"
"1956-08-02 06:00","1956","08","02","06:00","11.1","","7.2","","77","","36","","14","","25.0","","100.37","","","","","","Mainly Clear"
"1956-08-02 07:00","1956","08","02","07:00","13.3","","8.3","","72","","5","","13","","25.0","","100.42","","","","","","Mainly Clear"
"1956-08-02 08:00","1956","08","02","08:00","17.2","","6.1","","48","","7","","19","","25.0","","100.46","","","","","","Mainly Clear"
"1956-08-02 09:00","1956","08","02","09:00","18.3","","4.4","","40","","9","","24","","25.0","","100.48","","","","","","Mainly Clear"
"1956-08-02 10:00","1956","08","02","10:00","19.4","","3.9","","36","","9","","26","","25.0","","100.46","","","","","","Mainly Clear"
"1956-08-02 11:00","1956","08","02","11:00","20.0","","4.4","","36","","9","","24","","25.0","","100.44","","","","","","Mainly Clear"
"1956-08-02 12:00","1956","08","02","12:00","20.0","","7.8","","45","","16","","13","","25.0","","100.43","","","","","","Mainly Clear"
"1956-08-02 13:00","1956","08","02","13:00","20.0","","10.0","","53","","16","","23","","25.0","","100.41","","","","","","Mainly Clear"
"1956-08-02 14:00","1956","08","02","14:00","21.7","","7.8","","41","","11","","19","","25.0","","100.34","","","","","","Mainly Clear"
"1956-08-02 15:00","1956","08","02","15:00","21.1","","7.8","","42","","14","","19","","25.0","","100.27","","","","","","Mainly Clear"
"1956-08-02 16:00","1956","08","02","16:00","21.1","","7.8","","42","","18","","18","","25.0","","100.28","","","","","","Mainly Clear"
"1956-08-02 17:00","1956","08","02","17:00","20.6","","8.3","","45","","18","","16","","25.0","","100.28","","","","","","Mainly Clear"
"1956-08-02 18:00","1956","08","02","18:00","20.6","","7.8","","44","","18","","13","","25.0","","100.26","","","","","","Mainly Clear"
"1956-08-02 19:00","1956","08","02","19:00","19.4","","13.3","","68","","18","","11","","24.1","","100.28","","","","","","Mainly Clear"
"1956-08-02 20:00","1956","08","02","20:00","17.2","","8.3","","56","","25","","11","","24.1","","100.31","","","","","","Clear"
"1956-08-02 21:00","1956","08","02","21:00","16.1","","9.4","","65","","32","","16","","24.1","","100.38","","","","","","Clear"
"1956-08-02 22:00","1956","08","02","22:00","15.0","","10.0","","72","","36","","14","","24.1","","100.40","","","","","","Clear"
"1956-08-02 23:00","1956","08","02","23:00","13.9","","10.0","","77","","34","","16","","25.0","","100.45","","","","","","Clear"
"1956-08-03 00:00","1956","08","03","00:00","12.8","","10.0","","88","","36","","11","","25.0","","100.46","","","","","","Clear"
"1956-08-03 01:00","1956","08","03","01:00","12.2","","10.0","","86","","34","","13","","25.0","","100.47","","","","","","Clear"
"1956-08-03 02:00","1956","08","03","02:00","11.7","","9.4","","86","","34","","13","","25.0","","100.45","","","","","","Clear"
"1956-08-03 03:00","1956","08","03","03:00","11.7","","9.4","","86","","36","","16","","25.0","","100.44","","","","","","Clear"
"1956-08-03 04:00","1956","08","03","04:00","11.7","","9.4","","86","","36","","19","","25.0","","100.46","","","","","","Clear"
"1956-08-03 05:00","1956","08","03","05:00","11.1","","8.9","","86","","36","","16","","25.0","","100.49","","","","","","Mainly Clear"
"1956-08-03 06:00","1956","08","03","06:00","12.8","","10.6","","86","","36","","23","","25.0","","100.53","","","","","","Clear"
"1956-08-03 07:00","1956","08","03","07:00","14.4","","11.1","","81","","36","","14","","25.0","","100.55","","","","","","Clear"
"1956-08-03 08:00","1956","08","03","08:00","18.3","","12.2","","68","","36","","11","","25.0","","100.55","","","","","","Clear"
"1956-08-03 09:00","1956","08","03","09:00","20.6","","11.7","","57","","36","","10","","25.0","","100.53","","","","","","Clear"
"1956-08-03 10:00","1956","08","03","10:00","22.2","","8.9","","43","","9","","10","","25.0","","100.50","","","","","","Mainly Clear"
"1956-08-03 11:00","1956","08","03","11:00","22.8","","7.8","","38","","9","","14","","25.0","","100.48","","","","","","Mainly Clear"
"1956-08-03 12:00","1956","08","03","12:00","23.9","","7.8","","36","","14","","19","","25.0","","100.43","","","","","","Mainly Clear"
"1956-08-03 13:00","1956","08","03","13:00","23.9","","6.7","","33","","18","","18","","25.0","","100.40","","","","","","Mainly Clear"
"1956-08-03 14:00","1956","08","03","14:00","24.4","","6.7","","32","","18","","18","","25.0","","100.35","","","","","","Mostly Cloudy"
"1956-08-03 15:00","1956","08","03","15:00","23.3","","5.6","","32","","16","","16","","25.0","","100.31","","","","","","Mostly Cloudy"
"1956-08-03 16:00","1956","08","03","16:00","23.9","","2.8","","25","","16","","14","","25.0","","100.28","","","","","","Mostly Cloudy"
"1956-08-03 17:00","1956","08","03","17:00","23.9","","5.6","","31","","18","","14","","25.0","","100.26","","","","","","Mostly Cloudy"
"1956-08-03 18:00","1956","08","03","18:00","22.8","","8.3","","40","","18","","13","","25.0","","100.25","","","","","","Mostly Cloudy"
"1956-08-03 19:00","1956","08","03","19:00","21.1","","9.4","","47","","18","","11","","25.0","","100.19","","","","","","Mostly Cloudy"
"1956-08-03 20:00","1956","08","03","20:00","19.4","","10.0","","54","","18","","6","","25.0","","100.14","","","","","","Mostly Cloudy"
"1956-08-03 21:00","1956","08","03","21:00","18.9","","9.4","","54","","23","","3","","25.0","","100.12","","","","","","Mostly Cloudy"
"1956-08-03 22:00","1956","08","03","22:00","16.7","","10.0","","65","","23","","3","","25.0","","100.14","","","","","","Mainly Clear"
"1956-08-03 23:00","1956","08","03","23:00","14.4","","9.4","","72","","27","","6","","25.0","","100.13","","","","","","Clear"
"1956-08-04 00:00","1956","08","04","00:00","13.3","","9.4","","77","","27","","10","","25.0","","100.13","","","","","","Clear"
"1956-08-04 01:00","1956","08","04","01:00","12.8","","8.9","","77","","27","","6","","25.0","","100.10","","","","","","Clear"
"1956-08-04 02:00","1956","08","04","02:00","12.2","","8.3","","77","","32","","10","","25.0","","100.07","","","","","","Clear"
"1956-08-04 03:00","1956","08","04","03:00","12.2","","8.3","","77","","36","","13","","25.0","","100.04","","","","","","Clear"
"1956-08-04 04:00","1956","08","04","04:00","12.2","","8.9","","80","","36","","13","","25.0","","100.06","","","","","","Mainly Clear"
"1956-08-04 05:00","1956","08","04","05:00","12.2","","8.9","","80","","36","","13","","16.1","","100.09","","","","","","Mostly Cloudy"
"1956-08-04 06:00","1956","08","04","06:00","13.9","","10.0","","77","","36","","10","","16.1","","100.07","","","","","","Mostly Cloudy"
"1956-08-04 07:00","1956","08","04","07:00","16.7","","9.4","","62","","36","","6","","16.1","","100.06","","","","","","Mostly Cloudy"
"1956-08-04 08:00","1956","08","04","08:00","20.0","","12.2","","61","","7","","13","","9.7","","100.01","","","","","","Smoke,Haze"
"1956-08-04 09:00","1956","08","04","09:00","21.1","","13.9","","63","","16","","14","","8.0","","99.98","","","","","","Smoke,Haze"
"1956-08-04 10:00","1956","08","04","10:00","22.8","","14.4","","59","","16","","16","","8.0","","99.91","","26","","","","Smoke,Haze"
"1956-08-04 11:00","1956","08","04","11:00","23.3","","16.1","","64","","14","","16","","8.0","","99.84","","28","","","","Smoke,Haze"
"1956-08-04 12:00","1956","08","04","12:00","24.4","","18.3","","69","","16","","19","","9.7","","99.77","","31","","","","Smoke,Haze"
"1956-08-04 13:00","1956","08","04","13:00","23.9","","18.3","","71","","14","","16","","9.7","","99.75","","30","","","","Smoke,Haze"
"1956-08-04 14:00","1956","08","04","14:00","22.2","","13.3","","57","","16","","16","","11.3","","99.75","","25","","","","Cloudy"
"1956-08-04 15:00","1956","08","04","15:00","21.7","","16.1","","71","","20","","18","","6.4","","99.72","","26","","","","Rain Showers,Haze"
"1956-08-04 16:00","1956","08","04","16:00","20.0","","16.7","","81","","23","","19","","6.4","","99.70","","25","","","","Rain Showers,Haze"
"1956-08-04 17:00","1956","08","04","17:00","19.4","","17.8","","90","","23","","14","","6.4","","99.62","","","","","","Rain,Fog"
"1956-08-04 18:00","1956","08","04","18:00","18.9","","17.8","","93","","20","","11","","4.8","","99.59","","","","","","Rain,Fog"
"1956-08-04 19:00","1956","08","04","19:00","18.9","","17.2","","90","","20","","11","","4.8","","99.52","","","","","","Rain,Fog"
"1956-08-04 20:00","1956","08","04","20:00","17.8","","16.7","","93","","18","","10","","4.8","","99.53","","","","","","Rain,Fog"
"1956-08-04 21:00","1956","08","04","21:00","17.2","","16.1","","93","","16","","13","","4.0","","99.46","","","","","","Rain,Fog"
"1956-08-04 22:00","1956","08","04","22:00","17.2","","16.7","","97","","7","","10","","4.0","","99.39","","","","","","Rain,Fog"
"1956-08-04 23:00","1956","08","04","23:00","17.8","","17.2","","97","","9","","16","","4.0","","99.33","","","","","","Fog"
"1956-08-05 00:00","1956","08","05","00:00","17.8","","16.7","","93","","9","","10","","4.0","","99.25","","","","","","Fog"
"1956-08-05 01:00","1956","08","05","01:00","17.8","","17.2","","97","","7","","11","","4.0","","99.26","","","","","","Drizzle,Fog"
"1956-08-05 02:00","1956","08","05","02:00","17.8","","17.2","","97","","5","","11","","4.0","","99.22","","","","","","Fog"
"1956-08-05 03:00","1956","08","05","03:00","17.2","","16.1","","93","","5","","11","","4.0","","99.21","","","","","","Drizzle,Fog"
"1956-08-05 04:00","1956","08","05","04:00","17.2","","16.1","","93","","2","","11","","4.0","","99.17","","","","","","Drizzle,Fog"
"1956-08-05 05:00","1956","08","05","05:00","17.2","","16.1","","93","","2","","11","","4.0","","99.20","","","","","","Fog"
"1956-08-05 06:00","1956","08","05","06:00","17.8","","16.1","","90","","34","","11","","4.0","","99.20","","","","","","Fog"
"1956-08-05 07:00","1956","08","05","07:00","17.8","","16.1","","90","","36","","11","","11.3","","99.16","","","","","","Mostly Cloudy"
"1956-08-05 08:00","1956","08","05","08:00","20.6","","16.7","","79","","7","","16","","19.3","","99.16","","26","","","","Mainly Clear"
"1956-08-05 09:00","1956","08","05","09:00","21.1","","17.2","","79","","9","","14","","12.9","","99.18","","27","","","","Cloudy"
"1956-08-05 10:00","1956","08","05","10:00","22.8","","16.1","","66","","9","","16","","11.3","","99.16","","27","","","","Mostly Cloudy"
"1956-08-05 11:00","1956","08","05","11:00","23.3","","16.1","","64","","9","","13","","11.3","","99.15","","28","","","","Mainly Clear"
"1956-08-05 12:00","1956","08","05","12:00","23.9","","16.7","","64","","9","","16","","12.9","","99.12","","29","","","","Mostly Cloudy"
"1956-08-05 13:00","1956","08","05","13:00","23.9","","15.6","","60","","9","","19","","12.9","","99.07","","28","","","","Mainly Clear"
"1956-08-05 14:00","1956","08","05","14:00","23.9","","16.7","","64","","9","","16","","12.9","","99.05","","29","","","","Mainly Clear"
"1956-08-05 15:00","1956","08","05","15:00","23.9","","17.2","","66","","14","","19","","11.3","","99.01","","29","","","","Mostly Cloudy"
"1956-08-05 16:00","1956","08","05","16:00","23.9","","15.6","","60","","7","","19","","11.3","","98.95","","28","","","","Mainly Clear"
"1956-08-05 17:00","1956","08","05","17:00","22.8","","16.7","","69","","14","","13","","11.3","","98.94","","28","","","","Mostly Cloudy"
"1956-08-05 18:00","1956","08","05","18:00","22.2","","16.1","","68","","18","","13","","12.9","","98.96","","27","","","","Cloudy"
"1956-08-05 19:00","1956","08","05","19:00","21.7","","16.7","","73","","9","","8","","12.9","","98.95","","27","","","","Mostly Cloudy"
"1956-08-05 20:00","1956","08","05","20:00","20.6","","16.7","","79","","7","","10","","12.9","","98.93","","26","","","","Mostly Cloudy"
"1956-08-05 21:00","1956","08","05","21:00","20.0","","16.7","","81","","36","","10","","11.3","","98.94","","25","","","","Cloudy"
"1956-08-05 22:00","1956","08","05","22:00","20.0","","16.7","","81","","2","","13","","11.3","","98.86","","25","","","","Cloudy"
"1956-08-05 23:00","1956","08","05","23:00","20.0","","16.7","","81","","36","","11","","16.1","","98.86","","25","","","","Cloudy"
"1956-08-06 00:00","1956","08","06","00:00","20.0","","17.2","","84","","2","","16","","16.1","","98.84","","25","","","","Cloudy"
"1956-08-06 01:00","1956","08","06","01:00","20.0","","17.2","","84","","5","","16","","16.1","","98.80","","25","","","","Rain Showers"
"1956-08-06 02:00","1956","08","06","02:00","20.0","","17.8","","87","","2","","13","","16.1","","98.78","","26","","","","Cloudy"
"1956-08-06 03:00","1956","08","06","03:00","20.0","","17.8","","87","","36","","11","","12.9","","98.77","","26","","","","Cloudy"
"1956-08-06 04:00","1956","08","06","04:00","19.4","","17.8","","90","","36","","14","","11.3","","98.77","","","","","","Cloudy"
"1956-08-06 05:00","1956","08","06","05:00","19.4","","17.8","","90","","2","","19","","8.0","","98.80","","","","","","Fog"
"1956-08-06 06:00","1956","08","06","06:00","18.9","","17.8","","93","","2","","16","","3.2","","98.84","","","","","","Rain,Fog"
"1956-08-06 07:00","1956","08","06","07:00","18.9","","18.3","","97","","2","","16","","3.2","","98.86","","","","","","Rain,Fog"
"1956-08-06 08:00","1956","08","06","08:00","19.4","","18.9","","97","","2","","18","","1.6","","98.77","","","","","","Rain,Fog"
"1956-08-06 09:00","1956","08","06","09:00","18.9","","18.3","","97","","7","","19","","1.2","","98.90","","","","","","Rain,Fog"
"1956-08-06 10:00","1956","08","06","10:00","19.4","","18.3","","93","","7","","24","","1.6","","98.93","","","","","","Rain,Fog"
"1956-08-06 11:00","1956","08","06","11:00","19.4","","17.8","","90","","7","","26","","4.0","","98.99","","","","","","Drizzle,Fog"
"1956-08-06 12:00","1956","08","06","12:00","20.0","","17.8","","87","","5","","19","","4.8","","99.02","","26","","","","Fog"
"1956-08-06 13:00","1956","08","06","13:00","20.6","","17.2","","81","","7","","29","","4.8","","99.04","","26","","","","Fog"
"1956-08-06 14:00","1956","08","06","14:00","20.6","","17.2","","81","","5","","29","","6.4","","99.08","","26","","","","Fog"
"1956-08-06 15:00","1956","08","06","15:00","20.0","","16.1","","78","","7","","23","","9.7","","99.13","","25","","","","Haze"
"1956-08-06 16:00","1956","08","06","16:00","21.1","","16.1","","73","","7","","18","","12.9","","99.13","","26","","","","Cloudy"
"1956-08-06 17:00","1956","08","06","17:00","21.1","","16.1","","73","","7","","13","","12.9","","99.14","","26","","","","Mostly Cloudy"
"1956-08-06 18:00","1956","08","06","18:00","20.6","","16.7","","79","","9","","13","","12.9","","99.16","","26","","","","Mostly Cloudy"
"1956-08-06 19:00","1956","08","06","19:00","20.6","","16.7","","79","","7","","11","","6.4","","99.18","","26","","","","Haze"
"1956-08-06 20:00","1956","08","06","20:00","19.4","","16.7","","84","","34","","10","","8.0","","99.20","","","","","","Haze"
"1956-08-06 21:00","1956","08","06","21:00","18.3","","16.7","","90","","34","","10","","9.7","","99.23","","","","","","Haze"
"1956-08-06 22:00","1956","08","06","22:00","17.2","","16.1","","93","","36","","11","","6.4","","99.27","","","","","","Fog"
"1956-08-06 23:00","1956","08","06","23:00","17.8","","16.7","","93","","36","","13","","6.4","","99.28","","","","","","Fog"
"1956-08-07 00:00","1956","08","07","00:00","17.8","","16.1","","90","","36","","14","","6.4","","99.33","","","","","","Fog"
"1956-08-07 01:00","1956","08","07","01:00","17.8","","16.7","","93","","36","","13","","8.0","","99.33","","","","","","Fog"
"1956-08-07 02:00","1956","08","07","02:00","17.8","","16.7","","93","","36","","14","","8.0","","99.25","","","","","","Fog"
"1956-08-07 03:00","1956","08","07","03:00","17.8","","16.7","","93","","36","","11","","19.3","","99.24","","","","","","Mostly Cloudy"
"1956-08-07 04:00","1956","08","07","04:00","17.8","","16.1","","90","","36","","16","","19.3","","99.25","","","","","","Cloudy"
"1956-08-07 05:00","1956","08","07","05:00","17.8","","16.1","","90","","7","","13","","16.1","","99.29","","","","","","Mostly Cloudy"
"1956-08-07 06:00","1956","08","07","06:00","18.3","","16.7","","90","","5","","10","","12.9","","99.37","","","","","","Mostly Cloudy"
"1956-08-07 07:00","1956","08","07","07:00","18.9","","16.7","","87","","5","","10","","16.1","","99.37","","","","","","Mostly Cloudy"
"1956-08-07 08:00","1956","08","07","08:00","22.2","","17.8","","76","","7","","13","","16.1","","99.35","","28","","","","Mostly Cloudy"
"1956-08-07 09:00","1956","08","07","09:00","22.8","","18.3","","76","","7","","14","","16.1","","99.41","","29","","","","Mostly Cloudy"
"1956-08-07 10:00","1956","08","07","10:00","23.3","","17.2","","69","","9","","10","","16.1","","99.44","","29","","","","Mostly Cloudy"
"1956-08-07 11:00","1956","08","07","11:00","23.9","","17.2","","66","","23","","18","","16.1","","99.45","","29","","","","Mostly Cloudy"
"1956-08-07 12:00","1956","08","07","12:00","23.9","","17.2","","66","","23","","16","","16.1","","99.44","","29","","","","Mostly Cloudy"
"1956-08-07 13:00","1956","08","07","13:00","24.4","","18.3","","69","","23","","24","","16.1","","99.34","","31","","","","Mostly Cloudy"
"1956-08-07 14:00","1956","08","07","14:00","24.4","","17.2","","64","","23","","14","","16.1","","99.35","","30","","","","Mainly Clear"
"1956-08-07 15:00","1956","08","07","15:00","22.8","","15.0","","62","","14","","19","","16.1","","99.46","","27","","","","Thunderstorms,Rain Showers"
"1956-08-07 16:00","1956","08","07","16:00","21.7","","17.8","","79","","14","","16","","16.1","","99.44","","28","","","","Rain Showers"
"1956-08-07 17:00","1956","08","07","17:00","21.7","","17.8","","79","","18","","13","","19.3","","99.48","","28","","","","Mainly Clear"
"1956-08-07 18:00","1956","08","07","18:00","21.7","","17.8","","79","","23","","10","","16.1","","99.41","","28","","","","Mainly Clear"
"1956-08-07 19:00","1956","08","07","19:00","20.6","","17.2","","81","","27","","10","","16.1","","99.37","","26","","","","Mainly Clear"
"1956-08-07 20:00","1956","08","07","20:00","19.4","","17.2","","87","","","","0","","16.1","","99.39","","","","","","Mainly Clear"
"1956-08-07 21:00","1956","08","07","21:00","18.3","","15.6","","84","","23","","6","","16.1","","99.48","","","","","","Mainly Clear"
"1956-08-07 22:00","1956","08","07","22:00","18.3","","16.1","","87","","18","","6","","16.1","","99.49","","","","","","Clear"
"1956-08-07 23:00","1956","08","07","23:00","17.2","","15.6","","90","","20","","8","","16.1","","99.50","","","","","","Clear"
"1956-08-08 00:00","1956","08","08","00:00","16.1","","15.0","","93","","18","","8","","8.0","","99.50","","","","","","Fog"
"1956-08-08 01:00","1956","08","08","01:00","15.6","","14.4","","93","","","","0","","8.0","","99.49","","","","","","Fog"
"1956-08-08 02:00","1956","08","08","02:00","15.6","","14.4","","93","","29","","8","","8.0","","99.47","","","","","","Fog"
"1956-08-08 03:00","1956","08","08","03:00","15.6","","14.4","","93","","25","","11","","8.0","","99.48","","","","","","Fog"
"1956-08-08 04:00","1956","08","08","04:00","16.1","","14.4","","90","","25","","10","","16.1","","99.53","","","","","","Mainly Clear"
"1956-08-08 05:00","1956","08","08","05:00","16.1","","14.4","","90","","25","","13","","8.0","","99.54","","","","","","Fog"
"1956-08-08 06:00","1956","08","08","06:00","17.8","","15.6","","87","","23","","8","","12.9","","99.57","","","","","","Mainly Clear"
"1956-08-08 07:00","1956","08","08","07:00","17.8","","15.6","","87","","23","","8","","12.9","","99.58","","","","","","Mainly Clear"
"1956-08-08 08:00","1956","08","08","08:00","21.7","","17.8","","79","","36","","11","","12.9","","99.58","","28","","","","Mainly Clear"
"1956-08-08 09:00","1956","08","08","09:00","23.9","","18.3","","71","","32","","11","","12.9","","99.58","","30","","","","Mainly Clear"
"1956-08-08 10:00","1956","08","08","10:00","26.7","","15.0","","51","","32","","8","","12.9","","99.55","","31","","","","Mainly Clear"
"1956-08-08 11:00","1956","08","08","11:00","27.8","","15.0","","46","","27","","26","","16.1","","99.58","","32","","","","Mainly Clear"
"1956-08-08 12:00","1956","08","08","12:00","28.3","","15.0","","44","","27","","29","","24.1","","99.61","","32","","","","Mainly Clear"
"1956-08-08 13:00","1956","08","08","13:00","29.4","","15.6","","43","","27","","29","","24.1","","99.58","","34","","","","Mainly Clear"
"1956-08-08 14:00","1956","08","08","14:00","30.0","","14.4","","39","","27","","29","","24.1","","99.54","","34","","","","Mainly Clear"
"1956-08-08 15:00","1956","08","08","15:00","29.4","","15.0","","42","","27","","27","","25.0","","99.54","","33","","","","Mainly Clear"
"1956-08-08 16:00","1956","08","08","16:00","30.0","","14.4","","39","","29","","26","","25.0","","99.51","","34","","","","Mainly Clear"
"1956-08-08 17:00","1956","08","08","17:00","29.4","","15.0","","42","","29","","23","","25.0","","99.48","","33","","","","Mainly Clear"
"1956-08-08 18:00","1956","08","08","18:00","26.7","","17.8","","58","","27","","16","","25.0","","99.48","","33","","","","Mostly Cloudy"
"1956-08-08 19:00","1956","08","08","19:00","26.1","","18.9","","65","","25","","13","","25.0","","99.48","","33","","","","Mostly Cloudy"
"1956-08-08 20:00","1956","08","08","20:00","23.3","","16.7","","66","","25","","11","","25.0","","99.52","","28","","","","Mostly Cloudy"
"1956-08-08 21:00","1956","08","08","21:00","22.2","","16.7","","71","","25","","14","","25.0","","99.56","","27","","","","Mainly Clear"
"1956-08-08 22:00","1956","08","08","22:00","22.2","","16.7","","71","","23","","13","","25.0","","99.52","","27","","","","Mainly Clear"
"1956-08-08 23:00","1956","08","08","23:00","21.1","","17.2","","79","","23","","10","","25.0","","99.53","","27","","","","Mainly Clear"
"1956-08-09 00:00","1956","08","09","00:00","21.1","","16.7","","76","","23","","8","","25.0","","99.51","","26","","","","Clear"
"1956-08-09 01:00","1956","08","09","01:00","20.6","","16.7","","79","","23","","8","","25.0","","99.48","","26","","","","Clear"
"1956-08-09 02:00","1956","08","09","02:00","20.0","","16.7","","81","","23","","16","","19.3","","99.44","","25","","","","Mainly Clear"
"1956-08-09 03:00","1956","08","09","03:00","20.6","","17.2","","81","","20","","14","","16.1","","99.43","","26","","","","Mainly Clear"
"1956-08-09 04:00","1956","08","09","04:00","20.0","","17.2","","84","","20","","13","","16.1","","99.43","","25","","","","Mostly Cloudy"
"1956-08-09 05:00","1956","08","09","05:00","20.6","","18.3","","87","","20","","13","","12.9","","99.41","","27","","","","Mostly Cloudy"
"1956-08-09 06:00","1956","08","09","06:00","21.1","","18.9","","87","","23","","11","","6.4","","99.38","","28","","","","Haze"
"1956-08-09 07:00","1956","08","09","07:00","21.7","","19.4","","87","","23","","19","","8.0","","99.37","","29","","","","Haze"
"1956-08-09 08:00","1956","08","09","08:00","23.9","","20.0","","79","","23","","24","","9.7","","99.38","","31","","","","Haze"
"1956-08-09 09:00","1956","08","09","09:00","25.0","","20.0","","74","","27","","24","","9.7","","99.34","","33","","","","Haze"
"1956-08-09 10:00","1956","08","09","10:00","25.6","","20.0","","72","","27","","29","","4.8","","99.32","","33","","","","Haze"
"1956-08-09 11:00","1956","08","09","11:00","25.6","","20.0","","72","","27","","24","","4.8","","99.36","","33","","","","Haze"
"1956-08-09 12:00","1956","08","09","12:00","27.8","","20.0","","63","","25","","31","","8.0","","99.28","","35","","","","Haze"
"1956-08-09 13:00","1956","08","09","13:00","28.3","","20.0","","61","","25","","18","","12.9","","99.26","","36","","","","Mostly Cloudy"
"1956-08-09 14:00","1956","08","09","14:00","28.9","","20.0","","59","","25","","19","","12.9","","99.15","","36","","","","Mostly Cloudy"
"1956-08-09 15:00","1956","08","09","15:00","26.1","","22.8","","82","","23","","24","","6.4","","99.04","","36","","","","Thunderstorms,Rain Showers,Haze"
"1956-08-09 16:00","1956","08","09","16:00","21.1","","19.4","","90","","25","","26","","8.0","","99.17","","28","","","","Rain Showers,Haze"
"1956-08-09 17:00","1956","08","09","17:00","20.6","","18.9","","90","","20","","13","","9.7","","99.11","","27","","","","Rain Showers,Haze"
"1956-08-09 18:00","1956","08","09","18:00","20.0","","17.8","","87","","23","","27","","11.3","","99.06","","26","","","","Rain"
"1956-08-09 19:00","1956","08","09","19:00","18.9","","17.8","","93","","27","","18","","11.3","","99.03","","","","","","Rain"
"1956-08-09 20:00","1956","08","09","20:00","18.9","","17.8","","93","","27","","19","","25.0","","99.16","","","","","","Mostly Cloudy"
"1956-08-09 21:00","1956","08","09","21:00","18.3","","16.7","","90","","20","","13","","25.0","","99.09","","","","","","Mostly Cloudy"
"1956-08-09 22:00","1956","08","09","22:00","18.3","","16.7","","90","","25","","29","","25.0","","99.07","","","","","","Mainly Clear"
"1956-08-09 23:00","1956","08","09","23:00","18.3","","16.7","","90","","23","","31","","25.0","","98.96","","","","","","Mainly Clear"
"1956-08-10 00:00","1956","08","10","00:00","19.4","","17.2","","87","","20","","31","","25.0","","98.94","","","","","","Rain Showers"
"1956-08-10 01:00","1956","08","10","01:00","20.0","","16.1","","78","","32","","19","","25.0","","98.95","","25","","","","Mainly Clear"
"1956-08-10 02:00","1956","08","10","02:00","17.8","","15.6","","87","","23","","16","","25.0","","98.98","","","","","","Mainly Clear"
"1956-08-10 03:00","1956","08","10","03:00","17.2","","16.1","","93","","25","","13","","25.0","","98.99","","","","","","Clear"
"1956-08-10 04:00","1956","08","10","04:00","17.2","","14.4","","84","","29","","21","","25.0","","99.05","","","","","","Mainly Clear"
"1956-08-10 05:00","1956","08","10","05:00","17.2","","14.4","","84","","32","","18","","25.0","","99.08","","","","","","Mainly Clear"
"1956-08-10 06:00","1956","08","10","06:00","17.2","","15.0","","87","","27","","21","","25.0","","99.15","","","","","","Mainly Clear"
"1956-08-10 07:00","1956","08","10","07:00","18.3","","15.0","","81","","25","","21","","25.0","","99.14","","","","","","Mainly Clear"
"1956-08-10 08:00","1956","08","10","08:00","20.6","","14.4","","68","","27","","32","","25.0","","99.16","","","","","","Mainly Clear"
"1956-08-10 09:00","1956","08","10","09:00","22.2","","15.6","","66","","29","","31","","25.0","","99.13","","27","","","","Mainly Clear"
"1956-08-10 10:00","1956","08","10","10:00","22.8","","15.6","","64","","29","","40","","25.0","","99.10","","27","","","","Mostly Cloudy"
"1956-08-10 11:00","1956","08","10","11:00","23.3","","15.0","","60","","27","","40","","25.0","","99.20","","27","","","","Mostly Cloudy"
"1956-08-10 12:00","1956","08","10","12:00","23.9","","16.1","","62","","27","","35","","25.0","","99.22","","29","","","","Mostly Cloudy"
"1956-08-10 13:00","1956","08","10","13:00","25.0","","15.6","","56","","27","","35","","25.0","","99.22","","29","","","","Mostly Cloudy"
"1956-08-10 14:00","1956","08","10","14:00","26.1","","15.0","","51","","29","","35","","25.0","","99.21","","30","","","","Mainly Clear"
"1956-08-10 15:00","1956","08","10","15:00","26.1","","13.9","","47","","29","","39","","25.0","","99.14","","29","","","","Mainly Clear"
"1956-08-10 16:00","1956","08","10","16:00","25.6","","13.9","","49","","27","","39","","25.0","","99.18","","29","","","","Mainly Clear"
"1956-08-10 17:00","1956","08","10","17:00","24.4","","13.9","","52","","27","","35","","25.0","","99.19","","28","","","","Mainly Clear"
"1956-08-10 18:00","1956","08","10","18:00","23.3","","14.4","","58","","27","","32","","25.0","","99.22","","27","","","","Mainly Clear"
"1956-08-10 19:00","1956","08","10","19:00","22.2","","14.4","","61","","27","","19","","25.0","","99.25","","26","","","","Clear"
"1956-08-10 20:00","1956","08","10","20:00","19.4","","15.0","","76","","27","","13","","25.0","","99.27","","","","","","Clear"
"1956-08-10 21:00","1956","08","10","21:00","18.3","","14.4","","78","","27","","18","","25.0","","99.29","","","","","","Clear"
"1956-08-10 22:00","1956","08","10","22:00","17.8","","14.4","","81","","25","","16","","25.0","","99.30","","","","","","Clear"
"1956-08-10 23:00","1956","08","10","23:00","17.2","","14.4","","84","","27","","16","","25.0","","99.33","","","","","","Clear"
"1956-08-11 00:00","1956","08","11","00:00","17.2","","14.4","","84","","29","","16","","25.0","","99.35","","","","","","Clear"
"1956-08-11 01:00","1956","08","11","01:00","16.7","","13.9","","84","","29","","13","","25.0","","99.35","","","","","","Clear"
"1956-08-11 02:00","1956","08","11","02:00","16.1","","13.3","","84","","27","","16","","25.0","","99.36","","","","","","Clear"
"1956-08-11 03:00","1956","08","11","03:00","15.6","","13.3","","87","","27","","14","","25.0","","99.36","","","","","","Clear"
"1956-08-11 04:00","1956","08","11","04:00","16.1","","13.9","","87","","25","","23","","25.0","","99.36","","","","","","Clear"
"1956-08-11 05:00","1956","08","11","05:00","16.1","","13.9","","87","","25","","19","","25.0","","99.40","","","","","","Mainly Clear"
"1956-08-11 06:00","1956","08","11","06:00","16.7","","14.4","","87","","25","","16","","25.0","","99.45","","","","","","Mainly Clear"
"1956-08-11 07:00","1956","08","11","07:00","18.9","","15.6","","81","","25","","16","","25.0","","99.42","","","","","","Clear"
"1956-08-11 08:00","1956","08","11","08:00","22.8","","15.0","","62","","25","","19","","25.0","","99.42","","27","","","","Mainly Clear"
"1956-08-11 09:00","1956","08","11","09:00","24.4","","14.4","","54","","25","","32","","25.0","","99.42","","28","","","","Mainly Clear"
"1956-08-11 10:00","1956","08","11","10:00","26.1","","13.9","","47","","25","","29","","25.0","","99.42","","29","","","","Mainly Clear"
"1956-08-11 11:00","1956","08","11","11:00","26.7","","13.9","","46","","25","","32","","25.0","","99.39","","30","","","","Mainly Clear"
"1956-08-11 12:00","1956","08","11","12:00","27.8","","12.8","","40","","27","","32","","25.0","","99.36","","30","","","","Mostly Cloudy"
"1956-08-11 13:00","1956","08","11","13:00","28.3","","13.3","","40","","27","","23","","25.0","","99.31","","31","","","","Mostly Cloudy"
"1956-08-11 14:00","1956","08","11","14:00","27.2","","14.4","","46","","27","","32","","25.0","","99.27","","31","","","","Mostly Cloudy"
"1956-08-11 15:00","1956","08","11","15:00","27.8","","15.0","","46","","27","","26","","25.0","","99.27","","32","","","","Mostly Cloudy"
"1956-08-11 16:00","1956","08","11","16:00","26.1","","13.9","","47","","27","","26","","25.0","","99.27","","29","","","","Mostly Cloudy"
"1956-08-11 17:00","1956","08","11","17:00","25.6","","14.4","","50","","27","","23","","25.0","","99.31","","29","","","","Cloudy"
"1956-08-11 18:00","1956","08","11","18:00","23.3","","17.2","","69","","36","","10","","25.0","","99.32","","29","","","","Cloudy"
"1956-08-11 19:00","1956","08","11","19:00","22.2","","16.7","","71","","36","","10","","25.0","","99.28","","27","","","","Mostly Cloudy"
"1956-08-11 20:00","1956","08","11","20:00","21.1","","17.8","","81","","36","","10","","25.0","","99.34","","27","","","","Rain Showers"
"1956-08-11 21:00","1956","08","11","21:00","20.6","","17.8","","84","","27","","8","","19.3","","99.38","","26","","","","Rain"
"1956-08-11 22:00","1956","08","11","22:00","19.4","","16.1","","81","","5","","8","","25.0","","99.36","","","","","","Cloudy"
"1956-08-11 23:00","1956","08","11","23:00","19.4","","16.1","","81","","7","","8","","25.0","","99.38","","","","","","Cloudy"
"1956-08-12 00:00","1956","08","12","00:00","18.9","","15.0","","78","","36","","5","","25.0","","99.38","","","","","","Rain Showers"
"1956-08-12 01:00","1956","08","12","01:00","18.9","","15.0","","78","","36","","5","","25.0","","99.39","","","","","","Cloudy"
"1956-08-12 02:00","1956","08","12","02:00","17.8","","15.6","","87","","36","","13","","25.0","","99.40","","","","","","Rain Showers"
"1956-08-12 03:00","1956","08","12","03:00","17.2","","16.1","","93","","36","","10","","25.0","","99.42","","","","","","Rain Showers"
"1956-08-12 04:00","1956","08","12","04:00","17.2","","16.1","","93","","36","","2","","25.0","","99.44","","","","","","Cloudy"
"1956-08-12 05:00","1956","08","12","05:00","16.7","","15.6","","93","","32","","6","","24.1","","99.51","","","","","","Mostly Cloudy"
"1956-08-12 06:00","1956","08","12","06:00","17.2","","16.1","","93","","32","","8","","25.0","","99.52","","","","","","Mostly Cloudy"
"1956-08-12 07:00","1956","08","12","07:00","18.3","","16.1","","87","","36","","6","","25.0","","99.55","","","","","","Mostly Cloudy"
"1956-08-12 08:00","1956","08","12","08:00","20.6","","16.1","","76","","34","","8","","25.0","","99.55","","25","","","","Mainly Clear"
"1956-08-12 09:00","1956","08","12","09:00","21.7","","15.6","","68","","32","","8","","25.0","","99.59","","26","","","","Mostly Cloudy"
"1956-08-12 10:00","1956","08","12","10:00","22.2","","14.4","","61","","27","","14","","25.0","","99.64","","26","","","","Mostly Cloudy"
"1956-08-12 11:00","1956","08","12","11:00","23.9","","14.4","","56","","32","","14","","25.0","","99.61","","28","","","","Mainly Clear"
"1956-08-12 12:00","1956","08","12","12:00","23.9","","14.4","","56","","25","","13","","25.0","","99.65","","28","","","","Mainly Clear"
"1956-08-12 13:00","1956","08","12","13:00","24.4","","15.0","","56","","18","","13","","25.0","","99.60","","28","","","","Mainly Clear"
"1956-08-12 14:00","1956","08","12","14:00","24.4","","15.6","","58","","20","","13","","25.0","","99.57","","29","","","","Mainly Clear"
"1956-08-12 15:00","1956","08","12","15:00","23.3","","16.7","","66","","14","","16","","25.0","","99.55","","28","","","","Mostly Cloudy"
"1956-08-12 16:00","1956","08","12","16:00","24.4","","15.6","","58","","14","","23","","25.0","","99.55","","29","","","","Mostly Cloudy"
"1956-08-12 17:00","1956","08","12","17:00","23.9","","16.1","","62","","16","","16","","24.1","","99.52","","29","","","","Cloudy"
"1956-08-12 18:00","1956","08","12","18:00","22.8","","16.1","","66","","16","","19","","24.1","","99.50","","27","","","","Mainly Clear"
"1956-08-12 19:00","1956","08","12","19:00","21.7","","16.7","","73","","16","","13","","24.1","","99.52","","27","","","","Mainly Clear"
"1956-08-12 20:00","1956","08","12","20:00","21.1","","17.2","","79","","18","","10","","24.1","","99.52","","27","","","","Mainly Clear"
"1956-08-12 21:00","1956","08","12","21:00","20.6","","17.2","","81","","18","","10","","24.1","","99.52","","26","","","","Mainly Clear"
"1956-08-12 22:00","1956","08","12","22:00","19.4","","17.2","","87","","23","","13","","24.1","","99.52","","","","","","Mainly Clear"
"1956-08-12 23:00","1956","08","12","23:00","18.9","","16.7","","87","","25","","10","","24.1","","99.58","","","","","","Clear"
"1956-08-13 00:00","1956","08","13","00:00","18.3","","15.6","","84","","27","","13","","24.1","","99.57","","","","","","Clear"
"1956-08-13 01:00","1956","08","13","01:00","17.8","","15.6","","87","","25","","10","","24.1","","99.51","","","","","","Mostly Cloudy"
"1956-08-13 02:00","1956","08","13","02:00","17.2","","15.6","","90","","","","0","","16.1","","99.44","","","","","","Cloudy"
"1956-08-13 03:00","1956","08","13","03:00","17.2","","16.1","","93","","16","","8","","16.1","","99.39","","","","","","Cloudy"
"1956-08-13 04:00","1956","08","13","04:00","17.2","","16.1","","93","","16","","5","","9.7","","99.39","","","","","","Fog"
"1956-08-13 05:00","1956","08","13","05:00","16.7","","16.1","","97","","16","","3","","3.2","","99.39","","","","","","Fog"
"1956-08-13 06:00","1956","08","13","06:00","17.2","","16.1","","93","","23","","8","","2.0","","99.37","","","","","","Fog"
"1956-08-13 07:00","1956","08","13","07:00","17.8","","17.2","","97","","20","","10","","1.2","","99.38","","","","","","Rain,Fog"
"1956-08-13 08:00","1956","08","13","08:00","20.0","","18.9","","93","","18","","16","","2.4","","99.22","","27","","","","Fog"
"1956-08-13 09:00","1956","08","13","09:00","20.6","","18.9","","90","","18","","16","","2.4","","99.22","","27","","","","Fog"
"1956-08-13 10:00","1956","08","13","10:00","22.2","","18.3","","81","","18","","24","","6.4","","99.14","","28","","","","Haze"
"1956-08-13 11:00","1956","08","13","11:00","23.3","","18.9","","76","","18","","21","","9.7","","99.14","","30","","","","Haze"
"1956-08-13 12:00","1956","08","13","12:00","25.0","","20.6","","76","","18","","24","","12.9","","99.03","","33","","","","Mostly Cloudy"
"1956-08-13 13:00","1956","08","13","13:00","25.6","","19.4","","69","","18","","26","","12.9","","98.98","","33","","","","Mostly Cloudy"
"1956-08-13 14:00","1956","08","13","14:00","27.2","","19.4","","63","","18","","26","","12.9","","98.85","","34","","","","Mostly Cloudy"
"1956-08-13 15:00","1956","08","13","15:00","25.6","","19.4","","69","","18","","32","","16.1","","98.73","","33","","","","Mostly Cloudy"
"1956-08-13 16:00","1956","08","13","16:00","24.4","","19.4","","74","","18","","26","","1.6","","98.66","","31","","","","Thunderstorms,Moderate Rain Showers"
"1956-08-13 17:00","1956","08","13","17:00","20.6","","18.3","","87","","29","","19","","24.1","","98.74","","27","","","","Mostly Cloudy"
"1956-08-13 18:00","1956","08","13","18:00","21.1","","17.2","","79","","27","","19","","25.0","","98.82","","27","","","","Mainly Clear"
"1956-08-13 19:00","1956","08","13","19:00","20.6","","18.3","","87","","2","","11","","25.0","","98.83","","27","","","","Mainly Clear"
"1956-08-13 20:00","1956","08","13","20:00","19.4","","17.8","","90","","20","","11","","25.0","","98.90","","","","","","Mainly Clear"
"1956-08-13 21:00","1956","08","13","21:00","18.3","","17.2","","93","","25","","19","","25.0","","98.95","","","","","","Mainly Clear"
"1956-08-13 22:00","1956","08","13","22:00","19.4","","17.8","","90","","29","","23","","25.0","","98.98","","","","","","Clear"
"1956-08-13 23:00","1956","08","13","23:00","18.9","","17.2","","90","","27","","16","","24.1","","99.00","","","","","","Clear"
"1956-08-14 00:00","1956","08","14","00:00","18.3","","16.7","","90","","27","","10","","24.1","","99.03","","","","","","Clear"
"1956-08-14 01:00","1956","08","14","01:00","17.8","","16.1","","90","","23","","16","","24.1","","99.01","","","","","","Clear"
"1956-08-14 02:00","1956","08","14","02:00","16.7","","15.6","","93","","25","","18","","24.1","","99.01","","","","","","Clear"
"1956-08-14 03:00","1956","08","14","03:00","16.1","","15.0","","93","","27","","16","","24.1","","99.01","","","","","","Clear"
"1956-08-14 04:00","1956","08","14","04:00","16.1","","15.0","","93","","27","","10","","24.1","","99.01","","","","","","Clear"
"1956-08-14 05:00","1956","08","14","05:00","16.1","","15.0","","93","","27","","14","","24.1","","99.12","","","","","","Mainly Clear"
"1956-08-14 06:00","1956","08","14","06:00","16.7","","15.6","","93","","25","","14","","24.1","","99.19","","","","","","Mainly Clear"
"1956-08-14 07:00","1956","08","14","07:00","18.3","","16.7","","90","","29","","14","","24.1","","99.20","","","","","","Mainly Clear"
"1956-08-14 08:00","1956","08","14","08:00","21.7","","15.6","","68","","27","","23","","25.0","","99.28","","26","","","","Clear"
"1956-08-14 09:00","1956","08","14","09:00","22.8","","15.0","","62","","27","","27","","25.0","","99.28","","27","","","","Clear"
"1956-08-14 10:00","1956","08","14","10:00","24.4","","15.0","","56","","29","","26","","25.0","","99.31","","28","","","","Mainly Clear"
"1956-08-14 11:00","1956","08","14","11:00","25.6","","15.0","","52","","29","","29","","25.0","","99.28","","30","","","","Mainly Clear"
"1956-08-14 12:00","1956","08","14","12:00","26.1","","13.9","","47","","29","","27","","25.0","","99.24","","29","","","","Mainly Clear"
"1956-08-14 13:00","1956","08","14","13:00","27.2","","13.9","","44","","27","","32","","25.0","","99.20","","31","","","","Mainly Clear"
"1956-08-14 14:00","1956","08","14","14:00","27.2","","13.9","","44","","27","","32","","25.0","","99.16","","31","","","","Mainly Clear"
"1956-08-14 15:00","1956","08","14","15:00","27.2","","14.4","","46","","29","","32","","25.0","","99.16","","31","","","","Mainly Clear"
"1956-08-14 16:00","1956","08","14","16:00","27.2","","13.9","","44","","27","","39","","25.0","","99.17","","31","","","","Mainly Clear"
"1956-08-14 17:00","1956","08","14","17:00","26.7","","13.9","","46","","27","","29","","25.0","","99.17","","30","","","","Mainly Clear"
"1956-08-14 18:00","1956","08","14","18:00","25.6","","14.4","","50","","27","","26","","25.0","","99.16","","29","","","","Mainly Clear"
"1956-08-14 19:00","1956","08","14","19:00","23.3","","15.0","","60","","27","","19","","25.0","","99.16","","27","","","","Mainly Clear"
"1956-08-14 20:00","1956","08","14","20:00","21.1","","14.4","","66","","25","","19","","25.0","","99.20","","25","","","","Mainly Clear"
"1956-08-14 21:00","1956","08","14","21:00","20.0","","15.0","","73","","23","","16","","25.0","","99.22","","","","","","Mainly Clear"
"1956-08-14 22:00","1956","08","14","22:00","18.9","","15.0","","78","","23","","19","","25.0","","99.21","","","","","","Clear"
"1956-08-14 23:00","1956","08","14","23:00","18.3","","15.6","","84","","27","","23","","25.0","","99.21","","","","","","Clear"
"1956-08-15 00:00","1956","08","15","00:00","18.3","","15.6","","84","","25","","23","","25.0","","99.20","","","","","","Clear"
"1956-08-15 01:00","1956","08","15","01:00","17.8","","15.0","","84","","23","","16","","24.1","","99.18","","","","","","Clear"
"1956-08-15 02:00","1956","08","15","02:00","16.7","","15.6","","93","","27","","16","","24.1","","99.20","","","","","","Clear"
"1956-08-15 03:00","1956","08","15","03:00","16.7","","15.0","","90","","27","","16","","24.1","","99.20","","","","","","Clear"
"1956-08-15 04:00","1956","08","15","04:00","17.2","","15.6","","90","","29","","18","","24.1","","99.27","","","","","","Clear"
"1956-08-15 05:00","1956","08","15","05:00","17.8","","15.0","","84","","32","","16","","24.1","","99.32","","","","","","Mainly Clear"
"1956-08-15 06:00","1956","08","15","06:00","17.2","","15.6","","90","","36","","19","","24.1","","99.41","","","","","","Mainly Clear"
"1956-08-15 07:00","1956","08","15","07:00","18.3","","15.0","","81","","36","","19","","24.1","","99.49","","","","","","Mainly Clear"
"1956-08-15 08:00","1956","08","15","08:00","18.9","","13.9","","73","","36","","21","","25.0","","99.59","","","","","","Mostly Cloudy"
"1956-08-15 09:00","1956","08","15","09:00","19.4","","13.3","","68","","34","","21","","25.0","","99.59","","","","","","Mainly Clear"
"1956-08-15 10:00","1956","08","15","10:00","20.6","","12.8","","61","","36","","13","","25.0","","99.63","","","","","","Mainly Clear"
"1956-08-15 11:00","1956","08","15","11:00","21.1","","12.2","","57","","36","","13","","25.0","","99.62","","","","","","Mainly Clear"
"1956-08-15 12:00","1956","08","15","12:00","21.7","","11.7","","53","","34","","19","","25.0","","99.57","","","","","","Mainly Clear"
"1956-08-15 13:00","1956","08","15","13:00","21.7","","10.6","","49","","36","","11","","25.0","","99.56","","","","","","Mainly Clear"
"1956-08-15 14:00","1956","08","15","14:00","22.2","","9.4","","44","","2","","10","","25.0","","99.53","","","","","","Mainly Clear"
"1956-08-15 15:00","1956","08","15","15:00","23.3","","13.3","","54","","23","","10","","25.0","","99.54","","26","","","","Mainly Clear"
"1956-08-15 16:00","1956","08","15","16:00","23.3","","13.9","","56","","18","","11","","25.0","","99.47","","27","","","","Mainly Clear"
"1956-08-15 17:00","1956","08","15","17:00","23.3","","13.3","","54","","18","","16","","25.0","","99.40","","26","","","","Mainly Clear"
"1956-08-15 18:00","1956","08","15","18:00","21.7","","13.3","","59","","20","","24","","25.0","","99.39","","25","","","","Mainly Clear"
"1956-08-15 19:00","1956","08","15","19:00","20.6","","13.9","","66","","16","","13","","25.0","","99.39","","","","","","Mainly Clear"
"1956-08-15 20:00","1956","08","15","20:00","18.9","","13.3","","70","","18","","11","","25.0","","99.40","","","","","","Mainly Clear"
"1956-08-15 21:00","1956","08","15","21:00","18.9","","13.3","","70","","18","","10","","25.0","","99.40","","","","","","Mainly Clear"
"1956-08-15 22:00","1956","08","15","22:00","16.1","","13.3","","84","","23","","8","","25.0","","99.40","","","","","","Mainly Clear"
"1956-08-15 23:00","1956","08","15","23:00","16.1","","13.9","","87","","25","","5","","25.0","","99.34","","","","","","Mainly Clear"
"1956-08-16 00:00","1956","08","16","00:00","15.6","","12.8","","84","","32","","6","","25.0","","99.32","","","","","","Mainly Clear"
"1956-08-16 01:00","1956","08","16","01:00","16.1","","13.9","","87","","34","","6","","25.0","","99.27","","","","","","Mostly Cloudy"
"1956-08-16 02:00","1956","08","16","02:00","16.1","","14.4","","90","","29","","6","","25.0","","99.26","","","","","","Mainly Clear"
"1956-08-16 03:00","1956","08","16","03:00","16.1","","13.9","","87","","23","","5","","25.0","","99.24","","","","","","Clear"
"1956-08-16 04:00","1956","08","16","04:00","16.7","","13.9","","84","","23","","6","","25.0","","99.23","","","","","","Mostly Cloudy"
"1956-08-16 05:00","1956","08","16","05:00","16.7","","14.4","","87","","","","0","","19.3","","99.24","","","","","","Mostly Cloudy"
"1956-08-16 06:00","1956","08","16","06:00","17.2","","14.4","","84","","20","","5","","9.7","","99.24","","","","","","Haze"
"1956-08-16 07:00","1956","08","16","07:00","18.9","","16.7","","87","","29","","5","","6.4","","99.26","","","","","","Haze"
"1956-08-16 08:00","1956","08","16","08:00","20.6","","18.9","","87","","27","","18","","6.4","","99.24","","27","","","","Haze"
"1956-08-16 09:00","1956","08","16","09:00","21.7","","17.8","","79","","25","","24","","6.4","","99.31","","28","","","","Haze"
"1956-08-16 10:00","1956","08","16","10:00","23.3","","18.9","","76","","25","","16","","6.4","","99.34","","30","","","","Haze"
"1956-08-16 11:00","1956","08","16","11:00","25.0","","18.9","","69","","29","","14","","8.0","","99.34","","32","","","","Haze"
"1956-08-16 12:00","1956","08","16","12:00","25.6","","18.3","","64","","20","","18","","12.9","","99.27","","32","","","","Mostly Cloudy"
"1956-08-16 13:00","1956","08","16","13:00","27.2","","17.8","","56","","25","","19","","19.3","","99.20","","33","","","","Mostly Cloudy"
"1956-08-16 14:00","1956","08","16","14:00","28.9","","16.7","","48","","23","","19","","19.3","","99.16","","34","","","","Mostly Cloudy"
"1956-08-16 15:00","1956","08","16","15:00","28.9","","17.2","","50","","27","","19","","24.1","","99.14","","34","","","","Mostly Cloudy"
"1956-08-16 16:00","1956","08","16","16:00","29.4","","17.8","","50","","25","","16","","24.1","","99.11","","35","","","","Mostly Cloudy"
"1956-08-16 17:00","1956","08","16","17:00","29.4","","17.8","","50","","23","","16","","24.1","","99.10","","35","","","","Mostly Cloudy"
"1956-08-16 18:00","1956","08","16","18:00","27.8","","18.9","","59","","23","","14","","19.3","","99.21","","34","","","","Cloudy"
"1956-08-16 19:00","1956","08","16","19:00","21.1","","15.6","","71","","25","","40","","16.1","","99.27","","25","","","","Rain Showers"
"1956-08-16 20:00","1956","08","16","20:00","20.6","","15.0","","71","","29","","24","","24.1","","99.40","","25","","","","Rain Showers"
"1956-08-16 21:00","1956","08","16","21:00","20.6","","15.0","","71","","32","","19","","25.0","","99.34","","25","","","","Mostly Cloudy"
"1956-08-16 22:00","1956","08","16","22:00","21.1","","13.9","","63","","27","","27","","25.0","","99.38","","","","","","Cloudy"
"1956-08-16 23:00","1956","08","16","23:00","20.0","","15.6","","76","","27","","16","","25.0","","99.30","","","","","","Cloudy"
"1956-08-17 00:00","1956","08","17","00:00","19.4","","16.1","","81","","36","","11","","24.1","","99.28","","","","","","Rain Showers"
"1956-08-17 01:00","1956","08","17","01:00","19.4","","16.1","","81","","36","","5","","24.1","","99.31","","","","","","Mostly Cloudy"
"1956-08-17 02:00","1956","08","17","02:00","19.4","","16.1","","81","","18","","5","","24.1","","99.31","","","","","","Cloudy"
"1956-08-17 03:00","1956","08","17","03:00","20.0","","15.6","","76","","18","","6","","24.1","","99.31","","","","","","Mostly Cloudy"
"1956-08-17 04:00","1956","08","17","04:00","18.3","","16.1","","87","","18","","5","","24.1","","99.35","","","","","","Mainly Clear"
"1956-08-17 05:00","1956","08","17","05:00","18.3","","16.1","","87","","","","0","","25.0","","99.38","","","","","","Mainly Clear"
"1956-08-17 06:00","1956","08","17","06:00","18.9","","16.1","","84","","11","","11","","12.9","","99.40","","","","","","Mostly Cloudy"
"1956-08-17 07:00","1956","08","17","07:00","20.0","","16.7","","81","","16","","5","","11.3","","99.42","","25","","","","Mostly Cloudy"
"1956-08-17 08:00","1956","08","17","08:00","21.1","","16.1","","73","","18","","6","","12.9","","99.48","","26","","","","Mostly Cloudy"
"1956-08-17 09:00","1956","08","17","09:00","23.3","","14.4","","58","","18","","10","","16.1","","99.48","","27","","","","Mostly Cloudy"
"1956-08-17 10:00","1956","08","17","10:00","25.0","","16.7","","60","","25","","10","","16.1","","99.36","","30","","","","Mostly Cloudy"
"1956-08-17 11:00","1956","08","17","11:00","27.2","","16.7","","53","","18","","10","","16.1","","99.41","","32","","","","Mainly Clear"
"1956-08-17 12:00","1956","08","17","12:00","27.8","","17.2","","53","","25","","13","","16.1","","99.36","","33","","","","Mostly Cloudy"
"1956-08-17 13:00","1956","08","17","13:00","26.1","","17.2","","58","","16","","23","","11.3","","99.34","","32","","","","Mostly Cloudy"
"1956-08-17 14:00","1956","08","17","14:00","27.8","","18.3","","57","","18","","19","","11.3","","99.27","","34","","","","Mainly Clear"
"1956-08-17 15:00","1956","08","17","15:00","28.9","","18.3","","55","","18","","13","","11.3","","99.22","","35","","","","Mostly Cloudy"
"1956-08-17 16:00","1956","08","17","16:00","27.8","","18.9","","59","","18","","13","","12.9","","99.23","","34","","","","Mostly Cloudy"
"1956-08-17 17:00","1956","08","17","17:00","28.3","","18.9","","57","","18","","13","","16.1","","99.21","","35","","","","Mainly Clear"
"1956-08-17 18:00","1956","08","17","18:00","28.9","","18.3","","53","","18","","11","","16.1","","99.27","","35","","","","Mostly Cloudy"
"1956-08-17 19:00","1956","08","17","19:00","25.6","","19.4","","69","","20","","11","","16.1","","99.25","","33","","","","Mostly Cloudy"
"1956-08-17 20:00","1956","08","17","20:00","24.4","","18.9","","71","","23","","11","","16.1","","99.27","","31","","","","Mainly Clear"
"1956-08-17 21:00","1956","08","17","21:00","23.3","","18.9","","76","","23","","10","","16.1","","99.30","","30","","","","Clear"
"1956-08-17 22:00","1956","08","17","22:00","22.8","","17.8","","76","","27","","8","","16.1","","99.30","","29","","","","Mainly Clear"
"1956-08-17 23:00","1956","08","17","23:00","21.1","","18.3","","84","","27","","8","","24.1","","99.33","","27","","","","Mostly Cloudy"
"1956-08-18 00:00","1956","08","18","00:00","20.6","","17.8","","84","","27","","8","","19.3","","99.31","","26","","","","Mostly Cloudy"
"1956-08-18 01:00","1956","08","18","01:00","19.4","","17.8","","90","","27","","10","","19.3","","99.28","","","","","","Mostly Cloudy"
"1956-08-18 02:00","1956","08","18","02:00","19.4","","17.8","","90","","","","0","","16.1","","99.26","","","","","","Mostly Cloudy"
"1956-08-18 03:00","1956","08","18","03:00","19.4","","17.8","","90","","27","","3","","12.9","","99.22","","","","","","Mainly Clear"
"1956-08-18 04:00","1956","08","18","04:00","18.3","","16.7","","90","","27","","6","","6.4","","99.18","","","","","","Fog"
"1956-08-18 05:00","1956","08","18","05:00","18.3","","17.2","","93","","27","","5","","4.0","","99.18","","","","","","Fog"
"1956-08-18 06:00","1956","08","18","06:00","18.9","","17.8","","93","","2","","6","","4.0","","99.11","","","","","","Fog"
"1956-08-18 07:00","1956","08","18","07:00","18.9","","17.8","","93","","36","","3","","4.0","","99.10","","","","","","Fog"
"1956-08-18 08:00","1956","08","18","08:00","19.4","","18.9","","97","","18","","10","","2.4","","99.06","","","","","","Fog"
"1956-08-18 09:00","1956","08","18","09:00","22.8","","18.9","","79","","16","","14","","1.6","","99.02","","29","","","","Rain Showers,Fog"
"1956-08-18 10:00","1956","08","18","10:00","23.3","","21.1","","88","","14","","19","","1.6","","99.04","","32","","","","Rain Showers,Fog"
"1956-08-18 11:00","1956","08","18","11:00","22.8","","21.7","","94","","16","","13","","2.0","","98.98","","32","","","","Rain Showers,Fog"
"1956-08-18 12:00","1956","08","18","12:00","22.8","","21.7","","94","","20","","13","","2.4","","98.94","","32","","","","Fog"
"1956-08-18 13:00","1956","08","18","13:00","22.2","","21.7","","97","","14","","18","","1.6","","98.90","","31","","","","Rain Showers,Fog"
"1956-08-18 14:00","1956","08","18","14:00","23.3","","21.7","","91","","14","","18","","2.4","","98.83","","32","","","","Fog"
"1956-08-18 15:00","1956","08","18","15:00","23.9","","21.7","","88","","14","","16","","3.2","","98.78","","33","","","","Fog"
"1956-08-18 16:00","1956","08","18","16:00","23.9","","22.2","","91","","11","","14","","3.2","","98.74","","33","","","","Fog"
"1956-08-18 17:00","1956","08","18","17:00","19.4","","19.4","","100","","5","","23","","3.2","","98.80","","","","","","Thunderstorms,Rain Showers,Fog"
"1956-08-18 18:00","1956","08","18","18:00","20.0","","19.4","","97","","36","","19","","4.8","","98.75","","27","","","","Fog"
"1956-08-18 19:00","1956","08","18","19:00","19.4","","18.9","","97","","2","","21","","4.8","","98.69","","","","","","Fog"
"1956-08-18 20:00","1956","08","18","20:00","20.0","","19.4","","97","","23","","13","","4.8","","98.73","","27","","","","Fog"
"1956-08-18 21:00","1956","08","18","21:00","20.0","","19.4","","97","","29","","14","","4.8","","98.66","","27","","","","Fog"
"1956-08-18 22:00","1956","08","18","22:00","20.0","","19.4","","97","","32","","14","","6.4","","98.70","","27","","","","Fog"
"1956-08-18 23:00","1956","08","18","23:00","20.0","","18.9","","93","","32","","14","","6.4","","98.67","","27","","","","Fog"
"1956-08-19 00:00","1956","08","19","00:00","20.0","","18.9","","93","","34","","13","","6.4","","98.72","","27","","","","Fog"
"1956-08-19 01:00","1956","08","19","01:00","20.0","","18.9","","93","","34","","19","","6.4","","98.72","","27","","","","Fog"
"1956-08-19 02:00","1956","08","19","02:00","19.4","","17.8","","90","","34","","26","","12.9","","98.77","","","","","","Cloudy"
"1956-08-19 03:00","1956","08","19","03:00","18.9","","16.7","","87","","34","","24","","16.1","","98.80","","","","","","Cloudy"
"1956-08-19 04:00","1956","08","19","04:00","17.8","","15.6","","87","","34","","23","","19.3","","98.86","","","","","","Rain Showers"
"1956-08-19 05:00","1956","08","19","05:00","16.7","","13.9","","84","","32","","23","","25.0","","98.91","","","","","","Rain Showers"
"1956-08-19 06:00","1956","08","19","06:00","16.1","","12.2","","78","","34","","26","","25.0","","99.02","","","","","","Mostly Cloudy"
"1956-08-19 07:00","1956","08","19","07:00","16.1","","12.2","","78","","34","","24","","25.0","","99.12","","","","","","Mostly Cloudy"
"1956-08-19 08:00","1956","08","19","08:00","17.2","","13.3","","78","","36","","16","","25.0","","99.23","","","","","","Mostly Cloudy"
"1956-08-19 09:00","1956","08","19","09:00","18.9","","11.7","","63","","2","","16","","25.0","","99.28","","","","","","Mainly Clear"
"1956-08-19 10:00","1956","08","19","10:00","20.6","","11.1","","55","","36","","16","","25.0","","99.34","","","","","","Mainly Clear"
"1956-08-19 11:00","1956","08","19","11:00","22.2","","10.0","","46","","36","","19","","25.0","","99.36","","","","","","Mainly Clear"
"1956-08-19 12:00","1956","08","19","12:00","23.3","","11.1","","46","","36","","19","","25.0","","99.35","","25","","","","Mainly Clear"
"1956-08-19 13:00","1956","08","19","13:00","21.1","","10.6","","51","","36","","19","","25.0","","99.35","","","","","","Mostly Cloudy"
"1956-08-19 14:00","1956","08","19","14:00","21.1","","9.4","","47","","29","","13","","25.0","","99.35","","","","","","Mostly Cloudy"
"1956-08-19 15:00","1956","08","19","15:00","22.2","","11.1","","49","","34","","13","","25.0","","99.35","","","","","","Mostly Cloudy"
"1956-08-19 16:00","1956","08","19","16:00","20.6","","10.6","","53","","36","","26","","25.0","","99.37","","","","","","Mostly Cloudy"
"1956-08-19 17:00","1956","08","19","17:00","18.3","","11.1","","63","","36","","24","","25.0","","99.42","","","","","","Mostly Cloudy"
"1956-08-19 18:00","1956","08","19","18:00","17.8","","8.3","","54","","36","","24","","25.0","","99.46","","","","","","Mostly Cloudy"
"1956-08-19 19:00","1956","08","19","19:00","16.7","","8.9","","60","","36","","18","","25.0","","99.47","","","","","","Mainly Clear"
"1956-08-19 20:00","1956","08","19","20:00","15.6","","9.4","","67","","34","","11","","25.0","","99.52","","","","","","Mainly Clear"
"1956-08-19 21:00","1956","08","19","21:00","13.3","","9.4","","77","","29","","14","","25.0","","99.56","","","","","","Mostly Cloudy"
"1956-08-19 22:00","1956","08","19","22:00","13.9","","7.8","","67","","32","","16","","25.0","","99.59","","","","","","Mostly Cloudy"
"1956-08-19 23:00","1956","08","19","23:00","12.8","","7.2","","71","","27","","14","","25.0","","99.65","","","","","","Mainly Clear"
"1956-08-20 00:00","1956","08","20","00:00","12.2","","7.2","","71","","29","","16","","25.0","","99.69","","","","","","Mainly Clear"
"1956-08-20 01:00","1956","08","20","01:00","11.1","","7.2","","77","","27","","16","","25.0","","99.71","","","","","","Mainly Clear"
"1956-08-20 02:00","1956","08","20","02:00","10.6","","7.2","","80","","27","","14","","25.0","","99.71","","","","","","Mainly Clear"
"1956-08-20 03:00","1956","08","20","03:00","10.6","","7.2","","80","","27","","16","","25.0","","99.68","","","","","","Mainly Clear"
"1956-08-20 04:00","1956","08","20","04:00","10.6","","6.7","","77","","29","","13","","25.0","","99.72","","","","","","Clear"
"1956-08-20 05:00","1956","08","20","05:00","10.0","","6.7","","80","","27","","10","","25.0","","99.74","","","","","","Mainly Clear"
"1956-08-20 06:00","1956","08","20","06:00","10.0","","6.7","","80","","27","","10","","25.0","","99.78","","","","","","Mainly Clear"
"1956-08-20 07:00","1956","08","20","07:00","12.2","","7.2","","71","","29","","18","","25.0","","99.77","","","","","","Mainly Clear"
"1956-08-20 08:00","1956","08","20","08:00","15.0","","6.7","","57","","32","","16","","25.0","","99.79","","","","","","Mainly Clear"
"1956-08-20 09:00","1956","08","20","09:00","16.1","","7.2","","56","","32","","23","","25.0","","99.78","","","","","","Mainly Clear"
"1956-08-20 10:00","1956","08","20","10:00","16.7","","5.6","","48","","32","","19","","25.0","","99.78","","","","","","Mostly Cloudy"
"1956-08-20 11:00","1956","08","20","11:00","18.3","","8.3","","52","","32","","26","","25.0","","99.75","","","","","","Mostly Cloudy"
"1956-08-20 12:00","1956","08","20","12:00","18.9","","7.8","","48","","27","","16","","25.0","","99.69","","","","","","Mostly Cloudy"
"1956-08-20 13:00","1956","08","20","13:00","20.0","","6.7","","42","","32","","14","","25.0","","99.66","","","","","","Mostly Cloudy"
"1956-08-20 14:00","1956","08","20","14:00","20.0","","7.2","","44","","32","","16","","25.0","","99.59","","","","","","Mostly Cloudy"
"1956-08-20 15:00","1956","08","20","15:00","20.0","","7.2","","44","","29","","24","","25.0","","99.56","","","","","","Mostly Cloudy"
"1956-08-20 16:00","1956","08","20","16:00","19.4","","7.8","","47","","34","","24","","25.0","","99.54","","","","","","Mainly Clear"
"1956-08-20 17:00","1956","08","20","17:00","18.9","","7.2","","47","","36","","23","","25.0","","99.51","","","","","","Mainly Clear"
"1956-08-20 18:00","1956","08","20","18:00","17.8","","6.1","","46","","36","","24","","25.0","","99.55","","","","","","Mainly Clear"
"1956-08-20 19:00","1956","08","20","19:00","16.1","","4.4","","46","","36","","23","","25.0","","99.57","","","","","","Mostly Cloudy"
"1956-08-20 20:00","1956","08","20","20:00","13.9","","5.0","","55","","34","","16","","25.0","","99.58","","","","","","Mostly Cloudy"
"1956-08-20 21:00","1956","08","20","21:00","12.8","","5.6","","61","","34","","14","","25.0","","99.60","","","","","","Mostly Cloudy"
"1956-08-20 22:00","1956","08","20","22:00","12.2","","6.7","","69","","36","","16","","25.0","","99.58","","","","","","Mostly Cloudy"
"1956-08-20 23:00","1956","08","20","23:00","12.2","","6.1","","66","","32","","13","","25.0","","99.60","","","","","","Mostly Cloudy"
"1956-08-21 00:00","1956","08","21","00:00","12.2","","6.1","","66","","34","","16","","25.0","","99.59","","","","","","Mostly Cloudy"
"1956-08-21 01:00","1956","08","21","01:00","11.1","","7.2","","77","","34","","18","","24.1","","99.54","","","","","","Mostly Cloudy"
"1956-08-21 02:00","1956","08","21","02:00","10.0","","7.2","","83","","32","","14","","25.0","","99.63","","","","","","Mostly Cloudy"
"1956-08-21 03:00","1956","08","21","03:00","10.6","","7.2","","80","","32","","13","","25.0","","99.49","","","","","","Mainly Clear"
"1956-08-21 04:00","1956","08","21","04:00","10.0","","6.7","","80","","29","","11","","25.0","","99.49","","","","","","Mainly Clear"
"1956-08-21 05:00","1956","08","21","05:00","9.4","","7.2","","86","","32","","11","","25.0","","99.50","","","","","","Mainly Clear"
"1956-08-21 06:00","1956","08","21","06:00","10.0","","7.8","","86","","34","","10","","25.0","","99.51","","","","","","Mainly Clear"
"1956-08-21 07:00","1956","08","21","07:00","12.8","","8.3","","74","","34","","16","","25.0","","99.58","","","","","","Mainly Clear"
"1956-08-21 08:00","1956","08","21","08:00","16.1","","9.4","","65","","32","","16","","25.0","","99.54","","","","","","Mainly Clear"
"1956-08-21 09:00","1956","08","21","09:00","17.2","","6.7","","50","","32","","18","","25.0","","99.55","","","","","","Mainly Clear"
"1956-08-21 10:00","1956","08","21","10:00","18.3","","8.3","","52","","34","","26","","25.0","","99.53","","","","","","Mostly Cloudy"
"1956-08-21 11:00","1956","08","21","11:00","19.4","","7.2","","45","","36","","18","","25.0","","99.51","","","","","","Mostly Cloudy"
"1956-08-21 12:00","1956","08","21","12:00","19.4","","6.1","","42","","32","","26","","25.0","","99.47","","","","","","Mostly Cloudy"
"1956-08-21 13:00","1956","08","21","13:00","19.4","","10.0","","54","","27","","14","","25.0","","99.47","","","","","","Mostly Cloudy"
"1956-08-21 14:00","1956","08","21","14:00","18.9","","7.8","","48","","29","","19","","25.0","","99.44","","","","","","Mostly Cloudy"
"1956-08-21 15:00","1956","08","21","15:00","18.9","","6.7","","45","","29","","19","","25.0","","99.46","","","","","","Mostly Cloudy"
"1956-08-21 16:00","1956","08","21","16:00","19.4","","7.8","","47","","25","","6","","25.0","","99.44","","","","","","Mainly Clear"
"1956-08-21 17:00","1956","08","21","17:00","20.0","","7.2","","44","","27","","16","","25.0","","99.43","","","","","","Mainly Clear"
"1956-08-21 18:00","1956","08","21","18:00","18.9","","5.6","","42","","27","","16","","25.0","","99.42","","","","","","Mainly Clear"
"1956-08-21 19:00","1956","08","21","19:00","16.7","","10.0","","65","","23","","11","","25.0","","99.46","","","","","","Mainly Clear"
"1956-08-21 20:00","1956","08","21","20:00","14.4","","10.0","","75","","25","","6","","25.0","","99.51","","","","","","Clear"
"1956-08-21 21:00","1956","08","21","21:00","13.9","","9.4","","75","","25","","8","","25.0","","99.52","","","","","","Clear"
"1956-08-21 22:00","1956","08","21","22:00","12.2","","9.4","","83","","27","","3","","25.0","","99.52","","","","","","Clear"
"1956-08-21 23:00","1956","08","21","23:00","12.8","","10.0","","83","","32","","5","","25.0","","99.49","","","","","","Clear"
"1956-08-22 00:00","1956","08","22","00:00","11.1","","8.9","","86","","25","","5","","25.0","","99.47","","","","","","Clear"
"1956-08-22 01:00","1956","08","22","01:00","10.6","","9.4","","93","","25","","3","","25.0","","99.42","","","","","","Clear"
"1956-08-22 02:00","1956","08","22","02:00","10.0","","8.3","","89","","","","0","","25.0","","99.44","","","","","","Mainly Clear"
"1956-08-22 03:00","1956","08","22","03:00","10.0","","9.4","","96","","","","0","","25.0","","99.41","","","","","","Mainly Clear"
"1956-08-22 04:00","1956","08","22","04:00","11.7","","9.4","","86","","","","0","","25.0","","99.38","","","","","","Mostly Cloudy"
"1956-08-22 05:00","1956","08","22","05:00","10.6","","9.4","","93","","","","0","","25.0","","99.36","","","","","","Mainly Clear"
"1956-08-22 06:00","1956","08","22","06:00","12.2","","8.3","","77","","16","","5","","25.0","","99.38","","","","","","Mainly Clear"
"1956-08-22 07:00","1956","08","22","07:00","12.2","","9.4","","83","","","","0","","25.0","","99.37","","","","","","Mostly Cloudy"
"1956-08-22 08:00","1956","08","22","08:00","17.2","","11.7","","70","","20","","10","","25.0","","99.32","","","","","","Mostly Cloudy"
"1956-08-22 09:00","1956","08","22","09:00","18.3","","10.6","","61","","18","","26","","24.1","","99.26","","","","","","Mostly Cloudy"
"1956-08-22 10:00","1956","08","22","10:00","20.6","","10.6","","53","","18","","23","","24.1","","99.24","","","","","","Cloudy"
"1956-08-22 11:00","1956","08","22","11:00","21.1","","11.7","","55","","23","","35","","24.1","","99.18","","","","","","Cloudy"
"1956-08-22 12:00","1956","08","22","12:00","22.2","","12.8","","55","","23","","35","","24.1","","99.16","","25","","","","Mostly Cloudy"
"1956-08-22 13:00","1956","08","22","13:00","23.3","","13.3","","54","","23","","32","","24.1","","99.11","","26","","","","Mostly Cloudy"
"1956-08-22 14:00","1956","08","22","14:00","22.8","","11.7","","50","","23","","32","","24.1","","99.02","","25","","","","Mostly Cloudy"
"1956-08-22 15:00","1956","08","22","15:00","18.3","","13.9","","75","","25","","26","","12.9","","99.08","","","","","","Heavy Rain Showers"
"1956-08-22 16:00","1956","08","22","16:00","18.9","","12.8","","66","","23","","13","","24.1","","99.02","","","","","","Mostly Cloudy"
"1956-08-22 17:00","1956","08","22","17:00","18.3","","13.3","","73","","20","","11","","24.1","","99.03","","","","","","Cloudy"
"1956-08-22 18:00","1956","08","22","18:00","20.6","","12.8","","61","","20","","19","","24.1","","99.01","","","","","","Mostly Cloudy"
"1956-08-22 19:00","1956","08","22","19:00","18.9","","13.3","","70","","20","","13","","24.1","","99.01","","","","","","Mostly Cloudy"
"1956-08-22 20:00","1956","08","22","20:00","18.3","","11.7","","65","","20","","16","","24.1","","99.08","","","","","","Cloudy"
"1956-08-22 21:00","1956","08","22","21:00","17.8","","12.2","","70","","20","","16","","24.1","","99.09","","","","","","Cloudy"
"1956-08-22 22:00","1956","08","22","22:00","17.2","","13.3","","78","","23","","24","","24.1","","99.09","","","","","","Rain Showers"
"1956-08-22 23:00","1956","08","22","23:00","16.7","","13.9","","84","","20","","16","","16.1","","99.08","","","","","","Rain Showers"
"1956-08-23 00:00","1956","08","23","00:00","16.7","","13.9","","84","","20","","19","","24.1","","98.98","","","","","","Mostly Cloudy"
"1956-08-23 01:00","1956","08","23","01:00","16.7","","13.9","","84","","20","","23","","24.1","","98.90","","","","","","Cloudy"
"1956-08-23 02:00","1956","08","23","02:00","17.2","","13.3","","78","","20","","23","","25.0","","98.79","","","","","","Cloudy"
"1956-08-23 03:00","1956","08","23","03:00","18.3","","13.3","","73","","20","","24","","25.0","","98.74","","","","","","Cloudy"
"1956-08-23 04:00","1956","08","23","04:00","18.3","","13.3","","73","","20","","24","","25.0","","98.73","","","","","","Cloudy"
"1956-08-23 05:00","1956","08","23","05:00","17.8","","13.3","","78","","20","","24","","19.3","","98.62","","","","","","Cloudy"
"1956-08-23 06:00","1956","08","23","06:00","18.3","","14.4","","78","","20","","23","","16.1","","98.70","","","","","","Mostly Cloudy"
"1956-08-23 07:00","1956","08","23","07:00","18.9","","15.0","","78","","20","","23","","16.1","","98.71","","","","","","Cloudy"
"1956-08-23 08:00","1956","08","23","08:00","18.9","","15.0","","78","","20","","19","","16.1","","98.67","","","","","","Cloudy"
"1956-08-23 09:00","1956","08","23","09:00","17.8","","15.6","","87","","23","","24","","12.9","","98.69","","","","","","Moderate Rain Showers"
"1956-08-23 10:00","1956","08","23","10:00","17.8","","16.1","","90","","23","","19","","9.7","","98.67","","","","","","Rain Showers,Fog"
"1956-08-23 11:00","1956","08","23","11:00","17.2","","15.6","","90","","23","","23","","6.4","","98.62","","","","","","Moderate Rain Showers,Fog"
"1956-08-23 12:00","1956","08","23","12:00","17.8","","16.1","","90","","18","","23","","11.3","","98.53","","","","","","Cloudy"
"1956-08-23 13:00","1956","08","23","13:00","16.7","","15.6","","93","","16","","23","","11.3","","98.49","","","","","","Rain Showers"
"1956-08-23 14:00","1956","08","23","14:00","16.1","","15.0","","93","","14","","8","","2.4","","98.32","","","","","","Fog"
"1956-08-23 15:00","1956","08","23","15:00","15.6","","15.6","","100","","14","","16","","1.6","","98.24","","","","","","Heavy Thunderstorms,Heavy Rain Showers,Fog"
"1956-08-23 16:00","1956","08","23","16:00","16.1","","15.6","","97","","14","","16","","1.6","","98.15","","","","","","Thunderstorms,Moderate Rain Showers,Fog"
"1956-08-23 17:00","1956","08","23","17:00","16.7","","15.6","","93","","36","","11","","2.4","","98.10","","","","","","Rain Showers,Fog"
"1956-08-23 18:00","1956","08","23","18:00","16.7","","16.1","","97","","23","","16","","1.6","","98.03","","","","","","Thunderstorms,Heavy Rain Showers,Fog"
"1956-08-23 19:00","1956","08","23","19:00","16.7","","15.6","","97","","27","","23","","16.1","","97.98","","","","","","Mostly Cloudy"
"1956-08-23 20:00","1956","08","23","20:00","16.1","","13.9","","87","","27","","18","","24.1","","98.21","","","","","","Mostly Cloudy"
"1956-08-23 21:00","1956","08","23","21:00","15.6","","13.9","","90","","27","","18","","24.1","","98.23","","","","","","Mostly Cloudy"
"1956-08-23 22:00","1956","08","23","22:00","15.0","","12.2","","84","","34","","32","","25.0","","98.32","","","","","","Mostly Cloudy"
"1956-08-23 23:00","1956","08","23","23:00","13.9","","10.0","","77","","32","","32","","25.0","","98.44","","","","","","Mostly Cloudy"
"1956-08-24 00:00","1956","08","24","00:00","13.3","","9.4","","77","","29","","23","","25.0","","98.57","","","","","","Mainly Clear"
"1956-08-24 01:00","1956","08","24","01:00","12.8","","9.4","","80","","27","","19","","25.0","","98.63","","","","","","Mainly Clear"
"1956-08-24 02:00","1956","08","24","02:00","12.2","","9.4","","83","","27","","26","","25.0","","98.72","","","","","","Cloudy"
"1956-08-24 03:00","1956","08","24","03:00","12.2","","8.9","","80","","25","","14","","25.0","","98.83","","","","","","Mainly Clear"
"1956-08-24 04:00","1956","08","24","04:00","11.1","","8.9","","86","","27","","13","","25.0","","98.90","","","","","","Clear"
"1956-08-24 05:00","1956","08","24","05:00","10.6","","8.9","","89","","27","","16","","25.0","","99.01","","","","","","Mainly Clear"
"1956-08-24 06:00","1956","08","24","06:00","11.1","","9.4","","90","","27","","13","","24.1","","99.11","","","","","","Mainly Clear"
"1956-08-24 07:00","1956","08","24","07:00","13.3","","10.6","","83","","29","","19","","24.1","","99.15","","","","","","Mainly Clear"
"1956-08-24 08:00","1956","08","24","08:00","15.6","","9.4","","67","","32","","23","","25.0","","99.25","","","","","","Mainly Clear"
"1956-08-24 09:00","1956","08","24","09:00","17.2","","7.8","","54","","32","","32","","25.0","","99.31","","","","","","Mainly Clear"
"1956-08-24 10:00","1956","08","24","10:00","18.3","","7.2","","48","","32","","29","","25.0","","99.40","","","","","","Mainly Clear"
"1956-08-24 11:00","1956","08","24","11:00","18.9","","7.8","","48","","32","","29","","25.0","","99.46","","","","","","Mostly Cloudy"
"1956-08-24 12:00","1956","08","24","12:00","18.9","","11.1","","61","","32","","29","","25.0","","99.50","","","","","","Mostly Cloudy"
"1956-08-24 13:00","1956","08","24","13:00","19.4","","8.9","","50","","32","","29","","25.0","","99.55","","","","","","Mostly Cloudy"
"1956-08-24 14:00","1956","08","24","14:00","20.0","","7.2","","44","","32","","26","","25.0","","99.57","","","","","","Mostly Cloudy"
"1956-08-24 15:00","1956","08","24","15:00","20.0","","7.2","","44","","32","","21","","25.0","","99.57","","","","","","Mostly Cloudy"
"1956-08-24 16:00","1956","08","24","16:00","20.6","","6.7","","41","","32","","19","","25.0","","99.61","","","","","","Mostly Cloudy"
"1956-08-24 17:00","1956","08","24","17:00","20.0","","8.3","","47","","32","","19","","25.0","","99.63","","","","","","Mostly Cloudy"
"1956-08-24 18:00","1956","08","24","18:00","18.9","","9.4","","54","","36","","11","","25.0","","99.68","","","","","","Mainly Clear"
"1956-08-24 19:00","1956","08","24","19:00","16.7","","11.1","","70","","36","","6","","25.0","","99.73","","","","","","Mainly Clear"
"1956-08-24 20:00","1956","08","24","20:00","15.0","","10.6","","75","","29","","8","","25.0","","99.81","","","","","","Mainly Clear"
"1956-08-24 21:00","1956","08","24","21:00","13.3","","8.9","","74","","29","","8","","25.0","","99.85","","","","","","Clear"
"1956-08-24 22:00","1956","08","24","22:00","12.2","","8.3","","77","","27","","8","","25.0","","99.89","","","","","","Clear"
"1956-08-24 23:00","1956","08","24","23:00","11.7","","7.8","","77","","27","","8","","25.0","","99.93","","","","","","Clear"
"1956-08-25 00:00","1956","08","25","00:00","10.6","","7.8","","83","","27","","8","","25.0","","99.96","","","","","","Clear"
"1956-08-25 01:00","1956","08","25","01:00","9.4","","7.2","","86","","27","","8","","25.0","","99.98","","","","","","Clear"
"1956-08-25 02:00","1956","08","25","02:00","9.4","","7.2","","86","","27","","5","","25.0","","99.99","","","","","","Clear"
"1956-08-25 03:00","1956","08","25","03:00","9.4","","7.2","","86","","27","","8","","25.0","","99.99","","","","","","Clear"
"1956-08-25 04:00","1956","08","25","04:00","8.9","","7.2","","89","","27","","8","","25.0","","100.00","","","","","","Clear"
"1956-08-25 05:00","1956","08","25","05:00","10.0","","7.2","","83","","27","","8","","25.0","","100.02","","","","","","Clear"
"1956-08-25 06:00","1956","08","25","06:00","9.4","","7.2","","86","","27","","8","","48.3","","100.04","","","","","","Clear"
"1956-08-25 07:00","1956","08","25","07:00","12.8","","8.9","","77","","27","","8","","48.3","","100.07","","","","","","Mainly Clear"
"1956-08-25 08:00","1956","08","25","08:00","16.7","","8.9","","60","","27","","16","","25.0","","100.12","","","","","","Mainly Clear"
"1956-08-25 09:00","1956","08","25","09:00","17.8","","10.6","","63","","27","","23","","25.0","","100.13","","","","","","Mainly Clear"
"1956-08-25 10:00","1956","08","25","10:00","19.4","","11.1","","59","","29","","19","","25.0","","100.15","","","","","","Mostly Cloudy"
"1956-08-25 11:00","1956","08","25","11:00","20.0","","11.1","","57","","27","","24","","25.0","","100.09","","","","","","Mostly Cloudy"
"1956-08-25 12:00","1956","08","25","12:00","21.1","","11.7","","55","","27","","26","","25.0","","100.00","","","","","","Mostly Cloudy"
"1956-08-25 13:00","1956","08","25","13:00","21.7","","10.0","","48","","27","","24","","25.0","","99.98","","","","","","Mostly Cloudy"
"1956-08-25 14:00","1956","08","25","14:00","21.7","","10.0","","48","","27","","24","","25.0","","99.90","","","","","","Mostly Cloudy"
"1956-08-25 15:00","1956","08","25","15:00","22.2","","10.0","","46","","25","","24","","25.0","","99.85","","","","","","Mostly Cloudy"
"1956-08-25 16:00","1956","08","25","16:00","21.7","","9.4","","46","","25","","26","","25.0","","99.79","","","","","","Mostly Cloudy"
"1956-08-25 17:00","1956","08","25","17:00","21.7","","9.4","","46","","25","","27","","25.0","","99.77","","","","","","Mainly Clear"
"1956-08-25 18:00","1956","08","25","18:00","20.0","","9.4","","51","","27","","23","","25.0","","99.76","","","","","","Mainly Clear"
"1956-08-25 19:00","1956","08","25","19:00","18.3","","10.0","","58","","27","","13","","25.0","","99.75","","","","","","Mainly Clear"
"1956-08-25 20:00","1956","08","25","20:00","16.7","","8.9","","60","","23","","6","","25.0","","99.75","","","","","","Clear"
"1956-08-25 21:00","1956","08","25","21:00","15.6","","8.9","","65","","23","","5","","25.0","","99.76","","","","","","Clear"
"1956-08-25 22:00","1956","08","25","22:00","15.0","","7.8","","62","","25","","6","","25.0","","99.76","","","","","","Clear"
"1956-08-25 23:00","1956","08","25","23:00","13.3","","8.9","","74","","25","","13","","25.0","","99.72","","","","","","Mainly Clear"
"1956-08-26 00:00","1956","08","26","00:00","12.8","","8.9","","77","","25","","14","","25.0","","99.70","","","","","","Mainly Clear"
"1956-08-26 01:00","1956","08","26","01:00","12.8","","8.9","","77","","25","","13","","25.0","","99.70","","","","","","Mainly Clear"
"1956-08-26 02:00","1956","08","26","02:00","12.8","","8.9","","77","","25","","14","","25.0","","99.64","","","","","","Mainly Clear"
"1956-08-26 03:00","1956","08","26","03:00","12.2","","8.9","","80","","25","","13","","25.0","","99.64","","","","","","Mainly Clear"
"1956-08-26 04:00","1956","08","26","04:00","11.7","","9.4","","86","","25","","13","","25.0","","99.64","","","","","","Mostly Cloudy"
"1956-08-26 05:00","1956","08","26","05:00","12.8","","10.0","","83","","27","","16","","25.0","","99.63","","","","","","Mainly Clear"
"1956-08-26 06:00","1956","08","26","06:00","13.3","","10.6","","83","","25","","16","","25.0","","99.64","","","","","","Mostly Cloudy"
"1956-08-26 07:00","1956","08","26","07:00","14.4","","11.1","","81","","27","","19","","25.0","","99.64","","","","","","Mostly Cloudy"
"1956-08-26 08:00","1956","08","26","08:00","16.7","","12.2","","75","","27","","16","","25.0","","99.62","","","","","","Mostly Cloudy"
"1956-08-26 09:00","1956","08","26","09:00","19.4","","13.3","","68","","27","","16","","25.0","","99.60","","","","","","Mostly Cloudy"
"1956-08-26 10:00","1956","08","26","10:00","20.0","","13.3","","66","","27","","29","","25.0","","99.63","","","","","","Mostly Cloudy"
"1956-08-26 11:00","1956","08","26","11:00","21.1","","12.8","","59","","27","","24","","25.0","","99.60","","","","","","Mostly Cloudy"
"1956-08-26 12:00","1956","08","26","12:00","22.8","","12.2","","51","","27","","16","","25.0","","99.53","","25","","","","Mainly Clear"
"1956-08-26 13:00","1956","08","26","13:00","23.9","","12.8","","50","","27","","19","","25.0","","99.49","","27","","","","Mostly Cloudy"
"1956-08-26 14:00","1956","08","26","14:00","23.9","","13.3","","52","","27","","27","","25.0","","99.47","","27","","","","Mostly Cloudy"
"1956-08-26 15:00","1956","08","26","15:00","23.9","","11.7","","46","","25","","18","","25.0","","99.51","","26","","","","Mostly Cloudy"
"1956-08-26 16:00","1956","08","26","16:00","23.3","","11.1","","46","","25","","18","","25.0","","99.37","","25","","","","Mostly Cloudy"
"1956-08-26 17:00","1956","08","26","17:00","22.2","","12.2","","53","","25","","11","","25.0","","99.33","","25","","","","Cloudy"
"1956-08-26 18:00","1956","08","26","18:00","20.6","","12.8","","61","","25","","10","","25.0","","99.34","","","","","","Mostly Cloudy"
"1956-08-26 19:00","1956","08","26","19:00","19.4","","12.2","","63","","25","","8","","25.0","","99.33","","","","","","Cloudy"
"1956-08-26 20:00","1956","08","26","20:00","17.2","","12.8","","75","","23","","11","","25.0","","99.41","","","","","","Mainly Clear"
"1956-08-26 21:00","1956","08","26","21:00","16.7","","12.2","","75","","23","","8","","25.0","","99.43","","","","","","Clear"
"1956-08-26 22:00","1956","08","26","22:00","16.1","","12.8","","81","","27","","6","","24.1","","99.43","","","","","","Mainly Clear"
"1956-08-26 23:00","1956","08","26","23:00","15.0","","12.8","","87","","27","","5","","24.1","","99.41","","","","","","Mainly Clear"
"1956-08-27 00:00","1956","08","27","00:00","15.0","","12.8","","87","","","","0","","24.1","","99.39","","","","","","Clear"
"1956-08-27 01:00","1956","08","27","01:00","14.4","","12.2","","87","","36","","5","","24.1","","99.36","","","","","","Clear"
"1956-08-27 02:00","1956","08","27","02:00","14.4","","12.2","","87","","","","0","","19.3","","99.34","","","","","","Clear"
"1956-08-27 03:00","1956","08","27","03:00","13.3","","12.8","","96","","","","0","","4.8","","99.29","","","","","","Fog"
"1956-08-27 04:00","1956","08","27","04:00","12.2","","11.7","","96","","","","0","","4.0","","99.29","","","","","","Fog"
"1956-08-27 05:00","1956","08","27","05:00","12.2","","11.7","","96","","36","","10","","2.4","","99.28","","","","","","Fog"
"1956-08-27 06:00","1956","08","27","06:00","14.4","","13.3","","93","","16","","10","","3.2","","99.20","","","","","","Fog"
"1956-08-27 07:00","1956","08","27","07:00","15.0","","13.3","","90","","18","","3","","3.2","","99.21","","","","","","Fog"
"1956-08-27 08:00","1956","08","27","08:00","17.2","","14.4","","84","","18","","10","","4.0","","99.18","","","","","","Fog"
"1956-08-27 09:00","1956","08","27","09:00","17.2","","14.4","","84","","18","","10","","4.8","","99.09","","","","","","Fog"
"1956-08-27 10:00","1956","08","27","10:00","17.8","","14.4","","81","","16","","13","","6.4","","99.00","","","","","","Fog"
"1956-08-27 11:00","1956","08","27","11:00","20.0","","16.7","","84","","23","","16","","9.7","","98.91","","25","","","","Fog"
"1956-08-27 12:00","1956","08","27","12:00","23.3","","17.2","","69","","23","","19","","12.9","","98.85","","29","","","","Mostly Cloudy"
"1956-08-27 13:00","1956","08","27","13:00","22.2","","17.8","","76","","18","","14","","8.0","","98.83","","28","","","","Haze"
"1956-08-27 14:00","1956","08","27","14:00","21.1","","17.8","","81","","18","","13","","8.0","","98.73","","27","","","","Haze"
"1956-08-27 15:00","1956","08","27","15:00","23.3","","17.8","","71","","23","","19","","12.9","","98.67","","29","","","","Cloudy"
"1956-08-27 16:00","1956","08","27","16:00","24.4","","18.3","","69","","23","","16","","16.1","","98.60","","31","","","","Cloudy"
"1956-08-27 17:00","1956","08","27","17:00","24.4","","18.3","","69","","23","","19","","12.9","","98.58","","31","","","","Mainly Clear"
"1956-08-27 18:00","1956","08","27","18:00","23.3","","18.9","","76","","23","","14","","12.9","","98.57","","30","","","","Mainly Clear"
"1956-08-27 19:00","1956","08","27","19:00","22.2","","19.4","","84","","23","","10","","8.0","","98.58","","29","","","","Haze"
"1956-08-27 20:00","1956","08","27","20:00","21.7","","18.9","","84","","18","","3","","9.7","","98.61","","28","","","","Haze"
"1956-08-27 21:00","1956","08","27","21:00","20.0","","18.3","","90","","27","","3","","9.7","","98.65","","26","","","","Haze"
"1956-08-27 22:00","1956","08","27","22:00","19.4","","18.3","","93","","27","","3","","6.4","","98.71","","","","","","Haze"
"1956-08-27 23:00","1956","08","27","23:00","20.0","","18.9","","93","","27","","10","","4.8","","98.74","","27","","","","Fog"
"1956-08-28 00:00","1956","08","28","00:00","18.9","","17.2","","90","","27","","11","","8.0","","98.77","","","","","","Fog"
"1956-08-28 01:00","1956","08","28","01:00","17.8","","16.7","","93","","23","","5","","4.8","","98.79","","","","","","Fog"
"1956-08-28 02:00","1956","08","28","02:00","17.2","","16.1","","93","","25","","6","","6.4","","98.83","","","","","","Fog"
"1956-08-28 03:00","1956","08","28","03:00","17.8","","16.7","","93","","27","","6","","6.4","","98.85","","","","","","Fog"
"1956-08-28 04:00","1956","08","28","04:00","18.3","","16.1","","87","","29","","8","","9.7","","98.90","","","","","","Haze"
"1956-08-28 05:00","1956","08","28","05:00","16.7","","15.6","","93","","27","","3","","4.8","","98.94","","","","","","Fog"
"1956-08-28 06:00","1956","08","28","06:00","17.2","","15.6","","90","","25","","2","","6.4","","99.02","","","","","","Fog,Smoke"
"1956-08-28 07:00","1956","08","28","07:00","18.3","","16.1","","87","","25","","3","","4.8","","99.01","","","","","","Smoke,Haze"
"1956-08-28 08:00","1956","08","28","08:00","21.7","","16.1","","71","","","","0","","12.9","","99.02","","26","","","","Mostly Cloudy"
"1956-08-28 09:00","1956","08","28","09:00","21.7","","16.1","","70","","18","","5","","12.9","","99.03","","26","","","","Mostly Cloudy"
"1956-08-28 10:00","1956","08","28","10:00","22.8","","16.1","","66","","18","","6","","11.3","","98.88","","27","","","","Mostly Cloudy"
"1956-08-28 11:00","1956","08","28","11:00","23.9","","15.6","","58","","18","","10","","11.3","","99.01","","28","","","","Mostly Cloudy"
"1956-08-28 12:00","1956","08","28","12:00","21.7","","15.6","","68","","32","","5","","8.0","","99.10","","26","","","","Rain Showers,Haze"
"1956-08-28 13:00","1956","08","28","13:00","21.1","","17.2","","79","","32","","6","","12.9","","99.17","","27","","","","Cloudy"
"1956-08-28 14:00","1956","08","28","14:00","21.1","","17.2","","81","","23","","5","","12.9","","99.01","","27","","","","Rain Showers"
"1956-08-28 15:00","1956","08","28","15:00","21.1","","17.8","","81","","18","","5","","25.0","","98.75","","27","","","","Mostly Cloudy"
"1956-08-28 16:00","1956","08","28","16:00","20.6","","17.8","","84","","16","","10","","19.3","","98.92","","26","","","","Mostly Cloudy"
"1956-08-28 17:00","1956","08","28","17:00","20.0","","17.8","","87","","14","","19","","12.9","","98.96","","26","","","","Rain Showers"
"1956-08-28 18:00","1956","08","28","18:00","19.4","","17.8","","90","","16","","11","","16.1","","98.98","","","","","","Rain Showers"
"1956-08-28 19:00","1956","08","28","19:00","18.3","","17.2","","93","","14","","3","","12.9","","98.98","","","","","","Rain Showers"
"1956-08-28 20:00","1956","08","28","20:00","18.9","","17.8","","93","","16","","11","","12.9","","99.04","","","","","","Thunderstorms,Rain Showers"
"1956-08-28 21:00","1956","08","28","21:00","18.9","","17.2","","90","","20","","24","","24.1","","98.94","","","","","","Cloudy"
"1956-08-28 22:00","1956","08","28","22:00","18.9","","17.2","","90","","23","","14","","24.1","","98.89","","","","","","Mostly Cloudy"
"1956-08-28 23:00","1956","08","28","23:00","18.9","","17.2","","90","","20","","11","","24.1","","98.85","","","","","","Mostly Cloudy"
"1956-08-29 00:00","1956","08","29","00:00","18.9","","16.7","","87","","18","","6","","24.1","","98.85","","","","","","Mostly Cloudy"
"1956-08-29 01:00","1956","08","29","01:00","18.9","","17.2","","90","","32","","16","","24.1","","98.93","","","","","","Cloudy"
"1956-08-29 02:00","1956","08","29","02:00","18.9","","17.2","","90","","20","","5","","24.1","","98.95","","","","","","Cloudy"
"1956-08-29 03:00","1956","08","29","03:00","18.9","","17.2","","90","","18","","5","","24.1","","98.94","","","","","","Cloudy"
"1956-08-29 04:00","1956","08","29","04:00","18.3","","17.2","","93","","36","","16","","19.3","","98.91","","","","","","Thunderstorms,Rain Showers"
"1956-08-29 05:00","1956","08","29","05:00","17.8","","16.7","","93","","18","","3","","6.4","","98.96","","","","","","Rain Showers,Fog"
"1956-08-29 06:00","1956","08","29","06:00","17.8","","16.7","","93","","18","","6","","6.4","","98.95","","","","","","Rain Showers,Fog"
"1956-08-29 07:00","1956","08","29","07:00","17.8","","17.2","","97","","18","","3","","2.4","","98.98","","","","","","Rain Showers,Fog"
"1956-08-29 08:00","1956","08","29","08:00","18.3","","17.8","","97","","18","","6","","2.0","","98.98","","","","","","Fog"
"1956-08-29 09:00","1956","08","29","09:00","18.9","","17.8","","93","","9","","5","","2.0","","99.00","","","","","","Fog"
"1956-08-29 10:00","1956","08","29","10:00","18.3","","17.8","","97","","7","","5","","1.2","","99.09","","","","","","Thunderstorms,Rain Showers,Fog"
"1956-08-29 11:00","1956","08","29","11:00","18.9","","18.3","","97","","5","","5","","0.8","","99.01","","","","","","Thunderstorms,Moderate Rain Showers,Fog"
"1956-08-29 12:00","1956","08","29","12:00","19.4","","18.9","","97","","16","","11","","0.8","","99.01","","","","","","Fog"
"1956-08-29 13:00","1956","08","29","13:00","22.2","","18.3","","76","","14","","11","","2.0","","98.96","","28","","","","Fog"
"1956-08-29 14:00","1956","08","29","14:00","22.2","","18.9","","84","","14","","16","","2.4","","98.82","","29","","","","Smoke"
"1956-08-29 15:00","1956","08","29","15:00","18.9","","17.2","","90","","11","","19","","2.4","","98.93","","","","","","Fog"
"1956-08-29 16:00","1956","08","29","16:00","18.3","","17.2","","93","","36","","21","","1.6","","99.10","","","","","","Thunderstorms,Moderate Rain Showers,Fog"
"1956-08-29 17:00","1956","08","29","17:00","18.3","","17.2","","93","","11","","13","","4.8","","99.01","","","","","","Fog"
"1956-08-29 18:00","1956","08","29","18:00","17.8","","16.7","","93","","11","","14","","4.0","","99.04","","","","","","Fog"
"1956-08-29 19:00","1956","08","29","19:00","17.2","","16.7","","97","","7","","16","","4.8","","99.08","","","","","","Rain Showers,Fog"
"1956-08-29 20:00","1956","08","29","20:00","16.7","","16.1","","97","","9","","13","","4.8","","99.14","","","","","","Thunderstorms,Rain Showers,Fog"
"1956-08-29 21:00","1956","08","29","21:00","16.7","","16.1","","97","","14","","13","","4.8","","99.14","","","","","","Thunderstorms,Moderate Rain Showers,Fog"
"1956-08-29 22:00","1956","08","29","22:00","16.1","","16.1","","100","","11","","10","","2.4","","99.14","","","","","","Rain Showers,Fog"
"1956-08-29 23:00","1956","08","29","23:00","16.1","","15.6","","97","","5","","13","","2.4","","99.13","","","","","","Moderate Rain Showers,Fog"
"1956-08-30 00:00","1956","08","30","00:00","15.6","","15.6","","100","","5","","10","","2.4","","99.08","","","","","","Rain Showers,Fog"
"1956-08-30 01:00","1956","08","30","01:00","15.6","","15.0","","97","","5","","6","","2.4","","99.05","","","","","","Rain Showers,Fog"
"1956-08-30 02:00","1956","08","30","02:00","15.6","","15.0","","97","","23","","13","","2.4","","99.08","","","","","","Thunderstorms,Heavy Rain Showers,Fog"
"1956-08-30 03:00","1956","08","30","03:00","16.1","","16.1","","100","","9","","6","","4.8","","99.03","","","","","","Rain Showers,Fog"
"1956-08-30 04:00","1956","08","30","04:00","16.1","","16.1","","100","","9","","16","","2.4","","98.92","","","","","","Thunderstorms,Moderate Rain Showers,Fog"
"1956-08-30 05:00","1956","08","30","05:00","16.1","","16.1","","100","","23","","8","","1.6","","99.02","","","","","","Rain Showers,Fog"
"1956-08-30 06:00","1956","08","30","06:00","16.1","","16.1","","100","","9","","13","","0.8","","98.91","","","","","","Rain Showers,Fog"
"1956-08-30 07:00","1956","08","30","07:00","16.7","","16.7","","100","","5","","3","","0.4","","98.96","","","","","","Rain Showers,Fog"
"1956-08-30 08:00","1956","08","30","08:00","16.7","","16.7","","100","","14","","8","","0.4","","98.89","","","","","","Rain Showers,Fog"
"1956-08-30 09:00","1956","08","30","09:00","17.8","","16.1","","90","","23","","10","","0.4","","98.96","","","","","","Thunderstorms,Moderate Rain Showers,Fog"
"1956-08-30 10:00","1956","08","30","10:00","17.2","","16.7","","97","","5","","10","","3.2","","98.86","","","","","","Rain Showers,Fog"
"1956-08-30 11:00","1956","08","30","11:00","17.8","","17.2","","97","","7","","11","","4.8","","98.92","","","","","","Fog"
"1956-08-30 12:00","1956","08","30","12:00","18.3","","17.2","","93","","9","","6","","6.4","","98.90","","","","","","Fog"
"1956-08-30 13:00","1956","08","30","13:00","18.9","","17.8","","93","","9","","5","","1.2","","98.85","","","","","","Fog"
"1956-08-30 14:00","1956","08","30","14:00","20.0","","19.4","","97","","14","","6","","1.2","","98.87","","27","","","","Fog"
"1956-08-30 15:00","1956","08","30","15:00","21.1","","20.0","","93","","","","0","","1.2","","98.77","","29","","","","Fog"
"1956-08-30 16:00","1956","08","30","16:00","22.2","","20.0","","87","","14","","8","","3.2","","98.77","","30","","","","Fog"
"1956-08-30 17:00","1956","08","30","17:00","21.7","","20.0","","90","","14","","6","","3.2","","98.76","","29","","","","Fog"
"1956-08-30 18:00","1956","08","30","18:00","20.6","","19.4","","93","","9","","10","","1.6","","98.80","","28","","","","Fog"
"1956-08-30 19:00","1956","08","30","19:00","19.4","","18.3","","93","","11","","10","","1.2","","98.83","","","","","","Fog"
"1956-08-30 20:00","1956","08","30","20:00","18.9","","18.3","","97","","7","","10","","1.2","","98.91","","","","","","Fog"
"1956-08-30 21:00","1956","08","30","21:00","18.9","","17.8","","93","","7","","10","","4.8","","98.90","","","","","","Fog"
"1956-08-30 22:00","1956","08","30","22:00","18.9","","18.3","","97","","7","","11","","4.8","","98.92","","","","","","Fog"
"1956-08-30 23:00","1956","08","30","23:00","18.9","","18.3","","97","","9","","16","","2.4","","98.95","","","","","","Fog"
"1956-08-31 00:00","1956","08","31","00:00","18.9","","18.3","","97","","9","","16","","0.4","","98.95","","","","","","Fog"
"1956-08-31 01:00","1956","08","31","01:00","18.3","","18.3","","100","","9","","8","","0.2","","98.96","","","","","","Fog"
"1956-08-31 02:00","1956","08","31","02:00","18.3","","17.8","","97","","11","","6","","0.4","","98.96","","","","","","Fog"
"1956-08-31 03:00","1956","08","31","03:00","17.8","","17.8","","100","","9","","10","","0.2","","98.97","","","","","","Fog"
"1956-08-31 04:00","1956","08","31","04:00","17.8","","17.8","","100","","9","","5","","0.2","","99.03","","","","","","Fog"
"1956-08-31 05:00","1956","08","31","05:00","17.8","","17.8","","100","","9","","8","","0.8","","99.00","","","","","","Rain Showers,Fog"
"1956-08-31 06:00","1956","08","31","06:00","17.8","","17.8","","100","","9","","3","","0.2","","99.09","","","","","","Fog"
"1956-08-31 07:00","1956","08","31","07:00","17.8","","17.8","","100","","9","","6","","0.2","","99.11","","","","","","Fog"
"1956-08-31 08:00","1956","08","31","08:00","18.3","","18.3","","100","","9","","6","","0.2","","99.19","","","","","","Fog"
"1956-08-31 09:00","1956","08","31","09:00","18.9","","18.3","","97","","18","","6","","0.4","","99.13","","","","","","Fog"
"1956-08-31 10:00","1956","08","31","10:00","20.0","","19.4","","97","","16","","6","","1.2","","99.14","","27","","","","Fog"
"1956-08-31 11:00","1956","08","31","11:00","21.1","","20.6","","97","","14","","8","","1.6","","99.12","","29","","","","Fog"
"1956-08-31 12:00","1956","08","31","12:00","23.9","","21.7","","88","","18","","8","","3.2","","99.14","","33","","","","Fog"
"1956-08-31 13:00","1956","08","31","13:00","25.6","","22.2","","82","","18","","13","","6.4","","99.03","","35","","","","Haze"
"1956-08-31 14:00","1956","08","31","14:00","25.6","","22.2","","82","","16","","16","","9.7","","99.02","","35","","","","Haze"
"1956-08-31 15:00","1956","08","31","15:00","26.1","","21.7","","77","","16","","16","","8.0","","99.07","","35","","","","Haze"
"1956-08-31 16:00","1956","08","31","16:00","25.0","","21.1","","79","","14","","16","","8.0","","99.12","","34","","","","Haze"
"1956-08-31 17:00","1956","08","31","17:00","23.9","","21.1","","85","","16","","13","","8.0","","99.14","","32","","","","Haze"
"1956-08-31 18:00","1956","08","31","18:00","22.8","","20.6","","87","","14","","8","","8.0","","99.18","","31","","","","Haze"
"1956-08-31 19:00","1956","08","31","19:00","21.7","","20.0","","90","","14","","3","","8.0","","99.19","","29","","","","Haze"
"1956-08-31 20:00","1956","08","31","20:00","21.1","","20.6","","97","","9","","3","","3.2","","99.23","","29","","","","Fog"
"1956-08-31 21:00","1956","08","31","21:00","20.0","","19.4","","97","","9","","6","","1.6","","99.28","","27","","","","Fog"
"1956-08-31 22:00","1956","08","31","22:00","18.9","","18.3","","97","","","","0","","1.6","","99.34","","","","","","Fog"
"1956-08-31 23:00","1956","08","31","23:00","18.9","","18.3","","97","","14","","2","","0.2","","99.35","","","","","","Fog"
