"Station Name","TORONTO INTL A"
"Province","ONTARIO"
"Latitude","43.68"
"Longitude","-79.63"
"Elevation","173.40"
"Climate Identifier","6158731"
"WMO Identifier","71624"
"TC Identifier","YYZ"
"All times are specified in Local Standard Time (LST). Add 1 hour to adjust for Daylight Saving Time where and when it is observed."

"Legend"
"E","Estimated"
"M","Missing"
"NA","Not Available"

"Date/Time","Year","Month","Day","Time","Temp (°C)","Temp Flag","Dew Point Temp (°C)","Dew Point Temp Flag","Rel Hum (%)","Rel Hum Flag","Wind Dir (10s deg)","Wind Dir Flag","Wind Spd (km/h)","Wind Spd Flag","Visibility (km)","Visibility Flag","Stn Press (kPa)","Stn Press Flag","Hmdx","Hmdx Flag","Wind Chill","Wind Chill Flag","Weather"
"2014-01-01 00:00","2014","01","01","00:00","-9.9","","-15.3","","65","","27","","21","","24.1","","100.25","","","","-18","","NA"
"2014-01-01 01:00","2014","01","01","01:00","-10.1","","-16.3","","61","","27","","25","","24.1","","100.32","","","","-19","","Mainly Clear"
"2014-01-01 02:00","2014","01","01","02:00","-10.6","","-16.0","","65","","27","","22","","24.1","","100.38","","","","-19","","NA"
"2014-01-01 03:00","2014","01","01","03:00","-11.3","","-15.9","","69","","24","","17","","24.1","","100.42","","","","-19","","NA"
"2014-01-01 04:00","2014","01","01","04:00","-11.3","","-15.6","","71","","25","","18","","24.1","","100.45","","","","-19","","Mainly Clear"
"2014-01-01 05:00","2014","01","01","05:00","-11.4","","-15.3","","73","","25","","18","","24.1","","100.45","","","","-19","","NA"
"2014-01-01 06:00","2014","01","01","06:00","-11.6","","-15.2","","75","","26","","15","","24.1","","100.48","","","","-19","","NA"
"2014-01-01 07:00","2014","01","01","07:00","-11.3","","-14.9","","75","","23","","15","","24.1","","100.51","","","","-18","","Mostly Cloudy"
"2014-01-01 08:00","2014","01","01","08:00","-11.9","","-15.6","","74","","23","","16","","24.1","","100.58","","","","-19","","NA"
"2014-01-01 09:00","2014","01","01","09:00","-10.9","","-15.0","","72","","24","","15","","24.1","","100.70","","","","-18","","NA"
"2014-01-01 10:00","2014","01","01","10:00","-10.2","","-14.5","","71","","3","","5","","24.1","","100.76","","","","-13","","Cloudy"
"2014-01-01 11:00","2014","01","01","11:00","-10.7","","-14.7","","73","","1","","21","","24.1","","100.84","","","","-19","","NA"
"2014-01-01 12:00","2014","01","01","12:00","-11.5","","-16.3","","68","","1","","20","","24.1","","100.82","","","","-20","","NA"
"2014-01-01 13:00","2014","01","01","13:00","-12.3","","-17.6","","65","","36","","21","","24.1","","100.79","","","","-21","","Cloudy"
"2014-01-01 14:00","2014","01","01","14:00","-12.5","","-18.2","","63","","1","","21","","24.1","","100.78","","","","-21","","NA"
"2014-01-01 15:00","2014","01","01","15:00","-12.8","","-18.7","","62","","2","","18","","24.1","","100.77","","","","-21","","NA"
"2014-01-01 16:00","2014","01","01","16:00","-13.2","","-19.4","","60","","1","","25","","24.1","","100.74","","","","-23","","Mostly Cloudy"
"2014-01-01 17:00","2014","01","01","17:00","-14.0","","-20.8","","57","","1","","22","","24.1","","100.78","","","","-23","","NA"
"2014-01-01 18:00","2014","01","01","18:00","-14.6","","-21.4","","57","","1","","20","","24.1","","100.81","","","","-24","","NA"
"2014-01-01 19:00","2014","01","01","19:00","-14.5","","-20.9","","59","","1","","14","","24.1","","100.81","","","","-22","","Mostly Cloudy"
"2014-01-01 20:00","2014","01","01","20:00","-14.4","","-21.2","","57","","1","","21","","24.1","","100.81","","","","-24","","NA"
"2014-01-01 21:00","2014","01","01","21:00","-14.5","","-21.3","","57","","1","","18","","24.1","","100.76","","","","-23","","NA"
"2014-01-01 22:00","2014","01","01","22:00","-14.9","","-22.9","","51","","2","","25","","24.1","","100.72","","","","-25","","Cloudy"
"2014-01-01 23:00","2014","01","01","23:00","-14.9","","-24.4","","45","","1","","26","","24.1","","100.69","","","","-25","","NA"
"2014-01-02 00:00","2014","01","02","00:00","-15.2","","-25.4","","42","","2","","27","","24.1","","100.68","","","","-26","","NA"
"2014-01-02 01:00","2014","01","02","01:00","-15.2","","-24.2","","47","","2","","21","","24.1","","100.60","","","","-25","","Cloudy"
"2014-01-02 02:00","2014","01","02","02:00","-15.7","","-23.5","","52","","2","","21","","24.1","","100.55","","","","-25","","NA"
"2014-01-02 03:00","2014","01","02","03:00","-16.0","","-22.5","","58","","2","","24","","24.1","","100.52","","","","-26","","NA"
"2014-01-02 04:00","2014","01","02","04:00","-16.4","","-22.7","","59","","2","","21","","24.1","","100.47","","","","-26","","Cloudy"
"2014-01-02 05:00","2014","01","02","05:00","-16.5","","-21.5","","66","","3","","20","","12.9","","100.41","","","","-26","","Snow"
"2014-01-02 06:00","2014","01","02","06:00","-16.5","","-20.4","","72","","2","","19","","6.4","","100.37","","","","-26","","Snow"
"2014-01-02 07:00","2014","01","02","07:00","-17.1","","-20.9","","73","","2","","24","","4.8","","100.34","","","","-28","","Snow,Blowing Snow"
"2014-01-02 08:00","2014","01","02","08:00","-17.6","","-21.3","","73","","2","","24","","6.4","","100.30","","","","-28","","Snow,Blowing Snow"
"2014-01-02 09:00","2014","01","02","09:00","-18.5","","-22.9","","69","","1","","30","","8.1","","100.25","","","","-31","","Snow,Blowing Snow"
"2014-01-02 10:00","2014","01","02","10:00","-18.4","","-23.1","","67","","2","","26","","12.9","","100.21","","","","-30","","Snow,Blowing Snow"
"2014-01-02 11:00","2014","01","02","11:00","-17.9","","-23.7","","61","","2","","23","","24.1","","100.18","","","","-29","","NA"
"2014-01-02 12:00","2014","01","02","12:00","-18.0","","-23.8","","61","","1","","22","","24.1","","100.07","","","","-28","","NA"
"2014-01-02 13:00","2014","01","02","13:00","-17.9","","-23.9","","60","","1","","28","","16.1","","99.92","","","","-29","","Blowing Snow"
"2014-01-02 14:00","2014","01","02","14:00","-18.2","","-23.1","","66","","35","","30","","4.8","","99.85","","","","-30","","Snow,Blowing Snow"
"2014-01-02 15:00","2014","01","02","15:00","-18.3","","-22.7","","69","","36","","31","","3.2","","99.83","","","","-31","","Snow,Blowing Snow"
"2014-01-02 16:00","2014","01","02","16:00","-18.7","","-22.7","","71","","36","","32","","6.4","","99.82","","","","-31","","Snow,Blowing Snow"
"2014-01-02 17:00","2014","01","02","17:00","-18.9","","-22.8","","72","","1","","35","","6.4","","99.78","","","","-32","","Snow,Blowing Snow"
"2014-01-02 18:00","2014","01","02","18:00","-18.4","","-23.5","","65","","36","","29","","16.1","","99.82","","","","-30","","Blowing Snow"
"2014-01-02 19:00","2014","01","02","19:00","-18.0","","-22.4","","69","","36","","30","","8.1","","99.87","","","","-30","","Blowing Snow"
"2014-01-02 20:00","2014","01","02","20:00","-17.9","","-22.0","","71","","36","","26","","8.1","","99.87","","","","-29","","Blowing Snow"
"2014-01-02 21:00","2014","01","02","21:00","-18.2","","-22.8","","68","","1","","32","","9.7","","99.88","","","","-31","","Snow,Blowing Snow"
"2014-01-02 22:00","2014","01","02","22:00","-18.4","","-25.2","","56","","1","","31","","24.1","","99.92","","","","-31","","Blowing Snow"
"2014-01-02 23:00","2014","01","02","23:00","-19.1","","-26.0","","55","","1","","32","","24.1","","99.96","","","","-32","","Blowing Snow"
"2014-01-03 00:00","2014","01","03","00:00","-19.4","","-26.1","","56","","36","","34","","24.1","","99.98","","","","-32","","Blowing Snow"
"2014-01-03 01:00","2014","01","03","01:00","-20.0","","-26.5","","57","","35","","28","","24.1","","100.00","","","","-32","","Blowing Snow"
"2014-01-03 02:00","2014","01","03","02:00","-21.2","","-26.7","","62","","34","","25","","24.1","","100.09","","","","-33","","Blowing Snow"
"2014-01-03 03:00","2014","01","03","03:00","-21.8","","-27.6","","60","","35","","27","","24.1","","100.18","","","","-34","","Blowing Snow"
"2014-01-03 04:00","2014","01","03","04:00","-22.3","","-28.3","","59","","35","","26","","24.1","","100.24","","","","-35","","Blowing Snow"
"2014-01-03 05:00","2014","01","03","05:00","-22.6","","-29.0","","57","","35","","24","","24.1","","100.31","","","","-35","","Blowing Snow"
"2014-01-03 06:00","2014","01","03","06:00","-23.1","","-29.4","","57","","34","","24","","24.1","","100.38","","","","-35","","Blowing Snow"
"2014-01-03 07:00","2014","01","03","07:00","-23.4","","-29.9","","56","","36","","17","","24.1","","100.49","","","","-34","","Clear"
"2014-01-03 08:00","2014","01","03","08:00","-23.8","","-30.3","","56","","35","","20","","24.1","","100.59","","","","-35","","NA"
"2014-01-03 09:00","2014","01","03","09:00","-23.0","","-30.3","","52","","35","","14","","24.1","","100.67","","","","-32","","NA"
"2014-01-03 10:00","2014","01","03","10:00","-21.5","","-29.6","","49","","31","","18","","24.1","","100.75","","","","-32","","Clear"
"2014-01-03 11:00","2014","01","03","11:00","-20.1","","-29.7","","43","","31","","16","","24.1","","100.76","","","","-30","","NA"
"2014-01-03 12:00","2014","01","03","12:00","-18.2","","-28.8","","40","","32","","15","","24.1","","100.70","","","","-27","","NA"
"2014-01-03 13:00","2014","01","03","13:00","-16.2","","-23.3","","55","","33","","13","","24.1","","100.69","","","","-24","","Mainly Clear"
"2014-01-03 14:00","2014","01","03","14:00","-14.7","","-22.5","","52","","22","","2","","24.1","","100.71","","","","-16","","NA"
"2014-01-03 15:00","2014","01","03","15:00","-13.5","","-22.1","","49","","24","","5","","24.1","","100.72","","","","-17","","NA"
"2014-01-03 16:00","2014","01","03","16:00","-13.4","","-22.2","","48","","22","","13","","24.1","","100.74","","","","-20","","Mainly Clear"
"2014-01-03 17:00","2014","01","03","17:00","-13.4","","-20.9","","54","","17","","12","","24.1","","100.72","","","","-20","","NA"
"2014-01-03 18:00","2014","01","03","18:00","-13.8","","-20.6","","57","","20","","13","","24.1","","100.68","","","","-21","","NA"
"2014-01-03 19:00","2014","01","03","19:00","-14.3","","-20.5","","60","","21","","14","","24.1","","100.68","","","","-22","","Mainly Clear"
"2014-01-03 20:00","2014","01","03","20:00","-14.2","","-20.4","","60","","20","","15","","24.1","","100.64","","","","-22","","NA"
"2014-01-03 21:00","2014","01","03","21:00","-14.1","","-19.0","","67","","21","","15","","24.1","","100.53","","","","-22","","NA"
"2014-01-03 22:00","2014","01","03","22:00","-13.0","","-17.2","","71","","22","","12","","24.1","","100.42","","","","-20","","Mainly Clear"
"2014-01-03 23:00","2014","01","03","23:00","-11.7","","-15.8","","72","","20","","15","","24.1","","100.30","","","","-19","","NA"
"2014-01-04 00:00","2014","01","04","00:00","-9.8","","-13.6","","74","","19","","21","","24.1","","100.19","","","","-18","","NA"
"2014-01-04 01:00","2014","01","04","01:00","-9.2","","-13.9","","69","","20","","19","","24.1","","100.11","","","","-17","","Mostly Cloudy"
"2014-01-04 02:00","2014","01","04","02:00","-8.9","","-15.5","","59","","20","","16","","24.1","","100.02","","","","-16","","NA"
"2014-01-04 03:00","2014","01","04","03:00","-8.4","","-14.7","","61","","20","","22","","24.1","","100.01","","","","-16","","NA"
"2014-01-04 04:00","2014","01","04","04:00","-8.0","","-13.9","","63","","20","","27","","24.1","","99.96","","","","-16","","Mostly Cloudy"
"2014-01-04 05:00","2014","01","04","05:00","-7.8","","-13.1","","66","","20","","17","","24.1","","99.86","","","","-14","","NA"
"2014-01-04 06:00","2014","01","04","06:00","-7.6","","-13.1","","65","","20","","21","","24.1","","99.79","","","","-15","","NA"
"2014-01-04 07:00","2014","01","04","07:00","-7.8","","-12.7","","68","","19","","16","","24.1","","99.74","","","","-14","","Mainly Clear"
"2014-01-04 08:00","2014","01","04","08:00","-7.5","","-12.6","","67","","19","","21","","24.1","","99.65","","","","-15","","NA"
"2014-01-04 09:00","2014","01","04","09:00","-6.3","","-12.9","","60","","19","","29","","24.1","","99.54","","","","-15","","NA"
"2014-01-04 10:00","2014","01","04","10:00","-4.7","","-12.2","","56","","20","","32","","24.1","","99.46","","","","-13","","Mostly Cloudy"
"2014-01-04 11:00","2014","01","04","11:00","-3.8","","-11.8","","54","","20","","18","","24.1","","99.41","","","","-10","","NA"
"2014-01-04 12:00","2014","01","04","12:00","-2.7","","-10.8","","54","","22","","30","","24.1","","99.31","","","","-10","","NA"
"2014-01-04 13:00","2014","01","04","13:00","-2.4","","-10.5","","54","","22","","28","","24.1","","99.29","","","","-9","","Mostly Cloudy"
"2014-01-04 14:00","2014","01","04","14:00","-1.7","","-9.6","","55","","20","","16","","24.1","","99.23","","","","-7","","NA"
"2014-01-04 15:00","2014","01","04","15:00","-0.7","","-9.1","","53","","22","","27","","24.1","","99.28","","","","-7","","NA"
"2014-01-04 16:00","2014","01","04","16:00","-0.9","","-8.9","","55","","22","","28","","24.1","","99.32","","","","-7","","Cloudy"
"2014-01-04 17:00","2014","01","04","17:00","-1.2","","-8.9","","56","","22","","21","","24.1","","99.38","","","","-7","","NA"
"2014-01-04 18:00","2014","01","04","18:00","-1.3","","-8.5","","58","","23","","20","","24.1","","99.40","","","","-7","","NA"
"2014-01-04 19:00","2014","01","04","19:00","-1.6","","-8.2","","61","","24","","17","","24.1","","99.47","","","","-7","","Cloudy"
"2014-01-04 20:00","2014","01","04","20:00","-1.5","","-7.7","","63","","24","","18","","24.1","","99.54","","","","-7","","NA"
"2014-01-04 21:00","2014","01","04","21:00","-1.2","","-7.2","","64","","24","","15","","24.1","","99.59","","","","-6","","NA"
"2014-01-04 22:00","2014","01","04","22:00","-1.3","","-6.3","","69","","23","","23","","24.1","","99.59","","","","-7","","Cloudy"
"2014-01-04 23:00","2014","01","04","23:00","-1.8","","-4.8","","80","","23","","23","","16.1","","99.62","","","","-8","","Snow Showers"
"2014-01-05 00:00","2014","01","05","00:00","-2.0","","-4.2","","85","","23","","21","","16.1","","99.64","","","","-8","","Snow Showers"
"2014-01-05 01:00","2014","01","05","01:00","-2.3","","-3.6","","91","","22","","12","","6.4","","99.67","","","","-7","","Snow"
"2014-01-05 02:00","2014","01","05","02:00","-2.4","","-3.4","","93","","20","","10","","3.2","","99.73","","","","-6","","Snow"
"2014-01-05 03:00","2014","01","05","03:00","-2.3","","-3.6","","91","","21","","13","","8.1","","99.78","","","","-7","","Snow"
"2014-01-05 04:00","2014","01","05","04:00","-2.2","","-3.6","","90","","22","","9","","8.1","","99.73","","","","-6","","Snow"
"2014-01-05 05:00","2014","01","05","05:00","-2.4","","-3.5","","92","","23","","6","","9.7","","99.69","","","","-5","","Snow"
"2014-01-05 06:00","2014","01","05","06:00","-2.4","","-3.5","","92","","23","","3","","9.7","","99.70","","","","-4","","Snow"
"2014-01-05 07:00","2014","01","05","07:00","-2.3","","-3.4","","92","","15","","6","","9.7","","99.71","","","","-5","","Snow"
"2014-01-05 08:00","2014","01","05","08:00","-2.3","","-3.3","","93","","15","","4","","4.8","","99.72","","","","-4","","Snow"
"2014-01-05 09:00","2014","01","05","09:00","-2.0","","-3.1","","92","","17","","8","","6.4","","99.81","","","","-5","","Snow"
"2014-01-05 10:00","2014","01","05","10:00","-1.7","","-2.7","","93","","18","","5","","4.0","","99.76","","","","-4","","Snow"
"2014-01-05 11:00","2014","01","05","11:00","-1.2","","-2.2","","93","","11","","3","","4.0","","99.73","","","","-2","","Snow,Fog"
"2014-01-05 12:00","2014","01","05","12:00","-1.0","","-2.1","","92","","7","","7","","4.8","","99.57","","","","-4","","Snow,Fog"
"2014-01-05 13:00","2014","01","05","13:00","-0.5","","-1.9","","90","","5","","6","","6.4","","99.43","","","","-3","","Snow,Fog"
"2014-01-05 14:00","2014","01","05","14:00","-0.2","","-1.8","","89","","9","","9","","4.0","","99.28","","","","-3","","Snow,Fog"
"2014-01-05 15:00","2014","01","05","15:00","-0.4","","-1.3","","94","","10","","13","","0.2","","99.18","","","","-5","","Moderate Snow"
"2014-01-05 16:00","2014","01","05","16:00","-0.6","","-1.5","","94","","8","","12","","3.2","","99.13","","","","-5","","Snow"
"2014-01-05 17:00","2014","01","05","17:00","-0.6","","-1.7","","92","","8","","20","","6.4","","98.92","","","","-6","","Snow,Fog"
"2014-01-05 18:00","2014","01","05","18:00","-0.4","","-1.8","","90","","8","","9","","2.4","","98.79","","","","-4","","Snow Showers"
"2014-01-05 19:00","2014","01","05","19:00","-0.6","","-1.3","","95","","8","","11","","2.0","","98.61","","","","-4","","Snow"
"2014-01-05 20:00","2014","01","05","20:00","-0.4","","-1.1","","95","","8","","18","","2.4","","98.31","","","","-5","","Snow"
"2014-01-05 21:00","2014","01","05","21:00","-0.4","","-1.4","","93","","7","","14","","3.2","","98.12","","","","-5","","Snow"
"2014-01-05 22:00","2014","01","05","22:00","-0.5","","-1.4","","94","","7","","10","","2.0","","97.91","","","","-4","","Snow"
"2014-01-05 23:00","2014","01","05","23:00","-0.4","","-1.1","","95","","5","","7","","4.0","","97.68","","","","-3","","Snow"
"2014-01-06 00:00","2014","01","06","00:00","-0.4","","-1.0","","96","","2","","11","","6.4","","97.45","","","","-4","","Snow,Ice Pellets"
"2014-01-06 01:00","2014","01","06","01:00","-0.4","","-1.0","","96","","3","","12","","8.1","","97.13","","","","-4","","Freezing Rain,Fog"
"2014-01-06 02:00","2014","01","06","02:00","-0.9","","-1.6","","95","","32","","18","","9.7","","96.95","","","","-6","","Freezing Rain,Fog"
"2014-01-06 03:00","2014","01","06","03:00","-1.3","","-2.4","","92","","1","","24","","16.1","","96.87","","","","-7","","Freezing Rain"
"2014-01-06 04:00","2014","01","06","04:00","-2.0","","-3.6","","89","","30","","43","","12.9","","96.92","","","","-10","","Snow Showers"
"2014-01-06 05:00","2014","01","06","05:00","-1.8","","-3.8","","86","","30","","36","","16.1","","97.04","","","","-9","","NA"
"2014-01-06 06:00","2014","01","06","06:00","-3.5","","-6.6","","79","","30","","32","","24.1","","97.33","","","","-11","","NA"
"2014-01-06 07:00","2014","01","06","07:00","-5.3","","-8.7","","77","","29","","40","","24.1","","97.65","","","","-14","","Mainly Clear"
"2014-01-06 08:00","2014","01","06","08:00","-6.4","","-10.1","","75","","28","","36","","24.1","","97.88","","","","-16","","NA"
"2014-01-06 09:00","2014","01","06","09:00","-6.0","","-9.4","","77","","27","","24","","24.1","","98.03","","","","-13","","NA"
"2014-01-06 10:00","2014","01","06","10:00","-5.4","","-9.2","","75","","27","","28","","24.1","","98.15","","","","-13","","Mainly Clear"
"2014-01-06 11:00","2014","01","06","11:00","-4.9","","-8.3","","77","","26","","22","","24.1","","98.17","","","","-12","","NA"
"2014-01-06 12:00","2014","01","06","12:00","-6.8","","-11.2","","71","","26","","41","","24.1","","98.20","","","","-17","","NA"
"2014-01-06 13:00","2014","01","06","13:00","-7.5","","-11.7","","72","","25","","40","","24.1","","98.20","","","","-17","","Mostly Cloudy"
"2014-01-06 14:00","2014","01","06","14:00","-7.7","","-11.6","","74","","26","","32","","24.1","","98.23","","","","-17","","NA"
"2014-01-06 15:00","2014","01","06","15:00","-8.1","","-13.0","","68","","24","","41","","24.1","","98.26","","","","-18","","NA"
"2014-01-06 16:00","2014","01","06","16:00","-9.3","","-14.2","","68","","25","","40","","14.5","","98.31","","","","-20","","Snow Showers,Blowing Snow"
"2014-01-06 17:00","2014","01","06","17:00","-12.4","","-17.2","","68","","25","","54","","24.1","","98.41","","","","-25","","NA"
"2014-01-06 18:00","2014","01","06","18:00","-13.7","","-18.6","","67","","25","","48","","24.1","","98.48","","","","-27","","NA"
"2014-01-06 19:00","2014","01","06","19:00","-14.9","","-19.6","","68","","24","","48","","24.1","","98.49","","","","-28","","Mostly Cloudy"
"2014-01-06 20:00","2014","01","06","20:00","-16.1","","-19.6","","75","","25","","50","","4.8","","98.53","","","","-30","","Snow Showers,Blowing Snow"
"2014-01-06 21:00","2014","01","06","21:00","-15.1","","-17.4","","83","","25","","51","","1.6","","98.54","","","","-29","","Snow Showers,Blowing Snow"
"2014-01-06 22:00","2014","01","06","22:00","-14.3","","-16.4","","84","","26","","42","","1.2","","98.63","","","","-27","","Snow Showers,Blowing Snow"
"2014-01-06 23:00","2014","01","06","23:00","-14.9","","-17.9","","78","","25","","49","","6.4","","98.69","","","","-28","","Snow Showers,Blowing Snow"
"2014-01-07 00:00","2014","01","07","00:00","-16.5","","-21.1","","68","","26","","61","","16.1","","98.76","","","","-32","","Blowing Snow"
"2014-01-07 01:00","2014","01","07","01:00","-17.5","","-22.1","","68","","26","","56","","16.1","","98.85","","","","-33","","Blowing Snow"
"2014-01-07 02:00","2014","01","07","02:00","-19.1","","-23.8","","67","","25","","57","","16.1","","98.94","","","","-35","","Blowing Snow"
"2014-01-07 03:00","2014","01","07","03:00","-22.3","","-26.9","","67","","25","","45","","24.1","","99.17","","","","-38","","Blowing Snow"
"2014-01-07 04:00","2014","01","07","04:00","-23.4","","-28.1","","66","","24","","33","","24.1","","99.28","","","","-38","","Mainly Clear"
"2014-01-07 05:00","2014","01","07","05:00","-23.9","","-28.6","","66","","25","","40","","24.1","","99.31","","","","-39","","NA"
"2014-01-07 06:00","2014","01","07","06:00","-24.1","","-28.6","","67","","24","","36","","24.1","","99.36","","","","-39","","NA"
"2014-01-07 07:00","2014","01","07","07:00","-23.6","","-28.3","","66","","24","","39","","24.1","","99.40","","","","-39","","Mainly Clear"
"2014-01-07 08:00","2014","01","07","08:00","-23.1","","-27.8","","66","","24","","36","","24.1","","99.49","","","","-38","","NA"
"2014-01-07 09:00","2014","01","07","09:00","-22.3","","-27.4","","64","","25","","33","","24.1","","99.54","","","","-36","","NA"
"2014-01-07 10:00","2014","01","07","10:00","-21.4","","-26.5","","64","","24","","31","","24.1","","99.63","","","","-35","","Clear"
"2014-01-07 11:00","2014","01","07","11:00","-19.7","","-25.4","","61","","24","","41","","24.1","","99.64","","","","-34","","NA"
"2014-01-07 12:00","2014","01","07","12:00","-18.7","","-24.5","","61","","25","","45","","24.1","","99.55","","","","-33","","NA"
"2014-01-07 13:00","2014","01","07","13:00","-18.4","","-24.2","","61","","25","","40","","24.1","","99.57","","","","-32","","Clear"
"2014-01-07 14:00","2014","01","07","14:00","-18.5","","-23.9","","63","","24","","49","","19.3","","99.61","","","","-33","","NA"
"2014-01-07 15:00","2014","01","07","15:00","-17.5","","-23.0","","63","","24","","44","","24.1","","99.66","","","","-31","","NA"
"2014-01-07 16:00","2014","01","07","16:00","-17.4","","-22.9","","63","","25","","39","","24.1","","99.72","","","","-31","","Mostly Cloudy"
"2014-01-07 17:00","2014","01","07","17:00","-17.6","","-22.0","","69","","23","","28","","24.1","","99.80","","","","-29","","NA"
"2014-01-07 18:00","2014","01","07","18:00","-18.1","","-22.7","","68","","24","","31","","24.1","","99.88","","","","-30","","NA"
"2014-01-07 19:00","2014","01","07","19:00","-18.2","","-22.6","","69","","23","","43","","24.1","","99.91","","","","-32","","Mainly Clear"
"2014-01-07 20:00","2014","01","07","20:00","-18.3","","-22.7","","69","","22","","39","","24.1","","100.00","","","","-32","","NA"
"2014-01-07 21:00","2014","01","07","21:00","-18.0","","-22.4","","69","","23","","38","","24.1","","100.06","","","","-31","","Blowing Snow"
"2014-01-07 22:00","2014","01","07","22:00","-17.7","","-21.9","","70","","24","","31","","24.1","","100.19","","","","-30","","Blowing Snow"
"2014-01-07 23:00","2014","01","07","23:00","-17.5","","-21.6","","71","","24","","33","","16.1","","100.25","","","","-30","","Snow,Blowing Snow"
"2014-01-08 00:00","2014","01","08","00:00","-17.4","","-21.3","","72","","22","","13","","24.1","","100.28","","","","-25","","Blowing Snow"
"2014-01-08 01:00","2014","01","08","01:00","-17.5","","-21.4","","72","","22","","19","","24.1","","100.37","","","","-27","","Cloudy"
"2014-01-08 02:00","2014","01","08","02:00","-17.2","","-21.1","","72","","21","","15","","24.1","","100.42","","","","-26","","NA"
"2014-01-08 03:00","2014","01","08","03:00","-16.8","","-20.7","","72","","22","","13","","24.1","","100.51","","","","-25","","NA"
"2014-01-08 04:00","2014","01","08","04:00","-16.2","","-19.8","","74","","20","","11","","24.1","","100.53","","","","-23","","Cloudy"
"2014-01-08 05:00","2014","01","08","05:00","-15.6","","-19.2","","74","","23","","17","","24.1","","100.51","","","","-24","","Snow Showers"
"2014-01-08 06:00","2014","01","08","06:00","-15.2","","-19.2","","72","","23","","16","","24.1","","100.53","","","","-23","","NA"
"2014-01-08 07:00","2014","01","08","07:00","-14.9","","-18.7","","73","","21","","13","","24.1","","100.56","","","","-22","","Cloudy"
"2014-01-08 08:00","2014","01","08","08:00","-14.7","","-18.2","","75","","22","","20","","9.7","","100.65","","","","-24","","Snow Showers"
"2014-01-08 09:00","2014","01","08","09:00","-14.2","","-17.6","","76","","22","","18","","6.4","","100.74","","","","-23","","Snow Showers"
"2014-01-08 10:00","2014","01","08","10:00","-12.5","","-16.6","","72","","24","","12","","24.1","","100.74","","","","-19","","Mostly Cloudy"
"2014-01-08 11:00","2014","01","08","11:00","-11.6","","-16.8","","66","","26","","19","","24.1","","100.77","","","","-20","","NA"
"2014-01-08 12:00","2014","01","08","12:00","-10.4","","-16.2","","63","","23","","24","","24.1","","100.69","","","","-19","","NA"
"2014-01-08 13:00","2014","01","08","13:00","-9.8","","-15.6","","63","","25","","24","","24.1","","100.65","","","","-18","","Mostly Cloudy"
"2014-01-08 14:00","2014","01","08","14:00","-9.6","","-15.4","","63","","24","","22","","24.1","","100.61","","","","-18","","NA"
"2014-01-08 15:00","2014","01","08","15:00","-9.5","","-14.7","","66","","25","","28","","24.1","","100.64","","","","-19","","NA"
"2014-01-08 16:00","2014","01","08","16:00","-9.2","","-15.0","","63","","25","","22","","24.1","","100.65","","","","-17","","Cloudy"
"2014-01-08 17:00","2014","01","08","17:00","-9.3","","-14.7","","65","","25","","19","","24.1","","100.69","","","","-17","","NA"
"2014-01-08 18:00","2014","01","08","18:00","-9.2","","-14.6","","65","","24","","23","","24.1","","100.73","","","","-17","","NA"
"2014-01-08 19:00","2014","01","08","19:00","-9.3","","-14.4","","67","","25","","21","","24.1","","100.77","","","","-17","","Mostly Cloudy"
"2014-01-08 20:00","2014","01","08","20:00","-9.8","","-14.5","","69","","24","","14","","24.1","","100.82","","","","-16","","NA"
"2014-01-08 21:00","2014","01","08","21:00","-10.6","","-14.7","","72","","26","","6","","24.1","","100.87","","","","-14","","NA"
"2014-01-08 22:00","2014","01","08","22:00","-10.6","","-14.7","","72","","22","","14","","24.1","","100.88","","","","-17","","Mainly Clear"
"2014-01-08 23:00","2014","01","08","23:00","-11.1","","-14.9","","74","","21","","9","","24.1","","100.92","","","","-16","","NA"
"2014-01-09 00:00","2014","01","09","00:00","-11.5","","-15.1","","75","","23","","11","","24.1","","100.97","","","","-17","","NA"
"2014-01-09 01:00","2014","01","09","01:00","-11.7","","-14.6","","79","","27","","7","","24.1","","101.00","","","","-16","","Mainly Clear"
"2014-01-09 02:00","2014","01","09","02:00","-12.5","","-15.4","","79","","23","","11","","24.1","","101.05","","","","-19","","NA"
"2014-01-09 03:00","2014","01","09","03:00","-12.9","","-15.5","","81","","24","","13","","24.1","","101.13","","","","-20","","NA"
"2014-01-09 04:00","2014","01","09","04:00","-13.4","","-15.7","","83","","23","","10","","24.1","","101.17","","","","-19","","Mainly Clear"
"2014-01-09 05:00","2014","01","09","05:00","-14.9","","-17.0","","84","","26","","11","","24.1","","101.24","","","","-21","","NA"
"2014-01-09 06:00","2014","01","09","06:00","-14.0","","-16.3","","83","","23","","14","","24.1","","101.31","","","","-21","","NA"
"2014-01-09 07:00","2014","01","09","07:00","-13.8","","-16.1","","83","","23","","10","","24.1","","101.34","","","","-20","","Mainly Clear"
"2014-01-09 08:00","2014","01","09","08:00","-13.6","","-16.1","","82","","23","","14","","19.3","","101.40","","","","-21","","NA"
"2014-01-09 09:00","2014","01","09","09:00","-13.7","","-16.5","","80","","25","","13","","24.1","","101.48","","","","-21","","NA"
"2014-01-09 10:00","2014","01","09","10:00","-11.4","","-15.2","","74","","25","","14","","24.1","","101.54","","","","-18","","Mainly Clear"
"2014-01-09 11:00","2014","01","09","11:00","-8.9","","-13.6","","69","","24","","9","","24.1","","101.55","","","","-14","","NA"
"2014-01-09 12:00","2014","01","09","12:00","-7.5","","-13.0","","65","","25","","11","","24.1","","101.44","","","","-13","","NA"
"2014-01-09 13:00","2014","01","09","13:00","-7.3","","-13.0","","64","","23","","10","","24.1","","101.33","","","","-12","","Mainly Clear"
"2014-01-09 14:00","2014","01","09","14:00","-6.6","","-12.9","","61","","19","","9","","24.1","","101.25","","","","-11","","NA"
"2014-01-09 15:00","2014","01","09","15:00","-6.3","","-12.2","","63","","17","","8","","24.1","","101.19","","","","-10","","NA"
"2014-01-09 16:00","2014","01","09","16:00","-6.9","","-12.4","","65","","14","","12","","24.1","","101.19","","","","-12","","Mostly Cloudy"
"2014-01-09 17:00","2014","01","09","17:00","-7.5","","-12.6","","67","","16","","6","","24.1","","101.16","","","","-11","","NA"
"2014-01-09 18:00","2014","01","09","18:00","-7.7","","-11.9","","72","","17","","4","","24.1","","101.14","","","","-10","","NA"
"2014-01-09 19:00","2014","01","09","19:00","-7.8","","-11.8","","73","","15","","4","","24.1","","101.06","","","","-10","","Mostly Cloudy"
"2014-01-09 20:00","2014","01","09","20:00","-7.7","","-11.4","","75","","2","","4","","24.1","","100.95","","","","-10","","NA"
"2014-01-09 21:00","2014","01","09","21:00","-8.6","","-11.9","","77","","25","","5","","24.1","","100.90","","","","-11","","NA"
"2014-01-09 22:00","2014","01","09","22:00","-8.7","","-12.0","","77","","26","","5","","24.1","","100.84","","","","-11","","Mainly Clear"
"2014-01-09 23:00","2014","01","09","23:00","-8.2","","-11.2","","79","","26","","4","","24.1","","100.76","","","","-10","","NA"
"2014-01-10 00:00","2014","01","10","00:00","-7.9","","-10.5","","82","","31","","8","","16.1","","100.70","","","","-12","","Snow Showers"
"2014-01-10 01:00","2014","01","10","01:00","-8.1","","-9.9","","87","","3","","4","","4.0","","100.62","","","","-10","","Snow"
"2014-01-10 02:00","2014","01","10","02:00","-7.8","","-9.2","","90","","1","","4","","4.0","","100.59","","","","-10","","Snow"
"2014-01-10 03:00","2014","01","10","03:00","-7.5","","-8.7","","91","","3","","5","","4.0","","100.58","","","","-10","","Snow"
"2014-01-10 04:00","2014","01","10","04:00","-7.0","","-8.2","","91","","5","","4","","9.7","","100.48","","","","-9","","Snow"
"2014-01-10 05:00","2014","01","10","05:00","-6.5","","-7.7","","91","","36","","2","","6.4","","100.43","","","","-7","","Snow"
"2014-01-10 06:00","2014","01","10","06:00","-5.9","","-6.9","","93","","32","","2","","6.4","","100.38","","","","-7","","Snow"
"2014-01-10 07:00","2014","01","10","07:00","-6.1","","-7.2","","92","","29","","4","","3.6","","100.34","","","","-8","","Snow"
"2014-01-10 08:00","2014","01","10","08:00","-4.9","","-6.0","","92","","26","","3","","3.6","","100.35","","","","-6","","Snow"
"2014-01-10 09:00","2014","01","10","09:00","-3.9","","-5.2","","91","","2","","6","","2.4","","100.35","","","","-7","","Snow,Fog"
"2014-01-10 10:00","2014","01","10","10:00","-3.0","","-4.4","","90","","17","","1","","2.0","","100.34","","","","-3","","Fog"
"2014-01-10 11:00","2014","01","10","11:00","-1.8","","-2.9","","92","","16","","5","","2.0","","100.30","","","","-4","","Fog"
"2014-01-10 12:00","2014","01","10","12:00","-1.1","","-2.2","","92","","17","","8","","3.2","","100.17","","","","-4","","Fog"
"2014-01-10 13:00","2014","01","10","13:00","-0.6","","-1.6","","93","","18","","6","","1.6","","100.07","","","","-3","","Fog"
"2014-01-10 14:00","2014","01","10","14:00","-0.4","","-1.4","","93","","17","","10","","1.6","","100.00","","","","-4","","Fog"
"2014-01-10 15:00","2014","01","10","15:00","0.2","","-1.0","","92","","14","","7","","2.4","","99.93","","","","","","Fog"
"2014-01-10 16:00","2014","01","10","16:00","0.5","","-0.4","","94","","13","","8","","1.6","","99.87","","","","","","Fog"
"2014-01-10 17:00","2014","01","10","17:00","0.9","","-0.1","","93","","13","","9","","4.8","","99.84","","","","","","Fog"
"2014-01-10 18:00","2014","01","10","18:00","1.4","","0.5","","94","","14","","12","","6.4","","99.77","","","","","","Fog"
"2014-01-10 19:00","2014","01","10","19:00","1.8","","0.8","","93","","15","","9","","6.4","","99.71","","","","","","Fog"
"2014-01-10 20:00","2014","01","10","20:00","2.2","","1.2","","93","","12","","9","","8.1","","99.60","","","","","","Fog"
"2014-01-10 21:00","2014","01","10","21:00","2.3","","0.8","","90","","11","","10","","19.3","","99.45","","","","","","NA"
"2014-01-10 22:00","2014","01","10","22:00","2.5","","1.0","","90","","12","","11","","19.3","","99.35","","","","","","Cloudy"
"2014-01-10 23:00","2014","01","10","23:00","2.5","","1.2","","91","","10","","10","","19.3","","99.19","","","","","","NA"
"2014-01-11 00:00","2014","01","11","00:00","2.3","","1.1","","92","","9","","8","","9.7","","99.02","","","","","","Fog"
"2014-01-11 01:00","2014","01","11","01:00","2.2","","1.3","","94","","7","","3","","4.8","","98.86","","","","","","Rain,Fog"
"2014-01-11 02:00","2014","01","11","02:00","2.3","","1.7","","96","","10","","7","","4.0","","98.65","","","","","","Rain,Fog"
"2014-01-11 03:00","2014","01","11","03:00","2.8","","2.2","","96","","10","","18","","4.8","","98.47","","","","","","Rain,Fog"
"2014-01-11 04:00","2014","01","11","04:00","3.5","","3.1","","97","","12","","13","","4.0","","98.28","","","","","","Rain,Fog"
"2014-01-11 05:00","2014","01","11","05:00","3.6","","3.2","","97","","15","","13","","4.0","","98.16","","","","","","Rain,Fog"
"2014-01-11 06:00","2014","01","11","06:00","3.5","","3.1","","97","","14","","16","","2.4","","97.99","","","","","","Rain,Fog"
"2014-01-11 07:00","2014","01","11","07:00","3.0","","2.6","","97","","17","","9","","4.0","","97.93","","","","","","Rain,Fog"
"2014-01-11 08:00","2014","01","11","08:00","3.3","","2.9","","97","","15","","9","","1.6","","97.82","","","","","","Rain,Drizzle,Fog"
"2014-01-11 09:00","2014","01","11","09:00","3.8","","3.4","","97","","15","","9","","0.8","","97.72","","","","","","Drizzle,Fog"
"2014-01-11 10:00","2014","01","11","10:00","4.3","","3.9","","97","","16","","13","","0.2","","97.61","","","","","","Fog"
"2014-01-11 11:00","2014","01","11","11:00","4.3","","3.9","","97","","15","","10","","0.2","","97.53","","","","","","Fog"
"2014-01-11 12:00","2014","01","11","12:00","4.6","","4.3","","98","","15","","10","","0.2","","97.26","","","","","","Fog"
"2014-01-11 13:00","2014","01","11","13:00","5.0","","4.7","","98","","15","","10","","0.4","","97.05","","","","","","Drizzle,Fog"
"2014-01-11 14:00","2014","01","11","14:00","5.5","","5.2","","98","","18","","12","","0.2","","96.89","","","","","","Rain,Drizzle,Fog"
"2014-01-11 15:00","2014","01","11","15:00","6.6","","6.3","","98","","21","","17","","11.3","","96.77","","","","","","Rain"
"2014-01-11 16:00","2014","01","11","16:00","4.8","","4.4","","97","","25","","23","","24.1","","96.85","","","","","","Rain"
"2014-01-11 17:00","2014","01","11","17:00","4.5","","3.5","","93","","23","","18","","24.1","","97.00","","","","","","NA"
"2014-01-11 18:00","2014","01","11","18:00","3.8","","2.5","","91","","26","","26","","19.3","","97.05","","","","","","Rain Showers"
"2014-01-11 19:00","2014","01","11","19:00","2.9","","1.1","","88","","26","","26","","24.1","","97.06","","","","","","Mostly Cloudy"
"2014-01-11 20:00","2014","01","11","20:00","3.2","","0.3","","81","","26","","36","","24.1","","97.18","","","","","","NA"
"2014-01-11 21:00","2014","01","11","21:00","2.5","","-0.6","","80","","26","","33","","24.1","","97.32","","","","","","NA"
"2014-01-11 22:00","2014","01","11","22:00","2.1","","-0.7","","82","","26","","26","","24.1","","97.46","","","","","","Cloudy"
"2014-01-11 23:00","2014","01","11","23:00","1.9","","-0.9","","82","","27","","22","","24.1","","97.63","","","","","","NA"
"2014-01-12 00:00","2014","01","12","00:00","1.9","","-1.5","","78","","27","","29","","24.1","","97.70","","","","","","NA"
"2014-01-12 01:00","2014","01","12","01:00","1.6","","-1.3","","81","","25","","23","","24.1","","97.78","","","","","","Cloudy"
"2014-01-12 02:00","2014","01","12","02:00","1.4","","-1.7","","80","","27","","34","","24.1","","97.91","","","","","","NA"
"2014-01-12 03:00","2014","01","12","03:00","1.1","","-1.6","","82","","26","","33","","24.1","","98.03","","","","","","NA"
"2014-01-12 04:00","2014","01","12","04:00","1.1","","-1.8","","81","","27","","32","","24.1","","98.10","","","","","","Cloudy"
"2014-01-12 05:00","2014","01","12","05:00","1.0","","-2.2","","79","","28","","38","","24.1","","98.23","","","","","","NA"
"2014-01-12 06:00","2014","01","12","06:00","1.1","","-2.3","","78","","27","","30","","24.1","","98.33","","","","","","NA"
"2014-01-12 07:00","2014","01","12","07:00","1.1","","-2.5","","77","","28","","26","","24.1","","98.46","","","","","","Cloudy"
"2014-01-12 08:00","2014","01","12","08:00","1.1","","-2.8","","75","","28","","23","","24.1","","98.61","","","","","","NA"
"2014-01-12 09:00","2014","01","12","09:00","1.2","","-3.1","","73","","28","","37","","24.1","","98.71","","","","","","NA"
"2014-01-12 10:00","2014","01","12","10:00","1.2","","-2.7","","75","","26","","22","","24.1","","98.80","","","","","","Cloudy"
"2014-01-12 11:00","2014","01","12","11:00","1.6","","-2.5","","74","","26","","23","","24.1","","98.89","","","","","","NA"
"2014-01-12 12:00","2014","01","12","12:00","1.6","","-2.5","","74","","26","","26","","24.1","","98.94","","","","","","NA"
"2014-01-12 13:00","2014","01","12","13:00","1.7","","-2.6","","73","","26","","27","","24.1","","98.92","","","","","","Cloudy"
"2014-01-12 14:00","2014","01","12","14:00","1.7","","-2.8","","72","","26","","25","","24.1","","98.91","","","","","","NA"
"2014-01-12 15:00","2014","01","12","15:00","2.1","","-3.0","","69","","26","","24","","24.1","","99.01","","","","","","NA"
"2014-01-12 16:00","2014","01","12","16:00","1.3","","-3.0","","73","","25","","16","","24.1","","99.05","","","","","","Clear"
"2014-01-12 17:00","2014","01","12","17:00","1.3","","-3.4","","71","","23","","17","","24.1","","99.11","","","","","","NA"
"2014-01-12 18:00","2014","01","12","18:00","1.5","","-3.0","","72","","20","","15","","24.1","","99.19","","","","","","NA"
"2014-01-12 19:00","2014","01","12","19:00","0.9","","-2.5","","78","","21","","19","","24.1","","99.20","","","","","","Mainly Clear"
"2014-01-12 20:00","2014","01","12","20:00","0.6","","-2.6","","79","","21","","23","","24.1","","99.14","","","","","","NA"
"2014-01-12 21:00","2014","01","12","21:00","0.5","","-2.7","","79","","20","","13","","24.1","","99.07","","","","","","NA"
"2014-01-12 22:00","2014","01","12","22:00","0.8","","-2.6","","78","","21","","27","","24.1","","99.08","","","","","","Mainly Clear"
"2014-01-12 23:00","2014","01","12","23:00","1.0","","-2.6","","77","","19","","18","","24.1","","99.00","","","","","","NA"
"2014-01-13 00:00","2014","01","13","00:00","0.9","","-2.7","","77","","19","","15","","24.1","","99.02","","","","","","NA"
"2014-01-13 01:00","2014","01","13","01:00","0.7","","-2.5","","79","","19","","11","","24.1","","99.01","","","","","","Mainly Clear"
"2014-01-13 02:00","2014","01","13","02:00","0.7","","-2.4","","80","","17","","12","","24.1","","98.94","","","","","","NA"
"2014-01-13 03:00","2014","01","13","03:00","0.9","","-2.2","","80","","17","","10","","24.1","","98.93","","","","","","NA"
"2014-01-13 04:00","2014","01","13","04:00","0.7","","-2.0","","82","","16","","6","","24.1","","98.88","","","","","","Clear"
"2014-01-13 05:00","2014","01","13","05:00","0.9","","-1.8","","82","","16","","9","","24.1","","98.78","","","","","","NA"
"2014-01-13 06:00","2014","01","13","06:00","1.5","","-1.8","","79","","16","","8","","24.1","","98.68","","","","","","NA"
"2014-01-13 07:00","2014","01","13","07:00","1.6","","-1.5","","80","","13","","6","","24.1","","98.66","","","","","","Mostly Cloudy"
"2014-01-13 08:00","2014","01","13","08:00","2.1","","-1.7","","76","","16","","7","","24.1","","98.60","","","","","","NA"
"2014-01-13 09:00","2014","01","13","09:00","2.9","","-1.8","","71","","16","","8","","24.1","","98.61","","","","","","NA"
"2014-01-13 10:00","2014","01","13","10:00","4.3","","-1.1","","68","","18","","10","","24.1","","98.59","","","","","","Cloudy"
"2014-01-13 11:00","2014","01","13","11:00","5.1","","-0.7","","66","","18","","14","","24.1","","98.49","","","","","","NA"
"2014-01-13 12:00","2014","01","13","12:00","6.1","","-0.4","","63","","18","","15","","24.1","","98.35","","","","","","Rain Showers"
"2014-01-13 13:00","2014","01","13","13:00","6.9","","-0.5","","59","","20","","22","","24.1","","98.28","","","","","","Cloudy"
"2014-01-13 14:00","2014","01","13","14:00","7.4","","-0.3","","58","","20","","18","","24.1","","98.22","","","","","","NA"
"2014-01-13 15:00","2014","01","13","15:00","7.1","","-0.4","","59","","19","","15","","24.1","","98.17","","","","","","NA"
"2014-01-13 16:00","2014","01","13","16:00","6.6","","1.7","","71","","21","","27","","24.1","","98.25","","","","","","Cloudy"
"2014-01-13 17:00","2014","01","13","17:00","6.4","","2.1","","74","","20","","22","","24.1","","98.21","","","","","","Rain Showers"
"2014-01-13 18:00","2014","01","13","18:00","6.8","","2.1","","72","","20","","27","","19.3","","98.20","","","","","","NA"
"2014-01-13 19:00","2014","01","13","19:00","6.3","","2.6","","77","","20","","18","","24.1","","98.21","","","","","","Mostly Cloudy"
"2014-01-13 20:00","2014","01","13","20:00","5.8","","3.2","","83","","21","","23","","19.3","","98.22","","","","","","Rain Showers"
"2014-01-13 21:00","2014","01","13","21:00","5.3","","3.5","","88","","21","","18","","19.3","","98.20","","","","","","Rain Showers"
"2014-01-13 22:00","2014","01","13","22:00","5.1","","3.8","","91","","19","","16","","19.3","","98.18","","","","","","Rain Showers"
"2014-01-13 23:00","2014","01","13","23:00","5.1","","3.8","","91","","21","","17","","24.1","","98.18","","","","","","NA"
"2014-01-14 00:00","2014","01","14","00:00","4.6","","3.3","","91","","22","","10","","24.1","","98.17","","","","","","NA"
"2014-01-14 01:00","2014","01","14","01:00","4.1","","2.9","","92","","21","","11","","24.1","","98.17","","","","","","Mostly Cloudy"
"2014-01-14 02:00","2014","01","14","02:00","3.9","","2.7","","92","","20","","8","","24.1","","98.20","","","","","","NA"
"2014-01-14 03:00","2014","01","14","03:00","3.7","","2.4","","91","","25","","14","","24.1","","98.28","","","","","","NA"
"2014-01-14 04:00","2014","01","14","04:00","3.1","","0.5","","83","","28","","17","","24.1","","98.26","","","","","","Mostly Cloudy"
"2014-01-14 05:00","2014","01","14","05:00","2.3","","0.2","","86","","30","","9","","24.1","","98.31","","","","","","NA"
"2014-01-14 06:00","2014","01","14","06:00","1.5","","-0.3","","88","","31","","7","","24.1","","98.37","","","","","","NA"
"2014-01-14 07:00","2014","01","14","07:00","0.8","","-1.0","","88","","26","","13","","24.1","","98.49","","","","","","Mostly Cloudy"
"2014-01-14 08:00","2014","01","14","08:00","0.0","","-1.9","","87","","26","","12","","9.7","","98.54","","","","-4","","Fog"
"2014-01-14 09:00","2014","01","14","09:00","1.7","","-0.6","","85","","32","","8","","12.9","","98.64","","","","","","NA"
"2014-01-14 10:00","2014","01","14","10:00","1.5","","-0.6","","86","","34","","4","","16.1","","98.70","","","","","","Cloudy"
"2014-01-14 11:00","2014","01","14","11:00","1.9","","-0.7","","83","","36","","4","","16.1","","98.68","","","","","","NA"
"2014-01-14 12:00","2014","01","14","12:00","2.0","","-1.1","","80","","31","","5","","19.3","","98.72","","","","","","NA"
"2014-01-14 13:00","2014","01","14","13:00","3.7","","-1.7","","68","","24","","3","","24.1","","98.64","","","","","","Mostly Cloudy"
"2014-01-14 14:00","2014","01","14","14:00","3.2","","-1.2","","73","","32","","8","","24.1","","98.67","","","","","","NA"
"2014-01-14 15:00","2014","01","14","15:00","3.4","","-2.0","","68","","30","","8","","24.1","","98.66","","","","","","NA"
"2014-01-14 16:00","2014","01","14","16:00","2.8","","-2.7","","67","","25","","10","","24.1","","98.67","","","","","","Mainly Clear"
"2014-01-14 17:00","2014","01","14","17:00","2.2","","-3.9","","64","","23","","13","","24.1","","98.70","","","","","","NA"
"2014-01-14 18:00","2014","01","14","18:00","1.9","","-3.6","","67","","22","","12","","24.1","","98.77","","","","","","NA"
"2014-01-14 19:00","2014","01","14","19:00","1.0","","-3.7","","71","","20","","11","","24.1","","98.79","","","","","","Mainly Clear"
"2014-01-14 20:00","2014","01","14","20:00","0.6","","-3.9","","72","","18","","6","","24.1","","98.75","","","","","","NA"
"2014-01-14 21:00","2014","01","14","21:00","0.1","","-3.3","","78","","18","","8","","24.1","","98.77","","","","","","NA"
"2014-01-14 22:00","2014","01","14","22:00","0.0","","-2.6","","83","","16","","8","","24.1","","98.75","","","","-3","","Mostly Cloudy"
"2014-01-14 23:00","2014","01","14","23:00","0.1","","-2.0","","86","","15","","8","","24.1","","98.70","","","","","","NA"
"2014-01-15 00:00","2014","01","15","00:00","0.1","","-1.5","","89","","14","","10","","19.3","","98.63","","","","","","NA"
"2014-01-15 01:00","2014","01","15","01:00","0.2","","-1.4","","89","","16","","11","","12.9","","98.59","","","","","","Snow Showers"
"2014-01-15 02:00","2014","01","15","02:00","0.0","","-1.8","","88","","15","","12","","19.3","","98.55","","","","-4","","NA"
"2014-01-15 03:00","2014","01","15","03:00","0.0","","-1.9","","87","","15","","8","","19.3","","98.54","","","","-3","","NA"
"2014-01-15 04:00","2014","01","15","04:00","0.1","","-1.5","","89","","18","","9","","19.3","","98.55","","","","","","Mostly Cloudy"
"2014-01-15 05:00","2014","01","15","05:00","0.6","","-2.3","","81","","21","","21","","24.1","","98.58","","","","","","NA"
"2014-01-15 06:00","2014","01","15","06:00","-0.6","","-5.8","","68","","23","","23","","24.1","","98.65","","","","-6","","NA"
"2014-01-15 07:00","2014","01","15","07:00","-0.9","","-7.7","","60","","24","","42","","24.1","","98.73","","","","-9","","Cloudy"
"2014-01-15 08:00","2014","01","15","08:00","-0.9","","-6.5","","66","","22","","30","","24.1","","98.80","","","","-8","","NA"
"2014-01-15 09:00","2014","01","15","09:00","-1.1","","-7.5","","62","","22","","34","","24.1","","98.87","","","","-8","","NA"
"2014-01-15 10:00","2014","01","15","10:00","-1.6","","-9.1","","57","","22","","40","","24.1","","98.96","","","","-10","","Mostly Cloudy"
"2014-01-15 11:00","2014","01","15","11:00","-1.9","","-7.8","","64","","22","","37","","24.1","","99.02","","","","-10","","NA"
"2014-01-15 12:00","2014","01","15","12:00","-2.0","","-6.8","","70","","22","","29","","24.1","","98.99","","","","-9","","Snow Showers"
"2014-01-15 13:00","2014","01","15","13:00","-1.6","","-6.0","","72","","22","","27","","19.3","","98.98","","","","-8","","Snow Showers"
"2014-01-15 14:00","2014","01","15","14:00","-1.2","","-6.4","","68","","23","","31","","24.1","","98.99","","","","-8","","Snow Showers"
"2014-01-15 15:00","2014","01","15","15:00","-1.3","","-6.1","","70","","26","","27","","24.1","","99.06","","","","-8","","NA"
"2014-01-15 16:00","2014","01","15","16:00","-2.0","","-6.8","","70","","25","","35","","19.3","","99.14","","","","-10","","Snow Showers"
"2014-01-15 17:00","2014","01","15","17:00","-2.3","","-6.3","","74","","25","","17","","24.1","","99.19","","","","-8","","Snow Showers"
"2014-01-15 18:00","2014","01","15","18:00","-2.7","","-7.1","","72","","26","","23","","24.1","","99.26","","","","-9","","Snow Showers"
"2014-01-15 19:00","2014","01","15","19:00","-3.8","","-8.3","","71","","27","","22","","24.1","","99.34","","","","-10","","Cloudy"
"2014-01-15 20:00","2014","01","15","20:00","-4.0","","-8.0","","74","","28","","17","","24.1","","99.40","","","","-10","","NA"
"2014-01-15 21:00","2014","01","15","21:00","-4.2","","-8.7","","71","","28","","19","","24.1","","99.39","","","","-10","","NA"
"2014-01-15 22:00","2014","01","15","22:00","-4.4","","-8.9","","71","","26","","15","","24.1","","99.37","","","","-10","","Mostly Cloudy"
"2014-01-15 23:00","2014","01","15","23:00","-5.3","","-9.2","","74","","24","","11","","24.1","","99.33","","","","-10","","NA"
"2014-01-16 00:00","2014","01","16","00:00","-5.0","","-8.4","","77","","23","","9","","24.1","","99.32","","","","-9","","NA"
"2014-01-16 01:00","2014","01","16","01:00","-4.8","","-7.9","","79","","25","","10","","24.1","","99.31","","","","-9","","Cloudy"
"2014-01-16 02:00","2014","01","16","02:00","-4.8","","-8.1","","78","","26","","11","","24.1","","99.30","","","","-9","","NA"
"2014-01-16 03:00","2014","01","16","03:00","-5.1","","-8.5","","77","","19","","5","","24.1","","99.23","","","","-7","","NA"
"2014-01-16 04:00","2014","01","16","04:00","-5.0","","-8.1","","79","","20","","5","","24.1","","99.21","","","","-7","","Mostly Cloudy"
"2014-01-16 05:00","2014","01","16","05:00","-4.6","","-7.2","","82","","27","","10","","24.1","","99.22","","","","-9","","NA"
"2014-01-16 06:00","2014","01","16","06:00","-4.9","","-7.7","","81","","20","","8","","24.1","","99.18","","","","-8","","Snow Showers"
"2014-01-16 07:00","2014","01","16","07:00","-4.6","","-7.7","","79","","20","","7","","24.1","","99.18","","","","-8","","Mostly Cloudy"
"2014-01-16 08:00","2014","01","16","08:00","-4.4","","-7.8","","77","","18","","10","","24.1","","99.15","","","","-9","","NA"
"2014-01-16 09:00","2014","01","16","09:00","-3.9","","-8.4","","71","","19","","12","","24.1","","99.17","","","","-9","","NA"
"2014-01-16 10:00","2014","01","16","10:00","-2.8","","-7.7","","69","","20","","15","","24.1","","99.18","","","","-8","","Mainly Clear"
"2014-01-16 11:00","2014","01","16","11:00","-2.4","","-8.9","","61","","20","","21","","24.1","","99.15","","","","-8","","NA"
"2014-01-16 12:00","2014","01","16","12:00","-1.6","","-9.1","","57","","17","","25","","24.1","","99.05","","","","-8","","NA"
"2014-01-16 13:00","2014","01","16","13:00","-2.1","","-9.1","","59","","21","","22","","24.1","","98.94","","","","-8","","Mostly Cloudy"
"2014-01-16 14:00","2014","01","16","14:00","-2.4","","-9.4","","59","","19","","22","","24.1","","98.89","","","","-9","","NA"
"2014-01-16 15:00","2014","01","16","15:00","-2.2","","-9.4","","58","","18","","20","","24.1","","98.89","","","","-8","","NA"
"2014-01-16 16:00","2014","01","16","16:00","-2.1","","-8.9","","60","","18","","17","","24.1","","98.90","","","","-7","","Mostly Cloudy"
"2014-01-16 17:00","2014","01","16","17:00","-2.0","","-9.4","","57","","19","","13","","24.1","","98.90","","","","-6","","NA"
"2014-01-16 18:00","2014","01","16","18:00","-2.1","","-8.2","","63","","16","","15","","24.1","","98.88","","","","-7","","Snow"
"2014-01-16 19:00","2014","01","16","19:00","-2.9","","-5.7","","81","","16","","13","","6.4","","98.88","","","","-8","","Snow"
"2014-01-16 20:00","2014","01","16","20:00","-2.7","","-5.0","","84","","17","","14","","6.4","","98.86","","","","-8","","Snow"
"2014-01-16 21:00","2014","01","16","21:00","-2.6","","-4.3","","88","","18","","11","","6.4","","98.87","","","","-7","","Snow"
"2014-01-16 22:00","2014","01","16","22:00","-2.5","","-4.2","","88","","18","","11","","9.7","","98.86","","","","-7","","Snow"
"2014-01-16 23:00","2014","01","16","23:00","-2.4","","-4.0","","89","","17","","15","","8.1","","98.83","","","","-7","","Snow"
"2014-01-17 00:00","2014","01","17","00:00","-2.2","","-3.9","","88","","17","","10","","6.4","","98.78","","","","-6","","Snow"
"2014-01-17 01:00","2014","01","17","01:00","-2.1","","-4.0","","87","","16","","17","","8.1","","98.68","","","","-7","","Snow"
"2014-01-17 02:00","2014","01","17","02:00","-2.2","","-3.3","","92","","16","","13","","3.2","","98.63","","","","-7","","Snow"
"2014-01-17 03:00","2014","01","17","03:00","-1.9","","-2.9","","93","","16","","14","","3.2","","98.61","","","","-7","","Snow"
"2014-01-17 04:00","2014","01","17","04:00","-1.8","","-2.8","","93","","18","","15","","4.0","","98.56","","","","-7","","Snow"
"2014-01-17 05:00","2014","01","17","05:00","-1.6","","-3.0","","90","","18","","16","","19.3","","98.52","","","","-7","","NA"
"2014-01-17 06:00","2014","01","17","06:00","-1.5","","-3.1","","89","","18","","12","","19.3","","98.51","","","","-6","","Snow"
"2014-01-17 07:00","2014","01","17","07:00","-1.1","","-3.2","","86","","17","","14","","16.1","","98.51","","","","-6","","Snow"
"2014-01-17 08:00","2014","01","17","08:00","-0.7","","-2.8","","86","","19","","16","","12.9","","98.53","","","","-5","","Snow"
"2014-01-17 09:00","2014","01","17","09:00","-0.3","","-3.3","","80","","20","","22","","16.1","","98.59","","","","-6","","NA"
"2014-01-17 10:00","2014","01","17","10:00","0.1","","-3.5","","77","","22","","21","","16.1","","98.62","","","","","","Cloudy"
"2014-01-17 11:00","2014","01","17","11:00","0.2","","-3.5","","76","","22","","24","","19.3","","98.65","","","","","","NA"
"2014-01-17 12:00","2014","01","17","12:00","0.3","","-4.0","","73","","22","","26","","19.3","","98.64","","","","","","NA"
"2014-01-17 13:00","2014","01","17","13:00","0.2","","-4.1","","73","","25","","24","","19.3","","98.65","","","","","","Cloudy"
"2014-01-17 14:00","2014","01","17","14:00","0.7","","-4.9","","66","","24","","24","","24.1","","98.67","","","","","","NA"
"2014-01-17 15:00","2014","01","17","15:00","1.1","","-5.4","","62","","24","","18","","24.1","","98.70","","","","","","NA"
"2014-01-17 16:00","2014","01","17","16:00","0.6","","-5.7","","63","","25","","15","","24.1","","98.75","","","","","","Mostly Cloudy"
"2014-01-17 17:00","2014","01","17","17:00","0.5","","-5.8","","63","","23","","16","","24.1","","98.81","","","","","","NA"
"2014-01-17 18:00","2014","01","17","18:00","-0.3","","-5.7","","67","","23","","12","","24.1","","98.85","","","","-4","","NA"
"2014-01-17 19:00","2014","01","17","19:00","-0.8","","-6.4","","66","","24","","14","","24.1","","98.87","","","","-5","","Mostly Cloudy"
"2014-01-17 20:00","2014","01","17","20:00","-1.2","","-6.0","","70","","32","","2","","24.1","","98.86","","","","-2","","NA"
"2014-01-17 21:00","2014","01","17","21:00","-1.2","","-6.4","","68","","22","","1","","24.1","","98.87","","","","-2","","NA"
"2014-01-17 22:00","2014","01","17","22:00","-0.6","","-5.8","","68","","10","","3","","24.1","","98.87","","","","-2","","Mostly Cloudy"
"2014-01-17 23:00","2014","01","17","23:00","-1.1","","-5.7","","71","","29","","6","","24.1","","98.87","","","","-3","","NA"
"2014-01-18 00:00","2014","01","18","00:00","-1.9","","-4.9","","80","","25","","11","","24.1","","98.83","","","","-6","","Snow Showers"
"2014-01-18 01:00","2014","01","18","01:00","-2.8","","-3.9","","92","","29","","8","","9.7","","98.82","","","","-6","","Snow"
"2014-01-18 02:00","2014","01","18","02:00","-2.8","","-4.7","","87","","29","","11","","17.7","","98.83","","","","-7","","Snow"
"2014-01-18 03:00","2014","01","18","03:00","-3.3","","-4.9","","89","","32","","14","","9.7","","98.87","","","","-8","","Snow"
"2014-01-18 04:00","2014","01","18","04:00","-4.0","","-5.4","","90","","28","","10","","9.7","","98.89","","","","-8","","Snow"
"2014-01-18 05:00","2014","01","18","05:00","-3.8","","-6.3","","83","","26","","14","","9.7","","98.89","","","","-9","","Snow"
"2014-01-18 06:00","2014","01","18","06:00","-4.2","","-6.5","","84","","26","","14","","9.7","","98.90","","","","-9","","Snow"
"2014-01-18 07:00","2014","01","18","07:00","-4.4","","-7.2","","81","","25","","17","","16.1","","98.95","","","","-10","","Snow"
"2014-01-18 08:00","2014","01","18","08:00","-4.8","","-7.6","","81","","26","","19","","8.1","","98.95","","","","-11","","Snow"
"2014-01-18 09:00","2014","01","18","09:00","-5.0","","-8.1","","79","","26","","22","","8.1","","98.98","","","","-12","","Snow"
"2014-01-18 10:00","2014","01","18","10:00","-5.1","","-8.4","","78","","26","","26","","9.7","","99.02","","","","-13","","Mostly Cloudy"
"2014-01-18 11:00","2014","01","18","11:00","-4.6","","-8.9","","72","","25","","28","","19.3","","99.05","","","","-12","","NA"
"2014-01-18 12:00","2014","01","18","12:00","-3.9","","-9.0","","68","","28","","30","","19.3","","99.01","","","","-12","","Blowing Snow"
"2014-01-18 13:00","2014","01","18","13:00","-4.0","","-9.3","","67","","25","","28","","19.3","","98.99","","","","-11","","Blowing Snow"
"2014-01-18 14:00","2014","01","18","14:00","-4.4","","-9.5","","68","","26","","33","","24.1","","98.99","","","","-13","","Blowing Snow"
"2014-01-18 15:00","2014","01","18","15:00","-3.8","","-8.9","","68","","25","","23","","24.1","","99.02","","","","-11","","Blowing Snow"
"2014-01-18 16:00","2014","01","18","16:00","-5.1","","-9.9","","69","","23","","23","","24.1","","99.06","","","","-12","","Mostly Cloudy"
"2014-01-18 17:00","2014","01","18","17:00","-6.3","","-10.4","","73","","24","","24","","19.3","","99.11","","","","-14","","NA"
"2014-01-18 18:00","2014","01","18","18:00","-7.3","","-11.2","","74","","25","","22","","24.1","","99.10","","","","-15","","NA"
"2014-01-18 19:00","2014","01","18","19:00","-8.2","","-11.9","","75","","24","","17","","24.1","","99.11","","","","-15","","Mostly Cloudy"
"2014-01-18 20:00","2014","01","18","20:00","-8.3","","-11.7","","77","","24","","20","","24.1","","99.06","","","","-16","","NA"
"2014-01-18 21:00","2014","01","18","21:00","-8.3","","-11.5","","78","","24","","25","","24.1","","99.03","","","","-17","","NA"
"2014-01-18 22:00","2014","01","18","22:00","-7.4","","-10.6","","78","","24","","24","","19.3","","98.99","","","","-15","","Mostly Cloudy"
"2014-01-18 23:00","2014","01","18","23:00","-7.4","","-10.9","","76","","23","","20","","19.3","","98.94","","","","-15","","NA"
"2014-01-19 00:00","2014","01","19","00:00","-8.2","","-11.7","","76","","22","","19","","19.3","","98.86","","","","-15","","NA"
"2014-01-19 01:00","2014","01","19","01:00","-8.4","","-11.7","","77","","24","","17","","19.3","","98.80","","","","-15","","Mostly Cloudy"
"2014-01-19 02:00","2014","01","19","02:00","-8.3","","-12.0","","75","","22","","14","","19.3","","98.71","","","","-14","","NA"
"2014-01-19 03:00","2014","01","19","03:00","-8.6","","-11.9","","77","","22","","12","","19.3","","98.68","","","","-14","","NA"
"2014-01-19 04:00","2014","01","19","04:00","-8.6","","-11.5","","80","","22","","11","","19.3","","98.55","","","","-14","","Snow Showers"
"2014-01-19 05:00","2014","01","19","05:00","-8.4","","-11.3","","80","","22","","17","","16.1","","98.47","","","","-15","","Snow Showers"
"2014-01-19 06:00","2014","01","19","06:00","-8.2","","-10.9","","81","","23","","14","","19.3","","98.41","","","","-14","","Snow Showers"
"2014-01-19 07:00","2014","01","19","07:00","-8.0","","-10.6","","82","","23","","18","","19.3","","98.33","","","","-15","","Snow Showers"
"2014-01-19 08:00","2014","01","19","08:00","-7.2","","-10.3","","79","","23","","31","","19.3","","98.21","","","","-16","","NA"
"2014-01-19 09:00","2014","01","19","09:00","-6.7","","-9.8","","79","","22","","24","","16.1","","98.10","","","","-14","","Snow"
"2014-01-19 10:00","2014","01","19","10:00","-5.7","","-9.3","","76","","23","","29","","19.3","","98.00","","","","-14","","Cloudy"
"2014-01-19 11:00","2014","01","19","11:00","-4.8","","-9.1","","72","","22","","34","","19.3","","97.84","","","","-13","","Blowing Snow"
"2014-01-19 12:00","2014","01","19","12:00","-4.2","","-8.2","","74","","22","","35","","4.8","","97.71","","","","-13","","Snow Showers,Blowing Snow"
"2014-01-19 13:00","2014","01","19","13:00","-4.1","","-6.9","","81","","23","","35","","3.2","","97.64","","","","-12","","Snow Showers,Blowing Snow"
"2014-01-19 14:00","2014","01","19","14:00","-4.1","","-6.7","","82","","23","","32","","4.0","","97.57","","","","-12","","Snow Showers,Blowing Snow"
"2014-01-19 15:00","2014","01","19","15:00","-3.7","","-7.0","","78","","23","","35","","8.1","","97.60","","","","-12","","Snow Showers,Blowing Snow"
"2014-01-19 16:00","2014","01","19","16:00","-3.5","","-7.0","","77","","24","","34","","16.1","","97.64","","","","-11","","Blowing Snow"
"2014-01-19 17:00","2014","01","19","17:00","-3.2","","-6.3","","79","","24","","35","","8.1","","97.70","","","","-11","","Snow,Blowing Snow"
"2014-01-19 18:00","2014","01","19","18:00","-2.7","","-6.0","","78","","24","","33","","9.7","","97.83","","","","-10","","Snow,Blowing Snow"
"2014-01-19 19:00","2014","01","19","19:00","-3.1","","-5.6","","83","","24","","30","","8.1","","97.89","","","","-11","","Snow,Blowing Snow"
"2014-01-19 20:00","2014","01","19","20:00","-3.4","","-5.9","","83","","23","","28","","8.1","","97.90","","","","-11","","Snow,Blowing Snow"
"2014-01-19 21:00","2014","01","19","21:00","-3.5","","-5.7","","85","","22","","29","","9.7","","97.90","","","","-11","","Snow,Blowing Snow"
"2014-01-19 22:00","2014","01","19","22:00","-3.3","","-5.6","","84","","25","","35","","19.3","","97.94","","","","-11","","Blowing Snow"
"2014-01-19 23:00","2014","01","19","23:00","-2.9","","-5.9","","80","","25","","29","","19.3","","97.89","","","","-10","","NA"
"2014-01-20 00:00","2014","01","20","00:00","-2.8","","-5.6","","81","","24","","22","","19.3","","97.85","","","","-9","","NA"
"2014-01-20 01:00","2014","01","20","01:00","-2.8","","-5.5","","82","","24","","17","","14.5","","97.80","","","","-8","","Snow"
"2014-01-20 02:00","2014","01","20","02:00","-2.7","","-5.2","","83","","25","","15","","14.5","","97.75","","","","-8","","Snow"
"2014-01-20 03:00","2014","01","20","03:00","-2.7","","-4.7","","86","","25","","11","","9.7","","97.78","","","","-7","","Snow"
"2014-01-20 04:00","2014","01","20","04:00","-2.8","","-4.5","","88","","24","","13","","8.1","","97.78","","","","-7","","Snow"
"2014-01-20 05:00","2014","01","20","05:00","-5.0","","-6.5","","89","","34","","16","","2.4","","97.88","","","","-11","","Snow"
"2014-01-20 06:00","2014","01","20","06:00","-5.3","","-8.1","","81","","34","","24","","24.1","","97.97","","","","-13","","NA"
"2014-01-20 07:00","2014","01","20","07:00","-6.8","","-9.9","","79","","35","","33","","24.1","","98.15","","","","-16","","Cloudy"
"2014-01-20 08:00","2014","01","20","08:00","-8.5","","-12.2","","75","","34","","29","","24.1","","98.29","","","","-17","","Blowing Snow"
"2014-01-20 09:00","2014","01","20","09:00","-9.4","","-13.4","","73","","34","","26","","24.1","","98.41","","","","-18","","Blowing Snow"
"2014-01-20 10:00","2014","01","20","10:00","-9.7","","-14.4","","69","","34","","30","","24.1","","98.49","","","","-19","","Blowing Snow"
"2014-01-20 11:00","2014","01","20","11:00","-9.5","","-14.6","","67","","35","","27","","24.1","","98.64","","","","-18","","Blowing Snow"
"2014-01-20 12:00","2014","01","20","12:00","-10.3","","-14.8","","70","","35","","20","","24.1","","98.68","","","","-18","","NA"
"2014-01-20 13:00","2014","01","20","13:00","-10.4","","-15.6","","66","","34","","22","","24.1","","98.73","","","","-19","","Mostly Cloudy"
"2014-01-20 14:00","2014","01","20","14:00","-9.6","","-15.8","","61","","34","","19","","24.1","","98.83","","","","-17","","NA"
"2014-01-20 15:00","2014","01","20","15:00","-9.9","","-16.7","","58","","32","","19","","24.1","","98.93","","","","-18","","NA"
"2014-01-20 16:00","2014","01","20","16:00","-11.0","","-16.7","","63","","35","","19","","24.1","","99.09","","","","-19","","Mainly Clear"
"2014-01-20 17:00","2014","01","20","17:00","-11.8","","-17.7","","62","","36","","21","","24.1","","99.23","","","","-20","","NA"
"2014-01-20 18:00","2014","01","20","18:00","-12.2","","-18.5","","60","","34","","17","","24.1","","99.33","","","","-20","","NA"
"2014-01-20 19:00","2014","01","20","19:00","-12.8","","-19.3","","59","","34","","18","","24.1","","99.45","","","","-21","","Mainly Clear"
"2014-01-20 20:00","2014","01","20","20:00","-13.2","","-19.4","","60","","33","","17","","24.1","","99.49","","","","-21","","NA"
"2014-01-20 21:00","2014","01","20","21:00","-14.6","","-19.1","","69","","2","","14","","24.1","","99.58","","","","-22","","NA"
"2014-01-20 22:00","2014","01","20","22:00","-15.0","","-19.0","","72","","1","","15","","24.1","","99.63","","","","-23","","Mostly Cloudy"
"2014-01-20 23:00","2014","01","20","23:00","-15.7","","-19.7","","72","","1","","14","","24.1","","99.67","","","","-23","","NA"
"2014-01-21 00:00","2014","01","21","00:00","-16.4","","-20.5","","71","","1","","17","","24.1","","99.76","","","","-25","","NA"
"2014-01-21 01:00","2014","01","21","01:00","-17.3","","-22.6","","64","","2","","25","","24.1","","99.74","","","","-28","","Mostly Cloudy"
"2014-01-21 02:00","2014","01","21","02:00","-18.2","","-23.3","","65","","1","","20","","24.1","","99.76","","","","-28","","NA"
"2014-01-21 03:00","2014","01","21","03:00","-18.9","","-24.5","","62","","1","","19","","24.1","","99.81","","","","-29","","NA"
"2014-01-21 04:00","2014","01","21","04:00","-19.5","","-24.5","","65","","36","","14","","24.1","","99.85","","","","-28","","Clear"
"2014-01-21 05:00","2014","01","21","05:00","-19.9","","-24.6","","67","","36","","15","","24.1","","99.87","","","","-29","","NA"
"2014-01-21 06:00","2014","01","21","06:00","-20.2","","-24.9","","67","","36","","18","","24.1","","99.87","","","","-30","","NA"
"2014-01-21 07:00","2014","01","21","07:00","-20.7","","-25.0","","69","","36","","22","","24.1","","99.88","","","","-32","","Mainly Clear"
"2014-01-21 08:00","2014","01","21","08:00","-21.2","","-25.6","","68","","36","","21","","24.1","","99.95","","","","-32","","NA"
"2014-01-21 09:00","2014","01","21","09:00","-20.7","","-25.3","","67","","1","","13","","24.1","","100.06","","","","-29","","NA"
"2014-01-21 10:00","2014","01","21","10:00","-19.5","","-24.5","","65","","35","","15","","24.1","","100.11","","","","-28","","Mostly Cloudy"
"2014-01-21 11:00","2014","01","21","11:00","-19.0","","-25.2","","59","","1","","8","","24.1","","100.11","","","","-25","","NA"
"2014-01-21 12:00","2014","01","21","12:00","-18.3","","-24.7","","58","","34","","18","","24.1","","100.05","","","","-28","","NA"
"2014-01-21 13:00","2014","01","21","13:00","-17.5","","-24.3","","56","","35","","14","","24.1","","99.99","","","","-26","","Mainly Clear"
"2014-01-21 14:00","2014","01","21","14:00","-17.5","","-24.5","","55","","35","","17","","24.1","","99.95","","","","-27","","NA"
"2014-01-21 15:00","2014","01","21","15:00","-17.1","","-24.4","","54","","35","","17","","24.1","","99.93","","","","-26","","NA"
"2014-01-21 16:00","2014","01","21","16:00","-17.3","","-24.8","","53","","34","","23","","24.1","","99.95","","","","-28","","Clear"
"2014-01-21 17:00","2014","01","21","17:00","-17.9","","-25.1","","54","","35","","23","","24.1","","99.99","","","","-29","","NA"
"2014-01-21 18:00","2014","01","21","18:00","-18.5","","-23.9","","63","","1","","20","","24.1","","100.02","","","","-29","","NA"
"2014-01-21 19:00","2014","01","21","19:00","-18.8","","-23.3","","68","","1","","15","","24.1","","100.02","","","","-28","","Clear"
"2014-01-21 20:00","2014","01","21","20:00","-19.2","","-23.4","","70","","36","","12","","24.1","","100.04","","","","-27","","NA"
"2014-01-21 21:00","2014","01","21","21:00","-19.3","","-23.3","","71","","34","","21","","24.1","","100.05","","","","-30","","NA"
"2014-01-21 22:00","2014","01","21","22:00","-19.8","","-24.3","","68","","34","","23","","24.1","","100.02","","","","-31","","Clear"
"2014-01-21 23:00","2014","01","21","23:00","-20.3","","-24.6","","69","","34","","14","","24.1","","100.05","","","","-29","","NA"
"2014-01-22 00:00","2014","01","22","00:00","-20.7","","-25.3","","67","","34","","18","","24.1","","100.04","","","","-31","","NA"
"2014-01-22 01:00","2014","01","22","01:00","-21.2","","-25.8","","67","","35","","16","","24.1","","99.98","","","","-31","","Clear"
"2014-01-22 02:00","2014","01","22","02:00","-21.6","","-26.0","","68","","36","","18","","24.1","","99.94","","","","-32","","NA"
"2014-01-22 03:00","2014","01","22","03:00","-21.7","","-26.1","","68","","34","","15","","24.1","","99.93","","","","-31","","NA"
"2014-01-22 04:00","2014","01","22","04:00","-22.1","","-26.4","","69","","34","","16","","24.1","","99.90","","","","-32","","Clear"
"2014-01-22 05:00","2014","01","22","05:00","-22.7","","-26.9","","69","","36","","15","","24.1","","99.89","","","","-32","","NA"
"2014-01-22 06:00","2014","01","22","06:00","-23.1","","-27.0","","71","","36","","13","","24.1","","99.89","","","","-32","","NA"
"2014-01-22 07:00","2014","01","22","07:00","-22.7","","-26.6","","71","","34","","12","","24.1","","99.90","","","","-31","","Mainly Clear"
"2014-01-22 08:00","2014","01","22","08:00","-22.7","","-26.6","","71","","33","","16","","24.1","","99.86","","","","-33","","NA"
"2014-01-22 09:00","2014","01","22","09:00","-21.9","","-26.0","","70","","1","","9","","24.1","","99.85","","","","-29","","NA"
"2014-01-22 10:00","2014","01","22","10:00","-20.6","","-25.8","","64","","2","","10","","24.1","","99.84","","","","-28","","Mostly Cloudy"
"2014-01-22 11:00","2014","01","22","11:00","-19.0","","-25.0","","60","","30","","6","","24.1","","99.85","","","","-24","","NA"
"2014-01-22 12:00","2014","01","22","12:00","-18.1","","-24.5","","58","","34","","7","","24.1","","99.73","","","","-23","","NA"
"2014-01-22 13:00","2014","01","22","13:00","-16.6","","-23.3","","57","","29","","3","","24.1","","99.66","","","","-19","","Mostly Cloudy"
"2014-01-22 14:00","2014","01","22","14:00","-15.6","","-22.9","","54","","35","","4","","24.1","","99.59","","","","-19","","NA"
"2014-01-22 15:00","2014","01","22","15:00","-14.4","","-22.7","","50","","26","","3","","24.1","","99.56","","","","-17","","NA"
"2014-01-22 16:00","2014","01","22","16:00","-14.6","","-23.1","","49","","36","","4","","24.1","","99.55","","","","-17","","Mostly Cloudy"
"2014-01-22 17:00","2014","01","22","17:00","-14.2","","-22.8","","49","","10","","3","","24.1","","99.57","","","","-16","","NA"
"2014-01-22 18:00","2014","01","22","18:00","-14.0","","-21.9","","52","","13","","7","","24.1","","99.60","","","","-19","","NA"
"2014-01-22 19:00","2014","01","22","19:00","-13.7","","-20.5","","57","","17","","4","","24.1","","99.62","","","","-16","","Mostly Cloudy"
"2014-01-22 20:00","2014","01","22","20:00","-13.5","","-19.9","","59","","26","","2","","24.1","","99.61","","","","-15","","NA"
"2014-01-22 21:00","2014","01","22","21:00","-13.1","","-19.3","","60","","26","","2","","24.1","","99.62","","","","-14","","NA"
"2014-01-22 22:00","2014","01","22","22:00","-13.6","","-18.5","","67","","31","","6","","16.1","","99.58","","","","-18","","Moderate Ice Pellets,Snow Showers"
"2014-01-22 23:00","2014","01","22","23:00","-14.0","","-18.0","","72","","27","","6","","16.1","","99.58","","","","-18","","Snow Showers"
"2014-01-23 00:00","2014","01","23","00:00","-14.1","","-17.5","","76","","33","","5","","16.1","","99.59","","","","-18","","Snow Showers"
"2014-01-23 01:00","2014","01","23","01:00","-14.2","","-16.9","","80","","32","","7","","9.7","","99.58","","","","-19","","Snow Showers"
"2014-01-23 02:00","2014","01","23","02:00","-14.6","","-17.0","","82","","1","","8","","9.7","","99.59","","","","-20","","Snow"
"2014-01-23 03:00","2014","01","23","03:00","-15.1","","-17.5","","82","","36","","13","","9.7","","99.63","","","","-22","","Snow"
"2014-01-23 04:00","2014","01","23","04:00","-16.2","","-18.9","","80","","35","","15","","9.7","","99.64","","","","-24","","Moderate Ice Pellets"
"2014-01-23 05:00","2014","01","23","05:00","-16.7","","-19.5","","79","","","M","","M","16.1","","99.70","","","","","","Snow"
"2014-01-23 06:00","2014","01","23","06:00","-17.1","","-20.1","","78","","33","","14","","19.3","","99.78","","","","-25","","NA"
"2014-01-23 07:00","2014","01","23","07:00","-17.5","","-20.6","","77","","35","","15","","16.1","","99.87","","","","-26","","Snow"
"2014-01-23 08:00","2014","01","23","08:00","-18.1","","-21.4","","76","","35","","20","","24.1","","99.95","","","","-28","","NA"
"2014-01-23 09:00","2014","01","23","09:00","-18.0","","-21.7","","73","","36","","20","","24.1","","100.01","","","","-28","","NA"
"2014-01-23 10:00","2014","01","23","10:00","-17.1","","-21.5","","69","","35","","18","","24.1","","100.11","","","","-26","","Mostly Cloudy"
"2014-01-23 11:00","2014","01","23","11:00","-16.2","","-21.4","","65","","35","","19","","24.1","","100.20","","","","-25","","NA"
"2014-01-23 12:00","2014","01","23","12:00","-15.8","","-21.2","","64","","33","","22","","24.1","","100.20","","","","-26","","NA"
"2014-01-23 13:00","2014","01","23","13:00","-15.3","","-21.8","","58","","33","","21","","24.1","","100.20","","","","-25","","Mostly Cloudy"
"2014-01-23 14:00","2014","01","23","14:00","-14.6","","-22.2","","53","","35","","19","","24.1","","100.23","","","","-23","","NA"
"2014-01-23 15:00","2014","01","23","15:00","-14.1","","-21.3","","55","","35","","17","","24.1","","100.29","","","","-22","","NA"
"2014-01-23 16:00","2014","01","23","16:00","-14.3","","-21.3","","56","","33","","19","","24.1","","100.39","","","","-23","","Mostly Cloudy"
"2014-01-23 17:00","2014","01","23","17:00","-14.4","","-21.4","","56","","34","","15","","24.1","","100.46","","","","-22","","NA"
"2014-01-23 18:00","2014","01","23","18:00","-16.0","","-21.3","","64","","35","","19","","24.1","","100.56","","","","-25","","NA"
"2014-01-23 19:00","2014","01","23","19:00","-16.4","","-22.3","","61","","32","","24","","24.1","","100.66","","","","-27","","Mostly Cloudy"
"2014-01-23 20:00","2014","01","23","20:00","-17.1","","-22.8","","62","","31","","26","","24.1","","100.70","","","","-28","","NA"
"2014-01-23 21:00","2014","01","23","21:00","-17.5","","-23.0","","63","","30","","18","","24.1","","100.69","","","","-27","","NA"
"2014-01-23 22:00","2014","01","23","22:00","-18.0","","-23.6","","62","","32","","15","","24.1","","100.68","","","","-27","","Mainly Clear"
"2014-01-23 23:00","2014","01","23","23:00","-18.3","","-23.4","","65","","27","","15","","24.1","","100.70","","","","-27","","NA"
"2014-01-24 00:00","2014","01","24","00:00","-19.2","","-23.6","","69","","26","","20","","24.1","","100.71","","","","-29","","NA"
"2014-01-24 01:00","2014","01","24","01:00","-19.5","","-23.5","","71","","26","","16","","24.1","","100.65","","","","-29","","Mainly Clear"
"2014-01-24 02:00","2014","01","24","02:00","-18.0","","-21.9","","72","","26","","12","","24.1","","100.63","","","","-26","","NA"
"2014-01-24 03:00","2014","01","24","03:00","-17.8","","-21.4","","74","","26","","8","","24.1","","100.65","","","","-24","","NA"
"2014-01-24 04:00","2014","01","24","04:00","-18.4","","-21.8","","75","","24","","12","","24.1","","100.60","","","","-26","","Mainly Clear"
"2014-01-24 05:00","2014","01","24","05:00","-18.0","","-21.3","","76","","25","","17","","24.1","","100.55","","","","-27","","NA"
"2014-01-24 06:00","2014","01","24","06:00","-17.2","","-21.0","","73","","24","","17","","24.1","","100.52","","","","-26","","NA"
"2014-01-24 07:00","2014","01","24","07:00","-16.0","","-20.6","","68","","20","","10","","24.1","","100.45","","","","-22","","Clear"
"2014-01-24 08:00","2014","01","24","08:00","-16.7","","-20.8","","71","","21","","11","","24.1","","100.36","","","","-24","","NA"
"2014-01-24 09:00","2014","01","24","09:00","-15.6","","-19.7","","71","","22","","19","","24.1","","100.27","","","","-25","","NA"
"2014-01-24 10:00","2014","01","24","10:00","-13.6","","-17.5","","73","","21","","27","","24.1","","100.16","","","","-24","","Blowing Snow"
"2014-01-24 11:00","2014","01","24","11:00","-12.3","","-17.1","","68","","21","","36","","19.3","","100.00","","","","-23","","Blowing Snow"
"2014-01-24 12:00","2014","01","24","12:00","-12.4","","-17.9","","64","","21","","43","","24.1","","99.78","","","","-24","","Blowing Snow"
"2014-01-24 13:00","2014","01","24","13:00","-12.1","","-18.4","","60","","21","","40","","24.1","","99.57","","","","-24","","Blowing Snow"
"2014-01-24 14:00","2014","01","24","14:00","-11.7","","-18.8","","56","","22","","42","","24.1","","99.35","","","","-23","","Blowing Snow"
"2014-01-24 15:00","2014","01","24","15:00","-11.3","","-19.1","","53","","22","","42","","24.1","","99.24","","","","-23","","Blowing Snow"
"2014-01-24 16:00","2014","01","24","16:00","-11.2","","-19.0","","53","","22","","32","","24.1","","99.14","","","","-21","","Blowing Snow"
"2014-01-24 17:00","2014","01","24","17:00","-11.1","","-18.5","","55","","20","","35","","24.1","","98.91","","","","-22","","Blowing Snow"
"2014-01-24 18:00","2014","01","24","18:00","-9.9","","-18.5","","50","","22","","33","","19.3","","98.78","","","","-20","","Blowing Snow"
"2014-01-24 19:00","2014","01","24","19:00","-9.4","","-18.0","","50","","23","","33","","16.1","","98.75","","","","-19","","Snow,Blowing Snow"
"2014-01-24 20:00","2014","01","24","20:00","-9.5","","-15.7","","61","","22","","32","","19.3","","98.64","","","","-19","","Snow,Blowing Snow"
"2014-01-24 21:00","2014","01","24","21:00","-9.7","","-13.9","","72","","22","","34","","4.8","","98.50","","","","-20","","Snow,Blowing Snow"
"2014-01-24 22:00","2014","01","24","22:00","-9.5","","-12.8","","77","","21","","30","","9.7","","98.32","","","","-19","","Snow,Blowing Snow"
"2014-01-24 23:00","2014","01","24","23:00","-9.3","","-12.3","","79","","20","","27","","9.7","","98.21","","","","-18","","Snow,Blowing Snow"
"2014-01-25 00:00","2014","01","25","00:00","-9.1","","-11.5","","83","","20","","27","","4.0","","98.05","","","","-18","","Snow,Blowing Snow"
"2014-01-25 01:00","2014","01","25","01:00","-8.7","","-11.2","","82","","20","","24","","6.4","","97.89","","","","-17","","Snow,Blowing Snow"
"2014-01-25 02:00","2014","01","25","02:00","-8.4","","-10.5","","85","","20","","25","","4.0","","97.74","","","","-17","","Snow,Blowing Snow"
"2014-01-25 03:00","2014","01","25","03:00","-7.8","","-10.2","","83","","20","","24","","6.4","","97.59","","","","-16","","Snow,Blowing Snow"
"2014-01-25 04:00","2014","01","25","04:00","-7.6","","-9.6","","86","","20","","20","","4.8","","97.44","","","","-15","","Snow,Blowing Snow"
"2014-01-25 05:00","2014","01","25","05:00","-7.9","","-9.9","","86","","20","","19","","4.0","","97.32","","","","-15","","Snow,Blowing Snow"
"2014-01-25 06:00","2014","01","25","06:00","-7.7","","-9.7","","86","","20","","26","","1.6","","97.22","","","","-16","","Snow,Blowing Snow"
"2014-01-25 07:00","2014","01","25","07:00","-7.1","","-8.9","","87","","20","","27","","2.4","","97.14","","","","-15","","Snow,Blowing Snow"
"2014-01-25 08:00","2014","01","25","08:00","-6.8","","-8.8","","86","","20","","27","","2.8","","97.08","","","","-15","","Snow,Blowing Snow"
"2014-01-25 09:00","2014","01","25","09:00","-6.2","","-8.3","","85","","21","","28","","2.8","","97.00","","","","-14","","Snow,Blowing Snow"
"2014-01-25 10:00","2014","01","25","10:00","-5.5","","-7.8","","84","","2","","28","","2.8","","96.97","","","","-13","","Snow,Blowing Snow"
"2014-01-25 11:00","2014","01","25","11:00","-4.9","","-7.0","","85","","21","","30","","2.8","","96.93","","","","-13","","Snow,Blowing Snow"
"2014-01-25 12:00","2014","01","25","12:00","-4.0","","-6.5","","83","","23","","28","","3.2","","96.87","","","","-11","","Snow,Blowing Snow"
"2014-01-25 13:00","2014","01","25","13:00","-4.9","","-10.1","","67","","32","","33","","9.7","","96.88","","","","-13","","Snow,Blowing Snow"
"2014-01-25 14:00","2014","01","25","14:00","-5.5","","-12.1","","60","","31","","37","","19.3","","96.93","","","","-14","","Blowing Snow"
"2014-01-25 15:00","2014","01","25","15:00","-6.2","","-12.0","","64","","30","","33","","19.3","","97.02","","","","-15","","Blowing Snow"
"2014-01-25 16:00","2014","01","25","16:00","-7.7","","-13.8","","62","","31","","31","","24.1","","97.16","","","","-17","","Blowing Snow"
"2014-01-25 17:00","2014","01","25","17:00","-10.0","","-16.2","","61","","31","","40","","24.1","","97.38","","","","-21","","Blowing Snow"
"2014-01-25 18:00","2014","01","25","18:00","-11.7","","-18.4","","58","","31","","31","","24.1","","97.59","","","","-22","","Blowing Snow"
"2014-01-25 19:00","2014","01","25","19:00","-12.4","","-18.3","","62","","32","","28","","24.1","","97.75","","","","-22","","Blowing Snow"
"2014-01-25 20:00","2014","01","25","20:00","-12.9","","-18.9","","61","","30","","27","","24.1","","97.89","","","","-23","","NA"
"2014-01-25 21:00","2014","01","25","21:00","-13.6","","-19.8","","60","","31","","33","","24.1","","98.03","","","","-25","","NA"
"2014-01-25 22:00","2014","01","25","22:00","-14.2","","-20.8","","58","","30","","24","","24.1","","98.11","","","","-24","","Mainly Clear"
"2014-01-25 23:00","2014","01","25","23:00","-15.0","","-20.6","","63","","29","","22","","24.1","","98.16","","","","-25","","NA"
"2014-01-26 00:00","2014","01","26","00:00","-15.6","","-20.4","","67","","28","","19","","24.1","","98.21","","","","-25","","NA"
"2014-01-26 01:00","2014","01","26","01:00","-17.1","","-20.9","","73","","25","","15","","24.1","","98.26","","","","-26","","Clear"
"2014-01-26 02:00","2014","01","26","02:00","-17.1","","-20.5","","75","","25","","14","","24.1","","98.31","","","","-25","","NA"
"2014-01-26 03:00","2014","01","26","03:00","-17.2","","-20.3","","77","","25","","9","","24.1","","98.36","","","","-23","","NA"
"2014-01-26 04:00","2014","01","26","04:00","-16.8","","-19.6","","79","","25","","18","","24.1","","98.36","","","","-26","","Clear"
"2014-01-26 05:00","2014","01","26","05:00","-15.8","","-20.1","","70","","23","","27","","24.1","","98.38","","","","-27","","NA"
"2014-01-26 06:00","2014","01","26","06:00","-16.1","","-20.2","","71","","24","","30","","24.1","","98.45","","","","-27","","NA"
"2014-01-26 07:00","2014","01","26","07:00","-16.8","","-20.9","","71","","24","","26","","24.1","","98.52","","","","-28","","Clear"
"2014-01-26 08:00","2014","01","26","08:00","-17.0","","-21.4","","69","","25","","27","","24.1","","98.57","","","","-28","","NA"
"2014-01-26 09:00","2014","01","26","09:00","-16.0","","-20.6","","68","","24","","20","","24.1","","98.58","","","","-25","","NA"
"2014-01-26 10:00","2014","01","26","10:00","-13.6","","-19.6","","61","","25","","12","","24.1","","98.50","","","","-20","","Mostly Cloudy"
"2014-01-26 11:00","2014","01","26","11:00","-12.9","","-18.9","","61","","24","","15","","24.1","","98.41","","","","-20","","NA"
"2014-01-26 12:00","2014","01","26","12:00","-12.3","","-18.8","","59","","22","","15","","24.1","","98.31","","","","-20","","NA"
"2014-01-26 13:00","2014","01","26","13:00","-11.6","","-16.4","","68","","21","","15","","9.7","","98.16","","","","-19","","Snow"
"2014-01-26 14:00","2014","01","26","14:00","-10.4","","-14.0","","75","","19","","10","","8.1","","98.02","","","","-16","","Snow"
"2014-01-26 15:00","2014","01","26","15:00","-10.2","","-14.2","","73","","19","","18","","24.1","","98.01","","","","-18","","Snow"
"2014-01-26 16:00","2014","01","26","16:00","-10.5","","-13.8","","77","","19","","17","","8.1","","97.89","","","","-18","","Snow"
"2014-01-26 17:00","2014","01","26","17:00","-10.0","","-12.1","","85","","19","","13","","2.0","","97.80","","","","-16","","Snow"
"2014-01-26 18:00","2014","01","26","18:00","-9.5","","-11.4","","86","","19","","13","","3.2","","97.77","","","","-16","","Snow"
"2014-01-26 19:00","2014","01","26","19:00","-8.7","","-10.6","","86","","17","","9","","12.9","","97.73","","","","-13","","Snow"
"2014-01-26 20:00","2014","01","26","20:00","-7.9","","-10.0","","85","","18","","15","","9.7","","97.64","","","","-14","","Snow"
"2014-01-26 21:00","2014","01","26","21:00","-7.1","","-9.2","","85","","19","","14","","19.3","","97.61","","","","-13","","Snow"
"2014-01-26 22:00","2014","01","26","22:00","-6.3","","-8.6","","84","","22","","18","","24.1","","97.55","","","","-13","","Cloudy"
"2014-01-26 23:00","2014","01","26","23:00","-5.9","","-8.7","","81","","22","","22","","24.1","","97.50","","","","-13","","NA"
"2014-01-27 00:00","2014","01","27","00:00","-5.2","","-8.1","","80","","26","","22","","24.1","","97.37","","","","-12","","Snow"
"2014-01-27 01:00","2014","01","27","01:00","-5.0","","-7.8","","81","","22","","14","","12.9","","97.30","","","","-10","","Snow"
"2014-01-27 02:00","2014","01","27","02:00","-5.5","","-7.2","","88","","25","","21","","1.6","","97.26","","","","-12","","Snow"
"2014-01-27 03:00","2014","01","27","03:00","-5.9","","-7.4","","89","","29","","21","","1.6","","97.28","","","","-13","","Snow"
"2014-01-27 04:00","2014","01","27","04:00","-6.7","","-8.7","","86","","27","","27","","2.0","","97.36","","","","-15","","Snow,Blowing Snow"
"2014-01-27 05:00","2014","01","27","05:00","-9.1","","-11.2","","85","","29","","37","","2.0","","97.55","","","","-19","","Snow,Blowing Snow"
"2014-01-27 06:00","2014","01","27","06:00","-10.4","","-14.4","","73","","27","","32","","24.1","","97.79","","","","-20","","Blowing Snow"
"2014-01-27 07:00","2014","01","27","07:00","-11.4","","-14.7","","77","","25","","41","","8.1","","98.02","","","","-23","","Snow,Blowing Snow"
"2014-01-27 08:00","2014","01","27","08:00","-11.4","","-14.8","","76","","26","","43","","8.1","","98.26","","","","-23","","Blowing Snow"
"2014-01-27 09:00","2014","01","27","09:00","-10.5","","-14.3","","74","","26","","33","","8.1","","98.50","","","","-21","","Blowing Snow"
"2014-01-27 10:00","2014","01","27","10:00","-10.4","","-12.5","","85","","27","","27","","0.8","","98.74","","","","-20","","Moderate Snow Showers,Blowing Snow"
"2014-01-27 11:00","2014","01","27","11:00","-9.6","","-13.8","","72","","29","","31","","8.1","","98.89","","","","-19","","Blowing Snow"
"2014-01-27 12:00","2014","01","27","12:00","-10.1","","-17.1","","57","","28","","43","","8.1","","99.00","","","","-21","","Blowing Snow"
"2014-01-27 13:00","2014","01","27","13:00","-10.8","","-18.2","","55","","28","","36","","16.1","","99.07","","","","-21","","Blowing Snow"
"2014-01-27 14:00","2014","01","27","14:00","-10.7","","-19.0","","51","","27","","40","","19.3","","99.16","","","","-22","","Blowing Snow"
"2014-01-27 15:00","2014","01","27","15:00","-10.8","","-17.8","","57","","30","","31","","19.3","","99.24","","","","-21","","Blowing Snow"
"2014-01-27 16:00","2014","01","27","16:00","-12.6","","-15.4","","80","","28","","33","","1.6","","99.33","","","","-23","","Snow Showers,Blowing Snow"
"2014-01-27 17:00","2014","01","27","17:00","-13.3","","-19.1","","62","","27","","42","","16.1","","99.41","","","","-25","","Blowing Snow"
"2014-01-27 18:00","2014","01","27","18:00","-14.6","","-20.0","","64","","26","","42","","19.3","","99.48","","","","-27","","Blowing Snow"
"2014-01-27 19:00","2014","01","27","19:00","-14.9","","-21.4","","58","","26","","34","","24.1","","99.58","","","","-27","","Blowing Snow"
"2014-01-27 20:00","2014","01","27","20:00","-15.6","","-21.5","","61","","27","","40","","24.1","","99.61","","","","-28","","Blowing Snow"
"2014-01-27 21:00","2014","01","27","21:00","-15.9","","-21.6","","62","","27","","33","","24.1","","99.67","","","","-28","","Blowing Snow"
"2014-01-27 22:00","2014","01","27","22:00","-16.3","","-22.4","","60","","27","","34","","24.1","","99.74","","","","-28","","Blowing Snow"
"2014-01-27 23:00","2014","01","27","23:00","-16.7","","-23.2","","58","","26","","32","","24.1","","99.79","","","","-29","","Blowing Snow"
"2014-01-28 00:00","2014","01","28","00:00","-17.2","","-22.1","","66","","26","","31","","24.1","","99.87","","","","-29","","Blowing Snow"
"2014-01-28 01:00","2014","01","28","01:00","-17.3","","-21.9","","68","","26","","33","","24.1","","99.96","","","","-30","","Blowing Snow"
"2014-01-28 02:00","2014","01","28","02:00","-17.5","","-22.8","","64","","26","","30","","24.1","","100.03","","","","-29","","Blowing Snow"
"2014-01-28 03:00","2014","01","28","03:00","-17.9","","-23.2","","64","","24","","30","","24.1","","100.09","","","","-30","","Blowing Snow"
"2014-01-28 04:00","2014","01","28","04:00","-18.3","","-23.2","","66","","24","","35","","24.1","","100.11","","","","-31","","Blowing Snow"
"2014-01-28 05:00","2014","01","28","05:00","-18.9","","-23.4","","68","","25","","27","","24.1","","100.13","","","","-31","","NA"
"2014-01-28 06:00","2014","01","28","06:00","-18.9","","-23.3","","69","","24","","33","","24.1","","100.17","","","","-32","","Blowing Snow"
"2014-01-28 07:00","2014","01","28","07:00","-18.9","","-23.1","","70","","24","","28","","24.1","","100.25","","","","-31","","Mainly Clear"
"2014-01-28 08:00","2014","01","28","08:00","-20.3","","-24.1","","72","","23","","24","","24.1","","100.33","","","","-32","","NA"
"2014-01-28 09:00","2014","01","28","09:00","-18.7","","-22.9","","70","","25","","30","","24.1","","100.36","","","","-31","","NA"
"2014-01-28 10:00","2014","01","28","10:00","-17.8","","-22.4","","68","","25","","27","","24.1","","100.39","","","","-29","","Clear"
"2014-01-28 11:00","2014","01","28","11:00","-16.2","","-21.7","","63","","24","","26","","24.1","","100.44","","","","-27","","NA"
"2014-01-28 12:00","2014","01","28","12:00","-14.5","","-20.7","","60","","25","","27","","24.1","","100.36","","","","-25","","NA"
"2014-01-28 13:00","2014","01","28","13:00","-13.8","","-20.2","","59","","25","","37","","24.1","","100.27","","","","-25","","Blowing Snow"
"2014-01-28 14:00","2014","01","28","14:00","-13.1","","-19.7","","58","","24","","31","","24.1","","100.18","","","","-24","","NA"
"2014-01-28 15:00","2014","01","28","15:00","-12.8","","-19.7","","57","","24","","40","","24.1","","100.14","","","","-25","","Blowing Snow"
"2014-01-28 16:00","2014","01","28","16:00","-13.3","","-20.1","","57","","24","","33","","24.1","","100.11","","","","-24","","Blowing Snow"
"2014-01-28 17:00","2014","01","28","17:00","-13.7","","-20.7","","56","","23","","28","","24.1","","100.08","","","","-24","","Blowing Snow"
"2014-01-28 18:00","2014","01","28","18:00","-14.2","","-20.4","","60","","23","","26","","24.1","","100.05","","","","-24","","Blowing Snow"
"2014-01-28 19:00","2014","01","28","19:00","-14.6","","-19.6","","66","","23","","27","","24.1","","100.05","","","","-25","","Mainly Clear"
"2014-01-28 20:00","2014","01","28","20:00","-15.0","","-19.2","","71","","22","","23","","24.1","","100.01","","","","-25","","NA"
"2014-01-28 21:00","2014","01","28","21:00","-15.6","","-20.1","","69","","22","","18","","24.1","","99.99","","","","-24","","NA"
"2014-01-28 22:00","2014","01","28","22:00","-15.8","","-21.3","","63","","23","","26","","24.1","","99.92","","","","-26","","Clear"
"2014-01-28 23:00","2014","01","28","23:00","-16.3","","-23.0","","57","","23","","27","","24.1","","99.88","","","","-27","","NA"
"2014-01-29 00:00","2014","01","29","00:00","-17.2","","-23.4","","59","","24","","25","","24.1","","99.86","","","","-28","","NA"
"2014-01-29 01:00","2014","01","29","01:00","-17.7","","-23.3","","62","","23","","26","","24.1","","99.80","","","","-29","","Clear"
"2014-01-29 02:00","2014","01","29","02:00","-18.3","","-23.6","","64","","21","","21","","24.1","","99.78","","","","-29","","NA"
"2014-01-29 03:00","2014","01","29","03:00","-18.5","","-23.6","","65","","22","","22","","24.1","","99.74","","","","-29","","NA"
"2014-01-29 04:00","2014","01","29","04:00","-18.4","","-23.5","","65","","23","","24","","24.1","","99.65","","","","-29","","Clear"
"2014-01-29 05:00","2014","01","29","05:00","-18.4","","-23.5","","65","","23","","25","","24.1","","99.60","","","","-30","","NA"
"2014-01-29 06:00","2014","01","29","06:00","-17.9","","-22.6","","67","","23","","28","","24.1","","99.56","","","","-29","","NA"
"2014-01-29 07:00","2014","01","29","07:00","-17.6","","-22.0","","69","","23","","31","","24.1","","99.51","","","","-30","","Clear"
"2014-01-29 08:00","2014","01","29","08:00","-16.7","","-21.0","","70","","23","","26","","24.1","","99.52","","","","-28","","NA"
"2014-01-29 09:00","2014","01","29","09:00","-15.5","","-20.0","","69","","24","","30","","24.1","","99.54","","","","-27","","NA"
"2014-01-29 10:00","2014","01","29","10:00","-14.8","","-19.5","","68","","24","","34","","16.1","","99.52","","","","-26","","Mostly Cloudy"
"2014-01-29 11:00","2014","01","29","11:00","-13.9","","-19.0","","66","","24","","31","","24.1","","99.57","","","","-25","","NA"
"2014-01-29 12:00","2014","01","29","12:00","-12.6","","-18.5","","62","","24","","30","","24.1","","99.51","","","","-23","","NA"
"2014-01-29 13:00","2014","01","29","13:00","-11.4","","-17.5","","61","","26","","41","","24.1","","99.47","","","","-23","","Mainly Clear"
"2014-01-29 14:00","2014","01","29","14:00","-10.5","","-16.9","","60","","25","","37","","24.1","","99.50","","","","-21","","Blowing Snow"
"2014-01-29 15:00","2014","01","29","15:00","-10.7","","-16.8","","61","","26","","33","","24.1","","99.57","","","","-21","","Blowing Snow"
"2014-01-29 16:00","2014","01","29","16:00","-11.0","","-16.9","","62","","25","","36","","24.1","","99.65","","","","-22","","Blowing Snow"
"2014-01-29 17:00","2014","01","29","17:00","-11.2","","-16.9","","63","","24","","28","","24.1","","99.76","","","","-21","","Blowing Snow"
"2014-01-29 18:00","2014","01","29","18:00","-11.8","","-16.4","","69","","23","","14","","24.1","","99.83","","","","-19","","NA"
"2014-01-29 19:00","2014","01","29","19:00","-12.1","","-16.7","","69","","23","","20","","24.1","","99.90","","","","-21","","Mainly Clear"
"2014-01-29 20:00","2014","01","29","20:00","-11.9","","-16.7","","68","","22","","21","","24.1","","99.96","","","","-20","","NA"
"2014-01-29 21:00","2014","01","29","21:00","-11.0","","-16.4","","65","","23","","27","","24.1","","100.00","","","","-20","","NA"
"2014-01-29 22:00","2014","01","29","22:00","-10.7","","-16.5","","63","","23","","24","","24.1","","100.05","","","","-19","","Cloudy"
"2014-01-29 23:00","2014","01","29","23:00","-11.3","","-17.2","","62","","23","","15","","24.1","","100.06","","","","-18","","NA"
"2014-01-30 00:00","2014","01","30","00:00","-11.8","","-18.1","","60","","23","","16","","24.1","","100.08","","","","-19","","NA"
"2014-01-30 01:00","2014","01","30","01:00","-12.0","","-18.3","","60","","22","","16","","24.1","","100.12","","","","-19","","Clear"
"2014-01-30 02:00","2014","01","30","02:00","-12.4","","-18.5","","61","","17","","11","","24.1","","100.11","","","","-18","","NA"
"2014-01-30 03:00","2014","01","30","03:00","-12.4","","-18.5","","61","","17","","8","","24.1","","100.09","","","","-17","","NA"
"2014-01-30 04:00","2014","01","30","04:00","-13.0","","-18.3","","65","","16","","7","","24.1","","100.07","","","","-18","","Clear"
"2014-01-30 05:00","2014","01","30","05:00","-11.8","","-16.1","","71","","20","","15","","24.1","","100.08","","","","-19","","NA"
"2014-01-30 06:00","2014","01","30","06:00","-11.6","","-15.7","","72","","21","","22","","24.1","","100.08","","","","-20","","NA"
"2014-01-30 07:00","2014","01","30","07:00","-10.9","","-15.9","","67","","20","","20","","24.1","","100.06","","","","-19","","Mostly Cloudy"
"2014-01-30 08:00","2014","01","30","08:00","-11.0","","-16.4","","65","","21","","23","","24.1","","100.03","","","","-20","","NA"
"2014-01-30 09:00","2014","01","30","09:00","-9.4","","-16.0","","59","","19","","19","","24.1","","100.06","","","","-17","","NA"
"2014-01-30 10:00","2014","01","30","10:00","-8.2","","-16.0","","54","","21","","21","","24.1","","100.03","","","","-16","","Mostly Cloudy"
"2014-01-30 11:00","2014","01","30","11:00","-6.3","","-15.9","","47","","21","","29","","24.1","","99.99","","","","-15","","NA"
"2014-01-30 12:00","2014","01","30","12:00","-5.3","","-15.2","","46","","20","","23","","24.1","","99.89","","","","-12","","NA"
"2014-01-30 13:00","2014","01","30","13:00","-4.9","","-14.6","","47","","21","","23","","24.1","","99.73","","","","-12","","Mostly Cloudy"
"2014-01-30 14:00","2014","01","30","14:00","-4.5","","-14.5","","46","","21","","23","","24.1","","99.64","","","","-11","","NA"
"2014-01-30 15:00","2014","01","30","15:00","-4.6","","-14.6","","46","","18","","18","","24.1","","99.54","","","","-11","","NA"
"2014-01-30 16:00","2014","01","30","16:00","-5.0","","-14.9","","46","","18","","22","","24.1","","99.43","","","","-12","","Cloudy"
"2014-01-30 17:00","2014","01","30","17:00","-4.6","","-15.1","","44","","18","","15","","24.1","","99.32","","","","-10","","NA"
"2014-01-30 18:00","2014","01","30","18:00","-3.8","","-13.8","","46","","17","","19","","24.1","","99.17","","","","-10","","NA"
"2014-01-30 19:00","2014","01","30","19:00","-3.0","","-13.4","","45","","18","","18","","24.1","","99.03","","","","-9","","Cloudy"
"2014-01-30 20:00","2014","01","30","20:00","-2.4","","-13.7","","42","","19","","19","","24.1","","98.91","","","","-8","","NA"
"2014-01-30 21:00","2014","01","30","21:00","-2.7","","-13.9","","42","","23","","20","","24.1","","98.99","","","","-9","","NA"
"2014-01-30 22:00","2014","01","30","22:00","-2.2","","-14.7","","38","","22","","33","","24.1","","98.89","","","","-10","","Cloudy"
"2014-01-30 23:00","2014","01","30","23:00","-4.3","","-7.3","","80","","22","","32","","9.7","","98.91","","","","-12","","Snow Showers,Blowing Snow"
"2014-01-31 00:00","2014","01","31","00:00","-3.7","","-7.5","","75","","22","","29","","24.1","","98.93","","","","-11","","Blowing Snow"
"2014-01-31 01:00","2014","01","31","01:00","-3.7","","-6.2","","83","","22","","27","","8.1","","98.95","","","","-11","","Snow Showers,Blowing Snow"
"2014-01-31 02:00","2014","01","31","02:00","-3.4","","-6.0","","82","","22","","20","","9.7","","98.92","","","","-10","","Snow Showers,Blowing Snow"
"2014-01-31 03:00","2014","01","31","03:00","-3.1","","-5.8","","82","","22","","19","","24.1","","98.99","","","","-9","","Snow Showers,Blowing Snow"
"2014-01-31 04:00","2014","01","31","04:00","-2.6","","-5.6","","80","","23","","17","","24.1","","98.99","","","","-8","","Snow Showers"
"2014-01-31 05:00","2014","01","31","05:00","-2.1","","-5.4","","78","","23","","22","","24.1","","99.08","","","","-8","","NA"
"2014-01-31 06:00","2014","01","31","06:00","-1.8","","-5.0","","79","","22","","21","","24.1","","99.13","","","","-8","","NA"
"2014-01-31 07:00","2014","01","31","07:00","-1.6","","-4.9","","78","","23","","20","","19.3","","99.22","","","","-7","","Cloudy"
"2014-01-31 08:00","2014","01","31","08:00","-1.3","","-4.7","","78","","23","","24","","16.1","","99.35","","","","-7","","Snow Showers"
"2014-01-31 09:00","2014","01","31","09:00","-1.1","","-4.5","","78","","25","","23","","16.1","","99.46","","","","-7","","Snow Showers"
"2014-01-31 10:00","2014","01","31","10:00","-0.9","","-4.4","","77","","25","","20","","19.3","","99.52","","","","-6","","Mostly Cloudy"
"2014-01-31 11:00","2014","01","31","11:00","0.0","","-4.1","","74","","26","","26","","19.3","","99.58","","","","-6","","NA"
"2014-01-31 12:00","2014","01","31","12:00","-0.6","","-4.5","","75","","28","","16","","16.1","","99.66","","","","-5","","NA"
"2014-01-31 13:00","2014","01","31","13:00","-0.2","","-4.5","","73","","33","","12","","19.3","","99.56","","","","-4","","Mostly Cloudy"
"2014-01-31 14:00","2014","01","31","14:00","0.1","","-4.9","","69","","28","","13","","19.3","","99.60","","","","","","NA"
"2014-01-31 15:00","2014","01","31","15:00","-0.1","","-5.1","","69","","29","","22","","24.1","","99.66","","","","-6","","NA"
"2014-01-31 16:00","2014","01","31","16:00","-0.6","","-6.4","","65","","25","","28","","24.1","","99.76","","","","-7","","Cloudy"
"2014-01-31 17:00","2014","01","31","17:00","-1.2","","-6.6","","67","","28","","21","","24.1","","99.83","","","","-7","","NA"
"2014-01-31 18:00","2014","01","31","18:00","-1.8","","-6.6","","70","","28","","15","","24.1","","99.84","","","","-7","","NA"
"2014-01-31 19:00","2014","01","31","19:00","-2.0","","-6.6","","71","","28","","11","","24.1","","99.88","","","","-6","","Mostly Cloudy"
"2014-01-31 20:00","2014","01","31","20:00","-2.8","","-7.0","","73","","27","","13","","24.1","","99.95","","","","-7","","NA"
"2014-01-31 21:00","2014","01","31","21:00","-3.1","","-7.1","","74","","29","","8","","24.1","","99.95","","","","-6","","NA"
"2014-01-31 22:00","2014","01","31","22:00","-3.9","","-7.4","","77","","26","","7","","24.1","","99.95","","","","-7","","Cloudy"
"2014-01-31 23:00","2014","01","31","23:00","-3.4","","-6.9","","77","","24","","10","","32.2","","99.98","","","","-7","","NA"
