"Station Name","TORONTO LESTER B. PEARSON INT'L A"
"Province","ONTARIO"
"Latitude","43.68"
"Longitude","-79.63"
"Elevation","173.40"
"Climate Identifier","6158733"
"WMO Identifier","71624"
"TC Identifier","YYZ"
"All times are specified in Local Standard Time (LST). Add 1 hour to adjust for Daylight Saving Time where and when it is observed."

"Legend"
"E","Estimated"
"M","Missing"
"NA","Not Available"

"Date/Time","Year","Month","Day","Time","Temp (°C)","Temp Flag","Dew Point Temp (°C)","Dew Point Temp Flag","Rel Hum (%)","Rel Hum Flag","Wind Dir (10s deg)","Wind Dir Flag","Wind Spd (km/h)","Wind Spd Flag","Visibility (km)","Visibility Flag","Stn Press (kPa)","Stn Press Flag","Hmdx","Hmdx Flag","Wind Chill","Wind Chill Flag","Weather"
"1993-03-01 00:00","1993","03","01","00:00","-5.8","","-8.4","","82","","21","","15","","25.0","","99.94","","","","-12","","Mostly Cloudy"
"1993-03-01 01:00","1993","03","01","01:00","-5.7","","-8.2","","82","","19","","13","","25.0","","99.87","","","","-11","","Cloudy"
"1993-03-01 02:00","1993","03","01","02:00","-5.8","","-8.4","","82","","18","","9","","25.0","","99.84","","","","-10","","Cloudy"
"1993-03-01 03:00","1993","03","01","03:00","-5.6","","-7.8","","85","","17","","11","","25.0","","99.77","","","","-10","","Cloudy"
"1993-03-01 04:00","1993","03","01","04:00","-5.0","","-7.9","","80","","17","","11","","25.0","","99.64","","","","-10","","Cloudy"
"1993-03-01 05:00","1993","03","01","05:00","-4.8","","-7.2","","83","","19","","13","","25.0","","99.61","","","","-10","","Cloudy"
"1993-03-01 06:00","1993","03","01","06:00","-4.4","","-7.6","","78","","22","","15","","25.0","","99.57","","","","-10","","Cloudy"
"1993-03-01 07:00","1993","03","01","07:00","-4.3","","-7.3","","79","","22","","11","","16.1","","99.54","","","","-9","","Mostly Cloudy"
"1993-03-01 08:00","1993","03","01","08:00","-4.2","","-7.6","","77","","25","","13","","16.1","","99.54","","","","-9","","Mostly Cloudy"
"1993-03-01 09:00","1993","03","01","09:00","-4.0","","-7.6","","76","","24","","15","","16.1","","99.51","","","","-9","","Cloudy"
"1993-03-01 10:00","1993","03","01","10:00","-3.3","","-7.7","","71","","25","","20","","16.1","","99.44","","","","-9","","Cloudy"
"1993-03-01 11:00","1993","03","01","11:00","-3.0","","-7.4","","72","","26","","11","","16.1","","99.41","","","","-7","","Cloudy"
"1993-03-01 12:00","1993","03","01","12:00","-2.6","","-6.4","","75","","23","","7","","16.1","","99.34","","","","-5","","Cloudy"
"1993-03-01 13:00","1993","03","01","13:00","-1.8","","-6.0","","73","","24","","9","","12.9","","99.27","","","","-5","","Cloudy"
"1993-03-01 14:00","1993","03","01","14:00","-1.5","","-6.0","","71","","28","","13","","12.9","","99.21","","","","-6","","Cloudy"
"1993-03-01 15:00","1993","03","01","15:00","-1.0","","-4.7","","76","","27","","17","","8.0","","99.14","","","","-6","","Haze"
"1993-03-01 16:00","1993","03","01","16:00","-0.7","","-4.7","","74","","26","","9","","8.0","","99.11","","","","-4","","Haze"
"1993-03-01 17:00","1993","03","01","17:00","-0.5","","-4.1","","76","","26","","9","","8.0","","99.11","","","","-4","","Haze"
"1993-03-01 18:00","1993","03","01","18:00","-0.5","","-4.1","","76","","22","","7","","8.0","","99.11","","","","-3","","Haze"
"1993-03-01 19:00","1993","03","01","19:00","-0.6","","-3.2","","82","","27","","11","","9.7","","99.07","","","","-4","","Haze"
"1993-03-01 20:00","1993","03","01","20:00","-1.2","","-3.6","","84","","28","","19","","6.4","","99.04","","","","-7","","Haze"
"1993-03-01 21:00","1993","03","01","21:00","-1.5","","-4.2","","82","","29","","7","","8.0","","99.07","","","","-4","","Haze"
"1993-03-01 22:00","1993","03","01","22:00","-1.6","","-3.6","","86","","30","","4","","6.4","","99.01","","","","-3","","Haze"
"1993-03-01 23:00","1993","03","01","23:00","-1.4","","-3.9","","83","","25","","11","","4.8","","99.01","","","","-5","","Fog,Haze"
"1993-03-02 00:00","1993","03","02","00:00","-1.2","","-3.0","","88","","23","","13","","6.4","","99.01","","","","-5","","Fog"
"1993-03-02 01:00","1993","03","02","01:00","-1.2","","-3.0","","88","","25","","11","","4.8","","98.97","","","","-5","","Fog"
"1993-03-02 02:00","1993","03","02","02:00","-1.3","","-3.6","","84","","26","","4","","4.8","","98.94","","","","-3","","Fog"
"1993-03-02 03:00","1993","03","02","03:00","-1.5","","-3.6","","85","","20","","6","","6.4","","98.91","","","","-4","","Fog"
"1993-03-02 04:00","1993","03","02","04:00","-2.8","","-4.5","","88","","21","","6","","6.4","","98.84","","","","-5","","Fog"
"1993-03-02 05:00","1993","03","02","05:00","-3.7","","-4.8","","92","","","","0","","6.4","","98.87","","","","","","Fog"
"1993-03-02 06:00","1993","03","02","06:00","-5.2","","-5.9","","95","","","","0","","2.4","","98.91","","","","","","Fog"
"1993-03-02 07:00","1993","03","02","07:00","-6.7","","-7.3","","96","","29","","13","","1.6","","98.94","","","","-12","","Fog"
"1993-03-02 08:00","1993","03","02","08:00","-6.9","","-7.6","","95","","28","","7","","1.2","","98.94","","","","-10","","Fog"
"1993-03-02 09:00","1993","03","02","09:00","-3.9","","-4.8","","94","","28","","4","","2.8","","98.91","","","","-6","","Fog"
"1993-03-02 10:00","1993","03","02","10:00","-2.0","","-4.2","","85","","25","","4","","4.8","","98.87","","","","-3","","Haze"
"1993-03-02 11:00","1993","03","02","11:00","-0.2","","-4.3","","74","","","","0","","4.8","","98.87","","","","","","Haze"
"1993-03-02 12:00","1993","03","02","12:00","1.9","","-3.4","","68","","17","","6","","4.8","","98.84","","","","","","Haze"
"1993-03-02 13:00","1993","03","02","13:00","3.4","","-3.2","","62","","18","","6","","6.4","","98.77","","","","","","Haze"
"1993-03-02 14:00","1993","03","02","14:00","3.4","","-2.0","","68","","12","","9","","6.4","","98.74","","","","","","Haze"
"1993-03-02 15:00","1993","03","02","15:00","3.7","","-2.0","","66","","12","","9","","4.8","","98.74","","","","","","Haze"
"1993-03-02 16:00","1993","03","02","16:00","4.6","","-1.9","","63","","5","","4","","4.8","","98.77","","","","","","Haze"
"1993-03-02 17:00","1993","03","02","17:00","3.5","","-1.4","","70","","","","0","","4.8","","98.84","","","","","","Haze"
"1993-03-02 18:00","1993","03","02","18:00","3.0","","-1.5","","72","","","","0","","4.8","","98.91","","","","","","Haze"
"1993-03-02 19:00","1993","03","02","19:00","2.4","","-2.6","","69","","36","","13","","9.7","","98.97","","","","","","Haze"
"1993-03-02 20:00","1993","03","02","20:00","1.4","","-2.4","","76","","32","","6","","8.0","","99.07","","","","","","Haze"
"1993-03-02 21:00","1993","03","02","21:00","-1.3","","-4.5","","79","","33","","13","","8.0","","99.14","","","","-6","","Haze"
"1993-03-02 22:00","1993","03","02","22:00","-2.7","","-4.5","","88","","32","","9","","6.4","","99.21","","","","-6","","Fog"
"1993-03-02 23:00","1993","03","02","23:00","-3.2","","-4.8","","89","","34","","13","","4.8","","99.21","","","","-8","","Fog"
"1993-03-03 00:00","1993","03","03","00:00","-4.3","","-6.0","","88","","34","","15","","4.8","","99.21","","","","-10","","Fog"
"1993-03-03 01:00","1993","03","03","01:00","-5.4","","-6.5","","92","","33","","13","","3.2","","99.27","","","","-11","","Fog"
"1993-03-03 02:00","1993","03","03","02:00","-3.8","","-4.5","","95","","34","","11","","3.2","","99.34","","","","-8","","Fog"
"1993-03-03 03:00","1993","03","03","03:00","-2.8","","-4.5","","88","","35","","13","","3.2","","99.34","","","","-7","","Fog"
"1993-03-03 04:00","1993","03","03","04:00","-2.7","","-3.7","","93","","34","","7","","4.0","","99.31","","","","-6","","Fog"
"1993-03-03 05:00","1993","03","03","05:00","-4.2","","-4.8","","96","","34","","11","","3.2","","99.37","","","","-9","","Fog"
"1993-03-03 06:00","1993","03","03","06:00","-4.2","","-4.8","","96","","33","","13","","4.0","","99.44","","","","-9","","Fog"
"1993-03-03 07:00","1993","03","03","07:00","-3.7","","-4.2","","96","","29","","6","","2.4","","99.51","","","","-6","","Fog"
"1993-03-03 08:00","1993","03","03","08:00","-2.2","","-3.3","","92","","35","","17","","4.8","","99.57","","","","-8","","Fog"
"1993-03-03 09:00","1993","03","03","09:00","-1.2","","-2.4","","92","","35","","9","","4.8","","99.67","","","","-4","","Fog"
"1993-03-03 10:00","1993","03","03","10:00","0.0","","-1.8","","88","","35","","9","","6.4","","99.71","","","","-3","","Fog"
"1993-03-03 11:00","1993","03","03","11:00","1.0","","-1.5","","83","","33","","7","","6.4","","99.71","","","","","","Haze"
"1993-03-03 12:00","1993","03","03","12:00","3.2","","-2.6","","65","","13","","13","","12.9","","99.71","","","","","","Mostly Cloudy"
"1993-03-03 13:00","1993","03","03","13:00","2.8","","-2.0","","71","","13","","13","","12.9","","99.67","","","","","","Mostly Cloudy"
"1993-03-03 14:00","1993","03","03","14:00","2.5","","-1.5","","75","","15","","17","","11.3","","99.71","","","","","","Cloudy"
"1993-03-03 15:00","1993","03","03","15:00","1.9","","-1.5","","78","","13","","15","","11.3","","99.71","","","","","","Cloudy"
"1993-03-03 16:00","1993","03","03","16:00","1.5","","-1.5","","80","","15","","13","","11.3","","99.77","","","","","","Mostly Cloudy"
"1993-03-03 17:00","1993","03","03","17:00","1.5","","-1.5","","80","","11","","11","","16.1","","99.77","","","","","","Mostly Cloudy"
"1993-03-03 18:00","1993","03","03","18:00","1.7","","-2.4","","74","","11","","4","","12.9","","99.84","","","","","","Mostly Cloudy"
"1993-03-03 19:00","1993","03","03","19:00","1.4","","-2.1","","77","","8","","9","","16.1","","99.91","","","","","","Mostly Cloudy"
"1993-03-03 20:00","1993","03","03","20:00","0.9","","-2.4","","79","","6","","11","","16.1","","99.94","","","","","","Mostly Cloudy"
"1993-03-03 21:00","1993","03","03","21:00","0.5","","-3.1","","77","","8","","11","","16.1","","99.97","","","","","","Mostly Cloudy"
"1993-03-03 22:00","1993","03","03","22:00","-0.3","","-3.2","","80","","8","","13","","16.1","","100.07","","","","-4","","Mostly Cloudy"
"1993-03-03 23:00","1993","03","03","23:00","0.3","","-3.1","","78","","7","","15","","16.1","","99.97","","","","","","Mostly Cloudy"
"1993-03-04 00:00","1993","03","04","00:00","-0.1","","-3.0","","81","","8","","15","","16.1","","100.01","","","","-5","","Mostly Cloudy"
"1993-03-04 01:00","1993","03","04","01:00","-0.1","","-3.9","","76","","7","","26","","16.1","","99.94","","","","-6","","Mostly Cloudy"
"1993-03-04 02:00","1993","03","04","02:00","-0.1","","-3.9","","76","","8","","24","","24.1","","99.91","","","","-6","","Mostly Cloudy"
"1993-03-04 03:00","1993","03","04","03:00","0.0","","-2.9","","81","","9","","30","","24.1","","100.04","","","","-6","","Cloudy"
"1993-03-04 04:00","1993","03","04","04:00","-0.7","","-2.1","","90","","8","","30","","24.1","","99.87","","","","-7","","Cloudy"
"1993-03-04 05:00","1993","03","04","05:00","-0.6","","-4.4","","76","","7","","31","","24.1","","99.84","","","","-7","","Cloudy"
"1993-03-04 06:00","1993","03","04","06:00","-0.9","","-4.4","","77","","7","","31","","24.1","","99.81","","","","-8","","Cloudy"
"1993-03-04 07:00","1993","03","04","07:00","-1.0","","-5.0","","74","","7","","31","","24.1","","99.81","","","","-8","","Cloudy"
"1993-03-04 08:00","1993","03","04","08:00","-0.8","","-3.0","","85","","6","","31","","19.3","","99.84","","","","-8","","Cloudy"
"1993-03-04 09:00","1993","03","04","09:00","-0.3","","-2.1","","87","","7","","33","","16.1","","99.71","","","","-7","","Cloudy"
"1993-03-04 10:00","1993","03","04","10:00","0.0","","-1.8","","88","","7","","31","","16.1","","99.71","","","","-7","","Mostly Cloudy"
"1993-03-04 11:00","1993","03","04","11:00","0.7","","-2.0","","82","","6","","31","","19.3","","99.61","","","","","","Cloudy"
"1993-03-04 12:00","1993","03","04","12:00","0.8","","-3.6","","72","","6","","31","","19.3","","99.47","","","","","","Cloudy"
"1993-03-04 13:00","1993","03","04","13:00","1.3","","-3.5","","70","","7","","33","","16.1","","99.31","","","","","","Cloudy"
"1993-03-04 14:00","1993","03","04","14:00","1.3","","0.0","","91","","6","","33","","16.1","","99.24","","","","","","Cloudy"
"1993-03-04 15:00","1993","03","04","15:00","1.5","","-2.9","","73","","6","","33","","16.1","","99.14","","","","","","Cloudy"
"1993-03-04 16:00","1993","03","04","16:00","1.6","","-4.1","","66","","5","","31","","19.3","","99.04","","","","","","Cloudy"
"1993-03-04 17:00","1993","03","04","17:00","1.3","","-6.1","","58","","5","","26","","24.1","","99.04","","","","","","Cloudy"
"1993-03-04 18:00","1993","03","04","18:00","1.2","","-3.6","","70","","4","","31","","24.1","","99.04","","","","","","Cloudy"
"1993-03-04 19:00","1993","03","04","19:00","0.9","","-4.2","","69","","4","","28","","25.0","","99.04","","","","","","Cloudy"
"1993-03-04 20:00","1993","03","04","20:00","1.0","","-3.6","","71","","5","","46","","4.0","","99.04","","","","","","Snow"
"1993-03-04 21:00","1993","03","04","21:00","-2.7","","-3.1","","97","","5","","33","","0.6","","99.01","","","","-10","","Moderate Snow,Blowing Snow"
"1993-03-04 22:00","1993","03","04","22:00","-3.0","","-3.4","","97","","4","","35","","1.6","","98.94","","","","-11","","Snow"
"1993-03-04 23:00","1993","03","04","23:00","-3.0","","-3.4","","97","","5","","24","","1.6","","98.91","","","","-10","","Snow"
"1993-03-05 00:00","1993","03","05","00:00","-2.4","","-3.1","","95","","4","","30","","1.2","","98.81","","","","-10","","Snow"
"1993-03-05 01:00","1993","03","05","01:00","-2.1","","-2.8","","95","","6","","26","","2.0","","98.74","","","","-9","","Snow"
"1993-03-05 02:00","1993","03","05","02:00","-1.5","","-3.0","","89","","7","","33","","3.2","","98.67","","","","-9","","Snow"
"1993-03-05 03:00","1993","03","05","03:00","-1.5","","-3.0","","89","","7","","28","","16.1","","98.61","","","","-8","","Cloudy"
"1993-03-05 04:00","1993","03","05","04:00","-1.3","","-3.9","","82","","7","","28","","4.8","","98.57","","","","-8","","Snow"
"1993-03-05 05:00","1993","03","05","05:00","-1.3","","-4.2","","80","","6","","22","","16.1","","98.57","","","","-7","","Snow"
"1993-03-05 06:00","1993","03","05","06:00","-1.5","","-3.6","","85","","6","","22","","12.9","","98.61","","","","-7","","Snow"
"1993-03-05 07:00","1993","03","05","07:00","-1.5","","-4.2","","82","","7","","31","","19.3","","98.61","","","","-9","","Cloudy"
"1993-03-05 08:00","1993","03","05","08:00","-1.8","","-4.2","","83","","7","","28","","4.0","","98.61","","","","-9","","Snow"
"1993-03-05 09:00","1993","03","05","09:00","-1.6","","-3.0","","90","","7","","28","","2.4","","98.57","","","","-8","","Snow"
"1993-03-05 10:00","1993","03","05","10:00","-1.5","","-3.0","","89","","7","","28","","1.6","","98.57","","","","-8","","Snow"
"1993-03-05 11:00","1993","03","05","11:00","-1.2","","-2.4","","92","","7","","30","","4.0","","98.61","","","","-8","","Snow"
"1993-03-05 12:00","1993","03","05","12:00","-1.2","","-2.4","","92","","7","","28","","2.4","","98.61","","","","-8","","Snow"
"1993-03-05 13:00","1993","03","05","13:00","-1.0","","-2.4","","90","","7","","19","","1.2","","98.61","","","","-6","","Snow"
"1993-03-05 14:00","1993","03","05","14:00","-0.9","","-2.4","","90","","8","","28","","1.6","","98.54","","","","-7","","Snow"
"1993-03-05 15:00","1993","03","05","15:00","-0.6","","-1.6","","93","","7","","30","","2.4","","98.57","","","","-7","","Snow"
"1993-03-05 16:00","1993","03","05","16:00","-0.5","","-1.8","","91","","7","","24","","2.4","","98.57","","","","-6","","Snow"
"1993-03-05 17:00","1993","03","05","17:00","-0.5","","-2.1","","89","","7","","17","","8.0","","98.61","","","","-5","","Snow"
"1993-03-05 18:00","1993","03","05","18:00","-0.5","","-2.1","","89","","3","","13","","4.8","","98.67","","","","-5","","Snow"
"1993-03-05 19:00","1993","03","05","19:00","-0.7","","-2.1","","90","","2","","11","","4.8","","98.74","","","","-4","","Snow"
"1993-03-05 20:00","1993","03","05","20:00","-1.0","","-2.7","","88","","5","","15","","4.8","","98.81","","","","-6","","Snow"
"1993-03-05 21:00","1993","03","05","21:00","-1.0","","-2.7","","88","","5","","15","","4.8","","98.84","","","","-6","","Snow"
"1993-03-05 22:00","1993","03","05","22:00","-1.3","","-3.6","","84","","1","","11","","4.8","","98.87","","","","-5","","Snow"
"1993-03-05 23:00","1993","03","05","23:00","-1.6","","-3.0","","90","","2","","15","","4.8","","98.91","","","","-6","","Snow"
"1993-03-06 00:00","1993","03","06","00:00","-2.4","","-3.4","","93","","3","","15","","3.2","","98.87","","","","-7","","Snow"
"1993-03-06 01:00","1993","03","06","01:00","-2.5","","-4.2","","88","","2","","9","","6.4","","98.87","","","","-6","","Snow"
"1993-03-06 02:00","1993","03","06","02:00","-2.5","","-3.9","","90","","6","","7","","11.3","","98.87","","","","-5","","Snow"
"1993-03-06 03:00","1993","03","06","03:00","-2.6","","-4.2","","89","","","","0","","4.8","","98.87","","","","","","Snow"
"1993-03-06 04:00","1993","03","06","04:00","-2.8","","-4.2","","90","","","","0","","4.8","","98.87","","","","","","Snow"
"1993-03-06 05:00","1993","03","06","05:00","-3.1","","-4.2","","92","","32","","6","","6.4","","98.91","","","","-6","","Snow"
"1993-03-06 06:00","1993","03","06","06:00","-3.0","","-4.5","","89","","30","","4","","6.4","","98.94","","","","-5","","Snow"
"1993-03-06 07:00","1993","03","06","07:00","-3.0","","-4.5","","89","","","","0","","11.3","","98.97","","","","","","Snow"
"1993-03-06 08:00","1993","03","06","08:00","-2.5","","-4.2","","88","","","","0","","11.3","","98.97","","","","","","Snow"
"1993-03-06 09:00","1993","03","06","09:00","-2.0","","-3.6","","89","","19","","4","","4.8","","98.97","","","","-3","","Snow"
"1993-03-06 10:00","1993","03","06","10:00","-1.4","","-3.0","","89","","20","","6","","4.8","","99.01","","","","-4","","Snow"
"1993-03-06 11:00","1993","03","06","11:00","-0.2","","-2.3","","86","","21","","6","","9.7","","99.01","","","","-2","","Snow"
"1993-03-06 12:00","1993","03","06","12:00","0.4","","-1.8","","85","","21","","4","","8.0","","99.01","","","","","","Snow"
"1993-03-06 13:00","1993","03","06","13:00","0.8","","-1.9","","82","","24","","9","","9.7","","98.97","","","","","","Snow"
"1993-03-06 14:00","1993","03","06","14:00","0.8","","-1.5","","85","","28","","13","","12.9","","98.94","","","","","","Snow Showers"
"1993-03-06 15:00","1993","03","06","15:00","0.7","","-2.0","","82","","26","","15","","11.3","","98.94","","","","","","Snow Showers"
"1993-03-06 16:00","1993","03","06","16:00","1.2","","-2.4","","77","","26","","17","","19.3","","98.97","","","","","","Cloudy"
"1993-03-06 17:00","1993","03","06","17:00","1.3","","-2.4","","76","","28","","15","","19.3","","98.97","","","","","","Mostly Cloudy"
"1993-03-06 18:00","1993","03","06","18:00","1.0","","-2.4","","78","","27","","11","","19.3","","99.01","","","","","","Mostly Cloudy"
"1993-03-06 19:00","1993","03","06","19:00","-0.5","","-4.4","","75","","26","","15","","24.1","","99.04","","","","-5","","Mostly Cloudy"
"1993-03-06 20:00","1993","03","06","20:00","-2.0","","-5.1","","79","","27","","19","","24.1","","99.14","","","","-8","","Mainly Clear"
"1993-03-06 21:00","1993","03","06","21:00","-3.6","","-6.7","","79","","26","","15","","24.1","","99.14","","","","-9","","Clear"
"1993-03-06 22:00","1993","03","06","22:00","-5.0","","-7.5","","83","","29","","9","","24.1","","99.14","","","","-9","","Clear"
"1993-03-06 23:00","1993","03","06","23:00","-6.7","","-8.7","","86","","30","","9","","24.1","","99.14","","","","-11","","Clear"
"1993-03-07 00:00","1993","03","07","00:00","-7.0","","-8.2","","91","","28","","4","","24.1","","99.14","","","","-9","","Clear"
"1993-03-07 01:00","1993","03","07","01:00","-7.3","","-9.1","","87","","","","0","","25.0","","99.14","","","","","","Clear"
"1993-03-07 02:00","1993","03","07","02:00","-6.6","","-8.7","","85","","","","0","","25.0","","99.14","","","","","","Clear"
"1993-03-07 03:00","1993","03","07","03:00","-7.0","","-9.6","","82","","","","0","","25.0","","99.11","","","","","","Clear"
"1993-03-07 04:00","1993","03","07","04:00","-6.9","","-9.3","","83","","19","","7","","25.0","","99.11","","","","-10","","Clear"
"1993-03-07 05:00","1993","03","07","05:00","-7.5","","-10.2","","81","","","","0","","25.0","","99.04","","","","","","Clear"
"1993-03-07 06:00","1993","03","07","06:00","-9.2","","-10.5","","90","","","","0","","25.0","","99.04","","","","","","Mainly Clear"
"1993-03-07 07:00","1993","03","07","07:00","-7.6","","-9.9","","84","","","","0","","24.1","","99.04","","","","","","Mostly Cloudy"
"1993-03-07 08:00","1993","03","07","08:00","-6.3","","-9.7","","76","","","","0","","19.3","","99.01","","","","","","Mainly Clear"
"1993-03-07 09:00","1993","03","07","09:00","-3.9","","-8.0","","73","","15","","6","","12.9","","98.97","","","","-7","","Mainly Clear"
"1993-03-07 10:00","1993","03","07","10:00","-1.7","","-5.4","","76","","14","","7","","8.0","","98.94","","","","-4","","Haze"
"1993-03-07 11:00","1993","03","07","11:00","-1.0","","-3.8","","81","","16","","11","","6.4","","98.94","","","","-5","","Haze"
"1993-03-07 12:00","1993","03","07","12:00","-1.0","","-3.8","","81","","22","","20","","6.4","","98.94","","","","-7","","Haze"
"1993-03-07 13:00","1993","03","07","13:00","-0.2","","-1.8","","89","","23","","11","","4.0","","98.91","","","","-4","","Fog"
"1993-03-07 14:00","1993","03","07","14:00","2.2","","-1.0","","79","","22","","11","","8.0","","98.81","","","","","","Haze"
"1993-03-07 15:00","1993","03","07","15:00","2.0","","-0.4","","84","","14","","17","","6.4","","98.71","","","","","","Haze"
"1993-03-07 16:00","1993","03","07","16:00","2.4","","0.1","","85","","15","","15","","8.0","","98.64","","","","","","Haze"
"1993-03-07 17:00","1993","03","07","17:00","2.7","","-0.4","","80","","15","","11","","9.7","","98.61","","","","","","Haze"
"1993-03-07 18:00","1993","03","07","18:00","2.9","","-0.9","","76","","15","","11","","8.0","","98.61","","","","","","Haze"
"1993-03-07 19:00","1993","03","07","19:00","2.6","","-0.4","","81","","13","","13","","19.3","","98.54","","","","","","Rain Showers"
"1993-03-07 20:00","1993","03","07","20:00","2.0","","-0.4","","84","","14","","17","","11.3","","98.47","","","","","","Cloudy"
"1993-03-07 21:00","1993","03","07","21:00","2.1","","-0.4","","83","","13","","20","","12.9","","98.41","","","","","","Cloudy"
"1993-03-07 22:00","1993","03","07","22:00","3.0","","0.7","","85","","18","","17","","12.9","","98.34","","","","","","Cloudy"
"1993-03-07 23:00","1993","03","07","23:00","3.3","","1.7","","90","","19","","19","","11.3","","98.24","","","","","","Cloudy"
"1993-03-08 00:00","1993","03","08","00:00","3.0","","1.6","","91","","22","","15","","11.3","","98.24","","","","","","Cloudy"
"1993-03-08 01:00","1993","03","08","01:00","2.5","","1.1","","91","","23","","13","","11.3","","98.21","","","","","","Cloudy"
"1993-03-08 02:00","1993","03","08","02:00","1.6","","0.5","","92","","25","","7","","9.7","","98.21","","","","","","Fog"
"1993-03-08 03:00","1993","03","08","03:00","1.6","","0.0","","89","","23","","6","","8.0","","98.14","","","","","","Fog"
"1993-03-08 04:00","1993","03","08","04:00","1.4","","0.5","","94","","26","","6","","6.4","","98.14","","","","","","Fog"
"1993-03-08 05:00","1993","03","08","05:00","1.2","","0.0","","92","","28","","4","","6.4","","98.14","","","","","","Fog"
"1993-03-08 06:00","1993","03","08","06:00","1.1","","0.0","","92","","26","","4","","8.0","","98.14","","","","","","Fog"
"1993-03-08 07:00","1993","03","08","07:00","1.0","","-0.5","","90","","25","","4","","11.3","","98.14","","","","","","Cloudy"
"1993-03-08 08:00","1993","03","08","08:00","1.6","","-0.5","","86","","24","","9","","9.7","","98.21","","","","","","Fog"
"1993-03-08 09:00","1993","03","08","09:00","1.7","","-1.0","","82","","24","","9","","8.0","","98.21","","","","","","Haze"
"1993-03-08 10:00","1993","03","08","10:00","1.9","","-1.0","","81","","22","","7","","9.7","","98.21","","","","","","Haze"
"1993-03-08 11:00","1993","03","08","11:00","1.8","","-0.4","","85","","23","","13","","11.3","","98.21","","","","","","Cloudy"
"1993-03-08 12:00","1993","03","08","12:00","2.2","","-2.1","","73","","24","","11","","11.3","","98.21","","","","","","Cloudy"
"1993-03-08 13:00","1993","03","08","13:00","2.3","","-1.5","","76","","24","","13","","12.9","","98.14","","","","","","Mostly Cloudy"
"1993-03-08 14:00","1993","03","08","14:00","1.2","","0.5","","95","","28","","7","","1.6","","98.17","","","","","","Snow Showers"
"1993-03-08 15:00","1993","03","08","15:00","1.2","","0.0","","92","","25","","4","","2.0","","98.17","","","","","","Snow Showers"
"1993-03-08 16:00","1993","03","08","16:00","1.7","","0.0","","88","","25","","7","","4.8","","98.21","","","","","","Rain Showers,Fog"
"1993-03-08 17:00","1993","03","08","17:00","1.4","","0.5","","94","","31","","6","","8.0","","98.27","","","","","","Rain Showers,Fog"
"1993-03-08 18:00","1993","03","08","18:00","1.0","","0.0","","93","","33","","6","","9.7","","98.34","","","","","","Rain Showers,Fog"
"1993-03-08 19:00","1993","03","08","19:00","1.0","","0.0","","93","","34","","7","","8.0","","98.41","","","","","","Snow Showers"
"1993-03-08 20:00","1993","03","08","20:00","1.0","","0.0","","93","","33","","9","","11.3","","98.44","","","","","","Rain Showers,Snow Showers"
"1993-03-08 21:00","1993","03","08","21:00","1.0","","-0.5","","90","","33","","13","","8.0","","98.51","","","","","","Rain Showers,Snow Showers,Fog"
"1993-03-08 22:00","1993","03","08","22:00","0.9","","0.0","","94","","33","","11","","11.3","","98.54","","","","","","Cloudy"
"1993-03-08 23:00","1993","03","08","23:00","0.8","","0.0","","95","","30","","6","","11.3","","98.61","","","","","","Cloudy"
"1993-03-09 00:00","1993","03","09","00:00","1.2","","-2.4","","77","","31","","13","","16.1","","98.61","","","","","","Cloudy"
"1993-03-09 01:00","1993","03","09","01:00","0.5","","-2.0","","83","","31","","15","","19.3","","98.64","","","","","","Mainly Clear"
"1993-03-09 02:00","1993","03","09","02:00","0.5","","-2.5","","80","","31","","26","","16.1","","98.71","","","","","","Mostly Cloudy"
"1993-03-09 03:00","1993","03","09","03:00","0.0","","-3.2","","79","","31","","24","","24.1","","98.77","","","","-6","","Cloudy"
"1993-03-09 04:00","1993","03","09","04:00","-0.7","","-4.7","","74","","32","","26","","24.1","","98.84","","","","-7","","Cloudy"
"1993-03-09 05:00","1993","03","09","05:00","-1.0","","-5.0","","74","","32","","33","","24.1","","98.91","","","","-8","","Mostly Cloudy"
"1993-03-09 06:00","1993","03","09","06:00","-1.5","","-5.4","","75","","32","","33","","24.1","","98.97","","","","-9","","Mostly Cloudy"
"1993-03-09 07:00","1993","03","09","07:00","-1.5","","-6.0","","71","","32","","24","","24.1","","99.11","","","","-8","","Mostly Cloudy"
"1993-03-09 08:00","1993","03","09","08:00","-1.6","","-5.4","","75","","31","","26","","32.2","","99.14","","","","-8","","Mostly Cloudy"
"1993-03-09 09:00","1993","03","09","09:00","-2.3","","-6.7","","71","","31","","30","","40.2","","99.24","","","","-9","","Mainly Clear"
"1993-03-09 10:00","1993","03","09","10:00","-1.8","","-6.0","","73","","32","","26","","40.2","","99.31","","","","-8","","Mainly Clear"
"1993-03-09 11:00","1993","03","09","11:00","-1.8","","-6.0","","73","","33","","30","","40.2","","99.34","","","","-9","","Mostly Cloudy"
"1993-03-09 12:00","1993","03","09","12:00","-1.3","","-6.7","","66","","32","","33","","40.2","","99.37","","","","-8","","Mostly Cloudy"
"1993-03-09 13:00","1993","03","09","13:00","-1.3","","-6.7","","66","","30","","33","","40.2","","99.37","","","","-8","","Mostly Cloudy"
"1993-03-09 14:00","1993","03","09","14:00","-1.5","","-5.4","","75","","28","","33","","40.2","","99.37","","","","-9","","Mostly Cloudy"
"1993-03-09 15:00","1993","03","09","15:00","-1.8","","-8.1","","62","","29","","30","","40.2","","99.44","","","","-9","","Mainly Clear"
"1993-03-09 16:00","1993","03","09","16:00","-2.7","","-7.0","","72","","31","","33","","40.2","","99.47","","","","-10","","Mainly Clear"
"1993-03-09 17:00","1993","03","09","17:00","-3.1","","-6.4","","78","","31","","26","","40.2","","99.54","","","","-10","","Clear"
"1993-03-09 18:00","1993","03","09","18:00","-3.9","","-7.6","","75","","30","","26","","32.2","","99.61","","","","-11","","Clear"
"1993-03-09 19:00","1993","03","09","19:00","-4.6","","-9.8","","67","","30","","24","","25.0","","99.67","","","","-12","","Clear"
"1993-03-09 20:00","1993","03","09","20:00","-5.3","","-11.2","","63","","30","","22","","25.0","","99.77","","","","-12","","Clear"
"1993-03-09 21:00","1993","03","09","21:00","-7.6","","-10.2","","81","","33","","9","","25.0","","99.81","","","","-12","","Clear"
"1993-03-09 22:00","1993","03","09","22:00","-8.6","","-11.9","","77","","27","","9","","25.0","","99.81","","","","-13","","Clear"
"1993-03-09 23:00","1993","03","09","23:00","-8.9","","-11.3","","83","","27","","9","","25.0","","99.81","","","","-14","","Clear"
"1993-03-10 00:00","1993","03","10","00:00","-9.0","","-12.1","","78","","27","","11","","25.0","","99.84","","","","-14","","Clear"
"1993-03-10 01:00","1993","03","10","01:00","-9.0","","-12.1","","78","","30","","7","","25.0","","99.81","","","","-13","","Clear"
"1993-03-10 02:00","1993","03","10","02:00","-9.8","","-12.4","","81","","26","","7","","25.0","","99.77","","","","-14","","Mostly Cloudy"
"1993-03-10 03:00","1993","03","10","03:00","-10.2","","-12.4","","84","","26","","9","","25.0","","99.77","","","","-15","","Mainly Clear"
"1993-03-10 04:00","1993","03","10","04:00","-10.4","","-11.8","","89","","29","","6","","25.0","","99.71","","","","-14","","Clear"
"1993-03-10 05:00","1993","03","10","05:00","-10.0","","-10.8","","94","","33","","6","","25.0","","99.64","","","","-14","","Clear"
"1993-03-10 06:00","1993","03","10","06:00","-10.7","","-11.8","","92","","36","","9","","25.0","","99.51","","","","-16","","Mostly Cloudy"
"1993-03-10 07:00","1993","03","10","07:00","-10.2","","-12.4","","84","","33","","6","","32.2","","99.41","","","","-14","","Mostly Cloudy"
"1993-03-10 08:00","1993","03","10","08:00","-9.4","","-12.7","","77","","","","0","","32.2","","99.41","","","","","","Cloudy"
"1993-03-10 09:00","1993","03","10","09:00","-7.4","","-10.2","","80","","","","0","","32.2","","99.34","","","","","","Cloudy"
"1993-03-10 10:00","1993","03","10","10:00","-3.9","","-8.7","","69","","11","","11","","24.1","","99.27","","","","-8","","Cloudy"
"1993-03-10 11:00","1993","03","10","11:00","-3.3","","-10.7","","56","","9","","15","","24.1","","99.21","","","","-8","","Cloudy"
"1993-03-10 12:00","1993","03","10","12:00","-3.3","","-9.1","","64","","8","","22","","24.1","","99.11","","","","-10","","Cloudy"
"1993-03-10 13:00","1993","03","10","13:00","-3.5","","-8.0","","71","","6","","15","","3.2","","99.01","","","","-9","","Snow"
"1993-03-10 14:00","1993","03","10","14:00","-4.6","","-6.6","","86","","5","","19","","2.4","","98.91","","","","-11","","Snow"
"1993-03-10 15:00","1993","03","10","15:00","-4.3","","-6.0","","88","","3","","19","","2.0","","98.74","","","","-10","","Snow"
"1993-03-10 16:00","1993","03","10","16:00","-3.3","","-6.0","","81","","3","","22","","4.8","","98.71","","","","-10","","Snow"
"1993-03-10 17:00","1993","03","10","17:00","-3.3","","-6.0","","81","","2","","22","","16.1","","98.74","","","","-10","","Snow"
"1993-03-10 18:00","1993","03","10","18:00","-3.6","","-5.4","","87","","1","","22","","2.0","","98.81","","","","-10","","Snow"
"1993-03-10 19:00","1993","03","10","19:00","-4.6","","-5.7","","92","","36","","24","","2.4","","98.84","","","","-12","","Snow"
"1993-03-10 20:00","1993","03","10","20:00","-4.8","","-5.9","","92","","35","","22","","3.2","","98.87","","","","-12","","Snow"
"1993-03-10 21:00","1993","03","10","21:00","-5.3","","-6.8","","89","","34","","26","","6.4","","98.87","","","","-13","","Snow"
"1993-03-10 22:00","1993","03","10","22:00","-6.3","","-8.7","","83","","33","","31","","24.1","","98.87","","","","-15","","Snow"
"1993-03-10 23:00","1993","03","10","23:00","-6.8","","-8.6","","87","","33","","30","","24.1","","98.91","","","","-15","","Snow"
"1993-03-11 00:00","1993","03","11","00:00","-6.7","","-7.6","","93","","34","","26","","25.0","","98.94","","","","-15","","Mainly Clear"
"1993-03-11 01:00","1993","03","11","01:00","-6.3","","-9.0","","81","","33","","31","","25.0","","99.01","","","","-15","","Mainly Clear"
"1993-03-11 02:00","1993","03","11","02:00","-7.2","","-8.6","","90","","33","","30","","16.1","","99.04","","","","-16","","Snow"
"1993-03-11 03:00","1993","03","11","03:00","-7.2","","-9.6","","83","","32","","22","","19.3","","99.11","","","","-15","","Snow"
"1993-03-11 04:00","1993","03","11","04:00","-7.2","","-10.0","","80","","32","","24","","25.0","","99.14","","","","-15","","Mostly Cloudy"
"1993-03-11 05:00","1993","03","11","05:00","-7.8","","-10.8","","79","","32","","28","","25.0","","99.24","","","","-16","","Mainly Clear"
"1993-03-11 06:00","1993","03","11","06:00","-8.8","","-12.1","","77","","32","","24","","25.0","","99.31","","","","-17","","Mainly Clear"
"1993-03-11 07:00","1993","03","11","07:00","-8.8","","-11.7","","79","","33","","26","","32.2","","99.41","","","","-17","","Mainly Clear"
"1993-03-11 08:00","1993","03","11","08:00","-8.9","","-13.4","","70","","33","","26","","40.2","","99.51","","","","-18","","Mainly Clear"
"1993-03-11 09:00","1993","03","11","09:00","-8.0","","-12.9","","68","","34","","30","","40.2","","99.61","","","","-17","","Mostly Cloudy"
"1993-03-11 10:00","1993","03","11","10:00","-6.4","","-12.2","","63","","33","","28","","40.2","","99.64","","","","-15","","Mostly Cloudy"
"1993-03-11 11:00","1993","03","11","11:00","-6.0","","-11.9","","63","","35","","26","","40.2","","99.67","","","","-14","","Mostly Cloudy"
"1993-03-11 12:00","1993","03","11","12:00","-5.1","","-10.5","","66","","34","","19","","40.2","","99.74","","","","-12","","Mostly Cloudy"
"1993-03-11 13:00","1993","03","11","13:00","-4.4","","-13.2","","50","","33","","11","","40.2","","99.71","","","","-9","","Mostly Cloudy"
"1993-03-11 14:00","1993","03","11","14:00","-3.0","","-11.7","","51","","32","","4","","32.2","","99.71","","","","-5","","Cloudy"
"1993-03-11 15:00","1993","03","11","15:00","-2.5","","-8.5","","63","","33","","19","","32.2","","99.71","","","","-8","","Cloudy"
"1993-03-11 16:00","1993","03","11","16:00","-4.1","","-8.7","","70","","1","","24","","32.2","","99.77","","","","-11","","Cloudy"
"1993-03-11 17:00","1993","03","11","17:00","-6.0","","-9.1","","79","","36","","19","","6.4","","99.81","","","","-13","","Snow"
"1993-03-11 18:00","1993","03","11","18:00","-6.4","","-10.1","","75","","36","","19","","32.2","","99.87","","","","-13","","Snow Showers"
"1993-03-11 19:00","1993","03","11","19:00","-7.3","","-11.4","","72","","35","","26","","25.0","","99.97","","","","-15","","Snow Showers"
"1993-03-11 20:00","1993","03","11","20:00","-9.7","","-12.3","","81","","33","","26","","25.0","","100.07","","","","-19","","Mainly Clear"
"1993-03-11 21:00","1993","03","11","21:00","-10.8","","-14.5","","74","","33","","30","","25.0","","100.11","","","","-21","","Mainly Clear"
"1993-03-11 22:00","1993","03","11","22:00","-11.8","","-15.8","","72","","33","","20","","25.0","","100.17","","","","-20","","Clear"
"1993-03-11 23:00","1993","03","11","23:00","-12.8","","-17.1","","70","","32","","15","","25.0","","100.17","","","","-20","","Clear"
"1993-03-12 00:00","1993","03","12","00:00","-13.5","","-17.7","","70","","32","","15","","25.0","","100.21","","","","-21","","Clear"
"1993-03-12 01:00","1993","03","12","01:00","-13.6","","-18.3","","68","","34","","19","","25.0","","100.24","","","","-22","","Clear"
"1993-03-12 02:00","1993","03","12","02:00","-14.7","","-18.4","","74","","34","","11","","25.0","","100.31","","","","-21","","Clear"
"1993-03-12 03:00","1993","03","12","03:00","-16.0","","-21.0","","65","","32","","7","","25.0","","100.31","","","","-21","","Clear"
"1993-03-12 04:00","1993","03","12","04:00","-17.2","","-21.6","","69","","33","","9","","25.0","","100.34","","","","-23","","Clear"
"1993-03-12 05:00","1993","03","12","05:00","-16.3","","-21.7","","63","","33","","6","","25.0","","100.41","","","","-21","","Clear"
"1993-03-12 06:00","1993","03","12","06:00","-17.5","","-23.0","","62","","34","","6","","25.0","","100.47","","","","-22","","Clear"
"1993-03-12 07:00","1993","03","12","07:00","-17.8","","-22.9","","64","","34","","11","","24.1","","100.51","","","","-25","","Clear"
"1993-03-12 08:00","1993","03","12","08:00","-16.8","","-22.4","","62","","36","","7","","40.2","","100.57","","","","-22","","Clear"
"1993-03-12 09:00","1993","03","12","09:00","-14.6","","-20.3","","62","","33","","6","","40.2","","100.57","","","","-19","","Clear"
"1993-03-12 10:00","1993","03","12","10:00","-12.6","","-19.4","","57","","30","","7","","40.2","","100.57","","","","-17","","Clear"
"1993-03-12 11:00","1993","03","12","11:00","-10.8","","-18.3","","54","","29","","4","","40.2","","100.54","","","","-13","","Mainly Clear"
"1993-03-12 12:00","1993","03","12","12:00","-9.2","","-17.6","","50","","","","0","","40.2","","100.47","","","","","","Mainly Clear"
"1993-03-12 13:00","1993","03","12","13:00","-7.6","","-15.1","","55","","","","0","","40.2","","100.44","","","","","","Mainly Clear"
"1993-03-12 14:00","1993","03","12","14:00","-7.8","","-14.8","","57","","13","","9","","40.2","","100.37","","","","-12","","Mainly Clear"
"1993-03-12 15:00","1993","03","12","15:00","-6.9","","-14.8","","53","","","","0","","40.2","","100.31","","","","","","Mainly Clear"
"1993-03-12 16:00","1993","03","12","16:00","-6.2","","-13.7","","55","","","","0","","40.2","","100.27","","","","","","Clear"
"1993-03-12 17:00","1993","03","12","17:00","-7.0","","-13.8","","58","","16","","11","","40.2","","100.31","","","","-12","","Clear"
"1993-03-12 18:00","1993","03","12","18:00","-7.5","","-13.6","","61","","15","","7","","40.2","","100.31","","","","-11","","Clear"
"1993-03-12 19:00","1993","03","12","19:00","-8.7","","-14.6","","62","","15","","7","","25.0","","100.31","","","","-13","","Clear"
"1993-03-12 20:00","1993","03","12","20:00","-8.5","","-12.7","","71","","16","","4","","25.0","","100.31","","","","-11","","Mainly Clear"
"1993-03-12 21:00","1993","03","12","21:00","-8.5","","-11.9","","76","","","","0","","25.0","","100.34","","","","","","Mainly Clear"
"1993-03-12 22:00","1993","03","12","22:00","-8.5","","-12.3","","74","","","","0","","25.0","","100.31","","","","","","Mainly Clear"
"1993-03-12 23:00","1993","03","12","23:00","-10.2","","-13.3","","78","","","","0","","25.0","","100.21","","","","","","Mostly Cloudy"
"1993-03-13 00:00","1993","03","13","00:00","-11.6","","-13.8","","84","","34","","6","","25.0","","100.14","","","","-15","","Cloudy"
"1993-03-13 01:00","1993","03","13","01:00","-10.5","","-12.6","","84","","","","0","","25.0","","100.17","","","","","","Cloudy"
"1993-03-13 02:00","1993","03","13","02:00","-11.1","","-13.6","","82","","35","","6","","25.0","","100.11","","","","-15","","Cloudy"
"1993-03-13 03:00","1993","03","13","03:00","-10.9","","-13.2","","83","","36","","7","","25.0","","100.01","","","","-15","","Cloudy"
"1993-03-13 04:00","1993","03","13","04:00","-10.4","","-12.6","","84","","36","","6","","25.0","","99.94","","","","-14","","Cloudy"
"1993-03-13 05:00","1993","03","13","05:00","-9.8","","-12.9","","78","","2","","7","","25.0","","99.87","","","","-14","","Cloudy"
"1993-03-13 06:00","1993","03","13","06:00","-10.8","","-12.3","","89","","1","","6","","25.0","","99.87","","","","-14","","Cloudy"
"1993-03-13 07:00","1993","03","13","07:00","-9.6","","-10.7","","92","","2","","7","","24.1","","99.74","","","","-14","","Cloudy"
"1993-03-13 08:00","1993","03","13","08:00","-8.2","","-11.6","","76","","5","","9","","24.1","","99.71","","","","-13","","Cloudy"
"1993-03-13 09:00","1993","03","13","09:00","-7.6","","-12.3","","69","","6","","19","","24.1","","99.64","","","","-15","","Cloudy"
"1993-03-13 10:00","1993","03","13","10:00","-7.2","","-13.4","","61","","6","","19","","24.1","","99.54","","","","-14","","Cloudy"
"1993-03-13 11:00","1993","03","13","11:00","-7.1","","-12.9","","63","","4","","26","","24.1","","99.37","","","","-15","","Cloudy"
"1993-03-13 12:00","1993","03","13","12:00","-6.8","","-12.9","","62","","4","","26","","24.1","","99.14","","","","-15","","Cloudy"
"1993-03-13 13:00","1993","03","13","13:00","-7.3","","-12.7","","65","","3","","26","","24.1","","98.94","","","","-15","","Cloudy"
"1993-03-13 14:00","1993","03","13","14:00","-7.3","","-12.3","","67","","2","","28","","24.1","","98.71","","","","-16","","Cloudy"
"1993-03-13 15:00","1993","03","13","15:00","-7.0","","-10.4","","77","","1","","33","","8.0","","98.47","","","","-16","","Snow"
"1993-03-13 16:00","1993","03","13","16:00","-7.1","","-10.0","","80","","2","","41","","2.4","","98.34","","","","-17","","Snow,Blowing Snow"
"1993-03-13 17:00","1993","03","13","17:00","-7.8","","-9.3","","89","","2","","37","","0.8","","98.11","","","","-18","","Moderate Snow,Blowing Snow"
"1993-03-13 18:00","1993","03","13","18:00","-7.9","","-9.3","","90","","2","","44","","1.0","","98.11","","","","-18","","Snow,Blowing Snow"
"1993-03-13 19:00","1993","03","13","19:00","-8.8","","-10.1","","90","","1","","44","","2.0","","97.91","","","","-20","","Snow,Blowing Snow"
"1993-03-13 20:00","1993","03","13","20:00","-10.2","","-11.2","","92","","35","","50","","1.2","","97.87","","","","-22","","Snow,Blowing Snow"
"1993-03-13 21:00","1993","03","13","21:00","-11.2","","-12.3","","92","","35","","52","","1.6","","97.77","","","","-24","","Snow,Blowing Snow"
"1993-03-13 22:00","1993","03","13","22:00","-11.9","","-13.4","","89","","35","","46","","1.6","","97.67","","","","-24","","Snow,Blowing Snow"
"1993-03-13 23:00","1993","03","13","23:00","-12.4","","-14.0","","88","","34","","52","","1.2","","97.61","","","","-25","","Snow,Blowing Snow"
"1993-03-14 00:00","1993","03","14","00:00","-13.4","","-15.1","","87","","34","","57","","1.2","","97.57","","","","-27","","Snow,Blowing Snow"
"1993-03-14 01:00","1993","03","14","01:00","-14.2","","-15.7","","88","","33","","59","","1.0","","97.54","","","","-28","","Snow,Blowing Snow"
"1993-03-14 02:00","1993","03","14","02:00","-14.8","","-16.2","","89","","33","","56","","1.2","","97.54","","","","-29","","Snow,Blowing Snow"
"1993-03-14 03:00","1993","03","14","03:00","-15.3","","-16.8","","88","","33","","57","","1.0","","97.54","","","","-30","","Snow,Blowing Snow"
"1993-03-14 04:00","1993","03","14","04:00","-15.6","","-17.3","","87","","33","","63","","1.6","","97.57","","","","-31","","Snow,Blowing Snow"
"1993-03-14 05:00","1993","03","14","05:00","-15.6","","-17.9","","83","","33","","57","","6.4","","97.71","","","","-30","","Snow,Blowing Snow"
"1993-03-14 06:00","1993","03","14","06:00","-15.2","","-20.3","","65","","33","","56","","12.9","","97.84","","","","-29","","Snow"
"1993-03-14 07:00","1993","03","14","07:00","-15.3","","-19.7","","69","","32","","46","","19.3","","97.97","","","","-29","","Cloudy"
"1993-03-14 08:00","1993","03","14","08:00","-15.2","","-18.4","","77","","32","","57","","24.1","","98.14","","","","-30","","Cloudy"
"1993-03-14 09:00","1993","03","14","09:00","-14.8","","-19.0","","70","","33","","44","","24.1","","98.31","","","","-28","","Cloudy"
"1993-03-14 10:00","1993","03","14","10:00","-14.3","","-19.0","","67","","33","","48","","24.1","","98.41","","","","-27","","Mostly Cloudy"
"1993-03-14 11:00","1993","03","14","11:00","-13.5","","-18.9","","64","","32","","46","","24.1","","98.51","","","","-26","","Mostly Cloudy"
"1993-03-14 12:00","1993","03","14","12:00","-12.0","","-18.6","","58","","31","","41","","24.1","","98.64","","","","-24","","Mostly Cloudy"
"1993-03-14 13:00","1993","03","14","13:00","-12.0","","-17.4","","64","","30","","41","","24.1","","98.74","","","","-24","","Mostly Cloudy"
"1993-03-14 14:00","1993","03","14","14:00","-11.8","","-17.4","","63","","30","","43","","24.1","","98.84","","","","-24","","Mainly Clear"
"1993-03-14 15:00","1993","03","14","15:00","-11.7","","-16.7","","66","","30","","41","","24.1","","99.01","","","","-23","","Mainly Clear"
"1993-03-14 16:00","1993","03","14","16:00","-11.0","","-16.1","","66","","31","","37","","24.1","","99.11","","","","-22","","Mainly Clear"
"1993-03-14 17:00","1993","03","14","17:00","-11.4","","-15.7","","70","","29","","35","","24.1","","99.21","","","","-22","","Mainly Clear"
"1993-03-14 18:00","1993","03","14","18:00","-12.2","","-16.3","","72","","29","","37","","24.1","","99.37","","","","-23","","Mainly Clear"
"1993-03-14 19:00","1993","03","14","19:00","-12.8","","-17.1","","70","","29","","22","","24.1","","99.54","","","","-22","","Mainly Clear"
"1993-03-14 20:00","1993","03","14","20:00","-13.7","","-16.6","","79","","27","","19","","25.0","","99.64","","","","-22","","Mainly Clear"
"1993-03-14 21:00","1993","03","14","21:00","-14.3","","-18.4","","71","","26","","11","","25.0","","99.77","","","","-21","","Mainly Clear"
"1993-03-14 22:00","1993","03","14","22:00","-14.7","","-18.4","","74","","23","","9","","25.0","","99.84","","","","-20","","Mainly Clear"
"1993-03-14 23:00","1993","03","14","23:00","-14.2","","-18.4","","71","","25","","4","","25.0","","99.87","","","","-17","","Mainly Clear"
"1993-03-15 00:00","1993","03","15","00:00","-13.7","","-16.6","","79","","24","","15","","25.0","","99.97","","","","-21","","Mainly Clear"
"1993-03-15 01:00","1993","03","15","01:00","-12.3","","-15.4","","77","","25","","13","","24.1","","100.07","","","","-19","","Mostly Cloudy"
"1993-03-15 02:00","1993","03","15","02:00","-13.4","","-16.6","","77","","25","","4","","25.0","","100.14","","","","-16","","Mainly Clear"
"1993-03-15 03:00","1993","03","15","03:00","-15.0","","-19.0","","71","","33","","9","","25.0","","100.21","","","","-21","","Mainly Clear"
"1993-03-15 04:00","1993","03","15","04:00","-16.3","","-20.3","","71","","32","","11","","25.0","","100.27","","","","-23","","Mainly Clear"
"1993-03-15 05:00","1993","03","15","05:00","-14.9","","-19.0","","71","","29","","4","","25.0","","100.31","","","","-18","","Mainly Clear"
"1993-03-15 06:00","1993","03","15","06:00","-15.2","","-19.0","","73","","26","","15","","25.0","","100.37","","","","-23","","Clear"
"1993-03-15 07:00","1993","03","15","07:00","-13.8","","-18.4","","68","","26","","20","","24.1","","100.47","","","","-23","","Clear"
"1993-03-15 08:00","1993","03","15","08:00","-12.4","","-15.4","","78","","25","","20","","32.2","","100.51","","","","-21","","Clear"
"1993-03-15 09:00","1993","03","15","09:00","-10.0","","-13.3","","77","","24","","22","","32.2","","100.61","","","","-18","","Clear"
"1993-03-15 10:00","1993","03","15","10:00","-8.2","","-11.2","","79","","24","","24","","32.2","","100.64","","","","-16","","Clear"
"1993-03-15 11:00","1993","03","15","11:00","-6.8","","-13.4","","59","","23","","22","","32.2","","100.67","","","","-14","","Clear"
"1993-03-15 12:00","1993","03","15","12:00","-5.8","","-12.8","","58","","25","","28","","32.2","","100.71","","","","-14","","Mainly Clear"
"1993-03-15 13:00","1993","03","15","13:00","-5.7","","-13.0","","56","","24","","26","","32.2","","100.71","","","","-13","","Mainly Clear"
"1993-03-15 14:00","1993","03","15","14:00","-4.9","","-12.6","","55","","23","","30","","32.2","","100.67","","","","-13","","Mainly Clear"
"1993-03-15 15:00","1993","03","15","15:00","-4.9","","-12.6","","55","","21","","26","","32.2","","100.61","","","","-12","","Mostly Cloudy"
"1993-03-15 16:00","1993","03","15","16:00","-4.7","","-9.8","","68","","21","","30","","32.2","","100.61","","","","-13","","Snow Showers"
"1993-03-15 17:00","1993","03","15","17:00","-5.0","","-12.6","","55","","19","","30","","32.2","","100.54","","","","-13","","Cloudy"
"1993-03-15 18:00","1993","03","15","18:00","-5.0","","-11.3","","61","","19","","22","","32.2","","100.51","","","","-12","","Cloudy"
"1993-03-15 19:00","1993","03","15","19:00","-5.0","","-11.3","","61","","18","","26","","25.0","","100.47","","","","-12","","Cloudy"
"1993-03-15 20:00","1993","03","15","20:00","-4.3","","-7.9","","76","","17","","22","","25.0","","100.37","","","","-11","","Cloudy"
"1993-03-15 21:00","1993","03","15","21:00","-4.9","","-6.9","","86","","19","","22","","3.2","","100.41","","","","-12","","Snow"
"1993-03-15 22:00","1993","03","15","22:00","-4.7","","-6.0","","91","","16","","15","","12.9","","100.37","","","","-10","","Snow"
"1993-03-15 23:00","1993","03","15","23:00","-3.6","","-6.0","","83","","17","","17","","25.0","","100.31","","","","-9","","Cloudy"
"1993-03-16 00:00","1993","03","16","00:00","-3.0","","-4.2","","91","","16","","20","","25.0","","100.21","","","","-9","","Cloudy"
"1993-03-16 01:00","1993","03","16","01:00","-2.6","","-7.0","","72","","16","","19","","25.0","","100.14","","","","-8","","Cloudy"
"1993-03-16 02:00","1993","03","16","02:00","-2.0","","-7.4","","66","","16","","13","","25.0","","100.04","","","","-6","","Cloudy"
"1993-03-16 03:00","1993","03","16","03:00","-1.3","","-7.0","","65","","16","","13","","25.0","","99.97","","","","-6","","Cloudy"
"1993-03-16 04:00","1993","03","16","04:00","0.0","","-5.0","","69","","19","","15","","25.0","","99.87","","","","-4","","Cloudy"
"1993-03-16 05:00","1993","03","16","05:00","1.0","","-4.2","","68","","21","","26","","25.0","","99.87","","","","","","Cloudy"
"1993-03-16 06:00","1993","03","16","06:00","1.6","","-3.5","","69","","20","","26","","25.0","","99.91","","","","","","Mostly Cloudy"
"1993-03-16 07:00","1993","03","16","07:00","1.2","","-4.2","","67","","19","","28","","24.1","","99.91","","","","","","Mostly Cloudy"
"1993-03-16 08:00","1993","03","16","08:00","1.5","","-4.1","","66","","19","","24","","24.1","","99.87","","","","","","Cloudy"
"1993-03-16 09:00","1993","03","16","09:00","2.6","","-4.6","","59","","20","","39","","19.3","","99.81","","","","","","Cloudy"
"1993-03-16 10:00","1993","03","16","10:00","2.2","","-1.0","","79","","20","","43","","12.9","","99.81","","","","","","Rain,Snow"
"1993-03-16 11:00","1993","03","16","11:00","2.0","","-0.4","","84","","20","","41","","11.3","","99.74","","","","","","Rain,Snow"
"1993-03-16 12:00","1993","03","16","12:00","2.2","","0.1","","86","","20","","44","","12.9","","99.71","","","","","","Rain"
"1993-03-16 13:00","1993","03","16","13:00","2.3","","0.1","","86","","21","","48","","8.0","","99.61","","","","","","Rain,Snow,Fog"
"1993-03-16 14:00","1993","03","16","14:00","2.0","","0.6","","90","","21","","48","","8.0","","99.57","","","","","","Rain,Snow"
"1993-03-16 15:00","1993","03","16","15:00","2.2","","-0.4","","83","","20","","44","","8.0","","99.51","","","","","","Rain,Fog"
"1993-03-16 16:00","1993","03","16","16:00","1.8","","0.6","","92","","20","","35","","4.8","","99.47","","","","","","Rain,Snow,Fog"
"1993-03-16 17:00","1993","03","16","17:00","1.6","","0.5","","92","","20","","37","","8.0","","99.47","","","","","","Rain,Snow"
"1993-03-16 18:00","1993","03","16","18:00","1.9","","1.1","","95","","21","","46","","9.7","","99.47","","","","","","Rain,Snow"
"1993-03-16 19:00","1993","03","16","19:00","1.6","","0.5","","92","","22","","44","","6.4","","99.47","","","","","","Rain,Snow,Fog"
"1993-03-16 20:00","1993","03","16","20:00","1.8","","0.6","","92","","21","","41","","11.3","","99.47","","","","","","Rain"
"1993-03-16 21:00","1993","03","16","21:00","2.2","","0.1","","86","","21","","37","","12.9","","99.51","","","","","","Rain"
"1993-03-16 22:00","1993","03","16","22:00","2.3","","1.1","","92","","21","","31","","11.3","","99.57","","","","","","Rain"
"1993-03-16 23:00","1993","03","16","23:00","2.0","","0.1","","87","","21","","22","","16.1","","99.57","","","","","","Rain"
"1993-03-17 00:00","1993","03","17","00:00","2.0","","0.6","","90","","22","","24","","12.9","","99.54","","","","","","Rain"
"1993-03-17 01:00","1993","03","17","01:00","2.1","","0.6","","90","","21","","20","","19.3","","99.57","","","","","","Rain"
"1993-03-17 02:00","1993","03","17","02:00","2.0","","0.6","","90","","30","","24","","6.4","","99.57","","","","","","Rain,Fog"
"1993-03-17 03:00","1993","03","17","03:00","-1.1","","-1.4","","98","","34","","33","","1.6","","99.74","","","","-8","","Snow"
"1993-03-17 04:00","1993","03","17","04:00","-2.2","","-3.3","","92","","31","","31","","6.4","","99.87","","","","-9","","Snow Showers,Snow Pellets"
"1993-03-17 05:00","1993","03","17","05:00","-3.2","","-6.0","","81","","32","","33","","16.1","","99.97","","","","-11","","Snow Showers"
"1993-03-17 06:00","1993","03","17","06:00","-4.3","","-9.8","","65","","32","","37","","24.1","","100.11","","","","-13","","Cloudy"
"1993-03-17 07:00","1993","03","17","07:00","-4.7","","-10.2","","65","","33","","37","","24.1","","100.27","","","","-13","","Mostly Cloudy"
"1993-03-17 08:00","1993","03","17","08:00","-5.4","","-10.4","","68","","31","","26","","32.2","","100.37","","","","-13","","Cloudy"
"1993-03-17 09:00","1993","03","17","09:00","-5.9","","-10.3","","71","","33","","41","","32.2","","100.51","","","","-15","","Cloudy"
"1993-03-17 10:00","1993","03","17","10:00","-6.4","","-10.1","","75","","35","","33","","32.2","","100.64","","","","-15","","Cloudy"
"1993-03-17 11:00","1993","03","17","11:00","-7.0","","-11.6","","69","","33","","33","","32.2","","100.77","","","","-16","","Cloudy"
"1993-03-17 12:00","1993","03","17","12:00","-7.4","","-11.4","","73","","35","","37","","32.2","","100.81","","","","-17","","Mostly Cloudy"
"1993-03-17 13:00","1993","03","17","13:00","-8.2","","-12.5","","71","","33","","37","","32.2","","100.91","","","","-18","","Cloudy"
"1993-03-17 14:00","1993","03","17","14:00","-8.8","","-13.4","","69","","34","","44","","32.2","","100.91","","","","-20","","Mostly Cloudy"
"1993-03-17 15:00","1993","03","17","15:00","-9.2","","-13.4","","72","","36","","33","","32.2","","101.01","","","","-19","","Mainly Clear"
"1993-03-17 16:00","1993","03","17","16:00","-10.0","","-16.2","","60","","35","","41","","32.2","","101.01","","","","-21","","Mainly Clear"
"1993-03-17 17:00","1993","03","17","17:00","-10.3","","-15.4","","66","","34","","37","","32.2","","101.07","","","","-21","","Clear"
"1993-03-17 18:00","1993","03","17","18:00","-11.2","","-16.1","","67","","35","","30","","32.2","","101.11","","","","-21","","Clear"
"1993-03-17 19:00","1993","03","17","19:00","-11.5","","-16.2","","68","","34","","26","","25.0","","101.24","","","","-21","","Clear"
"1993-03-17 20:00","1993","03","17","20:00","-12.2","","-16.9","","68","","32","","22","","25.0","","101.34","","","","-21","","Clear"
"1993-03-17 21:00","1993","03","17","21:00","-12.7","","-16.4","","74","","34","","22","","25.0","","101.37","","","","-22","","Clear"
"1993-03-17 22:00","1993","03","17","22:00","-12.2","","-17.1","","67","","34","","19","","25.0","","101.41","","","","-20","","Clear"
"1993-03-17 23:00","1993","03","17","23:00","-13.7","","-17.7","","72","","34","","13","","25.0","","101.41","","","","-21","","Clear"
"1993-03-18 00:00","1993","03","18","00:00","-13.9","","-18.4","","69","","32","","7","","25.0","","101.47","","","","-19","","Clear"
"1993-03-18 01:00","1993","03","18","01:00","-13.8","","-19.0","","65","","32","","13","","25.0","","101.47","","","","-21","","Clear"
"1993-03-18 02:00","1993","03","18","02:00","-14.3","","-19.0","","67","","35","","11","","25.0","","101.51","","","","-21","","Clear"
"1993-03-18 03:00","1993","03","18","03:00","-14.4","","-19.0","","68","","34","","4","","25.0","","101.51","","","","-17","","Clear"
"1993-03-18 04:00","1993","03","18","04:00","-14.8","","-19.7","","66","","35","","4","","25.0","","101.54","","","","-18","","Clear"
"1993-03-18 05:00","1993","03","18","05:00","-15.0","","-19.7","","67","","32","","4","","25.0","","101.57","","","","-18","","Clear"
"1993-03-18 06:00","1993","03","18","06:00","-15.3","","-20.3","","66","","35","","6","","25.0","","101.64","","","","-20","","Clear"
"1993-03-18 07:00","1993","03","18","07:00","-15.2","","-19.0","","73","","33","","7","","19.3","","101.74","","","","-20","","Clear"
"1993-03-18 08:00","1993","03","18","08:00","-13.6","","-17.7","","71","","1","","4","","24.1","","101.81","","","","-16","","Clear"
"1993-03-18 09:00","1993","03","18","09:00","-12.1","","-18.0","","61","","","","0","","24.1","","101.84","","","","","","Clear"
"1993-03-18 10:00","1993","03","18","10:00","-10.8","","-17.7","","56","","2","","4","","32.2","","101.87","","","","-13","","Clear"
"1993-03-18 11:00","1993","03","18","11:00","-8.9","","-15.3","","60","","","","0","","32.2","","101.91","","","","","","Clear"
"1993-03-18 12:00","1993","03","18","12:00","-8.2","","-18.3","","44","","","","0","","32.2","","101.87","","","","","","Mainly Clear"
"1993-03-18 13:00","1993","03","18","13:00","-7.7","","-16.2","","50","","","","0","","32.2","","101.87","","","","","","Mainly Clear"
"1993-03-18 14:00","1993","03","18","14:00","-7.1","","-15.4","","51","","14","","11","","32.2","","101.87","","","","-12","","Mainly Clear"
"1993-03-18 15:00","1993","03","18","15:00","-6.7","","-14.5","","54","","","","0","","32.2","","101.87","","","","","","Mainly Clear"
"1993-03-18 16:00","1993","03","18","16:00","-6.8","","-13.4","","59","","","","0","","32.2","","101.87","","","","","","Clear"
"1993-03-18 17:00","1993","03","18","17:00","-6.7","","-13.5","","58","","17","","11","","32.2","","101.87","","","","-12","","Clear"
"1993-03-18 18:00","1993","03","18","18:00","-7.2","","-13.4","","61","","17","","7","","32.2","","101.87","","","","-11","","Clear"
"1993-03-18 19:00","1993","03","18","19:00","-8.0","","-13.4","","65","","16","","9","","25.0","","101.87","","","","-13","","Clear"
"1993-03-18 20:00","1993","03","18","20:00","-8.4","","-13.2","","68","","17","","9","","25.0","","101.87","","","","-13","","Clear"
"1993-03-18 21:00","1993","03","18","21:00","-8.5","","-12.7","","71","","","","0","","25.0","","101.87","","","","","","Clear"
"1993-03-18 22:00","1993","03","18","22:00","-8.5","","-12.3","","74","","","","0","","25.0","","101.91","","","","","","Clear"
"1993-03-18 23:00","1993","03","18","23:00","-8.9","","-12.5","","75","","","","0","","25.0","","101.87","","","","","","Mainly Clear"
"1993-03-19 00:00","1993","03","19","00:00","-8.9","","-11.7","","80","","13","","4","","25.0","","101.81","","","","-11","","Mainly Clear"
"1993-03-19 01:00","1993","03","19","01:00","-9.5","","-12.3","","80","","16","","4","","25.0","","101.81","","","","-12","","Mainly Clear"
"1993-03-19 02:00","1993","03","19","02:00","-11.2","","-12.8","","88","","","","0","","25.0","","101.87","","","","","","Clear"
"1993-03-19 03:00","1993","03","19","03:00","-11.2","","-13.6","","82","","","","0","","25.0","","101.81","","","","","","Clear"
"1993-03-19 04:00","1993","03","19","04:00","-11.9","","-13.9","","85","","5","","4","","25.0","","101.77","","","","-14","","Clear"
"1993-03-19 05:00","1993","03","19","05:00","-11.3","","-13.8","","82","","8","","7","","25.0","","101.74","","","","-16","","Clear"
"1993-03-19 06:00","1993","03","19","06:00","-9.6","","-12.7","","78","","11","","13","","25.0","","101.77","","","","-16","","Clear"
"1993-03-19 07:00","1993","03","19","07:00","-8.5","","-14.1","","64","","12","","17","","24.1","","101.77","","","","-15","","Clear"
"1993-03-19 08:00","1993","03","19","08:00","-7.3","","-15.6","","51","","13","","24","","32.2","","101.81","","","","-15","","Clear"
"1993-03-19 09:00","1993","03","19","09:00","-6.3","","-15.6","","47","","13","","31","","32.2","","101.77","","","","-15","","Clear"
"1993-03-19 10:00","1993","03","19","10:00","-5.0","","-12.2","","57","","12","","30","","32.2","","101.74","","","","-13","","Clear"
"1993-03-19 11:00","1993","03","19","11:00","-4.7","","-13.7","","49","","13","","24","","32.2","","101.67","","","","-12","","Mainly Clear"
"1993-03-19 12:00","1993","03","19","12:00","-3.6","","-11.2","","55","","9","","22","","32.2","","101.51","","","","-10","","Mostly Cloudy"
"1993-03-19 13:00","1993","03","19","13:00","-3.4","","-10.3","","59","","8","","19","","32.2","","101.51","","","","-9","","Mostly Cloudy"
"1993-03-19 14:00","1993","03","19","14:00","-2.9","","-10.8","","54","","10","","20","","32.2","","101.41","","","","-9","","Mostly Cloudy"
"1993-03-19 15:00","1993","03","19","15:00","-2.8","","-11.7","","50","","10","","19","","32.2","","101.34","","","","-9","","Cloudy"
"1993-03-19 16:00","1993","03","19","16:00","-2.6","","-9.6","","58","","9","","22","","32.2","","101.27","","","","-9","","Cloudy"
"1993-03-19 17:00","1993","03","19","17:00","-3.2","","-9.2","","63","","10","","19","","32.2","","101.24","","","","-9","","Cloudy"
"1993-03-19 18:00","1993","03","19","18:00","-3.3","","-9.1","","64","","10","","19","","24.1","","101.17","","","","-9","","Cloudy"
"1993-03-19 19:00","1993","03","19","19:00","-3.1","","-7.7","","70","","10","","15","","25.0","","101.11","","","","-8","","Cloudy"
"1993-03-19 20:00","1993","03","19","20:00","-2.5","","-7.4","","69","","10","","13","","25.0","","101.07","","","","-7","","Cloudy"
"1993-03-19 21:00","1993","03","19","21:00","-2.0","","-6.7","","70","","10","","9","","25.0","","101.01","","","","-5","","Cloudy"
"1993-03-19 22:00","1993","03","19","22:00","-1.6","","-5.7","","73","","10","","6","","25.0","","100.91","","","","-4","","Cloudy"
"1993-03-19 23:00","1993","03","19","23:00","-1.0","","-5.0","","74","","11","","6","","25.0","","100.84","","","","-3","","Cloudy"
"1993-03-20 00:00","1993","03","20","00:00","-1.0","","-4.7","","76","","","","0","","25.0","","100.77","","","","","","Cloudy"
"1993-03-20 01:00","1993","03","20","01:00","-0.6","","-3.5","","81","","12","","9","","25.0","","100.71","","","","-4","","Cloudy"
"1993-03-20 02:00","1993","03","20","02:00","-0.7","","-2.9","","85","","14","","4","","24.1","","100.67","","","","-2","","Cloudy"
"1993-03-20 03:00","1993","03","20","03:00","-1.0","","-3.0","","86","","17","","7","","4.0","","100.64","","","","-4","","Snow"
"1993-03-20 04:00","1993","03","20","04:00","-1.6","","-4.2","","82","","","","0","","16.1","","100.61","","","","","","Cloudy"
"1993-03-20 05:00","1993","03","20","05:00","-2.0","","-3.3","","91","","15","","11","","2.8","","100.57","","","","-6","","Snow"
"1993-03-20 06:00","1993","03","20","06:00","-2.0","","-2.8","","94","","14","","13","","2.8","","100.51","","","","-6","","Snow"
"1993-03-20 07:00","1993","03","20","07:00","-1.7","","-1.7","","100","","14","","20","","2.0","","100.47","","","","-7","","Snow"
"1993-03-20 08:00","1993","03","20","08:00","-1.5","","-1.7","","98","","16","","19","","2.8","","100.47","","","","-7","","Snow"
"1993-03-20 09:00","1993","03","20","09:00","-1.2","","-1.2","","100","","15","","19","","2.4","","100.44","","","","-7","","Snow"
"1993-03-20 10:00","1993","03","20","10:00","-0.8","","-1.4","","96","","15","","13","","2.4","","100.41","","","","-5","","Snow"
"1993-03-20 11:00","1993","03","20","11:00","-0.5","","-0.8","","98","","17","","11","","4.0","","100.41","","","","-4","","Snow"
"1993-03-20 12:00","1993","03","20","12:00","-0.3","","-0.6","","98","","15","","9","","3.2","","100.37","","","","-3","","Snow,Fog"
"1993-03-20 13:00","1993","03","20","13:00","0.2","","-0.3","","96","","13","","9","","3.2","","100.31","","","","","","Snow,Fog"
"1993-03-20 14:00","1993","03","20","14:00","0.6","","-0.9","","90","","13","","11","","2.8","","100.24","","","","","","Drizzle,Fog"
"1993-03-20 15:00","1993","03","20","15:00","1.0","","0.5","","96","","14","","6","","1.6","","100.21","","","","","","Drizzle,Fog"
"1993-03-20 16:00","1993","03","20","16:00","1.1","","0.5","","96","","14","","9","","3.2","","100.21","","","","","","Drizzle,Fog"
"1993-03-20 17:00","1993","03","20","17:00","2.0","","1.1","","94","","18","","7","","4.0","","100.17","","","","","","Fog"
"1993-03-20 18:00","1993","03","20","18:00","1.6","","1.0","","96","","19","","7","","1.2","","100.17","","","","","","Drizzle,Fog"
"1993-03-20 19:00","1993","03","20","19:00","1.3","","1.3","","100","","17","","6","","0.8","","100.17","","","","","","Drizzle,Fog"
"1993-03-20 20:00","1993","03","20","20:00","1.4","","1.0","","97","","19","","7","","4.0","","100.11","","","","","","Drizzle,Fog"
"1993-03-20 21:00","1993","03","20","21:00","1.5","","0.5","","93","","19","","6","","4.0","","100.11","","","","","","Drizzle,Fog"
"1993-03-20 22:00","1993","03","20","22:00","1.4","","1.0","","97","","21","","4","","2.8","","100.07","","","","","","Drizzle,Fog"
"1993-03-20 23:00","1993","03","20","23:00","1.3","","1.0","","98","","19","","4","","2.8","","100.01","","","","","","Drizzle,Fog"
"1993-03-21 00:00","1993","03","21","00:00","1.0","","0.5","","96","","26","","4","","3.2","","99.94","","","","","","Rain,Snow,Fog"
"1993-03-21 01:00","1993","03","21","01:00","1.0","","0.5","","96","","24","","4","","4.8","","99.91","","","","","","Rain,Snow"
"1993-03-21 02:00","1993","03","21","02:00","0.8","","0.5","","98","","25","","6","","4.8","","99.91","","","","","","Snow"
"1993-03-21 03:00","1993","03","21","03:00","0.5","","0.0","","96","","29","","15","","2.8","","99.94","","","","","","Snow"
"1993-03-21 04:00","1993","03","21","04:00","0.3","","-0.4","","95","","29","","15","","4.0","","100.01","","","","","","Snow"
"1993-03-21 05:00","1993","03","21","05:00","0.2","","-0.5","","95","","29","","11","","11.3","","100.07","","","","","","Cloudy"
"1993-03-21 06:00","1993","03","21","06:00","-0.6","","-2.1","","90","","27","","13","","12.9","","100.17","","","","-5","","Mostly Cloudy"
"1993-03-21 07:00","1993","03","21","07:00","-0.6","","-2.4","","88","","26","","11","","16.1","","100.27","","","","-4","","Cloudy"
"1993-03-21 08:00","1993","03","21","08:00","-0.3","","-2.1","","87","","26","","11","","16.1","","100.31","","","","-4","","Cloudy"
"1993-03-21 09:00","1993","03","21","09:00","0.0","","-1.8","","88","","26","","11","","16.1","","100.37","","","","-4","","Cloudy"
"1993-03-21 10:00","1993","03","21","10:00","0.7","","-2.0","","82","","27","","11","","16.1","","100.41","","","","","","Cloudy"
"1993-03-21 11:00","1993","03","21","11:00","1.7","","-2.4","","74","","27","","11","","16.1","","100.44","","","","","","Mainly Clear"
"1993-03-21 12:00","1993","03","21","12:00","2.0","","-3.2","","68","","27","","22","","19.3","","100.44","","","","","","Mainly Clear"
"1993-03-21 13:00","1993","03","21","13:00","2.0","","-3.2","","68","","30","","22","","19.3","","100.47","","","","","","Mostly Cloudy"
"1993-03-21 14:00","1993","03","21","14:00","2.0","","-3.2","","68","","28","","19","","24.1","","100.44","","","","","","Cloudy"
"1993-03-21 15:00","1993","03","21","15:00","2.0","","-3.2","","68","","27","","15","","24.1","","100.44","","","","","","Mostly Cloudy"
"1993-03-21 16:00","1993","03","21","16:00","2.0","","-3.2","","68","","28","","15","","24.1","","100.47","","","","","","Mostly Cloudy"
"1993-03-21 17:00","1993","03","21","17:00","1.5","","-2.9","","73","","28","","15","","24.1","","100.51","","","","","","Cloudy"
"1993-03-21 18:00","1993","03","21","18:00","1.5","","-2.9","","73","","26","","19","","24.1","","100.54","","","","","","Cloudy"
"1993-03-21 19:00","1993","03","21","19:00","1.1","","-2.4","","77","","26","","11","","24.1","","100.61","","","","","","Cloudy"
"1993-03-21 20:00","1993","03","21","20:00","0.8","","-2.4","","79","","25","","15","","25.0","","100.61","","","","","","Cloudy"
"1993-03-21 21:00","1993","03","21","21:00","0.6","","-2.5","","80","","27","","13","","25.0","","100.64","","","","","","Cloudy"
"1993-03-21 22:00","1993","03","21","22:00","0.3","","-1.9","","85","","28","","13","","25.0","","100.67","","","","","","Cloudy"
"1993-03-21 23:00","1993","03","21","23:00","-0.5","","-2.9","","84","","29","","13","","25.0","","100.71","","","","-5","","Mostly Cloudy"
"1993-03-22 00:00","1993","03","22","00:00","-1.5","","-4.2","","82","","30","","11","","25.0","","100.67","","","","-5","","Mostly Cloudy"
"1993-03-22 01:00","1993","03","22","01:00","-2.4","","-4.5","","85","","31","","11","","25.0","","100.74","","","","-6","","Mostly Cloudy"
"1993-03-22 02:00","1993","03","22","02:00","-2.7","","-5.1","","84","","31","","13","","25.0","","100.77","","","","-7","","Mostly Cloudy"
"1993-03-22 03:00","1993","03","22","03:00","-3.8","","-5.7","","86","","33","","13","","25.0","","100.81","","","","-9","","Mostly Cloudy"
"1993-03-22 04:00","1993","03","22","04:00","-4.4","","-6.0","","88","","27","","4","","25.0","","100.84","","","","-6","","Mostly Cloudy"
"1993-03-22 05:00","1993","03","22","05:00","-5.0","","-6.6","","88","","28","","6","","25.0","","100.87","","","","-8","","Mostly Cloudy"
"1993-03-22 06:00","1993","03","22","06:00","-5.0","","-6.9","","87","","26","","7","","25.0","","101.01","","","","-8","","Mainly Clear"
"1993-03-22 07:00","1993","03","22","07:00","-5.4","","-6.8","","90","","29","","7","","24.1","","101.11","","","","-9","","Mainly Clear"
"1993-03-22 08:00","1993","03","22","08:00","-3.8","","-6.6","","81","","33","","7","","32.2","","101.21","","","","-7","","Mainly Clear"
"1993-03-22 09:00","1993","03","22","09:00","-2.2","","-5.4","","79","","35","","19","","32.2","","101.24","","","","-8","","Mainly Clear"
"1993-03-22 10:00","1993","03","22","10:00","-1.8","","-5.7","","74","","36","","7","","32.2","","101.27","","","","-4","","Mainly Clear"
"1993-03-22 11:00","1993","03","22","11:00","-0.8","","-5.0","","73","","","","0","","32.2","","101.27","","","","","","Mainly Clear"
"1993-03-22 12:00","1993","03","22","12:00","-0.1","","-4.5","","72","","31","","4","","32.2","","101.24","","","","-1","","Mainly Clear"
"1993-03-22 13:00","1993","03","22","13:00","1.1","","-4.8","","65","","3","","4","","32.2","","101.24","","","","","","Mainly Clear"
"1993-03-22 14:00","1993","03","22","14:00","1.6","","-2.9","","72","","31","","11","","32.2","","101.17","","","","","","Mainly Clear"
"1993-03-22 15:00","1993","03","22","15:00","1.9","","-3.2","","69","","14","","7","","24.1","","101.17","","","","","","Mostly Cloudy"
"1993-03-22 16:00","1993","03","22","16:00","2.0","","-3.2","","68","","17","","7","","24.1","","101.14","","","","","","Mainly Clear"
"1993-03-22 17:00","1993","03","22","17:00","1.4","","-2.9","","73","","17","","11","","24.1","","101.14","","","","","","Mainly Clear"
"1993-03-22 18:00","1993","03","22","18:00","0.6","","-4.3","","70","","17","","7","","24.1","","101.17","","","","","","Clear"
"1993-03-22 19:00","1993","03","22","19:00","-0.7","","-4.4","","76","","17","","6","","24.1","","101.17","","","","-3","","Clear"
"1993-03-22 20:00","1993","03","22","20:00","-1.0","","-5.0","","74","","","","0","","25.0","","101.17","","","","","","Mainly Clear"
"1993-03-22 21:00","1993","03","22","21:00","-1.0","","-6.7","","65","","","","0","","25.0","","101.14","","","","","","Mainly Clear"
"1993-03-22 22:00","1993","03","22","22:00","-1.9","","-5.4","","77","","12","","4","","25.0","","101.11","","","","-3","","Clear"
"1993-03-22 23:00","1993","03","22","23:00","-2.5","","-5.7","","78","","","","0","","25.0","","101.11","","","","","","Clear"
"1993-03-23 00:00","1993","03","23","00:00","-2.0","","-5.1","","79","","4","","4","","25.0","","101.04","","","","-3","","Clear"
"1993-03-23 01:00","1993","03","23","01:00","-4.4","","-5.7","","90","","35","","4","","25.0","","101.01","","","","-6","","Mainly Clear"
"1993-03-23 02:00","1993","03","23","02:00","-5.0","","-6.3","","91","","3","","6","","24.1","","100.97","","","","-8","","Mainly Clear"
"1993-03-23 03:00","1993","03","23","03:00","-3.9","","-5.4","","89","","5","","9","","19.3","","100.91","","","","-8","","Mainly Clear"
"1993-03-23 04:00","1993","03","23","04:00","-2.5","","-3.4","","94","","5","","7","","6.4","","100.87","","","","-5","","Fog"
"1993-03-23 05:00","1993","03","23","05:00","-2.2","","-3.1","","94","","5","","7","","12.9","","100.81","","","","-5","","Cloudy"
"1993-03-23 06:00","1993","03","23","06:00","-1.9","","-3.6","","88","","5","","11","","19.3","","100.81","","","","-6","","Mostly Cloudy"
"1993-03-23 07:00","1993","03","23","07:00","-0.4","","-3.4","","80","","8","","22","","24.1","","100.71","","","","-6","","Cloudy"
"1993-03-23 08:00","1993","03","23","08:00","0.1","","-2.7","","81","","9","","26","","24.1","","100.71","","","","","","Cloudy"
"1993-03-23 09:00","1993","03","23","09:00","0.7","","-3.1","","75","","9","","22","","24.1","","100.67","","","","","","Cloudy"
"1993-03-23 10:00","1993","03","23","10:00","1.1","","-3.0","","74","","9","","26","","24.1","","100.61","","","","","","Cloudy"
"1993-03-23 11:00","1993","03","23","11:00","1.1","","-3.0","","74","","9","","26","","24.1","","100.57","","","","","","Cloudy"
"1993-03-23 12:00","1993","03","23","12:00","1.3","","-2.4","","76","","10","","26","","24.1","","100.51","","","","","","Cloudy"
"1993-03-23 13:00","1993","03","23","13:00","1.3","","-2.1","","78","","9","","33","","24.1","","100.41","","","","","","Rain"
"1993-03-23 14:00","1993","03","23","14:00","1.0","","-1.9","","81","","9","","22","","19.3","","100.34","","","","","","Rain"
"1993-03-23 15:00","1993","03","23","15:00","1.0","","-1.5","","83","","9","","28","","16.1","","100.27","","","","","","Rain"
"1993-03-23 16:00","1993","03","23","16:00","1.0","","-1.5","","83","","9","","26","","19.3","","100.17","","","","","","Rain"
"1993-03-23 17:00","1993","03","23","17:00","1.0","","-1.5","","83","","9","","22","","19.3","","100.14","","","","","","Rain"
"1993-03-23 18:00","1993","03","23","18:00","0.8","","-1.0","","88","","9","","22","","12.9","","100.14","","","","","","Rain"
"1993-03-23 19:00","1993","03","23","19:00","0.7","","-0.9","","89","","7","","19","","8.0","","100.11","","","","","","Drizzle,Fog"
"1993-03-23 20:00","1993","03","23","20:00","0.8","","0.0","","95","","6","","24","","8.0","","100.11","","","","","","Drizzle,Fog"
"1993-03-23 21:00","1993","03","23","21:00","1.1","","0.0","","92","","8","","20","","6.4","","100.07","","","","","","Drizzle,Fog"
"1993-03-23 22:00","1993","03","23","22:00","1.2","","0.5","","95","","6","","15","","6.4","","100.07","","","","","","Drizzle,Fog"
"1993-03-23 23:00","1993","03","23","23:00","1.2","","0.5","","95","","7","","19","","4.8","","100.04","","","","","","Fog"
"1993-03-24 00:00","1993","03","24","00:00","1.1","","0.5","","96","","7","","19","","4.0","","100.01","","","","","","Fog"
"1993-03-24 01:00","1993","03","24","01:00","1.1","","0.5","","96","","6","","20","","3.2","","100.01","","","","","","Fog"
"1993-03-24 02:00","1993","03","24","02:00","1.1","","0.5","","96","","6","","13","","3.2","","100.01","","","","","","Fog"
"1993-03-24 03:00","1993","03","24","03:00","1.0","","1.0","","100","","6","","15","","1.6","","99.91","","","","","","Drizzle,Fog"
"1993-03-24 04:00","1993","03","24","04:00","1.0","","1.0","","100","","4","","15","","1.2","","99.94","","","","","","Drizzle,Fog"
"1993-03-24 05:00","1993","03","24","05:00","1.0","","1.0","","100","","7","","13","","1.6","","99.97","","","","","","Drizzle,Fog"
"1993-03-24 06:00","1993","03","24","06:00","0.9","","0.9","","100","","4","","15","","1.6","","100.01","","","","","","Drizzle,Fog"
"1993-03-24 07:00","1993","03","24","07:00","1.0","","1.0","","100","","4","","15","","1.2","","100.07","","","","","","Drizzle,Fog"
"1993-03-24 08:00","1993","03","24","08:00","1.5","","1.0","","96","","5","","22","","2.0","","100.17","","","","","","Drizzle,Fog"
"1993-03-24 09:00","1993","03","24","09:00","1.5","","1.0","","96","","6","","15","","4.8","","100.17","","","","","","Drizzle,Fog"
"1993-03-24 10:00","1993","03","24","10:00","1.9","","1.1","","95","","5","","13","","6.4","","100.24","","","","","","Drizzle,Fog"
"1993-03-24 11:00","1993","03","24","11:00","2.4","","1.1","","91","","10","","11","","8.0","","100.24","","","","","","Fog"
"1993-03-24 12:00","1993","03","24","12:00","2.5","","1.1","","91","","9","","17","","9.7","","100.27","","","","","","Fog"
"1993-03-24 13:00","1993","03","24","13:00","2.8","","1.1","","89","","7","","19","","12.9","","100.27","","","","","","Cloudy"
"1993-03-24 14:00","1993","03","24","14:00","3.2","","1.1","","86","","9","","15","","12.9","","100.21","","","","","","Cloudy"
"1993-03-24 15:00","1993","03","24","15:00","3.8","","1.3","","84","","8","","19","","12.9","","100.21","","","","","","Cloudy"
"1993-03-24 16:00","1993","03","24","16:00","4.4","","0.8","","77","","8","","19","","16.1","","100.21","","","","","","Cloudy"
"1993-03-24 17:00","1993","03","24","17:00","4.8","","0.4","","73","","9","","15","","24.1","","100.21","","","","","","Mostly Cloudy"
"1993-03-24 18:00","1993","03","24","18:00","4.0","","0.3","","77","","13","","7","","24.1","","100.24","","","","","","Mostly Cloudy"
"1993-03-24 19:00","1993","03","24","19:00","3.2","","0.2","","81","","10","","11","","24.1","","100.27","","","","","","Clear"
"1993-03-24 20:00","1993","03","24","20:00","2.8","","0.2","","83","","9","","11","","12.9","","100.34","","","","","","Mostly Cloudy"
"1993-03-24 21:00","1993","03","24","21:00","2.2","","-0.4","","83","","11","","6","","19.3","","100.37","","","","","","Mainly Clear"
"1993-03-24 22:00","1993","03","24","22:00","2.3","","0.6","","89","","10","","7","","11.3","","100.41","","","","","","Mostly Cloudy"
"1993-03-24 23:00","1993","03","24","23:00","2.0","","0.1","","87","","8","","7","","11.3","","100.41","","","","","","Cloudy"
"1993-03-25 00:00","1993","03","25","00:00","2.8","","0.7","","86","","8","","6","","16.1","","100.41","","","","","","Cloudy"
"1993-03-25 01:00","1993","03","25","01:00","3.0","","0.2","","82","","7","","6","","19.3","","100.41","","","","","","Cloudy"
"1993-03-25 02:00","1993","03","25","02:00","1.0","","-0.5","","90","","1","","7","","19.3","","100.37","","","","","","Mainly Clear"
"1993-03-25 03:00","1993","03","25","03:00","1.0","","-0.5","","90","","1","","11","","19.3","","100.37","","","","","","Mainly Clear"
"1993-03-25 04:00","1993","03","25","04:00","-0.1","","-0.6","","96","","1","","7","","16.1","","100.37","","","","-3","","Clear"
"1993-03-25 05:00","1993","03","25","05:00","-0.2","","-1.5","","91","","1","","9","","19.3","","100.37","","","","-3","","Clear"
"1993-03-25 06:00","1993","03","25","06:00","-1.0","","-1.9","","94","","1","","6","","8.0","","100.44","","","","-3","","Fog"
"1993-03-25 07:00","1993","03","25","07:00","-0.6","","-1.3","","95","","1","","6","","9.7","","100.47","","","","-3","","Fog"
"1993-03-25 08:00","1993","03","25","08:00","1.1","","-0.5","","89","","36","","4","","6.4","","100.51","","","","","","Fog"
"1993-03-25 09:00","1993","03","25","09:00","2.6","","0.1","","84","","3","","6","","6.4","","100.54","","","","","","Haze"
"1993-03-25 10:00","1993","03","25","10:00","3.6","","-0.3","","76","","8","","13","","16.1","","100.54","","","","","","Cloudy"
"1993-03-25 11:00","1993","03","25","11:00","4.0","","0.3","","77","","8","","9","","16.1","","100.54","","","","","","Cloudy"
"1993-03-25 12:00","1993","03","25","12:00","4.2","","0.3","","75","","8","","11","","16.1","","100.57","","","","","","Cloudy"
"1993-03-25 13:00","1993","03","25","13:00","4.0","","0.8","","79","","6","","9","","16.1","","100.57","","","","","","Cloudy"
"1993-03-25 14:00","1993","03","25","14:00","4.4","","0.3","","75","","11","","9","","16.1","","100.47","","","","","","Cloudy"
"1993-03-25 15:00","1993","03","25","15:00","4.5","","0.8","","77","","6","","6","","16.1","","100.47","","","","","","Cloudy"
"1993-03-25 16:00","1993","03","25","16:00","4.5","","0.3","","74","","6","","6","","16.1","","100.41","","","","","","Mostly Cloudy"
"1993-03-25 17:00","1993","03","25","17:00","4.4","","0.3","","75","","","","0","","16.1","","100.41","","","","","","Mostly Cloudy"
"1993-03-25 18:00","1993","03","25","18:00","3.7","","0.2","","78","","15","","7","","16.1","","100.41","","","","","","Mostly Cloudy"
"1993-03-25 19:00","1993","03","25","19:00","2.7","","0.1","","83","","16","","7","","16.1","","100.41","","","","","","Mainly Clear"
"1993-03-25 20:00","1993","03","25","20:00","1.8","","0.6","","92","","19","","6","","19.3","","100.47","","","","","","Clear"
"1993-03-25 21:00","1993","03","25","21:00","1.2","","-0.5","","88","","","","0","","9.7","","100.47","","","","","","Fog"
"1993-03-25 22:00","1993","03","25","22:00","0.2","","-0.5","","95","","","","0","","6.4","","100.47","","","","","","Fog"
"1993-03-25 23:00","1993","03","25","23:00","0.0","","-0.5","","96","","","","0","","4.8","","100.44","","","","","","Fog"
"1993-03-26 00:00","1993","03","26","00:00","-0.2","","-0.7","","96","","32","","6","","4.8","","100.44","","","","-2","","Fog"
"1993-03-26 01:00","1993","03","26","01:00","-2.3","","-2.3","","100","","34","","13","","0.2","","100.41","","","","-7","","Fog"
"1993-03-26 02:00","1993","03","26","02:00","-1.9","","-1.9","","100","","34","","11","","0.2","","100.41","","","","-6","","Fog"
"1993-03-26 03:00","1993","03","26","03:00","-1.8","","-1.8","","100","","35","","13","","0.2","","100.37","","","","-6","","Fog"
"1993-03-26 04:00","1993","03","26","04:00","-1.7","","-1.7","","100","","35","","11","","0.4","","100.37","","","","-6","","Fog"
"1993-03-26 05:00","1993","03","26","05:00","-1.6","","-1.6","","100","","36","","13","","0.4","","100.41","","","","-6","","Fog"
"1993-03-26 06:00","1993","03","26","06:00","-1.7","","-1.7","","100","","34","","11","","0.4","","100.44","","","","-6","","Fog"
"1993-03-26 07:00","1993","03","26","07:00","-1.7","","-1.7","","100","","35","","13","","0.4","","100.47","","","","-6","","Fog"
"1993-03-26 08:00","1993","03","26","08:00","-1.3","","-1.3","","100","","3","","11","","0.6","","100.51","","","","-5","","Fog"
"1993-03-26 09:00","1993","03","26","09:00","-1.0","","-1.0","","100","","35","","9","","0.8","","100.51","","","","-4","","Fog"
"1993-03-26 10:00","1993","03","26","10:00","-0.4","","-0.4","","100","","33","","6","","2.4","","100.51","","","","-2","","Fog"
"1993-03-26 11:00","1993","03","26","11:00","0.0","","-0.2","","98","","34","","7","","4.8","","100.47","","","","-2","","Fog"
"1993-03-26 12:00","1993","03","26","12:00","1.4","","0.5","","94","","35","","6","","6.4","","100.44","","","","","","Fog"
"1993-03-26 13:00","1993","03","26","13:00","3.2","","1.1","","86","","32","","6","","11.3","","100.37","","","","","","Mainly Clear"
"1993-03-26 14:00","1993","03","26","14:00","6.0","","2.0","","75","","32","","6","","11.3","","100.31","","","","","","Clear"
"1993-03-26 15:00","1993","03","26","15:00","6.6","","2.6","","76","","32","","7","","11.3","","100.27","","","","","","Clear"
"1993-03-26 16:00","1993","03","26","16:00","6.7","","2.6","","75","","33","","11","","11.3","","100.21","","","","","","Clear"
"1993-03-26 17:00","1993","03","26","17:00","6.1","","2.0","","75","","36","","9","","11.3","","100.21","","","","","","Clear"
"1993-03-26 18:00","1993","03","26","18:00","4.6","","1.8","","82","","35","","11","","9.7","","100.21","","","","","","Haze"
"1993-03-26 19:00","1993","03","26","19:00","2.7","","0.1","","83","","36","","13","","8.0","","100.21","","","","","","Haze"
"1993-03-26 20:00","1993","03","26","20:00","3.0","","0.7","","85","","1","","11","","8.0","","100.27","","","","","","Haze"
"1993-03-26 21:00","1993","03","26","21:00","2.0","","0.1","","87","","1","","7","","6.4","","100.24","","","","","","Fog"
"1993-03-26 22:00","1993","03","26","22:00","1.0","","-0.5","","90","","36","","11","","6.4","","100.24","","","","","","Fog"
"1993-03-26 23:00","1993","03","26","23:00","-0.2","","-1.5","","91","","36","","11","","4.8","","100.24","","","","-4","","Fog"
"1993-03-27 00:00","1993","03","27","00:00","-0.5","","-1.3","","94","","1","","9","","4.8","","100.21","","","","-4","","Fog"
"1993-03-27 01:00","1993","03","27","01:00","-0.7","","-1.6","","94","","1","","11","","4.8","","100.17","","","","-4","","Fog"
"1993-03-27 02:00","1993","03","27","02:00","-1.7","","-2.5","","94","","1","","15","","4.8","","100.14","","","","-7","","Fog"
"1993-03-27 03:00","1993","03","27","03:00","-2.2","","-2.8","","96","","36","","11","","4.8","","100.11","","","","-6","","Fog"
"1993-03-27 04:00","1993","03","27","04:00","-2.2","","-2.8","","96","","36","","11","","4.8","","100.14","","","","-6","","Fog"
"1993-03-27 05:00","1993","03","27","05:00","-3.0","","-3.7","","95","","36","","11","","4.8","","100.14","","","","-7","","Fog"
"1993-03-27 06:00","1993","03","27","06:00","-3.0","","-3.4","","97","","36","","11","","4.0","","100.17","","","","-7","","Fog"
"1993-03-27 07:00","1993","03","27","07:00","-2.7","","-3.1","","97","","36","","11","","9.7","","100.14","","","","-7","","Fog"
"1993-03-27 08:00","1993","03","27","08:00","-1.0","","-2.2","","91","","36","","11","","12.9","","100.14","","","","-5","","Mainly Clear"
"1993-03-27 09:00","1993","03","27","09:00","1.7","","-2.1","","76","","36","","7","","12.9","","100.11","","","","","","Mainly Clear"
"1993-03-27 10:00","1993","03","27","10:00","4.7","","0.8","","76","","","","0","","12.9","","100.11","","","","","","Mainly Clear"
"1993-03-27 11:00","1993","03","27","11:00","6.7","","1.1","","67","","","","0","","16.1","","100.04","","","","","","Mainly Clear"
"1993-03-27 12:00","1993","03","27","12:00","8.9","","2.7","","65","","","","0","","16.1","","100.01","","","","","","Mainly Clear"
"1993-03-27 13:00","1993","03","27","13:00","9.0","","2.2","","62","","16","","9","","19.3","","99.94","","","","","","Mainly Clear"
"1993-03-27 14:00","1993","03","27","14:00","9.7","","2.3","","60","","15","","9","","19.3","","99.87","","","","","","Mainly Clear"
"1993-03-27 15:00","1993","03","27","15:00","9.5","","1.8","","59","","17","","6","","19.3","","99.81","","","","","","Mostly Cloudy"
"1993-03-27 16:00","1993","03","27","16:00","10.3","","2.6","","59","","16","","6","","19.3","","99.74","","","","","","Mostly Cloudy"
"1993-03-27 17:00","1993","03","27","17:00","7.4","","1.3","","65","","16","","11","","19.3","","99.74","","","","","","Mostly Cloudy"
"1993-03-27 18:00","1993","03","27","18:00","4.8","","0.9","","76","","","","0","","19.3","","99.77","","","","","","Mostly Cloudy"
"1993-03-27 19:00","1993","03","27","19:00","4.5","","0.3","","74","","","","0","","16.1","","99.74","","","","","","Mainly Clear"
"1993-03-27 20:00","1993","03","27","20:00","4.6","","0.3","","73","","","","0","","12.9","","99.77","","","","","","Mainly Clear"
"1993-03-27 21:00","1993","03","27","21:00","4.5","","0.3","","74","","","","0","","9.7","","99.77","","","","","","Haze"
"1993-03-27 22:00","1993","03","27","22:00","3.8","","0.8","","81","","","","0","","9.7","","99.77","","","","","","Haze"
"1993-03-27 23:00","1993","03","27","23:00","1.5","","-0.5","","87","","36","","7","","19.3","","99.71","","","","","","Mostly Cloudy"
"1993-03-28 00:00","1993","03","28","00:00","1.6","","-0.5","","86","","1","","13","","19.3","","99.67","","","","","","Mostly Cloudy"
"1993-03-28 01:00","1993","03","28","01:00","1.2","","-1.0","","85","","36","","11","","19.3","","99.64","","","","","","Mainly Clear"
"1993-03-28 02:00","1993","03","28","02:00","1.1","","-1.0","","86","","1","","15","","19.3","","99.61","","","","","","Mainly Clear"
"1993-03-28 03:00","1993","03","28","03:00","1.1","","-1.0","","86","","36","","13","","19.3","","99.57","","","","","","Clear"
"1993-03-28 04:00","1993","03","28","04:00","1.0","","-1.5","","83","","36","","11","","19.3","","99.51","","","","","","Mainly Clear"
"1993-03-28 05:00","1993","03","28","05:00","1.5","","-1.0","","83","","36","","11","","19.3","","99.47","","","","","","Mostly Cloudy"
"1993-03-28 06:00","1993","03","28","06:00","1.7","","-1.0","","82","","1","","13","","19.3","","99.47","","","","","","Mostly Cloudy"
"1993-03-28 07:00","1993","03","28","07:00","2.4","","-0.9","","79","","2","","15","","24.1","","99.47","","","","","","Mostly Cloudy"
"1993-03-28 08:00","1993","03","28","08:00","2.8","","0.2","","83","","34","","7","","24.1","","99.51","","","","","","Mostly Cloudy"
"1993-03-28 09:00","1993","03","28","09:00","3.4","","0.7","","83","","34","","13","","24.1","","99.54","","","","","","Mostly Cloudy"
"1993-03-28 10:00","1993","03","28","10:00","5.7","","1.5","","74","","35","","11","","24.1","","99.54","","","","","","Mostly Cloudy"
"1993-03-28 11:00","1993","03","28","11:00","9.2","","2.2","","62","","35","","11","","24.1","","99.51","","","","","","Mostly Cloudy"
"1993-03-28 12:00","1993","03","28","12:00","12.2","","1.4","","47","","4","","6","","24.1","","99.44","","","","","","Mostly Cloudy"
"1993-03-28 13:00","1993","03","28","13:00","11.7","","4.8","","62","","33","","17","","24.1","","99.41","","","","","","Mostly Cloudy"
"1993-03-28 14:00","1993","03","28","14:00","11.2","","4.2","","62","","35","","17","","24.1","","99.34","","","","","","Mostly Cloudy"
"1993-03-28 15:00","1993","03","28","15:00","11.2","","1.7","","52","","16","","15","","24.1","","99.34","","","","","","Mostly Cloudy"
"1993-03-28 16:00","1993","03","28","16:00","11.3","","2.8","","56","","13","","6","","24.1","","99.34","","","","","","Mostly Cloudy"
"1993-03-28 17:00","1993","03","28","17:00","10.7","","2.0","","55","","13","","7","","19.3","","99.34","","","","","","Rain Showers"
"1993-03-28 18:00","1993","03","28","18:00","8.3","","3.0","","69","","13","","9","","12.9","","99.34","","","","","","Rain Showers"
"1993-03-28 19:00","1993","03","28","19:00","8.6","","3.5","","70","","7","","9","","11.3","","99.41","","","","","","Rain Showers"
"1993-03-28 20:00","1993","03","28","20:00","7.9","","5.6","","86","","7","","7","","12.9","","99.37","","","","","","Cloudy"
"1993-03-28 21:00","1993","03","28","21:00","8.2","","5.2","","81","","4","","4","","12.9","","99.34","","","","","","Rain Showers"
"1993-03-28 22:00","1993","03","28","22:00","7.3","","5.1","","86","","1","","4","","12.9","","99.34","","","","","","Cloudy"
"1993-03-28 23:00","1993","03","28","23:00","7.8","","5.6","","86","","5","","11","","19.3","","99.31","","","","","","Cloudy"
"1993-03-29 00:00","1993","03","29","00:00","7.0","","5.0","","87","","2","","6","","19.3","","99.31","","","","","","Cloudy"
"1993-03-29 01:00","1993","03","29","01:00","6.7","","5.7","","93","","36","","11","","6.4","","99.24","","","","","","Fog"
"1993-03-29 02:00","1993","03","29","02:00","5.8","","5.2","","96","","36","","11","","4.8","","99.21","","","","","","Fog"
"1993-03-29 03:00","1993","03","29","03:00","5.6","","4.7","","94","","36","","11","","4.8","","99.21","","","","","","Fog"
"1993-03-29 04:00","1993","03","29","04:00","5.6","","4.7","","94","","36","","15","","4.8","","99.17","","","","","","Fog"
"1993-03-29 05:00","1993","03","29","05:00","6.3","","4.9","","91","","3","","11","","6.4","","99.17","","","","","","Rain Showers,Fog"
"1993-03-29 06:00","1993","03","29","06:00","5.5","","4.2","","91","","36","","7","","6.4","","99.21","","","","","","Rain Showers,Fog"
"1993-03-29 07:00","1993","03","29","07:00","6.0","","5.2","","95","","36","","13","","4.8","","99.24","","","","","","Rain Showers,Fog"
"1993-03-29 08:00","1993","03","29","08:00","6.3","","5.3","","93","","35","","11","","6.4","","99.24","","","","","","Rain Showers,Fog"
"1993-03-29 09:00","1993","03","29","09:00","7.3","","5.5","","88","","35","","15","","9.7","","99.24","","","","","","Fog"
"1993-03-29 10:00","1993","03","29","10:00","8.9","","5.9","","81","","35","","9","","12.9","","99.21","","","","","","Cloudy"
"1993-03-29 11:00","1993","03","29","11:00","10.8","","6.8","","76","","1","","9","","12.9","","99.21","","","","","","Cloudy"
"1993-03-29 12:00","1993","03","29","12:00","12.6","","8.1","","74","","34","","9","","12.9","","99.21","","","","","","Cloudy"
"1993-03-29 13:00","1993","03","29","13:00","12.8","","9.1","","78","","35","","11","","12.9","","99.14","","","","","","Cloudy"
"1993-03-29 14:00","1993","03","29","14:00","12.4","","6.9","","69","","7","","11","","12.9","","99.11","","","","","","Cloudy"
"1993-03-29 15:00","1993","03","29","15:00","12.6","","6.4","","66","","1","","11","","12.9","","99.07","","","","","","Cloudy"
"1993-03-29 16:00","1993","03","29","16:00","13.4","","6.8","","64","","1","","9","","16.1","","99.04","","","","","","Mostly Cloudy"
"1993-03-29 17:00","1993","03","29","17:00","14.2","","6.9","","61","","34","","15","","16.1","","99.04","","","","","","Mostly Cloudy"
"1993-03-29 18:00","1993","03","29","18:00","12.6","","5.1","","60","","36","","15","","19.3","","99.11","","","","","","Mostly Cloudy"
"1993-03-29 19:00","1993","03","29","19:00","10.5","","4.0","","64","","35","","17","","19.3","","99.11","","","","","","Mostly Cloudy"
"1993-03-29 20:00","1993","03","29","20:00","9.5","","3.8","","67","","36","","15","","25.0","","99.14","","","","","","Mostly Cloudy"
"1993-03-29 21:00","1993","03","29","21:00","8.2","","2.4","","67","","1","","19","","25.0","","99.14","","","","","","Mostly Cloudy"
"1993-03-29 22:00","1993","03","29","22:00","6.4","","2.1","","74","","36","","15","","25.0","","99.14","","","","","","Mostly Cloudy"
"1993-03-29 23:00","1993","03","29","23:00","4.7","","1.3","","78","","35","","9","","25.0","","99.14","","","","","","Mostly Cloudy"
"1993-03-30 00:00","1993","03","30","00:00","4.5","","0.8","","77","","36","","13","","25.0","","99.11","","","","","","Mostly Cloudy"
"1993-03-30 01:00","1993","03","30","01:00","3.9","","0.8","","80","","35","","19","","25.0","","99.07","","","","","","Mostly Cloudy"
"1993-03-30 02:00","1993","03","30","02:00","5.1","","0.4","","71","","1","","19","","25.0","","99.04","","","","","","Mostly Cloudy"
"1993-03-30 03:00","1993","03","30","03:00","4.5","","0.3","","74","","36","","15","","25.0","","99.04","","","","","","Mainly Clear"
"1993-03-30 04:00","1993","03","30","04:00","3.9","","-0.3","","74","","36","","19","","25.0","","99.04","","","","","","Mainly Clear"
"1993-03-30 05:00","1993","03","30","05:00","3.4","","-0.3","","77","","36","","15","","25.0","","99.11","","","","","","Mostly Cloudy"
"1993-03-30 06:00","1993","03","30","06:00","2.8","","-0.4","","80","","35","","15","","24.1","","99.14","","","","","","Mostly Cloudy"
"1993-03-30 07:00","1993","03","30","07:00","3.6","","-0.3","","76","","1","","15","","32.2","","99.21","","","","","","Mainly Clear"
"1993-03-30 08:00","1993","03","30","08:00","5.8","","1.0","","71","","36","","17","","32.2","","99.21","","","","","","Mainly Clear"
"1993-03-30 09:00","1993","03","30","09:00","8.5","","2.0","","64","","34","","17","","32.2","","99.24","","","","","","Mainly Clear"
"1993-03-30 10:00","1993","03","30","10:00","10.7","","2.0","","55","","9","","13","","32.2","","99.24","","","","","","Clear"
"1993-03-30 11:00","1993","03","30","11:00","12.9","","4.8","","58","","1","","7","","32.2","","99.24","","","","","","Mainly Clear"
"1993-03-30 12:00","1993","03","30","12:00","15.1","","3.5","","46","","5","","6","","32.2","","99.21","","","","","","Mainly Clear"
"1993-03-30 13:00","1993","03","30","13:00","15.7","","2.7","","42","","16","","13","","24.1","","99.21","","","","","","Mostly Cloudy"
"1993-03-30 14:00","1993","03","30","14:00","14.3","","3.8","","49","","14","","9","","19.3","","99.21","","","","","","Mostly Cloudy"
"1993-03-30 15:00","1993","03","30","15:00","14.9","","3.5","","46","","14","","6","","19.3","","99.21","","","","","","Mainly Clear"
"1993-03-30 16:00","1993","03","30","16:00","16.2","","3.4","","42","","36","","7","","19.3","","99.21","","","","","","Mainly Clear"
"1993-03-30 17:00","1993","03","30","17:00","13.7","","2.5","","47","","16","","13","","19.3","","99.21","","","","","","Mainly Clear"
"1993-03-30 18:00","1993","03","30","18:00","12.6","","2.1","","49","","17","","9","","19.3","","99.21","","","","","","Mainly Clear"
"1993-03-30 19:00","1993","03","30","19:00","11.2","","2.2","","54","","15","","4","","19.3","","99.21","","","","","","Mainly Clear"
"1993-03-30 20:00","1993","03","30","20:00","10.7","","1.0","","51","","","","0","","19.3","","99.24","","","","","","Clear"
"1993-03-30 21:00","1993","03","30","21:00","7.9","","1.9","","66","","","","0","","19.3","","99.24","","","","","","Mainly Clear"
"1993-03-30 22:00","1993","03","30","22:00","5.3","","2.0","","79","","36","","7","","19.3","","99.24","","","","","","Clear"
"1993-03-30 23:00","1993","03","30","23:00","4.6","","-0.2","","71","","36","","7","","24.1","","99.27","","","","","","Clear"
"1993-03-31 00:00","1993","03","31","00:00","4.6","","-0.2","","71","","1","","9","","24.1","","99.27","","","","","","Clear"
"1993-03-31 01:00","1993","03","31","01:00","4.0","","-0.3","","74","","16","","6","","19.3","","99.27","","","","","","Clear"
"1993-03-31 02:00","1993","03","31","02:00","3.6","","0.2","","78","","","","0","","16.1","","99.31","","","","","","Clear"
"1993-03-31 03:00","1993","03","31","03:00","1.2","","-1.5","","82","","34","","7","","12.9","","99.34","","","","","","Clear"
"1993-03-31 04:00","1993","03","31","04:00","1.1","","-1.0","","86","","3","","6","","17.7","","99.31","","","","","","Mainly Clear"
"1993-03-31 05:00","1993","03","31","05:00","2.5","","-2.0","","72","","7","","7","","19.3","","99.31","","","","","","Clear"
"1993-03-31 06:00","1993","03","31","06:00","4.1","","-4.5","","53","","10","","19","","24.1","","99.31","","","","","","Mainly Clear"
"1993-03-31 07:00","1993","03","31","07:00","5.0","","-4.4","","51","","9","","19","","32.2","","99.34","","","","","","Mostly Cloudy"
"1993-03-31 08:00","1993","03","31","08:00","6.2","","-5.0","","44","","11","","24","","32.2","","99.37","","","","","","Mostly Cloudy"
"1993-03-31 09:00","1993","03","31","09:00","6.3","","-5.6","","42","","10","","30","","32.2","","99.37","","","","","","Mostly Cloudy"
"1993-03-31 10:00","1993","03","31","10:00","6.2","","-5.7","","42","","8","","26","","24.1","","99.34","","","","","","Mostly Cloudy"
"1993-03-31 11:00","1993","03","31","11:00","6.2","","-6.5","","40","","10","","30","","24.1","","99.34","","","","","","Mostly Cloudy"
"1993-03-31 12:00","1993","03","31","12:00","7.3","","-1.5","","54","","9","","30","","24.1","","99.27","","","","","","Mostly Cloudy"
"1993-03-31 13:00","1993","03","31","13:00","6.8","","-2.8","","50","","10","","24","","24.1","","99.24","","","","","","Mostly Cloudy"
"1993-03-31 14:00","1993","03","31","14:00","8.5","","-0.7","","52","","8","","26","","24.1","","99.11","","","","","","Mostly Cloudy"
"1993-03-31 15:00","1993","03","31","15:00","8.3","","-0.1","","55","","9","","30","","32.2","","99.01","","","","","","Mostly Cloudy"
"1993-03-31 16:00","1993","03","31","16:00","7.6","","-0.9","","55","","9","","30","","32.2","","98.97","","","","","","Mostly Cloudy"
"1993-03-31 17:00","1993","03","31","17:00","7.3","","-0.3","","59","","8","","26","","24.1","","98.94","","","","","","Mostly Cloudy"
"1993-03-31 18:00","1993","03","31","18:00","6.5","","-2.9","","51","","8","","31","","24.1","","98.97","","","","","","Cloudy"
"1993-03-31 19:00","1993","03","31","19:00","5.0","","-3.1","","56","","5","","31","","24.1","","98.94","","","","","","Mostly Cloudy"
"1993-03-31 20:00","1993","03","31","20:00","4.4","","-3.8","","55","","7","","22","","24.1","","98.97","","","","","","Cloudy"
"1993-03-31 21:00","1993","03","31","21:00","3.8","","-0.8","","72","","6","","22","","24.1","","98.97","","","","","","Cloudy"
"1993-03-31 22:00","1993","03","31","22:00","3.4","","-3.2","","62","","4","","22","","24.1","","98.91","","","","","","Cloudy"
"1993-03-31 23:00","1993","03","31","23:00","3.0","","-3.8","","61","","5","","22","","24.1","","98.84","","","","","","Cloudy"
