"Station Name","TORONTO LESTER B. PEARSON INT'L A"
"Province","ONTARIO"
"Latitude","43.68"
"Longitude","-79.63"
"Elevation","173.40"
"Climate Identifier","6158733"
"WMO Identifier","71624"
"TC Identifier","YYZ"
"All times are specified in Local Standard Time (LST). Add 1 hour to adjust for Daylight Saving Time where and when it is observed."

"Legend"
"E","Estimated"
"M","Missing"
"NA","Not Available"

"Date/Time","Year","Month","Day","Time","Temp (°C)","Temp Flag","Dew Point Temp (°C)","Dew Point Temp Flag","Rel Hum (%)","Rel Hum Flag","Wind Dir (10s deg)","Wind Dir Flag","Wind Spd (km/h)","Wind Spd Flag","Visibility (km)","Visibility Flag","Stn Press (kPa)","Stn Press Flag","Hmdx","Hmdx Flag","Wind Chill","Wind Chill Flag","Weather"
"1966-05-01 00:00","1966","05","01","00:00","7.8","","5.6","","87","","29","","23","","24.1","","99.56","","","","","","Mostly Cloudy"
"1966-05-01 01:00","1966","05","01","01:00","6.7","","4.4","","85","","32","","24","","24.1","","99.61","","","","","","Mostly Cloudy"
"1966-05-01 02:00","1966","05","01","02:00","5.0","","2.2","","83","","32","","21","","24.1","","99.69","","","","","","Mostly Cloudy"
"1966-05-01 03:00","1966","05","01","03:00","2.8","","-0.6","","79","","32","","18","","24.1","","99.80","","","","","","Clear"
"1966-05-01 04:00","1966","05","01","04:00","1.1","","-2.2","","79","","32","","21","","25.0","","99.87","","","","","","Clear"
"1966-05-01 05:00","1966","05","01","05:00","0.0","","-2.2","","86","","32","","19","","25.0","","99.91","","","","-5","","Mainly Clear"
"1966-05-01 06:00","1966","05","01","06:00","1.1","","-2.2","","79","","27","","18","","40.2","","100.00","","","","","","Mainly Clear"
"1966-05-01 07:00","1966","05","01","07:00","2.2","","-2.2","","74","","27","","23","","40.2","","100.09","","","","","","Mainly Clear"
"1966-05-01 08:00","1966","05","01","08:00","3.9","","-1.7","","68","","29","","29","","40.2","","100.15","","","","","","Mainly Clear"
"1966-05-01 09:00","1966","05","01","09:00","5.0","","-1.1","","65","","29","","29","","40.2","","100.19","","","","","","Mainly Clear"
"1966-05-01 10:00","1966","05","01","10:00","6.1","","0.0","","65","","29","","29","","40.2","","100.23","","","","","","Mainly Clear"
"1966-05-01 11:00","1966","05","01","11:00","7.2","","0.6","","62","","29","","29","","40.2","","100.24","","","","","","Mainly Clear"
"1966-05-01 12:00","1966","05","01","12:00","8.3","","1.7","","64","","29","","24","","40.2","","100.24","","","","","","Mainly Clear"
"1966-05-01 13:00","1966","05","01","13:00","8.3","","0.6","","58","","32","","26","","40.2","","100.24","","","","","","Mainly Clear"
"1966-05-01 14:00","1966","05","01","14:00","8.9","","0.6","","57","","29","","26","","40.2","","100.28","","","","","","Mostly Cloudy"
"1966-05-01 15:00","1966","05","01","15:00","8.3","","0.0","","56","","29","","27","","40.2","","100.32","","","","","","Mostly Cloudy"
"1966-05-01 16:00","1966","05","01","16:00","6.1","","-1.1","","60","","32","","32","","40.2","","100.36","","","","","","Mostly Cloudy"
"1966-05-01 17:00","1966","05","01","17:00","6.7","","-1.1","","57","","29","","26","","40.2","","100.41","","","","","","Mostly Cloudy"
"1966-05-01 18:00","1966","05","01","18:00","6.1","","-2.2","","56","","32","","24","","40.2","","100.44","","","","","","Mostly Cloudy"
"1966-05-01 19:00","1966","05","01","19:00","5.0","","-0.6","","67","","36","","26","","40.2","","100.49","","","","","","Mostly Cloudy"
"1966-05-01 20:00","1966","05","01","20:00","3.3","","0.0","","77","","34","","18","","25.0","","100.56","","","","","","Mainly Clear"
"1966-05-01 21:00","1966","05","01","21:00","1.7","","-0.6","","84","","32","","13","","25.0","","100.59","","","","","","Clear"
"1966-05-01 22:00","1966","05","01","22:00","0.6","","-1.7","","86","","32","","13","","25.0","","100.61","","","","","","Clear"
"1966-05-01 23:00","1966","05","01","23:00","-0.6","","-2.2","","88","","34","","11","","25.0","","100.61","","","","-4","","Clear"
"1966-05-02 00:00","1966","05","02","00:00","-0.6","","-2.8","","85","","34","","16","","25.0","","100.62","","","","-5","","Mainly Clear"
"1966-05-02 01:00","1966","05","02","01:00","0.0","","-2.8","","83","","34","","19","","25.0","","100.64","","","","-5","","Clear"
"1966-05-02 02:00","1966","05","02","02:00","-0.6","","-2.8","","85","","34","","18","","25.0","","100.67","","","","-6","","Clear"
"1966-05-02 03:00","1966","05","02","03:00","-0.6","","-2.8","","85","","36","","14","","25.0","","100.74","","","","-5","","Clear"
"1966-05-02 04:00","1966","05","02","04:00","-1.7","","-3.3","","87","","34","","13","","25.0","","100.78","","","","-6","","Clear"
"1966-05-02 05:00","1966","05","02","05:00","-1.7","","-3.9","","84","","36","","18","","25.0","","100.83","","","","-7","","Mainly Clear"
"1966-05-02 06:00","1966","05","02","06:00","-1.7","","-4.4","","80","","36","","16","","40.2","","100.92","","","","-7","","Clear"
"1966-05-02 07:00","1966","05","02","07:00","0.0","","-3.9","","74","","2","","10","","40.2","","101.01","","","","-3","","Mainly Clear"
"1966-05-02 08:00","1966","05","02","08:00","2.2","","-3.3","","66","","5","","14","","40.2","","101.00","","","","","","Clear"
"1966-05-02 09:00","1966","05","02","09:00","2.8","","-4.4","","59","","34","","14","","40.2","","101.00","","","","","","Mainly Clear"
"1966-05-02 10:00","1966","05","02","10:00","3.3","","-6.1","","51","","32","","13","","40.2","","101.00","","","","","","Mainly Clear"
"1966-05-02 11:00","1966","05","02","11:00","5.6","","-3.9","","51","","5","","6","","40.2","","100.94","","","","","","Mainly Clear"
"1966-05-02 12:00","1966","05","02","12:00","5.6","","-2.8","","55","","14","","13","","40.2","","100.87","","","","","","Mainly Clear"
"1966-05-02 13:00","1966","05","02","13:00","6.7","","-3.3","","49","","16","","19","","40.2","","100.81","","","","","","Mainly Clear"
"1966-05-02 14:00","1966","05","02","14:00","6.7","","-0.6","","59","","14","","14","","32.2","","100.73","","","","","","Mostly Cloudy"
"1966-05-02 15:00","1966","05","02","15:00","6.1","","-2.2","","56","","16","","18","","32.2","","100.66","","","","","","Mostly Cloudy"
"1966-05-02 16:00","1966","05","02","16:00","6.7","","-1.7","","55","","16","","21","","32.2","","100.56","","","","","","Mainly Clear"
"1966-05-02 17:00","1966","05","02","17:00","5.0","","-3.3","","54","","18","","19","","32.2","","100.54","","","","","","Mainly Clear"
"1966-05-02 18:00","1966","05","02","18:00","4.4","","-6.7","","44","","18","","14","","32.2","","100.49","","","","","","Mostly Cloudy"
"1966-05-02 19:00","1966","05","02","19:00","3.9","","-5.6","","50","","16","","11","","32.2","","100.49","","","","","","Mostly Cloudy"
"1966-05-02 20:00","1966","05","02","20:00","3.3","","-3.9","","58","","18","","8","","25.0","","100.47","","","","","","Mostly Cloudy"
"1966-05-02 21:00","1966","05","02","21:00","3.3","","-4.4","","56","","18","","3","","25.0","","100.47","","","","","","Mostly Cloudy"
"1966-05-02 22:00","1966","05","02","22:00","2.2","","-2.2","","74","","","","0","","25.0","","100.46","","","","","","Mostly Cloudy"
"1966-05-02 23:00","1966","05","02","23:00","2.2","","-2.2","","71","","","","0","","25.0","","100.40","","","","","","Mainly Clear"
"1966-05-03 00:00","1966","05","03","00:00","1.7","","-3.3","","70","","18","","10","","25.0","","100.33","","","","","","Clear"
"1966-05-03 01:00","1966","05","03","01:00","1.7","","-2.8","","73","","16","","8","","25.0","","100.23","","","","","","Mainly Clear"
"1966-05-03 02:00","1966","05","03","02:00","1.1","","-1.7","","83","","18","","10","","25.0","","100.13","","","","","","Mainly Clear"
"1966-05-03 03:00","1966","05","03","03:00","1.1","","-2.8","","74","","18","","11","","25.0","","100.05","","","","","","Mainly Clear"
"1966-05-03 04:00","1966","05","03","04:00","1.1","","-2.8","","76","","18","","13","","25.0","","99.97","","","","","","Mostly Cloudy"
"1966-05-03 05:00","1966","05","03","05:00","1.7","","-2.2","","76","","18","","13","","25.0","","99.87","","","","","","Cloudy"
"1966-05-03 06:00","1966","05","03","06:00","2.2","","-1.7","","76","","18","","10","","12.9","","99.82","","","","","","Snow"
"1966-05-03 07:00","1966","05","03","07:00","1.7","","0.6","","92","","16","","10","","9.7","","99.71","","","","","","Rain"
"1966-05-03 08:00","1966","05","03","08:00","3.3","","2.2","","92","","18","","13","","6.4","","99.63","","","","","","Fog"
"1966-05-03 09:00","1966","05","03","09:00","6.7","","4.4","","87","","25","","18","","9.7","","99.58","","","","","","Fog"
"1966-05-03 10:00","1966","05","03","10:00","5.6","","-0.6","","64","","29","","32","","40.2","","99.69","","","","","","Mostly Cloudy"
"1966-05-03 11:00","1966","05","03","11:00","3.3","","0.6","","82","","27","","32","","40.2","","99.77","","","","","","Snow Showers"
"1966-05-03 12:00","1966","05","03","12:00","6.7","","1.1","","67","","27","","26","","40.2","","99.79","","","","","","Mostly Cloudy"
"1966-05-03 13:00","1966","05","03","13:00","7.2","","-1.1","","56","","27","","37","","40.2","","99.85","","","","","","Mostly Cloudy"
"1966-05-03 14:00","1966","05","03","14:00","6.7","","-2.8","","51","","27","","40","","40.2","","99.89","","","","","","Mostly Cloudy"
"1966-05-03 15:00","1966","05","03","15:00","7.2","","-1.7","","52","","27","","40","","40.2","","99.90","","","","","","Mostly Cloudy"
"1966-05-03 16:00","1966","05","03","16:00","6.1","","-3.9","","48","","27","","39","","40.2","","99.95","","","","","","Mostly Cloudy"
"1966-05-03 17:00","1966","05","03","17:00","6.1","","-2.2","","54","","29","","40","","40.2","","99.98","","","","","","Mostly Cloudy"
"1966-05-03 18:00","1966","05","03","18:00","5.0","","-2.8","","56","","27","","43","","40.2","","100.01","","","","","","Mainly Clear"
"1966-05-03 19:00","1966","05","03","19:00","3.3","","-2.8","","65","","27","","32","","32.2","","100.11","","","","","","Mainly Clear"
"1966-05-03 20:00","1966","05","03","20:00","2.8","","-2.2","","69","","27","","32","","24.1","","100.12","","","","","","Mostly Cloudy"
"1966-05-03 21:00","1966","05","03","21:00","2.8","","-1.1","","74","","27","","39","","24.1","","100.16","","","","","","Mostly Cloudy"
"1966-05-03 22:00","1966","05","03","22:00","1.7","","-0.6","","84","","27","","32","","24.1","","100.18","","","","","","Mainly Clear"
"1966-05-03 23:00","1966","05","03","23:00","1.7","","-0.6","","84","","27","","29","","24.1","","100.19","","","","","","Mainly Clear"
"1966-05-04 00:00","1966","05","04","00:00","2.2","","-1.7","","76","","29","","29","","24.1","","100.25","","","","","","Mainly Clear"
"1966-05-04 01:00","1966","05","04","01:00","1.7","","-1.1","","81","","29","","31","","24.1","","100.26","","","","","","Mainly Clear"
"1966-05-04 02:00","1966","05","04","02:00","2.2","","-1.1","","79","","29","","34","","24.1","","100.32","","","","","","Mostly Cloudy"
"1966-05-04 03:00","1966","05","04","03:00","2.8","","-0.6","","79","","29","","29","","24.1","","100.43","","","","","","Mostly Cloudy"
"1966-05-04 04:00","1966","05","04","04:00","2.8","","0.0","","82","","32","","32","","24.1","","100.48","","","","","","Mostly Cloudy"
"1966-05-04 05:00","1966","05","04","05:00","2.8","","-1.7","","72","","32","","26","","24.1","","100.61","","","","","","Mostly Cloudy"
"1966-05-04 06:00","1966","05","04","06:00","2.2","","-2.2","","71","","32","","26","","32.2","","100.74","","","","","","Cloudy"
"1966-05-04 07:00","1966","05","04","07:00","2.2","","-2.2","","71","","32","","34","","32.2","","100.88","","","","","","Mostly Cloudy"
"1966-05-04 08:00","1966","05","04","08:00","2.8","","-1.7","","72","","34","","24","","32.2","","100.97","","","","","","Cloudy"
"1966-05-04 09:00","1966","05","04","09:00","3.9","","-1.1","","71","","32","","24","","40.2","","101.06","","","","","","Mostly Cloudy"
"1966-05-04 10:00","1966","05","04","10:00","5.6","","-1.1","","62","","29","","26","","40.2","","101.09","","","","","","Mostly Cloudy"
"1966-05-04 11:00","1966","05","04","11:00","7.2","","-0.6","","58","","29","","26","","40.2","","101.11","","","","","","Mainly Clear"
"1966-05-04 12:00","1966","05","04","12:00","7.2","","-1.7","","54","","32","","24","","40.2","","101.09","","","","","","Mostly Cloudy"
"1966-05-04 13:00","1966","05","04","13:00","7.8","","-0.6","","55","","29","","26","","40.2","","101.08","","","","","","Mostly Cloudy"
"1966-05-04 14:00","1966","05","04","14:00","8.9","","-2.2","","46","","32","","24","","40.2","","101.04","","","","","","Mostly Cloudy"
"1966-05-04 15:00","1966","05","04","15:00","9.4","","-3.3","","40","","27","","23","","32.2","","100.96","","","","","","Mostly Cloudy"
"1966-05-04 16:00","1966","05","04","16:00","10.0","","-3.3","","39","","32","","19","","32.2","","100.90","","","","","","Mainly Clear"
"1966-05-04 17:00","1966","05","04","17:00","10.0","","-3.3","","39","","32","","16","","40.2","","100.84","","","","","","Mostly Cloudy"
"1966-05-04 18:00","1966","05","04","18:00","10.0","","-2.8","","41","","25","","13","","40.2","","100.81","","","","","","Mostly Cloudy"
"1966-05-04 19:00","1966","05","04","19:00","8.3","","-2.2","","47","","27","","13","","40.2","","100.75","","","","","","Mostly Cloudy"
"1966-05-04 20:00","1966","05","04","20:00","6.1","","-1.7","","58","","27","","10","","40.2","","100.72","","","","","","Mainly Clear"
"1966-05-04 21:00","1966","05","04","21:00","4.4","","-2.2","","62","","25","","11","","25.0","","100.73","","","","","","Mainly Clear"
"1966-05-04 22:00","1966","05","04","22:00","3.3","","0.0","","77","","25","","11","","25.0","","100.70","","","","","","Clear"
"1966-05-04 23:00","1966","05","04","23:00","1.7","","-2.8","","73","","23","","11","","25.0","","100.68","","","","","","Clear"
"1966-05-05 00:00","1966","05","05","00:00","1.1","","-2.8","","76","","23","","13","","25.0","","100.64","","","","","","Clear"
"1966-05-05 01:00","1966","05","05","01:00","1.1","","-1.7","","83","","23","","11","","25.0","","100.57","","","","","","Clear"
"1966-05-05 02:00","1966","05","05","02:00","0.6","","-1.1","","89","","23","","13","","25.0","","100.47","","","","","","Clear"
"1966-05-05 03:00","1966","05","05","03:00","1.1","","-1.1","","86","","18","","13","","24.1","","100.35","","","","","","Mainly Clear"
"1966-05-05 04:00","1966","05","05","04:00","1.7","","-0.6","","86","","16","","10","","24.1","","100.27","","","","","","Cloudy"
"1966-05-05 05:00","1966","05","05","05:00","2.8","","0.6","","84","","16","","16","","24.1","","100.09","","","","","","Mostly Cloudy"
"1966-05-05 06:00","1966","05","05","06:00","2.8","","1.1","","90","","16","","13","","8.0","","99.99","","","","","","Fog"
"1966-05-05 07:00","1966","05","05","07:00","4.4","","1.7","","83","","16","","13","","9.7","","99.87","","","","","","Rain,Haze"
"1966-05-05 08:00","1966","05","05","08:00","5.6","","3.3","","86","","14","","19","","11.3","","99.64","","","","","","Mostly Cloudy"
"1966-05-05 09:00","1966","05","05","09:00","8.9","","3.9","","70","","18","","21","","16.1","","99.50","","","","","","Mostly Cloudy"
"1966-05-05 10:00","1966","05","05","10:00","13.3","","3.9","","52","","23","","32","","16.1","","99.31","","","","","","Mostly Cloudy"
"1966-05-05 11:00","1966","05","05","11:00","13.9","","5.0","","54","","23","","32","","32.2","","99.14","","","","","","Mostly Cloudy"
"1966-05-05 12:00","1966","05","05","12:00","17.2","","6.1","","48","","23","","39","","32.2","","98.97","","","","","","Mostly Cloudy"
"1966-05-05 13:00","1966","05","05","13:00","18.3","","8.3","","51","","23","","32","","32.2","","98.79","","","","","","Mainly Clear"
"1966-05-05 14:00","1966","05","05","14:00","19.4","","8.3","","49","","23","","32","","32.2","","98.75","","","","","","Mainly Clear"
"1966-05-05 15:00","1966","05","05","15:00","20.0","","10.0","","52","","23","","32","","32.2","","98.70","","","","","","Mostly Cloudy"
"1966-05-05 16:00","1966","05","05","16:00","22.2","","8.9","","43","","27","","35","","16.1","","98.58","","","","","","Mostly Cloudy"
"1966-05-05 17:00","1966","05","05","17:00","22.8","","9.4","","43","","27","","39","","24.1","","98.55","","","","","","Mostly Cloudy"
"1966-05-05 18:00","1966","05","05","18:00","21.7","","10.0","","48","","29","","37","","24.1","","98.54","","","","","","Mostly Cloudy"
"1966-05-05 19:00","1966","05","05","19:00","18.3","","8.3","","51","","32","","32","","32.2","","98.68","","","","","","Mostly Cloudy"
"1966-05-05 20:00","1966","05","05","20:00","15.0","","3.3","","46","","32","","32","","32.2","","98.84","","","","","","Cloudy"
"1966-05-05 21:00","1966","05","05","21:00","12.8","","0.0","","42","","29","","29","","25.0","","98.91","","","","","","Mainly Clear"
"1966-05-05 22:00","1966","05","05","22:00","12.2","","-3.9","","32","","32","","39","","25.0","","98.93","","","","","","Mainly Clear"
"1966-05-05 23:00","1966","05","05","23:00","11.7","","-3.3","","35","","32","","29","","25.0","","98.97","","","","","","Mostly Cloudy"
"1966-05-06 00:00","1966","05","06","00:00","9.4","","-0.6","","49","","29","","19","","25.0","","98.97","","","","","","Mainly Clear"
"1966-05-06 01:00","1966","05","06","01:00","7.8","","0.0","","57","","25","","5","","25.0","","98.98","","","","","","Mostly Cloudy"
"1966-05-06 02:00","1966","05","06","02:00","7.2","","0.6","","62","","32","","10","","25.0","","98.89","","","","","","Mostly Cloudy"
"1966-05-06 03:00","1966","05","06","03:00","7.8","","1.1","","63","","29","","10","","25.0","","98.88","","","","","","Mostly Cloudy"
"1966-05-06 04:00","1966","05","06","04:00","7.8","","2.2","","67","","18","","3","","25.0","","98.91","","","","","","Mostly Cloudy"
"1966-05-06 05:00","1966","05","06","05:00","7.8","","2.8","","71","","20","","3","","24.1","","98.95","","","","","","Cloudy"
"1966-05-06 06:00","1966","05","06","06:00","8.3","","2.8","","67","","","","0","","32.2","","98.94","","","","","","Cloudy"
"1966-05-06 07:00","1966","05","06","07:00","8.3","","3.3","","71","","20","","6","","32.2","","98.91","","","","","","Rain Showers"
"1966-05-06 08:00","1966","05","06","08:00","8.3","","4.4","","77","","25","","6","","32.2","","98.87","","","","","","Cloudy"
"1966-05-06 09:00","1966","05","06","09:00","7.8","","5.6","","85","","16","","10","","24.1","","98.81","","","","","","Rain Showers"
"1966-05-06 10:00","1966","05","06","10:00","8.9","","5.6","","80","","18","","6","","32.2","","98.81","","","","","","Rain Showers"
"1966-05-06 11:00","1966","05","06","11:00","11.1","","5.6","","69","","29","","27","","32.2","","98.87","","","","","","Rain Showers"
"1966-05-06 12:00","1966","05","06","12:00","12.2","","5.0","","62","","32","","42","","32.2","","98.91","","","","","","Mainly Clear"
"1966-05-06 13:00","1966","05","06","13:00","12.2","","0.0","","42","","29","","42","","32.2","","98.91","","","","","","Mainly Clear"
"1966-05-06 14:00","1966","05","06","14:00","12.2","","0.6","","44","","29","","48","","32.2","","99.01","","","","","","Mainly Clear"
"1966-05-06 15:00","1966","05","06","15:00","10.0","","0.0","","50","","32","","48","","32.2","","99.12","","","","","","Mainly Clear"
"1966-05-06 16:00","1966","05","06","16:00","8.3","","-1.1","","52","","34","","35","","32.2","","99.26","","","","","","Mostly Cloudy"
"1966-05-06 17:00","1966","05","06","17:00","7.2","","-2.8","","48","","32","","42","","32.2","","99.36","","","","","","Mostly Cloudy"
"1966-05-06 18:00","1966","05","06","18:00","6.1","","-3.9","","48","","34","","23","","32.2","","99.43","","","","","","Mainly Clear"
"1966-05-06 19:00","1966","05","06","19:00","3.9","","-1.7","","66","","36","","24","","32.2","","99.48","","","","","","Mainly Clear"
"1966-05-06 20:00","1966","05","06","20:00","2.2","","-2.8","","68","","36","","23","","25.0","","99.61","","","","","","Mainly Clear"
"1966-05-06 21:00","1966","05","06","21:00","1.1","","-4.4","","66","","34","","13","","25.0","","99.70","","","","","","Mainly Clear"
"1966-05-06 22:00","1966","05","06","22:00","-0.6","","-3.9","","79","","29","","6","","25.0","","99.73","","","","-3","","Mostly Cloudy"
"1966-05-06 23:00","1966","05","06","23:00","-1.1","","-4.4","","79","","29","","10","","25.0","","99.73","","","","-5","","Mainly Clear"
"1966-05-07 00:00","1966","05","07","00:00","-1.7","","-5.0","","79","","32","","11","","25.0","","99.73","","","","-6","","Clear"
"1966-05-07 01:00","1966","05","07","01:00","-2.8","","-5.6","","81","","29","","6","","25.0","","99.71","","","","-5","","Mainly Clear"
"1966-05-07 02:00","1966","05","07","02:00","-2.2","","-4.4","","84","","27","","6","","25.0","","99.70","","","","-5","","Mainly Clear"
"1966-05-07 03:00","1966","05","07","03:00","-2.2","","-4.4","","85","","2","","3","","25.0","","99.69","","","","-3","","Mainly Clear"
"1966-05-07 04:00","1966","05","07","04:00","-4.4","","-7.8","","78","","27","","5","","25.0","","99.69","","","","-7","","Mainly Clear"
"1966-05-07 05:00","1966","05","07","05:00","-5.0","","-7.2","","83","","27","","3","","32.2","","99.66","","","","-6","","Mainly Clear"
"1966-05-07 06:00","1966","05","07","06:00","-4.4","","-6.1","","90","","27","","6","","32.2","","99.69","","","","-7","","Mostly Cloudy"
"1966-05-07 07:00","1966","05","07","07:00","-1.1","","-3.9","","81","","29","","8","","32.2","","99.69","","","","-4","","Mostly Cloudy"
"1966-05-07 08:00","1966","05","07","08:00","0.6","","-3.9","","73","","36","","5","","40.2","","99.68","","","","","","Mainly Clear"
"1966-05-07 09:00","1966","05","07","09:00","1.7","","-2.8","","72","","27","","10","","40.2","","99.65","","","","","","Mainly Clear"
"1966-05-07 10:00","1966","05","07","10:00","3.9","","-1.7","","66","","27","","19","","40.2","","99.59","","","","","","Mainly Clear"
"1966-05-07 11:00","1966","05","07","11:00","5.0","","-3.3","","54","","27","","16","","40.2","","99.55","","","","","","Mainly Clear"
"1966-05-07 12:00","1966","05","07","12:00","7.2","","-3.9","","44","","29","","26","","40.2","","99.47","","","","","","Mainly Clear"
"1966-05-07 13:00","1966","05","07","13:00","8.3","","-3.9","","41","","27","","24","","40.2","","99.36","","","","","","Mainly Clear"
"1966-05-07 14:00","1966","05","07","14:00","8.3","","-4.4","","39","","25","","21","","40.2","","99.27","","","","","","Mostly Cloudy"
"1966-05-07 15:00","1966","05","07","15:00","8.3","","-3.9","","41","","25","","26","","40.2","","99.17","","","","","","Mostly Cloudy"
"1966-05-07 16:00","1966","05","07","16:00","10.0","","-3.3","","39","","27","","13","","40.2","","99.07","","","","","","Mostly Cloudy"
"1966-05-07 17:00","1966","05","07","17:00","8.3","","-3.3","","43","","23","","19","","40.2","","99.03","","","","","","Mostly Cloudy"
"1966-05-07 18:00","1966","05","07","18:00","8.3","","-1.7","","48","","27","","21","","40.2","","98.99","","","","","","Mainly Clear"
"1966-05-07 19:00","1966","05","07","19:00","6.7","","0.0","","63","","25","","24","","32.2","","99.00","","","","","","Mainly Clear"
"1966-05-07 20:00","1966","05","07","20:00","4.4","","0.0","","74","","25","","13","","24.1","","99.00","","","","","","Mainly Clear"
"1966-05-07 21:00","1966","05","07","21:00","3.3","","-0.6","","75","","25","","10","","24.1","","98.98","","","","","","Mostly Cloudy"
"1966-05-07 22:00","1966","05","07","22:00","2.8","","0.0","","82","","29","","10","","24.1","","98.94","","","","","","Mostly Cloudy"
"1966-05-07 23:00","1966","05","07","23:00","3.3","","0.0","","77","","36","","6","","24.1","","98.91","","","","","","Mostly Cloudy"
"1966-05-08 00:00","1966","05","08","00:00","2.8","","-0.6","","79","","34","","10","","25.0","","98.86","","","","","","Mostly Cloudy"
"1966-05-08 01:00","1966","05","08","01:00","2.2","","0.0","","84","","34","","3","","25.0","","98.86","","","","","","Mostly Cloudy"
"1966-05-08 02:00","1966","05","08","02:00","1.7","","-0.6","","84","","32","","6","","24.1","","98.85","","","","","","Mainly Clear"
"1966-05-08 03:00","1966","05","08","03:00","-0.6","","-1.7","","91","","29","","3","","24.1","","98.80","","","","-2","","Mainly Clear"
"1966-05-08 04:00","1966","05","08","04:00","-0.6","","-1.7","","93","","32","","5","","24.1","","98.84","","","","-2","","Mainly Clear"
"1966-05-08 05:00","1966","05","08","05:00","-2.2","","-3.9","","89","","34","","8","","16.1","","98.84","","","","-5","","Mainly Clear"
"1966-05-08 06:00","1966","05","08","06:00","-1.7","","-3.3","","88","","34","","10","","19.3","","98.90","","","","-5","","Mainly Clear"
"1966-05-08 07:00","1966","05","08","07:00","1.7","","-2.8","","72","","32","","14","","32.2","","98.93","","","","","","Mainly Clear"
"1966-05-08 08:00","1966","05","08","08:00","3.9","","-3.3","","59","","34","","23","","32.2","","98.98","","","","","","Mainly Clear"
"1966-05-08 09:00","1966","05","08","09:00","4.4","","-6.7","","44","","36","","19","","32.2","","98.99","","","","","","Mostly Cloudy"
"1966-05-08 10:00","1966","05","08","10:00","6.1","","-6.1","","42","","34","","23","","32.2","","99.01","","","","","","Mostly Cloudy"
"1966-05-08 11:00","1966","05","08","11:00","6.7","","-7.8","","35","","29","","19","","32.2","","99.03","","","","","","Mostly Cloudy"
"1966-05-08 12:00","1966","05","08","12:00","8.3","","-7.2","","32","","34","","19","","32.2","","99.06","","","","","","Mostly Cloudy"
"1966-05-08 13:00","1966","05","08","13:00","8.3","","-6.7","","34","","29","","23","","32.2","","99.05","","","","","","Mostly Cloudy"
"1966-05-08 14:00","1966","05","08","14:00","9.4","","-4.4","","37","","34","","16","","32.2","","99.00","","","","","","Mostly Cloudy"
"1966-05-08 15:00","1966","05","08","15:00","8.3","","-4.4","","39","","34","","16","","32.2","","98.99","","","","","","Mostly Cloudy"
"1966-05-08 16:00","1966","05","08","16:00","8.3","","-3.3","","43","","34","","26","","32.2","","99.08","","","","","","Mostly Cloudy"
"1966-05-08 17:00","1966","05","08","17:00","6.7","","-5.0","","43","","34","","29","","32.2","","99.12","","","","","","Mostly Cloudy"
"1966-05-08 18:00","1966","05","08","18:00","4.4","","-6.7","","44","","36","","35","","32.2","","99.19","","","","","","Mostly Cloudy"
"1966-05-08 19:00","1966","05","08","19:00","3.3","","-6.7","","47","","36","","26","","32.2","","99.29","","","","","","Cloudy"
"1966-05-08 20:00","1966","05","08","20:00","2.2","","-6.1","","53","","36","","18","","32.2","","99.34","","","","","","Cloudy"
"1966-05-08 21:00","1966","05","08","21:00","1.7","","-5.6","","59","","34","","24","","24.1","","99.40","","","","","","Cloudy"
"1966-05-08 22:00","1966","05","08","22:00","1.1","","-6.1","","58","","34","","23","","24.1","","99.37","","","","","","Cloudy"
"1966-05-08 23:00","1966","05","08","23:00","1.1","","-5.6","","61","","34","","24","","25.0","","99.34","","","","","","Cloudy"
"1966-05-09 00:00","1966","05","09","00:00","0.6","","-5.6","","64","","36","","21","","25.0","","99.36","","","","","","Mostly Cloudy"
"1966-05-09 01:00","1966","05","09","01:00","1.1","","-5.6","","61","","36","","23","","25.0","","99.34","","","","","","Cloudy"
"1966-05-09 02:00","1966","05","09","02:00","1.1","","-7.8","","50","","36","","26","","25.0","","99.35","","","","","","Cloudy"
"1966-05-09 03:00","1966","05","09","03:00","0.0","","-8.3","","52","","36","","24","","25.0","","99.41","","","","-6","","Mostly Cloudy"
"1966-05-09 04:00","1966","05","09","04:00","0.0","","-7.2","","58","","36","","19","","25.0","","99.43","","","","-5","","Mostly Cloudy"
"1966-05-09 05:00","1966","05","09","05:00","-1.1","","-7.8","","60","","36","","11","","40.2","","99.48","","","","-5","","Mostly Cloudy"
"1966-05-09 06:00","1966","05","09","06:00","-1.1","","-7.8","","60","","36","","18","","40.2","","99.58","","","","-6","","Mostly Cloudy"
"1966-05-09 07:00","1966","05","09","07:00","0.0","","-7.8","","55","","2","","24","","40.2","","99.63","","","","-6","","Mostly Cloudy"
"1966-05-09 08:00","1966","05","09","08:00","0.6","","-9.4","","46","","2","","32","","40.2","","99.61","","","","","","Mainly Clear"
"1966-05-09 09:00","1966","05","09","09:00","2.2","","-6.1","","53","","36","","23","","40.2","","99.62","","","","","","Mainly Clear"
"1966-05-09 10:00","1966","05","09","10:00","3.3","","-2.2","","68","","36","","26","","40.2","","99.63","","","","","","Mainly Clear"
"1966-05-09 11:00","1966","05","09","11:00","4.4","","1.1","","78","","36","","26","","40.2","","99.64","","","","","","Mainly Clear"
"1966-05-09 12:00","1966","05","09","12:00","5.0","","-2.8","","56","","32","","26","","40.2","","99.63","","","","","","Mainly Clear"
"1966-05-09 13:00","1966","05","09","13:00","5.0","","-6.7","","43","","36","","32","","40.2","","99.63","","","","","","Mainly Clear"
"1966-05-09 14:00","1966","05","09","14:00","5.0","","-10.0","","33","","34","","26","","40.2","","99.65","","","","","","Mainly Clear"
"1966-05-09 15:00","1966","05","09","15:00","4.4","","-8.3","","40","","34","","29","","40.2","","99.71","","","","","","Mainly Clear"
"1966-05-09 16:00","1966","05","09","16:00","4.4","","-8.3","","40","","34","","35","","40.2","","99.72","","","","","","Mostly Cloudy"
"1966-05-09 17:00","1966","05","09","17:00","3.9","","-7.8","","42","","36","","35","","40.2","","99.77","","","","","","Mostly Cloudy"
"1966-05-09 18:00","1966","05","09","18:00","3.9","","-9.4","","38","","34","","37","","40.2","","99.81","","","","","","Mainly Clear"
"1966-05-09 19:00","1966","05","09","19:00","2.8","","-10.0","","39","","34","","31","","40.2","","99.84","","","","","","Mainly Clear"
"1966-05-09 20:00","1966","05","09","20:00","1.1","","-11.7","","38","","34","","19","","25.0","","99.88","","","","","","Mainly Clear"
"1966-05-09 21:00","1966","05","09","21:00","-1.1","","-9.4","","53","","29","","16","","25.0","","99.94","","","","-6","","Clear"
"1966-05-09 22:00","1966","05","09","22:00","0.0","","-3.3","","77","","29","","18","","25.0","","99.95","","","","-5","","Clear"
"1966-05-09 23:00","1966","05","09","23:00","-1.1","","-3.3","","84","","29","","18","","25.0","","99.94","","","","-6","","Clear"
"1966-05-10 00:00","1966","05","10","00:00","-1.1","","-3.3","","86","","29","","16","","25.0","","99.93","","","","-6","","Clear"
"1966-05-10 01:00","1966","05","10","01:00","-0.6","","-2.8","","85","","32","","18","","25.0","","99.92","","","","-6","","Clear"
"1966-05-10 02:00","1966","05","10","02:00","-1.1","","-2.8","","89","","29","","21","","25.0","","99.90","","","","-7","","Clear"
"1966-05-10 03:00","1966","05","10","03:00","-1.1","","-2.8","","89","","29","","21","","25.0","","99.90","","","","-7","","Clear"
"1966-05-10 04:00","1966","05","10","04:00","-1.7","","-3.3","","88","","27","","13","","25.0","","99.94","","","","-6","","Clear"
"1966-05-10 05:00","1966","05","10","05:00","-2.8","","-3.9","","91","","29","","13","","40.2","","99.98","","","","-7","","Mainly Clear"
"1966-05-10 06:00","1966","05","10","06:00","-1.1","","-2.8","","88","","29","","18","","40.2","","100.04","","","","-6","","Mainly Clear"
"1966-05-10 07:00","1966","05","10","07:00","1.1","","-2.8","","76","","29","","21","","40.2","","100.10","","","","","","Mainly Clear"
"1966-05-10 08:00","1966","05","10","08:00","3.9","","-4.4","","54","","32","","23","","40.2","","100.13","","","","","","Mainly Clear"
"1966-05-10 09:00","1966","05","10","09:00","5.0","","-6.7","","43","","32","","32","","40.2","","100.12","","","","","","Mostly Cloudy"
"1966-05-10 10:00","1966","05","10","10:00","5.0","","-5.0","","48","","32","","35","","40.2","","100.13","","","","","","Mostly Cloudy"
"1966-05-10 11:00","1966","05","10","11:00","5.0","","-5.0","","48","","29","","32","","40.2","","100.13","","","","","","Mostly Cloudy"
"1966-05-10 12:00","1966","05","10","12:00","7.8","","-5.0","","40","","29","","32","","40.2","","100.08","","","","","","Mostly Cloudy"
"1966-05-10 13:00","1966","05","10","13:00","6.7","","-6.7","","37","","32","","35","","40.2","","100.07","","","","","","Mostly Cloudy"
"1966-05-10 14:00","1966","05","10","14:00","7.2","","-7.2","","35","","29","","35","","40.2","","100.06","","","","","","Mostly Cloudy"
"1966-05-10 15:00","1966","05","10","15:00","8.9","","-7.2","","32","","32","","35","","40.2","","100.09","","","","","","Mainly Clear"
"1966-05-10 16:00","1966","05","10","16:00","8.9","","-6.1","","34","","29","","37","","40.2","","100.11","","","","","","Mainly Clear"
"1966-05-10 17:00","1966","05","10","17:00","8.3","","-6.1","","36","","29","","31","","40.2","","100.18","","","","","","Mainly Clear"
"1966-05-10 18:00","1966","05","10","18:00","7.2","","-7.2","","35","","29","","27","","40.2","","100.23","","","","","","Mainly Clear"
"1966-05-10 19:00","1966","05","10","19:00","6.1","","-6.7","","40","","29","","21","","40.2","","100.28","","","","","","Mainly Clear"
"1966-05-10 20:00","1966","05","10","20:00","2.2","","-5.6","","56","","27","","10","","40.2","","100.32","","","","","","Mainly Clear"
"1966-05-10 21:00","1966","05","10","21:00","1.7","","-5.6","","59","","27","","10","","25.0","","100.39","","","","","","Clear"
"1966-05-10 22:00","1966","05","10","22:00","1.1","","-5.0","","63","","25","","11","","25.0","","100.46","","","","","","Clear"
"1966-05-10 23:00","1966","05","10","23:00","-0.6","","-5.6","","67","","27","","10","","25.0","","100.47","","","","-4","","Clear"
"1966-05-11 00:00","1966","05","11","00:00","-0.6","","-5.6","","70","","27","","10","","25.0","","100.50","","","","-4","","Clear"
"1966-05-11 01:00","1966","05","11","01:00","-0.6","","-5.0","","73","","32","","10","","25.0","","100.53","","","","-4","","Clear"
"1966-05-11 02:00","1966","05","11","02:00","-0.6","","-2.8","","85","","36","","8","","25.0","","100.56","","","","-3","","Mainly Clear"
"1966-05-11 03:00","1966","05","11","03:00","-0.6","","-2.8","","85","","34","","8","","25.0","","100.53","","","","-3","","Mainly Clear"
"1966-05-11 04:00","1966","05","11","04:00","-1.7","","-4.4","","82","","27","","6","","25.0","","100.58","","","","-4","","Mainly Clear"
"1966-05-11 05:00","1966","05","11","05:00","-3.9","","-6.7","","80","","29","","10","","25.0","","100.67","","","","-8","","Mainly Clear"
"1966-05-11 06:00","1966","05","11","06:00","-2.2","","-6.1","","74","","34","","5","","40.2","","100.70","","","","-4","","Mostly Cloudy"
"1966-05-11 07:00","1966","05","11","07:00","1.1","","-3.3","","71","","34","","10","","40.2","","100.83","","","","","","Mostly Cloudy"
"1966-05-11 08:00","1966","05","11","08:00","4.4","","-2.8","","60","","","","0","","40.2","","100.85","","","","","","Mostly Cloudy"
"1966-05-11 09:00","1966","05","11","09:00","5.6","","-2.8","","55","","5","","3","","40.2","","100.86","","","","","","Mostly Cloudy"
"1966-05-11 10:00","1966","05","11","10:00","7.2","","-4.4","","42","","9","","5","","40.2","","100.82","","","","","","Cloudy"
"1966-05-11 11:00","1966","05","11","11:00","7.8","","-3.9","","44","","","","0","","40.2","","100.78","","","","","","Cloudy"
"1966-05-11 12:00","1966","05","11","12:00","7.2","","-3.3","","46","","18","","13","","16.1","","100.82","","","","","","Cloudy"
"1966-05-11 13:00","1966","05","11","13:00","8.3","","-5.6","","37","","16","","10","","24.1","","100.78","","","","","","Cloudy"
"1966-05-11 14:00","1966","05","11","14:00","8.9","","-6.1","","34","","18","","8","","32.2","","100.75","","","","","","Cloudy"
"1966-05-11 15:00","1966","05","11","15:00","8.9","","-3.3","","42","","","","0","","32.2","","100.66","","","","","","Cloudy"
"1966-05-11 16:00","1966","05","11","16:00","8.9","","-3.3","","42","","16","","8","","32.2","","100.62","","","","","","Cloudy"
"1966-05-11 17:00","1966","05","11","17:00","7.8","","-4.4","","42","","16","","11","","24.1","","100.62","","","","","","Cloudy"
"1966-05-11 18:00","1966","05","11","18:00","7.8","","-5.0","","40","","14","","11","","24.1","","100.60","","","","","","Mostly Cloudy"
"1966-05-11 19:00","1966","05","11","19:00","7.2","","-7.8","","33","","9","","13","","24.1","","100.48","","","","","","Mostly Cloudy"
"1966-05-11 20:00","1966","05","11","20:00","6.7","","-5.0","","43","","11","","6","","12.9","","100.48","","","","","","Cloudy"
"1966-05-11 21:00","1966","05","11","21:00","6.7","","-3.3","","49","","11","","10","","16.1","","100.48","","","","","","Cloudy"
"1966-05-11 22:00","1966","05","11","22:00","6.7","","-2.8","","51","","9","","11","","24.1","","100.45","","","","","","Cloudy"
"1966-05-11 23:00","1966","05","11","23:00","6.7","","-2.2","","53","","9","","10","","24.1","","100.44","","","","","","Cloudy"
"1966-05-12 00:00","1966","05","12","00:00","5.6","","-3.3","","53","","7","","11","","24.1","","100.47","","","","","","Cloudy"
"1966-05-12 01:00","1966","05","12","01:00","5.6","","-2.8","","55","","7","","11","","24.1","","100.43","","","","","","Cloudy"
"1966-05-12 02:00","1966","05","12","02:00","5.6","","-3.3","","53","","11","","14","","24.1","","100.37","","","","","","Rain"
"1966-05-12 03:00","1966","05","12","03:00","3.3","","1.7","","90","","9","","24","","16.1","","100.34","","","","","","Rain"
"1966-05-12 04:00","1966","05","12","04:00","2.8","","2.2","","95","","9","","19","","16.1","","100.27","","","","","","Rain"
"1966-05-12 05:00","1966","05","12","05:00","2.2","","1.7","","95","","9","","21","","6.4","","100.25","","","","","","Rain,Fog"
"1966-05-12 06:00","1966","05","12","06:00","2.2","","1.7","","97","","9","","18","","8.0","","100.22","","","","","","Rain,Fog"
"1966-05-12 07:00","1966","05","12","07:00","2.2","","1.7","","97","","9","","23","","8.0","","100.20","","","","","","Rain,Fog"
"1966-05-12 08:00","1966","05","12","08:00","2.8","","2.2","","95","","9","","26","","9.7","","100.07","","","","","","Rain,Fog"
"1966-05-12 09:00","1966","05","12","09:00","2.8","","1.7","","92","","7","","29","","12.9","","100.01","","","","","","Rain"
"1966-05-12 10:00","1966","05","12","10:00","2.8","","2.2","","95","","7","","32","","6.4","","99.97","","","","","","Rain,Fog"
"1966-05-12 11:00","1966","05","12","11:00","1.7","","1.1","","97","","7","","26","","4.0","","99.89","","","","","","Rain,Snow,Fog"
"1966-05-12 12:00","1966","05","12","12:00","1.1","","0.6","","97","","5","","19","","3.2","","99.83","","","","","","Snow,Fog"
"1966-05-12 13:00","1966","05","12","13:00","1.1","","0.6","","97","","2","","18","","4.8","","99.73","","","","","","Rain,Fog"
"1966-05-12 14:00","1966","05","12","14:00","1.1","","0.6","","97","","5","","19","","4.8","","99.67","","","","","","Rain,Snow,Ice Pellets,Fog"
"1966-05-12 15:00","1966","05","12","15:00","2.2","","1.7","","95","","5","","23","","8.0","","99.65","","","","","","Rain,Ice Pellets,Fog"
"1966-05-12 16:00","1966","05","12","16:00","2.8","","2.2","","95","","2","","21","","12.9","","99.57","","","","","","Drizzle"
"1966-05-12 17:00","1966","05","12","17:00","3.3","","1.7","","90","","2","","23","","9.7","","99.56","","","","","","Rain,Fog"
"1966-05-12 18:00","1966","05","12","18:00","3.3","","2.8","","95","","2","","21","","8.0","","99.55","","","","","","Rain,Fog"
"1966-05-12 19:00","1966","05","12","19:00","3.3","","2.8","","95","","2","","18","","6.4","","99.57","","","","","","Rain,Fog"
"1966-05-12 20:00","1966","05","12","20:00","3.3","","2.2","","92","","2","","23","","6.4","","99.56","","","","","","Rain,Fog"
"1966-05-12 21:00","1966","05","12","21:00","3.3","","2.8","","95","","36","","16","","8.0","","99.57","","","","","","Rain,Fog"
"1966-05-12 22:00","1966","05","12","22:00","3.3","","2.8","","95","","36","","19","","16.1","","99.55","","","","","","Cloudy"
"1966-05-12 23:00","1966","05","12","23:00","3.9","","2.8","","93","","36","","21","","16.1","","99.58","","","","","","Cloudy"
"1966-05-13 00:00","1966","05","13","00:00","3.9","","2.8","","93","","34","","21","","24.1","","99.55","","","","","","Cloudy"
"1966-05-13 01:00","1966","05","13","01:00","3.9","","2.2","","90","","34","","19","","16.1","","99.61","","","","","","Cloudy"
"1966-05-13 02:00","1966","05","13","02:00","3.9","","2.2","","90","","36","","19","","25.0","","99.63","","","","","","Cloudy"
"1966-05-13 03:00","1966","05","13","03:00","3.9","","2.2","","90","","36","","19","","25.0","","99.66","","","","","","Cloudy"
"1966-05-13 04:00","1966","05","13","04:00","2.8","","0.6","","84","","36","","13","","25.0","","99.70","","","","","","Mainly Clear"
"1966-05-13 05:00","1966","05","13","05:00","0.6","","0.0","","97","","32","","10","","16.1","","99.74","","","","","","Mainly Clear"
"1966-05-13 06:00","1966","05","13","06:00","1.1","","0.0","","92","","34","","10","","24.1","","99.79","","","","","","Mainly Clear"
"1966-05-13 07:00","1966","05","13","07:00","3.3","","1.1","","85","","32","","10","","24.1","","99.79","","","","","","Clear"
"1966-05-13 08:00","1966","05","13","08:00","6.7","","2.8","","76","","34","","18","","40.2","","99.85","","","","","","Mainly Clear"
"1966-05-13 09:00","1966","05","13","09:00","8.3","","2.2","","66","","34","","13","","40.2","","99.83","","","","","","Mainly Clear"
"1966-05-13 10:00","1966","05","13","10:00","10.6","","2.8","","58","","36","","6","","40.2","","99.82","","","","","","Mainly Clear"
"1966-05-13 11:00","1966","05","13","11:00","11.7","","1.1","","48","","34","","11","","40.2","","99.75","","","","","","Mostly Cloudy"
"1966-05-13 12:00","1966","05","13","12:00","12.2","","0.0","","42","","32","","3","","40.2","","99.69","","","","","","Mostly Cloudy"
"1966-05-13 13:00","1966","05","13","13:00","13.3","","1.1","","43","","32","","11","","40.2","","99.71","","","","","","Mostly Cloudy"
"1966-05-13 14:00","1966","05","13","14:00","12.2","","0.6","","46","","18","","19","","40.2","","99.70","","","","","","Mostly Cloudy"
"1966-05-13 15:00","1966","05","13","15:00","12.8","","1.1","","45","","18","","19","","40.2","","99.67","","","","","","Mostly Cloudy"
"1966-05-13 16:00","1966","05","13","16:00","13.3","","0.6","","41","","16","","16","","40.2","","99.64","","","","","","Mainly Clear"
"1966-05-13 17:00","1966","05","13","17:00","13.3","","0.6","","41","","18","","21","","40.2","","99.63","","","","","","Mainly Clear"
"1966-05-13 18:00","1966","05","13","18:00","12.2","","0.6","","44","","18","","18","","40.2","","99.63","","","","","","Mainly Clear"
"1966-05-13 19:00","1966","05","13","19:00","11.1","","-1.7","","40","","18","","14","","40.2","","99.61","","","","","","Mostly Cloudy"
"1966-05-13 20:00","1966","05","13","20:00","10.0","","-2.2","","43","","18","","11","","25.0","","99.58","","","","","","Mostly Cloudy"
"1966-05-13 21:00","1966","05","13","21:00","9.4","","-1.1","","47","","16","","8","","25.0","","99.58","","","","","","Mostly Cloudy"
"1966-05-13 22:00","1966","05","13","22:00","6.7","","0.6","","65","","29","","3","","25.0","","99.56","","","","","","Mainly Clear"
"1966-05-13 23:00","1966","05","13","23:00","5.0","","2.2","","81","","34","","8","","25.0","","99.53","","","","","","Mainly Clear"
"1966-05-14 00:00","1966","05","14","00:00","6.1","","3.3","","82","","32","","10","","25.0","","99.54","","","","","","Mostly Cloudy"
"1966-05-14 01:00","1966","05","14","01:00","6.7","","1.7","","70","","34","","10","","25.0","","99.54","","","","","","Cloudy"
"1966-05-14 02:00","1966","05","14","02:00","7.2","","-0.6","","58","","36","","13","","25.0","","99.54","","","","","","Cloudy"
"1966-05-14 03:00","1966","05","14","03:00","7.2","","-0.6","","58","","36","","13","","25.0","","99.53","","","","","","Cloudy"
"1966-05-14 04:00","1966","05","14","04:00","6.1","","0.0","","65","","34","","10","","25.0","","99.61","","","","","","Cloudy"
"1966-05-14 05:00","1966","05","14","05:00","6.1","","1.1","","69","","34","","6","","25.0","","99.61","","","","","","Mostly Cloudy"
"1966-05-14 06:00","1966","05","14","06:00","6.1","","-0.6","","62","","36","","10","","32.2","","99.66","","","","","","Mostly Cloudy"
"1966-05-14 07:00","1966","05","14","07:00","7.8","","-1.7","","51","","36","","8","","32.2","","99.68","","","","","","Mainly Clear"
"1966-05-14 08:00","1966","05","14","08:00","11.1","","-1.7","","40","","9","","5","","40.2","","99.67","","","","","","Mainly Clear"
"1966-05-14 09:00","1966","05","14","09:00","12.8","","0.0","","42","","7","","3","","40.2","","99.65","","","","","","Mainly Clear"
"1966-05-14 10:00","1966","05","14","10:00","13.9","","-0.6","","37","","14","","5","","32.2","","99.64","","","","","","Clear"
"1966-05-14 11:00","1966","05","14","11:00","15.0","","0.6","","38","","11","","11","","32.2","","99.61","","","","","","Mainly Clear"
"1966-05-14 12:00","1966","05","14","12:00","15.6","","2.2","","40","","16","","11","","32.2","","99.58","","","","","","Mainly Clear"
"1966-05-14 13:00","1966","05","14","13:00","15.6","","-0.6","","33","","14","","10","","32.2","","99.53","","","","","","Clear"
"1966-05-14 14:00","1966","05","14","14:00","17.2","","3.3","","39","","16","","5","","32.2","","99.49","","","","","","Mainly Clear"
"1966-05-14 15:00","1966","05","14","15:00","16.1","","-0.6","","32","","14","","13","","32.2","","99.46","","","","","","Mainly Clear"
"1966-05-14 16:00","1966","05","14","16:00","15.6","","0.6","","36","","16","","18","","32.2","","99.44","","","","","","Mainly Clear"
"1966-05-14 17:00","1966","05","14","17:00","15.0","","-0.6","","35","","18","","18","","32.2","","99.43","","","","","","Mainly Clear"
"1966-05-14 18:00","1966","05","14","18:00","13.3","","-0.6","","39","","18","","13","","32.2","","99.43","","","","","","Mainly Clear"
"1966-05-14 19:00","1966","05","14","19:00","12.2","","1.7","","49","","16","","6","","40.2","","99.49","","","","","","Mainly Clear"
"1966-05-14 20:00","1966","05","14","20:00","11.7","","1.7","","49","","36","","14","","25.0","","99.54","","","","","","Mainly Clear"
"1966-05-14 21:00","1966","05","14","21:00","9.4","","1.1","","56","","34","","14","","25.0","","99.56","","","","","","Mainly Clear"
"1966-05-14 22:00","1966","05","14","22:00","7.2","","1.1","","64","","32","","14","","25.0","","99.59","","","","","","Clear"
"1966-05-14 23:00","1966","05","14","23:00","6.1","","1.1","","69","","32","","14","","25.0","","99.59","","","","","","Clear"
"1966-05-15 00:00","1966","05","15","00:00","5.0","","0.6","","72","","34","","13","","25.0","","99.60","","","","","","Clear"
"1966-05-15 01:00","1966","05","15","01:00","5.0","","1.1","","77","","34","","13","","25.0","","99.61","","","","","","Clear"
"1966-05-15 02:00","1966","05","15","02:00","3.9","","0.0","","75","","32","","13","","25.0","","99.65","","","","","","Clear"
"1966-05-15 03:00","1966","05","15","03:00","3.9","","0.0","","75","","34","","10","","25.0","","99.68","","","","","","Mainly Clear"
"1966-05-15 04:00","1966","05","15","04:00","3.9","","-0.6","","73","","36","","13","","25.0","","99.70","","","","","","Mainly Clear"
"1966-05-15 05:00","1966","05","15","05:00","3.9","","-0.6","","73","","34","","10","","32.2","","99.74","","","","","","Mostly Cloudy"
"1966-05-15 06:00","1966","05","15","06:00","5.0","","1.1","","77","","","","0","","32.2","","99.80","","","","","","Mostly Cloudy"
"1966-05-15 07:00","1966","05","15","07:00","6.1","","2.2","","75","","23","","5","","32.2","","99.84","","","","","","Mostly Cloudy"
"1966-05-15 08:00","1966","05","15","08:00","10.6","","2.8","","58","","36","","5","","32.2","","99.86","","","","","","Mainly Clear"
"1966-05-15 09:00","1966","05","15","09:00","12.2","","2.8","","53","","7","","3","","32.2","","99.84","","","","","","Mostly Cloudy"
"1966-05-15 10:00","1966","05","15","10:00","13.3","","2.8","","49","","18","","3","","32.2","","99.79","","","","","","Mostly Cloudy"
"1966-05-15 11:00","1966","05","15","11:00","13.3","","3.9","","52","","16","","10","","40.2","","99.85","","","","","","Cloudy"
"1966-05-15 12:00","1966","05","15","12:00","13.3","","2.2","","46","","16","","8","","32.2","","99.88","","","","","","Mostly Cloudy"
"1966-05-15 13:00","1966","05","15","13:00","15.0","","2.8","","43","","18","","10","","32.2","","99.80","","","","","","Mainly Clear"
"1966-05-15 14:00","1966","05","15","14:00","15.6","","2.2","","40","","14","","11","","24.1","","99.73","","","","","","Mainly Clear"
"1966-05-15 15:00","1966","05","15","15:00","15.6","","2.2","","41","","14","","11","","32.2","","99.69","","","","","","Mostly Cloudy"
"1966-05-15 16:00","1966","05","15","16:00","15.0","","2.8","","43","","14","","16","","32.2","","99.62","","","","","","Mostly Cloudy"
"1966-05-15 17:00","1966","05","15","17:00","14.4","","2.2","","43","","14","","14","","24.1","","99.62","","","","","","Mostly Cloudy"
"1966-05-15 18:00","1966","05","15","18:00","13.3","","2.2","","47","","14","","13","","24.1","","99.57","","","","","","Mostly Cloudy"
"1966-05-15 19:00","1966","05","15","19:00","12.2","","1.7","","49","","14","","14","","24.1","","99.57","","","","","","Mostly Cloudy"
"1966-05-15 20:00","1966","05","15","20:00","10.6","","2.2","","56","","18","","8","","24.1","","99.61","","","","","","Mostly Cloudy"
"1966-05-15 21:00","1966","05","15","21:00","9.4","","3.3","","65","","9","","3","","24.1","","99.62","","","","","","Cloudy"
"1966-05-15 22:00","1966","05","15","22:00","10.0","","3.3","","62","","9","","3","","24.1","","99.58","","","","","","Cloudy"
"1966-05-15 23:00","1966","05","15","23:00","10.6","","3.9","","63","","11","","5","","24.1","","99.50","","","","","","Cloudy"
"1966-05-16 00:00","1966","05","16","00:00","10.6","","3.9","","63","","9","","10","","25.0","","99.42","","","","","","Mostly Cloudy"
"1966-05-16 01:00","1966","05","16","01:00","9.4","","6.1","","78","","9","","6","","25.0","","99.29","","","","","","Mostly Cloudy"
"1966-05-16 02:00","1966","05","16","02:00","9.4","","6.1","","78","","","","0","","24.1","","99.25","","","","","","Cloudy"
"1966-05-16 03:00","1966","05","16","03:00","10.0","","6.1","","77","","","","0","","24.1","","99.21","","","","","","Cloudy"
"1966-05-16 04:00","1966","05","16","04:00","9.4","","5.6","","76","","5","","3","","24.1","","99.19","","","","","","Cloudy"
"1966-05-16 05:00","1966","05","16","05:00","9.4","","7.2","","86","","9","","16","","9.7","","99.11","","","","","","Rain Showers,Fog"
"1966-05-16 06:00","1966","05","16","06:00","10.0","","7.2","","84","","","","0","","4.8","","99.17","","","","","","Rain Showers,Haze"
"1966-05-16 07:00","1966","05","16","07:00","9.4","","7.8","","88","","18","","6","","4.8","","99.31","","","","","","Rain Showers,Fog"
"1966-05-16 08:00","1966","05","16","08:00","9.4","","8.3","","92","","7","","13","","2.4","","99.07","","","","","","Fog"
"1966-05-16 09:00","1966","05","16","09:00","9.4","","8.3","","92","","9","","10","","4.8","","99.02","","","","","","Rain Showers,Fog"
"1966-05-16 10:00","1966","05","16","10:00","10.0","","8.3","","90","","11","","13","","4.8","","98.96","","","","","","Rain Showers,Fog"
"1966-05-16 11:00","1966","05","16","11:00","9.4","","7.8","","90","","9","","16","","3.2","","98.97","","","","","","Rain Showers,Fog"
"1966-05-16 12:00","1966","05","16","12:00","10.0","","8.9","","92","","9","","19","","4.0","","98.88","","","","","","Rain Showers,Fog"
"1966-05-16 13:00","1966","05","16","13:00","10.0","","8.9","","94","","11","","18","","4.0","","98.90","","","","","","Fog"
"1966-05-16 14:00","1966","05","16","14:00","10.6","","9.4","","94","","11","","19","","4.0","","98.82","","","","","","Fog"
"1966-05-16 15:00","1966","05","16","15:00","10.0","","8.9","","92","","14","","13","","4.0","","98.81","","","","","","Fog"
"1966-05-16 16:00","1966","05","16","16:00","11.1","","9.4","","90","","9","","3","","4.8","","98.79","","","","","","Fog"
"1966-05-16 17:00","1966","05","16","17:00","12.8","","10.6","","87","","27","","6","","4.8","","98.81","","","","","","Fog"
"1966-05-16 18:00","1966","05","16","18:00","13.3","","11.1","","86","","32","","6","","4.8","","98.82","","","","","","Fog"
"1966-05-16 19:00","1966","05","16","19:00","13.3","","11.1","","86","","2","","6","","4.8","","98.86","","","","","","Fog"
"1966-05-16 20:00","1966","05","16","20:00","12.2","","10.6","","91","","7","","3","","4.8","","98.90","","","","","","Fog"
"1966-05-16 21:00","1966","05","16","21:00","11.1","","10.0","","94","","18","","6","","4.0","","98.95","","","","","","Fog"
"1966-05-16 22:00","1966","05","16","22:00","10.0","","9.4","","98","","27","","3","","3.2","","99.00","","","","","","Fog"
"1966-05-16 23:00","1966","05","16","23:00","10.6","","10.0","","96","","29","","11","","4.0","","99.04","","","","","","Fog"
"1966-05-17 00:00","1966","05","17","00:00","11.1","","8.9","","87","","27","","13","","16.1","","99.04","","","","","","Mostly Cloudy"
"1966-05-17 01:00","1966","05","17","01:00","9.4","","7.2","","86","","27","","21","","24.1","","99.06","","","","","","Mainly Clear"
"1966-05-17 02:00","1966","05","17","02:00","8.9","","7.2","","90","","32","","21","","24.1","","99.08","","","","","","Mainly Clear"
"1966-05-17 03:00","1966","05","17","03:00","8.3","","7.2","","94","","27","","10","","24.1","","99.08","","","","","","Mostly Cloudy"
"1966-05-17 04:00","1966","05","17","04:00","8.3","","6.7","","90","","27","","10","","24.1","","99.14","","","","","","Mostly Cloudy"
"1966-05-17 05:00","1966","05","17","05:00","8.3","","7.2","","92","","27","","10","","16.1","","99.21","","","","","","Mainly Clear"
"1966-05-17 06:00","1966","05","17","06:00","7.8","","6.7","","94","","27","","13","","16.1","","99.24","","","","","","Mainly Clear"
"1966-05-17 07:00","1966","05","17","07:00","10.0","","7.8","","86","","29","","23","","32.2","","99.34","","","","","","Mainly Clear"
"1966-05-17 08:00","1966","05","17","08:00","11.7","","8.9","","83","","32","","23","","32.2","","99.34","","","","","","Mainly Clear"
"1966-05-17 09:00","1966","05","17","09:00","12.8","","9.4","","79","","34","","21","","32.2","","99.30","","","","","","Mainly Clear"
"1966-05-17 10:00","1966","05","17","10:00","14.4","","8.9","","69","","32","","16","","40.2","","99.39","","","","","","Mainly Clear"
"1966-05-17 11:00","1966","05","17","11:00","16.1","","8.9","","63","","32","","16","","40.2","","99.41","","","","","","Mainly Clear"
"1966-05-17 12:00","1966","05","17","12:00","17.2","","7.2","","51","","32","","13","","40.2","","99.37","","","","","","Mostly Cloudy"
"1966-05-17 13:00","1966","05","17","13:00","18.3","","8.3","","53","","34","","16","","40.2","","99.36","","","","","","Mainly Clear"
"1966-05-17 14:00","1966","05","17","14:00","20.0","","9.4","","50","","32","","16","","40.2","","99.33","","","","","","Mostly Cloudy"
"1966-05-17 15:00","1966","05","17","15:00","16.7","","8.9","","60","","14","","19","","40.2","","99.36","","","","","","Mostly Cloudy"
"1966-05-17 16:00","1966","05","17","16:00","16.7","","7.8","","56","","14","","18","","40.2","","99.38","","","","","","Cloudy"
"1966-05-17 17:00","1966","05","17","17:00","15.6","","8.3","","62","","11","","16","","24.1","","99.37","","","","","","Cloudy"
"1966-05-17 18:00","1966","05","17","18:00","15.0","","7.8","","62","","11","","13","","24.1","","99.44","","","","","","Cloudy"
"1966-05-17 19:00","1966","05","17","19:00","14.4","","8.3","","67","","11","","14","","24.1","","99.43","","","","","","Cloudy"
"1966-05-17 20:00","1966","05","17","20:00","13.9","","8.3","","68","","11","","10","","24.1","","99.40","","","","","","Cloudy"
"1966-05-17 21:00","1966","05","17","21:00","12.8","","8.9","","77","","14","","5","","24.1","","99.43","","","","","","Cloudy"
"1966-05-17 22:00","1966","05","17","22:00","12.8","","8.3","","75","","14","","5","","24.1","","99.42","","","","","","Cloudy"
"1966-05-17 23:00","1966","05","17","23:00","11.7","","7.8","","76","","11","","11","","24.1","","99.39","","","","","","Cloudy"
"1966-05-18 00:00","1966","05","18","00:00","11.1","","7.8","","79","","9","","13","","24.1","","99.26","","","","","","Cloudy"
"1966-05-18 01:00","1966","05","18","01:00","12.2","","8.3","","77","","9","","13","","24.1","","99.16","","","","","","Cloudy"
"1966-05-18 02:00","1966","05","18","02:00","12.2","","7.8","","73","","11","","8","","24.1","","99.24","","","","","","Cloudy"
"1966-05-18 03:00","1966","05","18","03:00","12.2","","8.3","","77","","9","","11","","24.1","","99.24","","","","","","Cloudy"
"1966-05-18 04:00","1966","05","18","04:00","11.7","","8.9","","82","","","","0","","24.1","","99.21","","","","","","Cloudy"
"1966-05-18 05:00","1966","05","18","05:00","11.7","","8.9","","82","","7","","13","","16.1","","99.12","","","","","","Cloudy"
"1966-05-18 06:00","1966","05","18","06:00","11.1","","7.8","","81","","5","","14","","11.3","","99.05","","","","","","Cloudy"
"1966-05-18 07:00","1966","05","18","07:00","11.7","","8.3","","80","","7","","18","","8.0","","98.96","","","","","","Haze"
"1966-05-18 08:00","1966","05","18","08:00","13.9","","8.3","","70","","9","","23","","6.4","","98.99","","","","","","Haze"
"1966-05-18 09:00","1966","05","18","09:00","13.3","","8.9","","74","","9","","27","","8.0","","98.93","","","","","","Haze"
"1966-05-18 10:00","1966","05","18","10:00","13.3","","8.9","","74","","9","","21","","8.0","","98.88","","","","","","Haze"
"1966-05-18 11:00","1966","05","18","11:00","12.8","","9.4","","79","","9","","19","","6.4","","98.83","","","","","","Haze"
"1966-05-18 12:00","1966","05","18","12:00","12.2","","8.9","","80","","9","","18","","6.4","","98.79","","","","","","Haze"
"1966-05-18 13:00","1966","05","18","13:00","12.2","","8.9","","80","","9","","6","","4.8","","98.81","","","","","","Rain,Haze"
"1966-05-18 14:00","1966","05","18","14:00","11.1","","10.0","","92","","9","","13","","3.2","","98.78","","","","","","Moderate Rain Showers,Fog"
"1966-05-18 15:00","1966","05","18","15:00","11.1","","10.0","","92","","11","","13","","3.2","","98.65","","","","","","Rain Showers,Fog"
"1966-05-18 16:00","1966","05","18","16:00","11.7","","11.1","","96","","16","","11","","1.6","","98.62","","","","","","Rain Showers,Fog"
"1966-05-18 17:00","1966","05","18","17:00","9.4","","8.9","","98","","14","","18","","1.2","","98.61","","","","","","Rain Showers,Fog"
"1966-05-18 18:00","1966","05","18","18:00","9.4","","9.4","","100","","11","","5","","1.2","","98.55","","","","","","Rain Showers,Fog"
"1966-05-18 19:00","1966","05","18","19:00","10.0","","10.0","","100","","29","","3","","1.2","","98.55","","","","","","Fog"
"1966-05-18 20:00","1966","05","18","20:00","11.1","","11.1","","100","","36","","11","","1.2","","98.53","","","","","","Fog"
"1966-05-18 21:00","1966","05","18","21:00","12.2","","12.2","","100","","5","","6","","3.2","","98.53","","","","","","Rain Showers,Fog"
"1966-05-18 22:00","1966","05","18","22:00","12.2","","12.2","","100","","9","","14","","0.8","","98.39","","","","","","Rain Showers,Fog"
"1966-05-18 23:00","1966","05","18","23:00","12.2","","12.2","","100","","27","","3","","1.2","","98.49","","","","","","Fog"
"1966-05-19 00:00","1966","05","19","00:00","12.2","","12.2","","100","","","","0","","1.2","","98.53","","","","","","Fog"
"1966-05-19 01:00","1966","05","19","01:00","11.7","","11.7","","100","","27","","3","","1.2","","98.55","","","","","","Fog"
"1966-05-19 02:00","1966","05","19","02:00","12.2","","12.2","","100","","27","","6","","0.4","","98.61","","","","","","Fog"
"1966-05-19 03:00","1966","05","19","03:00","10.0","","10.0","","100","","27","","11","","0.4","","98.62","","","","","","Fog"
"1966-05-19 04:00","1966","05","19","04:00","9.4","","9.4","","100","","27","","5","","1.2","","98.68","","","","","","Fog"
"1966-05-19 05:00","1966","05","19","05:00","8.3","","8.3","","100","","29","","6","","0.2","","98.72","","","","","","Fog"
"1966-05-19 06:00","1966","05","19","06:00","8.3","","8.3","","100","","2","","6","","0.2","","98.79","","","","","","Fog"
"1966-05-19 07:00","1966","05","19","07:00","10.6","","10.0","","98","","","","0","","1.6","","98.85","","","","","","Fog"
"1966-05-19 08:00","1966","05","19","08:00","13.9","","11.7","","86","","18","","5","","6.4","","98.88","","","","","","Fog"
"1966-05-19 09:00","1966","05","19","09:00","15.0","","12.2","","83","","18","","13","","9.7","","98.88","","","","","","Haze"
"1966-05-19 10:00","1966","05","19","10:00","16.7","","12.2","","75","","16","","13","","9.7","","98.85","","","","","","Haze"
"1966-05-19 11:00","1966","05","19","11:00","17.2","","13.9","","79","","16","","19","","6.4","","98.80","","","","","","Haze"
"1966-05-19 12:00","1966","05","19","12:00","16.7","","13.9","","83","","16","","21","","4.8","","98.78","","","","","","Haze"
"1966-05-19 13:00","1966","05","19","13:00","19.4","","9.4","","53","","23","","39","","16.1","","98.75","","","","","","Mainly Clear"
"1966-05-19 14:00","1966","05","19","14:00","19.4","","8.9","","51","","23","","37","","16.1","","98.79","","","","","","Mostly Cloudy"
"1966-05-19 15:00","1966","05","19","15:00","12.8","","9.4","","81","","27","","35","","8.0","","98.97","","","","","","Rain Showers,Fog"
"1966-05-19 16:00","1966","05","19","16:00","13.3","","9.4","","76","","20","","18","","24.1","","98.94","","","","","","Rain Showers"
"1966-05-19 17:00","1966","05","19","17:00","11.7","","9.4","","87","","23","","13","","40.2","","98.99","","","","","","Mostly Cloudy"
"1966-05-19 18:00","1966","05","19","18:00","13.9","","10.0","","76","","23","","18","","40.2","","99.00","","","","","","Mainly Clear"
"1966-05-19 19:00","1966","05","19","19:00","13.3","","8.9","","74","","23","","13","","32.2","","99.02","","","","","","Mainly Clear"
"1966-05-19 20:00","1966","05","19","20:00","12.2","","9.4","","82","","18","","11","","24.1","","99.04","","","","","","Mainly Clear"
"1966-05-19 21:00","1966","05","19","21:00","11.7","","8.9","","82","","16","","10","","25.0","","99.13","","","","","","Mainly Clear"
"1966-05-19 22:00","1966","05","19","22:00","10.0","","8.3","","88","","16","","11","","24.1","","99.17","","","","","","Mainly Clear"
"1966-05-19 23:00","1966","05","19","23:00","10.0","","7.8","","86","","16","","10","","24.1","","99.16","","","","","","Mainly Clear"
"1966-05-20 00:00","1966","05","20","00:00","10.6","","7.8","","83","","16","","6","","24.1","","99.15","","","","","","Mostly Cloudy"
"1966-05-20 01:00","1966","05","20","01:00","11.1","","7.8","","79","","20","","6","","24.1","","99.13","","","","","","Mainly Clear"
"1966-05-20 02:00","1966","05","20","02:00","10.6","","7.8","","83","","18","","8","","24.1","","99.12","","","","","","Mainly Clear"
"1966-05-20 03:00","1966","05","20","03:00","8.9","","7.8","","94","","23","","5","","24.1","","99.10","","","","","","Clear"
"1966-05-20 04:00","1966","05","20","04:00","7.8","","6.1","","89","","27","","3","","24.1","","99.07","","","","","","Mainly Clear"
"1966-05-20 05:00","1966","05","20","05:00","8.3","","6.1","","85","","27","","5","","16.1","","99.10","","","","","","Mainly Clear"
"1966-05-20 06:00","1966","05","20","06:00","8.3","","6.1","","85","","18","","3","","16.1","","99.12","","","","","","Mainly Clear"
"1966-05-20 07:00","1966","05","20","07:00","11.1","","7.8","","79","","20","","6","","9.7","","99.13","","","","","","Haze"
"1966-05-20 08:00","1966","05","20","08:00","14.4","","8.9","","70","","25","","14","","11.3","","99.14","","","","","","Mostly Cloudy"
"1966-05-20 09:00","1966","05","20","09:00","15.6","","7.8","","59","","25","","18","","12.9","","99.14","","","","","","Mainly Clear"
"1966-05-20 10:00","1966","05","20","10:00","17.2","","7.8","","53","","25","","24","","16.1","","99.14","","","","","","Mostly Cloudy"
"1966-05-20 11:00","1966","05","20","11:00","18.3","","7.2","","48","","25","","35","","19.3","","99.12","","","","","","Mainly Clear"
"1966-05-20 12:00","1966","05","20","12:00","18.3","","10.0","","58","","25","","26","","19.3","","99.10","","","","","","Mainly Clear"
"1966-05-20 13:00","1966","05","20","13:00","16.7","","10.0","","64","","25","","24","","16.1","","98.97","","","","","","Mainly Clear"
"1966-05-20 14:00","1966","05","20","14:00","19.4","","8.3","","48","","23","","45","","16.1","","98.91","","","","","","Mainly Clear"
"1966-05-20 15:00","1966","05","20","15:00","18.3","","8.3","","51","","32","","24","","16.1","","98.95","","","","","","Mostly Cloudy"
"1966-05-20 16:00","1966","05","20","16:00","11.7","","9.4","","87","","29","","31","","11.3","","99.04","","","","","","Rain Showers"
"1966-05-20 17:00","1966","05","20","17:00","12.8","","10.0","","82","","29","","24","","4.8","","99.06","","","","","","Thunderstorms,Moderate Rain Showers,Fog"
"1966-05-20 18:00","1966","05","20","18:00","12.2","","11.7","","96","","20","","45","","40.2","","98.97","","","","","","Rain Showers"
"1966-05-20 19:00","1966","05","20","19:00","13.3","","9.4","","78","","23","","16","","40.2","","99.00","","","","","","Mostly Cloudy"
"1966-05-20 20:00","1966","05","20","20:00","12.2","","9.4","","82","","23","","11","","32.2","","99.03","","","","","","Mostly Cloudy"
"1966-05-20 21:00","1966","05","20","21:00","11.7","","8.9","","82","","20","","6","","25.0","","99.08","","","","","","Mainly Clear"
"1966-05-20 22:00","1966","05","20","22:00","11.7","","8.3","","80","","20","","5","","24.1","","99.11","","","","","","Mainly Clear"
"1966-05-20 23:00","1966","05","20","23:00","9.4","","7.8","","90","","25","","3","","24.1","","99.12","","","","","","Mainly Clear"
"1966-05-21 00:00","1966","05","21","00:00","8.9","","7.8","","92","","36","","5","","24.1","","99.15","","","","","","Mainly Clear"
"1966-05-21 01:00","1966","05","21","01:00","7.8","","6.7","","94","","29","","8","","24.1","","99.18","","","","","","Clear"
"1966-05-21 02:00","1966","05","21","02:00","6.7","","6.1","","96","","32","","10","","24.1","","99.20","","","","","","Mainly Clear"
"1966-05-21 03:00","1966","05","21","03:00","7.2","","6.1","","93","","32","","10","","16.1","","99.23","","","","","","Mostly Cloudy"
"1966-05-21 04:00","1966","05","21","04:00","7.2","","6.1","","91","","25","","6","","24.1","","99.22","","","","","","Mainly Clear"
"1966-05-21 05:00","1966","05","21","05:00","7.2","","6.1","","91","","29","","8","","24.1","","99.24","","","","","","Mostly Cloudy"
"1966-05-21 06:00","1966","05","21","06:00","7.2","","6.1","","93","","32","","8","","24.1","","99.30","","","","","","Mainly Clear"
"1966-05-21 07:00","1966","05","21","07:00","10.0","","8.3","","88","","36","","8","","24.1","","99.34","","","","","","Mainly Clear"
"1966-05-21 08:00","1966","05","21","08:00","12.8","","10.0","","82","","34","","5","","24.1","","99.40","","","","","","Mainly Clear"
"1966-05-21 09:00","1966","05","21","09:00","15.0","","9.4","","69","","27","","2","","40.2","","99.43","","","","","","Mainly Clear"
"1966-05-21 10:00","1966","05","21","10:00","17.2","","6.7","","50","","9","","3","","40.2","","99.42","","","","","","Mainly Clear"
"1966-05-21 11:00","1966","05","21","11:00","17.8","","7.8","","52","","16","","8","","40.2","","99.40","","","","","","Mainly Clear"
"1966-05-21 12:00","1966","05","21","12:00","17.2","","6.1","","48","","16","","11","","40.2","","99.35","","","","","","Mostly Cloudy"
"1966-05-21 13:00","1966","05","21","13:00","17.8","","6.1","","47","","14","","8","","40.2","","99.33","","","","","","Mostly Cloudy"
"1966-05-21 14:00","1966","05","21","14:00","18.3","","6.7","","46","","16","","14","","40.2","","99.28","","","","","","Mainly Clear"
"1966-05-21 15:00","1966","05","21","15:00","17.8","","7.8","","52","","16","","13","","40.2","","99.25","","","","","","Mostly Cloudy"
"1966-05-21 16:00","1966","05","21","16:00","17.2","","7.8","","53","","14","","18","","32.2","","99.27","","","","","","Mostly Cloudy"
"1966-05-21 17:00","1966","05","21","17:00","16.7","","7.8","","56","","16","","18","","32.2","","99.26","","","","","","Mostly Cloudy"
"1966-05-21 18:00","1966","05","21","18:00","16.7","","10.0","","65","","16","","14","","32.2","","99.26","","","","","","Mostly Cloudy"
"1966-05-21 19:00","1966","05","21","19:00","15.0","","10.6","","75","","14","","11","","24.1","","99.28","","","","","","Mostly Cloudy"
"1966-05-21 20:00","1966","05","21","20:00","13.9","","10.0","","76","","18","","5","","19.3","","99.30","","","","","","Mainly Clear"
"1966-05-21 21:00","1966","05","21","21:00","13.3","","10.0","","81","","18","","6","","19.3","","99.34","","","","","","Mainly Clear"
"1966-05-21 22:00","1966","05","21","22:00","11.7","","10.0","","89","","34","","6","","19.3","","99.35","","","","","","Mainly Clear"
"1966-05-21 23:00","1966","05","21","23:00","10.6","","9.4","","92","","5","","5","","12.9","","99.34","","","","","","Mainly Clear"
"1966-05-22 00:00","1966","05","22","00:00","8.9","","8.3","","96","","34","","8","","6.4","","99.36","","","","","","Fog"
"1966-05-22 01:00","1966","05","22","01:00","8.3","","7.2","","94","","34","","10","","9.7","","99.36","","","","","","Fog"
"1966-05-22 02:00","1966","05","22","02:00","8.3","","6.7","","90","","34","","10","","24.1","","99.35","","","","","","Clear"
"1966-05-22 03:00","1966","05","22","03:00","7.8","","6.1","","89","","36","","11","","24.1","","99.35","","","","","","Clear"
"1966-05-22 04:00","1966","05","22","04:00","8.3","","6.1","","85","","36","","14","","24.1","","99.43","","","","","","Clear"
"1966-05-22 05:00","1966","05","22","05:00","6.7","","5.0","","89","","34","","13","","32.2","","99.48","","","","","","Mainly Clear"
"1966-05-22 06:00","1966","05","22","06:00","8.3","","6.1","","85","","36","","13","","32.2","","99.56","","","","","","Mainly Clear"
"1966-05-22 07:00","1966","05","22","07:00","10.6","","6.7","","77","","36","","16","","32.2","","99.62","","","","","","Mainly Clear"
"1966-05-22 08:00","1966","05","22","08:00","13.3","","7.2","","68","","36","","13","","40.2","","99.66","","","","","","Clear"
"1966-05-22 09:00","1966","05","22","09:00","15.6","","7.8","","59","","34","","14","","40.2","","99.69","","","","","","Clear"
"1966-05-22 10:00","1966","05","22","10:00","16.7","","8.9","","60","","32","","19","","40.2","","99.72","","","","","","Mainly Clear"
"1966-05-22 11:00","1966","05","22","11:00","17.8","","10.0","","59","","34","","14","","40.2","","99.69","","","","","","Mainly Clear"
"1966-05-22 12:00","1966","05","22","12:00","18.9","","8.9","","52","","36","","16","","40.2","","99.65","","","","","","Mainly Clear"
"1966-05-22 13:00","1966","05","22","13:00","20.0","","8.3","","47","","36","","19","","40.2","","99.60","","","","","","Mainly Clear"
"1966-05-22 14:00","1966","05","22","14:00","20.6","","9.4","","49","","2","","10","","40.2","","99.57","","","","","","Mainly Clear"
"1966-05-22 15:00","1966","05","22","15:00","21.7","","10.6","","49","","14","","11","","40.2","","99.56","","","","","","Mainly Clear"
"1966-05-22 16:00","1966","05","22","16:00","18.3","","8.3","","53","","14","","16","","32.2","","99.54","","","","","","Mainly Clear"
"1966-05-22 17:00","1966","05","22","17:00","18.3","","8.3","","53","","16","","14","","32.2","","99.52","","","","","","Mainly Clear"
"1966-05-22 18:00","1966","05","22","18:00","17.2","","8.3","","55","","16","","16","","32.2","","99.52","","","","","","Clear"
"1966-05-22 19:00","1966","05","22","19:00","16.7","","7.8","","56","","16","","10","","32.2","","99.52","","","","","","Clear"
"1966-05-22 20:00","1966","05","22","20:00","14.4","","7.2","","63","","16","","8","","24.1","","99.55","","","","","","Mainly Clear"
"1966-05-22 21:00","1966","05","22","21:00","13.3","","7.8","","69","","20","","8","","24.1","","99.59","","","","","","Mainly Clear"
"1966-05-22 22:00","1966","05","22","22:00","11.7","","7.8","","78","","25","","6","","24.1","","99.61","","","","","","Clear"
"1966-05-22 23:00","1966","05","22","23:00","12.8","","7.8","","70","","","","0","","24.1","","99.61","","","","","","Clear"
"1966-05-23 00:00","1966","05","23","00:00","11.7","","7.2","","75","","32","","6","","24.1","","99.63","","","","","","Clear"
"1966-05-23 01:00","1966","05","23","01:00","10.6","","7.2","","81","","32","","3","","24.1","","99.59","","","","","","Clear"
"1966-05-23 02:00","1966","05","23","02:00","11.1","","6.7","","74","","","","0","","24.1","","99.59","","","","","","Clear"
"1966-05-23 03:00","1966","05","23","03:00","10.6","","6.7","","75","","","","0","","24.1","","99.59","","","","","","Clear"
"1966-05-23 04:00","1966","05","23","04:00","7.2","","5.6","","89","","","","0","","8.0","","99.65","","","","","","Fog"
"1966-05-23 05:00","1966","05","23","05:00","7.2","","6.1","","91","","","","0","","8.0","","99.69","","","","","","Fog"
"1966-05-23 06:00","1966","05","23","06:00","7.2","","6.7","","96","","","","0","","9.7","","99.74","","","","","","Fog"
"1966-05-23 07:00","1966","05","23","07:00","12.2","","9.4","","84","","","","0","","9.7","","99.75","","","","","","Haze"
"1966-05-23 08:00","1966","05","23","08:00","15.6","","9.4","","67","","9","","3","","9.7","","99.77","","","","","","Haze"
"1966-05-23 09:00","1966","05","23","09:00","17.8","","10.0","","61","","14","","11","","12.9","","99.77","","","","","","Mainly Clear"
"1966-05-23 10:00","1966","05","23","10:00","16.7","","10.0","","64","","14","","14","","16.1","","99.75","","","","","","Mainly Clear"
"1966-05-23 11:00","1966","05","23","11:00","18.3","","8.9","","55","","14","","18","","16.1","","99.71","","","","","","Mainly Clear"
"1966-05-23 12:00","1966","05","23","12:00","18.3","","8.3","","53","","14","","18","","16.1","","99.63","","","","","","Mostly Cloudy"
"1966-05-23 13:00","1966","05","23","13:00","19.4","","8.9","","51","","14","","14","","16.1","","99.57","","","","","","Mostly Cloudy"
"1966-05-23 14:00","1966","05","23","14:00","20.6","","8.9","","48","","16","","11","","9.7","","99.48","","","","","","Haze"
"1966-05-23 15:00","1966","05","23","15:00","21.1","","10.0","","50","","16","","16","","9.7","","99.44","","","","","","Haze"
"1966-05-23 16:00","1966","05","23","16:00","21.7","","11.1","","51","","14","","10","","9.7","","99.32","","","","","","Haze"
"1966-05-23 17:00","1966","05","23","17:00","21.1","","10.0","","50","","16","","13","","9.7","","99.31","","","","","","Haze"
"1966-05-23 18:00","1966","05","23","18:00","18.3","","7.8","","50","","18","","13","","9.7","","99.28","","","","","","Haze"
"1966-05-23 19:00","1966","05","23","19:00","16.7","","9.4","","62","","16","","13","","12.9","","99.22","","","","","","Mostly Cloudy"
"1966-05-23 20:00","1966","05","23","20:00","13.9","","8.3","","70","","16","","13","","11.3","","99.22","","","","","","Mainly Clear"
"1966-05-23 21:00","1966","05","23","21:00","12.2","","8.3","","77","","16","","13","","16.1","","99.14","","","","","","Mainly Clear"
"1966-05-23 22:00","1966","05","23","22:00","12.2","","7.8","","73","","","","0","","16.1","","99.14","","","","","","Mainly Clear"
"1966-05-23 23:00","1966","05","23","23:00","10.6","","7.2","","81","","25","","6","","16.1","","99.20","","","","","","Mainly Clear"
"1966-05-24 00:00","1966","05","24","00:00","10.6","","8.3","","85","","36","","3","","16.1","","99.22","","","","","","Mainly Clear"
"1966-05-24 01:00","1966","05","24","01:00","10.0","","8.3","","88","","2","","8","","12.9","","99.18","","","","","","Clear"
"1966-05-24 02:00","1966","05","24","02:00","9.4","","7.8","","90","","","","0","","9.7","","99.09","","","","","","Fog"
"1966-05-24 03:00","1966","05","24","03:00","8.9","","7.8","","94","","","","0","","6.4","","99.05","","","","","","Fog"
"1966-05-24 04:00","1966","05","24","04:00","10.6","","7.8","","83","","","","0","","6.4","","99.03","","","","","","Fog"
"1966-05-24 05:00","1966","05","24","05:00","10.0","","8.3","","90","","","","0","","4.0","","99.08","","","","","","Fog"
"1966-05-24 06:00","1966","05","24","06:00","11.7","","9.4","","87","","","","0","","4.8","","99.10","","","","","","Fog"
"1966-05-24 07:00","1966","05","24","07:00","14.4","","11.1","","80","","16","","5","","6.4","","99.09","","","","","","Haze"
"1966-05-24 08:00","1966","05","24","08:00","17.8","","12.2","","70","","16","","18","","6.4","","99.03","","","","","","Haze"
"1966-05-24 09:00","1966","05","24","09:00","19.4","","12.8","","66","","16","","21","","9.7","","99.00","","","","","","Haze"
"1966-05-24 10:00","1966","05","24","10:00","23.3","","16.1","","63","","18","","31","","9.7","","98.98","","28","","","","Haze"
"1966-05-24 11:00","1966","05","24","11:00","25.6","","17.2","","59","","20","","23","","9.7","","99.01","","31","","","","Haze"
"1966-05-24 12:00","1966","05","24","12:00","26.7","","18.3","","60","","23","","29","","11.3","","98.99","","33","","","","Mainly Clear"
"1966-05-24 13:00","1966","05","24","13:00","26.1","","17.8","","59","","25","","27","","11.3","","99.02","","32","","","","Mostly Cloudy"
"1966-05-24 14:00","1966","05","24","14:00","25.6","","17.2","","60","","27","","26","","16.1","","99.07","","31","","","","Mostly Cloudy"
"1966-05-24 15:00","1966","05","24","15:00","21.1","","15.0","","69","","36","","26","","24.1","","99.16","","25","","","","Cloudy"
"1966-05-24 16:00","1966","05","24","16:00","19.4","","14.4","","73","","36","","19","","16.1","","99.17","","","","","","Cloudy"
"1966-05-24 17:00","1966","05","24","17:00","20.0","","15.6","","75","","34","","21","","16.1","","99.17","","","","","","Mostly Cloudy"
"1966-05-24 18:00","1966","05","24","18:00","17.2","","13.9","","81","","36","","29","","16.1","","99.17","","","","","","Mainly Clear"
"1966-05-24 19:00","1966","05","24","19:00","15.6","","12.8","","84","","34","","23","","19.3","","99.21","","","","","","Mostly Cloudy"
"1966-05-24 20:00","1966","05","24","20:00","15.0","","12.8","","87","","34","","10","","19.3","","99.30","","","","","","Cloudy"
"1966-05-24 21:00","1966","05","24","21:00","15.0","","13.3","","88","","32","","10","","24.1","","99.42","","","","","","Cloudy"
"1966-05-24 22:00","1966","05","24","22:00","14.4","","13.3","","93","","9","","8","","19.3","","99.43","","","","","","Rain Showers"
"1966-05-24 23:00","1966","05","24","23:00","14.4","","13.9","","97","","","","0","","19.3","","99.44","","","","","","Rain Showers"
"1966-05-25 00:00","1966","05","25","00:00","13.9","","13.9","","98","","18","","6","","16.1","","99.48","","","","","","Rain Showers"
"1966-05-25 01:00","1966","05","25","01:00","13.9","","13.3","","96","","27","","6","","19.3","","99.45","","","","","","Mostly Cloudy"
"1966-05-25 02:00","1966","05","25","02:00","13.3","","11.7","","91","","25","","6","","24.1","","99.47","","","","","","Mainly Clear"
"1966-05-25 03:00","1966","05","25","03:00","12.8","","11.1","","91","","27","","6","","24.1","","99.47","","","","","","Clear"
"1966-05-25 04:00","1966","05","25","04:00","10.6","","10.0","","96","","27","","6","","19.3","","99.51","","","","","","Mainly Clear"
"1966-05-25 05:00","1966","05","25","05:00","8.9","","8.3","","96","","29","","5","","16.1","","99.59","","","","","","Mainly Clear"
"1966-05-25 06:00","1966","05","25","06:00","10.0","","9.4","","98","","34","","3","","32.2","","99.63","","","","","","Mainly Clear"
"1966-05-25 07:00","1966","05","25","07:00","12.8","","10.6","","87","","27","","5","","24.1","","99.67","","","","","","Mainly Clear"
"1966-05-25 08:00","1966","05","25","08:00","15.6","","11.1","","76","","29","","6","","24.1","","99.69","","","","","","Mainly Clear"
"1966-05-25 09:00","1966","05","25","09:00","18.9","","12.2","","66","","27","","6","","24.1","","99.68","","","","","","Mainly Clear"
"1966-05-25 10:00","1966","05","25","10:00","20.0","","9.4","","50","","32","","16","","40.2","","99.67","","","","","","Mainly Clear"
"1966-05-25 11:00","1966","05","25","11:00","21.1","","8.9","","45","","29","","10","","40.2","","99.65","","","","","","Mainly Clear"
"1966-05-25 12:00","1966","05","25","12:00","21.7","","7.8","","40","","32","","18","","40.2","","99.61","","","","","","Mainly Clear"
"1966-05-25 13:00","1966","05","25","13:00","22.8","","8.3","","39","","27","","14","","40.2","","99.55","","","","","","Mainly Clear"
"1966-05-25 14:00","1966","05","25","14:00","22.8","","6.7","","35","","29","","13","","40.2","","99.48","","","","","","Mainly Clear"
"1966-05-25 15:00","1966","05","25","15:00","23.9","","6.1","","32","","27","","19","","40.2","","99.43","","","","","","Mainly Clear"
"1966-05-25 16:00","1966","05","25","16:00","23.3","","5.6","","32","","23","","19","","40.2","","99.37","","","","","","Mainly Clear"
"1966-05-25 17:00","1966","05","25","17:00","23.3","","5.6","","32","","29","","19","","40.2","","99.35","","","","","","Mainly Clear"
"1966-05-25 18:00","1966","05","25","18:00","22.8","","6.1","","34","","27","","13","","40.2","","99.33","","","","","","Mainly Clear"
"1966-05-25 19:00","1966","05","25","19:00","21.7","","6.7","","37","","27","","10","","40.2","","99.33","","","","","","Mainly Clear"
"1966-05-25 20:00","1966","05","25","20:00","19.4","","6.7","","43","","25","","6","","25.0","","99.35","","","","","","Mainly Clear"
"1966-05-25 21:00","1966","05","25","21:00","16.1","","8.3","","59","","18","","13","","25.0","","99.37","","","","","","Mainly Clear"
"1966-05-25 22:00","1966","05","25","22:00","15.0","","8.9","","66","","23","","16","","25.0","","99.39","","","","","","Clear"
"1966-05-25 23:00","1966","05","25","23:00","13.9","","10.0","","76","","25","","16","","25.0","","99.37","","","","","","Clear"
"1966-05-26 00:00","1966","05","26","00:00","13.3","","9.4","","76","","25","","14","","25.0","","99.37","","","","","","Clear"
"1966-05-26 01:00","1966","05","26","01:00","12.8","","8.3","","75","","25","","13","","25.0","","99.33","","","","","","Clear"
"1966-05-26 02:00","1966","05","26","02:00","12.8","","8.3","","74","","27","","13","","25.0","","99.30","","","","","","Clear"
"1966-05-26 03:00","1966","05","26","03:00","12.8","","8.3","","74","","25","","14","","25.0","","99.25","","","","","","Clear"
"1966-05-26 04:00","1966","05","26","04:00","11.7","","7.8","","76","","25","","13","","25.0","","99.22","","","","","","Mainly Clear"
"1966-05-26 05:00","1966","05","26","05:00","11.7","","7.8","","76","","27","","11","","40.2","","99.23","","","","","","Clear"
"1966-05-26 06:00","1966","05","26","06:00","12.2","","7.8","","75","","25","","13","","40.2","","99.22","","","","","","Clear"
"1966-05-26 07:00","1966","05","26","07:00","13.9","","8.9","","73","","27","","11","","40.2","","99.22","","","","","","Clear"
"1966-05-26 08:00","1966","05","26","08:00","18.3","","12.2","","67","","23","","11","","32.2","","99.21","","","","","","Clear"
"1966-05-26 09:00","1966","05","26","09:00","20.6","","12.8","","60","","25","","14","","32.2","","99.19","","","","","","Clear"
"1966-05-26 10:00","1966","05","26","10:00","22.8","","7.8","","38","","25","","19","","32.2","","99.18","","","","","","Mainly Clear"
"1966-05-26 11:00","1966","05","26","11:00","22.8","","7.2","","36","","23","","21","","40.2","","99.16","","","","","","Mainly Clear"
"1966-05-26 12:00","1966","05","26","12:00","23.9","","7.2","","34","","25","","14","","40.2","","99.10","","","","","","Mainly Clear"
"1966-05-26 13:00","1966","05","26","13:00","25.0","","7.2","","32","","25","","14","","40.2","","99.01","","25","","","","Mainly Clear"
"1966-05-26 14:00","1966","05","26","14:00","25.6","","8.3","","34","","27","","18","","40.2","","98.96","","26","","","","Mainly Clear"
"1966-05-26 15:00","1966","05","26","15:00","26.7","","8.9","","32","","25","","16","","40.2","","98.90","","27","","","","Mainly Clear"
"1966-05-26 16:00","1966","05","26","16:00","26.1","","7.8","","31","","27","","19","","40.2","","98.86","","26","","","","Mainly Clear"
"1966-05-26 17:00","1966","05","26","17:00","26.7","","10.0","","34","","27","","24","","40.2","","98.81","","28","","","","Mainly Clear"
"1966-05-26 18:00","1966","05","26","18:00","25.0","","10.6","","41","","25","","16","","40.2","","98.78","","27","","","","Mainly Clear"
"1966-05-26 19:00","1966","05","26","19:00","22.8","","12.2","","50","","18","","16","","40.2","","98.78","","25","","","","Mainly Clear"
"1966-05-26 20:00","1966","05","26","20:00","20.0","","11.1","","57","","23","","16","","32.2","","98.79","","","","","","Mainly Clear"
"1966-05-26 21:00","1966","05","26","21:00","18.9","","9.4","","54","","23","","19","","25.0","","98.83","","","","","","Mainly Clear"
"1966-05-26 22:00","1966","05","26","22:00","17.2","","7.8","","53","","23","","16","","25.0","","98.81","","","","","","Clear"
"1966-05-26 23:00","1966","05","26","23:00","14.4","","7.2","","61","","23","","13","","25.0","","98.76","","","","","","Clear"
"1966-05-27 00:00","1966","05","27","00:00","13.9","","5.6","","57","","23","","11","","25.0","","98.71","","","","","","Clear"
"1966-05-27 01:00","1966","05","27","01:00","13.9","","5.0","","54","","25","","10","","25.0","","98.64","","","","","","Clear"
"1966-05-27 02:00","1966","05","27","02:00","13.3","","5.0","","57","","25","","6","","25.0","","98.60","","","","","","Clear"
"1966-05-27 03:00","1966","05","27","03:00","13.9","","3.3","","50","","20","","10","","25.0","","98.60","","","","","","Clear"
"1966-05-27 04:00","1966","05","27","04:00","13.9","","2.8","","47","","16","","13","","25.0","","98.53","","","","","","Mainly Clear"
"1966-05-27 05:00","1966","05","27","05:00","12.2","","2.8","","52","","20","","10","","32.2","","98.53","","","","","","Mainly Clear"
"1966-05-27 06:00","1966","05","27","06:00","13.3","","7.2","","68","","16","","5","","24.1","","98.54","","","","","","Mostly Cloudy"
"1966-05-27 07:00","1966","05","27","07:00","15.6","","8.9","","64","","23","","13","","32.2","","98.51","","","","","","Mainly Clear"
"1966-05-27 08:00","1966","05","27","08:00","20.0","","10.0","","52","","20","","23","","24.1","","98.43","","","","","","Mainly Clear"
"1966-05-27 09:00","1966","05","27","09:00","22.2","","10.6","","47","","20","","32","","24.1","","98.33","","","","","","Mainly Clear"
"1966-05-27 10:00","1966","05","27","10:00","24.4","","11.1","","43","","20","","34","","24.1","","98.22","","26","","","","Mainly Clear"
"1966-05-27 11:00","1966","05","27","11:00","25.0","","12.8","","46","","23","","35","","24.1","","98.20","","28","","","","Mostly Cloudy"
"1966-05-27 12:00","1966","05","27","12:00","25.6","","11.7","","42","","20","","42","","24.1","","98.11","","28","","","","Mostly Cloudy"
"1966-05-27 13:00","1966","05","27","13:00","27.2","","13.9","","44","","23","","39","","24.1","","98.11","","31","","","","Mostly Cloudy"
"1966-05-27 14:00","1966","05","27","14:00","27.8","","13.3","","41","","23","","39","","24.1","","98.03","","31","","","","Mostly Cloudy"
"1966-05-27 15:00","1966","05","27","15:00","25.6","","14.4","","49","","23","","34","","24.1","","98.01","","29","","","","Mostly Cloudy"
"1966-05-27 16:00","1966","05","27","16:00","26.7","","14.4","","47","","20","","35","","24.1","","97.94","","30","","","","Mainly Clear"
"1966-05-27 17:00","1966","05","27","17:00","25.0","","14.4","","53","","25","","26","","24.1","","97.96","","29","","","","Thunderstorms"
"1966-05-27 18:00","1966","05","27","18:00","17.8","","10.0","","61","","36","","23","","24.1","","98.20","","","","","","Mainly Clear"
"1966-05-27 19:00","1966","05","27","19:00","16.7","","10.0","","65","","36","","27","","40.2","","98.25","","","","","","Mainly Clear"
"1966-05-27 20:00","1966","05","27","20:00","16.1","","8.9","","63","","36","","16","","40.2","","98.33","","","","","","Mainly Clear"
"1966-05-27 21:00","1966","05","27","21:00","13.9","","9.4","","75","","36","","23","","25.0","","98.44","","","","","","Mainly Clear"
"1966-05-27 22:00","1966","05","27","22:00","12.2","","8.3","","78","","34","","14","","25.0","","98.51","","","","","","Mainly Clear"
"1966-05-27 23:00","1966","05","27","23:00","11.7","","8.9","","83","","34","","11","","25.0","","98.54","","","","","","Clear"
"1966-05-28 00:00","1966","05","28","00:00","9.4","","7.8","","90","","29","","8","","25.0","","98.61","","","","","","Mainly Clear"
"1966-05-28 01:00","1966","05","28","01:00","8.9","","7.8","","94","","29","","13","","25.0","","98.64","","","","","","Mostly Cloudy"
"1966-05-28 02:00","1966","05","28","02:00","8.9","","7.2","","90","","32","","14","","25.0","","98.64","","","","","","Mainly Clear"
"1966-05-28 03:00","1966","05","28","03:00","8.3","","6.7","","90","","32","","10","","25.0","","98.64","","","","","","Mainly Clear"
"1966-05-28 04:00","1966","05","28","04:00","6.7","","5.6","","93","","34","","10","","25.0","","98.64","","","","","","Mainly Clear"
"1966-05-28 05:00","1966","05","28","05:00","6.1","","5.0","","93","","36","","13","","40.2","","98.67","","","","","","Mainly Clear"
"1966-05-28 06:00","1966","05","28","06:00","7.2","","5.0","","87","","36","","14","","40.2","","98.69","","","","","","Mainly Clear"
"1966-05-28 07:00","1966","05","28","07:00","9.4","","6.7","","84","","36","","16","","40.2","","98.72","","","","","","Mainly Clear"
"1966-05-28 08:00","1966","05","28","08:00","12.2","","7.8","","75","","36","","14","","40.2","","98.73","","","","","","Mainly Clear"
"1966-05-28 09:00","1966","05","28","09:00","13.9","","7.8","","67","","36","","11","","40.2","","98.70","","","","","","Mainly Clear"
"1966-05-28 10:00","1966","05","28","10:00","15.6","","7.8","","59","","36","","14","","40.2","","98.67","","","","","","Mostly Cloudy"
"1966-05-28 11:00","1966","05","28","11:00","15.6","","5.6","","51","","36","","6","","40.2","","98.63","","","","","","Mostly Cloudy"
"1966-05-28 12:00","1966","05","28","12:00","15.6","","4.4","","48","","9","","3","","40.2","","98.56","","","","","","Mostly Cloudy"
"1966-05-28 13:00","1966","05","28","13:00","15.6","","7.2","","58","","18","","11","","40.2","","98.53","","","","","","Mostly Cloudy"
"1966-05-28 14:00","1966","05","28","14:00","17.2","","6.7","","50","","18","","13","","40.2","","98.47","","","","","","Mostly Cloudy"
"1966-05-28 15:00","1966","05","28","15:00","16.1","","5.6","","50","","18","","16","","40.2","","98.39","","","","","","Mostly Cloudy"
"1966-05-28 16:00","1966","05","28","16:00","16.7","","6.1","","49","","18","","11","","40.2","","98.36","","","","","","Mainly Clear"
"1966-05-28 17:00","1966","05","28","17:00","17.2","","7.2","","51","","16","","10","","40.2","","98.28","","","","","","Mainly Clear"
"1966-05-28 18:00","1966","05","28","18:00","16.1","","5.6","","50","","16","","10","","40.2","","98.24","","","","","","Mainly Clear"
"1966-05-28 19:00","1966","05","28","19:00","15.0","","6.1","","54","","18","","10","","40.2","","98.27","","","","","","Mainly Clear"
"1966-05-28 20:00","1966","05","28","20:00","13.3","","2.2","","47","","34","","26","","40.2","","98.36","","","","","","Mostly Cloudy"
"1966-05-28 21:00","1966","05","28","21:00","11.7","","2.2","","53","","34","","19","","25.0","","98.35","","","","","","Mainly Clear"
"1966-05-28 22:00","1966","05","28","22:00","10.0","","1.1","","55","","34","","13","","25.0","","98.35","","","","","","Mainly Clear"
"1966-05-28 23:00","1966","05","28","23:00","7.8","","2.2","","69","","32","","13","","25.0","","98.33","","","","","","Mainly Clear"
"1966-05-29 00:00","1966","05","29","00:00","7.8","","3.9","","77","","29","","24","","25.0","","98.39","","","","","","Mostly Cloudy"
"1966-05-29 01:00","1966","05","29","01:00","6.7","","1.7","","72","","29","","26","","25.0","","98.42","","","","","","Mostly Cloudy"
"1966-05-29 02:00","1966","05","29","02:00","5.6","","2.8","","82","","29","","29","","25.0","","98.45","","","","","","Mostly Cloudy"
"1966-05-29 03:00","1966","05","29","03:00","3.9","","0.0","","75","","29","","31","","25.0","","98.50","","","","","","Mostly Cloudy"
"1966-05-29 04:00","1966","05","29","04:00","2.8","","-1.1","","77","","27","","19","","25.0","","98.54","","","","","","Mainly Clear"
"1966-05-29 05:00","1966","05","29","05:00","2.8","","0.0","","82","","27","","23","","40.2","","98.58","","","","","","Mainly Clear"
"1966-05-29 06:00","1966","05","29","06:00","3.9","","1.1","","83","","27","","18","","40.2","","98.61","","","","","","Mostly Cloudy"
"1966-05-29 07:00","1966","05","29","07:00","5.6","","2.8","","82","","29","","26","","40.2","","98.67","","","","","","Mostly Cloudy"
"1966-05-29 08:00","1966","05","29","08:00","8.3","","4.4","","77","","29","","24","","40.2","","98.78","","","","","","Mostly Cloudy"
"1966-05-29 09:00","1966","05","29","09:00","9.4","","5.0","","73","","32","","27","","40.2","","98.87","","","","","","Mostly Cloudy"
"1966-05-29 10:00","1966","05","29","10:00","10.0","","4.4","","68","","29","","32","","40.2","","98.98","","","","","","Mostly Cloudy"
"1966-05-29 11:00","1966","05","29","11:00","9.4","","4.4","","71","","32","","24","","40.2","","99.07","","","","","","Cloudy"
"1966-05-29 12:00","1966","05","29","12:00","10.6","","4.4","","65","","27","","29","","40.2","","99.10","","","","","","Mostly Cloudy"
"1966-05-29 13:00","1966","05","29","13:00","10.0","","3.9","","66","","29","","29","","40.2","","99.14","","","","","","Cloudy"
"1966-05-29 14:00","1966","05","29","14:00","11.7","","3.9","","59","","29","","24","","40.2","","99.15","","","","","","Mostly Cloudy"
"1966-05-29 15:00","1966","05","29","15:00","12.8","","3.3","","53","","29","","31","","40.2","","99.15","","","","","","Mostly Cloudy"
"1966-05-29 16:00","1966","05","29","16:00","12.2","","2.8","","53","","32","","35","","40.2","","99.19","","","","","","Mainly Clear"
"1966-05-29 17:00","1966","05","29","17:00","10.6","","2.8","","58","","29","","29","","40.2","","99.24","","","","","","Mainly Clear"
"1966-05-29 18:00","1966","05","29","18:00","10.6","","2.8","","58","","29","","34","","40.2","","99.27","","","","","","Mainly Clear"
"1966-05-29 19:00","1966","05","29","19:00","9.4","","2.2","","60","","29","","27","","40.2","","99.30","","","","","","Mainly Clear"
"1966-05-29 20:00","1966","05","29","20:00","7.8","","1.7","","65","","29","","16","","40.2","","99.30","","","","","","Mainly Clear"
"1966-05-29 21:00","1966","05","29","21:00","6.1","","1.7","","73","","27","","10","","25.0","","99.34","","","","","","Clear"
"1966-05-29 22:00","1966","05","29","22:00","6.1","","1.7","","73","","27","","10","","25.0","","99.33","","","","","","Clear"
"1966-05-29 23:00","1966","05","29","23:00","5.0","","1.7","","79","","27","","11","","25.0","","99.33","","","","","","Clear"
"1966-05-30 00:00","1966","05","30","00:00","4.4","","1.7","","83","","25","","13","","25.0","","99.33","","","","","","Clear"
"1966-05-30 01:00","1966","05","30","01:00","3.3","","1.7","","87","","25","","16","","25.0","","99.30","","","","","","Mainly Clear"
"1966-05-30 02:00","1966","05","30","02:00","4.4","","1.7","","83","","25","","18","","25.0","","99.29","","","","","","Mostly Cloudy"
"1966-05-30 03:00","1966","05","30","03:00","3.9","","1.1","","83","","25","","18","","25.0","","99.28","","","","","","Mainly Clear"
"1966-05-30 04:00","1966","05","30","04:00","5.0","","2.2","","81","","29","","14","","25.0","","99.25","","","","","","Mostly Cloudy"
"1966-05-30 05:00","1966","05","30","05:00","5.0","","2.2","","81","","27","","16","","40.2","","99.31","","","","","","Mostly Cloudy"
"1966-05-30 06:00","1966","05","30","06:00","5.6","","2.8","","82","","27","","19","","40.2","","99.38","","","","","","Mainly Clear"
"1966-05-30 07:00","1966","05","30","07:00","7.2","","2.8","","74","","27","","18","","40.2","","99.42","","","","","","Mainly Clear"
"1966-05-30 08:00","1966","05","30","08:00","8.3","","2.8","","67","","27","","19","","40.2","","99.41","","","","","","Mainly Clear"
"1966-05-30 09:00","1966","05","30","09:00","11.1","","3.9","","60","","27","","29","","40.2","","99.40","","","","","","Mostly Cloudy"
"1966-05-30 10:00","1966","05","30","10:00","11.7","","2.2","","53","","29","","29","","40.2","","99.39","","","","","","Mostly Cloudy"
"1966-05-30 11:00","1966","05","30","11:00","12.2","","1.7","","49","","29","","24","","40.2","","99.39","","","","","","Mostly Cloudy"
"1966-05-30 12:00","1966","05","30","12:00","12.8","","1.1","","45","","29","","26","","40.2","","99.37","","","","","","Mostly Cloudy"
"1966-05-30 13:00","1966","05","30","13:00","13.3","","0.0","","40","","29","","27","","40.2","","99.36","","","","","","Mostly Cloudy"
"1966-05-30 14:00","1966","05","30","14:00","13.3","","0.6","","41","","32","","23","","40.2","","99.37","","","","","","Mostly Cloudy"
"1966-05-30 15:00","1966","05","30","15:00","13.9","","0.6","","40","","29","","23","","40.2","","99.37","","","","","","Mostly Cloudy"
"1966-05-30 16:00","1966","05","30","16:00","13.9","","0.0","","38","","29","","26","","40.2","","99.40","","","","","","Mostly Cloudy"
"1966-05-30 17:00","1966","05","30","17:00","13.9","","-0.6","","37","","29","","24","","40.2","","99.43","","","","","","Mostly Cloudy"
"1966-05-30 18:00","1966","05","30","18:00","13.3","","-0.6","","39","","29","","16","","40.2","","99.47","","","","","","Mainly Clear"
"1966-05-30 19:00","1966","05","30","19:00","11.7","","-2.8","","37","","29","","13","","40.2","","99.49","","","","","","Mainly Clear"
"1966-05-30 20:00","1966","05","30","20:00","8.9","","1.7","","61","","36","","14","","40.2","","99.51","","","","","","Mainly Clear"
"1966-05-30 21:00","1966","05","30","21:00","7.2","","1.7","","68","","36","","16","","25.0","","99.58","","","","","","Mainly Clear"
"1966-05-30 22:00","1966","05","30","22:00","5.6","","1.7","","77","","34","","13","","25.0","","99.58","","","","","","Mainly Clear"
"1966-05-30 23:00","1966","05","30","23:00","6.1","","2.2","","78","","34","","13","","25.0","","99.57","","","","","","Mostly Cloudy"
"1966-05-31 00:00","1966","05","31","00:00","7.2","","2.2","","70","","34","","14","","25.0","","99.58","","","","","","Mostly Cloudy"
"1966-05-31 01:00","1966","05","31","01:00","6.7","","2.8","","76","","32","","14","","25.0","","99.59","","","","","","Mostly Cloudy"
"1966-05-31 02:00","1966","05","31","02:00","6.1","","2.8","","80","","32","","14","","25.0","","99.59","","","","","","Mostly Cloudy"
"1966-05-31 03:00","1966","05","31","03:00","4.4","","2.8","","90","","32","","8","","25.0","","99.59","","","","","","Mainly Clear"
"1966-05-31 04:00","1966","05","31","04:00","5.6","","3.9","","91","","34","","6","","25.0","","99.60","","","","","","Mostly Cloudy"
"1966-05-31 05:00","1966","05","31","05:00","6.7","","4.4","","85","","34","","14","","32.2","","99.64","","","","","","Mostly Cloudy"
"1966-05-31 06:00","1966","05","31","06:00","6.7","","4.4","","85","","34","","14","","40.2","","99.67","","","","","","Mostly Cloudy"
"1966-05-31 07:00","1966","05","31","07:00","7.8","","5.0","","81","","34","","18","","40.2","","99.68","","","","","","Mainly Clear"
"1966-05-31 08:00","1966","05","31","08:00","10.0","","5.0","","71","","36","","10","","40.2","","99.73","","","","","","Mainly Clear"
"1966-05-31 09:00","1966","05","31","09:00","10.0","","3.3","","64","","34","","14","","40.2","","99.75","","","","","","Mostly Cloudy"
"1966-05-31 10:00","1966","05","31","10:00","10.0","","2.8","","60","","36","","14","","40.2","","99.75","","","","","","Mostly Cloudy"
"1966-05-31 11:00","1966","05","31","11:00","10.6","","2.8","","59","","34","","16","","40.2","","99.76","","","","","","Mostly Cloudy"
"1966-05-31 12:00","1966","05","31","12:00","11.7","","4.4","","61","","34","","21","","40.2","","99.75","","","","","","Mostly Cloudy"
"1966-05-31 13:00","1966","05","31","13:00","11.1","","3.3","","58","","34","","18","","40.2","","99.73","","","","","","Mostly Cloudy"
"1966-05-31 14:00","1966","05","31","14:00","11.7","","2.8","","54","","32","","19","","40.2","","99.68","","","","","","Mostly Cloudy"
"1966-05-31 15:00","1966","05","31","15:00","12.2","","3.3","","55","","32","","19","","40.2","","99.68","","","","","","Mostly Cloudy"
"1966-05-31 16:00","1966","05","31","16:00","11.1","","2.2","","55","","34","","19","","40.2","","99.69","","","","","","Cloudy"
"1966-05-31 17:00","1966","05","31","17:00","11.7","","2.2","","53","","29","","11","","40.2","","99.66","","","","","","Mostly Cloudy"
"1966-05-31 18:00","1966","05","31","18:00","12.2","","2.2","","50","","34","","16","","40.2","","99.65","","","","","","Mostly Cloudy"
"1966-05-31 19:00","1966","05","31","19:00","10.6","","3.3","","61","","32","","8","","32.2","","99.67","","","","","","Mostly Cloudy"
"1966-05-31 20:00","1966","05","31","20:00","9.4","","2.8","","63","","36","","23","","32.2","","99.68","","","","","","Mostly Cloudy"
"1966-05-31 21:00","1966","05","31","21:00","8.3","","1.7","","62","","36","","13","","25.0","","99.76","","","","","","Mostly Cloudy"
"1966-05-31 22:00","1966","05","31","22:00","6.7","","1.7","","70","","36","","13","","25.0","","99.79","","","","","","Mostly Cloudy"
"1966-05-31 23:00","1966","05","31","23:00","3.9","","1.7","","85","","32","","6","","25.0","","99.77","","","","","","Mainly Clear"
