"Station Name","TORONTO LESTER B. PEARSON INT'L A"
"Province","ONTARIO"
"Latitude","43.68"
"Longitude","-79.63"
"Elevation","173.40"
"Climate Identifier","6158733"
"WMO Identifier","71624"
"TC Identifier","YYZ"
"All times are specified in Local Standard Time (LST). Add 1 hour to adjust for Daylight Saving Time where and when it is observed."

"Legend"
"E","Estimated"
"M","Missing"
"NA","Not Available"

"Date/Time","Year","Month","Day","Time","Temp (°C)","Temp Flag","Dew Point Temp (°C)","Dew Point Temp Flag","Rel Hum (%)","Rel Hum Flag","Wind Dir (10s deg)","Wind Dir Flag","Wind Spd (km/h)","Wind Spd Flag","Visibility (km)","Visibility Flag","Stn Press (kPa)","Stn Press Flag","Hmdx","Hmdx Flag","Wind Chill","Wind Chill Flag","Weather"
"1998-06-01 00:00","1998","06","01","00:00","8.7","","3.7","","71","","31","","28","","25.0","","98.59","","","","","","Mainly Clear"
"1998-06-01 01:00","1998","06","01","01:00","8.6","","3.9","","72","","30","","24","","25.0","","98.59","","","","","","Mostly Cloudy"
"1998-06-01 02:00","1998","06","01","02:00","8.1","","4.6","","79","","31","","20","","25.0","","98.59","","","","","","Mainly Clear"
"1998-06-01 03:00","1998","06","01","03:00","8.0","","4.9","","81","","31","","19","","25.0","","98.59","","","","","","Mainly Clear"
"1998-06-01 04:00","1998","06","01","04:00","7.5","","4.9","","84","","30","","17","","25.0","","98.66","","","","","","Mainly Clear"
"1998-06-01 05:00","1998","06","01","05:00","7.6","","4.8","","82","","30","","15","","32.2","","98.72","","","","","","Mainly Clear"
"1998-06-01 06:00","1998","06","01","06:00","8.3","","5.1","","80","","30","","15","","32.2","","98.82","","","","","","Mainly Clear"
"1998-06-01 07:00","1998","06","01","07:00","9.6","","3.7","","67","","32","","13","","32.2","","98.86","","","","","","Mainly Clear"
"1998-06-01 08:00","1998","06","01","08:00","10.0","","3.6","","64","","33","","17","","32.2","","98.92","","","","","","Mainly Clear"
"1998-06-01 09:00","1998","06","01","09:00","11.1","","3.2","","58","","32","","13","","32.2","","98.96","","","","","","Mostly Cloudy"
"1998-06-01 10:00","1998","06","01","10:00","12.9","","2.4","","49","","33","","17","","32.2","","98.99","","","","","","Mostly Cloudy"
"1998-06-01 11:00","1998","06","01","11:00","13.5","","0.8","","42","","33","","15","","32.2","","98.96","","","","","","Mainly Clear"
"1998-06-01 12:00","1998","06","01","12:00","14.4","","0.3","","38","","29","","11","","32.2","","98.92","","","","","","Mainly Clear"
"1998-06-01 13:00","1998","06","01","13:00","15.1","","2.0","","41","","32","","6","","32.2","","98.86","","","","","","Mainly Clear"
"1998-06-01 14:00","1998","06","01","14:00","16.0","","2.9","","41","","25","","15","","32.2","","98.79","","","","","","Mainly Clear"
"1998-06-01 15:00","1998","06","01","15:00","16.7","","2.7","","39","","25","","13","","40.2","","98.76","","","","","","Mainly Clear"
"1998-06-01 16:00","1998","06","01","16:00","17.0","","2.4","","37","","25","","19","","32.2","","98.69","","","","","","Mainly Clear"
"1998-06-01 17:00","1998","06","01","17:00","17.3","","2.1","","36","","25","","17","","32.2","","98.66","","","","","","Mainly Clear"
"1998-06-01 18:00","1998","06","01","18:00","17.4","","1.7","","35","","23","","13","","32.2","","98.62","","","","","","Mainly Clear"
"1998-06-01 19:00","1998","06","01","19:00","15.3","","6.2","","55","","16","","22","","32.2","","98.59","","","","","","Mainly Clear"
"1998-06-01 20:00","1998","06","01","20:00","13.7","","6.1","","60","","17","","19","","32.2","","98.52","","","","","","Mainly Clear"
"1998-06-01 21:00","1998","06","01","21:00","12.9","","6.1","","63","","18","","13","","25.0","","98.52","","","","","","Mainly Clear"
"1998-06-01 22:00","1998","06","01","22:00","12.3","","5.6","","64","","19","","17","","25.0","","98.56","","","","","","Mainly Clear"
"1998-06-01 23:00","1998","06","01","23:00","11.4","","5.2","","66","","19","","11","","25.0","","98.52","","","","","","Mainly Clear"
"1998-06-02 00:00","1998","06","02","00:00","10.8","","5.4","","69","","18","","11","","25.0","","98.42","","","","","","Mainly Clear"
"1998-06-02 01:00","1998","06","02","01:00","10.9","","4.8","","66","","20","","9","","25.0","","98.36","","","","","","Mostly Cloudy"
"1998-06-02 02:00","1998","06","02","02:00","11.1","","4.6","","64","","18","","9","","25.0","","98.29","","","","","","Mostly Cloudy"
"1998-06-02 03:00","1998","06","02","03:00","11.0","","5.3","","68","","18","","7","","25.0","","98.22","","","","","","Mostly Cloudy"
"1998-06-02 04:00","1998","06","02","04:00","10.9","","5.8","","71","","12","","7","","25.0","","98.16","","","","","","Mostly Cloudy"
"1998-06-02 05:00","1998","06","02","05:00","11.0","","6.2","","72","","11","","7","","24.1","","98.12","","","","","","Mostly Cloudy"
"1998-06-02 06:00","1998","06","02","06:00","12.3","","7.2","","71","","6","","6","","24.1","","98.12","","","","","","Mostly Cloudy"
"1998-06-02 07:00","1998","06","02","07:00","12.6","","8.7","","77","","13","","4","","19.3","","98.02","","","","","","Rain Showers"
"1998-06-02 08:00","1998","06","02","08:00","13.7","","10.2","","79","","14","","9","","19.3","","97.92","","","","","","Mostly Cloudy"
"1998-06-02 09:00","1998","06","02","09:00","14.8","","10.6","","76","","15","","13","","19.3","","97.89","","","","","","Mostly Cloudy"
"1998-06-02 10:00","1998","06","02","10:00","17.2","","11.9","","71","","15","","11","","19.3","","97.79","","","","","","Mostly Cloudy"
"1998-06-02 11:00","1998","06","02","11:00","21.2","","13.8","","63","","16","","15","","19.3","","97.69","","","","","","Mainly Clear"
"1998-06-02 12:00","1998","06","02","12:00","22.4","","14.3","","60","","16","","20","","16.1","","97.56","","26","","","","Mostly Cloudy"
"1998-06-02 13:00","1998","06","02","13:00","21.8","","13.6","","60","","14","","19","","19.3","","97.49","","25","","","","Mostly Cloudy"
"1998-06-02 14:00","1998","06","02","14:00","26.1","","9.0","","34","","22","","39","","19.3","","97.32","","27","","","","Mostly Cloudy"
"1998-06-02 15:00","1998","06","02","15:00","24.9","","11.2","","42","","21","","33","","16.1","","97.12","","27","","","","Mostly Cloudy"
"1998-06-02 16:00","1998","06","02","16:00","20.9","","13.9","","64","","18","","32","","11.3","","97.16","","","","","","Thunderstorms,Rain Showers"
"1998-06-02 17:00","1998","06","02","17:00","20.8","","15.5","","72","","30","","35","","16.1","","97.26","","25","","","","Mostly Cloudy"
"1998-06-02 18:00","1998","06","02","18:00","17.4","","11.5","","68","","30","","41","","19.3","","97.46","","","","","","Mainly Clear"
"1998-06-02 19:00","1998","06","02","19:00","14.3","","9.7","","74","","30","","28","","24.1","","97.66","","","","","","Mainly Clear"
"1998-06-02 20:00","1998","06","02","20:00","10.7","","5.9","","72","","31","","41","","24.1","","97.92","","","","","","Mostly Cloudy"
"1998-06-02 21:00","1998","06","02","21:00","8.7","","4.1","","73","","32","","44","","25.0","","98.12","","","","","","Mostly Cloudy"
"1998-06-02 22:00","1998","06","02","22:00","8.2","","3.7","","73","","32","","33","","25.0","","98.32","","","","","","Cloudy"
"1998-06-02 23:00","1998","06","02","23:00","8.4","","2.9","","68","","32","","26","","25.0","","98.42","","","","","","Cloudy"
"1998-06-03 00:00","1998","06","03","00:00","7.9","","2.6","","69","","30","","22","","25.0","","98.56","","","","","","Mainly Clear"
"1998-06-03 01:00","1998","06","03","01:00","7.0","","1.6","","68","","29","","13","","25.0","","98.59","","","","","","Clear"
"1998-06-03 02:00","1998","06","03","02:00","6.4","","2.0","","73","","28","","13","","25.0","","98.59","","","","","","Clear"
"1998-06-03 03:00","1998","06","03","03:00","5.4","","2.6","","82","","27","","9","","25.0","","98.62","","","","","","Clear"
"1998-06-03 04:00","1998","06","03","04:00","5.7","","2.6","","80","","28","","19","","25.0","","98.66","","","","","","Mainly Clear"
"1998-06-03 05:00","1998","06","03","05:00","5.6","","1.3","","74","","28","","15","","32.2","","98.69","","","","","","Clear"
"1998-06-03 06:00","1998","06","03","06:00","6.5","","0.9","","67","","27","","19","","40.2","","98.72","","","","","","Clear"
"1998-06-03 07:00","1998","06","03","07:00","8.1","","1.2","","62","","27","","20","","40.2","","98.76","","","","","","Mainly Clear"
"1998-06-03 08:00","1998","06","03","08:00","9.0","","1.4","","59","","27","","20","","40.2","","98.76","","","","","","Mostly Cloudy"
"1998-06-03 09:00","1998","06","03","09:00","10.4","","2.7","","59","","28","","24","","40.2","","98.76","","","","","","Mostly Cloudy"
"1998-06-03 10:00","1998","06","03","10:00","10.4","","1.4","","54","","28","","24","","40.2","","98.82","","","","","","Mostly Cloudy"
"1998-06-03 11:00","1998","06","03","11:00","10.2","","2.4","","58","","27","","26","","40.2","","98.82","","","","","","Mostly Cloudy"
"1998-06-03 12:00","1998","06","03","12:00","10.5","","2.9","","59","","27","","28","","40.2","","98.82","","","","","","Mostly Cloudy"
"1998-06-03 13:00","1998","06","03","13:00","12.4","","2.4","","50","","27","","28","","40.2","","98.82","","","","","","Mostly Cloudy"
"1998-06-03 14:00","1998","06","03","14:00","14.1","","4.1","","51","","26","","28","","40.2","","98.72","","","","","","Mostly Cloudy"
"1998-06-03 15:00","1998","06","03","15:00","13.0","","2.7","","50","","28","","24","","40.2","","98.69","","","","","","Mostly Cloudy"
"1998-06-03 16:00","1998","06","03","16:00","14.3","","1.2","","41","","28","","32","","40.2","","98.69","","","","","","Mostly Cloudy"
"1998-06-03 17:00","1998","06","03","17:00","13.2","","-1.1","","37","","29","","26","","40.2","","98.76","","","","","","Mainly Clear"
"1998-06-03 18:00","1998","06","03","18:00","12.8","","-0.6","","40","","30","","24","","40.2","","98.76","","","","","","Mainly Clear"
"1998-06-03 19:00","1998","06","03","19:00","12.0","","-0.9","","41","","31","","24","","40.2","","98.82","","","","","","Mainly Clear"
"1998-06-03 20:00","1998","06","03","20:00","10.6","","-1.0","","44","","30","","15","","40.2","","98.86","","","","","","Clear"
"1998-06-03 21:00","1998","06","03","21:00","9.4","","-0.9","","49","","28","","13","","25.0","","98.89","","","","","","Clear"
"1998-06-03 22:00","1998","06","03","22:00","8.0","","-0.6","","55","","28","","13","","25.0","","98.92","","","","","","Clear"
"1998-06-03 23:00","1998","06","03","23:00","7.2","","-0.7","","57","","30","","6","","25.0","","98.92","","","","","","Clear"
"1998-06-04 00:00","1998","06","04","00:00","5.8","","-0.3","","65","","29","","9","","25.0","","98.89","","","","","","Clear"
"1998-06-04 01:00","1998","06","04","01:00","5.7","","0.2","","68","","29","","9","","25.0","","98.92","","","","","","Clear"
"1998-06-04 02:00","1998","06","04","02:00","5.6","","0.6","","70","","30","","7","","25.0","","98.89","","","","","","Clear"
"1998-06-04 03:00","1998","06","04","03:00","4.8","","0.8","","75","","28","","7","","25.0","","98.89","","","","","","Clear"
"1998-06-04 04:00","1998","06","04","04:00","4.9","","1.3","","77","","28","","15","","25.0","","98.89","","","","","","Clear"
"1998-06-04 05:00","1998","06","04","05:00","4.3","","1.3","","81","","27","","9","","32.2","","98.92","","","","","","Clear"
"1998-06-04 06:00","1998","06","04","06:00","9.3","","2.4","","62","","27","","19","","32.2","","98.99","","","","","","Clear"
"1998-06-04 07:00","1998","06","04","07:00","9.3","","2.4","","62","","27","","19","","32.2","","98.99","","","","","","Clear"
"1998-06-04 08:00","1998","06","04","08:00","12.0","","2.9","","54","","27","","22","","32.2","","98.99","","","","","","Clear"
"1998-06-04 09:00","1998","06","04","09:00","13.3","","2.3","","47","","27","","24","","32.2","","98.92","","","","","","Mainly Clear"
"1998-06-04 10:00","1998","06","04","10:00","13.6","","1.5","","44","","25","","26","","32.2","","98.89","","","","","","Mostly Cloudy"
"1998-06-04 11:00","1998","06","04","11:00","14.3","","2.5","","45","","26","","22","","32.2","","98.89","","","","","","Mostly Cloudy"
"1998-06-04 12:00","1998","06","04","12:00","14.5","","3.3","","47","","26","","22","","32.2","","98.86","","","","","","Mostly Cloudy"
"1998-06-04 13:00","1998","06","04","13:00","14.9","","2.0","","42","","27","","30","","32.2","","98.79","","","","","","Mostly Cloudy"
"1998-06-04 14:00","1998","06","04","14:00","16.9","","2.4","","38","","30","","33","","32.2","","98.72","","","","","","Mainly Clear"
"1998-06-04 15:00","1998","06","04","15:00","17.4","","1.5","","34","","31","","33","","32.2","","98.76","","","","","","Mainly Clear"
"1998-06-04 16:00","1998","06","04","16:00","16.7","","0.1","","32","","30","","33","","32.2","","98.79","","","","","","Mainly Clear"
"1998-06-04 17:00","1998","06","04","17:00","16.7","","1.8","","37","","32","","32","","32.2","","98.82","","","","","","Mainly Clear"
"1998-06-04 18:00","1998","06","04","18:00","15.8","","2.0","","39","","32","","30","","32.2","","98.86","","","","","","Mainly Clear"
"1998-06-04 19:00","1998","06","04","19:00","14.8","","2.0","","42","","32","","28","","32.2","","98.86","","","","","","Clear"
"1998-06-04 20:00","1998","06","04","20:00","12.8","","1.9","","47","","32","","24","","32.2","","98.92","","","","","","Mainly Clear"
"1998-06-04 21:00","1998","06","04","21:00","11.4","","1.2","","49","","30","","17","","25.0","","99.02","","","","","","Mainly Clear"
"1998-06-04 22:00","1998","06","04","22:00","10.2","","0.8","","52","","30","","20","","25.0","","99.02","","","","","","Clear"
"1998-06-04 23:00","1998","06","04","23:00","9.0","","1.0","","57","","30","","20","","25.0","","99.02","","","","","","Clear"
"1998-06-05 00:00","1998","06","05","00:00","7.8","","1.0","","62","","30","","13","","25.0","","98.99","","","","","","Clear"
"1998-06-05 01:00","1998","06","05","01:00","6.6","","0.8","","66","","29","","13","","25.0","","98.99","","","","","","Clear"
"1998-06-05 02:00","1998","06","05","02:00","5.6","","1.3","","74","","27","","13","","25.0","","98.99","","","","","","Clear"
"1998-06-05 03:00","1998","06","05","03:00","4.8","","1.4","","79","","26","","9","","25.0","","99.02","","","","","","Clear"
"1998-06-05 04:00","1998","06","05","04:00","4.6","","1.6","","81","","30","","7","","25.0","","99.02","","","","","","Clear"
"1998-06-05 05:00","1998","06","05","05:00","3.7","","1.4","","85","","33","","7","","32.2","","99.02","","","","","","Clear"
"1998-06-05 06:00","1998","06","05","06:00","6.5","","3.4","","81","","33","","11","","40.2","","99.09","","","","","","Clear"
"1998-06-05 07:00","1998","06","05","07:00","9.6","","5.8","","77","","34","","13","","40.2","","99.16","","","","","","Mainly Clear"
"1998-06-05 08:00","1998","06","05","08:00","10.7","","5.2","","69","","35","","7","","40.2","","99.19","","","","","","Mainly Clear"
"1998-06-05 09:00","1998","06","05","09:00","12.4","","4.0","","56","","36","","9","","40.2","","99.19","","","","","","Mainly Clear"
"1998-06-05 10:00","1998","06","05","10:00","13.7","","3.5","","50","","33","","13","","40.2","","99.12","","","","","","Mainly Clear"
"1998-06-05 11:00","1998","06","05","11:00","14.1","","2.3","","45","","36","","11","","40.2","","99.09","","","","","","Mostly Cloudy"
"1998-06-05 12:00","1998","06","05","12:00","15.1","","2.4","","42","","36","","11","","40.2","","99.02","","","","","","Mostly Cloudy"
"1998-06-05 13:00","1998","06","05","13:00","14.8","","1.8","","41","","35","","22","","40.2","","98.96","","","","","","Mostly Cloudy"
"1998-06-05 14:00","1998","06","05","14:00","15.0","","2.5","","43","","35","","20","","40.2","","98.96","","","","","","Mostly Cloudy"
"1998-06-05 15:00","1998","06","05","15:00","14.5","","2.1","","43","","35","","24","","40.2","","98.96","","","","","","Cloudy"
"1998-06-05 16:00","1998","06","05","16:00","13.7","","1.3","","43","","34","","22","","40.2","","98.96","","","","","","Mostly Cloudy"
"1998-06-05 17:00","1998","06","05","17:00","13.3","","0.4","","41","","34","","28","","40.2","","98.99","","","","","","Mostly Cloudy"
"1998-06-05 18:00","1998","06","05","18:00","12.8","","-1.6","","37","","33","","24","","40.2","","98.99","","","","","","Mostly Cloudy"
"1998-06-05 19:00","1998","06","05","19:00","12.3","","0.0","","43","","32","","19","","40.2","","99.09","","","","","","Mostly Cloudy"
"1998-06-05 20:00","1998","06","05","20:00","11.8","","0.7","","46","","33","","17","","25.0","","99.09","","","","","","Mostly Cloudy"
"1998-06-05 21:00","1998","06","05","21:00","11.8","","1.7","","50","","32","","19","","25.0","","99.16","","","","","","Mostly Cloudy"
"1998-06-05 22:00","1998","06","05","22:00","10.6","","1.6","","54","","31","","19","","25.0","","99.19","","","","","","Mostly Cloudy"
"1998-06-05 23:00","1998","06","05","23:00","10.0","","2.1","","58","","32","","20","","25.0","","99.16","","","","","","Mostly Cloudy"
"1998-06-06 00:00","1998","06","06","00:00","9.6","","2.4","","61","","32","","15","","25.0","","99.12","","","","","","Mostly Cloudy"
"1998-06-06 01:00","1998","06","06","01:00","8.6","","2.8","","67","","31","","19","","25.0","","99.12","","","","","","Mainly Clear"
"1998-06-06 02:00","1998","06","06","02:00","7.7","","3.4","","74","","31","","19","","25.0","","99.09","","","","","","Clear"
"1998-06-06 03:00","1998","06","06","03:00","7.2","","3.4","","77","","31","","15","","25.0","","99.09","","","","","","Clear"
"1998-06-06 04:00","1998","06","06","04:00","6.6","","3.0","","78","","30","","13","","25.0","","99.12","","","","","","Clear"
"1998-06-06 05:00","1998","06","06","05:00","6.4","","2.9","","78","","30","","11","","24.1","","99.19","","","","","","Clear"
"1998-06-06 06:00","1998","06","06","06:00","8.0","","3.4","","73","","29","","9","","40.2","","99.29","","","","","","Clear"
"1998-06-06 07:00","1998","06","06","07:00","9.6","","4.0","","68","","31","","17","","40.2","","99.29","","","","","","Clear"
"1998-06-06 08:00","1998","06","06","08:00","11.4","","5.0","","65","","30","","15","","40.2","","99.29","","","","","","Clear"
"1998-06-06 09:00","1998","06","06","09:00","13.1","","5.1","","58","","30","","17","","40.2","","99.32","","","","","","Mainly Clear"
"1998-06-06 10:00","1998","06","06","10:00","14.7","","4.6","","51","","30","","24","","40.2","","99.32","","","","","","Mostly Cloudy"
"1998-06-06 11:00","1998","06","06","11:00","15.0","","2.8","","44","","28","","24","","40.2","","99.35","","","","","","Mostly Cloudy"
"1998-06-06 12:00","1998","06","06","12:00","14.6","","1.8","","42","","29","","20","","40.2","","99.32","","","","","","Mostly Cloudy"
"1998-06-06 13:00","1998","06","06","13:00","14.6","","2.7","","45","","32","","19","","40.2","","99.32","","","","","","Mostly Cloudy"
"1998-06-06 14:00","1998","06","06","14:00","14.4","","3.6","","48","","32","","22","","40.2","","99.32","","","","","","Cloudy"
"1998-06-06 15:00","1998","06","06","15:00","14.2","","3.4","","48","","31","","33","","40.2","","99.35","","","","","","Cloudy"
"1998-06-06 16:00","1998","06","06","16:00","13.4","","4.6","","55","","35","","22","","40.2","","99.35","","","","","","Mostly Cloudy"
"1998-06-06 17:00","1998","06","06","17:00","13.7","","3.4","","50","","30","","17","","40.2","","99.32","","","","","","Mostly Cloudy"
"1998-06-06 18:00","1998","06","06","18:00","13.9","","1.9","","44","","30","","20","","40.2","","99.35","","","","","","Mostly Cloudy"
"1998-06-06 19:00","1998","06","06","19:00","14.0","","1.0","","41","","29","","30","","40.2","","99.39","","","","","","Mostly Cloudy"
"1998-06-06 20:00","1998","06","06","20:00","12.6","","2.2","","49","","30","","22","","40.2","","99.45","","","","","","Mostly Cloudy"
"1998-06-06 21:00","1998","06","06","21:00","11.4","","1.8","","52","","29","","17","","25.0","","99.49","","","","","","Mostly Cloudy"
"1998-06-06 22:00","1998","06","06","22:00","10.5","","0.8","","51","","30","","20","","25.0","","99.49","","","","","","Mainly Clear"
"1998-06-06 23:00","1998","06","06","23:00","9.1","","1.2","","58","","29","","17","","25.0","","99.49","","","","","","Mostly Cloudy"
"1998-06-07 00:00","1998","06","07","00:00","8.3","","1.3","","61","","29","","15","","25.0","","99.45","","","","","","Mostly Cloudy"
"1998-06-07 01:00","1998","06","07","01:00","8.3","","1.9","","64","","27","","15","","25.0","","99.42","","","","","","Mostly Cloudy"
"1998-06-07 02:00","1998","06","07","02:00","8.4","","2.6","","67","","28","","17","","25.0","","99.39","","","","","","Mostly Cloudy"
"1998-06-07 03:00","1998","06","07","03:00","8.8","","3.4","","69","","29","","19","","25.0","","99.39","","","","","","Mostly Cloudy"
"1998-06-07 04:00","1998","06","07","04:00","8.8","","4.3","","73","","31","","17","","25.0","","99.39","","","","","","Mostly Cloudy"
"1998-06-07 05:00","1998","06","07","05:00","8.7","","4.5","","75","","30","","15","","40.2","","99.42","","","","","","Mostly Cloudy"
"1998-06-07 06:00","1998","06","07","06:00","8.8","","5.2","","78","","31","","19","","40.2","","99.42","","","","","","Mostly Cloudy"
"1998-06-07 07:00","1998","06","07","07:00","9.6","","5.8","","77","","30","","17","","40.2","","99.45","","","","","","Cloudy"
"1998-06-07 08:00","1998","06","07","08:00","10.2","","5.9","","75","","31","","19","","40.2","","99.49","","","","","","Cloudy"
"1998-06-07 09:00","1998","06","07","09:00","11.6","","6.3","","70","","30","","17","","40.2","","99.52","","","","","","Cloudy"
"1998-06-07 10:00","1998","06","07","10:00","12.8","","5.3","","60","","33","","22","","40.2","","99.52","","","","","","Cloudy"
"1998-06-07 11:00","1998","06","07","11:00","13.0","","6.1","","63","","28","","17","","40.2","","99.52","","","","","","Mostly Cloudy"
"1998-06-07 12:00","1998","06","07","12:00","12.9","","5.4","","60","","32","","22","","32.2","","99.52","","","","","","Rain Showers"
"1998-06-07 13:00","1998","06","07","13:00","14.2","","5.5","","56","","30","","24","","32.2","","99.52","","","","","","Mostly Cloudy"
"1998-06-07 14:00","1998","06","07","14:00","11.8","","7.4","","74","","36","","19","","32.2","","99.55","","","","","","Rain Showers"
"1998-06-07 15:00","1998","06","07","15:00","12.6","","7.3","","70","","34","","11","","40.2","","99.55","","","","","","Cloudy"
"1998-06-07 16:00","1998","06","07","16:00","13.2","","6.7","","65","","32","","19","","40.2","","99.59","","","","","","Mostly Cloudy"
"1998-06-07 17:00","1998","06","07","17:00","13.8","","6.2","","60","","31","","20","","40.2","","99.59","","","","","","Cloudy"
"1998-06-07 18:00","1998","06","07","18:00","14.1","","4.7","","53","","31","","22","","40.2","","99.55","","","","","","Mostly Cloudy"
"1998-06-07 19:00","1998","06","07","19:00","13.8","","4.1","","52","","30","","30","","40.2","","99.59","","","","","","Mostly Cloudy"
"1998-06-07 20:00","1998","06","07","20:00","12.1","","4.0","","58","","31","","26","","32.2","","99.65","","","","","","Mainly Clear"
"1998-06-07 21:00","1998","06","07","21:00","10.0","","4.6","","69","","31","","15","","25.0","","99.72","","","","","","Mostly Cloudy"
"1998-06-07 22:00","1998","06","07","22:00","9.9","","5.2","","73","","30","","11","","25.0","","99.75","","","","","","Mostly Cloudy"
"1998-06-07 23:00","1998","06","07","23:00","9.0","","5.3","","78","","29","","13","","25.0","","99.75","","","","","","Mainly Clear"
"1998-06-08 00:00","1998","06","08","00:00","9.3","","5.4","","77","","29","","19","","25.0","","99.72","","","","","","Mostly Cloudy"
"1998-06-08 01:00","1998","06","08","01:00","9.7","","5.4","","75","","29","","20","","25.0","","99.72","","","","","","Mostly Cloudy"
"1998-06-08 02:00","1998","06","08","02:00","10.2","","5.4","","72","","28","","20","","25.0","","99.72","","","","","","Mostly Cloudy"
"1998-06-08 03:00","1998","06","08","03:00","10.0","","5.6","","74","","30","","9","","25.0","","99.75","","","","","","Mostly Cloudy"
"1998-06-08 04:00","1998","06","08","04:00","7.9","","4.9","","81","","28","","9","","25.0","","99.79","","","","","","Mainly Clear"
"1998-06-08 05:00","1998","06","08","05:00","8.0","","5.0","","81","","29","","13","","40.2","","99.82","","","","","","Clear"
"1998-06-08 06:00","1998","06","08","06:00","10.0","","6.0","","76","","30","","13","","40.2","","99.89","","","","","","Clear"
"1998-06-08 07:00","1998","06","08","07:00","12.1","","6.8","","70","","32","","19","","40.2","","99.92","","","","","","Clear"
"1998-06-08 08:00","1998","06","08","08:00","14.2","","7.6","","64","","32","","26","","40.2","","99.95","","","","","","Clear"
"1998-06-08 09:00","1998","06","08","09:00","15.7","","7.8","","59","","30","","20","","40.2","","99.92","","","","","","Mainly Clear"
"1998-06-08 10:00","1998","06","08","10:00","17.1","","7.8","","54","","35","","17","","40.2","","99.95","","","","","","Mostly Cloudy"
"1998-06-08 11:00","1998","06","08","11:00","16.9","","8.0","","56","","33","","11","","40.2","","99.99","","","","","","Mostly Cloudy"
"1998-06-08 12:00","1998","06","08","12:00","17.7","","7.2","","50","","34","","17","","40.2","","99.99","","","","","","Mostly Cloudy"
"1998-06-08 13:00","1998","06","08","13:00","18.4","","7.9","","50","","32","","24","","40.2","","99.95","","","","","","Mostly Cloudy"
"1998-06-08 14:00","1998","06","08","14:00","18.2","","7.9","","51","","29","","22","","40.2","","99.99","","","","","","Mostly Cloudy"
"1998-06-08 15:00","1998","06","08","15:00","18.1","","7.8","","51","","30","","19","","40.2","","99.99","","","","","","Mostly Cloudy"
"1998-06-08 16:00","1998","06","08","16:00","19.7","","7.9","","46","","30","","22","","40.2","","99.95","","","","","","Mostly Cloudy"
"1998-06-08 17:00","1998","06","08","17:00","19.6","","8.1","","47","","31","","19","","40.2","","99.99","","","","","","Mainly Clear"
"1998-06-08 18:00","1998","06","08","18:00","19.2","","7.9","","48","","30","","15","","40.2","","100.02","","","","","","Mainly Clear"
"1998-06-08 19:00","1998","06","08","19:00","18.0","","8.0","","52","","34","","19","","40.2","","100.05","","","","","","Mainly Clear"
"1998-06-08 20:00","1998","06","08","20:00","16.3","","8.7","","61","","35","","20","","40.2","","100.09","","","","","","Mainly Clear"
"1998-06-08 21:00","1998","06","08","21:00","14.7","","8.0","","64","","35","","17","","25.0","","100.15","","","","","","Clear"
"1998-06-08 22:00","1998","06","08","22:00","13.3","","7.9","","70","","36","","15","","25.0","","100.15","","","","","","Clear"
"1998-06-08 23:00","1998","06","08","23:00","12.0","","7.7","","75","","34","","11","","25.0","","100.15","","","","","","Clear"
"1998-06-09 00:00","1998","06","09","00:00","10.2","","7.4","","83","","29","","11","","25.0","","100.19","","","","","","Clear"
"1998-06-09 01:00","1998","06","09","01:00","9.4","","7.0","","85","","32","","9","","25.0","","100.15","","","","","","Clear"
"1998-06-09 02:00","1998","06","09","02:00","9.9","","7.3","","84","","32","","4","","25.0","","100.15","","","","","","Clear"
"1998-06-09 03:00","1998","06","09","03:00","7.6","","6.3","","91","","33","","7","","25.0","","100.15","","","","","","Mainly Clear"
"1998-06-09 04:00","1998","06","09","04:00","7.5","","6.0","","90","","33","","7","","25.0","","100.19","","","","","","Mainly Clear"
"1998-06-09 05:00","1998","06","09","05:00","7.0","","5.4","","90","","32","","7","","40.2","","100.22","","","","","","Mainly Clear"
"1998-06-09 06:00","1998","06","09","06:00","10.7","","7.4","","80","","34","","11","","40.2","","100.22","","","","","","Mainly Clear"
"1998-06-09 07:00","1998","06","09","07:00","12.4","","7.6","","72","","36","","13","","40.2","","100.19","","","","","","Mainly Clear"
"1998-06-09 08:00","1998","06","09","08:00","15.6","","8.7","","63","","34","","7","","40.2","","100.22","","","","","","Mostly Cloudy"
"1998-06-09 09:00","1998","06","09","09:00","17.6","","7.8","","53","","","","0","","40.2","","100.15","","","","","","Mostly Cloudy"
"1998-06-09 10:00","1998","06","09","10:00","18.8","","7.6","","48","","31","","4","","40.2","","100.15","","","","","","Mostly Cloudy"
"1998-06-09 11:00","1998","06","09","11:00","19.8","","8.8","","49","","15","","11","","40.2","","100.12","","","","","","Mainly Clear"
"1998-06-09 12:00","1998","06","09","12:00","20.6","","8.0","","44","","15","","15","","32.2","","100.05","","","","","","Mainly Clear"
"1998-06-09 13:00","1998","06","09","13:00","21.2","","7.0","","40","","15","","17","","32.2","","100.02","","","","","","Mainly Clear"
"1998-06-09 14:00","1998","06","09","14:00","21.7","","7.5","","40","","19","","19","","32.2","","99.99","","","","","","Mainly Clear"
"1998-06-09 15:00","1998","06","09","15:00","22.2","","8.0","","40","","17","","19","","32.2","","99.92","","","","","","Mainly Clear"
"1998-06-09 16:00","1998","06","09","16:00","20.9","","6.9","","40","","17","","17","","32.2","","99.89","","","","","","Mostly Cloudy"
"1998-06-09 17:00","1998","06","09","17:00","21.1","","6.9","","40","","18","","11","","32.2","","99.85","","","","","","Mostly Cloudy"
"1998-06-09 18:00","1998","06","09","18:00","20.9","","6.6","","39","","21","","13","","32.2","","99.79","","","","","","Mostly Cloudy"
"1998-06-09 19:00","1998","06","09","19:00","20.2","","6.9","","42","","23","","7","","40.2","","99.79","","","","","","Mostly Cloudy"
"1998-06-09 20:00","1998","06","09","20:00","18.3","","7.4","","49","","15","","11","","40.2","","99.82","","","","","","Mostly Cloudy"
"1998-06-09 21:00","1998","06","09","21:00","14.3","","8.2","","67","","16","","9","","25.0","","99.82","","","","","","Mostly Cloudy"
"1998-06-09 22:00","1998","06","09","22:00","13.9","","7.4","","65","","18","","6","","25.0","","99.85","","","","","","Mostly Cloudy"
"1998-06-09 23:00","1998","06","09","23:00","13.1","","7.4","","68","","","","0","","25.0","","99.82","","","","","","Mostly Cloudy"
"1998-06-10 00:00","1998","06","10","00:00","13.8","","7.5","","66","","11","","6","","25.0","","99.82","","","","","","Mostly Cloudy"
"1998-06-10 01:00","1998","06","10","01:00","13.1","","7.9","","71","","4","","7","","25.0","","99.79","","","","","","Mainly Clear"
"1998-06-10 02:00","1998","06","10","02:00","12.5","","7.8","","73","","3","","6","","25.0","","99.75","","","","","","Clear"
"1998-06-10 03:00","1998","06","10","03:00","9.3","","7.0","","86","","35","","6","","25.0","","99.72","","","","","","Clear"
"1998-06-10 04:00","1998","06","10","04:00","9.3","","7.0","","86","","32","","7","","25.0","","99.72","","","","","","Mainly Clear"
"1998-06-10 05:00","1998","06","10","05:00","8.9","","6.8","","87","","34","","6","","25.0","","99.69","","","","","","Mainly Clear"
"1998-06-10 06:00","1998","06","10","06:00","13.4","","9.2","","76","","9","","9","","24.1","","99.69","","","","","","Mainly Clear"
"1998-06-10 07:00","1998","06","10","07:00","15.6","","10.6","","72","","8","","11","","24.1","","99.72","","","","","","Mainly Clear"
"1998-06-10 08:00","1998","06","10","08:00","17.6","","11.0","","65","","8","","13","","32.2","","99.69","","","","","","Mainly Clear"
"1998-06-10 09:00","1998","06","10","09:00","19.2","","9.2","","52","","13","","19","","32.2","","99.69","","","","","","Mostly Cloudy"
"1998-06-10 10:00","1998","06","10","10:00","19.0","","8.4","","50","","12","","19","","32.2","","99.69","","","","","","Mostly Cloudy"
"1998-06-10 11:00","1998","06","10","11:00","18.3","","9.4","","56","","11","","15","","32.2","","99.72","","","","","","Cloudy"
"1998-06-10 12:00","1998","06","10","12:00","16.4","","11.0","","70","","9","","15","","19.3","","99.69","","","","","","Rain Showers"
"1998-06-10 13:00","1998","06","10","13:00","16.1","","11.8","","76","","9","","19","","19.3","","99.65","","","","","","Rain Showers"
"1998-06-10 14:00","1998","06","10","14:00","15.3","","12.9","","86","","10","","20","","12.9","","99.59","","","","","","Rain Showers"
"1998-06-10 15:00","1998","06","10","15:00","14.4","","12.9","","91","","11","","19","","16.1","","99.59","","","","","","Rain Showers"
"1998-06-10 16:00","1998","06","10","16:00","15.1","","13.9","","93","","10","","13","","12.9","","99.59","","","","","","Rain Showers"
"1998-06-10 17:00","1998","06","10","17:00","15.6","","13.4","","87","","11","","20","","19.3","","99.55","","","","","","Rain Showers"
"1998-06-10 18:00","1998","06","10","18:00","16.3","","12.3","","77","","11","","20","","19.3","","99.59","","","","","","Mostly Cloudy"
"1998-06-10 19:00","1998","06","10","19:00","15.7","","12.5","","81","","11","","19","","19.3","","99.55","","","","","","Cloudy"
"1998-06-10 20:00","1998","06","10","20:00","15.6","","12.8","","83","","11","","13","","19.3","","99.52","","","","","","Mostly Cloudy"
"1998-06-10 21:00","1998","06","10","21:00","15.4","","12.9","","85","","9","","13","","11.3","","99.52","","","","","","Mostly Cloudy"
"1998-06-10 22:00","1998","06","10","22:00","15.1","","12.9","","87","","13","","11","","11.3","","99.52","","","","","","Cloudy"
"1998-06-10 23:00","1998","06","10","23:00","14.8","","13.1","","90","","10","","11","","9.7","","99.55","","","","","","Fog"
"1998-06-11 00:00","1998","06","11","00:00","14.7","","12.9","","89","","10","","11","","9.7","","99.52","","","","","","Fog"
"1998-06-11 01:00","1998","06","11","01:00","14.6","","12.9","","90","","12","","11","","8.0","","99.52","","","","","","Fog"
"1998-06-11 02:00","1998","06","11","02:00","14.4","","12.8","","90","","11","","9","","8.0","","99.52","","","","","","Fog"
"1998-06-11 03:00","1998","06","11","03:00","14.5","","12.8","","90","","6","","6","","8.0","","99.49","","","","","","Fog"
"1998-06-11 04:00","1998","06","11","04:00","14.5","","12.8","","90","","14","","7","","8.0","","99.49","","","","","","Fog"
"1998-06-11 05:00","1998","06","11","05:00","14.3","","12.6","","90","","12","","9","","6.4","","99.52","","","","","","Fog"
"1998-06-11 06:00","1998","06","11","06:00","14.0","","12.7","","92","","5","","9","","4.8","","99.52","","","","","","Fog"
"1998-06-11 07:00","1998","06","11","07:00","14.6","","12.8","","89","","8","","15","","4.8","","99.52","","","","","","Fog"
"1998-06-11 08:00","1998","06","11","08:00","14.9","","13.1","","89","","15","","6","","6.4","","99.65","","","","","","Fog"
"1998-06-11 09:00","1998","06","11","09:00","15.9","","13.9","","88","","8","","9","","6.4","","99.59","","","","","","Fog"
"1998-06-11 10:00","1998","06","11","10:00","16.6","","13.8","","84","","9","","13","","8.0","","99.55","","","","","","Haze"
"1998-06-11 11:00","1998","06","11","11:00","18.2","","14.4","","78","","13","","9","","9.7","","99.49","","","","","","Haze"
"1998-06-11 12:00","1998","06","11","12:00","17.8","","14.1","","79","","14","","20","","9.7","","99.59","","","","","","Haze"
"1998-06-11 13:00","1998","06","11","13:00","17.6","","14.2","","80","","12","","15","","8.0","","99.59","","","","","","Haze"
"1998-06-11 14:00","1998","06","11","14:00","19.2","","14.9","","76","","7","","17","","9.7","","99.49","","","","","","Haze"
"1998-06-11 15:00","1998","06","11","15:00","19.6","","15.2","","76","","10","","15","","9.7","","99.45","","","","","","Haze"
"1998-06-11 16:00","1998","06","11","16:00","19.5","","14.8","","74","","9","","22","","8.0","","99.39","","","","","","Haze"
"1998-06-11 17:00","1998","06","11","17:00","18.1","","14.4","","79","","10","","22","","9.7","","99.32","","","","","","Haze"
"1998-06-11 18:00","1998","06","11","18:00","17.9","","14.2","","79","","8","","24","","9.7","","99.26","","","","","","Haze"
"1998-06-11 19:00","1998","06","11","19:00","17.7","","14.4","","81","","10","","19","","9.7","","99.19","","","","","","Haze"
"1998-06-11 20:00","1998","06","11","20:00","17.4","","14.4","","83","","9","","20","","8.0","","99.12","","","","","","Haze"
"1998-06-11 21:00","1998","06","11","21:00","17.2","","14.8","","86","","9","","13","","8.0","","99.02","","","","","","Rain,Haze"
"1998-06-11 22:00","1998","06","11","22:00","16.0","","15.0","","94","","12","","15","","6.4","","99.06","","","","","","Moderate Rain"
"1998-06-11 23:00","1998","06","11","23:00","15.8","","15.3","","97","","8","","17","","4.8","","98.92","","","","","","Moderate Rain"
"1998-06-12 00:00","1998","06","12","00:00","16.6","","16.3","","98","","12","","17","","3.2","","98.82","","","","","","Moderate Rain"
"1998-06-12 01:00","1998","06","12","01:00","16.6","","16.4","","99","","13","","20","","3.2","","98.76","","","","","","Rain"
"1998-06-12 02:00","1998","06","12","02:00","16.6","","16.4","","99","","13","","22","","3.2","","98.66","","","","","","Moderate Rain"
"1998-06-12 03:00","1998","06","12","03:00","16.8","","16.7","","99","","14","","24","","3.2","","98.49","","","","","","Moderate Rain"
"1998-06-12 04:00","1998","06","12","04:00","16.8","","16.6","","99","","13","","24","","3.2","","98.42","","","","","","Rain"
"1998-06-12 05:00","1998","06","12","05:00","16.9","","16.6","","98","","13","","24","","3.2","","98.36","","","","","","Heavy Rain"
"1998-06-12 06:00","1998","06","12","06:00","16.8","","16.7","","99","","13","","19","","2.0","","98.32","","","","","","Rain,Fog"
"1998-06-12 07:00","1998","06","12","07:00","16.7","","16.7","","100","","12","","15","","2.8","","98.29","","","","","","Fog"
"1998-06-12 08:00","1998","06","12","08:00","17.5","","17.1","","98","","15","","13","","3.2","","98.29","","","","","","Fog"
"1998-06-12 09:00","1998","06","12","09:00","19.6","","19.4","","99","","17","","15","","4.8","","98.26","","","","","","Fog"
"1998-06-12 10:00","1998","06","12","10:00","22.2","","21.4","","95","","21","","26","","11.3","","98.19","","31","","","","Mostly Cloudy"
"1998-06-12 11:00","1998","06","12","11:00","24.9","","18.5","","68","","24","","28","","19.3","","98.22","","31","","","","Mostly Cloudy"
"1998-06-12 12:00","1998","06","12","12:00","26.7","","17.8","","58","","24","","32","","24.1","","98.26","","33","","","","Mostly Cloudy"
"1998-06-12 13:00","1998","06","12","13:00","27.1","","17.1","","54","","24","","33","","32.2","","98.26","","32","","","","Mainly Clear"
"1998-06-12 14:00","1998","06","12","14:00","27.6","","16.2","","50","","25","","35","","40.2","","98.29","","32","","","","Mainly Clear"
"1998-06-12 15:00","1998","06","12","15:00","28.2","","15.6","","46","","26","","26","","40.2","","98.29","","33","","","","Mainly Clear"
"1998-06-12 16:00","1998","06","12","16:00","28.3","","15.2","","45","","26","","30","","40.2","","98.29","","32","","","","Mainly Clear"
"1998-06-12 17:00","1998","06","12","17:00","28.2","","15.5","","46","","28","","20","","40.2","","98.29","","32","","","","Mainly Clear"
"1998-06-12 18:00","1998","06","12","18:00","27.5","","15.9","","49","","25","","19","","40.2","","98.26","","32","","","","Mainly Clear"
"1998-06-12 19:00","1998","06","12","19:00","26.2","","17.5","","59","","21","","24","","32.2","","98.22","","32","","","","Mostly Cloudy"
"1998-06-12 20:00","1998","06","12","20:00","25.1","","17.0","","61","","21","","19","","24.1","","98.26","","30","","","","Mostly Cloudy"
"1998-06-12 21:00","1998","06","12","21:00","24.7","","16.9","","62","","22","","15","","19.3","","98.29","","30","","","","Thunderstorms"
"1998-06-12 22:00","1998","06","12","22:00","23.6","","16.7","","65","","19","","11","","19.3","","98.19","","29","","","","Mostly Cloudy"
"1998-06-12 23:00","1998","06","12","23:00","23.6","","16.4","","64","","22","","20","","19.3","","98.12","","28","","","","Mostly Cloudy"
"1998-06-13 00:00","1998","06","13","00:00","22.6","","15.6","","65","","23","","22","","19.3","","98.22","","27","","","","Mostly Cloudy"
"1998-06-13 01:00","1998","06","13","01:00","21.2","","14.2","","64","","24","","22","","19.3","","98.22","","25","","","","Mostly Cloudy"
"1998-06-13 02:00","1998","06","13","02:00","19.8","","14.7","","72","","24","","22","","16.1","","98.12","","","","","","Mostly Cloudy"
"1998-06-13 03:00","1998","06","13","03:00","19.4","","15.2","","77","","24","","11","","16.1","","98.12","","","","","","Mostly Cloudy"
"1998-06-13 04:00","1998","06","13","04:00","18.3","","15.4","","83","","23","","11","","19.3","","98.12","","","","","","Mainly Clear"
"1998-06-13 05:00","1998","06","13","05:00","18.1","","15.6","","85","","22","","9","","12.9","","98.16","","","","","","Mostly Cloudy"
"1998-06-13 06:00","1998","06","13","06:00","18.7","","16.2","","85","","26","","7","","11.3","","98.12","","","","","","Rain Showers"
"1998-06-13 07:00","1998","06","13","07:00","19.3","","16.4","","83","","27","","4","","16.1","","98.12","","","","","","Mostly Cloudy"
"1998-06-13 08:00","1998","06","13","08:00","19.8","","16.7","","82","","","","0","","16.1","","98.16","","","","","","Cloudy"
"1998-06-13 09:00","1998","06","13","09:00","20.0","","16.8","","82","","","","0","","16.1","","98.19","","25","","","","Cloudy"
"1998-06-13 10:00","1998","06","13","10:00","20.4","","17.2","","82","","13","","9","","12.9","","98.19","","26","","","","Cloudy"
"1998-06-13 11:00","1998","06","13","11:00","21.3","","17.2","","77","","8","","4","","11.3","","98.12","","27","","","","Cloudy"
"1998-06-13 12:00","1998","06","13","12:00","22.6","","17.3","","72","","5","","7","","16.1","","98.09","","28","","","","Mostly Cloudy"
"1998-06-13 13:00","1998","06","13","13:00","22.7","","16.4","","68","","11","","4","","24.1","","98.09","","28","","","","Mostly Cloudy"
"1998-06-13 14:00","1998","06","13","14:00","18.7","","15.1","","80","","11","","15","","12.9","","98.12","","","","","","Thunderstorms,Rain Showers"
"1998-06-13 15:00","1998","06","13","15:00","19.9","","16.6","","81","","17","","6","","12.9","","98.09","","","","","","Mostly Cloudy"
"1998-06-13 16:00","1998","06","13","16:00","21.2","","17.3","","78","","25","","13","","11.3","","98.09","","27","","","","Mostly Cloudy"
"1998-06-13 17:00","1998","06","13","17:00","20.6","","17.3","","81","","28","","13","","12.9","","98.12","","26","","","","Mostly Cloudy"
"1998-06-13 18:00","1998","06","13","18:00","21.5","","16.2","","72","","31","","15","","24.1","","98.12","","26","","","","Mostly Cloudy"
"1998-06-13 19:00","1998","06","13","19:00","20.5","","17.0","","80","","32","","15","","24.1","","98.19","","26","","","","Mostly Cloudy"
"1998-06-13 20:00","1998","06","13","20:00","19.3","","14.5","","74","","36","","24","","24.1","","98.26","","","","","","Mainly Clear"
"1998-06-13 21:00","1998","06","13","21:00","17.0","","14.0","","82","","34","","19","","24.1","","98.29","","","","","","Mainly Clear"
"1998-06-13 22:00","1998","06","13","22:00","16.3","","13.4","","83","","35","","22","","24.1","","98.29","","","","","","Mainly Clear"
"1998-06-13 23:00","1998","06","13","23:00","14.9","","13.3","","90","","34","","15","","19.3","","98.29","","","","","","Mainly Clear"
"1998-06-14 00:00","1998","06","14","00:00","14.3","","13.2","","93","","34","","17","","19.3","","98.29","","","","","","Mainly Clear"
"1998-06-14 01:00","1998","06","14","01:00","13.9","","13.0","","94","","35","","17","","16.1","","98.26","","","","","","Mainly Clear"
"1998-06-14 02:00","1998","06","14","02:00","13.8","","13.2","","96","","34","","26","","12.9","","98.26","","","","","","Mostly Cloudy"
"1998-06-14 03:00","1998","06","14","03:00","13.9","","13.4","","97","","34","","20","","12.9","","98.29","","","","","","Mostly Cloudy"
"1998-06-14 04:00","1998","06","14","04:00","14.0","","13.5","","97","","35","","17","","9.7","","98.26","","","","","","Fog"
"1998-06-14 05:00","1998","06","14","05:00","14.2","","13.8","","97","","34","","22","","6.4","","98.26","","","","","","Fog"
"1998-06-14 06:00","1998","06","14","06:00","15.6","","14.6","","94","","32","","15","","19.3","","98.22","","","","","","Cloudy"
"1998-06-14 07:00","1998","06","14","07:00","16.7","","14.8","","89","","34","","15","","24.1","","98.26","","","","","","Mainly Clear"
"1998-06-14 08:00","1998","06","14","08:00","18.3","","15.0","","81","","35","","17","","24.1","","98.26","","","","","","Mostly Cloudy"
"1998-06-14 09:00","1998","06","14","09:00","18.2","","15.0","","82","","1","","22","","32.2","","98.29","","","","","","Cloudy"
"1998-06-14 10:00","1998","06","14","10:00","20.2","","15.6","","75","","36","","17","","32.2","","98.29","","25","","","","Mostly Cloudy"
"1998-06-14 11:00","1998","06","14","11:00","21.4","","16.1","","72","","34","","11","","32.2","","98.26","","26","","","","Mostly Cloudy"
"1998-06-14 12:00","1998","06","14","12:00","22.6","","14.9","","62","","33","","9","","32.2","","98.19","","27","","","","Mostly Cloudy"
"1998-06-14 13:00","1998","06","14","13:00","22.3","","16.6","","70","","17","","13","","32.2","","98.16","","27","","","","Mostly Cloudy"
"1998-06-14 14:00","1998","06","14","14:00","22.3","","16.9","","71","","14","","13","","32.2","","98.16","","28","","","","Mostly Cloudy"
"1998-06-14 15:00","1998","06","14","15:00","20.3","","15.5","","74","","17","","13","","32.2","","98.16","","25","","","","Mostly Cloudy"
"1998-06-14 16:00","1998","06","14","16:00","22.0","","16.1","","69","","16","","6","","32.2","","98.09","","27","","","","Mainly Clear"
"1998-06-14 17:00","1998","06","14","17:00","23.2","","15.8","","63","","18","","6","","32.2","","98.06","","28","","","","Mainly Clear"
"1998-06-14 18:00","1998","06","14","18:00","23.3","","15.5","","62","","19","","7","","32.2","","97.99","","28","","","","Mainly Clear"
"1998-06-14 19:00","1998","06","14","19:00","21.6","","15.4","","68","","20","","15","","32.2","","97.96","","26","","","","Mainly Clear"
"1998-06-14 20:00","1998","06","14","20:00","20.3","","15.5","","74","","22","","11","","32.2","","97.99","","25","","","","Mainly Clear"
"1998-06-14 21:00","1998","06","14","21:00","19.3","","15.6","","79","","27","","7","","25.0","","98.02","","","","","","Mostly Cloudy"
"1998-06-14 22:00","1998","06","14","22:00","19.6","","15.7","","78","","27","","6","","24.1","","97.99","","","","","","Mostly Cloudy"
"1998-06-14 23:00","1998","06","14","23:00","18.7","","14.7","","78","","35","","11","","24.1","","97.92","","","","","","Mainly Clear"
"1998-06-15 00:00","1998","06","15","00:00","17.6","","14.1","","80","","36","","9","","19.3","","97.89","","","","","","Mainly Clear"
"1998-06-15 01:00","1998","06","15","01:00","16.3","","13.9","","86","","35","","9","","19.3","","97.79","","","","","","Mainly Clear"
"1998-06-15 02:00","1998","06","15","02:00","15.4","","13.8","","90","","25","","6","","19.3","","97.82","","","","","","Mainly Clear"
"1998-06-15 03:00","1998","06","15","03:00","16.1","","14.9","","93","","27","","6","","16.1","","97.79","","","","","","Mostly Cloudy"
"1998-06-15 04:00","1998","06","15","04:00","16.0","","14.7","","92","","","","0","","11.3","","97.76","","","","","","Mostly Cloudy"
"1998-06-15 05:00","1998","06","15","05:00","15.8","","14.4","","91","","32","","6","","16.1","","97.76","","","","","","Mostly Cloudy"
"1998-06-15 06:00","1998","06","15","06:00","16.7","","14.9","","89","","30","","4","","16.1","","97.72","","","","","","Mainly Clear"
"1998-06-15 07:00","1998","06","15","07:00","18.8","","15.0","","79","","19","","4","","19.3","","97.69","","","","","","Mainly Clear"
"1998-06-15 08:00","1998","06","15","08:00","20.4","","15.2","","72","","15","","7","","19.3","","97.72","","","","","","Mostly Cloudy"
"1998-06-15 09:00","1998","06","15","09:00","21.4","","16.1","","72","","14","","7","","19.3","","97.69","","26","","","","Mostly Cloudy"
"1998-06-15 10:00","1998","06","15","10:00","23.3","","16.4","","65","","20","","9","","24.1","","97.69","","28","","","","Mostly Cloudy"
"1998-06-15 11:00","1998","06","15","11:00","23.4","","16.8","","66","","14","","13","","24.1","","97.66","","29","","","","Mostly Cloudy"
"1998-06-15 12:00","1998","06","15","12:00","22.8","","16.2","","66","","15","","20","","24.1","","97.66","","28","","","","Mostly Cloudy"
"1998-06-15 13:00","1998","06","15","13:00","23.7","","16.7","","65","","16","","20","","24.1","","97.66","","29","","","","Mostly Cloudy"
"1998-06-15 14:00","1998","06","15","14:00","24.1","","16.0","","61","","15","","20","","24.1","","97.62","","29","","","","Mostly Cloudy"
"1998-06-15 15:00","1998","06","15","15:00","24.1","","16.0","","61","","16","","15","","19.3","","97.66","","29","","","","Mostly Cloudy"
"1998-06-15 16:00","1998","06","15","16:00","24.7","","15.6","","57","","14","","22","","19.3","","97.62","","29","","","","Mostly Cloudy"
"1998-06-15 17:00","1998","06","15","17:00","22.1","","15.4","","66","","14","","20","","16.1","","97.69","","26","","","","Mostly Cloudy"
"1998-06-15 18:00","1998","06","15","18:00","21.3","","15.2","","68","","12","","22","","16.1","","97.72","","25","","","","Mainly Clear"
"1998-06-15 19:00","1998","06","15","19:00","20.9","","15.0","","69","","12","","15","","16.1","","97.76","","25","","","","Mostly Cloudy"
"1998-06-15 20:00","1998","06","15","20:00","19.5","","15.1","","76","","12","","9","","12.9","","97.79","","","","","","Cloudy"
"1998-06-15 21:00","1998","06","15","21:00","20.1","","15.1","","73","","12","","7","","16.1","","97.82","","","","","","Mostly Cloudy"
"1998-06-15 22:00","1998","06","15","22:00","19.4","","15.5","","78","","12","","9","","12.9","","97.82","","","","","","Mostly Cloudy"
"1998-06-15 23:00","1998","06","15","23:00","18.9","","15.6","","81","","13","","7","","11.3","","97.82","","","","","","Mostly Cloudy"
"1998-06-16 00:00","1998","06","16","00:00","18.0","","15.3","","84","","14","","9","","11.3","","97.86","","","","","","Mostly Cloudy"
"1998-06-16 01:00","1998","06","16","01:00","16.9","","14.9","","88","","","","0","","9.7","","97.86","","","","","","Fog"
"1998-06-16 02:00","1998","06","16","02:00","16.7","","15.0","","90","","","","0","","8.0","","97.86","","","","","","Fog"
"1998-06-16 03:00","1998","06","16","03:00","16.7","","14.9","","89","","","","0","","6.4","","97.89","","","","","","Fog"
"1998-06-16 04:00","1998","06","16","04:00","16.4","","14.8","","90","","16","","4","","6.4","","97.92","","","","","","Fog"
"1998-06-16 05:00","1998","06","16","05:00","16.2","","14.7","","91","","","","0","","3.6","","97.99","","","","","","Fog"
"1998-06-16 06:00","1998","06","16","06:00","16.6","","15.0","","90","","16","","4","","4.0","","98.06","","","","","","Fog"
"1998-06-16 07:00","1998","06","16","07:00","17.0","","15.6","","91","","14","","6","","4.0","","98.09","","","","","","Rain Showers,Fog"
"1998-06-16 08:00","1998","06","16","08:00","17.4","","16.3","","93","","20","","9","","2.4","","98.19","","","","","","Rain Showers,Fog"
"1998-06-16 09:00","1998","06","16","09:00","17.9","","17.1","","95","","18","","9","","2.4","","98.19","","","","","","Rain Showers,Fog"
"1998-06-16 10:00","1998","06","16","10:00","17.3","","16.0","","92","","19","","11","","3.2","","98.19","","","","","","Moderate Rain Showers,Fog"
"1998-06-16 11:00","1998","06","16","11:00","20.0","","18.0","","88","","17","","13","","9.7","","98.16","","26","","","","Fog"
"1998-06-16 12:00","1998","06","16","12:00","21.2","","18.0","","82","","18","","13","","9.7","","98.16","","27","","","","Haze"
"1998-06-16 13:00","1998","06","16","13:00","22.1","","18.2","","79","","22","","11","","8.0","","98.16","","28","","","","Haze"
"1998-06-16 14:00","1998","06","16","14:00","23.2","","19.0","","77","","17","","9","","8.0","","98.16","","30","","","","Haze"
"1998-06-16 15:00","1998","06","16","15:00","20.9","","18.7","","87","","15","","15","","6.4","","98.16","","27","","","","Moderate Rain"
"1998-06-16 16:00","1998","06","16","16:00","20.2","","18.7","","91","","15","","7","","6.4","","98.19","","27","","","","Haze"
"1998-06-16 17:00","1998","06","16","17:00","20.5","","18.0","","86","","19","","6","","8.0","","98.22","","27","","","","Haze"
"1998-06-16 18:00","1998","06","16","18:00","21.6","","18.3","","82","","17","","7","","8.0","","98.26","","28","","","","Haze"
"1998-06-16 19:00","1998","06","16","19:00","19.9","","18.3","","91","","12","","7","","6.4","","98.26","","","","","","Haze"
"1998-06-16 20:00","1998","06","16","20:00","18.1","","16.8","","92","","13","","17","","4.8","","98.32","","","","","","Fog"
"1998-06-16 21:00","1998","06","16","21:00","17.4","","16.2","","93","","13","","7","","6.4","","98.39","","","","","","Haze"
"1998-06-16 22:00","1998","06","16","22:00","17.2","","16.3","","94","","15","","4","","4.8","","98.42","","","","","","Fog"
"1998-06-16 23:00","1998","06","16","23:00","17.4","","16.6","","95","","","","0","","4.8","","98.49","","","","","","Fog"
"1998-06-17 00:00","1998","06","17","00:00","17.1","","16.2","","94","","32","","4","","4.8","","98.46","","","","","","Fog"
"1998-06-17 01:00","1998","06","17","01:00","17.3","","16.3","","94","","27","","7","","4.8","","98.49","","","","","","Fog"
"1998-06-17 02:00","1998","06","17","02:00","17.7","","17.1","","96","","30","","6","","3.6","","98.49","","","","","","Fog"
"1998-06-17 03:00","1998","06","17","03:00","17.4","","16.7","","96","","32","","7","","4.8","","98.52","","","","","","Fog"
"1998-06-17 04:00","1998","06","17","04:00","17.4","","16.7","","96","","31","","4","","6.4","","98.59","","","","","","Fog"
"1998-06-17 05:00","1998","06","17","05:00","16.7","","16.3","","97","","33","","7","","2.8","","98.72","","","","","","Fog"
"1998-06-17 06:00","1998","06","17","06:00","17.3","","16.2","","93","","34","","13","","8.0","","98.82","","","","","","Fog"
"1998-06-17 07:00","1998","06","17","07:00","18.4","","16.2","","87","","30","","13","","11.3","","98.86","","","","","","Mainly Clear"
"1998-06-17 08:00","1998","06","17","08:00","19.9","","17.1","","84","","30","","13","","9.7","","98.89","","","","","","Haze"
"1998-06-17 09:00","1998","06","17","09:00","21.2","","17.4","","79","","29","","13","","9.7","","98.92","","27","","","","Haze"
"1998-06-17 10:00","1998","06","17","10:00","22.4","","17.7","","75","","34","","13","","12.9","","98.92","","28","","","","Mostly Cloudy"
"1998-06-17 11:00","1998","06","17","11:00","23.2","","17.9","","72","","28","","6","","12.9","","98.96","","29","","","","Mostly Cloudy"
"1998-06-17 12:00","1998","06","17","12:00","23.3","","18.0","","72","","32","","13","","19.3","","98.99","","29","","","","Rain Showers"
"1998-06-17 13:00","1998","06","17","13:00","25.2","","17.6","","63","","31","","24","","16.1","","98.99","","31","","","","Mostly Cloudy"
"1998-06-17 14:00","1998","06","17","14:00","22.3","","17.8","","76","","2","","15","","16.1","","99.06","","28","","","","Thunderstorms,Rain Showers"
"1998-06-17 15:00","1998","06","17","15:00","24.0","","19.4","","75","","2","","13","","16.1","","99.09","","31","","","","Mostly Cloudy"
"1998-06-17 16:00","1998","06","17","16:00","24.9","","18.2","","66","","32","","22","","12.9","","99.09","","31","","","","Mostly Cloudy"
"1998-06-17 17:00","1998","06","17","17:00","23.3","","18.0","","72","","4","","19","","19.3","","99.12","","29","","","","Mostly Cloudy"
"1998-06-17 18:00","1998","06","17","18:00","23.1","","18.0","","73","","2","","22","","19.3","","99.16","","29","","","","Mainly Clear"
"1998-06-17 19:00","1998","06","17","19:00","22.2","","17.2","","73","","36","","11","","19.3","","99.22","","28","","","","Mainly Clear"
"1998-06-17 20:00","1998","06","17","20:00","20.7","","16.0","","74","","34","","15","","24.1","","99.26","","25","","","","Mainly Clear"
"1998-06-17 21:00","1998","06","17","21:00","19.4","","15.9","","80","","29","","11","","24.1","","99.26","","","","","","Mainly Clear"
"1998-06-17 22:00","1998","06","17","22:00","18.8","","14.7","","77","","30","","13","","24.1","","99.26","","","","","","Clear"
"1998-06-17 23:00","1998","06","17","23:00","18.1","","14.6","","80","","31","","11","","24.1","","99.26","","","","","","Clear"
"1998-06-18 00:00","1998","06","18","00:00","17.0","","14.3","","84","","33","","11","","24.1","","99.29","","","","","","Clear"
"1998-06-18 01:00","1998","06","18","01:00","16.2","","14.2","","88","","26","","6","","24.1","","99.29","","","","","","Clear"
"1998-06-18 02:00","1998","06","18","02:00","16.3","","14.2","","87","","29","","9","","24.1","","99.32","","","","","","Clear"
"1998-06-18 03:00","1998","06","18","03:00","16.7","","14.1","","85","","29","","9","","24.1","","99.29","","","","","","Mainly Clear"
"1998-06-18 04:00","1998","06","18","04:00","17.2","","14.4","","84","","31","","11","","24.1","","99.35","","","","","","Mostly Cloudy"
"1998-06-18 05:00","1998","06","18","05:00","17.1","","14.2","","83","","31","","15","","32.2","","99.42","","","","","","Mostly Cloudy"
"1998-06-18 06:00","1998","06","18","06:00","17.5","","14.7","","84","","32","","11","","40.2","","99.45","","","","","","Mostly Cloudy"
"1998-06-18 07:00","1998","06","18","07:00","18.9","","15.1","","79","","32","","6","","40.2","","99.45","","","","","","Mostly Cloudy"
"1998-06-18 08:00","1998","06","18","08:00","20.9","","16.3","","75","","32","","9","","40.2","","99.49","","26","","","","Mainly Clear"
"1998-06-18 09:00","1998","06","18","09:00","22.3","","17.1","","72","","35","","9","","40.2","","99.49","","28","","","","Clear"
"1998-06-18 10:00","1998","06","18","10:00","23.3","","16.3","","65","","34","","13","","40.2","","99.45","","28","","","","Mostly Cloudy"
"1998-06-18 11:00","1998","06","18","11:00","24.4","","17.2","","64","","31","","7","","40.2","","99.42","","30","","","","Mostly Cloudy"
"1998-06-18 12:00","1998","06","18","12:00","24.2","","16.5","","62","","30","","6","","40.2","","99.39","","29","","","","Mostly Cloudy"
"1998-06-18 13:00","1998","06","18","13:00","24.9","","17.0","","62","","36","","7","","40.2","","99.35","","30","","","","Mostly Cloudy"
"1998-06-18 14:00","1998","06","18","14:00","24.6","","16.9","","62","","34","","17","","40.2","","99.32","","30","","","","Mostly Cloudy"
"1998-06-18 15:00","1998","06","18","15:00","25.2","","17.0","","60","","36","","11","","32.2","","99.29","","30","","","","Mainly Clear"
"1998-06-18 16:00","1998","06","18","16:00","24.6","","15.8","","58","","34","","9","","32.2","","99.29","","29","","","","Mainly Clear"
"1998-06-18 17:00","1998","06","18","17:00","24.9","","16.5","","60","","33","","7","","24.1","","99.29","","30","","","","Mostly Cloudy"
"1998-06-18 18:00","1998","06","18","18:00","24.1","","16.9","","64","","33","","15","","19.3","","99.35","","29","","","","Mainly Clear"
"1998-06-18 19:00","1998","06","18","19:00","23.7","","16.1","","62","","2","","20","","19.3","","99.32","","28","","","","Mainly Clear"
"1998-06-18 20:00","1998","06","18","20:00","22.3","","15.1","","64","","2","","15","","24.1","","99.29","","26","","","","Mainly Clear"
"1998-06-18 21:00","1998","06","18","21:00","20.9","","14.7","","68","","2","","13","","24.1","","99.32","","25","","","","Clear"
"1998-06-18 22:00","1998","06","18","22:00","18.7","","14.7","","78","","32","","7","","25.0","","99.32","","","","","","Clear"
"1998-06-18 23:00","1998","06","18","23:00","17.6","","14.3","","81","","32","","7","","25.0","","99.35","","","","","","Clear"
"1998-06-19 00:00","1998","06","19","00:00","16.4","","14.0","","86","","34","","9","","25.0","","99.32","","","","","","Clear"
"1998-06-19 01:00","1998","06","19","01:00","16.8","","14.3","","85","","35","","6","","25.0","","99.22","","","","","","Clear"
"1998-06-19 02:00","1998","06","19","02:00","15.7","","13.9","","89","","33","","6","","25.0","","99.19","","","","","","Clear"
"1998-06-19 03:00","1998","06","19","03:00","16.6","","14.2","","86","","1","","13","","25.0","","99.09","","","","","","Mainly Clear"
"1998-06-19 04:00","1998","06","19","04:00","14.6","","13.4","","93","","27","","9","","25.0","","99.12","","","","","","Mainly Clear"
"1998-06-19 05:00","1998","06","19","05:00","15.6","","14.0","","90","","30","","9","","32.2","","99.12","","","","","","Mostly Cloudy"
"1998-06-19 06:00","1998","06","19","06:00","16.7","","14.6","","87","","32","","6","","24.1","","99.12","","","","","","Mostly Cloudy"
"1998-06-19 07:00","1998","06","19","07:00","18.7","","15.5","","82","","1","","4","","19.3","","99.12","","","","","","Mostly Cloudy"
"1998-06-19 08:00","1998","06","19","08:00","21.6","","16.6","","73","","11","","6","","19.3","","99.12","","27","","","","Mostly Cloudy"
"1998-06-19 09:00","1998","06","19","09:00","22.6","","16.7","","69","","12","","7","","24.1","","99.09","","28","","","","Mostly Cloudy"
"1998-06-19 10:00","1998","06","19","10:00","23.0","","16.9","","69","","11","","9","","24.1","","99.02","","28","","","","Mostly Cloudy"
"1998-06-19 11:00","1998","06","19","11:00","24.2","","16.7","","63","","15","","11","","24.1","","98.96","","29","","","","Mostly Cloudy"
"1998-06-19 12:00","1998","06","19","12:00","25.1","","16.3","","58","","13","","11","","32.2","","98.92","","30","","","","Mostly Cloudy"
"1998-06-19 13:00","1998","06","19","13:00","25.4","","16.2","","57","","16","","11","","32.2","","98.92","","30","","","","Mostly Cloudy"
"1998-06-19 14:00","1998","06","19","14:00","25.3","","15.5","","55","","15","","9","","32.2","","98.89","","30","","","","Mostly Cloudy"
"1998-06-19 15:00","1998","06","19","15:00","26.4","","15.4","","51","","12","","4","","32.2","","98.86","","31","","","","Mostly Cloudy"
"1998-06-19 16:00","1998","06","19","16:00","26.7","","16.8","","55","","19","","4","","32.2","","98.82","","32","","","","Mostly Cloudy"
"1998-06-19 17:00","1998","06","19","17:00","25.5","","15.7","","55","","16","","15","","32.2","","98.76","","30","","","","Mostly Cloudy"
"1998-06-19 18:00","1998","06","19","18:00","24.2","","15.6","","59","","18","","9","","24.1","","98.82","","29","","","","Mostly Cloudy"
"1998-06-19 19:00","1998","06","19","19:00","23.3","","15.6","","62","","17","","7","","24.1","","98.86","","28","","","","Mostly Cloudy"
"1998-06-19 20:00","1998","06","19","20:00","22.3","","15.0","","63","","14","","7","","24.1","","98.82","","26","","","","Mostly Cloudy"
"1998-06-19 21:00","1998","06","19","21:00","21.9","","15.3","","66","","16","","6","","24.1","","98.86","","26","","","","Mostly Cloudy"
"1998-06-19 22:00","1998","06","19","22:00","22.3","","15.4","","65","","23","","6","","24.1","","98.92","","27","","","","Mostly Cloudy"
"1998-06-19 23:00","1998","06","19","23:00","22.4","","14.6","","61","","","","0","","24.1","","98.89","","26","","","","Mostly Cloudy"
"1998-06-20 00:00","1998","06","20","00:00","22.3","","15.4","","65","","","","0","","24.1","","98.89","","27","","","","Mostly Cloudy"
"1998-06-20 01:00","1998","06","20","01:00","22.2","","15.6","","66","","","","0","","19.3","","98.89","","27","","","","Mostly Cloudy"
"1998-06-20 02:00","1998","06","20","02:00","21.9","","15.3","","66","","","","0","","19.3","","98.89","","26","","","","Mostly Cloudy"
"1998-06-20 03:00","1998","06","20","03:00","21.8","","15.6","","68","","18","","4","","24.1","","98.92","","26","","","","Cloudy"
"1998-06-20 04:00","1998","06","20","04:00","20.6","","17.1","","80","","11","","4","","19.3","","98.96","","26","","","","Rain Showers"
"1998-06-20 05:00","1998","06","20","05:00","21.0","","17.1","","78","","","","0","","19.3","","98.99","","26","","","","Cloudy"
"1998-06-20 06:00","1998","06","20","06:00","20.2","","18.1","","88","","","","0","","16.1","","99.02","","26","","","","Mostly Cloudy"
"1998-06-20 07:00","1998","06","20","07:00","23.6","","19.4","","77","","32","","7","","12.9","","99.06","","31","","","","Mostly Cloudy"
"1998-06-20 08:00","1998","06","20","08:00","24.2","","17.1","","65","","31","","19","","19.3","","99.12","","30","","","","Mostly Cloudy"
"1998-06-20 09:00","1998","06","20","09:00","25.1","","17.3","","62","","31","","9","","24.1","","99.12","","31","","","","Mostly Cloudy"
"1998-06-20 10:00","1998","06","20","10:00","26.2","","17.7","","60","","","","0","","24.1","","99.12","","32","","","","Mainly Clear"
"1998-06-20 11:00","1998","06","20","11:00","26.8","","16.9","","55","","32","","9","","24.1","","99.12","","32","","","","Mainly Clear"
"1998-06-20 12:00","1998","06","20","12:00","28.0","","17.5","","53","","25","","15","","32.2","","99.16","","34","","","","Mostly Cloudy"
"1998-06-20 13:00","1998","06","20","13:00","28.4","","16.7","","49","","32","","9","","32.2","","99.12","","33","","","","Mainly Clear"
"1998-06-20 14:00","1998","06","20","14:00","28.3","","15.2","","45","","23","","4","","40.2","","99.12","","32","","","","Mainly Clear"
"1998-06-20 15:00","1998","06","20","15:00","29.3","","15.7","","44","","24","","11","","40.2","","99.12","","34","","","","Mostly Cloudy"
"1998-06-20 16:00","1998","06","20","16:00","30.0","","15.9","","43","","26","","15","","40.2","","99.09","","35","","","","Mostly Cloudy"
"1998-06-20 17:00","1998","06","20","17:00","29.3","","15.0","","42","","29","","7","","40.2","","99.09","","33","","","","Mainly Clear"
"1998-06-20 18:00","1998","06","20","18:00","27.7","","17.2","","53","","2","","13","","40.2","","99.12","","33","","","","Mostly Cloudy"
"1998-06-20 19:00","1998","06","20","19:00","27.5","","17.3","","54","","36","","6","","40.2","","99.19","","33","","","","Mostly Cloudy"
"1998-06-20 20:00","1998","06","20","20:00","26.8","","17.8","","58","","1","","13","","40.2","","99.22","","33","","","","Mostly Cloudy"
"1998-06-20 21:00","1998","06","20","21:00","25.8","","17.5","","60","","35","","11","","25.0","","99.26","","31","","","","Mostly Cloudy"
"1998-06-20 22:00","1998","06","20","22:00","23.8","","17.3","","67","","34","","11","","25.0","","99.32","","29","","","","Mainly Clear"
"1998-06-20 23:00","1998","06","20","23:00","22.1","","16.9","","72","","35","","11","","25.0","","99.35","","27","","","","Mainly Clear"
"1998-06-21 00:00","1998","06","21","00:00","20.8","","16.8","","78","","35","","9","","25.0","","99.32","","26","","","","Mainly Clear"
"1998-06-21 01:00","1998","06","21","01:00","20.2","","16.6","","80","","33","","7","","25.0","","99.32","","25","","","","Clear"
"1998-06-21 02:00","1998","06","21","02:00","18.5","","16.0","","85","","33","","7","","19.3","","99.35","","","","","","Clear"
"1998-06-21 03:00","1998","06","21","03:00","18.2","","15.4","","84","","1","","6","","19.3","","99.29","","","","","","Clear"
"1998-06-21 04:00","1998","06","21","04:00","18.4","","15.4","","83","","","","0","","19.3","","99.29","","","","","","Clear"
"1998-06-21 05:00","1998","06","21","05:00","18.3","","15.8","","85","","29","","4","","24.1","","99.39","","","","","","Mostly Cloudy"
"1998-06-21 06:00","1998","06","21","06:00","19.7","","16.7","","83","","33","","2","","24.1","","99.45","","","","","","Mainly Clear"
"1998-06-21 07:00","1998","06","21","07:00","22.1","","16.8","","72","","22","","2","","24.1","","99.49","","27","","","","Mostly Cloudy"
"1998-06-21 08:00","1998","06","21","08:00","23.8","","17.8","","69","","19","","4","","24.1","","99.52","","30","","","","Mainly Clear"
"1998-06-21 09:00","1998","06","21","09:00","25.2","","17.8","","64","","16","","2","","24.1","","99.49","","31","","","","Mainly Clear"
"1998-06-21 10:00","1998","06","21","10:00","27.2","","18.5","","59","","14","","6","","24.1","","99.45","","34","","","","Mainly Clear"
"1998-06-21 11:00","1998","06","21","11:00","27.6","","18.3","","57","","15","","15","","24.1","","99.49","","34","","","","Mainly Clear"
"1998-06-21 12:00","1998","06","21","12:00","28.4","","18.2","","54","","16","","15","","24.1","","99.45","","35","","","","Mainly Clear"
"1998-06-21 13:00","1998","06","21","13:00","28.8","","17.2","","50","","15","","17","","24.1","","99.45","","34","","","","Mainly Clear"
"1998-06-21 14:00","1998","06","21","14:00","28.9","","17.6","","51","","15","","17","","24.1","","99.45","","35","","","","Mostly Cloudy"
"1998-06-21 15:00","1998","06","21","15:00","29.4","","17.4","","48","","15","","17","","24.1","","99.42","","35","","","","Mostly Cloudy"
"1998-06-21 16:00","1998","06","21","16:00","28.8","","17.9","","52","","14","","15","","24.1","","99.42","","35","","","","Mostly Cloudy"
"1998-06-21 17:00","1998","06","21","17:00","27.9","","17.2","","52","","13","","19","","24.1","","99.39","","33","","","","Mostly Cloudy"
"1998-06-21 18:00","1998","06","21","18:00","27.5","","17.0","","53","","13","","11","","32.2","","99.39","","33","","","","Mainly Clear"
"1998-06-21 19:00","1998","06","21","19:00","25.9","","16.2","","55","","14","","15","","24.1","","99.39","","31","","","","Mostly Cloudy"
"1998-06-21 20:00","1998","06","21","20:00","24.2","","16.7","","63","","13","","11","","24.1","","99.39","","29","","","","Mostly Cloudy"
"1998-06-21 21:00","1998","06","21","21:00","23.8","","16.9","","65","","13","","7","","25.0","","99.49","","29","","","","Cloudy"
"1998-06-21 22:00","1998","06","21","22:00","23.1","","17.0","","69","","12","","9","","25.0","","99.49","","28","","","","Mostly Cloudy"
"1998-06-21 23:00","1998","06","21","23:00","22.3","","17.0","","72","","13","","4","","25.0","","99.49","","28","","","","Mostly Cloudy"
"1998-06-22 00:00","1998","06","22","00:00","22.3","","17.0","","72","","","","0","","25.0","","99.45","","28","","","","Cloudy"
"1998-06-22 01:00","1998","06","22","01:00","21.7","","17.1","","75","","","","0","","24.1","","99.49","","27","","","","Cloudy"
"1998-06-22 02:00","1998","06","22","02:00","21.2","","17.4","","79","","","","0","","19.3","","99.49","","27","","","","Cloudy"
"1998-06-22 03:00","1998","06","22","03:00","21.4","","17.5","","78","","","","0","","12.9","","99.49","","27","","","","Cloudy"
"1998-06-22 04:00","1998","06","22","04:00","21.2","","17.6","","80","","30","","4","","12.9","","99.49","","27","","","","Mostly Cloudy"
"1998-06-22 05:00","1998","06","22","05:00","21.9","","17.2","","75","","","","0","","11.3","","99.52","","27","","","","Cloudy"
"1998-06-22 06:00","1998","06","22","06:00","22.7","","18.0","","75","","","","0","","11.3","","99.52","","29","","","","Cloudy"
"1998-06-22 07:00","1998","06","22","07:00","22.4","","18.6","","79","","17","","6","","11.3","","99.55","","29","","","","Cloudy"
"1998-06-22 08:00","1998","06","22","08:00","22.7","","18.7","","78","","19","","6","","9.7","","99.59","","29","","","","Haze"
"1998-06-22 09:00","1998","06","22","09:00","24.9","","18.6","","68","","25","","15","","11.3","","99.59","","31","","","","Cloudy"
"1998-06-22 10:00","1998","06","22","10:00","25.7","","19.6","","69","","22","","9","","11.3","","99.59","","33","","","","Mostly Cloudy"
"1998-06-22 11:00","1998","06","22","11:00","28.7","","20.9","","63","","19","","13","","12.9","","99.55","","37","","","","Mainly Clear"
"1998-06-22 12:00","1998","06","22","12:00","28.3","","21.1","","65","","18","","11","","12.9","","99.55","","37","","","","Mostly Cloudy"
"1998-06-22 13:00","1998","06","22","13:00","28.8","","21.2","","64","","17","","15","","12.9","","99.55","","37","","","","Mostly Cloudy"
"1998-06-22 14:00","1998","06","22","14:00","29.7","","20.9","","59","","19","","15","","19.3","","99.49","","38","","","","Mostly Cloudy"
"1998-06-22 15:00","1998","06","22","15:00","32.6","","17.8","","41","","25","","19","","19.3","","99.45","","38","","","","Mainly Clear"
"1998-06-22 16:00","1998","06","22","16:00","32.0","","16.6","","40","","27","","15","","24.1","","99.42","","37","","","","Mainly Clear"
"1998-06-22 17:00","1998","06","22","17:00","31.5","","14.3","","35","","28","","13","","32.2","","99.39","","35","","","","Mainly Clear"
"1998-06-22 18:00","1998","06","22","18:00","30.8","","14.3","","37","","27","","24","","32.2","","99.42","","34","","","","Mainly Clear"
"1998-06-22 19:00","1998","06","22","19:00","29.6","","14.1","","39","","29","","19","","32.2","","99.45","","33","","","","Mainly Clear"
"1998-06-22 20:00","1998","06","22","20:00","26.3","","14.0","","47","","32","","9","","40.2","","99.45","","30","","","","Mainly Clear"
"1998-06-22 21:00","1998","06","22","21:00","24.5","","15.1","","56","","34","","7","","25.0","","99.49","","29","","","","Mainly Clear"
"1998-06-22 22:00","1998","06","22","22:00","24.0","","16.2","","62","","30","","4","","25.0","","99.52","","29","","","","Clear"
"1998-06-22 23:00","1998","06","22","23:00","21.6","","16.7","","74","","33","","6","","25.0","","99.49","","27","","","","Clear"
"1998-06-23 00:00","1998","06","23","00:00","20.4","","16.5","","78","","35","","6","","25.0","","99.52","","25","","","","Clear"
"1998-06-23 01:00","1998","06","23","01:00","20.4","","16.5","","78","","34","","6","","25.0","","99.55","","25","","","","Mostly Cloudy"
"1998-06-23 02:00","1998","06","23","02:00","20.2","","16.6","","80","","35","","4","","25.0","","99.49","","25","","","","Mostly Cloudy"
"1998-06-23 03:00","1998","06","23","03:00","20.0","","16.3","","79","","34","","2","","25.0","","99.45","","25","","","","Cloudy"
"1998-06-23 04:00","1998","06","23","04:00","19.5","","16.4","","82","","32","","4","","24.1","","99.45","","","","","","Mostly Cloudy"
"1998-06-23 05:00","1998","06","23","05:00","19.5","","16.4","","82","","35","","4","","19.3","","99.52","","","","","","Mostly Cloudy"
"1998-06-23 06:00","1998","06","23","06:00","20.9","","16.9","","78","","34","","2","","19.3","","99.55","","26","","","","Cloudy"
"1998-06-23 07:00","1998","06","23","07:00","21.3","","18.0","","81","","33","","11","","19.3","","99.55","","27","","","","Rain"
"1998-06-23 08:00","1998","06","23","08:00","21.7","","18.4","","82","","11","","6","","16.1","","99.55","","28","","","","Rain"
"1998-06-23 09:00","1998","06","23","09:00","21.0","","19.5","","91","","28","","7","","12.9","","99.65","","28","","","","Moderate Rain"
"1998-06-23 10:00","1998","06","23","10:00","20.4","","18.7","","90","","27","","2","","12.9","","99.65","","27","","","","Rain"
"1998-06-23 11:00","1998","06","23","11:00","21.4","","19.1","","87","","23","","2","","9.7","","99.62","","28","","","","Rain"
"1998-06-23 12:00","1998","06","23","12:00","23.2","","18.6","","75","","8","","2","","12.9","","99.59","","30","","","","Mostly Cloudy"
"1998-06-23 13:00","1998","06","23","13:00","24.0","","18.0","","69","","3","","4","","16.1","","99.59","","30","","","","Cloudy"
"1998-06-23 14:00","1998","06","23","14:00","24.2","","18.2","","69","","18","","4","","24.1","","99.59","","30","","","","Cloudy"
"1998-06-23 15:00","1998","06","23","15:00","24.7","","18.4","","68","","15","","7","","24.1","","99.55","","31","","","","Mostly Cloudy"
"1998-06-23 16:00","1998","06","23","16:00","25.4","","18.6","","66","","14","","7","","24.1","","99.52","","32","","","","Mainly Clear"
"1998-06-23 17:00","1998","06","23","17:00","25.3","","18.4","","66","","14","","6","","19.3","","99.42","","32","","","","Clear"
"1998-06-23 18:00","1998","06","23","18:00","25.2","","18.3","","66","","15","","7","","19.3","","99.42","","31","","","","Clear"
"1998-06-23 19:00","1998","06","23","19:00","23.7","","18.3","","72","","16","","9","","24.1","","99.45","","30","","","","Clear"
"1998-06-23 20:00","1998","06","23","20:00","22.3","","18.3","","78","","16","","7","","16.1","","99.52","","29","","","","Mainly Clear"
"1998-06-23 21:00","1998","06","23","21:00","21.2","","18.4","","84","","13","","7","","8.0","","99.52","","28","","","","Haze"
"1998-06-23 22:00","1998","06","23","22:00","21.0","","18.9","","88","","31","","15","","8.0","","99.65","","28","","","","Rain Showers,Haze"
"1998-06-23 23:00","1998","06","23","23:00","20.5","","19.1","","92","","33","","7","","16.1","","99.65","","27","","","","Mostly Cloudy"
"1998-06-24 00:00","1998","06","24","00:00","19.5","","18.1","","92","","34","","6","","19.3","","99.65","","","","","","Mainly Clear"
"1998-06-24 01:00","1998","06","24","01:00","18.7","","16.9","","89","","33","","7","","19.3","","99.65","","","","","","Clear"
"1998-06-24 02:00","1998","06","24","02:00","17.4","","15.8","","90","","32","","7","","24.1","","99.69","","","","","","Clear"
"1998-06-24 03:00","1998","06","24","03:00","17.4","","15.4","","88","","32","","7","","24.1","","99.62","","","","","","Clear"
"1998-06-24 04:00","1998","06","24","04:00","17.0","","15.3","","90","","30","","4","","24.1","","99.65","","","","","","Mainly Clear"
"1998-06-24 05:00","1998","06","24","05:00","17.1","","15.2","","89","","30","","2","","24.1","","99.69","","","","","","Mainly Clear"
"1998-06-24 06:00","1998","06","24","06:00","18.7","","15.6","","82","","34","","4","","24.1","","99.75","","","","","","Mainly Clear"
"1998-06-24 07:00","1998","06","24","07:00","21.1","","16.6","","75","","26","","2","","32.2","","99.82","","26","","","","Mainly Clear"
"1998-06-24 08:00","1998","06","24","08:00","23.9","","18.4","","71","","30","","2","","24.1","","99.85","","30","","","","Mainly Clear"
"1998-06-24 09:00","1998","06","24","09:00","25.6","","17.3","","60","","20","","2","","32.2","","99.82","","31","","","","Mostly Cloudy"
"1998-06-24 10:00","1998","06","24","10:00","26.6","","18.2","","60","","17","","6","","32.2","","99.82","","33","","","","Mainly Clear"
"1998-06-24 11:00","1998","06","24","11:00","27.6","","19.0","","59","","14","","9","","32.2","","99.79","","34","","","","Mostly Cloudy"
"1998-06-24 12:00","1998","06","24","12:00","28.2","","19.8","","60","","14","","7","","24.1","","99.75","","36","","","","Mostly Cloudy"
"1998-06-24 13:00","1998","06","24","13:00","27.8","","19.9","","62","","14","","15","","16.1","","99.65","","35","","","","Mostly Cloudy"
"1998-06-24 14:00","1998","06","24","14:00","28.7","","19.7","","58","","15","","20","","12.9","","99.59","","36","","","","Mostly Cloudy"
"1998-06-24 15:00","1998","06","24","15:00","28.8","","20.8","","62","","15","","20","","12.9","","99.55","","37","","","","Mostly Cloudy"
"1998-06-24 16:00","1998","06","24","16:00","29.2","","20.8","","61","","16","","19","","16.1","","99.49","","37","","","","Mainly Clear"
"1998-06-24 17:00","1998","06","24","17:00","28.6","","19.2","","57","","17","","20","","24.1","","99.45","","36","","","","Mainly Clear"
"1998-06-24 18:00","1998","06","24","18:00","29.3","","19.3","","55","","19","","11","","24.1","","99.49","","36","","","","Mainly Clear"
"1998-06-24 19:00","1998","06","24","19:00","29.2","","17.6","","50","","24","","20","","24.1","","99.52","","35","","","","Mainly Clear"
"1998-06-24 20:00","1998","06","24","20:00","27.4","","16.6","","52","","23","","13","","24.1","","99.49","","32","","","","Mostly Cloudy"
"1998-06-24 21:00","1998","06","24","21:00","26.8","","15.7","","51","","23","","9","","24.1","","99.49","","31","","","","Mostly Cloudy"
"1998-06-24 22:00","1998","06","24","22:00","25.5","","15.8","","55","","18","","7","","24.1","","99.49","","30","","","","Mainly Clear"
"1998-06-24 23:00","1998","06","24","23:00","25.3","","16.3","","57","","13","","6","","24.1","","99.52","","30","","","","Clear"
"1998-06-25 00:00","1998","06","25","00:00","23.0","","17.2","","70","","17","","4","","24.1","","99.52","","28","","","","Clear"
"1998-06-25 01:00","1998","06","25","01:00","23.0","","17.0","","69","","15","","2","","24.1","","99.49","","28","","","","Mainly Clear"
"1998-06-25 02:00","1998","06","25","02:00","23.0","","17.3","","70","","15","","6","","19.3","","99.39","","28","","","","Mainly Clear"
"1998-06-25 03:00","1998","06","25","03:00","22.4","","17.3","","73","","13","","7","","19.3","","99.32","","28","","","","Clear"
"1998-06-25 04:00","1998","06","25","04:00","21.6","","17.4","","77","","14","","6","","19.3","","99.32","","27","","","","Clear"
"1998-06-25 05:00","1998","06","25","05:00","21.6","","18.0","","80","","5","","6","","12.9","","99.45","","28","","","","Mainly Clear"
"1998-06-25 06:00","1998","06","25","06:00","22.3","","18.3","","78","","11","","13","","11.3","","99.49","","29","","","","Mainly Clear"
"1998-06-25 07:00","1998","06","25","07:00","22.8","","18.9","","79","","14","","15","","11.3","","99.49","","29","","","","Mainly Clear"
"1998-06-25 08:00","1998","06","25","08:00","22.5","","18.8","","80","","13","","15","","12.9","","99.45","","29","","","","Mostly Cloudy"
"1998-06-25 09:00","1998","06","25","09:00","24.4","","20.3","","78","","12","","9","","11.3","","99.39","","32","","","","Mostly Cloudy"
"1998-06-25 10:00","1998","06","25","10:00","26.7","","21.4","","73","","15","","11","","9.7","","99.29","","35","","","","Haze"
"1998-06-25 11:00","1998","06","25","11:00","27.7","","22.3","","72","","12","","6","","9.7","","99.42","","37","","","","Haze"
"1998-06-25 12:00","1998","06","25","12:00","28.7","","22.8","","70","","14","","13","","8.0","","99.32","","39","","","","Thunderstorms,Rain Showers,Haze"
"1998-06-25 13:00","1998","06","25","13:00","25.8","","22.5","","82","","16","","22","","8.0","","99.35","","36","","","","Haze"
"1998-06-25 14:00","1998","06","25","14:00","28.6","","22.4","","69","","19","","22","","11.3","","99.22","","38","","","","Mostly Cloudy"
"1998-06-25 15:00","1998","06","25","15:00","28.7","","22.0","","67","","20","","22","","11.3","","99.16","","38","","","","Mostly Cloudy"
"1998-06-25 16:00","1998","06","25","16:00","29.9","","22.4","","64","","23","","22","","11.3","","99.12","","40","","","","Mostly Cloudy"
"1998-06-25 17:00","1998","06","25","17:00","30.8","","22.7","","62","","22","","24","","11.3","","99.02","","41","","","","Mostly Cloudy"
"1998-06-25 18:00","1998","06","25","18:00","30.0","","22.8","","65","","23","","24","","9.7","","99.02","","40","","","","Haze"
"1998-06-25 19:00","1998","06","25","19:00","29.3","","23.2","","70","","22","","17","","11.3","","98.99","","40","","","","Thunderstorms"
"1998-06-25 20:00","1998","06","25","20:00","28.4","","23.4","","74","","","","0","","11.3","","98.99","","39","","","","Cloudy"
"1998-06-25 21:00","1998","06","25","21:00","27.9","","21.9","","70","","19","","9","","11.3","","98.92","","37","","","","Mostly Cloudy"
"1998-06-25 22:00","1998","06","25","22:00","28.0","","21.0","","66","","17","","13","","12.9","","98.89","","36","","","","Mainly Clear"
"1998-06-25 23:00","1998","06","25","23:00","26.3","","20.6","","71","","14","","7","","12.9","","98.86","","34","","","","Mostly Cloudy"
"1998-06-26 00:00","1998","06","26","00:00","26.4","","20.6","","70","","9","","13","","11.3","","98.82","","34","","","","Mostly Cloudy"
"1998-06-26 01:00","1998","06","26","01:00","22.2","","20.7","","91","","34","","37","","8.0","","99.02","","30","","","","Thunderstorms,Heavy Rain Showers"
"1998-06-26 02:00","1998","06","26","02:00","20.7","","19.9","","95","","7","","7","","11.3","","98.92","","28","","","","Thunderstorms,Rain Showers"
"1998-06-26 03:00","1998","06","26","03:00","20.7","","19.8","","95","","36","","7","","16.1","","98.99","","28","","","","Mostly Cloudy"
"1998-06-26 04:00","1998","06","26","04:00","20.8","","19.6","","93","","12","","7","","16.1","","98.89","","28","","","","Mostly Cloudy"
"1998-06-26 05:00","1998","06","26","05:00","19.9","","18.6","","92","","13","","22","","11.3","","98.86","","","","","","Thunderstorms"
"1998-06-26 06:00","1998","06","26","06:00","19.8","","19.2","","96","","12","","15","","6.4","","98.89","","","","","","Fog"
"1998-06-26 07:00","1998","06","26","07:00","20.2","","19.5","","96","","13","","11","","8.0","","98.86","","27","","","","Fog"
"1998-06-26 08:00","1998","06","26","08:00","21.0","","19.7","","92","","","","0","","11.3","","98.79","","28","","","","Cloudy"
"1998-06-26 09:00","1998","06","26","09:00","23.2","","21.5","","90","","16","","9","","8.0","","98.76","","32","","","","Fog"
"1998-06-26 10:00","1998","06","26","10:00","25.4","","22.2","","82","","21","","19","","9.7","","98.66","","35","","","","Haze"
"1998-06-26 11:00","1998","06","26","11:00","27.3","","21.5","","71","","24","","19","","12.9","","98.59","","36","","","","Mostly Cloudy"
"1998-06-26 12:00","1998","06","26","12:00","29.0","","20.5","","60","","24","","26","","16.1","","98.49","","37","","","","Mostly Cloudy"
"1998-06-26 13:00","1998","06","26","13:00","29.5","","18.9","","53","","28","","37","","24.1","","98.42","","36","","","","Mostly Cloudy"
"1998-06-26 14:00","1998","06","26","14:00","27.9","","19.3","","60","","29","","37","","24.1","","98.46","","35","","","","Mostly Cloudy"
"1998-06-26 15:00","1998","06","26","15:00","27.6","","18.1","","56","","29","","41","","24.1","","98.42","","34","","","","Mostly Cloudy"
"1998-06-26 16:00","1998","06","26","16:00","25.2","","18.1","","65","","31","","43","","24.1","","98.52","","31","","","","Mostly Cloudy"
"1998-06-26 17:00","1998","06","26","17:00","23.9","","17.0","","65","","30","","39","","32.2","","98.59","","29","","","","Mostly Cloudy"
"1998-06-26 18:00","1998","06","26","18:00","23.7","","17.2","","67","","30","","33","","32.2","","98.62","","29","","","","Mainly Clear"
"1998-06-26 19:00","1998","06","26","19:00","23.1","","16.8","","68","","30","","28","","32.2","","98.62","","28","","","","Mainly Clear"
"1998-06-26 20:00","1998","06","26","20:00","22.0","","16.9","","73","","30","","20","","32.2","","98.62","","27","","","","Clear"
"1998-06-26 21:00","1998","06","26","21:00","21.2","","16.8","","76","","30","","22","","25.0","","98.62","","26","","","","Clear"
"1998-06-26 22:00","1998","06","26","22:00","20.9","","16.9","","78","","29","","22","","24.1","","98.62","","26","","","","Clear"
"1998-06-26 23:00","1998","06","26","23:00","20.6","","17.2","","81","","29","","22","","24.1","","98.62","","26","","","","Clear"
"1998-06-27 00:00","1998","06","27","00:00","20.1","","17.1","","83","","30","","15","","24.1","","98.69","","25","","","","Clear"
"1998-06-27 01:00","1998","06","27","01:00","19.5","","17.0","","85","","30","","19","","24.1","","98.69","","","","","","Clear"
"1998-06-27 02:00","1998","06","27","02:00","19.1","","17.0","","88","","30","","15","","19.3","","98.62","","","","","","Clear"
"1998-06-27 03:00","1998","06","27","03:00","18.8","","17.1","","90","","32","","15","","16.1","","98.69","","","","","","Mainly Clear"
"1998-06-27 04:00","1998","06","27","04:00","19.6","","17.5","","88","","34","","19","","16.1","","98.76","","","","","","Mainly Clear"
"1998-06-27 05:00","1998","06","27","05:00","20.2","","18.0","","87","","35","","19","","19.3","","98.82","","26","","","","Cloudy"
"1998-06-27 06:00","1998","06","27","06:00","20.6","","18.2","","86","","35","","15","","24.1","","98.89","","27","","","","Mostly Cloudy"
"1998-06-27 07:00","1998","06","27","07:00","20.5","","17.5","","83","","36","","22","","24.1","","98.92","","26","","","","Mostly Cloudy"
"1998-06-27 08:00","1998","06","27","08:00","21.4","","17.7","","79","","34","","28","","24.1","","98.99","","27","","","","Mostly Cloudy"
"1998-06-27 09:00","1998","06","27","09:00","22.5","","18.0","","76","","35","","20","","32.2","","98.99","","29","","","","Mostly Cloudy"
"1998-06-27 10:00","1998","06","27","10:00","23.2","","18.3","","74","","32","","15","","32.2","","98.99","","29","","","","Mostly Cloudy"
"1998-06-27 11:00","1998","06","27","11:00","24.4","","18.8","","71","","33","","6","","32.2","","99.02","","31","","","","Mostly Cloudy"
"1998-06-27 12:00","1998","06","27","12:00","25.4","","18.1","","64","","","","0","","40.2","","98.99","","31","","","","Mostly Cloudy"
"1998-06-27 13:00","1998","06","27","13:00","26.2","","18.0","","61","","","","0","","40.2","","98.96","","32","","","","Mostly Cloudy"
"1998-06-27 14:00","1998","06","27","14:00","25.9","","18.8","","65","","18","","9","","40.2","","99.02","","33","","","","Mostly Cloudy"
"1998-06-27 15:00","1998","06","27","15:00","27.5","","19.3","","61","","16","","6","","40.2","","99.02","","35","","","","Mostly Cloudy"
"1998-06-27 16:00","1998","06","27","16:00","27.5","","19.4","","61","","19","","7","","40.2","","99.02","","35","","","","Mostly Cloudy"
"1998-06-27 17:00","1998","06","27","17:00","26.2","","18.4","","62","","16","","17","","24.1","","99.02","","33","","","","Mostly Cloudy"
"1998-06-27 18:00","1998","06","27","18:00","25.3","","18.1","","64","","16","","11","","24.1","","99.06","","31","","","","Mostly Cloudy"
"1998-06-27 19:00","1998","06","27","19:00","24.0","","18.0","","69","","18","","9","","24.1","","99.09","","30","","","","Mainly Clear"
"1998-06-27 20:00","1998","06","27","20:00","23.2","","17.9","","72","","14","","4","","24.1","","99.09","","29","","","","Mainly Clear"
"1998-06-27 21:00","1998","06","27","21:00","22.3","","17.8","","76","","12","","6","","16.1","","99.16","","28","","","","Mainly Clear"
"1998-06-27 22:00","1998","06","27","22:00","21.7","","17.9","","79","","12","","7","","16.1","","99.19","","28","","","","Mainly Clear"
"1998-06-27 23:00","1998","06","27","23:00","21.5","","18.1","","81","","12","","6","","16.1","","99.16","","28","","","","Mainly Clear"
"1998-06-28 00:00","1998","06","28","00:00","19.7","","17.6","","88","","26","","2","","16.1","","99.29","","","","","","Clear"
"1998-06-28 01:00","1998","06","28","01:00","19.2","","17.6","","90","","30","","2","","19.3","","99.32","","","","","","Clear"
"1998-06-28 02:00","1998","06","28","02:00","19.4","","17.1","","87","","3","","7","","19.3","","99.29","","","","","","Clear"
"1998-06-28 03:00","1998","06","28","03:00","19.9","","16.9","","83","","7","","7","","19.3","","99.16","","","","","","Clear"
"1998-06-28 04:00","1998","06","28","04:00","19.1","","16.8","","87","","4","","4","","19.3","","99.26","","","","","","Mainly Clear"
"1998-06-28 05:00","1998","06","28","05:00","17.0","","15.8","","93","","32","","4","","19.3","","99.39","","","","","","Mainly Clear"
"1998-06-28 06:00","1998","06","28","06:00","20.1","","17.6","","86","","","","0","","16.1","","99.45","","26","","","","Mostly Cloudy"
"1998-06-28 07:00","1998","06","28","07:00","21.4","","17.9","","80","","13","","9","","19.3","","99.45","","27","","","","Mostly Cloudy"
"1998-06-28 08:00","1998","06","28","08:00","23.0","","17.9","","73","","13","","4","","24.1","","99.49","","29","","","","Mostly Cloudy"
"1998-06-28 09:00","1998","06","28","09:00","24.0","","17.6","","67","","11","","11","","32.2","","99.42","","30","","","","Mostly Cloudy"
"1998-06-28 10:00","1998","06","28","10:00","24.7","","18.5","","68","","12","","17","","32.2","","99.39","","31","","","","Mostly Cloudy"
"1998-06-28 11:00","1998","06","28","11:00","25.2","","17.4","","62","","14","","19","","32.2","","99.32","","31","","","","Mainly Clear"
"1998-06-28 12:00","1998","06","28","12:00","25.2","","17.9","","64","","13","","22","","32.2","","99.35","","31","","","","Mostly Cloudy"
"1998-06-28 13:00","1998","06","28","13:00","25.8","","17.9","","62","","10","","15","","32.2","","99.26","","32","","","","Mostly Cloudy"
"1998-06-28 14:00","1998","06","28","14:00","26.5","","18.7","","62","","15","","11","","24.1","","99.29","","33","","","","Mostly Cloudy"
"1998-06-28 15:00","1998","06","28","15:00","26.0","","19.2","","66","","11","","11","","24.1","","99.29","","33","","","","Cloudy"
"1998-06-28 16:00","1998","06","28","16:00","25.0","","18.7","","68","","11","","13","","24.1","","99.26","","32","","","","Cloudy"
"1998-06-28 17:00","1998","06","28","17:00","24.8","","18.0","","66","","9","","13","","24.1","","99.19","","31","","","","Mostly Cloudy"
"1998-06-28 18:00","1998","06","28","18:00","24.8","","17.9","","66","","12","","13","","24.1","","99.16","","31","","","","Mostly Cloudy"
"1998-06-28 19:00","1998","06","28","19:00","24.5","","18.0","","67","","12","","9","","24.1","","99.16","","31","","","","Mainly Clear"
"1998-06-28 20:00","1998","06","28","20:00","23.7","","17.5","","68","","7","","13","","24.1","","99.16","","29","","","","Mostly Cloudy"
"1998-06-28 21:00","1998","06","28","21:00"
"1998-06-28 22:00","1998","06","28","22:00","22.6","","17.6","","73","","11","","4","","19.3","","99.09","","28","","","","Clear"
"1998-06-28 23:00","1998","06","28","23:00","21.7","","17.8","","79","","25","","2","","16.1","","99.06","","28","","","","Mainly Clear"
"1998-06-29 00:00","1998","06","29","00:00","21.3","","18.0","","81","","19","","4","","16.1","","98.99","","27","","","","Mostly Cloudy"
"1998-06-29 01:00","1998","06","29","01:00","20.8","","17.8","","83","","20","","6","","16.1","","98.96","","27","","","","Mostly Cloudy"
"1998-06-29 02:00","1998","06","29","02:00","20.0","","17.6","","86","","17","","4","","16.1","","98.96","","26","","","","Mainly Clear"
"1998-06-29 03:00","1998","06","29","03:00","19.8","","18.0","","89","","17","","4","","12.9","","98.92","","","","","","Clear"
"1998-06-29 04:00","1998","06","29","04:00","19.5","","18.1","","92","","16","","7","","12.9","","98.89","","","","","","Clear"
"1998-06-29 05:00","1998","06","29","05:00","19.0","","18.1","","95","","20","","2","","6.4","","98.92","","","","","","Fog"
"1998-06-29 06:00","1998","06","29","06:00","20.1","","18.9","","93","","26","","6","","6.4","","98.89","","27","","","","Fog"
"1998-06-29 07:00","1998","06","29","07:00","23.0","","19.4","","80","","28","","22","","11.3","","98.89","","30","","","","Clear"
"1998-06-29 08:00","1998","06","29","08:00","24.9","","19.2","","71","","29","","26","","24.1","","98.92","","32","","","","Clear"
"1998-06-29 09:00","1998","06","29","09:00","25.8","","19.8","","70","","26","","22","","32.2","","98.89","","33","","","","Clear"
"1998-06-29 10:00","1998","06","29","10:00","27.4","","18.2","","57","","26","","24","","32.2","","98.86","","34","","","","Mainly Clear"
"1998-06-29 11:00","1998","06","29","11:00","28.0","","17.0","","51","","28","","30","","32.2","","98.86","","33","","","","Mostly Cloudy"
"1998-06-29 12:00","1998","06","29","12:00","29.2","","16.3","","46","","29","","30","","40.2","","98.79","","34","","","","Mainly Clear"
"1998-06-29 13:00","1998","06","29","13:00","29.8","","15.2","","41","","28","","28","","40.2","","98.76","","34","","","","Mainly Clear"
"1998-06-29 14:00","1998","06","29","14:00","30.3","","14.3","","38","","28","","24","","40.2","","98.72","","34","","","","Mainly Clear"
"1998-06-29 15:00","1998","06","29","15:00","30.4","","12.4","","33","","27","","22","","40.2","","98.66","","33","","","","Mainly Clear"
"1998-06-29 16:00","1998","06","29","16:00","30.4","","12.4","","33","","26","","26","","40.2","","98.56","","33","","","","Mainly Clear"
"1998-06-29 17:00","1998","06","29","17:00","30.8","","11.4","","30","","26","","28","","40.2","","98.49","","33","","","","Mainly Clear"
"1998-06-29 18:00","1998","06","29","18:00","30.0","","9.8","","29","","28","","26","","40.2","","98.49","","31","","","","Mostly Cloudy"
"1998-06-29 19:00","1998","06","29","19:00","29.4","","11.8","","34","","24","","17","","40.2","","98.49","","32","","","","Mostly Cloudy"
"1998-06-29 20:00","1998","06","29","20:00","27.4","","16.0","","50","","23","","20","","32.2","","98.39","","32","","","","Mainly Clear"
"1998-06-29 21:00","1998","06","29","21:00","26.1","","17.6","","60","","23","","19","","24.1","","98.39","","32","","","","Mostly Cloudy"
"1998-06-29 22:00","1998","06","29","22:00","25.4","","18.0","","64","","22","","20","","25.0","","98.32","","31","","","","Mainly Clear"
"1998-06-29 23:00","1998","06","29","23:00","24.5","","18.0","","67","","24","","19","","25.0","","98.19","","31","","","","Mainly Clear"
"1998-06-30 00:00","1998","06","30","00:00","23.4","","18.3","","73","","35","","4","","25.0","","98.19","","30","","","","Mostly Cloudy"
"1998-06-30 01:00","1998","06","30","01:00","23.5","","17.5","","69","","1","","4","","19.3","","98.16","","29","","","","Mostly Cloudy"
"1998-06-30 02:00","1998","06","30","02:00","22.8","","16.5","","68","","","","0","","19.3","","98.09","","28","","","","Mostly Cloudy"
"1998-06-30 03:00","1998","06","30","03:00","21.2","","17.5","","79","","35","","9","","14.5","","98.09","","27","","","","Cloudy"
"1998-06-30 04:00","1998","06","30","04:00","20.5","","15.8","","74","","31","","7","","16.1","","97.99","","25","","","","Mostly Cloudy"
"1998-06-30 05:00","1998","06","30","05:00","20.5","","15.8","","74","","35","","7","","19.3","","97.89","","25","","","","Thunderstorms"
"1998-06-30 06:00","1998","06","30","06:00","16.3","","15.0","","92","","27","","15","","4.8","","98.09","","","","","","Thunderstorms,Moderate Rain Showers,Fog"
"1998-06-30 07:00","1998","06","30","07:00","16.8","","15.8","","94","","6","","28","","19.3","","97.76","","","","","","Rain Showers"
"1998-06-30 08:00","1998","06","30","08:00","18.7","","16.1","","85","","2","","15","","32.2","","97.79","","","","","","Mostly Cloudy"
"1998-06-30 09:00","1998","06","30","09:00","20.9","","16.6","","76","","","","0","","32.2","","97.79","","26","","","","Mainly Clear"
"1998-06-30 10:00","1998","06","30","10:00","22.6","","17.2","","72","","25","","9","","32.2","","97.79","","28","","","","Mostly Cloudy"
"1998-06-30 11:00","1998","06","30","11:00","22.7","","16.8","","69","","25","","9","","32.2","","97.82","","28","","","","Cloudy"
"1998-06-30 12:00","1998","06","30","12:00","20.2","","17.1","","82","","30","","24","","4.8","","97.89","","26","","","","Thunderstorms,Moderate Rain Showers"
"1998-06-30 13:00","1998","06","30","13:00","17.2","","15.4","","89","","2","","19","","24.1","","97.86","","","","","","Thunderstorms,Rain Showers"
"1998-06-30 14:00","1998","06","30","14:00","22.3","","16.1","","68","","2","","19","","40.2","","97.79","","27","","","","Mostly Cloudy"
"1998-06-30 15:00","1998","06","30","15:00","21.0","","16.9","","77","","31","","17","","40.2","","97.82","","26","","","","Rain Showers"
"1998-06-30 16:00","1998","06","30","16:00","23.6","","16.4","","64","","32","","26","","40.2","","97.79","","28","","","","Mostly Cloudy"
"1998-06-30 17:00","1998","06","30","17:00","22.5","","15.3","","64","","35","","22","","40.2","","97.89","","27","","","","Mostly Cloudy"
"1998-06-30 18:00","1998","06","30","18:00","23.0","","15.3","","62","","33","","28","","40.2","","97.89","","27","","","","Mostly Cloudy"
"1998-06-30 19:00","1998","06","30","19:00","22.3","","15.2","","64","","32","","20","","40.2","","97.96","","26","","","","Mostly Cloudy"
"1998-06-30 20:00","1998","06","30","20:00","20.6","","15.4","","72","","30","","17","","25.0","","98.02","","25","","","","Mostly Cloudy"
"1998-06-30 21:00","1998","06","30","21:00","20.0","","15.6","","76","","31","","17","","25.0","","98.12","","","","","","Mainly Clear"
"1998-06-30 22:00","1998","06","30","22:00","19.4","","15.5","","78","","33","","19","","25.0","","98.16","","","","","","Clear"
"1998-06-30 23:00","1998","06","30","23:00","18.8","","14.5","","76","","31","","11","","25.0","","98.19","","","","","","Clear"
