"Station Name","TORONTO LESTER B. PEARSON INT'L A"
"Province","ONTARIO"
"Latitude","43.68"
"Longitude","-79.63"
"Elevation","173.40"
"Climate Identifier","6158733"
"WMO Identifier","71624"
"TC Identifier","YYZ"
"All times are specified in Local Standard Time (LST). Add 1 hour to adjust for Daylight Saving Time where and when it is observed."

"Legend"
"E","Estimated"
"M","Missing"
"NA","Not Available"

"Date/Time","Year","Month","Day","Time","Temp (°C)","Temp Flag","Dew Point Temp (°C)","Dew Point Temp Flag","Rel Hum (%)","Rel Hum Flag","Wind Dir (10s deg)","Wind Dir Flag","Wind Spd (km/h)","Wind Spd Flag","Visibility (km)","Visibility Flag","Stn Press (kPa)","Stn Press Flag","Hmdx","Hmdx Flag","Wind Chill","Wind Chill Flag","Weather"
"1994-04-01 00:00","1994","04","01","00:00","1.0","","-2.4","","78","","24","","15","","25.0","","99.52","","","","","","Mainly Clear"
"1994-04-01 01:00","1994","04","01","01:00","0.8","","-2.4","","79","","25","","13","","25.0","","99.49","","","","","","Mainly Clear"
"1994-04-01 02:00","1994","04","01","02:00","1.4","","-2.1","","77","","25","","19","","25.0","","99.39","","","","","","Clear"
"1994-04-01 03:00","1994","04","01","03:00","1.7","","-4.1","","65","","26","","15","","25.0","","99.35","","","","","","Mainly Clear"
"1994-04-01 04:00","1994","04","01","04:00","1.4","","-4.1","","67","","26","","7","","25.0","","99.29","","","","","","Mostly Cloudy"
"1994-04-01 05:00","1994","04","01","05:00","2.1","","-4.7","","61","","22","","4","","25.0","","99.26","","","","","","Cloudy"
"1994-04-01 06:00","1994","04","01","06:00","2.7","","-4.6","","59","","25","","19","","25.0","","99.26","","","","","","Mostly Cloudy"
"1994-04-01 07:00","1994","04","01","07:00","2.4","","-3.9","","63","","24","","15","","12.9","","99.26","","","","","","Mostly Cloudy"
"1994-04-01 08:00","1994","04","01","08:00","3.0","","-2.6","","67","","","","0","","19.3","","99.26","","","","","","Mostly Cloudy"
"1994-04-01 09:00","1994","04","01","09:00","4.3","","-2.5","","61","","29","","9","","19.3","","99.29","","","","","","Cloudy"
"1994-04-01 10:00","1994","04","01","10:00","6.0","","-2.3","","55","","31","","20","","24.1","","99.32","","","","","","Mainly Clear"
"1994-04-01 11:00","1994","04","01","11:00","7.5","","-1.5","","53","","31","","13","","24.1","","99.32","","","","","","Clear"
"1994-04-01 12:00","1994","04","01","12:00","9.5","","-1.6","","46","","30","","7","","24.1","","99.32","","","","","","Clear"
"1994-04-01 13:00","1994","04","01","13:00","10.2","","-2.8","","40","","36","","15","","40.2","","99.32","","","","","","Mostly Cloudy"
"1994-04-01 14:00","1994","04","01","14:00","11.0","","-3.2","","37","","5","","15","","40.2","","99.35","","","","","","Mostly Cloudy"
"1994-04-01 15:00","1994","04","01","15:00","10.2","","-4.9","","34","","1","","9","","40.2","","99.35","","","","","","Mostly Cloudy"
"1994-04-01 16:00","1994","04","01","16:00","10.8","","-2.5","","39","","33","","15","","40.2","","99.39","","","","","","Mainly Clear"
"1994-04-01 17:00","1994","04","01","17:00","9.1","","-3.7","","40","","1","","24","","40.2","","99.45","","","","","","Mostly Cloudy"
"1994-04-01 18:00","1994","04","01","18:00","8.0","","-3.3","","45","","36","","20","","40.2","","99.55","","","","","","Mostly Cloudy"
"1994-04-01 19:00","1994","04","01","19:00","6.0","","-4.3","","48","","36","","22","","40.2","","99.65","","","","","","Mostly Cloudy"
"1994-04-01 20:00","1994","04","01","20:00","4.9","","-5.8","","46","","35","","15","","25.0","","99.69","","","","","","Mostly Cloudy"
"1994-04-01 21:00","1994","04","01","21:00","4.3","","-6.6","","45","","2","","7","","25.0","","99.75","","","","","","Mostly Cloudy"
"1994-04-01 22:00","1994","04","01","22:00","4.0","","-5.9","","48","","36","","9","","25.0","","99.79","","","","","","Mostly Cloudy"
"1994-04-01 23:00","1994","04","01","23:00","2.9","","-5.2","","55","","2","","9","","25.0","","99.75","","","","","","Clear"
"1994-04-02 00:00","1994","04","02","00:00","1.6","","-1.0","","83","","7","","13","","25.0","","99.79","","","","","","Mainly Clear"
"1994-04-02 01:00","1994","04","02","01:00","0.6","","-1.4","","86","","8","","11","","24.1","","99.79","","","","","","Mostly Cloudy"
"1994-04-02 02:00","1994","04","02","02:00","0.8","","-1.0","","88","","9","","15","","19.3","","99.72","","","","","","Mostly Cloudy"
"1994-04-02 03:00","1994","04","02","03:00","1.0","","-1.5","","83","","11","","9","","24.1","","99.72","","","","","","Mostly Cloudy"
"1994-04-02 04:00","1994","04","02","04:00","1.3","","-1.9","","79","","11","","7","","24.1","","99.72","","","","","","Mostly Cloudy"
"1994-04-02 05:00","1994","04","02","05:00","1.3","","-2.1","","78","","6","","13","","25.0","","99.65","","","","","","Mostly Cloudy"
"1994-04-02 06:00","1994","04","02","06:00","1.0","","-1.9","","81","","7","","13","","25.0","","99.62","","","","","","Mostly Cloudy"
"1994-04-02 07:00","1994","04","02","07:00","1.3","","-2.1","","78","","11","","19","","32.2","","99.62","","","","","","Mainly Clear"
"1994-04-02 08:00","1994","04","02","08:00","2.2","","-1.5","","76","","12","","19","","19.3","","99.55","","","","","","Mostly Cloudy"
"1994-04-02 09:00","1994","04","02","09:00","3.2","","-2.0","","69","","12","","15","","16.1","","99.49","","","","","","Mostly Cloudy"
"1994-04-02 10:00","1994","04","02","10:00","4.3","","-0.2","","73","","14","","11","","16.1","","99.42","","","","","","Mostly Cloudy"
"1994-04-02 11:00","1994","04","02","11:00","5.4","","1.0","","73","","16","","15","","12.9","","99.39","","","","","","Mostly Cloudy"
"1994-04-02 12:00","1994","04","02","12:00","7.2","","1.2","","66","","17","","15","","12.9","","99.22","","","","","","Mostly Cloudy"
"1994-04-02 13:00","1994","04","02","13:00","9.5","","1.8","","59","","16","","19","","12.9","","99.09","","","","","","Mostly Cloudy"
"1994-04-02 14:00","1994","04","02","14:00","11.8","","3.5","","57","","16","","26","","12.9","","98.96","","","","","","Mostly Cloudy"
"1994-04-02 15:00","1994","04","02","15:00","13.8","","5.1","","56","","17","","19","","19.3","","98.86","","","","","","Mostly Cloudy"
"1994-04-02 16:00","1994","04","02","16:00","14.0","","3.2","","48","","17","","19","","19.3","","98.72","","","","","","Mostly Cloudy"
"1994-04-02 17:00","1994","04","02","17:00","17.8","","2.6","","36","","23","","33","","19.3","","98.62","","","","","","Mostly Cloudy"
"1994-04-02 18:00","1994","04","02","18:00","16.8","","3.8","","42","","22","","33","","24.1","","98.56","","","","","","Mostly Cloudy"
"1994-04-02 19:00","1994","04","02","19:00","16.0","","4.4","","46","","22","","28","","24.1","","98.49","","","","","","Cloudy"
"1994-04-02 20:00","1994","04","02","20:00","15.1","","4.5","","49","","21","","41","","25.0","","98.42","","","","","","Cloudy"
"1994-04-02 21:00","1994","04","02","21:00","12.8","","7.0","","68","","28","","22","","24.1","","98.56","","","","","","Cloudy"
"1994-04-02 22:00","1994","04","02","22:00","10.6","","7.5","","81","","29","","24","","19.3","","98.69","","","","","","Rain Showers"
"1994-04-02 23:00","1994","04","02","23:00","8.2","","5.6","","84","","30","","15","","24.1","","98.66","","","","","","Mostly Cloudy"
"1994-04-03 00:00","1994","04","03","00:00","6.8","","4.1","","83","","31","","19","","25.0","","98.76","","","","","","Cloudy"
"1994-04-03 01:00","1994","04","03","01:00","5.8","","2.0","","77","","32","","20","","25.0","","98.82","","","","","","Cloudy"
"1994-04-03 02:00","1994","04","03","02:00","4.4","","2.3","","86","","32","","17","","12.9","","98.79","","","","","","Rain Showers"
"1994-04-03 03:00","1994","04","03","03:00","3.5","","1.7","","88","","31","","19","","12.9","","98.79","","","","","","Rain Showers"
"1994-04-03 04:00","1994","04","03","04:00","2.0","","0.6","","90","","32","","20","","8.0","","98.86","","","","","","Rain,Snow"
"1994-04-03 05:00","1994","04","03","05:00","0.7","","0.0","","95","","31","","11","","8.0","","98.89","","","","","","Snow,Fog"
"1994-04-03 06:00","1994","04","03","06:00","0.6","","-0.9","","90","","30","","20","","19.3","","99.06","","","","","","Cloudy"
"1994-04-03 07:00","1994","04","03","07:00","0.6","","-0.9","","90","","34","","26","","24.1","","98.99","","","","","","Cloudy"
"1994-04-03 08:00","1994","04","03","08:00","0.2","","-0.3","","96","","31","","22","","24.1","","99.09","","","","","","Cloudy"
"1994-04-03 09:00","1994","04","03","09:00","0.2","","-2.5","","82","","32","","26","","24.1","","99.12","","","","","","Cloudy"
"1994-04-03 10:00","1994","04","03","10:00","-0.4","","-3.4","","80","","32","","22","","24.1","","99.16","","","","-6","","Cloudy"
"1994-04-03 11:00","1994","04","03","11:00","0.4","","-4.1","","72","","32","","19","","40.2","","99.19","","","","","","Cloudy"
"1994-04-03 12:00","1994","04","03","12:00","0.2","","-4.7","","70","","32","","22","","40.2","","99.19","","","","","","Cloudy"
"1994-04-03 13:00","1994","04","03","13:00","0.7","","-4.9","","66","","35","","19","","40.2","","99.22","","","","","","Cloudy"
"1994-04-03 14:00","1994","04","03","14:00","1.3","","-4.8","","64","","35","","11","","40.2","","99.26","","","","","","Cloudy"
"1994-04-03 15:00","1994","04","03","15:00","1.8","","-6.0","","56","","","","0","","40.2","","99.26","","","","","","Mostly Cloudy"
"1994-04-03 16:00","1994","04","03","16:00","3.8","","-3.2","","60","","","","0","","40.2","","99.29","","","","","","Mostly Cloudy"
"1994-04-03 17:00","1994","04","03","17:00","4.5","","-1.9","","63","","","","0","","40.2","","99.35","","","","","","Mainly Clear"
"1994-04-03 18:00","1994","04","03","18:00","3.4","","-2.6","","65","","18","","11","","40.2","","99.39","","","","","","Mainly Clear"
"1994-04-03 19:00","1994","04","03","19:00","2.4","","-1.5","","75","","27","","19","","40.2","","99.39","","","","","","Clear"
"1994-04-03 20:00","1994","04","03","20:00","1.0","","-1.9","","81","","28","","15","","25.0","","99.49","","","","","","Clear"
"1994-04-03 21:00","1994","04","03","21:00","0.5","","-2.0","","83","","30","","15","","25.0","","99.59","","","","","","Clear"
"1994-04-03 22:00","1994","04","03","22:00","-0.7","","-3.3","","83","","30","","9","","25.0","","99.59","","","","-4","","Clear"
"1994-04-03 23:00","1994","04","03","23:00","-1.4","","-3.3","","87","","27","","9","","25.0","","99.55","","","","-5","","Clear"
"1994-04-04 00:00","1994","04","04","00:00","-1.8","","-3.6","","87","","24","","7","","25.0","","99.55","","","","-4","","Clear"
"1994-04-04 01:00","1994","04","04","01:00","-1.9","","-3.6","","88","","23","","9","","25.0","","99.55","","","","-5","","Clear"
"1994-04-04 02:00","1994","04","04","02:00","-2.2","","-3.3","","92","","23","","13","","16.1","","99.49","","","","-7","","Clear"
"1994-04-04 03:00","1994","04","04","03:00","-2.2","","-3.3","","92","","22","","11","","16.1","","99.52","","","","-6","","Clear"
"1994-04-04 04:00","1994","04","04","04:00","-2.2","","-3.3","","92","","23","","11","","16.1","","99.52","","","","-6","","Clear"
"1994-04-04 05:00","1994","04","04","05:00","-1.4","","-3.0","","89","","21","","15","","16.1","","99.55","","","","-6","","Mainly Clear"
"1994-04-04 06:00","1994","04","04","06:00","-1.5","","-2.8","","91","","20","","15","","8.0","","99.55","","","","-6","","Fog"
"1994-04-04 07:00","1994","04","04","07:00","-0.3","","-2.4","","86","","24","","19","","9.7","","99.62","","","","-5","","Fog"
"1994-04-04 08:00","1994","04","04","08:00","0.6","","-2.5","","80","","25","","15","","12.9","","99.65","","","","","","Mostly Cloudy"
"1994-04-04 09:00","1994","04","04","09:00","2.7","","-2.6","","68","","24","","19","","16.1","","99.62","","","","","","Mostly Cloudy"
"1994-04-04 10:00","1994","04","04","10:00","4.5","","-1.9","","63","","24","","19","","16.1","","99.59","","","","","","Clear"
"1994-04-04 11:00","1994","04","04","11:00","6.7","","-0.5","","60","","24","","22","","19.3","","99.55","","","","","","Clear"
"1994-04-04 12:00","1994","04","04","12:00","8.2","","-1.4","","51","","22","","26","","19.3","","99.45","","","","","","Clear"
"1994-04-04 13:00","1994","04","04","13:00","8.7","","-0.7","","52","","21","","26","","19.3","","99.39","","","","","","Clear"
"1994-04-04 14:00","1994","04","04","14:00","10.0","","-1.5","","45","","23","","22","","19.3","","99.32","","","","","","Mainly Clear"
"1994-04-04 15:00","1994","04","04","15:00","10.0","","-2.1","","43","","23","","26","","24.1","","99.26","","","","","","Clear"
"1994-04-04 16:00","1994","04","04","16:00","10.3","","-2.0","","42","","24","","19","","24.1","","99.22","","","","","","Mainly Clear"
"1994-04-04 17:00","1994","04","04","17:00","9.6","","-2.3","","43","","24","","22","","25.0","","99.19","","","","","","Mainly Clear"
"1994-04-04 18:00","1994","04","04","18:00","8.1","","-3.3","","44","","22","","26","","25.0","","99.22","","","","","","Mostly Cloudy"
"1994-04-04 19:00","1994","04","04","19:00","7.5","","-3.4","","46","","21","","19","","25.0","","99.19","","","","","","Mostly Cloudy"
"1994-04-04 20:00","1994","04","04","20:00","6.7","","-3.5","","48","","21","","15","","25.0","","99.29","","","","","","Cloudy"
"1994-04-04 21:00","1994","04","04","21:00","6.5","","-3.5","","49","","20","","9","","25.0","","99.26","","","","","","Cloudy"
"1994-04-04 22:00","1994","04","04","22:00","6.6","","-4.2","","46","","16","","11","","25.0","","99.19","","","","","","Cloudy"
"1994-04-04 23:00","1994","04","04","23:00","4.5","","-1.3","","66","","14","","13","","25.0","","99.09","","","","","","Cloudy"
"1994-04-05 00:00","1994","04","05","00:00","4.0","","-1.4","","68","","16","","9","","25.0","","99.06","","","","","","Cloudy"
"1994-04-05 01:00","1994","04","05","01:00","4.0","","-1.9","","65","","18","","7","","25.0","","99.09","","","","","","Cloudy"
"1994-04-05 02:00","1994","04","05","02:00","3.5","","-2.0","","67","","","","0","","25.0","","98.99","","","","","","Cloudy"
"1994-04-05 03:00","1994","04","05","03:00","3.0","","-2.0","","70","","","","0","","25.0","","98.92","","","","","","Cloudy"
"1994-04-05 04:00","1994","04","05","04:00","3.0","","-1.5","","72","","14","","7","","25.0","","98.86","","","","","","Cloudy"
"1994-04-05 05:00","1994","04","05","05:00","2.7","","-2.0","","71","","16","","6","","12.9","","98.86","","","","","","Cloudy"
"1994-04-05 06:00","1994","04","05","06:00","3.0","","-1.5","","72","","","","0","","12.9","","98.89","","","","","","Cloudy"
"1994-04-05 07:00","1994","04","05","07:00","3.8","","-0.3","","75","","14","","4","","12.9","","98.86","","","","","","Rain"
"1994-04-05 08:00","1994","04","05","08:00","4.2","","-1.4","","67","","","","0","","12.9","","98.82","","","","","","Cloudy"
"1994-04-05 09:00","1994","04","05","09:00","5.5","","-0.6","","65","","15","","9","","12.9","","98.79","","","","","","Rain"
"1994-04-05 10:00","1994","04","05","10:00","6.4","","2.6","","77","","","","0","","11.3","","98.79","","","","","","Cloudy"
"1994-04-05 11:00","1994","04","05","11:00","7.5","","-0.3","","58","","17","","4","","12.9","","98.79","","","","","","Cloudy"
"1994-04-05 12:00","1994","04","05","12:00","8.8","","0.6","","56","","","","0","","12.9","","98.76","","","","","","Cloudy"
"1994-04-05 13:00","1994","04","05","13:00","9.5","","0.2","","52","","","","0","","12.9","","98.79","","","","","","Cloudy"
"1994-04-05 14:00","1994","04","05","14:00","9.7","","0.7","","53","","","","0","","12.9","","98.79","","","","","","Cloudy"
"1994-04-05 15:00","1994","04","05","15:00","9.2","","2.2","","62","","36","","19","","9.7","","98.82","","","","","","Rain Showers,Haze"
"1994-04-05 16:00","1994","04","05","16:00","8.4","","2.0","","64","","36","","9","","9.7","","98.89","","","","","","Rain Showers,Haze"
"1994-04-05 17:00","1994","04","05","17:00","6.0","","3.9","","86","","36","","22","","4.8","","98.96","","","","","","Rain Showers,Fog"
"1994-04-05 18:00","1994","04","05","18:00","4.0","","2.2","","88","","36","","26","","9.7","","99.02","","","","","","Rain,Fog"
"1994-04-05 19:00","1994","04","05","19:00","2.2","","1.1","","92","","35","","26","","8.0","","99.12","","","","","","Rain,Fog"
"1994-04-05 20:00","1994","04","05","20:00","1.3","","0.5","","94","","35","","19","","9.7","","99.19","","","","","","Rain,Fog"
"1994-04-05 21:00","1994","04","05","21:00","0.9","","0.0","","94","","35","","22","","9.7","","99.19","","","","","","Rain,Fog"
"1994-04-05 22:00","1994","04","05","22:00","0.1","","-0.1","","99","","35","","26","","6.4","","99.22","","","","","","Rain,Snow,Fog"
"1994-04-05 23:00","1994","04","05","23:00","-0.2","","-1.5","","91","","36","","20","","16.1","","99.19","","","","-5","","Cloudy"
"1994-04-06 00:00","1994","04","06","00:00","-0.1","","-0.6","","96","","36","","24","","16.1","","99.19","","","","-6","","Cloudy"
"1994-04-06 01:00","1994","04","06","01:00","-0.3","","-1.3","","93","","36","","28","","16.1","","99.22","","","","-7","","Cloudy"
"1994-04-06 02:00","1994","04","06","02:00","-0.5","","-1.3","","94","","36","","26","","8.0","","99.22","","","","-7","","Snow Showers"
"1994-04-06 03:00","1994","04","06","03:00","-0.8","","-1.1","","98","","36","","30","","3.2","","99.19","","","","-8","","Snow"
"1994-04-06 04:00","1994","04","06","04:00","-0.9","","-1.4","","96","","36","","24","","4.0","","99.19","","","","-7","","Snow"
"1994-04-06 05:00","1994","04","06","05:00","-1.2","","-1.6","","97","","36","","28","","2.4","","99.22","","","","-8","","Snow"
"1994-04-06 06:00","1994","04","06","06:00","-1.5","","-2.2","","95","","36","","28","","2.4","","99.26","","","","-8","","Snow"
"1994-04-06 07:00","1994","04","06","07:00","-1.7","","-2.2","","96","","36","","26","","1.2","","99.32","","","","-8","","Snow,Fog"
"1994-04-06 08:00","1994","04","06","08:00","-1.7","","-2.8","","92","","36","","26","","1.0","","99.32","","","","-8","","Snow,Fog"
"1994-04-06 09:00","1994","04","06","09:00","-2.0","","-2.5","","96","","36","","22","","0.8","","99.32","","","","-8","","Snow,Fog"
"1994-04-06 10:00","1994","04","06","10:00","-2.0","","-2.8","","94","","36","","20","","1.0","","99.32","","","","-8","","Snow,Fog"
"1994-04-06 11:00","1994","04","06","11:00","-1.8","","-2.8","","93","","36","","22","","1.6","","99.32","","","","-8","","Snow,Fog"
"1994-04-06 12:00","1994","04","06","12:00","-1.0","","-3.8","","81","","36","","24","","11.3","","99.29","","","","-7","","Snow"
"1994-04-06 13:00","1994","04","06","13:00","-1.3","","-3.6","","84","","36","","28","","3.2","","99.29","","","","-8","","Snow"
"1994-04-06 14:00","1994","04","06","14:00","-1.5","","-3.0","","89","","36","","28","","3.2","","99.16","","","","-8","","Snow,Fog"
"1994-04-06 15:00","1994","04","06","15:00","-1.2","","-3.0","","88","","1","","28","","19.3","","99.06","","","","-8","","Cloudy"
"1994-04-06 16:00","1994","04","06","16:00","0.0","","-3.2","","79","","2","","15","","40.2","","99.19","","","","-4","","Cloudy"
"1994-04-06 17:00","1994","04","06","17:00","0.3","","-3.6","","75","","1","","19","","40.2","","99.19","","","","","","Cloudy"
"1994-04-06 18:00","1994","04","06","18:00","0.4","","-2.6","","80","","2","","15","","2.4","","99.29","","","","","","Snow"
"1994-04-06 19:00","1994","04","06","19:00","-1.1","","-1.6","","96","","1","","19","","2.0","","99.26","","","","-6","","Snow"
"1994-04-06 20:00","1994","04","06","20:00","-1.0","","-1.6","","96","","2","","22","","1.6","","99.26","","","","-7","","Snow"
"1994-04-06 21:00","1994","04","06","21:00","-1.0","","-1.6","","96","","1","","17","","2.4","","99.29","","","","-6","","Snow"
"1994-04-06 22:00","1994","04","06","22:00","-1.0","","-1.6","","96","","3","","19","","2.4","","99.19","","","","-6","","Snow"
"1994-04-06 23:00","1994","04","06","23:00","-1.3","","-2.5","","92","","2","","22","","4.8","","99.16","","","","-7","","Snow"
"1994-04-07 00:00","1994","04","07","00:00","-1.5","","-3.0","","89","","2","","20","","2.4","","99.22","","","","-7","","Snow"
"1994-04-07 01:00","1994","04","07","01:00","-1.3","","-3.3","","86","","2","","17","","11.3","","99.22","","","","-6","","Snow"
"1994-04-07 02:00","1994","04","07","02:00","-0.6","","-2.9","","84","","2","","24","","9.7","","99.19","","","","-7","","Snow"
"1994-04-07 03:00","1994","04","07","03:00","-0.8","","-2.7","","87","","33","","17","","25.0","","99.22","","","","-6","","Mostly Cloudy"
"1994-04-07 04:00","1994","04","07","04:00","-1.0","","-2.7","","88","","34","","20","","25.0","","99.32","","","","-7","","Mostly Cloudy"
"1994-04-07 05:00","1994","04","07","05:00","-2.0","","-6.0","","74","","34","","22","","25.0","","99.39","","","","-8","","Mostly Cloudy"
"1994-04-07 06:00","1994","04","07","06:00","-2.5","","-7.0","","71","","33","","24","","40.2","","99.49","","","","-9","","Mostly Cloudy"
"1994-04-07 07:00","1994","04","07","07:00","-3.5","","-8.0","","71","","32","","20","","40.2","","99.65","","","","-10","","Mostly Cloudy"
"1994-04-07 08:00","1994","04","07","08:00","-3.2","","-6.4","","79","","32","","26","","40.2","","99.72","","","","-10","","Mostly Cloudy"
"1994-04-07 09:00","1994","04","07","09:00","-1.8","","-7.4","","66","","35","","24","","40.2","","99.79","","","","-8","","Mainly Clear"
"1994-04-07 10:00","1994","04","07","10:00","-0.8","","-4.7","","75","","32","","32","","40.2","","99.85","","","","-8","","Mainly Clear"
"1994-04-07 11:00","1994","04","07","11:00","0.2","","-5.3","","66","","34","","32","","40.2","","99.92","","","","","","Mainly Clear"
"1994-04-07 12:00","1994","04","07","12:00","1.0","","-5.0","","64","","34","","33","","40.2","","99.95","","","","","","Mainly Clear"
"1994-04-07 13:00","1994","04","07","13:00","1.7","","-4.1","","65","","34","","26","","40.2","","99.99","","","","","","Clear"
"1994-04-07 14:00","1994","04","07","14:00","2.4","","-3.9","","63","","31","","24","","40.2","","100.05","","","","","","Clear"
"1994-04-07 15:00","1994","04","07","15:00","3.0","","-3.8","","61","","32","","20","","40.2","","100.09","","","","","","Clear"
"1994-04-07 16:00","1994","04","07","16:00","3.0","","-2.0","","70","","32","","24","","40.2","","100.15","","","","","","Clear"
"1994-04-07 17:00","1994","04","07","17:00","2.4","","-1.5","","75","","34","","26","","40.2","","100.25","","","","","","Clear"
"1994-04-07 18:00","1994","04","07","18:00","1.6","","-2.1","","76","","35","","24","","40.2","","100.35","","","","","","Clear"
"1994-04-07 19:00","1994","04","07","19:00","0.4","","-9.0","","49","","34","","24","","40.2","","100.42","","","","","","Clear"
"1994-04-07 20:00","1994","04","07","20:00","-1.1","","-8.9","","55","","32","","17","","25.0","","100.52","","","","-6","","Clear"
"1994-04-07 21:00","1994","04","07","21:00","-1.1","","-11.0","","47","","30","","11","","25.0","","100.59","","","","-5","","Clear"
"1994-04-07 22:00","1994","04","07","22:00","-2.2","","-8.5","","62","","30","","17","","25.0","","100.65","","","","-8","","Clear"
"1994-04-07 23:00","1994","04","07","23:00","-2.5","","-7.7","","67","","29","","9","","25.0","","100.72","","","","-6","","Clear"
"1994-04-08 00:00","1994","04","08","00:00","-3.1","","-7.0","","74","","","","0","","25.0","","100.79","","","","","","Clear"
"1994-04-08 01:00","1994","04","08","01:00","-4.1","","-8.3","","73","","32","","11","","25.0","","100.79","","","","-9","","Clear"
"1994-04-08 02:00","1994","04","08","02:00","-3.6","","-7.3","","75","","33","","6","","25.0","","100.79","","","","-6","","Clear"
"1994-04-08 03:00","1994","04","08","03:00","-4.0","","-8.0","","74","","35","","4","","25.0","","100.82","","","","-6","","Clear"
"1994-04-08 04:00","1994","04","08","04:00","-5.6","","-9.6","","73","","33","","7","","25.0","","100.89","","","","-9","","Clear"
"1994-04-08 05:00","1994","04","08","05:00","-4.5","","-8.7","","72","","28","","6","","25.0","","100.95","","","","-7","","Clear"
"1994-04-08 06:00","1994","04","08","06:00","-5.0","","-8.9","","74","","31","","7","","40.2","","101.05","","","","-8","","Clear"
"1994-04-08 07:00","1994","04","08","07:00","-2.4","","-9.2","","60","","","","0","","40.2","","101.09","","","","","","Clear"
"1994-04-08 08:00","1994","04","08","08:00","-1.3","","-6.0","","70","","","","0","","24.1","","101.12","","","","","","Clear"
"1994-04-08 09:00","1994","04","08","09:00","2.5","","-3.9","","63","","","","0","","24.1","","101.12","","","","","","Clear"
"1994-04-08 10:00","1994","04","08","10:00","4.3","","-1.9","","64","","21","","9","","24.1","","101.12","","","","","","Clear"
"1994-04-08 11:00","1994","04","08","11:00","5.5","","-1.2","","62","","19","","13","","40.2","","101.09","","","","","","Mainly Clear"
"1994-04-08 12:00","1994","04","08","12:00","6.2","","-1.7","","57","","19","","15","","40.2","","101.05","","","","","","Mainly Clear"
"1994-04-08 13:00","1994","04","08","13:00","5.8","","-2.3","","56","","17","","15","","40.2","","100.99","","","","","","Mostly Cloudy"
"1994-04-08 14:00","1994","04","08","14:00","6.0","","-2.3","","55","","17","","20","","40.2","","100.92","","","","","","Mostly Cloudy"
"1994-04-08 15:00","1994","04","08","15:00","5.8","","-1.7","","59","","16","","19","","40.2","","100.85","","","","","","Mostly Cloudy"
"1994-04-08 16:00","1994","04","08","16:00","5.8","","-2.3","","56","","16","","19","","40.2","","100.75","","","","","","Mostly Cloudy"
"1994-04-08 17:00","1994","04","08","17:00","5.0","","-2.4","","59","","13","","19","","40.2","","100.65","","","","","","Cloudy"
"1994-04-08 18:00","1994","04","08","18:00","4.5","","-2.5","","60","","15","","15","","40.2","","100.59","","","","","","Cloudy"
"1994-04-08 19:00","1994","04","08","19:00","3.5","","-3.2","","61","","14","","9","","32.2","","100.55","","","","","","Cloudy"
"1994-04-08 20:00","1994","04","08","20:00","3.1","","-3.8","","60","","11","","15","","25.0","","100.49","","","","","","Cloudy"
"1994-04-08 21:00","1994","04","08","21:00","3.3","","-2.6","","65","","16","","4","","25.0","","100.59","","","","","","Cloudy"
"1994-04-08 22:00","1994","04","08","22:00","3.1","","-3.2","","63","","10","","22","","25.0","","100.39","","","","","","Cloudy"
"1994-04-08 23:00","1994","04","08","23:00","3.0","","-3.8","","61","","12","","9","","25.0","","100.39","","","","","","Mostly Cloudy"
"1994-04-09 00:00","1994","04","09","00:00","2.6","","-3.2","","66","","11","","15","","25.0","","100.19","","","","","","Mostly Cloudy"
"1994-04-09 01:00","1994","04","09","01:00","2.4","","-2.6","","70","","11","","11","","25.0","","100.09","","","","","","Mostly Cloudy"
"1994-04-09 02:00","1994","04","09","02:00","1.8","","-3.4","","68","","","","0","","25.0","","100.05","","","","","","Mostly Cloudy"
"1994-04-09 03:00","1994","04","09","03:00","1.8","","-3.2","","69","","","","0","","25.0","","99.92","","","","","","Cloudy"
"1994-04-09 04:00","1994","04","09","04:00","2.3","","-2.6","","70","","10","","6","","25.0","","99.85","","","","","","Cloudy"
"1994-04-09 05:00","1994","04","09","05:00","2.3","","-2.0","","73","","11","","6","","25.0","","99.75","","","","","","Cloudy"
"1994-04-09 06:00","1994","04","09","06:00","2.6","","-1.5","","74","","13","","6","","24.1","","99.69","","","","","","Cloudy"
"1994-04-09 07:00","1994","04","09","07:00","3.2","","-1.5","","71","","13","","6","","24.1","","99.62","","","","","","Cloudy"
"1994-04-09 08:00","1994","04","09","08:00","4.7","","-1.9","","62","","15","","9","","24.1","","99.55","","","","","","Rain"
"1994-04-09 09:00","1994","04","09","09:00","5.6","","-1.2","","62","","18","","11","","24.1","","99.52","","","","","","Cloudy"
"1994-04-09 10:00","1994","04","09","10:00","6.8","","0.2","","63","","20","","11","","25.0","","99.49","","","","","","Cloudy"
"1994-04-09 11:00","1994","04","09","11:00","7.9","","0.4","","59","","20","","19","","32.2","","99.45","","","","","","Mostly Cloudy"
"1994-04-09 12:00","1994","04","09","12:00","10.4","","2.0","","56","","22","","44","","40.2","","99.32","","","","","","Mainly Clear"
"1994-04-09 13:00","1994","04","09","13:00","14.8","","4.5","","50","","22","","37","","40.2","","99.19","","","","","","Mainly Clear"
"1994-04-09 14:00","1994","04","09","14:00","16.2","","6.5","","53","","23","","37","","40.2","","99.12","","","","","","Mainly Clear"
"1994-04-09 15:00","1994","04","09","15:00","16.4","","5.6","","49","","23","","33","","40.2","","99.06","","","","","","Mostly Cloudy"
"1994-04-09 16:00","1994","04","09","16:00","16.0","","5.4","","49","","23","","33","","32.2","","99.02","","","","","","Mostly Cloudy"
"1994-04-09 17:00","1994","04","09","17:00","15.1","","5.0","","51","","22","","26","","25.0","","99.09","","","","","","Cloudy"
"1994-04-09 18:00","1994","04","09","18:00","15.0","","5.5","","53","","22","","30","","25.0","","99.06","","","","","","Cloudy"
"1994-04-09 19:00","1994","04","09","19:00","14.4","","5.5","","55","","22","","28","","25.0","","99.09","","","","","","Cloudy"
"1994-04-09 20:00","1994","04","09","20:00","14.0","","5.6","","57","","25","","26","","25.0","","99.16","","","","","","Cloudy"
"1994-04-09 21:00","1994","04","09","21:00","13.6","","5.9","","60","","24","","26","","25.0","","99.16","","","","","","Mostly Cloudy"
"1994-04-09 22:00","1994","04","09","22:00","12.3","","5.1","","61","","25","","30","","25.0","","99.16","","","","","","Mostly Cloudy"
"1994-04-09 23:00","1994","04","09","23:00","11.9","","7.9","","76","","22","","22","","25.0","","99.16","","","","","","Mostly Cloudy"
"1994-04-10 00:00","1994","04","10","00:00","10.6","","6.7","","77","","24","","15","","25.0","","99.09","","","","","","Cloudy"
"1994-04-10 01:00","1994","04","10","01:00","10.4","","7.5","","82","","21","","9","","25.0","","99.12","","","","","","Cloudy"
"1994-04-10 02:00","1994","04","10","02:00","9.2","","5.9","","80","","23","","9","","25.0","","99.12","","","","","","Cloudy"
"1994-04-10 03:00","1994","04","10","03:00","8.6","","6.6","","87","","30","","11","","16.1","","99.09","","","","","","Cloudy"
"1994-04-10 04:00","1994","04","10","04:00","6.7","","1.6","","70","","34","","15","","24.1","","99.16","","","","","","Cloudy"
"1994-04-10 05:00","1994","04","10","05:00","5.2","","0.9","","74","","34","","9","","25.0","","99.22","","","","","","Mostly Cloudy"
"1994-04-10 06:00","1994","04","10","06:00","4.0","","0.0","","75","","33","","9","","25.0","","99.29","","","","","","Mostly Cloudy"
"1994-04-10 07:00","1994","04","10","07:00","4.7","","-0.2","","70","","33","","19","","25.0","","99.29","","","","","","Mostly Cloudy"
"1994-04-10 08:00","1994","04","10","08:00","5.8","","0.5","","69","","33","","26","","32.2","","99.32","","","","","","Mostly Cloudy"
"1994-04-10 09:00","1994","04","10","09:00","7.0","","0.7","","64","","36","","19","","32.2","","99.35","","","","","","Mostly Cloudy"
"1994-04-10 10:00","1994","04","10","10:00","8.5","","1.0","","59","","32","","26","","32.2","","99.39","","","","","","Mostly Cloudy"
"1994-04-10 11:00","1994","04","10","11:00","9.6","","1.3","","56","","33","","30","","40.2","","99.42","","","","","","Mostly Cloudy"
"1994-04-10 12:00","1994","04","10","12:00","10.8","","1.1","","51","","34","","30","","40.2","","99.45","","","","","","Mostly Cloudy"
"1994-04-10 13:00","1994","04","10","13:00","12.0","","1.4","","48","","31","","30","","40.2","","99.49","","","","","","Mostly Cloudy"
"1994-04-10 14:00","1994","04","10","14:00","12.8","","1.2","","45","","32","","26","","40.2","","99.52","","","","","","Mainly Clear"
"1994-04-10 15:00","1994","04","10","15:00","13.6","","0.8","","42","","33","","30","","40.2","","99.59","","","","","","Mainly Clear"
"1994-04-10 16:00","1994","04","10","16:00","11.8","","0.9","","47","","32","","28","","40.2","","99.65","","","","","","Clear"
"1994-04-10 17:00","1994","04","10","17:00","10.3","","-0.2","","48","","32","","33","","40.2","","99.82","","","","","","Clear"
"1994-04-10 18:00","1994","04","10","18:00","8.8","","0.0","","54","","31","","28","","40.2","","100.02","","","","","","Clear"
"1994-04-10 19:00","1994","04","10","19:00","6.8","","0.2","","63","","31","","28","","40.2","","100.15","","","","","","Clear"
"1994-04-10 20:00","1994","04","10","20:00","5.8","","-1.1","","61","","31","","24","","25.0","","100.25","","","","","","Clear"
"1994-04-10 21:00","1994","04","10","21:00","4.6","","-1.9","","63","","32","","22","","25.0","","100.35","","","","","","Clear"
"1994-04-10 22:00","1994","04","10","22:00","3.8","","-1.9","","66","","32","","19","","25.0","","100.39","","","","","","Clear"
"1994-04-10 23:00","1994","04","10","23:00","2.8","","-2.0","","71","","31","","13","","25.0","","100.52","","","","","","Clear"
"1994-04-11 00:00","1994","04","11","00:00","0.6","","-3.1","","76","","33","","9","","25.0","","100.59","","","","","","Clear"
"1994-04-11 01:00","1994","04","11","01:00","1.0","","-3.0","","75","","33","","6","","25.0","","100.69","","","","","","Clear"
"1994-04-11 02:00","1994","04","11","02:00","0.3","","-2.8","","80","","33","","15","","25.0","","100.75","","","","","","Clear"
"1994-04-11 03:00","1994","04","11","03:00","0.2","","-2.9","","80","","33","","15","","25.0","","100.85","","","","","","Mainly Clear"
"1994-04-11 04:00","1994","04","11","04:00","0.1","","-3.0","","80","","32","","15","","25.0","","100.92","","","","","","Mainly Clear"
"1994-04-11 05:00","1994","04","11","05:00","-0.1","","-3.9","","76","","34","","11","","25.0","","100.95","","","","-4","","Mainly Clear"
"1994-04-11 06:00","1994","04","11","06:00","0.0","","-4.0","","74","","33","","7","","40.2","","101.09","","","","-2","","Mainly Clear"
"1994-04-11 07:00","1994","04","11","07:00","1.0","","-1.9","","81","","33","","11","","40.2","","101.15","","","","","","Cloudy"
"1994-04-11 08:00","1994","04","11","08:00","2.7","","-3.2","","65","","36","","11","","40.2","","101.25","","","","","","Cloudy"
"1994-04-11 09:00","1994","04","11","09:00","4.0","","-4.5","","54","","2","","13","","40.2","","101.29","","","","","","Mostly Cloudy"
"1994-04-11 10:00","1994","04","11","10:00","5.4","","-4.3","","50","","36","","13","","40.2","","101.32","","","","","","Cloudy"
"1994-04-11 11:00","1994","04","11","11:00","7.5","","-4.0","","44","","1","","13","","40.2","","101.29","","","","","","Cloudy"
"1994-04-11 12:00","1994","04","11","12:00","7.0","","-4.8","","43","","15","","11","","40.2","","101.29","","","","","","Cloudy"
"1994-04-11 13:00","1994","04","11","13:00","9.0","","-3.7","","41","","15","","4","","40.2","","101.22","","","","","","Mostly Cloudy"
"1994-04-11 14:00","1994","04","11","14:00","9.0","","-3.0","","43","","16","","9","","40.2","","101.19","","","","","","Cloudy"
"1994-04-11 15:00","1994","04","11","15:00","9.0","","-3.0","","43","","16","","11","","40.2","","101.12","","","","","","Cloudy"
"1994-04-11 16:00","1994","04","11","16:00","7.5","","-4.0","","44","","14","","13","","40.2","","101.12","","","","","","Cloudy"
"1994-04-11 17:00","1994","04","11","17:00","7.3","","-4.0","","44","","16","","13","","40.2","","101.09","","","","","","Cloudy"
"1994-04-11 18:00","1994","04","11","18:00","7.3","","-8.0","","33","","15","","11","","32.2","","101.05","","","","","","Cloudy"
"1994-04-11 19:00","1994","04","11","19:00","5.6","","-7.3","","39","","15","","6","","25.0","","101.02","","","","","","Cloudy"
"1994-04-11 20:00","1994","04","11","20:00","5.0","","-8.2","","38","","","","0","","25.0","","101.05","","","","","","Cloudy"
"1994-04-11 21:00","1994","04","11","21:00","5.0","","-8.2","","38","","6","","6","","25.0","","101.02","","","","","","Cloudy"
"1994-04-11 22:00","1994","04","11","22:00","5.0","","-7.4","","40","","6","","7","","25.0","","100.92","","","","","","Cloudy"
"1994-04-11 23:00","1994","04","11","23:00","4.1","","-7.4","","43","","5","","9","","25.0","","100.89","","","","","","Cloudy"
"1994-04-12 00:00","1994","04","12","00:00","4.2","","-7.4","","43","","","","0","","25.0","","100.89","","","","","","Cloudy"
"1994-04-12 01:00","1994","04","12","01:00","3.6","","-5.9","","50","","","","0","","25.0","","100.75","","","","","","Cloudy"
"1994-04-12 02:00","1994","04","12","02:00","3.6","","-5.9","","50","","","","0","","25.0","","100.69","","","","","","Cloudy"
"1994-04-12 03:00","1994","04","12","03:00","2.7","","-5.2","","56","","","","0","","25.0","","100.55","","","","","","Cloudy"
"1994-04-12 04:00","1994","04","12","04:00","0.5","","-3.7","","73","","","","0","","25.0","","100.59","","","","","","Cloudy"
"1994-04-12 05:00","1994","04","12","05:00","3.0","","-5.0","","56","","","","0","","25.0","","100.52","","","","","","Cloudy"
"1994-04-12 06:00","1994","04","12","06:00","2.0","","-5.0","","60","","4","","6","","40.2","","100.49","","","","","","Cloudy"
"1994-04-12 07:00","1994","04","12","07:00","4.5","","-4.4","","52","","8","","7","","40.2","","100.49","","","","","","Cloudy"
"1994-04-12 08:00","1994","04","12","08:00","6.1","","-2.9","","52","","7","","13","","32.2","","100.45","","","","","","Cloudy"
"1994-04-12 09:00","1994","04","12","09:00","8.1","","-1.9","","49","","10","","15","","32.2","","100.39","","","","","","Cloudy"
"1994-04-12 10:00","1994","04","12","10:00","7.7","","-2.1","","50","","9","","20","","32.2","","100.29","","","","","","Cloudy"
"1994-04-12 11:00","1994","04","12","11:00","7.4","","-0.3","","58","","9","","17","","32.2","","100.32","","","","","","Cloudy"
"1994-04-12 12:00","1994","04","12","12:00","7.5","","0.8","","62","","8","","13","","24.1","","100.25","","","","","","Cloudy"
"1994-04-12 13:00","1994","04","12","13:00","6.6","","3.1","","78","","9","","15","","8.0","","100.12","","","","","","Rain,Haze"
"1994-04-12 14:00","1994","04","12","14:00","6.0","","4.3","","89","","8","","9","","9.7","","100.05","","","","","","Rain,Fog"
"1994-04-12 15:00","1994","04","12","15:00","6.1","","4.8","","91","","9","","20","","9.7","","99.89","","","","","","Fog"
"1994-04-12 16:00","1994","04","12","16:00","6.7","","4.9","","88","","10","","19","","9.7","","99.85","","","","","","Fog"
"1994-04-12 17:00","1994","04","12","17:00","6.7","","5.3","","91","","11","","17","","9.7","","99.72","","","","","","Rain,Fog"
"1994-04-12 18:00","1994","04","12","18:00","6.5","","6.1","","97","","11","","17","","4.0","","99.65","","","","","","Rain,Fog"
"1994-04-12 19:00","1994","04","12","19:00","6.1","","5.6","","97","","8","","22","","4.0","","99.52","","","","","","Rain,Fog"
"1994-04-12 20:00","1994","04","12","20:00","5.6","","5.1","","97","","8","","22","","4.8","","99.49","","","","","","Rain,Fog"
"1994-04-12 21:00","1994","04","12","21:00","5.4","","5.1","","98","","8","","19","","4.8","","99.42","","","","","","Rain,Fog"
"1994-04-12 22:00","1994","04","12","22:00","5.1","","4.6","","97","","9","","24","","3.2","","99.29","","","","","","Rain,Fog"
"1994-04-12 23:00","1994","04","12","23:00","4.9","","4.6","","98","","9","","19","","4.8","","99.19","","","","","","Fog"
"1994-04-13 00:00","1994","04","13","00:00","5.0","","5.0","","100","","9","","19","","2.4","","99.16","","","","","","Fog"
"1994-04-13 01:00","1994","04","13","01:00","5.0","","5.0","","100","","9","","13","","1.6","","99.06","","","","","","Fog"
"1994-04-13 02:00","1994","04","13","02:00","4.9","","4.6","","98","","10","","15","","4.0","","98.99","","","","","","Fog"
"1994-04-13 03:00","1994","04","13","03:00","5.0","","4.6","","97","","12","","11","","4.0","","98.96","","","","","","Rain Showers,Fog"
"1994-04-13 04:00","1994","04","13","04:00","5.0","","4.6","","97","","10","","24","","3.2","","98.76","","","","","","Rain,Fog"
"1994-04-13 05:00","1994","04","13","05:00","4.9","","4.6","","98","","10","","24","","2.4","","98.56","","","","","","Rain Showers,Fog"
"1994-04-13 06:00","1994","04","13","06:00","5.5","","5.5","","100","","","","0","","2.0","","98.59","","","","","","Fog"
"1994-04-13 07:00","1994","04","13","07:00","6.0","","6.0","","100","","7","","11","","2.4","","98.49","","","","","","Fog"
"1994-04-13 08:00","1994","04","13","08:00","6.9","","6.9","","100","","11","","13","","0.2","","98.46","","","","","","Fog"
"1994-04-13 09:00","1994","04","13","09:00","7.5","","7.5","","100","","9","","11","","0.2","","98.36","","","","","","Fog"
"1994-04-13 10:00","1994","04","13","10:00","8.5","","8.5","","100","","11","","13","","1.6","","98.26","","","","","","Fog"
"1994-04-13 11:00","1994","04","13","11:00","11.0","","10.3","","95","","14","","6","","4.0","","98.16","","","","","","Fog"
"1994-04-13 12:00","1994","04","13","12:00","12.8","","10.6","","86","","19","","4","","6.4","","98.02","","","","","","Haze"
"1994-04-13 13:00","1994","04","13","13:00","13.2","","10.9","","86","","24","","13","","9.7","","97.96","","","","","","Thunderstorms,Haze"
"1994-04-13 14:00","1994","04","13","14:00","13.0","","9.1","","77","","30","","28","","24.1","","97.96","","","","","","Rain"
"1994-04-13 15:00","1994","04","13","15:00","11.2","","7.2","","76","","28","","17","","32.2","","97.96","","","","","","Cloudy"
"1994-04-13 16:00","1994","04","13","16:00","11.0","","7.2","","77","","26","","19","","40.2","","97.99","","","","","","Rain Showers"
"1994-04-13 17:00","1994","04","13","17:00","11.6","","6.1","","69","","24","","19","","32.2","","98.06","","","","","","Mostly Cloudy"
"1994-04-13 18:00","1994","04","13","18:00","10.6","","5.8","","72","","24","","19","","32.2","","98.06","","","","","","Rain Showers"
"1994-04-13 19:00","1994","04","13","19:00","9.6","","6.4","","80","","22","","22","","19.3","","98.06","","","","","","Rain Showers"
"1994-04-13 20:00","1994","04","13","20:00","8.6","","6.1","","84","","23","","22","","19.3","","98.09","","","","","","Rain Showers"
"1994-04-13 21:00","1994","04","13","21:00","8.2","","5.6","","84","","24","","22","","24.1","","98.19","","","","","","Mostly Cloudy"
"1994-04-13 22:00","1994","04","13","22:00","7.9","","5.2","","83","","25","","22","","25.0","","98.22","","","","","","Mostly Cloudy"
"1994-04-13 23:00","1994","04","13","23:00","7.3","","4.6","","83","","23","","20","","25.0","","98.26","","","","","","Mostly Cloudy"
"1994-04-14 00:00","1994","04","14","00:00","7.2","","4.5","","83","","23","","20","","25.0","","98.26","","","","","","Cloudy"
"1994-04-14 01:00","1994","04","14","01:00","7.4","","4.6","","82","","24","","24","","25.0","","98.26","","","","","","Mostly Cloudy"
"1994-04-14 02:00","1994","04","14","02:00","7.1","","4.1","","81","","23","","20","","25.0","","98.29","","","","","","Mostly Cloudy"
"1994-04-14 03:00","1994","04","14","03:00","7.5","","4.6","","82","","24","","22","","25.0","","98.32","","","","","","Mostly Cloudy"
"1994-04-14 04:00","1994","04","14","04:00","7.5","","5.1","","85","","23","","20","","25.0","","98.39","","","","","","Cloudy"
"1994-04-14 05:00","1994","04","14","05:00","7.6","","5.5","","87","","22","","22","","4.8","","98.42","","","","","","Drizzle,Fog"
"1994-04-14 06:00","1994","04","14","06:00","7.7","","5.9","","88","","22","","20","","4.8","","98.49","","","","","","Drizzle,Fog"
"1994-04-14 07:00","1994","04","14","07:00","8.0","","6.0","","87","","23","","17","","9.7","","98.56","","","","","","Fog"
"1994-04-14 08:00","1994","04","14","08:00","9.0","","6.7","","85","","24","","22","","8.0","","98.59","","","","","","Haze"
"1994-04-14 09:00","1994","04","14","09:00","9.0","","6.3","","83","","23","","22","","9.7","","98.66","","","","","","Haze"
"1994-04-14 10:00","1994","04","14","10:00","8.7","","5.7","","81","","22","","28","","11.3","","98.69","","","","","","Cloudy"
"1994-04-14 11:00","1994","04","14","11:00","9.5","","7.2","","86","","24","","28","","11.3","","98.76","","","","","","Cloudy"
"1994-04-14 12:00","1994","04","14","12:00","11.0","","7.2","","77","","25","","28","","12.9","","98.69","","","","","","Mostly Cloudy"
"1994-04-14 13:00","1994","04","14","13:00","11.0","","7.2","","77","","25","","24","","12.9","","98.76","","","","","","Cloudy"
"1994-04-14 14:00","1994","04","14","14:00","12.0","","7.1","","72","","28","","28","","12.9","","98.79","","","","","","Mostly Cloudy"
"1994-04-14 15:00","1994","04","14","15:00","14.8","","8.1","","64","","28","","17","","16.1","","98.76","","","","","","Clear"
"1994-04-14 16:00","1994","04","14","16:00","15.6","","7.9","","60","","26","","17","","19.3","","98.79","","","","","","Clear"
"1994-04-14 17:00","1994","04","14","17:00","16.4","","6.5","","52","","27","","17","","32.2","","98.89","","","","","","Clear"
"1994-04-14 18:00","1994","04","14","18:00","15.6","","7.9","","60","","24","","15","","32.2","","98.96","","","","","","Clear"
"1994-04-14 19:00","1994","04","14","19:00","14.5","","8.8","","69","","21","","7","","32.2","","99.02","","","","","","Clear"
"1994-04-14 20:00","1994","04","14","20:00","13.4","","8.0","","70","","21","","7","","25.0","","99.09","","","","","","Clear"
"1994-04-14 21:00","1994","04","14","21:00","12.5","","7.3","","71","","","","0","","25.0","","99.16","","","","","","Clear"
"1994-04-14 22:00","1994","04","14","22:00","11.5","","7.0","","74","","","","0","","25.0","","99.16","","","","","","Clear"
"1994-04-14 23:00","1994","04","14","23:00","8.9","","6.3","","84","","","","0","","12.9","","99.22","","","","","","Clear"
"1994-04-15 00:00","1994","04","15","00:00","7.4","","5.5","","88","","","","0","","12.9","","99.26","","","","","","Clear"
"1994-04-15 01:00","1994","04","15","01:00","6.1","","4.3","","88","","","","0","","12.9","","99.22","","","","","","Clear"
"1994-04-15 02:00","1994","04","15","02:00","5.8","","4.3","","90","","","","0","","8.0","","99.16","","","","","","Fog"
"1994-04-15 03:00","1994","04","15","03:00","5.8","","4.3","","90","","","","0","","8.0","","99.16","","","","","","Fog"
"1994-04-15 04:00","1994","04","15","04:00","4.8","","4.2","","96","","","","0","","6.4","","99.16","","","","","","Fog"
"1994-04-15 05:00","1994","04","15","05:00","3.0","","2.6","","97","","","","0","","4.8","","99.16","","","","","","Fog"
"1994-04-15 06:00","1994","04","15","06:00","5.0","","4.2","","95","","","","0","","4.0","","99.16","","","","","","Fog"
"1994-04-15 07:00","1994","04","15","07:00","7.0","","5.0","","87","","7","","13","","4.0","","99.16","","","","","","Fog"
"1994-04-15 08:00","1994","04","15","08:00","9.4","","6.0","","79","","16","","11","","8.0","","99.16","","","","","","Haze"
"1994-04-15 09:00","1994","04","15","09:00","12.0","","6.3","","68","","12","","7","","9.7","","99.02","","","","","","Haze"
"1994-04-15 10:00","1994","04","15","10:00","14.6","","4.8","","52","","14","","11","","9.7","","98.99","","","","","","Haze"
"1994-04-15 11:00","1994","04","15","11:00","15.3","","7.5","","60","","15","","19","","12.9","","98.89","","","","","","Mostly Cloudy"
"1994-04-15 12:00","1994","04","15","12:00","16.6","","8.3","","58","","16","","19","","12.9","","98.69","","","","","","Mostly Cloudy"
"1994-04-15 13:00","1994","04","15","13:00","17.8","","9.7","","59","","15","","22","","16.1","","98.59","","","","","","Mostly Cloudy"
"1994-04-15 14:00","1994","04","15","14:00","19.4","","7.8","","47","","14","","26","","12.9","","98.49","","","","","","Mostly Cloudy"
"1994-04-15 15:00","1994","04","15","15:00","20.3","","8.3","","46","","11","","26","","19.3","","98.32","","","","","","Cloudy"
"1994-04-15 16:00","1994","04","15","16:00","18.6","","6.4","","45","","16","","19","","19.3","","98.26","","","","","","Cloudy"
"1994-04-15 17:00","1994","04","15","17:00","14.8","","6.9","","59","","18","","9","","16.1","","98.19","","","","","","Rain Showers"
"1994-04-15 18:00","1994","04","15","18:00","13.8","","6.5","","61","","15","","15","","19.3","","98.19","","","","","","Cloudy"
"1994-04-15 19:00","1994","04","15","19:00","15.6","","8.3","","62","","18","","24","","19.3","","98.09","","","","","","Mostly Cloudy"
"1994-04-15 20:00","1994","04","15","20:00","16.6","","9.9","","65","","19","","32","","19.3","","98.16","","","","","","Mostly Cloudy"
"1994-04-15 21:00","1994","04","15","21:00","16.8","","12.0","","73","","19","","33","","24.1","","98.06","","","","","","Cloudy"
"1994-04-15 22:00","1994","04","15","22:00","17.0","","12.0","","72","","20","","33","","25.0","","97.89","","","","","","Cloudy"
"1994-04-15 23:00","1994","04","15","23:00","17.0","","12.4","","74","","21","","35","","25.0","","97.89","","","","","","Cloudy"
"1994-04-16 00:00","1994","04","16","00:00","14.6","","10.3","","75","","23","","37","","24.1","","97.96","","","","","","Cloudy"
"1994-04-16 01:00","1994","04","16","01:00","12.6","","6.9","","68","","26","","19","","25.0","","98.06","","","","","","Cloudy"
"1994-04-16 02:00","1994","04","16","02:00","11.5","","3.3","","57","","26","","33","","19.3","","97.92","","","","","","Rain Showers"
"1994-04-16 03:00","1994","04","16","03:00","10.4","","4.9","","69","","23","","20","","25.0","","98.06","","","","","","Mostly Cloudy"
"1994-04-16 04:00","1994","04","16","04:00","10.0","","4.8","","70","","23","","13","","24.1","","98.06","","","","","","Rain Showers"
"1994-04-16 05:00","1994","04","16","05:00","9.7","","2.8","","62","","23","","20","","25.0","","98.06","","","","","","Cloudy"
"1994-04-16 06:00","1994","04","16","06:00","8.9","","4.1","","72","","20","","22","","40.2","","98.02","","","","","","Mainly Clear"
"1994-04-16 07:00","1994","04","16","07:00","8.5","","3.0","","68","","23","","26","","40.2","","98.09","","","","","","Mostly Cloudy"
"1994-04-16 08:00","1994","04","16","08:00","8.2","","1.9","","64","","23","","30","","40.2","","98.02","","","","","","Mostly Cloudy"
"1994-04-16 09:00","1994","04","16","09:00","9.6","","2.3","","60","","23","","30","","40.2","","97.96","","","","","","Mostly Cloudy"
"1994-04-16 10:00","1994","04","16","10:00","9.8","","2.4","","60","","24","","33","","40.2","","97.96","","","","","","Mostly Cloudy"
"1994-04-16 11:00","1994","04","16","11:00","9.2","","2.2","","62","","24","","26","","40.2","","97.96","","","","","","Cloudy"
"1994-04-16 12:00","1994","04","16","12:00","8.2","","1.9","","64","","23","","30","","40.2","","97.99","","","","","","Rain Showers"
"1994-04-16 13:00","1994","04","16","13:00","8.0","","2.9","","70","","23","","28","","25.0","","97.99","","","","","","Rain Showers"
"1994-04-16 14:00","1994","04","16","14:00","7.4","","2.8","","73","","26","","26","","24.1","","98.09","","","","","","Rain Showers"
"1994-04-16 15:00","1994","04","16","15:00","6.5","","3.1","","79","","28","","37","","24.1","","98.12","","","","","","Rain Showers"
"1994-04-16 16:00","1994","04","16","16:00","5.8","","3.4","","85","","29","","37","","24.1","","98.19","","","","","","Rain Showers"
"1994-04-16 17:00","1994","04","16","17:00","5.2","","3.3","","88","","28","","33","","25.0","","98.36","","","","","","Mostly Cloudy"
"1994-04-16 18:00","1994","04","16","18:00","3.3","","0.2","","80","","28","","30","","24.1","","98.49","","","","","","Rain Showers"
"1994-04-16 19:00","1994","04","16","19:00","2.8","","1.1","","89","","28","","15","","12.9","","98.62","","","","","","Rain Showers"
"1994-04-16 20:00","1994","04","16","20:00","2.2","","-0.4","","83","","26","","11","","24.1","","98.66","","","","","","Cloudy"
"1994-04-16 21:00","1994","04","16","21:00","3.0","","0.7","","85","","25","","24","","25.0","","98.66","","","","","","Mostly Cloudy"
"1994-04-16 22:00","1994","04","16","22:00","3.3","","0.7","","83","","28","","30","","25.0","","98.66","","","","","","Mainly Clear"
"1994-04-16 23:00","1994","04","16","23:00","2.7","","-0.9","","77","","29","","32","","25.0","","98.69","","","","","","Mostly Cloudy"
"1994-04-17 00:00","1994","04","17","00:00","2.8","","-2.0","","71","","28","","26","","25.0","","98.72","","","","","","Mostly Cloudy"
"1994-04-17 01:00","1994","04","17","01:00","2.2","","-2.1","","73","","28","","24","","25.0","","98.76","","","","","","Mostly Cloudy"
"1994-04-17 02:00","1994","04","17","02:00","2.2","","-3.2","","67","","26","","15","","25.0","","98.72","","","","","","Mainly Clear"
"1994-04-17 03:00","1994","04","17","03:00","2.2","","-3.2","","67","","24","","15","","24.1","","98.76","","","","","","Mostly Cloudy"
"1994-04-17 04:00","1994","04","17","04:00","2.0","","-2.6","","72","","25","","15","","25.0","","98.72","","","","","","Mostly Cloudy"
"1994-04-17 05:00","1994","04","17","05:00","2.7","","-2.6","","68","","26","","20","","24.1","","98.69","","","","","","Mostly Cloudy"
"1994-04-17 06:00","1994","04","17","06:00","3.2","","-2.6","","66","","26","","22","","24.1","","98.72","","","","","","Mostly Cloudy"
"1994-04-17 07:00","1994","04","17","07:00","3.6","","-3.2","","61","","27","","26","","40.2","","98.72","","","","","","Mainly Clear"
"1994-04-17 08:00","1994","04","17","08:00","5.0","","-1.8","","61","","26","","30","","40.2","","98.72","","","","","","Mainly Clear"
"1994-04-17 09:00","1994","04","17","09:00","5.6","","-3.0","","54","","28","","33","","40.2","","98.72","","","","","","Mainly Clear"
"1994-04-17 10:00","1994","04","17","10:00","6.5","","-3.5","","49","","29","","37","","40.2","","98.76","","","","","","Mostly Cloudy"
"1994-04-17 11:00","1994","04","17","11:00","7.2","","-4.1","","44","","29","","37","","40.2","","98.79","","","","","","Mostly Cloudy"
"1994-04-17 12:00","1994","04","17","12:00","7.6","","-4.1","","43","","30","","44","","40.2","","98.86","","","","","","Mostly Cloudy"
"1994-04-17 13:00","1994","04","17","13:00","7.0","","-2.8","","50","","30","","37","","40.2","","98.89","","","","","","Mostly Cloudy"
"1994-04-17 14:00","1994","04","17","14:00","7.8","","-2.0","","50","","30","","41","","40.2","","98.92","","","","","","Mostly Cloudy"
"1994-04-17 15:00","1994","04","17","15:00","7.8","","-4.0","","43","","29","","48","","40.2","","98.89","","","","","","Mostly Cloudy"
"1994-04-17 16:00","1994","04","17","16:00","8.8","","-5.4","","36","","30","","48","","40.2","","98.92","","","","","","Mostly Cloudy"
"1994-04-17 17:00","1994","04","17","17:00","8.6","","-4.6","","39","","30","","48","","40.2","","98.96","","","","","","Mostly Cloudy"
"1994-04-17 18:00","1994","04","17","18:00","8.0","","-7.0","","34","","29","","48","","40.2","","99.06","","","","","","Clear"
"1994-04-17 19:00","1994","04","17","19:00","6.4","","-4.9","","44","","31","","41","","40.2","","99.19","","","","","","Clear"
"1994-04-17 20:00","1994","04","17","20:00","4.8","","-5.1","","49","","30","","30","","25.0","","99.29","","","","","","Clear"
"1994-04-17 21:00","1994","04","17","21:00","3.4","","-4.5","","56","","30","","20","","25.0","","99.39","","","","","","Clear"
"1994-04-17 22:00","1994","04","17","22:00","2.0","","-4.7","","61","","28","","19","","25.0","","99.42","","","","","","Clear"
"1994-04-17 23:00","1994","04","17","23:00","1.3","","-4.8","","64","","28","","13","","25.0","","99.42","","","","","","Mainly Clear"
"1994-04-18 00:00","1994","04","18","00:00","1.8","","-5.3","","59","","27","","22","","25.0","","99.45","","","","","","Clear"
"1994-04-18 01:00","1994","04","18","01:00","1.5","","-5.4","","60","","26","","20","","25.0","","99.45","","","","","","Clear"
"1994-04-18 02:00","1994","04","18","02:00","1.4","","-5.4","","61","","26","","22","","25.0","","99.45","","","","","","Clear"
"1994-04-18 03:00","1994","04","18","03:00","2.0","","-5.3","","58","","27","","22","","25.0","","99.45","","","","","","Clear"
"1994-04-18 04:00","1994","04","18","04:00","1.5","","-5.4","","60","","26","","20","","25.0","","99.52","","","","","","Clear"
"1994-04-18 05:00","1994","04","18","05:00","1.5","","-5.4","","60","","27","","17","","25.0","","99.59","","","","","","Clear"
"1994-04-18 06:00","1994","04","18","06:00","1.6","","-4.8","","62","","27","","15","","40.2","","99.69","","","","","","Clear"
"1994-04-18 07:00","1994","04","18","07:00","3.2","","-4.5","","57","","26","","19","","40.2","","99.75","","","","","","Mainly Clear"
"1994-04-18 08:00","1994","04","18","08:00","6.0","","-4.3","","48","","26","","22","","40.2","","99.85","","","","","","Mostly Cloudy"
"1994-04-18 09:00","1994","04","18","09:00","8.4","","-3.2","","44","","25","","19","","40.2","","99.85","","","","","","Mostly Cloudy"
"1994-04-18 10:00","1994","04","18","10:00","11.0","","-2.5","","39","","26","","20","","40.2","","99.82","","","","","","Mostly Cloudy"
"1994-04-18 11:00","1994","04","18","11:00","11.8","","-5.9","","28","","27","","19","","40.2","","99.75","","","","","","Mostly Cloudy"
"1994-04-18 12:00","1994","04","18","12:00","12.8","","-7.3","","24","","24","","15","","40.2","","99.69","","","","","","Cloudy"
"1994-04-18 13:00","1994","04","18","13:00","14.3","","-5.8","","24","","22","","11","","40.2","","99.55","","","","","","Cloudy"
"1994-04-18 14:00","1994","04","18","14:00","15.4","","-3.0","","28","","21","","22","","40.2","","99.45","","","","","","Cloudy"
"1994-04-18 15:00","1994","04","18","15:00","14.7","","-2.7","","30","","17","","20","","40.2","","99.35","","","","","","Cloudy"
"1994-04-18 16:00","1994","04","18","16:00","15.0","","-3.2","","28","","18","","28","","40.2","","99.22","","","","","","Cloudy"
"1994-04-18 17:00","1994","04","18","17:00","14.3","","-2.7","","31","","16","","20","","40.2","","99.06","","","","","","Cloudy"
"1994-04-18 18:00","1994","04","18","18:00","12.8","","-0.6","","40","","16","","13","","40.2","","99.09","","","","","","Cloudy"
"1994-04-18 19:00","1994","04","18","19:00","12.0","","0.3","","45","","15","","17","","40.2","","98.99","","","","","","Cloudy"
"1994-04-18 20:00","1994","04","18","20:00","10.4","","2.6","","58","","15","","19","","24.1","","98.89","","","","","","Cloudy"
"1994-04-18 21:00","1994","04","18","21:00","10.0","","3.0","","62","","14","","15","","25.0","","98.82","","","","","","Cloudy"
"1994-04-18 22:00","1994","04","18","22:00","8.8","","4.1","","72","","14","","11","","25.0","","98.66","","","","","","Mostly Cloudy"
"1994-04-18 23:00","1994","04","18","23:00","8.0","","4.3","","77","","11","","4","","25.0","","98.52","","","","","","Mostly Cloudy"
"1994-04-19 00:00","1994","04","19","00:00","7.6","","4.6","","81","","14","","9","","25.0","","98.39","","","","","","Mainly Clear"
"1994-04-19 01:00","1994","04","19","01:00","7.3","","4.6","","83","","14","","13","","25.0","","98.29","","","","","","Mainly Clear"
"1994-04-19 02:00","1994","04","19","02:00","8.6","","5.3","","80","","27","","20","","25.0","","98.26","","","","","","Rain Showers"
"1994-04-19 03:00","1994","04","19","03:00","12.0","","7.5","","74","","31","","20","","25.0","","98.26","","","","","","Mostly Cloudy"
"1994-04-19 04:00","1994","04","19","04:00","13.0","","8.3","","73","","29","","26","","25.0","","98.39","","","","","","Clear"
"1994-04-19 05:00","1994","04","19","05:00","11.0","","6.0","","71","","30","","32","","25.0","","98.49","","","","","","Clear"
"1994-04-19 06:00","1994","04","19","06:00","9.0","","5.0","","76","","31","","28","","40.2","","98.66","","","","","","Mainly Clear"
"1994-04-19 07:00","1994","04","19","07:00","8.6","","3.0","","68","","31","","30","","40.2","","98.79","","","","","","Mainly Clear"
"1994-04-19 08:00","1994","04","19","08:00","9.4","","2.3","","61","","31","","30","","40.2","","98.92","","","","","","Mainly Clear"
"1994-04-19 09:00","1994","04","19","09:00","10.7","","-0.2","","47","","30","","33","","40.2","","98.99","","","","","","Mainly Clear"
"1994-04-19 10:00","1994","04","19","10:00","12.1","","-0.3","","42","","31","","37","","40.2","","99.09","","","","","","Mainly Clear"
"1994-04-19 11:00","1994","04","19","11:00","11.8","","2.0","","51","","28","","30","","40.2","","99.12","","","","","","Mainly Clear"
"1994-04-19 12:00","1994","04","19","12:00","13.4","","-0.4","","39","","29","","26","","40.2","","99.12","","","","","","Mainly Clear"
"1994-04-19 13:00","1994","04","19","13:00","14.3","","1.7","","42","","29","","32","","40.2","","99.12","","","","","","Mainly Clear"
"1994-04-19 14:00","1994","04","19","14:00","14.0","","-0.9","","36","","29","","35","","40.2","","99.16","","","","","","Mainly Clear"
"1994-04-19 15:00","1994","04","19","15:00","13.1","","-4.0","","30","","32","","24","","40.2","","99.12","","","","","","Clear"
"1994-04-19 16:00","1994","04","19","16:00","13.2","","-4.0","","30","","29","","13","","40.2","","99.12","","","","","","Mainly Clear"
"1994-04-19 17:00","1994","04","19","17:00","13.6","","-3.1","","31","","27","","24","","40.2","","99.19","","","","","","Mainly Clear"
"1994-04-19 18:00","1994","04","19","18:00","12.6","","-2.7","","34","","27","","24","","40.2","","99.16","","","","","","Mainly Clear"
"1994-04-19 19:00","1994","04","19","19:00","11.1","","-1.2","","42","","24","","15","","40.2","","99.12","","","","","","Mainly Clear"
"1994-04-19 20:00","1994","04","19","20:00","9.5","","3.8","","68","","27","","32","","25.0","","99.29","","","","","","Rain Showers"
"1994-04-19 21:00","1994","04","19","21:00","3.6","","-0.3","","76","","36","","33","","25.0","","99.49","","","","","","Mostly Cloudy"
"1994-04-19 22:00","1994","04","19","22:00","4.1","","-0.3","","73","","34","","24","","25.0","","99.52","","","","","","Mostly Cloudy"
"1994-04-19 23:00","1994","04","19","23:00","3.7","","-2.0","","66","","31","","15","","25.0","","99.49","","","","","","Mainly Clear"
"1994-04-20 00:00","1994","04","20","00:00","3.8","","-5.1","","52","","30","","22","","25.0","","99.55","","","","","","Mainly Clear"
"1994-04-20 01:00","1994","04","20","01:00","3.5","","-6.4","","48","","29","","24","","25.0","","99.55","","","","","","Clear"
"1994-04-20 02:00","1994","04","20","02:00","2.2","","-6.7","","52","","28","","19","","25.0","","99.59","","","","","","Clear"
"1994-04-20 03:00","1994","04","20","03:00","2.5","","-7.4","","48","","30","","20","","25.0","","99.59","","","","","","Clear"
"1994-04-20 04:00","1994","04","20","04:00","1.0","","-6.9","","56","","28","","15","","25.0","","99.65","","","","","","Clear"
"1994-04-20 05:00","1994","04","20","05:00","0.5","","-5.5","","64","","26","","13","","25.0","","99.69","","","","","","Clear"
"1994-04-20 06:00","1994","04","20","06:00","1.2","","-5.5","","61","","27","","17","","40.2","","99.79","","","","","","Clear"
"1994-04-20 07:00","1994","04","20","07:00","2.8","","-5.2","","56","","27","","22","","40.2","","99.85","","","","","","Clear"
"1994-04-20 08:00","1994","04","20","08:00","4.9","","-3.7","","54","","29","","28","","40.2","","99.89","","","","","","Clear"
"1994-04-20 09:00","1994","04","20","09:00","6.1","","-5.7","","42","","30","","37","","40.2","","99.92","","","","","","Clear"
"1994-04-20 10:00","1994","04","20","10:00","7.0","","-6.3","","38","","29","","41","","40.2","","99.95","","","","","","Mainly Clear"
"1994-04-20 11:00","1994","04","20","11:00","6.8","","-5.6","","41","","29","","48","","40.2","","99.92","","","","","","Mainly Clear"
"1994-04-20 12:00","1994","04","20","12:00","8.7","","-6.1","","34","","28","","43","","40.2","","99.85","","","","","","Mainly Clear"
"1994-04-20 13:00","1994","04","20","13:00","9.5","","-5.9","","33","","28","","37","","40.2","","99.82","","","","","","Mainly Clear"
"1994-04-20 14:00","1994","04","20","14:00","9.6","","-5.1","","35","","29","","41","","40.2","","99.85","","","","","","Mainly Clear"
"1994-04-20 15:00","1994","04","20","15:00","9.6","","-5.1","","35","","30","","41","","40.2","","99.82","","","","","","Mainly Clear"
"1994-04-20 16:00","1994","04","20","16:00","8.6","","-6.1","","35","","29","","33","","40.2","","99.85","","","","","","Mainly Clear"
"1994-04-20 17:00","1994","04","20","17:00","8.1","","-6.2","","36","","28","","32","","40.2","","99.85","","","","","","Mainly Clear"
"1994-04-20 18:00","1994","04","20","18:00","7.5","","-7.1","","35","","31","","22","","40.2","","99.85","","","","","","Mainly Clear"
"1994-04-20 19:00","1994","04","20","19:00","6.1","","-6.5","","40","","30","","13","","40.2","","99.82","","","","","","Clear"
"1994-04-20 20:00","1994","04","20","20:00","3.4","","-4.5","","56","","33","","13","","25.0","","99.85","","","","","","Clear"
"1994-04-20 21:00","1994","04","20","21:00","2.8","","-5.8","","53","","36","","19","","25.0","","99.95","","","","","","Mainly Clear"
"1994-04-20 22:00","1994","04","20","22:00","2.0","","-4.7","","61","","34","","15","","25.0","","99.95","","","","","","Mostly Cloudy"
"1994-04-20 23:00","1994","04","20","23:00","1.5","","-4.1","","66","","33","","9","","25.0","","99.95","","","","","","Mostly Cloudy"
"1994-04-21 00:00","1994","04","21","00:00","1.0","","-4.8","","65","","29","","9","","25.0","","99.95","","","","","","Clear"
"1994-04-21 01:00","1994","04","21","01:00","2.2","","-6.7","","52","","31","","26","","25.0","","99.99","","","","","","Clear"
"1994-04-21 02:00","1994","04","21","02:00","1.0","","-5.5","","62","","29","","17","","25.0","","99.99","","","","","","Clear"
"1994-04-21 03:00","1994","04","21","03:00","0.6","","-6.2","","60","","30","","24","","25.0","","99.99","","","","","","Clear"
"1994-04-21 04:00","1994","04","21","04:00","0.4","","-6.7","","59","","30","","17","","25.0","","99.99","","","","","","Clear"
"1994-04-21 05:00","1994","04","21","05:00","-0.6","","-4.4","","75","","29","","15","","25.0","","100.05","","","","-5","","Clear"
"1994-04-21 06:00","1994","04","21","06:00","-0.5","","-6.3","","65","","29","","17","","40.2","","100.12","","","","-5","","Clear"
"1994-04-21 07:00","1994","04","21","07:00","1.1","","-8.5","","49","","31","","22","","40.2","","100.15","","","","","","Clear"
"1994-04-21 08:00","1994","04","21","08:00","2.4","","-3.9","","63","","31","","20","","40.2","","100.15","","","","","","Clear"
"1994-04-21 09:00","1994","04","21","09:00","4.0","","-5.9","","48","","31","","19","","40.2","","100.15","","","","","","Clear"
"1994-04-21 10:00","1994","04","21","10:00","5.9","","-5.5","","44","","30","","26","","40.2","","100.12","","","","","","Clear"
"1994-04-21 11:00","1994","04","21","11:00","6.7","","-7.2","","36","","32","","22","","40.2","","100.15","","","","","","Mainly Clear"
"1994-04-21 12:00","1994","04","21","12:00","7.5","","-7.9","","33","","30","","28","","40.2","","100.05","","","","","","Mainly Clear"
"1994-04-21 13:00","1994","04","21","13:00","8.4","","-6.1","","35","","32","","26","","40.2","","99.99","","","","","","Mainly Clear"
"1994-04-21 14:00","1994","04","21","14:00","9.9","","-5.7","","33","","28","","26","","40.2","","99.95","","","","","","Mainly Clear"
"1994-04-21 15:00","1994","04","21","15:00","9.8","","-7.4","","29","","32","","28","","40.2","","99.89","","","","","","Mainly Clear"
"1994-04-21 16:00","1994","04","21","16:00","9.9","","-7.4","","29","","31","","28","","40.2","","99.85","","","","","","Clear"
"1994-04-21 17:00","1994","04","21","17:00","8.9","","-9.5","","26","","30","","22","","40.2","","99.89","","","","","","Clear"
"1994-04-21 18:00","1994","04","21","18:00","8.6","","-9.6","","26","","31","","28","","40.2","","99.89","","","","","","Clear"
"1994-04-21 19:00","1994","04","21","19:00","7.5","","-7.9","","33","","31","","19","","40.2","","99.85","","","","","","Clear"
"1994-04-21 20:00","1994","04","21","20:00","6.3","","-9.9","","30","","32","","15","","25.0","","99.92","","","","","","Clear"
"1994-04-21 21:00","1994","04","21","21:00","4.4","","-7.4","","42","","32","","19","","25.0","","99.95","","","","","","Clear"
"1994-04-21 22:00","1994","04","21","22:00","3.6","","-7.2","","45","","31","","19","","25.0","","99.95","","","","","","Clear"
"1994-04-21 23:00","1994","04","21","23:00","1.7","","-6.8","","53","","31","","19","","25.0","","99.99","","","","","","Clear"
"1994-04-22 00:00","1994","04","22","00:00","1.3","","-6.8","","55","","32","","19","","25.0","","99.99","","","","","","Clear"
"1994-04-22 01:00","1994","04","22","01:00","0.5","","-6.9","","58","","32","","26","","25.0","","99.95","","","","","","Clear"
"1994-04-22 02:00","1994","04","22","02:00","0.5","","-6.9","","58","","34","","19","","25.0","","99.99","","","","","","Clear"
"1994-04-22 03:00","1994","04","22","03:00","-1.4","","-8.9","","57","","33","","15","","25.0","","100.05","","","","-6","","Clear"
"1994-04-22 04:00","1994","04","22","04:00","-1.2","","-7.0","","65","","29","","9","","25.0","","100.09","","","","-4","","Clear"
"1994-04-22 05:00","1994","04","22","05:00","-1.6","","-5.7","","74","","29","","9","","25.0","","100.15","","","","-5","","Clear"
"1994-04-22 06:00","1994","04","22","06:00","-1.4","","-5.7","","72","","27","","7","","40.2","","100.19","","","","-4","","Clear"
"1994-04-22 07:00","1994","04","22","07:00","1.1","","-3.6","","71","","28","","11","","40.2","","100.29","","","","","","Clear"
"1994-04-22 08:00","1994","04","22","08:00","3.9","","-5.9","","49","","27","","9","","40.2","","100.32","","","","","","Clear"
"1994-04-22 09:00","1994","04","22","09:00","5.7","","-9.0","","34","","30","","15","","40.2","","100.29","","","","","","Clear"
"1994-04-22 10:00","1994","04","22","10:00","7.7","","-7.9","","32","","33","","17","","40.2","","100.25","","","","","","Clear"
"1994-04-22 11:00","1994","04","22","11:00","9.0","","-6.8","","32","","30","","15","","40.2","","100.22","","","","","","Clear"
"1994-04-22 12:00","1994","04","22","12:00","9.5","","-7.5","","29","","30","","28","","40.2","","100.15","","","","","","Mainly Clear"
"1994-04-22 13:00","1994","04","22","13:00","10.6","","-6.4","","30","","30","","19","","40.2","","100.09","","","","","","Mainly Clear"
"1994-04-22 14:00","1994","04","22","14:00","11.5","","-4.5","","32","","31","","22","","40.2","","100.05","","","","","","Mainly Clear"
"1994-04-22 15:00","1994","04","22","15:00","11.6","","-6.1","","28","","32","","28","","40.2","","99.95","","","","","","Mainly Clear"
"1994-04-22 16:00","1994","04","22","16:00","10.8","","-5.4","","32","","30","","33","","40.2","","99.92","","","","","","Clear"
"1994-04-22 17:00","1994","04","22","17:00","10.3","","-6.4","","30","","30","","33","","40.2","","99.92","","","","","","Clear"
"1994-04-22 18:00","1994","04","22","18:00","9.3","","-7.5","","30","","29","","28","","40.2","","99.95","","","","","","Clear"
"1994-04-22 19:00","1994","04","22","19:00","8.0","","-8.8","","29","","31","","19","","40.2","","99.99","","","","","","Clear"
"1994-04-22 20:00","1994","04","22","20:00","6.4","","-9.0","","32","","30","","15","","25.0","","100.02","","","","","","Clear"
"1994-04-22 21:00","1994","04","22","21:00","4.2","","-7.1","","44","","31","","13","","25.0","","100.05","","","","","","Clear"
"1994-04-22 22:00","1994","04","22","22:00","4.0","","-7.9","","42","","29","","7","","25.0","","100.05","","","","","","Clear"
"1994-04-22 23:00","1994","04","22","23:00","3.4","","-7.2","","46","","25","","6","","25.0","","100.05","","","","","","Clear"
"1994-04-23 00:00","1994","04","23","00:00","2.0","","-6.7","","52","","26","","7","","25.0","","100.05","","","","","","Clear"
"1994-04-23 01:00","1994","04","23","01:00","1.7","","-6.8","","53","","25","","9","","25.0","","100.02","","","","","","Clear"
"1994-04-23 02:00","1994","04","23","02:00","1.9","","-6.7","","53","","25","","6","","25.0","","99.99","","","","","","Clear"
"1994-04-23 03:00","1994","04","23","03:00","0.6","","-6.9","","57","","28","","11","","25.0","","99.95","","","","","","Clear"
"1994-04-23 04:00","1994","04","23","04:00","1.4","","-6.8","","54","","28","","9","","25.0","","99.95","","","","","","Clear"
"1994-04-23 05:00","1994","04","23","05:00","0.0","","-7.0","","59","","27","","4","","25.0","","99.95","","","","-1","","Mainly Clear"
"1994-04-23 06:00","1994","04","23","06:00","1.8","","-4.7","","62","","25","","15","","40.2","","99.99","","","","","","Clear"
"1994-04-23 07:00","1994","04","23","07:00","4.5","","-6.6","","44","","23","","15","","40.2","","100.02","","","","","","Mostly Cloudy"
"1994-04-23 08:00","1994","04","23","08:00","7.5","","-5.5","","39","","24","","20","","40.2","","99.99","","","","","","Mostly Cloudy"
"1994-04-23 09:00","1994","04","23","09:00","9.5","","-4.3","","37","","27","","20","","40.2","","99.99","","","","","","Mostly Cloudy"
"1994-04-23 10:00","1994","04","23","10:00","12.3","","-4.2","","31","","26","","24","","40.2","","99.89","","","","","","Mainly Clear"
"1994-04-23 11:00","1994","04","23","11:00","14.5","","-4.2","","27","","25","","26","","40.2","","99.79","","","","","","Mostly Cloudy"
"1994-04-23 12:00","1994","04","23","12:00","15.0","","-5.6","","24","","27","","30","","40.2","","99.69","","","","","","Cloudy"
"1994-04-23 13:00","1994","04","23","13:00","16.1","","-5.2","","23","","27","","32","","40.2","","99.55","","","","","","Cloudy"
"1994-04-23 14:00","1994","04","23","14:00","16.5","","-4.1","","24","","26","","33","","40.2","","99.45","","","","","","Cloudy"
"1994-04-23 15:00","1994","04","23","15:00","17.0","","-5.5","","21","","24","","33","","40.2","","99.35","","","","","","Mostly Cloudy"
"1994-04-23 16:00","1994","04","23","16:00","17.0","","-4.7","","22","","26","","28","","40.2","","99.26","","","","","","Mainly Clear"
"1994-04-23 17:00","1994","04","23","17:00","15.3","","-0.9","","33","","21","","32","","40.2","","99.19","","","","","","Mainly Clear"
"1994-04-23 18:00","1994","04","23","18:00","15.0","","-3.2","","28","","23","","37","","32.2","","99.09","","","","","","Mostly Cloudy"
"1994-04-23 19:00","1994","04","23","19:00","13.7","","-5.4","","26","","22","","26","","32.2","","99.06","","","","","","Mostly Cloudy"
"1994-04-23 20:00","1994","04","23","20:00","13.5","","-6.6","","24","","22","","22","","25.0","","98.99","","","","","","Mainly Clear"
"1994-04-23 21:00","1994","04","23","21:00","12.4","","-7.5","","24","","21","","24","","25.0","","98.96","","","","","","Mostly Cloudy"
"1994-04-23 22:00","1994","04","23","22:00","12.0","","-5.1","","30","","22","","26","","25.0","","98.89","","","","","","Cloudy"
"1994-04-23 23:00","1994","04","23","23:00","12.2","","-4.4","","31","","22","","26","","25.0","","98.79","","","","","","Mostly Cloudy"
"1994-04-24 00:00","1994","04","24","00:00","12.3","","-3.6","","33","","23","","28","","25.0","","98.72","","","","","","Cloudy"
"1994-04-24 01:00","1994","04","24","01:00","12.0","","-3.0","","35","","25","","28","","25.0","","98.82","","","","","","Cloudy"
"1994-04-24 02:00","1994","04","24","02:00","12.0","","-3.6","","33","","24","","22","","25.0","","98.72","","","","","","Cloudy"
"1994-04-24 03:00","1994","04","24","03:00","12.0","","-2.9","","35","","26","","19","","25.0","","98.69","","","","","","Cloudy"
"1994-04-24 04:00","1994","04","24","04:00","11.5","","-2.4","","38","","24","","26","","25.0","","98.56","","","","","","Mainly Clear"
"1994-04-24 05:00","1994","04","24","05:00","11.4","","-1.7","","40","","24","","32","","25.0","","98.49","","","","","","Mostly Cloudy"
"1994-04-24 06:00","1994","04","24","06:00","12.4","","-0.8","","40","","24","","33","","25.0","","98.49","","","","","","Mostly Cloudy"
"1994-04-24 07:00","1994","04","24","07:00","12.0","","-0.3","","43","","24","","30","","32.2","","98.49","","","","","","Mostly Cloudy"
"1994-04-24 08:00","1994","04","24","08:00","14.5","","0.6","","39","","25","","33","","32.2","","98.49","","","","","","Mainly Clear"
"1994-04-24 09:00","1994","04","24","09:00","16.5","","2.5","","39","","26","","30","","32.2","","98.49","","","","","","Mainly Clear"
"1994-04-24 10:00","1994","04","24","10:00","19.4","","4.4","","37","","27","","30","","24.1","","98.46","","","","","","Clear"
"1994-04-24 11:00","1994","04","24","11:00","20.5","","4.9","","36","","27","","33","","24.1","","98.46","","","","","","Clear"
"1994-04-24 12:00","1994","04","24","12:00","22.0","","6.7","","37","","26","","37","","19.3","","98.39","","","","","","Clear"
"1994-04-24 13:00","1994","04","24","13:00","23.8","","7.7","","36","","27","","39","","19.3","","98.36","","","","","","Clear"
"1994-04-24 14:00","1994","04","24","14:00","25.0","","9.2","","37","","27","","44","","19.3","","98.36","","26","","","","Mostly Cloudy"
"1994-04-24 15:00","1994","04","24","15:00","25.0","","10.1","","39","","26","","37","","19.3","","98.32","","26","","","","Mainly Clear"
"1994-04-24 16:00","1994","04","24","16:00","25.0","","12.2","","45","","27","","44","","19.3","","98.32","","27","","","","Clear"
"1994-04-24 17:00","1994","04","24","17:00","23.4","","12.6","","51","","26","","44","","19.3","","98.29","","26","","","","Mainly Clear"
"1994-04-24 18:00","1994","04","24","18:00","21.1","","11.8","","55","","27","","26","","16.1","","98.39","","","","","","Cloudy"
"1994-04-24 19:00","1994","04","24","19:00","18.0","","14.5","","80","","32","","28","","12.9","","98.56","","","","","","Thunderstorms,Rain Showers"
"1994-04-24 20:00","1994","04","24","20:00","17.0","","14.8","","87","","27","","19","","9.7","","98.66","","","","","","Thunderstorms,Moderate Rain Showers,Fog"
"1994-04-24 21:00","1994","04","24","21:00","16.2","","14.7","","91","","28","","28","","11.3","","98.69","","","","","","Thunderstorms,Rain Showers"
"1994-04-24 22:00","1994","04","24","22:00","16.0","","14.4","","90","","26","","19","","19.3","","98.62","","","","","","Rain Showers"
"1994-04-24 23:00","1994","04","24","23:00","14.6","","14.2","","97","","25","","26","","16.1","","98.69","","","","","","Rain Showers"
"1994-04-25 00:00","1994","04","25","00:00","15.5","","14.2","","92","","24","","19","","25.0","","98.59","","","","","","Cloudy"
"1994-04-25 01:00","1994","04","25","01:00","15.2","","13.7","","91","","32","","7","","24.1","","98.62","","","","","","Rain Showers"
"1994-04-25 02:00","1994","04","25","02:00","14.9","","14.0","","94","","25","","6","","16.1","","98.59","","","","","","Rain Showers"
"1994-04-25 03:00","1994","04","25","03:00","15.0","","14.0","","94","","","","0","","24.1","","98.59","","","","","","Cloudy"
"1994-04-25 04:00","1994","04","25","04:00","15.0","","14.0","","94","","","","0","","12.9","","98.62","","","","","","Cloudy"
"1994-04-25 05:00","1994","04","25","05:00","15.2","","14.0","","93","","21","","6","","11.3","","98.62","","","","","","Cloudy"
"1994-04-25 06:00","1994","04","25","06:00","15.3","","14.5","","95","","","","0","","6.4","","98.69","","","","","","Fog"
"1994-04-25 07:00","1994","04","25","07:00","15.4","","14.2","","93","","17","","4","","6.4","","98.76","","","","","","Rain Showers,Fog"
"1994-04-25 08:00","1994","04","25","08:00","13.0","","13.0","","100","","14","","9","","4.0","","98.76","","","","","","Rain,Drizzle,Fog"
"1994-04-25 09:00","1994","04","25","09:00","14.1","","13.7","","97","","13","","9","","1.6","","98.79","","","","","","Moderate Rain,Fog"
"1994-04-25 10:00","1994","04","25","10:00","16.0","","15.0","","94","","19","","7","","4.0","","98.82","","","","","","Fog"
"1994-04-25 11:00","1994","04","25","11:00","16.9","","15.4","","91","","17","","6","","4.0","","98.86","","","","","","Fog"
"1994-04-25 12:00","1994","04","25","12:00","15.9","","14.1","","89","","14","","17","","6.4","","98.86","","","","","","Rain Showers,Fog"
"1994-04-25 13:00","1994","04","25","13:00","13.8","","12.3","","91","","13","","17","","4.0","","98.82","","","","","","Fog"
"1994-04-25 14:00","1994","04","25","14:00","13.3","","11.1","","87","","9","","15","","4.8","","98.86","","","","","","Haze"
"1994-04-25 15:00","1994","04","25","15:00","13.4","","10.0","","80","","9","","17","","6.4","","98.82","","","","","","Haze"
"1994-04-25 16:00","1994","04","25","16:00","12.0","","9.1","","82","","10","","20","","4.8","","98.79","","","","","","Haze"
"1994-04-25 17:00","1994","04","25","17:00","11.5","","8.6","","82","","12","","17","","6.4","","98.86","","","","","","Haze"
"1994-04-25 18:00","1994","04","25","18:00","10.0","","6.9","","81","","10","","19","","6.4","","98.86","","","","","","Haze"
"1994-04-25 19:00","1994","04","25","19:00","9.9","","7.7","","86","","13","","13","","1.6","","98.99","","","","","","Thunderstorms,Moderate Rain Showers,Fog"
"1994-04-25 20:00","1994","04","25","20:00","8.9","","8.3","","96","","11","","19","","2.4","","98.92","","","","","","Thunderstorms,Moderate Rain Showers,Fog"
"1994-04-25 21:00","1994","04","25","21:00","9.0","","8.3","","95","","5","","13","","4.8","","98.99","","","","","","Rain Showers,Fog"
"1994-04-25 22:00","1994","04","25","22:00","9.5","","8.4","","93","","13","","7","","4.8","","99.02","","","","","","Fog"
"1994-04-25 23:00","1994","04","25","23:00","8.9","","7.9","","93","","11","","6","","6.4","","98.96","","","","","","Rain Showers,Fog"
"1994-04-26 00:00","1994","04","26","00:00","9.2","","8.3","","94","","13","","15","","4.8","","98.89","","","","","","Fog"
"1994-04-26 01:00","1994","04","26","01:00","9.3","","8.8","","97","","17","","7","","4.0","","98.92","","","","","","Rain,Fog"
"1994-04-26 02:00","1994","04","26","02:00","8.5","","8.1","","97","","","","0","","3.2","","98.92","","","","","","Rain,Fog"
"1994-04-26 03:00","1994","04","26","03:00","8.6","","8.1","","97","","","","0","","3.2","","98.92","","","","","","Rain"
"1994-04-26 04:00","1994","04","26","04:00","8.3","","8.1","","99","","17","","7","","2.8","","98.89","","","","","","Fog"
"1994-04-26 05:00","1994","04","26","05:00","7.5","","7.1","","97","","15","","9","","3.2","","98.86","","","","","","Fog"
"1994-04-26 06:00","1994","04","26","06:00","7.6","","7.1","","97","","6","","4","","3.2","","98.89","","","","","","Fog"
"1994-04-26 07:00","1994","04","26","07:00","9.0","","7.9","","93","","12","","6","","4.0","","98.89","","","","","","Fog"
"1994-04-26 08:00","1994","04","26","08:00","10.4","","8.7","","89","","13","","4","","4.0","","98.92","","","","","","Fog"
"1994-04-26 09:00","1994","04","26","09:00","12.1","","9.9","","86","","16","","6","","4.8","","98.89","","","","","","Fog"
"1994-04-26 10:00","1994","04","26","10:00","10.8","","9.2","","90","","17","","17","","4.8","","98.89","","","","","","Fog"
"1994-04-26 11:00","1994","04","26","11:00","11.0","","9.2","","89","","16","","11","","4.0","","98.89","","","","","","Rain Showers,Fog"
"1994-04-26 12:00","1994","04","26","12:00","14.0","","11.3","","84","","17","","9","","4.8","","98.79","","","","","","Haze"
"1994-04-26 13:00","1994","04","26","13:00","17.0","","12.7","","76","","17","","15","","6.4","","98.76","","","","","","Haze"
"1994-04-26 14:00","1994","04","26","14:00","16.0","","11.3","","74","","16","","17","","8.0","","98.76","","","","","","Haze"
"1994-04-26 15:00","1994","04","26","15:00","17.4","","12.6","","73","","17","","19","","8.0","","98.72","","","","","","Haze"
"1994-04-26 16:00","1994","04","26","16:00","16.0","","10.9","","72","","17","","17","","6.4","","98.66","","","","","","Haze"
"1994-04-26 17:00","1994","04","26","17:00","15.0","","11.3","","79","","15","","15","","6.4","","98.59","","","","","","Rain Showers,Haze"
"1994-04-26 18:00","1994","04","26","18:00","14.5","","10.0","","74","","17","","19","","9.7","","98.66","","","","","","Haze"
"1994-04-26 19:00","1994","04","26","19:00","13.5","","11.0","","85","","13","","7","","12.9","","98.69","","","","","","Cloudy"
"1994-04-26 20:00","1994","04","26","20:00","14.2","","10.2","","77","","15","","9","","16.1","","98.72","","","","","","Mostly Cloudy"
"1994-04-26 21:00","1994","04","26","21:00","15.0","","11.3","","79","","17","","11","","16.1","","98.76","","","","","","Mostly Cloudy"
"1994-04-26 22:00","1994","04","26","22:00","11.7","","9.0","","83","","14","","13","","12.9","","98.72","","","","","","Mainly Clear"
"1994-04-26 23:00","1994","04","26","23:00","12.0","","10.2","","89","","","","0","","8.0","","98.69","","","","","","Fog"
"1994-04-27 00:00","1994","04","27","00:00","13.3","","11.5","","89","","16","","11","","8.0","","98.69","","","","","","Fog"
"1994-04-27 01:00","1994","04","27","01:00","13.5","","11.8","","89","","14","","9","","8.0","","98.66","","","","","","Fog"
"1994-04-27 02:00","1994","04","27","02:00","14.9","","12.7","","87","","19","","15","","8.0","","98.66","","","","","","Haze"
"1994-04-27 03:00","1994","04","27","03:00","18.5","","14.0","","75","","27","","32","","12.9","","98.76","","","","","","Thunderstorms,Rain Showers"
"1994-04-27 04:00","1994","04","27","04:00","17.6","","13.3","","76","","28","","22","","24.1","","98.72","","","","","","Rain Showers"
"1994-04-27 05:00","1994","04","27","05:00","16.5","","13.2","","81","","25","","15","","24.1","","98.66","","","","","","Rain Showers"
"1994-04-27 06:00","1994","04","27","06:00","16.0","","14.4","","90","","26","","32","","8.0","","98.69","","","","","","Moderate Rain Showers,Fog"
"1994-04-27 07:00","1994","04","27","07:00","16.2","","14.1","","87","","24","","22","","6.4","","98.79","","","","","","Rain Showers,Fog"
"1994-04-27 08:00","1994","04","27","08:00","16.0","","14.4","","90","","21","","19","","16.1","","98.62","","","","","","Rain Showers"
"1994-04-27 09:00","1994","04","27","09:00","16.7","","14.6","","87","","21","","19","","12.9","","98.66","","","","","","Cloudy"
"1994-04-27 10:00","1994","04","27","10:00","19.0","","16.2","","84","","23","","28","","19.3","","98.66","","","","","","Mainly Clear"
"1994-04-27 11:00","1994","04","27","11:00","20.3","","14.9","","71","","24","","33","","32.2","","98.66","","","","","","Mostly Cloudy"
"1994-04-27 12:00","1994","04","27","12:00","22.3","","14.7","","62","","25","","33","","32.2","","98.69","","26","","","","Mainly Clear"
"1994-04-27 13:00","1994","04","27","13:00","21.8","","12.7","","56","","29","","41","","32.2","","98.72","","","","","","Mainly Clear"
"1994-04-27 14:00","1994","04","27","14:00","20.4","","11.2","","55","","29","","37","","25.0","","98.86","","","","","","Clear"
"1994-04-27 15:00","1994","04","27","15:00","19.4","","8.3","","49","","30","","37","","25.0","","99.02","","","","","","Clear"
"1994-04-27 16:00","1994","04","27","16:00","17.7","","6.9","","49","","29","","37","","32.2","","99.16","","","","","","Mainly Clear"
"1994-04-27 17:00","1994","04","27","17:00","15.0","","6.4","","56","","30","","37","","40.2","","99.29","","","","","","Mainly Clear"
"1994-04-27 18:00","1994","04","27","18:00","12.8","","6.2","","64","","30","","37","","40.2","","99.42","","","","","","Clear"
"1994-04-27 19:00","1994","04","27","19:00","10.1","","3.9","","65","","31","","33","","40.2","","99.59","","","","","","Clear"
"1994-04-27 20:00","1994","04","27","20:00","5.0","","1.4","","78","","35","","28","","25.0","","99.75","","","","","","Mainly Clear"
"1994-04-27 21:00","1994","04","27","21:00","4.1","","0.3","","76","","34","","33","","25.0","","99.99","","","","","","Mostly Cloudy"
"1994-04-27 22:00","1994","04","27","22:00","3.5","","-1.4","","70","","33","","26","","25.0","","100.05","","","","","","Mainly Clear"
"1994-04-27 23:00","1994","04","27","23:00","3.5","","-0.9","","73","","33","","20","","25.0","","100.22","","","","","","Mostly Cloudy"
"1994-04-28 00:00","1994","04","28","00:00","3.5","","-0.9","","73","","33","","22","","25.0","","100.32","","","","","","Mostly Cloudy"
"1994-04-28 01:00","1994","04","28","01:00","2.4","","-2.6","","70","","35","","22","","25.0","","100.42","","","","","","Mainly Clear"
"1994-04-28 02:00","1994","04","28","02:00","2.0","","-2.6","","72","","34","","26","","25.0","","100.49","","","","","","Mostly Cloudy"
"1994-04-28 03:00","1994","04","28","03:00","1.6","","-2.1","","76","","34","","24","","25.0","","100.55","","","","","","Mostly Cloudy"
"1994-04-28 04:00","1994","04","28","04:00","0.9","","-2.4","","79","","36","","28","","25.0","","100.59","","","","","","Clear"
"1994-04-28 05:00","1994","04","28","05:00","0.2","","-4.3","","72","","36","","22","","25.0","","100.69","","","","","","Mainly Clear"
"1994-04-28 06:00","1994","04","28","06:00","0.2","","-3.5","","76","","1","","20","","40.2","","100.85","","","","","","Mostly Cloudy"
"1994-04-28 07:00","1994","04","28","07:00","1.0","","-3.6","","71","","2","","24","","40.2","","100.85","","","","","","Mostly Cloudy"
"1994-04-28 08:00","1994","04","28","08:00","2.0","","-4.0","","64","","6","","15","","40.2","","100.95","","","","","","Mostly Cloudy"
"1994-04-28 09:00","1994","04","28","09:00","3.2","","-5.2","","54","","7","","15","","40.2","","100.95","","","","","","Mostly Cloudy"
"1994-04-28 10:00","1994","04","28","10:00","3.8","","-2.5","","63","","","","0","","40.2","","100.95","","","","","","Mostly Cloudy"
"1994-04-28 11:00","1994","04","28","11:00","4.5","","-3.1","","58","","14","","17","","40.2","","100.92","","","","","","Mostly Cloudy"
"1994-04-28 12:00","1994","04","28","12:00","3.9","","-3.8","","57","","14","","24","","40.2","","100.95","","","","","","Mostly Cloudy"
"1994-04-28 13:00","1994","04","28","13:00","3.6","","-5.2","","53","","12","","19","","40.2","","100.99","","","","","","Cloudy"
"1994-04-28 14:00","1994","04","28","14:00","3.4","","-4.5","","56","","12","","13","","32.2","","100.92","","","","","","Cloudy"
"1994-04-28 15:00","1994","04","28","15:00","4.2","","-3.8","","56","","12","","15","","32.2","","100.82","","","","","","Cloudy"
"1994-04-28 16:00","1994","04","28","16:00","5.0","","-5.8","","45","","9","","19","","32.2","","100.85","","","","","","Cloudy"
"1994-04-28 17:00","1994","04","28","17:00","4.7","","-5.8","","46","","9","","19","","32.2","","100.82","","","","","","Cloudy"
"1994-04-28 18:00","1994","04","28","18:00","4.0","","-4.9","","52","","11","","13","","12.9","","100.85","","","","","","Rain,Ice Pellets"
"1994-04-28 19:00","1994","04","28","19:00","3.3","","-2.6","","65","","9","","13","","12.9","","100.82","","","","","","Rain"
"1994-04-28 20:00","1994","04","28","20:00","3.0","","-0.9","","76","","9","","13","","12.9","","100.75","","","","","","Rain"
"1994-04-28 21:00","1994","04","28","21:00","3.0","","-0.4","","78","","9","","19","","19.3","","100.65","","","","","","Rain"
"1994-04-28 22:00","1994","04","28","22:00","2.5","","-0.4","","81","","9","","19","","19.3","","100.52","","","","","","Rain"
"1994-04-28 23:00","1994","04","28","23:00","3.2","","-0.9","","74","","12","","13","","19.3","","100.49","","","","","","Rain"
"1994-04-29 00:00","1994","04","29","00:00","3.0","","-0.9","","76","","10","","24","","19.3","","100.45","","","","","","Rain"
"1994-04-29 01:00","1994","04","29","01:00","3.8","","-0.8","","72","","9","","22","","19.3","","100.29","","","","","","Rain"
"1994-04-29 02:00","1994","04","29","02:00","4.2","","-0.8","","70","","10","","19","","24.1","","100.25","","","","","","Cloudy"
"1994-04-29 03:00","1994","04","29","03:00","3.8","","-0.8","","72","","9","","26","","19.3","","100.15","","","","","","Cloudy"
"1994-04-29 04:00","1994","04","29","04:00","3.7","","0.2","","78","","9","","26","","24.1","","99.99","","","","","","Cloudy"
"1994-04-29 05:00","1994","04","29","05:00","3.5","","1.2","","85","","10","","20","","24.1","","99.95","","","","","","Cloudy"
"1994-04-29 06:00","1994","04","29","06:00","4.0","","1.3","","83","","10","","20","","25.0","","99.95","","","","","","Cloudy"
"1994-04-29 07:00","1994","04","29","07:00","4.4","","1.3","","80","","10","","19","","16.1","","99.92","","","","","","Cloudy"
"1994-04-29 08:00","1994","04","29","08:00","6.0","","2.0","","75","","11","","19","","16.1","","99.89","","","","","","Mostly Cloudy"
"1994-04-29 09:00","1994","04","29","09:00","7.4","","3.3","","75","","14","","7","","16.1","","99.85","","","","","","Mostly Cloudy"
"1994-04-29 10:00","1994","04","29","10:00","8.5","","4.4","","75","","15","","7","","12.9","","99.85","","","","","","Cloudy"
"1994-04-29 11:00","1994","04","29","11:00","9.3","","5.1","","75","","16","","7","","12.9","","99.79","","","","","","Cloudy"
"1994-04-29 12:00","1994","04","29","12:00","12.1","","7.5","","73","","21","","22","","16.1","","99.72","","","","","","Cloudy"
"1994-04-29 13:00","1994","04","29","13:00","12.8","","7.4","","70","","20","","15","","11.3","","99.69","","","","","","Mostly Cloudy"
"1994-04-29 14:00","1994","04","29","14:00","15.7","","9.5","","67","","24","","19","","12.9","","99.65","","","","","","Mainly Clear"
"1994-04-29 15:00","1994","04","29","15:00","17.7","","9.9","","60","","26","","19","","11.3","","99.59","","","","","","Mainly Clear"
"1994-04-29 16:00","1994","04","29","16:00","18.0","","9.3","","57","","26","","22","","12.9","","99.55","","","","","","Mainly Clear"
"1994-04-29 17:00","1994","04","29","17:00","17.2","","8.9","","58","","28","","26","","11.3","","99.62","","","","","","Mostly Cloudy"
"1994-04-29 18:00","1994","04","29","18:00","15.4","","9.1","","66","","28","","26","","19.3","","99.69","","","","","","Mostly Cloudy"
"1994-04-29 19:00","1994","04","29","19:00","12.0","","6.3","","68","","33","","35","","40.2","","99.85","","","","","","Cloudy"
"1994-04-29 20:00","1994","04","29","20:00","10.0","","3.9","","66","","33","","28","","25.0","","99.95","","","","","","Mostly Cloudy"
"1994-04-29 21:00","1994","04","29","21:00","9.0","","1.7","","60","","31","","28","","25.0","","100.09","","","","","","Cloudy"
"1994-04-29 22:00","1994","04","29","22:00","7.3","","2.3","","71","","32","","33","","25.0","","100.15","","","","","","Mostly Cloudy"
"1994-04-29 23:00","1994","04","29","23:00","5.8","","-0.6","","63","","32","","28","","25.0","","100.29","","","","","","Mostly Cloudy"
"1994-04-30 00:00","1994","04","30","00:00","4.6","","-0.8","","68","","31","","19","","25.0","","100.35","","","","","","Clear"
"1994-04-30 01:00","1994","04","30","01:00","4.0","","-0.8","","71","","32","","11","","25.0","","100.32","","","","","","Mainly Clear"
"1994-04-30 02:00","1994","04","30","02:00","3.4","","-0.9","","73","","29","","11","","25.0","","100.35","","","","","","Mainly Clear"
"1994-04-30 03:00","1994","04","30","03:00","3.0","","-1.5","","72","","25","","4","","25.0","","100.32","","","","","","Mainly Clear"
"1994-04-30 04:00","1994","04","30","04:00","2.0","","-0.4","","84","","26","","6","","25.0","","100.35","","","","","","Clear"
"1994-04-30 05:00","1994","04","30","05:00","2.0","","-0.4","","84","","27","","9","","25.0","","100.42","","","","","","Mostly Cloudy"
"1994-04-30 06:00","1994","04","30","06:00","2.5","","0.1","","84","","29","","6","","24.1","","100.45","","","","","","Mostly Cloudy"
"1994-04-30 07:00","1994","04","30","07:00","3.8","","0.3","","78","","33","","15","","24.1","","100.39","","","","","","Mostly Cloudy"
"1994-04-30 08:00","1994","04","30","08:00","5.2","","-0.2","","68","","34","","11","","25.0","","100.39","","","","","","Mostly Cloudy"
"1994-04-30 09:00","1994","04","30","09:00","6.3","","-0.5","","62","","3","","15","","40.2","","100.29","","","","","","Mostly Cloudy"
"1994-04-30 10:00","1994","04","30","10:00","7.5","","0.8","","62","","2","","15","","40.2","","100.25","","","","","","Mostly Cloudy"
"1994-04-30 11:00","1994","04","30","11:00","8.4","","1.0","","60","","3","","9","","40.2","","100.22","","","","","","Mostly Cloudy"
"1994-04-30 12:00","1994","04","30","12:00","7.8","","1.4","","64","","11","","11","","40.2","","100.09","","","","","","Mostly Cloudy"
"1994-04-30 13:00","1994","04","30","13:00","7.9","","0.9","","61","","13","","19","","40.2","","100.05","","","","","","Cloudy"
"1994-04-30 14:00","1994","04","30","14:00","7.4","","2.3","","70","","16","","22","","40.2","","100.05","","","","","","Cloudy"
"1994-04-30 15:00","1994","04","30","15:00","6.8","","2.2","","72","","14","","19","","40.2","","99.95","","","","","","Cloudy"
"1994-04-30 16:00","1994","04","30","16:00","6.1","","2.1","","75","","14","","15","","24.1","","99.89","","","","","","Rain"
"1994-04-30 17:00","1994","04","30","17:00","5.5","","2.9","","83","","11","","19","","12.9","","99.72","","","","","","Rain"
"1994-04-30 18:00","1994","04","30","18:00","4.9","","3.3","","89","","9","","15","","8.0","","99.59","","","","","","Rain,Fog"
"1994-04-30 19:00","1994","04","30","19:00","4.5","","2.7","","88","","7","","19","","6.4","","99.45","","","","","","Rain,Fog"
"1994-04-30 20:00","1994","04","30","20:00","4.0","","2.7","","91","","9","","30","","6.4","","99.26","","","","","","Rain,Fog"
"1994-04-30 21:00","1994","04","30","21:00","4.1","","3.6","","97","","9","","26","","8.0","","99.16","","","","","","Rain,Drizzle,Fog"
"1994-04-30 22:00","1994","04","30","22:00","4.3","","3.6","","95","","8","","22","","4.8","","99.06","","","","","","Rain,Drizzle,Fog"
"1994-04-30 23:00","1994","04","30","23:00","4.5","","4.1","","97","","9","","24","","6.4","","98.96","","","","","","Drizzle,Fog"
