"Station Name","TORONTO LESTER B. PEARSON INT'L A"
"Province","ONTARIO"
"Latitude","43.68"
"Longitude","-79.63"
"Elevation","173.40"
"Climate Identifier","6158733"
"WMO Identifier","71624"
"TC Identifier","YYZ"
"All times are specified in Local Standard Time (LST). Add 1 hour to adjust for Daylight Saving Time where and when it is observed."

"Legend"
"E","Estimated"
"M","Missing"
"NA","Not Available"

"Date/Time","Year","Month","Day","Time","Temp (°C)","Temp Flag","Dew Point Temp (°C)","Dew Point Temp Flag","Rel Hum (%)","Rel Hum Flag","Wind Dir (10s deg)","Wind Dir Flag","Wind Spd (km/h)","Wind Spd Flag","Visibility (km)","Visibility Flag","Stn Press (kPa)","Stn Press Flag","Hmdx","Hmdx Flag","Wind Chill","Wind Chill Flag","Weather"
"1953-07-01 00:00","1953","07","01","00:00","21.1","","16.7","","76","","23","","6","","25.0","","99.45","","26","","","","Mostly Cloudy"
"1953-07-01 01:00","1953","07","01","01:00","20.6","","17.2","","81","","23","","6","","25.0","","99.33","","26","","","","Cloudy"
"1953-07-01 02:00","1953","07","01","02:00","18.9","","16.1","","84","","27","","13","","25.0","","99.42","","","","","","Mostly Cloudy"
"1953-07-01 03:00","1953","07","01","03:00","18.9","","16.7","","87","","32","","8","","25.0","","99.44","","","","","","Mostly Cloudy"
"1953-07-01 04:00","1953","07","01","04:00","18.3","","16.7","","90","","32","","6","","19.3","","99.45","","","","","","Mostly Cloudy"
"1953-07-01 05:00","1953","07","01","05:00","18.9","","16.7","","87","","32","","8","","25.0","","99.47","","","","","","Mostly Cloudy"
"1953-07-01 06:00","1953","07","01","06:00","18.9","","16.1","","84","","27","","11","","24.1","","99.59","","","","","","Cloudy"
"1953-07-01 07:00","1953","07","01","07:00","20.0","","16.7","","81","","27","","37","","19.3","","99.63","","25","","","","Rain Showers"
"1953-07-01 08:00","1953","07","01","08:00","20.0","","17.8","","87","","34","","16","","19.3","","99.52","","26","","","","Rain Showers"
"1953-07-01 09:00","1953","07","01","09:00","21.7","","18.9","","84","","34","","14","","25.0","","99.26","","28","","","","Mostly Cloudy"
"1953-07-01 10:00","1953","07","01","10:00","23.3","","19.4","","79","","20","","13","","25.0","","99.48","","30","","","","Rain Showers"
"1953-07-01 11:00","1953","07","01","11:00","23.9","","20.0","","79","","18","","27","","25.0","","99.29","","31","","","","Mostly Cloudy"
"1953-07-01 12:00","1953","07","01","12:00","23.9","","20.0","","79","","18","","26","","16.1","","99.30","","31","","","","Cloudy"
"1953-07-01 13:00","1953","07","01","13:00","23.9","","20.0","","79","","18","","10","","16.1","","99.35","","31","","","","Rain Showers"
"1953-07-01 14:00","1953","07","01","14:00","23.3","","21.7","","91","","16","","19","","16.1","","99.13","","32","","","","Mostly Cloudy"
"1953-07-01 15:00","1953","07","01","15:00","25.6","","21.1","","79","","23","","19","","25.0","","99.10","","34","","","","Mostly Cloudy"
"1953-07-01 16:00","1953","07","01","16:00","27.2","","21.7","","79","","23","","19","","25.0","","98.99","","36","","","","Mostly Cloudy"
"1953-07-01 17:00","1953","07","01","17:00","25.6","","23.9","","91","","5","","19","","9.7","","99.19","","37","","","","Rain Showers"
"1953-07-01 18:00","1953","07","01","18:00","21.7","","20.0","","90","","5","","19","","1.6","","99.04","","29","","","","Thunderstorms,Heavy Rain Showers"
"1953-07-01 19:00","1953","07","01","19:00","19.4","","18.9","","97","","9","","13","","16.1","","98.98","","","","","","Rain Showers"
"1953-07-01 20:00","1953","07","01","20:00","20.0","","19.4","","97","","27","","10","","24.1","","99.02","","27","","","","Thunderstorms"
"1953-07-01 21:00","1953","07","01","21:00","19.4","","19.4","","100","","18","","3","","25.0","","98.99","","","","","","Cloudy"
"1953-07-01 22:00","1953","07","01","22:00","19.4","","19.4","","100","","9","","10","","6.4","","99.00","","","","","","Rain Showers,Fog"
"1953-07-01 23:00","1953","07","01","23:00","18.9","","18.9","","100","","16","","11","","2.4","","98.89","","","","","","Thunderstorms,Rain Showers,Fog"
"1953-07-02 00:00","1953","07","02","00:00","18.9","","18.9","","100","","5","","5","","2.0","","98.81","","","","","","Rain Showers,Fog"
"1953-07-02 01:00","1953","07","02","01:00","18.9","","18.9","","100","","11","","10","","3.2","","98.83","","","","","","Fog"
"1953-07-02 02:00","1953","07","02","02:00","18.9","","18.9","","100","","16","","16","","4.0","","98.70","","","","","","Fog"
"1953-07-02 03:00","1953","07","02","03:00","18.9","","18.3","","97","","14","","11","","2.4","","98.60","","","","","","Fog"
"1953-07-02 04:00","1953","07","02","04:00","19.4","","18.3","","93","","9","","6","","1.6","","98.59","","","","","","Fog"
"1953-07-02 05:00","1953","07","02","05:00","18.9","","18.9","","100","","16","","19","","1.2","","98.50","","","","","","Fog"
"1953-07-02 06:00","1953","07","02","06:00","20.0","","19.4","","97","","18","","19","","1.6","","98.43","","27","","","","Fog"
"1953-07-02 07:00","1953","07","02","07:00","21.1","","20.0","","93","","18","","14","","4.0","","98.45","","29","","","","Fog"
"1953-07-02 08:00","1953","07","02","08:00","23.3","","21.7","","91","","23","","23","","11.3","","98.30","","32","","","","Mainly Clear"
"1953-07-02 09:00","1953","07","02","09:00","25.6","","21.7","","79","","23","","32","","16.1","","98.21","","35","","","","Mostly Cloudy"
"1953-07-02 10:00","1953","07","02","10:00","26.1","","21.7","","77","","23","","31","","16.1","","98.16","","35","","","","Mostly Cloudy"
"1953-07-02 11:00","1953","07","02","11:00","26.1","","21.7","","77","","23","","32","","19.3","","98.08","","35","","","","Mostly Cloudy"
"1953-07-02 12:00","1953","07","02","12:00","25.0","","21.1","","79","","20","","40","","12.9","","98.02","","34","","","","Cloudy"
"1953-07-02 13:00","1953","07","02","13:00","25.0","","21.7","","82","","23","","40","","12.9","","98.06","","34","","","","Cloudy"
"1953-07-02 14:00","1953","07","02","14:00","26.7","","21.1","","72","","23","","39","","14.5","","97.93","","35","","","","Mostly Cloudy"
"1953-07-02 15:00","1953","07","02","15:00","27.2","","22.2","","74","","23","","35","","16.1","","97.75","","37","","","","Mostly Cloudy"
"1953-07-02 16:00","1953","07","02","16:00","27.8","","22.8","","80","","23","","32","","16.1","","97.69","","38","","","","Mostly Cloudy"
"1953-07-02 17:00","1953","07","02","17:00","27.2","","22.8","","77","","23","","23","","16.1","","97.66","","37","","","","Cloudy"
"1953-07-02 18:00","1953","07","02","18:00","27.2","","20.0","","65","","25","","29","","24.1","","97.71","","35","","","","Mostly Cloudy"
"1953-07-02 19:00","1953","07","02","19:00","26.7","","21.1","","72","","25","","35","","24.1","","97.75","","35","","","","Mostly Cloudy"
"1953-07-02 20:00","1953","07","02","20:00","25.0","","18.9","","69","","27","","26","","24.1","","97.90","","32","","","","Mostly Cloudy"
"1953-07-02 21:00","1953","07","02","21:00","22.2","","17.8","","76","","27","","10","","25.0","","97.94","","28","","","","Mainly Clear"
"1953-07-02 22:00","1953","07","02","22:00","22.2","","18.3","","79","","27","","23","","25.0","","98.02","","28","","","","Mainly Clear"
"1953-07-02 23:00","1953","07","02","23:00","20.0","","15.6","","76","","29","","32","","25.0","","98.14","","","","","","Clear"
"1953-07-03 00:00","1953","07","03","00:00","18.3","","11.1","","63","","29","","32","","25.0","","98.31","","","","","","Mainly Clear"
"1953-07-03 01:00","1953","07","03","01:00","16.1","","8.9","","62","","29","","42","","25.0","","98.41","","","","","","Clear"
"1953-07-03 02:00","1953","07","03","02:00","12.8","","8.9","","77","","29","","39","","25.0","","98.59","","","","","","Clear"
"1953-07-03 03:00","1953","07","03","03:00","12.2","","9.4","","83","","27","","32","","25.0","","98.70","","","","","","Clear"
"1953-07-03 04:00","1953","07","03","04:00","12.2","","8.3","","77","","29","","26","","25.0","","98.78","","","","","","Mainly Clear"
"1953-07-03 05:00","1953","07","03","05:00","11.7","","8.9","","83","","29","","23","","25.0","","98.91","","","","","","Mainly Clear"
"1953-07-03 06:00","1953","07","03","06:00","13.3","","8.9","","74","","29","","26","","25.0","","98.98","","","","","","Mainly Clear"
"1953-07-03 07:00","1953","07","03","07:00","14.4","","8.9","","69","","29","","24","","25.0","","99.08","","","","","","Mainly Clear"
"1953-07-03 08:00","1953","07","03","08:00","15.6","","9.4","","67","","34","","26","","25.0","","99.20","","","","","","Mainly Clear"
"1953-07-03 09:00","1953","07","03","09:00","15.6","","10.6","","67","","29","","26","","25.0","","99.24","","","","","","Mainly Clear"
"1953-07-03 10:00","1953","07","03","10:00","17.8","","10.0","","58","","32","","23","","25.0","","99.32","","","","","","Mainly Clear"
"1953-07-03 11:00","1953","07","03","11:00","18.9","","11.1","","61","","27","","11","","25.0","","99.35","","","","","","Mainly Clear"
"1953-07-03 12:00","1953","07","03","12:00","20.6","","11.1","","55","","27","","24","","25.0","","99.33","","","","","","Mainly Clear"
"1953-07-03 13:00","1953","07","03","13:00","21.1","","11.1","","53","","29","","24","","25.0","","99.35","","","","","","Mainly Clear"
"1953-07-03 14:00","1953","07","03","14:00","21.1","","8.9","","46","","29","","26","","25.0","","99.38","","","","","","Mainly Clear"
"1953-07-03 15:00","1953","07","03","15:00","21.1","","10.0","","49","","32","","32","","25.0","","99.39","","","","","","Mainly Clear"
"1953-07-03 16:00","1953","07","03","16:00","21.1","","8.3","","44","","27","","26","","25.0","","99.37","","","","","","Clear"
"1953-07-03 17:00","1953","07","03","17:00","20.6","","8.9","","47","","32","","26","","25.0","","99.36","","","","","","Clear"
"1953-07-03 18:00","1953","07","03","18:00","20.0","","9.4","","49","","29","","21","","25.0","","99.44","","","","","","Clear"
"1953-07-03 19:00","1953","07","03","19:00","18.3","","8.3","","52","","29","","21","","25.0","","99.47","","","","","","Clear"
"1953-07-03 20:00","1953","07","03","20:00","15.0","","9.4","","69","","27","","19","","25.0","","99.53","","","","","","Clear"
"1953-07-03 21:00","1953","07","03","21:00","13.9","","9.4","","75","","25","","10","","25.0","","99.62","","","","","","Clear"
"1953-07-03 22:00","1953","07","03","22:00","12.8","","8.9","","77","","27","","10","","25.0","","99.64","","","","","","Clear"
"1953-07-03 23:00","1953","07","03","23:00","12.2","","7.8","","74","","32","","13","","25.0","","99.69","","","","","","Clear"
"1953-07-04 00:00","1953","07","04","00:00","11.7","","8.9","","83","","34","","11","","25.0","","99.68","","","","","","Clear"
"1953-07-04 01:00","1953","07","04","01:00","11.1","","7.8","","80","","34","","13","","25.0","","99.68","","","","","","Clear"
"1953-07-04 02:00","1953","07","04","02:00","9.4","","7.2","","86","","23","","6","","25.0","","99.74","","","","","","Clear"
"1953-07-04 03:00","1953","07","04","03:00","8.9","","7.8","","93","","25","","6","","25.0","","99.77","","","","","","Clear"
"1953-07-04 04:00","1953","07","04","04:00","8.9","","7.2","","89","","25","","6","","25.0","","99.80","","","","","","Mostly Cloudy"
"1953-07-04 05:00","1953","07","04","05:00","9.4","","7.8","","89","","27","","5","","24.1","","99.87","","","","","","Mostly Cloudy"
"1953-07-04 06:00","1953","07","04","06:00","12.8","","9.4","","80","","","","0","","25.0","","99.87","","","","","","Mostly Cloudy"
"1953-07-04 07:00","1953","07","04","07:00","14.4","","11.1","","81","","","","0","","25.0","","99.87","","","","","","Mostly Cloudy"
"1953-07-04 08:00","1953","07","04","08:00","18.3","","11.1","","63","","","","0","","25.0","","99.80","","","","","","Mainly Clear"
"1953-07-04 09:00","1953","07","04","09:00","18.9","","10.6","","58","","14","","6","","25.0","","99.79","","","","","","Mainly Clear"
"1953-07-04 10:00","1953","07","04","10:00","19.4","","8.3","","49","","20","","10","","25.0","","99.86","","","","","","Mainly Clear"
"1953-07-04 11:00","1953","07","04","11:00","20.6","","10.6","","53","","18","","11","","25.0","","99.83","","","","","","Mainly Clear"
"1953-07-04 12:00","1953","07","04","12:00","21.1","","10.0","","49","","16","","19","","25.0","","99.81","","","","","","Mainly Clear"
"1953-07-04 13:00","1953","07","04","13:00","21.1","","10.6","","51","","20","","13","","25.0","","99.77","","","","","","Mainly Clear"
"1953-07-04 14:00","1953","07","04","14:00","22.2","","11.1","","49","","18","","8","","25.0","","99.67","","","","","","Clear"
"1953-07-04 15:00","1953","07","04","15:00","22.8","","12.2","","51","","18","","19","","25.0","","99.66","","25","","","","Clear"
"1953-07-04 16:00","1953","07","04","16:00","22.2","","12.8","","55","","16","","16","","25.0","","99.62","","25","","","","Mainly Clear"
"1953-07-04 17:00","1953","07","04","17:00","22.8","","12.2","","51","","18","","13","","25.0","","99.61","","25","","","","Mainly Clear"
"1953-07-04 18:00","1953","07","04","18:00","21.7","","10.6","","49","","18","","16","","25.0","","99.58","","","","","","Mainly Clear"
"1953-07-04 19:00","1953","07","04","19:00","20.0","","7.2","","44","","18","","16","","25.0","","99.60","","","","","","Mainly Clear"
"1953-07-04 20:00","1953","07","04","20:00","17.8","","11.1","","65","","18","","16","","25.0","","99.56","","","","","","Mainly Clear"
"1953-07-04 21:00","1953","07","04","21:00","19.4","","10.0","","54","","18","","3","","25.0","","99.58","","","","","","Mainly Clear"
"1953-07-04 22:00","1953","07","04","22:00","17.2","","10.6","","65","","","","0","","25.0","","99.54","","","","","","Mainly Clear"
"1953-07-04 23:00","1953","07","04","23:00","15.0","","11.1","","78","","","","0","","25.0","","99.51","","","","","","Clear"
"1953-07-05 00:00","1953","07","05","00:00","14.4","","11.1","","81","","","","0","","25.0","","99.48","","","","","","Clear"
"1953-07-05 01:00","1953","07","05","01:00","13.9","","11.1","","83","","2","","5","","25.0","","99.49","","","","","","Mainly Clear"
"1953-07-05 02:00","1953","07","05","02:00","13.9","","11.1","","83","","36","","3","","25.0","","99.45","","","","","","Mainly Clear"
"1953-07-05 03:00","1953","07","05","03:00","13.3","","11.1","","86","","","","0","","25.0","","99.41","","","","","","Mainly Clear"
"1953-07-05 04:00","1953","07","05","04:00","13.9","","11.1","","90","","","","0","","8.0","","99.37","","","","","","Smoke"
"1953-07-05 05:00","1953","07","05","05:00","13.3","","11.1","","86","","36","","3","","9.7","","99.36","","","","","","Smoke"
"1953-07-05 06:00","1953","07","05","06:00","14.4","","12.8","","90","","27","","3","","9.7","","99.41","","","","","","Smoke"
"1953-07-05 07:00","1953","07","05","07:00","16.7","","13.9","","84","","34","","3","","8.0","","99.45","","","","","","Smoke"
"1953-07-05 08:00","1953","07","05","08:00","20.0","","12.2","","61","","16","","6","","9.7","","99.44","","","","","","Smoke"
"1953-07-05 09:00","1953","07","05","09:00","22.2","","14.4","","61","","18","","8","","11.3","","99.40","","26","","","","Clear"
"1953-07-05 10:00","1953","07","05","10:00","23.9","","14.4","","56","","18","","13","","16.1","","99.38","","28","","","","Clear"
"1953-07-05 11:00","1953","07","05","11:00","23.9","","15.6","","60","","18","","16","","16.1","","99.38","","28","","","","Clear"
"1953-07-05 12:00","1953","07","05","12:00","24.4","","16.1","","60","","16","","13","","16.1","","99.33","","29","","","","Clear"
"1953-07-05 13:00","1953","07","05","13:00","26.1","","16.7","","56","","18","","16","","12.9","","99.28","","31","","","","Clear"
"1953-07-05 14:00","1953","07","05","14:00","26.7","","17.8","","58","","18","","16","","12.9","","99.22","","33","","","","Clear"
"1953-07-05 15:00","1953","07","05","15:00","27.2","","17.8","","56","","16","","16","","9.7","","99.18","","33","","","","Haze"
"1953-07-05 16:00","1953","07","05","16:00","27.2","","18.3","","58","","16","","13","","9.7","","99.15","","33","","","","Haze"
"1953-07-05 17:00","1953","07","05","17:00","25.6","","16.7","","58","","16","","19","","6.4","","99.12","","31","","","","Haze"
"1953-07-05 18:00","1953","07","05","18:00","22.8","","13.9","","57","","18","","13","","9.7","","99.15","","26","","","","Haze"
"1953-07-05 19:00","1953","07","05","19:00","22.2","","13.3","","57","","18","","8","","11.3","","99.16","","25","","","","Mostly Cloudy"
"1953-07-05 20:00","1953","07","05","20:00","21.7","","14.4","","64","","23","","3","","12.9","","99.19","","25","","","","Cloudy"
"1953-07-05 21:00","1953","07","05","21:00","21.1","","15.6","","71","","","","0","","19.3","","99.18","","25","","","","Cloudy"
"1953-07-05 22:00","1953","07","05","22:00","20.0","","15.6","","76","","36","","21","","16.1","","99.13","","","","","","Rain Showers"
"1953-07-05 23:00","1953","07","05","23:00","19.4","","17.2","","84","","27","","3","","11.3","","99.05","","","","","","Cloudy"
"1953-07-06 00:00","1953","07","06","00:00","19.4","","16.1","","81","","20","","3","","12.9","","98.98","","","","","","Cloudy"
"1953-07-06 01:00","1953","07","06","01:00","18.9","","16.7","","87","","18","","5","","12.9","","98.91","","","","","","Cloudy"
"1953-07-06 02:00","1953","07","06","02:00","19.4","","16.7","","84","","20","","6","","6.4","","98.82","","","","","","Smoke"
"1953-07-06 03:00","1953","07","06","03:00","19.4","","16.7","","84","","","","0","","6.4","","98.72","","","","","","Smoke"
"1953-07-06 04:00","1953","07","06","04:00","18.3","","16.1","","87","","36","","16","","3.2","","98.73","","","","","","Smoke"
"1953-07-06 05:00","1953","07","06","05:00","20.0","","17.2","","84","","36","","19","","8.0","","98.76","","25","","","","Smoke"
"1953-07-06 06:00","1953","07","06","06:00","19.4","","17.8","","90","","2","","16","","19.3","","98.74","","","","","","Cloudy"
"1953-07-06 07:00","1953","07","06","07:00","19.4","","17.8","","90","","2","","10","","19.3","","98.70","","","","","","Cloudy"
"1953-07-06 08:00","1953","07","06","08:00","20.0","","17.8","","87","","2","","11","","12.9","","98.72","","26","","","","Cloudy"
"1953-07-06 09:00","1953","07","06","09:00","19.4","","18.3","","93","","5","","13","","8.0","","98.64","","","","","","Rain Showers,Fog"
"1953-07-06 10:00","1953","07","06","10:00","20.0","","18.9","","93","","7","","13","","9.7","","98.61","","27","","","","Rain Showers,Fog"
"1953-07-06 11:00","1953","07","06","11:00","22.2","","19.4","","84","","7","","16","","16.1","","98.60","","29","","","","Mostly Cloudy"
"1953-07-06 12:00","1953","07","06","12:00","22.2","","19.4","","84","","11","","8","","16.1","","98.58","","29","","","","Cloudy"
"1953-07-06 13:00","1953","07","06","13:00","23.3","","20.0","","82","","14","","5","","16.1","","98.59","","31","","","","Cloudy"
"1953-07-06 14:00","1953","07","06","14:00","23.9","","21.1","","85","","18","","10","","16.1","","98.55","","32","","","","Mostly Cloudy"
"1953-07-06 15:00","1953","07","06","15:00","25.6","","20.0","","72","","23","","13","","12.9","","98.49","","33","","","","Mostly Cloudy"
"1953-07-06 16:00","1953","07","06","16:00","22.2","","18.9","","82","","36","","23","","25.0","","98.54","","29","","","","Mostly Cloudy"
"1953-07-06 17:00","1953","07","06","17:00","22.2","","17.2","","73","","36","","18","","25.0","","98.58","","28","","","","Mostly Cloudy"
"1953-07-06 18:00","1953","07","06","18:00","22.2","","17.2","","73","","34","","13","","25.0","","98.62","","28","","","","Mostly Cloudy"
"1953-07-06 19:00","1953","07","06","19:00","21.7","","15.0","","68","","34","","16","","25.0","","98.68","","26","","","","Mainly Clear"
"1953-07-06 20:00","1953","07","06","20:00","18.9","","11.1","","61","","29","","13","","25.0","","98.73","","","","","","Mainly Clear"
"1953-07-06 21:00","1953","07","06","21:00","17.2","","12.8","","75","","27","","11","","25.0","","98.78","","","","","","Clear"
"1953-07-06 22:00","1953","07","06","22:00","16.1","","12.8","","81","","27","","8","","25.0","","98.85","","","","","","Clear"
"1953-07-06 23:00","1953","07","06","23:00","15.0","","12.2","","84","","27","","13","","25.0","","98.88","","","","","","Clear"
"1953-07-07 00:00","1953","07","07","00:00","15.0","","12.2","","84","","27","","3","","25.0","","98.95","","","","","","Clear"
"1953-07-07 01:00","1953","07","07","01:00","14.4","","11.7","","84","","27","","8","","25.0","","98.97","","","","","","Clear"
"1953-07-07 02:00","1953","07","07","02:00","13.3","","11.1","","86","","","","0","","25.0","","98.99","","","","","","Clear"
"1953-07-07 03:00","1953","07","07","03:00","12.2","","9.4","","83","","27","","6","","25.0","","98.99","","","","","","Clear"
"1953-07-07 04:00","1953","07","07","04:00","12.2","","9.4","","83","","27","","6","","25.0","","98.99","","","","","","Clear"
"1953-07-07 05:00","1953","07","07","05:00","12.8","","10.0","","83","","23","","6","","25.0","","99.00","","","","","","Clear"
"1953-07-07 06:00","1953","07","07","06:00","14.4","","11.7","","84","","27","","3","","25.0","","99.00","","","","","","Clear"
"1953-07-07 07:00","1953","07","07","07:00","17.2","","12.8","","75","","20","","10","","25.0","","98.98","","","","","","Clear"
"1953-07-07 08:00","1953","07","07","08:00","20.0","","13.9","","68","","18","","16","","24.1","","98.98","","","","","","Mainly Clear"
"1953-07-07 09:00","1953","07","07","09:00","22.2","","13.9","","59","","20","","19","","25.0","","98.95","","26","","","","Mainly Clear"
"1953-07-07 10:00","1953","07","07","10:00","24.4","","15.0","","56","","23","","29","","25.0","","98.91","","28","","","","Mainly Clear"
"1953-07-07 11:00","1953","07","07","11:00","25.6","","15.0","","52","","27","","39","","25.0","","98.89","","30","","","","Mainly Clear"
"1953-07-07 12:00","1953","07","07","12:00","26.1","","13.9","","47","","25","","32","","25.0","","98.86","","29","","","","Mainly Clear"
"1953-07-07 13:00","1953","07","07","13:00","26.1","","13.3","","44","","23","","29","","25.0","","98.79","","29","","","","Mostly Cloudy"
"1953-07-07 14:00","1953","07","07","14:00","27.8","","13.9","","43","","23","","40","","25.0","","98.71","","31","","","","Mostly Cloudy"
"1953-07-07 15:00","1953","07","07","15:00","27.2","","13.3","","43","","25","","42","","25.0","","98.68","","30","","","","Mostly Cloudy"
"1953-07-07 16:00","1953","07","07","16:00","23.3","","16.1","","64","","27","","23","","25.0","","98.72","","28","","","","Mostly Cloudy"
"1953-07-07 17:00","1953","07","07","17:00","25.6","","16.7","","58","","23","","29","","25.0","","98.68","","31","","","","Mostly Cloudy"
"1953-07-07 18:00","1953","07","07","18:00","22.8","","18.9","","79","","25","","32","","25.0","","98.70","","29","","","","Mostly Cloudy"
"1953-07-07 19:00","1953","07","07","19:00","22.2","","15.0","","64","","25","","19","","25.0","","98.71","","26","","","","Mainly Clear"
"1953-07-07 20:00","1953","07","07","20:00","20.6","","15.6","","73","","23","","13","","25.0","","98.75","","25","","","","Mostly Cloudy"
"1953-07-07 21:00","1953","07","07","21:00","17.8","","13.9","","78","","34","","29","","25.0","","98.91","","","","","","Rain Showers"
"1953-07-07 22:00","1953","07","07","22:00","16.1","","13.3","","84","","2","","6","","25.0","","98.73","","","","","","Mostly Cloudy"
"1953-07-07 23:00","1953","07","07","23:00","16.1","","13.3","","84","","34","","13","","25.0","","98.85","","","","","","Mainly Clear"
"1953-07-08 00:00","1953","07","08","00:00","16.1","","13.3","","84","","34","","10","","25.0","","98.88","","","","","","Mostly Cloudy"
"1953-07-08 01:00","1953","07","08","01:00","15.6","","13.9","","90","","23","","6","","25.0","","98.93","","","","","","Rain Showers"
"1953-07-08 02:00","1953","07","08","02:00","15.0","","12.2","","84","","32","","13","","25.0","","99.00","","","","","","Cloudy"
"1953-07-08 03:00","1953","07","08","03:00","14.4","","11.7","","84","","36","","10","","25.0","","98.94","","","","","","Mostly Cloudy"
"1953-07-08 04:00","1953","07","08","04:00","13.9","","12.2","","90","","27","","6","","25.0","","99.00","","","","","","Mostly Cloudy"
"1953-07-08 05:00","1953","07","08","05:00","13.9","","12.2","","90","","23","","8","","25.0","","99.05","","","","","","Mostly Cloudy"
"1953-07-08 06:00","1953","07","08","06:00","14.4","","11.7","","84","","23","","6","","25.0","","99.07","","","","","","Mostly Cloudy"
"1953-07-08 07:00","1953","07","08","07:00","16.1","","9.4","","65","","27","","6","","25.0","","99.09","","","","","","Mostly Cloudy"
"1953-07-08 08:00","1953","07","08","08:00","17.8","","8.9","","59","","23","","6","","25.0","","99.11","","","","","","Mostly Cloudy"
"1953-07-08 09:00","1953","07","08","09:00","18.9","","8.9","","52","","27","","13","","25.0","","99.11","","","","","","Mainly Clear"
"1953-07-08 10:00","1953","07","08","10:00","20.0","","7.2","","44","","32","","21","","25.0","","99.11","","","","","","Mainly Clear"
"1953-07-08 11:00","1953","07","08","11:00","20.6","","8.3","","44","","32","","19","","25.0","","99.10","","","","","","Mainly Clear"
"1953-07-08 12:00","1953","07","08","12:00","21.1","","10.0","","49","","32","","23","","25.0","","99.09","","","","","","Mostly Cloudy"
"1953-07-08 13:00","1953","07","08","13:00","21.7","","9.4","","46","","29","","21","","25.0","","99.07","","","","","","Mostly Cloudy"
"1953-07-08 14:00","1953","07","08","14:00","22.2","","8.9","","43","","27","","32","","25.0","","99.04","","","","","","Mainly Clear"
"1953-07-08 15:00","1953","07","08","15:00","22.2","","7.8","","39","","29","","13","","25.0","","99.01","","","","","","Mainly Clear"
"1953-07-08 16:00","1953","07","08","16:00","22.2","","6.7","","37","","29","","27","","25.0","","99.03","","","","","","Mainly Clear"
"1953-07-08 17:00","1953","07","08","17:00","21.1","","7.2","","41","","29","","26","","25.0","","99.02","","","","","","Mainly Clear"
"1953-07-08 18:00","1953","07","08","18:00","20.6","","7.8","","44","","29","","29","","25.0","","99.02","","","","","","Mainly Clear"
"1953-07-08 19:00","1953","07","08","19:00","19.4","","8.9","","52","","32","","19","","25.0","","99.06","","","","","","Mainly Clear"
"1953-07-08 20:00","1953","07","08","20:00","16.7","","8.9","","60","","27","","13","","25.0","","99.08","","","","","","Mainly Clear"
"1953-07-08 21:00","1953","07","08","21:00","15.6","","8.9","","67","","27","","13","","25.0","","99.17","","","","","","Clear"
"1953-07-08 22:00","1953","07","08","22:00","14.4","","10.0","","75","","29","","18","","25.0","","99.15","","","","","","Clear"
"1953-07-08 23:00","1953","07","08","23:00","13.3","","8.3","","72","","29","","16","","25.0","","99.18","","","","","","Clear"
"1953-07-09 00:00","1953","07","09","00:00","12.2","","7.8","","74","","27","","11","","25.0","","99.19","","","","","","Clear"
"1953-07-09 01:00","1953","07","09","01:00","11.7","","7.8","","77","","27","","11","","25.0","","99.21","","","","","","Clear"
"1953-07-09 02:00","1953","07","09","02:00","10.6","","7.2","","80","","27","","16","","25.0","","99.18","","","","","","Mainly Clear"
"1953-07-09 03:00","1953","07","09","03:00","10.0","","6.7","","80","","27","","13","","25.0","","99.21","","","","","","Mainly Clear"
"1953-07-09 04:00","1953","07","09","04:00","9.4","","7.2","","86","","27","","13","","25.0","","99.23","","","","","","Mainly Clear"
"1953-07-09 05:00","1953","07","09","05:00","10.0","","6.7","","80","","27","","8","","25.0","","99.28","","","","","","Mainly Clear"
"1953-07-09 06:00","1953","07","09","06:00","12.8","","8.3","","74","","27","","16","","25.0","","99.31","","","","","","Mainly Clear"
"1953-07-09 07:00","1953","07","09","07:00","13.9","","8.9","","72","","32","","26","","25.0","","99.34","","","","","","Mainly Clear"
"1953-07-09 08:00","1953","07","09","08:00","15.6","","7.2","","60","","29","","26","","25.0","","99.41","","","","","","Mainly Clear"
"1953-07-09 09:00","1953","07","09","09:00","15.6","","6.1","","53","","32","","26","","25.0","","99.48","","","","","","Mainly Clear"
"1953-07-09 10:00","1953","07","09","10:00","16.7","","7.2","","54","","32","","26","","25.0","","99.52","","","","","","Mostly Cloudy"
"1953-07-09 11:00","1953","07","09","11:00","16.7","","7.2","","54","","32","","24","","25.0","","99.55","","","","","","Mostly Cloudy"
"1953-07-09 12:00","1953","07","09","12:00","17.2","","7.2","","52","","32","","19","","25.0","","99.53","","","","","","Mostly Cloudy"
"1953-07-09 13:00","1953","07","09","13:00","18.9","","7.8","","48","","34","","18","","25.0","","99.54","","","","","","Mostly Cloudy"
"1953-07-09 14:00","1953","07","09","14:00","18.3","","8.9","","54","","34","","16","","25.0","","99.57","","","","","","Mostly Cloudy"
"1953-07-09 15:00","1953","07","09","15:00","18.3","","8.3","","52","","36","","21","","25.0","","99.61","","","","","","Mostly Cloudy"
"1953-07-09 16:00","1953","07","09","16:00","18.3","","8.9","","54","","34","","21","","25.0","","99.63","","","","","","Mostly Cloudy"
"1953-07-09 17:00","1953","07","09","17:00","18.9","","7.8","","48","","34","","21","","25.0","","99.63","","","","","","Mostly Cloudy"
"1953-07-09 18:00","1953","07","09","18:00","17.8","","7.8","","50","","36","","13","","25.0","","99.62","","","","","","Mostly Cloudy"
"1953-07-09 19:00","1953","07","09","19:00","17.8","","10.6","","63","","36","","10","","25.0","","99.69","","","","","","Mostly Cloudy"
"1953-07-09 20:00","1953","07","09","20:00","16.7","","10.0","","65","","29","","11","","25.0","","99.71","","","","","","Mostly Cloudy"
"1953-07-09 21:00","1953","07","09","21:00","15.0","","10.6","","75","","29","","13","","25.0","","99.79","","","","","","Mostly Cloudy"
"1953-07-09 22:00","1953","07","09","22:00","14.4","","9.4","","72","","29","","11","","25.0","","99.81","","","","","","Mostly Cloudy"
"1953-07-09 23:00","1953","07","09","23:00","13.3","","9.4","","77","","32","","13","","25.0","","99.83","","","","","","Mainly Clear"
"1953-07-10 00:00","1953","07","10","00:00","12.8","","9.4","","80","","27","","16","","25.0","","99.84","","","","","","Mainly Clear"
"1953-07-10 01:00","1953","07","10","01:00","12.2","","9.4","","83","","27","","16","","25.0","","99.85","","","","","","Clear"
"1953-07-10 02:00","1953","07","10","02:00","11.7","","8.9","","83","","29","","14","","25.0","","99.85","","","","","","Mainly Clear"
"1953-07-10 03:00","1953","07","10","03:00","11.1","","8.9","","86","","29","","16","","25.0","","99.87","","","","","","Mainly Clear"
"1953-07-10 04:00","1953","07","10","04:00","11.1","","8.9","","86","","27","","16","","25.0","","99.88","","","","","","Mainly Clear"
"1953-07-10 05:00","1953","07","10","05:00","11.7","","9.4","","86","","27","","18","","25.0","","99.92","","","","","","Mainly Clear"
"1953-07-10 06:00","1953","07","10","06:00","13.3","","10.6","","83","","32","","14","","25.0","","99.96","","","","","","Clear"
"1953-07-10 07:00","1953","07","10","07:00","15.0","","11.1","","78","","32","","16","","25.0","","99.95","","","","","","Clear"
"1953-07-10 08:00","1953","07","10","08:00","16.7","","11.7","","72","","32","","16","","25.0","","100.00","","","","","","Mainly Clear"
"1953-07-10 09:00","1953","07","10","09:00","18.3","","10.6","","61","","32","","21","","25.0","","100.01","","","","","","Mainly Clear"
"1953-07-10 10:00","1953","07","10","10:00","20.0","","9.4","","51","","29","","26","","25.0","","100.03","","","","","","Mainly Clear"
"1953-07-10 11:00","1953","07","10","11:00","21.1","","8.9","","47","","32","","26","","25.0","","100.01","","","","","","Mainly Clear"
"1953-07-10 12:00","1953","07","10","12:00","22.2","","10.0","","46","","27","","29","","25.0","","100.01","","","","","","Mostly Cloudy"
"1953-07-10 13:00","1953","07","10","13:00","22.2","","10.0","","46","","32","","29","","25.0","","99.97","","","","","","Mostly Cloudy"
"1953-07-10 14:00","1953","07","10","14:00","22.2","","10.0","","47","","32","","21","","25.0","","99.93","","","","","","Mostly Cloudy"
"1953-07-10 15:00","1953","07","10","15:00","22.2","","10.0","","46","","32","","24","","25.0","","99.93","","","","","","Mostly Cloudy"
"1953-07-10 16:00","1953","07","10","16:00","23.3","","10.0","","43","","32","","19","","25.0","","99.87","","25","","","","Mainly Clear"
"1953-07-10 17:00","1953","07","10","17:00","23.3","","10.6","","45","","29","","24","","25.0","","99.86","","25","","","","Mainly Clear"
"1953-07-10 18:00","1953","07","10","18:00","22.8","","10.0","","44","","29","","24","","25.0","","99.89","","","","","","Mainly Clear"
"1953-07-10 19:00","1953","07","10","19:00","21.1","","10.6","","51","","29","","16","","25.0","","99.93","","","","","","Mainly Clear"
"1953-07-10 20:00","1953","07","10","20:00","20.0","","8.3","","47","","27","","16","","25.0","","99.94","","","","","","Mainly Clear"
"1953-07-10 21:00","1953","07","10","21:00","16.7","","11.1","","70","","25","","16","","25.0","","99.97","","","","","","Mainly Clear"
"1953-07-10 22:00","1953","07","10","22:00","16.1","","10.0","","67","","25","","11","","25.0","","100.02","","","","","","Clear"
"1953-07-10 23:00","1953","07","10","23:00","15.0","","10.0","","72","","23","","11","","25.0","","99.98","","","","","","Clear"
"1953-07-11 00:00","1953","07","11","00:00","15.0","","10.0","","72","","25","","16","","25.0","","99.96","","","","","","Clear"
"1953-07-11 01:00","1953","07","11","01:00","15.6","","10.0","","72","","27","","6","","25.0","","99.95","","","","","","Clear"
"1953-07-11 02:00","1953","07","11","02:00","15.6","","9.4","","67","","27","","8","","25.0","","99.93","","","","","","Clear"
"1953-07-11 03:00","1953","07","11","03:00","15.0","","9.4","","69","","25","","10","","25.0","","99.93","","","","","","Clear"
"1953-07-11 04:00","1953","07","11","04:00","13.9","","10.0","","77","","27","","13","","25.0","","99.93","","","","","","Mainly Clear"
"1953-07-11 05:00","1953","07","11","05:00","14.4","","9.4","","72","","25","","10","","24.1","","99.98","","","","","","Mostly Cloudy"
"1953-07-11 06:00","1953","07","11","06:00","16.1","","11.7","","75","","27","","13","","24.1","","100.03","","","","","","Mainly Clear"
"1953-07-11 07:00","1953","07","11","07:00","18.9","","12.8","","70","","27","","13","","24.1","","100.07","","","","","","Mainly Clear"
"1953-07-11 08:00","1953","07","11","08:00","22.2","","12.8","","55","","29","","18","","25.0","","100.08","","25","","","","Mainly Clear"
"1953-07-11 09:00","1953","07","11","09:00","23.9","","12.2","","48","","27","","27","","25.0","","100.06","","26","","","","Mainly Clear"
"1953-07-11 10:00","1953","07","11","10:00","24.4","","11.1","","43","","27","","29","","25.0","","100.06","","26","","","","Mainly Clear"
"1953-07-11 11:00","1953","07","11","11:00","25.0","","10.6","","40","","27","","31","","25.0","","100.03","","27","","","","Mostly Cloudy"
"1953-07-11 12:00","1953","07","11","12:00","25.0","","12.2","","45","","25","","24","","25.0","","100.03","","27","","","","Mostly Cloudy"
"1953-07-11 13:00","1953","07","11","13:00","25.6","","11.1","","41","","25","","27","","25.0","","100.00","","27","","","","Mostly Cloudy"
"1953-07-11 14:00","1953","07","11","14:00","25.6","","12.2","","44","","25","","24","","25.0","","99.98","","28","","","","Mostly Cloudy"
"1953-07-11 15:00","1953","07","11","15:00","26.1","","10.6","","38","","25","","23","","25.0","","99.96","","28","","","","Mostly Cloudy"
"1953-07-11 16:00","1953","07","11","16:00","24.4","","11.1","","43","","25","","23","","25.0","","99.93","","26","","","","Mostly Cloudy"
"1953-07-11 17:00","1953","07","11","17:00","24.4","","13.3","","50","","27","","10","","25.0","","99.89","","27","","","","Rain Showers"
"1953-07-11 18:00","1953","07","11","18:00","23.9","","13.9","","54","","27","","11","","25.0","","99.88","","27","","","","Cloudy"
"1953-07-11 19:00","1953","07","11","19:00","22.8","","12.8","","53","","27","","10","","25.0","","99.88","","25","","","","Cloudy"
"1953-07-11 20:00","1953","07","11","20:00","22.2","","11.7","","51","","23","","11","","25.0","","99.89","","","","","","Cloudy"
"1953-07-11 21:00","1953","07","11","21:00","21.1","","11.7","","55","","20","","11","","25.0","","99.94","","","","","","Cloudy"
"1953-07-11 22:00","1953","07","11","22:00","20.0","","13.9","","68","","29","","6","","24.1","","100.06","","","","","","Rain Showers"
"1953-07-11 23:00","1953","07","11","23:00","19.4","","14.4","","73","","18","","10","","25.0","","100.04","","","","","","Cloudy"
"1953-07-12 00:00","1953","07","12","00:00","18.9","","15.0","","78","","18","","13","","25.0","","99.99","","","","","","Cloudy"
"1953-07-12 01:00","1953","07","12","01:00","18.9","","13.9","","73","","18","","10","","25.0","","99.98","","","","","","Cloudy"
"1953-07-12 02:00","1953","07","12","02:00","17.8","","15.0","","84","","23","","16","","25.0","","99.96","","","","","","Rain Showers"
"1953-07-12 03:00","1953","07","12","03:00","17.8","","14.4","","81","","18","","16","","25.0","","99.93","","","","","","Cloudy"
"1953-07-12 04:00","1953","07","12","04:00","17.8","","13.3","","75","","23","","21","","25.0","","99.93","","","","","","Cloudy"
"1953-07-12 05:00","1953","07","12","05:00","17.8","","13.3","","75","","36","","6","","19.3","","99.98","","","","","","Mostly Cloudy"
"1953-07-12 06:00","1953","07","12","06:00","18.3","","13.9","","75","","34","","6","","16.1","","100.02","","","","","","Mostly Cloudy"
"1953-07-12 07:00","1953","07","12","07:00","18.3","","15.0","","81","","27","","5","","16.1","","100.02","","","","","","Mostly Cloudy"
"1953-07-12 08:00","1953","07","12","08:00","22.2","","15.6","","66","","29","","11","","16.1","","100.04","","27","","","","Mostly Cloudy"
"1953-07-12 09:00","1953","07","12","09:00","23.9","","16.7","","64","","36","","5","","16.1","","100.02","","29","","","","Mostly Cloudy"
"1953-07-12 10:00","1953","07","12","10:00","25.0","","14.4","","52","","34","","11","","24.1","","100.03","","29","","","","Mainly Clear"
"1953-07-12 11:00","1953","07","12","11:00","26.1","","15.0","","51","","23","","3","","25.0","","100.03","","30","","","","Mainly Clear"
"1953-07-12 12:00","1953","07","12","12:00","26.7","","15.0","","49","","5","","10","","25.0","","100.00","","31","","","","Mainly Clear"
"1953-07-12 13:00","1953","07","12","13:00","27.2","","15.6","","49","","5","","13","","25.0","","99.96","","32","","","","Thunderstorms"
"1953-07-12 14:00","1953","07","12","14:00","21.1","","17.8","","81","","5","","16","","24.1","","100.00","","27","","","","Thunderstorms,Rain"
"1953-07-12 15:00","1953","07","12","15:00","23.3","","16.7","","66","","7","","8","","25.0","","100.01","","28","","","","Mostly Cloudy"
"1953-07-12 16:00","1953","07","12","16:00","23.9","","15.0","","58","","36","","11","","25.0","","99.96","","28","","","","Mostly Cloudy"
"1953-07-12 17:00","1953","07","12","17:00","24.4","","15.0","","56","","32","","5","","25.0","","99.95","","28","","","","Mostly Cloudy"
"1953-07-12 18:00","1953","07","12","18:00","23.9","","16.7","","64","","23","","8","","25.0","","99.97","","29","","","","Mostly Cloudy"
"1953-07-12 19:00","1953","07","12","19:00","22.8","","17.2","","71","","23","","8","","25.0","","99.98","","28","","","","Mostly Cloudy"
"1953-07-12 20:00","1953","07","12","20:00","21.7","","16.7","","73","","27","","10","","25.0","","99.97","","27","","","","Mostly Cloudy"
"1953-07-12 21:00","1953","07","12","21:00","21.1","","16.1","","73","","32","","3","","25.0","","99.97","","26","","","","Mostly Cloudy"
"1953-07-12 22:00","1953","07","12","22:00","20.6","","16.7","","79","","","","0","","25.0","","99.93","","26","","","","Mostly Cloudy"
"1953-07-12 23:00","1953","07","12","23:00","18.9","","16.7","","87","","","","0","","25.0","","99.89","","","","","","Mainly Clear"
"1953-07-13 00:00","1953","07","13","00:00","18.3","","15.6","","84","","32","","6","","25.0","","99.88","","","","","","Mostly Cloudy"
"1953-07-13 01:00","1953","07","13","01:00","17.8","","15.6","","87","","34","","11","","25.0","","99.88","","","","","","Mostly Cloudy"
"1953-07-13 02:00","1953","07","13","02:00","17.2","","15.0","","87","","36","","6","","25.0","","99.85","","","","","","Mostly Cloudy"
"1953-07-13 03:00","1953","07","13","03:00","17.2","","15.0","","87","","36","","6","","25.0","","99.86","","","","","","Cloudy"
"1953-07-13 04:00","1953","07","13","04:00","17.2","","15.0","","87","","25","","3","","25.0","","99.87","","","","","","Cloudy"
"1953-07-13 05:00","1953","07","13","05:00","17.2","","15.0","","87","","29","","3","","25.0","","99.89","","","","","","Mostly Cloudy"
"1953-07-13 06:00","1953","07","13","06:00","17.8","","15.0","","84","","34","","5","","25.0","","99.92","","","","","","Mostly Cloudy"
"1953-07-13 07:00","1953","07","13","07:00","18.9","","15.6","","81","","32","","3","","24.1","","99.92","","","","","","Mostly Cloudy"
"1953-07-13 08:00","1953","07","13","08:00","22.2","","16.7","","71","","36","","6","","24.1","","99.92","","27","","","","Mainly Clear"
"1953-07-13 09:00","1953","07","13","09:00","23.9","","15.0","","58","","2","","10","","24.1","","99.92","","28","","","","Mainly Clear"
"1953-07-13 10:00","1953","07","13","10:00","25.6","","17.2","","60","","36","","8","","24.1","","99.86","","31","","","","Mainly Clear"
"1953-07-13 11:00","1953","07","13","11:00","26.1","","15.6","","52","","2","","10","","24.1","","99.80","","30","","","","Mainly Clear"
"1953-07-13 12:00","1953","07","13","12:00","26.7","","15.6","","51","","5","","10","","24.1","","99.77","","31","","","","Mainly Clear"
"1953-07-13 13:00","1953","07","13","13:00","27.2","","16.7","","53","","32","","10","","24.1","","99.76","","32","","","","Mostly Cloudy"
"1953-07-13 14:00","1953","07","13","14:00","23.9","","18.9","","74","","18","","8","","24.1","","99.73","","31","","","","Rain Showers"
"1953-07-13 15:00","1953","07","13","15:00","25.6","","17.8","","62","","25","","13","","16.1","","99.67","","31","","","","Mostly Cloudy"
"1953-07-13 16:00","1953","07","13","16:00","24.4","","18.3","","69","","29","","14","","16.1","","99.65","","31","","","","Mostly Cloudy"
"1953-07-13 17:00","1953","07","13","17:00","24.4","","14.4","","54","","27","","13","","19.3","","99.61","","28","","","","Mostly Cloudy"
"1953-07-13 18:00","1953","07","13","18:00","23.9","","17.8","","69","","20","","6","","19.3","","99.59","","30","","","","Mostly Cloudy"
"1953-07-13 19:00","1953","07","13","19:00","23.3","","18.9","","76","","27","","6","","16.1","","99.62","","30","","","","Mostly Cloudy"
"1953-07-13 20:00","1953","07","13","20:00","21.1","","16.7","","76","","25","","6","","16.1","","99.61","","26","","","","Mostly Cloudy"
"1953-07-13 21:00","1953","07","13","21:00","20.6","","16.1","","76","","27","","5","","24.1","","99.62","","25","","","","Mainly Clear"
"1953-07-13 22:00","1953","07","13","22:00","19.4","","16.1","","81","","36","","10","","24.1","","99.62","","","","","","Clear"
"1953-07-13 23:00","1953","07","13","23:00","18.9","","17.2","","84","","34","","6","","24.1","","99.61","","","","","","Clear"
"1953-07-14 00:00","1953","07","14","00:00","18.3","","15.6","","84","","27","","6","","16.1","","99.62","","","","","","Clear"
"1953-07-14 01:00","1953","07","14","01:00","17.2","","14.4","","84","","29","","5","","11.3","","99.65","","","","","","Clear"
"1953-07-14 02:00","1953","07","14","02:00","17.2","","14.4","","84","","36","","8","","9.7","","99.66","","","","","","Haze"
"1953-07-14 03:00","1953","07","14","03:00","16.1","","13.3","","84","","27","","6","","9.7","","99.66","","","","","","Haze"
"1953-07-14 04:00","1953","07","14","04:00","16.1","","13.9","","87","","27","","8","","3.2","","99.70","","","","","","Fog"
"1953-07-14 05:00","1953","07","14","05:00","15.6","","13.9","","90","","36","","6","","8.0","","99.77","","","","","","Fog"
"1953-07-14 06:00","1953","07","14","06:00","17.8","","15.0","","84","","29","","3","","12.9","","99.82","","","","","","Mainly Clear"
"1953-07-14 07:00","1953","07","14","07:00","20.6","","16.1","","76","","27","","2","","16.1","","99.84","","25","","","","Mainly Clear"
"1953-07-14 08:00","1953","07","14","08:00","23.9","","16.1","","62","","27","","6","","16.1","","99.87","","29","","","","Mainly Clear"
"1953-07-14 09:00","1953","07","14","09:00","25.6","","15.6","","54","","27","","3","","16.1","","99.90","","30","","","","Mainly Clear"
"1953-07-14 10:00","1953","07","14","10:00","26.7","","16.1","","52","","27","","3","","16.1","","99.90","","31","","","","Mainly Clear"
"1953-07-14 11:00","1953","07","14","11:00","27.8","","16.1","","49","","34","","5","","19.3","","99.93","","32","","","","Mainly Clear"
"1953-07-14 12:00","1953","07","14","12:00","27.8","","16.7","","51","","23","","8","","19.3","","99.91","","33","","","","Mainly Clear"
"1953-07-14 13:00","1953","07","14","13:00","28.3","","16.1","","48","","32","","13","","19.3","","99.90","","33","","","","Mainly Clear"
"1953-07-14 14:00","1953","07","14","14:00","28.9","","16.1","","46","","5","","10","","19.3","","99.87","","34","","","","Mainly Clear"
"1953-07-14 15:00","1953","07","14","15:00","28.3","","16.1","","48","","18","","16","","19.3","","99.87","","33","","","","Mainly Clear"
"1953-07-14 16:00","1953","07","14","16:00","28.3","","16.1","","48","","16","","16","","19.3","","99.86","","33","","","","Mainly Clear"
"1953-07-14 17:00","1953","07","14","17:00","27.8","","16.1","","49","","18","","13","","24.1","","99.84","","32","","","","Mainly Clear"
"1953-07-14 18:00","1953","07","14","18:00","26.7","","17.2","","56","","18","","11","","24.1","","99.85","","32","","","","Mainly Clear"
"1953-07-14 19:00","1953","07","14","19:00","25.6","","10.6","","39","","18","","6","","24.1","","99.87","","27","","","","Mainly Clear"
"1953-07-14 20:00","1953","07","14","20:00","23.3","","16.1","","64","","20","","6","","24.1","","99.92","","28","","","","Mainly Clear"
"1953-07-14 21:00","1953","07","14","21:00","22.2","","16.1","","68","","5","","6","","24.1","","99.97","","27","","","","Mainly Clear"
"1953-07-14 22:00","1953","07","14","22:00","22.2","","17.2","","73","","36","","6","","24.1","","100.00","","28","","","","Mainly Clear"
"1953-07-14 23:00","1953","07","14","23:00","20.6","","16.7","","79","","36","","10","","24.1","","100.00","","26","","","","Clear"
"1953-07-15 00:00","1953","07","15","00:00","20.0","","16.1","","78","","34","","10","","16.1","","100.02","","25","","","","Clear"
"1953-07-15 01:00","1953","07","15","01:00","19.4","","16.1","","81","","34","","10","","16.1","","100.04","","","","","","Clear"
"1953-07-15 02:00","1953","07","15","02:00","18.9","","15.6","","81","","34","","10","","12.9","","100.04","","","","","","Clear"
"1953-07-15 03:00","1953","07","15","03:00","18.9","","16.1","","84","","34","","6","","12.9","","100.04","","","","","","Clear"
"1953-07-15 04:00","1953","07","15","04:00","18.3","","14.4","","78","","34","","8","","12.9","","100.10","","","","","","Clear"
"1953-07-15 05:00","1953","07","15","05:00","17.8","","14.4","","81","","36","","16","","12.9","","100.16","","","","","","Clear"
"1953-07-15 06:00","1953","07","15","06:00","18.9","","15.0","","78","","36","","10","","12.9","","100.18","","","","","","Clear"
"1953-07-15 07:00","1953","07","15","07:00","20.6","","16.1","","76","","36","","6","","12.9","","100.22","","25","","","","Clear"
"1953-07-15 08:00","1953","07","15","08:00","23.3","","12.2","","50","","36","","8","","12.9","","100.26","","26","","","","Clear"
"1953-07-15 09:00","1953","07","15","09:00","25.6","","17.2","","60","","5","","6","","11.3","","100.27","","31","","","","Clear"
"1953-07-15 10:00","1953","07","15","10:00","26.7","","16.1","","52","","5","","6","","11.3","","100.26","","31","","","","Clear"
"1953-07-15 11:00","1953","07","15","11:00","27.8","","16.1","","49","","5","","8","","11.3","","100.27","","32","","","","Clear"
"1953-07-15 12:00","1953","07","15","12:00","28.9","","17.2","","50","","36","","10","","11.3","","100.29","","34","","","","Mainly Clear"
"1953-07-15 13:00","1953","07","15","13:00","28.9","","15.6","","45","","34","","11","","11.3","","100.23","","33","","","","Mainly Clear"
"1953-07-15 14:00","1953","07","15","14:00","30.0","","15.0","","40","","32","","11","","11.3","","100.19","","34","","","","Mainly Clear"
"1953-07-15 15:00","1953","07","15","15:00","29.4","","15.0","","42","","34","","16","","19.3","","100.17","","33","","","","Mainly Clear"
"1953-07-15 16:00","1953","07","15","16:00","29.4","","13.9","","39","","36","","13","","19.3","","100.13","","33","","","","Mainly Clear"
"1953-07-15 17:00","1953","07","15","17:00","29.4","","13.9","","39","","5","","10","","24.1","","100.12","","33","","","","Mainly Clear"
"1953-07-15 18:00","1953","07","15","18:00","29.4","","13.9","","39","","36","","6","","19.3","","100.09","","33","","","","Clear"
"1953-07-15 19:00","1953","07","15","19:00","27.2","","15.6","","49","","36","","10","","19.3","","100.14","","32","","","","Clear"
"1953-07-15 20:00","1953","07","15","20:00","24.4","","15.0","","56","","36","","11","","12.9","","100.16","","28","","","","Mainly Clear"
"1953-07-15 21:00","1953","07","15","21:00","22.2","","16.1","","68","","29","","6","","16.1","","100.20","","27","","","","Clear"
"1953-07-15 22:00","1953","07","15","22:00","21.1","","15.6","","71","","27","","10","","14.5","","100.22","","25","","","","Clear"
"1953-07-15 23:00","1953","07","15","23:00","20.6","","16.1","","76","","27","","10","","12.9","","100.23","","25","","","","Clear"
"1953-07-16 00:00","1953","07","16","00:00","20.0","","15.0","","73","","29","","10","","12.9","","100.23","","","","","","Clear"
"1953-07-16 01:00","1953","07","16","01:00","19.4","","14.4","","76","","29","","10","","12.9","","100.23","","","","","","Clear"
"1953-07-16 02:00","1953","07","16","02:00","18.9","","14.4","","76","","27","","6","","12.9","","100.23","","","","","","Clear"
"1953-07-16 03:00","1953","07","16","03:00","19.4","","14.4","","73","","34","","8","","12.9","","100.26","","","","","","Clear"
"1953-07-16 04:00","1953","07","16","04:00","18.3","","14.4","","78","","34","","11","","12.9","","100.33","","","","","","Clear"
"1953-07-16 05:00","1953","07","16","05:00","18.9","","13.9","","73","","32","","8","","12.9","","100.38","","","","","","Clear"
"1953-07-16 06:00","1953","07","16","06:00","19.4","","14.4","","73","","27","","6","","9.7","","100.39","","","","","","Haze"
"1953-07-16 07:00","1953","07","16","07:00","22.2","","15.6","","68","","32","","5","","9.7","","100.39","","27","","","","Haze"
"1953-07-16 08:00","1953","07","16","08:00","25.0","","16.7","","60","","36","","5","","8.0","","100.44","","30","","","","Smoke,Haze"
"1953-07-16 09:00","1953","07","16","09:00","27.2","","15.6","","49","","34","","14","","8.0","","100.44","","32","","","","Smoke,Haze"
"1953-07-16 10:00","1953","07","16","10:00","28.3","","16.7","","49","","34","","11","","8.0","","100.43","","33","","","","Smoke,Haze"
"1953-07-16 11:00","1953","07","16","11:00","30.0","","17.8","","48","","29","","16","","8.0","","100.41","","36","","","","Smoke,Haze"
"1953-07-16 12:00","1953","07","16","12:00","30.0","","16.1","","43","","34","","13","","8.0","","100.38","","35","","","","Smoke,Haze"
"1953-07-16 13:00","1953","07","16","13:00","30.6","","16.1","","41","","36","","16","","8.0","","100.35","","35","","","","Smoke,Haze"
"1953-07-16 14:00","1953","07","16","14:00","30.6","","16.7","","43","","34","","19","","9.7","","100.32","","36","","","","Haze"
"1953-07-16 15:00","1953","07","16","15:00","30.6","","14.4","","38","","34","","23","","12.9","","100.28","","34","","","","Mainly Clear"
"1953-07-16 16:00","1953","07","16","16:00","30.0","","17.2","","46","","36","","23","","12.9","","100.25","","35","","","","Mainly Clear"
"1953-07-16 17:00","1953","07","16","17:00","29.4","","16.7","","46","","5","","16","","12.9","","100.22","","34","","","","Mainly Clear"
"1953-07-16 18:00","1953","07","16","18:00","28.9","","17.2","","50","","2","","13","","16.1","","100.19","","34","","","","Clear"
"1953-07-16 19:00","1953","07","16","19:00","27.8","","16.1","","49","","2","","11","","16.1","","100.18","","32","","","","Clear"
"1953-07-16 20:00","1953","07","16","20:00","26.1","","16.1","","54","","36","","3","","16.1","","100.22","","31","","","","Clear"
"1953-07-16 21:00","1953","07","16","21:00","23.9","","17.8","","69","","25","","3","","24.1","","100.25","","30","","","","Clear"
"1953-07-16 22:00","1953","07","16","22:00","22.2","","17.2","","73","","29","","10","","24.1","","100.28","","28","","","","Clear"
"1953-07-16 23:00","1953","07","16","23:00","21.7","","16.7","","73","","32","","6","","24.1","","100.28","","27","","","","Clear"
"1953-07-17 00:00","1953","07","17","00:00","20.0","","16.7","","81","","27","","6","","24.1","","100.24","","25","","","","Clear"
"1953-07-17 01:00","1953","07","17","01:00","20.0","","16.1","","78","","27","","8","","19.3","","100.22","","25","","","","Clear"
"1953-07-17 02:00","1953","07","17","02:00","20.0","","16.1","","78","","29","","10","","16.1","","100.23","","25","","","","Clear"
"1953-07-17 03:00","1953","07","17","03:00","18.9","","15.6","","81","","34","","8","","16.1","","100.21","","","","","","Clear"
"1953-07-17 04:00","1953","07","17","04:00","17.8","","15.6","","87","","34","","10","","12.9","","100.21","","","","","","Clear"
"1953-07-17 05:00","1953","07","17","05:00","17.8","","15.6","","87","","32","","10","","6.4","","100.22","","","","","","Haze"
"1953-07-17 06:00","1953","07","17","06:00","20.0","","16.1","","78","","29","","6","","8.0","","100.23","","25","","","","Haze"
"1953-07-17 07:00","1953","07","17","07:00","22.2","","16.7","","71","","29","","6","","8.0","","100.24","","27","","","","Haze"
"1953-07-17 08:00","1953","07","17","08:00","25.6","","17.2","","60","","32","","8","","8.0","","100.25","","31","","","","Haze"
"1953-07-17 09:00","1953","07","17","09:00","27.2","","17.8","","56","","2","","10","","8.0","","100.23","","33","","","","Haze"
"1953-07-17 10:00","1953","07","17","10:00","28.9","","16.7","","48","","36","","10","","8.0","","100.20","","34","","","","Haze"
"1953-07-17 11:00","1953","07","17","11:00","30.6","","15.6","","40","","29","","8","","8.0","","100.17","","35","","","","Haze"
"1953-07-17 12:00","1953","07","17","12:00","31.1","","16.1","","41","","2","","11","","8.0","","100.11","","36","","","","Haze"
"1953-07-17 13:00","1953","07","17","13:00","31.1","","16.1","","41","","32","","11","","8.0","","100.07","","36","","","","Haze"
"1953-07-17 14:00","1953","07","17","14:00","31.7","","18.3","","45","","20","","16","","9.7","","100.01","","38","","","","Haze"
"1953-07-17 15:00","1953","07","17","15:00","31.1","","16.1","","41","","18","","13","","9.7","","99.96","","36","","","","Haze"
"1953-07-17 16:00","1953","07","17","16:00","30.6","","17.8","","47","","18","","14","","11.3","","99.90","","36","","","","Mostly Cloudy"
"1953-07-17 17:00","1953","07","17","17:00","30.0","","17.2","","46","","18","","13","","9.7","","99.85","","35","","","","Haze"
"1953-07-17 18:00","1953","07","17","18:00","28.9","","18.3","","53","","16","","10","","9.7","","99.80","","35","","","","Haze"
"1953-07-17 19:00","1953","07","17","19:00","27.8","","17.8","","55","","18","","10","","9.7","","99.78","","34","","","","Haze"
"1953-07-17 20:00","1953","07","17","20:00","26.1","","18.3","","62","","18","","3","","8.0","","99.78","","32","","","","Haze"
"1953-07-17 21:00","1953","07","17","21:00","23.9","","17.8","","69","","","","0","","11.3","","99.78","","30","","","","Mostly Cloudy"
"1953-07-17 22:00","1953","07","17","22:00","23.3","","17.2","","69","","27","","3","","9.7","","99.78","","29","","","","Haze"
"1953-07-17 23:00","1953","07","17","23:00","21.7","","17.8","","79","","36","","8","","12.9","","99.75","","28","","","","Mainly Clear"
"1953-07-18 00:00","1953","07","18","00:00","21.1","","17.8","","81","","2","","10","","12.9","","99.73","","27","","","","Clear"
"1953-07-18 01:00","1953","07","18","01:00","21.1","","17.8","","81","","36","","6","","12.9","","99.70","","27","","","","Clear"
"1953-07-18 02:00","1953","07","18","02:00","20.6","","17.2","","81","","36","","5","","8.0","","99.66","","26","","","","Haze"
"1953-07-18 03:00","1953","07","18","03:00","20.6","","17.8","","84","","36","","6","","8.0","","99.63","","26","","","","Haze"
"1953-07-18 04:00","1953","07","18","04:00","20.0","","17.2","","84","","36","","6","","6.4","","99.61","","25","","","","Haze"
"1953-07-18 05:00","1953","07","18","05:00","20.6","","17.2","","81","","36","","8","","6.4","","99.58","","26","","","","Haze"
"1953-07-18 06:00","1953","07","18","06:00","20.6","","17.8","","84","","2","","5","","6.4","","99.56","","26","","","","Haze"
"1953-07-18 07:00","1953","07","18","07:00","21.1","","17.8","","81","","36","","6","","6.4","","99.57","","27","","","","Haze"
"1953-07-18 08:00","1953","07","18","08:00","22.2","","18.3","","79","","2","","8","","6.4","","99.57","","28","","","","Smoke,Haze"
"1953-07-18 09:00","1953","07","18","09:00","24.4","","17.2","","64","","7","","8","","6.4","","99.50","","30","","","","Smoke,Haze"
"1953-07-18 10:00","1953","07","18","10:00","26.1","","18.9","","65","","14","","10","","6.4","","99.45","","33","","","","Smoke,Haze"
"1953-07-18 11:00","1953","07","18","11:00","26.7","","18.9","","64","","16","","8","","3.2","","99.43","","33","","","","Smoke,Haze"
"1953-07-18 12:00","1953","07","18","12:00","26.7","","18.9","","63","","20","","11","","3.2","","99.41","","33","","","","Smoke,Haze"
"1953-07-18 13:00","1953","07","18","13:00","26.7","","18.9","","63","","20","","8","","3.2","","99.37","","33","","","","Smoke,Haze"
"1953-07-18 14:00","1953","07","18","14:00","25.0","","22.2","","85","","23","","13","","2.4","","99.38","","35","","","","Smoke,Haze"
"1953-07-18 15:00","1953","07","18","15:00","25.0","","22.2","","85","","18","","11","","4.8","","99.33","","35","","","","Rain Showers,Smoke,Haze"
"1953-07-18 16:00","1953","07","18","16:00","25.0","","21.7","","82","","23","","14","","12.9","","99.30","","34","","","","Rain Showers"
"1953-07-18 17:00","1953","07","18","17:00","24.4","","21.1","","82","","23","","16","","12.9","","99.30","","33","","","","Rain Showers"
"1953-07-18 18:00","1953","07","18","18:00","23.9","","22.2","","91","","23","","14","","12.9","","99.31","","33","","","","Rain Showers"
"1953-07-18 19:00","1953","07","18","19:00","23.9","","21.7","","88","","23","","11","","12.9","","99.28","","33","","","","Rain Showers"
"1953-07-18 20:00","1953","07","18","20:00","23.3","","20.6","","85","","20","","13","","25.0","","99.29","","31","","","","Rain Showers"
"1953-07-18 21:00","1953","07","18","21:00","22.8","","21.1","","90","","20","","13","","24.1","","99.32","","31","","","","Cloudy"
"1953-07-18 22:00","1953","07","18","22:00","22.2","","21.1","","93","","20","","14","","16.1","","99.29","","31","","","","Cloudy"
"1953-07-18 23:00","1953","07","18","23:00","22.2","","21.1","","93","","20","","10","","8.0","","99.28","","31","","","","Fog"
"1953-07-19 00:00","1953","07","19","00:00","21.7","","20.6","","93","","23","","6","","6.4","","99.27","","30","","","","Fog"
"1953-07-19 01:00","1953","07","19","01:00","21.7","","21.1","","97","","23","","6","","4.8","","99.26","","30","","","","Rain Showers,Fog"
"1953-07-19 02:00","1953","07","19","02:00","21.7","","20.6","","93","","18","","6","","4.8","","99.25","","30","","","","Fog"
"1953-07-19 03:00","1953","07","19","03:00","21.1","","20.6","","97","","18","","11","","4.8","","99.28","","29","","","","Fog"
"1953-07-19 04:00","1953","07","19","04:00","21.1","","20.6","","97","","18","","6","","3.2","","99.31","","29","","","","Fog"
"1953-07-19 05:00","1953","07","19","05:00","21.1","","20.6","","97","","20","","6","","3.2","","99.34","","29","","","","Fog"
"1953-07-19 06:00","1953","07","19","06:00","21.1","","20.6","","97","","25","","6","","4.0","","99.37","","29","","","","Fog"
"1953-07-19 07:00","1953","07","19","07:00","22.2","","21.1","","93","","27","","6","","4.8","","99.39","","31","","","","Fog"
"1953-07-19 08:00","1953","07","19","08:00","23.9","","21.1","","85","","29","","8","","4.8","","99.41","","32","","","","Haze"
"1953-07-19 09:00","1953","07","19","09:00","25.6","","21.7","","79","","2","","6","","6.4","","99.40","","35","","","","Haze"
"1953-07-19 10:00","1953","07","19","10:00","26.7","","20.6","","69","","29","","5","","6.4","","99.38","","35","","","","Haze"
"1953-07-19 11:00","1953","07","19","11:00","27.8","","20.0","","64","","25","","6","","8.0","","99.38","","35","","","","Haze"
"1953-07-19 12:00","1953","07","19","12:00","28.3","","20.6","","62","","25","","8","","8.0","","99.35","","36","","","","Haze"
"1953-07-19 13:00","1953","07","19","13:00","27.2","","21.1","","69","","18","","19","","8.0","","99.33","","36","","","","Haze"
"1953-07-19 14:00","1953","07","19","14:00","28.3","","20.6","","63","","25","","8","","11.3","","99.27","","36","","","","Mostly Cloudy"
"1953-07-19 15:00","1953","07","19","15:00","27.8","","21.7","","70","","18","","13","","12.9","","99.21","","37","","","","Cloudy"
"1953-07-19 16:00","1953","07","19","16:00","26.7","","21.1","","72","","18","","13","","12.9","","99.22","","35","","","","Cloudy"
"1953-07-19 17:00","1953","07","19","17:00","26.7","","22.2","","77","","16","","8","","8.0","","99.22","","36","","","","Haze"
"1953-07-19 18:00","1953","07","19","18:00","26.1","","21.7","","77","","16","","6","","8.0","","99.23","","35","","","","Haze"
"1953-07-19 19:00","1953","07","19","19:00","25.6","","21.7","","79","","9","","8","","8.0","","99.25","","35","","","","Haze"
"1953-07-19 20:00","1953","07","19","20:00","22.8","","19.4","","82","","36","","16","","9.7","","99.30","","30","","","","Haze"
"1953-07-19 21:00","1953","07","19","21:00","22.2","","18.9","","82","","34","","18","","12.9","","99.37","","29","","","","Mostly Cloudy"
"1953-07-19 22:00","1953","07","19","22:00","20.6","","18.3","","87","","34","","14","","16.1","","99.37","","27","","","","Clear"
"1953-07-19 23:00","1953","07","19","23:00","19.4","","17.8","","90","","34","","10","","16.1","","99.37","","","","","","Clear"
"1953-07-20 00:00","1953","07","20","00:00","19.4","","17.8","","90","","34","","11","","16.1","","99.37","","","","","","Mostly Cloudy"
"1953-07-20 01:00","1953","07","20","01:00","18.9","","17.8","","93","","32","","14","","16.1","","99.38","","","","","","Mainly Clear"
"1953-07-20 02:00","1953","07","20","02:00","17.8","","16.1","","90","","32","","16","","16.1","","99.39","","","","","","Clear"
"1953-07-20 03:00","1953","07","20","03:00","17.2","","16.1","","93","","32","","14","","8.0","","99.43","","","","","","Fog"
"1953-07-20 04:00","1953","07","20","04:00","17.2","","15.6","","90","","32","","10","","8.0","","99.45","","","","","","Fog"
"1953-07-20 05:00","1953","07","20","05:00","17.2","","16.1","","93","","29","","10","","4.8","","99.51","","","","","","Fog"
"1953-07-20 06:00","1953","07","20","06:00","18.9","","17.2","","90","","29","","16","","6.4","","99.53","","","","","","Fog"
"1953-07-20 07:00","1953","07","20","07:00","19.4","","17.8","","90","","29","","14","","6.4","","99.56","","","","","","Fog"
"1953-07-20 08:00","1953","07","20","08:00","21.1","","17.8","","81","","32","","16","","6.4","","99.59","","27","","","","Haze"
"1953-07-20 09:00","1953","07","20","09:00","22.2","","18.9","","82","","36","","14","","9.7","","99.58","","29","","","","Haze"
"1953-07-20 10:00","1953","07","20","10:00","23.9","","19.4","","76","","36","","13","","12.9","","99.54","","31","","","","Mostly Cloudy"
"1953-07-20 11:00","1953","07","20","11:00","25.6","","18.3","","64","","2","","16","","12.9","","99.58","","32","","","","Mostly Cloudy"
"1953-07-20 12:00","1953","07","20","12:00","26.1","","18.9","","65","","2","","10","","12.9","","99.57","","33","","","","Mostly Cloudy"
"1953-07-20 13:00","1953","07","20","13:00","27.8","","19.4","","61","","34","","10","","12.9","","99.57","","35","","","","Mainly Clear"
"1953-07-20 14:00","1953","07","20","14:00","28.3","","18.3","","55","","36","","16","","16.1","","99.51","","35","","","","Mainly Clear"
"1953-07-20 15:00","1953","07","20","15:00","29.4","","17.2","","48","","2","","16","","16.1","","99.47","","35","","","","Mainly Clear"
"1953-07-20 16:00","1953","07","20","16:00","29.4","","17.2","","48","","34","","19","","16.1","","99.48","","35","","","","Mainly Clear"
"1953-07-20 17:00","1953","07","20","17:00","28.9","","17.2","","51","","36","","13","","16.1","","99.44","","34","","","","Mainly Clear"
"1953-07-20 18:00","1953","07","20","18:00","27.8","","17.2","","53","","36","","16","","24.1","","99.44","","33","","","","Mainly Clear"
"1953-07-20 19:00","1953","07","20","19:00","26.1","","17.2","","58","","2","","16","","24.1","","99.47","","32","","","","Mainly Clear"
"1953-07-20 20:00","1953","07","20","20:00","23.9","","16.7","","64","","36","","16","","16.1","","99.50","","29","","","","Clear"
"1953-07-20 21:00","1953","07","20","21:00","22.2","","17.2","","73","","36","","13","","25.0","","99.53","","28","","","","Clear"
"1953-07-20 22:00","1953","07","20","22:00","21.1","","16.7","","76","","34","","13","","25.0","","99.54","","26","","","","Clear"
"1953-07-20 23:00","1953","07","20","23:00","19.4","","16.1","","81","","34","","14","","25.0","","99.59","","","","","","Clear"
"1953-07-21 00:00","1953","07","21","00:00","21.1","","15.6","","71","","34","","16","","25.0","","99.61","","25","","","","Clear"
"1953-07-21 01:00","1953","07","21","01:00","20.0","","15.6","","76","","34","","16","","25.0","","99.60","","","","","","Clear"
"1953-07-21 02:00","1953","07","21","02:00","19.4","","15.0","","76","","34","","16","","25.0","","99.55","","","","","","Clear"
"1953-07-21 03:00","1953","07","21","03:00","18.3","","15.6","","84","","32","","11","","25.0","","99.56","","","","","","Clear"
"1953-07-21 04:00","1953","07","21","04:00","19.4","","15.6","","78","","32","","13","","25.0","","99.58","","","","","","Mainly Clear"
"1953-07-21 05:00","1953","07","21","05:00","19.4","","15.6","","78","","34","","13","","19.3","","99.63","","","","","","Mainly Clear"
"1953-07-21 06:00","1953","07","21","06:00","20.0","","16.1","","78","","36","","10","","19.3","","99.64","","25","","","","Mainly Clear"
"1953-07-21 07:00","1953","07","21","07:00","21.7","","17.2","","76","","36","","16","","19.3","","99.67","","27","","","","Mainly Clear"
"1953-07-21 08:00","1953","07","21","08:00","23.3","","18.9","","76","","36","","11","","19.3","","99.70","","30","","","","Mainly Clear"
"1953-07-21 09:00","1953","07","21","09:00","25.6","","18.9","","67","","5","","13","","19.3","","99.70","","32","","","","Mainly Clear"
"1953-07-21 10:00","1953","07","21","10:00","27.2","","18.3","","59","","9","","11","","19.3","","99.69","","33","","","","Mainly Clear"
"1953-07-21 11:00","1953","07","21","11:00","27.8","","19.4","","61","","14","","13","","12.9","","99.69","","35","","","","Mainly Clear"
"1953-07-21 12:00","1953","07","21","12:00","28.9","","19.4","","57","","14","","13","","12.9","","99.63","","36","","","","Clear"
"1953-07-21 13:00","1953","07","21","13:00","28.9","","20.6","","61","","11","","13","","12.9","","99.63","","37","","","","Clear"
"1953-07-21 14:00","1953","07","21","14:00","29.4","","20.0","","57","","16","","16","","9.7","","99.63","","37","","","","Haze"
"1953-07-21 15:00","1953","07","21","15:00","29.4","","18.3","","51","","14","","13","","8.0","","99.51","","36","","","","Haze"
"1953-07-21 16:00","1953","07","21","16:00","30.0","","17.8","","48","","14","","13","","8.0","","99.47","","36","","","","Haze"
"1953-07-21 17:00","1953","07","21","17:00","29.4","","18.3","","51","","16","","13","","9.7","","99.47","","36","","","","Haze"
"1953-07-21 18:00","1953","07","21","18:00","27.2","","20.0","","65","","16","","13","","9.7","","99.47","","35","","","","Haze"
"1953-07-21 19:00","1953","07","21","19:00","25.6","","20.0","","72","","16","","8","","8.0","","99.45","","33","","","","Haze"
"1953-07-21 20:00","1953","07","21","20:00","24.4","","19.4","","74","","18","","5","","9.7","","99.48","","31","","","","Haze"
"1953-07-21 21:00","1953","07","21","21:00","22.8","","19.4","","82","","7","","5","","12.9","","99.50","","30","","","","Clear"
"1953-07-21 22:00","1953","07","21","22:00","22.2","","19.4","","84","","5","","5","","16.1","","99.51","","29","","","","Clear"
"1953-07-21 23:00","1953","07","21","23:00","21.1","","18.9","","87","","5","","2","","16.1","","99.49","","28","","","","Clear"
"1953-07-22 00:00","1953","07","22","00:00","20.6","","18.9","","90","","5","","6","","16.1","","99.45","","27","","","","Clear"
"1953-07-22 01:00","1953","07","22","01:00","20.0","","18.3","","90","","2","","6","","16.1","","99.40","","26","","","","Clear"
"1953-07-22 02:00","1953","07","22","02:00","19.4","","18.3","","93","","5","","8","","9.7","","99.36","","","","","","Fog"
"1953-07-22 03:00","1953","07","22","03:00","19.4","","18.9","","97","","2","","5","","8.0","","99.35","","","","","","Fog"
"1953-07-22 04:00","1953","07","22","04:00","19.4","","18.9","","97","","5","","6","","4.8","","99.33","","","","","","Fog"
"1953-07-22 05:00","1953","07","22","05:00","18.9","","17.8","","93","","5","","6","","4.8","","99.32","","","","","","Fog"
"1953-07-22 06:00","1953","07","22","06:00","21.1","","20.0","","93","","5","","6","","6.4","","99.32","","29","","","","Fog"
"1953-07-22 07:00","1953","07","22","07:00","23.3","","21.7","","91","","9","","10","","6.4","","99.29","","32","","","","Haze"
"1953-07-22 08:00","1953","07","22","08:00","26.1","","21.1","","74","","14","","8","","4.8","","99.25","","35","","","","Haze"
"1953-07-22 09:00","1953","07","22","09:00","26.7","","20.6","","69","","11","","10","","6.4","","99.22","","35","","","","Haze"
"1953-07-22 10:00","1953","07","22","10:00","27.2","","19.4","","63","","16","","14","","6.4","","99.18","","34","","","","Haze"
"1953-07-22 11:00","1953","07","22","11:00","27.8","","20.0","","63","","14","","13","","6.4","","99.17","","35","","","","Haze"
"1953-07-22 12:00","1953","07","22","12:00","28.3","","20.0","","61","","16","","11","","6.4","","99.16","","36","","","","Haze"
"1953-07-22 13:00","1953","07","22","13:00","27.8","","20.6","","65","","16","","11","","6.4","","99.11","","36","","","","Haze"
"1953-07-22 14:00","1953","07","22","14:00","26.7","","21.1","","72","","20","","8","","6.4","","99.09","","35","","","","Haze"
"1953-07-22 15:00","1953","07","22","15:00","24.4","","17.8","","67","","36","","10","","9.7","","99.05","","30","","","","Haze"
"1953-07-22 16:00","1953","07","22","16:00","22.8","","18.9","","79","","2","","16","","9.7","","99.00","","29","","","","Haze"
"1953-07-22 17:00","1953","07","22","17:00","23.3","","19.4","","79","","32","","6","","8.0","","98.95","","30","","","","Haze"
"1953-07-22 18:00","1953","07","22","18:00","23.9","","19.4","","76","","9","","14","","8.0","","98.91","","31","","","","Haze"
"1953-07-22 19:00","1953","07","22","19:00","23.3","","19.4","","79","","5","","8","","8.0","","98.88","","30","","","","Haze"
"1953-07-22 20:00","1953","07","22","20:00","22.2","","20.0","","87","","32","","21","","8.0","","98.97","","30","","","","Smoke,Haze"
"1953-07-22 21:00","1953","07","22","21:00","22.8","","20.0","","84","","32","","8","","9.7","","98.94","","30","","","","Smoke,Haze"
"1953-07-22 22:00","1953","07","22","22:00","22.2","","20.0","","87","","18","","8","","8.0","","98.91","","30","","","","Smoke,Haze"
"1953-07-22 23:00","1953","07","22","23:00","21.7","","19.4","","87","","18","","8","","9.7","","98.88","","29","","","","Haze"
"1953-07-23 00:00","1953","07","23","00:00","21.1","","18.9","","87","","18","","3","","8.0","","98.84","","28","","","","Haze"
"1953-07-23 01:00","1953","07","23","01:00","20.6","","19.4","","93","","18","","3","","8.0","","98.80","","28","","","","Haze"
"1953-07-23 02:00","1953","07","23","02:00","20.0","","18.9","","93","","5","","6","","4.8","","98.76","","27","","","","Haze"
"1953-07-23 03:00","1953","07","23","03:00","19.4","","17.8","","90","","27","","8","","4.8","","98.71","","","","","","Haze"
"1953-07-23 04:00","1953","07","23","04:00","20.0","","18.3","","90","","32","","10","","4.8","","98.69","","26","","","","Haze"
"1953-07-23 05:00","1953","07","23","05:00","19.4","","17.8","","90","","32","","5","","4.8","","98.72","","","","","","Haze"
"1953-07-23 06:00","1953","07","23","06:00","20.0","","18.9","","93","","29","","6","","4.8","","98.76","","27","","","","Haze"
"1953-07-23 07:00","1953","07","23","07:00","22.2","","19.4","","87","","32","","16","","6.4","","98.78","","29","","","","Haze"
"1953-07-23 08:00","1953","07","23","08:00","22.8","","18.9","","79","","29","","18","","6.4","","98.89","","29","","","","Haze"
"1953-07-23 09:00","1953","07","23","09:00","23.9","","18.3","","71","","34","","13","","12.9","","98.79","","30","","","","Mainly Clear"
"1953-07-23 10:00","1953","07","23","10:00","26.7","","14.4","","47","","36","","19","","16.1","","98.75","","30","","","","Mainly Clear"
"1953-07-23 11:00","1953","07","23","11:00","27.8","","12.8","","40","","29","","23","","19.3","","98.76","","30","","","","Mostly Cloudy"
"1953-07-23 12:00","1953","07","23","12:00","27.8","","6.7","","26","","29","","19","","19.3","","98.71","","28","","","","Mostly Cloudy"
"1953-07-23 13:00","1953","07","23","13:00","27.8","","12.8","","40","","29","","23","","19.3","","98.68","","30","","","","Mostly Cloudy"
"1953-07-23 14:00","1953","07","23","14:00","27.8","","13.9","","43","","29","","31","","24.1","","98.70","","31","","","","Mostly Cloudy"
"1953-07-23 15:00","1953","07","23","15:00","27.2","","15.6","","49","","34","","32","","25.0","","98.73","","32","","","","Mostly Cloudy"
"1953-07-23 16:00","1953","07","23","16:00","25.6","","14.4","","50","","29","","35","","25.0","","98.79","","29","","","","Mainly Clear"
"1953-07-23 17:00","1953","07","23","17:00","25.6","","14.4","","50","","29","","39","","25.0","","98.86","","29","","","","Mainly Clear"
"1953-07-23 18:00","1953","07","23","18:00","22.2","","11.7","","51","","29","","35","","25.0","","98.93","","","","","","Mainly Clear"
"1953-07-23 19:00","1953","07","23","19:00","21.1","","11.1","","54","","29","","29","","25.0","","98.97","","","","","","Mainly Clear"
"1953-07-23 20:00","1953","07","23","20:00","18.9","","11.1","","62","","32","","29","","25.0","","99.05","","","","","","Clear"
"1953-07-23 21:00","1953","07","23","21:00","16.7","","11.7","","72","","29","","16","","25.0","","99.12","","","","","","Clear"
"1953-07-23 22:00","1953","07","23","22:00","15.6","","12.2","","81","","29","","23","","25.0","","99.18","","","","","","Clear"
"1953-07-23 23:00","1953","07","23","23:00","14.4","","12.2","","87","","27","","19","","25.0","","99.24","","","","","","Clear"
"1953-07-24 00:00","1953","07","24","00:00","13.9","","10.6","","80","","27","","16","","25.0","","99.25","","","","","","Clear"
"1953-07-24 01:00","1953","07","24","01:00","13.9","","10.0","","77","","29","","16","","25.0","","99.22","","","","","","Clear"
"1953-07-24 02:00","1953","07","24","02:00","14.4","","11.7","","84","","27","","26","","25.0","","99.26","","","","","","Clear"
"1953-07-24 03:00","1953","07","24","03:00","14.4","","10.0","","75","","32","","32","","25.0","","99.33","","","","","","Clear"
"1953-07-24 04:00","1953","07","24","04:00","13.9","","10.0","","77","","32","","29","","25.0","","99.39","","","","","","Mostly Cloudy"
"1953-07-24 05:00","1953","07","24","05:00","13.3","","10.0","","80","","32","","24","","25.0","","99.50","","","","","","Cloudy"
"1953-07-24 06:00","1953","07","24","06:00","13.9","","8.3","","69","","32","","24","","25.0","","99.59","","","","","","Mostly Cloudy"
"1953-07-24 07:00","1953","07","24","07:00","13.9","","8.9","","72","","34","","32","","25.0","","99.68","","","","","","Cloudy"
"1953-07-24 08:00","1953","07","24","08:00","14.4","","7.2","","62","","34","","35","","25.0","","99.77","","","","","","Mostly Cloudy"
"1953-07-24 09:00","1953","07","24","09:00","15.0","","7.8","","62","","36","","35","","25.0","","99.87","","","","","","Mainly Clear"
"1953-07-24 10:00","1953","07","24","10:00","15.6","","7.8","","60","","34","","35","","25.0","","99.91","","","","","","Mainly Clear"
"1953-07-24 11:00","1953","07","24","11:00","16.7","","7.2","","54","","34","","32","","25.0","","99.97","","","","","","Mainly Clear"
"1953-07-24 12:00","1953","07","24","12:00","17.2","","7.2","","52","","34","","24","","25.0","","99.97","","","","","","Mainly Clear"
"1953-07-24 13:00","1953","07","24","13:00","18.3","","7.2","","48","","36","","26","","25.0","","100.00","","","","","","Mainly Clear"
"1953-07-24 14:00","1953","07","24","14:00","18.9","","7.8","","48","","34","","19","","25.0","","100.03","","","","","","Mainly Clear"
"1953-07-24 15:00","1953","07","24","15:00","20.0","","7.2","","44","","34","","21","","25.0","","100.03","","","","","","Mainly Clear"
"1953-07-24 16:00","1953","07","24","16:00","19.4","","10.0","","54","","32","","16","","25.0","","100.03","","","","","","Mainly Clear"
"1953-07-24 17:00","1953","07","24","17:00","19.4","","7.8","","47","","32","","16","","25.0","","100.10","","","","","","Mainly Clear"
"1953-07-24 18:00","1953","07","24","18:00","18.9","","8.3","","50","","34","","14","","25.0","","100.14","","","","","","Mainly Clear"
"1953-07-24 19:00","1953","07","24","19:00","17.8","","7.8","","52","","36","","16","","25.0","","100.17","","","","","","Clear"
"1953-07-24 20:00","1953","07","24","20:00","15.6","","9.4","","65","","36","","11","","25.0","","100.23","","","","","","Clear"
"1953-07-24 21:00","1953","07","24","21:00","13.9","","8.3","","69","","2","","11","","25.0","","100.29","","","","","","Clear"
"1953-07-24 22:00","1953","07","24","22:00","12.8","","7.8","","72","","2","","8","","25.0","","100.29","","","","","","Clear"
"1953-07-24 23:00","1953","07","24","23:00","12.2","","7.2","","71","","36","","3","","25.0","","100.32","","","","","","Clear"
"1953-07-25 00:00","1953","07","25","00:00","11.1","","7.2","","77","","32","","10","","25.0","","100.37","","","","","","Clear"
"1953-07-25 01:00","1953","07","25","01:00","10.0","","6.7","","80","","32","","10","","25.0","","100.38","","","","","","Clear"
"1953-07-25 02:00","1953","07","25","02:00","10.0","","6.1","","77","","32","","10","","25.0","","100.38","","","","","","Clear"
"1953-07-25 03:00","1953","07","25","03:00","8.9","","5.6","","89","","32","","6","","25.0","","100.41","","","","","","Clear"
"1953-07-25 04:00","1953","07","25","04:00","8.3","","5.0","","80","","36","","6","","25.0","","100.41","","","","","","Clear"
"1953-07-25 05:00","1953","07","25","05:00","8.3","","5.0","","80","","36","","5","","25.0","","100.43","","","","","","Clear"
"1953-07-25 06:00","1953","07","25","06:00","9.4","","6.7","","83","","36","","5","","24.1","","100.50","","","","","","Clear"
"1953-07-25 07:00","1953","07","25","07:00","12.2","","8.3","","77","","36","","6","","24.1","","100.51","","","","","","Mainly Clear"
"1953-07-25 08:00","1953","07","25","08:00","17.8","","12.8","","73","","14","","19","","24.1","","100.43","","","","","","Clear"
"1953-07-25 09:00","1953","07","25","09:00","19.4","","10.6","","56","","18","","27","","19.3","","100.45","","","","","","Mainly Clear"
"1953-07-25 10:00","1953","07","25","10:00","20.0","","12.2","","61","","18","","23","","19.3","","100.41","","","","","","Mostly Cloudy"
"1953-07-25 11:00","1953","07","25","11:00","22.2","","12.8","","55","","16","","16","","19.3","","100.41","","25","","","","Mostly Cloudy"
"1953-07-25 12:00","1953","07","25","12:00","22.8","","12.2","","50","","16","","23","","19.3","","100.33","","25","","","","Mostly Cloudy"
"1953-07-25 13:00","1953","07","25","13:00","22.8","","12.2","","51","","16","","23","","19.3","","100.33","","25","","","","Mostly Cloudy"
"1953-07-25 14:00","1953","07","25","14:00","23.9","","12.2","","48","","16","","24","","19.3","","100.27","","26","","","","Mainly Clear"
"1953-07-25 15:00","1953","07","25","15:00","23.9","","13.3","","52","","16","","29","","19.3","","100.20","","27","","","","Mainly Clear"
"1953-07-25 16:00","1953","07","25","16:00","22.8","","11.1","","48","","18","","23","","25.0","","100.22","","25","","","","Mostly Cloudy"
"1953-07-25 17:00","1953","07","25","17:00","22.2","","11.7","","51","","16","","29","","25.0","","100.13","","","","","","Mostly Cloudy"
"1953-07-25 18:00","1953","07","25","18:00","20.6","","12.2","","59","","14","","24","","16.1","","100.09","","","","","","Mostly Cloudy"
"1953-07-25 19:00","1953","07","25","19:00","20.0","","13.9","","69","","16","","11","","25.0","","100.14","","","","","","Mostly Cloudy"
"1953-07-25 20:00","1953","07","25","20:00","18.9","","15.0","","78","","14","","13","","24.1","","100.07","","","","","","Mostly Cloudy"
"1953-07-25 21:00","1953","07","25","21:00","18.3","","15.0","","81","","14","","6","","25.0","","100.09","","","","","","Mainly Clear"
"1953-07-25 22:00","1953","07","25","22:00","18.3","","15.0","","81","","20","","5","","25.0","","100.08","","","","","","Mostly Cloudy"
"1953-07-25 23:00","1953","07","25","23:00","17.8","","15.6","","87","","20","","10","","25.0","","100.07","","","","","","Mostly Cloudy"
"1953-07-26 00:00","1953","07","26","00:00","17.2","","14.4","","84","","23","","13","","25.0","","100.07","","","","","","Cloudy"
"1953-07-26 01:00","1953","07","26","01:00","18.3","","14.4","","78","","20","","13","","25.0","","99.98","","","","","","Mostly Cloudy"
"1953-07-26 02:00","1953","07","26","02:00","17.8","","13.9","","78","","20","","10","","25.0","","99.97","","","","","","Mostly Cloudy"
"1953-07-26 03:00","1953","07","26","03:00","17.8","","13.3","","75","","20","","8","","25.0","","99.91","","","","","","Mostly Cloudy"
"1953-07-26 04:00","1953","07","26","04:00","17.8","","13.9","","78","","20","","16","","24.1","","99.83","","","","","","Mostly Cloudy"
"1953-07-26 05:00","1953","07","26","05:00","18.3","","15.6","","84","","23","","16","","16.1","","99.82","","","","","","Mostly Cloudy"
"1953-07-26 06:00","1953","07","26","06:00","20.6","","16.7","","79","","23","","29","","12.9","","99.83","","26","","","","Mostly Cloudy"
"1953-07-26 07:00","1953","07","26","07:00","18.3","","16.7","","90","","5","","16","","4.8","","99.95","","","","","","Thunderstorms,Rain Showers"
"1953-07-26 08:00","1953","07","26","08:00","18.9","","17.8","","93","","14","","8","","3.2","","99.86","","","","","","Fog"
"1953-07-26 09:00","1953","07","26","09:00","21.1","","17.2","","79","","18","","13","","6.4","","99.83","","27","","","","Fog"
"1953-07-26 10:00","1953","07","26","10:00","25.6","","19.4","","69","","16","","14","","9.7","","99.81","","33","","","","Fog"
"1953-07-26 11:00","1953","07","26","11:00","28.3","","20.6","","63","","25","","19","","12.9","","99.78","","36","","","","Mostly Cloudy"
"1953-07-26 12:00","1953","07","26","12:00","29.4","","20.0","","57","","27","","24","","16.1","","99.74","","37","","","","Mostly Cloudy"
"1953-07-26 13:00","1953","07","26","13:00","30.6","","19.4","","52","","25","","45","","16.1","","99.68","","38","","","","Mostly Cloudy"
"1953-07-26 14:00","1953","07","26","14:00","30.6","","17.8","","47","","27","","35","","24.1","","99.64","","36","","","","Cloudy"
"1953-07-26 15:00","1953","07","26","15:00","31.1","","20.0","","52","","25","","34","","24.1","","99.58","","39","","","","Cloudy"
"1953-07-26 16:00","1953","07","26","16:00","30.6","","20.6","","55","","27","","34","","19.3","","99.58","","39","","","","Cloudy"
"1953-07-26 17:00","1953","07","26","17:00","30.6","","21.1","","57","","27","","27","","19.3","","99.55","","39","","","","Mostly Cloudy"
"1953-07-26 18:00","1953","07","26","18:00","30.0","","21.7","","61","","27","","16","","16.1","","99.55","","39","","","","Mostly Cloudy"
"1953-07-26 19:00","1953","07","26","19:00","27.8","","21.7","","70","","2","","18","","12.9","","99.53","","37","","","","Thunderstorms,Rain Showers"
"1953-07-26 20:00","1953","07","26","20:00","22.2","","21.1","","93","","23","","16","","6.4","","99.63","","31","","","","Thunderstorms,Moderate Rain Showers"
"1953-07-26 21:00","1953","07","26","21:00","21.1","","20.0","","93","","34","","13","","25.0","","99.77","","29","","","","Cloudy"
"1953-07-26 22:00","1953","07","26","22:00","21.7","","20.0","","90","","23","","11","","25.0","","99.67","","29","","","","Mostly Cloudy"
"1953-07-26 23:00","1953","07","26","23:00","21.1","","20.0","","93","","20","","10","","25.0","","99.65","","29","","","","Mostly Cloudy"
"1953-07-27 00:00","1953","07","27","00:00","21.1","","20.0","","93","","23","","10","","25.0","","99.69","","29","","","","Cloudy"
"1953-07-27 01:00","1953","07","27","01:00","21.7","","20.6","","93","","25","","19","","25.0","","99.72","","30","","","","Cloudy"
"1953-07-27 02:00","1953","07","27","02:00","21.1","","18.9","","87","","32","","10","","25.0","","99.70","","28","","","","Cloudy"
"1953-07-27 03:00","1953","07","27","03:00","20.0","","18.9","","93","","27","","10","","25.0","","99.68","","27","","","","Cloudy"
"1953-07-27 04:00","1953","07","27","04:00","20.0","","18.9","","93","","27","","16","","25.0","","99.64","","27","","","","Mostly Cloudy"
"1953-07-27 05:00","1953","07","27","05:00","20.0","","17.2","","84","","27","","16","","25.0","","99.69","","25","","","","Mainly Clear"
"1953-07-27 06:00","1953","07","27","06:00","20.6","","17.2","","81","","27","","16","","25.0","","99.74","","26","","","","Mainly Clear"
"1953-07-27 07:00","1953","07","27","07:00","20.6","","16.1","","76","","29","","16","","25.0","","99.79","","25","","","","Mostly Cloudy"
"1953-07-27 08:00","1953","07","27","08:00","21.7","","15.0","","66","","32","","8","","25.0","","99.81","","26","","","","Mostly Cloudy"
"1953-07-27 09:00","1953","07","27","09:00","23.3","","15.6","","62","","32","","10","","25.0","","99.80","","28","","","","Mainly Clear"
"1953-07-27 10:00","1953","07","27","10:00","25.0","","14.4","","52","","32","","10","","25.0","","99.82","","29","","","","Mainly Clear"
"1953-07-27 11:00","1953","07","27","11:00","25.6","","15.0","","52","","36","","11","","25.0","","99.82","","30","","","","Mainly Clear"
"1953-07-27 12:00","1953","07","27","12:00","26.7","","16.1","","52","","36","","11","","25.0","","99.80","","31","","","","Mainly Clear"
"1953-07-27 13:00","1953","07","27","13:00","28.3","","15.0","","46","","32","","19","","25.0","","99.78","","32","","","","Mainly Clear"
"1953-07-27 14:00","1953","07","27","14:00","27.8","","16.7","","51","","34","","13","","25.0","","99.77","","33","","","","Mainly Clear"
"1953-07-27 15:00","1953","07","27","15:00","27.2","","16.1","","51","","34","","26","","25.0","","99.73","","32","","","","Mainly Clear"
"1953-07-27 16:00","1953","07","27","16:00","26.1","","13.9","","66","","36","","24","","25.0","","99.73","","29","","","","Mainly Clear"
"1953-07-27 17:00","1953","07","27","17:00","25.6","","11.7","","42","","36","","8","","25.0","","99.71","","28","","","","Mainly Clear"
"1953-07-27 18:00","1953","07","27","18:00","24.4","","11.1","","43","","36","","24","","25.0","","99.71","","26","","","","Mainly Clear"
"1953-07-27 19:00","1953","07","27","19:00","22.8","","12.2","","51","","36","","13","","25.0","","99.71","","25","","","","Mainly Clear"
"1953-07-27 20:00","1953","07","27","20:00","21.1","","13.9","","63","","32","","13","","25.0","","99.75","","","","","","Clear"
"1953-07-27 21:00","1953","07","27","21:00","19.4","","13.3","","68","","32","","13","","25.0","","99.79","","","","","","Clear"
"1953-07-27 22:00","1953","07","27","22:00","17.8","","12.8","","73","","29","","14","","25.0","","99.82","","","","","","Clear"
"1953-07-27 23:00","1953","07","27","23:00","17.2","","12.8","","75","","29","","16","","25.0","","99.84","","","","","","Clear"
"1953-07-28 00:00","1953","07","28","00:00","16.1","","11.7","","75","","32","","10","","25.0","","99.88","","","","","","Clear"
"1953-07-28 01:00","1953","07","28","01:00","15.6","","12.2","","81","","27","","10","","25.0","","99.89","","","","","","Clear"
"1953-07-28 02:00","1953","07","28","02:00","15.0","","11.1","","78","","29","","13","","25.0","","99.83","","","","","","Clear"
"1953-07-28 03:00","1953","07","28","03:00","14.4","","11.1","","81","","29","","10","","25.0","","99.82","","","","","","Clear"
"1953-07-28 04:00","1953","07","28","04:00","13.9","","10.0","","75","","29","","10","","25.0","","99.87","","","","","","Clear"
"1953-07-28 05:00","1953","07","28","05:00","13.9","","10.0","","75","","32","","10","","25.0","","99.90","","","","","","Clear"
"1953-07-28 06:00","1953","07","28","06:00","15.6","","12.2","","81","","34","","13","","25.0","","99.93","","","","","","Clear"
"1953-07-28 07:00","1953","07","28","07:00","17.8","","13.9","","78","","34","","16","","25.0","","99.97","","","","","","Clear"
"1953-07-28 08:00","1953","07","28","08:00","20.0","","14.4","","70","","32","","13","","25.0","","100.01","","","","","","Mainly Clear"
"1953-07-28 09:00","1953","07","28","09:00","22.2","","14.4","","61","","5","","8","","25.0","","99.98","","26","","","","Mainly Clear"
"1953-07-28 10:00","1953","07","28","10:00","23.3","","13.3","","54","","2","","10","","25.0","","99.96","","26","","","","Mainly Clear"
"1953-07-28 11:00","1953","07","28","11:00","24.4","","13.3","","47","","18","","16","","24.1","","99.95","","27","","","","Mainly Clear"
"1953-07-28 12:00","1953","07","28","12:00","25.0","","12.8","","47","","16","","11","","24.1","","99.96","","28","","","","Mainly Clear"
"1953-07-28 13:00","1953","07","28","13:00","25.0","","12.2","","45","","16","","14","","24.1","","99.91","","27","","","","Mainly Clear"
"1953-07-28 14:00","1953","07","28","14:00","25.6","","10.0","","38","","18","","19","","24.1","","99.84","","27","","","","Mainly Clear"
"1953-07-28 15:00","1953","07","28","15:00","26.1","","8.9","","34","","18","","19","","25.0","","99.82","","27","","","","Mainly Clear"
"1953-07-28 16:00","1953","07","28","16:00","26.1","","10.6","","38","","18","","16","","25.0","","99.74","","28","","","","Mainly Clear"
"1953-07-28 17:00","1953","07","28","17:00","25.6","","9.4","","36","","11","","10","","24.1","","99.70","","27","","","","Mostly Cloudy"
"1953-07-28 18:00","1953","07","28","18:00","24.4","","13.3","","50","","16","","16","","19.3","","99.69","","27","","","","Mostly Cloudy"
"1953-07-28 19:00","1953","07","28","19:00","22.2","","14.4","","61","","16","","14","","25.0","","99.68","","26","","","","Mostly Cloudy"
"1953-07-28 20:00","1953","07","28","20:00","20.6","","16.1","","76","","18","","10","","25.0","","99.66","","25","","","","Cloudy"
"1953-07-28 21:00","1953","07","28","21:00","20.6","","16.7","","79","","20","","10","","25.0","","99.67","","26","","","","Cloudy"
"1953-07-28 22:00","1953","07","28","22:00","20.0","","16.7","","81","","18","","6","","25.0","","99.61","","25","","","","Cloudy"
"1953-07-28 23:00","1953","07","28","23:00","20.0","","15.6","","76","","18","","14","","25.0","","99.52","","","","","","Cloudy"
"1953-07-29 00:00","1953","07","29","00:00","20.0","","14.4","","70","","23","","8","","25.0","","99.47","","","","","","Cloudy"
"1953-07-29 01:00","1953","07","29","01:00","20.6","","14.4","","68","","18","","10","","25.0","","99.37","","","","","","Cloudy"
"1953-07-29 02:00","1953","07","29","02:00","20.0","","14.4","","70","","20","","6","","25.0","","99.37","","","","","","Cloudy"
"1953-07-29 03:00","1953","07","29","03:00","20.0","","14.4","","70","","20","","5","","25.0","","99.33","","","","","","Cloudy"
"1953-07-29 04:00","1953","07","29","04:00","21.1","","13.3","","61","","18","","6","","25.0","","99.28","","","","","","Cloudy"
"1953-07-29 05:00","1953","07","29","05:00","17.8","","16.1","","90","","23","","11","","6.4","","99.32","","","","","","Rain Showers,Fog"
"1953-07-29 06:00","1953","07","29","06:00","17.8","","16.1","","90","","18","","6","","16.1","","99.28","","","","","","Cloudy"
"1953-07-29 07:00","1953","07","29","07:00","18.3","","16.1","","87","","20","","10","","12.9","","99.26","","","","","","Cloudy"
"1953-07-29 08:00","1953","07","29","08:00","20.0","","17.8","","87","","18","","10","","12.9","","99.26","","26","","","","Mostly Cloudy"
"1953-07-29 09:00","1953","07","29","09:00","23.3","","20.0","","82","","18","","10","","12.9","","99.25","","31","","","","Mostly Cloudy"
"1953-07-29 10:00","1953","07","29","10:00","26.7","","21.7","","74","","25","","8","","12.9","","99.21","","36","","","","Mostly Cloudy"
"1953-07-29 11:00","1953","07","29","11:00","28.9","","21.1","","63","","27","","24","","12.9","","99.22","","37","","","","Mostly Cloudy"
"1953-07-29 12:00","1953","07","29","12:00","28.3","","21.7","","67","","27","","24","","12.9","","99.21","","37","","","","Cloudy"
"1953-07-29 13:00","1953","07","29","13:00","28.9","","22.2","","67","","25","","21","","9.7","","99.19","","38","","","","Haze"
"1953-07-29 14:00","1953","07","29","14:00","29.4","","21.7","","63","","25","","24","","9.7","","99.20","","38","","","","Haze"
"1953-07-29 15:00","1953","07","29","15:00","29.4","","22.2","","65","","27","","29","","9.7","","99.17","","39","","","","Haze"
"1953-07-29 16:00","1953","07","29","16:00","30.0","","21.7","","61","","27","","24","","9.7","","99.20","","39","","","","Haze"
"1953-07-29 17:00","1953","07","29","17:00","28.3","","21.7","","67","","25","","19","","9.7","","99.20","","37","","","","Haze"
"1953-07-29 18:00","1953","07","29","18:00","27.2","","22.2","","74","","23","","21","","9.7","","99.22","","37","","","","Haze"
"1953-07-29 19:00","1953","07","29","19:00","26.1","","21.1","","74","","32","","19","","9.7","","99.28","","35","","","","Haze"
"1953-07-29 20:00","1953","07","29","20:00","25.0","","20.0","","74","","32","","11","","9.7","","99.33","","33","","","","Haze"
"1953-07-29 21:00","1953","07","29","21:00","24.4","","20.0","","76","","32","","18","","9.7","","99.42","","32","","","","Haze"
"1953-07-29 22:00","1953","07","29","22:00","22.8","","17.2","","71","","32","","11","","12.9","","99.44","","28","","","","Mostly Cloudy"
"1953-07-29 23:00","1953","07","29","23:00","22.2","","16.7","","71","","27","","13","","25.0","","99.49","","27","","","","Cloudy"
"1953-07-30 00:00","1953","07","30","00:00","21.7","","12.8","","57","","29","","16","","25.0","","99.50","","","","","","Mostly Cloudy"
"1953-07-30 01:00","1953","07","30","01:00","21.1","","10.6","","51","","32","","16","","25.0","","99.48","","","","","","Cloudy"
"1953-07-30 02:00","1953","07","30","02:00","20.0","","11.1","","57","","29","","11","","25.0","","99.53","","","","","","Mainly Clear"
"1953-07-30 03:00","1953","07","30","03:00","18.3","","11.7","","65","","27","","10","","25.0","","99.57","","","","","","Mainly Clear"
"1953-07-30 04:00","1953","07","30","04:00","17.2","","11.1","","67","","29","","6","","25.0","","99.62","","","","","","Mainly Clear"
"1953-07-30 05:00","1953","07","30","05:00","15.6","","10.6","","72","","27","","6","","25.0","","99.69","","","","","","Clear"
"1953-07-30 06:00","1953","07","30","06:00","16.7","","12.2","","75","","27","","6","","25.0","","99.73","","","","","","Clear"
"1953-07-30 07:00","1953","07","30","07:00","18.3","","12.8","","81","","34","","13","","25.0","","99.69","","","","","","Clear"
"1953-07-30 08:00","1953","07","30","08:00","20.6","","14.4","","68","","34","","21","","25.0","","99.85","","","","","","Mainly Clear"
"1953-07-30 09:00","1953","07","30","09:00","21.7","","15.0","","66","","34","","16","","25.0","","99.87","","26","","","","Mainly Clear"
"1953-07-30 10:00","1953","07","30","10:00","23.3","","15.6","","62","","32","","16","","25.0","","99.91","","28","","","","Mainly Clear"
"1953-07-30 11:00","1953","07","30","11:00","25.0","","16.1","","58","","36","","16","","25.0","","99.89","","30","","","","Mainly Clear"
"1953-07-30 12:00","1953","07","30","12:00","26.1","","13.9","","47","","2","","10","","25.0","","99.88","","29","","","","Mainly Clear"
"1953-07-30 13:00","1953","07","30","13:00","26.7","","13.3","","44","","36","","26","","25.0","","99.90","","30","","","","Mainly Clear"
"1953-07-30 14:00","1953","07","30","14:00","27.2","","11.7","","38","","32","","16","","25.0","","99.85","","29","","","","Mainly Clear"
"1953-07-30 15:00","1953","07","30","15:00","26.7","","12.2","","41","","36","","13","","25.0","","99.78","","29","","","","Mainly Clear"
"1953-07-30 16:00","1953","07","30","16:00","27.8","","12.8","","40","","27","","13","","25.0","","99.74","","30","","","","Mostly Cloudy"
"1953-07-30 17:00","1953","07","30","17:00","27.8","","12.8","","40","","27","","13","","25.0","","99.73","","30","","","","Mostly Cloudy"
"1953-07-30 18:00","1953","07","30","18:00","26.7","","13.9","","42","","27","","18","","25.0","","99.69","","30","","","","Mostly Cloudy"
"1953-07-30 19:00","1953","07","30","19:00","25.6","","15.0","","52","","34","","13","","25.0","","99.69","","30","","","","Mostly Cloudy"
"1953-07-30 20:00","1953","07","30","20:00","23.3","","15.0","","62","","29","","16","","25.0","","99.74","","27","","","","Mainly Clear"
"1953-07-30 21:00","1953","07","30","21:00","21.1","","14.4","","66","","27","","18","","25.0","","99.73","","25","","","","Mainly Clear"
"1953-07-30 22:00","1953","07","30","22:00","20.0","","13.9","","68","","27","","19","","25.0","","99.73","","","","","","Mainly Clear"
"1953-07-30 23:00","1953","07","30","23:00","18.3","","13.3","","73","","25","","16","","25.0","","99.78","","","","","","Mainly Clear"
"1953-07-31 00:00","1953","07","31","00:00","17.8","","12.8","","73","","29","","14","","25.0","","99.80","","","","","","Clear"
"1953-07-31 01:00","1953","07","31","01:00","18.3","","13.3","","73","","29","","14","","25.0","","99.76","","","","","","Clear"
"1953-07-31 02:00","1953","07","31","02:00","17.2","","12.8","","75","","29","","11","","25.0","","99.75","","","","","","Clear"
"1953-07-31 03:00","1953","07","31","03:00","16.1","","13.3","","84","","29","","13","","25.0","","99.75","","","","","","Clear"
"1953-07-31 04:00","1953","07","31","04:00","16.1","","13.3","","84","","34","","10","","25.0","","99.75","","","","","","Mainly Clear"
"1953-07-31 05:00","1953","07","31","05:00","16.7","","13.3","","81","","29","","16","","25.0","","99.81","","","","","","Mainly Clear"
"1953-07-31 06:00","1953","07","31","06:00","17.8","","12.8","","73","","29","","11","","25.0","","99.83","","","","","","Mainly Clear"
"1953-07-31 07:00","1953","07","31","07:00","19.4","","12.2","","64","","29","","14","","25.0","","99.88","","","","","","Mainly Clear"
"1953-07-31 08:00","1953","07","31","08:00","21.1","","11.1","","53","","34","","19","","25.0","","99.94","","","","","","Mainly Clear"
"1953-07-31 09:00","1953","07","31","09:00","22.8","","11.1","","48","","29","","16","","25.0","","99.92","","25","","","","Mainly Clear"
"1953-07-31 10:00","1953","07","31","10:00","24.4","","11.1","","43","","32","","13","","25.0","","100.00","","26","","","","Mainly Clear"
"1953-07-31 11:00","1953","07","31","11:00","26.1","","11.7","","41","","29","","23","","25.0","","99.98","","28","","","","Mainly Clear"
"1953-07-31 12:00","1953","07","31","12:00","25.6","","11.1","","41","","32","","32","","25.0","","99.95","","27","","","","Mostly Cloudy"
"1953-07-31 13:00","1953","07","31","13:00","26.1","","11.1","","39","","29","","29","","25.0","","99.92","","28","","","","Mostly Cloudy"
"1953-07-31 14:00","1953","07","31","14:00","26.7","","13.9","","46","","32","","32","","25.0","","99.88","","30","","","","Mostly Cloudy"
"1953-07-31 15:00","1953","07","31","15:00","25.6","","13.3","","47","","2","","16","","25.0","","99.86","","29","","","","Mostly Cloudy"
"1953-07-31 16:00","1953","07","31","16:00","23.9","","12.2","","48","","2","","18","","25.0","","99.84","","26","","","","Mostly Cloudy"
"1953-07-31 17:00","1953","07","31","17:00","23.3","","12.8","","52","","2","","18","","25.0","","99.83","","26","","","","Mostly Cloudy"
"1953-07-31 18:00","1953","07","31","18:00","22.2","","11.7","","51","","36","","19","","25.0","","99.84","","","","","","Mostly Cloudy"
"1953-07-31 19:00","1953","07","31","19:00","20.0","","12.2","","61","","2","","21","","25.0","","99.83","","","","","","Mostly Cloudy"
"1953-07-31 20:00","1953","07","31","20:00","17.8","","11.7","","68","","36","","16","","25.0","","99.87","","","","","","Mostly Cloudy"
"1953-07-31 21:00","1953","07","31","21:00","17.2","","11.1","","67","","32","","13","","25.0","","99.92","","","","","","Mainly Clear"
"1953-07-31 22:00","1953","07","31","22:00","16.1","","11.1","","72","","32","","10","","25.0","","99.94","","","","","","Mainly Clear"
"1953-07-31 23:00","1953","07","31","23:00","15.6","","10.6","","72","","34","","10","","25.0","","99.92","","","","","","Mainly Clear"
