"Station Name","TORONTO LESTER B. PEARSON INT'L A"
"Province","ONTARIO"
"Latitude","43.68"
"Longitude","-79.63"
"Elevation","173.40"
"Climate Identifier","6158733"
"WMO Identifier","71624"
"TC Identifier","YYZ"
"All times are specified in Local Standard Time (LST). Add 1 hour to adjust for Daylight Saving Time where and when it is observed."

"Legend"
"E","Estimated"
"M","Missing"
"NA","Not Available"

"Date/Time","Year","Month","Day","Time","Temp (°C)","Temp Flag","Dew Point Temp (°C)","Dew Point Temp Flag","Rel Hum (%)","Rel Hum Flag","Wind Dir (10s deg)","Wind Dir Flag","Wind Spd (km/h)","Wind Spd Flag","Visibility (km)","Visibility Flag","Stn Press (kPa)","Stn Press Flag","Hmdx","Hmdx Flag","Wind Chill","Wind Chill Flag","Weather"
"1953-09-01 00:00","1953","09","01","00:00","20.0","","17.8","","87","","29","","8","","25.0","","99.58","","26","","","","Clear"
"1953-09-01 01:00","1953","09","01","01:00","20.0","","17.2","","84","","32","","6","","24.1","","99.58","","25","","","","Clear"
"1953-09-01 02:00","1953","09","01","02:00","20.0","","17.8","","87","","32","","5","","25.0","","99.57","","26","","","","Mostly Cloudy"
"1953-09-01 03:00","1953","09","01","03:00","20.6","","17.8","","84","","36","","5","","25.0","","99.57","","26","","","","Mostly Cloudy"
"1953-09-01 04:00","1953","09","01","04:00","20.0","","18.3","","90","","27","","5","","25.0","","99.62","","26","","","","Mainly Clear"
"1953-09-01 05:00","1953","09","01","05:00","20.6","","17.8","","84","","20","","3","","12.9","","99.68","","26","","","","Mainly Clear"
"1953-09-01 06:00","1953","09","01","06:00","20.0","","18.3","","90","","25","","5","","12.9","","99.69","","26","","","","Mainly Clear"
"1953-09-01 07:00","1953","09","01","07:00","21.7","","17.8","","79","","36","","5","","12.9","","99.70","","28","","","","Mainly Clear"
"1953-09-01 08:00","1953","09","01","08:00","25.6","","21.1","","77","","18","","5","","16.1","","99.68","","34","","","","Mainly Clear"
"1953-09-01 09:00","1953","09","01","09:00","27.2","","23.3","","79","","27","","5","","16.1","","99.68","","38","","","","Mostly Cloudy"
"1953-09-01 10:00","1953","09","01","10:00","30.6","","21.7","","59","","27","","10","","19.3","","99.71","","40","","","","Mostly Cloudy"
"1953-09-01 11:00","1953","09","01","11:00","33.3","","22.8","","54","","25","","16","","19.3","","99.62","","43","","","","Mainly Clear"
"1953-09-01 12:00","1953","09","01","12:00","33.9","","22.8","","51","","25","","18","","19.3","","99.66","","44","","","","Clear"
"1953-09-01 13:00","1953","09","01","13:00","34.4","","23.3","","53","","25","","24","","19.3","","99.51","","45","","","","Mainly Clear"
"1953-09-01 14:00","1953","09","01","14:00","35.6","","25.0","","55","","25","","16","","19.3","","99.41","","48","","","","Mainly Clear"
"1953-09-01 15:00","1953","09","01","15:00","35.6","","23.3","","50","","23","","26","","19.3","","99.34","","46","","","","Mainly Clear"
"1953-09-01 16:00","1953","09","01","16:00","35.0","","22.8","","49","","25","","29","","19.3","","99.40","","45","","","","Mainly Clear"
"1953-09-01 17:00","1953","09","01","17:00","34.4","","22.2","","49","","25","","23","","16.1","","99.33","","44","","","","Clear"
"1953-09-01 18:00","1953","09","01","18:00","31.7","","23.3","","62","","25","","23","","16.1","","99.29","","42","","","","Clear"
"1953-09-01 19:00","1953","09","01","19:00","29.4","","22.8","","68","","23","","13","","16.1","","99.30","","39","","","","Clear"
"1953-09-01 20:00","1953","09","01","20:00","28.3","","22.2","","70","","23","","14","","16.1","","99.37","","38","","","","Clear"
"1953-09-01 21:00","1953","09","01","21:00","26.7","","22.2","","77","","23","","16","","16.1","","99.39","","36","","","","Clear"
"1953-09-01 22:00","1953","09","01","22:00","26.1","","22.2","","79","","23","","16","","12.9","","99.37","","36","","","","Clear"
"1953-09-01 23:00","1953","09","01","23:00","25.0","","22.2","","85","","25","","13","","19.3","","99.31","","35","","","","Clear"
"1953-09-02 00:00","1953","09","02","00:00","25.6","","21.7","","79","","25","","16","","19.3","","99.30","","35","","","","Clear"
"1953-09-02 01:00","1953","09","02","01:00","25.6","","22.2","","82","","25","","19","","24.1","","99.28","","35","","","","Clear"
"1953-09-02 02:00","1953","09","02","02:00","24.4","","21.7","","85","","27","","18","","24.1","","99.27","","33","","","","Clear"
"1953-09-02 03:00","1953","09","02","03:00","24.4","","21.7","","85","","27","","19","","24.1","","99.28","","33","","","","Clear"
"1953-09-02 04:00","1953","09","02","04:00","23.9","","21.7","","88","","27","","19","","24.1","","99.29","","33","","","","Clear"
"1953-09-02 05:00","1953","09","02","05:00","23.3","","21.1","","88","","27","","16","","12.9","","99.30","","32","","","","Mainly Clear"
"1953-09-02 06:00","1953","09","02","06:00","23.9","","21.1","","85","","25","","11","","12.9","","99.33","","32","","","","Mainly Clear"
"1953-09-02 07:00","1953","09","02","07:00","25.0","","21.7","","82","","27","","11","","16.1","","99.36","","34","","","","Mainly Clear"
"1953-09-02 08:00","1953","09","02","08:00","28.9","","22.8","","70","","27","","19","","16.1","","99.33","","39","","","","Clear"
"1953-09-02 09:00","1953","09","02","09:00","31.7","","23.3","","62","","27","","16","","16.1","","99.33","","42","","","","Mainly Clear"
"1953-09-02 10:00","1953","09","02","10:00","33.3","","23.9","","58","","27","","19","","19.3","","99.32","","44","","","","Mainly Clear"
"1953-09-02 11:00","1953","09","02","11:00","35.0","","22.8","","49","","25","","29","","19.3","","99.29","","45","","","","Mainly Clear"
"1953-09-02 12:00","1953","09","02","12:00","35.6","","23.3","","50","","27","","29","","19.3","","99.26","","46","","","","Mainly Clear"
"1953-09-02 13:00","1953","09","02","13:00","36.1","","23.3","","48","","27","","24","","24.1","","99.24","","47","","","","Mainly Clear"
"1953-09-02 14:00","1953","09","02","14:00","36.7","","22.8","","45","","25","","24","","24.1","","99.14","","47","","","","Mainly Clear"
"1953-09-02 15:00","1953","09","02","15:00","35.6","","23.3","","50","","34","","24","","25.0","","99.06","","46","","","","Mainly Clear"
"1953-09-02 16:00","1953","09","02","16:00","35.6","","23.3","","50","","29","","24","","25.0","","99.12","","46","","","","Mainly Clear"
"1953-09-02 17:00","1953","09","02","17:00","35.0","","22.8","","49","","29","","23","","25.0","","99.14","","45","","","","Mainly Clear"
"1953-09-02 18:00","1953","09","02","18:00","32.8","","22.8","","54","","32","","16","","25.0","","99.14","","43","","","","Mainly Clear"
"1953-09-02 19:00","1953","09","02","19:00","30.0","","23.9","","70","","36","","13","","25.0","","99.20","","41","","","","Mainly Clear"
"1953-09-02 20:00","1953","09","02","20:00","28.9","","23.3","","72","","34","","10","","25.0","","99.27","","39","","","","Clear"
"1953-09-02 21:00","1953","09","02","21:00","26.7","","22.8","","79","","36","","10","","25.0","","99.30","","37","","","","Clear"
"1953-09-02 22:00","1953","09","02","22:00","25.6","","22.2","","82","","34","","8","","25.0","","99.31","","35","","","","Clear"
"1953-09-02 23:00","1953","09","02","23:00","24.4","","22.2","","88","","36","","3","","24.1","","99.25","","34","","","","Clear"
"1953-09-03 00:00","1953","09","03","00:00","23.3","","21.7","","91","","2","","2","","24.1","","99.28","","32","","","","Clear"
"1953-09-03 01:00","1953","09","03","01:00","22.8","","21.1","","90","","25","","3","","19.3","","99.28","","31","","","","Clear"
"1953-09-03 02:00","1953","09","03","02:00","22.2","","20.6","","90","","32","","6","","24.1","","99.27","","30","","","","Clear"
"1953-09-03 03:00","1953","09","03","03:00","21.1","","20.0","","93","","36","","6","","24.1","","99.27","","29","","","","Clear"
"1953-09-03 04:00","1953","09","03","04:00","21.1","","20.0","","93","","32","","6","","24.1","","99.27","","29","","","","Clear"
"1953-09-03 05:00","1953","09","03","05:00","21.1","","20.0","","93","","32","","5","","19.3","","99.27","","29","","","","Clear"
"1953-09-03 06:00","1953","09","03","06:00","21.1","","20.0","","93","","9","","2","","9.7","","99.31","","29","","","","Smoke"
"1953-09-03 07:00","1953","09","03","07:00","22.2","","20.6","","90","","36","","2","","9.7","","99.31","","30","","","","Smoke"
"1953-09-03 08:00","1953","09","03","08:00","26.1","","22.2","","79","","5","","2","","8.0","","99.29","","36","","","","Smoke,Haze"
"1953-09-03 09:00","1953","09","03","09:00","28.3","","22.8","","72","","18","","3","","6.4","","99.28","","38","","","","Smoke,Haze"
"1953-09-03 10:00","1953","09","03","10:00","31.1","","23.9","","66","","20","","5","","4.8","","99.26","","42","","","","Smoke,Haze"
"1953-09-03 11:00","1953","09","03","11:00","32.2","","25.0","","66","","18","","11","","6.4","","99.23","","45","","","","Haze"
"1953-09-03 12:00","1953","09","03","12:00","32.8","","24.4","","62","","16","","19","","6.4","","99.18","","44","","","","Haze"
"1953-09-03 13:00","1953","09","03","13:00","33.9","","24.4","","58","","18","","21","","6.4","","99.14","","46","","","","Haze"
"1953-09-03 14:00","1953","09","03","14:00","33.3","","20.6","","47","","16","","23","","6.4","","99.05","","41","","","","Haze"
"1953-09-03 15:00","1953","09","03","15:00","32.2","","20.6","","50","","16","","13","","12.9","","99.06","","40","","","","Mainly Clear"
"1953-09-03 16:00","1953","09","03","16:00","32.2","","20.6","","50","","11","","10","","6.4","","99.03","","40","","","","Haze"
"1953-09-03 17:00","1953","09","03","17:00","31.1","","21.1","","55","","7","","6","","6.4","","99.03","","40","","","","Haze"
"1953-09-03 18:00","1953","09","03","18:00","28.9","","22.2","","67","","16","","10","","6.4","","99.01","","38","","","","Haze"
"1953-09-03 19:00","1953","09","03","19:00","28.3","","21.1","","65","","14","","10","","4.8","","99.09","","37","","","","Haze"
"1953-09-03 20:00","1953","09","03","20:00","26.1","","21.1","","74","","9","","5","","4.8","","99.08","","35","","","","Haze"
"1953-09-03 21:00","1953","09","03","21:00","24.4","","21.1","","82","","2","","6","","6.4","","99.14","","33","","","","Haze"
"1953-09-03 22:00","1953","09","03","22:00","23.9","","21.1","","85","","5","","6","","9.7","","99.11","","32","","","","Haze"
"1953-09-03 23:00","1953","09","03","23:00","23.3","","20.6","","85","","5","","6","","8.0","","99.09","","31","","","","Haze"
"1953-09-04 00:00","1953","09","04","00:00","23.3","","20.6","","85","","5","","6","","6.4","","99.09","","31","","","","Haze"
"1953-09-04 01:00","1953","09","04","01:00","23.9","","21.7","","88","","7","","14","","11.3","","99.10","","33","","","","Thunderstorms,Rain Showers"
"1953-09-04 02:00","1953","09","04","02:00","23.3","","21.1","","88","","7","","6","","4.8","","98.96","","32","","","","Fog"
"1953-09-04 03:00","1953","09","04","03:00","23.3","","20.6","","87","","5","","6","","8.0","","98.99","","31","","","","Haze"
"1953-09-04 04:00","1953","09","04","04:00","22.2","","20.6","","90","","9","","6","","6.4","","98.90","","30","","","","Fog"
"1953-09-04 05:00","1953","09","04","05:00","22.8","","21.1","","90","","11","","5","","2.8","","98.90","","31","","","","Fog"
"1953-09-04 06:00","1953","09","04","06:00","21.7","","20.0","","90","","16","","3","","1.6","","98.90","","29","","","","Fog"
"1953-09-04 07:00","1953","09","04","07:00","23.3","","21.1","","88","","14","","3","","1.6","","98.90","","32","","","","Fog"
"1953-09-04 08:00","1953","09","04","08:00","26.1","","21.7","","77","","14","","10","","2.4","","98.87","","35","","","","Haze"
"1953-09-04 09:00","1953","09","04","09:00","28.3","","20.6","","63","","18","","10","","8.0","","98.90","","36","","","","Haze"
"1953-09-04 10:00","1953","09","04","10:00","30.0","","19.4","","53","","20","","27","","9.7","","98.82","","37","","","","Haze"
"1953-09-04 11:00","1953","09","04","11:00","31.1","","19.4","","50","","16","","29","","11.3","","98.74","","38","","","","Mainly Clear"
"1953-09-04 12:00","1953","09","04","12:00","32.2","","18.9","","45","","18","","27","","12.9","","98.69","","39","","","","Mostly Cloudy"
"1953-09-04 13:00","1953","09","04","13:00","33.3","","19.4","","44","","20","","32","","16.1","","98.63","","40","","","","Cloudy"
"1953-09-04 14:00","1953","09","04","14:00","33.9","","13.9","","30","","20","","32","","16.1","","98.52","","37","","","","Mostly Cloudy"
"1953-09-04 15:00","1953","09","04","15:00","33.9","","19.4","","43","","18","","32","","12.9","","98.44","","41","","","","Mostly Cloudy"
"1953-09-04 16:00","1953","09","04","16:00","33.3","","20.0","","46","","18","","29","","12.9","","98.42","","41","","","","Mostly Cloudy"
"1953-09-04 17:00","1953","09","04","17:00","28.3","","21.1","","65","","18","","26","","12.9","","98.40","","37","","","","Mostly Cloudy"
"1953-09-04 18:00","1953","09","04","18:00","27.8","","21.1","","67","","18","","19","","12.9","","98.44","","36","","","","Mostly Cloudy"
"1953-09-04 19:00","1953","09","04","19:00","27.2","","20.0","","65","","18","","43","","16.1","","98.47","","35","","","","Cloudy"
"1953-09-04 20:00","1953","09","04","20:00","21.7","","20.6","","93","","27","","29","","16.1","","98.75","","30","","","","Thunderstorms,Heavy Rain Showers"
"1953-09-04 21:00","1953","09","04","21:00","21.1","","20.6","","97","","29","","10","","16.1","","98.68","","29","","","","Rain"
"1953-09-04 22:00","1953","09","04","22:00","20.6","","20.0","","97","","32","","13","","16.1","","98.70","","28","","","","Cloudy"
"1953-09-04 23:00","1953","09","04","23:00","20.0","","18.9","","93","","27","","16","","19.3","","98.84","","27","","","","Rain Showers"
"1953-09-05 00:00","1953","09","05","00:00","18.9","","17.8","","93","","29","","21","","19.3","","98.89","","","","","","Rain Showers"
"1953-09-05 01:00","1953","09","05","01:00","18.3","","16.1","","87","","32","","29","","25.0","","98.90","","","","","","Rain Showers"
"1953-09-05 02:00","1953","09","05","02:00","17.2","","15.0","","87","","32","","19","","24.1","","98.87","","","","","","Rain Showers"
"1953-09-05 03:00","1953","09","05","03:00","16.7","","15.0","","90","","29","","19","","25.0","","98.93","","","","","","Rain,Drizzle"
"1953-09-05 04:00","1953","09","05","04:00","16.7","","13.9","","84","","32","","19","","25.0","","98.92","","","","","","Rain Showers"
"1953-09-05 05:00","1953","09","05","05:00","16.7","","13.9","","84","","32","","18","","25.0","","98.94","","","","","","Cloudy"
"1953-09-05 06:00","1953","09","05","06:00","16.1","","13.9","","87","","27","","16","","25.0","","99.09","","","","","","Cloudy"
"1953-09-05 07:00","1953","09","05","07:00","16.7","","13.3","","81","","27","","13","","25.0","","99.15","","","","","","Cloudy"
"1953-09-05 08:00","1953","09","05","08:00","17.8","","14.4","","87","","29","","16","","25.0","","99.15","","","","","","Cloudy"
"1953-09-05 09:00","1953","09","05","09:00","18.3","","13.9","","75","","29","","29","","25.0","","99.20","","","","","","Cloudy"
"1953-09-05 10:00","1953","09","05","10:00","18.9","","13.3","","70","","29","","14","","25.0","","99.21","","","","","","Cloudy"
"1953-09-05 11:00","1953","09","05","11:00","19.4","","13.9","","70","","27","","18","","25.0","","99.24","","","","","","Cloudy"
"1953-09-05 12:00","1953","09","05","12:00","20.0","","12.8","","63","","29","","21","","25.0","","99.27","","","","","","Mostly Cloudy"
"1953-09-05 13:00","1953","09","05","13:00","20.6","","9.4","","49","","29","","26","","25.0","","99.26","","","","","","Mostly Cloudy"
"1953-09-05 14:00","1953","09","05","14:00","21.1","","10.0","","49","","27","","10","","25.0","","99.27","","","","","","Mostly Cloudy"
"1953-09-05 15:00","1953","09","05","15:00","22.2","","8.9","","44","","29","","26","","25.0","","99.29","","","","","","Mostly Cloudy"
"1953-09-05 16:00","1953","09","05","16:00","21.1","","10.0","","49","","29","","16","","25.0","","99.34","","","","","","Mostly Cloudy"
"1953-09-05 17:00","1953","09","05","17:00","21.1","","10.0","","49","","20","","5","","25.0","","99.40","","","","","","Mostly Cloudy"
"1953-09-05 18:00","1953","09","05","18:00","21.1","","10.0","","49","","20","","5","","25.0","","99.44","","","","","","Mostly Cloudy"
"1953-09-05 19:00","1953","09","05","19:00","18.9","","9.4","","55","","29","","8","","25.0","","99.44","","","","","","Mostly Cloudy"
"1953-09-05 20:00","1953","09","05","20:00","17.2","","9.4","","61","","27","","6","","25.0","","99.57","","","","","","Mainly Clear"
"1953-09-05 21:00","1953","09","05","21:00","16.1","","9.4","","66","","25","","5","","25.0","","99.59","","","","","","Mainly Clear"
"1953-09-05 22:00","1953","09","05","22:00","15.0","","9.4","","69","","25","","5","","25.0","","99.63","","","","","","Clear"
"1953-09-05 23:00","1953","09","05","23:00","13.9","","9.4","","75","","20","","3","","25.0","","99.64","","","","","","Clear"
"1953-09-06 00:00","1953","09","06","00:00","12.8","","8.9","","77","","23","","2","","25.0","","99.64","","","","","","Clear"
"1953-09-06 01:00","1953","09","06","01:00","12.2","","8.9","","80","","32","","3","","25.0","","99.63","","","","","","Mainly Clear"
"1953-09-06 02:00","1953","09","06","02:00","11.7","","8.9","","83","","27","","3","","25.0","","99.64","","","","","","Mainly Clear"
"1953-09-06 03:00","1953","09","06","03:00","11.1","","8.9","","86","","34","","2","","25.0","","99.62","","","","","","Clear"
"1953-09-06 04:00","1953","09","06","04:00","10.6","","8.3","","86","","36","","3","","25.0","","99.63","","","","","","Clear"
"1953-09-06 05:00","1953","09","06","05:00","10.0","","8.9","","93","","36","","3","","24.1","","99.67","","","","","","Mainly Clear"
"1953-09-06 06:00","1953","09","06","06:00","10.6","","8.9","","89","","36","","6","","19.3","","99.70","","","","","","Clear"
"1953-09-06 07:00","1953","09","06","07:00","13.3","","10.6","","83","","36","","5","","19.3","","99.71","","","","","","Clear"
"1953-09-06 08:00","1953","09","06","08:00","17.2","","10.0","","63","","18","","3","","24.1","","99.74","","","","","","Mainly Clear"
"1953-09-06 09:00","1953","09","06","09:00","20.0","","10.0","","53","","20","","10","","19.3","","99.74","","","","","","Mainly Clear"
"1953-09-06 10:00","1953","09","06","10:00","21.7","","11.7","","53","","16","","13","","24.1","","99.72","","","","","","Mainly Clear"
"1953-09-06 11:00","1953","09","06","11:00","22.8","","10.6","","46","","18","","21","","25.0","","99.68","","","","","","Mainly Clear"
"1953-09-06 12:00","1953","09","06","12:00","22.8","","11.1","","48","","20","","21","","25.0","","99.64","","25","","","","Mostly Cloudy"
"1953-09-06 13:00","1953","09","06","13:00","22.2","","11.1","","49","","16","","21","","25.0","","99.62","","","","","","Mostly Cloudy"
"1953-09-06 14:00","1953","09","06","14:00","22.8","","11.7","","50","","18","","13","","25.0","","99.53","","25","","","","Mainly Clear"
"1953-09-06 15:00","1953","09","06","15:00","22.8","","10.0","","44","","20","","16","","24.1","","99.50","","","","","","Mainly Clear"
"1953-09-06 16:00","1953","09","06","16:00","22.2","","10.0","","46","","16","","16","","25.0","","99.47","","","","","","Mainly Clear"
"1953-09-06 17:00","1953","09","06","17:00","21.1","","11.1","","53","","16","","13","","25.0","","99.46","","","","","","Mainly Clear"
"1953-09-06 18:00","1953","09","06","18:00","20.0","","12.2","","61","","14","","10","","25.0","","99.45","","","","","","Mainly Clear"
"1953-09-06 19:00","1953","09","06","19:00","19.4","","12.8","","65","","16","","6","","25.0","","99.44","","","","","","Mainly Clear"
"1953-09-06 20:00","1953","09","06","20:00","18.9","","13.3","","70","","20","","3","","24.1","","99.47","","","","","","Mainly Clear"
"1953-09-06 21:00","1953","09","06","21:00","17.8","","13.3","","75","","25","","3","","25.0","","99.47","","","","","","Mainly Clear"
"1953-09-06 22:00","1953","09","06","22:00","16.1","","13.3","","84","","32","","6","","25.0","","99.44","","","","","","Clear"
"1953-09-06 23:00","1953","09","06","23:00","14.4","","12.2","","87","","36","","5","","25.0","","99.43","","","","","","Clear"
"1953-09-07 00:00","1953","09","07","00:00","13.9","","11.7","","87","","36","","6","","25.0","","99.42","","","","","","Clear"
"1953-09-07 01:00","1953","09","07","01:00","13.3","","11.1","","86","","36","","3","","19.3","","99.37","","","","","","Clear"
"1953-09-07 02:00","1953","09","07","02:00","12.8","","10.6","","86","","32","","3","","19.3","","99.33","","","","","","Clear"
"1953-09-07 03:00","1953","09","07","03:00","12.8","","10.6","","86","","34","","8","","19.3","","99.32","","","","","","Clear"
"1953-09-07 04:00","1953","09","07","04:00","12.8","","10.0","","83","","34","","5","","19.3","","99.31","","","","","","Clear"
"1953-09-07 05:00","1953","09","07","05:00","11.1","","9.4","","90","","34","","10","","9.7","","99.33","","","","","","Fog"
"1953-09-07 06:00","1953","09","07","06:00","11.7","","8.9","","83","","36","","6","","12.9","","99.35","","","","","","Clear"
"1953-09-07 07:00","1953","09","07","07:00","13.9","","11.1","","83","","32","","6","","14.5","","99.36","","","","","","Mainly Clear"
"1953-09-07 08:00","1953","09","07","08:00","17.8","","13.3","","75","","32","","5","","16.1","","99.31","","","","","","Mainly Clear"
"1953-09-07 09:00","1953","09","07","09:00","20.6","","12.8","","61","","36","","3","","16.1","","99.31","","","","","","Mainly Clear"
"1953-09-07 10:00","1953","09","07","10:00","22.8","","11.1","","64","","32","","16","","19.3","","99.30","","25","","","","Mostly Cloudy"
"1953-09-07 11:00","1953","09","07","11:00","20.0","","12.8","","63","","32","","26","","16.1","","99.26","","","","","","Thunderstorms"
"1953-09-07 12:00","1953","09","07","12:00","18.9","","12.2","","65","","32","","26","","24.1","","99.33","","","","","","Mostly Cloudy"
"1953-09-07 13:00","1953","09","07","13:00","20.0","","15.6","","66","","36","","16","","25.0","","99.34","","","","","","Mostly Cloudy"
"1953-09-07 14:00","1953","09","07","14:00","20.0","","12.8","","63","","32","","16","","25.0","","99.31","","","","","","Mostly Cloudy"
"1953-09-07 15:00","1953","09","07","15:00","17.2","","12.8","","75","","36","","19","","19.3","","99.39","","","","","","Rain Showers"
"1953-09-07 16:00","1953","09","07","16:00","18.9","","11.7","","63","","34","","29","","25.0","","99.44","","","","","","Mostly Cloudy"
"1953-09-07 17:00","1953","09","07","17:00","18.9","","11.7","","63","","34","","24","","25.0","","99.52","","","","","","Mainly Clear"
"1953-09-07 18:00","1953","09","07","18:00","17.8","","11.1","","65","","36","","16","","25.0","","99.60","","","","","","Mainly Clear"
"1953-09-07 19:00","1953","09","07","19:00","15.6","","7.8","","60","","34","","16","","25.0","","99.68","","","","","","Mainly Clear"
"1953-09-07 20:00","1953","09","07","20:00","13.9","","7.8","","66","","27","","11","","25.0","","99.77","","","","","","Mainly Clear"
"1953-09-07 21:00","1953","09","07","21:00","12.8","","7.2","","69","","29","","14","","25.0","","99.83","","","","","","Mainly Clear"
"1953-09-07 22:00","1953","09","07","22:00","12.2","","7.8","","74","","29","","10","","25.0","","99.86","","","","","","Clear"
"1953-09-07 23:00","1953","09","07","23:00","11.1","","7.8","","80","","29","","10","","25.0","","99.89","","","","","","Clear"
"1953-09-08 00:00","1953","09","08","00:00","10.6","","7.2","","80","","27","","6","","25.0","","99.92","","","","","","Clear"
"1953-09-08 01:00","1953","09","08","01:00","10.0","","7.2","","83","","23","","13","","25.0","","99.93","","","","","","Clear"
"1953-09-08 02:00","1953","09","08","02:00","10.0","","7.2","","83","","25","","13","","25.0","","99.96","","","","","","Clear"
"1953-09-08 03:00","1953","09","08","03:00","10.0","","7.2","","83","","27","","13","","25.0","","100.00","","","","","","Clear"
"1953-09-08 04:00","1953","09","08","04:00","11.1","","7.2","","77","","27","","16","","25.0","","100.01","","","","","","Clear"
"1953-09-08 05:00","1953","09","08","05:00","10.0","","7.2","","83","","32","","10","","25.0","","100.11","","","","","","Clear"
"1953-09-08 06:00","1953","09","08","06:00","10.6","","7.2","","80","","27","","13","","25.0","","100.18","","","","","","Mostly Cloudy"
"1953-09-08 07:00","1953","09","08","07:00","12.2","","8.3","","77","","29","","14","","25.0","","100.21","","","","","","Mainly Clear"
"1953-09-08 08:00","1953","09","08","08:00","16.1","","11.1","","72","","29","","18","","25.0","","100.21","","","","","","Mainly Clear"
"1953-09-08 09:00","1953","09","08","09:00","16.7","","8.9","","60","","34","","18","","25.0","","100.25","","","","","","Mainly Clear"
"1953-09-08 10:00","1953","09","08","10:00","18.3","","6.7","","46","","29","","16","","25.0","","100.24","","","","","","Mainly Clear"
"1953-09-08 11:00","1953","09","08","11:00","18.9","","7.8","","47","","32","","6","","25.0","","100.24","","","","","","Mostly Cloudy"
"1953-09-08 12:00","1953","09","08","12:00","18.9","","7.8","","48","","36","","14","","24.1","","100.17","","","","","","Mostly Cloudy"
"1953-09-08 13:00","1953","09","08","13:00","18.9","","8.3","","50","","32","","23","","24.1","","100.29","","","","","","Mostly Cloudy"
"1953-09-08 14:00","1953","09","08","14:00","17.8","","7.8","","52","","2","","21","","24.1","","100.29","","","","","","Mostly Cloudy"
"1953-09-08 15:00","1953","09","08","15:00","18.9","","7.8","","48","","29","","18","","25.0","","100.30","","","","","","Mainly Clear"
"1953-09-08 16:00","1953","09","08","16:00","18.3","","5.6","","43","","36","","29","","25.0","","100.29","","","","","","Mainly Clear"
"1953-09-08 17:00","1953","09","08","17:00","18.3","","5.6","","43","","36","","23","","25.0","","100.34","","","","","","Mainly Clear"
"1953-09-08 18:00","1953","09","08","18:00","15.6","","6.7","","55","","36","","16","","25.0","","100.38","","","","","","Mainly Clear"
"1953-09-08 19:00","1953","09","08","19:00","15.0","","6.7","","57","","34","","14","","25.0","","100.46","","","","","","Mainly Clear"
"1953-09-08 20:00","1953","09","08","20:00","14.4","","6.7","","62","","34","","8","","25.0","","100.49","","","","","","Clear"
"1953-09-08 21:00","1953","09","08","21:00","13.3","","6.7","","66","","32","","13","","25.0","","100.40","","","","","","Clear"
"1953-09-08 22:00","1953","09","08","22:00","11.7","","6.7","","71","","34","","10","","25.0","","100.53","","","","","","Clear"
"1953-09-08 23:00","1953","09","08","23:00","10.6","","6.7","","77","","32","","8","","25.0","","100.52","","","","","","Clear"
"1953-09-09 00:00","1953","09","09","00:00","9.4","","5.6","","77","","27","","6","","25.0","","100.55","","","","","","Clear"
"1953-09-09 01:00","1953","09","09","01:00","10.0","","5.6","","74","","2","","8","","25.0","","100.57","","","","","","Clear"
"1953-09-09 02:00","1953","09","09","02:00","8.3","","5.0","","80","","36","","6","","25.0","","100.60","","","","","","Clear"
"1953-09-09 03:00","1953","09","09","03:00","7.8","","5.0","","82","","27","","6","","25.0","","100.61","","","","","","Clear"
"1953-09-09 04:00","1953","09","09","04:00","6.7","","3.9","","82","","27","","6","","25.0","","100.62","","","","","","Clear"
"1953-09-09 05:00","1953","09","09","05:00","7.2","","3.9","","79","","27","","6","","25.0","","100.66","","","","","","Clear"
"1953-09-09 06:00","1953","09","09","06:00","7.8","","4.4","","79","","27","","6","","25.0","","100.74","","","","","","Mainly Clear"
"1953-09-09 07:00","1953","09","09","07:00","10.0","","5.6","","74","","32","","6","","25.0","","100.78","","","","","","Mainly Clear"
"1953-09-09 08:00","1953","09","09","08:00","16.1","","7.8","","58","","29","","6","","25.0","","100.80","","","","","","Mainly Clear"
"1953-09-09 09:00","1953","09","09","09:00","18.9","","7.8","","48","","32","","23","","25.0","","100.83","","","","","","Mainly Clear"
"1953-09-09 10:00","1953","09","09","10:00","20.0","","8.9","","47","","32","","16","","25.0","","100.82","","","","","","Mostly Cloudy"
"1953-09-09 11:00","1953","09","09","11:00","21.7","","8.3","","42","","29","","23","","25.0","","100.83","","","","","","Mostly Cloudy"
"1953-09-09 12:00","1953","09","09","12:00","22.2","","7.8","","39","","29","","16","","25.0","","100.75","","","","","","Mainly Clear"
"1953-09-09 13:00","1953","09","09","13:00","22.2","","6.7","","37","","32","","16","","25.0","","100.71","","","","","","Mainly Clear"
"1953-09-09 14:00","1953","09","09","14:00","23.3","","6.7","","34","","29","","26","","25.0","","100.69","","","","","","Mainly Clear"
"1953-09-09 15:00","1953","09","09","15:00","23.3","","5.0","","30","","29","","19","","25.0","","100.63","","","","","","Mainly Clear"
"1953-09-09 16:00","1953","09","09","16:00","23.3","","6.7","","34","","29","","16","","25.0","","100.58","","","","","","Mainly Clear"
"1953-09-09 17:00","1953","09","09","17:00","22.2","","6.1","","35","","32","","13","","25.0","","100.59","","","","","","Mainly Clear"
"1953-09-09 18:00","1953","09","09","18:00","19.4","","10.0","","54","","5","","14","","25.0","","100.59","","","","","","Mainly Clear"
"1953-09-09 19:00","1953","09","09","19:00","18.3","","8.3","","52","","5","","13","","25.0","","100.62","","","","","","Mainly Clear"
"1953-09-09 20:00","1953","09","09","20:00","15.0","","8.9","","67","","2","","10","","25.0","","100.67","","","","","","Clear"
"1953-09-09 21:00","1953","09","09","21:00","15.0","","8.9","","69","","36","","13","","25.0","","100.68","","","","","","Clear"
"1953-09-09 22:00","1953","09","09","22:00","12.8","","10.0","","83","","36","","16","","25.0","","100.65","","","","","","Clear"
"1953-09-09 23:00","1953","09","09","23:00","12.2","","7.8","","74","","36","","13","","25.0","","100.65","","","","","","Clear"
"1953-09-10 00:00","1953","09","10","00:00","11.1","","7.8","","80","","36","","13","","25.0","","100.65","","","","","","Clear"
"1953-09-10 01:00","1953","09","10","01:00","10.6","","7.8","","83","","36","","13","","25.0","","100.67","","","","","","Clear"
"1953-09-10 02:00","1953","09","10","02:00","10.0","","7.2","","83","","36","","14","","25.0","","100.65","","","","","","Clear"
"1953-09-10 03:00","1953","09","10","03:00","10.0","","6.7","","80","","36","","16","","25.0","","100.61","","","","","","Clear"
"1953-09-10 04:00","1953","09","10","04:00","8.9","","6.7","","86","","36","","11","","25.0","","100.63","","","","","","Clear"
"1953-09-10 05:00","1953","09","10","05:00","8.9","","6.1","","83","","5","","5","","25.0","","100.60","","","","","","Mainly Clear"
"1953-09-10 06:00","1953","09","10","06:00","8.9","","6.1","","83","","34","","13","","25.0","","100.66","","","","","","Mainly Clear"
"1953-09-10 07:00","1953","09","10","07:00","11.1","","7.2","","77","","36","","8","","25.0","","100.66","","","","","","Mostly Cloudy"
"1953-09-10 08:00","1953","09","10","08:00","14.4","","8.9","","69","","7","","6","","24.1","","100.54","","","","","","Mainly Clear"
"1953-09-10 09:00","1953","09","10","09:00","18.9","","9.4","","54","","7","","8","","25.0","","100.61","","","","","","Clear"
"1953-09-10 10:00","1953","09","10","10:00","21.1","","11.1","","53","","11","","6","","24.1","","100.55","","","","","","Mainly Clear"
"1953-09-10 11:00","1953","09","10","11:00","21.7","","10.0","","48","","36","","6","","24.1","","100.51","","","","","","Mainly Clear"
"1953-09-10 12:00","1953","09","10","12:00","22.2","","10.0","","46","","36","","6","","19.3","","100.45","","","","","","Mainly Clear"
"1953-09-10 13:00","1953","09","10","13:00","23.3","","12.2","","50","","36","","13","","19.3","","100.40","","26","","","","Mainly Clear"
"1953-09-10 14:00","1953","09","10","14:00","23.3","","11.1","","46","","36","","16","","19.3","","100.30","","25","","","","Mainly Clear"
"1953-09-10 15:00","1953","09","10","15:00","22.2","","12.8","","55","","16","","19","","9.7","","100.22","","25","","","","Haze"
"1953-09-10 16:00","1953","09","10","16:00","22.2","","12.8","","55","","16","","19","","9.7","","100.19","","25","","","","Haze"
"1953-09-10 17:00","1953","09","10","17:00","21.1","","11.7","","55","","18","","16","","12.9","","100.16","","","","","","Mainly Clear"
"1953-09-10 18:00","1953","09","10","18:00","21.1","","12.8","","61","","16","","13","","12.9","","100.24","","","","","","Mainly Clear"
"1953-09-10 19:00","1953","09","10","19:00","18.9","","12.2","","65","","16","","13","","16.1","","100.10","","","","","","Clear"
"1953-09-10 20:00","1953","09","10","20:00","17.8","","13.3","","75","","18","","8","","16.1","","100.09","","","","","","Clear"
"1953-09-10 21:00","1953","09","10","21:00","17.2","","13.3","","81","","20","","6","","12.9","","100.07","","","","","","Clear"
"1953-09-10 22:00","1953","09","10","22:00","15.0","","12.8","","87","","25","","3","","12.9","","100.08","","","","","","Clear"
"1953-09-10 23:00","1953","09","10","23:00","13.9","","11.7","","87","","34","","6","","12.9","","100.05","","","","","","Clear"
"1953-09-11 00:00","1953","09","11","00:00","13.3","","11.1","","86","","36","","6","","12.9","","100.02","","","","","","Clear"
"1953-09-11 01:00","1953","09","11","01:00","12.2","","10.0","","86","","36","","6","","12.9","","99.97","","","","","","Clear"
"1953-09-11 02:00","1953","09","11","02:00","11.7","","10.0","","90","","32","","6","","6.4","","99.91","","","","","","Fog"
"1953-09-11 03:00","1953","09","11","03:00","11.1","","9.4","","90","","36","","6","","4.8","","99.85","","","","","","Fog"
"1953-09-11 04:00","1953","09","11","04:00","10.0","","8.9","","93","","32","","6","","4.8","","99.82","","","","","","Fog"
"1953-09-11 05:00","1953","09","11","05:00","10.0","","8.3","","89","","36","","6","","3.2","","99.79","","","","","","Fog"
"1953-09-11 06:00","1953","09","11","06:00","10.0","","8.9","","93","","34","","8","","4.0","","99.77","","","","","","Fog"
"1953-09-11 07:00","1953","09","11","07:00","11.7","","10.6","","93","","36","","5","","4.0","","99.75","","","","","","Fog"
"1953-09-11 08:00","1953","09","11","08:00","15.6","","13.3","","87","","32","","5","","4.0","","99.70","","","","","","Fog,Haze"
"1953-09-11 09:00","1953","09","11","09:00","20.0","","14.4","","70","","20","","8","","6.4","","99.66","","","","","","Haze"
"1953-09-11 10:00","1953","09","11","10:00","23.3","","14.4","","58","","20","","10","","12.9","","99.65","","27","","","","Mostly Cloudy"
"1953-09-11 11:00","1953","09","11","11:00","22.8","","13.9","","57","","16","","16","","12.9","","99.52","","26","","","","Mostly Cloudy"
"1953-09-11 12:00","1953","09","11","12:00","22.2","","15.0","","64","","18","","16","","14.5","","99.48","","26","","","","Mostly Cloudy"
"1953-09-11 13:00","1953","09","11","13:00","23.9","","14.4","","54","","18","","16","","16.1","","99.39","","28","","","","Mainly Clear"
"1953-09-11 14:00","1953","09","11","14:00","24.4","","12.2","","47","","16","","26","","16.1","","99.28","","27","","","","Mainly Clear"
"1953-09-11 15:00","1953","09","11","15:00","23.9","","13.3","","52","","16","","23","","16.1","","99.28","","27","","","","Clear"
"1953-09-11 16:00","1953","09","11","16:00","22.8","","13.3","","52","","14","","24","","6.4","","99.12","","26","","","","Haze"
"1953-09-11 17:00","1953","09","11","17:00","22.2","","14.4","","61","","14","","19","","9.7","","99.08","","26","","","","Haze"
"1953-09-11 18:00","1953","09","11","18:00","21.1","","15.6","","87","","14","","16","","9.7","","99.05","","25","","","","Haze"
"1953-09-11 19:00","1953","09","11","19:00","20.6","","13.3","","63","","16","","11","","12.9","","99.00","","","","","","Mostly Cloudy"
"1953-09-11 20:00","1953","09","11","20:00","20.0","","13.3","","66","","16","","13","","11.3","","98.97","","","","","","Cloudy"
"1953-09-11 21:00","1953","09","11","21:00","20.0","","15.0","","73","","16","","10","","9.7","","98.87","","","","","","Haze"
"1953-09-11 22:00","1953","09","11","22:00","20.0","","16.1","","78","","16","","11","","6.4","","98.77","","25","","","","Haze"
"1953-09-11 23:00","1953","09","11","23:00","19.4","","16.1","","81","","14","","13","","8.0","","98.68","","","","","","Haze"
"1953-09-12 00:00","1953","09","12","00:00","19.4","","16.7","","84","","14","","16","","6.4","","98.57","","","","","","Haze"
"1953-09-12 01:00","1953","09","12","01:00","19.4","","16.1","","81","","14","","18","","8.0","","98.51","","","","","","Haze"
"1953-09-12 02:00","1953","09","12","02:00","18.9","","15.6","","81","","16","","19","","12.9","","98.33","","","","","","Mostly Cloudy"
"1953-09-12 03:00","1953","09","12","03:00","18.9","","15.6","","81","","16","","19","","12.9","","98.22","","","","","","Mainly Clear"
"1953-09-12 04:00","1953","09","12","04:00","19.4","","16.1","","81","","16","","23","","12.9","","98.11","","","","","","Mostly Cloudy"
"1953-09-12 05:00","1953","09","12","05:00","20.0","","16.1","","78","","18","","40","","16.1","","98.04","","25","","","","Rain Showers"
"1953-09-12 06:00","1953","09","12","06:00","17.8","","16.7","","93","","20","","31","","6.4","","98.01","","","","","","Rain Showers,Fog"
"1953-09-12 07:00","1953","09","12","07:00","17.2","","17.2","","100","","20","","23","","4.8","","97.97","","","","","","Rain,Fog"
"1953-09-12 08:00","1953","09","12","08:00","17.8","","17.2","","97","","20","","23","","4.8","","97.89","","","","","","Rain,Fog"
"1953-09-12 09:00","1953","09","12","09:00","18.9","","17.2","","90","","20","","26","","9.7","","97.87","","","","","","Fog"
"1953-09-12 10:00","1953","09","12","10:00","21.1","","17.2","","79","","23","","26","","12.9","","97.83","","27","","","","Mostly Cloudy"
"1953-09-12 11:00","1953","09","12","11:00","23.3","","15.0","","60","","23","","35","","25.0","","97.77","","27","","","","Mostly Cloudy"
"1953-09-12 12:00","1953","09","12","12:00","23.9","","15.6","","60","","23","","40","","25.0","","97.61","","28","","","","Mostly Cloudy"
"1953-09-12 13:00","1953","09","12","13:00","19.4","","17.2","","87","","27","","35","","12.9","","97.69","","","","","","Rain"
"1953-09-12 14:00","1953","09","12","14:00","16.7","","15.6","","93","","25","","19","","12.9","","97.82","","","","","","Rain"
"1953-09-12 15:00","1953","09","12","15:00","17.8","","16.1","","90","","23","","18","","24.1","","97.82","","","","","","Mostly Cloudy"
"1953-09-12 16:00","1953","09","12","16:00","19.4","","16.1","","81","","23","","19","","24.1","","97.84","","","","","","Mostly Cloudy"
"1953-09-12 17:00","1953","09","12","17:00","19.4","","13.3","","68","","27","","32","","24.1","","97.88","","","","","","Mostly Cloudy"
"1953-09-12 18:00","1953","09","12","18:00","17.2","","11.1","","67","","27","","34","","24.1","","97.96","","","","","","Mostly Cloudy"
"1953-09-12 19:00","1953","09","12","19:00","15.6","","11.1","","75","","29","","32","","24.1","","98.04","","","","","","Mostly Cloudy"
"1953-09-12 20:00","1953","09","12","20:00","13.9","","9.4","","75","","29","","29","","25.0","","98.18","","","","","","Mostly Cloudy"
"1953-09-12 21:00","1953","09","12","21:00","13.3","","8.9","","74","","27","","24","","24.1","","98.18","","","","","","Cloudy"
"1953-09-12 22:00","1953","09","12","22:00","11.7","","7.8","","77","","29","","32","","25.0","","98.27","","","","","","Cloudy"
"1953-09-12 23:00","1953","09","12","23:00","11.1","","7.2","","77","","25","","29","","25.0","","98.21","","","","","","Mostly Cloudy"
"1953-09-13 00:00","1953","09","13","00:00","10.0","","5.6","","74","","25","","29","","25.0","","98.18","","","","","","Cloudy"
"1953-09-13 01:00","1953","09","13","01:00","8.9","","5.6","","80","","25","","32","","25.0","","98.18","","","","","","Cloudy"
"1953-09-13 02:00","1953","09","13","02:00","8.3","","5.6","","83","","25","","37","","25.0","","98.12","","","","","","Cloudy"
"1953-09-13 03:00","1953","09","13","03:00","8.3","","6.1","","86","","25","","29","","25.0","","98.12","","","","","","Cloudy"
"1953-09-13 04:00","1953","09","13","04:00","8.9","","6.1","","83","","25","","31","","25.0","","98.14","","","","","","Cloudy"
"1953-09-13 05:00","1953","09","13","05:00","8.9","","5.0","","77","","27","","29","","25.0","","98.20","","","","","","Cloudy"
"1953-09-13 06:00","1953","09","13","06:00","8.3","","5.6","","83","","27","","39","","25.0","","98.28","","","","","","Cloudy"
"1953-09-13 07:00","1953","09","13","07:00","8.3","","5.0","","80","","27","","29","","25.0","","98.32","","","","","","Cloudy"
"1953-09-13 08:00","1953","09","13","08:00","10.0","","2.2","","58","","27","","40","","25.0","","98.39","","","","","","Cloudy"
"1953-09-13 09:00","1953","09","13","09:00","11.1","","5.0","","68","","27","","39","","25.0","","98.44","","","","","","Mostly Cloudy"
"1953-09-13 10:00","1953","09","13","10:00","11.1","","5.0","","68","","27","","39","","25.0","","98.52","","","","","","Mostly Cloudy"
"1953-09-13 11:00","1953","09","13","11:00","11.1","","4.4","","64","","29","","39","","25.0","","98.52","","","","","","Mostly Cloudy"
"1953-09-13 12:00","1953","09","13","12:00","12.2","","5.0","","61","","29","","40","","25.0","","98.54","","","","","","Mostly Cloudy"
"1953-09-13 13:00","1953","09","13","13:00","11.7","","4.4","","61","","29","","47","","25.0","","98.58","","","","","","Cloudy"
"1953-09-13 14:00","1953","09","13","14:00","11.7","","5.6","","66","","29","","42","","25.0","","98.62","","","","","","Cloudy"
"1953-09-13 15:00","1953","09","13","15:00","12.2","","6.1","","66","","29","","45","","25.0","","98.68","","","","","","Mostly Cloudy"
"1953-09-13 16:00","1953","09","13","16:00","11.1","","5.6","","69","","29","","34","","25.0","","98.73","","","","","","Mostly Cloudy"
"1953-09-13 17:00","1953","09","13","17:00","11.1","","6.1","","71","","29","","40","","25.0","","98.79","","","","","","Mostly Cloudy"
"1953-09-13 18:00","1953","09","13","18:00","9.4","","5.0","","74","","29","","31","","25.0","","98.85","","","","","","Mostly Cloudy"
"1953-09-13 19:00","1953","09","13","19:00","9.4","","5.0","","74","","29","","29","","25.0","","98.88","","","","","","Mostly Cloudy"
"1953-09-13 20:00","1953","09","13","20:00","8.3","","5.0","","80","","29","","23","","25.0","","98.96","","","","","","Mainly Clear"
"1953-09-13 21:00","1953","09","13","21:00","8.9","","5.0","","77","","29","","21","","25.0","","99.04","","","","","","Mostly Cloudy"
"1953-09-13 22:00","1953","09","13","22:00","8.9","","5.0","","77","","34","","13","","25.0","","99.07","","","","","","Mostly Cloudy"
"1953-09-13 23:00","1953","09","13","23:00","7.2","","4.4","","82","","36","","11","","25.0","","99.12","","","","","","Mainly Clear"
"1953-09-14 00:00","1953","09","14","00:00","6.7","","4.4","","86","","2","","14","","25.0","","99.16","","","","","","Clear"
"1953-09-14 01:00","1953","09","14","01:00","5.6","","3.3","","86","","29","","8","","25.0","","99.16","","","","","","Clear"
"1953-09-14 02:00","1953","09","14","02:00","3.9","","2.2","","89","","25","","11","","25.0","","99.14","","","","","","Clear"
"1953-09-14 03:00","1953","09","14","03:00","3.9","","2.2","","89","","25","","13","","25.0","","99.10","","","","","","Clear"
"1953-09-14 04:00","1953","09","14","04:00","3.9","","2.2","","89","","25","","13","","25.0","","99.13","","","","","","Clear"
"1953-09-14 05:00","1953","09","14","05:00","3.3","","1.7","","89","","25","","14","","25.0","","99.15","","","","","","Mainly Clear"
"1953-09-14 06:00","1953","09","14","06:00","3.9","","2.2","","89","","25","","14","","25.0","","99.22","","","","","","Mainly Clear"
"1953-09-14 07:00","1953","09","14","07:00","6.1","","3.9","","86","","27","","19","","25.0","","99.26","","","","","","Mainly Clear"
"1953-09-14 08:00","1953","09","14","08:00","10.0","","5.6","","74","","27","","19","","25.0","","99.29","","","","","","Clear"
"1953-09-14 09:00","1953","09","14","09:00","12.2","","5.6","","64","","27","","23","","25.0","","99.30","","","","","","Mainly Clear"
"1953-09-14 10:00","1953","09","14","10:00","13.9","","5.0","","55","","29","","32","","25.0","","99.26","","","","","","Mainly Clear"
"1953-09-14 11:00","1953","09","14","11:00","15.0","","5.0","","51","","29","","32","","25.0","","99.25","","","","","","Mainly Clear"
"1953-09-14 12:00","1953","09","14","12:00","16.1","","5.6","","50","","29","","29","","25.0","","99.20","","","","","","Mainly Clear"
"1953-09-14 13:00","1953","09","14","13:00","16.7","","6.1","","50","","29","","32","","25.0","","99.16","","","","","","Mainly Clear"
"1953-09-14 14:00","1953","09","14","14:00","17.8","","9.4","","58","","27","","29","","25.0","","99.11","","","","","","Mainly Clear"
"1953-09-14 15:00","1953","09","14","15:00","17.8","","8.9","","58","","27","","26","","25.0","","99.05","","","","","","Mainly Clear"
"1953-09-14 16:00","1953","09","14","16:00","17.2","","9.4","","60","","27","","26","","25.0","","99.05","","","","","","Mainly Clear"
"1953-09-14 17:00","1953","09","14","17:00","17.2","","8.3","","56","","27","","26","","25.0","","99.04","","","","","","Mainly Clear"
"1953-09-14 18:00","1953","09","14","18:00","14.4","","7.8","","64","","27","","16","","25.0","","99.05","","","","","","Mainly Clear"
"1953-09-14 19:00","1953","09","14","19:00","12.2","","7.8","","66","","27","","16","","25.0","","99.07","","","","","","Mainly Clear"
"1953-09-14 20:00","1953","09","14","20:00","10.0","","5.0","","71","","27","","14","","25.0","","99.07","","","","","","Clear"
"1953-09-14 21:00","1953","09","14","21:00","10.0","","4.4","","68","","29","","14","","25.0","","99.08","","","","","","Clear"
"1953-09-14 22:00","1953","09","14","22:00","8.3","","3.9","","74","","27","","10","","25.0","","99.08","","","","","","Clear"
"1953-09-14 23:00","1953","09","14","23:00","7.2","","4.4","","82","","25","","8","","25.0","","99.25","","","","","","Clear"
"1953-09-15 00:00","1953","09","15","00:00","7.2","","4.4","","82","","20","","3","","25.0","","99.22","","","","","","Clear"
"1953-09-15 01:00","1953","09","15","01:00","6.1","","3.9","","86","","34","","8","","25.0","","99.20","","","","","","Clear"
"1953-09-15 02:00","1953","09","15","02:00","5.6","","3.3","","86","","5","","6","","25.0","","99.16","","","","","","Clear"
"1953-09-15 03:00","1953","09","15","03:00","5.0","","2.8","","86","","7","","5","","25.0","","99.12","","","","","","Mostly Cloudy"
"1953-09-15 04:00","1953","09","15","04:00","5.6","","4.4","","93","","7","","3","","25.0","","99.10","","","","","","Cloudy"
"1953-09-15 05:00","1953","09","15","05:00","6.1","","4.4","","89","","7","","3","","25.0","","99.09","","","","","","Mostly Cloudy"
"1953-09-15 06:00","1953","09","15","06:00","6.7","","4.4","","86","","18","","3","","12.9","","99.08","","","","","","Mostly Cloudy"
"1953-09-15 07:00","1953","09","15","07:00","7.8","","5.0","","82","","20","","6","","11.3","","99.12","","","","","","Mostly Cloudy"
"1953-09-15 08:00","1953","09","15","08:00","10.6","","7.2","","80","","18","","6","","11.3","","99.08","","","","","","Mostly Cloudy"
"1953-09-15 09:00","1953","09","15","09:00","13.9","","7.2","","64","","18","","6","","16.1","","99.04","","","","","","Mostly Cloudy"
"1953-09-15 10:00","1953","09","15","10:00","15.6","","8.3","","62","","18","","16","","16.1","","99.00","","","","","","Mostly Cloudy"
"1953-09-15 11:00","1953","09","15","11:00","16.7","","8.9","","60","","18","","16","","16.1","","98.93","","","","","","Mostly Cloudy"
"1953-09-15 12:00","1953","09","15","12:00","16.7","","9.4","","62","","16","","26","","16.1","","98.87","","","","","","Mostly Cloudy"
"1953-09-15 13:00","1953","09","15","13:00","17.8","","10.6","","60","","18","","26","","16.1","","98.80","","","","","","Mostly Cloudy"
"1953-09-15 14:00","1953","09","15","14:00","17.2","","11.1","","70","","18","","23","","16.1","","98.71","","","","","","Mostly Cloudy"
"1953-09-15 15:00","1953","09","15","15:00","17.8","","11.7","","68","","18","","16","","12.9","","98.66","","","","","","Mainly Clear"
"1953-09-15 16:00","1953","09","15","16:00","17.8","","12.8","","73","","16","","19","","12.9","","98.66","","","","","","Mainly Clear"
"1953-09-15 17:00","1953","09","15","17:00","16.1","","13.3","","84","","16","","24","","11.3","","98.66","","","","","","Mainly Clear"
"1953-09-15 18:00","1953","09","15","18:00","15.6","","11.1","","75","","16","","10","","11.3","","98.62","","","","","","Mainly Clear"
"1953-09-15 19:00","1953","09","15","19:00","13.9","","11.1","","83","","20","","10","","11.3","","98.65","","","","","","Mainly Clear"
"1953-09-15 20:00","1953","09","15","20:00","14.4","","10.6","","78","","20","","13","","12.9","","98.67","","","","","","Mainly Clear"
"1953-09-15 21:00","1953","09","15","21:00","13.9","","11.1","","83","","18","","11","","12.9","","98.67","","","","","","Mainly Clear"
"1953-09-15 22:00","1953","09","15","22:00","13.3","","11.1","","86","","27","","40","","4.8","","98.68","","","","","","Thunderstorms,Heavy Rain Showers"
"1953-09-15 23:00","1953","09","15","23:00","11.1","","10.6","","96","","5","","13","","25.0","","98.47","","","","","","Mainly Clear"
"1953-09-16 00:00","1953","09","16","00:00","10.0","","9.4","","96","","23","","8","","4.8","","98.40","","","","","","Fog"
"1953-09-16 01:00","1953","09","16","01:00","10.0","","10.0","","100","","23","","13","","2.4","","98.40","","","","","","Fog"
"1953-09-16 02:00","1953","09","16","02:00","11.1","","10.0","","93","","29","","13","","25.0","","98.42","","","","","","Mainly Clear"
"1953-09-16 03:00","1953","09","16","03:00","10.0","","9.4","","96","","27","","13","","25.0","","98.47","","","","","","Mainly Clear"
"1953-09-16 04:00","1953","09","16","04:00","10.6","","10.0","","96","","27","","13","","25.0","","98.50","","","","","","Mainly Clear"
"1953-09-16 05:00","1953","09","16","05:00","8.9","","8.3","","96","","27","","14","","25.0","","98.56","","","","","","Mainly Clear"
"1953-09-16 06:00","1953","09","16","06:00","9.4","","8.9","","96","","25","","14","","16.1","","98.60","","","","","","Mainly Clear"
"1953-09-16 07:00","1953","09","16","07:00","11.1","","10.6","","96","","25","","13","","16.1","","98.65","","","","","","Mainly Clear"
"1953-09-16 08:00","1953","09","16","08:00","13.3","","12.2","","93","","27","","23","","25.0","","98.66","","","","","","Mainly Clear"
"1953-09-16 09:00","1953","09","16","09:00","15.0","","10.0","","72","","29","","32","","25.0","","98.58","","","","","","Mostly Cloudy"
"1953-09-16 10:00","1953","09","16","10:00","15.6","","8.9","","65","","29","","24","","25.0","","98.74","","","","","","Mostly Cloudy"
"1953-09-16 11:00","1953","09","16","11:00","16.1","","8.9","","62","","29","","24","","25.0","","98.74","","","","","","Cloudy"
"1953-09-16 12:00","1953","09","16","12:00","15.6","","7.8","","60","","29","","27","","25.0","","98.73","","","","","","Cloudy"
"1953-09-16 13:00","1953","09","16","13:00","15.0","","10.6","","75","","29","","26","","25.0","","98.79","","","","","","Mostly Cloudy"
"1953-09-16 14:00","1953","09","16","14:00","14.4","","9.4","","72","","29","","23","","24.1","","98.83","","","","","","Cloudy"
"1953-09-16 15:00","1953","09","16","15:00","13.3","","8.9","","74","","32","","23","","24.1","","98.89","","","","","","Cloudy"
"1953-09-16 16:00","1953","09","16","16:00","13.3","","8.9","","74","","29","","24","","24.1","","98.99","","","","","","Mostly Cloudy"
"1953-09-16 17:00","1953","09","16","17:00","13.3","","8.3","","72","","29","","29","","24.1","","99.15","","","","","","Mostly Cloudy"
"1953-09-16 18:00","1953","09","16","18:00","12.2","","7.2","","71","","32","","18","","24.1","","99.15","","","","","","Cloudy"
"1953-09-16 19:00","1953","09","16","19:00","11.7","","7.2","","74","","32","","19","","24.1","","99.25","","","","","","Cloudy"
"1953-09-16 20:00","1953","09","16","20:00","11.1","","7.8","","80","","32","","26","","24.1","","99.36","","","","","","Drizzle"
"1953-09-16 21:00","1953","09","16","21:00","11.1","","7.8","","80","","32","","19","","24.1","","99.38","","","","","","Cloudy"
"1953-09-16 22:00","1953","09","16","22:00","11.7","","7.8","","77","","32","","19","","24.1","","99.40","","","","","","Cloudy"
"1953-09-16 23:00","1953","09","16","23:00","10.6","","7.8","","83","","36","","19","","25.0","","99.42","","","","","","Cloudy"
"1953-09-17 00:00","1953","09","17","00:00","10.0","","7.2","","83","","34","","16","","25.0","","99.49","","","","","","Cloudy"
"1953-09-17 01:00","1953","09","17","01:00","9.4","","6.7","","83","","34","","16","","25.0","","99.49","","","","","","Cloudy"
"1953-09-17 02:00","1953","09","17","02:00","8.9","","5.6","","80","","36","","10","","25.0","","99.50","","","","","","Cloudy"
"1953-09-17 03:00","1953","09","17","03:00","8.9","","6.1","","83","","34","","10","","25.0","","99.55","","","","","","Cloudy"
"1953-09-17 04:00","1953","09","17","04:00","8.9","","6.1","","83","","32","","10","","25.0","","99.62","","","","","","Cloudy"
"1953-09-17 05:00","1953","09","17","05:00","7.8","","5.6","","86","","29","","6","","25.0","","99.65","","","","","","Mainly Clear"
"1953-09-17 06:00","1953","09","17","06:00","7.2","","5.0","","86","","32","","13","","25.0","","99.72","","","","","","Mainly Clear"
"1953-09-17 07:00","1953","09","17","07:00","8.3","","5.6","","83","","32","","8","","24.1","","99.78","","","","","","Mainly Clear"
"1953-09-17 08:00","1953","09","17","08:00","11.1","","6.1","","71","","34","","14","","25.0","","99.81","","","","","","Mainly Clear"
"1953-09-17 09:00","1953","09","17","09:00","12.2","","7.2","","71","","34","","8","","25.0","","99.86","","","","","","Mostly Cloudy"
"1953-09-17 10:00","1953","09","17","10:00","12.2","","7.2","","71","","34","","16","","25.0","","99.87","","","","","","Mostly Cloudy"
"1953-09-17 11:00","1953","09","17","11:00","13.3","","8.3","","72","","2","","11","","25.0","","99.89","","","","","","Mostly Cloudy"
"1953-09-17 12:00","1953","09","17","12:00","15.0","","11.1","","78","","2","","8","","25.0","","99.88","","","","","","Mostly Cloudy"
"1953-09-17 13:00","1953","09","17","13:00","15.0","","11.1","","78","","32","","16","","25.0","","99.87","","","","","","Mostly Cloudy"
"1953-09-17 14:00","1953","09","17","14:00","16.1","","11.7","","75","","32","","13","","25.0","","99.84","","","","","","Mostly Cloudy"
"1953-09-17 15:00","1953","09","17","15:00","16.1","","11.7","","75","","34","","13","","25.0","","99.83","","","","","","Mainly Clear"
"1953-09-17 16:00","1953","09","17","16:00","16.1","","11.1","","72","","2","","11","","25.0","","99.82","","","","","","Mainly Clear"
"1953-09-17 17:00","1953","09","17","17:00","15.0","","10.6","","75","","18","","13","","25.0","","99.85","","","","","","Clear"
"1953-09-17 18:00","1953","09","17","18:00","13.9","","9.4","","75","","14","","8","","25.0","","99.89","","","","","","Mainly Clear"
"1953-09-17 19:00","1953","09","17","19:00","11.7","","8.3","","80","","9","","6","","19.3","","99.94","","","","","","Clear"
"1953-09-17 20:00","1953","09","17","20:00","9.4","","7.2","","86","","5","","8","","16.1","","100.00","","","","","","Clear"
"1953-09-17 21:00","1953","09","17","21:00","7.8","","5.0","","82","","5","","6","","12.9","","100.02","","","","","","Clear"
"1953-09-17 22:00","1953","09","17","22:00","7.8","","5.0","","82","","36","","5","","19.3","","100.02","","","","","","Clear"
"1953-09-17 23:00","1953","09","17","23:00","6.1","","3.9","","86","","36","","5","","24.1","","100.03","","","","","","Clear"
"1953-09-18 00:00","1953","09","18","00:00","5.6","","3.3","","86","","36","","5","","25.0","","100.04","","","","","","Clear"
"1953-09-18 01:00","1953","09","18","01:00","5.6","","3.3","","86","","36","","6","","25.0","","100.06","","","","","","Clear"
"1953-09-18 02:00","1953","09","18","02:00","5.0","","2.8","","86","","36","","6","","24.1","","100.07","","","","","","Clear"
"1953-09-18 03:00","1953","09","18","03:00","3.9","","1.7","","85","","32","","8","","19.3","","100.13","","","","","","Clear"
"1953-09-18 04:00","1953","09","18","04:00","4.4","","1.7","","82","","27","","8","","19.3","","100.14","","","","","","Clear"
"1953-09-18 05:00","1953","09","18","05:00","3.9","","2.2","","89","","2","","8","","19.3","","100.11","","","","","","Mainly Clear"
"1953-09-18 06:00","1953","09","18","06:00","4.4","","2.2","","85","","7","","11","","11.3","","100.09","","","","","","Mostly Cloudy"
"1953-09-18 07:00","1953","09","18","07:00","6.7","","3.9","","82","","9","","11","","6.4","","100.05","","","","","","Smoke"
"1953-09-18 08:00","1953","09","18","08:00","11.7","","7.8","","77","","11","","13","","6.4","","100.05","","","","","","Smoke"
"1953-09-18 09:00","1953","09","18","09:00","13.9","","7.2","","64","","14","","26","","24.1","","100.04","","","","","","Mainly Clear"
"1953-09-18 10:00","1953","09","18","10:00","15.0","","5.6","","53","","14","","26","","24.1","","100.01","","","","","","Mainly Clear"
"1953-09-18 11:00","1953","09","18","11:00","14.4","","8.3","","67","","16","","23","","24.1","","99.96","","","","","","Mostly Cloudy"
"1953-09-18 12:00","1953","09","18","12:00","15.6","","8.9","","65","","16","","19","","24.1","","99.93","","","","","","Mostly Cloudy"
"1953-09-18 13:00","1953","09","18","13:00","15.0","","10.0","","72","","14","","23","","16.1","","99.88","","","","","","Cloudy"
"1953-09-18 14:00","1953","09","18","14:00","15.0","","9.4","","69","","14","","19","","12.9","","99.82","","","","","","Cloudy"
"1953-09-18 15:00","1953","09","18","15:00","16.1","","9.4","","65","","14","","18","","9.7","","99.64","","","","","","Haze"
"1953-09-18 16:00","1953","09","18","16:00","16.1","","10.0","","68","","14","","19","","11.3","","99.64","","","","","","Mostly Cloudy"
"1953-09-18 17:00","1953","09","18","17:00","16.7","","10.6","","67","","11","","13","","8.0","","99.64","","","","","","Haze"
"1953-09-18 18:00","1953","09","18","18:00","15.6","","11.7","","78","","11","","13","","6.4","","99.54","","","","","","Haze"
"1953-09-18 19:00","1953","09","18","19:00","20.6","","11.1","","78","","11","","11","","6.4","","99.54","","","","","","Haze"
"1953-09-18 20:00","1953","09","18","20:00","14.4","","10.6","","78","","14","","13","","6.4","","99.49","","","","","","Haze"
"1953-09-18 21:00","1953","09","18","21:00","14.4","","11.1","","81","","16","","10","","9.7","","99.45","","","","","","Haze"
"1953-09-18 22:00","1953","09","18","22:00","12.2","","9.4","","83","","2","","8","","4.8","","99.38","","","","","","Smoke,Haze"
"1953-09-18 23:00","1953","09","18","23:00","12.2","","10.0","","86","","34","","6","","6.4","","99.28","","","","","","Smoke,Haze"
"1953-09-19 00:00","1953","09","19","00:00","11.7","","10.0","","90","","9","","5","","4.8","","99.27","","","","","","Smoke,Haze"
"1953-09-19 01:00","1953","09","19","01:00","11.1","","10.0","","93","","9","","5","","4.8","","99.21","","","","","","Smoke,Haze"
"1953-09-19 02:00","1953","09","19","02:00","12.2","","10.0","","86","","11","","5","","4.8","","99.16","","","","","","Smoke,Haze"
"1953-09-19 03:00","1953","09","19","03:00","11.7","","10.6","","93","","5","","5","","4.0","","99.15","","","","","","Smoke,Haze"
"1953-09-19 04:00","1953","09","19","04:00","12.8","","11.1","","90","","9","","10","","4.0","","99.10","","","","","","Smoke,Haze"
"1953-09-19 05:00","1953","09","19","05:00","13.3","","11.7","","90","","27","","5","","4.0","","99.10","","","","","","Smoke,Haze"
"1953-09-19 06:00","1953","09","19","06:00","13.3","","11.7","","90","","2","","16","","4.0","","99.23","","","","","","Rain Showers,Smoke,Haze"
"1953-09-19 07:00","1953","09","19","07:00","13.9","","12.8","","93","","7","","13","","4.0","","99.18","","","","","","Rain Showers,Haze"
"1953-09-19 08:00","1953","09","19","08:00","15.0","","13.3","","90","","18","","6","","4.0","","99.15","","","","","","Rain Showers,Fog"
"1953-09-19 09:00","1953","09","19","09:00","15.0","","13.3","","90","","16","","13","","2.4","","99.11","","","","","","Rain,Fog"
"1953-09-19 10:00","1953","09","19","10:00","16.1","","14.4","","90","","18","","23","","4.0","","99.06","","","","","","Rain,Fog"
"1953-09-19 11:00","1953","09","19","11:00","17.8","","15.0","","84","","20","","10","","6.4","","98.98","","","","","","Haze"
"1953-09-19 12:00","1953","09","19","12:00","18.3","","15.6","","84","","18","","10","","6.4","","98.94","","","","","","Rain Showers,Haze"
"1953-09-19 13:00","1953","09","19","13:00","18.9","","16.7","","87","","7","","8","","6.4","","98.88","","","","","","Haze"
"1953-09-19 14:00","1953","09","19","14:00","18.3","","16.7","","90","","16","","19","","2.4","","98.83","","","","","","Fog"
"1953-09-19 15:00","1953","09","19","15:00","18.9","","17.2","","90","","20","","18","","4.0","","98.80","","","","","","Fog"
"1953-09-19 16:00","1953","09","19","16:00","19.4","","17.8","","90","","18","","18","","4.0","","98.72","","","","","","Fog"
"1953-09-19 17:00","1953","09","19","17:00","18.3","","16.7","","90","","25","","21","","4.8","","98.74","","","","","","Rain,Fog"
"1953-09-19 18:00","1953","09","19","18:00","17.8","","16.7","","93","","20","","18","","4.0","","98.74","","","","","","Rain Showers,Fog"
"1953-09-19 19:00","1953","09","19","19:00","17.2","","16.1","","93","","20","","18","","6.4","","98.74","","","","","","Rain Showers,Fog"
"1953-09-19 20:00","1953","09","19","20:00","16.7","","15.6","","93","","20","","21","","16.1","","98.77","","","","","","Rain Showers"
"1953-09-19 21:00","1953","09","19","21:00","16.1","","15.0","","93","","20","","14","","12.9","","98.72","","","","","","Rain Showers"
"1953-09-19 22:00","1953","09","19","22:00","16.1","","15.6","","97","","20","","18","","11.3","","98.70","","","","","","Rain"
"1953-09-19 23:00","1953","09","19","23:00","15.6","","15.6","","100","","18","","11","","11.3","","98.66","","","","","","Rain"
"1953-09-20 00:00","1953","09","20","00:00","15.6","","15.0","","97","","23","","14","","11.3","","98.63","","","","","","Cloudy"
"1953-09-20 01:00","1953","09","20","01:00","15.6","","15.0","","97","","18","","13","","11.3","","98.66","","","","","","Cloudy"
"1953-09-20 02:00","1953","09","20","02:00","15.6","","15.0","","97","","20","","14","","25.0","","98.59","","","","","","Cloudy"
"1953-09-20 03:00","1953","09","20","03:00","15.6","","15.0","","97","","20","","10","","25.0","","98.63","","","","","","Cloudy"
"1953-09-20 04:00","1953","09","20","04:00","14.4","","13.9","","96","","18","","14","","24.1","","98.65","","","","","","Mainly Clear"
"1953-09-20 05:00","1953","09","20","05:00","13.9","","13.3","","96","","20","","13","","19.3","","98.66","","","","","","Mainly Clear"
"1953-09-20 06:00","1953","09","20","06:00","13.3","","12.8","","96","","23","","10","","6.4","","98.71","","","","","","Fog"
"1953-09-20 07:00","1953","09","20","07:00","13.9","","13.3","","96","","20","","11","","11.3","","98.71","","","","","","Clear"
"1953-09-20 08:00","1953","09","20","08:00","16.7","","15.6","","97","","25","","19","","19.3","","98.79","","","","","","Mostly Cloudy"
"1953-09-20 09:00","1953","09","20","09:00","17.8","","14.4","","81","","25","","16","","24.1","","98.80","","","","","","Mostly Cloudy"
"1953-09-20 10:00","1953","09","20","10:00","19.4","","13.3","","68","","23","","19","","24.1","","98.77","","","","","","Mainly Clear"
"1953-09-20 11:00","1953","09","20","11:00","21.1","","12.2","","57","","23","","32","","25.0","","98.73","","","","","","Clear"
"1953-09-20 12:00","1953","09","20","12:00","22.2","","11.1","","49","","23","","29","","25.0","","98.70","","","","","","Clear"
"1953-09-20 13:00","1953","09","20","13:00","23.3","","12.8","","52","","23","","32","","25.0","","98.62","","26","","","","Clear"
"1953-09-20 14:00","1953","09","20","14:00","23.9","","10.0","","42","","23","","35","","25.0","","98.52","","25","","","","Clear"
"1953-09-20 15:00","1953","09","20","15:00","23.9","","10.6","","43","","23","","29","","24.1","","98.49","","25","","","","Clear"
"1953-09-20 16:00","1953","09","20","16:00","23.3","","12.2","","50","","23","","39","","24.1","","98.50","","26","","","","Clear"
"1953-09-20 17:00","1953","09","20","17:00","21.7","","12.8","","57","","20","","27","","24.1","","98.46","","","","","","Mostly Cloudy"
"1953-09-20 18:00","1953","09","20","18:00","21.1","","13.3","","61","","23","","24","","19.3","","98.47","","","","","","Mostly Cloudy"
"1953-09-20 19:00","1953","09","20","19:00","20.6","","13.9","","66","","23","","23","","24.1","","98.51","","","","","","Mostly Cloudy"
"1953-09-20 20:00","1953","09","20","20:00","18.9","","14.4","","78","","25","","16","","24.1","","98.58","","","","","","Rain Showers"
"1953-09-20 21:00","1953","09","20","21:00","16.7","","13.3","","81","","32","","39","","6.4","","98.71","","","","","","Moderate Rain Showers"
"1953-09-20 22:00","1953","09","20","22:00","15.0","","13.9","","93","","32","","18","","25.0","","98.71","","","","","","Rain Showers"
"1953-09-20 23:00","1953","09","20","23:00","14.4","","13.3","","93","","32","","14","","11.3","","98.82","","","","","","Moderate Rain Showers"
"1953-09-21 00:00","1953","09","21","00:00","14.4","","13.3","","93","","29","","13","","12.9","","98.89","","","","","","Moderate Rain Showers"
"1953-09-21 01:00","1953","09","21","01:00","14.4","","12.2","","87","","36","","10","","12.9","","98.82","","","","","","Cloudy"
"1953-09-21 02:00","1953","09","21","02:00","13.9","","11.7","","87","","36","","6","","16.1","","98.82","","","","","","Rain Showers"
"1953-09-21 03:00","1953","09","21","03:00","13.9","","12.2","","90","","23","","6","","12.9","","98.85","","","","","","Rain Showers"
"1953-09-21 04:00","1953","09","21","04:00","12.8","","12.2","","96","","18","","13","","12.9","","98.92","","","","","","Rain Showers"
"1953-09-21 05:00","1953","09","21","05:00","12.8","","12.2","","90","","18","","14","","16.1","","98.90","","","","","","Rain"
"1953-09-21 06:00","1953","09","21","06:00","12.8","","12.2","","96","","18","","16","","12.9","","98.96","","","","","","Mostly Cloudy"
"1953-09-21 07:00","1953","09","21","07:00","12.8","","12.2","","96","","18","","16","","12.9","","99.00","","","","","","Mostly Cloudy"
"1953-09-21 08:00","1953","09","21","08:00","13.3","","11.1","","86","","23","","16","","19.3","","99.07","","","","","","Mostly Cloudy"
"1953-09-21 09:00","1953","09","21","09:00","14.4","","11.7","","84","","25","","19","","24.1","","99.10","","","","","","Mostly Cloudy"
"1953-09-21 10:00","1953","09","21","10:00","15.6","","8.3","","62","","27","","23","","25.0","","99.12","","","","","","Mostly Cloudy"
"1953-09-21 11:00","1953","09","21","11:00","17.8","","7.2","","50","","27","","29","","25.0","","99.12","","","","","","Mostly Cloudy"
"1953-09-21 12:00","1953","09","21","12:00","17.8","","11.7","","68","","25","","32","","25.0","","99.11","","","","","","Mostly Cloudy"
"1953-09-21 13:00","1953","09","21","13:00","17.2","","5.0","","65","","29","","39","","25.0","","99.10","","","","","","Mostly Cloudy"
"1953-09-21 14:00","1953","09","21","14:00","16.7","","5.0","","46","","32","","42","","25.0","","99.16","","","","","","Mainly Clear"
"1953-09-21 15:00","1953","09","21","15:00","15.6","","7.2","","58","","32","","19","","25.0","","99.26","","","","","","Mostly Cloudy"
"1953-09-21 16:00","1953","09","21","16:00","15.6","","6.7","","55","","32","","23","","25.0","","99.33","","","","","","Mostly Cloudy"
"1953-09-21 17:00","1953","09","21","17:00","13.9","","6.7","","62","","29","","19","","25.0","","99.40","","","","","","Mainly Clear"
"1953-09-21 18:00","1953","09","21","18:00","12.8","","10.0","","83","","29","","23","","25.0","","99.47","","","","","","Mainly Clear"
"1953-09-21 19:00","1953","09","21","19:00","11.1","","6.7","","74","","29","","19","","25.0","","99.52","","","","","","Mainly Clear"
"1953-09-21 20:00","1953","09","21","20:00","10.0","","6.7","","80","","29","","16","","25.0","","99.61","","","","","","Mainly Clear"
"1953-09-21 21:00","1953","09","21","21:00","9.4","","5.0","","74","","29","","19","","25.0","","99.66","","","","","","Clear"
"1953-09-21 22:00","1953","09","21","22:00","8.3","","5.6","","83","","29","","14","","25.0","","99.72","","","","","","Clear"
"1953-09-21 23:00","1953","09","21","23:00","8.3","","5.6","","83","","34","","13","","25.0","","99.79","","","","","","Clear"
"1953-09-22 00:00","1953","09","22","00:00","7.2","","5.6","","89","","29","","13","","25.0","","99.83","","","","","","Mostly Cloudy"
"1953-09-22 01:00","1953","09","22","01:00","7.2","","5.0","","86","","27","","13","","25.0","","99.85","","","","","","Mainly Clear"
"1953-09-22 02:00","1953","09","22","02:00","13.9","","5.6","","83","","32","","13","","25.0","","99.92","","","","","","Mostly Cloudy"
"1953-09-22 03:00","1953","09","22","03:00","7.8","","5.6","","83","","32","","11","","25.0","","99.99","","","","","","Mainly Clear"
"1953-09-22 04:00","1953","09","22","04:00","6.7","","4.4","","86","","29","","13","","25.0","","100.05","","","","","","Mainly Clear"
"1953-09-22 05:00","1953","09","22","05:00","6.7","","4.4","","86","","29","","13","","25.0","","100.15","","","","","","Mainly Clear"
"1953-09-22 06:00","1953","09","22","06:00","5.6","","3.9","","89","","27","","11","","25.0","","100.20","","","","","","Mainly Clear"
"1953-09-22 07:00","1953","09","22","07:00","6.7","","5.0","","86","","29","","11","","25.0","","100.26","","","","","","Mainly Clear"
"1953-09-22 08:00","1953","09","22","08:00","10.6","","6.1","","74","","27","","10","","25.0","","100.35","","","","","","Mainly Clear"
"1953-09-22 09:00","1953","09","22","09:00","11.7","","5.0","","64","","29","","13","","25.0","","100.39","","","","","","Mostly Cloudy"
"1953-09-22 10:00","1953","09","22","10:00","11.7","","6.1","","69","","34","","18","","25.0","","100.46","","","","","","Mostly Cloudy"
"1953-09-22 11:00","1953","09","22","11:00","11.7","","6.7","","71","","34","","29","","25.0","","100.47","","","","","","Mostly Cloudy"
"1953-09-22 12:00","1953","09","22","12:00","14.4","","5.0","","53","","29","","31","","25.0","","100.45","","","","","","Mostly Cloudy"
"1953-09-22 13:00","1953","09","22","13:00","15.0","","5.0","","51","","34","","27","","25.0","","100.39","","","","","","Mostly Cloudy"
"1953-09-22 14:00","1953","09","22","14:00","13.9","","2.2","","45","","34","","29","","25.0","","100.40","","","","","","Mainly Clear"
"1953-09-22 15:00","1953","09","22","15:00","14.4","","2.2","","44","","32","","35","","25.0","","100.46","","","","","","Mostly Cloudy"
"1953-09-22 16:00","1953","09","22","16:00","13.3","","1.1","","43","","32","","29","","25.0","","100.53","","","","","","Mainly Clear"
"1953-09-22 17:00","1953","09","22","17:00","12.2","","1.1","","47","","32","","26","","25.0","","100.57","","","","","","Mainly Clear"
"1953-09-22 18:00","1953","09","22","18:00","10.6","","2.2","","56","","32","","16","","25.0","","100.62","","","","","","Mainly Clear"
"1953-09-22 19:00","1953","09","22","19:00","8.9","","1.7","","61","","32","","11","","25.0","","100.66","","","","","","Mainly Clear"
"1953-09-22 20:00","1953","09","22","20:00","7.8","","1.7","","65","","29","","16","","25.0","","100.69","","","","","","Clear"
"1953-09-22 21:00","1953","09","22","21:00","7.2","","2.8","","73","","27","","19","","25.0","","100.72","","","","","","Mainly Clear"
"1953-09-22 22:00","1953","09","22","22:00","6.7","","3.3","","79","","34","","14","","25.0","","100.78","","","","","","Mainly Clear"
"1953-09-22 23:00","1953","09","22","23:00","5.6","","2.2","","79","","5","","8","","25.0","","100.83","","","","","","Mainly Clear"
"1953-09-23 00:00","1953","09","23","00:00","5.6","","2.8","","83","","2","","6","","25.0","","100.83","","","","","","Clear"
"1953-09-23 01:00","1953","09","23","01:00","5.0","","2.2","","82","","36","","6","","25.0","","100.90","","","","","","Clear"
"1953-09-23 02:00","1953","09","23","02:00","4.4","","2.2","","85","","36","","6","","25.0","","100.96","","","","","","Mainly Clear"
"1953-09-23 03:00","1953","09","23","03:00","3.3","","1.7","","89","","36","","10","","25.0","","100.99","","","","","","Mainly Clear"
"1953-09-23 04:00","1953","09","23","04:00","2.8","","1.7","","92","","36","","6","","25.0","","101.04","","","","","","Mainly Clear"
"1953-09-23 05:00","1953","09","23","05:00","2.2","","1.1","","92","","27","","5","","25.0","","101.12","","","","","","Clear"
"1953-09-23 06:00","1953","09","23","06:00","2.2","","0.6","","89","","32","","5","","25.0","","101.18","","","","","","Clear"
"1953-09-23 07:00","1953","09","23","07:00","3.3","","1.1","","85","","36","","6","","25.0","","101.24","","","","","","Clear"
"1953-09-23 08:00","1953","09","23","08:00","7.8","","3.9","","76","","36","","5","","25.0","","101.20","","","","","","Clear"
"1953-09-23 09:00","1953","09","23","09:00","10.6","","3.3","","61","","11","","5","","25.0","","101.20","","","","","","Clear"
"1953-09-23 10:00","1953","09","23","10:00","12.8","","1.1","","45","","18","","5","","25.0","","101.34","","","","","","Mainly Clear"
"1953-09-23 11:00","1953","09","23","11:00","12.8","","1.7","","47","","18","","11","","24.1","","101.30","","","","","","Mainly Clear"
"1953-09-23 12:00","1953","09","23","12:00","13.3","","3.9","","53","","14","","18","","25.0","","101.35","","","","","","Mainly Clear"
"1953-09-23 13:00","1953","09","23","13:00","13.3","","5.0","","57","","14","","14","","25.0","","101.33","","","","","","Mainly Clear"
"1953-09-23 14:00","1953","09","23","14:00","13.3","","3.9","","53","","18","","18","","25.0","","101.27","","","","","","Mainly Clear"
"1953-09-23 15:00","1953","09","23","15:00","12.8","","3.3","","53","","18","","18","","25.0","","101.15","","","","","","Mainly Clear"
"1953-09-23 16:00","1953","09","23","16:00","12.2","","2.2","","50","","16","","18","","25.0","","101.10","","","","","","Mainly Clear"
"1953-09-23 17:00","1953","09","23","17:00","12.2","","2.2","","50","","14","","10","","24.1","","101.07","","","","","","Mainly Clear"
"1953-09-23 18:00","1953","09","23","18:00","10.6","","2.8","","59","","16","","6","","24.1","","101.05","","","","","","Clear"
"1953-09-23 19:00","1953","09","23","19:00","10.0","","2.8","","61","","14","","6","","24.1","","101.05","","","","","","Clear"
"1953-09-23 20:00","1953","09","23","20:00","9.4","","4.4","","71","","14","","8","","24.1","","101.01","","","","","","Clear"
"1953-09-23 21:00","1953","09","23","21:00","7.8","","3.3","","73","","23","","3","","24.1","","101.00","","","","","","Clear"
"1953-09-23 22:00","1953","09","23","22:00","6.7","","2.8","","76","","18","","3","","24.1","","100.99","","","","","","Clear"
"1953-09-23 23:00","1953","09","23","23:00","6.1","","3.3","","82","","14","","10","","25.0","","100.92","","","","","","Clear"
"1953-09-24 00:00","1953","09","24","00:00","4.4","","2.8","","89","","9","","6","","25.0","","100.82","","","","","","Clear"
"1953-09-24 01:00","1953","09","24","01:00","3.9","","2.8","","92","","7","","3","","25.0","","100.88","","","","","","Clear"
"1953-09-24 02:00","1953","09","24","02:00","3.9","","2.2","","89","","36","","5","","16.1","","100.81","","","","","","Clear"
"1953-09-24 03:00","1953","09","24","03:00","3.3","","2.2","","92","","34","","5","","4.8","","100.78","","","","","","Fog"
"1953-09-24 04:00","1953","09","24","04:00","3.3","","2.8","","89","","9","","3","","4.8","","100.75","","","","","","Fog"
"1953-09-24 05:00","1953","09","24","05:00","3.3","","1.7","","89","","36","","3","","4.8","","100.72","","","","","","Fog"
"1953-09-24 06:00","1953","09","24","06:00","3.3","","2.8","","96","","36","","6","","4.0","","100.75","","","","","","Fog"
"1953-09-24 07:00","1953","09","24","07:00","5.0","","3.9","","93","","36","","6","","4.0","","100.77","","","","","","Fog"
"1953-09-24 08:00","1953","09","24","08:00","9.4","","7.2","","86","","9","","3","","4.0","","100.68","","","","","","Fog"
"1953-09-24 09:00","1953","09","24","09:00","13.9","","9.4","","75","","18","","10","","11.3","","100.63","","","","","","Clear"
"1953-09-24 10:00","1953","09","24","10:00","16.1","","9.4","","65","","18","","11","","12.9","","100.61","","","","","","Clear"
"1953-09-24 11:00","1953","09","24","11:00","17.2","","10.6","","65","","18","","18","","12.9","","100.59","","","","","","Clear"
"1953-09-24 12:00","1953","09","24","12:00","19.4","","11.1","","59","","18","","13","","12.9","","100.54","","","","","","Clear"
"1953-09-24 13:00","1953","09","24","13:00","19.4","","11.1","","59","","18","","16","","12.9","","100.53","","","","","","Mainly Clear"
"1953-09-24 14:00","1953","09","24","14:00","20.0","","11.7","","59","","18","","26","","12.9","","100.27","","","","","","Mainly Clear"
"1953-09-24 15:00","1953","09","24","15:00","20.0","","10.0","","53","","18","","26","","12.9","","100.20","","","","","","Mainly Clear"
"1953-09-24 16:00","1953","09","24","16:00","20.0","","11.1","","57","","18","","23","","16.1","","100.10","","","","","","Mainly Clear"
"1953-09-24 17:00","1953","09","24","17:00","19.4","","10.0","","54","","18","","16","","16.1","","100.11","","","","","","Mainly Clear"
"1953-09-24 18:00","1953","09","24","18:00","17.2","","9.4","","60","","18","","13","","16.1","","100.11","","","","","","Mainly Clear"
"1953-09-24 19:00","1953","09","24","19:00","16.7","","8.3","","58","","18","","13","","24.1","","100.11","","","","","","Mainly Clear"
"1953-09-24 20:00","1953","09","24","20:00","16.7","","7.8","","56","","18","","13","","24.1","","100.10","","","","","","Clear"
"1953-09-24 21:00","1953","09","24","21:00","15.0","","7.2","","60","","18","","10","","16.1","","100.11","","","","","","Clear"
"1953-09-24 22:00","1953","09","24","22:00","13.9","","10.6","","80","","18","","6","","16.1","","100.11","","","","","","Mainly Clear"
"1953-09-24 23:00","1953","09","24","23:00","12.2","","10.0","","86","","14","","3","","16.1","","100.07","","","","","","Mainly Clear"
"1953-09-25 00:00","1953","09","25","00:00","11.1","","9.4","","90","","14","","3","","12.9","","100.04","","","","","","Mostly Cloudy"
"1953-09-25 01:00","1953","09","25","01:00","12.2","","9.4","","83","","14","","3","","12.9","","100.04","","","","","","Cloudy"
"1953-09-25 02:00","1953","09","25","02:00","11.7","","9.4","","86","","14","","3","","8.0","","100.00","","","","","","Fog,Smoke"
"1953-09-25 03:00","1953","09","25","03:00","12.2","","10.6","","90","","16","","3","","4.0","","99.95","","","","","","Rain,Fog,Smoke"
"1953-09-25 04:00","1953","09","25","04:00","13.9","","11.7","","87","","18","","6","","6.4","","99.93","","","","","","Fog"
"1953-09-25 05:00","1953","09","25","05:00","13.9","","11.7","","87","","18","","8","","6.4","","99.94","","","","","","Fog"
"1953-09-25 06:00","1953","09","25","06:00","13.9","","11.7","","87","","18","","11","","11.3","","99.88","","","","","","Mostly Cloudy"
"1953-09-25 07:00","1953","09","25","07:00","14.4","","11.7","","84","","18","","11","","11.3","","99.85","","","","","","Mostly Cloudy"
"1953-09-25 08:00","1953","09","25","08:00","16.1","","12.8","","84","","18","","11","","11.3","","99.79","","","","","","Mostly Cloudy"
"1953-09-25 09:00","1953","09","25","09:00","18.3","","12.2","","68","","20","","14","","11.3","","99.77","","","","","","Mostly Cloudy"
"1953-09-25 10:00","1953","09","25","10:00","20.0","","13.3","","66","","20","","21","","11.3","","99.70","","","","","","Mostly Cloudy"
"1953-09-25 11:00","1953","09","25","11:00","20.6","","13.3","","63","","20","","16","","12.9","","99.60","","","","","","Mostly Cloudy"
"1953-09-25 12:00","1953","09","25","12:00","21.7","","14.4","","64","","16","","29","","11.3","","99.46","","25","","","","Mostly Cloudy"
"1953-09-25 13:00","1953","09","25","13:00","22.2","","14.4","","61","","18","","29","","11.3","","99.36","","26","","","","Mainly Clear"
"1953-09-25 14:00","1953","09","25","14:00","23.3","","15.0","","60","","18","","35","","12.9","","99.25","","27","","","","Mainly Clear"
"1953-09-25 15:00","1953","09","25","15:00","23.3","","13.3","","60","","20","","40","","11.3","","99.13","","26","","","","Mostly Cloudy"
"1953-09-25 16:00","1953","09","25","16:00","21.1","","16.1","","73","","20","","26","","11.3","","99.12","","26","","","","Cloudy"
"1953-09-25 17:00","1953","09","25","17:00","22.2","","16.1","","68","","20","","24","","16.1","","99.00","","27","","","","Mostly Cloudy"
"1953-09-25 18:00","1953","09","25","18:00","21.1","","16.7","","76","","20","","24","","16.1","","98.93","","26","","","","Cloudy"
"1953-09-25 19:00","1953","09","25","19:00","20.6","","16.1","","76","","20","","24","","16.1","","98.79","","25","","","","Cloudy"
"1953-09-25 20:00","1953","09","25","20:00","18.9","","16.7","","87","","23","","32","","12.9","","98.92","","","","","","Thunderstorms,Moderate Rain Showers"
"1953-09-25 21:00","1953","09","25","21:00","17.8","","16.7","","93","","23","","32","","16.1","","98.92","","","","","","Mostly Cloudy"
"1953-09-25 22:00","1953","09","25","22:00","17.8","","16.1","","90","","25","","29","","16.1","","98.95","","","","","","Moderate Rain Showers"
"1953-09-25 23:00","1953","09","25","23:00","17.8","","16.1","","90","","25","","32","","19.3","","98.93","","","","","","Cloudy"
"1953-09-26 00:00","1953","09","26","00:00","17.2","","15.6","","90","","25","","13","","19.3","","98.98","","","","","","Mainly Clear"
"1953-09-26 01:00","1953","09","26","01:00","16.7","","15.0","","93","","23","","10","","19.3","","99.01","","","","","","Clear"
"1953-09-26 02:00","1953","09","26","02:00","14.4","","13.3","","93","","23","","13","","16.1","","99.03","","","","","","Mainly Clear"
"1953-09-26 03:00","1953","09","26","03:00","14.4","","13.3","","93","","25","","13","","16.1","","99.06","","","","","","Mainly Clear"
"1953-09-26 04:00","1953","09","26","04:00","13.9","","11.7","","87","","27","","19","","19.3","","99.13","","","","","","Clear"
"1953-09-26 05:00","1953","09","26","05:00","13.3","","10.6","","83","","27","","21","","25.0","","99.19","","","","","","Mainly Clear"
"1953-09-26 06:00","1953","09","26","06:00","12.2","","9.4","","83","","25","","18","","25.0","","99.25","","","","","","Mainly Clear"
"1953-09-26 07:00","1953","09","26","07:00","12.2","","10.0","","86","","27","","19","","25.0","","99.31","","","","","","Clear"
"1953-09-26 08:00","1953","09","26","08:00","14.4","","10.6","","78","","25","","23","","25.0","","99.36","","","","","","Mainly Clear"
"1953-09-26 09:00","1953","09","26","09:00","15.0","","10.0","","72","","25","","26","","25.0","","99.41","","","","","","Mainly Clear"
"1953-09-26 10:00","1953","09","26","10:00","16.7","","9.4","","62","","27","","26","","25.0","","99.44","","","","","","Mostly Cloudy"
"1953-09-26 11:00","1953","09","26","11:00","16.7","","9.4","","62","","25","","23","","25.0","","99.42","","","","","","Mostly Cloudy"
"1953-09-26 12:00","1953","09","26","12:00","17.8","","9.4","","58","","25","","26","","25.0","","99.41","","","","","","Mostly Cloudy"
"1953-09-26 13:00","1953","09","26","13:00","17.8","","8.9","","56","","27","","23","","25.0","","99.38","","","","","","Mainly Clear"
"1953-09-26 14:00","1953","09","26","14:00","18.3","","9.4","","56","","27","","21","","25.0","","99.35","","","","","","Mostly Cloudy"
"1953-09-26 15:00","1953","09","26","15:00","18.9","","10.6","","58","","25","","23","","25.0","","99.29","","","","","","Mainly Clear"
"1953-09-26 16:00","1953","09","26","16:00","18.9","","9.4","","54","","23","","16","","25.0","","99.29","","","","","","Mainly Clear"
"1953-09-26 17:00","1953","09","26","17:00","17.8","","10.0","","60","","25","","10","","25.0","","99.22","","","","","","Clear"
"1953-09-26 18:00","1953","09","26","18:00","16.7","","8.9","","60","","20","","5","","25.0","","99.15","","","","","","Clear"
"1953-09-26 19:00","1953","09","26","19:00","14.4","","9.4","","72","","20","","3","","25.0","","99.13","","","","","","Clear"
"1953-09-26 20:00","1953","09","26","20:00","13.3","","8.9","","74","","16","","6","","25.0","","99.07","","","","","","Clear"
"1953-09-26 21:00","1953","09","26","21:00","13.3","","11.1","","86","","16","","8","","25.0","","98.97","","","","","","Clear"
"1953-09-26 22:00","1953","09","26","22:00","12.8","","11.1","","90","","14","","8","","16.1","","98.95","","","","","","Clear"
"1953-09-26 23:00","1953","09","26","23:00","12.2","","10.6","","90","","16","","3","","16.1","","98.93","","","","","","Mostly Cloudy"
"1953-09-27 00:00","1953","09","27","00:00","12.2","","10.0","","86","","34","","6","","16.1","","98.95","","","","","","Cloudy"
"1953-09-27 01:00","1953","09","27","01:00","11.1","","10.6","","96","","5","","6","","12.9","","98.88","","","","","","Cloudy"
"1953-09-27 02:00","1953","09","27","02:00","11.7","","10.6","","93","","9","","5","","12.9","","98.68","","","","","","Cloudy"
"1953-09-27 03:00","1953","09","27","03:00","11.7","","10.6","","93","","7","","5","","9.7","","98.58","","","","","","Fog"
"1953-09-27 04:00","1953","09","27","04:00","11.7","","11.1","","96","","9","","8","","9.7","","98.50","","","","","","Rain,Fog"
"1953-09-27 05:00","1953","09","27","05:00","12.8","","12.8","","96","","11","","6","","6.4","","98.39","","","","","","Thunderstorms,Heavy Rain,Fog"
"1953-09-27 06:00","1953","09","27","06:00","13.9","","13.9","","96","","16","","10","","4.8","","98.36","","","","","","Rain,Fog"
"1953-09-27 07:00","1953","09","27","07:00","14.4","","13.9","","93","","20","","5","","2.4","","98.36","","","","","","Fog"
"1953-09-27 08:00","1953","09","27","08:00","15.6","","13.9","","90","","23","","6","","2.4","","98.37","","","","","","Fog"
"1953-09-27 09:00","1953","09","27","09:00","18.3","","16.7","","90","","27","","18","","9.7","","98.40","","","","","","Fog"
"1953-09-27 10:00","1953","09","27","10:00","18.9","","12.8","","68","","29","","42","","12.9","","98.48","","","","","","Mainly Clear"
"1953-09-27 11:00","1953","09","27","11:00","18.9","","11.1","","61","","32","","39","","24.1","","98.53","","","","","","Mainly Clear"
"1953-09-27 12:00","1953","09","27","12:00","18.9","","10.0","","56","","32","","26","","25.0","","98.58","","","","","","Mainly Clear"
"1953-09-27 13:00","1953","09","27","13:00","19.4","","8.3","","49","","32","","26","","25.0","","98.56","","","","","","Clear"
"1953-09-27 14:00","1953","09","27","14:00","20.0","","10.0","","54","","29","","24","","25.0","","98.67","","","","","","Clear"
"1953-09-27 15:00","1953","09","27","15:00","20.0","","11.7","","61","","29","","24","","25.0","","98.67","","","","","","Mainly Clear"
"1953-09-27 16:00","1953","09","27","16:00","18.9","","13.3","","70","","32","","29","","25.0","","98.88","","","","","","Mainly Clear"
"1953-09-27 17:00","1953","09","27","17:00","17.2","","12.8","","75","","32","","26","","25.0","","98.86","","","","","","Mainly Clear"
"1953-09-27 18:00","1953","09","27","18:00","14.4","","10.6","","78","","32","","16","","25.0","","98.92","","","","","","Mainly Clear"
"1953-09-27 19:00","1953","09","27","19:00","12.8","","8.9","","77","","32","","10","","25.0","","98.97","","","","","","Clear"
"1953-09-27 20:00","1953","09","27","20:00","11.1","","8.3","","83","","27","","10","","25.0","","99.05","","","","","","Clear"
"1953-09-27 21:00","1953","09","27","21:00","10.0","","7.8","","86","","27","","11","","25.0","","99.10","","","","","","Clear"
"1953-09-27 22:00","1953","09","27","22:00","10.6","","8.3","","86","","27","","10","","25.0","","99.13","","","","","","Clear"
"1953-09-27 23:00","1953","09","27","23:00","10.0","","7.8","","86","","27","","10","","25.0","","99.13","","","","","","Clear"
"1953-09-28 00:00","1953","09","28","00:00","8.3","","7.2","","93","","27","","8","","25.0","","99.13","","","","","","Clear"
"1953-09-28 01:00","1953","09","28","01:00","8.3","","7.2","","93","","27","","10","","25.0","","99.15","","","","","","Clear"
"1953-09-28 02:00","1953","09","28","02:00","7.8","","6.7","","93","","27","","10","","25.0","","99.13","","","","","","Clear"
"1953-09-28 03:00","1953","09","28","03:00","7.2","","5.6","","89","","27","","13","","25.0","","99.18","","","","","","Clear"
"1953-09-28 04:00","1953","09","28","04:00","7.2","","5.6","","89","","25","","10","","25.0","","99.19","","","","","","Clear"
"1953-09-28 05:00","1953","09","28","05:00","7.2","","6.1","","93","","23","","6","","25.0","","99.19","","","","","","Clear"
"1953-09-28 06:00","1953","09","28","06:00","6.1","","5.0","","93","","27","","3","","25.0","","99.19","","","","","","Mainly Clear"
"1953-09-28 07:00","1953","09","28","07:00","7.2","","6.1","","93","","27","","3","","25.0","","99.25","","","","","","Mainly Clear"
"1953-09-28 08:00","1953","09","28","08:00","11.1","","8.9","","86","","27","","6","","25.0","","99.27","","","","","","Mainly Clear"
"1953-09-28 09:00","1953","09","28","09:00","13.3","","10.0","","80","","27","","11","","25.0","","99.27","","","","","","Mainly Clear"
"1953-09-28 10:00","1953","09","28","10:00","16.1","","9.4","","65","","25","","14","","25.0","","99.20","","","","","","Mainly Clear"
"1953-09-28 11:00","1953","09","28","11:00","17.8","","8.9","","56","","23","","16","","25.0","","99.11","","","","","","Mainly Clear"
"1953-09-28 12:00","1953","09","28","12:00","18.9","","14.4","","76","","23","","24","","25.0","","99.00","","","","","","Mainly Clear"
"1953-09-28 13:00","1953","09","28","13:00","19.4","","15.6","","78","","23","","29","","25.0","","98.92","","","","","","Mainly Clear"
"1953-09-28 14:00","1953","09","28","14:00","21.1","","17.2","","79","","25","","27","","25.0","","98.82","","27","","","","Mainly Clear"
"1953-09-28 15:00","1953","09","28","15:00","21.7","","17.8","","79","","25","","32","","25.0","","98.76","","28","","","","Mainly Clear"
"1953-09-28 16:00","1953","09","28","16:00","21.1","","18.3","","84","","25","","29","","25.0","","98.76","","27","","","","Clear"
"1953-09-28 17:00","1953","09","28","17:00","20.0","","11.1","","57","","25","","14","","25.0","","98.80","","","","","","Clear"
"1953-09-28 18:00","1953","09","28","18:00","17.2","","9.4","","60","","25","","16","","25.0","","98.82","","","","","","Clear"
"1953-09-28 19:00","1953","09","28","19:00","15.6","","8.9","","65","","23","","8","","25.0","","98.91","","","","","","Clear"
"1953-09-28 20:00","1953","09","28","20:00","14.4","","10.6","","78","","23","","10","","25.0","","98.96","","","","","","Clear"
"1953-09-28 21:00","1953","09","28","21:00","13.9","","9.4","","75","","23","","5","","25.0","","99.04","","","","","","Clear"
"1953-09-28 22:00","1953","09","28","22:00","12.8","","8.3","","74","","23","","6","","25.0","","99.07","","","","","","Clear"
"1953-09-28 23:00","1953","09","28","23:00","12.2","","8.3","","77","","32","","5","","25.0","","99.10","","","","","","Clear"
"1953-09-29 00:00","1953","09","29","00:00","11.7","","8.3","","80","","34","","13","","25.0","","99.14","","","","","","Clear"
"1953-09-29 01:00","1953","09","29","01:00","10.6","","7.8","","83","","36","","10","","25.0","","99.19","","","","","","Clear"
"1953-09-29 02:00","1953","09","29","02:00","11.1","","7.8","","80","","34","","13","","25.0","","99.25","","","","","","Clear"
"1953-09-29 03:00","1953","09","29","03:00","10.6","","7.2","","80","","34","","13","","25.0","","99.32","","","","","","Clear"
"1953-09-29 04:00","1953","09","29","04:00","10.0","","6.7","","80","","32","","6","","25.0","","99.41","","","","","","Clear"
"1953-09-29 05:00","1953","09","29","05:00","8.9","","6.7","","86","","36","","10","","25.0","","99.50","","","","","","Clear"
"1953-09-29 06:00","1953","09","29","06:00","8.9","","7.8","","93","","36","","13","","25.0","","99.60","","","","","","Mainly Clear"
"1953-09-29 07:00","1953","09","29","07:00","10.0","","8.3","","89","","36","","13","","25.0","","99.74","","","","","","Mainly Clear"
"1953-09-29 08:00","1953","09","29","08:00","12.8","","8.9","","77","","7","","19","","25.0","","99.81","","","","","","Mainly Clear"
"1953-09-29 09:00","1953","09","29","09:00","13.3","","10.0","","80","","7","","16","","12.9","","99.90","","","","","","Mostly Cloudy"
"1953-09-29 10:00","1953","09","29","10:00","14.4","","10.0","","75","","11","","19","","12.9","","99.90","","","","","","Mostly Cloudy"
"1953-09-29 11:00","1953","09","29","11:00","15.6","","11.1","","75","","11","","19","","12.9","","99.93","","","","","","Mostly Cloudy"
"1953-09-29 12:00","1953","09","29","12:00","16.1","","10.6","","70","","11","","24","","12.9","","99.91","","","","","","Mainly Clear"
"1953-09-29 13:00","1953","09","29","13:00","16.1","","10.0","","67","","9","","23","","16.1","","99.89","","","","","","Mainly Clear"
"1953-09-29 14:00","1953","09","29","14:00","15.6","","10.6","","72","","9","","23","","16.1","","99.83","","","","","","Mainly Clear"
"1953-09-29 15:00","1953","09","29","15:00","15.0","","10.6","","75","","9","","26","","12.9","","99.78","","","","","","Mostly Cloudy"
"1953-09-29 16:00","1953","09","29","16:00","15.0","","10.6","","75","","9","","26","","19.3","","99.75","","","","","","Mostly Cloudy"
"1953-09-29 17:00","1953","09","29","17:00","13.9","","10.6","","80","","9","","19","","16.1","","99.72","","","","","","Mostly Cloudy"
"1953-09-29 18:00","1953","09","29","18:00","13.3","","10.0","","80","","9","","23","","19.3","","99.71","","","","","","Mainly Clear"
"1953-09-29 19:00","1953","09","29","19:00","12.8","","10.0","","83","","9","","23","","25.0","","99.71","","","","","","Mainly Clear"
"1953-09-29 20:00","1953","09","29","20:00","12.8","","10.6","","86","","9","","14","","25.0","","99.69","","","","","","Mainly Clear"
"1953-09-29 21:00","1953","09","29","21:00","12.8","","10.6","","86","","9","","18","","25.0","","99.63","","","","","","Mainly Clear"
"1953-09-29 22:00","1953","09","29","22:00","13.3","","11.1","","86","","9","","21","","25.0","","99.52","","","","","","Mainly Clear"
"1953-09-29 23:00","1953","09","29","23:00","13.3","","11.1","","86","","9","","19","","25.0","","99.44","","","","","","Clear"
"1953-09-30 00:00","1953","09","30","00:00","12.8","","10.6","","86","","11","","6","","25.0","","99.39","","","","","","Clear"
"1953-09-30 01:00","1953","09","30","01:00","12.2","","10.6","","90","","11","","6","","16.1","","99.33","","","","","","Clear"
"1953-09-30 02:00","1953","09","30","02:00","11.7","","11.1","","96","","32","","19","","2.4","","99.45","","","","","","Fog"
"1953-09-30 03:00","1953","09","30","03:00","11.1","","10.0","","93","","7","","16","","16.1","","99.21","","","","","","Cloudy"
"1953-09-30 04:00","1953","09","30","04:00","11.1","","10.6","","96","","","","0","","9.7","","99.11","","","","","","Fog"
"1953-09-30 05:00","1953","09","30","05:00","11.1","","10.6","","96","","","","0","","2.4","","99.22","","","","","","Fog"
"1953-09-30 06:00","1953","09","30","06:00","10.6","","10.0","","96","","27","","3","","0.0","","99.18","","","","","","Fog"
"1953-09-30 07:00","1953","09","30","07:00","10.6","","10.0","","96","","27","","5","","1.2","","99.19","","","","","","Fog"
"1953-09-30 08:00","1953","09","30","08:00","16.1","","12.8","","81","","25","","16","","16.1","","99.20","","","","","","Clear"
"1953-09-30 09:00","1953","09","30","09:00","20.6","","13.9","","66","","25","","24","","19.3","","99.23","","","","","","Clear"
"1953-09-30 10:00","1953","09","30","10:00","22.8","","15.0","","62","","29","","35","","19.3","","99.37","","27","","","","Clear"
"1953-09-30 11:00","1953","09","30","11:00","22.2","","15.0","","64","","29","","35","","19.3","","99.43","","26","","","","Clear"
"1953-09-30 12:00","1953","09","30","12:00","22.8","","14.4","","59","","29","","37","","16.1","","99.50","","26","","","","Clear"
"1953-09-30 13:00","1953","09","30","13:00","22.8","","13.3","","55","","29","","35","","12.9","","99.54","","26","","","","Clear"
"1953-09-30 14:00","1953","09","30","14:00","23.3","","10.6","","45","","29","","29","","16.1","","99.64","","25","","","","Clear"
"1953-09-30 15:00","1953","09","30","15:00","22.2","","12.2","","53","","32","","26","","25.0","","99.72","","25","","","","Clear"
"1953-09-30 16:00","1953","09","30","16:00","21.7","","8.3","","44","","27","","24","","25.0","","99.80","","","","","","Clear"
"1953-09-30 17:00","1953","09","30","17:00","19.4","","3.9","","36","","27","","26","","25.0","","99.85","","","","","","Clear"
"1953-09-30 18:00","1953","09","30","18:00","16.1","","4.4","","46","","32","","19","","25.0","","99.97","","","","","","Clear"
"1953-09-30 19:00","1953","09","30","19:00","13.9","","3.9","","51","","29","","16","","25.0","","100.04","","","","","","Clear"
"1953-09-30 20:00","1953","09","30","20:00","12.2","","3.9","","57","","27","","14","","25.0","","100.12","","","","","","Clear"
"1953-09-30 21:00","1953","09","30","21:00","11.7","","3.3","","57","","27","","6","","25.0","","100.14","","","","","","Clear"
"1953-09-30 22:00","1953","09","30","22:00","10.6","","3.9","","63","","27","","10","","25.0","","100.18","","","","","","Clear"
"1953-09-30 23:00","1953","09","30","23:00","9.4","","4.4","","71","","27","","8","","25.0","","100.23","","","","","","Clear"
