"Station Name","TORONTO LESTER B. PEARSON INT'L A"
"Province","ONTARIO"
"Latitude","43.68"
"Longitude","-79.63"
"Elevation","173.40"
"Climate Identifier","6158733"
"WMO Identifier","71624"
"TC Identifier","YYZ"
"All times are specified in Local Standard Time (LST). Add 1 hour to adjust for Daylight Saving Time where and when it is observed."

"Legend"
"E","Estimated"
"M","Missing"
"NA","Not Available"

"Date/Time","Year","Month","Day","Time","Temp (°C)","Temp Flag","Dew Point Temp (°C)","Dew Point Temp Flag","Rel Hum (%)","Rel Hum Flag","Wind Dir (10s deg)","Wind Dir Flag","Wind Spd (km/h)","Wind Spd Flag","Visibility (km)","Visibility Flag","Stn Press (kPa)","Stn Press Flag","Hmdx","Hmdx Flag","Wind Chill","Wind Chill Flag","Weather"
"1974-09-01 00:00","1974","09","01","00:00","11.1","","7.8","","81","","29","","6","","25.0","","99.25","","","","","","Mainly Clear"
"1974-09-01 01:00","1974","09","01","01:00","8.9","","7.2","","90","","34","","10","","25.0","","99.31","","","","","","Mainly Clear"
"1974-09-01 02:00","1974","09","01","02:00","9.4","","7.2","","87","","1","","6","","25.0","","99.31","","","","","","Mainly Clear"
"1974-09-01 03:00","1974","09","01","03:00","9.4","","7.2","","89","","","","0","","25.0","","99.32","","","","","","Mainly Clear"
"1974-09-01 04:00","1974","09","01","04:00","7.8","","6.7","","94","","33","","6","","25.0","","99.34","","","","","","Clear"
"1974-09-01 05:00","1974","09","01","05:00","7.2","","6.1","","93","","33","","5","","25.0","","99.38","","","","","","Mainly Clear"
"1974-09-01 06:00","1974","09","01","06:00","8.9","","8.3","","94","","","","0","","40.2","","99.41","","","","","","Mostly Cloudy"
"1974-09-01 07:00","1974","09","01","07:00","11.1","","9.4","","89","","35","","6","","40.2","","99.46","","","","","","Mostly Cloudy"
"1974-09-01 08:00","1974","09","01","08:00","12.8","","10.0","","84","","35","","5","","40.2","","99.48","","","","","","Mostly Cloudy"
"1974-09-01 09:00","1974","09","01","09:00","15.6","","10.0","","68","","31","","6","","40.2","","99.49","","","","","","Mostly Cloudy"
"1974-09-01 10:00","1974","09","01","10:00","17.2","","8.3","","57","","33","","5","","40.2","","99.51","","","","","","Mostly Cloudy"
"1974-09-01 11:00","1974","09","01","11:00","18.3","","7.8","","51","","29","","6","","40.2","","99.50","","","","","","Mostly Cloudy"
"1974-09-01 12:00","1974","09","01","12:00","19.4","","7.2","","45","","26","","6","","40.2","","99.47","","","","","","Mostly Cloudy"
"1974-09-01 13:00","1974","09","01","13:00","21.1","","6.1","","38","","30","","6","","40.2","","99.44","","","","","","Mostly Cloudy"
"1974-09-01 14:00","1974","09","01","14:00","21.7","","5.6","","35","","25","","14","","40.2","","99.42","","","","","","Mostly Cloudy"
"1974-09-01 15:00","1974","09","01","15:00","20.6","","8.9","","46","","15","","13","","40.2","","99.34","","","","","","Mostly Cloudy"
"1974-09-01 16:00","1974","09","01","16:00","19.4","","10.0","","54","","36","","13","","40.2","","99.37","","","","","","Mostly Cloudy"
"1974-09-01 17:00","1974","09","01","17:00","18.9","","10.0","","56","","35","","16","","40.2","","99.42","","","","","","Mostly Cloudy"
"1974-09-01 18:00","1974","09","01","18:00","17.8","","10.0","","61","","1","","23","","40.2","","99.47","","","","","","Mostly Cloudy"
"1974-09-01 19:00","1974","09","01","19:00","16.1","","9.4","","64","","1","","16","","40.2","","99.52","","","","","","Mostly Cloudy"
"1974-09-01 20:00","1974","09","01","20:00","15.0","","9.4","","68","","1","","18","","25.0","","99.57","","","","","","Mostly Cloudy"
"1974-09-01 21:00","1974","09","01","21:00","13.9","","9.4","","73","","36","","23","","25.0","","99.62","","","","","","Mostly Cloudy"
"1974-09-01 22:00","1974","09","01","22:00","12.2","","8.9","","81","","35","","14","","25.0","","99.67","","","","","","Mainly Clear"
"1974-09-01 23:00","1974","09","01","23:00","10.0","","8.9","","91","","35","","14","","25.0","","99.71","","","","","","Mainly Clear"
"1974-09-02 00:00","1974","09","02","00:00","9.4","","7.8","","89","","35","","13","","25.0","","99.71","","","","","","Mostly Cloudy"
"1974-09-02 01:00","1974","09","02","01:00","10.6","","7.2","","80","","34","","11","","25.0","","99.71","","","","","","Mostly Cloudy"
"1974-09-02 02:00","1974","09","02","02:00","8.9","","6.1","","82","","34","","14","","25.0","","99.71","","","","","","Mostly Cloudy"
"1974-09-02 03:00","1974","09","02","03:00","9.4","","6.1","","78","","34","","13","","25.0","","99.68","","","","","","Mostly Cloudy"
"1974-09-02 04:00","1974","09","02","04:00","10.0","","6.7","","80","","35","","6","","25.0","","99.69","","","","","","Mostly Cloudy"
"1974-09-02 05:00","1974","09","02","05:00","10.6","","6.7","","79","","3","","6","","25.0","","99.69","","","","","","Mostly Cloudy"
"1974-09-02 06:00","1974","09","02","06:00","9.4","","7.2","","84","","34","","10","","40.2","","99.75","","","","","","Mostly Cloudy"
"1974-09-02 07:00","1974","09","02","07:00","11.1","","7.8","","81","","35","","10","","40.2","","99.74","","","","","","Cloudy"
"1974-09-02 08:00","1974","09","02","08:00","12.8","","7.2","","69","","35","","14","","40.2","","99.74","","","","","","Cloudy"
"1974-09-02 09:00","1974","09","02","09:00","12.8","","6.7","","67","","1","","11","","40.2","","99.74","","","","","","Cloudy"
"1974-09-02 10:00","1974","09","02","10:00","13.3","","7.2","","66","","1","","5","","40.2","","99.76","","","","","","Mostly Cloudy"
"1974-09-02 11:00","1974","09","02","11:00","14.4","","8.3","","69","","1","","10","","40.2","","99.74","","","","","","Cloudy"
"1974-09-02 12:00","1974","09","02","12:00","15.0","","8.3","","65","","2","","8","","40.2","","99.72","","","","","","Cloudy"
"1974-09-02 13:00","1974","09","02","13:00","15.6","","7.8","","60","","3","","10","","40.2","","99.69","","","","","","Cloudy"
"1974-09-02 14:00","1974","09","02","14:00","15.0","","8.3","","63","","35","","13","","40.2","","99.68","","","","","","Cloudy"
"1974-09-02 15:00","1974","09","02","15:00","15.0","","8.9","","68","","1","","16","","40.2","","99.62","","","","","","Cloudy"
"1974-09-02 16:00","1974","09","02","16:00","14.4","","10.6","","78","","36","","11","","40.2","","99.65","","","","","","Cloudy"
"1974-09-02 17:00","1974","09","02","17:00","13.9","","7.2","","64","","2","","23","","40.2","","99.57","","","","","","Cloudy"
"1974-09-02 18:00","1974","09","02","18:00","13.3","","7.8","","67","","2","","19","","32.2","","99.55","","","","","","Cloudy"
"1974-09-02 19:00","1974","09","02","19:00","12.2","","7.8","","75","","36","","19","","19.3","","99.64","","","","","","Rain Showers"
"1974-09-02 20:00","1974","09","02","20:00","11.1","","8.3","","82","","36","","24","","22.5","","99.68","","","","","","Rain"
"1974-09-02 21:00","1974","09","02","21:00","9.4","","7.2","","88","","1","","18","","11.3","","99.69","","","","","","Moderate Rain"
"1974-09-02 22:00","1974","09","02","22:00","8.9","","8.3","","95","","3","","13","","12.9","","99.72","","","","","","Rain"
"1974-09-02 23:00","1974","09","02","23:00","8.9","","8.3","","95","","3","","16","","14.5","","99.68","","","","","","Rain"
"1974-09-03 00:00","1974","09","03","00:00","8.3","","7.8","","94","","2","","19","","16.1","","99.66","","","","","","Rain"
"1974-09-03 01:00","1974","09","03","01:00","8.3","","7.8","","95","","3","","19","","16.1","","99.61","","","","","","Rain"
"1974-09-03 02:00","1974","09","03","02:00","7.8","","7.2","","94","","2","","16","","16.1","","99.56","","","","","","Rain"
"1974-09-03 03:00","1974","09","03","03:00","7.8","","7.2","","95","","2","","13","","19.3","","99.52","","","","","","Rain"
"1974-09-03 04:00","1974","09","03","04:00","8.3","","7.2","","94","","3","","14","","19.3","","99.48","","","","","","Rain"
"1974-09-03 05:00","1974","09","03","05:00","8.3","","7.2","","93","","5","","16","","16.1","","99.44","","","","","","Rain"
"1974-09-03 06:00","1974","09","03","06:00","8.9","","6.7","","89","","7","","18","","32.2","","99.44","","","","","","Rain"
"1974-09-03 07:00","1974","09","03","07:00","8.9","","7.2","","90","","1","","13","","40.2","","99.46","","","","","","Mostly Cloudy"
"1974-09-03 08:00","1974","09","03","08:00","8.9","","7.8","","93","","1","","11","","40.2","","99.47","","","","","","Mostly Cloudy"
"1974-09-03 09:00","1974","09","03","09:00","10.0","","7.2","","85","","36","","13","","40.2","","99.51","","","","","","Mostly Cloudy"
"1974-09-03 10:00","1974","09","03","10:00","10.6","","7.8","","84","","4","","6","","40.2","","99.51","","","","","","Mostly Cloudy"
"1974-09-03 11:00","1974","09","03","11:00","11.7","","7.8","","76","","1","","16","","40.2","","99.52","","","","","","Mostly Cloudy"
"1974-09-03 12:00","1974","09","03","12:00","13.3","","7.2","","68","","3","","18","","40.2","","99.50","","","","","","Mostly Cloudy"
"1974-09-03 13:00","1974","09","03","13:00","14.4","","10.0","","76","","4","","18","","40.2","","99.47","","","","","","Mostly Cloudy"
"1974-09-03 14:00","1974","09","03","14:00","15.0","","6.7","","57","","1","","18","","40.2","","99.44","","","","","","Mostly Cloudy"
"1974-09-03 15:00","1974","09","03","15:00","16.7","","3.9","","43","","3","","19","","40.2","","99.42","","","","","","Mostly Cloudy"
"1974-09-03 16:00","1974","09","03","16:00","16.1","","5.0","","48","","3","","18","","40.2","","99.40","","","","","","Mostly Cloudy"
"1974-09-03 17:00","1974","09","03","17:00","15.6","","5.0","","50","","2","","18","","40.2","","99.44","","","","","","Mostly Cloudy"
"1974-09-03 18:00","1974","09","03","18:00","15.0","","3.9","","48","","34","","18","","40.2","","99.44","","","","","","Mostly Cloudy"
"1974-09-03 19:00","1974","09","03","19:00","13.3","","3.3","","51","","36","","21","","40.2","","99.47","","","","","","Mainly Clear"
"1974-09-03 20:00","1974","09","03","20:00","12.2","","4.4","","59","","36","","16","","25.0","","99.51","","","","","","Mainly Clear"
"1974-09-03 21:00","1974","09","03","21:00","8.3","","5.0","","80","","34","","14","","25.0","","99.58","","","","","","Clear"
"1974-09-03 22:00","1974","09","03","22:00","7.2","","4.4","","82","","33","","18","","25.0","","99.58","","","","","","Clear"
"1974-09-03 23:00","1974","09","03","23:00","6.7","","3.9","","82","","33","","10","","25.0","","99.62","","","","","","Clear"
"1974-09-04 00:00","1974","09","04","00:00","6.1","","4.4","","87","","33","","11","","25.0","","99.63","","","","","","Mostly Cloudy"
"1974-09-04 01:00","1974","09","04","01:00","6.7","","4.4","","87","","34","","13","","25.0","","99.66","","","","","","Cloudy"
"1974-09-04 02:00","1974","09","04","02:00","7.2","","5.0","","85","","35","","16","","25.0","","99.63","","","","","","Cloudy"
"1974-09-04 03:00","1974","09","04","03:00","6.7","","4.4","","88","","32","","10","","25.0","","99.68","","","","","","Cloudy"
"1974-09-04 04:00","1974","09","04","04:00","6.7","","4.4","","88","","34","","13","","25.0","","99.68","","","","","","Cloudy"
"1974-09-04 05:00","1974","09","04","05:00","6.7","","4.4","","86","","34","","14","","25.0","","99.72","","","","","","Cloudy"
"1974-09-04 06:00","1974","09","04","06:00","6.7","","3.9","","85","","33","","13","","40.2","","99.80","","","","","","Mostly Cloudy"
"1974-09-04 07:00","1974","09","04","07:00","8.3","","5.6","","82","","33","","14","","40.2","","99.82","","","","","","Mostly Cloudy"
"1974-09-04 08:00","1974","09","04","08:00","12.2","","5.0","","62","","34","","18","","40.2","","99.87","","","","","","Mostly Cloudy"
"1974-09-04 09:00","1974","09","04","09:00","14.4","","5.0","","54","","35","","21","","40.2","","99.93","","","","","","Mainly Clear"
"1974-09-04 10:00","1974","09","04","10:00","16.1","","5.6","","49","","35","","18","","40.2","","99.98","","","","","","Mainly Clear"
"1974-09-04 11:00","1974","09","04","11:00","16.7","","4.4","","45","","1","","13","","40.2","","100.03","","","","","","Mostly Cloudy"
"1974-09-04 12:00","1974","09","04","12:00","17.8","","6.1","","47","","36","","19","","40.2","","100.00","","","","","","Mostly Cloudy"
"1974-09-04 13:00","1974","09","04","13:00","18.3","","5.0","","43","","35","","21","","40.2","","99.99","","","","","","Mostly Cloudy"
"1974-09-04 14:00","1974","09","04","14:00","18.9","","8.9","","52","","29","","14","","40.2","","99.99","","","","","","Mostly Cloudy"
"1974-09-04 15:00","1974","09","04","15:00","17.8","","6.1","","48","","1","","19","","40.2","","100.01","","","","","","Mostly Cloudy"
"1974-09-04 16:00","1974","09","04","16:00","18.3","","7.2","","49","","35","","23","","40.2","","100.01","","","","","","Mainly Clear"
"1974-09-04 17:00","1974","09","04","17:00","18.3","","6.7","","47","","2","","21","","40.2","","100.03","","","","","","Mainly Clear"
"1974-09-04 18:00","1974","09","04","18:00","17.2","","7.2","","52","","3","","19","","40.2","","100.06","","","","","","Mainly Clear"
"1974-09-04 19:00","1974","09","04","19:00","15.6","","5.6","","52","","1","","16","","40.2","","100.09","","","","","","Clear"
"1974-09-04 20:00","1974","09","04","20:00","12.2","","6.1","","65","","34","","11","","25.0","","100.15","","","","","","Clear"
"1974-09-04 21:00","1974","09","04","21:00","10.6","","6.1","","75","","33","","10","","25.0","","100.20","","","","","","Clear"
"1974-09-04 22:00","1974","09","04","22:00","8.9","","6.7","","86","","33","","10","","25.0","","100.25","","","","","","Clear"
"1974-09-04 23:00","1974","09","04","23:00","9.4","","6.7","","84","","34","","13","","25.0","","100.29","","","","","","Clear"
"1974-09-05 00:00","1974","09","05","00:00","7.8","","6.1","","91","","32","","10","","25.0","","100.34","","","","","","Clear"
"1974-09-05 01:00","1974","09","05","01:00","7.2","","6.1","","93","","32","","10","","25.0","","100.38","","","","","","Clear"
"1974-09-05 02:00","1974","09","05","02:00","8.3","","6.7","","92","","27","","3","","25.0","","100.43","","","","","","Clear"
"1974-09-05 03:00","1974","09","05","03:00","7.8","","6.7","","92","","34","","3","","25.0","","100.47","","","","","","Clear"
"1974-09-05 04:00","1974","09","05","04:00","6.1","","5.0","","94","","34","","11","","25.0","","100.51","","","","","","Clear"
"1974-09-05 05:00","1974","09","05","05:00","6.7","","5.6","","93","","34","","8","","25.0","","100.54","","","","","","Clear"
"1974-09-05 06:00","1974","09","05","06:00","5.6","","5.0","","96","","34","","11","","40.2","","100.59","","","","","","Mainly Clear"
"1974-09-05 07:00","1974","09","05","07:00","7.2","","6.1","","93","","33","","6","","40.2","","100.66","","","","","","Mainly Clear"
"1974-09-05 08:00","1974","09","05","08:00","12.2","","8.3","","77","","35","","6","","40.2","","100.70","","","","","","Clear"
"1974-09-05 09:00","1974","09","05","09:00","16.1","","10.6","","68","","","","0","","40.2","","100.75","","","","","","Mainly Clear"
"1974-09-05 10:00","1974","09","05","10:00","17.8","","8.3","","55","","","","0","","40.2","","100.74","","","","","","Mainly Clear"
"1974-09-05 11:00","1974","09","05","11:00","18.3","","6.1","","46","","","","0","","40.2","","100.72","","","","","","Mainly Clear"
"1974-09-05 12:00","1974","09","05","12:00","19.4","","7.2","","46","","15","","13","","40.2","","100.67","","","","","","Mainly Clear"
"1974-09-05 13:00","1974","09","05","13:00","19.4","","6.7","","44","","11","","16","","40.2","","100.63","","","","","","Mainly Clear"
"1974-09-05 14:00","1974","09","05","14:00","19.4","","6.1","","41","","17","","23","","40.2","","100.62","","","","","","Mainly Clear"
"1974-09-05 15:00","1974","09","05","15:00","19.4","","5.0","","39","","15","","19","","40.2","","100.59","","","","","","Mainly Clear"
"1974-09-05 16:00","1974","09","05","16:00","19.4","","6.1","","43","","15","","18","","40.2","","100.55","","","","","","Mainly Clear"
"1974-09-05 17:00","1974","09","05","17:00","18.9","","6.7","","44","","16","","14","","40.2","","100.54","","","","","","Mainly Clear"
"1974-09-05 18:00","1974","09","05","18:00","17.8","","7.2","","50","","15","","13","","40.2","","100.53","","","","","","Clear"
"1974-09-05 19:00","1974","09","05","19:00","16.7","","7.2","","55","","13","","10","","40.2","","100.53","","","","","","Clear"
"1974-09-05 20:00","1974","09","05","20:00","15.6","","8.3","","63","","12","","10","","25.0","","100.57","","","","","","Clear"
"1974-09-05 21:00","1974","09","05","21:00","13.3","","8.3","","72","","13","","5","","25.0","","100.61","","","","","","Clear"
"1974-09-05 22:00","1974","09","05","22:00","10.6","","7.8","","83","","34","","10","","25.0","","100.63","","","","","","Clear"
"1974-09-05 23:00","1974","09","05","23:00","10.0","","7.2","","84","","36","","10","","25.0","","100.62","","","","","","Clear"
"1974-09-06 00:00","1974","09","06","00:00","8.9","","6.7","","86","","34","","10","","25.0","","100.63","","","","","","Clear"
"1974-09-06 01:00","1974","09","06","01:00","7.8","","6.1","","89","","1","","10","","25.0","","100.61","","","","","","Clear"
"1974-09-06 02:00","1974","09","06","02:00","7.2","","6.1","","92","","36","","10","","25.0","","100.62","","","","","","Clear"
"1974-09-06 03:00","1974","09","06","03:00","7.2","","6.1","","94","","1","","11","","25.0","","100.60","","","","","","Mainly Clear"
"1974-09-06 04:00","1974","09","06","04:00","6.7","","5.6","","94","","36","","10","","25.0","","100.58","","","","","","Mainly Clear"
"1974-09-06 05:00","1974","09","06","05:00","7.8","","6.7","","92","","35","","11","","25.0","","100.60","","","","","","Mainly Clear"
"1974-09-06 06:00","1974","09","06","06:00","7.8","","6.1","","92","","34","","11","","19.3","","100.63","","","","","","Mainly Clear"
"1974-09-06 07:00","1974","09","06","07:00","8.9","","7.2","","91","","1","","8","","19.3","","100.65","","","","","","Mainly Clear"
"1974-09-06 08:00","1974","09","06","08:00","12.8","","10.0","","83","","4","","5","","19.3","","100.65","","","","","","Mainly Clear"
"1974-09-06 09:00","1974","09","06","09:00","17.8","","11.7","","66","","8","","14","","24.1","","100.66","","","","","","Mainly Clear"
"1974-09-06 10:00","1974","09","06","10:00","18.9","","10.6","","58","","9","","16","","32.2","","100.63","","","","","","Mainly Clear"
"1974-09-06 11:00","1974","09","06","11:00","19.4","","11.1","","58","","12","","14","","32.2","","100.59","","","","","","Mainly Clear"
"1974-09-06 12:00","1974","09","06","12:00","19.4","","8.9","","50","","9","","16","","32.2","","100.54","","","","","","Mostly Cloudy"
"1974-09-06 13:00","1974","09","06","13:00","21.7","","9.4","","46","","12","","19","","32.2","","100.51","","","","","","Mostly Cloudy"
"1974-09-06 14:00","1974","09","06","14:00","21.1","","8.9","","45","","12","","23","","32.2","","100.44","","","","","","Mostly Cloudy"
"1974-09-06 15:00","1974","09","06","15:00","21.1","","8.9","","45","","11","","23","","32.2","","100.40","","","","","","Mostly Cloudy"
"1974-09-06 16:00","1974","09","06","16:00","20.6","","7.8","","45","","13","","19","","40.2","","100.35","","","","","","Mostly Cloudy"
"1974-09-06 17:00","1974","09","06","17:00","20.0","","8.3","","47","","11","","19","","40.2","","100.33","","","","","","Mostly Cloudy"
"1974-09-06 18:00","1974","09","06","18:00","18.9","","10.0","","56","","12","","21","","40.2","","100.32","","","","","","Mainly Clear"
"1974-09-06 19:00","1974","09","06","19:00","17.8","","10.0","","61","","11","","19","","40.2","","100.32","","","","","","Mostly Cloudy"
"1974-09-06 20:00","1974","09","06","20:00","16.7","","12.2","","76","","9","","19","","25.0","","100.31","","","","","","Mainly Clear"
"1974-09-06 21:00","1974","09","06","21:00","16.1","","13.3","","84","","6","","13","","19.3","","100.32","","","","","","Mainly Clear"
"1974-09-06 22:00","1974","09","06","22:00","15.6","","13.9","","89","","6","","11","","12.9","","100.30","","","","","","Clear"
"1974-09-06 23:00","1974","09","06","23:00","13.3","","12.2","","93","","3","","11","","12.9","","100.28","","","","","","Clear"
"1974-09-07 00:00","1974","09","07","00:00","11.1","","10.6","","94","","36","","8","","6.4","","100.26","","","","","","Fog"
"1974-09-07 01:00","1974","09","07","01:00","10.6","","9.4","","96","","36","","8","","6.4","","100.21","","","","","","Fog"
"1974-09-07 02:00","1974","09","07","02:00","10.0","","10.0","","97","","35","","11","","4.0","","100.17","","","","","","Fog"
"1974-09-07 03:00","1974","09","07","03:00","10.0","","9.4","","97","","34","","10","","3.6","","100.14","","","","","","Fog"
"1974-09-07 04:00","1974","09","07","04:00","9.4","","8.9","","98","","35","","13","","3.6","","100.14","","","","","","Fog"
"1974-09-07 05:00","1974","09","07","05:00","9.4","","8.9","","97","","36","","13","","4.0","","100.11","","","","","","Fog"
"1974-09-07 06:00","1974","09","07","06:00","9.4","","8.9","","97","","35","","13","","4.0","","100.16","","","","","","Fog"
"1974-09-07 07:00","1974","09","07","07:00","10.0","","9.4","","97","","35","","10","","4.8","","100.21","","","","","","Fog"
"1974-09-07 08:00","1974","09","07","08:00","12.2","","11.7","","96","","34","","10","","6.4","","100.25","","","","","","Fog"
"1974-09-07 09:00","1974","09","07","09:00","15.0","","12.8","","89","","1","","13","","11.3","","100.22","","","","","","Mostly Cloudy"
"1974-09-07 10:00","1974","09","07","10:00","18.3","","13.3","","72","","9","","11","","24.1","","100.15","","","","","","Mostly Cloudy"
"1974-09-07 11:00","1974","09","07","11:00","18.3","","12.8","","69","","19","","11","","40.2","","100.13","","","","","","Mostly Cloudy"
"1974-09-07 12:00","1974","09","07","12:00","20.0","","10.6","","54","","15","","16","","40.2","","100.09","","","","","","Mainly Clear"
"1974-09-07 13:00","1974","09","07","13:00","20.6","","12.2","","59","","16","","16","","32.2","","100.03","","","","","","Mainly Clear"
"1974-09-07 14:00","1974","09","07","14:00","20.0","","11.7","","58","","17","","14","","32.2","","100.01","","","","","","Mainly Clear"
"1974-09-07 15:00","1974","09","07","15:00","20.0","","11.7","","59","","15","","18","","32.2","","99.95","","","","","","Mainly Clear"
"1974-09-07 16:00","1974","09","07","16:00","20.6","","10.6","","52","","11","","13","","32.2","","99.91","","","","","","Mainly Clear"
"1974-09-07 17:00","1974","09","07","17:00","20.0","","10.0","","52","","13","","14","","32.2","","99.88","","","","","","Clear"
"1974-09-07 18:00","1974","09","07","18:00","18.9","","11.7","","63","","15","","14","","32.2","","99.87","","","","","","Mainly Clear"
"1974-09-07 19:00","1974","09","07","19:00","17.2","","12.8","","75","","15","","13","","24.1","","99.85","","","","","","Mainly Clear"
"1974-09-07 20:00","1974","09","07","20:00","16.1","","13.3","","83","","14","","14","","24.1","","99.83","","","","","","Mainly Clear"
"1974-09-07 21:00","1974","09","07","21:00","15.6","","13.3","","86","","15","","8","","24.1","","99.84","","","","","","Mainly Clear"
"1974-09-07 22:00","1974","09","07","22:00","12.2","","11.1","","94","","","","0","","16.1","","99.86","","","","","","Mainly Clear"
"1974-09-07 23:00","1974","09","07","23:00","13.3","","12.8","","95","","3","","3","","19.3","","99.85","","","","","","Mainly Clear"
"1974-09-08 00:00","1974","09","08","00:00","12.2","","11.1","","94","","2","","10","","12.9","","99.83","","","","","","Mainly Clear"
"1974-09-08 01:00","1974","09","08","01:00","11.7","","11.1","","96","","33","","10","","4.0","","99.81","","","","","","Fog"
"1974-09-08 02:00","1974","09","08","02:00","10.6","","10.0","","97","","33","","10","","3.6","","99.77","","","","","","Fog"
"1974-09-08 03:00","1974","09","08","03:00","11.1","","10.6","","99","","34","","6","","1.2","","99.75","","","","","","Fog"
"1974-09-08 04:00","1974","09","08","04:00","12.2","","11.7","","98","","32","","10","","4.0","","99.77","","","","","","Fog"
"1974-09-08 05:00","1974","09","08","05:00","12.8","","12.2","","97","","32","","3","","4.8","","99.79","","","","","","Fog"
"1974-09-08 06:00","1974","09","08","06:00","12.2","","12.2","","100","","31","","5","","0.8","","99.82","","","","","","Fog"
"1974-09-08 07:00","1974","09","08","07:00","11.1","","10.6","","97","","31","","8","","6.4","","99.87","","","","","","Fog"
"1974-09-08 08:00","1974","09","08","08:00","14.4","","12.8","","88","","","","0","","11.3","","99.85","","","","","","Mainly Clear"
"1974-09-08 09:00","1974","09","08","09:00","18.9","","12.8","","69","","26","","10","","14.5","","99.86","","","","","","Mainly Clear"
"1974-09-08 10:00","1974","09","08","10:00","20.6","","12.2","","58","","24","","18","","14.5","","99.88","","","","","","Mainly Clear"
"1974-09-08 11:00","1974","09","08","11:00","22.2","","12.2","","52","","25","","23","","12.9","","99.88","","25","","","","Mostly Cloudy"
"1974-09-08 12:00","1974","09","08","12:00","22.2","","11.7","","52","","23","","21","","12.9","","99.84","","","","","","Mostly Cloudy"
"1974-09-08 13:00","1974","09","08","13:00","22.8","","12.8","","53","","25","","19","","12.9","","99.82","","25","","","","Mostly Cloudy"
"1974-09-08 14:00","1974","09","08","14:00","24.4","","12.2","","47","","24","","24","","12.9","","99.78","","27","","","","Mainly Clear"
"1974-09-08 15:00","1974","09","08","15:00","25.0","","12.8","","46","","24","","16","","11.3","","99.72","","28","","","","Mainly Clear"
"1974-09-08 16:00","1974","09","08","16:00","25.0","","13.3","","48","","23","","19","","11.3","","99.71","","28","","","","Mostly Cloudy"
"1974-09-08 17:00","1974","09","08","17:00","24.4","","12.8","","48","","24","","26","","11.3","","99.70","","27","","","","Mainly Clear"
"1974-09-08 18:00","1974","09","08","18:00","23.3","","13.3","","54","","25","","14","","9.7","","99.70","","26","","","","Haze"
"1974-09-08 19:00","1974","09","08","19:00","21.7","","15.0","","65","","22","","19","","6.4","","99.73","","26","","","","Haze"
"1974-09-08 20:00","1974","09","08","20:00","19.4","","13.9","","70","","22","","14","","8.0","","99.78","","","","","","Haze"
"1974-09-08 21:00","1974","09","08","21:00","17.8","","13.3","","75","","22","","11","","8.0","","99.80","","","","","","Haze"
"1974-09-08 22:00","1974","09","08","22:00","17.8","","13.3","","77","","24","","14","","8.0","","99.83","","","","","","Haze"
"1974-09-08 23:00","1974","09","08","23:00","16.7","","13.9","","81","","21","","14","","8.0","","99.84","","","","","","Haze"
"1974-09-09 00:00","1974","09","09","00:00","16.7","","13.3","","82","","23","","10","","6.4","","99.87","","","","","","Haze"
"1974-09-09 01:00","1974","09","09","01:00","16.7","","13.3","","82","","26","","6","","6.4","","99.85","","","","","","Haze"
"1974-09-09 02:00","1974","09","09","02:00","16.7","","13.3","","82","","23","","6","","6.4","","99.83","","","","","","Haze"
"1974-09-09 03:00","1974","09","09","03:00","16.7","","13.9","","84","","21","","8","","6.4","","99.86","","","","","","Haze"
"1974-09-09 04:00","1974","09","09","04:00","16.1","","13.9","","89","","21","","10","","6.4","","99.84","","","","","","Fog"
"1974-09-09 05:00","1974","09","09","05:00","15.0","","13.3","","90","","26","","11","","6.4","","99.84","","","","","","Fog"
"1974-09-09 06:00","1974","09","09","06:00","15.6","","13.9","","90","","21","","11","","2.4","","99.83","","","","","","Fog"
"1974-09-09 07:00","1974","09","09","07:00","15.0","","13.9","","93","","","","0","","2.4","","99.82","","","","","","Fog"
"1974-09-09 08:00","1974","09","09","08:00","17.2","","15.6","","88","","27","","8","","4.0","","99.88","","","","","","Fog"
"1974-09-09 09:00","1974","09","09","09:00","19.4","","16.1","","79","","25","","19","","6.4","","99.93","","","","","","Haze"
"1974-09-09 10:00","1974","09","09","10:00","23.3","","16.1","","62","","25","","18","","9.7","","99.89","","28","","","","Haze"
"1974-09-09 11:00","1974","09","09","11:00","24.4","","15.6","","57","","25","","18","","11.3","","99.87","","29","","","","Mainly Clear"
"1974-09-09 12:00","1974","09","09","12:00","26.7","","15.0","","49","","24","","23","","12.9","","99.81","","31","","","","Mainly Clear"
"1974-09-09 13:00","1974","09","09","13:00","28.3","","15.0","","45","","28","","24","","11.3","","99.76","","32","","","","Mainly Clear"
"1974-09-09 14:00","1974","09","09","14:00","27.8","","12.8","","40","","26","","27","","11.3","","99.70","","30","","","","Mainly Clear"
"1974-09-09 15:00","1974","09","09","15:00","28.3","","14.4","","42","","26","","29","","11.3","","99.66","","32","","","","Mainly Clear"
"1974-09-09 16:00","1974","09","09","16:00","27.2","","13.9","","44","","25","","23","","11.3","","99.63","","31","","","","Mainly Clear"
"1974-09-09 17:00","1974","09","09","17:00","25.6","","16.1","","55","","24","","27","","6.4","","99.64","","30","","","","Haze"
"1974-09-09 18:00","1974","09","09","18:00","23.3","","19.4","","77","","1","","23","","9.7","","99.68","","30","","","","Haze"
"1974-09-09 19:00","1974","09","09","19:00","21.7","","17.2","","76","","","","0","","6.4","","99.71","","27","","","","Haze"
"1974-09-09 20:00","1974","09","09","20:00","21.1","","16.1","","73","","","","0","","6.4","","99.72","","26","","","","Haze"
"1974-09-09 21:00","1974","09","09","21:00","19.4","","16.1","","82","","","","0","","4.8","","99.75","","","","","","Haze"
"1974-09-09 22:00","1974","09","09","22:00","18.9","","16.1","","86","","","","0","","4.8","","99.74","","","","","","Fog"
"1974-09-09 23:00","1974","09","09","23:00","17.8","","16.1","","90","","34","","6","","4.8","","99.75","","","","","","Fog"
"1974-09-10 00:00","1974","09","10","00:00","16.1","","15.6","","95","","32","","10","","4.0","","99.74","","","","","","Fog"
"1974-09-10 01:00","1974","09","10","01:00","16.1","","15.6","","97","","33","","10","","2.4","","99.72","","","","","","Fog"
"1974-09-10 02:00","1974","09","10","02:00","16.1","","16.1","","98","","","","0","","2.4","","99.71","","","","","","Fog"
"1974-09-10 03:00","1974","09","10","03:00","16.1","","16.1","","98","","","","0","","1.0","","99.69","","","","","","Fog"
"1974-09-10 04:00","1974","09","10","04:00","15.6","","15.6","","98","","19","","5","","1.2","","99.70","","","","","","Fog"
"1974-09-10 05:00","1974","09","10","05:00","15.6","","14.4","","95","","","","0","","2.0","","99.70","","","","","","Fog"
"1974-09-10 06:00","1974","09","10","06:00","15.0","","13.9","","94","","","","0","","2.0","","99.74","","","","","","Fog"
"1974-09-10 07:00","1974","09","10","07:00","15.6","","13.9","","92","","","","0","","2.0","","99.74","","","","","","Fog"
"1974-09-10 08:00","1974","09","10","08:00","17.2","","15.6","","90","","18","","5","","3.2","","99.73","","","","","","Fog"
"1974-09-10 09:00","1974","09","10","09:00","19.4","","15.6","","77","","20","","11","","4.0","","99.72","","","","","","Haze"
"1974-09-10 10:00","1974","09","10","10:00","22.2","","15.6","","66","","23","","13","","4.8","","99.72","","27","","","","Haze"
"1974-09-10 11:00","1974","09","10","11:00","24.4","","15.0","","55","","24","","21","","9.7","","99.67","","28","","","","Haze"
"1974-09-10 12:00","1974","09","10","12:00","25.6","","15.6","","54","","25","","13","","9.7","","99.63","","30","","","","Haze"
"1974-09-10 13:00","1974","09","10","13:00","25.6","","16.1","","55","","17","","10","","9.7","","99.59","","30","","","","Haze"
"1974-09-10 14:00","1974","09","10","14:00","26.7","","13.3","","45","","22","","23","","11.3","","99.51","","30","","","","Mainly Clear"
"1974-09-10 15:00","1974","09","10","15:00","27.2","","12.8","","42","","23","","18","","9.7","","99.47","","30","","","","Haze"
"1974-09-10 16:00","1974","09","10","16:00","27.2","","15.6","","50","","20","","19","","8.0","","99.45","","32","","","","Haze"
"1974-09-10 17:00","1974","09","10","17:00","26.7","","13.3","","44","","24","","18","","8.0","","99.46","","30","","","","Haze"
"1974-09-10 18:00","1974","09","10","18:00","25.0","","16.7","","60","","22","","16","","6.4","","99.48","","30","","","","Haze"
"1974-09-10 19:00","1974","09","10","19:00","23.3","","17.2","","68","","22","","16","","6.4","","99.50","","29","","","","Haze"
"1974-09-10 20:00","1974","09","10","20:00","21.7","","17.2","","75","","22","","16","","8.0","","99.54","","27","","","","Haze"
"1974-09-10 21:00","1974","09","10","21:00","20.6","","17.8","","85","","22","","18","","6.4","","99.54","","26","","","","Haze"
"1974-09-10 22:00","1974","09","10","22:00","19.4","","17.8","","90","","24","","14","","6.4","","99.55","","","","","","Fog"
"1974-09-10 23:00","1974","09","10","23:00","20.0","","17.8","","87","","24","","18","","9.7","","99.56","","26","","","","Fog"
"1974-09-11 00:00","1974","09","11","00:00","19.4","","17.8","","90","","24","","19","","9.7","","99.56","","","","","","Fog"
"1974-09-11 01:00","1974","09","11","01:00","18.9","","17.8","","92","","23","","14","","9.7","","99.55","","","","","","Fog"
"1974-09-11 02:00","1974","09","11","02:00","18.9","","17.8","","91","","21","","14","","6.4","","99.50","","","","","","Fog"
"1974-09-11 03:00","1974","09","11","03:00","18.9","","17.8","","95","","22","","14","","3.2","","99.50","","","","","","Fog"
"1974-09-11 04:00","1974","09","11","04:00","18.9","","17.8","","95","","24","","16","","3.2","","99.48","","","","","","Fog"
"1974-09-11 05:00","1974","09","11","05:00","19.4","","18.3","","94","","22","","16","","3.2","","99.48","","","","","","Fog"
"1974-09-11 06:00","1974","09","11","06:00","18.9","","17.8","","93","","22","","11","","2.0","","99.50","","","","","","Fog"
"1974-09-11 07:00","1974","09","11","07:00","20.0","","18.3","","91","","21","","11","","3.2","","99.55","","26","","","","Fog"
"1974-09-11 08:00","1974","09","11","08:00","21.1","","18.3","","85","","21","","18","","9.7","","99.58","","27","","","","Haze"
"1974-09-11 09:00","1974","09","11","09:00","22.8","","17.8","","74","","22","","31","","16.1","","99.50","","29","","","","Mainly Clear"
"1974-09-11 10:00","1974","09","11","10:00","23.3","","17.2","","68","","22","","29","","16.1","","99.51","","29","","","","Mostly Cloudy"
"1974-09-11 11:00","1974","09","11","11:00","24.4","","17.2","","64","","22","","32","","14.5","","99.45","","30","","","","Mostly Cloudy"
"1974-09-11 12:00","1974","09","11","12:00","24.4","","17.2","","64","","21","","32","","12.9","","99.41","","30","","","","Mostly Cloudy"
"1974-09-11 13:00","1974","09","11","13:00","26.1","","17.2","","59","","20","","32","","12.9","","99.35","","32","","","","Mostly Cloudy"
"1974-09-11 14:00","1974","09","11","14:00","25.0","","17.8","","64","","22","","29","","12.9","","99.34","","31","","","","Mostly Cloudy"
"1974-09-11 15:00","1974","09","11","15:00","25.6","","18.3","","63","","23","","23","","11.3","","99.30","","32","","","","Mostly Cloudy"
"1974-09-11 16:00","1974","09","11","16:00","25.0","","17.8","","64","","23","","27","","9.7","","99.33","","31","","","","Haze"
"1974-09-11 17:00","1974","09","11","17:00","24.4","","18.3","","68","","20","","27","","9.7","","99.30","","31","","","","Haze"
"1974-09-11 18:00","1974","09","11","18:00","23.3","","18.3","","73","","20","","24","","8.0","","99.29","","30","","","","Haze"
"1974-09-11 19:00","1974","09","11","19:00","22.8","","18.3","","77","","19","","16","","6.4","","99.26","","29","","","","Haze"
"1974-09-11 20:00","1974","09","11","20:00","21.7","","18.9","","83","","21","","16","","6.4","","99.27","","28","","","","Haze"
"1974-09-11 21:00","1974","09","11","21:00","21.1","","18.9","","86","","20","","16","","4.8","","99.27","","28","","","","Haze"
"1974-09-11 22:00","1974","09","11","22:00","21.1","","18.9","","88","","21","","13","","4.8","","99.22","","28","","","","Fog"
"1974-09-11 23:00","1974","09","11","23:00","20.6","","18.9","","89","","21","","14","","4.8","","99.21","","27","","","","Fog"
"1974-09-12 00:00","1974","09","12","00:00","21.1","","18.9","","88","","21","","21","","4.8","","99.20","","28","","","","Fog"
"1974-09-12 01:00","1974","09","12","01:00","21.1","","18.9","","88","","22","","21","","4.8","","99.19","","28","","","","Fog"
"1974-09-12 02:00","1974","09","12","02:00","20.6","","18.9","","90","","22","","14","","4.8","","99.17","","27","","","","Fog"
"1974-09-12 03:00","1974","09","12","03:00","20.6","","18.9","","89","","20","","18","","4.0","","99.14","","27","","","","Fog"
"1974-09-12 04:00","1974","09","12","04:00","20.6","","18.9","","89","","","","0","","4.0","","99.09","","27","","","","Rain Showers,Fog"
"1974-09-12 05:00","1974","09","12","05:00","20.6","","18.9","","91","","17","","8","","4.0","","99.05","","27","","","","Fog"
"1974-09-12 06:00","1974","09","12","06:00","20.6","","18.9","","90","","16","","8","","2.4","","99.04","","27","","","","Rain Showers,Fog"
"1974-09-12 07:00","1974","09","12","07:00","20.6","","19.4","","94","","18","","16","","2.0","","99.05","","28","","","","Rain Showers,Fog"
"1974-09-12 08:00","1974","09","12","08:00","20.0","","19.4","","95","","19","","16","","4.8","","99.00","","27","","","","Rain,Fog"
"1974-09-12 09:00","1974","09","12","09:00","20.0","","19.4","","94","","19","","18","","4.8","","98.99","","27","","","","Moderate Rain,Fog"
"1974-09-12 10:00","1974","09","12","10:00","20.0","","19.4","","96","","20","","18","","3.6","","98.94","","27","","","","Rain,Fog"
"1974-09-12 11:00","1974","09","12","11:00","21.1","","19.4","","91","","22","","19","","11.3","","98.90","","28","","","","Cloudy"
"1974-09-12 12:00","1974","09","12","12:00","21.7","","20.0","","89","","22","","21","","16.1","","98.88","","29","","","","Cloudy"
"1974-09-12 13:00","1974","09","12","13:00","22.2","","20.0","","86","","22","","24","","16.1","","98.87","","30","","","","Cloudy"
"1974-09-12 14:00","1974","09","12","14:00","22.2","","20.6","","88","","21","","18","","16.1","","98.85","","30","","","","Cloudy"
"1974-09-12 15:00","1974","09","12","15:00","22.8","","20.6","","87","","23","","21","","11.3","","98.83","","31","","","","Mostly Cloudy"
"1974-09-12 16:00","1974","09","12","16:00","23.3","","20.0","","83","","24","","18","","16.1","","98.81","","31","","","","Mostly Cloudy"
"1974-09-12 17:00","1974","09","12","17:00","22.8","","20.6","","87","","24","","13","","19.3","","98.82","","31","","","","Mostly Cloudy"
"1974-09-12 18:00","1974","09","12","18:00","22.8","","20.6","","88","","24","","10","","17.7","","98.84","","31","","","","Mostly Cloudy"
"1974-09-12 19:00","1974","09","12","19:00","21.1","","19.4","","89","","28","","13","","12.9","","98.87","","28","","","","Mainly Clear"
"1974-09-12 20:00","1974","09","12","20:00","20.0","","18.9","","93","","29","","8","","11.3","","98.94","","27","","","","Mainly Clear"
"1974-09-12 21:00","1974","09","12","21:00","19.4","","18.3","","93","","24","","8","","11.3","","98.97","","","","","","Clear"
"1974-09-12 22:00","1974","09","12","22:00","18.3","","17.8","","96","","25","","6","","9.7","","99.00","","","","","","Fog"
"1974-09-12 23:00","1974","09","12","23:00","18.3","","17.2","","94","","25","","11","","8.0","","99.01","","","","","","Fog"
"1974-09-13 00:00","1974","09","13","00:00","18.3","","17.2","","94","","19","","10","","6.4","","98.95","","","","","","Fog"
"1974-09-13 01:00","1974","09","13","01:00","18.9","","17.8","","94","","18","","13","","6.4","","98.90","","","","","","Fog"
"1974-09-13 02:00","1974","09","13","02:00","19.4","","18.3","","93","","19","","13","","6.4","","98.84","","","","","","Fog"
"1974-09-13 03:00","1974","09","13","03:00","19.4","","18.3","","93","","19","","13","","4.8","","98.80","","","","","","Fog"
"1974-09-13 04:00","1974","09","13","04:00","20.6","","19.4","","95","","22","","23","","3.2","","98.76","","28","","","","Fog"
"1974-09-13 05:00","1974","09","13","05:00","21.1","","19.4","","92","","23","","18","","3.2","","98.77","","28","","","","Fog"
"1974-09-13 06:00","1974","09","13","06:00","21.1","","19.4","","90","","22","","14","","2.4","","98.77","","28","","","","Fog"
"1974-09-13 07:00","1974","09","13","07:00","21.1","","18.9","","86","","21","","16","","4.0","","98.76","","28","","","","Fog"
"1974-09-13 08:00","1974","09","13","08:00","21.7","","18.9","","84","","23","","21","","11.3","","98.78","","28","","","","Mostly Cloudy"
"1974-09-13 09:00","1974","09","13","09:00","22.2","","18.3","","78","","24","","27","","16.1","","98.83","","28","","","","Mostly Cloudy"
"1974-09-13 10:00","1974","09","13","10:00","22.8","","17.8","","75","","23","","26","","19.3","","98.80","","29","","","","Cloudy"
"1974-09-13 11:00","1974","09","13","11:00","22.8","","17.8","","76","","23","","31","","19.3","","98.80","","29","","","","Cloudy"
"1974-09-13 12:00","1974","09","13","12:00","21.7","","17.8","","79","","28","","37","","24.1","","98.84","","28","","","","Cloudy"
"1974-09-13 13:00","1974","09","13","13:00","20.6","","16.1","","74","","29","","26","","24.1","","98.90","","25","","","","Cloudy"
"1974-09-13 14:00","1974","09","13","14:00","20.6","","13.9","","65","","30","","35","","32.2","","98.94","","","","","","Mostly Cloudy"
"1974-09-13 15:00","1974","09","13","15:00","20.6","","12.2","","58","","30","","34","","32.2","","98.94","","","","","","Mostly Cloudy"
"1974-09-13 16:00","1974","09","13","16:00","19.4","","11.7","","60","","30","","39","","32.2","","99.06","","","","","","Mostly Cloudy"
"1974-09-13 17:00","1974","09","13","17:00","18.9","","11.7","","62","","31","","32","","32.2","","99.19","","","","","","Mostly Cloudy"
"1974-09-13 18:00","1974","09","13","18:00","16.1","","9.4","","64","","32","","32","","32.2","","99.24","","","","","","Mostly Cloudy"
"1974-09-13 19:00","1974","09","13","19:00","15.0","","7.8","","62","","30","","26","","25.0","","99.37","","","","","","Cloudy"
"1974-09-13 20:00","1974","09","13","20:00","14.4","","8.3","","67","","31","","21","","25.0","","99.44","","","","","","Mostly Cloudy"
"1974-09-13 21:00","1974","09","13","21:00","13.3","","7.8","","67","","30","","24","","25.0","","99.52","","","","","","Mostly Cloudy"
"1974-09-13 22:00","1974","09","13","22:00","12.2","","7.8","","72","","29","","14","","25.0","","99.57","","","","","","Mostly Cloudy"
"1974-09-13 23:00","1974","09","13","23:00","11.7","","6.7","","71","","31","","23","","25.0","","99.62","","","","","","Mainly Clear"
"1974-09-14 00:00","1974","09","14","00:00","11.1","","6.7","","74","","29","","16","","25.0","","99.64","","","","","","Mostly Cloudy"
"1974-09-14 01:00","1974","09","14","01:00","10.0","","6.7","","81","","29","","14","","25.0","","99.70","","","","","","Mainly Clear"
"1974-09-14 02:00","1974","09","14","02:00","9.4","","6.1","","78","","28","","14","","25.0","","99.68","","","","","","Mainly Clear"
"1974-09-14 03:00","1974","09","14","03:00","8.3","","5.0","","82","","29","","13","","25.0","","99.68","","","","","","Mainly Clear"
"1974-09-14 04:00","1974","09","14","04:00","8.3","","5.0","","79","","29","","16","","25.0","","99.72","","","","","","Mainly Clear"
"1974-09-14 05:00","1974","09","14","05:00","8.3","","5.0","","80","","28","","21","","25.0","","99.77","","","","","","Mainly Clear"
"1974-09-14 06:00","1974","09","14","06:00","8.3","","5.0","","77","","28","","21","","32.2","","99.81","","","","","","Mainly Clear"
"1974-09-14 07:00","1974","09","14","07:00","9.4","","5.0","","76","","29","","18","","32.2","","99.88","","","","","","Mainly Clear"
"1974-09-14 08:00","1974","09","14","08:00","12.2","","3.9","","57","","31","","19","","40.2","","99.89","","","","","","Mainly Clear"
"1974-09-14 09:00","1974","09","14","09:00","13.9","","3.3","","49","","32","","21","","40.2","","99.94","","","","","","Mostly Cloudy"
"1974-09-14 10:00","1974","09","14","10:00","14.4","","3.3","","48","","1","","16","","40.2","","99.93","","","","","","Mostly Cloudy"
"1974-09-14 11:00","1974","09","14","11:00","16.1","","5.0","","48","","32","","19","","40.2","","99.91","","","","","","Mostly Cloudy"
"1974-09-14 12:00","1974","09","14","12:00","15.6","","6.1","","54","","29","","23","","40.2","","99.89","","","","","","Mostly Cloudy"
"1974-09-14 13:00","1974","09","14","13:00","15.0","","6.7","","58","","28","","14","","40.2","","99.84","","","","","","Mostly Cloudy"
"1974-09-14 14:00","1974","09","14","14:00","15.6","","8.9","","63","","27","","23","","40.2","","99.83","","","","","","Cloudy"
"1974-09-14 15:00","1974","09","14","15:00","15.0","","8.9","","67","","26","","18","","40.2","","99.78","","","","","","Cloudy"
"1974-09-14 16:00","1974","09","14","16:00","15.0","","8.9","","68","","26","","16","","40.2","","99.74","","","","","","Mostly Cloudy"
"1974-09-14 17:00","1974","09","14","17:00","15.0","","9.4","","68","","23","","18","","40.2","","99.71","","","","","","Mostly Cloudy"
"1974-09-14 18:00","1974","09","14","18:00","14.4","","9.4","","73","","22","","14","","40.2","","99.69","","","","","","Mostly Cloudy"
"1974-09-14 19:00","1974","09","14","19:00","14.4","","7.2","","63","","22","","11","","25.0","","99.69","","","","","","Mostly Cloudy"
"1974-09-14 20:00","1974","09","14","20:00","12.2","","5.6","","62","","22","","8","","25.0","","99.70","","","","","","Mainly Clear"
"1974-09-14 21:00","1974","09","14","21:00","11.1","","5.0","","67","","21","","13","","25.0","","99.67","","","","","","Clear"
"1974-09-14 22:00","1974","09","14","22:00","9.4","","5.0","","74","","22","","11","","25.0","","99.69","","","","","","Clear"
"1974-09-14 23:00","1974","09","14","23:00","8.3","","5.6","","83","","22","","13","","25.0","","99.64","","","","","","Mainly Clear"
"1974-09-15 00:00","1974","09","15","00:00","7.8","","6.1","","87","","22","","13","","25.0","","99.60","","","","","","Mainly Clear"
"1974-09-15 01:00","1974","09","15","01:00","8.9","","5.6","","81","","21","","10","","25.0","","99.58","","","","","","Mainly Clear"
"1974-09-15 02:00","1974","09","15","02:00","8.3","","5.6","","82","","21","","14","","25.0","","99.53","","","","","","Clear"
"1974-09-15 03:00","1974","09","15","03:00","9.4","","5.6","","77","","22","","18","","25.0","","99.46","","","","","","Clear"
"1974-09-15 04:00","1974","09","15","04:00","8.9","","5.6","","79","","21","","18","","25.0","","99.41","","","","","","Clear"
"1974-09-15 05:00","1974","09","15","05:00","8.9","","5.6","","81","","22","","16","","25.0","","99.35","","","","","","Mainly Clear"
"1974-09-15 06:00","1974","09","15","06:00","10.0","","5.6","","75","","22","","23","","24.1","","99.31","","","","","","Mainly Clear"
"1974-09-15 07:00","1974","09","15","07:00","11.1","","5.6","","68","","23","","27","","24.1","","99.30","","","","","","Mainly Clear"
"1974-09-15 08:00","1974","09","15","08:00","13.9","","5.6","","56","","23","","34","","24.1","","99.24","","","","","","Mainly Clear"
"1974-09-15 09:00","1974","09","15","09:00","16.7","","6.1","","51","","23","","42","","32.2","","99.19","","","","","","Mostly Cloudy"
"1974-09-15 10:00","1974","09","15","10:00","18.9","","6.7","","46","","24","","39","","32.2","","99.18","","","","","","Mainly Clear"
"1974-09-15 11:00","1974","09","15","11:00","20.0","","8.3","","46","","23","","42","","32.2","","99.10","","","","","","Mostly Cloudy"
"1974-09-15 12:00","1974","09","15","12:00","21.1","","8.9","","45","","24","","39","","32.2","","99.06","","","","","","Mostly Cloudy"
"1974-09-15 13:00","1974","09","15","13:00","22.2","","9.4","","44","","24","","32","","32.2","","99.04","","","","","","Mostly Cloudy"
"1974-09-15 14:00","1974","09","15","14:00","20.6","","9.4","","49","","28","","31","","24.1","","99.06","","","","","","Rain Showers"
"1974-09-15 15:00","1974","09","15","15:00","17.8","","10.6","","61","","28","","39","","32.2","","99.12","","","","","","Mostly Cloudy"
"1974-09-15 16:00","1974","09","15","16:00","19.4","","10.0","","54","","25","","35","","32.2","","99.07","","","","","","Mainly Clear"
"1974-09-15 17:00","1974","09","15","17:00","19.4","","10.0","","53","","26","","24","","32.2","","99.09","","","","","","Mostly Cloudy"
"1974-09-15 18:00","1974","09","15","18:00","15.6","","10.6","","71","","32","","19","","40.2","","99.25","","","","","","Mostly Cloudy"
"1974-09-15 19:00","1974","09","15","19:00","15.6","","11.1","","73","","32","","19","","25.0","","99.32","","","","","","Mainly Clear"
"1974-09-15 20:00","1974","09","15","20:00","13.3","","8.9","","73","","30","","21","","25.0","","99.43","","","","","","Mainly Clear"
"1974-09-15 21:00","1974","09","15","21:00","12.2","","7.2","","73","","31","","19","","25.0","","99.46","","","","","","Mainly Clear"
"1974-09-15 22:00","1974","09","15","22:00","11.1","","7.2","","78","","30","","18","","25.0","","99.53","","","","","","Mainly Clear"
"1974-09-15 23:00","1974","09","15","23:00","10.0","","6.7","","79","","30","","18","","25.0","","99.59","","","","","","Mainly Clear"
"1974-09-16 00:00","1974","09","16","00:00","8.3","","6.1","","86","","29","","13","","25.0","","99.65","","","","","","Mainly Clear"
"1974-09-16 01:00","1974","09","16","01:00","8.3","","6.1","","85","","30","","16","","25.0","","99.72","","","","","","Clear"
"1974-09-16 02:00","1974","09","16","02:00","7.2","","5.0","","87","","27","","13","","25.0","","99.75","","","","","","Clear"
"1974-09-16 03:00","1974","09","16","03:00","5.6","","4.4","","93","","27","","5","","25.0","","99.76","","","","","","Clear"
"1974-09-16 04:00","1974","09","16","04:00","5.6","","4.4","","92","","29","","8","","25.0","","99.77","","","","","","Clear"
"1974-09-16 05:00","1974","09","16","05:00","5.0","","3.3","","91","","28","","13","","25.0","","99.82","","","","","","Clear"
"1974-09-16 06:00","1974","09","16","06:00","5.6","","3.3","","86","","34","","16","","40.2","","99.89","","","","","","Mainly Clear"
"1974-09-16 07:00","1974","09","16","07:00","7.2","","5.0","","86","","33","","11","","40.2","","99.92","","","","","","Mainly Clear"
"1974-09-16 08:00","1974","09","16","08:00","11.1","","6.7","","73","","31","","27","","40.2","","99.92","","","","","","Mainly Clear"
"1974-09-16 09:00","1974","09","16","09:00","13.3","","4.4","","55","","30","","31","","40.2","","99.97","","","","","","Mainly Clear"
"1974-09-16 10:00","1974","09","16","10:00","14.4","","6.1","","58","","32","","27","","40.2","","100.01","","","","","","Mainly Clear"
"1974-09-16 11:00","1974","09","16","11:00","16.1","","4.4","","45","","31","","23","","40.2","","100.00","","","","","","Mainly Clear"
"1974-09-16 12:00","1974","09","16","12:00","16.1","","2.8","","42","","32","","21","","40.2","","99.99","","","","","","Mainly Clear"
"1974-09-16 13:00","1974","09","16","13:00","16.7","","3.3","","41","","29","","19","","40.2","","99.95","","","","","","Clear"
"1974-09-16 14:00","1974","09","16","14:00","18.3","","2.8","","36","","34","","14","","40.2","","99.90","","","","","","Clear"
"1974-09-16 15:00","1974","09","16","15:00","18.9","","2.8","","35","","24","","18","","40.2","","99.86","","","","","","Mainly Clear"
"1974-09-16 16:00","1974","09","16","16:00","18.9","","2.2","","33","","29","","10","","40.2","","99.80","","","","","","Mainly Clear"
"1974-09-16 17:00","1974","09","16","17:00","18.9","","1.7","","33","","26","","8","","40.2","","99.78","","","","","","Mainly Clear"
"1974-09-16 18:00","1974","09","16","18:00","16.1","","3.9","","46","","16","","14","","40.2","","99.78","","","","","","Mainly Clear"
"1974-09-16 19:00","1974","09","16","19:00","14.4","","5.0","","53","","17","","14","","25.0","","99.76","","","","","","Mainly Clear"
"1974-09-16 20:00","1974","09","16","20:00","12.8","","6.7","","65","","17","","10","","25.0","","99.75","","","","","","Clear"
"1974-09-16 21:00","1974","09","16","21:00","11.1","","6.1","","73","","23","","10","","25.0","","99.72","","","","","","Clear"
"1974-09-16 22:00","1974","09","16","22:00","9.4","","5.6","","75","","23","","14","","25.0","","99.74","","","","","","Clear"
"1974-09-16 23:00","1974","09","16","23:00","8.3","","4.4","","76","","23","","6","","25.0","","99.69","","","","","","Clear"
"1974-09-17 00:00","1974","09","17","00:00","7.8","","4.4","","78","","25","","10","","25.0","","99.64","","","","","","Clear"
"1974-09-17 01:00","1974","09","17","01:00","7.8","","3.3","","73","","27","","5","","25.0","","99.59","","","","","","Clear"
"1974-09-17 02:00","1974","09","17","02:00","7.8","","3.3","","73","","29","","10","","25.0","","99.50","","","","","","Clear"
"1974-09-17 03:00","1974","09","17","03:00","7.2","","3.3","","77","","","","0","","25.0","","99.40","","","","","","Mainly Clear"
"1974-09-17 04:00","1974","09","17","04:00","5.6","","3.3","","83","","22","","6","","25.0","","99.30","","","","","","Mainly Clear"
"1974-09-17 05:00","1974","09","17","05:00","7.2","","4.4","","83","","","","0","","25.0","","99.23","","","","","","Mainly Clear"
"1974-09-17 06:00","1974","09","17","06:00","8.9","","6.1","","83","","19","","3","","32.2","","99.17","","","","","","Mainly Clear"
"1974-09-17 07:00","1974","09","17","07:00","8.9","","7.2","","90","","18","","10","","16.1","","99.11","","","","","","Mainly Clear"
"1974-09-17 08:00","1974","09","17","08:00","13.3","","11.7","","89","","20","","13","","9.7","","99.07","","","","","","Fog"
"1974-09-17 09:00","1974","09","17","09:00","16.7","","13.3","","80","","22","","26","","6.4","","99.07","","","","","","Haze"
"1974-09-17 10:00","1974","09","17","10:00","20.0","","11.7","","57","","27","","31","","12.9","","99.05","","","","","","Mostly Cloudy"
"1974-09-17 11:00","1974","09","17","11:00","21.1","","10.0","","48","","25","","31","","24.1","","98.95","","","","","","Mostly Cloudy"
"1974-09-17 12:00","1974","09","17","12:00","23.9","","10.0","","42","","26","","32","","24.1","","98.85","","25","","","","Mostly Cloudy"
"1974-09-17 13:00","1974","09","17","13:00","22.2","","10.0","","46","","27","","29","","32.2","","98.80","","","","","","Mostly Cloudy"
"1974-09-17 14:00","1974","09","17","14:00","21.7","","10.0","","48","","28","","31","","19.3","","98.83","","","","","","Rain Showers"
"1974-09-17 15:00","1974","09","17","15:00","18.3","","13.9","","74","","29","","14","","32.2","","98.82","","","","","","Rain Showers"
"1974-09-17 16:00","1974","09","17","16:00","18.9","","11.1","","61","","28","","26","","32.2","","98.86","","","","","","Cloudy"
"1974-09-17 17:00","1974","09","17","17:00","15.6","","13.3","","86","","31","","16","","9.7","","98.86","","","","","","Rain,Fog"
"1974-09-17 18:00","1974","09","17","18:00","15.0","","13.3","","91","","33","","11","","16.1","","98.87","","","","","","Thunderstorms,Rain Showers"
"1974-09-17 19:00","1974","09","17","19:00","14.4","","13.3","","93","","1","","8","","16.1","","98.88","","","","","","Rain Showers"
"1974-09-17 20:00","1974","09","17","20:00","14.4","","13.3","","97","","35","","11","","4.0","","98.95","","","","","","Rain Showers,Fog"
"1974-09-17 21:00","1974","09","17","21:00","14.4","","13.3","","95","","34","","24","","12.9","","99.00","","","","","","Rain Showers"
"1974-09-17 22:00","1974","09","17","22:00","13.9","","12.2","","93","","35","","19","","24.1","","99.07","","","","","","Cloudy"
"1974-09-17 23:00","1974","09","17","23:00","11.7","","10.6","","93","","1","","27","","25.0","","99.14","","","","","","Drizzle"
"1974-09-18 00:00","1974","09","18","00:00","11.1","","9.4","","90","","3","","26","","25.0","","99.21","","","","","","Cloudy"
"1974-09-18 01:00","1974","09","18","01:00","10.0","","8.3","","89","","1","","26","","25.0","","99.32","","","","","","Cloudy"
"1974-09-18 02:00","1974","09","18","02:00","8.3","","6.1","","87","","4","","26","","25.0","","99.36","","","","","","Cloudy"
"1974-09-18 03:00","1974","09","18","03:00","8.3","","5.6","","82","","1","","19","","25.0","","99.39","","","","","","Cloudy"
"1974-09-18 04:00","1974","09","18","04:00","7.2","","5.0","","84","","2","","19","","25.0","","99.46","","","","","","Cloudy"
"1974-09-18 05:00","1974","09","18","05:00","7.2","","4.4","","83","","2","","18","","25.0","","99.50","","","","","","Mostly Cloudy"
"1974-09-18 06:00","1974","09","18","06:00","6.7","","3.3","","78","","1","","19","","25.0","","99.58","","","","","","Mostly Cloudy"
"1974-09-18 07:00","1974","09","18","07:00","6.1","","2.2","","76","","2","","21","","40.2","","99.65","","","","","","Mostly Cloudy"
"1974-09-18 08:00","1974","09","18","08:00","6.7","","2.2","","71","","2","","23","","40.2","","99.71","","","","","","Mainly Clear"
"1974-09-18 09:00","1974","09","18","09:00","8.3","","2.2","","64","","5","","18","","40.2","","99.75","","","","","","Mainly Clear"
"1974-09-18 10:00","1974","09","18","10:00","10.0","","2.2","","59","","3","","6","","40.2","","99.78","","","","","","Mainly Clear"
"1974-09-18 11:00","1974","09","18","11:00","11.1","","2.8","","57","","13","","13","","40.2","","99.74","","","","","","Mostly Cloudy"
"1974-09-18 12:00","1974","09","18","12:00","12.2","","2.8","","52","","8","","13","","40.2","","99.78","","","","","","Mostly Cloudy"
"1974-09-18 13:00","1974","09","18","13:00","12.8","","2.2","","49","","15","","23","","40.2","","99.75","","","","","","Mostly Cloudy"
"1974-09-18 14:00","1974","09","18","14:00","11.7","","2.8","","53","","15","","21","","40.2","","99.73","","","","","","Mostly Cloudy"
"1974-09-18 15:00","1974","09","18","15:00","12.2","","3.3","","56","","15","","21","","40.2","","99.74","","","","","","Mostly Cloudy"
"1974-09-18 16:00","1974","09","18","16:00","12.2","","3.9","","57","","16","","18","","40.2","","99.72","","","","","","Mostly Cloudy"
"1974-09-18 17:00","1974","09","18","17:00","12.2","","2.2","","51","","16","","16","","40.2","","99.73","","","","","","Mainly Clear"
"1974-09-18 18:00","1974","09","18","18:00","11.1","","5.0","","65","","16","","8","","40.2","","99.71","","","","","","Mainly Clear"
"1974-09-18 19:00","1974","09","18","19:00","10.0","","6.1","","77","","14","","6","","40.2","","99.75","","","","","","Clear"
"1974-09-18 20:00","1974","09","18","20:00","10.0","","6.1","","77","","","","0","","25.0","","99.78","","","","","","Clear"
"1974-09-18 21:00","1974","09","18","21:00","8.9","","6.1","","84","","17","","8","","25.0","","99.77","","","","","","Clear"
"1974-09-18 22:00","1974","09","18","22:00","8.9","","6.1","","84","","15","","6","","25.0","","99.79","","","","","","Mostly Cloudy"
"1974-09-18 23:00","1974","09","18","23:00","5.6","","5.0","","95","","","","0","","25.0","","99.76","","","","","","Mainly Clear"
"1974-09-19 00:00","1974","09","19","00:00","6.1","","5.6","","95","","","","0","","24.1","","99.76","","","","","","Mainly Clear"
"1974-09-19 01:00","1974","09","19","01:00","6.1","","6.1","","98","","","","0","","12.9","","99.78","","","","","","Clear"
"1974-09-19 02:00","1974","09","19","02:00","5.0","","4.4","","97","","","","0","","12.9","","99.80","","","","","","Clear"
"1974-09-19 03:00","1974","09","19","03:00","6.7","","6.7","","99","","1","","10","","6.4","","99.83","","","","","","Fog"
"1974-09-19 04:00","1974","09","19","04:00","4.4","","3.9","","97","","","","0","","4.8","","99.82","","","","","","Fog"
"1974-09-19 05:00","1974","09","19","05:00","3.3","","3.3","","99","","","","0","","9.7","","99.82","","","","","","Fog"
"1974-09-19 06:00","1974","09","19","06:00","2.8","","2.8","","98","","","","0","","8.0","","99.85","","","","","","Fog"
"1974-09-19 07:00","1974","09","19","07:00","3.9","","3.9","","99","","","","0","","9.7","","99.86","","","","","","Fog"
"1974-09-19 08:00","1974","09","19","08:00","8.3","","7.2","","94","","","","0","","6.4","","99.89","","","","","","Fog"
"1974-09-19 09:00","1974","09","19","09:00","12.8","","10.0","","86","","19","","13","","4.8","","99.87","","","","","","Fog"
"1974-09-19 10:00","1974","09","19","10:00","15.6","","11.1","","74","","18","","14","","9.7","","99.84","","","","","","Haze"
"1974-09-19 11:00","1974","09","19","11:00","18.3","","11.7","","66","","17","","19","","12.9","","99.76","","","","","","Clear"
"1974-09-19 12:00","1974","09","19","12:00","20.0","","12.2","","60","","16","","24","","12.9","","99.70","","","","","","Mainly Clear"
"1974-09-19 13:00","1974","09","19","13:00","20.6","","12.2","","59","","17","","23","","12.9","","99.67","","","","","","Mainly Clear"
"1974-09-19 14:00","1974","09","19","14:00","21.1","","12.2","","57","","16","","23","","12.9","","99.57","","","","","","Mostly Cloudy"
"1974-09-19 15:00","1974","09","19","15:00","22.2","","12.8","","56","","16","","23","","12.9","","99.53","","25","","","","Mainly Clear"
"1974-09-19 16:00","1974","09","19","16:00","22.2","","13.3","","56","","16","","24","","9.7","","99.49","","25","","","","Haze"
"1974-09-19 17:00","1974","09","19","17:00","23.3","","12.2","","50","","22","","21","","11.3","","99.47","","26","","","","Mainly Clear"
"1974-09-19 18:00","1974","09","19","18:00","21.1","","11.7","","55","","20","","18","","12.9","","99.44","","","","","","Mostly Cloudy"
"1974-09-19 19:00","1974","09","19","19:00","19.4","","12.2","","63","","18","","16","","12.9","","99.46","","","","","","Mostly Cloudy"
"1974-09-19 20:00","1974","09","19","20:00","16.7","","10.6","","68","","16","","14","","11.3","","99.45","","","","","","Mostly Cloudy"
"1974-09-19 21:00","1974","09","19","21:00","17.8","","11.7","","67","","20","","14","","12.9","","99.44","","","","","","Mostly Cloudy"
"1974-09-19 22:00","1974","09","19","22:00","16.7","","12.2","","76","","15","","11","","12.9","","99.45","","","","","","Cloudy"
"1974-09-19 23:00","1974","09","19","23:00","17.2","","13.3","","78","","19","","8","","8.0","","99.39","","","","","","Haze"
"1974-09-20 00:00","1974","09","20","00:00","16.1","","13.9","","86","","","","0","","9.7","","99.37","","","","","","Haze"
"1974-09-20 01:00","1974","09","20","01:00","17.8","","15.0","","84","","21","","14","","9.7","","99.29","","","","","","Haze"
"1974-09-20 02:00","1974","09","20","02:00","17.2","","14.4","","85","","","","0","","8.0","","99.33","","","","","","Fog"
"1974-09-20 03:00","1974","09","20","03:00","15.6","","12.8","","86","","36","","27","","14.5","","99.40","","","","","","Cloudy"
"1974-09-20 04:00","1974","09","20","04:00","14.4","","11.7","","83","","34","","18","","25.0","","99.48","","","","","","Rain Showers"
"1974-09-20 05:00","1974","09","20","05:00","13.9","","12.2","","88","","33","","19","","25.0","","99.55","","","","","","Mostly Cloudy"
"1974-09-20 06:00","1974","09","20","06:00","13.3","","11.1","","87","","33","","23","","32.2","","99.61","","","","","","Mostly Cloudy"
"1974-09-20 07:00","1974","09","20","07:00","12.8","","11.1","","89","","33","","13","","32.2","","99.69","","","","","","Mostly Cloudy"
"1974-09-20 08:00","1974","09","20","08:00","13.3","","9.4","","76","","32","","21","","40.2","","99.73","","","","","","Mostly Cloudy"
"1974-09-20 09:00","1974","09","20","09:00","15.0","","8.3","","63","","35","","29","","40.2","","99.71","","","","","","Mostly Cloudy"
"1974-09-20 10:00","1974","09","20","10:00","17.2","","8.3","","56","","33","","29","","40.2","","99.74","","","","","","Mostly Cloudy"
"1974-09-20 11:00","1974","09","20","11:00","17.2","","8.3","","55","","35","","23","","40.2","","99.77","","","","","","Mostly Cloudy"
"1974-09-20 12:00","1974","09","20","12:00","18.3","","7.2","","48","","36","","23","","40.2","","99.78","","","","","","Mostly Cloudy"
"1974-09-20 13:00","1974","09","20","13:00","18.9","","8.3","","50","","36","","13","","40.2","","99.77","","","","","","Mostly Cloudy"
"1974-09-20 14:00","1974","09","20","14:00","18.3","","8.9","","53","","1","","26","","40.2","","99.74","","","","","","Mainly Clear"
"1974-09-20 15:00","1974","09","20","15:00","18.3","","7.2","","49","","2","","23","","40.2","","99.72","","","","","","Mainly Clear"
"1974-09-20 16:00","1974","09","20","16:00","17.8","","7.2","","50","","36","","21","","40.2","","99.71","","","","","","Mainly Clear"
"1974-09-20 17:00","1974","09","20","17:00","16.7","","6.7","","51","","1","","24","","40.2","","99.73","","","","","","Mainly Clear"
"1974-09-20 18:00","1974","09","20","18:00","15.0","","7.2","","59","","36","","23","","40.2","","99.76","","","","","","Mostly Cloudy"
"1974-09-20 19:00","1974","09","20","19:00","13.9","","6.7","","63","","1","","23","","40.2","","99.79","","","","","","Mostly Cloudy"
"1974-09-20 20:00","1974","09","20","20:00","12.8","","7.2","","68","","35","","21","","25.0","","99.81","","","","","","Mostly Cloudy"
"1974-09-20 21:00","1974","09","20","21:00","12.2","","7.2","","71","","36","","18","","25.0","","99.77","","","","","","Mostly Cloudy"
"1974-09-20 22:00","1974","09","20","22:00","12.2","","7.8","","75","","35","","11","","25.0","","99.78","","","","","","Cloudy"
"1974-09-20 23:00","1974","09","20","23:00","11.7","","8.3","","80","","32","","10","","25.0","","99.76","","","","","","Cloudy"
"1974-09-21 00:00","1974","09","21","00:00","11.1","","7.8","","78","","35","","10","","25.0","","99.76","","","","","","Cloudy"
"1974-09-21 01:00","1974","09","21","01:00","11.1","","7.8","","81","","32","","5","","24.1","","99.71","","","","","","Rain Showers"
"1974-09-21 02:00","1974","09","21","02:00","10.6","","7.8","","83","","33","","13","","25.0","","99.69","","","","","","Mostly Cloudy"
"1974-09-21 03:00","1974","09","21","03:00","10.6","","7.8","","83","","","","0","","25.0","","99.60","","","","","","Mostly Cloudy"
"1974-09-21 04:00","1974","09","21","04:00","10.6","","7.8","","83","","31","","5","","25.0","","99.59","","","","","","Cloudy"
"1974-09-21 05:00","1974","09","21","05:00","10.6","","7.8","","83","","","","0","","25.0","","99.56","","","","","","Cloudy"
"1974-09-21 06:00","1974","09","21","06:00","10.0","","7.8","","87","","","","0","","25.0","","99.55","","","","","","Mostly Cloudy"
"1974-09-21 07:00","1974","09","21","07:00","10.6","","8.3","","86","","21","","10","","32.2","","99.59","","","","","","Rain"
"1974-09-21 08:00","1974","09","21","08:00","11.1","","8.3","","81","","18","","6","","24.1","","99.53","","","","","","Rain"
"1974-09-21 09:00","1974","09","21","09:00","11.7","","8.9","","82","","19","","8","","24.1","","99.50","","","","","","Rain"
"1974-09-21 10:00","1974","09","21","10:00","12.2","","8.9","","79","","19","","13","","24.1","","99.48","","","","","","Rain"
"1974-09-21 11:00","1974","09","21","11:00","13.3","","8.9","","76","","25","","8","","24.1","","99.45","","","","","","Cloudy"
"1974-09-21 12:00","1974","09","21","12:00","13.9","","8.3","","70","","26","","14","","32.2","","99.42","","","","","","Mostly Cloudy"
"1974-09-21 13:00","1974","09","21","13:00","15.0","","6.7","","57","","30","","26","","40.2","","99.36","","","","","","Mostly Cloudy"
"1974-09-21 14:00","1974","09","21","14:00","17.2","","3.3","","40","","32","","27","","40.2","","99.31","","","","","","Mainly Clear"
"1974-09-21 15:00","1974","09","21","15:00","17.2","","2.8","","39","","31","","24","","40.2","","99.26","","","","","","Mainly Clear"
"1974-09-21 16:00","1974","09","21","16:00","16.7","","0.0","","32","","32","","31","","40.2","","99.29","","","","","","Mainly Clear"
"1974-09-21 17:00","1974","09","21","17:00","15.6","","-2.2","","30","","30","","26","","40.2","","99.36","","","","","","Mainly Clear"
"1974-09-21 18:00","1974","09","21","18:00","13.9","","-2.2","","33","","31","","26","","40.2","","99.42","","","","","","Mainly Clear"
"1974-09-21 19:00","1974","09","21","19:00","10.6","","0.6","","51","","30","","18","","25.0","","99.43","","","","","","Mainly Clear"
"1974-09-21 20:00","1974","09","21","20:00","8.3","","1.7","","63","","30","","11","","25.0","","99.48","","","","","","Mainly Clear"
"1974-09-21 21:00","1974","09","21","21:00","8.3","","2.2","","67","","29","","8","","25.0","","99.48","","","","","","Mostly Cloudy"
"1974-09-21 22:00","1974","09","21","22:00","7.2","","3.3","","76","","30","","14","","25.0","","99.50","","","","","","Mostly Cloudy"
"1974-09-21 23:00","1974","09","21","23:00","7.8","","3.9","","76","","29","","16","","25.0","","99.48","","","","","","Mostly Cloudy"
"1974-09-22 00:00","1974","09","22","00:00","7.8","","4.4","","79","","28","","18","","25.0","","99.50","","","","","","Mainly Clear"
"1974-09-22 01:00","1974","09","22","01:00","6.7","","4.4","","84","","28","","18","","25.0","","99.51","","","","","","Mainly Clear"
"1974-09-22 02:00","1974","09","22","02:00","6.1","","3.9","","86","","28","","13","","25.0","","99.52","","","","","","Mainly Clear"
"1974-09-22 03:00","1974","09","22","03:00","6.7","","4.4","","87","","28","","14","","25.0","","99.48","","","","","","Mainly Clear"
"1974-09-22 04:00","1974","09","22","04:00","6.7","","4.4","","86","","25","","13","","25.0","","99.55","","","","","","Mostly Cloudy"
"1974-09-22 05:00","1974","09","22","05:00","7.2","","3.9","","80","","28","","16","","25.0","","99.58","","","","","","Mostly Cloudy"
"1974-09-22 06:00","1974","09","22","06:00","7.2","","3.3","","76","","28","","18","","25.0","","99.62","","","","","","Mostly Cloudy"
"1974-09-22 07:00","1974","09","22","07:00","7.2","","5.0","","84","","29","","21","","40.2","","99.68","","","","","","Mostly Cloudy"
"1974-09-22 08:00","1974","09","22","08:00","7.8","","3.3","","73","","33","","26","","40.2","","99.74","","","","","","Mostly Cloudy"
"1974-09-22 09:00","1974","09","22","09:00","7.8","","2.8","","72","","34","","32","","40.2","","99.81","","","","","","Mostly Cloudy"
"1974-09-22 10:00","1974","09","22","10:00","7.2","","2.2","","72","","35","","29","","40.2","","99.87","","","","","","Mainly Clear"
"1974-09-22 11:00","1974","09","22","11:00","7.8","","1.7","","65","","34","","34","","40.2","","99.92","","","","","","Mainly Clear"
"1974-09-22 12:00","1974","09","22","12:00","9.4","","0.6","","55","","35","","29","","40.2","","99.97","","","","","","Mainly Clear"
"1974-09-22 13:00","1974","09","22","13:00","8.9","","-0.6","","53","","35","","32","","40.2","","100.00","","","","","","Mostly Cloudy"
"1974-09-22 14:00","1974","09","22","14:00","9.4","","-2.8","","43","","34","","29","","40.2","","100.02","","","","","","Mainly Clear"
"1974-09-22 15:00","1974","09","22","15:00","9.4","","-3.9","","39","","33","","29","","40.2","","100.04","","","","","","Mainly Clear"
"1974-09-22 16:00","1974","09","22","16:00","8.9","","-5.0","","38","","33","","29","","40.2","","100.08","","","","","","Mainly Clear"
"1974-09-22 17:00","1974","09","22","17:00","8.3","","-4.4","","41","","35","","26","","40.2","","100.14","","","","","","Mainly Clear"
"1974-09-22 18:00","1974","09","22","18:00","7.2","","-3.9","","47","","1","","23","","40.2","","100.21","","","","","","Mostly Cloudy"
"1974-09-22 19:00","1974","09","22","19:00","5.6","","-2.8","","54","","33","","23","","25.0","","100.28","","","","","","Mostly Cloudy"
"1974-09-22 20:00","1974","09","22","20:00","5.0","","-2.8","","57","","32","","18","","25.0","","100.35","","","","","","Mostly Cloudy"
"1974-09-22 21:00","1974","09","22","21:00","2.2","","-2.8","","70","","32","","18","","25.0","","100.39","","","","","","Mainly Clear"
"1974-09-22 22:00","1974","09","22","22:00","1.1","","-2.2","","78","","29","","10","","25.0","","100.42","","","","","","Clear"
"1974-09-22 23:00","1974","09","22","23:00","0.6","","-2.8","","78","","28","","8","","25.0","","100.47","","","","","","Mainly Clear"
"1974-09-23 00:00","1974","09","23","00:00","0.6","","-2.8","","80","","31","","8","","25.0","","100.49","","","","","","Mainly Clear"
"1974-09-23 01:00","1974","09","23","01:00","0.6","","-2.8","","77","","","","0","","25.0","","100.52","","","","","","Mainly Clear"
"1974-09-23 02:00","1974","09","23","02:00","1.1","","-2.2","","80","","","","0","","25.0","","100.53","","","","","","Mostly Cloudy"
"1974-09-23 03:00","1974","09","23","03:00","0.6","","-1.7","","87","","","","0","","25.0","","100.54","","","","","","Mostly Cloudy"
"1974-09-23 04:00","1974","09","23","04:00","1.1","","-1.1","","85","","31","","10","","25.0","","100.55","","","","","","Mostly Cloudy"
"1974-09-23 05:00","1974","09","23","05:00","-0.6","","-2.2","","89","","31","","10","","25.0","","100.61","","","","-4","","Mostly Cloudy"
"1974-09-23 06:00","1974","09","23","06:00","0.0","","-1.7","","88","","","","0","","32.2","","100.63","","","","","","Mostly Cloudy"
"1974-09-23 07:00","1974","09","23","07:00","-0.6","","-2.2","","88","","28","","11","","40.2","","100.68","","","","-4","","Mostly Cloudy"
"1974-09-23 08:00","1974","09","23","08:00","5.0","","0.0","","72","","29","","8","","40.2","","100.74","","","","","","Mainly Clear"
"1974-09-23 09:00","1974","09","23","09:00","7.2","","-2.2","","52","","30","","16","","40.2","","100.76","","","","","","Mainly Clear"
"1974-09-23 10:00","1974","09","23","10:00","8.3","","-0.6","","54","","34","","21","","40.2","","100.76","","","","","","Mainly Clear"
"1974-09-23 11:00","1974","09","23","11:00","10.0","","-2.2","","42","","29","","11","","40.2","","100.75","","","","","","Mainly Clear"
"1974-09-23 12:00","1974","09","23","12:00","8.9","","-2.2","","45","","33","","18","","40.2","","100.75","","","","","","Mostly Cloudy"
"1974-09-23 13:00","1974","09","23","13:00","9.4","","-2.2","","44","","33","","8","","40.2","","100.74","","","","","","Mostly Cloudy"
"1974-09-23 14:00","1974","09","23","14:00","9.4","","-1.7","","45","","16","","11","","40.2","","100.70","","","","","","Mostly Cloudy"
"1974-09-23 15:00","1974","09","23","15:00","10.0","","-1.7","","45","","9","","5","","40.2","","100.67","","","","","","Mostly Cloudy"
"1974-09-23 16:00","1974","09","23","16:00","10.0","","-1.7","","45","","18","","10","","40.2","","100.66","","","","","","Mostly Cloudy"
"1974-09-23 17:00","1974","09","23","17:00","10.6","","-0.6","","48","","26","","19","","40.2","","100.67","","","","","","Mostly Cloudy"
"1974-09-23 18:00","1974","09","23","18:00","8.3","","-0.6","","54","","27","","13","","40.2","","100.70","","","","","","Mostly Cloudy"
"1974-09-23 19:00","1974","09","23","19:00","7.2","","-1.7","","55","","28","","13","","25.0","","100.73","","","","","","Mostly Cloudy"
"1974-09-23 20:00","1974","09","23","20:00","6.1","","0.0","","65","","32","","6","","25.0","","100.75","","","","","","Mostly Cloudy"
"1974-09-23 21:00","1974","09","23","21:00","5.0","","0.6","","72","","28","","8","","25.0","","100.79","","","","","","Mainly Clear"
"1974-09-23 22:00","1974","09","23","22:00","2.8","","-0.6","","80","","28","","5","","25.0","","100.81","","","","","","Mainly Clear"
"1974-09-23 23:00","1974","09","23","23:00","3.9","","0.0","","74","","32","","5","","25.0","","100.79","","","","","","Mainly Clear"
"1974-09-24 00:00","1974","09","24","00:00","1.7","","-0.6","","84","","","","0","","25.0","","100.79","","","","","","Clear"
"1974-09-24 01:00","1974","09","24","01:00","0.6","","-1.1","","91","","","","0","","25.0","","100.81","","","","","","Clear"
"1974-09-24 02:00","1974","09","24","02:00","-1.1","","-2.2","","91","","","","0","","25.0","","100.81","","","","","","Clear"
"1974-09-24 03:00","1974","09","24","03:00","0.6","","-1.1","","89","","","","0","","25.0","","100.79","","","","","","Mainly Clear"
"1974-09-24 04:00","1974","09","24","04:00","-1.1","","-2.8","","90","","33","","11","","25.0","","100.80","","","","-5","","Clear"
"1974-09-24 05:00","1974","09","24","05:00","-1.1","","-1.7","","98","","34","","11","","25.0","","100.80","","","","-5","","Mainly Clear"
"1974-09-24 06:00","1974","09","24","06:00","-1.7","","-3.3","","90","","1","","6","","32.2","","100.80","","","","-4","","Mainly Clear"
"1974-09-24 07:00","1974","09","24","07:00","-0.6","","-2.2","","90","","","","0","","32.2","","100.82","","","","","","Mainly Clear"
"1974-09-24 08:00","1974","09","24","08:00","5.6","","1.1","","73","","","","0","","16.1","","100.76","","","","","","Mainly Clear"
"1974-09-24 09:00","1974","09","24","09:00","9.4","","2.2","","61","","19","","16","","16.1","","100.74","","","","","","Mostly Cloudy"
"1974-09-24 10:00","1974","09","24","10:00","12.8","","0.0","","42","","22","","23","","19.3","","100.65","","","","","","Mostly Cloudy"
"1974-09-24 11:00","1974","09","24","11:00","13.3","","1.7","","45","","21","","23","","24.1","","100.62","","","","","","Mostly Cloudy"
"1974-09-24 12:00","1974","09","24","12:00","13.3","","1.7","","45","","17","","32","","32.2","","100.50","","","","","","Mostly Cloudy"
"1974-09-24 13:00","1974","09","24","13:00","13.9","","1.1","","41","","19","","37","","32.2","","100.42","","","","","","Mostly Cloudy"
"1974-09-24 14:00","1974","09","24","14:00","13.3","","0.0","","40","","19","","32","","32.2","","100.35","","","","","","Mostly Cloudy"
"1974-09-24 15:00","1974","09","24","15:00","12.8","","1.1","","45","","17","","29","","32.2","","100.29","","","","","","Mostly Cloudy"
"1974-09-24 16:00","1974","09","24","16:00","12.8","","2.2","","50","","16","","23","","32.2","","100.20","","","","","","Mostly Cloudy"
"1974-09-24 17:00","1974","09","24","17:00","12.8","","2.2","","50","","18","","24","","32.2","","100.15","","","","","","Cloudy"
"1974-09-24 18:00","1974","09","24","18:00","12.2","","2.8","","53","","18","","19","","32.2","","100.10","","","","","","Cloudy"
"1974-09-24 19:00","1974","09","24","19:00","12.2","","1.7","","50","","18","","14","","25.0","","100.05","","","","","","Cloudy"
"1974-09-24 20:00","1974","09","24","20:00","11.1","","3.3","","58","","16","","10","","25.0","","100.00","","","","","","Rain"
"1974-09-24 21:00","1974","09","24","21:00","10.6","","4.4","","65","","16","","8","","25.0","","99.93","","","","","","Rain"
"1974-09-24 22:00","1974","09","24","22:00","10.6","","5.6","","71","","14","","13","","24.1","","99.79","","","","","","Rain"
"1974-09-24 23:00","1974","09","24","23:00","10.0","","6.1","","77","","17","","11","","25.0","","99.69","","","","","","Cloudy"
"1974-09-25 00:00","1974","09","25","00:00","10.0","","6.7","","78","","13","","13","","25.0","","99.55","","","","","","Cloudy"
"1974-09-25 01:00","1974","09","25","01:00","10.0","","6.7","","79","","14","","11","","25.0","","99.49","","","","","","Cloudy"
"1974-09-25 02:00","1974","09","25","02:00","10.0","","7.8","","87","","15","","10","","24.1","","99.39","","","","","","Rain"
"1974-09-25 03:00","1974","09","25","03:00","10.0","","7.2","","83","","15","","14","","24.1","","99.26","","","","","","Rain"
"1974-09-25 04:00","1974","09","25","04:00","10.0","","6.7","","81","","15","","16","","24.1","","99.08","","","","","","Cloudy"
"1974-09-25 05:00","1974","09","25","05:00","10.6","","7.2","","81","","16","","14","","24.1","","98.99","","","","","","Cloudy"
"1974-09-25 06:00","1974","09","25","06:00","11.1","","7.8","","78","","17","","19","","19.3","","98.82","","","","","","Cloudy"
"1974-09-25 07:00","1974","09","25","07:00","11.7","","8.3","","80","","19","","21","","19.3","","98.76","","","","","","Rain Showers"
"1974-09-25 08:00","1974","09","25","08:00","11.7","","9.4","","85","","21","","29","","8.0","","98.64","","","","","","Rain Showers,Fog"
"1974-09-25 09:00","1974","09","25","09:00","11.1","","10.0","","91","","23","","21","","6.4","","98.62","","","","","","Rain Showers,Fog"
"1974-09-25 10:00","1974","09","25","10:00","11.7","","9.4","","88","","23","","23","","12.9","","98.58","","","","","","Cloudy"
"1974-09-25 11:00","1974","09","25","11:00","12.8","","10.0","","83","","26","","23","","16.1","","98.56","","","","","","Rain Showers"
"1974-09-25 12:00","1974","09","25","12:00","15.0","","7.2","","60","","27","","29","","19.3","","98.52","","","","","","Mostly Cloudy"
"1974-09-25 13:00","1974","09","25","13:00","15.0","","11.7","","79","","28","","26","","32.2","","98.48","","","","","","Mainly Clear"
"1974-09-25 14:00","1974","09","25","14:00","14.4","","9.4","","72","","30","","35","","40.2","","98.52","","","","","","Mainly Clear"
"1974-09-25 15:00","1974","09","25","15:00","15.6","","8.3","","61","","32","","35","","40.2","","98.56","","","","","","Mostly Cloudy"
"1974-09-25 16:00","1974","09","25","16:00","14.4","","7.2","","62","","32","","39","","40.2","","98.62","","","","","","Rain Showers"
"1974-09-25 17:00","1974","09","25","17:00","13.3","","7.2","","65","","29","","27","","40.2","","98.68","","","","","","Mainly Clear"
"1974-09-25 18:00","1974","09","25","18:00","12.2","","6.1","","66","","30","","24","","40.2","","98.76","","","","","","Mainly Clear"
"1974-09-25 19:00","1974","09","25","19:00","11.1","","5.6","","69","","30","","24","","25.0","","98.78","","","","","","Mainly Clear"
"1974-09-25 20:00","1974","09","25","20:00","7.8","","5.6","","85","","29","","16","","25.0","","98.83","","","","","","Mainly Clear"
"1974-09-25 21:00","1974","09","25","21:00","7.8","","5.6","","86","","28","","18","","25.0","","98.84","","","","","","Mainly Clear"
"1974-09-25 22:00","1974","09","25","22:00","6.1","","5.0","","93","","29","","16","","25.0","","98.82","","","","","","Clear"
"1974-09-25 23:00","1974","09","25","23:00","6.1","","5.0","","94","","27","","14","","25.0","","98.82","","","","","","Clear"
"1974-09-26 00:00","1974","09","26","00:00","5.0","","3.9","","94","","26","","13","","25.0","","98.82","","","","","","Mainly Clear"
"1974-09-26 01:00","1974","09","26","01:00","3.9","","3.9","","98","","28","","10","","25.0","","98.83","","","","","","Mostly Cloudy"
"1974-09-26 02:00","1974","09","26","02:00","6.7","","5.6","","94","","29","","14","","25.0","","98.83","","","","","","Mostly Cloudy"
"1974-09-26 03:00","1974","09","26","03:00","7.2","","6.1","","92","","","","0","","25.0","","98.76","","","","","","Rain"
"1974-09-26 04:00","1974","09","26","04:00","7.2","","6.7","","94","","27","","10","","25.0","","98.77","","","","","","Mostly Cloudy"
"1974-09-26 05:00","1974","09","26","05:00","7.8","","6.7","","93","","","","0","","24.1","","98.78","","","","","","Rain"
"1974-09-26 06:00","1974","09","26","06:00","7.8","","6.7","","94","","","","0","","24.1","","98.77","","","","","","Mostly Cloudy"
"1974-09-26 07:00","1974","09","26","07:00","7.8","","6.7","","94","","","","0","","24.1","","98.81","","","","","","Mostly Cloudy"
"1974-09-26 08:00","1974","09","26","08:00","10.0","","7.8","","86","","","","0","","19.3","","98.76","","","","","","Mostly Cloudy"
"1974-09-26 09:00","1974","09","26","09:00","11.7","","8.3","","81","","16","","14","","19.3","","98.76","","","","","","Mainly Clear"
"1974-09-26 10:00","1974","09","26","10:00","15.6","","7.2","","57","","18","","23","","24.1","","98.67","","","","","","Mainly Clear"
"1974-09-26 11:00","1974","09","26","11:00","15.6","","7.8","","58","","16","","23","","24.1","","98.64","","","","","","Mainly Clear"
"1974-09-26 12:00","1974","09","26","12:00","19.4","","2.2","","32","","22","","26","","24.1","","98.56","","","","","","Mainly Clear"
"1974-09-26 13:00","1974","09","26","13:00","20.6","","3.3","","33","","20","","32","","40.2","","98.44","","","","","","Mainly Clear"
"1974-09-26 14:00","1974","09","26","14:00","22.2","","6.7","","37","","21","","37","","40.2","","98.35","","","","","","Clear"
"1974-09-26 15:00","1974","09","26","15:00","22.2","","9.4","","44","","21","","35","","32.2","","98.30","","","","","","Clear"
"1974-09-26 16:00","1974","09","26","16:00","22.2","","9.4","","45","","22","","40","","32.2","","98.28","","","","","","Clear"
"1974-09-26 17:00","1974","09","26","17:00","21.7","","10.6","","49","","23","","32","","24.1","","98.32","","","","","","Clear"
"1974-09-26 18:00","1974","09","26","18:00","19.4","","11.1","","59","","22","","26","","24.1","","98.38","","","","","","Mainly Clear"
"1974-09-26 19:00","1974","09","26","19:00","18.3","","11.1","","63","","22","","26","","19.3","","98.41","","","","","","Mostly Cloudy"
"1974-09-26 20:00","1974","09","26","20:00","17.2","","11.1","","66","","23","","19","","19.3","","98.48","","","","","","Mostly Cloudy"
"1974-09-26 21:00","1974","09","26","21:00","15.6","","11.1","","74","","24","","16","","19.3","","98.52","","","","","","Mainly Clear"
"1974-09-26 22:00","1974","09","26","22:00","15.0","","11.1","","78","","22","","18","","19.3","","98.54","","","","","","Mainly Clear"
"1974-09-26 23:00","1974","09","26","23:00","15.0","","11.7","","80","","22","","18","","19.3","","98.59","","","","","","Mainly Clear"
"1974-09-27 00:00","1974","09","27","00:00","13.9","","11.1","","83","","23","","11","","19.3","","98.66","","","","","","Clear"
"1974-09-27 01:00","1974","09","27","01:00","13.3","","11.1","","87","","22","","16","","16.1","","98.70","","","","","","Clear"
"1974-09-27 02:00","1974","09","27","02:00","13.9","","11.1","","84","","23","","19","","16.1","","98.71","","","","","","Clear"
"1974-09-27 03:00","1974","09","27","03:00","12.8","","11.1","","87","","23","","13","","16.1","","98.77","","","","","","Clear"
"1974-09-27 04:00","1974","09","27","04:00","12.8","","11.7","","93","","24","","18","","16.1","","98.81","","","","","","Clear"
"1974-09-27 05:00","1974","09","27","05:00","12.2","","10.0","","88","","24","","16","","16.1","","98.85","","","","","","Clear"
"1974-09-27 06:00","1974","09","27","06:00","12.2","","10.0","","88","","22","","11","","16.1","","98.91","","","","","","Clear"
"1974-09-27 07:00","1974","09","27","07:00","12.8","","10.6","","85","","19","","16","","12.9","","98.99","","","","","","Mainly Clear"
"1974-09-27 08:00","1974","09","27","08:00","15.6","","11.1","","74","","22","","18","","12.9","","99.04","","","","","","Mainly Clear"
"1974-09-27 09:00","1974","09","27","09:00","18.3","","11.7","","64","","23","","23","","12.9","","99.10","","","","","","Mainly Clear"
"1974-09-27 10:00","1974","09","27","10:00","20.0","","11.7","","58","","22","","29","","12.9","","99.10","","","","","","Mainly Clear"
"1974-09-27 11:00","1974","09","27","11:00","21.1","","12.2","","56","","22","","27","","12.9","","99.10","","","","","","Mainly Clear"
"1974-09-27 12:00","1974","09","27","12:00","22.8","","12.2","","51","","20","","27","","12.9","","99.08","","25","","","","Mainly Clear"
"1974-09-27 13:00","1974","09","27","13:00","22.2","","12.2","","52","","17","","31","","12.9","","99.03","","25","","","","Mainly Clear"
"1974-09-27 14:00","1974","09","27","14:00","22.8","","11.1","","48","","18","","29","","12.9","","99.02","","25","","","","Mainly Clear"
"1974-09-27 15:00","1974","09","27","15:00","23.3","","10.6","","44","","19","","23","","12.9","","99.00","","25","","","","Mainly Clear"
"1974-09-27 16:00","1974","09","27","16:00","22.2","","10.6","","47","","16","","29","","12.9","","98.97","","","","","","Mainly Clear"
"1974-09-27 17:00","1974","09","27","17:00","20.6","","10.6","","52","","16","","19","","9.7","","99.00","","","","","","Haze"
"1974-09-27 18:00","1974","09","27","18:00","18.9","","10.6","","59","","15","","13","","8.0","","99.01","","","","","","Haze"
"1974-09-27 19:00","1974","09","27","19:00","17.2","","10.6","","65","","17","","11","","8.0","","99.00","","","","","","Haze"
"1974-09-27 20:00","1974","09","27","20:00","16.1","","11.7","","76","","14","","16","","8.0","","99.05","","","","","","Haze"
"1974-09-27 21:00","1974","09","27","21:00","15.0","","11.7","","80","","13","","11","","8.0","","99.05","","","","","","Haze"
"1974-09-27 22:00","1974","09","27","22:00","15.6","","11.7","","79","","19","","5","","6.4","","99.04","","","","","","Haze"
"1974-09-27 23:00","1974","09","27","23:00","14.4","","11.7","","85","","19","","5","","6.4","","99.02","","","","","","Haze"
"1974-09-28 00:00","1974","09","28","00:00","15.0","","12.8","","87","","14","","10","","6.4","","99.00","","","","","","Rain,Fog"
"1974-09-28 01:00","1974","09","28","01:00","14.4","","13.3","","94","","23","","8","","3.2","","99.00","","","","","","Rain,Fog"
"1974-09-28 02:00","1974","09","28","02:00","14.4","","13.3","","95","","","","0","","3.2","","98.90","","","","","","Fog"
"1974-09-28 03:00","1974","09","28","03:00","14.4","","13.9","","97","","14","","10","","3.2","","98.86","","","","","","Drizzle,Fog"
"1974-09-28 04:00","1974","09","28","04:00","14.4","","13.9","","97","","12","","13","","1.2","","98.83","","","","","","Moderate Rain,Fog"
"1974-09-28 05:00","1974","09","28","05:00","13.9","","13.9","","99","","14","","13","","0.0","","98.83","","","","","","Rain,Fog"
"1974-09-28 06:00","1974","09","28","06:00","14.4","","13.9","","98","","13","","13","","0.0","","98.82","","","","","","Rain,Fog"
"1974-09-28 07:00","1974","09","28","07:00","15.0","","15.0","","98","","14","","14","","0.4","","98.83","","","","","","Rain,Fog"
"1974-09-28 08:00","1974","09","28","08:00","15.0","","15.0","","99","","16","","11","","0.6","","98.82","","","","","","Fog"
"1974-09-28 09:00","1974","09","28","09:00","16.1","","16.1","","99","","22","","13","","1.6","","98.86","","","","","","Fog"
"1974-09-28 10:00","1974","09","28","10:00","18.9","","17.2","","90","","24","","21","","4.0","","98.87","","","","","","Fog"
"1974-09-28 11:00","1974","09","28","11:00","20.6","","17.2","","82","","23","","26","","8.0","","98.87","","26","","","","Haze"
"1974-09-28 12:00","1974","09","28","12:00","21.1","","16.1","","74","","23","","23","","9.7","","98.88","","26","","","","Haze"
"1974-09-28 13:00","1974","09","28","13:00","21.1","","16.7","","75","","23","","26","","12.9","","98.82","","26","","","","Mostly Cloudy"
"1974-09-28 14:00","1974","09","28","14:00","21.7","","16.7","","74","","22","","23","","12.9","","98.79","","27","","","","Mostly Cloudy"
"1974-09-28 15:00","1974","09","28","15:00","22.2","","16.7","","71","","21","","23","","12.9","","98.76","","27","","","","Mainly Clear"
"1974-09-28 16:00","1974","09","28","16:00","21.1","","17.2","","78","","17","","21","","12.9","","98.75","","27","","","","Mostly Cloudy"
"1974-09-28 17:00","1974","09","28","17:00","20.6","","17.2","","82","","16","","16","","9.7","","98.74","","26","","","","Haze"
"1974-09-28 18:00","1974","09","28","18:00","18.3","","16.7","","90","","13","","11","","4.8","","98.71","","","","","","Haze"
"1974-09-28 19:00","1974","09","28","19:00","18.3","","16.7","","90","","16","","18","","6.4","","98.70","","","","","","Thunderstorms,Rain Showers,Fog"
"1974-09-28 20:00","1974","09","28","20:00","17.2","","17.2","","98","","17","","16","","3.2","","98.66","","","","","","Moderate Rain,Fog"
"1974-09-28 21:00","1974","09","28","21:00","17.2","","17.2","","99","","16","","11","","1.2","","98.59","","","","","","Rain,Fog"
"1974-09-28 22:00","1974","09","28","22:00","17.2","","16.7","","98","","12","","10","","1.6","","98.55","","","","","","Fog"
"1974-09-28 23:00","1974","09","28","23:00","16.7","","16.1","","99","","14","","11","","0.0","","98.48","","","","","","Fog"
"1974-09-29 00:00","1974","09","29","00:00","16.7","","16.7","","100","","14","","14","","0.0","","98.36","","","","","","Fog"
"1974-09-29 01:00","1974","09","29","01:00","16.1","","16.1","","99","","15","","13","","0.0","","98.29","","","","","","Fog"
"1974-09-29 02:00","1974","09","29","02:00","15.6","","15.6","","99","","18","","14","","1.6","","98.20","","","","","","Fog"
"1974-09-29 03:00","1974","09","29","03:00","16.1","","15.6","","99","","17","","11","","2.0","","98.10","","","","","","Fog"
"1974-09-29 04:00","1974","09","29","04:00","16.1","","15.6","","98","","15","","14","","1.6","","97.99","","","","","","Fog"
"1974-09-29 05:00","1974","09","29","05:00","16.1","","15.6","","98","","17","","10","","0.2","","97.92","","","","","","Fog"
"1974-09-29 06:00","1974","09","29","06:00","15.6","","15.6","","98","","14","","11","","1.2","","97.78","","","","","","Thunderstorms,Heavy Rain Showers,Fog"
"1974-09-29 07:00","1974","09","29","07:00","16.1","","15.6","","98","","15","","21","","1.6","","97.66","","","","","","Rain Showers,Fog"
"1974-09-29 08:00","1974","09","29","08:00","16.1","","16.1","","97","","18","","27","","4.8","","97.55","","","","","","Fog"
"1974-09-29 09:00","1974","09","29","09:00","18.3","","16.7","","91","","20","","31","","12.9","","97.47","","","","","","Mostly Cloudy"
"1974-09-29 10:00","1974","09","29","10:00","18.9","","16.7","","86","","22","","39","","19.3","","97.40","","","","","","Mostly Cloudy"
"1974-09-29 11:00","1974","09","29","11:00","17.2","","16.1","","94","","22","","29","","16.1","","97.38","","","","","","Rain Showers"
"1974-09-29 12:00","1974","09","29","12:00","17.8","","15.6","","88","","28","","45","","24.1","","97.43","","","","","","Rain Showers"
"1974-09-29 13:00","1974","09","29","13:00","13.9","","11.1","","85","","29","","45","","40.2","","97.60","","","","","","Mostly Cloudy"
"1974-09-29 14:00","1974","09","29","14:00","12.2","","9.4","","85","","29","","47","","40.2","","97.79","","","","","","Mostly Cloudy"
"1974-09-29 15:00","1974","09","29","15:00","11.7","","7.8","","76","","29","","68","","32.2","","97.98","","","","","","Mostly Cloudy"
"1974-09-29 16:00","1974","09","29","16:00","10.0","","6.7","","80","","30","","55","","32.2","","98.13","","","","","","Rain Showers"
"1974-09-29 17:00","1974","09","29","17:00","8.9","","6.1","","83","","29","","50","","32.2","","98.29","","","","","","Cloudy"
"1974-09-29 18:00","1974","09","29","18:00","8.3","","6.1","","86","","30","","48","","24.1","","98.40","","","","","","Rain Showers"
"1974-09-29 19:00","1974","09","29","19:00","8.9","","6.7","","88","","30","","37","","25.0","","98.54","","","","","","Rain Showers"
"1974-09-29 20:00","1974","09","29","20:00","8.3","","7.2","","92","","32","","35","","24.1","","98.68","","","","","","Rain"
"1974-09-29 21:00","1974","09","29","21:00","8.3","","6.7","","89","","30","","35","","25.0","","98.78","","","","","","Mostly Cloudy"
"1974-09-29 22:00","1974","09","29","22:00","8.3","","7.2","","94","","31","","40","","25.0","","98.86","","","","","","Mostly Cloudy"
"1974-09-29 23:00","1974","09","29","23:00","8.9","","5.6","","82","","30","","29","","25.0","","98.95","","","","","","Mostly Cloudy"
"1974-09-30 00:00","1974","09","30","00:00","7.2","","3.9","","80","","29","","18","","25.0","","98.98","","","","","","Mostly Cloudy"
"1974-09-30 01:00","1974","09","30","01:00","6.1","","3.9","","86","","28","","14","","25.0","","98.98","","","","","","Mainly Clear"
"1974-09-30 02:00","1974","09","30","02:00","8.3","","5.0","","79","","29","","29","","25.0","","98.98","","","","","","Mostly Cloudy"
"1974-09-30 03:00","1974","09","30","03:00","7.8","","5.0","","83","","32","","32","","25.0","","99.03","","","","","","Mostly Cloudy"
"1974-09-30 04:00","1974","09","30","04:00","6.7","","3.9","","82","","32","","19","","25.0","","99.04","","","","","","Mostly Cloudy"
"1974-09-30 05:00","1974","09","30","05:00","4.4","","3.3","","90","","28","","11","","25.0","","99.04","","","","","","Mainly Clear"
"1974-09-30 06:00","1974","09","30","06:00","4.4","","2.2","","86","","31","","14","","25.0","","99.05","","","","","","Mainly Clear"
"1974-09-30 07:00","1974","09","30","07:00","5.0","","2.2","","84","","33","","11","","40.2","","99.11","","","","","","Mostly Cloudy"
"1974-09-30 08:00","1974","09","30","08:00","6.7","","3.3","","80","","30","","13","","40.2","","99.09","","","","","","Mostly Cloudy"
"1974-09-30 09:00","1974","09","30","09:00","7.8","","2.8","","70","","31","","24","","40.2","","99.08","","","","","","Mostly Cloudy"
"1974-09-30 10:00","1974","09","30","10:00","8.9","","3.3","","68","","32","","19","","40.2","","99.09","","","","","","Mostly Cloudy"
"1974-09-30 11:00","1974","09","30","11:00","10.0","","2.2","","58","","35","","19","","40.2","","99.07","","","","","","Mostly Cloudy"
"1974-09-30 12:00","1974","09","30","12:00","11.1","","1.7","","53","","29","","14","","40.2","","99.06","","","","","","Mostly Cloudy"
"1974-09-30 13:00","1974","09","30","13:00","12.2","","2.2","","51","","36","","19","","40.2","","99.04","","","","","","Mostly Cloudy"
"1974-09-30 14:00","1974","09","30","14:00","12.8","","3.3","","53","","36","","18","","40.2","","99.03","","","","","","Mostly Cloudy"
"1974-09-30 15:00","1974","09","30","15:00","12.2","","2.2","","50","","32","","11","","40.2","","99.07","","","","","","Mainly Clear"
"1974-09-30 16:00","1974","09","30","16:00","12.2","","2.8","","53","","1","","21","","40.2","","99.09","","","","","","Mostly Cloudy"
"1974-09-30 17:00","1974","09","30","17:00","10.6","","1.1","","52","","1","","32","","40.2","","99.16","","","","","","Mostly Cloudy"
"1974-09-30 18:00","1974","09","30","18:00","8.9","","0.6","","55","","1","","26","","40.2","","99.23","","","","","","Mostly Cloudy"
"1974-09-30 19:00","1974","09","30","19:00","7.2","","0.6","","62","","36","","24","","25.0","","99.30","","","","","","Mainly Clear"
"1974-09-30 20:00","1974","09","30","20:00","6.7","","1.1","","69","","35","","23","","25.0","","99.37","","","","","","Mainly Clear"
"1974-09-30 21:00","1974","09","30","21:00","3.9","","0.0","","78","","34","","13","","25.0","","99.45","","","","","","Mainly Clear"
"1974-09-30 22:00","1974","09","30","22:00","2.8","","1.1","","87","","31","","14","","25.0","","99.46","","","","","","Mostly Cloudy"
"1974-09-30 23:00","1974","09","30","23:00","3.3","","0.0","","80","","31","","10","","25.0","","99.48","","","","","","Mostly Cloudy"
