"Station Name","TORONTO LESTER B. PEARSON INT'L A"
"Province","ONTARIO"
"Latitude","43.68"
"Longitude","-79.63"
"Elevation","173.40"
"Climate Identifier","6158733"
"WMO Identifier","71624"
"TC Identifier","YYZ"
"All times are specified in Local Standard Time (LST). Add 1 hour to adjust for Daylight Saving Time where and when it is observed."

"Legend"
"E","Estimated"
"M","Missing"
"NA","Not Available"

"Date/Time","Year","Month","Day","Time","Temp (°C)","Temp Flag","Dew Point Temp (°C)","Dew Point Temp Flag","Rel Hum (%)","Rel Hum Flag","Wind Dir (10s deg)","Wind Dir Flag","Wind Spd (km/h)","Wind Spd Flag","Visibility (km)","Visibility Flag","Stn Press (kPa)","Stn Press Flag","Hmdx","Hmdx Flag","Wind Chill","Wind Chill Flag","Weather"
"2006-04-01 00:00","2006","04","01","00:00","13.5","","11.1","","85","","21","","19","","16.1","","98.41","","","","","","Rain"
"2006-04-01 01:00","2006","04","01","01:00","13.3","","11.3","","88","","20","","24","","19.3","","98.26","","","","","","Rain"
"2006-04-01 02:00","2006","04","01","02:00","13.5","","11.2","","86","","22","","30","","19.3","","98.17","","","","","","Rain"
"2006-04-01 03:00","2006","04","01","03:00","10.9","","9.2","","89","","27","","46","","16.1","","98.20","","","","","","Rain"
"2006-04-01 04:00","2006","04","01","04:00","9.4","","6.9","","84","","27","","39","","24.1","","98.25","","","","","","Mostly Cloudy"
"2006-04-01 05:00","2006","04","01","05:00","8.6","","5.8","","83","","28","","28","","24.1","","98.29","","","","","","Mostly Cloudy"
"2006-04-01 06:00","2006","04","01","06:00","8.9","","5.7","","80","","27","","26","","24.1","","98.38","","","","","","Cloudy"
"2006-04-01 07:00","2006","04","01","07:00","8.7","","5.5","","80","","27","","28","","24.1","","98.41","","","","","","Cloudy"
"2006-04-01 08:00","2006","04","01","08:00","8.7","","5.3","","79","","28","","37","","24.1","","98.50","","","","","","Cloudy"
"2006-04-01 09:00","2006","04","01","09:00","8.9","","4.8","","75","","27","","41","","24.1","","98.54","","","","","","Mostly Cloudy"
"2006-04-01 10:00","2006","04","01","10:00","10.6","","6.2","","74","","27","","46","","24.1","","98.61","","","","","","Mostly Cloudy"
"2006-04-01 11:00","2006","04","01","11:00","10.4","","6.3","","76","","28","","43","","24.1","","98.67","","","","","","Cloudy"
"2006-04-01 12:00","2006","04","01","12:00","11.1","","6.9","","75","","29","","50","","24.1","","98.77","","","","","","Mostly Cloudy"
"2006-04-01 13:00","2006","04","01","13:00","11.0","","6.6","","74","","29","","54","","24.1","","98.86","","","","","","Cloudy"
"2006-04-01 14:00","2006","04","01","14:00","9.5","","5.7","","77","","31","","43","","24.1","","98.99","","","","","","Cloudy"
"2006-04-01 15:00","2006","04","01","15:00","9.0","","5.2","","77","","29","","37","","24.1","","99.11","","","","","","Cloudy"
"2006-04-01 16:00","2006","04","01","16:00","8.8","","4.5","","74","","32","","37","","24.1","","99.20","","","","","","Cloudy"
"2006-04-01 17:00","2006","04","01","17:00","7.1","","3.6","","78","","31","","35","","24.1","","99.33","","","","","","Cloudy"
"2006-04-01 18:00","2006","04","01","18:00","6.8","","3.0","","77","","34","","32","","24.1","","99.45","","","","","","Cloudy"
"2006-04-01 19:00","2006","04","01","19:00","6.5","","2.0","","73","","34","","33","","24.1","","99.53","","","","","","Mostly Cloudy"
"2006-04-01 20:00","2006","04","01","20:00","5.9","","1.2","","72","","35","","24","","24.1","","99.61","","","","","","Mostly Cloudy"
"2006-04-01 21:00","2006","04","01","21:00","5.5","","0.8","","72","","35","","32","","24.1","","99.70","","","","","","Mostly Cloudy"
"2006-04-01 22:00","2006","04","01","22:00","5.1","","0.6","","73","","35","","20","","24.1","","99.79","","","","","","Mostly Cloudy"
"2006-04-01 23:00","2006","04","01","23:00","4.0","","-0.3","","74","","1","","24","","24.1","","99.83","","","","","","Mainly Clear"
"2006-04-02 00:00","2006","04","02","00:00","2.4","","-1.0","","78","","36","","11","","24.1","","99.89","","","","","","Clear"
"2006-04-02 01:00","2006","04","02","01:00","2.4","","-1.5","","75","","33","","7","","24.1","","99.91","","","","","","Clear"
"2006-04-02 02:00","2006","04","02","02:00","1.8","","-1.7","","78","","28","","6","","24.1","","99.94","","","","","","Clear"
"2006-04-02 03:00","2006","04","02","03:00","1.0","","-2.8","","76","","31","","7","","24.1","","99.93","","","","","","Clear"
"2006-04-02 04:00","2006","04","02","04:00","0.6","","-3.5","","74","","34","","13","","24.1","","99.96","","","","","","Clear"
"2006-04-02 05:00","2006","04","02","05:00","0.4","","-3.2","","77","","33","","9","","24.1","","99.99","","","","","","Clear"
"2006-04-02 06:00","2006","04","02","06:00","0.2","","-3.2","","78","","35","","11","","24.1","","100.11","","","","","","Clear"
"2006-04-02 07:00","2006","04","02","07:00","0.5","","-2.3","","81","","1","","4","","24.1","","100.07","","","","","","Clear"
"2006-04-02 08:00","2006","04","02","08:00","2.3","","-1.2","","78","","1","","9","","24.1","","100.14","","","","","","Clear"
"2006-04-02 09:00","2006","04","02","09:00","4.4","","-0.2","","72","","7","","4","","24.1","","100.16","","","","","","Clear"
"2006-04-02 10:00","2006","04","02","10:00","6.8","","-2.1","","53","","18","","6","","24.1","","100.13","","","","","","Clear"
"2006-04-02 11:00","2006","04","02","11:00","7.7","","-4.9","","40","","23","","9","E","24.1","","100.07","","","","","","Mainly Clear"
"2006-04-02 12:00","2006","04","02","12:00","8.3","","-3.9","","42","","14","","7","E","24.1","","100.05","","","","","","Mainly Clear"
"2006-04-02 13:00","2006","04","02","13:00","9.3","","-4.8","","37","","14","","13","","24.1","","99.93","","","","","","Mainly Clear"
"2006-04-02 14:00","2006","04","02","14:00","8.9","","-5.5","","36","","15","","15","","24.1","","99.84","","","","","","Mostly Cloudy"
"2006-04-02 15:00","2006","04","02","15:00","8.9","","-6.4","","33","","14","","13","","24.1","","99.82","","","","","","Mostly Cloudy"
"2006-04-02 16:00","2006","04","02","16:00","9.3","","-7.2","","30","","13","","11","","24.1","","99.70","","","","","","Mostly Cloudy"
"2006-04-02 17:00","2006","04","02","17:00","9.0","","-9.6","","26","","9","","15","","24.1","","99.60","","","","","","Mostly Cloudy"
"2006-04-02 18:00","2006","04","02","18:00","7.9","","-12.3","","22","","9","","15","","24.1","","99.58","","","","","","Mostly Cloudy"
"2006-04-02 19:00","2006","04","02","19:00","6.4","","-13.4","","23","","9","","19","","24.1","","99.58","","","","","","Mostly Cloudy"
"2006-04-02 20:00","2006","04","02","20:00","5.7","","-11.8","","27","","10","","17","","24.1","","99.48","","","","","","Mostly Cloudy"
"2006-04-02 21:00","2006","04","02","21:00","6.2","","-9.6","","31","","10","","26","","24.1","","99.37","","","","","","Mostly Cloudy"
"2006-04-02 22:00","2006","04","02","22:00","5.7","","-7.1","","39","","10","","20","","24.1","","99.34","","","","","","Mostly Cloudy"
"2006-04-02 23:00","2006","04","02","23:00","5.8","","-5.6","","44","","9","","22","","24.1","","99.20","","","","","","Mostly Cloudy"
"2006-04-03 00:00","2006","04","03","00:00","6.3","","-4.8","","45","","10","","30","","24.1","","99.05","","","","","","Mostly Cloudy"
"2006-04-03 01:00","2006","04","03","01:00","6.3","","-4.6","","46","","11","","30","","24.1","","98.92","","","","","","Mostly Cloudy"
"2006-04-03 02:00","2006","04","03","02:00","6.2","","-3.3","","51","","9","","20","","24.1","","98.79","","","","","","Cloudy"
"2006-04-03 03:00","2006","04","03","03:00","5.8","","-1.6","","59","","9","","17","","24.1","","98.64","","","","","","Rain"
"2006-04-03 04:00","2006","04","03","04:00","5.3","","-0.9","","64","","10","","17","","19.3","","98.53","","","","","","Rain"
"2006-04-03 05:00","2006","04","03","05:00","4.7","","-0.8","","67","","9","","19","","19.3","","98.39","","","","","","Rain"
"2006-04-03 06:00","2006","04","03","06:00","4.4","","0.0","","73","","9","","17","","12.9","","98.32","","","","","","Rain"
"2006-04-03 07:00","2006","04","03","07:00","4.4","","2.4","","87","","10","","19","","8.0","","98.23","","","","","","Rain,Fog"
"2006-04-03 08:00","2006","04","03","08:00","5.2","","3.2","","87","","10","","19","","8.0","","98.17","","","","","","Drizzle,Fog"
"2006-04-03 09:00","2006","04","03","09:00","6.2","","4.6","","89","","13","","11","","11.3","","98.13","","","","","","Cloudy"
"2006-04-03 10:00","2006","04","03","10:00","9.0","","7.2","","88","","10","","13","","19.3","","98.01","","","","","","Mostly Cloudy"
"2006-04-03 11:00","2006","04","03","11:00","11.8","","8.3","","79","","14","","9","","19.3","","97.95","","","","","","Mostly Cloudy"
"2006-04-03 12:00","2006","04","03","12:00","14.0","","9.6","","75","","15","","13","","19.3","","97.84","","","","","","Mostly Cloudy"
"2006-04-03 13:00","2006","04","03","13:00","14.2","","9.7","","74","","10","","15","","24.1","","97.64","","","","","","Mostly Cloudy"
"2006-04-03 14:00","2006","04","03","14:00","12.8","","8.4","","75","","13","","15","","12.9","","97.55","","","","","","Thunderstorms,Rain Showers"
"2006-04-03 15:00","2006","04","03","15:00","11.2","","8.8","","85","","11","","20","","8.0","","97.48","","","","","","Haze"
"2006-04-03 16:00","2006","04","03","16:00","9.8","","8.0","","89","","13","","11","","16.1","","97.52","","","","","","Cloudy"
"2006-04-03 17:00","2006","04","03","17:00","10.7","","8.7","","87","","18","","17","","24.1","","97.52","","","","","","Mostly Cloudy"
"2006-04-03 18:00","2006","04","03","18:00","11.1","","8.7","","85","","24","","24","","24.1","","97.61","","","","","","Cloudy"
"2006-04-03 19:00","2006","04","03","19:00","5.8","","3.2","","83","","30","","46","","24.1","","97.80","","","","","","Mostly Cloudy"
"2006-04-03 20:00","2006","04","03","20:00","4.8","","1.3","","78","","31","","50","","24.1","","97.96","","","","","","Cloudy"
"2006-04-03 21:00","2006","04","03","21:00","4.3","","0.1","","74","","30","","46","","24.1","","98.13","","","","","","Cloudy"
"2006-04-03 22:00","2006","04","03","22:00","4.3","","-0.1","","73","","30","","41","","24.1","","98.28","","","","","","Cloudy"
"2006-04-03 23:00","2006","04","03","23:00","3.7","","-0.5","","74","","29","","37","","24.1","","98.42","","","","","","Cloudy"
"2006-04-04 00:00","2006","04","04","00:00","3.1","","-1.1","","74","","30","","41","","24.1","","98.45","","","","","","Cloudy"
"2006-04-04 01:00","2006","04","04","01:00","2.5","","-2.1","","72","","31","","43","","24.1","","98.55","","","","","","Mostly Cloudy"
"2006-04-04 02:00","2006","04","04","02:00","2.4","","-3.2","","66","","31","","43","","24.1","","98.59","","","","","","Mostly Cloudy"
"2006-04-04 03:00","2006","04","04","03:00","1.9","","-3.7","","66","","32","","44","","24.1","","98.63","","","","","","Cloudy"
"2006-04-04 04:00","2006","04","04","04:00","0.8","","-4.9","","66","","32","","39","","24.1","","98.67","","","","","","Mainly Clear"
"2006-04-04 05:00","2006","04","04","05:00","0.2","","-5.2","","67","","32","","33","","24.1","","98.76","","","","","","Mainly Clear"
"2006-04-04 06:00","2006","04","04","06:00","1.2","","-4.8","","64","","32","","33","","24.1","","98.82","","","","","","Mostly Cloudy"
"2006-04-04 07:00","2006","04","04","07:00","1.3","","-4.8","","64","","31","","30","","24.1","","98.86","","","","","","Mostly Cloudy"
"2006-04-04 08:00","2006","04","04","08:00","2.6","","-4.0","","62","","30","","33","","24.1","","98.84","","","","","","Mainly Clear"
"2006-04-04 09:00","2006","04","04","09:00","3.5","","-4.9","","54","","29","","37","","24.1","","98.81","","","","","","Clear"
"2006-04-04 10:00","2006","04","04","10:00","4.9","","-4.5","","51","","29","","39","","24.1","","98.79","","","","","","Mainly Clear"
"2006-04-04 11:00","2006","04","04","11:00","4.9","","-4.7","","50","","28","","28","","24.1","","98.75","","","","","","Mostly Cloudy"
"2006-04-04 12:00","2006","04","04","12:00","5.2","","-5.1","","47","","27","","37","","24.1","","98.68","","","","","","Cloudy"
"2006-04-04 13:00","2006","04","04","13:00","5.3","","-5.1","","47","","26","","33","","24.1","","98.60","","","","","","Cloudy"
"2006-04-04 14:00","2006","04","04","14:00","6.6","","-5.1","","43","","27","","28","","24.1","","98.48","","","","","","Mostly Cloudy"
"2006-04-04 15:00","2006","04","04","15:00","3.3","","-1.5","","71","","27","","30","","16.1","","98.52","","","","","","Rain,Snow"
"2006-04-04 16:00","2006","04","04","16:00","1.2","","-5.6","","60","","31","","39","","24.1","","98.62","","","","","","Cloudy"
"2006-04-04 17:00","2006","04","04","17:00","0.5","","-10.0","","45","","31","","44","","24.1","","98.65","","","","","","Mostly Cloudy"
"2006-04-04 18:00","2006","04","04","18:00","-1.0","","-7.1","","63","","31","","22","","24.1","","98.68","","","","-7","","Mainly Clear"
"2006-04-04 19:00","2006","04","04","19:00","-1.1","","-8.8","","56","","30","","33","","24.1","","98.69","","","","-8","","Mostly Cloudy"
"2006-04-04 20:00","2006","04","04","20:00","-1.9","","-7.9","","63","","27","","17","","24.1","","98.65","","","","-7","","Mostly Cloudy"
"2006-04-04 21:00","2006","04","04","21:00","-1.7","","-8.1","","62","","28","","28","","24.1","","98.63","","","","-8","","Mostly Cloudy"
"2006-04-04 22:00","2006","04","04","22:00","-2.0","","-7.5","","66","","26","","20","","24.1","","98.55","","","","-8","","Mostly Cloudy"
"2006-04-04 23:00","2006","04","04","23:00","-2.0","","-6.7","","70","","26","","22","","24.1","","98.49","","","","-8","","Mostly Cloudy"
"2006-04-05 00:00","2006","04","05","00:00","-2.6","","-6.7","","73","","31","","22","","24.1","","98.48","","","","-9","","Mostly Cloudy"
"2006-04-05 01:00","2006","04","05","01:00","-2.8","","-6.6","","75","","32","","22","","24.1","","98.49","","","","-9","","Mainly Clear"
"2006-04-05 02:00","2006","04","05","02:00","-2.8","","-6.2","","77","","35","","30","","24.1","","98.53","","","","-10","","Mostly Cloudy"
"2006-04-05 03:00","2006","04","05","03:00","-3.2","","-5.9","","82","","35","","15","","24.1","","98.55","","","","-8","","Clear"
"2006-04-05 04:00","2006","04","05","04:00","-1.3","","-5.0","","76","","34","","30","","24.1","","98.60","","","","-8","","Mostly Cloudy"
"2006-04-05 05:00","2006","04","05","05:00","-1.4","","-4.7","","78","","32","","22","","24.1","","98.66","","","","-7","","Mostly Cloudy"
"2006-04-05 06:00","2006","04","05","06:00","-0.9","","-4.7","","75","","30","","19","","24.1","","98.73","","","","-6","","Mostly Cloudy"
"2006-04-05 07:00","2006","04","05","07:00","-0.6","","-5.2","","71","","29","","22","","24.1","","98.78","","","","-6","","Mostly Cloudy"
"2006-04-05 08:00","2006","04","05","08:00","-0.2","","-5.2","","69","","25","","11","","24.1","","98.78","","","","-4","","Cloudy"
"2006-04-05 09:00","2006","04","05","09:00","0.8","","-3.9","","71","","27","","19","","24.1","","98.75","","","","","","Cloudy"
"2006-04-05 10:00","2006","04","05","10:00","2.1","","-2.7","","70","","27","","28","","9.7","","98.76","","","","","","Snow Showers"
"2006-04-05 11:00","2006","04","05","11:00","2.0","","-1.2","","79","","27","","20","","2.4","","98.76","","","","","","Snow Showers"
"2006-04-05 12:00","2006","04","05","12:00","2.6","","0.7","","87","","29","","20","","16.1","","98.73","","","","","","Rain,Snow"
"2006-04-05 13:00","2006","04","05","13:00","3.7","","0.6","","80","","30","","26","","19.3","","98.74","","","","","","Rain"
"2006-04-05 14:00","2006","04","05","14:00","3.4","","-0.5","","76","","35","","24","","24.1","","98.74","","","","","","Cloudy"
"2006-04-05 15:00","2006","04","05","15:00","3.7","","-0.9","","72","","35","","24","","24.1","","98.77","","","","","","Cloudy"
"2006-04-05 16:00","2006","04","05","16:00","3.6","","-1.5","","69","","35","","26","","24.1","","98.80","","","","","","Cloudy"
"2006-04-05 17:00","2006","04","05","17:00","3.2","","-2.3","","67","","35","","33","","24.1","","98.87","","","","","","Mostly Cloudy"
"2006-04-05 18:00","2006","04","05","18:00","3.4","","-1.6","","70","","36","","19","","24.1","","98.92","","","","","","Mostly Cloudy"
"2006-04-05 19:00","2006","04","05","19:00","2.8","","-1.4","","74","","36","","13","","24.1","","98.95","","","","","","Cloudy"
"2006-04-05 20:00","2006","04","05","20:00","3.0","","-2.0","","70","","31","","33","","24.1","","99.01","","","","","","Mostly Cloudy"
"2006-04-05 21:00","2006","04","05","21:00","3.2","","-1.5","","71","","31","","22","","24.1","","99.04","","","","","","Mostly Cloudy"
"2006-04-05 22:00","2006","04","05","22:00","3.2","","-1.1","","73","","31","","17","","24.1","","99.05","","","","","","Mostly Cloudy"
"2006-04-05 23:00","2006","04","05","23:00","3.5","","-0.6","","74","","31","","20","","24.1","","99.05","","","","","","Mostly Cloudy"
"2006-04-06 00:00","2006","04","06","00:00","3.6","","-0.4","","75","","31","","17","","24.1","","99.07","","","","","","Mostly Cloudy"
"2006-04-06 01:00","2006","04","06","01:00","3.5","","-0.3","","76","","31","","20","","24.1","","99.08","","","","","","Mostly Cloudy"
"2006-04-06 02:00","2006","04","06","02:00","3.7","","-0.2","","76","","31","","17","","24.1","","99.06","","","","","","Mostly Cloudy"
"2006-04-06 03:00","2006","04","06","03:00","2.7","","-0.9","","77","","30","","17","","24.1","","99.08","","","","","","Mainly Clear"
"2006-04-06 04:00","2006","04","06","04:00","1.9","","-1.3","","79","","29","","17","","24.1","","99.13","","","","","","Mainly Clear"
"2006-04-06 05:00","2006","04","06","05:00","2.7","","-0.7","","78","","29","","17","","24.1","","99.18","","","","","","Mostly Cloudy"
"2006-04-06 06:00","2006","04","06","06:00","1.6","","-1.5","","80","","28","","13","","24.1","","99.18","","","","","","Clear"
"2006-04-06 07:00","2006","04","06","07:00","3.0","","0.3","","82","","29","","17","","24.1","","99.22","","","","","","Clear"
"2006-04-06 08:00","2006","04","06","08:00","5.2","","1.5","","77","","31","","17","","24.1","","99.23","","","","","","Clear"
"2006-04-06 09:00","2006","04","06","09:00","6.2","","0.2","","65","","31","","19","","24.1","","99.23","","","","","","Mainly Clear"
"2006-04-06 10:00","2006","04","06","10:00","7.6","","0.4","","60","","31","","17","","24.1","","99.23","","","","","","Mainly Clear"
"2006-04-06 11:00","2006","04","06","11:00","9.6","","0.4","","53","","32","","17","","24.1","","99.25","","","","","","Mainly Clear"
"2006-04-06 12:00","2006","04","06","12:00","10.7","","0.2","","48","","31","","15","","24.1","","99.19","","","","","","Mainly Clear"
"2006-04-06 13:00","2006","04","06","13:00","12.0","","-0.1","","43","","31","","15","","24.1","","99.12","","","","","","Mainly Clear"
"2006-04-06 14:00","2006","04","06","14:00","12.8","","0.1","","42","","31","","13","","24.1","","99.08","","","","","","Mainly Clear"
"2006-04-06 15:00","2006","04","06","15:00","13.7","","-0.6","","37","","32","","24","","24.1","","99.02","","","","","","Mainly Clear"
"2006-04-06 16:00","2006","04","06","16:00","13.4","","1.6","","45","","23","","4","","24.1","","98.92","","","","","","Mainly Clear"
"2006-04-06 17:00","2006","04","06","17:00","11.7","","-0.1","","44","","15","","19","","24.1","","98.90","","","","","","Mostly Cloudy"
"2006-04-06 18:00","2006","04","06","18:00","10.6","","0.1","","48","","16","","11","","24.1","","98.93","","","","","","Mainly Clear"
"2006-04-06 19:00","2006","04","06","19:00","10.0","","0.5","","52","","19","","15","","24.1","","98.91","","","","","","Mainly Clear"
"2006-04-06 20:00","2006","04","06","20:00","9.5","","0.6","","54","","22","","26","","24.1","","98.92","","","","","","Mainly Clear"
"2006-04-06 21:00","2006","04","06","21:00","8.6","","0.5","","57","","24","","15","","24.1","","98.90","","","","","","Mostly Cloudy"
"2006-04-06 22:00","2006","04","06","22:00","8.3","","0.1","","56","","24","","11","","24.1","","98.79","","","","","","Mostly Cloudy"
"2006-04-06 23:00","2006","04","06","23:00","8.6","","-0.3","","54","","24","","6","","24.1","","98.72","","","","","","Mostly Cloudy"
"2006-04-07 00:00","2006","04","07","00:00","8.5","","-0.2","","54","","18","","6","","24.1","","98.67","","","","","","Mostly Cloudy"
"2006-04-07 01:00","2006","04","07","01:00","7.7","","0.5","","60","","14","","6","","24.1","","98.63","","","","","","Mostly Cloudy"
"2006-04-07 02:00","2006","04","07","02:00","7.2","","1.2","","66","","13","","4","","24.1","","98.53","","","","","","Mostly Cloudy"
"2006-04-07 03:00","2006","04","07","03:00","7.0","","0.4","","63","","18","","4","","24.1","","98.44","","","","","","Mostly Cloudy"
"2006-04-07 04:00","2006","04","07","04:00","7.1","","0.6","","63","","8","","6","","24.1","","98.34","","","","","","Mostly Cloudy"
"2006-04-07 05:00","2006","04","07","05:00","6.9","","0.2","","62","","14","","6","","24.1","","98.26","","","","","","Mostly Cloudy"
"2006-04-07 06:00","2006","04","07","06:00","6.5","","-0.4","","61","","11","","7","","19.3","","98.15","","","","","","Cloudy"
"2006-04-07 07:00","2006","04","07","07:00","6.7","","0.6","","65","","11","","7","","19.3","","98.10","","","","","","Cloudy"
"2006-04-07 08:00","2006","04","07","08:00","6.0","","2.7","","79","","11","","7","","11.3","","98.09","","","","","","Rain"
"2006-04-07 09:00","2006","04","07","09:00","5.5","","3.5","","87","","5","","6","","6.4","","98.10","","","","","","Rain,Fog"
"2006-04-07 10:00","2006","04","07","10:00","5.8","","4.5","","91","","3","","11","","8.0","","97.97","","","","","","Rain,Fog"
"2006-04-07 11:00","2006","04","07","11:00","6.0","","5.0","","93","","2","","11","","4.8","","97.99","","","","","","Rain,Fog"
"2006-04-07 12:00","2006","04","07","12:00","6.1","","5.0","","93","","3","","17","","6.4","","97.90","","","","","","Rain,Fog"
"2006-04-07 13:00","2006","04","07","13:00","6.7","","4.8","","88","","36","","19","","11.3","","97.94","","","","","","Rain"
"2006-04-07 14:00","2006","04","07","14:00","6.4","","4.7","","89","","1","","20","","9.7","","97.91","","","","","","Rain"
"2006-04-07 15:00","2006","04","07","15:00","6.2","","4.6","","89","","36","","22","","6.4","","98.05","","","","","","Rain,Fog"
"2006-04-07 16:00","2006","04","07","16:00","5.6","","4.0","","89","","35","","30","","11.3","","98.14","","","","","","Rain"
"2006-04-07 17:00","2006","04","07","17:00","4.0","","2.3","","89","","36","","28","","24.1","","98.28","","","","","","Rain"
"2006-04-07 18:00","2006","04","07","18:00","2.5","","0.6","","87","","1","","32","","24.1","","98.47","","","","","","Rain"
"2006-04-07 19:00","2006","04","07","19:00","2.4","","0.1","","85","","1","","22","","24.1","","98.57","","","","","","Rain"
"2006-04-07 20:00","2006","04","07","20:00","2.2","","-0.4","","83","","3","","13","","24.1","","98.68","","","","","","Cloudy"
"2006-04-07 21:00","2006","04","07","21:00","2.4","","0.2","","85","","34","","7","","24.1","","98.76","","","","","","Cloudy"
"2006-04-07 22:00","2006","04","07","22:00","2.5","","-1.5","","75","","36","","26","","24.1","","98.78","","","","","","Mostly Cloudy"
"2006-04-07 23:00","2006","04","07","23:00","1.4","","-4.0","","67","","35","","32","","24.1","","98.83","","","","","","Mostly Cloudy"
"2006-04-08 00:00","2006","04","08","00:00","0.5","","-6.3","","60","","36","","33","","24.1","","98.97","","","","","","Mainly Clear"
"2006-04-08 01:00","2006","04","08","01:00","-0.2","","-7.2","","59","","1","","26","","24.1","","99.03","","","","-6","","Mainly Clear"
"2006-04-08 02:00","2006","04","08","02:00","-1.4","","-7.5","","63","","36","","24","","24.1","","99.07","","","","-8","","Clear"
"2006-04-08 03:00","2006","04","08","03:00","-2.0","","-8.8","","60","","2","","22","","24.1","","99.18","","","","-8","","Clear"
"2006-04-08 04:00","2006","04","08","04:00","-2.8","","-9.4","","60","","1","","24","","24.1","","99.31","","","","-9","","Mainly Clear"
"2006-04-08 05:00","2006","04","08","05:00","-3.5","","-10.1","","60","","1","","22","","24.1","","99.33","","","","-10","","Mainly Clear"
"2006-04-08 06:00","2006","04","08","06:00","-4.2","","-9.6","","66","","36","","22","","24.1","","99.38","","","","-11","","Mainly Clear"
"2006-04-08 07:00","2006","04","08","07:00","-3.9","","-10.0","","63","","2","","28","","24.1","","99.49","","","","-11","","Clear"
"2006-04-08 08:00","2006","04","08","08:00","-2.8","","-9.2","","61","","3","","26","","24.1","","99.55","","","","-10","","Clear"
"2006-04-08 09:00","2006","04","08","09:00","-2.1","","-9.4","","57","","2","","20","","24.1","","99.66","","","","-8","","Clear"
"2006-04-08 10:00","2006","04","08","10:00","-1.3","","-9.0","","56","","4","","17","","24.1","","99.67","","","","-6","","Clear"
"2006-04-08 11:00","2006","04","08","11:00","1.1","","-7.5","","53","","34","","22","","24.1","","99.68","","","","","","Clear"
"2006-04-08 12:00","2006","04","08","12:00","1.7","","-7.6","","50","","1","","13","","24.1","","99.66","","","","","","Clear"
"2006-04-08 13:00","2006","04","08","13:00","2.9","","-7.6","","46","","32","","15","","24.1","","99.68","","","","","","Clear"
"2006-04-08 14:00","2006","04","08","14:00","3.2","","-6.8","","48","","34","","24","","24.1","","99.65","","","","","","Clear"
"2006-04-08 15:00","2006","04","08","15:00","4.2","","-5.4","","50","","36","","28","","24.1","","99.66","","","","","","Clear"
"2006-04-08 16:00","2006","04","08","16:00","4.2","","-4.7","","52","","36","","17","","24.1","","99.71","","","","","","Mainly Clear"
"2006-04-08 17:00","2006","04","08","17:00","3.7","","-4.5","","55","","1","","22","","24.1","","99.79","","","","","","Mainly Clear"
"2006-04-08 18:00","2006","04","08","18:00","2.3","","-5.2","","58","","1","","28","","24.1","","99.86","","","","","","Clear"
"2006-04-08 19:00","2006","04","08","19:00","1.1","","-6.4","","57","","36","","22","","24.1","","99.91","","","","","","Clear"
"2006-04-08 20:00","2006","04","08","20:00","0.2","","-6.8","","59","","36","","28","","24.1","","99.98","","","","","","Clear"
"2006-04-08 21:00","2006","04","08","21:00","-0.5","","-7.0","","61","","36","","19","","24.1","","100.04","","","","-6","","Clear"
"2006-04-08 22:00","2006","04","08","22:00","-0.4","","-7.1","","61","","32","","22","","24.1","","100.05","","","","-6","","Clear"
"2006-04-08 23:00","2006","04","08","23:00","-0.6","","-7.2","","61","","34","","17","","24.1","","100.06","","","","-6","","Clear"
"2006-04-09 00:00","2006","04","09","00:00","-1.2","","-6.9","","65","","34","","17","","24.1","","100.08","","","","-6","","Clear"
"2006-04-09 01:00","2006","04","09","01:00","-1.1","","-6.4","","67","","34","","15","","24.1","","100.09","","","","-6","","Clear"
"2006-04-09 02:00","2006","04","09","02:00","-1.4","","-6.1","","70","","34","","15","","24.1","","100.07","","","","-6","","Clear"
"2006-04-09 03:00","2006","04","09","03:00","-2.0","","-6.0","","74","","33","","11","","24.1","","100.10","","","","-6","","Clear"
"2006-04-09 04:00","2006","04","09","04:00","-2.3","","-6.4","","73","","35","","11","","24.1","","100.14","","","","-6","","Clear"
"2006-04-09 05:00","2006","04","09","05:00","-3.0","","-6.3","","78","","32","","6","","24.1","","100.20","","","","-5","","Clear"
"2006-04-09 06:00","2006","04","09","06:00","-1.8","","-5.6","","75","","31","","7","","24.1","","100.25","","","","-4","","Clear"
"2006-04-09 07:00","2006","04","09","07:00","-0.8","","-4.0","","79","","31","","6","","24.1","","100.34","","","","-3","","Clear"
"2006-04-09 08:00","2006","04","09","08:00","1.4","","-3.2","","71","","32","","6","","24.1","","100.39","","","","","","Clear"
"2006-04-09 09:00","2006","04","09","09:00","3.7","","-2.3","","65","","","","0","","24.1","","100.41","","","","","","Clear"
"2006-04-09 10:00","2006","04","09","10:00","5.5","","-5.2","","46","","","","0","","24.1","","100.39","","","","","","Mainly Clear"
"2006-04-09 11:00","2006","04","09","11:00","7.0","","-3.2","","48","","24","","9","","24.1","","100.36","","","","","","Mainly Clear"
"2006-04-09 12:00","2006","04","09","12:00","8.5","","-3.0","","44","","24","","13","","24.1","","100.31","","","","","","Mainly Clear"
"2006-04-09 13:00","2006","04","09","13:00","7.3","","-3.1","","48","","12","","11","","24.1","","100.27","","","","","","Mainly Clear"
"2006-04-09 14:00","2006","04","09","14:00","8.0","","-3.2","","45","","15","","24","","24.1","","100.20","","","","","","Mainly Clear"
"2006-04-09 15:00","2006","04","09","15:00","9.5","","-3.0","","41","","16","","19","","24.1","","100.14","","","","","","Mainly Clear"
"2006-04-09 16:00","2006","04","09","16:00","11.1","","-2.3","","39","","28","","22","","24.1","","100.10","","","","","","Mainly Clear"
"2006-04-09 17:00","2006","04","09","17:00","9.9","","-2.3","","42","","32","","15","","24.1","","100.10","","","","","","Mainly Clear"
"2006-04-09 18:00","2006","04","09","18:00","9.3","","-2.0","","45","","27","","19","","24.1","","100.13","","","","","","Mainly Clear"
"2006-04-09 19:00","2006","04","09","19:00","7.4","","-1.8","","52","","27","","17","","24.1","","100.15","","","","","","Mainly Clear"
"2006-04-09 20:00","2006","04","09","20:00","5.9","","-1.5","","59","","28","","13","","24.1","","100.19","","","","","","Mainly Clear"
"2006-04-09 21:00","2006","04","09","21:00","5.5","","-1.2","","62","","28","","19","","24.1","","100.22","","","","","","Mainly Clear"
"2006-04-09 22:00","2006","04","09","22:00","4.0","","-1.7","","66","","28","","11","","24.1","","100.20","","","","","","Mainly Clear"
"2006-04-09 23:00","2006","04","09","23:00","3.8","","-2.0","","66","","29","","4","","24.1","","100.20","","","","","","Mainly Clear"
"2006-04-10 00:00","2006","04","10","00:00","3.4","","-2.2","","67","","29","","7","","24.1","","100.23","","","","","","Clear"
"2006-04-10 01:00","2006","04","10","01:00","1.6","","-2.5","","74","","25","","7","","24.1","","100.25","","","","","","Clear"
"2006-04-10 02:00","2006","04","10","02:00","1.4","","-2.4","","76","","25","","7","","24.1","","100.24","","","","","","Clear"
"2006-04-10 03:00","2006","04","10","03:00","1.4","","-2.3","","76","","27","","4","","24.1","","100.25","","","","","","Clear"
"2006-04-10 04:00","2006","04","10","04:00","0.8","","-2.5","","79","","26","","9","","24.1","","100.28","","","","","","Mainly Clear"
"2006-04-10 05:00","2006","04","10","05:00","1.3","","-2.2","","77","","25","","7","","24.1","","100.32","","","","","","Clear"
"2006-04-10 06:00","2006","04","10","06:00","1.8","","-2.6","","73","","25","","7","","19.3","","100.38","","","","","","Mainly Clear"
"2006-04-10 07:00","2006","04","10","07:00","2.6","","-1.2","","76","","25","","4","","19.3","","100.43","","","","","","Mainly Clear"
"2006-04-10 08:00","2006","04","10","08:00","5.8","","-0.8","","63","","25","","9","","19.3","","100.44","","","","","","Mainly Clear"
"2006-04-10 09:00","2006","04","10","09:00","9.0","","-0.1","","53","","25","","13","","19.3","","100.43","","","","","","Mostly Cloudy"
"2006-04-10 10:00","2006","04","10","10:00","11.1","","-0.4","","45","","24","","11","","24.1","","100.43","","","","","","Mostly Cloudy"
"2006-04-10 11:00","2006","04","10","11:00","12.8","","0.8","","44","","23","","9","","24.1","","100.39","","","","","","Mainly Clear"
"2006-04-10 12:00","2006","04","10","12:00","14.2","","0.2","","38","","28","","13","","24.1","","100.33","","","","","","Mainly Clear"
"2006-04-10 13:00","2006","04","10","13:00","14.8","","2.0","","42","","27","","17","","24.1","","100.27","","","","","","Mostly Cloudy"
"2006-04-10 14:00","2006","04","10","14:00","15.9","","-0.5","","33","","27","","20","","24.1","","100.21","","","","","","Mostly Cloudy"
"2006-04-10 15:00","2006","04","10","15:00","15.1","","0.5","","37","","19","","22","","24.1","","100.16","","","","","","Mostly Cloudy"
"2006-04-10 16:00","2006","04","10","16:00","14.2","","-0.9","","35","","19","","22","","24.1","","100.13","","","","","","Mostly Cloudy"
"2006-04-10 17:00","2006","04","10","17:00","13.5","","-2.2","","34","","17","","22","","24.1","","100.15","","","","","","Mostly Cloudy"
"2006-04-10 18:00","2006","04","10","18:00","13.0","","-0.8","","38","","19","","19","","24.1","","100.16","","","","","","Mostly Cloudy"
"2006-04-10 19:00","2006","04","10","19:00","12.6","","-0.4","","41","","18","","13","","24.1","","100.18","","","","","","Cloudy"
"2006-04-10 20:00","2006","04","10","20:00","11.9","","0.5","","45","","21","","11","","24.1","","100.21","","","","","","Mostly Cloudy"
"2006-04-10 21:00","2006","04","10","21:00","11.1","","0.7","","49","","22","","13","","24.1","","100.28","","","","","","Mostly Cloudy"
"2006-04-10 22:00","2006","04","10","22:00","9.3","","0.8","","55","","27","","7","","24.1","","100.29","","","","","","Mainly Clear"
"2006-04-10 23:00","2006","04","10","23:00","9.6","","0.7","","54","","29","","6","","24.1","","100.29","","","","","","Mostly Cloudy"
"2006-04-11 00:00","2006","04","11","00:00","9.8","","0.6","","53","","36","","4","","24.1","","100.27","","","","","","Mostly Cloudy"
"2006-04-11 01:00","2006","04","11","01:00","8.2","","0.9","","60","","","","0","","24.1","","100.32","","","","","","Mostly Cloudy"
"2006-04-11 02:00","2006","04","11","02:00","8.1","","0.7","","60","","","","0","","24.1","","100.31","","","","","","Clear"
"2006-04-11 03:00","2006","04","11","03:00","6.5","","0.6","","66","","","","0","","24.1","","100.33","","","","","","Clear"
"2006-04-11 04:00","2006","04","11","04:00","6.8","","0.5","","64","","20","","4","","24.1","","100.35","","","","","","Clear"
"2006-04-11 05:00","2006","04","11","05:00","5.8","","0.3","","68","","","","0","","24.1","","100.37","","","","","","Clear"
"2006-04-11 06:00","2006","04","11","06:00","5.0","","-0.3","","69","","","","0","","19.3","","100.41","","","","","","Mainly Clear"
"2006-04-11 07:00","2006","04","11","07:00","6.6","","3.5","","81","","","","0","","16.1","","100.48","","","","","","Mainly Clear"
"2006-04-11 08:00","2006","04","11","08:00","10.0","","1.9","","57","","","","0","","19.3","","100.50","","","","","","Mainly Clear"
"2006-04-11 09:00","2006","04","11","09:00","11.9","","0.5","","45","","11","","6","","24.1","","100.52","","","","","","Mostly Cloudy"
"2006-04-11 10:00","2006","04","11","10:00","13.1","","2.8","","50","","14","","11","","19.3","","100.50","","","","","","Mostly Cloudy"
"2006-04-11 11:00","2006","04","11","11:00","11.6","","1.8","","51","","16","","11","","19.3","","100.51","","","","","","Mostly Cloudy"
"2006-04-11 12:00","2006","04","11","12:00","12.6","","0.3","","43","","13","","13","","19.3","","100.44","","","","","","Mostly Cloudy"
"2006-04-11 13:00","2006","04","11","13:00","13.8","","0.1","","39","","14","","11","","24.1","","100.43","","","","","","Mostly Cloudy"
"2006-04-11 14:00","2006","04","11","14:00","14.6","","-0.2","","36","","14","","13","","24.1","","100.36","","","","","","Mostly Cloudy"
"2006-04-11 15:00","2006","04","11","15:00","15.4","","-0.1","","35","","15","","15","","24.1","","100.26","","","","","","Mostly Cloudy"
"2006-04-11 16:00","2006","04","11","16:00","14.3","","-0.8","","35","","14","","15","","24.1","","100.20","","","","","","Mostly Cloudy"
"2006-04-11 17:00","2006","04","11","17:00","14.0","","-0.5","","37","","16","","11","","24.1","","100.16","","","","","","Mostly Cloudy"
"2006-04-11 18:00","2006","04","11","18:00","12.5","","-1.3","","38","","16","","13","","24.1","","100.13","","","","","","Mostly Cloudy"
"2006-04-11 19:00","2006","04","11","19:00","11.1","","-1.3","","42","","14","","9","","24.1","","100.11","","","","","","Mostly Cloudy"
"2006-04-11 20:00","2006","04","11","20:00","10.2","","-1.5","","44","","11","","9","","24.1","","100.13","","","","","","Mostly Cloudy"
"2006-04-11 21:00","2006","04","11","21:00","10.2","","-1.5","","44","","11","","7","","24.1","","100.11","","","","","","Mostly Cloudy"
"2006-04-11 22:00","2006","04","11","22:00","11.3","","-1.5","","41","","10","","9","","24.1","","100.10","","","","","","Mostly Cloudy"
"2006-04-11 23:00","2006","04","11","23:00","10.7","","-0.9","","44","","9","","6","","24.1","","100.07","","","","","","Mostly Cloudy"
"2006-04-12 00:00","2006","04","12","00:00","10.3","","-0.1","","48","","11","","7","","24.1","","100.00","","","","","","Mostly Cloudy"
"2006-04-12 01:00","2006","04","12","01:00","9.1","","0.2","","54","","7","","4","","24.1","","99.93","","","","","","Mostly Cloudy"
"2006-04-12 02:00","2006","04","12","02:00","8.9","","0.6","","56","","10","","4","","24.1","","99.84","","","","","","Mostly Cloudy"
"2006-04-12 03:00","2006","04","12","03:00","8.1","","0.4","","58","","10","","4","","24.1","","99.79","","","","","","Mostly Cloudy"
"2006-04-12 04:00","2006","04","12","04:00","6.8","","1.3","","68","","32","","6","","24.1","","99.74","","","","","","Cloudy"
"2006-04-12 05:00","2006","04","12","05:00","6.8","","1.5","","69","","","","0","","24.1","","99.70","","","","","","Mostly Cloudy"
"2006-04-12 06:00","2006","04","12","06:00","7.1","","1.8","","69","","27","","6","","12.9","","99.76","","","","","","Cloudy"
"2006-04-12 07:00","2006","04","12","07:00","8.6","","1.6","","61","","","","0","","16.1","","99.75","","","","","","Cloudy"
"2006-04-12 08:00","2006","04","12","08:00","9.3","","2.8","","64","","16","","6","","16.1","","99.76","","","","","","Cloudy"
"2006-04-12 09:00","2006","04","12","09:00","9.2","","3.9","","69","","15","","7","","12.9","","99.75","","","","","","Rain"
"2006-04-12 10:00","2006","04","12","10:00","9.3","","6.0","","80","","16","","6","","16.1","","99.64","","","","","","Rain"
"2006-04-12 11:00","2006","04","12","11:00","9.4","","6.1","","80","","15","","9","","14.5","","99.55","","","","","","Rain"
"2006-04-12 12:00","2006","04","12","12:00","10.9","","7.3","","78","","17","","7","","19.3","","99.48","","","","","","Cloudy"
"2006-04-12 13:00","2006","04","12","13:00","14.5","","9.4","","71","","18","","15","","19.3","","99.36","","","","","","Mostly Cloudy"
"2006-04-12 14:00","2006","04","12","14:00","16.0","","9.0","","63","","16","","20","","24.1","","99.06","","","","","","Mostly Cloudy"
"2006-04-12 15:00","2006","04","12","15:00","16.9","","11.9","","72","","23","","43","","24.1","","99.18","","","","","","Rain Showers"
"2006-04-12 16:00","2006","04","12","16:00","15.0","","12.2","","83","","20","","24","","19.3","","99.09","","","","","","Rain"
"2006-04-12 17:00","2006","04","12","17:00","14.6","","11.2","","80","","16","","13","","24.1","","98.88","","","","","","Cloudy"
"2006-04-12 18:00","2006","04","12","18:00","12.0","","11.2","","95","","16","","6","","4.8","","98.86","","","","","","Thunderstorms,Moderate Rain Showers,Fog"
"2006-04-12 19:00","2006","04","12","19:00","11.8","","11.0","","95","","17","","13","","8.0","","98.81","","","","","","Fog"
"2006-04-12 20:00","2006","04","12","20:00","13.7","","12.5","","92","","23","","22","","14.5","","98.80","","","","","","Cloudy"
"2006-04-12 21:00","2006","04","12","21:00","14.0","","12.3","","89","","25","","28","","16.1","","98.88","","","","","","Rain"
"2006-04-12 22:00","2006","04","12","22:00","14.3","","12.1","","87","","28","","41","","24.1","","99.01","","","","","","Cloudy"
"2006-04-12 23:00","2006","04","12","23:00","11.2","","8.2","","82","","29","","46","","24.1","","99.15","","","","","","Mostly Cloudy"
"2006-04-13 00:00","2006","04","13","00:00","9.9","","7.3","","84","","29","","33","","24.1","","99.21","","","","","","Mostly Cloudy"
"2006-04-13 01:00","2006","04","13","01:00","10.0","","6.8","","80","","30","","37","","24.1","","99.24","","","","","","Cloudy"
"2006-04-13 02:00","2006","04","13","02:00","9.8","","6.4","","79","","30","","32","","24.1","","99.27","","","","","","Mostly Cloudy"
"2006-04-13 03:00","2006","04","13","03:00","8.9","","6.1","","83","","29","","15","","24.1","","99.36","","","","","","Mostly Cloudy"
"2006-04-13 04:00","2006","04","13","04:00","8.9","","5.7","","80","","30","","30","","24.1","","99.45","","","","","","Mostly Cloudy"
"2006-04-13 05:00","2006","04","13","05:00","8.5","","5.4","","81","","30","","17","","24.1","","99.53","","","","","","Mostly Cloudy"
"2006-04-13 06:00","2006","04","13","06:00","8.4","","5.4","","81","","28","","13","","24.1","","99.59","","","","","","Mostly Cloudy"
"2006-04-13 07:00","2006","04","13","07:00","8.9","","5.7","","80","","29","","15","","24.1","","99.64","","","","","","Mostly Cloudy"
"2006-04-13 08:00","2006","04","13","08:00","9.9","","6.2","","78","","27","","19","","24.1","","99.66","","","","","","Mostly Cloudy"
"2006-04-13 09:00","2006","04","13","09:00","10.4","","6.8","","78","","27","","7","","24.1","","99.70","","","","","","Mostly Cloudy"
"2006-04-13 10:00","2006","04","13","10:00","13.1","","7.9","","71","","25","","11","","24.1","","99.68","","","","","","Mostly Cloudy"
"2006-04-13 11:00","2006","04","13","11:00","15.0","","8.5","","65","","20","","11","","24.1","","99.59","","","","","","Mainly Clear"
"2006-04-13 12:00","2006","04","13","12:00","16.0","","8.8","","62","","18","","13","","24.1","","99.52","","","","","","Mainly Clear"
"2006-04-13 13:00","2006","04","13","13:00","16.2","","9.2","","63","","14","","15","","24.1","","99.46","","","","","","Mostly Cloudy"
"2006-04-13 14:00","2006","04","13","14:00","17.7","","11.1","","65","","11","","9","","24.1","","99.37","","","","","","Mostly Cloudy"
"2006-04-13 15:00","2006","04","13","15:00","16.7","","12.4","","76","","12","","11","","24.1","","99.28","","","","","","Rain Showers"
"2006-04-13 16:00","2006","04","13","16:00","21.2","","6.9","","40","","28","","33","","24.1","","99.29","","","","","","Mostly Cloudy"
"2006-04-13 17:00","2006","04","13","17:00","19.2","","6.0","","42","","31","","39","","24.1","","99.33","","","","","","Mostly Cloudy"
"2006-04-13 18:00","2006","04","13","18:00","17.7","","5.7","","45","","31","","32","","24.1","","99.34","","","","","","Mostly Cloudy"
"2006-04-13 19:00","2006","04","13","19:00","15.2","","5.7","","53","","32","","17","","24.1","","99.38","","","","","","Mostly Cloudy"
"2006-04-13 20:00","2006","04","13","20:00","14.3","","5.6","","56","","31","","13","","24.1","","99.40","","","","","","Mostly Cloudy"
"2006-04-13 21:00","2006","04","13","21:00","13.3","","5.4","","59","","32","","6","","24.1","","99.40","","","","","","Mostly Cloudy"
"2006-04-13 22:00","2006","04","13","22:00","12.9","","5.4","","60","","","","0","","24.1","","99.36","","","","","","Mostly Cloudy"
"2006-04-13 23:00","2006","04","13","23:00","11.7","","5.7","","67","","15","","4","","24.1","","99.32","","","","","","Mostly Cloudy"
"2006-04-14 00:00","2006","04","14","00:00","10.0","","6.0","","76","","","","0","","24.1","","99.28","","","","","","Mostly Cloudy"
"2006-04-14 01:00","2006","04","14","01:00","9.9","","6.2","","78","","","","0","","24.1","","99.18","","","","","","Mostly Cloudy"
"2006-04-14 02:00","2006","04","14","02:00","9.6","","5.8","","77","","","","0","","24.1","","99.09","","","","","","Cloudy"
"2006-04-14 03:00","2006","04","14","03:00","9.7","","7.7","","87","","32","","6","","24.1","","99.10","","","","","","Cloudy"
"2006-04-14 04:00","2006","04","14","04:00","10.0","","7.5","","84","","3","","6","","24.1","","99.03","","","","","","Cloudy"
"2006-04-14 05:00","2006","04","14","05:00","9.1","","7.2","","88","","27","","4","","24.1","","99.01","","","","","","Mostly Cloudy"
"2006-04-14 06:00","2006","04","14","06:00","10.6","","7.9","","83","","7","","6","","11.3","","98.90","","","","","","Rain Showers"
"2006-04-14 07:00","2006","04","14","07:00","9.3","","8.2","","93","","17","","13","","2.8","","98.91","","","","","","Rain,Fog"
"2006-04-14 08:00","2006","04","14","08:00","7.8","","7.4","","97","","13","","11","","2.8","","98.87","","","","","","Rain,Fog"
"2006-04-14 09:00","2006","04","14","09:00","8.4","","8.0","","97","","9","","9","","4.0","","98.76","","","","","","Rain,Fog"
"2006-04-14 10:00","2006","04","14","10:00","8.5","","8.0","","97","","12","","15","","4.0","","98.69","","","","","","Rain,Fog"
"2006-04-14 11:00","2006","04","14","11:00","8.1","","7.6","","97","","9","","9","","4.0","","98.65","","","","","","Fog"
"2006-04-14 12:00","2006","04","14","12:00","8.5","","7.7","","95","","8","","9","","6.4","","98.53","","","","","","Fog"
"2006-04-14 13:00","2006","04","14","13:00","9.0","","8.0","","93","","5","","9","","9.7","","98.46","","","","","","Fog"
"2006-04-14 14:00","2006","04","14","14:00","12.2","","11.3","","94","","13","","6","","16.1","","98.36","","","","","","Mostly Cloudy"
"2006-04-14 15:00","2006","04","14","15:00","12.1","","9.0","","81","","15","","13","","19.3","","98.26","","","","","","Cloudy"
"2006-04-14 16:00","2006","04","14","16:00","11.0","","8.4","","84","","16","","7","","12.9","","98.20","","","","","","Cloudy"
"2006-04-14 17:00","2006","04","14","17:00","11.5","","9.0","","85","","10","","11","","12.9","","98.16","","","","","","Cloudy"
"2006-04-14 18:00","2006","04","14","18:00","10.5","","9.6","","94","","18","","6","","2.0","","98.14","","","","","","Drizzle,Fog"
"2006-04-14 19:00","2006","04","14","19:00","10.7","","9.8","","94","","16","","4","","3.2","","98.09","","","","","","Drizzle,Fog"
"2006-04-14 20:00","2006","04","14","20:00","9.8","","9.0","","95","","18","","6","","4.8","","98.01","","","","","","Fog"
"2006-04-14 21:00","2006","04","14","21:00","8.8","","8.6","","99","","17","","7","","0.2","","97.93","","","","","","Fog"
"2006-04-14 22:00","2006","04","14","22:00","7.2","","7.2","","100","","29","","9","","0.6","","97.87","","","","","","Fog"
"2006-04-14 23:00","2006","04","14","23:00","8.6","","8.6","","100","","1","","13","","1.2","","97.88","","","","","","Fog"
"2006-04-15 00:00","2006","04","15","00:00","9.8","","9.8","","100","","35","","4","","2.0","","97.88","","","","","","Fog"
"2006-04-15 01:00","2006","04","15","01:00","9.8","","9.8","","100","","31","","13","","0.2","","97.91","","","","","","Fog"
"2006-04-15 02:00","2006","04","15","02:00","9.2","","9.2","","100","","25","","7","","0.2","","97.91","","","","","","Fog"
"2006-04-15 03:00","2006","04","15","03:00","8.3","","8.0","","98","","30","","7","","24.1","","97.92","","","","","","Clear"
"2006-04-15 04:00","2006","04","15","04:00","8.3","","7.3","","93","","31","","22","","24.1","","97.93","","","","","","Clear"
"2006-04-15 05:00","2006","04","15","05:00","8.6","","5.8","","83","","30","","22","","24.1","","98.00","","","","","","Mainly Clear"
"2006-04-15 06:00","2006","04","15","06:00","8.1","","5.2","","82","","31","","28","","24.1","","98.03","","","","","","Mainly Clear"
"2006-04-15 07:00","2006","04","15","07:00","8.6","","5.5","","81","","31","","28","","24.1","","98.07","","","","","","Mainly Clear"
"2006-04-15 08:00","2006","04","15","08:00","10.4","","6.8","","78","","30","","26","","24.1","","98.13","","","","","","Clear"
"2006-04-15 09:00","2006","04","15","09:00","11.8","","6.5","","70","","32","","32","","24.1","","98.19","","","","","","Mainly Clear"
"2006-04-15 10:00","2006","04","15","10:00","13.0","","6.5","","65","","32","","43","","24.1","","98.23","","","","","","Mainly Clear"
"2006-04-15 11:00","2006","04","15","11:00","12.8","","6.0","","63","","31","","35","","24.1","","98.27","","","","","","Mainly Clear"
"2006-04-15 12:00","2006","04","15","12:00","14.2","","6.8","","61","","31","","30","","24.1","","98.30","","","","","","Mainly Clear"
"2006-04-15 13:00","2006","04","15","13:00","14.4","","5.8","","56","","34","","35","","24.1","","98.32","","","","","","Mainly Clear"
"2006-04-15 14:00","2006","04","15","14:00","15.0","","6.0","","55","","32","","35","","24.1","","98.37","","","","","","Mainly Clear"
"2006-04-15 15:00","2006","04","15","15:00","15.7","","6.1","","53","","32","","33","","24.1","","98.37","","","","","","Mainly Clear"
"2006-04-15 16:00","2006","04","15","16:00","15.5","","5.9","","53","","34","","22","","24.1","","98.40","","","","","","Mainly Clear"
"2006-04-15 17:00","2006","04","15","17:00","13.2","","5.4","","59","","35","","30","","24.1","","98.51","","","","","","Mainly Clear"
"2006-04-15 18:00","2006","04","15","18:00","11.8","","3.1","","55","","35","","33","","24.1","","98.61","","","","","","Mainly Clear"
"2006-04-15 19:00","2006","04","15","19:00","10.4","","2.7","","59","","36","","26","","24.1","","98.67","","","","","","Mainly Clear"
"2006-04-15 20:00","2006","04","15","20:00","10.0","","2.7","","60","","33","","26","","24.1","","98.76","","","","","","Mainly Clear"
"2006-04-15 21:00","2006","04","15","21:00","9.6","","2.5","","61","","34","","28","","24.1","","98.86","","","","","","Clear"
"2006-04-15 22:00","2006","04","15","22:00","8.6","","2.3","","65","","34","","20","","24.1","","98.89","","","","","","Clear"
"2006-04-15 23:00","2006","04","15","23:00","7.6","","2.3","","69","","36","","24","","24.1","","98.91","","","","","","Clear"
"2006-04-16 00:00","2006","04","16","00:00","6.3","","2.2","","75","","2","","15","","24.1","","98.99","","","","","","Clear"
"2006-04-16 01:00","2006","04","16","01:00","5.5","","1.9","","78","","35","","11","","24.1","","99.02","","","","","","Clear"
"2006-04-16 02:00","2006","04","16","02:00","4.4","","1.4","","81","","33","","9","","24.1","","99.02","","","","","","Clear"
"2006-04-16 03:00","2006","04","16","03:00","3.7","","1.3","","84","","33","","15","","24.1","","99.08","","","","","","Clear"
"2006-04-16 04:00","2006","04","16","04:00","4.7","","1.6","","80","","35","","9","","24.1","","99.10","","","","","","Mostly Cloudy"
"2006-04-16 05:00","2006","04","16","05:00","5.0","","1.5","","78","","2","","11","","24.1","","99.10","","","","","","Mostly Cloudy"
"2006-04-16 06:00","2006","04","16","06:00","4.2","","1.2","","81","","36","","13","","24.1","","99.17","","","","","","Mainly Clear"
"2006-04-16 07:00","2006","04","16","07:00","5.6","","2.0","","78","","36","","19","","24.1","","99.20","","","","","","Mainly Clear"
"2006-04-16 08:00","2006","04","16","08:00","6.7","","2.0","","72","","2","","24","","24.1","","99.26","","","","","","Mostly Cloudy"
"2006-04-16 09:00","2006","04","16","09:00","7.9","","1.7","","65","","1","","19","","24.1","","99.30","","","","","","Mostly Cloudy"
"2006-04-16 10:00","2006","04","16","10:00","8.4","","1.9","","64","","1","","11","","24.1","","99.27","","","","","","Mostly Cloudy"
"2006-04-16 11:00","2006","04","16","11:00","9.1","","2.1","","62","","3","","11","","24.1","","99.20","","","","","","Mostly Cloudy"
"2006-04-16 12:00","2006","04","16","12:00","10.9","","1.6","","53","","5","","11","","24.1","","99.12","","","","","","Mostly Cloudy"
"2006-04-16 13:00","2006","04","16","13:00","12.0","","1.2","","48","","31","","15","","24.1","","99.08","","","","","","Mostly Cloudy"
"2006-04-16 14:00","2006","04","16","14:00","12.3","","0.6","","45","","35","","13","","24.1","","99.07","","","","","","Mostly Cloudy"
"2006-04-16 15:00","2006","04","16","15:00","14.0","","0.3","","39","","4","","9","","24.1","","99.01","","","","","","Mostly Cloudy"
"2006-04-16 16:00","2006","04","16","16:00","13.9","","2.1","","45","","5","","9","","24.1","","98.99","","","","","","Mainly Clear"
"2006-04-16 17:00","2006","04","16","17:00","13.9","","2.4","","46","","35","","15","","24.1","","98.99","","","","","","Mainly Clear"
"2006-04-16 18:00","2006","04","16","18:00","12.3","","1.8","","49","","35","","30","","24.1","","99.05","","","","","","Mainly Clear"
"2006-04-16 19:00","2006","04","16","19:00","10.4","","0.5","","50","","36","","22","","24.1","","99.07","","","","","","Mainly Clear"
"2006-04-16 20:00","2006","04","16","20:00","8.4","","-1.9","","48","","36","","20","","24.1","","99.13","","","","","","Clear"
"2006-04-16 21:00","2006","04","16","21:00","7.0","","-2.8","","50","","36","","24","","24.1","","99.18","","","","","","Mainly Clear"
"2006-04-16 22:00","2006","04","16","22:00","5.8","","-3.4","","52","","36","","20","","24.1","","99.21","","","","","","Clear"
"2006-04-16 23:00","2006","04","16","23:00","4.8","","-2.8","","58","","36","","22","","24.1","","99.22","","","","","","Clear"
"2006-04-17 00:00","2006","04","17","00:00","4.7","","-2.3","","60","","1","","15","","24.1","","99.22","","","","","","Clear"
"2006-04-17 01:00","2006","04","17","01:00","6.2","","-1.7","","57","","5","","19","","24.1","","99.17","","","","","","Clear"
"2006-04-17 02:00","2006","04","17","02:00","6.4","","-1.3","","58","","6","","15","","24.1","","99.19","","","","","","Clear"
"2006-04-17 03:00","2006","04","17","03:00","4.9","","-1.0","","66","","5","","9","","24.1","","99.21","","","","","","Clear"
"2006-04-17 04:00","2006","04","17","04:00","2.6","","-1.5","","74","","36","","6","","24.1","","99.22","","","","","","Clear"
"2006-04-17 05:00","2006","04","17","05:00","2.5","","-1.0","","78","","36","","15","","24.1","","99.22","","","","","","Clear"
"2006-04-17 06:00","2006","04","17","06:00","3.4","","-0.5","","76","","2","","15","","24.1","","99.27","","","","","","Clear"
"2006-04-17 07:00","2006","04","17","07:00","5.2","","0.6","","72","","1","","11","","24.1","","99.37","","","","","","Clear"
"2006-04-17 08:00","2006","04","17","08:00","7.1","","0.8","","64","","8","","15","","24.1","","99.41","","","","","","Clear"
"2006-04-17 09:00","2006","04","17","09:00","8.3","","1.3","","61","","9","","15","","24.1","","99.44","","","","","","Mostly Cloudy"
"2006-04-17 10:00","2006","04","17","10:00","9.6","","1.8","","58","","10","","13","","24.1","","99.44","","","","","","Mostly Cloudy"
"2006-04-17 11:00","2006","04","17","11:00","9.8","","1.6","","57","","10","","6","","24.1","","99.48","","","","","","Mostly Cloudy"
"2006-04-17 12:00","2006","04","17","12:00","10.6","","3.0","","59","","17","","15","","24.1","","99.46","","","","","","Mostly Cloudy"
"2006-04-17 13:00","2006","04","17","13:00","10.7","","3.1","","59","","18","","15","","24.1","","99.45","","","","","","Mainly Clear"
"2006-04-17 14:00","2006","04","17","14:00","10.6","","3.2","","60","","15","","9","","24.1","","99.42","","","","","","Mainly Clear"
"2006-04-17 15:00","2006","04","17","15:00","11.9","","3.7","","57","","17","","17","","24.1","","99.39","","","","","","Mainly Clear"
"2006-04-17 16:00","2006","04","17","16:00","12.2","","3.2","","54","","18","","13","","24.1","","99.37","","","","","","Clear"
"2006-04-17 17:00","2006","04","17","17:00","12.5","","3.1","","53","","16","","9","","24.1","","99.39","","","","","","Clear"
"2006-04-17 18:00","2006","04","17","18:00","12.7","","3.0","","52","","20","","9","","24.1","","99.41","","","","","","Clear"
"2006-04-17 19:00","2006","04","17","19:00","11.9","","2.8","","54","","25","","6","","24.1","","99.45","","","","","","Clear"
"2006-04-17 20:00","2006","04","17","20:00","11.4","","2.7","","55","","36","","17","","24.1","","99.52","","","","","","Clear"
"2006-04-17 21:00","2006","04","17","21:00","10.2","","2.3","","58","","36","","20","","24.1","","99.58","","","","","","Clear"
"2006-04-17 22:00","2006","04","17","22:00","9.0","","1.5","","59","","36","","22","","24.1","","99.60","","","","","","Clear"
"2006-04-17 23:00","2006","04","17","23:00","8.3","","1.4","","62","","36","","24","","24.1","","99.61","","","","","","Clear"
"2006-04-18 00:00","2006","04","18","00:00","7.1","","1.5","","68","","1","","17","","24.1","","99.64","","","","","","Clear"
"2006-04-18 01:00","2006","04","18","01:00","6.8","","1.5","","69","","36","","11","","24.1","","99.65","","","","","","Clear"
"2006-04-18 02:00","2006","04","18","02:00","6.3","","1.4","","71","","36","","13","","24.1","","99.66","","","","","","Clear"
"2006-04-18 03:00","2006","04","18","03:00","5.5","","1.2","","74","","","","0","","24.1","","99.70","","","","","","Clear"
"2006-04-18 04:00","2006","04","18","04:00","5.4","","1.2","","74","","1","","9","","24.1","","99.72","","","","","","Clear"
"2006-04-18 05:00","2006","04","18","05:00","5.4","","1.1","","74","","34","","7","","24.1","","99.79","","","","","","Clear"
"2006-04-18 06:00","2006","04","18","06:00","5.6","","1.4","","74","","36","","11","","24.1","","99.85","","","","","","Clear"
"2006-04-18 07:00","2006","04","18","07:00","7.7","","2.2","","68","","2","","11","","24.1","","99.90","","","","","","Clear"
"2006-04-18 08:00","2006","04","18","08:00","11.2","","2.6","","55","","9","","9","","24.1","","99.92","","","","","","Clear"
"2006-04-18 09:00","2006","04","18","09:00","12.4","","2.9","","52","","10","","9","","24.1","","99.91","","","","","","Clear"
"2006-04-18 10:00","2006","04","18","10:00","13.1","","3.4","","52","","6","","7","","24.1","","99.86","","","","","","Clear"
"2006-04-18 11:00","2006","04","18","11:00","14.0","","4.4","","52","","15","","15","","24.1","","99.87","","","","","","Clear"
"2006-04-18 12:00","2006","04","18","12:00","13.2","","4.3","","55","","15","","11","","24.1","","99.85","","","","","","Clear"
"2006-04-18 13:00","2006","04","18","13:00","13.9","","4.6","","53","","17","","15","","24.1","","99.80","","","","","","Clear"
"2006-04-18 14:00","2006","04","18","14:00","14.1","","4.9","","54","","15","","15","","24.1","","99.78","","","","","","Clear"
"2006-04-18 15:00","2006","04","18","15:00","14.3","","4.8","","53","","13","","9","","24.1","","99.70","","","","","","Clear"
"2006-04-18 16:00","2006","04","18","16:00","15.5","","5.6","","52","","13","","9","","24.1","","99.67","","","","","","Clear"
"2006-04-18 17:00","2006","04","18","17:00","16.6","","5.5","","48","","19","","7","","24.1","","99.64","","","","","","Clear"
"2006-04-18 18:00","2006","04","18","18:00","16.4","","5.5","","48","","15","","7","","24.1","","99.62","","","","","","Clear"
"2006-04-18 19:00","2006","04","18","19:00","14.5","","4.6","","51","","18","","7","","24.1","","99.61","","","","","","Clear"
"2006-04-18 20:00","2006","04","18","20:00","13.9","","5.0","","55","","3","","11","","24.1","","99.64","","","","","","Clear"
"2006-04-18 21:00","2006","04","18","21:00","12.6","","3.7","","55","","36","","20","","24.1","","99.66","","","","","","Clear"
"2006-04-18 22:00","2006","04","18","22:00","11.2","","2.7","","56","","36","","20","","24.1","","99.63","","","","","","Clear"
"2006-04-18 23:00","2006","04","18","23:00","10.7","","2.4","","56","","35","","13","","24.1","","99.60","","","","","","Clear"
"2006-04-19 00:00","2006","04","19","00:00","9.3","","2.4","","62","","35","","15","","24.1","","99.62","","","","","","Clear"
"2006-04-19 01:00","2006","04","19","01:00","9.2","","2.3","","62","","34","","13","","24.1","","99.59","","","","","","Clear"
"2006-04-19 02:00","2006","04","19","02:00","7.9","","2.4","","68","","35","","11","","24.1","","99.58","","","","","","Clear"
"2006-04-19 03:00","2006","04","19","03:00","8.3","","2.4","","66","","34","","13","","24.1","","99.59","","","","","","Clear"
"2006-04-19 04:00","2006","04","19","04:00","7.7","","2.4","","69","","35","","7","","24.1","","99.60","","","","","","Clear"
"2006-04-19 05:00","2006","04","19","05:00","7.2","","2.3","","71","","36","","7","","24.1","","99.59","","","","","","Clear"
"2006-04-19 06:00","2006","04","19","06:00","7.3","","2.6","","72","","36","","7","","24.1","","99.62","","","","","","Clear"
"2006-04-19 07:00","2006","04","19","07:00","9.8","","3.6","","65","","36","","13","","24.1","","99.67","","","","","","Clear"
"2006-04-19 08:00","2006","04","19","08:00","12.0","","3.9","","58","","36","","11","","24.1","","99.68","","","","","","Clear"
"2006-04-19 09:00","2006","04","19","09:00","14.2","","4.1","","51","","34","","4","","24.1","","99.71","","","","","","Clear"
"2006-04-19 10:00","2006","04","19","10:00","16.7","","4.8","","45","","","","0","","24.1","","99.72","","","","","","Clear"
"2006-04-19 11:00","2006","04","19","11:00","16.8","","5.1","","46","","14","","11","","24.1","","99.70","","","","","","Clear"
"2006-04-19 12:00","2006","04","19","12:00","17.5","","5.5","","45","","15","","15","","24.1","","99.64","","","","","","Clear"
"2006-04-19 13:00","2006","04","19","13:00","17.5","","4.9","","43","","17","","15","","24.1","","99.60","","","","","","Clear"
"2006-04-19 14:00","2006","04","19","14:00","17.3","","5.2","","45","","16","","11","","24.1","","99.57","","","","","","Clear"
"2006-04-19 15:00","2006","04","19","15:00","17.7","","5.2","","44","","16","","13","","24.1","","99.52","","","","","","Clear"
"2006-04-19 16:00","2006","04","19","16:00","18.5","","5.1","","41","","16","","9","","24.1","","99.45","","","","","","Clear"
"2006-04-19 17:00","2006","04","19","17:00","19.7","","5.2","","39","","15","","11","","24.1","","99.45","","","","","","Clear"
"2006-04-19 18:00","2006","04","19","18:00","18.8","","4.5","","39","","17","","11","","24.1","","99.44","","","","","","Clear"
"2006-04-19 19:00","2006","04","19","19:00","17.2","","3.6","","40","","20","","6","","24.1","","99.44","","","","","","Clear"
"2006-04-19 20:00","2006","04","19","20:00","16.7","","3.3","","41","","33","","9","","24.1","","99.48","","","","","","Clear"
"2006-04-19 21:00","2006","04","19","21:00","15.8","","3.0","","42","","31","","15","","24.1","","99.50","","","","","","Clear"
"2006-04-19 22:00","2006","04","19","22:00","15.5","","2.4","","41","","34","","17","","24.1","","99.48","","","","","","Clear"
"2006-04-19 23:00","2006","04","19","23:00","13.5","","1.8","","45","","33","","11","","24.1","","99.46","","","","","","Clear"
"2006-04-20 00:00","2006","04","20","00:00","11.9","","2.4","","52","","35","","15","","24.1","","99.45","","","","","","Clear"
"2006-04-20 01:00","2006","04","20","01:00","11.6","","2.4","","53","","35","","24","","24.1","","99.46","","","","","","Clear"
"2006-04-20 02:00","2006","04","20","02:00","11.4","","1.8","","52","","36","","26","","24.1","","99.45","","","","","","Clear"
"2006-04-20 03:00","2006","04","20","03:00","10.5","","1.6","","54","","36","","26","","24.1","","99.48","","","","","","Clear"
"2006-04-20 04:00","2006","04","20","04:00","9.3","","1.4","","58","","36","","15","","24.1","","99.49","","","","","","Clear"
"2006-04-20 05:00","2006","04","20","05:00","8.6","","1.5","","61","","35","","15","","24.1","","99.53","","","","","","Clear"
"2006-04-20 06:00","2006","04","20","06:00","9.1","","1.6","","59","","36","","13","","24.1","","99.59","","","","","","Clear"
"2006-04-20 07:00","2006","04","20","07:00","11.4","","2.2","","53","","36","","9","","24.1","","99.67","","","","","","Clear"
"2006-04-20 08:00","2006","04","20","08:00","14.2","","3.5","","48","","2","","9","","24.1","","99.62","","","","","","Clear"
"2006-04-20 09:00","2006","04","20","09:00","17.7","","1.8","","34","","9","","7","","24.1","","99.61","","","","","","Clear"
"2006-04-20 10:00","2006","04","20","10:00","18.6","","1.2","","31","","16","","11","","24.1","","99.71","","","","","","Clear"
"2006-04-20 11:00","2006","04","20","11:00","18.9","","0.7","","29","","16","","11","","24.1","","99.72","","","","","","Clear"
"2006-04-20 12:00","2006","04","20","12:00","19.9","","1.6","","30","","20","","9","","24.1","","99.64","","","","","","Mainly Clear"
"2006-04-20 13:00","2006","04","20","13:00","21.1","","2.3","","29","","17","","6","","24.1","","99.55","","","","","","Mainly Clear"
"2006-04-20 14:00","2006","04","20","14:00","21.4","","2.2","","28","","15","","20","","24.1","","99.52","","","","","","Mostly Cloudy"
"2006-04-20 15:00","2006","04","20","15:00","20.9","","2.3","","29","","15","","17","","24.1","","99.49","","","","","","Mostly Cloudy"
"2006-04-20 16:00","2006","04","20","16:00","18.9","","1.0","","30","","14","","17","","24.1","","99.44","","","","","","Mostly Cloudy"
"2006-04-20 17:00","2006","04","20","17:00","18.0","","1.0","","32","","13","","11","","24.1","","99.47","","","","","","Mostly Cloudy"
"2006-04-20 18:00","2006","04","20","18:00","17.2","","-0.2","","31","","16","","7","","24.1","","99.47","","","","","","Cloudy"
"2006-04-20 19:00","2006","04","20","19:00","16.6","","-1.3","","29","","18","","4","","24.1","","99.52","","","","","","Mostly Cloudy"
"2006-04-20 20:00","2006","04","20","20:00","16.7","","-1.3","","29","","14","","4","","24.1","","99.51","","","","","","Cloudy"
"2006-04-20 21:00","2006","04","20","21:00","14.8","","0.6","","38","","6","","4","","24.1","","99.51","","","","","","Cloudy"
"2006-04-20 22:00","2006","04","20","22:00","14.7","","-0.4","","35","","","","0","","24.1","","99.52","","","","","","Cloudy"
"2006-04-20 23:00","2006","04","20","23:00","13.7","","-1.2","","36","","7","","4","","24.1","","99.52","","","","","","Mainly Clear"
"2006-04-21 00:00","2006","04","21","00:00","12.7","","-2.3","","35","","9","","4","","24.1","","99.54","","","","","","Mainly Clear"
"2006-04-21 01:00","2006","04","21","01:00","13.6","","-3.5","","30","","9","","9","","24.1","","99.55","","","","","","Mostly Cloudy"
"2006-04-21 02:00","2006","04","21","02:00","13.0","","-2.4","","34","","8","","9","","24.1","","99.54","","","","","","Mostly Cloudy"
"2006-04-21 03:00","2006","04","21","03:00","12.7","","-2.6","","34","","8","","4","","24.1","","99.57","","","","","","Mostly Cloudy"
"2006-04-21 04:00","2006","04","21","04:00","12.2","","-1.7","","38","","9","","7","","24.1","","99.56","","","","","","Mostly Cloudy"
"2006-04-21 05:00","2006","04","21","05:00","11.9","","-2.5","","37","","11","","11","","24.1","","99.54","","","","","","Mostly Cloudy"
"2006-04-21 06:00","2006","04","21","06:00","12.3","","-2.6","","35","","7","","13","","24.1","","99.57","","","","","","Mostly Cloudy"
"2006-04-21 07:00","2006","04","21","07:00","12.8","","0.6","","43","","8","","9","","24.1","","99.65","","","","","","Mostly Cloudy"
"2006-04-21 08:00","2006","04","21","08:00","13.1","","0.5","","42","","9","","20","","24.1","","99.63","","","","","","Cloudy"
"2006-04-21 09:00","2006","04","21","09:00","13.9","","1.2","","42","","9","","15","","24.1","","99.68","","","","","","Cloudy"
"2006-04-21 10:00","2006","04","21","10:00","14.6","","1.0","","40","","9","","22","","24.1","","99.63","","","","","","Cloudy"
"2006-04-21 11:00","2006","04","21","11:00","14.5","","1.3","","41","","9","","26","","24.1","","99.60","","","","","","Cloudy"
"2006-04-21 12:00","2006","04","21","12:00","13.6","","1.1","","42","","8","","26","","24.1","","99.64","","","","","","Mostly Cloudy"
"2006-04-21 13:00","2006","04","21","13:00","15.0","","1.8","","41","","11","","15","","24.1","","99.65","","","","","","Mostly Cloudy"
"2006-04-21 14:00","2006","04","21","14:00","15.5","","1.7","","39","","10","","22","","24.1","","99.59","","","","","","Cloudy"
"2006-04-21 15:00","2006","04","21","15:00","15.4","","1.8","","40","","9","","20","","24.1","","99.59","","","","","","Cloudy"
"2006-04-21 16:00","2006","04","21","16:00","15.9","","2.6","","41","","9","","19","","24.1","","99.55","","","","","","Cloudy"
"2006-04-21 17:00","2006","04","21","17:00","16.9","","2.5","","38","","8","","19","","24.1","","99.49","","","","","","Cloudy"
"2006-04-21 18:00","2006","04","21","18:00","17.8","","2.8","","37","","7","","20","","24.1","","99.45","","","","","","Cloudy"
"2006-04-21 19:00","2006","04","21","19:00","18.4","","2.9","","36","","7","","24","","24.1","","99.34","","","","","","Cloudy"
"2006-04-21 20:00","2006","04","21","20:00","19.1","","3.3","","35","","8","","22","","24.1","","99.29","","","","","","Cloudy"
"2006-04-21 21:00","2006","04","21","21:00","19.1","","4.2","","37","","8","","32","","24.1","","99.23","","","","","","Cloudy"
"2006-04-21 22:00","2006","04","21","22:00","16.6","","5.6","","48","","11","","32","","24.1","","99.19","","","","","","Cloudy"
"2006-04-21 23:00","2006","04","21","23:00","13.2","","6.1","","62","","13","","17","","19.3","","99.26","","","","","","Cloudy"
"2006-04-22 00:00","2006","04","22","00:00","11.5","","6.9","","73","","10","","13","","19.3","","99.29","","","","","","Rain"
"2006-04-22 01:00","2006","04","22","01:00","11.0","","8.1","","82","","13","","13","","11.3","","99.32","","","","","","Rain"
"2006-04-22 02:00","2006","04","22","02:00","10.6","","8.9","","89","","9","","6","","6.4","","99.26","","","","","","Rain,Fog"
"2006-04-22 03:00","2006","04","22","03:00","11.2","","10.2","","94","","7","","6","","4.8","","99.22","","","","","","Rain,Fog"
"2006-04-22 04:00","2006","04","22","04:00","11.1","","10.6","","97","","11","","19","","3.6","","99.20","","","","","","Rain,Fog"
"2006-04-22 05:00","2006","04","22","05:00","10.0","","9.6","","97","","10","","19","","6.4","","99.19","","","","","","Rain,Fog"
"2006-04-22 06:00","2006","04","22","06:00","8.7","","8.3","","97","","9","","19","","4.0","","99.21","","","","","","Rain,Fog"
"2006-04-22 07:00","2006","04","22","07:00","8.6","","8.3","","98","","9","","19","","3.2","","99.25","","","","","","Rain,Fog"
"2006-04-22 08:00","2006","04","22","08:00","8.0","","7.7","","98","","9","","20","","3.6","","99.27","","","","","","Rain,Fog"
"2006-04-22 09:00","2006","04","22","09:00","7.8","","7.6","","99","","10","","17","","4.0","","99.30","","","","","","Rain,Fog"
"2006-04-22 10:00","2006","04","22","10:00","7.8","","7.6","","99","","9","","19","","3.2","","99.30","","","","","","Drizzle,Fog"
"2006-04-22 11:00","2006","04","22","11:00","7.5","","7.3","","99","","10","","22","","2.0","","99.31","","","","","","Drizzle,Fog"
"2006-04-22 12:00","2006","04","22","12:00","7.4","","7.1","","98","","9","","19","","2.0","","99.28","","","","","","Drizzle,Fog"
"2006-04-22 13:00","2006","04","22","13:00","7.3","","7.3","","100","","10","","17","","4.8","","99.28","","","","","","Drizzle,Fog"
"2006-04-22 14:00","2006","04","22","14:00","7.3","","7.3","","100","","8","","20","","1.6","","99.29","","","","","","Drizzle,Fog"
"2006-04-22 15:00","2006","04","22","15:00","7.5","","7.5","","100","","9","","20","","1.6","","99.27","","","","","","Drizzle,Fog"
"2006-04-22 16:00","2006","04","22","16:00","7.2","","7.2","","100","","8","","19","","3.2","","99.27","","","","","","Drizzle,Fog"
"2006-04-22 17:00","2006","04","22","17:00","7.0","","7.0","","100","","9","","24","","4.8","","99.29","","","","","","Drizzle,Fog"
"2006-04-22 18:00","2006","04","22","18:00","6.7","","6.7","","100","","9","","15","","2.0","","99.32","","","","","","Drizzle,Fog"
"2006-04-22 19:00","2006","04","22","19:00","6.7","","6.7","","100","","9","","19","","6.4","","99.36","","","","","","Drizzle,Fog"
"2006-04-22 20:00","2006","04","22","20:00","6.7","","6.7","","100","","7","","13","","8.0","","99.39","","","","","","Fog"
"2006-04-22 21:00","2006","04","22","21:00","6.9","","6.9","","100","","8","","13","","8.0","","99.37","","","","","","Fog"
"2006-04-22 22:00","2006","04","22","22:00","6.8","","6.7","","99","","7","","19","","8.0","","99.33","","","","","","Fog"
"2006-04-22 23:00","2006","04","22","23:00","7.0","","7.0","","100","","7","","9","","8.0","","99.26","","","","","","Fog"
"2006-04-23 00:00","2006","04","23","00:00","7.2","","7.2","","100","","8","","19","","8.0","","99.24","","","","","","Fog"
"2006-04-23 01:00","2006","04","23","01:00","7.2","","6.9","","98","","8","","17","","8.0","","99.17","","","","","","Fog"
"2006-04-23 02:00","2006","04","23","02:00","6.9","","6.5","","97","","8","","17","","11.3","","99.07","","","","","","Cloudy"
"2006-04-23 03:00","2006","04","23","03:00","6.8","","6.2","","96","","9","","17","","12.9","","99.02","","","","","","Cloudy"
"2006-04-23 04:00","2006","04","23","04:00","6.7","","5.8","","94","","7","","15","","12.9","","99.04","","","","","","Cloudy"
"2006-04-23 05:00","2006","04","23","05:00","6.6","","5.6","","93","","8","","11","","12.9","","99.07","","","","","","Cloudy"
"2006-04-23 06:00","2006","04","23","06:00","6.2","","5.0","","92","","6","","19","","12.9","","99.07","","","","","","Cloudy"
"2006-04-23 07:00","2006","04","23","07:00","5.8","","4.9","","94","","7","","19","","9.7","","99.04","","","","","","Rain"
"2006-04-23 08:00","2006","04","23","08:00","5.8","","5.2","","96","","8","","24","","9.7","","98.94","","","","","","Rain"
"2006-04-23 09:00","2006","04","23","09:00","5.9","","5.5","","97","","9","","17","","12.9","","98.98","","","","","","Cloudy"
"2006-04-23 10:00","2006","04","23","10:00","6.1","","5.7","","97","","12","","9","","8.0","","99.02","","","","","","Rain"
"2006-04-23 11:00","2006","04","23","11:00","5.6","","5.0","","96","","9","","19","","2.0","","98.96","","","","","","Rain,Fog"
"2006-04-23 12:00","2006","04","23","12:00","5.6","","5.1","","97","","7","","17","","3.2","","98.90","","","","","","Rain,Fog"
"2006-04-23 13:00","2006","04","23","13:00","5.8","","5.4","","97","","8","","11","","9.7","","98.91","","","","","","Rain"
"2006-04-23 14:00","2006","04","23","14:00","5.8","","5.6","","99","","19","","4","","9.7","","98.97","","","","","","Rain"
"2006-04-23 15:00","2006","04","23","15:00","6.0","","5.9","","99","","","","0","","9.7","","98.91","","","","","","Rain"
"2006-04-23 16:00","2006","04","23","16:00","6.2","","6.0","","99","","15","","4","","12.9","","98.86","","","","","","Rain"
"2006-04-23 17:00","2006","04","23","17:00","6.0","","5.5","","97","","27","","7","","9.7","","98.88","","","","","","Rain"
"2006-04-23 18:00","2006","04","23","18:00","5.9","","5.3","","96","","27","","6","","8.0","","98.87","","","","","","Rain"
"2006-04-23 19:00","2006","04","23","19:00","5.9","","5.6","","98","","","","0","","9.7","","98.87","","","","","","Rain"
"2006-04-23 20:00","2006","04","23","20:00","5.5","","4.8","","95","","7","","9","","8.0","","98.89","","","","","","Rain"
"2006-04-23 21:00","2006","04","23","21:00","4.9","","4.3","","96","","6","","6","","8.0","","98.88","","","","","","Rain"
"2006-04-23 22:00","2006","04","23","22:00","4.8","","4.2","","96","","6","","4","","9.7","","98.87","","","","","","Rain,Fog"
"2006-04-23 23:00","2006","04","23","23:00","4.8","","3.9","","94","","3","","9","","8.0","","98.84","","","","","","Rain,Fog"
"2006-04-24 00:00","2006","04","24","00:00","4.8","","4.1","","95","","1","","6","","8.0","","98.83","","","","","","Rain,Fog"
"2006-04-24 01:00","2006","04","24","01:00","4.8","","4.1","","95","","31","","7","","9.7","","98.78","","","","","","Rain,Fog"
"2006-04-24 02:00","2006","04","24","02:00","4.9","","4.3","","96","","32","","6","","9.7","","98.74","","","","","","Rain,Fog"
"2006-04-24 03:00","2006","04","24","03:00","5.2","","4.6","","96","","28","","7","","12.9","","98.76","","","","","","Rain"
"2006-04-24 04:00","2006","04","24","04:00","5.2","","5.0","","99","","28","","7","","12.9","","98.77","","","","","","Rain"
"2006-04-24 05:00","2006","04","24","05:00","5.4","","4.9","","97","","25","","6","","14.5","","98.80","","","","","","Rain"
"2006-04-24 06:00","2006","04","24","06:00","6.0","","5.4","","96","","25","","9","","24.1","","98.85","","","","","","Mostly Cloudy"
"2006-04-24 07:00","2006","04","24","07:00","7.2","","5.9","","91","","34","","13","","24.1","","98.89","","","","","","Mostly Cloudy"
"2006-04-24 08:00","2006","04","24","08:00","7.2","","5.8","","91","","31","","11","","24.1","","98.97","","","","","","Mostly Cloudy"
"2006-04-24 09:00","2006","04","24","09:00","8.1","","6.6","","90","","27","","9","","24.1","","99.01","","","","","","Cloudy"
"2006-04-24 10:00","2006","04","24","10:00","10.7","","7.8","","82","","28","","30","","24.1","","98.99","","","","","","Cloudy"
"2006-04-24 11:00","2006","04","24","11:00","11.4","","7.5","","77","","27","","33","","24.1","","98.99","","","","","","Mostly Cloudy"
"2006-04-24 12:00","2006","04","24","12:00","11.8","","6.8","","71","","29","","32","","24.1","","98.94","","","","","","Cloudy"
"2006-04-24 13:00","2006","04","24","13:00","13.2","","7.9","","70","","28","","30","","24.1","","98.91","","","","","","Mostly Cloudy"
"2006-04-24 14:00","2006","04","24","14:00","13.0","","8.5","","74","","28","","28","","24.1","","98.84","","","","","","Mostly Cloudy"
"2006-04-24 15:00","2006","04","24","15:00","11.9","","7.2","","73","","29","","30","","24.1","","98.92","","","","","","Cloudy"
"2006-04-24 16:00","2006","04","24","16:00","11.6","","7.1","","74","","32","","26","","24.1","","98.96","","","","","","Cloudy"
"2006-04-24 17:00","2006","04","24","17:00","11.5","","7.5","","76","","31","","30","","24.1","","98.96","","","","","","Mostly Cloudy"
"2006-04-24 18:00","2006","04","24","18:00","11.1","","6.7","","74","","30","","19","","24.1","","99.04","","","","","","Mostly Cloudy"
"2006-04-24 19:00","2006","04","24","19:00","10.7","","6.2","","74","","29","","9","","24.1","","98.99","","","","","","Mainly Clear"
"2006-04-24 20:00","2006","04","24","20:00","8.9","","5.8","","81","","26","","9","","24.1","","99.05","","","","","","Mainly Clear"
"2006-04-24 21:00","2006","04","24","21:00","9.5","","6.6","","82","","22","","7","","24.1","","98.99","","","","","","Mainly Clear"
"2006-04-24 22:00","2006","04","24","22:00","9.4","","5.7","","78","","21","","9","","24.1","","98.94","","","","","","Clear"
"2006-04-24 23:00","2006","04","24","23:00","8.7","","5.1","","78","","22","","9","","24.1","","98.87","","","","","","Clear"
"2006-04-25 00:00","2006","04","25","00:00","8.2","","5.6","","84","","23","","7","","24.1","","98.79","","","","","","Mainly Clear"
"2006-04-25 01:00","2006","04","25","01:00","8.6","","6.6","","87","","21","","9","","24.1","","98.75","","","","","","Mainly Clear"
"2006-04-25 02:00","2006","04","25","02:00","10.0","","7.8","","86","","25","","17","","24.1","","98.67","","","","","","Mostly Cloudy"
"2006-04-25 03:00","2006","04","25","03:00","11.1","","7.9","","81","","30","","28","","24.1","","98.69","","","","","","Cloudy"
"2006-04-25 04:00","2006","04","25","04:00","10.0","","6.4","","78","","33","","41","","24.1","","98.70","","","","","","Mostly Cloudy"
"2006-04-25 05:00","2006","04","25","05:00","8.6","","5.7","","82","","32","","20","","24.1","","98.77","","","","","","Mostly Cloudy"
"2006-04-25 06:00","2006","04","25","06:00","8.2","","4.2","","76","","32","","33","","24.1","","98.90","","","","","","Cloudy"
"2006-04-25 07:00","2006","04","25","07:00","2.7","","0.2","","84","","35","","43","","24.1","","99.04","","","","","","Rain,Ice Pellets"
"2006-04-25 08:00","2006","04","25","08:00","2.5","","-0.8","","79","","34","","37","","24.1","","99.10","","","","","","Cloudy"
"2006-04-25 09:00","2006","04","25","09:00","2.0","","-1.6","","77","","34","","41","","24.1","","99.23","","","","","","Cloudy"
"2006-04-25 10:00","2006","04","25","10:00","2.6","","-3.3","","65","","35","","46","","24.1","","99.32","","","","","","Mostly Cloudy"
"2006-04-25 11:00","2006","04","25","11:00","4.3","","-3.0","","59","","33","","37","","24.1","","99.36","","","","","","Mostly Cloudy"
"2006-04-25 12:00","2006","04","25","12:00","5.2","","-4.0","","51","","36","","30","","24.1","","99.40","","","","","","Mostly Cloudy"
"2006-04-25 13:00","2006","04","25","13:00","5.8","","-3.2","","52","","34","","32","","24.1","","99.41","","","","","","Mostly Cloudy"
"2006-04-25 14:00","2006","04","25","14:00","6.9","","-4.4","","44","","32","","33","","24.1","","99.39","","","","","","Mostly Cloudy"
"2006-04-25 15:00","2006","04","25","15:00","7.2","","-5.3","","41","","35","","28","","24.1","","99.35","","","","","","Mostly Cloudy"
"2006-04-25 16:00","2006","04","25","16:00","7.2","","-6.0","","38","","36","","28","","24.1","","99.38","","","","","","Mostly Cloudy"
"2006-04-25 17:00","2006","04","25","17:00","7.6","","-7.1","","34","","34","","20","","24.1","","99.37","","","","","","Mainly Clear"
"2006-04-25 18:00","2006","04","25","18:00","7.2","","-8.5","","32","","36","","22","","24.1","","99.36","","","","","","Mainly Clear"
"2006-04-25 19:00","2006","04","25","19:00","6.3","","-6.6","","39","","36","","15","","24.1","","99.39","","","","","","Clear"
"2006-04-25 20:00","2006","04","25","20:00","5.4","","-4.8","","48","","32","","26","","24.1","","99.47","","","","","","Clear"
"2006-04-25 21:00","2006","04","25","21:00","4.0","","-5.2","","51","","31","","20","","24.1","","99.51","","","","","","Clear"
"2006-04-25 22:00","2006","04","25","22:00","2.8","","-6.3","","51","","31","","19","","24.1","","99.53","","","","","","Clear"
"2006-04-25 23:00","2006","04","25","23:00","1.6","","-6.1","","57","","29","","13","","24.1","","99.56","","","","","","Clear"
"2006-04-26 00:00","2006","04","26","00:00","1.3","","-6.4","","56","","27","","7","","24.1","","99.52","","","","","","Clear"
"2006-04-26 01:00","2006","04","26","01:00","0.6","","-6.0","","61","","29","","11","","24.1","","99.47","","","","","","Clear"
"2006-04-26 02:00","2006","04","26","02:00","0.6","","-5.2","","65","","30","","15","","24.1","","99.43","","","","","","Clear"
"2006-04-26 03:00","2006","04","26","03:00","-1.1","","-6.1","","69","","26","","9","","24.1","","99.40","","","","-4","","Clear"
"2006-04-26 04:00","2006","04","26","04:00","-0.6","","-5.4","","70","","25","","9","","24.1","","99.34","","","","-4","","Clear"
"2006-04-26 05:00","2006","04","26","05:00","-1.2","","-5.8","","71","","27","","9","","24.1","","99.34","","","","-4","","Clear"
"2006-04-26 06:00","2006","04","26","06:00","-0.4","","-4.8","","72","","27","","9","","24.1","","99.37","","","","-4","","Clear"
"2006-04-26 07:00","2006","04","26","07:00","2.8","","-3.2","","65","","25","","17","","24.1","","99.41","","","","","","Clear"
"2006-04-26 08:00","2006","04","26","08:00","5.2","","-3.2","","55","","25","","28","","24.1","","99.40","","","","","","Clear"
"2006-04-26 09:00","2006","04","26","09:00","6.8","","-3.1","","49","","24","","28","","24.1","","99.32","","","","","","Clear"
"2006-04-26 10:00","2006","04","26","10:00","9.3","","-2.9","","42","","27","","32","","24.1","","99.23","","","","","","Clear"
"2006-04-26 11:00","2006","04","26","11:00","11.8","","-1.6","","39","","26","","37","","24.1","","99.12","","","","","","Clear"
"2006-04-26 12:00","2006","04","26","12:00","13.1","","-0.2","","40","","25","","37","","24.1","","98.99","","","","","","Clear"
"2006-04-26 13:00","2006","04","26","13:00","14.6","","0.5","","38","","25","","39","","24.1","","98.90","","","","","","Mainly Clear"
"2006-04-26 14:00","2006","04","26","14:00","15.3","","0.8","","37","","25","","35","","24.1","","98.83","","","","","","Mainly Clear"
"2006-04-26 15:00","2006","04","26","15:00","16.7","","1.3","","35","","26","","46","","24.1","","98.76","","","","","","Mainly Clear"
"2006-04-26 16:00","2006","04","26","16:00","16.8","","1.2","","35","","27","","46","","24.1","","98.67","","","","","","Mainly Clear"
"2006-04-26 17:00","2006","04","26","17:00","15.0","","3.2","","45","","24","","32","","24.1","","98.69","","","","","","Mostly Cloudy"
"2006-04-26 18:00","2006","04","26","18:00","14.0","","2.5","","46","","25","","26","","24.1","","98.69","","","","","","Mostly Cloudy"
"2006-04-26 19:00","2006","04","26","19:00","13.3","","2.4","","48","","24","","26","","24.1","","98.70","","","","","","Mostly Cloudy"
"2006-04-26 20:00","2006","04","26","20:00","12.0","","2.5","","52","","24","","24","","24.1","","98.78","","","","","","Mostly Cloudy"
"2006-04-26 21:00","2006","04","26","21:00","10.7","","2.6","","57","","25","","24","","24.1","","98.88","","","","","","Mostly Cloudy"
"2006-04-26 22:00","2006","04","26","22:00","10.0","","2.8","","61","","24","","13","","24.1","","98.85","","","","","","Mostly Cloudy"
"2006-04-26 23:00","2006","04","26","23:00","9.8","","2.9","","62","","27","","17","","24.1","","98.88","","","","","","Mostly Cloudy"
"2006-04-27 00:00","2006","04","27","00:00","8.5","","0.9","","59","","27","","17","","24.1","","98.88","","","","","","Mainly Clear"
"2006-04-27 01:00","2006","04","27","01:00","8.0","","-0.4","","55","","28","","15","","24.1","","98.87","","","","","","Mainly Clear"
"2006-04-27 02:00","2006","04","27","02:00","7.7","","-1.6","","52","","28","","20","","24.1","","98.88","","","","","","Mostly Cloudy"
"2006-04-27 03:00","2006","04","27","03:00","7.5","","-4.0","","44","","29","","20","","24.1","","98.91","","","","","","Mostly Cloudy"
"2006-04-27 04:00","2006","04","27","04:00","7.1","","-5.3","","41","","31","","19","","24.1","","98.95","","","","","","Mostly Cloudy"
"2006-04-27 05:00","2006","04","27","05:00","6.1","","-4.6","","46","","32","","17","","24.1","","99.03","","","","","","Mostly Cloudy"
"2006-04-27 06:00","2006","04","27","06:00","5.8","","-3.6","","51","","32","","19","","24.1","","99.11","","","","","","Mostly Cloudy"
"2006-04-27 07:00","2006","04","27","07:00","5.8","","-2.2","","56","","36","","20","","24.1","","99.19","","","","","","Mostly Cloudy"
"2006-04-27 08:00","2006","04","27","08:00","5.8","","0.2","","67","","1","","20","","24.1","","99.27","","","","","","Mostly Cloudy"
"2006-04-27 09:00","2006","04","27","09:00","8.1","","1.0","","61","","1","","11","","24.1","","99.32","","","","","","Mainly Clear"
"2006-04-27 10:00","2006","04","27","10:00","9.7","","0.8","","54","","10","","11","","24.1","","99.40","","","","","","Mainly Clear"
"2006-04-27 11:00","2006","04","27","11:00","10.5","","0.4","","50","","15","","20","","24.1","","99.44","","","","","","Mainly Clear"
"2006-04-27 12:00","2006","04","27","12:00","10.0","","0.4","","51","","18","","19","","24.1","","99.49","","","","","","Mainly Clear"
"2006-04-27 13:00","2006","04","27","13:00","9.8","","-0.4","","49","","13","","13","","24.1","","99.50","","","","","","Mainly Clear"
"2006-04-27 14:00","2006","04","27","14:00","10.3","","0.2","","49","","17","","11","","24.1","","99.51","","","","","","Mainly Clear"
"2006-04-27 15:00","2006","04","27","15:00","10.9","","-3.2","","37","","36","","15","","24.1","","99.52","","","","","","Mainly Clear"
"2006-04-27 16:00","2006","04","27","16:00","12.0","","-4.5","","31","","1","","17","","24.1","","99.54","","","","","","Mainly Clear"
"2006-04-27 17:00","2006","04","27","17:00","11.1","","-6.6","","28","","3","","22","","24.1","","99.61","","","","","","Clear"
"2006-04-27 18:00","2006","04","27","18:00","9.8","","-9.1","","25","","1","","26","","24.1","","99.65","","","","","","Clear"
"2006-04-27 19:00","2006","04","27","19:00","8.3","","-11.0","","24","","1","","30","","24.1","","99.71","","","","","","Clear"
"2006-04-27 20:00","2006","04","27","20:00","6.2","","-7.1","","38","","1","","19","","24.1","","99.83","","","","","","Clear"
"2006-04-27 21:00","2006","04","27","21:00","4.9","","-8.1","","38","","36","","22","","24.1","","99.94","","","","","","Clear"
"2006-04-27 22:00","2006","04","27","22:00","3.9","","-8.3","","41","","36","","30","","24.1","","99.97","","","","","","Clear"
"2006-04-27 23:00","2006","04","27","23:00","3.3","","-8.1","","43","","35","","20","","24.1","","100.03","","","","","","Clear"
"2006-04-28 00:00","2006","04","28","00:00","2.7","","-7.6","","47","","36","","20","","24.1","","100.10","","","","","","Clear"
"2006-04-28 01:00","2006","04","28","01:00","2.5","","-7.1","","49","","36","","20","","24.1","","100.14","","","","","","Clear"
"2006-04-28 02:00","2006","04","28","02:00","1.5","","-6.0","","57","","36","","19","","24.1","","100.19","","","","","","Clear"
"2006-04-28 03:00","2006","04","28","03:00","1.2","","-5.3","","62","","1","","17","","24.1","","100.28","","","","","","Clear"
"2006-04-28 04:00","2006","04","28","04:00","0.2","","-5.2","","67","","35","","9","","24.1","","100.36","","","","","","Clear"
"2006-04-28 05:00","2006","04","28","05:00","0.6","","-5.2","","65","","35","","11","","24.1","","100.45","","","","","","Clear"
"2006-04-28 06:00","2006","04","28","06:00","1.4","","-4.1","","67","","1","","13","","24.1","","100.54","","","","","","Clear"
"2006-04-28 07:00","2006","04","28","07:00","3.7","","-3.5","","59","","1","","11","","24.1","","100.61","","","","","","Clear"
"2006-04-28 08:00","2006","04","28","08:00","6.8","","-5.2","","42","","7","","9","","24.1","","100.69","","","","","","Clear"
"2006-04-28 09:00","2006","04","28","09:00","8.4","","-5.7","","36","","3","","13","","24.1","","100.73","","","","","","Clear"
"2006-04-28 10:00","2006","04","28","10:00","9.2","","-7.0","","31","","9","","9","","24.1","","100.78","","","","","","Clear"
"2006-04-28 11:00","2006","04","28","11:00","9.3","","-2.9","","42","","16","","13","","24.1","","100.82","","","","","","Clear"
"2006-04-28 12:00","2006","04","28","12:00","9.3","","-2.6","","43","","14","","20","","24.1","","100.83","","","","","","Clear"
"2006-04-28 13:00","2006","04","28","13:00","9.7","","-3.8","","38","","16","","15","","24.1","","100.85","","","","","","Clear"
"2006-04-28 14:00","2006","04","28","14:00","10.4","","-4.0","","36","","17","","13","","24.1","","100.82","","","","","","Clear"
"2006-04-28 15:00","2006","04","28","15:00","10.0","","-3.7","","38","","13","","17","","24.1","","100.76","","","","","","Clear"
"2006-04-28 16:00","2006","04","28","16:00","9.7","","-5.5","","34","","13","","15","","24.1","","100.77","","","","","","Clear"
"2006-04-28 17:00","2006","04","28","17:00","9.4","","-6.0","","33","","14","","11","","24.1","","100.76","","","","","","Clear"
"2006-04-28 18:00","2006","04","28","18:00","9.0","","-6.7","","32","","14","","13","","24.1","","100.77","","","","","","Clear"
"2006-04-28 19:00","2006","04","28","19:00","8.1","","-7.2","","33","","16","","7","","24.1","","100.78","","","","","","Clear"
"2006-04-28 20:00","2006","04","28","20:00","7.0","","-7.8","","34","","18","","6","","24.1","","100.84","","","","","","Clear"
"2006-04-28 21:00","2006","04","28","21:00","7.0","","-8.0","","33","","","","0","","24.1","","100.88","","","","","","Clear"
"2006-04-28 22:00","2006","04","28","22:00","6.0","","-7.5","","37","","","","0","","24.1","","100.94","","","","","","Clear"
"2006-04-28 23:00","2006","04","28","23:00","5.8","","-6.2","","42","","5","","6","","24.1","","100.91","","","","","","Clear"
"2006-04-29 00:00","2006","04","29","00:00","5.4","","-6.0","","44","","3","","6","","24.1","","100.95","","","","","","Clear"
"2006-04-29 01:00","2006","04","29","01:00","3.4","","-4.6","","56","","4","","4","","24.1","","101.00","","","","","","Clear"
"2006-04-29 02:00","2006","04","29","02:00","2.7","","-4.8","","58","","35","","7","","24.1","","101.02","","","","","","Clear"
"2006-04-29 03:00","2006","04","29","03:00","3.1","","-4.4","","58","","3","","7","","24.1","","101.03","","","","","","Clear"
"2006-04-29 04:00","2006","04","29","04:00","0.8","","-4.2","","69","","33","","9","","24.1","","101.05","","","","","","Clear"
"2006-04-29 05:00","2006","04","29","05:00","1.5","","-4.0","","67","","3","","9","","24.1","","101.02","","","","","","Clear"
"2006-04-29 06:00","2006","04","29","06:00","2.6","","-3.9","","62","","5","","6","","24.1","","101.13","","","","","","Mainly Clear"
"2006-04-29 07:00","2006","04","29","07:00","5.7","","-2.0","","58","","5","","4","","24.1","","101.19","","","","","","Mainly Clear"
"2006-04-29 08:00","2006","04","29","08:00","8.8","","-2.9","","44","","12","","11","","24.1","","101.18","","","","","","Mainly Clear"
"2006-04-29 09:00","2006","04","29","09:00","10.6","","-2.7","","39","","12","","11","","24.1","","101.14","","","","","","Mainly Clear"
"2006-04-29 10:00","2006","04","29","10:00","11.1","","-3.9","","35","","12","","15","","24.1","","101.17","","","","","","Mainly Clear"
"2006-04-29 11:00","2006","04","29","11:00","12.1","","-5.3","","29","","14","","20","","24.1","","101.15","","","","","","Mainly Clear"
"2006-04-29 12:00","2006","04","29","12:00","13.0","","-7.4","","23","","10","","20","","24.1","","101.15","","","","","","Mainly Clear"
"2006-04-29 13:00","2006","04","29","13:00","13.9","","-6.6","","24","","13","","19","","24.1","","101.09","","","","","","Mostly Cloudy"
"2006-04-29 14:00","2006","04","29","14:00","14.1","","-7.0","","22","","10","","22","","24.1","","101.04","","","","","","Mostly Cloudy"
"2006-04-29 15:00","2006","04","29","15:00","14.8","","-9.9","","17","","9","","19","","24.1","","101.01","","","","","","Mainly Clear"
"2006-04-29 16:00","2006","04","29","16:00","14.8","","-11.4","","15","","10","","20","","24.1","","100.97","","","","","","Mainly Clear"
"2006-04-29 17:00","2006","04","29","17:00","14.3","","-11.6","","15","","11","","26","","24.1","","100.96","","","","","","Mostly Cloudy"
"2006-04-29 18:00","2006","04","29","18:00","13.5","","-12.7","","15","","11","","26","","24.1","","100.92","","","","","","Mainly Clear"
"2006-04-29 19:00","2006","04","29","19:00","12.1","","-11.4","","18","","9","","20","","24.1","","100.85","","","","","","Mostly Cloudy"
"2006-04-29 20:00","2006","04","29","20:00","10.7","","-11.6","","20","","9","","11","","24.1","","100.86","","","","","","Mostly Cloudy"
"2006-04-29 21:00","2006","04","29","21:00","10.0","","-10.7","","22","","9","","4","","24.1","","100.94","","","","","","Mainly Clear"
"2006-04-29 22:00","2006","04","29","22:00","9.3","","-8.2","","28","","7","","6","","24.1","","100.94","","","","","","Mostly Cloudy"
"2006-04-29 23:00","2006","04","29","23:00","7.0","","-6.4","","38","","4","","7","","24.1","","100.92","","","","","","Mainly Clear"
"2006-04-30 00:00","2006","04","30","00:00","7.2","","-6.1","","38","","3","","9","","24.1","","100.88","","","","","","Clear"
"2006-04-30 01:00","2006","04","30","01:00","6.6","","-5.8","","41","","1","","6","","24.1","","100.87","","","","","","Mostly Cloudy"
"2006-04-30 02:00","2006","04","30","02:00","6.6","","-5.5","","42","","2","","4","","24.1","","100.86","","","","","","Mostly Cloudy"
"2006-04-30 03:00","2006","04","30","03:00","6.0","","-4.9","","45","","4","","7","","24.1","","100.85","","","","","","Mostly Cloudy"
"2006-04-30 04:00","2006","04","30","04:00","5.4","","-4.4","","49","","3","","6","","24.1","","100.86","","","","","","Mostly Cloudy"
"2006-04-30 05:00","2006","04","30","05:00","5.7","","-4.9","","46","","3","","9","","24.1","","100.88","","","","","","Mainly Clear"
"2006-04-30 06:00","2006","04","30","06:00","6.9","","-3.7","","47","","3","","9","","24.1","","100.89","","","","","","Mostly Cloudy"
"2006-04-30 07:00","2006","04","30","07:00","11.0","","-3.6","","36","","7","","7","","24.1","","100.92","","","","","","Mostly Cloudy"
"2006-04-30 08:00","2006","04","30","08:00","12.9","","-3.7","","31","","11","","20","","24.1","","100.93","","","","","","Mostly Cloudy"
"2006-04-30 09:00","2006","04","30","09:00","14.0","","-3.4","","30","","9","","13","","24.1","","100.90","","","","","","Mostly Cloudy"
"2006-04-30 10:00","2006","04","30","10:00","14.8","","-1.9","","32","","10","","22","","24.1","","100.91","","","","","","Mostly Cloudy"
"2006-04-30 11:00","2006","04","30","11:00","15.6","","-1.6","","31","","10","","20","","24.1","","100.91","","","","","","Mostly Cloudy"
"2006-04-30 12:00","2006","04","30","12:00","16.5","","-1.8","","29","","10","","19","","24.1","","100.88","","","","","","Mostly Cloudy"
"2006-04-30 13:00","2006","04","30","13:00","17.2","","-3.2","","25","","9","","28","","24.1","","100.81","","","","","","Mostly Cloudy"
"2006-04-30 14:00","2006","04","30","14:00","17.3","","-3.9","","23","","9","","28","","24.1","","100.77","","","","","","Mostly Cloudy"
"2006-04-30 15:00","2006","04","30","15:00","18.0","","-5.2","","20","","8","","26","","24.1","","100.68","","","","","","Mostly Cloudy"
"2006-04-30 16:00","2006","04","30","16:00","18.3","","-4.4","","21","","8","","32","","24.1","","100.61","","","","","","Mostly Cloudy"
"2006-04-30 17:00","2006","04","30","17:00","18.8","","-5.4","","19","","9","","22","","24.1","","100.56","","","","","","Mostly Cloudy"
"2006-04-30 18:00","2006","04","30","18:00","17.5","","-6.7","","19","","9","","28","","24.1","","100.53","","","","","","Mostly Cloudy"
"2006-04-30 19:00","2006","04","30","19:00","16.5","","-7.2","","19","","10","","24","","24.1","","100.50","","","","","","Mostly Cloudy"
"2006-04-30 20:00","2006","04","30","20:00","15.4","","-9.0","","18","","9","","19","","24.1","","100.55","","","","","","Mostly Cloudy"
"2006-04-30 21:00","2006","04","30","21:00","15.1","","-5.3","","24","","9","","15","","24.1","","100.60","","","","","","Mostly Cloudy"
"2006-04-30 22:00","2006","04","30","22:00","14.8","","-4.0","","27","","9","","13","","24.1","","100.62","","","","","","Mostly Cloudy"
"2006-04-30 23:00","2006","04","30","23:00","13.9","","-3.2","","30","","12","","11","","24.1","","100.64","","","","","","Mostly Cloudy"
