"Station Name","TORONTO LESTER B. PEARSON INT'L A"
"Province","ONTARIO"
"Latitude","43.68"
"Longitude","-79.63"
"Elevation","173.40"
"Climate Identifier","6158733"
"WMO Identifier","71624"
"TC Identifier","YYZ"
"All times are specified in Local Standard Time (LST). Add 1 hour to adjust for Daylight Saving Time where and when it is observed."

"Legend"
"E","Estimated"
"M","Missing"
"NA","Not Available"

"Date/Time","Year","Month","Day","Time","Temp (°C)","Temp Flag","Dew Point Temp (°C)","Dew Point Temp Flag","Rel Hum (%)","Rel Hum Flag","Wind Dir (10s deg)","Wind Dir Flag","Wind Spd (km/h)","Wind Spd Flag","Visibility (km)","Visibility Flag","Stn Press (kPa)","Stn Press Flag","Hmdx","Hmdx Flag","Wind Chill","Wind Chill Flag","Weather"
"1956-10-01 00:00","1956","10","01","00:00","8.3","","3.9","","74","","29","","10","","25.0","","100.03","","","","","","Cloudy"
"1956-10-01 01:00","1956","10","01","01:00","7.8","","3.3","","73","","32","","8","","25.0","","100.03","","","","","","Mainly Clear"
"1956-10-01 02:00","1956","10","01","02:00","5.6","","2.2","","79","","29","","8","","25.0","","100.03","","","","","","Clear"
"1956-10-01 03:00","1956","10","01","03:00","3.3","","1.1","","85","","27","","10","","25.0","","100.03","","","","","","Clear"
"1956-10-01 04:00","1956","10","01","04:00","3.3","","1.1","","85","","29","","10","","25.0","","100.07","","","","","","Clear"
"1956-10-01 05:00","1956","10","01","05:00","2.8","","1.1","","89","","27","","6","","25.0","","100.08","","","","","","Clear"
"1956-10-01 06:00","1956","10","01","06:00","2.2","","0.6","","89","","25","","6","","25.0","","100.12","","","","","","Clear"
"1956-10-01 07:00","1956","10","01","07:00","3.3","","1.7","","89","","27","","6","","25.0","","100.19","","","","","","Clear"
"1956-10-01 08:00","1956","10","01","08:00","7.2","","2.8","","73","","27","","3","","25.0","","100.16","","","","","","Clear"
"1956-10-01 09:00","1956","10","01","09:00","8.9","","2.8","","66","","23","","3","","25.0","","100.18","","","","","","Clear"
"1956-10-01 10:00","1956","10","01","10:00","10.0","","3.3","","63","","23","","6","","25.0","","100.17","","","","","","Mainly Clear"
"1956-10-01 11:00","1956","10","01","11:00","11.1","","3.3","","59","","25","","8","","25.0","","100.10","","","","","","Clear"
"1956-10-01 12:00","1956","10","01","12:00","13.9","","5.0","","55","","23","","8","","25.0","","100.02","","","","","","Clear"
"1956-10-01 13:00","1956","10","01","13:00","15.0","","5.0","","51","","20","","11","","25.0","","99.89","","","","","","Mainly Clear"
"1956-10-01 14:00","1956","10","01","14:00","13.9","","3.9","","51","","16","","14","","25.0","","99.83","","","","","","Mainly Clear"
"1956-10-01 15:00","1956","10","01","15:00","15.0","","5.6","","53","","16","","16","","25.0","","99.76","","","","","","Mainly Clear"
"1956-10-01 16:00","1956","10","01","16:00","15.0","","6.1","","55","","14","","11","","19.3","","99.71","","","","","","Mainly Clear"
"1956-10-01 17:00","1956","10","01","17:00","13.3","","6.1","","62","","16","","16","","24.1","","99.69","","","","","","Mainly Clear"
"1956-10-01 18:00","1956","10","01","18:00","11.1","","6.1","","71","","18","","11","","24.1","","99.57","","","","","","Mainly Clear"
"1956-10-01 19:00","1956","10","01","19:00","10.0","","5.0","","71","","16","","10","","24.1","","99.56","","","","","","Mainly Clear"
"1956-10-01 20:00","1956","10","01","20:00","10.0","","5.0","","71","","18","","11","","25.0","","99.52","","","","","","Clear"
"1956-10-01 21:00","1956","10","01","21:00","9.4","","5.6","","77","","14","","10","","25.0","","99.49","","","","","","Clear"
"1956-10-01 22:00","1956","10","01","22:00","8.9","","6.7","","86","","18","","10","","25.0","","99.44","","","","","","Clear"
"1956-10-01 23:00","1956","10","01","23:00","8.3","","6.7","","89","","18","","6","","25.0","","99.40","","","","","","Clear"
"1956-10-02 00:00","1956","10","02","00:00","7.8","","6.7","","93","","14","","5","","24.1","","99.28","","","","","","Mainly Clear"
"1956-10-02 01:00","1956","10","02","01:00","8.3","","6.7","","89","","16","","5","","16.1","","99.20","","","","","","Mostly Cloudy"
"1956-10-02 02:00","1956","10","02","02:00","9.4","","8.3","","93","","11","","3","","4.8","","99.09","","","","","","Fog"
"1956-10-02 03:00","1956","10","02","03:00","7.8","","7.2","","96","","5","","3","","6.4","","99.00","","","","","","Fog"
"1956-10-02 04:00","1956","10","02","04:00","9.4","","8.3","","93","","9","","6","","4.0","","98.91","","","","","","Fog"
"1956-10-02 05:00","1956","10","02","05:00","10.0","","8.9","","93","","14","","8","","4.0","","98.81","","","","","","Fog"
"1956-10-02 06:00","1956","10","02","06:00","11.1","","10.0","","93","","14","","10","","2.4","","98.70","","","","","","Fog"
"1956-10-02 07:00","1956","10","02","07:00","11.1","","10.0","","93","","16","","5","","2.4","","98.65","","","","","","Fog"
"1956-10-02 08:00","1956","10","02","08:00","12.8","","11.1","","90","","14","","3","","4.0","","98.52","","","","","","Fog"
"1956-10-02 09:00","1956","10","02","09:00","16.7","","12.8","","78","","18","","6","","6.4","","98.43","","","","","","Haze"
"1956-10-02 10:00","1956","10","02","10:00","17.8","","13.9","","78","","25","","18","","4.0","","98.39","","","","","","Rain Showers,Haze"
"1956-10-02 11:00","1956","10","02","11:00","13.9","","12.2","","90","","32","","21","","3.2","","98.44","","","","","","Moderate Rain Showers,Haze"
"1956-10-02 12:00","1956","10","02","12:00","14.4","","12.8","","90","","27","","18","","25.0","","98.40","","","","","","Mainly Clear"
"1956-10-02 13:00","1956","10","02","13:00","17.8","","12.2","","70","","27","","43","","25.0","","98.42","","","","","","Mainly Clear"
"1956-10-02 14:00","1956","10","02","14:00","18.9","","10.6","","58","","27","","39","","25.0","","98.49","","","","","","Mainly Clear"
"1956-10-02 15:00","1956","10","02","15:00","19.4","","8.9","","50","","27","","40","","25.0","","98.56","","","","","","Mainly Clear"
"1956-10-02 16:00","1956","10","02","16:00","18.9","","9.4","","54","","29","","32","","25.0","","98.67","","","","","","Mainly Clear"
"1956-10-02 17:00","1956","10","02","17:00","18.3","","10.0","","58","","29","","24","","25.0","","98.73","","","","","","Mainly Clear"
"1956-10-02 18:00","1956","10","02","18:00","16.1","","10.6","","70","","27","","14","","24.1","","98.82","","","","","","Mostly Cloudy"
"1956-10-02 19:00","1956","10","02","19:00","13.9","","10.0","","77","","27","","10","","24.1","","98.86","","","","","","Mainly Clear"
"1956-10-02 20:00","1956","10","02","20:00","13.9","","10.0","","77","","32","","11","","24.1","","99.02","","","","","","Mainly Clear"
"1956-10-02 21:00","1956","10","02","21:00","12.2","","8.3","","74","","27","","8","","24.1","","99.09","","","","","","Mainly Clear"
"1956-10-02 22:00","1956","10","02","22:00","12.2","","8.3","","74","","32","","11","","24.1","","99.14","","","","","","Clear"
"1956-10-02 23:00","1956","10","02","23:00","10.0","","7.2","","83","","27","","10","","24.1","","99.22","","","","","","Clear"
"1956-10-03 00:00","1956","10","03","00:00","10.6","","8.3","","86","","32","","8","","25.0","","99.29","","","","","","Clear"
"1956-10-03 01:00","1956","10","03","01:00","10.6","","8.3","","86","","32","","16","","25.0","","99.35","","","","","","Clear"
"1956-10-03 02:00","1956","10","03","02:00","10.0","","7.8","","86","","32","","16","","25.0","","99.35","","","","","","Clear"
"1956-10-03 03:00","1956","10","03","03:00","10.0","","7.2","","83","","32","","19","","25.0","","99.46","","","","","","Clear"
"1956-10-03 04:00","1956","10","03","04:00","7.8","","6.1","","89","","32","","10","","25.0","","99.55","","","","","","Clear"
"1956-10-03 05:00","1956","10","03","05:00","7.2","","6.1","","93","","32","","8","","25.0","","99.63","","","","","","Clear"
"1956-10-03 06:00","1956","10","03","06:00","6.7","","3.9","","82","","27","","6","","19.3","","99.69","","","","","","Clear"
"1956-10-03 07:00","1956","10","03","07:00","6.7","","5.6","","93","","23","","6","","19.3","","99.79","","","","","","Clear"
"1956-10-03 08:00","1956","10","03","08:00","11.1","","8.3","","83","","36","","6","","25.0","","99.79","","","","","","Clear"
"1956-10-03 09:00","1956","10","03","09:00","13.3","","9.4","","77","","32","","8","","25.0","","99.84","","","","","","Clear"
"1956-10-03 10:00","1956","10","03","10:00","15.0","","10.0","","72","","34","","8","","25.0","","99.86","","","","","","Clear"
"1956-10-03 11:00","1956","10","03","11:00","16.7","","10.0","","65","","32","","6","","25.0","","99.86","","","","","","Mainly Clear"
"1956-10-03 12:00","1956","10","03","12:00","17.8","","7.8","","52","","34","","6","","25.0","","99.80","","","","","","Mainly Clear"
"1956-10-03 13:00","1956","10","03","13:00","18.3","","5.6","","43","","27","","5","","25.0","","99.77","","","","","","Mainly Clear"
"1956-10-03 14:00","1956","10","03","14:00","17.8","","8.3","","54","","18","","13","","25.0","","99.70","","","","","","Mostly Cloudy"
"1956-10-03 15:00","1956","10","03","15:00","17.8","","8.3","","54","","16","","16","","25.0","","99.67","","","","","","Mostly Cloudy"
"1956-10-03 16:00","1956","10","03","16:00","17.2","","6.7","","50","","18","","10","","25.0","","99.74","","","","","","Mostly Cloudy"
"1956-10-03 17:00","1956","10","03","17:00","15.6","","7.2","","58","","16","","8","","25.0","","99.63","","","","","","Mainly Clear"
"1956-10-03 18:00","1956","10","03","18:00","13.9","","6.7","","62","","18","","6","","25.0","","99.60","","","","","","Mostly Cloudy"
"1956-10-03 19:00","1956","10","03","19:00","13.3","","6.7","","64","","18","","5","","25.0","","99.60","","","","","","Mostly Cloudy"
"1956-10-03 20:00","1956","10","03","20:00","12.2","","6.7","","69","","18","","6","","25.0","","99.60","","","","","","Mostly Cloudy"
"1956-10-03 21:00","1956","10","03","21:00","12.2","","7.2","","71","","23","","5","","24.1","","99.59","","","","","","Mainly Clear"
"1956-10-03 22:00","1956","10","03","22:00","11.1","","7.8","","80","","27","","3","","24.1","","99.55","","","","","","Mainly Clear"
"1956-10-03 23:00","1956","10","03","23:00","10.6","","7.8","","83","","27","","3","","24.1","","99.52","","","","","","Mainly Clear"
"1956-10-04 00:00","1956","10","04","00:00","10.0","","7.8","","86","","16","","3","","16.1","","99.44","","","","","","Cloudy"
"1956-10-04 01:00","1956","10","04","01:00","10.0","","8.3","","89","","16","","3","","9.7","","99.42","","","","","","Fog"
"1956-10-04 02:00","1956","10","04","02:00","8.9","","8.3","","96","","16","","3","","4.0","","99.35","","","","","","Fog"
"1956-10-04 03:00","1956","10","04","03:00","8.3","","7.8","","96","","34","","5","","4.8","","99.30","","","","","","Fog"
"1956-10-04 04:00","1956","10","04","04:00","8.9","","7.8","","93","","36","","5","","4.8","","99.24","","","","","","Fog"
"1956-10-04 05:00","1956","10","04","05:00","8.9","","7.8","","93","","32","","5","","4.8","","99.20","","","","","","Fog"
"1956-10-04 06:00","1956","10","04","06:00","8.3","","7.2","","93","","16","","3","","3.2","","99.15","","","","","","Fog"
"1956-10-04 07:00","1956","10","04","07:00","8.3","","7.2","","93","","29","","3","","3.2","","99.14","","","","","","Fog"
"1956-10-04 08:00","1956","10","04","08:00","11.1","","8.9","","86","","20","","3","","4.0","","99.14","","","","","","Haze"
"1956-10-04 09:00","1956","10","04","09:00","15.0","","10.6","","75","","18","","10","","6.4","","99.10","","","","","","Haze"
"1956-10-04 10:00","1956","10","04","10:00","18.3","","10.6","","61","","20","","19","","16.1","","99.06","","","","","","Mainly Clear"
"1956-10-04 11:00","1956","10","04","11:00","20.0","","10.0","","53","","23","","32","","19.3","","99.02","","","","","","Clear"
"1956-10-04 12:00","1956","10","04","12:00","20.6","","9.4","","49","","23","","32","","19.3","","99.00","","","","","","Clear"
"1956-10-04 13:00","1956","10","04","13:00","21.1","","8.9","","46","","25","","32","","19.3","","98.95","","","","","","Clear"
"1956-10-04 14:00","1956","10","04","14:00","21.7","","8.3","","42","","27","","35","","32.2","","98.99","","","","","","Clear"
"1956-10-04 15:00","1956","10","04","15:00","20.6","","9.4","","49","","29","","29","","32.2","","99.07","","","","","","Clear"
"1956-10-04 16:00","1956","10","04","16:00","19.4","","7.2","","64","","32","","29","","25.0","","99.19","","","","","","Mainly Clear"
"1956-10-04 17:00","1956","10","04","17:00","16.7","","8.3","","58","","32","","26","","25.0","","99.30","","","","","","Mainly Clear"
"1956-10-04 18:00","1956","10","04","18:00","13.3","","8.3","","72","","34","","23","","25.0","","99.46","","","","","","Mainly Clear"
"1956-10-04 19:00","1956","10","04","19:00","12.2","","7.2","","71","","36","","24","","25.0","","99.55","","","","","","Mainly Clear"
"1956-10-04 20:00","1956","10","04","20:00","11.1","","6.1","","71","","34","","29","","25.0","","99.57","","","","","","Clear"
"1956-10-04 21:00","1956","10","04","21:00","10.6","","5.6","","71","","34","","23","","25.0","","99.76","","","","","","Clear"
"1956-10-04 22:00","1956","10","04","22:00","10.0","","4.4","","68","","36","","26","","25.0","","99.80","","","","","","Clear"
"1956-10-04 23:00","1956","10","04","23:00","8.9","","2.2","","63","","2","","29","","25.0","","99.92","","","","","","Clear"
"1956-10-05 00:00","1956","10","05","00:00","7.8","","1.7","","65","","36","","11","","25.0","","100.03","","","","","","Clear"
"1956-10-05 01:00","1956","10","05","01:00","5.6","","2.2","","79","","36","","5","","25.0","","100.14","","","","","","Clear"
"1956-10-05 02:00","1956","10","05","02:00","5.6","","1.7","","76","","34","","10","","25.0","","100.26","","","","","","Clear"
"1956-10-05 03:00","1956","10","05","03:00","4.4","","1.1","","79","","34","","11","","25.0","","100.35","","","","","","Clear"
"1956-10-05 04:00","1956","10","05","04:00","3.9","","1.1","","82","","34","","11","","25.0","","100.43","","","","","","Clear"
"1956-10-05 05:00","1956","10","05","05:00","2.8","","0.0","","82","","34","","10","","25.0","","100.53","","","","","","Clear"
"1956-10-05 06:00","1956","10","05","06:00","2.2","","0.0","","85","","36","","10","","25.0","","100.60","","","","","","Clear"
"1956-10-05 07:00","1956","10","05","07:00","3.3","","0.6","","82","","36","","11","","25.0","","100.65","","","","","","Clear"
"1956-10-05 08:00","1956","10","05","08:00","6.1","","1.1","","70","","2","","10","","25.0","","100.75","","","","","","Clear"
"1956-10-05 09:00","1956","10","05","09:00","8.9","","-1.1","","49","","7","","14","","25.0","","100.78","","","","","","Clear"
"1956-10-05 10:00","1956","10","05","10:00","9.4","","-1.1","","48","","7","","14","","25.0","","100.78","","","","","","Mainly Clear"
"1956-10-05 11:00","1956","10","05","11:00","10.6","","-0.6","","46","","5","","16","","25.0","","100.76","","","","","","Mainly Clear"
"1956-10-05 12:00","1956","10","05","12:00","11.1","","-1.7","","41","","9","","11","","25.0","","100.72","","","","","","Clear"
"1956-10-05 13:00","1956","10","05","13:00","11.1","","0.6","","48","","18","","10","","25.0","","100.67","","","","","","Clear"
"1956-10-05 14:00","1956","10","05","14:00","12.2","","1.7","","48","","16","","13","","25.0","","100.62","","","","","","Clear"
"1956-10-05 15:00","1956","10","05","15:00","12.2","","2.2","","50","","16","","13","","25.0","","100.57","","","","","","Clear"
"1956-10-05 16:00","1956","10","05","16:00","11.7","","1.1","","48","","18","","8","","25.0","","100.56","","","","","","Clear"
"1956-10-05 17:00","1956","10","05","17:00","11.1","","0.6","","50","","18","","10","","25.0","","100.56","","","","","","Clear"
"1956-10-05 18:00","1956","10","05","18:00","8.9","","0.6","","56","","18","","6","","25.0","","100.52","","","","","","Clear"
"1956-10-05 19:00","1956","10","05","19:00","8.3","","0.6","","58","","18","","6","","25.0","","100.50","","","","","","Clear"
"1956-10-05 20:00","1956","10","05","20:00","5.6","","2.2","","79","","18","","3","","25.0","","100.50","","","","","","Clear"
"1956-10-05 21:00","1956","10","05","21:00","5.0","","1.7","","79","","18","","3","","25.0","","100.48","","","","","","Clear"
"1956-10-05 22:00","1956","10","05","22:00","3.9","","1.7","","85","","18","","3","","25.0","","100.43","","","","","","Clear"
"1956-10-05 23:00","1956","10","05","23:00","2.8","","1.7","","92","","9","","6","","25.0","","100.34","","","","","","Clear"
"1956-10-06 00:00","1956","10","06","00:00","2.2","","0.6","","89","","","","0","","24.1","","100.22","","","","","","Clear"
"1956-10-06 01:00","1956","10","06","01:00","2.8","","1.1","","89","","5","","3","","24.1","","100.23","","","","","","Clear"
"1956-10-06 02:00","1956","10","06","02:00","2.8","","1.1","","89","","5","","5","","19.3","","100.15","","","","","","Clear"
"1956-10-06 03:00","1956","10","06","03:00","2.2","","1.1","","92","","36","","6","","19.3","","100.10","","","","","","Clear"
"1956-10-06 04:00","1956","10","06","04:00","2.2","","0.6","","89","","5","","5","","24.1","","100.03","","","","","","Clear"
"1956-10-06 05:00","1956","10","06","05:00","1.7","","0.6","","92","","5","","5","","19.3","","99.95","","","","","","Clear"
"1956-10-06 06:00","1956","10","06","06:00","1.1","","0.0","","92","","9","","3","","8.0","","99.84","","","","","","Fog"
"1956-10-06 07:00","1956","10","06","07:00","2.2","","1.1","","92","","","","0","","6.4","","99.78","","","","","","Fog"
"1956-10-06 08:00","1956","10","06","08:00","6.7","","4.4","","86","","36","","3","","6.4","","99.63","","","","","","Fog"
"1956-10-06 09:00","1956","10","06","09:00","11.1","","7.2","","77","","16","","13","","8.0","","99.53","","","","","","Haze"
"1956-10-06 10:00","1956","10","06","10:00","12.2","","6.7","","69","","16","","14","","9.7","","99.44","","","","","","Haze"
"1956-10-06 11:00","1956","10","06","11:00","13.3","","8.9","","74","","16","","18","","9.7","","99.32","","","","","","Haze"
"1956-10-06 12:00","1956","10","06","12:00","14.4","","10.0","","75","","14","","16","","8.0","","99.20","","","","","","Haze"
"1956-10-06 13:00","1956","10","06","13:00","16.7","","10.0","","65","","16","","19","","8.0","","99.11","","","","","","Haze"
"1956-10-06 14:00","1956","10","06","14:00","17.2","","11.1","","67","","14","","19","","8.0","","98.97","","","","","","Haze"
"1956-10-06 15:00","1956","10","06","15:00","16.1","","12.2","","78","","16","","24","","8.0","","98.85","","","","","","Haze"
"1956-10-06 16:00","1956","10","06","16:00","15.6","","12.8","","84","","18","","26","","8.0","","98.70","","","","","","Haze"
"1956-10-06 17:00","1956","10","06","17:00","15.0","","12.8","","87","","18","","23","","8.0","","98.60","","","","","","Haze"
"1956-10-06 18:00","1956","10","06","18:00","14.4","","13.3","","93","","18","","24","","4.8","","98.43","","","","","","Rain,Fog"
"1956-10-06 19:00","1956","10","06","19:00","14.4","","13.3","","93","","18","","29","","4.8","","98.31","","","","","","Rain Showers,Fog"
"1956-10-06 20:00","1956","10","06","20:00","14.4","","13.3","","93","","18","","19","","4.8","","98.22","","","","","","Rain Showers,Fog"
"1956-10-06 21:00","1956","10","06","21:00","12.2","","11.1","","93","","20","","19","","6.4","","98.33","","","","","","Thunderstorms,Rain Showers,Fog"
"1956-10-06 22:00","1956","10","06","22:00","12.8","","11.7","","93","","18","","14","","16.1","","98.14","","","","","","Cloudy"
"1956-10-06 23:00","1956","10","06","23:00","11.1","","11.1","","100","","23","","16","","4.8","","98.10","","","","","","Fog"
"1956-10-07 00:00","1956","10","07","00:00","12.2","","10.6","","93","","27","","13","","12.9","","98.12","","","","","","Cloudy"
"1956-10-07 01:00","1956","10","07","01:00","11.1","","8.9","","86","","27","","13","","16.1","","98.12","","","","","","Mostly Cloudy"
"1956-10-07 02:00","1956","10","07","02:00","10.0","","8.3","","86","","27","","14","","16.1","","98.12","","","","","","Mainly Clear"
"1956-10-07 03:00","1956","10","07","03:00","10.0","","8.3","","86","","27","","16","","24.1","","98.15","","","","","","Mainly Clear"
"1956-10-07 04:00","1956","10","07","04:00","10.0","","7.2","","83","","27","","19","","24.1","","98.17","","","","","","Mostly Cloudy"
"1956-10-07 05:00","1956","10","07","05:00","9.4","","6.7","","83","","25","","19","","24.1","","98.23","","","","","","Mainly Clear"
"1956-10-07 06:00","1956","10","07","06:00","8.3","","6.7","","89","","27","","10","","24.1","","98.23","","","","","","Mostly Cloudy"
"1956-10-07 07:00","1956","10","07","07:00","8.9","","6.1","","83","","27","","23","","24.1","","98.30","","","","","","Mostly Cloudy"
"1956-10-07 08:00","1956","10","07","08:00","8.9","","5.6","","80","","32","","23","","24.1","","98.34","","","","","","Mostly Cloudy"
"1956-10-07 09:00","1956","10","07","09:00","9.4","","5.0","","74","","27","","26","","24.1","","98.40","","","","","","Mostly Cloudy"
"1956-10-07 10:00","1956","10","07","10:00","9.4","","5.0","","74","","27","","32","","32.2","","98.42","","","","","","Mostly Cloudy"
"1956-10-07 11:00","1956","10","07","11:00","10.0","","5.0","","71","","27","","40","","32.2","","98.43","","","","","","Cloudy"
"1956-10-07 12:00","1956","10","07","12:00","10.6","","5.6","","71","","27","","48","","32.2","","98.47","","","","","","Mostly Cloudy"
"1956-10-07 13:00","1956","10","07","13:00","10.0","","5.6","","74","","27","","42","","32.2","","98.58","","","","","","Cloudy"
"1956-10-07 14:00","1956","10","07","14:00","9.4","","4.4","","71","","29","","48","","32.2","","98.72","","","","","","Cloudy"
"1956-10-07 15:00","1956","10","07","15:00","9.4","","3.3","","66","","29","","48","","32.2","","98.87","","","","","","Cloudy"
"1956-10-07 16:00","1956","10","07","16:00","8.9","","5.6","","80","","27","","35","","24.1","","98.97","","","","","","Rain Showers"
"1956-10-07 17:00","1956","10","07","17:00","8.9","","2.8","","66","","29","","35","","24.1","","99.06","","","","","","Mostly Cloudy"
"1956-10-07 18:00","1956","10","07","18:00","8.9","","2.2","","63","","29","","29","","24.1","","99.14","","","","","","Mainly Clear"
"1956-10-07 19:00","1956","10","07","19:00","8.3","","3.9","","74","","27","","23","","25.0","","99.19","","","","","","Mainly Clear"
"1956-10-07 20:00","1956","10","07","20:00","7.8","","3.9","","76","","27","","23","","25.0","","99.33","","","","","","Clear"
"1956-10-07 21:00","1956","10","07","21:00","6.1","","3.3","","82","","27","","16","","25.0","","99.36","","","","","","Clear"
"1956-10-07 22:00","1956","10","07","22:00","5.0","","2.2","","82","","23","","13","","25.0","","99.37","","","","","","Clear"
"1956-10-07 23:00","1956","10","07","23:00","5.0","","2.8","","86","","20","","10","","25.0","","99.30","","","","","","Clear"
"1956-10-08 00:00","1956","10","08","00:00","3.9","","2.2","","89","","23","","8","","25.0","","99.23","","","","","","Clear"
"1956-10-08 01:00","1956","10","08","01:00","5.0","","1.7","","79","","23","","13","","25.0","","99.20","","","","","","Clear"
"1956-10-08 02:00","1956","10","08","02:00","4.4","","1.7","","82","","23","","13","","25.0","","99.23","","","","","","Clear"
"1956-10-08 03:00","1956","10","08","03:00","4.4","","1.7","","82","","20","","11","","25.0","","99.19","","","","","","Clear"
"1956-10-08 04:00","1956","10","08","04:00","5.0","","2.2","","82","","18","","16","","24.1","","99.17","","","","","","Clear"
"1956-10-08 05:00","1956","10","08","05:00","5.0","","2.2","","82","","18","","11","","24.1","","99.08","","","","","","Clear"
"1956-10-08 06:00","1956","10","08","06:00","6.7","","2.8","","73","","25","","29","","24.1","","99.01","","","","","","Clear"
"1956-10-08 07:00","1956","10","08","07:00","6.7","","3.3","","79","","23","","29","","24.1","","98.95","","","","","","Clear"
"1956-10-08 08:00","1956","10","08","08:00","9.4","","2.8","","63","","23","","29","","25.0","","98.97","","","","","","Clear"
"1956-10-08 09:00","1956","10","08","09:00","13.9","","2.8","","47","","23","","32","","25.0","","98.91","","","","","","Clear"
"1956-10-08 10:00","1956","10","08","10:00","16.1","","4.4","","46","","23","","40","","25.0","","98.80","","","","","","Clear"
"1956-10-08 11:00","1956","10","08","11:00","17.8","","2.8","","37","","25","","35","","25.0","","98.71","","","","","","Mainly Clear"
"1956-10-08 12:00","1956","10","08","12:00","18.9","","2.8","","34","","25","","42","","25.0","","98.62","","","","","","Mainly Clear"
"1956-10-08 13:00","1956","10","08","13:00","18.9","","2.2","","33","","25","","45","","25.0","","98.56","","","","","","Clear"
"1956-10-08 14:00","1956","10","08","14:00","19.4","","3.3","","34","","25","","40","","25.0","","98.52","","","","","","Clear"
"1956-10-08 15:00","1956","10","08","15:00","18.9","","7.2","","47","","23","","35","","24.1","","98.52","","","","","","Clear"
"1956-10-08 16:00","1956","10","08","16:00","18.3","","7.2","","48","","23","","26","","24.1","","98.53","","","","","","Mainly Clear"
"1956-10-08 17:00","1956","10","08","17:00","16.7","","6.7","","52","","23","","23","","24.1","","98.57","","","","","","Mainly Clear"
"1956-10-08 18:00","1956","10","08","18:00","15.0","","6.1","","55","","23","","18","","24.1","","98.60","","","","","","Mainly Clear"
"1956-10-08 19:00","1956","10","08","19:00","13.3","","6.7","","64","","29","","23","","24.1","","98.66","","","","","","Clear"
"1956-10-08 20:00","1956","10","08","20:00","11.1","","4.4","","64","","36","","24","","24.1","","98.94","","","","","","Clear"
"1956-10-08 21:00","1956","10","08","21:00","11.1","","2.8","","56","","34","","23","","25.0","","99.00","","","","","","Mostly Cloudy"
"1956-10-08 22:00","1956","10","08","22:00","10.0","","0.6","","52","","32","","18","","25.0","","99.17","","","","","","Mainly Clear"
"1956-10-08 23:00","1956","10","08","23:00","8.3","","0.0","","56","","29","","16","","25.0","","99.25","","","","","","Clear"
"1956-10-09 00:00","1956","10","09","00:00","7.2","","1.1","","65","","29","","18","","25.0","","99.37","","","","","","Clear"
"1956-10-09 01:00","1956","10","09","01:00","5.0","","1.1","","76","","27","","11","","25.0","","99.43","","","","","","Clear"
"1956-10-09 02:00","1956","10","09","02:00","4.4","","1.1","","79","","27","","14","","25.0","","99.52","","","","","","Clear"
"1956-10-09 03:00","1956","10","09","03:00","3.9","","1.1","","82","","25","","19","","25.0","","99.59","","","","","","Clear"
"1956-10-09 04:00","1956","10","09","04:00","3.3","","0.6","","82","","23","","11","","25.0","","99.65","","","","","","Clear"
"1956-10-09 05:00","1956","10","09","05:00","3.3","","0.6","","82","","27","","18","","25.0","","99.74","","","","","","Mainly Clear"
"1956-10-09 06:00","1956","10","09","06:00","3.9","","1.1","","82","","27","","16","","25.0","","99.81","","","","","","Mainly Clear"
"1956-10-09 07:00","1956","10","09","07:00","4.4","","1.1","","79","","27","","14","","25.0","","99.88","","","","","","Mainly Clear"
"1956-10-09 08:00","1956","10","09","08:00","7.2","","2.2","","70","","27","","19","","25.0","","99.95","","","","","","Mainly Clear"
"1956-10-09 09:00","1956","10","09","09:00","9.4","","2.2","","61","","29","","29","","25.0","","100.00","","","","","","Mostly Cloudy"
"1956-10-09 10:00","1956","10","09","10:00","10.0","","3.9","","66","","25","","32","","25.0","","100.04","","","","","","Mostly Cloudy"
"1956-10-09 11:00","1956","10","09","11:00","8.9","","1.7","","61","","32","","19","","25.0","","100.14","","","","","","Mostly Cloudy"
"1956-10-09 12:00","1956","10","09","12:00","10.0","","0.6","","52","","34","","26","","25.0","","100.17","","","","","","Mostly Cloudy"
"1956-10-09 13:00","1956","10","09","13:00","10.0","","-1.1","","46","","34","","26","","25.0","","100.19","","","","","","Mostly Cloudy"
"1956-10-09 14:00","1956","10","09","14:00","10.0","","-0.6","","48","","34","","19","","25.0","","100.24","","","","","","Mostly Cloudy"
"1956-10-09 15:00","1956","10","09","15:00","10.0","","0.0","","50","","32","","26","","25.0","","100.27","","","","","","Mostly Cloudy"
"1956-10-09 16:00","1956","10","09","16:00","9.4","","0.0","","52","","34","","21","","25.0","","100.36","","","","","","Mostly Cloudy"
"1956-10-09 17:00","1956","10","09","17:00","7.8","","0.6","","60","","34","","16","","25.0","","100.46","","","","","","Mostly Cloudy"
"1956-10-09 18:00","1956","10","09","18:00","6.1","","-1.1","","60","","32","","24","","25.0","","100.54","","","","","","Mainly Clear"
"1956-10-09 19:00","1956","10","09","19:00","5.0","","-0.6","","67","","29","","13","","25.0","","100.64","","","","","","Mainly Clear"
"1956-10-09 20:00","1956","10","09","20:00","4.4","","0.0","","73","","29","","19","","25.0","","100.70","","","","","","Clear"
"1956-10-09 21:00","1956","10","09","21:00","4.4","","0.0","","73","","29","","21","","25.0","","100.74","","","","","","Mostly Cloudy"
"1956-10-09 22:00","1956","10","09","22:00","3.3","","-0.6","","76","","29","","13","","25.0","","100.75","","","","","","Mainly Clear"
"1956-10-09 23:00","1956","10","09","23:00","3.3","","0.0","","79","","29","","13","","25.0","","100.78","","","","","","Mostly Cloudy"
"1956-10-10 00:00","1956","10","10","00:00","4.4","","0.6","","76","","25","","10","","25.0","","100.78","","","","","","Mostly Cloudy"
"1956-10-10 01:00","1956","10","10","01:00","4.4","","0.0","","73","","25","","16","","25.0","","100.79","","","","","","Mostly Cloudy"
"1956-10-10 02:00","1956","10","10","02:00","3.9","","0.0","","76","","27","","14","","25.0","","100.81","","","","","","Mostly Cloudy"
"1956-10-10 03:00","1956","10","10","03:00","4.4","","-0.6","","70","","32","","13","","25.0","","100.88","","","","","","Mostly Cloudy"
"1956-10-10 04:00","1956","10","10","04:00","3.9","","-1.1","","70","","32","","11","","25.0","","100.92","","","","","","Mostly Cloudy"
"1956-10-10 05:00","1956","10","10","05:00","2.2","","-1.1","","78","","29","","10","","25.0","","100.98","","","","","","Mainly Clear"
"1956-10-10 06:00","1956","10","10","06:00","1.1","","-0.6","","89","","29","","8","","25.0","","101.03","","","","","","Mainly Clear"
"1956-10-10 07:00","1956","10","10","07:00","1.1","","-1.1","","85","","29","","8","","25.0","","101.11","","","","","","Mainly Clear"
"1956-10-10 08:00","1956","10","10","08:00","5.0","","-0.6","","67","","27","","6","","25.0","","101.17","","","","","","Mainly Clear"
"1956-10-10 09:00","1956","10","10","09:00","6.7","","-1.7","","55","","27","","6","","25.0","","101.19","","","","","","Mainly Clear"
"1956-10-10 10:00","1956","10","10","10:00","7.8","","-1.7","","51","","29","","13","","25.0","","101.24","","","","","","Mainly Clear"
"1956-10-10 11:00","1956","10","10","11:00","8.3","","-3.3","","44","","32","","16","","25.0","","101.24","","","","","","Mainly Clear"
"1956-10-10 12:00","1956","10","10","12:00","9.4","","-4.4","","37","","32","","16","","25.0","","101.15","","","","","","Mainly Clear"
"1956-10-10 13:00","1956","10","10","13:00","10.0","","-3.9","","37","","36","","19","","25.0","","101.09","","","","","","Mainly Clear"
"1956-10-10 14:00","1956","10","10","14:00","10.6","","-5.0","","33","","32","","23","","25.0","","101.03","","","","","","Mainly Clear"
"1956-10-10 15:00","1956","10","10","15:00","10.0","","-2.8","","41","","29","","19","","25.0","","101.06","","","","","","Mainly Clear"
"1956-10-10 16:00","1956","10","10","16:00","10.0","","-1.1","","46","","29","","29","","25.0","","101.06","","","","","","Mainly Clear"
"1956-10-10 17:00","1956","10","10","17:00","8.3","","-1.1","","51","","29","","23","","25.0","","101.05","","","","","","Mainly Clear"
"1956-10-10 18:00","1956","10","10","18:00","6.1","","-1.1","","60","","29","","13","","25.0","","101.09","","","","","","Mainly Clear"
"1956-10-10 19:00","1956","10","10","19:00","5.6","","-1.7","","60","","32","","6","","25.0","","101.13","","","","","","Clear"
"1956-10-10 20:00","1956","10","10","20:00","4.4","","-2.8","","59","","32","","19","","25.0","","101.15","","","","","","Clear"
"1956-10-10 21:00","1956","10","10","21:00","3.3","","-2.8","","64","","32","","8","","25.0","","101.18","","","","","","Mainly Clear"
"1956-10-10 22:00","1956","10","10","22:00","2.2","","-2.8","","69","","27","","13","","25.0","","101.21","","","","","","Clear"
"1956-10-10 23:00","1956","10","10","23:00","1.1","","-2.8","","75","","29","","10","","25.0","","101.22","","","","","","Clear"
"1956-10-11 00:00","1956","10","11","00:00","1.1","","-2.2","","78","","36","","13","","25.0","","101.30","","","","","","Clear"
"1956-10-11 01:00","1956","10","11","01:00","1.1","","-2.2","","78","","36","","10","","25.0","","101.30","","","","","","Clear"
"1956-10-11 02:00","1956","10","11","02:00","0.0","","-2.2","","85","","36","","8","","25.0","","101.32","","","","-3","","Clear"
"1956-10-11 03:00","1956","10","11","03:00","-0.6","","-3.3","","81","","36","","8","","25.0","","101.35","","","","-3","","Clear"
"1956-10-11 04:00","1956","10","11","04:00","-1.1","","-3.3","","85","","36","","6","","25.0","","101.38","","","","-3","","Clear"
"1956-10-11 05:00","1956","10","11","05:00","-1.7","","-4.4","","81","","36","","6","","25.0","","101.43","","","","-4","","Clear"
"1956-10-11 06:00","1956","10","11","06:00","-1.7","","-4.4","","81","","36","","6","","24.1","","101.49","","","","-4","","Clear"
"1956-10-11 07:00","1956","10","11","07:00","-1.1","","-3.9","","81","","36","","6","","32.2","","101.51","","","","-3","","Clear"
"1956-10-11 08:00","1956","10","11","08:00","2.2","","-3.3","","67","","36","","8","","32.2","","101.55","","","","","","Clear"
"1956-10-11 09:00","1956","10","11","09:00","5.0","","-0.6","","67","","5","","6","","25.0","","101.59","","","","","","Mainly Clear"
"1956-10-11 10:00","1956","10","11","10:00","7.2","","-1.7","","53","","5","","21","","25.0","","101.58","","","","","","Mainly Clear"
"1956-10-11 11:00","1956","10","11","11:00","7.8","","0.0","","58","","14","","19","","25.0","","101.52","","","","","","Mostly Cloudy"
"1956-10-11 12:00","1956","10","11","12:00","8.3","","-0.6","","53","","16","","16","","25.0","","101.45","","","","","","Mainly Clear"
"1956-10-11 13:00","1956","10","11","13:00","8.3","","-3.9","","42","","14","","19","","25.0","","101.37","","","","","","Mainly Clear"
"1956-10-11 14:00","1956","10","11","14:00","8.3","","-1.1","","51","","14","","19","","25.0","","101.29","","","","","","Mainly Clear"
"1956-10-11 15:00","1956","10","11","15:00","8.3","","-3.9","","42","","14","","18","","25.0","","101.25","","","","","","Mainly Clear"
"1956-10-11 16:00","1956","10","11","16:00","8.3","","-3.9","","42","","14","","14","","25.0","","101.22","","","","","","Mainly Clear"
"1956-10-11 17:00","1956","10","11","17:00","6.7","","-3.3","","49","","14","","8","","25.0","","101.18","","","","","","Mainly Clear"
"1956-10-11 18:00","1956","10","11","18:00","5.0","","-1.7","","62","","9","","10","","25.0","","101.16","","","","","","Mainly Clear"
"1956-10-11 19:00","1956","10","11","19:00","4.4","","-1.1","","67","","9","","8","","25.0","","101.14","","","","","","Mainly Clear"
"1956-10-11 20:00","1956","10","11","20:00","3.9","","0.0","","76","","7","","6","","25.0","","101.10","","","","","","Mostly Cloudy"
"1956-10-11 21:00","1956","10","11","21:00","3.3","","0.0","","79","","5","","6","","25.0","","101.07","","","","","","Mainly Clear"
"1956-10-11 22:00","1956","10","11","22:00","2.8","","0.0","","82","","5","","6","","25.0","","101.09","","","","","","Mainly Clear"
"1956-10-11 23:00","1956","10","11","23:00","2.2","","0.0","","85","","14","","8","","25.0","","101.06","","","","","","Mostly Cloudy"
"1956-10-12 00:00","1956","10","12","00:00","6.7","","1.1","","68","","11","","16","","25.0","","101.00","","","","","","Mostly Cloudy"
"1956-10-12 01:00","1956","10","12","01:00","6.1","","0.6","","68","","11","","10","","25.0","","100.99","","","","","","Mostly Cloudy"
"1956-10-12 02:00","1956","10","12","02:00","3.9","","1.7","","85","","36","","5","","19.3","","100.94","","","","","","Mostly Cloudy"
"1956-10-12 03:00","1956","10","12","03:00","3.9","","2.2","","89","","5","","5","","24.1","","100.92","","","","","","Mostly Cloudy"
"1956-10-12 04:00","1956","10","12","04:00","3.3","","1.7","","89","","36","","6","","24.1","","100.88","","","","","","Mainly Clear"
"1956-10-12 05:00","1956","10","12","05:00","4.4","","2.2","","85","","14","","5","","25.0","","100.85","","","","","","Mostly Cloudy"
"1956-10-12 06:00","1956","10","12","06:00","4.4","","2.2","","85","","36","","6","","11.3","","100.88","","","","","","Mostly Cloudy"
"1956-10-12 07:00","1956","10","12","07:00","4.4","","2.8","","89","","36","","10","","12.9","","100.91","","","","","","Mostly Cloudy"
"1956-10-12 08:00","1956","10","12","08:00","6.7","","3.3","","79","","9","","8","","6.4","","100.91","","","","","","Haze"
"1956-10-12 09:00","1956","10","12","09:00","9.4","","3.9","","68","","18","","6","","4.8","","100.90","","","","","","Haze"
"1956-10-12 10:00","1956","10","12","10:00","10.6","","5.0","","68","","23","","5","","4.8","","100.90","","","","","","Haze"
"1956-10-12 11:00","1956","10","12","11:00","11.7","","6.7","","71","","18","","8","","8.0","","100.84","","","","","","Haze"
"1956-10-12 12:00","1956","10","12","12:00","12.8","","6.1","","64","","14","","13","","6.4","","100.76","","","","","","Haze"
"1956-10-12 13:00","1956","10","12","13:00","12.8","","5.0","","59","","16","","16","","6.4","","100.70","","","","","","Haze"
"1956-10-12 14:00","1956","10","12","14:00","13.9","","5.0","","55","","14","","19","","6.4","","100.54","","","","","","Haze"
"1956-10-12 15:00","1956","10","12","15:00","13.9","","5.0","","55","","14","","13","","6.4","","100.54","","","","","","Haze"
"1956-10-12 16:00","1956","10","12","16:00","11.7","","5.6","","66","","14","","13","","4.8","","100.59","","","","","","Haze"
"1956-10-12 17:00","1956","10","12","17:00","11.1","","4.4","","64","","9","","10","","4.8","","100.59","","","","","","Haze"
"1956-10-12 18:00","1956","10","12","18:00","10.6","","3.9","","63","","11","","13","","6.4","","100.59","","","","","","Haze"
"1956-10-12 19:00","1956","10","12","19:00","10.0","","5.0","","71","","9","","6","","8.0","","100.59","","","","","","Haze"
"1956-10-12 20:00","1956","10","12","20:00","8.9","","5.0","","77","","14","","6","","8.0","","100.56","","","","","","Haze"
"1956-10-12 21:00","1956","10","12","21:00","7.2","","4.4","","82","","","","0","","8.0","","100.54","","","","","","Haze"
"1956-10-12 22:00","1956","10","12","22:00","6.1","","5.0","","93","","","","0","","6.4","","100.54","","","","","","Haze"
"1956-10-12 23:00","1956","10","12","23:00","5.6","","3.9","","89","","32","","5","","4.8","","100.53","","","","","","Fog"
"1956-10-13 00:00","1956","10","13","00:00","5.0","","3.9","","93","","25","","3","","4.8","","100.49","","","","","","Fog"
"1956-10-13 01:00","1956","10","13","01:00","5.6","","3.9","","89","","20","","5","","4.8","","100.48","","","","","","Fog"
"1956-10-13 02:00","1956","10","13","02:00","4.4","","3.9","","96","","2","","3","","4.8","","100.52","","","","","","Fog"
"1956-10-13 03:00","1956","10","13","03:00","3.3","","2.8","","96","","5","","3","","4.8","","100.48","","","","","","Fog"
"1956-10-13 04:00","1956","10","13","04:00","3.9","","2.8","","92","","","","0","","4.8","","100.48","","","","","","Fog"
"1956-10-13 05:00","1956","10","13","05:00","5.0","","3.9","","93","","5","","3","","4.8","","100.49","","","","","","Fog"
"1956-10-13 06:00","1956","10","13","06:00","4.4","","3.9","","96","","","","0","","3.2","","100.47","","","","","","Fog"
"1956-10-13 07:00","1956","10","13","07:00","5.0","","3.9","","93","","11","","5","","2.4","","100.50","","","","","","Fog"
"1956-10-13 08:00","1956","10","13","08:00","10.6","","7.8","","83","","16","","8","","3.2","","100.49","","","","","","Haze"
"1956-10-13 09:00","1956","10","13","09:00","11.7","","8.3","","80","","18","","13","","4.0","","100.45","","","","","","Haze"
"1956-10-13 10:00","1956","10","13","10:00","13.3","","9.4","","77","","18","","13","","4.8","","100.32","","","","","","Haze"
"1956-10-13 11:00","1956","10","13","11:00","15.6","","10.0","","70","","18","","19","","4.8","","100.29","","","","","","Haze"
"1956-10-13 12:00","1956","10","13","12:00","18.3","","11.1","","63","","20","","18","","6.4","","100.26","","","","","","Haze"
"1956-10-13 13:00","1956","10","13","13:00","19.4","","12.2","","63","","23","","16","","6.4","","100.24","","","","","","Haze"
"1956-10-13 14:00","1956","10","13","14:00","20.6","","11.7","","57","","20","","16","","6.4","","100.22","","","","","","Haze"
"1956-10-13 15:00","1956","10","13","15:00","19.4","","12.8","","65","","16","","13","","6.4","","100.16","","","","","","Haze"
"1956-10-13 16:00","1956","10","13","16:00","18.3","","11.7","","65","","16","","16","","4.8","","100.14","","","","","","Haze"
"1956-10-13 17:00","1956","10","13","17:00","16.1","","11.1","","72","","16","","10","","4.8","","100.12","","","","","","Haze"
"1956-10-13 18:00","1956","10","13","18:00","14.4","","10.6","","78","","16","","10","","4.8","","100.15","","","","","","Haze"
"1956-10-13 19:00","1956","10","13","19:00","13.3","","10.6","","83","","16","","10","","4.8","","100.16","","","","","","Haze"
"1956-10-13 20:00","1956","10","13","20:00","11.7","","8.9","","83","","18","","8","","4.8","","100.16","","","","","","Haze"
"1956-10-13 21:00","1956","10","13","21:00","10.6","","8.3","","86","","18","","6","","4.8","","100.14","","","","","","Haze"
"1956-10-13 22:00","1956","10","13","22:00","10.0","","8.3","","89","","18","","6","","4.8","","100.15","","","","","","Fog"
"1956-10-13 23:00","1956","10","13","23:00","10.0","","8.9","","93","","11","","6","","4.8","","100.14","","","","","","Fog"
"1956-10-14 00:00","1956","10","14","00:00","8.9","","8.3","","96","","16","","8","","4.8","","100.14","","","","","","Fog"
"1956-10-14 01:00","1956","10","14","01:00","9.4","","8.9","","96","","18","","10","","4.8","","100.16","","","","","","Fog"
"1956-10-14 02:00","1956","10","14","02:00","7.8","","7.2","","96","","18","","8","","4.8","","100.14","","","","","","Fog"
"1956-10-14 03:00","1956","10","14","03:00","6.7","","5.6","","93","","18","","6","","6.4","","100.13","","","","","","Fog"
"1956-10-14 04:00","1956","10","14","04:00","6.7","","5.6","","93","","20","","8","","6.4","","100.15","","","","","","Fog"
"1956-10-14 05:00","1956","10","14","05:00","7.8","","6.1","","89","","20","","10","","12.9","","100.19","","","","","","Clear"
"1956-10-14 06:00","1956","10","14","06:00","5.0","","3.9","","93","","18","","6","","1.6","","100.22","","","","","","Fog"
"1956-10-14 07:00","1956","10","14","07:00","7.2","","5.6","","89","","18","","6","","2.4","","100.20","","","","","","Fog"
"1956-10-14 08:00","1956","10","14","08:00","10.6","","8.9","","89","","23","","6","","1.6","","100.22","","","","","","Fog"
"1956-10-14 09:00","1956","10","14","09:00","16.7","","12.2","","75","","23","","19","","4.8","","100.31","","","","","","Haze"
"1956-10-14 10:00","1956","10","14","10:00","18.9","","12.8","","68","","20","","19","","8.0","","100.31","","","","","","Haze"
"1956-10-14 11:00","1956","10","14","11:00","21.1","","11.7","","55","","23","","19","","9.7","","100.25","","","","","","Haze"
"1956-10-14 12:00","1956","10","14","12:00","23.3","","10.6","","45","","25","","19","","12.9","","100.13","","25","","","","Mainly Clear"
"1956-10-14 13:00","1956","10","14","13:00","24.4","","11.7","","45","","20","","23","","16.1","","100.08","","27","","","","Mainly Clear"
"1956-10-14 14:00","1956","10","14","14:00","24.4","","11.7","","45","","20","","23","","16.1","","99.97","","27","","","","Mainly Clear"
"1956-10-14 15:00","1956","10","14","15:00","24.4","","11.1","","43","","23","","23","","24.1","","99.91","","26","","","","Mainly Clear"
"1956-10-14 16:00","1956","10","14","16:00","23.9","","11.1","","45","","23","","16","","16.1","","99.97","","26","","","","Mainly Clear"
"1956-10-14 17:00","1956","10","14","17:00","21.7","","10.6","","49","","23","","16","","24.1","","100.01","","","","","","Mainly Clear"
"1956-10-14 18:00","1956","10","14","18:00","18.9","","9.4","","54","","20","","10","","24.1","","100.07","","","","","","Mainly Clear"
"1956-10-14 19:00","1956","10","14","19:00","18.3","","9.4","","56","","18","","6","","24.1","","100.09","","","","","","Clear"
"1956-10-14 20:00","1956","10","14","20:00","16.1","","8.3","","60","","20","","11","","24.1","","100.11","","","","","","Clear"
"1956-10-14 21:00","1956","10","14","21:00","15.6","","8.9","","65","","20","","6","","24.1","","100.15","","","","","","Clear"
"1956-10-14 22:00","1956","10","14","22:00","15.6","","8.3","","62","","27","","6","","24.1","","100.18","","","","","","Clear"
"1956-10-14 23:00","1956","10","14","23:00","12.8","","7.8","","72","","23","","8","","24.1","","100.19","","","","","","Clear"
"1956-10-15 00:00","1956","10","15","00:00","10.6","","7.8","","83","","20","","6","","24.1","","100.20","","","","","","Clear"
"1956-10-15 01:00","1956","10","15","01:00","11.1","","8.3","","83","","18","","3","","12.9","","100.21","","","","","","Clear"
"1956-10-15 02:00","1956","10","15","02:00","10.0","","8.3","","89","","18","","5","","14.5","","100.21","","","","","","Clear"
"1956-10-15 03:00","1956","10","15","03:00","8.9","","7.2","","89","","16","","6","","14.5","","100.20","","","","","","Clear"
"1956-10-15 04:00","1956","10","15","04:00","8.9","","7.8","","93","","16","","6","","11.3","","100.22","","","","","","Clear"
"1956-10-15 05:00","1956","10","15","05:00","7.8","","6.7","","93","","18","","6","","11.3","","100.24","","","","","","Clear"
"1956-10-15 06:00","1956","10","15","06:00","7.8","","6.7","","93","","18","","6","","2.4","","100.28","","","","","","Fog"
"1956-10-15 07:00","1956","10","15","07:00","8.9","","7.8","","93","","36","","6","","2.4","","100.34","","","","","","Fog"
"1956-10-15 08:00","1956","10","15","08:00","12.2","","9.4","","83","","9","","6","","2.4","","100.34","","","","","","Smoke,Haze"
"1956-10-15 09:00","1956","10","15","09:00","16.1","","11.7","","75","","16","","8","","2.4","","100.35","","","","","","Smoke,Haze"
"1956-10-15 10:00","1956","10","15","10:00","20.0","","12.2","","61","","20","","16","","6.4","","100.35","","","","","","Smoke,Haze"
"1956-10-15 11:00","1956","10","15","11:00","22.2","","12.8","","55","","18","","13","","12.9","","100.33","","25","","","","Mostly Cloudy"
"1956-10-15 12:00","1956","10","15","12:00","24.4","","12.2","","47","","18","","10","","16.1","","100.30","","27","","","","Mostly Cloudy"
"1956-10-15 13:00","1956","10","15","13:00","25.6","","13.3","","47","","23","","8","","19.3","","100.24","","29","","","","Mostly Cloudy"
"1956-10-15 14:00","1956","10","15","14:00","25.0","","12.2","","45","","27","","14","","24.1","","100.23","","27","","","","Mostly Cloudy"
"1956-10-15 15:00","1956","10","15","15:00","24.4","","13.9","","52","","27","","10","","24.1","","100.22","","28","","","","Mostly Cloudy"
"1956-10-15 16:00","1956","10","15","16:00","22.2","","13.9","","59","","27","","3","","12.9","","100.20","","26","","","","Mostly Cloudy"
"1956-10-15 17:00","1956","10","15","17:00","21.7","","13.3","","59","","23","","3","","12.9","","100.21","","25","","","","Mostly Cloudy"
"1956-10-15 18:00","1956","10","15","18:00","19.4","","13.3","","68","","","","0","","12.9","","100.27","","","","","","Mostly Cloudy"
"1956-10-15 19:00","1956","10","15","19:00","17.2","","12.2","","72","","36","","8","","16.1","","100.30","","","","","","Mainly Clear"
"1956-10-15 20:00","1956","10","15","20:00","15.0","","11.7","","81","","36","","3","","19.3","","100.32","","","","","","Mainly Clear"
"1956-10-15 21:00","1956","10","15","21:00","15.0","","11.1","","78","","36","","6","","24.1","","100.32","","","","","","Mainly Clear"
"1956-10-15 22:00","1956","10","15","22:00","13.3","","11.1","","86","","36","","6","","19.3","","100.28","","","","","","Mainly Clear"
"1956-10-15 23:00","1956","10","15","23:00","13.3","","11.1","","86","","36","","3","","19.3","","100.29","","","","","","Mainly Clear"
"1956-10-16 00:00","1956","10","16","00:00","11.1","","8.9","","86","","32","","3","","19.3","","100.26","","","","","","Mainly Clear"
"1956-10-16 01:00","1956","10","16","01:00","11.1","","8.9","","86","","","","0","","19.3","","100.25","","","","","","Mostly Cloudy"
"1956-10-16 02:00","1956","10","16","02:00","11.1","","9.4","","90","","","","0","","9.7","","100.25","","","","","","Fog"
"1956-10-16 03:00","1956","10","16","03:00","11.1","","9.4","","90","","","","0","","8.0","","100.23","","","","","","Fog"
"1956-10-16 04:00","1956","10","16","04:00","9.4","","8.3","","93","","","","0","","12.9","","100.24","","","","","","Mostly Cloudy"
"1956-10-16 05:00","1956","10","16","05:00","9.4","","8.3","","93","","","","0","","16.1","","100.24","","","","","","Mostly Cloudy"
"1956-10-16 06:00","1956","10","16","06:00","9.4","","8.3","","93","","","","0","","2.4","","100.24","","","","","","Fog"
"1956-10-16 07:00","1956","10","16","07:00","11.1","","8.9","","86","","","","0","","2.4","","100.24","","","","","","Fog"
"1956-10-16 08:00","1956","10","16","08:00","12.2","","9.4","","83","","","","0","","2.4","","100.26","","","","","","Fog"
"1956-10-16 09:00","1956","10","16","09:00","15.0","","12.8","","87","","","","0","","2.4","","100.31","","","","","","Fog"
"1956-10-16 10:00","1956","10","16","10:00","18.9","","12.2","","65","","","","0","","4.8","","100.38","","","","","","Haze"
"1956-10-16 11:00","1956","10","16","11:00","21.1","","13.3","","61","","","","0","","6.4","","100.28","","","","","","Haze"
"1956-10-16 12:00","1956","10","16","12:00","23.3","","11.7","","48","","23","","6","","8.0","","100.19","","25","","","","Haze"
"1956-10-16 13:00","1956","10","16","13:00","23.9","","13.9","","54","","18","","8","","4.8","","100.13","","27","","","","Haze"
"1956-10-16 14:00","1956","10","16","14:00","23.3","","13.3","","54","","14","","10","","3.2","","100.10","","26","","","","Smoke,Haze"
"1956-10-16 15:00","1956","10","16","15:00","22.8","","13.3","","55","","16","","6","","3.2","","100.07","","26","","","","Smoke,Haze"
"1956-10-16 16:00","1956","10","16","16:00","22.8","","13.3","","55","","16","","6","","4.0","","100.07","","26","","","","Smoke,Haze"
"1956-10-16 17:00","1956","10","16","17:00","21.7","","14.4","","64","","36","","8","","4.8","","100.09","","25","","","","Smoke,Haze"
"1956-10-16 18:00","1956","10","16","18:00","19.4","","13.3","","68","","36","","11","","19.3","","100.13","","","","","","Mainly Clear"
"1956-10-16 19:00","1956","10","16","19:00","17.8","","13.3","","75","","36","","10","","25.0","","100.15","","","","","","Clear"
"1956-10-16 20:00","1956","10","16","20:00","15.6","","12.8","","84","","36","","10","","25.0","","100.15","","","","","","Clear"
"1956-10-16 21:00","1956","10","16","21:00","14.4","","12.2","","87","","36","","10","","24.1","","100.16","","","","","","Clear"
"1956-10-16 22:00","1956","10","16","22:00","13.3","","11.7","","90","","36","","10","","16.1","","100.16","","","","","","Clear"
"1956-10-16 23:00","1956","10","16","23:00","13.3","","11.7","","90","","36","","11","","16.1","","100.16","","","","","","Clear"
"1956-10-17 00:00","1956","10","17","00:00","12.2","","11.1","","93","","34","","6","","11.3","","100.15","","","","","","Clear"
"1956-10-17 01:00","1956","10","17","01:00","12.2","","11.1","","93","","34","","6","","11.3","","100.13","","","","","","Clear"
"1956-10-17 02:00","1956","10","17","02:00","12.2","","11.1","","93","","34","","8","","11.3","","100.12","","","","","","Clear"
"1956-10-17 03:00","1956","10","17","03:00","11.7","","10.6","","93","","34","","6","","8.0","","100.12","","","","","","Fog"
"1956-10-17 04:00","1956","10","17","04:00","11.1","","10.6","","96","","34","","8","","8.0","","100.12","","","","","","Fog"
"1956-10-17 05:00","1956","10","17","05:00","10.6","","10.0","","96","","34","","10","","6.4","","100.12","","","","","","Fog"
"1956-10-17 06:00","1956","10","17","06:00","8.3","","7.8","","96","","34","","5","","0.4","","100.14","","","","","","Fog"
"1956-10-17 07:00","1956","10","17","07:00","8.9","","8.9","","100","","34","","3","","1.2","","100.18","","","","","","Fog"
"1956-10-17 08:00","1956","10","17","08:00","12.2","","11.1","","93","","36","","2","","3.2","","100.21","","","","","","Fog"
"1956-10-17 09:00","1956","10","17","09:00","17.2","","13.3","","78","","34","","5","","4.8","","100.20","","","","","","Haze"
"1956-10-17 10:00","1956","10","17","10:00","19.4","","13.3","","68","","18","","8","","8.0","","100.18","","","","","","Haze"
"1956-10-17 11:00","1956","10","17","11:00","21.1","","13.9","","63","","18","","8","","8.0","","100.13","","","","","","Haze"
"1956-10-17 12:00","1956","10","17","12:00","22.2","","13.3","","57","","18","","10","","6.4","","100.06","","25","","","","Haze"
"1956-10-17 13:00","1956","10","17","13:00","23.9","","14.4","","56","","18","","10","","6.4","","99.98","","28","","","","Haze"
"1956-10-17 14:00","1956","10","17","14:00","23.9","","13.3","","52","","16","","11","","8.0","","99.91","","27","","","","Haze"
"1956-10-17 15:00","1956","10","17","15:00","22.8","","12.2","","51","","16","","14","","6.4","","99.86","","25","","","","Haze"
"1956-10-17 16:00","1956","10","17","16:00","21.7","","12.2","","55","","16","","10","","6.4","","99.81","","","","","","Haze"
"1956-10-17 17:00","1956","10","17","17:00","19.4","","13.3","","68","","16","","10","","4.0","","99.79","","","","","","Haze"
"1956-10-17 18:00","1956","10","17","18:00","17.2","","12.8","","75","","20","","8","","4.0","","99.80","","","","","","Haze"
"1956-10-17 19:00","1956","10","17","19:00","16.7","","13.3","","81","","23","","6","","4.0","","99.79","","","","","","Haze"
"1956-10-17 20:00","1956","10","17","20:00","14.4","","12.8","","90","","25","","5","","4.0","","99.77","","","","","","Haze"
"1956-10-17 21:00","1956","10","17","21:00","13.9","","12.2","","90","","","","0","","4.0","","99.77","","","","","","Haze"
"1956-10-17 22:00","1956","10","17","22:00","12.2","","10.6","","90","","29","","3","","4.0","","99.72","","","","","","Haze"
"1956-10-17 23:00","1956","10","17","23:00","11.7","","10.6","","93","","36","","8","","4.0","","99.70","","","","","","Fog"
"1956-10-18 00:00","1956","10","18","00:00","11.1","","10.0","","93","","34","","6","","4.0","","99.66","","","","","","Fog"
"1956-10-18 01:00","1956","10","18","01:00","11.1","","10.0","","93","","29","","5","","4.0","","99.64","","","","","","Fog"
"1956-10-18 02:00","1956","10","18","02:00","11.1","","10.0","","93","","29","","5","","4.0","","99.57","","","","","","Fog"
"1956-10-18 03:00","1956","10","18","03:00","11.1","","9.4","","90","","34","","10","","11.3","","99.58","","","","","","Clear"
"1956-10-18 04:00","1956","10","18","04:00","12.2","","10.6","","90","","34","","10","","11.3","","99.58","","","","","","Mainly Clear"
"1956-10-18 05:00","1956","10","18","05:00","13.3","","10.6","","83","","36","","16","","19.3","","99.63","","","","","","Mainly Clear"
"1956-10-18 06:00","1956","10","18","06:00","12.2","","11.1","","93","","36","","23","","4.0","","99.70","","","","","","Fog"
"1956-10-18 07:00","1956","10","18","07:00","12.8","","11.1","","90","","36","","27","","4.0","","99.82","","","","","","Fog"
"1956-10-18 08:00","1956","10","18","08:00","12.8","","10.6","","86","","36","","26","","4.8","","99.97","","","","","","Smoke,Haze"
"1956-10-18 09:00","1956","10","18","09:00","13.3","","8.3","","72","","36","","29","","12.9","","100.05","","","","","","Mostly Cloudy"
"1956-10-18 10:00","1956","10","18","10:00","13.9","","3.9","","51","","2","","32","","25.0","","100.09","","","","","","Mostly Cloudy"
"1956-10-18 11:00","1956","10","18","11:00","14.4","","0.0","","37","","2","","29","","25.0","","100.14","","","","","","Mostly Cloudy"
"1956-10-18 12:00","1956","10","18","12:00","15.0","","0.6","","37","","2","","27","","25.0","","100.15","","","","","","Mostly Cloudy"
"1956-10-18 13:00","1956","10","18","13:00","15.6","","0.0","","35","","2","","29","","25.0","","100.14","","","","","","Mainly Clear"
"1956-10-18 14:00","1956","10","18","14:00","15.6","","-0.6","","33","","2","","26","","25.0","","100.15","","","","","","Mainly Clear"
"1956-10-18 15:00","1956","10","18","15:00","15.6","","-2.8","","28","","2","","23","","25.0","","100.21","","","","","","Mainly Clear"
"1956-10-18 16:00","1956","10","18","16:00","14.4","","-3.3","","29","","2","","18","","25.0","","100.26","","","","","","Mainly Clear"
"1956-10-18 17:00","1956","10","18","17:00","12.8","","-1.7","","37","","36","","14","","25.0","","100.33","","","","","","Mainly Clear"
"1956-10-18 18:00","1956","10","18","18:00","10.0","","-1.7","","44","","36","","13","","25.0","","100.43","","","","","","Mainly Clear"
"1956-10-18 19:00","1956","10","18","19:00","10.0","","-1.7","","44","","36","","11","","25.0","","100.48","","","","","","Clear"
"1956-10-18 20:00","1956","10","18","20:00","7.8","","-1.1","","53","","2","","10","","25.0","","100.55","","","","","","Clear"
"1956-10-18 21:00","1956","10","18","21:00","6.7","","-2.2","","53","","5","","11","","25.0","","100.61","","","","","","Clear"
"1956-10-18 22:00","1956","10","18","22:00","5.6","","-1.1","","62","","5","","8","","25.0","","100.67","","","","","","Clear"
"1956-10-18 23:00","1956","10","18","23:00","5.0","","-2.2","","60","","5","","11","","25.0","","100.72","","","","","","Clear"
"1956-10-19 00:00","1956","10","19","00:00","4.4","","-1.7","","65","","5","","10","","25.0","","100.72","","","","","","Clear"
"1956-10-19 01:00","1956","10","19","01:00","3.9","","-2.8","","62","","5","","10","","25.0","","100.72","","","","","","Clear"
"1956-10-19 02:00","1956","10","19","02:00","3.3","","-2.8","","64","","5","","13","","25.0","","100.76","","","","","","Clear"
"1956-10-19 03:00","1956","10","19","03:00","2.8","","-3.3","","64","","5","","11","","25.0","","100.80","","","","","","Clear"
"1956-10-19 04:00","1956","10","19","04:00","2.2","","-2.8","","69","","5","","11","","25.0","","100.80","","","","","","Clear"
"1956-10-19 05:00","1956","10","19","05:00","1.7","","-2.8","","72","","7","","11","","25.0","","100.85","","","","","","Clear"
"1956-10-19 06:00","1956","10","19","06:00","1.7","","-2.8","","72","","7","","11","","25.0","","100.90","","","","","","Clear"
"1956-10-19 07:00","1956","10","19","07:00","2.2","","-2.2","","72","","7","","13","","25.0","","100.95","","","","","","Mainly Clear"
"1956-10-19 08:00","1956","10","19","08:00","5.0","","-0.6","","67","","7","","11","","25.0","","101.02","","","","","","Mainly Clear"
"1956-10-19 09:00","1956","10","19","09:00","7.8","","1.7","","65","","7","","16","","24.1","","101.08","","","","","","Mainly Clear"
"1956-10-19 10:00","1956","10","19","10:00","9.4","","3.3","","66","","9","","19","","24.1","","101.08","","","","","","Mostly Cloudy"
"1956-10-19 11:00","1956","10","19","11:00","10.6","","3.3","","61","","9","","23","","24.1","","101.08","","","","","","Mostly Cloudy"
"1956-10-19 12:00","1956","10","19","12:00","11.1","","2.8","","56","","9","","23","","25.0","","100.99","","","","","","Mainly Clear"
"1956-10-19 13:00","1956","10","19","13:00","11.1","","1.1","","50","","9","","23","","24.1","","100.93","","","","","","Clear"
"1956-10-19 14:00","1956","10","19","14:00","11.1","","-2.2","","39","","9","","23","","24.1","","100.89","","","","","","Clear"
"1956-10-19 15:00","1956","10","19","15:00","11.1","","-0.6","","44","","9","","26","","25.0","","100.84","","","","","","Clear"
"1956-10-19 16:00","1956","10","19","16:00","10.6","","-0.6","","46","","9","","18","","25.0","","100.80","","","","","","Clear"
"1956-10-19 17:00","1956","10","19","17:00","8.3","","0.6","","58","","9","","14","","16.1","","100.77","","","","","","Mainly Clear"
"1956-10-19 18:00","1956","10","19","18:00","6.7","","1.7","","70","","9","","10","","24.1","","100.79","","","","","","Mainly Clear"
"1956-10-19 19:00","1956","10","19","19:00","6.7","","1.7","","70","","9","","10","","25.0","","100.78","","","","","","Clear"
"1956-10-19 20:00","1956","10","19","20:00","5.0","","1.1","","76","","5","","8","","25.0","","100.78","","","","","","Clear"
"1956-10-19 21:00","1956","10","19","21:00","3.9","","0.0","","76","","2","","10","","24.1","","100.76","","","","","","Clear"
"1956-10-19 22:00","1956","10","19","22:00","3.3","","0.6","","82","","36","","11","","24.1","","100.73","","","","","","Mainly Clear"
"1956-10-19 23:00","1956","10","19","23:00","2.8","","0.6","","85","","36","","13","","24.1","","100.66","","","","","","Mainly Clear"
"1956-10-20 00:00","1956","10","20","00:00","2.8","","0.6","","85","","36","","10","","24.1","","100.57","","","","","","Mainly Clear"
"1956-10-20 01:00","1956","10","20","01:00","3.9","","1.1","","82","","36","","10","","24.1","","100.57","","","","","","Cloudy"
"1956-10-20 02:00","1956","10","20","02:00","4.4","","1.1","","79","","36","","8","","24.1","","100.55","","","","","","Cloudy"
"1956-10-20 03:00","1956","10","20","03:00","4.4","","1.1","","79","","36","","8","","24.1","","100.50","","","","","","Mostly Cloudy"
"1956-10-20 04:00","1956","10","20","04:00","4.4","","1.1","","79","","36","","6","","24.1","","100.49","","","","","","Mostly Cloudy"
"1956-10-20 05:00","1956","10","20","05:00","5.0","","1.7","","79","","36","","6","","19.3","","100.49","","","","","","Cloudy"
"1956-10-20 06:00","1956","10","20","06:00","4.4","","3.3","","93","","36","","6","","16.1","","100.49","","","","","","Cloudy"
"1956-10-20 07:00","1956","10","20","07:00","5.0","","3.9","","93","","36","","5","","11.3","","100.49","","","","","","Mostly Cloudy"
"1956-10-20 08:00","1956","10","20","08:00","6.1","","5.0","","89","","36","","3","","4.8","","100.44","","","","","","Haze"
"1956-10-20 09:00","1956","10","20","09:00","10.0","","7.2","","83","","","","0","","4.8","","100.44","","","","","","Smoke,Haze"
"1956-10-20 10:00","1956","10","20","10:00","12.2","","7.2","","71","","18","","8","","4.0","","100.39","","","","","","Smoke,Haze"
"1956-10-20 11:00","1956","10","20","11:00","13.3","","8.9","","74","","16","","10","","4.0","","100.37","","","","","","Smoke,Haze"
"1956-10-20 12:00","1956","10","20","12:00","13.3","","9.4","","77","","16","","13","","4.0","","100.32","","","","","","Rain Showers,Smoke,Haze"
"1956-10-20 13:00","1956","10","20","13:00","11.7","","10.0","","90","","14","","13","","2.4","","100.28","","","","","","Rain Showers,Fog,Smoke"
"1956-10-20 14:00","1956","10","20","14:00","11.1","","10.0","","93","","14","","11","","2.0","","100.21","","","","","","Fog,Smoke"
"1956-10-20 15:00","1956","10","20","15:00","11.7","","10.6","","93","","14","","8","","2.0","","100.19","","","","","","Fog,Smoke"
"1956-10-20 16:00","1956","10","20","16:00","12.2","","11.1","","93","","14","","6","","2.0","","100.17","","","","","","Fog,Smoke"
"1956-10-20 17:00","1956","10","20","17:00","12.2","","10.6","","90","","14","","10","","2.0","","100.14","","","","","","Fog,Smoke"
"1956-10-20 18:00","1956","10","20","18:00","12.2","","10.6","","90","","14","","6","","3.2","","100.15","","","","","","Fog,Smoke"
"1956-10-20 19:00","1956","10","20","19:00","12.2","","10.0","","86","","14","","8","","4.0","","100.15","","","","","","Haze"
"1956-10-20 20:00","1956","10","20","20:00","12.2","","9.4","","83","","14","","6","","4.8","","100.14","","","","","","Haze"
"1956-10-20 21:00","1956","10","20","21:00","11.7","","9.4","","86","","25","","2","","4.8","","100.15","","","","","","Haze"
"1956-10-20 22:00","1956","10","20","22:00","11.7","","10.0","","90","","20","","3","","4.8","","100.12","","","","","","Fog"
"1956-10-20 23:00","1956","10","20","23:00","11.7","","10.0","","90","","18","","3","","4.8","","100.13","","","","","","Fog"
"1956-10-21 00:00","1956","10","21","00:00","11.1","","10.0","","93","","","","0","","2.4","","100.10","","","","","","Fog"
"1956-10-21 01:00","1956","10","21","01:00","10.6","","9.4","","93","","18","","2","","2.4","","100.08","","","","","","Fog"
"1956-10-21 02:00","1956","10","21","02:00","11.7","","10.6","","93","","16","","5","","2.4","","100.05","","","","","","Fog"
"1956-10-21 03:00","1956","10","21","03:00","11.7","","10.6","","93","","18","","3","","2.4","","100.02","","","","","","Fog"
"1956-10-21 04:00","1956","10","21","04:00","11.1","","10.0","","93","","14","","3","","2.4","","100.02","","","","","","Fog"
"1956-10-21 05:00","1956","10","21","05:00","11.1","","10.0","","93","","9","","2","","3.2","","100.06","","","","","","Fog"
"1956-10-21 06:00","1956","10","21","06:00","11.1","","10.0","","93","","9","","3","","2.4","","100.06","","","","","","Fog"
"1956-10-21 07:00","1956","10","21","07:00","11.1","","10.0","","93","","14","","3","","2.0","","100.08","","","","","","Fog"
"1956-10-21 08:00","1956","10","21","08:00","11.7","","10.0","","90","","9","","2","","3.2","","100.12","","","","","","Fog,Smoke"
"1956-10-21 09:00","1956","10","21","09:00","13.3","","12.2","","93","","16","","10","","4.8","","100.11","","","","","","Fog,Smoke"
"1956-10-21 10:00","1956","10","21","10:00","14.4","","11.1","","81","","18","","8","","4.8","","100.08","","","","","","Smoke,Haze"
"1956-10-21 11:00","1956","10","21","11:00","16.1","","11.1","","72","","16","","8","","4.8","","100.05","","","","","","Smoke,Haze"
"1956-10-21 12:00","1956","10","21","12:00","16.1","","11.1","","72","","16","","6","","6.4","","99.99","","","","","","Smoke,Haze"
"1956-10-21 13:00","1956","10","21","13:00","17.2","","11.7","","70","","14","","10","","6.4","","99.95","","","","","","Haze"
"1956-10-21 14:00","1956","10","21","14:00","17.2","","11.7","","70","","14","","10","","6.4","","99.91","","","","","","Haze"
"1956-10-21 15:00","1956","10","21","15:00","17.2","","11.7","","70","","14","","10","","6.4","","99.89","","","","","","Haze"
"1956-10-21 16:00","1956","10","21","16:00","17.2","","11.7","","70","","14","","11","","6.4","","99.87","","","","","","Haze"
"1956-10-21 17:00","1956","10","21","17:00","13.9","","10.0","","77","","16","","10","","4.8","","99.88","","","","","","Haze"
"1956-10-21 18:00","1956","10","21","18:00","12.8","","10.0","","83","","14","","8","","4.0","","99.93","","","","","","Haze"
"1956-10-21 19:00","1956","10","21","19:00","11.7","","9.4","","86","","","","0","","4.0","","99.96","","","","","","Haze"
"1956-10-21 20:00","1956","10","21","20:00","11.1","","9.4","","90","","7","","5","","4.8","","99.96","","","","","","Haze"
"1956-10-21 21:00","1956","10","21","21:00","10.0","","8.3","","89","","36","","6","","6.4","","99.96","","","","","","Haze"
"1956-10-21 22:00","1956","10","21","22:00","10.0","","8.3","","89","","36","","6","","8.0","","99.94","","","","","","Haze"
"1956-10-21 23:00","1956","10","21","23:00","8.9","","7.8","","93","","36","","10","","4.8","","99.90","","","","","","Haze"
"1956-10-22 00:00","1956","10","22","00:00","8.3","","7.8","","96","","32","","5","","8.0","","99.90","","","","","","Fog"
"1956-10-22 01:00","1956","10","22","01:00","8.9","","8.3","","96","","36","","6","","8.0","","99.89","","","","","","Fog"
"1956-10-22 02:00","1956","10","22","02:00","8.3","","7.8","","96","","36","","8","","8.0","","99.87","","","","","","Fog"
"1956-10-22 03:00","1956","10","22","03:00","8.9","","7.8","","93","","36","","6","","8.0","","99.86","","","","","","Fog"
"1956-10-22 04:00","1956","10","22","04:00","8.9","","7.8","","93","","36","","6","","8.0","","99.86","","","","","","Fog"
"1956-10-22 05:00","1956","10","22","05:00","8.9","","7.8","","93","","36","","6","","8.0","","99.86","","","","","","Fog"
"1956-10-22 06:00","1956","10","22","06:00","8.3","","7.8","","96","","36","","6","","6.4","","99.86","","","","","","Fog,Smoke"
"1956-10-22 07:00","1956","10","22","07:00","7.8","","7.2","","96","","36","","5","","2.4","","99.86","","","","","","Fog,Smoke"
"1956-10-22 08:00","1956","10","22","08:00","10.0","","8.9","","93","","36","","5","","1.2","","99.93","","","","","","Fog,Smoke"
"1956-10-22 09:00","1956","10","22","09:00","12.2","","10.0","","86","","","","0","","1.6","","99.91","","","","","","Fog"
"1956-10-22 10:00","1956","10","22","10:00","13.3","","11.1","","86","","5","","5","","1.6","","99.90","","","","","","Fog"
"1956-10-22 11:00","1956","10","22","11:00","16.7","","11.7","","72","","14","","5","","2.4","","99.88","","","","","","Haze"
"1956-10-22 12:00","1956","10","22","12:00","16.7","","11.1","","70","","14","","6","","2.4","","99.82","","","","","","Haze"
"1956-10-22 13:00","1956","10","22","13:00","16.7","","11.7","","72","","14","","6","","2.4","","99.77","","","","","","Haze"
"1956-10-22 14:00","1956","10","22","14:00","17.2","","11.1","","67","","14","","6","","4.8","","99.74","","","","","","Haze"
"1956-10-22 15:00","1956","10","22","15:00","16.7","","11.1","","70","","14","","6","","4.8","","99.74","","","","","","Haze"
"1956-10-22 16:00","1956","10","22","16:00","16.1","","11.1","","72","","9","","5","","4.8","","99.71","","","","","","Haze"
"1956-10-22 17:00","1956","10","22","17:00","14.4","","10.6","","78","","7","","5","","4.8","","99.68","","","","","","Haze"
"1956-10-22 18:00","1956","10","22","18:00","13.3","","10.6","","83","","9","","6","","6.4","","99.71","","","","","","Haze"
"1956-10-22 19:00","1956","10","22","19:00","12.2","","10.6","","90","","5","","5","","16.1","","99.69","","","","","","Mainly Clear"
"1956-10-22 20:00","1956","10","22","20:00","11.1","","10.0","","93","","5","","8","","19.3","","99.64","","","","","","Mainly Clear"
"1956-10-22 21:00","1956","10","22","21:00","10.6","","8.9","","89","","36","","8","","12.9","","99.62","","","","","","Clear"
"1956-10-22 22:00","1956","10","22","22:00","10.6","","8.9","","89","","36","","10","","12.9","","99.58","","","","","","Mainly Clear"
"1956-10-22 23:00","1956","10","22","23:00","11.1","","9.4","","90","","36","","6","","12.9","","99.52","","","","","","Mostly Cloudy"
"1956-10-23 00:00","1956","10","23","00:00","10.0","","8.9","","93","","36","","3","","12.9","","99.48","","","","","","Mainly Clear"
"1956-10-23 01:00","1956","10","23","01:00","9.4","","8.9","","96","","36","","5","","9.7","","99.47","","","","","","Fog"
"1956-10-23 02:00","1956","10","23","02:00","9.4","","8.9","","96","","36","","6","","9.7","","99.46","","","","","","Fog"
"1956-10-23 03:00","1956","10","23","03:00","10.0","","9.4","","96","","2","","6","","4.8","","99.42","","","","","","Fog"
"1956-10-23 04:00","1956","10","23","04:00","10.6","","10.0","","96","","36","","6","","4.8","","99.41","","","","","","Fog"
"1956-10-23 05:00","1956","10","23","05:00","11.7","","11.1","","96","","36","","6","","3.2","","99.44","","","","","","Fog"
"1956-10-23 06:00","1956","10","23","06:00","12.2","","11.7","","96","","36","","3","","1.2","","99.42","","","","","","Drizzle,Fog"
"1956-10-23 07:00","1956","10","23","07:00","12.2","","12.2","","100","","5","","3","","0.2","","99.39","","","","","","Fog"
"1956-10-23 08:00","1956","10","23","08:00","13.3","","13.3","","100","","34","","5","","0.8","","99.45","","","","","","Fog"
"1956-10-23 09:00","1956","10","23","09:00","13.9","","13.3","","96","","36","","3","","1.2","","99.48","","","","","","Fog"
"1956-10-23 10:00","1956","10","23","10:00","14.4","","13.9","","96","","34","","5","","1.6","","99.47","","","","","","Fog"
"1956-10-23 11:00","1956","10","23","11:00","15.6","","14.4","","93","","34","","8","","2.4","","99.46","","","","","","Fog"
"1956-10-23 12:00","1956","10","23","12:00","17.8","","14.4","","81","","34","","8","","12.9","","99.42","","","","","","Mostly Cloudy"
"1956-10-23 13:00","1956","10","23","13:00","18.9","","13.9","","73","","36","","8","","16.1","","99.37","","","","","","Mainly Clear"
"1956-10-23 14:00","1956","10","23","14:00","20.0","","11.7","","59","","5","","8","","16.1","","99.38","","","","","","Mainly Clear"
"1956-10-23 15:00","1956","10","23","15:00","20.6","","11.7","","57","","14","","3","","16.1","","99.40","","","","","","Mainly Clear"
"1956-10-23 16:00","1956","10","23","16:00","17.2","","14.4","","84","","18","","5","","4.0","","99.44","","","","","","Haze"
"1956-10-23 17:00","1956","10","23","17:00","15.6","","12.2","","81","","36","","18","","4.0","","99.55","","","","","","Haze"
"1956-10-23 18:00","1956","10","23","18:00","13.9","","11.7","","87","","36","","19","","6.4","","99.64","","","","","","Haze"
"1956-10-23 19:00","1956","10","23","19:00","12.8","","10.6","","86","","34","","18","","16.1","","99.69","","","","","","Clear"
"1956-10-23 20:00","1956","10","23","20:00","11.7","","8.9","","83","","34","","21","","25.0","","99.74","","","","","","Clear"
"1956-10-23 21:00","1956","10","23","21:00","10.0","","7.2","","83","","34","","23","","25.0","","99.83","","","","","","Clear"
"1956-10-23 22:00","1956","10","23","22:00","10.6","","7.8","","83","","34","","24","","25.0","","99.95","","","","","","Clear"
"1956-10-23 23:00","1956","10","23","23:00","9.4","","5.0","","74","","34","","26","","25.0","","100.04","","","","","","Clear"
"1956-10-24 00:00","1956","10","24","00:00","7.8","","3.3","","73","","34","","29","","25.0","","100.19","","","","","","Clear"
"1956-10-24 01:00","1956","10","24","01:00","6.7","","3.3","","79","","36","","26","","25.0","","100.29","","","","","","Clear"
"1956-10-24 02:00","1956","10","24","02:00","5.6","","2.2","","79","","36","","16","","25.0","","100.46","","","","","","Clear"
"1956-10-24 03:00","1956","10","24","03:00","5.0","","2.2","","82","","36","","11","","25.0","","100.67","","","","","","Clear"
"1956-10-24 04:00","1956","10","24","04:00","5.0","","0.0","","70","","2","","19","","25.0","","100.67","","","","","","Clear"
"1956-10-24 05:00","1956","10","24","05:00","3.3","","-1.1","","73","","2","","8","","25.0","","100.80","","","","","","Clear"
"1956-10-24 06:00","1956","10","24","06:00","2.2","","-0.6","","82","","36","","8","","25.0","","100.90","","","","","","Clear"
"1956-10-24 07:00","1956","10","24","07:00","2.2","","-1.1","","78","","36","","8","","25.0","","100.98","","","","","","Clear"
"1956-10-24 08:00","1956","10","24","08:00","3.9","","0.0","","76","","36","","8","","25.0","","101.08","","","","","","Clear"
"1956-10-24 09:00","1956","10","24","09:00","5.6","","-2.2","","57","","2","","19","","25.0","","101.14","","","","","","Mainly Clear"
"1956-10-24 10:00","1956","10","24","10:00","7.2","","-3.9","","45","","5","","21","","25.0","","101.16","","","","","","Mostly Cloudy"
"1956-10-24 11:00","1956","10","24","11:00","7.8","","-2.8","","47","","5","","18","","25.0","","101.19","","","","","","Mainly Clear"
"1956-10-24 12:00","1956","10","24","12:00","9.4","","-2.2","","44","","5","","16","","25.0","","101.17","","","","","","Mainly Clear"
"1956-10-24 13:00","1956","10","24","13:00","10.6","","-2.8","","39","","5","","16","","25.0","","101.18","","","","","","Clear"
"1956-10-24 14:00","1956","10","24","14:00","10.6","","-2.2","","41","","16","","13","","25.0","","101.16","","","","","","Mainly Clear"
"1956-10-24 15:00","1956","10","24","15:00","10.0","","-2.2","","42","","14","","11","","24.1","","101.16","","","","","","Mainly Clear"
"1956-10-24 16:00","1956","10","24","16:00","8.9","","0.6","","56","","14","","8","","24.1","","101.14","","","","","","Mainly Clear"
"1956-10-24 17:00","1956","10","24","17:00","7.8","","0.6","","60","","14","","6","","19.3","","101.16","","","","","","Mainly Clear"
"1956-10-24 18:00","1956","10","24","18:00","6.1","","0.0","","65","","9","","3","","25.0","","101.21","","","","","","Clear"
"1956-10-24 19:00","1956","10","24","19:00","7.2","","1.1","","65","","14","","3","","25.0","","101.24","","","","","","Clear"
"1956-10-24 20:00","1956","10","24","20:00","2.8","","0.6","","85","","36","","3","","25.0","","101.30","","","","","","Clear"
"1956-10-24 21:00","1956","10","24","21:00","2.8","","0.0","","82","","5","","6","","25.0","","101.33","","","","","","Clear"
"1956-10-24 22:00","1956","10","24","22:00","4.4","","-1.1","","67","","5","","16","","25.0","","101.35","","","","","","Clear"
"1956-10-24 23:00","1956","10","24","23:00","3.9","","-2.2","","64","","5","","10","","25.0","","101.35","","","","","","Clear"
"1956-10-25 00:00","1956","10","25","00:00","2.8","","-2.2","","70","","5","","8","","25.0","","101.38","","","","","","Clear"
"1956-10-25 01:00","1956","10","25","01:00","2.2","","-2.2","","72","","5","","6","","25.0","","101.38","","","","","","Clear"
"1956-10-25 02:00","1956","10","25","02:00","1.7","","-2.8","","72","","5","","6","","25.0","","101.37","","","","","","Clear"
"1956-10-25 03:00","1956","10","25","03:00","1.1","","-2.8","","75","","5","","6","","25.0","","101.37","","","","","","Clear"
"1956-10-25 04:00","1956","10","25","04:00","1.1","","-2.8","","75","","5","","10","","25.0","","101.36","","","","","","Mainly Clear"
"1956-10-25 05:00","1956","10","25","05:00","0.6","","-2.8","","78","","5","","10","","25.0","","101.38","","","","","","Mostly Cloudy"
"1956-10-25 06:00","1956","10","25","06:00","1.1","","-2.2","","78","","5","","8","","25.0","","101.38","","","","","","Mostly Cloudy"
"1956-10-25 07:00","1956","10","25","07:00","1.7","","-1.1","","82","","5","","6","","25.0","","101.41","","","","","","Mostly Cloudy"
"1956-10-25 08:00","1956","10","25","08:00","4.4","","1.1","","79","","5","","10","","25.0","","101.44","","","","","","Mostly Cloudy"
"1956-10-25 09:00","1956","10","25","09:00","8.9","","3.3","","68","","9","","24","","19.3","","101.43","","","","","","Mainly Clear"
"1956-10-25 10:00","1956","10","25","10:00","9.4","","-0.6","","50","","11","","26","","19.3","","101.40","","","","","","Mainly Clear"
"1956-10-25 11:00","1956","10","25","11:00","10.6","","2.2","","56","","9","","26","","19.3","","101.36","","","","","","Mainly Clear"
"1956-10-25 12:00","1956","10","25","12:00","10.0","","3.3","","63","","9","","24","","24.1","","101.27","","","","","","Mainly Clear"
"1956-10-25 13:00","1956","10","25","13:00","10.6","","2.8","","59","","9","","26","","24.1","","101.20","","","","","","Mainly Clear"
"1956-10-25 14:00","1956","10","25","14:00","11.1","","0.0","","46","","9","","24","","24.1","","101.14","","","","","","Clear"
"1956-10-25 15:00","1956","10","25","15:00","10.0","","1.1","","54","","9","","26","","24.1","","101.10","","","","","","Clear"
"1956-10-25 16:00","1956","10","25","16:00","10.0","","0.6","","52","","9","","24","","32.2","","101.04","","","","","","Clear"
"1956-10-25 17:00","1956","10","25","17:00","8.3","","2.8","","68","","9","","23","","24.1","","101.00","","","","","","Clear"
"1956-10-25 18:00","1956","10","25","18:00","8.3","","2.2","","65","","9","","19","","24.1","","101.00","","","","","","Clear"
"1956-10-25 19:00","1956","10","25","19:00","8.9","","3.3","","68","","9","","29","","24.1","","100.96","","","","","","Clear"
"1956-10-25 20:00","1956","10","25","20:00","10.0","","-0.6","","48","","11","","29","","24.1","","100.91","","","","","","Clear"
"1956-10-25 21:00","1956","10","25","21:00","10.0","","-2.8","","41","","11","","40","","24.1","","100.86","","","","","","Clear"
"1956-10-25 22:00","1956","10","25","22:00","9.4","","-1.7","","46","","11","","29","","24.1","","100.81","","","","","","Clear"
"1956-10-25 23:00","1956","10","25","23:00","8.9","","-1.1","","49","","11","","32","","24.1","","100.77","","","","","","Clear"
"1956-10-26 00:00","1956","10","26","00:00","8.3","","-1.1","","51","","11","","29","","25.0","","100.74","","","","","","Clear"
"1956-10-26 01:00","1956","10","26","01:00","7.8","","-1.1","","53","","11","","26","","25.0","","100.75","","","","","","Clear"
"1956-10-26 02:00","1956","10","26","02:00","6.7","","-0.6","","60","","11","","23","","25.0","","100.75","","","","","","Clear"
"1956-10-26 03:00","1956","10","26","03:00","6.1","","1.1","","70","","9","","19","","25.0","","100.74","","","","","","Clear"
"1956-10-26 04:00","1956","10","26","04:00","6.1","","1.1","","70","","14","","19","","25.0","","100.71","","","","","","Clear"
"1956-10-26 05:00","1956","10","26","05:00","6.1","","0.6","","68","","14","","19","","25.0","","100.67","","","","","","Clear"
"1956-10-26 06:00","1956","10","26","06:00","6.1","","0.6","","68","","14","","19","","25.0","","100.59","","","","","","Clear"
"1956-10-26 07:00","1956","10","26","07:00","6.1","","1.7","","73","","14","","16","","12.9","","100.56","","","","","","Mainly Clear"
"1956-10-26 08:00","1956","10","26","08:00","7.8","","2.8","","71","","11","","35","","12.9","","100.53","","","","","","Mainly Clear"
"1956-10-26 09:00","1956","10","26","09:00","9.4","","3.3","","66","","11","","27","","16.1","","100.49","","","","","","Mainly Clear"
"1956-10-26 10:00","1956","10","26","10:00","10.0","","3.3","","63","","11","","29","","16.1","","100.42","","","","","","Mainly Clear"
"1956-10-26 11:00","1956","10","26","11:00","10.0","","4.4","","68","","11","","26","","12.9","","100.37","","","","","","Mostly Cloudy"
"1956-10-26 12:00","1956","10","26","12:00","12.2","","4.4","","59","","11","","26","","11.3","","100.27","","","","","","Mostly Cloudy"
"1956-10-26 13:00","1956","10","26","13:00","11.7","","4.4","","61","","11","","19","","11.3","","100.22","","","","","","Mostly Cloudy"
"1956-10-26 14:00","1956","10","26","14:00","12.8","","5.6","","61","","11","","23","","11.3","","100.13","","","","","","Mostly Cloudy"
"1956-10-26 15:00","1956","10","26","15:00","12.8","","6.7","","66","","9","","13","","9.7","","100.07","","","","","","Haze"
"1956-10-26 16:00","1956","10","26","16:00","12.2","","6.7","","69","","9","","11","","8.0","","100.02","","","","","","Smoke,Haze"
"1956-10-26 17:00","1956","10","26","17:00","12.8","","7.8","","72","","14","","19","","6.4","","99.96","","","","","","Smoke,Haze"
"1956-10-26 18:00","1956","10","26","18:00","12.2","","7.8","","74","","14","","23","","6.4","","99.99","","","","","","Smoke,Haze"
"1956-10-26 19:00","1956","10","26","19:00","11.7","","8.9","","83","","14","","16","","19.3","","100.01","","","","","","Rain"
"1956-10-26 20:00","1956","10","26","20:00","11.7","","9.4","","86","","16","","13","","19.3","","100.03","","","","","","Cloudy"
"1956-10-26 21:00","1956","10","26","21:00","11.7","","8.9","","83","","14","","10","","19.3","","100.04","","","","","","Cloudy"
"1956-10-26 22:00","1956","10","26","22:00","11.7","","9.4","","86","","18","","13","","16.1","","100.04","","","","","","Rain"
"1956-10-26 23:00","1956","10","26","23:00","11.1","","10.0","","93","","16","","10","","19.3","","100.04","","","","","","Rain"
"1956-10-27 00:00","1956","10","27","00:00","11.1","","10.0","","93","","18","","10","","19.3","","100.10","","","","","","Rain"
"1956-10-27 01:00","1956","10","27","01:00","11.1","","10.0","","93","","18","","8","","19.3","","100.11","","","","","","Rain"
"1956-10-27 02:00","1956","10","27","02:00","11.1","","10.0","","93","","18","","6","","19.3","","100.12","","","","","","Rain"
"1956-10-27 03:00","1956","10","27","03:00","11.1","","10.6","","96","","20","","6","","19.3","","100.15","","","","","","Cloudy"
"1956-10-27 04:00","1956","10","27","04:00","10.6","","9.4","","93","","23","","6","","19.3","","100.19","","","","","","Mainly Clear"
"1956-10-27 05:00","1956","10","27","05:00","10.6","","9.4","","93","","27","","8","","19.3","","100.26","","","","","","Cloudy"
"1956-10-27 06:00","1956","10","27","06:00","11.1","","10.0","","93","","27","","6","","24.1","","100.30","","","","","","Mostly Cloudy"
"1956-10-27 07:00","1956","10","27","07:00","10.0","","8.3","","89","","29","","13","","24.1","","100.40","","","","","","Mostly Cloudy"
"1956-10-27 08:00","1956","10","27","08:00","10.6","","8.3","","86","","32","","16","","24.1","","100.52","","","","","","Mainly Clear"
"1956-10-27 09:00","1956","10","27","09:00","11.7","","7.8","","77","","34","","11","","25.0","","100.58","","","","","","Mainly Clear"
"1956-10-27 10:00","1956","10","27","10:00","12.2","","5.0","","61","","34","","16","","25.0","","100.64","","","","","","Mainly Clear"
"1956-10-27 11:00","1956","10","27","11:00","12.8","","3.9","","55","","36","","14","","25.0","","100.66","","","","","","Mostly Cloudy"
"1956-10-27 12:00","1956","10","27","12:00","13.3","","3.3","","51","","36","","16","","25.0","","100.64","","","","","","Mainly Clear"
"1956-10-27 13:00","1956","10","27","13:00","14.4","","2.8","","45","","34","","13","","25.0","","100.61","","","","","","Mainly Clear"
"1956-10-27 14:00","1956","10","27","14:00","14.4","","2.8","","45","","36","","11","","25.0","","100.63","","","","","","Mainly Clear"
"1956-10-27 15:00","1956","10","27","15:00","15.0","","2.8","","44","","36","","11","","25.0","","100.67","","","","","","Mainly Clear"
"1956-10-27 16:00","1956","10","27","16:00","15.0","","2.8","","44","","36","","11","","25.0","","100.71","","","","","","Mainly Clear"
"1956-10-27 17:00","1956","10","27","17:00","12.8","","3.3","","53","","36","","6","","25.0","","100.74","","","","","","Mainly Clear"
"1956-10-27 18:00","1956","10","27","18:00","10.0","","1.1","","54","","36","","6","","25.0","","100.80","","","","","","Clear"
"1956-10-27 19:00","1956","10","27","19:00","10.0","","1.7","","56","","34","","8","","24.1","","100.85","","","","","","Clear"
"1956-10-27 20:00","1956","10","27","20:00","7.2","","1.7","","68","","36","","8","","25.0","","100.92","","","","","","Clear"
"1956-10-27 21:00","1956","10","27","21:00","6.7","","1.7","","70","","36","","6","","25.0","","100.93","","","","","","Clear"
"1956-10-27 22:00","1956","10","27","22:00","6.7","","1.1","","68","","36","","5","","25.0","","100.95","","","","","","Clear"
"1956-10-27 23:00","1956","10","27","23:00","5.6","","0.6","","70","","34","","6","","25.0","","100.97","","","","","","Clear"
"1956-10-28 00:00","1956","10","28","00:00","5.6","","-0.6","","65","","36","","13","","25.0","","100.97","","","","","","Clear"
"1956-10-28 01:00","1956","10","28","01:00","5.6","","-0.6","","65","","36","","13","","25.0","","100.98","","","","","","Clear"
"1956-10-28 02:00","1956","10","28","02:00","4.4","","-0.6","","70","","34","","13","","25.0","","101.01","","","","","","Clear"
"1956-10-28 03:00","1956","10","28","03:00","3.9","","-1.1","","70","","36","","14","","25.0","","101.01","","","","","","Clear"
"1956-10-28 04:00","1956","10","28","04:00","3.3","","0.0","","79","","36","","11","","25.0","","101.05","","","","","","Clear"
"1956-10-28 05:00","1956","10","28","05:00","3.3","","0.0","","79","","36","","14","","25.0","","101.11","","","","","","Clear"
"1956-10-28 06:00","1956","10","28","06:00","3.3","","-0.6","","76","","36","","14","","25.0","","101.16","","","","","","Clear"
"1956-10-28 07:00","1956","10","28","07:00","2.8","","0.0","","82","","32","","5","","25.0","","101.22","","","","","","Clear"
"1956-10-28 08:00","1956","10","28","08:00","7.2","","1.7","","68","","36","","6","","25.0","","101.29","","","","","","Clear"
"1956-10-28 09:00","1956","10","28","09:00","10.0","","3.9","","66","","5","","13","","25.0","","101.31","","","","","","Clear"
"1956-10-28 10:00","1956","10","28","10:00","11.7","","7.8","","77","","9","","16","","16.1","","101.31","","","","","","Mainly Clear"
"1956-10-28 11:00","1956","10","28","11:00","12.8","","7.8","","72","","9","","16","","12.9","","101.26","","","","","","Mainly Clear"
"1956-10-28 12:00","1956","10","28","12:00","12.2","","8.3","","77","","9","","14","","6.4","","101.20","","","","","","Haze"
"1956-10-28 13:00","1956","10","28","13:00","12.8","","8.9","","77","","11","","16","","6.4","","101.15","","","","","","Haze"
"1956-10-28 14:00","1956","10","28","14:00","12.8","","7.2","","69","","9","","14","","9.7","","101.09","","","","","","Haze"
"1956-10-28 15:00","1956","10","28","15:00","12.8","","6.1","","64","","7","","14","","9.7","","101.05","","","","","","Haze"
"1956-10-28 16:00","1956","10","28","16:00","12.8","","6.7","","66","","9","","11","","9.7","","101.01","","","","","","Haze"
"1956-10-28 17:00","1956","10","28","17:00","10.6","","6.7","","77","","9","","14","","9.7","","100.98","","","","","","Haze"
"1956-10-28 18:00","1956","10","28","18:00","8.9","","7.2","","89","","7","","10","","9.7","","100.98","","","","","","Haze"
"1956-10-28 19:00","1956","10","28","19:00","7.8","","7.2","","96","","9","","6","","8.0","","100.97","","","","","","Fog"
"1956-10-28 20:00","1956","10","28","20:00","7.8","","6.7","","93","","14","","6","","1.6","","100.97","","","","","","Fog"
"1956-10-28 21:00","1956","10","28","21:00","5.6","","4.4","","93","","29","","3","","0.8","","100.97","","","","","","Fog"
"1956-10-28 22:00","1956","10","28","22:00","4.4","","4.4","","100","","","","0","","0.2","","100.97","","","","","","Fog"
"1956-10-28 23:00","1956","10","28","23:00","3.9","","3.3","","96","","2","","11","","0.2","","100.96","","","","","","Fog"
"1956-10-29 00:00","1956","10","29","00:00","3.9","","3.3","","96","","36","","8","","0.2","","100.95","","","","","","Fog"
"1956-10-29 01:00","1956","10","29","01:00","4.4","","3.9","","96","","36","","6","","3.2","","100.97","","","","","","Fog"
"1956-10-29 02:00","1956","10","29","02:00","4.4","","3.9","","96","","36","","6","","3.2","","100.97","","","","","","Fog"
"1956-10-29 03:00","1956","10","29","03:00","3.9","","3.3","","96","","36","","6","","3.2","","100.96","","","","","","Fog"
"1956-10-29 04:00","1956","10","29","04:00","3.9","","3.9","","100","","36","","3","","0.0","","100.98","","","","","","Fog"
"1956-10-29 05:00","1956","10","29","05:00","3.3","","2.8","","96","","34","","5","","0.0","","101.03","","","","","","Fog"
"1956-10-29 06:00","1956","10","29","06:00","3.3","","2.8","","96","","34","","6","","0.2","","101.04","","","","","","Fog"
"1956-10-29 07:00","1956","10","29","07:00","3.9","","3.3","","96","","36","","3","","0.0","","101.10","","","","","","Fog"
"1956-10-29 08:00","1956","10","29","08:00","4.4","","3.9","","96","","34","","5","","0.0","","101.11","","","","","","Fog"
"1956-10-29 09:00","1956","10","29","09:00","6.7","","6.1","","96","","2","","2","","0.8","","101.14","","","","","","Fog"
"1956-10-29 10:00","1956","10","29","10:00","11.7","","9.4","","86","","18","","11","","4.0","","101.11","","","","","","Haze"
"1956-10-29 11:00","1956","10","29","11:00","13.3","","9.4","","77","","18","","11","","4.8","","101.07","","","","","","Haze"
"1956-10-29 12:00","1956","10","29","12:00","15.0","","9.4","","69","","18","","13","","6.4","","100.99","","","","","","Haze"
"1956-10-29 13:00","1956","10","29","13:00","15.6","","8.9","","65","","14","","16","","8.0","","100.92","","","","","","Haze"
"1956-10-29 14:00","1956","10","29","14:00","15.0","","8.9","","67","","16","","16","","11.3","","100.85","","","","","","Mainly Clear"
"1956-10-29 15:00","1956","10","29","15:00","14.4","","8.3","","67","","14","","16","","11.3","","100.85","","","","","","Mainly Clear"
"1956-10-29 16:00","1956","10","29","16:00","13.9","","7.8","","67","","14","","13","","8.0","","100.78","","","","","","Haze"
"1956-10-29 17:00","1956","10","29","17:00","12.2","","7.8","","74","","11","","13","","4.8","","100.75","","","","","","Haze"
"1956-10-29 18:00","1956","10","29","18:00","11.1","","7.2","","77","","11","","13","","4.8","","100.76","","","","","","Haze"
"1956-10-29 19:00","1956","10","29","19:00","11.1","","7.2","","77","","11","","8","","4.0","","100.76","","","","","","Fog"
"1956-10-29 20:00","1956","10","29","20:00","7.8","","6.1","","89","","11","","5","","4.0","","100.77","","","","","","Fog"
"1956-10-29 21:00","1956","10","29","21:00","6.7","","5.6","","93","","36","","5","","4.0","","100.77","","","","","","Fog"
"1956-10-29 22:00","1956","10","29","22:00","6.1","","5.0","","93","","32","","6","","2.4","","100.70","","","","","","Fog"
"1956-10-29 23:00","1956","10","29","23:00","5.6","","4.4","","93","","32","","6","","1.2","","100.67","","","","","","Fog"
"1956-10-30 00:00","1956","10","30","00:00","4.4","","3.3","","93","","","","0","","0.4","","100.69","","","","","","Fog"
"1956-10-30 01:00","1956","10","30","01:00","3.3","","3.3","","100","","","","0","","0.2","","100.66","","","","","","Fog"
"1956-10-30 02:00","1956","10","30","02:00","2.2","","2.2","","100","","","","0","","0.0","","100.66","","","","","","Fog"
"1956-10-30 03:00","1956","10","30","03:00","2.2","","2.2","","100","","","","0","","0.0","","100.66","","","","","","Fog"
"1956-10-30 04:00","1956","10","30","04:00","2.2","","2.2","","100","","","","0","","0.2","","100.66","","","","","","Fog"
"1956-10-30 05:00","1956","10","30","05:00","1.7","","1.7","","100","","36","","3","","0.4","","100.67","","","","","","Fog"
"1956-10-30 06:00","1956","10","30","06:00","1.7","","1.7","","100","","36","","3","","0.4","","100.67","","","","","","Fog"
"1956-10-30 07:00","1956","10","30","07:00","1.7","","1.7","","100","","36","","3","","0.6","","100.71","","","","","","Fog"
"1956-10-30 08:00","1956","10","30","08:00","5.6","","5.6","","100","","36","","3","","1.6","","100.70","","","","","","Fog"
"1956-10-30 09:00","1956","10","30","09:00","8.3","","8.3","","100","","","","0","","1.6","","100.66","","","","","","Fog"
"1956-10-30 10:00","1956","10","30","10:00","12.8","","11.7","","93","","14","","8","","1.6","","100.62","","","","","","Fog"
"1956-10-30 11:00","1956","10","30","11:00","14.4","","10.6","","78","","16","","13","","6.4","","100.57","","","","","","Haze"
"1956-10-30 12:00","1956","10","30","12:00","15.0","","10.6","","75","","16","","16","","6.4","","100.55","","","","","","Haze"
"1956-10-30 13:00","1956","10","30","13:00","15.6","","10.6","","72","","14","","13","","6.4","","100.45","","","","","","Haze"
"1956-10-30 14:00","1956","10","30","14:00","16.7","","10.6","","67","","14","","19","","6.4","","100.35","","","","","","Haze"
"1956-10-30 15:00","1956","10","30","15:00","16.7","","9.4","","62","","11","","19","","6.4","","100.26","","","","","","Haze"
"1956-10-30 16:00","1956","10","30","16:00","16.1","","10.6","","70","","14","","10","","6.4","","100.25","","","","","","Haze"
"1956-10-30 17:00","1956","10","30","17:00","13.9","","10.0","","77","","7","","10","","4.0","","100.20","","","","","","Haze"
"1956-10-30 18:00","1956","10","30","18:00","13.3","","9.4","","77","","9","","14","","9.7","","100.23","","","","","","Haze"
"1956-10-30 19:00","1956","10","30","19:00","12.2","","8.9","","80","","11","","6","","9.7","","100.22","","","","","","Haze"
"1956-10-30 20:00","1956","10","30","20:00","9.4","","7.8","","89","","11","","5","","9.7","","100.13","","","","","","Fog"
"1956-10-30 21:00","1956","10","30","21:00","9.4","","7.8","","89","","29","","5","","6.4","","100.06","","","","","","Fog"
"1956-10-30 22:00","1956","10","30","22:00","7.8","","7.2","","96","","34","","5","","6.4","","100.06","","","","","","Fog"
"1956-10-30 23:00","1956","10","30","23:00","7.8","","7.2","","96","","36","","5","","4.8","","100.00","","","","","","Fog"
"1956-10-31 00:00","1956","10","31","00:00","7.2","","6.7","","96","","34","","5","","3.2","","100.00","","","","","","Fog"
"1956-10-31 01:00","1956","10","31","01:00","6.7","","5.6","","93","","32","","5","","0.2","","99.97","","","","","","Fog"
"1956-10-31 02:00","1956","10","31","02:00","6.7","","6.1","","96","","36","","5","","0.8","","99.95","","","","","","Fog"
"1956-10-31 03:00","1956","10","31","03:00","6.1","","6.1","","100","","36","","5","","0.2","","99.90","","","","","","Fog"
"1956-10-31 04:00","1956","10","31","04:00","5.0","","5.0","","100","","36","","5","","0.6","","99.85","","","","","","Fog"
"1956-10-31 05:00","1956","10","31","05:00","5.6","","5.6","","100","","36","","5","","0.4","","99.82","","","","","","Fog"
"1956-10-31 06:00","1956","10","31","06:00","5.6","","5.6","","100","","36","","6","","0.2","","99.79","","","","","","Fog"
"1956-10-31 07:00","1956","10","31","07:00","6.1","","6.1","","100","","36","","6","","0.4","","99.80","","","","","","Fog"
"1956-10-31 08:00","1956","10","31","08:00","8.3","","7.8","","96","","36","","8","","1.2","","99.86","","","","","","Fog"
"1956-10-31 09:00","1956","10","31","09:00","10.6","","10.6","","100","","2","","10","","0.2","","99.84","","","","","","Fog"
"1956-10-31 10:00","1956","10","31","10:00","13.3","","12.8","","96","","5","","10","","2.4","","99.81","","","","","","Fog"
"1956-10-31 11:00","1956","10","31","11:00","17.2","","12.8","","75","","9","","19","","4.8","","99.76","","","","","","Smoke,Haze"
"1956-10-31 12:00","1956","10","31","12:00","18.3","","13.3","","73","","9","","13","","6.4","","99.66","","","","","","Smoke,Haze"
"1956-10-31 13:00","1956","10","31","13:00","18.9","","13.3","","70","","9","","13","","6.4","","99.60","","","","","","Smoke,Haze"
"1956-10-31 14:00","1956","10","31","14:00","18.3","","13.3","","73","","9","","19","","8.0","","99.51","","","","","","Smoke,Haze"
"1956-10-31 15:00","1956","10","31","15:00","17.8","","13.3","","75","","11","","11","","8.0","","99.52","","","","","","Smoke,Haze"
"1956-10-31 16:00","1956","10","31","16:00","16.7","","13.9","","84","","9","","16","","8.0","","99.51","","","","","","Smoke,Haze"
"1956-10-31 17:00","1956","10","31","17:00","16.1","","13.9","","87","","5","","13","","6.4","","99.53","","","","","","Smoke,Haze"
"1956-10-31 18:00","1956","10","31","18:00","15.6","","13.3","","87","","7","","13","","16.1","","99.52","","","","","","Cloudy"
"1956-10-31 19:00","1956","10","31","19:00","15.6","","14.4","","93","","7","","18","","16.1","","99.50","","","","","","Rain Showers"
"1956-10-31 20:00","1956","10","31","20:00","15.6","","14.4","","93","","7","","13","","4.0","","99.51","","","","","","Fog"
"1956-10-31 21:00","1956","10","31","21:00","15.0","","14.4","","96","","7","","16","","0.8","","99.49","","","","","","Fog"
"1956-10-31 22:00","1956","10","31","22:00","15.0","","14.4","","96","","7","","13","","0.4","","99.50","","","","","","Fog"
"1956-10-31 23:00","1956","10","31","23:00","15.0","","14.4","","96","","7","","18","","0.4","","99.50","","","","","","Rain Showers,Fog"
