"Station Name","TORONTO LESTER B. PEARSON INT'L A"
"Province","ONTARIO"
"Latitude","43.68"
"Longitude","-79.63"
"Elevation","173.40"
"Climate Identifier","6158733"
"WMO Identifier","71624"
"TC Identifier","YYZ"
"All times are specified in Local Standard Time (LST). Add 1 hour to adjust for Daylight Saving Time where and when it is observed."

"Legend"
"E","Estimated"
"M","Missing"
"NA","Not Available"

"Date/Time","Year","Month","Day","Time","Temp (°C)","Temp Flag","Dew Point Temp (°C)","Dew Point Temp Flag","Rel Hum (%)","Rel Hum Flag","Wind Dir (10s deg)","Wind Dir Flag","Wind Spd (km/h)","Wind Spd Flag","Visibility (km)","Visibility Flag","Stn Press (kPa)","Stn Press Flag","Hmdx","Hmdx Flag","Wind Chill","Wind Chill Flag","Weather"
"2003-11-01 00:00","2003","11","01","00:00","18.1","","14.5","","79","","23","","17","","19.3","","99.59","","","","","","Mostly Cloudy"
"2003-11-01 01:00","2003","11","01","01:00","16.7","","11.2","","70","","28","","24","","16.1","","99.65","","","","","","Mostly Cloudy"
"2003-11-01 02:00","2003","11","01","02:00","15.5","","11.1","","75","","31","","20","","16.1","","99.76","","","","","","Mostly Cloudy"
"2003-11-01 03:00","2003","11","01","03:00","14.2","","10.5","","78","","30","","33","","14.5","","99.84","","","","","","Mostly Cloudy"
"2003-11-01 04:00","2003","11","01","04:00","13.0","","10.0","","82","","32","","15","","14.5","","99.90","","","","","","Cloudy"
"2003-11-01 05:00","2003","11","01","05:00","12.1","","8.5","","79","","31","","20","","16.1","","99.96","","","","","","Mostly Cloudy"
"2003-11-01 06:00","2003","11","01","06:00","10.0","","7.4","","84","","30","","17","","19.3","","100.03","","","","","","Mainly Clear"
"2003-11-01 07:00","2003","11","01","07:00","10.5","","6.7","","77","","30","","19","","24.1","","100.17","","","","","","Cloudy"
"2003-11-01 08:00","2003","11","01","08:00","10.3","","5.8","","74","","31","","19","","24.1","","100.25","","","","","","Cloudy"
"2003-11-01 09:00","2003","11","01","09:00","10.2","","5.7","","74","","32","","19","","24.1","","100.34","","","","","","Cloudy"
"2003-11-01 10:00","2003","11","01","10:00","10.4","","6.0","","74","","31","","22","","24.1","","100.43","","","","","","Cloudy"
"2003-11-01 11:00","2003","11","01","11:00","10.6","","4.8","","67","","32","","19","","24.1","","100.47","","","","","","Cloudy"
"2003-11-01 12:00","2003","11","01","12:00","10.8","","3.8","","62","","33","","17","","24.1","","100.47","","","","","","Cloudy"
"2003-11-01 13:00","2003","11","01","13:00","11.4","","3.4","","58","","32","","17","","24.1","","100.39","","","","","","Cloudy"
"2003-11-01 14:00","2003","11","01","14:00","11.2","","3.3","","58","","34","","17","","24.1","","100.39","","","","","","Cloudy"
"2003-11-01 15:00","2003","11","01","15:00","10.9","","3.7","","61","","32","","13","","24.1","","100.42","","","","","","Cloudy"
"2003-11-01 16:00","2003","11","01","16:00","10.6","","3.5","","61","","35","","13","","24.1","","100.47","","","","","","Cloudy"
"2003-11-01 17:00","2003","11","01","17:00","10.3","","3.5","","63","","34","","7","","24.1","","100.47","","","","","","Cloudy"
"2003-11-01 18:00","2003","11","01","18:00","9.9","","3.9","","66","","34","","11","","24.1","","100.49","","","","","","Cloudy"
"2003-11-01 19:00","2003","11","01","19:00","9.4","","4.7","","72","","36","","9","","24.1","","100.53","","","","","","Cloudy"
"2003-11-01 20:00","2003","11","01","20:00","8.7","","4.4","","74","","36","","9","","24.1","","100.54","","","","","","Mostly Cloudy"
"2003-11-01 21:00","2003","11","01","21:00","7.9","","4.2","","77","","1","","7","","24.1","","100.54","","","","","","Mostly Cloudy"
"2003-11-01 22:00","2003","11","01","22:00","9.0","","4.2","","72","","5","","6","","24.1","","100.52","","","","","","Mostly Cloudy"
"2003-11-01 23:00","2003","11","01","23:00","9.0","","4.4","","73","","14","","7","","24.1","","100.48","","","","","","Cloudy"
"2003-11-02 00:00","2003","11","02","00:00","8.9","","4.3","","73","","16","","7","","24.1","","100.43","","","","","","Cloudy"
"2003-11-02 01:00","2003","11","02","01:00","8.6","","4.3","","74","","15","","7","","24.1","","100.40","","","","","","Cloudy"
"2003-11-02 02:00","2003","11","02","02:00","8.6","","4.4","","75","","13","","7","","24.1","","100.32","","","","","","Cloudy"
"2003-11-02 03:00","2003","11","02","03:00","8.5","","5.1","","79","","12","","4","","19.3","","100.32","","","","","","Rain Showers"
"2003-11-02 04:00","2003","11","02","04:00","7.9","","6.4","","90","","","","0","","11.3","","100.33","","","","","","Rain Showers"
"2003-11-02 05:00","2003","11","02","05:00","7.4","","6.8","","96","","10","","6","","6.4","","100.28","","","","","","Rain Showers,Fog"
"2003-11-02 06:00","2003","11","02","06:00","7.3","","7.0","","98","","9","","4","","6.4","","100.25","","","","","","Rain,Fog"
"2003-11-02 07:00","2003","11","02","07:00","7.5","","7.3","","99","","11","","6","","6.4","","100.27","","","","","","Rain,Fog"
"2003-11-02 08:00","2003","11","02","08:00","7.5","","7.2","","98","","11","","9","","9.7","","100.26","","","","","","Rain,Fog"
"2003-11-02 09:00","2003","11","02","09:00","7.4","","7.1","","98","","12","","7","","6.4","","100.21","","","","","","Rain,Fog"
"2003-11-02 10:00","2003","11","02","10:00","7.5","","7.4","","99","","7","","6","","6.4","","100.23","","","","","","Rain,Fog"
"2003-11-02 11:00","2003","11","02","11:00","7.6","","7.4","","99","","9","","11","","6.4","","100.18","","","","","","Rain,Fog"
"2003-11-02 12:00","2003","11","02","12:00","7.6","","7.5","","99","","9","","15","","6.4","","99.93","","","","","","Rain,Fog"
"2003-11-02 13:00","2003","11","02","13:00","7.8","","7.7","","99","","4","","4","","8.0","","100.03","","","","","","Rain,Fog"
"2003-11-02 14:00","2003","11","02","14:00","7.9","","7.9","","100","","10","","11","","6.4","","99.99","","","","","","Rain,Fog"
"2003-11-02 15:00","2003","11","02","15:00","8.0","","7.9","","99","","10","","11","","9.7","","99.96","","","","","","Rain"
"2003-11-02 16:00","2003","11","02","16:00","8.2","","8.2","","100","","11","","9","","8.0","","99.93","","","","","","Rain"
"2003-11-02 17:00","2003","11","02","17:00","8.2","","8.1","","99","","14","","7","","4.8","","99.91","","","","","","Rain,Fog"
"2003-11-02 18:00","2003","11","02","18:00","8.3","","8.3","","100","","8","","6","","8.0","","99.97","","","","","","Rain"
"2003-11-02 19:00","2003","11","02","19:00","8.3","","8.3","","100","","7","","11","","6.4","","99.95","","","","","","Drizzle,Fog"
"2003-11-02 20:00","2003","11","02","20:00","8.3","","8.3","","100","","6","","6","","2.4","","99.94","","","","","","Drizzle,Fog"
"2003-11-02 21:00","2003","11","02","21:00","8.4","","8.4","","100","","7","","4","","4.0","","99.97","","","","","","Fog"
"2003-11-02 22:00","2003","11","02","22:00","8.5","","8.5","","100","","10","","6","","2.0","","99.96","","","","","","Fog"
"2003-11-02 23:00","2003","11","02","23:00","8.6","","8.6","","100","","","","0","","0.8","","99.96","","","","","","Rain,Fog"
"2003-11-03 00:00","2003","11","03","00:00","8.6","","8.6","","100","","13","","6","","1.2","","99.95","","","","","","Fog"
"2003-11-03 01:00","2003","11","03","01:00","8.7","","8.7","","100","","","","0","","0.4","","99.94","","","","","","Drizzle,Fog"
"2003-11-03 02:00","2003","11","03","02:00","8.7","","8.7","","100","","","","0","","0.4","","99.94","","","","","","Drizzle,Fog"
"2003-11-03 03:00","2003","11","03","03:00","8.8","","8.8","","100","","","","0","","0.4","","99.93","","","","","","Rain,Fog"
"2003-11-03 04:00","2003","11","03","04:00","8.9","","8.9","","100","","31","","7","","8.0","","100.00","","","","","","Rain,Fog"
"2003-11-03 05:00","2003","11","03","05:00","9.0","","9.0","","100","","33","","7","","12.9","","100.00","","","","","","Rain"
"2003-11-03 06:00","2003","11","03","06:00","9.2","","9.2","","100","","36","","6","","16.1","","100.04","","","","","","Cloudy"
"2003-11-03 07:00","2003","11","03","07:00","9.3","","9.1","","99","","35","","9","","16.1","","100.09","","","","","","Cloudy"
"2003-11-03 08:00","2003","11","03","08:00","8.8","","8.2","","96","","34","","22","","14.5","","100.13","","","","","","Cloudy"
"2003-11-03 09:00","2003","11","03","09:00","8.1","","7.3","","95","","34","","19","","11.3","","100.22","","","","","","Rain"
"2003-11-03 10:00","2003","11","03","10:00","8.4","","7.5","","94","","36","","20","","9.7","","100.20","","","","","","Rain,Fog"
"2003-11-03 11:00","2003","11","03","11:00","8.6","","7.7","","94","","36","","13","","16.1","","100.15","","","","","","Rain"
"2003-11-03 12:00","2003","11","03","12:00","8.6","","7.6","","93","","36","","17","","12.9","","100.12","","","","","","Rain"
"2003-11-03 13:00","2003","11","03","13:00","8.7","","7.7","","93","","2","","17","","8.0","","100.07","","","","","","Rain,Fog"
"2003-11-03 14:00","2003","11","03","14:00","8.8","","7.6","","92","","1","","17","","12.9","","100.05","","","","","","Rain"
"2003-11-03 15:00","2003","11","03","15:00","8.6","","6.8","","88","","3","","17","","16.1","","100.02","","","","","","Rain"
"2003-11-03 16:00","2003","11","03","16:00","8.2","","5.4","","82","","4","","17","","19.3","","100.01","","","","","","Cloudy"
"2003-11-03 17:00","2003","11","03","17:00","7.0","","6.5","","97","","3","","19","","3.6","","99.98","","","","","","Rain,Fog"
"2003-11-03 18:00","2003","11","03","18:00","6.8","","6.5","","98","","2","","19","","3.2","","100.06","","","","","","Rain,Fog"
"2003-11-03 19:00","2003","11","03","19:00","6.7","","6.4","","98","","2","","22","","6.4","","100.07","","","","","","Rain,Fog"
"2003-11-03 20:00","2003","11","03","20:00","6.8","","6.5","","98","","1","","20","","6.4","","100.14","","","","","","Rain,Fog"
"2003-11-03 21:00","2003","11","03","21:00","6.9","","6.4","","97","","3","","19","","12.9","","100.11","","","","","","Rain"
"2003-11-03 22:00","2003","11","03","22:00","6.4","","6.1","","98","","3","","24","","4.8","","100.15","","","","","","Rain,Fog"
"2003-11-03 23:00","2003","11","03","23:00","5.8","","5.6","","99","","6","","15","","6.4","","100.12","","","","","","Moderate Rain,Fog"
"2003-11-04 00:00","2003","11","04","00:00","6.2","","5.7","","97","","7","","17","","12.9","","100.10","","","","","","Cloudy"
"2003-11-04 01:00","2003","11","04","01:00","6.2","","5.3","","94","","8","","19","","19.3","","100.14","","","","","","Cloudy"
"2003-11-04 02:00","2003","11","04","02:00","6.0","","5.0","","93","","7","","20","","9.7","","100.15","","","","","","Rain,Fog"
"2003-11-04 03:00","2003","11","04","03:00","5.8","","5.3","","97","","9","","20","","4.0","","100.10","","","","","","Rain,Fog"
"2003-11-04 04:00","2003","11","04","04:00","5.0","","4.5","","97","","8","","20","","8.0","","100.11","","","","","","Rain,Fog"
"2003-11-04 05:00","2003","11","04","05:00","4.8","","4.5","","98","","9","","17","","4.8","","100.11","","","","","","Rain,Fog"
"2003-11-04 06:00","2003","11","04","06:00","4.6","","4.4","","99","","8","","15","","4.0","","100.12","","","","","","Rain,Fog"
"2003-11-04 07:00","2003","11","04","07:00","4.3","","4.0","","98","","8","","20","","3.6","","100.13","","","","","","Drizzle,Fog"
"2003-11-04 08:00","2003","11","04","08:00","3.9","","3.5","","97","","9","","22","","4.8","","100.08","","","","","","Drizzle,Fog"
"2003-11-04 09:00","2003","11","04","09:00","4.0","","3.5","","97","","9","","17","","6.4","","100.06","","","","","","Drizzle,Fog"
"2003-11-04 10:00","2003","11","04","10:00","4.2","","2.9","","91","","10","","32","","11.3","","100.01","","","","","","Drizzle"
"2003-11-04 11:00","2003","11","04","11:00","4.4","","3.4","","93","","9","","24","","9.7","","99.96","","","","","","Drizzle,Fog"
"2003-11-04 12:00","2003","11","04","12:00","4.6","","3.9","","95","","9","","30","","9.7","","99.84","","","","","","Drizzle,Fog"
"2003-11-04 13:00","2003","11","04","13:00","4.7","","4.0","","95","","9","","24","","6.4","","99.75","","","","","","Fog"
"2003-11-04 14:00","2003","11","04","14:00","4.5","","3.5","","93","","9","","26","","8.0","","99.71","","","","","","Fog"
"2003-11-04 15:00","2003","11","04","15:00","4.4","","3.3","","93","","11","","24","","9.7","","99.53","","","","","","Fog"
"2003-11-04 16:00","2003","11","04","16:00","4.5","","3.8","","95","","9","","15","","6.4","","99.60","","","","","","Fog"
"2003-11-04 17:00","2003","11","04","17:00","4.5","","4.1","","97","","9","","15","","4.8","","99.58","","","","","","Fog"
"2003-11-04 18:00","2003","11","04","18:00","4.7","","4.5","","99","","10","","22","","3.2","","99.52","","","","","","Fog"
"2003-11-04 19:00","2003","11","04","19:00","4.8","","4.8","","100","","10","","17","","1.0","","99.50","","","","","","Fog"
"2003-11-04 20:00","2003","11","04","20:00","5.2","","5.2","","100","","11","","13","","0.8","","99.45","","","","","","Drizzle,Fog"
"2003-11-04 21:00","2003","11","04","21:00","5.2","","5.2","","100","","8","","11","","0.6","","99.42","","","","","","Drizzle,Fog"
"2003-11-04 22:00","2003","11","04","22:00","5.4","","5.4","","100","","1","","15","","0.6","","99.30","","","","","","Drizzle,Fog"
"2003-11-04 23:00","2003","11","04","23:00","6.1","","6.1","","100","","13","","9","","0.4","","99.30","","","","","","Fog"
"2003-11-05 00:00","2003","11","05","00:00","5.4","","5.4","","100","","11","","9","","0.4","","99.27","","","","","","Fog"
"2003-11-05 01:00","2003","11","05","01:00","5.8","","5.8","","100","","13","","13","","0.2","","99.23","","","","","","Fog"
"2003-11-05 02:00","2003","11","05","02:00","6.0","","6.0","","100","","13","","7","","0.2","","99.28","","","","","","Fog"
"2003-11-05 03:00","2003","11","05","03:00","6.1","","6.1","","100","","9","","9","","0.2","","99.25","","","","","","Fog"
"2003-11-05 04:00","2003","11","05","04:00","6.0","","6.0","","100","","8","","6","","0.2","","99.15","","","","","","Fog"
"2003-11-05 05:00","2003","11","05","05:00","6.2","","6.2","","100","","16","","9","","0.2","","99.22","","","","","","Fog"
"2003-11-05 06:00","2003","11","05","06:00","6.6","","6.6","","100","","","","0","","0.2","","99.23","","","","","","Fog"
"2003-11-05 07:00","2003","11","05","07:00","6.6","","6.6","","100","","14","","7","","0.2","","99.16","","","","","","Fog"
"2003-11-05 08:00","2003","11","05","08:00","6.9","","6.9","","100","","17","","7","","0.2","","99.19","","","","","","Fog"
"2003-11-05 09:00","2003","11","05","09:00","7.2","","7.2","","100","","","","0","","0.2","","99.25","","","","","","Fog"
"2003-11-05 10:00","2003","11","05","10:00","8.1","","8.1","","100","","25","","4","","3.2","","99.23","","","","","","Fog"
"2003-11-05 11:00","2003","11","05","11:00","10.4","","10.4","","100","","28","","6","","4.8","","99.27","","","","","","Fog"
"2003-11-05 12:00","2003","11","05","12:00","10.6","","10.6","","100","","29","","13","","4.8","","99.33","","","","","","Fog"
"2003-11-05 13:00","2003","11","05","13:00","10.4","","10.2","","99","","2","","19","","8.0","","99.25","","","","","","Fog"
"2003-11-05 14:00","2003","11","05","14:00","10.8","","10.5","","98","","32","","13","","16.1","","99.41","","","","","","Mostly Cloudy"
"2003-11-05 15:00","2003","11","05","15:00","9.8","","8.3","","90","","32","","30","","24.1","","99.48","","","","","","Cloudy"
"2003-11-05 16:00","2003","11","05","16:00","9.3","","6.0","","80","","30","","33","","24.1","","99.60","","","","","","Mostly Cloudy"
"2003-11-05 17:00","2003","11","05","17:00","8.7","","5.4","","80","","31","","32","","24.1","","99.77","","","","","","Cloudy"
"2003-11-05 18:00","2003","11","05","18:00","8.1","","4.0","","75","","31","","35","","24.1","","99.87","","","","","","Mostly Cloudy"
"2003-11-05 19:00","2003","11","05","19:00","7.5","","2.7","","72","","30","","26","","24.1","","100.01","","","","","","Mostly Cloudy"
"2003-11-05 20:00","2003","11","05","20:00","6.9","","2.0","","71","","33","","26","","24.1","","100.07","","","","","","Cloudy"
"2003-11-05 21:00","2003","11","05","21:00","5.7","","0.6","","70","","32","","30","","24.1","","100.14","","","","","","Mainly Clear"
"2003-11-05 22:00","2003","11","05","22:00","4.8","","0.4","","73","","34","","15","","24.1","","100.18","","","","","","Mostly Cloudy"
"2003-11-05 23:00","2003","11","05","23:00","3.4","","0.0","","78","","28","","7","","24.1","","100.21","","","","","","Mostly Cloudy"
"2003-11-06 00:00","2003","11","06","00:00","3.3","","-0.2","","78","","32","","7","","24.1","","100.20","","","","","","Mainly Clear"
"2003-11-06 01:00","2003","11","06","01:00","3.2","","-0.1","","79","","26","","6","","24.1","","100.27","","","","","","Mainly Clear"
"2003-11-06 02:00","2003","11","06","02:00","1.7","","-0.3","","87","","27","","6","","24.1","","100.27","","","","","","Mainly Clear"
"2003-11-06 03:00","2003","11","06","03:00","2.1","","-0.3","","84","","28","","7","","24.1","","100.29","","","","","","Mostly Cloudy"
"2003-11-06 04:00","2003","11","06","04:00","1.5","","-0.4","","87","","31","","9","","24.1","","100.26","","","","","","Mostly Cloudy"
"2003-11-06 05:00","2003","11","06","05:00","2.3","","0.1","","85","","28","","7","","24.1","","100.25","","","","","","Mostly Cloudy"
"2003-11-06 06:00","2003","11","06","06:00","2.0","","0.1","","87","","29","","6","","24.1","","100.25","","","","","","Cloudy"
"2003-11-06 07:00","2003","11","06","07:00","1.8","","0.1","","88","","27","","6","","24.1","","100.31","","","","","","Cloudy"
"2003-11-06 08:00","2003","11","06","08:00","3.3","","1.2","","86","","32","","9","","24.1","","100.33","","","","","","Mostly Cloudy"
"2003-11-06 09:00","2003","11","06","09:00","4.4","","1.6","","82","","","","0","","24.1","","100.37","","","","","","Cloudy"
"2003-11-06 10:00","2003","11","06","10:00","5.8","","0.8","","70","","11","","7","","24.1","","100.31","","","","","","Cloudy"
"2003-11-06 11:00","2003","11","06","11:00","6.2","","0.4","","66","","11","","6","","24.1","","100.23","","","","","","Cloudy"
"2003-11-06 12:00","2003","11","06","12:00","6.2","","0.6","","67","","","","0","","24.1","","100.21","","","","","","Cloudy"
"2003-11-06 13:00","2003","11","06","13:00","6.4","","1.1","","69","","28","","7","","24.1","","100.15","","","","","","Cloudy"
"2003-11-06 14:00","2003","11","06","14:00","6.5","","1.2","","69","","28","","4","","24.1","","100.12","","","","","","Cloudy"
"2003-11-06 15:00","2003","11","06","15:00","6.6","","1.8","","71","","27","","4","","24.1","","100.13","","","","","","Cloudy"
"2003-11-06 16:00","2003","11","06","16:00","6.5","","1.7","","71","","29","","6","","24.1","","100.11","","","","","","Cloudy"
"2003-11-06 17:00","2003","11","06","17:00","6.1","","2.4","","77","","27","","7","","24.1","","100.08","","","","","","Cloudy"
"2003-11-06 18:00","2003","11","06","18:00","5.9","","2.6","","79","","25","","7","","24.1","","100.06","","","","","","Cloudy"
"2003-11-06 19:00","2003","11","06","19:00","6.1","","2.7","","79","","27","","6","","24.1","","100.08","","","","","","Cloudy"
"2003-11-06 20:00","2003","11","06","20:00","6.4","","2.1","","74","","19","","7","","24.1","","100.05","","","","","","Mostly Cloudy"
"2003-11-06 21:00","2003","11","06","21:00","6.3","","2.1","","74","","22","","7","","24.1","","100.06","","","","","","Mostly Cloudy"
"2003-11-06 22:00","2003","11","06","22:00","5.7","","2.2","","78","","24","","13","","24.1","","100.09","","","","","","Mostly Cloudy"
"2003-11-06 23:00","2003","11","06","23:00","4.0","","2.0","","87","","28","","13","","24.1","","100.12","","","","","","Mainly Clear"
"2003-11-07 00:00","2003","11","07","00:00","2.5","","0.6","","87","","29","","9","","24.1","","100.10","","","","","","Clear"
"2003-11-07 01:00","2003","11","07","01:00","1.2","","-0.2","","90","","27","","6","","24.1","","100.08","","","","","","Clear"
"2003-11-07 02:00","2003","11","07","02:00","1.7","","0.5","","92","","23","","7","","24.1","","100.06","","","","","","Clear"
"2003-11-07 03:00","2003","11","07","03:00","2.1","","0.6","","90","","22","","6","","24.1","","100.02","","","","","","Clear"
"2003-11-07 04:00","2003","11","07","04:00","0.7","","-0.6","","91","","24","","13","","24.1","","99.97","","","","","","Clear"
"2003-11-07 05:00","2003","11","07","05:00","0.3","","-1.8","","86","","28","","15","","24.1","","100.02","","","","","","Clear"
"2003-11-07 06:00","2003","11","07","06:00","-0.9","","-3.6","","82","","27","","13","","24.1","","100.01","","","","-5","","Clear"
"2003-11-07 07:00","2003","11","07","07:00","-1.3","","-4.2","","81","","25","","11","","24.1","","100.01","","","","-5","","Clear"
"2003-11-07 08:00","2003","11","07","08:00","0.4","","-3.7","","74","","25","","11","","24.1","","100.03","","","","","","Clear"
"2003-11-07 09:00","2003","11","07","09:00","2.3","","-3.1","","67","","25","","24","","24.1","","100.03","","","","","","Clear"
"2003-11-07 10:00","2003","11","07","10:00","3.7","","-3.3","","60","","25","","33","","24.1","","100.00","","","","","","Clear"
"2003-11-07 11:00","2003","11","07","11:00","5.3","","-3.8","","52","","26","","35","","24.1","","99.98","","","","","","Mainly Clear"
"2003-11-07 12:00","2003","11","07","12:00","5.8","","-4.5","","47","","27","","39","","24.1","","99.97","","","","","","Mainly Clear"
"2003-11-07 13:00","2003","11","07","13:00","6.5","","-4.9","","44","","27","","39","","24.1","","99.87","","","","","","Mainly Clear"
"2003-11-07 14:00","2003","11","07","14:00","6.3","","-4.2","","47","","27","","46","","24.1","","99.89","","","","","","Mostly Cloudy"
"2003-11-07 15:00","2003","11","07","15:00","4.8","","-5.2","","48","","28","","43","","24.1","","99.93","","","","","","Mostly Cloudy"
"2003-11-07 16:00","2003","11","07","16:00","4.1","","-5.3","","50","","28","","39","","24.1","","100.03","","","","","","Mostly Cloudy"
"2003-11-07 17:00","2003","11","07","17:00","3.6","","-6.0","","49","","27","","41","","24.1","","100.11","","","","","","Mostly Cloudy"
"2003-11-07 18:00","2003","11","07","18:00","3.1","","-5.7","","52","","30","","28","","24.1","","100.16","","","","","","Mostly Cloudy"
"2003-11-07 19:00","2003","11","07","19:00","1.8","","-6.0","","56","","30","","30","","24.1","","100.24","","","","","","Mostly Cloudy"
"2003-11-07 20:00","2003","11","07","20:00","1.1","","-6.2","","58","","31","","30","","24.1","","100.34","","","","","","Mostly Cloudy"
"2003-11-07 21:00","2003","11","07","21:00","0.4","","-6.7","","59","","32","","35","","24.1","","100.41","","","","","","Mostly Cloudy"
"2003-11-07 22:00","2003","11","07","22:00","0.2","","-8.4","","52","","31","","28","","24.1","","100.49","","","","","","Mostly Cloudy"
"2003-11-07 23:00","2003","11","07","23:00","-0.4","","-8.6","","54","","32","","33","","24.1","","100.55","","","","-7","","Mostly Cloudy"
"2003-11-08 00:00","2003","11","08","00:00","-1.6","","-7.9","","62","","32","","33","","24.1","","100.66","","","","-9","","Clear"
"2003-11-08 01:00","2003","11","08","01:00","-2.1","","-8.0","","64","","31","","30","","24.1","","100.73","","","","-9","","Mainly Clear"
"2003-11-08 02:00","2003","11","08","02:00","-2.0","","-8.2","","62","","34","","26","","24.1","","100.80","","","","-9","","Mostly Cloudy"
"2003-11-08 03:00","2003","11","08","03:00","-3.0","","-7.3","","72","","2","","11","","24.1","","100.89","","","","-7","","Mainly Clear"
"2003-11-08 04:00","2003","11","08","04:00","-4.0","","-8.2","","73","","2","","13","","24.1","","100.95","","","","-9","","Mainly Clear"
"2003-11-08 05:00","2003","11","08","05:00","-5.3","","-8.6","","78","","2","","9","","24.1","","101.03","","","","-9","","Clear"
"2003-11-08 06:00","2003","11","08","06:00","-5.5","","-9.0","","76","","36","","9","","24.1","","101.12","","","","-10","","Clear"
"2003-11-08 07:00","2003","11","08","07:00","-5.4","","-8.7","","78","","29","","7","","24.1","","101.20","","","","-9","","Clear"
"2003-11-08 08:00","2003","11","08","08:00","-4.2","","-7.6","","77","","29","","9","","24.1","","101.31","","","","-8","","Clear"
"2003-11-08 09:00","2003","11","08","09:00","-2.5","","-9.7","","58","","33","","19","","24.1","","101.40","","","","-8","","Clear"
"2003-11-08 10:00","2003","11","08","10:00","-1.4","","-9.3","","55","","35","","17","","24.1","","101.46","","","","-7","","Clear"
"2003-11-08 11:00","2003","11","08","11:00","0.0","","-9.0","","51","","34","","9","","24.1","","101.49","","","","-3","","Clear"
"2003-11-08 12:00","2003","11","08","12:00","-0.1","","-9.8","","48","","34","","7","","24.1","","101.45","","","","-3","","Clear"
"2003-11-08 13:00","2003","11","08","13:00","1.1","","-10.9","","40","","32","","13","","24.1","","101.44","","","","","","Mainly Clear"
"2003-11-08 14:00","2003","11","08","14:00","0.7","","-10.2","","44","","3","","9","","24.1","","101.42","","","","","","Mainly Clear"
"2003-11-08 15:00","2003","11","08","15:00","0.6","","-9.7","","46","","34","","11","","24.1","","101.43","","","","","","Mostly Cloudy"
"2003-11-08 16:00","2003","11","08","16:00","0.6","","-9.9","","45","","2","","11","","24.1","","101.47","","","","","","Mostly Cloudy"
"2003-11-08 17:00","2003","11","08","17:00","0.1","","-9.8","","47","","36","","15","","24.1","","101.48","","","","","","Mostly Cloudy"
"2003-11-08 18:00","2003","11","08","18:00","-0.2","","-7.5","","58","","2","","15","","24.1","","101.53","","","","-5","","Mostly Cloudy"
"2003-11-08 19:00","2003","11","08","19:00","-0.6","","-8.2","","56","","36","","19","","24.1","","101.55","","","","-6","","Mostly Cloudy"
"2003-11-08 20:00","2003","11","08","20:00","-1.7","","-7.7","","64","","35","","11","","24.1","","101.59","","","","-6","","Mainly Clear"
"2003-11-08 21:00","2003","11","08","21:00","-2.7","","-10.5","","55","","31","","11","","24.1","","101.62","","","","-7","","Clear"
"2003-11-08 22:00","2003","11","08","22:00","-3.3","","-10.1","","59","","29","","11","","24.1","","101.68","","","","-8","","Clear"
"2003-11-08 23:00","2003","11","08","23:00","-4.1","","-9.9","","64","","28","","11","","24.1","","101.71","","","","-9","","Clear"
"2003-11-09 00:00","2003","11","09","00:00","-4.1","","-9.1","","68","","31","","9","","24.1","","101.73","","","","-8","","Clear"
"2003-11-09 01:00","2003","11","09","01:00","-4.2","","-9.1","","69","","27","","7","","24.1","","101.75","","","","-7","","Clear"
"2003-11-09 02:00","2003","11","09","02:00","-5.4","","-9.1","","75","","27","","7","","24.1","","101.77","","","","-9","","Mainly Clear"
"2003-11-09 03:00","2003","11","09","03:00","-4.8","","-8.0","","78","","27","","9","","24.1","","101.80","","","","-9","","Mostly Cloudy"
"2003-11-09 04:00","2003","11","09","04:00","-3.2","","-7.4","","73","","27","","11","","24.1","","101.77","","","","-7","","Mostly Cloudy"
"2003-11-09 05:00","2003","11","09","05:00","-2.8","","-7.2","","72","","26","","9","","24.1","","101.79","","","","-6","","Mostly Cloudy"
"2003-11-09 06:00","2003","11","09","06:00","-3.3","","-8.6","","67","","27","","17","","24.1","","101.78","","","","-9","","Mainly Clear"
"2003-11-09 07:00","2003","11","09","07:00","-4.1","","-8.6","","71","","26","","11","","24.1","","101.81","","","","-9","","Mostly Cloudy"
"2003-11-09 08:00","2003","11","09","08:00","-1.8","","-8.3","","61","","27","","13","","24.1","","101.84","","","","-6","","Mostly Cloudy"
"2003-11-09 09:00","2003","11","09","09:00","-0.9","","-7.7","","60","","26","","13","","24.1","","101.87","","","","-5","","Mainly Clear"
"2003-11-09 10:00","2003","11","09","10:00","1.6","","-6.5","","55","","26","","17","","24.1","","101.85","","","","","","Clear"
"2003-11-09 11:00","2003","11","09","11:00","2.7","","-7.4","","47","","27","","24","","24.1","","101.83","","","","","","Mainly Clear"
"2003-11-09 12:00","2003","11","09","12:00","3.6","","-6.8","","46","","25","","22","","24.1","","101.76","","","","","","Mainly Clear"
"2003-11-09 13:00","2003","11","09","13:00","3.7","","-7.1","","45","","27","","17","","24.1","","101.67","","","","","","Clear"
"2003-11-09 14:00","2003","11","09","14:00","4.1","","-7.5","","43","","28","","11","","24.1","","101.60","","","","","","Clear"
"2003-11-09 15:00","2003","11","09","15:00","4.2","","-7.5","","42","","27","","15","","24.1","","101.52","","","","","","Clear"
"2003-11-09 16:00","2003","11","09","16:00","3.7","","-7.6","","43","","26","","19","","24.1","","101.47","","","","","","Clear"
"2003-11-09 17:00","2003","11","09","17:00","1.4","","-8.0","","50","","26","","13","","24.1","","101.43","","","","","","Clear"
"2003-11-09 18:00","2003","11","09","18:00","1.1","","-7.4","","53","","23","","9","","24.1","","101.40","","","","","","Clear"
"2003-11-09 19:00","2003","11","09","19:00","1.0","","-7.5","","53","","22","","13","","24.1","","101.38","","","","","","Clear"
"2003-11-09 20:00","2003","11","09","20:00","0.9","","-7.0","","55","","22","","11","","24.1","","101.34","","","","","","Clear"
"2003-11-09 21:00","2003","11","09","21:00","-0.1","","-6.1","","64","","23","","11","","24.1","","101.30","","","","-4","","Clear"
"2003-11-09 22:00","2003","11","09","22:00","-0.4","","-5.6","","68","","22","","7","","24.1","","101.26","","","","-3","","Clear"
"2003-11-09 23:00","2003","11","09","23:00","-1.8","","-5.9","","74","","27","","9","","24.1","","101.24","","","","-5","","Clear"
"2003-11-10 00:00","2003","11","10","00:00","-2.0","","-5.6","","76","","27","","4","","24.1","","101.21","","","","-3","","Clear"
"2003-11-10 01:00","2003","11","10","01:00","-2.5","","-5.8","","78","","","","0","","24.1","","101.16","","","","","","Clear"
"2003-11-10 02:00","2003","11","10","02:00","-2.7","","-5.7","","80","","","","0","","24.1","","101.16","","","","","","Clear"
"2003-11-10 03:00","2003","11","10","03:00","-2.4","","-5.6","","79","","","","0","","24.1","","101.12","","","","","","Clear"
"2003-11-10 04:00","2003","11","10","04:00","-3.3","","-6.2","","80","","27","","7","","24.1","","101.10","","","","-6","","Clear"
"2003-11-10 05:00","2003","11","10","05:00","-3.1","","-6.6","","77","","25","","7","","24.1","","101.12","","","","-6","","Clear"
"2003-11-10 06:00","2003","11","10","06:00","-3.4","","-6.5","","79","","","","0","","24.1","","101.09","","","","","","Clear"
"2003-11-10 07:00","2003","11","10","07:00","-2.8","","-7.4","","71","","24","","6","","24.1","","101.04","","","","-5","","Mainly Clear"
"2003-11-10 08:00","2003","11","10","08:00","-1.8","","-6.1","","72","","29","","6","","24.1","","101.07","","","","-4","","Mainly Clear"
"2003-11-10 09:00","2003","11","10","09:00","1.8","","-4.1","","65","","23","","6","","19.3","","101.08","","","","","","Mainly Clear"
"2003-11-10 10:00","2003","11","10","10:00","3.7","","-3.4","","60","","21","","11","","19.3","","100.98","","","","","","Mainly Clear"
"2003-11-10 11:00","2003","11","10","11:00","5.5","","-1.7","","60","","26","","13","","24.1","","100.95","","","","","","Mainly Clear"
"2003-11-10 12:00","2003","11","10","12:00","6.6","","-1.4","","57","","23","","17","","24.1","","100.87","","","","","","Mostly Cloudy"
"2003-11-10 13:00","2003","11","10","13:00","7.2","","-1.3","","55","","23","","15","","24.1","","100.78","","","","","","Mostly Cloudy"
"2003-11-10 14:00","2003","11","10","14:00","6.7","","-0.5","","60","","13","","15","","19.3","","100.66","","","","","","Mainly Clear"
"2003-11-10 15:00","2003","11","10","15:00","7.2","","-0.4","","58","","17","","11","","24.1","","100.61","","","","","","Mostly Cloudy"
"2003-11-10 16:00","2003","11","10","16:00","6.6","","-0.8","","59","","13","","9","","24.1","","100.61","","","","","","Mostly Cloudy"
"2003-11-10 17:00","2003","11","10","17:00","5.5","","-1.3","","62","","16","","11","","19.3","","100.56","","","","","","Mostly Cloudy"
"2003-11-10 18:00","2003","11","10","18:00","5.3","","-0.1","","68","","17","","7","","24.1","","100.52","","","","","","Mostly Cloudy"
"2003-11-10 19:00","2003","11","10","19:00","5.2","","0.0","","69","","16","","9","","24.1","","100.48","","","","","","Cloudy"
"2003-11-10 20:00","2003","11","10","20:00","4.8","","1.5","","79","","15","","7","","24.1","","100.43","","","","","","Mostly Cloudy"
"2003-11-10 21:00","2003","11","10","21:00","4.1","","0.7","","78","","18","","9","","24.1","","100.36","","","","","","Mainly Clear"
"2003-11-10 22:00","2003","11","10","22:00","3.5","","0.7","","82","","18","","7","","24.1","","100.35","","","","","","Mainly Clear"
"2003-11-10 23:00","2003","11","10","23:00","3.2","","0.4","","82","","13","","7","","24.1","","100.22","","","","","","Mostly Cloudy"
"2003-11-11 00:00","2003","11","11","00:00","3.8","","0.8","","81","","13","","6","","24.1","","100.18","","","","","","Cloudy"
"2003-11-11 01:00","2003","11","11","01:00","4.2","","1.2","","81","","14","","4","","24.1","","100.09","","","","","","Cloudy"
"2003-11-11 02:00","2003","11","11","02:00","4.7","","1.0","","77","","13","","7","","24.1","","99.96","","","","","","Cloudy"
"2003-11-11 03:00","2003","11","11","03:00","5.0","","1.0","","75","","13","","9","","24.1","","99.84","","","","","","Cloudy"
"2003-11-11 04:00","2003","11","11","04:00","5.3","","1.1","","74","","12","","7","","24.1","","99.68","","","","","","Cloudy"
"2003-11-11 05:00","2003","11","11","05:00","5.2","","2.0","","80","","7","","7","","24.1","","99.58","","","","","","Rain"
"2003-11-11 06:00","2003","11","11","06:00","5.0","","3.0","","87","","10","","11","","19.3","","99.45","","","","","","Rain"
"2003-11-11 07:00","2003","11","11","07:00","4.9","","3.5","","91","","13","","19","","8.0","","99.26","","","","","","Rain,Fog"
"2003-11-11 08:00","2003","11","11","08:00","5.0","","4.4","","96","","13","","19","","3.6","","99.16","","","","","","Rain,Fog"
"2003-11-11 09:00","2003","11","11","09:00","5.4","","5.0","","97","","14","","15","","6.4","","99.07","","","","","","Rain,Fog"
"2003-11-11 10:00","2003","11","11","10:00","6.5","","6.4","","99","","16","","9","","3.2","","98.93","","","","","","Drizzle,Fog"
"2003-11-11 11:00","2003","11","11","11:00","7.8","","7.8","","100","","18","","9","","3.2","","98.84","","","","","","Fog"
"2003-11-11 12:00","2003","11","11","12:00","9.3","","9.2","","99","","19","","9","","8.0","","98.79","","","","","","Fog"
"2003-11-11 13:00","2003","11","11","13:00","10.6","","9.4","","92","","24","","26","","16.1","","98.75","","","","","","Cloudy"
"2003-11-11 14:00","2003","11","11","14:00","11.0","","8.4","","84","","26","","26","","19.3","","98.77","","","","","","Rain"
"2003-11-11 15:00","2003","11","11","15:00","11.2","","7.9","","80","","26","","20","","19.3","","98.83","","","","","","Cloudy"
"2003-11-11 16:00","2003","11","11","16:00","11.1","","8.1","","82","","26","","15","","19.3","","98.85","","","","","","Cloudy"
"2003-11-11 17:00","2003","11","11","17:00","11.0","","7.9","","81","","25","","15","","19.3","","98.92","","","","","","Mostly Cloudy"
"2003-11-11 18:00","2003","11","11","18:00","11.1","","7.7","","80","","23","","9","","24.1","","98.96","","","","","","Cloudy"
"2003-11-11 19:00","2003","11","11","19:00","10.7","","7.8","","82","","25","","13","","24.1","","98.99","","","","","","Mostly Cloudy"
"2003-11-11 20:00","2003","11","11","20:00","11.0","","7.9","","81","","18","","6","","24.1","","99.02","","","","","","Cloudy"
"2003-11-11 21:00","2003","11","11","21:00","10.7","","8.3","","85","","20","","7","","24.1","","99.00","","","","","","Mostly Cloudy"
"2003-11-11 22:00","2003","11","11","22:00","10.2","","8.5","","89","","22","","4","","19.3","","98.99","","","","","","Mostly Cloudy"
"2003-11-11 23:00","2003","11","11","23:00","9.4","","8.3","","93","","","","0","","19.3","","98.97","","","","","","Mostly Cloudy"
"2003-11-12 00:00","2003","11","12","00:00","9.2","","8.3","","94","","22","","6","","16.1","","98.94","","","","","","Mostly Cloudy"
"2003-11-12 01:00","2003","11","12","01:00","8.5","","8.0","","97","","22","","6","","12.9","","98.93","","","","","","Mostly Cloudy"
"2003-11-12 02:00","2003","11","12","02:00","7.4","","7.3","","99","","","","0","","8.0","","98.91","","","","","","Fog"
"2003-11-12 03:00","2003","11","12","03:00","8.0","","7.8","","99","","23","","7","","8.0","","98.94","","","","","","Fog"
"2003-11-12 04:00","2003","11","12","04:00","8.5","","8.3","","99","","30","","6","","12.9","","98.93","","","","","","Mostly Cloudy"
"2003-11-12 05:00","2003","11","12","05:00","6.6","","6.6","","100","","35","","11","","8.0","","98.97","","","","","","Fog"
"2003-11-12 06:00","2003","11","12","06:00","7.2","","6.7","","97","","33","","13","","9.7","","98.97","","","","","","Fog"
"2003-11-12 07:00","2003","11","12","07:00","5.7","","5.1","","96","","36","","7","","11.3","","98.97","","","","","","Mainly Clear"
"2003-11-12 08:00","2003","11","12","08:00","7.1","","5.7","","91","","","","0","","11.3","","99.02","","","","","","Clear"
"2003-11-12 09:00","2003","11","12","09:00","9.3","","5.8","","79","","16","","4","","11.3","","99.04","","","","","","Clear"
"2003-11-12 10:00","2003","11","12","10:00","10.0","","6.2","","77","","19","","4","","12.9","","98.99","","","","","","Clear"
"2003-11-12 11:00","2003","11","12","11:00","11.1","","6.2","","72","","18","","9","","12.9","","98.90","","","","","","Clear"
"2003-11-12 12:00","2003","11","12","12:00","11.6","","6.4","","70","","15","","15","","12.9","","98.80","","","","","","Clear"
"2003-11-12 13:00","2003","11","12","13:00","10.6","","7.1","","79","","14","","13","","11.3","","98.70","","","","","","Mostly Cloudy"
"2003-11-12 14:00","2003","11","12","14:00","9.9","","7.0","","82","","14","","11","","6.4","","98.58","","","","","","Rain Showers,Haze"
"2003-11-12 15:00","2003","11","12","15:00","10.1","","6.9","","80","","14","","11","","6.4","","98.42","","","","","","Haze"
"2003-11-12 16:00","2003","11","12","16:00","9.9","","6.7","","80","","14","","15","","8.0","","98.31","","","","","","Haze"
"2003-11-12 17:00","2003","11","12","17:00","9.9","","6.4","","79","","11","","15","","6.4","","98.15","","","","","","Haze"
"2003-11-12 18:00","2003","11","12","18:00","10.1","","7.3","","83","","11","","17","","9.7","","97.98","","","","","","Rain Showers,Haze"
"2003-11-12 19:00","2003","11","12","19:00","9.2","","8.6","","96","","14","","19","","11.3","","97.71","","","","","","Mostly Cloudy"
"2003-11-12 20:00","2003","11","12","20:00","9.7","","9.3","","97","","11","","22","","8.0","","97.45","","","","","","Fog"
"2003-11-12 21:00","2003","11","12","21:00","9.6","","9.6","","100","","13","","6","","4.8","","97.21","","","","","","Thunderstorms,Fog"
"2003-11-12 22:00","2003","11","12","22:00","9.6","","9.6","","100","","21","","22","","12.9","","97.09","","","","","","Cloudy"
"2003-11-12 23:00","2003","11","12","23:00","6.9","","5.8","","93","","28","","41","","6.4","","97.14","","","","","","Rain Showers,Fog"
"2003-11-13 00:00","2003","11","13","00:00","6.4","","4.4","","87","","25","","24","","24.1","","97.12","","","","","","Mainly Clear"
"2003-11-13 01:00","2003","11","13","01:00","6.1","","2.7","","79","","25","","41","","24.1","","97.08","","","","","","Mainly Clear"
"2003-11-13 02:00","2003","11","13","02:00","6.5","","1.6","","71","","25","","48","","24.1","","97.03","","","","","","Mostly Cloudy"
"2003-11-13 03:00","2003","11","13","03:00","5.4","","2.4","","81","","25","","39","","24.1","","97.06","","","","","","Rain Showers"
"2003-11-13 04:00","2003","11","13","04:00","4.1","","0.6","","78","","26","","54","","24.1","","97.04","","","","","","Mostly Cloudy"
"2003-11-13 05:00","2003","11","13","05:00","3.4","","0.4","","81","","26","","52","","24.1","","97.11","","","","","","Mostly Cloudy"
"2003-11-13 06:00","2003","11","13","06:00","3.0","","-0.6","","77","","27","","61","","24.1","","97.15","","","","","","Rain Showers"
"2003-11-13 07:00","2003","11","13","07:00","2.8","","-1.1","","75","","27","","61","","24.1","","97.14","","","","","","Rain Showers"
"2003-11-13 08:00","2003","11","13","08:00","2.0","","-0.4","","84","","27","","52","","8.0","","97.20","","","","","","Rain"
"2003-11-13 09:00","2003","11","13","09:00","2.7","","-1.4","","74","","27","","67","","24.1","","97.22","","","","","","Mostly Cloudy"
"2003-11-13 10:00","2003","11","13","10:00","2.6","","-1.4","","75","","28","","67","","16.1","","97.31","","","","","","Cloudy"
"2003-11-13 11:00","2003","11","13","11:00","2.0","","0.3","","88","","29","","59","","6.4","","97.55","","","","","","Snow"
"2003-11-13 12:00","2003","11","13","12:00","2.0","","-2.0","","75","","30","","61","","14.5","","97.74","","","","","","Cloudy"
"2003-11-13 13:00","2003","11","13","13:00","2.0","","-3.5","","67","","31","","65","","19.3","","97.96","","","","","","Cloudy"
"2003-11-13 14:00","2003","11","13","14:00","1.8","","-4.1","","65","","31","","61","","24.1","","98.17","","","","","","Mostly Cloudy"
"2003-11-13 15:00","2003","11","13","15:00","0.9","","-4.9","","65","","30","","65","","24.1","","98.40","","","","","","Mostly Cloudy"
"2003-11-13 16:00","2003","11","13","16:00","0.4","","-5.9","","63","","31","","67","","24.1","","98.61","","","","","","Mostly Cloudy"
"2003-11-13 17:00","2003","11","13","17:00","0.4","","-7.4","","56","","31","","63","","24.1","","98.75","","","","","","Mostly Cloudy"
"2003-11-13 18:00","2003","11","13","18:00","0.0","","-4.9","","70","","31","","43","","19.3","","98.93","","","","-8","","Snow"
"2003-11-13 19:00","2003","11","13","19:00","0.3","","-6.6","","60","","30","","54","","24.1","","99.01","","","","","","Mostly Cloudy"
"2003-11-13 20:00","2003","11","13","20:00","-0.4","","-6.9","","61","","32","","52","","24.1","","99.13","","","","-9","","Mostly Cloudy"
"2003-11-13 21:00","2003","11","13","21:00","-0.7","","-6.7","","64","","32","","48","","24.1","","99.21","","","","-9","","Mostly Cloudy"
"2003-11-13 22:00","2003","11","13","22:00","-1.3","","-8.9","","56","","32","","56","","24.1","","99.28","","","","-10","","Mostly Cloudy"
"2003-11-13 23:00","2003","11","13","23:00","-1.9","","-8.7","","60","","31","","41","","24.1","","99.30","","","","-10","","Mostly Cloudy"
"2003-11-14 00:00","2003","11","14","00:00","-2.2","","-7.9","","65","","32","","46","","24.1","","99.32","","","","-11","","Mostly Cloudy"
"2003-11-14 01:00","2003","11","14","01:00","-2.1","","-8.6","","61","","32","","44","","24.1","","99.38","","","","-11","","Mainly Clear"
"2003-11-14 02:00","2003","11","14","02:00","-2.8","","-10.5","","55","","31","","44","","24.1","","99.40","","","","-11","","Clear"
"2003-11-14 03:00","2003","11","14","03:00","-2.1","","-10.7","","52","","33","","44","","24.1","","99.38","","","","-11","","Clear"
"2003-11-14 04:00","2003","11","14","04:00","-2.6","","-9.8","","58","","30","","33","","24.1","","99.43","","","","-10","","Clear"
"2003-11-14 05:00","2003","11","14","05:00","-3.2","","-9.3","","63","","27","","24","","24.1","","99.45","","","","-10","","Mostly Cloudy"
"2003-11-14 06:00","2003","11","14","06:00","-2.5","","-8.6","","63","","27","","24","","24.1","","99.45","","","","-9","","Snow"
"2003-11-14 07:00","2003","11","14","07:00","-2.1","","-7.0","","69","","27","","20","","24.1","","99.45","","","","-8","","Cloudy"
"2003-11-14 08:00","2003","11","14","08:00","-2.0","","-5.9","","75","","26","","17","","24.1","","99.40","","","","-7","","Mostly Cloudy"
"2003-11-14 09:00","2003","11","14","09:00","-0.1","","-4.6","","72","","27","","22","","24.1","","99.36","","","","-6","","Cloudy"
"2003-11-14 10:00","2003","11","14","10:00","1.1","","-3.1","","74","","27","","37","","24.1","","99.33","","","","","","Cloudy"
"2003-11-14 11:00","2003","11","14","11:00","1.6","","-2.9","","72","","27","","30","","19.3","","99.28","","","","","","Cloudy"
"2003-11-14 12:00","2003","11","14","12:00","2.6","","-3.1","","66","","27","","32","","19.3","","99.16","","","","","","Snow"
"2003-11-14 13:00","2003","11","14","13:00","2.3","","-0.8","","80","","27","","33","","16.1","","99.06","","","","","","Snow"
"2003-11-14 14:00","2003","11","14","14:00","3.0","","-1.1","","74","","28","","24","","24.1","","99.01","","","","","","Cloudy"
"2003-11-14 15:00","2003","11","14","15:00","3.9","","-1.2","","69","","29","","30","","24.1","","99.04","","","","","","Cloudy"
"2003-11-14 16:00","2003","11","14","16:00","4.0","","-1.3","","68","","29","","22","","24.1","","99.08","","","","","","Cloudy"
"2003-11-14 17:00","2003","11","14","17:00","4.2","","-1.2","","68","","27","","30","","24.1","","99.10","","","","","","Cloudy"
"2003-11-14 18:00","2003","11","14","18:00","4.1","","-0.4","","72","","28","","32","","24.1","","99.14","","","","","","Cloudy"
"2003-11-14 19:00","2003","11","14","19:00","4.0","","0.5","","78","","30","","35","","24.1","","99.21","","","","","","Mostly Cloudy"
"2003-11-14 20:00","2003","11","14","20:00","2.2","","0.1","","86","","1","","24","","24.1","","99.33","","","","","","Snow"
"2003-11-14 21:00","2003","11","14","21:00","1.4","","-0.5","","87","","35","","15","","24.1","","99.42","","","","","","Mostly Cloudy"
"2003-11-14 22:00","2003","11","14","22:00","1.4","","-0.8","","85","","35","","15","","24.1","","99.48","","","","","","Mostly Cloudy"
"2003-11-14 23:00","2003","11","14","23:00","1.0","","-0.4","","90","","35","","13","","16.1","","99.53","","","","","","Snow"
"2003-11-15 00:00","2003","11","15","00:00","0.5","","-1.0","","90","","1","","6","","24.1","","99.59","","","","","","Mostly Cloudy"
"2003-11-15 01:00","2003","11","15","01:00","-0.8","","-2.2","","90","","36","","11","","24.1","","99.62","","","","-5","","Mainly Clear"
"2003-11-15 02:00","2003","11","15","02:00","-0.6","","-2.2","","89","","4","","7","","24.1","","99.64","","","","-3","","Mainly Clear"
"2003-11-15 03:00","2003","11","15","03:00","-1.9","","-2.9","","93","","26","","6","","24.1","","99.71","","","","-4","","Mostly Cloudy"
"2003-11-15 04:00","2003","11","15","04:00","-0.8","","-1.6","","94","","4","","7","","24.1","","99.71","","","","-3","","Cloudy"
"2003-11-15 05:00","2003","11","15","05:00","-0.2","","-2.0","","88","","5","","9","","24.1","","99.73","","","","-3","","Mostly Cloudy"
"2003-11-15 06:00","2003","11","15","06:00","-0.7","","-3.4","","82","","27","","6","","24.1","","99.78","","","","-3","","Mostly Cloudy"
"2003-11-15 07:00","2003","11","15","07:00","-0.7","","-2.4","","88","","","","0","","24.1","","99.81","","","","","","Mostly Cloudy"
"2003-11-15 08:00","2003","11","15","08:00","-0.2","","-1.6","","90","","24","","4","","24.1","","99.85","","","","-1","","Mostly Cloudy"
"2003-11-15 09:00","2003","11","15","09:00","1.2","","-1.1","","85","","15","","4","","19.3","","99.89","","","","","","Cloudy"
"2003-11-15 10:00","2003","11","15","10:00","2.4","","0.2","","85","","15","","4","","19.3","","99.90","","","","","","Cloudy"
"2003-11-15 11:00","2003","11","15","11:00","3.4","","0.6","","82","","15","","6","","19.3","","99.87","","","","","","Cloudy"
"2003-11-15 12:00","2003","11","15","12:00","4.7","","1.1","","77","","16","","6","","24.1","","99.81","","","","","","Cloudy"
"2003-11-15 13:00","2003","11","15","13:00","5.4","","0.9","","73","","19","","6","","24.1","","99.76","","","","","","Mostly Cloudy"
"2003-11-15 14:00","2003","11","15","14:00","5.5","","1.7","","76","","13","","9","","19.3","","99.75","","","","","","Mainly Clear"
"2003-11-15 15:00","2003","11","15","15:00","4.6","","1.5","","80","","12","","11","","16.1","","99.76","","","","","","Mostly Cloudy"
"2003-11-15 16:00","2003","11","15","16:00","4.0","","1.3","","83","","11","","11","","16.1","","99.76","","","","","","Mostly Cloudy"
"2003-11-15 17:00","2003","11","15","17:00","3.3","","0.8","","84","","14","","7","","16.1","","99.76","","","","","","Mostly Cloudy"
"2003-11-15 18:00","2003","11","15","18:00","3.0","","0.8","","85","","11","","6","","24.1","","99.81","","","","","","Mostly Cloudy"
"2003-11-15 19:00","2003","11","15","19:00","3.3","","1.1","","85","","14","","6","","24.1","","99.84","","","","","","Cloudy"
"2003-11-15 20:00","2003","11","15","20:00","3.6","","1.2","","84","","11","","6","","24.1","","99.84","","","","","","Cloudy"
"2003-11-15 21:00","2003","11","15","21:00","3.7","","1.2","","84","","10","","6","","24.1","","99.85","","","","","","Cloudy"
"2003-11-15 22:00","2003","11","15","22:00","3.5","","1.0","","84","","13","","4","","24.1","","99.85","","","","","","Mostly Cloudy"
"2003-11-15 23:00","2003","11","15","23:00","3.7","","1.3","","84","","12","","7","","24.1","","99.85","","","","","","Cloudy"
"2003-11-16 00:00","2003","11","16","00:00","4.0","","1.6","","84","","10","","6","","24.1","","99.89","","","","","","Cloudy"
"2003-11-16 01:00","2003","11","16","01:00","4.1","","1.8","","85","","7","","6","","24.1","","99.90","","","","","","Rain Showers"
"2003-11-16 02:00","2003","11","16","02:00","3.6","","2.1","","90","","9","","7","","16.1","","99.91","","","","","","Rain"
"2003-11-16 03:00","2003","11","16","03:00","3.4","","2.6","","94","","9","","7","","9.7","","99.94","","","","","","Rain,Fog"
"2003-11-16 04:00","2003","11","16","04:00","3.6","","3.1","","97","","7","","7","","6.4","","99.92","","","","","","Rain,Fog"
"2003-11-16 05:00","2003","11","16","05:00","4.0","","3.6","","97","","7","","6","","4.8","","99.94","","","","","","Drizzle,Fog"
"2003-11-16 06:00","2003","11","16","06:00","4.0","","3.7","","98","","7","","7","","3.6","","99.96","","","","","","Rain,Fog"
"2003-11-16 07:00","2003","11","16","07:00","4.1","","3.8","","98","","8","","9","","3.6","","99.97","","","","","","Rain,Fog"
"2003-11-16 08:00","2003","11","16","08:00","4.1","","3.9","","99","","9","","11","","3.6","","100.01","","","","","","Fog"
"2003-11-16 09:00","2003","11","16","09:00","4.3","","4.2","","99","","7","","7","","2.0","","100.05","","","","","","Fog"
"2003-11-16 10:00","2003","11","16","10:00","4.7","","4.7","","100","","7","","7","","1.0","","100.04","","","","","","Fog"
"2003-11-16 11:00","2003","11","16","11:00","5.2","","5.2","","100","","8","","9","","1.0","","100.03","","","","","","Fog"
"2003-11-16 12:00","2003","11","16","12:00","5.7","","5.6","","99","","11","","9","","1.2","","99.99","","","","","","Fog"
"2003-11-16 13:00","2003","11","16","13:00","5.7","","5.6","","99","","10","","13","","1.6","","99.97","","","","","","Fog"
"2003-11-16 14:00","2003","11","16","14:00","5.7","","5.6","","99","","11","","11","","1.6","","99.95","","","","","","Fog"
"2003-11-16 15:00","2003","11","16","15:00","5.6","","5.2","","97","","11","","9","","3.6","","99.95","","","","","","Fog"
"2003-11-16 16:00","2003","11","16","16:00","5.2","","4.6","","96","","9","","15","","3.6","","99.95","","","","","","Drizzle,Fog"
"2003-11-16 17:00","2003","11","16","17:00","5.3","","4.5","","95","","9","","15","","6.4","","99.96","","","","","","Fog"
"2003-11-16 18:00","2003","11","16","18:00","5.3","","4.4","","94","","9","","11","","8.0","","99.99","","","","","","Fog"
"2003-11-16 19:00","2003","11","16","19:00","5.2","","4.5","","95","","9","","11","","11.3","","100.04","","","","","","Drizzle"
"2003-11-16 20:00","2003","11","16","20:00","5.2","","4.6","","96","","8","","13","","9.7","","100.00","","","","","","Drizzle"
"2003-11-16 21:00","2003","11","16","21:00","5.2","","4.6","","96","","9","","15","","9.7","","99.95","","","","","","Rain,Fog"
"2003-11-16 22:00","2003","11","16","22:00","5.3","","4.6","","95","","9","","17","","9.7","","99.93","","","","","","Fog"
"2003-11-16 23:00","2003","11","16","23:00","4.9","","3.9","","93","","8","","17","","14.5","","99.90","","","","","","Cloudy"
"2003-11-17 00:00","2003","11","17","00:00","4.1","","3.3","","95","","8","","13","","9.7","","99.93","","","","","","Rain,Fog"
"2003-11-17 01:00","2003","11","17","01:00","3.7","","3.2","","97","","6","","11","","6.4","","99.92","","","","","","Rain,Fog"
"2003-11-17 02:00","2003","11","17","02:00","3.6","","2.9","","95","","7","","13","","11.3","","99.93","","","","","","Rain"
"2003-11-17 03:00","2003","11","17","03:00","3.3","","2.9","","97","","4","","15","","4.8","","100.00","","","","","","Rain,Fog"
"2003-11-17 04:00","2003","11","17","04:00","3.0","","2.5","","97","","7","","13","","8.0","","100.01","","","","","","Rain,Fog"
"2003-11-17 05:00","2003","11","17","05:00","3.0","","2.4","","96","","5","","7","","9.7","","100.07","","","","","","Fog"
"2003-11-17 06:00","2003","11","17","06:00","3.2","","2.7","","97","","4","","6","","8.0","","100.12","","","","","","Fog"
"2003-11-17 07:00","2003","11","17","07:00","3.5","","2.6","","94","","5","","6","","8.0","","100.16","","","","","","Fog"
"2003-11-17 08:00","2003","11","17","08:00","3.6","","2.8","","94","","1","","4","","6.4","","100.22","","","","","","Fog"
"2003-11-17 09:00","2003","11","17","09:00","4.1","","2.9","","92","","29","","4","","6.4","","100.31","","","","","","Fog"
"2003-11-17 10:00","2003","11","17","10:00","4.7","","3.3","","91","","","","0","","6.4","","100.36","","","","","","Fog"
"2003-11-17 11:00","2003","11","17","11:00","5.1","","3.4","","89","","","","0","","4.8","","100.39","","","","","","Fog"
"2003-11-17 12:00","2003","11","17","12:00","5.1","","4.2","","94","","23","","4","","3.2","","100.39","","","","","","Fog"
"2003-11-17 13:00","2003","11","17","13:00","5.1","","4.3","","95","","","","0","","3.2","","100.32","","","","","","Fog"
"2003-11-17 14:00","2003","11","17","14:00","5.3","","4.0","","91","","15","","7","","4.0","","100.35","","","","","","Fog"
"2003-11-17 15:00","2003","11","17","15:00","4.9","","3.6","","91","","18","","7","","6.4","","100.42","","","","","","Fog"
"2003-11-17 16:00","2003","11","17","16:00","4.9","","3.7","","92","","16","","6","","4.8","","100.41","","","","","","Fog"
"2003-11-17 17:00","2003","11","17","17:00","4.5","","3.5","","93","","15","","7","","4.8","","100.40","","","","","","Fog"
"2003-11-17 18:00","2003","11","17","18:00","4.3","","3.3","","93","","13","","9","","8.0","","100.40","","","","","","Fog"
"2003-11-17 19:00","2003","11","17","19:00","4.4","","3.2","","92","","11","","6","","8.0","","100.40","","","","","","Fog"
"2003-11-17 20:00","2003","11","17","20:00","4.4","","3.4","","93","","12","","13","","8.0","","100.40","","","","","","Fog"
"2003-11-17 21:00","2003","11","17","21:00","4.4","","3.5","","94","","12","","7","","12.9","","100.43","","","","","","Cloudy"
"2003-11-17 22:00","2003","11","17","22:00","4.4","","3.8","","96","","11","","15","","6.4","","100.39","","","","","","Fog"
"2003-11-17 23:00","2003","11","17","23:00","4.7","","4.3","","97","","11","","15","","4.8","","100.30","","","","","","Fog"
"2003-11-18 00:00","2003","11","18","00:00","5.0","","4.7","","98","","11","","11","","3.6","","100.28","","","","","","Fog"
"2003-11-18 01:00","2003","11","18","01:00","5.1","","4.9","","99","","11","","6","","4.0","","100.26","","","","","","Fog"
"2003-11-18 02:00","2003","11","18","02:00","5.1","","4.8","","98","","9","","13","","4.8","","100.23","","","","","","Fog"
"2003-11-18 03:00","2003","11","18","03:00","4.9","","4.9","","100","","9","","15","","2.8","","100.15","","","","","","Fog"
"2003-11-18 04:00","2003","11","18","04:00","4.6","","4.6","","100","","10","","17","","1.0","","100.06","","","","","","Fog"
"2003-11-18 05:00","2003","11","18","05:00","4.8","","4.8","","100","","10","","9","","3.2","","100.04","","","","","","Fog"
"2003-11-18 06:00","2003","11","18","06:00","4.7","","4.7","","100","","11","","19","","0.8","","99.96","","","","","","Fog"
"2003-11-18 07:00","2003","11","18","07:00","5.0","","5.0","","100","","10","","19","","4.8","","99.90","","","","","","Fog"
"2003-11-18 08:00","2003","11","18","08:00","5.5","","5.1","","97","","9","","19","","4.0","","99.82","","","","","","Fog"
"2003-11-18 09:00","2003","11","18","09:00","6.1","","5.3","","95","","11","","17","","6.4","","99.79","","","","","","Fog"
"2003-11-18 10:00","2003","11","18","10:00","7.6","","5.6","","87","","13","","15","","9.7","","99.73","","","","","","Fog"
"2003-11-18 11:00","2003","11","18","11:00","7.8","","5.0","","82","","11","","19","","9.7","","99.60","","","","","","Haze"
"2003-11-18 12:00","2003","11","18","12:00","7.9","","5.9","","87","","11","","19","","9.7","","99.46","","","","","","Fog"
"2003-11-18 13:00","2003","11","18","13:00","8.3","","5.9","","85","","9","","17","","8.0","","99.35","","","","","","Haze"
"2003-11-18 14:00","2003","11","18","14:00","8.9","","6.1","","83","","9","","11","","8.0","","99.23","","","","","","Haze"
"2003-11-18 15:00","2003","11","18","15:00","10.0","","7.2","","83","","11","","9","","8.0","","99.14","","","","","","Haze"
"2003-11-18 16:00","2003","11","18","16:00","10.9","","7.7","","81","","11","","17","","8.0","","98.99","","","","","","Haze"
"2003-11-18 17:00","2003","11","18","17:00","11.4","","8.0","","80","","13","","22","","8.0","","98.84","","","","","","Haze"
"2003-11-18 18:00","2003","11","18","18:00","11.7","","8.1","","79","","13","","20","","12.9","","98.80","","","","","","Cloudy"
"2003-11-18 19:00","2003","11","18","19:00","11.1","","7.8","","80","","14","","22","","19.3","","98.73","","","","","","Cloudy"
"2003-11-18 20:00","2003","11","18","20:00","10.0","","8.0","","87","","12","","15","","14.5","","98.60","","","","","","Rain"
"2003-11-18 21:00","2003","11","18","21:00","10.0","","7.9","","87","","13","","15","","11.3","","98.53","","","","","","Rain"
"2003-11-18 22:00","2003","11","18","22:00","10.1","","9.4","","95","","15","","20","","4.0","","98.46","","","","","","Heavy Rain"
"2003-11-18 23:00","2003","11","18","23:00","10.0","","9.9","","99","","15","","17","","3.2","","98.33","","","","","","Rain,Fog"
"2003-11-19 00:00","2003","11","19","00:00","10.2","","9.9","","98","","15","","17","","4.8","","98.21","","","","","","Rain,Fog"
"2003-11-19 01:00","2003","11","19","01:00","10.4","","9.9","","97","","17","","17","","6.4","","98.15","","","","","","Fog"
"2003-11-19 02:00","2003","11","19","02:00","11.5","","10.5","","94","","16","","15","","12.9","","98.15","","","","","","Cloudy"
"2003-11-19 03:00","2003","11","19","03:00","13.5","","11.7","","89","","18","","20","","19.3","","98.07","","","","","","Cloudy"
"2003-11-19 04:00","2003","11","19","04:00","13.8","","12.0","","89","","19","","22","","19.3","","98.02","","","","","","Cloudy"
"2003-11-19 05:00","2003","11","19","05:00","14.5","","12.0","","85","","19","","24","","14.5","","97.98","","","","","","Cloudy"
"2003-11-19 06:00","2003","11","19","06:00","13.9","","12.8","","93","","19","","22","","4.8","","97.95","","","","","","Rain,Fog"
"2003-11-19 07:00","2003","11","19","07:00","13.5","","13.0","","97","","19","","19","","4.0","","97.88","","","","","","Rain,Fog"
"2003-11-19 08:00","2003","11","19","08:00","13.7","","13.4","","98","","20","","17","","3.6","","97.89","","","","","","Rain,Fog"
"2003-11-19 09:00","2003","11","19","09:00","14.1","","13.8","","98","","20","","9","","6.4","","97.83","","","","","","Rain,Fog"
"2003-11-19 10:00","2003","11","19","10:00","12.2","","11.9","","98","","32","","22","","4.0","","97.84","","","","","","Rain,Fog"
"2003-11-19 11:00","2003","11","19","11:00","10.0","","9.6","","97","","34","","24","","4.8","","97.77","","","","","","Rain,Fog"
"2003-11-19 12:00","2003","11","19","12:00","9.7","","9.2","","97","","32","","22","","12.9","","97.76","","","","","","Rain"
"2003-11-19 13:00","2003","11","19","13:00","9.6","","8.9","","95","","34","","26","","16.1","","97.60","","","","","","Rain"
"2003-11-19 14:00","2003","11","19","14:00","9.7","","9.0","","95","","33","","13","","12.9","","97.64","","","","","","Rain"
"2003-11-19 15:00","2003","11","19","15:00","9.7","","9.0","","95","","32","","19","","19.3","","97.57","","","","","","Cloudy"
"2003-11-19 16:00","2003","11","19","16:00","9.8","","8.3","","90","","30","","11","","16.1","","97.54","","","","","","Mostly Cloudy"
"2003-11-19 17:00","2003","11","19","17:00","9.5","","8.1","","91","","26","","19","","19.3","","97.84","","","","","","Mostly Cloudy"
"2003-11-19 18:00","2003","11","19","18:00","9.3","","6.3","","81","","29","","20","","24.1","","97.99","","","","","","Mostly Cloudy"
"2003-11-19 19:00","2003","11","19","19:00","7.8","","5.0","","82","","29","","15","","24.1","","98.06","","","","","","Mainly Clear"
"2003-11-19 20:00","2003","11","19","20:00","7.0","","5.0","","87","","28","","19","","24.1","","98.12","","","","","","Mainly Clear"
"2003-11-19 21:00","2003","11","19","21:00","7.2","","5.0","","86","","29","","28","","24.1","","98.19","","","","","","Mostly Cloudy"
"2003-11-19 22:00","2003","11","19","22:00","6.7","","3.3","","79","","30","","33","","24.1","","98.25","","","","","","Mainly Clear"
"2003-11-19 23:00","2003","11","19","23:00","5.8","","2.3","","78","","31","","32","","24.1","","98.35","","","","","","Clear"
"2003-11-20 00:00","2003","11","20","00:00","5.1","","1.9","","80","","31","","26","","24.1","","98.45","","","","","","Clear"
"2003-11-20 01:00","2003","11","20","01:00","4.2","","1.6","","83","","31","","19","","24.1","","98.57","","","","","","Mainly Clear"
"2003-11-20 02:00","2003","11","20","02:00","3.4","","1.2","","85","","31","","7","","24.1","","98.63","","","","","","Mainly Clear"
"2003-11-20 03:00","2003","11","20","03:00","3.4","","0.9","","84","","29","","11","","24.1","","98.70","","","","","","Mostly Cloudy"
"2003-11-20 04:00","2003","11","20","04:00","4.3","","1.0","","79","","30","","19","","24.1","","98.76","","","","","","Clear"
"2003-11-20 05:00","2003","11","20","05:00","2.2","","0.4","","88","","28","","13","","24.1","","98.88","","","","","","Mostly Cloudy"
"2003-11-20 06:00","2003","11","20","06:00","3.9","","1.8","","86","","27","","19","","24.1","","98.98","","","","","","Mostly Cloudy"
"2003-11-20 07:00","2003","11","20","07:00","2.5","","0.6","","87","","24","","11","","24.1","","99.06","","","","","","Mainly Clear"
"2003-11-20 08:00","2003","11","20","08:00","3.5","","1.6","","87","","26","","17","","19.3","","99.15","","","","","","Mainly Clear"
"2003-11-20 09:00","2003","11","20","09:00","5.0","","1.9","","80","","27","","19","","24.1","","99.17","","","","","","Mostly Cloudy"
"2003-11-20 10:00","2003","11","20","10:00","5.8","","2.0","","77","","28","","19","","24.1","","99.28","","","","","","Mostly Cloudy"
"2003-11-20 11:00","2003","11","20","11:00","5.9","","1.5","","73","","29","","13","","24.1","","99.32","","","","","","Mostly Cloudy"
"2003-11-20 12:00","2003","11","20","12:00","7.5","","1.6","","66","","27","","11","","24.1","","99.31","","","","","","Mainly Clear"
"2003-11-20 13:00","2003","11","20","13:00","8.4","","1.2","","60","","25","","7","","24.1","","99.23","","","","","","Mainly Clear"
"2003-11-20 14:00","2003","11","20","14:00","9.7","","1.3","","56","","23","","11","","24.1","","99.18","","","","","","Clear"
"2003-11-20 15:00","2003","11","20","15:00","10.0","","2.1","","58","","21","","11","","24.1","","99.16","","","","","","Clear"
"2003-11-20 16:00","2003","11","20","16:00","9.6","","2.8","","63","","19","","15","","24.1","","99.19","","","","","","Clear"
"2003-11-20 17:00","2003","11","20","17:00","8.6","","2.3","","65","","20","","11","","24.1","","99.15","","","","","","Clear"
"2003-11-20 18:00","2003","11","20","18:00","7.6","","2.9","","72","","18","","11","","24.1","","99.16","","","","","","Clear"
"2003-11-20 19:00","2003","11","20","19:00","7.5","","2.4","","70","","18","","11","","24.1","","99.10","","","","","","Clear"
"2003-11-20 20:00","2003","11","20","20:00","6.6","","3.4","","80","","18","","9","","24.1","","99.07","","","","","","Clear"
"2003-11-20 21:00","2003","11","20","21:00","6.3","","3.2","","81","","20","","7","","24.1","","99.04","","","","","","Clear"
"2003-11-20 22:00","2003","11","20","22:00","6.8","","2.8","","76","","20","","13","","24.1","","98.96","","","","","","Clear"
"2003-11-20 23:00","2003","11","20","23:00","7.3","","3.4","","76","","18","","13","","24.1","","98.90","","","","","","Clear"
"2003-11-21 00:00","2003","11","21","00:00","7.0","","3.5","","78","","18","","9","","24.1","","98.89","","","","","","Clear"
"2003-11-21 01:00","2003","11","21","01:00","9.1","","4.3","","72","","24","","24","","24.1","","98.83","","","","","","Clear"
"2003-11-21 02:00","2003","11","21","02:00","9.5","","5.0","","73","","25","","39","","24.1","","98.82","","","","","","Clear"
"2003-11-21 03:00","2003","11","21","03:00","8.5","","5.0","","79","","24","","17","","24.1","","98.88","","","","","","Clear"
"2003-11-21 04:00","2003","11","21","04:00","8.5","","5.2","","80","","21","","15","","24.1","","98.92","","","","","","Clear"
"2003-11-21 05:00","2003","11","21","05:00","8.1","","5.3","","82","","21","","13","","24.1","","98.96","","","","","","Clear"
"2003-11-21 06:00","2003","11","21","06:00","7.3","","5.2","","87","","21","","11","","24.1","","99.02","","","","","","Clear"
"2003-11-21 07:00","2003","11","21","07:00","6.6","","5.0","","90","","25","","9","","24.1","","99.13","","","","","","Clear"
"2003-11-21 08:00","2003","11","21","08:00","6.0","","4.8","","92","","26","","9","","19.3","","99.20","","","","","","Clear"
"2003-11-21 09:00","2003","11","21","09:00","8.6","","6.2","","85","","29","","15","","19.3","","99.28","","","","","","Clear"
"2003-11-21 10:00","2003","11","21","10:00","10.7","","6.3","","74","","33","","17","","19.3","","99.33","","","","","","Mainly Clear"
"2003-11-21 11:00","2003","11","21","11:00","12.2","","4.1","","58","","34","","17","","24.1","","99.39","","","","","","Mainly Clear"
"2003-11-21 12:00","2003","11","21","12:00","12.8","","2.7","","50","","35","","24","","24.1","","99.41","","","","","","Mainly Clear"
"2003-11-21 13:00","2003","11","21","13:00","13.1","","1.9","","46","","36","","19","","24.1","","99.44","","","","","","Clear"
"2003-11-21 14:00","2003","11","21","14:00","12.8","","1.3","","45","","34","","19","","24.1","","99.48","","","","","","Clear"
"2003-11-21 15:00","2003","11","21","15:00","11.4","","3.2","","57","","2","","17","","24.1","","99.52","","","","","","Clear"
"2003-11-21 16:00","2003","11","21","16:00","9.1","","3.0","","66","","3","","15","","24.1","","99.57","","","","","","Mainly Clear"
"2003-11-21 17:00","2003","11","21","17:00","7.9","","2.3","","68","","35","","15","","24.1","","99.64","","","","","","Mainly Clear"
"2003-11-21 18:00","2003","11","21","18:00","6.5","","1.8","","72","","1","","20","","24.1","","99.76","","","","","","Mainly Clear"
"2003-11-21 19:00","2003","11","21","19:00","5.5","","1.4","","75","","36","","20","","24.1","","99.80","","","","","","Mainly Clear"
"2003-11-21 20:00","2003","11","21","20:00","5.1","","1.3","","76","","36","","26","","24.1","","99.82","","","","","","Mostly Cloudy"
"2003-11-21 21:00","2003","11","21","21:00","4.7","","1.2","","78","","36","","24","","24.1","","99.82","","","","","","Mostly Cloudy"
"2003-11-21 22:00","2003","11","21","22:00","4.2","","1.0","","80","","35","","19","","24.1","","99.88","","","","","","Mostly Cloudy"
"2003-11-21 23:00","2003","11","21","23:00","3.6","","0.8","","82","","35","","11","","24.1","","99.90","","","","","","Mostly Cloudy"
"2003-11-22 00:00","2003","11","22","00:00","2.4","","0.4","","87","","36","","15","","24.1","","99.96","","","","","","Clear"
"2003-11-22 01:00","2003","11","22","01:00","2.5","","0.3","","85","","2","","15","","24.1","","99.97","","","","","","Mostly Cloudy"
"2003-11-22 02:00","2003","11","22","02:00","2.6","","0.5","","86","","3","","9","","24.1","","100.01","","","","","","Mostly Cloudy"
"2003-11-22 03:00","2003","11","22","03:00","2.4","","-0.4","","82","","36","","11","","24.1","","99.99","","","","","","Mostly Cloudy"
"2003-11-22 04:00","2003","11","22","04:00","2.3","","0.0","","85","","1","","9","","24.1","","99.95","","","","","","Cloudy"
"2003-11-22 05:00","2003","11","22","05:00","2.3","","-0.3","","83","","1","","7","","24.1","","99.90","","","","","","Mostly Cloudy"
"2003-11-22 06:00","2003","11","22","06:00","2.6","","-0.3","","81","","3","","9","","24.1","","99.92","","","","","","Mostly Cloudy"
"2003-11-22 07:00","2003","11","22","07:00","3.5","","0.1","","78","","4","","7","","24.1","","99.90","","","","","","Cloudy"
"2003-11-22 08:00","2003","11","22","08:00","4.8","","2.0","","82","","6","","9","","24.1","","99.91","","","","","","Cloudy"
"2003-11-22 09:00","2003","11","22","09:00","5.5","","3.5","","87","","9","","15","","16.1","","99.86","","","","","","Cloudy"
"2003-11-22 10:00","2003","11","22","10:00","5.7","","3.8","","88","","8","","13","","12.9","","99.88","","","","","","Mostly Cloudy"
"2003-11-22 11:00","2003","11","22","11:00","6.5","","4.2","","85","","8","","15","","12.9","","99.86","","","","","","Mostly Cloudy"
"2003-11-22 12:00","2003","11","22","12:00","7.0","","4.2","","82","","7","","19","","14.5","","99.78","","","","","","Mostly Cloudy"
"2003-11-22 13:00","2003","11","22","13:00","6.5","","4.1","","85","","8","","22","","16.1","","99.70","","","","","","Cloudy"
"2003-11-22 14:00","2003","11","22","14:00","6.5","","4.2","","85","","9","","19","","14.5","","99.68","","","","","","Cloudy"
"2003-11-22 15:00","2003","11","22","15:00","6.9","","4.2","","83","","10","","24","","14.5","","99.65","","","","","","Mostly Cloudy"
"2003-11-22 16:00","2003","11","22","16:00","6.7","","4.1","","83","","9","","24","","12.9","","99.69","","","","","","Mostly Cloudy"
"2003-11-22 17:00","2003","11","22","17:00","6.6","","4.9","","89","","11","","15","","11.3","","99.70","","","","","","Cloudy"
"2003-11-22 18:00","2003","11","22","18:00","6.7","","5.3","","91","","11","","15","","11.3","","99.73","","","","","","Cloudy"
"2003-11-22 19:00","2003","11","22","19:00","7.3","","5.3","","87","","11","","17","","24.1","","99.78","","","","","","Cloudy"
"2003-11-22 20:00","2003","11","22","20:00","7.8","","3.5","","74","","11","","19","","24.1","","99.80","","","","","","Cloudy"
"2003-11-22 21:00","2003","11","22","21:00","7.6","","3.3","","74","","11","","15","","24.1","","99.79","","","","","","Cloudy"
"2003-11-22 22:00","2003","11","22","22:00","6.9","","2.2","","72","","10","","19","","24.1","","99.83","","","","","","Cloudy"
"2003-11-22 23:00","2003","11","22","23:00","6.2","","1.4","","71","","9","","15","","24.1","","99.84","","","","","","Mostly Cloudy"
"2003-11-23 00:00","2003","11","23","00:00","6.1","","1.4","","72","","10","","13","","24.1","","99.82","","","","","","Mostly Cloudy"
"2003-11-23 01:00","2003","11","23","01:00","6.1","","1.6","","73","","9","","11","","24.1","","99.82","","","","","","Cloudy"
"2003-11-23 02:00","2003","11","23","02:00","5.9","","1.9","","75","","10","","9","","24.1","","99.81","","","","","","Cloudy"
"2003-11-23 03:00","2003","11","23","03:00","6.1","","2.4","","77","","10","","9","","24.1","","99.80","","","","","","Cloudy"
"2003-11-23 04:00","2003","11","23","04:00","6.1","","2.9","","80","","9","","9","","24.1","","99.72","","","","","","Cloudy"
"2003-11-23 05:00","2003","11","23","05:00","5.8","","2.7","","80","","8","","9","","24.1","","99.70","","","","","","Mostly Cloudy"
"2003-11-23 06:00","2003","11","23","06:00","5.7","","2.9","","82","","10","","11","","24.1","","99.63","","","","","","Mostly Cloudy"
"2003-11-23 07:00","2003","11","23","07:00","5.7","","3.2","","84","","10","","7","","19.3","","99.65","","","","","","Mostly Cloudy"
"2003-11-23 08:00","2003","11","23","08:00","5.8","","3.6","","86","","10","","7","","16.1","","99.64","","","","","","Mostly Cloudy"
"2003-11-23 09:00","2003","11","23","09:00","6.6","","4.4","","86","","12","","6","","16.1","","99.60","","","","","","Mostly Cloudy"
"2003-11-23 10:00","2003","11","23","10:00","8.6","","5.6","","81","","","","0","","16.1","","99.58","","","","","","Mostly Cloudy"
"2003-11-23 11:00","2003","11","23","11:00","9.8","","6.3","","79","","11","","7","","16.1","","99.50","","","","","","Mostly Cloudy"
"2003-11-23 12:00","2003","11","23","12:00","10.8","","6.9","","77","","12","","9","","19.3","","99.36","","","","","","Mostly Cloudy"
"2003-11-23 13:00","2003","11","23","13:00","12.8","","7.9","","72","","13","","13","","19.3","","99.29","","","","","","Mostly Cloudy"
"2003-11-23 14:00","2003","11","23","14:00","12.1","","7.5","","73","","14","","9","","19.3","","99.23","","","","","","Mostly Cloudy"
"2003-11-23 15:00","2003","11","23","15:00","13.4","","8.0","","70","","13","","11","","19.3","","99.14","","","","","","Cloudy"
"2003-11-23 16:00","2003","11","23","16:00","12.2","","7.6","","73","","14","","9","","19.3","","99.13","","","","","","Cloudy"
"2003-11-23 17:00","2003","11","23","17:00","11.1","","7.2","","77","","15","","7","","16.1","","99.11","","","","","","Cloudy"
"2003-11-23 18:00","2003","11","23","18:00","10.4","","7.1","","80","","19","","4","","24.1","","99.08","","","","","","Cloudy"
"2003-11-23 19:00","2003","11","23","19:00","10.4","","7.2","","81","","12","","6","","24.1","","99.01","","","","","","Cloudy"
"2003-11-23 20:00","2003","11","23","20:00","10.5","","7.3","","81","","12","","6","","24.1","","98.92","","","","","","Mostly Cloudy"
"2003-11-23 21:00","2003","11","23","21:00","10.8","","7.2","","78","","14","","6","","24.1","","98.82","","","","","","Cloudy"
"2003-11-23 22:00","2003","11","23","22:00","10.4","","6.6","","77","","14","","9","","24.1","","98.79","","","","","","Cloudy"
"2003-11-23 23:00","2003","11","23","23:00","10.1","","6.6","","79","","15","","7","","24.1","","98.78","","","","","","Cloudy"
"2003-11-24 00:00","2003","11","24","00:00","9.7","","6.6","","81","","13","","6","","24.1","","98.75","","","","","","Cloudy"
"2003-11-24 01:00","2003","11","24","01:00","10.9","","6.4","","74","","15","","9","","24.1","","98.67","","","","","","Cloudy"
"2003-11-24 02:00","2003","11","24","02:00","10.5","","6.2","","75","","15","","13","","24.1","","98.63","","","","","","Cloudy"
"2003-11-24 03:00","2003","11","24","03:00","11.0","","6.1","","72","","16","","19","","24.1","","98.58","","","","","","Mostly Cloudy"
"2003-11-24 04:00","2003","11","24","04:00","10.7","","5.9","","72","","15","","15","","24.1","","98.48","","","","","","Mostly Cloudy"
"2003-11-24 05:00","2003","11","24","05:00","11.3","","5.9","","69","","16","","20","","24.1","","98.39","","","","","","Mostly Cloudy"
"2003-11-24 06:00","2003","11","24","06:00","11.5","","5.8","","68","","15","","17","","24.1","","98.34","","","","","","Mostly Cloudy"
"2003-11-24 07:00","2003","11","24","07:00","11.0","","5.7","","70","","14","","15","","24.1","","98.23","","","","","","Mostly Cloudy"
"2003-11-24 08:00","2003","11","24","08:00","11.8","","6.1","","68","","13","","11","","19.3","","98.18","","","","","","Cloudy"
"2003-11-24 09:00","2003","11","24","09:00","13.0","","6.3","","64","","16","","20","","19.3","","98.07","","","","","","Cloudy"
"2003-11-24 10:00","2003","11","24","10:00","12.8","","6.5","","65","","16","","20","","19.3","","98.03","","","","","","Cloudy"
"2003-11-24 11:00","2003","11","24","11:00","13.4","","7.0","","65","","18","","19","","24.1","","97.98","","","","","","Cloudy"
"2003-11-24 12:00","2003","11","24","12:00","12.5","","9.0","","79","","18","","20","","11.3","","97.87","","","","","","Rain"
"2003-11-24 13:00","2003","11","24","13:00","6.9","","5.0","","88","","27","","54","","9.7","","98.04","","","","","","Rain,Fog"
"2003-11-24 14:00","2003","11","24","14:00","5.3","","3.0","","85","","25","","32","","19.3","","98.12","","","","","","Rain"
"2003-11-24 15:00","2003","11","24","15:00","3.0","","1.4","","89","","24","","35","","8.0","","98.25","","","","","","Rain,Fog"
"2003-11-24 16:00","2003","11","24","16:00","2.7","","1.4","","91","","24","","32","","8.0","","98.38","","","","","","Rain,Fog"
"2003-11-24 17:00","2003","11","24","17:00","1.6","","-1.8","","78","","25","","44","","19.3","","98.55","","","","","","Snow Showers"
"2003-11-24 18:00","2003","11","24","18:00","0.7","","-4.0","","71","","24","","41","","24.1","","98.73","","","","","","Mostly Cloudy"
"2003-11-24 19:00","2003","11","24","19:00","-0.1","","-5.0","","70","","25","","39","","24.1","","98.78","","","","-7","","Snow"
"2003-11-24 20:00","2003","11","24","20:00","-1.0","","-9.1","","54","","24","","56","","24.1","","98.89","","","","-10","","Mostly Cloudy"
"2003-11-24 21:00","2003","11","24","21:00","-1.5","","-7.8","","62","","24","","41","","24.1","","98.91","","","","-9","","Mainly Clear"
"2003-11-24 22:00","2003","11","24","22:00","-2.0","","-7.7","","65","","23","","41","","24.1","","98.91","","","","-10","","Mainly Clear"
"2003-11-24 23:00","2003","11","24","23:00","-2.0","","-7.6","","65","","24","","37","","24.1","","98.96","","","","-10","","Mostly Cloudy"
"2003-11-25 00:00","2003","11","25","00:00","-2.0","","-7.0","","69","","24","","32","","24.1","","99.01","","","","-9","","Mainly Clear"
"2003-11-25 01:00","2003","11","25","01:00","-1.0","","-6.0","","69","","25","","33","","24.1","","99.05","","","","-8","","Snow"
"2003-11-25 02:00","2003","11","25","02:00","-2.0","","-3.6","","89","","25","","22","","24.1","","99.17","","","","-8","","Snow"
"2003-11-25 03:00","2003","11","25","03:00","-1.6","","-4.7","","79","","26","","22","","6.4","","99.25","","","","-8","","Snow"
"2003-11-25 04:00","2003","11","25","04:00","-2.1","","-3.4","","91","","27","","22","","2.4","","99.31","","","","-8","","Snow"
"2003-11-25 05:00","2003","11","25","05:00","-2.0","","-3.5","","89","","26","","15","","9.7","","99.37","","","","-7","","Snow"
"2003-11-25 06:00","2003","11","25","06:00","-1.4","","-3.9","","83","","27","","15","","16.1","","99.46","","","","-6","","Snow"
"2003-11-25 07:00","2003","11","25","07:00","-1.5","","-4.1","","82","","24","","13","","16.1","","99.54","","","","-6","","Snow"
"2003-11-25 08:00","2003","11","25","08:00","-1.0","","-5.0","","74","","24","","22","","19.3","","99.62","","","","-7","","Cloudy"
"2003-11-25 09:00","2003","11","25","09:00","-0.8","","-5.5","","70","","24","","26","","24.1","","99.68","","","","-7","","Mostly Cloudy"
"2003-11-25 10:00","2003","11","25","10:00","-0.5","","-5.6","","68","","25","","22","","19.3","","99.74","","","","-6","","Mostly Cloudy"
"2003-11-25 11:00","2003","11","25","11:00","0.6","","-4.7","","68","","25","","22","","24.1","","99.73","","","","","","Mainly Clear"
"2003-11-25 12:00","2003","11","25","12:00","1.6","","-4.3","","65","","24","","24","","24.1","","99.72","","","","","","Mainly Clear"
"2003-11-25 13:00","2003","11","25","13:00","1.8","","-4.4","","63","","25","","19","","24.1","","99.67","","","","","","Mostly Cloudy"
"2003-11-25 14:00","2003","11","25","14:00","1.8","","-5.1","","60","","25","","15","","24.1","","99.62","","","","","","Mostly Cloudy"
"2003-11-25 15:00","2003","11","25","15:00","2.7","","-5.0","","57","","22","","15","","24.1","","99.62","","","","","","Mostly Cloudy"
"2003-11-25 16:00","2003","11","25","16:00","2.3","","-7.1","","50","","21","","17","","24.1","","99.63","","","","","","Mostly Cloudy"
"2003-11-25 17:00","2003","11","25","17:00","2.0","","-6.8","","52","","20","","9","","24.1","","99.58","","","","","","Cloudy"
"2003-11-25 18:00","2003","11","25","18:00","2.0","","-6.0","","55","","20","","15","","24.1","","99.51","","","","","","Mostly Cloudy"
"2003-11-25 19:00","2003","11","25","19:00","2.4","","-4.5","","60","","20","","20","","24.1","","99.52","","","","","","Cloudy"
"2003-11-25 20:00","2003","11","25","20:00","2.4","","-4.4","","61","","19","","19","","24.1","","99.49","","","","","","Cloudy"
"2003-11-25 21:00","2003","11","25","21:00","2.0","","-4.4","","63","","18","","11","","24.1","","99.45","","","","","","Cloudy"
"2003-11-25 22:00","2003","11","25","22:00","2.3","","-4.1","","63","","20","","17","","24.1","","99.43","","","","","","Cloudy"
"2003-11-25 23:00","2003","11","25","23:00","2.3","","-4.0","","63","","19","","15","","24.1","","99.45","","","","","","Cloudy"
"2003-11-26 00:00","2003","11","26","00:00","2.6","","-3.9","","62","","20","","13","","24.1","","99.40","","","","","","Cloudy"
"2003-11-26 01:00","2003","11","26","01:00","2.5","","-3.8","","63","","20","","15","","24.1","","99.39","","","","","","Cloudy"
"2003-11-26 02:00","2003","11","26","02:00","2.6","","-3.7","","63","","20","","19","","24.1","","99.38","","","","","","Cloudy"
"2003-11-26 03:00","2003","11","26","03:00","2.5","","-3.6","","64","","20","","17","","24.1","","99.39","","","","","","Mostly Cloudy"
"2003-11-26 04:00","2003","11","26","04:00","2.4","","-3.4","","65","","20","","11","","24.1","","99.36","","","","","","Mostly Cloudy"
"2003-11-26 05:00","2003","11","26","05:00","2.0","","-3.2","","68","","22","","6","","24.1","","99.38","","","","","","Mostly Cloudy"
"2003-11-26 06:00","2003","11","26","06:00","2.4","","-2.9","","68","","21","","11","","24.1","","99.41","","","","","","Cloudy"
"2003-11-26 07:00","2003","11","26","07:00","2.4","","-2.9","","68","","21","","7","","24.1","","99.43","","","","","","Cloudy"
"2003-11-26 08:00","2003","11","26","08:00","2.7","","-2.8","","67","","22","","15","","19.3","","99.47","","","","","","Cloudy"
"2003-11-26 09:00","2003","11","26","09:00","3.1","","-3.0","","64","","24","","11","","19.3","","99.48","","","","","","Cloudy"
"2003-11-26 10:00","2003","11","26","10:00","4.2","","-2.6","","61","","25","","15","","19.3","","99.55","","","","","","Mostly Cloudy"
"2003-11-26 11:00","2003","11","26","11:00","6.0","","-2.3","","55","","23","","17","","19.3","","99.58","","","","","","Mainly Clear"
"2003-11-26 12:00","2003","11","26","12:00","7.2","","-1.1","","56","","23","","22","","24.1","","99.55","","","","","","Mainly Clear"
"2003-11-26 13:00","2003","11","26","13:00","8.3","","-0.6","","53","","24","","24","","24.1","","99.52","","","","","","Mainly Clear"
"2003-11-26 14:00","2003","11","26","14:00","8.1","","-1.7","","50","","27","","17","","24.1","","99.53","","","","","","Mostly Cloudy"
"2003-11-26 15:00","2003","11","26","15:00","8.0","","-2.0","","49","","23","","15","","24.1","","99.59","","","","","","Mainly Clear"
"2003-11-26 16:00","2003","11","26","16:00","7.3","","-1.8","","52","","23","","17","","24.1","","99.67","","","","","","Mainly Clear"
"2003-11-26 17:00","2003","11","26","17:00","6.4","","-1.6","","57","","20","","7","","24.1","","99.71","","","","","","Mainly Clear"
"2003-11-26 18:00","2003","11","26","18:00","5.7","","-1.4","","60","","20","","6","","24.1","","99.74","","","","","","Mainly Clear"
"2003-11-26 19:00","2003","11","26","19:00","4.4","","-1.3","","66","","23","","11","","24.1","","99.79","","","","","","Mainly Clear"
"2003-11-26 20:00","2003","11","26","20:00","3.3","","-1.1","","73","","24","","13","","24.1","","99.86","","","","","","Clear"
"2003-11-26 21:00","2003","11","26","21:00","2.5","","-1.1","","77","","25","","7","","24.1","","99.91","","","","","","Clear"
"2003-11-26 22:00","2003","11","26","22:00","2.6","","-1.0","","77","","27","","4","","24.1","","99.94","","","","","","Clear"
"2003-11-26 23:00","2003","11","26","23:00","1.7","","-1.2","","81","","29","","4","","24.1","","99.95","","","","","","Clear"
"2003-11-27 00:00","2003","11","27","00:00","2.4","","-0.5","","81","","","","0","","24.1","","99.99","","","","","","Clear"
"2003-11-27 01:00","2003","11","27","01:00","1.2","","-0.8","","86","","","","0","","24.1","","100.02","","","","","","Clear"
"2003-11-27 02:00","2003","11","27","02:00","0.0","","-1.7","","88","","","","0","","24.1","","99.99","","","","","","Clear"
"2003-11-27 03:00","2003","11","27","03:00","-1.1","","-2.9","","88","","","","0","","24.1","","100.05","","","","","","Clear"
"2003-11-27 04:00","2003","11","27","04:00","0.1","","-1.1","","92","","","","0","","24.1","","100.02","","","","","","Mostly Cloudy"
"2003-11-27 05:00","2003","11","27","05:00","0.2","","-1.1","","91","","3","","6","","19.3","","99.99","","","","","","Mostly Cloudy"
"2003-11-27 06:00","2003","11","27","06:00","0.6","","-0.9","","90","","4","","4","","19.3","","99.99","","","","","","Cloudy"
"2003-11-27 07:00","2003","11","27","07:00","2.0","","1.2","","94","","9","","4","","16.1","","99.95","","","","","","Cloudy"
"2003-11-27 08:00","2003","11","27","08:00","4.0","","2.3","","89","","9","","9","","8.0","","99.88","","","","","","Fog"
"2003-11-27 09:00","2003","11","27","09:00","4.6","","2.8","","88","","9","","7","","8.0","","99.88","","","","","","Rain,Fog"
"2003-11-27 10:00","2003","11","27","10:00","5.6","","2.5","","80","","9","","11","","11.3","","99.86","","","","","","Rain"
"2003-11-27 11:00","2003","11","27","11:00","6.0","","0.5","","68","","10","","15","","14.5","","99.81","","","","","","Rain"
"2003-11-27 12:00","2003","11","27","12:00","5.5","","2.2","","79","","10","","11","","11.3","","99.69","","","","","","Rain"
"2003-11-27 13:00","2003","11","27","13:00","5.2","","3.7","","90","","9","","9","","8.0","","99.64","","","","","","Rain,Fog"
"2003-11-27 14:00","2003","11","27","14:00","5.0","","4.1","","94","","10","","7","","6.4","","99.58","","","","","","Rain,Fog"
"2003-11-27 15:00","2003","11","27","15:00","4.5","","3.9","","96","","11","","15","","4.8","","99.53","","","","","","Rain,Fog"
"2003-11-27 16:00","2003","11","27","16:00","4.3","","3.9","","97","","13","","15","","4.0","","99.47","","","","","","Moderate Rain,Fog"
"2003-11-27 17:00","2003","11","27","17:00","4.4","","4.2","","99","","11","","11","","4.8","","99.41","","","","","","Rain,Fog"
"2003-11-27 18:00","2003","11","27","18:00","4.6","","4.4","","99","","13","","7","","4.8","","99.44","","","","","","Rain,Fog"
"2003-11-27 19:00","2003","11","27","19:00","4.8","","4.7","","99","","12","","6","","4.8","","99.41","","","","","","Rain,Fog"
"2003-11-27 20:00","2003","11","27","20:00","4.8","","4.8","","100","","11","","4","","4.8","","99.36","","","","","","Rain,Fog"
"2003-11-27 21:00","2003","11","27","21:00","5.0","","5.0","","100","","12","","6","","4.0","","99.32","","","","","","Rain,Fog"
"2003-11-27 22:00","2003","11","27","22:00","5.2","","5.1","","99","","13","","6","","4.0","","99.26","","","","","","Fog"
"2003-11-27 23:00","2003","11","27","23:00","5.1","","5.1","","100","","19","","7","","3.2","","99.29","","","","","","Fog"
"2003-11-28 00:00","2003","11","28","00:00","5.0","","5.0","","100","","","","0","","2.8","","99.18","","","","","","Fog"
"2003-11-28 01:00","2003","11","28","01:00","5.0","","5.0","","100","","","","0","","1.0","","99.18","","","","","","Fog"
"2003-11-28 02:00","2003","11","28","02:00","5.0","","5.0","","100","","","","0","","1.6","","99.14","","","","","","Fog"
"2003-11-28 03:00","2003","11","28","03:00","5.0","","5.0","","100","","","","0","","4.0","","99.06","","","","","","Fog"
"2003-11-28 04:00","2003","11","28","04:00","5.3","","5.3","","100","","","","0","","4.0","","99.02","","","","","","Fog"
"2003-11-28 05:00","2003","11","28","05:00","5.2","","5.2","","100","","2","","6","","4.0","","98.95","","","","","","Fog"
"2003-11-28 06:00","2003","11","28","06:00","5.6","","5.4","","99","","6","","9","","6.4","","98.81","","","","","","Fog"
"2003-11-28 07:00","2003","11","28","07:00","5.4","","5.2","","99","","4","","7","","3.2","","98.82","","","","","","Moderate Rain,Fog"
"2003-11-28 08:00","2003","11","28","08:00","5.3","","5.0","","98","","4","","13","","4.0","","98.69","","","","","","Moderate Rain,Fog"
"2003-11-28 09:00","2003","11","28","09:00","5.3","","5.1","","99","","5","","11","","4.8","","98.54","","","","","","Rain,Fog"
"2003-11-28 10:00","2003","11","28","10:00","4.9","","4.6","","98","","4","","17","","6.4","","98.40","","","","","","Rain"
"2003-11-28 11:00","2003","11","28","11:00","4.6","","4.2","","97","","2","","22","","6.4","","98.24","","","","","","Moderate Rain"
"2003-11-28 12:00","2003","11","28","12:00","4.4","","4.0","","97","","2","","24","","9.7","","97.99","","","","","","Moderate Rain"
"2003-11-28 13:00","2003","11","28","13:00","4.1","","3.7","","97","","1","","24","","8.0","","97.90","","","","","","Rain"
"2003-11-28 14:00","2003","11","28","14:00","3.4","","2.9","","97","","34","","24","","9.7","","97.80","","","","","","Rain"
"2003-11-28 15:00","2003","11","28","15:00","3.0","","2.6","","97","","35","","20","","14.5","","97.74","","","","","","Rain"
"2003-11-28 16:00","2003","11","28","16:00","1.5","","1.2","","98","","33","","22","","8.0","","97.81","","","","","","Rain"
"2003-11-28 17:00","2003","11","28","17:00","1.4","","1.0","","97","","33","","28","","4.8","","97.70","","","","","","Rain,Snow"
"2003-11-28 18:00","2003","11","28","18:00","1.2","","0.9","","98","","33","","30","","3.6","","97.59","","","","","","Snow"
"2003-11-28 19:00","2003","11","28","19:00","1.5","","1.2","","98","","32","","32","","6.4","","97.64","","","","","","Rain,Fog"
"2003-11-28 20:00","2003","11","28","20:00","1.3","","0.9","","97","","32","","30","","11.3","","97.47","","","","","","Snow"
"2003-11-28 21:00","2003","11","28","21:00","1.1","","0.5","","96","","32","","28","","6.4","","97.46","","","","","","Snow"
"2003-11-28 22:00","2003","11","28","22:00","1.3","","0.9","","97","","32","","33","","19.3","","97.39","","","","","","Snow"
"2003-11-28 23:00","2003","11","28","23:00","1.4","","0.7","","95","","32","","33","","24.1","","97.29","","","","","","Snow"
"2003-11-29 00:00","2003","11","29","00:00","1.2","","0.4","","94","","31","","35","","6.4","","97.27","","","","","","Snow,Fog"
"2003-11-29 01:00","2003","11","29","01:00","0.6","","0.1","","96","","32","","35","","3.2","","97.25","","","","","","Snow"
"2003-11-29 02:00","2003","11","29","02:00","0.1","","-0.2","","98","","32","","30","","4.0","","97.29","","","","","","Snow"
"2003-11-29 03:00","2003","11","29","03:00","0.2","","-0.4","","96","","32","","37","","4.0","","97.34","","","","","","Snow"
"2003-11-29 04:00","2003","11","29","04:00","0.1","","-0.6","","95","","32","","39","","4.0","","97.40","","","","","","Snow"
"2003-11-29 05:00","2003","11","29","05:00","-0.1","","-0.9","","94","","31","","39","","3.2","","97.51","","","","-7","","Snow"
"2003-11-29 06:00","2003","11","29","06:00","-0.2","","-2.9","","82","","32","","54","","24.1","","97.64","","","","-9","","Mostly Cloudy"
"2003-11-29 07:00","2003","11","29","07:00","-0.4","","-3.4","","80","","30","","54","","24.1","","97.73","","","","-9","","Mostly Cloudy"
"2003-11-29 08:00","2003","11","29","08:00","-1.5","","-4.9","","78","","31","","50","","24.1","","97.86","","","","-10","","Mainly Clear"
"2003-11-29 09:00","2003","11","29","09:00","-1.4","","-5.2","","75","","31","","52","","24.1","","97.99","","","","-10","","Mainly Clear"
"2003-11-29 10:00","2003","11","29","10:00","-1.0","","-4.9","","75","","31","","48","","24.1","","98.19","","","","-9","","Mainly Clear"
"2003-11-29 11:00","2003","11","29","11:00","-0.6","","-5.4","","70","","30","","41","","24.1","","98.34","","","","-8","","Clear"
"2003-11-29 12:00","2003","11","29","12:00","1.1","","-4.6","","66","","30","","44","","24.1","","98.41","","","","","","Clear"
"2003-11-29 13:00","2003","11","29","13:00","2.5","","-4.2","","61","","29","","48","","24.1","","98.50","","","","","","Clear"
"2003-11-29 14:00","2003","11","29","14:00","2.9","","-3.8","","61","","29","","56","","24.1","","98.59","","","","","","Mainly Clear"
"2003-11-29 15:00","2003","11","29","15:00","2.4","","-4.2","","62","","28","","50","","24.1","","98.69","","","","","","Mainly Clear"
"2003-11-29 16:00","2003","11","29","16:00","1.8","","-3.4","","68","","26","","35","","24.1","","98.69","","","","","","Mainly Clear"
"2003-11-29 17:00","2003","11","29","17:00","1.2","","-4.2","","67","","26","","26","","24.1","","98.76","","","","","","Mostly Cloudy"
"2003-11-29 18:00","2003","11","29","18:00","1.4","","-2.9","","73","","25","","19","","24.1","","98.73","","","","","","Mostly Cloudy"
"2003-11-29 19:00","2003","11","29","19:00","1.9","","-2.8","","71","","23","","24","","24.1","","98.65","","","","","","Cloudy"
"2003-11-29 20:00","2003","11","29","20:00","1.9","","-3.0","","70","","24","","24","","24.1","","98.62","","","","","","Cloudy"
"2003-11-29 21:00","2003","11","29","21:00","1.9","","-2.6","","72","","25","","43","","24.1","","98.60","","","","","","Cloudy"
"2003-11-29 22:00","2003","11","29","22:00","1.7","","-3.8","","67","","24","","46","","24.1","","98.56","","","","","","Cloudy"
"2003-11-29 23:00","2003","11","29","23:00","1.6","","-3.1","","71","","24","","37","","24.1","","98.56","","","","","","Cloudy"
"2003-11-30 00:00","2003","11","30","00:00","1.1","","-1.5","","83","","24","","35","","8.0","","98.54","","","","","","Snow"
"2003-11-30 01:00","2003","11","30","01:00","0.6","","-2.0","","83","","24","","33","","8.0","","98.50","","","","","","Snow"
"2003-11-30 02:00","2003","11","30","02:00","0.9","","-2.1","","80","","24","","39","","19.3","","98.47","","","","","","Cloudy"
"2003-11-30 03:00","2003","11","30","03:00","1.4","","-2.4","","76","","25","","33","","19.3","","98.47","","","","","","Cloudy"
"2003-11-30 04:00","2003","11","30","04:00","1.4","","-2.1","","77","","25","","24","","19.3","","98.43","","","","","","Cloudy"
"2003-11-30 05:00","2003","11","30","05:00","1.6","","-2.4","","75","","24","","22","","19.3","","98.45","","","","","","Cloudy"
"2003-11-30 06:00","2003","11","30","06:00","2.0","","-2.5","","72","","24","","20","","24.1","","98.50","","","","","","Cloudy"
"2003-11-30 07:00","2003","11","30","07:00","2.1","","-2.4","","72","","24","","26","","24.1","","98.53","","","","","","Cloudy"
"2003-11-30 08:00","2003","11","30","08:00","2.1","","-2.5","","72","","24","","26","","24.1","","98.61","","","","","","Cloudy"
"2003-11-30 09:00","2003","11","30","09:00","2.3","","-2.2","","72","","25","","20","","24.1","","98.66","","","","","","Cloudy"
"2003-11-30 10:00","2003","11","30","10:00","2.7","","-2.0","","71","","23","","28","","24.1","","98.73","","","","","","Cloudy"
"2003-11-30 11:00","2003","11","30","11:00","3.8","","-1.2","","70","","25","","30","","24.1","","98.70","","","","","","Mostly Cloudy"
"2003-11-30 12:00","2003","11","30","12:00","5.8","","-0.2","","65","","25","","37","","24.1","","98.62","","","","","","Mostly Cloudy"
"2003-11-30 13:00","2003","11","30","13:00","6.2","","-0.1","","64","","25","","28","","24.1","","98.60","","","","","","Mostly Cloudy"
"2003-11-30 14:00","2003","11","30","14:00","7.2","","0.5","","62","","25","","39","","24.1","","98.55","","","","","","Mostly Cloudy"
"2003-11-30 15:00","2003","11","30","15:00","7.0","","0.2","","62","","25","","30","","24.1","","98.55","","","","","","Mainly Clear"
"2003-11-30 16:00","2003","11","30","16:00","6.7","","0.5","","65","","24","","20","","24.1","","98.50","","","","","","Mainly Clear"
"2003-11-30 17:00","2003","11","30","17:00","5.7","","1.2","","73","","22","","24","","24.1","","98.46","","","","","","Mainly Clear"
"2003-11-30 18:00","2003","11","30","18:00","5.1","","1.3","","76","","22","","32","","24.1","","98.40","","","","","","Mostly Cloudy"
"2003-11-30 19:00","2003","11","30","19:00","5.8","","1.8","","75","","22","","37","","24.1","","98.20","","","","","","Cloudy"
"2003-11-30 20:00","2003","11","30","20:00","6.2","","2.2","","76","","24","","43","","24.1","","98.23","","","","","","Cloudy"
"2003-11-30 21:00","2003","11","30","21:00","7.0","","1.8","","69","","24","","41","","24.1","","98.18","","","","","","Cloudy"
"2003-11-30 22:00","2003","11","30","22:00","6.9","","1.3","","67","","25","","39","","24.1","","98.10","","","","","","Mainly Clear"
"2003-11-30 23:00","2003","11","30","23:00","6.6","","1.2","","68","","26","","33","","24.1","","98.10","","","","","","Mainly Clear"
