"Station Name","TORONTO INTL A"
"Province","ONTARIO"
"Latitude","43.68"
"Longitude","-79.63"
"Elevation","173.40"
"Climate Identifier","6158731"
"WMO Identifier","71624"
"TC Identifier","YYZ"
"All times are specified in Local Standard Time (LST). Add 1 hour to adjust for Daylight Saving Time where and when it is observed."

"Legend"
"E","Estimated"
"M","Missing"
"NA","Not Available"

"Date/Time","Year","Month","Day","Time","Temp (°C)","Temp Flag","Dew Point Temp (°C)","Dew Point Temp Flag","Rel Hum (%)","Rel Hum Flag","Wind Dir (10s deg)","Wind Dir Flag","Wind Spd (km/h)","Wind Spd Flag","Visibility (km)","Visibility Flag","Stn Press (kPa)","Stn Press Flag","Hmdx","Hmdx Flag","Wind Chill","Wind Chill Flag","Weather"
"2016-10-01 00:00","2016","10","01","00:00","13.5","","11.6","","88","","9","","21","","24.1","","100.25","","","","","","Drizzle"
"2016-10-01 01:00","2016","10","01","01:00","13.6","","11.0","","84","","11","","20","","24.1","","100.26","","","","","","Drizzle"
"2016-10-01 02:00","2016","10","01","02:00","13.5","","11.2","","86","","9","","13","","24.1","","100.19","","","","","","NA"
"2016-10-01 03:00","2016","10","01","03:00","13.1","","11.0","","87","","8","","14","","24.1","","100.13","","","","","","NA"
"2016-10-01 04:00","2016","10","01","04:00","13.2","","11.3","","88","","8","","16","","24.1","","100.09","","","","","","Mostly Cloudy"
"2016-10-01 05:00","2016","10","01","05:00","12.9","","11.5","","91","","9","","13","","24.1","","100.12","","","","","","NA"
"2016-10-01 06:00","2016","10","01","06:00","13.1","","11.7","","91","","9","","7","","24.1","","100.13","","","","","","NA"
"2016-10-01 07:00","2016","10","01","07:00","13.4","","11.6","","89","","10","","14","","24.1","","100.13","","","","","","Cloudy"
"2016-10-01 08:00","2016","10","01","08:00","13.3","","11.7","","90","","10","","11","","14.5","","100.10","","","","","","Rain"
"2016-10-01 09:00","2016","10","01","09:00","13.1","","12.2","","94","","11","","17","","9.7","","100.08","","","","","","Rain"
"2016-10-01 10:00","2016","10","01","10:00","13.3","","12.5","","95","","11","","16","","16.1","","100.08","","","","","","Cloudy"
"2016-10-01 11:00","2016","10","01","11:00","13.4","","12.8","","96","","10","","16","","8.1","","100.01","","","","","","Drizzle"
"2016-10-01 12:00","2016","10","01","12:00","13.8","","13.0","","95","","10","","18","","16.1","","99.95","","","","","","NA"
"2016-10-01 13:00","2016","10","01","13:00","14.0","","13.2","","95","","9","","15","","14.5","","99.88","","","","","","Cloudy"
"2016-10-01 14:00","2016","10","01","14:00","14.5","","13.6","","94","","8","","16","","9.7","","99.84","","","","","","Drizzle"
"2016-10-01 15:00","2016","10","01","15:00","14.5","","13.7","","95","","9","","14","","11.3","","99.81","","","","","","Drizzle"
"2016-10-01 16:00","2016","10","01","16:00","14.4","","13.6","","95","","7","","12","","16.1","","99.79","","","","","","Drizzle"
"2016-10-01 17:00","2016","10","01","17:00","14.7","","13.8","","94","","9","","13","","19.3","","99.78","","","","","","NA"
"2016-10-01 18:00","2016","10","01","18:00","15.2","","14.3","","94","","10","","11","","14.5","","99.74","","","","","","NA"
"2016-10-01 19:00","2016","10","01","19:00","15.6","","14.3","","92","","11","","20","","19.3","","99.71","","","","","","Cloudy"
"2016-10-01 20:00","2016","10","01","20:00","15.9","","14.1","","89","","11","","21","","24.1","","99.73","","","","","","NA"
"2016-10-01 21:00","2016","10","01","21:00","15.7","","14.3","","91","","10","","16","","24.1","","99.70","","","","","","NA"
"2016-10-01 22:00","2016","10","01","22:00","15.4","","14.5","","94","","11","","17","","19.3","","99.66","","","","","","Cloudy"
"2016-10-01 23:00","2016","10","01","23:00","15.3","","14.5","","95","","9","","14","","14.5","","99.62","","","","","","NA"
"2016-10-02 00:00","2016","10","02","00:00","15.4","","14.6","","95","","10","","9","","9.7","","99.61","","","","","","Fog"
"2016-10-02 01:00","2016","10","02","01:00","15.3","","14.7","","96","","7","","6","","4.8","","99.58","","","","","","Drizzle,Fog"
"2016-10-02 02:00","2016","10","02","02:00","15.0","","14.5","","97","","10","","8","","4.8","","99.57","","","","","","NA"
"2016-10-02 03:00","2016","10","02","03:00","15.0","","14.5","","97","","8","","5","","8.1","","99.51","","","","","","Drizzle,Fog"
"2016-10-02 04:00","2016","10","02","04:00","15.1","","14.6","","97","","24","","3","","9.7","","99.51","","","","","","Fog"
"2016-10-02 05:00","2016","10","02","05:00","15.0","","14.5","","97","","25","","3","","11.3","","99.51","","","","","","Drizzle"
"2016-10-02 06:00","2016","10","02","06:00","15.1","","14.6","","97","","21","","5","","11.3","","99.55","","","","","","NA"
"2016-10-02 07:00","2016","10","02","07:00","15.2","","14.7","","97","","30","","3","","11.3","","99.53","","","","","","Rain"
"2016-10-02 08:00","2016","10","02","08:00","15.9","","15.4","","97","","12","","3","","12.9","","99.49","","","","","","NA"
"2016-10-02 09:00","2016","10","02","09:00","17.3","","15.2","","87","","14","","7","","19.3","","99.47","","","","","","NA"
"2016-10-02 10:00","2016","10","02","10:00","18.6","","13.3","","71","","16","","5","","24.1","","99.46","","","","","","Mostly Cloudy"
"2016-10-02 11:00","2016","10","02","11:00","17.3","","14.6","","84","","16","","13","","16.1","","99.51","","","","","","Rain"
"2016-10-02 12:00","2016","10","02","12:00","16.0","","15.2","","95","","36","","3","","11.3","","99.46","","","","","","Moderate Rain Showers"
"2016-10-02 13:00","2016","10","02","13:00","17.9","","14.6","","81","","17","","4","","24.1","","99.40","","","","","","Mostly Cloudy"
"2016-10-02 14:00","2016","10","02","14:00","18.4","","14.2","","76","","18","","8","","24.1","","99.35","","","","","","NA"
"2016-10-02 15:00","2016","10","02","15:00","18.3","","13.4","","73","","28","","4","","24.1","","99.31","","","","","","NA"
"2016-10-02 16:00","2016","10","02","16:00","17.7","","15.4","","86","","18","","8","","24.1","","99.30","","","","","","Cloudy"
"2016-10-02 17:00","2016","10","02","17:00","17.5","","15.7","","89","","17","","5","","24.1","","99.34","","","","","","NA"
"2016-10-02 18:00","2016","10","02","18:00","17.4","","13.4","","77","","26","","14","","24.1","","99.37","","","","","","NA"
"2016-10-02 19:00","2016","10","02","19:00","16.5","","13.8","","84","","32","","13","","24.1","","99.40","","","","","","Cloudy"
"2016-10-02 20:00","2016","10","02","20:00","15.9","","14.1","","89","","29","","15","","24.1","","99.44","","","","","","NA"
"2016-10-02 21:00","2016","10","02","21:00","15.9","","13.4","","85","","30","","13","","24.1","","99.46","","","","","","NA"
"2016-10-02 22:00","2016","10","02","22:00","14.9","","13.5","","91","","28","","9","","24.1","","99.45","","","","","","Mostly Cloudy"
"2016-10-02 23:00","2016","10","02","23:00","14.5","","13.1","","91","","28","","10","","24.1","","99.47","","","","","","NA"
"2016-10-03 00:00","2016","10","03","00:00","13.6","","12.7","","94","","28","","8","","24.1","","99.49","","","","","","NA"
"2016-10-03 01:00","2016","10","03","01:00","14.3","","13.0","","92","","28","","9","","24.1","","99.49","","","","","","Mostly Cloudy"
"2016-10-03 02:00","2016","10","03","02:00","13.8","","12.9","","94","","28","","10","","24.1","","99.49","","","","","","NA"
"2016-10-03 03:00","2016","10","03","03:00","13.8","","12.9","","94","","30","","8","","24.1","","99.49","","","","","","NA"
"2016-10-03 04:00","2016","10","03","04:00","13.4","","12.6","","95","","32","","13","","24.1","","99.51","","","","","","Mainly Clear"
"2016-10-03 05:00","2016","10","03","05:00","14.6","","13.7","","94","","34","","16","","24.1","","99.54","","","","","","NA"
"2016-10-03 06:00","2016","10","03","06:00","14.4","","13.0","","91","","35","","13","","24.1","","99.59","","","","","","NA"
"2016-10-03 07:00","2016","10","03","07:00","14.8","","13.2","","90","","34","","17","","24.1","","99.66","","","","","","Mostly Cloudy"
"2016-10-03 08:00","2016","10","03","08:00","15.1","","13.7","","91","","35","","22","","24.1","","99.70","","","","","","NA"
"2016-10-03 09:00","2016","10","03","09:00","15.7","","13.6","","87","","35","","19","","24.1","","99.74","","","","","","NA"
"2016-10-03 10:00","2016","10","03","10:00","16.6","","13.9","","84","","2","","10","","24.1","","99.76","","","","","","Mostly Cloudy"
"2016-10-03 11:00","2016","10","03","11:00","17.3","","13.3","","77","","1","","12","","24.1","","99.79","","","","","","NA"
"2016-10-03 12:00","2016","10","03","12:00","17.8","","13.4","","75","","1","","9","","24.1","","99.80","","","","","","NA"
"2016-10-03 13:00","2016","10","03","13:00","18.1","","12.0","","67","","34","","5","","24.1","","99.77","","","","","","Mostly Cloudy"
"2016-10-03 14:00","2016","10","03","14:00","18.5","","12.3","","67","","2","","7","","24.1","","99.78","","","","","","NA"
"2016-10-03 15:00","2016","10","03","15:00","18.3","","12.4","","68","","36","","1","","24.1","","99.78","","","","","","NA"
"2016-10-03 16:00","2016","10","03","16:00","17.2","","14.0","","81","","14","","7","","24.1","","99.82","","","","","","Mostly Cloudy"
"2016-10-03 17:00","2016","10","03","17:00","17.8","","14.0","","78","","36","","1","","24.1","","99.86","","","","","","NA"
"2016-10-03 18:00","2016","10","03","18:00","17.6","","14.0","","79","","14","","6","","24.1","","99.90","","","","","","NA"
"2016-10-03 19:00","2016","10","03","19:00","17.4","","14.3","","82","","2","","4","","24.1","","99.95","","","","","","Mostly Cloudy"
"2016-10-03 20:00","2016","10","03","20:00","16.6","","14.1","","85","","1","","10","","24.1","","100.00","","","","","","NA"
"2016-10-03 21:00","2016","10","03","21:00","15.9","","13.8","","87","","3","","10","","24.1","","100.05","","","","","","NA"
"2016-10-03 22:00","2016","10","03","22:00","15.8","","14.5","","92","","11","","3","","24.1","","100.08","","","","","","Mostly Cloudy"
"2016-10-03 23:00","2016","10","03","23:00","16.0","","14.7","","92","","9","","4","","24.1","","100.12","","","","","","NA"
"2016-10-04 00:00","2016","10","04","00:00","15.4","","14.3","","93","","12","","7","","24.1","","100.14","","","","","","NA"
"2016-10-04 01:00","2016","10","04","01:00","15.2","","14.1","","93","","10","","5","","24.1","","100.16","","","","","","Mostly Cloudy"
"2016-10-04 02:00","2016","10","04","02:00","15.3","","14.5","","95","","10","","5","","24.1","","100.19","","","","","","NA"
"2016-10-04 03:00","2016","10","04","03:00","15.5","","14.7","","95","","12","","5","","24.1","","100.20","","","","","","NA"
"2016-10-04 04:00","2016","10","04","04:00","15.5","","14.1","","91","","14","","8","","24.1","","100.24","","","","","","Mostly Cloudy"
"2016-10-04 05:00","2016","10","04","05:00","15.6","","14.2","","91","","12","","6","","24.1","","100.28","","","","","","NA"
"2016-10-04 06:00","2016","10","04","06:00","14.9","","13.6","","92","","11","","9","","24.1","","100.31","","","","","","NA"
"2016-10-04 07:00","2016","10","04","07:00","15.3","","14.0","","92","","10","","8","","24.1","","100.37","","","","","","Mainly Clear"
"2016-10-04 08:00","2016","10","04","08:00","16.6","","14.6","","88","","8","","10","","24.1","","100.44","","","","","","NA"
"2016-10-04 09:00","2016","10","04","09:00","17.8","","14.2","","79","","10","","12","","24.1","","100.46","","","","","","NA"
"2016-10-04 10:00","2016","10","04","10:00","18.9","","13.4","","70","","13","","15","","24.1","","100.46","","","","","","Mainly Clear"
"2016-10-04 11:00","2016","10","04","11:00","19.3","","14.2","","72","","13","","17","","24.1","","100.45","","","","","","NA"
"2016-10-04 12:00","2016","10","04","12:00","19.5","","14.6","","73","","11","","15","","24.1","","100.42","","","","","","NA"
"2016-10-04 13:00","2016","10","04","13:00","19.4","","14.1","","71","","13","","19","","24.1","","100.37","","","","","","Mainly Clear"
"2016-10-04 14:00","2016","10","04","14:00","18.4","","13.5","","73","","7","","18","","24.1","","100.34","","","","","","NA"
"2016-10-04 15:00","2016","10","04","15:00","19.2","","13.7","","70","","13","","17","","24.1","","100.31","","","","","","NA"
"2016-10-04 16:00","2016","10","04","16:00","18.8","","13.5","","71","","8","","17","","24.1","","100.34","","","","","","Mainly Clear"
"2016-10-04 17:00","2016","10","04","17:00","17.9","","13.9","","77","","10","","13","","24.1","","100.35","","","","","","NA"
"2016-10-04 18:00","2016","10","04","18:00","16.8","","13.6","","81","","9","","17","","24.1","","100.34","","","","","","NA"
"2016-10-04 19:00","2016","10","04","19:00","16.2","","14.1","","87","","10","","10","","24.1","","100.38","","","","","","Mainly Clear"
"2016-10-04 20:00","2016","10","04","20:00","16.2","","14.2","","88","","8","","12","","24.1","","100.38","","","","","","NA"
"2016-10-04 21:00","2016","10","04","21:00","16.1","","14.7","","91","","8","","9","","24.1","","100.38","","","","","","NA"
"2016-10-04 22:00","2016","10","04","22:00","16.2","","14.2","","88","","8","","11","","24.1","","100.36","","","","","","Mainly Clear"
"2016-10-04 23:00","2016","10","04","23:00","15.9","","14.3","","90","","10","","13","","24.1","","100.35","","","","","","NA"
"2016-10-05 00:00","2016","10","05","00:00","15.5","","14.2","","92","","10","","10","","24.1","","100.34","","","","","","NA"
"2016-10-05 01:00","2016","10","05","01:00","14.9","","14.0","","94","","10","","9","","24.1","","100.35","","","","","","Clear"
"2016-10-05 02:00","2016","10","05","02:00","14.5","","13.7","","95","","10","","10","","24.1","","100.32","","","","","","NA"
"2016-10-05 03:00","2016","10","05","03:00","14.2","","13.4","","95","","10","","9","","24.1","","100.30","","","","","","NA"
"2016-10-05 04:00","2016","10","05","04:00","14.2","","13.4","","95","","12","","8","","24.1","","100.32","","","","","","Clear"
"2016-10-05 05:00","2016","10","05","05:00","14.7","","13.4","","92","","15","","8","","24.1","","100.36","","","","","","NA"
"2016-10-05 06:00","2016","10","05","06:00","14.7","","13.4","","92","","14","","9","","24.1","","100.41","","","","","","NA"
"2016-10-05 07:00","2016","10","05","07:00","15.1","","13.7","","91","","12","","7","","24.1","","100.43","","","","","","Clear"
"2016-10-05 08:00","2016","10","05","08:00","16.7","","14.0","","84","","14","","10","","24.1","","100.44","","","","","","NA"
"2016-10-05 09:00","2016","10","05","09:00","17.8","","14.0","","78","","13","","12","","24.1","","100.43","","","","","","NA"
"2016-10-05 10:00","2016","10","05","10:00","18.4","","14.2","","76","","15","","15","","24.1","","100.40","","","","","","Mostly Cloudy"
"2016-10-05 11:00","2016","10","05","11:00","18.4","","13.5","","73","","14","","12","","24.1","","100.36","","","","","","NA"
"2016-10-05 12:00","2016","10","05","12:00","19.1","","14.2","","73","","13","","16","","24.1","","100.31","","","","","","NA"
"2016-10-05 13:00","2016","10","05","13:00","18.9","","13.6","","71","","12","","18","","24.1","","100.23","","","","","","Clear"
"2016-10-05 14:00","2016","10","05","14:00","19.8","","13.4","","66","","14","","13","","24.1","","100.20","","","","","","NA"
"2016-10-05 15:00","2016","10","05","15:00","20.2","","13.3","","64","","15","","14","","24.1","","100.16","","","","","","NA"
"2016-10-05 16:00","2016","10","05","16:00","19.6","","12.7","","64","","14","","13","","24.1","","100.12","","","","","","Mainly Clear"
"2016-10-05 17:00","2016","10","05","17:00","19.0","","13.5","","70","","10","","16","","24.1","","100.11","","","","","","NA"
"2016-10-05 18:00","2016","10","05","18:00","17.1","","13.3","","78","","10","","17","","24.1","","100.07","","","","","","NA"
"2016-10-05 19:00","2016","10","05","19:00","16.4","","13.2","","81","","10","","13","","24.1","","100.06","","","","","","Mainly Clear"
"2016-10-05 20:00","2016","10","05","20:00","16.4","","13.4","","82","","10","","13","","24.1","","100.04","","","","","","NA"
"2016-10-05 21:00","2016","10","05","21:00","16.8","","14.7","","87","","12","","7","","24.1","","100.08","","","","","","NA"
"2016-10-05 22:00","2016","10","05","22:00","16.8","","14.8","","88","","16","","9","","24.1","","100.09","","","","","","Mainly Clear"
"2016-10-05 23:00","2016","10","05","23:00","16.8","","13.9","","83","","20","","10","","24.1","","100.13","","","","","","NA"
"2016-10-06 00:00","2016","10","06","00:00","16.4","","13.5","","83","","20","","10","","24.1","","100.13","","","","","","NA"
"2016-10-06 01:00","2016","10","06","01:00","16.2","","13.5","","84","","18","","10","","24.1","","100.14","","","","","","Mostly Cloudy"
"2016-10-06 02:00","2016","10","06","02:00","16.1","","13.4","","84","","20","","9","","24.1","","100.15","","","","","","NA"
"2016-10-06 03:00","2016","10","06","03:00","16.5","","13.3","","81","","20","","12","","24.1","","100.13","","","","","","Rain"
"2016-10-06 04:00","2016","10","06","04:00","16.2","","13.2","","82","","19","","7","","19.3","","100.12","","","","","","Mostly Cloudy"
"2016-10-06 05:00","2016","10","06","05:00","15.5","","13.4","","87","","36","","2","","19.3","","100.17","","","","","","NA"
"2016-10-06 06:00","2016","10","06","06:00","16.4","","13.4","","82","","15","","5","","19.3","","100.18","","","","","","NA"
"2016-10-06 07:00","2016","10","06","07:00","16.2","","13.4","","83","","12","","7","","24.1","","100.23","","","","","","Mostly Cloudy"
"2016-10-06 08:00","2016","10","06","08:00","17.6","","13.4","","76","","17","","7","","24.1","","100.28","","","","","","NA"
"2016-10-06 09:00","2016","10","06","09:00","19.1","","14.0","","72","","18","","9","","24.1","","100.26","","","","","","NA"
"2016-10-06 10:00","2016","10","06","10:00","20.1","","14.5","","70","","16","","13","","24.1","","100.29","","","","","","Clear"
"2016-10-06 11:00","2016","10","06","11:00","20.5","","15.1","","71","","13","","10","","24.1","","100.31","","25","","","","NA"
"2016-10-06 12:00","2016","10","06","12:00","21.4","","15.6","","69","","14","","8","","24.1","","100.29","","26","","","","NA"
"2016-10-06 13:00","2016","10","06","13:00","21.6","","16.0","","70","","13","","9","","24.1","","100.27","","26","","","","Clear"
"2016-10-06 14:00","2016","10","06","14:00","22.3","","15.8","","66","","12","","12","","24.1","","100.23","","27","","","","NA"
"2016-10-06 15:00","2016","10","06","15:00","23.0","","15.0","","60","","13","","13","","24.1","","100.24","","27","","","","NA"
"2016-10-06 16:00","2016","10","06","16:00","22.4","","15.6","","65","","14","","13","","24.1","","100.23","","27","","","","Mainly Clear"
"2016-10-06 17:00","2016","10","06","17:00","21.3","","15.0","","67","","13","","10","","24.1","","100.26","","25","","","","NA"
"2016-10-06 18:00","2016","10","06","18:00","18.7","","15.6","","82","","14","","13","","24.1","","100.27","","","","","","NA"
"2016-10-06 19:00","2016","10","06","19:00","17.6","","15.6","","88","","12","","10","","24.1","","100.29","","","","","","Clear"
"2016-10-06 20:00","2016","10","06","20:00","17.5","","14.6","","83","","12","","10","","24.1","","100.31","","","","","","NA"
"2016-10-06 21:00","2016","10","06","21:00","17.2","","12.8","","75","","11","","9","","24.1","","100.30","","","","","","NA"
"2016-10-06 22:00","2016","10","06","22:00","16.5","","12.7","","78","","11","","8","","24.1","","100.27","","","","","","Clear"
"2016-10-06 23:00","2016","10","06","23:00","16.1","","13.1","","82","","7","","7","","24.1","","100.24","","","","","","NA"
"2016-10-07 00:00","2016","10","07","00:00","16.3","","13.8","","85","","5","","4","","24.1","","100.21","","","","","","NA"
"2016-10-07 01:00","2016","10","07","01:00","16.2","","14.1","","87","","6","","5","","24.1","","100.16","","","","","","Clear"
"2016-10-07 02:00","2016","10","07","02:00","15.8","","14.2","","90","","36","","3","","24.1","","100.14","","","","","","NA"
"2016-10-07 03:00","2016","10","07","03:00","13.8","","12.7","","93","","36","","3","","24.1","","100.16","","","","","","NA"
"2016-10-07 04:00","2016","10","07","04:00","14.5","","13.4","","93","","36","","7","","24.1","","100.17","","","","","","Clear"
"2016-10-07 05:00","2016","10","07","05:00","14.2","","13.4","","95","","3","","4","","24.1","","100.15","","","","","","NA"
"2016-10-07 06:00","2016","10","07","06:00","14.4","","13.5","","94","","3","","7","","16.1","","100.10","","","","","","NA"
"2016-10-07 07:00","2016","10","07","07:00","13.2","","12.3","","94","","31","","4","","9.7","","100.13","","","","","","Fog"
"2016-10-07 08:00","2016","10","07","08:00","17.4","","16.3","","93","","18","","5","","12.9","","100.12","","","","","","NA"
"2016-10-07 09:00","2016","10","07","09:00","19.2","","14.9","","76","","16","","10","","24.1","","100.10","","","","","","NA"
"2016-10-07 10:00","2016","10","07","10:00","19.9","","14.4","","70","","20","","5","","24.1","","100.05","","","","","","Mainly Clear"
"2016-10-07 11:00","2016","10","07","11:00","20.3","","14.3","","68","","14","","18","","24.1","","99.96","","","","","","NA"
"2016-10-07 12:00","2016","10","07","12:00","20.6","","13.7","","64","","16","","17","","24.1","","99.92","","","","","","NA"
"2016-10-07 13:00","2016","10","07","13:00","21.1","","14.4","","65","","15","","19","","24.1","","99.83","","25","","","","Mainly Clear"
"2016-10-07 14:00","2016","10","07","14:00","21.8","","14.1","","61","","15","","17","","24.1","","99.78","","25","","","","NA"
"2016-10-07 15:00","2016","10","07","15:00","21.3","","14.3","","64","","15","","22","","24.1","","99.69","","25","","","","NA"
"2016-10-07 16:00","2016","10","07","16:00","20.4","","15.3","","72","","15","","15","","24.1","","99.68","","25","","","","Clear"
"2016-10-07 17:00","2016","10","07","17:00","19.8","","14.7","","72","","12","","15","","24.1","","99.67","","","","","","NA"
"2016-10-07 18:00","2016","10","07","18:00","19.2","","14.5","","74","","16","","8","","24.1","","99.67","","","","","","NA"
"2016-10-07 19:00","2016","10","07","19:00","19.8","","13.6","","67","","18","","5","","24.1","","99.65","","","","","","Clear"
"2016-10-07 20:00","2016","10","07","20:00","19.3","","12.9","","66","","15","","7","","24.1","","99.60","","","","","","NA"
"2016-10-07 21:00","2016","10","07","21:00","18.6","","13.1","","70","","15","","6","","24.1","","99.55","","","","","","NA"
"2016-10-07 22:00","2016","10","07","22:00","17.6","","15.3","","86","","15","","9","","24.1","","99.55","","","","","","Clear"
"2016-10-07 23:00","2016","10","07","23:00","17.4","","14.0","","80","","36","","3","","24.1","","99.49","","","","","","NA"
"2016-10-08 00:00","2016","10","08","00:00","17.5","","13.7","","78","","22","","3","","24.1","","99.44","","","","","","NA"
"2016-10-08 01:00","2016","10","08","01:00","16.9","","14.6","","86","","27","","5","","24.1","","99.42","","","","","","Mainly Clear"
"2016-10-08 02:00","2016","10","08","02:00","17.7","","15.9","","89","","28","","7","","24.1","","99.44","","","","","","NA"
"2016-10-08 03:00","2016","10","08","03:00","18.2","","17.1","","93","","23","","9","","24.1","","99.43","","","","","","NA"
"2016-10-08 04:00","2016","10","08","04:00","18.1","","15.9","","87","","29","","12","","24.1","","99.44","","","","","","Mostly Cloudy"
"2016-10-08 05:00","2016","10","08","05:00","16.2","","14.1","","87","","35","","24","","24.1","","99.46","","","","","","NA"
"2016-10-08 06:00","2016","10","08","06:00","15.2","","14.1","","93","","32","","22","","24.1","","99.51","","","","","","Rain Showers"
"2016-10-08 07:00","2016","10","08","07:00","13.8","","12.9","","94","","31","","19","","24.1","","99.58","","","","","","Rain Showers"
"2016-10-08 08:00","2016","10","08","08:00","13.7","","11.1","","84","","32","","21","","24.1","","99.67","","","","","","NA"
"2016-10-08 09:00","2016","10","08","09:00","14.9","","9.7","","71","","32","","27","","24.1","","99.68","","","","","","NA"
"2016-10-08 10:00","2016","10","08","10:00","15.6","","9.3","","66","","32","","23","","24.1","","99.65","","","","","","Mostly Cloudy"
"2016-10-08 11:00","2016","10","08","11:00","16.7","","8.7","","59","","26","","22","","24.1","","99.66","","","","","","NA"
"2016-10-08 12:00","2016","10","08","12:00","16.9","","7.6","","54","","25","","31","","24.1","","99.66","","","","","","NA"
"2016-10-08 13:00","2016","10","08","13:00","17.0","","6.3","","49","","28","","30","","24.1","","99.61","","","","","","Mostly Cloudy"
"2016-10-08 14:00","2016","10","08","14:00","16.7","","5.7","","48","","27","","32","","24.1","","99.60","","","","","","NA"
"2016-10-08 15:00","2016","10","08","15:00","15.2","","4.6","","49","","28","","32","","24.1","","99.65","","","","","","NA"
"2016-10-08 16:00","2016","10","08","16:00","14.9","","3.2","","45","","29","","30","","24.1","","99.70","","","","","","Mostly Cloudy"
"2016-10-08 17:00","2016","10","08","17:00","13.0","","3.7","","53","","29","","30","","24.1","","99.80","","","","","","NA"
"2016-10-08 18:00","2016","10","08","18:00","12.1","","2.9","","53","","29","","29","","24.1","","99.87","","","","","","NA"
"2016-10-08 19:00","2016","10","08","19:00","11.7","","3.0","","55","","30","","34","","24.1","","99.95","","","","","","Mostly Cloudy"
"2016-10-08 20:00","2016","10","08","20:00","10.9","","3.5","","60","","31","","27","","24.1","","100.03","","","","","","NA"
"2016-10-08 21:00","2016","10","08","21:00","10.2","","3.5","","63","","29","","19","","24.1","","100.09","","","","","","NA"
"2016-10-08 22:00","2016","10","08","22:00","9.0","","3.9","","70","","28","","15","","24.1","","100.12","","","","","","Clear"
"2016-10-08 23:00","2016","10","08","23:00","8.4","","4.1","","74","","28","","16","","24.1","","100.10","","","","","","NA"
"2016-10-09 00:00","2016","10","09","00:00","7.8","","4.4","","79","","28","","13","","24.1","","100.08","","","","","","NA"
"2016-10-09 01:00","2016","10","09","01:00","7.8","","4.4","","79","","29","","14","","24.1","","100.14","","","","","","Mainly Clear"
"2016-10-09 02:00","2016","10","09","02:00","7.0","","4.0","","81","","26","","9","","24.1","","100.14","","","","","","NA"
"2016-10-09 03:00","2016","10","09","03:00","6.5","","4.0","","84","","28","","10","","24.1","","100.17","","","","","","NA"
"2016-10-09 04:00","2016","10","09","04:00","7.0","","4.7","","85","","28","","12","","24.1","","100.18","","","","","","Mainly Clear"
"2016-10-09 05:00","2016","10","09","05:00","7.6","","5.3","","85","","28","","10","","24.1","","100.25","","","","","","NA"
"2016-10-09 06:00","2016","10","09","06:00","8.9","","5.8","","81","","31","","17","","24.1","","100.30","","","","","","NA"
"2016-10-09 07:00","2016","10","09","07:00","8.8","","5.7","","81","","32","","17","","24.1","","100.39","","","","","","Mostly Cloudy"
"2016-10-09 08:00","2016","10","09","08:00","9.7","","5.9","","77","","36","","12","","24.1","","100.43","","","","","","NA"
"2016-10-09 09:00","2016","10","09","09:00","10.2","","5.0","","70","","33","","13","","24.1","","100.46","","","","","","NA"
"2016-10-09 10:00","2016","10","09","10:00","11.2","","4.9","","65","","36","","16","","24.1","","100.48","","","","","","Rain Showers"
"2016-10-09 11:00","2016","10","09","11:00","12.0","","3.6","","56","","34","","28","","24.1","","100.47","","","","","","NA"
"2016-10-09 12:00","2016","10","09","12:00","11.9","","3.7","","57","","34","","24","","24.1","","100.47","","","","","","NA"
"2016-10-09 13:00","2016","10","09","13:00","12.6","","1.6","","47","","33","","37","","24.1","","100.44","","","","","","Mainly Clear"
"2016-10-09 14:00","2016","10","09","14:00","12.6","","1.0","","45","","36","","34","","24.1","","100.45","","","","","","NA"
"2016-10-09 15:00","2016","10","09","15:00","11.9","","0.4","","45","","34","","28","","24.1","","100.49","","","","","","NA"
"2016-10-09 16:00","2016","10","09","16:00","11.3","","-0.5","","44","","34","","32","","24.1","","100.57","","","","","","Mainly Clear"
"2016-10-09 17:00","2016","10","09","17:00","10.6","","1.2","","52","","33","","27","","24.1","","100.62","","","","","","NA"
"2016-10-09 18:00","2016","10","09","18:00","9.2","","0.9","","56","","33","","28","","24.1","","100.67","","","","","","NA"
"2016-10-09 19:00","2016","10","09","19:00","8.1","","1.1","","61","","35","","22","","24.1","","100.71","","","","","","Clear"
"2016-10-09 20:00","2016","10","09","20:00","7.5","","1.2","","64","","35","","19","","24.1","","100.75","","","","","","NA"
"2016-10-09 21:00","2016","10","09","21:00","7.1","","1.2","","66","","34","","15","","24.1","","100.76","","","","","","NA"
"2016-10-09 22:00","2016","10","09","22:00","6.7","","1.2","","68","","34","","18","","24.1","","100.79","","","","","","Clear"
"2016-10-09 23:00","2016","10","09","23:00","5.8","","1.2","","72","","34","","17","","24.1","","100.82","","","","","","NA"
"2016-10-10 00:00","2016","10","10","00:00","4.9","","0.9","","75","","35","","12","","24.1","","100.79","","","","","","NA"
"2016-10-10 01:00","2016","10","10","01:00","4.4","","0.7","","77","","36","","11","","24.1","","100.81","","","","","","Clear"
"2016-10-10 02:00","2016","10","10","02:00","3.9","","0.4","","78","","36","","11","","24.1","","100.87","","","","","","NA"
"2016-10-10 03:00","2016","10","10","03:00","3.3","","0.2","","80","","36","","13","","24.1","","100.87","","","","","","NA"
"2016-10-10 04:00","2016","10","10","04:00","3.1","","-0.5","","77","","36","","12","","24.1","","100.90","","","","","","Clear"
"2016-10-10 05:00","2016","10","10","05:00","2.8","","-0.7","","78","","36","","11","","24.1","","100.94","","","","","","NA"
"2016-10-10 06:00","2016","10","10","06:00","2.3","","-1.0","","79","","32","","9","","24.1","","101.05","","","","","","NA"
"2016-10-10 07:00","2016","10","10","07:00","2.8","","-1.2","","75","","36","","12","","24.1","","101.09","","","","","","Mainly Clear"
"2016-10-10 08:00","2016","10","10","08:00","4.4","","-0.6","","70","","36","","9","","24.1","","101.13","","","","","","NA"
"2016-10-10 09:00","2016","10","10","09:00","5.9","","-1.0","","61","","2","","9","","24.1","","101.13","","","","","","NA"
"2016-10-10 10:00","2016","10","10","10:00","7.1","","-0.6","","58","","33","","10","","24.1","","101.15","","","","","","Mainly Clear"
"2016-10-10 11:00","2016","10","10","11:00","9.1","","0.3","","54","","33","","9","","24.1","","101.11","","","","","","NA"
"2016-10-10 12:00","2016","10","10","12:00","9.7","","0.6","","53","","4","","3","","24.1","","101.06","","","","","","NA"
"2016-10-10 13:00","2016","10","10","13:00","11.1","","-0.7","","44","","24","","4","","24.1","","100.98","","","","","","Clear"
"2016-10-10 14:00","2016","10","10","14:00","12.1","","-0.1","","43","","27","","3","","24.1","","100.92","","","","","","NA"
"2016-10-10 15:00","2016","10","10","15:00","13.1","","-1.2","","37","","29","","3","","24.1","","100.85","","","","","","NA"
"2016-10-10 16:00","2016","10","10","16:00","12.3","","1.7","","48","","19","","11","","24.1","","100.83","","","","","","Clear"
"2016-10-10 17:00","2016","10","10","17:00","11.0","","2.4","","55","","16","","16","","24.1","","100.83","","","","","","NA"
"2016-10-10 18:00","2016","10","10","18:00","9.6","","2.5","","61","","16","","7","","24.1","","100.85","","","","","","NA"
"2016-10-10 19:00","2016","10","10","19:00","9.7","","2.6","","61","","18","","7","","24.1","","100.83","","","","","","Clear"
"2016-10-10 20:00","2016","10","10","20:00","9.5","","2.6","","62","","15","","4","","24.1","","100.82","","","","","","NA"
"2016-10-10 21:00","2016","10","10","21:00","9.3","","2.9","","64","","17","","4","","24.1","","100.83","","","","","","NA"
"2016-10-10 22:00","2016","10","10","22:00","8.6","","2.4","","65","","23","","5","","24.1","","100.85","","","","","","Clear"
"2016-10-10 23:00","2016","10","10","23:00","6.6","","1.7","","71","","26","","7","","24.1","","100.87","","","","","","NA"
"2016-10-11 00:00","2016","10","11","00:00","7.5","","2.0","","68","","36","","3","","24.1","","100.86","","","","","","NA"
"2016-10-11 01:00","2016","10","11","01:00","7.6","","1.7","","66","","36","","2","","24.1","","100.83","","","","","","Clear"
"2016-10-11 02:00","2016","10","11","02:00","6.0","","2.1","","76","","31","","5","","24.1","","100.83","","","","","","NA"
"2016-10-11 03:00","2016","10","11","03:00","6.3","","1.8","","73","","36","","3","","24.1","","100.81","","","","","","NA"
"2016-10-11 04:00","2016","10","11","04:00","4.8","","1.7","","80","","35","","4","","24.1","","100.79","","","","","","Clear"
"2016-10-11 05:00","2016","10","11","05:00","4.3","","1.7","","83","","33","","3","","24.1","","100.81","","","","","","NA"
"2016-10-11 06:00","2016","10","11","06:00","4.7","","2.1","","83","","2","","9","","24.1","","100.82","","","","","","NA"
"2016-10-11 07:00","2016","10","11","07:00","3.9","","1.3","","83","","31","","5","","24.1","","100.86","","","","","","Mainly Clear"
"2016-10-11 08:00","2016","10","11","08:00","7.7","","3.8","","76","","32","","5","","24.1","","100.88","","","","","","NA"
"2016-10-11 09:00","2016","10","11","09:00","11.5","","5.8","","68","","6","","4","","24.1","","100.84","","","","","","NA"
"2016-10-11 10:00","2016","10","11","10:00","14.1","","6.0","","58","","13","","9","","24.1","","100.82","","","","","","Mostly Cloudy"
"2016-10-11 11:00","2016","10","11","11:00","15.3","","7.7","","60","","16","","8","","24.1","","100.76","","","","","","NA"
"2016-10-11 12:00","2016","10","11","12:00","15.4","","8.5","","63","","14","","10","","24.1","","100.68","","","","","","NA"
"2016-10-11 13:00","2016","10","11","13:00","16.5","","9.3","","62","","11","","9","","24.1","","100.57","","","","","","Mostly Cloudy"
"2016-10-11 14:00","2016","10","11","14:00","15.8","","8.4","","61","","16","","12","","24.1","","100.52","","","","","","NA"
"2016-10-11 15:00","2016","10","11","15:00","15.2","","9.4","","68","","15","","12","","24.1","","100.47","","","","","","NA"
"2016-10-11 16:00","2016","10","11","16:00","15.2","","8.7","","65","","14","","8","","24.1","","100.45","","","","","","Mostly Cloudy"
"2016-10-11 17:00","2016","10","11","17:00","14.8","","8.4","","65","","14","","11","","24.1","","100.40","","","","","","NA"
"2016-10-11 18:00","2016","10","11","18:00","14.1","","8.3","","68","","10","","11","","24.1","","100.36","","","","","","NA"
"2016-10-11 19:00","2016","10","11","19:00","13.4","","8.5","","72","","11","","10","","24.1","","100.34","","","","","","Mostly Cloudy"
"2016-10-11 20:00","2016","10","11","20:00","13.0","","8.5","","74","","10","","9","","24.1","","100.31","","","","","","NA"
"2016-10-11 21:00","2016","10","11","21:00","12.9","","8.4","","74","","36","","3","","24.1","","100.27","","","","","","NA"
"2016-10-11 22:00","2016","10","11","22:00","12.4","","8.3","","76","","10","","7","","24.1","","100.23","","","","","","Mostly Cloudy"
"2016-10-11 23:00","2016","10","11","23:00","11.9","","8.0","","77","","36","","1","","24.1","","100.23","","","","","","NA"
"2016-10-12 00:00","2016","10","12","00:00","12.4","","8.3","","76","","13","","4","","24.1","","100.19","","","","","","NA"
"2016-10-12 01:00","2016","10","12","01:00","11.6","","8.5","","81","","36","","3","","24.1","","100.15","","","","","","Mostly Cloudy"
"2016-10-12 02:00","2016","10","12","02:00","11.1","","8.2","","82","","36","","3","","24.1","","100.13","","","","","","NA"
"2016-10-12 03:00","2016","10","12","03:00","12.3","","8.2","","76","","16","","6","","24.1","","100.08","","","","","","NA"
"2016-10-12 04:00","2016","10","12","04:00","11.3","","7.8","","79","","36","","3","","24.1","","100.10","","","","","","Mainly Clear"
"2016-10-12 05:00","2016","10","12","05:00","10.4","","7.5","","82","","36","","2","","24.1","","100.07","","","","","","NA"
"2016-10-12 06:00","2016","10","12","06:00","10.9","","8.2","","83","","17","","5","","24.1","","100.06","","","","","","NA"
"2016-10-12 07:00","2016","10","12","07:00","12.0","","9.1","","82","","17","","4","","24.1","","100.05","","","","","","Mainly Clear"
"2016-10-12 08:00","2016","10","12","08:00","13.8","","10.3","","79","","18","","5","","24.1","","100.05","","","","","","NA"
"2016-10-12 09:00","2016","10","12","09:00","16.0","","11.8","","76","","16","","12","","24.1","","100.02","","","","","","NA"
"2016-10-12 10:00","2016","10","12","10:00","18.2","","12.5","","69","","20","","14","","24.1","","99.94","","","","","","Clear"
"2016-10-12 11:00","2016","10","12","11:00","18.8","","12.9","","68","","17","","15","","24.1","","99.84","","","","","","NA"
"2016-10-12 12:00","2016","10","12","12:00","20.0","","13.1","","64","","16","","18","","24.1","","99.75","","","","","","NA"
"2016-10-12 13:00","2016","10","12","13:00","20.9","","13.2","","61","","16","","22","","24.1","","99.67","","","","","","Mainly Clear"
"2016-10-12 14:00","2016","10","12","14:00","22.0","","13.0","","56","","15","","23","","24.1","","99.59","","25","","","","NA"
"2016-10-12 15:00","2016","10","12","15:00","21.6","","12.3","","55","","17","","18","","24.1","","99.51","","","","","","NA"
"2016-10-12 16:00","2016","10","12","16:00","22.0","","10.0","","46","","19","","19","","24.1","","99.50","","","","","","Mostly Cloudy"
"2016-10-12 17:00","2016","10","12","17:00","21.5","","10.5","","49","","17","","13","","24.1","","99.46","","","","","","NA"
"2016-10-12 18:00","2016","10","12","18:00","20.5","","10.4","","52","","18","","10","","24.1","","99.40","","","","","","NA"
"2016-10-12 19:00","2016","10","12","19:00","19.5","","11.9","","61","","15","","12","","24.1","","99.30","","","","","","Mostly Cloudy"
"2016-10-12 20:00","2016","10","12","20:00","19.0","","12.4","","65","","17","","14","","24.1","","99.28","","","","","","NA"
"2016-10-12 21:00","2016","10","12","21:00","19.0","","11.7","","62","","18","","13","","24.1","","99.21","","","","","","NA"
"2016-10-12 22:00","2016","10","12","22:00","19.3","","11.4","","60","","18","","18","","24.1","","99.16","","","","","","Mostly Cloudy"
"2016-10-12 23:00","2016","10","12","23:00","19.8","","10.6","","55","","19","","20","","24.1","","99.07","","","","","","NA"
"2016-10-13 00:00","2016","10","13","00:00","20.0","","10.5","","54","","20","","33","","24.1","","99.00","","","","","","NA"
"2016-10-13 01:00","2016","10","13","01:00","19.9","","10.7","","55","","22","","25","","24.1","","98.96","","","","","","Cloudy"
"2016-10-13 02:00","2016","10","13","02:00","17.4","","14.7","","84","","22","","32","","24.1","","98.92","","","","","","Rain"
"2016-10-13 03:00","2016","10","13","03:00","15.5","","11.9","","79","","29","","28","","24.1","","99.02","","","","","","NA"
"2016-10-13 04:00","2016","10","13","04:00","14.2","","10.5","","78","","29","","30","","24.1","","99.12","","","","","","Mostly Cloudy"
"2016-10-13 05:00","2016","10","13","05:00","13.4","","9.5","","77","","30","","25","","24.1","","99.23","","","","","","NA"
"2016-10-13 06:00","2016","10","13","06:00","12.6","","9.1","","79","","31","","25","","24.1","","99.32","","","","","","NA"
"2016-10-13 07:00","2016","10","13","07:00","11.7","","7.6","","76","","31","","32","","24.1","","99.46","","","","","","Mostly Cloudy"
"2016-10-13 08:00","2016","10","13","08:00","11.6","","6.4","","70","","32","","26","","24.1","","99.58","","","","","","NA"
"2016-10-13 09:00","2016","10","13","09:00","12.2","","4.7","","60","","30","","40","","24.1","","99.68","","","","","","NA"
"2016-10-13 10:00","2016","10","13","10:00","12.6","","4.4","","57","","31","","33","","24.1","","99.78","","","","","","Mostly Cloudy"
"2016-10-13 11:00","2016","10","13","11:00","12.8","","3.8","","54","","31","","31","","24.1","","99.91","","","","","","NA"
"2016-10-13 12:00","2016","10","13","12:00","12.6","","2.5","","50","","30","","28","","24.1","","99.97","","","","","","NA"
"2016-10-13 13:00","2016","10","13","13:00","12.9","","1.9","","47","","31","","28","","24.1","","100.02","","","","","","Mostly Cloudy"
"2016-10-13 14:00","2016","10","13","14:00","13.6","","1.3","","43","","30","","27","","24.1","","100.07","","","","","","NA"
"2016-10-13 15:00","2016","10","13","15:00","13.3","","1.1","","43","","33","","17","","24.1","","100.12","","","","","","NA"
"2016-10-13 16:00","2016","10","13","16:00","12.8","","0.3","","42","","32","","21","","24.1","","100.21","","","","","","Mostly Cloudy"
"2016-10-13 17:00","2016","10","13","17:00","12.1","","-0.1","","43","","28","","14","","24.1","","100.28","","","","","","NA"
"2016-10-13 18:00","2016","10","13","18:00","10.1","","1.5","","55","","35","","11","","24.1","","100.33","","","","","","NA"
"2016-10-13 19:00","2016","10","13","19:00","9.0","","1.5","","59","","36","","19","","24.1","","100.38","","","","","","Clear"
"2016-10-13 20:00","2016","10","13","20:00","8.6","","1.1","","59","","35","","12","","24.1","","100.46","","","","","","NA"
"2016-10-13 21:00","2016","10","13","21:00","7.9","","0.9","","61","","31","","13","","24.1","","100.53","","","","","","NA"
"2016-10-13 22:00","2016","10","13","22:00","7.4","","0.4","","61","","31","","8","","24.1","","100.56","","","","","","Clear"
"2016-10-13 23:00","2016","10","13","23:00","6.5","","0.2","","64","","33","","9","","24.1","","100.61","","","","","","NA"
"2016-10-14 00:00","2016","10","14","00:00","5.5","","0.5","","70","","36","","2","","24.1","","100.64","","","","","","NA"
"2016-10-14 01:00","2016","10","14","01:00","5.8","","0.2","","67","","6","","3","","24.1","","100.66","","","","","","Clear"
"2016-10-14 02:00","2016","10","14","02:00","5.5","","0.3","","69","","36","","1","","24.1","","100.69","","","","","","NA"
"2016-10-14 03:00","2016","10","14","03:00","4.9","","0.7","","74","","19","","6","","24.1","","100.65","","","","","","NA"
"2016-10-14 04:00","2016","10","14","04:00","6.6","","1.5","","70","","32","","5","","24.1","","100.68","","","","","","Mostly Cloudy"
"2016-10-14 05:00","2016","10","14","05:00","6.1","","2.0","","75","","26","","8","","24.1","","100.72","","","","","","NA"
"2016-10-14 06:00","2016","10","14","06:00","7.3","","1.0","","64","","29","","6","","24.1","","100.76","","","","","","NA"
"2016-10-14 07:00","2016","10","14","07:00","7.7","","0.7","","61","","31","","5","","24.1","","100.80","","","","","","Mostly Cloudy"
"2016-10-14 08:00","2016","10","14","08:00","9.1","","1.5","","59","","24","","4","","24.1","","100.83","","","","","","NA"
"2016-10-14 09:00","2016","10","14","09:00","11.1","","1.7","","52","","19","","9","","24.1","","100.86","","","","","","NA"
"2016-10-14 10:00","2016","10","14","10:00","12.4","","2.0","","49","","18","","13","","24.1","","100.84","","","","","","Mainly Clear"
"2016-10-14 11:00","2016","10","14","11:00","13.2","","2.2","","47","","18","","5","","24.1","","100.80","","","","","","NA"
"2016-10-14 12:00","2016","10","14","12:00","13.3","","2.9","","49","","16","","9","","24.1","","100.75","","","","","","NA"
"2016-10-14 13:00","2016","10","14","13:00","13.9","","3.4","","49","","14","","13","","24.1","","100.66","","","","","","Mainly Clear"
"2016-10-14 14:00","2016","10","14","14:00","14.0","","1.7","","43","","13","","16","","24.1","","100.62","","","","","","NA"
"2016-10-14 15:00","2016","10","14","15:00","14.3","","2.6","","45","","17","","16","","24.1","","100.60","","","","","","NA"
"2016-10-14 16:00","2016","10","14","16:00","13.8","","4.2","","52","","14","","13","","24.1","","100.57","","","","","","Mainly Clear"
"2016-10-14 17:00","2016","10","14","17:00","13.1","","4.1","","54","","16","","13","","24.1","","100.58","","","","","","NA"
"2016-10-14 18:00","2016","10","14","18:00","12.2","","4.5","","59","","15","","14","","24.1","","100.56","","","","","","NA"
"2016-10-14 19:00","2016","10","14","19:00","12.3","","4.6","","59","","15","","12","","24.1","","100.57","","","","","","Mostly Cloudy"
"2016-10-14 20:00","2016","10","14","20:00","12.1","","4.9","","61","","14","","9","","24.1","","100.54","","","","","","NA"
"2016-10-14 21:00","2016","10","14","21:00","12.0","","5.2","","63","","15","","9","","24.1","","100.49","","","","","","NA"
"2016-10-14 22:00","2016","10","14","22:00","12.2","","5.4","","63","","16","","13","","24.1","","100.41","","","","","","Mostly Cloudy"
"2016-10-14 23:00","2016","10","14","23:00","11.6","","5.1","","64","","15","","9","","24.1","","100.43","","","","","","NA"
"2016-10-15 00:00","2016","10","15","00:00","10.8","","4.7","","66","","14","","7","","24.1","","100.35","","","","","","NA"
"2016-10-15 01:00","2016","10","15","01:00","10.9","","5.9","","71","","15","","5","","24.1","","100.36","","","","","","Clear"
"2016-10-15 02:00","2016","10","15","02:00","10.3","","5.9","","74","","16","","5","","24.1","","100.31","","","","","","NA"
"2016-10-15 03:00","2016","10","15","03:00","10.1","","7.0","","81","","14","","4","","24.1","","100.27","","","","","","NA"
"2016-10-15 04:00","2016","10","15","04:00","8.9","","5.7","","80","","36","","1","","24.1","","100.26","","","","","","Clear"
"2016-10-15 05:00","2016","10","15","05:00","8.8","","7.1","","89","","14","","5","","24.1","","100.27","","","","","","NA"
"2016-10-15 06:00","2016","10","15","06:00","10.2","","7.5","","83","","15","","4","","24.1","","100.30","","","","","","NA"
"2016-10-15 07:00","2016","10","15","07:00","9.0","","6.5","","84","","14","","4","","24.1","","100.30","","","","","","Mostly Cloudy"
"2016-10-15 08:00","2016","10","15","08:00","9.8","","7.2","","84","","22","","3","","24.1","","100.31","","","","","","NA"
"2016-10-15 09:00","2016","10","15","09:00","13.7","","9.4","","75","","16","","13","","24.1","","100.29","","","","","","NA"
"2016-10-15 10:00","2016","10","15","10:00","15.4","","8.5","","63","","17","","12","","24.1","","100.25","","","","","","Mainly Clear"
"2016-10-15 11:00","2016","10","15","11:00","16.6","","7.6","","55","","17","","13","","24.1","","100.19","","","","","","NA"
"2016-10-15 12:00","2016","10","15","12:00","17.4","","7.8","","53","","19","","13","","24.1","","100.13","","","","","","NA"
"2016-10-15 13:00","2016","10","15","13:00","17.7","","9.2","","57","","15","","14","","24.1","","100.04","","","","","","Mainly Clear"
"2016-10-15 14:00","2016","10","15","14:00","18.3","","8.9","","54","","15","","21","","24.1","","99.96","","","","","","NA"
"2016-10-15 15:00","2016","10","15","15:00","18.6","","9.2","","54","","14","","16","","24.1","","99.87","","","","","","NA"
"2016-10-15 16:00","2016","10","15","16:00","18.6","","10.8","","60","","14","","18","","24.1","","99.82","","","","","","Mostly Cloudy"
"2016-10-15 17:00","2016","10","15","17:00","18.2","","11.4","","64","","15","","19","","24.1","","99.78","","","","","","NA"
"2016-10-15 18:00","2016","10","15","18:00","17.1","","12.7","","75","","13","","15","","24.1","","99.75","","","","","","NA"
"2016-10-15 19:00","2016","10","15","19:00","15.8","","13.1","","84","","12","","9","","24.1","","99.73","","","","","","Mostly Cloudy"
"2016-10-15 20:00","2016","10","15","20:00","16.2","","13.4","","83","","13","","9","","24.1","","99.66","","","","","","NA"
"2016-10-15 21:00","2016","10","15","21:00","16.2","","13.9","","86","","15","","9","","24.1","","99.60","","","","","","NA"
"2016-10-15 22:00","2016","10","15","22:00","16.3","","13.8","","85","","15","","9","","24.1","","99.55","","","","","","Cloudy"
"2016-10-15 23:00","2016","10","15","23:00","17.3","","13.9","","80","","19","","9","","24.1","","99.53","","","","","","NA"
"2016-10-16 00:00","2016","10","16","00:00","18.4","","14.7","","79","","21","","10","","24.1","","99.50","","","","","","NA"
"2016-10-16 01:00","2016","10","16","01:00","19.2","","14.9","","76","","21","","21","","24.1","","99.46","","","","","","Cloudy"
"2016-10-16 02:00","2016","10","16","02:00","18.8","","14.9","","78","","21","","22","","24.1","","99.43","","","","","","NA"
"2016-10-16 03:00","2016","10","16","03:00","19.0","","15.1","","78","","23","","18","","24.1","","99.36","","","","","","NA"
"2016-10-16 04:00","2016","10","16","04:00","19.0","","15.3","","79","","23","","18","","24.1","","99.34","","","","","","Cloudy"
"2016-10-16 05:00","2016","10","16","05:00","18.9","","15.6","","81","","23","","15","","24.1","","99.34","","","","","","NA"
"2016-10-16 06:00","2016","10","16","06:00","18.8","","15.7","","82","","22","","18","","24.1","","99.30","","","","","","NA"
"2016-10-16 07:00","2016","10","16","07:00","19.0","","15.7","","81","","24","","23","","24.1","","99.30","","","","","","Mostly Cloudy"
"2016-10-16 08:00","2016","10","16","08:00","18.0","","16.4","","90","","23","","19","","24.1","","99.32","","","","","","Rain"
"2016-10-16 09:00","2016","10","16","09:00","18.6","","16.6","","88","","23","","16","","24.1","","99.31","","","","","","NA"
"2016-10-16 10:00","2016","10","16","10:00","20.2","","16.9","","81","","25","","27","","24.1","","99.30","","25","","","","Cloudy"
"2016-10-16 11:00","2016","10","16","11:00","20.5","","16.6","","78","","25","","21","","24.1","","99.29","","26","","","","NA"
"2016-10-16 12:00","2016","10","16","12:00","20.0","","16.7","","81","","23","","21","","19.3","","99.22","","25","","","","Rain"
"2016-10-16 13:00","2016","10","16","13:00","19.3","","17.6","","90","","26","","11","","19.3","","99.20","","","","","","Rain"
"2016-10-16 14:00","2016","10","16","14:00","19.7","","17.5","","87","","26","","14","","24.1","","99.18","","","","","","NA"
"2016-10-16 15:00","2016","10","16","15:00","20.1","","16.8","","81","","27","","19","","24.1","","99.21","","25","","","","NA"
"2016-10-16 16:00","2016","10","16","16:00","20.4","","15.9","","75","","27","","18","","24.1","","99.20","","25","","","","Mostly Cloudy"
"2016-10-16 17:00","2016","10","16","17:00","20.1","","14.8","","71","","28","","26","","24.1","","99.24","","","","","","NA"
"2016-10-16 18:00","2016","10","16","18:00","19.3","","15.0","","76","","26","","20","","24.1","","99.24","","","","","","NA"
"2016-10-16 19:00","2016","10","16","19:00","18.3","","15.2","","82","","24","","9","","24.1","","99.30","","","","","","Mostly Cloudy"
"2016-10-16 20:00","2016","10","16","20:00","18.2","","15.1","","82","","25","","5","","24.1","","99.30","","","","","","NA"
"2016-10-16 21:00","2016","10","16","21:00","17.7","","15.4","","86","","25","","5","","24.1","","99.35","","","","","","NA"
"2016-10-16 22:00","2016","10","16","22:00","17.4","","15.8","","90","","27","","8","","24.1","","99.36","","","","","","Cloudy"
"2016-10-16 23:00","2016","10","16","23:00","17.8","","15.6","","87","","36","","9","","24.1","","99.33","","","","","","NA"
"2016-10-17 00:00","2016","10","17","00:00","17.7","","15.5","","87","","16","","6","","24.1","","99.29","","","","","","NA"
"2016-10-17 01:00","2016","10","17","01:00","17.6","","16.0","","90","","18","","7","","24.1","","99.31","","","","","","Cloudy"
"2016-10-17 02:00","2016","10","17","02:00","17.1","","15.8","","92","","33","","3","","24.1","","99.30","","","","","","NA"
"2016-10-17 03:00","2016","10","17","03:00","16.8","","15.5","","92","","36","","7","","24.1","","99.23","","","","","","NA"
"2016-10-17 04:00","2016","10","17","04:00","16.5","","15.4","","93","","3","","9","","14.5","","99.21","","","","","","Cloudy"
"2016-10-17 05:00","2016","10","17","05:00","17.0","","15.9","","93","","8","","9","","12.9","","99.17","","","","","","NA"
"2016-10-17 06:00","2016","10","17","06:00","17.0","","15.9","","93","","12","","9","","12.9","","99.17","","","","","","NA"
"2016-10-17 07:00","2016","10","17","07:00","16.7","","16.1","","96","","11","","8","","2.0","","99.16","","","","","","Fog"
"2016-10-17 08:00","2016","10","17","08:00","16.8","","16.3","","97","","10","","10","","0.8","","99.18","","","","","","Drizzle,Fog"
"2016-10-17 09:00","2016","10","17","09:00","16.2","","15.7","","97","","10","","15","","0.4","","99.17","","","","","","Drizzle,Fog"
"2016-10-17 10:00","2016","10","17","10:00","16.1","","15.6","","97","","10","","14","","1.2","","99.09","","","","","","Drizzle,Fog"
"2016-10-17 11:00","2016","10","17","11:00","16.3","","15.8","","97","","10","","17","","1.6","","99.01","","","","","","Drizzle,Fog"
"2016-10-17 12:00","2016","10","17","12:00","16.5","","16.0","","97","","11","","10","","1.2","","98.98","","","","","","Drizzle,Fog"
"2016-10-17 13:00","2016","10","17","13:00","16.8","","16.3","","97","","11","","18","","0.2","","98.76","","","","","","Drizzle,Fog"
"2016-10-17 14:00","2016","10","17","14:00","17.7","","17.4","","98","","11","","16","","1.6","","98.73","","","","","","Fog"
"2016-10-17 15:00","2016","10","17","15:00","18.8","","18.0","","95","","11","","18","","9.7","","98.68","","","","","","Fog"
"2016-10-17 16:00","2016","10","17","16:00","21.1","","18.0","","82","","15","","11","","12.9","","98.65","","27","","","","Mostly Cloudy"
"2016-10-17 17:00","2016","10","17","17:00","21.1","","17.8","","81","","5","","14","","19.3","","98.71","","27","","","","NA"
"2016-10-17 18:00","2016","10","17","18:00","19.1","","17.5","","90","","12","","17","","24.1","","98.65","","","","","","NA"
"2016-10-17 19:00","2016","10","17","19:00","19.2","","17.0","","87","","13","","12","","24.1","","98.62","","","","","","Mostly Cloudy"
"2016-10-17 20:00","2016","10","17","20:00","19.5","","17.1","","86","","13","","10","","24.1","","98.58","","","","","","NA"
"2016-10-17 21:00","2016","10","17","21:00","19.2","","17.2","","88","","12","","8","","24.1","","98.54","","","","","","NA"
"2016-10-17 22:00","2016","10","17","22:00","19.0","","17.2","","89","","13","","10","","24.1","","98.56","","","","","","Mostly Cloudy"
"2016-10-17 23:00","2016","10","17","23:00","18.9","","16.7","","87","","11","","12","","24.1","","98.53","","","","","","NA"
"2016-10-18 00:00","2016","10","18","00:00","17.9","","16.3","","90","","14","","9","","24.1","","98.48","","","","","","NA"
"2016-10-18 01:00","2016","10","18","01:00","18.0","","15.8","","87","","15","","11","","24.1","","98.43","","","","","","Mainly Clear"
"2016-10-18 02:00","2016","10","18","02:00","20.7","","15.1","","70","","20","","15","","24.1","","98.40","","25","","","","NA"
"2016-10-18 03:00","2016","10","18","03:00","20.6","","15.2","","71","","20","","19","","24.1","","98.32","","25","","","","NA"
"2016-10-18 04:00","2016","10","18","04:00","20.3","","15.4","","73","","19","","18","","24.1","","98.27","","25","","","","Mainly Clear"
"2016-10-18 05:00","2016","10","18","05:00","20.8","","15.7","","72","","21","","21","","24.1","","98.23","","25","","","","NA"
"2016-10-18 06:00","2016","10","18","06:00","21.6","","15.8","","69","","22","","26","","24.1","","98.19","","26","","","","NA"
"2016-10-18 07:00","2016","10","18","07:00","21.8","","16.0","","69","","22","","32","","24.1","","98.16","","26","","","","Mainly Clear"
"2016-10-18 08:00","2016","10","18","08:00","22.5","","15.9","","66","","23","","32","","24.1","","98.21","","27","","","","NA"
"2016-10-18 09:00","2016","10","18","09:00","23.3","","16.5","","65","","23","","31","","24.1","","98.17","","28","","","","NA"
"2016-10-18 10:00","2016","10","18","10:00","23.9","","16.3","","62","","23","","37","","24.1","","98.12","","29","","","","Mostly Cloudy"
"2016-10-18 11:00","2016","10","18","11:00","24.8","","16.4","","59","","22","","39","","24.1","","98.07","","30","","","","NA"
"2016-10-18 12:00","2016","10","18","12:00","24.7","","16.8","","61","","22","","38","","24.1","","98.07","","30","","","","NA"
"2016-10-18 13:00","2016","10","18","13:00","25.2","","17.0","","60","","23","","38","","24.1","","98.04","","30","","","","Mostly Cloudy"
"2016-10-18 14:00","2016","10","18","14:00","25.1","","17.4","","62","","24","","37","","24.1","","98.11","","31","","","","NA"
"2016-10-18 15:00","2016","10","18","15:00","24.0","","17.4","","66","","24","","44","","24.1","","98.17","","30","","","","NA"
"2016-10-18 16:00","2016","10","18","16:00","24.5","","17.6","","65","","24","","36","","24.1","","98.21","","30","","","","Mostly Cloudy"
"2016-10-18 17:00","2016","10","18","17:00","23.7","","17.6","","68","","23","","26","","24.1","","98.23","","29","","","","NA"
"2016-10-18 18:00","2016","10","18","18:00","22.7","","17.9","","74","","24","","28","","24.1","","98.33","","29","","","","NA"
"2016-10-18 19:00","2016","10","18","19:00","19.4","","14.9","","75","","31","","29","","24.1","","98.55","","","","","","Mainly Clear"
"2016-10-18 20:00","2016","10","18","20:00","17.9","","13.5","","75","","34","","23","","24.1","","98.67","","","","","","NA"
"2016-10-18 21:00","2016","10","18","21:00","15.9","","11.5","","75","","32","","19","","24.1","","98.76","","","","","","NA"
"2016-10-18 22:00","2016","10","18","22:00","15.0","","10.5","","74","","31","","19","","24.1","","98.89","","","","","","Clear"
"2016-10-18 23:00","2016","10","18","23:00","14.2","","10.7","","79","","31","","11","","24.1","","98.96","","","","","","NA"
"2016-10-19 00:00","2016","10","19","00:00","13.1","","10.5","","84","","29","","12","","24.1","","99.04","","","","","","NA"
"2016-10-19 01:00","2016","10","19","01:00","12.5","","10.1","","85","","29","","10","","24.1","","99.12","","","","","","Clear"
"2016-10-19 02:00","2016","10","19","02:00","12.3","","10.2","","87","","28","","13","","24.1","","99.22","","","","","","NA"
"2016-10-19 03:00","2016","10","19","03:00","12.3","","10.6","","89","","27","","7","","24.1","","99.30","","","","","","NA"
"2016-10-19 04:00","2016","10","19","04:00","11.6","","10.2","","91","","25","","8","","24.1","","99.37","","","","","","Clear"
"2016-10-19 05:00","2016","10","19","05:00","10.6","","9.2","","91","","26","","11","","24.1","","99.45","","","","","","NA"
"2016-10-19 06:00","2016","10","19","06:00","11.1","","9.2","","88","","27","","10","","24.1","","99.52","","","","","","NA"
"2016-10-19 07:00","2016","10","19","07:00","11.1","","9.4","","89","","24","","13","","24.1","","99.61","","","","","","Clear"
"2016-10-19 08:00","2016","10","19","08:00","13.0","","10.4","","84","","26","","13","","24.1","","99.71","","","","","","NA"
"2016-10-19 09:00","2016","10","19","09:00","14.7","","10.2","","74","","27","","13","","24.1","","99.78","","","","","","NA"
"2016-10-19 10:00","2016","10","19","10:00","16.1","","10.5","","69","","27","","4","","24.1","","99.80","","","","","","Clear"
"2016-10-19 11:00","2016","10","19","11:00","17.7","","9.7","","59","","32","","14","","24.1","","99.82","","","","","","NA"
"2016-10-19 12:00","2016","10","19","12:00","18.9","","9.5","","54","","27","","10","","24.1","","99.84","","","","","","NA"
"2016-10-19 13:00","2016","10","19","13:00","20.0","","8.8","","48","","22","","8","","24.1","","99.79","","","","","","Clear"
"2016-10-19 14:00","2016","10","19","14:00","20.6","","7.4","","42","","26","","10","","24.1","","99.78","","","","","","NA"
"2016-10-19 15:00","2016","10","19","15:00","20.1","","9.2","","49","","17","","7","","24.1","","99.80","","","","","","NA"
"2016-10-19 16:00","2016","10","19","16:00","19.9","","9.9","","52","","17","","15","","24.1","","99.82","","","","","","Mainly Clear"
"2016-10-19 17:00","2016","10","19","17:00","18.1","","10.3","","60","","16","","10","","24.1","","99.83","","","","","","NA"
"2016-10-19 18:00","2016","10","19","18:00","17.1","","11.0","","67","","16","","12","","24.1","","99.83","","","","","","NA"
"2016-10-19 19:00","2016","10","19","19:00","16.7","","11.7","","72","","19","","10","","24.1","","99.91","","","","","","Mainly Clear"
"2016-10-19 20:00","2016","10","19","20:00","16.9","","11.5","","70","","22","","12","","24.1","","99.94","","","","","","NA"
"2016-10-19 21:00","2016","10","19","21:00","16.2","","11.0","","71","","21","","9","","24.1","","99.95","","","","","","NA"
"2016-10-19 22:00","2016","10","19","22:00","15.8","","11.0","","73","","36","","1","","24.1","","99.97","","","","","","Mainly Clear"
"2016-10-19 23:00","2016","10","19","23:00","15.2","","11.2","","77","","30","","5","","24.1","","99.90","","","","","","NA"
"2016-10-20 00:00","2016","10","20","00:00","14.5","","11.3","","81","","36","","2","","24.1","","99.85","","","","","","NA"
"2016-10-20 01:00","2016","10","20","01:00","14.4","","11.4","","82","","28","","5","","24.1","","99.89","","","","","","Cloudy"
"2016-10-20 02:00","2016","10","20","02:00","14.8","","11.2","","79","","34","","9","","24.1","","99.93","","","","","","Rain Showers"
"2016-10-20 03:00","2016","10","20","03:00","13.6","","11.7","","88","","4","","7","","24.1","","99.90","","","","","","Rain Showers"
"2016-10-20 04:00","2016","10","20","04:00","13.5","","12.2","","92","","4","","10","","24.1","","99.86","","","","","","Rain Showers"
"2016-10-20 05:00","2016","10","20","05:00","14.0","","12.4","","90","","16","","6","","24.1","","99.82","","","","","","Rain Showers"
"2016-10-20 06:00","2016","10","20","06:00","14.1","","12.7","","91","","13","","6","","16.1","","99.86","","","","","","Rain Showers"
"2016-10-20 07:00","2016","10","20","07:00","14.7","","13.8","","94","","12","","10","","11.3","","99.91","","","","","","Rain Showers"
"2016-10-20 08:00","2016","10","20","08:00","14.5","","13.4","","93","","7","","7","","24.1","","99.82","","","","","","Rain"
"2016-10-20 09:00","2016","10","20","09:00","14.4","","11.9","","85","","12","","12","","24.1","","99.83","","","","","","Rain"
"2016-10-20 10:00","2016","10","20","10:00","14.1","","9.6","","74","","10","","17","","24.1","","99.77","","","","","","Rain"
"2016-10-20 11:00","2016","10","20","11:00","13.5","","9.6","","77","","9","","10","","24.1","","99.76","","","","","","Rain"
"2016-10-20 12:00","2016","10","20","12:00","13.0","","10.4","","84","","9","","11","","24.1","","99.69","","","","","","Rain"
"2016-10-20 13:00","2016","10","20","13:00","12.4","","10.5","","88","","8","","10","","16.1","","99.63","","","","","","Rain"
"2016-10-20 14:00","2016","10","20","14:00","12.1","","11.0","","93","","6","","10","","11.3","","99.58","","","","","","Rain"
"2016-10-20 15:00","2016","10","20","15:00","12.1","","11.2","","94","","3","","16","","12.9","","99.60","","","","","","Rain"
"2016-10-20 16:00","2016","10","20","16:00","11.6","","10.7","","94","","2","","17","","9.7","","99.59","","","","","","Rain"
"2016-10-20 17:00","2016","10","20","17:00","11.3","","10.4","","94","","4","","15","","16.1","","99.51","","","","","","Rain"
"2016-10-20 18:00","2016","10","20","18:00","11.5","","10.4","","93","","35","","18","","16.1","","99.53","","","","","","Rain"
"2016-10-20 19:00","2016","10","20","19:00","11.3","","10.4","","94","","36","","21","","16.1","","99.56","","","","","","Rain"
"2016-10-20 20:00","2016","10","20","20:00","11.2","","10.3","","94","","1","","19","","16.1","","99.46","","","","","","Rain"
"2016-10-20 21:00","2016","10","20","21:00","11.4","","10.5","","94","","1","","18","","24.1","","99.44","","","","","","Rain"
"2016-10-20 22:00","2016","10","20","22:00","11.6","","10.2","","91","","1","","18","","24.1","","99.37","","","","","","Cloudy"
"2016-10-20 23:00","2016","10","20","23:00","11.3","","10.1","","92","","1","","20","","24.1","","99.34","","","","","","Rain"
"2016-10-21 00:00","2016","10","21","00:00","11.3","","9.9","","91","","36","","18","","24.1","","99.32","","","","","","Rain"
"2016-10-21 01:00","2016","10","21","01:00","11.3","","10.1","","92","","35","","19","","24.1","","99.30","","","","","","Rain"
"2016-10-21 02:00","2016","10","21","02:00","11.2","","10.1","","93","","35","","19","","16.1","","99.32","","","","","","Rain"
"2016-10-21 03:00","2016","10","21","03:00","10.9","","10.0","","94","","36","","17","","24.1","","99.25","","","","","","Rain"
"2016-10-21 04:00","2016","10","21","04:00","10.8","","9.9","","94","","1","","18","","24.1","","99.16","","","","","","Rain"
"2016-10-21 05:00","2016","10","21","05:00","10.9","","9.8","","93","","36","","16","","24.1","","99.14","","","","","","NA"
"2016-10-21 06:00","2016","10","21","06:00","11.1","","9.5","","90","","1","","20","","24.1","","99.13","","","","","","NA"
"2016-10-21 07:00","2016","10","21","07:00","10.8","","9.6","","92","","36","","18","","19.3","","99.15","","","","","","Rain"
"2016-10-21 08:00","2016","10","21","08:00","10.3","","9.1","","92","","35","","22","","14.5","","99.21","","","","","","Rain"
"2016-10-21 09:00","2016","10","21","09:00","9.5","","8.4","","93","","35","","25","","16.1","","99.18","","","","","","Rain"
"2016-10-21 10:00","2016","10","21","10:00","8.4","","7.0","","91","","35","","29","","24.1","","99.16","","","","","","Rain"
"2016-10-21 11:00","2016","10","21","11:00","8.1","","6.2","","88","","35","","25","","24.1","","99.18","","","","","","Rain"
"2016-10-21 12:00","2016","10","21","12:00","7.9","","5.2","","83","","35","","30","","24.1","","99.20","","","","","","Rain"
"2016-10-21 13:00","2016","10","21","13:00","7.7","","4.8","","82","","34","","34","","24.1","","99.17","","","","","","Rain"
"2016-10-21 14:00","2016","10","21","14:00","7.4","","4.9","","84","","35","","32","","24.1","","99.16","","","","","","Rain"
"2016-10-21 15:00","2016","10","21","15:00","7.3","","4.6","","83","","35","","31","","24.1","","99.09","","","","","","Rain"
"2016-10-21 16:00","2016","10","21","16:00","7.6","","4.2","","79","","35","","28","","24.1","","99.15","","","","","","Rain"
"2016-10-21 17:00","2016","10","21","17:00","7.8","","3.7","","75","","35","","25","","24.1","","99.18","","","","","","NA"
"2016-10-21 18:00","2016","10","21","18:00","7.7","","2.8","","71","","35","","36","","80.5","","99.19","","","","","","NA"
"2016-10-21 19:00","2016","10","21","19:00","7.4","","2.5","","71","","35","","27","","24.1","","99.21","","","","","","Mostly Cloudy"
"2016-10-21 20:00","2016","10","21","20:00","7.1","","1.8","","69","","35","","26","","24.1","","99.20","","","","","","NA"
"2016-10-21 21:00","2016","10","21","21:00","6.7","","1.6","","70","","36","","30","","24.1","","99.18","","","","","","NA"
"2016-10-21 22:00","2016","10","21","22:00","6.5","","1.6","","71","","35","","28","","24.1","","99.14","","","","","","Mostly Cloudy"
"2016-10-21 23:00","2016","10","21","23:00","5.8","","1.0","","71","","36","","26","","24.1","","99.10","","","","","","NA"
"2016-10-22 00:00","2016","10","22","00:00","5.4","","-0.2","","67","","35","","32","","24.1","","99.05","","","","","","NA"
"2016-10-22 01:00","2016","10","22","01:00","4.8","","-0.8","","67","","36","","32","","24.1","","99.04","","","","","","Mainly Clear"
"2016-10-22 02:00","2016","10","22","02:00","4.2","","-0.8","","70","","35","","25","","24.1","","99.00","","","","","","NA"
"2016-10-22 03:00","2016","10","22","03:00","4.3","","-0.9","","69","","34","","26","","24.1","","98.95","","","","","","NA"
"2016-10-22 04:00","2016","10","22","04:00","4.0","","-1.4","","68","","34","","31","","24.1","","98.94","","","","","","Mainly Clear"
"2016-10-22 05:00","2016","10","22","05:00","3.8","","-1.6","","68","","34","","31","","24.1","","98.92","","","","","","NA"
"2016-10-22 06:00","2016","10","22","06:00","3.8","","-1.2","","70","","35","","41","","24.1","","98.88","","","","","","NA"
"2016-10-22 07:00","2016","10","22","07:00","3.4","","-1.0","","73","","33","","32","","24.1","","98.84","","","","","","Mainly Clear"
"2016-10-22 08:00","2016","10","22","08:00","4.8","","-0.2","","70","","33","","28","","24.1","","98.85","","","","","","NA"
"2016-10-22 09:00","2016","10","22","09:00","5.2","","0.2","","70","","34","","39","","24.1","","98.82","","","","","","NA"
"2016-10-22 10:00","2016","10","22","10:00","6.0","","0.6","","68","","32","","37","","24.1","","98.81","","","","","","Mostly Cloudy"
"2016-10-22 11:00","2016","10","22","11:00","6.2","","0.5","","67","","33","","43","","24.1","","98.84","","","","","","NA"
"2016-10-22 12:00","2016","10","22","12:00","7.6","","0.8","","62","","35","","30","","24.1","","98.78","","","","","","NA"
"2016-10-22 13:00","2016","10","22","13:00","8.1","","0.1","","57","","33","","43","","24.1","","98.77","","","","","","Mostly Cloudy"
"2016-10-22 14:00","2016","10","22","14:00","8.3","","0.1","","56","","32","","46","","24.1","","98.76","","","","","","NA"
"2016-10-22 15:00","2016","10","22","15:00","7.9","","-0.6","","55","","33","","39","","24.1","","98.77","","","","","","NA"
"2016-10-22 16:00","2016","10","22","16:00","7.6","","-0.4","","57","","30","","43","","24.1","","98.78","","","","","","Mainly Clear"
"2016-10-22 17:00","2016","10","22","17:00","6.8","","-0.9","","58","","31","","36","","24.1","","98.86","","","","","","NA"
"2016-10-22 18:00","2016","10","22","18:00","6.3","","-1.4","","58","","30","","31","","24.1","","98.91","","","","","","NA"
"2016-10-22 19:00","2016","10","22","19:00","5.7","","-1.2","","61","","30","","40","","24.1","","98.91","","","","","","Mainly Clear"
"2016-10-22 20:00","2016","10","22","20:00","5.4","","-0.4","","66","","30","","40","","24.1","","98.88","","","","","","NA"
"2016-10-22 21:00","2016","10","22","21:00","4.9","","-0.1","","70","","29","","27","","24.1","","98.90","","","","","","NA"
"2016-10-22 22:00","2016","10","22","22:00","4.7","","0.3","","73","","29","","24","","24.1","","98.91","","","","","","Mainly Clear"
"2016-10-22 23:00","2016","10","22","23:00","4.2","","0.0","","74","","28","","26","","24.1","","98.91","","","","","","NA"
"2016-10-23 00:00","2016","10","23","00:00","3.6","","-0.2","","76","","26","","21","","24.1","","98.94","","","","","","NA"
"2016-10-23 01:00","2016","10","23","01:00","3.5","","0.2","","79","","26","","22","","24.1","","98.98","","","","","","Mainly Clear"
"2016-10-23 02:00","2016","10","23","02:00","3.2","","0.6","","83","","26","","20","","24.1","","98.99","","","","","","NA"
"2016-10-23 03:00","2016","10","23","03:00","4.7","","0.3","","73","","28","","20","","24.1","","98.98","","","","","","NA"
"2016-10-23 04:00","2016","10","23","04:00","5.5","","0.3","","69","","27","","23","","24.1","","99.00","","","","","","Mostly Cloudy"
"2016-10-23 05:00","2016","10","23","05:00","6.1","","0.9","","69","","27","","18","","24.1","","99.05","","","","","","NA"
"2016-10-23 06:00","2016","10","23","06:00","6.4","","0.9","","68","","27","","19","","24.1","","99.06","","","","","","NA"
"2016-10-23 07:00","2016","10","23","07:00","5.6","","1.2","","73","","25","","18","","24.1","","99.11","","","","","","Mainly Clear"
"2016-10-23 08:00","2016","10","23","08:00","6.8","","1.3","","68","","27","","18","","24.1","","99.15","","","","","","NA"
"2016-10-23 09:00","2016","10","23","09:00","8.2","","2.5","","67","","28","","22","","24.1","","99.18","","","","","","NA"
"2016-10-23 10:00","2016","10","23","10:00","9.2","","3.0","","65","","27","","19","","24.1","","99.18","","","","","","Mostly Cloudy"
"2016-10-23 11:00","2016","10","23","11:00","10.4","","4.4","","66","","27","","17","","24.1","","99.14","","","","","","NA"
"2016-10-23 12:00","2016","10","23","12:00","11.7","","5.8","","67","","27","","19","","24.1","","99.08","","","","","","NA"
"2016-10-23 13:00","2016","10","23","13:00","12.7","","5.4","","61","","29","","18","","24.1","","99.02","","","","","","Mostly Cloudy"
"2016-10-23 14:00","2016","10","23","14:00","14.6","","5.2","","53","","25","","26","","24.1","","98.98","","","","","","NA"
"2016-10-23 15:00","2016","10","23","15:00","14.1","","4.5","","52","","27","","24","","24.1","","98.94","","","","","","NA"
"2016-10-23 16:00","2016","10","23","16:00","13.5","","5.0","","56","","28","","23","","24.1","","98.93","","","","","","Mostly Cloudy"
"2016-10-23 17:00","2016","10","23","17:00","13.2","","4.2","","54","","28","","25","","24.1","","98.93","","","","","","NA"
"2016-10-23 18:00","2016","10","23","18:00","12.3","","5.1","","61","","28","","17","","24.1","","98.97","","","","","","NA"
"2016-10-23 19:00","2016","10","23","19:00","11.7","","5.4","","65","","29","","12","","24.1","","98.99","","","","","","Mostly Cloudy"
"2016-10-23 20:00","2016","10","23","20:00","10.6","","5.4","","70","","32","","18","","24.1","","98.93","","","","","","NA"
"2016-10-23 21:00","2016","10","23","21:00","10.6","","4.8","","67","","31","","18","","24.1","","98.92","","","","","","NA"
"2016-10-23 22:00","2016","10","23","22:00","9.4","","4.8","","73","","32","","19","","24.1","","98.91","","","","","","Mostly Cloudy"
"2016-10-23 23:00","2016","10","23","23:00","8.4","","4.1","","74","","29","","9","","24.1","","98.96","","","","","","NA"
"2016-10-24 00:00","2016","10","24","00:00","7.2","","4.4","","82","","29","","14","","24.1","","99.01","","","","","","NA"
"2016-10-24 01:00","2016","10","24","01:00","5.9","","4.1","","88","","28","","13","","24.1","","99.09","","","","","","Mainly Clear"
"2016-10-24 02:00","2016","10","24","02:00","6.5","","4.0","","84","","28","","10","","24.1","","99.16","","","","","","NA"
"2016-10-24 03:00","2016","10","24","03:00","8.4","","4.3","","75","","29","","14","","24.1","","99.26","","","","","","NA"
"2016-10-24 04:00","2016","10","24","04:00","7.9","","3.0","","71","","36","","18","","24.1","","99.31","","","","","","Mostly Cloudy"
"2016-10-24 05:00","2016","10","24","05:00","7.3","","2.6","","72","","35","","17","","24.1","","99.42","","","","","","NA"
"2016-10-24 06:00","2016","10","24","06:00","7.2","","1.1","","65","","31","","21","","24.1","","99.48","","","","","","NA"
"2016-10-24 07:00","2016","10","24","07:00","7.1","","-1.6","","54","","31","","32","","24.1","","99.56","","","","","","Mostly Cloudy"
"2016-10-24 08:00","2016","10","24","08:00","7.4","","-0.8","","56","","33","","12","","24.1","","99.64","","","","","","NA"
"2016-10-24 09:00","2016","10","24","09:00","7.8","","-0.7","","55","","31","","31","","24.1","","99.70","","","","","","NA"
"2016-10-24 10:00","2016","10","24","10:00","8.7","","-1.1","","50","","30","","34","","24.1","","99.74","","","","","","Mostly Cloudy"
"2016-10-24 11:00","2016","10","24","11:00","8.7","","-2.0","","47","","30","","34","","24.1","","99.81","","","","","","NA"
"2016-10-24 12:00","2016","10","24","12:00","9.4","","-2.2","","44","","31","","37","","24.1","","99.84","","","","","","NA"
"2016-10-24 13:00","2016","10","24","13:00","10.1","","-1.9","","43","","30","","35","","24.1","","99.86","","","","","","Mostly Cloudy"
"2016-10-24 14:00","2016","10","24","14:00","9.8","","-2.5","","42","","30","","39","","24.1","","99.91","","","","","","NA"
"2016-10-24 15:00","2016","10","24","15:00","9.5","","-1.5","","46","","32","","43","","24.1","","99.95","","","","","","NA"
"2016-10-24 16:00","2016","10","24","16:00","8.9","","-0.4","","52","","32","","38","","24.1","","99.99","","","","","","Mostly Cloudy"
"2016-10-24 17:00","2016","10","24","17:00","7.9","","-0.6","","55","","31","","38","","24.1","","100.07","","","","","","NA"
"2016-10-24 18:00","2016","10","24","18:00","7.4","","-2.3","","50","","34","","35","","24.1","","100.14","","","","","","NA"
"2016-10-24 19:00","2016","10","24","19:00","6.8","","-1.6","","55","","31","","30","","24.1","","100.19","","","","","","Mostly Cloudy"
"2016-10-24 20:00","2016","10","24","20:00","5.5","","-1.6","","60","","28","","15","","24.1","","100.23","","","","","","NA"
"2016-10-24 21:00","2016","10","24","21:00","5.5","","-0.3","","66","","26","","21","","24.1","","100.27","","","","","","NA"
"2016-10-24 22:00","2016","10","24","22:00","5.4","","-0.4","","66","","27","","17","","24.1","","100.29","","","","","","Mostly Cloudy"
"2016-10-24 23:00","2016","10","24","23:00","5.8","","-0.3","","65","","28","","23","","24.1","","100.26","","","","","","NA"
"2016-10-25 00:00","2016","10","25","00:00","5.6","","-0.9","","63","","31","","16","","24.1","","100.27","","","","","","NA"
"2016-10-25 01:00","2016","10","25","01:00","4.8","","-1.2","","65","","32","","19","","24.1","","100.29","","","","","","Mostly Cloudy"
"2016-10-25 02:00","2016","10","25","02:00","4.9","","-1.3","","64","","31","","14","","24.1","","100.32","","","","","","NA"
"2016-10-25 03:00","2016","10","25","03:00","4.8","","-0.8","","67","","29","","16","","24.1","","100.34","","","","","","NA"
"2016-10-25 04:00","2016","10","25","04:00","5.0","","-1.2","","64","","32","","11","","24.1","","100.37","","","","","","Mostly Cloudy"
"2016-10-25 05:00","2016","10","25","05:00","5.4","","-2.7","","56","","31","","20","","24.1","","100.41","","","","","","NA"
"2016-10-25 06:00","2016","10","25","06:00","3.9","","-0.3","","74","","1","","21","","24.1","","100.47","","","","","","NA"
"2016-10-25 07:00","2016","10","25","07:00","4.1","","-0.5","","72","","35","","27","","24.1","","100.55","","","","","","Mostly Cloudy"
"2016-10-25 08:00","2016","10","25","08:00","4.7","","-1.3","","65","","34","","17","","24.1","","100.58","","","","","","NA"
"2016-10-25 09:00","2016","10","25","09:00","4.4","","0.0","","73","","33","","36","","24.1","","100.62","","","","","","NA"
"2016-10-25 10:00","2016","10","25","10:00","5.6","","0.4","","69","","33","","21","","24.1","","100.65","","","","","","Mostly Cloudy"
"2016-10-25 11:00","2016","10","25","11:00","6.4","","0.1","","64","","34","","20","","24.1","","100.65","","","","","","NA"
"2016-10-25 12:00","2016","10","25","12:00","6.6","","0.1","","63","","34","","19","","24.1","","100.67","","","","","","NA"
"2016-10-25 13:00","2016","10","25","13:00","6.1","","-0.9","","61","","35","","30","","24.1","","100.67","","","","","","Mainly Clear"
"2016-10-25 14:00","2016","10","25","14:00","7.7","","-0.8","","55","","33","","28","","24.1","","100.64","","","","","","NA"
"2016-10-25 15:00","2016","10","25","15:00","7.1","","-2.6","","50","","34","","28","","24.1","","100.65","","","","","","NA"
"2016-10-25 16:00","2016","10","25","16:00","6.5","","-3.4","","49","","35","","30","","24.1","","100.68","","","","","","Mainly Clear"
"2016-10-25 17:00","2016","10","25","17:00","5.3","","-3.5","","53","","36","","32","","24.1","","100.73","","","","","","NA"
"2016-10-25 18:00","2016","10","25","18:00","4.2","","-3.1","","59","","36","","18","","24.1","","100.83","","","","","","NA"
"2016-10-25 19:00","2016","10","25","19:00","3.7","","-3.4","","60","","1","","16","","24.1","","100.91","","","","","","Mainly Clear"
"2016-10-25 20:00","2016","10","25","20:00","4.0","","-4.7","","53","","35","","14","","24.1","","100.94","","","","","","NA"
"2016-10-25 21:00","2016","10","25","21:00","4.2","","-5.1","","51","","35","","12","","24.1","","100.95","","","","","","NA"
"2016-10-25 22:00","2016","10","25","22:00","4.1","","-4.6","","53","","33","","10","","24.1","","100.97","","","","","","Mostly Cloudy"
"2016-10-25 23:00","2016","10","25","23:00","3.9","","-4.1","","56","","32","","9","","24.1","","101.00","","","","","","NA"
"2016-10-26 00:00","2016","10","26","00:00","3.9","","-4.8","","53","","35","","13","","24.1","","101.00","","","","","","NA"
"2016-10-26 01:00","2016","10","26","01:00","3.5","","-4.5","","56","","35","","12","","24.1","","100.99","","","","","","Mostly Cloudy"
"2016-10-26 02:00","2016","10","26","02:00","2.4","","-4.8","","59","","1","","12","","24.1","","100.98","","","","","","NA"
"2016-10-26 03:00","2016","10","26","03:00","1.7","","-4.6","","63","","1","","10","","24.1","","101.04","","","","","","NA"
"2016-10-26 04:00","2016","10","26","04:00","1.0","","-5.1","","64","","36","","12","","24.1","","101.09","","","","","","Clear"
"2016-10-26 05:00","2016","10","26","05:00","0.3","","-4.4","","71","","32","","12","","24.1","","101.13","","","","","","NA"
"2016-10-26 06:00","2016","10","26","06:00","0.8","","-5.1","","65","","31","","9","","24.1","","101.15","","","","","","NA"
"2016-10-26 07:00","2016","10","26","07:00","0.6","","-5.7","","63","","32","","8","","24.1","","101.19","","","","","","Mainly Clear"
"2016-10-26 08:00","2016","10","26","08:00","2.1","","-5.8","","56","","32","","8","","24.1","","101.22","","","","","","NA"
"2016-10-26 09:00","2016","10","26","09:00","2.8","","-5.6","","54","","36","","13","","24.1","","101.20","","","","","","NA"
"2016-10-26 10:00","2016","10","26","10:00","3.5","","-7.6","","44","","8","","7","","24.1","","101.19","","","","","","Cloudy"
"2016-10-26 11:00","2016","10","26","11:00","4.1","","-7.4","","43","","1","","5","","24.1","","101.19","","","","","","NA"
"2016-10-26 12:00","2016","10","26","12:00","4.4","","-6.8","","44","","1","","6","","24.1","","101.13","","","","","","NA"
"2016-10-26 13:00","2016","10","26","13:00","4.7","","-6.2","","45","","4","","7","","24.1","","101.05","","","","","","Cloudy"
"2016-10-26 14:00","2016","10","26","14:00","4.8","","-6.5","","44","","3","","5","","24.1","","100.97","","","","","","NA"
"2016-10-26 15:00","2016","10","26","15:00","4.8","","-6.5","","44","","15","","8","","24.1","","100.92","","","","","","NA"
"2016-10-26 16:00","2016","10","26","16:00","4.6","","-5.2","","49","","12","","11","","24.1","","100.92","","","","","","Cloudy"
"2016-10-26 17:00","2016","10","26","17:00","4.3","","-5.2","","50","","10","","14","","24.1","","100.87","","","","","","NA"
"2016-10-26 18:00","2016","10","26","18:00","4.3","","-5.5","","49","","10","","8","","24.1","","100.92","","","","","","NA"
"2016-10-26 19:00","2016","10","26","19:00","4.4","","-5.4","","49","","8","","13","","24.1","","100.87","","","","","","Cloudy"
"2016-10-26 20:00","2016","10","26","20:00","4.6","","-4.4","","52","","8","","13","","24.1","","100.81","","","","","","NA"
"2016-10-26 21:00","2016","10","26","21:00","4.9","","-3.6","","54","","10","","18","","24.1","","100.75","","","","","","NA"
"2016-10-26 22:00","2016","10","26","22:00","5.0","","-3.1","","56","","8","","15","","24.1","","100.74","","","","","","Cloudy"
"2016-10-26 23:00","2016","10","26","23:00","5.0","","-1.7","","62","","10","","16","","24.1","","100.67","","","","","","Rain"
"2016-10-27 00:00","2016","10","27","00:00","4.2","","0.2","","75","","10","","26","","14.5","","100.63","","","","","","Rain"
"2016-10-27 01:00","2016","10","27","01:00","3.5","","1.2","","85","","9","","17","","14.5","","100.55","","","","","","Rain"
"2016-10-27 02:00","2016","10","27","02:00","2.9","","1.3","","89","","8","","12","","16.1","","100.46","","","","","","Rain"
"2016-10-27 03:00","2016","10","27","03:00","3.8","","2.3","","90","","10","","22","","16.1","","100.34","","","","","","Rain"
"2016-10-27 04:00","2016","10","27","04:00","3.7","","2.4","","91","","11","","25","","9.7","","100.20","","","","","","Rain"
"2016-10-27 05:00","2016","10","27","05:00","3.6","","2.4","","92","","10","","36","","24.1","","100.09","","","","","","Rain"
"2016-10-27 06:00","2016","10","27","06:00","4.0","","3.0","","93","","8","","23","","8.1","","99.94","","","","","","Rain,Fog"
"2016-10-27 07:00","2016","10","27","07:00","4.7","","3.7","","93","","9","","26","","9.7","","99.86","","","","","","Drizzle,Fog"
"2016-10-27 08:00","2016","10","27","08:00","5.0","","3.5","","90","","10","","23","","9.7","","99.76","","","","","","Rain"
"2016-10-27 09:00","2016","10","27","09:00","4.9","","3.6","","91","","10","","20","","16.1","","99.65","","","","","","Rain"
"2016-10-27 10:00","2016","10","27","10:00","5.1","","3.9","","92","","9","","17","","19.3","","99.56","","","","","","Rain"
"2016-10-27 11:00","2016","10","27","11:00","5.2","","4.2","","93","","7","","13","","2.4","","99.50","","","","","","Rain,Fog"
"2016-10-27 12:00","2016","10","27","12:00","4.0","","3.3","","95","","36","","21","","3.6","","99.45","","","","","","Rain,Fog"
"2016-10-27 13:00","2016","10","27","13:00","3.6","","2.9","","95","","1","","27","","8.1","","99.40","","","","","","Rain,Fog"
"2016-10-27 14:00","2016","10","27","14:00","2.4","","1.5","","94","","2","","34","","9.7","","99.35","","","","","","Rain,Fog"
"2016-10-27 15:00","2016","10","27","15:00","1.7","","0.4","","91","","36","","27","","12.9","","99.41","","","","","","Rain"
"2016-10-27 16:00","2016","10","27","16:00","1.2","","-0.3","","90","","35","","23","","4.8","","99.51","","","","","","Drizzle,Fog"
"2016-10-27 17:00","2016","10","27","17:00","0.8","","-0.4","","92","","35","","27","","8.1","","99.60","","","","","","Drizzle,Fog"
"2016-10-27 18:00","2016","10","27","18:00","1.0","","-0.8","","88","","34","","27","","12.9","","99.70","","","","","","Snow"
"2016-10-27 19:00","2016","10","27","19:00","1.0","","-0.5","","90","","32","","26","","24.1","","99.80","","","","","","Cloudy"
"2016-10-27 20:00","2016","10","27","20:00","0.9","","-1.0","","87","","32","","28","","24.1","","99.88","","","","","","NA"
"2016-10-27 21:00","2016","10","27","21:00","0.8","","-1.3","","86","","32","","25","","24.1","","99.90","","","","","","NA"
"2016-10-27 22:00","2016","10","27","22:00","0.9","","-1.3","","85","","30","","22","","24.1","","99.99","","","","","","Cloudy"
"2016-10-27 23:00","2016","10","27","23:00","1.2","","-1.5","","82","","30","","20","","24.1","","99.98","","","","","","NA"
"2016-10-28 00:00","2016","10","28","00:00","1.6","","-0.8","","84","","30","","13","","24.1","","100.00","","","","","","NA"
"2016-10-28 01:00","2016","10","28","01:00","2.0","","-0.4","","84","","32","","13","","24.1","","100.03","","","","","","Mostly Cloudy"
"2016-10-28 02:00","2016","10","28","02:00","1.1","","-0.7","","88","","32","","8","","24.1","","100.09","","","","","","NA"
"2016-10-28 03:00","2016","10","28","03:00","1.2","","-0.9","","86","","33","","8","","24.1","","100.12","","","","","","NA"
"2016-10-28 04:00","2016","10","28","04:00","1.1","","-1.1","","85","","30","","14","","24.1","","100.17","","","","","","Clear"
"2016-10-28 05:00","2016","10","28","05:00","0.6","","-1.5","","86","","29","","13","","24.1","","100.25","","","","","","NA"
"2016-10-28 06:00","2016","10","28","06:00","1.6","","-1.5","","80","","32","","19","","24.1","","100.31","","","","","","NA"
"2016-10-28 07:00","2016","10","28","07:00","1.0","","-1.4","","84","","34","","9","","24.1","","100.37","","","","","","Mostly Cloudy"
"2016-10-28 08:00","2016","10","28","08:00","1.4","","-1.8","","79","","30","","10","","24.1","","100.46","","","","","","NA"
"2016-10-28 09:00","2016","10","28","09:00","2.9","","-0.7","","77","","36","","14","","24.1","","100.46","","","","","","NA"
"2016-10-28 10:00","2016","10","28","10:00","4.3","","-0.7","","70","","34","","11","","24.1","","100.48","","","","","","Mostly Cloudy"
"2016-10-28 11:00","2016","10","28","11:00","6.2","","-1.4","","58","","32","","14","","24.1","","100.43","","","","","","NA"
"2016-10-28 12:00","2016","10","28","12:00","7.3","","-1.4","","54","","32","","11","","24.1","","100.37","","","","","","NA"
"2016-10-28 13:00","2016","10","28","13:00","8.8","","-0.2","","53","","26","","13","","24.1","","100.30","","","","","","Mostly Cloudy"
"2016-10-28 14:00","2016","10","28","14:00","9.7","","-0.5","","49","","24","","9","","24.1","","100.23","","","","","","NA"
"2016-10-28 15:00","2016","10","28","15:00","9.3","","1.7","","59","","12","","11","","24.1","","100.22","","","","","","NA"
"2016-10-28 16:00","2016","10","28","16:00","10.3","","2.0","","56","","15","","7","","24.1","","100.18","","","","","","Mostly Cloudy"
"2016-10-28 17:00","2016","10","28","17:00","9.1","","1.5","","59","","18","","10","","24.1","","100.14","","","","","","NA"
"2016-10-28 18:00","2016","10","28","18:00","8.3","","1.5","","62","","17","","11","","24.1","","100.10","","","","","","NA"
"2016-10-28 19:00","2016","10","28","19:00","7.8","","2.9","","71","","19","","11","","24.1","","100.06","","","","","","Mostly Cloudy"
"2016-10-28 20:00","2016","10","28","20:00","8.1","","2.8","","69","","20","","12","","24.1","","99.98","","","","","","NA"
"2016-10-28 21:00","2016","10","28","21:00","7.9","","3.2","","72","","17","","10","","24.1","","99.87","","","","","","NA"
"2016-10-28 22:00","2016","10","28","22:00","8.3","","4.2","","75","","17","","12","","24.1","","99.80","","","","","","Cloudy"
"2016-10-28 23:00","2016","10","28","23:00","8.4","","5.4","","81","","15","","7","","24.1","","99.73","","","","","","NA"
"2016-10-29 00:00","2016","10","29","00:00","9.2","","6.3","","82","","15","","9","","24.1","","99.61","","","","","","NA"
"2016-10-29 01:00","2016","10","29","01:00","10.5","","6.5","","76","","16","","14","","24.1","","99.54","","","","","","Cloudy"
"2016-10-29 02:00","2016","10","29","02:00","10.9","","6.9","","76","","16","","21","","24.1","","99.38","","","","","","NA"
"2016-10-29 03:00","2016","10","29","03:00","11.2","","7.2","","76","","18","","19","","24.1","","99.19","","","","","","NA"
"2016-10-29 04:00","2016","10","29","04:00","10.9","","7.6","","80","","22","","9","","24.1","","99.06","","","","","","Mostly Cloudy"
"2016-10-29 05:00","2016","10","29","05:00","12.1","","8.6","","79","","23","","25","","24.1","","98.99","","","","","","NA"
"2016-10-29 06:00","2016","10","29","06:00","13.2","","9.5","","78","","23","","22","","24.1","","98.91","","","","","","NA"
"2016-10-29 07:00","2016","10","29","07:00","14.7","","10.6","","76","","23","","22","","24.1","","98.89","","","","","","Cloudy"
"2016-10-29 08:00","2016","10","29","08:00","15.2","","11.2","","77","","24","","28","","19.3","","98.88","","","","","","NA"
"2016-10-29 09:00","2016","10","29","09:00","15.6","","11.6","","77","","24","","31","","19.3","","98.84","","","","","","NA"
"2016-10-29 10:00","2016","10","29","10:00","16.5","","12.3","","76","","24","","25","","19.3","","98.80","","","","","","Cloudy"
"2016-10-29 11:00","2016","10","29","11:00","17.4","","13.2","","76","","24","","20","","19.3","","98.79","","","","","","NA"
"2016-10-29 12:00","2016","10","29","12:00","18.2","","13.8","","75","","25","","34","","19.3","","98.73","","","","","","NA"
"2016-10-29 13:00","2016","10","29","13:00","19.6","","14.5","","72","","27","","38","","24.1","","98.72","","","","","","Mostly Cloudy"
"2016-10-29 14:00","2016","10","29","14:00","19.2","","14.3","","73","","27","","32","","24.1","","98.76","","","","","","NA"
"2016-10-29 15:00","2016","10","29","15:00","19.2","","14.1","","72","","27","","33","","24.1","","98.78","","","","","","NA"
"2016-10-29 16:00","2016","10","29","16:00","19.0","","14.3","","74","","27","","23","","24.1","","98.85","","","","","","Mostly Cloudy"
"2016-10-29 17:00","2016","10","29","17:00","17.0","","12.8","","76","","31","","35","","24.1","","98.98","","","","","","NA"
"2016-10-29 18:00","2016","10","29","18:00","14.0","","10.6","","80","","31","","28","","24.1","","99.09","","","","","","NA"
"2016-10-29 19:00","2016","10","29","19:00","13.4","","9.9","","79","","32","","24","","24.1","","99.21","","","","","","Mostly Cloudy"
"2016-10-29 20:00","2016","10","29","20:00","12.9","","8.4","","74","","31","","23","","24.1","","99.24","","","","","","NA"
"2016-10-29 21:00","2016","10","29","21:00","12.3","","8.0","","75","","31","","17","","24.1","","99.29","","","","","","NA"
"2016-10-29 22:00","2016","10","29","22:00","11.9","","7.7","","75","","30","","20","","24.1","","99.29","","","","","","Cloudy"
"2016-10-29 23:00","2016","10","29","23:00","11.2","","7.5","","78","","29","","13","","24.1","","99.30","","","","","","NA"
"2016-10-30 00:00","2016","10","30","00:00","11.2","","7.4","","77","","30","","14","","24.1","","99.32","","","","","","NA"
"2016-10-30 01:00","2016","10","30","01:00","11.0","","7.5","","79","","29","","10","","24.1","","99.35","","","","","","Cloudy"
"2016-10-30 02:00","2016","10","30","02:00","11.4","","7.5","","77","","31","","16","","24.1","","99.31","","","","","","NA"
"2016-10-30 03:00","2016","10","30","03:00","10.1","","7.9","","86","","35","","13","","24.1","","99.39","","","","","","Rain Showers"
"2016-10-30 04:00","2016","10","30","04:00","9.2","","7.3","","88","","1","","15","","24.1","","99.37","","","","","","Cloudy"
"2016-10-30 05:00","2016","10","30","05:00","8.9","","7.0","","88","","35","","14","","24.1","","99.38","","","","","","NA"
"2016-10-30 06:00","2016","10","30","06:00","8.6","","6.7","","88","","36","","18","","24.1","","99.38","","","","","","NA"
"2016-10-30 07:00","2016","10","30","07:00","8.2","","6.3","","88","","36","","16","","19.3","","99.43","","","","","","Cloudy"
"2016-10-30 08:00","2016","10","30","08:00","8.1","","5.7","","85","","35","","20","","24.1","","99.51","","","","","","NA"
"2016-10-30 09:00","2016","10","30","09:00","7.8","","5.8","","87","","35","","20","","16.1","","99.50","","","","","","Rain"
"2016-10-30 10:00","2016","10","30","10:00","7.2","","5.2","","87","","35","","25","","24.1","","99.52","","","","","","Rain"
"2016-10-30 11:00","2016","10","30","11:00","6.6","","4.8","","88","","36","","25","","24.1","","99.56","","","","","","NA"
"2016-10-30 12:00","2016","10","30","12:00","6.4","","3.9","","84","","35","","27","","24.1","","99.57","","","","","","NA"
"2016-10-30 13:00","2016","10","30","13:00","6.8","","3.1","","77","","34","","30","","24.1","","99.57","","","","","","Cloudy"
"2016-10-30 14:00","2016","10","30","14:00","6.9","","2.2","","72","","33","","33","","24.1","","99.60","","","","","","NA"
"2016-10-30 15:00","2016","10","30","15:00","7.3","","1.8","","68","","35","","25","","24.1","","99.68","","","","","","NA"
"2016-10-30 16:00","2016","10","30","16:00","7.1","","2.2","","71","","34","","26","","24.1","","99.77","","","","","","Cloudy"
"2016-10-30 17:00","2016","10","30","17:00","6.8","","1.9","","71","","34","","18","","24.1","","99.85","","","","","","NA"
"2016-10-30 18:00","2016","10","30","18:00","6.6","","0.9","","67","","34","","20","","24.1","","99.93","","","","","","NA"
"2016-10-30 19:00","2016","10","30","19:00","6.4","","0.5","","66","","35","","19","","24.1","","100.00","","","","","","Mostly Cloudy"
"2016-10-30 20:00","2016","10","30","20:00","5.6","","1.2","","73","","32","","18","","24.1","","100.08","","","","","","NA"
"2016-10-30 21:00","2016","10","30","21:00","5.0","","1.0","","75","","34","","16","","24.1","","100.11","","","","","","NA"
"2016-10-30 22:00","2016","10","30","22:00","4.3","","0.6","","77","","33","","11","","24.1","","100.14","","","","","","Clear"
"2016-10-30 23:00","2016","10","30","23:00","3.9","","0.4","","78","","34","","9","","24.1","","100.18","","","","","","NA"
"2016-10-31 00:00","2016","10","31","00:00","2.6","","-0.3","","81","","31","","9","","24.1","","100.20","","","","","","NA"
"2016-10-31 01:00","2016","10","31","01:00","1.4","","-0.4","","88","","29","","9","","24.1","","100.24","","","","","","Mainly Clear"
"2016-10-31 02:00","2016","10","31","02:00","1.0","","-0.9","","87","","31","","5","","24.1","","100.26","","","","","","NA"
"2016-10-31 03:00","2016","10","31","03:00","1.6","","-0.5","","86","","31","","8","","24.1","","100.28","","","","","","NA"
"2016-10-31 04:00","2016","10","31","04:00","1.6","","-0.3","","87","","33","","10","","24.1","","100.29","","","","","","Clear"
"2016-10-31 05:00","2016","10","31","05:00","1.2","","-1.5","","82","","33","","7","","24.1","","100.36","","","","","","NA"
"2016-10-31 06:00","2016","10","31","06:00","2.0","","-1.6","","77","","35","","16","","24.1","","100.40","","","","","","NA"
"2016-10-31 07:00","2016","10","31","07:00","1.5","","-2.1","","77","","35","","12","","24.1","","100.45","","","","","","Clear"
"2016-10-31 08:00","2016","10","31","08:00","2.1","","-1.5","","77","","3","","9","","24.1","","100.48","","","","","","NA"
"2016-10-31 09:00","2016","10","31","09:00","3.6","","-1.2","","71","","3","","8","","24.1","","100.54","","","","","","NA"
"2016-10-31 10:00","2016","10","31","10:00","4.7","","-2.2","","61","","8","","7","","24.1","","100.49","","","","","","Mainly Clear"
"2016-10-31 11:00","2016","10","31","11:00","5.8","","-2.1","","57","","34","","7","","24.1","","100.52","","","","","","NA"
"2016-10-31 12:00","2016","10","31","12:00","6.9","","-1.0","","57","","35","","4","","24.1","","100.45","","","","","","NA"
"2016-10-31 13:00","2016","10","31","13:00","7.2","","-1.0","","56","","36","","2","","24.1","","100.38","","","","","","Mostly Cloudy"
"2016-10-31 14:00","2016","10","31","14:00","8.1","","-1.4","","51","","36","","2","","24.1","","100.35","","","","","","NA"
"2016-10-31 15:00","2016","10","31","15:00","7.5","","-0.2","","58","","16","","13","","24.1","","100.34","","","","","","NA"
"2016-10-31 16:00","2016","10","31","16:00","6.9","","-0.3","","60","","15","","13","","24.1","","100.29","","","","","","Mostly Cloudy"
"2016-10-31 17:00","2016","10","31","17:00","6.3","","0.0","","64","","16","","8","","24.1","","100.25","","","","","","NA"
"2016-10-31 18:00","2016","10","31","18:00","6.0","","-0.1","","65","","13","","7","","24.1","","100.27","","","","","","NA"
"2016-10-31 19:00","2016","10","31","19:00","5.6","","0.0","","67","","10","","8","","24.1","","100.25","","","","","","Mainly Clear"
"2016-10-31 20:00","2016","10","31","20:00","5.1","","0.1","","70","","10","","8","","24.1","","100.24","","","","","","NA"
"2016-10-31 21:00","2016","10","31","21:00","5.2","","-0.4","","67","","11","","8","","24.1","","100.17","","","","","","NA"
"2016-10-31 22:00","2016","10","31","22:00","5.2","","0.0","","69","","12","","10","","24.1","","100.08","","","","","","Mainly Clear"
"2016-10-31 23:00","2016","10","31","23:00","6.7","","0.6","","65","","14","","14","","24.1","","100.03","","","","","","NA"
