"Station Name","TORONTO LESTER B. PEARSON INT'L A"
"Province","ONTARIO"
"Latitude","43.68"
"Longitude","-79.63"
"Elevation","173.40"
"Climate Identifier","6158733"
"WMO Identifier","71624"
"TC Identifier","YYZ"
"All times are specified in Local Standard Time (LST). Add 1 hour to adjust for Daylight Saving Time where and when it is observed."

"Legend"
"E","Estimated"
"M","Missing"
"NA","Not Available"

"Date/Time","Year","Month","Day","Time","Temp (°C)","Temp Flag","Dew Point Temp (°C)","Dew Point Temp Flag","Rel Hum (%)","Rel Hum Flag","Wind Dir (10s deg)","Wind Dir Flag","Wind Spd (km/h)","Wind Spd Flag","Visibility (km)","Visibility Flag","Stn Press (kPa)","Stn Press Flag","Hmdx","Hmdx Flag","Wind Chill","Wind Chill Flag","Weather"
"1960-12-01 00:00","1960","12","01","00:00","-3.9","","-6.1","","86","","29","","26","","12.9","","99.34","","","","-11","","Snow"
"1960-12-01 01:00","1960","12","01","01:00","-3.9","","-5.6","","88","","32","","21","","4.8","","99.46","","","","-10","","Snow"
"1960-12-01 02:00","1960","12","01","02:00","-4.4","","-6.7","","85","","32","","23","","3.2","","99.54","","","","-11","","Snow"
"1960-12-01 03:00","1960","12","01","03:00","-5.0","","-6.7","","87","","34","","16","","2.0","","99.64","","","","-11","","Snow"
"1960-12-01 04:00","1960","12","01","04:00","-5.6","","-7.2","","87","","34","","24","","2.4","","99.71","","","","-13","","Snow"
"1960-12-01 05:00","1960","12","01","05:00","-5.6","","-6.7","","91","","32","","19","","2.4","","99.77","","","","-12","","Snow"
"1960-12-01 06:00","1960","12","01","06:00","-6.1","","-7.2","","90","","32","","24","","2.4","","99.85","","","","-14","","Snow"
"1960-12-01 07:00","1960","12","01","07:00","-6.1","","-7.8","","88","","32","","23","","2.8","","99.97","","","","-13","","Snow"
"1960-12-01 08:00","1960","12","01","08:00","-6.7","","-7.8","","90","","32","","16","","2.0","","100.10","","","","-13","","Snow"
"1960-12-01 09:00","1960","12","01","09:00","-6.7","","-7.8","","90","","32","","19","","2.4","","100.24","","","","-14","","Snow"
"1960-12-01 10:00","1960","12","01","10:00","-6.1","","-7.8","","88","","34","","19","","2.4","","100.35","","","","-13","","Snow"
"1960-12-01 11:00","1960","12","01","11:00","-5.6","","-7.2","","87","","34","","23","","3.2","","100.44","","","","-13","","Snow"
"1960-12-01 12:00","1960","12","01","12:00","-5.0","","-6.7","","87","","34","","13","","1.6","","100.47","","","","-10","","Snow"
"1960-12-01 13:00","1960","12","01","13:00","-4.4","","-6.1","","86","","32","","10","","2.0","","100.48","","","","-9","","Snow"
"1960-12-01 14:00","1960","12","01","14:00","-3.9","","-7.2","","78","","29","","27","","24.1","","100.49","","","","-11","","Mainly Clear"
"1960-12-01 15:00","1960","12","01","15:00","-3.9","","-7.2","","78","","29","","27","","24.1","","100.52","","","","-11","","Mainly Clear"
"1960-12-01 16:00","1960","12","01","16:00","-4.4","","-7.8","","76","","32","","32","","24.1","","100.59","","","","-12","","Mostly Cloudy"
"1960-12-01 17:00","1960","12","01","17:00","-5.0","","-8.3","","76","","29","","32","","25.0","","100.66","","","","-13","","Mostly Cloudy"
"1960-12-01 18:00","1960","12","01","18:00","-5.6","","-8.3","","80","","29","","13","","25.0","","100.72","","","","-11","","Mostly Cloudy"
"1960-12-01 19:00","1960","12","01","19:00","-5.6","","-9.4","","74","","27","","18","","25.0","","100.75","","","","-12","","Cloudy"
"1960-12-01 20:00","1960","12","01","20:00","-6.7","","-9.4","","79","","27","","8","","25.0","","100.79","","","","-11","","Mainly Clear"
"1960-12-01 21:00","1960","12","01","21:00","-6.1","","-8.9","","79","","27","","10","","25.0","","100.79","","","","-11","","Mainly Clear"
"1960-12-01 22:00","1960","12","01","22:00","-6.1","","-10.0","","74","","32","","14","","25.0","","100.78","","","","-12","","Mostly Cloudy"
"1960-12-01 23:00","1960","12","01","23:00","-6.1","","-8.3","","83","","27","","10","","25.0","","100.77","","","","-11","","Mostly Cloudy"
"1960-12-02 00:00","1960","12","02","00:00","-5.0","","-7.8","","81","","25","","6","","25.0","","100.77","","","","-8","","Mostly Cloudy"
"1960-12-02 01:00","1960","12","02","01:00","-3.9","","-6.7","","83","","25","","3","","25.0","","100.71","","","","-5","","Mostly Cloudy"
"1960-12-02 02:00","1960","12","02","02:00","-3.3","","-6.7","","79","","20","","11","","25.0","","100.70","","","","-8","","Mostly Cloudy"
"1960-12-02 03:00","1960","12","02","03:00","-2.8","","-6.1","","79","","23","","16","","25.0","","100.71","","","","-8","","Mostly Cloudy"
"1960-12-02 04:00","1960","12","02","04:00","-3.3","","-6.1","","82","","23","","18","","25.0","","100.66","","","","-9","","Cloudy"
"1960-12-02 05:00","1960","12","02","05:00","-4.4","","-7.2","","81","","23","","19","","25.0","","100.66","","","","-11","","Mostly Cloudy"
"1960-12-02 06:00","1960","12","02","06:00","-4.4","","-6.7","","84","","23","","21","","25.0","","100.66","","","","-11","","Mainly Clear"
"1960-12-02 07:00","1960","12","02","07:00","-3.9","","-5.6","","87","","23","","21","","25.0","","100.70","","","","-10","","Mainly Clear"
"1960-12-02 08:00","1960","12","02","08:00","-5.0","","-6.7","","87","","25","","24","","24.1","","100.66","","","","-12","","Mainly Clear"
"1960-12-02 09:00","1960","12","02","09:00","-3.3","","-5.6","","86","","23","","29","","19.3","","100.66","","","","-11","","Mainly Clear"
"1960-12-02 10:00","1960","12","02","10:00","-2.2","","-5.6","","79","","23","","27","","11.3","","100.66","","","","-9","","Mostly Cloudy"
"1960-12-02 11:00","1960","12","02","11:00","-1.1","","-3.9","","80","","25","","35","","9.7","","100.60","","","","-8","","Haze"
"1960-12-02 12:00","1960","12","02","12:00","0.6","","-3.3","","75","","25","","40","","9.7","","100.50","","","","","","Haze"
"1960-12-02 13:00","1960","12","02","13:00","0.0","","-7.2","","58","","23","","29","","16.1","","100.49","","","","-6","","Mostly Cloudy"
"1960-12-02 14:00","1960","12","02","14:00","0.6","","-6.7","","59","","23","","32","","19.3","","100.38","","","","","","Mostly Cloudy"
"1960-12-02 15:00","1960","12","02","15:00","1.7","","-5.6","","59","","23","","32","","24.1","","100.37","","","","","","Mostly Cloudy"
"1960-12-02 16:00","1960","12","02","16:00","1.7","","-5.0","","62","","23","","29","","24.1","","100.37","","","","","","Mostly Cloudy"
"1960-12-02 17:00","1960","12","02","17:00","1.7","","-3.9","","67","","23","","37","","24.1","","100.28","","","","","","Mostly Cloudy"
"1960-12-02 18:00","1960","12","02","18:00","1.7","","-3.9","","67","","23","","29","","24.1","","100.29","","","","","","Cloudy"
"1960-12-02 19:00","1960","12","02","19:00","1.7","","-3.3","","70","","23","","29","","24.1","","100.27","","","","","","Cloudy"
"1960-12-02 20:00","1960","12","02","20:00","1.7","","-2.8","","72","","23","","23","","24.1","","100.35","","","","","","Mostly Cloudy"
"1960-12-02 21:00","1960","12","02","21:00","1.1","","-2.8","","76","","23","","27","","24.1","","100.34","","","","","","Mostly Cloudy"
"1960-12-02 22:00","1960","12","02","22:00","1.7","","-3.9","","67","","23","","34","","25.0","","100.31","","","","","","Mainly Clear"
"1960-12-02 23:00","1960","12","02","23:00","1.1","","-4.4","","66","","23","","24","","25.0","","100.37","","","","","","Mainly Clear"
"1960-12-03 00:00","1960","12","03","00:00","0.6","","-5.0","","67","","23","","21","","25.0","","100.39","","","","","","Clear"
"1960-12-03 01:00","1960","12","03","01:00","0.0","","-5.0","","69","","25","","21","","25.0","","100.40","","","","-5","","Clear"
"1960-12-03 02:00","1960","12","03","02:00","-0.6","","-5.0","","73","","25","","14","","25.0","","100.44","","","","-5","","Clear"
"1960-12-03 03:00","1960","12","03","03:00","-1.1","","-5.0","","74","","25","","11","","24.1","","100.47","","","","-5","","Clear"
"1960-12-03 04:00","1960","12","03","04:00","-2.2","","-5.6","","77","","25","","10","","24.1","","100.46","","","","-6","","Clear"
"1960-12-03 05:00","1960","12","03","05:00","-2.2","","-5.6","","77","","25","","8","","24.1","","100.46","","","","-5","","Clear"
"1960-12-03 06:00","1960","12","03","06:00","-3.3","","-6.1","","80","","27","","8","","24.1","","100.49","","","","-7","","Clear"
"1960-12-03 07:00","1960","12","03","07:00","-2.8","","-6.1","","79","","27","","6","","19.3","","100.51","","","","-5","","Mainly Clear"
"1960-12-03 08:00","1960","12","03","08:00","-3.3","","-5.6","","86","","","","0","","4.8","","100.55","","","","","","Fog,Haze"
"1960-12-03 09:00","1960","12","03","09:00","-1.7","","-5.6","","75","","23","","5","","6.4","","100.55","","","","-4","","Haze"
"1960-12-03 10:00","1960","12","03","10:00","0.0","","-5.0","","69","","23","","5","","12.9","","100.56","","","","-2","","Mainly Clear"
"1960-12-03 11:00","1960","12","03","11:00","2.2","","-3.9","","63","","23","","10","","12.9","","100.56","","","","","","Mainly Clear"
"1960-12-03 12:00","1960","12","03","12:00","4.4","","-3.3","","58","","20","","13","","12.9","","100.43","","","","","","Mainly Clear"
"1960-12-03 13:00","1960","12","03","13:00","5.0","","-3.3","","54","","18","","19","","12.9","","100.38","","","","","","Mainly Clear"
"1960-12-03 14:00","1960","12","03","14:00","5.6","","-3.3","","53","","20","","23","","12.9","","100.34","","","","","","Mainly Clear"
"1960-12-03 15:00","1960","12","03","15:00","6.1","","-2.8","","52","","18","","16","","16.1","","100.32","","","","","","Mainly Clear"
"1960-12-03 16:00","1960","12","03","16:00","5.6","","-2.2","","57","","18","","11","","11.3","","100.32","","","","","","Mostly Cloudy"
"1960-12-03 17:00","1960","12","03","17:00","3.3","","0.0","","77","","16","","10","","11.3","","100.31","","","","","","Mainly Clear"
"1960-12-03 18:00","1960","12","03","18:00","2.8","","0.0","","82","","18","","16","","11.3","","100.35","","","","","","Mainly Clear"
"1960-12-03 19:00","1960","12","03","19:00","2.2","","0.0","","84","","18","","16","","11.3","","100.36","","","","","","Mainly Clear"
"1960-12-03 20:00","1960","12","03","20:00","1.7","","-1.1","","81","","18","","16","","9.7","","100.33","","","","","","Haze"
"1960-12-03 21:00","1960","12","03","21:00","1.1","","-1.7","","83","","18","","18","","11.3","","100.30","","","","","","Mainly Clear"
"1960-12-03 22:00","1960","12","03","22:00","1.1","","-2.2","","79","","18","","16","","11.3","","100.24","","","","","","Clear"
"1960-12-03 23:00","1960","12","03","23:00","0.6","","-1.7","","84","","18","","13","","12.9","","100.20","","","","","","Clear"
"1960-12-04 00:00","1960","12","04","00:00","0.6","","-2.2","","81","","16","","11","","11.3","","100.22","","","","","","Clear"
"1960-12-04 01:00","1960","12","04","01:00","-0.6","","-3.3","","82","","14","","3","","11.3","","100.29","","","","-2","","Mostly Cloudy"
"1960-12-04 02:00","1960","12","04","02:00","1.1","","-1.7","","82","","18","","10","","11.3","","100.28","","","","","","Cloudy"
"1960-12-04 03:00","1960","12","04","03:00","1.7","","-1.1","","81","","18","","10","","16.1","","100.28","","","","","","Cloudy"
"1960-12-04 04:00","1960","12","04","04:00","2.2","","-0.6","","81","","18","","6","","16.1","","100.26","","","","","","Cloudy"
"1960-12-04 05:00","1960","12","04","05:00","2.8","","-0.6","","79","","18","","6","","16.1","","100.26","","","","","","Cloudy"
"1960-12-04 06:00","1960","12","04","06:00","2.8","","-0.6","","79","","18","","8","","16.1","","100.24","","","","","","Cloudy"
"1960-12-04 07:00","1960","12","04","07:00","3.3","","0.0","","80","","18","","8","","16.1","","100.24","","","","","","Cloudy"
"1960-12-04 08:00","1960","12","04","08:00","3.9","","-0.6","","73","","20","","6","","19.3","","100.25","","","","","","Cloudy"
"1960-12-04 09:00","1960","12","04","09:00","4.4","","0.0","","74","","20","","13","","19.3","","100.28","","","","","","Cloudy"
"1960-12-04 10:00","1960","12","04","10:00","5.6","","0.0","","68","","23","","16","","19.3","","100.32","","","","","","Cloudy"
"1960-12-04 11:00","1960","12","04","11:00","6.1","","-0.6","","62","","23","","16","","19.3","","100.31","","","","","","Cloudy"
"1960-12-04 12:00","1960","12","04","12:00","6.7","","0.0","","63","","23","","16","","19.3","","100.25","","","","","","Cloudy"
"1960-12-04 13:00","1960","12","04","13:00","7.8","","0.0","","59","","23","","16","","24.1","","100.23","","","","","","Mostly Cloudy"
"1960-12-04 14:00","1960","12","04","14:00","8.9","","0.6","","55","","20","","16","","24.1","","100.19","","","","","","Cloudy"
"1960-12-04 15:00","1960","12","04","15:00","9.4","","1.1","","56","","18","","8","","19.3","","100.20","","","","","","Cloudy"
"1960-12-04 16:00","1960","12","04","16:00","8.9","","1.7","","61","","16","","10","","12.9","","100.20","","","","","","Cloudy"
"1960-12-04 17:00","1960","12","04","17:00","7.8","","2.2","","69","","18","","13","","12.9","","100.18","","","","","","Cloudy"
"1960-12-04 18:00","1960","12","04","18:00","7.8","","1.1","","63","","20","","19","","12.9","","100.18","","","","","","Cloudy"
"1960-12-04 19:00","1960","12","04","19:00","7.8","","1.1","","63","","20","","19","","16.1","","100.21","","","","","","Cloudy"
"1960-12-04 20:00","1960","12","04","20:00","7.2","","0.6","","62","","18","","13","","19.3","","100.21","","","","","","Cloudy"
"1960-12-04 21:00","1960","12","04","21:00","6.7","","1.7","","70","","23","","10","","16.1","","100.24","","","","","","Cloudy"
"1960-12-04 22:00","1960","12","04","22:00","6.7","","1.1","","67","","18","","11","","16.1","","100.26","","","","","","Cloudy"
"1960-12-04 23:00","1960","12","04","23:00","7.2","","2.8","","72","","18","","11","","16.1","","100.26","","","","","","Cloudy"
"1960-12-05 00:00","1960","12","05","00:00","7.2","","2.8","","72","","18","","11","","16.1","","100.26","","","","","","Cloudy"
"1960-12-05 01:00","1960","12","05","01:00","7.2","","3.3","","76","","18","","10","","16.1","","100.21","","","","","","Cloudy"
"1960-12-05 02:00","1960","12","05","02:00","6.7","","3.3","","78","","14","","11","","16.1","","100.21","","","","","","Cloudy"
"1960-12-05 03:00","1960","12","05","03:00","6.1","","2.8","","80","","14","","10","","11.3","","100.20","","","","","","Cloudy"
"1960-12-05 04:00","1960","12","05","04:00","6.1","","3.3","","82","","16","","8","","11.3","","100.20","","","","","","Mostly Cloudy"
"1960-12-05 05:00","1960","12","05","05:00","7.2","","3.9","","78","","18","","10","","16.1","","100.20","","","","","","Mostly Cloudy"
"1960-12-05 06:00","1960","12","05","06:00","7.2","","2.8","","74","","18","","11","","16.1","","100.20","","","","","","Mostly Cloudy"
"1960-12-05 07:00","1960","12","05","07:00","7.2","","2.8","","72","","18","","11","","19.3","","100.24","","","","","","Mostly Cloudy"
"1960-12-05 08:00","1960","12","05","08:00","7.2","","3.3","","76","","14","","13","","8.0","","100.24","","","","","","Haze"
"1960-12-05 09:00","1960","12","05","09:00","6.7","","3.3","","80","","18","","10","","6.4","","100.26","","","","","","Haze"
"1960-12-05 10:00","1960","12","05","10:00","7.8","","3.3","","75","","18","","8","","12.9","","100.29","","","","","","Mainly Clear"
"1960-12-05 11:00","1960","12","05","11:00","11.1","","2.2","","55","","20","","14","","12.9","","100.23","","","","","","Mainly Clear"
"1960-12-05 12:00","1960","12","05","12:00","12.2","","2.2","","50","","18","","13","","12.9","","100.08","","","","","","Mostly Cloudy"
"1960-12-05 13:00","1960","12","05","13:00","11.1","","2.8","","57","","16","","13","","12.9","","100.01","","","","","","Mostly Cloudy"
"1960-12-05 14:00","1960","12","05","14:00","13.9","","1.7","","44","","16","","21","","9.7","","99.95","","","","","","Haze"
"1960-12-05 15:00","1960","12","05","15:00","12.8","","2.8","","50","","16","","14","","9.7","","99.93","","","","","","Haze"
"1960-12-05 16:00","1960","12","05","16:00","12.2","","1.7","","49","","18","","18","","6.4","","99.91","","","","","","Haze"
"1960-12-05 17:00","1960","12","05","17:00","11.1","","0.6","","48","","18","","16","","6.4","","99.90","","","","","","Haze"
"1960-12-05 18:00","1960","12","05","18:00","11.1","","0.6","","48","","18","","14","","6.4","","99.86","","","","","","Haze"
"1960-12-05 19:00","1960","12","05","19:00","11.1","","1.7","","52","","27","","5","","12.9","","100.01","","","","","","Cloudy"
"1960-12-05 20:00","1960","12","05","20:00","11.7","","1.7","","51","","18","","6","","12.9","","99.99","","","","","","Cloudy"
"1960-12-05 21:00","1960","12","05","21:00","11.7","","2.2","","53","","18","","13","","12.9","","99.96","","","","","","Cloudy"
"1960-12-05 22:00","1960","12","05","22:00","11.1","","2.2","","53","","18","","10","","12.9","","99.93","","","","","","Cloudy"
"1960-12-05 23:00","1960","12","05","23:00","10.0","","2.8","","60","","18","","11","","12.9","","99.93","","","","","","Cloudy"
"1960-12-06 00:00","1960","12","06","00:00","10.6","","2.2","","56","","18","","11","","12.9","","99.92","","","","","","Cloudy"
"1960-12-06 01:00","1960","12","06","01:00","10.6","","2.8","","59","","20","","10","","16.1","","99.93","","","","","","Mainly Clear"
"1960-12-06 02:00","1960","12","06","02:00","10.6","","2.8","","59","","23","","16","","19.3","","99.94","","","","","","Mostly Cloudy"
"1960-12-06 03:00","1960","12","06","03:00","10.6","","3.3","","61","","23","","19","","19.3","","99.92","","","","","","Mostly Cloudy"
"1960-12-06 04:00","1960","12","06","04:00","9.4","","5.0","","73","","23","","18","","19.3","","99.95","","","","","","Mostly Cloudy"
"1960-12-06 05:00","1960","12","06","05:00","8.3","","5.6","","83","","23","","10","","19.3","","99.94","","","","","","Mostly Cloudy"
"1960-12-06 06:00","1960","12","06","06:00","7.8","","5.6","","87","","23","","18","","19.3","","99.95","","","","","","Mostly Cloudy"
"1960-12-06 07:00","1960","12","06","07:00","8.3","","6.1","","87","","23","","10","","16.1","","99.97","","","","","","Cloudy"
"1960-12-06 08:00","1960","12","06","08:00","9.4","","7.8","","88","","18","","13","","8.0","","99.92","","","","","","Fog"
"1960-12-06 09:00","1960","12","06","09:00","8.9","","7.2","","90","","18","","19","","3.2","","99.86","","","","","","Rain Showers,Fog"
"1960-12-06 10:00","1960","12","06","10:00","9.4","","8.9","","96","","18","","16","","2.4","","99.76","","","","","","Fog"
"1960-12-06 11:00","1960","12","06","11:00","8.9","","8.3","","96","","18","","13","","3.2","","99.75","","","","","","Rain,Fog"
"1960-12-06 12:00","1960","12","06","12:00","8.9","","8.3","","96","","18","","19","","11.3","","99.63","","","","","","Rain"
"1960-12-06 13:00","1960","12","06","13:00","8.9","","7.8","","94","","23","","23","","12.9","","99.52","","","","","","Cloudy"
"1960-12-06 14:00","1960","12","06","14:00","8.9","","7.8","","92","","23","","19","","9.7","","99.44","","","","","","Fog"
"1960-12-06 15:00","1960","12","06","15:00","10.0","","8.3","","90","","23","","16","","11.3","","99.41","","","","","","Cloudy"
"1960-12-06 16:00","1960","12","06","16:00","9.4","","8.3","","92","","23","","16","","11.3","","99.36","","","","","","Mostly Cloudy"
"1960-12-06 17:00","1960","12","06","17:00","8.9","","1.7","","61","","27","","26","","25.0","","99.43","","","","","","Mostly Cloudy"
"1960-12-06 18:00","1960","12","06","18:00","7.8","","3.3","","73","","27","","16","","25.0","","99.49","","","","","","Mostly Cloudy"
"1960-12-06 19:00","1960","12","06","19:00","7.2","","2.8","","72","","27","","27","","25.0","","99.51","","","","","","Mostly Cloudy"
"1960-12-06 20:00","1960","12","06","20:00","4.4","","2.2","","85","","29","","16","","25.0","","99.52","","","","","","Cloudy"
"1960-12-06 21:00","1960","12","06","21:00","5.0","","-0.6","","67","","29","","19","","25.0","","99.56","","","","","","Cloudy"
"1960-12-06 22:00","1960","12","06","22:00","3.9","","-1.1","","71","","27","","26","","25.0","","99.53","","","","","","Cloudy"
"1960-12-06 23:00","1960","12","06","23:00","3.3","","-1.7","","70","","29","","26","","25.0","","99.56","","","","","","Cloudy"
"1960-12-07 00:00","1960","12","07","00:00","2.2","","-2.2","","71","","27","","29","","25.0","","99.59","","","","","","Cloudy"
"1960-12-07 01:00","1960","12","07","01:00","2.2","","-2.2","","71","","29","","40","","25.0","","99.59","","","","","","Cloudy"
"1960-12-07 02:00","1960","12","07","02:00","1.1","","-3.9","","68","","27","","29","","25.0","","99.62","","","","","","Cloudy"
"1960-12-07 03:00","1960","12","07","03:00","0.6","","-4.4","","70","","29","","26","","25.0","","99.65","","","","","","Snow Showers"
"1960-12-07 04:00","1960","12","07","04:00","0.0","","-3.9","","74","","27","","26","","25.0","","99.63","","","","-6","","Cloudy"
"1960-12-07 05:00","1960","12","07","05:00","0.0","","-3.3","","80","","27","","29","","25.0","","99.63","","","","-6","","Snow Showers"
"1960-12-07 06:00","1960","12","07","06:00","-0.6","","-3.9","","79","","27","","26","","25.0","","99.67","","","","-7","","Snow Showers"
"1960-12-07 07:00","1960","12","07","07:00","0.0","","-3.9","","74","","27","","19","","25.0","","99.65","","","","-5","","Cloudy"
"1960-12-07 08:00","1960","12","07","08:00","0.0","","-4.4","","71","","27","","27","","25.0","","99.67","","","","-6","","Snow Showers"
"1960-12-07 09:00","1960","12","07","09:00","0.0","","-4.4","","71","","27","","29","","25.0","","99.69","","","","-6","","Cloudy"
"1960-12-07 10:00","1960","12","07","10:00","0.0","","-4.4","","71","","25","","32","","25.0","","99.68","","","","-7","","Snow Showers"
"1960-12-07 11:00","1960","12","07","11:00","0.6","","-3.3","","75","","25","","32","","16.1","","99.70","","","","","","Snow Showers"
"1960-12-07 12:00","1960","12","07","12:00","0.6","","-5.0","","67","","27","","35","","24.1","","99.60","","","","","","Snow Showers"
"1960-12-07 13:00","1960","12","07","13:00","0.0","","-3.3","","77","","25","","35","","25.0","","99.52","","","","-7","","Snow Showers"
"1960-12-07 14:00","1960","12","07","14:00","0.0","","-4.4","","71","","27","","37","","25.0","","99.52","","","","-7","","Mostly Cloudy"
"1960-12-07 15:00","1960","12","07","15:00","0.0","","-5.0","","69","","27","","39","","25.0","","99.54","","","","-7","","Mostly Cloudy"
"1960-12-07 16:00","1960","12","07","16:00","-0.6","","-5.6","","67","","27","","32","","25.0","","99.57","","","","-7","","Mostly Cloudy"
"1960-12-07 17:00","1960","12","07","17:00","-1.1","","-3.9","","80","","27","","32","","25.0","","99.54","","","","-8","","Mainly Clear"
"1960-12-07 18:00","1960","12","07","18:00","-1.7","","-6.7","","69","","27","","29","","25.0","","99.56","","","","-9","","Mostly Cloudy"
"1960-12-07 19:00","1960","12","07","19:00","-1.7","","-5.0","","78","","27","","24","","25.0","","99.53","","","","-8","","Mainly Clear"
"1960-12-07 20:00","1960","12","07","20:00","-2.2","","-6.1","","76","","27","","19","","25.0","","99.55","","","","-8","","Mostly Cloudy"
"1960-12-07 21:00","1960","12","07","21:00","-2.2","","-5.6","","79","","27","","19","","19.3","","99.57","","","","-8","","Snow Showers"
"1960-12-07 22:00","1960","12","07","22:00","-2.2","","-6.1","","75","","27","","19","","25.0","","99.55","","","","-8","","Snow Showers"
"1960-12-07 23:00","1960","12","07","23:00","-2.8","","-7.2","","73","","27","","19","","25.0","","99.53","","","","-9","","Cloudy"
"1960-12-08 00:00","1960","12","08","00:00","-2.8","","-7.8","","70","","29","","19","","25.0","","99.52","","","","-9","","Cloudy"
"1960-12-08 01:00","1960","12","08","01:00","-3.9","","-6.7","","83","","36","","16","","25.0","","99.54","","","","-9","","Mostly Cloudy"
"1960-12-08 02:00","1960","12","08","02:00","-5.0","","-7.8","","80","","36","","23","","25.0","","99.56","","","","-12","","Mostly Cloudy"
"1960-12-08 03:00","1960","12","08","03:00","-5.6","","-8.3","","80","","36","","24","","25.0","","99.62","","","","-13","","Mostly Cloudy"
"1960-12-08 04:00","1960","12","08","04:00","-6.7","","-9.4","","81","","36","","11","","25.0","","99.63","","","","-12","","Mainly Clear"
"1960-12-08 05:00","1960","12","08","05:00","-6.7","","-8.3","","87","","2","","6","","25.0","","99.66","","","","-10","","Snow Showers"
"1960-12-08 06:00","1960","12","08","06:00","-7.2","","-8.9","","87","","5","","3","","25.0","","99.68","","","","-9","","Snow Showers"
"1960-12-08 07:00","1960","12","08","07:00","-6.7","","-8.3","","87","","","","0","","24.1","","99.78","","","","","","Snow Showers"
"1960-12-08 08:00","1960","12","08","08:00","-6.7","","-10.6","","74","","32","","19","","25.0","","99.83","","","","-14","","Mainly Clear"
"1960-12-08 09:00","1960","12","08","09:00","-7.2","","-10.0","","80","","36","","24","","0.8","","99.92","","","","-15","","Moderate Snow Showers"
"1960-12-08 10:00","1960","12","08","10:00","-8.9","","-11.7","","80","","36","","23","","2.4","","100.01","","","","-17","","Snow Showers"
"1960-12-08 11:00","1960","12","08","11:00","-8.9","","-11.7","","79","","36","","24","","25.0","","100.09","","","","-17","","Mainly Clear"
"1960-12-08 12:00","1960","12","08","12:00","-8.9","","-12.8","","73","","34","","29","","25.0","","100.13","","","","-18","","Mainly Clear"
"1960-12-08 13:00","1960","12","08","13:00","-8.3","","-12.8","","70","","34","","31","","25.0","","100.17","","","","-17","","Mainly Clear"
"1960-12-08 14:00","1960","12","08","14:00","-8.9","","-12.8","","74","","34","","31","","25.0","","100.24","","","","-18","","Mainly Clear"
"1960-12-08 15:00","1960","12","08","15:00","-8.9","","-12.8","","74","","34","","31","","25.0","","100.31","","","","-18","","Mainly Clear"
"1960-12-08 16:00","1960","12","08","16:00","-10.0","","-13.3","","77","","34","","19","","25.0","","100.37","","","","-18","","Mainly Clear"
"1960-12-08 17:00","1960","12","08","17:00","-11.1","","-14.4","","77","","36","","13","","25.0","","100.43","","","","-18","","Mainly Clear"
"1960-12-08 18:00","1960","12","08","18:00","-12.8","","-14.4","","86","","36","","13","","25.0","","100.52","","","","-20","","Clear"
"1960-12-08 19:00","1960","12","08","19:00","-12.2","","-14.4","","83","","34","","5","","25.0","","100.57","","","","-15","","Clear"
"1960-12-08 20:00","1960","12","08","20:00","-11.7","","-15.0","","76","","32","","11","","25.0","","100.59","","","","-18","","Clear"
"1960-12-08 21:00","1960","12","08","21:00","-11.7","","-15.0","","76","","32","","5","","25.0","","100.59","","","","-15","","Clear"
"1960-12-08 22:00","1960","12","08","22:00","-11.7","","-15.0","","76","","","","0","","25.0","","100.61","","","","","","Mainly Clear"
"1960-12-08 23:00","1960","12","08","23:00","-11.7","","-15.0","","76","","","","0","","25.0","","100.64","","","","","","Clear"
"1960-12-09 00:00","1960","12","09","00:00","-12.8","","-15.0","","83","","","","0","","25.0","","100.62","","","","","","Clear"
"1960-12-09 01:00","1960","12","09","01:00","-12.2","","-15.0","","78","","","","0","","24.1","","100.56","","","","","","Clear"
"1960-12-09 02:00","1960","12","09","02:00","-12.8","","-15.0","","83","","25","","13","","24.1","","100.53","","","","-20","","Clear"
"1960-12-09 03:00","1960","12","09","03:00","-13.3","","-15.6","","82","","23","","13","","24.1","","100.53","","","","-20","","Clear"
"1960-12-09 04:00","1960","12","09","04:00","-13.9","","-15.6","","82","","23","","13","","24.1","","100.47","","","","-21","","Clear"
"1960-12-09 05:00","1960","12","09","05:00","-12.8","","-14.4","","86","","25","","19","","24.1","","100.45","","","","-21","","Clear"
"1960-12-09 06:00","1960","12","09","06:00","-12.2","","-12.2","","87","","20","","6","","24.1","","100.42","","","","-16","","Mainly Clear"
"1960-12-09 07:00","1960","12","09","07:00","-9.4","","-11.7","","82","","25","","19","","24.1","","100.41","","","","-17","","Mainly Clear"
"1960-12-09 08:00","1960","12","09","08:00","-8.9","","-11.1","","83","","23","","19","","24.1","","100.32","","","","-16","","Mainly Clear"
"1960-12-09 09:00","1960","12","09","09:00","-7.2","","-9.4","","84","","23","","32","","24.1","","100.25","","","","-16","","Mostly Cloudy"
"1960-12-09 10:00","1960","12","09","10:00","-6.1","","-8.3","","85","","25","","42","","24.1","","100.21","","","","-16","","Mostly Cloudy"
"1960-12-09 11:00","1960","12","09","11:00","-5.0","","-7.8","","80","","25","","45","","25.0","","100.09","","","","-15","","Mainly Clear"
"1960-12-09 12:00","1960","12","09","12:00","-4.4","","-7.8","","76","","23","","48","","25.0","","99.90","","","","-14","","Mainly Clear"
"1960-12-09 13:00","1960","12","09","13:00","-3.9","","-10.0","","64","","23","","48","","25.0","","99.72","","","","-13","","Mostly Cloudy"
"1960-12-09 14:00","1960","12","09","14:00","-3.3","","-9.4","","63","","25","","42","","25.0","","99.67","","","","-12","","Mostly Cloudy"
"1960-12-09 15:00","1960","12","09","15:00","-2.8","","-7.8","","68","","23","","42","","25.0","","99.53","","","","-11","","Mostly Cloudy"
"1960-12-09 16:00","1960","12","09","16:00","-3.3","","-8.9","","64","","23","","39","","25.0","","99.45","","","","-12","","Mostly Cloudy"
"1960-12-09 17:00","1960","12","09","17:00","-2.8","","-8.9","","63","","23","","40","","25.0","","99.36","","","","-11","","Mostly Cloudy"
"1960-12-09 18:00","1960","12","09","18:00","-3.9","","-10.0","","63","","23","","48","","25.0","","99.30","","","","-13","","Mostly Cloudy"
"1960-12-09 19:00","1960","12","09","19:00","-3.9","","-10.0","","64","","23","","40","","25.0","","99.22","","","","-13","","Cloudy"
"1960-12-09 20:00","1960","12","09","20:00","-3.3","","-9.4","","62","","23","","40","","25.0","","99.09","","","","-12","","Cloudy"
"1960-12-09 21:00","1960","12","09","21:00","-2.8","","-9.4","","61","","23","","35","","25.0","","99.06","","","","-11","","Cloudy"
"1960-12-09 22:00","1960","12","09","22:00","-2.8","","-8.9","","62","","25","","35","","25.0","","99.08","","","","-11","","Cloudy"
"1960-12-09 23:00","1960","12","09","23:00","-2.8","","-8.3","","65","","23","","32","","25.0","","99.05","","","","-10","","Cloudy"
"1960-12-10 00:00","1960","12","10","00:00","-2.8","","-7.8","","67","","23","","35","","19.3","","99.02","","","","-11","","Snow Showers"
"1960-12-10 01:00","1960","12","10","01:00","-2.2","","-6.7","","73","","23","","32","","19.3","","99.04","","","","-10","","Snow Showers"
"1960-12-10 02:00","1960","12","10","02:00","-1.7","","-6.1","","73","","25","","29","","24.1","","99.06","","","","-9","","Snow"
"1960-12-10 03:00","1960","12","10","03:00","-1.7","","-5.0","","77","","25","","32","","16.1","","99.09","","","","-9","","Snow"
"1960-12-10 04:00","1960","12","10","04:00","-2.2","","-5.6","","79","","23","","29","","19.3","","99.12","","","","-9","","Snow"
"1960-12-10 05:00","1960","12","10","05:00","-2.2","","-5.6","","78","","23","","31","","19.3","","99.11","","","","-9","","Snow"
"1960-12-10 06:00","1960","12","10","06:00","-1.7","","-4.4","","82","","23","","27","","11.3","","99.14","","","","-8","","Snow"
"1960-12-10 07:00","1960","12","10","07:00","-1.7","","-3.9","","86","","34","","19","","12.9","","99.27","","","","-7","","Snow"
"1960-12-10 08:00","1960","12","10","08:00","-2.8","","-5.0","","84","","36","","19","","9.7","","99.45","","","","-9","","Snow"
"1960-12-10 09:00","1960","12","10","09:00","-3.9","","-6.1","","84","","36","","23","","4.8","","99.56","","","","-11","","Snow"
"1960-12-10 10:00","1960","12","10","10:00","-5.6","","-8.3","","82","","36","","32","","6.4","","99.70","","","","-14","","Snow"
"1960-12-10 11:00","1960","12","10","11:00","-7.2","","-12.2","","68","","36","","27","","24.1","","99.85","","","","-15","","Mainly Clear"
"1960-12-10 12:00","1960","12","10","12:00","-6.7","","-11.7","","68","","36","","26","","24.1","","99.87","","","","-15","","Mainly Clear"
"1960-12-10 13:00","1960","12","10","13:00","-7.2","","-12.8","","65","","36","","29","","24.1","","99.90","","","","-16","","Mainly Clear"
"1960-12-10 14:00","1960","12","10","14:00","-7.8","","-12.8","","68","","36","","31","","24.1","","99.94","","","","-17","","Mainly Clear"
"1960-12-10 15:00","1960","12","10","15:00","-8.3","","-13.9","","65","","36","","34","","24.1","","100.03","","","","-18","","Mostly Cloudy"
"1960-12-10 16:00","1960","12","10","16:00","-9.4","","-15.0","","63","","36","","32","","24.1","","100.13","","","","-19","","Mainly Clear"
"1960-12-10 17:00","1960","12","10","17:00","-10.6","","-15.0","","71","","36","","24","","25.0","","100.24","","","","-19","","Mostly Cloudy"
"1960-12-10 18:00","1960","12","10","18:00","-11.1","","-16.1","","67","","36","","19","","25.0","","100.36","","","","-19","","Mainly Clear"
"1960-12-10 19:00","1960","12","10","19:00","-12.2","","-17.2","","66","","34","","13","","25.0","","100.42","","","","-19","","Mainly Clear"
"1960-12-10 20:00","1960","12","10","20:00","-12.2","","-17.2","","68","","34","","10","","25.0","","100.46","","","","-18","","Clear"
"1960-12-10 21:00","1960","12","10","21:00","-12.8","","-17.8","","66","","34","","13","","25.0","","100.50","","","","-20","","Clear"
"1960-12-10 22:00","1960","12","10","22:00","-13.9","","-18.3","","70","","27","","6","","25.0","","100.62","","","","-18","","Clear"
"1960-12-10 23:00","1960","12","10","23:00","-13.9","","-18.3","","70","","32","","6","","25.0","","100.61","","","","-18","","Clear"
"1960-12-11 00:00","1960","12","11","00:00","-14.4","","-18.3","","73","","36","","13","","25.0","","100.55","","","","-22","","Clear"
"1960-12-11 01:00","1960","12","11","01:00","-15.0","","-17.8","","80","","36","","8","","25.0","","100.53","","","","-20","","Clear"
"1960-12-11 02:00","1960","12","11","02:00","-16.1","","-18.3","","83","","","","0","","25.0","","100.59","","","","","","Mainly Clear"
"1960-12-11 03:00","1960","12","11","03:00","-14.4","","-17.2","","81","","","","0","","25.0","","100.63","","","","","","Mostly Cloudy"
"1960-12-11 04:00","1960","12","11","04:00","-14.4","","-17.8","","77","","36","","10","","25.0","","100.62","","","","-21","","Clear"
"1960-12-11 05:00","1960","12","11","05:00","-16.7","","-18.3","","85","","2","","10","","25.0","","100.58","","","","-23","","Clear"
"1960-12-11 06:00","1960","12","11","06:00","-16.1","","-17.8","","85","","36","","8","","25.0","","100.58","","","","-22","","Clear"
"1960-12-11 07:00","1960","12","11","07:00","-16.7","","-18.3","","85","","36","","11","","25.0","","100.49","","","","-24","","Mainly Clear"
"1960-12-11 08:00","1960","12","11","08:00","-16.7","","-18.3","","85","","36","","8","","25.0","","100.43","","","","-22","","Mostly Cloudy"
"1960-12-11 09:00","1960","12","11","09:00","-15.0","","-17.2","","82","","34","","8","","25.0","","100.51","","","","-20","","Mostly Cloudy"
"1960-12-11 10:00","1960","12","11","10:00","-13.3","","-17.2","","73","","36","","10","","25.0","","100.50","","","","-19","","Mostly Cloudy"
"1960-12-11 11:00","1960","12","11","11:00","-11.1","","-17.2","","60","","36","","10","","25.0","","100.41","","","","-17","","Mostly Cloudy"
"1960-12-11 12:00","1960","12","11","12:00","-8.9","","-13.9","","68","","5","","19","","25.0","","100.21","","","","-16","","Mostly Cloudy"
"1960-12-11 13:00","1960","12","11","13:00","-8.9","","-15.0","","61","","7","","16","","25.0","","100.11","","","","-16","","Cloudy"
"1960-12-11 14:00","1960","12","11","14:00","-9.4","","-15.0","","64","","5","","19","","25.0","","99.98","","","","-17","","Cloudy"
"1960-12-11 15:00","1960","12","11","15:00","-9.4","","-15.0","","63","","5","","19","","25.0","","99.98","","","","-17","","Cloudy"
"1960-12-11 16:00","1960","12","11","16:00","-10.0","","-15.6","","63","","5","","19","","25.0","","99.96","","","","-18","","Cloudy"
"1960-12-11 17:00","1960","12","11","17:00","-10.0","","-17.2","","55","","2","","21","","25.0","","99.92","","","","-18","","Cloudy"
"1960-12-11 18:00","1960","12","11","18:00","-10.6","","-21.1","","41","","2","","24","","25.0","","99.91","","","","-19","","Cloudy"
"1960-12-11 19:00","1960","12","11","19:00","-10.6","","-20.0","","46","","2","","21","","25.0","","99.88","","","","-19","","Cloudy"
"1960-12-11 20:00","1960","12","11","20:00","-10.6","","-18.3","","52","","2","","21","","25.0","","99.86","","","","-19","","Cloudy"
"1960-12-11 21:00","1960","12","11","21:00","-10.6","","-17.8","","55","","2","","21","","25.0","","99.78","","","","-19","","Cloudy"
"1960-12-11 22:00","1960","12","11","22:00","-10.6","","-17.8","","55","","2","","21","","25.0","","99.72","","","","-19","","Cloudy"
"1960-12-11 23:00","1960","12","11","23:00","-11.1","","-17.2","","60","","36","","24","","25.0","","99.69","","","","-20","","Mostly Cloudy"
"1960-12-12 00:00","1960","12","12","00:00","-11.1","","-17.2","","60","","2","","21","","25.0","","99.70","","","","-19","","Mostly Cloudy"
"1960-12-12 01:00","1960","12","12","01:00","-11.1","","-16.7","","63","","2","","16","","24.1","","99.68","","","","-18","","Cloudy"
"1960-12-12 02:00","1960","12","12","02:00","-11.7","","-17.2","","64","","2","","23","","24.1","","99.65","","","","-21","","Cloudy"
"1960-12-12 03:00","1960","12","12","03:00","-12.2","","-17.8","","64","","2","","19","","24.1","","99.65","","","","-20","","Mostly Cloudy"
"1960-12-12 04:00","1960","12","12","04:00","-12.8","","-17.8","","66","","2","","24","","24.1","","99.63","","","","-22","","Cloudy"
"1960-12-12 05:00","1960","12","12","05:00","-13.9","","-18.9","","66","","2","","26","","24.1","","99.67","","","","-24","","Mostly Cloudy"
"1960-12-12 06:00","1960","12","12","06:00","-13.9","","-18.3","","70","","36","","26","","24.1","","99.71","","","","-24","","Mainly Clear"
"1960-12-12 07:00","1960","12","12","07:00","-16.7","","-20.0","","76","","36","","29","","24.1","","99.81","","","","-28","","Mainly Clear"
"1960-12-12 08:00","1960","12","12","08:00","-17.8","","-21.1","","74","","36","","27","","24.1","","99.88","","","","-29","","Mainly Clear"
"1960-12-12 09:00","1960","12","12","09:00","-17.2","","-20.6","","75","","36","","29","","24.1","","99.94","","","","-29","","Mainly Clear"
"1960-12-12 10:00","1960","12","12","10:00","-16.7","","-21.7","","66","","36","","27","","24.1","","100.03","","","","-28","","Mainly Clear"
"1960-12-12 11:00","1960","12","12","11:00","-16.1","","-21.7","","63","","36","","29","","25.0","","100.06","","","","-27","","Mainly Clear"
"1960-12-12 12:00","1960","12","12","12:00","-15.0","","-21.7","","57","","36","","32","","25.0","","100.01","","","","-26","","Mainly Clear"
"1960-12-12 13:00","1960","12","12","13:00","-15.0","","-20.6","","61","","36","","32","","25.0","","99.99","","","","-26","","Mainly Clear"
"1960-12-12 14:00","1960","12","12","14:00","-14.4","","-20.6","","61","","36","","27","","25.0","","100.00","","","","-25","","Mainly Clear"
"1960-12-12 15:00","1960","12","12","15:00","-14.4","","-20.6","","61","","36","","32","","25.0","","100.05","","","","-26","","Mainly Clear"
"1960-12-12 16:00","1960","12","12","16:00","-15.0","","-20.6","","63","","36","","29","","25.0","","100.10","","","","-26","","Mainly Clear"
"1960-12-12 17:00","1960","12","12","17:00","-15.6","","-20.6","","64","","34","","27","","25.0","","100.19","","","","-26","","Mainly Clear"
"1960-12-12 18:00","1960","12","12","18:00","-16.1","","-21.1","","65","","36","","29","","25.0","","100.23","","","","-27","","Clear"
"1960-12-12 19:00","1960","12","12","19:00","-16.7","","-20.6","","71","","34","","32","","25.0","","100.26","","","","-29","","Clear"
"1960-12-12 20:00","1960","12","12","20:00","-17.2","","-21.7","","70","","34","","27","","25.0","","100.29","","","","-28","","Clear"
"1960-12-12 21:00","1960","12","12","21:00","-17.8","","-21.7","","71","","34","","29","","25.0","","100.32","","","","-30","","Clear"
"1960-12-12 22:00","1960","12","12","22:00","-18.9","","-22.2","","75","","34","","31","","25.0","","100.34","","","","-31","","Clear"
"1960-12-12 23:00","1960","12","12","23:00","-19.4","","-22.2","","80","","34","","29","","25.0","","100.37","","","","-32","","Clear"
"1960-12-13 00:00","1960","12","13","00:00","-20.0","","-22.2","","82","","36","","27","","25.0","","100.37","","","","-32","","Clear"
"1960-12-13 01:00","1960","12","13","01:00","-20.0","","-23.3","","73","","34","","29","","25.0","","100.40","","","","-32","","Clear"
"1960-12-13 02:00","1960","12","13","02:00","-19.4","","-23.3","","71","","34","","26","","25.0","","100.41","","","","-31","","Clear"
"1960-12-13 03:00","1960","12","13","03:00","-19.4","","-22.8","","74","","34","","26","","25.0","","100.46","","","","-31","","Clear"
"1960-12-13 04:00","1960","12","13","04:00","-20.0","","-23.3","","73","","34","","26","","25.0","","100.46","","","","-32","","Clear"
"1960-12-13 05:00","1960","12","13","05:00","-19.4","","-23.3","","71","","34","","16","","25.0","","100.49","","","","-29","","Clear"
"1960-12-13 06:00","1960","12","13","06:00","-18.9","","-22.2","","75","","32","","16","","25.0","","100.53","","","","-28","","Clear"
"1960-12-13 07:00","1960","12","13","07:00","-18.9","","-22.2","","75","","32","","16","","25.0","","100.58","","","","-28","","Clear"
"1960-12-13 08:00","1960","12","13","08:00","-18.9","","-22.2","","75","","34","","13","","25.0","","100.55","","","","-27","","Clear"
"1960-12-13 09:00","1960","12","13","09:00","-17.2","","-20.0","","77","","34","","14","","24.1","","100.45","","","","-25","","Clear"
"1960-12-13 10:00","1960","12","13","10:00","-15.0","","-18.9","","72","","32","","21","","24.1","","100.53","","","","-24","","Mainly Clear"
"1960-12-13 11:00","1960","12","13","11:00","-12.8","","-15.6","","79","","29","","6","","25.0","","100.44","","","","-17","","Mostly Cloudy"
"1960-12-13 12:00","1960","12","13","12:00","-10.0","","-12.2","","84","","32","","5","","25.0","","100.32","","","","-13","","Mostly Cloudy"
"1960-12-13 13:00","1960","12","13","13:00","-7.8","","-10.6","","82","","29","","29","","25.0","","100.18","","","","-17","","Mainly Clear"
"1960-12-13 14:00","1960","12","13","14:00","-6.7","","-8.9","","86","","25","","19","","25.0","","100.06","","","","-14","","Mostly Cloudy"
"1960-12-13 15:00","1960","12","13","15:00","-7.2","","-13.3","","61","","29","","24","","25.0","","100.02","","","","-15","","Cloudy"
"1960-12-13 16:00","1960","12","13","16:00","-8.3","","-14.4","","63","","25","","24","","25.0","","99.93","","","","-16","","Cloudy"
"1960-12-13 17:00","1960","12","13","17:00","-8.3","","-13.9","","65","","23","","19","","25.0","","99.84","","","","-16","","Cloudy"
"1960-12-13 18:00","1960","12","13","18:00","-8.3","","-12.8","","70","","23","","16","","25.0","","99.78","","","","-15","","Cloudy"
"1960-12-13 19:00","1960","12","13","19:00","-7.8","","-12.8","","68","","23","","23","","25.0","","99.69","","","","-16","","Cloudy"
"1960-12-13 20:00","1960","12","13","20:00","-8.3","","-13.9","","65","","23","","24","","25.0","","99.59","","","","-16","","Cloudy"
"1960-12-13 21:00","1960","12","13","21:00","-8.3","","-13.3","","67","","23","","21","","25.0","","99.56","","","","-16","","Cloudy"
"1960-12-13 22:00","1960","12","13","22:00","-7.8","","-12.8","","68","","23","","16","","25.0","","99.45","","","","-14","","Mostly Cloudy"
"1960-12-13 23:00","1960","12","13","23:00","-7.2","","-12.2","","68","","25","","23","","25.0","","99.40","","","","-15","","Mostly Cloudy"
"1960-12-14 00:00","1960","12","14","00:00","-7.2","","-12.2","","68","","25","","24","","25.0","","99.32","","","","-15","","Mostly Cloudy"
"1960-12-14 01:00","1960","12","14","01:00","-6.7","","-10.0","","77","","25","","29","","25.0","","99.19","","","","-15","","Cloudy"
"1960-12-14 02:00","1960","12","14","02:00","-7.8","","-11.1","","76","","25","","26","","25.0","","99.15","","","","-16","","Cloudy"
"1960-12-14 03:00","1960","12","14","03:00","-7.2","","-10.6","","77","","23","","29","","19.3","","99.11","","","","-16","","Snow Showers"
"1960-12-14 04:00","1960","12","14","04:00","-7.2","","-10.0","","80","","25","","29","","12.9","","99.06","","","","-16","","Snow Showers"
"1960-12-14 05:00","1960","12","14","05:00","-7.2","","-10.0","","81","","25","","26","","11.3","","99.04","","","","-15","","Snow Showers"
"1960-12-14 06:00","1960","12","14","06:00","-6.7","","-10.0","","78","","23","","19","","16.1","","99.04","","","","-14","","Snow Showers"
"1960-12-14 07:00","1960","12","14","07:00","-6.1","","-10.6","","72","","23","","16","","19.3","","99.02","","","","-12","","Snow Showers"
"1960-12-14 08:00","1960","12","14","08:00","-5.6","","-9.4","","74","","23","","16","","11.3","","99.00","","","","-12","","Snow Showers"
"1960-12-14 09:00","1960","12","14","09:00","-5.0","","-8.9","","74","","23","","8","","8.0","","99.04","","","","-9","","Snow Showers,Haze"
"1960-12-14 10:00","1960","12","14","10:00","-5.0","","-7.2","","86","","23","","13","","3.2","","99.06","","","","-10","","Snow Grains"
"1960-12-14 11:00","1960","12","14","11:00","-3.9","","-6.1","","84","","23","","23","","6.4","","99.06","","","","-11","","Snow,Fog"
"1960-12-14 12:00","1960","12","14","12:00","-3.3","","-5.6","","86","","23","","24","","6.4","","98.92","","","","-10","","Snow,Fog"
"1960-12-14 13:00","1960","12","14","13:00","-2.8","","-6.7","","76","","23","","24","","9.7","","98.86","","","","-9","","Haze"
"1960-12-14 14:00","1960","12","14","14:00","-1.7","","-6.1","","73","","23","","19","","9.7","","98.82","","","","-7","","Haze"
"1960-12-14 15:00","1960","12","14","15:00","-1.7","","-5.0","","78","","23","","14","","9.7","","98.82","","","","-6","","Snow,Haze"
"1960-12-14 16:00","1960","12","14","16:00","-1.7","","-4.4","","80","","18","","13","","9.7","","98.85","","","","-6","","Snow,Haze"
"1960-12-14 17:00","1960","12","14","17:00","-1.7","","-5.6","","75","","18","","8","","8.0","","98.86","","","","-5","","Haze"
"1960-12-14 18:00","1960","12","14","18:00","-1.1","","-4.4","","78","","16","","6","","11.3","","98.88","","","","-3","","Cloudy"
"1960-12-14 19:00","1960","12","14","19:00","-1.7","","-5.6","","76","","20","","14","","12.9","","98.89","","","","-6","","Cloudy"
"1960-12-14 20:00","1960","12","14","20:00","-1.7","","-5.0","","78","","23","","32","","16.1","","98.88","","","","-9","","Cloudy"
"1960-12-14 21:00","1960","12","14","21:00","-1.7","","-4.4","","81","","20","","16","","16.1","","98.85","","","","-7","","Cloudy"
"1960-12-14 22:00","1960","12","14","22:00","-1.7","","-5.0","","78","","18","","8","","12.9","","98.83","","","","-5","","Cloudy"
"1960-12-14 23:00","1960","12","14","23:00","-1.7","","-4.4","","80","","16","","10","","12.9","","98.79","","","","-5","","Cloudy"
"1960-12-15 00:00","1960","12","15","00:00","-1.7","","-3.9","","84","","16","","8","","8.0","","98.73","","","","-5","","Haze"
"1960-12-15 01:00","1960","12","15","01:00","-1.1","","-3.9","","83","","18","","16","","12.9","","98.65","","","","-6","","Cloudy"
"1960-12-15 02:00","1960","12","15","02:00","-0.6","","-3.3","","82","","18","","19","","12.9","","98.59","","","","-6","","Cloudy"
"1960-12-15 03:00","1960","12","15","03:00","-1.1","","-3.9","","83","","18","","16","","16.1","","98.61","","","","-6","","Cloudy"
"1960-12-15 04:00","1960","12","15","04:00","-1.7","","-3.9","","84","","16","","23","","16.1","","98.51","","","","-8","","Mainly Clear"
"1960-12-15 05:00","1960","12","15","05:00","-1.1","","-2.2","","91","","18","","16","","16.1","","98.47","","","","-6","","Mostly Cloudy"
"1960-12-15 06:00","1960","12","15","06:00","0.0","","-2.2","","86","","18","","24","","16.1","","98.42","","","","-6","","Cloudy"
"1960-12-15 07:00","1960","12","15","07:00","0.6","","-1.7","","84","","18","","29","","19.3","","98.39","","","","","","Cloudy"
"1960-12-15 08:00","1960","12","15","08:00","0.6","","-2.8","","78","","18","","32","","12.9","","98.34","","","","","","Mostly Cloudy"
"1960-12-15 09:00","1960","12","15","09:00","0.0","","-3.9","","74","","20","","35","","9.7","","98.35","","","","-7","","Haze"
"1960-12-15 10:00","1960","12","15","10:00","0.6","","-2.8","","78","","20","","26","","8.0","","98.33","","","","","","Haze"
"1960-12-15 11:00","1960","12","15","11:00","1.1","","-2.2","","79","","20","","24","","8.0","","98.24","","","","","","Haze"
"1960-12-15 12:00","1960","12","15","12:00","2.2","","-1.1","","79","","23","","32","","8.0","","98.15","","","","","","Haze"
"1960-12-15 13:00","1960","12","15","13:00","2.8","","-0.6","","79","","20","","31","","9.7","","98.08","","","","","","Haze"
"1960-12-15 14:00","1960","12","15","14:00","2.2","","-1.1","","79","","20","","31","","9.7","","98.07","","","","","","Haze"
"1960-12-15 15:00","1960","12","15","15:00","2.8","","-1.1","","77","","23","","32","","9.7","","98.08","","","","","","Haze"
"1960-12-15 16:00","1960","12","15","16:00","2.8","","-1.1","","77","","23","","29","","11.3","","98.12","","","","","","Cloudy"
"1960-12-15 17:00","1960","12","15","17:00","2.8","","-1.1","","74","","23","","29","","11.3","","98.14","","","","","","Cloudy"
"1960-12-15 18:00","1960","12","15","18:00","2.8","","-1.1","","77","","20","","19","","16.1","","98.14","","","","","","Cloudy"
"1960-12-15 19:00","1960","12","15","19:00","2.8","","-1.1","","74","","20","","16","","16.1","","98.12","","","","","","Cloudy"
"1960-12-15 20:00","1960","12","15","20:00","1.7","","-1.7","","78","","20","","26","","12.9","","98.08","","","","","","Snow"
"1960-12-15 21:00","1960","12","15","21:00","1.7","","-0.6","","86","","20","","26","","12.9","","98.02","","","","","","Snow"
"1960-12-15 22:00","1960","12","15","22:00","0.6","","-0.6","","91","","20","","23","","3.2","","97.96","","","","","","Snow"
"1960-12-15 23:00","1960","12","15","23:00","1.1","","0.0","","92","","20","","21","","9.7","","97.93","","","","","","Snow"
"1960-12-16 00:00","1960","12","16","00:00","1.1","","0.0","","92","","20","","23","","6.4","","97.89","","","","","","Snow"
"1960-12-16 01:00","1960","12","16","01:00","1.1","","0.6","","94","","20","","16","","6.4","","97.86","","","","","","Snow"
"1960-12-16 02:00","1960","12","16","02:00","0.6","","0.0","","94","","20","","19","","2.8","","97.85","","","","","","Snow"
"1960-12-16 03:00","1960","12","16","03:00","0.6","","0.0","","94","","20","","16","","2.8","","97.86","","","","","","Snow"
"1960-12-16 04:00","1960","12","16","04:00","0.0","","-0.6","","94","","29","","31","","9.7","","97.93","","","","-7","","Snow"
"1960-12-16 05:00","1960","12","16","05:00","-0.6","","-2.8","","85","","32","","21","","25.0","","98.01","","","","-6","","Cloudy"
"1960-12-16 06:00","1960","12","16","06:00","-1.7","","-3.9","","84","","32","","23","","25.0","","98.12","","","","-8","","Cloudy"
"1960-12-16 07:00","1960","12","16","07:00","-2.2","","-3.9","","87","","29","","18","","25.0","","98.25","","","","-8","","Cloudy"
"1960-12-16 08:00","1960","12","16","08:00","-2.2","","-6.1","","75","","29","","27","","25.0","","98.39","","","","-9","","Mostly Cloudy"
"1960-12-16 09:00","1960","12","16","09:00","-2.8","","-7.2","","73","","29","","24","","25.0","","98.51","","","","-9","","Mostly Cloudy"
"1960-12-16 10:00","1960","12","16","10:00","-2.8","","-7.2","","73","","29","","27","","25.0","","98.61","","","","-10","","Mostly Cloudy"
"1960-12-16 11:00","1960","12","16","11:00","-2.8","","-7.2","","73","","29","","37","","25.0","","98.65","","","","-11","","Mainly Clear"
"1960-12-16 12:00","1960","12","16","12:00","-2.2","","-7.8","","66","","29","","39","","25.0","","98.61","","","","-10","","Mainly Clear"
"1960-12-16 13:00","1960","12","16","13:00","-1.7","","-7.8","","64","","29","","37","","25.0","","98.58","","","","-9","","Mainly Clear"
"1960-12-16 14:00","1960","12","16","14:00","-1.7","","-8.3","","61","","29","","29","","25.0","","98.61","","","","-9","","Mainly Clear"
"1960-12-16 15:00","1960","12","16","15:00","-2.8","","-8.3","","66","","27","","24","","25.0","","98.68","","","","-9","","Mostly Cloudy"
"1960-12-16 16:00","1960","12","16","16:00","-3.9","","-6.7","","82","","29","","29","","3.2","","98.75","","","","-11","","Snow Showers"
"1960-12-16 17:00","1960","12","16","17:00","-4.4","","-7.2","","82","","27","","27","","25.0","","98.78","","","","-12","","Mostly Cloudy"
"1960-12-16 18:00","1960","12","16","18:00","-5.0","","-8.9","","75","","27","","26","","25.0","","98.80","","","","-12","","Mostly Cloudy"
"1960-12-16 19:00","1960","12","16","19:00","-5.0","","-10.0","","69","","27","","26","","25.0","","98.81","","","","-12","","Cloudy"
"1960-12-16 20:00","1960","12","16","20:00","-5.6","","-9.4","","73","","27","","26","","25.0","","98.83","","","","-13","","Cloudy"
"1960-12-16 21:00","1960","12","16","21:00","-5.6","","-10.0","","70","","27","","32","","25.0","","98.84","","","","-14","","Snow Showers"
"1960-12-16 22:00","1960","12","16","22:00","-6.1","","-10.0","","73","","27","","32","","25.0","","98.82","","","","-15","","Cloudy"
"1960-12-16 23:00","1960","12","16","23:00","-6.1","","-9.4","","77","","25","","32","","25.0","","98.81","","","","-15","","Cloudy"
"1960-12-17 00:00","1960","12","17","00:00","-6.7","","-10.0","","78","","23","","24","","25.0","","98.78","","","","-14","","Mainly Clear"
"1960-12-17 01:00","1960","12","17","01:00","-7.2","","-10.6","","79","","25","","19","","19.3","","98.69","","","","-14","","Mainly Clear"
"1960-12-17 02:00","1960","12","17","02:00","-7.2","","-10.0","","80","","25","","23","","19.3","","98.68","","","","-15","","Mostly Cloudy"
"1960-12-17 03:00","1960","12","17","03:00","-6.7","","-9.4","","81","","25","","23","","19.3","","98.66","","","","-14","","Cloudy"
"1960-12-17 04:00","1960","12","17","04:00","-7.2","","-9.4","","83","","25","","16","","19.3","","98.64","","","","-14","","Mostly Cloudy"
"1960-12-17 05:00","1960","12","17","05:00","-8.3","","-11.1","","79","","25","","16","","19.3","","98.64","","","","-15","","Mainly Clear"
"1960-12-17 06:00","1960","12","17","06:00","-8.9","","-11.7","","80","","25","","23","","19.3","","98.70","","","","-17","","Mostly Cloudy"
"1960-12-17 07:00","1960","12","17","07:00","-8.3","","-10.6","","82","","25","","23","","19.3","","98.72","","","","-16","","Cloudy"
"1960-12-17 08:00","1960","12","17","08:00","-7.2","","-10.0","","80","","25","","14","","16.1","","98.77","","","","-13","","Cloudy"
"1960-12-17 09:00","1960","12","17","09:00","-6.1","","-8.9","","79","","25","","24","","12.9","","98.80","","","","-14","","Mostly Cloudy"
"1960-12-17 10:00","1960","12","17","10:00","-5.0","","-7.8","","80","","25","","29","","16.1","","98.82","","","","-13","","Mainly Clear"
"1960-12-17 11:00","1960","12","17","11:00","-3.3","","-7.2","","75","","25","","39","","24.1","","98.87","","","","-12","","Mainly Clear"
"1960-12-17 12:00","1960","12","17","12:00","-2.8","","-7.8","","70","","27","","40","","24.1","","98.89","","","","-11","","Mostly Cloudy"
"1960-12-17 13:00","1960","12","17","13:00","-2.2","","-7.2","","69","","27","","40","","12.9","","98.91","","","","-10","","Mostly Cloudy"
"1960-12-17 14:00","1960","12","17","14:00","-3.9","","-7.8","","75","","25","","32","","16.1","","99.02","","","","-12","","Snow Showers"
"1960-12-17 15:00","1960","12","17","15:00","-3.9","","-9.4","","66","","27","","42","","19.3","","99.14","","","","-13","","Mainly Clear"
"1960-12-17 16:00","1960","12","17","16:00","-4.4","","-10.0","","65","","27","","40","","19.3","","99.25","","","","-13","","Mainly Clear"
"1960-12-17 17:00","1960","12","17","17:00","-5.0","","-9.4","","72","","27","","31","","25.0","","99.37","","","","-13","","Mainly Clear"
"1960-12-17 18:00","1960","12","17","18:00","-6.1","","-10.6","","72","","25","","27","","25.0","","99.47","","","","-14","","Mostly Cloudy"
"1960-12-17 19:00","1960","12","17","19:00","-6.1","","-10.6","","72","","23","","23","","25.0","","99.52","","","","-13","","Mostly Cloudy"
"1960-12-17 20:00","1960","12","17","20:00","-6.1","","-9.4","","77","","23","","24","","25.0","","99.54","","","","-14","","Mostly Cloudy"
"1960-12-17 21:00","1960","12","17","21:00","-5.6","","-8.9","","76","","23","","16","","24.1","","99.61","","","","-12","","Snow Showers"
"1960-12-17 22:00","1960","12","17","22:00","-5.0","","-8.9","","75","","23","","19","","24.1","","99.63","","","","-11","","Snow Showers"
"1960-12-17 23:00","1960","12","17","23:00","-5.6","","-9.4","","75","","23","","19","","19.3","","99.68","","","","-12","","Snow Showers"
"1960-12-18 00:00","1960","12","18","00:00","-6.1","","-10.6","","70","","23","","19","","25.0","","99.67","","","","-13","","Mostly Cloudy"
"1960-12-18 01:00","1960","12","18","01:00","-6.7","","-11.1","","70","","23","","16","","25.0","","99.69","","","","-13","","Mainly Clear"
"1960-12-18 02:00","1960","12","18","02:00","-7.2","","-10.6","","77","","20","","16","","25.0","","99.74","","","","-14","","Clear"
"1960-12-18 03:00","1960","12","18","03:00","-7.8","","-10.6","","79","","23","","23","","25.0","","99.76","","","","-16","","Clear"
"1960-12-18 04:00","1960","12","18","04:00","-8.3","","-11.7","","75","","23","","23","","25.0","","99.74","","","","-16","","Clear"
"1960-12-18 05:00","1960","12","18","05:00","-7.8","","-11.7","","75","","23","","19","","25.0","","99.73","","","","-15","","Mostly Cloudy"
"1960-12-18 06:00","1960","12","18","06:00","-7.2","","-11.1","","75","","23","","16","","25.0","","99.78","","","","-14","","Mostly Cloudy"
"1960-12-18 07:00","1960","12","18","07:00","-6.7","","-10.0","","78","","20","","13","","25.0","","99.79","","","","-12","","Mainly Clear"
"1960-12-18 08:00","1960","12","18","08:00","-7.2","","-10.6","","76","","23","","29","","19.3","","99.89","","","","-16","","Mainly Clear"
"1960-12-18 09:00","1960","12","18","09:00","-6.1","","-10.0","","75","","23","","29","","19.3","","99.92","","","","-14","","Mostly Cloudy"
"1960-12-18 10:00","1960","12","18","10:00","-4.4","","-8.9","","73","","23","","24","","25.0","","99.93","","","","-11","","Mainly Clear"
"1960-12-18 11:00","1960","12","18","11:00","-2.2","","-7.8","","65","","23","","32","","25.0","","99.92","","","","-10","","Mainly Clear"
"1960-12-18 12:00","1960","12","18","12:00","-2.2","","-7.8","","66","","25","","29","","25.0","","99.86","","","","-9","","Mainly Clear"
"1960-12-18 13:00","1960","12","18","13:00","-1.1","","-7.8","","60","","25","","29","","25.0","","99.81","","","","-8","","Mainly Clear"
"1960-12-18 14:00","1960","12","18","14:00","0.0","","-6.7","","60","","25","","32","","25.0","","99.78","","","","-7","","Mainly Clear"
"1960-12-18 15:00","1960","12","18","15:00","0.0","","-6.1","","63","","23","","39","","25.0","","99.77","","","","-7","","Mainly Clear"
"1960-12-18 16:00","1960","12","18","16:00","-1.1","","-6.1","","68","","23","","32","","25.0","","99.77","","","","-8","","Mostly Cloudy"
"1960-12-18 17:00","1960","12","18","17:00","-2.2","","-6.1","","76","","20","","26","","24.1","","99.75","","","","-9","","Mostly Cloudy"
"1960-12-18 18:00","1960","12","18","18:00","-2.8","","-5.6","","80","","20","","19","","24.1","","99.74","","","","-9","","Mostly Cloudy"
"1960-12-18 19:00","1960","12","18","19:00","-2.2","","-5.6","","79","","23","","23","","19.3","","99.72","","","","-8","","Snow Showers"
"1960-12-18 20:00","1960","12","18","20:00","-1.7","","-3.9","","85","","23","","23","","2.4","","99.68","","","","-8","","Snow"
"1960-12-18 21:00","1960","12","18","21:00","-1.7","","-3.9","","85","","23","","24","","9.7","","99.62","","","","-8","","Snow"
"1960-12-18 22:00","1960","12","18","22:00","-1.7","","-3.3","","87","","23","","19","","19.3","","99.58","","","","-7","","Snow"
"1960-12-18 23:00","1960","12","18","23:00","-2.2","","-3.9","","87","","23","","19","","24.1","","99.54","","","","-8","","Mostly Cloudy"
"1960-12-19 00:00","1960","12","19","00:00","-2.2","","-4.4","","86","","25","","27","","24.1","","99.52","","","","-9","","Mostly Cloudy"
"1960-12-19 01:00","1960","12","19","01:00","-3.3","","-5.0","","87","","27","","19","","25.0","","99.55","","","","-9","","Mainly Clear"
"1960-12-19 02:00","1960","12","19","02:00","-5.0","","-7.8","","82","","27","","16","","25.0","","99.59","","","","-11","","Mainly Clear"
"1960-12-19 03:00","1960","12","19","03:00","-6.1","","-8.3","","84","","27","","11","","25.0","","99.62","","","","-11","","Mainly Clear"
"1960-12-19 04:00","1960","12","19","04:00","-7.2","","-9.4","","84","","27","","16","","25.0","","99.64","","","","-14","","Mainly Clear"
"1960-12-19 05:00","1960","12","19","05:00","-6.7","","-8.3","","87","","25","","24","","25.0","","99.62","","","","-14","","Mostly Cloudy"
"1960-12-19 06:00","1960","12","19","06:00","-7.8","","-9.4","","87","","25","","21","","25.0","","99.67","","","","-15","","Mainly Clear"
"1960-12-19 07:00","1960","12","19","07:00","-7.8","","-11.1","","76","","25","","18","","25.0","","99.76","","","","-15","","Mainly Clear"
"1960-12-19 08:00","1960","12","19","08:00","-8.9","","-11.7","","80","","29","","6","","25.0","","99.84","","","","-12","","Mainly Clear"
"1960-12-19 09:00","1960","12","19","09:00","-7.2","","-10.0","","80","","27","","26","","25.0","","99.92","","","","-15","","Mainly Clear"
"1960-12-19 10:00","1960","12","19","10:00","-5.6","","-8.3","","80","","27","","24","","25.0","","100.01","","","","-13","","Mainly Clear"
"1960-12-19 11:00","1960","12","19","11:00","-4.4","","-8.3","","75","","27","","23","","25.0","","100.06","","","","-11","","Mainly Clear"
"1960-12-19 12:00","1960","12","19","12:00","-2.8","","-9.4","","60","","29","","27","","25.0","","100.03","","","","-10","","Mainly Clear"
"1960-12-19 13:00","1960","12","19","13:00","-2.8","","-9.4","","61","","27","","24","","25.0","","100.01","","","","-9","","Mainly Clear"
"1960-12-19 14:00","1960","12","19","14:00","-2.2","","-8.9","","60","","29","","24","","25.0","","100.05","","","","-9","","Mainly Clear"
"1960-12-19 15:00","1960","12","19","15:00","-3.3","","-8.9","","64","","27","","24","","25.0","","100.11","","","","-10","","Mostly Cloudy"
"1960-12-19 16:00","1960","12","19","16:00","-3.3","","-8.9","","64","","29","","21","","25.0","","100.18","","","","-10","","Mostly Cloudy"
"1960-12-19 17:00","1960","12","19","17:00","-5.6","","-9.4","","73","","27","","18","","25.0","","100.25","","","","-12","","Mainly Clear"
"1960-12-19 18:00","1960","12","19","18:00","-6.7","","-11.1","","70","","27","","14","","25.0","","100.34","","","","-12","","Mainly Clear"
"1960-12-19 19:00","1960","12","19","19:00","-7.2","","-11.7","","71","","25","","6","","25.0","","100.41","","","","-10","","Clear"
"1960-12-19 20:00","1960","12","19","20:00","-8.3","","-11.7","","75","","27","","19","","25.0","","100.44","","","","-16","","Mainly Clear"
"1960-12-19 21:00","1960","12","19","21:00","-8.9","","-12.2","","77","","27","","6","","25.0","","100.44","","","","-12","","Mainly Clear"
"1960-12-19 22:00","1960","12","19","22:00","-9.4","","-11.7","","82","","25","","8","","25.0","","100.44","","","","-14","","Mainly Clear"
"1960-12-19 23:00","1960","12","19","23:00","-7.8","","-10.6","","82","","25","","13","","25.0","","100.46","","","","-14","","Cloudy"
"1960-12-20 00:00","1960","12","20","00:00","-6.7","","-8.9","","83","","","","0","","25.0","","100.46","","","","","","Mostly Cloudy"
"1960-12-20 01:00","1960","12","20","01:00","-7.2","","-9.4","","84","","25","","10","","25.0","","100.43","","","","-12","","Mainly Clear"
"1960-12-20 02:00","1960","12","20","02:00","-8.9","","-11.1","","83","","25","","10","","25.0","","100.44","","","","-14","","Clear"
"1960-12-20 03:00","1960","12","20","03:00","-10.0","","-12.2","","83","","25","","11","","25.0","","100.46","","","","-16","","Clear"
"1960-12-20 04:00","1960","12","20","04:00","-10.0","","-12.2","","84","","25","","14","","25.0","","100.44","","","","-16","","Mainly Clear"
"1960-12-20 05:00","1960","12","20","05:00","-10.6","","-12.8","","85","","25","","13","","25.0","","100.40","","","","-17","","Mainly Clear"
"1960-12-20 06:00","1960","12","20","06:00","-10.0","","-12.2","","84","","25","","11","","25.0","","100.41","","","","-16","","Mainly Clear"
"1960-12-20 07:00","1960","12","20","07:00","-10.6","","-13.3","","81","","25","","8","","25.0","","100.40","","","","-15","","Mainly Clear"
"1960-12-20 08:00","1960","12","20","08:00","-10.0","","-12.8","","78","","25","","10","","24.1","","100.40","","","","-15","","Mainly Clear"
"1960-12-20 09:00","1960","12","20","09:00","-8.9","","-11.7","","79","","25","","13","","19.3","","100.44","","","","-15","","Mostly Cloudy"
"1960-12-20 10:00","1960","12","20","10:00","-7.8","","-11.7","","75","","27","","8","","19.3","","100.44","","","","-12","","Mostly Cloudy"
"1960-12-20 11:00","1960","12","20","11:00","-5.6","","-10.0","","70","","27","","13","","19.3","","100.33","","","","-11","","Mostly Cloudy"
"1960-12-20 12:00","1960","12","20","12:00","-5.0","","-10.6","","66","","23","","16","","25.0","","100.20","","","","-11","","Cloudy"
"1960-12-20 13:00","1960","12","20","13:00","-4.4","","-10.6","","64","","23","","11","","16.1","","100.11","","","","-9","","Snow"
"1960-12-20 14:00","1960","12","20","14:00","-5.0","","-9.4","","70","","23","","13","","16.1","","100.04","","","","-10","","Snow"
"1960-12-20 15:00","1960","12","20","15:00","-5.6","","-7.8","","84","","23","","10","","3.2","","99.96","","","","-10","","Snow"
"1960-12-20 16:00","1960","12","20","16:00","-5.6","","-7.2","","87","","20","","5","","3.2","","99.92","","","","-8","","Snow"
"1960-12-20 17:00","1960","12","20","17:00","-5.6","","-6.7","","91","","20","","6","","2.4","","99.85","","","","-8","","Snow"
"1960-12-20 18:00","1960","12","20","18:00","-6.1","","-7.8","","88","","20","","5","","2.4","","99.75","","","","-9","","Snow"
"1960-12-20 19:00","1960","12","20","19:00","-6.1","","-8.3","","83","","","","0","","8.0","","99.68","","","","","","Snow"
"1960-12-20 20:00","1960","12","20","20:00","-6.7","","-7.8","","90","","","","0","","4.8","","99.60","","","","","","Snow"
"1960-12-20 21:00","1960","12","20","21:00","-6.7","","-7.8","","90","","34","","6","","3.2","","99.48","","","","-10","","Snow"
"1960-12-20 22:00","1960","12","20","22:00","-6.7","","-7.8","","91","","36","","10","","3.2","","99.30","","","","-11","","Snow"
"1960-12-20 23:00","1960","12","20","23:00","-6.7","","-7.8","","91","","2","","11","","1.6","","99.20","","","","-12","","Snow"
"1960-12-21 00:00","1960","12","21","00:00","-6.7","","-7.2","","95","","2","","14","","3.2","","99.02","","","","-12","","Snow"
"1960-12-21 01:00","1960","12","21","01:00","-6.1","","-7.2","","90","","36","","10","","1.6","","98.93","","","","-11","","Snow"
"1960-12-21 02:00","1960","12","21","02:00","-6.7","","-7.8","","90","","36","","21","","1.6","","98.75","","","","-14","","Snow"
"1960-12-21 03:00","1960","12","21","03:00","-6.7","","-7.8","","90","","36","","23","","1.6","","98.69","","","","-14","","Snow"
"1960-12-21 04:00","1960","12","21","04:00","-6.7","","-7.8","","90","","36","","26","","1.6","","98.55","","","","-15","","Snow"
"1960-12-21 05:00","1960","12","21","05:00","-6.7","","-7.8","","90","","36","","27","","1.6","","98.36","","","","-15","","Snow"
"1960-12-21 06:00","1960","12","21","06:00","-6.7","","-7.8","","90","","36","","29","","1.6","","98.25","","","","-15","","Snow"
"1960-12-21 07:00","1960","12","21","07:00","-6.7","","-8.3","","87","","34","","31","","1.6","","98.28","","","","-15","","Snow"
"1960-12-21 08:00","1960","12","21","08:00","-7.2","","-8.3","","91","","34","","37","","1.2","","98.25","","","","-17","","Snow"
"1960-12-21 09:00","1960","12","21","09:00","-7.2","","-8.3","","91","","34","","29","","1.6","","98.28","","","","-16","","Snow"
"1960-12-21 10:00","1960","12","21","10:00","-7.2","","-8.9","","88","","34","","29","","9.7","","98.35","","","","-16","","Snow"
"1960-12-21 11:00","1960","12","21","11:00","-6.7","","-8.9","","85","","34","","23","","25.0","","98.35","","","","-14","","Cloudy"
"1960-12-21 12:00","1960","12","21","12:00","-6.7","","-9.4","","79","","34","","32","","25.0","","98.28","","","","-15","","Mainly Clear"
"1960-12-21 13:00","1960","12","21","13:00","-6.1","","-10.0","","73","","34","","35","","25.0","","98.30","","","","-15","","Mostly Cloudy"
"1960-12-21 14:00","1960","12","21","14:00","-6.7","","-10.6","","73","","34","","29","","25.0","","98.37","","","","-15","","Mostly Cloudy"
"1960-12-21 15:00","1960","12","21","15:00","-7.2","","-11.7","","71","","32","","26","","25.0","","98.43","","","","-15","","Mainly Clear"
"1960-12-21 16:00","1960","12","21","16:00","-8.3","","-13.9","","65","","29","","26","","25.0","","98.51","","","","-17","","Mainly Clear"
"1960-12-21 17:00","1960","12","21","17:00","-8.9","","-12.8","","73","","29","","13","","25.0","","98.51","","","","-15","","Mainly Clear"
"1960-12-21 18:00","1960","12","21","18:00","-10.0","","-14.4","","71","","29","","16","","25.0","","98.54","","","","-17","","Mainly Clear"
"1960-12-21 19:00","1960","12","21","19:00","-12.2","","-16.1","","73","","27","","19","","25.0","","98.61","","","","-20","","Clear"
"1960-12-21 20:00","1960","12","21","20:00","-12.8","","-16.1","","76","","27","","16","","25.0","","98.64","","","","-20","","Mainly Clear"
"1960-12-21 21:00","1960","12","21","21:00","-13.9","","-16.1","","81","","27","","16","","25.0","","98.64","","","","-22","","Mainly Clear"
"1960-12-21 22:00","1960","12","21","22:00","-13.3","","-15.6","","82","","27","","13","","25.0","","98.64","","","","-20","","Mainly Clear"
"1960-12-21 23:00","1960","12","21","23:00","-15.6","","-17.2","","86","","27","","10","","24.1","","98.66","","","","-22","","Clear"
"1960-12-22 00:00","1960","12","22","00:00","-15.6","","-17.2","","86","","27","","16","","24.1","","98.68","","","","-24","","Clear"
"1960-12-22 01:00","1960","12","22","01:00","-15.0","","-17.8","","78","","27","","19","","24.1","","98.69","","","","-24","","Clear"
"1960-12-22 02:00","1960","12","22","02:00","-15.6","","-18.9","","77","","25","","13","","24.1","","98.77","","","","-23","","Clear"
"1960-12-22 03:00","1960","12","22","03:00","-15.6","","-18.9","","77","","25","","16","","24.1","","98.82","","","","-24","","Clear"
"1960-12-22 04:00","1960","12","22","04:00","-16.1","","-18.9","","81","","23","","16","","24.1","","98.78","","","","-25","","Clear"
"1960-12-22 05:00","1960","12","22","05:00","-12.2","","-15.0","","80","","23","","29","","24.1","","98.76","","","","-22","","Mainly Clear"
"1960-12-22 06:00","1960","12","22","06:00","-12.8","","-15.6","","81","","23","","32","","24.1","","98.83","","","","-23","","Clear"
"1960-12-22 07:00","1960","12","22","07:00","-12.8","","-16.1","","76","","23","","24","","24.1","","98.90","","","","-22","","Clear"
"1960-12-22 08:00","1960","12","22","08:00","-12.8","","-16.1","","76","","23","","19","","16.1","","98.96","","","","-21","","Clear"
"1960-12-22 09:00","1960","12","22","09:00","-13.3","","-16.1","","78","","23","","31","","16.1","","99.05","","","","-24","","Mostly Cloudy"
"1960-12-22 10:00","1960","12","22","10:00","-13.3","","-16.1","","80","","23","","29","","9.7","","99.10","","","","-24","","Blowing Snow"
"1960-12-22 11:00","1960","12","22","11:00","-12.2","","-15.0","","80","","23","","27","","6.4","","99.14","","","","-22","","Ice Crystals,Blowing Snow"
"1960-12-22 12:00","1960","12","22","12:00","-10.6","","-13.9","","76","","23","","29","","24.1","","99.09","","","","-20","","Mainly Clear"
"1960-12-22 13:00","1960","12","22","13:00","-10.0","","-14.4","","71","","23","","27","","9.7","","99.10","","","","-19","","Blowing Snow"
"1960-12-22 14:00","1960","12","22","14:00","-9.4","","-13.3","","72","","23","","26","","24.1","","99.14","","","","-18","","Mostly Cloudy"
"1960-12-22 15:00","1960","12","22","15:00","-10.0","","-13.9","","72","","23","","40","","12.9","","99.17","","","","-21","","Mainly Clear"
"1960-12-22 16:00","1960","12","22","16:00","-11.1","","-15.6","","70","","23","","32","","19.3","","99.22","","","","-21","","Mostly Cloudy"
"1960-12-22 17:00","1960","12","22","17:00","-11.1","","-15.0","","73","","23","","31","","19.3","","99.27","","","","-21","","Mostly Cloudy"
"1960-12-22 18:00","1960","12","22","18:00","-11.7","","-14.4","","79","","23","","27","","24.1","","99.36","","","","-21","","Mostly Cloudy"
"1960-12-22 19:00","1960","12","22","19:00","-11.7","","-15.6","","74","","23","","31","","24.1","","99.45","","","","-22","","Mainly Clear"
"1960-12-22 20:00","1960","12","22","20:00","-13.3","","-16.7","","75","","25","","18","","24.1","","99.49","","","","-22","","Mainly Clear"
"1960-12-22 21:00","1960","12","22","21:00","-13.9","","-17.8","","72","","25","","18","","24.1","","99.52","","","","-22","","Mainly Clear"
"1960-12-22 22:00","1960","12","22","22:00","-14.4","","-18.3","","71","","25","","21","","24.1","","99.54","","","","-24","","Mainly Clear"
"1960-12-22 23:00","1960","12","22","23:00","-15.0","","-18.9","","74","","23","","21","","24.1","","99.53","","","","-24","","Mainly Clear"
"1960-12-23 00:00","1960","12","23","00:00","-15.6","","-18.9","","75","","23","","35","","25.0","","99.55","","","","-28","","Clear"
"1960-12-23 01:00","1960","12","23","01:00","-15.0","","-18.9","","74","","25","","23","","25.0","","99.56","","","","-25","","Clear"
"1960-12-23 02:00","1960","12","23","02:00","-16.1","","-18.9","","79","","23","","18","","25.0","","99.63","","","","-25","","Clear"
"1960-12-23 03:00","1960","12","23","03:00","-17.2","","-19.4","","82","","23","","19","","25.0","","99.65","","","","-27","","Clear"
"1960-12-23 04:00","1960","12","23","04:00","-17.8","","-20.0","","82","","23","","19","","25.0","","99.65","","","","-27","","Clear"
"1960-12-23 05:00","1960","12","23","05:00","-17.8","","-20.0","","82","","23","","19","","25.0","","99.64","","","","-27","","Clear"
"1960-12-23 06:00","1960","12","23","06:00","-17.2","","-20.0","","80","","23","","18","","25.0","","99.68","","","","-26","","Mostly Cloudy"
"1960-12-23 07:00","1960","12","23","07:00","-16.7","","-20.0","","76","","23","","24","","25.0","","99.75","","","","-27","","Mostly Cloudy"
"1960-12-23 08:00","1960","12","23","08:00","-16.7","","-19.4","","78","","23","","13","","19.3","","99.86","","","","-24","","Mostly Cloudy"
"1960-12-23 09:00","1960","12","23","09:00","-15.6","","-20.0","","69","","23","","24","","16.1","","99.92","","","","-26","","Mostly Cloudy"
"1960-12-23 10:00","1960","12","23","10:00","-14.4","","-18.9","","69","","25","","32","","14.5","","99.97","","","","-26","","Cloudy"
"1960-12-23 11:00","1960","12","23","11:00","-13.3","","-17.8","","69","","25","","34","","19.3","","100.01","","","","-24","","Cloudy"
"1960-12-23 12:00","1960","12","23","12:00","-12.2","","-17.2","","68","","25","","31","","19.3","","100.00","","","","-23","","Mostly Cloudy"
"1960-12-23 13:00","1960","12","23","13:00","-11.7","","-16.1","","69","","25","","32","","19.3","","100.01","","","","-22","","Mainly Clear"
"1960-12-23 14:00","1960","12","23","14:00","-11.1","","-15.6","","68","","25","","32","","24.1","","100.06","","","","-21","","Mainly Clear"
"1960-12-23 15:00","1960","12","23","15:00","-10.6","","-15.6","","66","","25","","21","","24.1","","100.17","","","","-19","","Mainly Clear"
"1960-12-23 16:00","1960","12","23","16:00","-11.1","","-16.1","","65","","25","","31","","24.1","","100.27","","","","-21","","Mainly Clear"
"1960-12-23 17:00","1960","12","23","17:00","-12.2","","-17.2","","66","","25","","32","","24.1","","100.42","","","","-23","","Mainly Clear"
"1960-12-23 18:00","1960","12","23","18:00","-13.3","","-18.3","","67","","25","","26","","24.1","","100.50","","","","-23","","Clear"
"1960-12-23 19:00","1960","12","23","19:00","-13.9","","-18.3","","70","","25","","26","","24.1","","100.63","","","","-24","","Mainly Clear"
"1960-12-23 20:00","1960","12","23","20:00","-15.0","","-18.9","","72","","27","","16","","25.0","","100.71","","","","-23","","Clear"
"1960-12-23 21:00","1960","12","23","21:00","-15.6","","-20.0","","69","","25","","16","","25.0","","100.71","","","","-24","","Clear"
"1960-12-23 22:00","1960","12","23","22:00","-16.1","","-20.6","","70","","27","","10","","25.0","","100.77","","","","-23","","Clear"
"1960-12-23 23:00","1960","12","23","23:00","-16.1","","-21.7","","63","","20","","10","","25.0","","100.78","","","","-23","","Clear"
"1960-12-24 00:00","1960","12","24","00:00","-16.7","","-21.7","","64","","20","","10","","25.0","","100.80","","","","-23","","Clear"
"1960-12-24 01:00","1960","12","24","01:00","-17.2","","-22.8","","63","","25","","3","","25.0","","100.85","","","","-20","","Clear"
"1960-12-24 02:00","1960","12","24","02:00","-18.9","","-22.2","","75","","29","","3","","25.0","","100.87","","","","-21","","Clear"
"1960-12-24 03:00","1960","12","24","03:00","-21.1","","-23.9","","78","","34","","5","","25.0","","100.88","","","","-26","","Clear"
"1960-12-24 04:00","1960","12","24","04:00","-20.6","","-23.3","","79","","","","0","","25.0","","100.84","","","","","","Clear"
"1960-12-24 05:00","1960","12","24","05:00","-21.1","","-23.9","","78","","","","0","","25.0","","100.82","","","","","","Clear"
"1960-12-24 06:00","1960","12","24","06:00","-21.1","","-23.9","","78","","","","0","","25.0","","100.82","","","","","","Clear"
"1960-12-24 07:00","1960","12","24","07:00","-22.2","","-25.0","","77","","34","","5","","25.0","","100.82","","","","-27","","Mainly Clear"
"1960-12-24 08:00","1960","12","24","08:00","-22.2","","-24.4","","81","","34","","10","","12.9","","100.84","","","","-30","","Mainly Clear"
"1960-12-24 09:00","1960","12","24","09:00","-20.6","","-24.4","","69","","34","","10","","16.1","","100.83","","","","-28","","Mainly Clear"
"1960-12-24 10:00","1960","12","24","10:00","-17.8","","-21.1","","76","","34","","10","","12.9","","100.81","","","","-25","","Mainly Clear"
"1960-12-24 11:00","1960","12","24","11:00","-14.4","","-17.8","","77","","36","","6","","12.9","","100.75","","","","-19","","Mainly Clear"
"1960-12-24 12:00","1960","12","24","12:00","-11.7","","-16.1","","69","","29","","3","","12.9","","100.62","","","","-14","","Mainly Clear"
"1960-12-24 13:00","1960","12","24","13:00","-10.0","","-14.4","","71","","23","","3","","11.3","","100.52","","","","-12","","Mostly Cloudy"
"1960-12-24 14:00","1960","12","24","14:00","-8.3","","-12.8","","70","","","","0","","8.0","","100.47","","","","","","Snow Showers"
"1960-12-24 15:00","1960","12","24","15:00","-7.8","","-12.8","","67","","","","0","","11.3","","100.44","","","","","","Mainly Clear"
"1960-12-24 16:00","1960","12","24","16:00","-8.3","","-12.8","","70","","14","","6","","9.7","","100.38","","","","-12","","Haze"
"1960-12-24 17:00","1960","12","24","17:00","-8.3","","-12.8","","71","","","","0","","8.0","","100.43","","","","","","Haze"
"1960-12-24 18:00","1960","12","24","18:00","-9.4","","-12.8","","76","","","","0","","12.9","","100.39","","","","","","Snow"
"1960-12-24 19:00","1960","12","24","19:00","-9.4","","-12.8","","78","","","","0","","9.7","","100.36","","","","","","Snow"
"1960-12-24 20:00","1960","12","24","20:00","-9.4","","-12.2","","79","","","","0","","16.1","","100.34","","","","","","Snow"
"1960-12-24 21:00","1960","12","24","21:00","-9.4","","-12.2","","81","","","","0","","16.1","","100.29","","","","","","Cloudy"
"1960-12-24 22:00","1960","12","24","22:00","-8.9","","-12.2","","77","","","","0","","16.1","","100.22","","","","","","Cloudy"
"1960-12-24 23:00","1960","12","24","23:00","-8.3","","-11.7","","78","","","","0","","16.1","","100.17","","","","","","Cloudy"
"1960-12-25 00:00","1960","12","25","00:00","-8.3","","-11.1","","81","","","","0","","16.1","","100.08","","","","","","Cloudy"
"1960-12-25 01:00","1960","12","25","01:00","-7.2","","-10.0","","80","","23","","18","","9.7","","100.04","","","","-14","","Haze"
"1960-12-25 02:00","1960","12","25","02:00","-6.7","","-8.3","","89","","23","","26","","12.9","","100.07","","","","-15","","Cloudy"
"1960-12-25 03:00","1960","12","25","03:00","-6.1","","-8.9","","82","","23","","24","","12.9","","100.07","","","","-14","","Cloudy"
"1960-12-25 04:00","1960","12","25","04:00","-6.7","","-8.9","","86","","23","","24","","12.9","","99.98","","","","-14","","Snow Showers"
"1960-12-25 05:00","1960","12","25","05:00","-6.1","","-8.9","","79","","23","","21","","12.9","","99.91","","","","-13","","Cloudy"
"1960-12-25 06:00","1960","12","25","06:00","-6.7","","-9.4","","79","","20","","24","","12.9","","99.90","","","","-14","","Mainly Clear"
"1960-12-25 07:00","1960","12","25","07:00","-6.7","","-9.4","","81","","23","","21","","12.9","","99.93","","","","-14","","Mostly Cloudy"
"1960-12-25 08:00","1960","12","25","08:00","-5.6","","-8.3","","81","","23","","24","","12.9","","99.92","","","","-13","","Mostly Cloudy"
"1960-12-25 09:00","1960","12","25","09:00","-5.0","","-7.2","","83","","23","","39","","8.0","","99.94","","","","-14","","Haze"
"1960-12-25 10:00","1960","12","25","10:00","-3.9","","-6.7","","83","","23","","37","","9.7","","99.94","","","","-12","","Haze"
"1960-12-25 11:00","1960","12","25","11:00","-3.3","","-6.1","","82","","23","","39","","11.3","","99.94","","","","-12","","Cloudy"
"1960-12-25 12:00","1960","12","25","12:00","-2.8","","-6.1","","79","","23","","27","","11.3","","99.87","","","","-10","","Cloudy"
"1960-12-25 13:00","1960","12","25","13:00","-2.2","","-5.0","","80","","23","","26","","11.3","","99.75","","","","-9","","Cloudy"
"1960-12-25 14:00","1960","12","25","14:00","-1.1","","-3.9","","81","","20","","24","","11.3","","99.67","","","","-7","","Cloudy"
"1960-12-25 15:00","1960","12","25","15:00","0.0","","-3.3","","80","","20","","23","","16.1","","99.62","","","","-6","","Mostly Cloudy"
"1960-12-25 16:00","1960","12","25","16:00","0.0","","-3.3","","80","","20","","19","","16.1","","99.58","","","","-5","","Mostly Cloudy"
"1960-12-25 17:00","1960","12","25","17:00","0.0","","-2.8","","83","","20","","13","","19.3","","99.56","","","","-4","","Mostly Cloudy"
"1960-12-25 18:00","1960","12","25","18:00","-0.6","","-2.8","","85","","18","","10","","24.1","","99.58","","","","-4","","Mostly Cloudy"
"1960-12-25 19:00","1960","12","25","19:00","-0.6","","-4.4","","76","","18","","8","","24.1","","99.54","","","","-3","","Clear"
"1960-12-25 20:00","1960","12","25","20:00","0.0","","-4.4","","71","","18","","8","","24.1","","99.50","","","","-3","","Clear"
"1960-12-25 21:00","1960","12","25","21:00","-1.1","","-3.3","","84","","18","","6","","25.0","","99.42","","","","-3","","Mainly Clear"
"1960-12-25 22:00","1960","12","25","22:00","-1.1","","-3.9","","83","","18","","6","","25.0","","99.32","","","","-3","","Mainly Clear"
"1960-12-25 23:00","1960","12","25","23:00","-1.1","","-3.3","","84","","18","","11","","25.0","","99.26","","","","-5","","Mostly Cloudy"
"1960-12-26 00:00","1960","12","26","00:00","-0.6","","-3.3","","82","","18","","13","","25.0","","99.15","","","","-5","","Mostly Cloudy"
"1960-12-26 01:00","1960","12","26","01:00","-0.6","","-2.8","","85","","18","","10","","25.0","","99.13","","","","-4","","Mostly Cloudy"
"1960-12-26 02:00","1960","12","26","02:00","-1.7","","-3.9","","83","","16","","10","","25.0","","99.10","","","","-5","","Mostly Cloudy"
"1960-12-26 03:00","1960","12","26","03:00","-1.1","","-3.3","","85","","16","","10","","25.0","","99.02","","","","-5","","Cloudy"
"1960-12-26 04:00","1960","12","26","04:00","-0.6","","-3.3","","82","","16","","13","","25.0","","98.91","","","","-5","","Cloudy"
"1960-12-26 05:00","1960","12","26","05:00","-0.6","","-2.8","","85","","16","","6","","25.0","","98.76","","","","-3","","Mostly Cloudy"
"1960-12-26 06:00","1960","12","26","06:00","-3.3","","-4.4","","90","","","","0","","25.0","","98.70","","","","","","Cloudy"
"1960-12-26 07:00","1960","12","26","07:00","-1.7","","-2.8","","91","","","","0","","25.0","","98.66","","","","","","Cloudy"
"1960-12-26 08:00","1960","12","26","08:00","0.6","","-2.2","","81","","20","","8","","8.0","","98.59","","","","","","Haze"
"1960-12-26 09:00","1960","12","26","09:00","1.7","","-1.1","","81","","18","","8","","11.3","","98.55","","","","","","Cloudy"
"1960-12-26 10:00","1960","12","26","10:00","1.7","","-1.1","","81","","23","","16","","9.7","","98.54","","","","","","Rain,Haze"
"1960-12-26 11:00","1960","12","26","11:00","2.2","","0.6","","89","","23","","11","","4.8","","98.48","","","","","","Rain,Ice Pellets,Fog"
"1960-12-26 12:00","1960","12","26","12:00","2.2","","1.1","","92","","23","","10","","4.0","","98.38","","","","","","Rain,Drizzle,Fog"
"1960-12-26 13:00","1960","12","26","13:00","1.7","","1.1","","94","","23","","8","","3.2","","98.29","","","","","","Rain,Drizzle,Fog"
"1960-12-26 14:00","1960","12","26","14:00","1.1","","0.6","","97","","29","","10","","1.2","","98.29","","","","","","Ice Pellets,Fog"
"1960-12-26 15:00","1960","12","26","15:00","0.0","","-0.6","","97","","34","","19","","2.8","","98.39","","","","-5","","Snow,Snow Grains,Fog"
"1960-12-26 16:00","1960","12","26","16:00","-0.6","","-1.7","","91","","34","","32","","2.0","","98.50","","","","-7","","Snow,Fog"
"1960-12-26 17:00","1960","12","26","17:00","-3.3","","-4.4","","92","","34","","32","","3.2","","98.66","","","","-11","","Snow"
"1960-12-26 18:00","1960","12","26","18:00","-4.4","","-6.1","","89","","34","","29","","6.4","","98.88","","","","-12","","Snow"
"1960-12-26 19:00","1960","12","26","19:00","-5.0","","-6.1","","81","","34","","35","","19.3","","99.09","","","","-14","","Snow"
"1960-12-26 20:00","1960","12","26","20:00","-6.7","","-9.4","","79","","34","","39","","24.1","","99.32","","","","-16","","Mostly Cloudy"
"1960-12-26 21:00","1960","12","26","21:00","-6.7","","-10.0","","77","","34","","35","","24.1","","99.48","","","","-16","","Mostly Cloudy"
"1960-12-26 22:00","1960","12","26","22:00","-7.8","","-11.1","","78","","34","","34","","25.0","","99.59","","","","-17","","Mainly Clear"
"1960-12-26 23:00","1960","12","26","23:00","-9.4","","-13.3","","73","","34","","39","","25.0","","99.77","","","","-20","","Mainly Clear"
"1960-12-27 00:00","1960","12","27","00:00","-10.6","","-13.3","","79","","34","","23","","19.3","","99.92","","","","-19","","Snow Showers"
"1960-12-27 01:00","1960","12","27","01:00","-12.8","","-15.0","","83","","36","","23","","25.0","","100.05","","","","-22","","Clear"
"1960-12-27 02:00","1960","12","27","02:00","-15.0","","-17.2","","82","","34","","21","","25.0","","100.32","","","","-24","","Clear"
"1960-12-27 03:00","1960","12","27","03:00","-16.7","","-19.4","","80","","34","","16","","25.0","","100.41","","","","-25","","Clear"
"1960-12-27 04:00","1960","12","27","04:00","-17.8","","-20.0","","82","","34","","13","","25.0","","100.48","","","","-26","","Clear"
"1960-12-27 05:00","1960","12","27","05:00","-17.2","","-19.4","","82","","32","","11","","25.0","","100.56","","","","-24","","Mostly Cloudy"
"1960-12-27 06:00","1960","12","27","06:00","-17.2","","-19.4","","85","","34","","16","","25.0","","100.66","","","","-26","","Mostly Cloudy"
"1960-12-27 07:00","1960","12","27","07:00","-16.7","","-19.4","","80","","36","","14","","25.0","","100.79","","","","-25","","Mostly Cloudy"
"1960-12-27 08:00","1960","12","27","08:00","-17.2","","-19.4","","82","","34","","19","","25.0","","100.90","","","","-27","","Mainly Clear"
"1960-12-27 09:00","1960","12","27","09:00","-17.2","","-20.0","","77","","36","","16","","25.0","","101.06","","","","-26","","Mainly Clear"
"1960-12-27 10:00","1960","12","27","10:00","-16.7","","-19.4","","78","","36","","13","","25.0","","101.18","","","","-24","","Clear"
"1960-12-27 11:00","1960","12","27","11:00","-15.6","","-19.4","","71","","2","","13","","25.0","","101.23","","","","-23","","Clear"
"1960-12-27 12:00","1960","12","27","12:00","-14.4","","-18.3","","71","","2","","13","","25.0","","101.21","","","","-22","","Clear"
"1960-12-27 13:00","1960","12","27","13:00","-13.3","","-17.8","","69","","34","","10","","25.0","","101.22","","","","-19","","Clear"
"1960-12-27 14:00","1960","12","27","14:00","-12.2","","-17.2","","66","","34","","5","","25.0","","101.24","","","","-15","","Clear"
"1960-12-27 15:00","1960","12","27","15:00","-11.1","","-16.7","","63","","29","","5","","25.0","","101.27","","","","-14","","Clear"
"1960-12-27 16:00","1960","12","27","16:00","-11.7","","-15.6","","72","","36","","5","","25.0","","101.28","","","","-15","","Clear"
"1960-12-27 17:00","1960","12","27","17:00","-12.2","","-17.2","","68","","","","0","","24.1","","101.31","","","","","","Clear"
"1960-12-27 18:00","1960","12","27","18:00","-13.3","","-17.2","","71","","","","0","","24.1","","101.36","","","","","","Clear"
"1960-12-27 19:00","1960","12","27","19:00","-13.9","","-17.8","","74","","","","0","","25.0","","101.40","","","","","","Clear"
"1960-12-27 20:00","1960","12","27","20:00","-15.6","","-17.8","","82","","","","0","","25.0","","101.43","","","","","","Clear"
"1960-12-27 21:00","1960","12","27","21:00","-17.2","","-19.4","","85","","","","0","","25.0","","101.40","","","","","","Clear"
"1960-12-27 22:00","1960","12","27","22:00","-18.3","","-19.4","","89","","27","","3","","25.0","","101.39","","","","-21","","Clear"
"1960-12-27 23:00","1960","12","27","23:00","-16.7","","-19.4","","80","","27","","6","","25.0","","101.36","","","","-21","","Clear"
"1960-12-28 00:00","1960","12","28","00:00","-17.8","","-19.4","","87","","27","","6","","25.0","","101.32","","","","-22","","Clear"
"1960-12-28 01:00","1960","12","28","01:00","-16.1","","-18.9","","79","","25","","8","","25.0","","101.30","","","","-22","","Mainly Clear"
"1960-12-28 02:00","1960","12","28","02:00","-14.4","","-16.7","","83","","23","","19","","19.3","","101.30","","","","-23","","Snow Showers"
"1960-12-28 03:00","1960","12","28","03:00","-15.0","","-17.2","","84","","23","","16","","25.0","","101.33","","","","-23","","Mainly Clear"
"1960-12-28 04:00","1960","12","28","04:00","-14.4","","-16.7","","83","","23","","11","","25.0","","101.28","","","","-21","","Clear"
"1960-12-28 05:00","1960","12","28","05:00","-14.4","","-16.7","","85","","23","","3","","25.0","","101.24","","","","-17","","Clear"
"1960-12-28 06:00","1960","12","28","06:00","-15.0","","-17.2","","84","","","","0","","25.0","","101.17","","","","","","Clear"
"1960-12-28 07:00","1960","12","28","07:00","-15.0","","-17.8","","80","","","","0","","25.0","","101.14","","","","","","Mainly Clear"
"1960-12-28 08:00","1960","12","28","08:00","-15.0","","-17.2","","84","","20","","10","","16.1","","101.12","","","","-21","","Mainly Clear"
"1960-12-28 09:00","1960","12","28","09:00","-12.2","","-16.1","","73","","20","","10","","24.1","","101.14","","","","-18","","Mainly Clear"
"1960-12-28 10:00","1960","12","28","10:00","-11.1","","-15.6","","68","","18","","13","","24.1","","101.12","","","","-18","","Mainly Clear"
"1960-12-28 11:00","1960","12","28","11:00","-7.8","","-13.9","","63","","20","","16","","24.1","","101.03","","","","-14","","Mainly Clear"
"1960-12-28 12:00","1960","12","28","12:00","-6.1","","-11.1","","67","","23","","19","","24.1","","100.92","","","","-13","","Mainly Clear"
"1960-12-28 13:00","1960","12","28","13:00","-5.0","","-12.2","","58","","23","","19","","24.1","","100.79","","","","-11","","Mainly Clear"
"1960-12-28 14:00","1960","12","28","14:00","-5.0","","-11.1","","63","","25","","19","","24.1","","100.72","","","","-11","","Mainly Clear"
"1960-12-28 15:00","1960","12","28","15:00","-5.0","","-11.1","","63","","25","","24","","24.1","","100.68","","","","-12","","Mainly Clear"
"1960-12-28 16:00","1960","12","28","16:00","-5.6","","-10.6","","67","","25","","16","","19.3","","100.68","","","","-12","","Mainly Clear"
"1960-12-28 17:00","1960","12","28","17:00","-7.2","","-10.6","","76","","25","","13","","19.3","","100.67","","","","-13","","Clear"
"1960-12-28 18:00","1960","12","28","18:00","-8.3","","-11.1","","79","","18","","13","","19.3","","100.65","","","","-14","","Clear"
"1960-12-28 19:00","1960","12","28","19:00","-9.4","","-12.8","","78","","18","","16","","19.3","","100.63","","","","-16","","Clear"
"1960-12-28 20:00","1960","12","28","20:00","-9.4","","-12.2","","81","","18","","13","","19.3","","100.61","","","","-15","","Clear"
"1960-12-28 21:00","1960","12","28","21:00","-8.9","","-11.7","","79","","18","","13","","19.3","","100.53","","","","-15","","Clear"
"1960-12-28 22:00","1960","12","28","22:00","-9.4","","-12.8","","78","","18","","13","","19.3","","100.49","","","","-15","","Clear"
"1960-12-28 23:00","1960","12","28","23:00","-10.0","","-12.8","","78","","18","","10","","19.3","","100.44","","","","-15","","Mainly Clear"
"1960-12-29 00:00","1960","12","29","00:00","-10.0","","-12.8","","78","","18","","8","","19.3","","100.38","","","","-14","","Mostly Cloudy"
"1960-12-29 01:00","1960","12","29","01:00","-8.9","","-11.7","","80","","18","","8","","19.3","","100.31","","","","-13","","Cloudy"
"1960-12-29 02:00","1960","12","29","02:00","-8.9","","-11.1","","83","","18","","10","","12.9","","100.25","","","","-14","","Cloudy"
"1960-12-29 03:00","1960","12","29","03:00","-7.8","","-10.6","","80","","18","","11","","12.9","","100.19","","","","-13","","Mostly Cloudy"
"1960-12-29 04:00","1960","12","29","04:00","-7.8","","-10.6","","80","","18","","16","","16.1","","100.10","","","","-14","","Mainly Clear"
"1960-12-29 05:00","1960","12","29","05:00","-7.8","","-10.6","","80","","18","","13","","16.1","","100.00","","","","-14","","Clear"
"1960-12-29 06:00","1960","12","29","06:00","-8.9","","-11.1","","83","","20","","13","","16.1","","99.94","","","","-15","","Mostly Cloudy"
"1960-12-29 07:00","1960","12","29","07:00","-8.3","","-11.7","","77","","20","","10","","16.1","","99.87","","","","-13","","Mostly Cloudy"
"1960-12-29 08:00","1960","12","29","08:00","-8.3","","-11.7","","78","","23","","11","","6.4","","99.83","","","","-14","","Haze"
"1960-12-29 09:00","1960","12","29","09:00","-6.7","","-10.6","","73","","20","","10","","6.4","","99.81","","","","-11","","Haze"
"1960-12-29 10:00","1960","12","29","10:00","-5.6","","-10.6","","68","","20","","14","","6.4","","99.77","","","","-11","","Haze"
"1960-12-29 11:00","1960","12","29","11:00","-3.9","","-8.9","","68","","20","","19","","6.4","","99.63","","","","-10","","Haze"
"1960-12-29 12:00","1960","12","29","12:00","-3.3","","-8.9","","66","","23","","23","","8.0","","99.51","","","","-10","","Haze"
"1960-12-29 13:00","1960","12","29","13:00","-2.8","","-6.7","","76","","23","","19","","6.4","","99.40","","","","-9","","Snow,Haze"
"1960-12-29 14:00","1960","12","29","14:00","-2.2","","-6.7","","73","","23","","16","","9.7","","99.29","","","","-7","","Haze"
"1960-12-29 15:00","1960","12","29","15:00","-1.7","","-5.0","","77","","20","","19","","9.7","","99.27","","","","-7","","Haze"
"1960-12-29 16:00","1960","12","29","16:00","-1.7","","-5.6","","75","","23","","14","","9.7","","99.25","","","","-6","","Haze"
"1960-12-29 17:00","1960","12","29","17:00","-2.2","","-5.6","","77","","23","","18","","9.7","","99.16","","","","-8","","Haze"
"1960-12-29 18:00","1960","12","29","18:00","-2.2","","-5.6","","78","","20","","13","","12.9","","99.12","","","","-7","","Mostly Cloudy"
"1960-12-29 19:00","1960","12","29","19:00","-3.3","","-7.2","","75","","20","","13","","12.9","","99.10","","","","-8","","Mostly Cloudy"
"1960-12-29 20:00","1960","12","29","20:00","-3.3","","-6.1","","80","","20","","16","","12.9","","99.09","","","","-9","","Cloudy"
"1960-12-29 21:00","1960","12","29","21:00","-3.3","","-6.1","","82","","20","","19","","11.3","","99.05","","","","-9","","Cloudy"
"1960-12-29 22:00","1960","12","29","22:00","-3.3","","-5.6","","84","","20","","18","","8.0","","98.99","","","","-9","","Haze"
"1960-12-29 23:00","1960","12","29","23:00","-3.3","","-6.1","","82","","23","","18","","8.0","","98.97","","","","-9","","Haze"
"1960-12-30 00:00","1960","12","30","00:00","-2.8","","-5.6","","80","","23","","23","","8.0","","98.93","","","","-9","","Haze"
"1960-12-30 01:00","1960","12","30","01:00","-2.2","","-5.6","","78","","23","","16","","8.0","","98.90","","","","-7","","Snow,Haze"
"1960-12-30 02:00","1960","12","30","02:00","-2.2","","-5.0","","81","","23","","16","","11.3","","98.90","","","","-7","","Cloudy"
"1960-12-30 03:00","1960","12","30","03:00","-2.2","","-5.6","","79","","23","","19","","11.3","","98.87","","","","-8","","Snow"
"1960-12-30 04:00","1960","12","30","04:00","-2.2","","-4.4","","84","","23","","18","","8.0","","98.85","","","","-8","","Snow,Haze"
"1960-12-30 05:00","1960","12","30","05:00","-2.2","","-3.9","","87","","23","","11","","8.0","","98.84","","","","-6","","Snow"
"1960-12-30 06:00","1960","12","30","06:00","-1.7","","-4.4","","83","","23","","23","","11.3","","98.86","","","","-8","","Snow"
"1960-12-30 07:00","1960","12","30","07:00","-1.7","","-4.4","","81","","23","","10","","11.3","","98.90","","","","-5","","Cloudy"
"1960-12-30 08:00","1960","12","30","08:00","-1.7","","-4.4","","80","","25","","29","","6.4","","98.93","","","","-9","","Haze"
"1960-12-30 09:00","1960","12","30","09:00","-1.1","","-4.4","","78","","25","","32","","9.7","","99.01","","","","-8","","Haze"
"1960-12-30 10:00","1960","12","30","10:00","-1.1","","-4.4","","78","","25","","32","","12.9","","99.06","","","","-8","","Snow"
"1960-12-30 11:00","1960","12","30","11:00","-0.6","","-3.9","","79","","23","","32","","6.4","","99.09","","","","-7","","Snow"
"1960-12-30 12:00","1960","12","30","12:00","0.0","","-3.3","","77","","23","","35","","12.9","","99.00","","","","-7","","Mainly Clear"
"1960-12-30 13:00","1960","12","30","13:00","0.0","","-3.3","","77","","25","","37","","12.9","","98.94","","","","-7","","Snow Showers"
"1960-12-30 14:00","1960","12","30","14:00","0.6","","-2.8","","78","","25","","39","","12.9","","98.95","","","","","","Mostly Cloudy"
"1960-12-30 15:00","1960","12","30","15:00","0.0","","-3.3","","77","","23","","32","","12.9","","98.98","","","","-7","","Mostly Cloudy"
"1960-12-30 16:00","1960","12","30","16:00","-0.6","","-3.3","","82","","23","","35","","12.9","","99.00","","","","-8","","Mostly Cloudy"
"1960-12-30 17:00","1960","12","30","17:00","-1.1","","-3.9","","82","","23","","31","","12.9","","99.01","","","","-8","","Cloudy"
"1960-12-30 18:00","1960","12","30","18:00","-1.7","","-5.0","","79","","23","","35","","12.9","","99.01","","","","-9","","Cloudy"
"1960-12-30 19:00","1960","12","30","19:00","-1.7","","-5.6","","75","","23","","32","","12.9","","99.06","","","","-9","","Cloudy"
"1960-12-30 20:00","1960","12","30","20:00","-2.2","","-6.1","","76","","23","","27","","16.1","","99.08","","","","-9","","Mostly Cloudy"
"1960-12-30 21:00","1960","12","30","21:00","-1.7","","-5.0","","77","","23","","29","","16.1","","99.05","","","","-9","","Cloudy"
"1960-12-30 22:00","1960","12","30","22:00","-1.1","","-5.0","","76","","23","","29","","16.1","","99.08","","","","-8","","Cloudy"
"1960-12-30 23:00","1960","12","30","23:00","-0.6","","-3.9","","79","","23","","34","","19.3","","99.09","","","","-8","","Cloudy"
"1960-12-31 00:00","1960","12","31","00:00","-1.1","","-3.9","","80","","23","","32","","19.3","","99.05","","","","-8","","Cloudy"
"1960-12-31 01:00","1960","12","31","01:00","-0.6","","-3.3","","82","","23","","29","","16.1","","99.11","","","","-7","","Mostly Cloudy"
"1960-12-31 02:00","1960","12","31","02:00","-0.6","","-3.3","","82","","23","","24","","16.1","","99.17","","","","-7","","Cloudy"
"1960-12-31 03:00","1960","12","31","03:00","-0.6","","-3.3","","82","","23","","23","","16.1","","99.18","","","","-6","","Cloudy"
"1960-12-31 04:00","1960","12","31","04:00","-0.6","","-3.3","","82","","23","","23","","16.1","","99.15","","","","-6","","Mostly Cloudy"
"1960-12-31 05:00","1960","12","31","05:00","-1.1","","-3.9","","81","","23","","19","","16.1","","99.08","","","","-6","","Mostly Cloudy"
"1960-12-31 06:00","1960","12","31","06:00","-2.2","","-5.0","","81","","23","","16","","16.1","","99.08","","","","-7","","Mainly Clear"
"1960-12-31 07:00","1960","12","31","07:00","-2.8","","-6.1","","79","","23","","13","","12.9","","99.10","","","","-7","","Mostly Cloudy"
"1960-12-31 08:00","1960","12","31","08:00","-2.8","","-5.6","","80","","20","","13","","6.4","","99.12","","","","-7","","Haze"
"1960-12-31 09:00","1960","12","31","09:00","-2.8","","-5.6","","80","","14","","6","","4.8","","99.15","","","","-5","","Haze"
"1960-12-31 10:00","1960","12","31","10:00","-1.1","","-3.9","","83","","","","0","","4.8","","99.22","","","","","","Haze"
"1960-12-31 11:00","1960","12","31","11:00","0.0","","-3.3","","80","","","","0","","4.8","","99.23","","","","","","Haze"
"1960-12-31 12:00","1960","12","31","12:00","0.6","","-1.7","","86","","23","","16","","6.4","","99.12","","","","","","Haze"
"1960-12-31 13:00","1960","12","31","13:00","1.1","","-1.7","","82","","20","","16","","6.4","","99.06","","","","","","Haze"
"1960-12-31 14:00","1960","12","31","14:00","1.1","","-1.7","","82","","20","","18","","4.8","","99.16","","","","","","Haze"
"1960-12-31 15:00","1960","12","31","15:00","1.7","","-1.1","","81","","20","","16","","4.8","","99.11","","","","","","Haze"
"1960-12-31 16:00","1960","12","31","16:00","1.1","","-1.7","","82","","18","","11","","4.8","","99.07","","","","","","Haze"
"1960-12-31 17:00","1960","12","31","17:00","1.1","","-1.7","","82","","18","","14","","4.8","","99.10","","","","","","Haze"
"1960-12-31 18:00","1960","12","31","18:00","0.6","","-1.7","","84","","18","","13","","4.8","","99.10","","","","","","Haze"
"1960-12-31 19:00","1960","12","31","19:00","0.6","","-1.7","","84","","18","","10","","4.8","","99.06","","","","","","Haze"
"1960-12-31 20:00","1960","12","31","20:00","0.6","","-1.7","","84","","23","","5","","6.4","","99.08","","","","","","Haze"
"1960-12-31 21:00","1960","12","31","21:00","0.0","","-3.3","","80","","9","","8","","6.4","","99.04","","","","-3","","Haze"
"1960-12-31 22:00","1960","12","31","22:00","-0.6","","-3.9","","79","","9","","10","","16.1","","99.02","","","","-4","","Mostly Cloudy"
"1960-12-31 23:00","1960","12","31","23:00","-1.1","","-3.3","","84","","9","","10","","16.1","","98.98","","","","-5","","Cloudy"
