"Station Name","TORONTO LESTER B. PEARSON INT'L A"
"Province","ONTARIO"
"Latitude","43.68"
"Longitude","-79.63"
"Elevation","173.40"
"Climate Identifier","6158733"
"WMO Identifier","71624"
"TC Identifier","YYZ"
"All times are specified in Local Standard Time (LST). Add 1 hour to adjust for Daylight Saving Time where and when it is observed."

"Legend"
"E","Estimated"
"M","Missing"
"NA","Not Available"

"Date/Time","Year","Month","Day","Time","Temp (°C)","Temp Flag","Dew Point Temp (°C)","Dew Point Temp Flag","Rel Hum (%)","Rel Hum Flag","Wind Dir (10s deg)","Wind Dir Flag","Wind Spd (km/h)","Wind Spd Flag","Visibility (km)","Visibility Flag","Stn Press (kPa)","Stn Press Flag","Hmdx","Hmdx Flag","Wind Chill","Wind Chill Flag","Weather"
"2012-11-01 00:00","2012","11","01","00:00","6.6","","5.0","","90","","28","","15","","16.1","","97.66","","","","","","Rain"
"2012-11-01 01:00","2012","11","01","01:00","6.3","","4.9","","91","","27","","17","","16.1","","97.65","","","","","","Rain"
"2012-11-01 02:00","2012","11","01","02:00","6.1","","4.2","","88","","30","","20","","19.3","","97.66","","","","","","Rain"
"2012-11-01 03:00","2012","11","01","03:00","5.9","","3.7","","86","","29","","20","","24.1","","97.68","","","","","","Rain"
"2012-11-01 04:00","2012","11","01","04:00","5.5","","3.0","","84","","30","","24","","24.1","","97.72","","","","","","Cloudy"
"2012-11-01 05:00","2012","11","01","05:00","5.6","","2.6","","81","","31","","28","","24.1","","97.73","","","","","","Rain Showers"
"2012-11-01 06:00","2012","11","01","06:00","5.5","","2.7","","82","","30","","20","","19.3","","97.78","","","","","","Rain"
"2012-11-01 07:00","2012","11","01","07:00","5.4","","2.9","","84","","29","","20","","19.3","","97.82","","","","","","Rain"
"2012-11-01 08:00","2012","11","01","08:00","5.7","","2.9","","82","","30","","22","","19.3","","97.86","","","","","","Rain"
"2012-11-01 09:00","2012","11","01","09:00","5.9","","3.2","","83","","30","","22","","24.1","","97.89","","","","","","Rain"
"2012-11-01 10:00","2012","11","01","10:00","6.2","","3.7","","84","","30","","15","","24.1","","97.91","","","","","","Rain"
"2012-11-01 11:00","2012","11","01","11:00","6.4","","3.3","","81","","30","","19","","24.1","","97.93","","","","","","Rain"
"2012-11-01 12:00","2012","11","01","12:00","6.8","","3.3","","78","","28","","24","","24.1","","97.92","","","","","","Cloudy"
"2012-11-01 13:00","2012","11","01","13:00","6.8","","3.0","","77","","29","","24","","24.1","","97.90","","","","","","Rain Showers"
"2012-11-01 14:00","2012","11","01","14:00","6.8","","2.4","","73","","30","","30","","24.1","","97.92","","","","","","Rain Showers"
"2012-11-01 15:00","2012","11","01","15:00","6.2","","2.3","","76","","30","","26","","24.1","","97.96","","","","","","Rain Showers"
"2012-11-01 16:00","2012","11","01","16:00","5.9","","2.4","","78","","29","","26","","24.1","","98.01","","","","","","Rain Showers"
"2012-11-01 17:00","2012","11","01","17:00","5.8","","2.0","","77","","30","","24","","24.1","","98.07","","","","","","Rain Showers"
"2012-11-01 18:00","2012","11","01","18:00","5.5","","1.7","","76","","30","","20","","24.1","","98.14","","","","","","Rain Showers"
"2012-11-01 19:00","2012","11","01","19:00","5.2","","2.0","","80","","29","","22","","19.3","","98.20","","","","","","Rain"
"2012-11-01 20:00","2012","11","01","20:00","5.1","","2.2","","82","","29","","17","","19.3","","98.22","","","","","","Rain"
"2012-11-01 21:00","2012","11","01","21:00","5.0","","1.3","","77","","31","","28","","24.1","","98.25","","","","","","Cloudy"
"2012-11-01 22:00","2012","11","01","22:00","4.4","","1.1","","79","","29","","20","","24.1","","98.27","","","","","","Cloudy"
"2012-11-01 23:00","2012","11","01","23:00","4.1","","0.1","","75","","29","","24","","24.1","","98.26","","","","","","Cloudy"
"2012-11-02 00:00","2012","11","02","00:00","3.9","","-1.1","","70","","30","","20","","24.1","","98.27","","","","","","Cloudy"
"2012-11-02 01:00","2012","11","02","01:00","3.7","","-0.4","","75","","29","","17","","24.1","","98.29","","","","","","Cloudy"
"2012-11-02 02:00","2012","11","02","02:00","3.6","","-1.2","","71","","29","","17","","24.1","","98.32","","","","","","Cloudy"
"2012-11-02 03:00","2012","11","02","03:00","3.2","","-1.1","","73","","29","","19","","24.1","","98.32","","","","","","Cloudy"
"2012-11-02 04:00","2012","11","02","04:00","2.8","","-1.5","","73","","30","","22","","24.1","","98.33","","","","","","Mostly Cloudy"
"2012-11-02 05:00","2012","11","02","05:00","2.8","","-1.7","","72","","31","","20","","24.1","","98.37","","","","","","Mostly Cloudy"
"2012-11-02 06:00","2012","11","02","06:00","2.7","","-1.8","","72","","31","","22","","24.1","","98.43","","","","","","Mostly Cloudy"
"2012-11-02 07:00","2012","11","02","07:00","2.3","","-2.0","","73","","31","","24","","24.1","","98.49","","","","","","Mostly Cloudy"
"2012-11-02 08:00","2012","11","02","08:00","2.7","","-1.3","","75","","32","","22","","24.1","","98.58","","","","","","Cloudy"
"2012-11-02 09:00","2012","11","02","09:00","2.8","","-1.1","","75","","32","","26","","19.3","","98.62","","","","","","Rain,Ice Pellets"
"2012-11-02 10:00","2012","11","02","10:00","3.7","","-0.2","","76","","34","","19","","19.3","","98.67","","","","","","Rain"
"2012-11-02 11:00","2012","11","02","11:00","2.7","","0.9","","88","","34","","20","","12.9","","98.74","","","","","","Rain,Ice Pellets"
"2012-11-02 12:00","2012","11","02","12:00","3.5","","0.9","","83","","35","","15","","16.1","","98.75","","","","","","Cloudy"
"2012-11-02 13:00","2012","11","02","13:00","3.8","","1.4","","84","","31","","22","","16.1","","98.80","","","","","","Rain Showers"
"2012-11-02 14:00","2012","11","02","14:00","4.2","","1.0","","80","","35","","19","","24.1","","98.82","","","","","","Mostly Cloudy"
"2012-11-02 15:00","2012","11","02","15:00","3.9","","0.6","","79","","35","","17","","24.1","","98.88","","","","","","Mostly Cloudy"
"2012-11-02 16:00","2012","11","02","16:00","3.7","","-0.7","","73","","35","","30","","24.1","","98.95","","","","","","Mostly Cloudy"
"2012-11-02 17:00","2012","11","02","17:00","3.3","","-0.5","","76","","34","","24","","24.1","","99.01","","","","","","Mostly Cloudy"
"2012-11-02 18:00","2012","11","02","18:00","3.3","","-1.9","","69","","31","","24","","24.1","","99.08","","","","","","Mostly Cloudy"
"2012-11-02 19:00","2012","11","02","19:00","3.1","","-1.8","","70","","31","","20","","24.1","","99.14","","","","","","Mostly Cloudy"
"2012-11-02 20:00","2012","11","02","20:00","3.2","","-1.6","","71","","32","","24","","24.1","","99.17","","","","","","Cloudy"
"2012-11-02 21:00","2012","11","02","21:00","2.8","","-0.3","","80","","32","","13","","24.1","","99.22","","","","","","Cloudy"
"2012-11-02 22:00","2012","11","02","22:00","2.5","","-0.2","","82","","32","","22","","24.1","","99.23","","","","","","Mostly Cloudy"
"2012-11-02 23:00","2012","11","02","23:00","2.4","","0.0","","84","","31","","22","","24.1","","99.26","","","","","","Mostly Cloudy"
"2012-11-03 00:00","2012","11","03","00:00","2.6","","-0.4","","81","","32","","22","","24.1","","99.29","","","","","","Mostly Cloudy"
"2012-11-03 01:00","2012","11","03","01:00","2.4","","-0.5","","81","","32","","20","","24.1","","99.32","","","","","","Mostly Cloudy"
"2012-11-03 02:00","2012","11","03","02:00","2.4","","-0.6","","81","","32","","24","","24.1","","99.35","","","","","","Mostly Cloudy"
"2012-11-03 03:00","2012","11","03","03:00","2.1","","-0.5","","83","","33","","15","","24.1","","99.36","","","","","","Mostly Cloudy"
"2012-11-03 04:00","2012","11","03","04:00","2.1","","-0.7","","82","","33","","22","","24.1","","99.41","","","","","","Mostly Cloudy"
"2012-11-03 05:00","2012","11","03","05:00","1.9","","-1.1","","80","","33","","20","","24.1","","99.47","","","","","","Mostly Cloudy"
"2012-11-03 06:00","2012","11","03","06:00","1.7","","-1.2","","81","","34","","26","","24.1","","99.53","","","","","","Mostly Cloudy"
"2012-11-03 07:00","2012","11","03","07:00","1.3","","-1.9","","79","","34","","19","","24.1","","99.59","","","","","","Mostly Cloudy"
"2012-11-03 08:00","2012","11","03","08:00","1.6","","-1.5","","80","","32","","17","","24.1","","99.66","","","","","","Mainly Clear"
"2012-11-03 09:00","2012","11","03","09:00","2.3","","-1.1","","78","","33","","15","","24.1","","99.71","","","","","","Mostly Cloudy"
"2012-11-03 10:00","2012","11","03","10:00","3.3","","-0.5","","76","","34","","20","","24.1","","99.72","","","","","","Mostly Cloudy"
"2012-11-03 11:00","2012","11","03","11:00","3.3","","-0.4","","77","","32","","30","","24.1","","99.73","","","","","","Mostly Cloudy"
"2012-11-03 12:00","2012","11","03","12:00","4.4","","-0.9","","68","","34","","24","","24.1","","99.74","","","","","","Mainly Clear"
"2012-11-03 13:00","2012","11","03","13:00","4.8","","-1.6","","63","","33","","28","","24.1","","99.71","","","","","","Mainly Clear"
"2012-11-03 14:00","2012","11","03","14:00","4.8","","-1.9","","62","","35","","30","","24.1","","99.70","","","","","","Mainly Clear"
"2012-11-03 15:00","2012","11","03","15:00","4.2","","-2.7","","61","","34","","33","","24.1","","99.73","","","","","","Mainly Clear"
"2012-11-03 16:00","2012","11","03","16:00","3.6","","-2.6","","64","","33","","28","","24.1","","99.78","","","","","","Mainly Clear"
"2012-11-03 17:00","2012","11","03","17:00","2.9","","-3.3","","64","","33","","28","","24.1","","99.81","","","","","","Mainly Clear"
"2012-11-03 18:00","2012","11","03","18:00","2.7","","-2.2","","70","","34","","20","","24.1","","99.86","","","","","","Mostly Cloudy"
"2012-11-03 19:00","2012","11","03","19:00","2.2","","-1.7","","75","","34","","19","","24.1","","99.88","","","","","","Cloudy"
"2012-11-03 20:00","2012","11","03","20:00","2.0","","-1.2","","79","","33","","19","","24.1","","99.90","","","","","","Cloudy"
"2012-11-03 21:00","2012","11","03","21:00","1.6","","-1.6","","79","","34","","19","","24.1","","99.89","","","","","","Cloudy"
"2012-11-03 22:00","2012","11","03","22:00","1.5","","-1.6","","80","","35","","13","","24.1","","99.91","","","","","","Cloudy"
"2012-11-03 23:00","2012","11","03","23:00","1.7","","-3.3","","69","","36","","15","","24.1","","99.88","","","","","","Cloudy"
"2012-11-04 00:00","2012","11","04","00:00","1.4","","-4.5","","65","","1","","17","","24.1","","99.90","","","","","","Cloudy"
"2012-11-04 01:00","2012","11","04","01:00","1.3","","-4.3","","66","","36","","15","","24.1","","99.90","","","","","","Cloudy"
"2012-11-04 02:00","2012","11","04","02:00","1.1","","-4.3","","67","","33","","15","","24.1","","99.94","","","","","","Cloudy"
"2012-11-04 03:00","2012","11","04","03:00","1.1","","-4.2","","68","","36","","19","","24.1","","99.89","","","","","","Cloudy"
"2012-11-04 04:00","2012","11","04","04:00","0.9","","-3.4","","73","","34","","11","","24.1","","99.91","","","","","","Cloudy"
"2012-11-04 05:00","2012","11","04","05:00","0.7","","-3.3","","75","","1","","9","","24.1","","99.93","","","","","","Cloudy"
"2012-11-04 06:00","2012","11","04","06:00","0.5","","-3.2","","76","","36","","11","","24.1","","99.93","","","","","","Mostly Cloudy"
"2012-11-04 07:00","2012","11","04","07:00","0.4","","-3.4","","76","","35","","13","","24.1","","99.95","","","","","","Cloudy"
"2012-11-04 08:00","2012","11","04","08:00","0.6","","-3.8","","72","","35","","13","","24.1","","99.97","","","","","","Cloudy"
"2012-11-04 09:00","2012","11","04","09:00","0.8","","-4.0","","70","","2","","15","","24.1","","99.96","","","","","","Cloudy"
"2012-11-04 10:00","2012","11","04","10:00","0.9","","-4.1","","69","","35","","13","","24.1","","99.96","","","","","","Cloudy"
"2012-11-04 11:00","2012","11","04","11:00","1.1","","-3.8","","70","","36","","13","","24.1","","99.96","","","","","","Cloudy"
"2012-11-04 12:00","2012","11","04","12:00","1.4","","-4.1","","67","","34","","13","","24.1","","99.92","","","","","","Cloudy"
"2012-11-04 13:00","2012","11","04","13:00","1.7","","-3.8","","67","","34","","19","","24.1","","99.91","","","","","","Cloudy"
"2012-11-04 14:00","2012","11","04","14:00","2.1","","-3.5","","66","","35","","20","","24.1","","99.89","","","","","","Cloudy"
"2012-11-04 15:00","2012","11","04","15:00","2.3","","-3.4","","66","","36","","22","","24.1","","99.85","","","","","","Mostly Cloudy"
"2012-11-04 16:00","2012","11","04","16:00","2.3","","-3.2","","67","","36","","19","","24.1","","99.89","","","","","","Cloudy"
"2012-11-04 17:00","2012","11","04","17:00","2.1","","-3.4","","67","","35","","19","","24.1","","99.89","","","","","","Cloudy"
"2012-11-04 18:00","2012","11","04","18:00","1.3","","-2.7","","75","","34","","17","","24.1","","99.92","","","","","","Snow Showers"
"2012-11-04 19:00","2012","11","04","19:00","1.4","","-2.8","","74","","35","","15","","24.1","","99.94","","","","","","Cloudy"
"2012-11-04 20:00","2012","11","04","20:00","1.1","","-3.2","","73","","34","","15","","24.1","","99.94","","","","","","Cloudy"
"2012-11-04 21:00","2012","11","04","21:00","1.1","","-4.3","","67","","2","","9","","24.1","","99.94","","","","","","Cloudy"
"2012-11-04 22:00","2012","11","04","22:00","1.1","","-4.6","","66","","34","","11","","24.1","","99.94","","","","","","Cloudy"
"2012-11-04 23:00","2012","11","04","23:00","1.1","","-4.3","","67","","1","","13","","24.1","","99.92","","","","","","Cloudy"
"2012-11-05 00:00","2012","11","05","00:00","0.7","","-5.0","","66","","35","","15","","24.1","","99.92","","","","","","Cloudy"
"2012-11-05 01:00","2012","11","05","01:00","0.4","","-5.0","","67","","35","","17","","24.1","","99.93","","","","","","Cloudy"
"2012-11-05 02:00","2012","11","05","02:00","0.3","","-5.3","","66","","35","","19","","24.1","","99.95","","","","","","Cloudy"
"2012-11-05 03:00","2012","11","05","03:00","0.3","","-5.5","","65","","35","","19","","24.1","","99.94","","","","","","Cloudy"
"2012-11-05 04:00","2012","11","05","04:00","0.2","","-5.7","","64","","34","","15","","24.1","","99.95","","","","","","Cloudy"
"2012-11-05 05:00","2012","11","05","05:00","0.3","","-5.6","","65","","34","","15","","24.1","","100.00","","","","","","Cloudy"
"2012-11-05 06:00","2012","11","05","06:00","0.3","","-5.8","","64","","34","","17","","24.1","","100.03","","","","","","Cloudy"
"2012-11-05 07:00","2012","11","05","07:00","0.3","","-5.6","","65","","34","","17","","24.1","","100.06","","","","","","Cloudy"
"2012-11-05 08:00","2012","11","05","08:00","-0.2","","-4.2","","74","","34","","15","","19.3","","100.12","","","","-5","","Cloudy"
"2012-11-05 09:00","2012","11","05","09:00","0.1","","-3.3","","78","","1","","13","","24.1","","100.16","","","","","","Mostly Cloudy"
"2012-11-05 10:00","2012","11","05","10:00","0.5","","-4.9","","67","","36","","11","","24.1","","100.18","","","","","","Mostly Cloudy"
"2012-11-05 11:00","2012","11","05","11:00","1.3","","-4.6","","65","","36","","13","","24.1","","100.19","","","","","","Cloudy"
"2012-11-05 12:00","2012","11","05","12:00","1.0","","-5.7","","61","","35","","17","","24.1","","100.16","","","","","","Cloudy"
"2012-11-05 13:00","2012","11","05","13:00","1.5","","-5.8","","58","","34","","11","","24.1","","100.13","","","","","","Cloudy"
"2012-11-05 14:00","2012","11","05","14:00","1.3","","-7.3","","53","","35","","7","","24.1","","100.13","","","","","","Mostly Cloudy"
"2012-11-05 15:00","2012","11","05","15:00","1.4","","-6.6","","55","","31","","13","","24.1","","100.11","","","","","","Mostly Cloudy"
"2012-11-05 16:00","2012","11","05","16:00","1.1","","-7.0","","55","","31","","11","","24.1","","100.11","","","","","","Mostly Cloudy"
"2012-11-05 17:00","2012","11","05","17:00","0.2","","-7.9","","54","","33","","9","","24.1","","100.12","","","","","","Mostly Cloudy"
"2012-11-05 18:00","2012","11","05","18:00","0.2","","-7.6","","56","","33","","13","","24.1","","100.17","","","","","","Mostly Cloudy"
"2012-11-05 19:00","2012","11","05","19:00","0.4","","-7.6","","55","","1","","13","","24.1","","100.19","","","","","","Mostly Cloudy"
"2012-11-05 20:00","2012","11","05","20:00","-1.1","","-7.4","","62","","31","","11","","24.1","","100.20","","","","-5","","Mainly Clear"
"2012-11-05 21:00","2012","11","05","21:00","-1.6","","-7.4","","65","","29","","9","","24.1","","100.22","","","","-5","","Mainly Clear"
"2012-11-05 22:00","2012","11","05","22:00","-2.2","","-7.4","","67","","26","","7","","24.1","","100.20","","","","-5","","Mainly Clear"
"2012-11-05 23:00","2012","11","05","23:00","-3.1","","-7.8","","70","","27","","9","","24.1","","100.18","","","","-7","","Mainly Clear"
"2012-11-06 00:00","2012","11","06","00:00","-2.1","","-7.3","","68","","28","","6","","24.1","","100.18","","","","-4","","Mainly Clear"
"2012-11-06 01:00","2012","11","06","01:00","-3.4","","-7.7","","72","","29","","4","","24.1","","100.18","","","","-5","","Mainly Clear"
"2012-11-06 02:00","2012","11","06","02:00","-2.4","","-7.1","","70","","","","0","","24.1","","100.18","","","","","","Mostly Cloudy"
"2012-11-06 03:00","2012","11","06","03:00","-2.4","","-6.5","","73","","33","","6","","24.1","","100.15","","","","-5","","Mostly Cloudy"
"2012-11-06 04:00","2012","11","06","04:00","-2.0","","-6.0","","74","","6","","6","","24.1","","100.10","","","","-4","","Mostly Cloudy"
"2012-11-06 05:00","2012","11","06","05:00","-2.2","","-6.2","","74","","4","","7","","24.1","","100.12","","","","-5","","Mostly Cloudy"
"2012-11-06 06:00","2012","11","06","06:00","-3.1","","-6.6","","77","","2","","7","","24.1","","100.09","","","","-6","","Mostly Cloudy"
"2012-11-06 07:00","2012","11","06","07:00","-1.7","","-6.3","","71","","1","","9","","24.1","","100.05","","","","-5","","Mostly Cloudy"
"2012-11-06 08:00","2012","11","06","08:00","-0.7","","-6.5","","65","","1","","7","","24.1","","100.08","","","","-3","","Mostly Cloudy"
"2012-11-06 09:00","2012","11","06","09:00","0.2","","-6.7","","60","","6","","6","","24.1","","100.13","","","","","","Mostly Cloudy"
"2012-11-06 10:00","2012","11","06","10:00","0.5","","-6.4","","60","","4","","7","","24.1","","100.15","","","","","","Mostly Cloudy"
"2012-11-06 11:00","2012","11","06","11:00","0.8","","-5.8","","61","","4","","4","","24.1","","100.12","","","","","","Mostly Cloudy"
"2012-11-06 12:00","2012","11","06","12:00","1.4","","-5.0","","62","","6","","6","","24.1","","100.04","","","","","","Mostly Cloudy"
"2012-11-06 13:00","2012","11","06","13:00","2.0","","-4.2","","63","","10","","6","","24.1","","100.01","","","","","","Mostly Cloudy"
"2012-11-06 14:00","2012","11","06","14:00","2.7","","-5.5","","55","","27","","6","E","24.1","","99.94","","","","","","Mostly Cloudy"
"2012-11-06 15:00","2012","11","06","15:00","2.4","","-3.9","","63","","10","","15","","24.1","","99.89","","","","","","Mostly Cloudy"
"2012-11-06 16:00","2012","11","06","16:00","2.1","","-3.6","","66","","8","","11","","24.1","","99.88","","","","","","Mostly Cloudy"
"2012-11-06 17:00","2012","11","06","17:00","1.9","","-3.8","","66","","9","","17","","24.1","","99.87","","","","","","Mostly Cloudy"
"2012-11-06 18:00","2012","11","06","18:00","1.8","","-4.5","","63","","7","","11","","24.1","","99.86","","","","","","Mostly Cloudy"
"2012-11-06 19:00","2012","11","06","19:00","1.9","","-5.0","","60","","6","","17","","24.1","","99.86","","","","","","Mostly Cloudy"
"2012-11-06 20:00","2012","11","06","20:00","1.8","","-5.3","","59","","7","","15","","24.1","","99.86","","","","","","Mostly Cloudy"
"2012-11-06 21:00","2012","11","06","21:00","0.9","","-5.8","","61","","6","","11","","24.1","","99.85","","","","","","Mainly Clear"
"2012-11-06 22:00","2012","11","06","22:00","-0.1","","-5.4","","67","","4","","11","","24.1","","99.82","","","","-4","","Mainly Clear"
"2012-11-06 23:00","2012","11","06","23:00","1.0","","-4.5","","67","","6","","9","","24.1","","99.79","","","","","","Mostly Cloudy"
"2012-11-07 00:00","2012","11","07","00:00","1.1","","-3.9","","69","","5","","13","","24.1","","99.76","","","","","","Mainly Clear"
"2012-11-07 01:00","2012","11","07","01:00","0.6","","-4.0","","71","","5","","9","","24.1","","99.73","","","","","","Mainly Clear"
"2012-11-07 02:00","2012","11","07","02:00","0.4","","-4.0","","72","","5","","13","","24.1","","99.75","","","","","","Mainly Clear"
"2012-11-07 03:00","2012","11","07","03:00","1.9","","-4.1","","64","","7","","19","","24.1","","99.82","","","","","","Mostly Cloudy"
"2012-11-07 04:00","2012","11","07","04:00","1.9","","-4.3","","63","","7","","19","","24.1","","99.84","","","","","","Mostly Cloudy"
"2012-11-07 05:00","2012","11","07","05:00","1.5","","-4.9","","62","","5","","17","","24.1","","99.80","","","","","","Mostly Cloudy"
"2012-11-07 06:00","2012","11","07","06:00","1.5","","-6.0","","57","","5","","17","","24.1","","99.75","","","","","","Mostly Cloudy"
"2012-11-07 07:00","2012","11","07","07:00","1.4","","-5.9","","58","","6","","15","","24.1","","99.81","","","","","","Mostly Cloudy"
"2012-11-07 08:00","2012","11","07","08:00","1.3","","-6.4","","56","","6","","19","","24.1","","99.88","","","","","","Cloudy"
"2012-11-07 09:00","2012","11","07","09:00","1.5","","-7.0","","53","","5","","19","","24.1","","99.93","","","","","","Mostly Cloudy"
"2012-11-07 10:00","2012","11","07","10:00","2.4","","-6.8","","51","","6","","19","","24.1","","99.96","","","","","","Mostly Cloudy"
"2012-11-07 11:00","2012","11","07","11:00","3.8","","-6.2","","48","","7","","13","","24.1","","99.95","","","","","","Mostly Cloudy"
"2012-11-07 12:00","2012","11","07","12:00","5.1","","-4.2","","51","","7","","17","","24.1","","99.88","","","","","","Mainly Clear"
"2012-11-07 13:00","2012","11","07","13:00","5.5","","-3.7","","51","","9","","9","","24.1","","99.81","","","","","","Mostly Cloudy"
"2012-11-07 14:00","2012","11","07","14:00","5.4","","-4.1","","50","","9","","6","","24.1","","99.78","","","","","","Mostly Cloudy"
"2012-11-07 15:00","2012","11","07","15:00","5.5","","-4.2","","50","","4","","6","","24.1","","99.77","","","","","","Mostly Cloudy"
"2012-11-07 16:00","2012","11","07","16:00","4.9","","-2.4","","59","","10","","6","","24.1","","99.79","","","","","","Mostly Cloudy"
"2012-11-07 17:00","2012","11","07","17:00","3.8","","-3.6","","58","","6","","4","","24.1","","99.84","","","","","","Mostly Cloudy"
"2012-11-07 18:00","2012","11","07","18:00","3.3","","-6.3","","49","","5","","9","","24.1","","99.89","","","","","","Mainly Clear"
"2012-11-07 19:00","2012","11","07","19:00","2.4","","-6.2","","53","","5","","9","","24.1","","99.92","","","","","","Mainly Clear"
"2012-11-07 20:00","2012","11","07","20:00","1.3","","-6.2","","57","","2","","9","","24.1","","99.92","","","","","","Mainly Clear"
"2012-11-07 21:00","2012","11","07","21:00","0.1","","-5.9","","64","","2","","9","","24.1","","99.96","","","","","","Mainly Clear"
"2012-11-07 22:00","2012","11","07","22:00","-0.6","","-6.0","","67","","36","","9","","24.1","","99.97","","","","-4","","Clear"
"2012-11-07 23:00","2012","11","07","23:00","-0.2","","-6.4","","63","","3","","11","","24.1","","99.94","","","","-4","","Clear"
"2012-11-08 00:00","2012","11","08","00:00","-1.6","","-6.9","","67","","2","","11","","24.1","","99.94","","","","-5","","Clear"
"2012-11-08 01:00","2012","11","08","01:00","-2.1","","-7.1","","69","","36","","11","","24.1","","99.95","","","","-6","","Clear"
"2012-11-08 02:00","2012","11","08","02:00","-2.8","","-7.4","","71","","34","","7","","24.1","","99.92","","","","-6","","Mainly Clear"
"2012-11-08 03:00","2012","11","08","03:00","-2.4","","-6.9","","71","","34","","11","","24.1","","99.93","","","","-6","","Clear"
"2012-11-08 04:00","2012","11","08","04:00","-2.8","","-7.0","","73","","35","","13","","24.1","","99.93","","","","-7","","Clear"
"2012-11-08 05:00","2012","11","08","05:00","-2.6","","-6.9","","72","","34","","13","","24.1","","99.96","","","","-7","","Clear"
"2012-11-08 06:00","2012","11","08","06:00","-2.6","","-7.0","","72","","33","","13","","24.1","","99.97","","","","-7","","Clear"
"2012-11-08 07:00","2012","11","08","07:00","-3.0","","-7.2","","73","","36","","9","","24.1","","99.99","","","","-7","","Clear"
"2012-11-08 08:00","2012","11","08","08:00","-1.6","","-6.7","","68","","34","","15","","24.1","","100.07","","","","-6","","Clear"
"2012-11-08 09:00","2012","11","08","09:00","0.0","","-6.0","","64","","36","","11","","24.1","","100.10","","","","-4","","Clear"
"2012-11-08 10:00","2012","11","08","10:00","2.0","","-5.3","","58","","1","","11","","24.1","","100.08","","","","","","Clear"
"2012-11-08 11:00","2012","11","08","11:00","3.3","","-5.7","","52","","2","","13","","24.1","","100.07","","","","","","Clear"
"2012-11-08 12:00","2012","11","08","12:00","4.3","","-6.0","","47","","34","","9","","24.1","","100.00","","","","","","Clear"
"2012-11-08 13:00","2012","11","08","13:00","5.1","","-5.5","","46","","29","","6","","24.1","","99.93","","","","","","Clear"
"2012-11-08 14:00","2012","11","08","14:00","5.9","","-6.0","","42","","30","","7","","24.1","","99.89","","","","","","Clear"
"2012-11-08 15:00","2012","11","08","15:00","6.5","","-5.3","","43","","29","","11","","24.1","","99.85","","","","","","Clear"
"2012-11-08 16:00","2012","11","08","16:00","6.1","","-5.2","","44","","31","","6","","24.1","","99.85","","","","","","Clear"
"2012-11-08 17:00","2012","11","08","17:00","4.6","","-4.2","","53","","36","","11","","24.1","","99.87","","","","","","Clear"
"2012-11-08 18:00","2012","11","08","18:00","3.4","","-3.6","","60","","35","","11","","24.1","","99.88","","","","","","Clear"
"2012-11-08 19:00","2012","11","08","19:00","2.5","","-3.2","","66","","1","","7","","24.1","","99.89","","","","","","Clear"
"2012-11-08 20:00","2012","11","08","20:00","2.0","","-3.3","","68","","32","","7","","24.1","","99.87","","","","","","Clear"
"2012-11-08 21:00","2012","11","08","21:00","1.2","","-3.3","","72","","28","","6","","24.1","","99.85","","","","","","Clear"
"2012-11-08 22:00","2012","11","08","22:00","1.4","","-3.2","","71","","28","","6","","24.1","","99.87","","","","","","Mainly Clear"
"2012-11-08 23:00","2012","11","08","23:00","1.5","","-2.9","","72","","","","0","","24.1","","99.86","","","","","","Mainly Clear"
"2012-11-09 00:00","2012","11","09","00:00","1.4","","-2.5","","75","","28","","7","","24.1","","99.86","","","","","","Mostly Cloudy"
"2012-11-09 01:00","2012","11","09","01:00","2.0","","-1.2","","79","","27","","6","","24.1","","99.89","","","","","","Mostly Cloudy"
"2012-11-09 02:00","2012","11","09","02:00","2.7","","-1.8","","72","","","","0","","24.1","","99.92","","","","","","Mostly Cloudy"
"2012-11-09 03:00","2012","11","09","03:00","2.0","","-1.3","","79","","23","","7","","24.1","","99.92","","","","","","Mostly Cloudy"
"2012-11-09 04:00","2012","11","09","04:00","2.5","","-0.7","","79","","24","","7","","24.1","","99.91","","","","","","Mostly Cloudy"
"2012-11-09 05:00","2012","11","09","05:00","2.5","","-0.7","","79","","23","","7","","24.1","","99.92","","","","","","Mainly Clear"
"2012-11-09 06:00","2012","11","09","06:00","3.1","","0.6","","84","","28","","9","","24.1","","99.95","","","","","","Mostly Cloudy"
"2012-11-09 07:00","2012","11","09","07:00","4.2","","1.0","","80","","27","","17","","9.7","","99.96","","","","","","Haze"
"2012-11-09 08:00","2012","11","09","08:00","4.6","","1.3","","79","","27","","13","","12.9","","100.03","","","","","","Cloudy"
"2012-11-09 09:00","2012","11","09","09:00","5.1","","1.5","","78","","26","","17","","12.9","","100.04","","","","","","Cloudy"
"2012-11-09 10:00","2012","11","09","10:00","6.0","","2.1","","76","","27","","13","","12.9","","100.05","","","","","","Cloudy"
"2012-11-09 11:00","2012","11","09","11:00","7.1","","3.0","","75","","28","","13","","16.1","","100.06","","","","","","Cloudy"
"2012-11-09 12:00","2012","11","09","12:00","8.3","","3.2","","70","","27","","13","","19.3","","100.00","","","","","","Cloudy"
"2012-11-09 13:00","2012","11","09","13:00","8.8","","2.6","","65","","27","","17","","24.1","","99.93","","","","","","Cloudy"
"2012-11-09 14:00","2012","11","09","14:00","9.8","","2.9","","62","","28","","20","","16.1","","99.90","","","","","","Mostly Cloudy"
"2012-11-09 15:00","2012","11","09","15:00","9.3","","2.6","","63","","28","","20","","19.3","","99.93","","","","","","Cloudy"
"2012-11-09 16:00","2012","11","09","16:00","9.0","","2.6","","64","","28","","15","","9.7","","99.93","","","","","","Haze"
"2012-11-09 17:00","2012","11","09","17:00","8.2","","2.9","","69","","27","","15","","6.4","","99.94","","","","","","Haze"
"2012-11-09 18:00","2012","11","09","18:00","7.8","","3.1","","72","","27","","11","","9.7","","100.00","","","","","","Haze"
"2012-11-09 19:00","2012","11","09","19:00","7.4","","3.0","","74","","27","","11","","9.7","","100.01","","","","","","Haze"
"2012-11-09 20:00","2012","11","09","20:00","6.9","","2.9","","76","","27","","11","","9.7","","100.07","","","","","","Haze"
"2012-11-09 21:00","2012","11","09","21:00","6.8","","3.0","","77","","28","","9","","9.7","","100.09","","","","","","Haze"
"2012-11-09 22:00","2012","11","09","22:00","6.7","","3.0","","77","","29","","7","","9.7","","100.14","","","","","","Haze"
"2012-11-09 23:00","2012","11","09","23:00","6.5","","4.1","","85","","31","","4","","9.7","","100.13","","","","","","Rain Showers,Haze"
"2012-11-10 00:00","2012","11","10","00:00","6.2","","4.5","","89","","","","0","","12.9","","100.11","","","","","","Cloudy"
"2012-11-10 01:00","2012","11","10","01:00","6.3","","4.2","","86","","","","0","","12.9","","100.12","","","","","","Cloudy"
"2012-11-10 02:00","2012","11","10","02:00","6.1","","4.3","","88","","","","0","","12.9","","100.15","","","","","","Cloudy"
"2012-11-10 03:00","2012","11","10","03:00","5.3","","4.1","","92","","","","0","","8.0","","100.17","","","","","","Fog"
"2012-11-10 04:00","2012","11","10","04:00","5.1","","4.1","","93","","","","0","","8.0","","100.22","","","","","","Fog"
"2012-11-10 05:00","2012","11","10","05:00","5.8","","4.6","","92","","6","","4","","8.0","","100.25","","","","","","Fog"
"2012-11-10 06:00","2012","11","10","06:00","4.5","","3.6","","94","","","","0","","6.4","","100.27","","","","","","Fog"
"2012-11-10 07:00","2012","11","10","07:00","3.9","","3.7","","99","","4","","4","","2.8","","100.30","","","","","","Fog"
"2012-11-10 08:00","2012","11","10","08:00","4.5","","3.7","","95","","5","","4","","2.8","","100.37","","","","","","Fog"
"2012-11-10 09:00","2012","11","10","09:00","6.9","","5.7","","92","","9","","7","","2.8","","100.42","","","","","","Fog"
"2012-11-10 10:00","2012","11","10","10:00","7.9","","5.2","","83","","13","","9","","6.4","","100.43","","","","","","Haze"
"2012-11-10 11:00","2012","11","10","11:00","8.4","","4.4","","76","","11","","15","","6.4","","100.40","","","","","","Haze"
"2012-11-10 12:00","2012","11","10","12:00","9.0","","3.8","","70","","12","","26","","9.7","","100.26","","","","","","Haze"
"2012-11-10 13:00","2012","11","10","13:00","8.8","","5.1","","78","","11","","24","","9.7","","100.26","","","","","","Haze"
"2012-11-10 14:00","2012","11","10","14:00","8.6","","5.8","","83","","12","","20","","6.4","","100.19","","","","","","Haze"
"2012-11-10 15:00","2012","11","10","15:00","7.5","","5.0","","84","","9","","22","","16.1","","100.24","","","","","","Cloudy"
"2012-11-10 16:00","2012","11","10","16:00","7.1","","4.5","","84","","9","","22","","19.3","","100.29","","","","","","Cloudy"
"2012-11-10 17:00","2012","11","10","17:00","7.0","","4.4","","83","","9","","20","","19.3","","100.28","","","","","","Cloudy"
"2012-11-10 18:00","2012","11","10","18:00","7.2","","4.6","","84","","10","","19","","19.3","","100.27","","","","","","Cloudy"
"2012-11-10 19:00","2012","11","10","19:00","7.4","","5.3","","87","","10","","22","","16.1","","100.27","","","","","","Cloudy"
"2012-11-10 20:00","2012","11","10","20:00","7.9","","5.5","","85","","10","","19","","16.1","","100.24","","","","","","Cloudy"
"2012-11-10 21:00","2012","11","10","21:00","7.8","","5.8","","87","","10","","19","","16.1","","100.14","","","","","","Cloudy"
"2012-11-10 22:00","2012","11","10","22:00","8.2","","6.1","","87","","11","","11","","24.1","","100.12","","","","","","Mostly Cloudy"
"2012-11-10 23:00","2012","11","10","23:00","8.3","","6.8","","90","","10","","11","","16.1","","100.03","","","","","","Cloudy"
"2012-11-11 00:00","2012","11","11","00:00","8.0","","7.1","","94","","11","","9","","12.9","","100.02","","","","","","Thunderstorms,Rain Showers"
"2012-11-11 01:00","2012","11","11","01:00","8.2","","7.2","","93","","12","","6","","12.9","","99.99","","","","","","Mostly Cloudy"
"2012-11-11 02:00","2012","11","11","02:00","8.0","","7.2","","95","","12","","4","","12.9","","99.97","","","","","","Mostly Cloudy"
"2012-11-11 03:00","2012","11","11","03:00","8.5","","7.4","","93","","10","","4","","12.9","","99.99","","","","","","Mostly Cloudy"
"2012-11-11 04:00","2012","11","11","04:00","7.5","","6.9","","96","","","","0","","12.9","","100.04","","","","","","Mostly Cloudy"
"2012-11-11 05:00","2012","11","11","05:00","6.9","","6.1","","95","","","","0","","12.9","","100.09","","","","","","Mostly Cloudy"
"2012-11-11 06:00","2012","11","11","06:00","6.9","","6.5","","97","","","","0","","12.9","","100.11","","","","","","Mostly Cloudy"
"2012-11-11 07:00","2012","11","11","07:00","8.7","","7.8","","94","","19","","7","","12.9","","100.15","","","","","","Mostly Cloudy"
"2012-11-11 08:00","2012","11","11","08:00","9.4","","7.7","","89","","15","","7","","16.1","","100.19","","","","","","Mostly Cloudy"
"2012-11-11 09:00","2012","11","11","09:00","11.3","","8.2","","81","","15","","7","","24.1","","100.19","","","","","","Mostly Cloudy"
"2012-11-11 10:00","2012","11","11","10:00","13.0","","8.6","","75","","16","","6","","24.1","","100.18","","","","","","Mostly Cloudy"
"2012-11-11 11:00","2012","11","11","11:00","15.6","","8.7","","63","","17","","7","","24.1","","100.17","","","","","","Mostly Cloudy"
"2012-11-11 12:00","2012","11","11","12:00","16.8","","8.9","","60","","16","","9","","24.1","","100.10","","","","","","Mostly Cloudy"
"2012-11-11 13:00","2012","11","11","13:00","17.8","","7.9","","52","","19","","11","","24.1","","100.04","","","","","","Mostly Cloudy"
"2012-11-11 14:00","2012","11","11","14:00","17.3","","7.6","","53","","18","","9","","24.1","","100.04","","","","","","Mostly Cloudy"
"2012-11-11 15:00","2012","11","11","15:00","17.2","","7.8","","54","","16","","7","","24.1","","100.05","","","","","","Mostly Cloudy"
"2012-11-11 16:00","2012","11","11","16:00","16.8","","6.6","","51","","19","","13","","24.1","","100.04","","","","","","Mostly Cloudy"
"2012-11-11 17:00","2012","11","11","17:00","16.5","","4.7","","46","","18","","11","","24.1","","100.04","","","","","","Mostly Cloudy"
"2012-11-11 18:00","2012","11","11","18:00","14.5","","5.1","","53","","17","","9","","24.1","","100.03","","","","","","Mainly Clear"
"2012-11-11 19:00","2012","11","11","19:00","14.0","","4.6","","53","","16","","7","","24.1","","100.01","","","","","","Mainly Clear"
"2012-11-11 20:00","2012","11","11","20:00","12.1","","5.4","","64","","14","","9","","24.1","","99.98","","","","","","Mainly Clear"
"2012-11-11 21:00","2012","11","11","21:00","11.5","","5.2","","65","","14","","9","","24.1","","99.94","","","","","","Mainly Clear"
"2012-11-11 22:00","2012","11","11","22:00","11.4","","5.3","","66","","15","","7","","24.1","","99.89","","","","","","Mainly Clear"
"2012-11-11 23:00","2012","11","11","23:00","11.3","","5.0","","65","","15","","11","","24.1","","99.84","","","","","","Mainly Clear"
"2012-11-12 00:00","2012","11","12","00:00","11.8","","5.1","","63","","15","","9","","24.1","","99.78","","","","","","Mostly Cloudy"
"2012-11-12 01:00","2012","11","12","01:00","12.4","","5.4","","62","","15","","11","","24.1","","99.78","","","","","","Cloudy"
"2012-11-12 02:00","2012","11","12","02:00","12.9","","5.4","","60","","15","","9","","24.1","","99.75","","","","","","Mostly Cloudy"
"2012-11-12 03:00","2012","11","12","03:00","12.8","","5.5","","61","","15","","11","","24.1","","99.73","","","","","","Cloudy"
"2012-11-12 04:00","2012","11","12","04:00","13.2","","5.4","","59","","17","","13","","24.1","","99.68","","","","","","Mostly Cloudy"
"2012-11-12 05:00","2012","11","12","05:00","13.7","","5.0","","56","","17","","13","","24.1","","99.66","","","","","","Mainly Clear"
"2012-11-12 06:00","2012","11","12","06:00","14.9","","5.6","","54","","19","","19","","24.1","","99.62","","","","","","Mostly Cloudy"
"2012-11-12 07:00","2012","11","12","07:00","15.4","","6.5","","55","","18","","17","","24.1","","99.61","","","","","","Mostly Cloudy"
"2012-11-12 08:00","2012","11","12","08:00","15.1","","7.2","","59","","18","","17","","24.1","","99.60","","","","","","Mostly Cloudy"
"2012-11-12 09:00","2012","11","12","09:00","16.7","","8.3","","58","","19","","28","","24.1","","99.55","","","","","","Mostly Cloudy"
"2012-11-12 10:00","2012","11","12","10:00","17.1","","8.7","","58","","19","","20","","24.1","","99.48","","","","","","Mostly Cloudy"
"2012-11-12 11:00","2012","11","12","11:00","18.1","","9.6","","58","","18","","28","","24.1","","99.40","","","","","","Mostly Cloudy"
"2012-11-12 12:00","2012","11","12","12:00","19.0","","10.1","","56","","18","","20","","24.1","","99.27","","","","","","Mostly Cloudy"
"2012-11-12 13:00","2012","11","12","13:00","19.3","","10.2","","56","","20","","22","","24.1","","99.14","","","","","","Cloudy"
"2012-11-12 14:00","2012","11","12","14:00","17.0","","11.5","","70","","21","","24","","24.1","","99.10","","","","","","Rain"
"2012-11-12 15:00","2012","11","12","15:00","14.4","","12.6","","89","","22","","26","","16.1","","99.12","","","","","","Rain"
"2012-11-12 16:00","2012","11","12","16:00","12.0","","9.8","","86","","27","","32","","16.1","","99.20","","","","","","Rain"
"2012-11-12 17:00","2012","11","12","17:00","10.2","","8.0","","86","","27","","26","","24.1","","99.30","","","","","","Rain"
"2012-11-12 18:00","2012","11","12","18:00","8.7","","6.6","","87","","26","","30","","24.1","","99.45","","","","","","Rain"
"2012-11-12 19:00","2012","11","12","19:00","7.7","","5.3","","85","","26","","24","","24.1","","99.55","","","","","","Rain"
"2012-11-12 20:00","2012","11","12","20:00","6.5","","3.1","","79","","27","","28","","19.3","","99.68","","","","","","Rain"
"2012-11-12 21:00","2012","11","12","21:00","4.7","","2.7","","87","","28","","20","","16.1","","99.77","","","","","","Rain"
"2012-11-12 22:00","2012","11","12","22:00","4.2","","1.4","","82","","26","","20","","19.3","","99.94","","","","","","Rain"
"2012-11-12 23:00","2012","11","12","23:00","3.4","","-1.3","","71","","26","","30","","24.1","","100.05","","","","","","Mostly Cloudy"
"2012-11-13 00:00","2012","11","13","00:00","2.9","","-3.1","","65","","27","","26","","24.1","","100.12","","","","","","Mostly Cloudy"
"2012-11-13 01:00","2012","11","13","01:00","2.7","","-3.3","","65","","26","","22","","24.1","","100.18","","","","","","Cloudy"
"2012-11-13 02:00","2012","11","13","02:00","2.4","","-4.0","","63","","27","","20","","24.1","","100.19","","","","","","Cloudy"
"2012-11-13 03:00","2012","11","13","03:00","2.3","","-3.8","","64","","25","","24","","24.1","","100.24","","","","","","Cloudy"
"2012-11-13 04:00","2012","11","13","04:00","2.2","","-4.2","","63","","25","","24","","24.1","","100.25","","","","","","Cloudy"
"2012-11-13 05:00","2012","11","13","05:00","2.0","","-3.7","","66","","24","","19","","24.1","","100.33","","","","","","Snow Grains"
"2012-11-13 06:00","2012","11","13","06:00","1.6","","-3.6","","68","","27","","24","","24.1","","100.44","","","","","","Snow Grains"
"2012-11-13 07:00","2012","11","13","07:00","1.3","","-6.2","","57","","29","","26","","24.1","","100.54","","","","","","Snow"
"2012-11-13 08:00","2012","11","13","08:00","1.2","","-5.4","","61","","26","","15","","24.1","","100.66","","","","","","Mostly Cloudy"
"2012-11-13 09:00","2012","11","13","09:00","1.5","","-6.2","","57","","29","","20","","24.1","","100.74","","","","","","Mostly Cloudy"
"2012-11-13 10:00","2012","11","13","10:00","2.4","","-5.9","","54","","28","","19","","24.1","","100.79","","","","","","Mainly Clear"
"2012-11-13 11:00","2012","11","13","11:00","3.0","","-5.1","","55","","28","","17","","24.1","","100.86","","","","","","Mostly Cloudy"
"2012-11-13 12:00","2012","11","13","12:00","2.6","","-6.7","","50","","28","","26","","24.1","","100.83","","","","","","Mostly Cloudy"
"2012-11-13 13:00","2012","11","13","13:00","2.6","","-7.2","","48","","30","","15","","24.1","","100.85","","","","","","Mostly Cloudy"
"2012-11-13 14:00","2012","11","13","14:00","2.9","","-7.2","","47","","27","","9","","24.1","","100.87","","","","","","Mostly Cloudy"
"2012-11-13 15:00","2012","11","13","15:00","2.7","","-6.2","","52","","30","","15","","24.1","","100.89","","","","","","Mostly Cloudy"
"2012-11-13 16:00","2012","11","13","16:00","2.5","","-6.5","","51","","29","","17","","24.1","","100.96","","","","","","Mostly Cloudy"
"2012-11-13 17:00","2012","11","13","17:00","2.3","","-7.3","","49","","28","","13","","24.1","","101.00","","","","","","Mostly Cloudy"
"2012-11-13 18:00","2012","11","13","18:00","1.5","","-6.6","","55","","30","","15","","24.1","","101.07","","","","","","Mostly Cloudy"
"2012-11-13 19:00","2012","11","13","19:00","2.2","","-6.3","","53","","28","","11","","24.1","","101.12","","","","","","Mostly Cloudy"
"2012-11-13 20:00","2012","11","13","20:00","1.8","","-4.6","","62","","24","","13","","24.1","","101.14","","","","","","Mostly Cloudy"
"2012-11-13 21:00","2012","11","13","21:00","1.7","","-4.2","","65","","25","","13","","24.1","","101.23","","","","","","Cloudy"
"2012-11-13 22:00","2012","11","13","22:00","1.4","","-4.6","","64","","26","","15","","24.1","","101.26","","","","","","Mostly Cloudy"
"2012-11-13 23:00","2012","11","13","23:00","1.1","","-4.6","","66","","23","","9","","24.1","","101.28","","","","","","Mostly Cloudy"
"2012-11-14 00:00","2012","11","14","00:00","0.8","","-4.0","","70","","26","","4","","24.1","","101.33","","","","","","Mostly Cloudy"
"2012-11-14 01:00","2012","11","14","01:00","0.9","","-4.1","","69","","","","0","","24.1","","101.32","","","","","","Mostly Cloudy"
"2012-11-14 02:00","2012","11","14","02:00","1.0","","-3.9","","70","","28","","6","","24.1","","101.35","","","","","","Cloudy"
"2012-11-14 03:00","2012","11","14","03:00","1.1","","-4.0","","69","","29","","6","","24.1","","101.35","","","","","","Cloudy"
"2012-11-14 04:00","2012","11","14","04:00","1.1","","-3.5","","71","","27","","4","","24.1","","101.35","","","","","","Cloudy"
"2012-11-14 05:00","2012","11","14","05:00","1.1","","-3.9","","69","","27","","6","","24.1","","101.40","","","","","","Cloudy"
"2012-11-14 06:00","2012","11","14","06:00","1.1","","-4.0","","69","","27","","4","","24.1","","101.43","","","","","","Mostly Cloudy"
"2012-11-14 07:00","2012","11","14","07:00","1.4","","-4.3","","66","","28","","4","","24.1","","101.46","","","","","","Mostly Cloudy"
"2012-11-14 08:00","2012","11","14","08:00","1.9","","-3.8","","66","","","","0","","24.1","","101.48","","","","","","Mostly Cloudy"
"2012-11-14 09:00","2012","11","14","09:00","2.5","","-3.5","","65","","25","","4","","24.1","","101.54","","","","","","Mostly Cloudy"
"2012-11-14 10:00","2012","11","14","10:00","3.7","","-4.9","","53","","20","","7","","24.1","","101.53","","","","","","Mostly Cloudy"
"2012-11-14 11:00","2012","11","14","11:00","4.9","","-4.7","","50","","25","","7","","24.1","","101.53","","","","","","Mostly Cloudy"
"2012-11-14 12:00","2012","11","14","12:00","5.1","","-4.9","","48","","23","","4","","24.1","","101.45","","","","","","Mostly Cloudy"
"2012-11-14 13:00","2012","11","14","13:00","5.5","","-4.8","","47","","14","","7","","24.1","","101.39","","","","","","Mostly Cloudy"
"2012-11-14 14:00","2012","11","14","14:00","5.4","","-5.3","","46","","16","","9","","24.1","","101.38","","","","","","Mostly Cloudy"
"2012-11-14 15:00","2012","11","14","15:00","4.9","","-4.7","","50","","16","","9","","24.1","","101.30","","","","","","Mostly Cloudy"
"2012-11-14 16:00","2012","11","14","16:00","4.4","","-4.6","","52","","16","","9","","24.1","","101.30","","","","","","Mostly Cloudy"
"2012-11-14 17:00","2012","11","14","17:00","4.0","","-4.6","","53","","15","","7","","24.1","","101.26","","","","","","Mostly Cloudy"
"2012-11-14 18:00","2012","11","14","18:00","3.7","","-4.5","","55","","15","","6","","24.1","","101.26","","","","","","Mostly Cloudy"
"2012-11-14 19:00","2012","11","14","19:00","3.5","","-4.1","","57","","14","","6","","24.1","","101.23","","","","","","Cloudy"
"2012-11-14 20:00","2012","11","14","20:00","3.4","","-3.5","","61","","11","","4","","24.1","","101.21","","","","","","Mostly Cloudy"
"2012-11-14 21:00","2012","11","14","21:00","3.4","","-3.1","","62","","9","","6","","24.1","","101.18","","","","","","Mostly Cloudy"
"2012-11-14 22:00","2012","11","14","22:00","3.4","","-3.1","","62","","10","","7","","24.1","","101.16","","","","","","Mostly Cloudy"
"2012-11-14 23:00","2012","11","14","23:00","3.4","","-2.4","","66","","8","","6","","24.1","","101.11","","","","","","Mostly Cloudy"
"2012-11-15 00:00","2012","11","15","00:00","4.0","","-2.2","","64","","10","","9","","24.1","","101.08","","","","","","Mostly Cloudy"
"2012-11-15 01:00","2012","11","15","01:00","3.5","","-2.6","","64","","14","","9","","24.1","","101.08","","","","","","Mostly Cloudy"
"2012-11-15 02:00","2012","11","15","02:00","3.0","","-3.0","","65","","14","","6","","24.1","","101.06","","","","","","Mostly Cloudy"
"2012-11-15 03:00","2012","11","15","03:00","2.1","","-2.6","","71","","","","0","","24.1","","101.02","","","","","","Mostly Cloudy"
"2012-11-15 04:00","2012","11","15","04:00","1.9","","-1.9","","76","","1","","6","","24.1","","100.95","","","","","","Mostly Cloudy"
"2012-11-15 05:00","2012","11","15","05:00","1.6","","-2.0","","77","","3","","7","","24.1","","100.96","","","","","","Mostly Cloudy"
"2012-11-15 06:00","2012","11","15","06:00","1.8","","-2.4","","74","","6","","7","","24.1","","100.90","","","","","","Mostly Cloudy"
"2012-11-15 07:00","2012","11","15","07:00","0.5","","-3.2","","76","","2","","9","","24.1","","100.96","","","","","","Mostly Cloudy"
"2012-11-15 08:00","2012","11","15","08:00","2.0","","-2.5","","72","","3","","9","","24.1","","100.91","","","","","","Mostly Cloudy"
"2012-11-15 09:00","2012","11","15","09:00","3.5","","-2.7","","64","","6","","9","","24.1","","100.90","","","","","","Mostly Cloudy"
"2012-11-15 10:00","2012","11","15","10:00","4.4","","-2.2","","62","","7","","9","","24.1","","100.89","","","","","","Mostly Cloudy"
"2012-11-15 11:00","2012","11","15","11:00","5.2","","-1.6","","61","","7","","9","","24.1","","100.88","","","","","","Mostly Cloudy"
"2012-11-15 12:00","2012","11","15","12:00","5.1","","-0.9","","65","","5","","13","","24.1","","100.79","","","","","","Mostly Cloudy"
"2012-11-15 13:00","2012","11","15","13:00","5.2","","-1.0","","64","","5","","9","","24.1","","100.73","","","","","","Mostly Cloudy"
"2012-11-15 14:00","2012","11","15","14:00","5.7","","-0.6","","64","","10","","13","","24.1","","100.69","","","","","","Mostly Cloudy"
"2012-11-15 15:00","2012","11","15","15:00","5.7","","-1.1","","62","","11","","7","","24.1","","100.67","","","","","","Mostly Cloudy"
"2012-11-15 16:00","2012","11","15","16:00","5.7","","-0.9","","62","","9","","9","","24.1","","100.66","","","","","","Mostly Cloudy"
"2012-11-15 17:00","2012","11","15","17:00","4.9","","-0.9","","66","","9","","7","","24.1","","100.65","","","","","","Mostly Cloudy"
"2012-11-15 18:00","2012","11","15","18:00","3.4","","-1.1","","72","","7","","4","","24.1","","100.65","","","","","","Mostly Cloudy"
"2012-11-15 19:00","2012","11","15","19:00","3.7","","-0.6","","73","","4","","4","","24.1","","100.69","","","","","","Mostly Cloudy"
"2012-11-15 20:00","2012","11","15","20:00","3.6","","-0.7","","73","","","","0","","24.1","","100.66","","","","","","Mostly Cloudy"
"2012-11-15 21:00","2012","11","15","21:00","3.3","","-0.7","","75","","1","","4","","24.1","","100.66","","","","","","Mostly Cloudy"
"2012-11-15 22:00","2012","11","15","22:00","1.4","","-1.9","","79","","36","","6","","24.1","","100.68","","","","","","Mostly Cloudy"
"2012-11-15 23:00","2012","11","15","23:00","0.2","","-2.9","","80","","35","","4","","24.1","","100.66","","","","","","Mainly Clear"
"2012-11-16 00:00","2012","11","16","00:00","0.8","","-2.7","","77","","","","0","","24.1","","100.68","","","","","","Mainly Clear"
"2012-11-16 01:00","2012","11","16","01:00","-0.8","","-3.9","","79","","36","","4","","24.1","","100.67","","","","-2","","Mainly Clear"
"2012-11-16 02:00","2012","11","16","02:00","-1.1","","-3.6","","83","","33","","7","","24.1","","100.71","","","","-4","","Mainly Clear"
"2012-11-16 03:00","2012","11","16","03:00","-0.9","","-3.6","","82","","33","","9","","24.1","","100.74","","","","-4","","Mainly Clear"
"2012-11-16 04:00","2012","11","16","04:00","-1.6","","-4.3","","82","","32","","9","","24.1","","100.72","","","","-5","","Mainly Clear"
"2012-11-16 05:00","2012","11","16","05:00","-2.6","","-5.1","","83","","30","","6","","24.1","","100.75","","","","-5","","Mainly Clear"
"2012-11-16 06:00","2012","11","16","06:00","-1.3","","-3.8","","83","","","","0","","24.1","","100.76","","","","","","Clear"
"2012-11-16 07:00","2012","11","16","07:00","-1.3","","-3.7","","84","","1","","6","","24.1","","100.81","","","","-4","","Clear"
"2012-11-16 08:00","2012","11","16","08:00","-0.9","","-3.8","","81","","30","","4","","24.1","","100.91","","","","-2","","Clear"
"2012-11-16 09:00","2012","11","16","09:00","2.2","","-1.0","","79","","29","","6","","24.1","","100.94","","","","","","Clear"
"2012-11-16 10:00","2012","11","16","10:00","5.0","","0.1","","71","","32","","4","","24.1","","100.96","","","","","","Clear"
"2012-11-16 11:00","2012","11","16","11:00","7.2","","0.5","","62","","14","","4","","24.1","","100.95","","","","","","Clear"
"2012-11-16 12:00","2012","11","16","12:00","7.5","","0.9","","63","","35","","4","","24.1","","100.90","","","","","","Clear"
"2012-11-16 13:00","2012","11","16","13:00","8.1","","1.2","","62","","35","","6","","24.1","","100.89","","","","","","Clear"
"2012-11-16 14:00","2012","11","16","14:00","9.7","","0.9","","54","","18","","4","","24.1","","100.90","","","","","","Clear"
"2012-11-16 15:00","2012","11","16","15:00","9.7","","1.4","","56","","23","","6","","24.1","","100.90","","","","","","Clear"
"2012-11-16 16:00","2012","11","16","16:00","7.7","","0.9","","62","","15","","9","","24.1","","100.97","","","","","","Clear"
"2012-11-16 17:00","2012","11","16","17:00","6.5","","0.5","","65","","14","","6","","24.1","","100.99","","","","","","Mainly Clear"
"2012-11-16 18:00","2012","11","16","18:00","6.7","","0.7","","66","","","","0","","24.1","","101.04","","","","","","Mostly Cloudy"
"2012-11-16 19:00","2012","11","16","19:00","7.2","","0.8","","64","","","","0","","19.3","","101.09","","","","","","Mostly Cloudy"
"2012-11-16 20:00","2012","11","16","20:00","7.5","","2.3","","70","","36","","6","","19.3","","101.12","","","","","","Mostly Cloudy"
"2012-11-16 21:00","2012","11","16","21:00","6.6","","2.0","","72","","","","0","","19.3","","101.14","","","","","","Mostly Cloudy"
"2012-11-16 22:00","2012","11","16","22:00","7.0","","2.0","","70","","","","0","","19.3","","101.16","","","","","","Mostly Cloudy"
"2012-11-16 23:00","2012","11","16","23:00","4.0","","0.5","","78","","","","0","","19.3","","101.16","","","","","","Clear"
"2012-11-17 00:00","2012","11","17","00:00","4.3","","1.3","","81","","","","0","","19.3","","101.17","","","","","","Clear"
"2012-11-17 01:00","2012","11","17","01:00","3.7","","1.3","","84","","34","","7","","19.3","","101.20","","","","","","Clear"
"2012-11-17 02:00","2012","11","17","02:00","2.7","","0.8","","87","","35","","4","","19.3","","101.24","","","","","","Clear"
"2012-11-17 03:00","2012","11","17","03:00","1.8","","0.2","","89","","34","","7","","16.1","","101.29","","","","","","Clear"
"2012-11-17 04:00","2012","11","17","04:00","0.9","","-0.4","","91","","33","","7","","16.1","","101.33","","","","","","Clear"
"2012-11-17 05:00","2012","11","17","05:00","1.2","","-0.4","","89","","34","","9","","16.1","","101.39","","","","","","Clear"
"2012-11-17 06:00","2012","11","17","06:00","0.6","","-0.6","","92","","34","","6","","16.1","","101.43","","","","","","Mainly Clear"
"2012-11-17 07:00","2012","11","17","07:00","1.1","","-0.4","","90","","1","","6","","19.3","","101.51","","","","","","Mainly Clear"
"2012-11-17 08:00","2012","11","17","08:00","0.9","","-0.5","","90","","2","","4","","19.3","","101.53","","","","","","Mostly Cloudy"
"2012-11-17 09:00","2012","11","17","09:00","2.9","","0.9","","87","","2","","4","","24.1","","101.59","","","","","","Mostly Cloudy"
"2012-11-17 10:00","2012","11","17","10:00","5.4","","1.5","","76","","3","","4","","24.1","","101.61","","","","","","Mostly Cloudy"
"2012-11-17 11:00","2012","11","17","11:00","6.8","","1.8","","70","","7","","6","","24.1","","101.64","","","","","","Mostly Cloudy"
"2012-11-17 12:00","2012","11","17","12:00","7.4","","0.3","","61","","34","","6","","24.1","","101.60","","","","","","Mostly Cloudy"
"2012-11-17 13:00","2012","11","17","13:00","7.8","","-0.1","","57","","","","0","","24.1","","101.55","","","","","","Mainly Clear"
"2012-11-17 14:00","2012","11","17","14:00","8.6","","0.2","","55","","","","0","","24.1","","101.51","","","","","","Mainly Clear"
"2012-11-17 15:00","2012","11","17","15:00","7.8","","1.9","","66","","13","","7","","24.1","","101.50","","","","","","Mainly Clear"
"2012-11-17 16:00","2012","11","17","16:00","6.9","","3.0","","76","","15","","7","","24.1","","101.52","","","","","","Mainly Clear"
"2012-11-17 17:00","2012","11","17","17:00","6.2","","2.9","","79","","14","","7","","19.3","","101.54","","","","","","Mainly Clear"
"2012-11-17 18:00","2012","11","17","18:00","5.6","","3.0","","83","","12","","4","","19.3","","101.54","","","","","","Mainly Clear"
"2012-11-17 19:00","2012","11","17","19:00","4.6","","2.7","","87","","","","0","","19.3","","101.55","","","","","","Mainly Clear"
"2012-11-17 20:00","2012","11","17","20:00","4.4","","2.8","","89","","5","","4","","16.1","","101.54","","","","","","Clear"
"2012-11-17 21:00","2012","11","17","21:00","4.4","","2.5","","87","","6","","4","","16.1","","101.56","","","","","","Clear"
"2012-11-17 22:00","2012","11","17","22:00","3.4","","2.0","","91","","9","","4","","16.1","","101.58","","","","","","Clear"
"2012-11-17 23:00","2012","11","17","23:00","2.7","","0.9","","88","","7","","4","","9.7","","101.57","","","","","","Fog"
"2012-11-18 00:00","2012","11","18","00:00","2.0","","0.5","","90","","3","","6","","9.7","","101.59","","","","","","Fog"
"2012-11-18 01:00","2012","11","18","01:00","0.7","","-1.0","","88","","1","","4","","9.7","","101.55","","","","","","Fog"
"2012-11-18 02:00","2012","11","18","02:00","-0.1","","-1.4","","91","","2","","6","","6.4","","101.53","","","","-2","","Fog"
"2012-11-18 03:00","2012","11","18","03:00","0.7","","-0.6","","91","","36","","6","","6.4","","101.52","","","","","","Fog"
"2012-11-18 04:00","2012","11","18","04:00","0.7","","-1.0","","88","","2","","6","","6.4","","101.50","","","","","","Fog"
"2012-11-18 05:00","2012","11","18","05:00","0.2","","-1.6","","88","","36","","4","","6.4","","101.53","","","","","","Fog"
"2012-11-18 06:00","2012","11","18","06:00","0.2","","-1.3","","90","","36","","6","","8.0","","101.55","","","","","","Fog"
"2012-11-18 07:00","2012","11","18","07:00","1.2","","0.0","","92","","3","","11","","4.8","","101.55","","","","","","Fog"
"2012-11-18 08:00","2012","11","18","08:00","1.4","","0.5","","94","","2","","7","","2.4","","101.55","","","","","","Fog"
"2012-11-18 09:00","2012","11","18","09:00","3.7","","3.2","","97","","4","","7","","0.4","","101.56","","","","","","Fog"
"2012-11-18 10:00","2012","11","18","10:00","6.5","","5.0","","90","","8","","13","","9.7","","101.55","","","","","","Fog"
"2012-11-18 11:00","2012","11","18","11:00","8.9","","1.1","","58","","11","","19","","24.1","","101.51","","","","","","Mostly Cloudy"
"2012-11-18 12:00","2012","11","18","12:00","9.6","","0.8","","54","","9","","13","","24.1","","101.43","","","","","","Mostly Cloudy"
"2012-11-18 13:00","2012","11","18","13:00","9.7","","0.4","","52","","10","","15","","24.1","","101.35","","","","","","Mainly Clear"
"2012-11-18 14:00","2012","11","18","14:00","9.6","","0.6","","53","","9","","13","","24.1","","101.33","","","","","","Mostly Cloudy"
"2012-11-18 15:00","2012","11","18","15:00","8.6","","0.3","","56","","9","","15","","24.1","","101.30","","","","","","Mostly Cloudy"
"2012-11-18 16:00","2012","11","18","16:00","7.6","","0.7","","62","","9","","13","","24.1","","101.32","","","","","","Mostly Cloudy"
"2012-11-18 17:00","2012","11","18","17:00","6.5","","1.4","","70","","9","","15","","24.1","","101.31","","","","","","Mostly Cloudy"
"2012-11-18 18:00","2012","11","18","18:00","6.0","","1.4","","72","","9","","13","","24.1","","101.27","","","","","","Mostly Cloudy"
"2012-11-18 19:00","2012","11","18","19:00","5.9","","1.6","","74","","10","","11","","24.1","","101.31","","","","","","Mostly Cloudy"
"2012-11-18 20:00","2012","11","18","20:00","5.0","","1.6","","79","","11","","9","","24.1","","101.26","","","","","","Mainly Clear"
"2012-11-18 21:00","2012","11","18","21:00","4.8","","1.8","","81","","8","","6","","24.1","","101.25","","","","","","Mainly Clear"
"2012-11-18 22:00","2012","11","18","22:00","4.6","","2.0","","83","","8","","7","","24.1","","101.21","","","","","","Mainly Clear"
"2012-11-18 23:00","2012","11","18","23:00","1.1","","-0.4","","90","","3","","9","","19.3","","101.18","","","","","","Mainly Clear"
"2012-11-19 00:00","2012","11","19","00:00","1.1","","-0.6","","88","","3","","11","","16.1","","101.15","","","","","","Clear"
"2012-11-19 01:00","2012","11","19","01:00","0.2","","-1.2","","90","","1","","9","","9.7","","101.13","","","","","","Fog"
"2012-11-19 02:00","2012","11","19","02:00","1.2","","-0.1","","91","","1","","9","","9.7","","101.08","","","","","","Fog"
"2012-11-19 03:00","2012","11","19","03:00","2.3","","0.7","","89","","1","","9","","9.7","","101.07","","","","","","Fog"
"2012-11-19 04:00","2012","11","19","04:00","2.4","","1.0","","90","","3","","6","","9.7","","100.98","","","","","","Fog"
"2012-11-19 05:00","2012","11","19","05:00","3.5","","1.9","","89","","4","","7","","12.9","","100.99","","","","","","Cloudy"
"2012-11-19 06:00","2012","11","19","06:00","3.8","","2.2","","89","","2","","7","","12.9","","100.99","","","","","","Cloudy"
"2012-11-19 07:00","2012","11","19","07:00","4.1","","2.7","","91","","4","","7","","9.7","","100.98","","","","","","Fog"
"2012-11-19 08:00","2012","11","19","08:00","4.0","","2.9","","93","","2","","7","","2.8","","100.97","","","","","","Fog"
"2012-11-19 09:00","2012","11","19","09:00","4.0","","3.2","","95","","2","","6","","2.0","","100.90","","","","","","Fog"
"2012-11-19 10:00","2012","11","19","10:00","4.5","","3.2","","91","","3","","6","","4.8","","100.93","","","","","","Fog"
"2012-11-19 11:00","2012","11","19","11:00","5.2","","3.1","","86","","6","","4","","6.4","","100.90","","","","","","Haze"
"2012-11-19 12:00","2012","11","19","12:00","5.8","","3.0","","82","","","","0","","6.4","","100.80","","","","","","Haze"
"2012-11-19 13:00","2012","11","19","13:00","7.3","","3.6","","77","","","","0","","6.4","","100.71","","","","","","Haze"
"2012-11-19 14:00","2012","11","19","14:00","8.3","","3.6","","72","","17","","6","","6.4","","100.66","","","","","","Haze"
"2012-11-19 15:00","2012","11","19","15:00","8.4","","3.8","","73","","","","0","","12.9","","100.59","","","","","","Mostly Cloudy"
"2012-11-19 16:00","2012","11","19","16:00","7.7","","3.2","","73","","","","0","","16.1","","100.55","","","","","","Mostly Cloudy"
"2012-11-19 17:00","2012","11","19","17:00","7.1","","2.8","","74","","14","","4","","12.9","","100.55","","","","","","Mostly Cloudy"
"2012-11-19 18:00","2012","11","19","18:00","6.1","","3.7","","85","","15","","4","","12.9","","100.53","","","","","","Mostly Cloudy"
"2012-11-19 19:00","2012","11","19","19:00","5.5","","3.8","","89","","14","","7","","12.9","","100.51","","","","","","Mainly Clear"
"2012-11-19 20:00","2012","11","19","20:00","5.3","","4.1","","92","","14","","6","","12.9","","100.43","","","","","","Mostly Cloudy"
"2012-11-19 21:00","2012","11","19","21:00","5.4","","4.4","","93","","","","0","","8.0","","100.41","","","","","","Fog"
"2012-11-19 22:00","2012","11","19","22:00","5.2","","4.4","","95","","","","0","","8.0","","100.37","","","","","","Fog"
"2012-11-19 23:00","2012","11","19","23:00","3.7","","3.4","","98","","","","0","","4.8","","100.33","","","","","","Fog"
"2012-11-20 00:00","2012","11","20","00:00","4.2","","3.9","","98","","","","0","","3.2","","100.30","","","","","","Fog"
"2012-11-20 01:00","2012","11","20","01:00","3.9","","3.1","","95","","2","","4","","4.0","","100.22","","","","","","Fog"
"2012-11-20 02:00","2012","11","20","02:00","3.2","","2.7","","97","","4","","4","","1.6","","100.22","","","","","","Fog"
"2012-11-20 03:00","2012","11","20","03:00","3.5","","3.1","","97","","1","","4","","0.4","","100.21","","","","","","Fog"
"2012-11-20 04:00","2012","11","20","04:00","3.6","","3.2","","97","","36","","7","","0.4","","100.17","","","","","","Fog"
"2012-11-20 05:00","2012","11","20","05:00","3.4","","3.1","","98","","31","","9","","0.4","","100.16","","","","","","Fog"
"2012-11-20 06:00","2012","11","20","06:00","2.8","","2.5","","98","","4","","6","","0.2","","100.15","","","","","","Fog"
"2012-11-20 07:00","2012","11","20","07:00","2.6","","2.3","","98","","34","","7","","0.2","","100.14","","","","","","Fog"
"2012-11-20 08:00","2012","11","20","08:00","2.3","","1.8","","96","","31","","9","","0.2","","100.15","","","","","","Fog"
"2012-11-20 09:00","2012","11","20","09:00","3.5","","3.3","","99","","30","","6","","6.4","","100.16","","","","","","Fog"
"2012-11-20 10:00","2012","11","20","10:00","4.9","","4.6","","98","","","","0","","6.4","","100.16","","","","","","Fog"
"2012-11-20 11:00","2012","11","20","11:00","7.4","","6.3","","93","","13","","6","","6.4","","100.11","","","","","","Fog"
"2012-11-20 12:00","2012","11","20","12:00","8.1","","4.6","","79","","9","","6","","9.7","","100.05","","","","","","Haze"
"2012-11-20 13:00","2012","11","20","13:00","8.6","","4.6","","76","","10","","7","","16.1","","99.98","","","","","","Mostly Cloudy"
"2012-11-20 14:00","2012","11","20","14:00","9.0","","2.9","","66","","17","","7","","24.1","","99.94","","","","","","Mostly Cloudy"
"2012-11-20 15:00","2012","11","20","15:00","9.1","","4.2","","71","","14","","9","","19.3","","99.94","","","","","","Mostly Cloudy"
"2012-11-20 16:00","2012","11","20","16:00","8.2","","3.6","","73","","15","","6","","19.3","","99.97","","","","","","Mostly Cloudy"
"2012-11-20 17:00","2012","11","20","17:00","7.7","","3.9","","77","","18","","7","","16.1","","100.01","","","","","","Mostly Cloudy"
"2012-11-20 18:00","2012","11","20","18:00","6.9","","4.4","","84","","15","","4","","16.1","","100.04","","","","","","Cloudy"
"2012-11-20 19:00","2012","11","20","19:00","6.7","","4.6","","86","","12","","7","","16.1","","100.04","","","","","","Mostly Cloudy"
"2012-11-20 20:00","2012","11","20","20:00","6.3","","4.2","","86","","8","","6","","16.1","","100.06","","","","","","Mainly Clear"
"2012-11-20 21:00","2012","11","20","21:00","5.2","","3.9","","91","","9","","6","","16.1","","100.07","","","","","","Mainly Clear"
"2012-11-20 22:00","2012","11","20","22:00","4.6","","3.9","","95","","8","","4","","12.9","","100.06","","","","","","Mainly Clear"
"2012-11-20 23:00","2012","11","20","23:00","2.7","","2.1","","96","","","","0","","3.2","","100.06","","","","","","Fog"
"2012-11-21 00:00","2012","11","21","00:00","3.8","","2.9","","94","","","","0","","6.4","","100.08","","","","","","Fog"
"2012-11-21 01:00","2012","11","21","01:00","3.0","","1.9","","92","","2","","6","","6.4","","100.10","","","","","","Fog"
"2012-11-21 02:00","2012","11","21","02:00","2.8","","1.6","","92","","1","","6","","6.4","","100.12","","","","","","Fog"
"2012-11-21 03:00","2012","11","21","03:00","2.2","","0.9","","91","","32","","6","","8.0","","100.12","","","","","","Fog"
"2012-11-21 04:00","2012","11","21","04:00","1.7","","1.1","","96","","36","","4","","6.4","","100.10","","","","","","Fog"
"2012-11-21 05:00","2012","11","21","05:00","1.7","","0.7","","93","","31","","7","","0.4","","100.17","","","","","","Fog"
"2012-11-21 06:00","2012","11","21","06:00","2.9","","2.6","","98","","32","","6","","0.2","","100.23","","","","","","Fog"
"2012-11-21 07:00","2012","11","21","07:00","2.5","","2.1","","97","","30","","4","","0.2","","100.30","","","","","","Fog"
"2012-11-21 08:00","2012","11","21","08:00","3.0","","2.7","","98","","","","0","","0.2","","100.30","","","","","","Fog"
"2012-11-21 09:00","2012","11","21","09:00","3.5","","3.1","","97","","15","","7","","0.2","","100.31","","","","","","Fog"
"2012-11-21 10:00","2012","11","21","10:00","3.4","","3.3","","99","","12","","4","","0.6","","100.37","","","","","","Drizzle,Fog"
"2012-11-21 11:00","2012","11","21","11:00","4.2","","3.8","","97","","18","","7","","2.0","","100.32","","","","","","Fog"
"2012-11-21 12:00","2012","11","21","12:00","5.1","","4.6","","97","","","","0","","4.0","","100.25","","","","","","Fog"
"2012-11-21 13:00","2012","11","21","13:00","6.8","","4.4","","85","","33","","4","","8.0","","100.25","","","","","","Haze"
"2012-11-21 14:00","2012","11","21","14:00","9.6","","4.9","","72","","16","","7","","9.7","","100.19","","","","","","Haze"
"2012-11-21 15:00","2012","11","21","15:00","9.3","","4.9","","74","","16","","11","","11.3","","100.14","","","","","","Mostly Cloudy"
"2012-11-21 16:00","2012","11","21","16:00","7.8","","4.6","","80","","15","","9","","9.7","","100.17","","","","","","Haze"
"2012-11-21 17:00","2012","11","21","17:00","6.3","","4.2","","86","","15","","9","","8.0","","100.16","","","","","","Haze"
"2012-11-21 18:00","2012","11","21","18:00","5.7","","4.2","","90","","15","","6","","8.0","","100.17","","","","","","Haze"
"2012-11-21 19:00","2012","11","21","19:00","5.8","","4.6","","92","","16","","4","","6.4","","100.19","","","","","","Fog"
"2012-11-21 20:00","2012","11","21","20:00","5.6","","4.6","","93","","16","","6","","4.8","","100.16","","","","","","Fog"
"2012-11-21 21:00","2012","11","21","21:00","5.5","","4.9","","96","","14","","7","","4.0","","100.13","","","","","","Fog"
"2012-11-21 22:00","2012","11","21","22:00","4.5","","3.7","","95","","","","0","","0.8","","100.17","","","","","","Fog"
"2012-11-21 23:00","2012","11","21","23:00","2.8","","2.8","","100","","","","0","","0.2","","100.15","","","","","","Fog"
"2012-11-22 00:00","2012","11","22","00:00","3.2","","2.8","","97","","","","0","","0.0","","100.13","","","","","","Fog"
"2012-11-22 01:00","2012","11","22","01:00","2.8","","2.5","","98","","12","","4","","0.2","","100.07","","","","","","Fog"
"2012-11-22 02:00","2012","11","22","02:00","3.7","","3.2","","97","","17","","4","","2.4","","100.09","","","","","","Fog"
"2012-11-22 03:00","2012","11","22","03:00","3.5","","2.7","","94","","18","","4","","19.3","","100.05","","","","","","Mostly Cloudy"
"2012-11-22 04:00","2012","11","22","04:00","4.0","","1.0","","81","","21","","7","","24.1","","100.02","","","","","","Mainly Clear"
"2012-11-22 05:00","2012","11","22","05:00","4.5","","1.2","","79","","18","","6","","24.1","","100.05","","","","","","Mainly Clear"
"2012-11-22 06:00","2012","11","22","06:00","3.8","","1.0","","82","","15","","6","","24.1","","100.04","","","","","","Mainly Clear"
"2012-11-22 07:00","2012","11","22","07:00","4.1","","1.1","","81","","16","","4","","19.3","","100.03","","","","","","Clear"
"2012-11-22 08:00","2012","11","22","08:00","4.8","","2.2","","83","","18","","6","","16.1","","100.01","","","","","","Mostly Cloudy"
"2012-11-22 09:00","2012","11","22","09:00","6.4","","3.6","","82","","15","","6","","14.5","","100.00","","","","","","Mainly Clear"
"2012-11-22 10:00","2012","11","22","10:00","9.0","","5.4","","78","","18","","9","","14.5","","99.96","","","","","","Mainly Clear"
"2012-11-22 11:00","2012","11","22","11:00","11.5","","6.8","","73","","23","","19","","14.5","","99.92","","","","","","Mainly Clear"
"2012-11-22 12:00","2012","11","22","12:00","13.1","","7.4","","68","","20","","13","","14.5","","99.82","","","","","","Mainly Clear"
"2012-11-22 13:00","2012","11","22","13:00","14.0","","7.0","","63","","20","","17","","16.1","","99.73","","","","","","Mainly Clear"
"2012-11-22 14:00","2012","11","22","14:00","14.6","","7.1","","61","","22","","22","","19.3","","99.66","","","","","","Mainly Clear"
"2012-11-22 15:00","2012","11","22","15:00","14.9","","6.8","","58","","21","","22","","19.3","","99.60","","","","","","Mainly Clear"
"2012-11-22 16:00","2012","11","22","16:00","14.4","","6.6","","59","","21","","19","","24.1","","99.59","","","","","","Mainly Clear"
"2012-11-22 17:00","2012","11","22","17:00","12.8","","6.4","","65","","20","","13","","24.1","","99.57","","","","","","Clear"
"2012-11-22 18:00","2012","11","22","18:00","11.0","","5.7","","70","","17","","11","","24.1","","99.50","","","","","","Clear"
"2012-11-22 19:00","2012","11","22","19:00","10.0","","5.0","","71","","18","","7","","24.1","","99.47","","","","","","Clear"
"2012-11-22 20:00","2012","11","22","20:00","10.0","","4.6","","69","","20","","11","","24.1","","99.40","","","","","","Clear"
"2012-11-22 21:00","2012","11","22","21:00","9.5","","4.5","","71","","18","","7","","24.1","","99.34","","","","","","Clear"
"2012-11-22 22:00","2012","11","22","22:00","8.3","","4.9","","79","","16","","9","","24.1","","99.26","","","","","","Mainly Clear"
"2012-11-22 23:00","2012","11","22","23:00","8.7","","4.7","","76","","18","","9","","24.1","","99.20","","","","","","Mainly Clear"
"2012-11-23 00:00","2012","11","23","00:00","9.3","","4.0","","69","","15","","9","","24.1","","99.10","","","","","","Mainly Clear"
"2012-11-23 01:00","2012","11","23","01:00","9.4","","4.3","","70","","15","","7","","24.1","","98.95","","","","","","Mostly Cloudy"
"2012-11-23 02:00","2012","11","23","02:00","11.1","","3.9","","61","","21","","9","","24.1","","98.90","","","","","","Rain Showers"
"2012-11-23 03:00","2012","11","23","03:00","10.6","","4.8","","67","","19","","9","","24.1","","98.81","","","","","","Mostly Cloudy"
"2012-11-23 04:00","2012","11","23","04:00","11.0","","4.8","","66","","19","","13","","24.1","","98.67","","","","","","Mostly Cloudy"
"2012-11-23 05:00","2012","11","23","05:00","10.7","","4.6","","66","","18","","13","","24.1","","98.55","","","","","","Mostly Cloudy"
"2012-11-23 06:00","2012","11","23","06:00","11.1","","4.7","","65","","20","","15","","24.1","","98.44","","","","","","Mainly Clear"
"2012-11-23 07:00","2012","11","23","07:00","11.2","","4.9","","65","","21","","17","","19.3","","98.36","","","","","","Rain"
"2012-11-23 08:00","2012","11","23","08:00","10.3","","7.2","","81","","21","","15","","16.1","","98.36","","","","","","Rain"
"2012-11-23 09:00","2012","11","23","09:00","10.4","","8.5","","88","","22","","28","","16.1","","98.33","","","","","","Cloudy"
"2012-11-23 10:00","2012","11","23","10:00","11.2","","8.6","","84","","22","","26","","16.1","","98.27","","","","","","Cloudy"
"2012-11-23 11:00","2012","11","23","11:00","12.7","","8.7","","77","","22","","26","","19.3","","98.22","","","","","","Mostly Cloudy"
"2012-11-23 12:00","2012","11","23","12:00","9.6","","3.5","","66","","27","","33","","24.1","","98.28","","","","","","Mostly Cloudy"
"2012-11-23 13:00","2012","11","23","13:00","9.0","","0.9","","57","","28","","33","","24.1","","98.30","","","","","","Mostly Cloudy"
"2012-11-23 14:00","2012","11","23","14:00","8.1","","-1.3","","51","","28","","39","","24.1","","98.35","","","","","","Mostly Cloudy"
"2012-11-23 15:00","2012","11","23","15:00","7.0","","-0.7","","58","","28","","24","","24.1","","98.32","","","","","","Mostly Cloudy"
"2012-11-23 16:00","2012","11","23","16:00","6.1","","-1.6","","58","","28","","37","","24.1","","98.37","","","","","","Mostly Cloudy"
"2012-11-23 17:00","2012","11","23","17:00","5.4","","-2.3","","58","","25","","32","","24.1","","98.37","","","","","","Rain Showers"
"2012-11-23 18:00","2012","11","23","18:00","3.4","","-1.5","","70","","27","","37","","24.1","","98.47","","","","","","Rain Showers"
"2012-11-23 19:00","2012","11","23","19:00","2.2","","-3.1","","68","","27","","39","","24.1","","98.55","","","","","","Snow Showers"
"2012-11-23 20:00","2012","11","23","20:00","2.0","","-3.8","","65","","25","","26","","24.1","","98.51","","","","","","Cloudy"
"2012-11-23 21:00","2012","11","23","21:00","1.2","","-3.5","","71","","26","","48","","8.0","","98.51","","","","","","Snow Showers"
"2012-11-23 22:00","2012","11","23","22:00","1.6","","-4.0","","66","","27","","37","","24.1","","98.51","","","","","","Cloudy"
"2012-11-23 23:00","2012","11","23","23:00","1.2","","-4.1","","68","","26","","41","","24.1","","98.53","","","","","","Mostly Cloudy"
"2012-11-24 00:00","2012","11","24","00:00","0.4","","-3.9","","73","","26","","28","","24.1","","98.58","","","","","","Mostly Cloudy"
"2012-11-24 01:00","2012","11","24","01:00","0.4","","-5.3","","66","","28","","41","","24.1","","98.58","","","","","","Mainly Clear"
"2012-11-24 02:00","2012","11","24","02:00","-0.2","","-5.3","","68","","28","","35","","24.1","","98.64","","","","-7","","Mainly Clear"
"2012-11-24 03:00","2012","11","24","03:00","-0.3","","-5.1","","70","","28","","24","","24.1","","98.69","","","","-6","","Mainly Clear"
"2012-11-24 04:00","2012","11","24","04:00","-0.2","","-5.4","","68","","28","","28","","24.1","","98.71","","","","-7","","Mostly Cloudy"
"2012-11-24 05:00","2012","11","24","05:00","-0.7","","-3.7","","80","","31","","24","","8.0","","98.77","","","","-7","","Snow Showers"
"2012-11-24 06:00","2012","11","24","06:00","-1.2","","-4.7","","77","","28","","22","","24.1","","98.84","","","","-7","","Clear"
"2012-11-24 07:00","2012","11","24","07:00","-1.1","","-6.4","","67","","30","","28","","24.1","","98.91","","","","-8","","Mainly Clear"
"2012-11-24 08:00","2012","11","24","08:00","-1.2","","-6.5","","67","","31","","30","","24.1","","98.97","","","","-8","","Mainly Clear"
"2012-11-24 09:00","2012","11","24","09:00","-0.2","","-6.4","","63","","31","","37","","24.1","","99.04","","","","-7","","Mainly Clear"
"2012-11-24 10:00","2012","11","24","10:00","0.6","","-7.3","","55","","30","","39","","24.1","","99.08","","","","","","Mainly Clear"
"2012-11-24 11:00","2012","11","24","11:00","1.4","","-8.1","","49","","31","","35","","24.1","","99.09","","","","","","Mainly Clear"
"2012-11-24 12:00","2012","11","24","12:00","2.1","","-8.5","","45","","31","","37","","24.1","","99.07","","","","","","Mainly Clear"
"2012-11-24 13:00","2012","11","24","13:00","2.4","","-8.8","","43","","32","","32","","24.1","","99.06","","","","","","Mainly Clear"
"2012-11-24 14:00","2012","11","24","14:00","2.4","","-8.2","","45","","31","","33","","24.1","","99.10","","","","","","Mainly Clear"
"2012-11-24 15:00","2012","11","24","15:00","1.6","","-7.6","","50","","30","","32","","24.1","","99.11","","","","","","Mainly Clear"
"2012-11-24 16:00","2012","11","24","16:00","1.1","","-7.2","","54","","32","","33","","24.1","","99.16","","","","","","Mainly Clear"
"2012-11-24 17:00","2012","11","24","17:00","-0.2","","-7.6","","57","","31","","28","","24.1","","99.21","","","","-7","","Mainly Clear"
"2012-11-24 18:00","2012","11","24","18:00","-0.2","","-7.5","","58","","30","","28","","24.1","","99.27","","","","-7","","Mainly Clear"
"2012-11-24 19:00","2012","11","24","19:00","-0.2","","-7.4","","58","","31","","32","","24.1","","99.30","","","","-7","","Mostly Cloudy"
"2012-11-24 20:00","2012","11","24","20:00","-0.3","","-7.9","","56","","30","","37","","24.1","","99.30","","","","-8","","Snow Showers"
"2012-11-24 21:00","2012","11","24","21:00","-1.3","","-8.0","","60","","29","","19","","24.1","","99.32","","","","-7","","Mostly Cloudy"
"2012-11-24 22:00","2012","11","24","22:00","-1.7","","-6.8","","68","","28","","15","","24.1","","99.28","","","","-7","","Mostly Cloudy"
"2012-11-24 23:00","2012","11","24","23:00","-0.9","","-5.7","","70","","27","","11","","24.1","","99.26","","","","-5","","Mostly Cloudy"
"2012-11-25 00:00","2012","11","25","00:00","-0.2","","-6.7","","62","","29","","20","","24.1","","99.27","","","","-5","","Mostly Cloudy"
"2012-11-25 01:00","2012","11","25","01:00","-0.1","","-7.8","","56","","28","","20","","24.1","","99.23","","","","-5","","Cloudy"
"2012-11-25 02:00","2012","11","25","02:00","-0.2","","-8.3","","54","","27","","19","","24.1","","99.22","","","","-5","","Cloudy"
"2012-11-25 03:00","2012","11","25","03:00","0.1","","-8.5","","52","","27","","24","","24.1","","99.21","","","","","","Cloudy"
"2012-11-25 04:00","2012","11","25","04:00","-0.4","","-7.1","","61","","26","","17","","24.1","","99.20","","","","-5","","Cloudy"
"2012-11-25 05:00","2012","11","25","05:00","-0.4","","-6.7","","62","","27","","15","","24.1","","99.18","","","","-5","","Cloudy"
"2012-11-25 06:00","2012","11","25","06:00","-0.2","","-6.4","","63","","27","","15","","24.1","","99.13","","","","-5","","Cloudy"
"2012-11-25 07:00","2012","11","25","07:00","-0.5","","-6.0","","66","","25","","20","","24.1","","99.10","","","","-6","","Cloudy"
"2012-11-25 08:00","2012","11","25","08:00","-1.2","","-6.0","","70","","25","","24","","12.9","","99.07","","","","-7","","Snow"
"2012-11-25 09:00","2012","11","25","09:00","-0.6","","-6.6","","64","","25","","17","","24.1","","99.07","","","","-6","","Cloudy"
"2012-11-25 10:00","2012","11","25","10:00","-0.7","","-6.0","","67","","26","","22","","24.1","","99.05","","","","-6","","Cloudy"
"2012-11-25 11:00","2012","11","25","11:00","-0.2","","-4.6","","72","","25","","26","","16.1","","99.01","","","","-6","","Snow"
"2012-11-25 12:00","2012","11","25","12:00","0.6","","-5.0","","66","","25","","28","","24.1","","98.91","","","","","","Mostly Cloudy"
"2012-11-25 13:00","2012","11","25","13:00","1.2","","-5.1","","63","","26","","20","","24.1","","98.84","","","","","","Mostly Cloudy"
"2012-11-25 14:00","2012","11","25","14:00","2.2","","-4.9","","59","","26","","17","","24.1","","98.79","","","","","","Mostly Cloudy"
"2012-11-25 15:00","2012","11","25","15:00","1.8","","-5.0","","61","","27","","17","","24.1","","98.76","","","","","","Mostly Cloudy"
"2012-11-25 16:00","2012","11","25","16:00","0.3","","-5.6","","65","","28","","17","","24.1","","98.82","","","","","","Mostly Cloudy"
"2012-11-25 17:00","2012","11","25","17:00","0.2","","-4.9","","69","","27","","17","","24.1","","98.86","","","","","","Mostly Cloudy"
"2012-11-25 18:00","2012","11","25","18:00","0.1","","-4.4","","72","","26","","11","","24.1","","98.88","","","","","","Mostly Cloudy"
"2012-11-25 19:00","2012","11","25","19:00","0.4","","-3.9","","73","","24","","19","","19.3","","98.91","","","","","","Cloudy"
"2012-11-25 20:00","2012","11","25","20:00","0.0","","-2.3","","84","","24","","19","","14.5","","98.95","","","","-5","","Snow Grains"
"2012-11-25 21:00","2012","11","25","21:00","0.4","","-2.6","","80","","25","","19","","16.1","","98.98","","","","","","Cloudy"
"2012-11-25 22:00","2012","11","25","22:00","0.8","","-2.8","","77","","24","","19","","16.1","","98.96","","","","","","Cloudy"
"2012-11-25 23:00","2012","11","25","23:00","0.9","","-2.8","","76","","25","","17","","19.3","","98.98","","","","","","Cloudy"
"2012-11-26 00:00","2012","11","26","00:00","1.2","","-3.4","","71","","25","","24","","24.1","","99.01","","","","","","Mostly Cloudy"
"2012-11-26 01:00","2012","11","26","01:00","1.4","","-3.6","","69","","26","","22","","24.1","","99.05","","","","","","Mostly Cloudy"
"2012-11-26 02:00","2012","11","26","02:00","0.6","","-3.6","","73","","26","","19","","24.1","","99.13","","","","","","Mostly Cloudy"
"2012-11-26 03:00","2012","11","26","03:00","0.8","","-4.0","","70","","26","","19","","24.1","","99.23","","","","","","Mostly Cloudy"
"2012-11-26 04:00","2012","11","26","04:00","-0.2","","-4.5","","73","","27","","15","","24.1","","99.29","","","","-5","","Mainly Clear"
"2012-11-26 05:00","2012","11","26","05:00","1.3","","-3.5","","70","","27","","19","","24.1","","99.40","","","","","","Mostly Cloudy"
"2012-11-26 06:00","2012","11","26","06:00","1.1","","-3.1","","74","","27","","15","","24.1","","99.47","","","","","","Cloudy"
"2012-11-26 07:00","2012","11","26","07:00","0.8","","-1.9","","82","","24","","15","","24.1","","99.55","","","","","","Snow Showers"
"2012-11-26 08:00","2012","11","26","08:00","1.1","","-2.5","","77","","25","","15","","24.1","","99.62","","","","","","Mostly Cloudy"
"2012-11-26 09:00","2012","11","26","09:00","1.5","","-2.9","","72","","25","","20","","24.1","","99.70","","","","","","Mostly Cloudy"
"2012-11-26 10:00","2012","11","26","10:00","2.2","","-3.5","","66","","26","","26","","24.1","","99.77","","","","","","Mostly Cloudy"
"2012-11-26 11:00","2012","11","26","11:00","2.4","","-3.0","","67","","25","","22","","24.1","","99.82","","","","","","Snow"
"2012-11-26 12:00","2012","11","26","12:00","2.5","","-3.9","","63","","26","","22","","24.1","","99.81","","","","","","Snow"
"2012-11-26 13:00","2012","11","26","13:00","2.4","","-3.8","","64","","26","","19","","24.1","","99.84","","","","","","Cloudy"
"2012-11-26 14:00","2012","11","26","14:00","1.8","","-5.0","","61","","27","","26","","24.1","","99.90","","","","","","Cloudy"
"2012-11-26 15:00","2012","11","26","15:00","1.6","","-5.5","","59","","27","","24","","24.1","","99.93","","","","","","Cloudy"
"2012-11-26 16:00","2012","11","26","16:00","1.1","","-5.7","","60","","27","","24","","24.1","","99.97","","","","","","Mostly Cloudy"
"2012-11-26 17:00","2012","11","26","17:00","0.2","","-5.9","","64","","26","","22","","24.1","","100.00","","","","","","Mainly Clear"
"2012-11-26 18:00","2012","11","26","18:00","0.3","","-5.6","","65","","26","","22","","24.1","","100.06","","","","","","Mostly Cloudy"
"2012-11-26 19:00","2012","11","26","19:00","0.4","","-6.2","","61","","26","","30","","24.1","","100.09","","","","","","Mostly Cloudy"
"2012-11-26 20:00","2012","11","26","20:00","-0.3","","-6.4","","63","","26","","17","","24.1","","100.11","","","","-5","","Mostly Cloudy"
"2012-11-26 21:00","2012","11","26","21:00","-1.4","","-6.5","","68","","27","","13","","24.1","","100.14","","","","-6","","Clear"
"2012-11-26 22:00","2012","11","26","22:00","-2.0","","-6.8","","70","","26","","7","","24.1","","100.14","","","","-5","","Mainly Clear"
"2012-11-26 23:00","2012","11","26","23:00","-1.6","","-6.7","","68","","26","","13","","24.1","","100.19","","","","-6","","Mostly Cloudy"
"2012-11-27 00:00","2012","11","27","00:00","-2.2","","-7.2","","69","","28","","9","","24.1","","100.22","","","","-6","","Clear"
"2012-11-27 01:00","2012","11","27","01:00","-1.8","","-6.9","","68","","29","","6","","24.1","","100.24","","","","-4","","Cloudy"
"2012-11-27 02:00","2012","11","27","02:00","-2.0","","-6.4","","72","","34","","11","","24.1","","100.24","","","","-6","","Cloudy"
"2012-11-27 03:00","2012","11","27","03:00","-1.4","","-5.8","","72","","31","","6","","24.1","","100.25","","","","-4","","Cloudy"
"2012-11-27 04:00","2012","11","27","04:00","-0.9","","-5.3","","72","","28","","6","","24.1","","100.24","","","","-3","","Cloudy"
"2012-11-27 05:00","2012","11","27","05:00","-0.6","","-5.0","","72","","29","","11","","24.1","","100.27","","","","-4","","Cloudy"
"2012-11-27 06:00","2012","11","27","06:00","-0.6","","-4.7","","74","","32","","11","","24.1","","100.28","","","","-4","","Cloudy"
"2012-11-27 07:00","2012","11","27","07:00","-0.4","","-5.0","","71","","29","","11","","24.1","","100.31","","","","-4","","Cloudy"
"2012-11-27 08:00","2012","11","27","08:00","-0.4","","-5.3","","69","","28","","13","","24.1","","100.37","","","","-5","","Mostly Cloudy"
"2012-11-27 09:00","2012","11","27","09:00","0.6","","-5.3","","65","","28","","13","","24.1","","100.42","","","","","","Mostly Cloudy"
"2012-11-27 10:00","2012","11","27","10:00","1.7","","-5.6","","58","","27","","15","","24.1","","100.46","","","","","","Mainly Clear"
"2012-11-27 11:00","2012","11","27","11:00","2.6","","-5.6","","55","","31","","17","","24.1","","100.45","","","","","","Mostly Cloudy"
"2012-11-27 12:00","2012","11","27","12:00","2.1","","-6.1","","55","","32","","13","","24.1","","100.42","","","","","","Mostly Cloudy"
"2012-11-27 13:00","2012","11","27","13:00","2.4","","-7.0","","50","","33","","11","","24.1","","100.37","","","","","","Mostly Cloudy"
"2012-11-27 14:00","2012","11","27","14:00","1.8","","-6.0","","56","","35","","9","","24.1","","100.35","","","","","","Mostly Cloudy"
"2012-11-27 15:00","2012","11","27","15:00","1.9","","-6.6","","53","","29","","9","","24.1","","100.34","","","","","","Cloudy"
"2012-11-27 16:00","2012","11","27","16:00","1.6","","-7.0","","53","","26","","15","","24.1","","100.33","","","","","","Cloudy"
"2012-11-27 17:00","2012","11","27","17:00","1.3","","-7.6","","51","","27","","17","","24.1","","100.33","","","","","","Cloudy"
"2012-11-27 18:00","2012","11","27","18:00","1.1","","-7.5","","53","","28","","13","","24.1","","100.37","","","","","","Mostly Cloudy"
"2012-11-27 19:00","2012","11","27","19:00","0.8","","-7.0","","56","","26","","15","","24.1","","100.37","","","","","","Mostly Cloudy"
"2012-11-27 20:00","2012","11","27","20:00","-0.2","","-7.5","","58","","24","","9","","24.1","","100.37","","","","-3","","Mostly Cloudy"
"2012-11-27 21:00","2012","11","27","21:00","-0.5","","-7.8","","58","","23","","6","","24.1","","100.34","","","","-3","","Mainly Clear"
"2012-11-27 22:00","2012","11","27","22:00","-0.5","","-7.9","","57","","19","","6","","24.1","","100.30","","","","-3","","Mainly Clear"
"2012-11-27 23:00","2012","11","27","23:00","-0.8","","-7.3","","61","","22","","7","","24.1","","100.29","","","","-3","","Mostly Cloudy"
"2012-11-28 00:00","2012","11","28","00:00","-1.2","","-7.0","","65","","23","","15","","24.1","","100.25","","","","-6","","Cloudy"
"2012-11-28 01:00","2012","11","28","01:00","-2.1","","-7.0","","69","","24","","9","","24.1","","100.20","","","","-6","","Mostly Cloudy"
"2012-11-28 02:00","2012","11","28","02:00","-2.5","","-7.2","","70","","23","","11","","24.1","","100.18","","","","-7","","Mostly Cloudy"
"2012-11-28 03:00","2012","11","28","03:00","-2.7","","-7.6","","69","","27","","7","","24.1","","100.15","","","","-6","","Cloudy"
"2012-11-28 04:00","2012","11","28","04:00","-2.8","","-7.9","","68","","26","","9","","24.1","","100.09","","","","-6","","Cloudy"
"2012-11-28 05:00","2012","11","28","05:00","-1.2","","-8.2","","59","","22","","13","","24.1","","100.05","","","","-5","","Cloudy"
"2012-11-28 06:00","2012","11","28","06:00","-1.3","","-8.1","","60","","22","","13","","24.1","","100.01","","","","-6","","Cloudy"
"2012-11-28 07:00","2012","11","28","07:00","-0.6","","-7.6","","59","","21","","11","","24.1","","100.02","","","","-4","","Mostly Cloudy"
"2012-11-28 08:00","2012","11","28","08:00","-0.5","","-7.1","","61","","21","","13","","24.1","","100.01","","","","-5","","Mostly Cloudy"
"2012-11-28 09:00","2012","11","28","09:00","-0.4","","-6.7","","62","","22","","13","","24.1","","99.99","","","","-5","","Mostly Cloudy"
"2012-11-28 10:00","2012","11","28","10:00","0.4","","-5.8","","63","","25","","19","","24.1","","100.03","","","","","","Mostly Cloudy"
"2012-11-28 11:00","2012","11","28","11:00","1.1","","-4.9","","64","","26","","26","","19.3","","100.02","","","","","","Mostly Cloudy"
"2012-11-28 12:00","2012","11","28","12:00","2.3","","-3.5","","65","","25","","28","","24.1","","99.99","","","","","","Mostly Cloudy"
"2012-11-28 13:00","2012","11","28","13:00","3.0","","-3.8","","61","","27","","37","","24.1","","99.99","","","","","","Mostly Cloudy"
"2012-11-28 14:00","2012","11","28","14:00","2.9","","-3.8","","61","","27","","30","","24.1","","99.97","","","","","","Mainly Clear"
"2012-11-28 15:00","2012","11","28","15:00","2.0","","-3.0","","69","","29","","24","","24.1","","100.00","","","","","","Mostly Cloudy"
"2012-11-28 16:00","2012","11","28","16:00","1.8","","-4.6","","62","","28","","30","","24.1","","100.05","","","","","","Mostly Cloudy"
"2012-11-28 17:00","2012","11","28","17:00","0.9","","-4.0","","70","","27","","22","","24.1","","100.10","","","","","","Mostly Cloudy"
"2012-11-28 18:00","2012","11","28","18:00","1.3","","-4.0","","68","","27","","19","","19.3","","100.18","","","","","","Snow Showers"
"2012-11-28 19:00","2012","11","28","19:00","0.9","","-3.5","","72","","28","","17","","16.1","","100.22","","","","","","Snow Showers"
"2012-11-28 20:00","2012","11","28","20:00","0.1","","-2.6","","82","","28","","13","","16.1","","100.27","","","","","","Snow Showers"
"2012-11-28 21:00","2012","11","28","21:00","0.6","","-3.2","","76","","27","","11","","19.3","","100.26","","","","","","Snow Showers"
"2012-11-28 22:00","2012","11","28","22:00","0.0","","-4.4","","72","","25","","15","","19.3","","100.25","","","","-4","","Mostly Cloudy"
"2012-11-28 23:00","2012","11","28","23:00","-0.6","","-5.5","","69","","25","","11","","19.3","","100.25","","","","-4","","Mostly Cloudy"
"2012-11-29 00:00","2012","11","29","00:00","-2.5","","-6.6","","73","","26","","9","","24.1","","100.26","","","","-6","","Mainly Clear"
"2012-11-29 01:00","2012","11","29","01:00","-2.8","","-6.7","","74","","24","","13","","24.1","","100.21","","","","-7","","Mainly Clear"
"2012-11-29 02:00","2012","11","29","02:00","-2.9","","-7.0","","73","","26","","7","","24.1","","100.22","","","","-6","","Mainly Clear"
"2012-11-29 03:00","2012","11","29","03:00","-3.2","","-7.1","","74","","26","","13","","24.1","","100.25","","","","-8","","Mainly Clear"
"2012-11-29 04:00","2012","11","29","04:00","-1.2","","-6.2","","69","","28","","7","","24.1","","100.19","","","","-4","","Mostly Cloudy"
"2012-11-29 05:00","2012","11","29","05:00","-0.4","","-5.3","","69","","22","","9","","24.1","","100.15","","","","-4","","Cloudy"
"2012-11-29 06:00","2012","11","29","06:00","0.1","","-4.7","","70","","25","","24","","24.1","","100.16","","","","","","Cloudy"
"2012-11-29 07:00","2012","11","29","07:00","0.0","","-4.3","","73","","25","","26","","24.1","","100.14","","","","-6","","Mostly Cloudy"
"2012-11-29 08:00","2012","11","29","08:00","-0.2","","-4.5","","73","","25","","26","","19.3","","100.16","","","","-6","","Mainly Clear"
"2012-11-29 09:00","2012","11","29","09:00","0.6","","-4.3","","70","","25","","28","","19.3","","100.14","","","","","","Mainly Clear"
"2012-11-29 10:00","2012","11","29","10:00","3.4","","-2.5","","65","","26","","26","","24.1","","100.18","","","","","","Mainly Clear"
"2012-11-29 11:00","2012","11","29","11:00","5.1","","-1.3","","63","","27","","35","","24.1","","100.16","","","","","","Mainly Clear"
"2012-11-29 12:00","2012","11","29","12:00","7.2","","-0.4","","58","","27","","24","","19.3","","100.09","","","","","","Mainly Clear"
"2012-11-29 13:00","2012","11","29","13:00","6.8","","-1.2","","57","","29","","33","","19.3","","100.06","","","","","","Mostly Cloudy"
"2012-11-29 14:00","2012","11","29","14:00","6.5","","-1.2","","58","","27","","30","","19.3","","100.06","","","","","","Mostly Cloudy"
"2012-11-29 15:00","2012","11","29","15:00","6.0","","-0.8","","62","","27","","28","","19.3","","100.04","","","","","","Mostly Cloudy"
"2012-11-29 16:00","2012","11","29","16:00","5.6","","-0.9","","63","","26","","22","","19.3","","100.06","","","","","","Mostly Cloudy"
"2012-11-29 17:00","2012","11","29","17:00","5.0","","-1.1","","65","","26","","17","","19.3","","100.11","","","","","","Mostly Cloudy"
"2012-11-29 18:00","2012","11","29","18:00","5.1","","-1.1","","64","","26","","15","","19.3","","100.18","","","","","","Mostly Cloudy"
"2012-11-29 19:00","2012","11","29","19:00","5.0","","-1.1","","65","","28","","15","","16.1","","100.26","","","","","","Cloudy"
"2012-11-29 20:00","2012","11","29","20:00","2.3","","-1.9","","74","","36","","22","","16.1","","100.33","","","","","","Cloudy"
"2012-11-29 21:00","2012","11","29","21:00","1.6","","-2.6","","74","","36","","17","","16.1","","100.42","","","","","","Cloudy"
"2012-11-29 22:00","2012","11","29","22:00","1.3","","-3.2","","72","","1","","13","","16.1","","100.45","","","","","","Cloudy"
"2012-11-29 23:00","2012","11","29","23:00","1.1","","-3.2","","73","","36","","17","","16.1","","100.44","","","","","","Cloudy"
"2012-11-30 00:00","2012","11","30","00:00","0.2","","-5.2","","67","","3","","19","","19.3","","100.47","","","","","","Cloudy"
"2012-11-30 01:00","2012","11","30","01:00","-0.3","","-6.3","","64","","2","","15","","19.3","","100.54","","","","-5","","Cloudy"
"2012-11-30 02:00","2012","11","30","02:00","-0.4","","-7.2","","60","","4","","11","","19.3","","100.59","","","","-4","","Cloudy"
"2012-11-30 03:00","2012","11","30","03:00","-0.3","","-9.9","","48","","7","","11","","16.1","","100.65","","","","-4","","Cloudy"
"2012-11-30 04:00","2012","11","30","04:00","-0.6","","-7.5","","60","","8","","13","","16.1","","100.65","","","","-5","","Cloudy"
"2012-11-30 05:00","2012","11","30","05:00","-2.0","","-6.5","","71","","7","","20","","16.1","","100.71","","","","-8","","Snow Showers"
"2012-11-30 06:00","2012","11","30","06:00","-2.8","","-8.3","","66","","7","","22","","16.1","","100.78","","","","-9","","Snow Showers"
"2012-11-30 07:00","2012","11","30","07:00","-3.2","","-8.6","","66","","8","","26","","24.1","","100.82","","","","-10","","Cloudy"
"2012-11-30 08:00","2012","11","30","08:00","-3.8","","-9.7","","64","","8","","19","","24.1","","100.87","","","","-10","","Cloudy"
"2012-11-30 09:00","2012","11","30","09:00","-4.0","","-10.6","","60","","7","","15","","24.1","","100.90","","","","-9","","Cloudy"
"2012-11-30 10:00","2012","11","30","10:00","-3.7","","-9.3","","65","","8","","15","","24.1","","100.89","","","","-9","","Cloudy"
"2012-11-30 11:00","2012","11","30","11:00","-3.7","","-9.3","","65","","9","","20","","24.1","","100.92","","","","-10","","Cloudy"
"2012-11-30 12:00","2012","11","30","12:00","-3.9","","-8.5","","70","","8","","22","","19.3","","100.82","","","","-10","","Snow Grains"
"2012-11-30 13:00","2012","11","30","13:00","-4.3","","-9.0","","70","","8","","26","","24.1","","100.79","","","","-12","","Snow Grains"
"2012-11-30 14:00","2012","11","30","14:00","-4.3","","-9.3","","68","","7","","20","","19.3","","100.74","","","","-11","","Snow Grains"
"2012-11-30 15:00","2012","11","30","15:00","-4.6","","-11.0","","61","","6","","19","","24.1","","100.77","","","","-11","","Cloudy"
"2012-11-30 16:00","2012","11","30","16:00","-5.0","","-12.1","","57","","5","","19","","24.1","","100.77","","","","-11","","Cloudy"
"2012-11-30 17:00","2012","11","30","17:00","-5.2","","-12.5","","56","","7","","20","","16.1","","100.80","","","","-12","","Snow"
"2012-11-30 18:00","2012","11","30","18:00","-5.2","","-11.6","","61","","6","","11","","16.1","","100.82","","","","-10","","Snow"
"2012-11-30 19:00","2012","11","30","19:00","-5.3","","-10.7","","66","","5","","17","","16.1","","100.84","","","","-11","","Snow"
"2012-11-30 20:00","2012","11","30","20:00","-5.6","","-9.0","","77","","6","","11","","16.1","","100.85","","","","-10","","Snow"
"2012-11-30 21:00","2012","11","30","21:00","-5.3","","-9.7","","71","","5","","17","","16.1","","100.82","","","","-11","","Snow"
"2012-11-30 22:00","2012","11","30","22:00","-4.9","","-8.8","","74","","6","","15","","16.1","","100.81","","","","-10","","Snow"
"2012-11-30 23:00","2012","11","30","23:00","-4.8","","-8.1","","78","","5","","15","","19.3","","100.79","","","","-10","","Snow"
