"Station Name","TORONTO LESTER B. PEARSON INT'L A"
"Province","ONTARIO"
"Latitude","43.68"
"Longitude","-79.63"
"Elevation","173.40"
"Climate Identifier","6158733"
"WMO Identifier","71624"
"TC Identifier","YYZ"
"All times are specified in Local Standard Time (LST). Add 1 hour to adjust for Daylight Saving Time where and when it is observed."

"Legend"
"E","Estimated"
"M","Missing"
"NA","Not Available"

"Date/Time","Year","Month","Day","Time","Temp (°C)","Temp Flag","Dew Point Temp (°C)","Dew Point Temp Flag","Rel Hum (%)","Rel Hum Flag","Wind Dir (10s deg)","Wind Dir Flag","Wind Spd (km/h)","Wind Spd Flag","Visibility (km)","Visibility Flag","Stn Press (kPa)","Stn Press Flag","Hmdx","Hmdx Flag","Wind Chill","Wind Chill Flag","Weather"
"2009-04-01 00:00","2009","04","01","00:00","4.1","","-0.9","","70","","9","","20","","24.1","","99.16","","","","","","Rain Showers"
"2009-04-01 01:00","2009","04","01","01:00","4.2","","-0.6","","71","","10","","17","","24.1","","98.99","","","","","","Cloudy"
"2009-04-01 02:00","2009","04","01","02:00","4.5","","-0.2","","71","","9","","19","","24.1","","98.91","","","","","","Cloudy"
"2009-04-01 03:00","2009","04","01","03:00","4.6","","-0.1","","72","","9","","20","","24.1","","98.81","","","","","","Cloudy"
"2009-04-01 04:00","2009","04","01","04:00","5.0","","0.0","","70","","10","","17","","24.1","","98.78","","","","","","Cloudy"
"2009-04-01 05:00","2009","04","01","05:00","5.5","","0.3","","69","","9","","13","","24.1","","98.76","","","","","","Rain Showers"
"2009-04-01 06:00","2009","04","01","06:00","6.0","","0.9","","70","","11","","11","","24.1","","98.70","","","","","","Cloudy"
"2009-04-01 07:00","2009","04","01","07:00","6.6","","1.4","","69","","10","","7","","24.1","","98.73","","","","","","Cloudy"
"2009-04-01 08:00","2009","04","01","08:00","7.4","","2.7","","72","","12","","9","","19.3","","98.73","","","","","","Rain"
"2009-04-01 09:00","2009","04","01","09:00","6.2","","2.9","","79","","14","","19","","12.9","","98.77","","","","","","Rain"
"2009-04-01 10:00","2009","04","01","10:00","6.5","","3.9","","83","","18","","17","","12.9","","98.85","","","","","","Rain"
"2009-04-01 11:00","2009","04","01","11:00","8.5","","6.2","","85","","19","","22","","14.5","","98.73","","","","","","Mostly Cloudy"
"2009-04-01 12:00","2009","04","01","12:00","10.3","","7.5","","83","","19","","13","","24.1","","98.70","","","","","","Mostly Cloudy"
"2009-04-01 13:00","2009","04","01","13:00","12.2","","4.9","","61","","21","","22","","24.1","","98.68","","","","","","Mostly Cloudy"
"2009-04-01 14:00","2009","04","01","14:00","12.9","","1.5","","46","","19","","33","","24.1","","98.62","","","","","","Clear"
"2009-04-01 15:00","2009","04","01","15:00","12.5","","-2.1","","36","","21","","41","","24.1","","98.67","","","","","","Clear"
"2009-04-01 16:00","2009","04","01","16:00","11.9","","-1.6","","39","","24","","50","","24.1","","98.74","","","","","","Mainly Clear"
"2009-04-01 17:00","2009","04","01","17:00","12.2","","-1.4","","39","","23","","44","","24.1","","98.78","","","","","","Mainly Clear"
"2009-04-01 18:00","2009","04","01","18:00","12.1","","-2.2","","37","","23","","41","","24.1","","98.79","","","","","","Clear"
"2009-04-01 19:00","2009","04","01","19:00","11.3","","-2.5","","38","","22","","28","","24.1","","98.84","","","","","","Clear"
"2009-04-01 20:00","2009","04","01","20:00","10.4","","-2.4","","41","","22","","19","","24.1","","98.89","","","","","","Clear"
"2009-04-01 21:00","2009","04","01","21:00","9.2","","-2.1","","45","","20","","15","","24.1","","98.95","","","","","","Clear"
"2009-04-01 22:00","2009","04","01","22:00","7.1","","-1.3","","55","","19","","7","","24.1","","99.01","","","","","","Clear"
"2009-04-01 23:00","2009","04","01","23:00","6.6","","-1.5","","56","","33","","22","","24.1","","99.14","","","","","","Clear"
"2009-04-02 00:00","2009","04","02","00:00","4.2","","-2.3","","63","","34","","15","","24.1","","99.23","","","","","","Clear"
"2009-04-02 01:00","2009","04","02","01:00","2.6","","-3.4","","65","","36","","9","","24.1","","99.26","","","","","","Mainly Clear"
"2009-04-02 02:00","2009","04","02","02:00","1.9","","-4.0","","65","","23","","4","","24.1","","99.28","","","","","","Mainly Clear"
"2009-04-02 03:00","2009","04","02","03:00","2.5","","-3.0","","67","","17","","6","","24.1","","99.30","","","","","","Mainly Clear"
"2009-04-02 04:00","2009","04","02","04:00","3.0","","-2.8","","66","","20","","6","","24.1","","99.32","","","","","","Mostly Cloudy"
"2009-04-02 05:00","2009","04","02","05:00","3.5","","-2.2","","66","","17","","7","","24.1","","99.33","","","","","","Mostly Cloudy"
"2009-04-02 06:00","2009","04","02","06:00","3.8","","-1.8","","67","","19","","4","","24.1","","99.35","","","","","","Cloudy"
"2009-04-02 07:00","2009","04","02","07:00","4.8","","-0.9","","67","","13","","9","","24.1","","99.34","","","","","","Cloudy"
"2009-04-02 08:00","2009","04","02","08:00","5.4","","-0.5","","66","","14","","11","","24.1","","99.35","","","","","","Mainly Clear"
"2009-04-02 09:00","2009","04","02","09:00","7.7","","0.2","","59","","16","","7","","24.1","","99.33","","","","","","Mainly Clear"
"2009-04-02 10:00","2009","04","02","10:00","10.7","","1.0","","51","","17","","11","","24.1","","99.29","","","","","","Mainly Clear"
"2009-04-02 11:00","2009","04","02","11:00","13.4","","0.8","","42","","19","","20","","24.1","","99.24","","","","","","Mostly Cloudy"
"2009-04-02 12:00","2009","04","02","12:00","13.4","","0.4","","41","","17","","20","","24.1","","99.19","","","","","","Mostly Cloudy"
"2009-04-02 13:00","2009","04","02","13:00","13.8","","0.4","","40","","16","","20","","24.1","","99.12","","","","","","Mostly Cloudy"
"2009-04-02 14:00","2009","04","02","14:00","14.9","","0.7","","38","","16","","13","","24.1","","99.00","","","","","","Mostly Cloudy"
"2009-04-02 15:00","2009","04","02","15:00","14.8","","0.2","","37","","15","","13","","24.1","","98.98","","","","","","Cloudy"
"2009-04-02 16:00","2009","04","02","16:00","14.3","","-0.1","","37","","12","","15","","24.1","","98.83","","","","","","Mainly Clear"
"2009-04-02 17:00","2009","04","02","17:00","13.5","","-0.9","","37","","15","","11","","24.1","","98.89","","","","","","Cloudy"
"2009-04-02 18:00","2009","04","02","18:00","12.9","","-1.1","","38","","9","","19","","24.1","","98.82","","","","","","Mostly Cloudy"
"2009-04-02 19:00","2009","04","02","19:00","11.6","","-1.8","","39","","8","","20","","24.1","","98.69","","","","","","Mainly Clear"
"2009-04-02 20:00","2009","04","02","20:00","10.6","","-2.2","","41","","8","","9","","24.1","","98.66","","","","","","Mostly Cloudy"
"2009-04-02 21:00","2009","04","02","21:00","10.7","","-2.5","","40","","7","","13","","24.1","","98.60","","","","","","Mainly Clear"
"2009-04-02 22:00","2009","04","02","22:00","12.0","","-2.3","","37","","8","","22","","24.1","","98.41","","","","","","Mostly Cloudy"
"2009-04-02 23:00","2009","04","02","23:00","12.2","","-2.1","","37","","10","","33","","24.1","","98.29","","","","","","Mostly Cloudy"
"2009-04-03 00:00","2009","04","03","00:00","10.0","","0.8","","53","","9","","19","","24.1","","98.18","","","","","","Rain Showers"
"2009-04-03 01:00","2009","04","03","01:00","9.3","","1.3","","57","","9","","17","","24.1","","98.07","","","","","","Cloudy"
"2009-04-03 02:00","2009","04","03","02:00","8.3","","2.8","","68","","8","","22","","19.3","","97.92","","","","","","Rain Showers"
"2009-04-03 03:00","2009","04","03","03:00","8.4","","4.5","","76","","8","","17","","24.1","","97.76","","","","","","Cloudy"
"2009-04-03 04:00","2009","04","03","04:00","9.0","","4.4","","73","","8","","24","","24.1","","97.58","","","","","","Cloudy"
"2009-04-03 05:00","2009","04","03","05:00","9.3","","5.9","","79","","9","","24","","19.3","","97.46","","","","","","Rain Showers"
"2009-04-03 06:00","2009","04","03","06:00","9.8","","7.6","","86","","8","","26","","12.9","","97.32","","","","","","Rain"
"2009-04-03 07:00","2009","04","03","07:00","10.0","","7.9","","87","","9","","28","","8.0","","97.18","","","","","","Rain,Fog"
"2009-04-03 08:00","2009","04","03","08:00","9.3","","7.6","","89","","8","","26","","6.4","","97.04","","","","","","Moderate Rain,Fog"
"2009-04-03 09:00","2009","04","03","09:00","10.0","","8.1","","88","","9","","28","","4.8","","96.89","","","","","","Moderate Rain,Fog"
"2009-04-03 10:00","2009","04","03","10:00","9.4","","7.8","","90","","9","","32","","6.4","","96.78","","","","","","Rain,Fog"
"2009-04-03 11:00","2009","04","03","11:00","8.9","","7.3","","90","","9","","30","","6.4","","96.67","","","","","","Rain,Fog"
"2009-04-03 12:00","2009","04","03","12:00","9.0","","7.5","","90","","9","","30","","8.0","","96.55","","","","","","Rain,Fog"
"2009-04-03 13:00","2009","04","03","13:00","9.1","","7.6","","90","","9","","20","","6.4","","96.45","","","","","","Rain,Fog"
"2009-04-03 14:00","2009","04","03","14:00","9.0","","7.7","","92","","9","","20","","4.8","","96.37","","","","","","Rain,Fog"
"2009-04-03 15:00","2009","04","03","15:00","9.2","","7.8","","91","","9","","11","","3.2","","96.31","","","","","","Rain,Fog"
"2009-04-03 16:00","2009","04","03","16:00","9.0","","7.7","","92","","8","","6","","3.2","","96.30","","","","","","Rain,Fog"
"2009-04-03 17:00","2009","04","03","17:00","9.3","","7.9","","91","","28","","6","","4.8","","96.34","","","","","","Rain,Fog"
"2009-04-03 18:00","2009","04","03","18:00","8.5","","7.4","","93","","26","","30","","12.9","","96.38","","","","","","Rain"
"2009-04-03 19:00","2009","04","03","19:00","6.5","","4.2","","85","","27","","41","","16.1","","96.47","","","","","","Rain"
"2009-04-03 20:00","2009","04","03","20:00","5.1","","2.2","","82","","29","","46","","16.1","","96.60","","","","","","Rain"
"2009-04-03 21:00","2009","04","03","21:00","4.2","","1.1","","80","","29","","44","","16.1","","96.71","","","","","","Rain"
"2009-04-03 22:00","2009","04","03","22:00","3.8","","0.2","","77","","29","","48","","16.1","","96.77","","","","","","Rain"
"2009-04-03 23:00","2009","04","03","23:00","3.4","","-0.5","","76","","29","","56","","16.1","","96.87","","","","","","Rain"
"2009-04-04 00:00","2009","04","04","00:00","3.3","","-0.8","","74","","29","","57","","19.3","","96.98","","","","","","Rain"
"2009-04-04 01:00","2009","04","04","01:00","3.3","","-1.0","","73","","29","","54","","24.1","","97.11","","","","","","Rain"
"2009-04-04 02:00","2009","04","04","02:00","3.4","","-1.2","","72","","29","","50","","24.1","","97.21","","","","","","Rain"
"2009-04-04 03:00","2009","04","04","03:00","3.4","","-1.5","","70","","29","","54","","24.1","","97.34","","","","","","Mostly Cloudy"
"2009-04-04 04:00","2009","04","04","04:00","3.4","","-2.0","","68","","30","","52","","24.1","","97.47","","","","","","Mostly Cloudy"
"2009-04-04 05:00","2009","04","04","05:00","3.1","","-2.4","","67","","30","","48","","24.1","","97.56","","","","","","Mostly Cloudy"
"2009-04-04 06:00","2009","04","04","06:00","2.8","","-2.9","","66","","30","","54","","24.1","","97.70","","","","","","Cloudy"
"2009-04-04 07:00","2009","04","04","07:00","2.6","","-3.1","","66","","31","","54","","24.1","","97.82","","","","","","Cloudy"
"2009-04-04 08:00","2009","04","04","08:00","2.7","","-2.9","","67","","30","","50","","24.1","","97.96","","","","","","Cloudy"
"2009-04-04 09:00","2009","04","04","09:00","3.4","","-2.7","","64","","31","","57","","24.1","","98.02","","","","","","Cloudy"
"2009-04-04 10:00","2009","04","04","10:00","3.2","","-2.6","","66","","31","","48","","24.1","","98.15","","","","","","Cloudy"
"2009-04-04 11:00","2009","04","04","11:00","3.5","","-2.3","","66","","31","","52","","24.1","","98.26","","","","","","Cloudy"
"2009-04-04 12:00","2009","04","04","12:00","3.6","","-2.2","","66","","31","","63","","24.1","","98.34","","","","","","Cloudy"
"2009-04-04 13:00","2009","04","04","13:00","4.1","","-2.2","","63","","31","","69","","24.1","","98.42","","","","","","Cloudy"
"2009-04-04 14:00","2009","04","04","14:00","4.1","","-1.9","","65","","30","","63","","24.1","","98.50","","","","","","Mostly Cloudy"
"2009-04-04 15:00","2009","04","04","15:00","4.7","","-1.8","","63","","31","","50","","24.1","","98.59","","","","","","Mostly Cloudy"
"2009-04-04 16:00","2009","04","04","16:00","5.1","","-1.6","","62","","30","","54","","24.1","","98.66","","","","","","Mostly Cloudy"
"2009-04-04 17:00","2009","04","04","17:00","4.4","","-2.3","","62","","30","","50","","24.1","","98.76","","","","","","Mostly Cloudy"
"2009-04-04 18:00","2009","04","04","18:00","4.5","","-2.5","","60","","29","","44","","24.1","","98.85","","","","","","Mostly Cloudy"
"2009-04-04 19:00","2009","04","04","19:00","3.9","","-3.4","","59","","30","","39","","24.1","","98.91","","","","","","Mostly Cloudy"
"2009-04-04 20:00","2009","04","04","20:00","3.7","","-3.7","","58","","30","","37","","24.1","","99.00","","","","","","Mostly Cloudy"
"2009-04-04 21:00","2009","04","04","21:00","3.5","","-4.1","","57","","30","","30","","24.1","","99.05","","","","","","Mostly Cloudy"
"2009-04-04 22:00","2009","04","04","22:00","3.0","","-4.0","","60","","30","","32","","24.1","","99.09","","","","","","Mostly Cloudy"
"2009-04-04 23:00","2009","04","04","23:00","2.6","","-4.2","","61","","31","","32","","24.1","","99.08","","","","","","Mostly Cloudy"
"2009-04-05 00:00","2009","04","05","00:00","2.7","","-4.2","","60","","30","","26","","24.1","","99.10","","","","","","Mostly Cloudy"
"2009-04-05 01:00","2009","04","05","01:00","2.8","","-3.9","","61","","31","","30","","24.1","","99.14","","","","","","Mostly Cloudy"
"2009-04-05 02:00","2009","04","05","02:00","1.7","","-4.4","","64","","30","","24","","24.1","","99.16","","","","","","Mainly Clear"
"2009-04-05 03:00","2009","04","05","03:00","1.3","","-4.5","","65","","31","","28","","24.1","","99.19","","","","","","Mainly Clear"
"2009-04-05 04:00","2009","04","05","04:00","0.7","","-4.6","","68","","31","","24","","24.1","","99.23","","","","","","Clear"
"2009-04-05 05:00","2009","04","05","05:00","0.5","","-4.7","","68","","31","","28","","24.1","","99.20","","","","","","Clear"
"2009-04-05 06:00","2009","04","05","06:00","0.8","","-5.0","","65","","34","","28","","24.1","","99.19","","","","","","Clear"
"2009-04-05 07:00","2009","04","05","07:00","1.0","","-4.8","","65","","33","","17","","24.1","","99.23","","","","","","Mainly Clear"
"2009-04-05 08:00","2009","04","05","08:00","2.2","","-4.3","","62","","34","","28","","24.1","","99.22","","","","","","Mainly Clear"
"2009-04-05 09:00","2009","04","05","09:00","3.8","","-3.2","","60","","31","","24","","24.1","","99.18","","","","","","Mostly Cloudy"
"2009-04-05 10:00","2009","04","05","10:00","6.2","","-1.7","","57","","33","","11","","24.1","","99.12","","","","","","Mainly Clear"
"2009-04-05 11:00","2009","04","05","11:00","7.5","","-1.0","","55","","31","","9","","24.1","","99.09","","","","","","Mainly Clear"
"2009-04-05 12:00","2009","04","05","12:00","9.0","","-0.3","","52","","31","","11","","24.1","","99.04","","","","","","Clear"
"2009-04-05 13:00","2009","04","05","13:00","9.9","","0.2","","51","","18","","4","","24.1","","98.94","","","","","","Mainly Clear"
"2009-04-05 14:00","2009","04","05","14:00","10.6","","1.1","","52","","4","","9","","24.1","","98.89","","","","","","Mainly Clear"
"2009-04-05 15:00","2009","04","05","15:00","11.5","","0.7","","47","","3","","6","","24.1","","98.81","","","","","","Mostly Cloudy"
"2009-04-05 16:00","2009","04","05","16:00","10.8","","-0.6","","45","","15","","15","","24.1","","98.77","","","","","","Mostly Cloudy"
"2009-04-05 17:00","2009","04","05","17:00","10.0","","-1.9","","43","","14","","11","","24.1","","98.79","","","","","","Mostly Cloudy"
"2009-04-05 18:00","2009","04","05","18:00","8.9","","0.5","","56","","2","","20","","24.1","","98.75","","","","","","Mostly Cloudy"
"2009-04-05 19:00","2009","04","05","19:00","7.2","","-0.2","","59","","1","","20","","24.1","","98.74","","","","","","Cloudy"
"2009-04-05 20:00","2009","04","05","20:00","6.7","","-1.7","","55","","3","","20","","24.1","","98.72","","","","","","Cloudy"
"2009-04-05 21:00","2009","04","05","21:00","5.8","","-0.9","","62","","3","","20","","24.1","","98.69","","","","","","Mostly Cloudy"
"2009-04-05 22:00","2009","04","05","22:00","5.8","","-0.9","","62","","4","","20","","24.1","","98.61","","","","","","Cloudy"
"2009-04-05 23:00","2009","04","05","23:00","5.4","","-0.9","","64","","3","","20","","24.1","","98.51","","","","","","Cloudy"
"2009-04-06 00:00","2009","04","06","00:00","5.5","","-0.9","","63","","4","","17","","24.1","","98.38","","","","","","Cloudy"
"2009-04-06 01:00","2009","04","06","01:00","4.8","","-0.5","","68","","4","","26","","19.3","","98.17","","","","","","Rain"
"2009-04-06 02:00","2009","04","06","02:00","4.6","","0.1","","73","","5","","22","","24.1","","98.13","","","","","","Rain"
"2009-04-06 03:00","2009","04","06","03:00","3.9","","0.0","","76","","8","","17","","24.1","","98.08","","","","","","Rain"
"2009-04-06 04:00","2009","04","06","04:00","3.1","","-0.4","","78","","5","","26","","16.1","","97.74","","","","","","Rain"
"2009-04-06 05:00","2009","04","06","05:00","2.5","","-0.7","","79","","4","","26","","19.3","","97.61","","","","","","Rain"
"2009-04-06 06:00","2009","04","06","06:00","0.7","","-2.0","","82","","4","","24","","2.8","","97.53","","","","","","Rain,Snow"
"2009-04-06 07:00","2009","04","06","07:00","1.3","","-1.2","","83","","4","","22","","4.8","","97.47","","","","","","Rain,Snow"
"2009-04-06 08:00","2009","04","06","08:00","1.0","","-1.4","","84","","2","","22","","2.4","","97.42","","","","","","Rain,Snow"
"2009-04-06 09:00","2009","04","06","09:00","0.6","","-1.7","","85","","1","","28","","4.8","","97.35","","","","","","Rain,Snow,Ice Pellets"
"2009-04-06 10:00","2009","04","06","10:00","0.6","","-1.6","","85","","1","","30","","9.7","","97.29","","","","","","Rain,Snow"
"2009-04-06 11:00","2009","04","06","11:00","0.9","","-1.4","","85","","2","","28","","8.0","","97.23","","","","","","Rain,Snow"
"2009-04-06 12:00","2009","04","06","12:00","0.9","","-1.4","","85","","36","","30","","6.4","","97.17","","","","","","Rain,Snow"
"2009-04-06 13:00","2009","04","06","13:00","0.8","","-1.6","","84","","35","","35","","3.2","","97.15","","","","","","Rain,Snow"
"2009-04-06 14:00","2009","04","06","14:00","0.5","","-1.5","","86","","36","","37","","8.0","","97.16","","","","","","Rain,Snow"
"2009-04-06 15:00","2009","04","06","15:00","0.6","","-1.7","","85","","35","","37","","4.0","","97.20","","","","","","Rain,Snow"
"2009-04-06 16:00","2009","04","06","16:00","0.2","","-1.9","","86","","35","","39","","6.4","","97.26","","","","","","Snow"
"2009-04-06 17:00","2009","04","06","17:00","-0.4","","-2.6","","85","","34","","35","","4.8","","97.31","","","","-7","","Snow"
"2009-04-06 18:00","2009","04","06","18:00","-0.6","","-3.6","","80","","34","","48","","24.1","","97.38","","","","-9","","Snow"
"2009-04-06 19:00","2009","04","06","19:00","-0.8","","-4.6","","75","","33","","48","","19.3","","97.43","","","","-9","","Cloudy"
"2009-04-06 20:00","2009","04","06","20:00","-1.5","","-5.2","","76","","33","","50","","4.8","","97.47","","","","-10","","Snow"
"2009-04-06 21:00","2009","04","06","21:00","-1.6","","-5.6","","74","","33","","61","","4.8","","97.50","","","","-11","","Snow"
"2009-04-06 22:00","2009","04","06","22:00","-2.1","","-5.9","","75","","33","","46","","4.0","","97.51","","","","-11","","Snow"
"2009-04-06 23:00","2009","04","06","23:00","-2.3","","-6.1","","75","","32","","39","","4.8","","97.50","","","","-10","","Snow"
"2009-04-07 00:00","2009","04","07","00:00","-2.6","","-6.7","","73","","33","","37","","6.4","","97.49","","","","-11","","Snow"
"2009-04-07 01:00","2009","04","07","01:00","-3.1","","-7.1","","74","","32","","48","","4.8","","97.47","","","","-12","","Snow"
"2009-04-07 02:00","2009","04","07","02:00","-3.5","","-7.4","","74","","32","","41","","4.8","","97.45","","","","-12","","Snow"
"2009-04-07 03:00","2009","04","07","03:00","-3.3","","-7.9","","70","","32","","39","","19.3","","97.44","","","","-12","","Cloudy"
"2009-04-07 04:00","2009","04","07","04:00","-3.5","","-8.8","","67","","31","","30","","24.1","","97.45","","","","-11","","Cloudy"
"2009-04-07 05:00","2009","04","07","05:00","-3.8","","-9.6","","64","","31","","35","","24.1","","97.46","","","","-12","","Mostly Cloudy"
"2009-04-07 06:00","2009","04","07","06:00","-3.7","","-9.4","","65","","31","","33","","24.1","","97.51","","","","-12","","Mostly Cloudy"
"2009-04-07 07:00","2009","04","07","07:00","-3.8","","-8.6","","69","","29","","28","","12.9","","97.55","","","","-11","","Snow"
"2009-04-07 08:00","2009","04","07","08:00","-3.4","","-9.4","","63","","29","","41","","12.9","","97.57","","","","-12","","Snow"
"2009-04-07 09:00","2009","04","07","09:00","-3.1","","-9.3","","62","","30","","43","","16.1","","97.60","","","","-12","","Snow"
"2009-04-07 10:00","2009","04","07","10:00","-2.7","","-8.2","","66","","31","","33","","9.7","","97.62","","","","-10","","Snow Showers"
"2009-04-07 11:00","2009","04","07","11:00","-2.1","","-8.0","","64","","30","","35","","16.1","","97.64","","","","-10","","Mostly Cloudy"
"2009-04-07 12:00","2009","04","07","12:00","-1.0","","-7.2","","63","","29","","39","","16.1","","97.61","","","","-9","","Snow Showers"
"2009-04-07 13:00","2009","04","07","13:00","-0.5","","-6.8","","62","","30","","41","","16.1","","97.62","","","","-8","","Snow Showers"
"2009-04-07 14:00","2009","04","07","14:00","-0.5","","-6.9","","62","","29","","41","","16.1","","97.65","","","","-8","","Snow Showers"
"2009-04-07 15:00","2009","04","07","15:00","-0.7","","-7.1","","62","","30","","32","","16.1","","97.71","","","","-8","","Snow Showers"
"2009-04-07 16:00","2009","04","07","16:00","-0.6","","-7.1","","61","","29","","35","","12.9","","97.75","","","","-8","","Snow Showers"
"2009-04-07 17:00","2009","04","07","17:00","-0.7","","-6.5","","65","","27","","32","","12.9","","97.79","","","","-8","","Snow Showers"
"2009-04-07 18:00","2009","04","07","18:00","-0.8","","-6.3","","66","","27","","37","","16.1","","97.83","","","","-8","","Snow Showers"
"2009-04-07 19:00","2009","04","07","19:00","-0.7","","-6.9","","63","","27","","26","","19.3","","97.85","","","","-7","","Cloudy"
"2009-04-07 20:00","2009","04","07","20:00","-0.9","","-7.1","","63","","27","","30","","19.3","","97.89","","","","-8","","Cloudy"
"2009-04-07 21:00","2009","04","07","21:00","-1.3","","-6.7","","67","","27","","19","","24.1","","97.93","","","","-7","","Cloudy"
"2009-04-07 22:00","2009","04","07","22:00","-1.2","","-6.3","","68","","26","","19","","24.1","","97.92","","","","-7","","Cloudy"
"2009-04-07 23:00","2009","04","07","23:00","-1.4","","-6.1","","70","","25","","22","","16.1","","97.89","","","","-7","","Snow Showers"
"2009-04-08 00:00","2009","04","08","00:00","-1.6","","-6.2","","71","","26","","20","","24.1","","97.86","","","","-7","","Cloudy"
"2009-04-08 01:00","2009","04","08","01:00","-1.3","","-5.8","","71","","26","","19","","19.3","","97.83","","","","-7","","Cloudy"
"2009-04-08 02:00","2009","04","08","02:00","-1.5","","-5.7","","73","","26","","20","","24.1","","97.79","","","","-7","","Cloudy"
"2009-04-08 03:00","2009","04","08","03:00","-1.4","","-6.2","","70","","27","","19","","24.1","","97.79","","","","-7","","Mostly Cloudy"
"2009-04-08 04:00","2009","04","08","04:00","-1.4","","-6.0","","71","","25","","22","","24.1","","97.77","","","","-7","","Cloudy"
"2009-04-08 05:00","2009","04","08","05:00","-1.2","","-6.0","","70","","24","","20","","24.1","","97.79","","","","-7","","Cloudy"
"2009-04-08 06:00","2009","04","08","06:00","-0.8","","-5.7","","69","","25","","30","","19.3","","97.81","","","","-8","","Snow Showers"
"2009-04-08 07:00","2009","04","08","07:00","-0.5","","-5.4","","69","","26","","28","","24.1","","97.86","","","","-7","","Cloudy"
"2009-04-08 08:00","2009","04","08","08:00","0.3","","-5.1","","67","","27","","30","","24.1","","97.91","","","","","","Cloudy"
"2009-04-08 09:00","2009","04","08","09:00","1.1","","-4.4","","67","","27","","33","","24.1","","97.93","","","","","","Mostly Cloudy"
"2009-04-08 10:00","2009","04","08","10:00","2.5","","-4.4","","60","","27","","30","","24.1","","97.97","","","","","","Mostly Cloudy"
"2009-04-08 11:00","2009","04","08","11:00","3.8","","-5.5","","51","","25","","37","","24.1","","97.95","","","","","","Mostly Cloudy"
"2009-04-08 12:00","2009","04","08","12:00","5.6","","-5.1","","46","","26","","32","","24.1","","97.93","","","","","","Mostly Cloudy"
"2009-04-08 13:00","2009","04","08","13:00","6.4","","-6.8","","38","","27","","44","","24.1","","97.90","","","","","","Mostly Cloudy"
"2009-04-08 14:00","2009","04","08","14:00","6.8","","-7.2","","36","","26","","43","","24.1","","97.89","","","","","","Mostly Cloudy"
"2009-04-08 15:00","2009","04","08","15:00","6.6","","-7.8","","35","","27","","50","","24.1","","97.91","","","","","","Mostly Cloudy"
"2009-04-08 16:00","2009","04","08","16:00","7.2","","-6.1","","38","","27","","39","","24.1","","97.92","","","","","","Mostly Cloudy"
"2009-04-08 17:00","2009","04","08","17:00","7.3","","-5.7","","39","","27","","37","","24.1","","97.94","","","","","","Mostly Cloudy"
"2009-04-08 18:00","2009","04","08","18:00","7.5","","-5.3","","40","","27","","33","","24.1","","97.99","","","","","","Mostly Cloudy"
"2009-04-08 19:00","2009","04","08","19:00","6.6","","-4.7","","44","","26","","20","","24.1","","98.02","","","","","","Mostly Cloudy"
"2009-04-08 20:00","2009","04","08","20:00","5.9","","-4.8","","46","","26","","19","","24.1","","98.10","","","","","","Mostly Cloudy"
"2009-04-08 21:00","2009","04","08","21:00","5.5","","-4.5","","48","","29","","17","","24.1","","98.19","","","","","","Mostly Cloudy"
"2009-04-08 22:00","2009","04","08","22:00","2.5","","-5.6","","55","","28","","11","","24.1","","98.25","","","","","","Mainly Clear"
"2009-04-08 23:00","2009","04","08","23:00","3.1","","-5.8","","52","","27","","17","","24.1","","98.28","","","","","","Mainly Clear"
"2009-04-09 00:00","2009","04","09","00:00","2.5","","-6.3","","52","","27","","20","","24.1","","98.34","","","","","","Mainly Clear"
"2009-04-09 01:00","2009","04","09","01:00","2.0","","-7.1","","51","","28","","19","","24.1","","98.39","","","","","","Mainly Clear"
"2009-04-09 02:00","2009","04","09","02:00","1.3","","-7.1","","54","","27","","20","","24.1","","98.43","","","","","","Mainly Clear"
"2009-04-09 03:00","2009","04","09","03:00","-0.5","","-7.4","","60","","26","","13","","24.1","","98.45","","","","-5","","Mainly Clear"
"2009-04-09 04:00","2009","04","09","04:00","-1.0","","-7.6","","61","","26","","13","","24.1","","98.51","","","","-5","","Clear"
"2009-04-09 05:00","2009","04","09","05:00","-1.1","","-7.5","","62","","25","","13","","24.1","","98.55","","","","-5","","Mainly Clear"
"2009-04-09 06:00","2009","04","09","06:00","-0.5","","-7.1","","61","","26","","17","","24.1","","98.62","","","","-5","","Mainly Clear"
"2009-04-09 07:00","2009","04","09","07:00","1.9","","-5.7","","57","","25","","11","","24.1","","98.68","","","","","","Mainly Clear"
"2009-04-09 08:00","2009","04","09","08:00","4.8","","-5.7","","46","","27","","15","","24.1","","98.72","","","","","","Mainly Clear"
"2009-04-09 09:00","2009","04","09","09:00","6.8","","-5.3","","42","","27","","19","","24.1","","98.76","","","","","","Clear"
"2009-04-09 10:00","2009","04","09","10:00","8.2","","-4.8","","39","","28","","24","","24.1","","98.80","","","","","","Clear"
"2009-04-09 11:00","2009","04","09","11:00","8.9","","-4.5","","38","","28","","35","","24.1","","98.84","","","","","","Mainly Clear"
"2009-04-09 12:00","2009","04","09","12:00","10.4","","-4.0","","36","","30","","39","","24.1","","98.86","","","","","","Mainly Clear"
"2009-04-09 13:00","2009","04","09","13:00","10.9","","-3.9","","35","","30","","33","","24.1","","98.87","","","","","","Mainly Clear"
"2009-04-09 14:00","2009","04","09","14:00","10.0","","-4.5","","36","","29","","24","","24.1","","98.89","","","","","","Mostly Cloudy"
"2009-04-09 15:00","2009","04","09","15:00","10.9","","-3.1","","37","","29","","24","","24.1","","98.89","","","","","","Mostly Cloudy"
"2009-04-09 16:00","2009","04","09","16:00","11.3","","-3.4","","36","","31","","33","","24.1","","98.95","","","","","","Mostly Cloudy"
"2009-04-09 17:00","2009","04","09","17:00","10.1","","-4.4","","36","","31","","30","","24.1","","99.02","","","","","","Mainly Clear"
"2009-04-09 18:00","2009","04","09","18:00","8.7","","-4.9","","38","","32","","24","","24.1","","99.07","","","","","","Mostly Cloudy"
"2009-04-09 19:00","2009","04","09","19:00","8.2","","-5.0","","39","","32","","11","","24.1","","99.09","","","","","","Mostly Cloudy"
"2009-04-09 20:00","2009","04","09","20:00","7.3","","-5.3","","40","","31","","9","","24.1","","99.16","","","","","","Mostly Cloudy"
"2009-04-09 21:00","2009","04","09","21:00","6.2","","-4.6","","46","","1","","11","","24.1","","99.25","","","","","","Mostly Cloudy"
"2009-04-09 22:00","2009","04","09","22:00","4.9","","-5.0","","49","","1","","15","","24.1","","99.32","","","","","","Mostly Cloudy"
"2009-04-09 23:00","2009","04","09","23:00","4.2","","-5.1","","51","","1","","11","","24.1","","99.35","","","","","","Mainly Clear"
"2009-04-10 00:00","2009","04","10","00:00","2.9","","-5.5","","54","","35","","9","","24.1","","99.35","","","","","","Mainly Clear"
"2009-04-10 01:00","2009","04","10","01:00","2.0","","-5.4","","58","","34","","13","","24.1","","99.38","","","","","","Mainly Clear"
"2009-04-10 02:00","2009","04","10","02:00","1.4","","-5.9","","58","","33","","11","","24.1","","99.39","","","","","","Mainly Clear"
"2009-04-10 03:00","2009","04","10","03:00","2.0","","-6.5","","53","","35","","17","","24.1","","99.41","","","","","","Clear"
"2009-04-10 04:00","2009","04","10","04:00","0.3","","-6.6","","60","","2","","6","","24.1","","99.45","","","","","","Clear"
"2009-04-10 05:00","2009","04","10","05:00","0.3","","-6.8","","59","","35","","7","","24.1","","99.49","","","","","","Clear"
"2009-04-10 06:00","2009","04","10","06:00","-0.3","","-6.8","","61","","4","","11","","24.1","","99.55","","","","-4","","Clear"
"2009-04-10 07:00","2009","04","10","07:00","1.5","","-6.0","","57","","1","","17","","24.1","","99.62","","","","","","Mainly Clear"
"2009-04-10 08:00","2009","04","10","08:00","2.9","","-4.1","","60","","1","","15","","24.1","","99.67","","","","","","Mainly Clear"
"2009-04-10 09:00","2009","04","10","09:00","4.4","","-3.2","","58","","1","","17","","24.1","","99.65","","","","","","Mainly Clear"
"2009-04-10 10:00","2009","04","10","10:00","5.6","","-3.3","","53","","3","","11","","24.1","","99.64","","","","","","Mostly Cloudy"
"2009-04-10 11:00","2009","04","10","11:00","8.2","","-3.2","","44","","4","","11","","24.1","","99.63","","","","","","Mostly Cloudy"
"2009-04-10 12:00","2009","04","10","12:00","9.4","","-2.6","","43","","16","","4","","24.1","","99.57","","","","","","Mostly Cloudy"
"2009-04-10 13:00","2009","04","10","13:00","9.2","","-0.9","","49","","19","","7","","24.1","","99.53","","","","","","Mostly Cloudy"
"2009-04-10 14:00","2009","04","10","14:00","7.6","","-1.4","","53","","14","","13","","24.1","","99.54","","","","","","Mostly Cloudy"
"2009-04-10 15:00","2009","04","10","15:00","8.4","","-0.6","","53","","21","","4","","24.1","","99.46","","","","","","Mostly Cloudy"
"2009-04-10 16:00","2009","04","10","16:00","9.7","","-1.4","","46","","15","","6","","24.1","","99.46","","","","","","Mostly Cloudy"
"2009-04-10 17:00","2009","04","10","17:00","9.0","","-1.5","","48","","2","","24","","24.1","","99.41","","","","","","Mostly Cloudy"
"2009-04-10 18:00","2009","04","10","18:00","7.9","","-3.6","","44","","2","","22","","24.1","","99.47","","","","","","Mostly Cloudy"
"2009-04-10 19:00","2009","04","10","19:00","6.7","","-5.1","","43","","35","","22","","24.1","","99.52","","","","","","Mostly Cloudy"
"2009-04-10 20:00","2009","04","10","20:00","4.2","","-3.9","","56","","36","","28","","24.1","","99.59","","","","","","Mostly Cloudy"
"2009-04-10 21:00","2009","04","10","21:00","3.0","","-5.2","","55","","35","","20","","24.1","","99.65","","","","","","Mostly Cloudy"
"2009-04-10 22:00","2009","04","10","22:00","2.0","","-6.2","","55","","36","","24","","24.1","","99.57","","","","","","Mainly Clear"
"2009-04-10 23:00","2009","04","10","23:00","1.5","","-6.2","","57","","36","","24","","24.1","","99.60","","","","","","Clear"
"2009-04-11 00:00","2009","04","11","00:00","1.4","","-5.9","","58","","36","","13","","24.1","","99.64","","","","","","Mostly Cloudy"
"2009-04-11 01:00","2009","04","11","01:00","0.7","","-5.7","","62","","1","","9","","24.1","","99.66","","","","","","Mostly Cloudy"
"2009-04-11 02:00","2009","04","11","02:00","1.5","","-5.3","","61","","2","","7","","24.1","","99.69","","","","","","Mainly Clear"
"2009-04-11 03:00","2009","04","11","03:00","0.3","","-6.0","","63","","35","","11","","24.1","","99.75","","","","","","Mainly Clear"
"2009-04-11 04:00","2009","04","11","04:00","0.1","","-5.9","","64","","36","","20","","24.1","","99.79","","","","","","Clear"
"2009-04-11 05:00","2009","04","11","05:00","-0.2","","-6.8","","61","","36","","22","","24.1","","99.83","","","","-6","","Clear"
"2009-04-11 06:00","2009","04","11","06:00","-0.6","","-6.8","","63","","36","","17","","24.1","","99.93","","","","-6","","Mainly Clear"
"2009-04-11 07:00","2009","04","11","07:00","0.9","","-6.7","","57","","1","","17","","24.1","","100.00","","","","","","Mainly Clear"
"2009-04-11 08:00","2009","04","11","08:00","2.8","","-6.5","","50","","2","","22","","24.1","","100.07","","","","","","Mainly Clear"
"2009-04-11 09:00","2009","04","11","09:00","4.1","","-7.1","","44","","3","","22","","24.1","","100.09","","","","","","Mainly Clear"
"2009-04-11 10:00","2009","04","11","10:00","5.4","","-7.8","","38","","3","","26","","24.1","","100.15","","","","","","Mainly Clear"
"2009-04-11 11:00","2009","04","11","11:00","6.8","","-7.3","","36","","1","","20","","24.1","","100.18","","","","","","Mainly Clear"
"2009-04-11 12:00","2009","04","11","12:00","7.3","","-6.5","","37","","2","","24","","24.1","","100.19","","","","","","Mainly Clear"
"2009-04-11 13:00","2009","04","11","13:00","7.1","","-6.9","","36","","36","","22","","24.1","","100.18","","","","","","Mainly Clear"
"2009-04-11 14:00","2009","04","11","14:00","7.6","","-7.8","","33","","35","","33","","24.1","","100.15","","","","","","Mainly Clear"
"2009-04-11 15:00","2009","04","11","15:00","7.5","","-7.7","","33","","35","","39","","24.1","","100.16","","","","","","Mainly Clear"
"2009-04-11 16:00","2009","04","11","16:00","6.3","","-10.5","","29","","33","","43","","24.1","","100.17","","","","","","Mainly Clear"
"2009-04-11 17:00","2009","04","11","17:00","5.3","","-10.0","","32","","34","","44","","24.1","","100.20","","","","","","Mainly Clear"
"2009-04-11 18:00","2009","04","11","18:00","3.9","","-9.4","","37","","35","","30","","24.1","","100.27","","","","","","Clear"
"2009-04-11 19:00","2009","04","11","19:00","2.5","","-8.9","","43","","34","","33","","24.1","","100.32","","","","","","Clear"
"2009-04-11 20:00","2009","04","11","20:00","2.3","","-8.9","","43","","34","","30","","24.1","","100.36","","","","","","Clear"
"2009-04-11 21:00","2009","04","11","21:00","1.5","","-9.0","","46","","33","","22","","24.1","","100.39","","","","","","Clear"
"2009-04-11 22:00","2009","04","11","22:00","0.7","","-9.0","","48","","34","","19","","24.1","","100.41","","","","","","Clear"
"2009-04-11 23:00","2009","04","11","23:00","0.4","","-8.6","","51","","35","","20","","24.1","","100.41","","","","","","Clear"
"2009-04-12 00:00","2009","04","12","00:00","-0.2","","-8.0","","56","","34","","20","","24.1","","100.42","","","","-5","","Clear"
"2009-04-12 01:00","2009","04","12","01:00","-0.5","","-7.6","","59","","35","","19","","24.1","","100.44","","","","-6","","Clear"
"2009-04-12 02:00","2009","04","12","02:00","-1.0","","-7.2","","63","","34","","13","","24.1","","100.47","","","","-5","","Clear"
"2009-04-12 03:00","2009","04","12","03:00","-1.2","","-6.8","","66","","34","","17","","24.1","","100.51","","","","-6","","Clear"
"2009-04-12 04:00","2009","04","12","04:00","-1.6","","-7.4","","65","","33","","13","","24.1","","100.55","","","","-6","","Clear"
"2009-04-12 05:00","2009","04","12","05:00","-1.6","","-8.0","","62","","35","","15","","24.1","","100.59","","","","-6","","Clear"
"2009-04-12 06:00","2009","04","12","06:00","-2.1","","-9.6","","56","","34","","17","","24.1","","100.66","","","","-7","","Clear"
"2009-04-12 07:00","2009","04","12","07:00","-1.2","","-9.7","","52","","34","","15","","24.1","","100.74","","","","-6","","Clear"
"2009-04-12 08:00","2009","04","12","08:00","-0.2","","-9.8","","48","","34","","22","","24.1","","100.77","","","","-6","","Clear"
"2009-04-12 09:00","2009","04","12","09:00","1.0","","-10.6","","42","","36","","33","","24.1","","100.77","","","","","","Clear"
"2009-04-12 10:00","2009","04","12","10:00","2.2","","-10.6","","38","","35","","22","","24.1","","100.80","","","","","","Clear"
"2009-04-12 11:00","2009","04","12","11:00","3.3","","-11.5","","33","","35","","28","","24.1","","100.79","","","","","","Clear"
"2009-04-12 12:00","2009","04","12","12:00","3.9","","-11.1","","32","","36","","28","","24.1","","100.75","","","","","","Clear"
"2009-04-12 13:00","2009","04","12","13:00","5.3","","-9.7","","33","","34","","20","","24.1","","100.72","","","","","","Clear"
"2009-04-12 14:00","2009","04","12","14:00","5.9","","-10.3","","30","","31","","22","","24.1","","100.70","","","","","","Clear"
"2009-04-12 15:00","2009","04","12","15:00","5.8","","-10.2","","31","","32","","24","","24.1","","100.67","","","","","","Clear"
"2009-04-12 16:00","2009","04","12","16:00","5.8","","-10.6","","30","","36","","26","","24.1","","100.59","","","","","","Clear"
"2009-04-12 17:00","2009","04","12","17:00","4.8","","-10.5","","32","","36","","26","","24.1","","100.60","","","","","","Clear"
"2009-04-12 18:00","2009","04","12","18:00","3.8","","-9.9","","36","","35","","22","","24.1","","100.55","","","","","","Clear"
"2009-04-12 19:00","2009","04","12","19:00","2.8","","-10.2","","38","","35","","22","","24.1","","100.61","","","","","","Mainly Clear"
"2009-04-12 20:00","2009","04","12","20:00","1.7","","-10.2","","41","","34","","22","","24.1","","100.65","","","","","","Mainly Clear"
"2009-04-12 21:00","2009","04","12","21:00","1.1","","-10.6","","41","","36","","22","","24.1","","100.66","","","","","","Mainly Clear"
"2009-04-12 22:00","2009","04","12","22:00","-0.1","","-10.3","","46","","35","","22","","24.1","","100.64","","","","-6","","Clear"
"2009-04-12 23:00","2009","04","12","23:00","-0.8","","-11.0","","46","","36","","24","","24.1","","100.57","","","","-7","","Clear"
"2009-04-13 00:00","2009","04","13","00:00","-0.9","","-11.4","","45","","35","","19","","24.1","","100.54","","","","-6","","Clear"
"2009-04-13 01:00","2009","04","13","01:00","-1.9","","-11.3","","49","","29","","6","","24.1","","100.57","","","","-4","","Clear"
"2009-04-13 02:00","2009","04","13","02:00","-2.7","","-10.9","","53","","32","","13","","24.1","","100.51","","","","-7","","Clear"
"2009-04-13 03:00","2009","04","13","03:00","-2.0","","-10.9","","51","","35","","17","","24.1","","100.51","","","","-7","","Clear"
"2009-04-13 04:00","2009","04","13","04:00","-2.4","","-10.7","","53","","1","","17","","24.1","","100.46","","","","-8","","Clear"
"2009-04-13 05:00","2009","04","13","05:00","-2.9","","-11.0","","54","","35","","7","","24.1","","100.48","","","","-6","","Clear"
"2009-04-13 06:00","2009","04","13","06:00","-2.5","","-10.3","","55","","2","","11","","24.1","","100.48","","","","-7","","Mainly Clear"
"2009-04-13 07:00","2009","04","13","07:00","-0.7","","-9.2","","53","","3","","15","","24.1","","100.41","","","","-5","","Mainly Clear"
"2009-04-13 08:00","2009","04","13","08:00","2.3","","-8.8","","44","","6","","6","","24.1","","100.40","","","","","","Mainly Clear"
"2009-04-13 09:00","2009","04","13","09:00","4.1","","-9.9","","35","","14","","11","","24.1","","100.39","","","","","","Mostly Cloudy"
"2009-04-13 10:00","2009","04","13","10:00","4.6","","-9.3","","36","","18","","11","","24.1","","100.29","","","","","","Mostly Cloudy"
"2009-04-13 11:00","2009","04","13","11:00","5.1","","-8.8","","36","","15","","13","","24.1","","100.27","","","","","","Mostly Cloudy"
"2009-04-13 12:00","2009","04","13","12:00","4.4","","-9.3","","36","","15","","11","","24.1","","100.18","","","","","","Mostly Cloudy"
"2009-04-13 13:00","2009","04","13","13:00","5.2","","-7.4","","40","","14","","11","","24.1","","100.03","","","","","","Mostly Cloudy"
"2009-04-13 14:00","2009","04","13","14:00","4.4","","-8.6","","38","","15","","15","","24.1","","99.90","","","","","","Mostly Cloudy"
"2009-04-13 15:00","2009","04","13","15:00","5.8","","-9.0","","34","","13","","15","","24.1","","99.86","","","","","","Mostly Cloudy"
"2009-04-13 16:00","2009","04","13","16:00","5.8","","-9.8","","32","","12","","17","","24.1","","99.80","","","","","","Mostly Cloudy"
"2009-04-13 17:00","2009","04","13","17:00","5.8","","-10.4","","30","","13","","13","","24.1","","99.76","","","","","","Mostly Cloudy"
"2009-04-13 18:00","2009","04","13","18:00","6.0","","-10.9","","29","","8","","9","","24.1","","99.72","","","","","","Cloudy"
"2009-04-13 19:00","2009","04","13","19:00","6.2","","-10.4","","29","","11","","13","","24.1","","99.68","","","","","","Cloudy"
"2009-04-13 20:00","2009","04","13","20:00","5.8","","-11.2","","28","","8","","15","","24.1","","99.76","","","","","","Cloudy"
"2009-04-13 21:00","2009","04","13","21:00","5.5","","-10.3","","31","","9","","13","","24.1","","99.70","","","","","","Cloudy"
"2009-04-13 22:00","2009","04","13","22:00","4.9","","-10.6","","32","","8","","9","","24.1","","99.65","","","","","","Mostly Cloudy"
"2009-04-13 23:00","2009","04","13","23:00","4.5","","-11.8","","29","","7","","9","","24.1","","99.66","","","","","","Mostly Cloudy"
"2009-04-14 00:00","2009","04","14","00:00","3.9","","-11.8","","31","","8","","15","","24.1","","99.59","","","","","","Mostly Cloudy"
"2009-04-14 01:00","2009","04","14","01:00","4.0","","-11.7","","31","","8","","13","","24.1","","99.58","","","","","","Mostly Cloudy"
"2009-04-14 02:00","2009","04","14","02:00","4.1","","-11.5","","31","","6","","13","","24.1","","99.58","","","","","","Mostly Cloudy"
"2009-04-14 03:00","2009","04","14","03:00","4.1","","-11.1","","32","","8","","7","","24.1","","99.60","","","","","","Mostly Cloudy"
"2009-04-14 04:00","2009","04","14","04:00","4.3","","-10.9","","32","","8","","15","","24.1","","99.56","","","","","","Mostly Cloudy"
"2009-04-14 05:00","2009","04","14","05:00","4.1","","-10.8","","33","","10","","15","","24.1","","99.53","","","","","","Mostly Cloudy"
"2009-04-14 06:00","2009","04","14","06:00","4.2","","-9.5","","36","","9","","15","","24.1","","99.55","","","","","","Mostly Cloudy"
"2009-04-14 07:00","2009","04","14","07:00","4.7","","-8.4","","38","","10","","19","","24.1","","99.56","","","","","","Mostly Cloudy"
"2009-04-14 08:00","2009","04","14","08:00","5.7","","-7.4","","38","","9","","24","","24.1","","99.56","","","","","","Mostly Cloudy"
"2009-04-14 09:00","2009","04","14","09:00","6.7","","-6.9","","37","","8","","28","","24.1","","99.55","","","","","","Mostly Cloudy"
"2009-04-14 10:00","2009","04","14","10:00","6.9","","-8.1","","33","","9","","33","","24.1","","99.49","","","","","","Mostly Cloudy"
"2009-04-14 11:00","2009","04","14","11:00","7.5","","-9.0","","30","","8","","28","","24.1","","99.50","","","","","","Mostly Cloudy"
"2009-04-14 12:00","2009","04","14","12:00","8.2","","-9.2","","28","","7","","30","","24.1","","99.43","","","","","","Mostly Cloudy"
"2009-04-14 13:00","2009","04","14","13:00","9.0","","-10.2","","25","","9","","30","","24.1","","99.41","","","","","","Mostly Cloudy"
"2009-04-14 14:00","2009","04","14","14:00","10.3","","-9.9","","23","","8","","43","","24.1","","99.37","","","","","","Mostly Cloudy"
"2009-04-14 15:00","2009","04","14","15:00","11.1","","-10.3","","21","","8","","33","","24.1","","99.30","","","","","","Mostly Cloudy"
"2009-04-14 16:00","2009","04","14","16:00","11.4","","-9.3","","22","","8","","32","","24.1","","99.29","","","","","","Mostly Cloudy"
"2009-04-14 17:00","2009","04","14","17:00","11.2","","-8.7","","24","","8","","30","","24.1","","99.30","","","","","","Mostly Cloudy"
"2009-04-14 18:00","2009","04","14","18:00","11.5","","-9.4","","22","","9","","26","","24.1","","99.32","","","","","","Mostly Cloudy"
"2009-04-14 19:00","2009","04","14","19:00","10.6","","-8.3","","26","","8","","20","","24.1","","99.35","","","","","","Mostly Cloudy"
"2009-04-14 20:00","2009","04","14","20:00","10.4","","-7.9","","27","","8","","19","","24.1","","99.38","","","","","","Mostly Cloudy"
"2009-04-14 21:00","2009","04","14","21:00","10.1","","-6.6","","30","","6","","15","","24.1","","99.43","","","","","","Mostly Cloudy"
"2009-04-14 22:00","2009","04","14","22:00","10.1","","-7.9","","27","","7","","24","","24.1","","99.44","","","","","","Mainly Clear"
"2009-04-14 23:00","2009","04","14","23:00","9.5","","-7.9","","28","","8","","22","","24.1","","99.47","","","","","","Mostly Cloudy"
"2009-04-15 00:00","2009","04","15","00:00","9.3","","-8.5","","28","","7","","26","","24.1","","99.48","","","","","","Mainly Clear"
"2009-04-15 01:00","2009","04","15","01:00","8.8","","-8.9","","28","","7","","24","","24.1","","99.49","","","","","","Mainly Clear"
"2009-04-15 02:00","2009","04","15","02:00","8.6","","-9.9","","26","","7","","22","","24.1","","99.49","","","","","","Mainly Clear"
"2009-04-15 03:00","2009","04","15","03:00","8.0","","-9.5","","28","","7","","17","","24.1","","99.53","","","","","","Mainly Clear"
"2009-04-15 04:00","2009","04","15","04:00","7.9","","-10.3","","26","","6","","17","","24.1","","99.62","","","","","","Mostly Cloudy"
"2009-04-15 05:00","2009","04","15","05:00","7.9","","-11.2","","24","","6","","22","","24.1","","99.67","","","","","","Mostly Cloudy"
"2009-04-15 06:00","2009","04","15","06:00","7.1","","-10.6","","27","","7","","13","","24.1","","99.77","","","","","","Mostly Cloudy"
"2009-04-15 07:00","2009","04","15","07:00","7.5","","-10.0","","28","","6","","19","","24.1","","99.87","","","","","","Mostly Cloudy"
"2009-04-15 08:00","2009","04","15","08:00","8.4","","-8.7","","29","","7","","19","","24.1","","99.92","","","","","","Mostly Cloudy"
"2009-04-15 09:00","2009","04","15","09:00","10.0","","-7.8","","28","","9","","22","","24.1","","99.98","","","","","","Mostly Cloudy"
"2009-04-15 10:00","2009","04","15","10:00","10.7","","-7.7","","27","","6","","20","","24.1","","100.00","","","","","","Mostly Cloudy"
"2009-04-15 11:00","2009","04","15","11:00","12.3","","-6.9","","26","","10","","19","","24.1","","100.01","","","","","","Mostly Cloudy"
"2009-04-15 12:00","2009","04","15","12:00","13.2","","-6.8","","24","","9","","17","","24.1","","100.02","","","","","","Mostly Cloudy"
"2009-04-15 13:00","2009","04","15","13:00","13.0","","-5.3","","28","","11","","19","","24.1","","100.02","","","","","","Mostly Cloudy"
"2009-04-15 14:00","2009","04","15","14:00","13.6","","-4.7","","28","","14","","20","","24.1","","100.02","","","","","","Mainly Clear"
"2009-04-15 15:00","2009","04","15","15:00","13.4","","-5.2","","27","","14","","15","","24.1","","100.03","","","","","","Mainly Clear"
"2009-04-15 16:00","2009","04","15","16:00","12.9","","-5.8","","27","","13","","17","","24.1","","100.04","","","","","","Mainly Clear"
"2009-04-15 17:00","2009","04","15","17:00","12.7","","-6.6","","25","","12","","20","","24.1","","100.09","","","","","","Mainly Clear"
"2009-04-15 18:00","2009","04","15","18:00","11.6","","-7.6","","25","","15","","9","","24.1","","100.15","","","","","","Mainly Clear"
"2009-04-15 19:00","2009","04","15","19:00","10.7","","-8.4","","25","","16","","4","","24.1","","100.20","","","","","","Mainly Clear"
"2009-04-15 20:00","2009","04","15","20:00","10.0","","-9.0","","25","","28","","6","","24.1","","100.27","","","","","","Clear"
"2009-04-15 21:00","2009","04","15","21:00","8.9","","-8.0","","29","","31","","7","","24.1","","100.35","","","","","","Clear"
"2009-04-15 22:00","2009","04","15","22:00","6.7","","-7.2","","36","","31","","7","","24.1","","100.42","","","","","","Clear"
"2009-04-15 23:00","2009","04","15","23:00","7.1","","-5.6","","40","","34","","17","","24.1","","100.46","","","","","","Clear"
"2009-04-16 00:00","2009","04","16","00:00","5.7","","-5.4","","45","","34","","11","","24.1","","100.48","","","","","","Clear"
"2009-04-16 01:00","2009","04","16","01:00","4.5","","-5.3","","49","","35","","13","","24.1","","100.53","","","","","","Clear"
"2009-04-16 02:00","2009","04","16","02:00","3.8","","-5.1","","52","","34","","7","","24.1","","100.54","","","","","","Clear"
"2009-04-16 03:00","2009","04","16","03:00","3.8","","-5.0","","53","","35","","22","","24.1","","100.57","","","","","","Clear"
"2009-04-16 04:00","2009","04","16","04:00","3.1","","-5.3","","54","","36","","15","","24.1","","100.59","","","","","","Clear"
"2009-04-16 05:00","2009","04","16","05:00","3.2","","-6.0","","51","","36","","15","","24.1","","100.65","","","","","","Clear"
"2009-04-16 06:00","2009","04","16","06:00","3.9","","-6.5","","47","","34","","13","","24.1","","100.75","","","","","","Clear"
"2009-04-16 07:00","2009","04","16","07:00","5.7","","-6.0","","43","","35","","15","","24.1","","100.82","","","","","","Clear"
"2009-04-16 08:00","2009","04","16","08:00","7.6","","-5.4","","39","","36","","11","","24.1","","100.87","","","","","","Clear"
"2009-04-16 09:00","2009","04","16","09:00","9.6","","-4.6","","36","","36","","6","","24.1","","100.91","","","","","","Clear"
"2009-04-16 10:00","2009","04","16","10:00","10.8","","-4.4","","34","","28","","4","","24.1","","100.92","","","","","","Clear"
"2009-04-16 11:00","2009","04","16","11:00","11.6","","-5.3","","30","","13","","17","","24.1","","100.93","","","","","","Clear"
"2009-04-16 12:00","2009","04","16","12:00","11.2","","-6.0","","29","","14","","20","","24.1","","100.92","","","","","","Clear"
"2009-04-16 13:00","2009","04","16","13:00","11.8","","-5.9","","28","","16","","13","","24.1","","100.89","","","","","","Clear"
"2009-04-16 14:00","2009","04","16","14:00","12.3","","-5.5","","28","","14","","13","","24.1","","100.86","","","","","","Clear"
"2009-04-16 15:00","2009","04","16","15:00","13.2","","-5.0","","28","","15","","17","","24.1","","100.78","","","","","","Clear"
"2009-04-16 16:00","2009","04","16","16:00","13.1","","-5.6","","27","","14","","15","","24.1","","100.76","","","","","","Clear"
"2009-04-16 17:00","2009","04","16","17:00","13.1","","-5.9","","26","","15","","11","","24.1","","100.75","","","","","","Clear"
"2009-04-16 18:00","2009","04","16","18:00","12.4","","-6.0","","27","","18","","9","","24.1","","100.74","","","","","","Clear"
"2009-04-16 19:00","2009","04","16","19:00","11.5","","-6.6","","28","","16","","7","","24.1","","100.75","","","","","","Mainly Clear"
"2009-04-16 20:00","2009","04","16","20:00","11.0","","-7.0","","28","","21","","6","","24.1","","100.78","","","","","","Clear"
"2009-04-16 21:00","2009","04","16","21:00","7.8","","-5.5","","38","","27","","9","","24.1","","100.80","","","","","","Clear"
"2009-04-16 22:00","2009","04","16","22:00","8.3","","-5.8","","36","","36","","19","","24.1","","100.79","","","","","","Clear"
"2009-04-16 23:00","2009","04","16","23:00","7.9","","-6.9","","34","","35","","11","","24.1","","100.76","","","","","","Clear"
"2009-04-17 00:00","2009","04","17","00:00","5.2","","-6.5","","43","","32","","11","","24.1","","100.75","","","","","","Clear"
"2009-04-17 01:00","2009","04","17","01:00","6.4","","-7.0","","38","","34","","13","","24.1","","100.72","","","","","","Clear"
"2009-04-17 02:00","2009","04","17","02:00","3.9","","-5.5","","50","","32","","15","","24.1","","100.69","","","","","","Clear"
"2009-04-17 03:00","2009","04","17","03:00","4.4","","-5.4","","49","","31","","6","","24.1","","100.69","","","","","","Clear"
"2009-04-17 04:00","2009","04","17","04:00","4.7","","-6.6","","44","","32","","6","","24.1","","100.68","","","","","","Clear"
"2009-04-17 05:00","2009","04","17","05:00","4.4","","-6.8","","44","","34","","13","","24.1","","100.67","","","","","","Clear"
"2009-04-17 06:00","2009","04","17","06:00","4.8","","-6.8","","43","","33","","9","","24.1","","100.67","","","","","","Mainly Clear"
"2009-04-17 07:00","2009","04","17","07:00","6.2","","-5.7","","42","","30","","6","","24.1","","100.69","","","","","","Mainly Clear"
"2009-04-17 08:00","2009","04","17","08:00","9.1","","-5.3","","36","","33","","13","","24.1","","100.68","","","","","","Mainly Clear"
"2009-04-17 09:00","2009","04","17","09:00","11.7","","-4.4","","32","","33","","11","","24.1","","100.64","","","","","","Mainly Clear"
"2009-04-17 10:00","2009","04","17","10:00","13.7","","-4.1","","29","","30","","6","","24.1","","100.61","","","","","","Mainly Clear"
"2009-04-17 11:00","2009","04","17","11:00","16.3","","-3.5","","25","","27","","15","","24.1","","100.53","","","","","","Mainly Clear"
"2009-04-17 12:00","2009","04","17","12:00","18.1","","-2.9","","24","","22","","9","","24.1","","100.45","","","","","","Mainly Clear"
"2009-04-17 13:00","2009","04","17","13:00","18.9","","-2.5","","23","","29","","15","","24.1","","100.36","","","","","","Mainly Clear"
"2009-04-17 14:00","2009","04","17","14:00","19.8","","-2.2","","23","","31","","22","","24.1","","100.31","","","","","","Mainly Clear"
"2009-04-17 15:00","2009","04","17","15:00","20.4","","-3.5","","20","","31","","28","","24.1","","100.22","","","","","","Mainly Clear"
"2009-04-17 16:00","2009","04","17","16:00","20.6","","-3.6","","19","","29","","32","","24.1","","100.15","","","","","","Mainly Clear"
"2009-04-17 17:00","2009","04","17","17:00","20.0","","-3.7","","20","","30","","32","","24.1","","100.08","","","","","","Mainly Clear"
"2009-04-17 18:00","2009","04","17","18:00","19.4","","-3.0","","22","","30","","28","","24.1","","100.06","","","","","","Mostly Cloudy"
"2009-04-17 19:00","2009","04","17","19:00","17.7","","-3.3","","24","","30","","24","","24.1","","100.00","","","","","","Mostly Cloudy"
"2009-04-17 20:00","2009","04","17","20:00","15.1","","-2.2","","30","","27","","19","","24.1","","100.01","","","","","","Mostly Cloudy"
"2009-04-17 21:00","2009","04","17","21:00","11.1","","-2.8","","38","","26","","17","","24.1","","99.99","","","","","","Mostly Cloudy"
"2009-04-17 22:00","2009","04","17","22:00","11.2","","-2.8","","37","","26","","11","","24.1","","99.96","","","","","","Mostly Cloudy"
"2009-04-17 23:00","2009","04","17","23:00","9.4","","-2.7","","42","","26","","15","","24.1","","99.90","","","","","","Mainly Clear"
"2009-04-18 00:00","2009","04","18","00:00","12.1","","-2.2","","37","","27","","17","","24.1","","99.84","","","","","","Mostly Cloudy"
"2009-04-18 01:00","2009","04","18","01:00","12.7","","-0.9","","39","","27","","24","","24.1","","99.79","","","","","","Mostly Cloudy"
"2009-04-18 02:00","2009","04","18","02:00","13.2","","-0.2","","40","","31","","15","","24.1","","99.76","","","","","","Mostly Cloudy"
"2009-04-18 03:00","2009","04","18","03:00","12.5","","0.4","","43","","28","","13","","24.1","","99.69","","","","","","Mostly Cloudy"
"2009-04-18 04:00","2009","04","18","04:00","11.7","","0.4","","46","","28","","13","","24.1","","99.67","","","","","","Mostly Cloudy"
"2009-04-18 05:00","2009","04","18","05:00","11.7","","0.3","","45","","29","","11","","24.1","","99.64","","","","","","Mostly Cloudy"
"2009-04-18 06:00","2009","04","18","06:00","10.4","","-0.1","","48","","26","","7","","24.1","","99.59","","","","","","Mostly Cloudy"
"2009-04-18 07:00","2009","04","18","07:00","13.0","","-1.2","","37","","29","","17","","24.1","","99.60","","","","","","Mostly Cloudy"
"2009-04-18 08:00","2009","04","18","08:00","14.8","","-1.3","","33","","28","","17","","24.1","","99.59","","","","","","Mostly Cloudy"
"2009-04-18 09:00","2009","04","18","09:00","15.1","","-0.1","","35","","28","","17","","24.1","","99.59","","","","","","Mostly Cloudy"
"2009-04-18 10:00","2009","04","18","10:00","15.6","","0.6","","36","","29","","11","","24.1","","99.56","","","","","","Cloudy"
"2009-04-18 11:00","2009","04","18","11:00","16.6","","1.2","","35","","27","","11","","24.1","","99.57","","","","","","Cloudy"
"2009-04-18 12:00","2009","04","18","12:00","18.3","","1.8","","33","","","","0","","24.1","","99.51","","","","","","Mostly Cloudy"
"2009-04-18 13:00","2009","04","18","13:00","19.4","","2.2","","32","","10","","7","","24.1","","99.41","","","","","","Mostly Cloudy"
"2009-04-18 14:00","2009","04","18","14:00","20.3","","3.3","","32","","14","","15","","24.1","","99.34","","","","","","Mostly Cloudy"
"2009-04-18 15:00","2009","04","18","15:00","19.9","","2.6","","32","","14","","11","","24.1","","99.28","","","","","","Cloudy"
"2009-04-18 16:00","2009","04","18","16:00","17.8","","1.1","","32","","9","","9","","24.1","","99.31","","","","","","Mostly Cloudy"
"2009-04-18 17:00","2009","04","18","17:00","18.0","","2.6","","36","","2","","15","","24.1","","99.34","","","","","","Mostly Cloudy"
"2009-04-18 18:00","2009","04","18","18:00","15.7","","1.9","","39","","2","","19","","24.1","","99.39","","","","","","Mostly Cloudy"
"2009-04-18 19:00","2009","04","18","19:00","14.4","","1.8","","42","","2","","20","","24.1","","99.39","","","","","","Cloudy"
"2009-04-18 20:00","2009","04","18","20:00","13.4","","-0.2","","39","","35","","19","","24.1","","99.57","","","","","","Cloudy"
"2009-04-18 21:00","2009","04","18","21:00","10.0","","2.5","","60","","13","","9","","24.1","","99.69","","","","","","Mostly Cloudy"
"2009-04-18 22:00","2009","04","18","22:00","8.9","","3.3","","68","","10","","19","","24.1","","99.73","","","","","","Mostly Cloudy"
"2009-04-18 23:00","2009","04","18","23:00","8.9","","3.7","","70","","10","","11","","24.1","","99.73","","","","","","Mostly Cloudy"
"2009-04-19 00:00","2009","04","19","00:00","8.5","","3.2","","69","","8","","19","","24.1","","99.80","","","","","","Cloudy"
"2009-04-19 01:00","2009","04","19","01:00","8.0","","2.2","","67","","5","","15","","24.1","","99.83","","","","","","Cloudy"
"2009-04-19 02:00","2009","04","19","02:00","7.5","","1.2","","64","","6","","20","","24.1","","99.82","","","","","","Cloudy"
"2009-04-19 03:00","2009","04","19","03:00","7.2","","0.2","","61","","7","","24","","24.1","","99.82","","","","","","Cloudy"
"2009-04-19 04:00","2009","04","19","04:00","6.5","","-0.7","","60","","6","","15","","24.1","","99.84","","","","","","Mostly Cloudy"
"2009-04-19 05:00","2009","04","19","05:00","5.8","","-2.7","","54","","6","","19","","24.1","","99.89","","","","","","Mostly Cloudy"
"2009-04-19 06:00","2009","04","19","06:00","5.4","","-3.7","","52","","7","","13","","24.1","","99.98","","","","","","Mostly Cloudy"
"2009-04-19 07:00","2009","04","19","07:00","5.8","","-6.4","","41","","9","","15","","24.1","","100.03","","","","","","Mostly Cloudy"
"2009-04-19 08:00","2009","04","19","08:00","7.1","","-10.4","","28","","9","","26","","24.1","","100.05","","","","","","Mostly Cloudy"
"2009-04-19 09:00","2009","04","19","09:00","7.7","","-10.0","","27","","10","","26","","24.1","","100.02","","","","","","Mostly Cloudy"
"2009-04-19 10:00","2009","04","19","10:00","7.9","","-9.8","","27","","9","","24","","24.1","","100.00","","","","","","Mostly Cloudy"
"2009-04-19 11:00","2009","04","19","11:00","9.0","","-7.8","","30","","10","","26","","24.1","","99.98","","","","","","Mostly Cloudy"
"2009-04-19 12:00","2009","04","19","12:00","10.1","","-8.7","","26","","10","","28","","24.1","","99.96","","","","","","Mostly Cloudy"
"2009-04-19 13:00","2009","04","19","13:00","10.7","","-10.0","","22","","8","","35","","24.1","","99.88","","","","","","Mostly Cloudy"
"2009-04-19 14:00","2009","04","19","14:00","11.5","","-11.4","","19","","10","","24","","24.1","","99.86","","","","","","Mostly Cloudy"
"2009-04-19 15:00","2009","04","19","15:00","11.5","","-9.0","","23","","10","","26","","24.1","","99.80","","","","","","Mostly Cloudy"
"2009-04-19 16:00","2009","04","19","16:00","10.8","","-9.0","","24","","9","","20","","24.1","","99.74","","","","","","Mostly Cloudy"
"2009-04-19 17:00","2009","04","19","17:00","10.3","","-10.3","","22","","10","","32","","24.1","","99.67","","","","","","Mostly Cloudy"
"2009-04-19 18:00","2009","04","19","18:00","10.1","","-10.0","","23","","9","","20","","24.1","","99.65","","","","","","Mostly Cloudy"
"2009-04-19 19:00","2009","04","19","19:00","9.7","","-9.9","","24","","9","","26","","24.1","","99.61","","","","","","Mostly Cloudy"
"2009-04-19 20:00","2009","04","19","20:00","9.0","","-9.4","","26","","9","","17","","24.1","","99.60","","","","","","Mostly Cloudy"
"2009-04-19 21:00","2009","04","19","21:00","9.9","","-8.1","","27","","9","","24","","24.1","","99.58","","","","","","Mostly Cloudy"
"2009-04-19 22:00","2009","04","19","22:00","9.9","","-8.0","","27","","9","","26","","24.1","","99.52","","","","","","Cloudy"
"2009-04-19 23:00","2009","04","19","23:00","9.8","","-8.4","","27","","9","","33","","24.1","","99.43","","","","","","Mostly Cloudy"
"2009-04-20 00:00","2009","04","20","00:00","9.2","","-7.4","","30","","9","","37","","24.1","","99.34","","","","","","Mostly Cloudy"
"2009-04-20 01:00","2009","04","20","01:00","9.2","","-6.6","","32","","9","","33","","24.1","","99.21","","","","","","Mostly Cloudy"
"2009-04-20 02:00","2009","04","20","02:00","9.1","","-5.2","","36","","9","","39","","24.1","","99.12","","","","","","Cloudy"
"2009-04-20 03:00","2009","04","20","03:00","8.2","","-4.3","","41","","10","","37","","24.1","","99.09","","","","","","Cloudy"
"2009-04-20 04:00","2009","04","20","04:00","6.5","","-1.6","","56","","9","","22","","24.1","","99.06","","","","","","Rain"
"2009-04-20 05:00","2009","04","20","05:00","5.8","","-0.5","","64","","8","","22","","19.3","","98.96","","","","","","Rain"
"2009-04-20 06:00","2009","04","20","06:00","6.1","","1.2","","71","","9","","15","","19.3","","98.94","","","","","","Rain"
"2009-04-20 07:00","2009","04","20","07:00","6.4","","3.1","","79","","9","","15","","11.3","","98.89","","","","","","Rain"
"2009-04-20 08:00","2009","04","20","08:00","7.5","","4.8","","83","","11","","24","","9.7","","98.87","","","","","","Rain"
"2009-04-20 09:00","2009","04","20","09:00","6.5","","3.9","","83","","11","","26","","6.4","","98.84","","","","","","Rain"
"2009-04-20 10:00","2009","04","20","10:00","5.7","","3.2","","84","","10","","33","","8.0","","98.80","","","","","","Rain"
"2009-04-20 11:00","2009","04","20","11:00","5.6","","3.0","","83","","10","","30","","9.7","","98.74","","","","","","Rain"
"2009-04-20 12:00","2009","04","20","12:00","5.5","","2.9","","83","","10","","37","","8.0","","98.67","","","","","","Rain"
"2009-04-20 13:00","2009","04","20","13:00","5.1","","2.9","","86","","9","","30","","8.0","","98.59","","","","","","Rain"
"2009-04-20 14:00","2009","04","20","14:00","5.1","","3.1","","87","","9","","30","","9.7","","98.53","","","","","","Rain"
"2009-04-20 15:00","2009","04","20","15:00","5.1","","3.0","","86","","9","","37","","8.0","","98.44","","","","","","Rain"
"2009-04-20 16:00","2009","04","20","16:00","4.8","","2.7","","86","","9","","35","","9.7","","98.39","","","","","","Rain"
"2009-04-20 17:00","2009","04","20","17:00","4.7","","2.5","","86","","9","","39","","6.4","","98.34","","","","","","Rain"
"2009-04-20 18:00","2009","04","20","18:00","4.4","","2.4","","87","","9","","39","","4.8","","98.35","","","","","","Rain,Fog"
"2009-04-20 19:00","2009","04","20","19:00","4.4","","2.4","","87","","9","","35","","8.0","","98.39","","","","","","Rain,Fog"
"2009-04-20 20:00","2009","04","20","20:00","4.4","","2.4","","87","","9","","33","","11.3","","98.42","","","","","","Rain"
"2009-04-20 21:00","2009","04","20","21:00","4.4","","2.4","","87","","9","","28","","11.3","","98.43","","","","","","Rain"
"2009-04-20 22:00","2009","04","20","22:00","4.7","","2.7","","87","","13","","9","","8.0","","98.44","","","","","","Rain,Fog"
"2009-04-20 23:00","2009","04","20","23:00","5.5","","3.8","","89","","15","","15","","9.7","","98.45","","","","","","Drizzle,Fog"
"2009-04-21 00:00","2009","04","21","00:00","6.0","","4.2","","88","","18","","11","","16.1","","98.44","","","","","","Cloudy"
"2009-04-21 01:00","2009","04","21","01:00","6.3","","3.8","","84","","23","","11","","24.1","","98.43","","","","","","Mainly Clear"
"2009-04-21 02:00","2009","04","21","02:00","5.2","","2.6","","83","","14","","9","","24.1","","98.42","","","","","","Mainly Clear"
"2009-04-21 03:00","2009","04","21","03:00","4.7","","2.3","","84","","14","","7","","24.1","","98.43","","","","","","Mainly Clear"
"2009-04-21 04:00","2009","04","21","04:00","4.1","","2.0","","86","","15","","7","","24.1","","98.46","","","","","","Mainly Clear"
"2009-04-21 05:00","2009","04","21","05:00","4.0","","2.1","","87","","15","","7","","19.3","","98.42","","","","","","Mainly Clear"
"2009-04-21 06:00","2009","04","21","06:00","4.9","","2.8","","86","","14","","9","","8.0","","98.40","","","","","","Haze"
"2009-04-21 07:00","2009","04","21","07:00","5.8","","3.9","","88","","13","","9","","9.7","","98.40","","","","","","Haze"
"2009-04-21 08:00","2009","04","21","08:00","6.7","","4.5","","86","","14","","11","","16.1","","98.41","","","","","","Cloudy"
"2009-04-21 09:00","2009","04","21","09:00","6.9","","4.4","","84","","15","","13","","19.3","","98.41","","","","","","Cloudy"
"2009-04-21 10:00","2009","04","21","10:00","9.0","","5.3","","78","","15","","13","","24.1","","98.34","","","","","","Mostly Cloudy"
"2009-04-21 11:00","2009","04","21","11:00","10.3","","4.6","","68","","15","","20","","24.1","","98.27","","","","","","Mostly Cloudy"
"2009-04-21 12:00","2009","04","21","12:00","11.1","","4.6","","64","","16","","24","","24.1","","98.21","","","","","","Mostly Cloudy"
"2009-04-21 13:00","2009","04","21","13:00","11.1","","3.5","","59","","15","","26","","24.1","","98.18","","","","","","Cloudy"
"2009-04-21 14:00","2009","04","21","14:00","9.9","","3.8","","66","","17","","20","","24.1","","98.18","","","","","","Rain Showers"
"2009-04-21 15:00","2009","04","21","15:00","8.4","","3.5","","71","","14","","19","","24.1","","98.14","","","","","","Rain Showers"
"2009-04-21 16:00","2009","04","21","16:00","8.5","","4.4","","75","","16","","19","","16.1","","98.16","","","","","","Rain Showers"
"2009-04-21 17:00","2009","04","21","17:00","8.8","","4.8","","76","","16","","13","","24.1","","98.17","","","","","","Mostly Cloudy"
"2009-04-21 18:00","2009","04","21","18:00","8.4","","3.7","","72","","15","","15","","24.1","","98.15","","","","","","Mostly Cloudy"
"2009-04-21 19:00","2009","04","21","19:00","6.6","","2.4","","75","","14","","11","","24.1","","98.26","","","","","","Mostly Cloudy"
"2009-04-21 20:00","2009","04","21","20:00","6.3","","2.9","","79","","15","","13","","24.1","","98.19","","","","","","Mostly Cloudy"
"2009-04-21 21:00","2009","04","21","21:00","6.1","","2.3","","77","","17","","13","","24.1","","98.17","","","","","","Mainly Clear"
"2009-04-21 22:00","2009","04","21","22:00","6.2","","2.0","","74","","17","","11","","24.1","","98.15","","","","","","Mostly Cloudy"
"2009-04-21 23:00","2009","04","21","23:00","5.6","","1.6","","75","","17","","15","","24.1","","98.14","","","","","","Mostly Cloudy"
"2009-04-22 00:00","2009","04","22","00:00","5.2","","1.7","","78","","17","","15","","24.1","","98.11","","","","","","Mostly Cloudy"
"2009-04-22 01:00","2009","04","22","01:00","4.9","","1.8","","80","","18","","13","","24.1","","98.05","","","","","","Mostly Cloudy"
"2009-04-22 02:00","2009","04","22","02:00","5.3","","1.5","","76","","20","","19","","24.1","","98.02","","","","","","Mostly Cloudy"
"2009-04-22 03:00","2009","04","22","03:00","5.2","","0.8","","73","","22","","24","","24.1","","98.02","","","","","","Mostly Cloudy"
"2009-04-22 04:00","2009","04","22","04:00","4.8","","0.5","","74","","21","","17","","24.1","","98.05","","","","","","Mostly Cloudy"
"2009-04-22 05:00","2009","04","22","05:00","4.4","","-0.2","","72","","22","","19","","24.1","","98.08","","","","","","Mostly Cloudy"
"2009-04-22 06:00","2009","04","22","06:00","4.5","","-0.1","","72","","22","","19","","24.1","","98.10","","","","","","Mostly Cloudy"
"2009-04-22 07:00","2009","04","22","07:00","4.8","","-0.1","","71","","23","","17","","24.1","","98.17","","","","","","Mostly Cloudy"
"2009-04-22 08:00","2009","04","22","08:00","5.1","","0.5","","72","","24","","15","","24.1","","98.22","","","","","","Cloudy"
"2009-04-22 09:00","2009","04","22","09:00","5.5","","0.8","","72","","25","","24","","24.1","","98.26","","","","","","Cloudy"
"2009-04-22 10:00","2009","04","22","10:00","7.0","","1.5","","68","","25","","26","","24.1","","98.31","","","","","","Cloudy"
"2009-04-22 11:00","2009","04","22","11:00","6.6","","1.1","","68","","26","","26","","24.1","","98.34","","","","","","Rain Showers"
"2009-04-22 12:00","2009","04","22","12:00","6.6","","0.8","","66","","24","","33","","24.1","","98.39","","","","","","Cloudy"
"2009-04-22 13:00","2009","04","22","13:00","7.7","","1.6","","65","","26","","24","","24.1","","98.39","","","","","","Cloudy"
"2009-04-22 14:00","2009","04","22","14:00","6.8","","1.2","","67","","27","","28","","24.1","","98.44","","","","","","Rain Showers"
"2009-04-22 15:00","2009","04","22","15:00","7.2","","0.6","","63","","27","","32","","24.1","","98.45","","","","","","Cloudy"
"2009-04-22 16:00","2009","04","22","16:00","6.5","","0.4","","65","","28","","32","","24.1","","98.50","","","","","","Cloudy"
"2009-04-22 17:00","2009","04","22","17:00","6.6","","-0.5","","60","","30","","26","","24.1","","98.54","","","","","","Rain Showers"
"2009-04-22 18:00","2009","04","22","18:00","6.2","","-0.9","","60","","30","","28","","24.1","","98.57","","","","","","Cloudy"
"2009-04-22 19:00","2009","04","22","19:00","6.1","","-1.3","","59","","31","","35","","24.1","","98.61","","","","","","Cloudy"
"2009-04-22 20:00","2009","04","22","20:00","4.7","","-1.8","","63","","30","","33","","24.1","","98.69","","","","","","Cloudy"
"2009-04-22 21:00","2009","04","22","21:00","4.1","","-1.9","","65","","29","","30","","24.1","","98.75","","","","","","Cloudy"
"2009-04-22 22:00","2009","04","22","22:00","3.9","","-1.8","","66","","30","","26","","24.1","","98.75","","","","","","Cloudy"
"2009-04-22 23:00","2009","04","22","23:00","3.8","","-1.8","","67","","31","","33","","24.1","","98.75","","","","","","Mostly Cloudy"
"2009-04-23 00:00","2009","04","23","00:00","3.7","","-1.6","","68","","29","","32","","24.1","","98.78","","","","","","Mostly Cloudy"
"2009-04-23 01:00","2009","04","23","01:00","3.8","","-1.2","","70","","30","","32","","24.1","","98.79","","","","","","Rain Showers"
"2009-04-23 02:00","2009","04","23","02:00","3.8","","-1.1","","70","","30","","32","","24.1","","98.81","","","","","","Cloudy"
"2009-04-23 03:00","2009","04","23","03:00","3.9","","-0.9","","71","","31","","24","","24.1","","98.89","","","","","","Cloudy"
"2009-04-23 04:00","2009","04","23","04:00","4.2","","-0.3","","72","","32","","30","","24.1","","98.99","","","","","","Cloudy"
"2009-04-23 05:00","2009","04","23","05:00","4.3","","-0.5","","71","","32","","35","","24.1","","99.08","","","","","","Mostly Cloudy"
"2009-04-23 06:00","2009","04","23","06:00","3.9","","-1.7","","67","","34","","33","","24.1","","99.21","","","","","","Mostly Cloudy"
"2009-04-23 07:00","2009","04","23","07:00","4.0","","-1.8","","66","","33","","30","","24.1","","99.35","","","","","","Mostly Cloudy"
"2009-04-23 08:00","2009","04","23","08:00","4.7","","-1.7","","63","","32","","33","","24.1","","99.49","","","","","","Mostly Cloudy"
"2009-04-23 09:00","2009","04","23","09:00","5.6","","-1.2","","62","","33","","33","","24.1","","99.58","","","","","","Mostly Cloudy"
"2009-04-23 10:00","2009","04","23","10:00","7.2","","-0.3","","59","","31","","32","","24.1","","99.65","","","","","","Mainly Clear"
"2009-04-23 11:00","2009","04","23","11:00","8.6","","0.6","","57","","29","","28","","24.1","","99.69","","","","","","Mainly Clear"
"2009-04-23 12:00","2009","04","23","12:00","9.9","","0.0","","50","","31","","22","","24.1","","99.69","","","","","","Mainly Clear"
"2009-04-23 13:00","2009","04","23","13:00","10.0","","0.0","","50","","27","","19","","24.1","","99.71","","","","","","Mostly Cloudy"
"2009-04-23 14:00","2009","04","23","14:00","10.7","","1.1","","51","","27","","24","","24.1","","99.75","","","","","","Mostly Cloudy"
"2009-04-23 15:00","2009","04","23","15:00","11.1","","1.1","","50","","27","","32","","24.1","","99.75","","","","","","Mainly Clear"
"2009-04-23 16:00","2009","04","23","16:00","11.6","","0.7","","47","","28","","26","","24.1","","99.79","","","","","","Mainly Clear"
"2009-04-23 17:00","2009","04","23","17:00","10.6","","0.9","","51","","28","","24","","24.1","","99.82","","","","","","Mainly Clear"
"2009-04-23 18:00","2009","04","23","18:00","10.0","","0.3","","51","","27","","24","","24.1","","99.82","","","","","","Mainly Clear"
"2009-04-23 19:00","2009","04","23","19:00","8.4","","-1.0","","52","","27","","19","","24.1","","99.79","","","","","","Mainly Clear"
"2009-04-23 20:00","2009","04","23","20:00","6.8","","-1.6","","55","","26","","9","","24.1","","99.85","","","","","","Mainly Clear"
"2009-04-23 21:00","2009","04","23","21:00","6.7","","-1.2","","57","","23","","9","","24.1","","99.89","","","","","","Mainly Clear"
"2009-04-23 22:00","2009","04","23","22:00","7.4","","-1.0","","55","","22","","4","","24.1","","99.94","","","","","","Clear"
"2009-04-23 23:00","2009","04","23","23:00","6.4","","-0.5","","61","","22","","15","","24.1","","99.91","","","","","","Mainly Clear"
"2009-04-24 00:00","2009","04","24","00:00","6.2","","0.1","","65","","22","","4","","24.1","","99.92","","","","","","Mainly Clear"
"2009-04-24 01:00","2009","04","24","01:00","6.2","","-0.3","","63","","19","","9","","24.1","","99.87","","","","","","Mostly Cloudy"
"2009-04-24 02:00","2009","04","24","02:00","5.7","","0.8","","71","","11","","6","","24.1","","99.86","","","","","","Mostly Cloudy"
"2009-04-24 03:00","2009","04","24","03:00","5.3","","0.4","","71","","15","","7","","24.1","","99.86","","","","","","Mostly Cloudy"
"2009-04-24 04:00","2009","04","24","04:00","5.3","","0.5","","71","","16","","7","","24.1","","99.84","","","","","","Mainly Clear"
"2009-04-24 05:00","2009","04","24","05:00","5.4","","0.0","","68","","17","","6","","24.1","","99.86","","","","","","Mainly Clear"
"2009-04-24 06:00","2009","04","24","06:00","4.8","","0.1","","72","","10","","9","","24.1","","99.83","","","","","","Clear"
"2009-04-24 07:00","2009","04","24","07:00","6.8","","-0.1","","61","","12","","9","","24.1","","99.83","","","","","","Mainly Clear"
"2009-04-24 08:00","2009","04","24","08:00","8.6","","0.3","","56","","13","","11","","24.1","","99.82","","","","","","Mainly Clear"
"2009-04-24 09:00","2009","04","24","09:00","10.6","","0.4","","49","","13","","17","","24.1","","99.67","","","","","","Mainly Clear"
"2009-04-24 10:00","2009","04","24","10:00","12.5","","1.3","","46","","16","","15","","24.1","","99.66","","","","","","Mainly Clear"
"2009-04-24 11:00","2009","04","24","11:00","15.0","","1.8","","41","","14","","20","","24.1","","99.59","","","","","","Mainly Clear"
"2009-04-24 12:00","2009","04","24","12:00","16.9","","2.7","","39","","15","","19","","24.1","","99.52","","","","","","Mostly Cloudy"
"2009-04-24 13:00","2009","04","24","13:00","17.8","","2.8","","37","","13","","22","","24.1","","99.43","","","","","","Mainly Clear"
"2009-04-24 14:00","2009","04","24","14:00","19.1","","3.3","","35","","13","","19","","24.1","","99.39","","","","","","Mostly Cloudy"
"2009-04-24 15:00","2009","04","24","15:00","18.4","","4.1","","39","","14","","20","","24.1","","99.32","","","","","","Mostly Cloudy"
"2009-04-24 16:00","2009","04","24","16:00","17.7","","3.8","","40","","10","","13","","24.1","","99.23","","","","","","Cloudy"
"2009-04-24 17:00","2009","04","24","17:00","17.0","","4.3","","43","","8","","11","","24.1","","99.16","","","","","","Cloudy"
"2009-04-24 18:00","2009","04","24","18:00","16.2","","6.4","","52","","5","","11","","24.1","","99.17","","","","","","Mostly Cloudy"
"2009-04-24 19:00","2009","04","24","19:00","15.0","","6.7","","58","","36","","11","","24.1","","99.23","","","","","","Mostly Cloudy"
"2009-04-24 20:00","2009","04","24","20:00","13.6","","6.5","","62","","36","","6","","24.1","","99.29","","","","","","Mostly Cloudy"
"2009-04-24 21:00","2009","04","24","21:00","13.5","","7.6","","67","","36","","4","","24.1","","99.34","","","","","","Mostly Cloudy"
"2009-04-24 22:00","2009","04","24","22:00","13.5","","7.8","","68","","20","","6","","24.1","","99.35","","","","","","Mostly Cloudy"
"2009-04-24 23:00","2009","04","24","23:00","13.4","","7.6","","68","","15","","9","","24.1","","99.33","","","","","","Mostly Cloudy"
"2009-04-25 00:00","2009","04","25","00:00","11.1","","4.7","","65","","17","","9","","24.1","","99.32","","","","","","Mostly Cloudy"
"2009-04-25 01:00","2009","04","25","01:00","10.7","","3.8","","62","","12","","6","","24.1","","99.31","","","","","","Mainly Clear"
"2009-04-25 02:00","2009","04","25","02:00","10.7","","3.9","","63","","15","","6","","24.1","","99.27","","","","","","Mainly Clear"
"2009-04-25 03:00","2009","04","25","03:00","12.6","","4.7","","59","","13","","6","","24.1","","99.31","","","","","","Mainly Clear"
"2009-04-25 04:00","2009","04","25","04:00","14.2","","6.3","","59","","18","","6","","24.1","","99.30","","","","","","Mostly Cloudy"
"2009-04-25 05:00","2009","04","25","05:00","17.4","","7.8","","53","","20","","11","","24.1","","99.29","","","","","","Mostly Cloudy"
"2009-04-25 06:00","2009","04","25","06:00","17.0","","8.4","","57","","20","","11","","24.1","","99.38","","","","","","Mostly Cloudy"
"2009-04-25 07:00","2009","04","25","07:00","18.0","","9.4","","57","","21","","15","","24.1","","99.45","","","","","","Mostly Cloudy"
"2009-04-25 08:00","2009","04","25","08:00","19.9","","10.0","","53","","21","","15","","24.1","","99.50","","","","","","Mostly Cloudy"
"2009-04-25 09:00","2009","04","25","09:00","21.7","","11.0","","51","","23","","26","","24.1","","99.53","","","","","","Mostly Cloudy"
"2009-04-25 10:00","2009","04","25","10:00","23.5","","12.2","","49","","22","","26","","24.1","","99.52","","26","","","","Mostly Cloudy"
"2009-04-25 11:00","2009","04","25","11:00","25.0","","13.5","","49","","21","","26","","24.1","","99.49","","28","","","","Mostly Cloudy"
"2009-04-25 12:00","2009","04","25","12:00","25.6","","14.0","","49","","23","","33","","24.1","","99.46","","29","","","","Mostly Cloudy"
"2009-04-25 13:00","2009","04","25","13:00","26.3","","14.5","","48","","22","","39","","24.1","","99.45","","30","","","","Mostly Cloudy"
"2009-04-25 14:00","2009","04","25","14:00","27.4","","14.9","","46","","22","","44","","24.1","","99.37","","31","","","","Mainly Clear"
"2009-04-25 15:00","2009","04","25","15:00","27.0","","14.8","","47","","22","","46","","24.1","","99.37","","31","","","","Mostly Cloudy"
"2009-04-25 16:00","2009","04","25","16:00","26.0","","14.0","","48","","23","","54","","19.3","","99.39","","29","","","","Cloudy"
"2009-04-25 17:00","2009","04","25","17:00","17.3","","14.4","","83","","26","","35","","16.1","","99.66","","","","","","Thunderstorms,Moderate Rain Showers"
"2009-04-25 18:00","2009","04","25","18:00","17.4","","13.9","","80","","25","","30","","19.3","","99.60","","","","","","Rain Showers"
"2009-04-25 19:00","2009","04","25","19:00","17.7","","14.6","","82","","23","","22","","24.1","","99.67","","","","","","Cloudy"
"2009-04-25 20:00","2009","04","25","20:00","18.1","","14.5","","79","","25","","28","","24.1","","99.70","","","","","","Rain Showers"
"2009-04-25 21:00","2009","04","25","21:00","17.8","","14.4","","80","","29","","19","","19.3","","99.88","","","","","","Rain Showers"
"2009-04-25 22:00","2009","04","25","22:00","17.4","","14.4","","83","","26","","11","","24.1","","99.93","","","","","","Rain Showers"
"2009-04-25 23:00","2009","04","25","23:00","16.7","","14.3","","86","","25","","15","","19.3","","99.99","","","","","","Rain"
"2009-04-26 00:00","2009","04","26","00:00","16.7","","14.6","","87","","36","","4","","24.1","","99.92","","","","","","Rain"
"2009-04-26 01:00","2009","04","26","01:00","16.2","","13.9","","86","","34","","15","","24.1","","99.97","","","","","","Mostly Cloudy"
"2009-04-26 02:00","2009","04","26","02:00","11.6","","9.4","","86","","36","","24","","16.1","","100.05","","","","","","Rain"
"2009-04-26 03:00","2009","04","26","03:00","11.2","","9.2","","87","","36","","19","","24.1","","100.03","","","","","","Rain"
"2009-04-26 04:00","2009","04","26","04:00","9.8","","7.8","","87","","36","","33","","19.3","","100.18","","","","","","Rain Showers"
"2009-04-26 05:00","2009","04","26","05:00","8.9","","6.7","","86","","1","","19","","24.1","","100.18","","","","","","Cloudy"
"2009-04-26 06:00","2009","04","26","06:00","8.9","","6.7","","86","","35","","20","","24.1","","100.33","","","","","","Cloudy"
"2009-04-26 07:00","2009","04","26","07:00","9.7","","7.6","","87","","2","","7","","24.1","","100.39","","","","","","Cloudy"
"2009-04-26 08:00","2009","04","26","08:00","10.3","","8.4","","88","","1","","7","","2.4","","100.47","","","","","","Fog"
"2009-04-26 09:00","2009","04","26","09:00","9.9","","8.1","","89","","8","","9","","2.0","","100.50","","","","","","Drizzle,Fog"
"2009-04-26 10:00","2009","04","26","10:00","8.2","","6.3","","88","","11","","20","","6.4","","100.54","","","","","","Fog"
"2009-04-26 11:00","2009","04","26","11:00","8.3","","5.8","","84","","10","","19","","24.1","","100.53","","","","","","Cloudy"
"2009-04-26 12:00","2009","04","26","12:00","8.6","","5.0","","78","","10","","22","","24.1","","100.48","","","","","","Cloudy"
"2009-04-26 13:00","2009","04","26","13:00","8.5","","3.9","","73","","7","","19","","24.1","","100.51","","","","","","Cloudy"
"2009-04-26 14:00","2009","04","26","14:00","9.3","","4.3","","71","","8","","22","","24.1","","100.45","","","","","","Cloudy"
"2009-04-26 15:00","2009","04","26","15:00","10.2","","5.0","","70","","10","","17","","24.1","","100.43","","","","","","Cloudy"
"2009-04-26 16:00","2009","04","26","16:00","11.0","","4.6","","65","","10","","15","","24.1","","100.43","","","","","","Mostly Cloudy"
"2009-04-26 17:00","2009","04","26","17:00","11.6","","5.2","","65","","11","","17","","24.1","","100.36","","","","","","Mostly Cloudy"
"2009-04-26 18:00","2009","04","26","18:00","11.1","","5.2","","67","","9","","11","","24.1","","100.35","","","","","","Mostly Cloudy"
"2009-04-26 19:00","2009","04","26","19:00","10.5","","4.9","","68","","7","","11","","24.1","","100.45","","","","","","Mostly Cloudy"
"2009-04-26 20:00","2009","04","26","20:00","10.0","","4.4","","68","","12","","9","","24.1","","100.48","","","","","","Mostly Cloudy"
"2009-04-26 21:00","2009","04","26","21:00","10.3","","4.4","","67","","11","","15","","24.1","","100.40","","","","","","Mostly Cloudy"
"2009-04-26 22:00","2009","04","26","22:00","8.6","","3.7","","71","","14","","11","","24.1","","100.43","","","","","","Mostly Cloudy"
"2009-04-26 23:00","2009","04","26","23:00","9.0","","3.8","","70","","11","","9","","24.1","","100.39","","","","","","Mostly Cloudy"
"2009-04-27 00:00","2009","04","27","00:00","8.5","","3.7","","72","","10","","15","","24.1","","100.34","","","","","","Cloudy"
"2009-04-27 01:00","2009","04","27","01:00","8.2","","3.6","","73","","9","","9","","24.1","","100.30","","","","","","Mostly Cloudy"
"2009-04-27 02:00","2009","04","27","02:00","7.9","","3.0","","71","","9","","9","","24.1","","100.21","","","","","","Mainly Clear"
"2009-04-27 03:00","2009","04","27","03:00","7.6","","2.5","","70","","8","","6","","24.1","","100.18","","","","","","Mainly Clear"
"2009-04-27 04:00","2009","04","27","04:00","7.3","","2.5","","72","","11","","4","","24.1","","100.18","","","","","","Mainly Clear"
"2009-04-27 05:00","2009","04","27","05:00","7.3","","2.4","","71","","6","","4","","24.1","","100.18","","","","","","Mainly Clear"
"2009-04-27 06:00","2009","04","27","06:00","8.2","","2.7","","68","","6","","6","","24.1","","100.18","","","","","","Mainly Clear"
"2009-04-27 07:00","2009","04","27","07:00","8.9","","3.1","","67","","9","","7","","24.1","","100.18","","","","","","Mainly Clear"
"2009-04-27 08:00","2009","04","27","08:00","11.0","","4.6","","65","","16","","6","","24.1","","100.17","","","","","","Mainly Clear"
"2009-04-27 09:00","2009","04","27","09:00","13.5","","6.4","","62","","21","","6","","24.1","","100.19","","","","","","Mainly Clear"
"2009-04-27 10:00","2009","04","27","10:00","14.7","","7.2","","61","","16","","11","","24.1","","100.15","","","","","","Mainly Clear"
"2009-04-27 11:00","2009","04","27","11:00","15.9","","8.0","","59","","15","","11","","24.1","","100.13","","","","","","Mainly Clear"
"2009-04-27 12:00","2009","04","27","12:00","19.2","","10.1","","56","","15","","17","","24.1","","100.05","","","","","","Mainly Clear"
"2009-04-27 13:00","2009","04","27","13:00","19.4","","9.9","","54","","15","","20","","24.1","","99.99","","","","","","Mainly Clear"
"2009-04-27 14:00","2009","04","27","14:00","26.6","","13.4","","44","","23","","43","","24.1","","99.96","","30","","","","Mainly Clear"
"2009-04-27 15:00","2009","04","27","15:00","26.5","","12.5","","42","","23","","52","","24.1","","99.90","","29","","","","Mainly Clear"
"2009-04-27 16:00","2009","04","27","16:00","27.1","","12.0","","39","","23","","43","","24.1","","99.85","","29","","","","Mostly Cloudy"
"2009-04-27 17:00","2009","04","27","17:00","26.0","","12.1","","42","","24","","41","","24.1","","99.86","","28","","","","Mostly Cloudy"
"2009-04-27 18:00","2009","04","27","18:00","25.6","","12.1","","43","","24","","41","","24.1","","99.82","","28","","","","Mostly Cloudy"
"2009-04-27 19:00","2009","04","27","19:00","25.2","","11.8","","43","","22","","28","","24.1","","99.80","","27","","","","Mostly Cloudy"
"2009-04-27 20:00","2009","04","27","20:00","23.9","","11.4","","45","","22","","24","","24.1","","99.81","","26","","","","Mostly Cloudy"
"2009-04-27 21:00","2009","04","27","21:00","23.3","","11.3","","47","","23","","20","","24.1","","99.81","","25","","","","Mostly Cloudy"
"2009-04-27 22:00","2009","04","27","22:00","20.8","","13.4","","63","","31","","32","","24.1","","99.88","","","","","","Mostly Cloudy"
"2009-04-27 23:00","2009","04","27","23:00","18.8","","13.8","","73","","31","","20","","24.1","","99.92","","","","","","Mostly Cloudy"
"2009-04-28 00:00","2009","04","28","00:00","17.6","","13.5","","77","","31","","15","","24.1","","99.90","","","","","","Mostly Cloudy"
"2009-04-28 01:00","2009","04","28","01:00","17.0","","13.0","","77","","28","","9","","24.1","","99.88","","","","","","Mostly Cloudy"
"2009-04-28 02:00","2009","04","28","02:00","16.3","","12.5","","78","","28","","9","","24.1","","99.89","","","","","","Mostly Cloudy"
"2009-04-28 03:00","2009","04","28","03:00","15.4","","12.2","","81","","24","","9","","24.1","","99.88","","","","","","Mostly Cloudy"
"2009-04-28 04:00","2009","04","28","04:00","15.8","","12.6","","81","","23","","13","","24.1","","99.86","","","","","","Mostly Cloudy"
"2009-04-28 05:00","2009","04","28","05:00","16.4","","12.9","","80","","22","","9","","24.1","","99.88","","","","","","Cloudy"
"2009-04-28 06:00","2009","04","28","06:00","15.8","","13.3","","85","","26","","7","","16.1","","99.89","","","","","","Rain"
"2009-04-28 07:00","2009","04","28","07:00","10.7","","8.5","","86","","35","","50","","4.8","","100.01","","","","","","Heavy Rain,Fog"
"2009-04-28 08:00","2009","04","28","08:00","9.3","","9.3","","100","","35","","32","","6.4","","100.15","","","","","","Rain"
"2009-04-28 09:00","2009","04","28","09:00","9.1","","9.1","","100","","36","","37","","19.3","","100.18","","","","","","Rain"
"2009-04-28 10:00","2009","04","28","10:00","8.3","","8.3","","100","","34","","33","","19.3","","100.35","","","","","","Rain"
"2009-04-28 11:00","2009","04","28","11:00","7.3","","7.3","","100","","34","","35","","16.1","","100.44","","","","","","Rain"
"2009-04-28 12:00","2009","04","28","12:00","7.7","","7.7","","100","","34","","35","","24.1","","100.49","","","","","","Cloudy"
"2009-04-28 13:00","2009","04","28","13:00","8.5","","8.5","","100","","35","","43","","24.1","","100.57","","","","","","Cloudy"
"2009-04-28 14:00","2009","04","28","14:00","9.7","","9.7","","100","","34","","28","","24.1","","100.66","","","","","","Mostly Cloudy"
"2009-04-28 15:00","2009","04","28","15:00","10.0","","4.8","","70","","35","","35","","24.1","","100.71","","","","","","Cloudy"
"2009-04-28 16:00","2009","04","28","16:00","10.4","","4.6","","67","","36","","24","","24.1","","100.81","","","","","","Mostly Cloudy"
"2009-04-28 17:00","2009","04","28","17:00","11.6","","5.0","","64","","35","","28","","24.1","","100.88","","","","","","Mostly Cloudy"
"2009-04-28 18:00","2009","04","28","18:00","10.9","","4.1","","63","","36","","22","","24.1","","100.95","","","","","","Mainly Clear"
"2009-04-28 19:00","2009","04","28","19:00","10.0","","3.7","","65","","35","","20","","24.1","","101.03","","","","","","Mainly Clear"
"2009-04-28 20:00","2009","04","28","20:00","9.3","","3.1","","65","","36","","20","","24.1","","101.09","","","","","","Mainly Clear"
"2009-04-28 21:00","2009","04","28","21:00","7.9","","2.1","","67","","36","","15","","24.1","","101.19","","","","","","Mainly Clear"
"2009-04-28 22:00","2009","04","28","22:00","6.8","","1.0","","66","","36","","15","","24.1","","101.23","","","","","","Clear"
"2009-04-28 23:00","2009","04","28","23:00","5.8","","0.3","","68","","36","","19","","24.1","","101.23","","","","","","Clear"
"2009-04-29 00:00","2009","04","29","00:00","5.1","","-0.2","","69","","1","","13","","24.1","","101.24","","","","","","Mainly Clear"
"2009-04-29 01:00","2009","04","29","01:00","4.4","","-0.5","","70","","1","","15","","24.1","","101.23","","","","","","Mainly Clear"
"2009-04-29 02:00","2009","04","29","02:00","4.6","","-0.1","","72","","36","","15","","24.1","","101.23","","","","","","Mainly Clear"
"2009-04-29 03:00","2009","04","29","03:00","4.1","","-0.1","","74","","36","","13","","24.1","","101.26","","","","","","Mainly Clear"
"2009-04-29 04:00","2009","04","29","04:00","4.4","","0.1","","74","","2","","9","","24.1","","101.31","","","","","","Mainly Clear"
"2009-04-29 05:00","2009","04","29","05:00","4.2","","-0.2","","73","","3","","9","","24.1","","101.31","","","","","","Mostly Cloudy"
"2009-04-29 06:00","2009","04","29","06:00","6.5","","-1.1","","58","","7","","11","","24.1","","101.37","","","","","","Mostly Cloudy"
"2009-04-29 07:00","2009","04","29","07:00","7.5","","-2.7","","48","","8","","15","","24.1","","101.49","","","","","","Mostly Cloudy"
"2009-04-29 08:00","2009","04","29","08:00","8.7","","-4.0","","40","","9","","17","","24.1","","101.52","","","","","","Mostly Cloudy"
"2009-04-29 09:00","2009","04","29","09:00","9.6","","-4.2","","37","","11","","24","","24.1","","101.49","","","","","","Mostly Cloudy"
"2009-04-29 10:00","2009","04","29","10:00","9.5","","-4.2","","38","","10","","24","","24.1","","101.50","","","","","","Mainly Clear"
"2009-04-29 11:00","2009","04","29","11:00","9.6","","-4.8","","36","","9","","26","","24.1","","101.45","","","","","","Mainly Clear"
"2009-04-29 12:00","2009","04","29","12:00","9.3","","-4.3","","38","","13","","26","","24.1","","101.39","","","","","","Clear"
"2009-04-29 13:00","2009","04","29","13:00","9.5","","-4.4","","37","","13","","28","","24.1","","101.32","","","","","","Clear"
"2009-04-29 14:00","2009","04","29","14:00","10.3","","-5.8","","32","","12","","20","","24.1","","101.22","","","","","","Clear"
"2009-04-29 15:00","2009","04","29","15:00","11.5","","-4.0","","34","","11","","19","","24.1","","101.18","","","","","","Clear"
"2009-04-29 16:00","2009","04","29","16:00","11.6","","-5.4","","30","","9","","19","","24.1","","101.08","","","","","","Mainly Clear"
"2009-04-29 17:00","2009","04","29","17:00","11.8","","-7.1","","26","","8","","15","","24.1","","101.03","","","","","","Mainly Clear"
"2009-04-29 18:00","2009","04","29","18:00","11.9","","-6.0","","28","","8","","19","","24.1","","100.95","","","","","","Mainly Clear"
"2009-04-29 19:00","2009","04","29","19:00","10.9","","-4.4","","34","","9","","17","","24.1","","100.89","","","","","","Mainly Clear"
"2009-04-29 20:00","2009","04","29","20:00","10.2","","-5.2","","33","","6","","11","","24.1","","100.83","","","","","","Clear"
"2009-04-29 21:00","2009","04","29","21:00","9.5","","-4.5","","37","","10","","7","","24.1","","100.82","","","","","","Mainly Clear"
"2009-04-29 22:00","2009","04","29","22:00","9.2","","-5.0","","36","","11","","7","","24.1","","100.75","","","","","","Mostly Cloudy"
"2009-04-29 23:00","2009","04","29","23:00","9.0","","-7.0","","32","","11","","7","","24.1","","100.72","","","","","","Mostly Cloudy"
"2009-04-30 00:00","2009","04","30","00:00","8.4","","-6.2","","35","","9","","9","","24.1","","100.62","","","","","","Mostly Cloudy"
"2009-04-30 01:00","2009","04","30","01:00","8.4","","-3.7","","42","","8","","9","","24.1","","100.53","","","","","","Mostly Cloudy"
"2009-04-30 02:00","2009","04","30","02:00","8.9","","-4.0","","40","","9","","13","","24.1","","100.48","","","","","","Mostly Cloudy"
"2009-04-30 03:00","2009","04","30","03:00","9.0","","-3.1","","42","","11","","7","","24.1","","100.41","","","","","","Mostly Cloudy"
"2009-04-30 04:00","2009","04","30","04:00","8.8","","-2.2","","46","","11","","4","","24.1","","100.35","","","","","","Mostly Cloudy"
"2009-04-30 05:00","2009","04","30","05:00","8.3","","-1.8","","49","","8","","6","","24.1","","100.31","","","","","","Mostly Cloudy"
"2009-04-30 06:00","2009","04","30","06:00","8.2","","-1.8","","49","","8","","9","","24.1","","100.31","","","","","","Cloudy"
"2009-04-30 07:00","2009","04","30","07:00","8.9","","-0.5","","52","","8","","7","","24.1","","100.26","","","","","","Cloudy"
"2009-04-30 08:00","2009","04","30","08:00","10.2","","0.7","","52","","10","","6","","24.1","","100.20","","","","","","Cloudy"
"2009-04-30 09:00","2009","04","30","09:00","12.1","","2.7","","53","","15","","6","","24.1","","100.10","","","","","","Cloudy"
"2009-04-30 10:00","2009","04","30","10:00","13.1","","4.7","","57","","11","","4","","24.1","","100.02","","","","","","Mostly Cloudy"
"2009-04-30 11:00","2009","04","30","11:00","14.9","","7.4","","61","","16","","9","","24.1","","99.92","","","","","","Mostly Cloudy"
"2009-04-30 12:00","2009","04","30","12:00","15.2","","7.5","","60","","13","","9","","24.1","","99.83","","","","","","Cloudy"
"2009-04-30 13:00","2009","04","30","13:00","15.1","","8.9","","66","","13","","13","","24.1","","99.71","","","","","","Cloudy"
"2009-04-30 14:00","2009","04","30","14:00","14.9","","8.6","","66","","14","","13","","24.1","","99.62","","","","","","Cloudy"
"2009-04-30 15:00","2009","04","30","15:00","12.8","","6.9","","67","","16","","17","","24.1","","99.51","","","","","","Cloudy"
"2009-04-30 16:00","2009","04","30","16:00","10.5","","8.1","","85","","12","","19","","8.0","","99.39","","","","","","Rain"
"2009-04-30 17:00","2009","04","30","17:00","10.8","","8.9","","88","","11","","15","","6.4","","99.25","","","","","","Rain"
"2009-04-30 18:00","2009","04","30","18:00","11.3","","9.9","","91","","10","","11","","4.8","","99.09","","","","","","Rain,Fog"
"2009-04-30 19:00","2009","04","30","19:00","12.2","","11.2","","94","","13","","20","","2.0","","98.83","","","","","","Moderate Rain,Fog"
"2009-04-30 20:00","2009","04","30","20:00","11.9","","10.9","","94","","14","","19","","4.0","","98.65","","","","","","Rain,Fog"
"2009-04-30 21:00","2009","04","30","21:00","12.8","","11.6","","92","","18","","32","","4.8","","98.54","","","","","","Rain,Fog"
"2009-04-30 22:00","2009","04","30","22:00","14.9","","13.7","","93","","19","","26","","4.8","","98.45","","","","","","Moderate Rain,Fog"
"2009-04-30 23:00","2009","04","30","23:00","15.7","","14.6","","93","","22","","24","","4.8","","98.37","","","","","","Moderate Rain,Fog"
