"Station Name","TORONTO LESTER B. PEARSON INT'L A"
"Province","ONTARIO"
"Latitude","43.68"
"Longitude","-79.63"
"Elevation","173.40"
"Climate Identifier","6158733"
"WMO Identifier","71624"
"TC Identifier","YYZ"
"All times are specified in Local Standard Time (LST). Add 1 hour to adjust for Daylight Saving Time where and when it is observed."

"Legend"
"E","Estimated"
"M","Missing"
"NA","Not Available"

"Date/Time","Year","Month","Day","Time","Temp (°C)","Temp Flag","Dew Point Temp (°C)","Dew Point Temp Flag","Rel Hum (%)","Rel Hum Flag","Wind Dir (10s deg)","Wind Dir Flag","Wind Spd (km/h)","Wind Spd Flag","Visibility (km)","Visibility Flag","Stn Press (kPa)","Stn Press Flag","Hmdx","Hmdx Flag","Wind Chill","Wind Chill Flag","Weather"
"1966-01-01 00:00","1966","01","01","00:00","9.4","","2.8","","63","","25","","29","","16.1","","98.76","","","","","","Cloudy"
"1966-01-01 01:00","1966","01","01","01:00","8.3","","2.2","","66","","25","","29","","16.1","","98.82","","","","","","Cloudy"
"1966-01-01 02:00","1966","01","01","02:00","6.7","","0.6","","65","","27","","29","","16.1","","98.93","","","","","","Cloudy"
"1966-01-01 03:00","1966","01","01","03:00","5.6","","0.6","","70","","27","","29","","16.1","","99.04","","","","","","Cloudy"
"1966-01-01 04:00","1966","01","01","04:00","4.4","","0.0","","74","","27","","16","","16.1","","99.08","","","","","","Cloudy"
"1966-01-01 05:00","1966","01","01","05:00","3.9","","-1.1","","71","","27","","19","","16.1","","99.19","","","","","","Cloudy"
"1966-01-01 06:00","1966","01","01","06:00","2.8","","-0.6","","79","","25","","8","","19.3","","99.30","","","","","","Mostly Cloudy"
"1966-01-01 07:00","1966","01","01","07:00","1.7","","-1.1","","81","","25","","16","","19.3","","99.32","","","","","","Mainly Clear"
"1966-01-01 08:00","1966","01","01","08:00","1.7","","-1.1","","81","","27","","10","","32.2","","99.42","","","","","","Mainly Clear"
"1966-01-01 09:00","1966","01","01","09:00","1.1","","-1.7","","82","","36","","6","","32.2","","99.53","","","","","","Mainly Clear"
"1966-01-01 10:00","1966","01","01","10:00","1.7","","-1.7","","78","","27","","11","","32.2","","99.62","","","","","","Mainly Clear"
"1966-01-01 11:00","1966","01","01","11:00","1.7","","-1.1","","81","","27","","10","","32.2","","99.74","","","","","","Mainly Clear"
"1966-01-01 12:00","1966","01","01","12:00","3.3","","-1.1","","72","","27","","11","","32.2","","99.76","","","","","","Mainly Clear"
"1966-01-01 13:00","1966","01","01","13:00","4.4","","-0.6","","69","","29","","21","","32.2","","99.79","","","","","","Mainly Clear"
"1966-01-01 14:00","1966","01","01","14:00","5.0","","0.6","","72","","29","","27","","32.2","","99.79","","","","","","Mainly Clear"
"1966-01-01 15:00","1966","01","01","15:00","4.4","","-0.6","","71","","29","","24","","32.2","","99.83","","","","","","Mainly Clear"
"1966-01-01 16:00","1966","01","01","16:00","3.3","","-1.7","","70","","29","","24","","32.2","","99.98","","","","","","Mainly Clear"
"1966-01-01 17:00","1966","01","01","17:00","1.1","","-2.8","","76","","29","","23","","32.2","","100.13","","","","","","Mainly Clear"
"1966-01-01 18:00","1966","01","01","18:00","-1.1","","-3.9","","83","","34","","26","","32.2","","100.14","","","","-7","","Mainly Clear"
"1966-01-01 19:00","1966","01","01","19:00","-1.7","","-3.3","","89","","32","","18","","32.2","","100.22","","","","-7","","Mainly Clear"
"1966-01-01 20:00","1966","01","01","20:00","-2.2","","-3.3","","94","","34","","11","","32.2","","100.38","","","","-6","","Mostly Cloudy"
"1966-01-01 21:00","1966","01","01","21:00","-2.8","","-5.6","","81","","32","","21","","32.2","","100.44","","","","-9","","Mostly Cloudy"
"1966-01-01 22:00","1966","01","01","22:00","-2.2","","-4.4","","83","","34","","10","","32.2","","100.47","","","","-6","","Mostly Cloudy"
"1966-01-01 23:00","1966","01","01","23:00","-2.2","","-5.0","","82","","36","","16","","32.2","","100.52","","","","-7","","Cloudy"
"1966-01-02 00:00","1966","01","02","00:00","-2.2","","-6.1","","75","","2","","14","","32.2","","100.57","","","","-7","","Cloudy"
"1966-01-02 01:00","1966","01","02","01:00","-2.8","","-5.6","","80","","5","","16","","19.3","","100.51","","","","-8","","Mostly Cloudy"
"1966-01-02 02:00","1966","01","02","02:00","-3.3","","-6.7","","79","","5","","18","","19.3","","100.50","","","","-9","","Cloudy"
"1966-01-02 03:00","1966","01","02","03:00","-3.9","","-7.2","","78","","5","","16","","19.3","","100.46","","","","-9","","Cloudy"
"1966-01-02 04:00","1966","01","02","04:00","-3.9","","-7.8","","76","","7","","16","","19.3","","100.34","","","","-9","","Cloudy"
"1966-01-02 05:00","1966","01","02","05:00","-3.9","","-8.3","","73","","7","","14","","19.3","","100.35","","","","-9","","Cloudy"
"1966-01-02 06:00","1966","01","02","06:00","-3.9","","-6.7","","80","","7","","16","","19.3","","100.33","","","","-9","","Cloudy"
"1966-01-02 07:00","1966","01","02","07:00","-3.3","","-7.2","","75","","7","","14","","19.3","","100.27","","","","-8","","Cloudy"
"1966-01-02 08:00","1966","01","02","08:00","-2.8","","-5.0","","84","","9","","29","","32.2","","100.27","","","","-10","","Cloudy"
"1966-01-02 09:00","1966","01","02","09:00","-3.3","","-5.0","","88","","9","","32","","24.1","","100.18","","","","-11","","Cloudy"
"1966-01-02 10:00","1966","01","02","10:00","-3.3","","-5.0","","88","","9","","34","","19.3","","100.14","","","","-11","","Snow Showers"
"1966-01-02 11:00","1966","01","02","11:00","-3.3","","-4.4","","91","","9","","31","","16.1","","100.01","","","","-11","","Snow"
"1966-01-02 12:00","1966","01","02","12:00","-2.8","","-3.9","","92","","9","","29","","12.9","","99.83","","","","-10","","Snow"
"1966-01-02 13:00","1966","01","02","13:00","-2.2","","-3.9","","89","","9","","32","","9.7","","99.61","","","","-10","","Snow,Ice Pellets"
"1966-01-02 14:00","1966","01","02","14:00","-2.8","","-3.3","","94","","9","","35","","2.4","","99.33","","","","-11","","Snow"
"1966-01-02 15:00","1966","01","02","15:00","-1.7","","-2.2","","96","","9","","39","","3.6","","99.09","","","","-10","","Freezing Rain,Fog"
"1966-01-02 16:00","1966","01","02","16:00","-0.6","","-1.1","","97","","9","","40","","2.4","","99.02","","","","-8","","Freezing Rain,Fog"
"1966-01-02 17:00","1966","01","02","17:00","0.6","","-0.6","","91","","9","","29","","1.6","","98.86","","","","","","Rain,Fog"
"1966-01-02 18:00","1966","01","02","18:00","1.1","","0.6","","94","","9","","27","","1.6","","98.82","","","","","","Rain,Fog"
"1966-01-02 19:00","1966","01","02","19:00","1.1","","0.6","","97","","9","","26","","3.2","","98.75","","","","","","Rain,Fog"
"1966-01-02 20:00","1966","01","02","20:00","1.7","","1.1","","97","","11","","11","","2.4","","98.76","","","","","","Drizzle,Fog"
"1966-01-02 21:00","1966","01","02","21:00","2.2","","1.7","","97","","18","","10","","1.6","","98.72","","","","","","Drizzle,Fog"
"1966-01-02 22:00","1966","01","02","22:00","2.2","","1.7","","97","","14","","8","","0.2","","98.71","","","","","","Drizzle,Fog"
"1966-01-02 23:00","1966","01","02","23:00","2.8","","2.2","","97","","16","","10","","0.8","","98.72","","","","","","Fog"
"1966-01-03 00:00","1966","01","03","00:00","3.3","","2.8","","97","","16","","10","","0.8","","98.69","","","","","","Fog"
"1966-01-03 01:00","1966","01","03","01:00","3.9","","3.3","","97","","18","","13","","1.6","","98.66","","","","","","Fog"
"1966-01-03 02:00","1966","01","03","02:00","3.9","","3.3","","97","","18","","13","","1.6","","98.59","","","","","","Fog"
"1966-01-03 03:00","1966","01","03","03:00","4.4","","3.9","","98","","20","","16","","3.2","","98.63","","","","","","Fog"
"1966-01-03 04:00","1966","01","03","04:00","4.4","","1.7","","83","","25","","29","","6.4","","98.60","","","","","","Haze"
"1966-01-03 05:00","1966","01","03","05:00","2.8","","0.0","","82","","25","","29","","16.1","","98.70","","","","","","Mostly Cloudy"
"1966-01-03 06:00","1966","01","03","06:00","2.8","","-1.1","","77","","25","","27","","16.1","","98.79","","","","","","Cloudy"
"1966-01-03 07:00","1966","01","03","07:00","2.2","","-1.7","","76","","25","","29","","16.1","","98.91","","","","","","Cloudy"
"1966-01-03 08:00","1966","01","03","08:00","1.7","","-2.8","","73","","25","","35","","16.1","","99.00","","","","","","Cloudy"
"1966-01-03 09:00","1966","01","03","09:00","0.6","","-2.2","","81","","27","","37","","19.3","","99.13","","","","","","Cloudy"
"1966-01-03 10:00","1966","01","03","10:00","0.6","","-1.1","","89","","25","","34","","32.2","","99.26","","","","","","Snow Showers"
"1966-01-03 11:00","1966","01","03","11:00","0.0","","-1.7","","88","","25","","37","","8.0","","99.31","","","","-7","","Snow Showers"
"1966-01-03 12:00","1966","01","03","12:00","0.0","","-0.6","","94","","25","","39","","6.4","","99.29","","","","-7","","Snow Showers"
"1966-01-03 13:00","1966","01","03","13:00","0.6","","-2.8","","78","","25","","40","","9.7","","99.33","","","","","","Snow Showers"
"1966-01-03 14:00","1966","01","03","14:00","0.0","","-1.7","","88","","27","","39","","16.1","","99.43","","","","-7","","Snow Showers"
"1966-01-03 15:00","1966","01","03","15:00","0.0","","-2.2","","86","","27","","40","","16.1","","99.57","","","","-7","","Snow Showers"
"1966-01-03 16:00","1966","01","03","16:00","0.0","","-3.3","","80","","27","","48","","32.2","","99.69","","","","-8","","Mostly Cloudy"
"1966-01-03 17:00","1966","01","03","17:00","-0.6","","-3.3","","82","","27","","42","","32.2","","99.89","","","","-8","","Mainly Clear"
"1966-01-03 18:00","1966","01","03","18:00","-1.1","","-4.4","","79","","27","","42","","19.3","","100.04","","","","-9","","Mainly Clear"
"1966-01-03 19:00","1966","01","03","19:00","-1.1","","-2.8","","89","","27","","42","","19.3","","100.21","","","","-9","","Mainly Clear"
"1966-01-03 20:00","1966","01","03","20:00","-1.7","","-2.2","","93","","27","","29","","19.3","","100.42","","","","-9","","Mainly Clear"
"1966-01-03 21:00","1966","01","03","21:00","-1.7","","-2.8","","92","","29","","26","","19.3","","100.60","","","","-8","","Clear"
"1966-01-03 22:00","1966","01","03","22:00","-1.7","","-2.8","","92","","27","","13","","19.3","","100.60","","","","-6","","Clear"
"1966-01-03 23:00","1966","01","03","23:00","-2.8","","-5.6","","82","","25","","13","","19.3","","100.69","","","","-7","","Clear"
"1966-01-04 00:00","1966","01","04","00:00","-2.8","","-4.4","","88","","25","","19","","19.3","","100.74","","","","-9","","Mainly Clear"
"1966-01-04 01:00","1966","01","04","01:00","-1.7","","-3.9","","86","","23","","16","","19.3","","100.75","","","","-7","","Cloudy"
"1966-01-04 02:00","1966","01","04","02:00","-1.7","","-4.4","","83","","23","","13","","19.3","","100.79","","","","-6","","Cloudy"
"1966-01-04 03:00","1966","01","04","03:00","-1.7","","-4.4","","81","","23","","10","","19.3","","100.85","","","","-5","","Cloudy"
"1966-01-04 04:00","1966","01","04","04:00","-2.2","","-4.4","","85","","23","","13","","19.3","","100.88","","","","-7","","Mostly Cloudy"
"1966-01-04 05:00","1966","01","04","05:00","-2.2","","-4.4","","85","","23","","13","","19.3","","100.89","","","","-7","","Mostly Cloudy"
"1966-01-04 06:00","1966","01","04","06:00","-3.3","","-5.6","","85","","20","","10","","25.0","","100.88","","","","-7","","Mainly Clear"
"1966-01-04 07:00","1966","01","04","07:00","-3.9","","-6.1","","86","","20","","11","","25.0","","100.93","","","","-8","","Mainly Clear"
"1966-01-04 08:00","1966","01","04","08:00","-3.9","","-6.1","","86","","18","","10","","32.2","","100.96","","","","-8","","Mainly Clear"
"1966-01-04 09:00","1966","01","04","09:00","-3.3","","-5.0","","89","","20","","6","","16.1","","100.98","","","","-6","","Mainly Clear"
"1966-01-04 10:00","1966","01","04","10:00","-1.7","","-3.3","","87","","23","","24","","12.9","","100.97","","","","-8","","Mainly Clear"
"1966-01-04 11:00","1966","01","04","11:00","0.6","","-1.7","","84","","20","","26","","16.1","","100.94","","","","","","Mainly Clear"
"1966-01-04 12:00","1966","01","04","12:00","1.7","","-0.6","","84","","18","","23","","16.1","","100.82","","","","","","Clear"
"1966-01-04 13:00","1966","01","04","13:00","2.8","","-3.3","","64","","20","","19","","19.3","","100.70","","","","","","Mainly Clear"
"1966-01-04 14:00","1966","01","04","14:00","3.9","","-5.0","","52","","20","","26","","24.1","","100.55","","","","","","Mainly Clear"
"1966-01-04 15:00","1966","01","04","15:00","4.4","","-5.0","","51","","20","","21","","40.2","","100.44","","","","","","Mainly Clear"
"1966-01-04 16:00","1966","01","04","16:00","3.3","","-4.4","","56","","20","","26","","32.2","","100.41","","","","","","Mainly Clear"
"1966-01-04 17:00","1966","01","04","17:00","2.2","","-3.9","","63","","18","","19","","32.2","","100.38","","","","","","Mainly Clear"
"1966-01-04 18:00","1966","01","04","18:00","1.1","","-3.9","","68","","20","","19","","19.3","","100.40","","","","","","Mainly Clear"
"1966-01-04 19:00","1966","01","04","19:00","0.0","","-3.3","","77","","23","","23","","19.3","","100.39","","","","-6","","Mainly Clear"
"1966-01-04 20:00","1966","01","04","20:00","0.6","","-3.3","","75","","23","","29","","19.3","","100.35","","","","","","Mainly Clear"
"1966-01-04 21:00","1966","01","04","21:00","0.6","","-3.9","","73","","25","","32","","19.3","","100.33","","","","","","Clear"
"1966-01-04 22:00","1966","01","04","22:00","0.0","","-4.4","","71","","25","","23","","19.3","","100.33","","","","-6","","Clear"
"1966-01-04 23:00","1966","01","04","23:00","0.6","","-3.9","","73","","27","","16","","19.3","","100.33","","","","","","Clear"
"1966-01-05 00:00","1966","01","05","00:00","0.6","","-3.9","","73","","27","","16","","19.3","","100.34","","","","","","Clear"
"1966-01-05 01:00","1966","01","05","01:00","0.6","","-3.3","","75","","25","","21","","19.3","","100.32","","","","","","Clear"
"1966-01-05 02:00","1966","01","05","02:00","0.0","","-2.8","","83","","25","","26","","25.0","","100.31","","","","-6","","Clear"
"1966-01-05 03:00","1966","01","05","03:00","-1.1","","-3.9","","81","","23","","26","","25.0","","100.30","","","","-7","","Clear"
"1966-01-05 04:00","1966","01","05","04:00","-1.1","","-3.9","","83","","27","","13","","25.0","","100.36","","","","-5","","Clear"
"1966-01-05 05:00","1966","01","05","05:00","-2.2","","-5.0","","82","","32","","6","","25.0","","100.33","","","","-5","","Clear"
"1966-01-05 06:00","1966","01","05","06:00","-3.3","","-5.6","","86","","29","","8","","24.1","","100.36","","","","-7","","Clear"
"1966-01-05 07:00","1966","01","05","07:00","-2.2","","-4.4","","83","","27","","3","","24.1","","100.42","","","","-3","","Clear"
"1966-01-05 08:00","1966","01","05","08:00","-3.9","","-6.1","","85","","20","","8","","6.4","","100.43","","","","-7","","Fog"
"1966-01-05 09:00","1966","01","05","09:00","-2.2","","-4.4","","83","","25","","3","","6.4","","100.45","","","","-3","","Fog"
"1966-01-05 10:00","1966","01","05","10:00","-0.6","","-3.9","","79","","18","","5","","6.4","","100.48","","","","-2","","Haze"
"1966-01-05 11:00","1966","01","05","11:00","0.6","","-3.9","","73","","18","","2","","6.4","","100.43","","","","","","Haze"
"1966-01-05 12:00","1966","01","05","12:00","2.2","","-2.2","","71","","","","0","","9.7","","100.35","","","","","","Haze"
"1966-01-05 13:00","1966","01","05","13:00","2.8","","-2.2","","69","","16","","3","","8.0","","100.25","","","","","","Haze"
"1966-01-05 14:00","1966","01","05","14:00","3.3","","-3.3","","63","","14","","8","","8.0","","100.15","","","","","","Haze"
"1966-01-05 15:00","1966","01","05","15:00","2.2","","-2.2","","71","","14","","10","","8.0","","100.08","","","","","","Haze"
"1966-01-05 16:00","1966","01","05","16:00","1.7","","-2.2","","76","","14","","6","","8.0","","100.09","","","","","","Haze"
"1966-01-05 17:00","1966","01","05","17:00","0.0","","-1.7","","88","","14","","8","","6.4","","99.98","","","","-3","","Haze"
"1966-01-05 18:00","1966","01","05","18:00","-1.7","","-3.3","","88","","","","0","","6.4","","99.93","","","","","","Fog"
"1966-01-05 19:00","1966","01","05","19:00","-1.7","","-3.3","","89","","","","0","","4.8","","99.86","","","","","","Fog"
"1966-01-05 20:00","1966","01","05","20:00","-1.1","","-3.3","","86","","","","0","","6.4","","99.83","","","","","","Fog"
"1966-01-05 21:00","1966","01","05","21:00","-2.2","","-3.9","","87","","36","","6","","6.4","","99.67","","","","-5","","Fog"
"1966-01-05 22:00","1966","01","05","22:00","-3.3","","-4.4","","93","","34","","6","","4.0","","99.55","","","","-6","","Fog"
"1966-01-05 23:00","1966","01","05","23:00","-3.3","","-3.9","","96","","32","","6","","3.2","","99.47","","","","-6","","Fog"
"1966-01-06 00:00","1966","01","06","00:00","-2.2","","-2.8","","97","","36","","11","","0.0","","99.36","","","","-6","","Fog"
"1966-01-06 01:00","1966","01","06","01:00","-1.1","","-1.7","","96","","32","","6","","0.0","","99.25","","","","-3","","Fog"
"1966-01-06 02:00","1966","01","06","02:00","-0.6","","-1.1","","97","","34","","6","","0.0","","99.13","","","","-3","","Fog"
"1966-01-06 03:00","1966","01","06","03:00","-0.6","","-1.1","","97","","34","","10","","0.0","","99.05","","","","-4","","Fog"
"1966-01-06 04:00","1966","01","06","04:00","-0.6","","-1.1","","97","","34","","6","","0.0","","98.94","","","","-3","","Fog"
"1966-01-06 05:00","1966","01","06","05:00","-1.1","","-1.7","","97","","36","","5","","0.0","","98.84","","","","-3","","Fog"
"1966-01-06 06:00","1966","01","06","06:00","-1.1","","-1.7","","97","","34","","13","","0.0","","98.80","","","","-5","","Fog"
"1966-01-06 07:00","1966","01","06","07:00","-1.1","","-1.7","","98","","34","","8","","0.2","","98.73","","","","-4","","Fog"
"1966-01-06 08:00","1966","01","06","08:00","-1.7","","-2.2","","97","","32","","6","","0.0","","98.67","","","","-4","","Fog"
"1966-01-06 09:00","1966","01","06","09:00","-1.7","","-2.2","","97","","","","0","","0.0","","98.59","","","","","","Fog"
"1966-01-06 10:00","1966","01","06","10:00","-1.7","","-2.2","","96","","","","0","","0.6","","98.55","","","","","","Fog"
"1966-01-06 11:00","1966","01","06","11:00","-0.6","","-1.1","","97","","","","0","","1.6","","98.54","","","","","","Fog"
"1966-01-06 12:00","1966","01","06","12:00","0.0","","-0.6","","97","","","","0","","2.4","","98.42","","","","","","Fog"
"1966-01-06 13:00","1966","01","06","13:00","1.7","","1.1","","97","","27","","6","","3.2","","98.35","","","","","","Fog"
"1966-01-06 14:00","1966","01","06","14:00","5.0","","0.0","","70","","23","","5","","4.8","","98.30","","","","","","Haze"
"1966-01-06 15:00","1966","01","06","15:00","5.6","","-0.6","","64","","29","","26","","4.8","","98.29","","","","","","Haze"
"1966-01-06 16:00","1966","01","06","16:00","2.8","","-1.1","","77","","29","","21","","6.4","","98.46","","","","","","Haze"
"1966-01-06 17:00","1966","01","06","17:00","1.7","","-1.1","","81","","29","","26","","6.4","","98.54","","","","","","Haze"
"1966-01-06 18:00","1966","01","06","18:00","1.1","","-3.3","","71","","29","","23","","11.3","","98.60","","","","","","Mostly Cloudy"
"1966-01-06 19:00","1966","01","06","19:00","0.0","","-3.9","","74","","29","","23","","19.3","","98.69","","","","-6","","Mainly Clear"
"1966-01-06 20:00","1966","01","06","20:00","-1.1","","-4.4","","77","","29","","29","","19.3","","98.76","","","","-8","","Mainly Clear"
"1966-01-06 21:00","1966","01","06","21:00","-1.7","","-4.4","","81","","29","","26","","19.3","","98.82","","","","-8","","Mainly Clear"
"1966-01-06 22:00","1966","01","06","22:00","-1.7","","-3.9","","84","","29","","19","","19.3","","98.87","","","","-7","","Mostly Cloudy"
"1966-01-06 23:00","1966","01","06","23:00","-1.7","","-3.9","","86","","27","","23","","19.3","","98.92","","","","-8","","Mostly Cloudy"
"1966-01-07 00:00","1966","01","07","00:00","-2.2","","-3.9","","89","","27","","32","","19.3","","98.92","","","","-10","","Mostly Cloudy"
"1966-01-07 01:00","1966","01","07","01:00","-1.7","","-5.0","","78","","27","","23","","24.1","","98.92","","","","-8","","Mostly Cloudy"
"1966-01-07 02:00","1966","01","07","02:00","-2.8","","-5.6","","81","","27","","27","","24.1","","98.94","","","","-10","","Mostly Cloudy"
"1966-01-07 03:00","1966","01","07","03:00","-2.8","","-6.1","","77","","27","","18","","25.0","","98.95","","","","-8","","Cloudy"
"1966-01-07 04:00","1966","01","07","04:00","-2.8","","-6.7","","76","","27","","11","","25.0","","98.92","","","","-7","","Cloudy"
"1966-01-07 05:00","1966","01","07","05:00","-3.9","","-4.4","","94","","29","","10","","6.4","","98.88","","","","-8","","Snow"
"1966-01-07 06:00","1966","01","07","06:00","-3.9","","-4.4","","94","","32","","6","","4.8","","98.87","","","","-7","","Snow"
"1966-01-07 07:00","1966","01","07","07:00","-3.9","","-4.4","","94","","32","","6","","4.8","","98.82","","","","-7","","Snow"
"1966-01-07 08:00","1966","01","07","08:00","-3.9","","-5.6","","89","","","","0","","3.2","","98.78","","","","","","Snow"
"1966-01-07 09:00","1966","01","07","09:00","-4.4","","-5.6","","92","","","","0","","1.6","","98.74","","","","","","Snow"
"1966-01-07 10:00","1966","01","07","10:00","-3.9","","-4.4","","94","","36","","13","","0.8","","98.77","","","","-9","","Moderate Snow"
"1966-01-07 11:00","1966","01","07","11:00","-3.9","","-4.4","","94","","2","","16","","1.2","","98.74","","","","-9","","Snow"
"1966-01-07 12:00","1966","01","07","12:00","-5.0","","-6.7","","88","","36","","19","","1.6","","98.68","","","","-11","","Snow"
"1966-01-07 13:00","1966","01","07","13:00","-6.1","","-7.8","","88","","36","","21","","1.6","","98.61","","","","-13","","Snow"
"1966-01-07 14:00","1966","01","07","14:00","-7.2","","-8.9","","88","","36","","24","","1.6","","98.62","","","","-15","","Snow"
"1966-01-07 15:00","1966","01","07","15:00","-7.2","","-8.9","","88","","36","","26","","1.6","","98.60","","","","-15","","Snow"
"1966-01-07 16:00","1966","01","07","16:00","-7.2","","-9.4","","84","","36","","26","","1.6","","98.65","","","","-15","","Snow"
"1966-01-07 17:00","1966","01","07","17:00","-8.3","","-10.0","","88","","36","","27","","1.6","","98.69","","","","-17","","Snow"
"1966-01-07 18:00","1966","01","07","18:00","-8.9","","-11.1","","83","","34","","29","","1.6","","98.78","","","","-18","","Snow"
"1966-01-07 19:00","1966","01","07","19:00","-9.4","","-12.2","","79","","34","","29","","2.0","","98.89","","","","-19","","Snow"
"1966-01-07 20:00","1966","01","07","20:00","-10.6","","-12.8","","82","","34","","27","","1.6","","98.99","","","","-20","","Snow"
"1966-01-07 21:00","1966","01","07","21:00","-11.7","","-14.4","","81","","34","","26","","1.6","","99.03","","","","-21","","Snow"
"1966-01-07 22:00","1966","01","07","22:00","-12.2","","-15.6","","76","","34","","24","","9.7","","99.09","","","","-21","","Snow"
"1966-01-07 23:00","1966","01","07","23:00","-13.3","","-15.6","","84","","32","","16","","19.3","","99.14","","","","-21","","Mostly Cloudy"
"1966-01-08 00:00","1966","01","08","00:00","-14.4","","-17.8","","77","","32","","19","","19.3","","99.20","","","","-23","","Mostly Cloudy"
"1966-01-08 01:00","1966","01","08","01:00","-14.4","","-17.8","","77","","32","","18","","19.3","","99.25","","","","-23","","Snow Showers"
"1966-01-08 02:00","1966","01","08","02:00","-16.7","","-19.4","","80","","32","","23","","19.3","","99.32","","","","-27","","Snow Showers"
"1966-01-08 03:00","1966","01","08","03:00","-17.2","","-23.3","","60","","32","","18","","24.1","","99.41","","","","-26","","Mainly Clear"
"1966-01-08 04:00","1966","01","08","04:00","-17.2","","-21.7","","67","","32","","18","","16.1","","99.46","","","","-26","","Snow Showers"
"1966-01-08 05:00","1966","01","08","05:00","-16.7","","-21.1","","69","","32","","19","","9.7","","99.50","","","","-26","","Snow Showers"
"1966-01-08 06:00","1966","01","08","06:00","-16.7","","-20.6","","73","","32","","14","","19.3","","99.58","","","","-25","","Mostly Cloudy"
"1966-01-08 07:00","1966","01","08","07:00","-16.7","","-20.6","","73","","29","","13","","19.3","","99.65","","","","-24","","Mostly Cloudy"
"1966-01-08 08:00","1966","01","08","08:00","-18.9","","-20.6","","86","","29","","10","","32.2","","99.70","","","","-26","","Mainly Clear"
"1966-01-08 09:00","1966","01","08","09:00","-20.0","","-25.0","","64","","29","","13","","32.2","","99.76","","","","-28","","Mostly Cloudy"
"1966-01-08 10:00","1966","01","08","10:00","-18.3","","-19.4","","89","","32","","13","","32.2","","99.80","","","","-26","","Mainly Clear"
"1966-01-08 11:00","1966","01","08","11:00","-17.2","","-21.7","","70","","34","","19","","32.2","","99.88","","","","-27","","Mainly Clear"
"1966-01-08 12:00","1966","01","08","12:00","-16.1","","-20.0","","72","","34","","21","","32.2","","99.85","","","","-26","","Mainly Clear"
"1966-01-08 13:00","1966","01","08","13:00","-15.0","","-19.4","","68","","32","","16","","32.2","","99.85","","","","-23","","Mainly Clear"
"1966-01-08 14:00","1966","01","08","14:00","-12.8","","-17.2","","68","","32","","23","","32.2","","99.88","","","","-22","","Mainly Clear"
"1966-01-08 15:00","1966","01","08","15:00","-13.3","","-17.2","","71","","32","","23","","24.1","","99.94","","","","-23","","Mainly Clear"
"1966-01-08 16:00","1966","01","08","16:00","-13.3","","-16.7","","75","","32","","23","","24.1","","100.01","","","","-23","","Mainly Clear"
"1966-01-08 17:00","1966","01","08","17:00","-15.0","","-17.8","","78","","27","","16","","24.1","","100.13","","","","-23","","Mainly Clear"
"1966-01-08 18:00","1966","01","08","18:00","-16.1","","-19.4","","74","","27","","18","","24.1","","100.17","","","","-25","","Mainly Clear"
"1966-01-08 19:00","1966","01","08","19:00","-16.7","","-21.1","","69","","27","","18","","24.1","","100.28","","","","-26","","Mainly Clear"
"1966-01-08 20:00","1966","01","08","20:00","-16.7","","-20.0","","76","","32","","13","","24.1","","100.34","","","","-24","","Mainly Clear"
"1966-01-08 21:00","1966","01","08","21:00","-16.7","","-21.1","","69","","36","","6","","24.1","","100.37","","","","-21","","Mainly Clear"
"1966-01-08 22:00","1966","01","08","22:00","-16.7","","-19.4","","78","","36","","6","","24.1","","100.44","","","","-21","","Mostly Cloudy"
"1966-01-08 23:00","1966","01","08","23:00","-16.1","","-21.7","","63","","2","","3","","24.1","","100.49","","","","-18","","Mainly Clear"
"1966-01-09 00:00","1966","01","09","00:00","-18.3","","-22.8","","68","","","","0","","24.1","","100.51","","","","","","Mainly Clear"
"1966-01-09 01:00","1966","01","09","01:00","-18.9","","-25.6","","56","","27","","6","","25.0","","100.55","","","","-24","","Mainly Clear"
"1966-01-09 02:00","1966","01","09","02:00","-17.8","","-22.2","","69","","29","","6","","25.0","","100.59","","","","-22","","Mostly Cloudy"
"1966-01-09 03:00","1966","01","09","03:00","-16.7","","-19.4","","78","","36","","5","","25.0","","100.60","","","","-21","","Mostly Cloudy"
"1966-01-09 04:00","1966","01","09","04:00","-15.6","","-19.4","","71","","23","","5","","25.0","","100.64","","","","-19","","Mostly Cloudy"
"1966-01-09 05:00","1966","01","09","05:00","-13.9","","-18.3","","70","","18","","3","","25.0","","100.60","","","","-16","","Mostly Cloudy"
"1966-01-09 06:00","1966","01","09","06:00","-13.3","","-16.7","","76","","18","","8","","25.0","","100.62","","","","-18","","Mostly Cloudy"
"1966-01-09 07:00","1966","01","09","07:00","-13.3","","-15.6","","84","","","","0","","25.0","","100.59","","","","","","Mostly Cloudy"
"1966-01-09 08:00","1966","01","09","08:00","-12.2","","-15.6","","75","","","","0","","24.1","","100.60","","","","","","Mostly Cloudy"
"1966-01-09 09:00","1966","01","09","09:00","-11.1","","-14.4","","77","","","","0","","19.3","","100.60","","","","","","Cloudy"
"1966-01-09 10:00","1966","01","09","10:00","-10.0","","-12.8","","80","","16","","10","","12.9","","100.60","","","","-15","","Cloudy"
"1966-01-09 11:00","1966","01","09","11:00","-8.9","","-12.8","","73","","14","","10","","9.7","","100.58","","","","-14","","Haze"
"1966-01-09 12:00","1966","01","09","12:00","-7.2","","-11.1","","75","","16","","16","","6.4","","100.42","","","","-14","","Haze"
"1966-01-09 13:00","1966","01","09","13:00","-5.6","","-8.3","","81","","16","","23","","4.8","","100.28","","","","-13","","Snow Showers"
"1966-01-09 14:00","1966","01","09","14:00","-4.4","","-7.2","","79","","16","","21","","12.9","","100.10","","","","-11","","Cloudy"
"1966-01-09 15:00","1966","01","09","15:00","-3.3","","-8.3","","69","","18","","29","","19.3","","99.97","","","","-11","","Mostly Cloudy"
"1966-01-09 16:00","1966","01","09","16:00","-3.3","","-8.9","","66","","18","","27","","19.3","","99.88","","","","-10","","Cloudy"
"1966-01-09 17:00","1966","01","09","17:00","-3.3","","-6.7","","77","","14","","29","","32.2","","99.78","","","","-11","","Mostly Cloudy"
"1966-01-09 18:00","1966","01","09","18:00","-3.9","","-7.2","","78","","14","","23","","25.0","","99.72","","","","-11","","Mostly Cloudy"
"1966-01-09 19:00","1966","01","09","19:00","-3.3","","-6.7","","77","","14","","19","","24.1","","99.56","","","","-9","","Mostly Cloudy"
"1966-01-09 20:00","1966","01","09","20:00","-2.2","","-5.0","","82","","14","","14","","25.0","","99.42","","","","-7","","Mostly Cloudy"
"1966-01-09 21:00","1966","01","09","21:00","-1.7","","-4.4","","80","","16","","13","","25.0","","99.33","","","","-6","","Mostly Cloudy"
"1966-01-09 22:00","1966","01","09","22:00","-1.1","","-6.1","","70","","16","","13","","25.0","","99.23","","","","-5","","Cloudy"
"1966-01-09 23:00","1966","01","09","23:00","-0.6","","-5.6","","70","","18","","14","","25.0","","99.17","","","","-5","","Cloudy"
"1966-01-10 00:00","1966","01","10","00:00","0.6","","-4.4","","70","","18","","18","","25.0","","99.11","","","","","","Cloudy"
"1966-01-10 01:00","1966","01","10","01:00","1.1","","-3.9","","68","","18","","14","","25.0","","99.06","","","","","","Cloudy"
"1966-01-10 02:00","1966","01","10","02:00","2.8","","-1.1","","74","","18","","24","","25.0","","99.02","","","","","","Cloudy"
"1966-01-10 03:00","1966","01","10","03:00","2.8","","-1.7","","72","","23","","26","","25.0","","99.01","","","","","","Cloudy"
"1966-01-10 04:00","1966","01","10","04:00","3.3","","-1.1","","72","","20","","23","","25.0","","98.94","","","","","","Cloudy"
"1966-01-10 05:00","1966","01","10","05:00","2.8","","-1.1","","74","","20","","21","","25.0","","98.90","","","","","","Cloudy"
"1966-01-10 06:00","1966","01","10","06:00","2.8","","-1.7","","72","","20","","26","","25.0","","98.88","","","","","","Cloudy"
"1966-01-10 07:00","1966","01","10","07:00","2.8","","-1.1","","77","","20","","26","","25.0","","98.84","","","","","","Cloudy"
"1966-01-10 08:00","1966","01","10","08:00","2.8","","-0.6","","79","","20","","23","","19.3","","98.80","","","","","","Mostly Cloudy"
"1966-01-10 09:00","1966","01","10","09:00","2.8","","-1.1","","77","","20","","26","","19.3","","98.80","","","","","","Cloudy"
"1966-01-10 10:00","1966","01","10","10:00","2.8","","-0.6","","79","","20","","23","","19.3","","98.76","","","","","","Cloudy"
"1966-01-10 11:00","1966","01","10","11:00","3.3","","0.0","","80","","20","","23","","16.1","","98.74","","","","","","Mostly Cloudy"
"1966-01-10 12:00","1966","01","10","12:00","3.3","","0.0","","80","","20","","29","","16.1","","98.66","","","","","","Mostly Cloudy"
"1966-01-10 13:00","1966","01","10","13:00","3.3","","0.0","","77","","23","","31","","16.1","","98.57","","","","","","Mostly Cloudy"
"1966-01-10 14:00","1966","01","10","14:00","2.8","","-1.1","","74","","27","","31","","16.1","","98.60","","","","","","Mostly Cloudy"
"1966-01-10 15:00","1966","01","10","15:00","-1.7","","-6.7","","69","","27","","42","","16.1","","98.82","","","","-10","","Mostly Cloudy"
"1966-01-10 16:00","1966","01","10","16:00","-4.4","","-6.7","","84","","27","","48","","16.1","","98.99","","","","-14","","Mainly Clear"
"1966-01-10 17:00","1966","01","10","17:00","-6.7","","-11.7","","68","","27","","32","","16.1","","99.14","","","","-15","","Mainly Clear"
"1966-01-10 18:00","1966","01","10","18:00","-8.3","","-13.3","","68","","27","","32","","16.1","","99.28","","","","-18","","Mainly Clear"
"1966-01-10 19:00","1966","01","10","19:00","-8.9","","-11.7","","80","","25","","35","","24.1","","99.42","","","","-19","","Mainly Clear"
"1966-01-10 20:00","1966","01","10","20:00","-9.4","","-13.3","","75","","27","","26","","16.1","","99.49","","","","-18","","Mainly Clear"
"1966-01-10 21:00","1966","01","10","21:00","-9.4","","-12.2","","79","","23","","32","","24.1","","99.50","","","","-19","","Mainly Clear"
"1966-01-10 22:00","1966","01","10","22:00","-9.4","","-12.8","","76","","25","","32","","24.1","","99.53","","","","-19","","Mostly Cloudy"
"1966-01-10 23:00","1966","01","10","23:00","-10.0","","-12.2","","83","","25","","29","","24.1","","99.54","","","","-19","","Mainly Clear"
"1966-01-11 00:00","1966","01","11","00:00","-10.0","","-15.0","","68","","25","","32","","24.1","","99.57","","","","-20","","Mainly Clear"
"1966-01-11 01:00","1966","01","11","01:00","-10.0","","-16.7","","57","","25","","32","","25.0","","99.57","","","","-20","","Mostly Cloudy"
"1966-01-11 02:00","1966","01","11","02:00","-10.0","","-13.9","","72","","25","","35","","25.0","","99.60","","","","-20","","Mostly Cloudy"
"1966-01-11 03:00","1966","01","11","03:00","-10.0","","-15.0","","66","","25","","35","","25.0","","99.69","","","","-20","","Mainly Clear"
"1966-01-11 04:00","1966","01","11","04:00","-10.6","","-15.0","","71","","25","","32","","25.0","","99.70","","","","-21","","Mainly Clear"
"1966-01-11 05:00","1966","01","11","05:00","-10.6","","-14.4","","74","","25","","29","","25.0","","99.75","","","","-20","","Mainly Clear"
"1966-01-11 06:00","1966","01","11","06:00","-10.0","","-13.3","","75","","25","","19","","25.0","","99.84","","","","-18","","Mostly Cloudy"
"1966-01-11 07:00","1966","01","11","07:00","-8.9","","-13.3","","71","","27","","19","","16.1","","99.89","","","","-16","","Snow Showers"
"1966-01-11 08:00","1966","01","11","08:00","-9.4","","-12.8","","76","","29","","19","","9.7","","99.99","","","","-17","","Snow Showers"
"1966-01-11 09:00","1966","01","11","09:00","-10.6","","-15.6","","68","","29","","29","","32.2","","100.10","","","","-20","","Mainly Clear"
"1966-01-11 10:00","1966","01","11","10:00","-10.6","","-16.7","","60","","29","","29","","40.2","","100.17","","","","-20","","Mainly Clear"
"1966-01-11 11:00","1966","01","11","11:00","-10.6","","-16.1","","65","","29","","29","","40.2","","100.27","","","","-20","","Mainly Clear"
"1966-01-11 12:00","1966","01","11","12:00","-10.6","","-17.2","","58","","29","","35","","40.2","","100.31","","","","-21","","Mainly Clear"
"1966-01-11 13:00","1966","01","11","13:00","-11.1","","-17.8","","57","","29","","29","","40.2","","100.37","","","","-21","","Mainly Clear"
"1966-01-11 14:00","1966","01","11","14:00","-10.6","","-17.2","","58","","29","","32","","40.2","","100.44","","","","-21","","Mainly Clear"
"1966-01-11 15:00","1966","01","11","15:00","-11.1","","-18.3","","55","","29","","32","","32.2","","100.52","","","","-21","","Mainly Clear"
"1966-01-11 16:00","1966","01","11","16:00","-11.7","","-20.0","","50","","32","","32","","32.2","","100.60","","","","-22","","Mainly Clear"
"1966-01-11 17:00","1966","01","11","17:00","-12.2","","-19.4","","54","","32","","26","","32.2","","100.69","","","","-22","","Mainly Clear"
"1966-01-11 18:00","1966","01","11","18:00","-13.9","","-20.6","","58","","32","","13","","25.0","","100.79","","","","-21","","Mainly Clear"
"1966-01-11 19:00","1966","01","11","19:00","-15.0","","-17.8","","78","","36","","14","","25.0","","100.89","","","","-23","","Mainly Clear"
"1966-01-11 20:00","1966","01","11","20:00","-15.6","","-18.3","","79","","36","","13","","25.0","","100.95","","","","-23","","Mainly Clear"
"1966-01-11 21:00","1966","01","11","21:00","-16.1","","-19.4","","76","","34","","16","","25.0","","101.01","","","","-25","","Mainly Clear"
"1966-01-11 22:00","1966","01","11","22:00","-16.7","","-20.6","","73","","34","","19","","25.0","","101.07","","","","-26","","Mainly Clear"
"1966-01-11 23:00","1966","01","11","23:00","-17.2","","-20.6","","75","","34","","14","","24.1","","101.11","","","","-25","","Mainly Clear"
"1966-01-12 00:00","1966","01","12","00:00","-18.3","","-22.2","","73","","36","","16","","24.1","","101.10","","","","-27","","Mainly Clear"
"1966-01-12 01:00","1966","01","12","01:00","-18.3","","-21.7","","76","","34","","13","","25.0","","101.16","","","","-26","","Mainly Clear"
"1966-01-12 02:00","1966","01","12","02:00","-19.4","","-23.3","","71","","34","","16","","25.0","","101.21","","","","-29","","Mainly Clear"
"1966-01-12 03:00","1966","01","12","03:00","-19.4","","-22.2","","77","","34","","18","","25.0","","101.22","","","","-29","","Clear"
"1966-01-12 04:00","1966","01","12","04:00","-20.0","","-26.1","","59","","34","","18","","25.0","","101.27","","","","-30","","Clear"
"1966-01-12 05:00","1966","01","12","05:00","-20.0","","-26.1","","59","","34","","16","","25.0","","101.31","","","","-29","","Clear"
"1966-01-12 06:00","1966","01","12","06:00","-20.6","","-26.7","","57","","34","","16","","25.0","","101.37","","","","-30","","Clear"
"1966-01-12 07:00","1966","01","12","07:00","-21.1","","-26.1","","65","","36","","13","","25.0","","101.38","","","","-30","","Clear"
"1966-01-12 08:00","1966","01","12","08:00","-21.1","","-26.7","","62","","34","","13","","40.2","","101.38","","","","-30","","Mainly Clear"
"1966-01-12 09:00","1966","01","12","09:00","-20.6","","-25.6","","63","","34","","14","","40.2","","101.43","","","","-29","","Mainly Clear"
"1966-01-12 10:00","1966","01","12","10:00","-19.4","","-23.9","","68","","36","","11","","40.2","","101.44","","","","-27","","Mostly Cloudy"
"1966-01-12 11:00","1966","01","12","11:00","-17.2","","-21.1","","72","","36","","14","","40.2","","101.33","","","","-25","","Cloudy"
"1966-01-12 12:00","1966","01","12","12:00","-16.1","","-22.2","","58","","32","","6","","40.2","","101.23","","","","-21","","Cloudy"
"1966-01-12 13:00","1966","01","12","13:00","-15.0","","-20.6","","63","","36","","5","","40.2","","101.17","","","","-19","","Cloudy"
"1966-01-12 14:00","1966","01","12","14:00","-13.3","","-20.0","","58","","34","","3","","40.2","","101.08","","","","-15","","Cloudy"
"1966-01-12 15:00","1966","01","12","15:00","-12.2","","-19.4","","55","","","","0","","40.2","","101.00","","","","","","Cloudy"
"1966-01-12 16:00","1966","01","12","16:00","-12.2","","-18.3","","61","","14","","3","","40.2","","100.96","","","","-14","","Cloudy"
"1966-01-12 17:00","1966","01","12","17:00","-12.8","","-16.7","","72","","14","","3","","32.2","","100.91","","","","-15","","Mostly Cloudy"
"1966-01-12 18:00","1966","01","12","18:00","-13.9","","-17.2","","78","","25","","3","","32.2","","100.94","","","","-16","","Mostly Cloudy"
"1966-01-12 19:00","1966","01","12","19:00","-13.9","","-17.2","","76","","2","","10","","25.0","","100.82","","","","-20","","Mainly Clear"
"1966-01-12 20:00","1966","01","12","20:00","-13.9","","-16.1","","81","","2","","6","","24.1","","100.73","","","","-18","","Snow Showers"
"1966-01-12 21:00","1966","01","12","21:00","-12.8","","-15.0","","83","","5","","11","","24.1","","100.66","","","","-19","","Snow Showers"
"1966-01-12 22:00","1966","01","12","22:00","-13.3","","-16.1","","78","","5","","13","","16.1","","100.55","","","","-20","","Snow Showers"
"1966-01-12 23:00","1966","01","12","23:00","-12.8","","-15.6","","81","","5","","11","","19.3","","100.46","","","","-19","","Mostly Cloudy"
"1966-01-13 00:00","1966","01","13","00:00","-11.1","","-14.4","","77","","7","","10","","19.3","","100.34","","","","-17","","Mostly Cloudy"
"1966-01-13 01:00","1966","01","13","01:00","-9.4","","-12.2","","81","","9","","19","","19.3","","100.24","","","","-17","","Mostly Cloudy"
"1966-01-13 02:00","1966","01","13","02:00","-7.8","","-12.8","","68","","9","","32","","25.0","","100.07","","","","-17","","Mainly Clear"
"1966-01-13 03:00","1966","01","13","03:00","-7.2","","-10.6","","76","","9","","26","","25.0","","99.93","","","","-15","","Mostly Cloudy"
"1966-01-13 04:00","1966","01","13","04:00","-6.7","","-10.0","","77","","9","","24","","25.0","","99.83","","","","-14","","Cloudy"
"1966-01-13 05:00","1966","01","13","05:00","-6.1","","-8.3","","84","","9","","29","","25.0","","99.70","","","","-14","","Cloudy"
"1966-01-13 06:00","1966","01","13","06:00","-6.1","","-7.8","","87","","9","","24","","25.0","","99.63","","","","-14","","Cloudy"
"1966-01-13 07:00","1966","01","13","07:00","-5.6","","-8.3","","82","","9","","32","","25.0","","99.44","","","","-14","","Mostly Cloudy"
"1966-01-13 08:00","1966","01","13","08:00","-5.0","","-8.3","","79","","9","","32","","32.2","","99.35","","","","-13","","Mostly Cloudy"
"1966-01-13 09:00","1966","01","13","09:00","-4.4","","-8.3","","74","","9","","32","","16.1","","99.24","","","","-12","","Snow"
"1966-01-13 10:00","1966","01","13","10:00","-4.4","","-8.9","","73","","11","","29","","6.4","","99.17","","","","-12","","Snow"
"1966-01-13 11:00","1966","01","13","11:00","-5.0","","-7.2","","86","","11","","26","","4.8","","99.07","","","","-12","","Snow"
"1966-01-13 12:00","1966","01","13","12:00","-5.0","","-6.1","","90","","11","","16","","3.2","","98.92","","","","-11","","Snow"
"1966-01-13 13:00","1966","01","13","13:00","-4.4","","-5.6","","92","","9","","19","","3.6","","98.74","","","","-11","","Snow"
"1966-01-13 14:00","1966","01","13","14:00","-3.9","","-5.0","","93","","9","","14","","1.2","","98.64","","","","-9","","Snow"
"1966-01-13 15:00","1966","01","13","15:00","-3.3","","-4.4","","93","","9","","13","","1.6","","98.58","","","","-8","","Snow"
"1966-01-13 16:00","1966","01","13","16:00","-2.8","","-3.3","","95","","36","","13","","1.6","","98.55","","","","-7","","Snow"
"1966-01-13 17:00","1966","01","13","17:00","-5.0","","-6.1","","92","","36","","18","","4.8","","98.54","","","","-11","","Snow"
"1966-01-13 18:00","1966","01","13","18:00","-5.0","","-6.7","","89","","36","","18","","12.9","","98.62","","","","-11","","Snow"
"1966-01-13 19:00","1966","01","13","19:00","-6.7","","-8.9","","86","","34","","26","","19.3","","98.72","","","","-15","","Cloudy"
"1966-01-13 20:00","1966","01","13","20:00","-7.8","","-10.0","","84","","34","","23","","12.9","","98.82","","","","-16","","Snow"
"1966-01-13 21:00","1966","01","13","21:00","-10.0","","-12.8","","81","","32","","23","","25.0","","98.93","","","","-18","","Mainly Clear"
"1966-01-13 22:00","1966","01","13","22:00","-10.6","","-12.8","","82","","32","","21","","25.0","","99.06","","","","-19","","Mainly Clear"
"1966-01-13 23:00","1966","01","13","23:00","-6.1","","-8.9","","82","","29","","27","","25.0","","99.12","","","","-14","","Mostly Cloudy"
"1966-01-14 00:00","1966","01","14","00:00","-5.6","","-8.3","","80","","27","","21","","25.0","","99.21","","","","-12","","Mostly Cloudy"
"1966-01-14 01:00","1966","01","14","01:00","-5.6","","-7.8","","85","","29","","11","","25.0","","99.27","","","","-10","","Mostly Cloudy"
"1966-01-14 02:00","1966","01","14","02:00","-4.4","","-6.1","","88","","23","","8","","25.0","","99.30","","","","-8","","Mostly Cloudy"
"1966-01-14 03:00","1966","01","14","03:00","-5.0","","-7.8","","82","","25","","8","","25.0","","99.35","","","","-9","","Cloudy"
"1966-01-14 04:00","1966","01","14","04:00","-4.4","","-7.2","","81","","25","","13","","25.0","","99.34","","","","-9","","Cloudy"
"1966-01-14 05:00","1966","01","14","05:00","-4.4","","-6.7","","85","","20","","10","","25.0","","99.30","","","","-9","","Snow Showers"
"1966-01-14 06:00","1966","01","14","06:00","-4.4","","-6.7","","84","","20","","8","","25.0","","99.31","","","","-8","","Cloudy"
"1966-01-14 07:00","1966","01","14","07:00","-3.3","","-7.2","","76","","23","","10","","24.1","","99.35","","","","-7","","Cloudy"
"1966-01-14 08:00","1966","01","14","08:00","-3.3","","-5.6","","86","","23","","19","","32.2","","99.37","","","","-9","","Cloudy"
"1966-01-14 09:00","1966","01","14","09:00","-3.9","","-6.7","","83","","23","","18","","32.2","","99.39","","","","-10","","Mostly Cloudy"
"1966-01-14 10:00","1966","01","14","10:00","-4.4","","-7.2","","81","","23","","14","","19.3","","99.40","","","","-10","","Mostly Cloudy"
"1966-01-14 11:00","1966","01","14","11:00","-3.3","","-7.2","","75","","25","","24","","19.3","","99.36","","","","-10","","Mainly Clear"
"1966-01-14 12:00","1966","01","14","12:00","-2.8","","-6.7","","76","","25","","26","","24.1","","99.27","","","","-10","","Mainly Clear"
"1966-01-14 13:00","1966","01","14","13:00","-3.3","","-6.7","","77","","25","","29","","24.1","","99.19","","","","-11","","Mainly Clear"
"1966-01-14 14:00","1966","01","14","14:00","-2.2","","-5.0","","80","","25","","24","","24.1","","99.16","","","","-9","","Mainly Clear"
"1966-01-14 15:00","1966","01","14","15:00","-2.2","","-5.6","","79","","25","","23","","19.3","","99.19","","","","-8","","Mostly Cloudy"
"1966-01-14 16:00","1966","01","14","16:00","-2.2","","-5.0","","80","","25","","18","","19.3","","99.20","","","","-8","","Snow Showers"
"1966-01-14 17:00","1966","01","14","17:00","-3.3","","-6.1","","82","","25","","16","","24.1","","99.21","","","","-9","","Mostly Cloudy"
"1966-01-14 18:00","1966","01","14","18:00","-3.3","","-5.6","","84","","29","","14","","24.1","","99.27","","","","-8","","Mostly Cloudy"
"1966-01-14 19:00","1966","01","14","19:00","-3.3","","-6.7","","78","","32","","14","","25.0","","99.31","","","","-8","","Cloudy"
"1966-01-14 20:00","1966","01","14","20:00","-5.0","","-7.8","","81","","32","","13","","25.0","","99.36","","","","-10","","Mostly Cloudy"
"1966-01-14 21:00","1966","01","14","21:00","-6.7","","-9.4","","82","","32","","16","","19.3","","99.42","","","","-13","","Snow Showers"
"1966-01-14 22:00","1966","01","14","22:00","-8.9","","-12.2","","77","","32","","16","","25.0","","99.47","","","","-16","","Mainly Clear"
"1966-01-14 23:00","1966","01","14","23:00","-11.1","","-14.4","","77","","32","","11","","25.0","","99.47","","","","-17","","Mainly Clear"
"1966-01-15 00:00","1966","01","15","00:00","-12.2","","-15.0","","78","","34","","19","","25.0","","99.50","","","","-20","","Mainly Clear"
"1966-01-15 01:00","1966","01","15","01:00","-12.2","","-17.2","","68","","34","","16","","25.0","","99.52","","","","-20","","Mainly Clear"
"1966-01-15 02:00","1966","01","15","02:00","-10.6","","-13.3","","81","","32","","11","","25.0","","99.58","","","","-16","","Mostly Cloudy"
"1966-01-15 03:00","1966","01","15","03:00","-10.0","","-13.9","","72","","32","","18","","25.0","","99.62","","","","-17","","Mostly Cloudy"
"1966-01-15 04:00","1966","01","15","04:00","-9.4","","-12.8","","76","","32","","13","","25.0","","99.66","","","","-15","","Mostly Cloudy"
"1966-01-15 05:00","1966","01","15","05:00","-11.1","","-14.4","","77","","36","","13","","25.0","","99.76","","","","-18","","Mostly Cloudy"
"1966-01-15 06:00","1966","01","15","06:00","-13.3","","-16.7","","76","","36","","19","","25.0","","99.74","","","","-22","","Mostly Cloudy"
"1966-01-15 07:00","1966","01","15","07:00","-12.8","","-16.1","","77","","36","","16","","25.0","","99.85","","","","-20","","Mostly Cloudy"
"1966-01-15 08:00","1966","01","15","08:00","-13.9","","-17.2","","78","","36","","19","","40.2","","99.88","","","","-23","","Mostly Cloudy"
"1966-01-15 09:00","1966","01","15","09:00","-14.4","","-18.9","","69","","34","","18","","40.2","","99.95","","","","-23","","Mostly Cloudy"
"1966-01-15 10:00","1966","01","15","10:00","-14.4","","-20.6","","59","","34","","16","","40.2","","99.95","","","","-22","","Mainly Clear"
"1966-01-15 11:00","1966","01","15","11:00","-13.3","","-19.4","","60","","32","","10","","40.2","","99.94","","","","-19","","Mostly Cloudy"
"1966-01-15 12:00","1966","01","15","12:00","-12.2","","-18.9","","59","","36","","6","","40.2","","99.86","","","","-16","","Mostly Cloudy"
"1966-01-15 13:00","1966","01","15","13:00","-8.9","","-14.4","","63","","18","","3","","40.2","","99.77","","","","-11","","Mainly Clear"
"1966-01-15 14:00","1966","01","15","14:00","-9.4","","-15.6","","61","","20","","6","","40.2","","99.73","","","","-13","","Mainly Clear"
"1966-01-15 15:00","1966","01","15","15:00","-9.4","","-14.4","","67","","20","","16","","40.2","","99.72","","","","-16","","Mainly Clear"
"1966-01-15 16:00","1966","01","15","16:00","-9.4","","-14.4","","66","","25","","14","","40.2","","99.70","","","","-16","","Mainly Clear"
"1966-01-15 17:00","1966","01","15","17:00","-13.3","","-18.3","","67","","34","","32","","40.2","","99.80","","","","-24","","Mainly Clear"
"1966-01-15 18:00","1966","01","15","18:00","-15.0","","-18.9","","72","","36","","31","","40.2","","99.89","","","","-26","","Mainly Clear"
"1966-01-15 19:00","1966","01","15","19:00","-16.1","","-18.9","","79","","36","","23","","25.0","","99.97","","","","-26","","Clear"
"1966-01-15 20:00","1966","01","15","20:00","-17.2","","-20.6","","75","","34","","14","","25.0","","100.02","","","","-25","","Clear"
"1966-01-15 21:00","1966","01","15","21:00","-17.8","","-22.8","","66","","34","","23","","25.0","","100.06","","","","-28","","Clear"
"1966-01-15 22:00","1966","01","15","22:00","-18.9","","-22.8","","72","","34","","18","","25.0","","100.11","","","","-29","","Clear"
"1966-01-15 23:00","1966","01","15","23:00","-20.0","","-26.1","","59","","34","","29","","25.0","","100.14","","","","-32","","Mainly Clear"
"1966-01-16 00:00","1966","01","16","00:00","-21.7","","-25.0","","74","","34","","16","","25.0","","100.15","","","","-31","","Clear"
"1966-01-16 01:00","1966","01","16","01:00","-21.7","","-25.6","","71","","34","","14","","25.0","","100.13","","","","-31","","Clear"
"1966-01-16 02:00","1966","01","16","02:00","-22.8","","-27.2","","65","","34","","11","","25.0","","100.07","","","","-31","","Mainly Clear"
"1966-01-16 03:00","1966","01","16","03:00","-21.7","","-25.6","","71","","32","","10","","25.0","","100.06","","","","-29","","Mainly Clear"
"1966-01-16 04:00","1966","01","16","04:00","-22.2","","-25.6","","73","","29","","10","","25.0","","99.97","","","","-30","","Mainly Clear"
"1966-01-16 05:00","1966","01","16","05:00","-21.7","","-25.0","","74","","32","","13","","25.0","","99.92","","","","-30","","Mainly Clear"
"1966-01-16 06:00","1966","01","16","06:00","-20.6","","-23.9","","76","","29","","11","","25.0","","99.84","","","","-28","","Mainly Clear"
"1966-01-16 07:00","1966","01","16","07:00","-18.9","","-22.8","","72","","","","0","","24.1","","99.87","","","","","","Snow Showers"
"1966-01-16 08:00","1966","01","16","08:00","-17.8","","-22.8","","64","","36","","3","","9.7","","99.88","","","","-20","","Snow Showers"
"1966-01-16 09:00","1966","01","16","09:00","-15.6","","-18.9","","75","","36","","18","","4.8","","99.88","","","","-24","","Snow Showers"
"1966-01-16 10:00","1966","01","16","10:00","-15.0","","-19.4","","70","","36","","16","","8.0","","99.88","","","","-23","","Haze"
"1966-01-16 11:00","1966","01","16","11:00","-14.4","","-19.4","","67","","34","","19","","40.2","","99.88","","","","-23","","Mainly Clear"
"1966-01-16 12:00","1966","01","16","12:00","-13.3","","-17.2","","73","","34","","14","","40.2","","99.80","","","","-21","","Cloudy"
"1966-01-16 13:00","1966","01","16","13:00","-11.7","","-15.6","","72","","29","","14","","40.2","","99.76","","","","-19","","Mainly Clear"
"1966-01-16 14:00","1966","01","16","14:00","-9.4","","-13.9","","70","","29","","24","","40.2","","99.69","","","","-18","","Cloudy"
"1966-01-16 15:00","1966","01","16","15:00","-8.9","","-12.8","","74","","32","","23","","40.2","","99.69","","","","-17","","Cloudy"
"1966-01-16 16:00","1966","01","16","16:00","-8.9","","-12.8","","74","","32","","26","","40.2","","99.71","","","","-18","","Mostly Cloudy"
"1966-01-16 17:00","1966","01","16","17:00","-8.9","","-12.8","","73","","29","","26","","40.2","","99.72","","","","-18","","Mostly Cloudy"
"1966-01-16 18:00","1966","01","16","18:00","-8.9","","-13.3","","70","","29","","26","","24.1","","99.72","","","","-18","","Mostly Cloudy"
"1966-01-16 19:00","1966","01","16","19:00","-8.9","","-12.8","","74","","29","","23","","24.1","","99.75","","","","-17","","Mostly Cloudy"
"1966-01-16 20:00","1966","01","16","20:00","-8.9","","-12.8","","74","","29","","24","","25.0","","99.80","","","","-17","","Cloudy"
"1966-01-16 21:00","1966","01","16","21:00","-8.3","","-12.2","","74","","32","","19","","25.0","","99.78","","","","-16","","Cloudy"
"1966-01-16 22:00","1966","01","16","22:00","-10.0","","-14.4","","71","","2","","13","","9.7","","99.80","","","","-16","","Snow Showers"
"1966-01-16 23:00","1966","01","16","23:00","-10.0","","-12.2","","83","","36","","10","","25.0","","99.81","","","","-15","","Mostly Cloudy"
"1966-01-17 00:00","1966","01","17","00:00","-10.0","","-12.8","","78","","34","","11","","25.0","","99.78","","","","-16","","Cloudy"
"1966-01-17 01:00","1966","01","17","01:00","-10.0","","-12.2","","83","","32","","10","","24.1","","99.76","","","","-15","","Cloudy"
"1966-01-17 02:00","1966","01","17","02:00","-10.0","","-12.8","","81","","34","","10","","24.1","","99.76","","","","-15","","Cloudy"
"1966-01-17 03:00","1966","01","17","03:00","-9.4","","-12.2","","79","","27","","10","","24.1","","99.78","","","","-15","","Cloudy"
"1966-01-17 04:00","1966","01","17","04:00","-7.8","","-11.1","","76","","36","","6","","24.1","","99.76","","","","-11","","Cloudy"
"1966-01-17 05:00","1966","01","17","05:00","-7.8","","-10.6","","79","","34","","10","","24.1","","99.76","","","","-13","","Mostly Cloudy"
"1966-01-17 06:00","1966","01","17","06:00","-6.7","","-9.4","","79","","32","","24","","24.1","","99.78","","","","-14","","Cloudy"
"1966-01-17 07:00","1966","01","17","07:00","-6.7","","-9.4","","79","","32","","23","","19.3","","99.81","","","","-14","","Cloudy"
"1966-01-17 08:00","1966","01","17","08:00","-6.7","","-10.0","","78","","29","","16","","24.1","","99.88","","","","-13","","Cloudy"
"1966-01-17 09:00","1966","01","17","09:00","-6.7","","-10.6","","74","","32","","23","","40.2","","99.89","","","","-14","","Cloudy"
"1966-01-17 10:00","1966","01","17","10:00","-6.1","","-9.4","","77","","32","","26","","40.2","","99.92","","","","-14","","Cloudy"
"1966-01-17 11:00","1966","01","17","11:00","-5.0","","-8.9","","74","","32","","23","","40.2","","99.93","","","","-12","","Cloudy"
"1966-01-17 12:00","1966","01","17","12:00","-5.0","","-7.2","","83","","32","","23","","40.2","","99.89","","","","-12","","Cloudy"
"1966-01-17 13:00","1966","01","17","13:00","-4.4","","-7.2","","79","","29","","24","","40.2","","99.82","","","","-11","","Cloudy"
"1966-01-17 14:00","1966","01","17","14:00","-3.9","","-6.7","","80","","32","","16","","40.2","","99.80","","","","-9","","Cloudy"
"1966-01-17 15:00","1966","01","17","15:00","-3.9","","-7.2","","78","","29","","19","","6.4","","99.80","","","","-10","","Snow Showers"
"1966-01-17 16:00","1966","01","17","16:00","-3.9","","-6.7","","80","","29","","19","","32.2","","99.85","","","","-10","","Mostly Cloudy"
"1966-01-17 17:00","1966","01","17","17:00","-4.4","","-7.8","","76","","29","","26","","32.2","","99.87","","","","-12","","Mostly Cloudy"
"1966-01-17 18:00","1966","01","17","18:00","-4.4","","-8.3","","75","","29","","23","","24.1","","99.88","","","","-11","","Mostly Cloudy"
"1966-01-17 19:00","1966","01","17","19:00","-3.9","","-7.2","","77","","27","","14","","24.1","","99.91","","","","-9","","Mostly Cloudy"
"1966-01-17 20:00","1966","01","17","20:00","-4.4","","-7.2","","79","","27","","13","","25.0","","99.93","","","","-9","","Mostly Cloudy"
"1966-01-17 21:00","1966","01","17","21:00","-5.0","","-7.2","","83","","27","","11","","16.1","","99.91","","","","-10","","Snow Showers"
"1966-01-17 22:00","1966","01","17","22:00","-4.4","","-7.8","","78","","25","","13","","16.1","","99.87","","","","-9","","Snow Showers"
"1966-01-17 23:00","1966","01","17","23:00","-4.4","","-6.7","","83","","32","","10","","19.3","","99.87","","","","-9","","Snow Showers"
"1966-01-18 00:00","1966","01","18","00:00","-3.9","","-6.7","","80","","32","","6","","24.1","","99.86","","","","-7","","Snow Showers"
"1966-01-18 01:00","1966","01","18","01:00","-4.4","","-7.2","","79","","27","","10","","24.1","","99.80","","","","-9","","Snow Showers"
"1966-01-18 02:00","1966","01","18","02:00","-4.4","","-7.2","","81","","27","","11","","24.1","","99.80","","","","-9","","Snow Showers"
"1966-01-18 03:00","1966","01","18","03:00","-4.4","","-7.2","","82","","27","","16","","24.1","","99.82","","","","-10","","Snow Showers"
"1966-01-18 04:00","1966","01","18","04:00","-5.0","","-7.2","","83","","27","","18","","6.4","","99.80","","","","-11","","Snow Showers"
"1966-01-18 05:00","1966","01","18","05:00","-5.0","","-6.7","","89","","27","","16","","6.4","","99.77","","","","-11","","Snow"
"1966-01-18 06:00","1966","01","18","06:00","-5.0","","-6.1","","90","","27","","19","","24.1","","99.78","","","","-11","","Snow"
"1966-01-18 07:00","1966","01","18","07:00","-5.0","","-7.2","","83","","27","","18","","24.1","","99.80","","","","-11","","Snow"
"1966-01-18 08:00","1966","01","18","08:00","-5.0","","-7.2","","83","","27","","14","","19.3","","99.80","","","","-10","","Snow"
"1966-01-18 09:00","1966","01","18","09:00","-5.0","","-8.3","","76","","27","","19","","9.7","","99.81","","","","-11","","Snow"
"1966-01-18 10:00","1966","01","18","10:00","-5.0","","-8.3","","76","","27","","19","","6.4","","99.82","","","","-11","","Snow"
"1966-01-18 11:00","1966","01","18","11:00","-4.4","","-7.8","","76","","27","","19","","9.7","","99.83","","","","-11","","Snow"
"1966-01-18 12:00","1966","01","18","12:00","-3.9","","-7.8","","74","","27","","23","","24.1","","99.74","","","","-11","","Cloudy"
"1966-01-18 13:00","1966","01","18","13:00","-3.3","","-7.2","","74","","27","","24","","24.1","","99.67","","","","-10","","Cloudy"
"1966-01-18 14:00","1966","01","18","14:00","-2.8","","-6.7","","76","","27","","21","","32.2","","99.60","","","","-9","","Cloudy"
"1966-01-18 15:00","1966","01","18","15:00","-3.3","","-6.7","","78","","27","","19","","24.1","","99.62","","","","-9","","Snow Showers"
"1966-01-18 16:00","1966","01","18","16:00","-3.3","","-8.3","","68","","29","","23","","24.1","","99.62","","","","-10","","Snow Showers"
"1966-01-18 17:00","1966","01","18","17:00","-3.9","","-6.7","","79","","29","","13","","9.7","","99.64","","","","-9","","Snow Showers"
"1966-01-18 18:00","1966","01","18","18:00","-3.9","","-7.2","","78","","27","","13","","9.7","","99.64","","","","-9","","Snow"
"1966-01-18 19:00","1966","01","18","19:00","-3.9","","-7.8","","75","","29","","19","","16.1","","99.66","","","","-10","","Snow Showers"
"1966-01-18 20:00","1966","01","18","20:00","-3.9","","-6.7","","79","","29","","21","","9.7","","99.65","","","","-10","","Snow Showers"
"1966-01-18 21:00","1966","01","18","21:00","-3.9","","-7.2","","78","","29","","18","","24.1","","99.62","","","","-10","","Cloudy"
"1966-01-18 22:00","1966","01","18","22:00","-3.9","","-6.7","","80","","29","","19","","24.1","","99.62","","","","-10","","Cloudy"
"1966-01-18 23:00","1966","01","18","23:00","-3.3","","-6.7","","79","","29","","19","","24.1","","99.62","","","","-9","","Cloudy"
"1966-01-19 00:00","1966","01","19","00:00","-3.3","","-6.7","","79","","29","","19","","24.1","","99.62","","","","-9","","Snow Showers"
"1966-01-19 01:00","1966","01","19","01:00","-3.3","","-5.6","","84","","32","","24","","25.0","","99.61","","","","-10","","Snow Showers"
"1966-01-19 02:00","1966","01","19","02:00","-3.3","","-6.1","","82","","32","","24","","25.0","","99.61","","","","-10","","Cloudy"
"1966-01-19 03:00","1966","01","19","03:00","-3.3","","-6.1","","82","","32","","27","","25.0","","99.64","","","","-10","","Cloudy"
"1966-01-19 04:00","1966","01","19","04:00","-3.3","","-5.6","","84","","32","","24","","25.0","","99.63","","","","-10","","Cloudy"
"1966-01-19 05:00","1966","01","19","05:00","-2.8","","-5.0","","84","","32","","24","","25.0","","99.63","","","","-9","","Mostly Cloudy"
"1966-01-19 06:00","1966","01","19","06:00","-3.3","","-5.6","","86","","32","","23","","25.0","","99.68","","","","-10","","Cloudy"
"1966-01-19 07:00","1966","01","19","07:00","-3.3","","-5.6","","86","","32","","24","","25.0","","99.74","","","","-10","","Cloudy"
"1966-01-19 08:00","1966","01","19","08:00","-3.9","","-5.6","","87","","32","","29","","19.3","","99.81","","","","-11","","Snow Pellets"
"1966-01-19 09:00","1966","01","19","09:00","-3.9","","-5.6","","87","","34","","27","","19.3","","99.80","","","","-11","","Cloudy"
"1966-01-19 10:00","1966","01","19","10:00","-5.6","","-7.2","","90","","34","","26","","19.3","","99.93","","","","-13","","Cloudy"
"1966-01-19 11:00","1966","01","19","11:00","-5.0","","-8.3","","79","","32","","29","","19.3","","99.94","","","","-13","","Mostly Cloudy"
"1966-01-19 12:00","1966","01","19","12:00","-3.9","","-7.8","","76","","32","","34","","24.1","","99.91","","","","-12","","Mostly Cloudy"
"1966-01-19 13:00","1966","01","19","13:00","-3.9","","-7.8","","76","","32","","34","","32.2","","99.86","","","","-12","","Mostly Cloudy"
"1966-01-19 14:00","1966","01","19","14:00","-3.3","","-6.7","","79","","32","","23","","32.2","","99.86","","","","-10","","Cloudy"
"1966-01-19 15:00","1966","01","19","15:00","-3.9","","-7.2","","78","","34","","24","","32.2","","99.88","","","","-11","","Cloudy"
"1966-01-19 16:00","1966","01","19","16:00","-4.4","","-7.2","","82","","32","","39","","32.2","","99.89","","","","-13","","Cloudy"
"1966-01-19 17:00","1966","01","19","17:00","-5.0","","-7.2","","83","","34","","29","","32.2","","99.96","","","","-13","","Mostly Cloudy"
"1966-01-19 18:00","1966","01","19","18:00","-5.0","","-7.2","","86","","36","","35","","24.1","","100.01","","","","-14","","Mostly Cloudy"
"1966-01-19 19:00","1966","01","19","19:00","-4.4","","-6.1","","89","","32","","32","","24.1","","100.07","","","","-12","","Cloudy"
"1966-01-19 20:00","1966","01","19","20:00","-4.4","","-6.7","","84","","32","","32","","25.0","","100.11","","","","-12","","Mostly Cloudy"
"1966-01-19 21:00","1966","01","19","21:00","-5.0","","-7.8","","82","","34","","29","","25.0","","100.11","","","","-13","","Mostly Cloudy"
"1966-01-19 22:00","1966","01","19","22:00","-5.6","","-8.3","","82","","34","","29","","25.0","","100.13","","","","-14","","Mostly Cloudy"
"1966-01-19 23:00","1966","01","19","23:00","-5.6","","-8.3","","81","","34","","29","","25.0","","100.17","","","","-14","","Mostly Cloudy"
"1966-01-20 00:00","1966","01","20","00:00","-5.0","","-7.8","","80","","34","","26","","25.0","","100.21","","","","-12","","Cloudy"
"1966-01-20 01:00","1966","01","20","01:00","-5.0","","-7.2","","84","","36","","19","","25.0","","100.27","","","","-11","","Cloudy"
"1966-01-20 02:00","1966","01","20","02:00","-5.0","","-6.7","","87","","36","","11","","24.1","","100.30","","","","-10","","Snow Showers"
"1966-01-20 03:00","1966","01","20","03:00","-5.0","","-7.2","","86","","36","","16","","25.0","","100.33","","","","-11","","Snow Showers"
"1966-01-20 04:00","1966","01","20","04:00","-5.0","","-7.2","","83","","34","","11","","25.0","","100.37","","","","-10","","Cloudy"
"1966-01-20 05:00","1966","01","20","05:00","-5.0","","-7.2","","83","","36","","11","","25.0","","100.40","","","","-10","","Cloudy"
"1966-01-20 06:00","1966","01","20","06:00","-5.0","","-7.2","","84","","34","","21","","25.0","","100.42","","","","-12","","Cloudy"
"1966-01-20 07:00","1966","01","20","07:00","-4.4","","-6.1","","86","","34","","19","","25.0","","100.46","","","","-11","","Cloudy"
"1966-01-20 08:00","1966","01","20","08:00","-5.0","","-7.2","","86","","34","","23","","32.2","","100.51","","","","-12","","Cloudy"
"1966-01-20 09:00","1966","01","20","09:00","-5.0","","-7.2","","83","","32","","24","","24.1","","100.55","","","","-12","","Cloudy"
"1966-01-20 10:00","1966","01","20","10:00","-4.4","","-7.2","","82","","34","","21","","24.1","","100.58","","","","-11","","Cloudy"
"1966-01-20 11:00","1966","01","20","11:00","-3.9","","-6.7","","82","","34","","26","","24.1","","100.58","","","","-11","","Cloudy"
"1966-01-20 12:00","1966","01","20","12:00","-2.8","","-5.6","","80","","34","","23","","24.1","","100.55","","","","-9","","Cloudy"
"1966-01-20 13:00","1966","01","20","13:00","-2.2","","-5.6","","78","","34","","19","","24.1","","100.51","","","","-8","","Cloudy"
"1966-01-20 14:00","1966","01","20","14:00","-1.7","","-5.0","","78","","34","","23","","24.1","","100.49","","","","-8","","Cloudy"
"1966-01-20 15:00","1966","01","20","15:00","-1.7","","-5.0","","79","","36","","19","","24.1","","100.49","","","","-7","","Mostly Cloudy"
"1966-01-20 16:00","1966","01","20","16:00","-1.7","","-5.0","","77","","36","","24","","24.1","","100.49","","","","-8","","Cloudy"
"1966-01-20 17:00","1966","01","20","17:00","-1.7","","-5.0","","77","","36","","16","","24.1","","100.49","","","","-7","","Mostly Cloudy"
"1966-01-20 18:00","1966","01","20","18:00","-1.7","","-4.4","","80","","36","","19","","24.1","","100.52","","","","-7","","Cloudy"
"1966-01-20 19:00","1966","01","20","19:00","-1.7","","-3.3","","87","","36","","18","","24.1","","100.53","","","","-7","","Cloudy"
"1966-01-20 20:00","1966","01","20","20:00","-2.2","","-4.4","","86","","34","","19","","24.1","","100.53","","","","-8","","Cloudy"
"1966-01-20 21:00","1966","01","20","21:00","-2.2","","-3.9","","87","","34","","19","","24.1","","100.54","","","","-8","","Cloudy"
"1966-01-20 22:00","1966","01","20","22:00","-2.2","","-4.4","","85","","34","","13","","24.1","","100.53","","","","-7","","Cloudy"
"1966-01-20 23:00","1966","01","20","23:00","-2.2","","-3.9","","87","","36","","13","","24.1","","100.53","","","","-7","","Cloudy"
"1966-01-21 00:00","1966","01","21","00:00","-2.8","","-5.0","","85","","34","","13","","24.1","","100.53","","","","-7","","Cloudy"
"1966-01-21 01:00","1966","01","21","01:00","-2.8","","-4.4","","86","","32","","11","","25.0","","100.53","","","","-7","","Cloudy"
"1966-01-21 02:00","1966","01","21","02:00","-3.3","","-5.0","","87","","32","","11","","25.0","","100.54","","","","-8","","Mostly Cloudy"
"1966-01-21 03:00","1966","01","21","03:00","-3.3","","-5.0","","88","","34","","6","","25.0","","100.58","","","","-6","","Mostly Cloudy"
"1966-01-21 04:00","1966","01","21","04:00","-3.9","","-5.6","","87","","34","","6","","25.0","","100.58","","","","-7","","Snow Showers"
"1966-01-21 05:00","1966","01","21","05:00","-5.0","","-6.7","","88","","34","","8","","24.1","","100.57","","","","-9","","Snow Showers"
"1966-01-21 06:00","1966","01","21","06:00","-5.0","","-6.7","","87","","32","","5","","24.1","","100.58","","","","-7","","Snow Showers"
"1966-01-21 07:00","1966","01","21","07:00","-6.7","","-8.3","","89","","29","","8","","25.0","","100.59","","","","-11","","Snow Showers"
"1966-01-21 08:00","1966","01","21","08:00","-8.3","","-10.0","","89","","29","","8","","19.3","","100.63","","","","-12","","Mainly Clear"
"1966-01-21 09:00","1966","01","21","09:00","-7.8","","-8.9","","90","","32","","11","","19.3","","100.68","","","","-13","","Mainly Clear"
"1966-01-21 10:00","1966","01","21","10:00","-5.6","","-7.2","","87","","29","","8","","19.3","","100.71","","","","-9","","Mostly Cloudy"
"1966-01-21 11:00","1966","01","21","11:00","-2.8","","-5.0","","84","","34","","16","","19.3","","100.71","","","","-8","","Mostly Cloudy"
"1966-01-21 12:00","1966","01","21","12:00","-1.7","","-5.0","","77","","32","","6","","24.1","","100.70","","","","-4","","Snow Showers"
"1966-01-21 13:00","1966","01","21","13:00","-1.7","","-5.0","","77","","34","","10","","19.3","","100.58","","","","-5","","Snow Showers"
"1966-01-21 14:00","1966","01","21","14:00","-0.6","","-5.0","","73","","36","","6","","24.1","","100.53","","","","-3","","Mainly Clear"
"1966-01-21 15:00","1966","01","21","15:00","-0.6","","-5.6","","70","","36","","10","","24.1","","100.52","","","","-4","","Mainly Clear"
"1966-01-21 16:00","1966","01","21","16:00","-0.6","","-5.0","","73","","32","","10","","24.1","","100.58","","","","-4","","Mainly Clear"
"1966-01-21 17:00","1966","01","21","17:00","-1.7","","-5.0","","78","","36","","11","","24.1","","100.58","","","","-6","","Mainly Clear"
"1966-01-21 18:00","1966","01","21","18:00","-2.8","","-5.6","","82","","36","","10","","24.1","","100.62","","","","-7","","Mainly Clear"
"1966-01-21 19:00","1966","01","21","19:00","-3.3","","-5.0","","87","","34","","5","","25.0","","100.67","","","","-5","","Mainly Clear"
"1966-01-21 20:00","1966","01","21","20:00","-5.0","","-7.8","","82","","34","","10","","25.0","","100.64","","","","-9","","Mainly Clear"
"1966-01-21 21:00","1966","01","21","21:00","-6.7","","-8.9","","83","","34","","8","","25.0","","100.65","","","","-11","","Mainly Clear"
"1966-01-21 22:00","1966","01","21","22:00","-7.2","","-9.4","","83","","32","","6","","24.1","","100.57","","","","-10","","Mainly Clear"
"1966-01-21 23:00","1966","01","21","23:00","-8.3","","-10.6","","85","","34","","11","","19.3","","100.55","","","","-14","","Clear"
"1966-01-22 00:00","1966","01","22","00:00","-7.8","","-9.4","","87","","34","","10","","19.3","","100.54","","","","-13","","Clear"
"1966-01-22 01:00","1966","01","22","01:00","-8.9","","-10.0","","90","","34","","10","","12.9","","100.52","","","","-14","","Mainly Clear"
"1966-01-22 02:00","1966","01","22","02:00","-8.3","","-10.0","","87","","34","","10","","19.3","","100.52","","","","-13","","Mostly Cloudy"
"1966-01-22 03:00","1966","01","22","03:00","-7.8","","-8.9","","90","","34","","11","","16.1","","100.52","","","","-13","","Mostly Cloudy"
"1966-01-22 04:00","1966","01","22","04:00","-7.8","","-9.4","","89","","36","","13","","16.1","","100.42","","","","-14","","Cloudy"
"1966-01-22 05:00","1966","01","22","05:00","-6.7","","-8.9","","83","","32","","6","","16.1","","100.43","","","","-10","","Cloudy"
"1966-01-22 06:00","1966","01","22","06:00","-6.7","","-8.9","","85","","34","","6","","16.1","","100.47","","","","-10","","Cloudy"
"1966-01-22 07:00","1966","01","22","07:00","-6.7","","-8.9","","85","","34","","10","","16.1","","100.41","","","","-11","","Snow Showers"
"1966-01-22 08:00","1966","01","22","08:00","-7.8","","-9.4","","87","","36","","10","","12.9","","100.38","","","","-13","","Mostly Cloudy"
"1966-01-22 09:00","1966","01","22","09:00","-6.1","","-7.8","","87","","36","","11","","12.9","","100.30","","","","-11","","Mostly Cloudy"
"1966-01-22 10:00","1966","01","22","10:00","-3.9","","-6.1","","85","","5","","10","","9.7","","100.25","","","","-8","","Smoke,Haze"
"1966-01-22 11:00","1966","01","22","11:00","-0.6","","-5.6","","67","","11","","24","","11.3","","100.20","","","","-7","","Cloudy"
"1966-01-22 12:00","1966","01","22","12:00","-0.6","","-5.6","","70","","11","","31","","16.1","","100.08","","","","-7","","Cloudy"
"1966-01-22 13:00","1966","01","22","13:00","-1.1","","-4.4","","79","","11","","31","","24.1","","100.00","","","","-8","","Mostly Cloudy"
"1966-01-22 14:00","1966","01","22","14:00","-1.1","","-4.4","","79","","9","","24","","24.1","","99.89","","","","-7","","Mostly Cloudy"
"1966-01-22 15:00","1966","01","22","15:00","-1.1","","-4.4","","79","","9","","26","","19.3","","99.80","","","","-7","","Cloudy"
"1966-01-22 16:00","1966","01","22","16:00","-1.1","","-4.4","","79","","9","","29","","16.1","","99.72","","","","-8","","Cloudy"
"1966-01-22 17:00","1966","01","22","17:00","-1.7","","-5.6","","74","","9","","32","","16.1","","99.58","","","","-9","","Cloudy"
"1966-01-22 18:00","1966","01","22","18:00","-1.7","","-4.4","","83","","9","","29","","24.1","","99.54","","","","-9","","Mostly Cloudy"
"1966-01-22 19:00","1966","01","22","19:00","-1.7","","-3.3","","88","","9","","32","","25.0","","99.40","","","","-9","","Cloudy"
"1966-01-22 20:00","1966","01","22","20:00","-1.7","","-2.8","","92","","9","","32","","19.3","","99.36","","","","-9","","Cloudy"
"1966-01-22 21:00","1966","01","22","21:00","-1.7","","-2.2","","96","","9","","26","","1.2","","99.26","","","","-8","","Snow"
"1966-01-22 22:00","1966","01","22","22:00","-2.2","","-2.8","","96","","9","","32","","1.2","","99.19","","","","-10","","Snow"
"1966-01-22 23:00","1966","01","22","23:00","-2.2","","-2.8","","96","","9","","32","","1.2","","99.07","","","","-10","","Snow"
"1966-01-23 00:00","1966","01","23","00:00","-1.7","","-2.2","","96","","9","","32","","1.2","","98.90","","","","-9","","Snow"
"1966-01-23 01:00","1966","01","23","01:00","-1.7","","-1.7","","98","","9","","29","","1.2","","98.80","","","","-9","","Snow,Blowing Snow"
"1966-01-23 02:00","1966","01","23","02:00","-1.7","","-1.7","","98","","9","","32","","1.0","","98.74","","","","-9","","Snow,Blowing Snow"
"1966-01-23 03:00","1966","01","23","03:00","-1.7","","-1.7","","98","","9","","34","","0.8","","98.66","","","","-9","","Moderate Snow,Blowing Snow"
"1966-01-23 04:00","1966","01","23","04:00","-1.7","","-1.7","","98","","9","","24","","1.0","","98.58","","","","-8","","Snow"
"1966-01-23 05:00","1966","01","23","05:00","-2.2","","-2.8","","98","","7","","21","","1.0","","98.53","","","","-8","","Snow"
"1966-01-23 06:00","1966","01","23","06:00","-2.8","","-3.3","","97","","7","","19","","1.0","","98.48","","","","-9","","Snow"
"1966-01-23 07:00","1966","01","23","07:00","-3.3","","-3.9","","97","","5","","16","","1.0","","98.46","","","","-9","","Snow"
"1966-01-23 08:00","1966","01","23","08:00","-1.7","","-1.7","","98","","9","","29","","1.0","","98.46","","","","-9","","Snow"
"1966-01-23 09:00","1966","01","23","09:00","-2.2","","-2.8","","97","","9","","27","","1.0","","98.42","","","","-9","","Snow"
"1966-01-23 10:00","1966","01","23","10:00","-3.3","","-3.9","","96","","5","","24","","0.8","","98.42","","","","-10","","Moderate Snow"
"1966-01-23 11:00","1966","01","23","11:00","-3.3","","-3.9","","97","","2","","14","","1.2","","98.41","","","","-8","","Snow"
"1966-01-23 12:00","1966","01","23","12:00","-3.3","","-4.4","","92","","36","","13","","6.4","","98.41","","","","-8","","Snow"
"1966-01-23 13:00","1966","01","23","13:00","-2.8","","-4.4","","89","","36","","19","","4.0","","98.41","","","","-9","","Snow"
"1966-01-23 14:00","1966","01","23","14:00","-2.8","","-3.9","","93","","36","","10","","1.6","","98.43","","","","-7","","Snow"
"1966-01-23 15:00","1966","01","23","15:00","-3.3","","-3.9","","96","","34","","10","","2.4","","98.49","","","","-7","","Snow"
"1966-01-23 16:00","1966","01","23","16:00","-3.3","","-3.9","","96","","32","","11","","2.4","","98.53","","","","-8","","Snow"
"1966-01-23 17:00","1966","01","23","17:00","-3.3","","-4.4","","93","","32","","11","","3.2","","98.60","","","","-8","","Snow"
"1966-01-23 18:00","1966","01","23","18:00","-3.9","","-4.4","","94","","29","","11","","4.0","","98.65","","","","-8","","Snow"
"1966-01-23 19:00","1966","01","23","19:00","-5.0","","-5.6","","94","","29","","11","","4.0","","98.73","","","","-10","","Snow"
"1966-01-23 20:00","1966","01","23","20:00","-7.8","","-8.9","","91","","27","","16","","9.7","","98.80","","","","-14","","Fog"
"1966-01-23 21:00","1966","01","23","21:00","-3.9","","-6.1","","85","","29","","23","","12.9","","98.87","","","","-11","","Mostly Cloudy"
"1966-01-23 22:00","1966","01","23","22:00","-3.9","","-6.7","","82","","29","","27","","24.1","","98.93","","","","-11","","Mainly Clear"
"1966-01-23 23:00","1966","01","23","23:00","-6.1","","-8.9","","82","","29","","21","","24.1","","99.02","","","","-13","","Mainly Clear"
"1966-01-24 00:00","1966","01","24","00:00","-8.9","","-11.7","","79","","27","","11","","24.1","","99.08","","","","-14","","Mainly Clear"
"1966-01-24 01:00","1966","01","24","01:00","-10.0","","-11.7","","88","","27","","13","","12.9","","99.14","","","","-16","","Snow Showers"
"1966-01-24 02:00","1966","01","24","02:00","-6.1","","-8.9","","79","","27","","26","","25.0","","99.26","","","","-14","","Mainly Clear"
"1966-01-24 03:00","1966","01","24","03:00","-7.2","","-9.4","","83","","27","","27","","25.0","","99.37","","","","-15","","Mainly Clear"
"1966-01-24 04:00","1966","01","24","04:00","-7.8","","-11.1","","78","","27","","24","","25.0","","99.45","","","","-16","","Clear"
"1966-01-24 05:00","1966","01","24","05:00","-8.3","","-12.2","","74","","27","","26","","25.0","","99.51","","","","-17","","Clear"
"1966-01-24 06:00","1966","01","24","06:00","-10.0","","-13.9","","72","","27","","19","","25.0","","99.57","","","","-18","","Mainly Clear"
"1966-01-24 07:00","1966","01","24","07:00","-10.0","","-13.3","","75","","27","","24","","25.0","","99.68","","","","-19","","Mainly Clear"
"1966-01-24 08:00","1966","01","24","08:00","-10.0","","-13.3","","75","","27","","23","","32.2","","99.77","","","","-18","","Mainly Clear"
"1966-01-24 09:00","1966","01","24","09:00","-9.4","","-14.4","","67","","25","","23","","32.2","","99.88","","","","-18","","Mainly Clear"
"1966-01-24 10:00","1966","01","24","10:00","-8.9","","-13.9","","66","","27","","19","","32.2","","99.95","","","","-16","","Mainly Clear"
"1966-01-24 11:00","1966","01","24","11:00","-7.8","","-13.3","","65","","27","","23","","32.2","","100.05","","","","-16","","Mainly Clear"
"1966-01-24 12:00","1966","01","24","12:00","-7.8","","-13.3","","64","","27","","24","","32.2","","100.02","","","","-16","","Mainly Clear"
"1966-01-24 13:00","1966","01","24","13:00","-7.2","","-12.2","","67","","27","","23","","32.2","","99.98","","","","-15","","Mainly Clear"
"1966-01-24 14:00","1966","01","24","14:00","-7.2","","-12.8","","65","","27","","26","","32.2","","100.01","","","","-15","","Mainly Clear"
"1966-01-24 15:00","1966","01","24","15:00","-7.2","","-11.7","","69","","27","","19","","32.2","","100.07","","","","-14","","Mainly Clear"
"1966-01-24 16:00","1966","01","24","16:00","-8.3","","-13.9","","64","","27","","19","","32.2","","100.14","","","","-16","","Mainly Clear"
"1966-01-24 17:00","1966","01","24","17:00","-8.9","","-14.4","","63","","27","","16","","32.2","","100.20","","","","-16","","Mainly Clear"
"1966-01-24 18:00","1966","01","24","18:00","-10.6","","-16.7","","62","","27","","16","","25.0","","100.30","","","","-18","","Mainly Clear"
"1966-01-24 19:00","1966","01","24","19:00","-12.2","","-15.6","","75","","27","","14","","25.0","","100.34","","","","-19","","Clear"
"1966-01-24 20:00","1966","01","24","20:00","-12.2","","-15.0","","80","","27","","18","","25.0","","100.38","","","","-20","","Mainly Clear"
"1966-01-24 21:00","1966","01","24","21:00","-12.2","","-15.0","","78","","27","","16","","25.0","","100.41","","","","-20","","Mainly Clear"
"1966-01-24 22:00","1966","01","24","22:00","-11.7","","-15.6","","72","","27","","14","","25.0","","100.44","","","","-19","","Mostly Cloudy"
"1966-01-24 23:00","1966","01","24","23:00","-13.3","","-16.1","","78","","27","","14","","25.0","","100.46","","","","-21","","Mainly Clear"
"1966-01-25 00:00","1966","01","25","00:00","-12.8","","-15.6","","79","","27","","18","","25.0","","100.51","","","","-21","","Mainly Clear"
"1966-01-25 01:00","1966","01","25","01:00","-13.9","","-17.8","","74","","27","","13","","25.0","","100.55","","","","-21","","Mainly Clear"
"1966-01-25 02:00","1966","01","25","02:00","-16.7","","-20.6","","73","","36","","8","","25.0","","100.59","","","","-22","","Mainly Clear"
"1966-01-25 03:00","1966","01","25","03:00","-17.2","","-20.0","","80","","32","","11","","25.0","","100.63","","","","-24","","Mainly Clear"
"1966-01-25 04:00","1966","01","25","04:00","-17.8","","-20.0","","84","","34","","8","","25.0","","100.67","","","","-24","","Mainly Clear"
"1966-01-25 05:00","1966","01","25","05:00","-20.0","","-22.2","","82","","34","","13","","25.0","","100.70","","","","-28","","Mainly Clear"
"1966-01-25 06:00","1966","01","25","06:00","-16.1","","-18.3","","83","","36","","11","","25.0","","100.78","","","","-23","","Snow Showers"
"1966-01-25 07:00","1966","01","25","07:00","-16.1","","-18.9","","81","","36","","16","","25.0","","100.85","","","","-25","","Mostly Cloudy"
"1966-01-25 08:00","1966","01","25","08:00","-16.7","","-20.6","","73","","36","","16","","32.2","","100.91","","","","-25","","Mostly Cloudy"
"1966-01-25 09:00","1966","01","25","09:00","-17.2","","-22.2","","65","","34","","18","","32.2","","100.98","","","","-26","","Mostly Cloudy"
"1966-01-25 10:00","1966","01","25","10:00","-17.2","","-21.1","","72","","34","","21","","32.2","","101.01","","","","-27","","Mostly Cloudy"
"1966-01-25 11:00","1966","01","25","11:00","-16.7","","-22.2","","62","","34","","23","","32.2","","101.04","","","","-27","","Mainly Clear"
"1966-01-25 12:00","1966","01","25","12:00","-16.1","","-21.1","","65","","34","","23","","32.2","","101.02","","","","-26","","Mainly Clear"
"1966-01-25 13:00","1966","01","25","13:00","-15.6","","-20.6","","66","","34","","23","","32.2","","100.96","","","","-26","","Mainly Clear"
"1966-01-25 14:00","1966","01","25","14:00","-15.6","","-21.1","","62","","34","","21","","32.2","","100.97","","","","-25","","Mainly Clear"
"1966-01-25 15:00","1966","01","25","15:00","-15.0","","-21.1","","59","","34","","16","","32.2","","100.99","","","","-23","","Mainly Clear"
"1966-01-25 16:00","1966","01","25","16:00","-15.0","","-21.1","","59","","34","","19","","32.2","","101.02","","","","-24","","Mainly Clear"
"1966-01-25 17:00","1966","01","25","17:00","-16.7","","-22.2","","62","","34","","18","","32.2","","101.02","","","","-26","","Clear"
"1966-01-25 18:00","1966","01","25","18:00","-17.8","","-22.8","","66","","34","","13","","25.0","","101.06","","","","-26","","Mainly Clear"
"1966-01-25 19:00","1966","01","25","19:00","-21.7","","-26.7","","64","","34","","16","","25.0","","101.08","","","","-31","","Clear"
"1966-01-25 20:00","1966","01","25","20:00","-21.7","","-26.1","","67","","36","","13","","25.0","","101.09","","","","-30","","Clear"
"1966-01-25 21:00","1966","01","25","21:00","-24.4","","-28.9","","66","","34","","11","","25.0","","101.07","","","","-33","","Clear"
"1966-01-25 22:00","1966","01","25","22:00","-23.9","","-28.3","","67","","34","","16","","25.0","","101.03","","","","-34","","Clear"
"1966-01-25 23:00","1966","01","25","23:00","-22.8","","-27.2","","65","","34","","18","","25.0","","101.03","","","","-33","","Clear"
"1966-01-26 00:00","1966","01","26","00:00","-22.8","","-26.1","","73","","34","","19","","25.0","","100.99","","","","-34","","Clear"
"1966-01-26 01:00","1966","01","26","01:00","-23.3","","-27.2","","72","","36","","19","","25.0","","101.00","","","","-34","","Mainly Clear"
"1966-01-26 02:00","1966","01","26","02:00","-21.1","","-26.1","","65","","36","","19","","25.0","","101.01","","","","-32","","Mainly Clear"
"1966-01-26 03:00","1966","01","26","03:00","-20.6","","-24.4","","69","","36","","18","","24.1","","101.01","","","","-31","","Snow Showers"
"1966-01-26 04:00","1966","01","26","04:00","-21.7","","-25.0","","74","","36","","18","","24.1","","100.95","","","","-32","","Snow Showers"
"1966-01-26 05:00","1966","01","26","05:00","-20.0","","-24.4","","67","","36","","19","","24.1","","100.93","","","","-30","","Snow Showers"
"1966-01-26 06:00","1966","01","26","06:00","-20.6","","-24.4","","69","","36","","21","","19.3","","100.90","","","","-31","","Snow Showers"
"1966-01-26 07:00","1966","01","26","07:00","-25.0","","-28.9","","70","","34","","13","","19.3","","100.90","","","","-34","","Mainly Clear"
"1966-01-26 08:00","1966","01","26","08:00","-25.0","","-28.9","","70","","34","","23","","19.3","","100.87","","","","-38","","Mainly Clear"
"1966-01-26 09:00","1966","01","26","09:00","-24.4","","-28.3","","70","","36","","16","","24.1","","100.81","","","","-35","","Cloudy"
"1966-01-26 10:00","1966","01","26","10:00","-21.1","","-25.0","","72","","36","","19","","24.1","","100.73","","","","-32","","Mainly Clear"
"1966-01-26 11:00","1966","01","26","11:00","-18.9","","-23.3","","67","","36","","19","","24.1","","100.66","","","","-29","","Mainly Clear"
"1966-01-26 12:00","1966","01","26","12:00","-17.8","","-21.7","","71","","34","","19","","24.1","","100.57","","","","-27","","Mostly Cloudy"
"1966-01-26 13:00","1966","01","26","13:00","-17.2","","-23.3","","60","","34","","19","","24.1","","100.42","","","","-27","","Mostly Cloudy"
"1966-01-26 14:00","1966","01","26","14:00","-16.1","","-21.1","","65","","34","","18","","24.1","","100.33","","","","-25","","Mostly Cloudy"
"1966-01-26 15:00","1966","01","26","15:00","-15.6","","-21.7","","60","","34","","19","","24.1","","100.23","","","","-25","","Mainly Clear"
"1966-01-26 16:00","1966","01","26","16:00","-15.6","","-22.2","","58","","36","","21","","16.1","","100.17","","","","-25","","Snow Showers"
"1966-01-26 17:00","1966","01","26","17:00","-15.6","","-20.0","","69","","34","","19","","8.0","","100.13","","","","-25","","Snow"
"1966-01-26 18:00","1966","01","26","18:00","-15.6","","-20.6","","64","","36","","24","","9.7","","100.06","","","","-26","","Snow"
"1966-01-26 19:00","1966","01","26","19:00","-15.6","","-20.0","","69","","36","","21","","24.1","","99.99","","","","-25","","Cloudy"
"1966-01-26 20:00","1966","01","26","20:00","-16.1","","-19.4","","76","","36","","24","","25.0","","99.87","","","","-26","","Cloudy"
"1966-01-26 21:00","1966","01","26","21:00","-16.1","","-20.6","","67","","34","","23","","25.0","","99.79","","","","-26","","Cloudy"
"1966-01-26 22:00","1966","01","26","22:00","-15.6","","-21.1","","62","","36","","18","","24.1","","99.68","","","","-24","","Snow Showers"
"1966-01-26 23:00","1966","01","26","23:00","-15.6","","-20.6","","64","","36","","16","","19.3","","99.57","","","","-24","","Snow Showers"
"1966-01-27 00:00","1966","01","27","00:00","-13.9","","-20.0","","60","","2","","16","","6.4","","99.45","","","","-22","","Snow Showers"
"1966-01-27 01:00","1966","01","27","01:00","-13.3","","-17.2","","73","","2","","14","","6.4","","99.41","","","","-21","","Snow Showers"
"1966-01-27 02:00","1966","01","27","02:00","-12.8","","-16.7","","74","","36","","3","","9.7","","99.34","","","","-15","","Snow Showers"
"1966-01-27 03:00","1966","01","27","03:00","-12.8","","-15.6","","81","","32","","6","","3.2","","99.29","","","","-17","","Snow Showers"
"1966-01-27 04:00","1966","01","27","04:00","-13.9","","-16.1","","81","","29","","6","","3.2","","99.16","","","","-18","","Snow Showers"
"1966-01-27 05:00","1966","01","27","05:00","-14.4","","-17.8","","77","","","","0","","4.8","","99.00","","","","","","Snow"
"1966-01-27 06:00","1966","01","27","06:00","-14.4","","-17.8","","77","","","","0","","12.9","","98.98","","","","","","Cloudy"
"1966-01-27 07:00","1966","01","27","07:00","-13.9","","-16.7","","79","","18","","8","","12.9","","98.87","","","","-19","","Cloudy"
"1966-01-27 08:00","1966","01","27","08:00","-12.2","","-14.4","","85","","18","","14","","3.2","","98.75","","","","-19","","Snow Showers"
"1966-01-27 09:00","1966","01","27","09:00","-11.7","","-14.4","","79","","18","","13","","3.2","","98.54","","","","-18","","Snow"
"1966-01-27 10:00","1966","01","27","10:00","-10.0","","-12.2","","83","","18","","23","","3.2","","98.35","","","","-18","","Snow"
"1966-01-27 11:00","1966","01","27","11:00","-8.9","","-10.6","","87","","23","","23","","3.2","","98.27","","","","-17","","Snow"
"1966-01-27 12:00","1966","01","27","12:00","-7.8","","-10.0","","83","","25","","26","","6.4","","98.15","","","","-16","","Snow"
"1966-01-27 13:00","1966","01","27","13:00","-9.4","","-11.7","","85","","27","","39","","1.6","","98.20","","","","-20","","Blowing Snow"
"1966-01-27 14:00","1966","01","27","14:00","-10.6","","-13.9","","76","","27","","45","","1.6","","98.26","","","","-22","","Blowing Snow"
"1966-01-27 15:00","1966","01","27","15:00","-11.7","","-13.9","","84","","27","","45","","3.2","","98.34","","","","-24","","Blowing Snow"
"1966-01-27 16:00","1966","01","27","16:00","-12.2","","-17.8","","62","","27","","32","","12.9","","98.44","","","","-23","","Mainly Clear"
"1966-01-27 17:00","1966","01","27","17:00","-12.8","","-17.8","","66","","27","","40","","1.2","","98.60","","","","-25","","Blowing Snow"
"1966-01-27 18:00","1966","01","27","18:00","-15.0","","-20.0","","65","","27","","34","","12.9","","98.70","","","","-27","","Mainly Clear"
"1966-01-27 19:00","1966","01","27","19:00","-16.1","","-20.6","","67","","25","","35","","19.3","","98.78","","","","-28","","Mainly Clear"
"1966-01-27 20:00","1966","01","27","20:00","-16.7","","-22.8","","59","","25","","39","","24.1","","98.82","","","","-30","","Mainly Clear"
"1966-01-27 21:00","1966","01","27","21:00","-17.2","","-23.3","","60","","25","","34","","25.0","","98.85","","","","-30","","Clear"
"1966-01-27 22:00","1966","01","27","22:00","-17.2","","-22.8","","63","","25","","39","","25.0","","98.87","","","","-30","","Clear"
"1966-01-27 23:00","1966","01","27","23:00","-17.2","","-23.3","","60","","25","","39","","24.1","","98.86","","","","-30","","Clear"
"1966-01-28 00:00","1966","01","28","00:00","-17.8","","-22.8","","64","","25","","39","","24.1","","98.94","","","","-31","","Clear"
"1966-01-28 01:00","1966","01","28","01:00","-17.8","","-22.2","","69","","25","","43","","9.7","","98.96","","","","-32","","Blowing Snow"
"1966-01-28 02:00","1966","01","28","02:00","-18.3","","-22.8","","68","","25","","39","","9.7","","99.01","","","","-32","","Blowing Snow"
"1966-01-28 03:00","1966","01","28","03:00","-18.3","","-22.8","","68","","23","","29","","12.9","","99.06","","","","-30","","Clear"
"1966-01-28 04:00","1966","01","28","04:00","-19.4","","-23.9","","68","","25","","31","","16.1","","99.07","","","","-32","","Clear"
"1966-01-28 05:00","1966","01","28","05:00","-20.0","","-24.4","","67","","23","","35","","16.1","","99.15","","","","-33","","Clear"
"1966-01-28 06:00","1966","01","28","06:00","-20.6","","-25.0","","66","","23","","32","","24.1","","99.18","","","","-34","","Clear"
"1966-01-28 07:00","1966","01","28","07:00","-20.0","","-23.9","","70","","23","","29","","24.1","","99.26","","","","-32","","Mainly Clear"
"1966-01-28 08:00","1966","01","28","08:00","-20.0","","-24.4","","67","","23","","24","","24.1","","99.27","","","","-31","","Mainly Clear"
"1966-01-28 09:00","1966","01","28","09:00","-20.0","","-24.4","","67","","25","","27","","24.1","","99.30","","","","-32","","Mainly Clear"
"1966-01-28 10:00","1966","01","28","10:00","-16.1","","-20.6","","70","","27","","29","","12.9","","99.34","","","","-27","","Mainly Clear"
"1966-01-28 11:00","1966","01","28","11:00","-15.0","","-18.9","","72","","27","","23","","4.8","","99.43","","","","-25","","Snow Showers,Blowing Snow"
"1966-01-28 12:00","1966","01","28","12:00","-13.9","","-17.8","","72","","27","","16","","9.7","","99.43","","","","-22","","Snow Showers,Blowing Snow"
"1966-01-28 13:00","1966","01","28","13:00","-13.3","","-16.1","","78","","27","","13","","32.2","","99.42","","","","-20","","Mainly Clear"
"1966-01-28 14:00","1966","01","28","14:00","-12.2","","-16.1","","73","","29","","13","","32.2","","99.44","","","","-19","","Mostly Cloudy"
"1966-01-28 15:00","1966","01","28","15:00","-12.2","","-17.2","","66","","27","","13","","32.2","","99.48","","","","-19","","Mostly Cloudy"
"1966-01-28 16:00","1966","01","28","16:00","-12.2","","-17.2","","66","","27","","19","","32.2","","99.52","","","","-20","","Mostly Cloudy"
"1966-01-28 17:00","1966","01","28","17:00","-12.8","","-17.2","","70","","27","","18","","32.2","","99.58","","","","-21","","Mostly Cloudy"
"1966-01-28 18:00","1966","01","28","18:00","-13.3","","-17.8","","69","","27","","16","","25.0","","99.60","","","","-21","","Mainly Clear"
"1966-01-28 19:00","1966","01","28","19:00","-13.9","","-18.3","","70","","25","","13","","25.0","","99.65","","","","-21","","Mostly Cloudy"
"1966-01-28 20:00","1966","01","28","20:00","-14.4","","-18.9","","69","","25","","16","","24.1","","99.68","","","","-22","","Snow Showers"
"1966-01-28 21:00","1966","01","28","21:00","-15.6","","-20.0","","69","","25","","19","","25.0","","99.64","","","","-25","","Mainly Clear"
"1966-01-28 22:00","1966","01","28","22:00","-16.7","","-20.0","","76","","27","","18","","25.0","","99.66","","","","-26","","Mainly Clear"
"1966-01-28 23:00","1966","01","28","23:00","-16.1","","-19.4","","74","","27","","24","","25.0","","99.72","","","","-26","","Mostly Cloudy"
"1966-01-29 00:00","1966","01","29","00:00","-15.6","","-19.4","","71","","27","","21","","19.3","","99.73","","","","-25","","Snow Showers"
"1966-01-29 01:00","1966","01","29","01:00","-17.2","","-21.7","","67","","27","","13","","25.0","","99.70","","","","-25","","Mainly Clear"
"1966-01-29 02:00","1966","01","29","02:00","-17.8","","-21.7","","71","","27","","16","","25.0","","99.67","","","","-27","","Mainly Clear"
"1966-01-29 03:00","1966","01","29","03:00","-17.2","","-22.8","","63","","27","","14","","25.0","","99.64","","","","-25","","Mainly Clear"
"1966-01-29 04:00","1966","01","29","04:00","-17.8","","-21.7","","71","","25","","11","","25.0","","99.59","","","","-25","","Mostly Cloudy"
"1966-01-29 05:00","1966","01","29","05:00","-17.8","","-23.3","","61","","25","","10","","25.0","","99.61","","","","-25","","Mostly Cloudy"
"1966-01-29 06:00","1966","01","29","06:00","-18.3","","-22.8","","68","","25","","11","","25.0","","99.59","","","","-26","","Mostly Cloudy"
"1966-01-29 07:00","1966","01","29","07:00","-18.9","","-22.8","","72","","25","","13","","25.0","","99.60","","","","-27","","Mostly Cloudy"
"1966-01-29 08:00","1966","01","29","08:00","-16.7","","-21.7","","64","","27","","13","","24.1","","99.62","","","","-24","","Mostly Cloudy"
"1966-01-29 09:00","1966","01","29","09:00","-17.2","","-22.2","","65","","27","","11","","32.2","","99.56","","","","-24","","Mostly Cloudy"
"1966-01-29 10:00","1966","01","29","10:00","-17.2","","-23.3","","60","","23","","6","","32.2","","99.61","","","","-22","","Mainly Clear"
"1966-01-29 11:00","1966","01","29","11:00","-14.4","","-18.3","","71","","29","","5","","32.2","","99.58","","","","-18","","Mainly Clear"
"1966-01-29 12:00","1966","01","29","12:00","-11.7","","-18.3","","57","","","","0","","32.2","","99.45","","","","","","Mainly Clear"
"1966-01-29 13:00","1966","01","29","13:00","-11.1","","-17.2","","60","","","","0","","32.2","","99.29","","","","","","Mainly Clear"
"1966-01-29 14:00","1966","01","29","14:00","-9.4","","-15.0","","64","","16","","3","","32.2","","99.26","","","","-11","","Mostly Cloudy"
"1966-01-29 15:00","1966","01","29","15:00","-9.4","","-16.1","","58","","18","","6","","32.2","","99.26","","","","-13","","Mostly Cloudy"
"1966-01-29 16:00","1966","01","29","16:00","-9.4","","-16.7","","57","","","","0","","32.2","","99.18","","","","","","Mostly Cloudy"
"1966-01-29 17:00","1966","01","29","17:00","-10.6","","-17.2","","58","","","","0","","32.2","","99.14","","","","","","Mostly Cloudy"
"1966-01-29 18:00","1966","01","29","18:00","-12.2","","-17.8","","62","","","","0","","24.1","","99.15","","","","","","Mostly Cloudy"
"1966-01-29 19:00","1966","01","29","19:00","-15.0","","-18.9","","74","","","","0","","25.0","","99.13","","","","","","Mostly Cloudy"
"1966-01-29 20:00","1966","01","29","20:00","-14.4","","-17.8","","75","","36","","10","","25.0","","99.11","","","","-21","","Cloudy"
"1966-01-29 21:00","1966","01","29","21:00","-14.4","","-18.9","","69","","36","","10","","25.0","","99.02","","","","-21","","Cloudy"
"1966-01-29 22:00","1966","01","29","22:00","-15.0","","-19.4","","68","","34","","14","","25.0","","98.94","","","","-23","","Cloudy"
"1966-01-29 23:00","1966","01","29","23:00","-15.0","","-18.9","","74","","34","","21","","25.0","","98.83","","","","-24","","Mostly Cloudy"
"1966-01-30 00:00","1966","01","30","00:00","-15.0","","-18.9","","72","","34","","14","","25.0","","98.76","","","","-23","","Mostly Cloudy"
"1966-01-30 01:00","1966","01","30","01:00","-15.0","","-19.4","","70","","34","","14","","25.0","","98.73","","","","-23","","Mostly Cloudy"
"1966-01-30 02:00","1966","01","30","02:00","-15.0","","-17.8","","78","","34","","11","","8.0","","98.73","","","","-22","","Snow"
"1966-01-30 03:00","1966","01","30","03:00","-14.4","","-18.3","","73","","34","","18","","4.8","","98.69","","","","-23","","Snow"
"1966-01-30 04:00","1966","01","30","04:00","-15.0","","-18.3","","76","","34","","19","","4.8","","98.60","","","","-24","","Snow"
"1966-01-30 05:00","1966","01","30","05:00","-14.4","","-17.8","","77","","34","","23","","6.4","","98.50","","","","-24","","Snow"
"1966-01-30 06:00","1966","01","30","06:00","-14.4","","-17.8","","75","","34","","27","","3.2","","98.36","","","","-25","","Snow"
"1966-01-30 07:00","1966","01","30","07:00","-14.4","","-18.3","","71","","34","","29","","4.0","","98.26","","","","-25","","Snow"
"1966-01-30 08:00","1966","01","30","08:00","-13.9","","-17.2","","76","","34","","26","","9.7","","98.16","","","","-24","","Snow"
"1966-01-30 09:00","1966","01","30","09:00","-13.3","","-16.1","","78","","34","","26","","4.0","","98.09","","","","-23","","Snow"
"1966-01-30 10:00","1966","01","30","10:00","-13.3","","-16.1","","80","","34","","35","","1.2","","98.01","","","","-25","","Snow"
"1966-01-30 11:00","1966","01","30","11:00","-12.2","","-15.6","","76","","32","","42","","1.2","","97.95","","","","-24","","Snow,Blowing Snow"
"1966-01-30 12:00","1966","01","30","12:00","-11.7","","-13.9","","84","","34","","37","","1.2","","97.82","","","","-23","","Snow,Blowing Snow"
"1966-01-30 13:00","1966","01","30","13:00","-11.1","","-14.4","","75","","32","","45","","0.8","","97.71","","","","-23","","Moderate Snow,Blowing Snow"
"1966-01-30 14:00","1966","01","30","14:00","-11.1","","-14.4","","75","","32","","39","","1.2","","97.62","","","","-22","","Snow,Blowing Snow"
"1966-01-30 15:00","1966","01","30","15:00","-11.1","","-14.4","","77","","32","","35","","1.2","","97.59","","","","-22","","Snow,Blowing Snow"
"1966-01-30 16:00","1966","01","30","16:00","-11.1","","-14.4","","75","","29","","40","","1.2","","97.54","","","","-22","","Snow,Blowing Snow"
"1966-01-30 17:00","1966","01","30","17:00","-11.1","","-14.4","","77","","29","","42","","1.6","","97.56","","","","-22","","Blowing Snow"
"1966-01-30 18:00","1966","01","30","18:00","-11.1","","-15.0","","73","","29","","55","","2.0","","97.53","","","","-24","","Snow,Blowing Snow"
"1966-01-30 19:00","1966","01","30","19:00","-10.0","","-12.8","","78","","29","","48","","2.0","","97.46","","","","-22","","Snow,Blowing Snow"
"1966-01-30 20:00","1966","01","30","20:00","-8.9","","-11.7","","81","","29","","48","","3.2","","97.45","","","","-20","","Snow,Blowing Snow"
"1966-01-30 21:00","1966","01","30","21:00","-8.3","","-11.7","","78","","29","","48","","4.8","","97.43","","","","-19","","Snow,Blowing Snow"
"1966-01-30 22:00","1966","01","30","22:00","-7.8","","-11.7","","74","","29","","43","","8.0","","97.43","","","","-18","","Snow,Blowing Snow"
"1966-01-30 23:00","1966","01","30","23:00","-7.2","","-10.0","","80","","29","","58","","3.2","","97.41","","","","-19","","Snow,Blowing Snow"
"1966-01-31 00:00","1966","01","31","00:00","-7.2","","-10.0","","80","","29","","53","","6.4","","97.40","","","","-18","","Snow,Blowing Snow"
"1966-01-31 01:00","1966","01","31","01:00","-7.2","","-10.6","","79","","27","","48","","6.4","","97.41","","","","-18","","Blowing Snow"
"1966-01-31 02:00","1966","01","31","02:00","-7.2","","-10.6","","77","","29","","48","","4.8","","97.52","","","","-18","","Blowing Snow"
"1966-01-31 03:00","1966","01","31","03:00","-6.7","","-10.0","","76","","29","","45","","4.8","","97.63","","","","-17","","Blowing Snow"
"1966-01-31 04:00","1966","01","31","04:00","-6.7","","-10.6","","73","","29","","51","","4.8","","97.67","","","","-17","","Blowing Snow"
"1966-01-31 05:00","1966","01","31","05:00","-6.7","","-10.6","","73","","27","","48","","6.4","","97.70","","","","-17","","Blowing Snow"
"1966-01-31 06:00","1966","01","31","06:00","-6.7","","-9.4","","81","","27","","51","","3.2","","97.72","","","","-17","","Snow,Blowing Snow"
"1966-01-31 07:00","1966","01","31","07:00","-7.2","","-10.0","","80","","27","","51","","4.8","","97.80","","","","-18","","Snow,Blowing Snow"
"1966-01-31 08:00","1966","01","31","08:00","-6.7","","-10.0","","78","","27","","45","","9.7","","97.90","","","","-17","","Blowing Snow"
"1966-01-31 09:00","1966","01","31","09:00","-7.2","","-10.0","","80","","27","","45","","1.2","","98.04","","","","-18","","Snow,Blowing Snow"
"1966-01-31 10:00","1966","01","31","10:00","-6.7","","-11.1","","72","","27","","45","","9.7","","98.08","","","","-17","","Snow,Blowing Snow"
"1966-01-31 11:00","1966","01","31","11:00","-6.7","","-10.0","","78","","27","","48","","9.7","","98.16","","","","-17","","Snow,Blowing Snow"
"1966-01-31 12:00","1966","01","31","12:00","-6.1","","-9.4","","77","","27","","39","","19.3","","98.20","","","","-15","","Mostly Cloudy"
"1966-01-31 13:00","1966","01","31","13:00","-5.6","","-8.9","","79","","27","","42","","19.3","","98.22","","","","-15","","Mostly Cloudy"
"1966-01-31 14:00","1966","01","31","14:00","-5.6","","-8.3","","82","","27","","45","","19.3","","98.22","","","","-15","","Mostly Cloudy"
"1966-01-31 15:00","1966","01","31","15:00","-5.6","","-8.3","","82","","27","","42","","24.1","","98.25","","","","-15","","Mainly Clear"
"1966-01-31 16:00","1966","01","31","16:00","-5.6","","-9.4","","73","","27","","42","","32.2","","98.35","","","","-15","","Mainly Clear"
"1966-01-31 17:00","1966","01","31","17:00","-6.1","","-9.4","","77","","27","","40","","32.2","","98.43","","","","-16","","Mostly Cloudy"
"1966-01-31 18:00","1966","01","31","18:00","-6.1","","-10.0","","74","","27","","35","","25.0","","98.49","","","","-15","","Mainly Clear"
"1966-01-31 19:00","1966","01","31","19:00","-5.6","","-9.4","","75","","27","","40","","25.0","","98.58","","","","-15","","Mostly Cloudy"
"1966-01-31 20:00","1966","01","31","20:00","-5.6","","-8.9","","78","","27","","31","","25.0","","98.64","","","","-14","","Mostly Cloudy"
"1966-01-31 21:00","1966","01","31","21:00","-5.6","","-8.9","","79","","27","","29","","19.3","","98.66","","","","-14","","Snow Showers"
"1966-01-31 22:00","1966","01","31","22:00","-5.0","","-8.9","","75","","27","","32","","19.3","","98.68","","","","-13","","Snow Showers"
"1966-01-31 23:00","1966","01","31","23:00","-5.0","","-8.3","","76","","27","","32","","19.3","","98.69","","","","-13","","Snow Showers"
