"Station Name","TORONTO LESTER B. PEARSON INT'L A"
"Province","ONTARIO"
"Latitude","43.68"
"Longitude","-79.63"
"Elevation","173.40"
"Climate Identifier","6158733"
"WMO Identifier","71624"
"TC Identifier","YYZ"
"All times are specified in Local Standard Time (LST). Add 1 hour to adjust for Daylight Saving Time where and when it is observed."

"Legend"
"E","Estimated"
"M","Missing"
"NA","Not Available"

"Date/Time","Year","Month","Day","Time","Temp (°C)","Temp Flag","Dew Point Temp (°C)","Dew Point Temp Flag","Rel Hum (%)","Rel Hum Flag","Wind Dir (10s deg)","Wind Dir Flag","Wind Spd (km/h)","Wind Spd Flag","Visibility (km)","Visibility Flag","Stn Press (kPa)","Stn Press Flag","Hmdx","Hmdx Flag","Wind Chill","Wind Chill Flag","Weather"
"1978-07-01 00:00","1978","07","01","00:00","11.4","","4.8","","64","","33","","11","","25.0","","99.76","","","","","","Mostly Cloudy"
"1978-07-01 01:00","1978","07","01","01:00","11.4","","5.2","","66","","34","","9","","25.0","","99.79","","","","","","Mainly Clear"
"1978-07-01 02:00","1978","07","01","02:00","11.7","","5.7","","67","","35","","9","","25.0","","99.79","","","","","","Mainly Clear"
"1978-07-01 03:00","1978","07","01","03:00","10.7","","6.3","","74","","35","","11","","25.0","","99.82","","","","","","Mainly Clear"
"1978-07-01 04:00","1978","07","01","04:00","9.6","","6.8","","82","","34","","9","","40.2","","99.86","","","","","","Mostly Cloudy"
"1978-07-01 05:00","1978","07","01","05:00","10.2","","6.5","","78","","33","","7","","40.2","","99.89","","","","","","Mostly Cloudy"
"1978-07-01 06:00","1978","07","01","06:00","12.9","","8.3","","74","","34","","7","","40.2","","99.89","","","","","","Mostly Cloudy"
"1978-07-01 07:00","1978","07","01","07:00","16.0","","9.7","","66","","1","","6","","40.2","","99.92","","","","","","Mostly Cloudy"
"1978-07-01 08:00","1978","07","01","08:00","19.1","","7.6","","47","","8","","7","","40.2","","99.92","","","","","","Cloudy"
"1978-07-01 09:00","1978","07","01","09:00","20.5","","4.4","","35","","12","","9","","40.2","","99.92","","","","","","Cloudy"
"1978-07-01 10:00","1978","07","01","10:00","21.3","","6.4","","38","","13","","13","","40.2","","99.86","","","","","","Cloudy"
"1978-07-01 11:00","1978","07","01","11:00","21.1","","4.6","","34","","16","","15","","40.2","","99.86","","","","","","Mostly Cloudy"
"1978-07-01 12:00","1978","07","01","12:00","22.4","","4.9","","32","","19","","13","","40.2","","99.79","","","","","","Mostly Cloudy"
"1978-07-01 13:00","1978","07","01","13:00","22.6","","4.9","","32","","18","","6","","40.2","","99.76","","","","","","Mostly Cloudy"
"1978-07-01 14:00","1978","07","01","14:00","23.1","","4.0","","29","","21","","15","","40.2","","99.69","","","","","","Mostly Cloudy"
"1978-07-01 15:00","1978","07","01","15:00","22.3","","3.8","","30","","21","","15","","40.2","","99.69","","","","","","Mostly Cloudy"
"1978-07-01 16:00","1978","07","01","16:00","21.6","","3.8","","31","","22","","15","","40.2","","99.66","","","","","","Mostly Cloudy"
"1978-07-01 17:00","1978","07","01","17:00","21.6","","4.3","","32","","25","","9","","40.2","","99.56","","","","","","Mostly Cloudy"
"1978-07-01 18:00","1978","07","01","18:00","21.3","","4.3","","33","","21","","9","","40.2","","99.52","","","","","","Mostly Cloudy"
"1978-07-01 19:00","1978","07","01","19:00","21.2","","4.6","","34","","19","","7","","40.2","","99.49","","","","","","Mostly Cloudy"
"1978-07-01 20:00","1978","07","01","20:00","19.5","","4.9","","38","","19","","4","","40.2","","99.52","","","","","","Mostly Cloudy"
"1978-07-01 21:00","1978","07","01","21:00","18.3","","6.0","","45","","21","","4","","25.0","","99.56","","","","","","Mostly Cloudy"
"1978-07-01 22:00","1978","07","01","22:00","14.2","","6.9","","61","","30","","4","","25.0","","99.52","","","","","","Mostly Cloudy"
"1978-07-01 23:00","1978","07","01","23:00","14.1","","6.6","","61","","34","","9","","25.0","","99.56","","","","","","Mainly Clear"
"1978-07-02 00:00","1978","07","02","00:00","12.6","","8.9","","78","","34","","9","","25.0","","99.56","","","","","","Mainly Clear"
"1978-07-02 01:00","1978","07","02","01:00","10.3","","8.7","","90","","33","","6","","25.0","","99.52","","","","","","Mainly Clear"
"1978-07-02 02:00","1978","07","02","02:00","10.2","","8.1","","87","","32","","9","","25.0","","99.49","","","","","","Mostly Cloudy"
"1978-07-02 03:00","1978","07","02","03:00","11.2","","8.3","","82","","31","","9","","25.0","","99.49","","","","","","Mostly Cloudy"
"1978-07-02 04:00","1978","07","02","04:00","9.7","","7.6","","87","","33","","9","","25.0","","99.46","","","","","","Mostly Cloudy"
"1978-07-02 05:00","1978","07","02","05:00","9.4","","8.0","","91","","33","","6","","40.2","","99.49","","","","","","Mostly Cloudy"
"1978-07-02 06:00","1978","07","02","06:00","12.7","","9.7","","82","","2","","6","","40.2","","99.52","","","","","","Mostly Cloudy"
"1978-07-02 07:00","1978","07","02","07:00","17.2","","9.3","","60","","7","","7","","40.2","","99.49","","","","","","Mostly Cloudy"
"1978-07-02 08:00","1978","07","02","08:00","19.9","","7.6","","45","","10","","13","","40.2","","99.56","","","","","","Mostly Cloudy"
"1978-07-02 09:00","1978","07","02","09:00","21.3","","7.8","","42","","13","","13","","40.2","","99.52","","","","","","Mostly Cloudy"
"1978-07-02 10:00","1978","07","02","10:00","20.0","","8.0","","46","","15","","15","","40.2","","99.52","","","","","","Mostly Cloudy"
"1978-07-02 11:00","1978","07","02","11:00","21.4","","7.8","","42","","10","","17","","40.2","","99.49","","","","","","Mostly Cloudy"
"1978-07-02 12:00","1978","07","02","12:00","22.3","","5.4","","33","","11","","20","","40.2","","99.46","","","","","","Mostly Cloudy"
"1978-07-02 13:00","1978","07","02","13:00","23.1","","2.9","","27","","11","","22","","40.2","","99.42","","","","","","Mostly Cloudy"
"1978-07-02 14:00","1978","07","02","14:00","23.9","","4.0","","27","","10","","22","","40.2","","99.39","","","","","","Mostly Cloudy"
"1978-07-02 15:00","1978","07","02","15:00","23.5","","3.2","","27","","10","","19","","40.2","","99.36","","","","","","Mostly Cloudy"
"1978-07-02 16:00","1978","07","02","16:00","23.2","","2.9","","26","","12","","15","","40.2","","99.29","","","","","","Mostly Cloudy"
"1978-07-02 17:00","1978","07","02","17:00","23.2","","2.9","","26","","11","","20","","40.2","","99.29","","","","","","Mostly Cloudy"
"1978-07-02 18:00","1978","07","02","18:00","22.2","","0.4","","23","","10","","28","","40.2","","99.26","","","","","","Mostly Cloudy"
"1978-07-02 19:00","1978","07","02","19:00","21.1","","2.4","","29","","9","","22","","40.2","","99.26","","","","","","Mostly Cloudy"
"1978-07-02 20:00","1978","07","02","20:00","19.0","","0.7","","29","","11","","15","","40.2","","99.29","","","","","","Mostly Cloudy"
"1978-07-02 21:00","1978","07","02","21:00","18.1","","1.5","","33","","8","","17","","25.0","","99.29","","","","","","Mostly Cloudy"
"1978-07-02 22:00","1978","07","02","22:00","17.0","","3.3","","40","","9","","15","","25.0","","99.36","","","","","","Mostly Cloudy"
"1978-07-02 23:00","1978","07","02","23:00","16.3","","5.6","","49","","7","","15","","25.0","","99.32","","","","","","Mainly Clear"
"1978-07-03 00:00","1978","07","03","00:00","15.9","","7.2","","56","","7","","13","","25.0","","99.29","","","","","","Mainly Clear"
"1978-07-03 01:00","1978","07","03","01:00","15.7","","7.5","","58","","7","","13","","25.0","","99.29","","","","","","Mostly Cloudy"
"1978-07-03 02:00","1978","07","03","02:00","15.8","","8.9","","64","","7","","15","","25.0","","99.26","","","","","","Mostly Cloudy"
"1978-07-03 03:00","1978","07","03","03:00","16.0","","10.1","","68","","9","","17","","25.0","","99.26","","","","","","Mostly Cloudy"
"1978-07-03 04:00","1978","07","03","04:00","15.6","","10.7","","73","","9","","15","","25.0","","99.19","","","","","","Mostly Cloudy"
"1978-07-03 05:00","1978","07","03","05:00","15.5","","10.7","","73","","7","","17","","40.2","","99.19","","","","","","Mostly Cloudy"
"1978-07-03 06:00","1978","07","03","06:00","16.1","","10.9","","71","","6","","19","","40.2","","99.19","","","","","","Mostly Cloudy"
"1978-07-03 07:00","1978","07","03","07:00","17.6","","10.3","","62","","6","","19","","40.2","","99.22","","","","","","Mostly Cloudy"
"1978-07-03 08:00","1978","07","03","08:00","19.0","","9.7","","55","","9","","22","","40.2","","99.19","","","","","","Cloudy"
"1978-07-03 09:00","1978","07","03","09:00","20.1","","9.8","","51","","10","","26","","40.2","","99.16","","","","","","Cloudy"
"1978-07-03 10:00","1978","07","03","10:00","20.2","","8.9","","48","","11","","30","","40.2","","99.19","","","","","","Cloudy"
"1978-07-03 11:00","1978","07","03","11:00","20.0","","10.2","","53","","11","","30","","40.2","","99.19","","","","","","Cloudy"
"1978-07-03 12:00","1978","07","03","12:00","19.3","","10.4","","56","","11","","30","","40.2","","99.19","","","","","","Cloudy"
"1978-07-03 13:00","1978","07","03","13:00","17.9","","12.0","","68","","12","","28","","32.2","","99.26","","","","","","Rain Showers"
"1978-07-03 14:00","1978","07","03","14:00","16.5","","13.2","","81","","11","","19","","19.3","","99.26","","","","","","Rain Showers"
"1978-07-03 15:00","1978","07","03","15:00","15.5","","13.9","","90","","13","","17","","12.9","","99.29","","","","","","Rain"
"1978-07-03 16:00","1978","07","03","16:00","14.9","","14.4","","97","","8","","13","","12.9","","99.29","","","","","","Rain"
"1978-07-03 17:00","1978","07","03","17:00","14.6","","13.5","","93","","8","","13","","8.0","","99.26","","","","","","Moderate Rain,Fog"
"1978-07-03 18:00","1978","07","03","18:00","14.5","","13.5","","94","","8","","15","","11.3","","99.29","","","","","","Rain"
"1978-07-03 19:00","1978","07","03","19:00","14.5","","13.8","","95","","9","","15","","12.9","","99.32","","","","","","Cloudy"
"1978-07-03 20:00","1978","07","03","20:00","15.1","","14.0","","93","","9","","15","","12.9","","99.29","","","","","","Cloudy"
"1978-07-03 21:00","1978","07","03","21:00","14.9","","14.0","","94","","9","","17","","9.7","","99.36","","","","","","Fog"
"1978-07-03 22:00","1978","07","03","22:00","15.0","","14.0","","94","","9","","13","","9.7","","99.36","","","","","","Fog"
"1978-07-03 23:00","1978","07","03","23:00","15.0","","14.0","","94","","10","","17","","9.7","","99.36","","","","","","Fog"
"1978-07-04 00:00","1978","07","04","00:00","14.9","","14.4","","97","","9","","13","","4.8","","99.36","","","","","","Drizzle,Fog"
"1978-07-04 01:00","1978","07","04","01:00","14.9","","14.7","","99","","8","","13","","3.2","","99.36","","","","","","Drizzle,Fog"
"1978-07-04 02:00","1978","07","04","02:00","14.8","","14.7","","100","","8","","13","","4.0","","99.36","","","","","","Drizzle,Fog"
"1978-07-04 03:00","1978","07","04","03:00","14.8","","14.7","","100","","8","","13","","3.2","","99.39","","","","","","Drizzle,Fog"
"1978-07-04 04:00","1978","07","04","04:00","14.6","","14.2","","98","","9","","24","","3.2","","99.42","","","","","","Drizzle,Fog"
"1978-07-04 05:00","1978","07","04","05:00","14.6","","13.8","","95","","9","","17","","8.0","","99.49","","","","","","Drizzle,Fog"
"1978-07-04 06:00","1978","07","04","06:00","14.5","","13.2","","92","","9","","19","","24.1","","99.52","","","","","","Cloudy"
"1978-07-04 07:00","1978","07","04","07:00","15.5","","12.9","","84","","9","","17","","24.1","","99.56","","","","","","Mostly Cloudy"
"1978-07-04 08:00","1978","07","04","08:00","16.5","","12.2","","76","","6","","17","","32.2","","99.59","","","","","","Mostly Cloudy"
"1978-07-04 09:00","1978","07","04","09:00","17.2","","12.4","","73","","9","","15","","32.2","","99.62","","","","","","Mostly Cloudy"
"1978-07-04 10:00","1978","07","04","10:00","18.4","","11.5","","64","","6","","17","","32.2","","99.66","","","","","","Mostly Cloudy"
"1978-07-04 11:00","1978","07","04","11:00","20.2","","11.0","","55","","9","","19","","32.2","","99.66","","","","","","Mainly Clear"
"1978-07-04 12:00","1978","07","04","12:00","20.6","","10.8","","53","","8","","22","","40.2","","99.66","","","","","","Mainly Clear"
"1978-07-04 13:00","1978","07","04","13:00","21.8","","9.8","","46","","10","","22","","40.2","","99.69","","","","","","Mainly Clear"
"1978-07-04 14:00","1978","07","04","14:00","21.5","","10.4","","49","","10","","22","","40.2","","99.69","","","","","","Mainly Clear"
"1978-07-04 15:00","1978","07","04","15:00","21.8","","10.7","","49","","11","","19","","40.2","","99.72","","","","","","Mainly Clear"
"1978-07-04 16:00","1978","07","04","16:00","20.8","","11.0","","54","","14","","13","","40.2","","99.76","","","","","","Mainly Clear"
"1978-07-04 17:00","1978","07","04","17:00","21.6","","10.4","","49","","9","","15","","40.2","","99.76","","","","","","Mainly Clear"
"1978-07-04 18:00","1978","07","04","18:00","20.4","","12.0","","59","","15","","17","","40.2","","99.66","","","","","","Clear"
"1978-07-04 19:00","1978","07","04","19:00","19.7","","11.9","","61","","18","","7","","40.2","","99.72","","","","","","Clear"
"1978-07-04 20:00","1978","07","04","20:00","18.0","","12.4","","70","","","","0","","40.2","","99.76","","","","","","Clear"
"1978-07-04 21:00","1978","07","04","21:00","16.2","","12.3","","77","","28","","6","","40.2","","99.82","","","","","","Mainly Clear"
"1978-07-04 22:00","1978","07","04","22:00","15.4","","12.5","","83","","28","","4","","25.0","","99.79","","","","","","Mainly Clear"
"1978-07-04 23:00","1978","07","04","23:00","15.0","","12.3","","84","","31","","6","","25.0","","99.79","","","","","","Mainly Clear"
"1978-07-05 00:00","1978","07","05","00:00","13.7","","11.8","","88","","33","","4","","24.1","","99.82","","","","","","Mainly Clear"
"1978-07-05 01:00","1978","07","05","01:00","14.0","","12.0","","88","","34","","2","","25.0","","99.86","","","","","","Mainly Clear"
"1978-07-05 02:00","1978","07","05","02:00","12.9","","11.6","","92","","34","","6","","25.0","","99.89","","","","","","Clear"
"1978-07-05 03:00","1978","07","05","03:00","11.3","","10.4","","94","","33","","7","","25.0","","99.89","","","","","","Clear"
"1978-07-05 04:00","1978","07","05","04:00","11.6","","10.4","","92","","33","","4","","25.0","","99.89","","","","","","Mainly Clear"
"1978-07-05 05:00","1978","07","05","05:00","11.6","","10.4","","92","","32","","7","","32.2","","99.89","","","","","","Mainly Clear"
"1978-07-05 06:00","1978","07","05","06:00","12.7","","11.1","","90","","31","","4","","32.2","","99.89","","","","","","Mainly Clear"
"1978-07-05 07:00","1978","07","05","07:00","15.9","","13.4","","85","","22","","2","","32.2","","100.02","","","","","","Mostly Cloudy"
"1978-07-05 08:00","1978","07","05","08:00","19.5","","12.7","","65","","","","0","","24.1","","99.99","","","","","","Mainly Clear"
"1978-07-05 09:00","1978","07","05","09:00","21.7","","12.4","","55","","16","","4","","32.2","","99.99","","","","","","Mainly Clear"
"1978-07-05 10:00","1978","07","05","10:00","23.4","","13.4","","53","","17","","4","","40.2","","100.06","","26","","","","Mostly Cloudy"
"1978-07-05 11:00","1978","07","05","11:00","24.3","","13.5","","51","","12","","4","","40.2","","100.06","","27","","","","Mostly Cloudy"
"1978-07-05 12:00","1978","07","05","12:00","25.1","","13.0","","47","","17","","11","","32.2","","99.99","","28","","","","Mostly Cloudy"
"1978-07-05 13:00","1978","07","05","13:00","25.9","","11.9","","42","","15","","15","","32.2","","99.96","","28","","","","Mostly Cloudy"
"1978-07-05 14:00","1978","07","05","14:00","25.8","","13.1","","46","","13","","13","","32.2","","99.92","","29","","","","Mostly Cloudy"
"1978-07-05 15:00","1978","07","05","15:00","27.0","","9.8","","34","","21","","6","","32.2","","99.89","","28","","","","Mainly Clear"
"1978-07-05 16:00","1978","07","05","16:00","26.8","","13.2","","43","","18","","7","","32.2","","99.86","","30","","","","Mainly Clear"
"1978-07-05 17:00","1978","07","05","17:00","26.4","","14.5","","48","","15","","9","","32.2","","99.82","","30","","","","Mainly Clear"
"1978-07-05 18:00","1978","07","05","18:00","25.6","","14.7","","51","","17","","11","","32.2","","99.79","","29","","","","Mainly Clear"
"1978-07-05 19:00","1978","07","05","19:00","24.5","","15.3","","57","","16","","9","","40.2","","99.79","","29","","","","Mainly Clear"
"1978-07-05 20:00","1978","07","05","20:00","22.8","","15.7","","64","","16","","9","","32.2","","99.79","","27","","","","Mostly Cloudy"
"1978-07-05 21:00","1978","07","05","21:00","21.9","","15.5","","67","","17","","6","","24.1","","99.86","","26","","","","Mostly Cloudy"
"1978-07-05 22:00","1978","07","05","22:00","20.7","","15.6","","73","","19","","9","","19.3","","99.86","","25","","","","Mostly Cloudy"
"1978-07-05 23:00","1978","07","05","23:00","19.8","","15.7","","77","","19","","9","","19.3","","99.82","","","","","","Mainly Clear"
"1978-07-06 00:00","1978","07","06","00:00","19.0","","15.3","","79","","19","","6","","19.3","","99.82","","","","","","Mainly Clear"
"1978-07-06 01:00","1978","07","06","01:00","17.5","","15.3","","87","","27","","4","","19.3","","99.82","","","","","","Mainly Clear"
"1978-07-06 02:00","1978","07","06","02:00","16.5","","14.6","","89","","24","","6","","19.3","","99.86","","","","","","Mainly Clear"
"1978-07-06 03:00","1978","07","06","03:00","15.7","","13.9","","89","","24","","6","","19.3","","99.89","","","","","","Mainly Clear"
"1978-07-06 04:00","1978","07","06","04:00","15.5","","13.5","","88","","23","","4","","19.3","","99.89","","","","","","Mainly Clear"
"1978-07-06 05:00","1978","07","06","05:00","15.5","","13.5","","88","","23","","4","","19.3","","99.92","","","","","","Mostly Cloudy"
"1978-07-06 06:00","1978","07","06","06:00","16.0","","13.7","","86","","21","","2","","19.3","","99.96","","","","","","Mostly Cloudy"
"1978-07-06 07:00","1978","07","06","07:00","18.8","","15.3","","80","","24","","6","","24.1","","99.99","","","","","","Cloudy"
"1978-07-06 08:00","1978","07","06","08:00","21.8","","15.2","","66","","24","","15","","32.2","","100.02","","26","","","","Mostly Cloudy"
"1978-07-06 09:00","1978","07","06","09:00","24.0","","15.8","","60","","23","","15","","32.2","","99.96","","28","","","","Mostly Cloudy"
"1978-07-06 10:00","1978","07","06","10:00","25.5","","16.8","","59","","21","","13","","24.1","","99.89","","31","","","","Mostly Cloudy"
"1978-07-06 11:00","1978","07","06","11:00","26.1","","16.4","","55","","20","","13","","19.3","","99.82","","31","","","","Mostly Cloudy"
"1978-07-06 12:00","1978","07","06","12:00","27.4","","15.7","","49","","22","","17","","19.3","","99.79","","32","","","","Mostly Cloudy"
"1978-07-06 13:00","1978","07","06","13:00","29.0","","16.5","","47","","19","","17","","16.1","","99.76","","34","","","","Mostly Cloudy"
"1978-07-06 14:00","1978","07","06","14:00","28.6","","16.3","","47","","19","","20","","16.1","","99.76","","33","","","","Cloudy"
"1978-07-06 15:00","1978","07","06","15:00","29.3","","16.4","","46","","18","","20","","16.1","","99.76","","34","","","","Mostly Cloudy"
"1978-07-06 16:00","1978","07","06","16:00","29.3","","15.7","","44","","20","","19","","16.1","","99.69","","34","","","","Mostly Cloudy"
"1978-07-06 17:00","1978","07","06","17:00","29.1","","15.4","","43","","21","","24","","16.1","","99.69","","33","","","","Mostly Cloudy"
"1978-07-06 18:00","1978","07","06","18:00","28.5","","15.2","","44","","23","","20","","16.1","","99.66","","33","","","","Mostly Cloudy"
"1978-07-06 19:00","1978","07","06","19:00","26.1","","16.1","","54","","23","","11","","12.9","","99.66","","31","","","","Mostly Cloudy"
"1978-07-06 20:00","1978","07","06","20:00","25.4","","16.2","","57","","24","","9","","12.9","","99.66","","30","","","","Mostly Cloudy"
"1978-07-06 21:00","1978","07","06","21:00","24.2","","16.5","","62","","21","","13","","8.0","","99.59","","29","","","","Haze"
"1978-07-06 22:00","1978","07","06","22:00","23.2","","17.0","","68","","21","","13","","8.0","","99.59","","28","","","","Haze"
"1978-07-06 23:00","1978","07","06","23:00","21.4","","17.6","","79","","19","","9","","8.0","","99.59","","27","","","","Haze"
"1978-07-07 00:00","1978","07","07","00:00","22.2","","16.5","","70","","22","","11","","9.7","","99.59","","27","","","","Haze"
"1978-07-07 01:00","1978","07","07","01:00","21.5","","16.7","","74","","21","","4","","8.0","","99.66","","27","","","","Haze"
"1978-07-07 02:00","1978","07","07","02:00","19.9","","16.7","","82","","21","","7","","9.7","","99.62","","","","","","Haze"
"1978-07-07 03:00","1978","07","07","03:00","20.6","","16.5","","77","","20","","6","","9.7","","99.66","","26","","","","Haze"
"1978-07-07 04:00","1978","07","07","04:00","18.3","","16.3","","88","","22","","11","","8.0","","99.66","","","","","","Fog"
"1978-07-07 05:00","1978","07","07","05:00","18.6","","16.0","","85","","16","","2","","4.8","","99.69","","","","","","Haze"
"1978-07-07 06:00","1978","07","07","06:00","19.8","","17.0","","84","","20","","6","","4.8","","99.76","","","","","","Haze"
"1978-07-07 07:00","1978","07","07","07:00","21.4","","17.6","","79","","22","","7","","4.0","","99.69","","27","","","","Haze"
"1978-07-07 08:00","1978","07","07","08:00","24.3","","18.0","","68","","19","","9","","8.0","","99.72","","30","","","","Haze"
"1978-07-07 09:00","1978","07","07","09:00","26.5","","19.0","","63","","17","","7","","9.7","","99.66","","33","","","","Haze"
"1978-07-07 10:00","1978","07","07","10:00","28.5","","19.0","","56","","20","","15","","9.7","","99.66","","35","","","","Haze"
"1978-07-07 11:00","1978","07","07","11:00","29.5","","19.2","","54","","23","","19","","11.3","","99.59","","36","","","","Mainly Clear"
"1978-07-07 12:00","1978","07","07","12:00","30.2","","18.5","","50","","18","","19","","11.3","","99.59","","37","","","","Mostly Cloudy"
"1978-07-07 13:00","1978","07","07","13:00","30.1","","18.8","","51","","20","","11","","11.3","","99.52","","37","","","","Mainly Clear"
"1978-07-07 14:00","1978","07","07","14:00","30.4","","18.0","","48","","15","","19","","9.7","","99.49","","36","","","","Haze"
"1978-07-07 15:00","1978","07","07","15:00","31.0","","18.3","","47","","19","","22","","9.7","","99.42","","37","","","","Haze"
"1978-07-07 16:00","1978","07","07","16:00","30.9","","18.3","","47","","19","","22","","8.0","","99.39","","37","","","","Haze"
"1978-07-07 17:00","1978","07","07","17:00","30.5","","15.9","","41","","21","","30","","9.7","","99.32","","35","","","","Haze"
"1978-07-07 18:00","1978","07","07","18:00","29.8","","17.1","","47","","21","","26","","9.7","","99.32","","35","","","","Haze"
"1978-07-07 19:00","1978","07","07","19:00","29.0","","17.6","","50","","21","","20","","8.0","","99.32","","35","","","","Haze"
"1978-07-07 20:00","1978","07","07","20:00","27.5","","18.2","","57","","20","","13","","6.4","","99.32","","34","","","","Haze"
"1978-07-07 21:00","1978","07","07","21:00","25.7","","18.8","","66","","19","","11","","6.4","","99.29","","32","","","","Haze"
"1978-07-07 22:00","1978","07","07","22:00","25.4","","18.8","","67","","17","","9","","6.4","","99.29","","32","","","","Haze"
"1978-07-07 23:00","1978","07","07","23:00","24.3","","20.5","","80","","18","","7","","6.4","","99.29","","32","","","","Haze"
"1978-07-08 00:00","1978","07","08","00:00","23.3","","18.8","","76","","18","","7","","6.4","","99.26","","30","","","","Haze"
"1978-07-08 01:00","1978","07","08","01:00","23.2","","18.9","","77","","17","","6","","6.4","","99.19","","30","","","","Haze"
"1978-07-08 02:00","1978","07","08","02:00","22.6","","19.3","","82","","19","","7","","6.4","","99.16","","30","","","","Haze"
"1978-07-08 03:00","1978","07","08","03:00","23.2","","19.8","","81","","19","","9","","6.4","","99.12","","31","","","","Haze"
"1978-07-08 04:00","1978","07","08","04:00","23.7","","20.4","","82","","21","","11","","6.4","","99.09","","32","","","","Haze"
"1978-07-08 05:00","1978","07","08","05:00","23.9","","21.2","","85","","21","","11","","4.8","","99.09","","32","","","","Haze"
"1978-07-08 06:00","1978","07","08","06:00","23.6","","20.9","","85","","23","","13","","3.2","","99.12","","32","","","","Haze"
"1978-07-08 07:00","1978","07","08","07:00","23.9","","20.9","","83","","23","","13","","4.0","","99.09","","32","","","","Haze"
"1978-07-08 08:00","1978","07","08","08:00","25.2","","20.4","","75","","23","","15","","4.0","","99.09","","33","","","","Haze"
"1978-07-08 09:00","1978","07","08","09:00","27.3","","20.4","","66","","24","","19","","8.0","","99.06","","35","","","","Haze"
"1978-07-08 10:00","1978","07","08","10:00","28.0","","19.1","","59","","24","","24","","16.1","","99.06","","35","","","","Mostly Cloudy"
"1978-07-08 11:00","1978","07","08","11:00","29.0","","17.2","","49","","23","","19","","16.1","","99.06","","34","","","","Mostly Cloudy"
"1978-07-08 12:00","1978","07","08","12:00","29.0","","17.2","","49","","24","","28","","32.2","","99.06","","34","","","","Mostly Cloudy"
"1978-07-08 13:00","1978","07","08","13:00","30.2","","14.8","","39","","23","","28","","32.2","","99.02","","34","","","","Mostly Cloudy"
"1978-07-08 14:00","1978","07","08","14:00","29.5","","16.8","","46","","25","","24","","32.2","","98.99","","35","","","","Mainly Clear"
"1978-07-08 15:00","1978","07","08","15:00","27.5","","15.7","","49","","28","","22","","32.2","","98.99","","32","","","","Mainly Clear"
"1978-07-08 16:00","1978","07","08","16:00","26.5","","15.2","","50","","27","","24","","32.2","","99.09","","31","","","","Mainly Clear"
"1978-07-08 17:00","1978","07","08","17:00","24.6","","15.0","","55","","28","","24","","32.2","","99.19","","29","","","","Mainly Clear"
"1978-07-08 18:00","1978","07","08","18:00","23.0","","15.3","","62","","29","","24","","32.2","","99.26","","27","","","","Mainly Clear"
"1978-07-08 19:00","1978","07","08","19:00","21.5","","15.0","","67","","28","","19","","32.2","","99.29","","25","","","","Mainly Clear"
"1978-07-08 20:00","1978","07","08","20:00","20.1","","15.0","","72","","29","","15","","32.2","","99.29","","","","","","Mainly Clear"
"1978-07-08 21:00","1978","07","08","21:00","19.1","","15.3","","78","","26","","6","","25.0","","99.36","","","","","","Mainly Clear"
"1978-07-08 22:00","1978","07","08","22:00","19.6","","16.1","","80","","28","","13","","25.0","","99.36","","","","","","Mostly Cloudy"
"1978-07-08 23:00","1978","07","08","23:00","18.5","","16.0","","85","","31","","13","","24.1","","99.29","","","","","","Mainly Clear"
"1978-07-09 00:00","1978","07","09","00:00","18.0","","15.8","","87","","31","","9","","24.1","","99.36","","","","","","Mainly Clear"
"1978-07-09 01:00","1978","07","09","01:00","17.2","","15.4","","89","","32","","9","","19.3","","99.36","","","","","","Mainly Clear"
"1978-07-09 02:00","1978","07","09","02:00","17.1","","15.4","","90","","32","","4","","19.3","","99.36","","","","","","Mainly Clear"
"1978-07-09 03:00","1978","07","09","03:00","16.9","","15.4","","91","","30","","2","","19.3","","99.36","","","","","","Mostly Cloudy"
"1978-07-09 04:00","1978","07","09","04:00","16.5","","15.2","","92","","29","","2","","19.3","","99.36","","","","","","Mostly Cloudy"
"1978-07-09 05:00","1978","07","09","05:00","16.9","","15.4","","91","","","","0","","16.1","","99.39","","","","","","Mainly Clear"
"1978-07-09 06:00","1978","07","09","06:00","16.5","","14.9","","90","","26","","7","","16.1","","99.46","","","","","","Mostly Cloudy"
"1978-07-09 07:00","1978","07","09","07:00","18.5","","16.0","","85","","30","","6","","12.9","","99.42","","","","","","Mainly Clear"
"1978-07-09 08:00","1978","07","09","08:00","19.5","","15.8","","79","","36","","4","","12.9","","99.46","","","","","","Mostly Cloudy"
"1978-07-09 09:00","1978","07","09","09:00","21.2","","16.1","","73","","11","","2","","16.1","","99.46","","26","","","","Mostly Cloudy"
"1978-07-09 10:00","1978","07","09","10:00","22.7","","15.4","","63","","18","","4","","19.3","","99.39","","27","","","","Mostly Cloudy"
"1978-07-09 11:00","1978","07","09","11:00","24.0","","14.7","","56","","18","","7","","19.3","","99.39","","28","","","","Mostly Cloudy"
"1978-07-09 12:00","1978","07","09","12:00","24.0","","16.8","","64","","14","","17","","16.1","","99.36","","29","","","","Mostly Cloudy"
"1978-07-09 13:00","1978","07","09","13:00","25.8","","16.4","","56","","15","","13","","19.3","","99.32","","31","","","","Mostly Cloudy"
"1978-07-09 14:00","1978","07","09","14:00","26.5","","16.3","","53","","17","","17","","24.1","","99.26","","31","","","","Mainly Clear"
"1978-07-09 15:00","1978","07","09","15:00","26.0","","15.7","","53","","16","","20","","32.2","","99.16","","30","","","","Mainly Clear"
"1978-07-09 16:00","1978","07","09","16:00","26.5","","15.2","","50","","16","","20","","32.2","","99.16","","31","","","","Mainly Clear"
"1978-07-09 17:00","1978","07","09","17:00","24.9","","16.6","","60","","18","","17","","40.2","","99.16","","30","","","","Mostly Cloudy"
"1978-07-09 18:00","1978","07","09","18:00","25.4","","16.8","","59","","19","","19","","40.2","","99.16","","31","","","","Mostly Cloudy"
"1978-07-09 19:00","1978","07","09","19:00","24.6","","16.4","","60","","22","","20","","32.2","","99.16","","29","","","","Mainly Clear"
"1978-07-09 20:00","1978","07","09","20:00","23.4","","16.6","","66","","23","","13","","32.2","","99.12","","28","","","","Mainly Clear"
"1978-07-09 21:00","1978","07","09","21:00","22.4","","16.4","","69","","21","","11","","25.0","","99.09","","27","","","","Mainly Clear"
"1978-07-09 22:00","1978","07","09","22:00","20.0","","16.3","","79","","22","","9","","25.0","","99.16","","25","","","","Mainly Clear"
"1978-07-09 23:00","1978","07","09","23:00","18.9","","16.2","","85","","24","","7","","19.3","","99.09","","","","","","Mainly Clear"
"1978-07-10 00:00","1978","07","10","00:00","18.5","","15.7","","84","","22","","7","","19.3","","99.06","","","","","","Mostly Cloudy"
"1978-07-10 01:00","1978","07","10","01:00","18.6","","15.4","","82","","20","","7","","12.9","","98.99","","","","","","Mostly Cloudy"
"1978-07-10 02:00","1978","07","10","02:00","18.0","","16.1","","89","","22","","6","","9.7","","98.96","","","","","","Fog"
"1978-07-10 03:00","1978","07","10","03:00","18.6","","16.3","","86","","23","","6","","9.7","","98.99","","","","","","Fog"
"1978-07-10 04:00","1978","07","10","04:00","18.7","","16.0","","84","","29","","15","","12.9","","98.96","","","","","","Mostly Cloudy"
"1978-07-10 05:00","1978","07","10","05:00","18.0","","13.5","","75","","30","","22","","24.1","","99.02","","","","","","Mostly Cloudy"
"1978-07-10 06:00","1978","07","10","06:00","16.9","","12.0","","73","","30","","24","","40.2","","99.09","","","","","","Mostly Cloudy"
"1978-07-10 07:00","1978","07","10","07:00","16.6","","11.4","","71","","31","","26","","40.2","","99.19","","","","","","Mainly Clear"
"1978-07-10 08:00","1978","07","10","08:00","17.0","","10.9","","67","","32","","20","","40.2","","99.19","","","","","","Mainly Clear"
"1978-07-10 09:00","1978","07","10","09:00","18.0","","9.7","","58","","31","","28","","40.2","","99.26","","","","","","Mainly Clear"
"1978-07-10 10:00","1978","07","10","10:00","18.8","","10.1","","57","","29","","26","","40.2","","99.29","","","","","","Mainly Clear"
"1978-07-10 11:00","1978","07","10","11:00","19.5","","9.5","","52","","30","","26","","40.2","","99.32","","","","","","Mainly Clear"
"1978-07-10 12:00","1978","07","10","12:00","19.8","","8.9","","49","","29","","22","","40.2","","99.36","","","","","","Mainly Clear"
"1978-07-10 13:00","1978","07","10","13:00","21.2","","8.9","","45","","29","","19","","40.2","","99.36","","","","","","Mainly Clear"
"1978-07-10 14:00","1978","07","10","14:00","20.7","","8.3","","45","","28","","30","","40.2","","99.36","","","","","","Mainly Clear"
"1978-07-10 15:00","1978","07","10","15:00","20.7","","7.4","","42","","28","","30","","40.2","","99.39","","","","","","Mainly Clear"
"1978-07-10 16:00","1978","07","10","16:00","20.9","","6.2","","38","","30","","30","","40.2","","99.39","","","","","","Mainly Clear"
"1978-07-10 17:00","1978","07","10","17:00","20.0","","7.1","","43","","32","","28","","40.2","","99.42","","","","","","Mainly Clear"
"1978-07-10 18:00","1978","07","10","18:00","18.9","","7.1","","46","","29","","26","","40.2","","99.46","","","","","","Mainly Clear"
"1978-07-10 19:00","1978","07","10","19:00","17.4","","6.0","","47","","30","","24","","40.2","","99.49","","","","","","Mainly Clear"
"1978-07-10 20:00","1978","07","10","20:00","15.4","","6.6","","56","","30","","22","","40.2","","99.56","","","","","","Mainly Clear"
"1978-07-10 21:00","1978","07","10","21:00","14.1","","6.1","","59","","32","","11","","25.0","","99.59","","","","","","Mainly Clear"
"1978-07-10 22:00","1978","07","10","22:00","12.3","","6.9","","70","","31","","13","","25.0","","99.66","","","","","","Clear"
"1978-07-10 23:00","1978","07","10","23:00","11.4","","6.5","","72","","30","","13","","25.0","","99.66","","","","","","Mainly Clear"
"1978-07-11 00:00","1978","07","11","00:00","10.8","","7.2","","79","","29","","13","","25.0","","99.66","","","","","","Mainly Clear"
"1978-07-11 01:00","1978","07","11","01:00","10.3","","6.7","","79","","29","","9","","25.0","","99.69","","","","","","Mainly Clear"
"1978-07-11 02:00","1978","07","11","02:00","10.3","","7.1","","81","","29","","15","","25.0","","99.72","","","","","","Mainly Clear"
"1978-07-11 03:00","1978","07","11","03:00","9.5","","7.2","","86","","29","","6","","25.0","","99.76","","","","","","Mainly Clear"
"1978-07-11 04:00","1978","07","11","04:00","8.5","","7.0","","90","","33","","6","","25.0","","99.76","","","","","","Mainly Clear"
"1978-07-11 05:00","1978","07","11","05:00","8.6","","7.4","","92","","34","","9","","40.2","","99.79","","","","","","Mainly Clear"
"1978-07-11 06:00","1978","07","11","06:00","10.7","","8.3","","85","","34","","13","","40.2","","99.86","","","","","","Mainly Clear"
"1978-07-11 07:00","1978","07","11","07:00","13.8","","8.2","","69","","34","","15","","40.2","","99.89","","","","","","Mainly Clear"
"1978-07-11 08:00","1978","07","11","08:00","16.2","","6.8","","54","","35","","17","","40.2","","99.96","","","","","","Mainly Clear"
"1978-07-11 09:00","1978","07","11","09:00","17.5","","6.5","","48","","36","","19","","40.2","","99.96","","","","","","Mainly Clear"
"1978-07-11 10:00","1978","07","11","10:00","18.5","","6.0","","44","","32","","24","","40.2","","99.96","","","","","","Mostly Cloudy"
"1978-07-11 11:00","1978","07","11","11:00","18.9","","5.2","","41","","33","","26","","40.2","","99.92","","","","","","Mostly Cloudy"
"1978-07-11 12:00","1978","07","11","12:00","18.5","","4.5","","40","","34","","24","","40.2","","99.92","","","","","","Mostly Cloudy"
"1978-07-11 13:00","1978","07","11","13:00","20.5","","4.9","","36","","33","","19","","40.2","","99.89","","","","","","Mostly Cloudy"
"1978-07-11 14:00","1978","07","11","14:00","21.1","","4.1","","33","","34","","17","","40.2","","99.86","","","","","","Mainly Clear"
"1978-07-11 15:00","1978","07","11","15:00","21.9","","3.5","","30","","33","","26","","40.2","","99.89","","","","","","Mainly Clear"
"1978-07-11 16:00","1978","07","11","16:00","21.6","","3.8","","31","","32","","15","","40.2","","99.86","","","","","","Mainly Clear"
"1978-07-11 17:00","1978","07","11","17:00","20.9","","4.1","","33","","33","","17","","40.2","","99.86","","","","","","Mainly Clear"
"1978-07-11 18:00","1978","07","11","18:00","20.4","","3.8","","33","","35","","20","","40.2","","99.86","","","","","","Clear"
"1978-07-11 19:00","1978","07","11","19:00","19.7","","3.9","","35","","34","","15","","40.2","","99.86","","","","","","Clear"
"1978-07-11 20:00","1978","07","11","20:00","16.9","","5.8","","48","","36","","9","","40.2","","99.89","","","","","","Clear"
"1978-07-11 21:00","1978","07","11","21:00","13.8","","6.1","","60","","32","","13","","25.0","","99.96","","","","","","Mainly Clear"
"1978-07-11 22:00","1978","07","11","22:00","12.3","","6.4","","67","","32","","13","","25.0","","99.96","","","","","","Clear"
"1978-07-11 23:00","1978","07","11","23:00","11.8","","6.3","","69","","33","","7","","25.0","","99.96","","","","","","Clear"
"1978-07-12 00:00","1978","07","12","00:00","11.6","","5.7","","67","","29","","6","","25.0","","99.99","","","","","","Mainly Clear"
"1978-07-12 01:00","1978","07","12","01:00","10.9","","6.0","","72","","33","","11","","25.0","","99.99","","","","","","Mainly Clear"
"1978-07-12 02:00","1978","07","12","02:00","10.7","","5.4","","70","","32","","6","","25.0","","100.02","","","","","","Mainly Clear"
"1978-07-12 03:00","1978","07","12","03:00","11.0","","5.5","","69","","27","","4","","25.0","","100.06","","","","","","Clear"
"1978-07-12 04:00","1978","07","12","04:00","9.3","","5.6","","78","","25","","7","","25.0","","100.09","","","","","","Clear"
"1978-07-12 05:00","1978","07","12","05:00","9.5","","5.1","","74","","25","","6","","40.2","","100.12","","","","","","Clear"
"1978-07-12 06:00","1978","07","12","06:00","10.6","","6.7","","77","","27","","6","","40.2","","100.16","","","","","","Mainly Clear"
"1978-07-12 07:00","1978","07","12","07:00","15.9","","6.8","","55","","29","","6","","40.2","","100.19","","","","","","Mainly Clear"
"1978-07-12 08:00","1978","07","12","08:00","19.9","","7.6","","45","","28","","9","","40.2","","100.19","","","","","","Mainly Clear"
"1978-07-12 09:00","1978","07","12","09:00","21.8","","7.1","","39","","30","","11","","40.2","","100.19","","","","","","Mainly Clear"
"1978-07-12 10:00","1978","07","12","10:00","22.7","","5.4","","32","","26","","6","","40.2","","100.16","","","","","","Mostly Cloudy"
"1978-07-12 11:00","1978","07","12","11:00","24.0","","5.7","","31","","24","","13","","40.2","","100.09","","","","","","Mostly Cloudy"
"1978-07-12 12:00","1978","07","12","12:00","24.6","","5.4","","29","","25","","7","","40.2","","100.06","","","","","","Mainly Clear"
"1978-07-12 13:00","1978","07","12","13:00","24.9","","7.8","","34","","20","","11","","40.2","","99.99","","25","","","","Clear"
"1978-07-12 14:00","1978","07","12","14:00","26.1","","5.2","","26","","19","","17","","40.2","","99.99","","25","","","","Mainly Clear"
"1978-07-12 15:00","1978","07","12","15:00","26.4","","6.1","","27","","22","","19","","40.2","","99.89","","26","","","","Mainly Clear"
"1978-07-12 16:00","1978","07","12","16:00","26.0","","4.1","","24","","24","","15","","40.2","","99.82","","25","","","","Mainly Clear"
"1978-07-12 17:00","1978","07","12","17:00","24.8","","5.7","","29","","16","","20","","40.2","","99.79","","","","","","Mainly Clear"
"1978-07-12 18:00","1978","07","12","18:00","24.6","","4.9","","28","","18","","22","","40.2","","99.79","","","","","","Mainly Clear"
"1978-07-12 19:00","1978","07","12","19:00","23.5","","6.4","","33","","18","","13","","40.2","","99.76","","","","","","Mainly Clear"
"1978-07-12 20:00","1978","07","12","20:00","21.7","","6.9","","38","","17","","9","","32.2","","99.76","","","","","","Mainly Clear"
"1978-07-12 21:00","1978","07","12","21:00","20.4","","7.8","","44","","18","","7","","25.0","","99.76","","","","","","Mostly Cloudy"
"1978-07-12 22:00","1978","07","12","22:00","18.3","","6.9","","47","","21","","6","","25.0","","99.76","","","","","","Mainly Clear"
"1978-07-12 23:00","1978","07","12","23:00","17.5","","6.5","","48","","17","","4","","25.0","","99.72","","","","","","Mostly Cloudy"
"1978-07-13 00:00","1978","07","13","00:00","14.8","","7.7","","63","","21","","7","","25.0","","99.69","","","","","","Mostly Cloudy"
"1978-07-13 01:00","1978","07","13","01:00","15.8","","8.1","","60","","19","","9","","25.0","","99.69","","","","","","Mostly Cloudy"
"1978-07-13 02:00","1978","07","13","02:00","13.5","","9.6","","77","","21","","7","","25.0","","99.62","","","","","","Mainly Clear"
"1978-07-13 03:00","1978","07","13","03:00","14.3","","10.3","","77","","18","","6","","24.1","","99.59","","","","","","Mainly Clear"
"1978-07-13 04:00","1978","07","13","04:00","13.2","","10.2","","82","","","","0","","16.1","","99.56","","","","","","Mainly Clear"
"1978-07-13 05:00","1978","07","13","05:00","13.5","","10.0","","79","","16","","7","","19.3","","99.56","","","","","","Mainly Clear"
"1978-07-13 06:00","1978","07","13","06:00","14.1","","10.5","","79","","16","","7","","24.1","","99.56","","","","","","Mainly Clear"
"1978-07-13 07:00","1978","07","13","07:00","17.5","","14.0","","80","","17","","13","","19.3","","99.49","","","","","","Mainly Clear"
"1978-07-13 08:00","1978","07","13","08:00","20.4","","13.5","","65","","17","","13","","24.1","","99.46","","","","","","Mainly Clear"
"1978-07-13 09:00","1978","07","13","09:00","21.2","","13.3","","61","","15","","13","","24.1","","99.39","","","","","","Mostly Cloudy"
"1978-07-13 10:00","1978","07","13","10:00","21.4","","13.2","","60","","17","","11","","24.1","","99.36","","","","","","Cloudy"
"1978-07-13 11:00","1978","07","13","11:00","22.3","","13.3","","57","","17","","17","","24.1","","99.29","","25","","","","Mostly Cloudy"
"1978-07-13 12:00","1978","07","13","12:00","24.2","","12.8","","49","","17","","22","","24.1","","99.26","","27","","","","Mostly Cloudy"
"1978-07-13 13:00","1978","07","13","13:00","25.4","","12.0","","43","","17","","19","","24.1","","99.22","","28","","","","Mostly Cloudy"
"1978-07-13 14:00","1978","07","13","14:00","25.3","","14.0","","50","","19","","20","","24.1","","99.19","","29","","","","Mostly Cloudy"
"1978-07-13 15:00","1978","07","13","15:00","26.0","","14.2","","48","","21","","24","","16.1","","99.12","","29","","","","Cloudy"
"1978-07-13 16:00","1978","07","13","16:00","25.3","","14.0","","50","","21","","30","","16.1","","99.09","","29","","","","Cloudy"
"1978-07-13 17:00","1978","07","13","17:00","23.7","","13.7","","54","","22","","28","","16.1","","99.12","","27","","","","Mostly Cloudy"
"1978-07-13 18:00","1978","07","13","18:00","23.5","","13.0","","52","","24","","20","","16.1","","99.16","","26","","","","Cloudy"
"1978-07-13 19:00","1978","07","13","19:00","23.1","","15.7","","63","","25","","15","","16.1","","99.19","","28","","","","Cloudy"
"1978-07-13 20:00","1978","07","13","20:00","22.6","","16.1","","67","","26","","2","","9.7","","99.19","","27","","","","Haze"
"1978-07-13 21:00","1978","07","13","21:00","22.2","","15.9","","67","","","","0","","9.7","","99.26","","27","","","","Haze"
"1978-07-13 22:00","1978","07","13","22:00","21.8","","16.5","","72","","21","","4","","8.0","","99.26","","27","","","","Haze"
"1978-07-13 23:00","1978","07","13","23:00","21.5","","17.0","","76","","26","","2","","8.0","","99.29","","27","","","","Rain Showers,Haze"
"1978-07-14 00:00","1978","07","14","00:00","20.5","","16.9","","80","","23","","6","","8.0","","99.29","","26","","","","Haze"
"1978-07-14 01:00","1978","07","14","01:00","18.5","","17.0","","91","","31","","9","","6.4","","99.29","","","","","","Fog"
"1978-07-14 02:00","1978","07","14","02:00","18.3","","17.3","","94","","33","","15","","4.8","","99.26","","","","","","Fog"
"1978-07-14 03:00","1978","07","14","03:00","17.2","","16.4","","95","","36","","11","","4.0","","99.29","","","","","","Fog"
"1978-07-14 04:00","1978","07","14","04:00","16.0","","15.7","","98","","33","","4","","4.0","","99.32","","","","","","Fog"
"1978-07-14 05:00","1978","07","14","05:00","16.6","","15.9","","96","","12","","2","","2.4","","99.36","","","","","","Fog"
"1978-07-14 06:00","1978","07","14","06:00","15.3","","15.2","","100","","30","","6","","1.6","","99.42","","","","","","Fog"
"1978-07-14 07:00","1978","07","14","07:00","18.4","","17.0","","92","","34","","9","","4.8","","99.46","","","","","","Fog"
"1978-07-14 08:00","1978","07","14","08:00","20.5","","15.6","","74","","2","","4","","12.9","","99.42","","25","","","","Mostly Cloudy"
"1978-07-14 09:00","1978","07","14","09:00","22.5","","14.7","","62","","32","","4","","24.1","","99.42","","26","","","","Mainly Clear"
"1978-07-14 10:00","1978","07","14","10:00","24.4","","13.1","","49","","25","","6","","40.2","","99.42","","27","","","","Mostly Cloudy"
"1978-07-14 11:00","1978","07","14","11:00","25.9","","12.7","","44","","20","","4","","40.2","","99.39","","29","","","","Mostly Cloudy"
"1978-07-14 12:00","1978","07","14","12:00","25.0","","14.5","","52","","16","","15","","40.2","","99.39","","29","","","","Mainly Clear"
"1978-07-14 13:00","1978","07","14","13:00","25.1","","14.5","","52","","13","","15","","40.2","","99.36","","29","","","","Mainly Clear"
"1978-07-14 14:00","1978","07","14","14:00","27.1","","13.6","","43","","16","","13","","40.2","","99.29","","30","","","","Mainly Clear"
"1978-07-14 15:00","1978","07","14","15:00","27.0","","13.6","","44","","14","","15","","40.2","","99.29","","30","","","","Mainly Clear"
"1978-07-14 16:00","1978","07","14","16:00","29.3","","10.4","","31","","33","","11","","40.2","","99.26","","31","","","","Mainly Clear"
"1978-07-14 17:00","1978","07","14","17:00","28.2","","13.7","","41","","3","","9","","40.2","","99.26","","31","","","","Mainly Clear"
"1978-07-14 18:00","1978","07","14","18:00","26.4","","14.9","","49","","17","","11","","32.2","","99.22","","30","","","","Mainly Clear"
"1978-07-14 19:00","1978","07","14","19:00","25.2","","15.2","","54","","1","","15","","32.2","","99.26","","29","","","","Mainly Clear"
"1978-07-14 20:00","1978","07","14","20:00","22.7","","14.7","","61","","1","","11","","32.2","","99.29","","26","","","","Mainly Clear"
"1978-07-14 21:00","1978","07","14","21:00","21.3","","15.0","","67","","35","","11","","25.0","","99.29","","25","","","","Mainly Clear"
"1978-07-14 22:00","1978","07","14","22:00","19.0","","14.9","","77","","35","","9","","24.1","","99.32","","","","","","Mainly Clear"
"1978-07-14 23:00","1978","07","14","23:00","16.9","","14.8","","87","","35","","4","","24.1","","99.29","","","","","","Mainly Clear"
"1978-07-15 00:00","1978","07","15","00:00","15.8","","14.4","","91","","34","","6","","24.1","","99.29","","","","","","Clear"
"1978-07-15 01:00","1978","07","15","01:00","15.4","","13.9","","91","","34","","4","","24.1","","99.26","","","","","","Clear"
"1978-07-15 02:00","1978","07","15","02:00","14.1","","13.0","","93","","32","","4","","24.1","","99.19","","","","","","Clear"
"1978-07-15 03:00","1978","07","15","03:00","13.3","","12.2","","93","","32","","4","","16.1","","99.16","","","","","","Clear"
"1978-07-15 04:00","1978","07","15","04:00","13.0","","12.0","","94","","32","","2","","16.1","","99.19","","","","","","Mainly Clear"
"1978-07-15 05:00","1978","07","15","05:00","13.7","","12.2","","91","","27","","2","","16.1","","99.19","","","","","","Mainly Clear"
"1978-07-15 06:00","1978","07","15","06:00","14.9","","13.4","","91","","","","0","","24.1","","99.19","","","","","","Mainly Clear"
"1978-07-15 07:00","1978","07","15","07:00","18.5","","14.4","","77","","","","0","","24.1","","99.19","","","","","","Mainly Clear"
"1978-07-15 08:00","1978","07","15","08:00","22.3","","12.9","","55","","21","","6","","32.2","","99.16","","25","","","","Mainly Clear"
"1978-07-15 09:00","1978","07","15","09:00","24.4","","13.5","","51","","21","","13","","32.2","","99.12","","27","","","","Clear"
"1978-07-15 10:00","1978","07","15","10:00","24.9","","15.2","","55","","16","","15","","24.1","","99.09","","29","","","","Mainly Clear"
"1978-07-15 11:00","1978","07","15","11:00","26.0","","14.2","","48","","15","","15","","19.3","","99.06","","29","","","","Mainly Clear"
"1978-07-15 12:00","1978","07","15","12:00","29.0","","15.8","","45","","22","","11","","24.1","","98.99","","33","","","","Mainly Clear"
"1978-07-15 13:00","1978","07","15","13:00","29.4","","14.2","","40","","26","","17","","24.1","","98.92","","33","","","","Mostly Cloudy"
"1978-07-15 14:00","1978","07","15","14:00","30.7","","14.7","","38","","24","","19","","19.3","","98.89","","34","","","","Mostly Cloudy"
"1978-07-15 15:00","1978","07","15","15:00","31.2","","14.6","","37","","24","","19","","19.3","","98.86","","35","","","","Mostly Cloudy"
"1978-07-15 16:00","1978","07","15","16:00","29.0","","14.7","","42","","25","","13","","16.1","","98.86","","33","","","","Mostly Cloudy"
"1978-07-15 17:00","1978","07","15","17:00","30.4","","14.7","","39","","29","","20","","19.3","","98.79","","34","","","","Mostly Cloudy"
"1978-07-15 18:00","1978","07","15","18:00","29.1","","15.8","","45","","27","","17","","19.3","","98.82","","34","","","","Mainly Clear"
"1978-07-15 19:00","1978","07","15","19:00","28.0","","15.6","","47","","32","","17","","24.1","","98.82","","32","","","","Mainly Clear"
"1978-07-15 20:00","1978","07","15","20:00","23.0","","17.0","","69","","1","","19","","24.1","","98.89","","28","","","","Mainly Clear"
"1978-07-15 21:00","1978","07","15","21:00","21.6","","16.7","","74","","2","","6","","24.1","","98.96","","27","","","","Mostly Cloudy"
"1978-07-15 22:00","1978","07","15","22:00","19.7","","15.5","","77","","34","","9","","24.1","","98.99","","","","","","Mostly Cloudy"
"1978-07-15 23:00","1978","07","15","23:00","19.4","","15.5","","78","","31","","6","","24.1","","99.02","","","","","","Mostly Cloudy"
"1978-07-16 00:00","1978","07","16","00:00","18.9","","12.1","","65","","31","","13","","24.1","","98.99","","","","","","Mostly Cloudy"
"1978-07-16 01:00","1978","07","16","01:00","18.0","","10.5","","62","","32","","9","","25.0","","98.99","","","","","","Mostly Cloudy"
"1978-07-16 02:00","1978","07","16","02:00","17.2","","10.5","","65","","33","","13","","25.0","","98.99","","","","","","Mostly Cloudy"
"1978-07-16 03:00","1978","07","16","03:00","15.0","","10.1","","73","","31","","7","","25.0","","98.99","","","","","","Mainly Clear"
"1978-07-16 04:00","1978","07","16","04:00","13.9","","10.5","","80","","29","","4","","25.0","","99.06","","","","","","Mostly Cloudy"
"1978-07-16 05:00","1978","07","16","05:00","13.8","","11.6","","87","","29","","11","","32.2","","99.06","","","","","","Mostly Cloudy"
"1978-07-16 06:00","1978","07","16","06:00","14.4","","12.2","","87","","33","","11","","24.1","","99.09","","","","","","Cloudy"
"1978-07-16 07:00","1978","07","16","07:00","15.5","","12.9","","84","","34","","7","","24.1","","99.09","","","","","","Cloudy"
"1978-07-16 08:00","1978","07","16","08:00","16.9","","13.8","","82","","36","","7","","32.2","","99.16","","","","","","Mostly Cloudy"
"1978-07-16 09:00","1978","07","16","09:00","19.5","","14.1","","71","","35","","15","","32.2","","99.12","","","","","","Mostly Cloudy"
"1978-07-16 10:00","1978","07","16","10:00","21.9","","15.5","","67","","1","","15","","32.2","","99.09","","26","","","","Mostly Cloudy"
"1978-07-16 11:00","1978","07","16","11:00","22.1","","13.8","","59","","35","","17","","32.2","","99.09","","25","","","","Mostly Cloudy"
"1978-07-16 12:00","1978","07","16","12:00","23.3","","13.7","","55","","33","","17","","32.2","","99.06","","26","","","","Mostly Cloudy"
"1978-07-16 13:00","1978","07","16","13:00","22.6","","13.3","","56","","36","","20","","32.2","","99.06","","26","","","","Mostly Cloudy"
"1978-07-16 14:00","1978","07","16","14:00","24.0","","12.8","","50","","36","","20","","32.2","","99.06","","27","","","","Mostly Cloudy"
"1978-07-16 15:00","1978","07","16","15:00","23.7","","12.6","","50","","36","","19","","32.2","","99.06","","26","","","","Mostly Cloudy"
"1978-07-16 16:00","1978","07","16","16:00","24.3","","12.7","","49","","36","","19","","32.2","","99.06","","27","","","","Mostly Cloudy"
"1978-07-16 17:00","1978","07","16","17:00","22.3","","12.9","","55","","36","","19","","32.2","","99.09","","25","","","","Mostly Cloudy"
"1978-07-16 18:00","1978","07","16","18:00","22.8","","13.5","","56","","35","","20","","32.2","","99.09","","26","","","","Mainly Clear"
"1978-07-16 19:00","1978","07","16","19:00","20.8","","13.7","","64","","36","","22","","32.2","","99.16","","","","","","Mainly Clear"
"1978-07-16 20:00","1978","07","16","20:00","19.0","","12.8","","67","","36","","17","","32.2","","99.16","","","","","","Mainly Clear"
"1978-07-16 21:00","1978","07","16","21:00","17.3","","12.2","","72","","35","","15","","25.0","","99.19","","","","","","Mainly Clear"
"1978-07-16 22:00","1978","07","16","22:00","16.1","","11.3","","73","","35","","11","","25.0","","99.22","","","","","","Mainly Clear"
"1978-07-16 23:00","1978","07","16","23:00","15.3","","11.4","","78","","34","","15","","25.0","","99.22","","","","","","Mainly Clear"
"1978-07-17 00:00","1978","07","17","00:00","13.7","","10.7","","82","","34","","11","","25.0","","99.26","","","","","","Mainly Clear"
"1978-07-17 01:00","1978","07","17","01:00","13.2","","10.9","","86","","32","","11","","25.0","","99.22","","","","","","Mainly Clear"
"1978-07-17 02:00","1978","07","17","02:00","13.1","","10.9","","86","","33","","11","","25.0","","99.22","","","","","","Mostly Cloudy"
"1978-07-17 03:00","1978","07","17","03:00","13.8","","11.6","","87","","34","","15","","25.0","","99.26","","","","","","Mostly Cloudy"
"1978-07-17 04:00","1978","07","17","04:00","12.9","","11.3","","90","","34","","13","","25.0","","99.29","","","","","","Mostly Cloudy"
"1978-07-17 05:00","1978","07","17","05:00","12.1","","10.6","","91","","33","","11","","40.2","","99.36","","","","","","Mainly Clear"
"1978-07-17 06:00","1978","07","17","06:00","13.4","","11.1","","86","","34","","13","","40.2","","99.39","","","","","","Mainly Clear"
"1978-07-17 07:00","1978","07","17","07:00","15.3","","11.8","","80","","35","","15","","40.2","","99.42","","","","","","Mainly Clear"
"1978-07-17 08:00","1978","07","17","08:00","18.4","","12.6","","69","","36","","20","","32.2","","99.46","","","","","","Mainly Clear"
"1978-07-17 09:00","1978","07","17","09:00","20.6","","11.6","","56","","34","","22","","32.2","","99.46","","","","","","Mainly Clear"
"1978-07-17 10:00","1978","07","17","10:00","21.5","","9.6","","47","","35","","15","","32.2","","99.46","","","","","","Clear"
"1978-07-17 11:00","1978","07","17","11:00","22.3","","9.7","","45","","2","","13","","32.2","","99.46","","","","","","Clear"
"1978-07-17 12:00","1978","07","17","12:00","23.5","","8.8","","39","","34","","15","","40.2","","99.42","","","","","","Clear"
"1978-07-17 13:00","1978","07","17","13:00","24.6","","11.5","","44","","35","","11","","40.2","","99.39","","27","","","","Clear"
"1978-07-17 14:00","1978","07","17","14:00","25.7","","12.0","","42","","3","","13","","40.2","","99.39","","28","","","","Clear"
"1978-07-17 15:00","1978","07","17","15:00","26.0","","6.3","","28","","33","","11","","40.2","","99.39","","26","","","","Clear"
"1978-07-17 16:00","1978","07","17","16:00","26.1","","2.9","","22","","36","","7","","40.2","","99.39","","25","","","","Clear"
"1978-07-17 17:00","1978","07","17","17:00","26.1","","3.5","","23","","36","","13","","40.2","","99.36","","25","","","","Mainly Clear"
"1978-07-17 18:00","1978","07","17","18:00","25.4","","6.0","","29","","34","","17","","40.2","","99.39","","25","","","","Mainly Clear"
"1978-07-17 19:00","1978","07","17","19:00","23.9","","6.7","","33","","35","","13","","40.2","","99.46","","","","","","Mainly Clear"
"1978-07-17 20:00","1978","07","17","20:00","20.6","","6.4","","40","","36","","11","","25.0","","99.52","","","","","","Mainly Clear"
"1978-07-17 21:00","1978","07","17","21:00","16.8","","4.3","","43","","34","","15","","25.0","","99.59","","","","","","Mostly Cloudy"
"1978-07-17 22:00","1978","07","17","22:00","14.9","","5.5","","53","","34","","7","","25.0","","99.66","","","","","","Mainly Clear"
"1978-07-17 23:00","1978","07","17","23:00","15.3","","5.7","","53","","32","","2","","25.0","","99.66","","","","","","Mainly Clear"
"1978-07-18 00:00","1978","07","18","00:00","13.8","","6.5","","61","","33","","7","","25.0","","99.66","","","","","","Mainly Clear"
"1978-07-18 01:00","1978","07","18","01:00","12.4","","6.9","","69","","35","","6","","25.0","","99.66","","","","","","Mainly Clear"
"1978-07-18 02:00","1978","07","18","02:00","11.4","","7.8","","78","","33","","7","","25.0","","99.66","","","","","","Mainly Clear"
"1978-07-18 03:00","1978","07","18","03:00","10.7","","7.5","","80","","34","","7","","25.0","","99.69","","","","","","Mainly Clear"
"1978-07-18 04:00","1978","07","18","04:00","9.8","","7.4","","85","","33","","6","","25.0","","99.69","","","","","","Mainly Clear"
"1978-07-18 05:00","1978","07","18","05:00","10.4","","7.1","","80","","34","","7","","40.2","","99.72","","","","","","Mainly Clear"
"1978-07-18 06:00","1978","07","18","06:00","11.3","","8.6","","84","","31","","7","","40.2","","99.76","","","","","","Mainly Clear"
"1978-07-18 07:00","1978","07","18","07:00","16.2","","9.7","","65","","32","","6","","40.2","","99.79","","","","","","Mainly Clear"
"1978-07-18 08:00","1978","07","18","08:00","20.3","","9.6","","50","","27","","2","","40.2","","99.82","","","","","","Mainly Clear"
"1978-07-18 09:00","1978","07","18","09:00","23.2","","7.2","","36","","24","","7","","40.2","","99.82","","","","","","Mainly Clear"
"1978-07-18 10:00","1978","07","18","10:00","25.5","","9.4","","36","","23","","11","","40.2","","99.86","","27","","","","Mainly Clear"
"1978-07-18 11:00","1978","07","18","11:00","26.9","","10.7","","36","","17","","6","","40.2","","99.86","","29","","","","Mostly Cloudy"
"1978-07-18 12:00","1978","07","18","12:00","27.3","","11.0","","36","","16","","15","","24.1","","99.79","","29","","","","Cloudy"
"1978-07-18 13:00","1978","07","18","13:00","27.8","","11.7","","37","","15","","17","","19.3","","99.79","","30","","","","Cloudy"
"1978-07-18 14:00","1978","07","18","14:00","27.7","","12.3","","38","","15","","17","","19.3","","99.76","","30","","","","Cloudy"
"1978-07-18 15:00","1978","07","18","15:00","28.8","","12.7","","37","","14","","17","","24.1","","99.76","","31","","","","Cloudy"
"1978-07-18 16:00","1978","07","18","16:00","29.5","","13.0","","36","","16","","17","","24.1","","99.72","","32","","","","Cloudy"
"1978-07-18 17:00","1978","07","18","17:00","29.0","","13.5","","39","","17","","19","","24.1","","99.69","","32","","","","Mostly Cloudy"
"1978-07-18 18:00","1978","07","18","18:00","29.6","","12.6","","35","","23","","15","","24.1","","99.69","","32","","","","Mainly Clear"
"1978-07-18 19:00","1978","07","18","19:00","28.2","","11.3","","35","","20","","15","","24.1","","99.72","","30","","","","Mainly Clear"
"1978-07-18 20:00","1978","07","18","20:00","26.7","","13.3","","44","","19","","13","","24.1","","99.79","","30","","","","Mostly Cloudy"
"1978-07-18 21:00","1978","07","18","21:00","25.0","","12.2","","45","","18","","11","","24.1","","99.86","","27","","","","Mostly Cloudy"
"1978-07-18 22:00","1978","07","18","22:00","23.5","","12.2","","49","","20","","7","","24.1","","99.89","","26","","","","Mostly Cloudy"
"1978-07-18 23:00","1978","07","18","23:00","22.5","","12.1","","52","","22","","6","","25.0","","99.89","","25","","","","Mostly Cloudy"
"1978-07-19 00:00","1978","07","19","00:00","22.3","","12.5","","54","","16","","6","","25.0","","99.89","","25","","","","Cloudy"
"1978-07-19 01:00","1978","07","19","01:00","22.3","","11.3","","50","","17","","4","","25.0","","99.89","","","","","","Cloudy"
"1978-07-19 02:00","1978","07","19","02:00","21.6","","10.9","","51","","21","","7","","25.0","","99.89","","","","","","Mostly Cloudy"
"1978-07-19 03:00","1978","07","19","03:00","21.0","","11.0","","53","","21","","7","","25.0","","99.89","","","","","","Mostly Cloudy"
"1978-07-19 04:00","1978","07","19","04:00","20.8","","12.2","","58","","16","","6","","25.0","","99.89","","","","","","Cloudy"
"1978-07-19 05:00","1978","07","19","05:00","20.1","","12.1","","60","","16","","6","","24.1","","99.89","","","","","","Cloudy"
"1978-07-19 06:00","1978","07","19","06:00","20.9","","13.0","","61","","14","","2","","24.1","","99.92","","","","","","Rain"
"1978-07-19 07:00","1978","07","19","07:00","21.9","","13.8","","60","","21","","9","","19.3","","99.96","","25","","","","Cloudy"
"1978-07-19 08:00","1978","07","19","08:00","22.1","","15.2","","65","","14","","2","","19.3","","99.96","","26","","","","Cloudy"
"1978-07-19 09:00","1978","07","19","09:00","24.1","","16.5","","63","","19","","6","","19.3","","99.92","","29","","","","Mostly Cloudy"
"1978-07-19 10:00","1978","07","19","10:00","26.0","","16.4","","55","","21","","9","","24.1","","99.89","","31","","","","Mostly Cloudy"
"1978-07-19 11:00","1978","07","19","11:00","28.6","","16.3","","47","","22","","13","","24.1","","99.89","","33","","","","Cloudy"
"1978-07-19 12:00","1978","07","19","12:00","31.0","","15.0","","38","","20","","17","","24.1","","99.86","","35","","","","Cloudy"
"1978-07-19 13:00","1978","07","19","13:00","31.3","","17.2","","43","","21","","19","","19.3","","99.86","","37","","","","Cloudy"
"1978-07-19 14:00","1978","07","19","14:00","33.0","","15.4","","35","","20","","20","","19.3","","99.79","","37","","","","Cloudy"
"1978-07-19 15:00","1978","07","19","15:00","32.5","","15.5","","36","","21","","28","","24.1","","99.76","","37","","","","Mostly Cloudy"
"1978-07-19 16:00","1978","07","19","16:00","29.8","","14.5","","39","","22","","26","","24.1","","99.79","","33","","","","Mostly Cloudy"
"1978-07-19 17:00","1978","07","19","17:00","28.5","","14.8","","43","","22","","20","","32.2","","99.79","","32","","","","Mostly Cloudy"
"1978-07-19 18:00","1978","07","19","18:00","28.0","","15.6","","47","","23","","19","","32.2","","99.79","","32","","","","Mostly Cloudy"
"1978-07-19 19:00","1978","07","19","19:00","26.8","","15.1","","49","","24","","11","","32.2","","99.79","","31","","","","Cloudy"
"1978-07-19 20:00","1978","07","19","20:00","25.4","","16.2","","57","","24","","7","","32.2","","99.76","","30","","","","Cloudy"
"1978-07-19 21:00","1978","07","19","21:00","24.8","","17.3","","63","","24","","6","","24.1","","99.79","","30","","","","Cloudy"
"1978-07-19 22:00","1978","07","19","22:00","24.0","","16.5","","63","","23","","4","","24.1","","99.79","","29","","","","Mostly Cloudy"
"1978-07-19 23:00","1978","07","19","23:00","24.3","","17.0","","64","","16","","4","","24.1","","99.79","","30","","","","Cloudy"
"1978-07-20 00:00","1978","07","20","00:00","24.0","","16.8","","64","","16","","6","","19.3","","99.79","","29","","","","Cloudy"
"1978-07-20 01:00","1978","07","20","01:00","22.7","","16.8","","69","","15","","6","","19.3","","99.76","","28","","","","Cloudy"
"1978-07-20 02:00","1978","07","20","02:00","23.5","","17.2","","68","","18","","2","","16.1","","99.76","","29","","","","Cloudy"
"1978-07-20 03:00","1978","07","20","03:00","22.5","","18.4","","78","","15","","2","","12.9","","99.76","","29","","","","Cloudy"
"1978-07-20 04:00","1978","07","20","04:00","22.6","","18.1","","76","","15","","2","","12.9","","99.76","","29","","","","Cloudy"
"1978-07-20 05:00","1978","07","20","05:00","23.0","","17.0","","69","","18","","6","","8.0","","99.76","","28","","","","Rain,Haze"
"1978-07-20 06:00","1978","07","20","06:00","22.3","","17.4","","74","","17","","11","","8.0","","99.69","","28","","","","Rain,Haze"
"1978-07-20 07:00","1978","07","20","07:00","23.1","","17.0","","69","","20","","7","","8.0","","99.69","","28","","","","Haze"
"1978-07-20 08:00","1978","07","20","08:00","25.3","","17.8","","63","","22","","7","","8.0","","99.69","","31","","","","Haze"
"1978-07-20 09:00","1978","07","20","09:00","27.8","","18.1","","56","","20","","6","","9.7","","99.69","","34","","","","Haze"
"1978-07-20 10:00","1978","07","20","10:00","30.2","","18.1","","48","","27","","7","","9.7","","99.66","","36","","","","Haze"
"1978-07-20 11:00","1978","07","20","11:00","32.6","","17.7","","41","","24","","13","","12.9","","99.66","","38","","","","Mainly Clear"
"1978-07-20 12:00","1978","07","20","12:00","33.0","","17.3","","39","","27","","17","","12.9","","99.66","","38","","","","Mainly Clear"
"1978-07-20 13:00","1978","07","20","13:00","33.8","","17.9","","39","","24","","13","","9.7","","99.66","","40","","","","Haze"
"1978-07-20 14:00","1978","07","20","14:00","34.1","","16.4","","35","","23","","17","","9.7","","99.59","","39","","","","Haze"
"1978-07-20 15:00","1978","07","20","15:00","34.4","","16.7","","35","","26","","19","","12.9","","99.56","","39","","","","Mainly Clear"
"1978-07-20 16:00","1978","07","20","16:00","34.2","","16.8","","35","","24","","15","","12.9","","99.56","","39","","","","Mainly Clear"
"1978-07-20 17:00","1978","07","20","17:00","34.0","","17.5","","38","","23","","13","","12.9","","99.49","","40","","","","Mainly Clear"
"1978-07-20 18:00","1978","07","20","18:00","33.0","","17.7","","40","","25","","11","","12.9","","99.49","","39","","","","Mainly Clear"
"1978-07-20 19:00","1978","07","20","19:00","31.1","","19.7","","51","","23","","15","","9.7","","99.56","","38","","","","Haze"
"1978-07-20 20:00","1978","07","20","20:00","29.4","","20.2","","58","","24","","11","","6.4","","99.62","","37","","","","Haze"
"1978-07-20 21:00","1978","07","20","21:00","27.4","","21.3","","69","","34","","11","","8.0","","99.69","","36","","","","Haze"
"1978-07-20 22:00","1978","07","20","22:00","25.3","","20.7","","76","","35","","11","","9.7","","99.72","","33","","","","Haze"
"1978-07-20 23:00","1978","07","20","23:00","24.0","","20.3","","80","","36","","6","","12.9","","99.66","","32","","","","Cloudy"
"1978-07-21 00:00","1978","07","21","00:00","22.7","","19.3","","81","","32","","6","","12.9","","99.66","","30","","","","Cloudy"
"1978-07-21 01:00","1978","07","21","01:00","22.4","","19.6","","84","","35","","4","","9.7","","99.66","","30","","","","Haze"
"1978-07-21 02:00","1978","07","21","02:00","21.6","","19.2","","86","","31","","2","","9.7","","99.62","","29","","","","Haze"
"1978-07-21 03:00","1978","07","21","03:00","21.8","","19.1","","85","","30","","2","","9.7","","99.59","","29","","","","Haze"
"1978-07-21 04:00","1978","07","21","04:00","21.7","","19.2","","86","","","","0","","9.7","","99.59","","29","","","","Fog"
"1978-07-21 05:00","1978","07","21","05:00","21.9","","19.7","","88","","34","","2","","9.7","","99.59","","29","","","","Fog"
"1978-07-21 06:00","1978","07","21","06:00","22.2","","18.8","","81","","35","","15","","8.0","","99.69","","29","","","","Haze"
"1978-07-21 07:00","1978","07","21","07:00","20.7","","19.9","","95","","4","","15","","4.0","","99.59","","28","","","","Rain Showers,Fog"
"1978-07-21 08:00","1978","07","21","08:00","22.4","","21.4","","94","","5","","6","","4.0","","99.59","","31","","","","Fog"
"1978-07-21 09:00","1978","07","21","09:00","21.6","","20.9","","96","","33","","15","","1.2","","99.62","","30","","","","Thunderstorms,Heavy Rain Showers,Fog"
"1978-07-21 10:00","1978","07","21","10:00","22.1","","21.7","","98","","16","","7","","4.0","","99.59","","31","","","","Fog"
"1978-07-21 11:00","1978","07","21","11:00","23.0","","22.4","","96","","17","","9","","4.0","","99.59","","33","","","","Fog"
"1978-07-21 12:00","1978","07","21","12:00","24.5","","21.1","","81","","20","","9","","4.0","","99.59","","33","","","","Haze"
"1978-07-21 13:00","1978","07","21","13:00","25.0","","20.1","","74","","21","","13","","4.0","","99.56","","33","","","","Haze"
"1978-07-21 14:00","1978","07","21","14:00","25.9","","21.2","","76","","25","","17","","19.3","","99.52","","34","","","","Cloudy"
"1978-07-21 15:00","1978","07","21","15:00","28.1","","20.7","","64","","25","","13","","24.1","","99.49","","36","","","","Cloudy"
"1978-07-21 16:00","1978","07","21","16:00","29.2","","20.2","","58","","26","","19","","19.3","","99.46","","37","","","","Cloudy"
"1978-07-21 17:00","1978","07","21","17:00","27.6","","20.1","","64","","26","","13","","8.0","","99.49","","35","","","","Haze"
"1978-07-21 18:00","1978","07","21","18:00","27.5","","21.0","","68","","28","","7","","6.4","","99.46","","36","","","","Haze"
"1978-07-21 19:00","1978","07","21","19:00","26.5","","21.5","","74","","28","","6","","8.0","","99.49","","35","","","","Haze"
"1978-07-21 20:00","1978","07","21","20:00","25.7","","22.5","","82","","30","","9","","8.0","","99.56","","35","","","","Haze"
"1978-07-21 21:00","1978","07","21","21:00","24.5","","20.5","","78","","","","0","","8.0","","99.56","","32","","","","Haze"
"1978-07-21 22:00","1978","07","21","22:00","23.4","","20.9","","86","","32","","2","","8.0","","99.52","","32","","","","Haze"
"1978-07-21 23:00","1978","07","21","23:00","22.6","","21.4","","93","","33","","6","","8.0","","99.56","","31","","","","Fog"
"1978-07-22 00:00","1978","07","22","00:00","21.8","","21.1","","96","","","","0","","6.4","","99.52","","30","","","","Fog"
"1978-07-22 01:00","1978","07","22","01:00","21.2","","20.4","","95","","","","0","","6.4","","99.49","","29","","","","Fog"
"1978-07-22 02:00","1978","07","22","02:00","21.4","","20.9","","97","","","","0","","6.4","","99.46","","30","","","","Fog"
"1978-07-22 03:00","1978","07","22","03:00","21.3","","20.9","","98","","25","","4","","4.8","","99.49","","30","","","","Fog"
"1978-07-22 04:00","1978","07","22","04:00","21.2","","20.4","","95","","30","","2","","4.8","","99.52","","29","","","","Fog"
"1978-07-22 05:00","1978","07","22","05:00","21.1","","20.4","","96","","25","","2","","3.2","","99.56","","29","","","","Fog"
"1978-07-22 06:00","1978","07","22","06:00","21.6","","20.6","","94","","28","","2","","4.0","","99.56","","30","","","","Fog"
"1978-07-22 07:00","1978","07","22","07:00","23.3","","21.2","","88","","34","","2","","4.0","","99.59","","32","","","","Haze"
"1978-07-22 08:00","1978","07","22","08:00","24.3","","21.1","","83","","","","0","","8.0","","99.59","","33","","","","Haze"
"1978-07-22 09:00","1978","07","22","09:00","26.1","","21.5","","76","","10","","2","","8.0","","99.59","","35","","","","Haze"
"1978-07-22 10:00","1978","07","22","10:00","25.2","","21.0","","77","","15","","15","","3.2","","99.59","","34","","","","Haze"
"1978-07-22 11:00","1978","07","22","11:00","26.8","","22.6","","78","","15","","11","","3.2","","99.56","","37","","","","Haze"
"1978-07-22 12:00","1978","07","22","12:00","29.5","","22.6","","67","","20","","15","","4.8","","99.49","","39","","","","Haze"
"1978-07-22 13:00","1978","07","22","13:00","30.8","","22.2","","60","","23","","11","","6.4","","99.39","","40","","","","Haze"
"1978-07-22 14:00","1978","07","22","14:00","31.2","","21.6","","57","","26","","17","","8.0","","99.36","","40","","","","Haze"
"1978-07-22 15:00","1978","07","22","15:00","32.9","","22.0","","53","","25","","20","","9.7","","99.29","","42","","","","Haze"
"1978-07-22 16:00","1978","07","22","16:00","32.1","","21.8","","55","","27","","19","","16.1","","99.29","","41","","","","Mostly Cloudy"
"1978-07-22 17:00","1978","07","22","17:00","32.1","","21.8","","55","","29","","22","","19.3","","99.26","","41","","","","Mainly Clear"
"1978-07-22 18:00","1978","07","22","18:00","30.0","","23.2","","67","","23","","13","","19.3","","99.26","","40","","","","Mainly Clear"
"1978-07-22 19:00","1978","07","22","19:00","29.0","","22.1","","66","","22","","13","","6.4","","99.26","","38","","","","Rain Showers,Haze"
"1978-07-22 20:00","1978","07","22","20:00","24.5","","22.0","","86","","25","","7","","6.4","","99.26","","34","","","","Fog"
"1978-07-22 21:00","1978","07","22","21:00","24.6","","22.3","","87","","19","","7","","6.4","","99.26","","34","","","","Fog"
"1978-07-22 22:00","1978","07","22","22:00","25.0","","22.2","","85","","19","","9","","6.4","","99.26","","35","","","","Fog"
"1978-07-22 23:00","1978","07","22","23:00","25.6","","21.6","","79","","21","","13","","8.0","","99.16","","35","","","","Haze"
"1978-07-23 00:00","1978","07","23","00:00","25.1","","21.0","","78","","23","","9","","8.0","","99.12","","34","","","","Haze"
"1978-07-23 01:00","1978","07","23","01:00","25.0","","21.3","","80","","23","","15","","8.0","","99.09","","34","","","","Haze"
"1978-07-23 02:00","1978","07","23","02:00","24.5","","21.1","","81","","23","","15","","9.7","","99.06","","33","","","","Haze"
"1978-07-23 03:00","1978","07","23","03:00","24.4","","21.1","","82","","23","","17","","9.7","","99.02","","33","","","","Haze"
"1978-07-23 04:00","1978","07","23","04:00","24.0","","20.6","","81","","23","","15","","12.9","","99.02","","32","","","","Mainly Clear"
"1978-07-23 05:00","1978","07","23","05:00","24.2","","20.6","","80","","23","","13","","11.3","","98.99","","32","","","","Mainly Clear"
"1978-07-23 06:00","1978","07","23","06:00","24.1","","20.9","","82","","23","","15","","12.9","","99.06","","32","","","","Mostly Cloudy"
"1978-07-23 07:00","1978","07","23","07:00","25.0","","21.0","","79","","23","","15","","16.1","","99.09","","33","","","","Mainly Clear"
"1978-07-23 08:00","1978","07","23","08:00","25.5","","21.3","","78","","27","","20","","16.1","","99.16","","34","","","","Mostly Cloudy"
"1978-07-23 09:00","1978","07","23","09:00","26.0","","20.6","","72","","27","","28","","16.1","","99.16","","34","","","","Mostly Cloudy"
"1978-07-23 10:00","1978","07","23","10:00","25.3","","20.7","","76","","25","","19","","16.1","","99.19","","33","","","","Mostly Cloudy"
"1978-07-23 11:00","1978","07","23","11:00","26.0","","19.4","","67","","27","","24","","16.1","","99.26","","33","","","","Mostly Cloudy"
"1978-07-23 12:00","1978","07","23","12:00","25.8","","18.7","","65","","28","","31","","19.3","","99.29","","32","","","","Mostly Cloudy"
"1978-07-23 13:00","1978","07","23","13:00","26.6","","17.0","","56","","31","","31","","40.2","","99.29","","32","","","","Mainly Clear"
"1978-07-23 14:00","1978","07","23","14:00","25.1","","16.7","","60","","32","","24","","40.2","","99.36","","30","","","","Mostly Cloudy"
"1978-07-23 15:00","1978","07","23","15:00","25.0","","15.6","","56","","30","","24","","40.2","","99.42","","29","","","","Mostly Cloudy"
"1978-07-23 16:00","1978","07","23","16:00","23.4","","15.9","","63","","35","","31","","40.2","","99.46","","28","","","","Mostly Cloudy"
"1978-07-23 17:00","1978","07","23","17:00","21.9","","14.5","","63","","36","","28","","40.2","","99.52","","26","","","","Mostly Cloudy"
"1978-07-23 18:00","1978","07","23","18:00","22.0","","14.1","","61","","34","","28","","40.2","","99.66","","25","","","","Mostly Cloudy"
"1978-07-23 19:00","1978","07","23","19:00","20.4","","13.1","","63","","34","","24","","40.2","","99.76","","","","","","Mostly Cloudy"
"1978-07-23 20:00","1978","07","23","20:00","19.1","","12.8","","67","","33","","19","","40.2","","99.79","","","","","","Mostly Cloudy"
"1978-07-23 21:00","1978","07","23","21:00","17.8","","12.8","","73","","33","","13","","25.0","","99.86","","","","","","Mostly Cloudy"
"1978-07-23 22:00","1978","07","23","22:00","16.0","","12.7","","81","","33","","11","","25.0","","99.89","","","","","","Mainly Clear"
"1978-07-23 23:00","1978","07","23","23:00","15.1","","12.3","","83","","33","","7","","25.0","","99.92","","","","","","Mostly Cloudy"
"1978-07-24 00:00","1978","07","24","00:00","14.6","","12.2","","86","","32","","6","","25.0","","99.99","","","","","","Mostly Cloudy"
"1978-07-24 01:00","1978","07","24","01:00","14.0","","11.6","","86","","31","","4","","25.0","","100.06","","","","","","Mostly Cloudy"
"1978-07-24 02:00","1978","07","24","02:00","13.4","","11.5","","88","","32","","2","","25.0","","100.06","","","","","","Mainly Clear"
"1978-07-24 03:00","1978","07","24","03:00","12.6","","10.8","","89","","32","","6","","25.0","","100.09","","","","","","Mainly Clear"
"1978-07-24 04:00","1978","07","24","04:00","12.4","","11.1","","92","","34","","6","","25.0","","100.12","","","","","","Mainly Clear"
"1978-07-24 05:00","1978","07","24","05:00","12.7","","10.8","","88","","35","","6","","40.2","","100.16","","","","","","Mostly Cloudy"
"1978-07-24 06:00","1978","07","24","06:00","13.1","","12.0","","93","","30","","2","","40.2","","100.19","","","","","","Mainly Clear"
"1978-07-24 07:00","1978","07","24","07:00","15.9","","13.4","","85","","31","","2","","40.2","","100.26","","","","","","Mainly Clear"
"1978-07-24 08:00","1978","07","24","08:00","20.5","","12.7","","61","","3","","2","","32.2","","100.26","","","","","","Mainly Clear"
"1978-07-24 09:00","1978","07","24","09:00","21.3","","12.4","","57","","16","","4","","32.2","","100.29","","","","","","Mostly Cloudy"
"1978-07-24 10:00","1978","07","24","10:00","21.9","","12.3","","54","","16","","13","","32.2","","100.26","","","","","","Mostly Cloudy"
"1978-07-24 11:00","1978","07","24","11:00","22.2","","11.5","","51","","17","","9","","32.2","","100.26","","","","","","Mostly Cloudy"
"1978-07-24 12:00","1978","07","24","12:00","23.1","","10.3","","44","","18","","6","","32.2","","100.26","","25","","","","Mostly Cloudy"
"1978-07-24 13:00","1978","07","24","13:00","23.7","","10.6","","44","","18","","9","","32.2","","100.19","","25","","","","Cloudy"
"1978-07-24 14:00","1978","07","24","14:00","23.2","","8.6","","39","","15","","9","","32.2","","100.19","","","","","","Mostly Cloudy"
"1978-07-24 15:00","1978","07","24","15:00","24.2","","9.1","","38","","15","","15","","40.2","","100.12","","25","","","","Cloudy"
"1978-07-24 16:00","1978","07","24","16:00","23.3","","8.8","","40","","16","","11","","40.2","","100.09","","","","","","Cloudy"
"1978-07-24 17:00","1978","07","24","17:00","23.6","","8.8","","39","","15","","13","","40.2","","100.06","","","","","","Mostly Cloudy"
"1978-07-24 18:00","1978","07","24","18:00","23.6","","8.4","","38","","13","","9","","40.2","","99.99","","","","","","Mostly Cloudy"
"1978-07-24 19:00","1978","07","24","19:00","22.4","","10.1","","46","","15","","11","","40.2","","99.99","","","","","","Mainly Clear"
"1978-07-24 20:00","1978","07","24","20:00","20.5","","10.4","","52","","13","","7","","40.2","","99.99","","","","","","Mainly Clear"
"1978-07-24 21:00","1978","07","24","21:00","19.0","","12.5","","66","","16","","6","","25.0","","99.99","","","","","","Mainly Clear"
"1978-07-24 22:00","1978","07","24","22:00","18.4","","13.7","","74","","15","","7","","25.0","","99.99","","","","","","Mainly Clear"
"1978-07-24 23:00","1978","07","24","23:00","18.0","","14.5","","80","","14","","4","","25.0","","99.99","","","","","","Mainly Clear"
"1978-07-25 00:00","1978","07","25","00:00","15.6","","13.5","","87","","","","0","","25.0","","99.96","","","","","","Mainly Clear"
"1978-07-25 01:00","1978","07","25","01:00","14.1","","12.3","","89","","33","","2","","25.0","","99.96","","","","","","Mainly Clear"
"1978-07-25 02:00","1978","07","25","02:00","12.8","","11.6","","93","","35","","7","","25.0","","99.89","","","","","","Clear"
"1978-07-25 03:00","1978","07","25","03:00","12.1","","10.6","","91","","1","","4","","25.0","","99.86","","","","","","Clear"
"1978-07-25 04:00","1978","07","25","04:00","12.7","","10.8","","88","","36","","4","","25.0","","99.79","","","","","","Clear"
"1978-07-25 05:00","1978","07","25","05:00","12.0","","11.0","","94","","36","","4","","32.2","","99.79","","","","","","Mainly Clear"
"1978-07-25 06:00","1978","07","25","06:00","13.2","","12.0","","92","","33","","6","","32.2","","99.72","","","","","","Mostly Cloudy"
"1978-07-25 07:00","1978","07","25","07:00","15.8","","13.4","","86","","35","","2","","32.2","","99.72","","","","","","Mainly Clear"
"1978-07-25 08:00","1978","07","25","08:00","20.3","","15.2","","73","","14","","6","","24.1","","99.69","","","","","","Mainly Clear"
"1978-07-25 09:00","1978","07","25","09:00","22.5","","15.4","","64","","12","","4","","16.1","","99.66","","27","","","","Mainly Clear"
"1978-07-25 10:00","1978","07","25","10:00","23.4","","15.2","","60","","16","","6","","16.1","","99.62","","27","","","","Mainly Clear"
"1978-07-25 11:00","1978","07","25","11:00","24.9","","15.2","","55","","18","","7","","16.1","","99.59","","29","","","","Mostly Cloudy"
"1978-07-25 12:00","1978","07","25","12:00","25.6","","15.1","","52","","19","","13","","19.3","","99.52","","30","","","","Mainly Clear"
"1978-07-25 13:00","1978","07","25","13:00","26.3","","15.2","","51","","19","","9","","24.1","","99.49","","30","","","","Mainly Clear"
"1978-07-25 14:00","1978","07","25","14:00","25.6","","15.1","","52","","17","","13","","19.3","","99.39","","30","","","","Mainly Clear"
"1978-07-25 15:00","1978","07","25","15:00","25.9","","15.3","","52","","16","","17","","16.1","","99.32","","30","","","","Mainly Clear"
"1978-07-25 16:00","1978","07","25","16:00","26.1","","15.7","","53","","15","","13","","16.1","","99.29","","31","","","","Mainly Clear"
"1978-07-25 17:00","1978","07","25","17:00","25.3","","17.2","","61","","15","","17","","16.1","","99.19","","31","","","","Mainly Clear"
"1978-07-25 18:00","1978","07","25","18:00","23.8","","18.1","","71","","15","","13","","16.1","","99.16","","30","","","","Mainly Clear"
"1978-07-25 19:00","1978","07","25","19:00","22.9","","18.0","","74","","14","","13","","16.1","","99.16","","29","","","","Mainly Clear"
"1978-07-25 20:00","1978","07","25","20:00","21.7","","17.9","","79","","13","","13","","12.9","","99.16","","28","","","","Mainly Clear"
"1978-07-25 21:00","1978","07","25","21:00","20.4","","17.8","","85","","14","","6","","12.9","","99.19","","26","","","","Mainly Clear"
"1978-07-25 22:00","1978","07","25","22:00","19.9","","18.2","","90","","24","","2","","12.9","","99.19","","","","","","Mostly Cloudy"
"1978-07-25 23:00","1978","07","25","23:00","19.8","","17.9","","89","","23","","2","","16.1","","99.16","","","","","","Mostly Cloudy"
"1978-07-26 00:00","1978","07","26","00:00","19.3","","17.4","","89","","23","","7","","12.9","","99.12","","","","","","Mainly Clear"
"1978-07-26 01:00","1978","07","26","01:00","19.0","","17.5","","91","","23","","4","","8.0","","99.06","","","","","","Fog"
"1978-07-26 02:00","1978","07","26","02:00","20.3","","18.1","","87","","22","","6","","8.0","","98.99","","26","","","","Fog"
"1978-07-26 03:00","1978","07","26","03:00","20.1","","18.2","","89","","24","","2","","6.4","","98.96","","26","","","","Fog"
"1978-07-26 04:00","1978","07","26","04:00","19.7","","18.0","","90","","","","0","","6.4","","98.96","","","","","","Fog"
"1978-07-26 05:00","1978","07","26","05:00","21.2","","19.5","","90","","18","","4","","3.2","","98.92","","28","","","","Fog"
"1978-07-26 06:00","1978","07","26","06:00","21.9","","20.6","","92","","18","","4","","2.4","","98.92","","30","","","","Fog"
"1978-07-26 07:00","1978","07","26","07:00","23.4","","20.9","","86","","21","","9","","4.8","","98.89","","32","","","","Fog"
"1978-07-26 08:00","1978","07","26","08:00","24.1","","19.7","","77","","23","","15","","9.7","","98.86","","31","","","","Haze"
"1978-07-26 09:00","1978","07","26","09:00","25.0","","19.5","","72","","22","","20","","9.7","","98.79","","32","","","","Haze"
"1978-07-26 10:00","1978","07","26","10:00","26.5","","18.3","","61","","24","","19","","12.9","","98.79","","33","","","","Mostly Cloudy"
"1978-07-26 11:00","1978","07","26","11:00","26.2","","19.4","","66","","23","","19","","9.7","","98.82","","33","","","","Haze"
"1978-07-26 12:00","1978","07","26","12:00","27.6","","19.8","","62","","25","","22","","9.7","","98.79","","35","","","","Haze"
"1978-07-26 13:00","1978","07","26","13:00","28.6","","19.3","","57","","24","","11","","9.7","","98.72","","36","","","","Haze"
"1978-07-26 14:00","1978","07","26","14:00","28.7","","19.7","","58","","24","","15","","9.7","","98.62","","36","","","","Haze"
"1978-07-26 15:00","1978","07","26","15:00","29.8","","20.4","","57","","21","","22","","9.7","","98.59","","38","","","","Haze"
"1978-07-26 16:00","1978","07","26","16:00","29.2","","20.2","","58","","22","","24","","6.4","","98.56","","37","","","","Haze"
"1978-07-26 17:00","1978","07","26","17:00","28.6","","20.6","","62","","23","","22","","6.4","","98.52","","37","","","","Haze"
"1978-07-26 18:00","1978","07","26","18:00","27.5","","20.4","","65","","24","","17","","6.4","","98.49","","35","","","","Haze"
"1978-07-26 19:00","1978","07","26","19:00","26.4","","20.9","","72","","23","","17","","6.4","","98.49","","35","","","","Haze"
"1978-07-26 20:00","1978","07","26","20:00","20.5","","17.2","","82","","30","","30","","19.3","","98.59","","26","","","","Thunderstorms,Rain Showers"
"1978-07-26 21:00","1978","07","26","21:00","20.7","","15.9","","74","","30","","19","","25.0","","98.49","","25","","","","Cloudy"
"1978-07-26 22:00","1978","07","26","22:00","21.0","","16.4","","75","","22","","24","","19.3","","98.42","","26","","","","Thunderstorms,Rain Showers"
"1978-07-26 23:00","1978","07","26","23:00","19.5","","16.8","","84","","21","","20","","12.9","","98.62","","","","","","Rain Showers"
"1978-07-27 00:00","1978","07","27","00:00","18.7","","17.3","","91","","17","","13","","9.7","","98.46","","","","","","Rain Showers,Fog"
"1978-07-27 01:00","1978","07","27","01:00","18.2","","17.4","","95","","19","","7","","4.8","","98.42","","","","","","Fog"
"1978-07-27 02:00","1978","07","27","02:00","18.1","","17.4","","96","","17","","7","","6.4","","98.36","","","","","","Fog"
"1978-07-27 03:00","1978","07","27","03:00","18.7","","17.9","","95","","18","","7","","6.4","","98.36","","","","","","Fog"
"1978-07-27 04:00","1978","07","27","04:00","19.5","","18.6","","95","","21","","13","","4.8","","98.29","","","","","","Fog"
"1978-07-27 05:00","1978","07","27","05:00","19.6","","18.6","","94","","22","","15","","4.8","","98.29","","","","","","Fog"
"1978-07-27 06:00","1978","07","27","06:00","19.6","","18.6","","94","","23","","9","","6.4","","98.29","","","","","","Fog"
"1978-07-27 07:00","1978","07","27","07:00","20.3","","18.4","","89","","27","","13","","9.7","","98.36","","27","","","","Fog"
"1978-07-27 08:00","1978","07","27","08:00","20.9","","18.6","","87","","26","","15","","12.9","","98.39","","27","","","","Cloudy"
"1978-07-27 09:00","1978","07","27","09:00","22.0","","18.8","","82","","26","","19","","19.3","","98.42","","29","","","","Mostly Cloudy"
"1978-07-27 10:00","1978","07","27","10:00","23.8","","18.7","","73","","27","","19","","24.1","","98.49","","30","","","","Mostly Cloudy"
"1978-07-27 11:00","1978","07","27","11:00","24.6","","17.7","","66","","27","","19","","24.1","","98.49","","30","","","","Mostly Cloudy"
"1978-07-27 12:00","1978","07","27","12:00","25.0","","17.6","","64","","25","","20","","24.1","","98.49","","31","","","","Mostly Cloudy"
"1978-07-27 13:00","1978","07","27","13:00","26.8","","17.9","","58","","24","","31","","24.1","","98.49","","33","","","","Mostly Cloudy"
"1978-07-27 14:00","1978","07","27","14:00","27.1","","16.2","","51","","26","","20","","24.1","","98.42","","32","","","","Mostly Cloudy"
"1978-07-27 15:00","1978","07","27","15:00","26.3","","17.3","","58","","25","","19","","24.1","","98.36","","32","","","","Mostly Cloudy"
"1978-07-27 16:00","1978","07","27","16:00","26.5","","14.9","","49","","28","","17","","32.2","","98.39","","30","","","","Rain Showers"
"1978-07-27 17:00","1978","07","27","17:00","20.0","","17.3","","84","","26","","11","","40.2","","98.49","","25","","","","Rain Showers"
"1978-07-27 18:00","1978","07","27","18:00","21.9","","16.5","","72","","25","","11","","40.2","","98.52","","27","","","","Mostly Cloudy"
"1978-07-27 19:00","1978","07","27","19:00","23.2","","15.0","","60","","32","","19","","40.2","","98.56","","27","","","","Mainly Clear"
"1978-07-27 20:00","1978","07","27","20:00","21.3","","14.6","","66","","32","","13","","25.0","","98.66","","25","","","","Mainly Clear"
"1978-07-27 21:00","1978","07","27","21:00","19.6","","14.4","","72","","32","","15","","25.0","","98.76","","","","","","Mainly Clear"
"1978-07-27 22:00","1978","07","27","22:00","16.3","","11.8","","75","","33","","20","","25.0","","98.86","","","","","","Mostly Cloudy"
"1978-07-27 23:00","1978","07","27","23:00","14.1","","9.8","","75","","31","","24","","25.0","","98.96","","","","","","Mainly Clear"
"1978-07-28 00:00","1978","07","28","00:00","13.2","","9.4","","78","","31","","19","","25.0","","98.99","","","","","","Mainly Clear"
"1978-07-28 01:00","1978","07","28","01:00","12.9","","10.6","","86","","31","","13","","25.0","","98.99","","","","","","Mainly Clear"
"1978-07-28 02:00","1978","07","28","02:00","12.5","","10.8","","89","","28","","7","","25.0","","99.02","","","","","","Clear"
"1978-07-28 03:00","1978","07","28","03:00","13.3","","11.5","","89","","30","","15","","25.0","","99.06","","","","","","Mainly Clear"
"1978-07-28 04:00","1978","07","28","04:00","12.9","","11.3","","90","","32","","9","","25.0","","99.12","","","","","","Mainly Clear"
"1978-07-28 05:00","1978","07","28","05:00","13.9","","12.0","","88","","33","","13","","32.2","","99.19","","","","","","Mainly Clear"
"1978-07-28 06:00","1978","07","28","06:00","14.7","","12.8","","88","","33","","17","","32.2","","99.29","","","","","","Mostly Cloudy"
"1978-07-28 07:00","1978","07","28","07:00","15.2","","13.0","","87","","33","","13","","40.2","","99.39","","","","","","Mostly Cloudy"
"1978-07-28 08:00","1978","07","28","08:00","16.2","","11.6","","74","","33","","13","","40.2","","99.46","","","","","","Mostly Cloudy"
"1978-07-28 09:00","1978","07","28","09:00","18.7","","9.5","","55","","35","","26","","40.2","","99.52","","","","","","Mostly Cloudy"
"1978-07-28 10:00","1978","07","28","10:00","19.0","","10.1","","56","","35","","15","","40.2","","99.59","","","","","","Mostly Cloudy"
"1978-07-28 11:00","1978","07","28","11:00","18.7","","9.1","","54","","35","","15","","40.2","","99.59","","","","","","Mostly Cloudy"
"1978-07-28 12:00","1978","07","28","12:00","21.7","","9.2","","45","","35","","7","","40.2","","99.59","","","","","","Mostly Cloudy"
"1978-07-28 13:00","1978","07","28","13:00","21.3","","8.3","","43","","33","","7","","40.2","","99.56","","","","","","Mostly Cloudy"
"1978-07-28 14:00","1978","07","28","14:00","22.4","","7.4","","38","","31","","6","","40.2","","99.49","","","","","","Mostly Cloudy"
"1978-07-28 15:00","1978","07","28","15:00","22.5","","7.9","","39","","4","","6","","40.2","","99.46","","","","","","Mainly Clear"
"1978-07-28 16:00","1978","07","28","16:00","23.6","","7.4","","35","","33","","2","","40.2","","99.46","","","","","","Mainly Clear"
"1978-07-28 17:00","1978","07","28","17:00","23.0","","4.6","","30","","34","","7","","40.2","","99.42","","","","","","Mainly Clear"
"1978-07-28 18:00","1978","07","28","18:00","23.1","","8.1","","38","","16","","9","","40.2","","99.39","","","","","","Mainly Clear"
"1978-07-28 19:00","1978","07","28","19:00","21.5","","10.4","","49","","18","","9","","40.2","","99.39","","","","","","Mostly Cloudy"
"1978-07-28 20:00","1978","07","28","20:00","19.3","","10.8","","58","","18","","9","","25.0","","99.36","","","","","","Mostly Cloudy"
"1978-07-28 21:00","1978","07","28","21:00","18.4","","10.3","","59","","28","","2","","25.0","","99.36","","","","","","Mostly Cloudy"
"1978-07-28 22:00","1978","07","28","22:00","15.6","","11.1","","75","","27","","13","","25.0","","99.39","","","","","","Mostly Cloudy"
"1978-07-28 23:00","1978","07","28","23:00","16.0","","10.9","","72","","32","","13","","25.0","","99.39","","","","","","Mostly Cloudy"
"1978-07-29 00:00","1978","07","29","00:00","14.7","","10.7","","77","","33","","4","","25.0","","99.36","","","","","","Mostly Cloudy"
"1978-07-29 01:00","1978","07","29","01:00","15.5","","9.5","","67","","","","0","","25.0","","99.22","","","","","","Cloudy"
"1978-07-29 02:00","1978","07","29","02:00","14.9","","11.6","","81","","","","0","","24.1","","99.19","","","","","","Cloudy"
"1978-07-29 03:00","1978","07","29","03:00","15.0","","12.3","","84","","20","","2","","24.1","","99.19","","","","","","Cloudy"
"1978-07-29 04:00","1978","07","29","04:00","15.0","","12.3","","84","","19","","4","","24.1","","99.06","","","","","","Rain Showers"
"1978-07-29 05:00","1978","07","29","05:00","14.7","","13.2","","91","","30","","6","","32.2","","99.19","","","","","","Cloudy"
"1978-07-29 06:00","1978","07","29","06:00","15.6","","14.2","","91","","18","","7","","9.7","","99.02","","","","","","Rain,Fog"
"1978-07-29 07:00","1978","07","29","07:00","15.5","","14.2","","92","","18","","24","","16.1","","98.79","","","","","","Rain Showers"
"1978-07-29 08:00","1978","07","29","08:00","17.3","","13.6","","79","","18","","15","","24.1","","98.79","","","","","","Mostly Cloudy"
"1978-07-29 09:00","1978","07","29","09:00","17.4","","14.6","","84","","18","","20","","16.1","","98.66","","","","","","Mostly Cloudy"
"1978-07-29 10:00","1978","07","29","10:00","19.3","","15.5","","79","","21","","20","","16.1","","98.59","","","","","","Rain Showers"
"1978-07-29 11:00","1978","07","29","11:00","19.2","","15.9","","81","","22","","22","","12.9","","98.49","","","","","","Rain Showers"
"1978-07-29 12:00","1978","07","29","12:00","19.8","","16.0","","79","","23","","28","","11.3","","98.39","","","","","","Cloudy"
"1978-07-29 13:00","1978","07","29","13:00","22.1","","18.5","","80","","23","","28","","9.7","","98.32","","28","","","","Haze"
"1978-07-29 14:00","1978","07","29","14:00","23.2","","18.6","","75","","25","","30","","9.7","","98.29","","30","","","","Haze"
"1978-07-29 15:00","1978","07","29","15:00","23.3","","18.5","","75","","26","","28","","6.4","","98.32","","30","","","","Haze"
"1978-07-29 16:00","1978","07","29","16:00","23.6","","18.2","","72","","28","","24","","6.4","","98.36","","30","","","","Haze"
"1978-07-29 17:00","1978","07","29","17:00","23.8","","17.8","","69","","31","","24","","8.0","","98.39","","30","","","","Haze"
"1978-07-29 18:00","1978","07","29","18:00","19.1","","16.6","","85","","34","","28","","9.7","","98.56","","","","","","Haze"
"1978-07-29 19:00","1978","07","29","19:00","19.2","","14.9","","76","","32","","26","","12.9","","98.66","","","","","","Mostly Cloudy"
"1978-07-29 20:00","1978","07","29","20:00","18.2","","14.2","","78","","35","","26","","25.0","","98.79","","","","","","Mostly Cloudy"
"1978-07-29 21:00","1978","07","29","21:00","17.0","","12.7","","76","","35","","19","","25.0","","98.89","","","","","","Mainly Clear"
"1978-07-29 22:00","1978","07","29","22:00","15.7","","12.5","","81","","36","","19","","25.0","","99.06","","","","","","Mainly Clear"
"1978-07-29 23:00","1978","07","29","23:00","15.2","","12.0","","81","","35","","19","","25.0","","99.16","","","","","","Mainly Clear"
"1978-07-30 00:00","1978","07","30","00:00","14.7","","11.1","","79","","34","","17","","25.0","","99.22","","","","","","Mainly Clear"
"1978-07-30 01:00","1978","07","30","01:00","14.7","","11.4","","80","","35","","19","","25.0","","99.26","","","","","","Mostly Cloudy"
"1978-07-30 02:00","1978","07","30","02:00","14.1","","10.5","","79","","33","","11","","25.0","","99.36","","","","","","Mostly Cloudy"
"1978-07-30 03:00","1978","07","30","03:00","14.4","","10.3","","76","","36","","17","","25.0","","99.39","","","","","","Mostly Cloudy"
"1978-07-30 04:00","1978","07","30","04:00","14.0","","9.8","","76","","36","","17","","25.0","","99.46","","","","","","Mostly Cloudy"
"1978-07-30 05:00","1978","07","30","05:00","12.5","","9.7","","83","","35","","17","","25.0","","99.46","","","","","","Mostly Cloudy"
"1978-07-30 06:00","1978","07","30","06:00","12.0","","9.1","","82","","35","","17","","40.2","","99.52","","","","","","Mostly Cloudy"
"1978-07-30 07:00","1978","07","30","07:00","12.5","","8.9","","79","","35","","13","","40.2","","99.59","","","","","","Mostly Cloudy"
"1978-07-30 08:00","1978","07","30","08:00","13.7","","9.2","","74","","1","","15","","40.2","","99.69","","","","","","Mostly Cloudy"
"1978-07-30 09:00","1978","07","30","09:00","15.0","","9.0","","67","","1","","11","","40.2","","99.69","","","","","","Mostly Cloudy"
"1978-07-30 10:00","1978","07","30","10:00","16.5","","8.7","","60","","34","","11","","40.2","","99.69","","","","","","Mostly Cloudy"
"1978-07-30 11:00","1978","07","30","11:00","16.9","","8.1","","56","","2","","11","","40.2","","99.69","","","","","","Mostly Cloudy"
"1978-07-30 12:00","1978","07","30","12:00","18.3","","8.3","","52","","3","","7","","40.2","","99.69","","","","","","Mostly Cloudy"
"1978-07-30 13:00","1978","07","30","13:00","17.8","","10.5","","62","","14","","15","","40.2","","99.69","","","","","","Mostly Cloudy"
"1978-07-30 14:00","1978","07","30","14:00","17.8","","10.1","","61","","15","","9","","40.2","","99.66","","","","","","Mostly Cloudy"
"1978-07-30 15:00","1978","07","30","15:00","17.4","","9.5","","60","","16","","9","","40.2","","99.62","","","","","","Mostly Cloudy"
"1978-07-30 16:00","1978","07","30","16:00","17.6","","9.5","","59","","11","","7","","40.2","","99.59","","","","","","Mostly Cloudy"
"1978-07-30 17:00","1978","07","30","17:00","17.5","","9.1","","58","","16","","13","","40.2","","99.59","","","","","","Mostly Cloudy"
"1978-07-30 18:00","1978","07","30","18:00","16.8","","9.3","","61","","16","","13","","40.2","","99.62","","","","","","Mostly Cloudy"
"1978-07-30 19:00","1978","07","30","19:00","15.5","","9.5","","67","","14","","7","","40.2","","99.62","","","","","","Mostly Cloudy"
"1978-07-30 20:00","1978","07","30","20:00","15.0","","9.0","","67","","12","","6","","25.0","","99.62","","","","","","Mostly Cloudy"
"1978-07-30 21:00","1978","07","30","21:00","15.5","","9.1","","66","","8","","2","","25.0","","99.69","","","","","","Mostly Cloudy"
"1978-07-30 22:00","1978","07","30","22:00","13.6","","9.6","","77","","1","","7","","25.0","","99.66","","","","","","Mostly Cloudy"
"1978-07-30 23:00","1978","07","30","23:00","13.2","","9.4","","78","","3","","6","","25.0","","99.62","","","","","","Mostly Cloudy"
"1978-07-31 00:00","1978","07","31","00:00","12.6","","9.3","","80","","4","","7","","25.0","","99.59","","","","","","Mostly Cloudy"
"1978-07-31 01:00","1978","07","31","01:00","12.0","","8.3","","78","","4","","6","","25.0","","99.59","","","","","","Mainly Clear"
"1978-07-31 02:00","1978","07","31","02:00","10.4","","8.3","","87","","3","","6","","25.0","","99.52","","","","","","Mainly Clear"
"1978-07-31 03:00","1978","07","31","03:00","8.4","","7.4","","93","","1","","4","","25.0","","99.46","","","","","","Clear"
"1978-07-31 04:00","1978","07","31","04:00","7.6","","6.7","","94","","34","","6","","25.0","","99.46","","","","","","Mainly Clear"
"1978-07-31 05:00","1978","07","31","05:00","7.4","","6.7","","96","","36","","4","","25.0","","99.46","","","","","","Mostly Cloudy"
"1978-07-31 06:00","1978","07","31","06:00","10.8","","9.9","","94","","6","","6","","32.2","","99.39","","","","","","Mostly Cloudy"
"1978-07-31 07:00","1978","07","31","07:00","15.5","","11.8","","79","","4","","9","","32.2","","99.39","","","","","","Mostly Cloudy"
"1978-07-31 08:00","1978","07","31","08:00","17.9","","12.4","","70","","10","","19","","32.2","","99.36","","","","","","Mostly Cloudy"
"1978-07-31 09:00","1978","07","31","09:00","18.0","","12.4","","70","","9","","17","","32.2","","99.36","","","","","","Mostly Cloudy"
"1978-07-31 10:00","1978","07","31","10:00","19.0","","12.5","","66","","8","","15","","32.2","","99.29","","","","","","Mostly Cloudy"
"1978-07-31 11:00","1978","07","31","11:00","19.6","","12.7","","64","","10","","15","","32.2","","99.29","","","","","","Mostly Cloudy"
"1978-07-31 12:00","1978","07","31","12:00","20.7","","12.7","","60","","7","","15","","32.2","","99.22","","","","","","Mainly Clear"
"1978-07-31 13:00","1978","07","31","13:00","21.0","","13.7","","63","","9","","15","","32.2","","99.19","","","","","","Mainly Clear"
"1978-07-31 14:00","1978","07","31","14:00","21.6","","12.4","","56","","13","","11","","32.2","","99.16","","","","","","Mainly Clear"
"1978-07-31 15:00","1978","07","31","15:00","21.1","","11.8","","55","","15","","6","","32.2","","99.16","","","","","","Mostly Cloudy"
"1978-07-31 16:00","1978","07","31","16:00","20.0","","12.5","","62","","17","","9","","32.2","","99.16","","","","","","Mostly Cloudy"
"1978-07-31 17:00","1978","07","31","17:00","18.9","","12.5","","66","","16","","9","","32.2","","99.16","","","","","","Mostly Cloudy"
"1978-07-31 18:00","1978","07","31","18:00","19.5","","13.0","","66","","13","","9","","32.2","","99.16","","","","","","Mostly Cloudy"
"1978-07-31 19:00","1978","07","31","19:00","19.0","","13.2","","69","","14","","6","","19.3","","99.12","","","","","","Mainly Clear"
"1978-07-31 20:00","1978","07","31","20:00","17.6","","13.3","","76","","17","","7","","16.1","","99.19","","","","","","Clear"
"1978-07-31 21:00","1978","07","31","21:00","15.3","","13.9","","91","","27","","2","","19.3","","99.26","","","","","","Mainly Clear"
"1978-07-31 22:00","1978","07","31","22:00","15.1","","13.7","","91","","","","0","","19.3","","99.29","","","","","","Mainly Clear"
"1978-07-31 23:00","1978","07","31","23:00","12.8","","12.3","","97","","29","","6","","16.1","","99.29","","","","","","Mainly Clear"
