"Station Name","TORONTO LESTER B. PEARSON INT'L A"
"Province","ONTARIO"
"Latitude","43.68"
"Longitude","-79.63"
"Elevation","173.40"
"Climate Identifier","6158733"
"WMO Identifier","71624"
"TC Identifier","YYZ"
"All times are specified in Local Standard Time (LST). Add 1 hour to adjust for Daylight Saving Time where and when it is observed."

"Legend"
"E","Estimated"
"M","Missing"
"NA","Not Available"

"Date/Time","Year","Month","Day","Time","Temp (°C)","Temp Flag","Dew Point Temp (°C)","Dew Point Temp Flag","Rel Hum (%)","Rel Hum Flag","Wind Dir (10s deg)","Wind Dir Flag","Wind Spd (km/h)","Wind Spd Flag","Visibility (km)","Visibility Flag","Stn Press (kPa)","Stn Press Flag","Hmdx","Hmdx Flag","Wind Chill","Wind Chill Flag","Weather"
"2004-12-01 00:00","2004","12","01","00:00","4.2","","2.8","","91","","7","","11","","11.3","","98.82","","","","","","Rain"
"2004-12-01 01:00","2004","12","01","01:00","4.5","","3.5","","93","","10","","15","","8.0","","98.58","","","","","","Rain,Fog"
"2004-12-01 02:00","2004","12","01","02:00","4.8","","4.1","","95","","9","","20","","9.7","","98.31","","","","","","Drizzle"
"2004-12-01 03:00","2004","12","01","03:00","4.8","","4.3","","97","","8","","19","","4.8","","98.04","","","","","","Rain,Fog"
"2004-12-01 04:00","2004","12","01","04:00","4.9","","4.4","","97","","9","","20","","11.3","","97.81","","","","","","Rain"
"2004-12-01 05:00","2004","12","01","05:00","4.9","","4.5","","97","","9","","19","","4.8","","97.57","","","","","","Rain,Fog"
"2004-12-01 06:00","2004","12","01","06:00","5.1","","4.7","","97","","9","","15","","6.4","","97.33","","","","","","Rain,Fog"
"2004-12-01 07:00","2004","12","01","07:00","5.1","","4.9","","99","","8","","13","","6.4","","97.28","","","","","","Rain,Fog"
"2004-12-01 08:00","2004","12","01","08:00","5.1","","4.7","","97","","36","","15","","3.6","","97.28","","","","","","Rain,Fog"
"2004-12-01 09:00","2004","12","01","09:00","2.0","","1.2","","94","","34","","32","","6.4","","97.34","","","","","","Rain,Ice Pellets,Fog"
"2004-12-01 10:00","2004","12","01","10:00","1.5","","0.8","","95","","34","","39","","6.4","","97.54","","","","","","Snow,Ice Pellets"
"2004-12-01 11:00","2004","12","01","11:00","2.5","","2.1","","97","","33","","50","","24.1","","97.73","","","","","","Rain Showers"
"2004-12-01 12:00","2004","12","01","12:00","3.5","","2.6","","94","","32","","46","","24.1","","97.95","","","","","","Cloudy"
"2004-12-01 13:00","2004","12","01","13:00","4.3","","2.3","","87","","32","","56","","24.1","","98.23","","","","","","Mostly Cloudy"
"2004-12-01 14:00","2004","12","01","14:00","4.3","","0.3","","75","","31","","44","","24.1","","98.51","","","","","","Mostly Cloudy"
"2004-12-01 15:00","2004","12","01","15:00","4.6","","-0.8","","68","","29","","50","","24.1","","98.67","","","","","","Mostly Cloudy"
"2004-12-01 16:00","2004","12","01","16:00","4.3","","-2.5","","61","","29","","43","","24.1","","98.84","","","","","","Mostly Cloudy"
"2004-12-01 17:00","2004","12","01","17:00","3.7","","-2.5","","64","","29","","37","","24.1","","99.00","","","","","","Mostly Cloudy"
"2004-12-01 18:00","2004","12","01","18:00","3.3","","-2.2","","67","","27","","26","","24.1","","99.08","","","","","","Mostly Cloudy"
"2004-12-01 19:00","2004","12","01","19:00","3.6","","-2.1","","66","","27","","33","","24.1","","99.14","","","","","","Cloudy"
"2004-12-01 20:00","2004","12","01","20:00","3.5","","-1.6","","69","","26","","33","","24.1","","99.19","","","","","","Cloudy"
"2004-12-01 21:00","2004","12","01","21:00","3.5","","-1.1","","72","","25","","30","","24.1","","99.22","","","","","","Cloudy"
"2004-12-01 22:00","2004","12","01","22:00","3.7","","-1.0","","71","","26","","33","","24.1","","99.24","","","","","","Cloudy"
"2004-12-01 23:00","2004","12","01","23:00","3.3","","-1.1","","73","","26","","28","","24.1","","99.26","","","","","","Mostly Cloudy"
"2004-12-02 00:00","2004","12","02","00:00","3.5","","-1.1","","72","","26","","22","","24.1","","99.29","","","","","","Mostly Cloudy"
"2004-12-02 01:00","2004","12","02","01:00","3.0","","-2.1","","69","","26","","28","","24.1","","99.30","","","","","","Mostly Cloudy"
"2004-12-02 02:00","2004","12","02","02:00","2.8","","-2.1","","70","","26","","24","","24.1","","99.35","","","","","","Mostly Cloudy"
"2004-12-02 03:00","2004","12","02","03:00","2.7","","-2.0","","71","","26","","24","","24.1","","99.39","","","","","","Mostly Cloudy"
"2004-12-02 04:00","2004","12","02","04:00","2.1","","-2.0","","74","","26","","26","","24.1","","99.37","","","","","","Mostly Cloudy"
"2004-12-02 05:00","2004","12","02","05:00","2.6","","-1.5","","74","","27","","26","","24.1","","99.43","","","","","","Cloudy"
"2004-12-02 06:00","2004","12","02","06:00","2.4","","-1.6","","75","","27","","20","","24.1","","99.46","","","","","","Mostly Cloudy"
"2004-12-02 07:00","2004","12","02","07:00","2.5","","-1.1","","77","","27","","20","","24.1","","99.51","","","","","","Mostly Cloudy"
"2004-12-02 08:00","2004","12","02","08:00","1.9","","-1.4","","79","","31","","17","","19.3","","99.54","","","","","","Mostly Cloudy"
"2004-12-02 09:00","2004","12","02","09:00","2.4","","-1.2","","77","","28","","15","","24.1","","99.60","","","","","","Mostly Cloudy"
"2004-12-02 10:00","2004","12","02","10:00","2.5","","-2.1","","72","","27","","13","","19.3","","99.61","","","","","","Snow Showers"
"2004-12-02 11:00","2004","12","02","11:00","2.6","","-1.2","","76","","23","","19","","19.3","","99.60","","","","","","Cloudy"
"2004-12-02 12:00","2004","12","02","12:00","2.8","","-2.0","","71","","27","","17","","24.1","","99.53","","","","","","Cloudy"
"2004-12-02 13:00","2004","12","02","13:00","3.1","","-2.2","","68","","32","","15","","24.1","","99.44","","","","","","Mostly Cloudy"
"2004-12-02 14:00","2004","12","02","14:00","3.4","","-2.7","","64","","32","","13","","24.1","","99.34","","","","","","Mostly Cloudy"
"2004-12-02 15:00","2004","12","02","15:00","2.9","","-3.0","","65","","31","","11","","24.1","","99.28","","","","","","Cloudy"
"2004-12-02 16:00","2004","12","02","16:00","2.6","","-2.9","","67","","32","","6","","24.1","","99.26","","","","","","Cloudy"
"2004-12-02 17:00","2004","12","02","17:00","2.3","","-2.9","","68","","27","","4","","24.1","","99.24","","","","","","Cloudy"
"2004-12-02 18:00","2004","12","02","18:00","1.8","","-3.2","","69","","27","","6","","24.1","","99.20","","","","","","Cloudy"
"2004-12-02 19:00","2004","12","02","19:00","2.0","","-3.1","","69","","27","","7","","24.1","","99.17","","","","","","Cloudy"
"2004-12-02 20:00","2004","12","02","20:00","2.0","","-3.2","","68","","24","","9","","24.1","","99.13","","","","","","Cloudy"
"2004-12-02 21:00","2004","12","02","21:00","1.6","","-2.4","","75","","20","","9","","16.1","","99.06","","","","","","Snow Showers"
"2004-12-02 22:00","2004","12","02","22:00","1.4","","-1.7","","80","","21","","17","","19.3","","98.97","","","","","","Cloudy"
"2004-12-02 23:00","2004","12","02","23:00","0.9","","-2.0","","81","","25","","15","","14.5","","98.87","","","","","","Cloudy"
"2004-12-03 00:00","2004","12","03","00:00","0.8","","-1.6","","84","","","","0","","24.1","","98.74","","","","","","Cloudy"
"2004-12-03 01:00","2004","12","03","01:00","1.3","","-1.8","","80","","18","","7","","16.1","","98.64","","","","","","Cloudy"
"2004-12-03 02:00","2004","12","03","02:00","1.5","","-1.9","","78","","20","","11","","16.1","","98.55","","","","","","Cloudy"
"2004-12-03 03:00","2004","12","03","03:00","1.2","","-2.0","","79","","20","","9","","19.3","","98.48","","","","","","Cloudy"
"2004-12-03 04:00","2004","12","03","04:00","0.5","","-2.0","","83","","19","","11","","19.3","","98.40","","","","","","Mainly Clear"
"2004-12-03 05:00","2004","12","03","05:00","0.6","","-1.5","","86","","20","","9","","6.4","","98.36","","","","","","Snow Showers"
"2004-12-03 06:00","2004","12","03","06:00","1.2","","-0.6","","88","","26","","22","","12.9","","98.35","","","","","","Mostly Cloudy"
"2004-12-03 07:00","2004","12","03","07:00","0.3","","-3.6","","75","","30","","44","","24.1","","98.50","","","","","","Mainly Clear"
"2004-12-03 08:00","2004","12","03","08:00","-1.1","","-5.7","","71","","30","","35","","24.1","","98.65","","","","-8","","Mainly Clear"
"2004-12-03 09:00","2004","12","03","09:00","-1.3","","-6.4","","68","","30","","37","","24.1","","98.80","","","","-9","","Mostly Cloudy"
"2004-12-03 10:00","2004","12","03","10:00","-1.8","","-8.2","","62","","31","","46","","24.1","","99.00","","","","-10","","Mainly Clear"
"2004-12-03 11:00","2004","12","03","11:00","-1.4","","-8.6","","58","","31","","39","","24.1","","99.07","","","","-9","","Mainly Clear"
"2004-12-03 12:00","2004","12","03","12:00","-0.9","","-8.9","","55","","31","","41","","24.1","","99.14","","","","-9","","Mainly Clear"
"2004-12-03 13:00","2004","12","03","13:00","-0.6","","-9.5","","51","","31","","32","","24.1","","99.19","","","","-7","","Mainly Clear"
"2004-12-03 14:00","2004","12","03","14:00","-0.9","","-10.0","","50","","31","","28","","24.1","","99.27","","","","-7","","Mostly Cloudy"
"2004-12-03 15:00","2004","12","03","15:00","-1.2","","-9.6","","53","","32","","35","","24.1","","99.34","","","","-9","","Mostly Cloudy"
"2004-12-03 16:00","2004","12","03","16:00","-2.0","","-10.2","","53","","29","","28","","24.1","","99.41","","","","-9","","Mostly Cloudy"
"2004-12-03 17:00","2004","12","03","17:00","-3.2","","-10.0","","59","","31","","20","","24.1","","99.45","","","","-9","","Mostly Cloudy"
"2004-12-03 18:00","2004","12","03","18:00","-3.9","","-10.7","","59","","31","","19","","24.1","","99.53","","","","-10","","Mainly Clear"
"2004-12-03 19:00","2004","12","03","19:00","-4.3","","-10.5","","62","","29","","9","","24.1","","99.56","","","","-8","","Clear"
"2004-12-03 20:00","2004","12","03","20:00","-5.3","","-10.8","","65","","27","","7","","24.1","","99.58","","","","-9","","Clear"
"2004-12-03 21:00","2004","12","03","21:00","-5.2","","-10.3","","67","","25","","7","","24.1","","99.58","","","","-8","","Mostly Cloudy"
"2004-12-03 22:00","2004","12","03","22:00","-4.3","","-9.9","","65","","19","","4","","24.1","","99.55","","","","-6","","Mainly Clear"
"2004-12-03 23:00","2004","12","03","23:00","-4.2","","-9.9","","64","","16","","6","","24.1","","99.52","","","","-7","","Mainly Clear"
"2004-12-04 00:00","2004","12","04","00:00","-3.7","","-8.8","","68","","20","","9","","24.1","","99.45","","","","-7","","Mostly Cloudy"
"2004-12-04 01:00","2004","12","04","01:00","-3.8","","-9.3","","66","","19","","11","","24.1","","99.33","","","","-8","","Clear"
"2004-12-04 02:00","2004","12","04","02:00","-3.6","","-9.6","","63","","18","","9","","24.1","","99.27","","","","-7","","Mainly Clear"
"2004-12-04 03:00","2004","12","04","03:00","-3.4","","-9.5","","63","","18","","13","","24.1","","99.17","","","","-8","","Mainly Clear"
"2004-12-04 04:00","2004","12","04","04:00","-2.8","","-7.7","","69","","20","","9","","24.1","","99.11","","","","-6","","Mainly Clear"
"2004-12-04 05:00","2004","12","04","05:00","-3.2","","-7.2","","74","","20","","6","","24.1","","99.06","","","","-6","","Mainly Clear"
"2004-12-04 06:00","2004","12","04","06:00","-2.9","","-6.4","","77","","","","0","","24.1","","99.05","","","","","","Cloudy"
"2004-12-04 07:00","2004","12","04","07:00","-2.7","","-6.6","","74","","18","","6","","24.1","","99.03","","","","-5","","Mostly Cloudy"
"2004-12-04 08:00","2004","12","04","08:00","0.4","","-2.9","","78","","21","","20","","24.1","","98.93","","","","","","Mostly Cloudy"
"2004-12-04 09:00","2004","12","04","09:00","1.8","","-1.2","","80","","21","","28","","19.3","","98.81","","","","","","Mostly Cloudy"
"2004-12-04 10:00","2004","12","04","10:00","2.8","","-0.5","","79","","21","","30","","24.1","","98.73","","","","","","Cloudy"
"2004-12-04 11:00","2004","12","04","11:00","3.7","","-0.1","","76","","21","","30","","16.1","","98.64","","","","","","Cloudy"
"2004-12-04 12:00","2004","12","04","12:00","4.7","","-0.3","","70","","22","","37","","16.1","","98.48","","","","","","Cloudy"
"2004-12-04 13:00","2004","12","04","13:00","5.3","","-0.2","","68","","21","","35","","16.1","","98.24","","","","","","Mostly Cloudy"
"2004-12-04 14:00","2004","12","04","14:00","6.0","","0.0","","65","","22","","39","","19.3","","98.21","","","","","","Rain Showers"
"2004-12-04 15:00","2004","12","04","15:00","5.0","","1.3","","77","","23","","46","","8.0","","98.14","","","","","","Rain Showers"
"2004-12-04 16:00","2004","12","04","16:00","4.0","","1.8","","86","","24","","48","","9.7","","98.21","","","","","","Rain Showers"
"2004-12-04 17:00","2004","12","04","17:00","4.4","","2.1","","85","","24","","43","","16.1","","98.32","","","","","","Cloudy"
"2004-12-04 18:00","2004","12","04","18:00","4.4","","1.8","","83","","24","","43","","19.3","","98.35","","","","","","Mostly Cloudy"
"2004-12-04 19:00","2004","12","04","19:00","5.1","","1.5","","78","","26","","22","","19.3","","98.49","","","","","","Cloudy"
"2004-12-04 20:00","2004","12","04","20:00","4.4","","1.1","","79","","26","","26","","19.3","","98.57","","","","","","Mainly Clear"
"2004-12-04 21:00","2004","12","04","21:00","4.6","","1.2","","79","","26","","24","","19.3","","98.65","","","","","","Mostly Cloudy"
"2004-12-04 22:00","2004","12","04","22:00","4.7","","1.4","","79","","26","","32","","24.1","","98.71","","","","","","Mainly Clear"
"2004-12-04 23:00","2004","12","04","23:00","4.5","","1.5","","81","","27","","33","","19.3","","98.78","","","","","","Mainly Clear"
"2004-12-05 00:00","2004","12","05","00:00","4.5","","1.9","","83","","28","","26","","24.1","","98.89","","","","","","Mostly Cloudy"
"2004-12-05 01:00","2004","12","05","01:00","3.8","","1.3","","84","","29","","19","","24.1","","98.99","","","","","","Mostly Cloudy"
"2004-12-05 02:00","2004","12","05","02:00","3.7","","0.3","","78","","30","","26","","24.1","","99.14","","","","","","Mostly Cloudy"
"2004-12-05 03:00","2004","12","05","03:00","2.8","","-1.1","","75","","31","","26","","24.1","","99.27","","","","","","Mostly Cloudy"
"2004-12-05 04:00","2004","12","05","04:00","2.5","","-1.4","","75","","30","","32","","24.1","","99.37","","","","","","Mostly Cloudy"
"2004-12-05 05:00","2004","12","05","05:00","1.8","","-4.5","","63","","31","","33","","24.1","","99.49","","","","","","Mostly Cloudy"
"2004-12-05 06:00","2004","12","05","06:00","1.5","","-4.8","","63","","32","","28","","24.1","","99.61","","","","","","Mostly Cloudy"
"2004-12-05 07:00","2004","12","05","07:00","0.4","","-7.1","","57","","31","","28","","24.1","","99.78","","","","","","Mainly Clear"
"2004-12-05 08:00","2004","12","05","08:00","-0.2","","-6.7","","62","","31","","17","","24.1","","99.92","","","","-5","","Mainly Clear"
"2004-12-05 09:00","2004","12","05","09:00","0.0","","-4.7","","71","","36","","19","","24.1","","100.07","","","","-5","","Mostly Cloudy"
"2004-12-05 10:00","2004","12","05","10:00","-0.6","","-5.8","","68","","1","","17","","24.1","","100.21","","","","-6","","Mainly Clear"
"2004-12-05 11:00","2004","12","05","11:00","-0.1","","-5.9","","65","","36","","15","","24.1","","100.29","","","","-5","","Mainly Clear"
"2004-12-05 12:00","2004","12","05","12:00","-0.6","","-6.7","","63","","36","","24","","24.1","","100.34","","","","-7","","Mainly Clear"
"2004-12-05 13:00","2004","12","05","13:00","0.1","","-7.2","","58","","36","","17","","24.1","","100.36","","","","","","Mainly Clear"
"2004-12-05 14:00","2004","12","05","14:00","-0.1","","-7.7","","57","","35","","13","","24.1","","100.41","","","","-4","","Mainly Clear"
"2004-12-05 15:00","2004","12","05","15:00","-0.3","","-7.4","","59","","3","","17","","24.1","","100.42","","","","-5","","Mainly Clear"
"2004-12-05 16:00","2004","12","05","16:00","-1.3","","-8.3","","59","","3","","15","","24.1","","100.49","","","","-6","","Mainly Clear"
"2004-12-05 17:00","2004","12","05","17:00","-2.0","","-8.5","","61","","3","","19","","24.1","","100.51","","","","-8","","Mostly Cloudy"
"2004-12-05 18:00","2004","12","05","18:00","-2.6","","-8.6","","63","","1","","17","","24.1","","100.61","","","","-8","","Mainly Clear"
"2004-12-05 19:00","2004","12","05","19:00","-3.0","","-8.6","","65","","3","","9","","24.1","","100.60","","","","-7","","Mainly Clear"
"2004-12-05 20:00","2004","12","05","20:00","-3.3","","-8.4","","68","","5","","7","","24.1","","100.63","","","","-6","","Clear"
"2004-12-05 21:00","2004","12","05","21:00","-3.3","","-8.4","","68","","5","","7","","24.1","","100.61","","","","-6","","Clear"
"2004-12-05 22:00","2004","12","05","22:00","-3.1","","-8.3","","67","","7","","9","","24.1","","100.61","","","","-7","","Mainly Clear"
"2004-12-05 23:00","2004","12","05","23:00","-3.2","","-8.3","","68","","9","","4","","24.1","","100.58","","","","-5","","Mostly Cloudy"
"2004-12-06 00:00","2004","12","06","00:00","-3.1","","-8.5","","66","","9","","11","","24.1","","100.56","","","","-7","","Mostly Cloudy"
"2004-12-06 01:00","2004","12","06","01:00","-3.0","","-8.6","","65","","6","","15","","24.1","","100.51","","","","-8","","Cloudy"
"2004-12-06 02:00","2004","12","06","02:00","-3.0","","-8.7","","65","","8","","17","","24.1","","100.50","","","","-9","","Cloudy"
"2004-12-06 03:00","2004","12","06","03:00","-3.1","","-8.8","","65","","7","","15","","24.1","","100.45","","","","-8","","Cloudy"
"2004-12-06 04:00","2004","12","06","04:00","-3.1","","-9.4","","62","","7","","11","","24.1","","100.35","","","","-7","","Mostly Cloudy"
"2004-12-06 05:00","2004","12","06","05:00","-2.8","","-9.9","","58","","6","","19","","24.1","","100.28","","","","-9","","Mostly Cloudy"
"2004-12-06 06:00","2004","12","06","06:00","-2.6","","-9.2","","60","","6","","17","","24.1","","100.27","","","","-8","","Mostly Cloudy"
"2004-12-06 07:00","2004","12","06","07:00","-2.9","","-9.9","","58","","7","","19","","24.1","","100.29","","","","-9","","Cloudy"
"2004-12-06 08:00","2004","12","06","08:00","-3.9","","-8.8","","69","","7","","22","","1.2","","100.28","","","","-10","","Snow Showers"
"2004-12-06 09:00","2004","12","06","09:00","-4.7","","-7.4","","81","","7","","20","","2.4","","100.20","","","","-11","","Snow Showers"
"2004-12-06 10:00","2004","12","06","10:00","-4.2","","-6.5","","84","","8","","22","","2.8","","100.15","","","","-11","","Snow Showers"
"2004-12-06 11:00","2004","12","06","11:00","-3.9","","-5.8","","87","","6","","24","","2.4","","100.11","","","","-11","","Snow,Fog"
"2004-12-06 12:00","2004","12","06","12:00","-3.5","","-5.3","","87","","7","","22","","2.0","","99.95","","","","-10","","Snow,Fog"
"2004-12-06 13:00","2004","12","06","13:00","-2.1","","-3.9","","87","","7","","24","","1.2","","99.88","","","","-8","","Snow,Fog"
"2004-12-06 14:00","2004","12","06","14:00","-2.0","","-3.4","","90","","6","","20","","2.0","","99.79","","","","-8","","Snow,Fog"
"2004-12-06 15:00","2004","12","06","15:00","-1.7","","-2.9","","91","","7","","24","","3.2","","99.74","","","","-8","","Snow,Ice Pellets,Fog"
"2004-12-06 16:00","2004","12","06","16:00","-2.0","","-3.5","","89","","8","","20","","6.4","","99.80","","","","-8","","Freezing Drizzle,Fog"
"2004-12-06 17:00","2004","12","06","17:00","-2.1","","-3.6","","89","","6","","19","","9.7","","99.82","","","","-8","","Fog"
"2004-12-06 18:00","2004","12","06","18:00","-2.4","","-4.1","","88","","6","","22","","9.7","","99.80","","","","-9","","Fog"
"2004-12-06 19:00","2004","12","06","19:00","-2.2","","-3.9","","88","","6","","17","","12.9","","99.80","","","","-8","","Cloudy"
"2004-12-06 20:00","2004","12","06","20:00","-2.1","","-3.8","","88","","6","","19","","14.5","","99.85","","","","-8","","Cloudy"
"2004-12-06 21:00","2004","12","06","21:00","-2.3","","-3.8","","89","","7","","19","","11.3","","99.83","","","","-8","","Cloudy"
"2004-12-06 22:00","2004","12","06","22:00","-2.4","","-3.7","","91","","7","","13","","8.0","","99.80","","","","-7","","Fog"
"2004-12-06 23:00","2004","12","06","23:00","-2.1","","-3.4","","91","","8","","15","","6.4","","99.81","","","","-7","","Fog"
"2004-12-07 00:00","2004","12","07","00:00","-2.1","","-3.1","","93","","9","","9","","3.2","","99.79","","","","-6","","Fog"
"2004-12-07 01:00","2004","12","07","01:00","-2.2","","-3.2","","93","","5","","11","","6.4","","99.72","","","","-6","","Fog"
"2004-12-07 02:00","2004","12","07","02:00","-2.6","","-3.6","","93","","5","","13","","2.8","","99.70","","","","-7","","Snow,Fog"
"2004-12-07 03:00","2004","12","07","03:00","-2.7","","-3.7","","93","","7","","15","","2.8","","99.63","","","","-8","","Drizzle,Fog"
"2004-12-07 04:00","2004","12","07","04:00","-2.5","","-3.4","","94","","6","","11","","2.8","","99.56","","","","-7","","Freezing Drizzle,Fog"
"2004-12-07 05:00","2004","12","07","05:00","-2.3","","-3.2","","94","","6","","11","","3.2","","99.44","","","","-6","","Fog"
"2004-12-07 06:00","2004","12","07","06:00","-2.1","","-2.8","","95","","7","","13","","4.0","","99.42","","","","-7","","Fog"
"2004-12-07 07:00","2004","12","07","07:00","-1.9","","-2.6","","95","","6","","11","","1.6","","99.35","","","","-6","","Snow,Fog"
"2004-12-07 08:00","2004","12","07","08:00","-1.7","","-2.3","","96","","5","","11","","0.6","","99.20","","","","-6","","Freezing Drizzle,Freezing Fog"
"2004-12-07 09:00","2004","12","07","09:00","-0.9","","-1.3","","97","","8","","13","","0.6","","99.11","","","","-5","","Freezing Drizzle,Freezing Fog"
"2004-12-07 10:00","2004","12","07","10:00","-0.1","","-0.5","","97","","7","","24","","0.4","","98.93","","","","-6","","Drizzle,Freezing Fog"
"2004-12-07 11:00","2004","12","07","11:00","0.6","","0.3","","98","","8","","24","","1.6","","98.63","","","","","","Rain,Fog"
"2004-12-07 12:00","2004","12","07","12:00","1.2","","0.9","","98","","8","","30","","4.8","","98.25","","","","","","Rain,Fog"
"2004-12-07 13:00","2004","12","07","13:00","2.1","","1.9","","99","","9","","33","","4.0","","97.93","","","","","","Rain,Fog"
"2004-12-07 14:00","2004","12","07","14:00","4.0","","3.9","","99","","9","","41","","3.2","","97.56","","","","","","Rain,Fog"
"2004-12-07 15:00","2004","12","07","15:00","4.8","","4.7","","99","","10","","33","","4.8","","97.35","","","","","","Rain,Fog"
"2004-12-07 16:00","2004","12","07","16:00","5.4","","5.4","","100","","10","","17","","4.8","","97.22","","","","","","Rain,Fog"
"2004-12-07 17:00","2004","12","07","17:00","7.2","","7.2","","100","","13","","17","","8.0","","97.17","","","","","","Fog"
"2004-12-07 18:00","2004","12","07","18:00","7.8","","7.8","","100","","12","","11","","11.3","","97.15","","","","","","Mostly Cloudy"
"2004-12-07 19:00","2004","12","07","19:00","8.6","","8.5","","99","","15","","15","","12.9","","97.07","","","","","","Rain"
"2004-12-07 20:00","2004","12","07","20:00","11.6","","10.4","","92","","22","","43","","24.1","","97.06","","","","","","Mostly Cloudy"
"2004-12-07 21:00","2004","12","07","21:00","9.0","","5.4","","78","","23","","50","","24.1","","97.19","","","","","","Cloudy"
"2004-12-07 22:00","2004","12","07","22:00","6.8","","3.7","","81","","24","","48","","19.3","","97.43","","","","","","Rain"
"2004-12-07 23:00","2004","12","07","23:00","5.5","","3.1","","85","","26","","52","","24.1","","97.63","","","","","","Rain"
"2004-12-08 00:00","2004","12","08","00:00","3.9","","0.6","","79","","27","","39","","24.1","","97.92","","","","","","Mostly Cloudy"
"2004-12-08 01:00","2004","12","08","01:00","3.5","","0.7","","82","","26","","54","","24.1","","98.05","","","","","","Mostly Cloudy"
"2004-12-08 02:00","2004","12","08","02:00","3.3","","0.5","","82","","27","","46","","24.1","","98.19","","","","","","Mostly Cloudy"
"2004-12-08 03:00","2004","12","08","03:00","3.7","","1.1","","83","","27","","46","","24.1","","98.39","","","","","","Mostly Cloudy"
"2004-12-08 04:00","2004","12","08","04:00","4.0","","1.4","","83","","27","","37","","24.1","","98.52","","","","","","Mostly Cloudy"
"2004-12-08 05:00","2004","12","08","05:00","4.4","","1.8","","83","","28","","39","","24.1","","98.68","","","","","","Cloudy"
"2004-12-08 06:00","2004","12","08","06:00","4.7","","1.6","","80","","28","","30","","24.1","","98.82","","","","","","Cloudy"
"2004-12-08 07:00","2004","12","08","07:00","4.9","","1.5","","79","","28","","43","","24.1","","98.97","","","","","","Mostly Cloudy"
"2004-12-08 08:00","2004","12","08","08:00","4.9","","1.1","","76","","28","","44","","24.1","","99.04","","","","","","Mostly Cloudy"
"2004-12-08 09:00","2004","12","08","09:00","5.1","","1.2","","76","","27","","56","","24.1","","99.21","","","","","","Mostly Cloudy"
"2004-12-08 10:00","2004","12","08","10:00","5.5","","1.1","","73","","29","","46","","24.1","","99.43","","","","","","Mostly Cloudy"
"2004-12-08 11:00","2004","12","08","11:00","5.8","","1.3","","73","","29","","35","","24.1","","99.60","","","","","","Mostly Cloudy"
"2004-12-08 12:00","2004","12","08","12:00","6.4","","1.4","","70","","28","","44","","24.1","","99.67","","","","","","Mainly Clear"
"2004-12-08 13:00","2004","12","08","13:00","6.6","","1.2","","68","","29","","37","","24.1","","99.73","","","","","","Mainly Clear"
"2004-12-08 14:00","2004","12","08","14:00","6.1","","0.8","","69","","29","","26","","24.1","","99.76","","","","","","Mostly Cloudy"
"2004-12-08 15:00","2004","12","08","15:00","6.2","","1.5","","72","","28","","33","","24.1","","99.81","","","","","","Mostly Cloudy"
"2004-12-08 16:00","2004","12","08","16:00","5.6","","1.8","","77","","32","","19","","24.1","","99.79","","","","","","Mostly Cloudy"
"2004-12-08 17:00","2004","12","08","17:00","4.9","","1.1","","76","","30","","15","","24.1","","99.92","","","","","","Mostly Cloudy"
"2004-12-08 18:00","2004","12","08","18:00","4.7","","1.0","","77","","28","","9","","24.1","","99.96","","","","","","Mostly Cloudy"
"2004-12-08 19:00","2004","12","08","19:00","3.2","","0.3","","81","","26","","9","","24.1","","99.98","","","","","","Mostly Cloudy"
"2004-12-08 20:00","2004","12","08","20:00","2.2","","0.2","","87","","24","","9","","24.1","","100.03","","","","","","Mainly Clear"
"2004-12-08 21:00","2004","12","08","21:00","3.3","","1.3","","87","","27","","9","","24.1","","100.06","","","","","","Mostly Cloudy"
"2004-12-08 22:00","2004","12","08","22:00","3.5","","1.6","","87","","28","","6","","24.1","","100.04","","","","","","Mostly Cloudy"
"2004-12-08 23:00","2004","12","08","23:00","3.2","","1.6","","89","","26","","7","","24.1","","100.08","","","","","","Cloudy"
"2004-12-09 00:00","2004","12","09","00:00","3.4","","1.7","","89","","24","","7","","24.1","","100.09","","","","","","Cloudy"
"2004-12-09 01:00","2004","12","09","01:00","3.2","","1.6","","89","","26","","6","","24.1","","100.01","","","","","","Cloudy"
"2004-12-09 02:00","2004","12","09","02:00","3.5","","0.9","","83","","17","","4","","24.1","","99.96","","","","","","Mostly Cloudy"
"2004-12-09 03:00","2004","12","09","03:00","3.1","","0.6","","84","","15","","6","","24.1","","99.95","","","","","","Mostly Cloudy"
"2004-12-09 04:00","2004","12","09","04:00","3.0","","0.5","","84","","9","","4","","24.1","","99.85","","","","","","Mostly Cloudy"
"2004-12-09 05:00","2004","12","09","05:00","2.9","","0.8","","86","","11","","7","","24.1","","99.75","","","","","","Mostly Cloudy"
"2004-12-09 06:00","2004","12","09","06:00","3.6","","1.3","","85","","12","","11","","24.1","","99.74","","","","","","Cloudy"
"2004-12-09 07:00","2004","12","09","07:00","3.8","","2.1","","89","","11","","13","","24.1","","99.68","","","","","","Cloudy"
"2004-12-09 08:00","2004","12","09","08:00","4.4","","2.5","","87","","11","","13","","16.1","","99.66","","","","","","Cloudy"
"2004-12-09 09:00","2004","12","09","09:00","4.9","","1.9","","81","","12","","20","","19.3","","99.61","","","","","","Cloudy"
"2004-12-09 10:00","2004","12","09","10:00","5.1","","2.3","","82","","12","","17","","19.3","","99.59","","","","","","Cloudy"
"2004-12-09 11:00","2004","12","09","11:00","5.5","","2.1","","79","","10","","19","","24.1","","99.54","","","","","","Cloudy"
"2004-12-09 12:00","2004","12","09","12:00","5.6","","2.0","","78","","9","","11","","19.3","","99.45","","","","","","Cloudy"
"2004-12-09 13:00","2004","12","09","13:00","5.4","","2.1","","79","","8","","13","","19.3","","99.36","","","","","","Cloudy"
"2004-12-09 14:00","2004","12","09","14:00","5.5","","1.7","","76","","9","","17","","19.3","","99.30","","","","","","Cloudy"
"2004-12-09 15:00","2004","12","09","15:00","5.2","","1.8","","79","","9","","15","","19.3","","99.22","","","","","","Cloudy"
"2004-12-09 16:00","2004","12","09","16:00","5.0","","2.2","","82","","9","","13","","16.1","","99.17","","","","","","Cloudy"
"2004-12-09 17:00","2004","12","09","17:00","4.7","","2.3","","84","","7","","17","","14.5","","99.11","","","","","","Cloudy"
"2004-12-09 18:00","2004","12","09","18:00","4.7","","2.6","","86","","9","","15","","16.1","","99.09","","","","","","Cloudy"
"2004-12-09 19:00","2004","12","09","19:00","4.5","","2.9","","89","","9","","9","","24.1","","99.04","","","","","","Cloudy"
"2004-12-09 20:00","2004","12","09","20:00","4.4","","2.9","","90","","7","","9","","24.1","","98.97","","","","","","Cloudy"
"2004-12-09 21:00","2004","12","09","21:00","4.2","","2.4","","88","","6","","11","","24.1","","98.95","","","","","","Cloudy"
"2004-12-09 22:00","2004","12","09","22:00","4.1","","2.3","","88","","8","","11","","19.3","","98.98","","","","","","Cloudy"
"2004-12-09 23:00","2004","12","09","23:00","3.7","","2.0","","89","","8","","15","","24.1","","98.93","","","","","","Cloudy"
"2004-12-10 00:00","2004","12","10","00:00","3.3","","1.5","","88","","5","","11","","24.1","","98.90","","","","","","Cloudy"
"2004-12-10 01:00","2004","12","10","01:00","3.1","","1.2","","87","","4","","13","","24.1","","98.90","","","","","","Cloudy"
"2004-12-10 02:00","2004","12","10","02:00","2.8","","0.9","","87","","4","","17","","19.3","","98.81","","","","","","Cloudy"
"2004-12-10 03:00","2004","12","10","03:00","2.7","","0.5","","85","","6","","15","","16.1","","98.79","","","","","","Cloudy"
"2004-12-10 04:00","2004","12","10","04:00","2.5","","0.4","","86","","5","","13","","16.1","","98.77","","","","","","Cloudy"
"2004-12-10 05:00","2004","12","10","05:00","2.4","","0.6","","88","","5","","15","","12.9","","98.70","","","","","","Drizzle"
"2004-12-10 06:00","2004","12","10","06:00","2.0","","0.4","","89","","3","","15","","11.3","","98.67","","","","","","Drizzle"
"2004-12-10 07:00","2004","12","10","07:00","2.1","","0.6","","90","","5","","13","","11.3","","98.70","","","","","","Cloudy"
"2004-12-10 08:00","2004","12","10","08:00","1.9","","0.6","","91","","5","","22","","3.6","","98.60","","","","","","Drizzle,Fog"
"2004-12-10 09:00","2004","12","10","09:00","2.0","","0.9","","92","","6","","20","","6.4","","98.57","","","","","","Rain,Fog"
"2004-12-10 10:00","2004","12","10","10:00","1.8","","0.8","","93","","5","","19","","4.8","","98.52","","","","","","Rain,Fog"
"2004-12-10 11:00","2004","12","10","11:00","1.8","","0.9","","94","","5","","24","","8.0","","98.42","","","","","","Rain,Fog"
"2004-12-10 12:00","2004","12","10","12:00","1.8","","0.9","","94","","5","","24","","4.8","","98.28","","","","","","Rain,Fog"
"2004-12-10 13:00","2004","12","10","13:00","1.9","","1.2","","95","","6","","20","","4.8","","98.19","","","","","","Rain,Fog"
"2004-12-10 14:00","2004","12","10","14:00","1.9","","1.3","","96","","4","","17","","2.4","","98.10","","","","","","Rain,Fog"
"2004-12-10 15:00","2004","12","10","15:00","2.2","","1.6","","96","","5","","17","","2.4","","98.03","","","","","","Rain,Fog"
"2004-12-10 16:00","2004","12","10","16:00","2.5","","2.1","","97","","6","","19","","3.2","","98.03","","","","","","Rain,Fog"
"2004-12-10 17:00","2004","12","10","17:00","2.3","","2.0","","98","","4","","15","","4.0","","97.99","","","","","","Drizzle,Fog"
"2004-12-10 18:00","2004","12","10","18:00","2.7","","2.0","","95","","6","","24","","4.8","","97.96","","","","","","Drizzle,Fog"
"2004-12-10 19:00","2004","12","10","19:00","2.6","","2.0","","96","","5","","13","","6.4","","97.94","","","","","","Rain,Drizzle,Fog"
"2004-12-10 20:00","2004","12","10","20:00","2.6","","2.0","","96","","5","","22","","3.6","","97.92","","","","","","Drizzle,Fog"
"2004-12-10 21:00","2004","12","10","21:00","2.5","","2.0","","96","","5","","19","","3.2","","97.86","","","","","","Rain,Drizzle,Fog"
"2004-12-10 22:00","2004","12","10","22:00","2.3","","1.8","","96","","4","","17","","3.2","","97.81","","","","","","Rain,Drizzle,Fog"
"2004-12-10 23:00","2004","12","10","23:00","2.3","","1.8","","96","","6","","17","","4.0","","97.76","","","","","","Rain,Drizzle,Fog"
"2004-12-11 00:00","2004","12","11","00:00","1.7","","1.1","","96","","4","","20","","3.2","","97.72","","","","","","Rain,Drizzle,Fog"
"2004-12-11 01:00","2004","12","11","01:00","1.3","","0.7","","96","","2","","19","","4.0","","97.66","","","","","","Rain,Drizzle,Fog"
"2004-12-11 02:00","2004","12","11","02:00","1.0","","0.4","","96","","2","","22","","4.0","","97.65","","","","","","Drizzle,Fog"
"2004-12-11 03:00","2004","12","11","03:00","0.6","","0.1","","96","","1","","17","","4.0","","97.64","","","","","","Drizzle,Fog"
"2004-12-11 04:00","2004","12","11","04:00","0.1","","-0.5","","96","","36","","19","","4.0","","97.59","","","","","","Ice Pellets,Fog"
"2004-12-11 05:00","2004","12","11","05:00","0.2","","-0.6","","94","","1","","17","","8.0","","97.59","","","","","","Snow"
"2004-12-11 06:00","2004","12","11","06:00","0.2","","-0.7","","94","","36","","15","","9.7","","97.62","","","","","","Snow Grains"
"2004-12-11 07:00","2004","12","11","07:00","0.2","","-0.9","","92","","36","","20","","9.7","","97.65","","","","","","Snow Grains"
"2004-12-11 08:00","2004","12","11","08:00","0.1","","-1.2","","91","","36","","19","","6.4","","97.64","","","","","","Snow"
"2004-12-11 09:00","2004","12","11","09:00","-0.2","","-1.4","","92","","35","","20","","6.4","","97.67","","","","-5","","Snow"
"2004-12-11 10:00","2004","12","11","10:00","0.1","","-1.3","","90","","34","","20","","19.3","","97.70","","","","","","Snow"
"2004-12-11 11:00","2004","12","11","11:00","0.1","","-1.4","","90","","35","","17","","19.3","","97.69","","","","","","Snow"
"2004-12-11 12:00","2004","12","11","12:00","0.2","","-1.3","","90","","33","","19","","12.9","","97.64","","","","","","Snow"
"2004-12-11 13:00","2004","12","11","13:00","-0.4","","-1.8","","90","","33","","20","","2.0","","97.65","","","","-6","","Snow"
"2004-12-11 14:00","2004","12","11","14:00","-0.4","","-1.5","","92","","32","","15","","2.4","","97.66","","","","-5","","Snow"
"2004-12-11 15:00","2004","12","11","15:00","-0.8","","-1.8","","93","","33","","26","","1.6","","97.69","","","","-7","","Snow"
"2004-12-11 16:00","2004","12","11","16:00","-0.8","","-1.7","","94","","34","","20","","8.0","","97.76","","","","-6","","Snow"
"2004-12-11 17:00","2004","12","11","17:00","-0.6","","-2.2","","89","","33","","24","","24.1","","97.82","","","","-7","","Cloudy"
"2004-12-11 18:00","2004","12","11","18:00","-0.5","","-2.6","","86","","32","","20","","24.1","","97.88","","","","-6","","Cloudy"
"2004-12-11 19:00","2004","12","11","19:00","-0.7","","-3.1","","84","","31","","22","","24.1","","98.01","","","","-6","","Cloudy"
"2004-12-11 20:00","2004","12","11","20:00","-0.7","","-3.2","","83","","31","","13","","24.1","","98.03","","","","-5","","Cloudy"
"2004-12-11 21:00","2004","12","11","21:00","-0.6","","-3.0","","84","","32","","20","","19.3","","98.08","","","","-6","","Cloudy"
"2004-12-11 22:00","2004","12","11","22:00","-0.8","","-3.2","","84","","29","","19","","19.3","","98.10","","","","-6","","Cloudy"
"2004-12-11 23:00","2004","12","11","23:00","-0.9","","-3.1","","85","","30","","24","","16.1","","98.11","","","","-7","","Snow Grains"
"2004-12-12 00:00","2004","12","12","00:00","-0.8","","-3.3","","83","","32","","26","","14.5","","98.17","","","","-7","","Snow Grains"
"2004-12-12 01:00","2004","12","12","01:00","-0.8","","-3.7","","81","","30","","26","","16.1","","98.17","","","","-7","","Snow Grains"
"2004-12-12 02:00","2004","12","12","02:00","-0.9","","-3.4","","83","","27","","19","","16.1","","98.22","","","","-6","","Cloudy"
"2004-12-12 03:00","2004","12","12","03:00","-1.0","","-3.2","","85","","28","","20","","8.0","","98.28","","","","-7","","Snow"
"2004-12-12 04:00","2004","12","12","04:00","-1.1","","-3.1","","86","","29","","17","","16.1","","98.30","","","","-6","","Cloudy"
"2004-12-12 05:00","2004","12","12","05:00","-0.9","","-3.6","","82","","31","","20","","19.3","","98.24","","","","-6","","Cloudy"
"2004-12-12 06:00","2004","12","12","06:00","-0.9","","-4.3","","78","","29","","13","","24.1","","98.28","","","","-5","","Cloudy"
"2004-12-12 07:00","2004","12","12","07:00","-1.0","","-3.9","","81","","23","","11","","24.1","","98.32","","","","-5","","Cloudy"
"2004-12-12 08:00","2004","12","12","08:00","-0.4","","-3.0","","83","","22","","11","","24.1","","98.29","","","","-4","","Cloudy"
"2004-12-12 09:00","2004","12","12","09:00","0.1","","-3.0","","80","","24","","17","","24.1","","98.26","","","","","","Cloudy"
"2004-12-12 10:00","2004","12","12","10:00","0.6","","-3.1","","76","","21","","17","","24.1","","98.26","","","","","","Cloudy"
"2004-12-12 11:00","2004","12","12","11:00","0.6","","-2.5","","80","","21","","19","","24.1","","98.19","","","","","","Cloudy"
"2004-12-12 12:00","2004","12","12","12:00","0.6","","-2.4","","80","","22","","15","","24.1","","98.07","","","","","","Cloudy"
"2004-12-12 13:00","2004","12","12","13:00","0.2","","-1.6","","88","","19","","15","","4.0","","97.92","","","","","","Snow"
"2004-12-12 14:00","2004","12","12","14:00","0.4","","-0.7","","92","","18","","17","","2.8","","97.78","","","","","","Snow"
"2004-12-12 15:00","2004","12","12","15:00","0.8","","0.1","","95","","18","","19","","6.4","","97.65","","","","","","Snow"
"2004-12-12 16:00","2004","12","12","16:00","1.2","","0.4","","94","","19","","17","","6.4","","97.60","","","","","","Snow"
"2004-12-12 17:00","2004","12","12","17:00","0.5","","-0.1","","96","","17","","11","","2.4","","97.50","","","","","","Snow"
"2004-12-12 18:00","2004","12","12","18:00","1.3","","0.7","","96","","19","","20","","6.4","","97.42","","","","","","Rain,Snow"
"2004-12-12 19:00","2004","12","12","19:00","1.6","","1.0","","96","","18","","19","","11.3","","97.35","","","","","","Rain"
"2004-12-12 20:00","2004","12","12","20:00","2.2","","1.5","","95","","20","","17","","19.3","","97.25","","","","","","Rain"
"2004-12-12 21:00","2004","12","12","21:00","2.1","","1.3","","94","","22","","19","","19.3","","97.23","","","","","","Rain"
"2004-12-12 22:00","2004","12","12","22:00","2.2","","1.4","","94","","23","","13","","19.3","","97.23","","","","","","Cloudy"
"2004-12-12 23:00","2004","12","12","23:00","2.5","","1.3","","92","","24","","20","","19.3","","97.21","","","","","","Cloudy"
"2004-12-13 00:00","2004","12","13","00:00","2.1","","0.9","","92","","24","","15","","24.1","","97.24","","","","","","Cloudy"
"2004-12-13 01:00","2004","12","13","01:00","2.4","","0.9","","90","","26","","22","","24.1","","97.27","","","","","","Cloudy"
"2004-12-13 02:00","2004","12","13","02:00","2.2","","0.2","","87","","26","","28","","24.1","","97.32","","","","","","Cloudy"
"2004-12-13 03:00","2004","12","13","03:00","1.4","","-0.7","","86","","25","","32","","24.1","","97.38","","","","","","Mostly Cloudy"
"2004-12-13 04:00","2004","12","13","04:00","1.5","","-0.9","","84","","28","","19","","24.1","","97.42","","","","","","Mostly Cloudy"
"2004-12-13 05:00","2004","12","13","05:00","0.7","","-2.6","","79","","29","","26","","24.1","","97.42","","","","","","Mostly Cloudy"
"2004-12-13 06:00","2004","12","13","06:00","-0.2","","-3.2","","80","","27","","17","","24.1","","97.54","","","","-5","","Mainly Clear"
"2004-12-13 07:00","2004","12","13","07:00","-1.3","","-3.9","","82","","27","","13","","24.1","","97.60","","","","-6","","Clear"
"2004-12-13 08:00","2004","12","13","08:00","-1.3","","-3.8","","83","","27","","7","","24.1","","97.69","","","","-4","","Clear"
"2004-12-13 09:00","2004","12","13","09:00","0.1","","-2.4","","83","","25","","13","","24.1","","97.81","","","","","","Mostly Cloudy"
"2004-12-13 10:00","2004","12","13","10:00","0.4","","-3.1","","77","","25","","26","","24.1","","97.89","","","","","","Mainly Clear"
"2004-12-13 11:00","2004","12","13","11:00","1.5","","-2.4","","75","","25","","20","","24.1","","97.97","","","","","","Mostly Cloudy"
"2004-12-13 12:00","2004","12","13","12:00","2.1","","-2.8","","70","","27","","22","","24.1","","97.99","","","","","","Mostly Cloudy"
"2004-12-13 13:00","2004","12","13","13:00","1.4","","-2.8","","74","","24","","15","","24.1","","98.03","","","","","","Mostly Cloudy"
"2004-12-13 14:00","2004","12","13","14:00","1.3","","-2.7","","75","","27","","17","","24.1","","98.10","","","","","","Mostly Cloudy"
"2004-12-13 15:00","2004","12","13","15:00","1.3","","-2.7","","75","","30","","13","","24.1","","98.19","","","","","","Mostly Cloudy"
"2004-12-13 16:00","2004","12","13","16:00","0.6","","-3.0","","77","","32","","30","","24.1","","98.31","","","","","","Cloudy"
"2004-12-13 17:00","2004","12","13","17:00","-0.7","","-4.1","","78","","35","","39","","24.1","","98.49","","","","-8","","Cloudy"
"2004-12-13 18:00","2004","12","13","18:00","-2.0","","-5.5","","77","","34","","37","","24.1","","98.66","","","","-10","","Cloudy"
"2004-12-13 19:00","2004","12","13","19:00","-2.8","","-6.8","","74","","35","","32","","24.1","","98.86","","","","-10","","Mostly Cloudy"
"2004-12-13 20:00","2004","12","13","20:00","-4.1","","-8.1","","74","","34","","30","","24.1","","98.99","","","","-12","","Mostly Cloudy"
"2004-12-13 21:00","2004","12","13","21:00","-5.7","","-10.2","","71","","35","","35","","24.1","","99.13","","","","-14","","Mostly Cloudy"
"2004-12-13 22:00","2004","12","13","22:00","-6.3","","-9.9","","76","","36","","35","","24.1","","99.24","","","","-15","","Mostly Cloudy"
"2004-12-13 23:00","2004","12","13","23:00","-7.1","","-10.5","","77","","34","","41","","24.1","","99.41","","","","-17","","Mostly Cloudy"
"2004-12-14 00:00","2004","12","14","00:00","-8.5","","-12.5","","73","","36","","41","","24.1","","99.54","","","","-19","","Mainly Clear"
"2004-12-14 01:00","2004","12","14","01:00","-9.0","","-13.5","","70","","36","","33","","24.1","","99.64","","","","-19","","Mostly Cloudy"
"2004-12-14 02:00","2004","12","14","02:00","-8.9","","-13.8","","68","","36","","20","","24.1","","99.74","","","","-16","","Mostly Cloudy"
"2004-12-14 03:00","2004","12","14","03:00","-9.2","","-14.2","","67","","35","","20","","24.1","","99.83","","","","-17","","Mainly Clear"
"2004-12-14 04:00","2004","12","14","04:00","-9.9","","-14.2","","71","","32","","11","","24.1","","99.89","","","","-15","","Mainly Clear"
"2004-12-14 05:00","2004","12","14","05:00","-9.7","","-13.6","","73","","31","","20","","24.1","","99.96","","","","-17","","Snow Showers"
"2004-12-14 06:00","2004","12","14","06:00","-10.0","","-13.3","","77","","32","","15","","24.1","","100.03","","","","-17","","Mainly Clear"
"2004-12-14 07:00","2004","12","14","07:00","-10.1","","-13.6","","76","","32","","9","","24.1","","100.12","","","","-15","","Clear"
"2004-12-14 08:00","2004","12","14","08:00","-10.0","","-13.5","","76","","34","","11","","24.1","","100.17","","","","-16","","Mainly Clear"
"2004-12-14 09:00","2004","12","14","09:00","-9.3","","-12.8","","76","","29","","6","","24.1","","100.23","","","","-13","","Mainly Clear"
"2004-12-14 10:00","2004","12","14","10:00","-8.4","","-12.7","","71","","35","","11","","24.1","","100.30","","","","-14","","Mostly Cloudy"
"2004-12-14 11:00","2004","12","14","11:00","-7.5","","-11.9","","71","","34","","9","","24.1","","100.32","","","","-12","","Mainly Clear"
"2004-12-14 12:00","2004","12","14","12:00","-6.6","","-11.3","","69","","33","","9","","24.1","","100.29","","","","-11","","Mainly Clear"
"2004-12-14 13:00","2004","12","14","13:00","-5.3","","-10.8","","65","","31","","19","","24.1","","100.28","","","","-12","","Mainly Clear"
"2004-12-14 14:00","2004","12","14","14:00","-4.9","","-10.4","","65","","33","","20","","24.1","","100.32","","","","-11","","Mostly Cloudy"
"2004-12-14 15:00","2004","12","14","15:00","-5.6","","-12.4","","59","","32","","37","","16.1","","100.40","","","","-15","","Snow Showers"
"2004-12-14 16:00","2004","12","14","16:00","-7.1","","-13.1","","62","","33","","30","","24.1","","100.46","","","","-16","","Mainly Clear"
"2004-12-14 17:00","2004","12","14","17:00","-7.4","","-12.2","","68","","30","","19","","24.1","","100.52","","","","-14","","Mostly Cloudy"
"2004-12-14 18:00","2004","12","14","18:00","-7.3","","-12.2","","68","","29","","19","","24.1","","100.56","","","","-14","","Mostly Cloudy"
"2004-12-14 19:00","2004","12","14","19:00","-6.9","","-12.0","","67","","32","","11","","24.1","","100.59","","","","-12","","Mostly Cloudy"
"2004-12-14 20:00","2004","12","14","20:00","-6.6","","-11.8","","66","","32","","4","","24.1","","100.65","","","","-9","","Snow"
"2004-12-14 21:00","2004","12","14","21:00","-6.0","","-11.7","","64","","17","","4","","24.1","","100.65","","","","-8","","Snow"
"2004-12-14 22:00","2004","12","14","22:00","-5.7","","-11.0","","66","","28","","11","","24.1","","100.67","","","","-10","","Cloudy"
"2004-12-14 23:00","2004","12","14","23:00","-5.4","","-10.6","","67","","29","","13","","14.5","","100.70","","","","-11","","Snow"
"2004-12-15 00:00","2004","12","15","00:00","-5.7","","-9.7","","73","","26","","7","","19.3","","100.72","","","","-9","","Snow"
"2004-12-15 01:00","2004","12","15","01:00","-5.7","","-8.9","","78","","25","","4","","24.1","","100.69","","","","-8","","Snow"
"2004-12-15 02:00","2004","12","15","02:00","-5.3","","-8.3","","79","","24","","7","","24.1","","100.70","","","","-9","","Snow"
"2004-12-15 03:00","2004","12","15","03:00","-5.1","","-8.0","","80","","","","0","","24.1","","100.73","","","","","","Cloudy"
"2004-12-15 04:00","2004","12","15","04:00","-4.8","","-7.7","","80","","21","","7","","24.1","","100.68","","","","-8","","Snow"
"2004-12-15 05:00","2004","12","15","05:00","-4.1","","-6.8","","81","","24","","13","","24.1","","100.70","","","","-9","","Snow"
"2004-12-15 06:00","2004","12","15","06:00","-4.2","","-6.7","","83","","24","","7","","24.1","","100.73","","","","-7","","Cloudy"
"2004-12-15 07:00","2004","12","15","07:00","-3.3","","-6.0","","82","","25","","17","","19.3","","100.75","","","","-9","","Snow"
"2004-12-15 08:00","2004","12","15","08:00","-2.8","","-6.0","","79","","25","","30","","24.1","","100.74","","","","-10","","Cloudy"
"2004-12-15 09:00","2004","12","15","09:00","-2.8","","-6.7","","74","","25","","30","","24.1","","100.78","","","","-10","","Cloudy"
"2004-12-15 10:00","2004","12","15","10:00","-2.6","","-8.2","","65","","25","","22","","24.1","","100.83","","","","-9","","Mostly Cloudy"
"2004-12-15 11:00","2004","12","15","11:00","-1.8","","-8.1","","62","","24","","20","","24.1","","100.78","","","","-8","","Mostly Cloudy"
"2004-12-15 12:00","2004","12","15","12:00","-1.3","","-7.9","","61","","26","","28","","24.1","","100.71","","","","-8","","Mainly Clear"
"2004-12-15 13:00","2004","12","15","13:00","-0.1","","-7.2","","59","","25","","28","","24.1","","100.60","","","","-6","","Mainly Clear"
"2004-12-15 14:00","2004","12","15","14:00","0.3","","-7.5","","56","","25","","32","","24.1","","100.55","","","","","","Mainly Clear"
"2004-12-15 15:00","2004","12","15","15:00","0.2","","-7.8","","55","","22","","28","","24.1","","100.48","","","","","","Mainly Clear"
"2004-12-15 16:00","2004","12","15","16:00","-0.6","","-8.9","","53","","23","","22","","24.1","","100.47","","","","-6","","Mainly Clear"
"2004-12-15 17:00","2004","12","15","17:00","-1.2","","-8.8","","56","","24","","15","","24.1","","100.48","","","","-6","","Mainly Clear"
"2004-12-15 18:00","2004","12","15","18:00","-1.2","","-7.6","","62","","23","","19","","24.1","","100.48","","","","-7","","Mainly Clear"
"2004-12-15 19:00","2004","12","15","19:00","-0.9","","-6.2","","67","","24","","28","","24.1","","100.47","","","","-7","","Mainly Clear"
"2004-12-15 20:00","2004","12","15","20:00","-1.1","","-6.1","","69","","22","","19","","24.1","","100.41","","","","-6","","Mainly Clear"
"2004-12-15 21:00","2004","12","15","21:00","-1.1","","-5.9","","70","","22","","22","","24.1","","100.34","","","","-7","","Mainly Clear"
"2004-12-15 22:00","2004","12","15","22:00","-1.6","","-5.9","","72","","22","","19","","24.1","","100.24","","","","-7","","Clear"
"2004-12-15 23:00","2004","12","15","23:00","-1.4","","-5.6","","73","","22","","24","","24.1","","100.15","","","","-8","","Clear"
"2004-12-16 00:00","2004","12","16","00:00","-0.8","","-5.4","","71","","22","","26","","24.1","","100.09","","","","-7","","Clear"
"2004-12-16 01:00","2004","12","16","01:00","-0.8","","-5.1","","73","","23","","19","","24.1","","100.09","","","","-6","","Mainly Clear"
"2004-12-16 02:00","2004","12","16","02:00","-0.9","","-5.0","","74","","24","","22","","24.1","","100.11","","","","-7","","Mostly Cloudy"
"2004-12-16 03:00","2004","12","16","03:00","-0.9","","-4.7","","75","","22","","15","","24.1","","100.11","","","","-6","","Mostly Cloudy"
"2004-12-16 04:00","2004","12","16","04:00","-1.1","","-4.8","","76","","19","","7","","24.1","","100.03","","","","-4","","Mostly Cloudy"
"2004-12-16 05:00","2004","12","16","05:00","-0.3","","-5.5","","68","","23","","17","","24.1","","99.97","","","","-5","","Mostly Cloudy"
"2004-12-16 06:00","2004","12","16","06:00","-0.2","","-5.9","","65","","22","","13","","24.1","","99.94","","","","-4","","Mostly Cloudy"
"2004-12-16 07:00","2004","12","16","07:00","-0.2","","-5.5","","67","","23","","20","","24.1","","99.91","","","","-5","","Mainly Clear"
"2004-12-16 08:00","2004","12","16","08:00","-0.4","","-5.2","","70","","22","","19","","24.1","","99.88","","","","-6","","Mainly Clear"
"2004-12-16 09:00","2004","12","16","09:00","0.9","","-3.9","","70","","21","","13","","24.1","","99.81","","","","","","Mostly Cloudy"
"2004-12-16 10:00","2004","12","16","10:00","2.2","","-3.4","","66","","23","","37","","24.1","","99.77","","","","","","Mainly Clear"
"2004-12-16 11:00","2004","12","16","11:00","2.9","","-3.8","","61","","23","","32","","24.1","","99.70","","","","","","Mostly Cloudy"
"2004-12-16 12:00","2004","12","16","12:00","4.3","","-3.5","","57","","24","","39","","24.1","","99.58","","","","","","Mostly Cloudy"
"2004-12-16 13:00","2004","12","16","13:00","4.1","","-3.6","","57","","23","","35","","24.1","","99.53","","","","","","Mostly Cloudy"
"2004-12-16 14:00","2004","12","16","14:00","3.7","","-3.4","","60","","22","","26","","24.1","","99.41","","","","","","Cloudy"
"2004-12-16 15:00","2004","12","16","15:00","4.3","","-3.2","","58","","22","","32","","24.1","","99.32","","","","","","Cloudy"
"2004-12-16 16:00","2004","12","16","16:00","3.0","","-2.7","","66","","22","","41","","16.1","","99.30","","","","","","Snow"
"2004-12-16 17:00","2004","12","16","17:00","2.4","","-2.3","","71","","22","","24","","19.3","","99.26","","","","","","Snow"
"2004-12-16 18:00","2004","12","16","18:00","3.0","","-2.9","","65","","24","","33","","24.1","","99.24","","","","","","Cloudy"
"2004-12-16 19:00","2004","12","16","19:00","0.6","","-1.3","","87","","24","","22","","4.8","","99.28","","","","","","Snow Showers"
"2004-12-16 20:00","2004","12","16","20:00","0.3","","-0.8","","92","","23","","26","","4.8","","99.26","","","","","","Snow Showers"
"2004-12-16 21:00","2004","12","16","21:00","0.5","","-0.7","","92","","24","","26","","6.4","","99.25","","","","","","Snow Showers"
"2004-12-16 22:00","2004","12","16","22:00","0.8","","-0.6","","90","","24","","30","","9.7","","99.20","","","","","","Snow Showers"
"2004-12-16 23:00","2004","12","16","23:00","-0.1","","-1.7","","89","","30","","30","","24.1","","99.33","","","","-7","","Mostly Cloudy"
"2004-12-17 00:00","2004","12","17","00:00","-1.3","","-5.3","","74","","30","","39","","24.1","","99.43","","","","-9","","Mostly Cloudy"
"2004-12-17 01:00","2004","12","17","01:00","-2.8","","-7.0","","73","","29","","32","","24.1","","99.49","","","","-10","","Mainly Clear"
"2004-12-17 02:00","2004","12","17","02:00","-3.2","","-7.7","","71","","28","","32","","24.1","","99.58","","","","-11","","Mainly Clear"
"2004-12-17 03:00","2004","12","17","03:00","-3.6","","-7.6","","74","","28","","35","","24.1","","99.65","","","","-12","","Mainly Clear"
"2004-12-17 04:00","2004","12","17","04:00","-4.0","","-8.0","","74","","27","","28","","24.1","","99.74","","","","-11","","Mainly Clear"
"2004-12-17 05:00","2004","12","17","05:00","-3.8","","-7.4","","76","","27","","28","","11.3","","99.83","","","","-11","","Snow Showers"
"2004-12-17 06:00","2004","12","17","06:00","-3.7","","-7.3","","76","","30","","30","","24.1","","99.97","","","","-11","","Snow Showers"
"2004-12-17 07:00","2004","12","17","07:00","-4.7","","-9.4","","70","","30","","33","","24.1","","100.12","","","","-13","","Mainly Clear"
"2004-12-17 08:00","2004","12","17","08:00","-5.7","","-10.3","","70","","31","","35","","24.1","","100.27","","","","-14","","Mainly Clear"
"2004-12-17 09:00","2004","12","17","09:00","-6.2","","-11.5","","66","","31","","39","","24.1","","100.36","","","","-16","","Clear"
"2004-12-17 10:00","2004","12","17","10:00","-5.7","","-12.0","","61","","31","","32","","24.1","","100.44","","","","-14","","Clear"
"2004-12-17 11:00","2004","12","17","11:00","-5.0","","-11.4","","61","","34","","32","","24.1","","100.45","","","","-13","","Clear"
"2004-12-17 12:00","2004","12","17","12:00","-4.8","","-10.9","","62","","31","","22","","24.1","","100.43","","","","-12","","Clear"
"2004-12-17 13:00","2004","12","17","13:00","-4.8","","-11.7","","58","","34","","17","","24.1","","100.46","","","","-11","","Clear"
"2004-12-17 14:00","2004","12","17","14:00","-4.3","","-11.7","","56","","32","","7","","24.1","","100.43","","","","-7","","Clear"
"2004-12-17 15:00","2004","12","17","15:00","-4.3","","-12.2","","54","","32","","7","","24.1","","100.45","","","","-7","","Clear"
"2004-12-17 16:00","2004","12","17","16:00","-5.0","","-12.3","","57","","28","","7","","24.1","","100.48","","","","-8","","Clear"
"2004-12-17 17:00","2004","12","17","17:00","-7.0","","-13.4","","60","","27","","9","","24.1","","100.48","","","","-11","","Clear"
"2004-12-17 18:00","2004","12","17","18:00","-5.8","","-13.3","","55","","27","","4","","24.1","","100.44","","","","-8","","Clear"
"2004-12-17 19:00","2004","12","17","19:00","-7.0","","-13.5","","60","","27","","7","","24.1","","100.41","","","","-11","","Clear"
"2004-12-17 20:00","2004","12","17","20:00","-7.3","","-12.7","","65","","27","","6","","24.1","","100.37","","","","-10","","Clear"
"2004-12-17 21:00","2004","12","17","21:00","-8.6","","-13.4","","68","","28","","7","","24.1","","100.32","","","","-12","","Mainly Clear"
"2004-12-17 22:00","2004","12","17","22:00","-7.7","","-12.7","","67","","","","0","","24.1","","100.28","","","","","","Mostly Cloudy"
"2004-12-17 23:00","2004","12","17","23:00","-6.6","","-11.2","","70","","2","","4","","24.1","","100.22","","","","-9","","Mostly Cloudy"
"2004-12-18 00:00","2004","12","18","00:00","-6.2","","-10.4","","72","","5","","6","","24.1","","100.11","","","","-9","","Mostly Cloudy"
"2004-12-18 01:00","2004","12","18","01:00","-5.8","","-10.1","","72","","12","","9","","24.1","","100.00","","","","-10","","Cloudy"
"2004-12-18 02:00","2004","12","18","02:00","-4.5","","-8.9","","71","","14","","4","","24.1","","99.92","","","","-6","","Cloudy"
"2004-12-18 03:00","2004","12","18","03:00","-3.7","","-8.0","","72","","14","","6","","24.1","","99.82","","","","-6","","Cloudy"
"2004-12-18 04:00","2004","12","18","04:00","-2.6","","-6.4","","75","","15","","9","","24.1","","99.69","","","","-6","","Cloudy"
"2004-12-18 05:00","2004","12","18","05:00","-2.0","","-6.0","","74","","18","","11","","24.1","","99.59","","","","-6","","Cloudy"
"2004-12-18 06:00","2004","12","18","06:00","-1.7","","-6.0","","72","","21","","13","","24.1","","99.54","","","","-6","","Cloudy"
"2004-12-18 07:00","2004","12","18","07:00","-1.6","","-5.8","","73","","21","","13","","24.1","","99.44","","","","-6","","Cloudy"
"2004-12-18 08:00","2004","12","18","08:00","-0.8","","-6.0","","68","","18","","11","","24.1","","99.36","","","","-5","","Cloudy"
"2004-12-18 09:00","2004","12","18","09:00","-0.3","","-4.9","","71","","19","","13","","24.1","","99.29","","","","-4","","Cloudy"
"2004-12-18 10:00","2004","12","18","10:00","0.6","","-3.1","","76","","18","","9","","24.1","","99.24","","","","","","Cloudy"
"2004-12-18 11:00","2004","12","18","11:00","1.3","","-2.4","","76","","18","","9","","19.3","","99.15","","","","","","Cloudy"
"2004-12-18 12:00","2004","12","18","12:00","3.0","","-3.1","","64","","21","","32","","19.3","","98.98","","","","","","Mostly Cloudy"
"2004-12-18 13:00","2004","12","18","13:00","2.7","","-3.5","","64","","22","","26","","19.3","","98.89","","","","","","Cloudy"
"2004-12-18 14:00","2004","12","18","14:00","3.0","","-3.1","","64","","21","","20","","24.1","","98.77","","","","","","Cloudy"
"2004-12-18 15:00","2004","12","18","15:00","3.0","","-2.8","","66","","21","","20","","24.1","","98.71","","","","","","Cloudy"
"2004-12-18 16:00","2004","12","18","16:00","2.6","","-2.7","","68","","21","","26","","16.1","","98.71","","","","","","Rain,Snow"
"2004-12-18 17:00","2004","12","18","17:00","2.2","","-1.9","","74","","20","","20","","9.7","","98.66","","","","","","Rain,Snow"
"2004-12-18 18:00","2004","12","18","18:00","2.0","","-1.9","","75","","23","","22","","9.7","","98.66","","","","","","Rain,Snow"
"2004-12-18 19:00","2004","12","18","19:00","2.0","","-0.9","","81","","21","","9","","12.9","","98.61","","","","","","Snow"
"2004-12-18 20:00","2004","12","18","20:00","2.4","","-0.4","","82","","23","","15","","11.3","","98.57","","","","","","Rain,Snow"
"2004-12-18 21:00","2004","12","18","21:00","2.1","","0.0","","86","","21","","19","","12.9","","98.51","","","","","","Snow"
"2004-12-18 22:00","2004","12","18","22:00","1.7","","0.3","","90","","22","","17","","6.4","","98.49","","","","","","Snow,Fog"
"2004-12-18 23:00","2004","12","18","23:00","2.0","","0.3","","88","","23","","20","","11.3","","98.43","","","","","","Snow"
"2004-12-19 00:00","2004","12","19","00:00","1.8","","-0.1","","87","","22","","17","","9.7","","98.36","","","","","","Snow"
"2004-12-19 01:00","2004","12","19","01:00","1.5","","-0.3","","88","","22","","13","","8.0","","98.30","","","","","","Rain,Snow"
"2004-12-19 02:00","2004","12","19","02:00","0.1","","-2.2","","84","","32","","30","","16.1","","98.31","","","","","","Mostly Cloudy"
"2004-12-19 03:00","2004","12","19","03:00","-3.5","","-6.3","","81","","36","","37","","11.3","","98.43","","","","-12","","Snow"
"2004-12-19 04:00","2004","12","19","04:00","-5.7","","-9.2","","76","","35","","37","","6.4","","98.55","","","","-15","","Snow"
"2004-12-19 05:00","2004","12","19","05:00","-8.2","","-11.4","","78","","34","","44","","8.0","","98.69","","","","-19","","Snow"
"2004-12-19 06:00","2004","12","19","06:00","-9.3","","-13.5","","71","","33","","50","","9.7","","98.77","","","","-21","","Snow"
"2004-12-19 07:00","2004","12","19","07:00","-10.5","","-15.3","","68","","33","","41","","9.7","","98.84","","","","-22","","Snow Showers"
"2004-12-19 08:00","2004","12","19","08:00","-12.6","","-16.9","","70","","33","","46","","24.1","","98.97","","","","-25","","Cloudy"
"2004-12-19 09:00","2004","12","19","09:00","-13.9","","-17.9","","72","","33","","39","","24.1","","99.10","","","","-26","","Cloudy"
"2004-12-19 10:00","2004","12","19","10:00","-15.1","","-19.2","","71","","34","","35","","24.1","","99.26","","","","-27","","Mostly Cloudy"
"2004-12-19 11:00","2004","12","19","11:00","-15.6","","-19.9","","70","","32","","33","","24.1","","99.36","","","","-27","","Mostly Cloudy"
"2004-12-19 12:00","2004","12","19","12:00","-14.9","","-19.9","","66","","35","","26","","24.1","","99.35","","","","-25","","Mostly Cloudy"
"2004-12-19 13:00","2004","12","19","13:00","-15.7","","-20.5","","67","","33","","26","","24.1","","99.36","","","","-26","","Mostly Cloudy"
"2004-12-19 14:00","2004","12","19","14:00","-15.2","","-20.3","","65","","33","","33","","24.1","","99.38","","","","-27","","Mainly Clear"
"2004-12-19 15:00","2004","12","19","15:00","-15.4","","-21.5","","60","","33","","44","","24.1","","99.46","","","","-28","","Mainly Clear"
"2004-12-19 16:00","2004","12","19","16:00","-16.8","","-22.3","","62","","34","","37","","24.1","","99.56","","","","-29","","Mainly Clear"
"2004-12-19 17:00","2004","12","19","17:00","-17.7","","-23.6","","60","","33","","33","","24.1","","99.67","","","","-30","","Mainly Clear"
"2004-12-19 18:00","2004","12","19","18:00","-18.8","","-24.1","","63","","34","","32","","24.1","","99.75","","","","-31","","Mainly Clear"
"2004-12-19 19:00","2004","12","19","19:00","-19.6","","-24.6","","64","","35","","28","","24.1","","99.84","","","","-32","","Clear"
"2004-12-19 20:00","2004","12","19","20:00","-20.5","","-26.1","","61","","35","","26","","24.1","","99.91","","","","-32","","Clear"
"2004-12-19 21:00","2004","12","19","21:00","-21.0","","-26.9","","59","","34","","28","","24.1","","99.96","","","","-34","","Clear"
"2004-12-19 22:00","2004","12","19","22:00","-21.7","","-27.6","","59","","34","","32","","24.1","","99.97","","","","-35","","Clear"
"2004-12-19 23:00","2004","12","19","23:00","-22.1","","-28.7","","55","","33","","22","","24.1","","99.95","","","","-34","","Clear"
"2004-12-20 00:00","2004","12","20","00:00","-22.8","","-29.1","","56","","33","","26","","24.1","","99.93","","","","-35","","Clear"
"2004-12-20 01:00","2004","12","20","01:00","-23.5","","-29.7","","57","","34","","24","","24.1","","99.90","","","","-36","","Clear"
"2004-12-20 02:00","2004","12","20","02:00","-23.6","","-29.9","","56","","32","","22","","24.1","","99.94","","","","-36","","Clear"
"2004-12-20 03:00","2004","12","20","03:00","-23.8","","-30.6","","53","","34","","22","","24.1","","99.99","","","","-36","","Clear"
"2004-12-20 04:00","2004","12","20","04:00","-23.9","","-31.0","","52","","32","","22","","24.1","","100.02","","","","-36","","Clear"
"2004-12-20 05:00","2004","12","20","05:00","-24.2","","-31.6","","50","","33","","26","","24.1","","100.04","","","","-37","","Clear"
"2004-12-20 06:00","2004","12","20","06:00","-23.8","","-31.3","","50","","32","","24","","24.1","","100.08","","","","-36","","Clear"
"2004-12-20 07:00","2004","12","20","07:00","-23.1","","-30.0","","53","","34","","19","","24.1","","100.06","","","","-34","","Clear"
"2004-12-20 08:00","2004","12","20","08:00","-22.6","","-28.9","","56","","31","","15","","24.1","","100.07","","","","-32","","Clear"
"2004-12-20 09:00","2004","12","20","09:00","-21.0","","-26.8","","60","","32","","9","","24.1","","100.06","","","","-28","","Clear"
"2004-12-20 10:00","2004","12","20","10:00","-19.7","","-26.3","","56","","36","","7","","24.1","","100.08","","","","-25","","Clear"
"2004-12-20 11:00","2004","12","20","11:00","-18.2","","-25.1","","55","","32","","4","","24.1","","100.00","","","","-21","","Mainly Clear"
"2004-12-20 12:00","2004","12","20","12:00","-16.4","","-23.9","","52","","32","","9","","24.1","","99.98","","","","-22","","Mostly Cloudy"
"2004-12-20 13:00","2004","12","20","13:00","-14.7","","-22.7","","51","","28","","6","","24.1","","99.89","","","","-19","","Mainly Clear"
"2004-12-20 14:00","2004","12","20","14:00","-13.0","","-21.7","","48","","16","","9","","24.1","","99.80","","","","-18","","Mainly Clear"
"2004-12-20 15:00","2004","12","20","15:00","-12.8","","-21.8","","47","","17","","9","","24.1","","99.76","","","","-18","","Mostly Cloudy"
"2004-12-20 16:00","2004","12","20","16:00","-12.3","","-20.0","","53","","17","","11","","24.1","","99.75","","","","-18","","Mostly Cloudy"
"2004-12-20 17:00","2004","12","20","17:00","-12.5","","-19.7","","55","","16","","7","","24.1","","99.75","","","","-17","","Mainly Clear"
"2004-12-20 18:00","2004","12","20","18:00","-12.2","","-18.9","","57","","15","","6","","24.1","","99.65","","","","-16","","Mostly Cloudy"
"2004-12-20 19:00","2004","12","20","19:00","-11.8","","-17.4","","63","","10","","9","","24.1","","99.59","","","","-17","","Mostly Cloudy"
"2004-12-20 20:00","2004","12","20","20:00","-9.8","","-14.4","","69","","14","","17","","24.1","","99.50","","","","-17","","Snow"
"2004-12-20 21:00","2004","12","20","21:00","-9.7","","-13.3","","75","","13","","19","","6.4","","99.44","","","","-17","","Snow"
"2004-12-20 22:00","2004","12","20","22:00","-9.2","","-12.0","","80","","13","","17","","4.0","","99.40","","","","-16","","Snow"
"2004-12-20 23:00","2004","12","20","23:00","-8.5","","-10.7","","84","","15","","19","","1.2","","99.37","","","","-16","","Snow"
"2004-12-21 00:00","2004","12","21","00:00","-8.0","","-9.9","","86","","14","","19","","8.0","","99.30","","","","-15","","Snow"
"2004-12-21 01:00","2004","12","21","01:00","-7.5","","-9.6","","85","","15","","22","","24.1","","99.15","","","","-15","","Cloudy"
"2004-12-21 02:00","2004","12","21","02:00","-7.3","","-10.1","","80","","14","","20","","24.1","","99.08","","","","-14","","Mostly Cloudy"
"2004-12-21 03:00","2004","12","21","03:00","-7.5","","-10.6","","78","","14","","19","","24.1","","98.98","","","","-15","","Cloudy"
"2004-12-21 04:00","2004","12","21","04:00","-7.4","","-10.4","","79","","13","","15","","24.1","","98.83","","","","-14","","Mostly Cloudy"
"2004-12-21 05:00","2004","12","21","05:00","-6.6","","-9.9","","77","","17","","13","","24.1","","98.81","","","","-12","","Mostly Cloudy"
"2004-12-21 06:00","2004","12","21","06:00","-5.6","","-9.2","","76","","14","","13","","19.3","","98.60","","","","-11","","Cloudy"
"2004-12-21 07:00","2004","12","21","07:00","-4.7","","-9.6","","69","","18","","11","","24.1","","98.61","","","","-9","","Cloudy"
"2004-12-21 08:00","2004","12","21","08:00","-4.2","","-9.5","","67","","17","","13","","24.1","","98.54","","","","-9","","Cloudy"
"2004-12-21 09:00","2004","12","21","09:00","-3.7","","-8.5","","69","","21","","11","","24.1","","98.59","","","","-8","","Cloudy"
"2004-12-21 10:00","2004","12","21","10:00","-3.3","","-8.0","","70","","22","","4","","24.1","","98.65","","","","-5","","Cloudy"
"2004-12-21 11:00","2004","12","21","11:00","-3.1","","-6.9","","75","","25","","11","","19.3","","98.72","","","","-7","","Mainly Clear"
"2004-12-21 12:00","2004","12","21","12:00","-0.9","","-6.1","","68","","25","","11","","24.1","","98.72","","","","-5","","Mainly Clear"
"2004-12-21 13:00","2004","12","21","13:00","-0.6","","-6.0","","67","","25","","22","","24.1","","98.76","","","","-6","","Cloudy"
"2004-12-21 14:00","2004","12","21","14:00","-0.2","","-5.8","","66","","25","","26","","24.1","","98.83","","","","-6","","Cloudy"
"2004-12-21 15:00","2004","12","21","15:00","-0.2","","-5.1","","69","","24","","28","","24.1","","98.91","","","","-7","","Cloudy"
"2004-12-21 16:00","2004","12","21","16:00","-0.7","","-4.8","","74","","26","","17","","24.1","","99.04","","","","-6","","Mainly Clear"
"2004-12-21 17:00","2004","12","21","17:00","-0.7","","-5.0","","73","","20","","6","","24.1","","99.07","","","","-3","","Mostly Cloudy"
"2004-12-21 18:00","2004","12","21","18:00","-0.3","","-5.0","","71","","14","","6","","24.1","","99.11","","","","-2","","Cloudy"
"2004-12-21 19:00","2004","12","21","19:00","0.3","","-4.5","","70","","12","","7","","24.1","","99.15","","","","","","Cloudy"
"2004-12-21 20:00","2004","12","21","20:00","0.2","","-4.1","","73","","8","","6","","24.1","","99.20","","","","","","Cloudy"
"2004-12-21 21:00","2004","12","21","21:00","1.1","","-2.9","","75","","10","","7","","24.1","","99.19","","","","","","Mostly Cloudy"
"2004-12-21 22:00","2004","12","21","22:00","1.5","","-2.0","","78","","16","","9","","24.1","","99.22","","","","","","Cloudy"
"2004-12-21 23:00","2004","12","21","23:00","1.9","","-1.2","","80","","17","","4","","24.1","","99.25","","","","","","Cloudy"
"2004-12-22 00:00","2004","12","22","00:00","2.3","","-1.1","","78","","22","","11","","24.1","","99.30","","","","","","Cloudy"
"2004-12-22 01:00","2004","12","22","01:00","1.0","","-2.7","","76","","21","","11","","24.1","","99.36","","","","","","Mostly Cloudy"
"2004-12-22 02:00","2004","12","22","02:00","0.8","","-2.5","","79","","22","","9","","24.1","","99.39","","","","","","Cloudy"
"2004-12-22 03:00","2004","12","22","03:00","0.4","","-3.7","","74","","24","","13","","24.1","","99.41","","","","","","Mostly Cloudy"
"2004-12-22 04:00","2004","12","22","04:00","-1.6","","-5.0","","78","","26","","11","","24.1","","99.47","","","","-5","","Cloudy"
"2004-12-22 05:00","2004","12","22","05:00","-2.8","","-5.8","","80","","25","","9","","24.1","","99.50","","","","-6","","Mostly Cloudy"
"2004-12-22 06:00","2004","12","22","06:00","-2.2","","-6.1","","75","","24","","13","","24.1","","99.59","","","","-7","","Mostly Cloudy"
"2004-12-22 07:00","2004","12","22","07:00","-1.9","","-6.1","","73","","24","","9","","24.1","","99.66","","","","-5","","Cloudy"
"2004-12-22 08:00","2004","12","22","08:00","-2.3","","-6.7","","72","","25","","13","","24.1","","99.69","","","","-7","","Cloudy"
"2004-12-22 09:00","2004","12","22","09:00","-2.0","","-6.6","","71","","25","","19","","24.1","","99.75","","","","-8","","Cloudy"
"2004-12-22 10:00","2004","12","22","10:00","-1.6","","-6.6","","69","","25","","19","","24.1","","99.83","","","","-7","","Cloudy"
"2004-12-22 11:00","2004","12","22","11:00","-1.3","","-6.4","","68","","25","","22","","24.1","","99.90","","","","-7","","Cloudy"
"2004-12-22 12:00","2004","12","22","12:00","-1.9","","-5.7","","75","","24","","15","","9.7","","99.87","","","","-7","","Snow"
"2004-12-22 13:00","2004","12","22","13:00","-2.2","","-4.6","","84","","25","","13","","4.0","","99.83","","","","-7","","Snow"
"2004-12-22 14:00","2004","12","22","14:00","-2.4","","-4.1","","88","","24","","11","","3.2","","99.83","","","","-6","","Snow"
"2004-12-22 15:00","2004","12","22","15:00","-2.1","","-3.9","","87","","24","","7","","6.4","","99.86","","","","-5","","Snow"
"2004-12-22 16:00","2004","12","22","16:00","-2.5","","-4.1","","89","","24","","9","","2.8","","99.98","","","","-6","","Snow"
"2004-12-22 17:00","2004","12","22","17:00","-2.6","","-4.0","","90","","26","","7","","2.4","","100.01","","","","-5","","Snow"
"2004-12-22 18:00","2004","12","22","18:00","-2.8","","-4.0","","91","","23","","6","","4.0","","100.02","","","","-5","","Snow"
"2004-12-22 19:00","2004","12","22","19:00","-2.7","","-3.9","","91","","27","","9","","4.0","","100.13","","","","-6","","Snow"
"2004-12-22 20:00","2004","12","22","20:00","-2.8","","-4.0","","91","","26","","7","","2.0","","100.18","","","","-6","","Snow"
"2004-12-22 21:00","2004","12","22","21:00","-2.8","","-4.0","","91","","28","","7","","2.0","","100.16","","","","-6","","Snow"
"2004-12-22 22:00","2004","12","22","22:00","-3.1","","-4.4","","91","","33","","7","","1.6","","100.12","","","","-6","","Snow"
"2004-12-22 23:00","2004","12","22","23:00","-3.7","","-5.0","","91","","36","","19","","1.6","","100.09","","","","-10","","Snow"
"2004-12-23 00:00","2004","12","23","00:00","-4.2","","-5.3","","92","","2","","17","","1.2","","100.01","","","","-10","","Snow"
"2004-12-23 01:00","2004","12","23","01:00","-3.9","","-5.0","","92","","4","","11","","2.0","","99.87","","","","-8","","Snow"
"2004-12-23 02:00","2004","12","23","02:00","-3.7","","-4.7","","93","","4","","11","","1.6","","99.78","","","","-8","","Snow"
"2004-12-23 03:00","2004","12","23","03:00","-3.6","","-4.7","","92","","4","","19","","1.0","","99.63","","","","-10","","Snow"
"2004-12-23 04:00","2004","12","23","04:00","-3.5","","-4.5","","93","","5","","13","","0.8","","99.44","","","","-8","","Moderate Snow"
"2004-12-23 05:00","2004","12","23","05:00","-3.5","","-4.5","","93","","4","","28","","0.6","","99.14","","","","-11","","Moderate Snow"
"2004-12-23 06:00","2004","12","23","06:00","-3.6","","-4.5","","93","","3","","28","","0.6","","98.93","","","","-11","","Moderate Snow"
"2004-12-23 07:00","2004","12","23","07:00","-3.4","","-4.3","","93","","2","","28","","1.6","","98.71","","","","-11","","Snow"
"2004-12-23 08:00","2004","12","23","08:00","-2.8","","-3.7","","94","","2","","26","","6.4","","98.45","","","","-10","","Snow,Ice Pellets"
"2004-12-23 09:00","2004","12","23","09:00","-2.1","","-3.4","","91","","2","","30","","4.8","","98.19","","","","-9","","Freezing Rain,Snow,Ice Pellets"
"2004-12-23 10:00","2004","12","23","10:00","-1.9","","-2.9","","93","","1","","28","","6.4","","97.98","","","","-9","","Freezing Rain,Ice Pellets,Fog"
"2004-12-23 11:00","2004","12","23","11:00","-3.6","","-4.5","","93","","34","","30","","4.8","","97.92","","","","-11","","Freezing Rain,Snow,Ice Pellets"
"2004-12-23 12:00","2004","12","23","12:00","-3.9","","-5.5","","89","","34","","35","","8.0","","97.73","","","","-12","","Freezing Rain,Snow,Ice Pellets"
"2004-12-23 13:00","2004","12","23","13:00","-4.9","","-6.8","","87","","32","","43","","8.0","","97.98","","","","-14","","Snow,Ice Pellets"
"2004-12-23 14:00","2004","12","23","14:00","-5.8","","-8.0","","84","","32","","28","","19.3","","98.31","","","","-14","","Snow"
"2004-12-23 15:00","2004","12","23","15:00","-4.7","","-9.1","","71","","30","","37","","24.1","","98.53","","","","-13","","Mostly Cloudy"
"2004-12-23 16:00","2004","12","23","16:00","-5.6","","-10.3","","69","","31","","41","","24.1","","98.78","","","","-15","","Clear"
"2004-12-23 17:00","2004","12","23","17:00","-6.9","","-11.4","","70","","29","","28","","24.1","","99.08","","","","-15","","Clear"
"2004-12-23 18:00","2004","12","23","18:00","-7.6","","-12.2","","70","","30","","26","","24.1","","99.27","","","","-16","","Clear"
"2004-12-23 19:00","2004","12","23","19:00","-8.2","","-12.3","","72","","29","","22","","24.1","","99.45","","","","-16","","Mainly Clear"
"2004-12-23 20:00","2004","12","23","20:00","-8.5","","-11.8","","77","","27","","11","","24.1","","99.58","","","","-14","","Mostly Cloudy"
"2004-12-23 21:00","2004","12","23","21:00","-6.9","","-10.2","","77","","27","","22","","24.1","","99.67","","","","-14","","Mostly Cloudy"
"2004-12-23 22:00","2004","12","23","22:00","-7.6","","-11.8","","72","","27","","20","","24.1","","99.74","","","","-15","","Mainly Clear"
"2004-12-23 23:00","2004","12","23","23:00","-9.2","","-13.0","","74","","26","","15","","24.1","","99.83","","","","-16","","Clear"
"2004-12-24 00:00","2004","12","24","00:00","-9.8","","-13.5","","74","","26","","13","","24.1","","99.87","","","","-16","","Clear"
"2004-12-24 01:00","2004","12","24","01:00","-10.1","","-13.7","","75","","26","","15","","24.1","","99.90","","","","-17","","Clear"
"2004-12-24 02:00","2004","12","24","02:00","-10.8","","-14.0","","77","","27","","11","","24.1","","99.88","","","","-17","","Clear"
"2004-12-24 03:00","2004","12","24","03:00","-11.6","","-14.3","","80","","26","","7","","24.1","","99.95","","","","-16","","Clear"
"2004-12-24 04:00","2004","12","24","04:00","-12.1","","-14.6","","82","","20","","4","","24.1","","100.00","","","","-15","","Clear"
"2004-12-24 05:00","2004","12","24","05:00","-11.9","","-14.4","","82","","22","","13","","24.1","","100.01","","","","-19","","Mainly Clear"
"2004-12-24 06:00","2004","12","24","06:00","-12.5","","-14.6","","84","","23","","13","","24.1","","100.07","","","","-19","","Mainly Clear"
"2004-12-24 07:00","2004","12","24","07:00","-12.8","","-15.1","","83","","23","","11","","24.1","","100.14","","","","-19","","Mainly Clear"
"2004-12-24 08:00","2004","12","24","08:00","-12.2","","-14.4","","84","","21","","6","","24.1","","100.12","","","","-16","","Mainly Clear"
"2004-12-24 09:00","2004","12","24","09:00","-11.6","","-14.2","","81","","22","","11","","24.1","","100.13","","","","-18","","Mostly Cloudy"
"2004-12-24 10:00","2004","12","24","10:00","-10.7","","-13.4","","80","","24","","20","","24.1","","100.15","","","","-19","","Mainly Clear"
"2004-12-24 11:00","2004","12","24","11:00","-9.3","","-12.7","","76","","24","","17","","24.1","","100.11","","","","-16","","Mainly Clear"
"2004-12-24 12:00","2004","12","24","12:00","-8.1","","-12.8","","69","","26","","22","","24.1","","100.01","","","","-16","","Mainly Clear"
"2004-12-24 13:00","2004","12","24","13:00","-7.4","","-13.5","","62","","27","","30","","24.1","","99.93","","","","-16","","Mainly Clear"
"2004-12-24 14:00","2004","12","24","14:00","-7.6","","-13.6","","62","","28","","28","","24.1","","99.90","","","","-16","","Mainly Clear"
"2004-12-24 15:00","2004","12","24","15:00","-8.1","","-14.7","","59","","28","","26","","24.1","","99.89","","","","-16","","Mainly Clear"
"2004-12-24 16:00","2004","12","24","16:00","-8.8","","-15.4","","59","","27","","22","","24.1","","99.92","","","","-17","","Mainly Clear"
"2004-12-24 17:00","2004","12","24","17:00","-10.2","","-16.3","","61","","26","","20","","24.1","","99.94","","","","-18","","Mainly Clear"
"2004-12-24 18:00","2004","12","24","18:00","-11.3","","-16.4","","66","","26","","22","","24.1","","99.97","","","","-20","","Mainly Clear"
"2004-12-24 19:00","2004","12","24","19:00","-12.0","","-17.1","","66","","25","","15","","24.1","","100.02","","","","-19","","Mainly Clear"
"2004-12-24 20:00","2004","12","24","20:00","-13.1","","-17.0","","72","","25","","15","","24.1","","100.01","","","","-21","","Mainly Clear"
"2004-12-24 21:00","2004","12","24","21:00","-13.2","","-17.3","","71","","25","","19","","24.1","","100.03","","","","-22","","Clear"
"2004-12-24 22:00","2004","12","24","22:00","-14.1","","-17.6","","75","","26","","15","","24.1","","100.07","","","","-22","","Clear"
"2004-12-24 23:00","2004","12","24","23:00","-14.8","","-18.2","","75","","24","","17","","24.1","","100.12","","","","-23","","Clear"
"2004-12-25 00:00","2004","12","25","00:00","-15.4","","-18.6","","76","","25","","17","","24.1","","100.14","","","","-24","","Clear"
"2004-12-25 01:00","2004","12","25","01:00","-15.6","","-18.4","","79","","25","","20","","24.1","","100.15","","","","-25","","Clear"
"2004-12-25 02:00","2004","12","25","02:00","-15.5","","-18.0","","81","","27","","20","","24.1","","100.15","","","","-25","","Clear"
"2004-12-25 03:00","2004","12","25","03:00","-15.5","","-18.2","","80","","25","","19","","24.1","","100.22","","","","-25","","Clear"
"2004-12-25 04:00","2004","12","25","04:00","-15.5","","-18.2","","80","","25","","20","","24.1","","100.22","","","","-25","","Clear"
"2004-12-25 05:00","2004","12","25","05:00","-16.5","","-19.1","","80","","24","","19","","24.1","","100.22","","","","-26","","Clear"
"2004-12-25 06:00","2004","12","25","06:00","-17.2","","-19.3","","84","","24","","15","","24.1","","100.28","","","","-26","","Clear"
"2004-12-25 07:00","2004","12","25","07:00","-16.9","","-19.4","","81","","26","","13","","24.1","","100.32","","","","-25","","Mostly Cloudy"
"2004-12-25 08:00","2004","12","25","08:00","-16.2","","-18.4","","83","","27","","9","","24.1","","100.37","","","","-22","","Mostly Cloudy"
"2004-12-25 09:00","2004","12","25","09:00","-15.5","","-17.6","","84","","26","","11","","24.1","","100.45","","","","-22","","Mainly Clear"
"2004-12-25 10:00","2004","12","25","10:00","-15.0","","-17.3","","83","","27","","9","","24.1","","100.54","","","","-21","","Mainly Clear"
"2004-12-25 11:00","2004","12","25","11:00","-12.4","","-15.6","","77","","26","","9","","24.1","","100.60","","","","-18","","Mostly Cloudy"
"2004-12-25 12:00","2004","12","25","12:00","-10.1","","-14.7","","69","","","","0","","24.1","","100.53","","","","","","Mostly Cloudy"
"2004-12-25 13:00","2004","12","25","13:00","-9.6","","-14.3","","69","","","","0","","24.1","","100.47","","","","","","Mostly Cloudy"
"2004-12-25 14:00","2004","12","25","14:00","-9.4","","-15.4","","62","","18","","4","","24.1","","100.39","","","","-12","","Cloudy"
"2004-12-25 15:00","2004","12","25","15:00","-9.2","","-15.4","","61","","11","","9","","24.1","","100.36","","","","-14","","Cloudy"
"2004-12-25 16:00","2004","12","25","16:00","-9.2","","-15.2","","62","","13","","7","","24.1","","100.42","","","","-13","","Mostly Cloudy"
"2004-12-25 17:00","2004","12","25","17:00","-9.2","","-14.6","","65","","18","","4","","24.1","","100.45","","","","-11","","Cloudy"
"2004-12-25 18:00","2004","12","25","18:00","-9.0","","-13.9","","68","","","","0","","12.9","","100.46","","","","","","Snow"
"2004-12-25 19:00","2004","12","25","19:00","-9.2","","-13.4","","71","","","","0","","3.6","","100.50","","","","","","Snow"
"2004-12-25 20:00","2004","12","25","20:00","-9.1","","-12.0","","79","","4","","6","","4.0","","100.51","","","","-12","","Snow"
"2004-12-25 21:00","2004","12","25","21:00","-7.8","","-10.2","","83","","13","","9","","3.2","","100.49","","","","-12","","Snow"
"2004-12-25 22:00","2004","12","25","22:00","-7.1","","-10.1","","79","","12","","9","","24.1","","100.45","","","","-11","","Mostly Cloudy"
"2004-12-25 23:00","2004","12","25","23:00","-6.6","","-12.4","","63","","14","","7","","24.1","","100.42","","","","-10","","Mostly Cloudy"
"2004-12-26 00:00","2004","12","26","00:00","-8.0","","-11.3","","77","","7","","13","","24.1","","100.41","","","","-14","","Mostly Cloudy"
"2004-12-26 01:00","2004","12","26","01:00","-8.3","","-11.0","","81","","6","","13","","24.1","","100.38","","","","-14","","Mostly Cloudy"
"2004-12-26 02:00","2004","12","26","02:00","-8.4","","-11.0","","81","","5","","11","","24.1","","100.37","","","","-14","","Mostly Cloudy"
"2004-12-26 03:00","2004","12","26","03:00","-8.6","","-11.0","","83","","5","","13","","24.1","","100.39","","","","-15","","Mostly Cloudy"
"2004-12-26 04:00","2004","12","26","04:00","-8.5","","-10.9","","83","","5","","17","","24.1","","100.37","","","","-15","","Mostly Cloudy"
"2004-12-26 05:00","2004","12","26","05:00","-8.3","","-10.7","","83","","5","","11","","19.3","","100.37","","","","-14","","Cloudy"
"2004-12-26 06:00","2004","12","26","06:00","-8.3","","-10.7","","83","","4","","13","","12.9","","100.41","","","","-14","","Snow Showers"
"2004-12-26 07:00","2004","12","26","07:00","-8.8","","-11.0","","84","","6","","15","","2.4","","100.42","","","","-15","","Snow"
"2004-12-26 08:00","2004","12","26","08:00","-9.2","","-11.3","","85","","5","","15","","9.7","","100.39","","","","-16","","Snow"
"2004-12-26 09:00","2004","12","26","09:00","-9.1","","-11.3","","84","","4","","15","","16.1","","100.41","","","","-16","","Snow"
"2004-12-26 10:00","2004","12","26","10:00","-9.3","","-11.6","","83","","4","","19","","8.0","","100.50","","","","-17","","Snow"
"2004-12-26 11:00","2004","12","26","11:00","-9.5","","-11.8","","83","","4","","22","","2.4","","100.50","","","","-18","","Snow"
"2004-12-26 12:00","2004","12","26","12:00","-9.1","","-11.1","","85","","4","","20","","3.6","","100.45","","","","-17","","Snow"
"2004-12-26 13:00","2004","12","26","13:00","-8.9","","-11.3","","83","","4","","22","","4.8","","100.40","","","","-17","","Snow"
"2004-12-26 14:00","2004","12","26","14:00","-8.5","","-10.9","","83","","4","","19","","2.8","","100.42","","","","-16","","Snow"
"2004-12-26 15:00","2004","12","26","15:00","-8.7","","-11.0","","83","","3","","24","","2.4","","100.46","","","","-17","","Snow"
"2004-12-26 16:00","2004","12","26","16:00","-9.1","","-11.5","","83","","2","","26","","4.8","","100.55","","","","-18","","Snow"
"2004-12-26 17:00","2004","12","26","17:00","-9.6","","-11.8","","84","","1","","26","","4.0","","100.64","","","","-18","","Snow"
"2004-12-26 18:00","2004","12","26","18:00","-10.1","","-12.7","","81","","36","","26","","24.1","","100.70","","","","-19","","Mostly Cloudy"
"2004-12-26 19:00","2004","12","26","19:00","-11.2","","-14.0","","80","","1","","26","","24.1","","100.78","","","","-20","","Mainly Clear"
"2004-12-26 20:00","2004","12","26","20:00","-11.7","","-15.1","","76","","1","","28","","24.1","","100.87","","","","-21","","Mainly Clear"
"2004-12-26 21:00","2004","12","26","21:00","-12.1","","-15.9","","73","","1","","24","","24.1","","100.90","","","","-21","","Mainly Clear"
"2004-12-26 22:00","2004","12","26","22:00","-13.5","","-17.1","","74","","34","","20","","24.1","","100.99","","","","-22","","Mainly Clear"
"2004-12-26 23:00","2004","12","26","23:00","-14.3","","-17.4","","77","","34","","24","","24.1","","101.04","","","","-24","","Clear"
"2004-12-27 00:00","2004","12","27","00:00","-14.6","","-17.8","","77","","34","","26","","24.1","","101.06","","","","-25","","Clear"
"2004-12-27 01:00","2004","12","27","01:00","-15.0","","-18.3","","76","","35","","30","","24.1","","101.08","","","","-26","","Clear"
"2004-12-27 02:00","2004","12","27","02:00","-15.5","","-18.8","","76","","34","","26","","24.1","","101.11","","","","-26","","Clear"
"2004-12-27 03:00","2004","12","27","03:00","-16.0","","-19.2","","76","","34","","33","","24.1","","101.18","","","","-28","","Clear"
"2004-12-27 04:00","2004","12","27","04:00","-16.4","","-19.6","","76","","35","","28","","24.1","","101.25","","","","-28","","Clear"
"2004-12-27 05:00","2004","12","27","05:00","-16.7","","-19.8","","77","","35","","20","","24.1","","101.32","","","","-26","","Clear"
"2004-12-27 06:00","2004","12","27","06:00","-17.5","","-20.4","","78","","35","","26","","24.1","","101.39","","","","-29","","Clear"
"2004-12-27 07:00","2004","12","27","07:00","-17.2","","-20.0","","79","","35","","24","","24.1","","101.48","","","","-28","","Clear"
"2004-12-27 08:00","2004","12","27","08:00","-17.6","","-20.1","","81","","34","","26","","24.1","","101.51","","","","-29","","Clear"
"2004-12-27 09:00","2004","12","27","09:00","-16.3","","-18.8","","81","","35","","11","","24.1","","101.59","","","","-23","","Clear"
"2004-12-27 10:00","2004","12","27","10:00","-14.9","","-18.0","","77","","35","","11","","24.1","","101.63","","","","-21","","Clear"
"2004-12-27 11:00","2004","12","27","11:00","-13.0","","-17.3","","70","","33","","13","","24.1","","101.67","","","","-20","","Clear"
"2004-12-27 12:00","2004","12","27","12:00","-11.6","","-18.3","","58","","32","","11","","24.1","","101.60","","","","-18","","Mainly Clear"
"2004-12-27 13:00","2004","12","27","13:00","-10.7","","-19.8","","47","","31","","13","","24.1","","101.55","","","","-17","","Mainly Clear"
"2004-12-27 14:00","2004","12","27","14:00","-9.8","","-17.9","","52","","32","","11","","24.1","","101.49","","","","-15","","Mainly Clear"
"2004-12-27 15:00","2004","12","27","15:00","-8.5","","-15.6","","56","","27","","11","","24.1","","101.49","","","","-14","","Mostly Cloudy"
"2004-12-27 16:00","2004","12","27","16:00","-9.2","","-16.2","","57","","25","","13","","24.1","","101.48","","","","-15","","Mostly Cloudy"
"2004-12-27 17:00","2004","12","27","17:00","-11.1","","-16.5","","64","","26","","13","","24.1","","101.52","","","","-18","","Mainly Clear"
"2004-12-27 18:00","2004","12","27","18:00","-12.2","","-16.9","","68","","26","","17","","24.1","","101.54","","","","-20","","Clear"
"2004-12-27 19:00","2004","12","27","19:00","-12.6","","-17.3","","68","","28","","11","","24.1","","101.50","","","","-19","","Clear"
"2004-12-27 20:00","2004","12","27","20:00","-12.4","","-17.2","","67","","25","","7","","24.1","","101.47","","","","-17","","Clear"
"2004-12-27 21:00","2004","12","27","21:00","-13.2","","-17.3","","71","","27","","9","","24.1","","101.40","","","","-19","","Clear"
"2004-12-27 22:00","2004","12","27","22:00","-12.8","","-16.7","","73","","28","","11","","24.1","","101.37","","","","-19","","Clear"
"2004-12-27 23:00","2004","12","27","23:00","-12.9","","-16.8","","73","","27","","11","","24.1","","101.33","","","","-19","","Clear"
"2004-12-28 00:00","2004","12","28","00:00","-12.8","","-16.4","","74","","27","","22","","24.1","","101.27","","","","-22","","Clear"
"2004-12-28 01:00","2004","12","28","01:00","-13.2","","-16.3","","77","","27","","13","","24.1","","101.21","","","","-20","","Clear"
"2004-12-28 02:00","2004","12","28","02:00","-13.6","","-16.4","","79","","26","","11","","24.1","","101.17","","","","-20","","Mainly Clear"
"2004-12-28 03:00","2004","12","28","03:00","-12.9","","-15.5","","81","","26","","6","","24.1","","101.14","","","","-17","","Mostly Cloudy"
"2004-12-28 04:00","2004","12","28","04:00","-11.8","","-14.5","","80","","23","","6","","24.1","","101.07","","","","-16","","Mostly Cloudy"
"2004-12-28 05:00","2004","12","28","05:00","-9.6","","-12.9","","77","","25","","15","","24.1","","100.99","","","","-16","","Mostly Cloudy"
"2004-12-28 06:00","2004","12","28","06:00","-8.4","","-12.1","","75","","24","","9","","24.1","","100.93","","","","-13","","Cloudy"
"2004-12-28 07:00","2004","12","28","07:00","-7.6","","-10.8","","78","","18","","7","","2.4","","100.89","","","","-11","","Snow Showers"
"2004-12-28 08:00","2004","12","28","08:00","-7.0","","-9.3","","84","","18","","11","","14.5","","100.81","","","","-12","","Cloudy"
"2004-12-28 09:00","2004","12","28","09:00","-6.1","","-8.9","","81","","20","","13","","16.1","","100.71","","","","-11","","Cloudy"
"2004-12-28 10:00","2004","12","28","10:00","-5.0","","-8.5","","76","","19","","17","","16.1","","100.58","","","","-11","","Cloudy"
"2004-12-28 11:00","2004","12","28","11:00","-3.9","","-7.7","","75","","19","","11","","19.3","","100.45","","","","-8","","Cloudy"
"2004-12-28 12:00","2004","12","28","12:00","-3.0","","-7.2","","73","","19","","20","","19.3","","100.22","","","","-9","","Cloudy"
"2004-12-28 13:00","2004","12","28","13:00","-2.5","","-7.6","","68","","21","","26","","19.3","","100.07","","","","-9","","Cloudy"
"2004-12-28 14:00","2004","12","28","14:00","-2.2","","-7.4","","67","","21","","20","","24.1","","99.91","","","","-8","","Cloudy"
"2004-12-28 15:00","2004","12","28","15:00","-2.0","","-7.3","","67","","20","","9","","24.1","","99.79","","","","-5","","Cloudy"
"2004-12-28 16:00","2004","12","28","16:00","-1.7","","-7.0","","67","","20","","11","","24.1","","99.71","","","","-6","","Mostly Cloudy"
"2004-12-28 17:00","2004","12","28","17:00","-1.5","","-6.6","","68","","19","","11","","19.3","","99.63","","","","-5","","Mostly Cloudy"
"2004-12-28 18:00","2004","12","28","18:00","-1.4","","-6.3","","69","","20","","11","","24.1","","99.59","","","","-5","","Cloudy"
"2004-12-28 19:00","2004","12","28","19:00","-1.5","","-6.5","","69","","23","","28","","24.1","","99.58","","","","-8","","Mostly Cloudy"
"2004-12-28 20:00","2004","12","28","20:00","-1.8","","-6.5","","70","","24","","26","","24.1","","99.55","","","","-8","","Mostly Cloudy"
"2004-12-28 21:00","2004","12","28","21:00","-1.9","","-6.3","","72","","25","","22","","24.1","","99.53","","","","-8","","Mostly Cloudy"
"2004-12-28 22:00","2004","12","28","22:00","-2.3","","-6.0","","76","","25","","19","","24.1","","99.51","","","","-8","","Mainly Clear"
"2004-12-28 23:00","2004","12","28","23:00","-1.9","","-5.6","","76","","26","","20","","24.1","","99.51","","","","-8","","Mostly Cloudy"
"2004-12-29 00:00","2004","12","29","00:00","-1.6","","-5.0","","78","","26","","15","","24.1","","99.50","","","","-6","","Mostly Cloudy"
"2004-12-29 01:00","2004","12","29","01:00","-0.8","","-4.1","","78","","24","","15","","24.1","","99.45","","","","-5","","Cloudy"
"2004-12-29 02:00","2004","12","29","02:00","-0.4","","-3.5","","80","","25","","11","","24.1","","99.47","","","","-4","","Cloudy"
"2004-12-29 03:00","2004","12","29","03:00","-0.1","","-2.9","","81","","27","","15","","24.1","","99.55","","","","-5","","Cloudy"
"2004-12-29 04:00","2004","12","29","04:00","0.4","","-2.3","","82","","25","","17","","24.1","","99.55","","","","","","Cloudy"
"2004-12-29 05:00","2004","12","29","05:00","0.8","","-2.0","","82","","25","","15","","24.1","","99.58","","","","","","Cloudy"
"2004-12-29 06:00","2004","12","29","06:00","0.7","","-1.6","","85","","25","","15","","16.1","","99.64","","","","","","Cloudy"
"2004-12-29 07:00","2004","12","29","07:00","0.7","","-1.1","","88","","25","","15","","4.8","","99.74","","","","","","Drizzle"
"2004-12-29 08:00","2004","12","29","08:00","0.8","","-0.6","","90","","24","","17","","4.8","","99.80","","","","","","Drizzle"
"2004-12-29 09:00","2004","12","29","09:00","1.1","","-0.2","","91","","25","","15","","4.8","","99.89","","","","","","Drizzle"
"2004-12-29 10:00","2004","12","29","10:00","1.1","","0.1","","93","","27","","13","","4.8","","99.99","","","","","","Drizzle"
"2004-12-29 11:00","2004","12","29","11:00","1.3","","0.3","","93","","28","","11","","8.0","","100.05","","","","","","Fog"
"2004-12-29 12:00","2004","12","29","12:00","1.5","","-0.1","","89","","30","","15","","12.9","","100.01","","","","","","Cloudy"
"2004-12-29 13:00","2004","12","29","13:00","1.6","","-1.4","","80","","29","","15","","19.3","","100.00","","","","","","Cloudy"
"2004-12-29 14:00","2004","12","29","14:00","1.6","","-2.0","","77","","31","","22","","19.3","","100.03","","","","","","Cloudy"
"2004-12-29 15:00","2004","12","29","15:00","1.4","","-1.6","","80","","28","","11","","19.3","","100.10","","","","","","Cloudy"
"2004-12-29 16:00","2004","12","29","16:00","1.3","","-1.8","","80","","31","","7","","19.3","","100.16","","","","","","Cloudy"
"2004-12-29 17:00","2004","12","29","17:00","1.3","","-1.9","","79","","29","","6","","19.3","","100.22","","","","","","Cloudy"
"2004-12-29 18:00","2004","12","29","18:00","1.1","","-2.2","","79","","28","","13","","24.1","","100.32","","","","","","Cloudy"
"2004-12-29 19:00","2004","12","29","19:00","1.4","","-2.4","","76","","27","","7","","24.1","","100.38","","","","","","Cloudy"
"2004-12-29 20:00","2004","12","29","20:00","1.1","","-2.9","","75","","29","","6","","24.1","","100.39","","","","","","Cloudy"
"2004-12-29 21:00","2004","12","29","21:00","1.1","","-3.2","","73","","29","","4","","24.1","","100.49","","","","","","Cloudy"
"2004-12-29 22:00","2004","12","29","22:00","1.1","","-3.7","","70","","29","","6","","24.1","","100.48","","","","","","Cloudy"
"2004-12-29 23:00","2004","12","29","23:00","0.6","","-3.7","","73","","","","0","","24.1","","100.49","","","","","","Cloudy"
"2004-12-30 00:00","2004","12","30","00:00","1.1","","-3.3","","72","","17","","4","","24.1","","100.53","","","","","","Cloudy"
"2004-12-30 01:00","2004","12","30","01:00","0.4","","-3.5","","75","","21","","6","","24.1","","100.52","","","","","","Mostly Cloudy"
"2004-12-30 02:00","2004","12","30","02:00","0.5","","-3.0","","77","","","","0","","24.1","","100.52","","","","","","Cloudy"
"2004-12-30 03:00","2004","12","30","03:00","-0.8","","-4.0","","79","","27","","4","","24.1","","100.59","","","","-2","","Cloudy"
"2004-12-30 04:00","2004","12","30","04:00","-1.4","","-4.2","","81","","32","","9","","24.1","","100.62","","","","-5","","Cloudy"
"2004-12-30 05:00","2004","12","30","05:00","-0.6","","-3.2","","83","","2","","6","","24.1","","100.62","","","","-3","","Cloudy"
"2004-12-30 06:00","2004","12","30","06:00","-0.8","","-3.5","","82","","3","","11","","24.1","","100.65","","","","-5","","Cloudy"
"2004-12-30 07:00","2004","12","30","07:00","-0.1","","-2.9","","81","","5","","4","","16.1","","100.67","","","","-1","","Cloudy"
"2004-12-30 08:00","2004","12","30","08:00","0.3","","-2.9","","79","","5","","7","","12.9","","100.70","","","","","","Cloudy"
"2004-12-30 09:00","2004","12","30","09:00","0.6","","-2.2","","81","","11","","7","","11.3","","100.69","","","","","","Cloudy"
"2004-12-30 10:00","2004","12","30","10:00","1.3","","-1.5","","82","","13","","7","","11.3","","100.74","","","","","","Cloudy"
"2004-12-30 11:00","2004","12","30","11:00","2.3","","-0.9","","79","","14","","13","","11.3","","100.73","","","","","","Cloudy"
"2004-12-30 12:00","2004","12","30","12:00","2.4","","-0.7","","80","","12","","11","","12.9","","100.66","","","","","","Cloudy"
"2004-12-30 13:00","2004","12","30","13:00","2.7","","-0.6","","79","","12","","15","","11.3","","100.56","","","","","","Cloudy"
"2004-12-30 14:00","2004","12","30","14:00","2.8","","-0.7","","78","","13","","11","","9.7","","100.55","","","","","","Haze"
"2004-12-30 15:00","2004","12","30","15:00","3.1","","-0.4","","78","","11","","13","","8.0","","100.50","","","","","","Haze"
"2004-12-30 16:00","2004","12","30","16:00","3.2","","-0.2","","78","","11","","7","","8.0","","100.49","","","","","","Haze"
"2004-12-30 17:00","2004","12","30","17:00","2.8","","0.1","","82","","11","","13","","8.0","","100.44","","","","","","Haze"
"2004-12-30 18:00","2004","12","30","18:00","2.7","","0.7","","87","","10","","9","","8.0","","100.39","","","","","","Haze"
"2004-12-30 19:00","2004","12","30","19:00","2.8","","1.1","","89","","11","","11","","11.3","","100.35","","","","","","Cloudy"
"2004-12-30 20:00","2004","12","30","20:00","3.3","","1.6","","89","","10","","13","","9.7","","100.28","","","","","","Fog"
"2004-12-30 21:00","2004","12","30","21:00","3.2","","1.8","","91","","10","","9","","6.4","","100.21","","","","","","Drizzle"
"2004-12-30 22:00","2004","12","30","22:00","3.1","","2.1","","93","","11","","9","","4.0","","100.10","","","","","","Fog"
"2004-12-30 23:00","2004","12","30","23:00","4.2","","2.9","","91","","12","","19","","6.4","","99.92","","","","","","Rain,Fog"
"2004-12-31 00:00","2004","12","31","00:00","3.8","","2.9","","94","","14","","15","","4.0","","99.82","","","","","","Rain,Fog"
"2004-12-31 01:00","2004","12","31","01:00","3.7","","3.1","","96","","15","","15","","2.0","","99.70","","","","","","Rain,Fog"
"2004-12-31 02:00","2004","12","31","02:00","4.1","","3.6","","97","","16","","17","","0.6","","99.53","","","","","","Rain,Fog"
"2004-12-31 03:00","2004","12","31","03:00","5.8","","5.7","","99","","19","","19","","3.2","","99.47","","","","","","Rain,Fog"
"2004-12-31 04:00","2004","12","31","04:00","7.2","","7.1","","99","","21","","32","","16.1","","99.36","","","","","","Rain"
"2004-12-31 05:00","2004","12","31","05:00","7.6","","7.4","","99","","21","","28","","24.1","","99.26","","","","","","Cloudy"
"2004-12-31 06:00","2004","12","31","06:00","7.6","","6.8","","95","","21","","26","","19.3","","99.25","","","","","","Rain"
"2004-12-31 07:00","2004","12","31","07:00","6.9","","6.5","","97","","21","","24","","6.4","","99.25","","","","","","Rain,Fog"
"2004-12-31 08:00","2004","12","31","08:00","7.1","","6.5","","96","","23","","32","","8.0","","99.26","","","","","","Fog"
"2004-12-31 09:00","2004","12","31","09:00","7.2","","6.5","","95","","23","","30","","12.9","","99.26","","","","","","Cloudy"
"2004-12-31 10:00","2004","12","31","10:00","7.5","","6.9","","96","","22","","28","","11.3","","99.26","","","","","","Cloudy"
"2004-12-31 11:00","2004","12","31","11:00","8.2","","7.1","","93","","22","","30","","14.5","","99.26","","","","","","Cloudy"
"2004-12-31 12:00","2004","12","31","12:00","8.4","","7.1","","92","","22","","33","","12.9","","99.18","","","","","","Cloudy"
"2004-12-31 13:00","2004","12","31","13:00","8.8","","7.5","","92","","23","","33","","14.5","","99.14","","","","","","Cloudy"
"2004-12-31 14:00","2004","12","31","14:00","9.0","","7.8","","92","","23","","35","","9.7","","99.05","","","","","","Haze"
"2004-12-31 15:00","2004","12","31","15:00","9.2","","8.0","","92","","23","","39","","6.4","","99.08","","","","","","Drizzle,Fog"
"2004-12-31 16:00","2004","12","31","16:00","9.9","","8.3","","90","","23","","41","","9.7","","99.08","","","","","","Fog"
"2004-12-31 17:00","2004","12","31","17:00","9.6","","8.0","","90","","23","","46","","8.0","","99.07","","","","","","Fog"
"2004-12-31 18:00","2004","12","31","18:00","9.5","","8.0","","90","","24","","43","","11.3","","99.15","","","","","","Mostly Cloudy"
"2004-12-31 19:00","2004","12","31","19:00","9.6","","8.3","","92","","24","","46","","11.3","","99.13","","","","","","Mostly Cloudy"
"2004-12-31 20:00","2004","12","31","20:00","9.2","","8.0","","92","","23","","41","","12.9","","99.14","","","","","","Mainly Clear"
"2004-12-31 21:00","2004","12","31","21:00","9.3","","8.0","","92","","25","","46","","12.9","","99.26","","","","","","Mainly Clear"
"2004-12-31 22:00","2004","12","31","22:00","9.6","","7.8","","89","","25","","43","","16.1","","99.33","","","","","","Clear"
"2004-12-31 23:00","2004","12","31","23:00","8.6","","4.6","","76","","27","","46","","16.1","","99.49","","","","","","Mainly Clear"
