"Station Name","TORONTO LESTER B. PEARSON INT'L A"
"Province","ONTARIO"
"Latitude","43.68"
"Longitude","-79.63"
"Elevation","173.40"
"Climate Identifier","6158733"
"WMO Identifier","71624"
"TC Identifier","YYZ"
"All times are specified in Local Standard Time (LST). Add 1 hour to adjust for Daylight Saving Time where and when it is observed."

"Legend"
"E","Estimated"
"M","Missing"
"NA","Not Available"

"Date/Time","Year","Month","Day","Time","Temp (°C)","Temp Flag","Dew Point Temp (°C)","Dew Point Temp Flag","Rel Hum (%)","Rel Hum Flag","Wind Dir (10s deg)","Wind Dir Flag","Wind Spd (km/h)","Wind Spd Flag","Visibility (km)","Visibility Flag","Stn Press (kPa)","Stn Press Flag","Hmdx","Hmdx Flag","Wind Chill","Wind Chill Flag","Weather"
"1998-11-01 00:00","1998","11","01","00:00","5.1","","1.2","","76","","34","","17","","25.0","","99.89","","","","","","Mostly Cloudy"
"1998-11-01 01:00","1998","11","01","01:00","4.6","","0.9","","77","","34","","15","","25.0","","99.89","","","","","","Mostly Cloudy"
"1998-11-01 02:00","1998","11","01","02:00","4.4","","0.9","","78","","34","","17","","25.0","","99.89","","","","","","Mostly Cloudy"
"1998-11-01 03:00","1998","11","01","03:00","4.9","","1.0","","76","","33","","11","","25.0","","99.89","","","","","","Mostly Cloudy"
"1998-11-01 04:00","1998","11","01","04:00","5.1","","1.0","","75","","32","","13","","25.0","","99.89","","","","","","Cloudy"
"1998-11-01 05:00","1998","11","01","05:00","5.7","","0.9","","71","","32","","11","","25.0","","99.95","","","","","","Mostly Cloudy"
"1998-11-01 06:00","1998","11","01","06:00","6.2","","1.2","","70","","32","","13","","25.0","","99.95","","","","","","Cloudy"
"1998-11-01 07:00","1998","11","01","07:00","5.9","","1.0","","71","","31","","13","","32.2","","100.02","","","","","","Mostly Cloudy"
"1998-11-01 08:00","1998","11","01","08:00","5.8","","0.8","","70","","33","","19","","32.2","","100.09","","","","","","Mostly Cloudy"
"1998-11-01 09:00","1998","11","01","09:00","6.8","","0.7","","65","","34","","17","","32.2","","100.09","","","","","","Mostly Cloudy"
"1998-11-01 10:00","1998","11","01","10:00","8.8","","0.7","","57","","35","","19","","32.2","","100.02","","","","","","Mostly Cloudy"
"1998-11-01 11:00","1998","11","01","11:00","10.2","","1.1","","53","","34","","19","","32.2","","100.02","","","","","","Mainly Clear"
"1998-11-01 12:00","1998","11","01","12:00","10.7","","-1.0","","44","","36","","22","","32.2","","99.99","","","","","","Mainly Clear"
"1998-11-01 13:00","1998","11","01","13:00","11.4","","-1.3","","41","","35","","20","","32.2","","99.95","","","","","","Mostly Cloudy"
"1998-11-01 14:00","1998","11","01","14:00","10.8","","-1.5","","42","","31","","26","","32.2","","99.92","","","","","","Mostly Cloudy"
"1998-11-01 15:00","1998","11","01","15:00","10.2","","-0.9","","46","","34","","24","","40.2","","99.92","","","","","","Mostly Cloudy"
"1998-11-01 16:00","1998","11","01","16:00","9.3","","0.0","","52","","33","","24","","40.2","","99.95","","","","","","Mostly Cloudy"
"1998-11-01 17:00","1998","11","01","17:00","8.3","","-0.6","","53","","33","","26","","40.2","","99.99","","","","","","Mostly Cloudy"
"1998-11-01 18:00","1998","11","01","18:00","6.8","","0.4","","64","","33","","24","","25.0","","100.02","","","","","","Mostly Cloudy"
"1998-11-01 19:00","1998","11","01","19:00","5.8","","1.2","","72","","32","","22","","25.0","","100.02","","","","","","Mainly Clear"
"1998-11-01 20:00","1998","11","01","20:00","5.2","","0.8","","73","","31","","15","","25.0","","100.02","","","","","","Clear"
"1998-11-01 21:00","1998","11","01","21:00","4.3","","0.6","","77","","32","","11","","25.0","","100.02","","","","","","Clear"
"1998-11-01 22:00","1998","11","01","22:00","4.2","","-0.6","","71","","35","","17","","25.0","","100.02","","","","","","Clear"
"1998-11-01 23:00","1998","11","01","23:00","2.5","","-1.7","","74","","33","","11","","25.0","","100.02","","","","","","Mainly Clear"
"1998-11-02 00:00","1998","11","02","00:00","2.1","","-1.6","","76","","33","","11","","25.0","","100.02","","","","","","Mainly Clear"
"1998-11-02 01:00","1998","11","02","01:00","3.0","","-1.1","","74","","33","","13","","25.0","","100.02","","","","","","Mostly Cloudy"
"1998-11-02 02:00","1998","11","02","02:00","3.9","","-0.8","","71","","35","","15","","25.0","","100.05","","","","","","Mostly Cloudy"
"1998-11-02 03:00","1998","11","02","03:00","3.0","","-1.6","","72","","34","","11","","25.0","","100.02","","","","","","Mostly Cloudy"
"1998-11-02 04:00","1998","11","02","04:00","3.6","","-2.0","","67","","1","","17","","25.0","","100.02","","","","","","Mostly Cloudy"
"1998-11-02 05:00","1998","11","02","05:00","3.5","","-2.4","","65","","35","","20","","25.0","","99.99","","","","","","Mainly Clear"
"1998-11-02 06:00","1998","11","02","06:00","3.4","","-3.0","","63","","35","","20","","25.0","","99.99","","","","","","Mainly Clear"
"1998-11-02 07:00","1998","11","02","07:00","3.4","","-2.8","","64","","34","","13","","32.2","","99.99","","","","","","Mainly Clear"
"1998-11-02 08:00","1998","11","02","08:00","4.4","","-2.0","","63","","32","","17","","24.1","","100.05","","","","","","Mostly Cloudy"
"1998-11-02 09:00","1998","11","02","09:00","5.1","","-1.8","","61","","34","","22","","32.2","","100.05","","","","","","Mostly Cloudy"
"1998-11-02 10:00","1998","11","02","10:00","5.8","","-2.2","","56","","35","","24","","32.2","","100.02","","","","","","Mostly Cloudy"
"1998-11-02 11:00","1998","11","02","11:00","5.9","","-1.9","","57","","34","","26","","32.2","","100.02","","","","","","Mostly Cloudy"
"1998-11-02 12:00","1998","11","02","12:00","6.2","","-1.3","","59","","32","","28","","32.2","","99.99","","","","","","Mostly Cloudy"
"1998-11-02 13:00","1998","11","02","13:00","5.8","","-2.2","","56","","33","","22","","32.2","","99.95","","","","","","Mostly Cloudy"
"1998-11-02 14:00","1998","11","02","14:00","5.6","","-2.9","","54","","34","","24","","32.2","","99.92","","","","","","Mostly Cloudy"
"1998-11-02 15:00","1998","11","02","15:00","5.2","","-3.8","","52","","33","","24","","32.2","","99.92","","","","","","Mostly Cloudy"
"1998-11-02 16:00","1998","11","02","16:00","5.4","","-3.2","","54","","34","","24","","32.2","","99.92","","","","","","Mostly Cloudy"
"1998-11-02 17:00","1998","11","02","17:00","4.8","","-3.7","","54","","34","","19","","32.2","","99.92","","","","","","Mostly Cloudy"
"1998-11-02 18:00","1998","11","02","18:00","4.4","","-3.1","","58","","33","","19","","25.0","","99.92","","","","","","Mostly Cloudy"
"1998-11-02 19:00","1998","11","02","19:00","4.2","","-3.2","","59","","33","","19","","25.0","","99.95","","","","","","Mostly Cloudy"
"1998-11-02 20:00","1998","11","02","20:00","3.6","","-3.5","","60","","33","","19","","25.0","","99.92","","","","","","Mostly Cloudy"
"1998-11-02 21:00","1998","11","02","21:00","2.5","","-3.6","","64","","33","","19","","25.0","","99.95","","","","","","Mainly Clear"
"1998-11-02 22:00","1998","11","02","22:00","1.2","","-4.6","","65","","32","","19","","25.0","","99.95","","","","","","Clear"
"1998-11-02 23:00","1998","11","02","23:00","0.5","","-5.0","","67","","32","","13","","25.0","","99.92","","","","","","Clear"
"1998-11-03 00:00","1998","11","03","00:00","1.3","","-4.7","","64","","34","","19","","25.0","","99.92","","","","","","Clear"
"1998-11-03 01:00","1998","11","03","01:00","1.0","","-4.6","","66","","34","","20","","25.0","","99.95","","","","","","Clear"
"1998-11-03 02:00","1998","11","03","02:00","0.4","","-5.0","","67","","33","","22","","25.0","","99.95","","","","","","Clear"
"1998-11-03 03:00","1998","11","03","03:00","0.3","","-5.2","","67","","33","","20","","25.0","","99.89","","","","","","Clear"
"1998-11-03 04:00","1998","11","03","04:00","0.5","","-5.2","","66","","34","","19","","25.0","","99.85","","","","","","Clear"
"1998-11-03 05:00","1998","11","03","05:00","0.1","","-5.4","","66","","36","","17","","25.0","","99.85","","","","","","Clear"
"1998-11-03 06:00","1998","11","03","06:00","0.0","","-5.6","","66","","36","","22","","25.0","","99.82","","","","-6","","Clear"
"1998-11-03 07:00","1998","11","03","07:00","-0.7","","-6.0","","67","","31","","6","","32.2","","99.82","","","","-3","","Clear"
"1998-11-03 08:00","1998","11","03","08:00","0.0","","-5.3","","67","","35","","13","","32.2","","99.85","","","","-4","","Clear"
"1998-11-03 09:00","1998","11","03","09:00","1.3","","-5.3","","61","","35","","24","","32.2","","99.82","","","","","","Mainly Clear"
"1998-11-03 10:00","1998","11","03","10:00","2.5","","-5.4","","56","","34","","30","","32.2","","99.79","","","","","","Mainly Clear"
"1998-11-03 11:00","1998","11","03","11:00","3.4","","-5.5","","52","","35","","24","","32.2","","99.79","","","","","","Mainly Clear"
"1998-11-03 12:00","1998","11","03","12:00","4.3","","-5.4","","49","","33","","20","","32.2","","99.72","","","","","","Mainly Clear"
"1998-11-03 13:00","1998","11","03","13:00","4.6","","-5.2","","49","","36","","22","","32.2","","99.65","","","","","","Clear"
"1998-11-03 14:00","1998","11","03","14:00","5.3","","-5.7","","45","","32","","24","","32.2","","99.59","","","","","","Clear"
"1998-11-03 15:00","1998","11","03","15:00","5.2","","-5.6","","46","","34","","24","","32.2","","99.59","","","","","","Clear"
"1998-11-03 16:00","1998","11","03","16:00","3.9","","-5.7","","50","","36","","32","","32.2","","99.55","","","","","","Clear"
"1998-11-03 17:00","1998","11","03","17:00","2.5","","-5.6","","55","","34","","22","","32.2","","99.59","","","","","","Clear"
"1998-11-03 18:00","1998","11","03","18:00","1.3","","-5.8","","59","","33","","15","","25.0","","99.62","","","","","","Clear"
"1998-11-03 19:00","1998","11","03","19:00","-0.2","","-5.9","","65","","31","","13","","25.0","","99.59","","","","-4","","Clear"
"1998-11-03 20:00","1998","11","03","20:00","-1.4","","-5.7","","72","","31","","9","","25.0","","99.59","","","","-5","","Clear"
"1998-11-03 21:00","1998","11","03","21:00","-1.8","","-5.8","","74","","31","","9","","25.0","","99.59","","","","-5","","Clear"
"1998-11-03 22:00","1998","11","03","22:00","-1.6","","-5.9","","72","","28","","6","","25.0","","99.55","","","","-4","","Clear"
"1998-11-03 23:00","1998","11","03","23:00","-1.9","","-5.7","","75","","30","","2","","25.0","","99.55","","","","-3","","Mostly Cloudy"
"1998-11-04 00:00","1998","11","04","00:00","-0.3","","-5.2","","69","","34","","17","","25.0","","99.55","","","","-5","","Mostly Cloudy"
"1998-11-04 01:00","1998","11","04","01:00","-1.5","","-6.1","","71","","32","","11","","25.0","","99.59","","","","-5","","Mainly Clear"
"1998-11-04 02:00","1998","11","04","02:00","-1.9","","-6.5","","71","","34","","13","","25.0","","99.62","","","","-6","","Mainly Clear"
"1998-11-04 03:00","1998","11","04","03:00","-2.0","","-6.3","","72","","32","","7","","25.0","","99.59","","","","-5","","Mostly Cloudy"
"1998-11-04 04:00","1998","11","04","04:00","-1.8","","-6.3","","71","","31","","11","","25.0","","99.59","","","","-6","","Mostly Cloudy"
"1998-11-04 05:00","1998","11","04","05:00","-1.2","","-5.9","","70","","30","","17","","25.0","","99.62","","","","-6","","Mostly Cloudy"
"1998-11-04 06:00","1998","11","04","06:00","-1.9","","-5.7","","75","","30","","13","","25.0","","99.59","","","","-6","","Mostly Cloudy"
"1998-11-04 07:00","1998","11","04","07:00","-2.8","","-6.0","","79","","31","","13","","32.2","","99.65","","","","-7","","Mostly Cloudy"
"1998-11-04 08:00","1998","11","04","08:00","-1.4","","-6.1","","70","","31","","17","","32.2","","99.69","","","","-7","","Mostly Cloudy"
"1998-11-04 09:00","1998","11","04","09:00","-0.7","","-5.3","","71","","30","","17","","40.2","","99.69","","","","-6","","Mostly Cloudy"
"1998-11-04 10:00","1998","11","04","10:00","0.6","","-4.2","","70","","29","","13","","32.2","","99.69","","","","","","Mainly Clear"
"1998-11-04 11:00","1998","11","04","11:00","2.8","","-3.9","","61","","31","","17","","32.2","","99.69","","","","","","Mostly Cloudy"
"1998-11-04 12:00","1998","11","04","12:00","4.7","","-3.5","","55","","30","","22","","32.2","","99.62","","","","","","Mostly Cloudy"
"1998-11-04 13:00","1998","11","04","13:00","5.0","","-3.7","","53","","31","","24","","32.2","","99.59","","","","","","Mainly Clear"
"1998-11-04 14:00","1998","11","04","14:00","4.0","","-3.3","","59","","30","","20","","32.2","","99.59","","","","","","Mostly Cloudy"
"1998-11-04 15:00","1998","11","04","15:00","4.4","","-3.0","","59","","31","","19","","32.2","","99.62","","","","","","Mostly Cloudy"
"1998-11-04 16:00","1998","11","04","16:00","5.0","","-2.8","","57","","32","","15","","32.2","","99.59","","","","","","Mostly Cloudy"
"1998-11-04 17:00","1998","11","04","17:00","4.7","","-3.0","","57","","32","","17","","32.2","","99.62","","","","","","Mostly Cloudy"
"1998-11-04 18:00","1998","11","04","18:00","4.4","","-3.2","","58","","32","","15","","25.0","","99.65","","","","","","Mostly Cloudy"
"1998-11-04 19:00","1998","11","04","19:00","1.5","","-3.7","","68","","31","","11","","25.0","","99.69","","","","","","Mostly Cloudy"
"1998-11-04 20:00","1998","11","04","20:00","1.5","","-3.9","","67","","30","","11","","25.0","","99.69","","","","","","Mainly Clear"
"1998-11-04 21:00","1998","11","04","21:00","1.1","","-3.8","","70","","28","","11","","25.0","","99.69","","","","","","Mostly Cloudy"
"1998-11-04 22:00","1998","11","04","22:00","1.1","","-3.4","","72","","26","","6","","25.0","","99.69","","","","","","Mostly Cloudy"
"1998-11-04 23:00","1998","11","04","23:00","1.8","","-2.5","","73","","28","","7","","25.0","","99.62","","","","","","Mostly Cloudy"
"1998-11-05 00:00","1998","11","05","00:00","1.6","","-2.5","","74","","25","","4","","25.0","","99.59","","","","","","Mostly Cloudy"
"1998-11-05 01:00","1998","11","05","01:00","0.5","","-3.0","","77","","25","","7","","25.0","","99.59","","","","","","Mainly Clear"
"1998-11-05 02:00","1998","11","05","02:00","-0.7","","-3.4","","82","","29","","9","","25.0","","99.59","","","","-4","","Mainly Clear"
"1998-11-05 03:00","1998","11","05","03:00","-1.4","","-3.8","","84","","28","","7","","25.0","","99.59","","","","-4","","Mainly Clear"
"1998-11-05 04:00","1998","11","05","04:00","-0.6","","-2.9","","84","","29","","7","","25.0","","99.55","","","","-3","","Mainly Clear"
"1998-11-05 05:00","1998","11","05","05:00","-0.5","","-2.8","","84","","27","","4","","25.0","","99.55","","","","-2","","Mainly Clear"
"1998-11-05 06:00","1998","11","05","06:00","-0.6","","-2.5","","87","","29","","7","","25.0","","99.59","","","","-3","","Mostly Cloudy"
"1998-11-05 07:00","1998","11","05","07:00","1.3","","-0.6","","87","","33","","11","","24.1","","99.62","","","","","","Cloudy"
"1998-11-05 08:00","1998","11","05","08:00","1.8","","-0.9","","82","","32","","17","","19.3","","99.65","","","","","","Cloudy"
"1998-11-05 09:00","1998","11","05","09:00","2.4","","-1.2","","77","","34","","17","","24.1","","99.65","","","","","","Mostly Cloudy"
"1998-11-05 10:00","1998","11","05","10:00","3.6","","-1.6","","69","","35","","17","","24.1","","99.65","","","","","","Mostly Cloudy"
"1998-11-05 11:00","1998","11","05","11:00","3.5","","-2.4","","65","","34","","19","","24.1","","99.65","","","","","","Mostly Cloudy"
"1998-11-05 12:00","1998","11","05","12:00","3.4","","-2.9","","63","","36","","15","","24.1","","99.62","","","","","","Cloudy"
"1998-11-05 13:00","1998","11","05","13:00","2.9","","-3.0","","65","","32","","17","","24.1","","99.59","","","","","","Cloudy"
"1998-11-05 14:00","1998","11","05","14:00","2.8","","-3.0","","66","","35","","17","","24.1","","99.59","","","","","","Cloudy"
"1998-11-05 15:00","1998","11","05","15:00","2.4","","-4.0","","63","","35","","17","","24.1","","99.59","","","","","","Cloudy"
"1998-11-05 16:00","1998","11","05","16:00","2.7","","-4.2","","60","","32","","15","","24.1","","99.62","","","","","","Cloudy"
"1998-11-05 17:00","1998","11","05","17:00","2.4","","-4.3","","61","","34","","13","","24.1","","99.59","","","","","","Cloudy"
"1998-11-05 18:00","1998","11","05","18:00","2.3","","-4.3","","62","","32","","9","","24.1","","99.62","","","","","","Mostly Cloudy"
"1998-11-05 19:00","1998","11","05","19:00","2.1","","-3.8","","65","","33","","7","","24.1","","99.65","","","","","","Cloudy"
"1998-11-05 20:00","1998","11","05","20:00","1.6","","-1.8","","78","","32","","11","","19.3","","99.65","","","","","","Cloudy"
"1998-11-05 21:00","1998","11","05","21:00","1.6","","-1.7","","79","","31","","13","","19.3","","99.65","","","","","","Cloudy"
"1998-11-05 22:00","1998","11","05","22:00","1.8","","-1.6","","78","","32","","17","","24.1","","99.62","","","","","","Cloudy"
"1998-11-05 23:00","1998","11","05","23:00","1.4","","-2.3","","76","","33","","15","","24.1","","99.65","","","","","","Mostly Cloudy"
"1998-11-06 00:00","1998","11","06","00:00","1.1","","-2.4","","77","","1","","15","","24.1","","99.62","","","","","","Mostly Cloudy"
"1998-11-06 01:00","1998","11","06","01:00","0.6","","-2.2","","81","","36","","9","","24.1","","99.65","","","","","","Mostly Cloudy"
"1998-11-06 02:00","1998","11","06","02:00","-1.3","","-3.3","","86","","30","","4","","24.1","","99.62","","","","-3","","Mostly Cloudy"
"1998-11-06 03:00","1998","11","06","03:00","-0.6","","-2.6","","86","","31","","6","","24.1","","99.62","","","","-3","","Cloudy"
"1998-11-06 04:00","1998","11","06","04:00","-0.1","","-2.6","","83","","33","","4","","24.1","","99.59","","","","-1","","Mostly Cloudy"
"1998-11-06 05:00","1998","11","06","05:00","0.2","","-3.0","","79","","27","","6","","24.1","","99.59","","","","","","Mostly Cloudy"
"1998-11-06 06:00","1998","11","06","06:00","-0.2","","-2.8","","83","","","","0","","24.1","","99.59","","","","","","Mainly Clear"
"1998-11-06 07:00","1998","11","06","07:00","-0.2","","-3.0","","81","","26","","6","","24.1","","99.62","","","","-2","","Mostly Cloudy"
"1998-11-06 08:00","1998","11","06","08:00","1.2","","-2.8","","75","","27","","9","","32.2","","99.69","","","","","","Mostly Cloudy"
"1998-11-06 09:00","1998","11","06","09:00","2.1","","-3.6","","66","","26","","7","","32.2","","99.69","","","","","","Mostly Cloudy"
"1998-11-06 10:00","1998","11","06","10:00","3.7","","-3.7","","58","","26","","19","","32.2","","99.69","","","","","","Mostly Cloudy"
"1998-11-06 11:00","1998","11","06","11:00","5.1","","-3.8","","53","","26","","13","","32.2","","99.69","","","","","","Mostly Cloudy"
"1998-11-06 12:00","1998","11","06","12:00","6.8","","-3.4","","48","","27","","11","","32.2","","99.65","","","","","","Mostly Cloudy"
"1998-11-06 13:00","1998","11","06","13:00","6.2","","-3.7","","49","","29","","11","","40.2","","99.59","","","","","","Mostly Cloudy"
"1998-11-06 14:00","1998","11","06","14:00","6.7","","-3.4","","48","","28","","17","","40.2","","99.59","","","","","","Mostly Cloudy"
"1998-11-06 15:00","1998","11","06","15:00","6.6","","-2.6","","52","","26","","24","","40.2","","99.62","","","","","","Cloudy"
"1998-11-06 16:00","1998","11","06","16:00","6.2","","-1.0","","60","","25","","15","","32.2","","99.69","","","","","","Rain"
"1998-11-06 17:00","1998","11","06","17:00","4.8","","1.2","","77","","27","","13","","24.1","","99.72","","","","","","Rain"
"1998-11-06 18:00","1998","11","06","18:00","4.4","","1.5","","81","","26","","11","","24.1","","99.75","","","","","","Rain"
"1998-11-06 19:00","1998","11","06","19:00","4.5","","1.6","","81","","26","","15","","24.1","","99.79","","","","","","Rain"
"1998-11-06 20:00","1998","11","06","20:00","4.4","","1.4","","81","","25","","19","","24.1","","99.79","","","","","","Rain"
"1998-11-06 21:00","1998","11","06","21:00","4.3","","1.4","","81","","25","","19","","24.1","","99.82","","","","","","Cloudy"
"1998-11-06 22:00","1998","11","06","22:00","4.1","","1.6","","84","","24","","15","","24.1","","99.82","","","","","","Cloudy"
"1998-11-06 23:00","1998","11","06","23:00","4.1","","1.5","","83","","26","","17","","24.1","","99.82","","","","","","Mostly Cloudy"
"1998-11-07 00:00","1998","11","07","00:00","4.2","","1.6","","83","","25","","19","","24.1","","99.82","","","","","","Mostly Cloudy"
"1998-11-07 01:00","1998","11","07","01:00","4.1","","1.3","","82","","25","","19","","24.1","","99.85","","","","","","Mostly Cloudy"
"1998-11-07 02:00","1998","11","07","02:00","4.2","","1.6","","83","","27","","15","","24.1","","99.89","","","","","","Rain"
"1998-11-07 03:00","1998","11","07","03:00","4.1","","1.4","","83","","29","","15","","24.1","","99.89","","","","","","Rain"
"1998-11-07 04:00","1998","11","07","04:00","3.4","","0.8","","83","","29","","13","","24.1","","99.92","","","","","","Mostly Cloudy"
"1998-11-07 05:00","1998","11","07","05:00","3.0","","0.7","","85","","29","","13","","25.0","","99.99","","","","","","Mostly Cloudy"
"1998-11-07 06:00","1998","11","07","06:00","3.0","","0.8","","85","","27","","7","","24.1","","99.99","","","","","","Mostly Cloudy"
"1998-11-07 07:00","1998","11","07","07:00","4.1","","1.4","","83","","30","","17","","19.3","","100.05","","","","","","Cloudy"
"1998-11-07 08:00","1998","11","07","08:00","4.1","","1.5","","83","","36","","13","","19.3","","100.12","","","","","","Drizzle"
"1998-11-07 09:00","1998","11","07","09:00","4.2","","1.9","","85","","34","","19","","19.3","","100.19","","","","","","Mostly Cloudy"
"1998-11-07 10:00","1998","11","07","10:00","5.7","","2.2","","78","","31","","19","","19.3","","100.22","","","","","","Mostly Cloudy"
"1998-11-07 11:00","1998","11","07","11:00","5.2","","3.0","","86","","34","","13","","11.3","","100.32","","","","","","Rain"
"1998-11-07 12:00","1998","11","07","12:00","5.9","","3.1","","82","","34","","24","","12.9","","100.32","","","","","","Rain"
"1998-11-07 13:00","1998","11","07","13:00","6.9","","3.2","","77","","33","","17","","19.3","","100.32","","","","","","Mostly Cloudy"
"1998-11-07 14:00","1998","11","07","14:00","6.5","","3.5","","81","","31","","13","","16.1","","100.35","","","","","","Rain"
"1998-11-07 15:00","1998","11","07","15:00","6.4","","3.0","","79","","34","","19","","32.2","","100.39","","","","","","Mostly Cloudy"
"1998-11-07 16:00","1998","11","07","16:00","6.5","","2.2","","74","","34","","20","","32.2","","100.39","","","","","","Mostly Cloudy"
"1998-11-07 17:00","1998","11","07","17:00","6.1","","2.3","","77","","34","","13","","32.2","","100.45","","","","","","Cloudy"
"1998-11-07 18:00","1998","11","07","18:00","5.8","","1.9","","76","","34","","17","","25.0","","100.52","","","","","","Cloudy"
"1998-11-07 19:00","1998","11","07","19:00","5.7","","1.4","","74","","32","","17","","25.0","","100.55","","","","","","Cloudy"
"1998-11-07 20:00","1998","11","07","20:00","5.7","","0.3","","68","","32","","19","","24.1","","100.55","","","","","","Mostly Cloudy"
"1998-11-07 21:00","1998","11","07","21:00","5.7","","-0.1","","66","","29","","15","","24.1","","100.52","","","","","","Cloudy"
"1998-11-07 22:00","1998","11","07","22:00","5.5","","0.1","","68","","30","","15","","24.1","","100.55","","","","","","Cloudy"
"1998-11-07 23:00","1998","11","07","23:00","5.2","","0.4","","71","","29","","7","","24.1","","100.59","","","","","","Cloudy"
"1998-11-08 00:00","1998","11","08","00:00","5.1","","0.4","","72","","31","","11","","24.1","","100.59","","","","","","Cloudy"
"1998-11-08 01:00","1998","11","08","01:00","4.9","","0.5","","73","","31","","7","","24.1","","100.59","","","","","","Cloudy"
"1998-11-08 02:00","1998","11","08","02:00","4.8","","0.8","","75","","36","","4","","24.1","","100.52","","","","","","Cloudy"
"1998-11-08 03:00","1998","11","08","03:00","4.5","","1.0","","78","","","","0","","24.1","","100.52","","","","","","Cloudy"
"1998-11-08 04:00","1998","11","08","04:00","4.4","","0.4","","75","","26","","4","","24.1","","100.52","","","","","","Cloudy"
"1998-11-08 05:00","1998","11","08","05:00","4.1","","0.1","","75","","27","","6","","24.1","","100.52","","","","","","Cloudy"
"1998-11-08 06:00","1998","11","08","06:00","3.8","","0.0","","76","","27","","4","","24.1","","100.52","","","","","","Cloudy"
"1998-11-08 07:00","1998","11","08","07:00","3.8","","0.0","","76","","31","","7","","25.0","","100.49","","","","","","Cloudy"
"1998-11-08 08:00","1998","11","08","08:00","3.4","","-0.2","","77","","28","","4","","32.2","","100.52","","","","","","Mostly Cloudy"
"1998-11-08 09:00","1998","11","08","09:00","4.2","","0.5","","77","","30","","4","","24.1","","100.52","","","","","","Mostly Cloudy"
"1998-11-08 10:00","1998","11","08","10:00","5.1","","0.5","","72","","26","","6","","24.1","","100.49","","","","","","Mostly Cloudy"
"1998-11-08 11:00","1998","11","08","11:00","6.6","","0.4","","65","","32","","4","","32.2","","100.42","","","","","","Mostly Cloudy"
"1998-11-08 12:00","1998","11","08","12:00","7.0","","0.0","","61","","","","0","","32.2","","100.35","","","","","","Mostly Cloudy"
"1998-11-08 13:00","1998","11","08","13:00","7.4","","-0.1","","59","","34","","4","","32.2","","100.25","","","","","","Mostly Cloudy"
"1998-11-08 14:00","1998","11","08","14:00","7.7","","-0.2","","57","","26","","2","","32.2","","100.22","","","","","","Mostly Cloudy"
"1998-11-08 15:00","1998","11","08","15:00","6.7","","0.1","","63","","17","","9","","40.2","","100.19","","","","","","Cloudy"
"1998-11-08 16:00","1998","11","08","16:00","6.6","","0.7","","66","","16","","7","","40.2","","100.19","","","","","","Cloudy"
"1998-11-08 17:00","1998","11","08","17:00","6.6","","0.7","","66","","14","","6","","32.2","","100.22","","","","","","Cloudy"
"1998-11-08 18:00","1998","11","08","18:00","6.4","","1.3","","70","","15","","7","","25.0","","100.19","","","","","","Cloudy"
"1998-11-08 19:00","1998","11","08","19:00","6.2","","1.8","","73","","16","","6","","25.0","","100.19","","","","","","Cloudy"
"1998-11-08 20:00","1998","11","08","20:00","5.9","","2.1","","77","","17","","4","","25.0","","100.19","","","","","","Mostly Cloudy"
"1998-11-08 21:00","1998","11","08","21:00","5.8","","1.9","","76","","23","","6","","24.1","","100.19","","","","","","Cloudy"
"1998-11-08 22:00","1998","11","08","22:00","5.6","","1.8","","77","","25","","6","","24.1","","100.19","","","","","","Cloudy"
"1998-11-08 23:00","1998","11","08","23:00","5.3","","2.2","","80","","26","","4","","24.1","","100.19","","","","","","Cloudy"
"1998-11-09 00:00","1998","11","09","00:00","4.9","","2.5","","84","","25","","4","","16.1","","100.19","","","","","","Rain"
"1998-11-09 01:00","1998","11","09","01:00","5.1","","2.7","","84","","","","0","","16.1","","100.19","","","","","","Rain"
"1998-11-09 02:00","1998","11","09","02:00","5.1","","2.9","","86","","","","0","","16.1","","100.22","","","","","","Rain"
"1998-11-09 03:00","1998","11","09","03:00","5.1","","3.0","","86","","","","0","","12.9","","100.22","","","","","","Rain"
"1998-11-09 04:00","1998","11","09","04:00","4.8","","3.5","","91","","","","0","","12.9","","100.25","","","","","","Rain"
"1998-11-09 05:00","1998","11","09","05:00","4.9","","3.3","","89","","","","0","","12.9","","100.25","","","","","","Rain"
"1998-11-09 06:00","1998","11","09","06:00","5.0","","3.5","","90","","","","0","","9.7","","100.25","","","","","","Rain,Fog"
"1998-11-09 07:00","1998","11","09","07:00","5.1","","3.8","","91","","19","","6","","9.7","","100.32","","","","","","Rain,Fog"
"1998-11-09 08:00","1998","11","09","08:00","5.3","","3.4","","88","","23","","4","","8.0","","100.35","","","","","","Fog"
"1998-11-09 09:00","1998","11","09","09:00","5.8","","3.1","","83","","24","","6","","8.0","","100.35","","","","","","Haze"
"1998-11-09 10:00","1998","11","09","10:00","6.2","","2.7","","78","","22","","9","","9.7","","100.35","","","","","","Haze"
"1998-11-09 11:00","1998","11","09","11:00","6.6","","2.5","","75","","23","","7","","9.7","","100.35","","","","","","Haze"
"1998-11-09 12:00","1998","11","09","12:00","6.7","","2.3","","73","","21","","11","","11.3","","100.32","","","","","","Cloudy"
"1998-11-09 13:00","1998","11","09","13:00","7.6","","1.2","","64","","21","","6","","11.3","","100.29","","","","","","Cloudy"
"1998-11-09 14:00","1998","11","09","14:00","8.5","","1.5","","61","","25","","4","","11.3","","100.25","","","","","","Cloudy"
"1998-11-09 15:00","1998","11","09","15:00","7.9","","3.2","","72","","13","","15","","11.3","","100.22","","","","","","Mostly Cloudy"
"1998-11-09 16:00","1998","11","09","16:00","7.2","","2.5","","72","","14","","15","","11.3","","100.22","","","","","","Mainly Clear"
"1998-11-09 17:00","1998","11","09","17:00","6.6","","3.0","","78","","14","","9","","8.0","","100.25","","","","","","Haze"
"1998-11-09 18:00","1998","11","09","18:00","6.7","","3.2","","78","","14","","9","","8.0","","100.29","","","","","","Haze"
"1998-11-09 19:00","1998","11","09","19:00","6.6","","2.9","","77","","13","","9","","8.0","","100.29","","","","","","Haze"
"1998-11-09 20:00","1998","11","09","20:00","5.5","","2.9","","83","","15","","7","","8.0","","100.29","","","","","","Haze"
"1998-11-09 21:00","1998","11","09","21:00","5.2","","2.7","","84","","16","","4","","8.0","","100.29","","","","","","Haze"
"1998-11-09 22:00","1998","11","09","22:00","6.0","","2.0","","75","","14","","4","","8.0","","100.29","","","","","","Haze"
"1998-11-09 23:00","1998","11","09","23:00","6.1","","2.3","","77","","14","","4","","8.0","","100.32","","","","","","Haze"
"1998-11-10 00:00","1998","11","10","00:00","5.8","","2.1","","77","","","","0","","9.7","","100.32","","","","","","Haze"
"1998-11-10 01:00","1998","11","10","01:00","5.5","","3.4","","86","","10","","6","","8.0","","100.25","","","","","","Haze"
"1998-11-10 02:00","1998","11","10","02:00","5.9","","3.9","","87","","11","","9","","9.7","","100.15","","","","","","Haze"
"1998-11-10 03:00","1998","11","10","03:00","6.7","","4.8","","88","","9","","13","","9.7","","100.09","","","","","","Haze"
"1998-11-10 04:00","1998","11","10","04:00","7.2","","4.1","","81","","10","","17","","9.7","","99.99","","","","","","Rain,Haze"
"1998-11-10 05:00","1998","11","10","05:00","6.9","","4.9","","87","","10","","20","","8.0","","99.89","","","","","","Rain,Haze"
"1998-11-10 06:00","1998","11","10","06:00","6.5","","4.7","","88","","11","","20","","8.0","","99.82","","","","","","Rain,Haze"
"1998-11-10 07:00","1998","11","10","07:00","6.6","","5.3","","91","","11","","24","","8.0","","99.75","","","","","","Rain,Fog"
"1998-11-10 08:00","1998","11","10","08:00","6.6","","5.0","","90","","11","","24","","8.0","","99.62","","","","","","Rain,Fog"
"1998-11-10 09:00","1998","11","10","09:00","6.9","","4.6","","85","","12","","32","","8.0","","99.55","","","","","","Rain,Haze"
"1998-11-10 10:00","1998","11","10","10:00","7.0","","5.3","","89","","12","","24","","6.4","","99.35","","","","","","Rain,Fog"
"1998-11-10 11:00","1998","11","10","11:00","6.8","","5.9","","94","","11","","28","","1.6","","99.22","","","","","","Moderate Rain,Fog"
"1998-11-10 12:00","1998","11","10","12:00","7.1","","6.5","","96","","11","","32","","4.0","","98.99","","","","","","Rain Showers,Fog"
"1998-11-10 13:00","1998","11","10","13:00","7.6","","6.8","","95","","12","","32","","2.4","","98.72","","","","","","Rain,Fog"
"1998-11-10 14:00","1998","11","10","14:00","8.0","","7.5","","97","","10","","26","","4.0","","98.56","","","","","","Thunderstorms,Rain Showers,Fog"
"1998-11-10 15:00","1998","11","10","15:00","8.7","","8.0","","95","","10","","28","","9.7","","98.39","","","","","","Fog"
"1998-11-10 16:00","1998","11","10","16:00","9.7","","8.6","","93","","10","","24","","11.3","","98.26","","","","","","Cloudy"
"1998-11-10 17:00","1998","11","10","17:00","10.7","","8.8","","88","","11","","32","","8.0","","98.06","","","","","","Rain,Fog"
"1998-11-10 18:00","1998","11","10","18:00","10.5","","8.6","","88","","12","","35","","6.4","","97.82","","","","","","Rain,Fog"
"1998-11-10 19:00","1998","11","10","19:00","11.6","","8.7","","82","","17","","17","","11.3","","97.96","","","","","","Rain"
"1998-11-10 20:00","1998","11","10","20:00","12.5","","10.2","","86","","18","","32","","8.0","","97.82","","","","","","Moderate Rain"
"1998-11-10 21:00","1998","11","10","21:00","11.4","","9.5","","88","","20","","37","","9.7","","97.96","","","","","","Rain"
"1998-11-10 22:00","1998","11","10","22:00","11.4","","9.7","","89","","21","","17","","19.3","","97.92","","","","","","Rain"
"1998-11-10 23:00","1998","11","10","23:00","12.1","","7.1","","71","","22","","28","","25.0","","97.99","","","","","","Mostly Cloudy"
"1998-11-11 00:00","1998","11","11","00:00","10.7","","1.9","","54","","23","","44","","25.0","","97.99","","","","","","Mainly Clear"
"1998-11-11 01:00","1998","11","11","01:00","10.0","","0.3","","51","","22","","46","","25.0","","98.02","","","","","","Mostly Cloudy"
"1998-11-11 02:00","1998","11","11","02:00","9.5","","-1.1","","47","","22","","61","","25.0","","98.06","","","","","","Clear"
"1998-11-11 03:00","1998","11","11","03:00","8.3","","-1.8","","49","","22","","59","","25.0","","98.16","","","","","","Mainly Clear"
"1998-11-11 04:00","1998","11","11","04:00","7.4","","-2.0","","51","","22","","44","","25.0","","98.22","","","","","","Mainly Clear"
"1998-11-11 05:00","1998","11","11","05:00","7.3","","-2.2","","51","","23","","54","","25.0","","98.39","","","","","","Mostly Cloudy"
"1998-11-11 06:00","1998","11","11","06:00","6.6","","-2.9","","51","","24","","48","","25.0","","98.49","","","","","","Cloudy"
"1998-11-11 07:00","1998","11","11","07:00","6.4","","-2.4","","53","","23","","37","","24.1","","98.56","","","","","","Cloudy"
"1998-11-11 08:00","1998","11","11","08:00","6.5","","-2.3","","53","","22","","43","","32.2","","98.66","","","","","","Cloudy"
"1998-11-11 09:00","1998","11","11","09:00","6.7","","-2.1","","53","","22","","43","","32.2","","98.69","","","","","","Mostly Cloudy"
"1998-11-11 10:00","1998","11","11","10:00","7.1","","-1.6","","54","","23","","37","","24.1","","98.72","","","","","","Mostly Cloudy"
"1998-11-11 11:00","1998","11","11","11:00","6.6","","-1.2","","57","","24","","56","","32.2","","98.82","","","","","","Cloudy"
"1998-11-11 12:00","1998","11","11","12:00","5.7","","0.3","","68","","24","","44","","19.3","","98.92","","","","","","Rain Showers"
"1998-11-11 13:00","1998","11","11","13:00","5.7","","0.5","","69","","24","","41","","24.1","","99.02","","","","","","Cloudy"
"1998-11-11 14:00","1998","11","11","14:00","5.8","","-0.2","","65","","24","","41","","24.1","","99.16","","","","","","Rain Showers"
"1998-11-11 15:00","1998","11","11","15:00","5.5","","-0.2","","67","","25","","35","","24.1","","99.29","","","","","","Rain Showers"
"1998-11-11 16:00","1998","11","11","16:00","5.0","","0.4","","72","","24","","24","","24.1","","99.39","","","","","","Rain Showers"
"1998-11-11 17:00","1998","11","11","17:00","5.4","","-0.7","","65","","23","","30","","24.1","","99.49","","","","","","Cloudy"
"1998-11-11 18:00","1998","11","11","18:00","5.5","","-0.8","","64","","23","","28","","24.1","","99.59","","","","","","Mostly Cloudy"
"1998-11-11 19:00","1998","11","11","19:00","5.7","","-1.0","","62","","23","","24","","24.1","","99.62","","","","","","Mostly Cloudy"
"1998-11-11 20:00","1998","11","11","20:00","5.7","","-0.8","","63","","24","","26","","24.1","","99.69","","","","","","Mostly Cloudy"
"1998-11-11 21:00","1998","11","11","21:00","5.2","","-2.6","","57","","25","","28","","24.1","","99.79","","","","","","Mostly Cloudy"
"1998-11-11 22:00","1998","11","11","22:00","5.2","","-2.9","","56","","26","","32","","24.1","","99.85","","","","","","Cloudy"
"1998-11-11 23:00","1998","11","11","23:00","4.9","","-3.3","","55","","26","","28","","24.1","","99.89","","","","","","Cloudy"
"1998-11-12 00:00","1998","11","12","00:00","4.7","","-3.3","","56","","25","","24","","24.1","","99.92","","","","","","Mostly Cloudy"
"1998-11-12 01:00","1998","11","12","01:00","4.0","","-3.4","","58","","26","","28","","24.1","","99.99","","","","","","Mainly Clear"
"1998-11-12 02:00","1998","11","12","02:00","3.5","","-3.4","","61","","24","","13","","24.1","","100.05","","","","","","Clear"
"1998-11-12 03:00","1998","11","12","03:00","2.7","","-3.3","","65","","24","","13","","24.1","","100.12","","","","","","Clear"
"1998-11-12 04:00","1998","11","12","04:00","2.1","","-3.0","","69","","22","","11","","24.1","","100.19","","","","","","Clear"
"1998-11-12 05:00","1998","11","12","05:00","1.6","","-2.8","","73","","23","","15","","24.1","","100.29","","","","","","Clear"
"1998-11-12 06:00","1998","11","12","06:00","1.5","","-2.7","","74","","23","","17","","19.3","","100.35","","","","","","Clear"
"1998-11-12 07:00","1998","11","12","07:00","1.4","","-2.7","","74","","23","","13","","24.1","","100.39","","","","","","Clear"
"1998-11-12 08:00","1998","11","12","08:00","2.1","","-2.2","","73","","22","","17","","19.3","","100.39","","","","","","Clear"
"1998-11-12 09:00","1998","11","12","09:00","3.5","","-1.5","","70","","23","","17","","19.3","","100.35","","","","","","Mainly Clear"
"1998-11-12 10:00","1998","11","12","10:00","6.2","","-0.3","","63","","24","","22","","19.3","","100.32","","","","","","Mainly Clear"
"1998-11-12 11:00","1998","11","12","11:00","8.5","","0.1","","55","","23","","28","","19.3","","100.22","","","","","","Mainly Clear"
"1998-11-12 12:00","1998","11","12","12:00","9.6","","-1.2","","47","","24","","46","","19.3","","100.15","","","","","","Mostly Cloudy"
"1998-11-12 13:00","1998","11","12","13:00","10.0","","1.3","","55","","25","","37","","19.3","","100.05","","","","","","Mostly Cloudy"
"1998-11-12 14:00","1998","11","12","14:00","10.0","","-0.7","","47","","24","","37","","19.3","","99.99","","","","","","Mostly Cloudy"
"1998-11-12 15:00","1998","11","12","15:00","9.3","","-1.6","","46","","26","","41","","19.3","","99.99","","","","","","Mostly Cloudy"
"1998-11-12 16:00","1998","11","12","16:00","6.8","","1.6","","69","","24","","41","","24.1","","100.05","","","","","","Rain Showers"
"1998-11-12 17:00","1998","11","12","17:00","5.4","","2.4","","81","","23","","22","","19.3","","100.09","","","","","","Rain Showers"
"1998-11-12 18:00","1998","11","12","18:00","5.4","","2.5","","82","","23","","17","","16.1","","100.15","","","","","","Mostly Cloudy"
"1998-11-12 19:00","1998","11","12","19:00","5.7","","1.9","","77","","26","","19","","16.1","","100.19","","","","","","Mostly Cloudy"
"1998-11-12 20:00","1998","11","12","20:00","4.6","","0.4","","74","","25","","13","","19.3","","100.19","","","","","","Mainly Clear"
"1998-11-12 21:00","1998","11","12","21:00","3.0","","0.1","","81","","30","","13","","19.3","","100.22","","","","","","Mostly Cloudy"
"1998-11-12 22:00","1998","11","12","22:00","2.3","","-0.9","","79","","33","","7","","19.3","","100.29","","","","","","Mostly Cloudy"
"1998-11-12 23:00","1998","11","12","23:00","2.0","","-2.0","","75","","33","","9","","24.1","","100.25","","","","","","Mostly Cloudy"
"1998-11-13 00:00","1998","11","13","00:00","1.6","","-3.5","","69","","31","","6","","24.1","","100.22","","","","","","Mostly Cloudy"
"1998-11-13 01:00","1998","11","13","01:00","1.3","","-3.5","","70","","30","","6","","24.1","","100.19","","","","","","Mostly Cloudy"
"1998-11-13 02:00","1998","11","13","02:00","0.6","","-4.0","","71","","30","","7","","24.1","","100.19","","","","","","Mainly Clear"
"1998-11-13 03:00","1998","11","13","03:00","-0.2","","-3.1","","81","","27","","6","","24.1","","100.19","","","","-2","","Clear"
"1998-11-13 04:00","1998","11","13","04:00","-0.6","","-3.7","","80","","24","","9","","24.1","","100.15","","","","-4","","Clear"
"1998-11-13 05:00","1998","11","13","05:00","-0.9","","-3.9","","80","","27","","9","","24.1","","100.15","","","","-4","","Mainly Clear"
"1998-11-13 06:00","1998","11","13","06:00","-0.8","","-3.7","","81","","26","","9","","24.1","","100.19","","","","-4","","Mainly Clear"
"1998-11-13 07:00","1998","11","13","07:00","-0.2","","-4.7","","72","","25","","11","","25.0","","100.15","","","","-4","","Mainly Clear"
"1998-11-13 08:00","1998","11","13","08:00","0.2","","-3.8","","74","","23","","13","","32.2","","100.15","","","","","","Mostly Cloudy"
"1998-11-13 09:00","1998","11","13","09:00","0.9","","-4.2","","69","","26","","13","","32.2","","100.15","","","","","","Mostly Cloudy"
"1998-11-13 10:00","1998","11","13","10:00","2.9","","-4.1","","60","","26","","22","","32.2","","100.15","","","","","","Mostly Cloudy"
"1998-11-13 11:00","1998","11","13","11:00","2.8","","-5.1","","56","","26","","22","","32.2","","100.15","","","","","","Mostly Cloudy"
"1998-11-13 12:00","1998","11","13","12:00","4.4","","-5.5","","49","","28","","26","","32.2","","100.05","","","","","","Mostly Cloudy"
"1998-11-13 13:00","1998","11","13","13:00","4.3","","-5.0","","51","","25","","15","","32.2","","100.02","","","","","","Mostly Cloudy"
"1998-11-13 14:00","1998","11","13","14:00","4.5","","-5.3","","49","","26","","13","","32.2","","99.95","","","","","","Mostly Cloudy"
"1998-11-13 15:00","1998","11","13","15:00","4.8","","-4.6","","51","","24","","15","","32.2","","99.89","","","","","","Cloudy"
"1998-11-13 16:00","1998","11","13","16:00","4.2","","-4.4","","53","","23","","13","","32.2","","99.89","","","","","","Mostly Cloudy"
"1998-11-13 17:00","1998","11","13","17:00","4.1","","-4.4","","54","","22","","9","","32.2","","99.85","","","","","","Mostly Cloudy"
"1998-11-13 18:00","1998","11","13","18:00","4.0","","-4.0","","56","","21","","7","","25.0","","99.79","","","","","","Mostly Cloudy"
"1998-11-13 19:00","1998","11","13","19:00","3.4","","-3.9","","59","","19","","7","","25.0","","99.79","","","","","","Mostly Cloudy"
"1998-11-13 20:00","1998","11","13","20:00","3.6","","-4.4","","56","","19","","9","","25.0","","99.72","","","","","","Mostly Cloudy"
"1998-11-13 21:00","1998","11","13","21:00","3.4","","-5.5","","52","","19","","9","","25.0","","99.69","","","","","","Mostly Cloudy"
"1998-11-13 22:00","1998","11","13","22:00","2.4","","-6.2","","53","","18","","7","","25.0","","99.69","","","","","","Mostly Cloudy"
"1998-11-13 23:00","1998","11","13","23:00","2.2","","-6.6","","52","","19","","4","","25.0","","99.65","","","","","","Mostly Cloudy"
"1998-11-14 00:00","1998","11","14","00:00","1.7","","-6.0","","57","","16","","4","","25.0","","99.59","","","","","","Mostly Cloudy"
"1998-11-14 01:00","1998","11","14","01:00","1.1","","-5.4","","62","","14","","4","","25.0","","99.52","","","","","","Mostly Cloudy"
"1998-11-14 02:00","1998","11","14","02:00","0.8","","-5.1","","65","","15","","4","","25.0","","99.45","","","","","","Mostly Cloudy"
"1998-11-14 03:00","1998","11","14","03:00","1.0","","-4.4","","67","","20","","4","","25.0","","99.39","","","","","","Mostly Cloudy"
"1998-11-14 04:00","1998","11","14","04:00","1.1","","-4.2","","68","","12","","4","","25.0","","99.29","","","","","","Mostly Cloudy"
"1998-11-14 05:00","1998","11","14","05:00","1.1","","-3.3","","72","","10","","4","","24.1","","99.26","","","","","","Mostly Cloudy"
"1998-11-14 06:00","1998","11","14","06:00","0.6","","-3.4","","75","","","","0","","24.1","","99.19","","","","","","Cloudy"
"1998-11-14 07:00","1998","11","14","07:00","2.4","","-0.7","","80","","15","","4","","12.9","","99.09","","","","","","Mostly Cloudy"
"1998-11-14 08:00","1998","11","14","08:00","2.0","","-0.7","","82","","","","0","","11.3","","99.09","","","","","","Mostly Cloudy"
"1998-11-14 09:00","1998","11","14","09:00","3.6","","1.6","","87","","","","0","","8.0","","99.06","","","","","","Fog"
"1998-11-14 10:00","1998","11","14","10:00","7.2","","3.0","","75","","14","","7","","9.7","","98.96","","","","","","Haze"
"1998-11-14 11:00","1998","11","14","11:00","8.1","","3.5","","73","","18","","11","","11.3","","98.86","","","","","","Mostly Cloudy"
"1998-11-14 12:00","1998","11","14","12:00","9.0","","4.5","","73","","15","","15","","11.3","","98.69","","","","","","Cloudy"
"1998-11-14 13:00","1998","11","14","13:00","9.3","","4.8","","73","","15","","15","","9.7","","98.56","","","","","","Haze"
"1998-11-14 14:00","1998","11","14","14:00","9.2","","5.3","","77","","15","","9","","4.8","","98.49","","","","","","Rain Showers,Haze"
"1998-11-14 15:00","1998","11","14","15:00","9.6","","4.8","","72","","21","","20","","12.9","","98.42","","","","","","Rain"
"1998-11-14 16:00","1998","11","14","16:00","9.2","","4.4","","72","","20","","20","","19.3","","98.36","","","","","","Cloudy"
"1998-11-14 17:00","1998","11","14","17:00","8.7","","4.4","","74","","20","","13","","19.3","","98.29","","","","","","Cloudy"
"1998-11-14 18:00","1998","11","14","18:00","9.0","","4.5","","73","","20","","15","","12.9","","98.22","","","","","","Cloudy"
"1998-11-14 19:00","1998","11","14","19:00","9.1","","4.2","","71","","20","","9","","12.9","","98.19","","","","","","Cloudy"
"1998-11-14 20:00","1998","11","14","20:00","9.6","","4.0","","68","","21","","11","","16.1","","98.09","","","","","","Rain"
"1998-11-14 21:00","1998","11","14","21:00","9.7","","4.5","","70","","20","","13","","16.1","","98.02","","","","","","Cloudy"
"1998-11-14 22:00","1998","11","14","22:00","9.5","","6.0","","79","","21","","19","","12.9","","97.92","","","","","","Rain"
"1998-11-14 23:00","1998","11","14","23:00","10.2","","7.1","","81","","23","","22","","12.9","","97.86","","","","","","Cloudy"
"1998-11-15 00:00","1998","11","15","00:00","10.0","","6.0","","76","","26","","26","","16.1","","97.89","","","","","","Cloudy"
"1998-11-15 01:00","1998","11","15","01:00","8.6","","3.4","","70","","28","","33","","16.1","","98.02","","","","","","Cloudy"
"1998-11-15 02:00","1998","11","15","02:00","7.8","","2.2","","68","","27","","32","","24.1","","98.09","","","","","","Cloudy"
"1998-11-15 03:00","1998","11","15","03:00","7.0","","2.6","","74","","28","","30","","25.0","","98.19","","","","","","Mostly Cloudy"
"1998-11-15 04:00","1998","11","15","04:00","6.2","","1.6","","72","","28","","32","","25.0","","98.29","","","","","","Mainly Clear"
"1998-11-15 05:00","1998","11","15","05:00","5.8","","1.3","","73","","27","","33","","24.1","","98.42","","","","","","Rain"
"1998-11-15 06:00","1998","11","15","06:00","5.8","","0.3","","68","","29","","28","","25.0","","98.59","","","","","","Mostly Cloudy"
"1998-11-15 07:00","1998","11","15","07:00","4.9","","0.7","","74","","28","","22","","24.1","","98.66","","","","","","Mainly Clear"
"1998-11-15 08:00","1998","11","15","08:00","5.0","","-0.3","","69","","27","","11","","32.2","","98.79","","","","","","Mostly Cloudy"
"1998-11-15 09:00","1998","11","15","09:00","5.7","","0.2","","68","","27","","32","","32.2","","98.86","","","","","","Mostly Cloudy"
"1998-11-15 10:00","1998","11","15","10:00","6.0","","-0.4","","63","","28","","30","","32.2","","98.86","","","","","","Mainly Clear"
"1998-11-15 11:00","1998","11","15","11:00","6.8","","-0.5","","60","","27","","33","","32.2","","98.92","","","","","","Mostly Cloudy"
"1998-11-15 12:00","1998","11","15","12:00","5.8","","-0.2","","65","","27","","24","","24.1","","98.92","","","","","","Rain"
"1998-11-15 13:00","1998","11","15","13:00","5.7","","-2.3","","56","","28","","37","","32.2","","98.96","","","","","","Rain"
"1998-11-15 14:00","1998","11","15","14:00","6.0","","-3.5","","50","","29","","32","","24.1","","98.92","","","","","","Mostly Cloudy"
"1998-11-15 15:00","1998","11","15","15:00","5.7","","-3.4","","52","","26","","26","","40.2","","98.96","","","","","","Cloudy"
"1998-11-15 16:00","1998","11","15","16:00","5.5","","-1.8","","59","","26","","33","","40.2","","99.02","","","","","","Mostly Cloudy"
"1998-11-15 17:00","1998","11","15","17:00","4.5","","-1.6","","65","","27","","20","","40.2","","99.02","","","","","","Mostly Cloudy"
"1998-11-15 18:00","1998","11","15","18:00","4.6","","-2.2","","61","","26","","17","","25.0","","99.09","","","","","","Mostly Cloudy"
"1998-11-15 19:00","1998","11","15","19:00","3.8","","-1.7","","67","","25","","13","","25.0","","99.09","","","","","","Mainly Clear"
"1998-11-15 20:00","1998","11","15","20:00","3.4","","-1.8","","69","","25","","9","","25.0","","99.09","","","","","","Clear"
"1998-11-15 21:00","1998","11","15","21:00","2.7","","-2.3","","70","","23","","11","","25.0","","99.09","","","","","","Clear"
"1998-11-15 22:00","1998","11","15","22:00","2.7","","-1.8","","72","","25","","13","","25.0","","99.12","","","","","","Mainly Clear"
"1998-11-15 23:00","1998","11","15","23:00","1.8","","-2.1","","75","","25","","11","","25.0","","99.12","","","","","","Clear"
"1998-11-16 00:00","1998","11","16","00:00","1.8","","-2.0","","76","","25","","13","","25.0","","99.16","","","","","","Mostly Cloudy"
"1998-11-16 01:00","1998","11","16","01:00","1.7","","-2.0","","76","","25","","11","","25.0","","99.19","","","","","","Mainly Clear"
"1998-11-16 02:00","1998","11","16","02:00","2.0","","-1.8","","76","","27","","15","","25.0","","99.19","","","","","","Mostly Cloudy"
"1998-11-16 03:00","1998","11","16","03:00","2.1","","-1.4","","78","","26","","13","","25.0","","99.19","","","","","","Mostly Cloudy"
"1998-11-16 04:00","1998","11","16","04:00","2.3","","-1.2","","78","","30","","6","","25.0","","99.19","","","","","","Mostly Cloudy"
"1998-11-16 05:00","1998","11","16","05:00","2.5","","-0.8","","79","","","","0","","25.0","","99.19","","","","","","Mostly Cloudy"
"1998-11-16 06:00","1998","11","16","06:00","2.6","","-0.7","","79","","24","","9","","25.0","","99.26","","","","","","Cloudy"
"1998-11-16 07:00","1998","11","16","07:00","2.6","","-0.5","","80","","25","","6","","24.1","","99.22","","","","","","Cloudy"
"1998-11-16 08:00","1998","11","16","08:00","3.0","","0.7","","85","","23","","6","","9.7","","99.29","","","","","","Rain,Fog"
"1998-11-16 09:00","1998","11","16","09:00","2.4","","0.7","","89","","19","","4","","8.0","","99.32","","","","","","Rain,Ice Pellets,Fog"
"1998-11-16 10:00","1998","11","16","10:00","2.7","","1.3","","90","","19","","7","","8.0","","99.29","","","","","","Rain,Ice Pellets,Fog"
"1998-11-16 11:00","1998","11","16","11:00","2.9","","1.5","","90","","13","","4","","4.8","","99.26","","","","","","Rain,Ice Pellets,Fog"
"1998-11-16 12:00","1998","11","16","12:00","3.3","","2.2","","92","","13","","6","","3.6","","99.16","","","","","","Rain,Ice Pellets,Fog"
"1998-11-16 13:00","1998","11","16","13:00","3.1","","1.7","","91","","14","","9","","8.0","","99.09","","","","","","Rain,Fog"
"1998-11-16 14:00","1998","11","16","14:00","3.0","","2.1","","94","","10","","11","","6.4","","98.99","","","","","","Rain,Fog"
"1998-11-16 15:00","1998","11","16","15:00","3.3","","2.4","","94","","11","","11","","6.4","","98.99","","","","","","Rain,Fog"
"1998-11-16 16:00","1998","11","16","16:00","3.0","","2.2","","94","","8","","13","","4.8","","98.89","","","","","","Rain,Fog"
"1998-11-16 17:00","1998","11","16","17:00","3.3","","2.4","","94","","9","","13","","6.4","","98.92","","","","","","Rain,Fog"
"1998-11-16 18:00","1998","11","16","18:00","3.6","","2.7","","94","","8","","17","","8.0","","98.89","","","","","","Rain,Fog"
"1998-11-16 19:00","1998","11","16","19:00","4.0","","3.2","","95","","8","","19","","4.8","","98.89","","","","","","Rain,Fog"
"1998-11-16 20:00","1998","11","16","20:00","4.4","","3.5","","94","","8","","13","","6.4","","98.89","","","","","","Rain,Drizzle,Fog"
"1998-11-16 21:00","1998","11","16","21:00","4.2","","3.4","","95","","7","","15","","6.4","","98.89","","","","","","Rain,Fog"
"1998-11-16 22:00","1998","11","16","22:00","3.4","","2.6","","94","","6","","19","","6.4","","98.86","","","","","","Rain,Fog"
"1998-11-16 23:00","1998","11","16","23:00","2.7","","2.0","","95","","6","","19","","6.4","","98.82","","","","","","Rain,Fog"
"1998-11-17 00:00","1998","11","17","00:00","2.3","","1.2","","92","","6","","17","","8.0","","98.82","","","","","","Rain,Fog"
"1998-11-17 01:00","1998","11","17","01:00","1.9","","1.1","","94","","5","","15","","8.0","","98.86","","","","","","Rain,Fog"
"1998-11-17 02:00","1998","11","17","02:00","1.6","","0.4","","92","","5","","19","","4.8","","98.89","","","","","","Rain,Fog"
"1998-11-17 03:00","1998","11","17","03:00","1.2","","0.2","","93","","2","","13","","4.8","","98.96","","","","","","Rain,Fog"
"1998-11-17 04:00","1998","11","17","04:00","1.1","","0.0","","92","","3","","13","","6.4","","98.96","","","","","","Rain,Fog"
"1998-11-17 05:00","1998","11","17","05:00","1.2","","0.0","","92","","35","","17","","9.7","","99.02","","","","","","Rain,Fog"
"1998-11-17 06:00","1998","11","17","06:00","0.7","","-0.8","","90","","35","","19","","12.9","","99.12","","","","","","Cloudy"
"1998-11-17 07:00","1998","11","17","07:00","0.8","","-1.0","","88","","36","","17","","12.9","","99.26","","","","","","Cloudy"
"1998-11-17 08:00","1998","11","17","08:00","0.7","","-1.2","","87","","1","","17","","11.3","","99.32","","","","","","Drizzle"
"1998-11-17 09:00","1998","11","17","09:00","0.9","","-1.4","","85","","36","","22","","16.1","","99.42","","","","","","Drizzle"
"1998-11-17 10:00","1998","11","17","10:00","1.1","","-1.4","","83","","36","","17","","24.1","","99.49","","","","","","Cloudy"
"1998-11-17 11:00","1998","11","17","11:00","1.3","","-1.5","","82","","1","","13","","24.1","","99.59","","","","","","Cloudy"
"1998-11-17 12:00","1998","11","17","12:00","2.2","","-0.5","","82","","35","","13","","24.1","","99.65","","","","","","Mostly Cloudy"
"1998-11-17 13:00","1998","11","17","13:00","2.7","","-0.4","","80","","36","","17","","24.1","","99.69","","","","","","Cloudy"
"1998-11-17 14:00","1998","11","17","14:00","2.6","","-0.4","","81","","34","","17","","24.1","","99.79","","","","","","Cloudy"
"1998-11-17 15:00","1998","11","17","15:00","2.3","","-0.6","","81","","33","","19","","24.1","","99.85","","","","","","Mostly Cloudy"
"1998-11-17 16:00","1998","11","17","16:00","1.8","","-0.8","","83","","34","","11","","24.1","","99.92","","","","","","Mostly Cloudy"
"1998-11-17 17:00","1998","11","17","17:00","1.5","","-1.0","","83","","34","","9","","19.3","","100.02","","","","","","Mostly Cloudy"
"1998-11-17 18:00","1998","11","17","18:00","0.8","","-1.3","","86","","31","","7","","19.3","","100.12","","","","","","Mainly Clear"
"1998-11-17 19:00","1998","11","17","19:00","0.9","","-1.0","","87","","31","","7","","24.1","","100.19","","","","","","Mostly Cloudy"
"1998-11-17 20:00","1998","11","17","20:00","0.8","","-1.2","","86","","31","","6","","25.0","","100.19","","","","","","Mainly Clear"
"1998-11-17 21:00","1998","11","17","21:00","0.8","","-1.3","","86","","25","","4","","25.0","","100.25","","","","","","Mostly Cloudy"
"1998-11-17 22:00","1998","11","17","22:00","0.4","","-1.3","","88","","23","","6","","25.0","","100.32","","","","","","Clear"
"1998-11-17 23:00","1998","11","17","23:00","0.4","","-1.2","","89","","19","","6","","25.0","","100.32","","","","","","Clear"
"1998-11-18 00:00","1998","11","18","00:00","-0.2","","-1.6","","90","","31","","4","","25.0","","100.39","","","","-1","","Clear"
"1998-11-18 01:00","1998","11","18","01:00","-1.0","","-2.6","","89","","35","","4","","25.0","","100.42","","","","-2","","Clear"
"1998-11-18 02:00","1998","11","18","02:00","-1.0","","-2.8","","88","","","","0","","25.0","","100.42","","","","","","Clear"
"1998-11-18 03:00","1998","11","18","03:00","-1.6","","-3.2","","89","","","","0","","25.0","","100.49","","","","","","Clear"
"1998-11-18 04:00","1998","11","18","04:00","-2.3","","-3.8","","89","","","","0","","25.0","","100.49","","","","","","Clear"
"1998-11-18 05:00","1998","11","18","05:00","-1.6","","-3.4","","87","","","","0","","25.0","","100.55","","","","","","Clear"
"1998-11-18 06:00","1998","11","18","06:00","-1.1","","-2.8","","88","","","","0","","19.3","","100.62","","","","","","Clear"
"1998-11-18 07:00","1998","11","18","07:00","-0.8","","-2.6","","88","","","","0","","24.1","","100.65","","","","","","Mainly Clear"
"1998-11-18 08:00","1998","11","18","08:00","0.4","","-1.4","","88","","18","","4","","19.3","","100.72","","","","","","Mostly Cloudy"
"1998-11-18 09:00","1998","11","18","09:00","1.9","","0.0","","87","","20","","6","","19.3","","100.75","","","","","","Mostly Cloudy"
"1998-11-18 10:00","1998","11","18","10:00","2.8","","0.7","","86","","14","","7","","12.9","","100.72","","","","","","Mostly Cloudy"
"1998-11-18 11:00","1998","11","18","11:00","5.1","","1.7","","79","","14","","7","","12.9","","100.72","","","","","","Mainly Clear"
"1998-11-18 12:00","1998","11","18","12:00","6.9","","2.1","","71","","20","","9","","12.9","","100.62","","","","","","Mainly Clear"
"1998-11-18 13:00","1998","11","18","13:00","7.8","","0.0","","58","","18","","9","","19.3","","100.52","","","","","","Mostly Cloudy"
"1998-11-18 14:00","1998","11","18","14:00","7.6","","1.2","","64","","14","","11","","24.1","","100.45","","","","","","Mostly Cloudy"
"1998-11-18 15:00","1998","11","18","15:00","7.4","","0.6","","62","","15","","9","","24.1","","100.49","","","","","","Mostly Cloudy"
"1998-11-18 16:00","1998","11","18","16:00","7.2","","0.5","","62","","14","","9","","24.1","","100.49","","","","","","Mostly Cloudy"
"1998-11-18 17:00","1998","11","18","17:00","5.8","","1.3","","73","","13","","9","","19.3","","100.45","","","","","","Mainly Clear"
"1998-11-18 18:00","1998","11","18","18:00","5.2","","1.7","","78","","12","","13","","16.1","","100.42","","","","","","Mainly Clear"
"1998-11-18 19:00","1998","11","18","19:00","4.2","","1.8","","84","","11","","13","","16.1","","100.39","","","","","","Mainly Clear"
"1998-11-18 20:00","1998","11","18","20:00","4.0","","1.5","","84","","9","","13","","16.1","","100.35","","","","","","Mostly Cloudy"
"1998-11-18 21:00","1998","11","18","21:00","4.4","","0.9","","78","","9","","13","","19.3","","100.32","","","","","","Mostly Cloudy"
"1998-11-18 22:00","1998","11","18","22:00","4.4","","1.0","","79","","11","","9","","19.3","","100.19","","","","","","Mainly Clear"
"1998-11-18 23:00","1998","11","18","23:00","4.5","","1.0","","78","","11","","19","","24.1","","100.12","","","","","","Mainly Clear"
"1998-11-19 00:00","1998","11","19","00:00","3.7","","0.2","","78","","10","","11","","24.1","","100.05","","","","","","Mainly Clear"
"1998-11-19 01:00","1998","11","19","01:00","4.2","","0.8","","79","","10","","13","","25.0","","99.89","","","","","","Mostly Cloudy"
"1998-11-19 02:00","1998","11","19","02:00","4.9","","1.1","","76","","11","","19","","25.0","","99.75","","","","","","Mostly Cloudy"
"1998-11-19 03:00","1998","11","19","03:00","5.0","","0.6","","73","","12","","13","","25.0","","99.72","","","","","","Mostly Cloudy"
"1998-11-19 04:00","1998","11","19","04:00","4.3","","0.5","","76","","10","","17","","25.0","","99.55","","","","","","Mostly Cloudy"
"1998-11-19 05:00","1998","11","19","05:00","4.5","","0.4","","75","","10","","13","","25.0","","99.49","","","","","","Mostly Cloudy"
"1998-11-19 06:00","1998","11","19","06:00","4.8","","1.0","","76","","11","","17","","19.3","","99.42","","","","","","Rain"
"1998-11-19 07:00","1998","11","19","07:00","5.5","","1.2","","74","","11","","15","","19.3","","99.35","","","","","","Cloudy"
"1998-11-19 08:00","1998","11","19","08:00","5.7","","1.4","","74","","12","","11","","16.1","","99.32","","","","","","Cloudy"
"1998-11-19 09:00","1998","11","19","09:00","6.6","","1.8","","71","","11","","20","","14.5","","99.26","","","","","","Mostly Cloudy"
"1998-11-19 10:00","1998","11","19","10:00","7.1","","2.8","","74","","12","","22","","16.1","","99.19","","","","","","Cloudy"
"1998-11-19 11:00","1998","11","19","11:00","8.5","","4.3","","75","","13","","13","","14.5","","99.09","","","","","","Cloudy"
"1998-11-19 12:00","1998","11","19","12:00","11.1","","5.9","","70","","15","","13","","12.9","","98.96","","","","","","Mostly Cloudy"
"1998-11-19 13:00","1998","11","19","13:00","13.3","","7.4","","67","","21","","22","","14.5","","98.79","","","","","","Mostly Cloudy"
"1998-11-19 14:00","1998","11","19","14:00","12.8","","8.4","","75","","21","","26","","11.3","","98.69","","","","","","Cloudy"
"1998-11-19 15:00","1998","11","19","15:00","13.3","","8.4","","72","","22","","33","","12.9","","98.69","","","","","","Mostly Cloudy"
"1998-11-19 16:00","1998","11","19","16:00","14.0","","8.0","","67","","22","","32","","9.7","","98.66","","","","","","Haze"
"1998-11-19 17:00","1998","11","19","17:00","13.6","","8.0","","69","","22","","37","","11.3","","98.69","","","","","","Mostly Cloudy"
"1998-11-19 18:00","1998","11","19","18:00","13.1","","7.4","","68","","21","","32","","12.9","","98.72","","","","","","Mostly Cloudy"
"1998-11-19 19:00","1998","11","19","19:00","11.2","","5.8","","69","","27","","28","","16.1","","98.79","","","","","","Mostly Cloudy"
"1998-11-19 20:00","1998","11","19","20:00","8.0","","3.6","","74","","27","","24","","16.1","","98.82","","","","","","Mainly Clear"
"1998-11-19 21:00","1998","11","19","21:00","7.0","","2.9","","75","","25","","22","","16.1","","98.82","","","","","","Clear"
"1998-11-19 22:00","1998","11","19","22:00","6.4","","1.8","","72","","25","","37","","16.1","","98.89","","","","","","Clear"
"1998-11-19 23:00","1998","11","19","23:00","5.4","","0.8","","72","","26","","22","","16.1","","98.89","","","","","","Clear"
"1998-11-20 00:00","1998","11","20","00:00","5.1","","-0.4","","68","","26","","20","","16.1","","98.99","","","","","","Mainly Clear"
"1998-11-20 01:00","1998","11","20","01:00","5.0","","-0.2","","69","","26","","15","","16.1","","99.06","","","","","","Mainly Clear"
"1998-11-20 02:00","1998","11","20","02:00","5.3","","-0.3","","67","","26","","22","","16.1","","99.12","","","","","","Cloudy"
"1998-11-20 03:00","1998","11","20","03:00","5.1","","-0.2","","69","","25","","19","","16.1","","99.16","","","","","","Cloudy"
"1998-11-20 04:00","1998","11","20","04:00","4.9","","-0.3","","69","","24","","11","","16.1","","99.09","","","","","","Cloudy"
"1998-11-20 05:00","1998","11","20","05:00","4.7","","-0.1","","71","","23","","15","","16.1","","99.12","","","","","","Cloudy"
"1998-11-20 06:00","1998","11","20","06:00","4.6","","-0.4","","70","","25","","13","","16.1","","99.09","","","","","","Cloudy"
"1998-11-20 07:00","1998","11","20","07:00","4.4","","-0.6","","70","","27","","11","","12.9","","99.09","","","","","","Cloudy"
"1998-11-20 08:00","1998","11","20","08:00","4.3","","-0.4","","71","","26","","19","","14.5","","99.12","","","","","","Cloudy"
"1998-11-20 09:00","1998","11","20","09:00","4.4","","-0.4","","71","","27","","13","","16.1","","99.16","","","","","","Cloudy"
"1998-11-20 10:00","1998","11","20","10:00","4.4","","-0.7","","69","","26","","19","","19.3","","99.16","","","","","","Cloudy"
"1998-11-20 11:00","1998","11","20","11:00","4.6","","-0.6","","69","","27","","15","","19.3","","99.12","","","","","","Cloudy"
"1998-11-20 12:00","1998","11","20","12:00","4.4","","-0.3","","71","","27","","17","","14.5","","99.06","","","","","","Cloudy"
"1998-11-20 13:00","1998","11","20","13:00","4.1","","-0.8","","70","","27","","19","","16.1","","99.06","","","","","","Cloudy"
"1998-11-20 14:00","1998","11","20","14:00","3.7","","-1.4","","69","","26","","22","","19.3","","99.06","","","","","","Cloudy"
"1998-11-20 15:00","1998","11","20","15:00","3.5","","-1.1","","72","","27","","22","","19.3","","99.02","","","","","","Cloudy"
"1998-11-20 16:00","1998","11","20","16:00","3.3","","-1.8","","69","","28","","13","","19.3","","99.09","","","","","","Cloudy"
"1998-11-20 17:00","1998","11","20","17:00","3.0","","-1.7","","71","","26","","17","","19.3","","99.09","","","","","","Rain"
"1998-11-20 18:00","1998","11","20","18:00","2.8","","-1.2","","75","","25","","17","","19.3","","99.12","","","","","","Rain"
"1998-11-20 19:00","1998","11","20","19:00","2.8","","-1.1","","75","","25","","15","","24.1","","99.12","","","","","","Cloudy"
"1998-11-20 20:00","1998","11","20","20:00","2.8","","-0.5","","79","","24","","17","","16.1","","99.16","","","","","","Rain"
"1998-11-20 21:00","1998","11","20","21:00","2.7","","-0.3","","81","","23","","11","","12.9","","99.12","","","","","","Drizzle,Snow Grains"
"1998-11-20 22:00","1998","11","20","22:00","2.8","","-0.4","","79","","24","","11","","16.1","","99.12","","","","","","Snow"
"1998-11-20 23:00","1998","11","20","23:00","2.8","","-0.2","","81","","23","","9","","16.1","","99.12","","","","","","Snow"
"1998-11-21 00:00","1998","11","21","00:00","2.6","","-0.6","","79","","25","","15","","16.1","","99.16","","","","","","Cloudy"
"1998-11-21 01:00","1998","11","21","01:00","2.3","","-0.9","","79","","26","","17","","19.3","","99.16","","","","","","Cloudy"
"1998-11-21 02:00","1998","11","21","02:00","2.0","","-1.0","","80","","25","","15","","16.1","","99.12","","","","","","Cloudy"
"1998-11-21 03:00","1998","11","21","03:00","2.0","","-1.1","","80","","25","","19","","19.3","","99.16","","","","","","Mostly Cloudy"
"1998-11-21 04:00","1998","11","21","04:00","2.2","","-0.9","","80","","25","","15","","19.3","","99.16","","","","","","Mostly Cloudy"
"1998-11-21 05:00","1998","11","21","05:00","2.1","","-0.9","","80","","25","","19","","19.3","","99.19","","","","","","Mostly Cloudy"
"1998-11-21 06:00","1998","11","21","06:00","2.4","","-1.2","","77","","26","","19","","19.3","","99.29","","","","","","Mostly Cloudy"
"1998-11-21 07:00","1998","11","21","07:00","2.0","","-0.8","","82","","28","","15","","19.3","","99.39","","","","","","Snow"
"1998-11-21 08:00","1998","11","21","08:00","2.0","","-1.5","","78","","29","","13","","24.1","","99.52","","","","","","Mostly Cloudy"
"1998-11-21 09:00","1998","11","21","09:00","2.4","","-2.9","","68","","29","","26","","24.1","","99.62","","","","","","Mostly Cloudy"
"1998-11-21 10:00","1998","11","21","10:00","2.0","","-3.2","","68","","28","","24","","24.1","","99.75","","","","","","Cloudy"
"1998-11-21 11:00","1998","11","21","11:00","2.0","","-2.3","","73","","29","","19","","19.3","","99.82","","","","","","Snow"
"1998-11-21 12:00","1998","11","21","12:00","1.6","","-2.6","","74","","29","","22","","16.1","","99.92","","","","","","Snow"
"1998-11-21 13:00","1998","11","21","13:00","2.2","","-2.3","","72","","34","","13","","19.3","","99.95","","","","","","Cloudy"
"1998-11-21 14:00","1998","11","21","14:00","2.9","","-4.5","","58","","29","","28","","24.1","","100.05","","","","","","Cloudy"
"1998-11-21 15:00","1998","11","21","15:00","2.7","","-4.4","","59","","32","","22","","40.2","","100.12","","","","","","Mostly Cloudy"
"1998-11-21 16:00","1998","11","21","16:00","2.8","","-4.4","","59","","30","","17","","40.2","","100.19","","","","","","Cloudy"
"1998-11-21 17:00","1998","11","21","17:00","2.8","","-4.1","","60","","29","","15","","40.2","","100.25","","","","","","Mostly Cloudy"
"1998-11-21 18:00","1998","11","21","18:00","2.3","","-4.7","","60","","30","","20","","25.0","","100.32","","","","","","Mostly Cloudy"
"1998-11-21 19:00","1998","11","21","19:00","1.0","","-4.6","","66","","28","","9","","25.0","","100.39","","","","","","Clear"
"1998-11-21 20:00","1998","11","21","20:00","0.0","","-4.7","","71","","25","","6","","25.0","","100.42","","","","-2","","Clear"
"1998-11-21 21:00","1998","11","21","21:00","-0.2","","-4.7","","72","","24","","9","","25.0","","100.42","","","","-3","","Clear"
"1998-11-21 22:00","1998","11","21","22:00","-0.8","","-5.2","","72","","21","","9","","25.0","","100.45","","","","-4","","Clear"
"1998-11-21 23:00","1998","11","21","23:00","-1.3","","-5.1","","75","","20","","6","","25.0","","100.42","","","","-4","","Clear"
"1998-11-22 00:00","1998","11","22","00:00","-1.7","","-5.3","","76","","20","","4","","25.0","","100.42","","","","-3","","Clear"
"1998-11-22 01:00","1998","11","22","01:00","-2.1","","-5.4","","78","","19","","4","","25.0","","100.42","","","","-4","","Clear"
"1998-11-22 02:00","1998","11","22","02:00","-1.9","","-5.4","","77","","19","","4","","25.0","","100.42","","","","-3","","Clear"
"1998-11-22 03:00","1998","11","22","03:00","-2.4","","-5.8","","77","","22","","7","","25.0","","100.45","","","","-5","","Clear"
"1998-11-22 04:00","1998","11","22","04:00","-1.7","","-5.7","","74","","18","","6","","25.0","","100.45","","","","-4","","Mainly Clear"
"1998-11-22 05:00","1998","11","22","05:00","-2.4","","-5.6","","79","","16","","4","","24.1","","100.42","","","","-4","","Mostly Cloudy"
"1998-11-22 06:00","1998","11","22","06:00","-1.9","","-4.9","","80","","15","","7","","24.1","","100.39","","","","-5","","Mostly Cloudy"
"1998-11-22 07:00","1998","11","22","07:00","-1.7","","-4.6","","81","","18","","11","","16.1","","100.39","","","","-6","","Mostly Cloudy"
"1998-11-22 08:00","1998","11","22","08:00","-1.0","","-3.8","","81","","19","","11","","9.7","","100.35","","","","-5","","Haze"
"1998-11-22 09:00","1998","11","22","09:00","2.5","","-1.1","","77","","19","","17","","11.3","","100.32","","","","","","Mostly Cloudy"
"1998-11-22 10:00","1998","11","22","10:00","4.7","","0.3","","73","","19","","19","","12.9","","100.25","","","","","","Mostly Cloudy"
"1998-11-22 11:00","1998","11","22","11:00","5.7","","0.0","","67","","19","","22","","19.3","","100.22","","","","","","Mostly Cloudy"
"1998-11-22 12:00","1998","11","22","12:00","7.8","","0.1","","58","","21","","28","","19.3","","100.15","","","","","","Mostly Cloudy"
"1998-11-22 13:00","1998","11","22","13:00","7.6","","-0.4","","57","","20","","22","","19.3","","100.05","","","","","","Cloudy"
"1998-11-22 14:00","1998","11","22","14:00","7.7","","-1.1","","54","","20","","26","","19.3","","99.92","","","","","","Cloudy"
"1998-11-22 15:00","1998","11","22","15:00","7.8","","-1.8","","51","","21","","24","","24.1","","99.82","","","","","","Cloudy"
"1998-11-22 16:00","1998","11","22","16:00","7.2","","-0.5","","58","","19","","20","","24.1","","99.82","","","","","","Cloudy"
"1998-11-22 17:00","1998","11","22","17:00","6.9","","-0.8","","58","","20","","24","","24.1","","99.75","","","","","","Cloudy"
"1998-11-22 18:00","1998","11","22","18:00","7.1","","-1.3","","55","","20","","22","","24.1","","99.72","","","","","","Mostly Cloudy"
"1998-11-22 19:00","1998","11","22","19:00","7.2","","-1.3","","55","","20","","22","","24.1","","99.69","","","","","","Mainly Clear"
"1998-11-22 20:00","1998","11","22","20:00","7.6","","-1.3","","53","","20","","26","","24.1","","99.59","","","","","","Mainly Clear"
"1998-11-22 21:00","1998","11","22","21:00","8.0","","-1.1","","53","","20","","28","","24.1","","99.52","","","","","","Mostly Cloudy"
"1998-11-22 22:00","1998","11","22","22:00","8.3","","-0.9","","52","","22","","28","","24.1","","99.45","","","","","","Mostly Cloudy"
"1998-11-22 23:00","1998","11","22","23:00","8.3","","-0.6","","53","","21","","28","","25.0","","99.42","","","","","","Mostly Cloudy"
"1998-11-23 00:00","1998","11","23","00:00","8.4","","0.0","","55","","22","","26","","25.0","","99.35","","","","","","Cloudy"
"1998-11-23 01:00","1998","11","23","01:00","7.9","","0.5","","59","","23","","24","","25.0","","99.35","","","","","","Mostly Cloudy"
"1998-11-23 02:00","1998","11","23","02:00","8.0","","1.1","","62","","22","","19","","24.1","","99.35","","","","","","Cloudy"
"1998-11-23 03:00","1998","11","23","03:00","8.3","","1.1","","60","","21","","17","","24.1","","99.35","","","","","","Cloudy"
"1998-11-23 04:00","1998","11","23","04:00","7.6","","1.3","","64","","20","","11","","25.0","","99.29","","","","","","Mostly Cloudy"
"1998-11-23 05:00","1998","11","23","05:00","7.0","","1.8","","69","","19","","11","","24.1","","99.26","","","","","","Mostly Cloudy"
"1998-11-23 06:00","1998","11","23","06:00","7.6","","2.0","","68","","20","","11","","25.0","","99.16","","","","","","Mostly Cloudy"
"1998-11-23 07:00","1998","11","23","07:00","7.5","","2.1","","69","","20","","17","","25.0","","99.02","","","","","","Mainly Clear"
"1998-11-23 08:00","1998","11","23","08:00","7.7","","1.9","","67","","21","","15","","24.1","","99.02","","","","","","Mainly Clear"
"1998-11-23 09:00","1998","11","23","09:00","9.6","","2.1","","59","","20","","22","","24.1","","98.82","","","","","","Mostly Cloudy"
"1998-11-23 10:00","1998","11","23","10:00","11.5","","2.2","","53","","21","","33","","24.1","","98.72","","","","","","Mostly Cloudy"
"1998-11-23 11:00","1998","11","23","11:00","13.2","","2.9","","50","","24","","28","","24.1","","98.62","","","","","","Mainly Clear"
"1998-11-23 12:00","1998","11","23","12:00","14.1","","3.7","","49","","21","","33","","24.1","","98.49","","","","","","Mostly Cloudy"
"1998-11-23 13:00","1998","11","23","13:00","13.7","","4.3","","53","","22","","33","","24.1","","98.36","","","","","","Mostly Cloudy"
"1998-11-23 14:00","1998","11","23","14:00","13.2","","4.8","","57","","23","","41","","19.3","","98.32","","","","","","Mostly Cloudy"
"1998-11-23 15:00","1998","11","23","15:00","13.1","","5.4","","60","","23","","37","","24.1","","98.36","","","","","","Mostly Cloudy"
"1998-11-23 16:00","1998","11","23","16:00","13.2","","6.0","","62","","24","","32","","19.3","","98.32","","","","","","Mostly Cloudy"
"1998-11-23 17:00","1998","11","23","17:00","12.8","","5.2","","60","","25","","48","","16.1","","98.46","","","","","","Mainly Clear"
"1998-11-23 18:00","1998","11","23","18:00","11.9","","4.3","","60","","26","","48","","16.1","","98.62","","","","","","Clear"
"1998-11-23 19:00","1998","11","23","19:00","11.0","","3.5","","60","","26","","28","","24.1","","98.79","","","","","","Mainly Clear"
"1998-11-23 20:00","1998","11","23","20:00","10.7","","2.0","","55","","25","","22","","25.0","","98.86","","","","","","Mainly Clear"
"1998-11-23 21:00","1998","11","23","21:00","10.4","","1.6","","54","","24","","28","","25.0","","98.89","","","","","","Mostly Cloudy"
"1998-11-23 22:00","1998","11","23","22:00","8.5","","2.2","","65","","29","","41","","25.0","","99.09","","","","","","Clear"
"1998-11-23 23:00","1998","11","23","23:00","8.4","","1.2","","60","","27","","33","","25.0","","99.16","","","","","","Mostly Cloudy"
"1998-11-24 00:00","1998","11","24","00:00","8.1","","0.8","","60","","28","","41","","25.0","","99.19","","","","","","Mainly Clear"
"1998-11-24 01:00","1998","11","24","01:00","7.1","","0.8","","64","","27","","20","","25.0","","99.29","","","","","","Clear"
"1998-11-24 02:00","1998","11","24","02:00","6.2","","-0.2","","64","","28","","15","","25.0","","99.29","","","","","","Clear"
"1998-11-24 03:00","1998","11","24","03:00","5.1","","-0.5","","67","","26","","13","","25.0","","99.32","","","","","","Clear"
"1998-11-24 04:00","1998","11","24","04:00","4.3","","-0.3","","72","","27","","13","","25.0","","99.32","","","","","","Clear"
"1998-11-24 05:00","1998","11","24","05:00","5.0","","0.0","","70","","26","","20","","25.0","","99.32","","","","","","Clear"
"1998-11-24 06:00","1998","11","24","06:00","5.1","","0.0","","70","","26","","22","","25.0","","99.32","","","","","","Clear"
"1998-11-24 07:00","1998","11","24","07:00","4.7","","0.0","","72","","26","","19","","25.0","","99.35","","","","","","Clear"
"1998-11-24 08:00","1998","11","24","08:00","4.8","","0.3","","73","","24","","22","","40.2","","99.35","","","","","","Mainly Clear"
"1998-11-24 09:00","1998","11","24","09:00","6.8","","0.8","","66","","27","","26","","40.2","","99.42","","","","","","Mainly Clear"
"1998-11-24 10:00","1998","11","24","10:00","6.2","","1.6","","72","","27","","32","","40.2","","99.52","","","","","","Mostly Cloudy"
"1998-11-24 11:00","1998","11","24","11:00","7.9","","1.5","","64","","29","","32","","32.2","","99.59","","","","","","Mostly Cloudy"
"1998-11-24 12:00","1998","11","24","12:00","7.8","","-0.5","","56","","30","","33","","40.2","","99.65","","","","","","Mostly Cloudy"
"1998-11-24 13:00","1998","11","24","13:00","6.5","","0.8","","67","","31","","37","","32.2","","99.69","","","","","","Mostly Cloudy"
"1998-11-24 14:00","1998","11","24","14:00","7.2","","-1.4","","54","","30","","33","","40.2","","99.79","","","","","","Mostly Cloudy"
"1998-11-24 15:00","1998","11","24","15:00","7.2","","-2.3","","51","","30","","35","","32.2","","99.82","","","","","","Mainly Clear"
"1998-11-24 16:00","1998","11","24","16:00","6.6","","-1.8","","55","","29","","26","","40.2","","99.95","","","","","","Mostly Cloudy"
"1998-11-24 17:00","1998","11","24","17:00","5.8","","-2.6","","55","","30","","24","","40.2","","100.05","","","","","","Mostly Cloudy"
"1998-11-24 18:00","1998","11","24","18:00","5.2","","-2.6","","57","","32","","24","","25.0","","100.12","","","","","","Mostly Cloudy"
"1998-11-24 19:00","1998","11","24","19:00","3.6","","-2.8","","63","","34","","9","","25.0","","100.15","","","","","","Mainly Clear"
"1998-11-24 20:00","1998","11","24","20:00","2.1","","-3.2","","68","","32","","9","","25.0","","100.19","","","","","","Mainly Clear"
"1998-11-24 21:00","1998","11","24","21:00","1.8","","-3.3","","69","","33","","7","","25.0","","100.19","","","","","","Mainly Clear"
"1998-11-24 22:00","1998","11","24","22:00","1.1","","-3.3","","72","","","","0","","25.0","","100.19","","","","","","Mainly Clear"
"1998-11-24 23:00","1998","11","24","23:00","1.1","","-3.4","","72","","24","","4","","25.0","","100.22","","","","","","Clear"
"1998-11-25 00:00","1998","11","25","00:00","1.4","","-3.3","","71","","","","0","","25.0","","100.15","","","","","","Mainly Clear"
"1998-11-25 01:00","1998","11","25","01:00","0.7","","-3.3","","75","","","","0","","25.0","","100.19","","","","","","Clear"
"1998-11-25 02:00","1998","11","25","02:00","0.0","","-3.4","","78","","","","0","","25.0","","100.15","","","","","","Clear"
"1998-11-25 03:00","1998","11","25","03:00","-0.9","","-4.0","","79","","1","","4","","25.0","","100.19","","","","-2","","Mostly Cloudy"
"1998-11-25 04:00","1998","11","25","04:00","-0.2","","-3.0","","81","","35","","4","","24.1","","100.25","","","","-1","","Mostly Cloudy"
"1998-11-25 05:00","1998","11","25","05:00","1.0","","-2.9","","75","","","","0","","25.0","","100.19","","","","","","Mostly Cloudy"
"1998-11-25 06:00","1998","11","25","06:00","-0.5","","-3.4","","81","","","","0","","25.0","","100.19","","","","","","Clear"
"1998-11-25 07:00","1998","11","25","07:00","0.5","","-2.8","","78","","12","","7","","19.3","","100.12","","","","","","Mostly Cloudy"
"1998-11-25 08:00","1998","11","25","08:00","1.4","","-0.8","","85","","","","0","","19.3","","100.12","","","","","","Cloudy"
"1998-11-25 09:00","1998","11","25","09:00","3.0","","-0.1","","80","","12","","7","","19.3","","100.05","","","","","","Cloudy"
"1998-11-25 10:00","1998","11","25","10:00","3.8","","0.0","","76","","12","","17","","24.1","","99.99","","","","","","Cloudy"
"1998-11-25 11:00","1998","11","25","11:00","4.5","","-0.1","","72","","12","","15","","24.1","","99.82","","","","","","Cloudy"
"1998-11-25 12:00","1998","11","25","12:00","5.0","","0.5","","73","","12","","22","","24.1","","99.65","","","","","","Cloudy"
"1998-11-25 13:00","1998","11","25","13:00","5.1","","0.3","","71","","11","","22","","24.1","","99.49","","","","","","Cloudy"
"1998-11-25 14:00","1998","11","25","14:00","5.8","","0.2","","67","","10","","22","","24.1","","99.32","","","","","","Cloudy"
"1998-11-25 15:00","1998","11","25","15:00","5.4","","0.8","","72","","9","","19","","24.1","","99.22","","","","","","Cloudy"
"1998-11-25 16:00","1998","11","25","16:00","5.2","","0.7","","73","","8","","20","","24.1","","99.09","","","","","","Cloudy"
"1998-11-25 17:00","1998","11","25","17:00","5.5","","1.0","","73","","8","","17","","19.3","","99.06","","","","","","Cloudy"
"1998-11-25 18:00","1998","11","25","18:00","5.8","","1.3","","73","","8","","26","","19.3","","98.82","","","","","","Mostly Cloudy"
"1998-11-25 19:00","1998","11","25","19:00","6.3","","1.6","","72","","9","","20","","19.3","","98.72","","","","","","Cloudy"
"1998-11-25 20:00","1998","11","25","20:00","6.5","","2.4","","75","","10","","17","","19.3","","98.59","","","","","","Rain"
"1998-11-25 21:00","1998","11","25","21:00","6.8","","2.1","","72","","10","","11","","19.3","","98.46","","","","","","Rain"
"1998-11-25 22:00","1998","11","25","22:00","7.0","","2.2","","71","","36","","6","","19.3","","98.42","","","","","","Rain"
"1998-11-25 23:00","1998","11","25","23:00","5.9","","3.5","","85","","5","","6","","8.0","","98.36","","","","","","Fog"
"1998-11-26 00:00","1998","11","26","00:00","5.8","","3.9","","88","","11","","6","","9.7","","98.26","","","","","","Fog"
"1998-11-26 01:00","1998","11","26","01:00","5.7","","4.3","","91","","","","0","","4.8","","98.19","","","","","","Rain,Fog"
"1998-11-26 02:00","1998","11","26","02:00","5.4","","4.6","","95","","25","","4","","4.8","","98.19","","","","","","Rain,Fog"
"1998-11-26 03:00","1998","11","26","03:00","5.2","","4.5","","95","","","","0","","4.8","","98.19","","","","","","Rain,Fog"
"1998-11-26 04:00","1998","11","26","04:00","5.0","","4.2","","95","","26","","7","","4.8","","98.22","","","","","","Rain,Fog"
"1998-11-26 05:00","1998","11","26","05:00","5.5","","4.4","","93","","27","","11","","6.4","","98.32","","","","","","Fog"
"1998-11-26 06:00","1998","11","26","06:00","6.1","","4.6","","90","","29","","19","","6.4","","98.32","","","","","","Fog"
"1998-11-26 07:00","1998","11","26","07:00","6.5","","4.5","","87","","29","","13","","8.0","","98.39","","","","","","Fog"
"1998-11-26 08:00","1998","11","26","08:00","6.6","","3.9","","83","","28","","11","","8.0","","98.42","","","","","","Haze"
"1998-11-26 09:00","1998","11","26","09:00","6.7","","3.6","","81","","27","","24","","9.7","","98.52","","","","","","Haze"
"1998-11-26 10:00","1998","11","26","10:00","7.0","","3.8","","80","","29","","15","","11.3","","98.56","","","","","","Cloudy"
"1998-11-26 11:00","1998","11","26","11:00","7.5","","4.1","","79","","25","","13","","11.3","","98.56","","","","","","Cloudy"
"1998-11-26 12:00","1998","11","26","12:00","7.6","","3.8","","77","","24","","13","","14.5","","98.49","","","","","","Cloudy"
"1998-11-26 13:00","1998","11","26","13:00","7.6","","2.1","","68","","26","","19","","19.3","","98.39","","","","","","Mostly Cloudy"
"1998-11-26 14:00","1998","11","26","14:00","5.6","","1.8","","77","","28","","24","","32.2","","98.49","","","","","","Cloudy"
"1998-11-26 15:00","1998","11","26","15:00","5.8","","2.0","","77","","28","","20","","24.1","","98.52","","","","","","Mostly Cloudy"
"1998-11-26 16:00","1998","11","26","16:00","6.1","","1.0","","70","","28","","22","","24.1","","98.62","","","","","","Mostly Cloudy"
"1998-11-26 17:00","1998","11","26","17:00","5.6","","0.6","","70","","29","","19","","24.1","","98.69","","","","","","Mostly Cloudy"
"1998-11-26 18:00","1998","11","26","18:00","4.8","","1.2","","77","","31","","26","","16.1","","98.72","","","","","","Rain Showers"
"1998-11-26 19:00","1998","11","26","19:00","5.2","","0.7","","73","","28","","19","","19.3","","98.76","","","","","","Mostly Cloudy"
"1998-11-26 20:00","1998","11","26","20:00","4.7","","0.5","","74","","28","","17","","19.3","","98.79","","","","","","Mostly Cloudy"
"1998-11-26 21:00","1998","11","26","21:00","4.8","","0.1","","72","","29","","26","","19.3","","98.79","","","","","","Cloudy"
"1998-11-26 22:00","1998","11","26","22:00","4.1","","0.9","","80","","29","","24","","19.3","","98.86","","","","","","Mostly Cloudy"
"1998-11-26 23:00","1998","11","26","23:00","4.0","","0.8","","80","","29","","17","","19.3","","98.89","","","","","","Mostly Cloudy"
"1998-11-27 00:00","1998","11","27","00:00","4.0","","0.7","","79","","29","","22","","19.3","","98.92","","","","","","Mostly Cloudy"
"1998-11-27 01:00","1998","11","27","01:00","3.4","","0.4","","81","","29","","22","","19.3","","98.96","","","","","","Mostly Cloudy"
"1998-11-27 02:00","1998","11","27","02:00","2.9","","0.6","","85","","32","","11","","19.3","","99.06","","","","","","Rain Showers"
"1998-11-27 03:00","1998","11","27","03:00","2.7","","0.2","","84","","31","","19","","19.3","","99.16","","","","","","Rain Showers"
"1998-11-27 04:00","1998","11","27","04:00","2.4","","0.0","","84","","30","","19","","24.1","","99.19","","","","","","Rain Showers"
"1998-11-27 05:00","1998","11","27","05:00","2.8","","-0.9","","77","","28","","15","","24.1","","99.29","","","","","","Mostly Cloudy"
"1998-11-27 06:00","1998","11","27","06:00","2.2","","-0.8","","81","","29","","11","","24.1","","99.39","","","","","","Mostly Cloudy"
"1998-11-27 07:00","1998","11","27","07:00","2.6","","-1.0","","77","","27","","19","","25.0","","99.49","","","","","","Rain Showers"
"1998-11-27 08:00","1998","11","27","08:00","2.8","","-1.4","","74","","29","","22","","32.2","","99.59","","","","","","Mostly Cloudy"
"1998-11-27 09:00","1998","11","27","09:00","3.4","","-1.4","","71","","29","","24","","32.2","","99.62","","","","","","Mainly Clear"
"1998-11-27 10:00","1998","11","27","10:00","4.5","","-1.1","","67","","28","","24","","32.2","","99.69","","","","","","Mainly Clear"
"1998-11-27 11:00","1998","11","27","11:00","5.7","","-0.6","","64","","31","","26","","32.2","","99.69","","","","","","Mainly Clear"
"1998-11-27 12:00","1998","11","27","12:00","5.5","","-0.5","","65","","29","","26","","24.1","","99.69","","","","","","Mostly Cloudy"
"1998-11-27 13:00","1998","11","27","13:00","5.5","","-0.1","","67","","28","","20","","32.2","","99.72","","","","","","Mostly Cloudy"
"1998-11-27 14:00","1998","11","27","14:00","5.5","","0.3","","69","","29","","26","","32.2","","99.69","","","","","","Cloudy"
"1998-11-27 15:00","1998","11","27","15:00","5.6","","0.5","","70","","26","","22","","32.2","","99.65","","","","","","Cloudy"
"1998-11-27 16:00","1998","11","27","16:00","5.5","","0.4","","70","","25","","19","","32.2","","99.69","","","","","","Cloudy"
"1998-11-27 17:00","1998","11","27","17:00","5.6","","0.8","","71","","26","","15","","32.2","","99.69","","","","","","Cloudy"
"1998-11-27 18:00","1998","11","27","18:00","5.6","","0.3","","69","","27","","15","","25.0","","99.72","","","","","","Mostly Cloudy"
"1998-11-27 19:00","1998","11","27","19:00","5.0","","0.4","","72","","28","","19","","25.0","","99.79","","","","","","Mostly Cloudy"
"1998-11-27 20:00","1998","11","27","20:00","3.4","","-0.5","","76","","24","","11","","25.0","","99.72","","","","","","Clear"
"1998-11-27 21:00","1998","11","27","21:00","2.6","","-0.5","","80","","23","","11","","25.0","","99.69","","","","","","Clear"
"1998-11-27 22:00","1998","11","27","22:00","2.1","","-0.8","","81","","18","","7","","25.0","","99.65","","","","","","Clear"
"1998-11-27 23:00","1998","11","27","23:00","1.8","","-0.7","","83","","19","","7","","24.1","","99.59","","","","","","Clear"
"1998-11-28 00:00","1998","11","28","00:00","1.4","","-1.0","","84","","20","","7","","19.3","","99.49","","","","","","Clear"
"1998-11-28 01:00","1998","11","28","01:00","1.0","","-1.2","","85","","23","","9","","19.3","","99.42","","","","","","Clear"
"1998-11-28 02:00","1998","11","28","02:00","1.6","","-0.7","","85","","18","","4","","19.3","","99.42","","","","","","Clear"
"1998-11-28 03:00","1998","11","28","03:00","1.5","","-0.9","","84","","9","","2","","19.3","","99.39","","","","","","Clear"
"1998-11-28 04:00","1998","11","28","04:00","2.3","","-0.6","","81","","25","","6","","19.3","","99.39","","","","","","Mainly Clear"
"1998-11-28 05:00","1998","11","28","05:00","3.6","","0.3","","79","","23","","11","","19.3","","99.39","","","","","","Mainly Clear"
"1998-11-28 06:00","1998","11","28","06:00","4.6","","1.1","","78","","23","","13","","19.3","","99.35","","","","","","Clear"
"1998-11-28 07:00","1998","11","28","07:00","4.9","","1.3","","77","","27","","6","","19.3","","99.45","","","","","","Mostly Cloudy"
"1998-11-28 08:00","1998","11","28","08:00","4.2","","1.3","","81","","24","","2","","16.1","","99.49","","","","","","Mostly Cloudy"
"1998-11-28 09:00","1998","11","28","09:00","5.7","","2.5","","80","","26","","7","","16.1","","99.52","","","","","","Mostly Cloudy"
"1998-11-28 10:00","1998","11","28","10:00","6.6","","3.2","","79","","23","","11","","16.1","","99.52","","","","","","Mostly Cloudy"
"1998-11-28 11:00","1998","11","28","11:00","9.0","","4.4","","73","","24","","11","","16.1","","99.52","","","","","","Mostly Cloudy"
"1998-11-28 12:00","1998","11","28","12:00","10.8","","4.4","","65","","31","","9","","16.1","","99.49","","","","","","Mainly Clear"
"1998-11-28 13:00","1998","11","28","13:00","12.7","","4.5","","57","","33","","4","","16.1","","99.42","","","","","","Mostly Cloudy"
"1998-11-28 14:00","1998","11","28","14:00","13.8","","4.6","","54","","7","","4","","19.3","","99.39","","","","","","Mostly Cloudy"
"1998-11-28 15:00","1998","11","28","15:00","14.0","","4.9","","54","","12","","4","","19.3","","99.39","","","","","","Mostly Cloudy"
"1998-11-28 16:00","1998","11","28","16:00","11.4","","5.1","","65","","11","","9","","19.3","","99.45","","","","","","Mostly Cloudy"
"1998-11-28 17:00","1998","11","28","17:00","9.7","","4.4","","70","","11","","9","","16.1","","99.45","","","","","","Mostly Cloudy"
"1998-11-28 18:00","1998","11","28","18:00","10.3","","3.9","","64","","","","0","","12.9","","99.49","","","","","","Mostly Cloudy"
"1998-11-28 19:00","1998","11","28","19:00","8.1","","3.9","","75","","11","","7","","11.3","","99.52","","","","","","Mainly Clear"
"1998-11-28 20:00","1998","11","28","20:00","6.1","","3.6","","84","","31","","9","","9.7","","99.55","","","","","","Haze"
"1998-11-28 21:00","1998","11","28","21:00","5.5","","3.7","","88","","35","","7","","9.7","","99.55","","","","","","Fog"
"1998-11-28 22:00","1998","11","28","22:00","4.8","","3.2","","89","","35","","9","","9.7","","99.59","","","","","","Fog"
"1998-11-28 23:00","1998","11","28","23:00","3.7","","2.4","","91","","36","","4","","9.7","","99.59","","","","","","Fog"
"1998-11-29 00:00","1998","11","29","00:00","3.8","","2.5","","91","","36","","7","","8.0","","99.62","","","","","","Fog"
"1998-11-29 01:00","1998","11","29","01:00","4.7","","3.2","","90","","33","","2","","8.0","","99.59","","","","","","Fog"
"1998-11-29 02:00","1998","11","29","02:00","3.8","","2.7","","93","","","","0","","6.4","","99.55","","","","","","Fog"
"1998-11-29 03:00","1998","11","29","03:00","6.0","","5.0","","93","","9","","9","","4.8","","99.59","","","","","","Fog"
"1998-11-29 04:00","1998","11","29","04:00","6.2","","5.0","","92","","7","","7","","4.0","","99.59","","","","","","Fog"
"1998-11-29 05:00","1998","11","29","05:00","5.8","","4.9","","94","","11","","9","","4.0","","99.59","","","","","","Fog"
"1998-11-29 06:00","1998","11","29","06:00","5.4","","4.4","","93","","10","","9","","4.0","","99.62","","","","","","Fog"
"1998-11-29 07:00","1998","11","29","07:00","5.2","","4.1","","93","","10","","9","","4.0","","99.65","","","","","","Fog"
"1998-11-29 08:00","1998","11","29","08:00","5.5","","4.4","","93","","11","","7","","2.4","","99.62","","","","","","Fog"
"1998-11-29 09:00","1998","11","29","09:00","5.8","","4.7","","93","","10","","9","","2.4","","99.72","","","","","","Fog"
"1998-11-29 10:00","1998","11","29","10:00","6.2","","5.1","","93","","9","","9","","2.8","","99.72","","","","","","Fog"
"1998-11-29 11:00","1998","11","29","11:00","6.7","","5.1","","90","","12","","11","","4.8","","99.72","","","","","","Fog"
"1998-11-29 12:00","1998","11","29","12:00","6.9","","5.4","","90","","10","","11","","4.8","","99.62","","","","","","Fog"
"1998-11-29 13:00","1998","11","29","13:00","6.5","","4.7","","88","","9","","11","","4.8","","99.55","","","","","","Fog"
"1998-11-29 14:00","1998","11","29","14:00","6.2","","4.9","","91","","10","","9","","4.8","","99.59","","","","","","Drizzle,Fog"
"1998-11-29 15:00","1998","11","29","15:00","6.2","","5.3","","94","","10","","13","","4.0","","99.55","","","","","","Drizzle,Fog"
"1998-11-29 16:00","1998","11","29","16:00","6.6","","5.6","","93","","10","","9","","4.8","","99.59","","","","","","Fog"
"1998-11-29 17:00","1998","11","29","17:00","6.4","","5.4","","93","","12","","11","","4.8","","99.55","","","","","","Fog"
"1998-11-29 18:00","1998","11","29","18:00","6.6","","5.5","","93","","9","","9","","4.8","","99.59","","","","","","Fog"
"1998-11-29 19:00","1998","11","29","19:00","6.8","","5.7","","93","","8","","13","","4.8","","99.55","","","","","","Fog"
"1998-11-29 20:00","1998","11","29","20:00","7.1","","5.9","","92","","10","","11","","4.8","","99.49","","","","","","Fog"
"1998-11-29 21:00","1998","11","29","21:00","7.2","","6.0","","92","","11","","9","","4.8","","99.45","","","","","","Rain Showers,Fog"
"1998-11-29 22:00","1998","11","29","22:00","7.2","","6.0","","92","","11","","6","","8.0","","99.45","","","","","","Fog"
"1998-11-29 23:00","1998","11","29","23:00","7.3","","6.0","","91","","12","","6","","8.0","","99.42","","","","","","Fog"
"1998-11-30 00:00","1998","11","30","00:00","7.7","","6.4","","91","","","","0","","8.0","","99.39","","","","","","Fog"
"1998-11-30 01:00","1998","11","30","01:00","7.4","","6.0","","91","","15","","4","","8.0","","99.35","","","","","","Fog"
"1998-11-30 02:00","1998","11","30","02:00","7.2","","5.9","","91","","15","","4","","8.0","","99.29","","","","","","Fog"
"1998-11-30 03:00","1998","11","30","03:00","7.3","","6.1","","92","","","","0","","8.0","","99.26","","","","","","Fog"
"1998-11-30 04:00","1998","11","30","04:00","7.9","","6.5","","91","","13","","4","","8.0","","99.19","","","","","","Fog"
"1998-11-30 05:00","1998","11","30","05:00","8.8","","7.2","","90","","14","","9","","9.7","","99.12","","","","","","Fog"
"1998-11-30 06:00","1998","11","30","06:00","12.1","","9.3","","83","","19","","13","","11.3","","99.09","","","","","","Mainly Clear"
"1998-11-30 07:00","1998","11","30","07:00","12.5","","9.4","","81","","19","","15","","12.9","","99.09","","","","","","Mainly Clear"
"1998-11-30 08:00","1998","11","30","08:00","13.0","","9.4","","79","","19","","17","","14.5","","99.06","","","","","","Mostly Cloudy"
"1998-11-30 09:00","1998","11","30","09:00","14.1","","9.7","","75","","20","","17","","12.9","","99.06","","","","","","Cloudy"
"1998-11-30 10:00","1998","11","30","10:00","15.5","","9.9","","69","","21","","24","","16.1","","99.06","","","","","","Cloudy"
"1998-11-30 11:00","1998","11","30","11:00","16.4","","10.0","","66","","21","","28","","16.1","","98.99","","","","","","Cloudy"
"1998-11-30 12:00","1998","11","30","12:00","17.4","","9.8","","61","","21","","28","","16.1","","98.79","","","","","","Mostly Cloudy"
"1998-11-30 13:00","1998","11","30","13:00","18.0","","9.3","","57","","21","","37","","16.1","","98.76","","","","","","Cloudy"
"1998-11-30 14:00","1998","11","30","14:00","18.5","","8.8","","53","","21","","32","","16.1","","98.62","","","","","","Mostly Cloudy"
"1998-11-30 15:00","1998","11","30","15:00","17.5","","8.7","","56","","21","","22","","19.3","","98.59","","","","","","Cloudy"
"1998-11-30 16:00","1998","11","30","16:00","17.5","","7.5","","52","","20","","32","","19.3","","98.49","","","","","","Cloudy"
"1998-11-30 17:00","1998","11","30","17:00","17.7","","7.8","","52","","21","","37","","19.3","","98.39","","","","","","Rain Showers"
"1998-11-30 18:00","1998","11","30","18:00","17.1","","9.3","","60","","21","","41","","19.3","","98.32","","","","","","Cloudy"
"1998-11-30 19:00","1998","11","30","19:00","16.5","","10.7","","69","","22","","52","","19.3","","98.22","","","","","","Rain Showers"
"1998-11-30 20:00","1998","11","30","20:00","15.2","","12.0","","81","","22","","52","","12.9","","98.19","","","","","","Rain Showers"
"1998-11-30 21:00","1998","11","30","21:00","14.9","","12.3","","84","","23","","41","","12.9","","98.12","","","","","","Rain Showers"
"1998-11-30 22:00","1998","11","30","22:00","11.5","","8.9","","84","","29","","24","","12.9","","98.32","","","","","","Rain Showers"
"1998-11-30 23:00","1998","11","30","23:00","10.5","","7.5","","82","","29","","30","","16.1","","98.46","","","","","","Rain"
