"Station Name","TORONTO LESTER B. PEARSON INT'L A"
"Province","ONTARIO"
"Latitude","43.68"
"Longitude","-79.63"
"Elevation","173.40"
"Climate Identifier","6158733"
"WMO Identifier","71624"
"TC Identifier","YYZ"
"All times are specified in Local Standard Time (LST). Add 1 hour to adjust for Daylight Saving Time where and when it is observed."

"Legend"
"E","Estimated"
"M","Missing"
"NA","Not Available"

"Date/Time","Year","Month","Day","Time","Temp (°C)","Temp Flag","Dew Point Temp (°C)","Dew Point Temp Flag","Rel Hum (%)","Rel Hum Flag","Wind Dir (10s deg)","Wind Dir Flag","Wind Spd (km/h)","Wind Spd Flag","Visibility (km)","Visibility Flag","Stn Press (kPa)","Stn Press Flag","Hmdx","Hmdx Flag","Wind Chill","Wind Chill Flag","Weather"
"2009-09-01 00:00","2009","09","01","00:00","12.6","","9.0","","79","","36","","9","","24.1","","100.46","","","","","","Clear"
"2009-09-01 01:00","2009","09","01","01:00","12.0","","9.0","","82","","36","","9","","24.1","","100.46","","","","","","Clear"
"2009-09-01 02:00","2009","09","01","02:00","11.8","","8.9","","82","","34","","9","","24.1","","100.45","","","","","","Clear"
"2009-09-01 03:00","2009","09","01","03:00","11.6","","8.4","","81","","34","","11","","24.1","","100.47","","","","","","Clear"
"2009-09-01 04:00","2009","09","01","04:00","11.5","","8.3","","81","","33","","4","","24.1","","100.50","","","","","","Clear"
"2009-09-01 05:00","2009","09","01","05:00","11.5","","8.3","","81","","33","","6","","24.1","","100.54","","","","","","Mainly Clear"
"2009-09-01 06:00","2009","09","01","06:00","10.6","","8.2","","85","","35","","9","","24.1","","100.57","","","","","","Clear"
"2009-09-01 07:00","2009","09","01","07:00","12.1","","9.0","","81","","33","","11","","24.1","","100.63","","","","","","Clear"
"2009-09-01 08:00","2009","09","01","08:00","15.5","","10.0","","70","","33","","13","","24.1","","100.66","","","","","","Clear"
"2009-09-01 09:00","2009","09","01","09:00","17.0","","10.1","","64","","36","","11","","24.1","","100.69","","","","","","Clear"
"2009-09-01 10:00","2009","09","01","10:00","18.1","","9.6","","58","","31","","7","","24.1","","100.69","","","","","","Clear"
"2009-09-01 11:00","2009","09","01","11:00","19.2","","8.4","","50","","32","","11","","24.1","","100.69","","","","","","Clear"
"2009-09-01 12:00","2009","09","01","12:00","19.6","","6.4","","42","","","","0","","24.1","","100.63","","","","","","Clear"
"2009-09-01 13:00","2009","09","01","13:00","20.5","","7.8","","44","","27","","6","","24.1","","100.60","","","","","","Clear"
"2009-09-01 14:00","2009","09","01","14:00","20.8","","10.4","","51","","21","","11","","24.1","","100.56","","","","","","Clear"
"2009-09-01 15:00","2009","09","01","15:00","21.6","","10.8","","50","","22","","11","","24.1","","100.51","","","","","","Clear"
"2009-09-01 16:00","2009","09","01","16:00","22.0","","10.9","","49","","14","","6","","24.1","","100.47","","","","","","Clear"
"2009-09-01 17:00","2009","09","01","17:00","20.9","","11.4","","55","","16","","11","","24.1","","100.45","","","","","","Clear"
"2009-09-01 18:00","2009","09","01","18:00","20.1","","11.4","","57","","15","","13","","24.1","","100.44","","","","","","Clear"
"2009-09-01 19:00","2009","09","01","19:00","18.9","","11.4","","62","","16","","9","","24.1","","100.44","","","","","","Clear"
"2009-09-01 20:00","2009","09","01","20:00","17.9","","11.8","","67","","17","","7","","24.1","","100.47","","","","","","Mainly Clear"
"2009-09-01 21:00","2009","09","01","21:00","17.4","","12.3","","72","","17","","7","","24.1","","100.49","","","","","","Clear"
"2009-09-01 22:00","2009","09","01","22:00","17.0","","12.6","","75","","21","","6","","24.1","","100.50","","","","","","Clear"
"2009-09-01 23:00","2009","09","01","23:00","15.1","","11.6","","80","","24","","7","","24.1","","100.49","","","","","","Clear"
"2009-09-02 00:00","2009","09","02","00:00","13.4","","11.5","","88","","27","","9","","24.1","","100.52","","","","","","Clear"
"2009-09-02 01:00","2009","09","02","01:00","13.0","","11.4","","90","","26","","7","","24.1","","100.53","","","","","","Clear"
"2009-09-02 02:00","2009","09","02","02:00","12.9","","11.0","","88","","30","","7","","24.1","","100.51","","","","","","Clear"
"2009-09-02 03:00","2009","09","02","03:00","13.1","","11.0","","87","","31","","9","","24.1","","100.51","","","","","","Clear"
"2009-09-02 04:00","2009","09","02","04:00","13.5","","11.0","","85","","34","","7","","24.1","","100.53","","","","","","Clear"
"2009-09-02 05:00","2009","09","02","05:00","12.9","","10.7","","86","","34","","7","","24.1","","100.53","","","","","","Clear"
"2009-09-02 06:00","2009","09","02","06:00","13.6","","10.6","","82","","34","","7","","19.3","","100.56","","","","","","Clear"
"2009-09-02 07:00","2009","09","02","07:00","14.1","","11.5","","84","","35","","7","","19.3","","100.62","","","","","","Clear"
"2009-09-02 08:00","2009","09","02","08:00","16.9","","11.9","","72","","","","0","","24.1","","100.64","","","","","","Clear"
"2009-09-02 09:00","2009","09","02","09:00","19.2","","12.6","","66","","29","","4","","24.1","","100.61","","","","","","Clear"
"2009-09-02 10:00","2009","09","02","10:00","20.4","","12.2","","59","","26","","6","","24.1","","100.62","","","","","","Clear"
"2009-09-02 11:00","2009","09","02","11:00","21.6","","12.4","","56","","22","","6","","24.1","","100.58","","","","","","Clear"
"2009-09-02 12:00","2009","09","02","12:00","22.3","","12.3","","53","","21","","7","","24.1","","100.52","","25","","","","Clear"
"2009-09-02 13:00","2009","09","02","13:00","22.6","","11.7","","50","","15","","15","","24.1","","100.48","","25","","","","Clear"
"2009-09-02 14:00","2009","09","02","14:00","22.5","","11.1","","48","","14","","13","","24.1","","100.43","","","","","","Clear"
"2009-09-02 15:00","2009","09","02","15:00","22.8","","10.6","","46","","15","","13","","24.1","","100.36","","","","","","Clear"
"2009-09-02 16:00","2009","09","02","16:00","22.7","","11.2","","48","","15","","15","","24.1","","100.31","","25","","","","Clear"
"2009-09-02 17:00","2009","09","02","17:00","22.2","","10.5","","47","","12","","11","","24.1","","100.29","","","","","","Clear"
"2009-09-02 18:00","2009","09","02","18:00","20.9","","11.8","","56","","14","","11","","24.1","","100.28","","","","","","Clear"
"2009-09-02 19:00","2009","09","02","19:00","19.6","","12.8","","65","","16","","9","","24.1","","100.25","","","","","","Clear"
"2009-09-02 20:00","2009","09","02","20:00","18.5","","15.0","","80","","16","","7","","24.1","","100.24","","","","","","Clear"
"2009-09-02 21:00","2009","09","02","21:00","18.3","","15.2","","82","","18","","4","","24.1","","100.24","","","","","","Clear"
"2009-09-02 22:00","2009","09","02","22:00","17.6","","14.1","","80","","","","0","","24.1","","100.22","","","","","","Clear"
"2009-09-02 23:00","2009","09","02","23:00","17.7","","14.5","","82","","20","","4","","24.1","","100.19","","","","","","Clear"
"2009-09-03 00:00","2009","09","03","00:00","17.0","","14.7","","86","","","","0","","24.1","","100.20","","","","","","Clear"
"2009-09-03 01:00","2009","09","03","01:00","15.7","","13.0","","84","","34","","6","","24.1","","100.19","","","","","","Clear"
"2009-09-03 02:00","2009","09","03","02:00","14.6","","12.3","","86","","2","","4","","24.1","","100.17","","","","","","Clear"
"2009-09-03 03:00","2009","09","03","03:00","13.7","","11.8","","88","","31","","6","","24.1","","100.20","","","","","","Clear"
"2009-09-03 04:00","2009","09","03","04:00","14.7","","12.3","","86","","32","","7","","24.1","","100.19","","","","","","Clear"
"2009-09-03 05:00","2009","09","03","05:00","12.9","","11.5","","91","","33","","6","","24.1","","100.18","","","","","","Clear"
"2009-09-03 06:00","2009","09","03","06:00","13.8","","11.9","","88","","33","","6","","19.3","","100.19","","","","","","Clear"
"2009-09-03 07:00","2009","09","03","07:00","15.5","","13.0","","85","","35","","6","","24.1","","100.21","","","","","","Clear"
"2009-09-03 08:00","2009","09","03","08:00","17.6","","13.5","","77","","2","","4","","24.1","","100.20","","","","","","Clear"
"2009-09-03 09:00","2009","09","03","09:00","20.0","","13.6","","67","","28","","6","","24.1","","100.19","","","","","","Clear"
"2009-09-03 10:00","2009","09","03","10:00","21.6","","13.5","","60","","","","0","","24.1","","100.18","","25","","","","Clear"
"2009-09-03 11:00","2009","09","03","11:00","22.3","","12.6","","54","","","","0","","24.1","","100.14","","25","","","","Mainly Clear"
"2009-09-03 12:00","2009","09","03","12:00","23.3","","13.4","","54","","30","","6","","24.1","","100.08","","26","","","","Mainly Clear"
"2009-09-03 13:00","2009","09","03","13:00","23.7","","15.1","","59","","15","","15","","24.1","","100.03","","28","","","","Mainly Clear"
"2009-09-03 14:00","2009","09","03","14:00","23.5","","13.6","","54","","15","","17","","24.1","","99.98","","27","","","","Mainly Clear"
"2009-09-03 15:00","2009","09","03","15:00","23.7","","13.5","","53","","16","","13","","24.1","","99.91","","27","","","","Mainly Clear"
"2009-09-03 16:00","2009","09","03","16:00","23.1","","12.2","","50","","15","","13","","24.1","","99.88","","25","","","","Mainly Clear"
"2009-09-03 17:00","2009","09","03","17:00","22.7","","12.1","","51","","14","","13","","24.1","","99.86","","25","","","","Mainly Clear"
"2009-09-03 18:00","2009","09","03","18:00","22.2","","12.6","","55","","14","","7","","24.1","","99.83","","25","","","","Clear"
"2009-09-03 19:00","2009","09","03","19:00","20.9","","11.7","","56","","14","","7","","24.1","","99.83","","","","","","Clear"
"2009-09-03 20:00","2009","09","03","20:00","20.2","","11.9","","59","","15","","6","","24.1","","99.84","","","","","","Clear"
"2009-09-03 21:00","2009","09","03","21:00","19.3","","12.0","","63","","","","0","","24.1","","99.88","","","","","","Clear"
"2009-09-03 22:00","2009","09","03","22:00","17.8","","11.0","","64","","36","","17","","24.1","","99.89","","","","","","Mainly Clear"
"2009-09-03 23:00","2009","09","03","23:00","16.9","","11.1","","69","","1","","13","","24.1","","99.91","","","","","","Mostly Cloudy"
"2009-09-04 00:00","2009","09","04","00:00","16.0","","10.8","","71","","35","","13","","24.1","","99.92","","","","","","Clear"
"2009-09-04 01:00","2009","09","04","01:00","15.5","","11.0","","75","","33","","9","","24.1","","99.92","","","","","","Mainly Clear"
"2009-09-04 02:00","2009","09","04","02:00","15.2","","10.9","","75","","33","","9","","24.1","","99.90","","","","","","Clear"
"2009-09-04 03:00","2009","09","04","03:00","14.6","","11.3","","81","","31","","6","","24.1","","99.89","","","","","","Clear"
"2009-09-04 04:00","2009","09","04","04:00","14.8","","11.4","","80","","34","","9","","24.1","","99.88","","","","","","Clear"
"2009-09-04 05:00","2009","09","04","05:00","14.6","","11.6","","82","","34","","11","","24.1","","99.88","","","","","","Clear"
"2009-09-04 06:00","2009","09","04","06:00","14.4","","11.2","","81","","35","","9","","24.1","","99.95","","","","","","Clear"
"2009-09-04 07:00","2009","09","04","07:00","15.0","","11.4","","79","","35","","9","","24.1","","99.98","","","","","","Mainly Clear"
"2009-09-04 08:00","2009","09","04","08:00","17.5","","11.0","","66","","34","","13","","24.1","","100.00","","","","","","Mainly Clear"
"2009-09-04 09:00","2009","09","04","09:00","19.8","","11.8","","60","","36","","11","","24.1","","100.00","","","","","","Mainly Clear"
"2009-09-04 10:00","2009","09","04","10:00","21.3","","12.4","","57","","35","","9","","24.1","","100.02","","","","","","Mainly Clear"
"2009-09-04 11:00","2009","09","04","11:00","22.1","","12.2","","53","","32","","9","","24.1","","100.01","","","","","","Mainly Clear"
"2009-09-04 12:00","2009","09","04","12:00","23.5","","12.8","","51","","30","","9","","24.1","","99.96","","26","","","","Mainly Clear"
"2009-09-04 13:00","2009","09","04","13:00","23.8","","10.6","","43","","32","","6","","24.1","","99.90","","25","","","","Mainly Clear"
"2009-09-04 14:00","2009","09","04","14:00","24.1","","10.8","","43","","2","","11","","24.1","","99.86","","26","","","","Mostly Cloudy"
"2009-09-04 15:00","2009","09","04","15:00","23.9","","12.3","","48","","36","","9","","24.1","","99.84","","26","","","","Mostly Cloudy"
"2009-09-04 16:00","2009","09","04","16:00","23.3","","11.5","","47","","30","","13","","24.1","","99.85","","25","","","","Mostly Cloudy"
"2009-09-04 17:00","2009","09","04","17:00","23.8","","12.4","","49","","35","","9","","24.1","","99.86","","26","","","","Mostly Cloudy"
"2009-09-04 18:00","2009","09","04","18:00","22.4","","10.7","","47","","35","","11","","24.1","","99.86","","","","","","Mostly Cloudy"
"2009-09-04 19:00","2009","09","04","19:00","20.8","","11.7","","56","","1","","11","","24.1","","99.88","","","","","","Mainly Clear"
"2009-09-04 20:00","2009","09","04","20:00","21.9","","11.7","","52","","3","","4","","24.1","","99.94","","","","","","Mainly Clear"
"2009-09-04 21:00","2009","09","04","21:00","19.9","","11.8","","60","","2","","13","","24.1","","99.97","","","","","","Mainly Clear"
"2009-09-04 22:00","2009","09","04","22:00","18.1","","13.8","","76","","36","","9","","24.1","","100.01","","","","","","Mainly Clear"
"2009-09-04 23:00","2009","09","04","23:00","17.6","","14.3","","81","","36","","19","","24.1","","100.01","","","","","","Clear"
"2009-09-05 00:00","2009","09","05","00:00","16.8","","14.2","","85","","35","","11","","24.1","","100.06","","","","","","Clear"
"2009-09-05 01:00","2009","09","05","01:00","16.3","","14.0","","86","","36","","9","","24.1","","100.06","","","","","","Clear"
"2009-09-05 02:00","2009","09","05","02:00","15.9","","14.2","","90","","36","","13","","24.1","","100.03","","","","","","Clear"
"2009-09-05 03:00","2009","09","05","03:00","15.6","","14.3","","92","","34","","11","","24.1","","100.06","","","","","","Clear"
"2009-09-05 04:00","2009","09","05","04:00","15.5","","14.1","","91","","35","","13","","24.1","","100.09","","","","","","Clear"
"2009-09-05 05:00","2009","09","05","05:00","15.1","","14.1","","94","","35","","11","","24.1","","100.14","","","","","","Mainly Clear"
"2009-09-05 06:00","2009","09","05","06:00","14.9","","14.2","","96","","34","","9","","24.1","","100.20","","","","","","Mainly Clear"
"2009-09-05 07:00","2009","09","05","07:00","16.1","","15.1","","94","","35","","15","","24.1","","100.27","","","","","","Mainly Clear"
"2009-09-05 08:00","2009","09","05","08:00","17.9","","16.2","","90","","36","","13","","24.1","","100.28","","","","","","Mainly Clear"
"2009-09-05 09:00","2009","09","05","09:00","20.2","","16.3","","78","","7","","4","","24.1","","100.34","","25","","","","Mainly Clear"
"2009-09-05 10:00","2009","09","05","10:00","21.2","","16.6","","75","","","","0","","24.1","","100.34","","26","","","","Mainly Clear"
"2009-09-05 11:00","2009","09","05","11:00","22.6","","16.6","","69","","36","","4","","24.1","","100.35","","28","","","","Mainly Clear"
"2009-09-05 12:00","2009","09","05","12:00","21.7","","16.9","","74","","14","","15","","24.1","","100.36","","27","","","","Mainly Clear"
"2009-09-05 13:00","2009","09","05","13:00","22.0","","17.0","","73","","14","","9","","24.1","","100.37","","27","","","","Mainly Clear"
"2009-09-05 14:00","2009","09","05","14:00","23.3","","17.7","","71","","15","","11","","24.1","","100.33","","29","","","","Mainly Clear"
"2009-09-05 15:00","2009","09","05","15:00","23.0","","16.9","","69","","15","","13","","24.1","","100.30","","28","","","","Mainly Clear"
"2009-09-05 16:00","2009","09","05","16:00","22.9","","16.6","","68","","18","","13","","24.1","","100.29","","28","","","","Mainly Clear"
"2009-09-05 17:00","2009","09","05","17:00","22.2","","15.5","","66","","17","","9","","24.1","","100.29","","26","","","","Mainly Clear"
"2009-09-05 18:00","2009","09","05","18:00","21.1","","15.5","","70","","15","","7","","24.1","","100.32","","25","","","","Mainly Clear"
"2009-09-05 19:00","2009","09","05","19:00","20.4","","15.2","","72","","10","","7","","24.1","","100.33","","","","","","Mainly Clear"
"2009-09-05 20:00","2009","09","05","20:00","20.1","","14.1","","68","","13","","7","","24.1","","100.40","","","","","","Mainly Clear"
"2009-09-05 21:00","2009","09","05","21:00","18.7","","13.6","","72","","10","","4","","24.1","","100.43","","","","","","Mainly Clear"
"2009-09-05 22:00","2009","09","05","22:00","18.6","","13.5","","72","","10","","6","","24.1","","100.45","","","","","","Mainly Clear"
"2009-09-05 23:00","2009","09","05","23:00","18.4","","13.8","","75","","6","","4","","24.1","","100.47","","","","","","Mainly Clear"
"2009-09-06 00:00","2009","09","06","00:00","18.5","","14.1","","76","","7","","4","","24.1","","100.51","","","","","","Clear"
"2009-09-06 01:00","2009","09","06","01:00","16.3","","13.7","","85","","","","0","","24.1","","100.52","","","","","","Clear"
"2009-09-06 02:00","2009","09","06","02:00","16.0","","14.0","","88","","3","","4","","24.1","","100.53","","","","","","Mainly Clear"
"2009-09-06 03:00","2009","09","06","03:00","15.3","","13.7","","90","","2","","6","","24.1","","100.52","","","","","","Mainly Clear"
"2009-09-06 04:00","2009","09","06","04:00","14.4","","13.4","","94","","3","","7","","19.3","","100.53","","","","","","Mainly Clear"
"2009-09-06 05:00","2009","09","06","05:00","14.9","","14.1","","95","","5","","6","","19.3","","100.58","","","","","","Mainly Clear"
"2009-09-06 06:00","2009","09","06","06:00","15.5","","14.3","","93","","4","","7","","19.3","","100.63","","","","","","Mainly Clear"
"2009-09-06 07:00","2009","09","06","07:00","17.5","","15.5","","88","","7","","7","","24.1","","100.66","","","","","","Mainly Clear"
"2009-09-06 08:00","2009","09","06","08:00","19.7","","15.5","","77","","10","","11","","24.1","","100.66","","","","","","Mainly Clear"
"2009-09-06 09:00","2009","09","06","09:00","20.9","","13.0","","61","","14","","20","","24.1","","100.68","","","","","","Mainly Clear"
"2009-09-06 10:00","2009","09","06","10:00","21.2","","12.6","","58","","14","","20","","24.1","","100.69","","","","","","Mainly Clear"
"2009-09-06 11:00","2009","09","06","11:00","21.7","","11.8","","53","","12","","17","","24.1","","100.67","","","","","","Mainly Clear"
"2009-09-06 12:00","2009","09","06","12:00","22.2","","11.2","","50","","10","","20","","24.1","","100.62","","","","","","Mainly Clear"
"2009-09-06 13:00","2009","09","06","13:00","22.5","","11.9","","51","","11","","20","","24.1","","100.60","","25","","","","Mainly Clear"
"2009-09-06 14:00","2009","09","06","14:00","22.4","","12.6","","54","","12","","19","","24.1","","100.55","","25","","","","Mainly Clear"
"2009-09-06 15:00","2009","09","06","15:00","22.3","","13.4","","57","","10","","15","","24.1","","100.49","","25","","","","Mainly Clear"
"2009-09-06 16:00","2009","09","06","16:00","22.3","","13.4","","57","","9","","20","","24.1","","100.44","","25","","","","Mainly Clear"
"2009-09-06 17:00","2009","09","06","17:00","21.0","","13.4","","62","","8","","15","","24.1","","100.44","","","","","","Mainly Clear"
"2009-09-06 18:00","2009","09","06","18:00","20.5","","12.9","","62","","10","","22","","24.1","","100.42","","","","","","Mainly Clear"
"2009-09-06 19:00","2009","09","06","19:00","19.5","","13.0","","66","","10","","9","","24.1","","100.40","","","","","","Mainly Clear"
"2009-09-06 20:00","2009","09","06","20:00","18.9","","13.1","","69","","11","","9","","24.1","","100.40","","","","","","Mainly Clear"
"2009-09-06 21:00","2009","09","06","21:00","18.7","","13.3","","71","","11","","11","","24.1","","100.38","","","","","","Mainly Clear"
"2009-09-06 22:00","2009","09","06","22:00","18.3","","13.5","","74","","12","","11","","24.1","","100.37","","","","","","Mostly Cloudy"
"2009-09-06 23:00","2009","09","06","23:00","18.1","","13.6","","75","","12","","7","","24.1","","100.34","","","","","","Mostly Cloudy"
"2009-09-07 00:00","2009","09","07","00:00","18.2","","13.5","","74","","8","","6","","24.1","","100.34","","","","","","Mostly Cloudy"
"2009-09-07 01:00","2009","09","07","01:00","17.0","","13.3","","79","","7","","7","","24.1","","100.32","","","","","","Mostly Cloudy"
"2009-09-07 02:00","2009","09","07","02:00","16.6","","13.6","","82","","2","","9","","24.1","","100.26","","","","","","Mostly Cloudy"
"2009-09-07 03:00","2009","09","07","03:00","16.7","","13.7","","82","","3","","7","","24.1","","100.23","","","","","","Mostly Cloudy"
"2009-09-07 04:00","2009","09","07","04:00","16.2","","13.7","","85","","3","","6","","24.1","","100.19","","","","","","Mostly Cloudy"
"2009-09-07 05:00","2009","09","07","05:00","16.0","","13.8","","87","","2","","7","","19.3","","100.17","","","","","","Mostly Cloudy"
"2009-09-07 06:00","2009","09","07","06:00","15.3","","13.5","","89","","2","","9","","24.1","","100.15","","","","","","Mostly Cloudy"
"2009-09-07 07:00","2009","09","07","07:00","16.5","","14.5","","88","","2","","7","","24.1","","100.16","","","","","","Mostly Cloudy"
"2009-09-07 08:00","2009","09","07","08:00","18.8","","16.2","","85","","6","","9","","24.1","","100.15","","","","","","Mostly Cloudy"
"2009-09-07 09:00","2009","09","07","09:00","20.3","","16.6","","79","","11","","13","","24.1","","100.15","","25","","","","Mostly Cloudy"
"2009-09-07 10:00","2009","09","07","10:00","21.5","","16.2","","72","","10","","7","","24.1","","100.13","","26","","","","Mostly Cloudy"
"2009-09-07 11:00","2009","09","07","11:00","22.9","","17.2","","70","","12","","11","","24.1","","100.12","","28","","","","Mostly Cloudy"
"2009-09-07 12:00","2009","09","07","12:00","23.2","","16.7","","67","","8","","13","","24.1","","100.07","","28","","","","Mostly Cloudy"
"2009-09-07 13:00","2009","09","07","13:00","23.6","","17.6","","69","","12","","13","","24.1","","100.03","","29","","","","Mainly Clear"
"2009-09-07 14:00","2009","09","07","14:00","23.7","","16.9","","66","","14","","11","","24.1","","99.99","","29","","","","Clear"
"2009-09-07 15:00","2009","09","07","15:00","23.5","","16.7","","66","","13","","9","","24.1","","99.95","","29","","","","Clear"
"2009-09-07 16:00","2009","09","07","16:00","23.4","","16.8","","66","","16","","15","","24.1","","99.92","","29","","","","Mainly Clear"
"2009-09-07 17:00","2009","09","07","17:00","22.2","","16.8","","71","","14","","17","","24.1","","99.93","","27","","","","Mostly Cloudy"
"2009-09-07 18:00","2009","09","07","18:00","20.8","","16.8","","78","","14","","13","","24.1","","99.92","","26","","","","Mostly Cloudy"
"2009-09-07 19:00","2009","09","07","19:00","20.2","","16.7","","80","","12","","7","","24.1","","99.92","","25","","","","Mostly Cloudy"
"2009-09-07 20:00","2009","09","07","20:00","19.9","","17.1","","84","","10","","4","","24.1","","99.97","","","","","","Mostly Cloudy"
"2009-09-07 21:00","2009","09","07","21:00","19.7","","17.0","","84","","8","","6","","19.3","","99.97","","","","","","Mostly Cloudy"
"2009-09-07 22:00","2009","09","07","22:00","19.3","","17.2","","88","","","","0","","19.3","","99.95","","","","","","Mostly Cloudy"
"2009-09-07 23:00","2009","09","07","23:00","18.4","","17.0","","92","","4","","6","","19.3","","99.94","","","","","","Mostly Cloudy"
"2009-09-08 00:00","2009","09","08","00:00","18.3","","17.3","","94","","2","","15","","16.1","","99.93","","","","","","Mostly Cloudy"
"2009-09-08 01:00","2009","09","08","01:00","17.7","","16.8","","94","","1","","13","","12.9","","99.91","","","","","","Mostly Cloudy"
"2009-09-08 02:00","2009","09","08","02:00","17.4","","16.7","","96","","3","","7","","9.7","","99.91","","","","","","Fog"
"2009-09-08 03:00","2009","09","08","03:00","17.5","","17.4","","99","","36","","7","","2.4","","99.93","","","","","","Fog"
"2009-09-08 04:00","2009","09","08","04:00","17.6","","17.2","","98","","34","","11","","3.6","","99.94","","","","","","Fog"
"2009-09-08 05:00","2009","09","08","05:00","17.3","","17.0","","98","","1","","9","","4.0","","99.94","","","","","","Fog"
"2009-09-08 06:00","2009","09","08","06:00","17.6","","17.0","","96","","1","","7","","4.8","","99.94","","","","","","Fog"
"2009-09-08 07:00","2009","09","08","07:00","16.7","","15.5","","93","","36","","13","","9.7","","100.00","","","","","","Fog"
"2009-09-08 08:00","2009","09","08","08:00","18.8","","17.2","","90","","3","","4","","9.7","","100.04","","","","","","Fog"
"2009-09-08 09:00","2009","09","08","09:00","19.9","","17.9","","88","","2","","7","","12.9","","100.06","","","","","","Mostly Cloudy"
"2009-09-08 10:00","2009","09","08","10:00","21.2","","18.2","","83","","10","","7","","19.3","","100.06","","27","","","","Mostly Cloudy"
"2009-09-08 11:00","2009","09","08","11:00","22.4","","17.6","","74","","7","","15","","19.3","","100.06","","28","","","","Mostly Cloudy"
"2009-09-08 12:00","2009","09","08","12:00","22.9","","17.7","","73","","6","","11","","19.3","","100.01","","29","","","","Mostly Cloudy"
"2009-09-08 13:00","2009","09","08","13:00","24.2","","17.6","","67","","10","","11","","24.1","","99.96","","30","","","","Mainly Clear"
"2009-09-08 14:00","2009","09","08","14:00","24.1","","17.5","","67","","14","","17","","24.1","","99.93","","30","","","","Mainly Clear"
"2009-09-08 15:00","2009","09","08","15:00","24.0","","15.2","","58","","9","","13","","24.1","","99.88","","28","","","","Mainly Clear"
"2009-09-08 16:00","2009","09","08","16:00","25.1","","13.0","","47","","9","","13","","24.1","","99.85","","28","","","","Mainly Clear"
"2009-09-08 17:00","2009","09","08","17:00","24.3","","14.1","","53","","14","","13","","24.1","","99.84","","28","","","","Mainly Clear"
"2009-09-08 18:00","2009","09","08","18:00","23.0","","13.0","","53","","13","","11","","24.1","","99.87","","26","","","","Clear"
"2009-09-08 19:00","2009","09","08","19:00","22.2","","13.8","","59","","13","","6","","24.1","","99.86","","25","","","","Clear"
"2009-09-08 20:00","2009","09","08","20:00","21.6","","13.3","","59","","11","","7","","24.1","","99.91","","25","","","","Clear"
"2009-09-08 21:00","2009","09","08","21:00","20.6","","13.2","","63","","2","","4","","24.1","","99.93","","","","","","Clear"
"2009-09-08 22:00","2009","09","08","22:00","20.1","","12.7","","62","","","","0","","24.1","","99.96","","","","","","Clear"
"2009-09-08 23:00","2009","09","08","23:00","18.6","","14.6","","78","","36","","9","","24.1","","99.97","","","","","","Clear"
"2009-09-09 00:00","2009","09","09","00:00","17.9","","14.8","","82","","33","","11","","24.1","","100.01","","","","","","Mainly Clear"
"2009-09-09 01:00","2009","09","09","01:00","17.3","","14.9","","86","","35","","11","","24.1","","100.02","","","","","","Mainly Clear"
"2009-09-09 02:00","2009","09","09","02:00","17.2","","14.8","","86","","36","","15","","24.1","","100.00","","","","","","Mainly Clear"
"2009-09-09 03:00","2009","09","09","03:00","16.7","","14.7","","88","","36","","6","","24.1","","100.02","","","","","","Mostly Cloudy"
"2009-09-09 04:00","2009","09","09","04:00","16.2","","14.4","","89","","32","","7","","24.1","","100.07","","","","","","Mostly Cloudy"
"2009-09-09 05:00","2009","09","09","05:00","15.8","","14.0","","89","","","","0","","19.3","","100.09","","","","","","Mainly Clear"
"2009-09-09 06:00","2009","09","09","06:00","16.0","","14.4","","90","","36","","7","","19.3","","100.14","","","","","","Mostly Cloudy"
"2009-09-09 07:00","2009","09","09","07:00","17.5","","15.2","","86","","2","","7","","24.1","","100.21","","","","","","Mostly Cloudy"
"2009-09-09 08:00","2009","09","09","08:00","19.7","","16.2","","80","","4","","9","","24.1","","100.27","","","","","","Mostly Cloudy"
"2009-09-09 09:00","2009","09","09","09:00","21.0","","16.3","","75","","6","","6","","24.1","","100.30","","26","","","","Mostly Cloudy"
"2009-09-09 10:00","2009","09","09","10:00","22.3","","17.4","","74","","5","","4","","24.1","","100.30","","28","","","","Mostly Cloudy"
"2009-09-09 11:00","2009","09","09","11:00","23.3","","17.2","","69","","9","","9","","24.1","","100.30","","29","","","","Mostly Cloudy"
"2009-09-09 12:00","2009","09","09","12:00","23.6","","16.9","","66","","15","","17","","24.1","","100.27","","29","","","","Mostly Cloudy"
"2009-09-09 13:00","2009","09","09","13:00","23.7","","16.6","","64","","14","","17","","24.1","","100.26","","29","","","","Mostly Cloudy"
"2009-09-09 14:00","2009","09","09","14:00","23.0","","15.4","","62","","13","","17","","24.1","","100.21","","27","","","","Mostly Cloudy"
"2009-09-09 15:00","2009","09","09","15:00","22.0","","15.0","","64","","12","","24","","24.1","","100.25","","26","","","","Mostly Cloudy"
"2009-09-09 16:00","2009","09","09","16:00","21.9","","16.4","","71","","14","","17","","24.1","","100.25","","27","","","","Mostly Cloudy"
"2009-09-09 17:00","2009","09","09","17:00","22.0","","15.1","","65","","14","","13","","24.1","","100.28","","26","","","","Mainly Clear"
"2009-09-09 18:00","2009","09","09","18:00","21.2","","15.0","","68","","12","","11","","24.1","","100.31","","25","","","","Mostly Cloudy"
"2009-09-09 19:00","2009","09","09","19:00","20.5","","13.5","","64","","10","","7","","24.1","","100.34","","","","","","Mainly Clear"
"2009-09-09 20:00","2009","09","09","20:00","19.9","","13.5","","67","","9","","7","","24.1","","100.36","","","","","","Mainly Clear"
"2009-09-09 21:00","2009","09","09","21:00","19.5","","13.6","","69","","10","","7","","24.1","","100.40","","","","","","Mainly Clear"
"2009-09-09 22:00","2009","09","09","22:00","18.3","","14.0","","76","","7","","6","","24.1","","100.46","","","","","","Mainly Clear"
"2009-09-09 23:00","2009","09","09","23:00","18.6","","14.6","","78","","8","","7","","24.1","","100.49","","","","","","Mainly Clear"
"2009-09-10 00:00","2009","09","10","00:00","16.8","","14.5","","86","","5","","6","","24.1","","100.51","","","","","","Mainly Clear"
"2009-09-10 01:00","2009","09","10","01:00","16.4","","14.3","","87","","4","","7","","24.1","","100.52","","","","","","Mainly Clear"
"2009-09-10 02:00","2009","09","10","02:00","15.5","","12.5","","82","","5","","9","","24.1","","100.52","","","","","","Mainly Clear"
"2009-09-10 03:00","2009","09","10","03:00","16.1","","11.6","","75","","6","","11","","24.1","","100.51","","","","","","Mainly Clear"
"2009-09-10 04:00","2009","09","10","04:00","15.0","","10.8","","76","","4","","7","","24.1","","100.56","","","","","","Mainly Clear"
"2009-09-10 05:00","2009","09","10","05:00","13.9","","10.0","","77","","2","","9","","24.1","","100.58","","","","","","Mainly Clear"
"2009-09-10 06:00","2009","09","10","06:00","13.7","","9.5","","76","","1","","9","","24.1","","100.62","","","","","","Mainly Clear"
"2009-09-10 07:00","2009","09","10","07:00","14.8","","10.4","","75","","2","","7","","24.1","","100.68","","","","","","Mainly Clear"
"2009-09-10 08:00","2009","09","10","08:00","17.9","","13.2","","74","","6","","9","","24.1","","100.70","","","","","","Mostly Cloudy"
"2009-09-10 09:00","2009","09","10","09:00","19.3","","15.1","","77","","6","","13","","24.1","","100.72","","","","","","Mostly Cloudy"
"2009-09-10 10:00","2009","09","10","10:00","20.9","","15.4","","71","","8","","9","","24.1","","100.68","","25","","","","Mostly Cloudy"
"2009-09-10 11:00","2009","09","10","11:00","23.0","","15.6","","63","","12","","9","","24.1","","100.65","","27","","","","Mostly Cloudy"
"2009-09-10 12:00","2009","09","10","12:00","23.3","","14.7","","58","","14","","15","","24.1","","100.65","","27","","","","Mostly Cloudy"
"2009-09-10 13:00","2009","09","10","13:00","23.6","","14.1","","55","","11","","24","","24.1","","100.65","","27","","","","Mainly Clear"
"2009-09-10 14:00","2009","09","10","14:00","23.9","","12.5","","49","","11","","24","","24.1","","100.60","","26","","","","Mainly Clear"
"2009-09-10 15:00","2009","09","10","15:00","23.6","","11.0","","45","","11","","20","","24.1","","100.60","","25","","","","Mainly Clear"
"2009-09-10 16:00","2009","09","10","16:00","22.7","","10.3","","45","","10","","20","","24.1","","100.60","","","","","","Mainly Clear"
"2009-09-10 17:00","2009","09","10","17:00","22.0","","10.0","","46","","9","","24","","24.1","","100.60","","","","","","Mainly Clear"
"2009-09-10 18:00","2009","09","10","18:00","19.8","","12.2","","62","","9","","22","","24.1","","100.63","","","","","","Mostly Cloudy"
"2009-09-10 19:00","2009","09","10","19:00","18.8","","10.9","","60","","8","","20","","24.1","","100.66","","","","","","Mainly Clear"
"2009-09-10 20:00","2009","09","10","20:00","18.7","","10.7","","60","","8","","15","","24.1","","100.64","","","","","","Mainly Clear"
"2009-09-10 21:00","2009","09","10","21:00","18.0","","11.2","","64","","8","","13","","24.1","","100.65","","","","","","Mainly Clear"
"2009-09-10 22:00","2009","09","10","22:00","17.6","","11.9","","69","","8","","9","","24.1","","100.60","","","","","","Mainly Clear"
"2009-09-10 23:00","2009","09","10","23:00","17.0","","12.1","","73","","6","","7","","24.1","","100.58","","","","","","Mostly Cloudy"
"2009-09-11 00:00","2009","09","11","00:00","15.3","","11.4","","78","","5","","9","","24.1","","100.52","","","","","","Mostly Cloudy"
"2009-09-11 01:00","2009","09","11","01:00","15.2","","11.4","","78","","4","","9","","24.1","","100.51","","","","","","Mostly Cloudy"
"2009-09-11 02:00","2009","09","11","02:00","15.1","","11.5","","79","","4","","9","","24.1","","100.51","","","","","","Mostly Cloudy"
"2009-09-11 03:00","2009","09","11","03:00","15.1","","11.8","","81","","5","","9","","24.1","","100.51","","","","","","Mostly Cloudy"
"2009-09-11 04:00","2009","09","11","04:00","15.6","","12.2","","80","","7","","6","","24.1","","100.51","","","","","","Mostly Cloudy"
"2009-09-11 05:00","2009","09","11","05:00","13.9","","11.5","","85","","3","","6","","24.1","","100.51","","","","","","Mainly Clear"
"2009-09-11 06:00","2009","09","11","06:00","13.1","","10.8","","86","","2","","11","","24.1","","100.54","","","","","","Mostly Cloudy"
"2009-09-11 07:00","2009","09","11","07:00","14.8","","12.2","","84","","2","","9","","24.1","","100.52","","","","","","Mostly Cloudy"
"2009-09-11 08:00","2009","09","11","08:00","16.0","","12.3","","79","","4","","7","","24.1","","100.51","","","","","","Cloudy"
"2009-09-11 09:00","2009","09","11","09:00","17.7","","13.0","","74","","7","","9","","24.1","","100.51","","","","","","Mostly Cloudy"
"2009-09-11 10:00","2009","09","11","10:00","18.4","","12.7","","69","","11","","7","","24.1","","100.47","","","","","","Mostly Cloudy"
"2009-09-11 11:00","2009","09","11","11:00","19.1","","11.4","","61","","9","","9","","24.1","","100.45","","","","","","Mostly Cloudy"
"2009-09-11 12:00","2009","09","11","12:00","19.4","","10.2","","55","","7","","15","","24.1","","100.43","","","","","","Mostly Cloudy"
"2009-09-11 13:00","2009","09","11","13:00","19.6","","10.7","","56","","10","","17","","24.1","","100.38","","","","","","Mostly Cloudy"
"2009-09-11 14:00","2009","09","11","14:00","19.8","","7.4","","45","","8","","9","","24.1","","100.33","","","","","","Mostly Cloudy"
"2009-09-11 15:00","2009","09","11","15:00","19.9","","7.5","","45","","9","","15","","24.1","","100.29","","","","","","Cloudy"
"2009-09-11 16:00","2009","09","11","16:00","19.2","","6.7","","44","","11","","17","","24.1","","100.26","","","","","","Cloudy"
"2009-09-11 17:00","2009","09","11","17:00","18.7","","8.0","","50","","11","","11","","24.1","","100.25","","","","","","Cloudy"
"2009-09-11 18:00","2009","09","11","18:00","18.1","","10.6","","62","","12","","11","","24.1","","100.23","","","","","","Mostly Cloudy"
"2009-09-11 19:00","2009","09","11","19:00","17.8","","11.4","","66","","5","","6","","24.1","","100.23","","","","","","Mostly Cloudy"
"2009-09-11 20:00","2009","09","11","20:00","16.0","","11.6","","75","","5","","6","","24.1","","100.22","","","","","","Mostly Cloudy"
"2009-09-11 21:00","2009","09","11","21:00","15.0","","11.4","","79","","36","","9","","24.1","","100.18","","","","","","Mainly Clear"
"2009-09-11 22:00","2009","09","11","22:00","15.1","","11.1","","77","","36","","11","","24.1","","100.14","","","","","","Mainly Clear"
"2009-09-11 23:00","2009","09","11","23:00","13.4","","9.6","","78","","34","","13","","24.1","","100.08","","","","","","Clear"
"2009-09-12 00:00","2009","09","12","00:00","13.3","","9.9","","80","","36","","15","","24.1","","100.07","","","","","","Mainly Clear"
"2009-09-12 01:00","2009","09","12","01:00","13.2","","8.2","","72","","1","","13","","24.1","","100.05","","","","","","Mainly Clear"
"2009-09-12 02:00","2009","09","12","02:00","13.1","","8.1","","72","","35","","17","","24.1","","100.03","","","","","","Mainly Clear"
"2009-09-12 03:00","2009","09","12","03:00","13.9","","9.3","","74","","36","","20","","24.1","","99.99","","","","","","Mostly Cloudy"
"2009-09-12 04:00","2009","09","12","04:00","14.0","","10.2","","78","","35","","20","","24.1","","100.00","","","","","","Mostly Cloudy"
"2009-09-12 05:00","2009","09","12","05:00","14.1","","10.4","","78","","36","","19","","24.1","","99.96","","","","","","Mostly Cloudy"
"2009-09-12 06:00","2009","09","12","06:00","14.4","","11.2","","81","","35","","15","","24.1","","99.99","","","","","","Mostly Cloudy"
"2009-09-12 07:00","2009","09","12","07:00","14.9","","12.0","","83","","36","","19","","24.1","","100.00","","","","","","Mostly Cloudy"
"2009-09-12 08:00","2009","09","12","08:00","16.0","","12.6","","80","","36","","17","","24.1","","100.01","","","","","","Mostly Cloudy"
"2009-09-12 09:00","2009","09","12","09:00","19.3","","13.1","","67","","2","","19","","24.1","","99.99","","","","","","Mostly Cloudy"
"2009-09-12 10:00","2009","09","12","10:00","21.1","","11.1","","53","","3","","17","","24.1","","99.96","","","","","","Mostly Cloudy"
"2009-09-12 11:00","2009","09","12","11:00","21.3","","10.9","","51","","3","","13","","24.1","","99.92","","","","","","Mostly Cloudy"
"2009-09-12 12:00","2009","09","12","12:00","22.6","","10.6","","47","","4","","11","","24.1","","99.86","","","","","","Mostly Cloudy"
"2009-09-12 13:00","2009","09","12","13:00","22.9","","11.6","","49","","36","","7","","24.1","","99.80","","25","","","","Mostly Cloudy"
"2009-09-12 14:00","2009","09","12","14:00","23.0","","14.1","","57","","16","","9","","24.1","","99.71","","26","","","","Mostly Cloudy"
"2009-09-12 15:00","2009","09","12","15:00","23.0","","13.5","","55","","15","","15","","24.1","","99.70","","26","","","","Mainly Clear"
"2009-09-12 16:00","2009","09","12","16:00","22.7","","13.8","","57","","14","","9","","24.1","","99.70","","26","","","","Mainly Clear"
"2009-09-12 17:00","2009","09","12","17:00","23.0","","10.9","","46","","3","","13","","24.1","","99.69","","25","","","","Mainly Clear"
"2009-09-12 18:00","2009","09","12","18:00","21.6","","11.4","","52","","1","","9","","24.1","","99.67","","","","","","Mainly Clear"
"2009-09-12 19:00","2009","09","12","19:00","20.6","","12.5","","60","","35","","20","","24.1","","99.69","","","","","","Mainly Clear"
"2009-09-12 20:00","2009","09","12","20:00","19.1","","12.2","","64","","36","","20","","24.1","","99.71","","","","","","Mainly Clear"
"2009-09-12 21:00","2009","09","12","21:00","17.6","","11.0","","65","","35","","22","","24.1","","99.71","","","","","","Mainly Clear"
"2009-09-12 22:00","2009","09","12","22:00","17.3","","10.7","","65","","34","","19","","24.1","","99.72","","","","","","Mainly Clear"
"2009-09-12 23:00","2009","09","12","23:00","16.3","","11.3","","72","","32","","17","","24.1","","99.70","","","","","","Clear"
"2009-09-13 00:00","2009","09","13","00:00","14.5","","10.5","","77","","31","","11","","24.1","","99.69","","","","","","Clear"
"2009-09-13 01:00","2009","09","13","01:00","13.6","","10.5","","82","","31","","9","","24.1","","99.70","","","","","","Clear"
"2009-09-13 02:00","2009","09","13","02:00","13.2","","10.5","","84","","30","","6","","24.1","","99.66","","","","","","Clear"
"2009-09-13 03:00","2009","09","13","03:00","13.3","","10.8","","85","","29","","11","","24.1","","99.61","","","","","","Clear"
"2009-09-13 04:00","2009","09","13","04:00","13.8","","11.1","","84","","28","","11","","24.1","","99.58","","","","","","Clear"
"2009-09-13 05:00","2009","09","13","05:00","15.1","","11.8","","81","","31","","13","","24.1","","99.57","","","","","","Clear"
"2009-09-13 06:00","2009","09","13","06:00","16.3","","12.1","","76","","31","","22","","24.1","","99.58","","","","","","Mainly Clear"
"2009-09-13 07:00","2009","09","13","07:00","17.0","","13.2","","78","","31","","15","","24.1","","99.60","","","","","","Mainly Clear"
"2009-09-13 08:00","2009","09","13","08:00","18.7","","15.5","","82","","34","","26","","24.1","","99.62","","","","","","Mainly Clear"
"2009-09-13 09:00","2009","09","13","09:00","19.9","","16.6","","81","","32","","22","","24.1","","99.63","","","","","","Mostly Cloudy"
"2009-09-13 10:00","2009","09","13","10:00","21.2","","17.1","","77","","34","","19","","24.1","","99.63","","27","","","","Mostly Cloudy"
"2009-09-13 11:00","2009","09","13","11:00","21.9","","17.2","","75","","35","","15","","24.1","","99.64","","27","","","","Mostly Cloudy"
"2009-09-13 12:00","2009","09","13","12:00","24.2","","16.6","","63","","35","","20","","24.1","","99.62","","29","","","","Mainly Clear"
"2009-09-13 13:00","2009","09","13","13:00","24.0","","14.7","","56","","35","","22","","24.1","","99.58","","28","","","","Mainly Clear"
"2009-09-13 14:00","2009","09","13","14:00","24.4","","15.0","","56","","34","","22","","24.1","","99.53","","28","","","","Mainly Clear"
"2009-09-13 15:00","2009","09","13","15:00","24.0","","15.2","","58","","33","","19","","24.1","","99.50","","28","","","","Mainly Clear"
"2009-09-13 16:00","2009","09","13","16:00","23.7","","14.9","","58","","34","","26","","24.1","","99.48","","28","","","","Mainly Clear"
"2009-09-13 17:00","2009","09","13","17:00","22.6","","14.2","","59","","35","","24","","24.1","","99.48","","26","","","","Mainly Clear"
"2009-09-13 18:00","2009","09","13","18:00","21.1","","13.3","","61","","36","","19","","24.1","","99.50","","","","","","Mainly Clear"
"2009-09-13 19:00","2009","09","13","19:00","20.1","","12.5","","62","","35","","20","","24.1","","99.52","","","","","","Mostly Cloudy"
"2009-09-13 20:00","2009","09","13","20:00","18.0","","12.6","","71","","34","","22","","24.1","","99.57","","","","","","Mainly Clear"
"2009-09-13 21:00","2009","09","13","21:00","16.7","","13.0","","79","","34","","15","","24.1","","99.58","","","","","","Clear"
"2009-09-13 22:00","2009","09","13","22:00","15.4","","13.0","","86","","35","","17","","24.1","","99.56","","","","","","Clear"
"2009-09-13 23:00","2009","09","13","23:00","15.1","","13.0","","87","","32","","7","","24.1","","99.53","","","","","","Clear"
"2009-09-14 00:00","2009","09","14","00:00","13.9","","12.6","","92","","30","","9","","24.1","","99.54","","","","","","Clear"
"2009-09-14 01:00","2009","09","14","01:00","13.9","","12.7","","92","","30","","11","","24.1","","99.53","","","","","","Clear"
"2009-09-14 02:00","2009","09","14","02:00","13.2","","12.0","","92","","32","","11","","24.1","","99.51","","","","","","Clear"
"2009-09-14 03:00","2009","09","14","03:00","12.8","","11.7","","93","","31","","9","","24.1","","99.51","","","","","","Clear"
"2009-09-14 04:00","2009","09","14","04:00","12.6","","11.6","","94","","31","","9","","24.1","","99.53","","","","","","Clear"
"2009-09-14 05:00","2009","09","14","05:00","13.2","","12.3","","94","","31","","11","","24.1","","99.51","","","","","","Mainly Clear"
"2009-09-14 06:00","2009","09","14","06:00","14.8","","13.5","","92","","22","","7","","24.1","","99.52","","","","","","Mostly Cloudy"
"2009-09-14 07:00","2009","09","14","07:00","16.3","","14.8","","91","","27","","11","","24.1","","99.53","","","","","","Cloudy"
"2009-09-14 08:00","2009","09","14","08:00","17.8","","15.6","","87","","28","","19","","24.1","","99.56","","","","","","Mostly Cloudy"
"2009-09-14 09:00","2009","09","14","09:00","19.1","","15.6","","80","","29","","9","","24.1","","99.53","","","","","","Mostly Cloudy"
"2009-09-14 10:00","2009","09","14","10:00","21.6","","14.5","","64","","32","","22","","24.1","","99.50","","25","","","","Mostly Cloudy"
"2009-09-14 11:00","2009","09","14","11:00","21.7","","13.5","","60","","31","","24","","24.1","","99.46","","25","","","","Mostly Cloudy"
"2009-09-14 12:00","2009","09","14","12:00","23.4","","13.9","","55","","29","","32","","24.1","","99.39","","27","","","","Mostly Cloudy"
"2009-09-14 13:00","2009","09","14","13:00","24.9","","14.3","","52","","30","","22","","24.1","","99.34","","28","","","","Mostly Cloudy"
"2009-09-14 14:00","2009","09","14","14:00","25.0","","14.0","","50","","31","","28","","24.1","","99.27","","28","","","","Mostly Cloudy"
"2009-09-14 15:00","2009","09","14","15:00","24.8","","13.5","","49","","32","","24","","24.1","","99.25","","28","","","","Mostly Cloudy"
"2009-09-14 16:00","2009","09","14","16:00","24.8","","14.0","","51","","31","","28","","24.1","","99.23","","28","","","","Mainly Clear"
"2009-09-14 17:00","2009","09","14","17:00","23.2","","13.8","","55","","31","","30","","24.1","","99.21","","26","","","","Mainly Clear"
"2009-09-14 18:00","2009","09","14","18:00","22.6","","13.8","","58","","31","","32","","24.1","","99.22","","26","","","","Mainly Clear"
"2009-09-14 19:00","2009","09","14","19:00","21.0","","14.3","","66","","32","","17","","24.1","","99.26","","25","","","","Mainly Clear"
"2009-09-14 20:00","2009","09","14","20:00","20.0","","14.8","","72","","29","","17","","24.1","","99.28","","","","","","Clear"
"2009-09-14 21:00","2009","09","14","21:00","18.2","","14.6","","80","","28","","11","","24.1","","99.29","","","","","","Clear"
"2009-09-14 22:00","2009","09","14","22:00","18.5","","15.0","","80","","30","","13","","24.1","","99.29","","","","","","Mainly Clear"
"2009-09-14 23:00","2009","09","14","23:00","17.6","","15.0","","85","","29","","15","","24.1","","99.28","","","","","","Mainly Clear"
"2009-09-15 00:00","2009","09","15","00:00","16.1","","14.6","","91","","26","","9","","24.1","","99.32","","","","","","Mainly Clear"
"2009-09-15 01:00","2009","09","15","01:00","17.0","","15.2","","89","","29","","15","","24.1","","99.32","","","","","","Clear"
"2009-09-15 02:00","2009","09","15","02:00","17.2","","15.2","","88","","30","","19","","24.1","","99.29","","","","","","Mainly Clear"
"2009-09-15 03:00","2009","09","15","03:00","17.0","","15.1","","89","","31","","19","","24.1","","99.29","","","","","","Mainly Clear"
"2009-09-15 04:00","2009","09","15","04:00","16.7","","15.1","","90","","31","","17","","24.1","","99.32","","","","","","Mainly Clear"
"2009-09-15 05:00","2009","09","15","05:00","16.4","","15.0","","91","","32","","17","","24.1","","99.35","","","","","","Mainly Clear"
"2009-09-15 06:00","2009","09","15","06:00","16.4","","15.0","","91","","35","","17","","24.1","","99.40","","","","","","Mostly Cloudy"
"2009-09-15 07:00","2009","09","15","07:00","17.1","","15.4","","90","","36","","19","","24.1","","99.47","","","","","","Mainly Clear"
"2009-09-15 08:00","2009","09","15","08:00","17.9","","15.7","","87","","36","","17","","24.1","","99.51","","","","","","Mainly Clear"
"2009-09-15 09:00","2009","09","15","09:00","19.5","","12.3","","63","","6","","15","","24.1","","99.56","","","","","","Mainly Clear"
"2009-09-15 10:00","2009","09","15","10:00","20.9","","10.7","","52","","36","","17","","24.1","","99.60","","","","","","Mainly Clear"
"2009-09-15 11:00","2009","09","15","11:00","21.6","","11.7","","53","","35","","22","","24.1","","99.62","","","","","","Clear"
"2009-09-15 12:00","2009","09","15","12:00","22.2","","10.1","","46","","34","","20","","24.1","","99.61","","","","","","Clear"
"2009-09-15 13:00","2009","09","15","13:00","22.8","","9.2","","42","","34","","26","","24.1","","99.59","","","","","","Clear"
"2009-09-15 14:00","2009","09","15","14:00","22.8","","10.0","","44","","34","","19","","24.1","","99.59","","","","","","Mainly Clear"
"2009-09-15 15:00","2009","09","15","15:00","22.8","","8.1","","39","","1","","19","","24.1","","99.60","","","","","","Mainly Clear"
"2009-09-15 16:00","2009","09","15","16:00","21.6","","8.0","","42","","1","","26","","24.1","","99.65","","","","","","Clear"
"2009-09-15 17:00","2009","09","15","17:00","20.2","","7.5","","44","","35","","32","","24.1","","99.70","","","","","","Clear"
"2009-09-15 18:00","2009","09","15","18:00","18.3","","7.0","","48","","36","","26","","24.1","","99.79","","","","","","Mainly Clear"
"2009-09-15 19:00","2009","09","15","19:00","16.4","","9.0","","62","","36","","28","","24.1","","99.89","","","","","","Mainly Clear"
"2009-09-15 20:00","2009","09","15","20:00","15.1","","9.6","","70","","35","","22","","24.1","","99.95","","","","","","Mainly Clear"
"2009-09-15 21:00","2009","09","15","21:00","14.2","","10.0","","76","","1","","20","","24.1","","100.01","","","","","","Mainly Clear"
"2009-09-15 22:00","2009","09","15","22:00","14.0","","8.7","","70","","4","","22","","24.1","","100.08","","","","","","Mostly Cloudy"
"2009-09-15 23:00","2009","09","15","23:00","13.0","","8.1","","72","","4","","22","","24.1","","100.15","","","","","","Mostly Cloudy"
"2009-09-16 00:00","2009","09","16","00:00","12.1","","8.1","","77","","3","","19","","24.1","","100.23","","","","","","Mostly Cloudy"
"2009-09-16 01:00","2009","09","16","01:00","11.1","","7.5","","78","","3","","17","","24.1","","100.28","","","","","","Mainly Clear"
"2009-09-16 02:00","2009","09","16","02:00","10.4","","7.4","","82","","2","","15","","24.1","","100.29","","","","","","Mainly Clear"
"2009-09-16 03:00","2009","09","16","03:00","9.3","","7.2","","87","","2","","11","","24.1","","100.31","","","","","","Mainly Clear"
"2009-09-16 04:00","2009","09","16","04:00","9.4","","7.3","","87","","36","","11","","24.1","","100.35","","","","","","Clear"
"2009-09-16 05:00","2009","09","16","05:00","9.5","","7.6","","88","","36","","11","","24.1","","100.37","","","","","","Clear"
"2009-09-16 06:00","2009","09","16","06:00","9.0","","7.5","","90","","36","","15","","24.1","","100.43","","","","","","Clear"
"2009-09-16 07:00","2009","09","16","07:00","9.7","","7.9","","89","","36","","20","","24.1","","100.49","","","","","","Clear"
"2009-09-16 08:00","2009","09","16","08:00","11.7","","8.4","","80","","2","","13","","24.1","","100.51","","","","","","Clear"
"2009-09-16 09:00","2009","09","16","09:00","14.0","","8.5","","69","","36","","9","","24.1","","100.54","","","","","","Clear"
"2009-09-16 10:00","2009","09","16","10:00","16.6","","7.5","","55","","3","","24","","24.1","","100.52","","","","","","Mainly Clear"
"2009-09-16 11:00","2009","09","16","11:00","17.1","","6.1","","48","","8","","20","","24.1","","100.53","","","","","","Mainly Clear"
"2009-09-16 12:00","2009","09","16","12:00","17.5","","6.4","","48","","9","","17","","24.1","","100.52","","","","","","Mostly Cloudy"
"2009-09-16 13:00","2009","09","16","13:00","17.6","","7.1","","50","","4","","19","","24.1","","100.51","","","","","","Mostly Cloudy"
"2009-09-16 14:00","2009","09","16","14:00","16.9","","9.5","","62","","13","","11","","24.1","","100.51","","","","","","Mostly Cloudy"
"2009-09-16 15:00","2009","09","16","15:00","16.8","","9.2","","61","","12","","15","","24.1","","100.48","","","","","","Mostly Cloudy"
"2009-09-16 16:00","2009","09","16","16:00","16.8","","9.2","","61","","12","","19","","24.1","","100.47","","","","","","Mostly Cloudy"
"2009-09-16 17:00","2009","09","16","17:00","16.7","","8.9","","60","","9","","13","","24.1","","100.49","","","","","","Mainly Clear"
"2009-09-16 18:00","2009","09","16","18:00","16.6","","8.2","","58","","10","","13","","24.1","","100.50","","","","","","Mainly Clear"
"2009-09-16 19:00","2009","09","16","19:00","16.1","","8.1","","59","","8","","9","","24.1","","100.50","","","","","","Mainly Clear"
"2009-09-16 20:00","2009","09","16","20:00","15.7","","8.2","","61","","8","","7","","24.1","","100.52","","","","","","Mainly Clear"
"2009-09-16 21:00","2009","09","16","21:00","15.7","","7.8","","59","","7","","17","","24.1","","100.53","","","","","","Mainly Clear"
"2009-09-16 22:00","2009","09","16","22:00","14.6","","7.4","","62","","6","","15","","24.1","","100.53","","","","","","Mainly Clear"
"2009-09-16 23:00","2009","09","16","23:00","13.5","","7.0","","65","","7","","11","","24.1","","100.54","","","","","","Mainly Clear"
"2009-09-17 00:00","2009","09","17","00:00","13.0","","7.2","","68","","8","","9","","24.1","","100.49","","","","","","Mostly Cloudy"
"2009-09-17 01:00","2009","09","17","01:00","12.7","","7.0","","68","","5","","9","","24.1","","100.44","","","","","","Mostly Cloudy"
"2009-09-17 02:00","2009","09","17","02:00","11.8","","7.0","","72","","5","","9","","24.1","","100.43","","","","","","Mainly Clear"
"2009-09-17 03:00","2009","09","17","03:00","11.3","","7.2","","76","","1","","13","","24.1","","100.40","","","","","","Mostly Cloudy"
"2009-09-17 04:00","2009","09","17","04:00","11.1","","7.2","","77","","1","","9","","24.1","","100.38","","","","","","Mostly Cloudy"
"2009-09-17 05:00","2009","09","17","05:00","10.9","","7.2","","78","","34","","13","","24.1","","100.39","","","","","","Mostly Cloudy"
"2009-09-17 06:00","2009","09","17","06:00","10.4","","7.1","","80","","1","","11","","24.1","","100.38","","","","","","Mostly Cloudy"
"2009-09-17 07:00","2009","09","17","07:00","10.5","","7.2","","80","","34","","11","","24.1","","100.39","","","","","","Mostly Cloudy"
"2009-09-17 08:00","2009","09","17","08:00","12.6","","7.3","","70","","36","","7","","24.1","","100.36","","","","","","Clear"
"2009-09-17 09:00","2009","09","17","09:00","14.8","","7.8","","63","","4","","6","","24.1","","100.37","","","","","","Clear"
"2009-09-17 10:00","2009","09","17","10:00","16.6","","7.4","","55","","33","","7","","24.1","","100.35","","","","","","Clear"
"2009-09-17 11:00","2009","09","17","11:00","18.2","","7.8","","51","","32","","9","","24.1","","100.28","","","","","","Clear"
"2009-09-17 12:00","2009","09","17","12:00","19.3","","7.8","","47","","21","","4","","24.1","","100.21","","","","","","Mainly Clear"
"2009-09-17 13:00","2009","09","17","13:00","19.8","","7.5","","45","","","","0","","24.1","","100.13","","","","","","Mainly Clear"
"2009-09-17 14:00","2009","09","17","14:00","19.5","","9.5","","52","","17","","15","","24.1","","100.06","","","","","","Mainly Clear"
"2009-09-17 15:00","2009","09","17","15:00","19.8","","10.0","","53","","15","","9","","24.1","","99.98","","","","","","Clear"
"2009-09-17 16:00","2009","09","17","16:00","19.3","","9.6","","53","","14","","17","","24.1","","99.93","","","","","","Clear"
"2009-09-17 17:00","2009","09","17","17:00","18.7","","9.9","","57","","17","","13","","24.1","","99.92","","","","","","Clear"
"2009-09-17 18:00","2009","09","17","18:00","18.1","","9.0","","55","","18","","11","","24.1","","99.88","","","","","","Clear"
"2009-09-17 19:00","2009","09","17","19:00","17.0","","9.3","","60","","19","","7","","24.1","","99.84","","","","","","Clear"
"2009-09-17 20:00","2009","09","17","20:00","16.0","","9.2","","64","","23","","9","","24.1","","99.85","","","","","","Clear"
"2009-09-17 21:00","2009","09","17","21:00","14.6","","9.6","","72","","24","","11","","24.1","","99.83","","","","","","Clear"
"2009-09-17 22:00","2009","09","17","22:00","13.9","","9.9","","77","","27","","9","","24.1","","99.81","","","","","","Clear"
"2009-09-17 23:00","2009","09","17","23:00","12.7","","9.4","","80","","26","","6","","24.1","","99.78","","","","","","Clear"
"2009-09-18 00:00","2009","09","18","00:00","12.4","","9.0","","80","","29","","4","","24.1","","99.74","","","","","","Clear"
"2009-09-18 01:00","2009","09","18","01:00","11.8","","8.6","","81","","26","","6","","24.1","","99.70","","","","","","Clear"
"2009-09-18 02:00","2009","09","18","02:00","9.3","","7.8","","90","","20","","11","","24.1","","99.67","","","","","","Clear"
"2009-09-18 03:00","2009","09","18","03:00","10.8","","9.1","","89","","26","","15","","24.1","","99.66","","","","","","Mostly Cloudy"
"2009-09-18 04:00","2009","09","18","04:00","12.6","","9.7","","82","","24","","13","","24.1","","99.63","","","","","","Mostly Cloudy"
"2009-09-18 05:00","2009","09","18","05:00","13.0","","9.7","","80","","25","","20","","24.1","","99.59","","","","","","Mostly Cloudy"
"2009-09-18 06:00","2009","09","18","06:00","14.5","","11.0","","79","","30","","19","","24.1","","99.57","","","","","","Mostly Cloudy"
"2009-09-18 07:00","2009","09","18","07:00","15.5","","11.6","","78","","29","","19","","24.1","","99.63","","","","","","Mostly Cloudy"
"2009-09-18 08:00","2009","09","18","08:00","16.6","","12.3","","76","","30","","17","","24.1","","99.61","","","","","","Mostly Cloudy"
"2009-09-18 09:00","2009","09","18","09:00","18.2","","13.8","","75","","30","","26","","24.1","","99.64","","","","","","Mostly Cloudy"
"2009-09-18 10:00","2009","09","18","10:00","18.7","","14.0","","74","","31","","22","","24.1","","99.68","","","","","","Mostly Cloudy"
"2009-09-18 11:00","2009","09","18","11:00","17.9","","12.3","","70","","34","","28","","24.1","","99.75","","","","","","Mostly Cloudy"
"2009-09-18 12:00","2009","09","18","12:00","19.6","","11.6","","60","","33","","22","","24.1","","99.78","","","","","","Mostly Cloudy"
"2009-09-18 13:00","2009","09","18","13:00","20.2","","11.2","","56","","32","","33","","24.1","","99.82","","","","","","Mostly Cloudy"
"2009-09-18 14:00","2009","09","18","14:00","19.7","","9.8","","53","","35","","32","","24.1","","99.82","","","","","","Mainly Clear"
"2009-09-18 15:00","2009","09","18","15:00","19.0","","8.1","","49","","34","","32","","24.1","","99.83","","","","","","Mainly Clear"
"2009-09-18 16:00","2009","09","18","16:00","18.1","","6.7","","47","","35","","32","","24.1","","99.89","","","","","","Mainly Clear"
"2009-09-18 17:00","2009","09","18","17:00","16.1","","4.2","","45","","35","","39","","24.1","","99.96","","","","","","Mainly Clear"
"2009-09-18 18:00","2009","09","18","18:00","14.8","","5.7","","54","","34","","26","","24.1","","100.05","","","","","","Clear"
"2009-09-18 19:00","2009","09","18","19:00","13.7","","6.1","","60","","33","","26","","24.1","","100.13","","","","","","Clear"
"2009-09-18 20:00","2009","09","18","20:00","12.8","","6.3","","65","","33","","19","","24.1","","100.23","","","","","","Clear"
"2009-09-18 21:00","2009","09","18","21:00","11.7","","6.4","","70","","36","","19","","24.1","","100.29","","","","","","Clear"
"2009-09-18 22:00","2009","09","18","22:00","11.1","","6.0","","71","","36","","17","","24.1","","100.36","","","","","","Clear"
"2009-09-18 23:00","2009","09","18","23:00","9.3","","5.1","","75","","2","","13","","24.1","","100.43","","","","","","Clear"
"2009-09-19 00:00","2009","09","19","00:00","8.7","","4.9","","77","","36","","9","","24.1","","100.49","","","","","","Clear"
"2009-09-19 01:00","2009","09","19","01:00","9.7","","4.8","","71","","5","","6","","24.1","","100.52","","","","","","Clear"
"2009-09-19 02:00","2009","09","19","02:00","8.0","","4.2","","77","","2","","7","","24.1","","100.54","","","","","","Clear"
"2009-09-19 03:00","2009","09","19","03:00","7.2","","4.0","","80","","30","","7","","24.1","","100.55","","","","","","Clear"
"2009-09-19 04:00","2009","09","19","04:00","7.0","","4.0","","81","","36","","6","","24.1","","100.57","","","","","","Clear"
"2009-09-19 05:00","2009","09","19","05:00","5.8","","3.6","","86","","36","","4","","24.1","","100.59","","","","","","Clear"
"2009-09-19 06:00","2009","09","19","06:00","5.5","","3.4","","86","","2","","9","","24.1","","100.62","","","","","","Clear"
"2009-09-19 07:00","2009","09","19","07:00","6.5","","4.4","","86","","2","","7","","24.1","","100.66","","","","","","Clear"
"2009-09-19 08:00","2009","09","19","08:00","9.7","","4.8","","71","","","","0","","24.1","","100.71","","","","","","Clear"
"2009-09-19 09:00","2009","09","19","09:00","11.6","","4.6","","62","","1","","9","","24.1","","100.76","","","","","","Clear"
"2009-09-19 10:00","2009","09","19","10:00","12.7","","4.5","","57","","35","","4","","24.1","","100.78","","","","","","Clear"
"2009-09-19 11:00","2009","09","19","11:00","13.7","","3.5","","50","","","","0","","24.1","","100.76","","","","","","Clear"
"2009-09-19 12:00","2009","09","19","12:00","14.8","","4.6","","50","","26","","4","","24.1","","100.73","","","","","","Clear"
"2009-09-19 13:00","2009","09","19","13:00","16.4","","4.8","","46","","1","","6","","24.1","","100.67","","","","","","Clear"
"2009-09-19 14:00","2009","09","19","14:00","17.1","","4.2","","42","","2","","4","","24.1","","100.59","","","","","","Clear"
"2009-09-19 15:00","2009","09","19","15:00","17.2","","6.6","","50","","14","","17","","24.1","","100.55","","","","","","Clear"
"2009-09-19 16:00","2009","09","19","16:00","17.0","","7.2","","52","","15","","11","","24.1","","100.53","","","","","","Clear"
"2009-09-19 17:00","2009","09","19","17:00","16.1","","7.5","","57","","16","","11","","24.1","","100.51","","","","","","Mainly Clear"
"2009-09-19 18:00","2009","09","19","18:00","14.9","","7.8","","62","","17","","11","","24.1","","100.50","","","","","","Mainly Clear"
"2009-09-19 19:00","2009","09","19","19:00","13.9","","7.8","","67","","18","","7","","24.1","","100.48","","","","","","Mainly Clear"
"2009-09-19 20:00","2009","09","19","20:00","13.6","","7.6","","67","","18","","6","","24.1","","100.50","","","","","","Mainly Clear"
"2009-09-19 21:00","2009","09","19","21:00","12.5","","7.3","","71","","","","0","","24.1","","100.49","","","","","","Mainly Clear"
"2009-09-19 22:00","2009","09","19","22:00","11.5","","7.0","","74","","9","","4","","24.1","","100.47","","","","","","Mainly Clear"
"2009-09-19 23:00","2009","09","19","23:00","10.7","","6.9","","77","","7","","4","","24.1","","100.46","","","","","","Clear"
"2009-09-20 00:00","2009","09","20","00:00","9.0","","6.8","","86","","32","","11","","24.1","","100.51","","","","","","Clear"
"2009-09-20 01:00","2009","09","20","01:00","9.0","","6.9","","87","","1","","7","","24.1","","100.52","","","","","","Clear"
"2009-09-20 02:00","2009","09","20","02:00","8.0","","6.2","","88","","36","","6","","24.1","","100.50","","","","","","Clear"
"2009-09-20 03:00","2009","09","20","03:00","7.2","","5.6","","90","","","","0","","24.1","","100.49","","","","","","Clear"
"2009-09-20 04:00","2009","09","20","04:00","7.0","","5.5","","90","","1","","7","","19.3","","100.49","","","","","","Clear"
"2009-09-20 05:00","2009","09","20","05:00","7.2","","5.8","","91","","1","","4","","19.3","","100.48","","","","","","Clear"
"2009-09-20 06:00","2009","09","20","06:00","6.7","","5.6","","93","","1","","6","","19.3","","100.46","","","","","","Mainly Clear"
"2009-09-20 07:00","2009","09","20","07:00","8.3","","6.8","","90","","33","","4","","24.1","","100.48","","","","","","Mainly Clear"
"2009-09-20 08:00","2009","09","20","08:00","11.2","","8.7","","85","","2","","7","","24.1","","100.48","","","","","","Mainly Clear"
"2009-09-20 09:00","2009","09","20","09:00","15.9","","10.5","","70","","8","","11","","24.1","","100.49","","","","","","Mainly Clear"
"2009-09-20 10:00","2009","09","20","10:00","18.1","","9.7","","58","","15","","11","","24.1","","100.47","","","","","","Mainly Clear"
"2009-09-20 11:00","2009","09","20","11:00","19.4","","9.6","","53","","9","","9","","24.1","","100.42","","","","","","Mainly Clear"
"2009-09-20 12:00","2009","09","20","12:00","19.6","","9.7","","53","","10","","9","","24.1","","100.39","","","","","","Mainly Clear"
"2009-09-20 13:00","2009","09","20","13:00","20.3","","10.6","","54","","16","","13","","24.1","","100.35","","","","","","Mainly Clear"
"2009-09-20 14:00","2009","09","20","14:00","20.6","","10.2","","51","","14","","15","","24.1","","100.28","","","","","","Mainly Clear"
"2009-09-20 15:00","2009","09","20","15:00","20.5","","10.0","","51","","14","","13","","24.1","","100.23","","","","","","Mainly Clear"
"2009-09-20 16:00","2009","09","20","16:00","20.3","","8.4","","46","","11","","11","","24.1","","100.20","","","","","","Mainly Clear"
"2009-09-20 17:00","2009","09","20","17:00","19.6","","8.5","","49","","9","","9","","24.1","","100.14","","","","","","Mostly Cloudy"
"2009-09-20 18:00","2009","09","20","18:00","18.3","","9.4","","56","","11","","9","","24.1","","100.14","","","","","","Mostly Cloudy"
"2009-09-20 19:00","2009","09","20","19:00","17.0","","10.8","","67","","9","","13","","24.1","","100.14","","","","","","Clear"
"2009-09-20 20:00","2009","09","20","20:00","16.7","","11.9","","73","","9","","7","","24.1","","100.15","","","","","","Clear"
"2009-09-20 21:00","2009","09","20","21:00","16.4","","12.4","","77","","8","","7","","24.1","","100.13","","","","","","Clear"
"2009-09-20 22:00","2009","09","20","22:00","14.9","","12.5","","86","","5","","7","E","24.1","","100.12","","","","","","Mainly Clear"
"2009-09-20 23:00","2009","09","20","23:00","14.8","","12.4","","86","","2","","7","","24.1","","100.11","","","","","","Mainly Clear"
"2009-09-21 00:00","2009","09","21","00:00","14.8","","12.4","","86","","5","","9","","24.1","","100.07","","","","","","Clear"
"2009-09-21 01:00","2009","09","21","01:00","14.4","","12.1","","86","","5","","6","","24.1","","100.05","","","","","","Mainly Clear"
"2009-09-21 02:00","2009","09","21","02:00","14.0","","12.1","","88","","2","","6","","24.1","","100.02","","","","","","Mostly Cloudy"
"2009-09-21 03:00","2009","09","21","03:00","14.4","","12.6","","89","","1","","4","","24.1","","100.00","","","","","","Mostly Cloudy"
"2009-09-21 04:00","2009","09","21","04:00","15.7","","13.8","","88","","","","0","","24.1","","99.99","","","","","","Mostly Cloudy"
"2009-09-21 05:00","2009","09","21","05:00","16.3","","14.3","","88","","6","","6","","24.1","","99.98","","","","","","Cloudy"
"2009-09-21 06:00","2009","09","21","06:00","16.8","","14.6","","87","","9","","11","","24.1","","99.96","","","","","","Cloudy"
"2009-09-21 07:00","2009","09","21","07:00","17.0","","15.0","","88","","9","","9","","24.1","","99.97","","","","","","Cloudy"
"2009-09-21 08:00","2009","09","21","08:00","18.1","","16.0","","88","","11","","11","","24.1","","99.96","","","","","","Cloudy"
"2009-09-21 09:00","2009","09","21","09:00","20.4","","15.8","","75","","12","","17","","24.1","","99.95","","25","","","","Mostly Cloudy"
"2009-09-21 10:00","2009","09","21","10:00","20.8","","15.7","","73","","12","","15","","24.1","","99.96","","25","","","","Mostly Cloudy"
"2009-09-21 11:00","2009","09","21","11:00","21.2","","16.0","","72","","12","","13","","24.1","","99.96","","26","","","","Cloudy"
"2009-09-21 12:00","2009","09","21","12:00","20.4","","16.0","","76","","13","","13","","24.1","","99.88","","25","","","","Cloudy"
"2009-09-21 13:00","2009","09","21","13:00","21.1","","16.8","","76","","14","","13","","24.1","","99.86","","26","","","","Cloudy"
"2009-09-21 14:00","2009","09","21","14:00","21.4","","16.9","","76","","14","","17","","24.1","","99.86","","27","","","","Cloudy"
"2009-09-21 15:00","2009","09","21","15:00","19.8","","18.0","","89","","14","","11","","16.1","","99.87","","","","","","Rain Showers"
"2009-09-21 16:00","2009","09","21","16:00","19.3","","18.1","","93","","13","","9","","11.3","","99.88","","","","","","Rain Showers"
"2009-09-21 17:00","2009","09","21","17:00","18.9","","17.9","","94","","13","","11","","6.4","","99.88","","","","","","Rain,Fog"
"2009-09-21 18:00","2009","09","21","18:00","18.5","","18.0","","97","","12","","13","","6.4","","99.87","","","","","","Rain,Fog"
"2009-09-21 19:00","2009","09","21","19:00","18.7","","18.2","","97","","13","","7","","8.0","","99.88","","","","","","Fog"
"2009-09-21 20:00","2009","09","21","20:00","19.2","","18.7","","97","","12","","7","","8.0","","99.90","","","","","","Fog"
"2009-09-21 21:00","2009","09","21","21:00","19.5","","19.1","","98","","11","","7","","6.4","","99.90","","","","","","Fog"
"2009-09-21 22:00","2009","09","21","22:00","19.6","","19.0","","96","","12","","9","","8.0","","99.87","","","","","","Fog"
"2009-09-21 23:00","2009","09","21","23:00","19.6","","19.2","","98","","14","","7","","8.0","","99.88","","","","","","Fog"
"2009-09-22 00:00","2009","09","22","00:00","19.8","","19.6","","99","","14","","6","","4.8","","99.87","","","","","","Fog"
"2009-09-22 01:00","2009","09","22","01:00","19.9","","19.6","","98","","14","","7","","4.8","","99.87","","","","","","Fog"
"2009-09-22 02:00","2009","09","22","02:00","19.9","","19.6","","98","","17","","7","","9.7","","99.85","","","","","","Fog"
"2009-09-22 03:00","2009","09","22","03:00","20.4","","19.6","","95","","19","","7","","14.5","","99.84","","28","","","","Cloudy"
"2009-09-22 04:00","2009","09","22","04:00","20.0","","19.4","","96","","18","","9","","14.5","","99.82","","27","","","","Mostly Cloudy"
"2009-09-22 05:00","2009","09","22","05:00","20.4","","19.5","","95","","19","","7","","14.5","","99.87","","28","","","","Cloudy"
"2009-09-22 06:00","2009","09","22","06:00","20.9","","19.5","","92","","20","","7","","12.9","","99.92","","28","","","","Cloudy"
"2009-09-22 07:00","2009","09","22","07:00","21.1","","19.6","","91","","19","","13","","12.9","","99.93","","28","","","","Mostly Cloudy"
"2009-09-22 08:00","2009","09","22","08:00","21.5","","19.9","","91","","22","","13","","12.9","","99.92","","29","","","","Cloudy"
"2009-09-22 09:00","2009","09","22","09:00","21.9","","20.0","","89","","22","","13","","12.9","","99.94","","29","","","","Cloudy"
"2009-09-22 10:00","2009","09","22","10:00","22.3","","20.0","","87","","22","","11","","12.9","","99.94","","30","","","","Cloudy"
"2009-09-22 11:00","2009","09","22","11:00","22.7","","20.2","","86","","18","","13","","12.9","","99.95","","30","","","","Cloudy"
"2009-09-22 12:00","2009","09","22","12:00","23.2","","19.5","","80","","21","","11","","12.9","","99.92","","30","","","","Cloudy"
"2009-09-22 13:00","2009","09","22","13:00","22.6","","20.2","","86","","20","","9","","12.9","","99.92","","30","","","","Drizzle"
"2009-09-22 14:00","2009","09","22","14:00","23.2","","20.6","","85","","20","","17","","12.9","","99.86","","31","","","","Cloudy"
"2009-09-22 15:00","2009","09","22","15:00","23.3","","20.4","","84","","22","","13","","14.5","","99.82","","31","","","","Mostly Cloudy"
"2009-09-22 16:00","2009","09","22","16:00","23.5","","20.6","","84","","18","","7","","12.9","","99.81","","32","","","","Cloudy"
"2009-09-22 17:00","2009","09","22","17:00","23.1","","20.4","","85","","16","","7","","12.9","","99.82","","31","","","","Cloudy"
"2009-09-22 18:00","2009","09","22","18:00","22.8","","20.2","","85","","15","","6","","14.5","","99.83","","31","","","","Mostly Cloudy"
"2009-09-22 19:00","2009","09","22","19:00","22.5","","19.9","","85","","20","","7","","19.3","","99.81","","30","","","","Mostly Cloudy"
"2009-09-22 20:00","2009","09","22","20:00","22.2","","19.7","","86","","21","","11","","16.1","","99.84","","30","","","","Mainly Clear"
"2009-09-22 21:00","2009","09","22","21:00","21.3","","19.5","","89","","21","","7","","16.1","","99.81","","28","","","","Mainly Clear"
"2009-09-22 22:00","2009","09","22","22:00","21.1","","19.4","","90","","20","","6","","14.5","","99.79","","28","","","","Mainly Clear"
"2009-09-22 23:00","2009","09","22","23:00","20.5","","19.2","","92","","18","","4","","14.5","","99.74","","27","","","","Cloudy"
"2009-09-23 00:00","2009","09","23","00:00","20.1","","19.1","","94","","18","","7","","14.5","","99.71","","27","","","","Mainly Clear"
"2009-09-23 01:00","2009","09","23","01:00","19.8","","19.0","","95","","24","","7","","11.3","","99.75","","","","","","Cloudy"
"2009-09-23 02:00","2009","09","23","02:00","19.4","","19.0","","98","","23","","4","","11.3","","99.74","","","","","","Cloudy"
"2009-09-23 03:00","2009","09","23","03:00","19.3","","18.8","","97","","18","","4","","11.3","","99.67","","","","","","Cloudy"
"2009-09-23 04:00","2009","09","23","04:00","19.7","","18.9","","95","","18","","7","","11.3","","99.62","","","","","","Mostly Cloudy"
"2009-09-23 05:00","2009","09","23","05:00","20.0","","19.2","","95","","21","","9","","9.7","","99.60","","27","","","","Fog"
"2009-09-23 06:00","2009","09","23","06:00","20.1","","19.2","","95","","19","","9","","8.0","","99.57","","27","","","","Fog"
"2009-09-23 07:00","2009","09","23","07:00","20.5","","19.5","","94","","18","","7","","8.0","","99.58","","28","","","","Fog"
"2009-09-23 08:00","2009","09","23","08:00","21.1","","19.8","","92","","19","","7","","8.0","","99.56","","29","","","","Fog"
"2009-09-23 09:00","2009","09","23","09:00","21.7","","20.0","","90","","21","","19","","9.7","","99.56","","29","","","","Fog"
"2009-09-23 10:00","2009","09","23","10:00","23.0","","20.4","","85","","25","","19","","11.3","","99.56","","31","","","","Mostly Cloudy"
"2009-09-23 11:00","2009","09","23","11:00","25.5","","20.5","","74","","25","","32","","16.1","","99.52","","33","","","","Mostly Cloudy"
"2009-09-23 12:00","2009","09","23","12:00","26.8","","19.8","","66","","25","","24","","24.1","","99.47","","34","","","","Mostly Cloudy"
"2009-09-23 13:00","2009","09","23","13:00","27.2","","18.8","","60","","27","","37","","24.1","","99.45","","34","","","","Mostly Cloudy"
"2009-09-23 14:00","2009","09","23","14:00","25.4","","18.6","","66","","27","","24","","24.1","","99.44","","32","","","","Mostly Cloudy"
"2009-09-23 15:00","2009","09","23","15:00","21.8","","20.5","","92","","31","","19","","16.1","","99.49","","30","","","","Rain Showers"
"2009-09-23 16:00","2009","09","23","16:00","23.2","","20.3","","84","","31","","13","","24.1","","99.50","","31","","","","Mainly Clear"
"2009-09-23 17:00","2009","09","23","17:00","23.9","","18.5","","72","","29","","26","","24.1","","99.51","","30","","","","Mainly Clear"
"2009-09-23 18:00","2009","09","23","18:00","22.8","","17.1","","70","","30","","19","","24.1","","99.55","","28","","","","Mainly Clear"
"2009-09-23 19:00","2009","09","23","19:00","20.9","","16.2","","74","","32","","17","","24.1","","99.63","","26","","","","Mainly Clear"
"2009-09-23 20:00","2009","09","23","20:00","19.2","","15.5","","79","","30","","22","","24.1","","99.68","","","","","","Mainly Clear"
"2009-09-23 21:00","2009","09","23","21:00","18.3","","15.6","","84","","32","","15","","24.1","","99.71","","","","","","Mainly Clear"
"2009-09-23 22:00","2009","09","23","22:00","18.4","","15.3","","82","","33","","20","","24.1","","99.71","","","","","","Mainly Clear"
"2009-09-23 23:00","2009","09","23","23:00","17.3","","15.0","","86","","32","","17","","24.1","","99.77","","","","","","Mainly Clear"
"2009-09-24 00:00","2009","09","24","00:00","17.0","","14.7","","86","","32","","15","","24.1","","99.78","","","","","","Mainly Clear"
"2009-09-24 01:00","2009","09","24","01:00","16.2","","15.6","","96","","30","","15","","19.3","","99.81","","","","","","Mainly Clear"
"2009-09-24 02:00","2009","09","24","02:00","15.6","","14.4","","93","","31","","15","","19.3","","99.83","","","","","","Mainly Clear"
"2009-09-24 03:00","2009","09","24","03:00","14.6","","13.7","","94","","31","","9","","19.3","","99.85","","","","","","Clear"
"2009-09-24 04:00","2009","09","24","04:00","14.2","","13.4","","95","","32","","11","","19.3","","99.84","","","","","","Clear"
"2009-09-24 05:00","2009","09","24","05:00","13.8","","13.0","","95","","31","","13","","16.1","","99.88","","","","","","Clear"
"2009-09-24 06:00","2009","09","24","06:00","14.3","","13.2","","93","","32","","7","","24.1","","99.91","","","","","","Mainly Clear"
"2009-09-24 07:00","2009","09","24","07:00","14.6","","13.3","","92","","35","","19","","24.1","","99.99","","","","","","Mostly Cloudy"
"2009-09-24 08:00","2009","09","24","08:00","15.8","","14.3","","91","","36","","13","","24.1","","100.02","","","","","","Mostly Cloudy"
"2009-09-24 09:00","2009","09","24","09:00","17.7","","14.6","","82","","2","","7","","24.1","","100.05","","","","","","Mostly Cloudy"
"2009-09-24 10:00","2009","09","24","10:00","19.3","","13.2","","68","","5","","11","","24.1","","100.06","","","","","","Mostly Cloudy"
"2009-09-24 11:00","2009","09","24","11:00","20.3","","13.2","","64","","9","","4","","24.1","","100.05","","","","","","Mostly Cloudy"
"2009-09-24 12:00","2009","09","24","12:00","20.6","","13.3","","63","","35","","9","","24.1","","100.02","","","","","","Mostly Cloudy"
"2009-09-24 13:00","2009","09","24","13:00","20.9","","11.1","","53","","34","","7","","24.1","","99.98","","","","","","Mostly Cloudy"
"2009-09-24 14:00","2009","09","24","14:00","22.0","","10.9","","49","","30","","13","","24.1","","99.91","","","","","","Mostly Cloudy"
"2009-09-24 15:00","2009","09","24","15:00","21.6","","11.2","","52","","33","","9","","24.1","","99.88","","","","","","Mostly Cloudy"
"2009-09-24 16:00","2009","09","24","16:00","21.6","","10.3","","49","","35","","17","","24.1","","99.87","","","","","","Mostly Cloudy"
"2009-09-24 17:00","2009","09","24","17:00","19.6","","10.5","","56","","36","","28","","24.1","","99.97","","","","","","Mostly Cloudy"
"2009-09-24 18:00","2009","09","24","18:00","17.4","","10.4","","63","","35","","19","","24.1","","100.04","","","","","","Mostly Cloudy"
"2009-09-24 19:00","2009","09","24","19:00","15.5","","7.8","","60","","35","","28","","24.1","","100.08","","","","","","Mostly Cloudy"
"2009-09-24 20:00","2009","09","24","20:00","14.4","","8.7","","69","","36","","19","","24.1","","100.13","","","","","","Mostly Cloudy"
"2009-09-24 21:00","2009","09","24","21:00","13.7","","9.6","","76","","36","","28","","24.1","","100.13","","","","","","Mainly Clear"
"2009-09-24 22:00","2009","09","24","22:00","13.6","","9.4","","76","","36","","20","","24.1","","100.19","","","","","","Mainly Clear"
"2009-09-24 23:00","2009","09","24","23:00","13.2","","9.1","","76","","36","","22","","24.1","","100.25","","","","","","Mainly Clear"
"2009-09-25 00:00","2009","09","25","00:00","12.5","","9.0","","79","","36","","20","","24.1","","100.25","","","","","","Mainly Clear"
"2009-09-25 01:00","2009","09","25","01:00","12.1","","8.7","","80","","36","","11","","24.1","","100.28","","","","","","Mainly Clear"
"2009-09-25 02:00","2009","09","25","02:00","11.3","","8.5","","83","","2","","11","","24.1","","100.29","","","","","","Mainly Clear"
"2009-09-25 03:00","2009","09","25","03:00","11.8","","8.3","","79","","1","","15","","24.1","","100.32","","","","","","Mainly Clear"
"2009-09-25 04:00","2009","09","25","04:00","11.7","","8.4","","80","","36","","13","","24.1","","100.39","","","","","","Mainly Clear"
"2009-09-25 05:00","2009","09","25","05:00","11.1","","8.8","","86","","1","","13","","24.1","","100.41","","","","","","Mainly Clear"
"2009-09-25 06:00","2009","09","25","06:00","12.3","","9.8","","85","","6","","19","","24.1","","100.51","","","","","","Mainly Clear"
"2009-09-25 07:00","2009","09","25","07:00","12.1","","9.9","","86","","5","","13","","24.1","","100.57","","","","","","Mostly Cloudy"
"2009-09-25 08:00","2009","09","25","08:00","11.9","","6.8","","71","","7","","15","","24.1","","100.68","","","","","","Mostly Cloudy"
"2009-09-25 09:00","2009","09","25","09:00","12.7","","6.0","","64","","8","","19","","24.1","","100.74","","","","","","Mainly Clear"
"2009-09-25 10:00","2009","09","25","10:00","13.2","","7.1","","66","","8","","13","","24.1","","100.73","","","","","","Mainly Clear"
"2009-09-25 11:00","2009","09","25","11:00","13.3","","6.5","","63","","9","","19","","24.1","","100.75","","","","","","Mainly Clear"
"2009-09-25 12:00","2009","09","25","12:00","13.8","","7.2","","64","","10","","17","","24.1","","100.75","","","","","","Mainly Clear"
"2009-09-25 13:00","2009","09","25","13:00","13.5","","7.1","","65","","9","","13","","24.1","","100.72","","","","","","Mainly Clear"
"2009-09-25 14:00","2009","09","25","14:00","15.0","","7.0","","59","","10","","17","","24.1","","100.65","","","","","","Clear"
"2009-09-25 15:00","2009","09","25","15:00","14.7","","5.9","","56","","8","","20","","24.1","","100.59","","","","","","Clear"
"2009-09-25 16:00","2009","09","25","16:00","14.6","","5.2","","53","","9","","17","","24.1","","100.58","","","","","","Clear"
"2009-09-25 17:00","2009","09","25","17:00","13.9","","5.1","","55","","12","","17","","24.1","","100.60","","","","","","Clear"
"2009-09-25 18:00","2009","09","25","18:00","12.8","","6.0","","63","","11","","13","","24.1","","100.61","","","","","","Clear"
"2009-09-25 19:00","2009","09","25","19:00","12.4","","6.8","","69","","9","","9","","24.1","","100.57","","","","","","Clear"
"2009-09-25 20:00","2009","09","25","20:00","12.1","","7.1","","71","","10","","9","","24.1","","100.56","","","","","","Clear"
"2009-09-25 21:00","2009","09","25","21:00","12.2","","6.9","","70","","9","","13","","24.1","","100.53","","","","","","Mostly Cloudy"
"2009-09-25 22:00","2009","09","25","22:00","13.0","","6.5","","65","","11","","19","","24.1","","100.50","","","","","","Mostly Cloudy"
"2009-09-25 23:00","2009","09","25","23:00","12.4","","6.5","","67","","11","","11","","24.1","","100.47","","","","","","Mostly Cloudy"
"2009-09-26 00:00","2009","09","26","00:00","12.5","","6.4","","66","","13","","13","","24.1","","100.42","","","","","","Mostly Cloudy"
"2009-09-26 01:00","2009","09","26","01:00","12.7","","7.8","","72","","13","","13","","24.1","","100.34","","","","","","Mainly Clear"
"2009-09-26 02:00","2009","09","26","02:00","12.6","","8.0","","74","","11","","11","","24.1","","100.25","","","","","","Mainly Clear"
"2009-09-26 03:00","2009","09","26","03:00","12.7","","7.9","","73","","12","","9","","24.1","","100.17","","","","","","Mostly Cloudy"
"2009-09-26 04:00","2009","09","26","04:00","12.7","","8.2","","74","","11","","7","","24.1","","100.10","","","","","","Mostly Cloudy"
"2009-09-26 05:00","2009","09","26","05:00","8.8","","6.6","","86","","28","","4","","24.1","","100.02","","","","","","Mostly Cloudy"
"2009-09-26 06:00","2009","09","26","06:00","9.4","","7.7","","89","","","","0","","24.1","","99.98","","","","","","Mostly Cloudy"
"2009-09-26 07:00","2009","09","26","07:00","11.1","","8.4","","83","","","","0","","24.1","","99.92","","","","","","Mostly Cloudy"
"2009-09-26 08:00","2009","09","26","08:00","13.0","","9.5","","79","","2","","6","","24.1","","99.86","","","","","","Mostly Cloudy"
"2009-09-26 09:00","2009","09","26","09:00","15.1","","10.5","","74","","15","","11","","24.1","","99.78","","","","","","Mostly Cloudy"
"2009-09-26 10:00","2009","09","26","10:00","17.2","","11.8","","71","","15","","19","","24.1","","99.71","","","","","","Mostly Cloudy"
"2009-09-26 11:00","2009","09","26","11:00","16.7","","11.9","","73","","15","","13","","24.1","","99.69","","","","","","Mostly Cloudy"
"2009-09-26 12:00","2009","09","26","12:00","17.3","","12.6","","74","","14","","13","","24.1","","99.57","","","","","","Mostly Cloudy"
"2009-09-26 13:00","2009","09","26","13:00","16.9","","12.5","","75","","14","","9","","24.1","","99.47","","","","","","Cloudy"
"2009-09-26 14:00","2009","09","26","14:00","15.5","","13.4","","87","","11","","17","","12.9","","99.40","","","","","","Rain Showers"
"2009-09-26 15:00","2009","09","26","15:00","16.0","","14.4","","90","","11","","7","","19.3","","99.27","","","","","","Rain Showers"
"2009-09-26 16:00","2009","09","26","16:00","15.9","","14.0","","88","","16","","17","","19.3","","99.23","","","","","","Cloudy"
"2009-09-26 17:00","2009","09","26","17:00","14.8","","14.5","","98","","14","","15","","6.4","","99.14","","","","","","Rain,Fog"
"2009-09-26 18:00","2009","09","26","18:00","15.0","","14.6","","97","","15","","7","","16.1","","99.10","","","","","","Rain"
"2009-09-26 19:00","2009","09","26","19:00","14.6","","14.4","","99","","15","","15","","6.4","","99.03","","","","","","Rain,Fog"
"2009-09-26 20:00","2009","09","26","20:00","14.5","","14.5","","100","","15","","9","","4.8","","99.00","","","","","","Rain,Fog"
"2009-09-26 21:00","2009","09","26","21:00","14.8","","14.8","","100","","14","","7","","8.0","","98.88","","","","","","Rain,Fog"
"2009-09-26 22:00","2009","09","26","22:00","15.0","","15.0","","100","","15","","7","","9.7","","98.80","","","","","","Rain,Fog"
"2009-09-26 23:00","2009","09","26","23:00","15.1","","15.1","","100","","14","","9","","9.7","","98.69","","","","","","Rain,Fog"
"2009-09-27 00:00","2009","09","27","00:00","15.3","","15.3","","100","","14","","9","","2.4","","98.59","","","","","","Drizzle,Fog"
"2009-09-27 01:00","2009","09","27","01:00","15.6","","15.6","","100","","16","","7","","4.8","","98.53","","","","","","Drizzle,Fog"
"2009-09-27 02:00","2009","09","27","02:00","16.0","","16.0","","100","","19","","9","","4.8","","98.45","","","","","","Drizzle,Fog"
"2009-09-27 03:00","2009","09","27","03:00","16.1","","16.0","","99","","22","","9","","6.4","","98.38","","","","","","Drizzle,Fog"
"2009-09-27 04:00","2009","09","27","04:00","16.3","","16.1","","99","","16","","4","","6.4","","98.31","","","","","","Fog"
"2009-09-27 05:00","2009","09","27","05:00","16.5","","16.1","","97","","20","","9","","11.3","","98.30","","","","","","Drizzle"
"2009-09-27 06:00","2009","09","27","06:00","16.3","","15.9","","97","","20","","9","","12.9","","98.28","","","","","","Cloudy"
"2009-09-27 07:00","2009","09","27","07:00","16.1","","15.8","","98","","22","","7","","12.9","","98.28","","","","","","Cloudy"
"2009-09-27 08:00","2009","09","27","08:00","16.3","","15.8","","97","","25","","11","","12.9","","98.27","","","","","","Mostly Cloudy"
"2009-09-27 09:00","2009","09","27","09:00","16.6","","15.3","","92","","26","","15","","14.5","","98.26","","","","","","Mostly Cloudy"
"2009-09-27 10:00","2009","09","27","10:00","17.2","","15.0","","87","","25","","11","","16.1","","98.23","","","","","","Mostly Cloudy"
"2009-09-27 11:00","2009","09","27","11:00","17.9","","15.0","","83","","24","","13","","16.1","","98.16","","","","","","Mostly Cloudy"
"2009-09-27 12:00","2009","09","27","12:00","18.1","","14.8","","81","","25","","17","","19.3","","98.11","","","","","","Mostly Cloudy"
"2009-09-27 13:00","2009","09","27","13:00","19.7","","15.4","","76","","25","","11","","19.3","","98.03","","","","","","Mostly Cloudy"
"2009-09-27 14:00","2009","09","27","14:00","19.4","","14.6","","74","","24","","15","","19.3","","97.96","","","","","","Mostly Cloudy"
"2009-09-27 15:00","2009","09","27","15:00","20.8","","14.0","","65","","25","","24","","19.3","","97.92","","","","","","Mostly Cloudy"
"2009-09-27 16:00","2009","09","27","16:00","20.2","","14.0","","68","","25","","20","","19.3","","97.92","","","","","","Mostly Cloudy"
"2009-09-27 17:00","2009","09","27","17:00","19.6","","14.3","","71","","25","","9","","19.3","","97.93","","","","","","Mostly Cloudy"
"2009-09-27 18:00","2009","09","27","18:00","18.8","","13.1","","69","","27","","24","","24.1","","97.95","","","","","","Mostly Cloudy"
"2009-09-27 19:00","2009","09","27","19:00","16.9","","13.0","","78","","27","","13","","24.1","","97.97","","","","","","Mostly Cloudy"
"2009-09-27 20:00","2009","09","27","20:00","15.1","","12.6","","85","","25","","13","","19.3","","98.01","","","","","","Mainly Clear"
"2009-09-27 21:00","2009","09","27","21:00","15.6","","12.6","","82","","21","","4","","19.3","","97.98","","","","","","Mainly Clear"
"2009-09-27 22:00","2009","09","27","22:00","15.3","","12.5","","83","","19","","4","","19.3","","97.95","","","","","","Mainly Clear"
"2009-09-27 23:00","2009","09","27","23:00","14.7","","12.6","","87","","18","","6","","19.3","","97.87","","","","","","Mainly Clear"
"2009-09-28 00:00","2009","09","28","00:00","14.3","","12.8","","91","","17","","4","","19.3","","97.76","","","","","","Mainly Clear"
"2009-09-28 01:00","2009","09","28","01:00","13.7","","13.1","","96","","17","","6","","19.3","","97.73","","","","","","Mostly Cloudy"
"2009-09-28 02:00","2009","09","28","02:00","14.4","","13.5","","94","","16","","9","","19.3","","97.59","","","","","","Mostly Cloudy"
"2009-09-28 03:00","2009","09","28","03:00","15.2","","14.3","","94","","18","","13","","19.3","","97.47","","","","","","Mostly Cloudy"
"2009-09-28 04:00","2009","09","28","04:00","16.1","","15.2","","94","","18","","17","","19.3","","97.37","","","","","","Mostly Cloudy"
"2009-09-28 05:00","2009","09","28","05:00","16.6","","14.5","","87","","17","","22","","16.1","","97.26","","","","","","Mostly Cloudy"
"2009-09-28 06:00","2009","09","28","06:00","16.0","","14.7","","92","","16","","20","","16.1","","97.06","","","","","","Rain Showers"
"2009-09-28 07:00","2009","09","28","07:00","15.7","","14.7","","94","","17","","22","","6.4","","96.93","","","","","","Moderate Rain Showers,Fog"
"2009-09-28 08:00","2009","09","28","08:00","15.4","","15.0","","97","","16","","24","","8.0","","96.78","","","","","","Rain Showers,Fog"
"2009-09-28 09:00","2009","09","28","09:00","15.9","","15.3","","96","","21","","28","","16.1","","96.72","","","","","","Rain Showers"
"2009-09-28 10:00","2009","09","28","10:00","16.7","","13.5","","81","","26","","37","","24.1","","96.74","","","","","","Mostly Cloudy"
"2009-09-28 11:00","2009","09","28","11:00","17.0","","11.9","","72","","25","","33","","24.1","","96.84","","","","","","Mostly Cloudy"
"2009-09-28 12:00","2009","09","28","12:00","17.4","","7.2","","51","","24","","52","","24.1","","96.88","","","","","","Mostly Cloudy"
"2009-09-28 13:00","2009","09","28","13:00","15.2","","6.0","","54","","22","","41","","24.1","","96.93","","","","","","Rain Showers"
"2009-09-28 14:00","2009","09","28","14:00","16.2","","7.3","","56","","23","","39","","24.1","","96.93","","","","","","Mostly Cloudy"
"2009-09-28 15:00","2009","09","28","15:00","15.4","","7.3","","58","","24","","33","","24.1","","97.00","","","","","","Mostly Cloudy"
"2009-09-28 16:00","2009","09","28","16:00","12.8","","10.1","","84","","25","","35","","24.1","","97.09","","","","","","Rain Showers"
"2009-09-28 17:00","2009","09","28","17:00","11.8","","10.9","","94","","21","","17","","16.1","","97.11","","","","","","Rain Showers"
"2009-09-28 18:00","2009","09","28","18:00","13.3","","11.1","","87","","23","","30","","24.1","","97.13","","","","","","Mostly Cloudy"
"2009-09-28 19:00","2009","09","28","19:00","13.4","","10.4","","82","","24","","41","","16.1","","97.18","","","","","","Rain Showers"
"2009-09-28 20:00","2009","09","28","20:00","13.2","","9.8","","80","","24","","35","","19.3","","97.22","","","","","","Rain Showers"
"2009-09-28 21:00","2009","09","28","21:00","12.9","","9.3","","79","","24","","43","","19.3","","97.20","","","","","","Mostly Cloudy"
"2009-09-28 22:00","2009","09","28","22:00","12.4","","9.0","","80","","25","","24","","24.1","","97.18","","","","","","Mostly Cloudy"
"2009-09-28 23:00","2009","09","28","23:00","11.7","","9.1","","84","","24","","32","","24.1","","97.17","","","","","","Mostly Cloudy"
"2009-09-29 00:00","2009","09","29","00:00","11.8","","9.1","","84","","24","","32","","24.1","","97.14","","","","","","Mostly Cloudy"
"2009-09-29 01:00","2009","09","29","01:00","11.3","","9.9","","91","","24","","22","","16.1","","97.15","","","","","","Rain Showers"
"2009-09-29 02:00","2009","09","29","02:00","11.4","","10.0","","91","","23","","24","","16.1","","97.09","","","","","","Rain Showers"
"2009-09-29 03:00","2009","09","29","03:00","11.4","","10.2","","92","","23","","30","","16.1","","97.01","","","","","","Rain Showers"
"2009-09-29 04:00","2009","09","29","04:00","11.6","","10.5","","93","","24","","35","","19.3","","96.98","","","","","","Rain Showers"
"2009-09-29 05:00","2009","09","29","05:00","11.7","","10.8","","94","","25","","26","","19.3","","97.02","","","","","","Drizzle"
"2009-09-29 06:00","2009","09","29","06:00","11.7","","10.8","","94","","25","","32","","24.1","","97.12","","","","","","Cloudy"
"2009-09-29 07:00","2009","09","29","07:00","12.0","","11.3","","95","","27","","26","","24.1","","97.27","","","","","","Cloudy"
"2009-09-29 08:00","2009","09","29","08:00","13.4","","11.1","","86","","32","","26","","24.1","","97.43","","","","","","Mostly Cloudy"
"2009-09-29 09:00","2009","09","29","09:00","14.5","","10.6","","77","","32","","35","","24.1","","97.54","","","","","","Mostly Cloudy"
"2009-09-29 10:00","2009","09","29","10:00","15.5","","10.3","","71","","31","","24","","19.3","","97.63","","","","","","Rain Showers"
"2009-09-29 11:00","2009","09","29","11:00","13.9","","11.9","","88","","32","","39","","24.1","","97.78","","","","","","Rain Showers"
"2009-09-29 12:00","2009","09","29","12:00","14.6","","10.2","","75","","34","","54","","24.1","","97.83","","","","","","Mostly Cloudy"
"2009-09-29 13:00","2009","09","29","13:00","14.7","","9.6","","71","","34","","46","","24.1","","97.94","","","","","","Mostly Cloudy"
"2009-09-29 14:00","2009","09","29","14:00","13.8","","8.7","","71","","32","","37","","24.1","","98.07","","","","","","Mostly Cloudy"
"2009-09-29 15:00","2009","09","29","15:00","14.1","","8.5","","69","","32","","52","","24.1","","98.14","","","","","","Mostly Cloudy"
"2009-09-29 16:00","2009","09","29","16:00","13.3","","7.8","","69","","33","","46","","24.1","","98.25","","","","","","Mostly Cloudy"
"2009-09-29 17:00","2009","09","29","17:00","12.7","","7.6","","71","","32","","46","","24.1","","98.38","","","","","","Mostly Cloudy"
"2009-09-29 18:00","2009","09","29","18:00","11.4","","7.8","","79","","31","","28","","24.1","","98.49","","","","","","Drizzle"
"2009-09-29 19:00","2009","09","29","19:00","10.7","","7.8","","82","","31","","35","","19.3","","98.61","","","","","","Drizzle"
"2009-09-29 20:00","2009","09","29","20:00","9.9","","8.4","","90","","32","","30","","16.1","","98.71","","","","","","Drizzle"
"2009-09-29 21:00","2009","09","29","21:00","9.5","","7.2","","86","","33","","35","","16.1","","98.79","","","","","","Drizzle"
"2009-09-29 22:00","2009","09","29","22:00","8.5","","5.0","","79","","33","","37","","24.1","","98.86","","","","","","Mostly Cloudy"
"2009-09-29 23:00","2009","09","29","23:00","8.2","","4.7","","79","","34","","28","","24.1","","98.91","","","","","","Mostly Cloudy"
"2009-09-30 00:00","2009","09","30","00:00","7.5","","4.0","","78","","33","","30","","24.1","","98.96","","","","","","Mostly Cloudy"
"2009-09-30 01:00","2009","09","30","01:00","7.3","","3.7","","78","","34","","28","","24.1","","98.99","","","","","","Mostly Cloudy"
"2009-09-30 02:00","2009","09","30","02:00","7.2","","3.9","","80","","32","","20","","24.1","","99.05","","","","","","Mostly Cloudy"
"2009-09-30 03:00","2009","09","30","03:00","7.0","","4.0","","81","","33","","26","","24.1","","99.09","","","","","","Drizzle"
"2009-09-30 04:00","2009","09","30","04:00","6.6","","5.3","","91","","30","","15","","24.1","","99.16","","","","","","Mostly Cloudy"
"2009-09-30 05:00","2009","09","30","05:00","7.2","","5.5","","89","","31","","15","","24.1","","99.19","","","","","","Mostly Cloudy"
"2009-09-30 06:00","2009","09","30","06:00","7.5","","4.6","","82","","34","","19","","24.1","","99.25","","","","","","Cloudy"
"2009-09-30 07:00","2009","09","30","07:00","7.3","","3.4","","76","","36","","24","","24.1","","99.30","","","","","","Cloudy"
"2009-09-30 08:00","2009","09","30","08:00","7.2","","3.7","","78","","35","","20","","24.1","","99.35","","","","","","Mostly Cloudy"
"2009-09-30 09:00","2009","09","30","09:00","7.7","","4.6","","81","","34","","20","","24.1","","99.38","","","","","","Mostly Cloudy"
"2009-09-30 10:00","2009","09","30","10:00","8.5","","4.3","","75","","33","","24","","24.1","","99.41","","","","","","Mostly Cloudy"
"2009-09-30 11:00","2009","09","30","11:00","8.6","","4.4","","75","","33","","24","","24.1","","99.43","","","","","","Mostly Cloudy"
"2009-09-30 12:00","2009","09","30","12:00","9.5","","5.7","","77","","31","","22","","24.1","","99.43","","","","","","Mainly Clear"
"2009-09-30 13:00","2009","09","30","13:00","11.1","","4.9","","66","","30","","26","","24.1","","99.38","","","","","","Mostly Cloudy"
"2009-09-30 14:00","2009","09","30","14:00","11.2","","4.7","","64","","32","","26","","24.1","","99.37","","","","","","Rain Showers"
"2009-09-30 15:00","2009","09","30","15:00","9.2","","6.3","","82","","36","","26","","24.1","","99.41","","","","","","Mostly Cloudy"
"2009-09-30 16:00","2009","09","30","16:00","8.5","","5.6","","82","","36","","22","","24.1","","99.44","","","","","","Mostly Cloudy"
"2009-09-30 17:00","2009","09","30","17:00","8.6","","4.9","","78","","35","","19","","24.1","","99.46","","","","","","Mostly Cloudy"
"2009-09-30 18:00","2009","09","30","18:00","8.7","","2.7","","66","","31","","35","","24.1","","99.49","","","","","","Mostly Cloudy"
"2009-09-30 19:00","2009","09","30","19:00","8.0","","2.2","","67","","30","","20","","24.1","","99.53","","","","","","Mostly Cloudy"
"2009-09-30 20:00","2009","09","30","20:00","7.3","","2.0","","69","","30","","22","","24.1","","99.58","","","","","","Mostly Cloudy"
"2009-09-30 21:00","2009","09","30","21:00","7.1","","1.1","","66","","28","","20","","24.1","","99.58","","","","","","Cloudy"
"2009-09-30 22:00","2009","09","30","22:00","7.0","","1.4","","67","","29","","17","","24.1","","99.60","","","","","","Cloudy"
"2009-09-30 23:00","2009","09","30","23:00","6.9","","1.6","","69","","31","","20","","24.1","","99.58","","","","","","Cloudy"
