"Station Name","TORONTO LESTER B. PEARSON INT'L A"
"Province","ONTARIO"
"Latitude","43.68"
"Longitude","-79.63"
"Elevation","173.40"
"Climate Identifier","6158733"
"WMO Identifier","71624"
"TC Identifier","YYZ"
"All times are specified in Local Standard Time (LST). Add 1 hour to adjust for Daylight Saving Time where and when it is observed."

"Legend"
"E","Estimated"
"M","Missing"
"NA","Not Available"

"Date/Time","Year","Month","Day","Time","Temp (°C)","Temp Flag","Dew Point Temp (°C)","Dew Point Temp Flag","Rel Hum (%)","Rel Hum Flag","Wind Dir (10s deg)","Wind Dir Flag","Wind Spd (km/h)","Wind Spd Flag","Visibility (km)","Visibility Flag","Stn Press (kPa)","Stn Press Flag","Hmdx","Hmdx Flag","Wind Chill","Wind Chill Flag","Weather"
"1998-07-01 00:00","1998","07","01","00:00","18.4","","14.7","","79","","30","","19","","25.0","","98.22","","","","","","Mainly Clear"
"1998-07-01 01:00","1998","07","01","01:00","18.1","","12.7","","71","","31","","15","","25.0","","98.29","","","","","","Clear"
"1998-07-01 02:00","1998","07","01","02:00","17.0","","13.1","","78","","29","","13","","25.0","","98.29","","","","","","Clear"
"1998-07-01 03:00","1998","07","01","03:00","17.5","","11.7","","69","","30","","19","","25.0","","98.32","","","","","","Clear"
"1998-07-01 04:00","1998","07","01","04:00","16.7","","11.0","","69","","32","","20","","25.0","","98.39","","","","","","Mainly Clear"
"1998-07-01 05:00","1998","07","01","05:00","16.3","","11.1","","71","","31","","19","","32.2","","98.46","","","","","","Mainly Clear"
"1998-07-01 06:00","1998","07","01","06:00","16.1","","11.1","","72","","29","","19","","40.2","","98.52","","","","","","Mainly Clear"
"1998-07-01 07:00","1998","07","01","07:00","17.4","","11.8","","70","","31","","22","","40.2","","98.56","","","","","","Mainly Clear"
"1998-07-01 08:00","1998","07","01","08:00","19.2","","11.7","","62","","32","","33","","40.2","","98.62","","","","","","Mostly Cloudy"
"1998-07-01 09:00","1998","07","01","09:00","20.6","","11.4","","56","","33","","41","","40.2","","98.66","","","","","","Mostly Cloudy"
"1998-07-01 10:00","1998","07","01","10:00","22.0","","10.2","","47","","34","","39","","40.2","","98.72","","","","","","Mostly Cloudy"
"1998-07-01 11:00","1998","07","01","11:00","21.9","","9.8","","46","","33","","43","","40.2","","98.72","","","","","","Mostly Cloudy"
"1998-07-01 12:00","1998","07","01","12:00","22.6","","9.6","","44","","34","","33","","32.2","","98.76","","","","","","Mostly Cloudy"
"1998-07-01 13:00","1998","07","01","13:00","23.6","","10.4","","43","","34","","39","","32.2","","98.76","","25","","","","Mostly Cloudy"
"1998-07-01 14:00","1998","07","01","14:00","23.4","","9.0","","40","","34","","37","","32.2","","98.82","","","","","","Mostly Cloudy"
"1998-07-01 15:00","1998","07","01","15:00","23.7","","8.5","","38","","36","","33","","32.2","","98.89","","","","","","Mainly Clear"
"1998-07-01 16:00","1998","07","01","16:00","23.6","","9.2","","40","","35","","30","","40.2","","98.96","","25","","","","Clear"
"1998-07-01 17:00","1998","07","01","17:00","23.1","","8.4","","39","","34","","30","","40.2","","98.99","","","","","","Clear"
"1998-07-01 18:00","1998","07","01","18:00","22.6","","9.2","","42","","34","","26","","40.2","","99.09","","","","","","Clear"
"1998-07-01 19:00","1998","07","01","19:00","21.8","","10.2","","48","","35","","17","","32.2","","99.16","","","","","","Clear"
"1998-07-01 20:00","1998","07","01","20:00","19.8","","10.7","","56","","34","","11","","32.2","","99.19","","","","","","Clear"
"1998-07-01 21:00","1998","07","01","21:00","17.1","","11.5","","70","","32","","11","","32.2","","99.22","","","","","","Mainly Clear"
"1998-07-01 22:00","1998","07","01","22:00","17.8","","11.0","","64","","29","","7","","25.0","","99.26","","","","","","Clear"
"1998-07-01 23:00","1998","07","01","23:00","17.2","","11.1","","67","","29","","11","","25.0","","99.29","","","","","","Clear"
"1998-07-02 00:00","1998","07","02","00:00","15.6","","11.7","","78","","33","","13","","19.3","","99.32","","","","","","Clear"
"1998-07-02 01:00","1998","07","02","01:00","14.5","","11.8","","84","","32","","9","","16.1","","99.32","","","","","","Clear"
"1998-07-02 02:00","1998","07","02","02:00","13.9","","11.5","","85","","32","","9","","16.1","","99.35","","","","","","Clear"
"1998-07-02 03:00","1998","07","02","03:00","13.6","","11.0","","84","","32","","7","","19.3","","99.35","","","","","","Clear"
"1998-07-02 04:00","1998","07","02","04:00","14.8","","11.4","","80","","30","","6","","19.3","","99.39","","","","","","Clear"
"1998-07-02 05:00","1998","07","02","05:00","13.4","","11.3","","87","","29","","7","","16.1","","99.49","","","","","","Clear"
"1998-07-02 06:00","1998","07","02","06:00","15.0","","12.3","","84","","33","","7","","19.3","","99.52","","","","","","Clear"
"1998-07-02 07:00","1998","07","02","07:00","17.4","","12.8","","74","","32","","6","","19.3","","99.59","","","","","","Clear"
"1998-07-02 08:00","1998","07","02","08:00","21.1","","13.6","","62","","33","","11","","24.1","","99.62","","","","","","Clear"
"1998-07-02 09:00","1998","07","02","09:00","23.4","","14.2","","56","","33","","7","","32.2","","99.59","","27","","","","Clear"
"1998-07-02 10:00","1998","07","02","10:00","23.9","","12.4","","49","","32","","13","","24.1","","99.65","","26","","","","Mainly Clear"
"1998-07-02 11:00","1998","07","02","11:00","24.8","","11.2","","42","","30","","6","","24.1","","99.65","","27","","","","Mainly Clear"
"1998-07-02 12:00","1998","07","02","12:00","25.8","","10.6","","38","","6","","7","","19.3","","99.59","","27","","","","Mainly Clear"
"1998-07-02 13:00","1998","07","02","13:00","26.0","","10.7","","38","","32","","4","","19.3","","99.55","","28","","","","Mainly Clear"
"1998-07-02 14:00","1998","07","02","14:00","26.2","","10.7","","38","","36","","9","","19.3","","99.55","","28","","","","Mainly Clear"
"1998-07-02 15:00","1998","07","02","15:00","25.9","","11.0","","39","","28","","6","","19.3","","99.62","","28","","","","Mainly Clear"
"1998-07-02 16:00","1998","07","02","16:00","25.2","","12.8","","46","","31","","7","","19.3","","99.62","","28","","","","Mainly Clear"
"1998-07-02 17:00","1998","07","02","17:00","25.0","","12.8","","47","","29","","6","","19.3","","99.62","","28","","","","Mainly Clear"
"1998-07-02 18:00","1998","07","02","18:00","24.5","","13.3","","50","","30","","7","","19.3","","99.59","","27","","","","Mainly Clear"
"1998-07-02 19:00","1998","07","02","19:00","24.6","","14.3","","53","","1","","15","","19.3","","99.59","","28","","","","Mainly Clear"
"1998-07-02 20:00","1998","07","02","20:00","23.9","","13.3","","51","","36","","9","","16.1","","99.59","","27","","","","Clear"
"1998-07-02 21:00","1998","07","02","21:00","22.3","","13.6","","58","","22","","7","","19.3","","99.62","","25","","","","Clear"
"1998-07-02 22:00","1998","07","02","22:00","20.6","","13.4","","63","","29","","9","","24.1","","99.69","","","","","","Clear"
"1998-07-02 23:00","1998","07","02","23:00","18.9","","13.2","","69","","32","","4","","25.0","","99.69","","","","","","Clear"
"1998-07-03 00:00","1998","07","03","00:00","18.4","","12.6","","69","","29","","7","","25.0","","99.69","","","","","","Clear"
"1998-07-03 01:00","1998","07","03","01:00","17.3","","12.6","","74","","21","","4","","25.0","","99.65","","","","","","Clear"
"1998-07-03 02:00","1998","07","03","02:00","15.7","","11.9","","78","","26","","9","","25.0","","99.69","","","","","","Clear"
"1998-07-03 03:00","1998","07","03","03:00","15.8","","11.2","","74","","27","","4","","25.0","","99.69","","","","","","Clear"
"1998-07-03 04:00","1998","07","03","04:00","15.0","","10.7","","75","","32","","4","","24.1","","99.69","","","","","","Mainly Clear"
"1998-07-03 05:00","1998","07","03","05:00","15.4","","10.8","","74","","30","","4","","19.3","","99.72","","","","","","Mostly Cloudy"
"1998-07-03 06:00","1998","07","03","06:00","17.1","","11.8","","71","","","","0","","19.3","","99.72","","","","","","Mostly Cloudy"
"1998-07-03 07:00","1998","07","03","07:00","19.5","","12.6","","64","","20","","4","","19.3","","99.69","","","","","","Mostly Cloudy"
"1998-07-03 08:00","1998","07","03","08:00","22.5","","14.2","","59","","22","","6","","16.1","","99.65","","26","","","","Mainly Clear"
"1998-07-03 09:00","1998","07","03","09:00","24.0","","15.3","","58","","23","","15","","12.9","","99.62","","28","","","","Mainly Clear"
"1998-07-03 10:00","1998","07","03","10:00","26.5","","17.0","","56","","24","","13","","12.9","","99.59","","32","","","","Mainly Clear"
"1998-07-03 11:00","1998","07","03","11:00","27.5","","16.3","","50","","25","","20","","16.1","","99.55","","32","","","","Mainly Clear"
"1998-07-03 12:00","1998","07","03","12:00","28.6","","16.6","","48","","25","","22","","16.1","","99.55","","34","","","","Mainly Clear"
"1998-07-03 13:00","1998","07","03","13:00","28.2","","14.7","","44","","25","","20","","19.3","","99.55","","32","","","","Mainly Clear"
"1998-07-03 14:00","1998","07","03","14:00","28.9","","15.0","","43","","25","","22","","24.1","","99.45","","33","","","","Mainly Clear"
"1998-07-03 15:00","1998","07","03","15:00","29.8","","13.9","","38","","27","","19","","19.3","","99.45","","33","","","","Mainly Clear"
"1998-07-03 16:00","1998","07","03","16:00","28.7","","13.8","","40","","28","","13","","19.3","","99.39","","32","","","","Mainly Clear"
"1998-07-03 17:00","1998","07","03","17:00","28.6","","13.5","","40","","24","","13","","19.3","","99.35","","32","","","","Mostly Cloudy"
"1998-07-03 18:00","1998","07","03","18:00","27.5","","12.6","","40","","27","","11","","19.3","","99.39","","30","","","","Mostly Cloudy"
"1998-07-03 19:00","1998","07","03","19:00","27.2","","12.1","","39","","25","","9","","24.1","","99.35","","30","","","","Mostly Cloudy"
"1998-07-03 20:00","1998","07","03","20:00","26.0","","12.5","","43","","25","","11","","24.1","","99.39","","29","","","","Mostly Cloudy"
"1998-07-03 21:00","1998","07","03","21:00","24.4","","14.4","","54","","29","","22","","24.1","","99.45","","28","","","","Rain Showers"
"1998-07-03 22:00","1998","07","03","22:00","22.6","","15.3","","63","","30","","19","","24.1","","99.42","","27","","","","Rain Showers"
"1998-07-03 23:00","1998","07","03","23:00","21.9","","15.6","","67","","36","","11","","24.1","","99.35","","26","","","","Cloudy"
"1998-07-04 00:00","1998","07","04","00:00","22.3","","15.2","","64","","34","","4","","24.1","","99.32","","26","","","","Cloudy"
"1998-07-04 01:00","1998","07","04","01:00","21.4","","15.8","","70","","26","","4","","24.1","","99.32","","26","","","","Mostly Cloudy"
"1998-07-04 02:00","1998","07","04","02:00","21.0","","16.0","","73","","35","","4","","24.1","","99.29","","26","","","","Cloudy"
"1998-07-04 03:00","1998","07","04","03:00","19.9","","17.2","","84","","36","","4","","19.3","","99.26","","","","","","Rain Showers"
"1998-07-04 04:00","1998","07","04","04:00","20.0","","17.4","","85","","1","","9","","16.1","","99.26","","26","","","","Rain Showers"
"1998-07-04 05:00","1998","07","04","05:00","20.2","","17.6","","85","","8","","6","","12.9","","99.26","","26","","","","Rain Showers"
"1998-07-04 06:00","1998","07","04","06:00","19.4","","18.1","","92","","35","","4","","8.0","","99.26","","","","","","Rain Showers,Fog"
"1998-07-04 07:00","1998","07","04","07:00","19.9","","18.0","","89","","9","","9","","9.7","","99.26","","","","","","Rain Showers,Fog"
"1998-07-04 08:00","1998","07","04","08:00","19.8","","18.3","","91","","13","","7","","8.0","","99.29","","","","","","Fog"
"1998-07-04 09:00","1998","07","04","09:00","20.6","","18.3","","87","","6","","7","","9.7","","99.26","","27","","","","Haze"
"1998-07-04 10:00","1998","07","04","10:00","20.2","","17.6","","85","","6","","9","","11.3","","99.29","","26","","","","Rain Showers"
"1998-07-04 11:00","1998","07","04","11:00","19.0","","18.1","","95","","6","","13","","4.0","","99.29","","","","","","Moderate Rain Showers,Fog"
"1998-07-04 12:00","1998","07","04","12:00","19.1","","17.6","","91","","9","","7","","11.3","","99.29","","","","","","Cloudy"
"1998-07-04 13:00","1998","07","04","13:00","20.2","","18.8","","92","","15","","4","","9.7","","99.26","","27","","","","Fog"
"1998-07-04 14:00","1998","07","04","14:00","20.5","","19.0","","91","","33","","2","","9.7","","99.26","","27","","","","Fog"
"1998-07-04 15:00","1998","07","04","15:00","20.2","","18.7","","91","","2","","26","","16.1","","99.29","","27","","","","Mostly Cloudy"
"1998-07-04 16:00","1998","07","04","16:00","20.6","","17.3","","81","","4","","20","","24.1","","99.35","","26","","","","Cloudy"
"1998-07-04 17:00","1998","07","04","17:00","21.3","","16.6","","75","","4","","15","","32.2","","99.42","","26","","","","Mostly Cloudy"
"1998-07-04 18:00","1998","07","04","18:00","20.9","","16.3","","75","","4","","17","","32.2","","99.45","","26","","","","Cloudy"
"1998-07-04 19:00","1998","07","04","19:00","20.5","","16.0","","75","","4","","15","","40.2","","99.49","","25","","","","Mostly Cloudy"
"1998-07-04 20:00","1998","07","04","20:00","18.9","","14.8","","77","","2","","7","","25.0","","99.65","","","","","","Mostly Cloudy"
"1998-07-04 21:00","1998","07","04","21:00","18.9","","15.0","","78","","2","","7","","32.2","","99.65","","","","","","Mostly Cloudy"
"1998-07-04 22:00","1998","07","04","22:00","18.1","","14.4","","79","","36","","6","","25.0","","99.69","","","","","","Mainly Clear"
"1998-07-04 23:00","1998","07","04","23:00","16.4","","14.0","","86","","35","","6","","25.0","","99.69","","","","","","Clear"
"1998-07-05 00:00","1998","07","05","00:00","16.2","","14.1","","87","","36","","7","","25.0","","99.72","","","","","","Clear"
"1998-07-05 01:00","1998","07","05","01:00","15.8","","13.8","","88","","35","","9","","25.0","","99.72","","","","","","Clear"
"1998-07-05 02:00","1998","07","05","02:00","14.6","","11.9","","84","","34","","11","","25.0","","99.75","","","","","","Clear"
"1998-07-05 03:00","1998","07","05","03:00","13.8","","11.6","","87","","35","","11","","25.0","","99.79","","","","","","Clear"
"1998-07-05 04:00","1998","07","05","04:00","13.0","","10.8","","86","","34","","15","","25.0","","99.82","","","","","","Clear"
"1998-07-05 05:00","1998","07","05","05:00","13.4","","10.6","","83","","35","","15","","32.2","","99.89","","","","","","Mainly Clear"
"1998-07-05 06:00","1998","07","05","06:00","14.3","","10.8","","79","","34","","15","","40.2","","99.95","","","","","","Mainly Clear"
"1998-07-05 07:00","1998","07","05","07:00","16.3","","11.1","","71","","34","","15","","40.2","","100.02","","","","","","Mainly Clear"
"1998-07-05 08:00","1998","07","05","08:00","18.0","","11.6","","66","","36","","15","","40.2","","100.05","","","","","","Mainly Clear"
"1998-07-05 09:00","1998","07","05","09:00","19.8","","11.6","","59","","1","","11","","40.2","","100.09","","","","","","Mainly Clear"
"1998-07-05 10:00","1998","07","05","10:00","20.9","","11.5","","55","","2","","9","","40.2","","100.09","","","","","","Mainly Clear"
"1998-07-05 11:00","1998","07","05","11:00","22.5","","9.7","","44","","1","","19","","40.2","","100.05","","","","","","Mainly Clear"
"1998-07-05 12:00","1998","07","05","12:00","22.8","","11.0","","47","","5","","13","","40.2","","100.02","","25","","","","Mainly Clear"
"1998-07-05 13:00","1998","07","05","13:00","23.0","","10.5","","45","","3","","15","","40.2","","99.99","","25","","","","Mostly Cloudy"
"1998-07-05 14:00","1998","07","05","14:00","23.1","","9.7","","43","","35","","15","","40.2","","99.99","","","","","","Mainly Clear"
"1998-07-05 15:00","1998","07","05","15:00","23.6","","9.3","","40","","32","","13","","40.2","","99.99","","25","","","","Mainly Clear"
"1998-07-05 16:00","1998","07","05","16:00","23.9","","10.4","","43","","36","","11","","40.2","","99.99","","25","","","","Mostly Cloudy"
"1998-07-05 17:00","1998","07","05","17:00","23.5","","9.3","","40","","3","","4","","40.2","","99.95","","","","","","Mainly Clear"
"1998-07-05 18:00","1998","07","05","18:00","22.8","","9.9","","44","","17","","11","","40.2","","99.95","","","","","","Clear"
"1998-07-05 19:00","1998","07","05","19:00","21.8","","9.0","","44","","16","","11","","40.2","","99.99","","","","","","Clear"
"1998-07-05 20:00","1998","07","05","20:00","20.5","","8.5","","46","","18","","7","","40.2","","99.99","","","","","","Mostly Cloudy"
"1998-07-05 21:00","1998","07","05","21:00","19.4","","8.3","","49","","18","","6","","25.0","","100.02","","","","","","Mainly Clear"
"1998-07-05 22:00","1998","07","05","22:00","19.3","","8.7","","50","","18","","4","","25.0","","100.02","","","","","","Mainly Clear"
"1998-07-05 23:00","1998","07","05","23:00","18.8","","8.8","","52","","24","","4","","25.0","","100.02","","","","","","Mainly Clear"
"1998-07-06 00:00","1998","07","06","00:00","17.6","","10.0","","61","","34","","4","","25.0","","99.95","","","","","","Mainly Clear"
"1998-07-06 01:00","1998","07","06","01:00","15.6","","10.8","","73","","35","","4","","25.0","","99.95","","","","","","Mainly Clear"
"1998-07-06 02:00","1998","07","06","02:00","14.0","","10.7","","80","","35","","6","","25.0","","99.95","","","","","","Mostly Cloudy"
"1998-07-06 03:00","1998","07","06","03:00","14.2","","11.8","","85","","35","","6","","25.0","","99.99","","","","","","Mostly Cloudy"
"1998-07-06 04:00","1998","07","06","04:00","15.0","","11.6","","80","","34","","4","","25.0","","99.99","","","","","","Mostly Cloudy"
"1998-07-06 05:00","1998","07","06","05:00","14.4","","11.6","","83","","","","0","","32.2","","99.95","","","","","","Mostly Cloudy"
"1998-07-06 06:00","1998","07","06","06:00","15.5","","12.2","","81","","","","0","","32.2","","99.99","","","","","","Mostly Cloudy"
"1998-07-06 07:00","1998","07","06","07:00","16.7","","13.1","","79","","","","0","","32.2","","99.99","","","","","","Mostly Cloudy"
"1998-07-06 08:00","1998","07","06","08:00","18.9","","13.8","","72","","12","","11","","24.1","","99.95","","","","","","Mostly Cloudy"
"1998-07-06 09:00","1998","07","06","09:00","20.2","","13.8","","67","","11","","7","","24.1","","99.95","","","","","","Mostly Cloudy"
"1998-07-06 10:00","1998","07","06","10:00","22.2","","13.7","","59","","14","","7","","32.2","","99.95","","25","","","","Mostly Cloudy"
"1998-07-06 11:00","1998","07","06","11:00","22.5","","13.3","","56","","14","","7","","32.2","","99.92","","25","","","","Mostly Cloudy"
"1998-07-06 12:00","1998","07","06","12:00","22.6","","12.3","","52","","14","","15","","32.2","","99.89","","25","","","","Mostly Cloudy"
"1998-07-06 13:00","1998","07","06","13:00","22.5","","12.0","","51","","15","","22","","32.2","","99.85","","25","","","","Cloudy"
"1998-07-06 14:00","1998","07","06","14:00","21.9","","11.0","","50","","12","","15","","32.2","","99.82","","","","","","Cloudy"
"1998-07-06 15:00","1998","07","06","15:00","20.5","","13.1","","63","","12","","17","","24.1","","99.75","","","","","","Rain"
"1998-07-06 16:00","1998","07","06","16:00","20.2","","13.1","","64","","10","","11","","40.2","","99.79","","","","","","Rain"
"1998-07-06 17:00","1998","07","06","17:00","20.0","","12.6","","62","","11","","9","","32.2","","99.79","","","","","","Rain Showers"
"1998-07-06 18:00","1998","07","06","18:00","18.8","","14.8","","78","","12","","9","","19.3","","99.79","","","","","","Rain Showers"
"1998-07-06 19:00","1998","07","06","19:00","18.8","","13.8","","73","","8","","13","","32.2","","99.75","","","","","","Cloudy"
"1998-07-06 20:00","1998","07","06","20:00","18.8","","13.7","","72","","18","","2","","24.1","","99.79","","","","","","Rain Showers"
"1998-07-06 21:00","1998","07","06","21:00","18.9","","13.8","","72","","7","","11","","24.1","","99.69","","","","","","Cloudy"
"1998-07-06 22:00","1998","07","06","22:00","18.8","","13.6","","72","","7","","9","","24.1","","99.65","","","","","","Cloudy"
"1998-07-06 23:00","1998","07","06","23:00","17.7","","14.7","","83","","2","","9","","19.3","","99.69","","","","","","Rain Showers"
"1998-07-07 00:00","1998","07","07","00:00","17.9","","14.4","","80","","7","","7","","19.3","","99.65","","","","","","Cloudy"
"1998-07-07 01:00","1998","07","07","01:00","17.8","","15.0","","84","","","","0","","16.1","","99.69","","","","","","Rain Showers"
"1998-07-07 02:00","1998","07","07","02:00","16.0","","15.0","","94","","2","","11","","9.7","","99.69","","","","","","Rain Showers,Fog"
"1998-07-07 03:00","1998","07","07","03:00","16.2","","15.4","","95","","5","","9","","8.0","","99.65","","","","","","Rain Showers,Fog"
"1998-07-07 04:00","1998","07","07","04:00","16.0","","15.2","","95","","5","","11","","8.0","","99.62","","","","","","Rain Showers,Fog"
"1998-07-07 05:00","1998","07","07","05:00","16.2","","15.4","","95","","8","","15","","6.4","","99.62","","","","","","Rain Showers,Fog"
"1998-07-07 06:00","1998","07","07","06:00","16.3","","15.5","","95","","10","","11","","8.0","","99.59","","","","","","Fog"
"1998-07-07 07:00","1998","07","07","07:00","16.5","","15.8","","96","","7","","11","","6.4","","99.59","","","","","","Fog"
"1998-07-07 08:00","1998","07","07","08:00","16.7","","16.0","","96","","9","","15","","4.8","","99.59","","","","","","Fog"
"1998-07-07 09:00","1998","07","07","09:00","16.7","","16.0","","96","","8","","13","","3.2","","99.59","","","","","","Fog"
"1998-07-07 10:00","1998","07","07","10:00","17.1","","16.5","","96","","8","","19","","2.0","","99.55","","","","","","Fog"
"1998-07-07 11:00","1998","07","07","11:00","17.3","","16.9","","97","","8","","20","","1.6","","99.55","","","","","","Rain Showers,Fog"
"1998-07-07 12:00","1998","07","07","12:00","17.4","","17.0","","97","","7","","15","","3.6","","99.52","","","","","","Rain Showers,Fog"
"1998-07-07 13:00","1998","07","07","13:00","18.1","","17.3","","95","","8","","15","","4.8","","99.52","","","","","","Rain Showers,Fog"
"1998-07-07 14:00","1998","07","07","14:00","18.2","","17.6","","96","","7","","13","","6.4","","99.49","","","","","","Rain,Fog"
"1998-07-07 15:00","1998","07","07","15:00","18.5","","17.9","","96","","8","","9","","2.8","","99.49","","","","","","Drizzle,Fog"
"1998-07-07 16:00","1998","07","07","16:00","18.4","","17.9","","97","","8","","13","","2.0","","99.45","","","","","","Drizzle,Fog"
"1998-07-07 17:00","1998","07","07","17:00","18.4","","17.9","","97","","7","","9","","2.0","","99.45","","","","","","Drizzle,Fog"
"1998-07-07 18:00","1998","07","07","18:00","18.6","","18.1","","97","","8","","15","","1.6","","99.39","","","","","","Drizzle,Fog"
"1998-07-07 19:00","1998","07","07","19:00","18.8","","18.0","","95","","7","","9","","2.8","","99.39","","","","","","Fog"
"1998-07-07 20:00","1998","07","07","20:00","18.8","","18.0","","95","","10","","11","","2.8","","99.39","","","","","","Drizzle,Fog"
"1998-07-07 21:00","1998","07","07","21:00","18.7","","18.1","","96","","7","","9","","3.6","","99.39","","","","","","Fog"
"1998-07-07 22:00","1998","07","07","22:00","18.5","","18.0","","97","","7","","7","","4.0","","99.39","","","","","","Fog"
"1998-07-07 23:00","1998","07","07","23:00","18.6","","17.9","","96","","8","","6","","4.0","","99.39","","","","","","Fog"
"1998-07-08 00:00","1998","07","08","00:00","18.5","","18.0","","97","","8","","9","","3.2","","99.35","","","","","","Fog"
"1998-07-08 01:00","1998","07","08","01:00","18.5","","18.1","","98","","6","","7","","3.2","","99.22","","","","","","Fog"
"1998-07-08 02:00","1998","07","08","02:00","18.7","","18.2","","97","","7","","6","","2.8","","99.19","","","","","","Fog"
"1998-07-08 03:00","1998","07","08","03:00","18.7","","18.3","","98","","6","","9","","2.4","","99.12","","","","","","Fog"
"1998-07-08 04:00","1998","07","08","04:00","18.8","","18.3","","97","","6","","7","","2.8","","99.12","","","","","","Fog"
"1998-07-08 05:00","1998","07","08","05:00","18.9","","18.5","","98","","4","","7","","2.0","","99.12","","","","","","Rain,Fog"
"1998-07-08 06:00","1998","07","08","06:00","19.1","","18.7","","98","","8","","11","","1.2","","99.06","","","","","","Moderate Rain,Fog"
"1998-07-08 07:00","1998","07","08","07:00","19.2","","18.7","","97","","1","","2","","2.4","","99.12","","","","","","Fog"
"1998-07-08 08:00","1998","07","08","08:00","19.4","","19.1","","98","","5","","6","","2.4","","99.12","","","","","","Fog"
"1998-07-08 09:00","1998","07","08","09:00","19.7","","19.2","","97","","36","","4","","2.0","","99.12","","","","","","Fog"
"1998-07-08 10:00","1998","07","08","10:00","20.0","","19.2","","95","","8","","4","","2.0","","99.12","","27","","","","Fog"
"1998-07-08 11:00","1998","07","08","11:00","20.3","","19.5","","95","","","","0","","2.0","","99.16","","27","","","","Fog"
"1998-07-08 12:00","1998","07","08","12:00","20.4","","19.4","","94","","","","0","","2.4","","99.16","","27","","","","Fog"
"1998-07-08 13:00","1998","07","08","13:00","20.9","","19.5","","92","","1","","4","","3.2","","99.12","","28","","","","Fog"
"1998-07-08 14:00","1998","07","08","14:00","22.6","","20.8","","90","","31","","6","","4.0","","99.09","","31","","","","Fog"
"1998-07-08 15:00","1998","07","08","15:00","23.8","","20.2","","80","","1","","6","","4.8","","99.06","","32","","","","Haze"
"1998-07-08 16:00","1998","07","08","16:00","23.4","","19.7","","80","","34","","7","","6.4","","99.06","","31","","","","Haze"
"1998-07-08 17:00","1998","07","08","17:00","23.6","","19.9","","80","","35","","13","","8.0","","99.02","","31","","","","Haze"
"1998-07-08 18:00","1998","07","08","18:00","22.3","","19.5","","84","","1","","9","","8.0","","99.02","","29","","","","Haze"
"1998-07-08 19:00","1998","07","08","19:00","21.6","","19.9","","90","","20","","7","","3.2","","99.09","","29","","","","Fog"
"1998-07-08 20:00","1998","07","08","20:00","21.6","","19.8","","90","","14","","6","","2.8","","99.09","","29","","","","Fog"
"1998-07-08 21:00","1998","07","08","21:00","20.9","","19.5","","92","","","","0","","4.8","","99.16","","28","","","","Fog"
"1998-07-08 22:00","1998","07","08","22:00","21.5","","19.5","","88","","2","","11","","4.8","","99.19","","29","","","","Fog"
"1998-07-08 23:00","1998","07","08","23:00","20.4","","17.9","","86","","1","","13","","6.4","","99.19","","26","","","","Haze"
"1998-07-09 00:00","1998","07","09","00:00","19.3","","17.4","","89","","35","","20","","6.4","","99.19","","","","","","Fog"
"1998-07-09 01:00","1998","07","09","01:00","18.2","","16.7","","91","","35","","13","","6.4","","99.19","","","","","","Fog"
"1998-07-09 02:00","1998","07","09","02:00","16.9","","15.9","","94","","33","","9","","8.0","","99.19","","","","","","Fog"
"1998-07-09 03:00","1998","07","09","03:00","16.7","","15.5","","93","","33","","7","","8.0","","99.19","","","","","","Fog"
"1998-07-09 04:00","1998","07","09","04:00","16.3","","15.0","","92","","32","","7","","8.0","","99.19","","","","","","Fog"
"1998-07-09 05:00","1998","07","09","05:00","15.6","","14.3","","92","","35","","7","","19.3","","99.19","","","","","","Clear"
"1998-07-09 06:00","1998","07","09","06:00","17.7","","15.5","","87","","35","","6","","24.1","","99.22","","","","","","Clear"
"1998-07-09 07:00","1998","07","09","07:00","19.5","","16.2","","81","","33","","4","","25.0","","99.26","","","","","","Clear"
"1998-07-09 08:00","1998","07","09","08:00","22.2","","17.4","","74","","33","","7","","25.0","","99.29","","28","","","","Clear"
"1998-07-09 09:00","1998","07","09","09:00","24.0","","17.2","","66","","34","","4","","32.2","","99.29","","29","","","","Clear"
"1998-07-09 10:00","1998","07","09","10:00","25.3","","17.0","","60","","20","","2","","32.2","","99.26","","31","","","","Clear"
"1998-07-09 11:00","1998","07","09","11:00","26.7","","15.9","","52","","27","","2","","32.2","","99.26","","31","","","","Mainly Clear"
"1998-07-09 12:00","1998","07","09","12:00","28.2","","15.2","","45","","","","0","","32.2","","99.22","","32","","","","Mainly Clear"
"1998-07-09 13:00","1998","07","09","13:00","28.1","","14.3","","43","","22","","7","","32.2","","99.19","","32","","","","Mainly Clear"
"1998-07-09 14:00","1998","07","09","14:00","28.6","","14.8","","43","","28","","9","","32.2","","99.12","","32","","","","Mostly Cloudy"
"1998-07-09 15:00","1998","07","09","15:00","29.4","","17.0","","47","","25","","20","","32.2","","99.06","","35","","","","Mainly Clear"
"1998-07-09 16:00","1998","07","09","16:00","20.2","","17.6","","85","","36","","32","","16.1","","99.12","","26","","","","Rain Showers"
"1998-07-09 17:00","1998","07","09","17:00","23.6","","18.0","","71","","35","","11","","32.2","","99.09","","30","","","","Mostly Cloudy"
"1998-07-09 18:00","1998","07","09","18:00","25.4","","17.2","","60","","35","","11","","32.2","","99.06","","31","","","","Mainly Clear"
"1998-07-09 19:00","1998","07","09","19:00","24.6","","16.8","","62","","33","","13","","32.2","","99.09","","30","","","","Mainly Clear"
"1998-07-09 20:00","1998","07","09","20:00","22.8","","17.6","","72","","34","","9","","32.2","","99.12","","29","","","","Mainly Clear"
"1998-07-09 21:00","1998","07","09","21:00","21.4","","15.2","","68","","31","","17","","25.0","","99.16","","25","","","","Mainly Clear"
"1998-07-09 22:00","1998","07","09","22:00","19.9","","15.5","","76","","33","","20","","25.0","","99.19","","","","","","Mostly Cloudy"
"1998-07-09 23:00","1998","07","09","23:00","19.1","","15.5","","80","","33","","30","","25.0","","99.26","","","","","","Mostly Cloudy"
"1998-07-10 00:00","1998","07","10","00:00","18.1","","15.0","","82","","35","","19","","25.0","","99.32","","","","","","Mainly Clear"
"1998-07-10 01:00","1998","07","10","01:00","17.0","","14.5","","85","","35","","17","","25.0","","99.32","","","","","","Clear"
"1998-07-10 02:00","1998","07","10","02:00","15.9","","13.9","","88","","34","","17","","25.0","","99.39","","","","","","Clear"
"1998-07-10 03:00","1998","07","10","03:00","14.4","","13.4","","94","","34","","17","","25.0","","99.39","","","","","","Clear"
"1998-07-10 04:00","1998","07","10","04:00","14.9","","13.7","","93","","34","","19","","25.0","","99.42","","","","","","Clear"
"1998-07-10 05:00","1998","07","10","05:00","14.6","","13.2","","91","","34","","19","","32.2","","99.49","","","","","","Mainly Clear"
"1998-07-10 06:00","1998","07","10","06:00","15.5","","13.0","","85","","34","","19","","32.2","","99.55","","","","","","Clear"
"1998-07-10 07:00","1998","07","10","07:00","16.8","","13.0","","78","","34","","17","","32.2","","99.55","","","","","","Mainly Clear"
"1998-07-10 08:00","1998","07","10","08:00","18.3","","13.7","","75","","34","","20","","40.2","","99.59","","","","","","Mainly Clear"
"1998-07-10 09:00","1998","07","10","09:00","18.8","","12.9","","69","","36","","24","","40.2","","99.62","","","","","","Mainly Clear"
"1998-07-10 10:00","1998","07","10","10:00","20.1","","12.8","","63","","36","","20","","40.2","","99.62","","","","","","Mainly Clear"
"1998-07-10 11:00","1998","07","10","11:00","21.1","","12.1","","56","","35","","22","","40.2","","99.65","","","","","","Mainly Clear"
"1998-07-10 12:00","1998","07","10","12:00","21.1","","11.3","","54","","34","","22","","40.2","","99.65","","","","","","Mainly Clear"
"1998-07-10 13:00","1998","07","10","13:00","21.8","","10.9","","50","","35","","22","","40.2","","99.65","","","","","","Mainly Clear"
"1998-07-10 14:00","1998","07","10","14:00","22.2","","8.4","","41","","34","","28","","40.2","","99.62","","","","","","Mainly Clear"
"1998-07-10 15:00","1998","07","10","15:00","22.6","","7.6","","38","","34","","26","","40.2","","99.62","","","","","","Mainly Clear"
"1998-07-10 16:00","1998","07","10","16:00","22.2","","9.0","","43","","34","","24","","40.2","","99.62","","","","","","Mainly Clear"
"1998-07-10 17:00","1998","07","10","17:00","21.6","","10.2","","48","","33","","24","","40.2","","99.62","","","","","","Mainly Clear"
"1998-07-10 18:00","1998","07","10","18:00","21.0","","10.0","","49","","34","","24","","40.2","","99.62","","","","","","Mainly Clear"
"1998-07-10 19:00","1998","07","10","19:00","20.2","","10.6","","54","","34","","22","","40.2","","99.65","","","","","","Clear"
"1998-07-10 20:00","1998","07","10","20:00","18.6","","9.7","","56","","34","","15","","32.2","","99.69","","","","","","Mainly Clear"
"1998-07-10 21:00","1998","07","10","21:00","16.4","","10.4","","68","","32","","15","","25.0","","99.72","","","","","","Clear"
"1998-07-10 22:00","1998","07","10","22:00","16.2","","9.6","","65","","33","","15","","25.0","","99.72","","","","","","Clear"
"1998-07-10 23:00","1998","07","10","23:00","15.3","","9.0","","66","","33","","15","","25.0","","99.72","","","","","","Clear"
"1998-07-11 00:00","1998","07","11","00:00","13.2","","9.6","","79","","33","","11","","25.0","","99.72","","","","","","Clear"
"1998-07-11 01:00","1998","07","11","01:00","13.5","","9.8","","78","","33","","11","","25.0","","99.72","","","","","","Clear"
"1998-07-11 02:00","1998","07","11","02:00","13.1","","9.6","","79","","34","","7","","25.0","","99.72","","","","","","Clear"
"1998-07-11 03:00","1998","07","11","03:00","13.0","","9.1","","77","","34","","11","","25.0","","99.69","","","","","","Clear"
"1998-07-11 04:00","1998","07","11","04:00","12.5","","9.4","","81","","33","","7","","25.0","","99.72","","","","","","Clear"
"1998-07-11 05:00","1998","07","11","05:00","13.1","","9.8","","80","","33","","11","","25.0","","99.72","","","","","","Clear"
"1998-07-11 06:00","1998","07","11","06:00","14.2","","10.4","","78","","34","","9","","40.2","","99.75","","","","","","Mainly Clear"
"1998-07-11 07:00","1998","07","11","07:00","17.0","","11.2","","69","","33","","15","","40.2","","99.79","","","","","","Mainly Clear"
"1998-07-11 08:00","1998","07","11","08:00","19.8","","12.5","","63","","34","","20","","40.2","","99.75","","","","","","Mainly Clear"
"1998-07-11 09:00","1998","07","11","09:00","21.3","","12.3","","56","","33","","11","","40.2","","99.75","","","","","","Mainly Clear"
"1998-07-11 10:00","1998","07","11","10:00","22.1","","10.9","","49","","33","","20","","40.2","","99.72","","","","","","Mainly Clear"
"1998-07-11 11:00","1998","07","11","11:00","23.3","","10.1","","43","","1","","28","","40.2","","99.72","","25","","","","Mainly Clear"
"1998-07-11 12:00","1998","07","11","12:00","23.4","","9.1","","40","","33","","26","","40.2","","99.69","","","","","","Mainly Clear"
"1998-07-11 13:00","1998","07","11","13:00","24.2","","9.7","","40","","33","","24","","40.2","","99.65","","25","","","","Mainly Clear"
"1998-07-11 14:00","1998","07","11","14:00","24.4","","8.6","","37","","33","","26","","40.2","","99.62","","25","","","","Mainly Clear"
"1998-07-11 15:00","1998","07","11","15:00","24.4","","8.8","","37","","34","","22","","40.2","","99.59","","25","","","","Mainly Clear"
"1998-07-11 16:00","1998","07","11","16:00","24.2","","8.1","","36","","35","","24","","40.2","","99.59","","25","","","","Clear"
"1998-07-11 17:00","1998","07","11","17:00","23.8","","7.4","","35","","35","","22","","40.2","","99.55","","","","","","Clear"
"1998-07-11 18:00","1998","07","11","18:00","23.6","","6.4","","33","","35","","20","","40.2","","99.59","","","","","","Clear"
"1998-07-11 19:00","1998","07","11","19:00","22.6","","5.7","","33","","35","","20","","40.2","","99.59","","","","","","Clear"
"1998-07-11 20:00","1998","07","11","20:00","20.0","","6.6","","42","","35","","11","","32.2","","99.55","","","","","","Clear"
"1998-07-11 21:00","1998","07","11","21:00","18.0","","7.6","","51","","33","","13","","25.0","","99.59","","","","","","Mainly Clear"
"1998-07-11 22:00","1998","07","11","22:00","18.3","","7.8","","50","","35","","15","","25.0","","99.59","","","","","","Mainly Clear"
"1998-07-11 23:00","1998","07","11","23:00","14.9","","9.2","","69","","34","","15","","25.0","","99.62","","","","","","Clear"
"1998-07-12 00:00","1998","07","12","00:00","14.5","","8.8","","69","","32","","9","","25.0","","99.62","","","","","","Clear"
"1998-07-12 01:00","1998","07","12","01:00","13.2","","9.2","","77","","30","","7","","25.0","","99.59","","","","","","Clear"
"1998-07-12 02:00","1998","07","12","02:00","13.1","","9.6","","79","","31","","7","","25.0","","99.62","","","","","","Clear"
"1998-07-12 03:00","1998","07","12","03:00","13.1","","9.6","","79","","31","","4","","25.0","","99.62","","","","","","Clear"
"1998-07-12 04:00","1998","07","12","04:00","12.5","","9.3","","81","","32","","4","","25.0","","99.62","","","","","","Mainly Clear"
"1998-07-12 05:00","1998","07","12","05:00","12.9","","9.5","","80","","25","","4","","25.0","","99.62","","","","","","Mainly Clear"
"1998-07-12 06:00","1998","07","12","06:00","15.2","","9.7","","70","","","","0","","40.2","","99.72","","","","","","Mainly Clear"
"1998-07-12 07:00","1998","07","12","07:00","16.9","","11.1","","69","","25","","4","","40.2","","99.72","","","","","","Mainly Clear"
"1998-07-12 08:00","1998","07","12","08:00","19.6","","12.2","","62","","25","","6","","40.2","","99.69","","","","","","Mainly Clear"
"1998-07-12 09:00","1998","07","12","09:00","22.4","","10.5","","47","","23","","9","","40.2","","99.69","","","","","","Mostly Cloudy"
"1998-07-12 10:00","1998","07","12","10:00","23.7","","10.3","","43","","","","0","","40.2","","99.69","","25","","","","Mostly Cloudy"
"1998-07-12 11:00","1998","07","12","11:00","24.7","","10.8","","42","","18","","4","","40.2","","99.62","","26","","","","Cloudy"
"1998-07-12 12:00","1998","07","12","12:00","24.9","","11.1","","42","","19","","4","","40.2","","99.59","","27","","","","Cloudy"
"1998-07-12 13:00","1998","07","12","13:00","24.9","","11.1","","42","","15","","4","","40.2","","99.55","","27","","","","Cloudy"
"1998-07-12 14:00","1998","07","12","14:00","25.8","","11.2","","40","","24","","4","","40.2","","99.52","","28","","","","Mostly Cloudy"
"1998-07-12 15:00","1998","07","12","15:00","25.7","","12.2","","43","","24","","7","","40.2","","99.49","","28","","","","Mostly Cloudy"
"1998-07-12 16:00","1998","07","12","16:00","26.1","","13.4","","45","","27","","7","","40.2","","99.42","","29","","","","Mostly Cloudy"
"1998-07-12 17:00","1998","07","12","17:00","25.4","","12.8","","46","","13","","11","","40.2","","99.39","","28","","","","Mostly Cloudy"
"1998-07-12 18:00","1998","07","12","18:00","24.4","","12.4","","47","","16","","11","","40.2","","99.39","","27","","","","Mostly Cloudy"
"1998-07-12 19:00","1998","07","12","19:00","23.8","","13.7","","53","","19","","13","","40.2","","99.42","","27","","","","Mostly Cloudy"
"1998-07-12 20:00","1998","07","12","20:00","23.6","","14.6","","57","","22","","13","","32.2","","99.42","","27","","","","Mostly Cloudy"
"1998-07-12 21:00","1998","07","12","21:00","22.7","","14.4","","59","","21","","11","","25.0","","99.45","","26","","","","Mostly Cloudy"
"1998-07-12 22:00","1998","07","12","22:00","22.2","","13.7","","59","","22","","15","","25.0","","99.45","","25","","","","Mainly Clear"
"1998-07-12 23:00","1998","07","12","23:00","21.0","","14.1","","65","","23","","4","","25.0","","99.45","","","","","","Mainly Clear"
"1998-07-13 00:00","1998","07","13","00:00","19.9","","14.7","","72","","25","","7","","25.0","","99.42","","","","","","Mainly Clear"
"1998-07-13 01:00","1998","07","13","01:00","19.8","","14.8","","73","","25","","13","","24.1","","99.42","","","","","","Mostly Cloudy"
"1998-07-13 02:00","1998","07","13","02:00","19.8","","14.4","","71","","26","","9","","24.1","","99.42","","","","","","Mostly Cloudy"
"1998-07-13 03:00","1998","07","13","03:00","19.7","","14.2","","71","","26","","9","","24.1","","99.42","","","","","","Mostly Cloudy"
"1998-07-13 04:00","1998","07","13","04:00","19.6","","14.2","","71","","26","","7","","24.1","","99.45","","","","","","Mostly Cloudy"
"1998-07-13 05:00","1998","07","13","05:00","18.9","","13.1","","69","","24","","9","","25.0","","99.45","","","","","","Mostly Cloudy"
"1998-07-13 06:00","1998","07","13","06:00","19.1","","12.9","","67","","27","","4","","19.3","","99.45","","","","","","Mainly Clear"
"1998-07-13 07:00","1998","07","13","07:00","20.5","","13.7","","65","","25","","7","","24.1","","99.49","","","","","","Mainly Clear"
"1998-07-13 08:00","1998","07","13","08:00","23.3","","13.6","","54","","26","","9","","24.1","","99.52","","26","","","","Clear"
"1998-07-13 09:00","1998","07","13","09:00","25.1","","13.8","","49","","25","","11","","24.1","","99.52","","28","","","","Clear"
"1998-07-13 10:00","1998","07","13","10:00","26.5","","15.5","","51","","25","","11","","24.1","","99.49","","31","","","","Clear"
"1998-07-13 11:00","1998","07","13","11:00","27.8","","16.0","","49","","27","","9","","24.1","","99.49","","32","","","","Mainly Clear"
"1998-07-13 12:00","1998","07","13","12:00","28.0","","15.0","","45","","22","","13","","24.1","","99.45","","32","","","","Mainly Clear"
"1998-07-13 13:00","1998","07","13","13:00","29.0","","16.9","","48","","24","","15","","24.1","","99.39","","34","","","","Mainly Clear"
"1998-07-13 14:00","1998","07","13","14:00","29.0","","15.7","","45","","25","","15","","24.1","","99.35","","33","","","","Mainly Clear"
"1998-07-13 15:00","1998","07","13","15:00","29.6","","16.1","","44","","22","","15","","24.1","","99.32","","34","","","","Mainly Clear"
"1998-07-13 16:00","1998","07","13","16:00","29.8","","15.8","","43","","26","","19","","24.1","","99.29","","34","","","","Clear"
"1998-07-13 17:00","1998","07","13","17:00","29.4","","15.7","","43","","18","","13","","24.1","","99.26","","34","","","","Mainly Clear"
"1998-07-13 18:00","1998","07","13","18:00","28.1","","17.6","","53","","17","","17","","24.1","","99.26","","34","","","","Mainly Clear"
"1998-07-13 19:00","1998","07","13","19:00","28.0","","16.2","","49","","21","","17","","24.1","","99.26","","33","","","","Clear"
"1998-07-13 20:00","1998","07","13","20:00","26.5","","14.3","","47","","22","","20","","24.1","","99.29","","30","","","","Clear"
"1998-07-13 21:00","1998","07","13","21:00","25.4","","13.6","","48","","23","","13","","24.1","","99.35","","29","","","","Clear"
"1998-07-13 22:00","1998","07","13","22:00","23.6","","15.7","","61","","25","","13","","24.1","","99.39","","28","","","","Clear"
"1998-07-13 23:00","1998","07","13","23:00","22.1","","16.1","","69","","26","","9","","24.1","","99.39","","27","","","","Mainly Clear"
"1998-07-14 00:00","1998","07","14","00:00","21.0","","15.8","","72","","25","","11","","24.1","","99.39","","25","","","","Mainly Clear"
"1998-07-14 01:00","1998","07","14","01:00","19.8","","15.4","","76","","26","","9","","24.1","","99.39","","","","","","Mainly Clear"
"1998-07-14 02:00","1998","07","14","02:00","19.6","","14.5","","72","","26","","7","","24.1","","99.42","","","","","","Mainly Clear"
"1998-07-14 03:00","1998","07","14","03:00","19.4","","13.6","","69","","26","","7","","19.3","","99.42","","","","","","Mainly Clear"
"1998-07-14 04:00","1998","07","14","04:00","18.9","","13.4","","70","","26","","7","","19.3","","99.42","","","","","","Mainly Clear"
"1998-07-14 05:00","1998","07","14","05:00","18.5","","13.7","","74","","25","","2","","19.3","","99.45","","","","","","Mostly Cloudy"
"1998-07-14 06:00","1998","07","14","06:00","19.7","","14.7","","73","","26","","4","","16.1","","99.49","","","","","","Cloudy"
"1998-07-14 07:00","1998","07","14","07:00","21.4","","15.5","","69","","26","","4","","16.1","","99.49","","26","","","","Mostly Cloudy"
"1998-07-14 08:00","1998","07","14","08:00","23.4","","16.4","","65","","24","","9","","16.1","","99.49","","28","","","","Mostly Cloudy"
"1998-07-14 09:00","1998","07","14","09:00","25.8","","17.0","","58","","24","","15","","16.1","","99.52","","31","","","","Mostly Cloudy"
"1998-07-14 10:00","1998","07","14","10:00","27.5","","16.9","","52","","24","","15","","19.3","","99.49","","33","","","","Mostly Cloudy"
"1998-07-14 11:00","1998","07","14","11:00","28.7","","17.7","","51","","25","","19","","19.3","","99.49","","34","","","","Mostly Cloudy"
"1998-07-14 12:00","1998","07","14","12:00","30.0","","17.7","","48","","22","","19","","19.3","","99.45","","36","","","","Mostly Cloudy"
"1998-07-14 13:00","1998","07","14","13:00","30.1","","16.3","","43","","22","","19","","19.3","","99.45","","35","","","","Mainly Clear"
"1998-07-14 14:00","1998","07","14","14:00","30.9","","15.8","","40","","24","","17","","19.3","","99.45","","35","","","","Mainly Clear"
"1998-07-14 15:00","1998","07","14","15:00","31.1","","16.4","","41","","25","","20","","19.3","","99.39","","36","","","","Mainly Clear"
"1998-07-14 16:00","1998","07","14","16:00","31.3","","17.5","","44","","22","","15","","19.3","","99.35","","37","","","","Clear"
"1998-07-14 17:00","1998","07","14","17:00","31.0","","17.4","","44","","24","","19","","19.3","","99.35","","37","","","","Clear"
"1998-07-14 18:00","1998","07","14","18:00","29.9","","17.8","","48","","22","","19","","19.3","","99.35","","36","","","","Clear"
"1998-07-14 19:00","1998","07","14","19:00","28.9","","17.7","","51","","22","","22","","19.3","","99.39","","35","","","","Clear"
"1998-07-14 20:00","1998","07","14","20:00","27.2","","17.2","","54","","20","","15","","16.1","","99.39","","33","","","","Mainly Clear"
"1998-07-14 21:00","1998","07","14","21:00","25.9","","16.9","","58","","22","","13","","9.7","","99.45","","31","","","","Haze"
"1998-07-14 22:00","1998","07","14","22:00","24.9","","17.5","","63","","21","","9","","12.9","","99.42","","31","","","","Mainly Clear"
"1998-07-14 23:00","1998","07","14","23:00","24.0","","17.4","","67","","21","","7","","16.1","","99.39","","30","","","","Clear"
"1998-07-15 00:00","1998","07","15","00:00","23.0","","17.3","","70","","21","","6","","19.3","","99.39","","28","","","","Mainly Clear"
"1998-07-15 01:00","1998","07","15","01:00","22.3","","17.0","","72","","27","","7","","19.3","","99.42","","28","","","","Mainly Clear"
"1998-07-15 02:00","1998","07","15","02:00","22.1","","15.9","","68","","27","","6","","16.1","","99.45","","27","","","","Mostly Cloudy"
"1998-07-15 03:00","1998","07","15","03:00","22.3","","15.5","","65","","22","","2","","16.1","","99.45","","27","","","","Mostly Cloudy"
"1998-07-15 04:00","1998","07","15","04:00","21.9","","16.3","","71","","20","","4","","16.1","","99.45","","27","","","","Mainly Clear"
"1998-07-15 05:00","1998","07","15","05:00","21.3","","16.7","","75","","23","","4","","9.7","","99.42","","26","","","","Haze"
"1998-07-15 06:00","1998","07","15","06:00","21.3","","17.1","","77","","27","","6","","6.4","","99.45","","27","","","","Haze"
"1998-07-15 07:00","1998","07","15","07:00","23.1","","18.3","","74","","23","","6","","6.4","","99.49","","29","","","","Haze"
"1998-07-15 08:00","1998","07","15","08:00","24.6","","19.4","","73","","27","","9","","9.7","","99.55","","32","","","","Haze"
"1998-07-15 09:00","1998","07","15","09:00","26.8","","19.9","","66","","19","","4","","11.3","","99.49","","34","","","","Mostly Cloudy"
"1998-07-15 10:00","1998","07","15","10:00","27.6","","21.2","","68","","25","","9","","12.9","","99.49","","36","","","","Mostly Cloudy"
"1998-07-15 11:00","1998","07","15","11:00","29.1","","21.2","","62","","25","","6","","12.9","","99.45","","38","","","","Mostly Cloudy"
"1998-07-15 12:00","1998","07","15","12:00","30.7","","21.4","","58","","34","","4","","12.9","","99.42","","39","","","","Mostly Cloudy"
"1998-07-15 13:00","1998","07","15","13:00","30.7","","22.0","","60","","16","","15","","12.9","","99.39","","40","","","","Mostly Cloudy"
"1998-07-15 14:00","1998","07","15","14:00","31.0","","21.7","","58","","25","","11","","19.3","","99.39","","40","","","","Mostly Cloudy"
"1998-07-15 15:00","1998","07","15","15:00","31.2","","21.1","","55","","26","","9","","19.3","","99.35","","40","","","","Mostly Cloudy"
"1998-07-15 16:00","1998","07","15","16:00","31.3","","20.9","","54","","18","","17","","19.3","","99.32","","40","","","","Mostly Cloudy"
"1998-07-15 17:00","1998","07","15","17:00","31.4","","20.7","","53","","16","","19","","24.1","","99.29","","40","","","","Mainly Clear"
"1998-07-15 18:00","1998","07","15","18:00","29.8","","20.8","","59","","17","","13","","19.3","","99.26","","38","","","","Mainly Clear"
"1998-07-15 19:00","1998","07","15","19:00","30.1","","20.9","","58","","26","","17","","19.3","","99.29","","38","","","","Mainly Clear"
"1998-07-15 20:00","1998","07","15","20:00","29.9","","19.9","","55","","24","","15","","16.1","","99.29","","37","","","","Mainly Clear"
"1998-07-15 21:00","1998","07","15","21:00","27.9","","20.2","","63","","25","","11","","11.3","","99.32","","36","","","","Clear"
"1998-07-15 22:00","1998","07","15","22:00","25.8","","21.0","","75","","27","","6","","9.7","","99.35","","34","","","","Haze"
"1998-07-15 23:00","1998","07","15","23:00","25.6","","21.3","","77","","26","","15","","8.0","","99.35","","34","","","","Haze"
"1998-07-16 00:00","1998","07","16","00:00","24.6","","20.7","","79","","25","","11","","8.0","","99.32","","33","","","","Haze"
"1998-07-16 01:00","1998","07","16","01:00","24.2","","20.5","","80","","26","","9","","8.0","","99.29","","32","","","","Haze"
"1998-07-16 02:00","1998","07","16","02:00","23.5","","20.1","","81","","27","","9","","9.7","","99.29","","31","","","","Haze"
"1998-07-16 03:00","1998","07","16","03:00","23.4","","19.9","","81","","31","","6","","8.0","","99.26","","31","","","","Haze"
"1998-07-16 04:00","1998","07","16","04:00","23.2","","19.7","","81","","18","","4","","9.7","","99.29","","31","","","","Haze"
"1998-07-16 05:00","1998","07","16","05:00","22.7","","19.7","","83","","20","","11","","6.4","","99.29","","30","","","","Haze"
"1998-07-16 06:00","1998","07","16","06:00","22.4","","19.9","","86","","23","","7","","4.8","","99.29","","30","","","","Haze"
"1998-07-16 07:00","1998","07","16","07:00","23.3","","20.4","","84","","23","","11","","4.8","","99.32","","31","","","","Haze"
"1998-07-16 08:00","1998","07","16","08:00","25.0","","20.7","","77","","23","","6","","8.0","","99.29","","33","","","","Haze"
"1998-07-16 09:00","1998","07","16","09:00","26.2","","21.3","","74","","25","","13","","9.7","","99.29","","35","","","","Haze"
"1998-07-16 10:00","1998","07","16","10:00","27.4","","21.0","","68","","22","","13","","11.3","","99.26","","36","","","","Mainly Clear"
"1998-07-16 11:00","1998","07","16","11:00","28.8","","21.6","","65","","23","","11","","12.9","","99.22","","38","","","","Mainly Clear"
"1998-07-16 12:00","1998","07","16","12:00","29.4","","20.0","","57","","26","","20","","12.9","","99.19","","37","","","","Mostly Cloudy"
"1998-07-16 13:00","1998","07","16","13:00","30.2","","20.8","","57","","26","","20","","12.9","","99.12","","38","","","","Mostly Cloudy"
"1998-07-16 14:00","1998","07","16","14:00","28.9","","21.1","","63","","23","","20","","11.3","","99.09","","37","","","","Mostly Cloudy"
"1998-07-16 15:00","1998","07","16","15:00","30.6","","19.7","","52","","26","","22","","12.9","","99.02","","38","","","","Mainly Clear"
"1998-07-16 16:00","1998","07","16","16:00","28.1","","19.9","","61","","23","","24","","12.9","","99.02","","36","","","","Mostly Cloudy"
"1998-07-16 17:00","1998","07","16","17:00","25.3","","21.8","","81","","","","0","","12.9","","99.06","","34","","","","Rain Showers"
"1998-07-16 18:00","1998","07","16","18:00","27.1","","22.4","","76","","25","","9","","9.7","","99.02","","37","","","","Haze"
"1998-07-16 19:00","1998","07","16","19:00","26.1","","21.3","","75","","6","","15","","12.9","","99.09","","35","","","","Mostly Cloudy"
"1998-07-16 20:00","1998","07","16","20:00","24.6","","20.8","","79","","8","","7","","12.9","","99.09","","33","","","","Mainly Clear"
"1998-07-16 21:00","1998","07","16","21:00","23.8","","20.8","","83","","","","0","","11.3","","99.12","","32","","","","Clear"
"1998-07-16 22:00","1998","07","16","22:00","22.8","","19.0","","79","","35","","13","","12.9","","99.12","","30","","","","Mainly Clear"
"1998-07-16 23:00","1998","07","16","23:00","21.3","","18.8","","86","","30","","7","","19.3","","99.16","","28","","","","Mainly Clear"
"1998-07-17 00:00","1998","07","17","00:00","21.5","","19.1","","86","","27","","7","","19.3","","99.09","","28","","","","Mainly Clear"
"1998-07-17 01:00","1998","07","17","01:00","20.5","","16.9","","80","","34","","15","","25.0","","99.06","","26","","","","Mostly Cloudy"
"1998-07-17 02:00","1998","07","17","02:00","19.3","","16.7","","85","","33","","11","","25.0","","99.06","","","","","","Mostly Cloudy"
"1998-07-17 03:00","1998","07","17","03:00","19.5","","17.4","","88","","33","","7","","19.3","","99.06","","","","","","Mostly Cloudy"
"1998-07-17 04:00","1998","07","17","04:00","19.4","","17.5","","89","","32","","7","","19.3","","99.02","","","","","","Mostly Cloudy"
"1998-07-17 05:00","1998","07","17","05:00","18.6","","17.2","","92","","30","","6","","16.1","","99.06","","","","","","Mostly Cloudy"
"1998-07-17 06:00","1998","07","17","06:00","19.2","","17.7","","91","","31","","11","","19.3","","99.06","","","","","","Mainly Clear"
"1998-07-17 07:00","1998","07","17","07:00","20.7","","18.2","","86","","35","","19","","24.1","","99.06","","27","","","","Mainly Clear"
"1998-07-17 08:00","1998","07","17","08:00","22.0","","18.3","","80","","34","","19","","32.2","","99.09","","28","","","","Mainly Clear"
"1998-07-17 09:00","1998","07","17","09:00","23.3","","18.6","","75","","35","","15","","32.2","","99.09","","30","","","","Mostly Cloudy"
"1998-07-17 10:00","1998","07","17","10:00","24.0","","18.2","","70","","35","","13","","32.2","","99.06","","30","","","","Mostly Cloudy"
"1998-07-17 11:00","1998","07","17","11:00","25.2","","18.4","","66","","35","","9","","32.2","","99.02","","32","","","","Mostly Cloudy"
"1998-07-17 12:00","1998","07","17","12:00","24.6","","15.4","","57","","1","","20","","32.2","","99.02","","29","","","","Cloudy"
"1998-07-17 13:00","1998","07","17","13:00","24.0","","16.2","","62","","35","","24","","32.2","","99.02","","29","","","","Mostly Cloudy"
"1998-07-17 14:00","1998","07","17","14:00","22.6","","16.6","","69","","34","","13","","24.1","","99.09","","28","","","","Mostly Cloudy"
"1998-07-17 15:00","1998","07","17","15:00","25.2","","16.9","","60","","2","","17","","32.2","","98.99","","30","","","","Mostly Cloudy"
"1998-07-17 16:00","1998","07","17","16:00","25.5","","17.0","","59","","33","","13","","32.2","","98.99","","31","","","","Mostly Cloudy"
"1998-07-17 17:00","1998","07","17","17:00","24.7","","16.4","","60","","33","","15","","32.2","","98.96","","30","","","","Mostly Cloudy"
"1998-07-17 18:00","1998","07","17","18:00","24.3","","16.1","","60","","36","","22","","32.2","","98.99","","29","","","","Mostly Cloudy"
"1998-07-17 19:00","1998","07","17","19:00","22.3","","15.4","","65","","35","","20","","32.2","","99.06","","27","","","","Mostly Cloudy"
"1998-07-17 20:00","1998","07","17","20:00","21.4","","14.6","","65","","36","","20","","32.2","","99.12","","25","","","","Mainly Clear"
"1998-07-17 21:00","1998","07","17","21:00","20.1","","13.7","","67","","34","","15","","32.2","","99.19","","","","","","Clear"
"1998-07-17 22:00","1998","07","17","22:00","18.3","","13.7","","75","","34","","13","","25.0","","99.19","","","","","","Clear"
"1998-07-17 23:00","1998","07","17","23:00","16.5","","13.0","","80","","33","","15","","25.0","","99.22","","","","","","Clear"
"1998-07-18 00:00","1998","07","18","00:00","16.7","","13.1","","79","","32","","15","","25.0","","99.22","","","","","","Clear"
"1998-07-18 01:00","1998","07","18","01:00","15.6","","12.6","","82","","35","","9","","25.0","","99.22","","","","","","Clear"
"1998-07-18 02:00","1998","07","18","02:00","13.9","","11.7","","87","","32","","9","","25.0","","99.26","","","","","","Clear"
"1998-07-18 03:00","1998","07","18","03:00","15.3","","11.7","","79","","29","","9","","25.0","","99.26","","","","","","Clear"
"1998-07-18 04:00","1998","07","18","04:00","14.3","","11.7","","84","","","","0","","25.0","","99.29","","","","","","Clear"
"1998-07-18 05:00","1998","07","18","05:00","13.9","","11.6","","86","","32","","4","","40.2","","99.29","","","","","","Mainly Clear"
"1998-07-18 06:00","1998","07","18","06:00","15.4","","13.3","","87","","32","","7","","40.2","","99.35","","","","","","Clear"
"1998-07-18 07:00","1998","07","18","07:00","18.6","","14.4","","77","","34","","7","","40.2","","99.39","","","","","","Mainly Clear"
"1998-07-18 08:00","1998","07","18","08:00","19.7","","15.3","","76","","32","","9","","40.2","","99.42","","","","","","Mostly Cloudy"
"1998-07-18 09:00","1998","07","18","09:00","22.6","","14.0","","58","","34","","13","","40.2","","99.39","","26","","","","Mostly Cloudy"
"1998-07-18 10:00","1998","07","18","10:00","23.8","","13.4","","52","","34","","13","","40.2","","99.42","","27","","","","Mostly Cloudy"
"1998-07-18 11:00","1998","07","18","11:00","25.0","","11.6","","43","","31","","17","","40.2","","99.45","","27","","","","Mostly Cloudy"
"1998-07-18 12:00","1998","07","18","12:00","25.4","","11.6","","42","","29","","15","","40.2","","99.42","","27","","","","Mostly Cloudy"
"1998-07-18 13:00","1998","07","18","13:00","26.6","","12.3","","41","","30","","7","","40.2","","99.39","","29","","","","Mainly Clear"
"1998-07-18 14:00","1998","07","18","14:00","27.6","","11.8","","37","","29","","15","","40.2","","99.35","","30","","","","Mainly Clear"
"1998-07-18 15:00","1998","07","18","15:00","28.3","","10.9","","34","","25","","20","","40.2","","99.32","","30","","","","Mainly Clear"
"1998-07-18 16:00","1998","07","18","16:00","26.4","","10.2","","36","","26","","20","","40.2","","99.32","","28","","","","Mainly Clear"
"1998-07-18 17:00","1998","07","18","17:00","27.5","","10.6","","35","","24","","22","","40.2","","99.32","","29","","","","Mainly Clear"
"1998-07-18 18:00","1998","07","18","18:00","26.1","","13.3","","45","","23","","11","","40.2","","99.32","","29","","","","Mainly Clear"
"1998-07-18 19:00","1998","07","18","19:00","25.4","","13.8","","49","","24","","13","","40.2","","99.35","","29","","","","Mainly Clear"
"1998-07-18 20:00","1998","07","18","20:00","23.9","","13.8","","53","","23","","17","","32.2","","99.42","","27","","","","Mainly Clear"
"1998-07-18 21:00","1998","07","18","21:00","21.9","","14.0","","61","","25","","9","","25.0","","99.45","","25","","","","Mainly Clear"
"1998-07-18 22:00","1998","07","18","22:00","20.5","","14.0","","66","","24","","9","","25.0","","99.45","","","","","","Clear"
"1998-07-18 23:00","1998","07","18","23:00","19.3","","13.8","","70","","26","","7","","25.0","","99.49","","","","","","Clear"
"1998-07-19 00:00","1998","07","19","00:00","18.3","","13.4","","73","","27","","7","","25.0","","99.45","","","","","","Clear"
"1998-07-19 01:00","1998","07","19","01:00","17.2","","12.7","","75","","","","0","","25.0","","99.42","","","","","","Clear"
"1998-07-19 02:00","1998","07","19","02:00","16.6","","12.0","","74","","","","0","","25.0","","99.39","","","","","","Clear"
"1998-07-19 03:00","1998","07","19","03:00","14.9","","11.6","","81","","","","0","","25.0","","99.35","","","","","","Clear"
"1998-07-19 04:00","1998","07","19","04:00","14.1","","11.3","","83","","","","0","","25.0","","99.42","","","","","","Clear"
"1998-07-19 05:00","1998","07","19","05:00","15.6","","12.3","","81","","15","","6","","32.2","","99.39","","","","","","Mainly Clear"
"1998-07-19 06:00","1998","07","19","06:00","17.1","","13.2","","78","","11","","7","","32.2","","99.39","","","","","","Mainly Clear"
"1998-07-19 07:00","1998","07","19","07:00","19.0","","14.0","","73","","","","0","","32.2","","99.45","","","","","","Mainly Clear"
"1998-07-19 08:00","1998","07","19","08:00","21.8","","14.8","","64","","17","","9","","32.2","","99.45","","26","","","","Mainly Clear"
"1998-07-19 09:00","1998","07","19","09:00","23.5","","15.9","","62","","17","","7","","32.2","","99.42","","28","","","","Mainly Clear"
"1998-07-19 10:00","1998","07","19","10:00","25.4","","14.7","","52","","18","","13","","32.2","","99.39","","29","","","","Mostly Cloudy"
"1998-07-19 11:00","1998","07","19","11:00","25.1","","13.1","","47","","17","","17","","40.2","","99.32","","28","","","","Cloudy"
"1998-07-19 12:00","1998","07","19","12:00","25.2","","15.6","","55","","15","","15","","32.2","","99.29","","30","","","","Cloudy"
"1998-07-19 13:00","1998","07","19","13:00","25.4","","16.8","","59","","15","","17","","24.1","","99.22","","31","","","","Cloudy"
"1998-07-19 14:00","1998","07","19","14:00","24.9","","18.2","","66","","15","","20","","24.1","","99.12","","31","","","","Cloudy"
"1998-07-19 15:00","1998","07","19","15:00","25.4","","19.6","","70","","17","","15","","16.1","","99.06","","33","","","","Rain"
"1998-07-19 16:00","1998","07","19","16:00","25.1","","19.8","","72","","16","","13","","12.9","","99.02","","33","","","","Rain Showers"
"1998-07-19 17:00","1998","07","19","17:00","25.0","","19.9","","73","","15","","7","","12.9","","98.99","","32","","","","Rain Showers"
"1998-07-19 18:00","1998","07","19","18:00","23.2","","19.6","","80","","18","","20","","9.7","","99.02","","30","","","","Rain Showers,Fog"
"1998-07-19 19:00","1998","07","19","19:00","22.3","","19.9","","86","","12","","9","","9.7","","98.96","","30","","","","Haze"
"1998-07-19 20:00","1998","07","19","20:00","21.6","","19.1","","86","","11","","11","","8.0","","98.86","","28","","","","Haze"
"1998-07-19 21:00","1998","07","19","21:00","21.0","","19.4","","91","","6","","4","","8.0","","98.92","","28","","","","Rain Showers,Fog"
"1998-07-19 22:00","1998","07","19","22:00","20.7","","19.0","","90","","18","","7","","8.0","","98.82","","27","","","","Fog"
"1998-07-19 23:00","1998","07","19","23:00","20.4","","18.4","","88","","16","","9","","8.0","","98.79","","27","","","","Fog"
"1998-07-20 00:00","1998","07","20","00:00","20.2","","18.6","","91","","16","","4","","8.0","","98.82","","27","","","","Fog"
"1998-07-20 01:00","1998","07","20","01:00","20.1","","18.6","","91","","27","","4","","6.4","","98.82","","27","","","","Fog"
"1998-07-20 02:00","1998","07","20","02:00","19.8","","19.0","","95","","26","","11","","4.8","","98.76","","","","","","Fog"
"1998-07-20 03:00","1998","07","20","03:00","19.8","","19.1","","96","","31","","4","","4.8","","98.76","","","","","","Fog"
"1998-07-20 04:00","1998","07","20","04:00","19.6","","18.4","","93","","30","","4","","6.4","","98.79","","","","","","Fog"
"1998-07-20 05:00","1998","07","20","05:00","18.6","","18.0","","96","","32","","6","","3.2","","98.86","","","","","","Fog"
"1998-07-20 06:00","1998","07","20","06:00","20.6","","19.0","","91","","30","","4","","16.1","","98.89","","27","","","","Mostly Cloudy"
"1998-07-20 07:00","1998","07","20","07:00","21.8","","18.9","","84","","32","","9","","19.3","","98.96","","28","","","","Mostly Cloudy"
"1998-07-20 08:00","1998","07","20","08:00","24.2","","18.1","","69","","32","","13","","32.2","","99.06","","30","","","","Mostly Cloudy"
"1998-07-20 09:00","1998","07","20","09:00","26.2","","15.2","","51","","33","","17","","40.2","","99.09","","30","","","","Clear"
"1998-07-20 10:00","1998","07","20","10:00","27.1","","15.6","","49","","35","","17","","40.2","","99.12","","31","","","","Clear"
"1998-07-20 11:00","1998","07","20","11:00","28.9","","16.6","","47","","31","","17","","40.2","","99.16","","34","","","","Clear"
"1998-07-20 12:00","1998","07","20","12:00","29.0","","15.3","","43","","32","","19","","32.2","","99.16","","33","","","","Mainly Clear"
"1998-07-20 13:00","1998","07","20","13:00","30.3","","15.5","","41","","27","","13","","40.2","","99.16","","35","","","","Mainly Clear"
"1998-07-20 14:00","1998","07","20","14:00","30.5","","15.5","","40","","26","","22","","40.2","","99.16","","35","","","","Mainly Clear"
"1998-07-20 15:00","1998","07","20","15:00","30.1","","15.2","","40","","25","","22","","40.2","","99.12","","34","","","","Mainly Clear"
"1998-07-20 16:00","1998","07","20","16:00","30.4","","15.9","","42","","32","","11","","40.2","","99.09","","35","","","","Mainly Clear"
"1998-07-20 17:00","1998","07","20","17:00","31.0","","14.5","","37","","29","","13","","40.2","","99.12","","35","","","","Mostly Cloudy"
"1998-07-20 18:00","1998","07","20","18:00","30.0","","14.4","","39","","28","","15","","40.2","","99.12","","34","","","","Mainly Clear"
"1998-07-20 19:00","1998","07","20","19:00","29.6","","13.8","","38","","27","","17","","40.2","","99.16","","33","","","","Mainly Clear"
"1998-07-20 20:00","1998","07","20","20:00","26.7","","13.8","","45","","28","","11","","32.2","","99.16","","30","","","","Mainly Clear"
"1998-07-20 21:00","1998","07","20","21:00","25.3","","13.9","","49","","27","","7","","25.0","","99.22","","29","","","","Mainly Clear"
"1998-07-20 22:00","1998","07","20","22:00","23.3","","14.2","","57","","29","","6","","25.0","","99.22","","27","","","","Mainly Clear"
"1998-07-20 23:00","1998","07","20","23:00","22.2","","14.4","","61","","29","","4","","25.0","","99.26","","26","","","","Mostly Cloudy"
"1998-07-21 00:00","1998","07","21","00:00","23.2","","13.8","","55","","","","0","","25.0","","99.22","","26","","","","Mostly Cloudy"
"1998-07-21 01:00","1998","07","21","01:00","23.2","","15.0","","60","","15","","7","","25.0","","99.12","","27","","","","Mostly Cloudy"
"1998-07-21 02:00","1998","07","21","02:00","21.9","","17.4","","76","","18","","4","","25.0","","99.12","","27","","","","Mostly Cloudy"
"1998-07-21 03:00","1998","07","21","03:00","20.8","","17.3","","80","","","","0","","24.1","","99.16","","26","","","","Mainly Clear"
"1998-07-21 04:00","1998","07","21","04:00","21.9","","18.1","","79","","26","","9","","19.3","","99.12","","28","","","","Cloudy"
"1998-07-21 05:00","1998","07","21","05:00","21.8","","18.0","","79","","27","","6","","19.3","","99.12","","28","","","","Cloudy"
"1998-07-21 06:00","1998","07","21","06:00","22.9","","18.0","","74","","22","","15","","24.1","","99.09","","29","","","","Rain Showers"
"1998-07-21 07:00","1998","07","21","07:00","24.2","","19.6","","76","","23","","17","","24.1","","99.02","","31","","","","Mostly Cloudy"
"1998-07-21 08:00","1998","07","21","08:00","26.9","","19.5","","64","","22","","28","","24.1","","99.02","","34","","","","Mostly Cloudy"
"1998-07-21 09:00","1998","07","21","09:00","27.5","","19.9","","63","","23","","22","","24.1","","99.06","","35","","","","Mostly Cloudy"
"1998-07-21 10:00","1998","07","21","10:00","27.6","","21.3","","69","","21","","26","","19.3","","99.02","","36","","","","Cloudy"
"1998-07-21 11:00","1998","07","21","11:00","28.7","","21.4","","65","","24","","26","","16.1","","99.02","","37","","","","Cloudy"
"1998-07-21 12:00","1998","07","21","12:00","28.7","","21.2","","64","","22","","28","","16.1","","98.92","","37","","","","Cloudy"
"1998-07-21 13:00","1998","07","21","13:00","27.8","","20.9","","66","","22","","22","","14.5","","98.89","","36","","","","Mostly Cloudy"
"1998-07-21 14:00","1998","07","21","14:00","27.2","","19.4","","62","","22","","22","","24.1","","98.99","","34","","","","Mostly Cloudy"
"1998-07-21 15:00","1998","07","21","15:00","29.7","","18.9","","52","","24","","20","","24.1","","98.82","","36","","","","Mainly Clear"
"1998-07-21 16:00","1998","07","21","16:00","32.1","","19.8","","48","","23","","19","","24.1","","98.79","","40","","","","Clear"
"1998-07-21 17:00","1998","07","21","17:00","31.5","","17.7","","44","","25","","35","","24.1","","98.76","","37","","","","Mainly Clear"
"1998-07-21 18:00","1998","07","21","18:00","29.4","","20.2","","58","","23","","26","","24.1","","98.79","","37","","","","Clear"
"1998-07-21 19:00","1998","07","21","19:00","29.0","","21.6","","64","","22","","22","","19.3","","98.76","","38","","","","Mainly Clear"
"1998-07-21 20:00","1998","07","21","20:00","28.0","","20.8","","65","","22","","17","","16.1","","98.72","","36","","","","Cloudy"
"1998-07-21 21:00","1998","07","21","21:00","27.8","","21.6","","69","","21","","15","","16.1","","98.62","","37","","","","Cloudy"
"1998-07-21 22:00","1998","07","21","22:00","27.6","","22.1","","72","","25","","17","","16.1","","98.72","","37","","","","Mostly Cloudy"
"1998-07-21 23:00","1998","07","21","23:00","26.9","","22.0","","75","","26","","22","","16.1","","98.82","","36","","","","Cloudy"
"1998-07-22 00:00","1998","07","22","00:00","27.0","","21.4","","71","","26","","24","","19.3","","98.92","","36","","","","Cloudy"
"1998-07-22 01:00","1998","07","22","01:00","25.8","","19.1","","67","","26","","20","","24.1","","98.99","","33","","","","Cloudy"
"1998-07-22 02:00","1998","07","22","02:00","25.1","","19.0","","69","","27","","20","","24.1","","98.99","","32","","","","Mostly Cloudy"
"1998-07-22 03:00","1998","07","22","03:00","23.7","","19.4","","77","","26","","13","","24.1","","98.99","","31","","","","Mostly Cloudy"
"1998-07-22 04:00","1998","07","22","04:00","23.6","","13.6","","53","","32","","20","","24.1","","98.99","","27","","","","Mostly Cloudy"
"1998-07-22 05:00","1998","07","22","05:00","22.2","","13.8","","59","","28","","13","","24.1","","99.09","","25","","","","Mostly Cloudy"
"1998-07-22 06:00","1998","07","22","06:00","21.4","","15.0","","67","","27","","11","","32.2","","99.12","","25","","","","Mostly Cloudy"
"1998-07-22 07:00","1998","07","22","07:00","22.7","","14.6","","60","","29","","15","","40.2","","99.19","","26","","","","Mostly Cloudy"
"1998-07-22 08:00","1998","07","22","08:00","23.2","","14.3","","57","","29","","9","","40.2","","99.26","","27","","","","Mostly Cloudy"
"1998-07-22 09:00","1998","07","22","09:00","24.7","","14.0","","51","","29","","9","","40.2","","99.29","","28","","","","Mostly Cloudy"
"1998-07-22 10:00","1998","07","22","10:00","25.8","","14.1","","48","","32","","17","","40.2","","99.32","","29","","","","Mostly Cloudy"
"1998-07-22 11:00","1998","07","22","11:00","26.3","","14.9","","50","","34","","9","","40.2","","99.29","","30","","","","Mostly Cloudy"
"1998-07-22 12:00","1998","07","22","12:00","26.8","","15.1","","49","","31","","19","","40.2","","99.26","","31","","","","Mostly Cloudy"
"1998-07-22 13:00","1998","07","22","13:00","27.9","","15.2","","46","","35","","11","","40.2","","99.19","","32","","","","Mostly Cloudy"
"1998-07-22 14:00","1998","07","22","14:00","28.0","","16.3","","49","","29","","6","","40.2","","99.09","","33","","","","Mostly Cloudy"
"1998-07-22 15:00","1998","07","22","15:00","28.2","","16.0","","48","","29","","15","","40.2","","99.09","","33","","","","Mostly Cloudy"
"1998-07-22 16:00","1998","07","22","16:00","29.2","","16.2","","45","","25","","15","","40.2","","99.09","","34","","","","Mostly Cloudy"
"1998-07-22 17:00","1998","07","22","17:00","28.2","","15.0","","45","","27","","15","","40.2","","99.09","","32","","","","Mostly Cloudy"
"1998-07-22 18:00","1998","07","22","18:00","27.7","","15.0","","46","","28","","9","","40.2","","99.06","","32","","","","Mostly Cloudy"
"1998-07-22 19:00","1998","07","22","19:00","27.2","","14.5","","46","","29","","9","","40.2","","99.02","","31","","","","Mostly Cloudy"
"1998-07-22 20:00","1998","07","22","20:00","25.8","","15.1","","52","","2","","11","","25.0","","99.06","","30","","","","Mostly Cloudy"
"1998-07-22 21:00","1998","07","22","21:00","25.2","","14.6","","52","","5","","7","","25.0","","99.06","","29","","","","Mostly Cloudy"
"1998-07-22 22:00","1998","07","22","22:00","24.4","","14.8","","55","","","","0","","25.0","","99.02","","28","","","","Mostly Cloudy"
"1998-07-22 23:00","1998","07","22","23:00","23.6","","19.0","","75","","26","","13","","25.0","","99.02","","30","","","","Cloudy"
"1998-07-23 00:00","1998","07","23","00:00","22.4","","18.3","","78","","27","","6","","25.0","","98.99","","29","","","","Mostly Cloudy"
"1998-07-23 01:00","1998","07","23","01:00","22.1","","18.1","","78","","24","","6","","25.0","","98.92","","28","","","","Mostly Cloudy"
"1998-07-23 02:00","1998","07","23","02:00","20.7","","18.3","","86","","","","0","","25.0","","98.89","","27","","","","Mostly Cloudy"
"1998-07-23 03:00","1998","07","23","03:00","20.2","","18.1","","88","","28","","4","","25.0","","98.82","","26","","","","Mainly Clear"
"1998-07-23 04:00","1998","07","23","04:00","19.7","","17.4","","87","","25","","4","","25.0","","98.79","","","","","","Mainly Clear"
"1998-07-23 05:00","1998","07","23","05:00","19.9","","17.4","","86","","21","","4","","19.3","","98.79","","","","","","Mostly Cloudy"
"1998-07-23 06:00","1998","07","23","06:00","20.1","","18.9","","93","","24","","7","","12.9","","98.79","","27","","","","Mainly Clear"
"1998-07-23 07:00","1998","07","23","07:00","21.1","","19.2","","89","","24","","9","","9.7","","98.79","","28","","","","Fog"
"1998-07-23 08:00","1998","07","23","08:00","23.0","","19.6","","81","","25","","4","","16.1","","98.79","","30","","","","Mostly Cloudy"
"1998-07-23 09:00","1998","07","23","09:00","24.1","","19.8","","77","","25","","13","","12.9","","98.79","","32","","","","Mostly Cloudy"
"1998-07-23 10:00","1998","07","23","10:00","26.2","","18.7","","63","","24","","20","","24.1","","98.76","","33","","","","Mainly Clear"
"1998-07-23 11:00","1998","07","23","11:00","28.2","","16.8","","50","","24","","22","","24.1","","98.69","","33","","","","Mostly Cloudy"
"1998-07-23 12:00","1998","07","23","12:00","28.4","","14.2","","42","","26","","33","","32.2","","98.66","","32","","","","Mainly Clear"
"1998-07-23 13:00","1998","07","23","13:00","28.7","","14.3","","41","","29","","41","","40.2","","98.66","","32","","","","Mainly Clear"
"1998-07-23 14:00","1998","07","23","14:00","28.2","","12.7","","38","","28","","28","","32.2","","98.69","","31","","","","Mainly Clear"
"1998-07-23 15:00","1998","07","23","15:00","27.5","","10.6","","35","","27","","37","","32.2","","98.72","","29","","","","Mainly Clear"
"1998-07-23 16:00","1998","07","23","16:00","27.2","","9.8","","34","","29","","28","","32.2","","98.76","","28","","","","Mainly Clear"
"1998-07-23 17:00","1998","07","23","17:00","27.1","","10.1","","34","","27","","28","","32.2","","98.79","","28","","","","Mainly Clear"
"1998-07-23 18:00","1998","07","23","18:00","24.9","","10.9","","41","","30","","30","","32.2","","98.79","","27","","","","Mostly Cloudy"
"1998-07-23 19:00","1998","07","23","19:00","23.9","","11.9","","47","","30","","24","","40.2","","98.86","","26","","","","Mainly Clear"
"1998-07-23 20:00","1998","07","23","20:00","22.3","","11.7","","51","","32","","24","","40.2","","98.96","","","","","","Mainly Clear"
"1998-07-23 21:00","1998","07","23","21:00","19.8","","10.5","","55","","33","","28","","25.0","","99.09","","","","","","Clear"
"1998-07-23 22:00","1998","07","23","22:00","17.5","","9.3","","59","","32","","13","","25.0","","99.16","","","","","","Clear"
"1998-07-23 23:00","1998","07","23","23:00","16.5","","8.9","","61","","32","","11","","25.0","","99.19","","","","","","Clear"
"1998-07-24 00:00","1998","07","24","00:00","16.5","","9.0","","61","","30","","11","","25.0","","99.26","","","","","","Clear"
"1998-07-24 01:00","1998","07","24","01:00","14.8","","9.2","","69","","31","","11","","25.0","","99.29","","","","","","Clear"
"1998-07-24 02:00","1998","07","24","02:00","14.9","","9.3","","69","","29","","7","","25.0","","99.29","","","","","","Mainly Clear"
"1998-07-24 03:00","1998","07","24","03:00","15.9","","9.7","","67","","29","","15","","25.0","","99.29","","","","","","Mainly Clear"
"1998-07-24 04:00","1998","07","24","04:00","14.4","","9.9","","74","","29","","13","","25.0","","99.32","","","","","","Clear"
"1998-07-24 05:00","1998","07","24","05:00","13.7","","10.0","","78","","28","","9","","32.2","","99.35","","","","","","Mainly Clear"
"1998-07-24 06:00","1998","07","24","06:00","15.3","","10.5","","73","","27","","13","","40.2","","99.39","","","","","","Mainly Clear"
"1998-07-24 07:00","1998","07","24","07:00","17.0","","10.4","","65","","28","","15","","40.2","","99.45","","","","","","Mainly Clear"
"1998-07-24 08:00","1998","07","24","08:00","19.5","","11.4","","59","","30","","19","","40.2","","99.45","","","","","","Mainly Clear"
"1998-07-24 09:00","1998","07","24","09:00","21.2","","11.7","","55","","32","","24","","40.2","","99.49","","","","","","Mostly Cloudy"
"1998-07-24 10:00","1998","07","24","10:00","19.5","","11.2","","59","","32","","19","","40.2","","99.55","","","","","","Mostly Cloudy"
"1998-07-24 11:00","1998","07","24","11:00","21.1","","10.4","","50","","30","","22","","40.2","","99.55","","","","","","Mostly Cloudy"
"1998-07-24 12:00","1998","07","24","12:00","22.1","","10.5","","48","","32","","19","","40.2","","99.59","","","","","","Mostly Cloudy"
"1998-07-24 13:00","1998","07","24","13:00","21.9","","9.4","","45","","29","","20","","40.2","","99.55","","","","","","Mostly Cloudy"
"1998-07-24 14:00","1998","07","24","14:00","22.3","","10.3","","47","","30","","22","","40.2","","99.59","","","","","","Mostly Cloudy"
"1998-07-24 15:00","1998","07","24","15:00","22.6","","10.5","","46","","31","","26","","40.2","","99.62","","","","","","Mostly Cloudy"
"1998-07-24 16:00","1998","07","24","16:00","22.5","","10.3","","46","","31","","22","","40.2","","99.62","","","","","","Mostly Cloudy"
"1998-07-24 17:00","1998","07","24","17:00","22.8","","7.5","","37","","32","","28","","40.2","","99.62","","","","","","Mainly Clear"
"1998-07-24 18:00","1998","07","24","18:00","22.1","","8.1","","41","","30","","19","","40.2","","99.62","","","","","","Mainly Clear"
"1998-07-24 19:00","1998","07","24","19:00","21.2","","6.8","","39","","32","","17","","40.2","","99.65","","","","","","Mainly Clear"
"1998-07-24 20:00","1998","07","24","20:00","18.5","","8.8","","53","","33","","17","","40.2","","99.72","","","","","","Mainly Clear"
"1998-07-24 21:00","1998","07","24","21:00","17.1","","7.5","","53","","31","","11","","25.0","","99.79","","","","","","Clear"
"1998-07-24 22:00","1998","07","24","22:00","16.2","","9.4","","64","","34","","11","","25.0","","99.82","","","","","","Clear"
"1998-07-24 23:00","1998","07","24","23:00","14.7","","9.6","","71","","34","","9","","25.0","","99.89","","","","","","Clear"
"1998-07-25 00:00","1998","07","25","00:00","14.7","","9.4","","71","","","","0","","25.0","","99.92","","","","","","Clear"
"1998-07-25 01:00","1998","07","25","01:00","13.7","","8.9","","73","","30","","6","","25.0","","99.92","","","","","","Clear"
"1998-07-25 02:00","1998","07","25","02:00","11.7","","8.5","","81","","32","","6","","25.0","","99.95","","","","","","Clear"
"1998-07-25 03:00","1998","07","25","03:00","12.5","","8.5","","77","","34","","4","","25.0","","99.99","","","","","","Clear"
"1998-07-25 04:00","1998","07","25","04:00","10.8","","8.3","","85","","34","","4","","25.0","","100.02","","","","","","Mostly Cloudy"
"1998-07-25 05:00","1998","07","25","05:00","12.7","","9.4","","80","","36","","4","","40.2","","100.02","","","","","","Mostly Cloudy"
"1998-07-25 06:00","1998","07","25","06:00","13.2","","9.9","","80","","32","","2","","40.2","","100.09","","","","","","Mostly Cloudy"
"1998-07-25 07:00","1998","07","25","07:00","15.2","","10.4","","73","","","","0","","40.2","","100.09","","","","","","Mostly Cloudy"
"1998-07-25 08:00","1998","07","25","08:00","18.0","","11.2","","64","","35","","7","","40.2","","100.15","","","","","","Mostly Cloudy"
"1998-07-25 09:00","1998","07","25","09:00","19.5","","10.4","","56","","21","","2","","40.2","","100.15","","","","","","Mostly Cloudy"
"1998-07-25 10:00","1998","07","25","10:00","20.3","","9.6","","50","","","","0","","40.2","","100.12","","","","","","Mostly Cloudy"
"1998-07-25 11:00","1998","07","25","11:00","21.9","","9.7","","46","","","","0","","40.2","","100.09","","","","","","Mostly Cloudy"
"1998-07-25 12:00","1998","07","25","12:00","22.2","","10.2","","46","","15","","15","","40.2","","100.02","","","","","","Mostly Cloudy"
"1998-07-25 13:00","1998","07","25","13:00","20.8","","10.0","","50","","17","","15","","40.2","","100.02","","","","","","Mostly Cloudy"
"1998-07-25 14:00","1998","07","25","14:00","21.1","","10.0","","49","","16","","11","","40.2","","100.02","","","","","","Mostly Cloudy"
"1998-07-25 15:00","1998","07","25","15:00","22.0","","10.2","","47","","15","","15","","40.2","","100.02","","","","","","Mostly Cloudy"
"1998-07-25 16:00","1998","07","25","16:00","21.3","","8.6","","44","","17","","9","","40.2","","100.02","","","","","","Mostly Cloudy"
"1998-07-25 17:00","1998","07","25","17:00","21.6","","8.2","","42","","16","","9","","40.2","","99.99","","","","","","Mostly Cloudy"
"1998-07-25 18:00","1998","07","25","18:00","21.4","","7.6","","41","","15","","6","","40.2","","99.99","","","","","","Mostly Cloudy"
"1998-07-25 19:00","1998","07","25","19:00","21.2","","9.0","","46","","23","","6","","40.2","","99.99","","","","","","Mostly Cloudy"
"1998-07-25 20:00","1998","07","25","20:00","19.8","","8.0","","46","","","","0","","32.2","","99.99","","","","","","Mostly Cloudy"
"1998-07-25 21:00","1998","07","25","21:00","19.6","","8.2","","48","","21","","4","","25.0","","100.02","","","","","","Mostly Cloudy"
"1998-07-25 22:00","1998","07","25","22:00","18.3","","9.1","","55","","","","0","","25.0","","100.05","","","","","","Mostly Cloudy"
"1998-07-25 23:00","1998","07","25","23:00","16.5","","11.6","","73","","34","","9","","25.0","","100.02","","","","","","Clear"
"1998-07-26 00:00","1998","07","26","00:00","16.3","","12.8","","80","","35","","11","","25.0","","100.02","","","","","","Clear"
"1998-07-26 01:00","1998","07","26","01:00","14.9","","12.7","","87","","34","","11","","25.0","","100.05","","","","","","Clear"
"1998-07-26 02:00","1998","07","26","02:00","14.6","","12.6","","88","","34","","11","","25.0","","100.05","","","","","","Clear"
"1998-07-26 03:00","1998","07","26","03:00","14.1","","12.3","","89","","34","","9","","25.0","","100.09","","","","","","Clear"
"1998-07-26 04:00","1998","07","26","04:00","13.5","","11.9","","90","","35","","7","","25.0","","100.09","","","","","","Mainly Clear"
"1998-07-26 05:00","1998","07","26","05:00","12.8","","11.4","","91","","35","","6","","40.2","","100.12","","","","","","Clear"
"1998-07-26 06:00","1998","07","26","06:00","13.5","","11.6","","88","","34","","4","","40.2","","100.15","","","","","","Clear"
"1998-07-26 07:00","1998","07","26","07:00","15.7","","12.5","","81","","33","","7","","40.2","","100.12","","","","","","Clear"
"1998-07-26 08:00","1998","07","26","08:00","18.3","","13.7","","75","","35","","7","","40.2","","100.12","","","","","","Clear"
"1998-07-26 09:00","1998","07","26","09:00","19.9","","14.0","","69","","32","","7","","40.2","","100.09","","","","","","Mainly Clear"
"1998-07-26 10:00","1998","07","26","10:00","21.2","","13.2","","60","","33","","9","","40.2","","100.02","","","","","","Mainly Clear"
"1998-07-26 11:00","1998","07","26","11:00","23.1","","13.4","","54","","33","","9","","40.2","","99.99","","26","","","","Mainly Clear"
"1998-07-26 12:00","1998","07","26","12:00","23.5","","11.1","","46","","30","","6","","32.2","","99.99","","25","","","","Mainly Clear"
"1998-07-26 13:00","1998","07","26","13:00","24.5","","10.3","","41","","3","","6","","32.2","","99.92","","26","","","","Mainly Clear"
"1998-07-26 14:00","1998","07","26","14:00","24.6","","12.4","","47","","16","","13","","32.2","","99.89","","27","","","","Mostly Cloudy"
"1998-07-26 15:00","1998","07","26","15:00","23.6","","12.4","","49","","14","","13","","32.2","","99.85","","26","","","","Mostly Cloudy"
"1998-07-26 16:00","1998","07","26","16:00","23.6","","12.1","","48","","14","","17","","32.2","","99.79","","26","","","","Mostly Cloudy"
"1998-07-26 17:00","1998","07","26","17:00","23.2","","11.8","","49","","14","","15","","32.2","","99.72","","25","","","","Mostly Cloudy"
"1998-07-26 18:00","1998","07","26","18:00","23.2","","11.8","","49","","14","","13","","32.2","","99.69","","25","","","","Mostly Cloudy"
"1998-07-26 19:00","1998","07","26","19:00","22.3","","12.2","","53","","15","","13","","32.2","","99.65","","25","","","","Mostly Cloudy"
"1998-07-26 20:00","1998","07","26","20:00","21.2","","13.4","","61","","17","","9","","32.2","","99.65","","","","","","Mainly Clear"
"1998-07-26 21:00","1998","07","26","21:00","21.1","","13.0","","60","","22","","15","","25.0","","99.69","","","","","","Mainly Clear"
"1998-07-26 22:00","1998","07","26","22:00","20.0","","13.3","","65","","22","","9","","25.0","","99.62","","","","","","Mainly Clear"
"1998-07-26 23:00","1998","07","26","23:00","18.3","","12.9","","71","","25","","11","","25.0","","99.62","","","","","","Clear"
"1998-07-27 00:00","1998","07","27","00:00","17.7","","12.6","","72","","26","","11","","25.0","","99.59","","","","","","Mainly Clear"
"1998-07-27 01:00","1998","07","27","01:00","16.7","","12.4","","76","","26","","9","","25.0","","99.55","","","","","","Clear"
"1998-07-27 02:00","1998","07","27","02:00","17.4","","12.6","","73","","25","","9","","25.0","","99.52","","","","","","Mainly Clear"
"1998-07-27 03:00","1998","07","27","03:00","16.6","","12.6","","77","","24","","4","","25.0","","99.49","","","","","","Mainly Clear"
"1998-07-27 04:00","1998","07","27","04:00","17.7","","12.8","","73","","23","","9","","25.0","","99.45","","","","","","Mainly Clear"
"1998-07-27 05:00","1998","07","27","05:00","18.8","","12.8","","68","","22","","15","","40.2","","99.42","","","","","","Clear"
"1998-07-27 06:00","1998","07","27","06:00","18.6","","13.6","","73","","20","","20","","32.2","","99.39","","","","","","Mainly Clear"
"1998-07-27 07:00","1998","07","27","07:00","20.1","","14.2","","69","","22","","22","","32.2","","99.32","","","","","","Mainly Clear"
"1998-07-27 08:00","1998","07","27","08:00","22.6","","15.8","","65","","24","","24","","32.2","","99.26","","27","","","","Mainly Clear"
"1998-07-27 09:00","1998","07","27","09:00","24.1","","14.7","","56","","23","","22","","32.2","","99.19","","28","","","","Mainly Clear"
"1998-07-27 10:00","1998","07","27","10:00","25.5","","13.6","","48","","24","","30","","24.1","","99.12","","29","","","","Mainly Clear"
"1998-07-27 11:00","1998","07","27","11:00","27.6","","12.9","","40","","23","","33","","24.1","","99.09","","30","","","","Mostly Cloudy"
"1998-07-27 12:00","1998","07","27","12:00","27.0","","12.1","","40","","23","","39","","24.1","","99.02","","29","","","","Mostly Cloudy"
"1998-07-27 13:00","1998","07","27","13:00","26.5","","12.6","","42","","24","","30","","24.1","","98.99","","29","","","","Cloudy"
"1998-07-27 14:00","1998","07","27","14:00","27.0","","13.3","","43","","23","","33","","24.1","","98.96","","30","","","","Mostly Cloudy"
"1998-07-27 15:00","1998","07","27","15:00","26.8","","14.0","","45","","23","","26","","24.1","","98.92","","30","","","","Cloudy"
"1998-07-27 16:00","1998","07","27","16:00","25.4","","15.6","","55","","24","","26","","24.1","","98.92","","30","","","","Cloudy"
"1998-07-27 17:00","1998","07","27","17:00","26.0","","15.6","","53","","24","","22","","24.1","","98.89","","30","","","","Cloudy"
"1998-07-27 18:00","1998","07","27","18:00","25.8","","16.6","","57","","24","","26","","24.1","","98.86","","31","","","","Mostly Cloudy"
"1998-07-27 19:00","1998","07","27","19:00","25.1","","16.8","","60","","23","","24","","24.1","","98.82","","30","","","","Mainly Clear"
"1998-07-27 20:00","1998","07","27","20:00","23.8","","16.7","","64","","22","","24","","24.1","","98.82","","29","","","","Mainly Clear"
"1998-07-27 21:00","1998","07","27","21:00","23.6","","16.2","","63","","23","","24","","19.3","","98.86","","28","","","","Mainly Clear"
"1998-07-27 22:00","1998","07","27","22:00","23.3","","16.4","","65","","33","","33","","19.3","","98.96","","28","","","","Heavy Rain Showers"
"1998-07-27 23:00","1998","07","27","23:00","19.3","","18.1","","93","","25","","4","","19.3","","98.99","","","","","","Mostly Cloudy"
"1998-07-28 00:00","1998","07","28","00:00","19.9","","18.7","","93","","25","","4","","24.1","","99.02","","","","","","Mostly Cloudy"
"1998-07-28 01:00","1998","07","28","01:00","19.8","","18.5","","92","","26","","4","","24.1","","99.06","","","","","","Mostly Cloudy"
"1998-07-28 02:00","1998","07","28","02:00","18.3","","17.5","","95","","29","","6","","16.1","","99.09","","","","","","Mainly Clear"
"1998-07-28 03:00","1998","07","28","03:00","17.8","","16.8","","94","","30","","6","","16.1","","99.09","","","","","","Clear"
"1998-07-28 04:00","1998","07","28","04:00","17.2","","15.6","","90","","26","","6","","19.3","","99.09","","","","","","Clear"
"1998-07-28 05:00","1998","07","28","05:00","15.9","","15.0","","94","","29","","2","","19.3","","99.12","","","","","","Clear"
"1998-07-28 06:00","1998","07","28","06:00","16.6","","15.2","","91","","27","","4","","24.1","","99.09","","","","","","Clear"
"1998-07-28 07:00","1998","07","28","07:00","19.5","","16.3","","82","","25","","4","","24.1","","99.12","","","","","","Clear"
"1998-07-28 08:00","1998","07","28","08:00","22.6","","15.0","","62","","21","","7","","32.2","","99.12","","27","","","","Clear"
"1998-07-28 09:00","1998","07","28","09:00","23.7","","15.3","","59","","20","","13","","32.2","","99.09","","28","","","","Clear"
"1998-07-28 10:00","1998","07","28","10:00","25.5","","15.1","","53","","25","","19","","32.2","","99.09","","30","","","","Mainly Clear"
"1998-07-28 11:00","1998","07","28","11:00","26.8","","13.7","","44","","21","","15","","32.2","","99.02","","30","","","","Mostly Cloudy"
"1998-07-28 12:00","1998","07","28","12:00","27.5","","13.7","","43","","21","","22","","32.2","","98.96","","31","","","","Mostly Cloudy"
"1998-07-28 13:00","1998","07","28","13:00","29.1","","12.3","","35","","25","","22","","32.2","","98.89","","32","","","","Mostly Cloudy"
"1998-07-28 14:00","1998","07","28","14:00","29.2","","12.3","","35","","25","","24","","40.2","","98.79","","32","","","","Mostly Cloudy"
"1998-07-28 15:00","1998","07","28","15:00","30.0","","13.4","","36","","26","","30","","40.2","","98.76","","33","","","","Mostly Cloudy"
"1998-07-28 16:00","1998","07","28","16:00","30.1","","12.8","","35","","24","","32","","32.2","","98.69","","33","","","","Mainly Clear"
"1998-07-28 17:00","1998","07","28","17:00","28.8","","15.4","","44","","24","","26","","24.1","","98.69","","33","","","","Mainly Clear"
"1998-07-28 18:00","1998","07","28","18:00","27.9","","16.1","","49","","22","","28","","24.1","","98.59","","33","","","","Clear"
"1998-07-28 19:00","1998","07","28","19:00","26.9","","18.0","","58","","22","","30","","19.3","","98.56","","33","","","","Mainly Clear"
"1998-07-28 20:00","1998","07","28","20:00","26.0","","18.6","","64","","22","","22","","19.3","","98.49","","32","","","","Mainly Clear"
"1998-07-28 21:00","1998","07","28","21:00","25.4","","19.0","","68","","23","","24","","16.1","","98.49","","32","","","","Mainly Clear"
"1998-07-28 22:00","1998","07","28","22:00","24.9","","19.1","","70","","23","","22","","24.1","","98.42","","32","","","","Clear"
"1998-07-28 23:00","1998","07","28","23:00","24.4","","19.1","","72","","24","","22","","24.1","","98.46","","31","","","","Mostly Cloudy"
"1998-07-29 00:00","1998","07","29","00:00","23.0","","15.8","","64","","32","","33","","24.1","","98.59","","27","","","","Rain Showers"
"1998-07-29 01:00","1998","07","29","01:00","21.8","","15.5","","67","","30","","24","","24.1","","98.62","","26","","","","Mainly Clear"
"1998-07-29 02:00","1998","07","29","02:00","21.2","","15.1","","68","","29","","11","","19.3","","98.62","","25","","","","Mostly Cloudy"
"1998-07-29 03:00","1998","07","29","03:00","20.3","","15.1","","72","","26","","15","","19.3","","98.69","","","","","","Mainly Clear"
"1998-07-29 04:00","1998","07","29","04:00","19.1","","15.3","","79","","28","","15","","19.3","","98.72","","","","","","Clear"
"1998-07-29 05:00","1998","07","29","05:00","18.4","","15.5","","83","","28","","13","","24.1","","98.79","","","","","","Mainly Clear"
"1998-07-29 06:00","1998","07","29","06:00","18.3","","15.3","","83","","27","","13","","24.1","","98.86","","","","","","Clear"
"1998-07-29 07:00","1998","07","29","07:00","19.4","","15.3","","77","","29","","15","","32.2","","98.89","","","","","","Clear"
"1998-07-29 08:00","1998","07","29","08:00","21.2","","14.3","","65","","31","","22","","32.2","","98.89","","25","","","","Clear"
"1998-07-29 09:00","1998","07","29","09:00","22.5","","13.8","","58","","30","","26","","32.2","","98.92","","26","","","","Clear"
"1998-07-29 10:00","1998","07","29","10:00","23.6","","13.2","","52","","30","","26","","32.2","","98.96","","27","","","","Clear"
"1998-07-29 11:00","1998","07","29","11:00","24.4","","13.4","","50","","29","","24","","32.2","","98.99","","27","","","","Mainly Clear"
"1998-07-29 12:00","1998","07","29","12:00","24.7","","12.3","","46","","29","","22","","32.2","","98.99","","27","","","","Mainly Clear"
"1998-07-29 13:00","1998","07","29","13:00","26.5","","12.0","","40","","30","","22","","32.2","","99.02","","29","","","","Mainly Clear"
"1998-07-29 14:00","1998","07","29","14:00","25.9","","11.4","","40","","29","","24","","32.2","","99.02","","28","","","","Mostly Cloudy"
"1998-07-29 15:00","1998","07","29","15:00","25.8","","11.8","","42","","28","","22","","32.2","","99.02","","28","","","","Mainly Clear"
"1998-07-29 16:00","1998","07","29","16:00","26.4","","11.4","","39","","30","","28","","32.2","","99.06","","28","","","","Mainly Clear"
"1998-07-29 17:00","1998","07","29","17:00","25.4","","11.0","","40","","30","","26","","32.2","","99.09","","27","","","","Mainly Clear"
"1998-07-29 18:00","1998","07","29","18:00","24.5","","11.4","","44","","30","","22","","32.2","","99.12","","26","","","","Mainly Clear"
"1998-07-29 19:00","1998","07","29","19:00","23.6","","10.8","","44","","30","","20","","32.2","","99.19","","25","","","","Mostly Cloudy"
"1998-07-29 20:00","1998","07","29","20:00","21.2","","10.6","","51","","27","","7","","25.0","","99.26","","","","","","Mainly Clear"
"1998-07-29 21:00","1998","07","29","21:00","19.9","","10.9","","56","","26","","7","","25.0","","99.32","","","","","","Mostly Cloudy"
"1998-07-29 22:00","1998","07","29","22:00","19.9","","11.0","","56","","26","","7","","25.0","","99.32","","","","","","Mainly Clear"
"1998-07-29 23:00","1998","07","29","23:00","18.8","","11.6","","63","","30","","6","","25.0","","99.32","","","","","","Mainly Clear"
"1998-07-30 00:00","1998","07","30","00:00","18.3","","11.3","","64","","27","","4","","25.0","","99.32","","","","","","Mainly Clear"
"1998-07-30 01:00","1998","07","30","01:00","18.1","","11.8","","67","","25","","6","","25.0","","99.32","","","","","","Mostly Cloudy"
"1998-07-30 02:00","1998","07","30","02:00","17.6","","11.8","","69","","25","","6","","25.0","","99.35","","","","","","Mostly Cloudy"
"1998-07-30 03:00","1998","07","30","03:00","16.7","","12.3","","75","","32","","2","","25.0","","99.35","","","","","","Mainly Clear"
"1998-07-30 04:00","1998","07","30","04:00","17.7","","12.3","","71","","34","","4","","25.0","","99.32","","","","","","Mostly Cloudy"
"1998-07-30 05:00","1998","07","30","05:00","17.8","","12.7","","72","","35","","2","","25.0","","99.32","","","","","","Cloudy"
"1998-07-30 06:00","1998","07","30","06:00","19.1","","11.9","","63","","","","0","","40.2","","99.32","","","","","","Cloudy"
"1998-07-30 07:00","1998","07","30","07:00","19.5","","13.0","","66","","16","","6","","24.1","","99.32","","","","","","Mostly Cloudy"
"1998-07-30 08:00","1998","07","30","08:00","20.4","","12.7","","61","","21","","6","","24.1","","99.32","","","","","","Cloudy"
"1998-07-30 09:00","1998","07","30","09:00","21.3","","12.7","","58","","","","0","","24.1","","99.32","","","","","","Cloudy"
"1998-07-30 10:00","1998","07","30","10:00","22.1","","12.6","","55","","17","","4","","24.1","","99.39","","25","","","","Cloudy"
"1998-07-30 11:00","1998","07","30","11:00","20.3","","15.5","","74","","35","","11","","12.9","","99.45","","25","","","","Rain Showers"
"1998-07-30 12:00","1998","07","30","12:00","21.0","","14.8","","68","","36","","7","","19.3","","99.39","","25","","","","Rain Showers"
"1998-07-30 13:00","1998","07","30","13:00","22.3","","15.0","","63","","35","","11","","19.3","","99.39","","26","","","","Mostly Cloudy"
"1998-07-30 14:00","1998","07","30","14:00","22.2","","14.6","","62","","36","","9","","32.2","","99.39","","26","","","","Mostly Cloudy"
"1998-07-30 15:00","1998","07","30","15:00","23.1","","14.3","","58","","35","","15","","32.2","","99.35","","27","","","","Mostly Cloudy"
"1998-07-30 16:00","1998","07","30","16:00","23.0","","15.3","","62","","36","","20","","32.2","","99.39","","27","","","","Mostly Cloudy"
"1998-07-30 17:00","1998","07","30","17:00","22.1","","14.9","","64","","1","","20","","32.2","","99.42","","26","","","","Mostly Cloudy"
"1998-07-30 18:00","1998","07","30","18:00","22.1","","13.8","","59","","1","","13","","32.2","","99.49","","25","","","","Mostly Cloudy"
"1998-07-30 19:00","1998","07","30","19:00","21.2","","11.8","","55","","36","","9","","32.2","","99.52","","","","","","Mainly Clear"
"1998-07-30 20:00","1998","07","30","20:00","19.6","","11.1","","58","","35","","13","","25.0","","99.59","","","","","","Clear"
"1998-07-30 21:00","1998","07","30","21:00","18.8","","10.9","","60","","35","","15","","25.0","","99.65","","","","","","Clear"
"1998-07-30 22:00","1998","07","30","22:00","17.5","","11.3","","67","","35","","9","","25.0","","99.69","","","","","","Clear"
"1998-07-30 23:00","1998","07","30","23:00","15.7","","11.6","","77","","34","","15","","25.0","","99.72","","","","","","Clear"
"1998-07-31 00:00","1998","07","31","00:00","14.7","","11.6","","82","","34","","13","","25.0","","99.72","","","","","","Clear"
"1998-07-31 01:00","1998","07","31","01:00","13.9","","11.8","","87","","33","","9","","25.0","","99.75","","","","","","Clear"
"1998-07-31 02:00","1998","07","31","02:00","14.1","","12.0","","87","","35","","13","","19.3","","99.75","","","","","","Clear"
"1998-07-31 03:00","1998","07","31","03:00","14.0","","12.5","","91","","35","","9","","24.1","","99.75","","","","","","Clear"
"1998-07-31 04:00","1998","07","31","04:00","13.8","","12.6","","92","","34","","15","","24.1","","99.79","","","","","","Mainly Clear"
"1998-07-31 05:00","1998","07","31","05:00","13.8","","12.6","","92","","35","","11","","32.2","","99.85","","","","","","Mainly Clear"
"1998-07-31 06:00","1998","07","31","06:00","13.9","","12.7","","92","","35","","13","","32.2","","99.95","","","","","","Clear"
"1998-07-31 07:00","1998","07","31","07:00","15.6","","13.4","","87","","35","","11","","40.2","","100.02","","","","","","Clear"
"1998-07-31 08:00","1998","07","31","08:00","18.6","","13.8","","74","","1","","7","","40.2","","100.09","","","","","","Clear"
"1998-07-31 09:00","1998","07","31","09:00","21.2","","11.6","","54","","5","","11","","40.2","","100.12","","","","","","Mainly Clear"
"1998-07-31 10:00","1998","07","31","10:00","21.2","","10.6","","51","","1","","11","","40.2","","100.15","","","","","","Mainly Clear"
"1998-07-31 11:00","1998","07","31","11:00","21.3","","10.7","","51","","33","","7","","40.2","","100.19","","","","","","Mostly Cloudy"
"1998-07-31 12:00","1998","07","31","12:00","22.2","","11.6","","51","","14","","6","","40.2","","100.19","","","","","","Mainly Clear"
"1998-07-31 13:00","1998","07","31","13:00","21.9","","11.0","","50","","17","","7","","40.2","","100.19","","","","","","Mainly Clear"
"1998-07-31 14:00","1998","07","31","14:00","24.1","","7.1","","34","","36","","13","","40.2","","100.19","","","","","","Mainly Clear"
"1998-07-31 15:00","1998","07","31","15:00","24.3","","7.7","","35","","5","","6","","40.2","","100.19","","25","","","","Mainly Clear"
"1998-07-31 16:00","1998","07","31","16:00","22.5","","10.8","","48","","15","","9","","40.2","","100.22","","","","","","Mainly Clear"
"1998-07-31 17:00","1998","07","31","17:00","23.2","","10.7","","45","","17","","7","","40.2","","100.22","","25","","","","Mainly Clear"
"1998-07-31 18:00","1998","07","31","18:00","22.6","","10.9","","48","","16","","11","","40.2","","100.22","","","","","","Mainly Clear"
"1998-07-31 19:00","1998","07","31","19:00","22.6","","8.1","","39","","34","","15","","40.2","","100.29","","","","","","Clear"
"1998-07-31 20:00","1998","07","31","20:00","20.9","","9.1","","47","","36","","19","","25.0","","100.32","","","","","","Clear"
"1998-07-31 21:00","1998","07","31","21:00","18.9","","9.7","","55","","35","","19","","25.0","","100.39","","","","","","Clear"
"1998-07-31 22:00","1998","07","31","22:00","17.2","","9.6","","61","","35","","13","","25.0","","100.39","","","","","","Clear"
"1998-07-31 23:00","1998","07","31","23:00","15.5","","9.6","","68","","35","","9","","25.0","","100.45","","","","","","Clear"
