"Station Name","TORONTO LESTER B. PEARSON INT'L A"
"Province","ONTARIO"
"Latitude","43.68"
"Longitude","-79.63"
"Elevation","173.40"
"Climate Identifier","6158733"
"WMO Identifier","71624"
"TC Identifier","YYZ"
"All times are specified in Local Standard Time (LST). Add 1 hour to adjust for Daylight Saving Time where and when it is observed."

"Legend"
"E","Estimated"
"M","Missing"
"NA","Not Available"

"Date/Time","Year","Month","Day","Time","Temp (°C)","Temp Flag","Dew Point Temp (°C)","Dew Point Temp Flag","Rel Hum (%)","Rel Hum Flag","Wind Dir (10s deg)","Wind Dir Flag","Wind Spd (km/h)","Wind Spd Flag","Visibility (km)","Visibility Flag","Stn Press (kPa)","Stn Press Flag","Hmdx","Hmdx Flag","Wind Chill","Wind Chill Flag","Weather"
"1989-12-01 00:00","1989","12","01","00:00","-7.8","","-10.5","","81","","3","","15","","25.0","","99.77","","","","-14","","Mostly Cloudy"
"1989-12-01 01:00","1989","12","01","01:00","-8.9","","-13.8","","68","","35","","15","","25.0","","99.81","","","","-15","","Mostly Cloudy"
"1989-12-01 02:00","1989","12","01","02:00","-9.3","","-14.0","","68","","36","","13","","25.0","","99.87","","","","-15","","Cloudy"
"1989-12-01 03:00","1989","12","01","03:00","-9.1","","-14.3","","66","","33","","9","","25.0","","99.91","","","","-14","","Cloudy"
"1989-12-01 04:00","1989","12","01","04:00","-8.8","","-13.8","","67","","1","","11","","25.0","","99.94","","","","-14","","Cloudy"
"1989-12-01 05:00","1989","12","01","05:00","-9.4","","-14.5","","66","","2","","13","","25.0","","100.01","","","","-15","","Mostly Cloudy"
"1989-12-01 06:00","1989","12","01","06:00","-9.9","","-14.2","","70","","36","","11","","25.0","","100.07","","","","-15","","Mainly Clear"
"1989-12-01 07:00","1989","12","01","07:00","-9.6","","-14.0","","70","","35","","15","","25.0","","100.17","","","","-16","","Mostly Cloudy"
"1989-12-01 08:00","1989","12","01","08:00","-10.1","","-15.2","","66","","36","","13","","40.2","","100.27","","","","-16","","Mostly Cloudy"
"1989-12-01 09:00","1989","12","01","09:00","-10.0","","-14.2","","71","","35","","11","","40.2","","100.34","","","","-16","","Mostly Cloudy"
"1989-12-01 10:00","1989","12","01","10:00","-8.9","","-14.3","","65","","36","","11","","40.2","","100.44","","","","-14","","Mainly Clear"
"1989-12-01 11:00","1989","12","01","11:00","-7.8","","-15.4","","54","","4","","7","","40.2","","100.47","","","","-11","","Clear"
"1989-12-01 12:00","1989","12","01","12:00","-6.9","","-15.4","","51","","33","","6","","40.2","","100.47","","","","-10","","Clear"
"1989-12-01 13:00","1989","12","01","13:00","-5.9","","-12.8","","58","","","","0","","40.2","","100.47","","","","","","Clear"
"1989-12-01 14:00","1989","12","01","14:00","-4.9","","-14.1","","48","","","","0","","40.2","","100.47","","","","","","Clear"
"1989-12-01 15:00","1989","12","01","15:00","-5.0","","-15.2","","44","","","","0","","40.2","","100.47","","","","","","Clear"
"1989-12-01 16:00","1989","12","01","16:00","-5.7","","-12.0","","61","","15","","9","","40.2","","100.51","","","","-10","","Clear"
"1989-12-01 17:00","1989","12","01","17:00","-6.6","","-13.1","","60","","13","","11","","24.1","","100.51","","","","-12","","Mainly Clear"
"1989-12-01 18:00","1989","12","01","18:00","-7.0","","-13.4","","60","","11","","6","","24.1","","100.54","","","","-10","","Mainly Clear"
"1989-12-01 19:00","1989","12","01","19:00","-7.5","","-14.1","","59","","9","","11","","24.1","","100.51","","","","-13","","Mainly Clear"
"1989-12-01 20:00","1989","12","01","20:00","-7.5","","-13.1","","64","","10","","9","","24.1","","100.44","","","","-12","","Mainly Clear"
"1989-12-01 21:00","1989","12","01","21:00","-6.8","","-12.4","","64","","10","","9","","24.1","","100.41","","","","-11","","Mainly Clear"
"1989-12-01 22:00","1989","12","01","22:00","-6.8","","-12.4","","64","","9","","9","","24.1","","100.34","","","","-11","","Mostly Cloudy"
"1989-12-01 23:00","1989","12","01","23:00","-5.7","","-9.6","","74","","13","","15","","24.1","","100.24","","","","-11","","Mostly Cloudy"
"1989-12-02 00:00","1989","12","02","00:00","-6.4","","-10.9","","70","","12","","15","","24.1","","100.11","","","","-12","","Mostly Cloudy"
"1989-12-02 01:00","1989","12","02","01:00","-6.3","","-10.9","","70","","11","","17","","24.1","","100.07","","","","-13","","Mostly Cloudy"
"1989-12-02 02:00","1989","12","02","02:00","-5.0","","-8.9","","74","","11","","20","","19.3","","99.87","","","","-12","","Mostly Cloudy"
"1989-12-02 03:00","1989","12","02","03:00","-4.8","","-9.7","","68","","12","","28","","24.1","","99.64","","","","-12","","Cloudy"
"1989-12-02 04:00","1989","12","02","04:00","-4.5","","-9.0","","71","","11","","24","","24.1","","99.51","","","","-12","","Cloudy"
"1989-12-02 05:00","1989","12","02","05:00","-3.9","","-7.3","","77","","10","","24","","24.1","","99.31","","","","-11","","Cloudy"
"1989-12-02 06:00","1989","12","02","06:00","-3.7","","-5.7","","86","","10","","31","","19.3","","98.94","","","","-11","","Cloudy"
"1989-12-02 07:00","1989","12","02","07:00","-3.5","","-5.4","","87","","10","","33","","16.1","","98.64","","","","-11","","Cloudy"
"1989-12-02 08:00","1989","12","02","08:00","-2.6","","-4.8","","85","","11","","26","","19.3","","98.41","","","","-9","","Cloudy"
"1989-12-02 09:00","1989","12","02","09:00","-1.4","","-4.2","","81","","10","","30","","9.7","","98.21","","","","-8","","Snow"
"1989-12-02 10:00","1989","12","02","10:00","-0.1","","-3.0","","81","","11","","22","","19.3","","98.01","","","","-6","","Snow"
"1989-12-02 11:00","1989","12","02","11:00","2.0","","-1.0","","80","","22","","22","","16.1","","97.91","","","","","","Mostly Cloudy"
"1989-12-02 12:00","1989","12","02","12:00","2.7","","-0.4","","80","","24","","26","","11.3","","97.87","","","","","","Mostly Cloudy"
"1989-12-02 13:00","1989","12","02","13:00","1.9","","-0.4","","85","","23","","30","","12.9","","97.84","","","","","","Mainly Clear"
"1989-12-02 14:00","1989","12","02","14:00","3.1","","-2.6","","66","","24","","30","","19.3","","97.91","","","","","","Mostly Cloudy"
"1989-12-02 15:00","1989","12","02","15:00","0.0","","0.0","","100","","25","","33","","1.6","","97.97","","","","-7","","Snow Showers,Blowing Snow"
"1989-12-02 16:00","1989","12","02","16:00","1.2","","-1.9","","80","","25","","20","","32.2","","98.01","","","","","","Mostly Cloudy"
"1989-12-02 17:00","1989","12","02","17:00","1.7","","-3.5","","68","","25","","19","","19.3","","98.07","","","","","","Mostly Cloudy"
"1989-12-02 18:00","1989","12","02","18:00","-0.2","","-1.8","","89","","25","","15","","1.6","","98.14","","","","-5","","Snow Showers"
"1989-12-02 19:00","1989","12","02","19:00","-0.2","","-2.3","","86","","23","","13","","19.3","","98.14","","","","-4","","Mostly Cloudy"
"1989-12-02 20:00","1989","12","02","20:00","0.1","","-2.7","","81","","24","","17","","16.1","","98.14","","","","","","Mostly Cloudy"
"1989-12-02 21:00","1989","12","02","21:00","-0.5","","-1.3","","94","","34","","24","","1.6","","98.21","","","","-6","","Snow Showers"
"1989-12-02 22:00","1989","12","02","22:00","-5.4","","-8.2","","80","","34","","39","","4.0","","98.31","","","","-15","","Snow Showers,Blowing Snow"
"1989-12-02 23:00","1989","12","02","23:00","-7.2","","-10.8","","76","","33","","46","","16.1","","98.41","","","","-18","","Cloudy"
"1989-12-03 00:00","1989","12","03","00:00","-8.4","","-11.1","","81","","33","","30","","12.9","","98.47","","","","-17","","Cloudy"
"1989-12-03 01:00","1989","12","03","01:00","-9.4","","-11.8","","83","","33","","33","","19.3","","98.54","","","","-19","","Mostly Cloudy"
"1989-12-03 02:00","1989","12","03","02:00","-9.5","","-11.8","","83","","33","","31","","19.3","","98.74","","","","-19","","Cloudy"
"1989-12-03 03:00","1989","12","03","03:00","-9.5","","-12.7","","77","","33","","30","","25.0","","98.81","","","","-19","","Cloudy"
"1989-12-03 04:00","1989","12","03","04:00","-9.5","","-12.7","","77","","34","","33","","24.1","","98.84","","","","-19","","Cloudy"
"1989-12-03 05:00","1989","12","03","05:00","-9.5","","-13.1","","75","","34","","22","","16.1","","98.91","","","","-18","","Cloudy"
"1989-12-03 06:00","1989","12","03","06:00","-10.8","","-14.1","","76","","33","","31","","24.1","","98.94","","","","-21","","Mainly Clear"
"1989-12-03 07:00","1989","12","03","07:00","-11.1","","-14.1","","78","","33","","31","","16.1","","99.07","","","","-21","","Mainly Clear"
"1989-12-03 08:00","1989","12","03","08:00","-12.4","","-15.4","","78","","34","","28","","24.1","","99.11","","","","-22","","Clear"
"1989-12-03 09:00","1989","12","03","09:00","-12.2","","-15.3","","78","","33","","26","","24.1","","99.14","","","","-22","","Clear"
"1989-12-03 10:00","1989","12","03","10:00","-11.6","","-14.7","","78","","33","","33","","32.2","","99.17","","","","-22","","Clear"
"1989-12-03 11:00","1989","12","03","11:00","-10.6","","-13.5","","79","","33","","41","","32.2","","99.17","","","","-22","","Mostly Cloudy"
"1989-12-03 12:00","1989","12","03","12:00","-10.2","","-13.3","","78","","33","","35","","32.2","","99.14","","","","-20","","Mainly Clear"
"1989-12-03 13:00","1989","12","03","13:00","-10.0","","-13.8","","74","","33","","33","","16.1","","99.14","","","","-20","","Mostly Cloudy"
"1989-12-03 14:00","1989","12","03","14:00","-9.7","","-11.8","","85","","33","","30","","3.2","","99.17","","","","-19","","Snow Showers"
"1989-12-03 15:00","1989","12","03","15:00","-9.2","","-12.5","","77","","33","","37","","9.7","","99.21","","","","-19","","Snow Showers"
"1989-12-03 16:00","1989","12","03","16:00","-10.1","","-12.9","","80","","31","","33","","4.0","","99.27","","","","-20","","Snow Showers,Blowing Snow"
"1989-12-03 17:00","1989","12","03","17:00","-10.6","","-13.9","","77","","31","","28","","12.9","","99.34","","","","-20","","Snow Showers"
"1989-12-03 18:00","1989","12","03","18:00","-11.3","","-15.7","","70","","31","","28","","24.1","","99.37","","","","-21","","Mainly Clear"
"1989-12-03 19:00","1989","12","03","19:00","-12.2","","-16.3","","72","","31","","22","","12.9","","99.47","","","","-21","","Mostly Cloudy"
"1989-12-03 20:00","1989","12","03","20:00","-13.1","","-17.6","","69","","31","","28","","24.1","","99.44","","","","-23","","Mainly Clear"
"1989-12-03 21:00","1989","12","03","21:00","-14.8","","-20.3","","63","","33","","7","","25.0","","99.44","","","","-20","","Mainly Clear"
"1989-12-03 22:00","1989","12","03","22:00","-13.8","","-19.0","","65","","32","","17","","12.9","","99.44","","","","-22","","Snow Showers"
"1989-12-03 23:00","1989","12","03","23:00","-14.8","","-20.3","","63","","32","","17","","25.0","","99.44","","","","-23","","Mainly Clear"
"1989-12-04 00:00","1989","12","04","00:00","-15.6","","-19.7","","71","","34","","20","","25.0","","99.51","","","","-25","","Clear"
"1989-12-04 01:00","1989","12","04","01:00","-16.4","","-18.4","","84","","32","","17","","25.0","","99.44","","","","-25","","Mostly Cloudy"
"1989-12-04 02:00","1989","12","04","02:00","-16.6","","-19.6","","78","","32","","19","","25.0","","99.41","","","","-26","","Clear"
"1989-12-04 03:00","1989","12","04","03:00","-16.6","","-19.0","","82","","32","","20","","25.0","","99.37","","","","-26","","Mainly Clear"
"1989-12-04 04:00","1989","12","04","04:00","-16.5","","-21.7","","64","","32","","15","","25.0","","99.41","","","","-25","","Mainly Clear"
"1989-12-04 05:00","1989","12","04","05:00","-17.5","","-20.8","","76","","20","","15","","25.0","","99.34","","","","-26","","Clear"
"1989-12-04 06:00","1989","12","04","06:00","-17.5","","-20.1","","80","","32","","11","","25.0","","99.37","","","","-25","","Clear"
"1989-12-04 07:00","1989","12","04","07:00","-18.0","","-22.9","","66","","33","","7","","25.0","","99.24","","","","-23","","Mostly Cloudy"
"1989-12-04 08:00","1989","12","04","08:00","-17.0","","-19.0","","84","","25","","4","","40.2","","99.24","","","","-20","","Mostly Cloudy"
"1989-12-04 09:00","1989","12","04","09:00","-15.7","","-21.8","","60","","","","0","","40.2","","99.17","","","","","","Mostly Cloudy"
"1989-12-04 10:00","1989","12","04","10:00","-14.4","","-19.0","","68","","","","0","","32.2","","99.11","","","","","","Mostly Cloudy"
"1989-12-04 11:00","1989","12","04","11:00","-13.0","","-17.6","","68","","","","0","","16.1","","99.04","","","","","","Cloudy"
"1989-12-04 12:00","1989","12","04","12:00","-11.6","","-14.7","","78","","17","","4","","4.8","","98.91","","","","-14","","Snow"
"1989-12-04 13:00","1989","12","04","13:00","-10.5","","-13.5","","78","","","","0","","4.8","","98.81","","","","","","Snow"
"1989-12-04 14:00","1989","12","04","14:00","-10.2","","-12.4","","84","","13","","4","","4.0","","98.71","","","","-13","","Snow"
"1989-12-04 15:00","1989","12","04","15:00","-9.9","","-12.4","","82","","6","","6","","11.3","","98.61","","","","-13","","Snow"
"1989-12-04 16:00","1989","12","04","16:00","-9.3","","-13.1","","74","","11","","9","","11.3","","98.61","","","","-14","","Cloudy"
"1989-12-04 17:00","1989","12","04","17:00","-8.9","","-12.5","","75","","8","","4","","9.7","","98.61","","","","-11","","Snow"
"1989-12-04 18:00","1989","12","04","18:00","-8.7","","-12.3","","75","","6","","6","","12.9","","98.61","","","","-12","","Snow"
"1989-12-04 19:00","1989","12","04","19:00","-8.4","","-12.3","","73","","6","","7","","11.3","","98.61","","","","-12","","Snow"
"1989-12-04 20:00","1989","12","04","20:00","-8.6","","-11.9","","77","","3","","11","","9.7","","98.57","","","","-14","","Snow"
"1989-12-04 21:00","1989","12","04","21:00","-8.4","","-11.9","","76","","3","","9","","9.7","","98.54","","","","-13","","Snow"
"1989-12-04 22:00","1989","12","04","22:00","-8.1","","-11.2","","78","","4","","9","","19.3","","98.51","","","","-13","","Snow"
"1989-12-04 23:00","1989","12","04","23:00","-7.9","","-10.8","","80","","9","","6","","14.5","","98.44","","","","-11","","Snow"
"1989-12-05 00:00","1989","12","05","00:00","-8.0","","-10.8","","80","","3","","9","","14.5","","98.44","","","","-13","","Cloudy"
"1989-12-05 01:00","1989","12","05","01:00","-8.4","","-11.5","","78","","3","","11","","14.5","","98.47","","","","-14","","Snow"
"1989-12-05 02:00","1989","12","05","02:00","-8.0","","-11.2","","77","","4","","9","","16.1","","98.47","","","","-13","","Snow"
"1989-12-05 03:00","1989","12","05","03:00","-7.5","","-11.8","","71","","4","","7","","17.7","","98.44","","","","-11","","Snow"
"1989-12-05 04:00","1989","12","05","04:00","-7.3","","-12.3","","67","","4","","6","","19.3","","98.44","","","","-10","","Snow"
"1989-12-05 05:00","1989","12","05","05:00","-7.6","","-11.8","","72","","","","0","","24.1","","98.44","","","","","","Mostly Cloudy"
"1989-12-05 06:00","1989","12","05","06:00","-6.8","","-10.8","","73","","7","","15","","19.3","","98.41","","","","-13","","Snow"
"1989-12-05 07:00","1989","12","05","07:00","-6.0","","-8.4","","83","","5","","9","","6.4","","98.44","","","","-10","","Snow"
"1989-12-05 08:00","1989","12","05","08:00","-6.3","","-8.3","","86","","3","","6","","4.0","","98.44","","","","-9","","Snow"
"1989-12-05 09:00","1989","12","05","09:00","-6.5","","-7.6","","92","","29","","6","","2.0","","98.41","","","","-9","","Snow"
"1989-12-05 10:00","1989","12","05","10:00","-7.3","","-8.8","","89","","33","","6","","2.4","","98.41","","","","-10","","Snow"
"1989-12-05 11:00","1989","12","05","11:00","-6.2","","-7.1","","93","","","","0","","3.2","","98.37","","","","","","Snow"
"1989-12-05 12:00","1989","12","05","12:00","-4.5","","-6.0","","89","","","","0","","3.2","","98.34","","","","","","Snow"
"1989-12-05 13:00","1989","12","05","13:00","-2.9","","-4.5","","89","","16","","9","","3.2","","98.31","","","","-6","","Snow"
"1989-12-05 14:00","1989","12","05","14:00","-2.8","","-4.8","","86","","16","","11","","6.4","","98.27","","","","-7","","Snow"
"1989-12-05 15:00","1989","12","05","15:00","-2.5","","-4.5","","86","","21","","6","","11.3","","98.31","","","","-5","","Mostly Cloudy"
"1989-12-05 16:00","1989","12","05","16:00","-2.5","","-5.4","","80","","23","","9","","11.3","","98.31","","","","-6","","Mostly Cloudy"
"1989-12-05 17:00","1989","12","05","17:00","-2.5","","-5.4","","80","","21","","6","","11.3","","98.31","","","","-5","","Cloudy"
"1989-12-05 18:00","1989","12","05","18:00","-2.1","","-5.4","","78","","19","","9","","14.5","","98.34","","","","-6","","Mostly Cloudy"
"1989-12-05 19:00","1989","12","05","19:00","-2.4","","-6.0","","76","","20","","13","","19.3","","98.34","","","","-7","","Mostly Cloudy"
"1989-12-05 20:00","1989","12","05","20:00","-3.2","","-6.4","","79","","21","","9","","19.3","","98.34","","","","-7","","Mostly Cloudy"
"1989-12-05 21:00","1989","12","05","21:00","-2.6","","-6.0","","77","","21","","9","","19.3","","98.34","","","","-6","","Cloudy"
"1989-12-05 22:00","1989","12","05","22:00","-2.5","","-5.7","","78","","22","","7","","19.3","","98.34","","","","-5","","Cloudy"
"1989-12-05 23:00","1989","12","05","23:00","-1.9","","-5.1","","79","","23","","15","","11.3","","98.31","","","","-7","","Cloudy"
"1989-12-06 00:00","1989","12","06","00:00","-2.0","","-4.5","","83","","22","","9","","11.3","","98.27","","","","-5","","Cloudy"
"1989-12-06 01:00","1989","12","06","01:00","-1.9","","-4.5","","82","","17","","7","","11.3","","98.24","","","","-5","","Mostly Cloudy"
"1989-12-06 02:00","1989","12","06","02:00","-2.0","","-4.5","","83","","19","","6","","12.9","","98.24","","","","-4","","Mostly Cloudy"
"1989-12-06 03:00","1989","12","06","03:00","-1.3","","-3.6","","84","","22","","11","","12.9","","98.21","","","","-5","","Cloudy"
"1989-12-06 04:00","1989","12","06","04:00","-0.9","","-3.3","","84","","20","","15","","12.9","","98.14","","","","-6","","Cloudy"
"1989-12-06 05:00","1989","12","06","05:00","-0.6","","-2.4","","88","","21","","13","","11.3","","98.14","","","","-5","","Cloudy"
"1989-12-06 06:00","1989","12","06","06:00","0.0","","-1.5","","90","","21","","17","","12.9","","98.11","","","","-5","","Mostly Cloudy"
"1989-12-06 07:00","1989","12","06","07:00","0.1","","-0.6","","95","","22","","15","","12.9","","98.14","","","","","","Cloudy"
"1989-12-06 08:00","1989","12","06","08:00","0.0","","-1.5","","90","","23","","17","","6.4","","98.14","","","","-5","","Fog"
"1989-12-06 09:00","1989","12","06","09:00","0.2","","-1.0","","91","","23","","13","","6.4","","98.14","","","","","","Fog"
"1989-12-06 10:00","1989","12","06","10:00","0.5","","-0.5","","93","","22","","15","","4.8","","98.14","","","","","","Fog"
"1989-12-06 11:00","1989","12","06","11:00","0.9","","-0.5","","90","","23","","15","","4.0","","98.11","","","","","","Fog"
"1989-12-06 12:00","1989","12","06","12:00","1.1","","0.0","","92","","24","","13","","6.4","","98.07","","","","","","Fog"
"1989-12-06 13:00","1989","12","06","13:00","1.3","","0.5","","95","","25","","9","","4.8","","98.04","","","","","","Drizzle,Fog"
"1989-12-06 14:00","1989","12","06","14:00","1.2","","0.5","","95","","26","","9","","3.2","","98.01","","","","","","Drizzle,Fog"
"1989-12-06 15:00","1989","12","06","15:00","1.4","","0.5","","94","","27","","13","","6.4","","97.97","","","","","","Fog"
"1989-12-06 16:00","1989","12","06","16:00","1.0","","0.0","","93","","32","","22","","3.2","","98.01","","","","","","Snow,Fog"
"1989-12-06 17:00","1989","12","06","17:00","0.1","","-0.4","","96","","32","","30","","11.3","","98.14","","","","","","Snow"
"1989-12-06 18:00","1989","12","06","18:00","-1.4","","-5.4","","74","","32","","41","","14.5","","98.34","","","","-9","","Cloudy"
"1989-12-06 19:00","1989","12","06","19:00","-3.1","","-8.1","","68","","32","","33","","25.0","","98.51","","","","-11","","Cloudy"
"1989-12-06 20:00","1989","12","06","20:00","-4.4","","-9.8","","66","","32","","26","","25.0","","98.64","","","","-12","","Mostly Cloudy"
"1989-12-06 21:00","1989","12","06","21:00","-5.2","","-11.3","","62","","32","","33","","25.0","","98.81","","","","-14","","Mostly Cloudy"
"1989-12-06 22:00","1989","12","06","22:00","-5.8","","-11.5","","64","","31","","30","","25.0","","98.97","","","","-14","","Mostly Cloudy"
"1989-12-06 23:00","1989","12","06","23:00","-6.2","","-11.1","","68","","31","","24","","25.0","","99.07","","","","-14","","Mostly Cloudy"
"1989-12-07 00:00","1989","12","07","00:00","-7.6","","-12.7","","67","","32","","37","","25.0","","99.31","","","","-17","","Mainly Clear"
"1989-12-07 01:00","1989","12","07","01:00","-9.0","","-14.3","","65","","31","","33","","25.0","","99.47","","","","-19","","Clear"
"1989-12-07 02:00","1989","12","07","02:00","-9.6","","-14.0","","70","","30","","31","","25.0","","99.64","","","","-19","","Clear"
"1989-12-07 03:00","1989","12","07","03:00","-11.5","","-15.7","","71","","36","","17","","25.0","","99.81","","","","-19","","Clear"
"1989-12-07 04:00","1989","12","07","04:00","-14.0","","-16.2","","83","","36","","17","","25.0","","99.94","","","","-22","","Clear"
"1989-12-07 05:00","1989","12","07","05:00","-13.8","","-16.7","","78","","2","","17","","25.0","","100.04","","","","-22","","Clear"
"1989-12-07 06:00","1989","12","07","06:00","-13.6","","-17.7","","71","","36","","22","","25.0","","100.14","","","","-23","","Clear"
"1989-12-07 07:00","1989","12","07","07:00","-15.6","","-19.0","","75","","24","","9","","25.0","","100.27","","","","-22","","Mainly Clear"
"1989-12-07 08:00","1989","12","07","08:00","-14.1","","-20.3","","60","","29","","9","","40.2","","100.37","","","","-20","","Mainly Clear"
"1989-12-07 09:00","1989","12","07","09:00","-12.8","","-18.2","","64","","26","","17","","40.2","","100.51","","","","-21","","Mostly Cloudy"
"1989-12-07 10:00","1989","12","07","10:00","-11.2","","-16.6","","64","","27","","20","","40.2","","100.61","","","","-19","","Mainly Clear"
"1989-12-07 11:00","1989","12","07","11:00","-9.2","","-14.3","","67","","28","","19","","40.2","","100.64","","","","-17","","Mostly Cloudy"
"1989-12-07 12:00","1989","12","07","12:00","-8.0","","-13.4","","65","","28","","15","","40.2","","100.64","","","","-14","","Mostly Cloudy"
"1989-12-07 13:00","1989","12","07","13:00","-7.8","","-13.9","","61","","24","","15","","40.2","","100.64","","","","-14","","Mostly Cloudy"
"1989-12-07 14:00","1989","12","07","14:00","-7.4","","-13.1","","63","","25","","17","","32.2","","100.67","","","","-14","","Mostly Cloudy"
"1989-12-07 15:00","1989","12","07","15:00","-7.1","","-12.9","","63","","28","","15","","24.1","","100.71","","","","-13","","Mostly Cloudy"
"1989-12-07 16:00","1989","12","07","16:00","-7.1","","-12.4","","66","","28","","15","","40.2","","100.74","","","","-13","","Mainly Clear"
"1989-12-07 17:00","1989","12","07","17:00","-9.0","","-13.4","","70","","25","","9","","25.0","","100.81","","","","-14","","Clear"
"1989-12-07 18:00","1989","12","07","18:00","-8.7","","-12.3","","75","","24","","13","","25.0","","100.87","","","","-15","","Clear"
"1989-12-07 19:00","1989","12","07","19:00","-9.2","","-12.5","","77","","26","","15","","25.0","","100.87","","","","-16","","Clear"
"1989-12-07 20:00","1989","12","07","20:00","-9.0","","-12.1","","78","","26","","17","","25.0","","100.91","","","","-16","","Clear"
"1989-12-07 21:00","1989","12","07","21:00","-9.4","","-12.3","","79","","26","","15","","25.0","","100.91","","","","-16","","Mainly Clear"
"1989-12-07 22:00","1989","12","07","22:00","-11.2","","-13.6","","82","","28","","11","","25.0","","100.97","","","","-17","","Mainly Clear"
"1989-12-07 23:00","1989","12","07","23:00","-10.6","","-13.5","","79","","28","","17","","25.0","","100.97","","","","-18","","Mostly Cloudy"
"1989-12-08 00:00","1989","12","08","00:00","-9.2","","-11.7","","82","","26","","4","","25.0","","100.97","","","","-11","","Mostly Cloudy"
"1989-12-08 01:00","1989","12","08","01:00","-9.9","","-12.0","","84","","23","","6","","25.0","","100.94","","","","-13","","Mostly Cloudy"
"1989-12-08 02:00","1989","12","08","02:00","-9.0","","-11.3","","83","","27","","7","","25.0","","100.91","","","","-13","","Mostly Cloudy"
"1989-12-08 03:00","1989","12","08","03:00","-9.7","","-11.4","","88","","25","","11","","25.0","","100.91","","","","-15","","Mostly Cloudy"
"1989-12-08 04:00","1989","12","08","04:00","-8.9","","-11.3","","83","","","","0","","25.0","","100.87","","","","","","Mostly Cloudy"
"1989-12-08 05:00","1989","12","08","05:00","-8.8","","-10.9","","85","","","","0","","25.0","","100.81","","","","","","Mostly Cloudy"
"1989-12-08 06:00","1989","12","08","06:00","-8.6","","-10.7","","85","","","","0","","25.0","","100.84","","","","","","Mostly Cloudy"
"1989-12-08 07:00","1989","12","08","07:00","-8.6","","-11.1","","82","","","","0","","25.0","","100.87","","","","","","Mostly Cloudy"
"1989-12-08 08:00","1989","12","08","08:00","-7.7","","-9.9","","84","","","","0","","24.1","","100.87","","","","","","Mostly Cloudy"
"1989-12-08 09:00","1989","12","08","09:00","-6.7","","-9.7","","79","","","","0","","19.3","","100.84","","","","","","Mostly Cloudy"
"1989-12-08 10:00","1989","12","08","10:00","-6.5","","-10.5","","73","","","","0","","19.3","","100.77","","","","","","Mostly Cloudy"
"1989-12-08 11:00","1989","12","08","11:00","-5.7","","-11.6","","63","","","","0","","19.3","","100.77","","","","","","Mostly Cloudy"
"1989-12-08 12:00","1989","12","08","12:00","-5.1","","-11.7","","60","","26","","7","","32.2","","100.67","","","","-8","","Mostly Cloudy"
"1989-12-08 13:00","1989","12","08","13:00","-4.0","","-12.4","","52","","28","","11","","40.2","","100.67","","","","-8","","Mostly Cloudy"
"1989-12-08 14:00","1989","12","08","14:00","-4.0","","-12.9","","50","","27","","9","","40.2","","100.51","","","","-8","","Mostly Cloudy"
"1989-12-08 15:00","1989","12","08","15:00","-4.0","","-12.0","","54","","25","","7","","40.2","","100.51","","","","-7","","Mostly Cloudy"
"1989-12-08 16:00","1989","12","08","16:00","-4.4","","-10.6","","62","","24","","7","","40.2","","100.51","","","","-8","","Mostly Cloudy"
"1989-12-08 17:00","1989","12","08","17:00","-7.3","","-11.8","","70","","26","","9","","40.2","","100.51","","","","-12","","Mainly Clear"
"1989-12-08 18:00","1989","12","08","18:00","-7.1","","-13.4","","61","","29","","9","","25.0","","100.51","","","","-11","","Clear"
"1989-12-08 19:00","1989","12","08","19:00","-8.0","","-12.9","","68","","28","","7","","25.0","","100.47","","","","-12","","Clear"
"1989-12-08 20:00","1989","12","08","20:00","-8.7","","-13.6","","68","","32","","7","","25.0","","100.47","","","","-13","","Mainly Clear"
"1989-12-08 21:00","1989","12","08","21:00","-10.0","","-13.3","","77","","32","","9","","25.0","","100.44","","","","-15","","Mainly Clear"
"1989-12-08 22:00","1989","12","08","22:00","-11.4","","-14.2","","79","","33","","7","","25.0","","100.37","","","","-16","","Clear"
"1989-12-08 23:00","1989","12","08","23:00","-11.0","","-13.6","","81","","33","","6","","25.0","","100.31","","","","-15","","Clear"
"1989-12-09 00:00","1989","12","09","00:00","-12.8","","-14.6","","86","","35","","4","","25.0","","100.31","","","","-15","","Clear"
"1989-12-09 01:00","1989","12","09","01:00","-13.1","","-15.5","","82","","34","","7","","25.0","","100.27","","","","-18","","Clear"
"1989-12-09 02:00","1989","12","09","02:00","-13.5","","-15.6","","84","","33","","6","","25.0","","100.27","","","","-18","","Clear"
"1989-12-09 03:00","1989","12","09","03:00","-13.6","","-15.6","","85","","33","","4","","25.0","","100.27","","","","-16","","Clear"
"1989-12-09 04:00","1989","12","09","04:00","-14.0","","-16.2","","83","","34","","9","","25.0","","100.31","","","","-20","","Clear"
"1989-12-09 05:00","1989","12","09","05:00","-14.4","","-16.2","","86","","35","","7","","25.0","","100.31","","","","-19","","Clear"
"1989-12-09 06:00","1989","12","09","06:00","-14.2","","-16.2","","85","","34","","6","","25.0","","100.27","","","","-18","","Clear"
"1989-12-09 07:00","1989","12","09","07:00","-13.9","","-16.2","","82","","33","","9","","25.0","","100.27","","","","-20","","Mainly Clear"
"1989-12-09 08:00","1989","12","09","08:00","-12.9","","-17.1","","71","","34","","7","","32.2","","100.17","","","","-17","","Mostly Cloudy"
"1989-12-09 09:00","1989","12","09","09:00","-10.4","","-16.4","","61","","7","","6","","32.2","","100.14","","","","-14","","Cloudy"
"1989-12-09 10:00","1989","12","09","10:00","-8.3","","-13.6","","65","","30","","4","","24.1","","100.17","","","","-10","","Mostly Cloudy"
"1989-12-09 11:00","1989","12","09","11:00","-6.1","","-12.3","","61","","","","0","","24.1","","100.07","","","","","","Mostly Cloudy"
"1989-12-09 12:00","1989","12","09","12:00","-4.5","","-12.8","","52","","","","0","","19.3","","100.01","","","","","","Cloudy"
"1989-12-09 13:00","1989","12","09","13:00","-3.8","","-9.5","","64","","15","","7","","19.3","","99.84","","","","-7","","Cloudy"
"1989-12-09 14:00","1989","12","09","14:00","-3.8","","-9.5","","64","","16","","15","","19.3","","99.81","","","","-9","","Cloudy"
"1989-12-09 15:00","1989","12","09","15:00","-3.0","","-8.1","","68","","14","","11","","24.1","","99.74","","","","-7","","Mostly Cloudy"
"1989-12-09 16:00","1989","12","09","16:00","-3.5","","-9.1","","65","","14","","17","","40.2","","99.67","","","","-9","","Mostly Cloudy"
"1989-12-09 17:00","1989","12","09","17:00","-3.9","","-9.9","","63","","12","","15","","40.2","","99.61","","","","-9","","Mostly Cloudy"
"1989-12-09 18:00","1989","12","09","18:00","-4.2","","-9.9","","64","","12","","15","","25.0","","99.57","","","","-10","","Mainly Clear"
"1989-12-09 19:00","1989","12","09","19:00","-4.0","","-9.5","","65","","11","","13","","25.0","","99.47","","","","-9","","Mostly Cloudy"
"1989-12-09 20:00","1989","12","09","20:00","-3.5","","-8.8","","67","","12","","17","","25.0","","99.37","","","","-9","","Cloudy"
"1989-12-09 21:00","1989","12","09","21:00","-4.0","","-9.5","","65","","13","","15","","25.0","","99.31","","","","-9","","Mostly Cloudy"
"1989-12-09 22:00","1989","12","09","22:00","-3.3","","-9.1","","64","","14","","11","","25.0","","99.24","","","","-8","","Cloudy"
"1989-12-09 23:00","1989","12","09","23:00","-3.0","","-8.1","","68","","13","","13","","25.0","","99.14","","","","-8","","Cloudy"
"1989-12-10 00:00","1989","12","10","00:00","-3.1","","-7.7","","70","","13","","9","","25.0","","99.11","","","","-7","","Cloudy"
"1989-12-10 01:00","1989","12","10","01:00","-2.7","","-7.0","","72","","14","","9","","14.5","","99.04","","","","-6","","Snow"
"1989-12-10 02:00","1989","12","10","02:00","-2.8","","-6.7","","74","","15","","7","","24.1","","99.04","","","","-6","","Cloudy"
"1989-12-10 03:00","1989","12","10","03:00","-2.1","","-7.0","","69","","18","","9","","19.3","","99.01","","","","-6","","Cloudy"
"1989-12-10 04:00","1989","12","10","04:00","-2.2","","-7.7","","66","","17","","15","","19.3","","98.91","","","","-7","","Cloudy"
"1989-12-10 05:00","1989","12","10","05:00","-1.9","","-7.0","","68","","17","","13","","19.3","","98.84","","","","-6","","Cloudy"
"1989-12-10 06:00","1989","12","10","06:00","-1.6","","-5.7","","73","","20","","15","","19.3","","98.84","","","","-6","","Cloudy"
"1989-12-10 07:00","1989","12","10","07:00","-1.9","","-5.4","","77","","22","","7","","16.1","","98.81","","","","-5","","Cloudy"
"1989-12-10 08:00","1989","12","10","08:00","-2.0","","-5.1","","79","","22","","9","","19.3","","98.81","","","","-5","","Cloudy"
"1989-12-10 09:00","1989","12","10","09:00","-1.8","","-5.1","","78","","22","","11","","16.1","","98.87","","","","-6","","Cloudy"
"1989-12-10 10:00","1989","12","10","10:00","-1.0","","-4.1","","79","","24","","11","","9.7","","98.91","","","","-5","","Snow Showers"
"1989-12-10 11:00","1989","12","10","11:00","-0.5","","-3.8","","78","","23","","19","","11.3","","98.87","","","","-6","","Cloudy"
"1989-12-10 12:00","1989","12","10","12:00","0.4","","-3.2","","77","","25","","24","","16.1","","98.84","","","","","","Cloudy"
"1989-12-10 13:00","1989","12","10","13:00","0.8","","-2.4","","79","","26","","22","","12.9","","98.81","","","","","","Mostly Cloudy"
"1989-12-10 14:00","1989","12","10","14:00","0.7","","-3.1","","75","","25","","22","","16.1","","98.84","","","","","","Cloudy"
"1989-12-10 15:00","1989","12","10","15:00","0.5","","-3.7","","73","","26","","24","","16.1","","98.87","","","","","","Cloudy"
"1989-12-10 16:00","1989","12","10","16:00","-0.2","","-4.6","","72","","30","","28","","16.1","","98.97","","","","-7","","Cloudy"
"1989-12-10 17:00","1989","12","10","17:00","-1.0","","-5.0","","74","","30","","24","","16.1","","99.07","","","","-7","","Cloudy"
"1989-12-10 18:00","1989","12","10","18:00","-1.5","","-5.7","","73","","30","","22","","16.1","","99.17","","","","-7","","Cloudy"
"1989-12-10 19:00","1989","12","10","19:00","-2.0","","-6.7","","70","","29","","28","","24.1","","99.27","","","","-9","","Mostly Cloudy"
"1989-12-10 20:00","1989","12","10","20:00","-2.8","","-8.1","","67","","26","","15","","25.0","","99.21","","","","-8","","Mostly Cloudy"
"1989-12-10 21:00","1989","12","10","21:00","-3.2","","-7.7","","71","","27","","19","","25.0","","99.24","","","","-9","","Mostly Cloudy"
"1989-12-10 22:00","1989","12","10","22:00","-2.8","","-7.7","","69","","27","","15","","25.0","","99.31","","","","-8","","Mostly Cloudy"
"1989-12-10 23:00","1989","12","10","23:00","-2.7","","-7.4","","70","","26","","15","","25.0","","99.27","","","","-8","","Mostly Cloudy"
"1989-12-11 00:00","1989","12","11","00:00","-2.8","","-7.4","","70","","27","","13","","25.0","","99.27","","","","-7","","Mostly Cloudy"
"1989-12-11 01:00","1989","12","11","01:00","-2.9","","-7.4","","71","","28","","15","","25.0","","99.31","","","","-8","","Mostly Cloudy"
"1989-12-11 02:00","1989","12","11","02:00","-2.5","","-6.4","","75","","30","","15","","25.0","","99.34","","","","-7","","Cloudy"
"1989-12-11 03:00","1989","12","11","03:00","-2.5","","-6.4","","75","","32","","13","","25.0","","99.34","","","","-7","","Cloudy"
"1989-12-11 04:00","1989","12","11","04:00","-3.0","","-6.0","","80","","33","","15","","25.0","","99.34","","","","-8","","Cloudy"
"1989-12-11 05:00","1989","12","11","05:00","-3.9","","-7.3","","77","","36","","19","","19.3","","99.34","","","","-10","","Snow"
"1989-12-11 06:00","1989","12","11","06:00","-4.4","","-7.6","","78","","35","","15","","25.0","","99.37","","","","-10","","Cloudy"
"1989-12-11 07:00","1989","12","11","07:00","-4.8","","-7.9","","79","","35","","15","","25.0","","99.37","","","","-10","","Snow"
"1989-12-11 08:00","1989","12","11","08:00","-4.9","","-7.5","","82","","35","","20","","24.1","","99.47","","","","-11","","Cloudy"
"1989-12-11 09:00","1989","12","11","09:00","-5.0","","-8.2","","78","","1","","19","","19.3","","99.47","","","","-11","","Snow"
"1989-12-11 10:00","1989","12","11","10:00","-5.0","","-7.5","","83","","35","","28","","6.4","","99.51","","","","-13","","Snow"
"1989-12-11 11:00","1989","12","11","11:00","-6.2","","-10.3","","73","","33","","24","","16.1","","99.57","","","","-14","","Snow"
"1989-12-11 12:00","1989","12","11","12:00","-6.2","","-9.1","","80","","33","","24","","12.9","","99.54","","","","-14","","Snow"
"1989-12-11 13:00","1989","12","11","13:00","-6.8","","-10.4","","75","","34","","19","","12.9","","99.57","","","","-14","","Snow"
"1989-12-11 14:00","1989","12","11","14:00","-6.5","","-10.9","","71","","33","","17","","19.3","","99.51","","","","-13","","Snow"
"1989-12-11 15:00","1989","12","11","15:00","-6.2","","-10.3","","73","","32","","20","","32.2","","99.57","","","","-13","","Mostly Cloudy"
"1989-12-11 16:00","1989","12","11","16:00","-7.0","","-11.6","","69","","33","","20","","32.2","","99.57","","","","-14","","Mostly Cloudy"
"1989-12-11 17:00","1989","12","11","17:00","-8.0","","-12.5","","70","","36","","19","","25.0","","99.61","","","","-15","","Mostly Cloudy"
"1989-12-11 18:00","1989","12","11","18:00","-8.6","","-12.7","","72","","34","","13","","25.0","","99.67","","","","-15","","Mostly Cloudy"
"1989-12-11 19:00","1989","12","11","19:00","-9.5","","-13.1","","75","","35","","15","","25.0","","99.71","","","","-16","","Clear"
"1989-12-11 20:00","1989","12","11","20:00","-10.5","","-14.4","","73","","34","","9","","25.0","","99.74","","","","-15","","Clear"
"1989-12-11 21:00","1989","12","11","21:00","-12.0","","-14.8","","80","","33","","11","","25.0","","99.77","","","","-18","","Clear"
"1989-12-11 22:00","1989","12","11","22:00","-12.7","","-14.5","","86","","32","","11","","25.0","","99.77","","","","-19","","Clear"
"1989-12-11 23:00","1989","12","11","23:00","-13.0","","-15.5","","81","","32","","13","","25.0","","99.81","","","","-20","","Clear"
"1989-12-12 00:00","1989","12","12","00:00","-12.9","","-15.0","","84","","33","","7","","25.0","","99.77","","","","-17","","Clear"
"1989-12-12 01:00","1989","12","12","01:00","-13.9","","-16.2","","82","","32","","9","","25.0","","99.77","","","","-20","","Mainly Clear"
"1989-12-12 02:00","1989","12","12","02:00","-13.8","","-15.7","","85","","34","","9","","25.0","","99.77","","","","-19","","Mostly Cloudy"
"1989-12-12 03:00","1989","12","12","03:00","-13.9","","-16.2","","82","","33","","6","","25.0","","99.77","","","","-18","","Clear"
"1989-12-12 04:00","1989","12","12","04:00","-13.8","","-16.2","","82","","","","0","","25.0","","99.81","","","","","","Clear"
"1989-12-12 05:00","1989","12","12","05:00","-13.9","","-16.2","","82","","33","","6","","25.0","","99.77","","","","-18","","Mainly Clear"
"1989-12-12 06:00","1989","12","12","06:00","-13.3","","-15.6","","83","","","","0","","25.0","","99.74","","","","","","Mostly Cloudy"
"1989-12-12 07:00","1989","12","12","07:00","-13.0","","-14.6","","88","","32","","11","","25.0","","99.74","","","","-19","","Mostly Cloudy"
"1989-12-12 08:00","1989","12","12","08:00","-13.5","","-15.1","","88","","26","","4","","19.3","","99.81","","","","-16","","Mostly Cloudy"
"1989-12-12 09:00","1989","12","12","09:00","-12.4","","-14.9","","81","","32","","6","","19.3","","99.81","","","","-16","","Cloudy"
"1989-12-12 10:00","1989","12","12","10:00","-9.5","","-11.4","","86","","2","","4","","16.1","","99.81","","","","-12","","Snow Showers"
"1989-12-12 11:00","1989","12","12","11:00","-8.1","","-13.4","","66","","","","0","","19.3","","99.81","","","","","","Cloudy"
"1989-12-12 12:00","1989","12","12","12:00","-7.1","","-12.4","","66","","5","","7","","16.1","","99.64","","","","-11","","Cloudy"
"1989-12-12 13:00","1989","12","12","13:00","-6.5","","-9.4","","80","","","","0","","1.2","","99.64","","","","","","Snow"
"1989-12-12 14:00","1989","12","12","14:00","-5.9","","-9.5","","75","","12","","4","","1.6","","99.67","","","","-8","","Snow"
"1989-12-12 15:00","1989","12","12","15:00","-5.8","","-9.1","","77","","","","0","","1.6","","99.61","","","","","","Snow"
"1989-12-12 16:00","1989","12","12","16:00","-6.2","","-8.1","","86","","5","","6","","4.0","","99.64","","","","-9","","Snow Showers"
"1989-12-12 17:00","1989","12","12","17:00","-6.5","","-8.7","","84","","2","","11","","3.6","","99.64","","","","-11","","Snow Showers"
"1989-12-12 18:00","1989","12","12","18:00","-7.4","","-8.4","","93","","2","","15","","3.6","","99.64","","","","-14","","Snow"
"1989-12-12 19:00","1989","12","12","19:00","-7.7","","-9.1","","90","","2","","15","","4.8","","99.64","","","","-14","","Snow Showers"
"1989-12-12 20:00","1989","12","12","20:00","-9.0","","-10.5","","89","","35","","13","","3.6","","99.71","","","","-15","","Snow Showers"
"1989-12-12 21:00","1989","12","12","21:00","-9.6","","-11.1","","89","","35","","17","","4.0","","99.74","","","","-17","","Snow"
"1989-12-12 22:00","1989","12","12","22:00","-9.7","","-11.8","","85","","35","","20","","4.0","","99.71","","","","-17","","Snow"
"1989-12-12 23:00","1989","12","12","23:00","-9.7","","-11.8","","85","","36","","19","","4.0","","99.71","","","","-17","","Snow"
"1989-12-13 00:00","1989","12","13","00:00","-10.2","","-12.4","","84","","36","","15","","11.3","","99.67","","","","-17","","Snow Showers"
"1989-12-13 01:00","1989","12","13","01:00","-10.6","","-13.0","","82","","34","","15","","19.3","","99.67","","","","-17","","Mostly Cloudy"
"1989-12-13 02:00","1989","12","13","02:00","-11.3","","-14.2","","79","","34","","15","","19.3","","99.71","","","","-18","","Snow Showers"
"1989-12-13 03:00","1989","12","13","03:00","-11.0","","-14.5","","75","","36","","9","","19.3","","99.71","","","","-16","","Mostly Cloudy"
"1989-12-13 04:00","1989","12","13","04:00","-11.0","","-14.5","","75","","1","","11","","19.3","","99.71","","","","-17","","Cloudy"
"1989-12-13 05:00","1989","12","13","05:00","-11.4","","-14.7","","76","","2","","11","","25.0","","99.67","","","","-17","","Mostly Cloudy"
"1989-12-13 06:00","1989","12","13","06:00","-11.6","","-14.7","","78","","36","","17","","25.0","","99.71","","","","-19","","Mostly Cloudy"
"1989-12-13 07:00","1989","12","13","07:00","-11.9","","-15.3","","76","","2","","17","","25.0","","99.71","","","","-20","","Mostly Cloudy"
"1989-12-13 08:00","1989","12","13","08:00","-11.5","","-13.3","","87","","35","","11","","24.1","","99.81","","","","-17","","Mostly Cloudy"
"1989-12-13 09:00","1989","12","13","09:00","-11.8","","-14.3","","82","","34","","15","","24.1","","99.77","","","","-19","","Mostly Cloudy"
"1989-12-13 10:00","1989","12","13","10:00","-12.5","","-15.4","","79","","36","","15","","32.2","","99.81","","","","-20","","Mostly Cloudy"
"1989-12-13 11:00","1989","12","13","11:00","-11.4","","-15.2","","73","","35","","11","","32.2","","99.77","","","","-17","","Mostly Cloudy"
"1989-12-13 12:00","1989","12","13","12:00","-10.4","","-14.9","","69","","33","","9","","32.2","","99.71","","","","-15","","Mostly Cloudy"
"1989-12-13 13:00","1989","12","13","13:00","-10.4","","-15.9","","64","","34","","7","","32.2","","99.71","","","","-14","","Cloudy"
"1989-12-13 14:00","1989","12","13","14:00","-8.9","","-13.6","","68","","4","","7","","32.2","","99.64","","","","-13","","Cloudy"
"1989-12-13 15:00","1989","12","13","15:00","-9.2","","-13.8","","69","","34","","9","","32.2","","99.61","","","","-14","","Mostly Cloudy"
"1989-12-13 16:00","1989","12","13","16:00","-11.0","","-15.5","","69","","33","","17","","32.2","","99.67","","","","-18","","Mainly Clear"
"1989-12-13 17:00","1989","12","13","17:00","-12.8","","-16.5","","74","","34","","17","","25.0","","99.71","","","","-21","","Mainly Clear"
"1989-12-13 18:00","1989","12","13","18:00","-13.1","","-17.1","","72","","36","","19","","25.0","","99.71","","","","-22","","Mostly Cloudy"
"1989-12-13 19:00","1989","12","13","19:00","-13.6","","-17.7","","71","","36","","13","","25.0","","99.74","","","","-21","","Mostly Cloudy"
"1989-12-13 20:00","1989","12","13","20:00","-14.6","","-17.8","","77","","35","","11","","25.0","","99.77","","","","-21","","Mostly Cloudy"
"1989-12-13 21:00","1989","12","13","21:00","-14.6","","-17.8","","77","","35","","11","","25.0","","99.74","","","","-21","","Mostly Cloudy"
"1989-12-13 22:00","1989","12","13","22:00","-14.9","","-17.8","","79","","34","","13","","25.0","","99.74","","","","-22","","Mostly Cloudy"
"1989-12-13 23:00","1989","12","13","23:00","-16.0","","-19.0","","78","","33","","13","","25.0","","99.77","","","","-24","","Mainly Clear"
"1989-12-14 00:00","1989","12","14","00:00","-16.4","","-19.6","","76","","33","","9","","25.0","","99.77","","","","-22","","Mainly Clear"
"1989-12-14 01:00","1989","12","14","01:00","-16.8","","-20.2","","75","","34","","11","","25.0","","99.74","","","","-24","","Mainly Clear"
"1989-12-14 02:00","1989","12","14","02:00","-17.0","","-20.2","","76","","33","","13","","25.0","","99.71","","","","-25","","Mostly Cloudy"
"1989-12-14 03:00","1989","12","14","03:00","-16.6","","-19.6","","78","","34","","15","","25.0","","99.71","","","","-25","","Mostly Cloudy"
"1989-12-14 04:00","1989","12","14","04:00","-16.6","","-19.6","","78","","35","","11","","25.0","","99.67","","","","-24","","Mostly Cloudy"
"1989-12-14 05:00","1989","12","14","05:00","-16.5","","-20.3","","73","","36","","15","","25.0","","99.64","","","","-25","","Mostly Cloudy"
"1989-12-14 06:00","1989","12","14","06:00","-17.6","","-20.8","","76","","33","","15","","25.0","","99.61","","","","-26","","Mostly Cloudy"
"1989-12-14 07:00","1989","12","14","07:00","-16.4","","-20.3","","72","","36","","19","","16.1","","99.61","","","","-26","","Mostly Cloudy"
"1989-12-14 08:00","1989","12","14","08:00","-15.7","","-19.7","","71","","35","","13","","16.1","","99.64","","","","-23","","Cloudy"
"1989-12-14 09:00","1989","12","14","09:00","-14.8","","-17.8","","78","","36","","11","","6.4","","99.64","","","","-21","","Snow"
"1989-12-14 10:00","1989","12","14","10:00","-14.1","","-15.7","","88","","35","","13","","4.0","","99.64","","","","-21","","Snow"
"1989-12-14 11:00","1989","12","14","11:00","-12.3","","-15.4","","77","","2","","11","","11.3","","99.61","","","","-18","","Snow"
"1989-12-14 12:00","1989","12","14","12:00","-11.0","","-14.5","","75","","4","","13","","11.3","","99.54","","","","-17","","Snow Showers"
"1989-12-14 13:00","1989","12","14","13:00","-10.9","","-14.1","","77","","5","","13","","6.4","","99.47","","","","-17","","Snow Showers"
"1989-12-14 14:00","1989","12","14","14:00","-11.0","","-13.2","","84","","4","","15","","3.2","","99.44","","","","-18","","Snow Showers"
"1989-12-14 15:00","1989","12","14","15:00","-10.5","","-13.0","","82","","4","","17","","3.2","","99.44","","","","-18","","Snow Showers"
"1989-12-14 16:00","1989","12","14","16:00","-10.1","","-12.9","","80","","3","","19","","6.4","","99.47","","","","-18","","Snow Showers"
"1989-12-14 17:00","1989","12","14","17:00","-11.7","","-14.2","","82","","3","","20","","4.8","","99.47","","","","-20","","Snow"
"1989-12-14 18:00","1989","12","14","18:00","-11.6","","-13.8","","84","","3","","19","","8.0","","99.47","","","","-20","","Snow"
"1989-12-14 19:00","1989","12","14","19:00","-10.7","","-13.5","","80","","2","","15","","6.4","","99.51","","","","-18","","Snow"
"1989-12-14 20:00","1989","12","14","20:00","-10.2","","-12.4","","84","","1","","13","","4.8","","99.57","","","","-16","","Snow"
"1989-12-14 21:00","1989","12","14","21:00","-10.5","","-13.0","","82","","1","","17","","6.4","","99.54","","","","-18","","Snow"
"1989-12-14 22:00","1989","12","14","22:00","-10.5","","-12.6","","84","","1","","11","","4.8","","99.57","","","","-16","","Snow"
"1989-12-14 23:00","1989","12","14","23:00","-11.2","","-13.6","","82","","32","","11","","4.8","","99.64","","","","-17","","Snow"
"1989-12-15 00:00","1989","12","15","00:00","-12.5","","-14.0","","88","","34","","13","","4.8","","99.57","","","","-19","","Snow Showers"
"1989-12-15 01:00","1989","12","15","01:00","-12.8","","-14.6","","86","","32","","11","","6.4","","99.57","","","","-19","","Snow Showers"
"1989-12-15 02:00","1989","12","15","02:00","-12.6","","-14.5","","86","","30","","11","","6.4","","99.64","","","","-19","","Snow Showers"
"1989-12-15 03:00","1989","12","15","03:00","-12.6","","-14.9","","83","","33","","9","","9.7","","99.64","","","","-18","","Snow Showers"
"1989-12-15 04:00","1989","12","15","04:00","-13.5","","-15.1","","88","","33","","7","","14.5","","99.67","","","","-18","","Snow Showers"
"1989-12-15 05:00","1989","12","15","05:00","-12.6","","-14.5","","86","","29","","4","","16.1","","99.64","","","","-15","","Snow Showers"
"1989-12-15 06:00","1989","12","15","06:00","-12.9","","-14.6","","87","","1","","7","","9.7","","99.61","","","","-17","","Snow Showers"
"1989-12-15 07:00","1989","12","15","07:00","-14.4","","-16.2","","86","","","","0","","12.9","","99.57","","","","","","Mainly Clear"
"1989-12-15 08:00","1989","12","15","08:00","-15.9","","-17.9","","85","","","","0","","9.7","","99.61","","","","","","Fog"
"1989-12-15 09:00","1989","12","15","09:00","-15.9","","-17.3","","89","","33","","6","","4.8","","99.57","","","","-20","","Fog"
"1989-12-15 10:00","1989","12","15","10:00","-12.0","","-13.4","","89","","36","","7","","4.8","","99.47","","","","-16","","Fog"
"1989-12-15 11:00","1989","12","15","11:00","-10.7","","-11.8","","92","","35","","7","","4.8","","99.37","","","","-15","","Fog"
"1989-12-15 12:00","1989","12","15","12:00","-8.5","","-10.7","","84","","6","","13","","2.4","","99.17","","","","-14","","Snow Showers"
"1989-12-15 13:00","1989","12","15","13:00","-9.1","","-10.1","","92","","5","","17","","0.6","","99.04","","","","-16","","Moderate Snow Showers"
"1989-12-15 14:00","1989","12","15","14:00","-8.5","","-10.3","","87","","4","","22","","3.2","","98.94","","","","-16","","Snow Showers"
"1989-12-15 15:00","1989","12","15","15:00","-9.1","","-10.9","","87","","4","","26","","1.6","","98.84","","","","-18","","Snow Showers"
"1989-12-15 16:00","1989","12","15","16:00","-9.1","","-10.9","","87","","2","","22","","1.2","","98.71","","","","-17","","Snow"
"1989-12-15 17:00","1989","12","15","17:00","-9.6","","-11.4","","87","","1","","24","","0.6","","98.67","","","","-18","","Moderate Snow"
"1989-12-15 18:00","1989","12","15","18:00","-10.3","","-11.4","","92","","36","","30","","1.2","","98.74","","","","-20","","Snow"
"1989-12-15 19:00","1989","12","15","19:00","-10.2","","-12.4","","84","","36","","26","","1.2","","98.64","","","","-19","","Snow"
"1989-12-15 20:00","1989","12","15","20:00","-10.1","","-12.0","","86","","1","","35","","1.2","","98.61","","","","-20","","Snow"
"1989-12-15 21:00","1989","12","15","21:00","-10.2","","-12.0","","87","","36","","31","","1.6","","98.61","","","","-20","","Snow"
"1989-12-15 22:00","1989","12","15","22:00","-10.0","","-11.6","","88","","35","","30","","1.6","","98.67","","","","-20","","Snow"
"1989-12-15 23:00","1989","12","15","23:00","-10.1","","-12.0","","86","","34","","28","","8.0","","98.67","","","","-19","","Snow"
"1989-12-16 00:00","1989","12","16","00:00","-10.6","","-12.2","","88","","35","","30","","6.4","","98.74","","","","-20","","Snow"
"1989-12-16 01:00","1989","12","16","01:00","-10.9","","-13.6","","80","","33","","30","","11.3","","98.81","","","","-21","","Snow"
"1989-12-16 02:00","1989","12","16","02:00","-11.0","","-13.2","","84","","32","","24","","16.1","","98.87","","","","-20","","Snow"
"1989-12-16 03:00","1989","12","16","03:00","-10.9","","-14.1","","77","","32","","24","","25.0","","98.97","","","","-20","","Cloudy"
"1989-12-16 04:00","1989","12","16","04:00","-10.7","","-13.9","","77","","32","","22","","25.0","","99.04","","","","-19","","Cloudy"
"1989-12-16 05:00","1989","12","16","05:00","-11.1","","-14.1","","78","","34","","22","","25.0","","99.11","","","","-20","","Cloudy"
"1989-12-16 06:00","1989","12","16","06:00","-11.5","","-14.2","","80","","34","","19","","25.0","","99.21","","","","-20","","Cloudy"
"1989-12-16 07:00","1989","12","16","07:00","-12.3","","-15.4","","77","","32","","17","","19.3","","99.31","","","","-20","","Mostly Cloudy"
"1989-12-16 08:00","1989","12","16","08:00","-12.4","","-15.9","","75","","30","","13","","40.2","","99.34","","","","-19","","Mostly Cloudy"
"1989-12-16 09:00","1989","12","16","09:00","-13.4","","-16.6","","77","","33","","9","","40.2","","99.34","","","","-19","","Mainly Clear"
"1989-12-16 10:00","1989","12","16","10:00","-11.7","","-15.7","","72","","26","","7","","40.2","","99.37","","","","-16","","Clear"
"1989-12-16 11:00","1989","12","16","11:00","-9.6","","-16.1","","59","","28","","22","","40.2","","99.41","","","","-18","","Mostly Cloudy"
"1989-12-16 12:00","1989","12","16","12:00","-8.6","","-13.6","","67","","29","","22","","40.2","","99.37","","","","-16","","Clear"
"1989-12-16 13:00","1989","12","16","13:00","-7.8","","-14.8","","57","","28","","24","","40.2","","99.37","","","","-16","","Mainly Clear"
"1989-12-16 14:00","1989","12","16","14:00","-7.8","","-14.8","","57","","28","","22","","40.2","","99.37","","","","-15","","Mainly Clear"
"1989-12-16 15:00","1989","12","16","15:00","-7.9","","-13.9","","62","","29","","22","","32.2","","99.41","","","","-16","","Mostly Cloudy"
"1989-12-16 16:00","1989","12","16","16:00","-7.9","","-12.1","","72","","29","","24","","32.2","","99.54","","","","-16","","Mostly Cloudy"
"1989-12-16 17:00","1989","12","16","17:00","-8.0","","-11.6","","75","","28","","17","","25.0","","99.57","","","","-15","","Cloudy"
"1989-12-16 18:00","1989","12","16","18:00","-7.5","","-10.2","","81","","25","","15","","9.7","","99.61","","","","-14","","Snow Showers"
"1989-12-16 19:00","1989","12","16","19:00","-8.0","","-12.1","","72","","26","","26","","25.0","","99.61","","","","-16","","Cloudy"
"1989-12-16 20:00","1989","12","16","20:00","-7.8","","-12.1","","71","","25","","33","","25.0","","99.61","","","","-17","","Cloudy"
"1989-12-16 21:00","1989","12","16","21:00","-7.5","","-11.4","","74","","25","","28","","25.0","","99.61","","","","-16","","Cloudy"
"1989-12-16 22:00","1989","12","16","22:00","-7.5","","-11.8","","71","","25","","26","","25.0","","99.67","","","","-16","","Cloudy"
"1989-12-16 23:00","1989","12","16","23:00","-7.4","","-11.4","","73","","25","","28","","25.0","","99.74","","","","-16","","Cloudy"
"1989-12-17 00:00","1989","12","17","00:00","-8.0","","-12.1","","72","","25","","28","","25.0","","99.67","","","","-17","","Mostly Cloudy"
"1989-12-17 01:00","1989","12","17","01:00","-8.1","","-12.1","","73","","25","","30","","25.0","","99.71","","","","-17","","Mainly Clear"
"1989-12-17 02:00","1989","12","17","02:00","-8.6","","-12.7","","72","","24","","26","","25.0","","99.71","","","","-17","","Clear"
"1989-12-17 03:00","1989","12","17","03:00","-9.9","","-12.9","","79","","23","","26","","25.0","","99.81","","","","-19","","Clear"
"1989-12-17 04:00","1989","12","17","04:00","-10.0","","-13.3","","77","","24","","26","","25.0","","99.87","","","","-19","","Mainly Clear"
"1989-12-17 05:00","1989","12","17","05:00","-10.9","","-14.1","","77","","24","","28","","25.0","","99.84","","","","-20","","Mainly Clear"
"1989-12-17 06:00","1989","12","17","06:00","-10.7","","-13.0","","83","","24","","28","","25.0","","99.91","","","","-20","","Mainly Clear"
"1989-12-17 07:00","1989","12","17","07:00","-10.7","","-13.5","","80","","24","","30","","25.0","","99.91","","","","-20","","Clear"
"1989-12-17 08:00","1989","12","17","08:00","-11.4","","-14.2","","79","","25","","31","","32.2","","99.94","","","","-21","","Mainly Clear"
"1989-12-17 09:00","1989","12","17","09:00","-11.2","","-14.5","","77","","25","","31","","24.1","","100.01","","","","-21","","Mainly Clear"
"1989-12-17 10:00","1989","12","17","10:00","-9.5","","-13.6","","72","","25","","22","","32.2","","100.01","","","","-18","","Mostly Cloudy"
"1989-12-17 11:00","1989","12","17","11:00","-8.0","","-12.9","","68","","23","","19","","32.2","","100.04","","","","-15","","Clear"
"1989-12-17 12:00","1989","12","17","12:00","-7.5","","-13.6","","61","","24","","19","","40.2","","99.97","","","","-15","","Mainly Clear"
"1989-12-17 13:00","1989","12","17","13:00","-7.3","","-14.1","","58","","26","","19","","40.2","","99.91","","","","-14","","Mainly Clear"
"1989-12-17 14:00","1989","12","17","14:00","-7.7","","-14.1","","60","","23","","19","","40.2","","99.91","","","","-15","","Mostly Cloudy"
"1989-12-17 15:00","1989","12","17","15:00","-7.9","","-13.9","","62","","23","","19","","40.2","","99.94","","","","-15","","Mostly Cloudy"
"1989-12-17 16:00","1989","12","17","16:00","-8.8","","-14.3","","64","","25","","17","","40.2","","99.97","","","","-16","","Mostly Cloudy"
"1989-12-17 17:00","1989","12","17","17:00","-10.1","","-14.7","","69","","24","","13","","25.0","","99.97","","","","-16","","Mostly Cloudy"
"1989-12-17 18:00","1989","12","17","18:00","-10.6","","-15.4","","68","","23","","15","","25.0","","100.01","","","","-17","","Cloudy"
"1989-12-17 19:00","1989","12","17","19:00","-11.2","","-15.5","","71","","23","","13","","25.0","","100.07","","","","-18","","Mostly Cloudy"
"1989-12-17 20:00","1989","12","17","20:00","-11.4","","-15.7","","70","","23","","17","","25.0","","100.07","","","","-19","","Mostly Cloudy"
"1989-12-17 21:00","1989","12","17","21:00","-11.7","","-15.7","","72","","24","","19","","25.0","","100.04","","","","-20","","Mostly Cloudy"
"1989-12-17 22:00","1989","12","17","22:00","-12.2","","-16.3","","72","","25","","20","","25.0","","100.04","","","","-21","","Mostly Cloudy"
"1989-12-17 23:00","1989","12","17","23:00","-12.2","","-15.8","","75","","25","","17","","25.0","","100.04","","","","-20","","Mostly Cloudy"
"1989-12-18 00:00","1989","12","18","00:00","-11.9","","-15.8","","73","","26","","19","","25.0","","100.04","","","","-20","","Mostly Cloudy"
"1989-12-18 01:00","1989","12","18","01:00","-11.7","","-15.7","","72","","25","","19","","25.0","","100.04","","","","-20","","Mostly Cloudy"
"1989-12-18 02:00","1989","12","18","02:00","-12.6","","-15.9","","76","","25","","20","","25.0","","100.07","","","","-21","","Mainly Clear"
"1989-12-18 03:00","1989","12","18","03:00","-12.6","","-15.4","","80","","24","","17","","19.3","","100.07","","","","-20","","Clear"
"1989-12-18 04:00","1989","12","18","04:00","-13.0","","-16.0","","78","","24","","17","","19.3","","100.07","","","","-21","","Clear"
"1989-12-18 05:00","1989","12","18","05:00","-13.6","","-16.1","","81","","26","","6","","19.3","","100.11","","","","-18","","Clear"
"1989-12-18 06:00","1989","12","18","06:00","-13.6","","-15.6","","85","","25","","15","","19.3","","100.17","","","","-21","","Mainly Clear"
"1989-12-18 07:00","1989","12","18","07:00","-13.5","","-15.6","","84","","24","","15","","16.1","","100.21","","","","-21","","Mostly Cloudy"
"1989-12-18 08:00","1989","12","18","08:00","-12.2","","-14.8","","81","","25","","9","","16.1","","100.21","","","","-17","","Mainly Clear"
"1989-12-18 09:00","1989","12","18","09:00","-11.0","","-14.1","","78","","25","","15","","19.3","","100.21","","","","-18","","Mostly Cloudy"
"1989-12-18 10:00","1989","12","18","10:00","-10.0","","-14.2","","71","","24","","20","","24.1","","100.27","","","","-18","","Mostly Cloudy"
"1989-12-18 11:00","1989","12","18","11:00","-8.8","","-14.3","","64","","23","","26","","32.2","","100.24","","","","-17","","Mostly Cloudy"
"1989-12-18 12:00","1989","12","18","12:00","-8.8","","-14.8","","62","","24","","20","","32.2","","100.21","","","","-16","","Clear"
"1989-12-18 13:00","1989","12","18","13:00","-8.3","","-14.1","","63","","22","","24","","32.2","","100.17","","","","-16","","Clear"
"1989-12-18 14:00","1989","12","18","14:00","-8.1","","-10.8","","81","","25","","22","","32.2","","100.17","","","","-16","","Mainly Clear"
"1989-12-18 15:00","1989","12","18","15:00","-8.7","","-15.6","","57","","25","","22","","32.2","","100.17","","","","-17","","Mostly Cloudy"
"1989-12-18 16:00","1989","12","18","16:00","-9.3","","-16.1","","57","","22","","15","","32.2","","100.21","","","","-16","","Clear"
"1989-12-18 17:00","1989","12","18","17:00","-10.1","","-15.2","","66","","24","","19","","25.0","","100.27","","","","-18","","Clear"
"1989-12-18 18:00","1989","12","18","18:00","-11.5","","-15.2","","74","","24","","17","","25.0","","100.31","","","","-19","","Clear"
"1989-12-18 19:00","1989","12","18","19:00","-12.1","","-15.3","","77","","24","","15","","19.3","","100.37","","","","-19","","Clear"
"1989-12-18 20:00","1989","12","18","20:00","-13.4","","-16.1","","80","","27","","9","","19.3","","100.37","","","","-19","","Clear"
"1989-12-18 21:00","1989","12","18","21:00","-14.1","","-16.2","","84","","25","","13","","19.3","","100.41","","","","-21","","Clear"
"1989-12-18 22:00","1989","12","18","22:00","-14.1","","-16.2","","84","","28","","7","","17.7","","100.41","","","","-19","","Clear"
"1989-12-18 23:00","1989","12","18","23:00","-14.5","","-16.2","","87","","25","","9","","16.1","","100.37","","","","-20","","Clear"
"1989-12-19 00:00","1989","12","19","00:00","-14.1","","-16.2","","84","","28","","11","","19.3","","100.34","","","","-21","","Clear"
"1989-12-19 01:00","1989","12","19","01:00","-13.9","","-16.7","","79","","28","","11","","25.0","","100.31","","","","-20","","Clear"
"1989-12-19 02:00","1989","12","19","02:00","-13.5","","-16.1","","81","","26","","7","","19.3","","100.34","","","","-18","","Mainly Clear"
"1989-12-19 03:00","1989","12","19","03:00","-13.2","","-15.0","","86","","28","","7","","19.3","","100.37","","","","-18","","Mainly Clear"
"1989-12-19 04:00","1989","12","19","04:00","-12.5","","-15.4","","79","","","","0","","19.3","","100.34","","","","","","Mostly Cloudy"
"1989-12-19 05:00","1989","12","19","05:00","-11.6","","-14.7","","78","","21","","4","","19.3","","100.27","","","","-14","","Mostly Cloudy"
"1989-12-19 06:00","1989","12","19","06:00","-12.0","","-14.3","","83","","27","","6","","19.3","","100.27","","","","-16","","Cloudy"
"1989-12-19 07:00","1989","12","19","07:00","-11.0","","-14.1","","78","","22","","4","","19.3","","100.31","","","","-13","","Cloudy"
"1989-12-19 08:00","1989","12","19","08:00","-10.3","","-13.9","","75","","26","","9","","16.1","","100.27","","","","-15","","Cloudy"
"1989-12-19 09:00","1989","12","19","09:00","-9.9","","-12.9","","79","","23","","6","","12.9","","100.24","","","","-13","","Cloudy"
"1989-12-19 10:00","1989","12","19","10:00","-9.4","","-13.1","","74","","24","","7","","12.9","","100.21","","","","-13","","Cloudy"
"1989-12-19 11:00","1989","12","19","11:00","-8.5","","-12.3","","74","","27","","6","","12.9","","100.17","","","","-12","","Cloudy"
"1989-12-19 12:00","1989","12","19","12:00","-7.7","","-11.8","","73","","","","0","","11.3","","100.04","","","","","","Cloudy"
"1989-12-19 13:00","1989","12","19","13:00","-7.5","","-11.8","","71","","","","0","","11.3","","99.91","","","","","","Cloudy"
"1989-12-19 14:00","1989","12","19","14:00","-7.0","","-11.6","","69","","","","0","","4.8","","99.84","","","","","","Snow"
"1989-12-19 15:00","1989","12","19","15:00","-7.0","","-10.8","","74","","","","0","","6.4","","99.81","","","","","","Snow"
"1989-12-19 16:00","1989","12","19","16:00","-7.2","","-9.3","","85","","25","","4","","2.8","","99.81","","","","-9","","Snow"
"1989-12-19 17:00","1989","12","19","17:00","-8.0","","-9.0","","92","","","","0","","4.0","","99.77","","","","","","Snow"
"1989-12-19 18:00","1989","12","19","18:00","-8.0","","-9.3","","90","","","","0","","8.0","","99.74","","","","","","Snow"
"1989-12-19 19:00","1989","12","19","19:00","-9.1","","-10.9","","87","","26","","6","","11.3","","99.77","","","","-12","","Snow"
"1989-12-19 20:00","1989","12","19","20:00","-10.1","","-11.6","","89","","26","","6","","8.0","","99.74","","","","-14","","Snow"
"1989-12-19 21:00","1989","12","19","21:00","-10.7","","-11.8","","92","","25","","4","","14.5","","99.71","","","","-13","","Snow"
"1989-12-19 22:00","1989","12","19","22:00","-10.5","","-12.2","","87","","25","","6","","12.9","","99.67","","","","-14","","Snow"
"1989-12-19 23:00","1989","12","19","23:00","-10.3","","-12.6","","83","","","","0","","12.9","","99.64","","","","","","Cloudy"
"1989-12-20 00:00","1989","12","20","00:00","-9.0","","-12.5","","76","","24","","13","","12.9","","99.61","","","","-15","","Cloudy"
"1989-12-20 01:00","1989","12","20","01:00","-9.4","","-13.1","","74","","25","","7","","12.9","","99.57","","","","-13","","Mostly Cloudy"
"1989-12-20 02:00","1989","12","20","02:00","-9.2","","-12.1","","79","","26","","13","","16.1","","99.54","","","","-15","","Mostly Cloudy"
"1989-12-20 03:00","1989","12","20","03:00","-9.1","","-12.5","","76","","26","","15","","16.1","","99.57","","","","-16","","Mostly Cloudy"
"1989-12-20 04:00","1989","12","20","04:00","-10.5","","-14.1","","75","","24","","13","","19.3","","99.57","","","","-17","","Mostly Cloudy"
"1989-12-20 05:00","1989","12","20","05:00","-10.7","","-13.9","","77","","28","","28","","24.1","","99.61","","","","-20","","Mostly Cloudy"
"1989-12-20 06:00","1989","12","20","06:00","-12.0","","-15.3","","76","","27","","19","","25.0","","99.64","","","","-20","","Mainly Clear"
"1989-12-20 07:00","1989","12","20","07:00","-13.1","","-16.0","","79","","26","","22","","25.0","","99.71","","","","-22","","Mainly Clear"
"1989-12-20 08:00","1989","12","20","08:00","-12.6","","-15.4","","80","","26","","24","","24.1","","99.71","","","","-22","","Mainly Clear"
"1989-12-20 09:00","1989","12","20","09:00","-12.3","","-16.4","","71","","25","","24","","32.2","","99.71","","","","-22","","Clear"
"1989-12-20 10:00","1989","12","20","10:00","-12.4","","-17.0","","68","","25","","30","","40.2","","99.74","","","","-23","","Clear"
"1989-12-20 11:00","1989","12","20","11:00","-12.4","","-18.1","","62","","25","","31","","40.2","","99.77","","","","-23","","Clear"
"1989-12-20 12:00","1989","12","20","12:00","-12.1","","-18.0","","61","","25","","39","","40.2","","99.77","","","","-23","","Clear"
"1989-12-20 13:00","1989","12","20","13:00","-11.6","","-16.7","","66","","26","","30","","40.2","","99.71","","","","-22","","Clear"
"1989-12-20 14:00","1989","12","20","14:00","-12.0","","-16.9","","67","","25","","33","","40.2","","99.71","","","","-23","","Clear"
"1989-12-20 15:00","1989","12","20","15:00","-12.2","","-17.4","","65","","25","","33","","40.2","","99.77","","","","-23","","Clear"
"1989-12-20 16:00","1989","12","20","16:00","-13.2","","-18.2","","66","","25","","31","","40.2","","99.77","","","","-24","","Mainly Clear"
"1989-12-20 17:00","1989","12","20","17:00","-13.7","","-18.9","","65","","25","","28","","25.0","","99.81","","","","-24","","Mostly Cloudy"
"1989-12-20 18:00","1989","12","20","18:00","-13.9","","-18.4","","69","","24","","30","","25.0","","99.81","","","","-25","","Mostly Cloudy"
"1989-12-20 19:00","1989","12","20","19:00","-14.5","","-18.4","","72","","24","","28","","25.0","","99.81","","","","-25","","Mostly Cloudy"
"1989-12-20 20:00","1989","12","20","20:00","-14.5","","-18.4","","72","","23","","26","","25.0","","99.84","","","","-25","","Cloudy"
"1989-12-20 21:00","1989","12","20","21:00","-15.2","","-19.0","","73","","23","","26","","25.0","","99.81","","","","-26","","Cloudy"
"1989-12-20 22:00","1989","12","20","22:00","-15.3","","-19.0","","73","","23","","19","","25.0","","99.71","","","","-24","","Mostly Cloudy"
"1989-12-20 23:00","1989","12","20","23:00","-14.9","","-18.4","","75","","24","","20","","25.0","","99.71","","","","-24","","Cloudy"
"1989-12-21 00:00","1989","12","21","00:00","-14.0","","-17.8","","73","","25","","22","","25.0","","99.64","","","","-23","","Mostly Cloudy"
"1989-12-21 01:00","1989","12","21","01:00","-13.8","","-17.8","","72","","25","","24","","25.0","","99.57","","","","-23","","Cloudy"
"1989-12-21 02:00","1989","12","21","02:00","-13.6","","-17.2","","74","","25","","22","","25.0","","99.61","","","","-23","","Cloudy"
"1989-12-21 03:00","1989","12","21","03:00","-13.6","","-17.2","","74","","25","","22","","25.0","","99.61","","","","-23","","Cloudy"
"1989-12-21 04:00","1989","12","21","04:00","-13.8","","-17.8","","72","","24","","20","","25.0","","99.54","","","","-23","","Mostly Cloudy"
"1989-12-21 05:00","1989","12","21","05:00","-14.2","","-17.2","","78","","23","","17","","25.0","","99.51","","","","-22","","Mostly Cloudy"
"1989-12-21 06:00","1989","12","21","06:00","-15.0","","-17.8","","79","","23","","22","","25.0","","99.51","","","","-25","","Mainly Clear"
"1989-12-21 07:00","1989","12","21","07:00","-15.5","","-18.4","","78","","23","","19","","25.0","","99.51","","","","-25","","Mainly Clear"
"1989-12-21 08:00","1989","12","21","08:00","-15.9","","-18.4","","81","","27","","11","","32.2","","99.64","","","","-23","","Mainly Clear"
"1989-12-21 09:00","1989","12","21","09:00","-14.6","","-17.3","","80","","27","","17","","2.0","","99.64","","","","-23","","Snow Showers"
"1989-12-21 10:00","1989","12","21","10:00","-14.4","","-19.0","","68","","34","","22","","40.2","","99.74","","","","-24","","Mainly Clear"
"1989-12-21 11:00","1989","12","21","11:00","-14.2","","-18.4","","71","","32","","19","","40.2","","99.84","","","","-23","","Mainly Clear"
"1989-12-21 12:00","1989","12","21","12:00","-14.2","","-19.6","","64","","33","","20","","40.2","","99.87","","","","-23","","Mainly Clear"
"1989-12-21 13:00","1989","12","21","13:00","-13.9","","-23.4","","45","","32","","13","","40.2","","99.91","","","","-21","","Mainly Clear"
"1989-12-21 14:00","1989","12","21","14:00","-13.2","","-20.9","","52","","30","","13","","40.2","","99.94","","","","-20","","Mostly Cloudy"
"1989-12-21 15:00","1989","12","21","15:00","-13.0","","-21.9","","47","","29","","22","","40.2","","100.01","","","","-22","","Mostly Cloudy"
"1989-12-21 16:00","1989","12","21","16:00","-14.5","","-21.8","","54","","30","","26","","40.2","","100.11","","","","-25","","Clear"
"1989-12-21 17:00","1989","12","21","17:00","-15.1","","-22.6","","53","","28","","28","","25.0","","100.17","","","","-26","","Clear"
"1989-12-21 18:00","1989","12","21","18:00","-16.5","","-23.2","","56","","26","","26","","25.0","","100.21","","","","-27","","Clear"
"1989-12-21 19:00","1989","12","21","19:00","-17.0","","-23.1","","59","","27","","26","","25.0","","100.31","","","","-28","","Clear"
"1989-12-21 20:00","1989","12","21","20:00","-18.1","","-22.9","","66","","26","","26","","25.0","","100.37","","","","-29","","Clear"
"1989-12-21 21:00","1989","12","21","21:00","-18.2","","-22.9","","67","","26","","22","","25.0","","100.41","","","","-29","","Clear"
"1989-12-21 22:00","1989","12","21","22:00","-18.5","","-21.3","","79","","28","","19","","25.0","","100.47","","","","-28","","Mainly Clear"
"1989-12-21 23:00","1989","12","21","23:00","-19.5","","-21.7","","83","","27","","15","","25.0","","100.51","","","","-28","","Mainly Clear"
"1989-12-22 00:00","1989","12","22","00:00","-20.0","","-24.7","","66","","28","","13","","25.0","","100.54","","","","-28","","Mainly Clear"
"1989-12-22 01:00","1989","12","22","01:00","-19.5","","-24.0","","68","","33","","22","","25.0","","100.57","","","","-30","","Mainly Clear"
"1989-12-22 02:00","1989","12","22","02:00","-21.0","","-26.0","","64","","35","","17","","25.0","","100.64","","","","-31","","Mainly Clear"
"1989-12-22 03:00","1989","12","22","03:00","-22.0","","-27.3","","63","","35","","19","","25.0","","100.71","","","","-33","","Mainly Clear"
"1989-12-22 04:00","1989","12","22","04:00","-22.5","","-28.0","","61","","35","","13","","25.0","","100.74","","","","-31","","Mainly Clear"
"1989-12-22 05:00","1989","12","22","05:00","-23.6","","-29.4","","59","","34","","7","","25.0","","100.81","","","","-30","","Mainly Clear"
"1989-12-22 06:00","1989","12","22","06:00","-23.0","","-28.7","","60","","34","","24","","25.0","","100.87","","","","-35","","Mainly Clear"
"1989-12-22 07:00","1989","12","22","07:00","-24.0","","-28.8","","65","","32","","15","","25.0","","100.97","","","","-34","","Mainly Clear"
"1989-12-22 08:00","1989","12","22","08:00","-24.4","","-29.4","","63","","32","","19","","32.2","","101.04","","","","-36","","Clear"
"1989-12-22 09:00","1989","12","22","09:00","-24.1","","-30.1","","58","","32","","11","","40.2","","101.14","","","","-33","","Clear"
"1989-12-22 10:00","1989","12","22","10:00","-22.9","","-28.7","","59","","31","","15","","40.2","","101.21","","","","-33","","Clear"
"1989-12-22 11:00","1989","12","22","11:00","-21.8","","-28.5","","55","","31","","17","","40.2","","101.24","","","","-32","","Clear"
"1989-12-22 12:00","1989","12","22","12:00","-20.5","","-27.4","","54","","31","","17","","40.2","","101.27","","","","-30","","Clear"
"1989-12-22 13:00","1989","12","22","13:00","-19.3","","-25.9","","56","","34","","15","","40.2","","101.17","","","","-28","","Clear"
"1989-12-22 14:00","1989","12","22","14:00","-17.9","","-25.6","","51","","1","","19","","40.2","","101.17","","","","-28","","Clear"
"1989-12-22 15:00","1989","12","22","15:00","-16.5","","-24.1","","52","","1","","9","","40.2","","101.24","","","","-23","","Mostly Cloudy"
"1989-12-22 16:00","1989","12","22","16:00","-17.4","","-20.8","","75","","34","","13","","40.2","","101.31","","","","-25","","Mainly Clear"
"1989-12-22 17:00","1989","12","22","17:00","-18.8","","-22.6","","72","","33","","7","","25.0","","101.31","","","","-24","","Mainly Clear"
"1989-12-22 18:00","1989","12","22","18:00","-19.1","","-22.6","","74","","35","","6","","25.0","","101.37","","","","-24","","Mainly Clear"
"1989-12-22 19:00","1989","12","22","19:00","-19.2","","-21.9","","79","","34","","7","","25.0","","101.41","","","","-25","","Mainly Clear"
"1989-12-22 20:00","1989","12","22","20:00","-19.5","","-21.7","","83","","36","","6","","24.1","","101.41","","","","-24","","Clear"
"1989-12-22 21:00","1989","12","22","21:00","-21.2","","-23.3","","84","","35","","4","","24.1","","101.44","","","","-25","","Clear"
"1989-12-22 22:00","1989","12","22","22:00","-20.8","","-22.6","","85","","33","","6","","24.1","","101.51","","","","-26","","Mostly Cloudy"
"1989-12-22 23:00","1989","12","22","23:00","-20.7","","-22.0","","89","","33","","6","","16.1","","101.54","","","","-26","","Ice Crystals"
"1989-12-23 00:00","1989","12","23","00:00","-20.1","","-21.5","","89","","35","","13","","19.3","","101.57","","","","-29","","Mainly Clear"
"1989-12-23 01:00","1989","12","23","01:00","-22.0","","-22.8","","93","","34","","9","","19.3","","101.61","","","","-29","","Clear"
"1989-12-23 02:00","1989","12","23","02:00","-22.2","","-22.8","","95","","30","","6","","25.0","","101.61","","","","-28","","Clear"
"1989-12-23 03:00","1989","12","23","03:00","-21.3","","-21.6","","97","","","","0","","25.0","","101.67","","","","","","Clear"
"1989-12-23 04:00","1989","12","23","04:00","-21.0","","-21.1","","99","","","","0","","25.0","","101.64","","","","","","Mainly Clear"
"1989-12-23 05:00","1989","12","23","05:00","-21.6","","-23.9","","82","","","","0","","25.0","","101.64","","","","","","Mainly Clear"
"1989-12-23 06:00","1989","12","23","06:00","-20.9","","-21.8","","93","","","","0","","25.0","","101.61","","","","","","Mainly Clear"
"1989-12-23 07:00","1989","12","23","07:00","-22.9","","-23.8","","92","","","","0","","25.0","","101.67","","","","","","Clear"
"1989-12-23 08:00","1989","12","23","08:00","-21.1","","-23.3","","83","","","","0","","32.2","","101.67","","","","","","Clear"
"1989-12-23 09:00","1989","12","23","09:00","-18.4","","-20.6","","83","","","","0","","32.2","","101.71","","","","","","Clear"
"1989-12-23 10:00","1989","12","23","10:00","-17.6","","-20.8","","76","","","","0","","32.2","","101.71","","","","","","Clear"
"1989-12-23 11:00","1989","12","23","11:00","-15.3","","-20.3","","66","","","","0","","32.2","","101.71","","","","","","Clear"
"1989-12-23 12:00","1989","12","23","12:00","-13.0","","-18.2","","65","","","","0","","32.2","","101.64","","","","","","Clear"
"1989-12-23 13:00","1989","12","23","13:00","-10.2","","-16.8","","58","","","","0","","32.2","","101.57","","","","","","Clear"
"1989-12-23 14:00","1989","12","23","14:00","-9.2","","-15.3","","61","","19","","7","","40.2","","101.47","","","","-13","","Clear"
"1989-12-23 15:00","1989","12","23","15:00","-8.7","","-15.1","","60","","23","","4","","32.2","","101.44","","","","-11","","Clear"
"1989-12-23 16:00","1989","12","23","16:00","-8.6","","-14.1","","64","","21","","7","","32.2","","101.44","","","","-12","","Mainly Clear"
"1989-12-23 17:00","1989","12","23","17:00","-9.7","","-13.6","","73","","21","","6","","25.0","","101.47","","","","-13","","Mostly Cloudy"
"1989-12-23 18:00","1989","12","23","18:00","-10.1","","-13.3","","77","","","","0","","25.0","","101.41","","","","","","Mostly Cloudy"
"1989-12-23 19:00","1989","12","23","19:00","-9.5","","-13.1","","75","","22","","7","","25.0","","101.41","","","","-13","","Mostly Cloudy"
"1989-12-23 20:00","1989","12","23","20:00","-9.1","","-12.9","","74","","22","","9","","25.0","","101.37","","","","-14","","Mostly Cloudy"
"1989-12-23 21:00","1989","12","23","21:00","-11.0","","-14.5","","75","","24","","13","","25.0","","101.37","","","","-17","","Mainly Clear"
"1989-12-23 22:00","1989","12","23","22:00","-11.5","","-14.7","","77","","24","","9","","25.0","","101.31","","","","-17","","Mostly Cloudy"
"1989-12-23 23:00","1989","12","23","23:00","-11.0","","-14.1","","78","","24","","9","","25.0","","101.31","","","","-16","","Mostly Cloudy"
"1989-12-24 00:00","1989","12","24","00:00","-12.4","","-14.9","","81","","24","","9","","25.0","","101.21","","","","-18","","Mainly Clear"
"1989-12-24 01:00","1989","12","24","01:00","-14.1","","-15.7","","88","","24","","4","","25.0","","101.11","","","","-17","","Mainly Clear"
"1989-12-24 02:00","1989","12","24","02:00","-15.0","","-16.8","","86","","23","","9","","25.0","","101.07","","","","-21","","Clear"
"1989-12-24 03:00","1989","12","24","03:00","-15.7","","-17.3","","88","","23","","7","","25.0","","101.01","","","","-21","","Clear"
"1989-12-24 04:00","1989","12","24","04:00","-17.7","","-18.3","","95","","25","","4","","25.0","","100.94","","","","-21","","Clear"
"1989-12-24 05:00","1989","12","24","05:00","-17.7","","-17.8","","100","","26","","4","","25.0","","100.87","","","","-21","","Clear"
"1989-12-24 06:00","1989","12","24","06:00","-16.7","","-18.4","","87","","","","0","","25.0","","100.81","","","","","","Clear"
"1989-12-24 07:00","1989","12","24","07:00","-15.7","","-16.8","","92","","17","","7","","24.1","","100.77","","","","-21","","Clear"
"1989-12-24 08:00","1989","12","24","08:00","-16.2","","-18.4","","83","","19","","11","","24.1","","100.74","","","","-23","","Mainly Clear"
"1989-12-24 09:00","1989","12","24","09:00","-14.6","","-18.4","","73","","22","","15","","32.2","","100.71","","","","-22","","Mainly Clear"
"1989-12-24 10:00","1989","12","24","10:00","-12.8","","-18.2","","64","","21","","19","","32.2","","100.64","","","","-21","","Mainly Clear"
"1989-12-24 11:00","1989","12","24","11:00","-10.5","","-15.4","","67","","23","","26","","40.2","","100.57","","","","-20","","Mostly Cloudy"
"1989-12-24 12:00","1989","12","24","12:00","-10.3","","-15.4","","66","","22","","30","","40.2","","100.47","","","","-20","","Mostly Cloudy"
"1989-12-24 13:00","1989","12","24","13:00","-9.9","","-15.2","","65","","23","","26","","40.2","","100.37","","","","-19","","Mostly Cloudy"
"1989-12-24 14:00","1989","12","24","14:00","-9.5","","-15.0","","64","","23","","22","","40.2","","100.24","","","","-18","","Mostly Cloudy"
"1989-12-24 15:00","1989","12","24","15:00","-9.4","","-15.5","","61","","24","","26","","40.2","","100.07","","","","-18","","Mostly Cloudy"
"1989-12-24 16:00","1989","12","24","16:00","-9.1","","-14.3","","66","","23","","26","","40.2","","100.11","","","","-18","","Mostly Cloudy"
"1989-12-24 17:00","1989","12","24","17:00","-9.5","","-15.0","","64","","23","","20","","25.0","","100.01","","","","-17","","Mostly Cloudy"
"1989-12-24 18:00","1989","12","24","18:00","-9.5","","-15.5","","61","","23","","22","","25.0","","100.01","","","","-18","","Mostly Cloudy"
"1989-12-24 19:00","1989","12","24","19:00","-9.7","","-14.0","","71","","21","","22","","25.0","","100.01","","","","-18","","Cloudy"
"1989-12-24 20:00","1989","12","24","20:00","-9.7","","-14.5","","68","","22","","26","","25.0","","99.97","","","","-19","","Cloudy"
"1989-12-24 21:00","1989","12","24","21:00","-9.8","","-14.7","","67","","23","","31","","11.3","","99.91","","","","-19","","Snow Showers"
"1989-12-24 22:00","1989","12","24","22:00","-10.6","","-13.9","","77","","23","","15","","9.7","","99.87","","","","-17","","Snow Showers"
"1989-12-24 23:00","1989","12","24","23:00","-10.7","","-13.5","","80","","24","","20","","9.7","","99.77","","","","-19","","Snow Showers"
"1989-12-25 00:00","1989","12","25","00:00","-11.0","","-14.1","","78","","25","","20","","11.3","","99.61","","","","-19","","Snow Showers"
"1989-12-25 01:00","1989","12","25","01:00","-11.0","","-15.0","","72","","25","","19","","12.9","","99.51","","","","-19","","Snow Showers"
"1989-12-25 02:00","1989","12","25","02:00","-10.7","","-14.9","","71","","23","","19","","16.1","","99.41","","","","-19","","Snow Showers"
"1989-12-25 03:00","1989","12","25","03:00","-10.5","","-14.4","","73","","25","","13","","16.1","","99.34","","","","-17","","Snow Showers"
"1989-12-25 04:00","1989","12","25","04:00","-10.3","","-14.4","","72","","24","","17","","12.9","","99.24","","","","-18","","Snow"
"1989-12-25 05:00","1989","12","25","05:00","-10.2","","-13.3","","78","","22","","15","","16.1","","99.14","","","","-17","","Snow"
"1989-12-25 06:00","1989","12","25","06:00","-10.1","","-13.3","","77","","22","","17","","12.9","","99.07","","","","-17","","Snow"
"1989-12-25 07:00","1989","12","25","07:00","-10.2","","-12.9","","81","","22","","19","","12.9","","99.01","","","","-18","","Snow"
"1989-12-25 08:00","1989","12","25","08:00","-10.1","","-13.3","","77","","22","","19","","12.9","","98.94","","","","-18","","Snow"
"1989-12-25 09:00","1989","12","25","09:00","-9.9","","-12.9","","79","","23","","19","","16.1","","98.87","","","","-18","","Snow"
"1989-12-25 10:00","1989","12","25","10:00","-9.5","","-12.7","","77","","22","","22","","19.3","","98.84","","","","-18","","Cloudy"
"1989-12-25 11:00","1989","12","25","11:00","-8.5","","-12.3","","74","","21","","22","","19.3","","98.64","","","","-16","","Snow"
"1989-12-25 12:00","1989","12","25","12:00","-7.9","","-12.1","","72","","23","","26","","19.3","","98.54","","","","-16","","Mostly Cloudy"
"1989-12-25 13:00","1989","12","25","13:00","-7.7","","-12.3","","70","","23","","30","","19.3","","98.41","","","","-17","","Mostly Cloudy"
"1989-12-25 14:00","1989","12","25","14:00","-7.6","","-11.8","","72","","22","","28","","19.3","","98.27","","","","-16","","Snow"
"1989-12-25 15:00","1989","12","25","15:00","-7.6","","-11.4","","74","","23","","26","","16.1","","98.21","","","","-16","","Snow"
"1989-12-25 16:00","1989","12","25","16:00","-7.2","","-11.6","","71","","23","","28","","16.1","","98.17","","","","-16","","Snow"
"1989-12-25 17:00","1989","12","25","17:00","-7.0","","-10.8","","74","","20","","20","","12.9","","98.04","","","","-14","","Snow"
"1989-12-25 18:00","1989","12","25","18:00","-6.8","","-10.0","","78","","20","","22","","12.9","","97.94","","","","-14","","Snow"
"1989-12-25 19:00","1989","12","25","19:00","-6.6","","-8.7","","85","","21","","26","","4.8","","97.91","","","","-15","","Snow"
"1989-12-25 20:00","1989","12","25","20:00","-6.2","","-8.4","","85","","21","","28","","8.0","","97.87","","","","-14","","Snow"
"1989-12-25 21:00","1989","12","25","21:00","-6.0","","-8.1","","85","","22","","22","","4.8","","97.77","","","","-13","","Snow"
"1989-12-25 22:00","1989","12","25","22:00","-5.5","","-7.8","","84","","23","","24","","4.8","","97.71","","","","-13","","Snow"
"1989-12-25 23:00","1989","12","25","23:00","-5.2","","-7.2","","86","","22","","24","","8.0","","97.64","","","","-12","","Snow"
"1989-12-26 00:00","1989","12","26","00:00","-5.4","","-7.1","","88","","22","","22","","6.4","","97.64","","","","-12","","Snow"
"1989-12-26 01:00","1989","12","26","01:00","-5.0","","-7.5","","83","","23","","24","","12.9","","97.57","","","","-12","","Snow"
"1989-12-26 02:00","1989","12","26","02:00","-5.5","","-7.5","","86","","24","","19","","12.9","","97.57","","","","-12","","Mostly Cloudy"
"1989-12-26 03:00","1989","12","26","03:00","-5.5","","-7.8","","84","","24","","15","","16.1","","97.54","","","","-11","","Cloudy"
"1989-12-26 04:00","1989","12","26","04:00","-5.5","","-9.6","","73","","25","","22","","25.0","","97.54","","","","-13","","Cloudy"
"1989-12-26 05:00","1989","12","26","05:00","-5.6","","-9.2","","76","","27","","22","","25.0","","97.57","","","","-13","","Cloudy"
"1989-12-26 06:00","1989","12","26","06:00","-9.5","","-14.0","","70","","31","","39","","25.0","","97.81","","","","-20","","Mainly Clear"
"1989-12-26 07:00","1989","12","26","07:00","-11.2","","-16.6","","64","","31","","39","","25.0","","97.97","","","","-22","","Clear"
"1989-12-26 08:00","1989","12","26","08:00","-12.5","","-17.5","","66","","31","","37","","32.2","","98.14","","","","-24","","Mainly Clear"
"1989-12-26 09:00","1989","12","26","09:00","-13.1","","-18.2","","65","","31","","35","","40.2","","98.31","","","","-24","","Mainly Clear"
"1989-12-26 10:00","1989","12","26","10:00","-13.4","","-18.3","","67","","31","","48","","32.2","","98.47","","","","-26","","Mainly Clear"
"1989-12-26 11:00","1989","12","26","11:00","-13.7","","-18.9","","65","","29","","39","","40.2","","98.61","","","","-26","","Mostly Cloudy"
"1989-12-26 12:00","1989","12","26","12:00","-13.5","","-18.9","","64","","30","","41","","40.2","","98.71","","","","-26","","Mostly Cloudy"
"1989-12-26 13:00","1989","12","26","13:00","-13.9","","-20.3","","58","","30","","43","","32.2","","98.81","","","","-26","","Mainly Clear"
"1989-12-26 14:00","1989","12","26","14:00","-14.3","","-21.8","","53","","30","","43","","32.2","","98.94","","","","-27","","Mainly Clear"
"1989-12-26 15:00","1989","12","26","15:00","-15.0","","-21.8","","56","","29","","39","","40.2","","99.04","","","","-27","","Mainly Clear"
"1989-12-26 16:00","1989","12","26","16:00","-15.6","","-23.4","","51","","29","","33","","40.2","","99.21","","","","-27","","Clear"
"1989-12-26 17:00","1989","12","26","17:00","-16.7","","-23.2","","57","","29","","24","","25.0","","99.31","","","","-27","","Clear"
"1989-12-26 18:00","1989","12","26","18:00","-17.5","","-23.0","","62","","29","","30","","25.0","","99.44","","","","-29","","Clear"
"1989-12-26 19:00","1989","12","26","19:00","-17.4","","-25.7","","49","","30","","24","","25.0","","99.51","","","","-28","","Clear"
"1989-12-26 20:00","1989","12","26","20:00","-19.0","","-26.1","","54","","27","","9","","25.0","","99.64","","","","-26","","Clear"
"1989-12-26 21:00","1989","12","26","21:00","-20.5","","-27.4","","54","","26","","7","","25.0","","99.71","","","","-26","","Clear"
"1989-12-26 22:00","1989","12","26","22:00","-20.0","","-26.6","","56","","30","","4","","25.0","","99.74","","","","-23","","Clear"
"1989-12-26 23:00","1989","12","26","23:00","-20.1","","-25.6","","62","","27","","7","","25.0","","99.77","","","","-26","","Mostly Cloudy"
"1989-12-27 00:00","1989","12","27","00:00","-21.1","","-25.0","","71","","34","","11","","25.0","","99.77","","","","-29","","Mostly Cloudy"
"1989-12-27 01:00","1989","12","27","01:00","-19.8","","-23.8","","71","","33","","6","","25.0","","99.81","","","","-25","","Mostly Cloudy"
"1989-12-27 02:00","1989","12","27","02:00","-18.7","","-22.8","","70","","2","","4","","25.0","","99.77","","","","-22","","Mostly Cloudy"
"1989-12-27 03:00","1989","12","27","03:00","-18.1","","-22.9","","66","","34","","4","","25.0","","99.77","","","","-21","","Cloudy"
"1989-12-27 04:00","1989","12","27","04:00","-18.0","","-21.4","","75","","","","0","","25.0","","99.71","","","","","","Mostly Cloudy"
"1989-12-27 05:00","1989","12","27","05:00","-18.2","","-22.1","","72","","","","0","","25.0","","99.64","","","","","","Mostly Cloudy"
"1989-12-27 06:00","1989","12","27","06:00","-19.2","","-21.9","","79","","","","0","","25.0","","99.61","","","","","","Cloudy"
"1989-12-27 07:00","1989","12","27","07:00","-17.5","","-20.1","","80","","","","0","","24.1","","99.57","","","","","","Cloudy"
"1989-12-27 08:00","1989","12","27","08:00","-16.0","","-18.4","","82","","","","0","","19.3","","99.57","","","","","","Cloudy"
"1989-12-27 09:00","1989","12","27","09:00","-15.1","","-17.8","","80","","","","0","","9.7","","99.47","","","","","","Snow"
"1989-12-27 10:00","1989","12","27","10:00","-13.9","","-15.7","","86","","","","0","","3.2","","99.47","","","","","","Snow"
"1989-12-27 11:00","1989","12","27","11:00","-12.4","","-14.0","","88","","","","0","","2.0","","99.37","","","","","","Snow"
"1989-12-27 12:00","1989","12","27","12:00","-8.1","","-10.1","","85","","17","","15","","2.4","","99.24","","","","-14","","Snow"
"1989-12-27 13:00","1989","12","27","13:00","-8.2","","-10.1","","86","","19","","19","","2.4","","99.14","","","","-15","","Snow"
"1989-12-27 14:00","1989","12","27","14:00","-7.6","","-9.9","","84","","18","","17","","2.4","","99.01","","","","-14","","Snow"
"1989-12-27 15:00","1989","12","27","15:00","-7.6","","-9.9","","84","","18","","13","","2.4","","98.94","","","","-13","","Snow"
"1989-12-27 16:00","1989","12","27","16:00","-7.2","","-8.9","","88","","17","","9","","2.8","","98.87","","","","-12","","Snow"
"1989-12-27 17:00","1989","12","27","17:00","-6.9","","-8.6","","87","","15","","15","","2.0","","98.81","","","","-13","","Snow"
"1989-12-27 18:00","1989","12","27","18:00","-7.0","","-8.6","","88","","15","","13","","6.4","","98.81","","","","-13","","Snow"
"1989-12-27 19:00","1989","12","27","19:00","-6.8","","-8.6","","87","","15","","11","","6.4","","98.84","","","","-12","","Snow"
"1989-12-27 20:00","1989","12","27","20:00","-6.7","","-8.0","","91","","16","","7","","4.8","","98.81","","","","-10","","Snow"
"1989-12-27 21:00","1989","12","27","21:00","-6.6","","-8.0","","90","","17","","7","","6.4","","98.84","","","","-10","","Snow"
"1989-12-27 22:00","1989","12","27","22:00","-7.4","","-8.8","","90","","","","0","","6.4","","98.84","","","","","","Snow"
"1989-12-27 23:00","1989","12","27","23:00","-8.8","","-9.8","","92","","28","","6","","12.9","","98.84","","","","-12","","Snow"
"1989-12-28 00:00","1989","12","28","00:00","-8.5","","-9.6","","92","","28","","6","","9.7","","98.91","","","","-12","","Snow"
"1989-12-28 01:00","1989","12","28","01:00","-8.0","","-9.0","","92","","25","","6","","11.3","","98.94","","","","-11","","Snow"
"1989-12-28 02:00","1989","12","28","02:00","-7.6","","-9.9","","84","","26","","9","","11.3","","98.97","","","","-12","","Cloudy"
"1989-12-28 03:00","1989","12","28","03:00","-6.9","","-8.9","","86","","25","","15","","11.3","","99.11","","","","-13","","Snow"
"1989-12-28 04:00","1989","12","28","04:00","-6.3","","-9.0","","81","","25","","19","","9.7","","99.11","","","","-13","","Snow"
"1989-12-28 05:00","1989","12","28","05:00","-5.9","","-7.7","","87","","25","","19","","6.4","","99.17","","","","-13","","Snow"
"1989-12-28 06:00","1989","12","28","06:00","-5.5","","-7.8","","84","","26","","17","","4.8","","99.31","","","","-12","","Snow"
"1989-12-28 07:00","1989","12","28","07:00","-5.5","","-7.5","","86","","25","","17","","4.8","","99.37","","","","-12","","Snow"
"1989-12-28 08:00","1989","12","28","08:00","-5.4","","-7.5","","85","","25","","15","","6.4","","99.51","","","","-11","","Snow"
"1989-12-28 09:00","1989","12","28","09:00","-5.1","","-6.9","","87","","25","","19","","4.0","","99.61","","","","-12","","Snow"
"1989-12-28 10:00","1989","12","28","10:00","-4.9","","-7.5","","82","","26","","22","","12.9","","99.71","","","","-12","","Snow"
"1989-12-28 11:00","1989","12","28","11:00","-4.6","","-8.7","","73","","26","","20","","40.2","","99.74","","","","-11","","Mostly Cloudy"
"1989-12-28 12:00","1989","12","28","12:00","-3.9","","-8.0","","73","","26","","26","","40.2","","99.74","","","","-11","","Mostly Cloudy"
"1989-12-28 13:00","1989","12","28","13:00","-3.6","","-8.4","","69","","26","","26","","24.1","","99.74","","","","-11","","Mostly Cloudy"
"1989-12-28 14:00","1989","12","28","14:00","-4.1","","-8.7","","70","","26","","26","","40.2","","99.74","","","","-11","","Mainly Clear"
"1989-12-28 15:00","1989","12","28","15:00","-4.3","","-9.0","","69","","26","","20","","40.2","","99.77","","","","-11","","Mostly Cloudy"
"1989-12-28 16:00","1989","12","28","16:00","-4.3","","-7.9","","76","","27","","20","","40.2","","99.87","","","","-11","","Snow Showers"
"1989-12-28 17:00","1989","12","28","17:00","-5.1","","-9.3","","72","","25","","17","","24.1","","99.91","","","","-11","","Snow Showers"
"1989-12-28 18:00","1989","12","28","18:00","-5.4","","-8.9","","76","","32","","7","","19.3","","100.01","","","","-9","","Snow Showers"
"1989-12-28 19:00","1989","12","28","19:00","-6.6","","-10.1","","76","","32","","7","","19.3","","100.07","","","","-10","","Snow Showers"
"1989-12-28 20:00","1989","12","28","20:00","-6.8","","-8.9","","85","","","","0","","9.7","","100.14","","","","","","Snow Showers"
"1989-12-28 21:00","1989","12","28","21:00","-7.2","","-8.1","","93","","","","0","","4.8","","100.14","","","","","","Snow"
"1989-12-28 22:00","1989","12","28","22:00","-7.1","","-7.9","","94","","1","","4","","4.8","","100.17","","","","-9","","Snow"
"1989-12-28 23:00","1989","12","28","23:00","-7.1","","-8.2","","92","","2","","7","","6.4","","100.17","","","","-11","","Snow"
"1989-12-29 00:00","1989","12","29","00:00","-6.7","","-7.6","","93","","3","","11","","6.4","","100.17","","","","-12","","Snow"
"1989-12-29 01:00","1989","12","29","01:00","-7.5","","-8.8","","90","","4","","11","","4.8","","100.17","","","","-13","","Snow"
"1989-12-29 02:00","1989","12","29","02:00","-7.5","","-8.8","","90","","4","","13","","4.8","","100.17","","","","-13","","Snow"
"1989-12-29 03:00","1989","12","29","03:00","-7.6","","-8.8","","91","","4","","13","","4.8","","100.27","","","","-13","","Snow"
"1989-12-29 04:00","1989","12","29","04:00","-7.5","","-8.8","","90","","5","","13","","4.8","","100.34","","","","-13","","Snow"
"1989-12-29 05:00","1989","12","29","05:00","-7.5","","-8.8","","90","","4","","15","","4.8","","100.24","","","","-14","","Snow"
"1989-12-29 06:00","1989","12","29","06:00","-7.4","","-8.8","","90","","6","","20","","6.4","","100.27","","","","-15","","Snow"
"1989-12-29 07:00","1989","12","29","07:00","-8.0","","-10.1","","85","","6","","19","","6.4","","100.37","","","","-15","","Snow"
"1989-12-29 08:00","1989","12","29","08:00","-9.6","","-10.7","","92","","5","","22","","2.4","","100.37","","","","-18","","Snow"
"1989-12-29 09:00","1989","12","29","09:00","-10.6","","-12.2","","88","","6","","24","","2.8","","100.37","","","","-19","","Snow"
"1989-12-29 10:00","1989","12","29","10:00","-11.0","","-12.8","","87","","6","","20","","6.4","","100.44","","","","-19","","Snow"
"1989-12-29 11:00","1989","12","29","11:00","-11.4","","-13.8","","82","","4","","19","","6.4","","100.44","","","","-19","","Snow"
"1989-12-29 12:00","1989","12","29","12:00","-10.8","","-13.2","","82","","5","","19","","6.4","","100.37","","","","-19","","Snow"
"1989-12-29 13:00","1989","12","29","13:00","-11.0","","-12.8","","87","","5","","22","","1.6","","100.31","","","","-20","","Snow"
"1989-12-29 14:00","1989","12","29","14:00","-11.1","","-12.8","","87","","4","","20","","2.0","","100.27","","","","-19","","Snow"
"1989-12-29 15:00","1989","12","29","15:00","-10.6","","-12.6","","85","","4","","19","","2.0","","100.27","","","","-18","","Snow"
"1989-12-29 16:00","1989","12","29","16:00","-10.1","","-11.6","","89","","36","","17","","3.2","","100.27","","","","-17","","Snow"
"1989-12-29 17:00","1989","12","29","17:00","-10.8","","-13.2","","82","","3","","17","","2.0","","100.27","","","","-18","","Snow"
"1989-12-29 18:00","1989","12","29","18:00","-10.5","","-12.2","","87","","1","","13","","3.2","","100.31","","","","-17","","Snow"
"1989-12-29 19:00","1989","12","29","19:00","-10.6","","-11.8","","91","","1","","13","","3.2","","100.31","","","","-17","","Snow"
"1989-12-29 20:00","1989","12","29","20:00","-10.2","","-12.0","","87","","3","","17","","12.9","","100.31","","","","-17","","Snow"
"1989-12-29 21:00","1989","12","29","21:00","-10.1","","-12.0","","86","","3","","19","","4.0","","100.31","","","","-18","","Snow"
"1989-12-29 22:00","1989","12","29","22:00","-10.1","","-11.6","","89","","3","","22","","4.0","","100.27","","","","-18","","Snow"
"1989-12-29 23:00","1989","12","29","23:00","-10.2","","-11.6","","89","","3","","19","","3.2","","100.24","","","","-18","","Snow"
"1989-12-30 00:00","1989","12","30","00:00","-10.0","","-12.0","","85","","3","","17","","8.0","","100.21","","","","-17","","Snow"
"1989-12-30 01:00","1989","12","30","01:00","-10.1","","-12.9","","80","","3","","17","","8.0","","100.17","","","","-17","","Snow"
"1989-12-30 02:00","1989","12","30","02:00","-10.2","","-12.4","","84","","36","","15","","9.7","","100.17","","","","-17","","Snow"
"1989-12-30 03:00","1989","12","30","03:00","-10.5","","-13.0","","82","","2","","19","","11.3","","100.21","","","","-18","","Snow"
"1989-12-30 04:00","1989","12","30","04:00","-12.9","","-15.0","","84","","35","","22","","16.1","","100.21","","","","-22","","Cloudy"
"1989-12-30 05:00","1989","12","30","05:00","-13.4","","-15.6","","83","","36","","19","","16.1","","100.21","","","","-22","","Cloudy"
"1989-12-30 06:00","1989","12","30","06:00","-13.1","","-14.6","","88","","35","","17","","16.1","","100.21","","","","-21","","Cloudy"
"1989-12-30 07:00","1989","12","30","07:00","-13.9","","-16.7","","79","","34","","17","","16.1","","100.24","","","","-22","","Cloudy"
"1989-12-30 08:00","1989","12","30","08:00","-14.2","","-16.7","","81","","34","","19","","16.1","","100.34","","","","-23","","Cloudy"
"1989-12-30 09:00","1989","12","30","09:00","-14.5","","-16.7","","83","","35","","17","","11.3","","100.37","","","","-23","","Snow"
"1989-12-30 10:00","1989","12","30","10:00","-13.6","","-15.1","","88","","35","","17","","4.8","","100.34","","","","-22","","Snow"
"1989-12-30 11:00","1989","12","30","11:00","-12.1","","-13.4","","90","","34","","15","","4.8","","100.31","","","","-19","","Snow"
"1989-12-30 12:00","1989","12","30","12:00","-11.0","","-12.8","","87","","34","","15","","11.3","","100.21","","","","-18","","Snow"
"1989-12-30 13:00","1989","12","30","13:00","-11.0","","-12.8","","87","","5","","9","","11.3","","100.17","","","","-16","","Snow"
"1989-12-30 14:00","1989","12","30","14:00","-10.0","","-12.0","","85","","36","","11","","11.3","","100.11","","","","-16","","Snow"
"1989-12-30 15:00","1989","12","30","15:00","-7.8","","-9.3","","89","","5","","15","","11.3","","100.07","","","","-14","","Snow"
"1989-12-30 16:00","1989","12","30","16:00","-7.4","","-8.8","","90","","4","","15","","11.3","","100.11","","","","-14","","Snow Grains"
"1989-12-30 17:00","1989","12","30","17:00","-7.0","","-8.6","","88","","5","","15","","11.3","","100.07","","","","-13","","Cloudy"
"1989-12-30 18:00","1989","12","30","18:00","-6.8","","-8.6","","87","","4","","11","","11.3","","100.01","","","","-12","","Snow Grains"
"1989-12-30 19:00","1989","12","30","19:00","-6.4","","-8.3","","86","","5","","13","","11.3","","99.91","","","","-12","","Cloudy"
"1989-12-30 20:00","1989","12","30","20:00","-6.1","","-7.4","","91","","2","","11","","11.3","","99.81","","","","-11","","Cloudy"
"1989-12-30 21:00","1989","12","30","21:00","-4.1","","-4.5","","97","","8","","19","","0.4","","99.64","","","","-10","","Heavy Snow Grains"
"1989-12-30 22:00","1989","12","30","22:00","-3.3","","-4.0","","95","","8","","24","","0.4","","99.61","","","","-10","","Freezing Rain,Snow Grains,Fog"
"1989-12-30 23:00","1989","12","30","23:00","-2.5","","-2.8","","98","","8","","22","","0.8","","99.44","","","","-9","","Freezing Rain,Ice Pellets,Fog"
"1989-12-31 00:00","1989","12","31","00:00","-2.2","","-2.3","","100","","7","","19","","3.2","","99.41","","","","-8","","Freezing Rain,Fog"
"1989-12-31 01:00","1989","12","31","01:00","-2.0","","-2.3","","98","","8","","22","","4.0","","99.11","","","","-8","","Freezing Rain,Fog"
"1989-12-31 02:00","1989","12","31","02:00","-1.8","","-2.3","","96","","8","","24","","4.8","","99.07","","","","-8","","Freezing Rain,Fog"
"1989-12-31 03:00","1989","12","31","03:00","-1.8","","-2.3","","96","","8","","22","","2.4","","98.91","","","","-8","","Freezing Rain,Fog"
"1989-12-31 04:00","1989","12","31","04:00","-1.7","","-1.7","","100","","10","","13","","1.2","","98.84","","","","-6","","Freezing Drizzle,Fog"
"1989-12-31 05:00","1989","12","31","05:00","-1.4","","-1.7","","98","","8","","13","","0.6","","98.71","","","","-6","","Freezing Drizzle,Fog"
"1989-12-31 06:00","1989","12","31","06:00","-0.9","","-1.1","","98","","10","","11","","0.2","","98.61","","","","-5","","Freezing Drizzle,Fog"
"1989-12-31 07:00","1989","12","31","07:00","0.6","","0.0","","96","","8","","7","","0.6","","98.41","","","","","","Drizzle,Fog"
"1989-12-31 08:00","1989","12","31","08:00","1.3","","1.3","","100","","11","","11","","0.4","","98.27","","","","","","Rain,Fog"
"1989-12-31 09:00","1989","12","31","09:00","2.0","","1.5","","96","","12","","13","","0.4","","98.17","","","","","","Rain,Fog"
"1989-12-31 10:00","1989","12","31","10:00","2.2","","1.5","","95","","14","","11","","0.4","","98.17","","","","","","Rain,Fog"
"1989-12-31 11:00","1989","12","31","11:00","2.9","","2.6","","98","","16","","13","","0.4","","97.94","","","","","","Fog"
"1989-12-31 12:00","1989","12","31","12:00","2.7","","2.0","","95","","15","","11","","0.2","","97.81","","","","","","Drizzle,Fog"
"1989-12-31 13:00","1989","12","31","13:00","3.6","","3.1","","97","","19","","17","","0.4","","97.71","","","","","","Drizzle,Fog"
"1989-12-31 14:00","1989","12","31","14:00","4.0","","3.6","","97","","17","","13","","0.6","","97.61","","","","","","Drizzle,Fog"
"1989-12-31 15:00","1989","12","31","15:00","4.4","","3.6","","95","","21","","17","","11.3","","97.61","","","","","","Drizzle"
"1989-12-31 16:00","1989","12","31","16:00","3.2","","2.6","","96","","23","","15","","11.3","","97.61","","","","","","Rain"
"1989-12-31 17:00","1989","12","31","17:00","2.1","","1.6","","96","","25","","19","","24.1","","97.64","","","","","","Rain"
"1989-12-31 18:00","1989","12","31","18:00","1.9","","0.1","","88","","25","","17","","19.3","","97.71","","","","","","Cloudy"
"1989-12-31 19:00","1989","12","31","19:00","1.5","","-0.5","","87","","25","","19","","17.7","","97.71","","","","","","Cloudy"
"1989-12-31 20:00","1989","12","31","20:00","0.6","","-0.9","","90","","25","","20","","3.2","","97.81","","","","","","Snow Showers"
"1989-12-31 21:00","1989","12","31","21:00","0.4","","-0.8","","92","","26","","19","","12.9","","97.84","","","","","","Snow"
"1989-12-31 22:00","1989","12","31","22:00","0.0","","-0.5","","96","","27","","24","","16.1","","97.91","","","","-6","","Cloudy"
"1989-12-31 23:00","1989","12","31","23:00","0.1","","-1.7","","87","","27","","22","","9.7","","97.91","","","","","","Snow Showers"
