"Station Name","TORONTO LESTER B. PEARSON INT'L A"
"Province","ONTARIO"
"Latitude","43.68"
"Longitude","-79.63"
"Elevation","173.40"
"Climate Identifier","6158733"
"WMO Identifier","71624"
"TC Identifier","YYZ"
"All times are specified in Local Standard Time (LST). Add 1 hour to adjust for Daylight Saving Time where and when it is observed."

"Legend"
"E","Estimated"
"M","Missing"
"NA","Not Available"

"Date/Time","Year","Month","Day","Time","Temp (°C)","Temp Flag","Dew Point Temp (°C)","Dew Point Temp Flag","Rel Hum (%)","Rel Hum Flag","Wind Dir (10s deg)","Wind Dir Flag","Wind Spd (km/h)","Wind Spd Flag","Visibility (km)","Visibility Flag","Stn Press (kPa)","Stn Press Flag","Hmdx","Hmdx Flag","Wind Chill","Wind Chill Flag","Weather"
"1994-07-01 00:00","1994","07","01","00:00","16.6","","13.6","","82","","","","0","","25.0","","99.42","","","","","","Cloudy"
"1994-07-01 01:00","1994","07","01","01:00","16.5","","13.9","","85","","","","0","","25.0","","99.39","","","","","","Cloudy"
"1994-07-01 02:00","1994","07","01","02:00","16.7","","12.5","","76","","","","0","","25.0","","99.39","","","","","","Mostly Cloudy"
"1994-07-01 03:00","1994","07","01","03:00","16.0","","13.4","","85","","","","0","","25.0","","99.39","","","","","","Clear"
"1994-07-01 04:00","1994","07","01","04:00","14.0","","12.7","","92","","28","","7","","25.0","","99.39","","","","","","Clear"
"1994-07-01 05:00","1994","07","01","05:00","13.6","","12.5","","93","","26","","4","","24.1","","99.42","","","","","","Clear"
"1994-07-01 06:00","1994","07","01","06:00","14.5","","12.8","","90","","27","","6","","24.1","","99.52","","","","","","Clear"
"1994-07-01 07:00","1994","07","01","07:00","17.0","","13.8","","81","","22","","7","","24.1","","99.45","","","","","","Clear"
"1994-07-01 08:00","1994","07","01","08:00","19.0","","14.2","","74","","22","","9","","24.1","","99.45","","","","","","Clear"
"1994-07-01 09:00","1994","07","01","09:00","20.5","","14.9","","70","","20","","13","","19.3","","99.39","","","","","","Mainly Clear"
"1994-07-01 10:00","1994","07","01","10:00","21.5","","15.3","","68","","15","","15","","19.3","","99.39","","26","","","","Mainly Clear"
"1994-07-01 11:00","1994","07","01","11:00","22.8","","16.7","","68","","14","","19","","19.3","","99.32","","28","","","","Mainly Clear"
"1994-07-01 12:00","1994","07","01","12:00","24.5","","17.0","","63","","16","","17","","19.3","","99.29","","30","","","","Mostly Cloudy"
"1994-07-01 13:00","1994","07","01","13:00","25.0","","16.9","","61","","17","","19","","19.3","","99.26","","30","","","","Mostly Cloudy"
"1994-07-01 14:00","1994","07","01","14:00","25.5","","16.5","","58","","21","","19","","24.1","","99.19","","30","","","","Mostly Cloudy"
"1994-07-01 15:00","1994","07","01","15:00","27.0","","15.8","","50","","21","","26","","24.1","","99.16","","31","","","","Mainly Clear"
"1994-07-01 16:00","1994","07","01","16:00","26.4","","15.9","","52","","23","","22","","25.0","","99.16","","31","","","","Mostly Cloudy"
"1994-07-01 17:00","1994","07","01","17:00","26.8","","16.6","","54","","21","","26","","24.1","","99.09","","32","","","","Mainly Clear"
"1994-07-01 18:00","1994","07","01","18:00","26.4","","15.9","","52","","22","","26","","25.0","","99.09","","31","","","","Mainly Clear"
"1994-07-01 19:00","1994","07","01","19:00","25.7","","14.7","","51","","22","","20","","25.0","","99.09","","29","","","","Mainly Clear"
"1994-07-01 20:00","1994","07","01","20:00","24.4","","15.7","","58","","20","","11","","25.0","","99.06","","29","","","","Mainly Clear"
"1994-07-01 21:00","1994","07","01","21:00","23.7","","15.5","","60","","20","","13","","25.0","","99.09","","28","","","","Mainly Clear"
"1994-07-01 22:00","1994","07","01","22:00","22.6","","16.8","","70","","19","","11","","25.0","","99.06","","28","","","","Clear"
"1994-07-01 23:00","1994","07","01","23:00","22.0","","16.5","","71","","18","","13","","25.0","","99.06","","27","","","","Mainly Clear"
"1994-07-02 00:00","1994","07","02","00:00","21.5","","16.0","","71","","20","","15","","25.0","","98.99","","26","","","","Mainly Clear"
"1994-07-02 01:00","1994","07","02","01:00","21.3","","16.7","","75","","19","","11","","25.0","","98.89","","26","","","","Mostly Cloudy"
"1994-07-02 02:00","1994","07","02","02:00","20.3","","16.9","","81","","22","","11","","25.0","","98.99","","26","","","","Mostly Cloudy"
"1994-07-02 03:00","1994","07","02","03:00","21.0","","16.8","","77","","23","","19","","25.0","","98.96","","26","","","","Mainly Clear"
"1994-07-02 04:00","1994","07","02","04:00","20.4","","16.9","","80","","23","","11","","25.0","","98.96","","26","","","","Mainly Clear"
"1994-07-02 05:00","1994","07","02","05:00","21.0","","17.0","","78","","27","","13","","16.1","","99.02","","26","","","","Mostly Cloudy"
"1994-07-02 06:00","1994","07","02","06:00","20.8","","17.4","","81","","24","","15","","12.9","","99.06","","26","","","","Mostly Cloudy"
"1994-07-02 07:00","1994","07","02","07:00","21.4","","17.3","","77","","25","","17","","12.9","","99.16","","27","","","","Mostly Cloudy"
"1994-07-02 08:00","1994","07","02","08:00","22.7","","18.1","","75","","27","","17","","9.7","","99.16","","29","","","","Haze"
"1994-07-02 09:00","1994","07","02","09:00","20.2","","15.3","","73","","35","","26","","11.3","","99.19","","","","","","Mostly Cloudy"
"1994-07-02 10:00","1994","07","02","10:00","21.6","","16.7","","74","","36","","15","","12.9","","99.22","","27","","","","Cloudy"
"1994-07-02 11:00","1994","07","02","11:00","22.5","","13.6","","57","","36","","20","","32.2","","99.26","","26","","","","Mostly Cloudy"
"1994-07-02 12:00","1994","07","02","12:00","23.4","","14.8","","58","","36","","13","","32.2","","99.35","","27","","","","Cloudy"
"1994-07-02 13:00","1994","07","02","13:00","22.2","","14.8","","63","","1","","24","","40.2","","99.35","","26","","","","Mostly Cloudy"
"1994-07-02 14:00","1994","07","02","14:00","21.2","","13.7","","62","","1","","24","","40.2","","99.39","","","","","","Mostly Cloudy"
"1994-07-02 15:00","1994","07","02","15:00","21.0","","13.7","","63","","36","","19","","40.2","","99.35","","","","","","Mostly Cloudy"
"1994-07-02 16:00","1994","07","02","16:00","22.5","","14.0","","59","","32","","20","","40.2","","99.42","","26","","","","Mostly Cloudy"
"1994-07-02 17:00","1994","07","02","17:00","20.5","","13.0","","62","","35","","28","","40.2","","99.49","","","","","","Mostly Cloudy"
"1994-07-02 18:00","1994","07","02","18:00","20.3","","11.2","","56","","36","","17","","40.2","","99.55","","","","","","Mostly Cloudy"
"1994-07-02 19:00","1994","07","02","19:00","19.0","","11.7","","63","","1","","22","","40.2","","99.65","","","","","","Mostly Cloudy"
"1994-07-02 20:00","1994","07","02","20:00","17.6","","11.5","","67","","36","","19","","25.0","","99.69","","","","","","Mostly Cloudy"
"1994-07-02 21:00","1994","07","02","21:00","16.7","","11.1","","70","","35","","20","","25.0","","99.75","","","","","","Mostly Cloudy"
"1994-07-02 22:00","1994","07","02","22:00","15.9","","11.6","","76","","35","","19","","25.0","","99.79","","","","","","Cloudy"
"1994-07-02 23:00","1994","07","02","23:00","15.0","","10.5","","74","","35","","19","","25.0","","99.85","","","","","","Mostly Cloudy"
"1994-07-03 00:00","1994","07","03","00:00","14.0","","10.5","","79","","35","","19","","25.0","","99.92","","","","","","Mainly Clear"
"1994-07-03 01:00","1994","07","03","01:00","13.4","","10.4","","82","","35","","19","","25.0","","99.95","","","","","","Mainly Clear"
"1994-07-03 02:00","1994","07","03","02:00","12.3","","10.8","","91","","35","","13","","25.0","","100.02","","","","","","Clear"
"1994-07-03 03:00","1994","07","03","03:00","11.4","","10.1","","92","","34","","13","","25.0","","100.05","","","","","","Clear"
"1994-07-03 04:00","1994","07","03","04:00","11.2","","9.6","","90","","35","","9","","25.0","","100.09","","","","","","Clear"
"1994-07-03 05:00","1994","07","03","05:00","12.0","","9.9","","87","","36","","13","","40.2","","100.15","","","","","","Mainly Clear"
"1994-07-03 06:00","1994","07","03","06:00","13.0","","8.3","","73","","36","","9","","40.2","","100.19","","","","","","Mainly Clear"
"1994-07-03 07:00","1994","07","03","07:00","15.0","","10.5","","74","","3","","9","","40.2","","100.25","","","","","","Clear"
"1994-07-03 08:00","1994","07","03","08:00","18.4","","9.5","","56","","8","","17","","40.2","","100.29","","","","","","Mainly Clear"
"1994-07-03 09:00","1994","07","03","09:00","19.1","","8.0","","49","","9","","13","","40.2","","100.29","","","","","","Clear"
"1994-07-03 10:00","1994","07","03","10:00","19.7","","8.7","","49","","9","","13","","40.2","","100.32","","","","","","Clear"
"1994-07-03 11:00","1994","07","03","11:00","20.7","","8.7","","46","","8","","17","","40.2","","100.32","","","","","","Clear"
"1994-07-03 12:00","1994","07","03","12:00","20.6","","8.7","","46","","10","","13","","40.2","","100.29","","","","","","Mainly Clear"
"1994-07-03 13:00","1994","07","03","13:00","21.5","","9.6","","47","","15","","15","","40.2","","100.29","","","","","","Clear"
"1994-07-03 14:00","1994","07","03","14:00","21.0","","11.0","","53","","15","","19","","40.2","","100.29","","","","","","Mainly Clear"
"1994-07-03 15:00","1994","07","03","15:00","21.5","","5.9","","36","","14","","17","","40.2","","100.25","","","","","","Mainly Clear"
"1994-07-03 16:00","1994","07","03","16:00","22.2","","5.1","","33","","13","","17","","40.2","","100.22","","","","","","Mainly Clear"
"1994-07-03 17:00","1994","07","03","17:00","22.1","","4.0","","31","","13","","15","","40.2","","100.19","","","","","","Mainly Clear"
"1994-07-03 18:00","1994","07","03","18:00","22.0","","6.2","","36","","12","","15","","40.2","","100.09","","","","","","Mainly Clear"
"1994-07-03 19:00","1994","07","03","19:00","21.5","","7.4","","40","","13","","11","","32.2","","100.12","","","","","","Mainly Clear"
"1994-07-03 20:00","1994","07","03","20:00","18.6","","8.3","","51","","14","","9","","25.0","","100.12","","","","","","Mainly Clear"
"1994-07-03 21:00","1994","07","03","21:00","18.3","","7.4","","49","","10","","7","","19.3","","100.15","","","","","","Mainly Clear"
"1994-07-03 22:00","1994","07","03","22:00","17.8","","7.6","","51","","8","","4","","25.0","","100.22","","","","","","Clear"
"1994-07-03 23:00","1994","07","03","23:00","17.9","","6.7","","48","","","","0","","25.0","","100.25","","","","","","Clear"
"1994-07-04 00:00","1994","07","04","00:00","14.7","","8.0","","64","","2","","4","","25.0","","100.22","","","","","","Clear"
"1994-07-04 01:00","1994","07","04","01:00","12.6","","9.3","","80","","35","","4","","25.0","","100.22","","","","","","Clear"
"1994-07-04 02:00","1994","07","04","02:00","11.2","","8.4","","83","","35","","6","","25.0","","100.19","","","","","","Clear"
"1994-07-04 03:00","1994","07","04","03:00","11.2","","8.4","","83","","36","","7","","25.0","","100.22","","","","","","Clear"
"1994-07-04 04:00","1994","07","04","04:00","10.8","","8.4","","85","","36","","6","","25.0","","100.25","","","","","","Clear"
"1994-07-04 05:00","1994","07","04","05:00","10.6","","8.3","","86","","35","","7","","25.0","","100.25","","","","","","Mainly Clear"
"1994-07-04 06:00","1994","07","04","06:00","12.5","","9.3","","81","","34","","4","","25.0","","100.25","","","","","","Clear"
"1994-07-04 07:00","1994","07","04","07:00","16.8","","10.1","","65","","","","0","","24.1","","100.29","","","","","","Clear"
"1994-07-04 08:00","1994","07","04","08:00","20.3","","10.4","","53","","12","","11","","24.1","","100.29","","","","","","Clear"
"1994-07-04 09:00","1994","07","04","09:00","21.0","","9.8","","49","","11","","22","","24.1","","100.25","","","","","","Clear"
"1994-07-04 10:00","1994","07","04","10:00","22.0","","9.8","","46","","10","","22","","24.1","","100.25","","","","","","Mainly Clear"
"1994-07-04 11:00","1994","07","04","11:00","23.5","","10.2","","43","","10","","26","","32.2","","100.19","","25","","","","Mainly Clear"
"1994-07-04 12:00","1994","07","04","12:00","23.1","","9.5","","42","","9","","22","","32.2","","100.19","","","","","","Mainly Clear"
"1994-07-04 13:00","1994","07","04","13:00","24.5","","12.3","","47","","11","","20","","32.2","","100.15","","27","","","","Mostly Cloudy"
"1994-07-04 14:00","1994","07","04","14:00","25.5","","13.6","","48","","9","","19","","32.2","","100.12","","29","","","","Mostly Cloudy"
"1994-07-04 15:00","1994","07","04","15:00","25.8","","12.7","","44","","9","","19","","24.1","","100.09","","28","","","","Mostly Cloudy"
"1994-07-04 16:00","1994","07","04","16:00","25.6","","10.3","","38","","9","","17","","32.2","","99.99","","27","","","","Mostly Cloudy"
"1994-07-04 17:00","1994","07","04","17:00","24.6","","11.5","","44","","10","","22","","32.2","","99.95","","27","","","","Mostly Cloudy"
"1994-07-04 18:00","1994","07","04","18:00","24.1","","10.8","","43","","10","","19","","32.2","","99.89","","26","","","","Mostly Cloudy"
"1994-07-04 19:00","1994","07","04","19:00","23.3","","11.0","","46","","12","","19","","32.2","","99.85","","25","","","","Mostly Cloudy"
"1994-07-04 20:00","1994","07","04","20:00","22.1","","11.1","","50","","12","","13","","25.0","","99.89","","","","","","Mostly Cloudy"
"1994-07-04 21:00","1994","07","04","21:00","21.2","","11.4","","54","","10","","7","","25.0","","99.85","","","","","","Mainly Clear"
"1994-07-04 22:00","1994","07","04","22:00","20.6","","12.0","","58","","11","","11","","25.0","","99.82","","","","","","Mainly Clear"
"1994-07-04 23:00","1994","07","04","23:00","20.0","","12.5","","62","","11","","4","","24.1","","99.79","","","","","","Mostly Cloudy"
"1994-07-05 00:00","1994","07","05","00:00","19.9","","13.2","","65","","13","","6","","19.3","","99.69","","","","","","Mainly Clear"
"1994-07-05 01:00","1994","07","05","01:00","19.5","","13.0","","66","","","","0","","16.1","","99.65","","","","","","Mostly Cloudy"
"1994-07-05 02:00","1994","07","05","02:00","19.1","","13.9","","72","","16","","4","","16.1","","99.59","","","","","","Mostly Cloudy"
"1994-07-05 03:00","1994","07","05","03:00","18.4","","14.7","","79","","16","","4","","16.1","","99.55","","","","","","Cloudy"
"1994-07-05 04:00","1994","07","05","04:00","17.9","","15.5","","86","","14","","4","","16.1","","99.52","","","","","","Cloudy"
"1994-07-05 05:00","1994","07","05","05:00","17.9","","15.8","","88","","16","","7","","9.7","","99.49","","","","","","Fog"
"1994-07-05 06:00","1994","07","05","06:00","18.3","","17.0","","92","","16","","4","","9.7","","99.42","","","","","","Fog"
"1994-07-05 07:00","1994","07","05","07:00","19.0","","17.5","","91","","","","0","","8.0","","99.39","","","","","","Fog"
"1994-07-05 08:00","1994","07","05","08:00","22.5","","19.6","","84","","20","","9","","6.4","","99.35","","30","","","","Rain Showers,Haze"
"1994-07-05 09:00","1994","07","05","09:00","24.5","","20.2","","77","","23","","20","","6.4","","99.32","","32","","","","Haze"
"1994-07-05 10:00","1994","07","05","10:00","25.0","","20.8","","78","","25","","15","","24.1","","99.39","","33","","","","Cloudy"
"1994-07-05 11:00","1994","07","05","11:00","27.0","","21.4","","71","","27","","33","","24.1","","99.45","","36","","","","Mostly Cloudy"
"1994-07-05 12:00","1994","07","05","12:00","28.0","","21.0","","66","","27","","32","","32.2","","99.45","","36","","","","Mostly Cloudy"
"1994-07-05 13:00","1994","07","05","13:00","29.0","","20.6","","61","","29","","26","","32.2","","99.42","","37","","","","Mainly Clear"
"1994-07-05 14:00","1994","07","05","14:00","30.0","","20.8","","58","","27","","24","","32.2","","99.39","","38","","","","Mostly Cloudy"
"1994-07-05 15:00","1994","07","05","15:00","31.0","","20.8","","55","","29","","19","","32.2","","99.39","","39","","","","Mostly Cloudy"
"1994-07-05 16:00","1994","07","05","16:00","29.7","","20.4","","57","","29","","15","","32.2","","99.32","","38","","","","Mainly Clear"
"1994-07-05 17:00","1994","07","05","17:00","29.6","","20.2","","57","","30","","19","","32.2","","99.39","","37","","","","Mainly Clear"
"1994-07-05 18:00","1994","07","05","18:00","29.5","","19.9","","56","","28","","19","","32.2","","99.42","","37","","","","Mainly Clear"
"1994-07-05 19:00","1994","07","05","19:00","28.0","","20.4","","63","","27","","7","","24.1","","99.35","","36","","","","Mainly Clear"
"1994-07-05 20:00","1994","07","05","20:00","25.6","","20.4","","73","","27","","7","","32.2","","99.35","","34","","","","Mainly Clear"
"1994-07-05 21:00","1994","07","05","21:00","24.5","","20.2","","77","","29","","4","","24.1","","99.42","","32","","","","Mainly Clear"
"1994-07-05 22:00","1994","07","05","22:00","23.6","","19.8","","79","","","","0","","24.1","","99.52","","31","","","","Mainly Clear"
"1994-07-05 23:00","1994","07","05","23:00","23.8","","20.6","","82","","","","0","","24.1","","99.49","","32","","","","Mainly Clear"
"1994-07-06 00:00","1994","07","06","00:00","21.8","","20.0","","90","","34","","7","","19.3","","99.52","","29","","","","Clear"
"1994-07-06 01:00","1994","07","06","01:00","21.9","","20.3","","91","","34","","4","","12.9","","99.52","","30","","","","Mostly Cloudy"
"1994-07-06 02:00","1994","07","06","02:00","21.2","","19.8","","92","","","","0","","12.9","","99.52","","29","","","","Mostly Cloudy"
"1994-07-06 03:00","1994","07","06","03:00","21.3","","18.6","","85","","18","","7","","11.3","","99.45","","28","","","","Thunderstorms,Rain Showers"
"1994-07-06 04:00","1994","07","06","04:00","20.8","","18.9","","89","","22","","7","","16.1","","99.39","","27","","","","Mostly Cloudy"
"1994-07-06 05:00","1994","07","06","05:00","21.0","","20.1","","95","","21","","7","","4.8","","99.39","","29","","","","Fog"
"1994-07-06 06:00","1994","07","06","06:00","20.4","","19.6","","95","","22","","11","","4.8","","99.45","","28","","","","Thunderstorms,Rain Showers,Fog"
"1994-07-06 07:00","1994","07","06","07:00","20.8","","20.1","","96","","18","","7","","6.4","","99.35","","28","","","","Fog"
"1994-07-06 08:00","1994","07","06","08:00","22.8","","21.0","","90","","21","","11","","8.0","","99.39","","31","","","","Fog"
"1994-07-06 09:00","1994","07","06","09:00","25.0","","21.3","","80","","23","","15","","11.3","","99.35","","34","","","","Mainly Clear"
"1994-07-06 10:00","1994","07","06","10:00","27.1","","22.3","","75","","25","","19","","9.7","","99.35","","37","","","","Haze"
"1994-07-06 11:00","1994","07","06","11:00","29.1","","23.9","","74","","27","","15","","9.7","","99.39","","40","","","","Haze"
"1994-07-06 12:00","1994","07","06","12:00","29.7","","24.1","","72","","28","","19","","9.7","","99.39","","41","","","","Haze"
"1994-07-06 13:00","1994","07","06","13:00","31.2","","23.1","","62","","28","","15","","11.3","","99.32","","42","","","","Mostly Cloudy"
"1994-07-06 14:00","1994","07","06","14:00","32.0","","23.9","","62","","29","","19","","12.9","","99.29","","43","","","","Mostly Cloudy"
"1994-07-06 15:00","1994","07","06","15:00","31.0","","22.8","","62","","31","","20","","19.3","","99.26","","41","","","","Mainly Clear"
"1994-07-06 16:00","1994","07","06","16:00","31.6","","22.5","","59","","30","","20","","19.3","","99.19","","41","","","","Mainly Clear"
"1994-07-06 17:00","1994","07","06","17:00","31.1","","22.5","","60","","32","","11","","19.3","","99.16","","41","","","","Mostly Cloudy"
"1994-07-06 18:00","1994","07","06","18:00","31.1","","22.5","","60","","27","","13","","19.3","","99.22","","41","","","","Mostly Cloudy"
"1994-07-06 19:00","1994","07","06","19:00","29.0","","22.7","","69","","28","","11","","19.3","","99.26","","39","","","","Mostly Cloudy"
"1994-07-06 20:00","1994","07","06","20:00","27.1","","22.6","","76","","30","","9","","12.9","","99.26","","37","","","","Mainly Clear"
"1994-07-06 21:00","1994","07","06","21:00","26.8","","23.2","","81","","34","","13","","12.9","","99.32","","37","","","","Mostly Cloudy"
"1994-07-06 22:00","1994","07","06","22:00","25.0","","22.2","","84","","35","","17","","12.9","","99.35","","35","","","","Mainly Clear"
"1994-07-06 23:00","1994","07","06","23:00","23.5","","21.5","","89","","34","","7","","12.9","","99.29","","32","","","","Mainly Clear"
"1994-07-07 00:00","1994","07","07","00:00","22.9","","21.0","","89","","33","","9","","11.3","","99.39","","31","","","","Mostly Cloudy"
"1994-07-07 01:00","1994","07","07","01:00","22.5","","20.5","","88","","32","","11","","11.3","","99.35","","30","","","","Mostly Cloudy"
"1994-07-07 02:00","1994","07","07","02:00","22.4","","18.7","","80","","32","","15","","12.9","","99.35","","29","","","","Thunderstorms,Rain Showers"
"1994-07-07 03:00","1994","07","07","03:00","21.7","","18.9","","84","","27","","7","","16.1","","99.35","","28","","","","Rain Showers"
"1994-07-07 04:00","1994","07","07","04:00","20.7","","19.0","","90","","20","","9","","8.0","","99.39","","27","","","","Thunderstorms,Rain,Fog"
"1994-07-07 05:00","1994","07","07","05:00","21.3","","20.6","","96","","19","","17","","9.7","","99.45","","29","","","","Thunderstorms,Rain,Fog"
"1994-07-07 06:00","1994","07","07","06:00","21.0","","20.0","","94","","","","0","","9.7","","99.45","","29","","","","Fog"
"1994-07-07 07:00","1994","07","07","07:00","21.5","","20.1","","92","","","","0","","9.7","","99.35","","29","","","","Fog"
"1994-07-07 08:00","1994","07","07","08:00","23.3","","19.1","","77","","","","0","","19.3","","99.39","","30","","","","Cloudy"
"1994-07-07 09:00","1994","07","07","09:00","25.3","","21.1","","78","","25","","15","","24.1","","99.42","","34","","","","Mostly Cloudy"
"1994-07-07 10:00","1994","07","07","10:00","26.7","","19.3","","64","","23","","19","","24.1","","99.42","","34","","","","Mostly Cloudy"
"1994-07-07 11:00","1994","07","07","11:00","27.7","","20.3","","64","","26","","15","","24.1","","99.45","","36","","","","Cloudy"
"1994-07-07 12:00","1994","07","07","12:00","26.8","","21.4","","72","","24","","15","","24.1","","99.49","","36","","","","Cloudy"
"1994-07-07 13:00","1994","07","07","13:00","27.4","","21.9","","72","","27","","9","","12.9","","99.49","","37","","","","Mostly Cloudy"
"1994-07-07 14:00","1994","07","07","14:00","28.5","","21.8","","67","","23","","7","","12.9","","99.45","","38","","","","Mostly Cloudy"
"1994-07-07 15:00","1994","07","07","15:00","29.5","","21.4","","62","","28","","7","","12.9","","99.45","","38","","","","Mostly Cloudy"
"1994-07-07 16:00","1994","07","07","16:00","27.0","","21.1","","70","","11","","17","","16.1","","99.45","","36","","","","Mostly Cloudy"
"1994-07-07 17:00","1994","07","07","17:00","25.6","","20.4","","73","","8","","13","","16.1","","99.42","","34","","","","Moderate Rain Showers"
"1994-07-07 18:00","1994","07","07","18:00","26.0","","22.4","","81","","15","","7","","12.9","","99.42","","36","","","","Rain Showers"
"1994-07-07 19:00","1994","07","07","19:00","26.4","","21.5","","74","","18","","13","","16.1","","99.45","","35","","","","Mostly Cloudy"
"1994-07-07 20:00","1994","07","07","20:00","25.0","","21.3","","80","","","","0","","12.9","","99.49","","34","","","","Mostly Cloudy"
"1994-07-07 21:00","1994","07","07","21:00","24.1","","20.9","","82","","14","","6","","12.9","","99.49","","32","","","","Mostly Cloudy"
"1994-07-07 22:00","1994","07","07","22:00","23.5","","20.7","","84","","","","0","","12.9","","99.55","","32","","","","Mostly Cloudy"
"1994-07-07 23:00","1994","07","07","23:00","23.2","","19.8","","81","","","","0","","11.3","","99.52","","31","","","","Mainly Clear"
"1994-07-08 00:00","1994","07","08","00:00","21.9","","19.4","","86","","17","","7","","11.3","","99.55","","29","","","","Clear"
"1994-07-08 01:00","1994","07","08","01:00","22.4","","19.3","","83","","12","","6","","16.1","","99.52","","29","","","","Cloudy"
"1994-07-08 02:00","1994","07","08","02:00","21.5","","20.1","","92","","","","0","","12.9","","99.55","","29","","","","Cloudy"
"1994-07-08 03:00","1994","07","08","03:00","22.0","","19.1","","84","","","","0","","11.3","","99.52","","29","","","","Mostly Cloudy"
"1994-07-08 04:00","1994","07","08","04:00","22.0","","19.4","","85","","","","0","","11.3","","99.49","","29","","","","Mainly Clear"
"1994-07-08 05:00","1994","07","08","05:00","21.3","","19.5","","89","","","","0","","8.0","","99.49","","28","","","","Fog"
"1994-07-08 06:00","1994","07","08","06:00","21.5","","19.2","","87","","","","0","","8.0","","99.49","","28","","","","Haze"
"1994-07-08 07:00","1994","07","08","07:00","22.0","","19.4","","85","","13","","7","","8.0","","99.52","","29","","","","Haze"
"1994-07-08 08:00","1994","07","08","08:00","22.6","","19.6","","83","","16","","7","","6.4","","99.55","","30","","","","Haze"
"1994-07-08 09:00","1994","07","08","09:00","25.0","","21.0","","78","","18","","15","","6.4","","99.55","","33","","","","Haze"
"1994-07-08 10:00","1994","07","08","10:00","25.5","","20.7","","75","","17","","9","","9.7","","99.55","","34","","","","Haze"
"1994-07-08 11:00","1994","07","08","11:00","27.5","","21.9","","72","","18","","9","","9.7","","99.49","","37","","","","Haze"
"1994-07-08 12:00","1994","07","08","12:00","28.4","","22.4","","70","","15","","17","","9.7","","99.49","","38","","","","Haze"
"1994-07-08 13:00","1994","07","08","13:00","28.8","","22.7","","70","","17","","22","","9.7","","99.42","","39","","","","Haze"
"1994-07-08 14:00","1994","07","08","14:00","29.6","","22.6","","66","","18","","24","","8.0","","99.35","","39","","","","Haze"
"1994-07-08 15:00","1994","07","08","15:00","28.7","","22.4","","69","","15","","20","","9.7","","99.32","","38","","","","Haze"
"1994-07-08 16:00","1994","07","08","16:00","29.0","","22.4","","68","","16","","28","","9.7","","99.26","","39","","","","Haze"
"1994-07-08 17:00","1994","07","08","17:00","29.0","","22.4","","68","","17","","19","","11.3","","99.19","","39","","","","Mostly Cloudy"
"1994-07-08 18:00","1994","07","08","18:00","29.0","","21.8","","65","","20","","19","","11.3","","99.22","","38","","","","Mostly Cloudy"
"1994-07-08 19:00","1994","07","08","19:00","28.6","","21.8","","67","","21","","15","","12.9","","99.19","","38","","","","Mainly Clear"
"1994-07-08 20:00","1994","07","08","20:00","27.6","","21.7","","70","","20","","13","","19.3","","99.19","","37","","","","Mainly Clear"
"1994-07-08 21:00","1994","07","08","21:00","27.4","","21.7","","71","","16","","11","","16.1","","99.29","","36","","","","Cloudy"
"1994-07-08 22:00","1994","07","08","22:00","24.0","","22.6","","92","","21","","15","","8.0","","99.26","","34","","","","Rain Showers,Fog"
"1994-07-08 23:00","1994","07","08","23:00","24.0","","22.9","","94","","18","","6","","8.0","","99.19","","34","","","","Fog"
"1994-07-09 00:00","1994","07","09","00:00","24.0","","22.6","","92","","18","","9","","8.0","","99.16","","34","","","","Fog"
"1994-07-09 01:00","1994","07","09","01:00","24.0","","21.8","","88","","22","","17","","6.4","","99.16","","33","","","","Haze"
"1994-07-09 02:00","1994","07","09","02:00","24.0","","21.8","","88","","22","","20","","8.0","","99.09","","33","","","","Haze"
"1994-07-09 03:00","1994","07","09","03:00","24.0","","21.8","","88","","22","","26","","6.4","","99.09","","33","","","","Haze"
"1994-07-09 04:00","1994","07","09","04:00","23.2","","21.6","","91","","22","","26","","6.4","","99.12","","32","","","","Fog"
"1994-07-09 05:00","1994","07","09","05:00","23.1","","21.6","","91","","22","","19","","9.7","","99.12","","32","","","","Fog"
"1994-07-09 06:00","1994","07","09","06:00","23.0","","21.6","","92","","21","","15","","9.7","","99.16","","32","","","","Fog"
"1994-07-09 07:00","1994","07","09","07:00","23.5","","21.8","","90","","22","","19","","9.7","","99.16","","33","","","","Fog"
"1994-07-09 08:00","1994","07","09","08:00","24.5","","21.7","","84","","22","","20","","12.9","","99.16","","34","","","","Mostly Cloudy"
"1994-07-09 09:00","1994","07","09","09:00","25.5","","21.6","","79","","25","","20","","19.3","","99.16","","34","","","","Mostly Cloudy"
"1994-07-09 10:00","1994","07","09","10:00","25.8","","20.3","","72","","27","","26","","19.3","","99.19","","34","","","","Mostly Cloudy"
"1994-07-09 11:00","1994","07","09","11:00","25.9","","18.4","","63","","24","","30","","24.1","","99.16","","32","","","","Mainly Clear"
"1994-07-09 12:00","1994","07","09","12:00","25.8","","17.1","","59","","26","","37","","32.2","","99.16","","31","","","","Mainly Clear"
"1994-07-09 13:00","1994","07","09","13:00","25.4","","15.8","","55","","25","","32","","40.2","","99.19","","30","","","","Mainly Clear"
"1994-07-09 14:00","1994","07","09","14:00","25.5","","15.1","","53","","25","","33","","40.2","","99.19","","30","","","","Mostly Cloudy"
"1994-07-09 15:00","1994","07","09","15:00","25.6","","14.4","","50","","26","","33","","40.2","","99.19","","29","","","","Mostly Cloudy"
"1994-07-09 16:00","1994","07","09","16:00","25.0","","14.8","","53","","26","","32","","32.2","","99.19","","29","","","","Mostly Cloudy"
"1994-07-09 17:00","1994","07","09","17:00","24.3","","15.3","","57","","24","","30","","32.2","","99.19","","28","","","","Mostly Cloudy"
"1994-07-09 18:00","1994","07","09","18:00","23.0","","16.7","","68","","24","","22","","32.2","","99.22","","28","","","","Mostly Cloudy"
"1994-07-09 19:00","1994","07","09","19:00","22.5","","16.4","","68","","24","","22","","32.2","","99.26","","27","","","","Mostly Cloudy"
"1994-07-09 20:00","1994","07","09","20:00","22.1","","16.9","","72","","25","","17","","24.1","","99.29","","27","","","","Rain Showers"
"1994-07-09 21:00","1994","07","09","21:00","22.0","","16.2","","70","","26","","11","","24.1","","99.29","","27","","","","Cloudy"
"1994-07-09 22:00","1994","07","09","22:00","21.7","","15.7","","69","","26","","13","","24.1","","99.29","","26","","","","Mostly Cloudy"
"1994-07-09 23:00","1994","07","09","23:00","21.2","","15.4","","69","","26","","15","","24.1","","99.29","","25","","","","Mostly Cloudy"
"1994-07-10 00:00","1994","07","10","00:00","20.6","","15.6","","73","","26","","15","","24.1","","99.29","","25","","","","Mostly Cloudy"
"1994-07-10 01:00","1994","07","10","01:00","20.0","","16.0","","78","","27","","17","","19.3","","99.29","","25","","","","Cloudy"
"1994-07-10 02:00","1994","07","10","02:00","19.5","","16.1","","81","","25","","11","","19.3","","99.26","","","","","","Mostly Cloudy"
"1994-07-10 03:00","1994","07","10","03:00","19.5","","16.1","","81","","26","","4","","16.1","","99.26","","","","","","Cloudy"
"1994-07-10 04:00","1994","07","10","04:00","19.0","","15.9","","82","","23","","7","","16.1","","99.26","","","","","","Mainly Clear"
"1994-07-10 05:00","1994","07","10","05:00","18.8","","16.9","","89","","24","","6","","16.1","","99.26","","","","","","Mostly Cloudy"
"1994-07-10 06:00","1994","07","10","06:00","18.0","","15.0","","83","","30","","30","","24.1","","99.32","","","","","","Mostly Cloudy"
"1994-07-10 07:00","1994","07","10","07:00","15.5","","11.8","","79","","31","","22","","40.2","","99.39","","","","","","Mainly Clear"
"1994-07-10 08:00","1994","07","10","08:00","15.5","","11.1","","75","","31","","35","","40.2","","99.49","","","","","","Mostly Cloudy"
"1994-07-10 09:00","1994","07","10","09:00","16.5","","11.8","","74","","30","","24","","40.2","","99.55","","","","","","Mostly Cloudy"
"1994-07-10 10:00","1994","07","10","10:00","17.4","","11.5","","68","","30","","32","","40.2","","99.59","","","","","","Mostly Cloudy"
"1994-07-10 11:00","1994","07","10","11:00","17.8","","11.3","","66","","33","","32","","40.2","","99.65","","","","","","Mostly Cloudy"
"1994-07-10 12:00","1994","07","10","12:00","18.8","","12.1","","65","","33","","28","","40.2","","99.69","","","","","","Mostly Cloudy"
"1994-07-10 13:00","1994","07","10","13:00","19.5","","11.9","","61","","32","","24","","40.2","","99.72","","","","","","Mostly Cloudy"
"1994-07-10 14:00","1994","07","10","14:00","20.1","","12.1","","60","","34","","24","","40.2","","99.75","","","","","","Mostly Cloudy"
"1994-07-10 15:00","1994","07","10","15:00","20.6","","11.6","","56","","33","","19","","40.2","","99.82","","","","","","Mostly Cloudy"
"1994-07-10 16:00","1994","07","10","16:00","20.8","","11.8","","56","","33","","19","","40.2","","99.82","","","","","","Mainly Clear"
"1994-07-10 17:00","1994","07","10","17:00","20.3","","12.7","","62","","35","","22","","40.2","","99.79","","","","","","Mainly Clear"
"1994-07-10 18:00","1994","07","10","18:00","21.2","","11.0","","52","","35","","20","","40.2","","99.82","","","","","","Clear"
"1994-07-10 19:00","1994","07","10","19:00","20.6","","10.8","","53","","34","","19","","40.2","","99.85","","","","","","Clear"
"1994-07-10 20:00","1994","07","10","20:00","18.8","","12.1","","65","","33","","9","","40.2","","99.85","","","","","","Clear"
"1994-07-10 21:00","1994","07","10","21:00","17.5","","11.1","","66","","34","","7","","25.0","","99.95","","","","","","Clear"
"1994-07-10 22:00","1994","07","10","22:00","15.7","","11.8","","78","","31","","9","","25.0","","99.95","","","","","","Clear"
"1994-07-10 23:00","1994","07","10","23:00","15.6","","11.8","","78","","32","","15","","25.0","","100.02","","","","","","Clear"
"1994-07-11 00:00","1994","07","11","00:00","14.4","","10.7","","78","","31","","7","","25.0","","99.99","","","","","","Clear"
"1994-07-11 01:00","1994","07","11","01:00","13.0","","9.4","","79","","32","","7","","25.0","","99.95","","","","","","Clear"
"1994-07-11 02:00","1994","07","11","02:00","12.4","","9.7","","84","","35","","4","","25.0","","99.95","","","","","","Clear"
"1994-07-11 03:00","1994","07","11","03:00","11.9","","9.5","","85","","35","","6","","25.0","","99.99","","","","","","Clear"
"1994-07-11 04:00","1994","07","11","04:00","11.0","","8.4","","84","","35","","7","","25.0","","99.99","","","","","","Clear"
"1994-07-11 05:00","1994","07","11","05:00","10.9","","8.4","","85","","31","","6","","25.0","","100.05","","","","","","Mainly Clear"
"1994-07-11 06:00","1994","07","11","06:00","12.8","","9.1","","78","","30","","4","","40.2","","100.05","","","","","","Mainly Clear"
"1994-07-11 07:00","1994","07","11","07:00","15.1","","8.6","","65","","32","","4","","40.2","","100.09","","","","","","Mainly Clear"
"1994-07-11 08:00","1994","07","11","08:00","18.4","","8.7","","53","","27","","6","","40.2","","100.12","","","","","","Mainly Clear"
"1994-07-11 09:00","1994","07","11","09:00","19.9","","6.6","","42","","28","","4","","40.2","","100.09","","","","","","Clear"
"1994-07-11 10:00","1994","07","11","10:00","21.1","","7.1","","40","","36","","9","","40.2","","100.05","","","","","","Clear"
"1994-07-11 11:00","1994","07","11","11:00","22.0","","8.1","","41","","32","","4","","40.2","","99.99","","","","","","Clear"
"1994-07-11 12:00","1994","07","11","12:00","23.1","","9.0","","41","","34","","9","","40.2","","99.99","","","","","","Mainly Clear"
"1994-07-11 13:00","1994","07","11","13:00","23.8","","9.5","","40","","25","","9","","40.2","","99.89","","25","","","","Mainly Clear"
"1994-07-11 14:00","1994","07","11","14:00","24.0","","9.5","","40","","16","","9","","40.2","","99.85","","25","","","","Mainly Clear"
"1994-07-11 15:00","1994","07","11","15:00","25.3","","10.3","","39","","25","","11","","40.2","","99.79","","27","","","","Mainly Clear"
"1994-07-11 16:00","1994","07","11","16:00","25.7","","11.2","","40","","26","","22","","40.2","","99.75","","28","","","","Mainly Clear"
"1994-07-11 17:00","1994","07","11","17:00","25.3","","11.6","","42","","25","","19","","40.2","","99.72","","27","","","","Mainly Clear"
"1994-07-11 18:00","1994","07","11","18:00","24.4","","11.1","","43","","22","","19","","40.2","","99.69","","26","","","","Mainly Clear"
"1994-07-11 19:00","1994","07","11","19:00","23.4","","10.6","","44","","25","","19","","40.2","","99.69","","25","","","","Mainly Clear"
"1994-07-11 20:00","1994","07","11","20:00","22.0","","8.5","","42","","22","","19","","40.2","","99.65","","","","","","Mainly Clear"
"1994-07-11 21:00","1994","07","11","21:00","20.8","","11.4","","55","","22","","19","","25.0","","99.65","","","","","","Clear"
"1994-07-11 22:00","1994","07","11","22:00","19.4","","10.4","","56","","22","","15","","25.0","","99.65","","","","","","Clear"
"1994-07-11 23:00","1994","07","11","23:00","17.8","","11.3","","66","","23","","15","","25.0","","99.62","","","","","","Clear"
"1994-07-12 00:00","1994","07","12","00:00","17.8","","9.7","","59","","22","","17","","25.0","","99.59","","","","","","Mainly Clear"
"1994-07-12 01:00","1994","07","12","01:00","17.0","","8.9","","59","","21","","13","","25.0","","99.55","","","","","","Mostly Cloudy"
"1994-07-12 02:00","1994","07","12","02:00","17.8","","10.5","","62","","21","","17","","25.0","","99.49","","","","","","Mostly Cloudy"
"1994-07-12 03:00","1994","07","12","03:00","17.6","","11.5","","67","","21","","13","","25.0","","99.39","","","","","","Mostly Cloudy"
"1994-07-12 04:00","1994","07","12","04:00","17.4","","12.6","","73","","21","","15","","24.1","","99.35","","","","","","Mostly Cloudy"
"1994-07-12 05:00","1994","07","12","05:00","18.5","","14.7","","79","","22","","30","","24.1","","99.32","","","","","","Cloudy"
"1994-07-12 06:00","1994","07","12","06:00","18.5","","14.7","","79","","21","","15","","24.1","","99.29","","","","","","Mostly Cloudy"
"1994-07-12 07:00","1994","07","12","07:00","19.8","","15.3","","75","","21","","15","","24.1","","99.22","","","","","","Mainly Clear"
"1994-07-12 08:00","1994","07","12","08:00","23.0","","16.0","","65","","25","","24","","24.1","","99.26","","28","","","","Mostly Cloudy"
"1994-07-12 09:00","1994","07","12","09:00","23.0","","17.0","","69","","25","","26","","32.2","","99.26","","28","","","","Mostly Cloudy"
"1994-07-12 10:00","1994","07","12","10:00","25.1","","18.3","","66","","25","","22","","32.2","","99.22","","31","","","","Mostly Cloudy"
"1994-07-12 11:00","1994","07","12","11:00","26.4","","18.7","","63","","26","","24","","24.1","","99.26","","33","","","","Mostly Cloudy"
"1994-07-12 12:00","1994","07","12","12:00","27.5","","19.2","","61","","27","","30","","19.3","","99.26","","34","","","","Mostly Cloudy"
"1994-07-12 13:00","1994","07","12","13:00","28.0","","19.4","","60","","25","","30","","16.1","","99.19","","35","","","","Mainly Clear"
"1994-07-12 14:00","1994","07","12","14:00","29.0","","19.6","","57","","27","","33","","16.1","","99.19","","36","","","","Mostly Cloudy"
"1994-07-12 15:00","1994","07","12","15:00","29.0","","19.3","","56","","26","","22","","19.3","","99.19","","36","","","","Mostly Cloudy"
"1994-07-12 16:00","1994","07","12","16:00","29.1","","18.9","","54","","28","","28","","19.3","","99.12","","36","","","","Mostly Cloudy"
"1994-07-12 17:00","1994","07","12","17:00","29.5","","19.2","","54","","24","","26","","19.3","","99.16","","36","","","","Mostly Cloudy"
"1994-07-12 18:00","1994","07","12","18:00","28.8","","20.2","","60","","25","","26","","19.3","","99.12","","37","","","","Mainly Clear"
"1994-07-12 19:00","1994","07","12","19:00","27.6","","20.4","","65","","25","","22","","19.3","","99.16","","36","","","","Mainly Clear"
"1994-07-12 20:00","1994","07","12","20:00","26.0","","20.3","","71","","26","","15","","19.3","","99.19","","34","","","","Mostly Cloudy"
"1994-07-12 21:00","1994","07","12","21:00","24.6","","19.9","","75","","27","","7","","19.3","","99.19","","32","","","","Mostly Cloudy"
"1994-07-12 22:00","1994","07","12","22:00","23.5","","19.1","","76","","24","","22","","19.3","","99.22","","30","","","","Mostly Cloudy"
"1994-07-12 23:00","1994","07","12","23:00","22.4","","18.1","","77","","26","","13","","19.3","","99.26","","28","","","","Mostly Cloudy"
"1994-07-13 00:00","1994","07","13","00:00","21.8","","18.5","","82","","26","","15","","19.3","","99.29","","28","","","","Mainly Clear"
"1994-07-13 01:00","1994","07","13","01:00","20.8","","18.6","","87","","27","","13","","16.1","","99.39","","27","","","","Mainly Clear"
"1994-07-13 02:00","1994","07","13","02:00","20.0","","18.2","","89","","26","","13","","12.9","","99.39","","26","","","","Mainly Clear"
"1994-07-13 03:00","1994","07","13","03:00","19.6","","18.0","","90","","27","","11","","12.9","","99.45","","","","","","Mainly Clear"
"1994-07-13 04:00","1994","07","13","04:00","19.0","","17.8","","93","","30","","11","","9.7","","99.49","","","","","","Fog"
"1994-07-13 05:00","1994","07","13","05:00","18.8","","15.3","","80","","30","","7","","16.1","","99.52","","","","","","Mostly Cloudy"
"1994-07-13 06:00","1994","07","13","06:00","19.0","","14.0","","73","","30","","7","","40.2","","99.49","","","","","","Mostly Cloudy"
"1994-07-13 07:00","1994","07","13","07:00","18.7","","12.2","","66","","33","","15","","32.2","","99.55","","","","","","Mostly Cloudy"
"1994-07-13 08:00","1994","07","13","08:00","21.3","","13.2","","60","","31","","17","","32.2","","99.55","","","","","","Mostly Cloudy"
"1994-07-13 09:00","1994","07","13","09:00","23.4","","13.4","","53","","31","","19","","32.2","","99.59","","26","","","","Mostly Cloudy"
"1994-07-13 10:00","1994","07","13","10:00","25.2","","13.7","","49","","28","","22","","32.2","","99.59","","28","","","","Mostly Cloudy"
"1994-07-13 11:00","1994","07","13","11:00","26.0","","13.0","","45","","30","","26","","40.2","","99.65","","29","","","","Mostly Cloudy"
"1994-07-13 12:00","1994","07","13","12:00","25.5","","12.8","","45","","30","","24","","40.2","","99.69","","28","","","","Mostly Cloudy"
"1994-07-13 13:00","1994","07","13","13:00","25.8","","12.7","","44","","28","","22","","40.2","","99.69","","28","","","","Mostly Cloudy"
"1994-07-13 14:00","1994","07","13","14:00","25.5","","10.8","","40","","28","","19","","40.2","","99.69","","27","","","","Mostly Cloudy"
"1994-07-13 15:00","1994","07","13","15:00","26.0","","11.5","","40","","35","","20","","40.2","","99.65","","28","","","","Mainly Clear"
"1994-07-13 16:00","1994","07","13","16:00","25.0","","13.3","","48","","1","","20","","40.2","","99.65","","28","","","","Mainly Clear"
"1994-07-13 17:00","1994","07","13","17:00","23.7","","13.4","","52","","36","","24","","40.2","","99.65","","27","","","","Mostly Cloudy"
"1994-07-13 18:00","1994","07","13","18:00","22.0","","12.3","","54","","36","","26","","40.2","","99.65","","","","","","Mostly Cloudy"
"1994-07-13 19:00","1994","07","13","19:00","21.0","","11.4","","54","","36","","24","","40.2","","99.72","","","","","","Mainly Clear"
"1994-07-13 20:00","1994","07","13","20:00","18.8","","10.9","","60","","36","","19","","40.2","","99.79","","","","","","Mainly Clear"
"1994-07-13 21:00","1994","07","13","21:00","17.4","","10.7","","65","","36","","17","","25.0","","99.85","","","","","","Mainly Clear"
"1994-07-13 22:00","1994","07","13","22:00","16.4","","10.7","","69","","36","","17","","25.0","","99.89","","","","","","Mainly Clear"
"1994-07-13 23:00","1994","07","13","23:00","15.6","","10.3","","71","","36","","17","","25.0","","99.85","","","","","","Mainly Clear"
"1994-07-14 00:00","1994","07","14","00:00","14.6","","10.3","","75","","1","","15","","25.0","","99.85","","","","","","Mainly Clear"
"1994-07-14 01:00","1994","07","14","01:00","14.1","","10.2","","77","","35","","15","","25.0","","99.85","","","","","","Mainly Clear"
"1994-07-14 02:00","1994","07","14","02:00","13.8","","11.3","","85","","36","","17","","25.0","","99.85","","","","","","Mainly Clear"
"1994-07-14 03:00","1994","07","14","03:00","13.2","","10.9","","86","","35","","11","","25.0","","99.82","","","","","","Clear"
"1994-07-14 04:00","1994","07","14","04:00","12.9","","11.3","","90","","34","","11","","25.0","","99.85","","","","","","Mainly Clear"
"1994-07-14 05:00","1994","07","14","05:00","13.2","","11.3","","88","","1","","9","","40.2","","99.85","","","","","","Mostly Cloudy"
"1994-07-14 06:00","1994","07","14","06:00","14.6","","12.2","","86","","2","","7","","40.2","","99.85","","","","","","Mostly Cloudy"
"1994-07-14 07:00","1994","07","14","07:00","17.5","","12.2","","71","","9","","15","","32.2","","99.89","","","","","","Cloudy"
"1994-07-14 08:00","1994","07","14","08:00","18.0","","12.0","","68","","9","","19","","32.2","","99.89","","","","","","Cloudy"
"1994-07-14 09:00","1994","07","14","09:00","18.5","","12.2","","67","","9","","20","","32.2","","99.85","","","","","","Cloudy"
"1994-07-14 10:00","1994","07","14","10:00","18.7","","11.9","","65","","10","","19","","32.2","","99.82","","","","","","Cloudy"
"1994-07-14 11:00","1994","07","14","11:00","20.0","","11.8","","59","","10","","20","","32.2","","99.85","","","","","","Mostly Cloudy"
"1994-07-14 12:00","1994","07","14","12:00","20.6","","11.2","","55","","9","","22","","40.2","","99.82","","","","","","Cloudy"
"1994-07-14 13:00","1994","07","14","13:00","21.0","","11.0","","53","","10","","19","","40.2","","99.79","","","","","","Mostly Cloudy"
"1994-07-14 14:00","1994","07","14","14:00","21.6","","11.7","","53","","11","","19","","40.2","","99.79","","","","","","Mostly Cloudy"
"1994-07-14 15:00","1994","07","14","15:00","23.1","","12.7","","52","","10","","20","","40.2","","99.75","","26","","","","Mostly Cloudy"
"1994-07-14 16:00","1994","07","14","16:00","23.0","","12.4","","51","","11","","22","","32.2","","99.72","","25","","","","Mainly Clear"
"1994-07-14 17:00","1994","07","14","17:00","23.0","","13.1","","54","","13","","22","","32.2","","99.69","","26","","","","Clear"
"1994-07-14 18:00","1994","07","14","18:00","22.0","","13.0","","57","","14","","19","","32.2","","99.69","","25","","","","Clear"
"1994-07-14 19:00","1994","07","14","19:00","20.9","","12.6","","59","","13","","17","","32.2","","99.69","","","","","","Mainly Clear"
"1994-07-14 20:00","1994","07","14","20:00","19.6","","12.7","","64","","9","","17","","25.0","","99.69","","","","","","Mainly Clear"
"1994-07-14 21:00","1994","07","14","21:00","19.1","","12.8","","67","","10","","15","","25.0","","99.69","","","","","","Mostly Cloudy"
"1994-07-14 22:00","1994","07","14","22:00","18.9","","13.2","","69","","10","","13","","25.0","","99.69","","","","","","Mostly Cloudy"
"1994-07-14 23:00","1994","07","14","23:00","18.5","","13.3","","72","","9","","9","","25.0","","99.65","","","","","","Mainly Clear"
"1994-07-15 00:00","1994","07","15","00:00","17.5","","13.3","","76","","7","","6","","25.0","","99.62","","","","","","Mostly Cloudy"
"1994-07-15 01:00","1994","07","15","01:00","18.3","","13.7","","75","","","","0","","25.0","","99.62","","","","","","Mostly Cloudy"
"1994-07-15 02:00","1994","07","15","02:00","17.7","","13.6","","77","","10","","6","","25.0","","99.55","","","","","","Mostly Cloudy"
"1994-07-15 03:00","1994","07","15","03:00","17.5","","14.0","","80","","12","","4","","25.0","","99.49","","","","","","Cloudy"
"1994-07-15 04:00","1994","07","15","04:00","17.6","","13.3","","76","","","","0","","25.0","","99.49","","","","","","Mostly Cloudy"
"1994-07-15 05:00","1994","07","15","05:00","17.0","","14.0","","82","","10","","9","","24.1","","99.45","","","","","","Cloudy"
"1994-07-15 06:00","1994","07","15","06:00","18.0","","15.5","","85","","12","","7","","19.3","","99.45","","","","","","Cloudy"
"1994-07-15 07:00","1994","07","15","07:00","19.2","","14.9","","76","","11","","11","","11.3","","99.42","","","","","","Cloudy"
"1994-07-15 08:00","1994","07","15","08:00","19.8","","17.3","","86","","13","","9","","6.4","","99.42","","","","","","Haze"
"1994-07-15 09:00","1994","07","15","09:00","20.8","","18.0","","84","","14","","15","","8.0","","99.35","","27","","","","Rain Showers,Haze"
"1994-07-15 10:00","1994","07","15","10:00","20.8","","18.3","","86","","16","","9","","8.0","","99.39","","27","","","","Haze"
"1994-07-15 11:00","1994","07","15","11:00","21.4","","18.6","","84","","14","","6","","9.7","","99.35","","28","","","","Rain Showers,Haze"
"1994-07-15 12:00","1994","07","15","12:00","21.4","","18.6","","84","","17","","7","","6.4","","99.32","","28","","","","Rain Showers,Haze"
"1994-07-15 13:00","1994","07","15","13:00","22.2","","18.8","","81","","18","","7","","4.8","","99.35","","29","","","","Haze"
"1994-07-15 14:00","1994","07","15","14:00","24.0","","20.0","","78","","27","","13","","8.0","","99.32","","32","","","","Haze"
"1994-07-15 15:00","1994","07","15","15:00","25.8","","19.7","","69","","28","","24","","8.0","","99.29","","33","","","","Haze"
"1994-07-15 16:00","1994","07","15","16:00","25.4","","18.8","","67","","27","","28","","9.7","","99.32","","32","","","","Haze"
"1994-07-15 17:00","1994","07","15","17:00","25.4","","17.2","","60","","30","","30","","16.1","","99.35","","31","","","","Mainly Clear"
"1994-07-15 18:00","1994","07","15","18:00","24.6","","17.4","","64","","28","","22","","19.3","","99.35","","30","","","","Mainly Clear"
"1994-07-15 19:00","1994","07","15","19:00","23.4","","17.2","","68","","29","","20","","19.3","","99.39","","29","","","","Mainly Clear"
"1994-07-15 20:00","1994","07","15","20:00","21.0","","16.4","","75","","30","","19","","19.3","","99.45","","26","","","","Mainly Clear"
"1994-07-15 21:00","1994","07","15","21:00","19.9","","16.0","","78","","30","","24","","19.3","","99.52","","","","","","Mainly Clear"
"1994-07-15 22:00","1994","07","15","22:00","19.1","","14.9","","77","","31","","22","","19.3","","99.59","","","","","","Mostly Cloudy"
"1994-07-15 23:00","1994","07","15","23:00","18.9","","15.3","","80","","31","","20","","25.0","","99.59","","","","","","Mostly Cloudy"
"1994-07-16 00:00","1994","07","16","00:00","17.7","","15.0","","84","","31","","19","","25.0","","99.69","","","","","","Mainly Clear"
"1994-07-16 01:00","1994","07","16","01:00","18.0","","15.5","","85","","31","","20","","25.0","","99.69","","","","","","Cloudy"
"1994-07-16 02:00","1994","07","16","02:00","18.3","","15.4","","83","","32","","11","","24.1","","99.72","","","","","","Cloudy"
"1994-07-16 03:00","1994","07","16","03:00","18.3","","15.0","","81","","31","","17","","19.3","","99.75","","","","","","Cloudy"
"1994-07-16 04:00","1994","07","16","04:00","17.0","","14.1","","83","","33","","13","","19.3","","99.75","","","","","","Clear"
"1994-07-16 05:00","1994","07","16","05:00","16.5","","13.6","","83","","32","","15","","24.1","","99.75","","","","","","Mainly Clear"
"1994-07-16 06:00","1994","07","16","06:00","16.4","","13.9","","85","","34","","15","","25.0","","99.79","","","","","","Mostly Cloudy"
"1994-07-16 07:00","1994","07","16","07:00","18.0","","13.8","","76","","31","","7","","40.2","","99.89","","","","","","Mostly Cloudy"
"1994-07-16 08:00","1994","07","16","08:00","19.2","","13.2","","68","","36","","7","","40.2","","99.92","","","","","","Mostly Cloudy"
"1994-07-16 09:00","1994","07","16","09:00","21.2","","14.2","","64","","1","","6","","40.2","","99.95","","25","","","","Mostly Cloudy"
"1994-07-16 10:00","1994","07","16","10:00","21.2","","14.2","","64","","34","","9","","40.2","","99.99","","25","","","","Mostly Cloudy"
"1994-07-16 11:00","1994","07","16","11:00","23.0","","13.9","","57","","35","","9","","40.2","","99.99","","26","","","","Mostly Cloudy"
"1994-07-16 12:00","1994","07","16","12:00","24.2","","14.4","","54","","36","","15","","40.2","","99.95","","28","","","","Mostly Cloudy"
"1994-07-16 13:00","1994","07","16","13:00","25.7","","14.0","","48","","36","","11","","40.2","","99.99","","29","","","","Mostly Cloudy"
"1994-07-16 14:00","1994","07","16","14:00","26.4","","12.1","","41","","36","","19","","40.2","","99.95","","29","","","","Mainly Clear"
"1994-07-16 15:00","1994","07","16","15:00","27.0","","12.8","","41","","1","","11","","40.2","","99.95","","30","","","","Mostly Cloudy"
"1994-07-16 16:00","1994","07","16","16:00","27.2","","12.0","","39","","36","","15","","40.2","","99.89","","29","","","","Mainly Clear"
"1994-07-16 17:00","1994","07","16","17:00","25.0","","14.5","","52","","16","","13","","40.2","","99.89","","29","","","","Mainly Clear"
"1994-07-16 18:00","1994","07","16","18:00","24.4","","14.2","","53","","15","","11","","40.2","","99.89","","28","","","","Mainly Clear"
"1994-07-16 19:00","1994","07","16","19:00","24.3","","13.9","","52","","17","","9","","40.2","","99.92","","28","","","","Mostly Cloudy"
"1994-07-16 20:00","1994","07","16","20:00","24.0","","14.0","","54","","","","0","","25.0","","99.95","","27","","","","Mostly Cloudy"
"1994-07-16 21:00","1994","07","16","21:00","22.1","","13.4","","58","","16","","2","","25.0","","99.99","","25","","","","Mainly Clear"
"1994-07-16 22:00","1994","07","16","22:00","22.0","","13.8","","60","","","","0","","25.0","","99.95","","25","","","","Mainly Clear"
"1994-07-16 23:00","1994","07","16","23:00","21.5","","13.5","","60","","","","0","","25.0","","99.95","","25","","","","Mainly Clear"
"1994-07-17 00:00","1994","07","17","00:00","18.0","","13.8","","76","","35","","6","","25.0","","99.99","","","","","","Mainly Clear"
"1994-07-17 01:00","1994","07","17","01:00","17.5","","14.0","","80","","36","","9","","25.0","","99.99","","","","","","Mostly Cloudy"
"1994-07-17 02:00","1994","07","17","02:00","17.1","","13.4","","79","","35","","6","","25.0","","99.95","","","","","","Mainly Clear"
"1994-07-17 03:00","1994","07","17","03:00","16.1","","13.4","","84","","34","","9","","25.0","","99.95","","","","","","Mainly Clear"
"1994-07-17 04:00","1994","07","17","04:00","15.0","","13.4","","90","","32","","7","","25.0","","99.99","","","","","","Mainly Clear"
"1994-07-17 05:00","1994","07","17","05:00","15.0","","13.0","","88","","35","","9","","25.0","","100.02","","","","","","Mostly Cloudy"
"1994-07-17 06:00","1994","07","17","06:00","16.0","","14.0","","88","","35","","6","","40.2","","100.05","","","","","","Mostly Cloudy"
"1994-07-17 07:00","1994","07","17","07:00","19.0","","14.0","","73","","","","0","","40.2","","100.05","","","","","","Mostly Cloudy"
"1994-07-17 08:00","1994","07","17","08:00","21.0","","14.0","","64","","11","","11","","40.2","","100.05","","","","","","Mostly Cloudy"
"1994-07-17 09:00","1994","07","17","09:00","22.0","","15.5","","67","","11","","15","","40.2","","100.05","","26","","","","Mostly Cloudy"
"1994-07-17 10:00","1994","07","17","10:00","22.5","","13.6","","57","","14","","15","","40.2","","100.02","","26","","","","Mostly Cloudy"
"1994-07-17 11:00","1994","07","17","11:00","24.5","","15.0","","55","","15","","13","","40.2","","99.99","","28","","","","Mostly Cloudy"
"1994-07-17 12:00","1994","07","17","12:00","23.5","","14.0","","55","","16","","15","","40.2","","99.99","","27","","","","Mostly Cloudy"
"1994-07-17 13:00","1994","07","17","13:00","24.5","","14.0","","52","","14","","17","","40.2","","99.95","","28","","","","Mostly Cloudy"
"1994-07-17 14:00","1994","07","17","14:00","25.0","","13.0","","47","","14","","13","","40.2","","99.85","","28","","","","Mostly Cloudy"
"1994-07-17 15:00","1994","07","17","15:00","25.5","","12.8","","45","","17","","11","","40.2","","99.82","","28","","","","Mostly Cloudy"
"1994-07-17 16:00","1994","07","17","16:00","26.2","","13.1","","44","","15","","13","","32.2","","99.75","","29","","","","Mostly Cloudy"
"1994-07-17 17:00","1994","07","17","17:00","25.9","","12.7","","44","","13","","17","","40.2","","99.69","","29","","","","Mainly Clear"
"1994-07-17 18:00","1994","07","17","18:00","25.5","","12.8","","45","","14","","15","","40.2","","99.69","","28","","","","Mainly Clear"
"1994-07-17 19:00","1994","07","17","19:00","23.2","","13.9","","56","","16","","9","","32.2","","99.69","","27","","","","Mostly Cloudy"
"1994-07-17 20:00","1994","07","17","20:00","20.7","","15.2","","71","","15","","13","","24.1","","99.65","","25","","","","Mostly Cloudy"
"1994-07-17 21:00","1994","07","17","21:00","20.5","","15.2","","72","","13","","7","","25.0","","99.65","","25","","","","Mostly Cloudy"
"1994-07-17 22:00","1994","07","17","22:00","20.6","","14.9","","70","","13","","6","","24.1","","99.62","","25","","","","Mostly Cloudy"
"1994-07-17 23:00","1994","07","17","23:00","20.7","","14.2","","66","","13","","7","","24.1","","99.59","","","","","","Mostly Cloudy"
"1994-07-18 00:00","1994","07","18","00:00","20.0","","14.3","","70","","7","","4","","24.1","","99.55","","","","","","Mostly Cloudy"
"1994-07-18 01:00","1994","07","18","01:00","19.9","","14.7","","72","","4","","4","","24.1","","99.52","","","","","","Mostly Cloudy"
"1994-07-18 02:00","1994","07","18","02:00","18.0","","14.8","","82","","34","","7","","19.3","","99.49","","","","","","Mostly Cloudy"
"1994-07-18 03:00","1994","07","18","03:00","16.9","","14.8","","87","","34","","2","","19.3","","99.45","","","","","","Mainly Clear"
"1994-07-18 04:00","1994","07","18","04:00","16.1","","14.4","","90","","35","","7","","19.3","","99.45","","","","","","Mainly Clear"
"1994-07-18 05:00","1994","07","18","05:00","15.7","","13.9","","89","","33","","7","","19.3","","99.49","","","","","","Mainly Clear"
"1994-07-18 06:00","1994","07","18","06:00","17.0","","14.8","","87","","","","0","","16.1","","99.52","","","","","","Mostly Cloudy"
"1994-07-18 07:00","1994","07","18","07:00","18.6","","15.4","","82","","34","","6","","19.3","","99.55","","","","","","Mostly Cloudy"
"1994-07-18 08:00","1994","07","18","08:00","19.4","","15.8","","80","","","","0","","16.1","","99.55","","","","","","Rain Showers"
"1994-07-18 09:00","1994","07","18","09:00","21.0","","16.0","","73","","","","0","","16.1","","99.55","","26","","","","Mostly Cloudy"
"1994-07-18 10:00","1994","07","18","10:00","23.7","","16.6","","64","","","","0","","12.9","","99.49","","29","","","","Clear"
"1994-07-18 11:00","1994","07","18","11:00","26.0","","14.2","","48","","","","0","","19.3","","99.49","","29","","","","Clear"
"1994-07-18 12:00","1994","07","18","12:00","26.5","","16.6","","55","","16","","19","","24.1","","99.45","","32","","","","Mainly Clear"
"1994-07-18 13:00","1994","07","18","13:00","26.0","","16.7","","57","","17","","20","","24.1","","99.39","","31","","","","Mainly Clear"
"1994-07-18 14:00","1994","07","18","14:00","27.0","","16.6","","53","","16","","17","","24.1","","99.35","","32","","","","Mainly Clear"
"1994-07-18 15:00","1994","07","18","15:00","27.8","","16.7","","51","","19","","22","","24.1","","99.29","","33","","","","Mainly Clear"
"1994-07-18 16:00","1994","07","18","16:00","27.5","","17.8","","55","","16","","15","","19.3","","99.26","","33","","","","Mainly Clear"
"1994-07-18 17:00","1994","07","18","17:00","26.8","","18.6","","61","","17","","15","","19.3","","99.26","","33","","","","Mainly Clear"
"1994-07-18 18:00","1994","07","18","18:00","28.0","","16.7","","50","","26","","19","","19.3","","99.29","","33","","","","Mainly Clear"
"1994-07-18 19:00","1994","07","18","19:00","26.8","","15.1","","49","","28","","13","","19.3","","99.29","","31","","","","Mostly Cloudy"
"1994-07-18 20:00","1994","07","18","20:00","25.0","","18.0","","65","","23","","7","","19.3","","99.35","","31","","","","Mostly Cloudy"
"1994-07-18 21:00","1994","07","18","21:00","23.6","","17.6","","69","","2","","11","","19.3","","99.42","","29","","","","Mainly Clear"
"1994-07-18 22:00","1994","07","18","22:00","21.5","","17.3","","77","","33","","9","","25.0","","99.45","","27","","","","Mainly Clear"
"1994-07-18 23:00","1994","07","18","23:00","19.4","","16.8","","85","","34","","6","","24.1","","99.45","","","","","","Clear"
"1994-07-19 00:00","1994","07","19","00:00","19.4","","16.4","","83","","31","","4","","24.1","","99.49","","","","","","Clear"
"1994-07-19 01:00","1994","07","19","01:00","18.6","","15.7","","83","","27","","6","","19.3","","99.49","","","","","","Mainly Clear"
"1994-07-19 02:00","1994","07","19","02:00","18.7","","15.7","","83","","","","0","","19.3","","99.49","","","","","","Mainly Clear"
"1994-07-19 03:00","1994","07","19","03:00","19.9","","16.7","","82","","","","0","","16.1","","99.45","","","","","","Mainly Clear"
"1994-07-19 04:00","1994","07","19","04:00","18.2","","16.5","","90","","","","0","","12.9","","99.49","","","","","","Mainly Clear"
"1994-07-19 05:00","1994","07","19","05:00","16.8","","15.8","","94","","30","","4","","6.4","","99.52","","","","","","Fog"
"1994-07-19 06:00","1994","07","19","06:00","18.0","","16.5","","91","","","","0","","9.7","","99.55","","","","","","Fog"
"1994-07-19 07:00","1994","07","19","07:00","20.5","","16.5","","78","","28","","4","","16.1","","99.65","","25","","","","Clear"
"1994-07-19 08:00","1994","07","19","08:00","24.4","","16.4","","61","","28","","13","","24.1","","99.65","","29","","","","Clear"
"1994-07-19 09:00","1994","07","19","09:00","25.9","","14.2","","48","","26","","17","","40.2","","99.69","","29","","","","Mainly Clear"
"1994-07-19 10:00","1994","07","19","10:00","26.8","","14.4","","47","","25","","17","","40.2","","99.69","","30","","","","Clear"
"1994-07-19 11:00","1994","07","19","11:00","27.6","","13.1","","41","","24","","17","","40.2","","99.69","","30","","","","Mainly Clear"
"1994-07-19 12:00","1994","07","19","12:00","28.6","","11.6","","35","","27","","19","","40.2","","99.69","","31","","","","Mostly Cloudy"
"1994-07-19 13:00","1994","07","19","13:00","29.0","","11.4","","34","","26","","11","","40.2","","99.69","","31","","","","Mainly Clear"
"1994-07-19 14:00","1994","07","19","14:00","28.9","","12.3","","36","","23","","15","","40.2","","99.65","","31","","","","Mainly Clear"
"1994-07-19 15:00","1994","07","19","15:00","30.1","","13.7","","37","","26","","17","","40.2","","99.65","","33","","","","Mainly Clear"
"1994-07-19 16:00","1994","07","19","16:00","29.7","","15.0","","41","","22","","19","","40.2","","99.65","","34","","","","Mainly Clear"
"1994-07-19 17:00","1994","07","19","17:00","29.9","","15.2","","41","","23","","17","","32.2","","99.62","","34","","","","Mainly Clear"
"1994-07-19 18:00","1994","07","19","18:00","28.5","","15.5","","45","","17","","15","","32.2","","99.62","","33","","","","Mostly Cloudy"
"1994-07-19 19:00","1994","07","19","19:00","27.5","","15.7","","49","","18","","15","","25.0","","99.65","","32","","","","Mostly Cloudy"
"1994-07-19 20:00","1994","07","19","20:00","27.0","","14.7","","47","","22","","15","","25.0","","99.69","","31","","","","Mostly Cloudy"
"1994-07-19 21:00","1994","07","19","21:00","24.6","","14.6","","54","","24","","7","","25.0","","99.75","","28","","","","Mostly Cloudy"
"1994-07-19 22:00","1994","07","19","22:00","23.4","","14.8","","58","","26","","4","","25.0","","99.79","","27","","","","Mostly Cloudy"
"1994-07-19 23:00","1994","07","19","23:00","23.7","","15.5","","60","","18","","7","","24.1","","99.85","","28","","","","Mostly Cloudy"
"1994-07-20 00:00","1994","07","20","00:00","23.0","","15.7","","63","","18","","4","","24.1","","99.82","","27","","","","Mostly Cloudy"
"1994-07-20 01:00","1994","07","20","01:00","21.5","","15.3","","68","","","","0","","24.1","","99.75","","26","","","","Mostly Cloudy"
"1994-07-20 02:00","1994","07","20","02:00","21.0","","15.4","","70","","16","","6","","24.1","","99.75","","25","","","","Mostly Cloudy"
"1994-07-20 03:00","1994","07","20","03:00","20.5","","15.9","","75","","","","0","","19.3","","99.75","","25","","","","Mostly Cloudy"
"1994-07-20 04:00","1994","07","20","04:00","19.5","","15.5","","78","","","","0","","19.3","","99.75","","","","","","Mostly Cloudy"
"1994-07-20 05:00","1994","07","20","05:00","18.0","","15.2","","84","","","","0","","19.3","","99.82","","","","","","Mostly Cloudy"
"1994-07-20 06:00","1994","07","20","06:00","19.8","","16.9","","83","","16","","4","","9.7","","99.75","","","","","","Fog"
"1994-07-20 07:00","1994","07","20","07:00","21.5","","17.3","","77","","14","","6","","19.3","","99.82","","27","","","","Mostly Cloudy"
"1994-07-20 08:00","1994","07","20","08:00","23.6","","16.9","","66","","16","","9","","12.9","","99.79","","29","","","","Mostly Cloudy"
"1994-07-20 09:00","1994","07","20","09:00","24.6","","17.4","","64","","16","","9","","12.9","","99.82","","30","","","","Cloudy"
"1994-07-20 10:00","1994","07","20","10:00","23.0","","18.6","","76","","15","","15","","12.9","","99.75","","29","","","","Cloudy"
"1994-07-20 11:00","1994","07","20","11:00","24.0","","19.1","","74","","22","","9","","9.7","","99.85","","31","","","","Haze"
"1994-07-20 12:00","1994","07","20","12:00","24.0","","21.2","","84","","22","","15","","8.0","","99.79","","33","","","","Rain Showers,Haze"
"1994-07-20 13:00","1994","07","20","13:00","24.0","","22.0","","89","","15","","15","","6.4","","99.69","","33","","","","Rain Showers,Fog"
"1994-07-20 14:00","1994","07","20","14:00","24.4","","21.1","","82","","13","","6","","6.4","","99.69","","33","","","","Haze"
"1994-07-20 15:00","1994","07","20","15:00","25.6","","21.6","","79","","15","","9","","9.7","","99.69","","35","","","","Haze"
"1994-07-20 16:00","1994","07","20","16:00","26.5","","21.5","","74","","15","","7","","9.7","","99.69","","35","","","","Haze"
"1994-07-20 17:00","1994","07","20","17:00","28.0","","21.6","","68","","17","","13","","9.7","","99.62","","37","","","","Haze"
"1994-07-20 18:00","1994","07","20","18:00","27.0","","21.4","","71","","14","","13","","8.0","","99.55","","36","","","","Haze"
"1994-07-20 19:00","1994","07","20","19:00","25.4","","20.7","","75","","14","","9","","6.4","","99.55","","34","","","","Haze"
"1994-07-20 20:00","1994","07","20","20:00","24.5","","20.8","","80","","15","","9","","4.8","","99.55","","33","","","","Haze"
"1994-07-20 21:00","1994","07","20","21:00","24.0","","20.6","","81","","14","","9","","6.4","","99.55","","32","","","","Haze"
"1994-07-20 22:00","1994","07","20","22:00","23.2","","20.4","","84","","15","","6","","6.4","","99.59","","31","","","","Haze"
"1994-07-20 23:00","1994","07","20","23:00","23.3","","20.9","","86","","17","","4","","6.4","","99.59","","32","","","","Fog"
"1994-07-21 00:00","1994","07","21","00:00","23.0","","20.7","","87","","13","","6","","6.4","","99.55","","31","","","","Fog"
"1994-07-21 01:00","1994","07","21","01:00","23.3","","20.9","","86","","","","0","","4.8","","99.55","","32","","","","Fog"
"1994-07-21 02:00","1994","07","21","02:00","23.1","","20.7","","86","","","","0","","6.4","","99.49","","31","","","","Haze"
"1994-07-21 03:00","1994","07","21","03:00","21.6","","19.8","","90","","","","0","","4.8","","99.49","","29","","","","Fog"
"1994-07-21 04:00","1994","07","21","04:00","22.5","","20.5","","88","","13","","6","","4.8","","99.45","","30","","","","Fog"
"1994-07-21 05:00","1994","07","21","05:00","21.7","","20.1","","91","","17","","6","","2.4","","99.45","","29","","","","Fog"
"1994-07-21 06:00","1994","07","21","06:00","21.7","","20.4","","92","","16","","4","","1.6","","99.45","","30","","","","Fog"
"1994-07-21 07:00","1994","07","21","07:00","23.1","","21.0","","88","","","","0","","2.0","","99.45","","32","","","","Fog"
"1994-07-21 08:00","1994","07","21","08:00","25.6","","23.0","","86","","21","","6","","4.0","","99.42","","36","","","","Fog"
"1994-07-21 09:00","1994","07","21","09:00","25.3","","23.0","","87","","","","0","","3.2","","99.39","","36","","","","Fog"
"1994-07-21 10:00","1994","07","21","10:00","27.3","","22.2","","74","","22","","13","","6.4","","99.39","","37","","","","Haze"
"1994-07-21 11:00","1994","07","21","11:00","28.3","","22.2","","70","","19","","13","","8.0","","99.39","","38","","","","Haze"
"1994-07-21 12:00","1994","07","21","12:00","27.1","","22.3","","75","","17","","11","","8.0","","99.32","","37","","","","Haze"
"1994-07-21 13:00","1994","07","21","13:00","28.8","","20.0","","59","","20","","19","","9.7","","99.19","","36","","","","Haze"
"1994-07-21 14:00","1994","07","21","14:00","29.3","","18.5","","52","","18","","22","","11.3","","99.16","","36","","","","Mostly Cloudy"
"1994-07-21 15:00","1994","07","21","15:00","29.0","","19.3","","56","","17","","20","","11.3","","99.09","","36","","","","Mostly Cloudy"
"1994-07-21 16:00","1994","07","21","16:00","30.9","","18.7","","48","","25","","22","","19.3","","98.99","","37","","","","Mostly Cloudy"
"1994-07-21 17:00","1994","07","21","17:00","30.9","","19.0","","49","","24","","26","","24.1","","98.96","","38","","","","Mainly Clear"
"1994-07-21 18:00","1994","07","21","18:00","29.8","","19.1","","53","","21","","17","","24.1","","98.92","","37","","","","Mainly Clear"
"1994-07-21 19:00","1994","07","21","19:00","29.0","","19.6","","57","","21","","17","","24.1","","98.92","","36","","","","Mainly Clear"
"1994-07-21 20:00","1994","07","21","20:00","28.3","","20.0","","61","","21","","11","","19.3","","98.89","","36","","","","Cloudy"
"1994-07-21 21:00","1994","07","21","21:00","27.9","","20.0","","62","","21","","7","","12.9","","98.89","","35","","","","Heavy Rain Showers"
"1994-07-21 22:00","1994","07","21","22:00","24.6","","20.8","","79","","17","","4","","8.0","","98.89","","33","","","","Mostly Cloudy"
"1994-07-21 23:00","1994","07","21","23:00","23.7","","20.9","","84","","26","","4","","11.3","","98.86","","32","","","","Mostly Cloudy"
"1994-07-22 00:00","1994","07","22","00:00","23.0","","21.3","","90","","","","0","","9.7","","98.86","","32","","","","Fog"
"1994-07-22 01:00","1994","07","22","01:00","23.0","","20.7","","87","","22","","4","","6.4","","98.86","","31","","","","Fog"
"1994-07-22 02:00","1994","07","22","02:00","23.0","","20.4","","85","","21","","7","","8.0","","98.82","","31","","","","Haze"
"1994-07-22 03:00","1994","07","22","03:00","22.0","","20.9","","93","","23","","19","","4.0","","98.86","","30","","","","Thunderstorms,Heavy Rain Showers,Fog"
"1994-07-22 04:00","1994","07","22","04:00","22.0","","21.1","","95","","18","","4","","4.8","","98.79","","31","","","","Rain Showers,Fog"
"1994-07-22 05:00","1994","07","22","05:00","22.0","","20.9","","93","","19","","7","","4.0","","98.82","","30","","","","Fog"
"1994-07-22 06:00","1994","07","22","06:00","21.6","","20.6","","94","","22","","15","","6.4","","98.86","","30","","","","Rain Showers,Fog"
"1994-07-22 07:00","1994","07","22","07:00","22.1","","20.3","","90","","19","","7","","9.7","","98.82","","30","","","","Fog"
"1994-07-22 08:00","1994","07","22","08:00","23.1","","21.6","","91","","21","","11","","9.7","","98.86","","32","","","","Fog"
"1994-07-22 09:00","1994","07","22","09:00","22.9","","21.3","","91","","22","","17","","9.7","","98.82","","32","","","","Fog"
"1994-07-22 10:00","1994","07","22","10:00","23.9","","21.5","","86","","23","","15","","11.3","","98.86","","33","","","","Mostly Cloudy"
"1994-07-22 11:00","1994","07","22","11:00","25.4","","20.7","","75","","23","","13","","12.9","","98.86","","34","","","","Mostly Cloudy"
"1994-07-22 12:00","1994","07","22","12:00","26.8","","19.6","","65","","23","","19","","19.3","","98.82","","34","","","","Mostly Cloudy"
"1994-07-22 13:00","1994","07","22","13:00","27.8","","18.6","","57","","24","","17","","24.1","","98.79","","34","","","","Mostly Cloudy"
"1994-07-22 14:00","1994","07","22","14:00","27.0","","19.9","","65","","22","","20","","24.1","","98.76","","34","","","","Mostly Cloudy"
"1994-07-22 15:00","1994","07","22","15:00","27.0","","19.9","","65","","22","","19","","12.9","","98.69","","34","","","","Cloudy"
"1994-07-22 16:00","1994","07","22","16:00","27.0","","19.9","","65","","23","","22","","12.9","","98.69","","34","","","","Mostly Cloudy"
"1994-07-22 17:00","1994","07","22","17:00","26.0","","19.4","","67","","23","","22","","12.9","","98.69","","33","","","","Mostly Cloudy"
"1994-07-22 18:00","1994","07","22","18:00","25.8","","19.7","","69","","22","","24","","19.3","","98.72","","33","","","","Thunderstorms,Rain Showers"
"1994-07-22 19:00","1994","07","22","19:00","20.2","","18.8","","92","","15","","9","","8.0","","98.79","","27","","","","Rain Showers,Fog"
"1994-07-22 20:00","1994","07","22","20:00","22.0","","19.1","","84","","19","","9","","11.3","","98.76","","29","","","","Mostly Cloudy"
"1994-07-22 21:00","1994","07","22","21:00","22.0","","20.1","","89","","18","","4","","12.9","","98.79","","30","","","","Mostly Cloudy"
"1994-07-22 22:00","1994","07","22","22:00","22.0","","20.6","","92","","22","","28","","11.3","","98.79","","30","","","","Rain Showers"
"1994-07-22 23:00","1994","07","22","23:00","21.0","","18.9","","88","","21","","11","","19.3","","98.72","","28","","","","Mainly Clear"
"1994-07-23 00:00","1994","07","23","00:00","21.0","","18.6","","86","","24","","7","","12.9","","98.79","","27","","","","Mostly Cloudy"
"1994-07-23 01:00","1994","07","23","01:00","20.4","","18.4","","88","","21","","7","","12.9","","98.76","","27","","","","Mostly Cloudy"
"1994-07-23 02:00","1994","07","23","02:00","19.5","","18.3","","93","","27","","6","","12.9","","98.72","","","","","","Mainly Clear"
"1994-07-23 03:00","1994","07","23","03:00","20.0","","19.1","","95","","","","0","","12.9","","98.72","","27","","","","Mainly Clear"
"1994-07-23 04:00","1994","07","23","04:00","20.2","","18.8","","92","","","","0","","12.9","","98.76","","27","","","","Mainly Clear"
"1994-07-23 05:00","1994","07","23","05:00","19.6","","18.6","","94","","24","","6","","9.7","","98.76","","","","","","Fog"
"1994-07-23 06:00","1994","07","23","06:00","19.8","","18.8","","94","","23","","9","","8.0","","98.79","","","","","","Fog"
"1994-07-23 07:00","1994","07","23","07:00","20.5","","18.7","","89","","24","","13","","8.0","","98.86","","27","","","","Fog"
"1994-07-23 08:00","1994","07","23","08:00","22.0","","19.1","","84","","27","","19","","9.7","","98.89","","29","","","","Haze"
"1994-07-23 09:00","1994","07","23","09:00","23.0","","18.6","","76","","26","","19","","19.3","","98.92","","29","","","","Mostly Cloudy"
"1994-07-23 10:00","1994","07","23","10:00","24.0","","18.1","","70","","26","","19","","19.3","","98.92","","30","","","","Mostly Cloudy"
"1994-07-23 11:00","1994","07","23","11:00","24.5","","17.7","","66","","26","","22","","19.3","","98.92","","30","","","","Mostly Cloudy"
"1994-07-23 12:00","1994","07","23","12:00","23.5","","18.2","","72","","26","","22","","19.3","","98.96","","30","","","","Mainly Clear"
"1994-07-23 13:00","1994","07","23","13:00","25.0","","17.6","","64","","27","","26","","40.2","","98.89","","31","","","","Mainly Clear"
"1994-07-23 14:00","1994","07","23","14:00","25.3","","17.2","","61","","28","","30","","40.2","","98.92","","31","","","","Mostly Cloudy"
"1994-07-23 15:00","1994","07","23","15:00","25.9","","16.7","","57","","28","","30","","40.2","","98.92","","31","","","","Mainly Clear"
"1994-07-23 16:00","1994","07","23","16:00","26.0","","15.3","","52","","27","","32","","40.2","","98.89","","30","","","","Mainly Clear"
"1994-07-23 17:00","1994","07","23","17:00","25.8","","15.7","","54","","27","","26","","40.2","","98.89","","30","","","","Mainly Clear"
"1994-07-23 18:00","1994","07","23","18:00","25.2","","15.6","","55","","29","","28","","40.2","","98.92","","30","","","","Mainly Clear"
"1994-07-23 19:00","1994","07","23","19:00","24.2","","16.1","","61","","28","","19","","40.2","","98.96","","29","","","","Mainly Clear"
"1994-07-23 20:00","1994","07","23","20:00","22.3","","16.4","","69","","27","","11","","40.2","","98.99","","27","","","","Mainly Clear"
"1994-07-23 21:00","1994","07","23","21:00","21.5","","16.0","","71","","26","","11","","25.0","","99.06","","26","","","","Mainly Clear"
"1994-07-23 22:00","1994","07","23","22:00","20.1","","16.3","","79","","25","","6","","25.0","","99.09","","25","","","","Clear"
"1994-07-23 23:00","1994","07","23","23:00","19.6","","16.1","","80","","26","","7","","25.0","","99.09","","","","","","Mainly Clear"
"1994-07-24 00:00","1994","07","24","00:00","19.6","","16.1","","80","","24","","9","","25.0","","99.06","","","","","","Mainly Clear"
"1994-07-24 01:00","1994","07","24","01:00","20.0","","16.0","","78","","24","","11","","25.0","","99.06","","25","","","","Mainly Clear"
"1994-07-24 02:00","1994","07","24","02:00","19.5","","15.8","","79","","25","","11","","25.0","","98.99","","","","","","Mainly Clear"
"1994-07-24 03:00","1994","07","24","03:00","19.6","","15.8","","79","","25","","9","","25.0","","98.99","","","","","","Clear"
"1994-07-24 04:00","1994","07","24","04:00","19.0","","15.6","","81","","25","","7","","25.0","","98.99","","","","","","Mainly Clear"
"1994-07-24 05:00","1994","07","24","05:00","18.0","","16.1","","89","","31","","9","","25.0","","98.99","","","","","","Mostly Cloudy"
"1994-07-24 06:00","1994","07","24","06:00","18.0","","16.1","","89","","25","","4","","25.0","","99.06","","","","","","Mostly Cloudy"
"1994-07-24 07:00","1994","07","24","07:00","19.4","","16.4","","83","","","","0","","40.2","","99.06","","","","","","Mostly Cloudy"
"1994-07-24 08:00","1994","07","24","08:00","20.9","","16.4","","75","","","","0","","40.2","","99.09","","26","","","","Mostly Cloudy"
"1994-07-24 09:00","1994","07","24","09:00","22.9","","15.4","","63","","20","","9","","40.2","","99.09","","27","","","","Mostly Cloudy"
"1994-07-24 10:00","1994","07","24","10:00","24.0","","14.7","","56","","22","","6","","40.2","","99.06","","28","","","","Mainly Clear"
"1994-07-24 11:00","1994","07","24","11:00","24.6","","16.7","","61","","23","","13","","40.2","","98.99","","30","","","","Mainly Clear"
"1994-07-24 12:00","1994","07","24","12:00","25.0","","16.6","","60","","15","","13","","40.2","","98.99","","30","","","","Clear"
"1994-07-24 13:00","1994","07","24","13:00","25.5","","17.2","","60","","18","","13","","40.2","","98.96","","31","","","","Mostly Cloudy"
"1994-07-24 14:00","1994","07","24","14:00","28.4","","18.3","","54","","24","","17","","40.2","","98.89","","35","","","","Mostly Cloudy"
"1994-07-24 15:00","1994","07","24","15:00","28.0","","17.8","","54","","29","","19","","32.2","","98.86","","34","","","","Mostly Cloudy"
"1994-07-24 16:00","1994","07","24","16:00","27.9","","15.6","","47","","28","","26","","32.2","","98.86","","32","","","","Mainly Clear"
"1994-07-24 17:00","1994","07","24","17:00","27.9","","14.6","","44","","27","","24","","32.2","","98.86","","32","","","","Mainly Clear"
"1994-07-24 18:00","1994","07","24","18:00","26.4","","15.2","","50","","28","","24","","32.2","","98.89","","30","","","","Mostly Cloudy"
"1994-07-24 19:00","1994","07","24","19:00","25.1","","13.7","","49","","29","","19","","32.2","","98.96","","28","","","","Mostly Cloudy"
"1994-07-24 20:00","1994","07","24","20:00","21.5","","15.7","","70","","36","","7","","25.0","","98.99","","26","","","","Mostly Cloudy"
"1994-07-24 21:00","1994","07","24","21:00","20.0","","16.0","","78","","35","","6","","25.0","","99.09","","25","","","","Mostly Cloudy"
"1994-07-24 22:00","1994","07","24","22:00","19.5","","16.1","","81","","","","0","","25.0","","99.09","","","","","","Mostly Cloudy"
"1994-07-24 23:00","1994","07","24","23:00","18.4","","15.7","","84","","","","0","","25.0","","99.09","","","","","","Mainly Clear"
"1994-07-25 00:00","1994","07","25","00:00","18.6","","15.4","","82","","","","0","","25.0","","99.06","","","","","","Mainly Clear"
"1994-07-25 01:00","1994","07","25","01:00","17.0","","14.4","","85","","","","0","","25.0","","99.06","","","","","","Mostly Cloudy"
"1994-07-25 02:00","1994","07","25","02:00","16.9","","14.1","","84","","","","0","","25.0","","99.02","","","","","","Mainly Clear"
"1994-07-25 03:00","1994","07","25","03:00","16.9","","13.4","","80","","31","","2","","25.0","","98.99","","","","","","Mainly Clear"
"1994-07-25 04:00","1994","07","25","04:00","14.9","","14.0","","94","","","","0","","25.0","","98.99","","","","","","Mainly Clear"
"1994-07-25 05:00","1994","07","25","05:00","14.4","","13.2","","92","","33","","6","","25.0","","98.99","","","","","","Mainly Clear"
"1994-07-25 06:00","1994","07","25","06:00","15.2","","13.4","","89","","","","0","","40.2","","98.99","","","","","","Mainly Clear"
"1994-07-25 07:00","1994","07","25","07:00","18.0","","14.8","","82","","","","0","","40.2","","98.99","","","","","","Mainly Clear"
"1994-07-25 08:00","1994","07","25","08:00","21.3","","15.3","","69","","25","","6","","40.2","","99.02","","25","","","","Clear"
"1994-07-25 09:00","1994","07","25","09:00","23.3","","15.2","","60","","26","","13","","40.2","","98.99","","27","","","","Clear"
"1994-07-25 10:00","1994","07","25","10:00","24.8","","14.5","","53","","20","","9","","40.2","","98.99","","28","","","","Mainly Clear"
"1994-07-25 11:00","1994","07","25","11:00","26.0","","13.1","","45","","27","","19","","40.2","","98.96","","29","","","","Mainly Clear"
"1994-07-25 12:00","1994","07","25","12:00","26.5","","12.1","","41","","22","","17","","40.2","","98.89","","29","","","","Mainly Clear"
"1994-07-25 13:00","1994","07","25","13:00","27.0","","13.6","","44","","27","","13","","40.2","","98.86","","30","","","","Mainly Clear"
"1994-07-25 14:00","1994","07","25","14:00","26.0","","13.1","","45","","24","","20","","40.2","","98.79","","29","","","","Mainly Clear"
"1994-07-25 15:00","1994","07","25","15:00","27.5","","13.5","","42","","25","","26","","40.2","","98.69","","31","","","","Mostly Cloudy"
"1994-07-25 16:00","1994","07","25","16:00","27.7","","13.5","","42","","25","","22","","40.2","","98.66","","31","","","","Mainly Clear"
"1994-07-25 17:00","1994","07","25","17:00","25.6","","13.6","","47","","26","","15","","40.2","","98.66","","29","","","","Rain Showers"
"1994-07-25 18:00","1994","07","25","18:00","20.0","","15.3","","74","","27","","11","","32.2","","98.66","","","","","","Thunderstorms,Rain Showers"
"1994-07-25 19:00","1994","07","25","19:00","19.8","","17.0","","84","","","","0","","32.2","","98.62","","","","","","Thunderstorms,Rain Showers"
"1994-07-25 20:00","1994","07","25","20:00","19.8","","17.9","","89","","","","0","","24.1","","98.62","","","","","","Mostly Cloudy"
"1994-07-25 21:00","1994","07","25","21:00","20.5","","16.5","","78","","","","0","","24.1","","98.66","","25","","","","Mostly Cloudy"
"1994-07-25 22:00","1994","07","25","22:00","18.0","","14.8","","82","","33","","11","","16.1","","98.66","","","","","","Thunderstorms,Rain Showers"
"1994-07-25 23:00","1994","07","25","23:00","17.1","","15.4","","90","","8","","6","","19.3","","98.59","","","","","","Mostly Cloudy"
"1994-07-26 00:00","1994","07","26","00:00","17.5","","15.9","","90","","15","","6","","12.9","","98.59","","","","","","Mostly Cloudy"
"1994-07-26 01:00","1994","07","26","01:00","18.1","","15.8","","86","","18","","7","","12.9","","98.59","","","","","","Mostly Cloudy"
"1994-07-26 02:00","1994","07","26","02:00","17.5","","15.6","","89","","","","0","","12.9","","98.56","","","","","","Mostly Cloudy"
"1994-07-26 03:00","1994","07","26","03:00","16.9","","15.4","","91","","24","","6","","12.9","","98.56","","","","","","Clear"
"1994-07-26 04:00","1994","07","26","04:00","16.0","","14.7","","92","","","","0","","12.9","","98.56","","","","","","Clear"
"1994-07-26 05:00","1994","07","26","05:00","14.8","","14.4","","97","","30","","9","","12.9","","98.59","","","","","","Clear"
"1994-07-26 06:00","1994","07","26","06:00","15.3","","14.9","","97","","33","","6","","12.9","","98.62","","","","","","Mainly Clear"
"1994-07-26 07:00","1994","07","26","07:00","17.0","","14.4","","85","","36","","6","","32.2","","98.59","","","","","","Mainly Clear"
"1994-07-26 08:00","1994","07","26","08:00","18.4","","14.7","","79","","","","0","","40.2","","98.62","","","","","","Mainly Clear"
"1994-07-26 09:00","1994","07","26","09:00","20.5","","15.9","","75","","20","","4","","40.2","","98.66","","25","","","","Mainly Clear"
"1994-07-26 10:00","1994","07","26","10:00","21.5","","15.3","","68","","25","","22","","24.1","","98.66","","26","","","","Mainly Clear"
"1994-07-26 11:00","1994","07","26","11:00","18.6","","14.4","","77","","33","","22","","40.2","","98.69","","","","","","Mostly Cloudy"
"1994-07-26 12:00","1994","07","26","12:00","20.6","","14.4","","68","","26","","19","","40.2","","98.76","","","","","","Mostly Cloudy"
"1994-07-26 13:00","1994","07","26","13:00","22.5","","13.3","","56","","28","","24","","40.2","","98.76","","25","","","","Mainly Clear"
"1994-07-26 14:00","1994","07","26","14:00","21.6","","12.8","","57","","28","","19","","40.2","","98.76","","","","","","Mostly Cloudy"
"1994-07-26 15:00","1994","07","26","15:00","20.8","","13.3","","62","","27","","17","","40.2","","98.79","","","","","","Mostly Cloudy"
"1994-07-26 16:00","1994","07","26","16:00","22.0","","11.5","","51","","29","","20","","40.2","","98.76","","","","","","Mainly Clear"
"1994-07-26 17:00","1994","07","26","17:00","22.4","","10.5","","47","","30","","24","","40.2","","98.79","","","","","","Mainly Clear"
"1994-07-26 18:00","1994","07","26","18:00","21.8","","10.3","","48","","27","","20","","40.2","","98.79","","","","","","Clear"
"1994-07-26 19:00","1994","07","26","19:00","20.7","","8.7","","46","","29","","20","","40.2","","98.86","","","","","","Clear"
"1994-07-26 20:00","1994","07","26","20:00","17.9","","10.5","","62","","28","","9","","40.2","","98.89","","","","","","Clear"
"1994-07-26 21:00","1994","07","26","21:00","17.2","","10.1","","63","","27","","6","","25.0","","98.96","","","","","","Clear"
"1994-07-26 22:00","1994","07","26","22:00","16.8","","10.5","","66","","26","","6","","25.0","","98.99","","","","","","Clear"
"1994-07-26 23:00","1994","07","26","23:00","15.2","","10.9","","75","","","","0","","25.0","","99.02","","","","","","Clear"
"1994-07-27 00:00","1994","07","27","00:00","14.0","","10.5","","79","","30","","4","","25.0","","99.02","","","","","","Clear"
"1994-07-27 01:00","1994","07","27","01:00","13.6","","10.7","","83","","","","0","","25.0","","99.02","","","","","","Clear"
"1994-07-27 02:00","1994","07","27","02:00","13.0","","10.9","","87","","","","0","","25.0","","99.02","","","","","","Clear"
"1994-07-27 03:00","1994","07","27","03:00","12.5","","10.4","","87","","","","0","","25.0","","99.02","","","","","","Clear"
"1994-07-27 04:00","1994","07","27","04:00","11.7","","10.1","","90","","","","0","","25.0","","99.02","","","","","","Clear"
"1994-07-27 05:00","1994","07","27","05:00","11.7","","9.9","","89","","","","0","","25.0","","99.06","","","","","","Mainly Clear"
"1994-07-27 06:00","1994","07","27","06:00","13.7","","11.1","","84","","","","0","","40.2","","99.06","","","","","","Mostly Cloudy"
"1994-07-27 07:00","1994","07","27","07:00","16.6","","12.2","","75","","","","0","","32.2","","99.09","","","","","","Mostly Cloudy"
"1994-07-27 08:00","1994","07","27","08:00","18.4","","12.2","","67","","","","0","","32.2","","99.09","","","","","","Mostly Cloudy"
"1994-07-27 09:00","1994","07","27","09:00","20.5","","12.4","","60","","","","0","","32.2","","99.12","","","","","","Mostly Cloudy"
"1994-07-27 10:00","1994","07","27","10:00","21.2","","11.8","","55","","","","0","","32.2","","99.16","","","","","","Mostly Cloudy"
"1994-07-27 11:00","1994","07","27","11:00","23.2","","12.8","","52","","18","","9","","32.2","","99.12","","26","","","","Mostly Cloudy"
"1994-07-27 12:00","1994","07","27","12:00","22.8","","12.0","","51","","14","","9","","40.2","","99.16","","25","","","","Mostly Cloudy"
"1994-07-27 13:00","1994","07","27","13:00","21.8","","11.1","","51","","14","","19","","40.2","","99.16","","","","","","Cloudy"
"1994-07-27 14:00","1994","07","27","14:00","23.0","","12.7","","52","","18","","17","","40.2","","99.09","","26","","","","Mostly Cloudy"
"1994-07-27 15:00","1994","07","27","15:00","22.0","","11.7","","52","","17","","17","","24.1","","99.09","","","","","","Cloudy"
"1994-07-27 16:00","1994","07","27","16:00","21.6","","11.3","","52","","16","","11","","24.1","","99.09","","","","","","Cloudy"
"1994-07-27 17:00","1994","07","27","17:00","21.8","","12.7","","56","","15","","11","","24.1","","99.06","","","","","","Cloudy"
"1994-07-27 18:00","1994","07","27","18:00","21.5","","12.4","","56","","15","","7","","32.2","","99.06","","","","","","Mostly Cloudy"
"1994-07-27 19:00","1994","07","27","19:00","21.0","","15.4","","70","","13","","11","","24.1","","99.06","","25","","","","Mostly Cloudy"
"1994-07-27 20:00","1994","07","27","20:00","20.0","","15.3","","74","","13","","7","","24.1","","99.09","","","","","","Mostly Cloudy"
"1994-07-27 21:00","1994","07","27","21:00","19.0","","14.3","","74","","7","","9","","25.0","","99.12","","","","","","Mostly Cloudy"
"1994-07-27 22:00","1994","07","27","22:00","19.0","","13.3","","70","","8","","7","","25.0","","99.16","","","","","","Cloudy"
"1994-07-27 23:00","1994","07","27","23:00","19.0","","13.3","","70","","5","","4","","25.0","","99.16","","","","","","Cloudy"
"1994-07-28 00:00","1994","07","28","00:00","17.7","","14.6","","82","","34","","9","","25.0","","99.12","","","","","","Cloudy"
"1994-07-28 01:00","1994","07","28","01:00","17.2","","14.8","","86","","32","","7","","24.1","","99.09","","","","","","Cloudy"
"1994-07-28 02:00","1994","07","28","02:00","18.0","","14.2","","78","","1","","9","","19.3","","99.06","","","","","","Cloudy"
"1994-07-28 03:00","1994","07","28","03:00","17.4","","14.3","","82","","1","","7","","19.3","","99.02","","","","","","Rain Showers"
"1994-07-28 04:00","1994","07","28","04:00","16.7","","14.3","","86","","35","","17","","19.3","","99.06","","","","","","Cloudy"
"1994-07-28 05:00","1994","07","28","05:00","16.5","","14.6","","89","","36","","15","","19.3","","99.09","","","","","","Cloudy"
"1994-07-28 06:00","1994","07","28","06:00","17.0","","14.4","","85","","34","","13","","24.1","","99.12","","","","","","Mostly Cloudy"
"1994-07-28 07:00","1994","07","28","07:00","18.0","","14.8","","82","","35","","15","","24.1","","99.16","","","","","","Mostly Cloudy"
"1994-07-28 08:00","1994","07","28","08:00","19.0","","14.9","","77","","36","","15","","19.3","","99.19","","","","","","Mainly Clear"
"1994-07-28 09:00","1994","07","28","09:00","20.4","","15.9","","75","","36","","9","","19.3","","99.22","","25","","","","Cloudy"
"1994-07-28 10:00","1994","07","28","10:00","21.0","","14.0","","64","","6","","7","","19.3","","99.26","","","","","","Cloudy"
"1994-07-28 11:00","1994","07","28","11:00","22.5","","15.1","","63","","5","","9","","19.3","","99.26","","27","","","","Cloudy"
"1994-07-28 12:00","1994","07","28","12:00","22.5","","14.7","","61","","4","","7","","16.1","","99.26","","26","","","","Cloudy"
"1994-07-28 13:00","1994","07","28","13:00","23.0","","15.3","","62","","5","","7","","32.2","","99.26","","27","","","","Cloudy"
"1994-07-28 14:00","1994","07","28","14:00","21.8","","16.9","","74","","14","","11","","19.3","","99.22","","27","","","","Mostly Cloudy"
"1994-07-28 15:00","1994","07","28","15:00","22.6","","16.4","","68","","17","","15","","11.3","","99.26","","27","","","","Mostly Cloudy"
"1994-07-28 16:00","1994","07","28","16:00","22.5","","15.8","","66","","31","","11","","16.1","","99.35","","27","","","","Cloudy"
"1994-07-28 17:00","1994","07","28","17:00","17.8","","14.5","","81","","1","","17","","16.1","","99.35","","","","","","Mostly Cloudy"
"1994-07-28 18:00","1994","07","28","18:00","17.5","","14.3","","81","","36","","13","","19.3","","99.39","","","","","","Mostly Cloudy"
"1994-07-28 19:00","1994","07","28","19:00","17.8","","15.2","","85","","30","","7","","19.3","","99.42","","","","","","Rain Showers"
"1994-07-28 20:00","1994","07","28","20:00","16.5","","14.9","","90","","29","","9","","19.3","","99.39","","","","","","Mainly Clear"
"1994-07-28 21:00","1994","07","28","21:00","16.1","","14.7","","91","","25","","2","","19.3","","99.45","","","","","","Mainly Clear"
"1994-07-28 22:00","1994","07","28","22:00","15.7","","14.2","","91","","","","0","","12.9","","99.49","","","","","","Mainly Clear"
"1994-07-28 23:00","1994","07","28","23:00","15.3","","14.2","","93","","","","0","","16.1","","99.52","","","","","","Mainly Clear"
"1994-07-29 00:00","1994","07","29","00:00","15.0","","13.4","","90","","","","0","","19.3","","99.55","","","","","","Clear"
"1994-07-29 01:00","1994","07","29","01:00","14.1","","13.0","","93","","","","0","","16.1","","99.55","","","","","","Clear"
"1994-07-29 02:00","1994","07","29","02:00","13.5","","12.5","","94","","35","","7","","16.1","","99.55","","","","","","Mainly Clear"
"1994-07-29 03:00","1994","07","29","03:00","13.4","","12.5","","94","","","","0","","19.3","","99.59","","","","","","Mainly Clear"
"1994-07-29 04:00","1994","07","29","04:00","13.0","","12.0","","94","","33","","7","","19.3","","99.59","","","","","","Clear"
"1994-07-29 05:00","1994","07","29","05:00","12.4","","11.8","","96","","","","0","","19.3","","99.65","","","","","","Clear"
"1994-07-29 06:00","1994","07","29","06:00","13.5","","12.5","","94","","","","0","","40.2","","99.72","","","","","","Clear"
"1994-07-29 07:00","1994","07","29","07:00","16.5","","14.6","","89","","","","0","","40.2","","99.75","","","","","","Clear"
"1994-07-29 08:00","1994","07","29","08:00","19.4","","14.8","","75","","","","0","","40.2","","99.75","","","","","","Clear"
"1994-07-29 09:00","1994","07","29","09:00","21.5","","14.3","","64","","","","0","","40.2","","99.82","","25","","","","Clear"
"1994-07-29 10:00","1994","07","29","10:00","22.5","","9.7","","44","","","","0","","40.2","","99.85","","","","","","Clear"
"1994-07-29 11:00","1994","07","29","11:00","24.0","","10.8","","43","","25","","6","","40.2","","99.85","","26","","","","Clear"
"1994-07-29 12:00","1994","07","29","12:00","24.3","","11.5","","45","","28","","9","","40.2","","99.85","","26","","","","Mainly Clear"
"1994-07-29 13:00","1994","07","29","13:00","25.6","","10.3","","38","","","","0","","40.2","","99.82","","27","","","","Mainly Clear"
"1994-07-29 14:00","1994","07","29","14:00","25.7","","9.9","","37","","","","0","","40.2","","99.79","","27","","","","Mainly Clear"
"1994-07-29 15:00","1994","07","29","15:00","26.0","","12.7","","44","","18","","15","","40.2","","99.75","","29","","","","Mainly Clear"
"1994-07-29 16:00","1994","07","29","16:00","25.5","","12.0","","43","","15","","13","","40.2","","99.75","","28","","","","Mainly Clear"
"1994-07-29 17:00","1994","07","29","17:00","25.0","","11.3","","42","","15","","19","","40.2","","99.72","","27","","","","Clear"
"1994-07-29 18:00","1994","07","29","18:00","24.6","","10.2","","40","","14","","15","","40.2","","99.75","","26","","","","Clear"
"1994-07-29 19:00","1994","07","29","19:00","23.8","","10.4","","43","","14","","9","","40.2","","99.79","","25","","","","Mainly Clear"
"1994-07-29 20:00","1994","07","29","20:00","23.0","","10.8","","46","","12","","6","","25.0","","99.79","","25","","","","Mainly Clear"
"1994-07-29 21:00","1994","07","29","21:00","21.0","","10.8","","52","","","","0","","25.0","","99.85","","","","","","Mainly Clear"
"1994-07-29 22:00","1994","07","29","22:00","22.0","","10.3","","47","","10","","6","","25.0","","99.79","","","","","","Mostly Cloudy"
"1994-07-29 23:00","1994","07","29","23:00","21.1","","10.6","","51","","13","","2","","25.0","","99.82","","","","","","Mostly Cloudy"
"1994-07-30 00:00","1994","07","30","00:00","16.9","","13.8","","82","","35","","7","","25.0","","99.79","","","","","","Mostly Cloudy"
"1994-07-30 01:00","1994","07","30","01:00","16.6","","13.6","","82","","33","","9","","25.0","","99.79","","","","","","Mostly Cloudy"
"1994-07-30 02:00","1994","07","30","02:00","17.1","","13.1","","77","","1","","9","","25.0","","99.69","","","","","","Mostly Cloudy"
"1994-07-30 03:00","1994","07","30","03:00","17.0","","13.8","","81","","","","0","","25.0","","99.72","","","","","","Mostly Cloudy"
"1994-07-30 04:00","1994","07","30","04:00","16.8","","15.4","","91","","","","0","","6.4","","99.72","","","","","","Thunderstorms,Moderate Rain Showers"
"1994-07-30 05:00","1994","07","30","05:00","16.4","","14.6","","89","","","","0","","6.4","","99.79","","","","","","Heavy Rain"
"1994-07-30 06:00","1994","07","30","06:00","16.0","","15.4","","96","","33","","13","","9.7","","99.75","","","","","","Rain,Fog"
"1994-07-30 07:00","1994","07","30","07:00","16.5","","15.6","","94","","33","","9","","12.9","","99.79","","","","","","Rain"
"1994-07-30 08:00","1994","07","30","08:00","16.5","","15.9","","96","","","","0","","9.7","","99.82","","","","","","Rain,Fog"
"1994-07-30 09:00","1994","07","30","09:00","17.2","","15.8","","91","","31","","4","","9.7","","99.85","","","","","","Rain,Fog"
"1994-07-30 10:00","1994","07","30","10:00","18.6","","16.3","","86","","30","","4","","12.9","","99.85","","","","","","Mostly Cloudy"
"1994-07-30 11:00","1994","07","30","11:00","20.7","","17.5","","82","","24","","6","","16.1","","99.92","","26","","","","Mostly Cloudy"
"1994-07-30 12:00","1994","07","30","12:00","22.5","","18.1","","76","","23","","9","","24.1","","99.92","","29","","","","Mostly Cloudy"
"1994-07-30 13:00","1994","07","30","13:00","23.5","","17.6","","69","","19","","9","","24.1","","99.85","","29","","","","Mostly Cloudy"
"1994-07-30 14:00","1994","07","30","14:00","24.5","","16.4","","61","","22","","19","","24.1","","99.85","","29","","","","Mostly Cloudy"
"1994-07-30 15:00","1994","07","30","15:00","26.0","","16.1","","54","","25","","13","","19.3","","99.85","","31","","","","Mostly Cloudy"
"1994-07-30 16:00","1994","07","30","16:00","22.5","","18.1","","76","","7","","11","","19.3","","99.85","","29","","","","Mostly Cloudy"
"1994-07-30 17:00","1994","07","30","17:00","24.0","","16.8","","64","","14","","7","","24.1","","99.82","","29","","","","Mostly Cloudy"
"1994-07-30 18:00","1994","07","30","18:00","23.6","","16.6","","65","","17","","7","","24.1","","99.79","","29","","","","Mainly Clear"
"1994-07-30 19:00","1994","07","30","19:00","23.3","","17.6","","70","","23","","15","","24.1","","99.82","","29","","","","Mainly Clear"
"1994-07-30 20:00","1994","07","30","20:00","21.5","","16.3","","72","","","","0","","19.3","","99.85","","26","","","","Mainly Clear"
"1994-07-30 21:00","1994","07","30","21:00","20.8","","17.1","","79","","22","","7","","16.1","","99.95","","26","","","","Clear"
"1994-07-30 22:00","1994","07","30","22:00","19.5","","16.8","","84","","25","","4","","16.1","","99.95","","","","","","Clear"
"1994-07-30 23:00","1994","07","30","23:00","18.7","","16.3","","86","","26","","4","","16.1","","99.99","","","","","","Mainly Clear"
"1994-07-31 00:00","1994","07","31","00:00","18.9","","16.6","","87","","","","0","","16.1","","99.99","","","","","","Mainly Clear"
"1994-07-31 01:00","1994","07","31","01:00","18.6","","16.3","","86","","","","0","","12.9","","99.99","","","","","","Clear"
"1994-07-31 02:00","1994","07","31","02:00","17.0","","16.1","","94","","","","0","","12.9","","100.02","","","","","","Clear"
"1994-07-31 03:00","1994","07","31","03:00","16.2","","15.4","","95","","32","","7","","12.9","","100.02","","","","","","Clear"
"1994-07-31 04:00","1994","07","31","04:00","18.0","","16.5","","91","","","","0","","12.9","","100.02","","","","","","Clear"
"1994-07-31 05:00","1994","07","31","05:00","17.2","","16.6","","96","","","","0","","6.4","","100.05","","","","","","Fog"
"1994-07-31 06:00","1994","07","31","06:00","17.5","","16.6","","94","","","","0","","6.4","","100.09","","","","","","Fog"
"1994-07-31 07:00","1994","07","31","07:00","18.6","","17.0","","90","","","","0","","8.0","","100.15","","","","","","Fog"
"1994-07-31 08:00","1994","07","31","08:00","20.5","","17.5","","83","","20","","4","","9.7","","100.15","","26","","","","Haze"
"1994-07-31 09:00","1994","07","31","09:00","23.0","","19.2","","79","","21","","7","","9.7","","100.15","","30","","","","Haze"
"1994-07-31 10:00","1994","07","31","10:00","24.5","","18.7","","70","","21","","9","","11.3","","100.12","","31","","","","Mainly Clear"
"1994-07-31 11:00","1994","07","31","11:00","25.2","","18.9","","68","","19","","9","","11.3","","100.09","","32","","","","Mainly Clear"
"1994-07-31 12:00","1994","07","31","12:00","26.1","","16.4","","55","","24","","15","","12.9","","100.05","","31","","","","Mainly Clear"
"1994-07-31 13:00","1994","07","31","13:00","27.4","","16.5","","51","","25","","17","","19.3","","99.99","","32","","","","Mainly Clear"
"1994-07-31 14:00","1994","07","31","14:00","26.2","","17.4","","58","","17","","19","","16.1","","99.95","","32","","","","Mostly Cloudy"
"1994-07-31 15:00","1994","07","31","15:00","27.3","","17.8","","56","","20","","19","","16.1","","99.92","","33","","","","Mostly Cloudy"
"1994-07-31 16:00","1994","07","31","16:00","27.2","","17.2","","54","","20","","19","","16.1","","99.89","","33","","","","Mostly Cloudy"
"1994-07-31 17:00","1994","07","31","17:00","24.2","","17.5","","66","","18","","22","","11.3","","99.89","","30","","","","Mostly Cloudy"
"1994-07-31 18:00","1994","07","31","18:00","26.0","","17.8","","61","","18","","7","","12.9","","99.85","","32","","","","Mostly Cloudy"
"1994-07-31 19:00","1994","07","31","19:00"
"1994-07-31 20:00","1994","07","31","20:00"
"1994-07-31 21:00","1994","07","31","21:00"
"1994-07-31 22:00","1994","07","31","22:00"
"1994-07-31 23:00","1994","07","31","23:00"
