"Station Name","TORONTO LESTER B. PEARSON INT'L A"
"Province","ONTARIO"
"Latitude","43.68"
"Longitude","-79.63"
"Elevation","173.40"
"Climate Identifier","6158733"
"WMO Identifier","71624"
"TC Identifier","YYZ"
"All times are specified in Local Standard Time (LST). Add 1 hour to adjust for Daylight Saving Time where and when it is observed."

"Legend"
"E","Estimated"
"M","Missing"
"NA","Not Available"

"Date/Time","Year","Month","Day","Time","Temp (°C)","Temp Flag","Dew Point Temp (°C)","Dew Point Temp Flag","Rel Hum (%)","Rel Hum Flag","Wind Dir (10s deg)","Wind Dir Flag","Wind Spd (km/h)","Wind Spd Flag","Visibility (km)","Visibility Flag","Stn Press (kPa)","Stn Press Flag","Hmdx","Hmdx Flag","Wind Chill","Wind Chill Flag","Weather"
"1999-10-01 00:00","1999","10","01","00:00","13.2","","6.3","","63","","20","","20","","25.0","","98.79","","","","","","Clear"
"1999-10-01 01:00","1999","10","01","01:00","12.8","","5.6","","62","","22","","19","","24.1","","98.76","","","","","","Clear"
"1999-10-01 02:00","1999","10","01","02:00","12.8","","4.6","","57","","24","","19","","24.1","","98.76","","","","","","Mainly Clear"
"1999-10-01 03:00","1999","10","01","03:00","12.7","","4.7","","58","","23","","13","","24.1","","98.72","","","","","","Mainly Clear"
"1999-10-01 04:00","1999","10","01","04:00","12.1","","5.1","","62","","21","","11","","24.1","","98.76","","","","","","Clear"
"1999-10-01 05:00","1999","10","01","05:00","11.1","","5.6","","69","","23","","7","","24.1","","98.82","","","","","","Clear"
"1999-10-01 06:00","1999","10","01","06:00","11.1","","5.7","","69","","25","","17","","24.1","","98.86","","","","","","Clear"
"1999-10-01 07:00","1999","10","01","07:00","10.7","","5.8","","72","","27","","15","","25.0","","98.96","","","","","","Clear"
"1999-10-01 08:00","1999","10","01","08:00","12.7","","5.9","","63","","27","","20","","25.0","","99.06","","","","","","Mainly Clear"
"1999-10-01 09:00","1999","10","01","09:00","13.5","","6.0","","60","","27","","30","","25.0","","99.12","","","","","","Mainly Clear"
"1999-10-01 10:00","1999","10","01","10:00","14.4","","5.4","","55","","28","","33","","25.0","","99.16","","","","","","Mostly Cloudy"
"1999-10-01 11:00","1999","10","01","11:00","15.7","","4.8","","48","","26","","39","","25.0","","99.16","","","","","","Mostly Cloudy"
"1999-10-01 12:00","1999","10","01","12:00","15.0","","3.7","","47","","27","","32","","25.0","","99.19","","","","","","Mostly Cloudy"
"1999-10-01 13:00","1999","10","01","13:00","15.2","","3.8","","46","","29","","26","","25.0","","99.22","","","","","","Mostly Cloudy"
"1999-10-01 14:00","1999","10","01","14:00","15.8","","4.1","","46","","28","","32","","24.1","","99.29","","","","","","Mainly Clear"
"1999-10-01 15:00","1999","10","01","15:00","14.9","","3.3","","46","","27","","30","","24.1","","99.35","","","","","","Mostly Cloudy"
"1999-10-01 16:00","1999","10","01","16:00","14.6","","3.8","","48","","29","","30","","24.1","","99.39","","","","","","Mostly Cloudy"
"1999-10-01 17:00","1999","10","01","17:00","14.2","","3.6","","49","","29","","22","","24.1","","99.49","","","","","","Mainly Clear"
"1999-10-01 18:00","1999","10","01","18:00","13.1","","3.8","","53","","29","","19","","24.1","","99.55","","","","","","Mainly Clear"
"1999-10-01 19:00","1999","10","01","19:00","11.4","","4.1","","61","","29","","11","","24.1","","99.62","","","","","","Clear"
"1999-10-01 20:00","1999","10","01","20:00","10.7","","4.3","","65","","27","","7","","24.1","","99.65","","","","","","Mainly Clear"
"1999-10-01 21:00","1999","10","01","21:00","10.2","","4.3","","67","","28","","6","","24.1","","99.69","","","","","","Mainly Clear"
"1999-10-01 22:00","1999","10","01","22:00","9.7","","4.5","","70","","27","","6","","24.1","","99.69","","","","","","Mostly Cloudy"
"1999-10-01 23:00","1999","10","01","23:00","9.0","","4.1","","71","","28","","7","","24.1","","99.72","","","","","","Mainly Clear"
"1999-10-02 00:00","1999","10","02","00:00","7.9","","4.6","","80","","27","","6","","24.1","","99.72","","","","","","Mainly Clear"
"1999-10-02 01:00","1999","10","02","01:00","7.8","","4.6","","80","","27","","6","","24.1","","99.79","","","","","","Mostly Cloudy"
"1999-10-02 02:00","1999","10","02","02:00","7.9","","4.9","","81","","29","","4","","24.1","","99.79","","","","","","Mostly Cloudy"
"1999-10-02 03:00","1999","10","02","03:00","8.5","","4.3","","75","","29","","6","","25.0","","99.75","","","","","","Mostly Cloudy"
"1999-10-02 04:00","1999","10","02","04:00","8.6","","4.3","","74","","","","0","","25.0","","99.75","","","","","","Mostly Cloudy"
"1999-10-02 05:00","1999","10","02","05:00","8.4","","5.3","","81","","29","","4","","25.0","","99.79","","","","","","Mostly Cloudy"
"1999-10-02 06:00","1999","10","02","06:00","9.0","","5.3","","78","","29","","4","","24.1","","99.75","","","","","","Mostly Cloudy"
"1999-10-02 07:00","1999","10","02","07:00","10.0","","5.1","","72","","","","0","","24.1","","99.82","","","","","","Cloudy"
"1999-10-02 08:00","1999","10","02","08:00","10.2","","6.4","","77","","","","0","","24.1","","99.79","","","","","","Cloudy"
"1999-10-02 09:00","1999","10","02","09:00","11.1","","6.8","","75","","36","","7","","24.1","","99.75","","","","","","Cloudy"
"1999-10-02 10:00","1999","10","02","10:00","12.0","","7.2","","72","","4","","6","","24.1","","99.69","","","","","","Cloudy"
"1999-10-02 11:00","1999","10","02","11:00","12.9","","8.8","","76","","4","","6","","19.3","","99.65","","","","","","Rain"
"1999-10-02 12:00","1999","10","02","12:00","10.9","","8.6","","86","","36","","15","","16.1","","99.65","","","","","","Rain"
"1999-10-02 13:00","1999","10","02","13:00","10.6","","9.2","","91","","36","","17","","14.5","","99.59","","","","","","Rain"
"1999-10-02 14:00","1999","10","02","14:00","10.8","","9.9","","94","","2","","15","","8.0","","99.52","","","","","","Rain,Fog"
"1999-10-02 15:00","1999","10","02","15:00","11.1","","10.4","","95","","6","","7","","4.8","","99.55","","","","","","Rain,Fog"
"1999-10-02 16:00","1999","10","02","16:00","11.9","","11.4","","97","","14","","6","","4.8","","99.55","","","","","","Rain,Fog"
"1999-10-02 17:00","1999","10","02","17:00","12.1","","11.6","","97","","20","","4","","6.4","","99.55","","","","","","Rain,Fog"
"1999-10-02 18:00","1999","10","02","18:00","11.9","","11.2","","95","","","","0","","4.8","","99.65","","","","","","Rain,Fog"
"1999-10-02 19:00","1999","10","02","19:00","11.7","","11.0","","95","","7","","4","","6.4","","99.69","","","","","","Rain,Fog"
"1999-10-02 20:00","1999","10","02","20:00","11.4","","10.8","","96","","","","0","","6.4","","99.72","","","","","","Rain,Fog"
"1999-10-02 21:00","1999","10","02","21:00","11.5","","9.3","","86","","31","","13","","11.3","","99.82","","","","","","Rain"
"1999-10-02 22:00","1999","10","02","22:00","11.3","","8.4","","82","","31","","13","","16.1","","99.89","","","","","","Mostly Cloudy"
"1999-10-02 23:00","1999","10","02","23:00","10.8","","8.2","","84","","29","","13","","19.3","","99.95","","","","","","Mostly Cloudy"
"1999-10-03 00:00","1999","10","03","00:00","9.9","","7.8","","87","","30","","17","","19.3","","99.99","","","","","","Mainly Clear"
"1999-10-03 01:00","1999","10","03","01:00","8.5","","6.6","","88","","28","","13","","24.1","","100.12","","","","","","Clear"
"1999-10-03 02:00","1999","10","03","02:00","7.5","","6.2","","91","","29","","11","","24.1","","100.15","","","","","","Mainly Clear"
"1999-10-03 03:00","1999","10","03","03:00","7.9","","4.5","","79","","32","","22","","24.1","","100.25","","","","","","Mainly Clear"
"1999-10-03 04:00","1999","10","03","04:00","6.9","","3.2","","77","","32","","22","","24.1","","100.35","","","","","","Mainly Clear"
"1999-10-03 05:00","1999","10","03","05:00","6.1","","2.7","","79","","31","","15","","24.1","","100.45","","","","","","Mostly Cloudy"
"1999-10-03 06:00","1999","10","03","06:00","5.9","","2.4","","78","","30","","13","","24.1","","100.55","","","","","","Mostly Cloudy"
"1999-10-03 07:00","1999","10","03","07:00","5.8","","2.9","","82","","29","","11","","24.1","","100.65","","","","","","Mostly Cloudy"
"1999-10-03 08:00","1999","10","03","08:00","7.6","","2.5","","70","","29","","9","","24.1","","100.72","","","","","","Mostly Cloudy"
"1999-10-03 09:00","1999","10","03","09:00","8.6","","3.4","","70","","35","","17","","24.1","","100.75","","","","","","Mostly Cloudy"
"1999-10-03 10:00","1999","10","03","10:00","9.7","","3.2","","64","","36","","19","","24.1","","100.82","","","","","","Mainly Clear"
"1999-10-03 11:00","1999","10","03","11:00","10.6","","3.0","","59","","4","","15","","24.1","","100.75","","","","","","Mostly Cloudy"
"1999-10-03 12:00","1999","10","03","12:00","11.2","","2.1","","53","","36","","9","","24.1","","100.75","","","","","","Mostly Cloudy"
"1999-10-03 13:00","1999","10","03","13:00","11.1","","1.2","","50","","7","","9","","24.1","","100.72","","","","","","Mostly Cloudy"
"1999-10-03 14:00","1999","10","03","14:00","11.6","","2.0","","52","","1","","11","","25.0","","100.69","","","","","","Mostly Cloudy"
"1999-10-03 15:00","1999","10","03","15:00","10.9","","3.4","","60","","14","","7","","25.0","","100.65","","","","","","Cloudy"
"1999-10-03 16:00","1999","10","03","16:00","10.4","","2.3","","57","","14","","9","","25.0","","100.62","","","","","","Cloudy"
"1999-10-03 17:00","1999","10","03","17:00","10.0","","0.7","","52","","14","","6","","25.0","","100.55","","","","","","Cloudy"
"1999-10-03 18:00","1999","10","03","18:00","10.0","","0.1","","50","","7","","11","","25.0","","100.52","","","","","","Cloudy"
"1999-10-03 19:00","1999","10","03","19:00","9.6","","-1.0","","48","","4","","15","","25.0","","100.55","","","","","","Cloudy"
"1999-10-03 20:00","1999","10","03","20:00","9.0","","-1.3","","48","","3","","28","","25.0","","100.45","","","","","","Cloudy"
"1999-10-03 21:00","1999","10","03","21:00","9.0","","-0.6","","51","","3","","19","","25.0","","100.45","","","","","","Cloudy"
"1999-10-03 22:00","1999","10","03","22:00","6.8","","2.1","","72","","2","","20","","16.1","","100.52","","","","","","Rain"
"1999-10-03 23:00","1999","10","03","23:00","5.1","","2.0","","80","","8","","22","","16.1","","100.45","","","","","","Rain"
"1999-10-04 00:00","1999","10","04","00:00","4.5","","2.9","","89","","4","","22","","12.9","","100.35","","","","","","Rain"
"1999-10-04 01:00","1999","10","04","01:00","3.7","","2.4","","91","","4","","22","","12.9","","100.35","","","","","","Rain"
"1999-10-04 02:00","1999","10","04","02:00","2.5","","1.4","","92","","3","","26","","16.1","","100.25","","","","","","Rain"
"1999-10-04 03:00","1999","10","04","03:00","2.9","","2.0","","94","","3","","22","","19.3","","100.22","","","","","","Rain"
"1999-10-04 04:00","1999","10","04","04:00","3.2","","2.0","","92","","4","","20","","19.3","","100.22","","","","","","Rain"
"1999-10-04 05:00","1999","10","04","05:00","3.5","","2.2","","91","","3","","22","","25.0","","100.22","","","","","","Cloudy"
"1999-10-04 06:00","1999","10","04","06:00","3.7","","2.1","","89","","3","","20","","24.1","","100.19","","","","","","Cloudy"
"1999-10-04 07:00","1999","10","04","07:00","4.2","","2.2","","87","","3","","13","","24.1","","100.29","","","","","","Cloudy"
"1999-10-04 08:00","1999","10","04","08:00","4.4","","2.4","","87","","3","","20","","24.1","","100.29","","","","","","Cloudy"
"1999-10-04 09:00","1999","10","04","09:00","5.0","","2.5","","84","","2","","20","","24.1","","100.35","","","","","","Cloudy"
"1999-10-04 10:00","1999","10","04","10:00","5.8","","2.8","","81","","3","","17","","24.1","","100.35","","","","","","Cloudy"
"1999-10-04 11:00","1999","10","04","11:00","6.5","","2.6","","76","","4","","15","","24.1","","100.35","","","","","","Cloudy"
"1999-10-04 12:00","1999","10","04","12:00","7.2","","3.1","","75","","36","","15","","24.1","","100.29","","","","","","Cloudy"
"1999-10-04 13:00","1999","10","04","13:00","7.9","","3.3","","73","","1","","15","","24.1","","100.22","","","","","","Mostly Cloudy"
"1999-10-04 14:00","1999","10","04","14:00","8.3","","1.9","","64","","5","","9","","25.0","","100.25","","","","","","Mostly Cloudy"
"1999-10-04 15:00","1999","10","04","15:00","8.2","","2.1","","65","","7","","9","","25.0","","100.25","","","","","","Mostly Cloudy"
"1999-10-04 16:00","1999","10","04","16:00","8.2","","1.6","","63","","5","","7","","25.0","","100.25","","","","","","Mostly Cloudy"
"1999-10-04 17:00","1999","10","04","17:00","7.8","","2.0","","67","","36","","19","","25.0","","100.25","","","","","","Mostly Cloudy"
"1999-10-04 18:00","1999","10","04","18:00","7.2","","2.8","","74","","36","","15","","25.0","","100.25","","","","","","Mostly Cloudy"
"1999-10-04 19:00","1999","10","04","19:00","6.9","","3.2","","77","","1","","13","","25.0","","100.25","","","","","","Mostly Cloudy"
"1999-10-04 20:00","1999","10","04","20:00","6.2","","3.2","","81","","36","","9","","25.0","","100.29","","","","","","Mainly Clear"
"1999-10-04 21:00","1999","10","04","21:00","5.7","","3.0","","83","","36","","9","","24.1","","100.29","","","","","","Mainly Clear"
"1999-10-04 22:00","1999","10","04","22:00","5.5","","3.0","","84","","36","","9","","24.1","","100.29","","","","","","Mainly Clear"
"1999-10-04 23:00","1999","10","04","23:00","5.2","","3.1","","86","","35","","13","","24.1","","100.25","","","","","","Mostly Cloudy"
"1999-10-05 00:00","1999","10","05","00:00","5.0","","2.7","","85","","32","","9","","24.1","","100.25","","","","","","Mostly Cloudy"
"1999-10-05 01:00","1999","10","05","01:00","4.0","","2.0","","87","","32","","6","","24.1","","100.25","","","","","","Mainly Clear"
"1999-10-05 02:00","1999","10","05","02:00","4.0","","2.1","","87","","33","","13","","24.1","","100.22","","","","","","Mostly Cloudy"
"1999-10-05 03:00","1999","10","05","03:00","3.6","","1.8","","88","","36","","9","","24.1","","100.22","","","","","","Mostly Cloudy"
"1999-10-05 04:00","1999","10","05","04:00","3.1","","1.5","","89","","35","","9","","24.1","","100.22","","","","","","Mostly Cloudy"
"1999-10-05 05:00","1999","10","05","05:00","2.8","","1.2","","89","","36","","7","","24.1","","100.22","","","","","","Mostly Cloudy"
"1999-10-05 06:00","1999","10","05","06:00","2.6","","1.0","","89","","36","","6","","24.1","","100.19","","","","","","Mainly Clear"
"1999-10-05 07:00","1999","10","05","07:00","2.6","","0.8","","88","","32","","4","","19.3","","100.22","","","","","","Mainly Clear"
"1999-10-05 08:00","1999","10","05","08:00","5.3","","2.4","","82","","31","","6","","24.1","","100.19","","","","","","Mainly Clear"
"1999-10-05 09:00","1999","10","05","09:00","7.3","","2.9","","74","","28","","7","","24.1","","100.19","","","","","","Mainly Clear"
"1999-10-05 10:00","1999","10","05","10:00","9.3","","1.4","","58","","23","","9","","24.1","","100.15","","","","","","Mostly Cloudy"
"1999-10-05 11:00","1999","10","05","11:00","10.0","","1.7","","56","","27","","17","","24.1","","100.09","","","","","","Mainly Clear"
"1999-10-05 12:00","1999","10","05","12:00","11.3","","1.0","","49","","22","","11","","24.1","","99.99","","","","","","Mostly Cloudy"
"1999-10-05 13:00","1999","10","05","13:00","11.8","","2.3","","52","","20","","11","","24.1","","99.89","","","","","","Mostly Cloudy"
"1999-10-05 14:00","1999","10","05","14:00","12.9","","2.9","","51","","18","","17","","24.1","","99.79","","","","","","Mostly Cloudy"
"1999-10-05 15:00","1999","10","05","15:00","12.2","","2.6","","52","","24","","20","","24.1","","99.72","","","","","","Mostly Cloudy"
"1999-10-05 16:00","1999","10","05","16:00","12.1","","3.6","","56","","24","","24","","24.1","","99.69","","","","","","Mostly Cloudy"
"1999-10-05 17:00","1999","10","05","17:00","12.0","","2.8","","53","","24","","22","","24.1","","99.65","","","","","","Mostly Cloudy"
"1999-10-05 18:00","1999","10","05","18:00","11.8","","2.6","","53","","23","","11","","24.1","","99.65","","","","","","Cloudy"
"1999-10-05 19:00","1999","10","05","19:00","11.6","","2.7","","54","","22","","19","","24.1","","99.59","","","","","","Cloudy"
"1999-10-05 20:00","1999","10","05","20:00","11.1","","3.2","","58","","21","","11","","24.1","","99.59","","","","","","Cloudy"
"1999-10-05 21:00","1999","10","05","21:00","10.7","","4.6","","66","","23","","19","","24.1","","99.59","","","","","","Cloudy"
"1999-10-05 22:00","1999","10","05","22:00","10.4","","4.8","","68","","24","","20","","24.1","","99.55","","","","","","Cloudy"
"1999-10-05 23:00","1999","10","05","23:00","10.3","","5.0","","70","","22","","15","","24.1","","99.45","","","","","","Cloudy"
"1999-10-06 00:00","1999","10","06","00:00","10.8","","5.4","","69","","25","","22","","24.1","","99.35","","","","","","Mostly Cloudy"
"1999-10-06 01:00","1999","10","06","01:00","10.1","","5.3","","72","","26","","26","","24.1","","99.26","","","","","","Mainly Clear"
"1999-10-06 02:00","1999","10","06","02:00","9.7","","5.3","","74","","26","","24","","24.1","","99.26","","","","","","Mainly Clear"
"1999-10-06 03:00","1999","10","06","03:00","10.0","","7.1","","82","","28","","28","","19.3","","99.32","","","","","","Mostly Cloudy"
"1999-10-06 04:00","1999","10","06","04:00","9.2","","7.2","","87","","28","","17","","19.3","","99.35","","","","","","Mostly Cloudy"
"1999-10-06 05:00","1999","10","06","05:00","8.5","","7.0","","90","","31","","13","","19.3","","99.42","","","","","","Mostly Cloudy"
"1999-10-06 06:00","1999","10","06","06:00","8.6","","5.0","","78","","32","","32","","24.1","","99.49","","","","","","Mostly Cloudy"
"1999-10-06 07:00","1999","10","06","07:00","7.8","","3.0","","72","","32","","30","","24.1","","99.59","","","","","","Mostly Cloudy"
"1999-10-06 08:00","1999","10","06","08:00","7.8","","2.4","","69","","33","","30","","24.1","","99.72","","","","","","Mostly Cloudy"
"1999-10-06 09:00","1999","10","06","09:00","7.6","","-0.4","","57","","33","","44","","24.1","","99.82","","","","","","Mainly Clear"
"1999-10-06 10:00","1999","10","06","10:00","7.8","","-3.0","","46","","33","","48","","24.1","","99.89","","","","","","Mainly Clear"
"1999-10-06 11:00","1999","10","06","11:00","8.2","","-1.9","","49","","30","","35","","24.1","","99.99","","","","","","Mainly Clear"
"1999-10-06 12:00","1999","10","06","12:00","7.1","","0.9","","65","","1","","35","","24.1","","100.05","","","","","","Mostly Cloudy"
"1999-10-06 13:00","1999","10","06","13:00","7.0","","-0.3","","60","","1","","35","","24.1","","100.09","","","","","","Mainly Clear"
"1999-10-06 14:00","1999","10","06","14:00","7.6","","-2.3","","49","","34","","26","","24.1","","100.12","","","","","","Mainly Clear"
"1999-10-06 15:00","1999","10","06","15:00","7.4","","-2.1","","51","","35","","30","","24.1","","100.19","","","","","","Mainly Clear"
"1999-10-06 16:00","1999","10","06","16:00","6.6","","-3.2","","50","","36","","30","","24.1","","100.25","","","","","","Clear"
"1999-10-06 17:00","1999","10","06","17:00","5.9","","-3.7","","50","","36","","33","","24.1","","100.29","","","","","","Clear"
"1999-10-06 18:00","1999","10","06","18:00","4.1","","-4.8","","52","","36","","24","","24.1","","100.39","","","","","","Clear"
"1999-10-06 19:00","1999","10","06","19:00","3.6","","-4.4","","56","","36","","20","","24.1","","100.45","","","","","","Clear"
"1999-10-06 20:00","1999","10","06","20:00","3.1","","-3.6","","61","","33","","22","","24.1","","100.55","","","","","","Clear"
"1999-10-06 21:00","1999","10","06","21:00","2.6","","-4.4","","60","","34","","13","","24.1","","100.62","","","","","","Clear"
"1999-10-06 22:00","1999","10","06","22:00","2.0","","-3.9","","65","","31","","15","","25.0","","100.65","","","","","","Clear"
"1999-10-06 23:00","1999","10","06","23:00","0.6","","-3.4","","75","","29","","11","","25.0","","100.69","","","","","","Clear"
"1999-10-07 00:00","1999","10","07","00:00","0.7","","-3.6","","73","","31","","11","","25.0","","100.65","","","","","","Clear"
"1999-10-07 01:00","1999","10","07","01:00","0.7","","-3.8","","72","","4","","7","","25.0","","100.75","","","","","","Clear"
"1999-10-07 02:00","1999","10","07","02:00","0.6","","-3.4","","75","","2","","6","","25.0","","100.79","","","","","","Clear"
"1999-10-07 03:00","1999","10","07","03:00","0.9","","-5.6","","62","","5","","7","","25.0","","100.82","","","","","","Clear"
"1999-10-07 04:00","1999","10","07","04:00","0.4","","-5.4","","65","","5","","4","","25.0","","100.89","","","","","","Clear"
"1999-10-07 05:00","1999","10","07","05:00","-0.8","","-4.6","","75","","33","","9","","25.0","","100.99","","","","-4","","Clear"
"1999-10-07 06:00","1999","10","07","06:00","-1.3","","-5.2","","75","","1","","9","","24.1","","101.05","","","","-5","","Clear"
"1999-10-07 07:00","1999","10","07","07:00","-0.6","","-4.7","","74","","3","","11","","24.1","","101.12","","","","-4","","Mainly Clear"
"1999-10-07 08:00","1999","10","07","08:00","1.6","","-4.2","","65","","3","","7","","24.1","","101.22","","","","","","Mostly Cloudy"
"1999-10-07 09:00","1999","10","07","09:00","3.6","","-4.7","","55","","5","","7","","24.1","","101.19","","","","","","Mostly Cloudy"
"1999-10-07 10:00","1999","10","07","10:00","4.7","","-4.9","","50","","3","","13","","24.1","","101.19","","","","","","Mostly Cloudy"
"1999-10-07 11:00","1999","10","07","11:00","5.2","","-5.0","","48","","34","","6","","24.1","","101.15","","","","","","Mainly Clear"
"1999-10-07 12:00","1999","10","07","12:00","6.4","","-4.0","","47","","35","","4","","24.1","","101.15","","","","","","Mainly Clear"
"1999-10-07 13:00","1999","10","07","13:00","6.5","","-3.0","","51","","16","","19","","24.1","","101.02","","","","","","Mainly Clear"
"1999-10-07 14:00","1999","10","07","14:00","6.6","","-3.2","","50","","12","","13","","24.1","","100.99","","","","","","Clear"
"1999-10-07 15:00","1999","10","07","15:00","6.3","","-3.4","","50","","14","","7","","24.1","","100.95","","","","","","Clear"
"1999-10-07 16:00","1999","10","07","16:00","5.8","","-4.0","","49","","14","","15","","24.1","","100.95","","","","","","Mostly Cloudy"
"1999-10-07 17:00","1999","10","07","17:00","5.5","","-3.7","","51","","12","","11","","24.1","","100.92","","","","","","Mostly Cloudy"
"1999-10-07 18:00","1999","10","07","18:00","5.3","","-3.6","","53","","11","","13","","24.1","","100.82","","","","","","Mostly Cloudy"
"1999-10-07 19:00","1999","10","07","19:00","5.1","","-3.8","","53","","11","","7","","24.1","","100.82","","","","","","Mostly Cloudy"
"1999-10-07 20:00","1999","10","07","20:00","4.8","","-2.6","","59","","12","","9","","24.1","","100.72","","","","","","Mainly Clear"
"1999-10-07 21:00","1999","10","07","21:00","4.6","","-1.2","","66","","12","","6","","24.1","","100.69","","","","","","Mainly Clear"
"1999-10-07 22:00","1999","10","07","22:00","6.1","","1.6","","73","","14","","11","","25.0","","100.65","","","","","","Mostly Cloudy"
"1999-10-07 23:00","1999","10","07","23:00","6.1","","1.6","","73","","13","","7","","25.0","","100.55","","","","","","Clear"
"1999-10-08 00:00","1999","10","08","00:00","6.2","","1.8","","73","","13","","11","","25.0","","100.49","","","","","","Mostly Cloudy"
"1999-10-08 01:00","1999","10","08","01:00","6.0","","2.0","","75","","14","","7","","25.0","","100.39","","","","","","Mainly Clear"
"1999-10-08 02:00","1999","10","08","02:00","6.4","","2.9","","78","","14","","7","","24.1","","100.32","","","","","","Mostly Cloudy"
"1999-10-08 03:00","1999","10","08","03:00","6.5","","3.5","","81","","13","","9","","24.1","","100.22","","","","","","Mainly Clear"
"1999-10-08 04:00","1999","10","08","04:00","5.0","","3.0","","87","","11","","7","","24.1","","100.19","","","","","","Clear"
"1999-10-08 05:00","1999","10","08","05:00","5.9","","4.3","","89","","12","","4","","24.1","","100.15","","","","","","Clear"
"1999-10-08 06:00","1999","10","08","06:00","6.0","","4.3","","89","","14","","6","","24.1","","100.15","","","","","","Clear"
"1999-10-08 07:00","1999","10","08","07:00","7.2","","5.1","","86","","12","","4","","24.1","","100.09","","","","","","Mainly Clear"
"1999-10-08 08:00","1999","10","08","08:00","10.2","","6.6","","78","","13","","6","","24.1","","100.05","","","","","","Mainly Clear"
"1999-10-08 09:00","1999","10","08","09:00","12.0","","6.9","","71","","19","","11","","19.3","","100.02","","","","","","Mostly Cloudy"
"1999-10-08 10:00","1999","10","08","10:00","13.9","","8.3","","69","","18","","13","","19.3","","99.99","","","","","","Mostly Cloudy"
"1999-10-08 11:00","1999","10","08","11:00","15.2","","9.2","","67","","15","","13","","19.3","","99.89","","","","","","Cloudy"
"1999-10-08 12:00","1999","10","08","12:00","16.2","","10.3","","68","","17","","19","","16.1","","99.82","","","","","","Cloudy"
"1999-10-08 13:00","1999","10","08","13:00","18.3","","11.0","","62","","22","","28","","16.1","","99.75","","","","","","Cloudy"
"1999-10-08 14:00","1999","10","08","14:00","18.0","","10.9","","63","","22","","39","","16.1","","99.65","","","","","","Cloudy"
"1999-10-08 15:00","1999","10","08","15:00","18.0","","11.0","","64","","21","","22","","16.1","","99.59","","","","","","Cloudy"
"1999-10-08 16:00","1999","10","08","16:00","17.4","","10.8","","65","","20","","22","","16.1","","99.55","","","","","","Cloudy"
"1999-10-08 17:00","1999","10","08","17:00","16.2","","11.7","","75","","21","","20","","12.9","","99.55","","","","","","Rain Showers"
"1999-10-08 18:00","1999","10","08","18:00","15.9","","11.6","","76","","20","","19","","11.3","","99.52","","","","","","Rain Showers"
"1999-10-08 19:00","1999","10","08","19:00","14.7","","12.4","","86","","21","","20","","11.3","","99.49","","","","","","Rain Showers"
"1999-10-08 20:00","1999","10","08","20:00","14.0","","13.2","","95","","20","","15","","4.8","","99.42","","","","","","Rain Showers,Fog"
"1999-10-08 21:00","1999","10","08","21:00","14.6","","13.6","","94","","21","","26","","6.4","","99.35","","","","","","Rain Showers,Fog"
"1999-10-08 22:00","1999","10","08","22:00","14.8","","13.8","","94","","22","","19","","4.8","","99.39","","","","","","Rain Showers,Fog"
"1999-10-08 23:00","1999","10","08","23:00","14.9","","14.1","","95","","22","","15","","4.8","","99.35","","","","","","Fog"
"1999-10-09 00:00","1999","10","09","00:00","15.2","","14.1","","93","","24","","22","","6.4","","99.39","","","","","","Rain Showers,Fog"
"1999-10-09 01:00","1999","10","09","01:00","15.3","","13.8","","91","","25","","19","","8.0","","99.42","","","","","","Fog"
"1999-10-09 02:00","1999","10","09","02:00","15.3","","13.8","","91","","23","","15","","8.0","","99.49","","","","","","Fog"
"1999-10-09 03:00","1999","10","09","03:00","15.2","","13.6","","90","","23","","15","","8.0","","99.52","","","","","","Fog"
"1999-10-09 04:00","1999","10","09","04:00","15.0","","13.2","","89","","24","","19","","9.7","","99.59","","","","","","Fog"
"1999-10-09 05:00","1999","10","09","05:00","14.5","","12.8","","90","","27","","19","","9.7","","99.69","","","","","","Fog"
"1999-10-09 06:00","1999","10","09","06:00","13.6","","11.3","","86","","26","","17","","11.3","","99.82","","","","","","Mainly Clear"
"1999-10-09 07:00","1999","10","09","07:00","13.0","","11.4","","90","","25","","11","","14.5","","99.85","","","","","","Mostly Cloudy"
"1999-10-09 08:00","1999","10","09","08:00","14.7","","12.2","","85","","27","","15","","14.5","","99.95","","","","","","Mostly Cloudy"
"1999-10-09 09:00","1999","10","09","09:00","15.9","","11.9","","77","","31","","22","","16.1","","99.95","","","","","","Cloudy"
"1999-10-09 10:00","1999","10","09","10:00","17.0","","11.7","","71","","29","","19","","19.3","","100.02","","","","","","Mostly Cloudy"
"1999-10-09 11:00","1999","10","09","11:00","18.1","","11.4","","65","","28","","11","","20.9","","100.05","","","","","","Mostly Cloudy"
"1999-10-09 12:00","1999","10","09","12:00","19.1","","11.0","","59","","24","","15","","24.1","","100.02","","","","","","Mostly Cloudy"
"1999-10-09 13:00","1999","10","09","13:00","20.1","","11.3","","57","","25","","19","","24.1","","99.95","","","","","","Mostly Cloudy"
"1999-10-09 14:00","1999","10","09","14:00","20.2","","11.0","","55","","24","","11","","24.1","","99.92","","","","","","Mostly Cloudy"
"1999-10-09 15:00","1999","10","09","15:00","20.0","","9.9","","52","","24","","13","","24.1","","99.89","","","","","","Mostly Cloudy"
"1999-10-09 16:00","1999","10","09","16:00","19.0","","11.5","","62","","24","","19","","24.1","","99.89","","","","","","Mostly Cloudy"
"1999-10-09 17:00","1999","10","09","17:00","18.4","","11.2","","63","","23","","13","","24.1","","99.92","","","","","","Mostly Cloudy"
"1999-10-09 18:00","1999","10","09","18:00","17.4","","11.1","","66","","24","","9","","19.3","","99.92","","","","","","Cloudy"
"1999-10-09 19:00","1999","10","09","19:00","16.8","","10.9","","68","","19","","6","","19.3","","99.92","","","","","","Cloudy"
"1999-10-09 20:00","1999","10","09","20:00","15.1","","11.1","","77","","","","0","","16.1","","99.92","","","","","","Cloudy"
"1999-10-09 21:00","1999","10","09","21:00","14.9","","11.2","","79","","","","0","","16.1","","99.89","","","","","","Cloudy"
"1999-10-09 22:00","1999","10","09","22:00","14.2","","11.7","","85","","16","","6","","16.1","","99.85","","","","","","Cloudy"
"1999-10-09 23:00","1999","10","09","23:00","13.3","","11.9","","91","","18","","7","","9.7","","99.79","","","","","","Fog"
"1999-10-10 00:00","1999","10","10","00:00","13.7","","12.7","","94","","15","","7","","8.0","","99.75","","","","","","Fog"
"1999-10-10 01:00","1999","10","10","01:00","13.9","","12.9","","94","","16","","6","","6.4","","99.72","","","","","","Fog"
"1999-10-10 02:00","1999","10","10","02:00","14.2","","13.0","","92","","16","","4","","6.4","","99.62","","","","","","Fog"
"1999-10-10 03:00","1999","10","10","03:00","14.2","","13.0","","92","","16","","7","","4.8","","99.55","","","","","","Fog"
"1999-10-10 04:00","1999","10","10","04:00","14.2","","13.2","","94","","15","","4","","4.0","","99.49","","","","","","Fog"
"1999-10-10 05:00","1999","10","10","05:00","13.8","","13.0","","95","","13","","4","","3.6","","99.45","","","","","","Fog"
"1999-10-10 06:00","1999","10","10","06:00","13.7","","13.1","","96","","18","","4","","2.4","","99.49","","","","","","Fog"
"1999-10-10 07:00","1999","10","10","07:00","13.8","","13.5","","98","","16","","6","","0.6","","99.49","","","","","","Drizzle,Fog"
"1999-10-10 08:00","1999","10","10","08:00","14.4","","13.9","","97","","16","","6","","1.2","","99.45","","","","","","Fog"
"1999-10-10 09:00","1999","10","10","09:00","15.9","","14.9","","94","","19","","11","","1.6","","99.39","","","","","","Fog"
"1999-10-10 10:00","1999","10","10","10:00","16.4","","14.8","","90","","16","","6","","6.4","","99.39","","","","","","Fog"
"1999-10-10 11:00","1999","10","10","11:00","18.4","","15.7","","84","","26","","20","","12.9","","99.32","","","","","","Cloudy"
"1999-10-10 12:00","1999","10","10","12:00","19.8","","15.8","","78","","23","","17","","14.5","","99.26","","","","","","Mostly Cloudy"
"1999-10-10 13:00","1999","10","10","13:00","19.6","","15.9","","79","","27","","22","","14.5","","99.22","","","","","","Cloudy"
"1999-10-10 14:00","1999","10","10","14:00","19.9","","15.9","","78","","25","","19","","14.5","","99.19","","","","","","Cloudy"
"1999-10-10 15:00","1999","10","10","15:00","20.4","","16.0","","76","","26","","17","","16.1","","99.16","","25","","","","Cloudy"
"1999-10-10 16:00","1999","10","10","16:00","20.8","","15.8","","73","","24","","19","","19.3","","99.09","","25","","","","Mostly Cloudy"
"1999-10-10 17:00","1999","10","10","17:00","20.3","","15.4","","73","","25","","15","","19.3","","99.09","","25","","","","Mostly Cloudy"
"1999-10-10 18:00","1999","10","10","18:00","19.6","","15.4","","77","","24","","15","","19.3","","99.09","","","","","","Mostly Cloudy"
"1999-10-10 19:00","1999","10","10","19:00","18.8","","15.1","","79","","27","","15","","19.3","","99.19","","","","","","Mainly Clear"
"1999-10-10 20:00","1999","10","10","20:00","17.5","","15.2","","86","","26","","7","","19.3","","99.19","","","","","","Mostly Cloudy"
"1999-10-10 21:00","1999","10","10","21:00","16.4","","13.9","","85","","35","","22","","12.9","","99.29","","","","","","Cloudy"
"1999-10-10 22:00","1999","10","10","22:00","15.3","","11.2","","77","","35","","17","","16.1","","99.42","","","","","","Mostly Cloudy"
"1999-10-10 23:00","1999","10","10","23:00","14.8","","11.1","","78","","33","","20","","19.3","","99.52","","","","","","Mostly Cloudy"
"1999-10-11 00:00","1999","10","11","00:00","13.5","","10.4","","82","","32","","20","","19.3","","99.55","","","","","","Mainly Clear"
"1999-10-11 01:00","1999","10","11","01:00","11.9","","9.6","","86","","31","","17","","24.1","","99.65","","","","","","Clear"
"1999-10-11 02:00","1999","10","11","02:00","10.8","","7.2","","78","","30","","15","","24.1","","99.75","","","","","","Clear"
"1999-10-11 03:00","1999","10","11","03:00","9.6","","6.5","","81","","30","","11","","24.1","","99.75","","","","","","Clear"
"1999-10-11 04:00","1999","10","11","04:00","9.5","","5.3","","75","","32","","20","","24.1","","99.85","","","","","","Clear"
"1999-10-11 05:00","1999","10","11","05:00","8.4","","4.8","","78","","30","","11","","24.1","","99.95","","","","","","Clear"
"1999-10-11 06:00","1999","10","11","06:00","8.6","","4.4","","75","","29","","11","","24.1","","100.02","","","","","","Clear"
"1999-10-11 07:00","1999","10","11","07:00","8.9","","4.2","","72","","31","","13","","25.0","","100.09","","","","","","Clear"
"1999-10-11 08:00","1999","10","11","08:00","11.0","","6.5","","74","","31","","15","","25.0","","100.19","","","","","","Clear"
"1999-10-11 09:00","1999","10","11","09:00","12.9","","7.0","","67","","30","","19","","25.0","","100.22","","","","","","Clear"
"1999-10-11 10:00","1999","10","11","10:00","14.8","","5.2","","53","","33","","28","","25.0","","100.25","","","","","","Clear"
"1999-10-11 11:00","1999","10","11","11:00","15.8","","4.3","","46","","31","","35","","25.0","","100.25","","","","","","Mainly Clear"
"1999-10-11 12:00","1999","10","11","12:00","16.7","","2.8","","39","","34","","35","","25.0","","100.25","","","","","","Mainly Clear"
"1999-10-11 13:00","1999","10","11","13:00","17.1","","4.0","","42","","30","","35","","25.0","","100.22","","","","","","Mainly Clear"
"1999-10-11 14:00","1999","10","11","14:00","17.5","","2.9","","38","","30","","37","","25.0","","100.22","","","","","","Mainly Clear"
"1999-10-11 15:00","1999","10","11","15:00","16.9","","1.6","","36","","30","","33","","25.0","","100.22","","","","","","Mainly Clear"
"1999-10-11 16:00","1999","10","11","16:00","16.3","","0.6","","34","","32","","32","","25.0","","100.25","","","","","","Clear"
"1999-10-11 17:00","1999","10","11","17:00","15.2","","0.2","","36","","30","","26","","25.0","","100.35","","","","","","Clear"
"1999-10-11 18:00","1999","10","11","18:00","13.3","","0.9","","43","","30","","28","","25.0","","100.39","","","","","","Mainly Clear"
"1999-10-11 19:00","1999","10","11","19:00","11.9","","0.5","","45","","29","","15","","25.0","","100.45","","","","","","Clear"
"1999-10-11 20:00","1999","10","11","20:00","9.8","","1.4","","56","","28","","17","","24.1","","100.49","","","","","","Clear"
"1999-10-11 21:00","1999","10","11","21:00","9.2","","1.4","","58","","30","","13","","24.1","","100.55","","","","","","Clear"
"1999-10-11 22:00","1999","10","11","22:00","7.6","","1.4","","65","","29","","9","","24.1","","100.55","","","","","","Clear"
"1999-10-11 23:00","1999","10","11","23:00","7.1","","1.3","","67","","31","","9","","24.1","","100.52","","","","","","Clear"
"1999-10-12 00:00","1999","10","12","00:00","6.4","","1.4","","70","","31","","15","","24.1","","100.55","","","","","","Clear"
"1999-10-12 01:00","1999","10","12","01:00","5.7","","1.8","","76","","31","","7","","24.1","","100.55","","","","","","Clear"
"1999-10-12 02:00","1999","10","12","02:00","5.7","","1.6","","75","","29","","6","","24.1","","100.62","","","","","","Clear"
"1999-10-12 03:00","1999","10","12","03:00","4.8","","1.5","","79","","28","","6","","24.1","","100.62","","","","","","Mainly Clear"
"1999-10-12 04:00","1999","10","12","04:00","5.4","","2.4","","81","","27","","6","","24.1","","100.69","","","","","","Mostly Cloudy"
"1999-10-12 05:00","1999","10","12","05:00","6.2","","3.1","","81","","29","","6","","24.1","","100.65","","","","","","Mostly Cloudy"
"1999-10-12 06:00","1999","10","12","06:00","5.9","","2.8","","80","","31","","7","","24.1","","100.72","","","","","","Mostly Cloudy"
"1999-10-12 07:00","1999","10","12","07:00","6.7","","3.5","","80","","32","","4","","24.1","","100.69","","","","","","Mostly Cloudy"
"1999-10-12 08:00","1999","10","12","08:00","8.7","","4.1","","73","","30","","6","","24.1","","100.75","","","","","","Mostly Cloudy"
"1999-10-12 09:00","1999","10","12","09:00","10.1","","4.9","","70","","32","","6","","24.1","","100.75","","","","","","Mostly Cloudy"
"1999-10-12 10:00","1999","10","12","10:00","10.9","","5.2","","68","","12","","7","","24.1","","100.65","","","","","","Cloudy"
"1999-10-12 11:00","1999","10","12","11:00","11.2","","5.5","","68","","13","","9","","24.1","","100.69","","","","","","Cloudy"
"1999-10-12 12:00","1999","10","12","12:00","10.6","","5.0","","68","","14","","13","","24.1","","100.59","","","","","","Cloudy"
"1999-10-12 13:00","1999","10","12","13:00","10.7","","4.9","","67","","15","","11","","24.1","","100.49","","","","","","Cloudy"
"1999-10-12 14:00","1999","10","12","14:00","11.6","","4.3","","61","","15","","7","","19.3","","100.39","","","","","","Mostly Cloudy"
"1999-10-12 15:00","1999","10","12","15:00","12.9","","4.8","","58","","17","","15","","24.1","","100.22","","","","","","Cloudy"
"1999-10-12 16:00","1999","10","12","16:00","13.1","","4.2","","55","","14","","9","","24.1","","100.12","","","","","","Mostly Cloudy"
"1999-10-12 17:00","1999","10","12","17:00","12.0","","3.8","","57","","13","","9","","24.1","","99.99","","","","","","Cloudy"
"1999-10-12 18:00","1999","10","12","18:00","10.4","","5.0","","69","","13","","13","","19.3","","99.92","","","","","","Cloudy"
"1999-10-12 19:00","1999","10","12","19:00","10.7","","7.5","","81","","13","","15","","24.1","","99.85","","","","","","Mostly Cloudy"
"1999-10-12 20:00","1999","10","12","20:00","11.0","","8.4","","84","","13","","13","","24.1","","99.72","","","","","","Mostly Cloudy"
"1999-10-12 21:00","1999","10","12","21:00","10.9","","8.6","","86","","15","","7","","24.1","","99.65","","","","","","Mostly Cloudy"
"1999-10-12 22:00","1999","10","12","22:00","10.6","","8.5","","87","","11","","6","","24.1","","99.62","","","","","","Mostly Cloudy"
"1999-10-12 23:00","1999","10","12","23:00","10.7","","8.2","","85","","9","","13","","24.1","","99.55","","","","","","Mostly Cloudy"
"1999-10-13 00:00","1999","10","13","00:00","11.0","","8.5","","85","","17","","7","","24.1","","99.45","","","","","","Rain Showers"
"1999-10-13 01:00","1999","10","13","01:00","11.1","","8.3","","83","","9","","9","","24.1","","99.45","","","","","","Mostly Cloudy"
"1999-10-13 02:00","1999","10","13","02:00","10.9","","7.8","","81","","13","","11","","24.1","","99.32","","","","","","Mostly Cloudy"
"1999-10-13 03:00","1999","10","13","03:00","10.9","","8.1","","83","","14","","11","","24.1","","99.16","","","","","","Mostly Cloudy"
"1999-10-13 04:00","1999","10","13","04:00","11.4","","9.0","","85","","14","","11","","24.1","","99.02","","","","","","Mostly Cloudy"
"1999-10-13 05:00","1999","10","13","05:00","11.8","","9.8","","88","","14","","7","","24.1","","98.96","","","","","","Mainly Clear"
"1999-10-13 06:00","1999","10","13","06:00","12.1","","10.2","","88","","16","","7","","19.3","","98.86","","","","","","Mostly Cloudy"
"1999-10-13 07:00","1999","10","13","07:00","12.6","","10.7","","88","","16","","6","","8.0","","98.82","","","","","","Fog"
"1999-10-13 08:00","1999","10","13","08:00","15.0","","12.4","","84","","19","","9","","6.4","","98.72","","","","","","Haze"
"1999-10-13 09:00","1999","10","13","09:00","16.6","","13.3","","81","","22","","17","","9.7","","98.66","","","","","","Haze"
"1999-10-13 10:00","1999","10","13","10:00","17.7","","13.8","","78","","20","","13","","9.7","","98.56","","","","","","Haze"
"1999-10-13 11:00","1999","10","13","11:00","18.7","","14.4","","76","","19","","17","","9.7","","98.46","","","","","","Haze"
"1999-10-13 12:00","1999","10","13","12:00","20.0","","14.8","","72","","20","","20","","9.7","","98.36","","","","","","Haze"
"1999-10-13 13:00","1999","10","13","13:00","19.9","","14.3","","70","","26","","41","","6.4","","98.39","","","","","","Rain Showers,Haze"
"1999-10-13 14:00","1999","10","13","14:00","15.3","","13.7","","90","","25","","11","","4.0","","98.36","","","","","","Thunderstorms,Moderate Rain Showers,Fog"
"1999-10-13 15:00","1999","10","13","15:00","15.2","","13.7","","91","","20","","7","","4.8","","98.16","","","","","","Thunderstorms,Rain Showers,Fog"
"1999-10-13 16:00","1999","10","13","16:00","14.7","","13.8","","94","","21","","13","","4.8","","98.12","","","","","","Thunderstorms,Rain Showers,Fog"
"1999-10-13 17:00","1999","10","13","17:00","14.4","","13.7","","96","","","","0","","3.6","","98.06","","","","","","Thunderstorms,Moderate Rain Showers,Fog"
"1999-10-13 18:00","1999","10","13","18:00","12.6","","11.7","","94","","33","","30","","4.8","","98.16","","","","","","Moderate Rain Showers,Fog"
"1999-10-13 19:00","1999","10","13","19:00","8.5","","7.7","","95","","35","","43","","4.0","","98.29","","","","","","Thunderstorms,Heavy Rain Showers,Fog"
"1999-10-13 20:00","1999","10","13","20:00","7.6","","7.0","","96","","1","","50","","6.4","","98.19","","","","","","Rain Showers,Fog"
"1999-10-13 21:00","1999","10","13","21:00","7.5","","5.8","","89","","36","","46","","8.0","","98.32","","","","","","Rain Showers,Fog"
"1999-10-13 22:00","1999","10","13","22:00","4.5","","4.3","","99","","34","","50","","4.8","","98.66","","","","","","Moderate Rain Showers,Fog"
"1999-10-13 23:00","1999","10","13","23:00","2.9","","2.7","","99","","35","","57","","11.3","","98.82","","","","","","Rain Showers"
"1999-10-14 00:00","1999","10","14","00:00","4.1","","3.9","","99","","35","","37","","16.1","","98.96","","","","","","Rain Showers"
"1999-10-14 01:00","1999","10","14","01:00","5.2","","4.9","","98","","34","","41","","19.3","","99.12","","","","","","Mostly Cloudy"
"1999-10-14 02:00","1999","10","14","02:00","4.8","","4.4","","97","","34","","37","","24.1","","99.26","","","","","","Mainly Clear"
"1999-10-14 03:00","1999","10","14","03:00","4.3","","3.6","","95","","34","","44","","25.0","","99.35","","","","","","Mainly Clear"
"1999-10-14 04:00","1999","10","14","04:00","3.5","","1.4","","86","","34","","24","","25.0","","99.49","","","","","","Clear"
"1999-10-14 05:00","1999","10","14","05:00","2.8","","0.4","","84","","34","","17","","25.0","","99.62","","","","","","Clear"
"1999-10-14 06:00","1999","10","14","06:00","2.9","","-0.2","","80","","34","","30","","24.1","","99.72","","","","","","Clear"
"1999-10-14 07:00","1999","10","14","07:00","2.8","","-0.7","","78","","35","","26","","24.1","","99.82","","","","","","Clear"
"1999-10-14 08:00","1999","10","14","08:00","3.6","","-0.8","","73","","35","","26","","25.0","","99.92","","","","","","Clear"
"1999-10-14 09:00","1999","10","14","09:00","5.0","","-1.2","","64","","34","","32","","25.0","","100.02","","","","","","Clear"
"1999-10-14 10:00","1999","10","14","10:00","6.3","","0.2","","65","","32","","26","","25.0","","100.05","","","","","","Clear"
"1999-10-14 11:00","1999","10","14","11:00","7.4","","1.2","","65","","33","","17","","25.0","","100.02","","","","","","Mainly Clear"
"1999-10-14 12:00","1999","10","14","12:00","9.2","","1.0","","56","","34","","20","","25.0","","99.99","","","","","","Mainly Clear"
"1999-10-14 13:00","1999","10","14","13:00","9.6","","1.1","","55","","32","","19","","25.0","","99.99","","","","","","Mainly Clear"
"1999-10-14 14:00","1999","10","14","14:00","10.6","","0.5","","50","","32","","13","","24.1","","99.89","","","","","","Clear"
"1999-10-14 15:00","1999","10","14","15:00","11.2","","0.7","","48","","30","","9","","24.1","","99.95","","","","","","Clear"
"1999-10-14 16:00","1999","10","14","16:00","11.4","","0.8","","48","","25","","7","","24.1","","99.92","","","","","","Clear"
"1999-10-14 17:00","1999","10","14","17:00","9.7","","2.9","","63","","15","","6","","24.1","","99.95","","","","","","Clear"
"1999-10-14 18:00","1999","10","14","18:00","8.1","","2.7","","69","","9","","11","","24.1","","99.99","","","","","","Clear"
"1999-10-14 19:00","1999","10","14","19:00","7.7","","2.1","","68","","9","","9","","24.1","","100.02","","","","","","Clear"
"1999-10-14 20:00","1999","10","14","20:00","6.8","","0.1","","62","","4","","7","","24.1","","100.02","","","","","","Clear"
"1999-10-14 21:00","1999","10","14","21:00","6.4","","-0.7","","60","","3","","4","","24.1","","100.02","","","","","","Mainly Clear"
"1999-10-14 22:00","1999","10","14","22:00","6.6","","0.6","","65","","3","","4","","24.1","","100.05","","","","","","Mostly Cloudy"
"1999-10-14 23:00","1999","10","14","23:00","6.2","","2.6","","78","","3","","7","","24.1","","100.05","","","","","","Mostly Cloudy"
"1999-10-15 00:00","1999","10","15","00:00","6.1","","1.7","","73","","3","","4","","25.0","","100.02","","","","","","Mostly Cloudy"
"1999-10-15 01:00","1999","10","15","01:00","6.0","","1.7","","74","","","","0","","25.0","","100.05","","","","","","Mostly Cloudy"
"1999-10-15 02:00","1999","10","15","02:00","6.9","","1.1","","67","","","","0","","24.1","","100.05","","","","","","Mostly Cloudy"
"1999-10-15 03:00","1999","10","15","03:00","7.0","","1.5","","68","","16","","4","","24.1","","100.09","","","","","","Mostly Cloudy"
"1999-10-15 04:00","1999","10","15","04:00","6.7","","1.8","","71","","16","","4","","24.1","","100.09","","","","","","Mainly Clear"
"1999-10-15 05:00","1999","10","15","05:00","6.3","","2.2","","75","","16","","6","","24.1","","100.12","","","","","","Mostly Cloudy"
"1999-10-15 06:00","1999","10","15","06:00","6.7","","4.4","","85","","14","","6","","24.1","","100.12","","","","","","Mostly Cloudy"
"1999-10-15 07:00","1999","10","15","07:00","7.3","","5.0","","85","","13","","7","","19.3","","100.12","","","","","","Mostly Cloudy"
"1999-10-15 08:00","1999","10","15","08:00","8.7","","6.3","","85","","14","","7","","19.3","","100.12","","","","","","Mainly Clear"
"1999-10-15 09:00","1999","10","15","09:00","10.4","","6.6","","77","","14","","9","","24.1","","100.09","","","","","","Mainly Clear"
"1999-10-15 10:00","1999","10","15","10:00","12.1","","7.6","","74","","15","","17","","24.1","","100.05","","","","","","Mainly Clear"
"1999-10-15 11:00","1999","10","15","11:00","12.7","","7.7","","72","","17","","11","","24.1","","99.99","","","","","","Mainly Clear"
"1999-10-15 12:00","1999","10","15","12:00","13.5","","7.8","","68","","18","","17","","24.1","","99.92","","","","","","Mostly Cloudy"
"1999-10-15 13:00","1999","10","15","13:00","14.0","","7.0","","63","","16","","15","","24.1","","99.82","","","","","","Mostly Cloudy"
"1999-10-15 14:00","1999","10","15","14:00","14.1","","5.0","","54","","16","","20","","24.1","","99.75","","","","","","Mostly Cloudy"
"1999-10-15 15:00","1999","10","15","15:00","14.5","","5.7","","55","","14","","17","","24.1","","99.72","","","","","","Mostly Cloudy"
"1999-10-15 16:00","1999","10","15","16:00","13.4","","5.1","","57","","14","","11","","24.1","","99.72","","","","","","Mostly Cloudy"
"1999-10-15 17:00","1999","10","15","17:00","13.2","","5.5","","60","","12","","11","","24.1","","99.69","","","","","","Mostly Cloudy"
"1999-10-15 18:00","1999","10","15","18:00","11.6","","5.1","","64","","11","","13","","24.1","","99.69","","","","","","Mostly Cloudy"
"1999-10-15 19:00","1999","10","15","19:00","10.9","","5.6","","70","","11","","9","","24.1","","99.69","","","","","","Mainly Clear"
"1999-10-15 20:00","1999","10","15","20:00","10.9","","6.4","","74","","11","","7","","24.1","","99.65","","","","","","Mainly Clear"
"1999-10-15 21:00","1999","10","15","21:00","10.9","","6.8","","76","","13","","6","","24.1","","99.65","","","","","","Mainly Clear"
"1999-10-15 22:00","1999","10","15","22:00","10.8","","8.7","","87","","16","","6","","25.0","","99.62","","","","","","Clear"
"1999-10-15 23:00","1999","10","15","23:00","10.6","","9.4","","92","","","","0","","24.1","","99.62","","","","","","Clear"
"1999-10-16 00:00","1999","10","16","00:00","10.3","","9.5","","95","","16","","4","","24.1","","99.59","","","","","","Clear"
"1999-10-16 01:00","1999","10","16","01:00","9.8","","9.2","","96","","16","","4","","24.1","","99.59","","","","","","Clear"
"1999-10-16 02:00","1999","10","16","02:00","9.8","","9.1","","95","","16","","9","","24.1","","99.55","","","","","","Clear"
"1999-10-16 03:00","1999","10","16","03:00","10.4","","9.0","","91","","17","","7","","24.1","","99.52","","","","","","Clear"
"1999-10-16 04:00","1999","10","16","04:00","10.4","","9.0","","91","","16","","9","","25.0","","99.52","","","","","","Clear"
"1999-10-16 05:00","1999","10","16","05:00","11.4","","9.0","","85","","18","","9","","24.1","","99.52","","","","","","Clear"
"1999-10-16 06:00","1999","10","16","06:00","11.5","","9.0","","85","","19","","9","","24.1","","99.49","","","","","","Mostly Cloudy"
"1999-10-16 07:00","1999","10","16","07:00","12.0","","9.3","","84","","19","","9","","24.1","","99.45","","","","","","Mainly Clear"
"1999-10-16 08:00","1999","10","16","08:00","14.1","","11.0","","82","","19","","9","","19.3","","99.49","","","","","","Mainly Clear"
"1999-10-16 09:00","1999","10","16","09:00","16.1","","12.0","","77","","19","","15","","19.3","","99.45","","","","","","Mainly Clear"
"1999-10-16 10:00","1999","10","16","10:00","18.4","","12.4","","68","","20","","15","","19.3","","99.39","","","","","","Mostly Cloudy"
"1999-10-16 11:00","1999","10","16","11:00","20.2","","13.4","","65","","22","","24","","19.3","","99.32","","","","","","Mostly Cloudy"
"1999-10-16 12:00","1999","10","16","12:00","20.9","","13.7","","63","","20","","20","","19.3","","99.26","","","","","","Mainly Clear"
"1999-10-16 13:00","1999","10","16","13:00","21.9","","14.1","","61","","19","","24","","24.1","","99.16","","25","","","","Mainly Clear"
"1999-10-16 14:00","1999","10","16","14:00","22.4","","13.9","","59","","20","","17","","25.0","","99.12","","26","","","","Clear"
"1999-10-16 15:00","1999","10","16","15:00","22.6","","13.9","","58","","23","","33","","19.3","","99.09","","26","","","","Mainly Clear"
"1999-10-16 16:00","1999","10","16","16:00","22.3","","13.6","","58","","21","","35","","19.3","","99.02","","25","","","","Mostly Cloudy"
"1999-10-16 17:00","1999","10","16","17:00","21.6","","13.5","","60","","23","","24","","19.3","","99.09","","25","","","","Cloudy"
"1999-10-16 18:00","1999","10","16","18:00","20.9","","13.8","","64","","23","","15","","16.1","","99.16","","","","","","Cloudy"
"1999-10-16 19:00","1999","10","16","19:00","20.7","","13.7","","64","","21","","11","","16.1","","99.16","","","","","","Cloudy"
"1999-10-16 20:00","1999","10","16","20:00","20.3","","13.8","","66","","20","","13","","16.1","","99.12","","","","","","Cloudy"
"1999-10-16 21:00","1999","10","16","21:00","20.0","","13.8","","67","","21","","15","","16.1","","99.12","","","","","","Cloudy"
"1999-10-16 22:00","1999","10","16","22:00","19.5","","14.0","","71","","23","","22","","14.5","","99.09","","","","","","Mostly Cloudy"
"1999-10-16 23:00","1999","10","16","23:00","20.0","","14.0","","68","","23","","22","","16.1","","99.09","","","","","","Mostly Cloudy"
"1999-10-17 00:00","1999","10","17","00:00","18.4","","14.6","","79","","26","","17","","14.5","","99.16","","","","","","Mostly Cloudy"
"1999-10-17 01:00","1999","10","17","01:00","15.0","","11.2","","78","","31","","19","","19.3","","99.26","","","","","","Mostly Cloudy"
"1999-10-17 02:00","1999","10","17","02:00","13.5","","10.7","","83","","31","","24","","24.1","","99.29","","","","","","Mostly Cloudy"
"1999-10-17 03:00","1999","10","17","03:00","12.9","","9.9","","82","","32","","32","","24.1","","99.32","","","","","","Mostly Cloudy"
"1999-10-17 04:00","1999","10","17","04:00","12.7","","9.5","","81","","33","","22","","24.1","","99.35","","","","","","Cloudy"
"1999-10-17 05:00","1999","10","17","05:00","12.0","","9.3","","84","","34","","24","","24.1","","99.45","","","","","","Rain"
"1999-10-17 06:00","1999","10","17","06:00","11.8","","8.5","","80","","33","","19","","24.1","","99.45","","","","","","Rain"
"1999-10-17 07:00","1999","10","17","07:00","11.4","","8.6","","83","","32","","13","","24.1","","99.52","","","","","","Rain"
"1999-10-17 08:00","1999","10","17","08:00","11.6","","8.0","","79","","32","","13","","24.1","","99.55","","","","","","Cloudy"
"1999-10-17 09:00","1999","10","17","09:00","11.7","","8.2","","79","","33","","17","","24.1","","99.59","","","","","","Cloudy"
"1999-10-17 10:00","1999","10","17","10:00","12.0","","8.2","","78","","33","","13","","24.1","","99.59","","","","","","Cloudy"
"1999-10-17 11:00","1999","10","17","11:00","12.3","","8.4","","77","","32","","15","","24.1","","99.59","","","","","","Cloudy"
"1999-10-17 12:00","1999","10","17","12:00","12.7","","7.8","","72","","33","","11","","24.1","","99.52","","","","","","Cloudy"
"1999-10-17 13:00","1999","10","17","13:00","12.7","","7.2","","69","","32","","9","","24.1","","99.52","","","","","","Cloudy"
"1999-10-17 14:00","1999","10","17","14:00","13.0","","7.0","","67","","1","","7","","24.1","","99.42","","","","","","Cloudy"
"1999-10-17 15:00","1999","10","17","15:00","12.6","","6.4","","66","","35","","17","","24.1","","99.42","","","","","","Cloudy"
"1999-10-17 16:00","1999","10","17","16:00","12.3","","6.8","","69","","3","","9","","24.1","","99.35","","","","","","Cloudy"
"1999-10-17 17:00","1999","10","17","17:00","12.2","","6.0","","66","","6","","9","","24.1","","99.39","","","","","","Cloudy"
"1999-10-17 18:00","1999","10","17","18:00","11.7","","8.1","","79","","5","","11","","19.3","","99.42","","","","","","Cloudy"
"1999-10-17 19:00","1999","10","17","19:00","11.3","","6.2","","71","","36","","13","","19.3","","99.45","","","","","","Cloudy"
"1999-10-17 20:00","1999","10","17","20:00","10.3","","6.1","","75","","35","","17","","24.1","","99.45","","","","","","Cloudy"
"1999-10-17 21:00","1999","10","17","21:00","9.1","","7.1","","87","","1","","15","","19.3","","99.45","","","","","","Rain Showers"
"1999-10-17 22:00","1999","10","17","22:00","9.5","","6.7","","83","","35","","13","","24.1","","99.42","","","","","","Mostly Cloudy"
"1999-10-17 23:00","1999","10","17","23:00","9.0","","5.1","","77","","34","","15","","24.1","","99.42","","","","","","Mainly Clear"
"1999-10-18 00:00","1999","10","18","00:00","7.5","","4.3","","80","","35","","17","","24.1","","99.42","","","","","","Clear"
"1999-10-18 01:00","1999","10","18","01:00","6.3","","3.9","","85","","36","","11","","24.1","","99.42","","","","","","Clear"
"1999-10-18 02:00","1999","10","18","02:00","5.8","","3.9","","88","","35","","7","","24.1","","99.45","","","","","","Mainly Clear"
"1999-10-18 03:00","1999","10","18","03:00","6.1","","3.9","","86","","35","","15","","24.1","","99.45","","","","","","Mainly Clear"
"1999-10-18 04:00","1999","10","18","04:00","6.0","","3.0","","81","","34","","20","","24.1","","99.49","","","","","","Clear"
"1999-10-18 05:00","1999","10","18","05:00","5.7","","3.3","","85","","33","","19","","24.1","","99.55","","","","","","Clear"
"1999-10-18 06:00","1999","10","18","06:00","5.2","","3.0","","86","","35","","19","","24.1","","99.59","","","","","","Clear"
"1999-10-18 07:00","1999","10","18","07:00","4.7","","3.2","","90","","36","","17","","24.1","","99.62","","","","","","Mainly Clear"
"1999-10-18 08:00","1999","10","18","08:00","6.2","","4.4","","88","","1","","15","","24.1","","99.69","","","","","","Mostly Cloudy"
"1999-10-18 09:00","1999","10","18","09:00","7.3","","3.7","","78","","36","","19","","25.0","","99.79","","","","","","Mostly Cloudy"
"1999-10-18 10:00","1999","10","18","10:00","7.0","","3.5","","78","","36","","28","","25.0","","99.85","","","","","","Cloudy"
"1999-10-18 11:00","1999","10","18","11:00","6.6","","2.9","","77","","36","","22","","25.0","","99.92","","","","","","Cloudy"
"1999-10-18 12:00","1999","10","18","12:00","6.5","","2.5","","76","","36","","24","","25.0","","99.95","","","","","","Cloudy"
"1999-10-18 13:00","1999","10","18","13:00","6.6","","2.2","","73","","32","","11","","25.0","","99.99","","","","","","Mostly Cloudy"
"1999-10-18 14:00","1999","10","18","14:00","8.8","","2.9","","66","","34","","17","","25.0","","99.99","","","","","","Mostly Cloudy"
"1999-10-18 15:00","1999","10","18","15:00","8.1","","1.5","","63","","35","","13","","25.0","","100.02","","","","","","Mostly Cloudy"
"1999-10-18 16:00","1999","10","18","16:00","8.0","","1.6","","64","","31","","15","","25.0","","100.02","","","","","","Mainly Clear"
"1999-10-18 17:00","1999","10","18","17:00","7.4","","0.9","","63","","35","","19","","25.0","","100.09","","","","","","Mainly Clear"
"1999-10-18 18:00","1999","10","18","18:00","6.6","","0.7","","66","","34","","20","","25.0","","100.15","","","","","","Mainly Clear"
"1999-10-18 19:00","1999","10","18","19:00","5.5","","0.7","","71","","34","","20","","25.0","","100.22","","","","","","Clear"
"1999-10-18 20:00","1999","10","18","20:00","4.6","","0.0","","72","","36","","20","","25.0","","100.25","","","","","","Clear"
"1999-10-18 21:00","1999","10","18","21:00","3.9","","-0.5","","73","","35","","19","","25.0","","100.32","","","","","","Clear"
"1999-10-18 22:00","1999","10","18","22:00","3.0","","-0.9","","76","","36","","15","","25.0","","100.35","","","","","","Clear"
"1999-10-18 23:00","1999","10","18","23:00","2.2","","-1.0","","79","","36","","7","","25.0","","100.39","","","","","","Mainly Clear"
"1999-10-19 00:00","1999","10","19","00:00","1.2","","-1.4","","83","","36","","11","","25.0","","100.42","","","","","","Mainly Clear"
"1999-10-19 01:00","1999","10","19","01:00","1.4","","-1.2","","83","","2","","7","","25.0","","100.42","","","","","","Mainly Clear"
"1999-10-19 02:00","1999","10","19","02:00","1.4","","-1.1","","83","","3","","9","","25.0","","100.39","","","","","","Mainly Clear"
"1999-10-19 03:00","1999","10","19","03:00","3.1","","-2.1","","69","","7","","9","","25.0","","100.35","","","","","","Mainly Clear"
"1999-10-19 04:00","1999","10","19","04:00","2.2","","-1.3","","78","","4","","11","","25.0","","100.42","","","","","","Mainly Clear"
"1999-10-19 05:00","1999","10","19","05:00","1.3","","-1.2","","83","","2","","9","","25.0","","100.39","","","","","","Mainly Clear"
"1999-10-19 06:00","1999","10","19","06:00","1.4","","-1.3","","82","","35","","9","","24.1","","100.45","","","","","","Mainly Clear"
"1999-10-19 07:00","1999","10","19","07:00","2.0","","-0.7","","82","","2","","7","","24.1","","100.49","","","","","","Mainly Clear"
"1999-10-19 08:00","1999","10","19","08:00","4.4","","0.7","","77","","6","","7","","24.1","","100.49","","","","","","Mainly Clear"
"1999-10-19 09:00","1999","10","19","09:00","5.7","","2.4","","79","","","","0","","24.1","","100.52","","","","","","Mainly Clear"
"1999-10-19 10:00","1999","10","19","10:00","8.8","","5.1","","78","","14","","13","","24.1","","100.45","","","","","","Mostly Cloudy"
"1999-10-19 11:00","1999","10","19","11:00","9.4","","5.3","","76","","16","","11","","24.1","","100.45","","","","","","Cloudy"
"1999-10-19 12:00","1999","10","19","12:00","10.0","","5.2","","72","","16","","9","","24.1","","100.35","","","","","","Mostly Cloudy"
"1999-10-19 13:00","1999","10","19","13:00","10.1","","4.5","","68","","14","","9","","19.3","","100.32","","","","","","Cloudy"
"1999-10-19 14:00","1999","10","19","14:00","9.6","","4.8","","72","","12","","9","","24.1","","100.25","","","","","","Cloudy"
"1999-10-19 15:00","1999","10","19","15:00","9.7","","4.3","","69","","11","","11","","24.1","","100.25","","","","","","Cloudy"
"1999-10-19 16:00","1999","10","19","16:00","9.6","","3.8","","67","","10","","13","","24.1","","100.22","","","","","","Cloudy"
"1999-10-19 17:00","1999","10","19","17:00","9.1","","3.0","","66","","10","","11","","24.1","","100.22","","","","","","Cloudy"
"1999-10-19 18:00","1999","10","19","18:00","9.0","","4.4","","73","","11","","9","","24.1","","100.19","","","","","","Cloudy"
"1999-10-19 19:00","1999","10","19","19:00","9.3","","5.1","","75","","11","","13","","24.1","","100.19","","","","","","Mostly Cloudy"
"1999-10-19 20:00","1999","10","19","20:00","9.3","","5.4","","77","","10","","11","","24.1","","100.12","","","","","","Mostly Cloudy"
"1999-10-19 21:00","1999","10","19","21:00","9.7","","6.2","","79","","11","","7","","24.1","","100.09","","","","","","Mostly Cloudy"
"1999-10-19 22:00","1999","10","19","22:00","9.3","","7.0","","86","","11","","7","","24.1","","100.05","","","","","","Mostly Cloudy"
"1999-10-19 23:00","1999","10","19","23:00","8.9","","7.3","","90","","16","","6","","24.1","","100.02","","","","","","Mostly Cloudy"
"1999-10-20 00:00","1999","10","20","00:00","8.1","","7.1","","93","","16","","4","","24.1","","99.95","","","","","","Mostly Cloudy"
"1999-10-20 01:00","1999","10","20","01:00","6.7","","6.3","","97","","16","","9","","24.1","","99.95","","","","","","Mostly Cloudy"
"1999-10-20 02:00","1999","10","20","02:00","5.7","","4.8","","94","","28","","6","","19.3","","99.92","","","","","","Mostly Cloudy"
"1999-10-20 03:00","1999","10","20","03:00","6.3","","4.4","","88","","28","","15","","24.1","","99.85","","","","","","Mostly Cloudy"
"1999-10-20 04:00","1999","10","20","04:00","5.5","","2.9","","83","","26","","11","","24.1","","99.85","","","","","","Mostly Cloudy"
"1999-10-20 05:00","1999","10","20","05:00","5.4","","2.4","","81","","24","","9","","24.1","","99.85","","","","","","Clear"
"1999-10-20 06:00","1999","10","20","06:00","6.7","","2.6","","75","","21","","7","","24.1","","99.85","","","","","","Mainly Clear"
"1999-10-20 07:00","1999","10","20","07:00","6.5","","2.9","","78","","24","","17","","19.3","","99.82","","","","","","Mainly Clear"
"1999-10-20 08:00","1999","10","20","08:00","6.8","","3.8","","81","","25","","17","","16.1","","99.85","","","","","","Mainly Clear"
"1999-10-20 09:00","1999","10","20","09:00","9.0","","5.3","","78","","27","","26","","19.3","","99.85","","","","","","Mostly Cloudy"
"1999-10-20 10:00","1999","10","20","10:00","10.1","","5.2","","72","","27","","26","","19.3","","99.85","","","","","","Mainly Clear"
"1999-10-20 11:00","1999","10","20","11:00","11.1","","1.1","","50","","27","","35","","24.1","","99.85","","","","","","Mainly Clear"
"1999-10-20 12:00","1999","10","20","12:00","11.7","","2.4","","53","","27","","28","","24.1","","99.85","","","","","","Mostly Cloudy"
"1999-10-20 13:00","1999","10","20","13:00","11.5","","0.2","","46","","26","","37","","24.1","","99.79","","","","","","Mostly Cloudy"
"1999-10-20 14:00","1999","10","20","14:00","11.6","","1.3","","49","","27","","32","","24.1","","99.79","","","","","","Mostly Cloudy"
"1999-10-20 15:00","1999","10","20","15:00","10.6","","1.8","","54","","29","","22","","24.1","","99.79","","","","","","Mostly Cloudy"
"1999-10-20 16:00","1999","10","20","16:00","10.0","","2.3","","59","","29","","17","","24.1","","99.82","","","","","","Mostly Cloudy"
"1999-10-20 17:00","1999","10","20","17:00","9.6","","2.2","","60","","28","","19","","24.1","","99.85","","","","","","Mostly Cloudy"
"1999-10-20 18:00","1999","10","20","18:00","9.3","","2.4","","62","","29","","15","","24.1","","99.92","","","","","","Mostly Cloudy"
"1999-10-20 19:00","1999","10","20","19:00","8.8","","2.4","","64","","28","","13","","24.1","","99.95","","","","","","Mostly Cloudy"
"1999-10-20 20:00","1999","10","20","20:00","8.3","","2.3","","66","","28","","13","","24.1","","99.99","","","","","","Mostly Cloudy"
"1999-10-20 21:00","1999","10","20","21:00","6.8","","2.1","","72","","26","","9","","24.1","","99.99","","","","","","Mainly Clear"
"1999-10-20 22:00","1999","10","20","22:00","5.8","","1.4","","73","","25","","15","","25.0","","99.99","","","","","","Mainly Clear"
"1999-10-20 23:00","1999","10","20","23:00","6.2","","1.3","","71","","24","","13","","25.0","","99.95","","","","","","Mostly Cloudy"
"1999-10-21 00:00","1999","10","21","00:00","5.7","","1.4","","74","","25","","13","","25.0","","99.92","","","","","","Mostly Cloudy"
"1999-10-21 01:00","1999","10","21","01:00","4.1","","0.8","","79","","25","","11","","25.0","","99.89","","","","","","Clear"
"1999-10-21 02:00","1999","10","21","02:00","3.8","","0.8","","81","","26","","13","","25.0","","99.89","","","","","","Clear"
"1999-10-21 03:00","1999","10","21","03:00","3.2","","0.5","","82","","26","","7","","25.0","","99.82","","","","","","Clear"
"1999-10-21 04:00","1999","10","21","04:00","2.6","","0.2","","84","","27","","6","","24.1","","99.82","","","","","","Clear"
"1999-10-21 05:00","1999","10","21","05:00","2.6","","-0.1","","82","","27","","7","","25.0","","99.82","","","","","","Clear"
"1999-10-21 06:00","1999","10","21","06:00","2.0","","-0.1","","86","","27","","7","","24.1","","99.82","","","","","","Clear"
"1999-10-21 07:00","1999","10","21","07:00","2.6","","0.1","","84","","27","","4","","19.3","","99.82","","","","","","Mainly Clear"
"1999-10-21 08:00","1999","10","21","08:00","4.1","","1.7","","84","","27","","13","","19.3","","99.82","","","","","","Mainly Clear"
"1999-10-21 09:00","1999","10","21","09:00","6.7","","2.6","","75","","25","","13","","19.3","","99.75","","","","","","Mainly Clear"
"1999-10-21 10:00","1999","10","21","10:00","8.9","","2.4","","64","","26","","15","","19.3","","99.75","","","","","","Mainly Clear"
"1999-10-21 11:00","1999","10","21","11:00","8.8","","1.1","","58","","25","","26","","19.3","","99.65","","","","","","Mostly Cloudy"
"1999-10-21 12:00","1999","10","21","12:00","10.6","","1.3","","53","","24","","30","","19.3","","99.55","","","","","","Mostly Cloudy"
"1999-10-21 13:00","1999","10","21","13:00","11.4","","1.2","","49","","25","","20","","19.3","","99.42","","","","","","Mostly Cloudy"
"1999-10-21 14:00","1999","10","21","14:00","12.5","","2.8","","52","","21","","28","","19.3","","99.29","","","","","","Mostly Cloudy"
"1999-10-21 15:00","1999","10","21","15:00","12.3","","2.9","","53","","23","","28","","24.1","","99.22","","","","","","Mostly Cloudy"
"1999-10-21 16:00","1999","10","21","16:00","11.8","","2.3","","52","","21","","30","","24.1","","99.12","","","","","","Mostly Cloudy"
"1999-10-21 17:00","1999","10","21","17:00","11.3","","2.2","","53","","23","","26","","24.1","","99.06","","","","","","Mostly Cloudy"
"1999-10-21 18:00","1999","10","21","18:00","10.5","","2.4","","57","","21","","17","","19.3","","99.02","","","","","","Mostly Cloudy"
"1999-10-21 19:00","1999","10","21","19:00","10.4","","2.6","","58","","19","","19","","24.1","","98.92","","","","","","Mostly Cloudy"
"1999-10-21 20:00","1999","10","21","20:00","10.5","","2.8","","59","","19","","15","","24.1","","98.82","","","","","","Mostly Cloudy"
"1999-10-21 21:00","1999","10","21","21:00","10.0","","3.4","","64","","16","","15","","24.1","","98.72","","","","","","Mostly Cloudy"
"1999-10-21 22:00","1999","10","21","22:00","10.1","","4.5","","68","","17","","13","","24.1","","98.62","","","","","","Mostly Cloudy"
"1999-10-21 23:00","1999","10","21","23:00","10.5","","4.6","","67","","17","","15","","24.1","","98.42","","","","","","Cloudy"
"1999-10-22 00:00","1999","10","22","00:00","11.4","","3.8","","60","","19","","15","","24.1","","98.26","","","","","","Cloudy"
"1999-10-22 01:00","1999","10","22","01:00","11.8","","4.0","","59","","20","","20","","24.1","","98.09","","","","","","Cloudy"
"1999-10-22 02:00","1999","10","22","02:00","12.0","","4.6","","60","","20","","22","","24.1","","97.92","","","","","","Cloudy"
"1999-10-22 03:00","1999","10","22","03:00","12.1","","4.5","","60","","20","","24","","19.3","","97.76","","","","","","Cloudy"
"1999-10-22 04:00","1999","10","22","04:00","12.1","","4.9","","61","","20","","26","","24.1","","97.62","","","","","","Cloudy"
"1999-10-22 05:00","1999","10","22","05:00","11.8","","5.7","","66","","19","","24","","24.1","","97.46","","","","","","Rain Showers"
"1999-10-22 06:00","1999","10","22","06:00","11.6","","6.7","","72","","19","","24","","24.1","","97.36","","","","","","Cloudy"
"1999-10-22 07:00","1999","10","22","07:00","11.7","","6.3","","69","","18","","24","","19.3","","97.26","","","","","","Rain Showers"
"1999-10-22 08:00","1999","10","22","08:00","10.4","","8.2","","86","","20","","24","","12.9","","97.22","","","","","","Rain Showers"
"1999-10-22 09:00","1999","10","22","09:00","10.2","","9.0","","92","","21","","22","","9.7","","97.16","","","","","","Rain Showers,Fog"
"1999-10-22 10:00","1999","10","22","10:00","10.0","","7.9","","87","","27","","26","","24.1","","97.19","","","","","","Mostly Cloudy"
"1999-10-22 11:00","1999","10","22","11:00","11.0","","7.9","","81","","28","","20","","24.1","","97.29","","","","","","Mostly Cloudy"
"1999-10-22 12:00","1999","10","22","12:00","10.9","","5.8","","71","","27","","32","","24.1","","97.32","","","","","","Rain Showers"
"1999-10-22 13:00","1999","10","22","13:00","10.3","","6.0","","75","","27","","26","","24.1","","97.32","","","","","","Mostly Cloudy"
"1999-10-22 14:00","1999","10","22","14:00","9.2","","4.5","","72","","29","","35","","24.1","","97.42","","","","","","Mostly Cloudy"
"1999-10-22 15:00","1999","10","22","15:00","9.8","","5.2","","73","","27","","35","","24.1","","97.49","","","","","","Rain Showers"
"1999-10-22 16:00","1999","10","22","16:00","8.0","","5.5","","84","","25","","20","","24.1","","97.56","","","","","","Mostly Cloudy"
"1999-10-22 17:00","1999","10","22","17:00","7.8","","4.6","","80","","26","","30","","24.1","","97.62","","","","","","Mostly Cloudy"
"1999-10-22 18:00","1999","10","22","18:00","7.0","","3.2","","77","","27","","30","","24.1","","97.69","","","","","","Mainly Clear"
"1999-10-22 19:00","1999","10","22","19:00","5.9","","2.8","","80","","25","","17","","24.1","","97.76","","","","","","Clear"
"1999-10-22 20:00","1999","10","22","20:00","6.0","","3.0","","81","","24","","15","","24.1","","97.76","","","","","","Mostly Cloudy"
"1999-10-22 21:00","1999","10","22","21:00","6.3","","3.2","","81","","23","","9","","25.0","","97.82","","","","","","Mostly Cloudy"
"1999-10-22 22:00","1999","10","22","22:00","5.8","","2.6","","80","","27","","28","","24.1","","97.82","","","","","","Mostly Cloudy"
"1999-10-22 23:00","1999","10","22","23:00","5.4","","2.8","","83","","27","","20","","25.0","","97.82","","","","","","Mostly Cloudy"
"1999-10-23 00:00","1999","10","23","00:00","5.2","","2.9","","85","","26","","20","","25.0","","97.76","","","","","","Mostly Cloudy"
"1999-10-23 01:00","1999","10","23","01:00","5.0","","2.7","","85","","26","","19","","25.0","","97.76","","","","","","Mostly Cloudy"
"1999-10-23 02:00","1999","10","23","02:00","5.2","","2.8","","84","","27","","13","","25.0","","97.82","","","","","","Mostly Cloudy"
"1999-10-23 03:00","1999","10","23","03:00","5.7","","2.3","","79","","28","","24","","25.0","","97.82","","","","","","Cloudy"
"1999-10-23 04:00","1999","10","23","04:00","5.5","","2.3","","80","","27","","19","","25.0","","97.79","","","","","","Cloudy"
"1999-10-23 05:00","1999","10","23","05:00","4.4","","1.9","","84","","27","","15","","25.0","","97.82","","","","","","Mostly Cloudy"
"1999-10-23 06:00","1999","10","23","06:00","3.5","","1.8","","89","","24","","9","","24.1","","97.86","","","","","","Mainly Clear"
"1999-10-23 07:00","1999","10","23","07:00","3.7","","2.0","","89","","25","","13","","24.1","","97.89","","","","","","Mostly Cloudy"
"1999-10-23 08:00","1999","10","23","08:00","5.1","","3.0","","86","","26","","19","","24.1","","97.86","","","","","","Mostly Cloudy"
"1999-10-23 09:00","1999","10","23","09:00","6.4","","3.9","","84","","26","","20","","24.1","","97.89","","","","","","Mostly Cloudy"
"1999-10-23 10:00","1999","10","23","10:00","7.0","","3.8","","80","","26","","26","","24.1","","97.82","","","","","","Mostly Cloudy"
"1999-10-23 11:00","1999","10","23","11:00","7.9","","3.9","","76","","28","","24","","24.1","","97.82","","","","","","Mostly Cloudy"
"1999-10-23 12:00","1999","10","23","12:00","8.4","","3.4","","71","","30","","20","","24.1","","97.82","","","","","","Cloudy"
"1999-10-23 13:00","1999","10","23","13:00","7.6","","4.0","","78","","34","","20","","19.3","","97.82","","","","","","Rain"
"1999-10-23 14:00","1999","10","23","14:00","6.9","","5.0","","88","","27","","22","","16.1","","97.89","","","","","","Rain Showers"
"1999-10-23 15:00","1999","10","23","15:00","8.5","","4.7","","77","","30","","11","","24.1","","97.92","","","","","","Mostly Cloudy"
"1999-10-23 16:00","1999","10","23","16:00","8.4","","4.6","","77","","28","","15","","24.1","","97.99","","","","","","Mostly Cloudy"
"1999-10-23 17:00","1999","10","23","17:00","7.2","","3.6","","78","","34","","22","","24.1","","98.09","","","","","","Mostly Cloudy"
"1999-10-23 18:00","1999","10","23","18:00","6.4","","3.2","","80","","32","","28","","24.1","","98.19","","","","","","Mostly Cloudy"
"1999-10-23 19:00","1999","10","23","19:00","6.3","","3.0","","79","","34","","26","","24.1","","98.26","","","","","","Mainly Clear"
"1999-10-23 20:00","1999","10","23","20:00","5.7","","2.7","","81","","33","","22","","24.1","","98.39","","","","","","Mainly Clear"
"1999-10-23 21:00","1999","10","23","21:00","5.1","","3.0","","86","","32","","20","","24.1","","98.46","","","","","","Mainly Clear"
"1999-10-23 22:00","1999","10","23","22:00","5.5","","3.2","","85","","31","","19","","24.1","","98.56","","","","","","Mostly Cloudy"
"1999-10-23 23:00","1999","10","23","23:00","6.1","","4.1","","87","","33","","28","","24.1","","98.62","","","","","","Mostly Cloudy"
"1999-10-24 00:00","1999","10","24","00:00","6.8","","3.9","","82","","34","","32","","24.1","","98.72","","","","","","Mostly Cloudy"
"1999-10-24 01:00","1999","10","24","01:00","6.4","","3.8","","83","","33","","37","","24.1","","98.79","","","","","","Rain"
"1999-10-24 02:00","1999","10","24","02:00","5.8","","2.7","","80","","33","","37","","24.1","","98.86","","","","","","Mostly Cloudy"
"1999-10-24 03:00","1999","10","24","03:00","5.8","","1.9","","76","","34","","33","","24.1","","98.92","","","","","","Mostly Cloudy"
"1999-10-24 04:00","1999","10","24","04:00","5.8","","1.5","","74","","34","","35","","24.1","","99.02","","","","","","Mostly Cloudy"
"1999-10-24 05:00","1999","10","24","05:00","5.1","","1.7","","79","","33","","39","","24.1","","99.16","","","","","","Mostly Cloudy"
"1999-10-24 06:00","1999","10","24","06:00","3.9","","1.3","","83","","34","","33","","24.1","","99.26","","","","","","Mainly Clear"
"1999-10-24 07:00","1999","10","24","07:00","4.0","","1.7","","85","","34","","20","","24.1","","99.35","","","","","","Rain"
"1999-10-24 08:00","1999","10","24","08:00","4.4","","1.2","","80","","32","","33","","24.1","","99.42","","","","","","Mostly Cloudy"
"1999-10-24 09:00","1999","10","24","09:00","4.9","","0.4","","73","","32","","37","","24.1","","99.49","","","","","","Mostly Cloudy"
"1999-10-24 10:00","1999","10","24","10:00","6.5","","0.1","","64","","31","","24","","24.1","","99.49","","","","","","Mostly Cloudy"
"1999-10-24 11:00","1999","10","24","11:00","6.0","","-0.8","","62","","31","","30","","24.1","","99.52","","","","","","Mostly Cloudy"
"1999-10-24 12:00","1999","10","24","12:00","7.1","","-0.6","","58","","31","","35","","24.1","","99.49","","","","","","Mainly Clear"
"1999-10-24 13:00","1999","10","24","13:00","6.6","","-0.4","","61","","30","","28","","24.1","","99.49","","","","","","Mostly Cloudy"
"1999-10-24 14:00","1999","10","24","14:00","6.5","","-0.1","","63","","31","","28","","25.0","","99.49","","","","","","Mostly Cloudy"
"1999-10-24 15:00","1999","10","24","15:00","6.4","","-0.4","","62","","32","","32","","25.0","","99.52","","","","","","Mostly Cloudy"
"1999-10-24 16:00","1999","10","24","16:00","6.6","","-0.6","","60","","30","","33","","25.0","","99.55","","","","","","Mostly Cloudy"
"1999-10-24 17:00","1999","10","24","17:00","6.0","","-0.9","","61","","31","","32","","25.0","","99.55","","","","","","Mostly Cloudy"
"1999-10-24 18:00","1999","10","24","18:00","5.8","","-0.8","","63","","30","","39","","25.0","","99.62","","","","","","Mostly Cloudy"
"1999-10-24 19:00","1999","10","24","19:00","5.7","","0.3","","68","","30","","26","","25.0","","99.69","","","","","","Mostly Cloudy"
"1999-10-24 20:00","1999","10","24","20:00","5.2","","0.2","","70","","29","","28","","25.0","","99.75","","","","","","Mostly Cloudy"
"1999-10-24 21:00","1999","10","24","21:00","5.1","","0.4","","72","","29","","22","","24.1","","99.75","","","","","","Mostly Cloudy"
"1999-10-24 22:00","1999","10","24","22:00","4.7","","0.5","","74","","25","","17","","24.1","","99.75","","","","","","Mostly Cloudy"
"1999-10-24 23:00","1999","10","24","23:00","4.1","","0.8","","79","","23","","13","","24.1","","99.72","","","","","","Mostly Cloudy"
"1999-10-25 00:00","1999","10","25","00:00","4.0","","0.6","","78","","22","","11","","24.1","","99.72","","","","","","Mostly Cloudy"
"1999-10-25 01:00","1999","10","25","01:00","3.8","","0.3","","78","","23","","15","","24.1","","99.69","","","","","","Mostly Cloudy"
"1999-10-25 02:00","1999","10","25","02:00","3.7","","0.3","","78","","23","","17","","24.1","","99.69","","","","","","Cloudy"
"1999-10-25 03:00","1999","10","25","03:00","3.7","","0.5","","80","","23","","13","","24.1","","99.65","","","","","","Cloudy"
"1999-10-25 04:00","1999","10","25","04:00","4.4","","1.1","","79","","25","","15","","24.1","","99.65","","","","","","Cloudy"
"1999-10-25 05:00","1999","10","25","05:00","4.7","","1.7","","81","","25","","15","","24.1","","99.65","","","","","","Cloudy"
"1999-10-25 06:00","1999","10","25","06:00","4.6","","1.7","","81","","23","","17","","24.1","","99.65","","","","","","Cloudy"
"1999-10-25 07:00","1999","10","25","07:00","4.6","","1.5","","80","","22","","15","","24.1","","99.72","","","","","","Cloudy"
"1999-10-25 08:00","1999","10","25","08:00","5.1","","2.0","","80","","24","","20","","19.3","","99.75","","","","","","Cloudy"
"1999-10-25 09:00","1999","10","25","09:00","5.6","","2.2","","79","","24","","17","","16.1","","99.75","","","","","","Mostly Cloudy"
"1999-10-25 10:00","1999","10","25","10:00","6.9","","3.2","","77","","24","","19","","19.3","","99.69","","","","","","Mostly Cloudy"
"1999-10-25 11:00","1999","10","25","11:00","9.0","","3.3","","67","","23","","22","","19.3","","99.65","","","","","","Clear"
"1999-10-25 12:00","1999","10","25","12:00","11.7","","1.8","","51","","25","","24","","24.1","","99.55","","","","","","Clear"
"1999-10-25 13:00","1999","10","25","13:00","12.8","","1.2","","45","","24","","30","","24.1","","99.49","","","","","","Clear"
"1999-10-25 14:00","1999","10","25","14:00","13.4","","-0.5","","38","","25","","30","","24.1","","99.42","","","","","","Mainly Clear"
"1999-10-25 15:00","1999","10","25","15:00","13.6","","-0.3","","38","","24","","33","","24.1","","99.35","","","","","","Mainly Clear"
"1999-10-25 16:00","1999","10","25","16:00","13.5","","0.9","","42","","22","","33","","24.1","","99.29","","","","","","Mainly Clear"
"1999-10-25 17:00","1999","10","25","17:00","11.8","","1.2","","48","","23","","26","","24.1","","99.32","","","","","","Mainly Clear"
"1999-10-25 18:00","1999","10","25","18:00","10.7","","1.7","","54","","22","","24","","24.1","","99.29","","","","","","Mostly Cloudy"
"1999-10-25 19:00","1999","10","25","19:00","10.3","","1.8","","56","","23","","26","","24.1","","99.26","","","","","","Mostly Cloudy"
"1999-10-25 20:00","1999","10","25","20:00","10.2","","2.4","","58","","22","","24","","24.1","","99.16","","","","","","Mostly Cloudy"
"1999-10-25 21:00","1999","10","25","21:00","10.0","","3.9","","66","","23","","28","","24.1","","99.12","","","","","","Mostly Cloudy"
"1999-10-25 22:00","1999","10","25","22:00","9.8","","4.4","","69","","23","","17","","24.1","","99.12","","","","","","Mainly Clear"
"1999-10-25 23:00","1999","10","25","23:00","10.2","","4.3","","67","","23","","22","","24.1","","99.09","","","","","","Clear"
"1999-10-26 00:00","1999","10","26","00:00","10.7","","3.3","","60","","22","","26","","24.1","","98.96","","","","","","Mainly Clear"
"1999-10-26 01:00","1999","10","26","01:00","10.7","","2.1","","55","","23","","28","","24.1","","98.92","","","","","","Clear"
"1999-10-26 02:00","1999","10","26","02:00","10.7","","1.0","","51","","23","","22","","24.1","","98.86","","","","","","Mainly Clear"
"1999-10-26 03:00","1999","10","26","03:00","10.5","","0.4","","50","","24","","24","","24.1","","98.86","","","","","","Mostly Cloudy"
"1999-10-26 04:00","1999","10","26","04:00","9.5","","0.7","","54","","25","","24","","24.1","","98.86","","","","","","Mostly Cloudy"
"1999-10-26 05:00","1999","10","26","05:00","9.3","","0.6","","54","","24","","26","","24.1","","98.86","","","","","","Mostly Cloudy"
"1999-10-26 06:00","1999","10","26","06:00","8.2","","1.0","","60","","25","","22","","24.1","","98.89","","","","","","Clear"
"1999-10-26 07:00","1999","10","26","07:00","7.3","","1.2","","65","","26","","22","","24.1","","98.96","","","","","","Clear"
"1999-10-26 08:00","1999","10","26","08:00","8.2","","2.1","","65","","26","","28","","24.1","","98.96","","","","","","Clear"
"1999-10-26 09:00","1999","10","26","09:00","10.1","","3.9","","65","","27","","19","","24.1","","99.06","","","","","","Clear"
"1999-10-26 10:00","1999","10","26","10:00","12.2","","3.5","","55","","28","","32","","24.1","","99.02","","","","","","Clear"
"1999-10-26 11:00","1999","10","26","11:00","13.3","","3.3","","51","","27","","28","","24.1","","99.06","","","","","","Clear"
"1999-10-26 12:00","1999","10","26","12:00","14.2","","0.7","","40","","27","","41","","24.1","","99.06","","","","","","Clear"
"1999-10-26 13:00","1999","10","26","13:00","14.4","","-0.6","","36","","28","","39","","24.1","","99.06","","","","","","Clear"
"1999-10-26 14:00","1999","10","26","14:00","14.4","","-1.6","","33","","29","","32","","24.1","","99.09","","","","","","Mainly Clear"
"1999-10-26 15:00","1999","10","26","15:00","13.5","","0.7","","42","","29","","33","","24.1","","99.16","","","","","","Mostly Cloudy"
"1999-10-26 16:00","1999","10","26","16:00","12.4","","1.1","","46","","30","","28","","24.1","","99.29","","","","","","Mostly Cloudy"
"1999-10-26 17:00","1999","10","26","17:00","10.3","","2.6","","59","","31","","33","","24.1","","99.42","","","","","","Mostly Cloudy"
"1999-10-26 18:00","1999","10","26","18:00","9.0","","2.2","","62","","31","","35","","24.1","","99.55","","","","","","Mostly Cloudy"
"1999-10-26 19:00","1999","10","26","19:00","8.6","","2.0","","63","","30","","24","","24.1","","99.62","","","","","","Mostly Cloudy"
"1999-10-26 20:00","1999","10","26","20:00","8.0","","1.7","","64","","30","","26","","24.1","","99.65","","","","","","Mainly Clear"
"1999-10-26 21:00","1999","10","26","21:00","7.6","","1.9","","67","","29","","19","","24.1","","99.72","","","","","","Mostly Cloudy"
"1999-10-26 22:00","1999","10","26","22:00","7.2","","2.1","","70","","31","","20","","24.1","","99.79","","","","","","Mostly Cloudy"
"1999-10-26 23:00","1999","10","26","23:00","6.9","","2.7","","75","","32","","20","","24.1","","99.85","","","","","","Mostly Cloudy"
"1999-10-27 00:00","1999","10","27","00:00","6.3","","2.6","","77","","33","","24","","24.1","","99.89","","","","","","Mostly Cloudy"
"1999-10-27 01:00","1999","10","27","01:00","6.0","","2.5","","78","","34","","24","","24.1","","99.92","","","","","","Mostly Cloudy"
"1999-10-27 02:00","1999","10","27","02:00","5.5","","1.9","","78","","34","","26","","24.1","","100.05","","","","","","Cloudy"
"1999-10-27 03:00","1999","10","27","03:00","5.0","","1.6","","79","","34","","20","","24.1","","100.09","","","","","","Mostly Cloudy"
"1999-10-27 04:00","1999","10","27","04:00","4.8","","1.2","","77","","33","","20","","24.1","","100.15","","","","","","Mostly Cloudy"
"1999-10-27 05:00","1999","10","27","05:00","4.5","","1.5","","81","","33","","20","","24.1","","100.25","","","","","","Cloudy"
"1999-10-27 06:00","1999","10","27","06:00","4.4","","0.5","","76","","35","","20","","24.1","","100.32","","","","","","Cloudy"
"1999-10-27 07:00","1999","10","27","07:00","4.1","","-0.8","","70","","36","","20","","24.1","","100.39","","","","","","Cloudy"
"1999-10-27 08:00","1999","10","27","08:00","4.2","","-0.2","","73","","34","","17","","24.1","","100.52","","","","","","Cloudy"
"1999-10-27 09:00","1999","10","27","09:00","4.4","","0.1","","74","","34","","20","","24.1","","100.59","","","","","","Cloudy"
"1999-10-27 10:00","1999","10","27","10:00","4.6","","-0.4","","70","","4","","15","","24.1","","100.65","","","","","","Cloudy"
"1999-10-27 11:00","1999","10","27","11:00","4.8","","-0.4","","69","","1","","9","","24.1","","100.72","","","","","","Cloudy"
"1999-10-27 12:00","1999","10","27","12:00","5.6","","-0.3","","66","","36","","11","","24.1","","100.72","","","","","","Mostly Cloudy"
"1999-10-27 13:00","1999","10","27","13:00","5.8","","-0.6","","63","","1","","7","","25.0","","100.69","","","","","","Mostly Cloudy"
"1999-10-27 14:00","1999","10","27","14:00","6.9","","-1.4","","55","","7","","4","","24.1","","100.65","","","","","","Mainly Clear"
"1999-10-27 15:00","1999","10","27","15:00","6.8","","-1.5","","55","","27","","4","","24.1","","100.65","","","","","","Clear"
"1999-10-27 16:00","1999","10","27","16:00","7.9","","-2.5","","48","","","","0","","24.1","","100.69","","","","","","Clear"
"1999-10-27 17:00","1999","10","27","17:00","6.8","","-2.5","","51","","","","0","","24.1","","100.69","","","","","","Clear"
"1999-10-27 18:00","1999","10","27","18:00","5.3","","-0.2","","68","","16","","7","","24.1","","100.72","","","","","","Clear"
"1999-10-27 19:00","1999","10","27","19:00","4.8","","0.4","","73","","18","","6","","24.1","","100.72","","","","","","Clear"
"1999-10-27 20:00","1999","10","27","20:00","4.7","","0.5","","74","","18","","7","","24.1","","100.72","","","","","","Clear"
"1999-10-27 21:00","1999","10","27","21:00","4.7","","0.7","","75","","17","","4","","24.1","","100.69","","","","","","Clear"
"1999-10-27 22:00","1999","10","27","22:00","4.6","","0.8","","76","","18","","4","","24.1","","100.69","","","","","","Clear"
"1999-10-27 23:00","1999","10","27","23:00","4.1","","0.8","","79","","20","","4","","24.1","","100.65","","","","","","Clear"
"1999-10-28 00:00","1999","10","28","00:00","2.4","","0.4","","87","","","","0","","24.1","","100.65","","","","","","Clear"
"1999-10-28 01:00","1999","10","28","01:00","2.7","","0.4","","85","","","","0","","24.1","","100.62","","","","","","Clear"
"1999-10-28 02:00","1999","10","28","02:00","1.8","","0.3","","90","","20","","4","","24.1","","100.55","","","","","","Clear"
"1999-10-28 03:00","1999","10","28","03:00","3.3","","1.2","","86","","14","","6","","24.1","","100.49","","","","","","Clear"
"1999-10-28 04:00","1999","10","28","04:00","3.7","","1.6","","86","","15","","6","","24.1","","100.49","","","","","","Mainly Clear"
"1999-10-28 05:00","1999","10","28","05:00","3.2","","1.4","","88","","18","","6","","24.1","","100.49","","","","","","Mostly Cloudy"
"1999-10-28 06:00","1999","10","28","06:00","4.1","","2.2","","87","","16","","6","","24.1","","100.39","","","","","","Mostly Cloudy"
"1999-10-28 07:00","1999","10","28","07:00","4.1","","2.6","","90","","15","","6","","16.1","","100.35","","","","","","Mainly Clear"
"1999-10-28 08:00","1999","10","28","08:00","5.0","","3.2","","88","","18","","7","","12.9","","100.35","","","","","","Mainly Clear"
"1999-10-28 09:00","1999","10","28","09:00","8.0","","5.0","","81","","20","","17","","16.1","","100.29","","","","","","Mostly Cloudy"
"1999-10-28 10:00","1999","10","28","10:00","9.7","","5.0","","72","","20","","20","","16.1","","100.15","","","","","","Mostly Cloudy"
"1999-10-28 11:00","1999","10","28","11:00","12.2","","5.8","","65","","22","","17","","19.3","","100.12","","","","","","Mainly Clear"
"1999-10-28 12:00","1999","10","28","12:00","14.3","","6.5","","59","","20","","15","","19.3","","100.05","","","","","","Clear"
"1999-10-28 13:00","1999","10","28","13:00","15.0","","7.2","","60","","18","","13","","24.1","","99.92","","","","","","Clear"
"1999-10-28 14:00","1999","10","28","14:00","17.4","","6.8","","50","","20","","19","","19.3","","99.82","","","","","","Clear"
"1999-10-28 15:00","1999","10","28","15:00","17.8","","4.6","","42","","22","","26","","19.3","","99.75","","","","","","Clear"
"1999-10-28 16:00","1999","10","28","16:00","17.5","","5.0","","44","","24","","26","","19.3","","99.79","","","","","","Mainly Clear"
"1999-10-28 17:00","1999","10","28","17:00","16.4","","5.7","","49","","22","","15","","19.3","","99.79","","","","","","Mainly Clear"
"1999-10-28 18:00","1999","10","28","18:00","15.3","","6.2","","55","","23","","19","","19.3","","99.89","","","","","","Mainly Clear"
"1999-10-28 19:00","1999","10","28","19:00","14.0","","6.1","","59","","26","","17","","19.3","","99.92","","","","","","Clear"
"1999-10-28 20:00","1999","10","28","20:00","11.1","","6.5","","73","","1","","20","","19.3","","100.02","","","","","","Clear"
"1999-10-28 21:00","1999","10","28","21:00","10.2","","6.6","","78","","36","","15","","19.3","","100.05","","","","","","Clear"
"1999-10-28 22:00","1999","10","28","22:00","9.6","","6.5","","81","","36","","15","","16.1","","100.09","","","","","","Clear"
"1999-10-28 23:00","1999","10","28","23:00","8.2","","6.0","","86","","2","","9","","16.1","","100.12","","","","","","Clear"
"1999-10-29 00:00","1999","10","29","00:00","7.6","","5.9","","89","","35","","11","","16.1","","100.19","","","","","","Clear"
"1999-10-29 01:00","1999","10","29","01:00","6.6","","5.3","","91","","32","","9","","16.1","","100.22","","","","","","Clear"
"1999-10-29 02:00","1999","10","29","02:00","6.2","","5.1","","93","","33","","9","","16.1","","100.25","","","","","","Clear"
"1999-10-29 03:00","1999","10","29","03:00","6.4","","5.0","","91","","34","","6","","14.5","","100.25","","","","","","Clear"
"1999-10-29 04:00","1999","10","29","04:00","5.8","","4.9","","94","","35","","6","","14.5","","100.25","","","","","","Clear"
"1999-10-29 05:00","1999","10","29","05:00","5.8","","4.7","","93","","36","","11","","11.3","","100.32","","","","","","Mostly Cloudy"
"1999-10-29 06:00","1999","10","29","06:00","5.5","","4.6","","94","","35","","7","","11.3","","100.35","","","","","","Mostly Cloudy"
"1999-10-29 07:00","1999","10","29","07:00","5.4","","4.4","","93","","1","","6","","4.8","","100.39","","","","","","Fog"
"1999-10-29 08:00","1999","10","29","08:00","7.1","","5.4","","89","","7","","7","","6.4","","100.45","","","","","","Fog"
"1999-10-29 09:00","1999","10","29","09:00","9.7","","6.1","","78","","11","","13","","11.3","","100.49","","","","","","Mainly Clear"
"1999-10-29 10:00","1999","10","29","10:00","11.2","","6.3","","72","","12","","9","","11.3","","100.52","","","","","","Mostly Cloudy"
"1999-10-29 11:00","1999","10","29","11:00","11.2","","6.1","","71","","10","","13","","12.9","","100.55","","","","","","Mostly Cloudy"
"1999-10-29 12:00","1999","10","29","12:00","12.7","","6.8","","67","","10","","9","","16.1","","100.52","","","","","","Mainly Clear"
"1999-10-29 13:00","1999","10","29","13:00","12.3","","6.6","","68","","13","","11","","16.1","","100.45","","","","","","Mainly Clear"
"1999-10-29 14:00","1999","10","29","14:00","12.8","","7.4","","70","","12","","13","","16.1","","100.49","","","","","","Mostly Cloudy"
"1999-10-29 15:00","1999","10","29","15:00","12.8","","8.0","","73","","11","","15","","16.1","","100.49","","","","","","Mostly Cloudy"
"1999-10-29 16:00","1999","10","29","16:00","12.1","","7.3","","72","","10","","17","","14.5","","100.49","","","","","","Mostly Cloudy"
"1999-10-29 17:00","1999","10","29","17:00","11.4","","6.5","","72","","9","","11","","16.1","","100.49","","","","","","Mostly Cloudy"
"1999-10-29 18:00","1999","10","29","18:00","11.0","","6.1","","72","","9","","9","","14.5","","100.49","","","","","","Mostly Cloudy"
"1999-10-29 19:00","1999","10","29","19:00","10.8","","6.2","","73","","11","","6","","16.1","","100.49","","","","","","Mostly Cloudy"
"1999-10-29 20:00","1999","10","29","20:00","10.5","","6.4","","76","","9","","6","","14.5","","100.45","","","","","","Mostly Cloudy"
"1999-10-29 21:00","1999","10","29","21:00","10.0","","7.2","","83","","8","","7","","11.3","","100.45","","","","","","Mostly Cloudy"
"1999-10-29 22:00","1999","10","29","22:00","9.0","","7.3","","89","","","","0","","12.9","","100.45","","","","","","Clear"
"1999-10-29 23:00","1999","10","29","23:00","8.7","","7.3","","91","","8","","4","","12.9","","100.39","","","","","","Mostly Cloudy"
"1999-10-30 00:00","1999","10","30","00:00","9.3","","7.8","","90","","7","","4","","11.3","","100.39","","","","","","Cloudy"
"1999-10-30 01:00","1999","10","30","01:00","8.3","","7.0","","92","","","","0","","11.3","","100.39","","","","","","Cloudy"
"1999-10-30 02:00","1999","10","30","02:00","8.6","","7.5","","93","","7","","4","","11.3","","100.35","","","","","","Mostly Cloudy"
"1999-10-30 03:00","1999","10","30","03:00","7.9","","7.1","","95","","","","0","","12.9","","100.35","","","","","","Cloudy"
"1999-10-30 04:00","1999","10","30","04:00","8.1","","7.2","","94","","7","","6","","12.9","","100.39","","","","","","Cloudy"
"1999-10-30 05:00","1999","10","30","05:00","8.8","","7.2","","90","","34","","4","","12.9","","100.42","","","","","","Cloudy"
"1999-10-30 06:00","1999","10","30","06:00","9.2","","6.9","","86","","","","0","","11.3","","100.45","","","","","","Cloudy"
"1999-10-30 07:00","1999","10","30","07:00","8.9","","7.1","","88","","","","0","","11.3","","100.45","","","","","","Mainly Clear"
"1999-10-30 08:00","1999","10","30","08:00","8.6","","7.2","","91","","","","0","","11.3","","100.45","","","","","","Mainly Clear"
"1999-10-30 09:00","1999","10","30","09:00","11.8","","8.7","","81","","","","0","","12.9","","100.45","","","","","","Clear"
"1999-10-30 10:00","1999","10","30","10:00","13.5","","9.3","","76","","17","","4","","12.9","","100.42","","","","","","Clear"
"1999-10-30 11:00","1999","10","30","11:00","15.9","","10.2","","69","","18","","9","","14.5","","100.35","","","","","","Clear"
"1999-10-30 12:00","1999","10","30","12:00","17.0","","10.4","","65","","15","","9","","14.5","","100.29","","","","","","Mainly Clear"
"1999-10-30 13:00","1999","10","30","13:00","18.8","","11.0","","60","","16","","11","","16.1","","100.22","","","","","","Mainly Clear"
"1999-10-30 14:00","1999","10","30","14:00","19.3","","11.1","","59","","17","","15","","19.3","","100.12","","","","","","Clear"
"1999-10-30 15:00","1999","10","30","15:00","17.9","","10.5","","62","","15","","11","","19.3","","100.12","","","","","","Mostly Cloudy"
"1999-10-30 16:00","1999","10","30","16:00","16.2","","10.0","","67","","17","","13","","19.3","","100.09","","","","","","Mostly Cloudy"
"1999-10-30 17:00","1999","10","30","17:00","14.2","","9.6","","74","","15","","9","","12.9","","100.09","","","","","","Mostly Cloudy"
"1999-10-30 18:00","1999","10","30","18:00","13.2","","9.6","","79","","15","","9","","12.9","","100.09","","","","","","Mostly Cloudy"
"1999-10-30 19:00","1999","10","30","19:00","13.1","","9.7","","80","","16","","9","","12.9","","100.09","","","","","","Mostly Cloudy"
"1999-10-30 20:00","1999","10","30","20:00","14.7","","9.3","","70","","20","","7","","12.9","","100.05","","","","","","Mostly Cloudy"
"1999-10-30 21:00","1999","10","30","21:00","13.0","","9.3","","78","","17","","7","","12.9","","100.05","","","","","","Mainly Clear"
"1999-10-30 22:00","1999","10","30","22:00","12.5","","9.2","","80","","16","","7","","14.5","","100.02","","","","","","Mainly Clear"
"1999-10-30 23:00","1999","10","30","23:00","14.2","","8.4","","68","","22","","15","","12.9","","99.95","","","","","","Mostly Cloudy"
"1999-10-31 00:00","1999","10","31","00:00","15.6","","8.3","","62","","23","","19","","16.1","","99.92","","","","","","Mostly Cloudy"
"1999-10-31 01:00","1999","10","31","01:00","15.3","","8.2","","63","","23","","17","","14.5","","99.92","","","","","","Mostly Cloudy"
"1999-10-31 02:00","1999","10","31","02:00","14.9","","8.2","","64","","21","","11","","12.9","","99.92","","","","","","Mostly Cloudy"
"1999-10-31 03:00","1999","10","31","03:00","15.0","","8.4","","65","","23","","13","","14.5","","99.85","","","","","","Mostly Cloudy"
"1999-10-31 04:00","1999","10","31","04:00","15.0","","8.6","","66","","24","","13","","14.5","","99.85","","","","","","Mostly Cloudy"
"1999-10-31 05:00","1999","10","31","05:00","15.2","","10.5","","74","","25","","24","","14.5","","99.85","","","","","","Cloudy"
"1999-10-31 06:00","1999","10","31","06:00","14.6","","10.7","","77","","24","","19","","11.3","","99.85","","","","","","Rain"
"1999-10-31 07:00","1999","10","31","07:00","13.9","","11.4","","85","","26","","17","","9.7","","99.92","","","","","","Haze"
"1999-10-31 08:00","1999","10","31","08:00","14.6","","11.6","","82","","25","","17","","11.3","","99.92","","","","","","Mostly Cloudy"
"1999-10-31 09:00","1999","10","31","09:00","15.6","","11.6","","77","","26","","19","","9.7","","99.95","","","","","","Haze"
"1999-10-31 10:00","1999","10","31","10:00","16.6","","12.3","","76","","27","","28","","12.9","","99.92","","","","","","Mostly Cloudy"
"1999-10-31 11:00","1999","10","31","11:00","16.8","","11.2","","70","","32","","37","","19.3","","99.95","","","","","","Mostly Cloudy"
"1999-10-31 12:00","1999","10","31","12:00","17.7","","10.2","","61","","29","","33","","24.1","","99.99","","","","","","Mostly Cloudy"
"1999-10-31 13:00","1999","10","31","13:00","17.0","","7.0","","52","","31","","26","","24.1","","99.99","","","","","","Mainly Clear"
"1999-10-31 14:00","1999","10","31","14:00","17.3","","6.3","","48","","30","","30","","24.1","","99.99","","","","","","Mainly Clear"
"1999-10-31 15:00","1999","10","31","15:00","17.5","","6.4","","48","","29","","24","","25.0","","100.02","","","","","","Mostly Cloudy"
"1999-10-31 16:00","1999","10","31","16:00","17.2","","4.5","","43","","30","","22","","25.0","","100.02","","","","","","Clear"
"1999-10-31 17:00","1999","10","31","17:00","15.6","","3.4","","44","","30","","20","","25.0","","100.09","","","","","","Clear"
"1999-10-31 18:00","1999","10","31","18:00","13.2","","4.2","","54","","28","","7","","25.0","","100.15","","","","","","Clear"
"1999-10-31 19:00","1999","10","31","19:00","11.9","","3.3","","56","","29","","9","","25.0","","100.19","","","","","","Clear"
"1999-10-31 20:00","1999","10","31","20:00","10.9","","3.1","","59","","28","","9","","25.0","","100.22","","","","","","Clear"
"1999-10-31 21:00","1999","10","31","21:00","9.6","","2.9","","63","","25","","13","","25.0","","100.22","","","","","","Clear"
"1999-10-31 22:00","1999","10","31","22:00","8.9","","2.9","","66","","24","","9","","25.0","","100.25","","","","","","Clear"
"1999-10-31 23:00","1999","10","31","23:00","8.9","","2.8","","66","","25","","9","","25.0","","100.22","","","","","","Clear"
