"Station Name","TORONTO INTL A"
"Province","ONTARIO"
"Latitude","43.68"
"Longitude","-79.63"
"Elevation","173.40"
"Climate Identifier","6158731"
"WMO Identifier","71624"
"TC Identifier","YYZ"
"All times are specified in Local Standard Time (LST). Add 1 hour to adjust for Daylight Saving Time where and when it is observed."

"Legend"
"E","Estimated"
"M","Missing"
"NA","Not Available"

"Date/Time","Year","Month","Day","Time","Temp (°C)","Temp Flag","Dew Point Temp (°C)","Dew Point Temp Flag","Rel Hum (%)","Rel Hum Flag","Wind Dir (10s deg)","Wind Dir Flag","Wind Spd (km/h)","Wind Spd Flag","Visibility (km)","Visibility Flag","Stn Press (kPa)","Stn Press Flag","Hmdx","Hmdx Flag","Wind Chill","Wind Chill Flag","Weather"
"2014-08-01 00:00","2014","08","01","00:00","19.0","","13.7","","71","","24","","9","","24.1","","99.69","","","","","","NA"
"2014-08-01 01:00","2014","08","01","01:00","18.6","","13.7","","73","","23","","8","","24.1","","99.69","","","","","","Mostly Cloudy"
"2014-08-01 02:00","2014","08","01","02:00","19.2","","13.9","","71","","23","","14","","24.1","","99.67","","","","","","NA"
"2014-08-01 03:00","2014","08","01","03:00","18.2","","13.8","","75","","20","","7","","24.1","","99.68","","","","","","NA"
"2014-08-01 04:00","2014","08","01","04:00","18.1","","14.1","","77","","22","","7","","24.1","","99.72","","","","","","Mostly Cloudy"
"2014-08-01 05:00","2014","08","01","05:00","17.6","","14.0","","79","","16","","4","","24.1","","99.73","","","","","","NA"
"2014-08-01 06:00","2014","08","01","06:00","18.0","","14.0","","77","","23","","7","","19.3","","99.79","","","","","","NA"
"2014-08-01 07:00","2014","08","01","07:00","19.8","","14.9","","73","","19","","6","","19.3","","99.85","","","","","","Clear"
"2014-08-01 08:00","2014","08","01","08:00","20.9","","16.0","","73","","22","","8","","24.1","","99.87","","26","","","","NA"
"2014-08-01 09:00","2014","08","01","09:00","22.8","","16.2","","66","","20","","9","","24.1","","99.87","","28","","","","NA"
"2014-08-01 10:00","2014","08","01","10:00","24.5","","16.4","","60","","20","","16","","19.3","","99.86","","29","","","","Mainly Clear"
"2014-08-01 11:00","2014","08","01","11:00","25.8","","14.2","","48","","23","","15","","19.3","","99.85","","29","","","","NA"
"2014-08-01 12:00","2014","08","01","12:00","25.3","","16.6","","58","","19","","14","","19.3","","99.85","","30","","","","NA"
"2014-08-01 13:00","2014","08","01","13:00","25.7","","16.7","","57","","14","","16","","19.3","","99.80","","31","","","","Mostly Cloudy"
"2014-08-01 14:00","2014","08","01","14:00","27.0","","17.1","","54","","16","","18","","19.3","","99.79","","32","","","","NA"
"2014-08-01 15:00","2014","08","01","15:00","26.4","","17.1","","56","","16","","14","","16.1","","99.75","","32","","","","NA"
"2014-08-01 16:00","2014","08","01","16:00","22.0","","15.7","","67","","3","","27","","19.3","","99.78","","26","","","","Thunderstorms"
"2014-08-01 17:00","2014","08","01","17:00","19.9","","16.6","","81","","3","","10","","19.3","","99.87","","","","","","NA"
"2014-08-01 18:00","2014","08","01","18:00","20.6","","16.9","","79","","5","","5","","24.1","","99.89","","26","","","","NA"
"2014-08-01 19:00","2014","08","01","19:00","21.0","","16.3","","74","","9","","5","","19.3","","99.92","","26","","","","Mostly Cloudy"
"2014-08-01 20:00","2014","08","01","20:00","20.3","","16.4","","78","","36","","3","","19.3","","99.90","","25","","","","NA"
"2014-08-01 21:00","2014","08","01","21:00","19.5","","16.2","","81","","36","","3","","24.1","","99.92","","","","","","NA"
"2014-08-01 22:00","2014","08","01","22:00","19.2","","15.3","","78","","20","","6","","24.1","","99.94","","","","","","Mainly Clear"
"2014-08-01 23:00","2014","08","01","23:00","18.5","","15.0","","80","","15","","7","","24.1","","99.94","","","","","","NA"
"2014-08-02 00:00","2014","08","02","00:00","18.3","","14.7","","79","","27","","4","","24.1","","99.95","","","","","","NA"
"2014-08-02 01:00","2014","08","02","01:00","17.8","","15.6","","87","","33","","7","","24.1","","99.92","","","","","","Clear"
"2014-08-02 02:00","2014","08","02","02:00","17.5","","15.5","","88","","1","","4","","24.1","","99.89","","","","","","NA"
"2014-08-02 03:00","2014","08","02","03:00","16.5","","14.9","","90","","4","","6","","24.1","","99.91","","","","","","NA"
"2014-08-02 04:00","2014","08","02","04:00","16.7","","14.7","","88","","2","","8","","24.1","","99.93","","","","","","Mainly Clear"
"2014-08-02 05:00","2014","08","02","05:00","16.2","","13.9","","86","","1","","9","","12.9","","99.93","","","","","","NA"
"2014-08-02 06:00","2014","08","02","06:00","16.9","","14.4","","85","","36","","11","","16.1","","99.94","","","","","","NA"
"2014-08-02 07:00","2014","08","02","07:00","18.0","","15.1","","83","","33","","7","","16.1","","99.96","","","","","","Mainly Clear"
"2014-08-02 08:00","2014","08","02","08:00","20.4","","15.5","","73","","35","","10","","16.1","","99.98","","25","","","","NA"
"2014-08-02 09:00","2014","08","02","09:00","22.1","","16.2","","69","","10","","4","","16.1","","100.01","","27","","","","NA"
"2014-08-02 10:00","2014","08","02","10:00","23.5","","16.4","","64","","17","","9","","16.1","","99.99","","28","","","","Mostly Cloudy"
"2014-08-02 11:00","2014","08","02","11:00","24.1","","17.2","","65","","16","","9","","19.3","","100.01","","30","","","","NA"
"2014-08-02 12:00","2014","08","02","12:00","24.2","","17.8","","67","","16","","15","","19.3","","99.99","","30","","","","NA"
"2014-08-02 13:00","2014","08","02","13:00","24.9","","17.3","","62","","15","","10","","19.3","","99.91","","30","","","","Mostly Cloudy"
"2014-08-02 14:00","2014","08","02","14:00","24.6","","16.7","","61","","15","","15","","12.9","","99.86","","30","","","","NA"
"2014-08-02 15:00","2014","08","02","15:00","24.5","","16.9","","62","","17","","8","","16.1","","99.84","","30","","","","NA"
"2014-08-02 16:00","2014","08","02","16:00","24.6","","17.0","","62","","18","","10","","16.1","","99.82","","30","","","","Mostly Cloudy"
"2014-08-02 17:00","2014","08","02","17:00","24.6","","15.4","","56","","19","","5","","19.3","","99.79","","29","","","","NA"
"2014-08-02 18:00","2014","08","02","18:00","23.7","","16.9","","65","","18","","4","","19.3","","99.80","","29","","","","NA"
"2014-08-02 19:00","2014","08","02","19:00","23.5","","16.4","","64","","16","","6","","19.3","","99.79","","28","","","","Cloudy"
"2014-08-02 20:00","2014","08","02","20:00","22.3","","15.5","","65","","14","","5","","19.3","","99.82","","27","","","","NA"
"2014-08-02 21:00","2014","08","02","21:00","22.2","","15.4","","65","","36","","2","","19.3","","99.86","","26","","","","NA"
"2014-08-02 22:00","2014","08","02","22:00","21.8","","15.3","","66","","28","","3","","24.1","","99.84","","26","","","","Cloudy"
"2014-08-02 23:00","2014","08","02","23:00","20.2","","16.1","","77","","32","","13","","24.1","","99.87","","25","","","","NA"
"2014-08-03 00:00","2014","08","03","00:00","19.5","","15.6","","78","","36","","10","","24.1","","99.86","","","","","","NA"
"2014-08-03 01:00","2014","08","03","01:00","19.1","","15.4","","79","","34","","10","","24.1","","99.85","","","","","","Cloudy"
"2014-08-03 02:00","2014","08","03","02:00","18.8","","15.1","","79","","35","","16","","24.1","","99.83","","","","","","NA"
"2014-08-03 03:00","2014","08","03","03:00","18.6","","14.9","","79","","36","","21","","24.1","","99.81","","","","","","NA"
"2014-08-03 04:00","2014","08","03","04:00","18.5","","14.8","","79","","33","","16","","24.1","","99.81","","","","","","Cloudy"
"2014-08-03 05:00","2014","08","03","05:00","18.2","","14.7","","80","","34","","9","","24.1","","99.83","","","","","","NA"
"2014-08-03 06:00","2014","08","03","06:00","18.2","","14.6","","79","","34","","11","","24.1","","99.86","","","","","","NA"
"2014-08-03 07:00","2014","08","03","07:00","18.4","","14.9","","80","","36","","10","","24.1","","99.91","","","","","","Mostly Cloudy"
"2014-08-03 08:00","2014","08","03","08:00","19.1","","15.4","","79","","1","","8","","24.1","","99.94","","","","","","NA"
"2014-08-03 09:00","2014","08","03","09:00","20.7","","16.0","","74","","2","","9","","24.1","","99.90","","25","","","","NA"
"2014-08-03 10:00","2014","08","03","10:00","22.6","","16.7","","69","","36","","6","","24.1","","99.89","","28","","","","Mostly Cloudy"
"2014-08-03 11:00","2014","08","03","11:00","24.6","","17.0","","62","","36","","2","","24.1","","99.86","","30","","","","NA"
"2014-08-03 12:00","2014","08","03","12:00","25.2","","15.1","","53","","36","","2","","24.1","","99.85","","29","","","","NA"
"2014-08-03 13:00","2014","08","03","13:00","27.1","","16.3","","51","","19","","13","","24.1","","99.83","","32","","","","Mostly Cloudy"
"2014-08-03 14:00","2014","08","03","14:00","24.9","","15.7","","56","","16","","9","","19.3","","99.77","","29","","","","NA"
"2014-08-03 15:00","2014","08","03","15:00","22.9","","17.9","","73","","12","","18","","19.3","","99.75","","29","","","","NA"
"2014-08-03 16:00","2014","08","03","16:00","22.6","","17.0","","70","","15","","17","","24.1","","99.73","","28","","","","Mostly Cloudy"
"2014-08-03 17:00","2014","08","03","17:00","23.6","","17.5","","68","","14","","9","","24.1","","99.72","","29","","","","NA"
"2014-08-03 18:00","2014","08","03","18:00","22.5","","15.9","","66","","15","","10","","24.1","","99.71","","27","","","","NA"
"2014-08-03 19:00","2014","08","03","19:00","22.7","","15.7","","64","","16","","8","","24.1","","99.71","","27","","","","Mainly Clear"
"2014-08-03 20:00","2014","08","03","20:00","21.3","","17.0","","76","","13","","8","","24.1","","99.73","","27","","","","NA"
"2014-08-03 21:00","2014","08","03","21:00","21.1","","18.3","","84","","14","","8","","24.1","","99.80","","27","","","","NA"
"2014-08-03 22:00","2014","08","03","22:00","20.8","","18.4","","86","","13","","7","","24.1","","99.77","","27","","","","Mostly Cloudy"
"2014-08-03 23:00","2014","08","03","23:00","20.2","","18.2","","88","","19","","5","","24.1","","99.78","","26","","","","NA"
"2014-08-04 00:00","2014","08","04","00:00","20.0","","18.2","","89","","15","","5","","19.3","","99.77","","26","","","","NA"
"2014-08-04 01:00","2014","08","04","01:00","20.0","","18.2","","89","","15","","8","","19.3","","99.74","","26","","","","Mostly Cloudy"
"2014-08-04 02:00","2014","08","04","02:00","19.1","","18.0","","93","","16","","8","","19.3","","99.72","","","","","","NA"
"2014-08-04 03:00","2014","08","04","03:00","18.9","","17.9","","94","","16","","6","","16.1","","99.70","","","","","","NA"
"2014-08-04 04:00","2014","08","04","04:00","18.5","","17.5","","94","","20","","4","","14.5","","99.70","","","","","","Clear"
"2014-08-04 05:00","2014","08","04","05:00","17.4","","16.4","","94","","25","","7","","14.5","","99.73","","","","","","NA"
"2014-08-04 06:00","2014","08","04","06:00","18.2","","16.9","","92","","26","","5","","19.3","","99.75","","","","","","NA"
"2014-08-04 07:00","2014","08","04","07:00","19.6","","16.7","","83","","28","","8","","24.1","","99.76","","","","","","Mostly Cloudy"
"2014-08-04 08:00","2014","08","04","08:00","22.1","","17.1","","73","","23","","3","","16.1","","99.74","","27","","","","NA"
"2014-08-04 09:00","2014","08","04","09:00","24.7","","16.6","","60","","22","","14","","16.1","","99.76","","30","","","","NA"
"2014-08-04 10:00","2014","08","04","10:00","25.2","","17.5","","62","","26","","17","","19.3","","99.76","","31","","","","Cloudy"
"2014-08-04 11:00","2014","08","04","11:00","27.0","","16.5","","52","","27","","18","","24.1","","99.72","","32","","","","NA"
"2014-08-04 12:00","2014","08","04","12:00","26.9","","17.6","","56","","30","","23","","24.1","","99.68","","33","","","","NA"
"2014-08-04 13:00","2014","08","04","13:00","27.6","","16.4","","50","","25","","16","","16.1","","99.60","","32","","","","Mostly Cloudy"
"2014-08-04 14:00","2014","08","04","14:00","27.1","","17.5","","55","","21","","34","","12.9","","99.54","","33","","","","NA"
"2014-08-04 15:00","2014","08","04","15:00","22.7","","17.9","","74","","27","","17","","19.3","","99.56","","29","","","","NA"
"2014-08-04 16:00","2014","08","04","16:00","20.0","","16.5","","80","","7","","13","","24.1","","99.67","","25","","","","Mostly Cloudy"
"2014-08-04 17:00","2014","08","04","17:00","19.7","","16.8","","83","","13","","18","","24.1","","99.71","","","","","","NA"
"2014-08-04 18:00","2014","08","04","18:00","20.1","","17.0","","82","","18","","11","","24.1","","99.74","","25","","","","NA"
"2014-08-04 19:00","2014","08","04","19:00","19.4","","16.5","","83","","18","","14","","24.1","","99.71","","","","","","Mainly Clear"
"2014-08-04 20:00","2014","08","04","20:00","18.8","","16.8","","88","","25","","14","","24.1","","99.70","","","","","","NA"
"2014-08-04 21:00","2014","08","04","21:00","18.9","","16.7","","87","","30","","9","","24.1","","99.68","","","","","","NA"
"2014-08-04 22:00","2014","08","04","22:00","18.5","","16.9","","90","","25","","4","","24.1","","99.67","","","","","","Clear"
"2014-08-04 23:00","2014","08","04","23:00","19.1","","16.7","","86","","30","","8","","24.1","","99.67","","","","","","NA"
"2014-08-05 00:00","2014","08","05","00:00","19.2","","16.8","","86","","31","","12","","24.1","","99.64","","","","","","NA"
"2014-08-05 01:00","2014","08","05","01:00","17.4","","15.8","","90","","28","","9","","24.1","","99.61","","","","","","Clear"
"2014-08-05 02:00","2014","08","05","02:00","18.2","","15.5","","84","","32","","4","","24.1","","99.61","","","","","","NA"
"2014-08-05 03:00","2014","08","05","03:00","17.8","","14.7","","82","","32","","13","","24.1","","99.62","","","","","","NA"
"2014-08-05 04:00","2014","08","05","04:00","17.6","","14.5","","82","","33","","7","","24.1","","99.62","","","","","","Cloudy"
"2014-08-05 05:00","2014","08","05","05:00","18.1","","14.3","","78","","34","","13","","24.1","","99.67","","","","","","NA"
"2014-08-05 06:00","2014","08","05","06:00","18.0","","14.7","","81","","1","","10","","24.1","","99.71","","","","","","NA"
"2014-08-05 07:00","2014","08","05","07:00","17.8","","15.1","","84","","34","","14","","24.1","","99.74","","","","","","Cloudy"
"2014-08-05 08:00","2014","08","05","08:00","18.3","","15.2","","82","","1","","4","","24.1","","99.74","","","","","","NA"
"2014-08-05 09:00","2014","08","05","09:00","19.7","","15.8","","78","","33","","3","","19.3","","99.73","","","","","","NA"
"2014-08-05 10:00","2014","08","05","10:00","20.6","","16.9","","79","","33","","12","","19.3","","99.77","","26","","","","Cloudy"
"2014-08-05 11:00","2014","08","05","11:00","20.8","","15.4","","71","","32","","16","","16.1","","99.78","","25","","","","Rain Showers"
"2014-08-05 12:00","2014","08","05","12:00","20.8","","16.7","","77","","2","","5","","19.3","","99.69","","26","","","","NA"
"2014-08-05 13:00","2014","08","05","13:00","21.0","","17.3","","79","","36","","3","","24.1","","99.70","","26","","","","Cloudy"
"2014-08-05 14:00","2014","08","05","14:00","22.2","","16.8","","71","","2","","8","","24.1","","99.61","","27","","","","NA"
"2014-08-05 15:00","2014","08","05","15:00","23.2","","16.1","","64","","1","","9","","24.1","","99.56","","28","","","","NA"
"2014-08-05 16:00","2014","08","05","16:00","23.2","","15.6","","62","","3","","12","","24.1","","99.55","","28","","","","Mostly Cloudy"
"2014-08-05 17:00","2014","08","05","17:00","24.2","","15.3","","57","","36","","3","","24.1","","99.54","","28","","","","NA"
"2014-08-05 18:00","2014","08","05","18:00","21.7","","16.3","","71","","15","","13","","24.1","","99.53","","27","","","","NA"
"2014-08-05 19:00","2014","08","05","19:00","21.2","","16.0","","72","","13","","6","","24.1","","99.54","","26","","","","Mostly Cloudy"
"2014-08-05 20:00","2014","08","05","20:00","20.7","","14.9","","69","","36","","2","","24.1","","99.55","","25","","","","NA"
"2014-08-05 21:00","2014","08","05","21:00","20.4","","14.6","","69","","13","","5","","24.1","","99.57","","","","","","NA"
"2014-08-05 22:00","2014","08","05","22:00","20.3","","15.6","","74","","36","","10","","24.1","","99.57","","25","","","","Mostly Cloudy"
"2014-08-05 23:00","2014","08","05","23:00","18.9","","15.8","","82","","36","","10","","24.1","","99.54","","","","","","NA"
"2014-08-06 00:00","2014","08","06","00:00","18.2","","15.5","","84","","35","","16","","24.1","","99.51","","","","","","NA"
"2014-08-06 01:00","2014","08","06","01:00","17.7","","15.7","","88","","35","","13","","24.1","","99.51","","","","","","Mostly Cloudy"
"2014-08-06 02:00","2014","08","06","02:00","16.8","","15.3","","91","","33","","11","","24.1","","99.50","","","","","","NA"
"2014-08-06 03:00","2014","08","06","03:00","16.4","","15.3","","93","","33","","12","","24.1","","99.49","","","","","","NA"
"2014-08-06 04:00","2014","08","06","04:00","16.4","","15.1","","92","","33","","12","","24.1","","99.48","","","","","","Mainly Clear"
"2014-08-06 05:00","2014","08","06","05:00","15.9","","14.5","","91","","33","","9","","24.1","","99.51","","","","","","NA"
"2014-08-06 06:00","2014","08","06","06:00","16.2","","14.2","","88","","35","","12","","24.1","","99.53","","","","","","NA"
"2014-08-06 07:00","2014","08","06","07:00","17.2","","14.5","","84","","36","","14","","24.1","","99.54","","","","","","Mainly Clear"
"2014-08-06 08:00","2014","08","06","08:00","18.5","","14.7","","78","","1","","13","","24.1","","99.57","","","","","","NA"
"2014-08-06 09:00","2014","08","06","09:00","20.9","","15.5","","71","","36","","12","","24.1","","99.56","","25","","","","NA"
"2014-08-06 10:00","2014","08","06","10:00","22.9","","10.5","","45","","1","","16","","24.1","","99.60","","","","","","Mainly Clear"
"2014-08-06 11:00","2014","08","06","11:00","24.0","","10.5","","42","","2","","22","","24.1","","99.60","","26","","","","NA"
"2014-08-06 12:00","2014","08","06","12:00","23.8","","10.0","","41","","36","","22","","24.1","","99.57","","25","","","","NA"
"2014-08-06 13:00","2014","08","06","13:00","24.1","","10.9","","43","","1","","18","","24.1","","99.52","","26","","","","Mostly Cloudy"
"2014-08-06 14:00","2014","08","06","14:00","24.5","","11.6","","44","","2","","11","","24.1","","99.48","","27","","","","NA"
"2014-08-06 15:00","2014","08","06","15:00","24.7","","13.1","","48","","2","","16","","24.1","","99.43","","28","","","","NA"
"2014-08-06 16:00","2014","08","06","16:00","24.6","","11.0","","42","","35","","16","","24.1","","99.43","","26","","","","Mostly Cloudy"
"2014-08-06 17:00","2014","08","06","17:00","24.8","","11.2","","42","","35","","18","","24.1","","99.48","","27","","","","NA"
"2014-08-06 18:00","2014","08","06","18:00","23.8","","10.0","","41","","36","","23","","24.1","","99.47","","25","","","","NA"
"2014-08-06 19:00","2014","08","06","19:00","22.7","","11.0","","47","","36","","21","","24.1","","99.48","","","","","","Mostly Cloudy"
"2014-08-06 20:00","2014","08","06","20:00","21.4","","12.1","","55","","35","","16","","24.1","","99.51","","","","","","NA"
"2014-08-06 21:00","2014","08","06","21:00","20.6","","12.7","","60","","31","","13","","24.1","","99.52","","","","","","NA"
"2014-08-06 22:00","2014","08","06","22:00","20.5","","13.3","","63","","34","","11","","24.1","","99.59","","","","","","Mainly Clear"
"2014-08-06 23:00","2014","08","06","23:00","19.8","","13.4","","66","","34","","15","","24.1","","99.61","","","","","","NA"
"2014-08-07 00:00","2014","08","07","00:00","18.3","","13.0","","71","","32","","19","","24.1","","99.61","","","","","","NA"
"2014-08-07 01:00","2014","08","07","01:00","18.5","","11.4","","63","","31","","13","","24.1","","99.59","","","","","","Mostly Cloudy"
"2014-08-07 02:00","2014","08","07","02:00","17.0","","11.8","","71","","29","","10","","24.1","","99.60","","","","","","NA"
"2014-08-07 03:00","2014","08","07","03:00","17.3","","11.4","","68","","35","","10","","24.1","","99.60","","","","","","NA"
"2014-08-07 04:00","2014","08","07","04:00","16.7","","11.5","","71","","32","","11","","24.1","","99.62","","","","","","Mostly Cloudy"
"2014-08-07 05:00","2014","08","07","05:00","17.3","","11.6","","69","","35","","13","","24.1","","99.64","","","","","","NA"
"2014-08-07 06:00","2014","08","07","06:00","17.0","","12.4","","74","","35","","18","","24.1","","99.71","","","","","","NA"
"2014-08-07 07:00","2014","08","07","07:00","18.3","","13.7","","74","","35","","17","","24.1","","99.76","","","","","","Clear"
"2014-08-07 08:00","2014","08","07","08:00","20.2","","15.1","","72","","34","","18","","24.1","","99.78","","","","","","NA"
"2014-08-07 09:00","2014","08","07","09:00","20.9","","15.1","","69","","1","","12","","24.1","","99.78","","25","","","","NA"
"2014-08-07 10:00","2014","08","07","10:00","22.2","","12.9","","55","","1","","18","","24.1","","99.80","","25","","","","Clear"
"2014-08-07 11:00","2014","08","07","11:00","23.3","","13.6","","54","","35","","22","","24.1","","99.82","","26","","","","NA"
"2014-08-07 12:00","2014","08","07","12:00","23.3","","12.2","","49","","36","","16","","24.1","","99.80","","26","","","","NA"
"2014-08-07 13:00","2014","08","07","13:00","24.3","","12.1","","46","","32","","23","","24.1","","99.78","","27","","","","Cloudy"
"2014-08-07 14:00","2014","08","07","14:00","24.1","","11.3","","44","","33","","18","","24.1","","99.77","","26","","","","NA"
"2014-08-07 15:00","2014","08","07","15:00","23.8","","10.7","","43","","34","","16","","24.1","","99.74","","25","","","","NA"
"2014-08-07 16:00","2014","08","07","16:00","23.6","","8.3","","37","","34","","19","","24.1","","99.73","","","","","","Mainly Clear"
"2014-08-07 17:00","2014","08","07","17:00","23.2","","9.0","","40","","33","","21","","19.3","","99.75","","","","","","NA"
"2014-08-07 18:00","2014","08","07","18:00","22.2","","10.8","","48","","36","","22","","24.1","","99.77","","","","","","NA"
"2014-08-07 19:00","2014","08","07","19:00","20.9","","11.9","","56","","36","","18","","24.1","","99.81","","","","","","Mainly Clear"
"2014-08-07 20:00","2014","08","07","20:00","19.5","","11.6","","60","","35","","20","","24.1","","99.84","","","","","","NA"
"2014-08-07 21:00","2014","08","07","21:00","18.8","","11.7","","63","","36","","20","","24.1","","99.88","","","","","","NA"
"2014-08-07 22:00","2014","08","07","22:00","17.9","","11.5","","66","","36","","21","","24.1","","99.89","","","","","","Mainly Clear"
"2014-08-07 23:00","2014","08","07","23:00","16.9","","11.9","","72","","36","","16","","24.1","","99.90","","","","","","NA"
"2014-08-08 00:00","2014","08","08","00:00","16.0","","11.6","","75","","36","","15","","24.1","","99.93","","","","","","NA"
"2014-08-08 01:00","2014","08","08","01:00","15.6","","11.4","","76","","36","","17","","24.1","","99.92","","","","","","Mainly Clear"
"2014-08-08 02:00","2014","08","08","02:00","15.1","","11.5","","79","","34","","13","","24.1","","99.94","","","","","","NA"
"2014-08-08 03:00","2014","08","08","03:00","14.9","","11.5","","80","","34","","13","","24.1","","99.95","","","","","","NA"
"2014-08-08 04:00","2014","08","08","04:00","14.6","","11.6","","82","","33","","11","","24.1","","100.00","","","","","","Clear"
"2014-08-08 05:00","2014","08","08","05:00","14.4","","11.6","","83","","35","","7","","24.1","","100.06","","","","","","NA"
"2014-08-08 06:00","2014","08","08","06:00","14.9","","11.9","","82","","33","","11","","24.1","","100.12","","","","","","NA"
"2014-08-08 07:00","2014","08","08","07:00","16.2","","12.6","","79","","36","","10","","24.1","","100.13","","","","","","Mainly Clear"
"2014-08-08 08:00","2014","08","08","08:00","18.0","","12.7","","71","","1","","6","","24.1","","100.15","","","","","","NA"
"2014-08-08 09:00","2014","08","08","09:00","20.3","","13.6","","65","","1","","8","","24.1","","100.13","","","","","","NA"
"2014-08-08 10:00","2014","08","08","10:00","21.7","","12.4","","55","","1","","5","","24.1","","100.13","","","","","","Mainly Clear"
"2014-08-08 11:00","2014","08","08","11:00","22.1","","11.9","","52","","21","","4","","24.1","","100.10","","","","","","NA"
"2014-08-08 12:00","2014","08","08","12:00","22.9","","11.5","","48","","8","","9","","24.1","","100.07","","25","","","","NA"
"2014-08-08 13:00","2014","08","08","13:00","23.4","","11.9","","48","","14","","3","","24.1","","100.02","","26","","","","Mostly Cloudy"
"2014-08-08 14:00","2014","08","08","14:00","23.8","","13.5","","52","","8","","7","","24.1","","99.97","","27","","","","NA"
"2014-08-08 15:00","2014","08","08","15:00","24.2","","13.3","","50","","13","","11","","24.1","","99.95","","27","","","","NA"
"2014-08-08 16:00","2014","08","08","16:00","24.2","","13.0","","49","","15","","10","","24.1","","99.94","","27","","","","Mostly Cloudy"
"2014-08-08 17:00","2014","08","08","17:00","23.6","","12.1","","48","","13","","13","","24.1","","99.95","","26","","","","NA"
"2014-08-08 18:00","2014","08","08","18:00","22.5","","11.4","","49","","14","","12","","24.1","","99.93","","","","","","NA"
"2014-08-08 19:00","2014","08","08","19:00","21.7","","11.6","","52","","15","","8","","24.1","","99.94","","","","","","Mostly Cloudy"
"2014-08-08 20:00","2014","08","08","20:00","20.9","","10.8","","52","","18","","7","","19.3","","99.96","","","","","","NA"
"2014-08-08 21:00","2014","08","08","21:00","20.6","","11.4","","55","","36","","2","","24.1","","100.00","","","","","","NA"
"2014-08-08 22:00","2014","08","08","22:00","18.8","","13.3","","70","","30","","13","","24.1","","100.01","","","","","","Mainly Clear"
"2014-08-08 23:00","2014","08","08","23:00","18.8","","13.3","","70","","33","","12","","24.1","","100.02","","","","","","NA"
"2014-08-09 00:00","2014","08","09","00:00","17.8","","13.0","","73","","32","","12","","24.1","","100.02","","","","","","NA"
"2014-08-09 01:00","2014","08","09","01:00","17.2","","12.4","","73","","34","","11","","24.1","","100.02","","","","","","Clear"
"2014-08-09 02:00","2014","08","09","02:00","15.9","","12.1","","78","","36","","11","","24.1","","100.02","","","","","","NA"
"2014-08-09 03:00","2014","08","09","03:00","15.7","","11.9","","78","","34","","14","","24.1","","100.04","","","","","","NA"
"2014-08-09 04:00","2014","08","09","04:00","14.8","","11.6","","81","","32","","7","","24.1","","100.07","","","","","","Clear"
"2014-08-09 05:00","2014","08","09","05:00","15.2","","11.6","","79","","34","","10","","24.1","","100.08","","","","","","NA"
"2014-08-09 06:00","2014","08","09","06:00","15.5","","11.7","","78","","34","","10","","24.1","","100.09","","","","","","NA"
"2014-08-09 07:00","2014","08","09","07:00","17.1","","12.7","","75","","34","","9","","24.1","","100.11","","","","","","Clear"
"2014-08-09 08:00","2014","08","09","08:00","18.7","","13.8","","73","","2","","10","","24.1","","100.11","","","","","","NA"
"2014-08-09 09:00","2014","08","09","09:00","20.6","","14.6","","68","","1","","7","","24.1","","100.10","","","","","","NA"
"2014-08-09 10:00","2014","08","09","10:00","23.2","","14.4","","57","","5","","5","","24.1","","100.12","","27","","","","Clear"
"2014-08-09 11:00","2014","08","09","11:00","24.4","","12.9","","48","","10","","9","","24.1","","100.11","","27","","","","NA"
"2014-08-09 12:00","2014","08","09","12:00","24.8","","12.6","","46","","17","","3","","24.1","","100.08","","27","","","","NA"
"2014-08-09 13:00","2014","08","09","13:00","25.4","","12.1","","43","","14","","20","","24.1","","100.07","","28","","","","Mainly Clear"
"2014-08-09 14:00","2014","08","09","14:00","25.8","","12.1","","42","","14","","18","","24.1","","100.04","","28","","","","NA"
"2014-08-09 15:00","2014","08","09","15:00","25.6","","12.0","","42","","15","","17","","24.1","","100.01","","28","","","","NA"
"2014-08-09 16:00","2014","08","09","16:00","25.6","","11.6","","41","","15","","13","","24.1","","100.00","","28","","","","Mainly Clear"
"2014-08-09 17:00","2014","08","09","17:00","25.2","","10.5","","39","","14","","14","","24.1","","99.98","","27","","","","NA"
"2014-08-09 18:00","2014","08","09","18:00","24.7","","9.6","","38","","15","","14","","24.1","","99.96","","26","","","","NA"
"2014-08-09 19:00","2014","08","09","19:00","23.4","","9.6","","41","","11","","9","","24.1","","99.96","","","","","","Clear"
"2014-08-09 20:00","2014","08","09","20:00","22.6","","10.2","","45","","12","","7","","24.1","","99.98","","","","","","NA"
"2014-08-09 21:00","2014","08","09","21:00","22.2","","10.2","","46","","13","","5","","24.1","","100.00","","","","","","NA"
"2014-08-09 22:00","2014","08","09","22:00","21.3","","10.3","","49","","7","","4","","24.1","","100.00","","","","","","Clear"
"2014-08-09 23:00","2014","08","09","23:00","21.1","","10.7","","51","","7","","3","","24.1","","100.03","","","","","","NA"
"2014-08-10 00:00","2014","08","10","00:00","18.6","","11.3","","62","","34","","8","","24.1","","100.07","","","","","","NA"
"2014-08-10 01:00","2014","08","10","01:00","18.4","","11.6","","64","","2","","7","","24.1","","100.05","","","","","","Clear"
"2014-08-10 02:00","2014","08","10","02:00","16.9","","11.7","","71","","31","","4","","24.1","","100.05","","","","","","NA"
"2014-08-10 03:00","2014","08","10","03:00","15.7","","11.5","","76","","1","","5","","24.1","","100.05","","","","","","NA"
"2014-08-10 04:00","2014","08","10","04:00","15.9","","11.5","","75","","4","","9","","24.1","","100.02","","","","","","Clear"
"2014-08-10 05:00","2014","08","10","05:00","15.0","","11.8","","81","","31","","14","","24.1","","100.04","","","","","","NA"
"2014-08-10 06:00","2014","08","10","06:00","15.1","","12.1","","82","","1","","9","","24.1","","100.06","","","","","","NA"
"2014-08-10 07:00","2014","08","10","07:00","18.2","","13.1","","72","","1","","7","","24.1","","100.08","","","","","","Mainly Clear"
"2014-08-10 08:00","2014","08","10","08:00","21.7","","12.9","","57","","5","","9","","24.1","","100.09","","","","","","NA"
"2014-08-10 09:00","2014","08","10","09:00","23.7","","11.9","","47","","10","","11","","24.1","","100.06","","26","","","","NA"
"2014-08-10 10:00","2014","08","10","10:00","24.7","","11.5","","43","","14","","10","","24.1","","100.05","","27","","","","Mainly Clear"
"2014-08-10 11:00","2014","08","10","11:00","25.7","","10.1","","37","","13","","17","","24.1","","100.05","","27","","","","NA"
"2014-08-10 12:00","2014","08","10","12:00","25.9","","10.3","","37","","11","","14","","24.1","","100.02","","27","","","","NA"
"2014-08-10 13:00","2014","08","10","13:00","26.6","","12.1","","40","","15","","16","","24.1","","99.98","","29","","","","Mainly Clear"
"2014-08-10 14:00","2014","08","10","14:00","26.4","","12.7","","42","","15","","15","","24.1","","99.95","","29","","","","NA"
"2014-08-10 15:00","2014","08","10","15:00","26.4","","13.0","","43","","14","","14","","24.1","","99.93","","29","","","","NA"
"2014-08-10 16:00","2014","08","10","16:00","26.5","","11.7","","39","","14","","11","","24.1","","99.89","","29","","","","Mostly Cloudy"
"2014-08-10 17:00","2014","08","10","17:00","26.0","","12.3","","42","","8","","10","","24.1","","99.83","","28","","","","NA"
"2014-08-10 18:00","2014","08","10","18:00","24.8","","14.4","","52","","14","","15","","24.1","","99.82","","28","","","","NA"
"2014-08-10 19:00","2014","08","10","19:00","22.9","","13.8","","56","","11","","15","","24.1","","99.78","","26","","","","Mostly Cloudy"
"2014-08-10 20:00","2014","08","10","20:00","21.7","","14.0","","61","","10","","10","","24.1","","99.78","","25","","","","NA"
"2014-08-10 21:00","2014","08","10","21:00","21.1","","14.4","","65","","10","","3","","24.1","","99.80","","25","","","","NA"
"2014-08-10 22:00","2014","08","10","22:00","20.2","","14.4","","69","","8","","7","","24.1","","99.81","","","","","","Clear"
"2014-08-10 23:00","2014","08","10","23:00","19.9","","14.6","","71","","5","","5","","24.1","","99.82","","","","","","NA"
"2014-08-11 00:00","2014","08","11","00:00","19.3","","15.0","","76","","5","","6","","24.1","","99.82","","","","","","NA"
"2014-08-11 01:00","2014","08","11","01:00","19.2","","15.1","","77","","3","","8","","24.1","","99.79","","","","","","Mainly Clear"
"2014-08-11 02:00","2014","08","11","02:00","19.1","","15.8","","81","","6","","7","","24.1","","99.76","","","","","","NA"
"2014-08-11 03:00","2014","08","11","03:00","18.7","","15.4","","81","","6","","7","","24.1","","99.72","","","","","","NA"
"2014-08-11 04:00","2014","08","11","04:00","18.6","","15.3","","81","","4","","7","","24.1","","99.69","","","","","","Mostly Cloudy"
"2014-08-11 05:00","2014","08","11","05:00","18.1","","15.4","","84","","4","","7","","24.1","","99.66","","","","","","NA"
"2014-08-11 06:00","2014","08","11","06:00","19.0","","16.5","","85","","6","","9","","24.1","","99.65","","","","","","NA"
"2014-08-11 07:00","2014","08","11","07:00","20.4","","17.7","","84","","11","","9","","24.1","","99.63","","26","","","","Mostly Cloudy"
"2014-08-11 08:00","2014","08","11","08:00","22.3","","18.1","","77","","12","","14","","24.1","","99.63","","28","","","","NA"
"2014-08-11 09:00","2014","08","11","09:00","23.6","","17.7","","69","","12","","14","","24.1","","99.62","","29","","","","NA"
"2014-08-11 10:00","2014","08","11","10:00","24.6","","17.7","","65","","10","","12","","24.1","","99.58","","30","","","","Mostly Cloudy"
"2014-08-11 11:00","2014","08","11","11:00","25.4","","18.0","","63","","15","","19","","24.1","","99.56","","31","","","","NA"
"2014-08-11 12:00","2014","08","11","12:00","26.3","","18.1","","60","","14","","18","","24.1","","99.49","","32","","","","NA"
"2014-08-11 13:00","2014","08","11","13:00","26.8","","18.5","","60","","13","","18","","19.3","","99.46","","33","","","","Mostly Cloudy"
"2014-08-11 14:00","2014","08","11","14:00","27.5","","18.1","","56","","12","","15","","24.1","","99.42","","34","","","","NA"
"2014-08-11 15:00","2014","08","11","15:00","27.5","","18.1","","56","","11","","14","","19.3","","99.35","","34","","","","NA"
"2014-08-11 16:00","2014","08","11","16:00","26.8","","17.5","","56","","12","","14","","24.1","","99.29","","32","","","","Mostly Cloudy"
"2014-08-11 17:00","2014","08","11","17:00","25.5","","17.8","","62","","14","","21","","24.1","","99.28","","31","","","","NA"
"2014-08-11 18:00","2014","08","11","18:00","25.2","","14.5","","51","","17","","15","","24.1","","99.23","","29","","","","NA"
"2014-08-11 19:00","2014","08","11","19:00","23.2","","14.9","","59","","15","","23","","24.1","","99.21","","27","","","","Rain Showers"
"2014-08-11 20:00","2014","08","11","20:00","22.9","","14.9","","60","","14","","18","","24.1","","99.15","","27","","","","NA"
"2014-08-11 21:00","2014","08","11","21:00","23.3","","14.7","","58","","13","","14","","24.1","","99.10","","27","","","","NA"
"2014-08-11 22:00","2014","08","11","22:00","23.2","","15.4","","61","","12","","18","","24.1","","98.99","","27","","","","Rain Showers"
"2014-08-11 23:00","2014","08","11","23:00","21.3","","16.6","","74","","13","","15","","19.3","","98.96","","26","","","","Rain Showers"
"2014-08-12 00:00","2014","08","12","00:00","18.3","","17.2","","93","","13","","14","","8.1","","98.94","","","","","","Heavy Rain Showers,Fog"
"2014-08-12 01:00","2014","08","12","01:00","18.5","","17.5","","94","","12","","14","","6.4","","98.83","","","","","","Rain Showers,Fog"
"2014-08-12 02:00","2014","08","12","02:00","18.8","","17.8","","94","","11","","18","","9.7","","98.69","","","","","","Rain Showers,Fog"
"2014-08-12 03:00","2014","08","12","03:00","19.0","","18.0","","94","","13","","17","","9.7","","98.63","","","","","","Rain Showers,Fog"
"2014-08-12 04:00","2014","08","12","04:00","19.1","","18.1","","94","","15","","19","","9.7","","98.56","","","","","","Rain Showers,Fog"
"2014-08-12 05:00","2014","08","12","05:00","19.3","","18.3","","94","","16","","16","","9.7","","98.52","","","","","","Drizzle,Fog"
"2014-08-12 06:00","2014","08","12","06:00","19.5","","18.7","","95","","18","","18","","9.7","","98.53","","","","","","Rain,Fog"
"2014-08-12 07:00","2014","08","12","07:00","20.4","","19.1","","92","","17","","20","","16.1","","98.54","","27","","","","Cloudy"
"2014-08-12 08:00","2014","08","12","08:00","21.8","","19.8","","88","","18","","16","","24.1","","98.58","","29","","","","NA"
"2014-08-12 09:00","2014","08","12","09:00","23.3","","19.1","","77","","20","","17","","24.1","","98.58","","30","","","","NA"
"2014-08-12 10:00","2014","08","12","10:00","23.8","","18.1","","70","","22","","23","","24.1","","98.58","","30","","","","Mostly Cloudy"
"2014-08-12 11:00","2014","08","12","11:00","25.0","","18.8","","68","","16","","18","","24.1","","98.57","","32","","","","NA"
"2014-08-12 12:00","2014","08","12","12:00","24.9","","18.5","","67","","17","","22","","24.1","","98.58","","31","","","","NA"
"2014-08-12 13:00","2014","08","12","13:00","23.2","","20.0","","82","","18","","18","","19.3","","98.55","","31","","","","Moderate Rain Showers"
"2014-08-12 14:00","2014","08","12","14:00","24.0","","19.4","","75","","17","","18","","19.3","","98.50","","31","","","","Rain Showers"
"2014-08-12 15:00","2014","08","12","15:00","23.6","","20.0","","80","","16","","18","","19.3","","98.44","","31","","","","Rain Showers"
"2014-08-12 16:00","2014","08","12","16:00","23.5","","19.5","","78","","16","","16","","24.1","","98.46","","31","","","","Rain Showers"
"2014-08-12 17:00","2014","08","12","17:00","24.6","","19.8","","74","","18","","17","","24.1","","98.52","","32","","","","NA"
"2014-08-12 18:00","2014","08","12","18:00","23.5","","19.1","","76","","18","","18","","24.1","","98.47","","30","","","","NA"
"2014-08-12 19:00","2014","08","12","19:00","22.0","","19.2","","84","","17","","18","","24.1","","98.46","","29","","","","Mostly Cloudy"
"2014-08-12 20:00","2014","08","12","20:00","21.1","","18.5","","85","","18","","15","","19.3","","98.51","","27","","","","NA"
"2014-08-12 21:00","2014","08","12","21:00","20.6","","18.4","","87","","18","","11","","24.1","","98.53","","27","","","","NA"
"2014-08-12 22:00","2014","08","12","22:00","20.0","","18.0","","88","","22","","16","","24.1","","98.54","","26","","","","Mostly Cloudy"
"2014-08-12 23:00","2014","08","12","23:00","18.8","","16.4","","86","","26","","19","","24.1","","98.57","","","","","","NA"
"2014-08-13 00:00","2014","08","13","00:00","18.2","","14.9","","81","","30","","17","","24.1","","98.60","","","","","","NA"
"2014-08-13 01:00","2014","08","13","01:00","17.5","","14.4","","82","","29","","14","","24.1","","98.57","","","","","","Mainly Clear"
"2014-08-13 02:00","2014","08","13","02:00","16.7","","14.0","","84","","27","","14","","24.1","","98.60","","","","","","NA"
"2014-08-13 03:00","2014","08","13","03:00","16.9","","14.4","","85","","26","","15","","24.1","","98.62","","","","","","NA"
"2014-08-13 04:00","2014","08","13","04:00","16.7","","14.4","","86","","25","","11","","24.1","","98.62","","","","","","Rain Showers"
"2014-08-13 05:00","2014","08","13","05:00","17.2","","13.8","","80","","26","","14","","24.1","","98.64","","","","","","NA"
"2014-08-13 06:00","2014","08","13","06:00","16.9","","13.7","","81","","26","","17","","24.1","","98.68","","","","","","NA"
"2014-08-13 07:00","2014","08","13","07:00","17.6","","14.0","","79","","26","","16","","24.1","","98.74","","","","","","Mostly Cloudy"
"2014-08-13 08:00","2014","08","13","08:00","19.2","","14.3","","73","","27","","18","","24.1","","98.75","","","","","","NA"
"2014-08-13 09:00","2014","08","13","09:00","19.9","","14.4","","70","","27","","28","","24.1","","98.74","","","","","","NA"
"2014-08-13 10:00","2014","08","13","10:00","20.0","","13.8","","67","","28","","28","","24.1","","98.78","","","","","","Mostly Cloudy"
"2014-08-13 11:00","2014","08","13","11:00","21.2","","13.5","","61","","28","","34","","24.1","","98.80","","","","","","NA"
"2014-08-13 12:00","2014","08","13","12:00","21.6","","13.1","","58","","27","","38","","24.1","","98.80","","","","","","NA"
"2014-08-13 13:00","2014","08","13","13:00","20.4","","13.9","","66","","28","","31","","24.1","","98.85","","","","","","Mostly Cloudy"
"2014-08-13 14:00","2014","08","13","14:00","20.0","","12.8","","63","","26","","35","","24.1","","98.88","","","","","","NA"
"2014-08-13 15:00","2014","08","13","15:00","20.0","","12.6","","62","","29","","33","","24.1","","98.90","","","","","","NA"
"2014-08-13 16:00","2014","08","13","16:00","19.5","","11.4","","59","","29","","36","","24.1","","98.96","","","","","","Mostly Cloudy"
"2014-08-13 17:00","2014","08","13","17:00","18.1","","11.3","","64","","29","","41","","24.1","","99.03","","","","","","NA"
"2014-08-13 18:00","2014","08","13","18:00","17.7","","10.2","","61","","32","","39","","24.1","","99.09","","","","","","NA"
"2014-08-13 19:00","2014","08","13","19:00","16.4","","8.2","","58","","33","","32","","24.1","","99.13","","","","","","Mainly Clear"
"2014-08-13 20:00","2014","08","13","20:00","15.6","","8.9","","64","","30","","13","","24.1","","99.17","","","","","","NA"
"2014-08-13 21:00","2014","08","13","21:00","14.4","","9.5","","72","","26","","13","","24.1","","99.16","","","","","","NA"
"2014-08-13 22:00","2014","08","13","22:00","13.7","","10.0","","78","","27","","13","","24.1","","99.13","","","","","","Clear"
"2014-08-13 23:00","2014","08","13","23:00","13.9","","10.2","","78","","27","","21","","24.1","","99.12","","","","","","NA"
"2014-08-14 00:00","2014","08","14","00:00","13.7","","10.4","","80","","28","","20","","24.1","","99.13","","","","","","NA"
"2014-08-14 01:00","2014","08","14","01:00","13.4","","10.4","","82","","32","","16","","24.1","","99.12","","","","","","Mainly Clear"
"2014-08-14 02:00","2014","08","14","02:00","13.0","","9.9","","81","","32","","17","","24.1","","99.14","","","","","","NA"
"2014-08-14 03:00","2014","08","14","03:00","12.9","","9.6","","80","","30","","9","","24.1","","99.13","","","","","","NA"
"2014-08-14 04:00","2014","08","14","04:00","12.0","","9.9","","87","","26","","13","","24.1","","99.11","","","","","","Mostly Cloudy"
"2014-08-14 05:00","2014","08","14","05:00","13.1","","9.6","","79","","30","","15","","24.1","","99.12","","","","","","NA"
"2014-08-14 06:00","2014","08","14","06:00","12.7","","9.9","","83","","28","","12","","24.1","","99.13","","","","","","NA"
"2014-08-14 07:00","2014","08","14","07:00","14.1","","9.8","","75","","29","","18","","24.1","","99.14","","","","","","Clear"
"2014-08-14 08:00","2014","08","14","08:00","14.9","","8.0","","63","","30","","26","","24.1","","99.13","","","","","","NA"
"2014-08-14 09:00","2014","08","14","09:00","15.4","","7.8","","60","","31","","32","","24.1","","99.12","","","","","","NA"
"2014-08-14 10:00","2014","08","14","10:00","16.7","","8.0","","56","","31","","34","","24.1","","99.10","","","","","","Mostly Cloudy"
"2014-08-14 11:00","2014","08","14","11:00","17.4","","7.0","","50","","29","","38","","24.1","","99.10","","","","","","NA"
"2014-08-14 12:00","2014","08","14","12:00","17.0","","6.9","","51","","28","","35","","24.1","","99.08","","","","","","NA"
"2014-08-14 13:00","2014","08","14","13:00","16.3","","6.5","","52","","28","","35","","24.1","","99.07","","","","","","Mostly Cloudy"
"2014-08-14 14:00","2014","08","14","14:00","16.7","","6.3","","50","","27","","32","","24.1","","99.07","","","","","","NA"
"2014-08-14 15:00","2014","08","14","15:00","16.4","","5.2","","47","","32","","34","","24.1","","99.10","","","","","","NA"
"2014-08-14 16:00","2014","08","14","16:00","15.2","","6.6","","56","","29","","32","","24.1","","99.18","","","","","","Cloudy"
"2014-08-14 17:00","2014","08","14","17:00","14.3","","7.0","","61","","30","","32","","24.1","","99.21","","","","","","NA"
"2014-08-14 18:00","2014","08","14","18:00","14.0","","7.6","","65","","31","","23","","24.1","","99.22","","","","","","NA"
"2014-08-14 19:00","2014","08","14","19:00","13.8","","7.6","","66","","29","","26","","24.1","","99.23","","","","","","Cloudy"
"2014-08-14 20:00","2014","08","14","20:00","13.5","","7.8","","68","","28","","23","","24.1","","99.23","","","","","","NA"
"2014-08-14 21:00","2014","08","14","21:00","13.4","","7.9","","69","","28","","23","","24.1","","99.25","","","","","","Rain Showers"
"2014-08-14 22:00","2014","08","14","22:00","12.9","","7.8","","71","","30","","22","","24.1","","99.23","","","","","","Rain Showers"
"2014-08-14 23:00","2014","08","14","23:00","12.9","","8.0","","72","","28","","20","","24.1","","99.22","","","","","","NA"
"2014-08-15 00:00","2014","08","15","00:00","13.4","","8.3","","71","","33","","25","","24.1","","99.23","","","","","","NA"
"2014-08-15 01:00","2014","08","15","01:00","12.9","","8.4","","74","","28","","15","","24.1","","99.20","","","","","","Cloudy"
"2014-08-15 02:00","2014","08","15","02:00","12.8","","8.7","","76","","28","","16","","24.1","","99.20","","","","","","NA"
"2014-08-15 03:00","2014","08","15","03:00","12.5","","8.4","","76","","26","","17","","24.1","","99.18","","","","","","NA"
"2014-08-15 04:00","2014","08","15","04:00","12.4","","9.1","","80","","25","","12","","24.1","","99.20","","","","","","Mostly Cloudy"
"2014-08-15 05:00","2014","08","15","05:00","12.6","","9.1","","79","","27","","20","","24.1","","99.21","","","","","","NA"
"2014-08-15 06:00","2014","08","15","06:00","13.2","","9.1","","76","","27","","22","","24.1","","99.21","","","","","","NA"
"2014-08-15 07:00","2014","08","15","07:00","13.8","","9.3","","74","","26","","27","","24.1","","99.21","","","","","","Mostly Cloudy"
"2014-08-15 08:00","2014","08","15","08:00","15.0","","10.1","","72","","28","","22","","24.1","","99.24","","","","","","NA"
"2014-08-15 09:00","2014","08","15","09:00","16.6","","10.3","","66","","27","","20","","24.1","","99.27","","","","","","NA"
"2014-08-15 10:00","2014","08","15","10:00","18.8","","10.5","","58","","27","","21","","24.1","","99.28","","","","","","Mostly Cloudy"
"2014-08-15 11:00","2014","08","15","11:00","20.2","","9.6","","50","","29","","21","","24.1","","99.27","","","","","","NA"
"2014-08-15 12:00","2014","08","15","12:00","20.3","","9.1","","48","","30","","27","","24.1","","99.24","","","","","","NA"
"2014-08-15 13:00","2014","08","15","13:00","21.8","","8.5","","42","","31","","28","","24.1","","99.23","","","","","","Mostly Cloudy"
"2014-08-15 14:00","2014","08","15","14:00","21.9","","8.6","","42","","30","","26","","24.1","","99.20","","","","","","NA"
"2014-08-15 15:00","2014","08","15","15:00","22.7","","7.8","","38","","28","","27","","24.1","","99.19","","","","","","NA"
"2014-08-15 16:00","2014","08","15","16:00","22.0","","7.6","","39","","28","","29","","24.1","","99.18","","","","","","Mostly Cloudy"
"2014-08-15 17:00","2014","08","15","17:00","20.7","","7.1","","41","","28","","31","","24.1","","99.19","","","","","","NA"
"2014-08-15 18:00","2014","08","15","18:00","20.7","","7.5","","42","","28","","27","","24.1","","99.23","","","","","","NA"
"2014-08-15 19:00","2014","08","15","19:00","19.2","","7.1","","45","","29","","27","","24.1","","99.25","","","","","","Mainly Clear"
"2014-08-15 20:00","2014","08","15","20:00","17.8","","7.6","","51","","27","","17","","24.1","","99.28","","","","","","NA"
"2014-08-15 21:00","2014","08","15","21:00","14.9","","8.2","","64","","25","","14","","24.1","","99.30","","","","","","NA"
"2014-08-15 22:00","2014","08","15","22:00","14.6","","7.9","","64","","24","","15","","24.1","","99.27","","","","","","Mainly Clear"
"2014-08-15 23:00","2014","08","15","23:00","14.2","","8.4","","68","","23","","9","","24.1","","99.25","","","","","","NA"
"2014-08-16 00:00","2014","08","16","00:00","13.6","","8.7","","72","","24","","14","","24.1","","99.23","","","","","","NA"
"2014-08-16 01:00","2014","08","16","01:00","12.9","","8.6","","75","","24","","12","","24.1","","99.23","","","","","","Mainly Clear"
"2014-08-16 02:00","2014","08","16","02:00","13.6","","8.5","","71","","24","","13","","24.1","","99.17","","","","","","NA"
"2014-08-16 03:00","2014","08","16","03:00","13.9","","8.8","","71","","25","","14","","24.1","","99.14","","","","","","NA"
"2014-08-16 04:00","2014","08","16","04:00","13.5","","9.0","","74","","25","","13","","24.1","","99.15","","","","","","Mainly Clear"
"2014-08-16 05:00","2014","08","16","05:00","13.7","","10.0","","78","","26","","14","","24.1","","99.10","","","","","","NA"
"2014-08-16 06:00","2014","08","16","06:00","13.3","","10.0","","80","","26","","7","","24.1","","99.12","","","","","","NA"
"2014-08-16 07:00","2014","08","16","07:00","14.7","","10.6","","76","","18","","8","","24.1","","99.12","","","","","","Mostly Cloudy"
"2014-08-16 08:00","2014","08","16","08:00","17.7","","11.6","","67","","24","","19","","24.1","","99.11","","","","","","NA"
"2014-08-16 09:00","2014","08","16","09:00","19.6","","11.0","","57","","25","","24","","24.1","","99.06","","","","","","NA"
"2014-08-16 10:00","2014","08","16","10:00","19.2","","10.6","","57","","21","","27","","24.1","","99.03","","","","","","Cloudy"
"2014-08-16 11:00","2014","08","16","11:00","19.1","","11.3","","60","","20","","28","","24.1","","98.97","","","","","","NA"
"2014-08-16 12:00","2014","08","16","12:00","19.6","","12.2","","62","","22","","21","","24.1","","98.96","","","","","","NA"
"2014-08-16 13:00","2014","08","16","13:00","19.8","","13.1","","65","","23","","23","","24.1","","98.89","","","","","","Cloudy"
"2014-08-16 14:00","2014","08","16","14:00","19.9","","13.7","","67","","23","","31","","24.1","","98.86","","","","","","Rain"
"2014-08-16 15:00","2014","08","16","15:00","19.6","","15.1","","75","","24","","24","","19.3","","98.83","","","","","","Rain"
"2014-08-16 16:00","2014","08","16","16:00","19.8","","15.5","","76","","24","","33","","24.1","","98.83","","","","","","Rain"
"2014-08-16 17:00","2014","08","16","17:00","19.7","","15.6","","77","","25","","30","","24.1","","98.84","","","","","","NA"
"2014-08-16 18:00","2014","08","16","18:00","19.4","","16.3","","82","","24","","22","","24.1","","98.85","","","","","","NA"
"2014-08-16 19:00","2014","08","16","19:00","19.3","","16.2","","82","","25","","23","","24.1","","98.90","","","","","","Rain Showers"
"2014-08-16 20:00","2014","08","16","20:00","18.9","","15.8","","82","","25","","23","","24.1","","98.93","","","","","","NA"
"2014-08-16 21:00","2014","08","16","21:00","18.8","","16.1","","84","","29","","18","","24.1","","99.00","","","","","","NA"
"2014-08-16 22:00","2014","08","16","22:00","18.1","","15.0","","82","","35","","22","","24.1","","99.03","","","","","","Mostly Cloudy"
"2014-08-16 23:00","2014","08","16","23:00","16.7","","14.6","","87","","33","","21","","24.1","","98.99","","","","","","NA"
"2014-08-17 00:00","2014","08","17","00:00","16.2","","14.2","","88","","33","","23","","19.3","","99.01","","","","","","NA"
"2014-08-17 01:00","2014","08","17","01:00","15.9","","14.1","","89","","34","","14","","19.3","","99.08","","","","","","Mostly Cloudy"
"2014-08-17 02:00","2014","08","17","02:00","16.0","","13.9","","87","","33","","11","","19.3","","99.14","","","","","","NA"
"2014-08-17 03:00","2014","08","17","03:00","15.8","","13.7","","87","","34","","18","","19.3","","99.21","","","","","","NA"
"2014-08-17 04:00","2014","08","17","04:00","15.3","","13.5","","89","","34","","19","","19.3","","99.24","","","","","","Mainly Clear"
"2014-08-17 05:00","2014","08","17","05:00","15.0","","13.6","","91","","34","","18","","24.1","","99.30","","","","","","NA"
"2014-08-17 06:00","2014","08","17","06:00","14.4","","12.8","","90","","31","","10","","24.1","","99.35","","","","","","NA"
"2014-08-17 07:00","2014","08","17","07:00","15.7","","13.2","","85","","35","","24","","24.1","","99.40","","","","","","Mainly Clear"
"2014-08-17 08:00","2014","08","17","08:00","16.2","","13.9","","86","","36","","22","","24.1","","99.48","","","","","","NA"
"2014-08-17 09:00","2014","08","17","09:00","18.7","","14.8","","78","","35","","14","","24.1","","99.49","","","","","","NA"
"2014-08-17 10:00","2014","08","17","10:00","19.2","","14.7","","75","","35","","11","","24.1","","99.51","","","","","","Mainly Clear"
"2014-08-17 11:00","2014","08","17","11:00","20.4","","14.4","","68","","33","","10","","24.1","","99.50","","","","","","NA"
"2014-08-17 12:00","2014","08","17","12:00","22.4","","14.9","","62","","34","","15","","24.1","","99.48","","26","","","","NA"
"2014-08-17 13:00","2014","08","17","13:00","22.3","","13.8","","58","","34","","18","","24.1","","99.46","","26","","","","Mostly Cloudy"
"2014-08-17 14:00","2014","08","17","14:00","22.9","","13.5","","55","","33","","13","","24.1","","99.43","","26","","","","NA"
"2014-08-17 15:00","2014","08","17","15:00","23.5","","15.2","","59","","1","","17","","24.1","","99.40","","28","","","","NA"
"2014-08-17 16:00","2014","08","17","16:00","22.6","","14.1","","58","","34","","19","","24.1","","99.40","","26","","","","Mostly Cloudy"
"2014-08-17 17:00","2014","08","17","17:00","22.6","","14.3","","59","","1","","18","","24.1","","99.38","","26","","","","NA"
"2014-08-17 18:00","2014","08","17","18:00","21.3","","13.6","","61","","1","","18","","24.1","","99.39","","","","","","NA"
"2014-08-17 19:00","2014","08","17","19:00","19.5","","12.6","","64","","36","","20","","24.1","","99.43","","","","","","Mainly Clear"
"2014-08-17 20:00","2014","08","17","20:00","17.7","","12.0","","69","","36","","23","","24.1","","99.50","","","","","","NA"
"2014-08-17 21:00","2014","08","17","21:00","16.4","","11.8","","74","","35","","16","","24.1","","99.54","","","","","","NA"
"2014-08-17 22:00","2014","08","17","22:00","15.4","","11.6","","78","","35","","14","","24.1","","99.55","","","","","","Mainly Clear"
"2014-08-17 23:00","2014","08","17","23:00","14.7","","12.2","","85","","36","","17","","24.1","","99.53","","","","","","NA"
"2014-08-18 00:00","2014","08","18","00:00","14.3","","12.4","","88","","34","","13","","24.1","","99.52","","","","","","NA"
"2014-08-18 01:00","2014","08","18","01:00","13.8","","12.0","","89","","35","","11","","24.1","","99.48","","","","","","Clear"
"2014-08-18 02:00","2014","08","18","02:00","13.0","","11.4","","90","","1","","9","","24.1","","99.45","","","","","","NA"
"2014-08-18 03:00","2014","08","18","03:00","13.0","","11.4","","90","","36","","14","","24.1","","99.45","","","","","","NA"
"2014-08-18 04:00","2014","08","18","04:00","12.5","","11.1","","91","","33","","5","","24.1","","99.45","","","","","","Clear"
"2014-08-18 05:00","2014","08","18","05:00","12.1","","10.7","","91","","35","","9","","24.1","","99.45","","","","","","NA"
"2014-08-18 06:00","2014","08","18","06:00","12.7","","11.1","","90","","35","","8","","24.1","","99.50","","","","","","NA"
"2014-08-18 07:00","2014","08","18","07:00","13.5","","11.9","","90","","36","","9","","24.1","","99.53","","","","","","Mostly Cloudy"
"2014-08-18 08:00","2014","08","18","08:00","15.2","","12.6","","84","","3","","9","","24.1","","99.51","","","","","","NA"
"2014-08-18 09:00","2014","08","18","09:00","17.7","","12.9","","73","","3","","9","","24.1","","99.50","","","","","","NA"
"2014-08-18 10:00","2014","08","18","10:00","19.1","","11.7","","62","","12","","7","","24.1","","99.45","","","","","","Mostly Cloudy"
"2014-08-18 11:00","2014","08","18","11:00","18.6","","12.4","","67","","13","","11","","24.1","","99.44","","","","","","NA"
"2014-08-18 12:00","2014","08","18","12:00","19.3","","13.3","","68","","13","","10","","24.1","","99.38","","","","","","NA"
"2014-08-18 13:00","2014","08","18","13:00","19.8","","12.9","","64","","14","","12","","24.1","","99.35","","","","","","Mostly Cloudy"
"2014-08-18 14:00","2014","08","18","14:00","19.8","","12.9","","64","","18","","17","","24.1","","99.31","","","","","","NA"
"2014-08-18 15:00","2014","08","18","15:00","20.0","","12.8","","63","","16","","12","","24.1","","99.27","","","","","","NA"
"2014-08-18 16:00","2014","08","18","16:00","19.9","","12.3","","61","","16","","13","","24.1","","99.23","","","","","","Mainly Clear"
"2014-08-18 17:00","2014","08","18","17:00","19.7","","11.8","","60","","16","","13","","24.1","","99.24","","","","","","NA"
"2014-08-18 18:00","2014","08","18","18:00","19.4","","11.3","","59","","14","","14","","24.1","","99.19","","","","","","NA"
"2014-08-18 19:00","2014","08","18","19:00","17.7","","10.9","","64","","15","","10","","24.1","","99.16","","","","","","Mainly Clear"
"2014-08-18 20:00","2014","08","18","20:00","16.9","","10.8","","67","","15","","8","","24.1","","99.19","","","","","","NA"
"2014-08-18 21:00","2014","08","18","21:00","16.3","","12.1","","76","","12","","7","","24.1","","99.19","","","","","","NA"
"2014-08-18 22:00","2014","08","18","22:00","16.1","","11.9","","76","","36","","2","","24.1","","99.22","","","","","","Clear"
"2014-08-18 23:00","2014","08","18","23:00","16.0","","11.8","","76","","11","","5","","24.1","","99.21","","","","","","NA"
"2014-08-19 00:00","2014","08","19","00:00","15.2","","11.2","","77","","5","","4","","24.1","","99.20","","","","","","NA"
"2014-08-19 01:00","2014","08","19","01:00","14.8","","11.4","","80","","5","","4","","24.1","","99.17","","","","","","Clear"
"2014-08-19 02:00","2014","08","19","02:00","14.1","","10.9","","81","","4","","7","","24.1","","99.12","","","","","","NA"
"2014-08-19 03:00","2014","08","19","03:00","12.9","","10.3","","84","","2","","7","","24.1","","99.11","","","","","","NA"
"2014-08-19 04:00","2014","08","19","04:00","12.2","","10.1","","87","","5","","7","","24.1","","99.13","","","","","","Clear"
"2014-08-19 05:00","2014","08","19","05:00","11.9","","10.2","","89","","5","","10","","24.1","","99.10","","","","","","NA"
"2014-08-19 06:00","2014","08","19","06:00","12.7","","10.6","","87","","4","","7","","24.1","","99.09","","","","","","NA"
"2014-08-19 07:00","2014","08","19","07:00","14.7","","11.5","","81","","1","","8","","19.3","","99.15","","","","","","Mainly Clear"
"2014-08-19 08:00","2014","08","19","08:00","16.8","","11.2","","69","","9","","10","","24.1","","99.11","","","","","","NA"
"2014-08-19 09:00","2014","08","19","09:00","18.7","","12.5","","67","","10","","7","","24.1","","99.15","","","","","","NA"
"2014-08-19 10:00","2014","08","19","10:00","20.2","","12.3","","60","","8","","11","","24.1","","99.16","","","","","","Mainly Clear"
"2014-08-19 11:00","2014","08","19","11:00","21.4","","13.4","","60","","8","","13","","24.1","","99.14","","","","","","NA"
"2014-08-19 12:00","2014","08","19","12:00","21.8","","14.3","","62","","12","","12","","24.1","","99.12","","25","","","","NA"
"2014-08-19 13:00","2014","08","19","13:00","22.1","","13.6","","58","","14","","14","","24.1","","99.13","","25","","","","Mainly Clear"
"2014-08-19 14:00","2014","08","19","14:00","22.1","","13.3","","57","","8","","18","","24.1","","99.08","","25","","","","NA"
"2014-08-19 15:00","2014","08","19","15:00","22.1","","11.9","","52","","11","","18","","24.1","","99.06","","","","","","NA"
"2014-08-19 16:00","2014","08","19","16:00","21.7","","12.1","","54","","9","","19","","24.1","","99.01","","","","","","Mainly Clear"
"2014-08-19 17:00","2014","08","19","17:00","20.0","","13.1","","64","","15","","13","","24.1","","99.06","","","","","","NA"
"2014-08-19 18:00","2014","08","19","18:00","20.0","","13.6","","66","","14","","9","","24.1","","99.06","","","","","","NA"
"2014-08-19 19:00","2014","08","19","19:00","19.1","","13.6","","70","","10","","9","","24.1","","99.04","","","","","","Mostly Cloudy"
"2014-08-19 20:00","2014","08","19","20:00","18.5","","13.4","","72","","8","","9","","24.1","","99.05","","","","","","NA"
"2014-08-19 21:00","2014","08","19","21:00","18.2","","13.4","","73","","10","","8","","24.1","","99.05","","","","","","NA"
"2014-08-19 22:00","2014","08","19","22:00","18.2","","13.8","","75","","10","","11","","24.1","","98.99","","","","","","Mostly Cloudy"
"2014-08-19 23:00","2014","08","19","23:00","19.2","","12.8","","66","","10","","12","","24.1","","98.98","","","","","","NA"
"2014-08-20 00:00","2014","08","20","00:00","18.1","","14.1","","77","","10","","10","","24.1","","99.01","","","","","","NA"
"2014-08-20 01:00","2014","08","20","01:00","18.0","","14.7","","81","","11","","4","","24.1","","98.96","","","","","","Cloudy"
"2014-08-20 02:00","2014","08","20","02:00","17.9","","15.0","","83","","5","","4","","24.1","","98.97","","","","","","NA"
"2014-08-20 03:00","2014","08","20","03:00","18.1","","15.2","","83","","6","","6","","24.1","","98.96","","","","","","NA"
"2014-08-20 04:00","2014","08","20","04:00","17.2","","14.9","","86","","4","","7","","24.1","","98.98","","","","","","Mostly Cloudy"
"2014-08-20 05:00","2014","08","20","05:00","17.7","","15.0","","84","","6","","9","","24.1","","99.03","","","","","","NA"
"2014-08-20 06:00","2014","08","20","06:00","17.7","","15.2","","85","","10","","5","","24.1","","99.06","","","","","","NA"
"2014-08-20 07:00","2014","08","20","07:00","18.1","","15.4","","84","","13","","7","","24.1","","99.11","","","","","","Cloudy"
"2014-08-20 08:00","2014","08","20","08:00","18.1","","15.8","","86","","15","","7","","24.1","","99.12","","","","","","NA"
"2014-08-20 09:00","2014","08","20","09:00","18.2","","16.9","","92","","14","","5","","16.1","","99.18","","","","","","Rain Showers"
"2014-08-20 10:00","2014","08","20","10:00","19.6","","18.3","","92","","16","","6","","24.1","","99.17","","","","","","Mostly Cloudy"
"2014-08-20 11:00","2014","08","20","11:00","21.5","","18.5","","83","","18","","10","","19.3","","99.19","","28","","","","NA"
"2014-08-20 12:00","2014","08","20","12:00","21.7","","18.4","","81","","15","","14","","19.3","","99.19","","28","","","","NA"
"2014-08-20 13:00","2014","08","20","13:00","23.5","","19.1","","76","","13","","12","","24.1","","99.19","","30","","","","Mostly Cloudy"
"2014-08-20 14:00","2014","08","20","14:00","23.4","","18.6","","74","","13","","15","","24.1","","99.17","","30","","","","NA"
"2014-08-20 15:00","2014","08","20","15:00","23.9","","18.4","","71","","14","","19","","24.1","","99.15","","30","","","","NA"
"2014-08-20 16:00","2014","08","20","16:00","23.8","","18.8","","73","","13","","14","","24.1","","99.19","","30","","","","Mostly Cloudy"
"2014-08-20 17:00","2014","08","20","17:00","22.3","","17.9","","76","","12","","20","","24.1","","99.21","","28","","","","NA"
"2014-08-20 18:00","2014","08","20","18:00","21.9","","17.3","","75","","12","","18","","24.1","","99.16","","27","","","","NA"
"2014-08-20 19:00","2014","08","20","19:00","21.6","","17.1","","75","","11","","21","","24.1","","99.17","","27","","","","Cloudy"
"2014-08-20 20:00","2014","08","20","20:00","20.2","","18.0","","87","","23","","9","","11.3","","99.23","","26","","","","Heavy Rain Showers"
"2014-08-20 21:00","2014","08","20","21:00","19.8","","18.5","","92","","13","","4","","16.1","","99.22","","","","","","NA"
"2014-08-20 22:00","2014","08","20","22:00","19.3","","18.2","","93","","17","","9","","16.1","","99.24","","","","","","Mostly Cloudy"
"2014-08-20 23:00","2014","08","20","23:00","18.9","","17.9","","94","","12","","7","","12.9","","99.26","","","","","","NA"
"2014-08-21 00:00","2014","08","21","00:00","18.9","","18.1","","95","","18","","5","","12.9","","99.30","","","","","","NA"
"2014-08-21 01:00","2014","08","21","01:00","18.8","","18.0","","95","","36","","2","","12.9","","99.25","","","","","","Cloudy"
"2014-08-21 02:00","2014","08","21","02:00","19.1","","18.1","","94","","36","","2","","12.9","","99.24","","","","","","NA"
"2014-08-21 03:00","2014","08","21","03:00","19.3","","18.3","","94","","36","","2","","12.9","","99.24","","","","","","NA"
"2014-08-21 04:00","2014","08","21","04:00","19.3","","18.3","","94","","15","","4","","12.9","","99.25","","","","","","Cloudy"
"2014-08-21 05:00","2014","08","21","05:00","19.1","","18.1","","94","","16","","5","","12.9","","99.29","","","","","","NA"
"2014-08-21 06:00","2014","08","21","06:00","18.3","","17.7","","96","","20","","4","","1.0","","99.34","","","","","","Fog"
"2014-08-21 07:00","2014","08","21","07:00","19.3","","18.2","","93","","36","","3","","9.7","","99.38","","","","","","Fog"
"2014-08-21 08:00","2014","08","21","08:00","21.4","","18.3","","82","","22","","4","","16.1","","99.38","","28","","","","NA"
"2014-08-21 09:00","2014","08","21","09:00","21.7","","18.7","","83","","25","","10","","24.1","","99.38","","28","","","","NA"
"2014-08-21 10:00","2014","08","21","10:00","23.7","","18.5","","72","","22","","8","","24.1","","99.38","","30","","","","Mostly Cloudy"
"2014-08-21 11:00","2014","08","21","11:00","23.7","","17.6","","68","","22","","7","","24.1","","99.38","","29","","","","NA"
"2014-08-21 12:00","2014","08","21","12:00","23.9","","17.7","","68","","34","","15","","24.1","","99.36","","30","","","","NA"
"2014-08-21 13:00","2014","08","21","13:00","23.4","","18.6","","74","","1","","9","","24.1","","99.36","","30","","","","Mostly Cloudy"
"2014-08-21 14:00","2014","08","21","14:00","24.6","","18.2","","67","","5","","5","","24.1","","99.32","","31","","","","NA"
"2014-08-21 15:00","2014","08","21","15:00","25.7","","17.8","","61","","4","","4","","24.1","","99.30","","32","","","","NA"
"2014-08-21 16:00","2014","08","21","16:00","25.7","","18.0","","62","","28","","10","","24.1","","99.31","","32","","","","Mostly Cloudy"
"2014-08-21 17:00","2014","08","21","17:00","25.6","","17.7","","61","","29","","16","","24.1","","99.33","","31","","","","NA"
"2014-08-21 18:00","2014","08","21","18:00","25.9","","17.4","","59","","31","","18","","24.1","","99.34","","31","","","","NA"
"2014-08-21 19:00","2014","08","21","19:00","23.5","","18.3","","72","","2","","17","","24.1","","99.38","","30","","","","Mostly Cloudy"
"2014-08-21 20:00","2014","08","21","20:00","22.6","","18.0","","75","","1","","17","","24.1","","99.41","","29","","","","NA"
"2014-08-21 21:00","2014","08","21","21:00","21.4","","17.9","","80","","1","","12","","24.1","","99.44","","27","","","","NA"
"2014-08-21 22:00","2014","08","21","22:00","20.3","","17.7","","85","","35","","17","","24.1","","99.48","","26","","","","Mainly Clear"
"2014-08-21 23:00","2014","08","21","23:00","19.0","","17.4","","90","","36","","15","","24.1","","99.47","","","","","","NA"
"2014-08-22 00:00","2014","08","22","00:00","18.5","","16.9","","90","","35","","16","","24.1","","99.49","","","","","","NA"
"2014-08-22 01:00","2014","08","22","01:00","18.0","","16.7","","92","","1","","14","","24.1","","99.47","","","","","","Mostly Cloudy"
"2014-08-22 02:00","2014","08","22","02:00","18.1","","16.8","","92","","32","","13","","19.3","","99.49","","","","","","NA"
"2014-08-22 03:00","2014","08","22","03:00","17.9","","16.8","","93","","36","","12","","19.3","","99.46","","","","","","NA"
"2014-08-22 04:00","2014","08","22","04:00","17.7","","16.7","","94","","36","","14","","19.3","","99.42","","","","","","Mostly Cloudy"
"2014-08-22 05:00","2014","08","22","05:00","17.3","","16.5","","95","","1","","13","","9.7","","99.44","","","","","","Fog"
"2014-08-22 06:00","2014","08","22","06:00","16.9","","16.1","","95","","1","","15","","3.2","","99.49","","","","","","Fog"
"2014-08-22 07:00","2014","08","22","07:00","17.0","","16.2","","95","","35","","7","","8.1","","99.54","","","","","","Fog"
"2014-08-22 08:00","2014","08","22","08:00","17.4","","16.1","","92","","1","","9","","12.9","","99.58","","","","","","NA"
"2014-08-22 09:00","2014","08","22","09:00","19.0","","16.6","","86","","34","","9","","24.1","","99.59","","","","","","NA"
"2014-08-22 10:00","2014","08","22","10:00","21.3","","17.8","","80","","1","","4","","24.1","","99.57","","27","","","","Mostly Cloudy"
"2014-08-22 11:00","2014","08","22","11:00","22.0","","18.3","","79","","36","","1","","24.1","","99.54","","28","","","","NA"
"2014-08-22 12:00","2014","08","22","12:00","22.5","","17.9","","75","","12","","11","","24.1","","99.52","","28","","","","NA"
"2014-08-22 13:00","2014","08","22","13:00","24.3","","18.4","","69","","7","","8","","24.1","","99.52","","31","","","","Mostly Cloudy"
"2014-08-22 14:00","2014","08","22","14:00","23.0","","18.0","","73","","13","","13","","24.1","","99.51","","29","","","","NA"
"2014-08-22 15:00","2014","08","22","15:00","24.4","","18.2","","68","","17","","9","","24.1","","99.49","","31","","","","NA"
"2014-08-22 16:00","2014","08","22","16:00","24.7","","17.8","","65","","11","","9","","24.1","","99.45","","31","","","","Mainly Clear"
"2014-08-22 17:00","2014","08","22","17:00","24.4","","17.5","","65","","14","","12","","24.1","","99.45","","30","","","","NA"
"2014-08-22 18:00","2014","08","22","18:00","22.7","","17.3","","71","","13","","13","","24.1","","99.47","","28","","","","NA"
"2014-08-22 19:00","2014","08","22","19:00","21.4","","17.5","","78","","15","","12","","24.1","","99.52","","27","","","","Mainly Clear"
"2014-08-22 20:00","2014","08","22","20:00","20.5","","17.8","","84","","13","","8","","24.1","","99.59","","26","","","","NA"
"2014-08-22 21:00","2014","08","22","21:00","20.6","","17.7","","83","","8","","8","","24.1","","99.62","","26","","","","NA"
"2014-08-22 22:00","2014","08","22","22:00","20.9","","18.0","","83","","9","","8","","24.1","","99.62","","27","","","","Mostly Cloudy"
"2014-08-22 23:00","2014","08","22","23:00","20.8","","17.7","","82","","9","","9","","24.1","","99.62","","27","","","","NA"
"2014-08-23 00:00","2014","08","23","00:00","20.7","","17.8","","83","","4","","10","","16.1","","99.65","","27","","","","NA"
"2014-08-23 01:00","2014","08","23","01:00","20.8","","18.2","","85","","5","","8","","16.1","","99.66","","27","","","","Cloudy"
"2014-08-23 02:00","2014","08","23","02:00","20.2","","18.7","","91","","3","","10","","16.1","","99.61","","27","","","","NA"
"2014-08-23 03:00","2014","08","23","03:00","20.4","","18.9","","91","","4","","8","","16.1","","99.61","","27","","","","NA"
"2014-08-23 04:00","2014","08","23","04:00","20.2","","18.0","","87","","6","","12","","16.1","","99.63","","26","","","","Cloudy"
"2014-08-23 05:00","2014","08","23","05:00","20.1","","17.9","","87","","7","","9","","16.1","","99.66","","26","","","","NA"
"2014-08-23 06:00","2014","08","23","06:00","19.9","","17.9","","88","","10","","10","","16.1","","99.73","","","","","","NA"
"2014-08-23 07:00","2014","08","23","07:00","19.7","","17.7","","88","","6","","10","","16.1","","99.78","","","","","","Cloudy"
"2014-08-23 08:00","2014","08","23","08:00","19.5","","17.5","","88","","8","","13","","16.1","","99.77","","","","","","NA"
"2014-08-23 09:00","2014","08","23","09:00","19.8","","17.6","","87","","8","","11","","24.1","","99.78","","","","","","NA"
"2014-08-23 10:00","2014","08","23","10:00","19.8","","17.3","","85","","9","","13","","24.1","","99.82","","","","","","Cloudy"
"2014-08-23 11:00","2014","08","23","11:00","20.5","","17.6","","83","","9","","16","","24.1","","99.83","","26","","","","NA"
"2014-08-23 12:00","2014","08","23","12:00","21.1","","18.0","","82","","10","","11","","24.1","","99.84","","27","","","","NA"
"2014-08-23 13:00","2014","08","23","13:00","21.1","","17.8","","81","","10","","14","","24.1","","99.88","","27","","","","Cloudy"
"2014-08-23 14:00","2014","08","23","14:00","21.8","","17.7","","77","","10","","16","","24.1","","99.89","","28","","","","NA"
"2014-08-23 15:00","2014","08","23","15:00","21.6","","17.5","","77","","7","","11","","24.1","","99.89","","27","","","","NA"
"2014-08-23 16:00","2014","08","23","16:00","21.4","","17.7","","79","","8","","14","","24.1","","99.89","","27","","","","Mostly Cloudy"
"2014-08-23 17:00","2014","08","23","17:00","22.0","","17.4","","75","","8","","16","","24.1","","99.88","","28","","","","NA"
"2014-08-23 18:00","2014","08","23","18:00","21.3","","17.2","","77","","8","","18","","24.1","","99.88","","27","","","","NA"
"2014-08-23 19:00","2014","08","23","19:00","20.3","","17.0","","81","","8","","13","","24.1","","99.87","","26","","","","Mainly Clear"
"2014-08-23 20:00","2014","08","23","20:00","19.7","","16.4","","81","","8","","13","","24.1","","99.92","","","","","","NA"
"2014-08-23 21:00","2014","08","23","21:00","19.5","","16.0","","80","","7","","8","","24.1","","99.94","","","","","","NA"
"2014-08-23 22:00","2014","08","23","22:00","19.1","","16.2","","83","","6","","11","","24.1","","99.95","","","","","","Clear"
"2014-08-23 23:00","2014","08","23","23:00","19.1","","16.4","","84","","8","","10","","24.1","","99.97","","","","","","NA"
"2014-08-24 00:00","2014","08","24","00:00","18.7","","16.5","","87","","8","","12","","24.1","","99.98","","","","","","NA"
"2014-08-24 01:00","2014","08","24","01:00","18.4","","16.6","","89","","7","","8","","24.1","","100.00","","","","","","Clear"
"2014-08-24 02:00","2014","08","24","02:00","18.2","","16.6","","90","","8","","11","","24.1","","99.99","","","","","","NA"
"2014-08-24 03:00","2014","08","24","03:00","17.9","","16.6","","92","","7","","10","","16.1","","99.98","","","","","","NA"
"2014-08-24 04:00","2014","08","24","04:00","17.8","","16.7","","93","","7","","10","","16.1","","99.98","","","","","","Mostly Cloudy"
"2014-08-24 05:00","2014","08","24","05:00","18.0","","16.7","","92","","6","","11","","16.1","","100.02","","","","","","NA"
"2014-08-24 06:00","2014","08","24","06:00","17.9","","16.6","","92","","7","","9","","14.5","","100.08","","","","","","NA"
"2014-08-24 07:00","2014","08","24","07:00","18.4","","16.9","","91","","8","","12","","19.3","","100.14","","","","","","Cloudy"
"2014-08-24 08:00","2014","08","24","08:00","19.5","","17.0","","85","","9","","13","","24.1","","100.13","","","","","","NA"
"2014-08-24 09:00","2014","08","24","09:00","20.7","","17.0","","79","","9","","14","","24.1","","100.12","","26","","","","NA"
"2014-08-24 10:00","2014","08","24","10:00","21.7","","16.7","","73","","11","","21","","24.1","","100.17","","27","","","","Mostly Cloudy"
"2014-08-24 11:00","2014","08","24","11:00","22.8","","16.7","","68","","12","","17","","24.1","","100.18","","28","","","","NA"
"2014-08-24 12:00","2014","08","24","12:00","24.3","","15.9","","59","","13","","14","","24.1","","100.14","","29","","","","NA"
"2014-08-24 13:00","2014","08","24","13:00","24.0","","15.4","","58","","12","","18","","24.1","","100.12","","28","","","","Mainly Clear"
"2014-08-24 14:00","2014","08","24","14:00","24.5","","15.8","","58","","10","","16","","24.1","","100.06","","29","","","","NA"
"2014-08-24 15:00","2014","08","24","15:00","24.9","","16.5","","59","","15","","17","","24.1","","100.02","","30","","","","NA"
"2014-08-24 16:00","2014","08","24","16:00","24.6","","15.4","","56","","10","","13","","24.1","","100.00","","29","","","","Mostly Cloudy"
"2014-08-24 17:00","2014","08","24","17:00","24.1","","14.7","","55","","12","","12","","24.1","","100.01","","28","","","","NA"
"2014-08-24 18:00","2014","08","24","18:00","23.3","","14.4","","57","","8","","11","","24.1","","100.01","","27","","","","NA"
"2014-08-24 19:00","2014","08","24","19:00","22.0","","11.8","","52","","9","","12","","24.1","","100.01","","","","","","Mostly Cloudy"
"2014-08-24 20:00","2014","08","24","20:00","21.2","","11.7","","54","","9","","7","","24.1","","100.03","","","","","","NA"
"2014-08-24 21:00","2014","08","24","21:00","20.4","","12.0","","58","","8","","9","","24.1","","100.05","","","","","","NA"
"2014-08-24 22:00","2014","08","24","22:00","19.7","","12.6","","63","","10","","8","","24.1","","100.04","","","","","","Mostly Cloudy"
"2014-08-24 23:00","2014","08","24","23:00","19.5","","12.8","","65","","36","","3","","24.1","","100.05","","","","","","NA"
"2014-08-25 00:00","2014","08","25","00:00","19.0","","13.7","","71","","7","","4","","24.1","","100.04","","","","","","NA"
"2014-08-25 01:00","2014","08","25","01:00","18.8","","14.7","","77","","5","","7","","24.1","","100.03","","","","","","Mostly Cloudy"
"2014-08-25 02:00","2014","08","25","02:00","18.2","","14.2","","77","","3","","5","","24.1","","99.99","","","","","","NA"
"2014-08-25 03:00","2014","08","25","03:00","18.2","","14.9","","81","","6","","3","","24.1","","99.98","","","","","","NA"
"2014-08-25 04:00","2014","08","25","04:00","17.7","","15.2","","85","","11","","9","","24.1","","99.96","","","","","","Mainly Clear"
"2014-08-25 05:00","2014","08","25","05:00","16.5","","14.0","","85","","36","","5","","24.1","","100.02","","","","","","NA"
"2014-08-25 06:00","2014","08","25","06:00","16.9","","14.4","","85","","5","","4","","24.1","","100.08","","","","","","NA"
"2014-08-25 07:00","2014","08","25","07:00","17.8","","15.3","","85","","2","","5","","24.1","","100.13","","","","","","Mostly Cloudy"
"2014-08-25 08:00","2014","08","25","08:00","20.0","","16.9","","82","","13","","5","","24.1","","100.13","","25","","","","NA"
"2014-08-25 09:00","2014","08","25","09:00","22.1","","16.9","","72","","18","","10","","24.1","","100.13","","27","","","","NA"
"2014-08-25 10:00","2014","08","25","10:00","23.5","","16.7","","65","","18","","17","","24.1","","100.10","","29","","","","Mainly Clear"
"2014-08-25 11:00","2014","08","25","11:00","24.9","","17.5","","63","","15","","18","","24.1","","100.05","","31","","","","NA"
"2014-08-25 12:00","2014","08","25","12:00","24.9","","16.2","","58","","18","","15","","24.1","","100.02","","30","","","","NA"
"2014-08-25 13:00","2014","08","25","13:00","26.3","","13.6","","45","","18","","22","","24.1","","99.99","","29","","","","Mainly Clear"
"2014-08-25 14:00","2014","08","25","14:00","26.7","","15.0","","48","","17","","12","","24.1","","99.96","","31","","","","NA"
"2014-08-25 15:00","2014","08","25","15:00","26.8","","14.1","","45","","18","","16","","24.1","","99.94","","30","","","","NA"
"2014-08-25 16:00","2014","08","25","16:00","27.0","","15.3","","48","","16","","13","","24.1","","99.88","","31","","","","Mainly Clear"
"2014-08-25 17:00","2014","08","25","17:00","25.1","","15.6","","55","","14","","16","","24.1","","99.87","","29","","","","NA"
"2014-08-25 18:00","2014","08","25","18:00","23.3","","15.7","","62","","14","","16","","24.1","","99.83","","28","","","","NA"
"2014-08-25 19:00","2014","08","25","19:00","21.8","","15.5","","67","","13","","14","","24.1","","99.81","","26","","","","Mainly Clear"
"2014-08-25 20:00","2014","08","25","20:00","21.0","","15.8","","72","","13","","11","","24.1","","99.84","","25","","","","NA"
"2014-08-25 21:00","2014","08","25","21:00","20.7","","15.8","","73","","13","","9","","24.1","","99.82","","25","","","","NA"
"2014-08-25 22:00","2014","08","25","22:00","20.6","","15.9","","74","","14","","5","","24.1","","99.83","","25","","","","Mainly Clear"
"2014-08-25 23:00","2014","08","25","23:00","20.2","","16.1","","77","","15","","5","","24.1","","99.79","","25","","","","NA"
"2014-08-26 00:00","2014","08","26","00:00","19.8","","16.3","","80","","12","","3","","24.1","","99.80","","","","","","NA"
"2014-08-26 01:00","2014","08","26","01:00","19.8","","16.5","","81","","14","","4","","24.1","","99.79","","","","","","Clear"
"2014-08-26 02:00","2014","08","26","02:00","19.4","","16.5","","83","","14","","5","","24.1","","99.78","","","","","","NA"
"2014-08-26 03:00","2014","08","26","03:00","19.3","","16.4","","83","","14","","5","","24.1","","99.79","","","","","","NA"
"2014-08-26 04:00","2014","08","26","04:00","19.2","","16.7","","85","","16","","5","","24.1","","99.81","","","","","","Mainly Clear"
"2014-08-26 05:00","2014","08","26","05:00","19.4","","16.7","","84","","16","","5","","24.1","","99.79","","","","","","NA"
"2014-08-26 06:00","2014","08","26","06:00","19.4","","16.9","","85","","16","","5","","24.1","","99.79","","","","","","NA"
"2014-08-26 07:00","2014","08","26","07:00","20.4","","17.3","","82","","18","","6","","24.1","","99.80","","26","","","","Mostly Cloudy"
"2014-08-26 08:00","2014","08","26","08:00","23.0","","17.6","","71","","23","","21","","24.1","","99.79","","29","","","","NA"
"2014-08-26 09:00","2014","08","26","09:00","24.8","","18.4","","67","","22","","21","","24.1","","99.79","","31","","","","NA"
"2014-08-26 10:00","2014","08","26","10:00","26.6","","19.1","","63","","21","","18","","24.1","","99.78","","33","","","","Mainly Clear"
"2014-08-26 11:00","2014","08","26","11:00","28.5","","20.7","","62","","21","","20","","24.1","","99.75","","37","","","","NA"
"2014-08-26 12:00","2014","08","26","12:00","29.7","","21.6","","61","","18","","14","","24.1","","99.69","","39","","","","NA"
"2014-08-26 13:00","2014","08","26","13:00","30.5","","21.5","","58","","22","","24","","24.1","","99.64","","39","","","","Mainly Clear"
"2014-08-26 14:00","2014","08","26","14:00","31.3","","21.7","","56","","22","","22","","24.1","","99.57","","40","","","","NA"
"2014-08-26 15:00","2014","08","26","15:00","30.4","","21.1","","57","","22","","23","","24.1","","99.51","","39","","","","NA"
"2014-08-26 16:00","2014","08","26","16:00","30.8","","22.1","","59","","22","","25","","24.1","","99.48","","40","","","","Mostly Cloudy"
"2014-08-26 17:00","2014","08","26","17:00","30.5","","21.2","","57","","23","","25","","24.1","","99.46","","39","","","","NA"
"2014-08-26 18:00","2014","08","26","18:00","29.2","","20.5","","59","","23","","26","","24.1","","99.46","","37","","","","NA"
"2014-08-26 19:00","2014","08","26","19:00","28.0","","20.7","","64","","23","","17","","24.1","","99.45","","36","","","","Mostly Cloudy"
"2014-08-26 20:00","2014","08","26","20:00","26.4","","21.1","","72","","24","","13","","24.1","","99.46","","35","","","","NA"
"2014-08-26 21:00","2014","08","26","21:00","24.9","","20.9","","78","","26","","10","","24.1","","99.49","","33","","","","NA"
"2014-08-26 22:00","2014","08","26","22:00","24.4","","20.8","","80","","26","","8","","24.1","","99.49","","33","","","","Mostly Cloudy"
"2014-08-26 23:00","2014","08","26","23:00","22.4","","19.8","","85","","36","","27","","24.1","","99.52","","30","","","","NA"
"2014-08-27 00:00","2014","08","27","00:00","21.5","","17.6","","78","","36","","25","","24.1","","99.57","","27","","","","NA"
"2014-08-27 01:00","2014","08","27","01:00","21.5","","16.8","","74","","35","","18","","24.1","","99.60","","27","","","","Mostly Cloudy"
"2014-08-27 02:00","2014","08","27","02:00","21.4","","15.1","","67","","33","","28","","24.1","","99.63","","25","","","","NA"
"2014-08-27 03:00","2014","08","27","03:00","20.4","","14.4","","68","","33","","16","","24.1","","99.63","","","","","","NA"
"2014-08-27 04:00","2014","08","27","04:00","19.6","","11.7","","60","","34","","20","","24.1","","99.63","","","","","","Mainly Clear"
"2014-08-27 05:00","2014","08","27","05:00","18.5","","12.3","","67","","34","","19","","24.1","","99.70","","","","","","NA"
"2014-08-27 06:00","2014","08","27","06:00","17.4","","11.9","","70","","35","","17","","24.1","","99.72","","","","","","NA"
"2014-08-27 07:00","2014","08","27","07:00","18.0","","12.7","","71","","32","","24","","24.1","","99.77","","","","","","Mainly Clear"
"2014-08-27 08:00","2014","08","27","08:00","19.0","","13.3","","69","","35","","17","","24.1","","99.76","","","","","","NA"
"2014-08-27 09:00","2014","08","27","09:00","20.3","","13.4","","64","","33","","17","","24.1","","99.76","","","","","","NA"
"2014-08-27 10:00","2014","08","27","10:00","20.8","","13.1","","61","","33","","10","","24.1","","99.78","","","","","","Mainly Clear"
"2014-08-27 11:00","2014","08","27","11:00","23.1","","12.3","","50","","35","","12","","24.1","","99.74","","26","","","","NA"
"2014-08-27 12:00","2014","08","27","12:00","24.0","","11.5","","45","","32","","16","","24.1","","99.67","","26","","","","NA"
"2014-08-27 13:00","2014","08","27","13:00","23.9","","11.1","","44","","31","","20","","24.1","","99.66","","26","","","","Mostly Cloudy"
"2014-08-27 14:00","2014","08","27","14:00","24.4","","13.5","","50","","32","","28","","24.1","","99.63","","27","","","","NA"
"2014-08-27 15:00","2014","08","27","15:00","23.0","","12.2","","50","","32","","25","","24.1","","99.64","","25","","","","NA"
"2014-08-27 16:00","2014","08","27","16:00","23.5","","12.3","","49","","31","","23","","24.1","","99.63","","26","","","","Mostly Cloudy"
"2014-08-27 17:00","2014","08","27","17:00","23.0","","12.5","","51","","32","","22","","24.1","","99.63","","26","","","","NA"
"2014-08-27 18:00","2014","08","27","18:00","21.7","","11.8","","53","","34","","25","","24.1","","99.63","","","","","","NA"
"2014-08-27 19:00","2014","08","27","19:00","19.1","","12.5","","65","","1","","21","","24.1","","99.69","","","","","","Mainly Clear"
"2014-08-27 20:00","2014","08","27","20:00","18.0","","10.7","","62","","32","","27","","24.1","","99.72","","","","","","NA"
"2014-08-27 21:00","2014","08","27","21:00","16.8","","9.8","","63","","32","","21","","24.1","","99.74","","","","","","NA"
"2014-08-27 22:00","2014","08","27","22:00","15.8","","10.0","","68","","32","","19","","24.1","","99.75","","","","","","Clear"
"2014-08-27 23:00","2014","08","27","23:00","15.1","","10.1","","72","","31","","17","","24.1","","99.78","","","","","","NA"
"2014-08-28 00:00","2014","08","28","00:00","13.8","","9.9","","77","","28","","11","","24.1","","99.76","","","","","","NA"
"2014-08-28 01:00","2014","08","28","01:00","12.2","","9.4","","83","","27","","13","","24.1","","99.74","","","","","","Clear"
"2014-08-28 02:00","2014","08","28","02:00","12.3","","9.0","","80","","28","","12","","24.1","","99.74","","","","","","NA"
"2014-08-28 03:00","2014","08","28","03:00","12.7","","8.8","","77","","31","","13","","24.1","","99.71","","","","","","NA"
"2014-08-28 04:00","2014","08","28","04:00","12.4","","8.9","","79","","31","","13","","24.1","","99.72","","","","","","Clear"
"2014-08-28 05:00","2014","08","28","05:00","13.2","","9.5","","78","","33","","17","","24.1","","99.75","","","","","","NA"
"2014-08-28 06:00","2014","08","28","06:00","13.3","","10.1","","81","","34","","17","","24.1","","99.80","","","","","","NA"
"2014-08-28 07:00","2014","08","28","07:00","14.6","","10.1","","74","","34","","15","","24.1","","99.84","","","","","","Mainly Clear"
"2014-08-28 08:00","2014","08","28","08:00","16.4","","9.7","","64","","35","","26","","24.1","","99.89","","","","","","NA"
"2014-08-28 09:00","2014","08","28","09:00","17.4","","9.6","","60","","36","","20","","24.1","","99.93","","","","","","NA"
"2014-08-28 10:00","2014","08","28","10:00","18.6","","9.2","","54","","32","","21","","24.1","","99.91","","","","","","Mainly Clear"
"2014-08-28 11:00","2014","08","28","11:00","20.5","","8.0","","44","","35","","23","","24.1","","99.88","","","","","","NA"
"2014-08-28 12:00","2014","08","28","12:00","21.0","","8.4","","44","","34","","21","","24.1","","99.86","","","","","","NA"
"2014-08-28 13:00","2014","08","28","13:00","21.7","","7.7","","40","","35","","23","","24.1","","99.85","","","","","","Mainly Clear"
"2014-08-28 14:00","2014","08","28","14:00","22.0","","5.2","","33","","35","","23","","24.1","","99.84","","","","","","NA"
"2014-08-28 15:00","2014","08","28","15:00","22.0","","6.0","","35","","36","","22","","24.1","","99.80","","","","","","NA"
"2014-08-28 16:00","2014","08","28","16:00","21.8","","6.6","","37","","35","","17","","24.1","","99.80","","","","","","Mainly Clear"
"2014-08-28 17:00","2014","08","28","17:00","21.5","","7.1","","39","","36","","22","","24.1","","99.83","","","","","","NA"
"2014-08-28 18:00","2014","08","28","18:00","19.9","","7.4","","44","","35","","20","","24.1","","99.83","","","","","","NA"
"2014-08-28 19:00","2014","08","28","19:00","17.9","","7.2","","49","","36","","21","","24.1","","99.88","","","","","","Mainly Clear"
"2014-08-28 20:00","2014","08","28","20:00","16.7","","6.6","","51","","35","","21","","24.1","","99.95","","","","","","NA"
"2014-08-28 21:00","2014","08","28","21:00","16.1","","7.4","","56","","34","","17","","24.1","","100.01","","","","","","NA"
"2014-08-28 22:00","2014","08","28","22:00","15.1","","8.2","","63","","36","","16","","24.1","","100.01","","","","","","Clear"
"2014-08-28 23:00","2014","08","28","23:00","14.6","","8.6","","67","","35","","10","","24.1","","100.04","","","","","","NA"
"2014-08-29 00:00","2014","08","29","00:00","13.3","","8.6","","73","","33","","11","","24.1","","100.07","","","","","","NA"
"2014-08-29 01:00","2014","08","29","01:00","13.1","","8.8","","75","","32","","10","","24.1","","100.05","","","","","","Mostly Cloudy"
"2014-08-29 02:00","2014","08","29","02:00","13.1","","9.0","","76","","35","","7","","24.1","","100.06","","","","","","NA"
"2014-08-29 03:00","2014","08","29","03:00","12.2","","9.1","","81","","31","","7","","24.1","","100.06","","","","","","NA"
"2014-08-29 04:00","2014","08","29","04:00","12.0","","8.9","","81","","36","","8","","24.1","","100.04","","","","","","Mainly Clear"
"2014-08-29 05:00","2014","08","29","05:00","12.2","","9.4","","83","","30","","8","","24.1","","100.09","","","","","","NA"
"2014-08-29 06:00","2014","08","29","06:00","12.9","","9.9","","82","","3","","5","","24.1","","100.13","","","","","","NA"
"2014-08-29 07:00","2014","08","29","07:00","13.9","","10.7","","81","","29","","5","","24.1","","100.18","","","","","","Mostly Cloudy"
"2014-08-29 08:00","2014","08","29","08:00","15.6","","11.4","","76","","2","","5","","24.1","","100.18","","","","","","NA"
"2014-08-29 09:00","2014","08","29","09:00","18.0","","12.9","","72","","13","","12","","24.1","","100.15","","","","","","NA"
"2014-08-29 10:00","2014","08","29","10:00","19.4","","13.7","","69","","12","","12","","24.1","","100.18","","","","","","Mostly Cloudy"
"2014-08-29 11:00","2014","08","29","11:00","21.0","","12.8","","59","","17","","10","","24.1","","100.17","","","","","","NA"
"2014-08-29 12:00","2014","08","29","12:00","22.0","","12.4","","54","","13","","16","","24.1","","100.13","","","","","","NA"
"2014-08-29 13:00","2014","08","29","13:00","21.6","","11.8","","53","","15","","16","","24.1","","100.08","","","","","","Mostly Cloudy"
"2014-08-29 14:00","2014","08","29","14:00","21.9","","9.3","","44","","10","","15","","24.1","","100.04","","","","","","NA"
"2014-08-29 15:00","2014","08","29","15:00","22.0","","9.7","","45","","15","","10","","24.1","","99.98","","","","","","NA"
"2014-08-29 16:00","2014","08","29","16:00","21.9","","10.2","","47","","14","","12","","24.1","","99.94","","","","","","Mostly Cloudy"
"2014-08-29 17:00","2014","08","29","17:00","20.9","","10.2","","50","","12","","9","","24.1","","99.91","","","","","","NA"
"2014-08-29 18:00","2014","08","29","18:00","19.6","","12.0","","61","","14","","19","","24.1","","99.90","","","","","","NA"
"2014-08-29 19:00","2014","08","29","19:00","18.5","","14.1","","75","","14","","12","","24.1","","99.89","","","","","","Mostly Cloudy"
"2014-08-29 20:00","2014","08","29","20:00","18.4","","13.5","","73","","14","","14","","24.1","","99.90","","","","","","NA"
"2014-08-29 21:00","2014","08","29","21:00","18.4","","14.0","","75","","13","","12","","24.1","","99.87","","","","","","NA"
"2014-08-29 22:00","2014","08","29","22:00","18.1","","13.7","","75","","11","","11","","24.1","","99.88","","","","","","Mostly Cloudy"
"2014-08-29 23:00","2014","08","29","23:00","18.4","","14.6","","78","","10","","4","","24.1","","99.88","","","","","","NA"
"2014-08-30 00:00","2014","08","30","00:00","18.3","","15.4","","83","","13","","10","","24.1","","99.83","","","","","","NA"
"2014-08-30 01:00","2014","08","30","01:00","18.2","","16.0","","87","","12","","10","","24.1","","99.78","","","","","","Mostly Cloudy"
"2014-08-30 02:00","2014","08","30","02:00","18.0","","16.2","","89","","14","","5","","24.1","","99.74","","","","","","NA"
"2014-08-30 03:00","2014","08","30","03:00","18.1","","16.3","","89","","13","","6","","24.1","","99.71","","","","","","NA"
"2014-08-30 04:00","2014","08","30","04:00","18.1","","16.5","","90","","15","","7","","24.1","","99.67","","","","","","Mostly Cloudy"
"2014-08-30 05:00","2014","08","30","05:00","18.1","","16.3","","89","","16","","7","","24.1","","99.66","","","","","","NA"
"2014-08-30 06:00","2014","08","30","06:00","18.6","","15.9","","84","","16","","8","","24.1","","99.68","","","","","","NA"
"2014-08-30 07:00","2014","08","30","07:00","19.1","","16.2","","83","","17","","8","","24.1","","99.67","","","","","","Mostly Cloudy"
"2014-08-30 08:00","2014","08","30","08:00","20.5","","16.2","","76","","17","","8","","24.1","","99.65","","25","","","","NA"
"2014-08-30 09:00","2014","08","30","09:00","21.7","","16.1","","70","","15","","9","","24.1","","99.60","","26","","","","NA"
"2014-08-30 10:00","2014","08","30","10:00","21.1","","18.2","","83","","14","","13","","24.1","","99.59","","27","","","","Mostly Cloudy"
"2014-08-30 11:00","2014","08","30","11:00","24.9","","18.7","","68","","17","","14","","24.1","","99.54","","31","","","","NA"
"2014-08-30 12:00","2014","08","30","12:00","25.6","","18.4","","64","","14","","16","","24.1","","99.49","","32","","","","NA"
"2014-08-30 13:00","2014","08","30","13:00","27.0","","18.5","","59","","15","","16","","24.1","","99.44","","33","","","","Mostly Cloudy"
"2014-08-30 14:00","2014","08","30","14:00","27.2","","19.4","","62","","15","","18","","24.1","","99.36","","34","","","","NA"
"2014-08-30 15:00","2014","08","30","15:00","27.7","","19.7","","61","","16","","16","","24.1","","99.29","","35","","","","NA"
"2014-08-30 16:00","2014","08","30","16:00","29.9","","18.3","","49","","22","","22","","24.1","","99.22","","36","","","","Mostly Cloudy"
"2014-08-30 17:00","2014","08","30","17:00","28.8","","18.5","","53","","21","","35","","19.3","","99.22","","35","","","","Rain Showers"
"2014-08-30 18:00","2014","08","30","18:00","28.5","","18.2","","53","","22","","26","","24.1","","99.15","","35","","","","NA"
"2014-08-30 19:00","2014","08","30","19:00","27.9","","18.2","","55","","22","","23","","19.3","","99.17","","34","","","","Cloudy"
"2014-08-30 20:00","2014","08","30","20:00","27.3","","18.8","","59","","23","","27","","19.3","","99.22","","34","","","","NA"
"2014-08-30 21:00","2014","08","30","21:00","26.8","","18.5","","60","","21","","22","","24.1","","99.18","","33","","","","NA"
"2014-08-30 22:00","2014","08","30","22:00","26.0","","18.8","","64","","22","","23","","24.1","","99.16","","33","","","","Mainly Clear"
"2014-08-30 23:00","2014","08","30","23:00","25.3","","18.9","","67","","21","","27","","24.1","","99.14","","32","","","","NA"
"2014-08-31 00:00","2014","08","31","00:00","24.3","","19.0","","72","","22","","18","","24.1","","99.17","","31","","","","NA"
"2014-08-31 01:00","2014","08","31","01:00","24.0","","19.4","","75","","23","","18","","24.1","","99.20","","31","","","","Mostly Cloudy"
"2014-08-31 02:00","2014","08","31","02:00","24.0","","19.6","","76","","24","","19","","24.1","","99.16","","31","","","","NA"
"2014-08-31 03:00","2014","08","31","03:00","23.9","","19.9","","78","","23","","19","","24.1","","99.17","","31","","","","NA"
"2014-08-31 04:00","2014","08","31","04:00","23.5","","19.9","","80","","21","","14","","24.1","","99.15","","31","","","","Mostly Cloudy"
"2014-08-31 05:00","2014","08","31","05:00","23.0","","19.8","","82","","21","","18","","24.1","","99.18","","30","","","","NA"
"2014-08-31 06:00","2014","08","31","06:00","22.9","","20.1","","84","","22","","18","","19.3","","99.21","","31","","","","NA"
"2014-08-31 07:00","2014","08","31","07:00","23.4","","20.6","","84","","23","","19","","16.1","","99.23","","31","","","","Mostly Cloudy"
"2014-08-31 08:00","2014","08","31","08:00","24.3","","20.7","","80","","23","","27","","16.1","","99.25","","32","","","","NA"
"2014-08-31 09:00","2014","08","31","09:00","25.4","","19.9","","71","","24","","30","","24.1","","99.26","","33","","","","NA"
"2014-08-31 10:00","2014","08","31","10:00","25.8","","19.1","","66","","24","","22","","24.1","","99.28","","33","","","","Mostly Cloudy"
"2014-08-31 11:00","2014","08","31","11:00","27.0","","18.7","","60","","27","","22","","24.1","","99.23","","34","","","","NA"
"2014-08-31 12:00","2014","08","31","12:00","27.4","","18.0","","56","","27","","26","","24.1","","99.24","","33","","","","NA"
"2014-08-31 13:00","2014","08","31","13:00","27.1","","17.5","","55","","26","","24","","24.1","","99.24","","33","","","","Mostly Cloudy"
"2014-08-31 14:00","2014","08","31","14:00","28.6","","18.0","","52","","26","","31","","24.1","","99.21","","35","","","","NA"
"2014-08-31 15:00","2014","08","31","15:00","29.1","","17.5","","49","","26","","23","","24.1","","99.20","","35","","","","NA"
"2014-08-31 16:00","2014","08","31","16:00","29.3","","17.7","","49","","25","","29","","24.1","","99.20","","35","","","","Mostly Cloudy"
"2014-08-31 17:00","2014","08","31","17:00","28.5","","17.3","","50","","30","","22","","24.1","","99.25","","34","","","","NA"
"2014-08-31 18:00","2014","08","31","18:00","27.1","","17.7","","56","","28","","20","","24.1","","99.26","","33","","","","NA"
"2014-08-31 19:00","2014","08","31","19:00","25.6","","17.7","","61","","28","","18","","24.1","","99.31","","31","","","","Clear"
"2014-08-31 20:00","2014","08","31","20:00","24.4","","17.3","","64","","29","","11","","24.1","","99.33","","30","","","","NA"
"2014-08-31 21:00","2014","08","31","21:00","23.9","","17.7","","68","","30","","9","","24.1","","99.34","","30","","","","NA"
"2014-08-31 22:00","2014","08","31","22:00","22.9","","17.9","","73","","32","","11","","24.1","","99.35","","29","","","","Mainly Clear"
"2014-08-31 23:00","2014","08","31","23:00","21.1","","17.6","","80","","1","","9","","24.1","","99.36","","27","","","","NA"
