"Station Name","TORONTO INTL A"
"Province","ONTARIO"
"Latitude","43.68"
"Longitude","-79.63"
"Elevation","173.40"
"Climate Identifier","6158731"
"WMO Identifier","71624"
"TC Identifier","YYZ"
"All times are specified in Local Standard Time (LST). Add 1 hour to adjust for Daylight Saving Time where and when it is observed."

"Legend"
"E","Estimated"
"M","Missing"
"NA","Not Available"

"Date/Time","Year","Month","Day","Time","Temp (°C)","Temp Flag","Dew Point Temp (°C)","Dew Point Temp Flag","Rel Hum (%)","Rel Hum Flag","Wind Dir (10s deg)","Wind Dir Flag","Wind Spd (km/h)","Wind Spd Flag","Visibility (km)","Visibility Flag","Stn Press (kPa)","Stn Press Flag","Hmdx","Hmdx Flag","Wind Chill","Wind Chill Flag","Weather"
"2013-09-01 00:00","2013","09","01","00:00","21.1","","19.4","","90","","10","","6","","16.1","","99.02","","28","","","","NA"
"2013-09-01 01:00","2013","09","01","01:00","20.5","","19.2","","92","","36","","2","","19.3","","99.01","","27","","","","Mostly Cloudy"
"2013-09-01 02:00","2013","09","01","02:00","19.8","","18.3","","91","","33","","11","","19.3","","98.99","","","","","","NA"
"2013-09-01 03:00","2013","09","01","03:00","19.8","","18.3","","91","","1","","7","","19.3","","98.97","","","","","","NA"
"2013-09-01 04:00","2013","09","01","04:00","19.9","","18.4","","91","","1","","12","","19.3","","98.98","","","","","","Mostly Cloudy"
"2013-09-01 05:00","2013","09","01","05:00","20.0","","18.5","","91","","4","","11","","19.3","","99.00","","26","","","","NA"
"2013-09-01 06:00","2013","09","01","06:00","20.2","","18.9","","92","","8","","11","","12.9","","99.01","","27","","","","NA"
"2013-09-01 07:00","2013","09","01","07:00","20.3","","18.6","","90","","9","","19","","19.3","","99.02","","27","","","","Cloudy"
"2013-09-01 08:00","2013","09","01","08:00","20.9","","18.3","","85","","11","","11","","24.1","","99.06","","27","","","","NA"
"2013-09-01 09:00","2013","09","01","09:00","21.5","","18.4","","82","","9","","14","","24.1","","99.06","","28","","","","NA"
"2013-09-01 10:00","2013","09","01","10:00","21.7","","18.2","","80","","11","","16","","24.1","","99.04","","28","","","","Mostly Cloudy"
"2013-09-01 11:00","2013","09","01","11:00","22.9","","18.5","","76","","9","","16","","24.1","","99.01","","29","","","","NA"
"2013-09-01 12:00","2013","09","01","12:00","23.3","","18.3","","73","","8","","19","","24.1","","98.95","","30","","","","NA"
"2013-09-01 13:00","2013","09","01","13:00","24.2","","18.7","","71","","12","","18","","24.1","","98.95","","31","","","","Mostly Cloudy"
"2013-09-01 14:00","2013","09","01","14:00","24.2","","18.3","","69","","8","","12","","24.1","","98.88","","30","","","","NA"
"2013-09-01 15:00","2013","09","01","15:00","23.8","","17.9","","69","","10","","17","","24.1","","98.82","","30","","","","NA"
"2013-09-01 16:00","2013","09","01","16:00","23.0","","18.0","","73","","10","","10","","24.1","","98.84","","29","","","","Cloudy"
"2013-09-01 17:00","2013","09","01","17:00","22.8","","18.0","","74","","8","","9","","24.1","","98.82","","29","","","","Rain Showers"
"2013-09-01 18:00","2013","09","01","18:00","22.7","","18.1","","75","","11","","10","","24.1","","98.80","","29","","","","NA"
"2013-09-01 19:00","2013","09","01","19:00","22.2","","17.6","","75","","9","","10","","24.1","","98.79","","28","","","","Thunderstorms"
"2013-09-01 20:00","2013","09","01","20:00","21.7","","18.4","","81","","5","","3","","24.1","","98.81","","28","","","","Rain Showers"
"2013-09-01 21:00","2013","09","01","21:00","20.7","","19.2","","91","","23","","5","","16.1","","98.81","","28","","","","Rain Showers"
"2013-09-01 22:00","2013","09","01","22:00","20.9","","19.4","","91","","13","","5","","24.1","","98.76","","28","","","","Mostly Cloudy"
"2013-09-01 23:00","2013","09","01","23:00","20.9","","19.6","","92","","6","","4","","19.3","","98.75","","28","","","","NA"
"2013-09-02 00:00","2013","09","02","00:00","21.0","","19.7","","92","","8","","4","","19.3","","98.72","","28","","","","NA"
"2013-09-02 01:00","2013","09","02","01:00","21.1","","19.9","","93","","35","","4","","19.3","","98.73","","29","","","","Cloudy"
"2013-09-02 02:00","2013","09","02","02:00","21.1","","19.9","","93","","10","","1","","19.3","","98.67","","29","","","","NA"
"2013-09-02 03:00","2013","09","02","03:00","20.9","","19.9","","94","","24","","3","","16.1","","98.64","","28","","","","NA"
"2013-09-02 04:00","2013","09","02","04:00","20.9","","19.7","","93","","20","","8","","16.1","","98.63","","28","","","","Mostly Cloudy"
"2013-09-02 05:00","2013","09","02","05:00","20.5","","19.4","","93","","17","","5","","16.1","","98.57","","28","","","","NA"
"2013-09-02 06:00","2013","09","02","06:00","19.7","","18.7","","94","","25","","11","","4.8","","98.62","","","","","","Fog"
"2013-09-02 07:00","2013","09","02","07:00","20.0","","18.9","","93","","32","","5","","6.4","","98.62","","27","","","","Fog"
"2013-09-02 08:00","2013","09","02","08:00","21.0","","19.5","","91","","17","","6","","6.4","","98.58","","28","","","","Fog"
"2013-09-02 09:00","2013","09","02","09:00","21.4","","19.9","","91","","21","","12","","6.4","","98.60","","29","","","","Rain,Fog"
"2013-09-02 10:00","2013","09","02","10:00","22.5","","20.1","","86","","22","","11","","9.7","","98.58","","30","","","","Fog"
"2013-09-02 11:00","2013","09","02","11:00","24.3","","20.3","","78","","24","","14","","16.1","","98.56","","32","","","","NA"
"2013-09-02 12:00","2013","09","02","12:00","23.0","","18.4","","75","","30","","23","","19.3","","98.62","","29","","","","NA"
"2013-09-02 13:00","2013","09","02","13:00","22.3","","17.3","","73","","30","","27","","24.1","","98.65","","28","","","","Mostly Cloudy"
"2013-09-02 14:00","2013","09","02","14:00","22.7","","16.1","","66","","30","","24","","24.1","","98.65","","27","","","","NA"
"2013-09-02 15:00","2013","09","02","15:00","22.8","","15.3","","62","","32","","36","","24.1","","98.64","","27","","","","NA"
"2013-09-02 16:00","2013","09","02","16:00","21.4","","13.7","","61","","32","","30","","24.1","","98.68","","25","","","","Mainly Clear"
"2013-09-02 17:00","2013","09","02","17:00","20.3","","12.4","","60","","29","","33","","24.1","","98.71","","","","","","NA"
"2013-09-02 18:00","2013","09","02","18:00","19.3","","12.4","","64","","31","","27","","24.1","","98.75","","","","","","NA"
"2013-09-02 19:00","2013","09","02","19:00","18.1","","12.0","","67","","30","","25","","24.1","","98.80","","","","","","Mostly Cloudy"
"2013-09-02 20:00","2013","09","02","20:00","17.2","","12.4","","73","","29","","22","","24.1","","98.84","","","","","","NA"
"2013-09-02 21:00","2013","09","02","21:00","16.7","","12.7","","77","","28","","18","","24.1","","98.84","","","","","","NA"
"2013-09-02 22:00","2013","09","02","22:00","16.9","","12.7","","76","","30","","12","","24.1","","98.85","","","","","","Mostly Cloudy"
"2013-09-02 23:00","2013","09","02","23:00","16.2","","12.4","","78","","27","","15","","24.1","","98.86","","","","","","NA"
"2013-09-03 00:00","2013","09","03","00:00","16.2","","12.0","","76","","28","","14","","24.1","","98.89","","","","","","NA"
"2013-09-03 01:00","2013","09","03","01:00","16.0","","11.8","","76","","28","","13","","24.1","","98.89","","","","","","Mostly Cloudy"
"2013-09-03 02:00","2013","09","03","02:00","14.9","","12.3","","84","","28","","14","","24.1","","98.88","","","","","","NA"
"2013-09-03 03:00","2013","09","03","03:00","15.1","","11.9","","81","","26","","14","","24.1","","98.87","","","","","","NA"
"2013-09-03 04:00","2013","09","03","04:00","15.0","","11.8","","81","","25","","17","","24.1","","98.88","","","","","","Mostly Cloudy"
"2013-09-03 05:00","2013","09","03","05:00","15.0","","12.0","","82","","24","","16","","24.1","","98.89","","","","","","NA"
"2013-09-03 06:00","2013","09","03","06:00","15.2","","12.6","","84","","25","","19","","24.1","","98.91","","","","","","NA"
"2013-09-03 07:00","2013","09","03","07:00","15.8","","11.8","","77","","28","","21","","24.1","","98.98","","","","","","Mainly Clear"
"2013-09-03 08:00","2013","09","03","08:00","16.4","","11.8","","74","","28","","27","","24.1","","99.01","","","","","","NA"
"2013-09-03 09:00","2013","09","03","09:00","17.5","","12.3","","71","","29","","26","","24.1","","99.03","","","","","","NA"
"2013-09-03 10:00","2013","09","03","10:00","18.1","","12.2","","68","","32","","23","","24.1","","99.05","","","","","","Mostly Cloudy"
"2013-09-03 11:00","2013","09","03","11:00","19.0","","12.6","","66","","29","","25","","24.1","","99.05","","","","","","NA"
"2013-09-03 12:00","2013","09","03","12:00","19.5","","13.3","","67","","29","","28","","24.1","","99.07","","","","","","NA"
"2013-09-03 13:00","2013","09","03","13:00","20.6","","13.9","","65","","29","","28","","24.1","","99.08","","","","","","Mostly Cloudy"
"2013-09-03 14:00","2013","09","03","14:00","21.2","","13.7","","62","","28","","31","","24.1","","99.06","","","","","","NA"
"2013-09-03 15:00","2013","09","03","15:00","20.8","","13.1","","61","","30","","22","","24.1","","99.08","","","","","","NA"
"2013-09-03 16:00","2013","09","03","16:00","21.1","","12.4","","57","","31","","33","","24.1","","99.09","","","","","","Mostly Cloudy"
"2013-09-03 17:00","2013","09","03","17:00","21.1","","11.6","","54","","29","","23","","24.1","","99.12","","","","","","NA"
"2013-09-03 18:00","2013","09","03","18:00","20.6","","10.5","","52","","30","","27","","24.1","","99.16","","","","","","NA"
"2013-09-03 19:00","2013","09","03","19:00","19.0","","9.9","","55","","29","","26","","24.1","","99.22","","","","","","Clear"
"2013-09-03 20:00","2013","09","03","20:00","17.0","","9.3","","60","","28","","14","","24.1","","99.28","","","","","","NA"
"2013-09-03 21:00","2013","09","03","21:00","15.9","","9.4","","65","","26","","14","","24.1","","99.32","","","","","","NA"
"2013-09-03 22:00","2013","09","03","22:00","14.2","","9.5","","73","","25","","8","","24.1","","99.35","","","","","","Clear"
"2013-09-03 23:00","2013","09","03","23:00","14.3","","9.6","","73","","23","","8","","24.1","","99.34","","","","","","NA"
"2013-09-04 00:00","2013","09","04","00:00","13.5","","9.4","","76","","25","","8","","24.1","","99.34","","","","","","NA"
"2013-09-04 01:00","2013","09","04","01:00","14.1","","9.2","","72","","27","","9","","24.1","","99.33","","","","","","Clear"
"2013-09-04 02:00","2013","09","04","02:00","13.5","","9.6","","77","","26","","4","","24.1","","99.33","","","","","","NA"
"2013-09-04 03:00","2013","09","04","03:00","13.1","","10.8","","86","","26","","16","","24.1","","99.36","","","","","","NA"
"2013-09-04 04:00","2013","09","04","04:00","12.8","","10.7","","87","","25","","14","","24.1","","99.41","","","","","","Clear"
"2013-09-04 05:00","2013","09","04","05:00","13.1","","11.2","","88","","25","","13","","24.1","","99.41","","","","","","NA"
"2013-09-04 06:00","2013","09","04","06:00","13.3","","11.5","","89","","24","","16","","24.1","","99.40","","","","","","NA"
"2013-09-04 07:00","2013","09","04","07:00","15.4","","12.6","","83","","27","","8","","24.1","","99.43","","","","","","Mainly Clear"
"2013-09-04 08:00","2013","09","04","08:00","18.3","","13.9","","75","","27","","24","","24.1","","99.43","","","","","","NA"
"2013-09-04 09:00","2013","09","04","09:00","20.4","","13.7","","65","","26","","29","","24.1","","99.45","","","","","","NA"
"2013-09-04 10:00","2013","09","04","10:00","22.1","","14.4","","61","","26","","28","","24.1","","99.42","","26","","","","Mainly Clear"
"2013-09-04 11:00","2013","09","04","11:00","22.8","","13.7","","56","","27","","27","","24.1","","99.42","","26","","","","NA"
"2013-09-04 12:00","2013","09","04","12:00","24.4","","14.1","","52","","27","","33","","24.1","","99.39","","28","","","","NA"
"2013-09-04 13:00","2013","09","04","13:00","24.8","","14.2","","51","","27","","31","","24.1","","99.37","","28","","","","Mainly Clear"
"2013-09-04 14:00","2013","09","04","14:00","25.3","","14.6","","51","","28","","24","","24.1","","99.34","","29","","","","NA"
"2013-09-04 15:00","2013","09","04","15:00","24.8","","14.2","","51","","29","","28","","24.1","","99.33","","28","","","","NA"
"2013-09-04 16:00","2013","09","04","16:00","23.8","","14.9","","57","","30","","25","","24.1","","99.35","","28","","","","Mostly Cloudy"
"2013-09-04 17:00","2013","09","04","17:00","23.4","","15.3","","60","","29","","24","","24.1","","99.37","","28","","","","NA"
"2013-09-04 18:00","2013","09","04","18:00","21.5","","15.7","","69","","32","","28","","24.1","","99.41","","26","","","","NA"
"2013-09-04 19:00","2013","09","04","19:00","19.8","","15.1","","74","","33","","23","","24.1","","99.45","","","","","","Mostly Cloudy"
"2013-09-04 20:00","2013","09","04","20:00","18.9","","14.4","","75","","31","","17","","24.1","","99.49","","","","","","NA"
"2013-09-04 21:00","2013","09","04","21:00","17.4","","14.0","","80","","34","","21","","24.1","","99.52","","","","","","NA"
"2013-09-04 22:00","2013","09","04","22:00","15.5","","13.0","","85","","35","","22","","24.1","","99.58","","","","","","Mostly Cloudy"
"2013-09-04 23:00","2013","09","04","23:00","15.2","","12.2","","82","","33","","24","","24.1","","99.58","","","","","","NA"
"2013-09-05 00:00","2013","09","05","00:00","14.0","","11.2","","83","","32","","17","","24.1","","99.62","","","","","","NA"
"2013-09-05 01:00","2013","09","05","01:00","13.4","","10.2","","81","","32","","13","","24.1","","99.62","","","","","","Mainly Clear"
"2013-09-05 02:00","2013","09","05","02:00","12.2","","9.6","","84","","36","","8","","24.1","","99.65","","","","","","NA"
"2013-09-05 03:00","2013","09","05","03:00","11.9","","8.0","","77","","27","","8","","24.1","","99.70","","","","","","NA"
"2013-09-05 04:00","2013","09","05","04:00","11.7","","7.8","","77","","28","","9","","24.1","","99.76","","","","","","Mostly Cloudy"
"2013-09-05 05:00","2013","09","05","05:00","13.3","","9.0","","75","","34","","16","","24.1","","99.78","","","","","","NA"
"2013-09-05 06:00","2013","09","05","06:00","13.0","","8.7","","75","","34","","22","","24.1","","99.88","","","","","","NA"
"2013-09-05 07:00","2013","09","05","07:00","12.4","","7.9","","74","","35","","27","","24.1","","100.01","","","","","","Mainly Clear"
"2013-09-05 08:00","2013","09","05","08:00","13.1","","6.9","","66","","1","","29","","24.1","","100.09","","","","","","NA"
"2013-09-05 09:00","2013","09","05","09:00","14.1","","6.5","","60","","36","","25","","24.1","","100.13","","","","","","NA"
"2013-09-05 10:00","2013","09","05","10:00","15.7","","5.7","","51","","35","","21","","24.1","","100.15","","","","","","Mainly Clear"
"2013-09-05 11:00","2013","09","05","11:00","16.0","","4.2","","45","","34","","26","","24.1","","100.18","","","","","","NA"
"2013-09-05 12:00","2013","09","05","12:00","16.1","","3.6","","43","","33","","18","","24.1","","100.19","","","","","","NA"
"2013-09-05 13:00","2013","09","05","13:00","16.2","","4.0","","44","","32","","18","","24.1","","100.22","","","","","","Mainly Clear"
"2013-09-05 14:00","2013","09","05","14:00","16.9","","1.8","","36","","33","","32","","24.1","","100.20","","","","","","NA"
"2013-09-05 15:00","2013","09","05","15:00","16.7","","2.0","","37","","32","","23","","24.1","","100.20","","","","","","NA"
"2013-09-05 16:00","2013","09","05","16:00","16.2","","0.8","","35","","33","","22","","24.1","","100.21","","","","","","Clear"
"2013-09-05 17:00","2013","09","05","17:00","15.7","","1.1","","37","","33","","22","","24.1","","100.24","","","","","","NA"
"2013-09-05 18:00","2013","09","05","18:00","14.5","","1.8","","42","","36","","27","","24.1","","100.26","","","","","","NA"
"2013-09-05 19:00","2013","09","05","19:00","13.3","","2.0","","46","","1","","23","","24.1","","100.30","","","","","","Mainly Clear"
"2013-09-05 20:00","2013","09","05","20:00","12.2","","3.2","","54","","1","","20","","24.1","","100.35","","","","","","NA"
"2013-09-05 21:00","2013","09","05","21:00","11.9","","3.2","","55","","35","","17","","24.1","","100.36","","","","","","NA"
"2013-09-05 22:00","2013","09","05","22:00","10.8","","3.4","","60","","36","","13","","24.1","","100.38","","","","","","Mainly Clear"
"2013-09-05 23:00","2013","09","05","23:00","9.8","","3.6","","65","","1","","10","","24.1","","100.37","","","","","","NA"
"2013-09-06 00:00","2013","09","06","00:00","9.7","","3.7","","66","","34","","10","","24.1","","100.39","","","","","","NA"
"2013-09-06 01:00","2013","09","06","01:00","9.1","","3.5","","68","","31","","9","","24.1","","100.39","","","","","","Clear"
"2013-09-06 02:00","2013","09","06","02:00","9.5","","3.7","","67","","34","","6","","24.1","","100.38","","","","","","NA"
"2013-09-06 03:00","2013","09","06","03:00","8.7","","3.8","","71","","30","","5","","24.1","","100.39","","","","","","NA"
"2013-09-06 04:00","2013","09","06","04:00","7.8","","3.9","","76","","31","","6","","24.1","","100.38","","","","","","Clear"
"2013-09-06 05:00","2013","09","06","05:00","7.1","","4.1","","81","","27","","8","","24.1","","100.42","","","","","","NA"
"2013-09-06 06:00","2013","09","06","06:00","7.4","","4.0","","79","","30","","7","","24.1","","100.47","","","","","","NA"
"2013-09-06 07:00","2013","09","06","07:00","10.0","","4.8","","70","","28","","5","","24.1","","100.47","","","","","","Clear"
"2013-09-06 08:00","2013","09","06","08:00","13.0","","5.5","","60","","29","","5","","24.1","","100.50","","","","","","NA"
"2013-09-06 09:00","2013","09","06","09:00","15.2","","5.8","","53","","24","","14","","24.1","","100.49","","","","","","NA"
"2013-09-06 10:00","2013","09","06","10:00","16.6","","5.6","","48","","21","","18","","24.1","","100.44","","","","","","Mainly Clear"
"2013-09-06 11:00","2013","09","06","11:00","18.0","","3.6","","38","","25","","12","","24.1","","100.38","","","","","","NA"
"2013-09-06 12:00","2013","09","06","12:00","19.1","","4.2","","37","","18","","6","","24.1","","100.30","","","","","","NA"
"2013-09-06 13:00","2013","09","06","13:00","20.3","","6.8","","41","","20","","13","","24.1","","100.21","","","","","","Mainly Clear"
"2013-09-06 14:00","2013","09","06","14:00","20.5","","6.6","","40","","15","","13","","24.1","","100.13","","","","","","NA"
"2013-09-06 15:00","2013","09","06","15:00","21.7","","3.6","","30","","22","","8","","24.1","","100.03","","","","","","NA"
"2013-09-06 16:00","2013","09","06","16:00","21.9","","2.2","","27","","27","","17","","24.1","","100.02","","","","","","Mostly Cloudy"
"2013-09-06 17:00","2013","09","06","17:00","22.0","","4.7","","32","","25","","12","","24.1","","99.98","","","","","","NA"
"2013-09-06 18:00","2013","09","06","18:00","19.9","","9.6","","51","","15","","13","","24.1","","99.93","","","","","","NA"
"2013-09-06 19:00","2013","09","06","19:00","19.0","","11.2","","60","","15","","5","","24.1","","99.89","","","","","","Mostly Cloudy"
"2013-09-06 20:00","2013","09","06","20:00","19.1","","11.0","","59","","19","","8","","24.1","","99.89","","","","","","NA"
"2013-09-06 21:00","2013","09","06","21:00","17.6","","10.6","","63","","24","","19","","24.1","","99.83","","","","","","NA"
"2013-09-06 22:00","2013","09","06","22:00","16.3","","10.7","","69","","23","","16","","24.1","","99.81","","","","","","Mainly Clear"
"2013-09-06 23:00","2013","09","06","23:00","15.3","","10.5","","73","","24","","15","","24.1","","99.79","","","","","","NA"
"2013-09-07 00:00","2013","09","07","00:00","15.8","","10.4","","70","","24","","12","","24.1","","99.75","","","","","","NA"
"2013-09-07 01:00","2013","09","07","01:00","16.5","","8.5","","59","","23","","14","","24.1","","99.71","","","","","","Mostly Cloudy"
"2013-09-07 02:00","2013","09","07","02:00","16.8","","9.1","","60","","22","","11","","24.1","","99.66","","","","","","NA"
"2013-09-07 03:00","2013","09","07","03:00","16.2","","10.1","","67","","23","","12","","24.1","","99.65","","","","","","NA"
"2013-09-07 04:00","2013","09","07","04:00","16.2","","10.1","","67","","23","","8","","24.1","","99.60","","","","","","Cloudy"
"2013-09-07 05:00","2013","09","07","05:00","16.8","","10.7","","67","","24","","13","","24.1","","99.56","","","","","","NA"
"2013-09-07 06:00","2013","09","07","06:00","16.5","","11.1","","70","","19","","8","","24.1","","99.58","","","","","","NA"
"2013-09-07 07:00","2013","09","07","07:00","16.2","","11.8","","75","","23","","2","","24.1","","99.59","","","","","","Rain Showers"
"2013-09-07 08:00","2013","09","07","08:00","15.8","","13.5","","86","","17","","5","","19.3","","99.55","","","","","","Rain Showers"
"2013-09-07 09:00","2013","09","07","09:00","15.5","","14.2","","92","","17","","13","","9.7","","99.48","","","","","","Heavy Rain Showers,Fog"
"2013-09-07 10:00","2013","09","07","10:00","15.6","","14.2","","91","","23","","24","","6.4","","99.48","","","","","","Heavy Rain Showers,Fog"
"2013-09-07 11:00","2013","09","07","11:00","15.8","","14.7","","93","","21","","22","","8.1","","99.39","","","","","","Moderate Rain Showers,Fog"
"2013-09-07 12:00","2013","09","07","12:00","16.7","","15.4","","92","","22","","22","","12.9","","99.32","","","","","","Rain Showers"
"2013-09-07 13:00","2013","09","07","13:00","16.8","","15.7","","93","","23","","21","","9.7","","99.30","","","","","","Rain Showers"
"2013-09-07 14:00","2013","09","07","14:00","18.1","","16.5","","90","","24","","15","","9.7","","99.25","","","","","","Rain"
"2013-09-07 15:00","2013","09","07","15:00","19.1","","17.1","","88","","24","","15","","24.1","","99.22","","","","","","NA"
"2013-09-07 16:00","2013","09","07","16:00","19.8","","17.4","","86","","23","","15","","16.1","","99.16","","","","","","Cloudy"
"2013-09-07 17:00","2013","09","07","17:00","20.3","","17.7","","85","","23","","10","","16.1","","99.15","","26","","","","NA"
"2013-09-07 18:00","2013","09","07","18:00","20.4","","17.8","","85","","21","","14","","16.1","","99.14","","26","","","","NA"
"2013-09-07 19:00","2013","09","07","19:00","20.1","","17.9","","87","","22","","8","","16.1","","99.14","","26","","","","Cloudy"
"2013-09-07 20:00","2013","09","07","20:00","19.9","","17.7","","87","","22","","9","","12.9","","99.14","","","","","","NA"
"2013-09-07 21:00","2013","09","07","21:00","19.6","","17.8","","89","","24","","8","","12.9","","99.15","","","","","","NA"
"2013-09-07 22:00","2013","09","07","22:00","19.0","","17.7","","92","","25","","7","","9.7","","99.13","","","","","","Fog"
"2013-09-07 23:00","2013","09","07","23:00","19.9","","18.1","","89","","31","","9","","9.7","","99.15","","","","","","Fog"
"2013-09-08 00:00","2013","09","08","00:00","19.0","","17.7","","92","","32","","13","","16.1","","99.13","","","","","","NA"
"2013-09-08 01:00","2013","09","08","01:00","19.3","","17.6","","90","","35","","19","","16.1","","99.20","","","","","","Cloudy"
"2013-09-08 02:00","2013","09","08","02:00","19.1","","17.1","","88","","36","","18","","16.1","","99.19","","","","","","NA"
"2013-09-08 03:00","2013","09","08","03:00","18.0","","16.4","","90","","1","","15","","19.3","","99.25","","","","","","NA"
"2013-09-08 04:00","2013","09","08","04:00","18.4","","16.1","","86","","36","","19","","19.3","","99.33","","","","","","Cloudy"
"2013-09-08 05:00","2013","09","08","05:00","16.4","","12.6","","78","","36","","20","","24.1","","99.49","","","","","","NA"
"2013-09-08 06:00","2013","09","08","06:00","15.3","","10.1","","71","","3","","21","","24.1","","99.61","","","","","","NA"
"2013-09-08 07:00","2013","09","08","07:00","15.4","","9.4","","67","","36","","18","","24.1","","99.69","","","","","","Mainly Clear"
"2013-09-08 08:00","2013","09","08","08:00","15.8","","9.8","","67","","36","","19","","24.1","","99.74","","","","","","NA"
"2013-09-08 09:00","2013","09","08","09:00","17.0","","10.0","","63","","36","","19","","24.1","","99.76","","","","","","NA"
"2013-09-08 10:00","2013","09","08","10:00","17.4","","8.6","","56","","1","","24","","24.1","","99.80","","","","","","Mainly Clear"
"2013-09-08 11:00","2013","09","08","11:00","17.1","","9.1","","59","","36","","24","","24.1","","99.86","","","","","","NA"
"2013-09-08 12:00","2013","09","08","12:00","18.0","","9.5","","57","","34","","18","","24.1","","99.86","","","","","","NA"
"2013-09-08 13:00","2013","09","08","13:00","18.4","","8.8","","53","","3","","13","","24.1","","99.83","","","","","","Mainly Clear"
"2013-09-08 14:00","2013","09","08","14:00","19.1","","9.4","","53","","1","","15","","24.1","","99.81","","","","","","NA"
"2013-09-08 15:00","2013","09","08","15:00","19.4","","7.6","","46","","3","","13","","24.1","","99.80","","","","","","NA"
"2013-09-08 16:00","2013","09","08","16:00","19.0","","7.2","","46","","2","","10","","24.1","","99.80","","","","","","Mainly Clear"
"2013-09-08 17:00","2013","09","08","17:00","19.3","","7.5","","46","","34","","11","","24.1","","99.81","","","","","","NA"
"2013-09-08 18:00","2013","09","08","18:00","18.1","","8.5","","53","","1","","17","","24.1","","99.82","","","","","","NA"
"2013-09-08 19:00","2013","09","08","19:00","16.5","","9.3","","62","","36","","19","","24.1","","99.83","","","","","","Mostly Cloudy"
"2013-09-08 20:00","2013","09","08","20:00","15.1","","9.3","","68","","1","","18","","24.1","","99.88","","","","","","NA"
"2013-09-08 21:00","2013","09","08","21:00","14.2","","9.1","","71","","1","","17","","24.1","","99.89","","","","","","NA"
"2013-09-08 22:00","2013","09","08","22:00","13.4","","9.3","","76","","36","","11","","24.1","","99.89","","","","","","Mostly Cloudy"
"2013-09-08 23:00","2013","09","08","23:00","13.3","","9.2","","76","","1","","5","","24.1","","99.93","","","","","","NA"
"2013-09-09 00:00","2013","09","09","00:00","12.4","","9.1","","80","","35","","5","","24.1","","99.92","","","","","","NA"
"2013-09-09 01:00","2013","09","09","01:00","11.9","","9.3","","84","","1","","6","","24.1","","99.93","","","","","","Mostly Cloudy"
"2013-09-09 02:00","2013","09","09","02:00","10.9","","8.7","","86","","31","","10","","24.1","","99.96","","","","","","NA"
"2013-09-09 03:00","2013","09","09","03:00","10.6","","8.5","","87","","1","","2","","24.1","","99.92","","","","","","NA"
"2013-09-09 04:00","2013","09","09","04:00","11.2","","8.6","","84","","33","","2","","24.1","","99.93","","","","","","Mostly Cloudy"
"2013-09-09 05:00","2013","09","09","05:00","10.3","","8.1","","86","","29","","6","","24.1","","99.96","","","","","","NA"
"2013-09-09 06:00","2013","09","09","06:00","11.8","","8.9","","82","","6","","4","","24.1","","99.94","","","","","","NA"
"2013-09-09 07:00","2013","09","09","07:00","12.8","","9.3","","79","","4","","5","","24.1","","99.92","","","","","","Mostly Cloudy"
"2013-09-09 08:00","2013","09","09","08:00","14.1","","11.1","","82","","","","0","","24.1","","99.87","","","","","","NA"
"2013-09-09 09:00","2013","09","09","09:00","16.2","","11.8","","75","","18","","7","","24.1","","99.87","","","","","","NA"
"2013-09-09 10:00","2013","09","09","10:00","17.9","","10.6","","62","","15","","11","","24.1","","99.82","","","","","","Mostly Cloudy"
"2013-09-09 11:00","2013","09","09","11:00","18.8","","9.4","","54","","9","","7","","24.1","","99.80","","","","","","NA"
"2013-09-09 12:00","2013","09","09","12:00","19.4","","9.1","","51","","12","","9","","24.1","","99.75","","","","","","NA"
"2013-09-09 13:00","2013","09","09","13:00","18.1","","9.8","","58","","14","","18","","24.1","","99.69","","","","","","Mostly Cloudy"
"2013-09-09 14:00","2013","09","09","14:00","19.0","","10.7","","58","","15","","12","","24.1","","99.65","","","","","","NA"
"2013-09-09 15:00","2013","09","09","15:00","19.5","","10.9","","57","","15","","13","","24.1","","99.60","","","","","","NA"
"2013-09-09 16:00","2013","09","09","16:00","19.3","","12.4","","64","","14","","13","","24.1","","99.56","","","","","","Mostly Cloudy"
"2013-09-09 17:00","2013","09","09","17:00","18.9","","12.7","","67","","15","","11","","24.1","","99.50","","","","","","NA"
"2013-09-09 18:00","2013","09","09","18:00","17.8","","11.7","","67","","15","","14","","24.1","","99.47","","","","","","NA"
"2013-09-09 19:00","2013","09","09","19:00","16.7","","12.9","","78","","13","","10","","24.1","","99.44","","","","","","Mostly Cloudy"
"2013-09-09 20:00","2013","09","09","20:00","16.9","","13.3","","79","","14","","6","","24.1","","99.49","","","","","","NA"
"2013-09-09 21:00","2013","09","09","21:00","16.7","","14.2","","85","","15","","13","","24.1","","99.29","","","","","","Rain Showers"
"2013-09-09 22:00","2013","09","09","22:00","16.8","","14.7","","87","","12","","5","","24.1","","99.33","","","","","","Mostly Cloudy"
"2013-09-09 23:00","2013","09","09","23:00","17.4","","15.2","","87","","5","","3","","24.1","","99.37","","","","","","Rain Showers"
"2013-09-10 00:00","2013","09","10","00:00","17.9","","16.1","","89","","9","","5","","16.1","","99.32","","","","","","NA"
"2013-09-10 01:00","2013","09","10","01:00","18.1","","16.1","","88","","13","","8","","16.1","","99.26","","","","","","Mostly Cloudy"
"2013-09-10 02:00","2013","09","10","02:00","17.9","","16.1","","89","","15","","14","","19.3","","99.17","","","","","","NA"
"2013-09-10 03:00","2013","09","10","03:00","17.6","","16.1","","91","","18","","7","","16.1","","99.15","","","","","","NA"
"2013-09-10 04:00","2013","09","10","04:00","17.8","","16.3","","91","","17","","1","","16.1","","99.11","","","","","","Cloudy"
"2013-09-10 05:00","2013","09","10","05:00","18.4","","16.9","","91","","19","","5","","16.1","","99.06","","","","","","NA"
"2013-09-10 06:00","2013","09","10","06:00","20.3","","18.5","","89","","16","","15","","8.1","","99.14","","27","","","","Fog"
"2013-09-10 07:00","2013","09","10","07:00","21.4","","19.0","","86","","10","","8","","9.7","","99.16","","28","","","","Fog"
"2013-09-10 08:00","2013","09","10","08:00","23.2","","20.2","","83","","18","","11","","9.7","","99.18","","31","","","","Fog"
"2013-09-10 09:00","2013","09","10","09:00","25.8","","21.5","","77","","19","","9","","12.9","","99.24","","35","","","","NA"
"2013-09-10 10:00","2013","09","10","10:00","28.2","","22.6","","71","","24","","18","","16.1","","99.25","","38","","","","Mostly Cloudy"
"2013-09-10 11:00","2013","09","10","11:00","29.9","","22.5","","64","","25","","24","","16.1","","99.24","","40","","","","NA"
"2013-09-10 12:00","2013","09","10","12:00","30.9","","23.0","","62","","25","","24","","24.1","","99.23","","41","","","","NA"
"2013-09-10 13:00","2013","09","10","13:00","32.5","","23.4","","58","","23","","21","","24.1","","99.20","","43","","","","Mainly Clear"
"2013-09-10 14:00","2013","09","10","14:00","33.2","","22.6","","53","","23","","31","","24.1","","99.19","","43","","","","NA"
"2013-09-10 15:00","2013","09","10","15:00","33.9","","22.0","","49","","26","","31","","24.1","","99.18","","43","","","","NA"
"2013-09-10 16:00","2013","09","10","16:00","33.8","","22.2","","50","","25","","27","","24.1","","99.18","","43","","","","Clear"
"2013-09-10 17:00","2013","09","10","17:00","33.5","","20.9","","47","","25","","26","","24.1","","99.19","","42","","","","NA"
"2013-09-10 18:00","2013","09","10","18:00","31.6","","22.5","","58","","22","","27","","24.1","","99.23","","41","","","","NA"
"2013-09-10 19:00","2013","09","10","19:00","30.0","","22.1","","62","","22","","18","","19.3","","99.25","","39","","","","Clear"
"2013-09-10 20:00","2013","09","10","20:00","28.9","","22.1","","66","","23","","21","","24.1","","99.34","","38","","","","NA"
"2013-09-10 21:00","2013","09","10","21:00","28.0","","21.4","","67","","24","","22","","24.1","","99.38","","37","","","","NA"
"2013-09-10 22:00","2013","09","10","22:00","27.2","","21.4","","70","","24","","26","","24.1","","99.42","","36","","","","Clear"
"2013-09-10 23:00","2013","09","10","23:00","26.1","","20.3","","70","","24","","23","","24.1","","99.42","","34","","","","NA"
"2013-09-11 00:00","2013","09","11","00:00","25.7","","19.5","","68","","25","","21","","24.1","","99.43","","33","","","","NA"
"2013-09-11 01:00","2013","09","11","01:00","25.5","","19.3","","68","","23","","18","","24.1","","99.41","","33","","","","Clear"
"2013-09-11 02:00","2013","09","11","02:00","25.2","","19.5","","70","","23","","16","","24.1","","99.40","","32","","","","NA"
"2013-09-11 03:00","2013","09","11","03:00","24.1","","19.5","","75","","24","","14","","24.1","","99.40","","31","","","","NA"
"2013-09-11 04:00","2013","09","11","04:00","24.0","","19.8","","77","","24","","17","","24.1","","99.41","","31","","","","Clear"
"2013-09-11 05:00","2013","09","11","05:00","23.2","","19.6","","80","","25","","17","","24.1","","99.45","","30","","","","NA"
"2013-09-11 06:00","2013","09","11","06:00","22.3","","19.3","","83","","23","","11","","24.1","","99.51","","29","","","","NA"
"2013-09-11 07:00","2013","09","11","07:00","23.9","","19.9","","78","","25","","13","","24.1","","99.52","","31","","","","Mostly Cloudy"
"2013-09-11 08:00","2013","09","11","08:00","25.8","","20.5","","72","","23","","11","","24.1","","99.50","","34","","","","NA"
"2013-09-11 09:00","2013","09","11","09:00","26.8","","20.3","","67","","23","","11","","24.1","","99.51","","35","","","","NA"
"2013-09-11 10:00","2013","09","11","10:00","28.1","","20.6","","63","","21","","21","","24.1","","99.46","","36","","","","Mainly Clear"
"2013-09-11 11:00","2013","09","11","11:00","30.1","","20.8","","57","","22","","26","","24.1","","99.45","","38","","","","NA"
"2013-09-11 12:00","2013","09","11","12:00","31.0","","20.8","","54","","24","","28","","24.1","","99.41","","39","","","","NA"
"2013-09-11 13:00","2013","09","11","13:00","32.0","","20.8","","51","","23","","14","","24.1","","99.34","","40","","","","Mainly Clear"
"2013-09-11 14:00","2013","09","11","14:00","31.6","","21.1","","53","","25","","26","","24.1","","99.31","","40","","","","NA"
"2013-09-11 15:00","2013","09","11","15:00","30.3","","21.0","","57","","25","","24","","24.1","","99.23","","39","","","","NA"
"2013-09-11 16:00","2013","09","11","16:00","26.2","","19.5","","66","","22","","22","","24.1","","99.27","","33","","","","Thunderstorms"
"2013-09-11 17:00","2013","09","11","17:00","25.1","","20.7","","76","","24","","18","","24.1","","99.28","","33","","","","NA"
"2013-09-11 18:00","2013","09","11","18:00","25.1","","18.9","","68","","25","","19","","24.1","","99.24","","32","","","","NA"
"2013-09-11 19:00","2013","09","11","19:00","23.6","","19.2","","76","","25","","12","","24.1","","99.20","","31","","","","Mostly Cloudy"
"2013-09-11 20:00","2013","09","11","20:00","24.3","","19.2","","73","","27","","10","","24.1","","99.28","","31","","","","NA"
"2013-09-11 21:00","2013","09","11","21:00","24.0","","20.0","","78","","26","","21","","24.1","","99.34","","32","","","","Thunderstorms,Rain Showers"
"2013-09-11 22:00","2013","09","11","22:00","21.6","","20.1","","91","","27","","23","","16.1","","99.35","","29","","","","Thunderstorms,Rain Showers"
"2013-09-11 23:00","2013","09","11","23:00","21.3","","19.4","","89","","27","","18","","16.1","","99.27","","28","","","","Thunderstorms,Rain Showers"
"2013-09-12 00:00","2013","09","12","00:00","20.9","","19.1","","89","","29","","8","","24.1","","99.08","","28","","","","NA"
"2013-09-12 01:00","2013","09","12","01:00","20.7","","19.2","","91","","16","","10","","24.1","","99.09","","28","","","","Mostly Cloudy"
"2013-09-12 02:00","2013","09","12","02:00","20.4","","19.1","","92","","22","","10","","24.1","","99.10","","27","","","","NA"
"2013-09-12 03:00","2013","09","12","03:00","20.5","","19.2","","92","","29","","7","","16.1","","99.04","","27","","","","Rain Showers"
"2013-09-12 04:00","2013","09","12","04:00","20.4","","18.7","","90","","25","","9","","16.1","","99.01","","27","","","","Cloudy"
"2013-09-12 05:00","2013","09","12","05:00","20.4","","18.7","","90","","22","","12","","16.1","","99.02","","27","","","","NA"
"2013-09-12 06:00","2013","09","12","06:00","20.1","","18.8","","92","","24","","11","","16.1","","99.04","","27","","","","NA"
"2013-09-12 07:00","2013","09","12","07:00","20.3","","18.8","","91","","25","","10","","16.1","","99.03","","27","","","","Mostly Cloudy"
"2013-09-12 08:00","2013","09","12","08:00","21.5","","18.9","","85","","26","","16","","19.3","","98.98","","28","","","","NA"
"2013-09-12 09:00","2013","09","12","09:00","21.2","","18.3","","83","","22","","17","","24.1","","98.93","","27","","","","NA"
"2013-09-12 10:00","2013","09","12","10:00","21.6","","18.1","","80","","25","","23","","24.1","","98.92","","28","","","","Mostly Cloudy"
"2013-09-12 11:00","2013","09","12","11:00","22.3","","18.4","","78","","26","","15","","24.1","","98.89","","29","","","","NA"
"2013-09-12 12:00","2013","09","12","12:00","22.9","","17.9","","73","","26","","20","","24.1","","98.85","","29","","","","NA"
"2013-09-12 13:00","2013","09","12","13:00","20.7","","17.6","","82","","30","","29","","24.1","","98.83","","26","","","","Mostly Cloudy"
"2013-09-12 14:00","2013","09","12","14:00","20.6","","15.0","","70","","29","","16","","24.1","","98.83","","25","","","","NA"
"2013-09-12 15:00","2013","09","12","15:00","22.4","","12.5","","53","","31","","36","","24.1","","98.75","","25","","","","NA"
"2013-09-12 16:00","2013","09","12","16:00","22.5","","12.3","","52","","31","","36","","24.1","","98.74","","25","","","","Mainly Clear"
"2013-09-12 17:00","2013","09","12","17:00","22.6","","12.1","","51","","31","","31","","24.1","","98.74","","25","","","","NA"
"2013-09-12 18:00","2013","09","12","18:00","20.5","","14.0","","66","","36","","22","","24.1","","98.81","","","","","","NA"
"2013-09-12 19:00","2013","09","12","19:00","18.9","","12.5","","66","","34","","26","","24.1","","98.87","","","","","","Mainly Clear"
"2013-09-12 20:00","2013","09","12","20:00","17.9","","12.2","","69","","33","","25","","24.1","","98.94","","","","","","NA"
"2013-09-12 21:00","2013","09","12","21:00","17.7","","11.8","","68","","33","","28","","24.1","","98.92","","","","","","NA"
"2013-09-12 22:00","2013","09","12","22:00","16.8","","11.8","","72","","31","","23","","24.1","","98.93","","","","","","Mainly Clear"
"2013-09-12 23:00","2013","09","12","23:00","16.0","","11.6","","75","","35","","22","","24.1","","98.89","","","","","","NA"
"2013-09-13 00:00","2013","09","13","00:00","15.0","","11.4","","79","","35","","20","","24.1","","98.93","","","","","","NA"
"2013-09-13 01:00","2013","09","13","01:00","14.9","","10.4","","74","","34","","22","","24.1","","99.03","","","","","","Mostly Cloudy"
"2013-09-13 02:00","2013","09","13","02:00","14.0","","9.7","","75","","34","","22","","24.1","","98.99","","","","","","NA"
"2013-09-13 03:00","2013","09","13","03:00","13.1","","9.0","","76","","35","","20","","24.1","","99.03","","","","","","NA"
"2013-09-13 04:00","2013","09","13","04:00","12.4","","8.5","","77","","34","","21","","24.1","","99.08","","","","","","Mostly Cloudy"
"2013-09-13 05:00","2013","09","13","05:00","12.1","","8.2","","77","","33","","23","","24.1","","99.10","","","","","","NA"
"2013-09-13 06:00","2013","09","13","06:00","11.5","","6.7","","72","","35","","30","","24.1","","99.15","","","","","","NA"
"2013-09-13 07:00","2013","09","13","07:00","11.2","","5.6","","68","","35","","28","","24.1","","99.24","","","","","","Mostly Cloudy"
"2013-09-13 08:00","2013","09","13","08:00","10.7","","5.5","","70","","35","","26","","24.1","","99.30","","","","","","NA"
"2013-09-13 09:00","2013","09","13","09:00","10.8","","5.4","","69","","35","","32","","24.1","","99.34","","","","","","NA"
"2013-09-13 10:00","2013","09","13","10:00","11.2","","4.9","","65","","34","","28","","24.1","","99.38","","","","","","Mostly Cloudy"
"2013-09-13 11:00","2013","09","13","11:00","11.2","","5.6","","68","","36","","27","","24.1","","99.44","","","","","","NA"
"2013-09-13 12:00","2013","09","13","12:00","11.5","","5.4","","66","","35","","21","","24.1","","99.45","","","","","","NA"
"2013-09-13 13:00","2013","09","13","13:00","11.5","","5.2","","65","","1","","21","","24.1","","99.46","","","","","","Cloudy"
"2013-09-13 14:00","2013","09","13","14:00","11.5","","5.0","","64","","33","","25","","24.1","","99.45","","","","","","NA"
"2013-09-13 15:00","2013","09","13","15:00","11.5","","5.0","","64","","35","","26","","24.1","","99.49","","","","","","NA"
"2013-09-13 16:00","2013","09","13","16:00","11.5","","5.0","","64","","34","","22","","24.1","","99.51","","","","","","Cloudy"
"2013-09-13 17:00","2013","09","13","17:00","11.1","","4.1","","62","","35","","27","","24.1","","99.55","","","","","","NA"
"2013-09-13 18:00","2013","09","13","18:00","10.8","","3.4","","60","","35","","27","","24.1","","99.62","","","","","","NA"
"2013-09-13 19:00","2013","09","13","19:00","10.5","","3.1","","60","","35","","22","","24.1","","99.68","","","","","","Mostly Cloudy"
"2013-09-13 20:00","2013","09","13","20:00","10.6","","3.0","","59","","35","","19","","24.1","","99.73","","","","","","NA"
"2013-09-13 21:00","2013","09","13","21:00","10.5","","3.6","","62","","35","","17","","24.1","","99.78","","","","","","NA"
"2013-09-13 22:00","2013","09","13","22:00","10.3","","3.6","","63","","35","","15","","24.1","","99.78","","","","","","Cloudy"
"2013-09-13 23:00","2013","09","13","23:00","10.3","","3.2","","61","","33","","18","","24.1","","99.75","","","","","","NA"
"2013-09-14 00:00","2013","09","14","00:00","10.1","","2.7","","60","","33","","20","","24.1","","99.74","","","","","","NA"
"2013-09-14 01:00","2013","09","14","01:00","9.3","","3.1","","65","","35","","14","","24.1","","99.77","","","","","","Mostly Cloudy"
"2013-09-14 02:00","2013","09","14","02:00","7.9","","2.8","","70","","34","","15","","24.1","","99.80","","","","","","NA"
"2013-09-14 03:00","2013","09","14","03:00","6.8","","2.9","","76","","34","","19","","24.1","","99.81","","","","","","NA"
"2013-09-14 04:00","2013","09","14","04:00","6.6","","2.9","","77","","34","","17","","24.1","","99.84","","","","","","Mainly Clear"
"2013-09-14 05:00","2013","09","14","05:00","5.6","","2.6","","81","","34","","14","","24.1","","99.87","","","","","","NA"
"2013-09-14 06:00","2013","09","14","06:00","5.6","","2.4","","80","","33","","12","","24.1","","99.91","","","","","","NA"
"2013-09-14 07:00","2013","09","14","07:00","6.6","","2.9","","77","","32","","18","","24.1","","99.96","","","","","","Mainly Clear"
"2013-09-14 08:00","2013","09","14","08:00","8.6","","3.3","","69","","34","","13","","24.1","","99.99","","","","","","NA"
"2013-09-14 09:00","2013","09","14","09:00","9.7","","3.5","","65","","34","","12","","24.1","","100.04","","","","","","NA"
"2013-09-14 10:00","2013","09","14","10:00","11.4","","3.0","","56","","33","","15","","24.1","","100.01","","","","","","Mainly Clear"
"2013-09-14 11:00","2013","09","14","11:00","12.8","","2.7","","50","","31","","14","","24.1","","99.97","","","","","","NA"
"2013-09-14 12:00","2013","09","14","12:00","14.2","","2.2","","44","","32","","9","","24.1","","99.93","","","","","","NA"
"2013-09-14 13:00","2013","09","14","13:00","16.1","","2.9","","41","","33","","13","","24.1","","99.88","","","","","","Mainly Clear"
"2013-09-14 14:00","2013","09","14","14:00","16.6","","5.3","","47","","16","","15","","24.1","","99.83","","","","","","NA"
"2013-09-14 15:00","2013","09","14","15:00","16.9","","6.5","","50","","15","","13","","24.1","","99.77","","","","","","NA"
"2013-09-14 16:00","2013","09","14","16:00","16.9","","5.6","","47","","15","","15","","24.1","","99.76","","","","","","Mainly Clear"
"2013-09-14 17:00","2013","09","14","17:00","16.2","","7.2","","55","","16","","15","","24.1","","99.74","","","","","","NA"
"2013-09-14 18:00","2013","09","14","18:00","15.6","","7.9","","60","","14","","9","","24.1","","99.74","","","","","","NA"
"2013-09-14 19:00","2013","09","14","19:00","15.3","","7.9","","61","","15","","8","","24.1","","99.76","","","","","","Mainly Clear"
"2013-09-14 20:00","2013","09","14","20:00","14.7","","7.8","","63","","26","","17","","24.1","","99.82","","","","","","NA"
"2013-09-14 21:00","2013","09","14","21:00","13.8","","8.3","","69","","28","","17","","24.1","","99.85","","","","","","NA"
"2013-09-14 22:00","2013","09","14","22:00","11.4","","7.5","","77","","26","","12","","24.1","","99.82","","","","","","Mainly Clear"
"2013-09-14 23:00","2013","09","14","23:00","11.9","","8.0","","77","","24","","13","","24.1","","99.84","","","","","","NA"
"2013-09-15 00:00","2013","09","15","00:00","10.7","","7.2","","79","","25","","12","","24.1","","99.83","","","","","","NA"
"2013-09-15 01:00","2013","09","15","01:00","11.5","","8.6","","82","","24","","10","","24.1","","99.82","","","","","","Mostly Cloudy"
"2013-09-15 02:00","2013","09","15","02:00","10.8","","8.2","","84","","24","","12","","24.1","","99.81","","","","","","NA"
"2013-09-15 03:00","2013","09","15","03:00","11.2","","8.3","","82","","26","","16","","24.1","","99.77","","","","","","NA"
"2013-09-15 04:00","2013","09","15","04:00","10.1","","7.9","","86","","25","","10","","24.1","","99.82","","","","","","Mostly Cloudy"
"2013-09-15 05:00","2013","09","15","05:00","10.3","","7.9","","85","","27","","10","","24.1","","99.84","","","","","","NA"
"2013-09-15 06:00","2013","09","15","06:00","10.6","","8.4","","86","","25","","12","","24.1","","99.88","","","","","","NA"
"2013-09-15 07:00","2013","09","15","07:00","12.0","","8.5","","79","","25","","14","","24.1","","99.91","","","","","","Mostly Cloudy"
"2013-09-15 08:00","2013","09","15","08:00","14.0","","9.5","","74","","26","","13","","24.1","","99.90","","","","","","NA"
"2013-09-15 09:00","2013","09","15","09:00","16.3","","10.7","","69","","25","","13","","24.1","","99.92","","","","","","NA"
"2013-09-15 10:00","2013","09","15","10:00","17.9","","10.6","","62","","23","","24","","24.1","","99.88","","","","","","Mostly Cloudy"
"2013-09-15 11:00","2013","09","15","11:00","18.3","","10.5","","60","","25","","27","","24.1","","99.84","","","","","","NA"
"2013-09-15 12:00","2013","09","15","12:00","18.7","","9.3","","54","","25","","19","","24.1","","99.77","","","","","","NA"
"2013-09-15 13:00","2013","09","15","13:00","18.9","","8.9","","52","","21","","22","","24.1","","99.69","","","","","","Cloudy"
"2013-09-15 14:00","2013","09","15","14:00","18.9","","10.6","","58","","22","","22","","24.1","","99.71","","","","","","NA"
"2013-09-15 15:00","2013","09","15","15:00","18.4","","9.3","","55","","25","","21","","24.1","","99.68","","","","","","NA"
"2013-09-15 16:00","2013","09","15","16:00","17.7","","10.4","","62","","23","","16","","24.1","","99.71","","","","","","Rain Showers"
"2013-09-15 17:00","2013","09","15","17:00","17.2","","9.9","","62","","23","","15","","24.1","","99.72","","","","","","NA"
"2013-09-15 18:00","2013","09","15","18:00","14.2","","10.5","","78","","24","","20","","19.3","","99.79","","","","","","Rain Showers"
"2013-09-15 19:00","2013","09","15","19:00","13.6","","9.7","","77","","23","","19","","19.3","","99.77","","","","","","Rain Showers"
"2013-09-15 20:00","2013","09","15","20:00","13.8","","8.5","","70","","23","","14","","19.3","","99.85","","","","","","Rain Showers"
"2013-09-15 21:00","2013","09","15","21:00","12.7","","8.6","","76","","25","","16","","19.3","","99.86","","","","","","Rain Showers"
"2013-09-15 22:00","2013","09","15","22:00","11.9","","9.7","","86","","25","","9","","19.3","","99.84","","","","","","Rain Showers"
"2013-09-15 23:00","2013","09","15","23:00","12.0","","9.8","","86","","23","","9","","24.1","","99.76","","","","","","NA"
"2013-09-16 00:00","2013","09","16","00:00","12.2","","9.8","","85","","26","","14","","24.1","","99.74","","","","","","NA"
"2013-09-16 01:00","2013","09","16","01:00","12.3","","10.2","","87","","28","","10","","24.1","","99.75","","","","","","Mostly Cloudy"
"2013-09-16 02:00","2013","09","16","02:00","11.9","","10.2","","89","","29","","13","","24.1","","99.75","","","","","","NA"
"2013-09-16 03:00","2013","09","16","03:00","11.6","","10.0","","90","","28","","6","","24.1","","99.76","","","","","","NA"
"2013-09-16 04:00","2013","09","16","04:00","12.2","","10.6","","90","","28","","9","","24.1","","99.80","","","","","","Mostly Cloudy"
"2013-09-16 05:00","2013","09","16","05:00","13.6","","11.5","","87","","33","","26","","24.1","","99.86","","","","","","NA"
"2013-09-16 06:00","2013","09","16","06:00","11.3","","9.6","","89","","35","","34","","24.1","","100.02","","","","","","Rain"
"2013-09-16 07:00","2013","09","16","07:00","10.7","","8.5","","86","","35","","29","","24.1","","100.11","","","","","","Mostly Cloudy"
"2013-09-16 08:00","2013","09","16","08:00","10.7","","6.7","","76","","2","","30","","24.1","","100.21","","","","","","NA"
"2013-09-16 09:00","2013","09","16","09:00","9.3","","7.6","","89","","1","","27","","24.1","","100.34","","","","","","Rain"
"2013-09-16 10:00","2013","09","16","10:00","9.8","","6.5","","80","","4","","16","","24.1","","100.42","","","","","","Cloudy"
"2013-09-16 11:00","2013","09","16","11:00","10.0","","6.2","","77","","1","","19","","24.1","","100.48","","","","","","NA"
"2013-09-16 12:00","2013","09","16","12:00","11.5","","5.8","","68","","2","","19","","24.1","","100.50","","","","","","NA"
"2013-09-16 13:00","2013","09","16","13:00","12.1","","5.5","","64","","3","","17","","24.1","","100.53","","","","","","Mainly Clear"
"2013-09-16 14:00","2013","09","16","14:00","13.6","","5.6","","58","","1","","16","","24.1","","100.52","","","","","","NA"
"2013-09-16 15:00","2013","09","16","15:00","13.9","","4.8","","54","","35","","23","","24.1","","100.50","","","","","","NA"
"2013-09-16 16:00","2013","09","16","16:00","13.8","","4.7","","54","","33","","21","","24.1","","100.52","","","","","","Clear"
"2013-09-16 17:00","2013","09","16","17:00","13.3","","4.3","","54","","35","","21","","24.1","","100.56","","","","","","NA"
"2013-09-16 18:00","2013","09","16","18:00","11.9","","4.2","","59","","35","","19","","24.1","","100.62","","","","","","NA"
"2013-09-16 19:00","2013","09","16","19:00","10.6","","4.1","","64","","35","","20","","24.1","","100.67","","","","","","Clear"
"2013-09-16 20:00","2013","09","16","20:00","9.5","","4.1","","69","","34","","19","","24.1","","100.74","","","","","","NA"
"2013-09-16 21:00","2013","09","16","21:00","8.6","","3.7","","71","","35","","21","","24.1","","100.77","","","","","","NA"
"2013-09-16 22:00","2013","09","16","22:00","7.8","","3.9","","76","","36","","19","","24.1","","100.80","","","","","","Clear"
"2013-09-16 23:00","2013","09","16","23:00","6.9","","3.7","","80","","2","","16","","24.1","","100.83","","","","","","NA"
"2013-09-17 00:00","2013","09","17","00:00","6.2","","3.5","","83","","1","","11","","24.1","","100.86","","","","","","NA"
"2013-09-17 01:00","2013","09","17","01:00","6.0","","3.3","","83","","2","","9","","24.1","","100.88","","","","","","Clear"
"2013-09-17 02:00","2013","09","17","02:00","5.7","","3.1","","83","","2","","8","","24.1","","100.90","","","","","","NA"
"2013-09-17 03:00","2013","09","17","03:00","5.6","","2.6","","81","","3","","10","","24.1","","100.94","","","","","","NA"
"2013-09-17 04:00","2013","09","17","04:00","6.3","","2.4","","76","","35","","5","","24.1","","100.96","","","","","","Clear"
"2013-09-17 05:00","2013","09","17","05:00","5.4","","2.2","","80","","36","","6","","24.1","","101.00","","","","","","NA"
"2013-09-17 06:00","2013","09","17","06:00","6.2","","2.1","","75","","32","","7","","24.1","","101.01","","","","","","NA"
"2013-09-17 07:00","2013","09","17","07:00","6.9","","3.2","","77","","32","","5","","24.1","","101.07","","","","","","Clear"
"2013-09-17 08:00","2013","09","17","08:00","9.4","","4.2","","70","","2","","6","","24.1","","101.11","","","","","","NA"
"2013-09-17 09:00","2013","09","17","09:00","12.6","","6.2","","65","","10","","6","","24.1","","101.11","","","","","","NA"
"2013-09-17 10:00","2013","09","17","10:00","13.9","","6.6","","61","","14","","13","","24.1","","101.09","","","","","","Mainly Clear"
"2013-09-17 11:00","2013","09","17","11:00","14.5","","6.7","","59","","13","","11","","24.1","","101.07","","","","","","NA"
"2013-09-17 12:00","2013","09","17","12:00","14.5","","6.4","","58","","15","","13","","24.1","","101.02","","","","","","NA"
"2013-09-17 13:00","2013","09","17","13:00","15.4","","5.7","","52","","15","","17","","24.1","","100.94","","","","","","Clear"
"2013-09-17 14:00","2013","09","17","14:00","14.8","","5.9","","55","","12","","18","","24.1","","100.86","","","","","","NA"
"2013-09-17 15:00","2013","09","17","15:00","15.4","","6.0","","53","","13","","10","","24.1","","100.76","","","","","","NA"
"2013-09-17 16:00","2013","09","17","16:00","14.9","","6.5","","57","","11","","10","","24.1","","100.69","","","","","","Clear"
"2013-09-17 17:00","2013","09","17","17:00","14.9","","7.0","","59","","14","","9","","24.1","","100.66","","","","","","NA"
"2013-09-17 18:00","2013","09","17","18:00","13.9","","","M","","M","13","","8","","24.1","","100.62","","","","","","NA"
"2013-09-17 19:00","2013","09","17","19:00","12.2","","","M","","M","13","","7","","24.1","","100.58","","","","","","Clear"
"2013-09-17 20:00","2013","09","17","20:00","11.6","","7.7","","77","","8","","5","","24.1","","100.59","","","","","","NA"
"2013-09-17 21:00","2013","09","17","21:00","11.2","","7.9","","80","","6","","5","","24.1","","100.54","","","","","","NA"
"2013-09-17 22:00","2013","09","17","22:00","11.4","","7.9","","79","","5","","5","","24.1","","100.52","","","","","","Clear"
"2013-09-17 23:00","2013","09","17","23:00","11.0","","7.9","","81","","1","","7","","24.1","","100.47","","","","","","NA"
"2013-09-18 00:00","2013","09","18","00:00","10.7","","7.8","","82","","36","","7","","24.1","","100.43","","","","","","NA"
"2013-09-18 01:00","2013","09","18","01:00","8.6","","6.6","","87","","34","","7","","24.1","","100.41","","","","","","Clear"
"2013-09-18 02:00","2013","09","18","02:00","8.8","","6.9","","88","","2","","4","","24.1","","100.39","","","","","","NA"
"2013-09-18 03:00","2013","09","18","03:00","8.4","","6.4","","87","","34","","2","","24.1","","100.34","","","","","","NA"
"2013-09-18 04:00","2013","09","18","04:00","8.0","","6.3","","89","","2","","8","","24.1","","100.30","","","","","","Clear"
"2013-09-18 05:00","2013","09","18","05:00","6.5","","5.0","","90","","30","","3","","24.1","","100.32","","","","","","NA"
"2013-09-18 06:00","2013","09","18","06:00","7.8","","6.0","","88","","33","","9","","19.3","","100.35","","","","","","NA"
"2013-09-18 07:00","2013","09","18","07:00","9.2","","7.7","","90","","3","","6","","19.3","","100.34","","","","","","Mainly Clear"
"2013-09-18 08:00","2013","09","18","08:00","12.0","","9.4","","84","","35","","4","","19.3","","100.31","","","","","","NA"
"2013-09-18 09:00","2013","09","18","09:00","15.1","","11.1","","77","","22","","4","","24.1","","100.30","","","","","","NA"
"2013-09-18 10:00","2013","09","18","10:00","17.4","","9.4","","59","","22","","9","","24.1","","100.26","","","","","","Mainly Clear"
"2013-09-18 11:00","2013","09","18","11:00","19.1","","9.7","","54","","18","","10","","24.1","","100.23","","","","","","NA"
"2013-09-18 12:00","2013","09","18","12:00","19.8","","10.9","","56","","16","","14","","24.1","","100.15","","","","","","NA"
"2013-09-18 13:00","2013","09","18","13:00","19.5","","10.1","","54","","15","","16","","24.1","","100.07","","","","","","Mainly Clear"
"2013-09-18 14:00","2013","09","18","14:00","20.0","","8.8","","48","","16","","17","","24.1","","100.01","","","","","","NA"
"2013-09-18 15:00","2013","09","18","15:00","19.8","","7.7","","45","","13","","15","","24.1","","99.96","","","","","","NA"
"2013-09-18 16:00","2013","09","18","16:00","20.5","","8.3","","45","","15","","16","","24.1","","99.92","","","","","","Mainly Clear"
"2013-09-18 17:00","2013","09","18","17:00","19.8","","7.7","","45","","15","","19","","24.1","","99.87","","","","","","NA"
"2013-09-18 18:00","2013","09","18","18:00","17.4","","8.4","","55","","14","","13","","24.1","","99.86","","","","","","NA"
"2013-09-18 19:00","2013","09","18","19:00","15.6","","9.8","","68","","13","","8","","24.1","","99.86","","","","","","Clear"
"2013-09-18 20:00","2013","09","18","20:00","15.2","","10.2","","72","","12","","9","","24.1","","99.90","","","","","","NA"
"2013-09-18 21:00","2013","09","18","21:00","14.5","","10.4","","76","","9","","4","","24.1","","99.90","","","","","","NA"
"2013-09-18 22:00","2013","09","18","22:00","13.8","","10.4","","80","","10","","4","","24.1","","99.89","","","","","","Clear"
"2013-09-18 23:00","2013","09","18","23:00","14.4","","11.4","","82","","2","","5","","24.1","","99.87","","","","","","NA"
"2013-09-19 00:00","2013","09","19","00:00","12.8","","10.2","","84","","1","","7","","24.1","","99.86","","","","","","NA"
"2013-09-19 01:00","2013","09","19","01:00","12.1","","9.0","","81","","36","","6","","24.1","","99.87","","","","","","Clear"
"2013-09-19 02:00","2013","09","19","02:00","11.7","","9.1","","84","","2","","2","","24.1","","99.83","","","","","","NA"
"2013-09-19 03:00","2013","09","19","03:00","11.2","","9.0","","86","","2","","4","","24.1","","99.84","","","","","","NA"
"2013-09-19 04:00","2013","09","19","04:00","10.3","","8.4","","88","","8","","3","","24.1","","99.80","","","","","","Clear"
"2013-09-19 05:00","2013","09","19","05:00","10.5","","8.1","","85","","35","","2","","24.1","","99.77","","","","","","NA"
"2013-09-19 06:00","2013","09","19","06:00","11.6","","9.2","","85","","31","","1","","9.7","","99.80","","","","","","Fog"
"2013-09-19 07:00","2013","09","19","07:00","11.8","","9.9","","88","","29","","3","","9.7","","99.84","","","","","","Fog"
"2013-09-19 08:00","2013","09","19","08:00","14.3","","11.8","","85","","32","","2","","9.7","","99.88","","","","","","Haze"
"2013-09-19 09:00","2013","09","19","09:00","15.6","","13.1","","85","","15","","8","","9.7","","99.89","","","","","","Haze"
"2013-09-19 10:00","2013","09","19","10:00","17.1","","14.2","","83","","16","","9","","12.9","","99.85","","","","","","Cloudy"
"2013-09-19 11:00","2013","09","19","11:00","18.8","","15.1","","79","","17","","10","","12.9","","99.81","","","","","","NA"
"2013-09-19 12:00","2013","09","19","12:00","19.8","","15.9","","78","","19","","10","","12.9","","99.81","","","","","","NA"
"2013-09-19 13:00","2013","09","19","13:00","20.6","","15.9","","74","","21","","14","","12.9","","99.71","","25","","","","Mostly Cloudy"
"2013-09-19 14:00","2013","09","19","14:00","21.1","","15.7","","71","","19","","13","","12.9","","99.67","","26","","","","NA"
"2013-09-19 15:00","2013","09","19","15:00","21.4","","16.0","","71","","18","","10","","16.1","","99.64","","26","","","","NA"
"2013-09-19 16:00","2013","09","19","16:00","22.0","","16.4","","70","","17","","13","","19.3","","99.61","","27","","","","Mostly Cloudy"
"2013-09-19 17:00","2013","09","19","17:00","21.8","","16.0","","69","","22","","15","","19.3","","99.61","","26","","","","NA"
"2013-09-19 18:00","2013","09","19","18:00","20.6","","15.5","","72","","19","","12","","19.3","","99.59","","25","","","","NA"
"2013-09-19 19:00","2013","09","19","19:00","18.1","","15.4","","84","","15","","10","","19.3","","99.60","","","","","","Mainly Clear"
"2013-09-19 20:00","2013","09","19","20:00","16.9","","15.3","","90","","15","","9","","16.1","","99.59","","","","","","NA"
"2013-09-19 21:00","2013","09","19","21:00","16.4","","15.4","","94","","14","","12","","12.9","","99.55","","","","","","NA"
"2013-09-19 22:00","2013","09","19","22:00","16.4","","15.1","","92","","13","","6","","12.9","","99.52","","","","","","Clear"
"2013-09-19 23:00","2013","09","19","23:00","16.3","","15.4","","94","","12","","5","","12.9","","99.55","","","","","","NA"
"2013-09-20 00:00","2013","09","20","00:00","16.7","","15.9","","95","","18","","4","","9.7","","99.54","","","","","","Fog"
"2013-09-20 01:00","2013","09","20","01:00","17.0","","16.0","","94","","14","","4","","8.1","","99.51","","","","","","Fog"
"2013-09-20 02:00","2013","09","20","02:00","17.2","","15.9","","92","","20","","6","","8.1","","99.46","","","","","","Fog"
"2013-09-20 03:00","2013","09","20","03:00","17.2","","15.7","","91","","15","","9","","9.7","","99.42","","","","","","Fog"
"2013-09-20 04:00","2013","09","20","04:00","16.2","","15.3","","94","","19","","6","","8.1","","99.40","","","","","","Fog"
"2013-09-20 05:00","2013","09","20","05:00","16.4","","15.6","","95","","15","","6","","6.4","","99.37","","","","","","Fog"
"2013-09-20 06:00","2013","09","20","06:00","17.1","","16.1","","94","","15","","8","","3.6","","99.33","","","","","","Fog"
"2013-09-20 07:00","2013","09","20","07:00","17.5","","16.4","","93","","15","","9","","2.4","","99.34","","","","","","Fog"
"2013-09-20 08:00","2013","09","20","08:00","18.5","","16.9","","90","","16","","12","","3.6","","99.30","","","","","","Fog"
"2013-09-20 09:00","2013","09","20","09:00","19.0","","17.0","","88","","16","","14","","6.4","","99.26","","","","","","Fog"
"2013-09-20 10:00","2013","09","20","10:00","20.0","","17.3","","84","","15","","13","","8.1","","99.19","","25","","","","Fog"
"2013-09-20 11:00","2013","09","20","11:00","21.5","","18.4","","82","","18","","19","","9.7","","99.11","","28","","","","Fog"
"2013-09-20 12:00","2013","09","20","12:00","23.4","","18.6","","74","","18","","22","","11.3","","99.09","","30","","","","NA"
"2013-09-20 13:00","2013","09","20","13:00","23.3","","18.9","","76","","18","","18","","11.3","","99.02","","30","","","","Cloudy"
"2013-09-20 14:00","2013","09","20","14:00","23.2","","19.0","","77","","19","","13","","11.3","","98.97","","30","","","","NA"
"2013-09-20 15:00","2013","09","20","15:00","23.0","","19.2","","79","","16","","12","","12.9","","98.91","","30","","","","NA"
"2013-09-20 16:00","2013","09","20","16:00","23.5","","19.1","","76","","17","","14","","19.3","","98.82","","30","","","","Cloudy"
"2013-09-20 17:00","2013","09","20","17:00","23.6","","19.6","","78","","17","","15","","14.5","","98.80","","31","","","","NA"
"2013-09-20 18:00","2013","09","20","18:00","23.4","","19.6","","79","","16","","10","","9.7","","98.72","","31","","","","Haze"
"2013-09-20 19:00","2013","09","20","19:00","22.8","","19.4","","81","","17","","10","","9.7","","98.69","","30","","","","Haze"
"2013-09-20 20:00","2013","09","20","20:00","21.7","","18.9","","84","","15","","11","","16.1","","98.69","","28","","","","NA"
"2013-09-20 21:00","2013","09","20","21:00","21.6","","19.0","","85","","13","","3","","11.3","","98.70","","28","","","","NA"
"2013-09-20 22:00","2013","09","20","22:00","21.6","","19.0","","85","","28","","14","","6.4","","98.67","","28","","","","Thunderstorms,Rain Showers"
"2013-09-20 23:00","2013","09","20","23:00","20.1","","19.1","","94","","18","","5","","16.1","","98.61","","27","","","","Rain Showers"
"2013-09-21 00:00","2013","09","21","00:00","20.1","","19.1","","94","","16","","6","","16.1","","98.58","","27","","","","Rain Showers"
"2013-09-21 01:00","2013","09","21","01:00","19.8","","18.8","","94","","17","","7","","19.3","","98.52","","","","","","Rain Showers"
"2013-09-21 02:00","2013","09","21","02:00","19.6","","18.5","","93","","23","","12","","19.3","","98.49","","","","","","Rain Showers"
"2013-09-21 03:00","2013","09","21","03:00","18.7","","16.7","","88","","29","","30","","6.4","","98.53","","","","","","Heavy Rain Showers"
"2013-09-21 04:00","2013","09","21","04:00","17.9","","16.4","","91","","28","","9","","16.1","","98.52","","","","","","Rain Showers"
"2013-09-21 05:00","2013","09","21","05:00","17.4","","16.1","","92","","18","","6","","16.1","","98.48","","","","","","Rain"
"2013-09-21 06:00","2013","09","21","06:00","16.9","","15.6","","92","","15","","4","","16.1","","98.40","","","","","","Rain"
"2013-09-21 07:00","2013","09","21","07:00","17.1","","16.5","","96","","15","","5","","14.5","","98.41","","","","","","Rain,Snow Grains"
"2013-09-21 08:00","2013","09","21","08:00","16.9","","16.1","","95","","15","","8","","8.1","","98.41","","","","","","Rain"
"2013-09-21 09:00","2013","09","21","09:00","16.6","","16.0","","96","","16","","11","","9.7","","98.46","","","","","","Rain"
"2013-09-21 10:00","2013","09","21","10:00","16.2","","15.4","","95","","16","","14","","8.1","","98.47","","","","","","Moderate Rain"
"2013-09-21 11:00","2013","09","21","11:00","16.6","","15.8","","95","","18","","9","","8.1","","98.45","","","","","","Rain"
"2013-09-21 12:00","2013","09","21","12:00","16.3","","15.5","","95","","15","","13","","9.7","","98.39","","","","","","Rain"
"2013-09-21 13:00","2013","09","21","13:00","15.9","","15.0","","94","","21","","11","","11.3","","98.34","","","","","","Rain"
"2013-09-21 14:00","2013","09","21","14:00","15.7","","14.6","","93","","18","","7","","16.1","","98.33","","","","","","Rain"
"2013-09-21 15:00","2013","09","21","15:00","15.3","","14.4","","94","","19","","12","","6.4","","98.33","","","","","","Rain"
"2013-09-21 16:00","2013","09","21","16:00","14.6","","13.0","","90","","30","","26","","11.3","","98.37","","","","","","Rain"
"2013-09-21 17:00","2013","09","21","17:00","14.3","","11.8","","85","","31","","22","","24.1","","98.42","","","","","","NA"
"2013-09-21 18:00","2013","09","21","18:00","14.2","","9.9","","75","","33","","33","","24.1","","98.46","","","","","","NA"
"2013-09-21 19:00","2013","09","21","19:00","12.6","","8.9","","78","","32","","22","","24.1","","98.49","","","","","","Mainly Clear"
"2013-09-21 20:00","2013","09","21","20:00","12.4","","7.3","","71","","31","","27","","24.1","","98.55","","","","","","NA"
"2013-09-21 21:00","2013","09","21","21:00","11.2","","7.5","","78","","29","","17","","24.1","","98.61","","","","","","NA"
"2013-09-21 22:00","2013","09","21","22:00","9.9","","7.3","","84","","26","","15","","24.1","","98.68","","","","","","Clear"
"2013-09-21 23:00","2013","09","21","23:00","9.8","","7.2","","84","","26","","17","","24.1","","98.69","","","","","","NA"
"2013-09-22 00:00","2013","09","22","00:00","10.0","","7.4","","84","","27","","13","","24.1","","98.76","","","","","","NA"
"2013-09-22 01:00","2013","09","22","01:00","11.2","","7.2","","76","","31","","21","","24.1","","98.79","","","","","","Mostly Cloudy"
"2013-09-22 02:00","2013","09","22","02:00","11.1","","7.1","","76","","31","","14","","24.1","","98.81","","","","","","NA"
"2013-09-22 03:00","2013","09","22","03:00","9.6","","6.5","","81","","33","","19","","24.1","","98.84","","","","","","NA"
"2013-09-22 04:00","2013","09","22","04:00","9.1","","6.6","","84","","36","","15","","24.1","","98.92","","","","","","Mostly Cloudy"
"2013-09-22 05:00","2013","09","22","05:00","9.2","","6.3","","82","","34","","21","","24.1","","98.98","","","","","","NA"
"2013-09-22 06:00","2013","09","22","06:00","8.7","","6.5","","86","","31","","14","","24.1","","99.01","","","","","","NA"
"2013-09-22 07:00","2013","09","22","07:00","9.1","","6.0","","81","","31","","18","","24.1","","99.11","","","","","","Clear"
"2013-09-22 08:00","2013","09","22","08:00","9.3","","6.1","","80","","33","","17","","24.1","","99.16","","","","","","NA"
"2013-09-22 09:00","2013","09","22","09:00","9.0","","5.4","","78","","1","","22","","24.1","","99.24","","","","","","NA"
"2013-09-22 10:00","2013","09","22","10:00","9.7","","5.5","","75","","1","","20","","24.1","","99.31","","","","","","Mostly Cloudy"
"2013-09-22 11:00","2013","09","22","11:00","9.9","","5.7","","75","","36","","28","","24.1","","99.37","","","","","","NA"
"2013-09-22 12:00","2013","09","22","12:00","10.9","","5.7","","70","","34","","28","","24.1","","99.38","","","","","","NA"
"2013-09-22 13:00","2013","09","22","13:00","11.2","","4.7","","64","","33","","30","","24.1","","99.42","","","","","","Mostly Cloudy"
"2013-09-22 14:00","2013","09","22","14:00","11.4","","3.5","","58","","33","","24","","24.1","","99.38","","","","","","NA"
"2013-09-22 15:00","2013","09","22","15:00","12.2","","4.0","","57","","30","","22","","24.1","","99.39","","","","","","NA"
"2013-09-22 16:00","2013","09","22","16:00","12.2","","4.2","","58","","34","","21","","24.1","","99.42","","","","","","Mostly Cloudy"
"2013-09-22 17:00","2013","09","22","17:00","10.7","","3.1","","59","","35","","26","","24.1","","99.51","","","","","","NA"
"2013-09-22 18:00","2013","09","22","18:00","10.6","","3.0","","59","","34","","24","","24.1","","99.55","","","","","","NA"
"2013-09-22 19:00","2013","09","22","19:00","10.0","","3.3","","63","","33","","14","","24.1","","99.61","","","","","","Mostly Cloudy"
"2013-09-22 20:00","2013","09","22","20:00","10.2","","4.0","","65","","32","","17","","24.1","","99.67","","","","","","NA"
"2013-09-22 21:00","2013","09","22","21:00","10.2","","3.7","","64","","31","","15","","24.1","","99.70","","","","","","NA"
"2013-09-22 22:00","2013","09","22","22:00","10.4","","4.4","","66","","31","","16","","24.1","","99.73","","","","","","Mostly Cloudy"
"2013-09-22 23:00","2013","09","22","23:00","10.1","","4.9","","70","","32","","11","","24.1","","99.72","","","","","","NA"
"2013-09-23 00:00","2013","09","23","00:00","10.1","","5.1","","71","","31","","12","","24.1","","99.74","","","","","","NA"
"2013-09-23 01:00","2013","09","23","01:00","10.1","","4.9","","70","","33","","14","","24.1","","99.78","","","","","","Cloudy"
"2013-09-23 02:00","2013","09","23","02:00","9.9","","5.3","","73","","32","","13","","24.1","","99.80","","","","","","NA"
"2013-09-23 03:00","2013","09","23","03:00","10.1","","4.9","","70","","33","","11","","24.1","","99.81","","","","","","NA"
"2013-09-23 04:00","2013","09","23","04:00","9.6","","5.4","","75","","34","","10","","24.1","","99.85","","","","","","Mostly Cloudy"
"2013-09-23 05:00","2013","09","23","05:00","9.5","","5.1","","74","","36","","11","","24.1","","99.89","","","","","","NA"
"2013-09-23 06:00","2013","09","23","06:00","9.2","","5.6","","78","","36","","12","","24.1","","99.96","","","","","","NA"
"2013-09-23 07:00","2013","09","23","07:00","9.0","","6.1","","82","","1","","7","","24.1","","100.01","","","","","","Mainly Clear"
"2013-09-23 08:00","2013","09","23","08:00","10.0","","4.6","","69","","3","","5","","24.1","","100.04","","","","","","NA"
"2013-09-23 09:00","2013","09","23","09:00","11.0","","4.3","","63","","2","","12","","24.1","","100.07","","","","","","NA"
"2013-09-23 10:00","2013","09","23","10:00","11.8","","4.6","","61","","36","","20","","24.1","","100.10","","","","","","Mostly Cloudy"
"2013-09-23 11:00","2013","09","23","11:00","12.4","","4.2","","57","","34","","14","","24.1","","100.10","","","","","","NA"
"2013-09-23 12:00","2013","09","23","12:00","13.1","","3.3","","51","","32","","9","","24.1","","100.06","","","","","","NA"
"2013-09-23 13:00","2013","09","23","13:00","14.2","","4.3","","51","","31","","7","","24.1","","100.01","","","","","","Mainly Clear"
"2013-09-23 14:00","2013","09","23","14:00","15.1","","4.3","","48","","30","","9","","24.1","","99.97","","","","","","NA"
"2013-09-23 15:00","2013","09","23","15:00","15.6","","4.4","","47","","34","","17","","24.1","","99.93","","","","","","NA"
"2013-09-23 16:00","2013","09","23","16:00","15.6","","4.4","","47","","1","","21","","24.1","","99.93","","","","","","Clear"
"2013-09-23 17:00","2013","09","23","17:00","14.7","","4.5","","50","","35","","15","","24.1","","99.93","","","","","","NA"
"2013-09-23 18:00","2013","09","23","18:00","13.0","","4.2","","55","","1","","14","","24.1","","99.95","","","","","","NA"
"2013-09-23 19:00","2013","09","23","19:00","11.9","","4.4","","60","","1","","19","","24.1","","100.01","","","","","","Mainly Clear"
"2013-09-23 20:00","2013","09","23","20:00","10.7","","4.9","","67","","35","","11","","24.1","","100.00","","","","","","NA"
"2013-09-23 21:00","2013","09","23","21:00","9.4","","5.2","","75","","35","","12","","24.1","","100.02","","","","","","NA"
"2013-09-23 22:00","2013","09","23","22:00","8.8","","5.2","","78","","35","","14","","24.1","","100.03","","","","","","Clear"
"2013-09-23 23:00","2013","09","23","23:00","8.5","","4.9","","78","","35","","15","","24.1","","100.04","","","","","","NA"
"2013-09-24 00:00","2013","09","24","00:00","7.6","","4.9","","83","","36","","14","","24.1","","100.03","","","","","","NA"
"2013-09-24 01:00","2013","09","24","01:00","7.3","","4.6","","83","","35","","5","","24.1","","100.01","","","","","","Clear"
"2013-09-24 02:00","2013","09","24","02:00","7.1","","4.6","","84","","33","","12","","24.1","","100.00","","","","","","NA"
"2013-09-24 03:00","2013","09","24","03:00","6.9","","4.7","","86","","33","","12","","24.1","","100.00","","","","","","NA"
"2013-09-24 04:00","2013","09","24","04:00","6.9","","4.6","","85","","33","","10","","24.1","","100.00","","","","","","Clear"
"2013-09-24 05:00","2013","09","24","05:00","6.1","","4.3","","88","","1","","11","","24.1","","100.01","","","","","","NA"
"2013-09-24 06:00","2013","09","24","06:00","6.1","","4.3","","88","","34","","7","","24.1","","100.07","","","","","","NA"
"2013-09-24 07:00","2013","09","24","07:00","6.9","","4.7","","86","","35","","11","","24.1","","100.12","","","","","","Clear"
"2013-09-24 08:00","2013","09","24","08:00","8.8","","5.4","","79","","36","","5","","24.1","","100.09","","","","","","NA"
"2013-09-24 09:00","2013","09","24","09:00","11.5","","6.1","","69","","4","","8","","24.1","","100.08","","","","","","NA"
"2013-09-24 10:00","2013","09","24","10:00","13.0","","4.5","","56","","35","","8","","24.1","","100.03","","","","","","Mainly Clear"
"2013-09-24 11:00","2013","09","24","11:00","14.3","","5.7","","56","","31","","9","","24.1","","99.98","","","","","","NA"
"2013-09-24 12:00","2013","09","24","12:00","15.6","","5.6","","51","","34","","6","","24.1","","99.90","","","","","","NA"
"2013-09-24 13:00","2013","09","24","13:00","16.6","","5.3","","47","","1","","12","","24.1","","99.80","","","","","","Mainly Clear"
"2013-09-24 14:00","2013","09","24","14:00","17.5","","5.9","","46","","3","","12","","24.1","","99.76","","","","","","NA"
"2013-09-24 15:00","2013","09","24","15:00","18.2","","6.2","","45","","34","","8","","24.1","","99.68","","","","","","NA"
"2013-09-24 16:00","2013","09","24","16:00","18.3","","6.6","","46","","33","","10","","24.1","","99.62","","","","","","Mainly Clear"
"2013-09-24 17:00","2013","09","24","17:00","18.0","","6.3","","46","","35","","10","","24.1","","99.63","","","","","","NA"
"2013-09-24 18:00","2013","09","24","18:00","16.9","","6.2","","49","","36","","13","","24.1","","99.62","","","","","","NA"
"2013-09-24 19:00","2013","09","24","19:00","15.4","","7.5","","59","","36","","16","","24.1","","99.63","","","","","","Clear"
"2013-09-24 20:00","2013","09","24","20:00","13.3","","8.0","","70","","1","","14","","24.1","","99.65","","","","","","NA"
"2013-09-24 21:00","2013","09","24","21:00","12.2","","7.1","","71","","35","","16","","24.1","","99.63","","","","","","NA"
"2013-09-24 22:00","2013","09","24","22:00","11.1","","6.5","","73","","35","","12","","24.1","","99.64","","","","","","Clear"
"2013-09-24 23:00","2013","09","24","23:00","9.9","","6.5","","79","","1","","13","","24.1","","99.60","","","","","","NA"
"2013-09-25 00:00","2013","09","25","00:00","9.4","","6.3","","81","","34","","4","","24.1","","99.63","","","","","","NA"
"2013-09-25 01:00","2013","09","25","01:00","9.2","","6.3","","82","","33","","12","","24.1","","99.61","","","","","","Clear"
"2013-09-25 02:00","2013","09","25","02:00","8.7","","6.0","","83","","33","","13","","24.1","","99.59","","","","","","NA"
"2013-09-25 03:00","2013","09","25","03:00","9.1","","6.4","","83","","34","","13","","24.1","","99.57","","","","","","NA"
"2013-09-25 04:00","2013","09","25","04:00","8.6","","6.6","","87","","35","","13","","24.1","","99.56","","","","","","Clear"
"2013-09-25 05:00","2013","09","25","05:00","8.7","","6.3","","85","","35","","8","","24.1","","99.58","","","","","","NA"
"2013-09-25 06:00","2013","09","25","06:00","8.6","","6.6","","87","","36","","12","","24.1","","99.58","","","","","","NA"
"2013-09-25 07:00","2013","09","25","07:00","9.4","","7.0","","85","","36","","7","","24.1","","99.61","","","","","","Mainly Clear"
"2013-09-25 08:00","2013","09","25","08:00","11.8","","8.3","","79","","34","","8","","24.1","","99.62","","","","","","NA"
"2013-09-25 09:00","2013","09","25","09:00","14.0","","8.7","","70","","36","","7","","24.1","","99.65","","","","","","NA"
"2013-09-25 10:00","2013","09","25","10:00","15.7","","8.3","","61","","1","","5","","24.1","","99.64","","","","","","Mostly Cloudy"
"2013-09-25 11:00","2013","09","25","11:00","17.7","","8.1","","53","","3","","1","","24.1","","99.59","","","","","","NA"
"2013-09-25 12:00","2013","09","25","12:00","19.0","","8.8","","51","","35","","2","","24.1","","99.56","","","","","","NA"
"2013-09-25 13:00","2013","09","25","13:00","20.4","","7.9","","44","","1","","6","","24.1","","99.48","","","","","","Mainly Clear"
"2013-09-25 14:00","2013","09","25","14:00","21.1","","9.2","","46","","14","","3","","24.1","","99.43","","","","","","NA"
"2013-09-25 15:00","2013","09","25","15:00","19.9","","9.3","","50","","16","","11","","24.1","","99.42","","","","","","NA"
"2013-09-25 16:00","2013","09","25","16:00","19.3","","9.0","","51","","15","","12","","24.1","","99.41","","","","","","Mostly Cloudy"
"2013-09-25 17:00","2013","09","25","17:00","18.9","","8.4","","50","","17","","7","","24.1","","99.42","","","","","","NA"
"2013-09-25 18:00","2013","09","25","18:00","17.8","","7.9","","52","","17","","6","","24.1","","99.44","","","","","","NA"
"2013-09-25 19:00","2013","09","25","19:00","16.5","","7.8","","56","","21","","5","","24.1","","99.46","","","","","","Mostly Cloudy"
"2013-09-25 20:00","2013","09","25","20:00","16.2","","9.0","","62","","35","","15","","24.1","","99.48","","","","","","NA"
"2013-09-25 21:00","2013","09","25","21:00","15.2","","9.0","","66","","36","","21","","24.1","","99.53","","","","","","NA"
"2013-09-25 22:00","2013","09","25","22:00","13.4","","8.9","","74","","36","","10","","24.1","","99.54","","","","","","Mainly Clear"
"2013-09-25 23:00","2013","09","25","23:00","12.7","","9.6","","81","","36","","12","","24.1","","99.56","","","","","","NA"
"2013-09-26 00:00","2013","09","26","00:00","11.9","","9.1","","83","","36","","9","","24.1","","99.57","","","","","","NA"
"2013-09-26 01:00","2013","09","26","01:00","12.0","","9.2","","83","","35","","10","","24.1","","99.59","","","","","","Clear"
"2013-09-26 02:00","2013","09","26","02:00","11.2","","9.0","","86","","33","","5","","24.1","","99.58","","","","","","NA"
"2013-09-26 03:00","2013","09","26","03:00","11.1","","8.9","","86","","34","","9","","24.1","","99.61","","","","","","NA"
"2013-09-26 04:00","2013","09","26","04:00","10.6","","8.7","","88","","35","","5","","24.1","","99.63","","","","","","Clear"
"2013-09-26 05:00","2013","09","26","05:00","10.2","","8.0","","86","","35","","10","","24.1","","99.66","","","","","","NA"
"2013-09-26 06:00","2013","09","26","06:00","10.6","","8.2","","85","","34","","11","","24.1","","99.72","","","","","","NA"
"2013-09-26 07:00","2013","09","26","07:00","11.1","","8.7","","85","","33","","11","","24.1","","99.77","","","","","","Mainly Clear"
"2013-09-26 08:00","2013","09","26","08:00","13.1","","9.2","","77","","1","","7","","24.1","","99.81","","","","","","NA"
"2013-09-26 09:00","2013","09","26","09:00","15.3","","9.7","","69","","1","","5","","24.1","","99.88","","","","","","NA"
"2013-09-26 10:00","2013","09","26","10:00","17.6","","10.3","","62","","2","","5","","24.1","","99.89","","","","","","Mainly Clear"
"2013-09-26 11:00","2013","09","26","11:00","19.7","","9.4","","51","","8","","6","","24.1","","99.88","","","","","","NA"
"2013-09-26 12:00","2013","09","26","12:00","20.4","","11.7","","57","","17","","13","","24.1","","99.88","","","","","","NA"
"2013-09-26 13:00","2013","09","26","13:00","20.5","","10.2","","51","","16","","14","","24.1","","99.86","","","","","","Mainly Clear"
"2013-09-26 14:00","2013","09","26","14:00","20.0","","9.1","","49","","15","","14","","24.1","","99.86","","","","","","NA"
"2013-09-26 15:00","2013","09","26","15:00","20.5","","8.3","","45","","14","","12","","24.1","","99.85","","","","","","NA"
"2013-09-26 16:00","2013","09","26","16:00","20.0","","8.2","","46","","15","","11","","24.1","","99.87","","","","","","Clear"
"2013-09-26 17:00","2013","09","26","17:00","19.0","","8.2","","49","","17","","9","","24.1","","99.91","","","","","","NA"
"2013-09-26 18:00","2013","09","26","18:00","18.3","","7.2","","48","","16","","8","","24.1","","99.94","","","","","","NA"
"2013-09-26 19:00","2013","09","26","19:00","17.2","","7.1","","51","","18","","4","","24.1","","99.96","","","","","","Clear"
"2013-09-26 20:00","2013","09","26","20:00","16.8","","7.0","","52","","24","","3","","24.1","","99.98","","","","","","NA"
"2013-09-26 21:00","2013","09","26","21:00","16.6","","7.6","","55","","30","","8","","24.1","","100.01","","","","","","NA"
"2013-09-26 22:00","2013","09","26","22:00","15.4","","8.7","","64","","1","","9","","24.1","","100.03","","","","","","Clear"
"2013-09-26 23:00","2013","09","26","23:00","14.3","","8.7","","69","","3","","8","","24.1","","100.07","","","","","","NA"
"2013-09-27 00:00","2013","09","27","00:00","13.8","","8.9","","72","","6","","2","","24.1","","100.10","","","","","","NA"
"2013-09-27 01:00","2013","09","27","01:00","12.3","","8.8","","79","","22","","1","","24.1","","100.14","","","","","","Clear"
"2013-09-27 02:00","2013","09","27","02:00","11.7","","8.8","","82","","33","","8","","24.1","","100.14","","","","","","NA"
"2013-09-27 03:00","2013","09","27","03:00","10.6","","8.4","","86","","2","","9","","24.1","","100.17","","","","","","NA"
"2013-09-27 04:00","2013","09","27","04:00","11.0","","8.8","","86","","35","","5","","24.1","","100.23","","","","","","Mostly Cloudy"
"2013-09-27 05:00","2013","09","27","05:00","11.0","","9.3","","89","","36","","5","","16.1","","100.28","","","","","","NA"
"2013-09-27 06:00","2013","09","27","06:00","12.1","","10.4","","89","","3","","9","","24.1","","100.31","","","","","","NA"
"2013-09-27 07:00","2013","09","27","07:00","13.2","","10.9","","86","","2","","9","","19.3","","100.38","","","","","","Mostly Cloudy"
"2013-09-27 08:00","2013","09","27","08:00","15.2","","10.0","","71","","6","","7","","24.1","","100.42","","","","","","NA"
"2013-09-27 09:00","2013","09","27","09:00","16.2","","9.9","","66","","8","","12","","24.1","","100.45","","","","","","NA"
"2013-09-27 10:00","2013","09","27","10:00","17.4","","9.9","","61","","8","","9","","24.1","","100.47","","","","","","Mainly Clear"
"2013-09-27 11:00","2013","09","27","11:00","18.2","","9.6","","57","","8","","18","","24.1","","100.46","","","","","","NA"
"2013-09-27 12:00","2013","09","27","12:00","18.7","","10.9","","60","","8","","8","","24.1","","100.45","","","","","","NA"
"2013-09-27 13:00","2013","09","27","13:00","19.1","","11.0","","59","","13","","15","","24.1","","100.42","","","","","","Clear"
"2013-09-27 14:00","2013","09","27","14:00","18.8","","11.2","","61","","17","","12","","24.1","","100.39","","","","","","NA"
"2013-09-27 15:00","2013","09","27","15:00","18.9","","11.3","","61","","16","","13","","24.1","","100.35","","","","","","NA"
"2013-09-27 16:00","2013","09","27","16:00","18.2","","11.4","","64","","13","","11","","24.1","","100.34","","","","","","Clear"
"2013-09-27 17:00","2013","09","27","17:00","17.2","","11.5","","69","","15","","13","","24.1","","100.36","","","","","","NA"
"2013-09-27 18:00","2013","09","27","18:00","16.0","","11.4","","74","","14","","8","","24.1","","100.37","","","","","","NA"
"2013-09-27 19:00","2013","09","27","19:00","15.3","","11.7","","79","","12","","8","","24.1","","100.38","","","","","","Clear"
"2013-09-27 20:00","2013","09","27","20:00","14.7","","11.7","","82","","10","","8","","24.1","","100.38","","","","","","NA"
"2013-09-27 21:00","2013","09","27","21:00","14.6","","11.6","","82","","9","","3","","24.1","","100.42","","","","","","NA"
"2013-09-27 22:00","2013","09","27","22:00","14.5","","11.9","","84","","12","","5","","24.1","","100.40","","","","","","Clear"
"2013-09-27 23:00","2013","09","27","23:00","13.9","","11.5","","85","","4","","6","","24.1","","100.40","","","","","","NA"
"2013-09-28 00:00","2013","09","28","00:00","14.1","","11.6","","85","","3","","4","","24.1","","100.42","","","","","","NA"
"2013-09-28 01:00","2013","09","28","01:00","13.2","","11.3","","88","","3","","8","","24.1","","100.43","","","","","","Clear"
"2013-09-28 02:00","2013","09","28","02:00","11.6","","9.9","","89","","2","","7","","19.3","","100.41","","","","","","NA"
"2013-09-28 03:00","2013","09","28","03:00","11.1","","9.5","","90","","2","","8","","19.3","","100.41","","","","","","NA"
"2013-09-28 04:00","2013","09","28","04:00","10.5","","9.3","","92","","1","","5","","19.3","","100.43","","","","","","Clear"
"2013-09-28 05:00","2013","09","28","05:00","10.3","","8.6","","89","","3","","10","","19.3","","100.43","","","","","","NA"
"2013-09-28 06:00","2013","09","28","06:00","11.5","","10.1","","91","","3","","10","","6.4","","100.46","","","","","","Fog"
"2013-09-28 07:00","2013","09","28","07:00","12.3","","11.1","","92","","4","","10","","8.1","","100.46","","","","","","Fog"
"2013-09-28 08:00","2013","09","28","08:00","14.8","","12.9","","88","","8","","9","","12.9","","100.49","","","","","","NA"
"2013-09-28 09:00","2013","09","28","09:00","16.4","","13.2","","81","","10","","13","","16.1","","100.49","","","","","","NA"
"2013-09-28 10:00","2013","09","28","10:00","17.4","","13.8","","79","","9","","9","","19.3","","100.49","","","","","","Mostly Cloudy"
"2013-09-28 11:00","2013","09","28","11:00","18.8","","13.5","","71","","15","","15","","24.1","","100.46","","","","","","NA"
"2013-09-28 12:00","2013","09","28","12:00","19.3","","13.3","","68","","15","","14","","24.1","","100.41","","","","","","NA"
"2013-09-28 13:00","2013","09","28","13:00","19.3","","11.7","","61","","13","","14","","24.1","","100.30","","","","","","Mainly Clear"
"2013-09-28 14:00","2013","09","28","14:00","19.5","","12.4","","63","","12","","18","","24.1","","100.26","","","","","","NA"
"2013-09-28 15:00","2013","09","28","15:00","19.5","","12.6","","64","","14","","20","","24.1","","100.19","","","","","","NA"
"2013-09-28 16:00","2013","09","28","16:00","19.2","","13.5","","69","","9","","14","","24.1","","100.12","","","","","","Mainly Clear"
"2013-09-28 17:00","2013","09","28","17:00","18.1","","13.0","","72","","12","","17","","24.1","","100.11","","","","","","NA"
"2013-09-28 18:00","2013","09","28","18:00","16.5","","12.7","","78","","10","","15","","24.1","","100.12","","","","","","NA"
"2013-09-28 19:00","2013","09","28","19:00","15.4","","12.6","","83","","10","","12","","24.1","","100.12","","","","","","Mainly Clear"
"2013-09-28 20:00","2013","09","28","20:00","14.9","","12.8","","87","","11","","7","","24.1","","100.08","","","","","","NA"
"2013-09-28 21:00","2013","09","28","21:00","15.0","","13.4","","90","","10","","7","","24.1","","100.02","","","","","","NA"
"2013-09-28 22:00","2013","09","28","22:00","15.5","","14.4","","93","","12","","8","","24.1","","99.99","","","","","","Mainly Clear"
"2013-09-28 23:00","2013","09","28","23:00","15.7","","14.1","","90","","14","","9","","24.1","","99.94","","","","","","NA"
"2013-09-29 00:00","2013","09","29","00:00","15.1","","13.5","","90","","15","","9","","24.1","","99.93","","","","","","NA"
"2013-09-29 01:00","2013","09","29","01:00","14.6","","13.3","","92","","15","","8","","24.1","","99.93","","","","","","Clear"
"2013-09-29 02:00","2013","09","29","02:00","14.2","","12.8","","91","","15","","8","","24.1","","99.85","","","","","","NA"
"2013-09-29 03:00","2013","09","29","03:00","14.1","","12.3","","89","","14","","7","","24.1","","99.79","","","","","","NA"
"2013-09-29 04:00","2013","09","29","04:00","13.3","","11.7","","90","","15","","4","","24.1","","99.78","","","","","","Mainly Clear"
"2013-09-29 05:00","2013","09","29","05:00","13.9","","12.3","","90","","12","","6","","24.1","","99.75","","","","","","NA"
"2013-09-29 06:00","2013","09","29","06:00","13.6","","12.3","","92","","14","","5","","19.3","","99.75","","","","","","NA"
"2013-09-29 07:00","2013","09","29","07:00","14.1","","12.7","","91","","15","","7","","19.3","","99.75","","","","","","Mainly Clear"
"2013-09-29 08:00","2013","09","29","08:00","15.9","","13.1","","83","","15","","9","","24.1","","99.73","","","","","","NA"
"2013-09-29 09:00","2013","09","29","09:00","17.1","","12.9","","76","","18","","15","","24.1","","99.73","","","","","","NA"
"2013-09-29 10:00","2013","09","29","10:00","18.2","","13.4","","73","","16","","13","","24.1","","99.70","","","","","","Mostly Cloudy"
"2013-09-29 11:00","2013","09","29","11:00","19.5","","14.0","","70","","17","","15","","24.1","","99.65","","","","","","NA"
"2013-09-29 12:00","2013","09","29","12:00","19.6","","13.6","","68","","13","","21","","24.1","","99.63","","","","","","NA"
"2013-09-29 13:00","2013","09","29","13:00","20.3","","13.8","","66","","17","","19","","24.1","","99.57","","","","","","Mostly Cloudy"
"2013-09-29 14:00","2013","09","29","14:00","20.4","","13.9","","66","","15","","19","","24.1","","99.50","","","","","","NA"
"2013-09-29 15:00","2013","09","29","15:00","20.1","","14.1","","68","","16","","13","","24.1","","99.48","","","","","","NA"
"2013-09-29 16:00","2013","09","29","16:00","19.4","","14.3","","72","","13","","15","","24.1","","99.48","","","","","","Mostly Cloudy"
"2013-09-29 17:00","2013","09","29","17:00","18.7","","14.2","","75","","13","","13","","24.1","","99.48","","","","","","NA"
"2013-09-29 18:00","2013","09","29","18:00","18.2","","14.2","","77","","12","","7","","24.1","","99.50","","","","","","NA"
"2013-09-29 19:00","2013","09","29","19:00","17.8","","14.7","","82","","11","","6","","24.1","","99.53","","","","","","Cloudy"
"2013-09-29 20:00","2013","09","29","20:00","17.5","","14.8","","84","","13","","6","","24.1","","99.53","","","","","","Rain"
"2013-09-29 21:00","2013","09","29","21:00","17.4","","15.1","","86","","7","","1","","24.1","","99.54","","","","","","Rain"
"2013-09-29 22:00","2013","09","29","22:00","17.3","","15.3","","88","","18","","5","","19.3","","99.53","","","","","","Rain"
"2013-09-29 23:00","2013","09","29","23:00","17.2","","15.4","","89","","15","","9","","19.3","","99.49","","","","","","NA"
"2013-09-30 00:00","2013","09","30","00:00","17.4","","15.6","","89","","23","","4","","24.1","","99.47","","","","","","NA"
"2013-09-30 01:00","2013","09","30","01:00","17.5","","15.7","","89","","18","","7","","24.1","","99.47","","","","","","Cloudy"
"2013-09-30 02:00","2013","09","30","02:00","16.8","","15.5","","92","","15","","9","","16.1","","99.45","","","","","","NA"
"2013-09-30 03:00","2013","09","30","03:00","16.8","","15.7","","93","","15","","5","","16.1","","99.45","","","","","","NA"
"2013-09-30 04:00","2013","09","30","04:00","16.9","","15.4","","91","","15","","7","","12.9","","99.44","","","","","","Cloudy"
"2013-09-30 05:00","2013","09","30","05:00","16.7","","15.7","","94","","20","","3","","9.7","","99.44","","","","","","Rain"
"2013-09-30 06:00","2013","09","30","06:00","17.1","","15.6","","91","","12","","8","","9.7","","99.46","","","","","","Rain,Fog"
"2013-09-30 07:00","2013","09","30","07:00","17.0","","15.7","","92","","12","","6","","6.4","","99.48","","","","","","Rain,Fog"
"2013-09-30 08:00","2013","09","30","08:00","16.9","","15.9","","94","","13","","7","","4.0","","99.47","","","","","","Rain,Fog"
"2013-09-30 09:00","2013","09","30","09:00","17.7","","16.4","","92","","15","","9","","6.4","","99.46","","","","","","Rain,Fog"
"2013-09-30 10:00","2013","09","30","10:00","17.6","","16.6","","94","","14","","12","","6.4","","99.44","","","","","","Fog"
"2013-09-30 11:00","2013","09","30","11:00","18.0","","16.5","","91","","18","","12","","4.8","","99.43","","","","","","Drizzle,Fog"
"2013-09-30 12:00","2013","09","30","12:00","18.8","","17.2","","90","","21","","11","","9.7","","99.42","","","","","","Fog"
"2013-09-30 13:00","2013","09","30","13:00","19.4","","17.2","","87","","18","","10","","12.9","","99.38","","","","","","Cloudy"
"2013-09-30 14:00","2013","09","30","14:00","19.7","","17.2","","85","","17","","12","","16.1","","99.34","","","","","","NA"
"2013-09-30 15:00","2013","09","30","15:00","19.8","","17.2","","85","","17","","12","","16.1","","99.30","","","","","","NA"
"2013-09-30 16:00","2013","09","30","16:00","19.8","","16.9","","83","","17","","17","","16.1","","99.28","","","","","","Mostly Cloudy"
"2013-09-30 17:00","2013","09","30","17:00","19.7","","16.6","","82","","16","","14","","19.3","","99.29","","","","","","NA"
"2013-09-30 18:00","2013","09","30","18:00","19.0","","16.1","","83","","17","","10","","24.1","","99.32","","","","","","NA"
"2013-09-30 19:00","2013","09","30","19:00","18.4","","15.7","","84","","18","","10","","24.1","","99.36","","","","","","Mostly Cloudy"
"2013-09-30 20:00","2013","09","30","20:00","18.0","","14.0","","77","","20","","12","","24.1","","99.40","","","","","","NA"
"2013-09-30 21:00","2013","09","30","21:00","16.9","","13.7","","81","","21","","10","","24.1","","99.42","","","","","","NA"
"2013-09-30 22:00","2013","09","30","22:00","15.3","","12.8","","85","","23","","8","","24.1","","99.43","","","","","","Mostly Cloudy"
"2013-09-30 23:00","2013","09","30","23:00","14.8","","12.5","","86","","24","","10","","24.1","","99.43","","","","","","NA"
