"Station Name","TORONTO LESTER B. PEARSON INT'L A"
"Province","ONTARIO"
"Latitude","43.68"
"Longitude","-79.63"
"Elevation","173.40"
"Climate Identifier","6158733"
"WMO Identifier","71624"
"TC Identifier","YYZ"
"All times are specified in Local Standard Time (LST). Add 1 hour to adjust for Daylight Saving Time where and when it is observed."

"Legend"
"E","Estimated"
"M","Missing"
"NA","Not Available"

"Date/Time","Year","Month","Day","Time","Temp (°C)","Temp Flag","Dew Point Temp (°C)","Dew Point Temp Flag","Rel Hum (%)","Rel Hum Flag","Wind Dir (10s deg)","Wind Dir Flag","Wind Spd (km/h)","Wind Spd Flag","Visibility (km)","Visibility Flag","Stn Press (kPa)","Stn Press Flag","Hmdx","Hmdx Flag","Wind Chill","Wind Chill Flag","Weather"
"1963-11-01 00:00","1963","11","01","00:00","6.1","","5.6","","98","","2","","5","","12.9","","98.25","","","","","","Rain"
"1963-11-01 01:00","1963","11","01","01:00","6.1","","5.6","","98","","5","","10","","9.7","","98.12","","","","","","Rain,Fog"
"1963-11-01 02:00","1963","11","01","02:00","6.1","","5.6","","98","","2","","10","","4.8","","98.02","","","","","","Rain,Fog"
"1963-11-01 03:00","1963","11","01","03:00","6.1","","5.6","","98","","2","","5","","3.2","","97.91","","","","","","Moderate Rain,Fog"
"1963-11-01 04:00","1963","11","01","04:00","6.1","","5.6","","98","","36","","14","","8.0","","97.78","","","","","","Rain,Fog"
"1963-11-01 05:00","1963","11","01","05:00","6.1","","5.6","","95","","34","","10","","16.1","","97.73","","","","","","Rain"
"1963-11-01 06:00","1963","11","01","06:00","5.6","","4.4","","93","","34","","10","","16.1","","97.70","","","","","","Rain"
"1963-11-01 07:00","1963","11","01","07:00","5.6","","4.4","","93","","34","","8","","12.9","","97.66","","","","","","Rain"
"1963-11-01 08:00","1963","11","01","08:00","6.1","","5.0","","93","","27","","10","","8.0","","97.72","","","","","","Rain,Fog"
"1963-11-01 09:00","1963","11","01","09:00","6.7","","5.6","","93","","27","","13","","6.4","","97.76","","","","","","Rain,Fog"
"1963-11-01 10:00","1963","11","01","10:00","6.7","","5.0","","89","","29","","23","","19.3","","97.76","","","","","","Rain"
"1963-11-01 11:00","1963","11","01","11:00","8.3","","5.0","","79","","32","","26","","25.0","","97.81","","","","","","Mostly Cloudy"
"1963-11-01 12:00","1963","11","01","12:00","10.0","","5.6","","75","","32","","24","","25.0","","97.82","","","","","","Mostly Cloudy"
"1963-11-01 13:00","1963","11","01","13:00","10.0","","4.4","","68","","29","","24","","25.0","","97.84","","","","","","Mostly Cloudy"
"1963-11-01 14:00","1963","11","01","14:00","9.4","","3.3","","67","","27","","31","","24.1","","97.87","","","","","","Mostly Cloudy"
"1963-11-01 15:00","1963","11","01","15:00","7.8","","2.8","","71","","27","","34","","25.0","","97.97","","","","","","Mostly Cloudy"
"1963-11-01 16:00","1963","11","01","16:00","6.1","","3.3","","82","","29","","32","","16.1","","98.10","","","","","","Rain Showers"
"1963-11-01 17:00","1963","11","01","17:00","5.6","","2.8","","82","","29","","24","","19.3","","98.18","","","","","","Mainly Clear"
"1963-11-01 18:00","1963","11","01","18:00","5.6","","1.7","","77","","29","","19","","19.3","","98.30","","","","","","Mostly Cloudy"
"1963-11-01 19:00","1963","11","01","19:00","5.0","","1.7","","79","","27","","19","","19.3","","98.32","","","","","","Mainly Clear"
"1963-11-01 20:00","1963","11","01","20:00","3.9","","0.6","","80","","29","","14","","19.3","","98.29","","","","","","Mainly Clear"
"1963-11-01 21:00","1963","11","01","21:00","3.3","","0.6","","82","","29","","26","","24.1","","98.30","","","","","","Mainly Clear"
"1963-11-01 22:00","1963","11","01","22:00","2.8","","0.6","","84","","23","","19","","24.1","","98.33","","","","","","Mainly Clear"
"1963-11-01 23:00","1963","11","01","23:00","1.1","","-0.6","","89","","25","","10","","24.1","","98.33","","","","","","Mainly Clear"
"1963-11-02 00:00","1963","11","02","00:00","1.1","","-0.6","","89","","25","","16","","24.1","","98.30","","","","","","Mainly Clear"
"1963-11-02 01:00","1963","11","02","01:00","0.6","","-0.6","","91","","25","","5","","24.1","","98.31","","","","","","Mainly Clear"
"1963-11-02 02:00","1963","11","02","02:00","0.6","","-0.6","","91","","27","","5","","24.1","","98.31","","","","","","Mostly Cloudy"
"1963-11-02 03:00","1963","11","02","03:00","0.6","","-0.6","","91","","29","","3","","24.1","","98.31","","","","","","Mostly Cloudy"
"1963-11-02 04:00","1963","11","02","04:00","1.1","","-0.6","","89","","25","","6","","24.1","","98.27","","","","","","Mostly Cloudy"
"1963-11-02 05:00","1963","11","02","05:00","1.1","","-0.6","","89","","27","","8","","24.1","","98.27","","","","","","Mainly Clear"
"1963-11-02 06:00","1963","11","02","06:00","0.0","","-1.1","","91","","27","","6","","24.1","","98.27","","","","-2","","Mainly Clear"
"1963-11-02 07:00","1963","11","02","07:00","-0.6","","-1.7","","93","","32","","10","","24.1","","98.28","","","","-4","","Mainly Clear"
"1963-11-02 08:00","1963","11","02","08:00","0.6","","-1.1","","89","","29","","11","","24.1","","98.36","","","","","","Mainly Clear"
"1963-11-02 09:00","1963","11","02","09:00","2.2","","-0.6","","81","","32","","14","","24.1","","98.38","","","","","","Mainly Clear"
"1963-11-02 10:00","1963","11","02","10:00","4.4","","-0.6","","71","","34","","10","","24.1","","98.41","","","","","","Mainly Clear"
"1963-11-02 11:00","1963","11","02","11:00","5.6","","-0.6","","64","","32","","23","","24.1","","98.43","","","","","","Mostly Cloudy"
"1963-11-02 12:00","1963","11","02","12:00","5.6","","-1.1","","62","","34","","29","","25.0","","98.42","","","","","","Mostly Cloudy"
"1963-11-02 13:00","1963","11","02","13:00","5.6","","-0.6","","66","","32","","27","","25.0","","98.42","","","","","","Mostly Cloudy"
"1963-11-02 14:00","1963","11","02","14:00","4.4","","-1.1","","67","","32","","24","","25.0","","98.43","","","","","","Mostly Cloudy"
"1963-11-02 15:00","1963","11","02","15:00","4.4","","-0.6","","69","","34","","24","","25.0","","98.49","","","","","","Rain Showers"
"1963-11-02 16:00","1963","11","02","16:00","2.8","","0.0","","82","","34","","24","","24.1","","98.55","","","","","","Snow Showers"
"1963-11-02 17:00","1963","11","02","17:00","2.2","","-0.6","","81","","34","","26","","24.1","","98.63","","","","","","Snow Showers"
"1963-11-02 18:00","1963","11","02","18:00","1.7","","-1.1","","81","","34","","23","","24.1","","98.70","","","","","","Mainly Clear"
"1963-11-02 19:00","1963","11","02","19:00","1.7","","-0.6","","84","","34","","24","","24.1","","98.79","","","","","","Mostly Cloudy"
"1963-11-02 20:00","1963","11","02","20:00","1.7","","-1.7","","78","","34","","31","","24.1","","98.88","","","","","","Mostly Cloudy"
"1963-11-02 21:00","1963","11","02","21:00","1.7","","-2.8","","73","","34","","21","","24.1","","98.95","","","","","","Mostly Cloudy"
"1963-11-02 22:00","1963","11","02","22:00","1.7","","-3.3","","70","","34","","24","","24.1","","98.99","","","","","","Mostly Cloudy"
"1963-11-02 23:00","1963","11","02","23:00","1.7","","-2.8","","72","","34","","13","","24.1","","98.98","","","","","","Mostly Cloudy"
"1963-11-03 00:00","1963","11","03","00:00","1.7","","-2.2","","76","","32","","16","","25.0","","98.98","","","","","","Snow Showers"
"1963-11-03 01:00","1963","11","03","01:00","1.7","","-1.7","","78","","32","","24","","9.7","","99.01","","","","","","Snow Showers"
"1963-11-03 02:00","1963","11","03","02:00","1.1","","-1.7","","82","","29","","24","","25.0","","99.07","","","","","","Mostly Cloudy"
"1963-11-03 03:00","1963","11","03","03:00","1.7","","-2.2","","76","","29","","27","","25.0","","99.09","","","","","","Mostly Cloudy"
"1963-11-03 04:00","1963","11","03","04:00","1.7","","-2.2","","76","","29","","29","","25.0","","99.16","","","","","","Mostly Cloudy"
"1963-11-03 05:00","1963","11","03","05:00","1.1","","-3.3","","71","","29","","29","","25.0","","99.23","","","","","","Mostly Cloudy"
"1963-11-03 06:00","1963","11","03","06:00","1.1","","-4.4","","66","","29","","26","","25.0","","99.29","","","","","","Mostly Cloudy"
"1963-11-03 07:00","1963","11","03","07:00","2.2","","-4.4","","61","","29","","26","","25.0","","99.38","","","","","","Mainly Clear"
"1963-11-03 08:00","1963","11","03","08:00","0.6","","-4.4","","70","","29","","27","","25.0","","99.48","","","","","","Mainly Clear"
"1963-11-03 09:00","1963","11","03","09:00","2.2","","-5.0","","58","","29","","31","","25.0","","99.51","","","","","","Mainly Clear"
"1963-11-03 10:00","1963","11","03","10:00","3.9","","-6.1","","47","","29","","32","","25.0","","99.58","","","","","","Mainly Clear"
"1963-11-03 11:00","1963","11","03","11:00","5.0","","-4.4","","50","","32","","32","","25.0","","99.59","","","","","","Mainly Clear"
"1963-11-03 12:00","1963","11","03","12:00","5.0","","-3.3","","54","","32","","29","","25.0","","99.57","","","","","","Mainly Clear"
"1963-11-03 13:00","1963","11","03","13:00","6.7","","-2.2","","53","","32","","24","","25.0","","99.49","","","","","","Mainly Clear"
"1963-11-03 14:00","1963","11","03","14:00","8.3","","-1.7","","48","","27","","26","","25.0","","99.45","","","","","","Mostly Cloudy"
"1963-11-03 15:00","1963","11","03","15:00","8.3","","-3.3","","43","","27","","29","","25.0","","99.41","","","","","","Mainly Clear"
"1963-11-03 16:00","1963","11","03","16:00","8.3","","-1.1","","50","","23","","26","","25.0","","99.44","","","","","","Mainly Clear"
"1963-11-03 17:00","1963","11","03","17:00","6.7","","-2.2","","53","","25","","18","","25.0","","99.44","","","","","","Mainly Clear"
"1963-11-03 18:00","1963","11","03","18:00","5.0","","-1.7","","61","","23","","19","","25.0","","99.41","","","","","","Clear"
"1963-11-03 19:00","1963","11","03","19:00","4.4","","-2.2","","62","","20","","18","","25.0","","99.35","","","","","","Clear"
"1963-11-03 20:00","1963","11","03","20:00","3.9","","-2.2","","64","","20","","18","","25.0","","99.34","","","","","","Mainly Clear"
"1963-11-03 21:00","1963","11","03","21:00","5.6","","-3.3","","53","","23","","19","","25.0","","99.33","","","","","","Mainly Clear"
"1963-11-03 22:00","1963","11","03","22:00","6.7","","-3.3","","49","","23","","26","","25.0","","99.24","","","","","","Mostly Cloudy"
"1963-11-03 23:00","1963","11","03","23:00","7.2","","-2.8","","48","","23","","39","","25.0","","99.11","","","","","","Mostly Cloudy"
"1963-11-04 00:00","1963","11","04","00:00","6.1","","-3.9","","48","","23","","40","","25.0","","99.10","","","","","","Mostly Cloudy"
"1963-11-04 01:00","1963","11","04","01:00","7.2","","-3.9","","44","","25","","39","","25.0","","99.14","","","","","","Mostly Cloudy"
"1963-11-04 02:00","1963","11","04","02:00","6.7","","-2.2","","53","","25","","32","","25.0","","99.14","","","","","","Mostly Cloudy"
"1963-11-04 03:00","1963","11","04","03:00","6.7","","-2.2","","53","","23","","32","","25.0","","99.14","","","","","","Mostly Cloudy"
"1963-11-04 04:00","1963","11","04","04:00","6.7","","-2.8","","51","","23","","26","","25.0","","99.14","","","","","","Mostly Cloudy"
"1963-11-04 05:00","1963","11","04","05:00","6.1","","-2.8","","52","","23","","26","","25.0","","99.16","","","","","","Mostly Cloudy"
"1963-11-04 06:00","1963","11","04","06:00","6.7","","-2.8","","51","","23","","26","","25.0","","99.16","","","","","","Mostly Cloudy"
"1963-11-04 07:00","1963","11","04","07:00","6.7","","-2.2","","53","","25","","27","","25.0","","99.20","","","","","","Mostly Cloudy"
"1963-11-04 08:00","1963","11","04","08:00","6.7","","-2.2","","53","","25","","26","","25.0","","99.25","","","","","","Mostly Cloudy"
"1963-11-04 09:00","1963","11","04","09:00","7.8","","-1.7","","51","","25","","23","","25.0","","99.30","","","","","","Mostly Cloudy"
"1963-11-04 10:00","1963","11","04","10:00","8.3","","-1.7","","48","","25","","16","","25.0","","99.35","","","","","","Mostly Cloudy"
"1963-11-04 11:00","1963","11","04","11:00","10.6","","0.0","","47","","25","","19","","19.3","","99.34","","","","","","Mostly Cloudy"
"1963-11-04 12:00","1963","11","04","12:00","11.7","","0.0","","44","","25","","19","","16.1","","99.32","","","","","","Mostly Cloudy"
"1963-11-04 13:00","1963","11","04","13:00","11.7","","0.6","","46","","25","","13","","19.3","","99.26","","","","","","Mostly Cloudy"
"1963-11-04 14:00","1963","11","04","14:00","13.9","","1.1","","43","","20","","24","","19.3","","99.22","","","","","","Mostly Cloudy"
"1963-11-04 15:00","1963","11","04","15:00","12.8","","1.1","","45","","20","","19","","19.3","","99.20","","","","","","Mostly Cloudy"
"1963-11-04 16:00","1963","11","04","16:00","12.2","","1.7","","49","","18","","13","","19.3","","99.24","","","","","","Mostly Cloudy"
"1963-11-04 17:00","1963","11","04","17:00","11.1","","2.2","","53","","23","","19","","16.1","","99.25","","","","","","Mostly Cloudy"
"1963-11-04 18:00","1963","11","04","18:00","9.4","","3.3","","65","","20","","18","","25.0","","99.28","","","","","","Mainly Clear"
"1963-11-04 19:00","1963","11","04","19:00","8.9","","3.9","","70","","20","","18","","25.0","","99.31","","","","","","Mainly Clear"
"1963-11-04 20:00","1963","11","04","20:00","8.3","","3.9","","73","","20","","18","","25.0","","99.33","","","","","","Mainly Clear"
"1963-11-04 21:00","1963","11","04","21:00","8.9","","3.9","","72","","20","","16","","25.0","","99.34","","","","","","Mainly Clear"
"1963-11-04 22:00","1963","11","04","22:00","8.9","","3.9","","72","","20","","18","","25.0","","99.35","","","","","","Cloudy"
"1963-11-04 23:00","1963","11","04","23:00","8.9","","3.9","","70","","20","","14","","25.0","","99.32","","","","","","Cloudy"
"1963-11-05 00:00","1963","11","05","00:00","8.9","","3.9","","70","","20","","10","","25.0","","99.27","","","","","","Cloudy"
"1963-11-05 01:00","1963","11","05","01:00","8.3","","3.3","","71","","18","","8","","25.0","","99.25","","","","","","Cloudy"
"1963-11-05 02:00","1963","11","05","02:00","8.3","","3.9","","73","","18","","3","","24.1","","99.27","","","","","","Rain"
"1963-11-05 03:00","1963","11","05","03:00","8.3","","4.4","","75","","14","","13","","24.1","","99.25","","","","","","Cloudy"
"1963-11-05 04:00","1963","11","05","04:00","8.3","","4.4","","75","","16","","13","","24.1","","99.22","","","","","","Cloudy"
"1963-11-05 05:00","1963","11","05","05:00","8.3","","4.4","","75","","18","","16","","24.1","","99.22","","","","","","Cloudy"
"1963-11-05 06:00","1963","11","05","06:00","7.2","","6.7","","96","","18","","13","","2.4","","99.23","","","","","","Drizzle,Fog"
"1963-11-05 07:00","1963","11","05","07:00","7.2","","6.7","","96","","18","","13","","1.6","","99.22","","","","","","Drizzle,Fog"
"1963-11-05 08:00","1963","11","05","08:00","7.8","","6.7","","91","","18","","8","","3.2","","99.23","","","","","","Rain,Fog"
"1963-11-05 09:00","1963","11","05","09:00","8.3","","6.1","","87","","16","","11","","4.0","","99.22","","","","","","Fog"
"1963-11-05 10:00","1963","11","05","10:00","8.9","","6.1","","82","","14","","11","","4.0","","99.19","","","","","","Haze"
"1963-11-05 11:00","1963","11","05","11:00","8.9","","7.2","","88","","16","","13","","4.0","","99.20","","","","","","Haze"
"1963-11-05 12:00","1963","11","05","12:00","9.4","","6.1","","78","","16","","13","","4.0","","99.13","","","","","","Haze"
"1963-11-05 13:00","1963","11","05","13:00","9.4","","5.6","","76","","18","","16","","9.7","","99.07","","","","","","Rain,Haze"
"1963-11-05 14:00","1963","11","05","14:00","8.3","","5.6","","83","","18","","18","","4.8","","99.08","","","","","","Rain,Haze"
"1963-11-05 15:00","1963","11","05","15:00","7.8","","6.7","","91","","18","","14","","4.0","","99.06","","","","","","Rain,Fog"
"1963-11-05 16:00","1963","11","05","16:00","7.8","","6.7","","91","","14","","10","","4.0","","99.05","","","","","","Rain,Fog"
"1963-11-05 17:00","1963","11","05","17:00","7.8","","7.2","","96","","11","","13","","3.2","","99.04","","","","","","Rain,Fog"
"1963-11-05 18:00","1963","11","05","18:00","7.8","","7.2","","96","","14","","10","","4.8","","99.05","","","","","","Rain,Fog"
"1963-11-05 19:00","1963","11","05","19:00","8.3","","7.8","","96","","14","","8","","8.0","","99.04","","","","","","Fog"
"1963-11-05 20:00","1963","11","05","20:00","8.3","","7.8","","96","","14","","10","","3.2","","99.02","","","","","","Drizzle,Fog"
"1963-11-05 21:00","1963","11","05","21:00","8.3","","7.8","","96","","14","","6","","2.4","","99.01","","","","","","Drizzle,Fog"
"1963-11-05 22:00","1963","11","05","22:00","8.3","","7.8","","96","","14","","8","","2.0","","98.99","","","","","","Fog"
"1963-11-05 23:00","1963","11","05","23:00","8.3","","7.8","","98","","14","","8","","1.0","","99.00","","","","","","Fog"
"1963-11-06 00:00","1963","11","06","00:00","8.3","","8.3","","100","","11","","10","","1.0","","98.96","","","","","","Fog"
"1963-11-06 01:00","1963","11","06","01:00","8.9","","8.3","","98","","","","0","","1.0","","98.96","","","","","","Fog"
"1963-11-06 02:00","1963","11","06","02:00","8.9","","8.3","","98","","9","","5","","1.0","","98.97","","","","","","Fog"
"1963-11-06 03:00","1963","11","06","03:00","9.4","","8.9","","96","","11","","10","","1.2","","98.95","","","","","","Fog"
"1963-11-06 04:00","1963","11","06","04:00","9.4","","8.9","","96","","11","","5","","1.0","","98.95","","","","","","Fog"
"1963-11-06 05:00","1963","11","06","05:00","9.4","","8.9","","96","","16","","5","","0.6","","98.98","","","","","","Rain,Fog"
"1963-11-06 06:00","1963","11","06","06:00","9.4","","9.4","","100","","11","","6","","0.6","","98.96","","","","","","Drizzle,Fog"
"1963-11-06 07:00","1963","11","06","07:00","9.4","","9.4","","100","","7","","3","","0.4","","98.97","","","","","","Fog"
"1963-11-06 08:00","1963","11","06","08:00","8.9","","8.3","","98","","36","","5","","0.4","","99.05","","","","","","Fog"
"1963-11-06 09:00","1963","11","06","09:00","8.9","","8.9","","100","","36","","5","","0.2","","99.06","","","","","","Drizzle,Fog"
"1963-11-06 10:00","1963","11","06","10:00","9.4","","9.4","","100","","5","","6","","0.2","","99.06","","","","","","Drizzle,Fog"
"1963-11-06 11:00","1963","11","06","11:00","9.4","","8.9","","98","","5","","6","","0.8","","99.10","","","","","","Fog"
"1963-11-06 12:00","1963","11","06","12:00","9.4","","8.9","","98","","5","","8","","0.8","","99.07","","","","","","Drizzle,Fog"
"1963-11-06 13:00","1963","11","06","13:00","10.0","","9.4","","96","","5","","10","","1.2","","98.96","","","","","","Drizzle,Fog"
"1963-11-06 14:00","1963","11","06","14:00","10.0","","9.4","","96","","5","","6","","2.0","","99.01","","","","","","Fog"
"1963-11-06 15:00","1963","11","06","15:00","10.0","","8.9","","92","","2","","6","","4.8","","99.03","","","","","","Fog"
"1963-11-06 16:00","1963","11","06","16:00","10.6","","8.9","","90","","7","","8","","4.8","","99.01","","","","","","Fog"
"1963-11-06 17:00","1963","11","06","17:00","10.0","","8.3","","90","","5","","8","","4.8","","99.02","","","","","","Fog"
"1963-11-06 18:00","1963","11","06","18:00","9.4","","7.8","","90","","2","","5","","4.8","","99.05","","","","","","Fog"
"1963-11-06 19:00","1963","11","06","19:00","9.4","","8.3","","94","","2","","8","","3.6","","99.07","","","","","","Fog"
"1963-11-06 20:00","1963","11","06","20:00","10.0","","8.9","","94","","2","","10","","2.8","","99.10","","","","","","Fog"
"1963-11-06 21:00","1963","11","06","21:00","9.4","","8.3","","94","","2","","10","","2.8","","99.09","","","","","","Fog"
"1963-11-06 22:00","1963","11","06","22:00","8.9","","7.8","","94","","36","","10","","2.0","","99.06","","","","","","Fog"
"1963-11-06 23:00","1963","11","06","23:00","8.9","","7.8","","92","","36","","13","","6.4","","99.04","","","","","","Fog"
"1963-11-07 00:00","1963","11","07","00:00","8.9","","7.2","","90","","36","","16","","8.0","","99.01","","","","","","Fog"
"1963-11-07 01:00","1963","11","07","01:00","8.9","","7.2","","90","","36","","13","","9.7","","98.99","","","","","","Fog"
"1963-11-07 02:00","1963","11","07","02:00","8.3","","6.7","","90","","36","","16","","12.9","","99.00","","","","","","Cloudy"
"1963-11-07 03:00","1963","11","07","03:00","8.3","","6.7","","90","","36","","13","","12.9","","98.98","","","","","","Cloudy"
"1963-11-07 04:00","1963","11","07","04:00","8.3","","6.7","","90","","36","","16","","16.1","","98.96","","","","","","Cloudy"
"1963-11-07 05:00","1963","11","07","05:00","8.9","","7.2","","88","","36","","19","","16.1","","98.94","","","","","","Cloudy"
"1963-11-07 06:00","1963","11","07","06:00","8.3","","6.7","","90","","36","","19","","16.1","","98.92","","","","","","Cloudy"
"1963-11-07 07:00","1963","11","07","07:00","8.9","","6.7","","86","","36","","27","","12.9","","98.91","","","","","","Rain"
"1963-11-07 08:00","1963","11","07","08:00","8.9","","7.2","","88","","36","","21","","4.8","","98.94","","","","","","Rain,Fog"
"1963-11-07 09:00","1963","11","07","09:00","8.3","","7.2","","92","","36","","27","","4.8","","98.94","","","","","","Rain,Fog"
"1963-11-07 10:00","1963","11","07","10:00","8.9","","7.2","","90","","36","","23","","4.8","","98.92","","","","","","Rain,Drizzle,Fog"
"1963-11-07 11:00","1963","11","07","11:00","8.9","","7.2","","90","","36","","29","","6.4","","98.87","","","","","","Rain,Drizzle,Fog"
"1963-11-07 12:00","1963","11","07","12:00","8.9","","7.2","","90","","36","","29","","9.7","","98.77","","","","","","Fog"
"1963-11-07 13:00","1963","11","07","13:00","8.9","","7.2","","90","","36","","32","","9.7","","98.73","","","","","","Fog"
"1963-11-07 14:00","1963","11","07","14:00","8.9","","7.2","","88","","36","","29","","9.7","","98.67","","","","","","Fog"
"1963-11-07 15:00","1963","11","07","15:00","8.9","","7.8","","92","","36","","29","","4.8","","98.65","","","","","","Rain,Fog"
"1963-11-07 16:00","1963","11","07","16:00","8.9","","7.8","","92","","36","","23","","4.8","","98.61","","","","","","Rain,Fog"
"1963-11-07 17:00","1963","11","07","17:00","8.3","","7.2","","94","","36","","21","","4.8","","98.58","","","","","","Rain,Fog"
"1963-11-07 18:00","1963","11","07","18:00","8.3","","7.2","","94","","34","","26","","9.7","","98.55","","","","","","Rain,Fog"
"1963-11-07 19:00","1963","11","07","19:00","8.3","","7.2","","92","","34","","29","","12.9","","98.49","","","","","","Rain"
"1963-11-07 20:00","1963","11","07","20:00","7.8","","6.7","","94","","36","","29","","11.3","","98.41","","","","","","Rain"
"1963-11-07 21:00","1963","11","07","21:00","7.8","","6.7","","94","","34","","27","","11.3","","98.34","","","","","","Rain"
"1963-11-07 22:00","1963","11","07","22:00","7.2","","6.1","","93","","34","","24","","16.1","","98.28","","","","","","Rain"
"1963-11-07 23:00","1963","11","07","23:00","7.2","","6.1","","93","","34","","27","","16.1","","98.17","","","","","","Rain"
"1963-11-08 00:00","1963","11","08","00:00","7.2","","6.1","","91","","34","","29","","16.1","","98.12","","","","","","Rain"
"1963-11-08 01:00","1963","11","08","01:00","7.2","","6.1","","93","","34","","32","","12.9","","98.07","","","","","","Rain"
"1963-11-08 02:00","1963","11","08","02:00","7.2","","6.1","","93","","34","","32","","12.9","","98.03","","","","","","Rain"
"1963-11-08 03:00","1963","11","08","03:00","7.2","","6.1","","93","","34","","32","","12.9","","97.98","","","","","","Rain"
"1963-11-08 04:00","1963","11","08","04:00","7.2","","6.1","","91","","34","","24","","16.1","","97.96","","","","","","Rain"
"1963-11-08 05:00","1963","11","08","05:00","7.2","","6.1","","91","","34","","32","","16.1","","97.96","","","","","","Rain"
"1963-11-08 06:00","1963","11","08","06:00","7.2","","6.1","","91","","34","","32","","19.3","","97.97","","","","","","Rain"
"1963-11-08 07:00","1963","11","08","07:00","7.8","","6.7","","91","","34","","27","","16.1","","98.01","","","","","","Rain"
"1963-11-08 08:00","1963","11","08","08:00","7.2","","6.1","","91","","34","","26","","16.1","","98.07","","","","","","Rain,Drizzle"
"1963-11-08 09:00","1963","11","08","09:00","7.8","","6.7","","94","","34","","23","","16.1","","98.12","","","","","","Cloudy"
"1963-11-08 10:00","1963","11","08","10:00","7.8","","6.7","","91","","34","","23","","16.1","","98.15","","","","","","Cloudy"
"1963-11-08 11:00","1963","11","08","11:00","8.3","","6.7","","90","","34","","24","","19.3","","98.16","","","","","","Cloudy"
"1963-11-08 12:00","1963","11","08","12:00","8.9","","7.2","","88","","34","","26","","19.3","","98.14","","","","","","Cloudy"
"1963-11-08 13:00","1963","11","08","13:00","8.9","","6.7","","86","","34","","26","","19.3","","98.15","","","","","","Cloudy"
"1963-11-08 14:00","1963","11","08","14:00","8.9","","6.1","","84","","34","","26","","19.3","","98.18","","","","","","Cloudy"
"1963-11-08 15:00","1963","11","08","15:00","8.9","","6.7","","86","","34","","23","","19.3","","98.24","","","","","","Drizzle"
"1963-11-08 16:00","1963","11","08","16:00","8.9","","6.1","","84","","34","","26","","16.1","","98.25","","","","","","Drizzle"
"1963-11-08 17:00","1963","11","08","17:00","8.9","","6.1","","82","","34","","26","","19.3","","98.31","","","","","","Cloudy"
"1963-11-08 18:00","1963","11","08","18:00","8.9","","6.1","","82","","34","","24","","24.1","","98.36","","","","","","Cloudy"
"1963-11-08 19:00","1963","11","08","19:00","8.9","","6.1","","82","","32","","24","","25.0","","98.39","","","","","","Cloudy"
"1963-11-08 20:00","1963","11","08","20:00","8.9","","6.1","","82","","32","","24","","25.0","","98.41","","","","","","Cloudy"
"1963-11-08 21:00","1963","11","08","21:00","8.9","","6.1","","82","","32","","21","","25.0","","98.42","","","","","","Cloudy"
"1963-11-08 22:00","1963","11","08","22:00","8.9","","6.7","","86","","32","","16","","19.3","","98.43","","","","","","Drizzle"
"1963-11-08 23:00","1963","11","08","23:00","8.3","","6.7","","90","","32","","16","","12.9","","98.43","","","","","","Drizzle"
"1963-11-09 00:00","1963","11","09","00:00","7.8","","6.1","","89","","29","","16","","24.1","","98.46","","","","","","Drizzle"
"1963-11-09 01:00","1963","11","09","01:00","8.3","","5.6","","83","","32","","16","","24.1","","98.48","","","","","","Cloudy"
"1963-11-09 02:00","1963","11","09","02:00","7.8","","6.1","","89","","32","","16","","24.1","","98.54","","","","","","Rain"
"1963-11-09 03:00","1963","11","09","03:00","7.8","","6.1","","89","","29","","16","","24.1","","98.59","","","","","","Cloudy"
"1963-11-09 04:00","1963","11","09","04:00","7.8","","6.1","","89","","29","","18","","24.1","","98.64","","","","","","Cloudy"
"1963-11-09 05:00","1963","11","09","05:00","7.2","","5.6","","89","","27","","13","","24.1","","98.70","","","","","","Cloudy"
"1963-11-09 06:00","1963","11","09","06:00","7.8","","6.1","","89","","29","","16","","24.1","","98.74","","","","","","Cloudy"
"1963-11-09 07:00","1963","11","09","07:00","7.8","","5.6","","85","","29","","16","","24.1","","98.76","","","","","","Mostly Cloudy"
"1963-11-09 08:00","1963","11","09","08:00","7.8","","5.6","","85","","29","","14","","24.1","","98.83","","","","","","Mostly Cloudy"
"1963-11-09 09:00","1963","11","09","09:00","8.3","","5.6","","83","","32","","14","","24.1","","98.84","","","","","","Mostly Cloudy"
"1963-11-09 10:00","1963","11","09","10:00","9.4","","6.1","","78","","32","","16","","24.1","","98.86","","","","","","Mostly Cloudy"
"1963-11-09 11:00","1963","11","09","11:00","9.4","","6.1","","78","","29","","13","","24.1","","98.92","","","","","","Mostly Cloudy"
"1963-11-09 12:00","1963","11","09","12:00","10.0","","6.1","","77","","29","","18","","24.1","","98.88","","","","","","Cloudy"
"1963-11-09 13:00","1963","11","09","13:00","10.0","","6.7","","79","","29","","11","","24.1","","98.89","","","","","","Cloudy"
"1963-11-09 14:00","1963","11","09","14:00","10.0","","5.6","","75","","32","","10","","25.0","","98.89","","","","","","Cloudy"
"1963-11-09 15:00","1963","11","09","15:00","10.0","","6.1","","77","","32","","10","","25.0","","98.90","","","","","","Cloudy"
"1963-11-09 16:00","1963","11","09","16:00","10.6","","6.7","","77","","25","","6","","25.0","","98.93","","","","","","Cloudy"
"1963-11-09 17:00","1963","11","09","17:00","10.0","","6.1","","77","","","","0","","25.0","","99.00","","","","","","Cloudy"
"1963-11-09 18:00","1963","11","09","18:00","10.0","","6.7","","79","","25","","10","","25.0","","99.06","","","","","","Cloudy"
"1963-11-09 19:00","1963","11","09","19:00","9.4","","6.1","","80","","25","","11","","24.1","","99.08","","","","","","Cloudy"
"1963-11-09 20:00","1963","11","09","20:00","9.4","","6.7","","82","","25","","10","","24.1","","99.09","","","","","","Cloudy"
"1963-11-09 21:00","1963","11","09","21:00","9.4","","6.7","","82","","","","0","","24.1","","99.12","","","","","","Cloudy"
"1963-11-09 22:00","1963","11","09","22:00","9.4","","6.1","","80","","14","","5","","24.1","","99.10","","","","","","Cloudy"
"1963-11-09 23:00","1963","11","09","23:00","9.4","","6.7","","82","","16","","6","","24.1","","99.05","","","","","","Cloudy"
"1963-11-10 00:00","1963","11","10","00:00","8.9","","6.7","","86","","14","","14","","12.9","","98.96","","","","","","Rain Showers"
"1963-11-10 01:00","1963","11","10","01:00","8.9","","7.2","","88","","23","","11","","12.9","","99.08","","","","","","Cloudy"
"1963-11-10 02:00","1963","11","10","02:00","8.9","","7.2","","88","","16","","10","","11.3","","99.06","","","","","","Cloudy"
"1963-11-10 03:00","1963","11","10","03:00","8.3","","7.2","","92","","14","","11","","9.7","","99.02","","","","","","Fog"
"1963-11-10 04:00","1963","11","10","04:00","8.9","","7.2","","88","","14","","8","","8.0","","98.97","","","","","","Fog"
"1963-11-10 05:00","1963","11","10","05:00","7.8","","6.7","","94","","14","","8","","6.4","","98.99","","","","","","Fog"
"1963-11-10 06:00","1963","11","10","06:00","7.8","","6.7","","94","","","","0","","4.8","","99.01","","","","","","Fog"
"1963-11-10 07:00","1963","11","10","07:00","7.2","","6.7","","98","","","","0","","1.6","","99.01","","","","","","Fog"
"1963-11-10 08:00","1963","11","10","08:00","8.9","","8.3","","96","","9","","8","","1.6","","99.00","","","","","","Fog"
"1963-11-10 09:00","1963","11","10","09:00","9.4","","8.3","","94","","14","","6","","1.6","","98.99","","","","","","Fog"
"1963-11-10 10:00","1963","11","10","10:00","10.6","","8.9","","88","","14","","6","","1.6","","98.96","","","","","","Fog"
"1963-11-10 11:00","1963","11","10","11:00","10.6","","8.3","","85","","18","","6","","4.0","","98.94","","","","","","Fog"
"1963-11-10 12:00","1963","11","10","12:00","11.1","","7.8","","81","","","","0","","4.8","","98.88","","","","","","Haze"
"1963-11-10 13:00","1963","11","10","13:00","11.7","","8.9","","82","","","","0","","4.8","","98.82","","","","","","Haze"
"1963-11-10 14:00","1963","11","10","14:00","12.2","","8.3","","78","","23","","6","","6.4","","98.79","","","","","","Haze"
"1963-11-10 15:00","1963","11","10","15:00","12.8","","8.3","","75","","","","0","","4.8","","98.75","","","","","","Haze"
"1963-11-10 16:00","1963","11","10","16:00","13.3","","8.9","","74","","14","","5","","4.0","","98.75","","","","","","Haze"
"1963-11-10 17:00","1963","11","10","17:00","12.2","","8.9","","80","","","","0","","4.0","","98.76","","","","","","Smoke,Haze"
"1963-11-10 18:00","1963","11","10","18:00","11.7","","9.4","","85","","7","","5","","4.0","","98.75","","","","","","Rain Showers,Fog"
"1963-11-10 19:00","1963","11","10","19:00","11.7","","9.4","","85","","","","0","","4.8","","98.75","","","","","","Fog"
"1963-11-10 20:00","1963","11","10","20:00","10.6","","8.9","","88","","16","","8","","4.0","","98.75","","","","","","Fog"
"1963-11-10 21:00","1963","11","10","21:00","8.9","","8.3","","96","","","","0","","3.2","","98.75","","","","","","Fog"
"1963-11-10 22:00","1963","11","10","22:00","8.9","","8.3","","96","","","","0","","3.2","","98.70","","","","","","Fog"
"1963-11-10 23:00","1963","11","10","23:00","8.3","","7.8","","96","","23","","8","","4.0","","98.68","","","","","","Fog"
"1963-11-11 00:00","1963","11","11","00:00","7.8","","5.6","","87","","34","","13","","24.1","","98.68","","","","","","Mostly Cloudy"
"1963-11-11 01:00","1963","11","11","01:00","6.7","","5.6","","91","","27","","16","","25.0","","98.67","","","","","","Mostly Cloudy"
"1963-11-11 02:00","1963","11","11","02:00","6.7","","3.3","","80","","27","","19","","25.0","","98.68","","","","","","Mainly Clear"
"1963-11-11 03:00","1963","11","11","03:00","5.6","","2.2","","79","","27","","21","","25.0","","98.68","","","","","","Clear"
"1963-11-11 04:00","1963","11","11","04:00","4.4","","1.1","","78","","25","","11","","25.0","","98.72","","","","","","Clear"
"1963-11-11 05:00","1963","11","11","05:00","2.8","","0.6","","87","","25","","18","","25.0","","98.72","","","","","","Clear"
"1963-11-11 06:00","1963","11","11","06:00","2.2","","0.0","","87","","25","","13","","25.0","","98.71","","","","","","Clear"
"1963-11-11 07:00","1963","11","11","07:00","2.2","","0.0","","84","","25","","13","","25.0","","98.72","","","","","","Mainly Clear"
"1963-11-11 08:00","1963","11","11","08:00","2.8","","-0.6","","79","","23","","14","","25.0","","98.74","","","","","","Mainly Clear"
"1963-11-11 09:00","1963","11","11","09:00","5.6","","1.7","","75","","29","","8","","25.0","","98.74","","","","","","Mainly Clear"
"1963-11-11 10:00","1963","11","11","10:00","7.8","","3.3","","73","","27","","16","","25.0","","98.70","","","","","","Mainly Clear"
"1963-11-11 11:00","1963","11","11","11:00","8.9","","2.8","","64","","27","","18","","25.0","","98.67","","","","","","Mainly Clear"
"1963-11-11 12:00","1963","11","11","12:00","9.4","","1.7","","58","","25","","23","","25.0","","98.63","","","","","","Mostly Cloudy"
"1963-11-11 13:00","1963","11","11","13:00","9.4","","1.7","","58","","25","","23","","25.0","","98.58","","","","","","Rain Showers"
"1963-11-11 14:00","1963","11","11","14:00","8.3","","2.8","","67","","32","","14","","19.3","","98.53","","","","","","Mostly Cloudy"
"1963-11-11 15:00","1963","11","11","15:00","8.9","","2.2","","62","","29","","23","","24.1","","98.57","","","","","","Mostly Cloudy"
"1963-11-11 16:00","1963","11","11","16:00","7.2","","2.2","","70","","29","","16","","25.0","","98.59","","","","","","Cloudy"
"1963-11-11 17:00","1963","11","11","17:00","6.1","","1.7","","73","","29","","16","","24.1","","98.60","","","","","","Mostly Cloudy"
"1963-11-11 18:00","1963","11","11","18:00","5.0","","2.8","","86","","27","","11","","25.0","","98.63","","","","","","Cloudy"
"1963-11-11 19:00","1963","11","11","19:00","5.6","","3.9","","88","","25","","13","","25.0","","98.63","","","","","","Mostly Cloudy"
"1963-11-11 20:00","1963","11","11","20:00","5.0","","2.2","","83","","27","","11","","25.0","","98.62","","","","","","Mostly Cloudy"
"1963-11-11 21:00","1963","11","11","21:00","4.4","","1.7","","81","","25","","16","","25.0","","98.57","","","","","","Mostly Cloudy"
"1963-11-11 22:00","1963","11","11","22:00","3.3","","1.1","","85","","23","","13","","24.1","","98.53","","","","","","Mostly Cloudy"
"1963-11-11 23:00","1963","11","11","23:00","3.3","","1.1","","85","","25","","16","","25.0","","98.48","","","","","","Mostly Cloudy"
"1963-11-12 00:00","1963","11","12","00:00","3.3","","1.1","","85","","25","","16","","25.0","","98.45","","","","","","Mainly Clear"
"1963-11-12 01:00","1963","11","12","01:00","3.3","","1.1","","85","","25","","16","","25.0","","98.42","","","","","","Mainly Clear"
"1963-11-12 02:00","1963","11","12","02:00","2.8","","0.6","","87","","27","","13","","25.0","","98.42","","","","","","Mostly Cloudy"
"1963-11-12 03:00","1963","11","12","03:00","2.8","","0.6","","87","","27","","14","","25.0","","98.40","","","","","","Mostly Cloudy"
"1963-11-12 04:00","1963","11","12","04:00","2.8","","0.6","","84","","27","","8","","25.0","","98.38","","","","","","Mostly Cloudy"
"1963-11-12 05:00","1963","11","12","05:00","2.8","","0.6","","84","","25","","8","","25.0","","98.37","","","","","","Mostly Cloudy"
"1963-11-12 06:00","1963","11","12","06:00","2.8","","0.6","","84","","25","","8","","25.0","","98.37","","","","","","Mainly Clear"
"1963-11-12 07:00","1963","11","12","07:00","1.7","","0.0","","89","","23","","8","","25.0","","98.38","","","","","","Mainly Clear"
"1963-11-12 08:00","1963","11","12","08:00","1.1","","-0.6","","89","","23","","10","","16.1","","98.39","","","","","","Mainly Clear"
"1963-11-12 09:00","1963","11","12","09:00","3.3","","0.6","","82","","23","","13","","16.1","","98.38","","","","","","Mainly Clear"
"1963-11-12 10:00","1963","11","12","10:00","4.4","","1.1","","78","","25","","21","","19.3","","98.37","","","","","","Mainly Clear"
"1963-11-12 11:00","1963","11","12","11:00","6.1","","1.1","","71","","25","","27","","24.1","","98.38","","","","","","Mainly Clear"
"1963-11-12 12:00","1963","11","12","12:00","6.1","","1.1","","69","","25","","18","","24.1","","98.32","","","","","","Mostly Cloudy"
"1963-11-12 13:00","1963","11","12","13:00","7.8","","0.6","","61","","25","","18","","24.1","","98.29","","","","","","Mostly Cloudy"
"1963-11-12 14:00","1963","11","12","14:00","7.2","","0.6","","62","","23","","19","","24.1","","98.26","","","","","","Mostly Cloudy"
"1963-11-12 15:00","1963","11","12","15:00","7.2","","0.6","","62","","25","","14","","24.1","","98.27","","","","","","Rain Showers"
"1963-11-12 16:00","1963","11","12","16:00","6.1","","2.8","","80","","25","","13","","24.1","","98.29","","","","","","Rain Showers"
"1963-11-12 17:00","1963","11","12","17:00","5.6","","2.8","","82","","25","","16","","24.1","","98.32","","","","","","Rain Showers"
"1963-11-12 18:00","1963","11","12","18:00","4.4","","2.8","","88","","25","","16","","24.1","","98.35","","","","","","Rain Showers"
"1963-11-12 19:00","1963","11","12","19:00","3.3","","1.7","","87","","25","","16","","24.1","","98.35","","","","","","Rain Showers"
"1963-11-12 20:00","1963","11","12","20:00","2.8","","1.1","","90","","23","","13","","24.1","","98.37","","","","","","Mainly Clear"
"1963-11-12 21:00","1963","11","12","21:00","2.8","","1.1","","90","","25","","11","","24.1","","98.35","","","","","","Mainly Clear"
"1963-11-12 22:00","1963","11","12","22:00","2.8","","1.1","","90","","20","","5","","24.1","","98.34","","","","","","Mainly Clear"
"1963-11-12 23:00","1963","11","12","23:00","2.8","","1.1","","90","","16","","8","","24.1","","98.33","","","","","","Mainly Clear"
"1963-11-13 00:00","1963","11","13","00:00","2.2","","0.6","","89","","20","","10","","19.3","","98.31","","","","","","Mainly Clear"
"1963-11-13 01:00","1963","11","13","01:00","1.7","","0.0","","89","","18","","10","","19.3","","98.30","","","","","","Mainly Clear"
"1963-11-13 02:00","1963","11","13","02:00","1.1","","0.0","","92","","18","","11","","12.9","","98.31","","","","","","Mainly Clear"
"1963-11-13 03:00","1963","11","13","03:00","1.1","","0.0","","92","","18","","8","","12.9","","98.30","","","","","","Mainly Clear"
"1963-11-13 04:00","1963","11","13","04:00","1.7","","0.6","","92","","14","","8","","16.1","","98.30","","","","","","Mostly Cloudy"
"1963-11-13 05:00","1963","11","13","05:00","1.7","","1.1","","97","","14","","13","","11.3","","98.32","","","","","","Cloudy"
"1963-11-13 06:00","1963","11","13","06:00","2.2","","1.7","","95","","14","","11","","8.0","","98.35","","","","","","Drizzle,Fog"
"1963-11-13 07:00","1963","11","13","07:00","2.8","","1.7","","92","","14","","11","","4.0","","98.38","","","","","","Drizzle,Fog"
"1963-11-13 08:00","1963","11","13","08:00","3.3","","2.2","","92","","18","","11","","4.8","","98.47","","","","","","Fog"
"1963-11-13 09:00","1963","11","13","09:00","4.4","","3.3","","93","","18","","11","","4.0","","98.52","","","","","","Drizzle,Fog"
"1963-11-13 10:00","1963","11","13","10:00","5.6","","2.8","","84","","18","","8","","11.3","","98.54","","","","","","Mostly Cloudy"
"1963-11-13 11:00","1963","11","13","11:00","5.6","","2.2","","79","","11","","5","","12.9","","98.59","","","","","","Mostly Cloudy"
"1963-11-13 12:00","1963","11","13","12:00","5.6","","2.2","","79","","14","","8","","12.9","","98.59","","","","","","Mostly Cloudy"
"1963-11-13 13:00","1963","11","13","13:00","5.6","","1.7","","75","","9","","5","","16.1","","98.63","","","","","","Mostly Cloudy"
"1963-11-13 14:00","1963","11","13","14:00","6.7","","2.2","","74","","14","","8","","16.1","","98.67","","","","","","Mostly Cloudy"
"1963-11-13 15:00","1963","11","13","15:00","6.7","","1.7","","72","","14","","5","","12.9","","98.73","","","","","","Mostly Cloudy"
"1963-11-13 16:00","1963","11","13","16:00","6.7","","1.7","","72","","11","","8","","12.9","","98.76","","","","","","Mostly Cloudy"
"1963-11-13 17:00","1963","11","13","17:00","5.0","","1.7","","79","","5","","5","","12.9","","98.84","","","","","","Mostly Cloudy"
"1963-11-13 18:00","1963","11","13","18:00","5.0","","1.7","","79","","","","0","","16.1","","98.92","","","","","","Mostly Cloudy"
"1963-11-13 19:00","1963","11","13","19:00","4.4","","1.7","","83","","","","0","","12.9","","98.94","","","","","","Mostly Cloudy"
"1963-11-13 20:00","1963","11","13","20:00","3.9","","1.7","","85","","36","","6","","16.1","","98.98","","","","","","Mostly Cloudy"
"1963-11-13 21:00","1963","11","13","21:00","2.8","","1.1","","90","","36","","8","","16.1","","99.04","","","","","","Mostly Cloudy"
"1963-11-13 22:00","1963","11","13","22:00","2.2","","0.6","","89","","36","","10","","16.1","","99.04","","","","","","Mostly Cloudy"
"1963-11-13 23:00","1963","11","13","23:00","2.8","","1.1","","90","","34","","13","","16.1","","99.08","","","","","","Mostly Cloudy"
"1963-11-14 00:00","1963","11","14","00:00","3.3","","1.7","","90","","34","","11","","16.1","","99.09","","","","","","Mostly Cloudy"
"1963-11-14 01:00","1963","11","14","01:00","2.8","","0.6","","87","","34","","10","","16.1","","99.12","","","","","","Mainly Clear"
"1963-11-14 02:00","1963","11","14","02:00","1.7","","0.0","","89","","34","","10","","12.9","","99.15","","","","","","Mainly Clear"
"1963-11-14 03:00","1963","11","14","03:00","1.7","","0.6","","92","","32","","11","","12.9","","99.14","","","","","","Mainly Clear"
"1963-11-14 04:00","1963","11","14","04:00","0.6","","-0.6","","91","","27","","6","","12.9","","99.16","","","","","","Mainly Clear"
"1963-11-14 05:00","1963","11","14","05:00","-0.6","","-1.7","","91","","29","","6","","16.1","","99.18","","","","-3","","Mainly Clear"
"1963-11-14 06:00","1963","11","14","06:00","0.6","","-1.1","","89","","29","","6","","16.1","","99.20","","","","","","Mainly Clear"
"1963-11-14 07:00","1963","11","14","07:00","1.7","","0.0","","89","","29","","8","","19.3","","99.23","","","","","","Mostly Cloudy"
"1963-11-14 08:00","1963","11","14","08:00","3.3","","0.6","","82","","32","","13","","24.1","","99.27","","","","","","Mostly Cloudy"
"1963-11-14 09:00","1963","11","14","09:00","3.3","","1.1","","85","","32","","11","","24.1","","99.33","","","","","","Mostly Cloudy"
"1963-11-14 10:00","1963","11","14","10:00","5.0","","2.2","","83","","32","","10","","24.1","","99.31","","","","","","Mainly Clear"
"1963-11-14 11:00","1963","11","14","11:00","6.7","","-0.6","","59","","32","","32","","25.0","","99.26","","","","","","Mainly Clear"
"1963-11-14 12:00","1963","11","14","12:00","7.2","","-2.2","","50","","32","","32","","25.0","","99.23","","","","","","Mostly Cloudy"
"1963-11-14 13:00","1963","11","14","13:00","4.4","","-3.3","","58","","32","","29","","25.0","","99.21","","","","","","Mostly Cloudy"
"1963-11-14 14:00","1963","11","14","14:00","5.0","","-2.8","","56","","32","","27","","25.0","","99.22","","","","","","Mostly Cloudy"
"1963-11-14 15:00","1963","11","14","15:00","4.4","","-2.8","","60","","32","","31","","25.0","","99.27","","","","","","Cloudy"
"1963-11-14 16:00","1963","11","14","16:00","3.9","","-2.8","","61","","32","","31","","25.0","","99.33","","","","","","Cloudy"
"1963-11-14 17:00","1963","11","14","17:00","2.8","","-2.2","","69","","36","","24","","25.0","","99.40","","","","","","Snow Showers"
"1963-11-14 18:00","1963","11","14","18:00","1.7","","-1.7","","78","","36","","14","","25.0","","99.48","","","","","","Snow Showers"
"1963-11-14 19:00","1963","11","14","19:00","1.7","","-2.2","","76","","36","","10","","25.0","","99.54","","","","","","Snow Showers"
"1963-11-14 20:00","1963","11","14","20:00","2.2","","-3.3","","66","","34","","11","","25.0","","99.62","","","","","","Cloudy"
"1963-11-14 21:00","1963","11","14","21:00","1.1","","-3.9","","68","","32","","10","","25.0","","99.66","","","","","","Mostly Cloudy"
"1963-11-14 22:00","1963","11","14","22:00","1.7","","-3.9","","67","","34","","13","","25.0","","99.71","","","","","","Mostly Cloudy"
"1963-11-14 23:00","1963","11","14","23:00","1.7","","-3.9","","67","","32","","10","","25.0","","99.75","","","","","","Cloudy"
"1963-11-15 00:00","1963","11","15","00:00","1.7","","-3.9","","67","","29","","6","","25.0","","99.75","","","","","","Cloudy"
"1963-11-15 01:00","1963","11","15","01:00","1.7","","-3.9","","67","","27","","5","","25.0","","99.75","","","","","","Snow Showers"
"1963-11-15 02:00","1963","11","15","02:00","1.7","","-3.3","","70","","23","","10","","25.0","","99.77","","","","","","Cloudy"
"1963-11-15 03:00","1963","11","15","03:00","1.7","","-2.8","","72","","","","0","","25.0","","99.76","","","","","","Cloudy"
"1963-11-15 04:00","1963","11","15","04:00","2.2","","-2.2","","71","","18","","10","","25.0","","99.77","","","","","","Cloudy"
"1963-11-15 05:00","1963","11","15","05:00","1.7","","-2.8","","73","","23","","8","","25.0","","99.81","","","","","","Cloudy"
"1963-11-15 06:00","1963","11","15","06:00","2.8","","0.0","","82","","25","","16","","19.3","","99.84","","","","","","Cloudy"
"1963-11-15 07:00","1963","11","15","07:00","2.8","","0.0","","82","","25","","23","","16.1","","99.89","","","","","","Cloudy"
"1963-11-15 08:00","1963","11","15","08:00","3.3","","0.6","","82","","25","","26","","16.1","","99.89","","","","","","Cloudy"
"1963-11-15 09:00","1963","11","15","09:00","3.9","","0.0","","75","","25","","24","","24.1","","99.89","","","","","","Mostly Cloudy"
"1963-11-15 10:00","1963","11","15","10:00","4.4","","-1.1","","67","","23","","24","","24.1","","99.89","","","","","","Cloudy"
"1963-11-15 11:00","1963","11","15","11:00","5.0","","-1.7","","63","","23","","24","","25.0","","99.86","","","","","","Cloudy"
"1963-11-15 12:00","1963","11","15","12:00","5.0","","-1.7","","61","","25","","29","","19.3","","99.78","","","","","","Cloudy"
"1963-11-15 13:00","1963","11","15","13:00","5.0","","-2.2","","59","","23","","16","","24.1","","99.74","","","","","","Cloudy"
"1963-11-15 14:00","1963","11","15","14:00","5.6","","-1.1","","62","","23","","29","","25.0","","99.67","","","","","","Cloudy"
"1963-11-15 15:00","1963","11","15","15:00","6.1","","0.0","","65","","25","","29","","24.1","","99.67","","","","","","Cloudy"
"1963-11-15 16:00","1963","11","15","16:00","6.7","","0.0","","63","","25","","19","","24.1","","99.61","","","","","","Cloudy"
"1963-11-15 17:00","1963","11","15","17:00","7.2","","0.6","","62","","25","","27","","24.1","","99.65","","","","","","Mostly Cloudy"
"1963-11-15 18:00","1963","11","15","18:00","6.7","","0.0","","63","","25","","24","","24.1","","99.64","","","","","","Mostly Cloudy"
"1963-11-15 19:00","1963","11","15","19:00","6.1","","0.0","","65","","23","","27","","24.1","","99.61","","","","","","Mostly Cloudy"
"1963-11-15 20:00","1963","11","15","20:00","6.1","","0.0","","65","","25","","24","","24.1","","99.58","","","","","","Mostly Cloudy"
"1963-11-15 21:00","1963","11","15","21:00","5.6","","0.0","","68","","23","","29","","24.1","","99.57","","","","","","Mainly Clear"
"1963-11-15 22:00","1963","11","15","22:00","6.7","","0.6","","65","","25","","27","","24.1","","99.53","","","","","","Mainly Clear"
"1963-11-15 23:00","1963","11","15","23:00","6.7","","0.0","","63","","25","","32","","24.1","","99.49","","","","","","Mainly Clear"
"1963-11-16 00:00","1963","11","16","00:00","6.7","","0.0","","63","","23","","29","","24.1","","99.48","","","","","","Mostly Cloudy"
"1963-11-16 01:00","1963","11","16","01:00","8.3","","-0.6","","54","","25","","29","","24.1","","99.45","","","","","","Mostly Cloudy"
"1963-11-16 02:00","1963","11","16","02:00","8.3","","-0.6","","54","","25","","29","","24.1","","99.47","","","","","","Cloudy"
"1963-11-16 03:00","1963","11","16","03:00","7.8","","0.0","","59","","25","","29","","24.1","","99.45","","","","","","Cloudy"
"1963-11-16 04:00","1963","11","16","04:00","7.8","","-0.6","","55","","25","","24","","24.1","","99.48","","","","","","Cloudy"
"1963-11-16 05:00","1963","11","16","05:00","7.8","","0.0","","59","","25","","24","","24.1","","99.51","","","","","","Cloudy"
"1963-11-16 06:00","1963","11","16","06:00","7.2","","0.0","","60","","25","","14","","24.1","","99.50","","","","","","Cloudy"
"1963-11-16 07:00","1963","11","16","07:00","7.2","","1.1","","64","","25","","13","","24.1","","99.52","","","","","","Cloudy"
"1963-11-16 08:00","1963","11","16","08:00","7.8","","1.1","","63","","23","","18","","19.3","","99.54","","","","","","Cloudy"
"1963-11-16 09:00","1963","11","16","09:00","7.8","","0.0","","59","","23","","21","","19.3","","99.56","","","","","","Cloudy"
"1963-11-16 10:00","1963","11","16","10:00","8.9","","1.1","","59","","23","","16","","16.1","","99.53","","","","","","Cloudy"
"1963-11-16 11:00","1963","11","16","11:00","9.4","","1.1","","56","","23","","21","","16.1","","99.53","","","","","","Cloudy"
"1963-11-16 12:00","1963","11","16","12:00","11.1","","1.1","","50","","23","","14","","16.1","","99.48","","","","","","Mainly Clear"
"1963-11-16 13:00","1963","11","16","13:00","12.2","","1.1","","47","","23","","16","","16.1","","99.42","","","","","","Mostly Cloudy"
"1963-11-16 14:00","1963","11","16","14:00","12.2","","1.7","","49","","25","","10","","16.1","","99.40","","","","","","Cloudy"
"1963-11-16 15:00","1963","11","16","15:00","12.2","","1.7","","49","","25","","18","","16.1","","99.41","","","","","","Cloudy"
"1963-11-16 16:00","1963","11","16","16:00","12.2","","1.7","","49","","23","","8","","16.1","","99.42","","","","","","Cloudy"
"1963-11-16 17:00","1963","11","16","17:00","11.1","","2.2","","53","","18","","8","","16.1","","99.42","","","","","","Mostly Cloudy"
"1963-11-16 18:00","1963","11","16","18:00","10.0","","2.2","","59","","23","","16","","16.1","","99.44","","","","","","Mostly Cloudy"
"1963-11-16 19:00","1963","11","16","19:00","10.0","","3.3","","64","","23","","16","","16.1","","99.51","","","","","","Mostly Cloudy"
"1963-11-16 20:00","1963","11","16","20:00","10.0","","3.3","","64","","23","","19","","16.1","","99.54","","","","","","Cloudy"
"1963-11-16 21:00","1963","11","16","21:00","10.0","","3.3","","64","","20","","16","","24.1","","99.54","","","","","","Cloudy"
"1963-11-16 22:00","1963","11","16","22:00","10.0","","3.3","","64","","20","","19","","24.1","","99.54","","","","","","Cloudy"
"1963-11-16 23:00","1963","11","16","23:00","10.0","","5.0","","71","","20","","24","","24.1","","99.54","","","","","","Cloudy"
"1963-11-17 00:00","1963","11","17","00:00","10.0","","5.0","","71","","23","","24","","24.1","","99.56","","","","","","Cloudy"
"1963-11-17 01:00","1963","11","17","01:00","9.4","","5.0","","74","","23","","19","","19.3","","99.53","","","","","","Cloudy"
"1963-11-17 02:00","1963","11","17","02:00","10.0","","4.4","","69","","20","","21","","19.3","","99.51","","","","","","Cloudy"
"1963-11-17 03:00","1963","11","17","03:00","10.0","","5.0","","71","","20","","14","","19.3","","99.47","","","","","","Mostly Cloudy"
"1963-11-17 04:00","1963","11","17","04:00","10.0","","5.0","","71","","18","","11","","19.3","","99.45","","","","","","Cloudy"
"1963-11-17 05:00","1963","11","17","05:00","9.4","","5.0","","74","","18","","16","","24.1","","99.41","","","","","","Mostly Cloudy"
"1963-11-17 06:00","1963","11","17","06:00","8.9","","5.0","","78","","18","","13","","24.1","","99.39","","","","","","Mostly Cloudy"
"1963-11-17 07:00","1963","11","17","07:00","10.0","","5.6","","73","","20","","16","","24.1","","99.40","","","","","","Cloudy"
"1963-11-17 08:00","1963","11","17","08:00","10.0","","5.0","","71","","20","","19","","12.9","","99.44","","","","","","Cloudy"
"1963-11-17 09:00","1963","11","17","09:00","10.6","","5.6","","70","","20","","14","","12.9","","99.41","","","","","","Cloudy"
"1963-11-17 10:00","1963","11","17","10:00","11.7","","6.1","","69","","20","","21","","12.9","","99.36","","","","","","Mostly Cloudy"
"1963-11-17 11:00","1963","11","17","11:00","13.3","","7.2","","66","","20","","23","","16.1","","99.34","","","","","","Mostly Cloudy"
"1963-11-17 12:00","1963","11","17","12:00","15.0","","7.2","","60","","20","","24","","19.3","","99.29","","","","","","Mostly Cloudy"
"1963-11-17 13:00","1963","11","17","13:00","15.6","","7.8","","59","","20","","24","","16.1","","99.22","","","","","","Mostly Cloudy"
"1963-11-17 14:00","1963","11","17","14:00","15.6","","7.2","","58","","20","","26","","19.3","","99.16","","","","","","Mostly Cloudy"
"1963-11-17 15:00","1963","11","17","15:00","15.6","","7.2","","58","","23","","27","","19.3","","99.16","","","","","","Cloudy"
"1963-11-17 16:00","1963","11","17","16:00","15.6","","7.2","","57","","23","","23","","16.1","","99.19","","","","","","Cloudy"
"1963-11-17 17:00","1963","11","17","17:00","15.6","","7.2","","57","","23","","24","","16.1","","99.17","","","","","","Mostly Cloudy"
"1963-11-17 18:00","1963","11","17","18:00","15.6","","7.8","","59","","23","","23","","19.3","","99.22","","","","","","Cloudy"
"1963-11-17 19:00","1963","11","17","19:00","15.6","","8.9","","65","","18","","11","","19.3","","99.23","","","","","","Cloudy"
"1963-11-17 20:00","1963","11","17","20:00","13.9","","8.3","","68","","18","","19","","19.3","","99.15","","","","","","Mainly Clear"
"1963-11-17 21:00","1963","11","17","21:00","14.4","","8.9","","69","","25","","10","","19.3","","99.20","","","","","","Mostly Cloudy"
"1963-11-17 22:00","1963","11","17","22:00","13.9","","9.4","","75","","29","","24","","12.9","","99.28","","","","","","Thunderstorms,Heavy Rain Showers"
"1963-11-17 23:00","1963","11","17","23:00","12.8","","11.7","","93","","23","","14","","8.0","","99.23","","","","","","Thunderstorms,Moderate Rain Showers,Fog"
"1963-11-18 00:00","1963","11","18","00:00","12.2","","11.7","","96","","23","","13","","16.1","","99.29","","","","","","Thunderstorms,Moderate Rain Showers"
"1963-11-18 01:00","1963","11","18","01:00","12.8","","11.7","","95","","18","","13","","19.3","","99.15","","","","","","Rain Showers"
"1963-11-18 02:00","1963","11","18","02:00","12.8","","11.7","","93","","18","","14","","19.3","","99.13","","","","","","Mostly Cloudy"
"1963-11-18 03:00","1963","11","18","03:00","12.8","","11.7","","95","","23","","11","","16.1","","99.20","","","","","","Rain Showers"
"1963-11-18 04:00","1963","11","18","04:00","12.2","","11.7","","96","","18","","13","","16.1","","99.05","","","","","","Rain Showers"
"1963-11-18 05:00","1963","11","18","05:00","12.2","","11.7","","96","","18","","14","","16.1","","99.02","","","","","","Rain Showers"
"1963-11-18 06:00","1963","11","18","06:00","12.2","","11.7","","96","","20","","23","","11.3","","99.01","","","","","","Thunderstorms,Moderate Rain Showers"
"1963-11-18 07:00","1963","11","18","07:00","12.8","","11.7","","93","","20","","19","","12.9","","98.99","","","","","","Thunderstorms,Rain Showers"
"1963-11-18 08:00","1963","11","18","08:00","13.3","","11.7","","91","","20","","26","","8.0","","98.96","","","","","","Fog"
"1963-11-18 09:00","1963","11","18","09:00","13.9","","12.8","","93","","23","","29","","3.2","","98.94","","","","","","Rain Showers,Fog"
"1963-11-18 10:00","1963","11","18","10:00","13.9","","12.8","","93","","20","","26","","6.4","","98.90","","","","","","Rain Showers,Fog"
"1963-11-18 11:00","1963","11","18","11:00","14.4","","13.3","","93","","20","","24","","4.8","","98.88","","","","","","Rain Showers,Fog"
"1963-11-18 12:00","1963","11","18","12:00","14.4","","13.3","","93","","20","","26","","4.0","","98.80","","","","","","Rain Showers,Fog"
"1963-11-18 13:00","1963","11","18","13:00","15.6","","13.3","","85","","25","","24","","19.3","","98.77","","","","","","Mostly Cloudy"
"1963-11-18 14:00","1963","11","18","14:00","15.0","","10.6","","74","","27","","35","","19.3","","98.81","","","","","","Mostly Cloudy"
"1963-11-18 15:00","1963","11","18","15:00","13.9","","8.3","","70","","27","","35","","19.3","","98.82","","","","","","Mostly Cloudy"
"1963-11-18 16:00","1963","11","18","16:00","13.3","","9.4","","76","","25","","34","","19.3","","98.94","","","","","","Mostly Cloudy"
"1963-11-18 17:00","1963","11","18","17:00","11.7","","8.9","","82","","25","","29","","16.1","","99.04","","","","","","Mostly Cloudy"
"1963-11-18 18:00","1963","11","18","18:00","9.4","","6.1","","80","","29","","39","","19.3","","99.26","","","","","","Cloudy"
"1963-11-18 19:00","1963","11","18","19:00","7.2","","4.4","","83","","29","","39","","24.1","","99.41","","","","","","Cloudy"
"1963-11-18 20:00","1963","11","18","20:00","6.7","","3.9","","82","","29","","23","","24.1","","99.57","","","","","","Cloudy"
"1963-11-18 21:00","1963","11","18","21:00","6.7","","3.9","","82","","29","","27","","24.1","","99.65","","","","","","Cloudy"
"1963-11-18 22:00","1963","11","18","22:00","6.7","","3.9","","82","","29","","24","","24.1","","99.76","","","","","","Cloudy"
"1963-11-18 23:00","1963","11","18","23:00","6.7","","3.9","","82","","32","","24","","24.1","","99.84","","","","","","Cloudy"
"1963-11-19 00:00","1963","11","19","00:00","6.7","","2.8","","76","","29","","19","","24.1","","99.94","","","","","","Cloudy"
"1963-11-19 01:00","1963","11","19","01:00","6.1","","1.7","","73","","32","","19","","24.1","","99.98","","","","","","Cloudy"
"1963-11-19 02:00","1963","11","19","02:00","6.1","","2.8","","80","","29","","16","","24.1","","100.10","","","","","","Cloudy"
"1963-11-19 03:00","1963","11","19","03:00","6.1","","2.2","","75","","27","","11","","24.1","","100.13","","","","","","Cloudy"
"1963-11-19 04:00","1963","11","19","04:00","6.1","","2.2","","75","","","","0","","24.1","","100.11","","","","","","Cloudy"
"1963-11-19 05:00","1963","11","19","05:00","6.7","","2.2","","74","","29","","6","","24.1","","100.14","","","","","","Cloudy"
"1963-11-19 06:00","1963","11","19","06:00","6.7","","1.1","","67","","27","","16","","24.1","","100.17","","","","","","Cloudy"
"1963-11-19 07:00","1963","11","19","07:00","6.7","","1.1","","67","","29","","16","","24.1","","100.27","","","","","","Cloudy"
"1963-11-19 08:00","1963","11","19","08:00","5.6","","0.6","","70","","29","","8","","24.1","","100.30","","","","","","Mostly Cloudy"
"1963-11-19 09:00","1963","11","19","09:00","6.1","","0.6","","67","","29","","6","","24.1","","100.40","","","","","","Mostly Cloudy"
"1963-11-19 10:00","1963","11","19","10:00","7.2","","1.1","","64","","27","","13","","24.1","","100.44","","","","","","Mostly Cloudy"
"1963-11-19 11:00","1963","11","19","11:00","7.8","","0.6","","61","","27","","11","","25.0","","100.45","","","","","","Mainly Clear"
"1963-11-19 12:00","1963","11","19","12:00","8.9","","0.6","","57","","25","","13","","25.0","","100.40","","","","","","Mainly Clear"
"1963-11-19 13:00","1963","11","19","13:00","9.4","","0.6","","54","","27","","19","","25.0","","100.39","","","","","","Mainly Clear"
"1963-11-19 14:00","1963","11","19","14:00","10.6","","1.1","","52","","27","","16","","25.0","","100.36","","","","","","Mainly Clear"
"1963-11-19 15:00","1963","11","19","15:00","11.1","","1.7","","52","","25","","16","","25.0","","100.35","","","","","","Mainly Clear"
"1963-11-19 16:00","1963","11","19","16:00","10.6","","1.7","","54","","25","","18","","25.0","","100.42","","","","","","Mainly Clear"
"1963-11-19 17:00","1963","11","19","17:00","8.3","","2.8","","67","","25","","14","","25.0","","100.52","","","","","","Mainly Clear"
"1963-11-19 18:00","1963","11","19","18:00","7.2","","2.8","","72","","23","","11","","25.0","","100.59","","","","","","Clear"
"1963-11-19 19:00","1963","11","19","19:00","6.7","","2.8","","76","","27","","3","","25.0","","100.63","","","","","","Clear"
"1963-11-19 20:00","1963","11","19","20:00","6.1","","2.2","","75","","25","","8","","25.0","","100.65","","","","","","Clear"
"1963-11-19 21:00","1963","11","19","21:00","4.4","","1.7","","81","","23","","10","","25.0","","100.67","","","","","","Clear"
"1963-11-19 22:00","1963","11","19","22:00","4.4","","1.7","","81","","20","","6","","25.0","","100.66","","","","","","Clear"
"1963-11-19 23:00","1963","11","19","23:00","3.3","","1.1","","85","","23","","5","","25.0","","100.67","","","","","","Clear"
"1963-11-20 00:00","1963","11","20","00:00","2.8","","0.6","","87","","25","","5","","16.1","","100.67","","","","","","Clear"
"1963-11-20 01:00","1963","11","20","01:00","2.2","","0.6","","89","","","","0","","8.0","","100.69","","","","","","Fog"
"1963-11-20 02:00","1963","11","20","02:00","1.7","","0.6","","92","","","","0","","4.8","","100.71","","","","","","Fog"
"1963-11-20 03:00","1963","11","20","03:00","0.6","","0.0","","94","","34","","5","","4.8","","100.73","","","","","","Fog"
"1963-11-20 04:00","1963","11","20","04:00","0.6","","0.0","","94","","36","","6","","4.8","","100.74","","","","","","Fog"
"1963-11-20 05:00","1963","11","20","05:00","0.0","","-0.6","","97","","7","","3","","4.8","","100.74","","","","-1","","Fog"
"1963-11-20 06:00","1963","11","20","06:00","-0.6","","-1.7","","93","","5","","3","","2.4","","100.75","","","","-2","","Fog"
"1963-11-20 07:00","1963","11","20","07:00","0.0","","-1.1","","91","","","","0","","1.6","","100.75","","","","","","Fog"
"1963-11-20 08:00","1963","11","20","08:00","1.7","","0.6","","92","","","","0","","2.4","","100.75","","","","","","Fog"
"1963-11-20 09:00","1963","11","20","09:00","3.3","","1.7","","90","","5","","5","","1.6","","100.70","","","","","","Fog"
"1963-11-20 10:00","1963","11","20","10:00","7.8","","5.6","","85","","11","","16","","4.0","","100.66","","","","","","Fog"
"1963-11-20 11:00","1963","11","20","11:00","8.3","","3.9","","73","","11","","16","","9.7","","100.59","","","","","","Haze"
"1963-11-20 12:00","1963","11","20","12:00","8.9","","2.8","","64","","11","","16","","12.9","","100.44","","","","","","Mostly Cloudy"
"1963-11-20 13:00","1963","11","20","13:00","8.3","","2.8","","67","","11","","19","","12.9","","100.34","","","","","","Mostly Cloudy"
"1963-11-20 14:00","1963","11","20","14:00","8.9","","2.8","","66","","11","","16","","12.9","","100.23","","","","","","Cloudy"
"1963-11-20 15:00","1963","11","20","15:00","9.4","","2.8","","63","","11","","16","","12.9","","100.22","","","","","","Cloudy"
"1963-11-20 16:00","1963","11","20","16:00","9.4","","2.8","","63","","11","","16","","9.7","","100.16","","","","","","Haze"
"1963-11-20 17:00","1963","11","20","17:00","8.3","","3.9","","73","","9","","16","","8.0","","100.09","","","","","","Haze"
"1963-11-20 18:00","1963","11","20","18:00","7.8","","4.4","","79","","9","","11","","8.0","","100.02","","","","","","Haze"
"1963-11-20 19:00","1963","11","20","19:00","8.3","","4.4","","75","","9","","13","","8.0","","99.97","","","","","","Haze"
"1963-11-20 20:00","1963","11","20","20:00","8.3","","4.4","","77","","14","","16","","8.0","","99.97","","","","","","Haze"
"1963-11-20 21:00","1963","11","20","21:00","8.3","","6.1","","87","","16","","18","","9.7","","99.94","","","","","","Rain,Fog"
"1963-11-20 22:00","1963","11","20","22:00","8.3","","6.1","","85","","14","","18","","11.3","","99.86","","","","","","Rain"
"1963-11-20 23:00","1963","11","20","23:00","8.3","","6.1","","87","","14","","18","","12.9","","99.82","","","","","","Cloudy"
"1963-11-21 00:00","1963","11","21","00:00","8.3","","7.2","","92","","14","","16","","9.7","","99.78","","","","","","Rain"
"1963-11-21 01:00","1963","11","21","01:00","8.3","","7.2","","94","","14","","19","","8.0","","99.63","","","","","","Moderate Rain"
"1963-11-21 02:00","1963","11","21","02:00","8.3","","7.8","","96","","14","","21","","6.4","","99.63","","","","","","Fog"
"1963-11-21 03:00","1963","11","21","03:00","8.3","","7.8","","96","","14","","21","","8.0","","99.59","","","","","","Fog"
"1963-11-21 04:00","1963","11","21","04:00","8.9","","8.3","","96","","16","","19","","8.0","","99.55","","","","","","Fog"
"1963-11-21 05:00","1963","11","21","05:00","10.0","","9.4","","98","","18","","14","","8.0","","99.53","","","","","","Rain,Drizzle"
"1963-11-21 06:00","1963","11","21","06:00","10.6","","10.0","","96","","20","","18","","11.3","","99.55","","","","","","Rain"
"1963-11-21 07:00","1963","11","21","07:00","11.7","","11.1","","96","","23","","16","","2.0","","99.59","","","","","","Drizzle,Fog"
"1963-11-21 08:00","1963","11","21","08:00","11.7","","11.1","","96","","23","","16","","2.4","","99.65","","","","","","Fog"
"1963-11-21 09:00","1963","11","21","09:00","12.8","","11.1","","91","","25","","19","","8.0","","99.74","","","","","","Fog"
"1963-11-21 10:00","1963","11","21","10:00","12.8","","11.1","","91","","25","","19","","8.0","","99.82","","","","","","Fog"
"1963-11-21 11:00","1963","11","21","11:00","12.8","","11.1","","89","","25","","21","","6.4","","99.90","","","","","","Drizzle,Fog"
"1963-11-21 12:00","1963","11","21","12:00","12.8","","11.1","","89","","25","","24","","12.9","","99.88","","","","","","Cloudy"
"1963-11-21 13:00","1963","11","21","13:00","13.3","","11.1","","86","","25","","18","","16.1","","99.91","","","","","","Mostly Cloudy"
"1963-11-21 14:00","1963","11","21","14:00","12.8","","10.0","","82","","25","","21","","16.1","","100.00","","","","","","Cloudy"
"1963-11-21 15:00","1963","11","21","15:00","12.8","","10.0","","84","","27","","18","","9.7","","100.03","","","","","","Haze"
"1963-11-21 16:00","1963","11","21","16:00","12.8","","9.4","","81","","27","","16","","12.9","","100.16","","","","","","Mostly Cloudy"
"1963-11-21 17:00","1963","11","21","17:00","12.8","","10.0","","82","","27","","8","","16.1","","100.21","","","","","","Cloudy"
"1963-11-21 18:00","1963","11","21","18:00","12.2","","9.4","","84","","27","","11","","19.3","","100.26","","","","","","Cloudy"
"1963-11-21 19:00","1963","11","21","19:00","12.2","","9.4","","84","","27","","8","","24.1","","100.31","","","","","","Cloudy"
"1963-11-21 20:00","1963","11","21","20:00","11.7","","9.4","","87","","25","","5","","24.1","","100.33","","","","","","Cloudy"
"1963-11-21 21:00","1963","11","21","21:00","11.1","","8.9","","87","","25","","8","","19.3","","100.36","","","","","","Cloudy"
"1963-11-21 22:00","1963","11","21","22:00","11.1","","8.9","","85","","","","0","","24.1","","100.40","","","","","","Mainly Clear"
"1963-11-21 23:00","1963","11","21","23:00","9.4","","7.8","","90","","23","","5","","24.1","","100.42","","","","","","Mostly Cloudy"
"1963-11-22 00:00","1963","11","22","00:00","9.4","","7.8","","90","","","","0","","12.9","","100.41","","","","","","Mostly Cloudy"
"1963-11-22 01:00","1963","11","22","01:00","8.9","","7.8","","92","","23","","6","","8.0","","100.39","","","","","","Fog"
"1963-11-22 02:00","1963","11","22","02:00","9.4","","8.3","","92","","","","0","","8.0","","100.41","","","","","","Fog"
"1963-11-22 03:00","1963","11","22","03:00","9.4","","8.3","","94","","14","","8","","4.8","","100.37","","","","","","Fog"
"1963-11-22 04:00","1963","11","22","04:00","8.9","","8.3","","96","","14","","11","","1.0","","100.30","","","","","","Fog"
"1963-11-22 05:00","1963","11","22","05:00","8.3","","8.3","","100","","16","","6","","0.0","","100.29","","","","","","Fog"
"1963-11-22 06:00","1963","11","22","06:00","8.3","","8.3","","100","","20","","3","","0.0","","100.32","","","","","","Fog"
"1963-11-22 07:00","1963","11","22","07:00","8.3","","8.3","","100","","","","0","","0.2","","100.28","","","","","","Fog"
"1963-11-22 08:00","1963","11","22","08:00","8.3","","7.8","","98","","14","","6","","0.2","","100.21","","","","","","Fog"
"1963-11-22 09:00","1963","11","22","09:00","8.3","","7.8","","98","","11","","6","","0.4","","100.16","","","","","","Fog"
"1963-11-22 10:00","1963","11","22","10:00","8.9","","7.8","","94","","14","","6","","1.2","","100.12","","","","","","Fog"
"1963-11-22 11:00","1963","11","22","11:00","9.4","","8.3","","92","","14","","6","","3.2","","100.10","","","","","","Fog"
"1963-11-22 12:00","1963","11","22","12:00","10.6","","8.3","","87","","14","","8","","3.2","","99.98","","","","","","Fog"
"1963-11-22 13:00","1963","11","22","13:00","10.0","","7.8","","86","","14","","11","","2.0","","99.89","","","","","","Rain,Fog"
"1963-11-22 14:00","1963","11","22","14:00","10.0","","8.3","","88","","11","","13","","2.0","","99.76","","","","","","Rain,Fog"
"1963-11-22 15:00","1963","11","22","15:00","10.6","","8.9","","88","","9","","8","","2.0","","99.59","","","","","","Rain,Fog"
"1963-11-22 16:00","1963","11","22","16:00","10.6","","8.9","","88","","14","","24","","2.4","","99.45","","","","","","Fog"
"1963-11-22 17:00","1963","11","22","17:00","11.1","","9.4","","90","","11","","23","","2.4","","99.35","","","","","","Fog"
"1963-11-22 18:00","1963","11","22","18:00","11.7","","10.0","","89","","11","","21","","4.8","","99.25","","","","","","Fog"
"1963-11-22 19:00","1963","11","22","19:00","12.2","","10.0","","85","","11","","23","","6.4","","99.10","","","","","","Fog"
"1963-11-22 20:00","1963","11","22","20:00","10.6","","9.4","","92","","14","","5","","6.4","","99.03","","","","","","Fog"
"1963-11-22 21:00","1963","11","22","21:00","12.8","","10.0","","82","","14","","19","","6.4","","98.87","","","","","","Fog"
"1963-11-22 22:00","1963","11","22","22:00","12.2","","9.4","","82","","14","","18","","12.9","","98.77","","","","","","Cloudy"
"1963-11-22 23:00","1963","11","22","23:00","11.7","","8.9","","83","","14","","24","","12.9","","98.61","","","","","","Cloudy"
"1963-11-23 00:00","1963","11","23","00:00","11.7","","8.9","","82","","16","","23","","16.1","","98.49","","","","","","Cloudy"
"1963-11-23 01:00","1963","11","23","01:00","11.7","","8.3","","80","","16","","19","","16.1","","98.35","","","","","","Cloudy"
"1963-11-23 02:00","1963","11","23","02:00","13.3","","9.4","","78","","20","","24","","16.1","","98.27","","","","","","Rain"
"1963-11-23 03:00","1963","11","23","03:00","13.3","","11.7","","91","","18","","32","","8.0","","98.14","","","","","","Rain,Fog"
"1963-11-23 04:00","1963","11","23","04:00","13.3","","11.7","","89","","18","","32","","16.1","","97.92","","","","","","Rain"
"1963-11-23 05:00","1963","11","23","05:00","14.4","","11.7","","83","","18","","48","","12.9","","97.81","","","","","","Rain Showers"
"1963-11-23 06:00","1963","11","23","06:00","15.0","","11.7","","80","","20","","60","","19.3","","97.77","","","","","","Mostly Cloudy"
"1963-11-23 07:00","1963","11","23","07:00","15.6","","15.0","","97","","23","","72","","25.0","","97.85","","","","","","Mostly Cloudy"
"1963-11-23 08:00","1963","11","23","08:00","11.7","","5.0","","64","","23","","61","","25.0","","98.09","","","","","","Mostly Cloudy"
"1963-11-23 09:00","1963","11","23","09:00","10.0","","4.4","","68","","23","","56","","25.0","","98.24","","","","","","Mostly Cloudy"
"1963-11-23 10:00","1963","11","23","10:00","9.4","","3.3","","67","","25","","51","","25.0","","98.39","","","","","","Mostly Cloudy"
"1963-11-23 11:00","1963","11","23","11:00","8.9","","2.8","","64","","25","","43","","25.0","","98.52","","","","","","Cloudy"
"1963-11-23 12:00","1963","11","23","12:00","7.8","","2.8","","71","","27","","40","","25.0","","98.56","","","","","","Cloudy"
"1963-11-23 13:00","1963","11","23","13:00","6.7","","0.0","","63","","27","","27","","25.0","","98.59","","","","","","Cloudy"
"1963-11-23 14:00","1963","11","23","14:00","6.7","","0.0","","63","","27","","32","","25.0","","98.61","","","","","","Cloudy"
"1963-11-23 15:00","1963","11","23","15:00","5.0","","1.1","","77","","27","","29","","25.0","","98.72","","","","","","Cloudy"
"1963-11-23 16:00","1963","11","23","16:00","4.4","","-1.7","","64","","29","","32","","25.0","","98.90","","","","","","Mostly Cloudy"
"1963-11-23 17:00","1963","11","23","17:00","3.9","","-2.2","","64","","29","","31","","25.0","","99.02","","","","","","Cloudy"
"1963-11-23 18:00","1963","11","23","18:00","3.3","","-3.3","","63","","29","","24","","25.0","","99.13","","","","","","Cloudy"
"1963-11-23 19:00","1963","11","23","19:00","3.3","","-3.9","","60","","29","","19","","25.0","","99.20","","","","","","Cloudy"
"1963-11-23 20:00","1963","11","23","20:00","2.8","","-3.9","","62","","29","","29","","25.0","","99.29","","","","","","Cloudy"
"1963-11-23 21:00","1963","11","23","21:00","2.2","","-3.3","","66","","29","","32","","25.0","","99.34","","","","","","Cloudy"
"1963-11-23 22:00","1963","11","23","22:00","1.7","","-5.6","","59","","29","","42","","25.0","","99.40","","","","","","Cloudy"
"1963-11-23 23:00","1963","11","23","23:00","1.1","","-6.1","","58","","27","","32","","25.0","","99.45","","","","","","Mostly Cloudy"
"1963-11-24 00:00","1963","11","24","00:00","1.1","","-5.6","","61","","27","","32","","25.0","","99.52","","","","","","Mostly Cloudy"
"1963-11-24 01:00","1963","11","24","01:00","1.1","","-5.6","","61","","27","","29","","25.0","","99.55","","","","","","Cloudy"
"1963-11-24 02:00","1963","11","24","02:00","1.1","","-5.6","","61","","27","","32","","24.1","","99.59","","","","","","Cloudy"
"1963-11-24 03:00","1963","11","24","03:00","0.6","","-5.0","","67","","27","","32","","25.0","","99.64","","","","","","Mostly Cloudy"
"1963-11-24 04:00","1963","11","24","04:00","0.6","","-4.4","","70","","27","","24","","19.3","","99.67","","","","","","Snow Showers"
"1963-11-24 05:00","1963","11","24","05:00","0.6","","-5.0","","67","","27","","27","","25.0","","99.72","","","","","","Cloudy"
"1963-11-24 06:00","1963","11","24","06:00","0.0","","-5.6","","66","","29","","32","","25.0","","99.81","","","","-7","","Cloudy"
"1963-11-24 07:00","1963","11","24","07:00","0.0","","-5.0","","69","","27","","19","","25.0","","99.88","","","","-5","","Mostly Cloudy"
"1963-11-24 08:00","1963","11","24","08:00","0.0","","-5.6","","66","","27","","24","","25.0","","99.99","","","","-6","","Mainly Clear"
"1963-11-24 09:00","1963","11","24","09:00","0.0","","-5.0","","69","","27","","23","","25.0","","100.03","","","","-6","","Mostly Cloudy"
"1963-11-24 10:00","1963","11","24","10:00","1.1","","-5.6","","61","","29","","23","","25.0","","100.07","","","","","","Snow Showers"
"1963-11-24 11:00","1963","11","24","11:00","1.7","","-5.0","","62","","29","","23","","25.0","","100.13","","","","","","Mostly Cloudy"
"1963-11-24 12:00","1963","11","24","12:00","1.7","","-5.6","","59","","27","","26","","25.0","","100.06","","","","","","Snow Showers"
"1963-11-24 13:00","1963","11","24","13:00","1.1","","-5.6","","61","","32","","24","","25.0","","100.06","","","","","","Snow Showers"
"1963-11-24 14:00","1963","11","24","14:00","-0.6","","-3.9","","79","","27","","24","","4.8","","100.14","","","","-7","","Snow Showers"
"1963-11-24 15:00","1963","11","24","15:00","1.1","","-2.8","","74","","27","","19","","25.0","","100.16","","","","","","Mostly Cloudy"
"1963-11-24 16:00","1963","11","24","16:00","0.6","","-3.9","","73","","29","","24","","25.0","","100.22","","","","","","Mostly Cloudy"
"1963-11-24 17:00","1963","11","24","17:00","0.0","","-3.9","","74","","29","","19","","25.0","","100.31","","","","-5","","Mainly Clear"
"1963-11-24 18:00","1963","11","24","18:00","-1.1","","-5.0","","76","","27","","16","","25.0","","100.39","","","","-6","","Mainly Clear"
"1963-11-24 19:00","1963","11","24","19:00","-2.2","","-6.1","","76","","27","","13","","25.0","","100.44","","","","-7","","Mainly Clear"
"1963-11-24 20:00","1963","11","24","20:00","-2.2","","-5.6","","77","","29","","13","","25.0","","100.49","","","","-7","","Mainly Clear"
"1963-11-24 21:00","1963","11","24","21:00","-2.8","","-6.7","","76","","27","","14","","25.0","","100.55","","","","-8","","Mainly Clear"
"1963-11-24 22:00","1963","11","24","22:00","-2.8","","-6.1","","77","","25","","19","","25.0","","100.60","","","","-9","","Mainly Clear"
"1963-11-24 23:00","1963","11","24","23:00","-2.8","","-6.1","","78","","25","","24","","25.0","","100.64","","","","-9","","Mainly Clear"
"1963-11-25 00:00","1963","11","25","00:00","-3.3","","-6.7","","79","","27","","19","","25.0","","100.71","","","","-9","","Mainly Clear"
"1963-11-25 01:00","1963","11","25","01:00","-3.3","","-6.7","","79","","27","","16","","25.0","","100.71","","","","-9","","Clear"
"1963-11-25 02:00","1963","11","25","02:00","-4.4","","-7.8","","78","","27","","11","","25.0","","100.78","","","","-9","","Clear"
"1963-11-25 03:00","1963","11","25","03:00","-5.0","","-7.8","","80","","27","","10","","25.0","","100.87","","","","-9","","Mainly Clear"
"1963-11-25 04:00","1963","11","25","04:00","-4.4","","-7.8","","78","","32","","8","","25.0","","100.87","","","","-8","","Mainly Clear"
"1963-11-25 05:00","1963","11","25","05:00","-5.6","","-7.8","","84","","","","0","","25.0","","100.98","","","","","","Clear"
"1963-11-25 06:00","1963","11","25","06:00","-6.1","","-8.3","","85","","36","","6","","25.0","","101.01","","","","-9","","Clear"
"1963-11-25 07:00","1963","11","25","07:00","-6.1","","-8.3","","84","","36","","8","","25.0","","101.03","","","","-10","","Mostly Cloudy"
"1963-11-25 08:00","1963","11","25","08:00","-5.6","","-8.3","","82","","34","","5","","25.0","","101.09","","","","-8","","Mostly Cloudy"
"1963-11-25 09:00","1963","11","25","09:00","-3.9","","-7.2","","78","","5","","8","","25.0","","101.07","","","","-7","","Mostly Cloudy"
"1963-11-25 10:00","1963","11","25","10:00","-2.8","","-7.2","","73","","36","","5","","25.0","","101.10","","","","-5","","Mostly Cloudy"
"1963-11-25 11:00","1963","11","25","11:00","-1.7","","-5.6","","76","","18","","6","","25.0","","101.05","","","","-4","","Mostly Cloudy"
"1963-11-25 12:00","1963","11","25","12:00","0.0","","-3.9","","74","","16","","18","","16.1","","100.92","","","","-5","","Mostly Cloudy"
"1963-11-25 13:00","1963","11","25","13:00","0.0","","-3.3","","77","","16","","13","","24.1","","100.92","","","","-4","","Mostly Cloudy"
"1963-11-25 14:00","1963","11","25","14:00","0.0","","-3.9","","74","","16","","11","","24.1","","100.84","","","","-4","","Mostly Cloudy"
"1963-11-25 15:00","1963","11","25","15:00","0.6","","-2.8","","78","","16","","11","","24.1","","100.77","","","","","","Mostly Cloudy"
"1963-11-25 16:00","1963","11","25","16:00","0.0","","-3.3","","80","","14","","10","","24.1","","100.73","","","","-3","","Mostly Cloudy"
"1963-11-25 17:00","1963","11","25","17:00","0.0","","-3.3","","80","","16","","6","","24.1","","100.70","","","","-2","","Mostly Cloudy"
"1963-11-25 18:00","1963","11","25","18:00","-0.6","","-3.3","","82","","9","","8","","24.1","","100.67","","","","-3","","Mostly Cloudy"
"1963-11-25 19:00","1963","11","25","19:00","0.0","","-2.8","","83","","9","","8","","24.1","","100.60","","","","-3","","Mostly Cloudy"
"1963-11-25 20:00","1963","11","25","20:00","0.0","","-2.2","","86","","11","","8","","24.1","","100.52","","","","-3","","Mostly Cloudy"
"1963-11-25 21:00","1963","11","25","21:00","0.0","","-3.3","","80","","14","","8","","24.1","","100.42","","","","-3","","Cloudy"
"1963-11-25 22:00","1963","11","25","22:00","0.0","","-3.3","","80","","14","","5","","24.1","","100.33","","","","-2","","Cloudy"
"1963-11-25 23:00","1963","11","25","23:00","0.0","","-3.3","","80","","16","","5","","24.1","","100.24","","","","-2","","Cloudy"
"1963-11-26 00:00","1963","11","26","00:00","0.0","","-3.3","","80","","18","","3","","19.3","","100.10","","","","-1","","Mostly Cloudy"
"1963-11-26 01:00","1963","11","26","01:00","-1.1","","-2.8","","87","","","","0","","19.3","","99.95","","","","","","Mostly Cloudy"
"1963-11-26 02:00","1963","11","26","02:00","-1.1","","-2.8","","87","","20","","8","","19.3","","99.84","","","","-4","","Mostly Cloudy"
"1963-11-26 03:00","1963","11","26","03:00","-1.7","","-3.3","","88","","29","","5","","19.3","","99.80","","","","-4","","Mainly Clear"
"1963-11-26 04:00","1963","11","26","04:00","-2.2","","-3.9","","89","","36","","10","","19.3","","99.85","","","","-6","","Mostly Cloudy"
"1963-11-26 05:00","1963","11","26","05:00","-1.1","","-2.8","","88","","14","","6","","19.3","","99.77","","","","-3","","Cloudy"
"1963-11-26 06:00","1963","11","26","06:00","0.0","","-1.7","","88","","7","","6","","19.3","","99.78","","","","-2","","Cloudy"
"1963-11-26 07:00","1963","11","26","07:00","0.6","","-1.7","","84","","14","","11","","19.3","","99.71","","","","","","Mostly Cloudy"
"1963-11-26 08:00","1963","11","26","08:00","1.1","","-1.7","","82","","18","","16","","8.0","","99.60","","","","","","Haze"
"1963-11-26 09:00","1963","11","26","09:00","2.8","","-1.1","","77","","20","","16","","8.0","","99.50","","","","","","Haze"
"1963-11-26 10:00","1963","11","26","10:00","4.4","","0.6","","76","","23","","8","","8.0","","99.44","","","","","","Haze"
"1963-11-26 11:00","1963","11","26","11:00","5.6","","1.1","","73","","23","","16","","8.0","","99.40","","","","","","Haze"
"1963-11-26 12:00","1963","11","26","12:00","8.9","","1.7","","61","","23","","16","","9.7","","99.34","","","","","","Haze"
"1963-11-26 13:00","1963","11","26","13:00","9.4","","2.2","","61","","23","","24","","9.7","","99.13","","","","","","Haze"
"1963-11-26 14:00","1963","11","26","14:00","11.1","","2.8","","57","","23","","29","","12.9","","99.05","","","","","","Mostly Cloudy"
"1963-11-26 15:00","1963","11","26","15:00","10.6","","3.3","","61","","20","","29","","12.9","","99.05","","","","","","Mostly Cloudy"
"1963-11-26 16:00","1963","11","26","16:00","10.0","","3.3","","62","","23","","19","","12.9","","99.11","","","","","","Mostly Cloudy"
"1963-11-26 17:00","1963","11","26","17:00","8.9","","2.8","","64","","23","","16","","12.9","","99.14","","","","","","Cloudy"
"1963-11-26 18:00","1963","11","26","18:00","7.8","","2.8","","71","","20","","13","","19.3","","99.14","","","","","","Cloudy"
"1963-11-26 19:00","1963","11","26","19:00","7.2","","2.8","","74","","20","","19","","19.3","","99.10","","","","","","Cloudy"
"1963-11-26 20:00","1963","11","26","20:00","8.3","","3.3","","71","","20","","31","","16.1","","99.01","","","","","","Cloudy"
"1963-11-26 21:00","1963","11","26","21:00","8.3","","3.3","","71","","20","","31","","19.3","","98.95","","","","","","Cloudy"
"1963-11-26 22:00","1963","11","26","22:00","8.3","","3.3","","71","","20","","24","","19.3","","98.86","","","","","","Cloudy"
"1963-11-26 23:00","1963","11","26","23:00","8.3","","1.1","","60","","23","","32","","19.3","","98.83","","","","","","Mostly Cloudy"
"1963-11-27 00:00","1963","11","27","00:00","8.3","","0.0","","56","","23","","32","","19.3","","98.81","","","","","","Mostly Cloudy"
"1963-11-27 01:00","1963","11","27","01:00","8.3","","-0.6","","54","","23","","35","","19.3","","98.69","","","","","","Mostly Cloudy"
"1963-11-27 02:00","1963","11","27","02:00","7.8","","0.0","","59","","23","","35","","12.9","","98.66","","","","","","Mostly Cloudy"
"1963-11-27 03:00","1963","11","27","03:00","7.2","","0.6","","62","","23","","35","","12.9","","98.69","","","","","","Cloudy"
"1963-11-27 04:00","1963","11","27","04:00","7.2","","1.1","","66","","23","","35","","16.1","","98.60","","","","","","Cloudy"
"1963-11-27 05:00","1963","11","27","05:00","6.7","","1.1","","67","","23","","32","","16.1","","98.62","","","","","","Cloudy"
"1963-11-27 06:00","1963","11","27","06:00","6.1","","0.6","","67","","23","","35","","19.3","","98.65","","","","","","Cloudy"
"1963-11-27 07:00","1963","11","27","07:00","6.7","","0.0","","63","","25","","35","","19.3","","98.71","","","","","","Mostly Cloudy"
"1963-11-27 08:00","1963","11","27","08:00","6.7","","1.7","","72","","25","","24","","12.9","","98.93","","","","","","Cloudy"
"1963-11-27 09:00","1963","11","27","09:00","6.7","","1.7","","72","","29","","19","","8.0","","99.11","","","","","","Haze"
"1963-11-27 10:00","1963","11","27","10:00","6.7","","2.8","","76","","29","","27","","8.0","","99.14","","","","","","Haze"
"1963-11-27 11:00","1963","11","27","11:00","7.2","","2.8","","72","","29","","19","","8.0","","99.22","","","","","","Haze"
"1963-11-27 12:00","1963","11","27","12:00","7.8","","2.2","","67","","29","","19","","12.9","","99.21","","","","","","Cloudy"
"1963-11-27 13:00","1963","11","27","13:00","7.8","","2.2","","67","","29","","16","","12.9","","99.23","","","","","","Cloudy"
"1963-11-27 14:00","1963","11","27","14:00","7.8","","2.2","","67","","27","","14","","12.9","","99.25","","","","","","Cloudy"
"1963-11-27 15:00","1963","11","27","15:00","7.8","","2.2","","67","","27","","11","","11.3","","99.30","","","","","","Cloudy"
"1963-11-27 16:00","1963","11","27","16:00","7.2","","2.8","","74","","25","","11","","11.3","","99.41","","","","","","Cloudy"
"1963-11-27 17:00","1963","11","27","17:00","7.2","","2.2","","70","","29","","6","","11.3","","99.50","","","","","","Cloudy"
"1963-11-27 18:00","1963","11","27","18:00","6.7","","2.8","","76","","23","","6","","12.9","","99.56","","","","","","Cloudy"
"1963-11-27 19:00","1963","11","27","19:00","6.7","","3.3","","78","","23","","6","","12.9","","99.61","","","","","","Cloudy"
"1963-11-27 20:00","1963","11","27","20:00","6.1","","2.8","","80","","23","","11","","11.3","","99.67","","","","","","Cloudy"
"1963-11-27 21:00","1963","11","27","21:00","6.1","","3.3","","82","","23","","8","","11.3","","99.73","","","","","","Cloudy"
"1963-11-27 22:00","1963","11","27","22:00","6.1","","3.3","","82","","23","","6","","12.9","","99.77","","","","","","Cloudy"
"1963-11-27 23:00","1963","11","27","23:00","6.1","","3.3","","82","","20","","6","","11.3","","99.76","","","","","","Cloudy"
"1963-11-28 00:00","1963","11","28","00:00","6.1","","3.3","","82","","","","0","","12.9","","99.74","","","","","","Cloudy"
"1963-11-28 01:00","1963","11","28","01:00","5.6","","3.9","","88","","23","","5","","16.1","","99.73","","","","","","Cloudy"
"1963-11-28 02:00","1963","11","28","02:00","6.1","","3.3","","82","","","","0","","16.1","","99.73","","","","","","Cloudy"
"1963-11-28 03:00","1963","11","28","03:00","5.0","","2.2","","81","","9","","16","","19.3","","99.75","","","","","","Cloudy"
"1963-11-28 04:00","1963","11","28","04:00","5.0","","2.8","","86","","9","","13","","19.3","","99.73","","","","","","Cloudy"
"1963-11-28 05:00","1963","11","28","05:00","5.6","","3.3","","86","","9","","13","","19.3","","99.70","","","","","","Cloudy"
"1963-11-28 06:00","1963","11","28","06:00","5.0","","3.3","","88","","11","","13","","16.1","","99.67","","","","","","Cloudy"
"1963-11-28 07:00","1963","11","28","07:00","3.9","","2.2","","88","","9","","8","","9.7","","99.64","","","","","","Fog"
"1963-11-28 08:00","1963","11","28","08:00","4.4","","2.8","","88","","11","","11","","4.0","","99.64","","","","","","Fog"
"1963-11-28 09:00","1963","11","28","09:00","5.6","","3.3","","86","","9","","8","","4.0","","99.58","","","","","","Fog"
"1963-11-28 10:00","1963","11","28","10:00","6.7","","4.4","","85","","14","","11","","3.2","","99.52","","","","","","Fog"
"1963-11-28 11:00","1963","11","28","11:00","7.2","","5.6","","89","","14","","18","","3.2","","99.46","","","","","","Fog"
"1963-11-28 12:00","1963","11","28","12:00","7.8","","5.6","","87","","14","","16","","4.0","","99.35","","","","","","Fog"
"1963-11-28 13:00","1963","11","28","13:00","8.9","","4.4","","74","","14","","16","","4.8","","99.26","","","","","","Haze"
"1963-11-28 14:00","1963","11","28","14:00","8.9","","5.0","","76","","14","","11","","4.8","","99.16","","","","","","Haze"
"1963-11-28 15:00","1963","11","28","15:00","9.4","","5.0","","74","","16","","26","","4.8","","99.07","","","","","","Haze"
"1963-11-28 16:00","1963","11","28","16:00","9.4","","6.1","","78","","18","","23","","4.8","","99.01","","","","","","Haze"
"1963-11-28 17:00","1963","11","28","17:00","8.9","","6.1","","82","","18","","19","","4.8","","98.95","","","","","","Haze"
"1963-11-28 18:00","1963","11","28","18:00","8.3","","5.6","","83","","18","","18","","6.4","","98.93","","","","","","Haze"
"1963-11-28 19:00","1963","11","28","19:00","7.2","","5.0","","87","","16","","19","","4.8","","98.90","","","","","","Haze"
"1963-11-28 20:00","1963","11","28","20:00","7.2","","5.6","","89","","14","","16","","4.8","","98.84","","","","","","Haze"
"1963-11-28 21:00","1963","11","28","21:00","7.2","","5.6","","89","","14","","16","","4.8","","98.77","","","","","","Fog"
"1963-11-28 22:00","1963","11","28","22:00","6.7","","5.0","","89","","14","","19","","3.2","","98.71","","","","","","Fog"
"1963-11-28 23:00","1963","11","28","23:00","5.6","","4.4","","93","","","","0","","2.0","","98.64","","","","","","Fog"
"1963-11-29 00:00","1963","11","29","00:00","6.7","","5.6","","91","","16","","10","","3.2","","98.54","","","","","","Fog"
"1963-11-29 01:00","1963","11","29","01:00","7.2","","5.6","","89","","16","","10","","6.4","","98.49","","","","","","Fog"
"1963-11-29 02:00","1963","11","29","02:00","7.2","","5.6","","89","","18","","8","","8.0","","98.41","","","","","","Fog"
"1963-11-29 03:00","1963","11","29","03:00","7.8","","5.6","","87","","18","","10","","6.4","","98.38","","","","","","Fog"
"1963-11-29 04:00","1963","11","29","04:00","7.2","","5.6","","89","","20","","10","","6.4","","98.37","","","","","","Fog"
"1963-11-29 05:00","1963","11","29","05:00","7.2","","5.6","","89","","20","","10","","6.4","","98.34","","","","","","Drizzle,Fog"
"1963-11-29 06:00","1963","11","29","06:00","7.2","","6.1","","91","","20","","10","","6.4","","98.27","","","","","","Fog"
"1963-11-29 07:00","1963","11","29","07:00","6.7","","5.6","","93","","20","","6","","4.0","","98.12","","","","","","Rain,Fog"
"1963-11-29 08:00","1963","11","29","08:00","6.7","","5.6","","93","","27","","6","","2.8","","98.18","","","","","","Rain,Fog"
"1963-11-29 09:00","1963","11","29","09:00","6.1","","4.4","","89","","27","","16","","9.7","","98.21","","","","","","Rain,Fog"
"1963-11-29 10:00","1963","11","29","10:00","5.6","","4.4","","93","","29","","11","","8.0","","98.17","","","","","","Rain,Fog"
"1963-11-29 11:00","1963","11","29","11:00","5.6","","3.9","","91","","32","","13","","9.7","","98.07","","","","","","Rain,Fog"
"1963-11-29 12:00","1963","11","29","12:00","5.6","","3.9","","91","","34","","19","","9.7","","97.92","","","","","","Rain,Fog"
"1963-11-29 13:00","1963","11","29","13:00","5.0","","3.9","","93","","34","","16","","9.7","","97.77","","","","","","Rain,Fog"
"1963-11-29 14:00","1963","11","29","14:00","3.3","","2.2","","92","","34","","24","","6.4","","97.62","","","","","","Rain,Fog"
"1963-11-29 15:00","1963","11","29","15:00","3.3","","2.2","","92","","34","","24","","6.4","","97.58","","","","","","Rain,Fog"
"1963-11-29 16:00","1963","11","29","16:00","2.2","","1.7","","95","","32","","26","","6.4","","97.58","","","","","","Rain,Fog"
"1963-11-29 17:00","1963","11","29","17:00","2.2","","1.1","","92","","34","","19","","12.9","","97.53","","","","","","Rain"
"1963-11-29 18:00","1963","11","29","18:00","2.2","","1.1","","92","","32","","19","","12.9","","97.52","","","","","","Rain"
"1963-11-29 19:00","1963","11","29","19:00","1.7","","1.1","","94","","32","","23","","16.1","","97.41","","","","","","Rain"
"1963-11-29 20:00","1963","11","29","20:00","1.7","","0.6","","92","","34","","24","","16.1","","97.43","","","","","","Rain,Snow"
"1963-11-29 21:00","1963","11","29","21:00","1.7","","0.0","","89","","32","","27","","9.7","","97.42","","","","","","Rain,Snow"
"1963-11-29 22:00","1963","11","29","22:00","0.6","","-1.7","","84","","32","","35","","11.3","","97.41","","","","","","Snow"
"1963-11-29 23:00","1963","11","29","23:00","0.0","","-2.8","","83","","32","","37","","12.9","","97.34","","","","-7","","Snow"
"1963-11-30 00:00","1963","11","30","00:00","-1.1","","-3.9","","82","","34","","40","","25.0","","97.28","","","","-9","","Snow"
"1963-11-30 01:00","1963","11","30","01:00","-1.1","","-3.9","","83","","34","","37","","8.0","","97.23","","","","-9","","Snow"
"1963-11-30 02:00","1963","11","30","02:00","-1.7","","-3.9","","86","","34","","37","","4.0","","97.18","","","","-9","","Snow"
"1963-11-30 03:00","1963","11","30","03:00","-2.8","","-4.4","","86","","34","","39","","6.4","","97.14","","","","-11","","Snow"
"1963-11-30 04:00","1963","11","30","04:00","-2.2","","-5.0","","82","","34","","40","","9.7","","97.07","","","","-10","","Snow"
"1963-11-30 05:00","1963","11","30","05:00","-2.2","","-4.4","","86","","34","","39","","4.8","","97.05","","","","-10","","Snow"
"1963-11-30 06:00","1963","11","30","06:00","-2.8","","-5.6","","82","","34","","40","","8.0","","97.10","","","","-11","","Snow"
"1963-11-30 07:00","1963","11","30","07:00","-2.2","","-6.1","","76","","34","","42","","24.1","","97.16","","","","-11","","Snow"
"1963-11-30 08:00","1963","11","30","08:00","-2.8","","-7.2","","73","","34","","40","","25.0","","97.24","","","","-11","","Mostly Cloudy"
"1963-11-30 09:00","1963","11","30","09:00","-2.2","","-6.7","","73","","34","","43","","25.0","","97.31","","","","-11","","Mostly Cloudy"
"1963-11-30 10:00","1963","11","30","10:00","-2.2","","-6.1","","76","","34","","45","","25.0","","97.38","","","","-11","","Cloudy"
"1963-11-30 11:00","1963","11","30","11:00","-2.2","","-6.7","","73","","34","","48","","25.0","","97.48","","","","-11","","Snow Showers"
"1963-11-30 12:00","1963","11","30","12:00","-2.2","","-5.6","","77","","34","","40","","24.1","","97.55","","","","-10","","Snow Showers"
"1963-11-30 13:00","1963","11","30","13:00","-2.2","","-7.2","","69","","34","","32","","25.0","","97.65","","","","-10","","Mostly Cloudy"
"1963-11-30 14:00","1963","11","30","14:00","-2.8","","-8.3","","66","","32","","48","","25.0","","97.76","","","","-12","","Mostly Cloudy"
"1963-11-30 15:00","1963","11","30","15:00","-2.8","","-8.3","","66","","29","","43","","25.0","","97.88","","","","-11","","Snow Showers"
"1963-11-30 16:00","1963","11","30","16:00","-3.3","","-7.8","","73","","29","","37","","25.0","","98.02","","","","-12","","Mostly Cloudy"
"1963-11-30 17:00","1963","11","30","17:00","-3.9","","-10.0","","63","","29","","39","","25.0","","98.15","","","","-13","","Mostly Cloudy"
"1963-11-30 18:00","1963","11","30","18:00","-3.9","","-11.1","","58","","29","","37","","25.0","","98.29","","","","-12","","Mostly Cloudy"
"1963-11-30 19:00","1963","11","30","19:00","-3.9","","-10.6","","60","","29","","24","","25.0","","98.41","","","","-11","","Mainly Clear"
"1963-11-30 20:00","1963","11","30","20:00","-4.4","","-10.6","","62","","29","","24","","25.0","","98.51","","","","-11","","Mainly Clear"
"1963-11-30 21:00","1963","11","30","21:00","-4.4","","-10.6","","62","","29","","24","","25.0","","98.63","","","","-11","","Mostly Cloudy"
"1963-11-30 22:00","1963","11","30","22:00","-4.4","","-10.6","","61","","32","","24","","25.0","","98.72","","","","-11","","Mainly Clear"
"1963-11-30 23:00","1963","11","30","23:00","-6.1","","-8.3","","84","","2","","10","","25.0","","98.82","","","","-11","","Mostly Cloudy"
