"Station Name","TORONTO LESTER B. PEARSON INT'L A"
"Province","ONTARIO"
"Latitude","43.68"
"Longitude","-79.63"
"Elevation","173.40"
"Climate Identifier","6158733"
"WMO Identifier","71624"
"TC Identifier","YYZ"
"All times are specified in Local Standard Time (LST). Add 1 hour to adjust for Daylight Saving Time where and when it is observed."

"Legend"
"E","Estimated"
"M","Missing"
"NA","Not Available"

"Date/Time","Year","Month","Day","Time","Temp (°C)","Temp Flag","Dew Point Temp (°C)","Dew Point Temp Flag","Rel Hum (%)","Rel Hum Flag","Wind Dir (10s deg)","Wind Dir Flag","Wind Spd (km/h)","Wind Spd Flag","Visibility (km)","Visibility Flag","Stn Press (kPa)","Stn Press Flag","Hmdx","Hmdx Flag","Wind Chill","Wind Chill Flag","Weather"
"2011-07-01 00:00","2011","07","01","00:00","15.6","","8.8","","64","","35","","11","","24.1","","99.67","","","","","","Clear"
"2011-07-01 01:00","2011","07","01","01:00","14.6","","8.9","","69","","34","","6","","24.1","","99.67","","","","","","Clear"
"2011-07-01 02:00","2011","07","01","02:00","14.2","","9.1","","71","","32","","11","","24.1","","99.70","","","","","","Clear"
"2011-07-01 03:00","2011","07","01","03:00","14.4","","8.8","","69","","34","","4","","24.1","","99.69","","","","","","Clear"
"2011-07-01 04:00","2011","07","01","04:00","13.4","","8.6","","73","","2","","6","","24.1","","99.72","","","","","","Clear"
"2011-07-01 05:00","2011","07","01","05:00","13.2","","8.5","","73","","4","","6","","24.1","","99.75","","","","","","Clear"
"2011-07-01 06:00","2011","07","01","06:00","14.5","","9.2","","70","","1","","11","","24.1","","99.77","","","","","","Clear"
"2011-07-01 07:00","2011","07","01","07:00","17.4","","9.5","","60","","36","","4","","24.1","","99.84","","","","","","Clear"
"2011-07-01 08:00","2011","07","01","08:00","19.9","","9.9","","52","","","","0","","24.1","","99.82","","","","","","Clear"
"2011-07-01 09:00","2011","07","01","09:00","22.6","","12.3","","52","","20","","4","","24.1","","99.80","","25","","","","Clear"
"2011-07-01 10:00","2011","07","01","10:00","23.5","","11.6","","47","","17","","11","","24.1","","99.81","","26","","","","Mainly Clear"
"2011-07-01 11:00","2011","07","01","11:00","24.2","","8.6","","37","","18","","6","","24.1","","99.75","","25","","","","Mainly Clear"
"2011-07-01 12:00","2011","07","01","12:00","25.0","","8.9","","36","","18","","13","","24.1","","99.75","","26","","","","Mainly Clear"
"2011-07-01 13:00","2011","07","01","13:00","24.6","","8.7","","36","","15","","13","","24.1","","99.72","","25","","","","Mainly Clear"
"2011-07-01 14:00","2011","07","01","14:00","25.1","","8.7","","35","","16","","20","","24.1","","99.70","","26","","","","Mostly Cloudy"
"2011-07-01 15:00","2011","07","01","15:00","24.8","","8.4","","35","","16","","17","","24.1","","99.72","","25","","","","Mostly Cloudy"
"2011-07-01 16:00","2011","07","01","16:00","25.8","","8.4","","33","","16","","19","","24.1","","99.73","","26","","","","Mostly Cloudy"
"2011-07-01 17:00","2011","07","01","17:00","26.2","","6.7","","29","","16","","15","","24.1","","99.70","","26","","","","Mostly Cloudy"
"2011-07-01 18:00","2011","07","01","18:00","24.3","","7.5","","34","","16","","17","","24.1","","99.70","","25","","","","Mostly Cloudy"
"2011-07-01 19:00","2011","07","01","19:00","23.3","","8.3","","38","","16","","11","","24.1","","99.70","","","","","","Mostly Cloudy"
"2011-07-01 20:00","2011","07","01","20:00","21.6","","9.7","","47","","17","","7","","24.1","","99.70","","","","","","Mostly Cloudy"
"2011-07-01 21:00","2011","07","01","21:00","21.1","","10.9","","52","","","","0","","24.1","","99.71","","","","","","Mostly Cloudy"
"2011-07-01 22:00","2011","07","01","22:00","21.4","","11.0","","51","","18","","6","","24.1","","99.66","","","","","","Clear"
"2011-07-01 23:00","2011","07","01","23:00","20.1","","11.6","","58","","22","","6","","24.1","","99.69","","","","","","Clear"
"2011-07-02 00:00","2011","07","02","00:00","19.2","","12.4","","65","","16","","6","","24.1","","99.67","","","","","","Clear"
"2011-07-02 01:00","2011","07","02","01:00","18.8","","12.3","","66","","17","","4","","24.1","","99.65","","","","","","Mostly Cloudy"
"2011-07-02 02:00","2011","07","02","02:00","17.9","","11.7","","67","","11","","4","","24.1","","99.64","","","","","","Mainly Clear"
"2011-07-02 03:00","2011","07","02","03:00","18.8","","10.9","","60","","18","","4","","24.1","","99.61","","","","","","Mostly Cloudy"
"2011-07-02 04:00","2011","07","02","04:00","18.7","","9.0","","53","","23","","4","","24.1","","99.65","","","","","","Mostly Cloudy"
"2011-07-02 05:00","2011","07","02","05:00","18.4","","9.7","","57","","20","","4","","24.1","","99.58","","","","","","Mostly Cloudy"
"2011-07-02 06:00","2011","07","02","06:00","18.1","","12.1","","68","","13","","7","","24.1","","99.54","","","","","","Mostly Cloudy"
"2011-07-02 07:00","2011","07","02","07:00","19.3","","11.3","","60","","17","","6","","24.1","","99.59","","","","","","Mostly Cloudy"
"2011-07-02 08:00","2011","07","02","08:00","19.8","","14.2","","70","","11","","13","","24.1","","99.59","","","","","","Cloudy"
"2011-07-02 09:00","2011","07","02","09:00","20.1","","14.4","","70","","14","","13","","24.1","","99.56","","","","","","Cloudy"
"2011-07-02 10:00","2011","07","02","10:00","21.5","","13.8","","62","","15","","20","","24.1","","99.40","","25","","","","Mostly Cloudy"
"2011-07-02 11:00","2011","07","02","11:00","23.0","","15.3","","62","","18","","17","","24.1","","99.45","","27","","","","Mostly Cloudy"
"2011-07-02 12:00","2011","07","02","12:00","23.6","","16.5","","64","","20","","9","","24.1","","99.43","","29","","","","Mostly Cloudy"
"2011-07-02 13:00","2011","07","02","13:00","25.1","","17.2","","62","","21","","6","","24.1","","99.36","","31","","","","Mostly Cloudy"
"2011-07-02 14:00","2011","07","02","14:00","26.4","","18.0","","60","","15","","17","","24.1","","99.30","","32","","","","Mostly Cloudy"
"2011-07-02 15:00","2011","07","02","15:00","24.7","","16.8","","61","","15","","19","","24.1","","99.27","","30","","","","Cloudy"
"2011-07-02 16:00","2011","07","02","16:00","25.1","","17.6","","63","","1","","11","","24.1","","99.18","","31","","","","Cloudy"
"2011-07-02 17:00","2011","07","02","17:00","25.7","","18.3","","64","","15","","7","","24.1","","99.10","","32","","","","Mostly Cloudy"
"2011-07-02 18:00","2011","07","02","18:00","24.5","","18.3","","68","","14","","6","","24.1","","99.11","","31","","","","Cloudy"
"2011-07-02 19:00","2011","07","02","19:00","24.6","","18.8","","70","","16","","7","","24.1","","99.09","","31","","","","Mostly Cloudy"
"2011-07-02 20:00","2011","07","02","20:00","23.7","","19.2","","76","","20","","9","","24.1","","99.09","","31","","","","Cloudy"
"2011-07-02 21:00","2011","07","02","21:00","21.1","","18.9","","87","","28","","30","","19.3","","99.02","","28","","","","Thunderstorms,Rain Showers"
"2011-07-02 22:00","2011","07","02","22:00","21.6","","19.1","","86","","32","","30","","19.3","","99.08","","28","","","","Thunderstorms,Rain Showers"
"2011-07-02 23:00","2011","07","02","23:00","21.6","","19.5","","88","","27","","13","","24.1","","99.08","","29","","","","Cloudy"
"2011-07-03 00:00","2011","07","03","00:00","21.9","","20.2","","90","","29","","15","","24.1","","99.09","","30","","","","Cloudy"
"2011-07-03 01:00","2011","07","03","01:00","22.2","","20.4","","90","","25","","13","","24.1","","99.17","","30","","","","Cloudy"
"2011-07-03 02:00","2011","07","03","02:00","22.2","","20.2","","88","","28","","15","","24.1","","99.07","","30","","","","Cloudy"
"2011-07-03 03:00","2011","07","03","03:00","22.3","","20.1","","87","","32","","19","","24.1","","99.01","","30","","","","Cloudy"
"2011-07-03 04:00","2011","07","03","04:00","21.4","","18.5","","84","","32","","15","","24.1","","99.04","","28","","","","Mostly Cloudy"
"2011-07-03 05:00","2011","07","03","05:00","20.1","","17.6","","86","","29","","11","","24.1","","99.14","","26","","","","Mostly Cloudy"
"2011-07-03 06:00","2011","07","03","06:00","20.9","","16.7","","77","","32","","17","","24.1","","99.21","","26","","","","Mainly Clear"
"2011-07-03 07:00","2011","07","03","07:00","22.6","","16.2","","67","","32","","19","","24.1","","99.21","","27","","","","Mainly Clear"
"2011-07-03 08:00","2011","07","03","08:00","23.6","","16.3","","64","","34","","17","","24.1","","99.25","","28","","","","Mainly Clear"
"2011-07-03 09:00","2011","07","03","09:00","24.7","","15.6","","57","","36","","13","","24.1","","99.23","","29","","","","Mainly Clear"
"2011-07-03 10:00","2011","07","03","10:00","25.8","","16.4","","56","","31","","7","","24.1","","99.25","","31","","","","Mainly Clear"
"2011-07-03 11:00","2011","07","03","11:00","27.7","","15.0","","46","","33","","22","","24.1","","99.20","","32","","","","Mainly Clear"
"2011-07-03 12:00","2011","07","03","12:00","27.8","","13.9","","42","","30","","24","","24.1","","99.18","","31","","","","Mainly Clear"
"2011-07-03 13:00","2011","07","03","13:00","29.0","","14.7","","42","","29","","30","","24.1","","99.17","","33","","","","Mainly Clear"
"2011-07-03 14:00","2011","07","03","14:00","29.5","","15.5","","43","","30","","20","","24.1","","99.15","","34","","","","Mainly Clear"
"2011-07-03 15:00","2011","07","03","15:00","28.8","","14.8","","42","","32","","17","","24.1","","99.12","","33","","","","Mostly Cloudy"
"2011-07-03 16:00","2011","07","03","16:00","27.6","","13.8","","43","","1","","26","","24.1","","99.11","","31","","","","Mostly Cloudy"
"2011-07-03 17:00","2011","07","03","17:00","27.7","","13.6","","42","","2","","22","","24.1","","99.08","","31","","","","Mostly Cloudy"
"2011-07-03 18:00","2011","07","03","18:00","26.6","","12.8","","42","","1","","19","","24.1","","99.08","","29","","","","Mostly Cloudy"
"2011-07-03 19:00","2011","07","03","19:00","25.7","","12.8","","45","","1","","20","","24.1","","99.09","","28","","","","Mostly Cloudy"
"2011-07-03 20:00","2011","07","03","20:00","24.5","","11.9","","45","","35","","13","","24.1","","99.12","","27","","","","Mostly Cloudy"
"2011-07-03 21:00","2011","07","03","21:00","23.2","","9.7","","42","","31","","19","","24.1","","99.17","","","","","","Mainly Clear"
"2011-07-03 22:00","2011","07","03","22:00","21.1","","10.2","","50","","29","","13","","24.1","","99.18","","","","","","Mainly Clear"
"2011-07-03 23:00","2011","07","03","23:00","20.4","","10.0","","51","","31","","17","","24.1","","99.19","","","","","","Mainly Clear"
"2011-07-04 00:00","2011","07","04","00:00","18.4","","10.1","","58","","31","","11","","24.1","","99.23","","","","","","Mainly Clear"
"2011-07-04 01:00","2011","07","04","01:00","17.4","","9.7","","61","","32","","13","","24.1","","99.18","","","","","","Mainly Clear"
"2011-07-04 02:00","2011","07","04","02:00","15.3","","9.7","","69","","28","","13","","24.1","","99.19","","","","","","Clear"
"2011-07-04 03:00","2011","07","04","03:00","15.8","","9.6","","67","","29","","13","","24.1","","99.17","","","","","","Clear"
"2011-07-04 04:00","2011","07","04","04:00","14.6","","9.3","","70","","28","","15","","24.1","","99.19","","","","","","Clear"
"2011-07-04 05:00","2011","07","04","05:00","14.6","","9.3","","70","","29","","13","","24.1","","99.21","","","","","","Mainly Clear"
"2011-07-04 06:00","2011","07","04","06:00","18.0","","9.8","","59","","31","","15","","24.1","","99.22","","","","","","Mainly Clear"
"2011-07-04 07:00","2011","07","04","07:00","21.3","","9.0","","45","","31","","15","","24.1","","99.24","","","","","","Mainly Clear"
"2011-07-04 08:00","2011","07","04","08:00","23.5","","7.0","","35","","30","","24","","24.1","","99.24","","","","","","Mainly Clear"
"2011-07-04 09:00","2011","07","04","09:00","24.0","","8.0","","36","","32","","24","","24.1","","99.24","","","","","","Mainly Clear"
"2011-07-04 10:00","2011","07","04","10:00","25.3","","6.4","","30","","31","","35","","24.1","","99.24","","25","","","","Mainly Clear"
"2011-07-04 11:00","2011","07","04","11:00","26.2","","7.3","","30","","28","","28","","24.1","","99.27","","26","","","","Mainly Clear"
"2011-07-04 12:00","2011","07","04","12:00","26.4","","8.1","","31","","32","","22","","24.1","","99.26","","27","","","","Clear"
"2011-07-04 13:00","2011","07","04","13:00","27.3","","9.6","","33","","31","","28","","24.1","","99.24","","28","","","","Clear"
"2011-07-04 14:00","2011","07","04","14:00","27.9","","9.8","","32","","32","","24","","24.1","","99.21","","29","","","","Clear"
"2011-07-04 15:00","2011","07","04","15:00","27.7","","10.5","","34","","33","","19","","24.1","","99.20","","29","","","","Clear"
"2011-07-04 16:00","2011","07","04","16:00","28.4","","11.8","","36","","31","","20","","24.1","","99.14","","31","","","","Clear"
"2011-07-04 17:00","2011","07","04","17:00","27.6","","12.3","","39","","35","","28","","24.1","","99.12","","30","","","","Clear"
"2011-07-04 18:00","2011","07","04","18:00","26.5","","11.3","","39","","35","","17","","24.1","","99.13","","28","","","","Clear"
"2011-07-04 19:00","2011","07","04","19:00","25.4","","10.0","","38","","2","","19","","24.1","","99.14","","27","","","","Mainly Clear"
"2011-07-04 20:00","2011","07","04","20:00","24.1","","9.7","","40","","36","","20","","24.1","","99.17","","25","","","","Mainly Clear"
"2011-07-04 21:00","2011","07","04","21:00","22.6","","10.8","","47","","36","","11","","24.1","","99.21","","","","","","Mainly Clear"
"2011-07-04 22:00","2011","07","04","22:00","21.4","","11.0","","51","","31","","13","","24.1","","99.26","","","","","","Mainly Clear"
"2011-07-04 23:00","2011","07","04","23:00","20.0","","10.5","","54","","32","","11","","24.1","","99.29","","","","","","Clear"
"2011-07-05 00:00","2011","07","05","00:00","19.0","","10.8","","59","","30","","11","","24.1","","99.31","","","","","","Clear"
"2011-07-05 01:00","2011","07","05","01:00","18.2","","10.5","","61","","29","","9","","24.1","","99.33","","","","","","Clear"
"2011-07-05 02:00","2011","07","05","02:00","17.0","","10.4","","65","","27","","7","","24.1","","99.35","","","","","","Clear"
"2011-07-05 03:00","2011","07","05","03:00","15.6","","10.5","","72","","29","","11","","24.1","","99.35","","","","","","Clear"
"2011-07-05 04:00","2011","07","05","04:00","15.4","","10.3","","72","","28","","11","","24.1","","99.36","","","","","","Clear"
"2011-07-05 05:00","2011","07","05","05:00","14.9","","10.1","","73","","28","","11","","24.1","","99.40","","","","","","Mainly Clear"
"2011-07-05 06:00","2011","07","05","06:00","17.0","","10.6","","66","","29","","7","","24.1","","99.40","","","","","","Mainly Clear"
"2011-07-05 07:00","2011","07","05","07:00","20.5","","11.6","","57","","27","","6","","24.1","","99.41","","","","","","Mainly Clear"
"2011-07-05 08:00","2011","07","05","08:00","23.3","","11.1","","46","","31","","9","","24.1","","99.43","","25","","","","Mostly Cloudy"
"2011-07-05 09:00","2011","07","05","09:00","25.2","","12.4","","45","","25","","9","","24.1","","99.44","","28","","","","Mainly Clear"
"2011-07-05 10:00","2011","07","05","10:00","26.8","","13.3","","43","","27","","15","","24.1","","99.44","","30","","","","Mainly Clear"
"2011-07-05 11:00","2011","07","05","11:00","26.8","","12.5","","41","","28","","24","","24.1","","99.41","","29","","","","Mostly Cloudy"
"2011-07-05 12:00","2011","07","05","12:00","26.1","","14.3","","48","","26","","30","","24.1","","99.37","","30","","","","Mostly Cloudy"
"2011-07-05 13:00","2011","07","05","13:00","26.7","","14.9","","48","","25","","22","","24.1","","99.35","","31","","","","Cloudy"
"2011-07-05 14:00","2011","07","05","14:00","29.3","","16.3","","45","","25","","19","","24.1","","99.27","","34","","","","Cloudy"
"2011-07-05 15:00","2011","07","05","15:00","29.8","","17.1","","46","","24","","20","","24.1","","99.26","","35","","","","Cloudy"
"2011-07-05 16:00","2011","07","05","16:00","28.8","","16.9","","49","","25","","22","","24.1","","99.20","","34","","","","Mostly Cloudy"
"2011-07-05 17:00","2011","07","05","17:00","29.8","","17.0","","46","","27","","28","","24.1","","99.17","","35","","","","Mostly Cloudy"
"2011-07-05 18:00","2011","07","05","18:00","29.4","","17.6","","49","","27","","26","","24.1","","99.13","","35","","","","Mainly Clear"
"2011-07-05 19:00","2011","07","05","19:00","28.4","","17.5","","52","","27","","30","","24.1","","99.14","","34","","","","Mainly Clear"
"2011-07-05 20:00","2011","07","05","20:00","26.8","","17.2","","56","","26","","13","","24.1","","99.15","","32","","","","Mainly Clear"
"2011-07-05 21:00","2011","07","05","21:00","25.9","","17.3","","59","","24","","15","","24.1","","99.18","","31","","","","Mainly Clear"
"2011-07-05 22:00","2011","07","05","22:00","24.4","","15.7","","58","","24","","13","","24.1","","99.21","","29","","","","Mainly Clear"
"2011-07-05 23:00","2011","07","05","23:00","23.6","","14.7","","57","","24","","17","","24.1","","99.21","","27","","","","Mainly Clear"
"2011-07-06 00:00","2011","07","06","00:00","22.5","","14.6","","61","","24","","17","","24.1","","99.17","","26","","","","Mostly Cloudy"
"2011-07-06 01:00","2011","07","06","01:00","23.0","","14.7","","60","","25","","20","","24.1","","99.15","","27","","","","Mostly Cloudy"
"2011-07-06 02:00","2011","07","06","02:00","22.5","","15.0","","63","","26","","13","","24.1","","99.14","","26","","","","Mostly Cloudy"
"2011-07-06 03:00","2011","07","06","03:00","22.3","","14.4","","61","","25","","19","","24.1","","99.12","","26","","","","Mostly Cloudy"
"2011-07-06 04:00","2011","07","06","04:00","22.3","","14.5","","61","","26","","20","","24.1","","99.13","","26","","","","Mostly Cloudy"
"2011-07-06 05:00","2011","07","06","05:00","21.8","","15.4","","67","","29","","19","","24.1","","99.15","","26","","","","Mostly Cloudy"
"2011-07-06 06:00","2011","07","06","06:00","21.9","","16.9","","73","","27","","7","","24.1","","99.09","","27","","","","Mostly Cloudy"
"2011-07-06 07:00","2011","07","06","07:00","22.6","","17.4","","72","","28","","15","","24.1","","99.08","","28","","","","Mostly Cloudy"
"2011-07-06 08:00","2011","07","06","08:00","23.6","","16.7","","65","","29","","11","","24.1","","99.10","","29","","","","Mostly Cloudy"
"2011-07-06 09:00","2011","07","06","09:00","23.6","","17.0","","67","","30","","17","","24.1","","99.16","","29","","","","Cloudy"
"2011-07-06 10:00","2011","07","06","10:00","23.2","","17.6","","71","","31","","19","","24.1","","99.18","","29","","","","Mostly Cloudy"
"2011-07-06 11:00","2011","07","06","11:00","24.1","","18.3","","70","","29","","13","","24.1","","99.22","","30","","","","Mostly Cloudy"
"2011-07-06 12:00","2011","07","06","12:00","27.7","","18.1","","56","","29","","17","","24.1","","99.17","","34","","","","Mostly Cloudy"
"2011-07-06 13:00","2011","07","06","13:00","27.5","","19.0","","60","","31","","26","","24.1","","99.16","","34","","","","Mostly Cloudy"
"2011-07-06 14:00","2011","07","06","14:00","29.1","","18.2","","52","","29","","19","","24.1","","99.14","","35","","","","Mostly Cloudy"
"2011-07-06 15:00","2011","07","06","15:00","29.1","","18.2","","52","","31","","20","","24.1","","99.12","","35","","","","Mostly Cloudy"
"2011-07-06 16:00","2011","07","06","16:00","29.2","","16.9","","47","","33","","20","","24.1","","99.08","","34","","","","Mostly Cloudy"
"2011-07-06 17:00","2011","07","06","17:00","28.5","","15.4","","45","","33","","20","","24.1","","99.06","","33","","","","Mostly Cloudy"
"2011-07-06 18:00","2011","07","06","18:00","27.7","","15.1","","46","","36","","22","","24.1","","99.11","","32","","","","Mainly Clear"
"2011-07-06 19:00","2011","07","06","19:00","26.1","","16.4","","55","","1","","24","","24.1","","99.13","","31","","","","Mainly Clear"
"2011-07-06 20:00","2011","07","06","20:00","23.6","","16.9","","66","","36","","17","","24.1","","99.20","","29","","","","Clear"
"2011-07-06 21:00","2011","07","06","21:00","21.9","","16.8","","73","","36","","24","","24.1","","99.27","","27","","","","Clear"
"2011-07-06 22:00","2011","07","06","22:00","20.8","","16.6","","77","","35","","17","","24.1","","99.33","","26","","","","Clear"
"2011-07-06 23:00","2011","07","06","23:00","20.4","","16.5","","78","","35","","19","","24.1","","99.35","","25","","","","Clear"
"2011-07-07 00:00","2011","07","07","00:00","19.6","","16.3","","81","","35","","15","","24.1","","99.37","","","","","","Clear"
"2011-07-07 01:00","2011","07","07","01:00","19.0","","16.3","","84","","36","","11","","24.1","","99.40","","","","","","Clear"
"2011-07-07 02:00","2011","07","07","02:00","18.1","","16.0","","88","","35","","11","","24.1","","99.42","","","","","","Clear"
"2011-07-07 03:00","2011","07","07","03:00","17.8","","15.8","","88","","1","","7","","24.1","","99.43","","","","","","Clear"
"2011-07-07 04:00","2011","07","07","04:00","17.0","","15.5","","91","","1","","9","","24.1","","99.46","","","","","","Clear"
"2011-07-07 05:00","2011","07","07","05:00","17.4","","15.6","","89","","1","","11","","24.1","","99.51","","","","","","Mainly Clear"
"2011-07-07 06:00","2011","07","07","06:00","18.4","","16.3","","88","","36","","7","","24.1","","99.54","","","","","","Mainly Clear"
"2011-07-07 07:00","2011","07","07","07:00","19.9","","16.7","","82","","3","","6","","24.1","","99.55","","","","","","Cloudy"
"2011-07-07 08:00","2011","07","07","08:00","21.9","","16.5","","71","","2","","6","","24.1","","99.57","","27","","","","Cloudy"
"2011-07-07 09:00","2011","07","07","09:00","22.6","","16.2","","67","","11","","4","","24.1","","99.56","","27","","","","Cloudy"
"2011-07-07 10:00","2011","07","07","10:00","23.0","","16.2","","66","","15","","11","","24.1","","99.54","","28","","","","Cloudy"
"2011-07-07 11:00","2011","07","07","11:00","23.6","","15.8","","62","","16","","17","","24.1","","99.56","","28","","","","Cloudy"
"2011-07-07 12:00","2011","07","07","12:00","23.4","","15.9","","63","","17","","19","","24.1","","99.58","","28","","","","Cloudy"
"2011-07-07 13:00","2011","07","07","13:00","23.4","","15.8","","62","","16","","19","","24.1","","99.57","","28","","","","Cloudy"
"2011-07-07 14:00","2011","07","07","14:00","23.9","","16.2","","62","","17","","11","","24.1","","99.51","","29","","","","Cloudy"
"2011-07-07 15:00","2011","07","07","15:00","24.8","","15.5","","56","","17","","15","","24.1","","99.48","","29","","","","Cloudy"
"2011-07-07 16:00","2011","07","07","16:00","24.3","","14.1","","53","","16","","11","","24.1","","99.41","","28","","","","Cloudy"
"2011-07-07 17:00","2011","07","07","17:00","24.4","","13.9","","52","","13","","13","","24.1","","99.37","","28","","","","Cloudy"
"2011-07-07 18:00","2011","07","07","18:00","22.6","","14.8","","61","","16","","9","","24.1","","99.33","","26","","","","Mostly Cloudy"
"2011-07-07 19:00","2011","07","07","19:00","21.7","","14.2","","62","","13","","13","","24.1","","99.28","","25","","","","Mostly Cloudy"
"2011-07-07 20:00","2011","07","07","20:00","21.1","","13.9","","63","","14","","11","","24.1","","99.26","","","","","","Mostly Cloudy"
"2011-07-07 21:00","2011","07","07","21:00","20.5","","13.7","","65","","16","","7","","24.1","","99.31","","","","","","Mostly Cloudy"
"2011-07-07 22:00","2011","07","07","22:00","20.2","","13.0","","63","","13","","7","","24.1","","99.32","","","","","","Mostly Cloudy"
"2011-07-07 23:00","2011","07","07","23:00","20.4","","13.4","","64","","9","","4","","24.1","","99.33","","","","","","Mostly Cloudy"
"2011-07-08 00:00","2011","07","08","00:00","20.0","","13.7","","67","","7","","4","","24.1","","99.31","","","","","","Mostly Cloudy"
"2011-07-08 01:00","2011","07","08","01:00","19.5","","13.5","","68","","7","","4","","24.1","","99.26","","","","","","Mostly Cloudy"
"2011-07-08 02:00","2011","07","08","02:00","19.6","","13.8","","69","","3","","4","","24.1","","99.19","","","","","","Cloudy"
"2011-07-08 03:00","2011","07","08","03:00","19.6","","13.8","","69","","5","","6","","24.1","","99.16","","","","","","Cloudy"
"2011-07-08 04:00","2011","07","08","04:00","18.1","","13.8","","76","","3","","6","","24.1","","99.16","","","","","","Mainly Clear"
"2011-07-08 05:00","2011","07","08","05:00","17.7","","13.6","","77","","3","","4","","24.1","","99.13","","","","","","Mainly Clear"
"2011-07-08 06:00","2011","07","08","06:00","19.3","","14.6","","74","","8","","4","","24.1","","99.14","","","","","","Mainly Clear"
"2011-07-08 07:00","2011","07","08","07:00","20.6","","14.9","","70","","36","","6","","24.1","","99.14","","25","","","","Mainly Clear"
"2011-07-08 08:00","2011","07","08","08:00","22.6","","15.5","","64","","36","","6","","24.1","","99.12","","27","","","","Mainly Clear"
"2011-07-08 09:00","2011","07","08","09:00","24.6","","15.9","","58","","14","","9","","24.1","","99.05","","29","","","","Mainly Clear"
"2011-07-08 10:00","2011","07","08","10:00","25.5","","16.3","","57","","16","","9","","24.1","","99.05","","30","","","","Mainly Clear"
"2011-07-08 11:00","2011","07","08","11:00","25.0","","15.3","","55","","16","","19","","24.1","","99.05","","29","","","","Mainly Clear"
"2011-07-08 12:00","2011","07","08","12:00","26.0","","15.2","","51","","13","","15","","24.1","","99.03","","30","","","","Mainly Clear"
"2011-07-08 13:00","2011","07","08","13:00","27.2","","15.0","","47","","17","","13","","24.1","","98.98","","31","","","","Mainly Clear"
"2011-07-08 14:00","2011","07","08","14:00","26.7","","13.7","","45","","16","","15","","24.1","","98.95","","30","","","","Mainly Clear"
"2011-07-08 15:00","2011","07","08","15:00","27.1","","13.2","","42","","17","","19","","24.1","","98.91","","30","","","","Mainly Clear"
"2011-07-08 16:00","2011","07","08","16:00","26.2","","14.5","","49","","15","","19","","24.1","","98.88","","30","","","","Mainly Clear"
"2011-07-08 17:00","2011","07","08","17:00","26.2","","15.3","","51","","18","","13","","24.1","","98.85","","30","","","","Mainly Clear"
"2011-07-08 18:00","2011","07","08","18:00","24.9","","15.1","","54","","15","","11","","24.1","","98.85","","29","","","","Mainly Clear"
"2011-07-08 19:00","2011","07","08","19:00","24.4","","15.1","","56","","15","","7","","24.1","","98.89","","28","","","","Mostly Cloudy"
"2011-07-08 20:00","2011","07","08","20:00","24.7","","12.7","","47","","9","","4","","24.1","","98.93","","27","","","","Mostly Cloudy"
"2011-07-08 21:00","2011","07","08","21:00","24.2","","14.7","","55","","3","","19","","24.1","","99.03","","28","","","","Mostly Cloudy"
"2011-07-08 22:00","2011","07","08","22:00","22.9","","14.3","","58","","36","","19","","24.1","","99.05","","26","","","","Mainly Clear"
"2011-07-08 23:00","2011","07","08","23:00","21.5","","14.1","","63","","35","","19","","24.1","","99.07","","25","","","","Mainly Clear"
"2011-07-09 00:00","2011","07","09","00:00","20.6","","14.0","","66","","36","","13","","24.1","","99.07","","","","","","Mainly Clear"
"2011-07-09 01:00","2011","07","09","01:00","20.0","","14.2","","69","","36","","17","","24.1","","99.09","","","","","","Clear"
"2011-07-09 02:00","2011","07","09","02:00","19.1","","14.2","","73","","35","","15","","24.1","","99.13","","","","","","Clear"
"2011-07-09 03:00","2011","07","09","03:00","18.4","","14.9","","80","","35","","11","","24.1","","99.19","","","","","","Clear"
"2011-07-09 04:00","2011","07","09","04:00","17.7","","14.7","","83","","34","","15","","24.1","","99.26","","","","","","Clear"
"2011-07-09 05:00","2011","07","09","05:00","17.2","","14.2","","83","","35","","17","","24.1","","99.34","","","","","","Clear"
"2011-07-09 06:00","2011","07","09","06:00","17.9","","14.8","","82","","36","","11","","24.1","","99.41","","","","","","Clear"
"2011-07-09 07:00","2011","07","09","07:00","19.4","","15.2","","77","","2","","17","","24.1","","99.42","","","","","","Clear"
"2011-07-09 08:00","2011","07","09","08:00","21.5","","15.1","","67","","4","","7","","24.1","","99.47","","26","","","","Clear"
"2011-07-09 09:00","2011","07","09","09:00","22.6","","14.9","","62","","13","","6","","24.1","","99.52","","27","","","","Clear"
"2011-07-09 10:00","2011","07","09","10:00","23.7","","15.6","","60","","14","","15","","24.1","","99.52","","28","","","","Clear"
"2011-07-09 11:00","2011","07","09","11:00","24.3","","15.4","","58","","17","","13","","24.1","","99.53","","29","","","","Clear"
"2011-07-09 12:00","2011","07","09","12:00","23.7","","14.0","","55","","15","","19","","24.1","","99.53","","27","","","","Mainly Clear"
"2011-07-09 13:00","2011","07","09","13:00","24.2","","15.3","","58","","16","","15","","24.1","","99.54","","28","","","","Mainly Clear"
"2011-07-09 14:00","2011","07","09","14:00","25.4","","15.7","","55","","16","","15","","24.1","","99.51","","30","","","","Mainly Clear"
"2011-07-09 15:00","2011","07","09","15:00","24.5","","15.0","","55","","14","","20","","24.1","","99.51","","28","","","","Mainly Clear"
"2011-07-09 16:00","2011","07","09","16:00","25.1","","14.4","","51","","16","","17","","24.1","","99.49","","29","","","","Mostly Cloudy"
"2011-07-09 17:00","2011","07","09","17:00","24.4","","13.5","","51","","14","","13","","24.1","","99.49","","27","","","","Mostly Cloudy"
"2011-07-09 18:00","2011","07","09","18:00","23.8","","13.6","","53","","15","","13","","24.1","","99.51","","27","","","","Mostly Cloudy"
"2011-07-09 19:00","2011","07","09","19:00","23.6","","13.7","","54","","13","","7","","24.1","","99.51","","27","","","","Mostly Cloudy"
"2011-07-09 20:00","2011","07","09","20:00","22.7","","13.4","","56","","13","","9","","24.1","","99.49","","26","","","","Mostly Cloudy"
"2011-07-09 21:00","2011","07","09","21:00","22.7","","14.2","","59","","14","","7","","24.1","","99.51","","26","","","","Mostly Cloudy"
"2011-07-09 22:00","2011","07","09","22:00","22.3","","15.1","","64","","15","","11","","24.1","","99.52","","26","","","","Mostly Cloudy"
"2011-07-09 23:00","2011","07","09","23:00","21.6","","16.1","","71","","14","","9","","24.1","","99.50","","26","","","","Mostly Cloudy"
"2011-07-10 00:00","2011","07","10","00:00","20.9","","16.8","","77","","16","","7","","24.1","","99.49","","26","","","","Mostly Cloudy"
"2011-07-10 01:00","2011","07","10","01:00","20.3","","17.3","","83","","","","0","","24.1","","99.51","","26","","","","Mostly Cloudy"
"2011-07-10 02:00","2011","07","10","02:00","20.4","","17.1","","81","","18","","4","","24.1","","99.49","","26","","","","Mostly Cloudy"
"2011-07-10 03:00","2011","07","10","03:00","19.8","","15.6","","77","","25","","7","","24.1","","99.50","","","","","","Mostly Cloudy"
"2011-07-10 04:00","2011","07","10","04:00","19.9","","15.7","","77","","25","","7","","24.1","","99.48","","","","","","Mostly Cloudy"
"2011-07-10 05:00","2011","07","10","05:00","20.4","","15.5","","73","","23","","4","","24.1","","99.51","","25","","","","Mostly Cloudy"
"2011-07-10 06:00","2011","07","10","06:00","20.8","","16.4","","76","","14","","4","","24.1","","99.55","","26","","","","Mostly Cloudy"
"2011-07-10 07:00","2011","07","10","07:00","22.4","","17.2","","72","","16","","6","","24.1","","99.54","","28","","","","Mostly Cloudy"
"2011-07-10 08:00","2011","07","10","08:00","24.2","","17.8","","67","","20","","7","","24.1","","99.55","","30","","","","Mostly Cloudy"
"2011-07-10 09:00","2011","07","10","09:00","24.3","","18.9","","72","","17","","11","","24.1","","99.52","","31","","","","Mostly Cloudy"
"2011-07-10 10:00","2011","07","10","10:00","26.8","","20.0","","66","","14","","11","","24.1","","99.48","","34","","","","Mostly Cloudy"
"2011-07-10 11:00","2011","07","10","11:00","27.9","","18.3","","56","","25","","20","","24.1","","99.47","","34","","","","Mostly Cloudy"
"2011-07-10 12:00","2011","07","10","12:00","27.4","","18.5","","58","","24","","20","","19.3","","99.46","","34","","","","Cloudy"
"2011-07-10 13:00","2011","07","10","13:00","28.0","","19.3","","59","","25","","15","","24.1","","99.45","","35","","","","Mostly Cloudy"
"2011-07-10 14:00","2011","07","10","14:00","29.1","","19.5","","56","","25","","13","","24.1","","99.39","","36","","","","Mostly Cloudy"
"2011-07-10 15:00","2011","07","10","15:00","31.0","","19.2","","50","","27","","13","","24.1","","99.35","","38","","","","Mostly Cloudy"
"2011-07-10 16:00","2011","07","10","16:00","30.4","","17.0","","45","","26","","30","","24.1","","99.34","","36","","","","Mostly Cloudy"
"2011-07-10 17:00","2011","07","10","17:00","30.0","","17.2","","46","","27","","19","","24.1","","99.32","","35","","","","Mostly Cloudy"
"2011-07-10 18:00","2011","07","10","18:00","29.8","","18.2","","50","","28","","15","","24.1","","99.31","","36","","","","Mostly Cloudy"
"2011-07-10 19:00","2011","07","10","19:00","28.6","","18.0","","53","","27","","11","","24.1","","99.28","","35","","","","Mainly Clear"
"2011-07-10 20:00","2011","07","10","20:00","27.5","","16.6","","51","","25","","15","","24.1","","99.28","","33","","","","Mainly Clear"
"2011-07-10 21:00","2011","07","10","21:00","26.5","","14.6","","48","","24","","15","","24.1","","99.29","","30","","","","Mainly Clear"
"2011-07-10 22:00","2011","07","10","22:00","25.6","","15.5","","54","","24","","11","","24.1","","99.28","","30","","","","Mainly Clear"
"2011-07-10 23:00","2011","07","10","23:00","25.3","","15.5","","55","","25","","7","","24.1","","99.26","","30","","","","Mostly Cloudy"
"2011-07-11 00:00","2011","07","11","00:00","25.8","","15.5","","53","","19","","6","","24.1","","99.24","","30","","","","Mostly Cloudy"
"2011-07-11 01:00","2011","07","11","01:00","24.2","","15.7","","59","","22","","4","","24.1","","99.22","","29","","","","Mostly Cloudy"
"2011-07-11 02:00","2011","07","11","02:00","24.0","","15.8","","60","","19","","4","","24.1","","99.20","","28","","","","Mostly Cloudy"
"2011-07-11 03:00","2011","07","11","03:00","23.7","","15.4","","60","","","","0","","24.1","","99.19","","28","","","","Mainly Clear"
"2011-07-11 04:00","2011","07","11","04:00","22.9","","15.4","","63","","22","","4","","24.1","","99.18","","27","","","","Mostly Cloudy"
"2011-07-11 05:00","2011","07","11","05:00","23.1","","15.3","","61","","22","","7","","24.1","","99.16","","27","","","","Mainly Clear"
"2011-07-11 06:00","2011","07","11","06:00","23.7","","15.9","","62","","","","0","","24.1","","99.16","","28","","","","Mainly Clear"
"2011-07-11 07:00","2011","07","11","07:00","25.3","","17.0","","60","","25","","4","","24.1","","99.14","","31","","","","Mainly Clear"
"2011-07-11 08:00","2011","07","11","08:00","26.6","","16.7","","55","","18","","6","","24.1","","99.09","","32","","","","Mostly Cloudy"
"2011-07-11 09:00","2011","07","11","09:00","28.9","","17.6","","51","","20","","9","","24.1","","99.06","","35","","","","Mostly Cloudy"
"2011-07-11 10:00","2011","07","11","10:00","27.5","","18.8","","59","","15","","11","","19.3","","99.03","","34","","","","Cloudy"
"2011-07-11 11:00","2011","07","11","11:00","30.4","","20.4","","55","","15","","17","","19.3","","98.94","","38","","","","Cloudy"
"2011-07-11 12:00","2011","07","11","12:00","31.4","","20.1","","51","","18","","17","","16.1","","98.85","","39","","","","Cloudy"
"2011-07-11 13:00","2011","07","11","13:00","31.9","","18.0","","44","","22","","19","","17.7","","98.68","","38","","","","Cloudy"
"2011-07-11 14:00","2011","07","11","14:00","31.2","","16.9","","42","","22","","33","","17.7","","98.70","","36","","","","Cloudy"
"2011-07-11 15:00","2011","07","11","15:00","31.7","","18.4","","45","","23","","32","","17.7","","98.55","","38","","","","Cloudy"
"2011-07-11 16:00","2011","07","11","16:00","30.7","","17.7","","46","","23","","32","","17.7","","98.46","","36","","","","Cloudy"
"2011-07-11 17:00","2011","07","11","17:00","30.0","","18.6","","50","","24","","22","","19.3","","98.34","","36","","","","Cloudy"
"2011-07-11 18:00","2011","07","11","18:00","29.2","","19.6","","56","","26","","26","","24.1","","98.39","","36","","","","Mostly Cloudy"
"2011-07-11 19:00","2011","07","11","19:00","28.0","","19.6","","60","","26","","24","","24.1","","98.43","","35","","","","Cloudy"
"2011-07-11 20:00","2011","07","11","20:00","26.6","","19.5","","65","","28","","26","","24.1","","98.50","","34","","","","Mostly Cloudy"
"2011-07-11 21:00","2011","07","11","21:00","25.5","","19.5","","69","","29","","13","","24.1","","98.54","","33","","","","Mostly Cloudy"
"2011-07-11 22:00","2011","07","11","22:00","24.7","","19.9","","75","","28","","20","","24.1","","98.58","","32","","","","Mainly Clear"
"2011-07-11 23:00","2011","07","11","23:00","24.0","","20.2","","79","","28","","19","","24.1","","98.60","","32","","","","Clear"
"2011-07-12 00:00","2011","07","12","00:00","23.6","","20.3","","82","","26","","20","","24.1","","98.64","","31","","","","Mostly Cloudy"
"2011-07-12 01:00","2011","07","12","01:00","23.2","","20.3","","84","","24","","15","","24.1","","98.64","","31","","","","Mainly Clear"
"2011-07-12 02:00","2011","07","12","02:00","22.3","","20.1","","87","","27","","15","","24.1","","98.68","","30","","","","Clear"
"2011-07-12 03:00","2011","07","12","03:00","22.2","","20.0","","87","","27","","15","","24.1","","98.71","","30","","","","Mainly Clear"
"2011-07-12 04:00","2011","07","12","04:00","22.3","","19.4","","84","","31","","15","","24.1","","98.70","","29","","","","Clear"
"2011-07-12 05:00","2011","07","12","05:00","22.2","","19.4","","84","","30","","13","","24.1","","98.69","","29","","","","Clear"
"2011-07-12 06:00","2011","07","12","06:00","23.0","","19.6","","81","","28","","13","","24.1","","98.73","","30","","","","Clear"
"2011-07-12 07:00","2011","07","12","07:00","24.3","","17.3","","65","","30","","20","","24.1","","98.76","","30","","","","Clear"
"2011-07-12 08:00","2011","07","12","08:00","26.3","","16.3","","54","","31","","24","","24.1","","98.80","","31","","","","Clear"
"2011-07-12 09:00","2011","07","12","09:00","28.5","","15.5","","45","","29","","26","","24.1","","98.81","","33","","","","Clear"
"2011-07-12 10:00","2011","07","12","10:00","29.6","","14.8","","41","","31","","33","","24.1","","98.81","","33","","","","Mainly Clear"
"2011-07-12 11:00","2011","07","12","11:00","30.3","","13.8","","37","","31","","39","","24.1","","98.84","","34","","","","Mainly Clear"
"2011-07-12 12:00","2011","07","12","12:00","30.9","","13.1","","34","","31","","39","","24.1","","98.85","","34","","","","Mainly Clear"
"2011-07-12 13:00","2011","07","12","13:00","31.3","","13.9","","35","","31","","37","","24.1","","98.82","","35","","","","Mainly Clear"
"2011-07-12 14:00","2011","07","12","14:00","30.8","","14.3","","37","","29","","20","","24.1","","98.85","","34","","","","Mainly Clear"
"2011-07-12 15:00","2011","07","12","15:00","31.0","","14.6","","37","","28","","26","","24.1","","98.84","","35","","","","Mainly Clear"
"2011-07-12 16:00","2011","07","12","16:00","31.7","","15.0","","36","","30","","26","","24.1","","98.83","","36","","","","Mostly Cloudy"
"2011-07-12 17:00","2011","07","12","17:00","29.6","","14.6","","40","","30","","35","","24.1","","98.85","","33","","","","Mostly Cloudy"
"2011-07-12 18:00","2011","07","12","18:00","28.7","","14.1","","41","","29","","32","","24.1","","98.86","","32","","","","Clear"
"2011-07-12 19:00","2011","07","12","19:00","27.0","","13.7","","44","","30","","28","","24.1","","98.89","","30","","","","Clear"
"2011-07-12 20:00","2011","07","12","20:00","25.7","","13.1","","46","","31","","26","","24.1","","98.96","","29","","","","Mostly Cloudy"
"2011-07-12 21:00","2011","07","12","21:00","24.0","","13.1","","51","","32","","19","","24.1","","99.05","","27","","","","Mainly Clear"
"2011-07-12 22:00","2011","07","12","22:00","23.0","","12.3","","51","","30","","33","","24.1","","99.12","","25","","","","Mainly Clear"
"2011-07-12 23:00","2011","07","12","23:00","21.6","","12.4","","56","","29","","20","","24.1","","99.06","","","","","","Clear"
"2011-07-13 00:00","2011","07","13","00:00","20.0","","13.0","","64","","31","","22","","24.1","","99.01","","","","","","Clear"
"2011-07-13 01:00","2011","07","13","01:00","19.3","","13.5","","69","","32","","26","","24.1","","98.96","","","","","","Mainly Clear"
"2011-07-13 02:00","2011","07","13","02:00","18.4","","13.5","","73","","32","","20","","24.1","","98.96","","","","","","Mainly Clear"
"2011-07-13 03:00","2011","07","13","03:00","18.4","","13.6","","74","","33","","17","","24.1","","98.98","","","","","","Mainly Clear"
"2011-07-13 04:00","2011","07","13","04:00","18.1","","13.6","","75","","35","","22","","24.1","","99.03","","","","","","Clear"
"2011-07-13 05:00","2011","07","13","05:00","17.7","","13.7","","77","","35","","19","","24.1","","99.05","","","","","","Clear"
"2011-07-13 06:00","2011","07","13","06:00","18.7","","14.1","","75","","35","","26","","24.1","","99.10","","","","","","Clear"
"2011-07-13 07:00","2011","07","13","07:00","20.3","","14.9","","71","","35","","22","","24.1","","99.15","","","","","","Mainly Clear"
"2011-07-13 08:00","2011","07","13","08:00","21.6","","15.1","","67","","35","","32","","24.1","","99.19","","26","","","","Mainly Clear"
"2011-07-13 09:00","2011","07","13","09:00","23.1","","15.5","","62","","34","","28","","24.1","","99.24","","27","","","","Mainly Clear"
"2011-07-13 10:00","2011","07","13","10:00","24.2","","14.5","","55","","32","","30","","24.1","","99.26","","28","","","","Mainly Clear"
"2011-07-13 11:00","2011","07","13","11:00","25.1","","14.1","","50","","33","","28","","24.1","","99.29","","29","","","","Mainly Clear"
"2011-07-13 12:00","2011","07","13","12:00","24.8","","13.2","","48","","36","","28","","24.1","","99.32","","28","","","","Mainly Clear"
"2011-07-13 13:00","2011","07","13","13:00","25.1","","12.8","","46","","34","","33","","24.1","","99.36","","28","","","","Mainly Clear"
"2011-07-13 14:00","2011","07","13","14:00","25.7","","12.2","","43","","34","","32","","24.1","","99.38","","28","","","","Mainly Clear"
"2011-07-13 15:00","2011","07","13","15:00","26.1","","12.0","","41","","35","","37","","24.1","","99.40","","28","","","","Mainly Clear"
"2011-07-13 16:00","2011","07","13","16:00","25.3","","11.4","","42","","35","","35","","24.1","","99.41","","27","","","","Mainly Clear"
"2011-07-13 17:00","2011","07","13","17:00","24.7","","11.1","","42","","35","","32","","24.1","","99.47","","27","","","","Mainly Clear"
"2011-07-13 18:00","2011","07","13","18:00","23.6","","10.3","","43","","36","","37","","24.1","","99.52","","25","","","","Mainly Clear"
"2011-07-13 19:00","2011","07","13","19:00","22.8","","9.9","","44","","35","","28","","24.1","","99.53","","","","","","Clear"
"2011-07-13 20:00","2011","07","13","20:00","21.5","","9.2","","45","","34","","22","","24.1","","99.57","","","","","","Mainly Clear"
"2011-07-13 21:00","2011","07","13","21:00","20.4","","9.3","","49","","34","","17","","24.1","","99.65","","","","","","Mainly Clear"
"2011-07-13 22:00","2011","07","13","22:00","19.6","","10.0","","54","","34","","26","","24.1","","99.69","","","","","","Clear"
"2011-07-13 23:00","2011","07","13","23:00","18.5","","9.8","","57","","36","","22","","24.1","","99.72","","","","","","Clear"
"2011-07-14 00:00","2011","07","14","00:00","17.9","","10.2","","61","","35","","20","","24.1","","99.76","","","","","","Clear"
"2011-07-14 01:00","2011","07","14","01:00","17.0","","11.3","","69","","1","","15","","24.1","","99.75","","","","","","Clear"
"2011-07-14 02:00","2011","07","14","02:00","16.7","","12.1","","74","","36","","13","","24.1","","99.76","","","","","","Clear"
"2011-07-14 03:00","2011","07","14","03:00","16.4","","11.9","","75","","34","","17","","24.1","","99.82","","","","","","Clear"
"2011-07-14 04:00","2011","07","14","04:00","16.7","","11.9","","73","","36","","17","","24.1","","99.86","","","","","","Clear"
"2011-07-14 05:00","2011","07","14","05:00","16.0","","11.8","","76","","31","","7","","24.1","","99.93","","","","","","Mainly Clear"
"2011-07-14 06:00","2011","07","14","06:00","17.3","","12.1","","71","","35","","15","","24.1","","99.94","","","","","","Clear"
"2011-07-14 07:00","2011","07","14","07:00","19.0","","12.6","","66","","36","","17","","24.1","","99.97","","","","","","Mainly Clear"
"2011-07-14 08:00","2011","07","14","08:00","21.8","","13.2","","58","","2","","17","","24.1","","99.98","","25","","","","Mainly Clear"
"2011-07-14 09:00","2011","07","14","09:00","23.5","","11.9","","48","","2","","11","","24.1","","99.95","","26","","","","Mainly Clear"
"2011-07-14 10:00","2011","07","14","10:00","24.4","","10.8","","42","","10","","6","","24.1","","99.93","","26","","","","Mainly Clear"
"2011-07-14 11:00","2011","07","14","11:00","24.9","","11.6","","43","","15","","19","","24.1","","99.93","","27","","","","Mainly Clear"
"2011-07-14 12:00","2011","07","14","12:00","25.3","","11.5","","42","","18","","19","","24.1","","99.90","","27","","","","Mainly Clear"
"2011-07-14 13:00","2011","07","14","13:00","24.8","","11.0","","42","","15","","19","","24.1","","99.86","","27","","","","Mainly Clear"
"2011-07-14 14:00","2011","07","14","14:00","25.7","","11.0","","40","","17","","17","","24.1","","99.83","","27","","","","Mainly Clear"
"2011-07-14 15:00","2011","07","14","15:00","25.9","","10.7","","38","","13","","13","","24.1","","99.80","","28","","","","Mainly Clear"
"2011-07-14 16:00","2011","07","14","16:00","25.6","","9.9","","37","","15","","17","","24.1","","99.75","","27","","","","Mainly Clear"
"2011-07-14 17:00","2011","07","14","17:00","25.0","","8.9","","36","","16","","15","","24.1","","99.73","","26","","","","Mostly Cloudy"
"2011-07-14 18:00","2011","07","14","18:00","24.0","","9.4","","40","","16","","13","","24.1","","99.73","","25","","","","Mostly Cloudy"
"2011-07-14 19:00","2011","07","14","19:00","23.3","","8.4","","39","","17","","7","","24.1","","99.72","","","","","","Mostly Cloudy"
"2011-07-14 20:00","2011","07","14","20:00","22.4","","8.9","","42","","16","","7","","24.1","","99.72","","","","","","Mostly Cloudy"
"2011-07-14 21:00","2011","07","14","21:00","21.8","","9.8","","46","","","","0","","24.1","","99.73","","","","","","Mostly Cloudy"
"2011-07-14 22:00","2011","07","14","22:00","20.9","","9.6","","48","","5","","4","","24.1","","99.74","","","","","","Mostly Cloudy"
"2011-07-14 23:00","2011","07","14","23:00","20.4","","9.0","","48","","36","","4","","24.1","","99.75","","","","","","Mostly Cloudy"
"2011-07-15 00:00","2011","07","15","00:00","18.2","","10.9","","62","","1","","13","","24.1","","99.76","","","","","","Mainly Clear"
"2011-07-15 01:00","2011","07","15","01:00","17.0","","10.9","","67","","34","","11","","24.1","","99.75","","","","","","Mainly Clear"
"2011-07-15 02:00","2011","07","15","02:00","16.7","","11.0","","69","","36","","11","","24.1","","99.80","","","","","","Mainly Clear"
"2011-07-15 03:00","2011","07","15","03:00","15.8","","11.2","","74","","36","","9","","24.1","","99.80","","","","","","Mainly Clear"
"2011-07-15 04:00","2011","07","15","04:00","15.6","","11.4","","76","","1","","7","","24.1","","99.79","","","","","","Clear"
"2011-07-15 05:00","2011","07","15","05:00","15.1","","11.3","","78","","32","","9","","24.1","","99.83","","","","","","Mainly Clear"
"2011-07-15 06:00","2011","07","15","06:00","17.0","","12.3","","74","","32","","7","","24.1","","99.87","","","","","","Clear"
"2011-07-15 07:00","2011","07","15","07:00","20.3","","12.6","","61","","4","","4","","24.1","","99.90","","","","","","Clear"
"2011-07-15 08:00","2011","07","15","08:00","23.4","","11.8","","48","","12","","9","","24.1","","99.92","","26","","","","Clear"
"2011-07-15 09:00","2011","07","15","09:00","25.1","","11.8","","43","","14","","9","","24.1","","99.89","","27","","","","Clear"
"2011-07-15 10:00","2011","07","15","10:00","25.8","","11.3","","40","","15","","6","","24.1","","99.86","","28","","","","Clear"
"2011-07-15 11:00","2011","07","15","11:00","26.8","","10.0","","35","","11","","15","","24.1","","99.85","","28","","","","Clear"
"2011-07-15 12:00","2011","07","15","12:00","26.8","","9.9","","35","","15","","19","","24.1","","99.82","","28","","","","Clear"
"2011-07-15 13:00","2011","07","15","13:00","27.0","","10.4","","35","","13","","19","","24.1","","99.78","","28","","","","Clear"
"2011-07-15 14:00","2011","07","15","14:00","26.6","","9.4","","34","","11","","24","","24.1","","99.77","","28","","","","Clear"
"2011-07-15 15:00","2011","07","15","15:00","27.2","","8.5","","31","","12","","20","","24.1","","99.77","","28","","","","Clear"
"2011-07-15 16:00","2011","07","15","16:00","26.8","","6.7","","28","","11","","13","","24.1","","99.74","","27","","","","Clear"
"2011-07-15 17:00","2011","07","15","17:00","27.6","","6.7","","27","","12","","13","","24.1","","99.72","","27","","","","Clear"
"2011-07-15 18:00","2011","07","15","18:00","27.1","","8.8","","32","","14","","9","","24.1","","99.69","","28","","","","Clear"
"2011-07-15 19:00","2011","07","15","19:00","25.5","","9.2","","36","","13","","9","","24.1","","99.68","","26","","","","Mainly Clear"
"2011-07-15 20:00","2011","07","15","20:00","23.9","","9.1","","39","","13","","7","","24.1","","99.68","","25","","","","Mainly Clear"
"2011-07-15 21:00","2011","07","15","21:00","23.2","","9.1","","41","","14","","4","","24.1","","99.73","","","","","","Mainly Clear"
"2011-07-15 22:00","2011","07","15","22:00","22.1","","9.3","","44","","11","","6","","24.1","","99.77","","","","","","Clear"
"2011-07-15 23:00","2011","07","15","23:00","22.0","","12.0","","53","","11","","7","","24.1","","99.78","","","","","","Clear"
"2011-07-16 00:00","2011","07","16","00:00","21.2","","11.3","","53","","7","","4","","24.1","","99.82","","","","","","Clear"
"2011-07-16 01:00","2011","07","16","01:00","21.1","","11.1","","53","","7","","6","","24.1","","99.78","","","","","","Clear"
"2011-07-16 02:00","2011","07","16","02:00","20.6","","12.5","","60","","7","","7","","24.1","","99.78","","","","","","Clear"
"2011-07-16 03:00","2011","07","16","03:00","18.1","","11.7","","66","","36","","6","","24.1","","99.80","","","","","","Clear"
"2011-07-16 04:00","2011","07","16","04:00","17.4","","11.3","","67","","2","","7","","24.1","","99.82","","","","","","Clear"
"2011-07-16 05:00","2011","07","16","05:00","17.0","","11.4","","70","","2","","7","","24.1","","99.84","","","","","","Mainly Clear"
"2011-07-16 06:00","2011","07","16","06:00","19.3","","12.7","","66","","5","","7","","24.1","","99.87","","","","","","Mainly Clear"
"2011-07-16 07:00","2011","07","16","07:00","21.6","","14.2","","63","","","","0","","24.1","","99.89","","25","","","","Mainly Clear"
"2011-07-16 08:00","2011","07","16","08:00","23.6","","14.5","","57","","9","","7","","24.1","","99.90","","27","","","","Mainly Clear"
"2011-07-16 09:00","2011","07","16","09:00","24.5","","15.0","","55","","14","","7","","24.1","","99.89","","28","","","","Mainly Clear"
"2011-07-16 10:00","2011","07","16","10:00","26.7","","15.5","","50","","11","","6","","24.1","","99.88","","31","","","","Mainly Clear"
"2011-07-16 11:00","2011","07","16","11:00","28.1","","17.3","","52","","15","","9","","24.1","","99.86","","34","","","","Clear"
"2011-07-16 12:00","2011","07","16","12:00","28.0","","16.1","","48","","14","","15","","24.1","","99.87","","33","","","","Clear"
"2011-07-16 13:00","2011","07","16","13:00","28.9","","15.5","","44","","13","","13","","24.1","","99.82","","33","","","","Mainly Clear"
"2011-07-16 14:00","2011","07","16","14:00","29.9","","14.3","","39","","16","","17","","24.1","","99.78","","33","","","","Mainly Clear"
"2011-07-16 15:00","2011","07","16","15:00","30.7","","13.5","","35","","16","","17","","24.1","","99.77","","34","","","","Mainly Clear"
"2011-07-16 16:00","2011","07","16","16:00","30.1","","13.4","","36","","16","","22","","24.1","","99.74","","33","","","","Mainly Clear"
"2011-07-16 17:00","2011","07","16","17:00","30.0","","15.0","","40","","17","","15","","24.1","","99.72","","34","","","","Mainly Clear"
"2011-07-16 18:00","2011","07","16","18:00","27.7","","16.3","","50","","17","","19","","24.1","","99.72","","33","","","","Mainly Clear"
"2011-07-16 19:00","2011","07","16","19:00","26.3","","17.5","","58","","17","","13","","24.1","","99.72","","32","","","","Mainly Clear"
"2011-07-16 20:00","2011","07","16","20:00","25.4","","19.0","","68","","16","","7","","24.1","","99.72","","32","","","","Mainly Clear"
"2011-07-16 21:00","2011","07","16","21:00","25.1","","19.2","","70","","18","","7","","24.1","","99.76","","32","","","","Mainly Clear"
"2011-07-16 22:00","2011","07","16","22:00","25.3","","13.8","","49","","25","","13","","24.1","","99.78","","29","","","","Mainly Clear"
"2011-07-16 23:00","2011","07","16","23:00","25.6","","13.9","","48","","29","","7","","24.1","","99.80","","29","","","","Mainly Clear"
"2011-07-17 00:00","2011","07","17","00:00","25.0","","13.8","","50","","30","","9","","24.1","","99.79","","28","","","","Mainly Clear"
"2011-07-17 01:00","2011","07","17","01:00","24.4","","13.8","","52","","26","","6","","24.1","","99.74","","28","","","","Clear"
"2011-07-17 02:00","2011","07","17","02:00","23.1","","13.9","","56","","27","","7","","24.1","","99.77","","26","","","","Clear"
"2011-07-17 03:00","2011","07","17","03:00","22.9","","13.8","","56","","25","","4","","24.1","","99.77","","26","","","","Clear"
"2011-07-17 04:00","2011","07","17","04:00","21.6","","13.8","","61","","27","","4","","24.1","","99.79","","25","","","","Clear"
"2011-07-17 05:00","2011","07","17","05:00","21.8","","14.3","","62","","28","","6","","24.1","","99.84","","25","","","","Clear"
"2011-07-17 06:00","2011","07","17","06:00","23.1","","15.7","","63","","28","","11","","24.1","","99.86","","28","","","","Clear"
"2011-07-17 07:00","2011","07","17","07:00","24.9","","16.5","","60","","26","","13","","24.1","","99.92","","30","","","","Clear"
"2011-07-17 08:00","2011","07","17","08:00","27.1","","16.5","","52","","27","","19","","24.1","","99.92","","32","","","","Clear"
"2011-07-17 09:00","2011","07","17","09:00","29.6","","17.6","","49","","31","","17","","24.1","","99.88","","35","","","","Mainly Clear"
"2011-07-17 10:00","2011","07","17","10:00","30.0","","18.0","","49","","27","","7","","24.1","","99.88","","36","","","","Clear"
"2011-07-17 11:00","2011","07","17","11:00","31.8","","16.8","","41","","27","","19","","24.1","","99.87","","37","","","","Clear"
"2011-07-17 12:00","2011","07","17","12:00","33.0","","16.7","","38","","27","","24","","24.1","","99.83","","38","","","","Clear"
"2011-07-17 13:00","2011","07","17","13:00","33.7","","16.9","","37","","28","","17","","24.1","","99.80","","39","","","","Clear"
"2011-07-17 14:00","2011","07","17","14:00","34.6","","18.0","","38","","28","","24","","24.1","","99.70","","41","","","","Mainly Clear"
"2011-07-17 15:00","2011","07","17","15:00","34.3","","17.6","","37","","25","","22","","24.1","","99.62","","40","","","","Mainly Clear"
"2011-07-17 16:00","2011","07","17","16:00","34.9","","18.3","","38","","26","","32","","24.1","","99.56","","41","","","","Mainly Clear"
"2011-07-17 17:00","2011","07","17","17:00","34.4","","18.1","","38","","26","","30","","24.1","","99.49","","40","","","","Mostly Cloudy"
"2011-07-17 18:00","2011","07","17","18:00","32.0","","19.2","","47","","25","","41","","24.1","","99.51","","39","","","","Mainly Clear"
"2011-07-17 19:00","2011","07","17","19:00","30.9","","18.8","","49","","24","","30","","24.1","","99.58","","38","","","","Mainly Clear"
"2011-07-17 20:00","2011","07","17","20:00","29.3","","17.9","","50","","24","","26","","24.1","","99.61","","35","","","","Mainly Clear"
"2011-07-17 21:00","2011","07","17","21:00","28.4","","17.0","","50","","24","","20","","24.1","","99.63","","34","","","","Mainly Clear"
"2011-07-17 22:00","2011","07","17","22:00","27.9","","15.6","","47","","23","","19","","24.1","","99.57","","32","","","","Clear"
"2011-07-17 23:00","2011","07","17","23:00","27.0","","14.8","","47","","25","","17","","24.1","","99.52","","31","","","","Clear"
"2011-07-18 00:00","2011","07","18","00:00","26.0","","14.0","","48","","26","","19","","24.1","","99.43","","29","","","","Clear"
"2011-07-18 01:00","2011","07","18","01:00","25.7","","13.9","","48","","25","","17","","24.1","","99.38","","29","","","","Mainly Clear"
"2011-07-18 02:00","2011","07","18","02:00","26.2","","15.6","","52","","26","","26","","24.1","","99.35","","31","","","","Mostly Cloudy"
"2011-07-18 03:00","2011","07","18","03:00","26.1","","17.0","","57","","26","","26","","24.1","","99.31","","31","","","","Mostly Cloudy"
"2011-07-18 04:00","2011","07","18","04:00","25.7","","17.7","","61","","26","","22","","24.1","","99.24","","31","","","","Mostly Cloudy"
"2011-07-18 05:00","2011","07","18","05:00","26.4","","18.8","","63","","29","","35","","16.1","","99.37","","33","","","","Cloudy"
"2011-07-18 06:00","2011","07","18","06:00","24.8","","19.8","","74","","34","","33","","16.1","","99.47","","32","","","","Rain Showers"
"2011-07-18 07:00","2011","07","18","07:00","23.9","","20.7","","82","","5","","7","","19.3","","99.36","","32","","","","Rain Showers"
"2011-07-18 08:00","2011","07","18","08:00","24.2","","20.9","","82","","","","0","","19.3","","99.38","","33","","","","Rain Showers"
"2011-07-18 09:00","2011","07","18","09:00","25.7","","20.9","","75","","22","","17","","24.1","","99.33","","34","","","","Mostly Cloudy"
"2011-07-18 10:00","2011","07","18","10:00","27.8","","19.7","","61","","24","","20","","24.1","","99.29","","35","","","","Mostly Cloudy"
"2011-07-18 11:00","2011","07","18","11:00","30.8","","19.8","","52","","27","","19","","24.1","","99.29","","38","","","","Mostly Cloudy"
"2011-07-18 12:00","2011","07","18","12:00","31.7","","19.5","","48","","30","","24","","24.1","","99.24","","39","","","","Mostly Cloudy"
"2011-07-18 13:00","2011","07","18","13:00","31.7","","20.2","","51","","26","","17","","24.1","","99.21","","39","","","","Mostly Cloudy"
"2011-07-18 14:00","2011","07","18","14:00","32.9","","20.2","","47","","30","","22","","24.1","","99.19","","41","","","","Mostly Cloudy"
"2011-07-18 15:00","2011","07","18","15:00","34.2","","20.4","","45","","28","","28","","24.1","","99.12","","42","","","","Mostly Cloudy"
"2011-07-18 16:00","2011","07","18","16:00","31.9","","19.9","","49","","31","","20","","24.1","","99.07","","39","","","","Mostly Cloudy"
"2011-07-18 17:00","2011","07","18","17:00","31.7","","20.5","","52","","30","","24","","24.1","","99.04","","40","","","","Mostly Cloudy"
"2011-07-18 18:00","2011","07","18","18:00","30.4","","20.3","","55","","32","","19","","24.1","","99.04","","38","","","","Mostly Cloudy"
"2011-07-18 19:00","2011","07","18","19:00","30.2","","20.1","","55","","31","","19","","24.1","","99.03","","38","","","","Mostly Cloudy"
"2011-07-18 20:00","2011","07","18","20:00","29.2","","20.6","","60","","34","","17","","24.1","","99.04","","37","","","","Mostly Cloudy"
"2011-07-18 21:00","2011","07","18","21:00","27.5","","21.3","","69","","36","","15","","24.1","","99.06","","36","","","","Mostly Cloudy"
"2011-07-18 22:00","2011","07","18","22:00","26.5","","20.8","","71","","36","","17","","24.1","","99.12","","35","","","","Mainly Clear"
"2011-07-18 23:00","2011","07","18","23:00","25.3","","20.5","","75","","36","","15","","24.1","","99.12","","33","","","","Mainly Clear"
"2011-07-19 00:00","2011","07","19","00:00","24.5","","20.5","","78","","2","","11","","24.1","","99.09","","32","","","","Mainly Clear"
"2011-07-19 01:00","2011","07","19","01:00","23.8","","20.4","","81","","1","","7","","24.1","","99.08","","32","","","","Mainly Clear"
"2011-07-19 02:00","2011","07","19","02:00","23.5","","20.3","","82","","34","","11","","24.1","","99.09","","31","","","","Mainly Clear"
"2011-07-19 03:00","2011","07","19","03:00","22.2","","20.0","","87","","36","","15","","24.1","","99.06","","30","","","","Mainly Clear"
"2011-07-19 04:00","2011","07","19","04:00","21.6","","19.9","","90","","1","","15","","24.1","","99.11","","29","","","","Mainly Clear"
"2011-07-19 05:00","2011","07","19","05:00","21.7","","19.9","","90","","2","","11","","24.1","","99.17","","29","","","","Mostly Cloudy"
"2011-07-19 06:00","2011","07","19","06:00","23.3","","19.4","","79","","9","","17","","24.1","","99.16","","30","","","","Mostly Cloudy"
"2011-07-19 07:00","2011","07","19","07:00","23.7","","17.7","","69","","10","","20","","24.1","","99.20","","29","","","","Mostly Cloudy"
"2011-07-19 08:00","2011","07","19","08:00","24.0","","15.5","","59","","11","","17","","24.1","","99.25","","28","","","","Mostly Cloudy"
"2011-07-19 09:00","2011","07","19","09:00","25.4","","16.5","","58","","10","","13","","24.1","","99.26","","30","","","","Mostly Cloudy"
"2011-07-19 10:00","2011","07","19","10:00","26.3","","16.5","","55","","8","","15","","24.1","","99.25","","31","","","","Mainly Clear"
"2011-07-19 11:00","2011","07","19","11:00","27.5","","17.3","","54","","7","","4","","24.1","","99.24","","33","","","","Clear"
"2011-07-19 12:00","2011","07","19","12:00","27.6","","18.3","","57","","16","","7","","24.1","","99.23","","34","","","","Clear"
"2011-07-19 13:00","2011","07","19","13:00","29.3","","18.3","","52","","16","","15","","24.1","","99.16","","36","","","","Clear"
"2011-07-19 14:00","2011","07","19","14:00","28.4","","18.3","","54","","17","","20","","24.1","","99.14","","35","","","","Mainly Clear"
"2011-07-19 15:00","2011","07","19","15:00","28.0","","18.3","","56","","16","","13","","24.1","","99.12","","34","","","","Mainly Clear"
"2011-07-19 16:00","2011","07","19","16:00","27.1","","18.5","","59","","14","","17","","24.1","","99.08","","33","","","","Mainly Clear"
"2011-07-19 17:00","2011","07","19","17:00","26.5","","18.6","","62","","14","","19","","19.3","","99.07","","33","","","","Mainly Clear"
"2011-07-19 18:00","2011","07","19","18:00","26.0","","18.3","","63","","10","","11","","19.3","","99.05","","32","","","","Mainly Clear"
"2011-07-19 19:00","2011","07","19","19:00","25.8","","18.0","","62","","14","","7","","19.3","","99.04","","32","","","","Mostly Cloudy"
"2011-07-19 20:00","2011","07","19","20:00","24.9","","16.9","","61","","15","","7","","24.1","","99.02","","30","","","","Mostly Cloudy"
"2011-07-19 21:00","2011","07","19","21:00","24.3","","16.3","","61","","12","","4","","24.1","","99.09","","29","","","","Mostly Cloudy"
"2011-07-19 22:00","2011","07","19","22:00","24.6","","15.3","","56","","15","","4","","24.1","","99.12","","29","","","","Mostly Cloudy"
"2011-07-19 23:00","2011","07","19","23:00","24.5","","15.6","","58","","9","","6","","24.1","","99.07","","29","","","","Mostly Cloudy"
"2011-07-20 00:00","2011","07","20","00:00","23.8","","15.5","","60","","6","","6","","24.1","","99.06","","28","","","","Mostly Cloudy"
"2011-07-20 01:00","2011","07","20","01:00","23.6","","15.0","","59","","5","","4","","24.1","","99.07","","28","","","","Mostly Cloudy"
"2011-07-20 02:00","2011","07","20","02:00","23.0","","15.3","","62","","","","0","","24.1","","99.03","","27","","","","Mainly Clear"
"2011-07-20 03:00","2011","07","20","03:00","21.5","","15.2","","67","","31","","4","","24.1","","99.03","","26","","","","Mainly Clear"
"2011-07-20 04:00","2011","07","20","04:00","21.9","","17.6","","77","","27","","4","","24.1","","99.01","","28","","","","Mainly Clear"
"2011-07-20 05:00","2011","07","20","05:00","21.3","","18.0","","81","","29","","4","","24.1","","99.03","","27","","","","Mostly Cloudy"
"2011-07-20 06:00","2011","07","20","06:00","22.3","","18.6","","80","","14","","4","","24.1","","99.01","","29","","","","Mostly Cloudy"
"2011-07-20 07:00","2011","07","20","07:00","24.0","","19.3","","75","","23","","7","","19.3","","99.01","","31","","","","Mostly Cloudy"
"2011-07-20 08:00","2011","07","20","08:00","26.5","","19.1","","64","","23","","9","","24.1","","99.04","","33","","","","Mainly Clear"
"2011-07-20 09:00","2011","07","20","09:00","29.0","","18.0","","52","","25","","19","","19.3","","99.05","","35","","","","Mostly Cloudy"
"2011-07-20 10:00","2011","07","20","10:00","31.4","","19.2","","48","","27","","22","","19.3","","99.01","","38","","","","Mainly Clear"
"2011-07-20 11:00","2011","07","20","11:00","32.9","","19.7","","46","","28","","24","","19.3","","98.95","","40","","","","Mainly Clear"
"2011-07-20 12:00","2011","07","20","12:00","33.0","","19.1","","44","","27","","19","","19.3","","98.91","","40","","","","Mostly Cloudy"
"2011-07-20 13:00","2011","07","20","13:00","33.7","","18.6","","41","","27","","19","","24.1","","98.88","","40","","","","Mostly Cloudy"
"2011-07-20 14:00","2011","07","20","14:00","35.3","","18.1","","36","","28","","28","","24.1","","98.82","","41","","","","Mostly Cloudy"
"2011-07-20 15:00","2011","07","20","15:00","35.0","","18.4","","38","","24","","19","","24.1","","98.79","","41","","","","Cloudy"
"2011-07-20 16:00","2011","07","20","16:00","35.1","","18.0","","36","","26","","28","","24.1","","98.73","","41","","","","Mostly Cloudy"
"2011-07-20 17:00","2011","07","20","17:00","34.8","","17.6","","36","","25","","19","","24.1","","98.67","","41","","","","Mainly Clear"
"2011-07-20 18:00","2011","07","20","18:00","34.4","","19.1","","41","","23","","20","","19.3","","98.63","","41","","","","Mostly Cloudy"
"2011-07-20 19:00","2011","07","20","19:00","32.4","","20.6","","50","","23","","32","","19.3","","98.66","","40","","","","Mainly Clear"
"2011-07-20 20:00","2011","07","20","20:00","31.0","","20.3","","53","","24","","19","","19.3","","98.66","","39","","","","Mainly Clear"
"2011-07-20 21:00","2011","07","20","21:00","29.8","","20.3","","57","","23","","24","","24.1","","98.70","","38","","","","Clear"
"2011-07-20 22:00","2011","07","20","22:00","28.9","","19.2","","56","","22","","17","","24.1","","98.66","","36","","","","Clear"
"2011-07-20 23:00","2011","07","20","23:00","27.9","","19.1","","59","","24","","17","","24.1","","98.67","","35","","","","Clear"
"2011-07-21 00:00","2011","07","21","00:00","27.2","","19.2","","62","","24","","19","","24.1","","98.63","","34","","","","Clear"
"2011-07-21 01:00","2011","07","21","01:00","27.0","","19.7","","64","","24","","17","","24.1","","98.58","","34","","","","Clear"
"2011-07-21 02:00","2011","07","21","02:00","26.5","","20.4","","69","","24","","15","","24.1","","98.55","","34","","","","Clear"
"2011-07-21 03:00","2011","07","21","03:00","26.6","","20.9","","71","","23","","9","","24.1","","98.53","","35","","","","Clear"
"2011-07-21 04:00","2011","07","21","04:00","26.6","","21.3","","73","","21","","9","","24.1","","98.44","","35","","","","Clear"
"2011-07-21 05:00","2011","07","21","05:00","27.1","","22.5","","76","","25","","28","","24.1","","98.41","","37","","","","Mainly Clear"
"2011-07-21 06:00","2011","07","21","06:00","27.3","","23.1","","78","","24","","20","","19.3","","98.41","","38","","","","Mainly Clear"
"2011-07-21 07:00","2011","07","21","07:00","28.4","","23.6","","75","","24","","22","","24.1","","98.40","","39","","","","Mainly Clear"
"2011-07-21 08:00","2011","07","21","08:00","30.4","","24.0","","69","","25","","26","","24.1","","98.40","","42","","","","Mainly Clear"
"2011-07-21 09:00","2011","07","21","09:00","32.6","","24.1","","61","","28","","35","","24.1","","98.40","","44","","","","Mainly Clear"
"2011-07-21 10:00","2011","07","21","10:00","33.6","","24.2","","58","","27","","26","","24.1","","98.36","","45","","","","Mainly Clear"
"2011-07-21 11:00","2011","07","21","11:00","34.9","","24.2","","54","","26","","35","","24.1","","98.43","","46","","","","Mostly Cloudy"
"2011-07-21 12:00","2011","07","21","12:00","36.1","","24.4","","51","","28","","35","","24.1","","98.38","","48","","","","Mainly Clear"
"2011-07-21 13:00","2011","07","21","13:00","36.6","","24.3","","49","","26","","35","","24.1","","98.40","","48","","","","Mostly Cloudy"
"2011-07-21 14:00","2011","07","21","14:00","37.1","","24.0","","47","","28","","35","","24.1","","98.40","","48","","","","Mainly Clear"
"2011-07-21 15:00","2011","07","21","15:00","37.4","","23.7","","46","","28","","32","","24.1","","98.40","","48","","","","Mainly Clear"
"2011-07-21 16:00","2011","07","21","16:00","37.5","","22.9","","43","","28","","39","","24.1","","98.39","","48","","","","Mainly Clear"
"2011-07-21 17:00","2011","07","21","17:00","36.6","","22.8","","45","","27","","37","","24.1","","98.43","","47","","","","Mainly Clear"
"2011-07-21 18:00","2011","07","21","18:00","35.6","","21.9","","45","","29","","37","","24.1","","98.48","","45","","","","Mainly Clear"
"2011-07-21 19:00","2011","07","21","19:00","34.5","","22.4","","50","","29","","26","","24.1","","98.53","","44","","","","Mainly Clear"
"2011-07-21 20:00","2011","07","21","20:00","33.1","","23.0","","56","","29","","20","","24.1","","98.58","","43","","","","Mainly Clear"
"2011-07-21 21:00","2011","07","21","21:00","31.2","","23.1","","62","","35","","17","","24.1","","98.65","","42","","","","Mainly Clear"
"2011-07-21 22:00","2011","07","21","22:00","28.3","","23.2","","74","","35","","22","","24.1","","98.74","","39","","","","Mainly Clear"
"2011-07-21 23:00","2011","07","21","23:00","28.6","","22.4","","69","","33","","30","","24.1","","98.82","","38","","","","Clear"
"2011-07-22 00:00","2011","07","22","00:00","27.1","","18.1","","58","","32","","20","","24.1","","98.88","","33","","","","Clear"
"2011-07-22 01:00","2011","07","22","01:00","26.2","","17.2","","58","","33","","17","","24.1","","98.90","","32","","","","Clear"
"2011-07-22 02:00","2011","07","22","02:00","25.2","","16.7","","59","","34","","20","","24.1","","98.95","","30","","","","Clear"
"2011-07-22 03:00","2011","07","22","03:00","24.5","","16.4","","61","","34","","22","","24.1","","99.00","","29","","","","Clear"
"2011-07-22 04:00","2011","07","22","04:00","23.2","","16.3","","65","","32","","9","","24.1","","99.06","","28","","","","Mainly Clear"
"2011-07-22 05:00","2011","07","22","05:00","22.5","","16.2","","68","","29","","7","","24.1","","99.13","","27","","","","Mainly Clear"
"2011-07-22 06:00","2011","07","22","06:00","24.0","","17.1","","65","","28","","7","","24.1","","99.21","","29","","","","Mainly Clear"
"2011-07-22 07:00","2011","07","22","07:00","26.4","","17.0","","56","","31","","13","","24.1","","99.24","","32","","","","Mainly Clear"
"2011-07-22 08:00","2011","07","22","08:00","27.8","","16.9","","52","","31","","15","","24.1","","99.26","","33","","","","Mainly Clear"
"2011-07-22 09:00","2011","07","22","09:00","28.3","","17.3","","51","","31","","9","","24.1","","99.25","","34","","","","Mostly Cloudy"
"2011-07-22 10:00","2011","07","22","10:00","29.0","","17.5","","50","","35","","7","","24.1","","99.26","","35","","","","Mostly Cloudy"
"2011-07-22 11:00","2011","07","22","11:00","30.5","","17.5","","46","","29","","9","","24.1","","99.25","","36","","","","Mostly Cloudy"
"2011-07-22 12:00","2011","07","22","12:00","30.9","","16.1","","41","","29","","17","","24.1","","99.28","","36","","","","Mostly Cloudy"
"2011-07-22 13:00","2011","07","22","13:00","30.6","","17.3","","45","","27","","9","","24.1","","99.27","","36","","","","Mostly Cloudy"
"2011-07-22 14:00","2011","07","22","14:00","30.9","","17.3","","44","","28","","13","","24.1","","99.25","","36","","","","Mostly Cloudy"
"2011-07-22 15:00","2011","07","22","15:00","30.9","","17.6","","45","","26","","6","","24.1","","99.17","","37","","","","Mostly Cloudy"
"2011-07-22 16:00","2011","07","22","16:00","30.7","","18.0","","47","","30","","13","","24.1","","99.17","","37","","","","Rain Showers"
"2011-07-22 17:00","2011","07","22","17:00","29.9","","16.7","","45","","31","","15","","24.1","","99.17","","35","","","","Mostly Cloudy"
"2011-07-22 18:00","2011","07","22","18:00","29.9","","18.8","","51","","29","","13","","24.1","","99.14","","37","","","","Rain Showers"
"2011-07-22 19:00","2011","07","22","19:00","29.3","","18.6","","53","","28","","7","","24.1","","99.05","","36","","","","Mostly Cloudy"
"2011-07-22 20:00","2011","07","22","20:00","27.5","","18.0","","56","","16","","9","","24.1","","99.13","","34","","","","Mostly Cloudy"
"2011-07-22 21:00","2011","07","22","21:00","27.4","","17.1","","53","","","","0","","24.1","","99.23","","33","","","","Mostly Cloudy"
"2011-07-22 22:00","2011","07","22","22:00","27.0","","18.0","","58","","28","","9","","24.1","","99.22","","33","","","","Mostly Cloudy"
"2011-07-22 23:00","2011","07","22","23:00","27.3","","18.3","","58","","17","","6","","24.1","","99.19","","34","","","","Mostly Cloudy"
"2011-07-23 00:00","2011","07","23","00:00","24.9","","17.8","","65","","26","","11","","24.1","","99.18","","31","","","","Mainly Clear"
"2011-07-23 01:00","2011","07","23","01:00","24.3","","17.4","","65","","28","","9","","24.1","","99.13","","30","","","","Clear"
"2011-07-23 02:00","2011","07","23","02:00","23.5","","17.4","","69","","29","","7","","24.1","","99.18","","29","","","","Clear"
"2011-07-23 03:00","2011","07","23","03:00","23.4","","18.0","","72","","28","","9","","24.1","","99.23","","29","","","","Clear"
"2011-07-23 04:00","2011","07","23","04:00","23.4","","18.2","","73","","29","","11","","24.1","","99.25","","30","","","","Clear"
"2011-07-23 05:00","2011","07","23","05:00","22.5","","18.9","","80","","28","","13","","24.1","","99.32","","29","","","","Mainly Clear"
"2011-07-23 06:00","2011","07","23","06:00","22.9","","19.4","","81","","28","","17","","24.1","","99.32","","30","","","","Mostly Cloudy"
"2011-07-23 07:00","2011","07","23","07:00","24.4","","20.1","","77","","28","","22","","24.1","","99.35","","32","","","","Mostly Cloudy"
"2011-07-23 08:00","2011","07","23","08:00","25.7","","20.9","","75","","30","","17","","24.1","","99.36","","34","","","","Mostly Cloudy"
"2011-07-23 09:00","2011","07","23","09:00","27.8","","20.6","","65","","32","","15","","24.1","","99.36","","36","","","","Mostly Cloudy"
"2011-07-23 10:00","2011","07","23","10:00","28.9","","20.2","","59","","32","","13","","24.1","","99.41","","37","","","","Mostly Cloudy"
"2011-07-23 11:00","2011","07","23","11:00","31.0","","20.7","","54","","27","","15","","24.1","","99.40","","39","","","","Mostly Cloudy"
"2011-07-23 12:00","2011","07","23","12:00","32.2","","20.4","","50","","27","","19","","24.1","","99.33","","40","","","","Mostly Cloudy"
"2011-07-23 13:00","2011","07","23","13:00","32.7","","20.3","","48","","29","","19","","24.1","","99.27","","41","","","","Mostly Cloudy"
"2011-07-23 14:00","2011","07","23","14:00","32.9","","19.6","","46","","28","","13","","24.1","","99.22","","40","","","","Mostly Cloudy"
"2011-07-23 15:00","2011","07","23","15:00","33.0","","19.6","","45","","28","","20","","24.1","","99.20","","40","","","","Mostly Cloudy"
"2011-07-23 16:00","2011","07","23","16:00","33.6","","20.6","","47","","28","","13","","24.1","","99.15","","42","","","","Mostly Cloudy"
"2011-07-23 17:00","2011","07","23","17:00","32.2","","20.1","","49","","28","","15","","24.1","","99.18","","40","","","","Mostly Cloudy"
"2011-07-23 18:00","2011","07","23","18:00","30.1","","19.7","","54","","34","","28","","24.1","","99.17","","37","","","","Mostly Cloudy"
"2011-07-23 19:00","2011","07","23","19:00","25.0","","20.6","","77","","28","","19","","16.1","","99.23","","33","","","","Rain Showers"
"2011-07-23 20:00","2011","07","23","20:00","24.0","","20.9","","83","","36","","30","","12.9","","99.33","","32","","","","Rain Showers"
"2011-07-23 21:00","2011","07","23","21:00","23.5","","21.6","","89","","2","","17","","16.1","","99.33","","32","","","","Rain Showers"
"2011-07-23 22:00","2011","07","23","22:00","23.4","","21.6","","90","","1","","24","","16.1","","99.32","","32","","","","Rain Showers"
"2011-07-23 23:00","2011","07","23","23:00","24.4","","21.7","","85","","34","","9","","24.1","","99.39","","33","","","","Mostly Cloudy"
"2011-07-24 00:00","2011","07","24","00:00","24.5","","21.3","","82","","34","","13","","19.3","","99.44","","33","","","","Rain Showers"
"2011-07-24 01:00","2011","07","24","01:00","23.9","","21.2","","85","","1","","9","","24.1","","99.36","","32","","","","Mostly Cloudy"
"2011-07-24 02:00","2011","07","24","02:00","23.8","","21.2","","85","","1","","6","","24.1","","99.34","","32","","","","Mostly Cloudy"
"2011-07-24 03:00","2011","07","24","03:00","23.6","","20.7","","84","","34","","7","","24.1","","99.40","","32","","","","Mostly Cloudy"
"2011-07-24 04:00","2011","07","24","04:00","22.8","","20.7","","88","","36","","13","","24.1","","99.42","","31","","","","Mostly Cloudy"
"2011-07-24 05:00","2011","07","24","05:00","22.6","","20.0","","85","","5","","9","","24.1","","99.45","","30","","","","Mostly Cloudy"
"2011-07-24 06:00","2011","07","24","06:00","23.0","","19.6","","81","","6","","7","","24.1","","99.51","","30","","","","Mainly Clear"
"2011-07-24 07:00","2011","07","24","07:00","21.8","","16.9","","74","","11","","13","","24.1","","99.57","","27","","","","Mostly Cloudy"
"2011-07-24 08:00","2011","07","24","08:00","22.0","","15.6","","67","","9","","11","","24.1","","99.58","","26","","","","Mostly Cloudy"
"2011-07-24 09:00","2011","07","24","09:00","22.5","","15.2","","63","","8","","7","","24.1","","99.62","","27","","","","Mostly Cloudy"
"2011-07-24 10:00","2011","07","24","10:00","23.5","","13.8","","54","","8","","13","","24.1","","99.63","","27","","","","Mostly Cloudy"
"2011-07-24 11:00","2011","07","24","11:00","24.3","","14.5","","54","","13","","11","","24.1","","99.65","","28","","","","Mostly Cloudy"
"2011-07-24 12:00","2011","07","24","12:00","24.3","","15.0","","56","","12","","15","","24.1","","99.63","","28","","","","Mainly Clear"
"2011-07-24 13:00","2011","07","24","13:00","25.2","","15.3","","54","","16","","11","","24.1","","99.59","","29","","","","Mostly Cloudy"
"2011-07-24 14:00","2011","07","24","14:00","25.1","","15.3","","55","","15","","13","","24.1","","99.57","","29","","","","Mostly Cloudy"
"2011-07-24 15:00","2011","07","24","15:00","26.3","","15.7","","52","","16","","9","","24.1","","99.53","","31","","","","Mostly Cloudy"
"2011-07-24 16:00","2011","07","24","16:00","26.3","","16.1","","53","","13","","9","","24.1","","99.48","","31","","","","Mainly Clear"
"2011-07-24 17:00","2011","07","24","17:00","26.6","","16.9","","55","","13","","11","","24.1","","99.41","","32","","","","Mostly Cloudy"
"2011-07-24 18:00","2011","07","24","18:00","25.8","","16.4","","56","","13","","13","","24.1","","99.39","","31","","","","Mostly Cloudy"
"2011-07-24 19:00","2011","07","24","19:00","24.9","","17.0","","62","","17","","11","","24.1","","99.44","","30","","","","Mostly Cloudy"
"2011-07-24 20:00","2011","07","24","20:00","23.9","","17.2","","66","","16","","9","","24.1","","99.42","","29","","","","Mostly Cloudy"
"2011-07-24 21:00","2011","07","24","21:00","23.7","","18.3","","72","","16","","7","","24.1","","99.39","","30","","","","Mostly Cloudy"
"2011-07-24 22:00","2011","07","24","22:00","23.6","","18.9","","75","","13","","11","","24.1","","99.33","","30","","","","Mostly Cloudy"
"2011-07-24 23:00","2011","07","24","23:00","23.5","","19.4","","78","","16","","13","","24.1","","99.29","","31","","","","Mostly Cloudy"
"2011-07-25 00:00","2011","07","25","00:00","23.5","","18.9","","75","","16","","9","","24.1","","99.25","","30","","","","Mostly Cloudy"
"2011-07-25 01:00","2011","07","25","01:00","23.6","","18.8","","74","","14","","9","","24.1","","99.21","","30","","","","Cloudy"
"2011-07-25 02:00","2011","07","25","02:00","23.6","","18.5","","73","","11","","6","","24.1","","99.18","","30","","","","Cloudy"
"2011-07-25 03:00","2011","07","25","03:00","23.5","","18.3","","73","","9","","9","","24.1","","99.11","","30","","","","Cloudy"
"2011-07-25 04:00","2011","07","25","04:00","23.0","","18.2","","74","","9","","6","","24.1","","99.08","","29","","","","Thunderstorms"
"2011-07-25 05:00","2011","07","25","05:00","20.4","","18.9","","91","","7","","9","","16.1","","99.01","","27","","","","Thunderstorms,Rain Showers"
"2011-07-25 06:00","2011","07","25","06:00","19.7","","18.5","","93","","9","","15","","24.1","","98.98","","","","","","Rain Showers"
"2011-07-25 07:00","2011","07","25","07:00","19.4","","18.5","","95","","4","","13","","19.3","","99.02","","","","","","Drizzle"
"2011-07-25 08:00","2011","07","25","08:00","20.8","","19.6","","93","","10","","9","","24.1","","98.99","","28","","","","Cloudy"
"2011-07-25 09:00","2011","07","25","09:00","21.5","","19.9","","91","","9","","7","","24.1","","98.97","","29","","","","Cloudy"
"2011-07-25 10:00","2011","07","25","10:00","21.8","","19.9","","89","","14","","6","","24.1","","98.97","","29","","","","Cloudy"
"2011-07-25 11:00","2011","07","25","11:00","23.8","","20.9","","84","","10","","7","","16.1","","98.92","","32","","","","Mostly Cloudy"
"2011-07-25 12:00","2011","07","25","12:00","25.4","","21.2","","78","","1","","4","","19.3","","98.88","","34","","","","Mainly Clear"
"2011-07-25 13:00","2011","07","25","13:00","27.5","","19.8","","63","","31","","15","","24.1","","98.85","","35","","","","Mostly Cloudy"
"2011-07-25 14:00","2011","07","25","14:00","29.2","","16.8","","47","","30","","32","","24.1","","98.80","","34","","","","Mainly Clear"
"2011-07-25 15:00","2011","07","25","15:00","28.8","","12.9","","38","","30","","24","","24.1","","98.74","","32","","","","Clear"
"2011-07-25 16:00","2011","07","25","16:00","27.9","","14.6","","44","","30","","26","","24.1","","98.72","","32","","","","Clear"
"2011-07-25 17:00","2011","07","25","17:00","27.4","","12.4","","39","","29","","26","","24.1","","98.72","","30","","","","Clear"
"2011-07-25 18:00","2011","07","25","18:00","26.1","","13.2","","45","","30","","22","","24.1","","98.72","","29","","","","Clear"
"2011-07-25 19:00","2011","07","25","19:00","24.9","","12.3","","45","","31","","26","","24.1","","98.73","","27","","","","Clear"
"2011-07-25 20:00","2011","07","25","20:00","23.5","","12.2","","49","","31","","24","","24.1","","98.77","","26","","","","Clear"
"2011-07-25 21:00","2011","07","25","21:00","22.1","","13.0","","56","","29","","17","","24.1","","98.78","","25","","","","Clear"
"2011-07-25 22:00","2011","07","25","22:00","20.9","","12.6","","59","","29","","11","","24.1","","98.73","","","","","","Clear"
"2011-07-25 23:00","2011","07","25","23:00","19.2","","12.4","","65","","26","","13","","24.1","","98.70","","","","","","Clear"
"2011-07-26 00:00","2011","07","26","00:00","20.5","","11.8","","57","","21","","9","","24.1","","98.69","","","","","","Mainly Clear"
"2011-07-26 01:00","2011","07","26","01:00","20.9","","12.1","","57","","34","","35","","24.1","","98.79","","","","","","Thunderstorms"
"2011-07-26 02:00","2011","07","26","02:00","19.5","","14.6","","73","","33","","9","","24.1","","98.67","","","","","","Mostly Cloudy"
"2011-07-26 03:00","2011","07","26","03:00","19.4","","15.0","","76","","25","","6","","24.1","","98.64","","","","","","Mainly Clear"
"2011-07-26 04:00","2011","07","26","04:00","19.5","","15.6","","78","","34","","9","","24.1","","98.61","","","","","","Mostly Cloudy"
"2011-07-26 05:00","2011","07","26","05:00","19.1","","15.8","","81","","25","","6","","24.1","","98.55","","","","","","Mostly Cloudy"
"2011-07-26 06:00","2011","07","26","06:00","19.9","","14.8","","72","","22","","7","","24.1","","98.53","","","","","","Mainly Clear"
"2011-07-26 07:00","2011","07","26","07:00","21.2","","15.1","","68","","26","","17","","24.1","","98.50","","25","","","","Mostly Cloudy"
"2011-07-26 08:00","2011","07","26","08:00","22.7","","16.6","","68","","31","","30","","24.1","","98.53","","28","","","","Mostly Cloudy"
"2011-07-26 09:00","2011","07","26","09:00","24.4","","16.2","","60","","30","","28","","24.1","","98.55","","29","","","","Mainly Clear"
"2011-07-26 10:00","2011","07","26","10:00","23.6","","12.8","","51","","31","","43","","24.1","","98.62","","26","","","","Mostly Cloudy"
"2011-07-26 11:00","2011","07","26","11:00","24.7","","12.5","","47","","29","","39","","24.1","","98.61","","27","","","","Mainly Clear"
"2011-07-26 12:00","2011","07","26","12:00","25.7","","12.5","","44","","29","","39","","24.1","","98.65","","28","","","","Mostly Cloudy"
"2011-07-26 13:00","2011","07","26","13:00","25.1","","12.1","","44","","30","","35","","24.1","","98.66","","27","","","","Mostly Cloudy"
"2011-07-26 14:00","2011","07","26","14:00","25.8","","12.6","","44","","31","","35","","24.1","","98.68","","28","","","","Mostly Cloudy"
"2011-07-26 15:00","2011","07","26","15:00","26.1","","12.5","","43","","30","","39","","24.1","","98.68","","29","","","","Mainly Clear"
"2011-07-26 16:00","2011","07","26","16:00","24.6","","11.7","","44","","32","","43","","24.1","","98.72","","27","","","","Mainly Clear"
"2011-07-26 17:00","2011","07","26","17:00","24.7","","12.5","","47","","31","","32","","24.1","","98.77","","27","","","","Mostly Cloudy"
"2011-07-26 18:00","2011","07","26","18:00","23.4","","13.0","","52","","32","","28","","24.1","","98.83","","26","","","","Mostly Cloudy"
"2011-07-26 19:00","2011","07","26","19:00","22.9","","13.4","","55","","33","","35","","24.1","","98.90","","26","","","","Mostly Cloudy"
"2011-07-26 20:00","2011","07","26","20:00","21.2","","13.1","","60","","34","","28","","24.1","","98.95","","","","","","Clear"
"2011-07-26 21:00","2011","07","26","21:00","20.6","","13.6","","64","","31","","28","","24.1","","99.01","","","","","","Clear"
"2011-07-26 22:00","2011","07","26","22:00","19.8","","13.8","","68","","30","","20","","24.1","","99.06","","","","","","Clear"
"2011-07-26 23:00","2011","07","26","23:00","18.8","","13.9","","73","","31","","19","","24.1","","99.10","","","","","","Clear"
"2011-07-27 00:00","2011","07","27","00:00","18.4","","14.1","","76","","31","","20","","24.1","","99.14","","","","","","Clear"
"2011-07-27 01:00","2011","07","27","01:00","18.1","","14.2","","78","","32","","13","","24.1","","99.14","","","","","","Clear"
"2011-07-27 02:00","2011","07","27","02:00","17.1","","14.0","","82","","28","","6","","24.1","","99.16","","","","","","Clear"
"2011-07-27 03:00","2011","07","27","03:00","16.7","","13.8","","83","","28","","13","","24.1","","99.21","","","","","","Clear"
"2011-07-27 04:00","2011","07","27","04:00","16.5","","14.0","","85","","29","","11","","24.1","","99.31","","","","","","Clear"
"2011-07-27 05:00","2011","07","27","05:00","16.5","","13.8","","84","","29","","11","","24.1","","99.35","","","","","","Clear"
"2011-07-27 06:00","2011","07","27","06:00","18.1","","14.2","","78","","27","","9","","24.1","","99.41","","","","","","Mainly Clear"
"2011-07-27 07:00","2011","07","27","07:00","21.2","","14.3","","65","","35","","15","","24.1","","99.40","","25","","","","Clear"
"2011-07-27 08:00","2011","07","27","08:00","22.6","","15.4","","64","","36","","13","","24.1","","99.41","","27","","","","Mainly Clear"
"2011-07-27 09:00","2011","07","27","09:00","23.9","","14.9","","57","","35","","11","","24.1","","99.45","","28","","","","Mainly Clear"
"2011-07-27 10:00","2011","07","27","10:00","25.1","","12.5","","45","","34","","19","","24.1","","99.49","","28","","","","Mostly Cloudy"
"2011-07-27 11:00","2011","07","27","11:00","25.4","","13.7","","48","","1","","7","","24.1","","99.51","","29","","","","Mostly Cloudy"
"2011-07-27 12:00","2011","07","27","12:00","26.3","","13.3","","45","","1","","7","","24.1","","99.48","","29","","","","Mostly Cloudy"
"2011-07-27 13:00","2011","07","27","13:00","26.9","","13.2","","43","","","","0","","24.1","","99.43","","30","","","","Cloudy"
"2011-07-27 14:00","2011","07","27","14:00","26.5","","14.1","","46","","17","","6","","24.1","","99.45","","30","","","","Cloudy"
"2011-07-27 15:00","2011","07","27","15:00","26.3","","14.0","","47","","16","","17","","24.1","","99.45","","30","","","","Cloudy"
"2011-07-27 16:00","2011","07","27","16:00","26.3","","13.9","","46","","14","","11","","24.1","","99.43","","30","","","","Cloudy"
"2011-07-27 17:00","2011","07","27","17:00","26.0","","13.7","","47","","15","","15","","24.1","","99.45","","29","","","","Mostly Cloudy"
"2011-07-27 18:00","2011","07","27","18:00","25.4","","13.1","","46","","13","","13","","24.1","","99.40","","28","","","","Cloudy"
"2011-07-27 19:00","2011","07","27","19:00","24.7","","13.5","","50","","15","","11","","24.1","","99.43","","28","","","","Mostly Cloudy"
"2011-07-27 20:00","2011","07","27","20:00","24.0","","16.5","","63","","16","","11","","24.1","","99.44","","29","","","","Mostly Cloudy"
"2011-07-27 21:00","2011","07","27","21:00","24.6","","13.8","","51","","21","","13","","24.1","","99.49","","28","","","","Mostly Cloudy"
"2011-07-27 22:00","2011","07","27","22:00","23.9","","13.3","","51","","20","","11","","24.1","","99.52","","27","","","","Mostly Cloudy"
"2011-07-27 23:00","2011","07","27","23:00","23.9","","13.1","","51","","22","","6","","24.1","","99.52","","27","","","","Mostly Cloudy"
"2011-07-28 00:00","2011","07","28","00:00","23.5","","14.1","","56","","12","","6","","24.1","","99.48","","27","","","","Mostly Cloudy"
"2011-07-28 01:00","2011","07","28","01:00","22.4","","15.9","","67","","16","","7","","24.1","","99.47","","27","","","","Mostly Cloudy"
"2011-07-28 02:00","2011","07","28","02:00","22.5","","16.4","","68","","16","","6","","24.1","","99.48","","27","","","","Cloudy"
"2011-07-28 03:00","2011","07","28","03:00","22.4","","16.3","","68","","17","","9","","24.1","","99.41","","27","","","","Mostly Cloudy"
"2011-07-28 04:00","2011","07","28","04:00","22.6","","16.8","","70","","15","","9","","24.1","","99.39","","28","","","","Mostly Cloudy"
"2011-07-28 05:00","2011","07","28","05:00","22.1","","18.2","","79","","17","","7","","24.1","","99.37","","28","","","","Rain Showers"
"2011-07-28 06:00","2011","07","28","06:00","22.5","","18.3","","77","","14","","4","","24.1","","99.42","","29","","","","Rain Showers"
"2011-07-28 07:00","2011","07","28","07:00","22.5","","18.5","","78","","14","","9","","24.1","","99.39","","29","","","","Rain Showers"
"2011-07-28 08:00","2011","07","28","08:00","22.8","","18.7","","78","","13","","11","","24.1","","99.35","","29","","","","Rain Showers"
"2011-07-28 09:00","2011","07","28","09:00","22.3","","18.9","","81","","19","","7","","19.3","","99.38","","29","","","","Rain Showers"
"2011-07-28 10:00","2011","07","28","10:00","20.4","","19.4","","94","","15","","11","","6.4","","99.36","","27","","","","Rain Showers,Fog"
"2011-07-28 11:00","2011","07","28","11:00","20.5","","19.6","","95","","16","","7","","9.7","","99.34","","28","","","","Drizzle,Fog"
"2011-07-28 12:00","2011","07","28","12:00","20.6","","20.0","","96","","15","","6","","3.2","","99.35","","28","","","","Drizzle,Fog"
"2011-07-28 13:00","2011","07","28","13:00","20.9","","20.1","","95","","11","","6","","6.4","","99.34","","29","","","","Drizzle,Fog"
"2011-07-28 14:00","2011","07","28","14:00","21.8","","20.8","","94","","10","","7","","9.7","","99.31","","30","","","","Fog"
"2011-07-28 15:00","2011","07","28","15:00","22.9","","21.5","","92","","12","","6","","9.7","","99.29","","32","","","","Fog"
"2011-07-28 16:00","2011","07","28","16:00","23.5","","21.9","","91","","13","","4","","16.1","","99.28","","33","","","","Cloudy"
"2011-07-28 17:00","2011","07","28","17:00","23.8","","21.9","","89","","11","","6","","16.1","","99.27","","33","","","","Cloudy"
"2011-07-28 18:00","2011","07","28","18:00","23.8","","21.9","","89","","12","","7","","12.9","","99.28","","33","","","","Mostly Cloudy"
"2011-07-28 19:00","2011","07","28","19:00","23.6","","21.6","","89","","9","","9","","16.1","","99.28","","33","","","","Mostly Cloudy"
"2011-07-28 20:00","2011","07","28","20:00","22.1","","20.4","","90","","14","","7","","12.9","","99.27","","30","","","","Cloudy"
"2011-07-28 21:00","2011","07","28","21:00","21.9","","20.2","","90","","15","","4","","16.1","","99.33","","30","","","","Mostly Cloudy"
"2011-07-28 22:00","2011","07","28","22:00","21.9","","20.2","","90","","","","0","","16.1","","99.35","","30","","","","Mostly Cloudy"
"2011-07-28 23:00","2011","07","28","23:00","21.6","","20.1","","91","","25","","4","","16.1","","99.39","","29","","","","Mostly Cloudy"
"2011-07-29 00:00","2011","07","29","00:00","22.2","","20.2","","88","","","","0","","16.1","","99.29","","30","","","","Mostly Cloudy"
"2011-07-29 01:00","2011","07","29","01:00","21.9","","20.3","","91","","","","0","","16.1","","99.22","","30","","","","Cloudy"
"2011-07-29 02:00","2011","07","29","02:00","22.1","","20.4","","90","","22","","6","","16.1","","99.16","","30","","","","Cloudy"
"2011-07-29 03:00","2011","07","29","03:00","21.9","","20.7","","93","","23","","4","","16.1","","99.17","","30","","","","Cloudy"
"2011-07-29 04:00","2011","07","29","04:00","22.0","","20.6","","92","","10","","6","","16.1","","99.00","","30","","","","Cloudy"
"2011-07-29 05:00","2011","07","29","05:00","21.9","","20.9","","94","","19","","13","","8.0","","99.06","","30","","","","Rain Showers,Fog"
"2011-07-29 06:00","2011","07","29","06:00","21.8","","21.3","","97","","18","","11","","2.0","","98.99","","30","","","","Fog"
"2011-07-29 07:00","2011","07","29","07:00","22.4","","21.7","","96","","24","","7","","4.8","","99.00","","31","","","","Fog"
"2011-07-29 08:00","2011","07","29","08:00","23.6","","21.6","","89","","23","","15","","9.7","","99.00","","33","","","","Fog"
"2011-07-29 09:00","2011","07","29","09:00","25.1","","22.1","","83","","25","","22","","12.9","","98.93","","35","","","","Cloudy"
"2011-07-29 10:00","2011","07","29","10:00","26.1","","21.7","","77","","27","","35","","24.1","","98.91","","35","","","","Rain Showers"
"2011-07-29 11:00","2011","07","29","11:00","22.9","","21.1","","90","","35","","30","","8.0","","98.96","","31","","","","Rain Showers,Fog"
"2011-07-29 12:00","2011","07","29","12:00","26.3","","21.3","","74","","34","","26","","24.1","","99.00","","35","","","","Mostly Cloudy"
"2011-07-29 13:00","2011","07","29","13:00","27.5","","20.7","","66","","33","","28","","24.1","","99.03","","36","","","","Mostly Cloudy"
"2011-07-29 14:00","2011","07","29","14:00","28.3","","19.7","","60","","34","","22","","24.1","","99.06","","36","","","","Mostly Cloudy"
"2011-07-29 15:00","2011","07","29","15:00","29.8","","18.7","","51","","35","","24","","24.1","","99.07","","36","","","","Mainly Clear"
"2011-07-29 16:00","2011","07","29","16:00","31.4","","19.5","","49","","30","","22","","24.1","","99.04","","39","","","","Mainly Clear"
"2011-07-29 17:00","2011","07","29","17:00","31.0","","19.1","","49","","29","","33","","24.1","","99.02","","38","","","","Mainly Clear"
"2011-07-29 18:00","2011","07","29","18:00","29.5","","17.0","","47","","31","","28","","24.1","","99.12","","35","","","","Mostly Cloudy"
"2011-07-29 19:00","2011","07","29","19:00","27.6","","15.6","","48","","31","","28","","24.1","","99.18","","32","","","","Mostly Cloudy"
"2011-07-29 20:00","2011","07","29","20:00","25.9","","15.6","","53","","30","","15","","24.1","","99.25","","30","","","","Mainly Clear"
"2011-07-29 21:00","2011","07","29","21:00","24.5","","15.8","","58","","31","","19","","24.1","","99.33","","29","","","","Clear"
"2011-07-29 22:00","2011","07","29","22:00","23.4","","14.8","","58","","31","","19","","24.1","","99.35","","27","","","","Clear"
"2011-07-29 23:00","2011","07","29","23:00","23.0","","14.6","","59","","30","","22","","24.1","","99.38","","27","","","","Clear"
"2011-07-30 00:00","2011","07","30","00:00","21.9","","14.9","","64","","30","","17","","24.1","","99.41","","26","","","","Mainly Clear"
"2011-07-30 01:00","2011","07","30","01:00","21.5","","14.4","","64","","30","","17","","24.1","","99.43","","25","","","","Clear"
"2011-07-30 02:00","2011","07","30","02:00","21.0","","14.5","","66","","31","","22","","24.1","","99.44","","25","","","","Clear"
"2011-07-30 03:00","2011","07","30","03:00","19.8","","14.6","","72","","32","","13","","24.1","","99.46","","","","","","Clear"
"2011-07-30 04:00","2011","07","30","04:00","19.0","","14.5","","75","","31","","13","","24.1","","99.51","","","","","","Clear"
"2011-07-30 05:00","2011","07","30","05:00","19.2","","14.4","","74","","31","","11","","24.1","","99.59","","","","","","Clear"
"2011-07-30 06:00","2011","07","30","06:00","20.1","","14.6","","71","","32","","20","","24.1","","99.60","","","","","","Clear"
"2011-07-30 07:00","2011","07","30","07:00","21.5","","14.9","","66","","34","","19","","24.1","","99.64","","25","","","","Clear"
"2011-07-30 08:00","2011","07","30","08:00","23.2","","15.9","","64","","1","","15","","24.1","","99.70","","28","","","","Clear"
"2011-07-30 09:00","2011","07","30","09:00","24.9","","16.3","","59","","36","","11","","24.1","","99.72","","30","","","","Clear"
"2011-07-30 10:00","2011","07","30","10:00","26.7","","15.3","","50","","4","","7","","24.1","","99.76","","31","","","","Clear"
"2011-07-30 11:00","2011","07","30","11:00","28.1","","15.0","","45","","30","","6","","24.1","","99.75","","32","","","","Clear"
"2011-07-30 12:00","2011","07","30","12:00","29.6","","15.2","","42","","27","","7","","24.1","","99.74","","34","","","","Mainly Clear"
"2011-07-30 13:00","2011","07","30","13:00","29.6","","16.3","","45","","18","","9","","24.1","","99.69","","34","","","","Mainly Clear"
"2011-07-30 14:00","2011","07","30","14:00","29.8","","15.2","","41","","16","","20","","24.1","","99.67","","34","","","","Mainly Clear"
"2011-07-30 15:00","2011","07","30","15:00","29.8","","14.4","","39","","17","","17","","24.1","","99.62","","33","","","","Mainly Clear"
"2011-07-30 16:00","2011","07","30","16:00","30.5","","15.2","","40","","17","","15","","24.1","","99.56","","35","","","","Mainly Clear"
"2011-07-30 17:00","2011","07","30","17:00","29.3","","13.7","","38","","13","","13","","24.1","","99.53","","32","","","","Mainly Clear"
"2011-07-30 18:00","2011","07","30","18:00","27.7","","13.4","","41","","12","","9","","24.1","","99.54","","31","","","","Mainly Clear"
"2011-07-30 19:00","2011","07","30","19:00","27.7","","13.7","","42","","16","","7","","24.1","","99.56","","31","","","","Mostly Cloudy"
"2011-07-30 20:00","2011","07","30","20:00","26.4","","13.8","","46","","29","","4","","24.1","","99.61","","30","","","","Mainly Clear"
"2011-07-30 21:00","2011","07","30","21:00","25.4","","15.7","","55","","35","","9","","24.1","","99.65","","30","","","","Clear"
"2011-07-30 22:00","2011","07","30","22:00","25.1","","15.2","","54","","34","","15","","24.1","","99.66","","29","","","","Clear"
"2011-07-30 23:00","2011","07","30","23:00","22.8","","15.7","","64","","36","","9","","24.1","","99.64","","27","","","","Clear"
"2011-07-31 00:00","2011","07","31","00:00","21.7","","15.6","","68","","31","","7","","24.1","","99.64","","26","","","","Mainly Clear"
"2011-07-31 01:00","2011","07","31","01:00","20.8","","15.3","","71","","28","","9","","24.1","","99.62","","25","","","","Clear"
"2011-07-31 02:00","2011","07","31","02:00","19.7","","14.7","","73","","27","","4","","24.1","","99.59","","","","","","Mainly Clear"
"2011-07-31 03:00","2011","07","31","03:00","20.5","","14.6","","69","","","","0","","24.1","","99.59","","","","","","Mostly Cloudy"
"2011-07-31 04:00","2011","07","31","04:00","21.1","","15.8","","72","","","","0","","24.1","","99.58","","26","","","","Mostly Cloudy"
"2011-07-31 05:00","2011","07","31","05:00","21.2","","16.4","","74","","16","","4","","24.1","","99.61","","26","","","","Mainly Clear"
"2011-07-31 06:00","2011","07","31","06:00","21.5","","16.0","","71","","16","","6","","24.1","","99.62","","26","","","","Mainly Clear"
"2011-07-31 07:00","2011","07","31","07:00","22.5","","17.4","","73","","21","","9","","24.1","","99.65","","28","","","","Cloudy"
"2011-07-31 08:00","2011","07","31","08:00","23.6","","18.4","","73","","27","","13","","24.1","","99.64","","30","","","","Cloudy"
"2011-07-31 09:00","2011","07","31","09:00","22.4","","19.3","","83","","32","","20","","16.1","","99.67","","29","","","","Rain Showers"
"2011-07-31 10:00","2011","07","31","10:00","25.0","","19.6","","72","","28","","13","","24.1","","99.60","","32","","","","Mostly Cloudy"
"2011-07-31 11:00","2011","07","31","11:00","27.2","","18.6","","59","","30","","20","","24.1","","99.59","","34","","","","Mainly Clear"
"2011-07-31 12:00","2011","07","31","12:00","28.6","","18.2","","53","","31","","24","","24.1","","99.61","","35","","","","Mainly Clear"
"2011-07-31 13:00","2011","07","31","13:00","29.8","","19.0","","52","","31","","13","","24.1","","99.55","","37","","","","Mostly Cloudy"
"2011-07-31 14:00","2011","07","31","14:00","30.1","","18.0","","48","","32","","28","","24.1","","99.51","","36","","","","Mainly Clear"
"2011-07-31 15:00","2011","07","31","15:00","31.4","","18.7","","47","","32","","19","","24.1","","99.45","","38","","","","Mainly Clear"
"2011-07-31 16:00","2011","07","31","16:00","31.7","","18.4","","45","","31","","30","","24.1","","99.41","","38","","","","Mainly Clear"
"2011-07-31 17:00","2011","07","31","17:00","30.8","","18.8","","49","","28","","24","","24.1","","99.39","","37","","","","Mainly Clear"
"2011-07-31 18:00","2011","07","31","18:00","31.0","","19.2","","50","","30","","32","","24.1","","99.37","","38","","","","Mainly Clear"
"2011-07-31 19:00","2011","07","31","19:00","30.0","","19.2","","52","","28","","22","","24.1","","99.35","","37","","","","Mainly Clear"
"2011-07-31 20:00","2011","07","31","20:00","28.7","","19.4","","57","","27","","15","","24.1","","99.35","","36","","","","Mainly Clear"
"2011-07-31 21:00","2011","07","31","21:00","26.8","","19.6","","65","","25","","9","","24.1","","99.35","","34","","","","Clear"
"2011-07-31 22:00","2011","07","31","22:00","26.4","","19.8","","67","","25","","11","","24.1","","99.35","","34","","","","Clear"
"2011-07-31 23:00","2011","07","31","23:00","25.5","","19.1","","68","","25","","13","","24.1","","99.37","","32","","","","Clear"
