"Station Name","TORONTO LESTER B. PEARSON INT'L A"
"Province","ONTARIO"
"Latitude","43.68"
"Longitude","-79.63"
"Elevation","173.40"
"Climate Identifier","6158733"
"WMO Identifier","71624"
"TC Identifier","YYZ"
"All times are specified in Local Standard Time (LST). Add 1 hour to adjust for Daylight Saving Time where and when it is observed."

"Legend"
"E","Estimated"
"M","Missing"
"NA","Not Available"

"Date/Time","Year","Month","Day","Time","Temp (°C)","Temp Flag","Dew Point Temp (°C)","Dew Point Temp Flag","Rel Hum (%)","Rel Hum Flag","Wind Dir (10s deg)","Wind Dir Flag","Wind Spd (km/h)","Wind Spd Flag","Visibility (km)","Visibility Flag","Stn Press (kPa)","Stn Press Flag","Hmdx","Hmdx Flag","Wind Chill","Wind Chill Flag","Weather"
"2000-05-01 00:00","2000","05","01","00:00","9.1","","-1.2","","48","","24","","9","","24.1","","99.72","","","","","","Mainly Clear"
"2000-05-01 01:00","2000","05","01","01:00","8.6","","-1.1","","50","","","","0","","24.1","","99.59","","","","","","Mostly Cloudy"
"2000-05-01 02:00","2000","05","01","02:00","8.8","","-2.4","","45","","23","","6","","24.1","","99.49","","","","","","Mainly Clear"
"2000-05-01 03:00","2000","05","01","03:00","8.5","","-2.8","","45","","20","","6","","24.1","","99.42","","","","","","Mostly Cloudy"
"2000-05-01 04:00","2000","05","01","04:00","8.3","","-4.0","","42","","19","","6","","24.1","","99.35","","","","","","Cloudy"
"2000-05-01 05:00","2000","05","01","05:00","8.4","","-3.2","","44","","19","","6","","24.1","","99.35","","","","","","Cloudy"
"2000-05-01 06:00","2000","05","01","06:00","8.7","","-2.4","","46","","15","","7","","24.1","","99.29","","","","","","Cloudy"
"2000-05-01 07:00","2000","05","01","07:00","8.3","","-1.3","","51","","16","","7","","24.1","","99.22","","","","","","Cloudy"
"2000-05-01 08:00","2000","05","01","08:00","8.6","","-0.9","","51","","17","","6","","24.1","","99.12","","","","","","Cloudy"
"2000-05-01 09:00","2000","05","01","09:00","10.2","","0.8","","52","","14","","7","","19.3","","98.99","","","","","","Cloudy"
"2000-05-01 10:00","2000","05","01","10:00","13.8","","3.4","","49","","24","","6","","24.1","","98.92","","","","","","Mostly Cloudy"
"2000-05-01 11:00","2000","05","01","11:00","14.1","","3.5","","49","","23","","4","","19.3","","98.86","","","","","","Rain Showers"
"2000-05-01 12:00","2000","05","01","12:00","12.8","","4.2","","56","","11","","6","","14.5","","98.82","","","","","","Rain Showers"
"2000-05-01 13:00","2000","05","01","13:00","12.1","","6.0","","66","","8","","6","","6.4","","98.82","","","","","","Rain Showers"
"2000-05-01 14:00","2000","05","01","14:00","11.8","","7.6","","75","","27","","4","","6.4","","98.72","","","","","","Rain Showers,Haze"
"2000-05-01 15:00","2000","05","01","15:00","9.8","","7.8","","87","","15","","11","","6.4","","98.69","","","","","","Rain Showers,Fog"
"2000-05-01 16:00","2000","05","01","16:00","9.0","","7.2","","88","","15","","7","","8.0","","98.66","","","","","","Fog"
"2000-05-01 17:00","2000","05","01","17:00","9.2","","7.5","","89","","","","0","","3.2","","98.69","","","","","","Rain,Fog"
"2000-05-01 18:00","2000","05","01","18:00","10.5","","9.3","","92","","","","0","","3.2","","98.69","","","","","","Rain,Fog"
"2000-05-01 19:00","2000","05","01","19:00","10.0","","7.6","","85","","36","","28","","16.1","","98.76","","","","","","Cloudy"
"2000-05-01 20:00","2000","05","01","20:00","8.7","","6.7","","87","","35","","26","","16.1","","98.86","","","","","","Mostly Cloudy"
"2000-05-01 21:00","2000","05","01","21:00","8.3","","5.7","","84","","35","","30","","19.3","","98.92","","","","","","Cloudy"
"2000-05-01 22:00","2000","05","01","22:00","8.0","","5.7","","85","","34","","24","","16.1","","98.99","","","","","","Cloudy"
"2000-05-01 23:00","2000","05","01","23:00","8.2","","5.5","","83","","35","","28","","16.1","","99.02","","","","","","Cloudy"
"2000-05-02 00:00","2000","05","02","00:00","8.1","","5.3","","82","","35","","20","","16.1","","99.09","","","","","","Cloudy"
"2000-05-02 01:00","2000","05","02","01:00","7.8","","4.9","","82","","36","","20","","19.3","","99.12","","","","","","Cloudy"
"2000-05-02 02:00","2000","05","02","02:00","6.9","","4.6","","85","","35","","17","","19.3","","99.19","","","","","","Mainly Clear"
"2000-05-02 03:00","2000","05","02","03:00","7.0","","4.4","","83","","35","","22","","24.1","","99.26","","","","","","Clear"
"2000-05-02 04:00","2000","05","02","04:00","6.6","","4.3","","85","","36","","17","","24.1","","99.35","","","","","","Mainly Clear"
"2000-05-02 05:00","2000","05","02","05:00","7.1","","4.8","","85","","34","","15","","16.1","","99.45","","","","","","Mostly Cloudy"
"2000-05-02 06:00","2000","05","02","06:00","7.6","","5.1","","84","","35","","24","","24.1","","99.55","","","","","","Clear"
"2000-05-02 07:00","2000","05","02","07:00","8.5","","5.1","","79","","36","","28","","24.1","","99.65","","","","","","Mainly Clear"
"2000-05-02 08:00","2000","05","02","08:00","8.7","","4.8","","76","","36","","19","","24.1","","99.75","","","","","","Mainly Clear"
"2000-05-02 09:00","2000","05","02","09:00","9.8","","5.3","","74","","34","","17","","24.1","","99.85","","","","","","Mainly Clear"
"2000-05-02 10:00","2000","05","02","10:00","10.9","","4.8","","66","","35","","15","","24.1","","99.92","","","","","","Mainly Clear"
"2000-05-02 11:00","2000","05","02","11:00","12.2","","1.4","","48","","36","","17","","24.1","","99.95","","","","","","Mainly Clear"
"2000-05-02 12:00","2000","05","02","12:00","13.4","","-0.9","","37","","36","","22","","24.1","","99.99","","","","","","Clear"
"2000-05-02 13:00","2000","05","02","13:00","14.4","","-1.5","","33","","32","","13","","24.1","","99.99","","","","","","Mainly Clear"
"2000-05-02 14:00","2000","05","02","14:00","15.1","","0.7","","37","","28","","9","","24.1","","99.99","","","","","","Mainly Clear"
"2000-05-02 15:00","2000","05","02","15:00","16.0","","1.8","","38","","34","","22","","24.1","","99.95","","","","","","Mainly Clear"
"2000-05-02 16:00","2000","05","02","16:00","15.8","","-0.7","","32","","35","","15","","24.1","","99.95","","","","","","Mostly Cloudy"
"2000-05-02 17:00","2000","05","02","17:00","15.9","","0.8","","36","","1","","17","","24.1","","99.99","","","","","","Mostly Cloudy"
"2000-05-02 18:00","2000","05","02","18:00","14.6","","-0.5","","35","","1","","15","","24.1","","100.05","","","","","","Mostly Cloudy"
"2000-05-02 19:00","2000","05","02","19:00","12.8","","-2.8","","34","","36","","17","","24.1","","100.12","","","","","","Mostly Cloudy"
"2000-05-02 20:00","2000","05","02","20:00","10.7","","-3.6","","36","","36","","9","","24.1","","100.15","","","","","","Mostly Cloudy"
"2000-05-02 21:00","2000","05","02","21:00","10.8","","-5.7","","31","","1","","13","","24.1","","100.19","","","","","","Mostly Cloudy"
"2000-05-02 22:00","2000","05","02","22:00","8.6","","-6.6","","33","","36","","13","","24.1","","100.15","","","","","","Mainly Clear"
"2000-05-02 23:00","2000","05","02","23:00","7.9","","-8.2","","31","","2","","13","","24.1","","100.19","","","","","","Mainly Clear"
"2000-05-03 00:00","2000","05","03","00:00","6.8","","-9.7","","30","","35","","13","","24.1","","100.25","","","","","","Mainly Clear"
"2000-05-03 01:00","2000","05","03","01:00","5.4","","-9.4","","33","","1","","6","","24.1","","100.22","","","","","","Mainly Clear"
"2000-05-03 02:00","2000","05","03","02:00","4.1","","-7.6","","42","","32","","13","","24.1","","100.22","","","","","","Mainly Clear"
"2000-05-03 03:00","2000","05","03","03:00","3.6","","-7.3","","45","","31","","13","","24.1","","100.25","","","","","","Clear"
"2000-05-03 04:00","2000","05","03","04:00","4.2","","-9.0","","38","","32","","7","","24.1","","100.29","","","","","","Clear"
"2000-05-03 05:00","2000","05","03","05:00","4.4","","-8.7","","38","","32","","6","","24.1","","100.29","","","","","","Mainly Clear"
"2000-05-03 06:00","2000","05","03","06:00","4.7","","-7.6","","40","","32","","4","","24.1","","100.32","","","","","","Mainly Clear"
"2000-05-03 07:00","2000","05","03","07:00","7.8","","-6.4","","36","","31","","4","","24.1","","100.39","","","","","","Mainly Clear"
"2000-05-03 08:00","2000","05","03","08:00","10.7","","-5.8","","31","","","","0","","24.1","","100.42","","","","","","Mainly Clear"
"2000-05-03 09:00","2000","05","03","09:00","12.6","","-3.8","","32","","19","","7","","24.1","","100.45","","","","","","Mainly Clear"
"2000-05-03 10:00","2000","05","03","10:00","14.8","","-0.7","","34","","24","","6","","24.1","","100.45","","","","","","Mainly Clear"
"2000-05-03 11:00","2000","05","03","11:00","15.2","","-1.2","","32","","15","","9","","24.1","","100.42","","","","","","Mainly Clear"
"2000-05-03 12:00","2000","05","03","12:00","14.9","","-2.2","","31","","15","","13","","24.1","","100.39","","","","","","Mainly Clear"
"2000-05-03 13:00","2000","05","03","13:00","15.6","","1.2","","38","","12","","15","","19.3","","100.32","","","","","","Clear"
"2000-05-03 14:00","2000","05","03","14:00","16.7","","1.5","","36","","14","","19","","19.3","","100.25","","","","","","Clear"
"2000-05-03 15:00","2000","05","03","15:00","17.6","","-0.4","","29","","15","","15","","19.3","","100.22","","","","","","Mainly Clear"
"2000-05-03 16:00","2000","05","03","16:00","17.2","","-2.2","","27","","13","","17","","19.3","","100.15","","","","","","Mainly Clear"
"2000-05-03 17:00","2000","05","03","17:00","17.7","","-0.7","","29","","16","","15","","24.1","","100.15","","","","","","Mostly Cloudy"
"2000-05-03 18:00","2000","05","03","18:00","16.9","","1.1","","34","","15","","11","","24.1","","100.15","","","","","","Mostly Cloudy"
"2000-05-03 19:00","2000","05","03","19:00","14.9","","0.2","","37","","15","","7","","19.3","","100.09","","","","","","Mostly Cloudy"
"2000-05-03 20:00","2000","05","03","20:00","12.8","","-1.7","","37","","16","","4","","19.3","","100.05","","","","","","Mostly Cloudy"
"2000-05-03 21:00","2000","05","03","21:00","9.8","","0.9","","54","","16","","7","","24.1","","100.09","","","","","","Mostly Cloudy"
"2000-05-03 22:00","2000","05","03","22:00","8.8","","2.9","","66","","","","0","","24.1","","100.09","","","","","","Clear"
"2000-05-03 23:00","2000","05","03","23:00","9.6","","2.9","","63","","17","","4","","24.1","","100.05","","","","","","Clear"
"2000-05-04 00:00","2000","05","04","00:00","9.2","","2.3","","62","","5","","6","","19.3","","100.05","","","","","","Clear"
"2000-05-04 01:00","2000","05","04","01:00","7.6","","1.6","","66","","5","","7","","19.3","","99.99","","","","","","Clear"
"2000-05-04 02:00","2000","05","04","02:00","7.2","","1.3","","66","","33","","13","","16.1","","99.95","","","","","","Clear"
"2000-05-04 03:00","2000","05","04","03:00","6.8","","0.7","","65","","","","0","","16.1","","99.95","","","","","","Clear"
"2000-05-04 04:00","2000","05","04","04:00","7.6","","0.7","","62","","33","","7","","16.1","","99.95","","","","","","Clear"
"2000-05-04 05:00","2000","05","04","05:00","6.9","","0.7","","65","","33","","4","","14.5","","99.92","","","","","","Mostly Cloudy"
"2000-05-04 06:00","2000","05","04","06:00","6.9","","1.6","","69","","","","0","","12.9","","99.89","","","","","","Mostly Cloudy"
"2000-05-04 07:00","2000","05","04","07:00","10.2","","2.9","","60","","22","","6","","11.3","","99.95","","","","","","Mostly Cloudy"
"2000-05-04 08:00","2000","05","04","08:00","12.1","","4.1","","58","","17","","7","","9.7","","99.92","","","","","","Haze"
"2000-05-04 09:00","2000","05","04","09:00","15.8","","5.5","","50","","19","","9","","9.7","","99.89","","","","","","Haze"
"2000-05-04 10:00","2000","05","04","10:00","16.0","","6.8","","54","","15","","15","","11.3","","99.85","","","","","","Cloudy"
"2000-05-04 11:00","2000","05","04","11:00","16.5","","7.2","","54","","16","","13","","8.0","","99.82","","","","","","Haze"
"2000-05-04 12:00","2000","05","04","12:00","17.2","","7.2","","52","","17","","13","","11.3","","99.79","","","","","","Cloudy"
"2000-05-04 13:00","2000","05","04","13:00","17.8","","8.1","","53","","16","","13","","12.9","","99.72","","","","","","Cloudy"
"2000-05-04 14:00","2000","05","04","14:00","18.1","","9.8","","58","","17","","17","","12.9","","99.65","","","","","","Cloudy"
"2000-05-04 15:00","2000","05","04","15:00","21.3","","11.8","","55","","16","","22","","16.1","","99.55","","","","","","Mostly Cloudy"
"2000-05-04 16:00","2000","05","04","16:00","21.2","","13.0","","59","","15","","17","","16.1","","99.52","","","","","","Cloudy"
"2000-05-04 17:00","2000","05","04","17:00","24.9","","15.2","","55","","23","","17","","14.5","","99.49","","29","","","","Mostly Cloudy"
"2000-05-04 18:00","2000","05","04","18:00","23.8","","14.9","","57","","23","","26","","12.9","","99.45","","28","","","","Mostly Cloudy"
"2000-05-04 19:00","2000","05","04","19:00","22.6","","14.6","","61","","22","","28","","16.1","","99.49","","26","","","","Mostly Cloudy"
"2000-05-04 20:00","2000","05","04","20:00","21.1","","14.5","","66","","22","","17","","16.1","","99.55","","25","","","","Mostly Cloudy"
"2000-05-04 21:00","2000","05","04","21:00","20.2","","14.3","","69","","22","","17","","16.1","","99.55","","","","","","Mostly Cloudy"
"2000-05-04 22:00","2000","05","04","22:00","19.8","","14.0","","69","","23","","17","","16.1","","99.59","","","","","","Mainly Clear"
"2000-05-04 23:00","2000","05","04","23:00","19.5","","13.6","","69","","23","","24","","16.1","","99.59","","","","","","Mainly Clear"
"2000-05-05 00:00","2000","05","05","00:00","19.0","","13.4","","70","","23","","20","","16.1","","99.62","","","","","","Mostly Cloudy"
"2000-05-05 01:00","2000","05","05","01:00","18.1","","13.1","","73","","24","","15","","16.1","","99.62","","","","","","Mostly Cloudy"
"2000-05-05 02:00","2000","05","05","02:00","17.0","","12.8","","76","","25","","7","","16.1","","99.65","","","","","","Mostly Cloudy"
"2000-05-05 03:00","2000","05","05","03:00","16.7","","12.8","","78","","26","","9","","16.1","","99.65","","","","","","Mostly Cloudy"
"2000-05-05 04:00","2000","05","05","04:00","17.0","","13.0","","77","","25","","15","","14.5","","99.65","","","","","","Mostly Cloudy"
"2000-05-05 05:00","2000","05","05","05:00","17.1","","13.5","","79","","26","","17","","8.0","","99.69","","","","","","Haze"
"2000-05-05 06:00","2000","05","05","06:00","17.9","","14.0","","78","","27","","13","","6.4","","99.69","","","","","","Haze"
"2000-05-05 07:00","2000","05","05","07:00","18.7","","14.8","","78","","25","","9","","6.4","","99.75","","","","","","Haze"
"2000-05-05 08:00","2000","05","05","08:00","20.3","","15.4","","73","","30","","17","","8.0","","99.75","","25","","","","Haze"
"2000-05-05 09:00","2000","05","05","09:00","22.9","","16.7","","68","","29","","9","","8.0","","99.72","","28","","","","Haze"
"2000-05-05 10:00","2000","05","05","10:00","24.4","","16.8","","63","","27","","20","","11.3","","99.72","","30","","","","Mostly Cloudy"
"2000-05-05 11:00","2000","05","05","11:00","25.5","","16.3","","57","","32","","17","","11.3","","99.72","","30","","","","Mostly Cloudy"
"2000-05-05 12:00","2000","05","05","12:00"
"2000-05-05 13:00","2000","05","05","13:00","27.5","","14.9","","46","","29","","28","","19.3","","99.65","","31","","","","Mostly Cloudy"
"2000-05-05 14:00","2000","05","05","14:00","27.5","","14.8","","46","","29","","32","","19.3","","99.59","","31","","","","Mostly Cloudy"
"2000-05-05 15:00","2000","05","05","15:00","27.5","","14.6","","45","","27","","32","","19.3","","99.55","","31","","","","Mostly Cloudy"
"2000-05-05 16:00","2000","05","05","16:00","27.1","","14.2","","45","","29","","33","","24.1","","99.52","","31","","","","Mostly Cloudy"
"2000-05-05 17:00","2000","05","05","17:00","27.6","","13.6","","42","","26","","28","","24.1","","99.52","","31","","","","Mostly Cloudy"
"2000-05-05 18:00","2000","05","05","18:00","26.0","","13.6","","46","","28","","20","","24.1","","99.52","","29","","","","Mostly Cloudy"
"2000-05-05 19:00","2000","05","05","19:00","25.7","","12.9","","45","","28","","15","","24.1","","99.52","","28","","","","Mostly Cloudy"
"2000-05-05 20:00","2000","05","05","20:00","23.3","","13.1","","53","","28","","7","","24.1","","99.55","","26","","","","Mainly Clear"
"2000-05-05 21:00","2000","05","05","21:00","22.3","","14.8","","63","","24","","15","","24.1","","99.59","","26","","","","Mainly Clear"
"2000-05-05 22:00","2000","05","05","22:00","20.9","","15.1","","69","","25","","11","","14.5","","99.62","","25","","","","Mostly Cloudy"
"2000-05-05 23:00","2000","05","05","23:00","20.4","","15.3","","73","","25","","17","","11.3","","99.62","","25","","","","Mainly Clear"
"2000-05-06 00:00","2000","05","06","00:00","19.0","","15.1","","78","","25","","9","","9.7","","99.62","","","","","","Haze"
"2000-05-06 01:00","2000","05","06","01:00","18.6","","15.1","","80","","25","","9","","8.0","","99.62","","","","","","Haze"
"2000-05-06 02:00","2000","05","06","02:00","17.6","","14.8","","84","","27","","7","","8.0","","99.55","","","","","","Haze"
"2000-05-06 03:00","2000","05","06","03:00","17.5","","14.6","","83","","27","","9","","9.7","","99.59","","","","","","Haze"
"2000-05-06 04:00","2000","05","06","04:00","16.5","","13.9","","85","","27","","11","","9.7","","99.59","","","","","","Haze"
"2000-05-06 05:00","2000","05","06","05:00","17.4","","14.1","","81","","27","","17","","8.0","","99.59","","","","","","Haze"
"2000-05-06 06:00","2000","05","06","06:00","17.3","","14.0","","81","","29","","6","","9.7","","99.69","","","","","","Haze"
"2000-05-06 07:00","2000","05","06","07:00","20.0","","14.7","","72","","27","","7","","12.9","","99.69","","","","","","Mainly Clear"
"2000-05-06 08:00","2000","05","06","08:00","22.3","","15.1","","64","","28","","13","","16.1","","99.72","","26","","","","Mostly Cloudy"
"2000-05-06 09:00","2000","05","06","09:00","25.0","","15.2","","55","","29","","17","","19.3","","99.72","","29","","","","Mostly Cloudy"
"2000-05-06 10:00","2000","05","06","10:00","26.5","","16.4","","54","","28","","20","","20.9","","99.72","","31","","","","Cloudy"
"2000-05-06 11:00","2000","05","06","11:00","27.5","","17.3","","54","","28","","30","","20.9","","99.65","","33","","","","Cloudy"
"2000-05-06 12:00","2000","05","06","12:00","27.5","","16.9","","52","","28","","20","","20.9","","99.62","","33","","","","Cloudy"
"2000-05-06 13:00","2000","05","06","13:00","29.3","","16.6","","46","","25","","28","","24.1","","99.55","","34","","","","Mostly Cloudy"
"2000-05-06 14:00","2000","05","06","14:00","29.3","","15.9","","44","","26","","28","","24.1","","99.52","","34","","","","Mostly Cloudy"
"2000-05-06 15:00","2000","05","06","15:00","30.1","","15.8","","42","","27","","33","","24.1","","99.45","","35","","","","Mainly Clear"
"2000-05-06 16:00","2000","05","06","16:00","29.7","","14.8","","40","","25","","33","","24.1","","99.39","","34","","","","Mainly Clear"
"2000-05-06 17:00","2000","05","06","17:00","28.9","","15.2","","43","","27","","28","","24.1","","99.35","","33","","","","Mainly Clear"
"2000-05-06 18:00","2000","05","06","18:00","27.6","","15.5","","48","","25","","26","","24.1","","99.35","","32","","","","Mainly Clear"
"2000-05-06 19:00","2000","05","06","19:00","26.3","","16.0","","53","","24","","22","","16.1","","99.35","","31","","","","Clear"
"2000-05-06 20:00","2000","05","06","20:00","25.3","","15.7","","55","","24","","28","","14.5","","99.35","","30","","","","Clear"
"2000-05-06 21:00","2000","05","06","21:00","24.1","","15.8","","60","","24","","19","","16.1","","99.35","","29","","","","Clear"
"2000-05-06 22:00","2000","05","06","22:00","23.2","","15.6","","62","","24","","17","","14.5","","99.32","","28","","","","Clear"
"2000-05-06 23:00","2000","05","06","23:00","22.5","","15.3","","64","","24","","17","","14.5","","99.32","","27","","","","Clear"
"2000-05-07 00:00","2000","05","07","00:00","22.2","","15.1","","64","","25","","19","","16.1","","99.29","","26","","","","Mainly Clear"
"2000-05-07 01:00","2000","05","07","01:00","21.9","","14.8","","64","","24","","20","","16.1","","99.26","","26","","","","Clear"
"2000-05-07 02:00","2000","05","07","02:00","21.3","","14.6","","66","","25","","20","","16.1","","99.22","","25","","","","Clear"
"2000-05-07 03:00","2000","05","07","03:00","20.0","","14.4","","70","","25","","19","","12.9","","99.19","","","","","","Clear"
"2000-05-07 04:00","2000","05","07","04:00","19.5","","14.2","","71","","26","","20","","16.1","","99.19","","","","","","Clear"
"2000-05-07 05:00","2000","05","07","05:00","20.4","","14.2","","68","","26","","26","","12.9","","99.19","","","","","","Clear"
"2000-05-07 06:00","2000","05","07","06:00","20.7","","14.4","","67","","26","","20","","16.1","","99.22","","","","","","Mainly Clear"
"2000-05-07 07:00","2000","05","07","07:00","22.1","","15.1","","65","","26","","22","","24.1","","99.22","","26","","","","Mainly Clear"
"2000-05-07 08:00","2000","05","07","08:00","23.6","","15.9","","62","","26","","33","","24.1","","99.16","","28","","","","Mostly Cloudy"
"2000-05-07 09:00","2000","05","07","09:00","24.1","","16.4","","62","","27","","33","","24.1","","99.19","","29","","","","Mainly Clear"
"2000-05-07 10:00","2000","05","07","10:00","24.7","","17.2","","63","","28","","32","","24.1","","99.19","","30","","","","Mostly Cloudy"
"2000-05-07 11:00","2000","05","07","11:00","25.4","","17.1","","60","","25","","35","","24.1","","99.16","","31","","","","Mostly Cloudy"
"2000-05-07 12:00","2000","05","07","12:00","27.5","","16.7","","52","","26","","39","","24.1","","99.12","","33","","","","Mostly Cloudy"
"2000-05-07 13:00","2000","05","07","13:00","28.1","","15.4","","46","","28","","46","","19.3","","99.06","","32","","","","Mostly Cloudy"
"2000-05-07 14:00","2000","05","07","14:00","28.6","","16.3","","47","","26","","35","","24.1","","99.02","","33","","","","Mainly Clear"
"2000-05-07 15:00","2000","05","07","15:00","28.7","","15.4","","44","","26","","41","","24.1","","98.96","","33","","","","Mainly Clear"
"2000-05-07 16:00","2000","05","07","16:00","29.0","","15.2","","43","","26","","41","","19.3","","98.96","","33","","","","Mostly Cloudy"
"2000-05-07 17:00","2000","05","07","17:00","28.3","","15.7","","46","","27","","33","","19.3","","98.96","","33","","","","Mostly Cloudy"
"2000-05-07 18:00","2000","05","07","18:00"
"2000-05-07 19:00","2000","05","07","19:00","25.9","","16.1","","55","","24","","24","","24.1","","98.96","","31","","","","Mostly Cloudy"
"2000-05-07 20:00","2000","05","07","20:00","25.1","","16.4","","59","","25","","19","","19.3","","99.02","","30","","","","Mostly Cloudy"
"2000-05-07 21:00","2000","05","07","21:00","24.2","","16.6","","63","","25","","13","","16.1","","99.02","","29","","","","Mostly Cloudy"
"2000-05-07 22:00","2000","05","07","22:00","24.3","","16.5","","62","","24","","24","","16.1","","98.99","","29","","","","Cloudy"
"2000-05-07 23:00","2000","05","07","23:00","21.1","","17.2","","78","","25","","9","","12.9","","98.99","","27","","","","Rain Showers"
"2000-05-08 00:00","2000","05","08","00:00","21.2","","17.6","","80","","27","","9","","16.1","","98.96","","27","","","","Cloudy"
"2000-05-08 01:00","2000","05","08","01:00","20.9","","17.8","","82","","16","","7","","16.1","","98.92","","27","","","","Cloudy"
"2000-05-08 02:00","2000","05","08","02:00","20.5","","17.6","","83","","15","","6","","16.1","","98.92","","26","","","","Cloudy"
"2000-05-08 03:00","2000","05","08","03:00","19.2","","16.8","","86","","16","","4","","16.1","","98.89","","","","","","Mostly Cloudy"
"2000-05-08 04:00","2000","05","08","04:00","18.6","","15.8","","84","","20","","9","","16.1","","98.92","","","","","","Mainly Clear"
"2000-05-08 05:00","2000","05","08","05:00","19.1","","15.8","","81","","16","","4","","11.3","","98.92","","","","","","Mostly Cloudy"
"2000-05-08 06:00","2000","05","08","06:00","19.2","","15.9","","81","","17","","9","","8.0","","98.89","","","","","","Haze"
"2000-05-08 07:00","2000","05","08","07:00","20.3","","16.2","","77","","23","","11","","8.0","","98.96","","25","","","","Haze"
"2000-05-08 08:00","2000","05","08","08:00","20.2","","16.2","","78","","22","","11","","8.0","","98.92","","25","","","","Haze"
"2000-05-08 09:00","2000","05","08","09:00","19.9","","16.3","","80","","23","","20","","8.0","","98.92","","","","","","Haze"
"2000-05-08 10:00","2000","05","08","10:00","21.4","","17.2","","77","","24","","20","","9.7","","98.89","","27","","","","Haze"
"2000-05-08 11:00","2000","05","08","11:00","24.4","","18.6","","70","","23","","19","","12.9","","98.82","","31","","","","Cloudy"
"2000-05-08 12:00","2000","05","08","12:00","25.2","","18.7","","67","","23","","22","","12.9","","98.76","","32","","","","Cloudy"
"2000-05-08 13:00","2000","05","08","13:00","24.9","","18.3","","67","","23","","28","","12.9","","98.76","","31","","","","Cloudy"
"2000-05-08 14:00","2000","05","08","14:00","25.8","","18.2","","63","","22","","22","","12.9","","98.66","","32","","","","Mostly Cloudy"
"2000-05-08 15:00","2000","05","08","15:00","26.1","","18.3","","62","","21","","28","","11.3","","98.52","","32","","","","Mostly Cloudy"
"2000-05-08 16:00","2000","05","08","16:00","25.1","","18.1","","65","","18","","20","","12.9","","98.46","","31","","","","Mostly Cloudy"
"2000-05-08 17:00","2000","05","08","17:00"
"2000-05-08 18:00","2000","05","08","18:00","26.3","","18.3","","61","","22","","19","","14.5","","98.36","","33","","","","Mostly Cloudy"
"2000-05-08 19:00","2000","05","08","19:00","25.9","","18.3","","63","","21","","19","","14.5","","98.39","","32","","","","Mostly Cloudy"
"2000-05-08 20:00","2000","05","08","20:00","25.3","","18.2","","65","","21","","15","","14.5","","98.32","","31","","","","Mostly Cloudy"
"2000-05-08 21:00","2000","05","08","21:00","25.2","","18.2","","65","","21","","26","","16.1","","98.32","","31","","","","Mostly Cloudy"
"2000-05-08 22:00","2000","05","08","22:00","24.4","","18.0","","68","","22","","17","","16.1","","98.26","","30","","","","Mainly Clear"
"2000-05-08 23:00","2000","05","08","23:00","24.2","","17.8","","67","","22","","20","","16.1","","98.12","","30","","","","Mainly Clear"
"2000-05-09 00:00","2000","05","09","00:00","23.9","","17.6","","68","","23","","33","","16.1","","98.06","","30","","","","Mainly Clear"
"2000-05-09 01:00","2000","05","09","01:00","23.6","","17.4","","68","","23","","24","","14.5","","98.06","","29","","","","Mainly Clear"
"2000-05-09 02:00","2000","05","09","02:00","23.4","","17.1","","68","","24","","28","","14.5","","98.06","","29","","","","Mainly Clear"
"2000-05-09 03:00","2000","05","09","03:00","22.8","","17.0","","70","","22","","24","","14.5","","97.99","","28","","","","Mainly Clear"
"2000-05-09 04:00","2000","05","09","04:00","22.5","","17.2","","72","","26","","26","","12.9","","98.09","","28","","","","Cloudy"
"2000-05-09 05:00","2000","05","09","05:00","21.0","","16.5","","75","","27","","37","","16.1","","98.12","","26","","","","Thunderstorms,Rain Showers"
"2000-05-09 06:00","2000","05","09","06:00","20.2","","16.9","","81","","26","","41","","14.5","","98.19","","25","","","","Cloudy"
"2000-05-09 07:00","2000","05","09","07:00","19.8","","17.8","","88","","4","","6","","9.7","","97.92","","","","","","Fog"
"2000-05-09 08:00","2000","05","09","08:00","19.8","","17.2","","85","","23","","19","","11.3","","98.02","","","","","","Cloudy"
"2000-05-09 09:00","2000","05","09","09:00","21.2","","18.0","","82","","25","","35","","16.1","","98.12","","27","","","","Mostly Cloudy"
"2000-05-09 10:00","2000","05","09","10:00","23.0","","17.7","","72","","26","","33","","19.3","","98.22","","29","","","","Mostly Cloudy"
"2000-05-09 11:00","2000","05","09","11:00","23.0","","17.2","","70","","26","","35","","19.3","","98.26","","28","","","","Cloudy"
"2000-05-09 12:00","2000","05","09","12:00","23.7","","17.3","","67","","25","","33","","19.3","","98.19","","29","","","","Cloudy"
"2000-05-09 13:00","2000","05","09","13:00","25.0","","17.2","","62","","27","","35","","24.1","","98.26","","30","","","","Cloudy"
"2000-05-09 14:00","2000","05","09","14:00","25.4","","17.7","","62","","28","","33","","16.1","","98.19","","31","","","","Mostly Cloudy"
"2000-05-09 15:00","2000","05","09","15:00","24.4","","17.4","","65","","29","","30","","16.1","","98.29","","30","","","","Cloudy"
"2000-05-09 16:00","2000","05","09","16:00","24.4","","17.0","","63","","29","","28","","16.1","","98.29","","30","","","","Cloudy"
"2000-05-09 17:00","2000","05","09","17:00","23.5","","17.0","","67","","29","","24","","19.3","","98.32","","29","","","","Mostly Cloudy"
"2000-05-09 18:00","2000","05","09","18:00","22.4","","16.7","","70","","29","","13","","16.1","","98.26","","27","","","","Mostly Cloudy"
"2000-05-09 19:00","2000","05","09","19:00","21.8","","16.1","","70","","34","","17","","19.3","","98.29","","26","","","","Cloudy"
"2000-05-09 20:00","2000","05","09","20:00","19.5","","14.6","","73","","36","","19","","19.3","","98.29","","","","","","Cloudy"
"2000-05-09 21:00","2000","05","09","21:00","17.8","","13.4","","75","","36","","15","","16.1","","98.26","","","","","","Cloudy"
"2000-05-09 22:00","2000","05","09","22:00","17.2","","13.7","","80","","9","","6","","12.9","","98.29","","","","","","Rain Showers"
"2000-05-09 23:00","2000","05","09","23:00","16.1","","13.3","","83","","4","","11","","16.1","","98.19","","","","","","Thunderstorms,Rain Showers"
"2000-05-10 00:00","2000","05","10","00:00","14.0","","12.3","","89","","34","","7","","16.1","","98.29","","","","","","Thunderstorms,Rain Showers"
"2000-05-10 01:00","2000","05","10","01:00","13.3","","11.8","","91","","36","","24","","11.3","","98.32","","","","","","Rain Showers"
"2000-05-10 02:00","2000","05","10","02:00","13.2","","11.6","","90","","3","","6","","16.1","","98.26","","","","","","Rain Showers"
"2000-05-10 03:00","2000","05","10","03:00","13.6","","12.2","","91","","5","","6","","16.1","","98.22","","","","","","Rain Showers"
"2000-05-10 04:00","2000","05","10","04:00","13.9","","12.8","","93","","15","","9","","11.3","","98.12","","","","","","Cloudy"
"2000-05-10 05:00","2000","05","10","05:00","13.9","","13.3","","96","","13","","19","","0.6","","98.12","","","","","","Rain Showers,Fog"
"2000-05-10 06:00","2000","05","10","06:00","13.9","","13.3","","96","","18","","9","","1.6","","98.16","","","","","","Fog"
"2000-05-10 07:00","2000","05","10","07:00","14.3","","13.5","","95","","16","","15","","4.8","","98.09","","","","","","Rain Showers,Fog"
"2000-05-10 08:00","2000","05","10","08:00","15.2","","14.2","","94","","16","","19","","9.7","","97.99","","","","","","Rain Showers,Fog"
"2000-05-10 09:00","2000","05","10","09:00","16.0","","14.7","","92","","18","","22","","8.0","","98.06","","","","","","Rain Showers,Fog"
"2000-05-10 10:00","2000","05","10","10:00","16.3","","14.4","","89","","21","","13","","19.3","","97.92","","","","","","Cloudy"
"2000-05-10 11:00","2000","05","10","11:00","16.9","","14.8","","87","","20","","17","","19.3","","97.92","","","","","","Rain Showers"
"2000-05-10 12:00","2000","05","10","12:00","19.3","","15.3","","78","","23","","26","","24.1","","97.89","","","","","","Mostly Cloudy"
"2000-05-10 13:00","2000","05","10","13:00","19.9","","13.5","","67","","24","","22","","24.1","","97.86","","","","","","Mostly Cloudy"
"2000-05-10 14:00","2000","05","10","14:00","15.1","","12.6","","85","","36","","26","","24.1","","97.96","","","","","","Mostly Cloudy"
"2000-05-10 15:00","2000","05","10","15:00","13.8","","10.1","","78","","32","","43","","24.1","","98.09","","","","","","Cloudy"
"2000-05-10 16:00","2000","05","10","16:00","12.6","","8.5","","76","","33","","39","","24.1","","98.29","","","","","","Cloudy"
"2000-05-10 17:00","2000","05","10","17:00","12.1","","9.3","","83","","32","","39","","11.3","","98.49","","","","","","Rain Showers"
"2000-05-10 18:00","2000","05","10","18:00","12.8","","8.3","","74","","32","","43","","24.1","","98.56","","","","","","Mostly Cloudy"
"2000-05-10 19:00","2000","05","10","19:00","12.9","","7.9","","72","","32","","33","","24.1","","98.66","","","","","","Mostly Cloudy"
"2000-05-10 20:00","2000","05","10","20:00","11.8","","7.3","","74","","31","","24","","24.1","","98.76","","","","","","Mainly Clear"
"2000-05-10 21:00","2000","05","10","21:00","10.6","","7.1","","79","","28","","20","","24.1","","98.86","","","","","","Clear"
"2000-05-10 22:00","2000","05","10","22:00","9.7","","6.4","","80","","28","","17","","24.1","","98.92","","","","","","Clear"
"2000-05-10 23:00","2000","05","10","23:00","9.6","","5.7","","77","","28","","24","","24.1","","99.02","","","","","","Mainly Clear"
"2000-05-11 00:00","2000","05","11","00:00","9.3","","4.9","","74","","30","","22","","24.1","","99.06","","","","","","Mainly Clear"
"2000-05-11 01:00","2000","05","11","01:00","8.7","","4.4","","74","","30","","17","","24.1","","99.06","","","","","","Mainly Clear"
"2000-05-11 02:00","2000","05","11","02:00","8.6","","4.3","","74","","31","","13","","24.1","","99.09","","","","","","Mostly Cloudy"
"2000-05-11 03:00","2000","05","11","03:00","8.3","","4.2","","75","","32","","7","","24.1","","99.16","","","","","","Mostly Cloudy"
"2000-05-11 04:00","2000","05","11","04:00","8.5","","4.2","","74","","","","0","","24.1","","99.19","","","","","","Mostly Cloudy"
"2000-05-11 05:00","2000","05","11","05:00","6.7","","3.9","","82","","27","","9","","24.1","","99.26","","","","","","Mostly Cloudy"
"2000-05-11 06:00","2000","05","11","06:00","7.5","","4.2","","80","","27","","9","","24.1","","99.32","","","","","","Mainly Clear"
"2000-05-11 07:00","2000","05","11","07:00","9.8","","5.9","","77","","28","","7","","24.1","","99.35","","","","","","Clear"
"2000-05-11 08:00","2000","05","11","08:00","12.0","","6.3","","68","","27","","7","","24.1","","99.35","","","","","","Mainly Clear"
"2000-05-11 09:00","2000","05","11","09:00","13.7","","7.2","","65","","","","0","","24.1","","99.35","","","","","","Mostly Cloudy"
"2000-05-11 10:00","2000","05","11","10:00","16.2","","6.8","","54","","29","","6","","24.1","","99.32","","","","","","Mostly Cloudy"
"2000-05-11 11:00","2000","05","11","11:00","16.5","","5.3","","47","","","","0","","24.1","","99.32","","","","","","Mostly Cloudy"
"2000-05-11 12:00","2000","05","11","12:00","16.5","","8.4","","59","","15","","15","","24.1","","99.26","","","","","","Mostly Cloudy"
"2000-05-11 13:00","2000","05","11","13:00","17.7","","7.3","","50","","16","","15","","24.1","","99.16","","","","","","Mostly Cloudy"
"2000-05-11 14:00","2000","05","11","14:00","17.7","","6.1","","46","","17","","17","","24.1","","99.16","","","","","","Mostly Cloudy"
"2000-05-11 15:00","2000","05","11","15:00","17.0","","6.4","","50","","16","","13","","24.1","","99.16","","","","","","Cloudy"
"2000-05-11 16:00","2000","05","11","16:00","15.9","","6.2","","52","","20","","9","","24.1","","99.16","","","","","","Rain Showers"
"2000-05-11 17:00","2000","05","11","17:00","14.6","","9.9","","73","","22","","11","","19.3","","99.26","","","","","","Rain Showers"
"2000-05-11 18:00","2000","05","11","18:00","14.6","","10.5","","76","","16","","11","","19.3","","99.09","","","","","","Rain"
"2000-05-11 19:00","2000","05","11","19:00","13.5","","10.1","","80","","12","","6","","16.1","","98.96","","","","","","Rain"
"2000-05-11 20:00","2000","05","11","20:00","12.7","","8.1","","74","","11","","7","","24.1","","98.92","","","","","","Rain Showers"
"2000-05-11 21:00","2000","05","11","21:00","12.7","","8.4","","75","","8","","9","","19.3","","98.89","","","","","","Cloudy"
"2000-05-11 22:00","2000","05","11","22:00","12.3","","9.9","","85","","3","","6","","19.3","","99.02","","","","","","Rain Showers"
"2000-05-11 23:00","2000","05","11","23:00","12.0","","9.7","","86","","9","","11","","19.3","","98.89","","","","","","Cloudy"
"2000-05-12 00:00","2000","05","12","00:00","11.5","","9.6","","88","","10","","17","","19.3","","98.82","","","","","","Rain Showers"
"2000-05-12 01:00","2000","05","12","01:00","11.2","","9.7","","90","","10","","20","","19.3","","98.66","","","","","","Rain Showers"
"2000-05-12 02:00","2000","05","12","02:00","10.7","","9.2","","90","","10","","28","","9.7","","98.56","","","","","","Rain Showers"
"2000-05-12 03:00","2000","05","12","03:00","10.4","","9.1","","92","","9","","22","","9.7","","98.59","","","","","","Rain Showers"
"2000-05-12 04:00","2000","05","12","04:00","10.7","","9.3","","91","","10","","24","","9.7","","98.49","","","","","","Fog"
"2000-05-12 05:00","2000","05","12","05:00","10.9","","9.2","","89","","9","","22","","19.3","","98.52","","","","","","Cloudy"
"2000-05-12 06:00","2000","05","12","06:00","11.2","","9.2","","87","","9","","20","","19.3","","98.49","","","","","","Cloudy"
"2000-05-12 07:00","2000","05","12","07:00","11.3","","9.4","","88","","10","","19","","16.1","","98.49","","","","","","Rain Showers"
"2000-05-12 08:00","2000","05","12","08:00","11.2","","9.5","","89","","9","","28","","16.1","","98.22","","","","","","Cloudy"
"2000-05-12 09:00","2000","05","12","09:00","11.4","","9.5","","88","","9","","17","","16.1","","98.32","","","","","","Cloudy"
"2000-05-12 10:00","2000","05","12","10:00","10.9","","9.8","","93","","3","","17","","1.6","","98.49","","","","","","Thunderstorms,Heavy Rain Showers"
"2000-05-12 11:00","2000","05","12","11:00","13.1","","12.1","","94","","8","","11","","11.3","","98.39","","","","","","Mostly Cloudy"
"2000-05-12 12:00","2000","05","12","12:00","15.4","","13.1","","86","","17","","11","","12.9","","98.39","","","","","","Mostly Cloudy"
"2000-05-12 13:00","2000","05","12","13:00","16.5","","13.2","","81","","15","","9","","19.3","","98.32","","","","","","Mostly Cloudy"
"2000-05-12 14:00","2000","05","12","14:00","16.8","","13.5","","81","","16","","17","","16.1","","98.36","","","","","","Mainly Clear"
"2000-05-12 15:00","2000","05","12","15:00","15.3","","12.6","","84","","13","","15","","12.9","","98.42","","","","","","Mainly Clear"
"2000-05-12 16:00","2000","05","12","16:00","17.3","","13.5","","78","","13","","11","","11.3","","98.36","","","","","","Clear"
"2000-05-12 17:00","2000","05","12","17:00","17.8","","13.5","","76","","9","","4","","12.9","","98.29","","","","","","Mostly Cloudy"
"2000-05-12 18:00","2000","05","12","18:00","16.3","","12.8","","80","","12","","11","","6.4","","98.29","","","","","","Haze"
"2000-05-12 19:00","2000","05","12","19:00","15.5","","12.3","","81","","8","","20","","11.3","","98.36","","","","","","Cloudy"
"2000-05-12 20:00","2000","05","12","20:00","13.7","","12.4","","92","","9","","17","","6.4","","98.19","","","","","","Thunderstorms,Rain Showers,Fog"
"2000-05-12 21:00","2000","05","12","21:00","13.7","","12.9","","95","","6","","20","","4.8","","98.29","","","","","","Thunderstorms,Rain Showers,Fog"
"2000-05-12 22:00","2000","05","12","22:00","14.9","","14.2","","96","","12","","26","","4.8","","98.19","","","","","","Thunderstorms,Heavy Rain Showers"
"2000-05-12 23:00","2000","05","12","23:00","15.3","","14.9","","97","","","","0","","4.8","","98.26","","","","","","Thunderstorms,Heavy Rain Showers"
"2000-05-13 00:00","2000","05","13","00:00","16.1","","15.3","","95","","13","","15","","8.0","","98.26","","","","","","Thunderstorms,Rain Showers"
"2000-05-13 01:00","2000","05","13","01:00","15.5","","14.7","","95","","14","","17","","4.8","","98.16","","","","","","Rain,Fog"
"2000-05-13 02:00","2000","05","13","02:00","14.6","","14.0","","96","","13","","11","","1.0","","98.12","","","","","","Fog"
"2000-05-13 03:00","2000","05","13","03:00","13.7","","13.1","","96","","18","","7","","0.4","","98.09","","","","","","Fog"
"2000-05-13 04:00","2000","05","13","04:00","14.0","","13.7","","98","","15","","6","","3.2","","98.06","","","","","","Fog"
"2000-05-13 05:00","2000","05","13","05:00","14.2","","13.7","","97","","17","","11","","0.6","","98.02","","","","","","Fog"
"2000-05-13 06:00","2000","05","13","06:00","14.2","","13.8","","97","","19","","4","","0.4","","98.02","","","","","","Fog"
"2000-05-13 07:00","2000","05","13","07:00","16.3","","15.5","","95","","20","","6","","4.0","","98.06","","","","","","Fog"
"2000-05-13 08:00","2000","05","13","08:00","19.4","","17.8","","90","","24","","24","","4.8","","98.09","","","","","","Fog"
"2000-05-13 09:00","2000","05","13","09:00","18.9","","16.6","","87","","27","","24","","17.7","","98.16","","","","","","Mostly Cloudy"
"2000-05-13 10:00","2000","05","13","10:00","18.4","","15.6","","84","","27","","26","","24.1","","98.22","","","","","","Cloudy"
"2000-05-13 11:00","2000","05","13","11:00","17.3","","14.0","","81","","29","","30","","24.1","","98.32","","","","","","Cloudy"
"2000-05-13 12:00","2000","05","13","12:00","17.8","","13.6","","76","","27","","28","","24.1","","98.36","","","","","","Cloudy"
"2000-05-13 13:00","2000","05","13","13:00","18.8","","12.3","","66","","28","","26","","24.1","","98.39","","","","","","Cloudy"
"2000-05-13 14:00","2000","05","13","14:00","20.2","","9.4","","50","","30","","28","","24.1","","98.42","","","","","","Mostly Cloudy"
"2000-05-13 15:00","2000","05","13","15:00","20.2","","7.1","","43","","27","","56","","24.1","","98.49","","","","","","Mainly Clear"
"2000-05-13 16:00","2000","05","13","16:00","20.9","","9.2","","47","","27","","39","","24.1","","98.42","","","","","","Mostly Cloudy"
"2000-05-13 17:00","2000","05","13","17:00","19.3","","7.2","","45","","29","","44","","24.1","","98.49","","","","","","Mainly Clear"
"2000-05-13 18:00","2000","05","13","18:00","17.0","","4.3","","43","","28","","41","","24.1","","98.62","","","","","","Clear"
"2000-05-13 19:00","2000","05","13","19:00","14.0","","5.2","","55","","30","","43","","24.1","","98.76","","","","","","Clear"
"2000-05-13 20:00","2000","05","13","20:00","12.3","","3.8","","56","","31","","39","","24.1","","98.86","","","","","","Mainly Clear"
"2000-05-13 21:00","2000","05","13","21:00","11.6","","4.3","","61","","30","","24","","24.1","","98.96","","","","","","Mostly Cloudy"
"2000-05-13 22:00","2000","05","13","22:00","11.1","","3.5","","59","","29","","24","","24.1","","99.09","","","","","","Mainly Clear"
"2000-05-13 23:00","2000","05","13","23:00","11.1","","4.3","","63","","29","","20","","24.1","","99.16","","","","","","Mostly Cloudy"
"2000-05-14 00:00","2000","05","14","00:00","10.8","","4.7","","66","","27","","17","","24.1","","99.22","","","","","","Cloudy"
"2000-05-14 01:00","2000","05","14","01:00","10.7","","4.9","","67","","26","","20","","24.1","","99.22","","","","","","Mostly Cloudy"
"2000-05-14 02:00","2000","05","14","02:00","10.5","","4.7","","67","","26","","28","","24.1","","99.22","","","","","","Mostly Cloudy"
"2000-05-14 03:00","2000","05","14","03:00","10.1","","3.8","","65","","26","","26","","24.1","","99.22","","","","","","Mostly Cloudy"
"2000-05-14 04:00","2000","05","14","04:00","8.9","","2.9","","66","","27","","28","","24.1","","99.22","","","","","","Mainly Clear"
"2000-05-14 05:00","2000","05","14","05:00","7.9","","2.9","","71","","25","","20","","24.1","","99.26","","","","","","Mainly Clear"
"2000-05-14 06:00","2000","05","14","06:00","8.6","","2.9","","67","","25","","22","","24.1","","99.26","","","","","","Mainly Clear"
"2000-05-14 07:00","2000","05","14","07:00","9.6","","3.2","","64","","25","","20","","24.1","","99.29","","","","","","Clear"
"2000-05-14 08:00","2000","05","14","08:00","11.0","","3.3","","59","","26","","35","","24.1","","99.35","","","","","","Mostly Cloudy"
"2000-05-14 09:00","2000","05","14","09:00","10.5","","1.8","","55","","26","","39","","24.1","","99.35","","","","","","Mostly Cloudy"
"2000-05-14 10:00","2000","05","14","10:00","10.9","","2.3","","55","","27","","33","","24.1","","99.35","","","","","","Mostly Cloudy"
"2000-05-14 11:00","2000","05","14","11:00","10.3","","1.1","","53","","27","","39","","24.1","","99.39","","","","","","Cloudy"
"2000-05-14 12:00","2000","05","14","12:00","9.7","","1.7","","57","","28","","41","","24.1","","99.45","","","","","","Cloudy"
"2000-05-14 13:00","2000","05","14","13:00","10.6","","2.2","","56","","27","","30","","24.1","","99.49","","","","","","Mostly Cloudy"
"2000-05-14 14:00","2000","05","14","14:00","11.1","","1.4","","51","","27","","37","","24.1","","99.52","","","","","","Mostly Cloudy"
"2000-05-14 15:00","2000","05","14","15:00","12.2","","2.3","","51","","27","","35","","24.1","","99.55","","","","","","Mostly Cloudy"
"2000-05-14 16:00","2000","05","14","16:00","10.8","","0.5","","49","","27","","44","","24.1","","99.55","","","","","","Mostly Cloudy"
"2000-05-14 17:00","2000","05","14","17:00","11.1","","1.1","","50","","29","","32","","24.1","","99.59","","","","","","Mostly Cloudy"
"2000-05-14 18:00","2000","05","14","18:00","10.6","","0.4","","49","","29","","26","","24.1","","99.62","","","","","","Mainly Clear"
"2000-05-14 19:00","2000","05","14","19:00","10.1","","0.4","","51","","29","","24","","24.1","","99.62","","","","","","Mainly Clear"
"2000-05-14 20:00","2000","05","14","20:00","8.3","","1.2","","61","","25","","13","","24.1","","99.65","","","","","","Mainly Clear"
"2000-05-14 21:00","2000","05","14","21:00","8.6","","1.6","","61","","25","","11","","24.1","","99.72","","","","","","Mostly Cloudy"
"2000-05-14 22:00","2000","05","14","22:00","8.3","","1.7","","63","","28","","13","","24.1","","99.75","","","","","","Mostly Cloudy"
"2000-05-14 23:00","2000","05","14","23:00","6.5","","1.3","","69","","27","","13","","24.1","","99.72","","","","","","Mainly Clear"
"2000-05-15 00:00","2000","05","15","00:00","5.9","","1.4","","73","","26","","11","","24.1","","99.75","","","","","","Mostly Cloudy"
"2000-05-15 01:00","2000","05","15","01:00","6.9","","2.2","","72","","27","","11","","24.1","","99.75","","","","","","Mostly Cloudy"
"2000-05-15 02:00","2000","05","15","02:00","6.0","","2.0","","75","","26","","11","","24.1","","99.72","","","","","","Mostly Cloudy"
"2000-05-15 03:00","2000","05","15","03:00","6.3","","1.9","","73","","25","","13","","24.1","","99.72","","","","","","Mostly Cloudy"
"2000-05-15 04:00","2000","05","15","04:00","6.0","","1.9","","75","","26","","20","","24.1","","99.75","","","","","","Mostly Cloudy"
"2000-05-15 05:00","2000","05","15","05:00","5.4","","1.5","","76","","27","","11","","24.1","","99.79","","","","","","Mainly Clear"
"2000-05-15 06:00","2000","05","15","06:00","6.3","","2.1","","74","","30","","13","","24.1","","99.85","","","","","","Clear"
"2000-05-15 07:00","2000","05","15","07:00","7.9","","2.9","","71","","29","","17","","24.1","","99.85","","","","","","Clear"
"2000-05-15 08:00","2000","05","15","08:00","9.7","","-0.3","","50","","31","","17","","24.1","","99.89","","","","","","Clear"
"2000-05-15 09:00","2000","05","15","09:00","11.4","","-0.1","","45","","30","","17","","24.1","","99.89","","","","","","Clear"
"2000-05-15 10:00","2000","05","15","10:00","12.5","","-0.4","","41","","28","","15","","24.1","","99.89","","","","","","Clear"
"2000-05-15 11:00","2000","05","15","11:00","13.2","","0.4","","41","","27","","24","","24.1","","99.85","","","","","","Mainly Clear"
"2000-05-15 12:00","2000","05","15","12:00","13.4","","0.0","","40","","29","","26","","24.1","","99.79","","","","","","Mostly Cloudy"
"2000-05-15 13:00","2000","05","15","13:00","13.8","","0.8","","41","","28","","26","","24.1","","99.82","","","","","","Mainly Clear"
"2000-05-15 14:00","2000","05","15","14:00","14.0","","1.0","","41","","27","","30","","24.1","","99.79","","","","","","Mostly Cloudy"
"2000-05-15 15:00","2000","05","15","15:00","13.8","","0.6","","40","","28","","37","","24.1","","99.75","","","","","","Mostly Cloudy"
"2000-05-15 16:00","2000","05","15","16:00","14.6","","0.5","","38","","30","","30","","24.1","","99.75","","","","","","Mainly Clear"
"2000-05-15 17:00","2000","05","15","17:00","14.2","","0.2","","38","","28","","33","","24.1","","99.75","","","","","","Mainly Clear"
"2000-05-15 18:00","2000","05","15","18:00","13.8","","-0.3","","38","","31","","32","","24.1","","99.79","","","","","","Mainly Clear"
"2000-05-15 19:00","2000","05","15","19:00","13.0","","-2.1","","35","","30","","24","","24.1","","99.82","","","","","","Clear"
"2000-05-15 20:00","2000","05","15","20:00","10.0","","-0.4","","48","","27","","13","","24.1","","99.85","","","","","","Clear"
"2000-05-15 21:00","2000","05","15","21:00","10.2","","-0.2","","48","","27","","6","","24.1","","99.92","","","","","","Clear"
"2000-05-15 22:00","2000","05","15","22:00","10.4","","-0.9","","45","","26","","4","","24.1","","99.89","","","","","","Clear"
"2000-05-15 23:00","2000","05","15","23:00","9.5","","-0.1","","51","","26","","6","","24.1","","99.89","","","","","","Clear"
"2000-05-16 00:00","2000","05","16","00:00","7.0","","0.7","","64","","26","","7","","24.1","","99.89","","","","","","Clear"
"2000-05-16 01:00","2000","05","16","01:00","7.0","","0.4","","63","","26","","6","","24.1","","99.85","","","","","","Clear"
"2000-05-16 02:00","2000","05","16","02:00","7.2","","0.0","","60","","26","","7","","24.1","","99.85","","","","","","Clear"
"2000-05-16 03:00","2000","05","16","03:00","6.6","","-0.1","","62","","","","0","","24.1","","99.79","","","","","","Mostly Cloudy"
"2000-05-16 04:00","2000","05","16","04:00","6.2","","0.0","","64","","26","","4","","24.1","","99.85","","","","","","Clear"
"2000-05-16 05:00","2000","05","16","05:00","6.2","","-0.1","","64","","","","0","","24.1","","99.85","","","","","","Mainly Clear"
"2000-05-16 06:00","2000","05","16","06:00","7.1","","1.4","","67","","","","0","","24.1","","99.82","","","","","","Mostly Cloudy"
"2000-05-16 07:00","2000","05","16","07:00","8.3","","2.0","","64","","15","","7","","19.3","","99.85","","","","","","Mostly Cloudy"
"2000-05-16 08:00","2000","05","16","08:00","10.0","","2.7","","60","","18","","4","","19.3","","99.85","","","","","","Cloudy"
"2000-05-16 09:00","2000","05","16","09:00","11.4","","4.1","","61","","27","","11","","24.1","","99.92","","","","","","Cloudy"
"2000-05-16 10:00","2000","05","16","10:00","13.4","","2.9","","49","","23","","9","","24.1","","99.89","","","","","","Cloudy"
"2000-05-16 11:00","2000","05","16","11:00","14.2","","3.8","","50","","26","","19","","24.1","","99.85","","","","","","Cloudy"
"2000-05-16 12:00","2000","05","16","12:00","13.9","","4.3","","52","","27","","20","","24.1","","99.85","","","","","","Cloudy"
"2000-05-16 13:00","2000","05","16","13:00","14.7","","4.3","","50","","27","","26","","24.1","","99.82","","","","","","Cloudy"
"2000-05-16 14:00","2000","05","16","14:00","15.0","","4.2","","48","","25","","30","","24.1","","99.75","","","","","","Cloudy"
"2000-05-16 15:00","2000","05","16","15:00","15.3","","4.6","","49","","27","","28","","24.1","","99.69","","","","","","Cloudy"
"2000-05-16 16:00","2000","05","16","16:00","14.2","","5.7","","57","","29","","37","","19.3","","99.72","","","","","","Rain Showers"
"2000-05-16 17:00","2000","05","16","17:00","11.4","","7.9","","79","","27","","24","","14.5","","99.82","","","","","","Rain Showers"
"2000-05-16 18:00","2000","05","16","18:00","10.6","","7.7","","82","","30","","9","","12.9","","99.85","","","","","","Rain Showers"
"2000-05-16 19:00","2000","05","16","19:00","10.6","","7.9","","83","","29","","7","","16.1","","99.82","","","","","","Rain Showers"
"2000-05-16 20:00","2000","05","16","20:00","10.5","","8.2","","86","","","","0","","16.1","","99.85","","","","","","Cloudy"
"2000-05-16 21:00","2000","05","16","21:00","11.0","","8.3","","83","","19","","6","","19.3","","99.85","","","","","","Cloudy"
"2000-05-16 22:00","2000","05","16","22:00","9.9","","8.1","","89","","13","","9","","12.9","","99.89","","","","","","Rain Showers"
"2000-05-16 23:00","2000","05","16","23:00","8.8","","7.5","","92","","15","","9","","8.0","","99.85","","","","","","Fog"
"2000-05-17 00:00","2000","05","17","00:00","8.9","","7.7","","92","","15","","6","","8.0","","99.85","","","","","","Fog"
"2000-05-17 01:00","2000","05","17","01:00","9.1","","7.8","","92","","18","","9","","9.7","","99.82","","","","","","Fog"
"2000-05-17 02:00","2000","05","17","02:00","9.5","","8.0","","90","","18","","4","","11.3","","99.82","","","","","","Cloudy"
"2000-05-17 03:00","2000","05","17","03:00","9.3","","7.9","","91","","17","","4","","11.3","","99.82","","","","","","Cloudy"
"2000-05-17 04:00","2000","05","17","04:00","9.4","","8.0","","91","","","","0","","12.9","","99.82","","","","","","Cloudy"
"2000-05-17 05:00","2000","05","17","05:00","9.2","","7.7","","90","","14","","7","","3.2","","99.79","","","","","","Fog"
"2000-05-17 06:00","2000","05","17","06:00","9.9","","8.0","","88","","10","","7","","4.8","","99.85","","","","","","Fog"
"2000-05-17 07:00","2000","05","17","07:00","10.9","","8.6","","86","","9","","7","","6.4","","99.89","","","","","","Haze"
"2000-05-17 08:00","2000","05","17","08:00","13.0","","7.8","","71","","13","","13","","11.3","","99.85","","","","","","Clear"
"2000-05-17 09:00","2000","05","17","09:00","13.8","","7.4","","65","","13","","9","","14.5","","99.79","","","","","","Clear"
"2000-05-17 10:00","2000","05","17","10:00","14.8","","8.0","","64","","13","","11","","16.1","","99.75","","","","","","Clear"
"2000-05-17 11:00","2000","05","17","11:00","15.6","","8.2","","61","","12","","11","","16.1","","99.69","","","","","","Clear"
"2000-05-17 12:00","2000","05","17","12:00","16.9","","9.0","","60","","13","","13","","16.1","","99.65","","","","","","Clear"
"2000-05-17 13:00","2000","05","17","13:00","17.3","","8.5","","56","","15","","13","","19.3","","99.55","","","","","","Mainly Clear"
"2000-05-17 14:00","2000","05","17","14:00","17.7","","8.3","","54","","12","","15","","19.3","","99.49","","","","","","Mainly Clear"
"2000-05-17 15:00","2000","05","17","15:00","18.4","","8.5","","52","","12","","15","","19.3","","99.39","","","","","","Mainly Clear"
"2000-05-17 16:00","2000","05","17","16:00","18.0","","8.2","","53","","13","","13","","24.1","","99.32","","","","","","Clear"
"2000-05-17 17:00","2000","05","17","17:00","18.0","","7.8","","51","","10","","17","","24.1","","99.26","","","","","","Mainly Clear"
"2000-05-17 18:00","2000","05","17","18:00","16.9","","6.6","","51","","10","","13","","24.1","","99.26","","","","","","Mostly Cloudy"
"2000-05-17 19:00","2000","05","17","19:00","16.2","","6.6","","53","","9","","11","","24.1","","99.22","","","","","","Mostly Cloudy"
"2000-05-17 20:00","2000","05","17","20:00","14.5","","6.3","","58","","9","","7","","24.1","","99.22","","","","","","Mostly Cloudy"
"2000-05-17 21:00","2000","05","17","21:00","14.5","","5.7","","55","","8","","6","","24.1","","99.22","","","","","","Mostly Cloudy"
"2000-05-17 22:00","2000","05","17","22:00","14.5","","6.9","","60","","8","","4","","24.1","","99.19","","","","","","Cloudy"
"2000-05-17 23:00","2000","05","17","23:00","13.1","","8.5","","74","","19","","6","","19.3","","99.16","","","","","","Rain Showers"
"2000-05-18 00:00","2000","05","18","00:00","11.8","","8.8","","82","","16","","6","","24.1","","98.99","","","","","","Cloudy"
"2000-05-18 01:00","2000","05","18","01:00","11.7","","8.3","","80","","16","","7","","19.3","","98.86","","","","","","Cloudy"
"2000-05-18 02:00","2000","05","18","02:00","11.2","","9.2","","87","","","","0","","12.9","","98.79","","","","","","Cloudy"
"2000-05-18 03:00","2000","05","18","03:00","11.4","","9.6","","89","","","","0","","14.5","","98.69","","","","","","Rain Showers"
"2000-05-18 04:00","2000","05","18","04:00","11.9","","11.0","","94","","1","","7","","8.0","","98.62","","","","","","Rain Showers,Fog"
"2000-05-18 05:00","2000","05","18","05:00","12.2","","11.4","","95","","10","","7","","2.8","","98.49","","","","","","Thunderstorms,Rain Showers,Fog"
"2000-05-18 06:00","2000","05","18","06:00","13.0","","12.3","","96","","24","","4","","0.8","","98.49","","","","","","Rain Showers,Fog"
"2000-05-18 07:00","2000","05","18","07:00","13.5","","12.7","","95","","16","","11","","0.4","","98.32","","","","","","Rain Showers,Fog"
"2000-05-18 08:00","2000","05","18","08:00","13.3","","12.1","","92","","34","","30","","4.0","","98.42","","","","","","Rain Showers,Fog"
"2000-05-18 09:00","2000","05","18","09:00","12.9","","11.7","","92","","35","","20","","4.0","","98.59","","","","","","Rain Showers,Fog"
"2000-05-18 10:00","2000","05","18","10:00","14.1","","12.3","","89","","34","","20","","14.5","","98.66","","","","","","Cloudy"
"2000-05-18 11:00","2000","05","18","11:00","13.8","","11.7","","87","","35","","26","","12.9","","98.76","","","","","","Rain Showers"
"2000-05-18 12:00","2000","05","18","12:00","12.8","","11.3","","91","","36","","22","","6.4","","98.76","","","","","","Rain Showers,Fog"
"2000-05-18 13:00","2000","05","18","13:00","13.3","","11.4","","88","","36","","17","","12.9","","98.89","","","","","","Cloudy"
"2000-05-18 14:00","2000","05","18","14:00","13.0","","10.4","","84","","35","","22","","16.1","","99.16","","","","","","Cloudy"
"2000-05-18 15:00","2000","05","18","15:00","12.4","","9.9","","85","","34","","26","","16.1","","99.26","","","","","","Rain Showers"
"2000-05-18 16:00","2000","05","18","16:00","12.2","","9.3","","82","","36","","26","","19.3","","99.22","","","","","","Cloudy"
"2000-05-18 17:00","2000","05","18","17:00","11.6","","8.4","","81","","35","","26","","24.1","","99.29","","","","","","Cloudy"
"2000-05-18 18:00","2000","05","18","18:00","11.4","","8.0","","80","","34","","19","","24.1","","99.55","","","","","","Cloudy"
"2000-05-18 19:00","2000","05","18","19:00","11.0","","6.8","","75","","35","","19","","24.1","","99.62","","","","","","Cloudy"
"2000-05-18 20:00","2000","05","18","20:00","10.2","","5.7","","74","","36","","17","","24.1","","99.65","","","","","","Cloudy"
"2000-05-18 21:00","2000","05","18","21:00","10.0","","5.9","","76","","35","","15","","24.1","","99.75","","","","","","Mostly Cloudy"
"2000-05-18 22:00","2000","05","18","22:00","9.6","","5.8","","77","","36","","15","","24.1","","99.79","","","","","","Cloudy"
"2000-05-18 23:00","2000","05","18","23:00","10.6","","4.1","","64","","5","","19","","24.1","","99.82","","","","","","Cloudy"
"2000-05-19 00:00","2000","05","19","00:00","10.4","","3.3","","61","","6","","17","","24.1","","99.85","","","","","","Mostly Cloudy"
"2000-05-19 01:00","2000","05","19","01:00","9.7","","2.5","","61","","8","","19","","24.1","","99.79","","","","","","Mostly Cloudy"
"2000-05-19 02:00","2000","05","19","02:00","8.5","","0.6","","58","","8","","19","","24.1","","99.82","","","","","","Cloudy"
"2000-05-19 03:00","2000","05","19","03:00","7.2","","0.0","","60","","6","","20","","24.1","","99.92","","","","","","Cloudy"
"2000-05-19 04:00","2000","05","19","04:00","6.4","","-1.2","","58","","5","","22","","24.1","","99.99","","","","","","Cloudy"
"2000-05-19 05:00","2000","05","19","05:00","5.9","","-1.9","","57","","7","","15","","24.1","","100.02","","","","","","Cloudy"
"2000-05-19 06:00","2000","05","19","06:00","5.5","","-2.5","","56","","8","","28","","24.1","","100.05","","","","","","Cloudy"
"2000-05-19 07:00","2000","05","19","07:00","5.6","","-2.4","","56","","6","","24","","24.1","","100.09","","","","","","Rain Showers"
"2000-05-19 08:00","2000","05","19","08:00","4.6","","-1.5","","65","","7","","17","","19.3","","100.12","","","","","","Rain Showers"
"2000-05-19 09:00","2000","05","19","09:00","4.9","","-1.0","","66","","6","","11","","24.1","","100.15","","","","","","Rain Showers"
"2000-05-19 10:00","2000","05","19","10:00","5.1","","-0.5","","67","","7","","15","","12.9","","100.15","","","","","","Rain Showers"
"2000-05-19 11:00","2000","05","19","11:00","6.4","","-0.2","","63","","7","","19","","24.1","","100.12","","","","","","Rain"
"2000-05-19 12:00","2000","05","19","12:00","7.7","","-1.5","","52","","9","","22","","24.1","","100.05","","","","","","Mostly Cloudy"
"2000-05-19 13:00","2000","05","19","13:00","9.7","","-3.9","","38","","11","","28","","24.1","","99.99","","","","","","Mostly Cloudy"
"2000-05-19 14:00","2000","05","19","14:00","10.0","","-3.6","","38","","10","","26","","24.1","","99.95","","","","","","Mostly Cloudy"
"2000-05-19 15:00","2000","05","19","15:00","10.8","","-4.6","","34","","8","","24","","24.1","","99.95","","","","","","Mainly Clear"
"2000-05-19 16:00","2000","05","19","16:00","11.2","","-5.2","","31","","12","","20","","24.1","","99.92","","","","","","Mainly Clear"
"2000-05-19 17:00","2000","05","19","17:00","9.8","","-0.6","","48","","9","","20","","24.1","","99.92","","","","","","Clear"
"2000-05-19 18:00","2000","05","19","18:00","9.5","","-2.1","","44","","13","","17","","24.1","","99.89","","","","","","Mainly Clear"
"2000-05-19 19:00","2000","05","19","19:00","8.7","","-1.8","","48","","10","","19","","24.1","","99.89","","","","","","Mainly Clear"
"2000-05-19 20:00","2000","05","19","20:00","8.2","","-1.1","","52","","8","","13","","24.1","","99.85","","","","","","Mostly Cloudy"
"2000-05-19 21:00","2000","05","19","21:00","7.8","","0.2","","59","","8","","15","","24.1","","99.89","","","","","","Mostly Cloudy"
"2000-05-19 22:00","2000","05","19","22:00","8.0","","2.3","","67","","8","","15","","24.1","","99.85","","","","","","Cloudy"
"2000-05-19 23:00","2000","05","19","23:00","8.2","","2.3","","66","","8","","11","","24.1","","99.85","","","","","","Cloudy"
"2000-05-20 00:00","2000","05","20","00:00","8.6","","1.5","","61","","5","","13","","24.1","","99.79","","","","","","Cloudy"
"2000-05-20 01:00","2000","05","20","01:00","8.8","","0.6","","56","","7","","15","","24.1","","99.75","","","","","","Cloudy"
"2000-05-20 02:00","2000","05","20","02:00","8.6","","2.2","","64","","6","","15","","24.1","","99.72","","","","","","Cloudy"
"2000-05-20 03:00","2000","05","20","03:00","8.6","","2.2","","64","","7","","15","","24.1","","99.65","","","","","","Cloudy"
"2000-05-20 04:00","2000","05","20","04:00","8.4","","3.8","","73","","8","","15","","24.1","","99.69","","","","","","Cloudy"
"2000-05-20 05:00","2000","05","20","05:00","8.3","","2.8","","68","","7","","13","","24.1","","99.69","","","","","","Cloudy"
"2000-05-20 06:00","2000","05","20","06:00","7.9","","2.9","","71","","6","","11","","19.3","","99.69","","","","","","Drizzle"
"2000-05-20 07:00","2000","05","20","07:00","8.2","","3.2","","71","","6","","15","","19.3","","99.69","","","","","","Cloudy"
"2000-05-20 08:00","2000","05","20","08:00","8.7","","3.7","","71","","5","","20","","19.3","","99.72","","","","","","Cloudy"
"2000-05-20 09:00","2000","05","20","09:00","8.6","","4.3","","74","","5","","15","","19.3","","99.72","","","","","","Drizzle"
"2000-05-20 10:00","2000","05","20","10:00","9.6","","4.9","","72","","7","","7","","17.7","","99.69","","","","","","Cloudy"
"2000-05-20 11:00","2000","05","20","11:00","10.0","","5.6","","74","","5","","13","","17.7","","99.72","","","","","","Cloudy"
"2000-05-20 12:00","2000","05","20","12:00","10.7","","6.5","","75","","8","","11","","19.3","","99.69","","","","","","Cloudy"
"2000-05-20 13:00","2000","05","20","13:00","11.0","","6.5","","74","","9","","4","","20.9","","99.69","","","","","","Cloudy"
"2000-05-20 14:00","2000","05","20","14:00","10.6","","6.6","","76","","17","","9","","20.9","","99.72","","","","","","Cloudy"
"2000-05-20 15:00","2000","05","20","15:00","10.1","","6.6","","79","","17","","11","","19.3","","99.72","","","","","","Cloudy"
"2000-05-20 16:00","2000","05","20","16:00","9.7","","6.3","","79","","16","","9","","17.7","","99.72","","","","","","Cloudy"
"2000-05-20 17:00","2000","05","20","17:00","9.4","","6.2","","80","","17","","9","","14.5","","99.72","","","","","","Cloudy"
"2000-05-20 18:00","2000","05","20","18:00","9.2","","6.3","","82","","15","","11","","16.1","","99.69","","","","","","Cloudy"
"2000-05-20 19:00","2000","05","20","19:00","8.5","","5.8","","83","","16","","9","","16.1","","99.72","","","","","","Mainly Clear"
"2000-05-20 20:00","2000","05","20","20:00","7.6","","5.6","","87","","16","","7","","16.1","","99.72","","","","","","Mainly Clear"
"2000-05-20 21:00","2000","05","20","21:00","6.8","","5.3","","90","","18","","4","","16.1","","99.72","","","","","","Mainly Clear"
"2000-05-20 22:00","2000","05","20","22:00","7.2","","5.6","","90","","","","0","","16.1","","99.69","","","","","","Mostly Cloudy"
"2000-05-20 23:00","2000","05","20","23:00","7.7","","6.2","","90","","18","","4","","14.5","","99.75","","","","","","Cloudy"
"2000-05-21 00:00","2000","05","21","00:00","8.1","","6.4","","89","","","","0","","16.1","","99.72","","","","","","Cloudy"
"2000-05-21 01:00","2000","05","21","01:00","8.3","","6.4","","88","","","","0","","16.1","","99.69","","","","","","Cloudy"
"2000-05-21 02:00","2000","05","21","02:00","8.1","","6.0","","87","","18","","6","","19.3","","99.62","","","","","","Cloudy"
"2000-05-21 03:00","2000","05","21","03:00","8.2","","5.9","","85","","9","","4","","19.3","","99.59","","","","","","Cloudy"
"2000-05-21 04:00","2000","05","21","04:00","7.3","","5.6","","89","","18","","6","","9.7","","99.62","","","","","","Fog"
"2000-05-21 05:00","2000","05","21","05:00","8.3","","6.5","","88","","19","","6","","8.0","","99.65","","","","","","Fog"
"2000-05-21 06:00","2000","05","21","06:00","7.9","","6.5","","91","","15","","6","","8.0","","99.65","","","","","","Fog"
"2000-05-21 07:00","2000","05","21","07:00","8.7","","7.0","","89","","15","","4","","8.0","","99.69","","","","","","Fog"
"2000-05-21 08:00","2000","05","21","08:00","10.6","","7.9","","83","","19","","7","","12.9","","99.69","","","","","","Cloudy"
"2000-05-21 09:00","2000","05","21","09:00","11.4","","8.0","","80","","18","","6","","17.7","","99.69","","","","","","Mostly Cloudy"
"2000-05-21 10:00","2000","05","21","10:00","12.7","","8.5","","76","","16","","7","","19.3","","99.65","","","","","","Mostly Cloudy"
"2000-05-21 11:00","2000","05","21","11:00","14.2","","8.8","","70","","","","0","","20.9","","99.62","","","","","","Mostly Cloudy"
"2000-05-21 12:00","2000","05","21","12:00","15.0","","8.3","","64","","12","","7","","24.1","","99.59","","","","","","Mostly Cloudy"
"2000-05-21 13:00","2000","05","21","13:00","14.6","","9.1","","70","","18","","15","","24.1","","99.55","","","","","","Mostly Cloudy"
"2000-05-21 14:00","2000","05","21","14:00","14.6","","7.9","","64","","17","","17","","24.1","","99.52","","","","","","Mostly Cloudy"
"2000-05-21 15:00","2000","05","21","15:00","15.6","","6.8","","56","","18","","6","","24.1","","99.49","","","","","","Mostly Cloudy"
"2000-05-21 16:00","2000","05","21","16:00","15.8","","7.2","","57","","15","","13","","24.1","","99.42","","","","","","Mainly Clear"
"2000-05-21 17:00","2000","05","21","17:00","15.7","","6.3","","54","","17","","15","","24.1","","99.39","","","","","","Mainly Clear"
"2000-05-21 18:00","2000","05","21","18:00","14.8","","7.4","","61","","17","","17","","24.1","","99.35","","","","","","Mainly Clear"
"2000-05-21 19:00","2000","05","21","19:00","13.5","","7.9","","69","","16","","7","","24.1","","99.39","","","","","","Mostly Cloudy"
"2000-05-21 20:00","2000","05","21","20:00","12.2","","8.9","","80","","15","","7","","16.1","","99.35","","","","","","Mostly Cloudy"
"2000-05-21 21:00","2000","05","21","21:00","11.0","","8.3","","83","","14","","9","","16.1","","99.35","","","","","","Mostly Cloudy"
"2000-05-21 22:00","2000","05","21","22:00","10.3","","8.0","","86","","15","","9","","12.9","","99.35","","","","","","Mostly Cloudy"
"2000-05-21 23:00","2000","05","21","23:00","9.7","","8.0","","89","","14","","6","","12.9","","99.32","","","","","","Mainly Clear"
"2000-05-22 00:00","2000","05","22","00:00","9.3","","7.8","","90","","16","","6","","11.3","","99.32","","","","","","Mostly Cloudy"
"2000-05-22 01:00","2000","05","22","01:00","9.5","","7.9","","90","","11","","7","","11.3","","99.26","","","","","","Mostly Cloudy"
"2000-05-22 02:00","2000","05","22","02:00","9.3","","7.9","","91","","9","","6","","9.7","","99.19","","","","","","Fog"
"2000-05-22 03:00","2000","05","22","03:00","9.5","","7.9","","90","","9","","7","","9.7","","99.16","","","","","","Fog"
"2000-05-22 04:00","2000","05","22","04:00","9.7","","8.0","","89","","9","","7","","9.7","","99.09","","","","","","Fog"
"2000-05-22 05:00","2000","05","22","05:00","8.8","","7.6","","92","","18","","4","","4.0","","99.06","","","","","","Fog"
"2000-05-22 06:00","2000","05","22","06:00","9.1","","7.8","","92","","20","","7","","3.6","","99.16","","","","","","Fog"
"2000-05-22 07:00","2000","05","22","07:00","8.1","","7.3","","95","","15","","9","","1.0","","99.16","","","","","","Fog"
"2000-05-22 08:00","2000","05","22","08:00","9.5","","8.2","","92","","","","0","","4.8","","99.12","","","","","","Fog"
"2000-05-22 09:00","2000","05","22","09:00","12.5","","9.1","","80","","7","","4","","12.9","","99.06","","","","","","Mostly Cloudy"
"2000-05-22 10:00","2000","05","22","10:00","14.1","","10.3","","78","","18","","6","","16.1","","99.02","","","","","","Mostly Cloudy"
"2000-05-22 11:00","2000","05","22","11:00","15.5","","10.8","","74","","17","","7","","16.1","","98.99","","","","","","Mostly Cloudy"
"2000-05-22 12:00","2000","05","22","12:00","15.5","","11.4","","77","","16","","15","","16.1","","98.96","","","","","","Mostly Cloudy"
"2000-05-22 13:00","2000","05","22","13:00","14.9","","10.9","","77","","15","","17","","16.1","","98.92","","","","","","Mostly Cloudy"
"2000-05-22 14:00","2000","05","22","14:00","16.2","","11.6","","74","","15","","15","","16.1","","98.86","","","","","","Mostly Cloudy"
"2000-05-22 15:00","2000","05","22","15:00","17.0","","11.3","","69","","14","","9","","16.1","","98.82","","","","","","Mostly Cloudy"
"2000-05-22 16:00","2000","05","22","16:00","15.3","","9.3","","67","","16","","13","","19.3","","98.79","","","","","","Mostly Cloudy"
"2000-05-22 17:00","2000","05","22","17:00","14.2","","9.3","","72","","16","","11","","24.1","","98.79","","","","","","Mostly Cloudy"
"2000-05-22 18:00","2000","05","22","18:00","13.1","","9.2","","77","","13","","9","","19.3","","98.76","","","","","","Mostly Cloudy"
"2000-05-22 19:00","2000","05","22","19:00","11.6","","8.7","","82","","14","","11","","14.5","","98.76","","","","","","Mainly Clear"
"2000-05-22 20:00","2000","05","22","20:00","11.0","","8.6","","85","","16","","6","","11.3","","98.76","","","","","","Mainly Clear"
"2000-05-22 21:00","2000","05","22","21:00","10.7","","8.3","","85","","16","","6","","11.3","","98.79","","","","","","Mostly Cloudy"
"2000-05-22 22:00","2000","05","22","22:00","10.6","","8.2","","85","","","","0","","12.9","","98.76","","","","","","Mostly Cloudy"
"2000-05-22 23:00","2000","05","22","23:00","10.6","","7.7","","82","","16","","6","","12.9","","98.69","","","","","","Mostly Cloudy"
"2000-05-23 00:00","2000","05","23","00:00","10.0","","7.4","","84","","14","","4","","16.1","","98.66","","","","","","Mainly Clear"
"2000-05-23 01:00","2000","05","23","01:00","9.6","","7.3","","86","","16","","4","","16.1","","98.59","","","","","","Mostly Cloudy"
"2000-05-23 02:00","2000","05","23","02:00","9.8","","7.9","","88","","23","","4","","16.1","","98.52","","","","","","Cloudy"
"2000-05-23 03:00","2000","05","23","03:00","10.4","","8.6","","89","","","","0","","12.9","","98.49","","","","","","Rain Showers"
"2000-05-23 04:00","2000","05","23","04:00","10.7","","9.3","","91","","8","","9","","9.7","","98.42","","","","","","Rain Showers,Fog"
"2000-05-23 05:00","2000","05","23","05:00","10.7","","9.5","","92","","8","","6","","3.6","","98.39","","","","","","Fog"
"2000-05-23 06:00","2000","05","23","06:00","11.2","","9.6","","90","","9","","11","","4.0","","98.32","","","","","","Fog"
"2000-05-23 07:00","2000","05","23","07:00","12.8","","10.9","","88","","9","","11","","8.0","","98.32","","","","","","Fog"
"2000-05-23 08:00","2000","05","23","08:00","11.1","","9.3","","89","","14","","7","","3.2","","98.36","","","","","","Rain Showers,Fog"
"2000-05-23 09:00","2000","05","23","09:00","11.5","","9.6","","88","","9","","11","","4.0","","98.32","","","","","","Rain Showers,Fog"
"2000-05-23 10:00","2000","05","23","10:00","11.5","","10.1","","91","","10","","15","","3.2","","98.22","","","","","","Rain Showers,Fog"
"2000-05-23 11:00","2000","05","23","11:00","11.6","","10.4","","92","","10","","11","","2.8","","98.19","","","","","","Rain Showers,Fog"
"2000-05-23 12:00","2000","05","23","12:00","11.4","","10.6","","95","","10","","15","","1.2","","98.09","","","","","","Rain Showers,Fog"
"2000-05-23 13:00","2000","05","23","13:00","12.1","","11.3","","95","","11","","13","","1.2","","98.02","","","","","","Rain Showers,Fog"
"2000-05-23 14:00","2000","05","23","14:00","12.7","","11.9","","95","","14","","11","","0.8","","97.96","","","","","","Heavy Rain Showers,Fog"
"2000-05-23 15:00","2000","05","23","15:00","13.1","","12.3","","95","","12","","15","","1.0","","97.86","","","","","","Rain Showers,Fog"
"2000-05-23 16:00","2000","05","23","16:00","13.2","","12.5","","96","","13","","11","","1.0","","97.79","","","","","","Rain Showers,Fog"
"2000-05-23 17:00","2000","05","23","17:00","12.5","","11.7","","95","","13","","9","","1.2","","97.72","","","","","","Rain Showers,Fog"
"2000-05-23 18:00","2000","05","23","18:00","12.5","","11.8","","95","","15","","9","","0.8","","97.69","","","","","","Rain Showers,Fog"
"2000-05-23 19:00","2000","05","23","19:00","12.4","","11.7","","95","","15","","4","","1.2","","97.69","","","","","","Rain Showers,Fog"
"2000-05-23 20:00","2000","05","23","20:00","12.4","","11.7","","95","","16","","9","","2.0","","97.66","","","","","","Fog"
"2000-05-23 21:00","2000","05","23","21:00","12.4","","12.0","","97","","","","0","","2.4","","97.66","","","","","","Fog"
"2000-05-23 22:00","2000","05","23","22:00","12.6","","12.3","","98","","","","0","","0.4","","97.69","","","","","","Fog"
"2000-05-23 23:00","2000","05","23","23:00","12.4","","11.9","","97","","23","","6","","4.8","","97.69","","","","","","Fog"
"2000-05-24 00:00","2000","05","24","00:00","13.6","","12.8","","95","","25","","11","","6.4","","97.72","","","","","","Fog"
"2000-05-24 01:00","2000","05","24","01:00","13.9","","12.9","","94","","28","","37","","11.3","","97.72","","","","","","Rain Showers"
"2000-05-24 02:00","2000","05","24","02:00","13.4","","11.1","","86","","29","","15","","16.1","","97.62","","","","","","Rain Showers"
"2000-05-24 03:00","2000","05","24","03:00","11.9","","9.9","","88","","29","","7","","24.1","","97.56","","","","","","Mainly Clear"
"2000-05-24 04:00","2000","05","24","04:00","11.2","","9.3","","88","","27","","15","","24.1","","97.62","","","","","","Mainly Clear"
"2000-05-24 05:00","2000","05","24","05:00","11.0","","9.4","","90","","27","","11","","24.1","","97.66","","","","","","Mostly Cloudy"
"2000-05-24 06:00","2000","05","24","06:00","13.0","","10.2","","83","","27","","20","","24.1","","97.76","","","","","","Mostly Cloudy"
"2000-05-24 07:00","2000","05","24","07:00","14.6","","11.2","","80","","25","","19","","24.1","","97.72","","","","","","Mostly Cloudy"
"2000-05-24 08:00","2000","05","24","08:00","15.7","","11.1","","74","","20","","6","","24.1","","97.76","","","","","","Mostly Cloudy"
"2000-05-24 09:00","2000","05","24","09:00","18.7","","13.2","","70","","23","","24","","24.1","","97.72","","","","","","Mainly Clear"
"2000-05-24 10:00","2000","05","24","10:00","19.5","","14.3","","72","","24","","24","","24.1","","97.72","","","","","","Mainly Clear"
"2000-05-24 11:00","2000","05","24","11:00","20.9","","14.6","","67","","25","","26","","24.1","","97.69","","25","","","","Mainly Clear"
"2000-05-24 12:00","2000","05","24","12:00","21.9","","13.8","","60","","24","","30","","24.1","","97.66","","25","","","","Mainly Clear"
"2000-05-24 13:00","2000","05","24","13:00","23.1","","12.8","","52","","27","","30","","24.1","","97.62","","26","","","","Mainly Clear"
"2000-05-24 14:00","2000","05","24","14:00","22.9","","11.4","","48","","27","","39","","24.1","","97.59","","25","","","","Mostly Cloudy"
"2000-05-24 15:00","2000","05","24","15:00","21.0","","9.0","","46","","28","","32","","24.1","","97.56","","","","","","Mostly Cloudy"
"2000-05-24 16:00","2000","05","24","16:00","16.4","","10.0","","66","","28","","52","","24.1","","97.72","","","","","","Thunderstorms,Rain Showers"
"2000-05-24 17:00","2000","05","24","17:00","16.4","","11.2","","71","","24","","15","","24.1","","97.66","","","","","","Mostly Cloudy"
"2000-05-24 18:00","2000","05","24","18:00","17.9","","11.8","","67","","22","","9","","24.1","","97.62","","","","","","Mainly Clear"
"2000-05-24 19:00","2000","05","24","19:00","17.2","","11.9","","71","","23","","15","","24.1","","97.62","","","","","","Mostly Cloudy"
"2000-05-24 20:00","2000","05","24","20:00","16.7","","11.9","","73","","26","","24","","24.1","","97.66","","","","","","Mostly Cloudy"
"2000-05-24 21:00","2000","05","24","21:00","16.1","","7.6","","57","","28","","59","","24.1","","97.89","","","","","","Cloudy"
"2000-05-24 22:00","2000","05","24","22:00","13.6","","8.7","","72","","29","","15","","24.1","","97.72","","","","","","Mostly Cloudy"
"2000-05-24 23:00","2000","05","24","23:00","13.5","","8.5","","72","","33","","11","","24.1","","97.72","","","","","","Cloudy"
"2000-05-25 00:00","2000","05","25","00:00","12.8","","9.0","","78","","27","","9","","24.1","","97.72","","","","","","Cloudy"
"2000-05-25 01:00","2000","05","25","01:00","12.5","","8.7","","78","","21","","11","","24.1","","97.66","","","","","","Cloudy"
"2000-05-25 02:00","2000","05","25","02:00","11.4","","8.8","","84","","25","","11","","24.1","","97.66","","","","","","Mostly Cloudy"
"2000-05-25 03:00","2000","05","25","03:00","11.4","","8.8","","84","","28","","17","","24.1","","97.72","","","","","","Mostly Cloudy"
"2000-05-25 04:00","2000","05","25","04:00","11.6","","9.2","","85","","27","","22","","24.1","","97.76","","","","","","Rain Showers"
"2000-05-25 05:00","2000","05","25","05:00","11.4","","9.0","","85","","28","","22","","24.1","","97.82","","","","","","Mostly Cloudy"
"2000-05-25 06:00","2000","05","25","06:00","11.3","","8.4","","82","","27","","19","","24.1","","98.02","","","","","","Mainly Clear"
"2000-05-25 07:00","2000","05","25","07:00","12.7","","8.7","","77","","29","","26","","24.1","","98.09","","","","","","Mainly Clear"
"2000-05-25 08:00","2000","05","25","08:00","13.5","","7.6","","67","","30","","33","","24.1","","98.09","","","","","","Mainly Clear"
"2000-05-25 09:00","2000","05","25","09:00","14.2","","8.7","","69","","28","","35","","24.1","","98.12","","","","","","Mainly Clear"
"2000-05-25 10:00","2000","05","25","10:00","15.6","","9.0","","65","","30","","30","","24.1","","98.19","","","","","","Mostly Cloudy"
"2000-05-25 11:00","2000","05","25","11:00","15.0","","8.8","","66","","29","","30","","24.1","","98.19","","","","","","Mostly Cloudy"
"2000-05-25 12:00","2000","05","25","12:00","15.2","","8.7","","65","","28","","35","","24.1","","98.22","","","","","","Mostly Cloudy"
"2000-05-25 13:00","2000","05","25","13:00","15.6","","8.6","","63","","29","","44","","24.1","","98.22","","","","","","Mostly Cloudy"
"2000-05-25 14:00","2000","05","25","14:00","15.1","","7.3","","60","","29","","39","","24.1","","98.29","","","","","","Mostly Cloudy"
"2000-05-25 15:00","2000","05","25","15:00","14.9","","6.8","","58","","30","","37","","24.1","","98.32","","","","","","Mostly Cloudy"
"2000-05-25 16:00","2000","05","25","16:00","13.9","","7.3","","64","","30","","35","","24.1","","98.42","","","","","","Cloudy"
"2000-05-25 17:00","2000","05","25","17:00","13.5","","7.5","","67","","30","","32","","24.1","","98.52","","","","","","Mostly Cloudy"
"2000-05-25 18:00","2000","05","25","18:00","13.0","","6.4","","64","","31","","37","","24.1","","98.62","","","","","","Mostly Cloudy"
"2000-05-25 19:00","2000","05","25","19:00","11.6","","6.0","","68","","32","","35","","24.1","","98.69","","","","","","Mostly Cloudy"
"2000-05-25 20:00","2000","05","25","20:00","10.6","","4.9","","68","","29","","28","","24.1","","98.76","","","","","","Mainly Clear"
"2000-05-25 21:00","2000","05","25","21:00","10.0","","4.6","","69","","30","","20","","24.1","","98.82","","","","","","Mainly Clear"
"2000-05-25 22:00","2000","05","25","22:00","9.3","","4.6","","72","","29","","17","","24.1","","98.89","","","","","","Mostly Cloudy"
"2000-05-25 23:00","2000","05","25","23:00","9.6","","4.3","","69","","29","","17","","24.1","","98.89","","","","","","Mostly Cloudy"
"2000-05-26 00:00","2000","05","26","00:00","9.0","","4.5","","73","","30","","17","","24.1","","98.92","","","","","","Mainly Clear"
"2000-05-26 01:00","2000","05","26","01:00","9.0","","4.0","","71","","31","","20","","24.1","","98.96","","","","","","Clear"
"2000-05-26 02:00","2000","05","26","02:00","8.0","","4.1","","76","","29","","13","","24.1","","98.96","","","","","","Clear"
"2000-05-26 03:00","2000","05","26","03:00","8.2","","3.9","","74","","31","","24","","24.1","","98.99","","","","","","Clear"
"2000-05-26 04:00","2000","05","26","04:00","7.9","","3.8","","75","","31","","24","","24.1","","99.02","","","","","","Clear"
"2000-05-26 05:00","2000","05","26","05:00","7.4","","3.8","","78","","32","","22","","24.1","","99.06","","","","","","Clear"
"2000-05-26 06:00","2000","05","26","06:00","8.2","","4.3","","76","","31","","20","","24.1","","99.09","","","","","","Clear"
"2000-05-26 07:00","2000","05","26","07:00","9.6","","5.0","","73","","27","","30","","24.1","","99.32","","","","","","Clear"
"2000-05-26 08:00","2000","05","26","08:00","11.2","","5.8","","69","","31","","30","","24.1","","99.26","","","","","","Clear"
"2000-05-26 09:00","2000","05","26","09:00","13.2","","6.8","","65","","31","","28","","24.1","","99.26","","","","","","Clear"
"2000-05-26 10:00","2000","05","26","10:00","14.3","","7.5","","64","","31","","24","","24.1","","99.32","","","","","","Mainly Clear"
"2000-05-26 11:00","2000","05","26","11:00","15.1","","8.6","","65","","32","","17","","24.1","","99.26","","","","","","Mostly Cloudy"
"2000-05-26 12:00","2000","05","26","12:00","15.7","","9.0","","64","","32","","17","","24.1","","99.29","","","","","","Mostly Cloudy"
"2000-05-26 13:00","2000","05","26","13:00","15.7","","8.6","","63","","29","","20","","24.1","","99.32","","","","","","Mostly Cloudy"
"2000-05-26 14:00","2000","05","26","14:00","16.3","","8.6","","60","","29","","26","","24.1","","99.35","","","","","","Mostly Cloudy"
"2000-05-26 15:00","2000","05","26","15:00","16.0","","8.0","","59","","30","","24","","24.1","","99.39","","","","","","Mostly Cloudy"
"2000-05-26 16:00","2000","05","26","16:00","15.8","","8.0","","60","","30","","26","","24.1","","99.45","","","","","","Mostly Cloudy"
"2000-05-26 17:00","2000","05","26","17:00","16.4","","8.2","","58","","32","","26","","24.1","","99.42","","","","","","Mostly Cloudy"
"2000-05-26 18:00","2000","05","26","18:00","16.9","","7.9","","55","","31","","26","","24.1","","99.45","","","","","","Mostly Cloudy"
"2000-05-26 19:00","2000","05","26","19:00","16.0","","8.6","","61","","1","","19","","24.1","","99.45","","","","","","Mainly Clear"
"2000-05-26 20:00","2000","05","26","20:00","13.9","","8.2","","68","","36","","17","","24.1","","99.49","","","","","","Mainly Clear"
"2000-05-26 21:00","2000","05","26","21:00","12.8","","7.6","","71","","36","","11","","24.1","","99.52","","","","","","Mainly Clear"
"2000-05-26 22:00","2000","05","26","22:00","11.8","","7.3","","74","","","","0","","24.1","","99.55","","","","","","Clear"
"2000-05-26 23:00","2000","05","26","23:00","11.1","","6.8","","75","","36","","9","","24.1","","99.62","","","","","","Clear"
"2000-05-27 00:00","2000","05","27","00:00","10.4","","7.0","","79","","34","","11","","24.1","","99.65","","","","","","Clear"
"2000-05-27 01:00","2000","05","27","01:00","9.7","","6.6","","81","","33","","13","","24.1","","99.65","","","","","","Mainly Clear"
"2000-05-27 02:00","2000","05","27","02:00","8.3","","6.0","","85","","32","","7","","24.1","","99.62","","","","","","Mainly Clear"
"2000-05-27 03:00","2000","05","27","03:00","8.1","","5.8","","85","","36","","7","","24.1","","99.59","","","","","","Clear"
"2000-05-27 04:00","2000","05","27","04:00","7.8","","5.7","","87","","35","","7","","24.1","","99.59","","","","","","Mainly Clear"
"2000-05-27 05:00","2000","05","27","05:00","7.8","","5.4","","85","","36","","13","","24.1","","99.55","","","","","","Clear"
"2000-05-27 06:00","2000","05","27","06:00","9.1","","6.3","","83","","2","","11","","24.1","","99.62","","","","","","Mainly Clear"
"2000-05-27 07:00","2000","05","27","07:00","12.5","","7.7","","73","","4","","6","","24.1","","99.62","","","","","","Mostly Cloudy"
"2000-05-27 08:00","2000","05","27","08:00","13.8","","8.5","","70","","4","","4","","24.1","","99.65","","","","","","Mostly Cloudy"
"2000-05-27 09:00","2000","05","27","09:00","14.5","","9.1","","70","","34","","6","","24.1","","99.69","","","","","","Mostly Cloudy"
"2000-05-27 10:00","2000","05","27","10:00","15.5","","9.8","","69","","36","","7","","24.1","","99.65","","","","","","Cloudy"
"2000-05-27 11:00","2000","05","27","11:00","16.4","","9.7","","65","","4","","6","","24.1","","99.65","","","","","","Cloudy"
"2000-05-27 12:00","2000","05","27","12:00","17.5","","10.4","","63","","36","","7","","24.1","","99.55","","","","","","Mostly Cloudy"
"2000-05-27 13:00","2000","05","27","13:00","17.5","","9.5","","59","","34","","7","","24.1","","99.45","","","","","","Mostly Cloudy"
"2000-05-27 14:00","2000","05","27","14:00","18.5","","9.1","","54","","2","","13","","24.1","","99.39","","","","","","Mostly Cloudy"
"2000-05-27 15:00","2000","05","27","15:00","18.7","","10.6","","59","","18","","9","","24.1","","99.35","","","","","","Mostly Cloudy"
"2000-05-27 16:00","2000","05","27","16:00","18.3","","9.8","","58","","6","","13","","24.1","","99.35","","","","","","Mostly Cloudy"
"2000-05-27 17:00","2000","05","27","17:00","18.1","","8.0","","52","","36","","19","","24.1","","99.32","","","","","","Mostly Cloudy"
"2000-05-27 18:00","2000","05","27","18:00","16.9","","5.2","","46","","1","","24","","24.1","","99.29","","","","","","Mostly Cloudy"
"2000-05-27 19:00","2000","05","27","19:00","16.3","","7.1","","54","","36","","20","","24.1","","99.26","","","","","","Mostly Cloudy"
"2000-05-27 20:00","2000","05","27","20:00","14.5","","6.5","","59","","35","","19","","24.1","","99.32","","","","","","Clear"
"2000-05-27 21:00","2000","05","27","21:00","13.0","","6.0","","62","","36","","19","","24.1","","99.39","","","","","","Clear"
"2000-05-27 22:00","2000","05","27","22:00","11.4","","5.5","","67","","36","","22","","24.1","","99.39","","","","","","Mostly Cloudy"
"2000-05-27 23:00","2000","05","27","23:00","10.7","","5.0","","68","","36","","17","","24.1","","99.35","","","","","","Mainly Clear"
"2000-05-28 00:00","2000","05","28","00:00","9.7","","5.5","","75","","2","","11","","24.1","","99.39","","","","","","Clear"
"2000-05-28 01:00","2000","05","28","01:00","9.3","","5.7","","78","","1","","11","","24.1","","99.29","","","","","","Mostly Cloudy"
"2000-05-28 02:00","2000","05","28","02:00","8.6","","5.6","","81","","36","","6","","24.1","","99.32","","","","","","Cloudy"
"2000-05-28 03:00","2000","05","28","03:00","8.6","","5.7","","82","","36","","6","","24.1","","99.32","","","","","","Cloudy"
"2000-05-28 04:00","2000","05","28","04:00","8.5","","5.5","","81","","35","","7","","24.1","","99.29","","","","","","Mostly Cloudy"
"2000-05-28 05:00","2000","05","28","05:00","8.3","","5.5","","83","","36","","6","","24.1","","99.26","","","","","","Cloudy"
"2000-05-28 06:00","2000","05","28","06:00","9.8","","6.6","","80","","3","","11","","24.1","","99.32","","","","","","Cloudy"
"2000-05-28 07:00","2000","05","28","07:00","11.4","","6.4","","71","","7","","15","","24.1","","99.29","","","","","","Cloudy"
"2000-05-28 08:00","2000","05","28","08:00","12.8","","6.1","","64","","10","","20","","24.1","","99.32","","","","","","Cloudy"
"2000-05-28 09:00","2000","05","28","09:00","13.8","","6.5","","61","","9","","19","","24.1","","99.32","","","","","","Mostly Cloudy"
"2000-05-28 10:00","2000","05","28","10:00","14.1","","7.1","","63","","9","","20","","24.1","","99.26","","","","","","Mostly Cloudy"
"2000-05-28 11:00","2000","05","28","11:00","14.0","","6.7","","61","","11","","17","","24.1","","99.22","","","","","","Mostly Cloudy"
"2000-05-28 12:00","2000","05","28","12:00","13.8","","6.6","","62","","13","","24","","24.1","","99.22","","","","","","Cloudy"
"2000-05-28 13:00","2000","05","28","13:00","14.4","","7.1","","61","","10","","17","","24.1","","99.16","","","","","","Cloudy"
"2000-05-28 14:00","2000","05","28","14:00","15.0","","8.0","","63","","10","","22","","24.1","","99.12","","","","","","Cloudy"
"2000-05-28 15:00","2000","05","28","15:00","15.4","","8.1","","62","","15","","22","","24.1","","99.12","","","","","","Cloudy"
"2000-05-28 16:00","2000","05","28","16:00","14.2","","6.9","","61","","12","","17","","24.1","","99.12","","","","","","Mostly Cloudy"
"2000-05-28 17:00","2000","05","28","17:00","14.2","","7.4","","64","","9","","20","","24.1","","99.19","","","","","","Mostly Cloudy"
"2000-05-28 18:00","2000","05","28","18:00","13.2","","7.1","","66","","10","","17","","24.1","","99.22","","","","","","Mostly Cloudy"
"2000-05-28 19:00","2000","05","28","19:00","12.6","","6.6","","67","","10","","11","","24.1","","99.29","","","","","","Mostly Cloudy"
"2000-05-28 20:00","2000","05","28","20:00","11.5","","6.1","","69","","11","","9","","24.1","","99.32","","","","","","Mostly Cloudy"
"2000-05-28 21:00","2000","05","28","21:00","11.2","","6.1","","71","","10","","11","","24.1","","99.42","","","","","","Cloudy"
"2000-05-28 22:00","2000","05","28","22:00","10.5","","6.1","","74","","9","","7","","24.1","","99.42","","","","","","Mostly Cloudy"
"2000-05-28 23:00","2000","05","28","23:00","11.0","","6.1","","72","","8","","6","","24.1","","99.39","","","","","","Mainly Clear"
"2000-05-29 00:00","2000","05","29","00:00","9.7","","6.1","","78","","6","","9","","24.1","","99.39","","","","","","Clear"
"2000-05-29 01:00","2000","05","29","01:00","9.2","","6.0","","80","","1","","9","","24.1","","99.42","","","","","","Clear"
"2000-05-29 02:00","2000","05","29","02:00","9.4","","6.3","","81","","3","","11","","24.1","","99.42","","","","","","Clear"
"2000-05-29 03:00","2000","05","29","03:00","10.1","","6.2","","77","","4","","6","","24.1","","99.45","","","","","","Clear"
"2000-05-29 04:00","2000","05","29","04:00","9.2","","6.0","","80","","5","","7","","24.1","","99.49","","","","","","Mainly Clear"
"2000-05-29 05:00","2000","05","29","05:00","7.8","","5.6","","86","","36","","7","","24.1","","99.52","","","","","","Mainly Clear"
"2000-05-29 06:00","2000","05","29","06:00","10.0","","7.3","","83","","36","","13","","24.1","","99.59","","","","","","Mainly Clear"
"2000-05-29 07:00","2000","05","29","07:00","11.6","","8.0","","79","","4","","9","","24.1","","99.65","","","","","","Mainly Clear"
"2000-05-29 08:00","2000","05","29","08:00","13.7","","8.6","","71","","3","","7","","24.1","","99.72","","","","","","Mainly Clear"
"2000-05-29 09:00","2000","05","29","09:00","15.0","","9.6","","70","","9","","9","","24.1","","99.75","","","","","","Mostly Cloudy"
"2000-05-29 10:00","2000","05","29","10:00","15.6","","9.7","","68","","11","","11","","24.1","","99.79","","","","","","Mostly Cloudy"
"2000-05-29 11:00","2000","05","29","11:00","16.3","","9.8","","65","","9","","15","","24.1","","99.79","","","","","","Mostly Cloudy"
"2000-05-29 12:00","2000","05","29","12:00","16.4","","10.4","","68","","9","","17","","24.1","","99.75","","","","","","Mostly Cloudy"
"2000-05-29 13:00","2000","05","29","13:00","17.1","","10.0","","63","","14","","15","","24.1","","99.75","","","","","","Mainly Clear"
"2000-05-29 14:00","2000","05","29","14:00","17.1","","10.1","","63","","14","","17","","24.1","","99.79","","","","","","Mainly Clear"
"2000-05-29 15:00","2000","05","29","15:00","18.2","","9.5","","57","","13","","13","","24.1","","99.79","","","","","","Mainly Clear"
"2000-05-29 16:00","2000","05","29","16:00","18.6","","8.9","","53","","12","","15","","24.1","","99.79","","","","","","Mainly Clear"
"2000-05-29 17:00","2000","05","29","17:00","18.1","","8.2","","52","","13","","11","","24.1","","99.75","","","","","","Clear"
"2000-05-29 18:00","2000","05","29","18:00","16.6","","6.8","","52","","14","","17","","24.1","","99.72","","","","","","Clear"
"2000-05-29 19:00","2000","05","29","19:00","16.0","","6.1","","52","","13","","13","","24.1","","99.72","","","","","","Mainly Clear"
"2000-05-29 20:00","2000","05","29","20:00","14.6","","5.4","","54","","11","","9","","24.1","","99.79","","","","","","Mainly Clear"
"2000-05-29 21:00","2000","05","29","21:00","13.1","","5.6","","60","","9","","6","","24.1","","99.82","","","","","","Mainly Clear"
"2000-05-29 22:00","2000","05","29","22:00","13.2","","5.1","","58","","9","","7","","24.1","","99.85","","","","","","Mainly Clear"
"2000-05-29 23:00","2000","05","29","23:00","12.3","","5.1","","61","","9","","6","","24.1","","99.85","","","","","","Mainly Clear"
"2000-05-30 00:00","2000","05","30","00:00","11.5","","5.8","","68","","9","","7","","24.1","","99.92","","","","","","Mainly Clear"
"2000-05-30 01:00","2000","05","30","01:00","11.8","","6.2","","69","","9","","7","","24.1","","99.89","","","","","","Mostly Cloudy"
"2000-05-30 02:00","2000","05","30","02:00","10.4","","6.5","","77","","36","","7","","24.1","","99.89","","","","","","Mostly Cloudy"
"2000-05-30 03:00","2000","05","30","03:00","11.2","","6.0","","70","","36","","4","","24.1","","99.89","","","","","","Mostly Cloudy"
"2000-05-30 04:00","2000","05","30","04:00","10.9","","5.9","","71","","","","0","","24.1","","99.89","","","","","","Mostly Cloudy"
"2000-05-30 05:00","2000","05","30","05:00","10.6","","6.2","","74","","","","0","","19.3","","99.95","","","","","","Mostly Cloudy"
"2000-05-30 06:00","2000","05","30","06:00","11.5","","5.9","","68","","35","","4","","24.1","","100.05","","","","","","Mostly Cloudy"
"2000-05-30 07:00","2000","05","30","07:00","13.7","","8.0","","68","","","","0","","19.3","","100.05","","","","","","Mostly Cloudy"
"2000-05-30 08:00","2000","05","30","08:00","16.3","","8.6","","60","","18","","6","","24.1","","100.05","","","","","","Mostly Cloudy"
"2000-05-30 09:00","2000","05","30","09:00","16.9","","9.8","","63","","14","","13","","24.1","","100.02","","","","","","Mostly Cloudy"
"2000-05-30 10:00","2000","05","30","10:00","16.9","","10.4","","66","","18","","11","","24.1","","100.09","","","","","","Mostly Cloudy"
"2000-05-30 11:00","2000","05","30","11:00","18.8","","11.6","","63","","16","","11","","24.1","","100.09","","","","","","Mostly Cloudy"
"2000-05-30 12:00","2000","05","30","12:00","20.8","","12.8","","60","","19","","15","","24.1","","99.99","","","","","","Mostly Cloudy"
"2000-05-30 13:00","2000","05","30","13:00","21.0","","11.5","","55","","17","","19","","24.1","","99.95","","","","","","Cloudy"
"2000-05-30 14:00","2000","05","30","14:00","20.8","","11.1","","54","","17","","17","","24.1","","99.85","","","","","","Cloudy"
"2000-05-30 15:00","2000","05","30","15:00","21.1","","10.0","","49","","19","","17","","24.1","","99.85","","","","","","Cloudy"
"2000-05-30 16:00","2000","05","30","16:00","21.0","","9.9","","49","","18","","24","","24.1","","99.79","","","","","","Cloudy"
"2000-05-30 17:00","2000","05","30","17:00","20.4","","10.9","","54","","15","","11","","24.1","","99.79","","","","","","Cloudy"
"2000-05-30 18:00","2000","05","30","18:00","17.5","","9.9","","61","","16","","17","","19.3","","99.79","","","","","","Mostly Cloudy"
"2000-05-30 19:00","2000","05","30","19:00","16.4","","10.0","","66","","15","","13","","19.3","","99.79","","","","","","Mainly Clear"
"2000-05-30 20:00","2000","05","30","20:00","14.7","","9.2","","70","","15","","11","","19.3","","99.75","","","","","","Mainly Clear"
"2000-05-30 21:00","2000","05","30","21:00","14.0","","9.0","","72","","16","","9","","24.1","","99.79","","","","","","Mainly Clear"
"2000-05-30 22:00","2000","05","30","22:00","13.9","","9.4","","74","","18","","7","","24.1","","99.75","","","","","","Mostly Cloudy"
"2000-05-30 23:00","2000","05","30","23:00","13.5","","9.2","","75","","15","","6","","24.1","","99.69","","","","","","Mainly Clear"
"2000-05-31 00:00","2000","05","31","00:00","13.9","","9.8","","76","","17","","6","","24.1","","99.65","","","","","","Mainly Clear"
"2000-05-31 01:00","2000","05","31","01:00","14.0","","10.0","","77","","17","","9","","24.1","","99.62","","","","","","Mostly Cloudy"
"2000-05-31 02:00","2000","05","31","02:00","15.3","","9.9","","70","","18","","7","","19.3","","99.62","","","","","","Cloudy"
"2000-05-31 03:00","2000","05","31","03:00","14.2","","9.9","","75","","16","","7","","24.1","","99.62","","","","","","Cloudy"
"2000-05-31 04:00","2000","05","31","04:00","14.9","","9.7","","71","","19","","9","","24.1","","99.55","","","","","","Mostly Cloudy"
"2000-05-31 05:00","2000","05","31","05:00","14.6","","10.0","","74","","18","","7","","24.1","","99.59","","","","","","Mostly Cloudy"
"2000-05-31 06:00","2000","05","31","06:00","15.3","","10.0","","71","","19","","7","","19.3","","99.59","","","","","","Mostly Cloudy"
"2000-05-31 07:00","2000","05","31","07:00","17.0","","11.2","","69","","21","","15","","19.3","","99.55","","","","","","Mostly Cloudy"
"2000-05-31 08:00","2000","05","31","08:00","18.2","","12.2","","68","","22","","17","","16.1","","99.59","","","","","","Mostly Cloudy"
"2000-05-31 09:00","2000","05","31","09:00","19.4","","13.6","","69","","23","","22","","16.1","","99.55","","","","","","Mostly Cloudy"
"2000-05-31 10:00","2000","05","31","10:00","21.5","","15.2","","67","","22","","19","","16.1","","99.52","","26","","","","Mostly Cloudy"
"2000-05-31 11:00","2000","05","31","11:00","23.9","","17.4","","67","","24","","13","","16.1","","99.49","","29","","","","Mostly Cloudy"
"2000-05-31 12:00","2000","05","31","12:00","22.3","","17.2","","73","","22","","13","","6.4","","99.45","","28","","","","Rain Showers,Haze"
"2000-05-31 13:00","2000","05","31","13:00","24.0","","19.2","","75","","26","","9","","8.0","","99.45","","31","","","","Haze"
"2000-05-31 14:00","2000","05","31","14:00","20.6","","18.5","","88","","23","","19","","3.2","","99.45","","27","","","","Thunderstorms,Rain Showers,Fog"
"2000-05-31 15:00","2000","05","31","15:00","21.9","","18.8","","83","","","","0","","4.8","","99.39","","29","","","","Haze"
"2000-05-31 16:00","2000","05","31","16:00","22.1","","18.4","","80","","31","","9","","4.8","","99.42","","28","","","","Haze"
"2000-05-31 17:00","2000","05","31","17:00","21.9","","18.1","","79","","31","","9","","6.4","","99.39","","28","","","","Haze"
"2000-05-31 18:00","2000","05","31","18:00","21.9","","17.8","","78","","32","","15","","4.8","","99.45","","28","","","","Haze"
"2000-05-31 19:00","2000","05","31","19:00","21.8","","17.8","","78","","30","","13","","4.8","","99.52","","28","","","","Haze"
"2000-05-31 20:00","2000","05","31","20:00","21.5","","17.5","","78","","32","","17","","4.0","","99.45","","27","","","","Haze"
"2000-05-31 21:00","2000","05","31","21:00","20.6","","17.2","","81","","31","","15","","9.7","","99.55","","26","","","","Haze"
"2000-05-31 22:00","2000","05","31","22:00","19.2","","16.8","","86","","1","","6","","6.4","","99.55","","","","","","Haze"
"2000-05-31 23:00","2000","05","31","23:00","18.1","","16.0","","88","","31","","11","","4.8","","99.62","","","","","","Haze"
