"Station Name","TORONTO LESTER B. PEARSON INT'L A"
"Province","ONTARIO"
"Latitude","43.68"
"Longitude","-79.63"
"Elevation","173.40"
"Climate Identifier","6158733"
"WMO Identifier","71624"
"TC Identifier","YYZ"
"All times are specified in Local Standard Time (LST). Add 1 hour to adjust for Daylight Saving Time where and when it is observed."

"Legend"
"E","Estimated"
"M","Missing"
"NA","Not Available"

"Date/Time","Year","Month","Day","Time","Temp (°C)","Temp Flag","Dew Point Temp (°C)","Dew Point Temp Flag","Rel Hum (%)","Rel Hum Flag","Wind Dir (10s deg)","Wind Dir Flag","Wind Spd (km/h)","Wind Spd Flag","Visibility (km)","Visibility Flag","Stn Press (kPa)","Stn Press Flag","Hmdx","Hmdx Flag","Wind Chill","Wind Chill Flag","Weather"
"2007-06-01 00:00","2007","06","01","00:00","20.6","","17.8","","84","","","","0","","11.3","","99.63","","26","","","","Mainly Clear"
"2007-06-01 01:00","2007","06","01","01:00","21.4","","17.9","","80","","30","","7","","12.9","","99.62","","27","","","","Mostly Cloudy"
"2007-06-01 02:00","2007","06","01","02:00","20.5","","18.6","","89","","5","","6","","11.3","","99.59","","27","","","","Mainly Clear"
"2007-06-01 03:00","2007","06","01","03:00","18.9","","17.2","","90","","31","","4","","8.0","","99.56","","","","","","Fog"
"2007-06-01 04:00","2007","06","01","04:00","19.8","","17.8","","88","","18","","6","","8.0","","99.57","","","","","","Fog"
"2007-06-01 05:00","2007","06","01","05:00","19.5","","16.5","","83","","19","","6","","6.4","","99.59","","","","","","Haze"
"2007-06-01 06:00","2007","06","01","06:00","20.9","","15.7","","72","","27","","4","","12.9","","99.61","","25","","","","Mostly Cloudy"
"2007-06-01 07:00","2007","06","01","07:00","21.8","","14.8","","64","","31","","6","","16.1","","99.60","","26","","","","Cloudy"
"2007-06-01 08:00","2007","06","01","08:00","23.4","","15.8","","62","","31","","6","","11.3","","99.60","","28","","","","Mostly Cloudy"
"2007-06-01 09:00","2007","06","01","09:00","24.4","","15.4","","57","","","","0","","16.1","","99.58","","29","","","","Mostly Cloudy"
"2007-06-01 10:00","2007","06","01","10:00","26.6","","15.8","","52","","25","","6","","16.1","","99.56","","31","","","","Mostly Cloudy"
"2007-06-01 11:00","2007","06","01","11:00","24.2","","16.9","","64","","16","","9","","9.7","","99.60","","29","","","","Haze"
"2007-06-01 12:00","2007","06","01","12:00","22.4","","15.8","","66","","15","","9","","9.7","","99.60","","27","","","","Rain,Haze"
"2007-06-01 13:00","2007","06","01","13:00","23.0","","17.3","","70","","18","","9","","11.3","","99.60","","28","","","","Cloudy"
"2007-06-01 14:00","2007","06","01","14:00","26.3","","19.8","","67","","20","","15","","9.7","","99.56","","34","","","","Rain"
"2007-06-01 15:00","2007","06","01","15:00","25.4","","16.4","","57","","21","","19","","16.1","","99.47","","30","","","","Mostly Cloudy"
"2007-06-01 16:00","2007","06","01","16:00","24.9","","16.8","","61","","23","","19","","16.1","","99.38","","30","","","","Mostly Cloudy"
"2007-06-01 17:00","2007","06","01","17:00","26.2","","18.0","","61","","24","","15","","16.1","","99.32","","32","","","","Mostly Cloudy"
"2007-06-01 18:00","2007","06","01","18:00","25.8","","17.0","","58","","23","","11","","12.9","","99.31","","31","","","","Mostly Cloudy"
"2007-06-01 19:00","2007","06","01","19:00","25.1","","16.5","","59","","27","","9","","12.9","","99.32","","30","","","","Mostly Cloudy"
"2007-06-01 20:00","2007","06","01","20:00","25.0","","16.9","","61","","18","","6","","12.9","","99.28","","30","","","","Mostly Cloudy"
"2007-06-01 21:00","2007","06","01","21:00","23.6","","17.6","","69","","16","","6","","12.9","","99.30","","29","","","","Mostly Cloudy"
"2007-06-01 22:00","2007","06","01","22:00","22.6","","16.6","","69","","19","","7","","12.9","","99.33","","28","","","","Mostly Cloudy"
"2007-06-01 23:00","2007","06","01","23:00","22.7","","15.1","","62","","22","","7","","16.1","","99.30","","27","","","","Mostly Cloudy"
"2007-06-02 00:00","2007","06","02","00:00","22.3","","14.7","","62","","29","","6","","16.1","","99.31","","26","","","","Mostly Cloudy"
"2007-06-02 01:00","2007","06","02","01:00","20.8","","14.5","","67","","23","","7","","16.1","","99.24","","","","","","Mainly Clear"
"2007-06-02 02:00","2007","06","02","02:00","20.2","","15.0","","72","","","","0","","16.1","","99.25","","","","","","Mainly Clear"
"2007-06-02 03:00","2007","06","02","03:00","19.5","","14.6","","73","","26","","4","","16.1","","99.21","","","","","","Mainly Clear"
"2007-06-02 04:00","2007","06","02","04:00","18.7","","14.6","","77","","","","0","","16.1","","99.20","","","","","","Mainly Clear"
"2007-06-02 05:00","2007","06","02","05:00","18.2","","14.5","","79","","28","","4","","8.0","","99.18","","","","","","Haze"
"2007-06-02 06:00","2007","06","02","06:00","19.2","","15.4","","79","","23","","4","","9.7","","99.23","","","","","","Haze"
"2007-06-02 07:00","2007","06","02","07:00","21.6","","15.9","","70","","24","","4","","8.0","","99.22","","26","","","","Haze"
"2007-06-02 08:00","2007","06","02","08:00","23.1","","17.9","","73","","20","","4","","8.0","","99.21","","29","","","","Haze"
"2007-06-02 09:00","2007","06","02","09:00","24.4","","18.1","","68","","16","","7","","9.7","","99.19","","30","","","","Haze"
"2007-06-02 10:00","2007","06","02","10:00","25.8","","18.6","","64","","14","","7","","9.7","","99.17","","32","","","","Haze"
"2007-06-02 11:00","2007","06","02","11:00","27.0","","18.5","","60","","14","","11","","9.7","","99.14","","33","","","","Haze"
"2007-06-02 12:00","2007","06","02","12:00","28.2","","18.3","","55","","15","","17","","11.3","","99.08","","34","","","","Mainly Clear"
"2007-06-02 13:00","2007","06","02","13:00","28.3","","18.9","","57","","13","","15","","19.3","","99.04","","35","","","","Mainly Clear"
"2007-06-02 14:00","2007","06","02","14:00","28.3","","18.1","","54","","14","","20","","19.3","","99.00","","34","","","","Mostly Cloudy"
"2007-06-02 15:00","2007","06","02","15:00","28.7","","18.6","","54","","15","","19","","14.5","","98.88","","35","","","","Mainly Clear"
"2007-06-02 16:00","2007","06","02","16:00","29.0","","18.1","","52","","16","","17","","16.1","","98.82","","35","","","","Mainly Clear"
"2007-06-02 17:00","2007","06","02","17:00","27.9","","18.9","","58","","16","","15","","19.3","","98.78","","35","","","","Mainly Clear"
"2007-06-02 18:00","2007","06","02","18:00","26.5","","18.5","","61","","14","","15","","19.3","","98.78","","33","","","","Mainly Clear"
"2007-06-02 19:00","2007","06","02","19:00","24.8","","18.6","","68","","14","","11","","11.3","","98.78","","31","","","","Mostly Cloudy"
"2007-06-02 20:00","2007","06","02","20:00","23.3","","17.2","","69","","13","","9","","12.9","","98.77","","29","","","","Mostly Cloudy"
"2007-06-02 21:00","2007","06","02","21:00","22.7","","17.2","","71","","17","","6","","11.3","","98.82","","28","","","","Mostly Cloudy"
"2007-06-02 22:00","2007","06","02","22:00","22.2","","17.2","","73","","","","0","","14.5","","98.77","","28","","","","Mainly Clear"
"2007-06-02 23:00","2007","06","02","23:00","21.6","","17.2","","76","","15","","7","","14.5","","98.74","","27","","","","Mostly Cloudy"
"2007-06-03 00:00","2007","06","03","00:00","20.1","","16.9","","82","","","","0","","14.5","","98.71","","25","","","","Mainly Clear"
"2007-06-03 01:00","2007","06","03","01:00","19.7","","16.7","","83","","15","","7","","14.5","","98.70","","","","","","Mainly Clear"
"2007-06-03 02:00","2007","06","03","02:00","19.4","","16.7","","84","","","","0","","14.5","","98.67","","","","","","Mainly Clear"
"2007-06-03 03:00","2007","06","03","03:00","19.1","","16.8","","87","","18","","4","","14.5","","98.64","","","","","","Mostly Cloudy"
"2007-06-03 04:00","2007","06","03","04:00","19.1","","16.8","","87","","","","0","","14.5","","98.60","","","","","","Mostly Cloudy"
"2007-06-03 05:00","2007","06","03","05:00","19.1","","16.8","","87","","13","","4","","9.7","","98.58","","","","","","Haze"
"2007-06-03 06:00","2007","06","03","06:00","19.4","","17.3","","88","","11","","4","","8.0","","98.59","","","","","","Haze"
"2007-06-03 07:00","2007","06","03","07:00","19.8","","17.7","","88","","14","","7","","8.0","","98.61","","","","","","Haze"
"2007-06-03 08:00","2007","06","03","08:00","20.0","","17.8","","87","","12","","11","","16.1","","98.60","","26","","","","Mostly Cloudy"
"2007-06-03 09:00","2007","06","03","09:00","21.3","","18.4","","84","","12","","15","","16.1","","98.58","","28","","","","Mostly Cloudy"
"2007-06-03 10:00","2007","06","03","10:00","22.1","","18.1","","78","","14","","11","","19.3","","98.57","","28","","","","Cloudy"
"2007-06-03 11:00","2007","06","03","11:00","21.2","","17.6","","80","","11","","15","","19.3","","98.54","","27","","","","Cloudy"
"2007-06-03 12:00","2007","06","03","12:00","22.0","","18.1","","79","","10","","9","","24.1","","98.48","","28","","","","Cloudy"
"2007-06-03 13:00","2007","06","03","13:00","22.8","","18.6","","77","","9","","7","","24.1","","98.42","","29","","","","Cloudy"
"2007-06-03 14:00","2007","06","03","14:00","24.6","","18.6","","69","","10","","4","","24.1","","98.30","","31","","","","Cloudy"
"2007-06-03 15:00","2007","06","03","15:00","25.1","","17.9","","64","","11","","7","","24.1","","98.22","","31","","","","Cloudy"
"2007-06-03 16:00","2007","06","03","16:00","23.3","","17.6","","70","","14","","15","","24.1","","98.18","","29","","","","Cloudy"
"2007-06-03 17:00","2007","06","03","17:00","20.8","","17.3","","80","","13","","13","","16.1","","98.22","","26","","","","Rain Showers"
"2007-06-03 18:00","2007","06","03","18:00","18.1","","17.0","","93","","11","","17","","4.0","","98.24","","","","","","Rain Showers,Fog"
"2007-06-03 19:00","2007","06","03","19:00","18.0","","17.7","","98","","","","0","","3.2","","98.16","","","","","","Thunderstorms,Rain Showers,Fog"
"2007-06-03 20:00","2007","06","03","20:00","18.5","","18.3","","99","","18","","13","","4.0","","98.19","","","","","","Rain,Fog"
"2007-06-03 21:00","2007","06","03","21:00","18.5","","18.0","","97","","16","","7","","8.0","","98.22","","","","","","Rain,Fog"
"2007-06-03 22:00","2007","06","03","22:00","17.6","","17.1","","97","","15","","17","","8.0","","98.31","","","","","","Rain,Fog"
"2007-06-03 23:00","2007","06","03","23:00","17.7","","17.2","","97","","17","","13","","6.4","","98.28","","","","","","Rain,Fog"
"2007-06-04 00:00","2007","06","04","00:00","16.5","","15.2","","92","","23","","9","","16.1","","98.19","","","","","","Rain"
"2007-06-04 01:00","2007","06","04","01:00","16.8","","15.8","","94","","","","0","","19.3","","98.09","","","","","","Rain"
"2007-06-04 02:00","2007","06","04","02:00","16.9","","16.2","","96","","4","","7","","24.1","","98.00","","","","","","Mostly Cloudy"
"2007-06-04 03:00","2007","06","04","03:00","17.0","","16.2","","95","","7","","7","","19.3","","97.94","","","","","","Mostly Cloudy"
"2007-06-04 04:00","2007","06","04","04:00","16.5","","16.1","","97","","9","","11","","12.9","","97.88","","","","","","Rain"
"2007-06-04 05:00","2007","06","04","05:00","16.7","","16.3","","97","","9","","11","","8.0","","97.84","","","","","","Rain Showers,Fog"
"2007-06-04 06:00","2007","06","04","06:00","16.3","","16.0","","98","","10","","13","","6.4","","97.82","","","","","","Rain Showers,Fog"
"2007-06-04 07:00","2007","06","04","07:00","16.2","","16.0","","99","","9","","7","","6.4","","97.80","","","","","","Rain Showers,Fog"
"2007-06-04 08:00","2007","06","04","08:00","16.4","","16.2","","99","","9","","9","","8.0","","97.75","","","","","","Rain Showers,Fog"
"2007-06-04 09:00","2007","06","04","09:00","17.0","","16.9","","99","","16","","4","","9.7","","97.73","","","","","","Rain Showers,Fog"
"2007-06-04 10:00","2007","06","04","10:00","18.8","","17.0","","89","","15","","6","","16.1","","97.67","","","","","","Mostly Cloudy"
"2007-06-04 11:00","2007","06","04","11:00","19.5","","16.7","","84","","30","","4","","24.1","","97.65","","","","","","Mostly Cloudy"
"2007-06-04 12:00","2007","06","04","12:00","20.9","","17.2","","79","","24","","7","","24.1","","97.63","","26","","","","Mostly Cloudy"
"2007-06-04 13:00","2007","06","04","13:00","21.6","","16.8","","74","","25","","6","","24.1","","97.60","","27","","","","Mostly Cloudy"
"2007-06-04 14:00","2007","06","04","14:00","21.9","","17.3","","75","","14","","7","","24.1","","97.55","","27","","","","Cloudy"
"2007-06-04 15:00","2007","06","04","15:00","21.2","","16.8","","76","","16","","11","","24.1","","97.51","","26","","","","Cloudy"
"2007-06-04 16:00","2007","06","04","16:00","21.6","","17.4","","77","","14","","11","","24.1","","97.45","","27","","","","Mostly Cloudy"
"2007-06-04 17:00","2007","06","04","17:00","20.9","","17.3","","80","","15","","15","","24.1","","97.44","","26","","","","Mostly Cloudy"
"2007-06-04 18:00","2007","06","04","18:00","20.2","","17.1","","82","","16","","17","","24.1","","97.43","","26","","","","Mainly Clear"
"2007-06-04 19:00","2007","06","04","19:00","19.2","","16.8","","86","","16","","11","","24.1","","97.42","","","","","","Mostly Cloudy"
"2007-06-04 20:00","2007","06","04","20:00","18.4","","16.5","","89","","13","","9","","19.3","","97.40","","","","","","Mostly Cloudy"
"2007-06-04 21:00","2007","06","04","21:00","17.7","","16.7","","94","","12","","7","","19.3","","97.39","","","","","","Mainly Clear"
"2007-06-04 22:00","2007","06","04","22:00","17.4","","16.8","","96","","15","","7","","14.5","","97.41","","","","","","Mainly Clear"
"2007-06-04 23:00","2007","06","04","23:00","17.3","","16.7","","96","","17","","6","","12.9","","97.38","","","","","","Mostly Cloudy"
"2007-06-05 00:00","2007","06","05","00:00","17.8","","16.2","","90","","21","","11","","24.1","","97.34","","","","","","Mostly Cloudy"
"2007-06-05 01:00","2007","06","05","01:00","17.7","","16.2","","91","","22","","9","","24.1","","97.32","","","","","","Cloudy"
"2007-06-05 02:00","2007","06","05","02:00","17.4","","16.2","","93","","22","","13","","24.1","","97.27","","","","","","Cloudy"
"2007-06-05 03:00","2007","06","05","03:00","17.4","","16.3","","93","","22","","15","","24.1","","97.26","","","","","","Cloudy"
"2007-06-05 04:00","2007","06","05","04:00","17.4","","16.4","","94","","22","","11","","19.3","","97.24","","","","","","Mostly Cloudy"
"2007-06-05 05:00","2007","06","05","05:00","17.6","","16.5","","93","","17","","6","","8.0","","97.26","","","","","","Fog"
"2007-06-05 06:00","2007","06","05","06:00","18.0","","16.8","","93","","20","","9","","6.4","","97.28","","","","","","Fog"
"2007-06-05 07:00","2007","06","05","07:00","18.8","","16.7","","88","","25","","11","","9.7","","97.27","","","","","","Haze"
"2007-06-05 08:00","2007","06","05","08:00","11.6","","11.3","","98","","32","","41","","19.3","","97.36","","","","","","Rain Showers"
"2007-06-05 09:00","2007","06","05","09:00","10.7","","9.4","","92","","33","","37","","24.1","","97.50","","","","","","Cloudy"
"2007-06-05 10:00","2007","06","05","10:00","9.6","","7.4","","86","","31","","46","","11.3","","97.68","","","","","","Rain Showers"
"2007-06-05 11:00","2007","06","05","11:00","10.3","","6.1","","75","","31","","37","","24.1","","97.83","","","","","","Cloudy"
"2007-06-05 12:00","2007","06","05","12:00","10.7","","5.9","","72","","31","","39","","24.1","","97.95","","","","","","Cloudy"
"2007-06-05 13:00","2007","06","05","13:00","10.6","","5.4","","70","","30","","37","","24.1","","98.03","","","","","","Cloudy"
"2007-06-05 14:00","2007","06","05","14:00","10.1","","4.6","","69","","31","","35","","24.1","","98.19","","","","","","Cloudy"
"2007-06-05 15:00","2007","06","05","15:00","9.0","","4.3","","72","","32","","35","","24.1","","98.37","","","","","","Cloudy"
"2007-06-05 16:00","2007","06","05","16:00","9.0","","4.0","","71","","30","","28","","24.1","","98.51","","","","","","Cloudy"
"2007-06-05 17:00","2007","06","05","17:00","9.3","","4.1","","70","","30","","32","","24.1","","98.58","","","","","","Mostly Cloudy"
"2007-06-05 18:00","2007","06","05","18:00","8.9","","3.7","","70","","31","","28","","24.1","","98.67","","","","","","Mostly Cloudy"
"2007-06-05 19:00","2007","06","05","19:00","9.0","","2.9","","66","","31","","13","","24.1","","98.72","","","","","","Mostly Cloudy"
"2007-06-05 20:00","2007","06","05","20:00","8.1","","3.2","","71","","28","","11","","24.1","","98.77","","","","","","Mainly Clear"
"2007-06-05 21:00","2007","06","05","21:00","7.3","","3.0","","74","","1","","15","","24.1","","98.88","","","","","","Mostly Cloudy"
"2007-06-05 22:00","2007","06","05","22:00","7.2","","2.8","","74","","35","","7","","24.1","","98.91","","","","","","Mainly Clear"
"2007-06-05 23:00","2007","06","05","23:00","7.0","","3.0","","76","","3","","9","","24.1","","98.92","","","","","","Mostly Cloudy"
"2007-06-06 00:00","2007","06","06","00:00","7.2","","4.1","","81","","27","","6","","24.1","","98.99","","","","","","Mostly Cloudy"
"2007-06-06 01:00","2007","06","06","01:00","7.5","","4.5","","81","","","","0","","24.1","","99.01","","","","","","Mostly Cloudy"
"2007-06-06 02:00","2007","06","06","02:00","8.0","","3.7","","74","","6","","4","","24.1","","99.03","","","","","","Cloudy"
"2007-06-06 03:00","2007","06","06","03:00","7.9","","4.7","","80","","17","","7","","24.1","","99.01","","","","","","Cloudy"
"2007-06-06 04:00","2007","06","06","04:00","8.5","","5.7","","83","","22","","6","","24.1","","99.05","","","","","","Mostly Cloudy"
"2007-06-06 05:00","2007","06","06","05:00","8.8","","5.8","","81","","27","","11","","24.1","","99.11","","","","","","Mostly Cloudy"
"2007-06-06 06:00","2007","06","06","06:00","9.2","","5.0","","75","","28","","17","","24.1","","99.16","","","","","","Mainly Clear"
"2007-06-06 07:00","2007","06","06","07:00","10.3","","3.9","","64","","28","","22","","24.1","","99.22","","","","","","Mainly Clear"
"2007-06-06 08:00","2007","06","06","08:00","11.4","","4.0","","60","","28","","22","","24.1","","99.27","","","","","","Mainly Clear"
"2007-06-06 09:00","2007","06","06","09:00","12.8","","4.6","","57","","29","","20","","24.1","","99.29","","","","","","Mainly Clear"
"2007-06-06 10:00","2007","06","06","10:00","13.2","","4.4","","55","","28","","17","","24.1","","99.30","","","","","","Mostly Cloudy"
"2007-06-06 11:00","2007","06","06","11:00","14.4","","5.0","","53","","29","","11","","24.1","","99.31","","","","","","Mostly Cloudy"
"2007-06-06 12:00","2007","06","06","12:00","15.1","","5.6","","53","","24","","15","","24.1","","99.31","","","","","","Mostly Cloudy"
"2007-06-06 13:00","2007","06","06","13:00","14.8","","4.8","","51","","29","","15","","24.1","","99.30","","","","","","Mostly Cloudy"
"2007-06-06 14:00","2007","06","06","14:00","16.0","","5.5","","50","","33","","22","","24.1","","99.32","","","","","","Mostly Cloudy"
"2007-06-06 15:00","2007","06","06","15:00","16.9","","5.0","","45","","28","","11","","24.1","","99.30","","","","","","Mostly Cloudy"
"2007-06-06 16:00","2007","06","06","16:00","17.8","","6.4","","47","","24","","19","","24.1","","99.27","","","","","","Mainly Clear"
"2007-06-06 17:00","2007","06","06","17:00","18.0","","5.6","","44","","28","","19","","24.1","","99.32","","","","","","Mainly Clear"
"2007-06-06 18:00","2007","06","06","18:00","17.6","","5.2","","44","","27","","13","","24.1","","99.34","","","","","","Mainly Clear"
"2007-06-06 19:00","2007","06","06","19:00","16.5","","4.5","","45","","29","","13","","24.1","","99.35","","","","","","Mainly Clear"
"2007-06-06 20:00","2007","06","06","20:00","15.0","","4.9","","51","","27","","7","","24.1","","99.31","","","","","","Mainly Clear"
"2007-06-06 21:00","2007","06","06","21:00","13.9","","5.1","","55","","24","","9","","24.1","","99.39","","","","","","Mainly Clear"
"2007-06-06 22:00","2007","06","06","22:00","13.0","","5.7","","61","","26","","9","","24.1","","99.41","","","","","","Mainly Clear"
"2007-06-06 23:00","2007","06","06","23:00","13.2","","6.0","","62","","18","","7","","24.1","","99.45","","","","","","Mostly Cloudy"
"2007-06-07 00:00","2007","06","07","00:00","12.2","","6.2","","67","","","","0","","24.1","","99.42","","","","","","Mainly Clear"
"2007-06-07 01:00","2007","06","07","01:00","11.4","","7.0","","74","","27","","7","","24.1","","99.41","","","","","","Mostly Cloudy"
"2007-06-07 02:00","2007","06","07","02:00","12.0","","7.1","","72","","","","0","","24.1","","99.37","","","","","","Mostly Cloudy"
"2007-06-07 03:00","2007","06","07","03:00","11.3","","7.4","","77","","16","","7","","24.1","","99.35","","","","","","Mostly Cloudy"
"2007-06-07 04:00","2007","06","07","04:00","11.5","","8.5","","82","","15","","7","","24.1","","99.37","","","","","","Mostly Cloudy"
"2007-06-07 05:00","2007","06","07","05:00","11.7","","9.1","","84","","15","","6","","24.1","","99.41","","","","","","Mostly Cloudy"
"2007-06-07 06:00","2007","06","07","06:00","11.8","","9.2","","84","","9","","9","","24.1","","99.42","","","","","","Mostly Cloudy"
"2007-06-07 07:00","2007","06","07","07:00","12.9","","9.1","","78","","11","","9","","24.1","","99.42","","","","","","Cloudy"
"2007-06-07 08:00","2007","06","07","08:00","14.9","","6.6","","58","","14","","15","","24.1","","99.42","","","","","","Mostly Cloudy"
"2007-06-07 09:00","2007","06","07","09:00","15.0","","8.7","","66","","13","","15","","24.1","","99.34","","","","","","Mostly Cloudy"
"2007-06-07 10:00","2007","06","07","10:00","16.6","","9.7","","64","","14","","15","","24.1","","99.29","","","","","","Mostly Cloudy"
"2007-06-07 11:00","2007","06","07","11:00","17.7","","11.6","","67","","14","","17","","24.1","","99.23","","","","","","Mostly Cloudy"
"2007-06-07 12:00","2007","06","07","12:00","19.5","","12.3","","63","","14","","19","","24.1","","99.17","","","","","","Mostly Cloudy"
"2007-06-07 13:00","2007","06","07","13:00","20.9","","12.8","","60","","15","","19","","24.1","","99.12","","","","","","Mostly Cloudy"
"2007-06-07 14:00","2007","06","07","14:00","23.1","","14.0","","57","","14","","13","","24.1","","99.05","","26","","","","Mostly Cloudy"
"2007-06-07 15:00","2007","06","07","15:00","23.4","","13.6","","54","","12","","19","","24.1","","98.97","","27","","","","Mainly Clear"
"2007-06-07 16:00","2007","06","07","16:00","23.3","","13.8","","55","","13","","20","","24.1","","98.92","","27","","","","Mainly Clear"
"2007-06-07 17:00","2007","06","07","17:00","23.0","","13.8","","56","","12","","19","","24.1","","98.86","","26","","","","Mostly Cloudy"
"2007-06-07 18:00","2007","06","07","18:00","21.3","","13.0","","59","","14","","15","","24.1","","98.80","","","","","","Mainly Clear"
"2007-06-07 19:00","2007","06","07","19:00","19.8","","12.3","","62","","15","","11","","24.1","","98.73","","","","","","Clear"
"2007-06-07 20:00","2007","06","07","20:00","18.4","","12.2","","67","","14","","7","","24.1","","98.71","","","","","","Clear"
"2007-06-07 21:00","2007","06","07","21:00","17.6","","12.1","","70","","15","","6","","19.3","","98.71","","","","","","Clear"
"2007-06-07 22:00","2007","06","07","22:00","17.6","","12.2","","71","","17","","4","","24.1","","98.72","","","","","","Clear"
"2007-06-07 23:00","2007","06","07","23:00","17.5","","12.1","","71","","","","0","","24.1","","98.69","","","","","","Clear"
"2007-06-08 00:00","2007","06","08","00:00","17.7","","12.7","","73","","14","","11","","24.1","","98.63","","","","","","Clear"
"2007-06-08 01:00","2007","06","08","01:00","17.7","","12.8","","73","","14","","9","","19.3","","98.59","","","","","","Clear"
"2007-06-08 02:00","2007","06","08","02:00","17.8","","13.2","","74","","15","","11","","19.3","","98.55","","","","","","Mainly Clear"
"2007-06-08 03:00","2007","06","08","03:00","18.5","","13.5","","73","","14","","11","","19.3","","98.56","","","","","","Mostly Cloudy"
"2007-06-08 04:00","2007","06","08","04:00","19.7","","14.4","","71","","14","","11","","19.3","","98.57","","","","","","Mostly Cloudy"
"2007-06-08 05:00","2007","06","08","05:00","20.6","","15.2","","71","","14","","11","","24.1","","98.63","","25","","","","Mostly Cloudy"
"2007-06-08 06:00","2007","06","08","06:00","21.3","","15.9","","71","","14","","11","","24.1","","98.66","","26","","","","Mostly Cloudy"
"2007-06-08 07:00","2007","06","08","07:00","23.0","","17.2","","70","","15","","11","","24.1","","98.68","","28","","","","Mostly Cloudy"
"2007-06-08 08:00","2007","06","08","08:00","24.8","","18.7","","69","","16","","11","","24.1","","98.66","","31","","","","Mainly Clear"
"2007-06-08 09:00","2007","06","08","09:00","28.2","","20.5","","63","","23","","20","","24.1","","98.63","","36","","","","Mainly Clear"
"2007-06-08 10:00","2007","06","08","10:00","29.2","","21.2","","62","","23","","22","","24.1","","98.60","","38","","","","Mostly Cloudy"
"2007-06-08 11:00","2007","06","08","11:00","30.2","","20.9","","58","","22","","19","","24.1","","98.55","","39","","","","Mostly Cloudy"
"2007-06-08 12:00","2007","06","08","12:00","30.6","","20.8","","56","","21","","30","","24.1","","98.52","","39","","","","Mostly Cloudy"
"2007-06-08 13:00","2007","06","08","13:00","31.2","","20.9","","54","","22","","24","","19.3","","98.52","","40","","","","Mostly Cloudy"
"2007-06-08 14:00","2007","06","08","14:00","31.2","","21.2","","55","","22","","28","","19.3","","98.41","","40","","","","Mostly Cloudy"
"2007-06-08 15:00","2007","06","08","15:00","31.0","","19.8","","51","","21","","32","","12.9","","98.35","","38","","","","Mostly Cloudy"
"2007-06-08 16:00","2007","06","08","16:00","19.4","","18.1","","92","","26","","28","","6.4","","98.67","","","","","","Thunderstorms,Rain Showers"
"2007-06-08 17:00","2007","06","08","17:00","21.2","","18.2","","83","","25","","13","","24.1","","98.55","","27","","","","Rain Showers"
"2007-06-08 18:00","2007","06","08","18:00","21.9","","19.3","","85","","22","","13","","24.1","","98.70","","29","","","","Mostly Cloudy"
"2007-06-08 19:00","2007","06","08","19:00","21.6","","16.2","","71","","31","","50","","24.1","","98.93","","26","","","","Cloudy"
"2007-06-08 20:00","2007","06","08","20:00","17.8","","9.9","","60","","32","","54","","24.1","","99.17","","","","","","Mostly Cloudy"
"2007-06-08 21:00","2007","06","08","21:00","16.0","","8.8","","62","","32","","30","","24.1","","99.33","","","","","","Mainly Clear"
"2007-06-08 22:00","2007","06","08","22:00","15.2","","9.0","","66","","32","","28","","24.1","","99.39","","","","","","Clear"
"2007-06-08 23:00","2007","06","08","23:00","14.2","","8.4","","68","","31","","32","","24.1","","99.46","","","","","","Clear"
"2007-06-09 00:00","2007","06","09","00:00","13.5","","8.3","","71","","32","","26","","24.1","","99.54","","","","","","Clear"
"2007-06-09 01:00","2007","06","09","01:00","12.9","","7.9","","72","","32","","28","","24.1","","99.57","","","","","","Clear"
"2007-06-09 02:00","2007","06","09","02:00","12.0","","7.4","","73","","33","","26","","24.1","","99.60","","","","","","Clear"
"2007-06-09 03:00","2007","06","09","03:00","11.2","","7.4","","77","","33","","19","","24.1","","99.65","","","","","","Clear"
"2007-06-09 04:00","2007","06","09","04:00","10.9","","7.2","","78","","33","","19","","24.1","","99.71","","","","","","Clear"
"2007-06-09 05:00","2007","06","09","05:00","10.5","","7.1","","79","","34","","13","","24.1","","99.79","","","","","","Clear"
"2007-06-09 06:00","2007","06","09","06:00","11.9","","6.8","","71","","34","","19","","24.1","","99.88","","","","","","Clear"
"2007-06-09 07:00","2007","06","09","07:00","13.4","","7.3","","67","","36","","15","","24.1","","99.94","","","","","","Clear"
"2007-06-09 08:00","2007","06","09","08:00","15.6","","7.9","","60","","1","","20","","24.1","","99.98","","","","","","Clear"
"2007-06-09 09:00","2007","06","09","09:00","16.9","","8.8","","59","","1","","15","","24.1","","99.99","","","","","","Clear"
"2007-06-09 10:00","2007","06","09","10:00","18.5","","9.3","","55","","35","","19","","24.1","","99.99","","","","","","Clear"
"2007-06-09 11:00","2007","06","09","11:00","19.8","","9.2","","50","","1","","19","","24.1","","99.99","","","","","","Clear"
"2007-06-09 12:00","2007","06","09","12:00","19.8","","9.3","","51","","1","","17","","24.1","","99.95","","","","","","Clear"
"2007-06-09 13:00","2007","06","09","13:00","20.6","","10.4","","52","","32","","17","","24.1","","99.89","","","","","","Clear"
"2007-06-09 14:00","2007","06","09","14:00","20.6","","9.7","","50","","31","","9","","24.1","","99.84","","","","","","Clear"
"2007-06-09 15:00","2007","06","09","15:00","21.6","","9.8","","47","","33","","19","","24.1","","99.80","","","","","","Clear"
"2007-06-09 16:00","2007","06","09","16:00","21.9","","9.5","","45","","32","","11","","24.1","","99.78","","","","","","Clear"
"2007-06-09 17:00","2007","06","09","17:00","21.7","","7.5","","40","","31","","20","","24.1","","99.77","","","","","","Clear"
"2007-06-09 18:00","2007","06","09","18:00","20.9","","5.0","","35","","35","","17","","24.1","","99.77","","","","","","Clear"
"2007-06-09 19:00","2007","06","09","19:00","20.0","","5.5","","39","","36","","13","","24.1","","99.77","","","","","","Clear"
"2007-06-09 20:00","2007","06","09","20:00","18.8","","6.3","","44","","2","","7","","24.1","","99.73","","","","","","Clear"
"2007-06-09 21:00","2007","06","09","21:00","17.5","","6.4","","48","","36","","9","","24.1","","99.74","","","","","","Clear"
"2007-06-09 22:00","2007","06","09","22:00","16.2","","6.3","","52","","36","","11","","24.1","","99.75","","","","","","Clear"
"2007-06-09 23:00","2007","06","09","23:00","15.1","","6.5","","56","","34","","19","","24.1","","99.76","","","","","","Clear"
"2007-06-10 00:00","2007","06","10","00:00","14.2","","5.5","","56","","33","","13","","24.1","","99.77","","","","","","Clear"
"2007-06-10 01:00","2007","06","10","01:00","13.5","","5.3","","58","","33","","9","","24.1","","99.76","","","","","","Clear"
"2007-06-10 02:00","2007","06","10","02:00","13.0","","4.9","","58","","36","","7","","24.1","","99.76","","","","","","Clear"
"2007-06-10 03:00","2007","06","10","03:00","12.7","","4.2","","56","","32","","7","","24.1","","99.77","","","","","","Clear"
"2007-06-10 04:00","2007","06","10","04:00","11.2","","4.7","","64","","2","","7","","24.1","","99.77","","","","","","Clear"
"2007-06-10 05:00","2007","06","10","05:00","10.9","","5.3","","68","","36","","9","","24.1","","99.82","","","","","","Clear"
"2007-06-10 06:00","2007","06","10","06:00","13.3","","5.7","","60","","1","","9","","24.1","","99.89","","","","","","Clear"
"2007-06-10 07:00","2007","06","10","07:00","15.5","","6.8","","56","","36","","7","","24.1","","99.90","","","","","","Clear"
"2007-06-10 08:00","2007","06","10","08:00","18.1","","8.0","","52","","2","","9","","24.1","","99.93","","","","","","Clear"
"2007-06-10 09:00","2007","06","10","09:00","19.0","","7.9","","48","","29","","7","","24.1","","99.93","","","","","","Clear"
"2007-06-10 10:00","2007","06","10","10:00","20.8","","9.2","","47","","30","","7","","24.1","","99.90","","","","","","Clear"
"2007-06-10 11:00","2007","06","10","11:00","21.3","","8.4","","44","","5","","6","","24.1","","99.90","","","","","","Clear"
"2007-06-10 12:00","2007","06","10","12:00","22.7","","9.8","","44","","36","","7","","24.1","","99.90","","","","","","Clear"
"2007-06-10 13:00","2007","06","10","13:00","23.6","","9.7","","41","","33","","13","","24.1","","99.84","","25","","","","Clear"
"2007-06-10 14:00","2007","06","10","14:00","24.3","","9.8","","40","","34","","19","","24.1","","99.77","","25","","","","Clear"
"2007-06-10 15:00","2007","06","10","15:00","24.4","","9.2","","38","","34","","17","","24.1","","99.71","","25","","","","Mainly Clear"
"2007-06-10 16:00","2007","06","10","16:00","24.3","","9.5","","39","","15","","13","","24.1","","99.74","","25","","","","Mainly Clear"
"2007-06-10 17:00","2007","06","10","17:00","23.1","","9.3","","41","","14","","15","","24.1","","99.72","","","","","","Mainly Clear"
"2007-06-10 18:00","2007","06","10","18:00","22.0","","8.7","","43","","14","","13","","24.1","","99.77","","","","","","Mainly Clear"
"2007-06-10 19:00","2007","06","10","19:00","20.6","","8.7","","46","","15","","9","","24.1","","99.80","","","","","","Mainly Clear"
"2007-06-10 20:00","2007","06","10","20:00","20.8","","7.6","","42","","14","","4","","24.1","","99.81","","","","","","Clear"
"2007-06-10 21:00","2007","06","10","21:00","19.1","","8.5","","50","","","","0","","24.1","","99.85","","","","","","Clear"
"2007-06-10 22:00","2007","06","10","22:00","19.2","","9.9","","55","","31","","15","","24.1","","99.85","","","","","","Clear"
"2007-06-10 23:00","2007","06","10","23:00","18.9","","9.9","","56","","33","","13","","24.1","","99.85","","","","","","Clear"
"2007-06-11 00:00","2007","06","11","00:00","17.5","","9.4","","59","","33","","15","","24.1","","99.83","","","","","","Clear"
"2007-06-11 01:00","2007","06","11","01:00","16.4","","9.7","","65","","35","","17","","24.1","","99.85","","","","","","Clear"
"2007-06-11 02:00","2007","06","11","02:00","16.2","","9.0","","62","","35","","20","","24.1","","99.83","","","","","","Clear"
"2007-06-11 03:00","2007","06","11","03:00","15.3","","8.8","","65","","34","","20","","24.1","","99.86","","","","","","Clear"
"2007-06-11 04:00","2007","06","11","04:00","15.1","","8.3","","64","","34","","17","","24.1","","99.87","","","","","","Clear"
"2007-06-11 05:00","2007","06","11","05:00","14.5","","8.2","","66","","35","","15","","24.1","","99.92","","","","","","Clear"
"2007-06-11 06:00","2007","06","11","06:00","15.7","","8.6","","63","","33","","17","","24.1","","99.97","","","","","","Mainly Clear"
"2007-06-11 07:00","2007","06","11","07:00","17.7","","9.4","","58","","34","","13","","24.1","","100.00","","","","","","Mainly Clear"
"2007-06-11 08:00","2007","06","11","08:00","20.2","","11.2","","56","","35","","17","","24.1","","100.03","","","","","","Mainly Clear"
"2007-06-11 09:00","2007","06","11","09:00","21.9","","11.1","","50","","34","","17","","24.1","","100.03","","","","","","Clear"
"2007-06-11 10:00","2007","06","11","10:00","23.4","","12.0","","49","","32","","11","","24.1","","100.00","","26","","","","Mainly Clear"
"2007-06-11 11:00","2007","06","11","11:00","24.4","","11.4","","44","","32","","6","","24.1","","99.97","","26","","","","Clear"
"2007-06-11 12:00","2007","06","11","12:00","25.6","","11.3","","41","","5","","15","","24.1","","99.96","","28","","","","Mainly Clear"
"2007-06-11 13:00","2007","06","11","13:00","27.0","","9.8","","34","","11","","11","","24.1","","99.95","","28","","","","Mainly Clear"
"2007-06-11 14:00","2007","06","11","14:00","26.8","","12.3","","41","","13","","11","","24.1","","99.90","","29","","","","Mainly Clear"
"2007-06-11 15:00","2007","06","11","15:00","27.0","","11.0","","37","","16","","13","","24.1","","99.87","","29","","","","Mainly Clear"
"2007-06-11 16:00","2007","06","11","16:00","26.5","","10.2","","36","","15","","13","","24.1","","99.86","","28","","","","Mainly Clear"
"2007-06-11 17:00","2007","06","11","17:00","26.3","","10.6","","37","","17","","11","","24.1","","99.86","","28","","","","Mainly Clear"
"2007-06-11 18:00","2007","06","11","18:00","26.2","","10.5","","37","","16","","6","","24.1","","99.86","","28","","","","Mainly Clear"
"2007-06-11 19:00","2007","06","11","19:00","25.3","","11.4","","42","","36","","11","","24.1","","99.88","","27","","","","Clear"
"2007-06-11 20:00","2007","06","11","20:00","22.6","","10.6","","47","","34","","19","","24.1","","99.90","","","","","","Clear"
"2007-06-11 21:00","2007","06","11","21:00","21.4","","9.0","","45","","35","","26","","24.1","","99.95","","","","","","Clear"
"2007-06-11 22:00","2007","06","11","22:00","20.5","","8.5","","46","","36","","22","","24.1","","99.98","","","","","","Clear"
"2007-06-11 23:00","2007","06","11","23:00","20.1","","7.8","","45","","35","","26","","24.1","","99.95","","","","","","Clear"
"2007-06-12 00:00","2007","06","12","00:00","19.1","","8.5","","50","","35","","26","","24.1","","99.95","","","","","","Clear"
"2007-06-12 01:00","2007","06","12","01:00","18.6","","8.9","","53","","35","","24","","24.1","","99.94","","","","","","Clear"
"2007-06-12 02:00","2007","06","12","02:00","18.2","","9.3","","56","","35","","26","","24.1","","99.95","","","","","","Clear"
"2007-06-12 03:00","2007","06","12","03:00","17.6","","9.9","","61","","36","","17","","24.1","","99.95","","","","","","Clear"
"2007-06-12 04:00","2007","06","12","04:00","17.6","","10.2","","62","","35","","15","","24.1","","99.96","","","","","","Clear"
"2007-06-12 05:00","2007","06","12","05:00","17.4","","10.6","","64","","35","","19","","24.1","","99.99","","","","","","Clear"
"2007-06-12 06:00","2007","06","12","06:00","18.6","","11.2","","62","","34","","13","","24.1","","100.04","","","","","","Clear"
"2007-06-12 07:00","2007","06","12","07:00","20.4","","11.8","","58","","34","","19","","24.1","","100.08","","","","","","Mainly Clear"
"2007-06-12 08:00","2007","06","12","08:00","22.2","","13.0","","56","","34","","17","","24.1","","100.09","","25","","","","Mainly Clear"
"2007-06-12 09:00","2007","06","12","09:00","24.5","","14.1","","52","","36","","9","","24.1","","100.06","","28","","","","Clear"
"2007-06-12 10:00","2007","06","12","10:00","26.7","","14.7","","48","","35","","9","","24.1","","100.05","","30","","","","Clear"
"2007-06-12 11:00","2007","06","12","11:00","29.0","","14.6","","41","","36","","13","","24.1","","100.01","","33","","","","Clear"
"2007-06-12 12:00","2007","06","12","12:00","30.1","","14.2","","38","","32","","7","","24.1","","99.97","","34","","","","Clear"
"2007-06-12 13:00","2007","06","12","13:00","31.0","","12.4","","32","","34","","19","","24.1","","99.91","","33","","","","Mainly Clear"
"2007-06-12 14:00","2007","06","12","14:00","31.0","","13.2","","34","","34","","19","","24.1","","99.89","","34","","","","Mainly Clear"
"2007-06-12 15:00","2007","06","12","15:00","31.3","","13.5","","34","","34","","28","","24.1","","99.86","","34","","","","Mainly Clear"
"2007-06-12 16:00","2007","06","12","16:00","31.4","","13.2","","33","","33","","28","","24.1","","99.82","","34","","","","Mainly Clear"
"2007-06-12 17:00","2007","06","12","17:00","30.7","","12.9","","34","","34","","28","","24.1","","99.82","","33","","","","Mainly Clear"
"2007-06-12 18:00","2007","06","12","18:00","29.6","","13.2","","37","","35","","20","","24.1","","99.81","","33","","","","Clear"
"2007-06-12 19:00","2007","06","12","19:00","28.2","","13.1","","39","","36","","30","","24.1","","99.79","","31","","","","Clear"
"2007-06-12 20:00","2007","06","12","20:00","25.7","","12.9","","45","","35","","20","","24.1","","99.77","","28","","","","Clear"
"2007-06-12 21:00","2007","06","12","21:00","24.2","","11.8","","46","","35","","24","","24.1","","99.81","","26","","","","Clear"
"2007-06-12 22:00","2007","06","12","22:00","23.0","","11.1","","47","","35","","24","","24.1","","99.84","","25","","","","Clear"
"2007-06-12 23:00","2007","06","12","23:00","21.9","","10.9","","50","","35","","24","","24.1","","99.79","","","","","","Clear"
"2007-06-13 00:00","2007","06","13","00:00","21.2","","10.5","","50","","35","","20","","24.1","","99.78","","","","","","Clear"
"2007-06-13 01:00","2007","06","13","01:00","20.9","","10.4","","51","","35","","19","","24.1","","99.75","","","","","","Clear"
"2007-06-13 02:00","2007","06","13","02:00","20.6","","10.2","","51","","35","","22","","24.1","","99.76","","","","","","Clear"
"2007-06-13 03:00","2007","06","13","03:00","20.5","","10.1","","51","","34","","24","","24.1","","99.72","","","","","","Clear"
"2007-06-13 04:00","2007","06","13","04:00","20.0","","10.4","","54","","35","","20","","24.1","","99.74","","","","","","Mostly Cloudy"
"2007-06-13 05:00","2007","06","13","05:00","20.2","","10.7","","54","","35","","22","","24.1","","99.75","","","","","","Mostly Cloudy"
"2007-06-13 06:00","2007","06","13","06:00","20.9","","11.3","","54","","36","","20","","24.1","","99.78","","","","","","Mainly Clear"
"2007-06-13 07:00","2007","06","13","07:00","22.0","","11.9","","53","","2","","19","","24.1","","99.82","","","","","","Mainly Clear"
"2007-06-13 08:00","2007","06","13","08:00","24.7","","14.6","","53","","36","","17","","24.1","","99.82","","28","","","","Mainly Clear"
"2007-06-13 09:00","2007","06","13","09:00","25.5","","14.4","","50","","3","","11","","24.1","","99.81","","29","","","","Mainly Clear"
"2007-06-13 10:00","2007","06","13","10:00","27.1","","15.4","","49","","8","","13","","24.1","","99.83","","31","","","","Mainly Clear"
"2007-06-13 11:00","2007","06","13","11:00","26.0","","16.7","","57","","10","","24","","24.1","","99.86","","31","","","","Mainly Clear"
"2007-06-13 12:00","2007","06","13","12:00","27.2","","16.4","","52","","15","","17","","24.1","","99.81","","32","","","","Clear"
"2007-06-13 13:00","2007","06","13","13:00","28.1","","16.3","","49","","14","","6","","24.1","","99.76","","33","","","","Clear"
"2007-06-13 14:00","2007","06","13","14:00","29.0","","16.4","","47","","18","","7","","24.1","","99.70","","34","","","","Clear"
"2007-06-13 15:00","2007","06","13","15:00","29.7","","15.8","","43","","13","","19","","24.1","","99.65","","34","","","","Clear"
"2007-06-13 16:00","2007","06","13","16:00","26.2","","13.7","","46","","12","","15","","24.1","","99.68","","29","","","","Mainly Clear"
"2007-06-13 17:00","2007","06","13","17:00","25.9","","12.8","","44","","13","","19","","24.1","","99.66","","29","","","","Mainly Clear"
"2007-06-13 18:00","2007","06","13","18:00","25.4","","11.8","","43","","13","","15","","24.1","","99.67","","28","","","","Mostly Cloudy"
"2007-06-13 19:00","2007","06","13","19:00","25.1","","12.2","","45","","14","","11","","24.1","","99.67","","27","","","","Mostly Cloudy"
"2007-06-13 20:00","2007","06","13","20:00","24.4","","11.9","","46","","13","","6","","24.1","","99.70","","27","","","","Mostly Cloudy"
"2007-06-13 21:00","2007","06","13","21:00","24.7","","12.4","","46","","","","0","","24.1","","99.72","","27","","","","Mainly Clear"
"2007-06-13 22:00","2007","06","13","22:00","24.6","","12.3","","46","","10","","6","","24.1","","99.76","","27","","","","Clear"
"2007-06-13 23:00","2007","06","13","23:00","22.8","","12.4","","52","","13","","9","","24.1","","99.80","","25","","","","Mainly Clear"
"2007-06-14 00:00","2007","06","14","00:00","20.8","","12.6","","59","","12","","9","","24.1","","99.82","","","","","","Clear"
"2007-06-14 01:00","2007","06","14","01:00","19.7","","12.1","","62","","16","","6","","24.1","","99.85","","","","","","Mainly Clear"
"2007-06-14 02:00","2007","06","14","02:00","19.5","","12.0","","62","","7","","6","","24.1","","99.84","","","","","","Mainly Clear"
"2007-06-14 03:00","2007","06","14","03:00","19.3","","11.3","","60","","5","","9","","24.1","","99.82","","","","","","Mainly Clear"
"2007-06-14 04:00","2007","06","14","04:00","19.0","","11.5","","62","","5","","9","","24.1","","99.81","","","","","","Clear"
"2007-06-14 05:00","2007","06","14","05:00","18.4","","11.8","","65","","5","","9","","24.1","","99.80","","","","","","Clear"
"2007-06-14 06:00","2007","06","14","06:00","18.9","","12.7","","67","","7","","19","","24.1","","99.88","","","","","","Clear"
"2007-06-14 07:00","2007","06","14","07:00","19.0","","13.6","","71","","7","","17","","24.1","","99.89","","","","","","Clear"
"2007-06-14 08:00","2007","06","14","08:00","19.9","","14.7","","72","","5","","15","","24.1","","99.93","","","","","","Clear"
"2007-06-14 09:00","2007","06","14","09:00","21.2","","15.6","","70","","7","","11","","24.1","","99.94","","26","","","","Clear"
"2007-06-14 10:00","2007","06","14","10:00","22.3","","16.2","","68","","9","","19","","24.1","","99.96","","27","","","","Clear"
"2007-06-14 11:00","2007","06","14","11:00","22.2","","15.0","","64","","8","","24","","24.1","","99.98","","26","","","","Clear"
"2007-06-14 12:00","2007","06","14","12:00","23.3","","13.3","","53","","9","","20","","24.1","","99.95","","26","","","","Clear"
"2007-06-14 13:00","2007","06","14","13:00","24.3","","12.8","","49","","10","","17","","24.1","","99.92","","27","","","","Clear"
"2007-06-14 14:00","2007","06","14","14:00","24.4","","10.6","","42","","7","","20","","24.1","","99.89","","26","","","","Clear"
"2007-06-14 15:00","2007","06","14","15:00","24.1","","9.2","","39","","9","","24","","24.1","","99.83","","25","","","","Mainly Clear"
"2007-06-14 16:00","2007","06","14","16:00","23.8","","8.6","","38","","10","","19","","24.1","","99.81","","","","","","Mainly Clear"
"2007-06-14 17:00","2007","06","14","17:00","23.8","","8.7","","38","","9","","17","","24.1","","99.81","","25","","","","Mainly Clear"
"2007-06-14 18:00","2007","06","14","18:00","22.5","","8.4","","40","","8","","17","","24.1","","99.81","","","","","","Mostly Cloudy"
"2007-06-14 19:00","2007","06","14","19:00","21.8","","8.3","","42","","9","","11","","24.1","","99.83","","","","","","Mostly Cloudy"
"2007-06-14 20:00","2007","06","14","20:00","20.9","","9.1","","47","","9","","9","","24.1","","99.84","","","","","","Mostly Cloudy"
"2007-06-14 21:00","2007","06","14","21:00","20.0","","9.3","","50","","16","","4","","24.1","","99.82","","","","","","Mostly Cloudy"
"2007-06-14 22:00","2007","06","14","22:00","19.6","","9.3","","51","","10","","4","","24.1","","99.81","","","","","","Mostly Cloudy"
"2007-06-14 23:00","2007","06","14","23:00","19.8","","9.6","","52","","7","","6","","24.1","","99.80","","","","","","Mostly Cloudy"
"2007-06-15 00:00","2007","06","15","00:00","18.7","","10.0","","57","","7","","4","","24.1","","99.81","","","","","","Mostly Cloudy"
"2007-06-15 01:00","2007","06","15","01:00","18.6","","9.9","","57","","8","","4","","24.1","","99.79","","","","","","Mostly Cloudy"
"2007-06-15 02:00","2007","06","15","02:00","17.9","","9.7","","59","","2","","4","","24.1","","99.80","","","","","","Mainly Clear"
"2007-06-15 03:00","2007","06","15","03:00","16.3","","10.8","","70","","32","","6","","24.1","","99.76","","","","","","Clear"
"2007-06-15 04:00","2007","06","15","04:00","15.9","","10.9","","72","","32","","9","","24.1","","99.78","","","","","","Mostly Cloudy"
"2007-06-15 05:00","2007","06","15","05:00","15.0","","10.7","","75","","33","","6","","24.1","","99.81","","","","","","Mostly Cloudy"
"2007-06-15 06:00","2007","06","15","06:00","17.3","","11.6","","69","","","","0","","24.1","","99.85","","","","","","Mainly Clear"
"2007-06-15 07:00","2007","06","15","07:00","19.6","","11.3","","59","","1","","6","","24.1","","99.89","","","","","","Mainly Clear"
"2007-06-15 08:00","2007","06","15","08:00","21.3","","12.8","","58","","27","","13","","24.1","","99.91","","","","","","Mostly Cloudy"
"2007-06-15 09:00","2007","06","15","09:00","23.0","","13.6","","55","","24","","9","","24.1","","99.90","","26","","","","Mostly Cloudy"
"2007-06-15 10:00","2007","06","15","10:00","24.0","","13.2","","51","","23","","7","","24.1","","99.89","","27","","","","Mainly Clear"
"2007-06-15 11:00","2007","06","15","11:00","24.9","","12.3","","45","","15","","6","","24.1","","99.83","","27","","","","Mainly Clear"
"2007-06-15 12:00","2007","06","15","12:00","25.6","","14.1","","49","","18","","11","","24.1","","99.79","","29","","","","Mainly Clear"
"2007-06-15 13:00","2007","06","15","13:00","25.6","","13.4","","47","","15","","19","","24.1","","99.74","","29","","","","Mainly Clear"
"2007-06-15 14:00","2007","06","15","14:00","25.8","","13.0","","45","","15","","20","","24.1","","99.69","","29","","","","Mainly Clear"
"2007-06-15 15:00","2007","06","15","15:00","25.2","","12.3","","45","","16","","20","","24.1","","99.65","","28","","","","Mainly Clear"
"2007-06-15 16:00","2007","06","15","16:00","25.2","","11.4","","42","","14","","20","","24.1","","99.61","","27","","","","Mainly Clear"
"2007-06-15 17:00","2007","06","15","17:00","25.4","","11.5","","42","","17","","17","","24.1","","99.57","","27","","","","Mostly Cloudy"
"2007-06-15 18:00","2007","06","15","18:00","24.5","","9.6","","39","","14","","15","","24.1","","99.54","","26","","","","Mostly Cloudy"
"2007-06-15 19:00","2007","06","15","19:00","24.0","","8.9","","38","","17","","9","","24.1","","99.54","","25","","","","Mostly Cloudy"
"2007-06-15 20:00","2007","06","15","20:00","23.0","","9.2","","41","","15","","6","","24.1","","99.52","","","","","","Mostly Cloudy"
"2007-06-15 21:00","2007","06","15","21:00","22.6","","9.1","","42","","15","","6","","24.1","","99.53","","","","","","Mostly Cloudy"
"2007-06-15 22:00","2007","06","15","22:00","22.1","","9.3","","44","","","","0","","24.1","","99.55","","","","","","Mostly Cloudy"
"2007-06-15 23:00","2007","06","15","23:00","20.9","","9.5","","48","","23","","6","","24.1","","99.56","","","","","","Clear"
"2007-06-16 00:00","2007","06","16","00:00","20.9","","10.1","","50","","17","","4","","24.1","","99.56","","","","","","Mainly Clear"
"2007-06-16 01:00","2007","06","16","01:00","19.0","","11.1","","60","","16","","6","","24.1","","99.54","","","","","","Mainly Clear"
"2007-06-16 02:00","2007","06","16","02:00","18.5","","11.7","","65","","18","","6","","24.1","","99.50","","","","","","Mainly Clear"
"2007-06-16 03:00","2007","06","16","03:00","18.4","","11.8","","65","","26","","4","","24.1","","99.48","","","","","","Mainly Clear"
"2007-06-16 04:00","2007","06","16","04:00","17.8","","11.4","","66","","27","","7","","24.1","","99.47","","","","","","Mainly Clear"
"2007-06-16 05:00","2007","06","16","05:00","17.5","","11.2","","67","","29","","4","","24.1","","99.52","","","","","","Mostly Cloudy"
"2007-06-16 06:00","2007","06","16","06:00","18.4","","11.8","","65","","32","","13","","24.1","","99.55","","","","","","Mostly Cloudy"
"2007-06-16 07:00","2007","06","16","07:00","20.4","","12.2","","59","","32","","6","","24.1","","99.59","","","","","","Mostly Cloudy"
"2007-06-16 08:00","2007","06","16","08:00","22.3","","11.7","","51","","31","","6","","24.1","","99.60","","","","","","Mostly Cloudy"
"2007-06-16 09:00","2007","06","16","09:00","24.2","","12.6","","48","","28","","9","","24.1","","99.58","","27","","","","Mostly Cloudy"
"2007-06-16 10:00","2007","06","16","10:00","25.4","","12.3","","44","","","","0","","24.1","","99.58","","28","","","","Mostly Cloudy"
"2007-06-16 11:00","2007","06","16","11:00","26.9","","13.0","","42","","29","","15","","24.1","","99.55","","30","","","","Mostly Cloudy"
"2007-06-16 12:00","2007","06","16","12:00","27.5","","12.8","","40","","11","","4","","24.1","","99.51","","30","","","","Mostly Cloudy"
"2007-06-16 13:00","2007","06","16","13:00","28.7","","13.7","","40","","31","","7","","24.1","","99.50","","32","","","","Mostly Cloudy"
"2007-06-16 14:00","2007","06","16","14:00","26.9","","13.2","","43","","27","","6","","19.3","","99.47","","30","","","","Rain Showers"
"2007-06-16 15:00","2007","06","16","15:00","26.9","","13.9","","45","","29","","19","","24.1","","99.41","","30","","","","Mostly Cloudy"
"2007-06-16 16:00","2007","06","16","16:00","26.5","","13.5","","45","","24","","13","","24.1","","99.36","","30","","","","Mostly Cloudy"
"2007-06-16 17:00","2007","06","16","17:00","26.7","","13.6","","44","","22","","9","","24.1","","99.30","","30","","","","Mostly Cloudy"
"2007-06-16 18:00","2007","06","16","18:00","26.7","","13.8","","45","","18","","9","","24.1","","99.28","","30","","","","Mostly Cloudy"
"2007-06-16 19:00","2007","06","16","19:00","25.8","","14.4","","49","","15","","7","","24.1","","99.28","","29","","","","Mostly Cloudy"
"2007-06-16 20:00","2007","06","16","20:00","24.7","","13.9","","51","","26","","13","","24.1","","99.27","","28","","","","Mostly Cloudy"
"2007-06-16 21:00","2007","06","16","21:00","24.3","","14.3","","54","","24","","19","","24.1","","99.30","","28","","","","Mostly Cloudy"
"2007-06-16 22:00","2007","06","16","22:00","23.3","","13.8","","55","","24","","15","","24.1","","99.30","","27","","","","Mainly Clear"
"2007-06-16 23:00","2007","06","16","23:00","21.7","","13.4","","59","","23","","9","","24.1","","99.30","","25","","","","Mostly Cloudy"
"2007-06-17 00:00","2007","06","17","00:00","20.9","","12.3","","58","","23","","9","","24.1","","99.24","","","","","","Mainly Clear"
"2007-06-17 01:00","2007","06","17","01:00","20.9","","12.3","","58","","25","","6","","24.1","","99.22","","","","","","Mostly Cloudy"
"2007-06-17 02:00","2007","06","17","02:00","20.2","","12.8","","62","","27","","7","","24.1","","99.21","","","","","","Mostly Cloudy"
"2007-06-17 03:00","2007","06","17","03:00","20.6","","12.7","","61","","31","","7","","24.1","","99.23","","","","","","Mainly Clear"
"2007-06-17 04:00","2007","06","17","04:00","20.1","","12.8","","63","","25","","4","","24.1","","99.19","","","","","","Mainly Clear"
"2007-06-17 05:00","2007","06","17","05:00","20.2","","13.0","","63","","21","","4","","24.1","","99.21","","","","","","Mostly Cloudy"
"2007-06-17 06:00","2007","06","17","06:00","21.3","","13.7","","62","","22","","9","","24.1","","99.22","","","","","","Mostly Cloudy"
"2007-06-17 07:00","2007","06","17","07:00","22.1","","15.8","","67","","26","","7","","24.1","","99.22","","27","","","","Mostly Cloudy"
"2007-06-17 08:00","2007","06","17","08:00","23.9","","17.1","","66","","35","","15","","24.1","","99.28","","29","","","","Mostly Cloudy"
"2007-06-17 09:00","2007","06","17","09:00","24.9","","18.2","","66","","33","","19","","24.1","","99.28","","31","","","","Mainly Clear"
"2007-06-17 10:00","2007","06","17","10:00","25.9","","18.6","","64","","34","","13","","24.1","","99.28","","32","","","","Mainly Clear"
"2007-06-17 11:00","2007","06","17","11:00","26.0","","18.1","","62","","1","","22","","24.1","","99.31","","32","","","","Mostly Cloudy"
"2007-06-17 12:00","2007","06","17","12:00","27.4","","17.4","","54","","33","","15","","24.1","","99.29","","33","","","","Mostly Cloudy"
"2007-06-17 13:00","2007","06","17","13:00","27.2","","15.7","","49","","36","","26","","24.1","","99.31","","32","","","","Mostly Cloudy"
"2007-06-17 14:00","2007","06","17","14:00","27.7","","16.5","","51","","35","","26","","24.1","","99.30","","33","","","","Mostly Cloudy"
"2007-06-17 15:00","2007","06","17","15:00","28.7","","15.5","","45","","35","","22","","24.1","","99.28","","33","","","","Mostly Cloudy"
"2007-06-17 16:00","2007","06","17","16:00","27.5","","15.6","","48","","36","","30","","24.1","","99.30","","32","","","","Mostly Cloudy"
"2007-06-17 17:00","2007","06","17","17:00","26.6","","14.3","","47","","34","","22","","24.1","","99.31","","30","","","","Mostly Cloudy"
"2007-06-17 18:00","2007","06","17","18:00","26.1","","14.1","","48","","35","","24","","24.1","","99.35","","30","","","","Mainly Clear"
"2007-06-17 19:00","2007","06","17","19:00","24.5","","13.7","","51","","36","","26","","24.1","","99.39","","28","","","","Mainly Clear"
"2007-06-17 20:00","2007","06","17","20:00","23.0","","14.3","","58","","36","","20","","24.1","","99.44","","27","","","","Mainly Clear"
"2007-06-17 21:00","2007","06","17","21:00","21.5","","14.0","","62","","34","","24","","24.1","","99.50","","25","","","","Clear"
"2007-06-17 22:00","2007","06","17","22:00","20.5","","13.8","","65","","35","","19","","24.1","","99.54","","","","","","Clear"
"2007-06-17 23:00","2007","06","17","23:00","19.6","","13.4","","67","","35","","17","","24.1","","99.54","","","","","","Clear"
"2007-06-18 00:00","2007","06","18","00:00","18.4","","13.5","","73","","36","","13","","24.1","","99.54","","","","","","Clear"
"2007-06-18 01:00","2007","06","18","01:00","17.9","","13.2","","74","","1","","11","","24.1","","99.53","","","","","","Clear"
"2007-06-18 02:00","2007","06","18","02:00","17.7","","13.0","","74","","32","","9","","24.1","","99.51","","","","","","Clear"
"2007-06-18 03:00","2007","06","18","03:00","16.8","","13.4","","80","","32","","11","","24.1","","99.50","","","","","","Clear"
"2007-06-18 04:00","2007","06","18","04:00","16.3","","13.2","","82","","36","","7","","24.1","","99.52","","","","","","Clear"
"2007-06-18 05:00","2007","06","18","05:00","15.8","","13.0","","83","","36","","6","","24.1","","99.56","","","","","","Mainly Clear"
"2007-06-18 06:00","2007","06","18","06:00","16.7","","13.6","","82","","4","","4","","24.1","","99.58","","","","","","Mainly Clear"
"2007-06-18 07:00","2007","06","18","07:00","20.8","","13.3","","62","","14","","7","","24.1","","99.61","","","","","","Mainly Clear"
"2007-06-18 08:00","2007","06","18","08:00","22.0","","13.4","","58","","15","","9","","24.1","","99.66","","25","","","","Clear"
"2007-06-18 09:00","2007","06","18","09:00","22.7","","14.2","","59","","11","","7","","24.1","","99.67","","26","","","","Mainly Clear"
"2007-06-18 10:00","2007","06","18","10:00","23.2","","14.3","","57","","15","","11","","24.1","","99.64","","27","","","","Mostly Cloudy"
"2007-06-18 11:00","2007","06","18","11:00","23.6","","15.2","","59","","13","","13","","24.1","","99.63","","28","","","","Mostly Cloudy"
"2007-06-18 12:00","2007","06","18","12:00","24.9","","15.7","","57","","15","","13","","24.1","","99.58","","29","","","","Mostly Cloudy"
"2007-06-18 13:00","2007","06","18","13:00","26.3","","16.6","","55","","13","","15","","24.1","","99.54","","31","","","","Mostly Cloudy"
"2007-06-18 14:00","2007","06","18","14:00","27.5","","16.6","","51","","14","","17","","24.1","","99.49","","33","","","","Clear"
"2007-06-18 15:00","2007","06","18","15:00","28.3","","16.7","","49","","14","","15","","24.1","","99.42","","33","","","","Clear"
"2007-06-18 16:00","2007","06","18","16:00","26.2","","15.5","","52","","14","","20","","24.1","","99.36","","30","","","","Clear"
"2007-06-18 17:00","2007","06","18","17:00","25.3","","13.8","","49","","12","","20","","24.1","","99.31","","29","","","","Clear"
"2007-06-18 18:00","2007","06","18","18:00","24.7","","14.9","","54","","12","","11","","24.1","","99.28","","29","","","","Clear"
"2007-06-18 19:00","2007","06","18","19:00","24.7","","14.9","","54","","11","","9","","24.1","","99.22","","29","","","","Clear"
"2007-06-18 20:00","2007","06","18","20:00","24.0","","14.9","","57","","10","","9","","24.1","","99.21","","28","","","","Clear"
"2007-06-18 21:00","2007","06","18","21:00","23.2","","15.1","","60","","10","","7","","24.1","","99.24","","27","","","","Clear"
"2007-06-18 22:00","2007","06","18","22:00","22.3","","15.1","","64","","10","","7","","24.1","","99.25","","26","","","","Clear"
"2007-06-18 23:00","2007","06","18","23:00","21.6","","15.5","","68","","8","","4","","24.1","","99.25","","26","","","","Clear"
"2007-06-19 00:00","2007","06","19","00:00","21.2","","15.6","","70","","11","","6","","24.1","","99.20","","26","","","","Clear"
"2007-06-19 01:00","2007","06","19","01:00","20.7","","15.5","","72","","9","","6","","24.1","","99.16","","25","","","","Mainly Clear"
"2007-06-19 02:00","2007","06","19","02:00","20.0","","15.7","","76","","17","","4","","24.1","","99.12","","","","","","Mainly Clear"
"2007-06-19 03:00","2007","06","19","03:00","20.1","","15.9","","77","","16","","6","","24.1","","99.08","","25","","","","Mainly Clear"
"2007-06-19 04:00","2007","06","19","04:00","19.9","","16.3","","80","","16","","7","","24.1","","99.06","","","","","","Mainly Clear"
"2007-06-19 05:00","2007","06","19","05:00","19.6","","16.6","","83","","16","","9","","24.1","","99.07","","","","","","Mostly Cloudy"
"2007-06-19 06:00","2007","06","19","06:00","20.2","","17.2","","83","","16","","9","","12.9","","99.05","","26","","","","Cloudy"
"2007-06-19 07:00","2007","06","19","07:00","21.6","","17.9","","79","","16","","9","","12.9","","99.04","","28","","","","Mostly Cloudy"
"2007-06-19 08:00","2007","06","19","08:00","24.0","","18.7","","72","","18","","11","","11.3","","99.05","","31","","","","Cloudy"
"2007-06-19 09:00","2007","06","19","09:00","27.2","","19.1","","61","","22","","24","","12.9","","99.01","","34","","","","Mostly Cloudy"
"2007-06-19 10:00","2007","06","19","10:00","28.9","","19.6","","57","","22","","26","","16.1","","98.98","","36","","","","Mostly Cloudy"
"2007-06-19 11:00","2007","06","19","11:00","29.2","","19.6","","56","","24","","28","","16.1","","98.93","","36","","","","Mostly Cloudy"
"2007-06-19 12:00","2007","06","19","12:00","29.8","","18.5","","51","","24","","39","","16.1","","98.94","","36","","","","Mostly Cloudy"
"2007-06-19 13:00","2007","06","19","13:00","29.1","","19.0","","55","","23","","32","","19.3","","98.83","","36","","","","Mostly Cloudy"
"2007-06-19 14:00","2007","06","19","14:00","28.0","","19.4","","60","","21","","22","","19.3","","98.76","","35","","","","Mostly Cloudy"
"2007-06-19 15:00","2007","06","19","15:00","19.9","","19.6","","98","","22","","9","","24.1","","98.84","","","","","","Thunderstorms,Rain Showers"
"2007-06-19 16:00","2007","06","19","16:00","22.2","","20.6","","91","","23","","15","","24.1","","98.81","","30","","","","Cloudy"
"2007-06-19 17:00","2007","06","19","17:00","23.0","","20.8","","87","","23","","13","","24.1","","98.82","","31","","","","Mostly Cloudy"
"2007-06-19 18:00","2007","06","19","18:00","23.4","","20.8","","85","","24","","19","","24.1","","98.85","","32","","","","Mostly Cloudy"
"2007-06-19 19:00","2007","06","19","19:00","23.6","","17.0","","67","","26","","13","","24.1","","98.90","","29","","","","Mostly Cloudy"
"2007-06-19 20:00","2007","06","19","20:00","22.3","","17.3","","73","","27","","13","","24.1","","98.92","","28","","","","Mostly Cloudy"
"2007-06-19 21:00","2007","06","19","21:00","19.6","","13.6","","68","","35","","28","","24.1","","99.10","","","","","","Mostly Cloudy"
"2007-06-19 22:00","2007","06","19","22:00","19.6","","10.7","","56","","32","","33","","24.1","","99.20","","","","","","Mainly Clear"
"2007-06-19 23:00","2007","06","19","23:00","18.7","","10.2","","58","","33","","19","","24.1","","99.27","","","","","","Mainly Clear"
"2007-06-20 00:00","2007","06","20","00:00","17.5","","10.3","","63","","32","","15","","24.1","","99.30","","","","","","Mainly Clear"
"2007-06-20 01:00","2007","06","20","01:00","15.3","","10.6","","74","","28","","13","","24.1","","99.34","","","","","","Clear"
"2007-06-20 02:00","2007","06","20","02:00","14.8","","10.2","","74","","27","","11","","24.1","","99.34","","","","","","Clear"
"2007-06-20 03:00","2007","06","20","03:00","14.1","","9.9","","76","","27","","13","","24.1","","99.38","","","","","","Clear"
"2007-06-20 04:00","2007","06","20","04:00","13.0","","9.8","","81","","27","","13","","24.1","","99.41","","","","","","Clear"
"2007-06-20 05:00","2007","06","20","05:00","13.2","","10.0","","81","","27","","17","","24.1","","99.45","","","","","","Clear"
"2007-06-20 06:00","2007","06","20","06:00","14.5","","10.2","","75","","28","","15","","24.1","","99.52","","","","","","Clear"
"2007-06-20 07:00","2007","06","20","07:00","16.3","","9.6","","64","","29","","26","","24.1","","99.59","","","","","","Clear"
"2007-06-20 08:00","2007","06","20","08:00","17.1","","8.9","","58","","31","","30","","24.1","","99.59","","","","","","Clear"
"2007-06-20 09:00","2007","06","20","09:00","17.4","","8.8","","57","","29","","37","","24.1","","99.62","","","","","","Mostly Cloudy"
"2007-06-20 10:00","2007","06","20","10:00","18.8","","7.8","","49","","28","","39","","24.1","","99.63","","","","","","Mainly Clear"
"2007-06-20 11:00","2007","06","20","11:00","19.4","","8.2","","48","","31","","30","","24.1","","99.64","","","","","","Mainly Clear"
"2007-06-20 12:00","2007","06","20","12:00","19.1","","8.9","","52","","35","","35","","24.1","","99.67","","","","","","Mostly Cloudy"
"2007-06-20 13:00","2007","06","20","13:00","20.5","","10.5","","53","","35","","26","","24.1","","99.67","","","","","","Mainly Clear"
"2007-06-20 14:00","2007","06","20","14:00","21.4","","10.5","","50","","31","","17","","24.1","","99.63","","","","","","Mainly Clear"
"2007-06-20 15:00","2007","06","20","15:00","22.3","","10.1","","46","","29","","15","","24.1","","99.62","","","","","","Clear"
"2007-06-20 16:00","2007","06","20","16:00","23.0","","9.3","","42","","30","","20","","24.1","","99.59","","","","","","Clear"
"2007-06-20 17:00","2007","06","20","17:00","22.7","","8.4","","40","","30","","26","","24.1","","99.56","","","","","","Clear"
"2007-06-20 18:00","2007","06","20","18:00","22.0","","7.2","","38","","29","","30","","24.1","","99.56","","","","","","Clear"
"2007-06-20 19:00","2007","06","20","19:00","20.4","","3.9","","34","","30","","24","","24.1","","99.59","","","","","","Clear"
"2007-06-20 20:00","2007","06","20","20:00","18.7","","5.7","","42","","30","","19","","24.1","","99.62","","","","","","Clear"
"2007-06-20 21:00","2007","06","20","21:00","17.4","","7.1","","51","","28","","13","","24.1","","99.68","","","","","","Clear"
"2007-06-20 22:00","2007","06","20","22:00","16.3","","7.8","","57","","23","","9","","24.1","","99.62","","","","","","Clear"
"2007-06-20 23:00","2007","06","20","23:00","15.8","","7.9","","59","","24","","9","","24.1","","99.58","","","","","","Clear"
"2007-06-21 00:00","2007","06","21","00:00","16.0","","8.9","","63","","25","","7","","24.1","","99.54","","","","","","Mostly Cloudy"
"2007-06-21 01:00","2007","06","21","01:00","17.0","","8.7","","58","","17","","6","","24.1","","99.48","","","","","","Mostly Cloudy"
"2007-06-21 02:00","2007","06","21","02:00","16.9","","9.0","","60","","23","","7","","24.1","","99.42","","","","","","Mostly Cloudy"
"2007-06-21 03:00","2007","06","21","03:00","16.6","","9.2","","62","","21","","9","","24.1","","99.36","","","","","","Mostly Cloudy"
"2007-06-21 04:00","2007","06","21","04:00","16.4","","9.2","","62","","19","","7","","24.1","","99.30","","","","","","Mainly Clear"
"2007-06-21 05:00","2007","06","21","05:00","16.7","","10.9","","69","","24","","11","","24.1","","99.28","","","","","","Mostly Cloudy"
"2007-06-21 06:00","2007","06","21","06:00","17.1","","12.0","","72","","24","","11","","24.1","","99.29","","","","","","Mainly Clear"
"2007-06-21 07:00","2007","06","21","07:00","18.5","","12.7","","69","","26","","15","","24.1","","99.24","","","","","","Mainly Clear"
"2007-06-21 08:00","2007","06","21","08:00","21.1","","13.8","","63","","27","","24","","24.1","","99.18","","","","","","Clear"
"2007-06-21 09:00","2007","06","21","09:00","22.2","","14.4","","61","","27","","22","","24.1","","99.15","","26","","","","Mostly Cloudy"
"2007-06-21 10:00","2007","06","21","10:00","23.9","","15.6","","60","","29","","19","","24.1","","99.10","","28","","","","Mainly Clear"
"2007-06-21 11:00","2007","06","21","11:00","24.6","","15.3","","56","","26","","24","","24.1","","99.05","","29","","","","Mostly Cloudy"
"2007-06-21 12:00","2007","06","21","12:00","26.5","","12.9","","43","","28","","43","","24.1","","99.06","","29","","","","Mainly Clear"
"2007-06-21 13:00","2007","06","21","13:00","25.7","","11.7","","42","","29","","37","","24.1","","99.06","","28","","","","Mainly Clear"
"2007-06-21 14:00","2007","06","21","14:00","25.6","","10.4","","38","","29","","43","","24.1","","99.08","","27","","","","Mainly Clear"
"2007-06-21 15:00","2007","06","21","15:00","24.5","","10.2","","40","","31","","33","","24.1","","99.08","","26","","","","Mainly Clear"
"2007-06-21 16:00","2007","06","21","16:00","22.7","","11.8","","50","","33","","33","","24.1","","99.10","","25","","","","Mainly Clear"
"2007-06-21 17:00","2007","06","21","17:00","23.4","","10.6","","44","","30","","39","","24.1","","99.15","","25","","","","Mainly Clear"
"2007-06-21 18:00","2007","06","21","18:00","22.3","","11.1","","49","","32","","32","","24.1","","99.19","","","","","","Mainly Clear"
"2007-06-21 19:00","2007","06","21","19:00","20.5","","11.9","","58","","35","","26","","24.1","","99.26","","","","","","Mainly Clear"
"2007-06-21 20:00","2007","06","21","20:00","19.9","","7.9","","46","","32","","28","","24.1","","99.30","","","","","","Mainly Clear"
"2007-06-21 21:00","2007","06","21","21:00","18.6","","9.0","","54","","29","","20","","24.1","","99.37","","","","","","Mainly Clear"
"2007-06-21 22:00","2007","06","21","22:00","17.5","","9.7","","60","","29","","26","","24.1","","99.40","","","","","","Mainly Clear"
"2007-06-21 23:00","2007","06","21","23:00","16.7","","9.0","","60","","31","","33","","24.1","","99.43","","","","","","Clear"
"2007-06-22 00:00","2007","06","22","00:00","16.3","","8.8","","61","","32","","24","","24.1","","99.47","","","","","","Clear"
"2007-06-22 01:00","2007","06","22","01:00","15.5","","8.4","","63","","33","","24","","24.1","","99.48","","","","","","Clear"
"2007-06-22 02:00","2007","06","22","02:00","14.9","","8.1","","64","","33","","22","","24.1","","99.47","","","","","","Clear"
"2007-06-22 03:00","2007","06","22","03:00","14.4","","8.3","","67","","34","","20","","24.1","","99.49","","","","","","Clear"
"2007-06-22 04:00","2007","06","22","04:00","13.8","","8.6","","71","","33","","26","","24.1","","99.55","","","","","","Clear"
"2007-06-22 05:00","2007","06","22","05:00","13.4","","8.9","","74","","33","","22","","24.1","","99.62","","","","","","Clear"
"2007-06-22 06:00","2007","06","22","06:00","13.9","","8.9","","72","","33","","26","","24.1","","99.65","","","","","","Clear"
"2007-06-22 07:00","2007","06","22","07:00","14.8","","8.7","","67","","34","","32","","24.1","","99.67","","","","","","Clear"
"2007-06-22 08:00","2007","06","22","08:00","16.2","","7.5","","56","","35","","35","","24.1","","99.70","","","","","","Clear"
"2007-06-22 09:00","2007","06","22","09:00","16.7","","6.7","","52","","35","","32","","24.1","","99.66","","","","","","Mainly Clear"
"2007-06-22 10:00","2007","06","22","10:00","18.3","","6.2","","45","","35","","28","","24.1","","99.66","","","","","","Mainly Clear"
"2007-06-22 11:00","2007","06","22","11:00","18.7","","6.8","","46","","32","","35","","24.1","","99.64","","","","","","Mainly Clear"
"2007-06-22 12:00","2007","06","22","12:00","19.6","","4.7","","37","","33","","43","","24.1","","99.66","","","","","","Mainly Clear"
"2007-06-22 13:00","2007","06","22","13:00","19.9","","5.4","","39","","33","","37","","24.1","","99.64","","","","","","Mainly Clear"
"2007-06-22 14:00","2007","06","22","14:00","20.3","","4.8","","36","","29","","33","","24.1","","99.61","","","","","","Mainly Clear"
"2007-06-22 15:00","2007","06","22","15:00","20.4","","4.9","","36","","36","","35","","24.1","","99.55","","","","","","Mainly Clear"
"2007-06-22 16:00","2007","06","22","16:00","20.0","","4.7","","37","","34","","41","","24.1","","99.54","","","","","","Clear"
"2007-06-22 17:00","2007","06","22","17:00","19.0","","4.4","","38","","35","","33","","24.1","","99.53","","","","","","Clear"
"2007-06-22 18:00","2007","06","22","18:00","18.0","","3.7","","39","","33","","37","","24.1","","99.54","","","","","","Mainly Clear"
"2007-06-22 19:00","2007","06","22","19:00","16.8","","1.8","","36","","34","","35","","24.1","","99.56","","","","","","Mainly Clear"
"2007-06-22 20:00","2007","06","22","20:00","15.4","","3.0","","43","","33","","22","","24.1","","99.55","","","","","","Mainly Clear"
"2007-06-22 21:00","2007","06","22","21:00","15.0","","3.3","","45","","33","","20","","24.1","","99.59","","","","","","Mainly Clear"
"2007-06-22 22:00","2007","06","22","22:00","13.9","","3.2","","48","","31","","13","","24.1","","99.59","","","","","","Mainly Clear"
"2007-06-22 23:00","2007","06","22","23:00","13.8","","2.9","","48","","32","","20","","24.1","","99.58","","","","","","Clear"
"2007-06-23 00:00","2007","06","23","00:00","12.5","","3.3","","53","","31","","17","","24.1","","99.58","","","","","","Clear"
"2007-06-23 01:00","2007","06","23","01:00","11.4","","3.5","","58","","34","","15","","24.1","","99.56","","","","","","Clear"
"2007-06-23 02:00","2007","06","23","02:00","11.3","","4.6","","63","","33","","22","","24.1","","99.61","","","","","","Clear"
"2007-06-23 03:00","2007","06","23","03:00","10.4","","5.1","","70","","35","","11","","24.1","","99.57","","","","","","Clear"
"2007-06-23 04:00","2007","06","23","04:00","10.0","","5.3","","73","","35","","11","","24.1","","99.62","","","","","","Clear"
"2007-06-23 05:00","2007","06","23","05:00","9.2","","5.4","","77","","36","","7","","24.1","","99.66","","","","","","Mainly Clear"
"2007-06-23 06:00","2007","06","23","06:00","11.9","","6.6","","70","","35","","9","","24.1","","99.71","","","","","","Clear"
"2007-06-23 07:00","2007","06","23","07:00","13.8","","7.3","","65","","36","","9","","24.1","","99.73","","","","","","Clear"
"2007-06-23 08:00","2007","06","23","08:00","15.3","","6.1","","54","","36","","6","","24.1","","99.76","","","","","","Clear"
"2007-06-23 09:00","2007","06","23","09:00","16.5","","4.6","","45","","31","","6","","24.1","","99.74","","","","","","Clear"
"2007-06-23 10:00","2007","06","23","10:00","18.5","","4.6","","40","","32","","17","","24.1","","99.73","","","","","","Clear"
"2007-06-23 11:00","2007","06","23","11:00","19.0","","5.6","","41","","35","","15","","24.1","","99.67","","","","","","Clear"
"2007-06-23 12:00","2007","06","23","12:00","19.6","","5.6","","40","","34","","4","","24.1","","99.61","","","","","","Clear"
"2007-06-23 13:00","2007","06","23","13:00","22.2","","7.1","","38","","32","","19","","24.1","","99.52","","","","","","Mostly Cloudy"
"2007-06-23 14:00","2007","06","23","14:00","21.6","","7.1","","39","","33","","9","","24.1","","99.54","","","","","","Mostly Cloudy"
"2007-06-23 15:00","2007","06","23","15:00","22.3","","7.7","","39","","32","","17","","24.1","","99.52","","","","","","Mostly Cloudy"
"2007-06-23 16:00","2007","06","23","16:00","21.6","","7.7","","41","","33","","17","","24.1","","99.49","","","","","","Mostly Cloudy"
"2007-06-23 17:00","2007","06","23","17:00","20.7","","7.5","","42","","36","","19","","24.1","","99.49","","","","","","Mostly Cloudy"
"2007-06-23 18:00","2007","06","23","18:00","20.1","","7.6","","44","","1","","15","","24.1","","99.48","","","","","","Mainly Clear"
"2007-06-23 19:00","2007","06","23","19:00","20.0","","7.8","","45","","36","","13","","24.1","","99.48","","","","","","Mostly Cloudy"
"2007-06-23 20:00","2007","06","23","20:00","19.1","","7.8","","48","","36","","9","","24.1","","99.51","","","","","","Mostly Cloudy"
"2007-06-23 21:00","2007","06","23","21:00","18.9","","7.6","","48","","36","","7","","24.1","","99.55","","","","","","Mostly Cloudy"
"2007-06-23 22:00","2007","06","23","22:00","18.3","","8.7","","53","","26","","4","","24.1","","99.55","","","","","","Mostly Cloudy"
"2007-06-23 23:00","2007","06","23","23:00","17.5","","8.4","","55","","","","0","","24.1","","99.57","","","","","","Mainly Clear"
"2007-06-24 00:00","2007","06","24","00:00","17.7","","7.9","","53","","","","0","","24.1","","99.57","","","","","","Mostly Cloudy"
"2007-06-24 01:00","2007","06","24","01:00","17.3","","7.7","","53","","26","","4","","24.1","","99.56","","","","","","Mainly Clear"
"2007-06-24 02:00","2007","06","24","02:00","16.5","","9.1","","62","","23","","6","","24.1","","99.55","","","","","","Clear"
"2007-06-24 03:00","2007","06","24","03:00","16.0","","9.8","","67","","29","","6","","24.1","","99.55","","","","","","Clear"
"2007-06-24 04:00","2007","06","24","04:00","15.7","","9.4","","66","","28","","6","","24.1","","99.59","","","","","","Mainly Clear"
"2007-06-24 05:00","2007","06","24","05:00","15.6","","9.6","","67","","20","","4","","24.1","","99.60","","","","","","Mainly Clear"
"2007-06-24 06:00","2007","06","24","06:00","16.7","","10.1","","65","","27","","6","","24.1","","99.65","","","","","","Mostly Cloudy"
"2007-06-24 07:00","2007","06","24","07:00","18.9","","10.0","","56","","28","","7","","24.1","","99.67","","","","","","Mostly Cloudy"
"2007-06-24 08:00","2007","06","24","08:00","21.2","","10.5","","50","","28","","13","","24.1","","99.72","","","","","","Mainly Clear"
"2007-06-24 09:00","2007","06","24","09:00","23.4","","11.1","","46","","24","","7","","24.1","","99.70","","25","","","","Mostly Cloudy"
"2007-06-24 10:00","2007","06","24","10:00","24.9","","11.8","","44","","27","","9","","24.1","","99.68","","27","","","","Mainly Clear"
"2007-06-24 11:00","2007","06","24","11:00","26.1","","12.8","","44","","16","","4","","24.1","","99.69","","29","","","","Mainly Clear"
"2007-06-24 12:00","2007","06","24","12:00","26.9","","12.1","","40","","24","","17","","24.1","","99.65","","29","","","","Mostly Cloudy"
"2007-06-24 13:00","2007","06","24","13:00","28.6","","12.6","","37","","27","","17","","24.1","","99.65","","31","","","","Mostly Cloudy"
"2007-06-24 14:00","2007","06","24","14:00","28.7","","12.8","","38","","27","","15","","24.1","","99.60","","31","","","","Mainly Clear"
"2007-06-24 15:00","2007","06","24","15:00","28.7","","13.1","","38","","23","","20","","24.1","","99.59","","32","","","","Mainly Clear"
"2007-06-24 16:00","2007","06","24","16:00","29.3","","12.7","","36","","25","","20","","24.1","","99.57","","32","","","","Mainly Clear"
"2007-06-24 17:00","2007","06","24","17:00","28.7","","12.2","","36","","27","","17","","24.1","","99.55","","31","","","","Mainly Clear"
"2007-06-24 18:00","2007","06","24","18:00","28.2","","12.8","","39","","26","","17","","24.1","","99.55","","31","","","","Mainly Clear"
"2007-06-24 19:00","2007","06","24","19:00","27.2","","11.7","","38","","26","","19","","24.1","","99.60","","29","","","","Mainly Clear"
"2007-06-24 20:00","2007","06","24","20:00","25.3","","11.0","","41","","24","","17","","24.1","","99.63","","27","","","","Mainly Clear"
"2007-06-24 21:00","2007","06","24","21:00","23.4","","11.1","","46","","24","","13","","24.1","","99.68","","25","","","","Mainly Clear"
"2007-06-24 22:00","2007","06","24","22:00","22.0","","11.3","","51","","24","","9","","24.1","","99.73","","","","","","Mainly Clear"
"2007-06-24 23:00","2007","06","24","23:00","21.6","","11.3","","52","","23","","9","","24.1","","99.74","","","","","","Clear"
"2007-06-25 00:00","2007","06","25","00:00","20.8","","11.2","","54","","28","","9","","24.1","","99.75","","","","","","Clear"
"2007-06-25 01:00","2007","06","25","01:00","18.7","","11.4","","62","","28","","6","","24.1","","99.76","","","","","","Clear"
"2007-06-25 02:00","2007","06","25","02:00","20.1","","11.0","","56","","27","","4","","24.1","","99.76","","","","","","Clear"
"2007-06-25 03:00","2007","06","25","03:00","18.4","","11.5","","64","","30","","7","","24.1","","99.81","","","","","","Clear"
"2007-06-25 04:00","2007","06","25","04:00","18.4","","11.4","","64","","27","","7","","24.1","","99.85","","","","","","Clear"
"2007-06-25 05:00","2007","06","25","05:00","17.5","","11.6","","68","","24","","6","","24.1","","99.91","","","","","","Mainly Clear"
"2007-06-25 06:00","2007","06","25","06:00","19.3","","13.8","","70","","24","","7","","24.1","","99.93","","","","","","Clear"
"2007-06-25 07:00","2007","06","25","07:00","20.9","","14.7","","68","","25","","7","","24.1","","99.96","","25","","","","Clear"
"2007-06-25 08:00","2007","06","25","08:00","23.4","","16.6","","66","","23","","7","","24.1","","99.96","","28","","","","Mainly Clear"
"2007-06-25 09:00","2007","06","25","09:00","25.4","","16.2","","57","","25","","7","","24.1","","99.98","","30","","","","Mainly Clear"
"2007-06-25 10:00","2007","06","25","10:00","27.2","","15.4","","48","","26","","9","","24.1","","99.97","","31","","","","Mainly Clear"
"2007-06-25 11:00","2007","06","25","11:00","29.0","","13.7","","39","","25","","11","","24.1","","99.95","","32","","","","Mainly Clear"
"2007-06-25 12:00","2007","06","25","12:00","29.8","","15.3","","41","","26","","20","","24.1","","99.97","","34","","","","Mainly Clear"
"2007-06-25 13:00","2007","06","25","13:00","30.7","","14.2","","37","","31","","7","","24.1","","99.97","","34","","","","Mainly Clear"
"2007-06-25 14:00","2007","06","25","14:00","31.4","","15.5","","38","","27","","7","","24.1","","99.92","","36","","","","Mainly Clear"
"2007-06-25 15:00","2007","06","25","15:00","31.3","","15.3","","38","","27","","15","","24.1","","99.87","","35","","","","Mostly Cloudy"
"2007-06-25 16:00","2007","06","25","16:00","31.9","","15.3","","37","","22","","11","","24.1","","99.89","","36","","","","Mostly Cloudy"
"2007-06-25 17:00","2007","06","25","17:00","31.8","","15.3","","37","","27","","19","","24.1","","99.89","","36","","","","Mostly Cloudy"
"2007-06-25 18:00","2007","06","25","18:00","31.1","","15.5","","39","","22","","17","","24.1","","99.88","","35","","","","Mostly Cloudy"
"2007-06-25 19:00","2007","06","25","19:00","30.1","","15.5","","41","","24","","11","","24.1","","99.91","","34","","","","Mostly Cloudy"
"2007-06-25 20:00","2007","06","25","20:00","28.2","","17.0","","51","","17","","9","","24.1","","99.94","","33","","","","Mostly Cloudy"
"2007-06-25 21:00","2007","06","25","21:00","27.7","","17.5","","54","","20","","11","","24.1","","99.97","","33","","","","Mostly Cloudy"
"2007-06-25 22:00","2007","06","25","22:00","26.1","","17.6","","60","","28","","11","","24.1","","100.01","","32","","","","Mainly Clear"
"2007-06-25 23:00","2007","06","25","23:00","25.0","","18.1","","66","","28","","13","","24.1","","100.03","","31","","","","Mainly Clear"
"2007-06-26 00:00","2007","06","26","00:00","23.2","","17.6","","71","","27","","7","","24.1","","100.08","","29","","","","Clear"
"2007-06-26 01:00","2007","06","26","01:00","23.6","","17.9","","70","","27","","15","","24.1","","100.11","","30","","","","Clear"
"2007-06-26 02:00","2007","06","26","02:00","22.6","","18.0","","75","","29","","9","","24.1","","100.11","","29","","","","Clear"
"2007-06-26 03:00","2007","06","26","03:00","21.5","","17.7","","79","","27","","6","","24.1","","100.13","","27","","","","Clear"
"2007-06-26 04:00","2007","06","26","04:00","21.2","","17.6","","80","","27","","7","","24.1","","100.14","","27","","","","Clear"
"2007-06-26 05:00","2007","06","26","05:00","20.4","","17.4","","83","","23","","6","","12.9","","100.16","","26","","","","Mainly Clear"
"2007-06-26 06:00","2007","06","26","06:00","22.2","","18.0","","77","","26","","6","","24.1","","100.16","","28","","","","Clear"
"2007-06-26 07:00","2007","06","26","07:00","23.8","","17.9","","70","","23","","11","","19.3","","100.18","","30","","","","Clear"
"2007-06-26 08:00","2007","06","26","08:00","26.1","","18.0","","61","","27","","9","","24.1","","100.21","","32","","","","Clear"
"2007-06-26 09:00","2007","06","26","09:00","28.9","","18.6","","54","","26","","11","","24.1","","100.20","","35","","","","Clear"
"2007-06-26 10:00","2007","06","26","10:00","30.7","","19.0","","50","","27","","17","","24.1","","100.17","","37","","","","Clear"
"2007-06-26 11:00","2007","06","26","11:00","31.7","","19.5","","48","","28","","17","","24.1","","100.16","","39","","","","Clear"
"2007-06-26 12:00","2007","06","26","12:00","32.4","","18.8","","45","","23","","15","","24.1","","100.12","","39","","","","Mainly Clear"
"2007-06-26 13:00","2007","06","26","13:00","33.3","","19.2","","43","","26","","19","","24.1","","100.06","","40","","","","Mainly Clear"
"2007-06-26 14:00","2007","06","26","14:00","34.2","","19.1","","41","","29","","19","","19.3","","100.02","","41","","","","Mostly Cloudy"
"2007-06-26 15:00","2007","06","26","15:00","34.1","","19.0","","41","","23","","15","","19.3","","99.97","","41","","","","Mostly Cloudy"
"2007-06-26 16:00","2007","06","26","16:00","31.2","","19.5","","50","","17","","17","","19.3","","99.91","","38","","","","Mostly Cloudy"
"2007-06-26 17:00","2007","06","26","17:00","31.0","","19.9","","52","","16","","17","","19.3","","99.85","","38","","","","Mostly Cloudy"
"2007-06-26 18:00","2007","06","26","18:00","32.1","","20.4","","50","","18","","13","","16.1","","99.78","","40","","","","Mostly Cloudy"
"2007-06-26 19:00","2007","06","26","19:00","31.5","","18.6","","46","","21","","26","","19.3","","99.77","","38","","","","Mainly Clear"
"2007-06-26 20:00","2007","06","26","20:00","29.9","","18.7","","51","","22","","22","","19.3","","99.77","","36","","","","Mainly Clear"
"2007-06-26 21:00","2007","06","26","21:00","28.1","","19.1","","58","","24","","17","","19.3","","99.81","","35","","","","Mainly Clear"
"2007-06-26 22:00","2007","06","26","22:00","27.2","","19.4","","62","","23","","15","","19.3","","99.84","","34","","","","Mainly Clear"
"2007-06-26 23:00","2007","06","26","23:00","27.0","","18.1","","58","","22","","13","","19.3","","99.79","","33","","","","Mainly Clear"
"2007-06-27 00:00","2007","06","27","00:00","25.7","","18.6","","65","","22","","7","","19.3","","99.77","","32","","","","Clear"
"2007-06-27 01:00","2007","06","27","01:00","24.9","","19.1","","70","","22","","11","","19.3","","99.70","","32","","","","Clear"
"2007-06-27 02:00","2007","06","27","02:00","24.5","","19.4","","73","","22","","19","","19.3","","99.64","","32","","","","Clear"
"2007-06-27 03:00","2007","06","27","03:00","24.0","","19.5","","76","","23","","11","","19.3","","99.62","","31","","","","Clear"
"2007-06-27 04:00","2007","06","27","04:00","23.7","","19.6","","78","","26","","15","","19.3","","99.62","","31","","","","Clear"
"2007-06-27 05:00","2007","06","27","05:00","23.1","","19.7","","81","","26","","11","","16.1","","99.62","","30","","","","Mostly Cloudy"
"2007-06-27 06:00","2007","06","27","06:00","24.2","","20.1","","78","","26","","9","","14.5","","99.58","","32","","","","Mainly Clear"
"2007-06-27 07:00","2007","06","27","07:00","26.0","","20.5","","72","","26","","20","","19.3","","99.59","","34","","","","Clear"
"2007-06-27 08:00","2007","06","27","08:00","27.6","","20.3","","64","","25","","13","","24.1","","99.54","","35","","","","Clear"
"2007-06-27 09:00","2007","06","27","09:00","29.6","","20.3","","57","","25","","20","","24.1","","99.52","","37","","","","Mainly Clear"
"2007-06-27 10:00","2007","06","27","10:00","30.9","","20.0","","52","","25","","32","","24.1","","99.51","","38","","","","Mainly Clear"
"2007-06-27 11:00","2007","06","27","11:00","31.2","","19.5","","50","","24","","35","","24.1","","99.50","","38","","","","Mostly Cloudy"
"2007-06-27 12:00","2007","06","27","12:00","32.7","","20.0","","47","","24","","24","","24.1","","99.45","","40","","","","Mostly Cloudy"
"2007-06-27 13:00","2007","06","27","13:00","32.9","","19.5","","45","","27","","26","","24.1","","99.38","","40","","","","Mostly Cloudy"
"2007-06-27 14:00","2007","06","27","14:00","34.1","","18.9","","41","","24","","32","","24.1","","99.29","","41","","","","Mostly Cloudy"
"2007-06-27 15:00","2007","06","27","15:00","32.9","","19.1","","44","","23","","30","","24.1","","99.19","","40","","","","Mostly Cloudy"
"2007-06-27 16:00","2007","06","27","16:00","31.7","","20.6","","52","","24","","43","","24.1","","99.16","","40","","","","Cloudy"
"2007-06-27 17:00","2007","06","27","17:00","28.9","","21.3","","64","","25","","32","","24.1","","99.12","","38","","","","Cloudy"
"2007-06-27 18:00","2007","06","27","18:00","25.9","","19.3","","67","","26","","22","","24.1","","99.10","","33","","","","Cloudy"
"2007-06-27 19:00","2007","06","27","19:00","25.4","","19.1","","68","","25","","28","","24.1","","99.14","","32","","","","Cloudy"
"2007-06-27 20:00","2007","06","27","20:00","24.7","","18.9","","70","","23","","30","","24.1","","99.10","","31","","","","Mostly Cloudy"
"2007-06-27 21:00","2007","06","27","21:00","24.4","","19.5","","74","","26","","24","","24.1","","99.20","","32","","","","Mostly Cloudy"
"2007-06-27 22:00","2007","06","27","22:00","23.7","","20.2","","81","","27","","15","","24.1","","99.22","","31","","","","Mostly Cloudy"
"2007-06-27 23:00","2007","06","27","23:00","24.1","","19.5","","76","","32","","17","","24.1","","99.26","","31","","","","Mostly Cloudy"
"2007-06-28 00:00","2007","06","28","00:00","22.3","","19.4","","84","","32","","26","","19.3","","99.30","","29","","","","Rain Showers"
"2007-06-28 01:00","2007","06","28","01:00","22.1","","19.4","","85","","31","","9","","24.1","","99.25","","29","","","","Rain Showers"
"2007-06-28 02:00","2007","06","28","02:00","22.2","","17.5","","75","","31","","15","","24.1","","99.27","","28","","","","Mostly Cloudy"
"2007-06-28 03:00","2007","06","28","03:00","22.3","","14.5","","61","","31","","17","","24.1","","99.26","","26","","","","Mostly Cloudy"
"2007-06-28 04:00","2007","06","28","04:00","21.9","","13.1","","57","","31","","13","","24.1","","99.29","","25","","","","Mostly Cloudy"
"2007-06-28 05:00","2007","06","28","05:00","20.3","","14.3","","68","","26","","7","","24.1","","99.34","","","","","","Rain Showers"
"2007-06-28 06:00","2007","06","28","06:00","20.6","","15.8","","74","","28","","11","","24.1","","99.36","","25","","","","Mostly Cloudy"
"2007-06-28 07:00","2007","06","28","07:00","21.9","","12.2","","54","","30","","19","","24.1","","99.37","","","","","","Mainly Clear"
"2007-06-28 08:00","2007","06","28","08:00","22.6","","12.4","","52","","32","","9","","24.1","","99.40","","25","","","","Mainly Clear"
"2007-06-28 09:00","2007","06","28","09:00","24.1","","12.1","","47","","33","","9","","24.1","","99.41","","26","","","","Mainly Clear"
"2007-06-28 10:00","2007","06","28","10:00","25.8","","12.1","","42","","31","","24","","24.1","","99.46","","28","","","","Mostly Cloudy"
"2007-06-28 11:00","2007","06","28","11:00","25.9","","13.1","","45","","30","","20","","24.1","","99.48","","29","","","","Mainly Clear"
"2007-06-28 12:00","2007","06","28","12:00","24.6","","14.2","","52","","36","","22","","24.1","","99.51","","28","","","","Mostly Cloudy"
"2007-06-28 13:00","2007","06","28","13:00","25.2","","13.7","","49","","35","","30","","24.1","","99.48","","28","","","","Mostly Cloudy"
"2007-06-28 14:00","2007","06","28","14:00","24.7","","13.5","","50","","33","","28","","24.1","","99.50","","28","","","","Mostly Cloudy"
"2007-06-28 15:00","2007","06","28","15:00","23.3","","12.1","","49","","1","","32","","24.1","","99.48","","26","","","","Mostly Cloudy"
"2007-06-28 16:00","2007","06","28","16:00","23.6","","11.6","","47","","35","","32","","24.1","","99.49","","26","","","","Mostly Cloudy"
"2007-06-28 17:00","2007","06","28","17:00","21.5","","9.3","","46","","34","","39","","24.1","","99.49","","","","","","Mostly Cloudy"
"2007-06-28 18:00","2007","06","28","18:00","19.8","","9.7","","52","","36","","26","","24.1","","99.53","","","","","","Mostly Cloudy"
"2007-06-28 19:00","2007","06","28","19:00","18.8","","8.7","","52","","34","","26","","24.1","","99.55","","","","","","Mostly Cloudy"
"2007-06-28 20:00","2007","06","28","20:00","17.4","","9.1","","58","","36","","22","E","24.1","","99.67","","","","","","Mostly Cloudy"
"2007-06-28 21:00","2007","06","28","21:00","16.2","","7.5","","56","","35","","30","","24.1","","99.76","","","","","","Mostly Cloudy"
"2007-06-28 22:00","2007","06","28","22:00","15.9","","7.2","","56","","34","","20","","24.1","","99.77","","","","","","Mostly Cloudy"
"2007-06-28 23:00","2007","06","28","23:00","14.9","","7.0","","59","","34","","24","","24.1","","99.78","","","","","","Mostly Cloudy"
"2007-06-29 00:00","2007","06","29","00:00","14.5","","7.3","","62","","35","","22","","24.1","","99.79","","","","","","Mostly Cloudy"
"2007-06-29 01:00","2007","06","29","01:00","13.8","","8.1","","68","","36","","24","","24.1","","99.80","","","","","","Mostly Cloudy"
"2007-06-29 02:00","2007","06","29","02:00","13.2","","8.6","","74","","36","","22","","24.1","","99.78","","","","","","Mostly Cloudy"
"2007-06-29 03:00","2007","06","29","03:00","13.2","","9.0","","76","","36","","19","","24.1","","99.77","","","","","","Mainly Clear"
"2007-06-29 04:00","2007","06","29","04:00","13.1","","8.9","","76","","36","","17","","24.1","","99.80","","","","","","Mainly Clear"
"2007-06-29 05:00","2007","06","29","05:00","12.4","","8.8","","79","","35","","15","","24.1","","99.86","","","","","","Mainly Clear"
"2007-06-29 06:00","2007","06","29","06:00","13.5","","8.8","","73","","36","","13","","24.1","","99.89","","","","","","Clear"
"2007-06-29 07:00","2007","06","29","07:00","15.5","","9.7","","68","","35","","11","","24.1","","99.93","","","","","","Clear"
"2007-06-29 08:00","2007","06","29","08:00","17.5","","8.6","","56","","32","","4","","24.1","","99.95","","","","","","Clear"
"2007-06-29 09:00","2007","06","29","09:00","19.6","","7.2","","45","","","","0","","24.1","","99.95","","","","","","Clear"
"2007-06-29 10:00","2007","06","29","10:00","20.4","","5.4","","37","","6","","7","","24.1","","99.95","","","","","","Clear"
"2007-06-29 11:00","2007","06","29","11:00","20.7","","8.2","","45","","14","","11","","24.1","","99.93","","","","","","Clear"
"2007-06-29 12:00","2007","06","29","12:00","21.7","","8.6","","43","","17","","11","","24.1","","99.90","","","","","","Clear"
"2007-06-29 13:00","2007","06","29","13:00","21.9","","7.3","","39","","16","","15","","24.1","","99.85","","","","","","Clear"
"2007-06-29 14:00","2007","06","29","14:00","23.2","","8.0","","38","","20","","17","","24.1","","99.80","","","","","","Clear"
"2007-06-29 15:00","2007","06","29","15:00","23.3","","8.0","","37","","16","","17","","24.1","","99.73","","","","","","Mainly Clear"
"2007-06-29 16:00","2007","06","29","16:00","23.8","","8.2","","37","","16","","15","","24.1","","99.67","","","","","","Mainly Clear"
"2007-06-29 17:00","2007","06","29","17:00","22.7","","8.1","","39","","15","","13","","24.1","","99.61","","","","","","Mainly Clear"
"2007-06-29 18:00","2007","06","29","18:00","22.5","","8.8","","42","","11","","7","","24.1","","99.59","","","","","","Mainly Clear"
"2007-06-29 19:00","2007","06","29","19:00","23.5","","9.1","","40","","1","","17","","24.1","","99.61","","","","","","Mainly Clear"
"2007-06-29 20:00","2007","06","29","20:00","21.6","","9.3","","45","","34","","20","","24.1","","99.63","","","","","","Clear"
"2007-06-29 21:00","2007","06","29","21:00","20.3","","8.6","","47","","35","","17","","24.1","","99.74","","","","","","Clear"
"2007-06-29 22:00","2007","06","29","22:00","18.9","","7.6","","48","","32","","22","","24.1","","99.76","","","","","","Clear"
"2007-06-29 23:00","2007","06","29","23:00","17.7","","5.8","","46","","32","","17","","24.1","","99.77","","","","","","Clear"
"2007-06-30 00:00","2007","06","30","00:00","16.8","","5.6","","48","","30","","13","","24.1","","99.78","","","","","","Clear"
"2007-06-30 01:00","2007","06","30","01:00","15.7","","6.0","","52","","31","","13","","24.1","","99.79","","","","","","Clear"
"2007-06-30 02:00","2007","06","30","02:00","15.5","","5.9","","53","","33","","17","","24.1","","99.76","","","","","","Mainly Clear"
"2007-06-30 03:00","2007","06","30","03:00","14.4","","6.4","","59","","31","","15","","24.1","","99.72","","","","","","Clear"
"2007-06-30 04:00","2007","06","30","04:00","13.5","","6.3","","62","","35","","9","","24.1","","99.70","","","","","","Clear"
"2007-06-30 05:00","2007","06","30","05:00","13.9","","6.5","","61","","34","","11","","24.1","","99.74","","","","","","Clear"
"2007-06-30 06:00","2007","06","30","06:00","15.8","","7.4","","57","","31","","11","","24.1","","99.75","","","","","","Clear"
"2007-06-30 07:00","2007","06","30","07:00","17.6","","8.9","","57","","32","","11","","24.1","","99.76","","","","","","Clear"
"2007-06-30 08:00","2007","06","30","08:00","19.8","","9.7","","52","","36","","6","","24.1","","99.76","","","","","","Clear"
"2007-06-30 09:00","2007","06","30","09:00","20.6","","9.4","","49","","34","","4","","24.1","","99.73","","","","","","Clear"
"2007-06-30 10:00","2007","06","30","10:00","22.3","","8.2","","40","","34","","6","","24.1","","99.70","","","","","","Mainly Clear"
"2007-06-30 11:00","2007","06","30","11:00","22.2","","8.2","","41","","1","","17","","24.1","","99.69","","","","","","Mostly Cloudy"
"2007-06-30 12:00","2007","06","30","12:00","23.1","","9.9","","43","","32","","15","","24.1","","99.64","","","","","","Mostly Cloudy"
"2007-06-30 13:00","2007","06","30","13:00","22.2","","10.2","","46","","34","","13","","24.1","","99.61","","","","","","Mostly Cloudy"
"2007-06-30 14:00","2007","06","30","14:00","24.2","","9.0","","38","","32","","30","","24.1","","99.56","","25","","","","Mainly Clear"
"2007-06-30 15:00","2007","06","30","15:00","23.5","","8.7","","39","","36","","33","","24.1","","99.60","","","","","","Mostly Cloudy"
"2007-06-30 16:00","2007","06","30","16:00","23.2","","5.5","","32","","36","","32","","24.1","","99.60","","","","","","Mainly Clear"
"2007-06-30 17:00","2007","06","30","17:00","21.1","","6.3","","38","","35","","33","","24.1","","99.65","","","","","","Clear"
"2007-06-30 18:00","2007","06","30","18:00","20.1","","7.3","","43","","34","","26","","24.1","","99.67","","","","","","Mainly Clear"
"2007-06-30 19:00","2007","06","30","19:00","18.6","","7.1","","47","","35","","37","","24.1","","99.73","","","","","","Mainly Clear"
"2007-06-30 20:00","2007","06","30","20:00","17.6","","7.7","","52","","35","","26","","24.1","","99.76","","","","","","Mainly Clear"
"2007-06-30 21:00","2007","06","30","21:00","16.2","","7.9","","58","","35","","24","","24.1","","99.79","","","","","","Mainly Clear"
"2007-06-30 22:00","2007","06","30","22:00","15.3","","8.5","","64","","35","","22","","24.1","","99.87","","","","","","Mainly Clear"
"2007-06-30 23:00","2007","06","30","23:00","15.0","","10.1","","72","","35","","22","","24.1","","99.90","","","","","","Mainly Clear"
