"Station Name","TORONTO LESTER B. PEARSON INT'L A"
"Province","ONTARIO"
"Latitude","43.68"
"Longitude","-79.63"
"Elevation","173.40"
"Climate Identifier","6158733"
"WMO Identifier","71624"
"TC Identifier","YYZ"
"All times are specified in Local Standard Time (LST). Add 1 hour to adjust for Daylight Saving Time where and when it is observed."

"Legend"
"E","Estimated"
"M","Missing"
"NA","Not Available"

"Date/Time","Year","Month","Day","Time","Temp (°C)","Temp Flag","Dew Point Temp (°C)","Dew Point Temp Flag","Rel Hum (%)","Rel Hum Flag","Wind Dir (10s deg)","Wind Dir Flag","Wind Spd (km/h)","Wind Spd Flag","Visibility (km)","Visibility Flag","Stn Press (kPa)","Stn Press Flag","Hmdx","Hmdx Flag","Wind Chill","Wind Chill Flag","Weather"
"1978-11-01 00:00","1978","11","01","00:00","1.5","","-0.5","","87","","35","","9","","25.0","","100.46","","","","","","Clear"
"1978-11-01 01:00","1978","11","01","01:00","0.0","","-1.3","","91","","32","","9","","25.0","","100.46","","","","-3","","Clear"
"1978-11-01 02:00","1978","11","01","02:00","0.1","","-1.4","","90","","34","","7","","25.0","","100.49","","","","","","Clear"
"1978-11-01 03:00","1978","11","01","03:00","-0.3","","-1.9","","89","","34","","6","","25.0","","100.49","","","","-2","","Clear"
"1978-11-01 04:00","1978","11","01","04:00","0.1","","-1.4","","90","","34","","13","","25.0","","100.52","","","","","","Clear"
"1978-11-01 05:00","1978","11","01","05:00","-0.5","","-2.1","","89","","34","","9","","25.0","","100.52","","","","-4","","Clear"
"1978-11-01 06:00","1978","11","01","06:00","0.0","","-1.8","","88","","34","","13","","25.0","","100.59","","","","-4","","Clear"
"1978-11-01 07:00","1978","11","01","07:00","-0.5","","-2.1","","89","","34","","11","","32.2","","100.66","","","","-4","","Mainly Clear"
"1978-11-01 08:00","1978","11","01","08:00","1.0","","-1.5","","83","","33","","7","","32.2","","100.69","","","","","","Mainly Clear"
"1978-11-01 09:00","1978","11","01","09:00","3.6","","0.3","","79","","34","","4","","40.2","","100.69","","","","","","Mainly Clear"
"1978-11-01 10:00","1978","11","01","10:00","6.6","","0.1","","63","","34","","2","","40.2","","100.76","","","","","","Clear"
"1978-11-01 11:00","1978","11","01","11:00","8.5","","-1.3","","50","","23","","2","","40.2","","100.69","","","","","","Clear"
"1978-11-01 12:00","1978","11","01","12:00","9.4","","-2.3","","44","","18","","4","","40.2","","100.69","","","","","","Clear"
"1978-11-01 13:00","1978","11","01","13:00","10.3","","-1.4","","44","","23","","11","","40.2","","100.66","","","","","","Clear"
"1978-11-01 14:00","1978","11","01","14:00","10.3","","2.0","","56","","18","","13","","40.2","","100.59","","","","","","Clear"
"1978-11-01 15:00","1978","11","01","15:00","9.5","","0.2","","52","","16","","15","","40.2","","100.49","","","","","","Clear"
"1978-11-01 16:00","1978","11","01","16:00","9.3","","0.2","","53","","16","","9","","40.2","","100.42","","","","","","Mainly Clear"
"1978-11-01 17:00","1978","11","01","17:00","8.1","","-0.8","","53","","15","","7","","40.2","","100.36","","","","","","Clear"
"1978-11-01 18:00","1978","11","01","18:00","6.3","","0.6","","67","","18","","7","","40.2","","100.32","","","","","","Clear"
"1978-11-01 19:00","1978","11","01","19:00","5.4","","1.5","","76","","19","","7","","25.0","","100.29","","","","","","Clear"
"1978-11-01 20:00","1978","11","01","20:00","4.9","","1.9","","81","","19","","7","","25.0","","100.26","","","","","","Mainly Clear"
"1978-11-01 21:00","1978","11","01","21:00","2.8","","-0.4","","80","","22","","7","","25.0","","100.26","","","","","","Clear"
"1978-11-01 22:00","1978","11","01","22:00","2.9","","-0.9","","76","","21","","6","","25.0","","100.22","","","","","","Clear"
"1978-11-01 23:00","1978","11","01","23:00","2.5","","-1.5","","75","","20","","4","","25.0","","100.19","","","","","","Mainly Clear"
"1978-11-02 00:00","1978","11","02","00:00","1.3","","-1.0","","85","","21","","6","","25.0","","100.19","","","","","","Mainly Clear"
"1978-11-02 01:00","1978","11","02","01:00","2.2","","-0.4","","83","","21","","9","","25.0","","100.09","","","","","","Mainly Clear"
"1978-11-02 02:00","1978","11","02","02:00","0.0","","-1.5","","90","","24","","9","","25.0","","100.06","","","","-3","","Mainly Clear"
"1978-11-02 03:00","1978","11","02","03:00","1.1","","-1.0","","86","","24","","7","","25.0","","99.99","","","","","","Mainly Clear"
"1978-11-02 04:00","1978","11","02","04:00","2.0","","-1.5","","78","","23","","4","","19.3","","99.96","","","","","","Clear"
"1978-11-02 05:00","1978","11","02","05:00","2.7","","0.1","","83","","16","","9","","19.3","","99.92","","","","","","Mainly Clear"
"1978-11-02 06:00","1978","11","02","06:00","2.6","","-0.4","","81","","20","","4","","16.1","","99.89","","","","","","Mainly Clear"
"1978-11-02 07:00","1978","11","02","07:00","3.6","","1.2","","84","","26","","15","","12.9","","99.89","","","","","","Mostly Cloudy"
"1978-11-02 08:00","1978","11","02","08:00","4.0","","1.3","","82","","25","","11","","12.9","","99.99","","","","","","Cloudy"
"1978-11-02 09:00","1978","11","02","09:00","6.5","","2.6","","76","","24","","19","","9.7","","99.96","","","","","","Haze"
"1978-11-02 10:00","1978","11","02","10:00","8.7","","3.0","","67","","25","","24","","12.9","","99.86","","","","","","Mostly Cloudy"
"1978-11-02 11:00","1978","11","02","11:00","11.5","","4.3","","61","","26","","17","","12.9","","99.86","","","","","","Mostly Cloudy"
"1978-11-02 12:00","1978","11","02","12:00","12.5","","3.7","","55","","25","","17","","12.9","","99.82","","","","","","Mainly Clear"
"1978-11-02 13:00","1978","11","02","13:00","14.3","","5.8","","57","","23","","19","","12.9","","99.76","","","","","","Mainly Clear"
"1978-11-02 14:00","1978","11","02","14:00","15.3","","6.6","","56","","26","","22","","16.1","","99.72","","","","","","Mostly Cloudy"
"1978-11-02 15:00","1978","11","02","15:00","15.3","","5.7","","53","","25","","17","","12.9","","99.76","","","","","","Cloudy"
"1978-11-02 16:00","1978","11","02","16:00","14.7","","5.8","","55","","27","","13","","24.1","","99.76","","","","","","Mostly Cloudy"
"1978-11-02 17:00","1978","11","02","17:00","12.3","","5.5","","63","","27","","13","","24.1","","99.82","","","","","","Mostly Cloudy"
"1978-11-02 18:00","1978","11","02","18:00","10.8","","5.5","","70","","26","","9","","24.1","","99.86","","","","","","Mostly Cloudy"
"1978-11-02 19:00","1978","11","02","19:00","10.8","","5.1","","68","","23","","4","","24.1","","99.86","","","","","","Mostly Cloudy"
"1978-11-02 20:00","1978","11","02","20:00","8.8","","5.0","","77","","26","","2","","24.1","","99.92","","","","","","Mostly Cloudy"
"1978-11-02 21:00","1978","11","02","21:00","7.4","","4.6","","83","","","","0","","16.1","","99.96","","","","","","Mainly Clear"
"1978-11-02 22:00","1978","11","02","22:00","7.8","","5.2","","84","","27","","2","","16.1","","99.99","","","","","","Mainly Clear"
"1978-11-02 23:00","1978","11","02","23:00","8.2","","4.8","","79","","34","","4","","12.9","","100.02","","","","","","Mainly Clear"
"1978-11-03 00:00","1978","11","03","00:00","5.2","","3.7","","90","","32","","6","","8.0","","100.06","","","","","","Fog"
"1978-11-03 01:00","1978","11","03","01:00","4.7","","3.2","","90","","19","","2","","8.0","","100.09","","","","","","Fog"
"1978-11-03 02:00","1978","11","03","02:00","5.0","","3.7","","91","","1","","4","","6.4","","100.12","","","","","","Fog"
"1978-11-03 03:00","1978","11","03","03:00","3.0","","2.1","","94","","35","","4","","6.4","","100.16","","","","","","Fog"
"1978-11-03 04:00","1978","11","03","04:00","2.5","","1.1","","91","","","","0","","6.4","","100.19","","","","","","Fog"
"1978-11-03 05:00","1978","11","03","05:00","1.4","","0.5","","94","","30","","4","","6.4","","100.19","","","","","","Fog"
"1978-11-03 06:00","1978","11","03","06:00","2.0","","1.1","","94","","36","","4","","4.8","","100.19","","","","","","Fog"
"1978-11-03 07:00","1978","11","03","07:00","0.4","","-0.5","","94","","35","","4","","2.4","","100.22","","","","","","Fog"
"1978-11-03 08:00","1978","11","03","08:00","1.5","","0.5","","93","","33","","2","","3.2","","100.26","","","","","","Fog"
"1978-11-03 09:00","1978","11","03","09:00","7.0","","5.0","","87","","","","0","","4.8","","100.29","","","","","","Fog"
"1978-11-03 10:00","1978","11","03","10:00","10.5","","6.3","","75","","16","","4","","4.8","","100.26","","","","","","Haze"
"1978-11-03 11:00","1978","11","03","11:00","12.5","","6.0","","65","","18","","6","","4.8","","100.29","","","","","","Haze"
"1978-11-03 12:00","1978","11","03","12:00","13.4","","7.2","","66","","16","","9","","6.4","","100.19","","","","","","Haze"
"1978-11-03 13:00","1978","11","03","13:00","13.2","","7.0","","66","","14","","11","","6.4","","100.16","","","","","","Haze"
"1978-11-03 14:00","1978","11","03","14:00","12.6","","7.7","","72","","13","","11","","4.8","","100.09","","","","","","Haze"
"1978-11-03 15:00","1978","11","03","15:00","13.0","","8.3","","73","","13","","9","","4.0","","100.06","","","","","","Haze"
"1978-11-03 16:00","1978","11","03","16:00","11.2","","8.0","","81","","14","","13","","4.8","","100.06","","","","","","Haze"
"1978-11-03 17:00","1978","11","03","17:00","9.2","","7.1","","87","","15","","4","","4.8","","100.02","","","","","","Haze"
"1978-11-03 18:00","1978","11","03","18:00","8.2","","7.2","","93","","15","","6","","4.0","","100.06","","","","","","Fog"
"1978-11-03 19:00","1978","11","03","19:00","8.6","","8.1","","97","","16","","4","","3.2","","100.06","","","","","","Fog"
"1978-11-03 20:00","1978","11","03","20:00","5.5","","5.5","","100","","","","0","","0.2","","100.02","","","","","","Fog"
"1978-11-03 21:00","1978","11","03","21:00","5.7","","5.7","","100","","29","","2","","0.0","","99.99","","","","","","Fog"
"1978-11-03 22:00","1978","11","03","22:00","5.8","","5.8","","100","","30","","4","","0.0","","99.96","","","","","","Fog"
"1978-11-03 23:00","1978","11","03","23:00","6.2","","6.2","","100","","","","0","","0.2","","99.92","","","","","","Fog"
"1978-11-04 00:00","1978","11","04","00:00","6.2","","6.2","","100","","","","0","","0.0","","99.86","","","","","","Fog"
"1978-11-04 01:00","1978","11","04","01:00","6.1","","6.1","","100","","","","0","","0.0","","99.79","","","","","","Fog"
"1978-11-04 02:00","1978","11","04","02:00","5.8","","5.8","","100","","","","0","","0.0","","99.76","","","","","","Fog"
"1978-11-04 03:00","1978","11","04","03:00","5.5","","5.5","","100","","","","0","","0.0","","99.72","","","","","","Fog"
"1978-11-04 04:00","1978","11","04","04:00","3.4","","3.4","","100","","","","0","","0.0","","99.69","","","","","","Fog"
"1978-11-04 05:00","1978","11","04","05:00","2.9","","2.9","","100","","","","0","","0.0","","99.69","","","","","","Fog"
"1978-11-04 06:00","1978","11","04","06:00","2.2","","2.2","","100","","18","","4","","0.0","","99.66","","","","","","Fog"
"1978-11-04 07:00","1978","11","04","07:00","1.1","","1.1","","100","","11","","2","","0.4","","99.66","","","","","","Fog"
"1978-11-04 08:00","1978","11","04","08:00","2.5","","2.5","","100","","15","","2","","0.0","","99.66","","","","","","Fog"
"1978-11-04 09:00","1978","11","04","09:00","4.6","","4.6","","100","","13","","2","","0.0","","99.66","","","","","","Fog"
"1978-11-04 10:00","1978","11","04","10:00","6.3","","6.3","","100","","16","","6","","0.2","","99.59","","","","","","Fog"
"1978-11-04 11:00","1978","11","04","11:00","9.2","","8.6","","96","","14","","2","","2.4","","99.56","","","","","","Fog"
"1978-11-04 12:00","1978","11","04","12:00","12.3","","9.3","","82","","14","","7","","4.0","","99.49","","","","","","Haze"
"1978-11-04 13:00","1978","11","04","13:00","13.2","","9.1","","76","","15","","11","","4.0","","99.39","","","","","","Haze"
"1978-11-04 14:00","1978","11","04","14:00","15.4","","9.9","","70","","13","","7","","8.0","","99.36","","","","","","Haze"
"1978-11-04 15:00","1978","11","04","15:00","17.0","","10.9","","67","","15","","7","","6.4","","99.36","","","","","","Haze"
"1978-11-04 16:00","1978","11","04","16:00","16.4","","11.1","","71","","15","","7","","6.4","","99.36","","","","","","Haze"
"1978-11-04 17:00","1978","11","04","17:00","14.8","","10.5","","76","","16","","4","","4.8","","99.36","","","","","","Haze"
"1978-11-04 18:00","1978","11","04","18:00","14.1","","9.8","","75","","18","","4","","8.0","","99.39","","","","","","Haze"
"1978-11-04 19:00","1978","11","04","19:00","14.1","","10.2","","77","","29","","2","","8.0","","99.46","","","","","","Haze"
"1978-11-04 20:00","1978","11","04","20:00","12.1","","9.5","","84","","31","","7","","8.0","","99.49","","","","","","Haze"
"1978-11-04 21:00","1978","11","04","21:00","9.6","","8.0","","90","","31","","9","","8.0","","99.46","","","","","","Fog"
"1978-11-04 22:00","1978","11","04","22:00","8.8","","7.9","","94","","33","","9","","8.0","","99.46","","","","","","Fog"
"1978-11-04 23:00","1978","11","04","23:00","9.5","","8.0","","90","","34","","2","","8.0","","99.42","","","","","","Fog"
"1978-11-05 00:00","1978","11","05","00:00","8.6","","6.6","","87","","36","","6","","8.0","","99.46","","","","","","Fog"
"1978-11-05 01:00","1978","11","05","01:00","8.0","","6.8","","92","","29","","4","","8.0","","99.46","","","","","","Fog"
"1978-11-05 02:00","1978","11","05","02:00","7.4","","7.1","","98","","","","0","","6.4","","99.46","","","","","","Fog"
"1978-11-05 03:00","1978","11","05","03:00","7.8","","7.2","","96","","","","0","","6.4","","99.49","","","","","","Fog"
"1978-11-05 04:00","1978","11","05","04:00","5.4","","5.1","","98","","","","0","","4.0","","99.46","","","","","","Fog"
"1978-11-05 05:00","1978","11","05","05:00","5.8","","5.6","","99","","","","0","","4.0","","99.49","","","","","","Fog"
"1978-11-05 06:00","1978","11","05","06:00","4.3","","4.1","","99","","","","0","","1.2","","99.49","","","","","","Fog"
"1978-11-05 07:00","1978","11","05","07:00","6.0","","6.0","","100","","","","0","","0.0","","99.49","","","","","","Fog"
"1978-11-05 08:00","1978","11","05","08:00","5.7","","5.7","","100","","","","0","","0.0","","99.52","","","","","","Fog"
"1978-11-05 09:00","1978","11","05","09:00","7.8","","7.8","","100","","","","0","","0.4","","99.56","","","","","","Fog"
"1978-11-05 10:00","1978","11","05","10:00","10.1","","9.3","","95","","16","","6","","2.0","","99.49","","","","","","Fog"
"1978-11-05 11:00","1978","11","05","11:00","12.6","","9.7","","83","","16","","9","","4.0","","99.49","","","","","","Haze"
"1978-11-05 12:00","1978","11","05","12:00","13.8","","9.8","","77","","16","","9","","4.0","","99.39","","","","","","Haze"
"1978-11-05 13:00","1978","11","05","13:00","15.9","","9.3","","65","","18","","17","","4.8","","99.29","","","","","","Haze"
"1978-11-05 14:00","1978","11","05","14:00","16.8","","9.7","","63","","18","","17","","6.4","","99.19","","","","","","Haze"
"1978-11-05 15:00","1978","11","05","15:00","18.7","","9.9","","56","","18","","13","","9.7","","99.19","","","","","","Haze"
"1978-11-05 16:00","1978","11","05","16:00","19.2","","9.3","","53","","21","","20","","24.1","","99.19","","","","","","Mainly Clear"
"1978-11-05 17:00","1978","11","05","17:00","17.5","","9.1","","58","","21","","17","","16.1","","99.19","","","","","","Mostly Cloudy"
"1978-11-05 18:00","1978","11","05","18:00","15.6","","7.9","","60","","21","","13","","16.1","","99.22","","","","","","Mainly Clear"
"1978-11-05 19:00","1978","11","05","19:00","14.7","","7.1","","60","","21","","11","","16.1","","99.26","","","","","","Mainly Clear"
"1978-11-05 20:00","1978","11","05","20:00","14.9","","7.3","","60","","21","","15","","16.1","","99.22","","","","","","Mainly Clear"
"1978-11-05 21:00","1978","11","05","21:00","14.5","","6.7","","60","","22","","15","","19.3","","99.19","","","","","","Mainly Clear"
"1978-11-05 22:00","1978","11","05","22:00","14.7","","6.7","","59","","22","","22","","19.3","","99.19","","","","","","Mainly Clear"
"1978-11-05 23:00","1978","11","05","23:00","14.6","","7.1","","61","","22","","22","","19.3","","99.16","","","","","","Mainly Clear"
"1978-11-06 00:00","1978","11","06","00:00","13.4","","7.6","","68","","22","","13","","16.1","","99.19","","","","","","Mostly Cloudy"
"1978-11-06 01:00","1978","11","06","01:00","13.6","","7.2","","65","","23","","13","","8.0","","99.16","","","","","","Haze"
"1978-11-06 02:00","1978","11","06","02:00","14.5","","8.4","","67","","24","","19","","8.0","","99.16","","","","","","Haze"
"1978-11-06 03:00","1978","11","06","03:00","14.7","","8.8","","68","","24","","17","","8.0","","99.16","","","","","","Haze"
"1978-11-06 04:00","1978","11","06","04:00","14.4","","9.2","","71","","24","","13","","8.0","","99.16","","","","","","Haze"
"1978-11-06 05:00","1978","11","06","05:00","14.1","","9.0","","71","","25","","13","","8.0","","99.19","","","","","","Haze"
"1978-11-06 06:00","1978","11","06","06:00","14.0","","9.8","","76","","25","","7","","8.0","","99.22","","","","","","Haze"
"1978-11-06 07:00","1978","11","06","07:00","13.3","","10.0","","81","","24","","4","","4.0","","99.29","","","","","","Haze"
"1978-11-06 08:00","1978","11","06","08:00","13.0","","10.6","","85","","21","","2","","4.0","","99.39","","","","","","Haze"
"1978-11-06 09:00","1978","11","06","09:00","12.1","","10.6","","91","","35","","11","","6.4","","99.49","","","","","","Fog"
"1978-11-06 10:00","1978","11","06","10:00","10.9","","10.3","","96","","35","","13","","4.0","","99.52","","","","","","Rain Showers,Fog"
"1978-11-06 11:00","1978","11","06","11:00","10.4","","9.4","","94","","36","","13","","6.4","","99.52","","","","","","Rain,Fog"
"1978-11-06 12:00","1978","11","06","12:00","9.8","","8.1","","89","","34","","13","","16.1","","99.49","","","","","","Rain"
"1978-11-06 13:00","1978","11","06","13:00","9.6","","8.0","","90","","35","","13","","32.2","","99.49","","","","","","Cloudy"
"1978-11-06 14:00","1978","11","06","14:00","9.3","","4.2","","71","","33","","13","","40.2","","99.56","","","","","","Cloudy"
"1978-11-06 15:00","1978","11","06","15:00","9.0","","4.5","","73","","33","","13","","40.2","","99.56","","","","","","Cloudy"
"1978-11-06 16:00","1978","11","06","16:00","8.4","","3.0","","69","","32","","20","","32.2","","99.66","","","","","","Cloudy"
"1978-11-06 17:00","1978","11","06","17:00","6.4","","3.5","","82","","32","","15","","25.0","","99.76","","","","","","Rain"
"1978-11-06 18:00","1978","11","06","18:00","6.0","","3.9","","86","","30","","17","","19.3","","99.79","","","","","","Rain"
"1978-11-06 19:00","1978","11","06","19:00","5.2","","2.8","","84","","31","","15","","19.3","","99.86","","","","","","Rain"
"1978-11-06 20:00","1978","11","06","20:00","5.0","","3.3","","89","","29","","13","","19.3","","99.86","","","","","","Rain"
"1978-11-06 21:00","1978","11","06","21:00","4.9","","3.3","","89","","26","","6","","24.1","","99.86","","","","","","Rain"
"1978-11-06 22:00","1978","11","06","22:00","4.8","","3.7","","93","","25","","4","","25.0","","99.86","","","","","","Rain"
"1978-11-06 23:00","1978","11","06","23:00","4.9","","3.7","","92","","24","","6","","25.0","","99.82","","","","","","Cloudy"
"1978-11-07 00:00","1978","11","07","00:00","5.6","","1.5","","75","","27","","11","","12.9","","99.86","","","","","","Rain"
"1978-11-07 01:00","1978","11","07","01:00","5.0","","3.3","","89","","25","","4","","25.0","","99.86","","","","","","Cloudy"
"1978-11-07 02:00","1978","11","07","02:00","5.0","","2.8","","86","","30","","7","","25.0","","99.86","","","","","","Cloudy"
"1978-11-07 03:00","1978","11","07","03:00","4.4","","1.8","","83","","31","","6","","25.0","","99.82","","","","","","Cloudy"
"1978-11-07 04:00","1978","11","07","04:00","4.1","","1.7","","84","","28","","6","","25.0","","99.82","","","","","","Cloudy"
"1978-11-07 05:00","1978","11","07","05:00","4.0","","0.8","","79","","31","","7","","25.0","","99.79","","","","","","Cloudy"
"1978-11-07 06:00","1978","11","07","06:00","4.0","","0.8","","79","","31","","13","","25.0","","99.79","","","","","","Cloudy"
"1978-11-07 07:00","1978","11","07","07:00","3.5","","0.2","","79","","33","","17","","25.0","","99.82","","","","","","Cloudy"
"1978-11-07 08:00","1978","11","07","08:00","2.5","","-0.9","","78","","33","","15","","40.2","","99.89","","","","","","Mostly Cloudy"
"1978-11-07 09:00","1978","11","07","09:00","2.9","","-1.5","","73","","33","","19","","40.2","","99.92","","","","","","Mostly Cloudy"
"1978-11-07 10:00","1978","11","07","10:00","4.0","","-1.4","","68","","35","","15","","40.2","","99.92","","","","","","Mostly Cloudy"
"1978-11-07 11:00","1978","11","07","11:00","5.7","","-0.6","","64","","36","","15","","40.2","","99.92","","","","","","Mainly Clear"
"1978-11-07 12:00","1978","11","07","12:00","6.8","","0.2","","63","","35","","17","","40.2","","99.86","","","","","","Mainly Clear"
"1978-11-07 13:00","1978","11","07","13:00","6.8","","-1.5","","55","","34","","13","","40.2","","99.82","","","","","","Mainly Clear"
"1978-11-07 14:00","1978","11","07","14:00","7.5","","-2.1","","50","","33","","11","","40.2","","99.79","","","","","","Clear"
"1978-11-07 15:00","1978","11","07","15:00","7.3","","-2.1","","51","","1","","7","","40.2","","99.82","","","","","","Mainly Clear"
"1978-11-07 16:00","1978","11","07","16:00","6.5","","-4.2","","46","","1","","13","","40.2","","99.86","","","","","","Mainly Clear"
"1978-11-07 17:00","1978","11","07","17:00","4.5","","-3.8","","55","","3","","9","","40.2","","99.86","","","","","","Mainly Clear"
"1978-11-07 18:00","1978","11","07","18:00","2.3","","-2.6","","70","","34","","9","","25.0","","99.89","","","","","","Mainly Clear"
"1978-11-07 19:00","1978","11","07","19:00","2.0","","-4.7","","61","","34","","17","","25.0","","99.96","","","","","","Mainly Clear"
"1978-11-07 20:00","1978","11","07","20:00","-0.4","","-3.4","","80","","33","","11","","25.0","","99.96","","","","-4","","Mainly Clear"
"1978-11-07 21:00","1978","11","07","21:00","-1.0","","-3.8","","81","","33","","9","","25.0","","99.96","","","","-4","","Mainly Clear"
"1978-11-07 22:00","1978","11","07","22:00","-1.7","","-3.9","","85","","34","","7","","25.0","","99.96","","","","-4","","Clear"
"1978-11-07 23:00","1978","11","07","23:00","-2.1","","-4.2","","85","","34","","7","","25.0","","99.96","","","","-5","","Clear"
"1978-11-08 00:00","1978","11","08","00:00","-2.9","","-4.8","","87","","34","","6","","25.0","","99.96","","","","-5","","Clear"
"1978-11-08 01:00","1978","11","08","01:00","-3.1","","-4.8","","88","","33","","6","","25.0","","99.96","","","","-6","","Clear"
"1978-11-08 02:00","1978","11","08","02:00","-3.8","","-6.0","","84","","30","","4","","25.0","","99.96","","","","-5","","Clear"
"1978-11-08 03:00","1978","11","08","03:00","-2.9","","-4.8","","87","","33","","2","","25.0","","99.99","","","","-4","","Mainly Clear"
"1978-11-08 04:00","1978","11","08","04:00","-4.3","","-6.3","","86","","33","","2","","25.0","","99.99","","","","-5","","Clear"
"1978-11-08 05:00","1978","11","08","05:00","-3.9","","-5.7","","87","","","","0","","25.0","","99.99","","","","","","Clear"
"1978-11-08 06:00","1978","11","08","06:00","-4.3","","-6.3","","86","","","","0","","25.0","","99.96","","","","","","Clear"
"1978-11-08 07:00","1978","11","08","07:00","-4.7","","-6.0","","91","","","","0","","25.0","","99.96","","","","","","Mainly Clear"
"1978-11-08 08:00","1978","11","08","08:00","-4.0","","-5.4","","90","","31","","2","","40.2","","99.92","","","","-5","","Clear"
"1978-11-08 09:00","1978","11","08","09:00","0.5","","-2.0","","83","","28","","2","","40.2","","99.96","","","","","","Clear"
"1978-11-08 10:00","1978","11","08","10:00","3.8","","-2.5","","63","","23","","9","","40.2","","99.99","","","","","","Clear"
"1978-11-08 11:00","1978","11","08","11:00","5.9","","-1.7","","58","","21","","17","","40.2","","99.96","","","","","","Clear"
"1978-11-08 12:00","1978","11","08","12:00","7.1","","-1.5","","54","","20","","26","","40.2","","99.82","","","","","","Mainly Clear"
"1978-11-08 13:00","1978","11","08","13:00","8.2","","-0.8","","53","","20","","22","","40.2","","99.69","","","","","","Mostly Cloudy"
"1978-11-08 14:00","1978","11","08","14:00","8.5","","-0.7","","52","","19","","20","","40.2","","99.66","","","","","","Mostly Cloudy"
"1978-11-08 15:00","1978","11","08","15:00","9.5","","0.2","","52","","20","","19","","40.2","","99.62","","","","","","Mostly Cloudy"
"1978-11-08 16:00","1978","11","08","16:00","8.5","","-0.7","","52","","21","","20","","40.2","","99.59","","","","","","Mainly Clear"
"1978-11-08 17:00","1978","11","08","17:00","7.2","","0.2","","61","","20","","13","","40.2","","99.52","","","","","","Mainly Clear"
"1978-11-08 18:00","1978","11","08","18:00","5.5","","-1.8","","59","","19","","13","","25.0","","99.49","","","","","","Mainly Clear"
"1978-11-08 19:00","1978","11","08","19:00","4.9","","-0.2","","69","","19","","11","","25.0","","99.46","","","","","","Mainly Clear"
"1978-11-08 20:00","1978","11","08","20:00","4.8","","0.9","","76","","20","","15","","25.0","","99.36","","","","","","Clear"
"1978-11-08 21:00","1978","11","08","21:00","4.6","","0.8","","76","","20","","19","","25.0","","99.29","","","","","","Clear"
"1978-11-08 22:00","1978","11","08","22:00","4.5","","0.3","","74","","20","","7","","25.0","","99.29","","","","","","Clear"
"1978-11-08 23:00","1978","11","08","23:00","5.0","","0.4","","72","","18","","7","","25.0","","99.19","","","","","","Clear"
"1978-11-09 00:00","1978","11","09","00:00","5.2","","0.4","","71","","17","","13","","25.0","","99.16","","","","","","Mainly Clear"
"1978-11-09 01:00","1978","11","09","01:00","4.9","","0.4","","73","","18","","15","","25.0","","99.09","","","","","","Mainly Clear"
"1978-11-09 02:00","1978","11","09","02:00","5.0","","1.4","","77","","18","","15","","25.0","","99.12","","","","","","Mainly Clear"
"1978-11-09 03:00","1978","11","09","03:00","6.5","","1.1","","68","","21","","13","","24.1","","99.16","","","","","","Mainly Clear"
"1978-11-09 04:00","1978","11","09","04:00","7.0","","0.2","","62","","20","","9","","24.1","","99.09","","","","","","Mostly Cloudy"
"1978-11-09 05:00","1978","11","09","05:00","6.6","","0.1","","63","","20","","6","","24.1","","99.09","","","","","","Mostly Cloudy"
"1978-11-09 06:00","1978","11","09","06:00","5.9","","0.0","","66","","20","","9","","24.1","","99.16","","","","","","Mostly Cloudy"
"1978-11-09 07:00","1978","11","09","07:00","4.5","","-0.2","","71","","22","","9","","25.0","","99.16","","","","","","Mostly Cloudy"
"1978-11-09 08:00","1978","11","09","08:00","5.6","","0.4","","69","","23","","13","","32.2","","99.19","","","","","","Mostly Cloudy"
"1978-11-09 09:00","1978","11","09","09:00","7.6","","0.8","","62","","24","","17","","32.2","","99.26","","","","","","Mainly Clear"
"1978-11-09 10:00","1978","11","09","10:00","9.1","","1.1","","57","","24","","19","","32.2","","99.29","","","","","","Clear"
"1978-11-09 11:00","1978","11","09","11:00","10.5","","1.5","","54","","24","","20","","32.2","","99.29","","","","","","Mainly Clear"
"1978-11-09 12:00","1978","11","09","12:00","11.3","","1.8","","52","","24","","22","","32.2","","99.26","","","","","","Mainly Clear"
"1978-11-09 13:00","1978","11","09","13:00","13.0","","2.8","","50","","23","","11","","32.2","","99.19","","","","","","Mainly Clear"
"1978-11-09 14:00","1978","11","09","14:00","13.5","","2.5","","47","","20","","9","","32.2","","99.16","","","","","","Clear"
"1978-11-09 15:00","1978","11","09","15:00","14.0","","3.2","","48","","23","","9","","32.2","","99.19","","","","","","Mainly Clear"
"1978-11-09 16:00","1978","11","09","16:00","14.6","","2.3","","43","","20","","11","","32.2","","99.26","","","","","","Mostly Cloudy"
"1978-11-09 17:00","1978","11","09","17:00","11.9","","4.0","","58","","21","","6","","32.2","","99.29","","","","","","Mostly Cloudy"
"1978-11-09 18:00","1978","11","09","18:00","10.6","","4.5","","66","","26","","2","","24.1","","99.39","","","","","","Mostly Cloudy"
"1978-11-09 19:00","1978","11","09","19:00","10.4","","4.5","","67","","23","","6","","24.1","","99.49","","","","","","Mostly Cloudy"
"1978-11-09 20:00","1978","11","09","20:00","9.5","","4.7","","72","","22","","4","","24.1","","99.56","","","","","","Mostly Cloudy"
"1978-11-09 21:00","1978","11","09","21:00","8.7","","4.4","","74","","25","","4","","24.1","","99.59","","","","","","Mostly Cloudy"
"1978-11-09 22:00","1978","11","09","22:00","8.2","","4.3","","76","","31","","9","","24.1","","99.66","","","","","","Mostly Cloudy"
"1978-11-09 23:00","1978","11","09","23:00","6.0","","3.4","","83","","34","","7","","24.1","","99.69","","","","","","Mainly Clear"
"1978-11-10 00:00","1978","11","10","00:00","4.8","","3.3","","90","","34","","6","","24.1","","99.76","","","","","","Mainly Clear"
"1978-11-10 01:00","1978","11","10","01:00","3.6","","2.6","","93","","34","","9","","19.3","","99.76","","","","","","Clear"
"1978-11-10 02:00","1978","11","10","02:00","3.4","","2.6","","95","","","","0","","16.1","","99.82","","","","","","Clear"
"1978-11-10 03:00","1978","11","10","03:00","1.7","","1.0","","95","","33","","7","","12.9","","99.89","","","","","","Mainly Clear"
"1978-11-10 04:00","1978","11","10","04:00","2.8","","2.1","","95","","32","","6","","16.1","","99.89","","","","","","Mostly Cloudy"
"1978-11-10 05:00","1978","11","10","05:00","4.2","","3.1","","92","","34","","7","","16.1","","99.96","","","","","","Mostly Cloudy"
"1978-11-10 06:00","1978","11","10","06:00","4.1","","3.1","","93","","34","","9","","16.1","","99.99","","","","","","Mostly Cloudy"
"1978-11-10 07:00","1978","11","10","07:00","3.3","","2.6","","95","","35","","4","","8.0","","100.06","","","","","","Fog"
"1978-11-10 08:00","1978","11","10","08:00","2.7","","1.6","","92","","32","","2","","6.4","","100.16","","","","","","Fog"
"1978-11-10 09:00","1978","11","10","09:00","5.9","","3.9","","87","","3","","2","","6.4","","100.16","","","","","","Fog"
"1978-11-10 10:00","1978","11","10","10:00","8.4","","5.3","","81","","9","","6","","4.8","","100.19","","","","","","Haze"
"1978-11-10 11:00","1978","11","10","11:00","9.4","","5.6","","77","","6","","6","","6.4","","100.26","","","","","","Haze"
"1978-11-10 12:00","1978","11","10","12:00","9.3","","5.6","","78","","9","","7","","6.4","","100.19","","","","","","Haze"
"1978-11-10 13:00","1978","11","10","13:00","9.0","","5.9","","81","","9","","11","","6.4","","100.16","","","","","","Haze"
"1978-11-10 14:00","1978","11","10","14:00","9.0","","5.9","","81","","10","","11","","8.0","","100.16","","","","","","Haze"
"1978-11-10 15:00","1978","11","10","15:00","8.7","","6.6","","87","","8","","13","","8.0","","100.16","","","","","","Fog"
"1978-11-10 16:00","1978","11","10","16:00","8.4","","6.6","","89","","10","","13","","4.0","","100.19","","","","","","Fog"
"1978-11-10 17:00","1978","11","10","17:00","8.1","","6.4","","89","","9","","13","","3.2","","100.19","","","","","","Fog"
"1978-11-10 18:00","1978","11","10","18:00","8.1","","6.4","","89","","9","","13","","4.0","","100.19","","","","","","Fog"
"1978-11-10 19:00","1978","11","10","19:00","8.2","","6.4","","88","","9","","9","","6.4","","100.26","","","","","","Fog"
"1978-11-10 20:00","1978","11","10","20:00","8.0","","6.8","","92","","11","","7","","4.8","","100.22","","","","","","Fog"
"1978-11-10 21:00","1978","11","10","21:00","8.2","","6.4","","88","","14","","4","","4.0","","100.22","","","","","","Fog"
"1978-11-10 22:00","1978","11","10","22:00","8.2","","6.4","","88","","7","","4","","6.4","","100.26","","","","","","Fog"
"1978-11-10 23:00","1978","11","10","23:00","7.4","","6.3","","93","","9","","4","","6.4","","100.19","","","","","","Fog"
"1978-11-11 00:00","1978","11","11","00:00","7.2","","5.8","","91","","14","","2","","6.4","","100.09","","","","","","Fog"
"1978-11-11 01:00","1978","11","11","01:00","7.5","","6.3","","92","","","","0","","8.0","","100.16","","","","","","Fog"
"1978-11-11 02:00","1978","11","11","02:00","7.4","","6.7","","96","","","","0","","8.0","","100.19","","","","","","Fog"
"1978-11-11 03:00","1978","11","11","03:00","7.1","","6.2","","94","","","","0","","6.4","","100.16","","","","","","Fog"
"1978-11-11 04:00","1978","11","11","04:00","5.8","","5.2","","96","","13","","4","","4.8","","100.12","","","","","","Fog"
"1978-11-11 05:00","1978","11","11","05:00","5.6","","5.1","","97","","25","","2","","3.2","","100.16","","","","","","Fog"
"1978-11-11 06:00","1978","11","11","06:00","6.5","","5.3","","92","","19","","2","","4.8","","100.16","","","","","","Fog"
"1978-11-11 07:00","1978","11","11","07:00","7.0","","6.2","","95","","25","","7","","3.2","","100.16","","","","","","Fog"
"1978-11-11 08:00","1978","11","11","08:00","7.5","","7.1","","97","","26","","7","","2.0","","100.19","","","","","","Fog"
"1978-11-11 09:00","1978","11","11","09:00","8.1","","6.8","","91","","28","","11","","2.4","","100.26","","","","","","Fog"
"1978-11-11 10:00","1978","11","11","10:00","8.9","","7.1","","89","","28","","11","","4.8","","100.22","","","","","","Fog"
"1978-11-11 11:00","1978","11","11","11:00","9.6","","6.0","","78","","26","","7","","8.0","","100.26","","","","","","Haze"
"1978-11-11 12:00","1978","11","11","12:00","11.0","","6.4","","73","","22","","9","","9.7","","100.16","","","","","","Haze"
"1978-11-11 13:00","1978","11","11","13:00","12.9","","7.4","","69","","24","","9","","9.7","","100.09","","","","","","Haze"
"1978-11-11 14:00","1978","11","11","14:00","13.3","","6.8","","65","","32","","7","","9.7","","100.09","","","","","","Haze"
"1978-11-11 15:00","1978","11","11","15:00","13.5","","6.3","","62","","29","","13","","9.7","","100.09","","","","","","Haze"
"1978-11-11 16:00","1978","11","11","16:00","12.4","","7.3","","71","","30","","17","","6.4","","100.19","","","","","","Haze"
"1978-11-11 17:00","1978","11","11","17:00","10.2","","6.1","","76","","35","","15","","6.4","","100.26","","","","","","Haze"
"1978-11-11 18:00","1978","11","11","18:00","9.1","","6.3","","82","","32","","13","","6.4","","100.36","","","","","","Haze"
"1978-11-11 19:00","1978","11","11","19:00","7.4","","5.5","","88","","36","","24","","8.0","","100.39","","","","","","Fog"
"1978-11-11 20:00","1978","11","11","20:00","5.9","","3.9","","87","","33","","30","","12.9","","100.49","","","","","","Cloudy"
"1978-11-11 21:00","1978","11","11","21:00","5.0","","3.3","","89","","32","","26","","19.3","","100.56","","","","","","Cloudy"
"1978-11-11 22:00","1978","11","11","22:00","4.0","","2.2","","88","","35","","24","","12.9","","100.62","","","","","","Rain Showers"
"1978-11-11 23:00","1978","11","11","23:00","2.8","","1.6","","92","","35","","28","","19.3","","100.66","","","","","","Rain Showers"
"1978-11-12 00:00","1978","11","12","00:00","2.3","","1.1","","92","","36","","22","","19.3","","100.69","","","","","","Rain Showers"
"1978-11-12 01:00","1978","11","12","01:00","2.5","","-0.9","","78","","2","","22","","25.0","","100.76","","","","","","Cloudy"
"1978-11-12 02:00","1978","11","12","02:00","2.0","","-2.1","","74","","1","","20","","25.0","","100.82","","","","","","Cloudy"
"1978-11-12 03:00","1978","11","12","03:00","1.5","","-2.4","","75","","2","","22","","25.0","","100.85","","","","","","Cloudy"
"1978-11-12 04:00","1978","11","12","04:00","0.9","","-2.4","","79","","2","","19","","25.0","","100.89","","","","","","Mostly Cloudy"
"1978-11-12 05:00","1978","11","12","05:00","0.4","","-3.1","","77","","3","","15","","25.0","","100.95","","","","","","Mostly Cloudy"
"1978-11-12 06:00","1978","11","12","06:00","-0.5","","-4.0","","77","","3","","20","","25.0","","100.95","","","","-6","","Cloudy"
"1978-11-12 07:00","1978","11","12","07:00","-1.1","","-4.7","","76","","2","","17","","25.0","","101.02","","","","-6","","Mostly Cloudy"
"1978-11-12 08:00","1978","11","12","08:00","-0.9","","-4.1","","79","","3","","17","","40.2","","101.09","","","","-6","","Mostly Cloudy"
"1978-11-12 09:00","1978","11","12","09:00","-1.0","","-5.7","","70","","5","","19","","40.2","","101.15","","","","-6","","Mostly Cloudy"
"1978-11-12 10:00","1978","11","12","10:00","-1.0","","-4.4","","78","","3","","15","","40.2","","101.15","","","","-6","","Cloudy"
"1978-11-12 11:00","1978","11","12","11:00","-0.6","","-4.4","","76","","3","","11","","40.2","","101.15","","","","-4","","Mostly Cloudy"
"1978-11-12 12:00","1978","11","12","12:00","0.0","","-2.9","","81","","4","","13","","40.2","","101.05","","","","-4","","Cloudy"
"1978-11-12 13:00","1978","11","12","13:00","0.2","","-3.8","","74","","4","","13","","40.2","","101.02","","","","","","Cloudy"
"1978-11-12 14:00","1978","11","12","14:00","0.5","","-3.7","","73","","7","","11","","40.2","","100.99","","","","","","Cloudy"
"1978-11-12 15:00","1978","11","12","15:00","0.6","","-4.3","","70","","6","","9","","40.2","","100.99","","","","","","Mostly Cloudy"
"1978-11-12 16:00","1978","11","12","16:00","0.7","","-4.3","","69","","7","","9","","40.2","","100.95","","","","","","Mostly Cloudy"
"1978-11-12 17:00","1978","11","12","17:00","0.6","","-3.7","","73","","6","","9","","24.1","","100.95","","","","","","Cloudy"
"1978-11-12 18:00","1978","11","12","18:00","0.8","","-3.0","","76","","7","","9","","25.0","","100.92","","","","","","Cloudy"
"1978-11-12 19:00","1978","11","12","19:00","0.5","","-3.7","","73","","7","","13","","25.0","","100.92","","","","","","Mostly Cloudy"
"1978-11-12 20:00","1978","11","12","20:00","0.7","","-4.3","","69","","5","","9","","25.0","","100.92","","","","","","Cloudy"
"1978-11-12 21:00","1978","11","12","21:00","0.7","","-4.3","","69","","4","","11","","25.0","","100.92","","","","","","Cloudy"
"1978-11-12 22:00","1978","11","12","22:00","0.5","","-4.3","","70","","5","","17","","25.0","","100.89","","","","","","Cloudy"
"1978-11-12 23:00","1978","11","12","23:00","0.2","","-5.0","","68","","3","","11","","25.0","","100.89","","","","","","Cloudy"
"1978-11-13 00:00","1978","11","13","00:00","0.0","","-5.6","","66","","5","","19","","25.0","","100.89","","","","-5","","Cloudy"
"1978-11-13 01:00","1978","11","13","01:00","-0.2","","-5.6","","67","","5","","19","","25.0","","100.85","","","","-5","","Mostly Cloudy"
"1978-11-13 02:00","1978","11","13","02:00","-0.5","","-6.0","","66","","6","","17","","25.0","","100.82","","","","-5","","Mostly Cloudy"
"1978-11-13 03:00","1978","11","13","03:00","-1.0","","-6.3","","67","","6","","17","","25.0","","100.79","","","","-6","","Mostly Cloudy"
"1978-11-13 04:00","1978","11","13","04:00","-1.4","","-6.0","","71","","5","","13","","25.0","","100.76","","","","-6","","Cloudy"
"1978-11-13 05:00","1978","11","13","05:00","-1.8","","-6.7","","69","","5","","13","","25.0","","100.66","","","","-6","","Mostly Cloudy"
"1978-11-13 06:00","1978","11","13","06:00","-1.6","","-5.4","","75","","4","","11","","25.0","","100.59","","","","-5","","Mostly Cloudy"
"1978-11-13 07:00","1978","11","13","07:00","-1.2","","-4.4","","79","","4","","7","","25.0","","100.59","","","","-4","","Cloudy"
"1978-11-13 08:00","1978","11","13","08:00","0.0","","-3.2","","79","","6","","13","","32.2","","100.52","","","","-4","","Cloudy"
"1978-11-13 09:00","1978","11","13","09:00","0.8","","-1.9","","82","","7","","11","","32.2","","100.52","","","","","","Cloudy"
"1978-11-13 10:00","1978","11","13","10:00","1.5","","-2.4","","75","","7","","6","","32.2","","100.46","","","","","","Cloudy"
"1978-11-13 11:00","1978","11","13","11:00","2.3","","-0.9","","80","","10","","7","","19.3","","100.36","","","","","","Cloudy"
"1978-11-13 12:00","1978","11","13","12:00","4.2","","2.2","","87","","10","","15","","8.0","","100.19","","","","","","Fog"
"1978-11-13 13:00","1978","11","13","13:00","4.5","","2.7","","88","","12","","17","","8.0","","100.09","","","","","","Rain,Fog"
"1978-11-13 14:00","1978","11","13","14:00","5.0","","3.7","","91","","11","","13","","9.7","","99.96","","","","","","Fog"
"1978-11-13 15:00","1978","11","13","15:00","5.4","","4.2","","92","","13","","9","","8.0","","99.89","","","","","","Rain,Fog"
"1978-11-13 16:00","1978","11","13","16:00","6.1","","4.3","","88","","11","","15","","8.0","","99.79","","","","","","Fog"
"1978-11-13 17:00","1978","11","13","17:00","6.6","","4.9","","89","","12","","15","","8.0","","99.62","","","","","","Fog"
"1978-11-13 18:00","1978","11","13","18:00","7.5","","6.3","","92","","13","","9","","8.0","","99.49","","","","","","Fog"
"1978-11-13 19:00","1978","11","13","19:00","8.2","","6.8","","91","","15","","11","","9.7","","99.39","","","","","","Fog"
"1978-11-13 20:00","1978","11","13","20:00","8.7","","7.7","","93","","15","","11","","8.0","","99.29","","","","","","Rain,Fog"
"1978-11-13 21:00","1978","11","13","21:00","9.0","","7.9","","93","","18","","11","","9.7","","99.22","","","","","","Rain,Fog"
"1978-11-13 22:00","1978","11","13","22:00","10.3","","9.0","","92","","18","","15","","9.7","","99.19","","","","","","Fog"
"1978-11-13 23:00","1978","11","13","23:00","12.4","","10.8","","90","","20","","28","","9.7","","99.12","","","","","","Rain,Fog"
"1978-11-14 00:00","1978","11","14","00:00","12.5","","11.5","","94","","20","","24","","8.0","","99.06","","","","","","Rain,Fog"
"1978-11-14 01:00","1978","11","14","01:00","12.7","","11.8","","94","","21","","20","","4.0","","99.02","","","","","","Heavy Rain,Fog"
"1978-11-14 02:00","1978","11","14","02:00","13.1","","12.3","","95","","20","","19","","4.8","","98.96","","","","","","Fog"
"1978-11-14 03:00","1978","11","14","03:00","13.2","","12.0","","92","","20","","19","","8.0","","98.89","","","","","","Rain,Fog"
"1978-11-14 04:00","1978","11","14","04:00","14.3","","12.8","","91","","21","","26","","8.0","","98.89","","","","","","Rain Showers,Fog"
"1978-11-14 05:00","1978","11","14","05:00","14.1","","13.0","","93","","20","","17","","8.0","","98.86","","","","","","Fog"
"1978-11-14 06:00","1978","11","14","06:00","14.5","","13.5","","94","","23","","22","","6.4","","98.86","","","","","","Rain Showers,Fog"
"1978-11-14 07:00","1978","11","14","07:00","12.2","","7.9","","75","","25","","15","","25.0","","98.99","","","","","","Mostly Cloudy"
"1978-11-14 08:00","1978","11","14","08:00","12.0","","6.3","","68","","24","","19","","32.2","","99.02","","","","","","Mostly Cloudy"
"1978-11-14 09:00","1978","11","14","09:00","11.8","","6.7","","71","","25","","20","","32.2","","99.12","","","","","","Mostly Cloudy"
"1978-11-14 10:00","1978","11","14","10:00","11.8","","6.3","","69","","26","","28","","32.2","","99.16","","","","","","Mostly Cloudy"
"1978-11-14 11:00","1978","11","14","11:00","11.5","","5.7","","68","","25","","26","","32.2","","99.22","","","","","","Mostly Cloudy"
"1978-11-14 12:00","1978","11","14","12:00","11.5","","0.1","","45","","26","","43","","32.2","","99.26","","","","","","Mostly Cloudy"
"1978-11-14 13:00","1978","11","14","13:00","11.4","","2.8","","55","","26","","31","","32.2","","99.26","","","","","","Mostly Cloudy"
"1978-11-14 14:00","1978","11","14","14:00","9.0","","2.2","","62","","29","","33","","32.2","","99.39","","","","","","Mostly Cloudy"
"1978-11-14 15:00","1978","11","14","15:00","7.1","","0.2","","62","","28","","37","","32.2","","99.49","","","","","","Mainly Clear"
"1978-11-14 16:00","1978","11","14","16:00","5.7","","-1.2","","61","","28","","33","","32.2","","99.66","","","","","","Mostly Cloudy"
"1978-11-14 17:00","1978","11","14","17:00","4.6","","-1.9","","63","","28","","28","","24.1","","99.76","","","","","","Mostly Cloudy"
"1978-11-14 18:00","1978","11","14","18:00","4.3","","-1.9","","64","","28","","19","","25.0","","99.86","","","","","","Mostly Cloudy"
"1978-11-14 19:00","1978","11","14","19:00","4.2","","-2.5","","62","","27","","19","","25.0","","99.96","","","","","","Cloudy"
"1978-11-14 20:00","1978","11","14","20:00","4.0","","-2.5","","62","","27","","20","","25.0","","100.06","","","","","","Cloudy"
"1978-11-14 21:00","1978","11","14","21:00","3.6","","-3.2","","61","","27","","13","","25.0","","100.09","","","","","","Cloudy"
"1978-11-14 22:00","1978","11","14","22:00","3.4","","-2.0","","68","","26","","17","","25.0","","100.16","","","","","","Cloudy"
"1978-11-14 23:00","1978","11","14","23:00","3.3","","-2.0","","68","","26","","17","","25.0","","100.19","","","","","","Cloudy"
"1978-11-15 00:00","1978","11","15","00:00","3.0","","-2.0","","70","","26","","17","","25.0","","100.26","","","","","","Mostly Cloudy"
"1978-11-15 01:00","1978","11","15","01:00","2.6","","-2.6","","68","","25","","11","","25.0","","100.29","","","","","","Mostly Cloudy"
"1978-11-15 02:00","1978","11","15","02:00","2.4","","-2.0","","73","","24","","13","","25.0","","100.29","","","","","","Mostly Cloudy"
"1978-11-15 03:00","1978","11","15","03:00","2.3","","-1.5","","76","","25","","15","","25.0","","100.36","","","","","","Mostly Cloudy"
"1978-11-15 04:00","1978","11","15","04:00","2.0","","-2.1","","74","","26","","13","","25.0","","100.39","","","","","","Cloudy"
"1978-11-15 05:00","1978","11","15","05:00","2.3","","-1.5","","76","","26","","11","","25.0","","100.39","","","","","","Cloudy"
"1978-11-15 06:00","1978","11","15","06:00","2.2","","-2.1","","73","","25","","13","","25.0","","100.46","","","","","","Cloudy"
"1978-11-15 07:00","1978","11","15","07:00","2.3","","-1.5","","76","","26","","13","","25.0","","100.52","","","","","","Mostly Cloudy"
"1978-11-15 08:00","1978","11","15","08:00","2.5","","-1.5","","75","","25","","13","","32.2","","100.59","","","","","","Cloudy"
"1978-11-15 09:00","1978","11","15","09:00","3.0","","-0.9","","76","","25","","15","","32.2","","100.62","","","","","","Cloudy"
"1978-11-15 10:00","1978","11","15","10:00","3.6","","-1.4","","70","","27","","15","","32.2","","100.69","","","","","","Cloudy"
"1978-11-15 11:00","1978","11","15","11:00","4.1","","-1.4","","67","","29","","15","","32.2","","100.69","","","","","","Cloudy"
"1978-11-15 12:00","1978","11","15","12:00","4.5","","-1.3","","66","","26","","13","","32.2","","100.66","","","","","","Cloudy"
"1978-11-15 13:00","1978","11","15","13:00","4.4","","-1.9","","64","","26","","13","","32.2","","100.62","","","","","","Cloudy"
"1978-11-15 14:00","1978","11","15","14:00","4.4","","-2.5","","61","","28","","11","","32.2","","100.62","","","","","","Cloudy"
"1978-11-15 15:00","1978","11","15","15:00","4.2","","-2.5","","62","","25","","7","","32.2","","100.62","","","","","","Cloudy"
"1978-11-15 16:00","1978","11","15","16:00","4.0","","-1.9","","65","","27","","4","","40.2","","100.66","","","","","","Cloudy"
"1978-11-15 17:00","1978","11","15","17:00","3.2","","-2.6","","65","","26","","2","","40.2","","100.59","","","","","","Mostly Cloudy"
"1978-11-15 18:00","1978","11","15","18:00","2.8","","-2.0","","71","","27","","2","","25.0","","100.59","","","","","","Mostly Cloudy"
"1978-11-15 19:00","1978","11","15","19:00","2.8","","-2.6","","68","","27","","2","","25.0","","100.62","","","","","","Mostly Cloudy"
"1978-11-15 20:00","1978","11","15","20:00","2.4","","-1.5","","75","","29","","6","","25.0","","100.62","","","","","","Mostly Cloudy"
"1978-11-15 21:00","1978","11","15","21:00","1.7","","-2.1","","76","","","","0","","24.1","","100.66","","","","","","Mostly Cloudy"
"1978-11-15 22:00","1978","11","15","22:00","0.8","","-1.5","","85","","26","","2","","24.1","","100.66","","","","","","Mostly Cloudy"
"1978-11-15 23:00","1978","11","15","23:00","0.8","","-1.0","","88","","24","","2","","24.1","","100.69","","","","","","Mostly Cloudy"
"1978-11-16 00:00","1978","11","16","00:00","0.0","","-1.3","","91","","27","","4","","24.1","","100.72","","","","-1","","Mostly Cloudy"
"1978-11-16 01:00","1978","11","16","01:00","-0.2","","-1.2","","93","","31","","4","","24.1","","100.69","","","","-1","","Mostly Cloudy"
"1978-11-16 02:00","1978","11","16","02:00","-0.5","","-1.3","","94","","34","","4","","24.1","","100.76","","","","-2","","Mostly Cloudy"
"1978-11-16 03:00","1978","11","16","03:00","-2.6","","-4.2","","89","","34","","7","","24.1","","100.79","","","","-5","","Mainly Clear"
"1978-11-16 04:00","1978","11","16","04:00","-2.4","","-4.8","","84","","33","","7","","24.1","","100.85","","","","-5","","Mostly Cloudy"
"1978-11-16 05:00","1978","11","16","05:00","-1.8","","-3.6","","87","","34","","11","","24.1","","100.85","","","","-6","","Mostly Cloudy"
"1978-11-16 06:00","1978","11","16","06:00","0.0","","-2.0","","86","","36","","6","","24.1","","100.89","","","","-2","","Mostly Cloudy"
"1978-11-16 07:00","1978","11","16","07:00","0.0","","-3.2","","79","","","","0","","24.1","","100.95","","","","","","Mainly Clear"
"1978-11-16 08:00","1978","11","16","08:00","-0.8","","-3.3","","83","","27","","4","","24.1","","101.05","","","","-2","","Mainly Clear"
"1978-11-16 09:00","1978","11","16","09:00","2.1","","-1.5","","77","","30","","2","","24.1","","101.09","","","","","","Mainly Clear"
"1978-11-16 10:00","1978","11","16","10:00","4.3","","-5.1","","50","","31","","4","","32.2","","101.09","","","","","","Mainly Clear"
"1978-11-16 11:00","1978","11","16","11:00","5.4","","-4.3","","50","","10","","7","","32.2","","101.19","","","","","","Mainly Clear"
"1978-11-16 12:00","1978","11","16","12:00","6.0","","-4.3","","48","","11","","11","","32.2","","101.09","","","","","","Mainly Clear"
"1978-11-16 13:00","1978","11","16","13:00","6.4","","-3.5","","49","","12","","15","","32.2","","101.05","","","","","","Mostly Cloudy"
"1978-11-16 14:00","1978","11","16","14:00","6.0","","-3.6","","50","","12","","11","","32.2","","101.02","","","","","","Mainly Clear"
"1978-11-16 15:00","1978","11","16","15:00","5.6","","-3.0","","54","","11","","13","","32.2","","101.05","","","","","","Mainly Clear"
"1978-11-16 16:00","1978","11","16","16:00","5.2","","-2.4","","58","","10","","11","","32.2","","100.99","","","","","","Mainly Clear"
"1978-11-16 17:00","1978","11","16","17:00","3.9","","-2.5","","63","","9","","13","","32.2","","101.05","","","","","","Mainly Clear"
"1978-11-16 18:00","1978","11","16","18:00","2.9","","-2.6","","67","","9","","11","","25.0","","101.09","","","","","","Mainly Clear"
"1978-11-16 19:00","1978","11","16","19:00","3.4","","-1.4","","71","","6","","11","","25.0","","101.09","","","","","","Mainly Clear"
"1978-11-16 20:00","1978","11","16","20:00","3.0","","-1.5","","72","","6","","11","","25.0","","101.09","","","","","","Mainly Clear"
"1978-11-16 21:00","1978","11","16","21:00","2.7","","-1.5","","74","","5","","4","","25.0","","101.09","","","","","","Clear"
"1978-11-16 22:00","1978","11","16","22:00","3.2","","-0.9","","74","","10","","15","","25.0","","101.02","","","","","","Clear"
"1978-11-16 23:00","1978","11","16","23:00","4.1","","-0.8","","70","","10","","19","","25.0","","100.99","","","","","","Clear"
"1978-11-17 00:00","1978","11","17","00:00","4.0","","-0.8","","71","","11","","20","","25.0","","100.95","","","","","","Mainly Clear"
"1978-11-17 01:00","1978","11","17","01:00","4.3","","1.3","","81","","11","","28","","25.0","","100.79","","","","","","Mainly Clear"
"1978-11-17 02:00","1978","11","17","02:00","4.1","","0.8","","79","","10","","22","","25.0","","100.72","","","","","","Mainly Clear"
"1978-11-17 03:00","1978","11","17","03:00","3.6","","0.2","","78","","10","","28","","25.0","","100.59","","","","","","Mostly Cloudy"
"1978-11-17 04:00","1978","11","17","04:00","4.8","","0.4","","73","","10","","26","","25.0","","100.42","","","","","","Mostly Cloudy"
"1978-11-17 05:00","1978","11","17","05:00","4.4","","0.3","","75","","10","","26","","25.0","","100.32","","","","","","Cloudy"
"1978-11-17 06:00","1978","11","17","06:00","4.5","","1.3","","80","","11","","26","","25.0","","100.22","","","","","","Cloudy"
"1978-11-17 07:00","1978","11","17","07:00","4.6","","1.3","","79","","10","","24","","24.1","","100.09","","","","","","Cloudy"
"1978-11-17 08:00","1978","11","17","08:00","5.0","","1.9","","80","","10","","17","","16.1","","100.06","","","","","","Cloudy"
"1978-11-17 09:00","1978","11","17","09:00","4.5","","3.6","","94","","9","","22","","4.8","","99.96","","","","","","Rain,Fog"
"1978-11-17 10:00","1978","11","17","10:00","5.0","","4.2","","95","","9","","28","","4.8","","99.86","","","","","","Rain,Fog"
"1978-11-17 11:00","1978","11","17","11:00","5.5","","4.7","","95","","10","","28","","4.0","","99.69","","","","","","Rain,Fog"
"1978-11-17 12:00","1978","11","17","12:00","6.0","","5.2","","95","","11","","24","","3.2","","99.49","","","","","","Moderate Rain,Fog"
"1978-11-17 13:00","1978","11","17","13:00","6.4","","6.1","","98","","11","","24","","3.2","","99.29","","","","","","Rain,Fog"
"1978-11-17 14:00","1978","11","17","14:00","7.0","","6.6","","97","","11","","22","","4.0","","99.09","","","","","","Rain,Fog"
"1978-11-17 15:00","1978","11","17","15:00","7.7","","7.7","","100","","13","","24","","3.2","","98.86","","","","","","Moderate Rain,Fog"
"1978-11-17 16:00","1978","11","17","16:00","8.5","","8.1","","97","","12","","22","","4.8","","98.69","","","","","","Rain,Fog"
"1978-11-17 17:00","1978","11","17","17:00","9.1","","8.6","","97","","13","","26","","4.0","","98.46","","","","","","Rain,Fog"
"1978-11-17 18:00","1978","11","17","18:00","10.0","","8.9","","93","","16","","19","","16.1","","98.36","","","","","","Rain"
"1978-11-17 19:00","1978","11","17","19:00","11.0","","9.2","","89","","17","","22","","25.0","","98.26","","","","","","Mostly Cloudy"
"1978-11-17 20:00","1978","11","17","20:00","12.1","","9.5","","84","","17","","28","","25.0","","98.12","","","","","","Mostly Cloudy"
"1978-11-17 21:00","1978","11","17","21:00","12.8","","11.3","","91","","21","","28","","12.9","","98.09","","","","","","Rain"
"1978-11-17 22:00","1978","11","17","22:00","11.9","","8.7","","81","","24","","37","","25.0","","98.16","","","","","","Mostly Cloudy"
"1978-11-17 23:00","1978","11","17","23:00","9.0","","4.5","","73","","24","","37","","25.0","","98.26","","","","","","Mostly Cloudy"
"1978-11-18 00:00","1978","11","18","00:00","8.0","","3.9","","75","","23","","48","","25.0","","98.39","","","","","","Mostly Cloudy"
"1978-11-18 01:00","1978","11","18","01:00","7.0","","3.2","","77","","24","","57","","25.0","","98.42","","","","","","Rain"
"1978-11-18 02:00","1978","11","18","02:00","5.6","","2.4","","80","","23","","50","","25.0","","98.49","","","","","","Rain"
"1978-11-18 03:00","1978","11","18","03:00","5.6","","1.5","","75","","23","","41","","25.0","","98.69","","","","","","Cloudy"
"1978-11-18 04:00","1978","11","18","04:00","5.5","","1.5","","75","","23","","37","","25.0","","98.79","","","","","","Cloudy"
"1978-11-18 05:00","1978","11","18","05:00","5.3","","2.4","","82","","23","","24","","25.0","","98.89","","","","","","Rain"
"1978-11-18 06:00","1978","11","18","06:00","5.9","","2.0","","76","","25","","26","","25.0","","98.99","","","","","","Rain"
"1978-11-18 07:00","1978","11","18","07:00","6.2","","1.0","","69","","25","","26","","25.0","","99.16","","","","","","Rain"
"1978-11-18 08:00","1978","11","18","08:00","5.9","","1.5","","73","","26","","31","","40.2","","99.29","","","","","","Rain"
"1978-11-18 09:00","1978","11","18","09:00","6.3","","1.6","","72","","25","","31","","40.2","","99.42","","","","","","Cloudy"
"1978-11-18 10:00","1978","11","18","10:00","6.4","","1.6","","71","","26","","30","","40.2","","99.56","","","","","","Cloudy"
"1978-11-18 11:00","1978","11","18","11:00","7.0","","1.7","","69","","24","","30","","40.2","","99.59","","","","","","Cloudy"
"1978-11-18 12:00","1978","11","18","12:00","6.6","","1.5","","70","","26","","30","","40.2","","99.69","","","","","","Cloudy"
"1978-11-18 13:00","1978","11","18","13:00","6.6","","1.6","","70","","26","","28","","40.2","","99.72","","","","","","Cloudy"
"1978-11-18 14:00","1978","11","18","14:00","6.4","","1.5","","71","","26","","24","","32.2","","99.79","","","","","","Rain Showers"
"1978-11-18 15:00","1978","11","18","15:00","6.5","","1.1","","68","","26","","19","","32.2","","99.86","","","","","","Cloudy"
"1978-11-18 16:00","1978","11","18","16:00","6.1","","1.0","","70","","27","","17","","40.2","","99.96","","","","","","Mostly Cloudy"
"1978-11-18 17:00","1978","11","18","17:00","5.6","","-0.1","","67","","26","","19","","40.2","","99.99","","","","","","Mostly Cloudy"
"1978-11-18 18:00","1978","11","18","18:00","4.3","","1.8","","84","","24","","11","","24.1","","100.06","","","","","","Mostly Cloudy"
"1978-11-18 19:00","1978","11","18","19:00","3.4","","0.7","","83","","23","","6","","24.1","","100.09","","","","","","Mostly Cloudy"
"1978-11-18 20:00","1978","11","18","20:00","4.6","","1.3","","79","","23","","13","","24.1","","100.12","","","","","","Mostly Cloudy"
"1978-11-18 21:00","1978","11","18","21:00","4.5","","1.3","","80","","23","","13","","24.1","","100.19","","","","","","Cloudy"
"1978-11-18 22:00","1978","11","18","22:00","4.5","","1.3","","80","","22","","13","","24.1","","100.19","","","","","","Cloudy"
"1978-11-18 23:00","1978","11","18","23:00","4.2","","0.8","","78","","21","","11","","24.1","","100.16","","","","","","Mostly Cloudy"
"1978-11-19 00:00","1978","11","19","00:00","3.8","","1.3","","84","","21","","15","","24.1","","100.19","","","","","","Mostly Cloudy"
"1978-11-19 01:00","1978","11","19","01:00","3.5","","0.7","","82","","21","","13","","24.1","","100.19","","","","","","Mostly Cloudy"
"1978-11-19 02:00","1978","11","19","02:00","4.0","","0.3","","77","","21","","15","","24.1","","100.16","","","","","","Cloudy"
"1978-11-19 03:00","1978","11","19","03:00","4.4","","0.8","","77","","24","","26","","24.1","","100.19","","","","","","Cloudy"
"1978-11-19 04:00","1978","11","19","04:00","3.7","","0.7","","81","","23","","20","","24.1","","100.16","","","","","","Mainly Clear"
"1978-11-19 05:00","1978","11","19","05:00","4.1","","1.3","","82","","23","","22","","24.1","","100.19","","","","","","Mostly Cloudy"
"1978-11-19 06:00","1978","11","19","06:00","3.8","","1.7","","86","","23","","15","","24.1","","100.22","","","","","","Mostly Cloudy"
"1978-11-19 07:00","1978","11","19","07:00","4.4","","1.8","","83","","26","","15","","24.1","","100.32","","","","","","Mostly Cloudy"
"1978-11-19 08:00","1978","11","19","08:00","4.8","","-0.2","","70","","28","","22","","24.1","","100.46","","","","","","Mostly Cloudy"
"1978-11-19 09:00","1978","11","19","09:00","4.0","","-3.2","","59","","28","","30","","32.2","","100.59","","","","","","Mainly Clear"
"1978-11-19 10:00","1978","11","19","10:00","4.2","","-3.8","","56","","29","","26","","40.2","","100.62","","","","","","Mainly Clear"
"1978-11-19 11:00","1978","11","19","11:00","5.1","","-3.1","","55","","30","","26","","40.2","","100.69","","","","","","Mainly Clear"
"1978-11-19 12:00","1978","11","19","12:00","5.3","","-3.0","","55","","28","","28","","40.2","","100.69","","","","","","Mainly Clear"
"1978-11-19 13:00","1978","11","19","13:00","5.7","","-3.0","","53","","29","","28","","40.2","","100.69","","","","","","Mainly Clear"
"1978-11-19 14:00","1978","11","19","14:00","5.0","","-3.7","","53","","29","","24","","40.2","","100.76","","","","","","Mostly Cloudy"
"1978-11-19 15:00","1978","11","19","15:00","4.5","","-4.4","","52","","29","","26","","40.2","","100.79","","","","","","Mostly Cloudy"
"1978-11-19 16:00","1978","11","19","16:00","3.4","","-5.2","","53","","30","","28","","40.2","","100.89","","","","","","Mostly Cloudy"
"1978-11-19 17:00","1978","11","19","17:00","3.0","","-4.5","","58","","30","","19","","25.0","","100.95","","","","","","Mostly Cloudy"
"1978-11-19 18:00","1978","11","19","18:00","2.3","","-3.2","","67","","30","","13","","25.0","","100.99","","","","","","Mostly Cloudy"
"1978-11-19 19:00","1978","11","19","19:00","1.4","","-2.9","","73","","31","","11","","25.0","","101.02","","","","","","Mostly Cloudy"
"1978-11-19 20:00","1978","11","19","20:00","1.0","","-3.0","","75","","32","","9","","25.0","","101.05","","","","","","Mostly Cloudy"
"1978-11-19 21:00","1978","11","19","21:00","0.8","","-3.0","","76","","32","","7","","25.0","","101.09","","","","","","Mostly Cloudy"
"1978-11-19 22:00","1978","11","19","22:00","0.7","","-3.7","","72","","33","","9","","25.0","","101.12","","","","","","Mostly Cloudy"
"1978-11-19 23:00","1978","11","19","23:00","0.5","","-3.7","","73","","31","","13","","25.0","","101.12","","","","","","Cloudy"
"1978-11-20 00:00","1978","11","20","00:00","0.5","","-4.9","","67","","35","","11","","25.0","","101.15","","","","","","Cloudy"
"1978-11-20 01:00","1978","11","20","01:00","0.0","","-5.6","","66","","35","","19","","25.0","","101.22","","","","-5","","Cloudy"
"1978-11-20 02:00","1978","11","20","02:00","-1.4","","-5.7","","72","","35","","22","","25.0","","101.29","","","","-7","","Cloudy"
"1978-11-20 03:00","1978","11","20","03:00","-2.4","","-5.7","","78","","36","","17","","25.0","","101.39","","","","-8","","Cloudy"
"1978-11-20 04:00","1978","11","20","04:00","-3.1","","-8.1","","68","","35","","22","","25.0","","101.49","","","","-9","","Cloudy"
"1978-11-20 05:00","1978","11","20","05:00","-3.5","","-8.8","","67","","36","","22","","25.0","","101.52","","","","-10","","Cloudy"
"1978-11-20 06:00","1978","11","20","06:00","-4.0","","-8.3","","72","","36","","24","","25.0","","101.55","","","","-11","","Cloudy"
"1978-11-20 07:00","1978","11","20","07:00","-4.6","","-10.2","","65","","36","","20","","25.0","","101.62","","","","-11","","Cloudy"
"1978-11-20 08:00","1978","11","20","08:00","-5.0","","-12.2","","57","","36","","20","","40.2","","101.65","","","","-12","","Cloudy"
"1978-11-20 09:00","1978","11","20","09:00","-4.6","","-11.4","","59","","36","","17","","40.2","","101.69","","","","-10","","Cloudy"
"1978-11-20 10:00","1978","11","20","10:00","-4.4","","-10.6","","62","","35","","20","","19.3","","101.72","","","","-11","","Snow Showers"
"1978-11-20 11:00","1978","11","20","11:00","-5.2","","-8.2","","79","","35","","11","","4.0","","101.75","","","","-10","","Snow"
"1978-11-20 12:00","1978","11","20","12:00","-3.6","","-9.1","","65","","2","","6","","40.2","","101.69","","","","-6","","Cloudy"
"1978-11-20 13:00","1978","11","20","13:00","-3.6","","-9.9","","62","","1","","15","","16.1","","101.65","","","","-9","","Snow"
"1978-11-20 14:00","1978","11","20","14:00","-4.1","","-9.1","","68","","4","","13","","24.1","","101.59","","","","-9","","Snow"
"1978-11-20 15:00","1978","11","20","15:00","-4.6","","-9.8","","67","","35","","15","","40.2","","101.55","","","","-10","","Snow"
"1978-11-20 16:00","1978","11","20","16:00","-4.6","","-9.8","","67","","2","","9","","40.2","","101.59","","","","-8","","Snow"
"1978-11-20 17:00","1978","11","20","17:00","-4.6","","-9.8","","67","","2","","9","","25.0","","101.59","","","","-8","","Cloudy"
"1978-11-20 18:00","1978","11","20","18:00","-4.8","","-10.5","","64","","33","","6","","25.0","","101.59","","","","-8","","Cloudy"
"1978-11-20 19:00","1978","11","20","19:00","-4.7","","-9.8","","68","","36","","9","","25.0","","101.59","","","","-9","","Cloudy"
"1978-11-20 20:00","1978","11","20","20:00","-4.8","","-10.1","","66","","2","","7","","25.0","","101.55","","","","-8","","Cloudy"
"1978-11-20 21:00","1978","11","20","21:00","-5.0","","-9.7","","69","","2","","9","","25.0","","101.52","","","","-9","","Cloudy"
"1978-11-20 22:00","1978","11","20","22:00","-5.2","","-9.7","","71","","2","","9","","25.0","","101.52","","","","-9","","Cloudy"
"1978-11-20 23:00","1978","11","20","23:00","-5.5","","-10.0","","70","","35","","7","","25.0","","101.49","","","","-9","","Cloudy"
"1978-11-21 00:00","1978","11","21","00:00","-5.4","","-9.2","","74","","1","","7","","25.0","","101.45","","","","-9","","Cloudy"
"1978-11-21 01:00","1978","11","21","01:00","-4.7","","-8.7","","73","","36","","7","","25.0","","101.42","","","","-8","","Mostly Cloudy"
"1978-11-21 02:00","1978","11","21","02:00","-5.8","","-9.9","","73","","36","","7","","25.0","","101.39","","","","-9","","Mostly Cloudy"
"1978-11-21 03:00","1978","11","21","03:00","-5.6","","-11.2","","64","","36","","9","","25.0","","101.42","","","","-10","","Mostly Cloudy"
"1978-11-21 04:00","1978","11","21","04:00","-5.7","","-9.6","","74","","36","","11","","25.0","","101.39","","","","-10","","Mostly Cloudy"
"1978-11-21 05:00","1978","11","21","05:00","-5.7","","-9.6","","74","","35","","11","","25.0","","101.39","","","","-10","","Mostly Cloudy"
"1978-11-21 06:00","1978","11","21","06:00","-5.6","","-9.6","","73","","2","","4","","25.0","","101.39","","","","-7","","Mostly Cloudy"
"1978-11-21 07:00","1978","11","21","07:00","-4.9","","-8.9","","73","","36","","7","","25.0","","101.42","","","","-8","","Mostly Cloudy"
"1978-11-21 08:00","1978","11","21","08:00","-5.2","","-10.1","","68","","36","","7","","40.2","","101.42","","","","-8","","Mostly Cloudy"
"1978-11-21 09:00","1978","11","21","09:00","-5.0","","-10.5","","65","","2","","9","","40.2","","101.42","","","","-9","","Mostly Cloudy"
"1978-11-21 10:00","1978","11","21","10:00","-4.4","","-10.2","","64","","36","","11","","40.2","","101.39","","","","-9","","Mostly Cloudy"
"1978-11-21 11:00","1978","11","21","11:00","-3.3","","-10.3","","58","","36","","7","","40.2","","101.39","","","","-6","","Mostly Cloudy"
"1978-11-21 12:00","1978","11","21","12:00","-2.9","","-10.4","","56","","5","","6","","40.2","","101.32","","","","-5","","Mostly Cloudy"
"1978-11-21 13:00","1978","11","21","13:00","-1.8","","-9.6","","55","","1","","2","","40.2","","101.25","","","","-3","","Mostly Cloudy"
"1978-11-21 14:00","1978","11","21","14:00","-1.4","","-10.5","","50","","1","","2","","40.2","","101.22","","","","-2","","Mainly Clear"
"1978-11-21 15:00","1978","11","21","15:00","-1.0","","-10.1","","50","","","","0","","40.2","","101.15","","","","","","Mainly Clear"
"1978-11-21 16:00","1978","11","21","16:00","-1.6","","-8.1","","61","","16","","2","","40.2","","101.19","","","","-2","","Mainly Clear"
"1978-11-21 17:00","1978","11","21","17:00","-2.9","","-6.7","","75","","13","","9","","25.0","","101.19","","","","-6","","Mainly Clear"
"1978-11-21 18:00","1978","11","21","18:00","-3.3","","-7.7","","71","","11","","9","","25.0","","101.19","","","","-7","","Mainly Clear"
"1978-11-21 19:00","1978","11","21","19:00","-3.2","","-7.7","","71","","11","","6","","25.0","","101.19","","","","-6","","Mainly Clear"
"1978-11-21 20:00","1978","11","21","20:00","-3.2","","-7.7","","71","","6","","2","","25.0","","101.19","","","","-4","","Mainly Clear"
"1978-11-21 21:00","1978","11","21","21:00","-2.7","","-6.7","","74","","6","","7","","25.0","","101.15","","","","-6","","Mostly Cloudy"
"1978-11-21 22:00","1978","11","21","22:00","-2.6","","-6.4","","75","","5","","6","","25.0","","101.15","","","","-5","","Cloudy"
"1978-11-21 23:00","1978","11","21","23:00","-2.6","","-6.0","","77","","2","","7","","25.0","","101.12","","","","-5","","Cloudy"
"1978-11-22 00:00","1978","11","22","00:00","-2.7","","-5.7","","80","","6","","7","","19.3","","101.09","","","","-6","","Cloudy"
"1978-11-22 01:00","1978","11","22","01:00","-2.5","","-5.4","","80","","6","","4","","19.3","","101.05","","","","-4","","Cloudy"
"1978-11-22 02:00","1978","11","22","02:00","-2.3","","-5.1","","81","","10","","4","","19.3","","101.02","","","","-4","","Cloudy"
"1978-11-22 03:00","1978","11","22","03:00","-1.3","","-3.9","","82","","15","","6","","24.1","","100.99","","","","-4","","Cloudy"
"1978-11-22 04:00","1978","11","22","04:00","-1.3","","-3.6","","84","","14","","9","","25.0","","100.95","","","","-5","","Cloudy"
"1978-11-22 05:00","1978","11","22","05:00","-1.4","","-3.0","","89","","14","","9","","25.0","","100.95","","","","-5","","Cloudy"
"1978-11-22 06:00","1978","11","22","06:00","-1.2","","-2.4","","92","","14","","9","","25.0","","100.99","","","","-4","","Cloudy"
"1978-11-22 07:00","1978","11","22","07:00","-1.1","","-1.9","","94","","14","","7","","25.0","","100.99","","","","-4","","Mostly Cloudy"
"1978-11-22 08:00","1978","11","22","08:00","-0.8","","-5.0","","73","","13","","11","","40.2","","100.99","","","","-5","","Mostly Cloudy"
"1978-11-22 09:00","1978","11","22","09:00","-0.4","","-5.5","","68","","12","","17","","40.2","","101.02","","","","-5","","Mostly Cloudy"
"1978-11-22 10:00","1978","11","22","10:00","-0.2","","-5.2","","69","","13","","19","","40.2","","100.99","","","","-5","","Cloudy"
"1978-11-22 11:00","1978","11","22","11:00","0.1","","-6.5","","61","","13","","19","","40.2","","100.99","","","","","","Cloudy"
"1978-11-22 12:00","1978","11","22","12:00","0.3","","-4.2","","72","","12","","15","","40.2","","100.89","","","","","","Cloudy"
"1978-11-22 13:00","1978","11","22","13:00","0.4","","-5.0","","67","","11","","15","","40.2","","100.82","","","","","","Cloudy"
"1978-11-22 14:00","1978","11","22","14:00","0.6","","-4.9","","67","","11","","13","","40.2","","100.79","","","","","","Cloudy"
"1978-11-22 15:00","1978","11","22","15:00","0.8","","-4.8","","66","","10","","13","","40.2","","100.72","","","","","","Cloudy"
"1978-11-22 16:00","1978","11","22","16:00","1.0","","-4.8","","65","","10","","11","","40.2","","100.69","","","","","","Cloudy"
"1978-11-22 17:00","1978","11","22","17:00","1.1","","-2.4","","77","","10","","7","","40.2","","100.69","","","","","","Cloudy"
"1978-11-22 18:00","1978","11","22","18:00","1.4","","-1.5","","81","","10","","11","","25.0","","100.66","","","","","","Cloudy"
"1978-11-22 19:00","1978","11","22","19:00","1.4","","-1.5","","81","","10","","15","","25.0","","100.66","","","","","","Cloudy"
"1978-11-22 20:00","1978","11","22","20:00","1.5","","-2.9","","73","","11","","11","","25.0","","100.62","","","","","","Cloudy"
"1978-11-22 21:00","1978","11","22","21:00","1.3","","-3.5","","70","","12","","15","","25.0","","100.59","","","","","","Cloudy"
"1978-11-22 22:00","1978","11","22","22:00","1.3","","-3.5","","70","","11","","11","","25.0","","100.56","","","","","","Cloudy"
"1978-11-22 23:00","1978","11","22","23:00","1.5","","-2.9","","73","","11","","11","","25.0","","100.49","","","","","","Cloudy"
"1978-11-23 00:00","1978","11","23","00:00","1.7","","-2.4","","74","","11","","9","","25.0","","100.42","","","","","","Cloudy"
"1978-11-23 01:00","1978","11","23","01:00","1.6","","-2.4","","75","","10","","7","","25.0","","100.36","","","","","","Cloudy"
"1978-11-23 02:00","1978","11","23","02:00","1.5","","-2.1","","77","","9","","7","","25.0","","100.22","","","","","","Cloudy"
"1978-11-23 03:00","1978","11","23","03:00","1.9","","-2.1","","75","","9","","7","","19.3","","100.12","","","","","","Cloudy"
"1978-11-23 04:00","1978","11","23","04:00","2.0","","-1.5","","78","","12","","7","","19.3","","100.02","","","","","","Cloudy"
"1978-11-23 05:00","1978","11","23","05:00","1.8","","-0.4","","85","","10","","9","","19.3","","99.92","","","","","","Cloudy"
"1978-11-23 06:00","1978","11","23","06:00","1.9","","-1.0","","81","","10","","13","","19.3","","99.82","","","","","","Cloudy"
"1978-11-23 07:00","1978","11","23","07:00","2.1","","-0.4","","83","","11","","7","","12.9","","99.72","","","","","","Cloudy"
"1978-11-23 08:00","1978","11","23","08:00","2.0","","0.6","","90","","11","","11","","8.0","","99.59","","","","","","Rain,Snow,Ice Pellets"
"1978-11-23 09:00","1978","11","23","09:00","2.4","","1.1","","91","","11","","13","","6.4","","99.49","","","","","","Rain,Snow,Ice Pellets"
"1978-11-23 10:00","1978","11","23","10:00","2.5","","1.6","","94","","10","","17","","4.0","","99.26","","","","","","Rain,Snow,Fog"
"1978-11-23 11:00","1978","11","23","11:00","2.7","","2.0","","95","","11","","20","","4.0","","99.06","","","","","","Moderate Rain,Snow,Fog"
"1978-11-23 12:00","1978","11","23","12:00","3.2","","2.6","","96","","11","","19","","3.2","","98.79","","","","","","Rain,Fog"
"1978-11-23 13:00","1978","11","23","13:00","3.7","","3.1","","96","","12","","30","","4.0","","98.52","","","","","","Rain,Fog"
"1978-11-23 14:00","1978","11","23","14:00","3.8","","3.6","","99","","13","","24","","3.2","","98.32","","","","","","Rain,Fog"
"1978-11-23 15:00","1978","11","23","15:00","4.5","","4.1","","97","","12","","20","","2.0","","98.16","","","","","","Rain,Fog"
"1978-11-23 16:00","1978","11","23","16:00","5.7","","5.7","","100","","17","","13","","2.0","","98.06","","","","","","Drizzle,Fog"
"1978-11-23 17:00","1978","11","23","17:00","7.4","","6.7","","96","","23","","28","","9.7","","97.99","","","","","","Fog"
"1978-11-23 18:00","1978","11","23","18:00","7.3","","5.9","","91","","24","","22","","9.7","","98.02","","","","","","Fog"
"1978-11-23 19:00","1978","11","23","19:00","7.1","","5.0","","86","","23","","15","","24.1","","98.09","","","","","","Cloudy"
"1978-11-23 20:00","1978","11","23","20:00","6.7","","4.4","","85","","23","","20","","24.1","","98.12","","","","","","Cloudy"
"1978-11-23 21:00","1978","11","23","21:00","6.5","","4.4","","86","","25","","17","","24.1","","98.12","","","","","","Cloudy"
"1978-11-23 22:00","1978","11","23","22:00","6.3","","4.0","","85","","26","","24","","24.1","","98.16","","","","","","Cloudy"
"1978-11-23 23:00","1978","11","23","23:00","5.7","","3.4","","85","","26","","22","","24.1","","98.19","","","","","","Cloudy"
"1978-11-24 00:00","1978","11","24","00:00","5.2","","2.4","","82","","26","","22","","24.1","","98.22","","","","","","Cloudy"
"1978-11-24 01:00","1978","11","24","01:00","4.7","","1.3","","78","","26","","22","","25.0","","98.22","","","","","","Cloudy"
"1978-11-24 02:00","1978","11","24","02:00","4.3","","1.3","","81","","27","","20","","25.0","","98.26","","","","","","Cloudy"
"1978-11-24 03:00","1978","11","24","03:00","4.0","","1.3","","82","","25","","26","","24.1","","98.29","","","","","","Cloudy"
"1978-11-24 04:00","1978","11","24","04:00","3.7","","1.2","","84","","25","","28","","24.1","","98.26","","","","","","Cloudy"
"1978-11-24 05:00","1978","11","24","05:00","3.6","","1.7","","87","","26","","22","","19.3","","98.39","","","","","","Cloudy"
"1978-11-24 06:00","1978","11","24","06:00","3.6","","1.2","","84","","26","","17","","19.3","","98.46","","","","","","Mostly Cloudy"
"1978-11-24 07:00","1978","11","24","07:00","3.5","","1.7","","88","","27","","17","","24.1","","98.49","","","","","","Cloudy"
"1978-11-24 08:00","1978","11","24","08:00","3.5","","1.7","","88","","27","","15","","32.2","","98.59","","","","","","Cloudy"
"1978-11-24 09:00","1978","11","24","09:00","3.7","","1.7","","87","","26","","15","","32.2","","98.66","","","","","","Cloudy"
"1978-11-24 10:00","1978","11","24","10:00","4.0","","1.7","","85","","25","","17","","32.2","","98.72","","","","","","Rain"
"1978-11-24 11:00","1978","11","24","11:00","5.2","","2.4","","82","","26","","19","","40.2","","98.76","","","","","","Mostly Cloudy"
"1978-11-24 12:00","1978","11","24","12:00","5.5","","2.0","","78","","28","","30","","40.2","","98.76","","","","","","Mostly Cloudy"
"1978-11-24 13:00","1978","11","24","13:00","5.6","","2.0","","78","","27","","28","","40.2","","98.72","","","","","","Mostly Cloudy"
"1978-11-24 14:00","1978","11","24","14:00","5.0","","1.9","","80","","27","","28","","40.2","","98.76","","","","","","Rain"
"1978-11-24 15:00","1978","11","24","15:00","4.7","","1.3","","78","","29","","33","","40.2","","98.82","","","","","","Rain Showers"
"1978-11-24 16:00","1978","11","24","16:00","3.5","","1.7","","88","","28","","15","","32.2","","98.92","","","","","","Rain Showers"
"1978-11-24 17:00","1978","11","24","17:00","3.8","","0.6","","80","","26","","13","","24.1","","98.92","","","","","","Cloudy"
"1978-11-24 18:00","1978","11","24","18:00","3.0","","1.1","","87","","26","","17","","24.1","","98.99","","","","","","Cloudy"
"1978-11-24 19:00","1978","11","24","19:00","2.9","","1.1","","88","","27","","15","","24.1","","99.06","","","","","","Cloudy"
"1978-11-24 20:00","1978","11","24","20:00","2.9","","-1.5","","73","","30","","17","","25.0","","99.09","","","","","","Cloudy"
"1978-11-24 21:00","1978","11","24","21:00","1.9","","-1.5","","78","","31","","31","","25.0","","99.16","","","","","","Cloudy"
"1978-11-24 22:00","1978","11","24","22:00","1.7","","-2.9","","71","","29","","26","","25.0","","99.19","","","","","","Cloudy"
"1978-11-24 23:00","1978","11","24","23:00","1.6","","-2.4","","75","","29","","22","","25.0","","99.26","","","","","","Cloudy"
"1978-11-25 00:00","1978","11","25","00:00","1.3","","-2.9","","74","","29","","24","","25.0","","99.26","","","","","","Cloudy"
"1978-11-25 01:00","1978","11","25","01:00","1.1","","-3.0","","74","","28","","26","","25.0","","99.26","","","","","","Mostly Cloudy"
"1978-11-25 02:00","1978","11","25","02:00","0.7","","-3.7","","72","","31","","24","","25.0","","99.29","","","","","","Cloudy"
"1978-11-25 03:00","1978","11","25","03:00","0.4","","-3.2","","77","","29","","22","","25.0","","99.36","","","","","","Cloudy"
"1978-11-25 04:00","1978","11","25","04:00","0.2","","-3.2","","78","","31","","20","","25.0","","99.39","","","","","","Snow Showers"
"1978-11-25 05:00","1978","11","25","05:00","0.0","","-3.4","","78","","30","","17","","25.0","","99.39","","","","-5","","Cloudy"
"1978-11-25 06:00","1978","11","25","06:00","-0.2","","-3.4","","79","","31","","19","","24.1","","99.46","","","","-5","","Snow Showers"
"1978-11-25 07:00","1978","11","25","07:00","-1.2","","-3.6","","84","","1","","11","","24.1","","99.56","","","","-5","","Snow Showers"
"1978-11-25 08:00","1978","11","25","08:00","-2.4","","-5.1","","81","","35","","15","","9.7","","99.59","","","","-7","","Snow Showers"
"1978-11-25 09:00","1978","11","25","09:00","-2.6","","-5.1","","83","","35","","15","","8.0","","99.66","","","","-8","","Snow"
"1978-11-25 10:00","1978","11","25","10:00","-2.4","","-4.8","","84","","35","","15","","8.0","","99.69","","","","-7","","Snow"
"1978-11-25 11:00","1978","11","25","11:00","-1.6","","-4.2","","82","","35","","15","","12.9","","99.72","","","","-6","","Snow"
"1978-11-25 12:00","1978","11","25","12:00","-1.6","","-5.1","","77","","36","","20","","40.2","","99.69","","","","-7","","Snow Showers"
"1978-11-25 13:00","1978","11","25","13:00","-1.6","","-5.4","","75","","33","","20","","40.2","","99.69","","","","-7","","Snow Showers"
"1978-11-25 14:00","1978","11","25","14:00","-2.0","","-5.4","","78","","33","","22","","40.2","","99.69","","","","-8","","Mostly Cloudy"
"1978-11-25 15:00","1978","11","25","15:00","-2.5","","-6.4","","75","","33","","22","","40.2","","99.72","","","","-9","","Mostly Cloudy"
"1978-11-25 16:00","1978","11","25","16:00","-2.5","","-6.0","","77","","34","","22","","40.2","","99.76","","","","-9","","Mostly Cloudy"
"1978-11-25 17:00","1978","11","25","17:00","-3.0","","-6.4","","77","","33","","15","","40.2","","99.86","","","","-8","","Mostly Cloudy"
"1978-11-25 18:00","1978","11","25","18:00","-3.3","","-7.7","","71","","32","","13","","25.0","","99.89","","","","-8","","Mostly Cloudy"
"1978-11-25 19:00","1978","11","25","19:00","-3.5","","-7.0","","77","","33","","13","","25.0","","99.96","","","","-8","","Mostly Cloudy"
"1978-11-25 20:00","1978","11","25","20:00","-5.1","","-7.2","","85","","32","","11","","25.0","","99.96","","","","-10","","Mostly Cloudy"
"1978-11-25 21:00","1978","11","25","21:00","-4.8","","-7.2","","83","","31","","7","","25.0","","99.99","","","","-8","","Mostly Cloudy"
"1978-11-25 22:00","1978","11","25","22:00","-5.5","","-7.8","","84","","33","","13","","25.0","","99.99","","","","-11","","Mostly Cloudy"
"1978-11-25 23:00","1978","11","25","23:00","-6.0","","-9.1","","79","","35","","17","","25.0","","100.02","","","","-12","","Mainly Clear"
"1978-11-26 00:00","1978","11","26","00:00","-6.9","","-10.4","","76","","35","","17","","25.0","","100.09","","","","-13","","Mainly Clear"
"1978-11-26 01:00","1978","11","26","01:00","-7.6","","-10.6","","79","","35","","17","","25.0","","100.12","","","","-14","","Mainly Clear"
"1978-11-26 02:00","1978","11","26","02:00","-8.4","","-11.5","","78","","35","","15","","25.0","","100.12","","","","-15","","Mainly Clear"
"1978-11-26 03:00","1978","11","26","03:00","-8.9","","-11.7","","80","","35","","11","","25.0","","100.19","","","","-14","","Clear"
"1978-11-26 04:00","1978","11","26","04:00","-9.0","","-11.7","","81","","35","","9","","25.0","","100.19","","","","-14","","Clear"
"1978-11-26 05:00","1978","11","26","05:00","-9.6","","-12.3","","81","","34","","7","","25.0","","100.26","","","","-14","","Clear"
"1978-11-26 06:00","1978","11","26","06:00","-10.8","","-13.6","","80","","34","","7","","25.0","","100.29","","","","-15","","Clear"
"1978-11-26 07:00","1978","11","26","07:00","-10.9","","-13.2","","83","","34","","7","","25.0","","100.39","","","","-15","","Mainly Clear"
"1978-11-26 08:00","1978","11","26","08:00","-9.8","","-12.9","","78","","35","","11","","40.2","","100.42","","","","-15","","Mostly Cloudy"
"1978-11-26 09:00","1978","11","26","09:00","-8.6","","-11.5","","80","","36","","9","","40.2","","100.46","","","","-13","","Mostly Cloudy"
"1978-11-26 10:00","1978","11","26","10:00","-7.6","","-10.6","","79","","34","","11","","40.2","","100.49","","","","-13","","Mostly Cloudy"
"1978-11-26 11:00","1978","11","26","11:00","-6.8","","-12.0","","66","","36","","11","","40.2","","100.49","","","","-12","","Mostly Cloudy"
"1978-11-26 12:00","1978","11","26","12:00","-5.7","","-11.2","","65","","2","","6","","40.2","","100.39","","","","-9","","Mostly Cloudy"
"1978-11-26 13:00","1978","11","26","13:00","-5.0","","-12.2","","57","","30","","6","","40.2","","100.39","","","","-8","","Mostly Cloudy"
"1978-11-26 14:00","1978","11","26","14:00","-4.6","","-10.6","","63","","35","","11","","40.2","","100.29","","","","-9","","Mostly Cloudy"
"1978-11-26 15:00","1978","11","26","15:00","-4.9","","-11.3","","61","","4","","6","","40.2","","100.22","","","","-8","","Mostly Cloudy"
"1978-11-26 16:00","1978","11","26","16:00","-5.5","","-10.8","","66","","2","","9","","40.2","","100.29","","","","-10","","Mostly Cloudy"
"1978-11-26 17:00","1978","11","26","17:00","-6.3","","-9.7","","76","","1","","9","","32.2","","100.36","","","","-11","","Cloudy"
"1978-11-26 18:00","1978","11","26","18:00","-7.0","","-10.0","","79","","36","","13","","25.0","","100.39","","","","-13","","Cloudy"
"1978-11-26 19:00","1978","11","26","19:00","-7.0","","-11.2","","72","","2","","15","","25.0","","100.32","","","","-13","","Mostly Cloudy"
"1978-11-26 20:00","1978","11","26","20:00","-6.7","","-9.0","","84","","3","","15","","25.0","","100.29","","","","-13","","Cloudy"
"1978-11-26 21:00","1978","11","26","21:00","-6.4","","-9.0","","82","","3","","19","","25.0","","100.29","","","","-13","","Cloudy"
"1978-11-26 22:00","1978","11","26","22:00","-6.1","","-7.7","","88","","4","","17","","25.0","","100.26","","","","-12","","Cloudy"
"1978-11-26 23:00","1978","11","26","23:00","-5.8","","-7.7","","86","","5","","13","","25.0","","100.22","","","","-11","","Cloudy"
"1978-11-27 00:00","1978","11","27","00:00","-5.7","","-7.1","","90","","6","","22","","16.1","","100.12","","","","-13","","Snow Showers"
"1978-11-27 01:00","1978","11","27","01:00","-5.5","","-7.5","","86","","6","","19","","12.9","","100.09","","","","-12","","Snow Showers"
"1978-11-27 02:00","1978","11","27","02:00","-6.5","","-8.0","","89","","6","","22","","3.2","","100.09","","","","-14","","Snow"
"1978-11-27 03:00","1978","11","27","03:00","-7.7","","-9.5","","87","","6","","24","","3.2","","100.16","","","","-16","","Snow"
"1978-11-27 04:00","1978","11","27","04:00","-8.0","","-10.1","","85","","6","","26","","3.2","","100.06","","","","-16","","Snow"
"1978-11-27 05:00","1978","11","27","05:00","-8.4","","-10.7","","83","","6","","24","","4.0","","99.96","","","","-17","","Snow"
"1978-11-27 06:00","1978","11","27","06:00","-8.2","","-9.3","","92","","6","","26","","2.8","","99.89","","","","-17","","Snow"
"1978-11-27 07:00","1978","11","27","07:00","-7.4","","-9.1","","87","","6","","26","","2.0","","99.86","","","","-16","","Snow"
"1978-11-27 08:00","1978","11","27","08:00","-6.9","","-8.2","","90","","5","","20","","2.0","","99.76","","","","-14","","Snow"
"1978-11-27 09:00","1978","11","27","09:00","-6.2","","-7.4","","91","","6","","24","","1.2","","99.66","","","","-14","","Snow,Blowing Snow"
"1978-11-27 10:00","1978","11","27","10:00","-7.0","","-8.6","","88","","5","","30","","1.6","","99.59","","","","-16","","Snow,Blowing Snow"
"1978-11-27 11:00","1978","11","27","11:00","-6.8","","-8.9","","85","","6","","30","","1.6","","99.42","","","","-15","","Snow,Blowing Snow"
"1978-11-27 12:00","1978","11","27","12:00","-6.4","","-8.3","","86","","6","","33","","1.6","","99.26","","","","-15","","Snow,Blowing Snow"
"1978-11-27 13:00","1978","11","27","13:00","-6.2","","-7.1","","93","","6","","26","","2.0","","99.19","","","","-14","","Snow,Blowing Snow"
"1978-11-27 14:00","1978","11","27","14:00","-5.7","","-6.8","","92","","5","","15","","3.6","","98.99","","","","-11","","Snow"
"1978-11-27 15:00","1978","11","27","15:00","-5.0","","-5.9","","93","","5","","19","","1.6","","98.86","","","","-11","","Snow"
"1978-11-27 16:00","1978","11","27","16:00","-4.7","","-5.7","","93","","3","","19","","1.2","","98.86","","","","-11","","Snow"
"1978-11-27 17:00","1978","11","27","17:00","-5.5","","-6.8","","91","","5","","26","","2.0","","98.79","","","","-13","","Freezing Rain,Snow,Blowing Snow"
"1978-11-27 18:00","1978","11","27","18:00","-5.5","","-6.8","","91","","4","","20","","3.2","","98.76","","","","-12","","Freezing Drizzle,Snow,Snow Grains"
"1978-11-27 19:00","1978","11","27","19:00","-5.6","","-6.5","","93","","2","","17","","4.0","","98.76","","","","-12","","Freezing Drizzle,Snow,Snow Grains"
"1978-11-27 20:00","1978","11","27","20:00","-6.1","","-7.1","","93","","1","","17","","4.8","","98.69","","","","-12","","Freezing Rain,Snow,Snow Grains"
"1978-11-27 21:00","1978","11","27","21:00","-6.1","","-7.1","","93","","33","","15","","4.8","","98.69","","","","-12","","Freezing Drizzle,Snow"
"1978-11-27 22:00","1978","11","27","22:00","-7.8","","-9.3","","89","","34","","20","","4.8","","98.66","","","","-15","","Freezing Drizzle,Snow"
"1978-11-27 23:00","1978","11","27","23:00","-8.2","","-9.0","","94","","35","","20","","6.4","","98.62","","","","-16","","Freezing Drizzle,Snow"
"1978-11-28 00:00","1978","11","28","00:00","-8.4","","-9.9","","89","","33","","20","","16.1","","98.66","","","","-16","","Freezing Drizzle"
"1978-11-28 01:00","1978","11","28","01:00","-8.5","","-9.9","","90","","33","","17","","25.0","","98.66","","","","-15","","Cloudy"
"1978-11-28 02:00","1978","11","28","02:00","-8.2","","-9.7","","89","","33","","15","","25.0","","98.66","","","","-15","","Cloudy"
"1978-11-28 03:00","1978","11","28","03:00","-8.0","","-10.1","","85","","34","","17","","25.0","","98.66","","","","-15","","Cloudy"
"1978-11-28 04:00","1978","11","28","04:00","-8.0","","-10.1","","85","","32","","6","","25.0","","98.69","","","","-11","","Cloudy"
"1978-11-28 05:00","1978","11","28","05:00","-7.6","","-9.9","","84","","29","","6","","25.0","","98.72","","","","-11","","Cloudy"
"1978-11-28 06:00","1978","11","28","06:00","-7.2","","-9.3","","85","","32","","9","","25.0","","98.69","","","","-12","","Snow Grains"
"1978-11-28 07:00","1978","11","28","07:00","-7.2","","-8.9","","88","","31","","2","","24.1","","98.69","","","","-8","","Snow"
"1978-11-28 08:00","1978","11","28","08:00","-7.2","","-8.6","","90","","32","","2","","4.0","","98.79","","","","-8","","Snow"
"1978-11-28 09:00","1978","11","28","09:00","-6.6","","-8.0","","90","","21","","2","","4.0","","98.82","","","","-8","","Snow"
"1978-11-28 10:00","1978","11","28","10:00","-4.6","","-6.0","","90","","","","0","","9.7","","98.89","","","","","","Snow"
"1978-11-28 11:00","1978","11","28","11:00","-3.7","","-5.1","","90","","25","","7","","4.8","","98.96","","","","-7","","Snow"
"1978-11-28 12:00","1978","11","28","12:00","-3.9","","-6.0","","85","","24","","9","","4.0","","98.96","","","","-8","","Snow"
"1978-11-28 13:00","1978","11","28","13:00","-2.2","","-4.2","","86","","25","","2","","4.8","","98.99","","","","-3","","Snow"
"1978-11-28 14:00","1978","11","28","14:00","-1.2","","-3.6","","84","","","","0","","24.1","","99.09","","","","","","Cloudy"
"1978-11-28 15:00","1978","11","28","15:00","0.7","","-3.1","","75","","25","","20","","32.2","","99.12","","","","","","Mostly Cloudy"
"1978-11-28 16:00","1978","11","28","16:00","-0.3","","-3.5","","79","","24","","15","","32.2","","99.29","","","","-5","","Mostly Cloudy"
"1978-11-28 17:00","1978","11","28","17:00","0.1","","-2.5","","83","","24","","11","","24.1","","99.39","","","","","","Mostly Cloudy"
"1978-11-28 18:00","1978","11","28","18:00","0.4","","-2.1","","83","","24","","19","","12.9","","99.56","","","","","","Snow"
"1978-11-28 19:00","1978","11","28","19:00","-0.4","","-3.1","","82","","20","","13","","24.1","","99.69","","","","-5","","Mostly Cloudy"
"1978-11-28 20:00","1978","11","28","20:00","-1.3","","-4.5","","79","","20","","9","","24.1","","99.76","","","","-5","","Mostly Cloudy"
"1978-11-28 21:00","1978","11","28","21:00","-1.8","","-4.8","","80","","22","","24","","24.1","","99.86","","","","-8","","Mainly Clear"
"1978-11-28 22:00","1978","11","28","22:00","-2.8","","-5.1","","84","","23","","15","","24.1","","99.89","","","","-8","","Mainly Clear"
"1978-11-28 23:00","1978","11","28","23:00","-3.2","","-5.7","","83","","23","","19","","24.1","","99.92","","","","-9","","Mainly Clear"
"1978-11-29 00:00","1978","11","29","00:00","-4.0","","-6.6","","82","","22","","15","","24.1","","99.99","","","","-9","","Mainly Clear"
"1978-11-29 01:00","1978","11","29","01:00","-4.2","","-7.0","","81","","21","","9","","24.1","","100.06","","","","-8","","Mostly Cloudy"
"1978-11-29 02:00","1978","11","29","02:00","-4.6","","-7.6","","79","","23","","19","","24.1","","99.99","","","","-11","","Mostly Cloudy"
"1978-11-29 03:00","1978","11","29","03:00","-5.5","","-8.2","","81","","25","","7","","24.1","","99.96","","","","-9","","Mostly Cloudy"
"1978-11-29 04:00","1978","11","29","04:00","-6.3","","-9.0","","81","","24","","9","","24.1","","99.99","","","","-11","","Mostly Cloudy"
"1978-11-29 05:00","1978","11","29","05:00","-6.0","","-9.1","","79","","22","","7","","24.1","","99.96","","","","-9","","Mostly Cloudy"
"1978-11-29 06:00","1978","11","29","06:00","-4.0","","-7.0","","80","","21","","9","","24.1","","99.96","","","","-8","","Mostly Cloudy"
"1978-11-29 07:00","1978","11","29","07:00","-4.3","","-7.3","","79","","19","","11","","24.1","","99.96","","","","-9","","Mostly Cloudy"
"1978-11-29 08:00","1978","11","29","08:00","-5.3","","-7.1","","87","","16","","9","","9.7","","99.89","","","","-9","","Fog"
"1978-11-29 09:00","1978","11","29","09:00","-4.0","","-6.0","","86","","19","","13","","9.7","","99.86","","","","-9","","Fog"
"1978-11-29 10:00","1978","11","29","10:00","-2.0","","-4.8","","81","","18","","9","","12.9","","99.72","","","","-5","","Mainly Clear"
"1978-11-29 11:00","1978","11","29","11:00","0.6","","-3.7","","73","","18","","11","","12.9","","99.59","","","","","","Mainly Clear"
"1978-11-29 12:00","1978","11","29","12:00","1.9","","-3.2","","69","","20","","24","","12.9","","99.52","","","","","","Mostly Cloudy"
"1978-11-29 13:00","1978","11","29","13:00","2.6","","-3.2","","65","","19","","24","","24.1","","99.39","","","","","","Mostly Cloudy"
"1978-11-29 14:00","1978","11","29","14:00","3.3","","-2.6","","65","","19","","24","","24.1","","99.19","","","","","","Mainly Clear"
"1978-11-29 15:00","1978","11","29","15:00","3.1","","-2.6","","66","","19","","26","","32.2","","99.02","","","","","","Mostly Cloudy"
"1978-11-29 16:00","1978","11","29","16:00","3.0","","-2.0","","70","","19","","24","","32.2","","98.89","","","","","","Mostly Cloudy"
"1978-11-29 17:00","1978","11","29","17:00","2.9","","-1.5","","73","","19","","22","","32.2","","98.76","","","","","","Mostly Cloudy"
"1978-11-29 18:00","1978","11","29","18:00","3.1","","-1.5","","72","","19","","22","","24.1","","98.69","","","","","","Mostly Cloudy"
"1978-11-29 19:00","1978","11","29","19:00","3.2","","-1.5","","71","","19","","24","","24.1","","98.56","","","","","","Cloudy"
"1978-11-29 20:00","1978","11","29","20:00","3.7","","-0.3","","75","","21","","28","","24.1","","98.52","","","","","","Cloudy"
"1978-11-29 21:00","1978","11","29","21:00","3.6","","-0.3","","76","","21","","30","","24.1","","98.46","","","","","","Rain,Snow"
"1978-11-29 22:00","1978","11","29","22:00","3.2","","0.7","","84","","22","","30","","19.3","","98.42","","","","","","Rain"
"1978-11-29 23:00","1978","11","29","23:00","2.3","","1.1","","92","","23","","24","","12.9","","98.42","","","","","","Rain"
"1978-11-30 00:00","1978","11","30","00:00","2.4","","1.6","","95","","24","","24","","12.9","","98.39","","","","","","Cloudy"
"1978-11-30 01:00","1978","11","30","01:00","2.4","","1.1","","91","","25","","24","","24.1","","98.39","","","","","","Cloudy"
"1978-11-30 02:00","1978","11","30","02:00","2.5","","0.6","","87","","23","","22","","24.1","","98.39","","","","","","Rain"
"1978-11-30 03:00","1978","11","30","03:00","2.5","","0.1","","84","","24","","24","","24.1","","98.39","","","","","","Cloudy"
"1978-11-30 04:00","1978","11","30","04:00","2.2","","-0.4","","83","","24","","17","","25.0","","98.46","","","","","","Mostly Cloudy"
"1978-11-30 05:00","1978","11","30","05:00","2.0","","-0.4","","84","","24","","20","","25.0","","98.46","","","","","","Mostly Cloudy"
"1978-11-30 06:00","1978","11","30","06:00","1.8","","-0.4","","85","","27","","30","","25.0","","98.66","","","","","","Mostly Cloudy"
"1978-11-30 07:00","1978","11","30","07:00","0.5","","-2.5","","80","","28","","31","","25.0","","98.76","","","","","","Mostly Cloudy"
"1978-11-30 08:00","1978","11","30","08:00","-0.5","","-5.0","","71","","26","","24","","32.2","","98.89","","","","-6","","Mostly Cloudy"
"1978-11-30 09:00","1978","11","30","09:00","-0.7","","-5.0","","73","","27","","30","","32.2","","99.06","","","","-7","","Mostly Cloudy"
"1978-11-30 10:00","1978","11","30","10:00","-1.4","","-6.0","","71","","30","","31","","40.2","","99.16","","","","-8","","Snow Showers"
"1978-11-30 11:00","1978","11","30","11:00","-0.7","","-6.3","","66","","27","","26","","40.2","","99.26","","","","-7","","Mostly Cloudy"
"1978-11-30 12:00","1978","11","30","12:00","-0.7","","-7.4","","60","","26","","31","","40.2","","99.26","","","","-7","","Mostly Cloudy"
"1978-11-30 13:00","1978","11","30","13:00","-0.9","","-7.4","","61","","29","","24","","40.2","","99.22","","","","-7","","Mostly Cloudy"
"1978-11-30 14:00","1978","11","30","14:00","-1.8","","-7.0","","67","","27","","26","","40.2","","99.26","","","","-8","","Snow Showers"
"1978-11-30 15:00","1978","11","30","15:00","-2.5","","-8.1","","65","","27","","24","","40.2","","99.29","","","","-9","","Snow Showers"
"1978-11-30 16:00","1978","11","30","16:00","-2.8","","-8.8","","63","","26","","22","","40.2","","99.39","","","","-9","","Mostly Cloudy"
"1978-11-30 17:00","1978","11","30","17:00","-3.6","","-9.1","","65","","25","","17","","40.2","","99.46","","","","-9","","Mostly Cloudy"
"1978-11-30 18:00","1978","11","30","18:00","-4.7","","-9.8","","68","","26","","17","","25.0","","99.52","","","","-11","","Mainly Clear"
"1978-11-30 19:00","1978","11","30","19:00","-5.7","","-10.4","","69","","25","","11","","25.0","","99.56","","","","-10","","Mainly Clear"
"1978-11-30 20:00","1978","11","30","20:00","-5.3","","-10.0","","69","","22","","7","","25.0","","99.59","","","","-9","","Mostly Cloudy"
"1978-11-30 21:00","1978","11","30","21:00","-5.1","","-8.9","","75","","21","","2","","25.0","","99.59","","","","-6","","Snow Showers"
"1978-11-30 22:00","1978","11","30","22:00","-4.3","","-8.7","","71","","21","","6","","25.0","","99.56","","","","-7","","Snow Showers"
"1978-11-30 23:00","1978","11","30","23:00","-5.3","","-8.5","","78","","20","","9","","25.0","","99.52","","","","-9","","Mostly Cloudy"
