"Station Name","TORONTO LESTER B. PEARSON INT'L A"
"Province","ONTARIO"
"Latitude","43.68"
"Longitude","-79.63"
"Elevation","173.40"
"Climate Identifier","6158733"
"WMO Identifier","71624"
"TC Identifier","YYZ"
"All times are specified in Local Standard Time (LST). Add 1 hour to adjust for Daylight Saving Time where and when it is observed."

"Legend"
"E","Estimated"
"M","Missing"
"NA","Not Available"

"Date/Time","Year","Month","Day","Time","Temp (°C)","Temp Flag","Dew Point Temp (°C)","Dew Point Temp Flag","Rel Hum (%)","Rel Hum Flag","Wind Dir (10s deg)","Wind Dir Flag","Wind Spd (km/h)","Wind Spd Flag","Visibility (km)","Visibility Flag","Stn Press (kPa)","Stn Press Flag","Hmdx","Hmdx Flag","Wind Chill","Wind Chill Flag","Weather"
"1957-12-01 00:00","1957","12","01","00:00","-4.4","","-7.8","","78","","29","","27","","25.0","","98.84","","","","-12","","Mostly Cloudy"
"1957-12-01 01:00","1957","12","01","01:00","-5.0","","-8.3","","77","","29","","29","","25.0","","98.90","","","","-13","","Cloudy"
"1957-12-01 02:00","1957","12","01","02:00","-5.6","","-8.3","","81","","27","","16","","25.0","","98.94","","","","-12","","Cloudy"
"1957-12-01 03:00","1957","12","01","03:00","-5.0","","-7.2","","84","","25","","14","","25.0","","98.97","","","","-10","","Snow Showers"
"1957-12-01 04:00","1957","12","01","04:00","-5.0","","-7.2","","84","","25","","37","","25.0","","98.95","","","","-14","","Snow Showers"
"1957-12-01 05:00","1957","12","01","05:00","-5.0","","-8.3","","77","","25","","37","","25.0","","99.00","","","","-14","","Snow Showers"
"1957-12-01 06:00","1957","12","01","06:00","-5.0","","-8.9","","74","","25","","18","","25.0","","99.01","","","","-11","","Mainly Clear"
"1957-12-01 07:00","1957","12","01","07:00","-5.6","","-7.8","","84","","23","","16","","25.0","","99.02","","","","-12","","Mainly Clear"
"1957-12-01 08:00","1957","12","01","08:00","-5.0","","-7.2","","84","","23","","27","","25.0","","98.99","","","","-13","","Mostly Cloudy"
"1957-12-01 09:00","1957","12","01","09:00","-4.4","","-6.7","","84","","23","","37","","19.3","","98.93","","","","-13","","Mostly Cloudy"
"1957-12-01 10:00","1957","12","01","10:00","-3.9","","-6.1","","85","","25","","32","","19.3","","98.90","","","","-12","","Mostly Cloudy"
"1957-12-01 11:00","1957","12","01","11:00","-3.3","","-6.1","","81","","25","","29","","4.8","","98.81","","","","-11","","Snow Showers"
"1957-12-01 12:00","1957","12","01","12:00","-1.7","","-3.3","","88","","25","","19","","3.2","","98.66","","","","-7","","Snow Showers"
"1957-12-01 13:00","1957","12","01","13:00","-1.1","","-2.8","","88","","20","","26","","2.8","","98.50","","","","-7","","Snow,Snow Grains"
"1957-12-01 14:00","1957","12","01","14:00","-1.1","","-2.8","","88","","20","","27","","4.8","","98.37","","","","-8","","Snow,Snow Grains,Fog"
"1957-12-01 15:00","1957","12","01","15:00","-0.6","","-2.8","","85","","20","","23","","9.7","","98.32","","","","-6","","Snow Grains,Fog"
"1957-12-01 16:00","1957","12","01","16:00","0.0","","-3.3","","78","","23","","31","","12.9","","98.27","","","","-7","","Mostly Cloudy"
"1957-12-01 17:00","1957","12","01","17:00","0.0","","-3.9","","75","","23","","26","","19.3","","98.26","","","","-6","","Cloudy"
"1957-12-01 18:00","1957","12","01","18:00","0.6","","-2.8","","78","","23","","21","","24.1","","98.21","","","","","","Cloudy"
"1957-12-01 19:00","1957","12","01","19:00","1.1","","-2.2","","78","","23","","23","","24.1","","98.18","","","","","","Cloudy"
"1957-12-01 20:00","1957","12","01","20:00","1.1","","-1.7","","82","","29","","23","","24.1","","98.15","","","","","","Snow Showers"
"1957-12-01 21:00","1957","12","01","21:00","1.7","","-2.8","","72","","27","","29","","19.3","","98.15","","","","","","Snow Showers"
"1957-12-01 22:00","1957","12","01","22:00","1.7","","-1.7","","78","","27","","32","","19.3","","98.20","","","","","","Snow Showers"
"1957-12-01 23:00","1957","12","01","23:00","1.1","","-1.7","","82","","29","","51","","19.3","","98.30","","","","","","Snow Showers"
"1957-12-02 00:00","1957","12","02","00:00","0.6","","-1.7","","85","","29","","29","","25.0","","98.43","","","","","","Mainly Clear"
"1957-12-02 01:00","1957","12","02","01:00","0.0","","-3.9","","75","","29","","24","","25.0","","98.51","","","","-6","","Clear"
"1957-12-02 02:00","1957","12","02","02:00","-1.1","","-2.8","","88","","27","","31","","25.0","","98.60","","","","-8","","Clear"
"1957-12-02 03:00","1957","12","02","03:00","-0.6","","-3.9","","78","","29","","19","","25.0","","98.68","","","","-6","","Mainly Clear"
"1957-12-02 04:00","1957","12","02","04:00","-0.6","","-5.0","","72","","29","","24","","25.0","","98.70","","","","-7","","Mainly Clear"
"1957-12-02 05:00","1957","12","02","05:00","-1.7","","-3.3","","88","","29","","24","","25.0","","98.79","","","","-8","","Mainly Clear"
"1957-12-02 06:00","1957","12","02","06:00","-1.1","","-5.0","","75","","29","","32","","25.0","","98.87","","","","-8","","Mainly Clear"
"1957-12-02 07:00","1957","12","02","07:00","-2.2","","-6.7","","72","","29","","32","","25.0","","98.94","","","","-10","","Mainly Clear"
"1957-12-02 08:00","1957","12","02","08:00","-2.8","","-6.7","","75","","29","","26","","25.0","","99.08","","","","-10","","Mainly Clear"
"1957-12-02 09:00","1957","12","02","09:00","-1.7","","-4.4","","81","","29","","35","","25.0","","99.16","","","","-9","","Mainly Clear"
"1957-12-02 10:00","1957","12","02","10:00","-0.6","","-5.0","","72","","29","","40","","25.0","","99.26","","","","-8","","Mainly Clear"
"1957-12-02 11:00","1957","12","02","11:00","0.0","","-5.0","","69","","29","","39","","25.0","","99.35","","","","-7","","Mainly Clear"
"1957-12-02 12:00","1957","12","02","12:00","-2.8","","-4.4","","88","","36","","19","","9.7","","99.41","","","","-9","","Snow Showers"
"1957-12-02 13:00","1957","12","02","13:00","-2.8","","-5.0","","85","","32","","29","","19.3","","99.45","","","","-10","","Snow Showers"
"1957-12-02 14:00","1957","12","02","14:00","-1.7","","-6.1","","72","","27","","39","","25.0","","99.43","","","","-10","","Mostly Cloudy"
"1957-12-02 15:00","1957","12","02","15:00","-1.7","","-5.0","","78","","29","","32","","25.0","","99.49","","","","-9","","Mostly Cloudy"
"1957-12-02 16:00","1957","12","02","16:00","-1.7","","-4.4","","81","","29","","35","","25.0","","99.59","","","","-9","","Mainly Clear"
"1957-12-02 17:00","1957","12","02","17:00","-2.2","","-5.0","","81","","27","","24","","25.0","","99.60","","","","-9","","Mainly Clear"
"1957-12-02 18:00","1957","12","02","18:00","-2.8","","-6.7","","75","","27","","24","","25.0","","99.64","","","","-9","","Mainly Clear"
"1957-12-02 19:00","1957","12","02","19:00","-2.8","","-7.8","","68","","27","","16","","25.0","","99.65","","","","-8","","Clear"
"1957-12-02 20:00","1957","12","02","20:00","-3.3","","-7.8","","71","","25","","13","","25.0","","99.69","","","","-8","","Mainly Clear"
"1957-12-02 21:00","1957","12","02","21:00","-4.4","","-7.8","","78","","25","","8","","25.0","","99.72","","","","-8","","Mainly Clear"
"1957-12-02 22:00","1957","12","02","22:00","-3.9","","-6.7","","81","","27","","19","","25.0","","99.74","","","","-10","","Mainly Clear"
"1957-12-02 23:00","1957","12","02","23:00","-4.4","","-6.7","","84","","27","","18","","25.0","","99.76","","","","-10","","Mainly Clear"
"1957-12-03 00:00","1957","12","03","00:00","-4.4","","-6.7","","84","","25","","23","","25.0","","99.76","","","","-11","","Mainly Clear"
"1957-12-03 01:00","1957","12","03","01:00","-3.9","","-6.7","","81","","27","","26","","25.0","","99.79","","","","-11","","Mainly Clear"
"1957-12-03 02:00","1957","12","03","02:00","-4.4","","-7.8","","78","","25","","23","","25.0","","99.82","","","","-11","","Mainly Clear"
"1957-12-03 03:00","1957","12","03","03:00","-4.4","","-7.2","","81","","25","","23","","25.0","","99.87","","","","-11","","Mainly Clear"
"1957-12-03 04:00","1957","12","03","04:00","-4.4","","-7.8","","78","","25","","26","","25.0","","99.86","","","","-12","","Mainly Clear"
"1957-12-03 05:00","1957","12","03","05:00","-3.3","","-6.7","","78","","25","","23","","24.1","","99.82","","","","-10","","Mostly Cloudy"
"1957-12-03 06:00","1957","12","03","06:00","-3.9","","-6.7","","81","","25","","23","","24.1","","99.80","","","","-11","","Mainly Clear"
"1957-12-03 07:00","1957","12","03","07:00","-3.3","","-7.2","","74","","27","","23","","24.1","","99.82","","","","-10","","Mostly Cloudy"
"1957-12-03 08:00","1957","12","03","08:00","-3.3","","-7.2","","74","","27","","26","","24.1","","99.84","","","","-10","","Mostly Cloudy"
"1957-12-03 09:00","1957","12","03","09:00","-2.2","","-7.8","","66","","27","","19","","24.1","","99.86","","","","-8","","Cloudy"
"1957-12-03 10:00","1957","12","03","10:00","-1.7","","-5.0","","78","","27","","16","","24.1","","99.87","","","","-7","","Cloudy"
"1957-12-03 11:00","1957","12","03","11:00","-0.6","","-5.0","","72","","27","","11","","24.1","","99.87","","","","-4","","Cloudy"
"1957-12-03 12:00","1957","12","03","12:00","0.0","","-5.6","","66","","34","","13","","25.0","","99.82","","","","-4","","Cloudy"
"1957-12-03 13:00","1957","12","03","13:00","0.0","","-5.0","","69","","34","","13","","25.0","","99.70","","","","-4","","Cloudy"
"1957-12-03 14:00","1957","12","03","14:00","0.6","","-3.9","","72","","2","","10","","25.0","","99.66","","","","","","Cloudy"
"1957-12-03 15:00","1957","12","03","15:00","0.6","","-3.9","","72","","2","","10","","25.0","","99.63","","","","","","Cloudy"
"1957-12-03 16:00","1957","12","03","16:00","0.0","","-3.9","","75","","2","","10","","25.0","","99.63","","","","-3","","Cloudy"
"1957-12-03 17:00","1957","12","03","17:00","-1.1","","-5.0","","75","","2","","13","","25.0","","99.62","","","","-5","","Cloudy"
"1957-12-03 18:00","1957","12","03","18:00","-1.7","","-5.0","","78","","5","","16","","25.0","","99.61","","","","-7","","Cloudy"
"1957-12-03 19:00","1957","12","03","19:00","-2.2","","-3.9","","88","","5","","13","","25.0","","99.61","","","","-7","","Cloudy"
"1957-12-03 20:00","1957","12","03","20:00","-2.8","","-6.1","","78","","5","","13","","25.0","","99.57","","","","-7","","Cloudy"
"1957-12-03 21:00","1957","12","03","21:00","-3.3","","-5.6","","85","","5","","10","","25.0","","99.56","","","","-7","","Cloudy"
"1957-12-03 22:00","1957","12","03","22:00","-3.9","","-6.7","","81","","2","","10","","25.0","","99.52","","","","-8","","Cloudy"
"1957-12-03 23:00","1957","12","03","23:00","-4.4","","-6.7","","84","","2","","16","","25.0","","99.51","","","","-10","","Mostly Cloudy"
"1957-12-04 00:00","1957","12","04","00:00","-5.0","","-7.2","","84","","2","","13","","25.0","","99.50","","","","-10","","Mostly Cloudy"
"1957-12-04 01:00","1957","12","04","01:00","-5.6","","-7.8","","84","","2","","11","","25.0","","99.48","","","","-10","","Mainly Clear"
"1957-12-04 02:00","1957","12","04","02:00","-6.1","","-7.8","","88","","2","","16","","25.0","","99.45","","","","-12","","Mainly Clear"
"1957-12-04 03:00","1957","12","04","03:00","-6.7","","-10.6","","74","","2","","13","","25.0","","99.47","","","","-12","","Clear"
"1957-12-04 04:00","1957","12","04","04:00","-7.8","","-10.6","","81","","2","","11","","25.0","","99.44","","","","-13","","Clear"
"1957-12-04 05:00","1957","12","04","05:00","-7.2","","-10.0","","81","","2","","11","","25.0","","99.44","","","","-12","","Clear"
"1957-12-04 06:00","1957","12","04","06:00","-8.3","","-11.7","","77","","36","","11","","25.0","","99.46","","","","-14","","Clear"
"1957-12-04 07:00","1957","12","04","07:00","-8.9","","-11.7","","80","","36","","14","","25.0","","99.48","","","","-15","","Clear"
"1957-12-04 08:00","1957","12","04","08:00","-9.4","","-12.8","","77","","36","","13","","25.0","","99.48","","","","-15","","Clear"
"1957-12-04 09:00","1957","12","04","09:00","-7.2","","-10.0","","81","","36","","16","","25.0","","99.51","","","","-14","","Clear"
"1957-12-04 10:00","1957","12","04","10:00","-5.6","","-9.4","","74","","2","","19","","25.0","","99.55","","","","-12","","Clear"
"1957-12-04 11:00","1957","12","04","11:00","-3.9","","-7.8","","74","","2","","16","","25.0","","99.55","","","","-9","","Mainly Clear"
"1957-12-04 12:00","1957","12","04","12:00","-2.8","","-7.2","","72","","2","","13","","25.0","","99.49","","","","-7","","Mainly Clear"
"1957-12-04 13:00","1957","12","04","13:00","-2.2","","-7.2","","69","","2","","16","","25.0","","99.45","","","","-7","","Mainly Clear"
"1957-12-04 14:00","1957","12","04","14:00","-1.7","","-6.1","","72","","2","","19","","25.0","","99.41","","","","-7","","Clear"
"1957-12-04 15:00","1957","12","04","15:00","-2.2","","-5.6","","85","","36","","19","","25.0","","99.44","","","","-8","","Clear"
"1957-12-04 16:00","1957","12","04","16:00","-2.8","","-6.7","","75","","36","","16","","25.0","","99.51","","","","-8","","Clear"
"1957-12-04 17:00","1957","12","04","17:00","-4.4","","-8.9","","71","","2","","16","","25.0","","99.55","","","","-10","","Mainly Clear"
"1957-12-04 18:00","1957","12","04","18:00","-5.0","","-10.0","","68","","36","","13","","25.0","","99.57","","","","-10","","Clear"
"1957-12-04 19:00","1957","12","04","19:00","-6.1","","-10.0","","74","","32","","11","","25.0","","99.62","","","","-11","","Clear"
"1957-12-04 20:00","1957","12","04","20:00","-6.7","","-10.6","","74","","34","","10","","25.0","","99.68","","","","-11","","Clear"
"1957-12-04 21:00","1957","12","04","21:00","-7.8","","-12.2","","70","","32","","13","","25.0","","99.73","","","","-14","","Clear"
"1957-12-04 22:00","1957","12","04","22:00","-8.3","","-12.2","","74","","32","","11","","25.0","","99.74","","","","-14","","Clear"
"1957-12-04 23:00","1957","12","04","23:00","-8.3","","-12.2","","74","","36","","10","","25.0","","99.78","","","","-13","","Clear"
"1957-12-05 00:00","1957","12","05","00:00","-9.4","","-12.8","","77","","32","","10","","25.0","","99.80","","","","-15","","Clear"
"1957-12-05 01:00","1957","12","05","01:00","-9.4","","-12.8","","77","","36","","11","","25.0","","99.77","","","","-15","","Clear"
"1957-12-05 02:00","1957","12","05","02:00","-10.6","","-13.3","","80","","32","","8","","24.1","","99.82","","","","-15","","Clear"
"1957-12-05 03:00","1957","12","05","03:00","-10.0","","-13.3","","77","","29","","8","","24.1","","99.84","","","","-14","","Mainly Clear"
"1957-12-05 04:00","1957","12","05","04:00","-9.4","","-12.2","","80","","25","","13","","24.1","","99.87","","","","-15","","Mostly Cloudy"
"1957-12-05 05:00","1957","12","05","05:00","-6.7","","-8.9","","84","","25","","10","","24.1","","99.90","","","","-11","","Mostly Cloudy"
"1957-12-05 06:00","1957","12","05","06:00","-5.6","","-7.2","","88","","29","","10","","24.1","","99.93","","","","-10","","Mostly Cloudy"
"1957-12-05 07:00","1957","12","05","07:00","-4.4","","-7.8","","78","","25","","8","","24.1","","99.97","","","","-8","","Mostly Cloudy"
"1957-12-05 08:00","1957","12","05","08:00","-3.9","","-7.2","","78","","23","","13","","19.3","","99.99","","","","-9","","Mostly Cloudy"
"1957-12-05 09:00","1957","12","05","09:00","-3.3","","-5.0","","88","","23","","16","","19.3","","100.01","","","","-9","","Cloudy"
"1957-12-05 10:00","1957","12","05","10:00","-2.2","","-6.7","","72","","23","","13","","19.3","","100.04","","","","-7","","Mostly Cloudy"
"1957-12-05 11:00","1957","12","05","11:00","0.0","","-4.4","","72","","23","","24","","19.3","","99.98","","","","-6","","Mostly Cloudy"
"1957-12-05 12:00","1957","12","05","12:00","2.2","","-2.2","","72","","27","","24","","19.3","","99.95","","","","","","Mainly Clear"
"1957-12-05 13:00","1957","12","05","13:00","1.7","","-2.8","","72","","25","","35","","19.3","","99.86","","","","","","Mainly Clear"
"1957-12-05 14:00","1957","12","05","14:00","2.8","","-5.6","","54","","25","","24","","19.3","","99.84","","","","","","Mainly Clear"
"1957-12-05 15:00","1957","12","05","15:00","1.7","","-3.3","","69","","25","","24","","19.3","","99.82","","","","","","Mostly Cloudy"
"1957-12-05 16:00","1957","12","05","16:00","1.7","","-1.1","","82","","25","","21","","19.3","","99.81","","","","","","Mainly Clear"
"1957-12-05 17:00","1957","12","05","17:00","-0.6","","-2.8","","85","","20","","19","","12.9","","99.81","","","","-6","","Mostly Cloudy"
"1957-12-05 18:00","1957","12","05","18:00","0.0","","-2.8","","82","","20","","24","","19.3","","99.79","","","","-6","","Mostly Cloudy"
"1957-12-05 19:00","1957","12","05","19:00","-1.1","","-3.3","","85","","20","","24","","19.3","","99.76","","","","-7","","Cloudy"
"1957-12-05 20:00","1957","12","05","20:00","1.1","","-2.8","","75","","23","","26","","19.3","","99.72","","","","","","Cloudy"
"1957-12-05 21:00","1957","12","05","21:00","0.6","","-2.2","","82","","20","","24","","19.3","","99.59","","","","","","Cloudy"
"1957-12-05 22:00","1957","12","05","22:00","1.1","","-2.8","","75","","20","","35","","19.3","","99.49","","","","","","Cloudy"
"1957-12-05 23:00","1957","12","05","23:00","0.6","","-2.8","","78","","20","","29","","24.1","","99.44","","","","","","Cloudy"
"1957-12-06 00:00","1957","12","06","00:00","0.0","","-2.2","","85","","20","","24","","12.9","","99.35","","","","-6","","Cloudy"
"1957-12-06 01:00","1957","12","06","01:00","0.6","","-2.2","","82","","20","","32","","12.9","","99.19","","","","","","Cloudy"
"1957-12-06 02:00","1957","12","06","02:00","1.1","","-1.7","","82","","20","","29","","12.9","","99.04","","","","","","Cloudy"
"1957-12-06 03:00","1957","12","06","03:00","1.7","","-1.7","","78","","18","","19","","12.9","","98.94","","","","","","Cloudy"
"1957-12-06 04:00","1957","12","06","04:00","1.7","","-1.7","","78","","18","","23","","16.1","","98.77","","","","","","Cloudy"
"1957-12-06 05:00","1957","12","06","05:00","2.2","","-1.1","","78","","18","","23","","16.1","","98.73","","","","","","Cloudy"
"1957-12-06 06:00","1957","12","06","06:00","3.3","","0.0","","79","","18","","19","","16.1","","98.56","","","","","","Cloudy"
"1957-12-06 07:00","1957","12","06","07:00","4.4","","0.0","","73","","20","","31","","19.3","","98.49","","","","","","Cloudy"
"1957-12-06 08:00","1957","12","06","08:00","4.4","","2.8","","89","","23","","29","","4.8","","98.51","","","","","","Rain,Fog"
"1957-12-06 09:00","1957","12","06","09:00","3.3","","2.2","","92","","23","","32","","9.7","","98.51","","","","","","Rain,Fog"
"1957-12-06 10:00","1957","12","06","10:00","3.3","","2.2","","92","","23","","32","","16.1","","98.45","","","","","","Cloudy"
"1957-12-06 11:00","1957","12","06","11:00","4.4","","3.3","","93","","23","","29","","12.9","","98.45","","","","","","Cloudy"
"1957-12-06 12:00","1957","12","06","12:00","6.7","","4.4","","86","","23","","32","","16.1","","98.38","","","","","","Cloudy"
"1957-12-06 13:00","1957","12","06","13:00","6.7","","4.4","","86","","23","","29","","16.1","","98.24","","","","","","Cloudy"
"1957-12-06 14:00","1957","12","06","14:00","7.8","","5.0","","82","","23","","26","","16.1","","98.20","","","","","","Cloudy"
"1957-12-06 15:00","1957","12","06","15:00","8.3","","5.6","","83","","23","","29","","16.1","","98.17","","","","","","Cloudy"
"1957-12-06 16:00","1957","12","06","16:00","7.8","","5.6","","86","","23","","26","","16.1","","98.20","","","","","","Cloudy"
"1957-12-06 17:00","1957","12","06","17:00","7.2","","4.4","","82","","23","","26","","16.1","","98.23","","","","","","Cloudy"
"1957-12-06 18:00","1957","12","06","18:00","7.8","","5.0","","82","","23","","27","","24.1","","98.30","","","","","","Cloudy"
"1957-12-06 19:00","1957","12","06","19:00","8.3","","5.6","","83","","23","","23","","24.1","","98.31","","","","","","Cloudy"
"1957-12-06 20:00","1957","12","06","20:00","7.8","","6.1","","89","","23","","23","","19.3","","98.31","","","","","","Cloudy"
"1957-12-06 21:00","1957","12","06","21:00","7.8","","5.6","","86","","23","","19","","19.3","","98.32","","","","","","Cloudy"
"1957-12-06 22:00","1957","12","06","22:00","7.2","","6.1","","93","","23","","16","","19.3","","98.33","","","","","","Cloudy"
"1957-12-06 23:00","1957","12","06","23:00","7.8","","6.1","","89","","23","","13","","16.1","","98.33","","","","","","Cloudy"
"1957-12-07 00:00","1957","12","07","00:00","6.7","","5.6","","93","","23","","13","","12.9","","98.34","","","","","","Cloudy"
"1957-12-07 01:00","1957","12","07","01:00","7.2","","6.1","","93","","25","","10","","12.9","","98.36","","","","","","Cloudy"
"1957-12-07 02:00","1957","12","07","02:00","6.1","","5.0","","93","","27","","11","","12.9","","98.37","","","","","","Cloudy"
"1957-12-07 03:00","1957","12","07","03:00","5.6","","3.3","","86","","29","","10","","12.9","","98.41","","","","","","Cloudy"
"1957-12-07 04:00","1957","12","07","04:00","5.6","","3.3","","86","","36","","14","","12.9","","98.40","","","","","","Cloudy"
"1957-12-07 05:00","1957","12","07","05:00","3.9","","2.2","","89","","36","","13","","11.3","","98.39","","","","","","Cloudy"
"1957-12-07 06:00","1957","12","07","06:00","3.3","","2.2","","92","","36","","11","","6.4","","98.30","","","","","","Fog"
"1957-12-07 07:00","1957","12","07","07:00","3.3","","2.2","","92","","36","","13","","6.4","","98.32","","","","","","Rain Showers,Fog"
"1957-12-07 08:00","1957","12","07","08:00","2.8","","2.2","","96","","36","","14","","3.2","","98.29","","","","","","Rain Showers,Fog"
"1957-12-07 09:00","1957","12","07","09:00","2.8","","1.7","","92","","36","","10","","2.4","","98.27","","","","","","Rain,Fog"
"1957-12-07 10:00","1957","12","07","10:00","2.2","","1.7","","96","","2","","23","","2.4","","98.27","","","","","","Rain,Fog"
"1957-12-07 11:00","1957","12","07","11:00","1.1","","0.6","","96","","36","","19","","2.4","","98.17","","","","","","Rain,Snow,Fog"
"1957-12-07 12:00","1957","12","07","12:00","1.1","","0.6","","96","","36","","16","","1.6","","98.07","","","","","","Snow,Fog"
"1957-12-07 13:00","1957","12","07","13:00","0.6","","0.0","","96","","36","","13","","0.8","","97.97","","","","","","Moderate Snow"
"1957-12-07 14:00","1957","12","07","14:00","0.6","","0.0","","96","","36","","16","","0.8","","98.09","","","","","","Moderate Snow"
"1957-12-07 15:00","1957","12","07","15:00","0.6","","0.6","","100","","36","","23","","1.2","","98.15","","","","","","Snow"
"1957-12-07 16:00","1957","12","07","16:00","1.1","","0.6","","96","","36","","23","","2.4","","98.20","","","","","","Snow"
"1957-12-07 17:00","1957","12","07","17:00","1.1","","0.0","","92","","34","","23","","24.1","","98.42","","","","","","Cloudy"
"1957-12-07 18:00","1957","12","07","18:00","0.6","","0.0","","96","","36","","24","","25.0","","98.49","","","","","","Cloudy"
"1957-12-07 19:00","1957","12","07","19:00","0.6","","-0.6","","92","","34","","32","","6.4","","98.77","","","","","","Snow"
"1957-12-07 20:00","1957","12","07","20:00","0.0","","-2.2","","85","","34","","29","","6.4","","99.00","","","","-6","","Snow"
"1957-12-07 21:00","1957","12","07","21:00","-1.1","","-2.8","","88","","34","","29","","6.4","","99.09","","","","-8","","Snow"
"1957-12-07 22:00","1957","12","07","22:00","-2.2","","-3.3","","92","","34","","26","","24.1","","99.24","","","","-9","","Mostly Cloudy"
"1957-12-07 23:00","1957","12","07","23:00","-2.8","","-3.9","","92","","34","","24","","24.1","","99.34","","","","-9","","Mainly Clear"
"1957-12-08 00:00","1957","12","08","00:00","-3.3","","-5.0","","88","","36","","26","","24.1","","99.41","","","","-10","","Mainly Clear"
"1957-12-08 01:00","1957","12","08","01:00","-3.9","","-6.1","","85","","36","","26","","24.1","","99.49","","","","-11","","Mainly Clear"
"1957-12-08 02:00","1957","12","08","02:00","-4.4","","-6.7","","84","","36","","16","","24.1","","99.53","","","","-10","","Clear"
"1957-12-08 03:00","1957","12","08","03:00","-5.0","","-7.2","","84","","36","","21","","24.1","","99.62","","","","-12","","Clear"
"1957-12-08 04:00","1957","12","08","04:00","-5.0","","-7.2","","84","","36","","16","","24.1","","99.66","","","","-11","","Mainly Clear"
"1957-12-08 05:00","1957","12","08","05:00","-6.1","","-8.3","","84","","2","","16","","24.1","","99.72","","","","-12","","Mainly Clear"
"1957-12-08 06:00","1957","12","08","06:00","-6.7","","-8.9","","84","","36","","14","","24.1","","99.80","","","","-12","","Mainly Clear"
"1957-12-08 07:00","1957","12","08","07:00","-7.8","","-10.0","","84","","36","","19","","24.1","","99.84","","","","-15","","Mainly Clear"
"1957-12-08 08:00","1957","12","08","08:00","-7.8","","-10.0","","84","","36","","21","","24.1","","99.90","","","","-15","","Mostly Cloudy"
"1957-12-08 09:00","1957","12","08","09:00","-7.8","","-10.0","","84","","36","","19","","24.1","","99.98","","","","-15","","Cloudy"
"1957-12-08 10:00","1957","12","08","10:00","-6.7","","-8.9","","84","","36","","13","","24.1","","100.02","","","","-12","","Cloudy"
"1957-12-08 11:00","1957","12","08","11:00","-5.6","","-8.3","","81","","36","","11","","24.1","","100.03","","","","-10","","Cloudy"
"1957-12-08 12:00","1957","12","08","12:00","-5.6","","-7.8","","84","","36","","16","","24.1","","100.02","","","","-12","","Snow Grains"
"1957-12-08 13:00","1957","12","08","13:00","-4.4","","-7.2","","81","","2","","11","","24.1","","99.94","","","","-9","","Snow Grains"
"1957-12-08 14:00","1957","12","08","14:00","-3.3","","-6.1","","81","","5","","13","","24.1","","99.94","","","","-8","","Cloudy"
"1957-12-08 15:00","1957","12","08","15:00","-2.2","","-5.6","","78","","7","","13","","19.3","","99.93","","","","-7","","Cloudy"
"1957-12-08 16:00","1957","12","08","16:00","-2.2","","-5.6","","78","","5","","13","","19.3","","99.90","","","","-7","","Cloudy"
"1957-12-08 17:00","1957","12","08","17:00","-3.3","","-5.6","","85","","5","","8","","24.1","","99.93","","","","-7","","Cloudy"
"1957-12-08 18:00","1957","12","08","18:00","-3.3","","-5.6","","85","","36","","10","","24.1","","99.95","","","","-7","","Cloudy"
"1957-12-08 19:00","1957","12","08","19:00","-3.9","","-4.4","","96","","36","","16","","24.1","","99.95","","","","-9","","Cloudy"
"1957-12-08 20:00","1957","12","08","20:00","-4.4","","-5.0","","96","","36","","14","","24.1","","99.96","","","","-10","","Cloudy"
"1957-12-08 21:00","1957","12","08","21:00","-3.9","","-4.4","","96","","36","","11","","24.1","","99.91","","","","-8","","Cloudy"
"1957-12-08 22:00","1957","12","08","22:00","-3.9","","-4.4","","96","","2","","13","","24.1","","99.91","","","","-9","","Snow"
"1957-12-08 23:00","1957","12","08","23:00","-3.9","","-4.4","","96","","36","","13","","24.1","","99.89","","","","-9","","Freezing Drizzle,Snow"
"1957-12-09 00:00","1957","12","09","00:00","-3.9","","-5.0","","92","","36","","13","","24.1","","99.83","","","","-9","","Freezing Drizzle,Snow"
"1957-12-09 01:00","1957","12","09","01:00","-3.9","","-4.4","","96","","36","","10","","24.1","","99.78","","","","-8","","Snow"
"1957-12-09 02:00","1957","12","09","02:00","-3.9","","-4.4","","96","","36","","10","","25.0","","99.74","","","","-8","","Snow Grains"
"1957-12-09 03:00","1957","12","09","03:00","-4.4","","-5.0","","96","","36","","10","","25.0","","99.74","","","","-9","","Snow Grains"
"1957-12-09 04:00","1957","12","09","04:00","-4.4","","-5.6","","92","","36","","13","","24.1","","99.72","","","","-9","","Mostly Cloudy"
"1957-12-09 05:00","1957","12","09","05:00","-4.4","","-5.6","","92","","36","","13","","24.1","","99.67","","","","-9","","Cloudy"
"1957-12-09 06:00","1957","12","09","06:00","-4.4","","-5.6","","92","","36","","14","","24.1","","99.74","","","","-10","","Cloudy"
"1957-12-09 07:00","1957","12","09","07:00","-3.9","","-5.0","","92","","34","","13","","24.1","","99.75","","","","-9","","Cloudy"
"1957-12-09 08:00","1957","12","09","08:00","-4.4","","-5.0","","96","","36","","10","","11.3","","99.74","","","","-9","","Cloudy"
"1957-12-09 09:00","1957","12","09","09:00","-3.9","","-4.4","","96","","36","","13","","11.3","","99.78","","","","-9","","Cloudy"
"1957-12-09 10:00","1957","12","09","10:00","-3.3","","-5.0","","88","","7","","6","","11.3","","99.78","","","","-6","","Cloudy"
"1957-12-09 11:00","1957","12","09","11:00","-2.2","","-4.4","","85","","27","","3","","16.1","","99.76","","","","-3","","Cloudy"
"1957-12-09 12:00","1957","12","09","12:00","-1.1","","-3.9","","81","","27","","3","","19.3","","99.67","","","","-2","","Mostly Cloudy"
"1957-12-09 13:00","1957","12","09","13:00","0.0","","-5.6","","66","","27","","3","","24.1","","99.57","","","","-1","","Mostly Cloudy"
"1957-12-09 14:00","1957","12","09","14:00","0.0","","-4.4","","72","","27","","3","","24.1","","99.54","","","","-1","","Mainly Clear"
"1957-12-09 15:00","1957","12","09","15:00","0.0","","-2.2","","85","","25","","5","","25.0","","99.51","","","","-2","","Clear"
"1957-12-09 16:00","1957","12","09","16:00","-0.6","","-3.9","","78","","23","","8","","25.0","","99.50","","","","-3","","Mainly Clear"
"1957-12-09 17:00","1957","12","09","17:00","-1.7","","-4.4","","81","","25","","6","","25.0","","99.48","","","","-4","","Mostly Cloudy"
"1957-12-09 18:00","1957","12","09","18:00","-2.8","","-5.6","","81","","25","","10","","24.1","","99.41","","","","-7","","Mostly Cloudy"
"1957-12-09 19:00","1957","12","09","19:00","-2.8","","-5.6","","81","","25","","11","","24.1","","99.38","","","","-7","","Mostly Cloudy"
"1957-12-09 20:00","1957","12","09","20:00","-2.8","","-5.6","","81","","25","","13","","24.1","","99.31","","","","-7","","Mostly Cloudy"
"1957-12-09 21:00","1957","12","09","21:00","-2.2","","-5.6","","78","","25","","16","","24.1","","99.24","","","","-7","","Mostly Cloudy"
"1957-12-09 22:00","1957","12","09","22:00","-1.1","","-4.4","","78","","25","","16","","24.1","","99.16","","","","-6","","Mostly Cloudy"
"1957-12-09 23:00","1957","12","09","23:00","-1.7","","-4.4","","81","","25","","16","","24.1","","99.12","","","","-7","","Mostly Cloudy"
"1957-12-10 00:00","1957","12","10","00:00","-1.1","","-4.4","","78","","20","","18","","24.1","","98.97","","","","-6","","Cloudy"
"1957-12-10 01:00","1957","12","10","01:00","-1.1","","-5.0","","75","","20","","16","","24.1","","98.89","","","","-6","","Cloudy"
"1957-12-10 02:00","1957","12","10","02:00","-0.6","","-1.7","","92","","20","","16","","24.1","","98.83","","","","-5","","Cloudy"
"1957-12-10 03:00","1957","12","10","03:00","-0.6","","-3.9","","78","","18","","19","","24.1","","98.71","","","","-6","","Cloudy"
"1957-12-10 04:00","1957","12","10","04:00","-0.6","","-3.3","","81","","20","","19","","24.1","","98.61","","","","-6","","Cloudy"
"1957-12-10 05:00","1957","12","10","05:00","-0.6","","-3.3","","81","","20","","19","","24.1","","98.42","","","","-6","","Cloudy"
"1957-12-10 06:00","1957","12","10","06:00","0.0","","-3.3","","78","","18","","29","","24.1","","98.43","","","","-6","","Cloudy"
"1957-12-10 07:00","1957","12","10","07:00","0.0","","-2.8","","82","","18","","26","","24.1","","98.35","","","","-6","","Cloudy"
"1957-12-10 08:00","1957","12","10","08:00","-0.6","","-2.2","","88","","18","","26","","19.3","","98.31","","","","-7","","Cloudy"
"1957-12-10 09:00","1957","12","10","09:00","0.0","","-2.2","","85","","18","","24","","11.3","","98.26","","","","-6","","Cloudy"
"1957-12-10 10:00","1957","12","10","10:00","0.6","","-2.2","","82","","20","","26","","9.7","","98.24","","","","","","Haze"
"1957-12-10 11:00","1957","12","10","11:00","1.1","","-2.8","","75","","20","","26","","9.7","","98.13","","","","","","Haze"
"1957-12-10 12:00","1957","12","10","12:00","0.6","","-2.2","","82","","20","","23","","11.3","","97.99","","","","","","Cloudy"
"1957-12-10 13:00","1957","12","10","13:00","1.1","","-2.2","","78","","18","","29","","9.7","","97.90","","","","","","Haze"
"1957-12-10 14:00","1957","12","10","14:00","0.6","","-2.2","","82","","18","","24","","8.0","","97.79","","","","","","Haze"
"1957-12-10 15:00","1957","12","10","15:00","0.6","","-2.2","","82","","18","","19","","8.0","","99.74","","","","","","Haze"
"1957-12-10 16:00","1957","12","10","16:00","0.6","","-1.7","","85","","18","","14","","4.0","","97.73","","","","","","Snow Grains,Haze"
"1957-12-10 17:00","1957","12","10","17:00","0.0","","-0.6","","96","","18","","14","","4.0","","97.71","","","","-4","","Snow,Haze"
"1957-12-10 18:00","1957","12","10","18:00","0.0","","-0.6","","96","","23","","13","","3.2","","97.67","","","","-4","","Snow,Haze"
"1957-12-10 19:00","1957","12","10","19:00","0.0","","-0.6","","96","","23","","19","","3.2","","97.63","","","","-5","","Snow,Haze"
"1957-12-10 20:00","1957","12","10","20:00","-0.6","","-2.2","","88","","25","","21","","8.0","","97.55","","","","-6","","Haze"
"1957-12-10 21:00","1957","12","10","21:00","0.0","","-3.3","","78","","29","","26","","25.0","","97.45","","","","-6","","Snow"
"1957-12-10 22:00","1957","12","10","22:00","-0.6","","-4.4","","75","","32","","32","","19.3","","97.50","","","","-7","","Mostly Cloudy"
"1957-12-10 23:00","1957","12","10","23:00","-2.2","","-6.1","","75","","32","","35","","19.3","","97.59","","","","-10","","Mostly Cloudy"
"1957-12-11 00:00","1957","12","11","00:00","-4.4","","-7.2","","81","","32","","40","","19.3","","97.66","","","","-13","","Mostly Cloudy"
"1957-12-11 01:00","1957","12","11","01:00","-5.0","","-8.3","","77","","32","","39","","19.3","","97.77","","","","-14","","Mostly Cloudy"
"1957-12-11 02:00","1957","12","11","02:00","-7.2","","-11.1","","74","","32","","32","","19.3","","97.86","","","","-16","","Snow Showers"
"1957-12-11 03:00","1957","12","11","03:00","-7.8","","-13.3","","64","","32","","31","","19.3","","97.86","","","","-17","","Snow Showers"
"1957-12-11 04:00","1957","12","11","04:00","-8.3","","-12.8","","70","","29","","32","","24.1","","97.83","","","","-18","","Snow Showers"
"1957-12-11 05:00","1957","12","11","05:00","-9.4","","-13.9","","70","","32","","31","","24.1","","97.90","","","","-19","","Snow Showers"
"1957-12-11 06:00","1957","12","11","06:00","-10.0","","-13.9","","73","","32","","31","","24.1","","97.98","","","","-20","","Snow"
"1957-12-11 07:00","1957","12","11","07:00","-10.0","","-15.6","","64","","32","","24","","24.1","","98.04","","","","-19","","Snow"
"1957-12-11 08:00","1957","12","11","08:00","-10.6","","-16.1","","64","","32","","29","","24.1","","98.08","","","","-20","","Snow"
"1957-12-11 09:00","1957","12","11","09:00","-10.6","","-15.6","","67","","29","","29","","25.0","","98.15","","","","-20","","Mostly Cloudy"
"1957-12-11 10:00","1957","12","11","10:00","-10.6","","-15.0","","70","","29","","29","","25.0","","98.25","","","","-20","","Mainly Clear"
"1957-12-11 11:00","1957","12","11","11:00","-10.0","","-16.1","","61","","29","","29","","25.0","","98.32","","","","-19","","Mainly Clear"
"1957-12-11 12:00","1957","12","11","12:00","-10.0","","-16.1","","61","","27","","23","","25.0","","98.34","","","","-18","","Mainly Clear"
"1957-12-11 13:00","1957","12","11","13:00","-9.4","","-16.7","","56","","32","","11","","25.0","","98.36","","","","-15","","Mainly Clear"
"1957-12-11 14:00","1957","12","11","14:00","-8.9","","-14.4","","64","","29","","24","","25.0","","98.36","","","","-17","","Mainly Clear"
"1957-12-11 15:00","1957","12","11","15:00","-8.9","","-14.4","","64","","29","","29","","25.0","","98.37","","","","-18","","Mainly Clear"
"1957-12-11 16:00","1957","12","11","16:00","-10.0","","-15.6","","64","","29","","24","","25.0","","98.46","","","","-19","","Clear"
"1957-12-11 17:00","1957","12","11","17:00","-11.1","","-16.1","","67","","29","","18","","25.0","","98.49","","","","-19","","Mainly Clear"
"1957-12-11 18:00","1957","12","11","18:00","-11.7","","-16.7","","67","","27","","14","","25.0","","98.56","","","","-19","","Mainly Clear"
"1957-12-11 19:00","1957","12","11","19:00","-11.7","","-16.7","","67","","32","","13","","25.0","","98.66","","","","-18","","Clear"
"1957-12-11 20:00","1957","12","11","20:00","-13.9","","-17.2","","76","","36","","13","","25.0","","98.70","","","","-21","","Clear"
"1957-12-11 21:00","1957","12","11","21:00","-15.0","","-17.2","","83","","36","","13","","25.0","","98.78","","","","-22","","Clear"
"1957-12-11 22:00","1957","12","11","22:00","-15.0","","-17.2","","83","","36","","16","","24.1","","98.79","","","","-23","","Snow"
"1957-12-11 23:00","1957","12","11","23:00","-15.0","","-16.7","","87","","36","","16","","16.1","","98.74","","","","-23","","Snow Showers"
"1957-12-12 00:00","1957","12","12","00:00","-15.0","","-16.7","","87","","34","","10","","19.3","","98.74","","","","-21","","Snow"
"1957-12-12 01:00","1957","12","12","01:00","-15.0","","-16.7","","87","","34","","19","","16.1","","98.75","","","","-24","","Snow"
"1957-12-12 02:00","1957","12","12","02:00","-15.0","","-17.8","","79","","34","","18","","6.4","","98.75","","","","-24","","Snow"
"1957-12-12 03:00","1957","12","12","03:00","-15.0","","-17.2","","83","","34","","19","","19.3","","98.79","","","","-24","","Snow"
"1957-12-12 04:00","1957","12","12","04:00","-15.6","","-17.8","","83","","32","","21","","19.3","","98.79","","","","-25","","Snow"
"1957-12-12 05:00","1957","12","12","05:00","-16.1","","-18.3","","83","","32","","24","","24.1","","98.81","","","","-26","","Mostly Cloudy"
"1957-12-12 06:00","1957","12","12","06:00","-16.7","","-19.4","","79","","32","","26","","24.1","","98.86","","","","-28","","Mostly Cloudy"
"1957-12-12 07:00","1957","12","12","07:00","-16.7","","-19.4","","79","","34","","27","","24.1","","98.92","","","","-28","","Mostly Cloudy"
"1957-12-12 08:00","1957","12","12","08:00","-17.8","","-20.0","","83","","34","","23","","24.1","","98.95","","","","-28","","Mostly Cloudy"
"1957-12-12 09:00","1957","12","12","09:00","-17.2","","-20.0","","79","","34","","29","","25.0","","99.04","","","","-29","","Mostly Cloudy"
"1957-12-12 10:00","1957","12","12","10:00","-16.7","","-19.4","","79","","34","","26","","25.0","","99.14","","","","-28","","Mostly Cloudy"
"1957-12-12 11:00","1957","12","12","11:00","-16.7","","-19.4","","79","","34","","23","","25.0","","99.16","","","","-27","","Mostly Cloudy"
"1957-12-12 12:00","1957","12","12","12:00","-13.9","","-17.2","","76","","32","","16","","25.0","","99.16","","","","-22","","Mainly Clear"
"1957-12-12 13:00","1957","12","12","13:00","-12.2","","-15.0","","80","","34","","21","","25.0","","99.14","","","","-21","","Mainly Clear"
"1957-12-12 14:00","1957","12","12","14:00","-10.6","","-15.6","","67","","34","","23","","25.0","","99.14","","","","-19","","Mainly Clear"
"1957-12-12 15:00","1957","12","12","15:00","-10.0","","-13.3","","77","","27","","14","","25.0","","99.21","","","","-16","","Mainly Clear"
"1957-12-12 16:00","1957","12","12","16:00","-8.9","","-12.8","","73","","29","","29","","25.0","","99.25","","","","-18","","Clear"
"1957-12-12 17:00","1957","12","12","17:00","-10.0","","-12.8","","84","","29","","27","","25.0","","99.30","","","","-19","","Clear"
"1957-12-12 18:00","1957","12","12","18:00","-10.6","","-14.4","","73","","27","","26","","25.0","","99.35","","","","-20","","Clear"
"1957-12-12 19:00","1957","12","12","19:00","-11.7","","-15.6","","73","","25","","26","","25.0","","99.39","","","","-21","","Clear"
"1957-12-12 20:00","1957","12","12","20:00","-11.7","","-14.4","","80","","27","","24","","25.0","","99.47","","","","-21","","Clear"
"1957-12-12 21:00","1957","12","12","21:00","-11.7","","-14.4","","80","","27","","19","","25.0","","99.47","","","","-20","","Mostly Cloudy"
"1957-12-12 22:00","1957","12","12","22:00","-11.7","","-15.0","","76","","27","","16","","25.0","","99.51","","","","-19","","Mainly Clear"
"1957-12-12 23:00","1957","12","12","23:00","-11.1","","-13.3","","84","","27","","18","","19.3","","99.51","","","","-19","","Mostly Cloudy"
"1957-12-13 00:00","1957","12","13","00:00","-10.6","","-12.8","","84","","25","","10","","19.3","","99.50","","","","-16","","Mostly Cloudy"
"1957-12-13 01:00","1957","12","13","01:00","-10.0","","-13.3","","77","","25","","16","","24.1","","99.49","","","","-17","","Mostly Cloudy"
"1957-12-13 02:00","1957","12","13","02:00","-7.8","","-10.6","","81","","23","","13","","24.1","","99.50","","","","-14","","Mostly Cloudy"
"1957-12-13 03:00","1957","12","13","03:00","-8.3","","-10.6","","84","","25","","8","","24.1","","99.49","","","","-12","","Mostly Cloudy"
"1957-12-13 04:00","1957","12","13","04:00","-8.9","","-11.1","","84","","23","","13","","24.1","","99.41","","","","-15","","Mostly Cloudy"
"1957-12-13 05:00","1957","12","13","05:00","-7.2","","-11.1","","74","","18","","11","","24.1","","99.36","","","","-12","","Cloudy"
"1957-12-13 06:00","1957","12","13","06:00","-7.8","","-10.0","","84","","18","","13","","24.1","","99.34","","","","-14","","Mainly Clear"
"1957-12-13 07:00","1957","12","13","07:00","-7.8","","-10.6","","81","","18","","14","","24.1","","99.27","","","","-14","","Mainly Clear"
"1957-12-13 08:00","1957","12","13","08:00","-6.7","","-8.9","","84","","20","","23","","16.1","","99.27","","","","-14","","Mostly Cloudy"
"1957-12-13 09:00","1957","12","13","09:00","-4.4","","-6.7","","84","","20","","31","","9.7","","99.25","","","","-12","","Haze"
"1957-12-13 10:00","1957","12","13","10:00","-3.9","","-8.3","","71","","20","","32","","9.7","","99.23","","","","-12","","Haze"
"1957-12-13 11:00","1957","12","13","11:00","-3.9","","-7.8","","74","","20","","31","","6.4","","99.17","","","","-12","","Snow,Haze"
"1957-12-13 12:00","1957","12","13","12:00","-3.9","","-6.1","","85","","20","","31","","6.4","","99.07","","","","-12","","Haze"
"1957-12-13 13:00","1957","12","13","13:00","-2.8","","-6.7","","75","","20","","29","","9.7","","98.95","","","","-10","","Snow,Haze"
"1957-12-13 14:00","1957","12","13","14:00","-3.3","","-6.1","","81","","18","","29","","9.7","","98.88","","","","-11","","Snow,Haze"
"1957-12-13 15:00","1957","12","13","15:00","-2.8","","-5.6","","81","","18","","27","","6.4","","98.88","","","","-10","","Snow,Haze"
"1957-12-13 16:00","1957","12","13","16:00","-2.8","","-5.0","","88","","18","","27","","2.4","","98.88","","","","-10","","Snow,Fog"
"1957-12-13 17:00","1957","12","13","17:00","-2.8","","-4.4","","88","","18","","27","","4.8","","98.90","","","","-10","","Snow,Fog"
"1957-12-13 18:00","1957","12","13","18:00","-2.8","","-4.4","","88","","20","","31","","2.0","","98.89","","","","-10","","Snow"
"1957-12-13 19:00","1957","12","13","19:00","-1.7","","-2.8","","92","","20","","23","","4.8","","98.86","","","","-8","","Snow"
"1957-12-13 20:00","1957","12","13","20:00","-1.7","","-1.7","","100","","20","","24","","12.9","","98.82","","","","-8","","Snow"
"1957-12-13 21:00","1957","12","13","21:00","-1.1","","-2.8","","88","","20","","16","","9.7","","98.80","","","","-6","","Freezing Drizzle,Fog"
"1957-12-13 22:00","1957","12","13","22:00","-0.6","","-1.7","","92","","18","","14","","16.1","","98.82","","","","-5","","Cloudy"
"1957-12-13 23:00","1957","12","13","23:00","-0.6","","-2.2","","88","","18","","16","","16.1","","98.81","","","","-5","","Cloudy"
"1957-12-14 00:00","1957","12","14","00:00","0.6","","-1.7","","85","","18","","16","","16.1","","98.84","","","","","","Cloudy"
"1957-12-14 01:00","1957","12","14","01:00","1.7","","-2.8","","72","","23","","19","","16.1","","98.84","","","","","","Cloudy"
"1957-12-14 02:00","1957","12","14","02:00","1.7","","-1.7","","78","","23","","24","","16.1","","98.86","","","","","","Cloudy"
"1957-12-14 03:00","1957","12","14","03:00","2.2","","-1.1","","78","","23","","21","","16.1","","98.93","","","","","","Cloudy"
"1957-12-14 04:00","1957","12","14","04:00","2.2","","-1.1","","78","","23","","21","","16.1","","98.96","","","","","","Cloudy"
"1957-12-14 05:00","1957","12","14","05:00","2.2","","-1.1","","78","","25","","24","","16.1","","98.99","","","","","","Cloudy"
"1957-12-14 06:00","1957","12","14","06:00","2.2","","-1.7","","75","","25","","27","","16.1","","99.07","","","","","","Cloudy"
"1957-12-14 07:00","1957","12","14","07:00","2.2","","-1.1","","78","","23","","23","","16.1","","99.11","","","","","","Cloudy"
"1957-12-14 08:00","1957","12","14","08:00","1.7","","-1.7","","78","","25","","24","","16.1","","99.17","","","","","","Mostly Cloudy"
"1957-12-14 09:00","1957","12","14","09:00","1.7","","-2.2","","75","","25","","27","","16.1","","99.23","","","","","","Mostly Cloudy"
"1957-12-14 10:00","1957","12","14","10:00","1.7","","-2.2","","75","","27","","32","","24.1","","99.35","","","","","","Mostly Cloudy"
"1957-12-14 11:00","1957","12","14","11:00","2.2","","-1.7","","75","","27","","29","","24.1","","99.43","","","","","","Mostly Cloudy"
"1957-12-14 12:00","1957","12","14","12:00","2.2","","-2.8","","69","","27","","19","","25.0","","99.41","","","","","","Mostly Cloudy"
"1957-12-14 13:00","1957","12","14","13:00","2.2","","-2.8","","69","","25","","13","","25.0","","99.38","","","","","","Mostly Cloudy"
"1957-12-14 14:00","1957","12","14","14:00","2.8","","-2.2","","70","","27","","21","","25.0","","99.38","","","","","","Mostly Cloudy"
"1957-12-14 15:00","1957","12","14","15:00","2.2","","-3.3","","67","","27","","23","","25.0","","99.44","","","","","","Mainly Clear"
"1957-12-14 16:00","1957","12","14","16:00","1.7","","-2.2","","75","","27","","19","","25.0","","99.57","","","","","","Mostly Cloudy"
"1957-12-14 17:00","1957","12","14","17:00","1.1","","-2.2","","78","","27","","23","","25.0","","99.68","","","","","","Mostly Cloudy"
"1957-12-14 18:00","1957","12","14","18:00","-1.1","","-3.9","","81","","25","","16","","25.0","","99.78","","","","-6","","Mainly Clear"
"1957-12-14 19:00","1957","12","14","19:00","-1.1","","-2.8","","88","","25","","19","","25.0","","99.87","","","","-6","","Mainly Clear"
"1957-12-14 20:00","1957","12","14","20:00","-1.7","","-3.9","","85","","25","","16","","25.0","","99.98","","","","-7","","Mainly Clear"
"1957-12-14 21:00","1957","12","14","21:00","-1.1","","-3.3","","85","","25","","6","","25.0","","100.07","","","","-3","","Mainly Clear"
"1957-12-14 22:00","1957","12","14","22:00","-2.8","","-5.0","","85","","25","","11","","25.0","","100.14","","","","-7","","Mainly Clear"
"1957-12-14 23:00","1957","12","14","23:00","-2.8","","-4.4","","88","","25","","14","","25.0","","100.18","","","","-8","","Mostly Cloudy"
"1957-12-15 00:00","1957","12","15","00:00","-1.1","","-3.3","","85","","25","","23","","24.1","","100.19","","","","-7","","Snow Showers"
"1957-12-15 01:00","1957","12","15","01:00","-0.6","","-2.8","","85","","27","","14","","25.0","","100.23","","","","-5","","Cloudy"
"1957-12-15 02:00","1957","12","15","02:00","-0.6","","-2.8","","85","","25","","19","","24.1","","100.29","","","","-6","","Cloudy"
"1957-12-15 03:00","1957","12","15","03:00","-0.6","","-3.3","","81","","27","","16","","24.1","","100.32","","","","-5","","Cloudy"
"1957-12-15 04:00","1957","12","15","04:00","-2.8","","-3.3","","96","","27","","19","","25.0","","100.32","","","","-9","","Mainly Clear"
"1957-12-15 05:00","1957","12","15","05:00","-3.3","","-3.9","","96","","27","","19","","24.1","","100.34","","","","-9","","Mainly Clear"
"1957-12-15 06:00","1957","12","15","06:00","-4.4","","-4.4","","100","","27","","13","","19.3","","100.41","","","","-9","","Mainly Clear"
"1957-12-15 07:00","1957","12","15","07:00","-5.0","","-5.0","","100","","27","","16","","19.3","","100.50","","","","-11","","Mainly Clear"
"1957-12-15 08:00","1957","12","15","08:00","-3.9","","-3.9","","100","","27","","14","","19.3","","100.53","","","","-9","","Mostly Cloudy"
"1957-12-15 09:00","1957","12","15","09:00","-2.8","","-4.4","","88","","27","","14","","19.3","","100.58","","","","-8","","Mostly Cloudy"
"1957-12-15 10:00","1957","12","15","10:00","-0.6","","-3.9","","81","","27","","13","","19.3","","100.59","","","","-5","","Mainly Clear"
"1957-12-15 11:00","1957","12","15","11:00","0.6","","-2.2","","78","","23","","11","","19.3","","100.59","","","","","","Mostly Cloudy"
"1957-12-15 12:00","1957","12","15","12:00","1.1","","-2.8","","75","","23","","11","","19.3","","100.56","","","","","","Mostly Cloudy"
"1957-12-15 13:00","1957","12","15","13:00","2.2","","-3.9","","64","","23","","13","","24.1","","100.45","","","","","","Cloudy"
"1957-12-15 14:00","1957","12","15","14:00","2.8","","-3.9","","61","","25","","18","","24.1","","100.28","","","","","","Mostly Cloudy"
"1957-12-15 15:00","1957","12","15","15:00","2.8","","-1.7","","72","","18","","26","","24.1","","100.09","","","","","","Mostly Cloudy"
"1957-12-15 16:00","1957","12","15","16:00","2.2","","-2.8","","67","","18","","26","","19.3","","100.01","","","","","","Mostly Cloudy"
"1957-12-15 17:00","1957","12","15","17:00","2.2","","-1.1","","78","","18","","32","","12.9","","99.79","","","","","","Mostly Cloudy"
"1957-12-15 18:00","1957","12","15","18:00","2.2","","-1.1","","78","","18","","24","","16.1","","99.66","","","","","","Snow,Snow Grains"
"1957-12-15 19:00","1957","12","15","19:00","2.2","","-1.1","","78","","18","","6","","4.8","","99.76","","","","","","Snow,Ice Pellets"
"1957-12-15 20:00","1957","12","15","20:00","1.7","","0.0","","89","","14","","13","","9.7","","99.60","","","","","","Drizzle,Fog"
"1957-12-15 21:00","1957","12","15","21:00","1.1","","0.0","","92","","18","","19","","4.0","","99.46","","","","","","Drizzle,Fog"
"1957-12-15 22:00","1957","12","15","22:00","1.7","","1.1","","96","","20","","14","","1.6","","99.41","","","","","","Drizzle,Fog"
"1957-12-15 23:00","1957","12","15","23:00","2.2","","1.1","","92","","25","","16","","8.0","","99.38","","","","","","Drizzle,Fog"
"1957-12-16 00:00","1957","12","16","00:00","3.3","","1.1","","85","","25","","23","","12.9","","99.30","","","","","","Cloudy"
"1957-12-16 01:00","1957","12","16","01:00","3.3","","1.7","","89","","25","","32","","12.9","","99.34","","","","","","Cloudy"
"1957-12-16 02:00","1957","12","16","02:00","2.8","","1.7","","92","","25","","29","","24.1","","99.36","","","","","","Cloudy"
"1957-12-16 03:00","1957","12","16","03:00","3.3","","1.1","","85","","25","","23","","24.1","","99.36","","","","","","Cloudy"
"1957-12-16 04:00","1957","12","16","04:00","3.3","","0.6","","82","","25","","32","","25.0","","99.30","","","","","","Mainly Clear"
"1957-12-16 05:00","1957","12","16","05:00","2.8","","0.0","","82","","25","","32","","25.0","","99.34","","","","","","Mostly Cloudy"
"1957-12-16 06:00","1957","12","16","06:00","2.8","","0.6","","85","","25","","29","","25.0","","99.39","","","","","","Mostly Cloudy"
"1957-12-16 07:00","1957","12","16","07:00","2.8","","0.0","","82","","25","","24","","25.0","","99.44","","","","","","Mostly Cloudy"
"1957-12-16 08:00","1957","12","16","08:00","2.8","","0.0","","82","","27","","23","","16.1","","99.48","","","","","","Mainly Clear"
"1957-12-16 09:00","1957","12","16","09:00","2.8","","-0.6","","79","","25","","24","","16.1","","99.55","","","","","","Mainly Clear"
"1957-12-16 10:00","1957","12","16","10:00","3.3","","-0.6","","76","","27","","27","","24.1","","99.65","","","","","","Mainly Clear"
"1957-12-16 11:00","1957","12","16","11:00","3.9","","-0.6","","73","","27","","29","","24.1","","99.70","","","","","","Mostly Cloudy"
"1957-12-16 12:00","1957","12","16","12:00","3.9","","-1.1","","70","","27","","29","","25.0","","99.70","","","","","","Mostly Cloudy"
"1957-12-16 13:00","1957","12","16","13:00","4.4","","-1.1","","67","","29","","32","","25.0","","99.72","","","","","","Mainly Clear"
"1957-12-16 14:00","1957","12","16","14:00","4.4","","-2.2","","62","","27","","31","","25.0","","99.78","","","","","","Mostly Cloudy"
"1957-12-16 15:00","1957","12","16","15:00","3.3","","-3.3","","62","","29","","32","","25.0","","99.86","","","","","","Cloudy"
"1957-12-16 16:00","1957","12","16","16:00","2.2","","-2.2","","72","","29","","32","","25.0","","99.95","","","","","","Cloudy"
"1957-12-16 17:00","1957","12","16","17:00","2.2","","-2.2","","72","","29","","32","","25.0","","100.03","","","","","","Cloudy"
"1957-12-16 18:00","1957","12","16","18:00","1.7","","-2.8","","72","","29","","40","","25.0","","100.11","","","","","","Snow Showers"
"1957-12-16 19:00","1957","12","16","19:00","1.7","","-3.9","","67","","29","","40","","25.0","","100.17","","","","","","Snow Showers"
"1957-12-16 20:00","1957","12","16","20:00","1.7","","-2.8","","72","","29","","35","","25.0","","100.23","","","","","","Cloudy"
"1957-12-16 21:00","1957","12","16","21:00","1.7","","-2.2","","75","","32","","32","","25.0","","100.30","","","","","","Snow Showers"
"1957-12-16 22:00","1957","12","16","22:00","1.7","","0.6","","92","","32","","32","","25.0","","100.40","","","","","","Cloudy"
"1957-12-16 23:00","1957","12","16","23:00","1.1","","-3.9","","69","","32","","31","","25.0","","100.45","","","","","","Cloudy"
"1957-12-17 00:00","1957","12","17","00:00","1.1","","-3.3","","72","","29","","24","","25.0","","100.46","","","","","","Mostly Cloudy"
"1957-12-17 01:00","1957","12","17","01:00","0.6","","-2.2","","82","","29","","21","","25.0","","100.51","","","","","","Cloudy"
"1957-12-17 02:00","1957","12","17","02:00","0.6","","-3.9","","72","","32","","19","","25.0","","100.49","","","","","","Cloudy"
"1957-12-17 03:00","1957","12","17","03:00","0.0","","-2.8","","82","","36","","13","","25.0","","100.67","","","","-4","","Cloudy"
"1957-12-17 04:00","1957","12","17","04:00","-0.6","","-3.9","","78","","2","","13","","25.0","","100.68","","","","-5","","Cloudy"
"1957-12-17 05:00","1957","12","17","05:00","-0.6","","-3.3","","81","","36","","21","","25.0","","100.73","","","","-6","","Cloudy"
"1957-12-17 06:00","1957","12","17","06:00","-1.7","","-6.1","","72","","36","","16","","25.0","","100.77","","","","-7","","Mostly Cloudy"
"1957-12-17 07:00","1957","12","17","07:00","-2.2","","-4.4","","85","","36","","13","","25.0","","100.85","","","","-7","","Mostly Cloudy"
"1957-12-17 08:00","1957","12","17","08:00","-2.8","","-5.0","","85","","34","","11","","25.0","","100.92","","","","-7","","Mainly Clear"
"1957-12-17 09:00","1957","12","17","09:00","-2.8","","-5.0","","85","","36","","14","","25.0","","100.98","","","","-8","","Mostly Cloudy"
"1957-12-17 10:00","1957","12","17","10:00","-2.8","","-5.0","","85","","36","","13","","25.0","","101.03","","","","-7","","Mostly Cloudy"
"1957-12-17 11:00","1957","12","17","11:00","-2.8","","-6.1","","78","","2","","16","","25.0","","101.04","","","","-8","","Mostly Cloudy"
"1957-12-17 12:00","1957","12","17","12:00","-2.2","","-5.0","","78","","2","","13","","25.0","","100.96","","","","-7","","Mostly Cloudy"
"1957-12-17 13:00","1957","12","17","13:00","-2.8","","-5.6","","81","","2","","10","","25.0","","100.93","","","","-7","","Mostly Cloudy"
"1957-12-17 14:00","1957","12","17","14:00","-2.8","","-5.0","","85","","2","","10","","25.0","","100.90","","","","-7","","Mostly Cloudy"
"1957-12-17 15:00","1957","12","17","15:00","-2.2","","-5.0","","81","","5","","13","","25.0","","100.86","","","","-7","","Mostly Cloudy"
"1957-12-17 16:00","1957","12","17","16:00","-2.8","","-5.0","","85","","5","","13","","25.0","","100.84","","","","-7","","Mostly Cloudy"
"1957-12-17 17:00","1957","12","17","17:00","-3.3","","-5.6","","85","","2","","10","","25.0","","100.87","","","","-7","","Mostly Cloudy"
"1957-12-17 18:00","1957","12","17","18:00","-3.3","","-5.6","","85","","2","","8","","25.0","","100.88","","","","-7","","Mostly Cloudy"
"1957-12-17 19:00","1957","12","17","19:00","-3.3","","-5.6","","85","","5","","10","","24.1","","100.90","","","","-7","","Mostly Cloudy"
"1957-12-17 20:00","1957","12","17","20:00","-3.9","","-6.7","","81","","5","","10","","24.1","","100.93","","","","-8","","Mostly Cloudy"
"1957-12-17 21:00","1957","12","17","21:00","-3.9","","-5.6","","88","","5","","10","","24.1","","100.91","","","","-8","","Mostly Cloudy"
"1957-12-17 22:00","1957","12","17","22:00","-3.9","","-6.1","","85","","5","","13","","24.1","","100.84","","","","-9","","Cloudy"
"1957-12-17 23:00","1957","12","17","23:00","-2.8","","-3.9","","92","","7","","16","","24.1","","100.80","","","","-8","","Cloudy"
"1957-12-18 00:00","1957","12","18","00:00","-2.2","","-3.9","","88","","7","","13","","24.1","","100.70","","","","-7","","Mostly Cloudy"
"1957-12-18 01:00","1957","12","18","01:00","0.0","","-2.2","","85","","11","","26","","24.1","","100.66","","","","-6","","Cloudy"
"1957-12-18 02:00","1957","12","18","02:00","0.0","","-1.7","","88","","11","","29","","24.1","","100.56","","","","-6","","Cloudy"
"1957-12-18 03:00","1957","12","18","03:00","0.6","","-1.7","","85","","9","","24","","24.1","","100.42","","","","","","Cloudy"
"1957-12-18 04:00","1957","12","18","04:00","0.6","","-1.7","","85","","9","","40","","24.1","","100.38","","","","","","Cloudy"
"1957-12-18 05:00","1957","12","18","05:00","1.1","","-1.1","","85","","9","","40","","24.1","","100.30","","","","","","Cloudy"
"1957-12-18 06:00","1957","12","18","06:00","1.1","","-1.1","","85","","9","","27","","24.1","","100.23","","","","","","Cloudy"
"1957-12-18 07:00","1957","12","18","07:00","1.1","","-1.7","","82","","9","","35","","24.1","","100.15","","","","","","Rain,Ice Pellets"
"1957-12-18 08:00","1957","12","18","08:00","1.1","","-0.6","","89","","9","","32","","2.0","","100.09","","","","","","Snow,Ice Pellets"
"1957-12-18 09:00","1957","12","18","09:00","1.1","","-1.1","","85","","11","","26","","4.8","","100.06","","","","","","Rain,Fog"
"1957-12-18 10:00","1957","12","18","10:00","1.1","","0.0","","92","","11","","29","","2.4","","100.01","","","","","","Rain,Fog"
"1957-12-18 11:00","1957","12","18","11:00","1.1","","0.6","","97","","11","","27","","0.8","","99.93","","","","","","Rain,Fog"
"1957-12-18 12:00","1957","12","18","12:00","1.7","","1.1","","96","","11","","19","","0.8","","99.82","","","","","","Rain,Fog"
"1957-12-18 13:00","1957","12","18","13:00","2.2","","1.7","","96","","11","","26","","0.8","","99.69","","","","","","Rain,Fog"
"1957-12-18 14:00","1957","12","18","14:00","2.8","","2.2","","96","","11","","24","","0.8","","99.60","","","","","","Rain,Fog"
"1957-12-18 15:00","1957","12","18","15:00","2.8","","2.2","","96","","11","","32","","1.2","","99.53","","","","","","Rain,Fog"
"1957-12-18 16:00","1957","12","18","16:00","2.8","","2.8","","100","","11","","23","","1.2","","99.49","","","","","","Rain,Fog"
"1957-12-18 17:00","1957","12","18","17:00","3.3","","2.8","","96","","11","","26","","1.6","","99.43","","","","","","Rain,Fog"
"1957-12-18 18:00","1957","12","18","18:00","3.9","","3.9","","100","","11","","23","","4.0","","99.40","","","","","","Rain,Fog"
"1957-12-18 19:00","1957","12","18","19:00","4.4","","3.9","","96","","11","","23","","12.9","","99.37","","","","","","Rain"
"1957-12-18 20:00","1957","12","18","20:00","3.9","","2.8","","92","","11","","21","","11.3","","99.35","","","","","","Rain"
"1957-12-18 21:00","1957","12","18","21:00","4.4","","1.7","","82","","14","","19","","16.1","","99.30","","","","","","Cloudy"
"1957-12-18 22:00","1957","12","18","22:00","4.4","","1.7","","82","","14","","19","","16.1","","99.23","","","","","","Cloudy"
"1957-12-18 23:00","1957","12","18","23:00","4.4","","1.7","","82","","14","","16","","19.3","","99.20","","","","","","Cloudy"
"1957-12-19 00:00","1957","12","19","00:00","5.6","","2.2","","79","","16","","23","","16.1","","99.15","","","","","","Rain"
"1957-12-19 01:00","1957","12","19","01:00","5.6","","4.4","","93","","18","","29","","11.3","","99.05","","","","","","Rain"
"1957-12-19 02:00","1957","12","19","02:00","6.1","","4.4","","89","","16","","35","","9.7","","98.97","","","","","","Rain"
"1957-12-19 03:00","1957","12","19","03:00","6.1","","5.0","","93","","16","","26","","9.7","","98.92","","","","","","Rain"
"1957-12-19 04:00","1957","12","19","04:00","6.7","","5.0","","89","","18","","27","","9.7","","98.82","","","","","","Rain"
"1957-12-19 05:00","1957","12","19","05:00","6.7","","6.1","","96","","18","","27","","11.3","","98.76","","","","","","Rain"
"1957-12-19 06:00","1957","12","19","06:00","7.2","","6.1","","93","","18","","27","","16.1","","98.73","","","","","","Rain"
"1957-12-19 07:00","1957","12","19","07:00","8.3","","6.1","","86","","18","","27","","16.1","","98.72","","","","","","Rain Showers"
"1957-12-19 08:00","1957","12","19","08:00","8.3","","6.7","","89","","18","","32","","24.1","","98.70","","","","","","Cloudy"
"1957-12-19 09:00","1957","12","19","09:00","8.9","","6.7","","86","","18","","29","","24.1","","98.69","","","","","","Mostly Cloudy"
"1957-12-19 10:00","1957","12","19","10:00","10.0","","7.2","","83","","18","","32","","24.1","","98.70","","","","","","Cloudy"
"1957-12-19 11:00","1957","12","19","11:00","11.7","","7.8","","77","","20","","45","","24.1","","98.68","","","","","","Mostly Cloudy"
"1957-12-19 12:00","1957","12","19","12:00","11.1","","6.1","","71","","23","","39","","25.0","","98.71","","","","","","Mainly Clear"
"1957-12-19 13:00","1957","12","19","13:00","11.1","","4.4","","64","","23","","45","","25.0","","98.74","","","","","","Mainly Clear"
"1957-12-19 14:00","1957","12","19","14:00","11.7","","4.4","","61","","23","","43","","25.0","","98.74","","","","","","Mainly Clear"
"1957-12-19 15:00","1957","12","19","15:00","12.2","","3.3","","55","","23","","37","","25.0","","98.76","","","","","","Clear"
"1957-12-19 16:00","1957","12","19","16:00","12.2","","3.9","","57","","23","","40","","25.0","","98.82","","","","","","Mainly Clear"
"1957-12-19 17:00","1957","12","19","17:00","10.0","","1.7","","56","","23","","29","","25.0","","98.91","","","","","","Mainly Clear"
"1957-12-19 18:00","1957","12","19","18:00","9.4","","2.8","","63","","23","","26","","25.0","","98.91","","","","","","Mainly Clear"
"1957-12-19 19:00","1957","12","19","19:00","9.4","","2.8","","63","","20","","27","","25.0","","98.91","","","","","","Mainly Clear"
"1957-12-19 20:00","1957","12","19","20:00","9.4","","5.0","","74","","23","","29","","25.0","","98.94","","","","","","Mainly Clear"
"1957-12-19 21:00","1957","12","19","21:00","8.9","","5.6","","80","","18","","14","","25.0","","99.01","","","","","","Mostly Cloudy"
"1957-12-19 22:00","1957","12","19","22:00","8.3","","5.0","","80","","14","","10","","24.1","","99.06","","","","","","Mostly Cloudy"
"1957-12-19 23:00","1957","12","19","23:00","6.7","","5.6","","93","","14","","10","","6.4","","99.07","","","","","","Fog"
"1957-12-20 00:00","1957","12","20","00:00","5.0","","4.4","","96","","2","","8","","4.0","","98.98","","","","","","Rain,Fog"
"1957-12-20 01:00","1957","12","20","01:00","6.1","","5.0","","93","","14","","16","","1.6","","98.88","","","","","","Rain,Fog"
"1957-12-20 02:00","1957","12","20","02:00","7.8","","7.2","","96","","9","","10","","0.4","","98.84","","","","","","Rain,Fog"
"1957-12-20 03:00","1957","12","20","03:00","8.3","","7.8","","96","","9","","14","","0.6","","98.76","","","","","","Rain,Fog"
"1957-12-20 04:00","1957","12","20","04:00","9.4","","8.9","","96","","14","","26","","2.4","","98.66","","","","","","Rain,Fog"
"1957-12-20 05:00","1957","12","20","05:00","8.9","","8.9","","100","","14","","19","","0.2","","98.55","","","","","","Rain,Fog"
"1957-12-20 06:00","1957","12","20","06:00","10.0","","9.4","","96","","14","","26","","1.2","","98.47","","","","","","Rain,Fog"
"1957-12-20 07:00","1957","12","20","07:00","9.4","","9.4","","100","","14","","24","","0.4","","98.43","","","","","","Rain,Fog"
"1957-12-20 08:00","1957","12","20","08:00","8.9","","8.9","","100","","16","","24","","1.2","","98.39","","","","","","Rain,Fog"
"1957-12-20 09:00","1957","12","20","09:00","9.4","","8.9","","96","","16","","19","","3.2","","98.39","","","","","","Rain,Fog"
"1957-12-20 10:00","1957","12","20","10:00","9.4","","8.9","","96","","14","","14","","3.2","","98.36","","","","","","Fog"
"1957-12-20 11:00","1957","12","20","11:00","9.4","","8.9","","96","","14","","16","","4.8","","98.29","","","","","","Fog"
"1957-12-20 12:00","1957","12","20","12:00","10.6","","9.4","","93","","14","","16","","4.0","","98.19","","","","","","Drizzle,Fog"
"1957-12-20 13:00","1957","12","20","13:00","11.1","","10.0","","93","","14","","16","","4.0","","98.09","","","","","","Rain,Fog"
"1957-12-20 14:00","1957","12","20","14:00","11.1","","10.0","","93","","14","","14","","4.0","","97.96","","","","","","Rain,Fog"
"1957-12-20 15:00","1957","12","20","15:00","11.1","","10.6","","96","","16","","16","","2.0","","97.86","","","","","","Rain,Fog"
"1957-12-20 16:00","1957","12","20","16:00","11.7","","11.1","","96","","14","","19","","1.6","","97.81","","","","","","Rain,Fog"
"1957-12-20 17:00","1957","12","20","17:00","11.7","","11.7","","100","","14","","23","","1.6","","97.60","","","","","","Rain,Fog"
"1957-12-20 18:00","1957","12","20","18:00","11.7","","11.7","","100","","14","","23","","1.6","","97.48","","","","","","Fog"
"1957-12-20 19:00","1957","12","20","19:00","12.2","","10.6","","90","","14","","23","","12.9","","97.41","","","","","","Rain"
"1957-12-20 20:00","1957","12","20","20:00","11.1","","10.0","","93","","18","","32","","12.9","","97.41","","","","","","Cloudy"
"1957-12-20 21:00","1957","12","20","21:00","11.1","","8.9","","86","","27","","29","","19.3","","97.44","","","","","","Rain"
"1957-12-20 22:00","1957","12","20","22:00","11.1","","8.9","","86","","23","","13","","25.0","","97.47","","","","","","Mostly Cloudy"
"1957-12-20 23:00","1957","12","20","23:00","10.0","","8.9","","93","","20","","16","","25.0","","97.50","","","","","","Rain"
"1957-12-21 00:00","1957","12","21","00:00","10.0","","8.3","","89","","23","","11","","24.1","","97.57","","","","","","Cloudy"
"1957-12-21 01:00","1957","12","21","01:00","8.9","","7.2","","89","","23","","32","","24.1","","97.60","","","","","","Mainly Clear"
"1957-12-21 02:00","1957","12","21","02:00","7.8","","5.6","","86","","23","","24","","19.3","","97.69","","","","","","Mostly Cloudy"
"1957-12-21 03:00","1957","12","21","03:00","7.2","","5.6","","89","","23","","21","","24.1","","97.78","","","","","","Mostly Cloudy"
"1957-12-21 04:00","1957","12","21","04:00","7.2","","5.6","","89","","23","","19","","24.1","","97.83","","","","","","Cloudy"
"1957-12-21 05:00","1957","12","21","05:00","7.2","","6.1","","93","","23","","26","","24.1","","97.90","","","","","","Rain"
"1957-12-21 06:00","1957","12","21","06:00","7.2","","6.1","","93","","23","","27","","24.1","","97.99","","","","","","Cloudy"
"1957-12-21 07:00","1957","12","21","07:00","7.2","","6.1","","93","","27","","35","","24.1","","98.13","","","","","","Rain"
"1957-12-21 08:00","1957","12","21","08:00","6.1","","3.3","","82","","27","","40","","24.1","","98.30","","","","","","Cloudy"
"1957-12-21 09:00","1957","12","21","09:00","5.0","","3.3","","89","","25","","31","","25.0","","98.39","","","","","","Cloudy"
"1957-12-21 10:00","1957","12","21","10:00","5.6","","2.2","","79","","25","","31","","25.0","","98.55","","","","","","Mostly Cloudy"
"1957-12-21 11:00","1957","12","21","11:00","6.1","","2.8","","79","","25","","43","","25.0","","98.58","","","","","","Mainly Clear"
"1957-12-21 12:00","1957","12","21","12:00","7.2","","1.1","","65","","25","","43","","25.0","","98.60","","","","","","Mainly Clear"
"1957-12-21 13:00","1957","12","21","13:00","7.2","","1.7","","68","","25","","42","","25.0","","98.62","","","","","","Mostly Cloudy"
"1957-12-21 14:00","1957","12","21","14:00","6.1","","1.7","","73","","25","","37","","25.0","","98.64","","","","","","Mostly Cloudy"
"1957-12-21 15:00","1957","12","21","15:00","6.1","","1.1","","70","","25","","35","","25.0","","98.75","","","","","","Cloudy"
"1957-12-21 16:00","1957","12","21","16:00","6.7","","0.6","","65","","25","","32","","25.0","","98.86","","","","","","Mainly Clear"
"1957-12-21 17:00","1957","12","21","17:00","6.7","","0.0","","62","","27","","39","","19.3","","98.97","","","","","","Mainly Clear"
"1957-12-21 18:00","1957","12","21","18:00","5.6","","1.1","","73","","29","","16","","19.3","","99.10","","","","","","Mainly Clear"
"1957-12-21 19:00","1957","12","21","19:00","5.6","","0.6","","70","","29","","29","","24.1","","99.21","","","","","","Mostly Cloudy"
"1957-12-21 20:00","1957","12","21","20:00","4.4","","-1.1","","67","","32","","29","","24.1","","99.41","","","","","","Cloudy"
"1957-12-21 21:00","1957","12","21","21:00","3.9","","-2.2","","64","","29","","35","","25.0","","99.57","","","","","","Mostly Cloudy"
"1957-12-21 22:00","1957","12","21","22:00","2.8","","-1.7","","72","","29","","32","","25.0","","99.67","","","","","","Mainly Clear"
"1957-12-21 23:00","1957","12","21","23:00","2.8","","-2.2","","70","","29","","29","","25.0","","99.78","","","","","","Clear"
"1957-12-22 00:00","1957","12","22","00:00","2.8","","-1.7","","72","","29","","27","","25.0","","99.94","","","","","","Mainly Clear"
"1957-12-22 01:00","1957","12","22","01:00","2.2","","-2.2","","72","","32","","23","","25.0","","100.06","","","","","","Mainly Clear"
"1957-12-22 02:00","1957","12","22","02:00","1.7","","-1.7","","78","","32","","19","","25.0","","100.21","","","","","","Mainly Clear"
"1957-12-22 03:00","1957","12","22","03:00","1.7","","-1.7","","78","","27","","16","","25.0","","100.33","","","","","","Mostly Cloudy"
"1957-12-22 04:00","1957","12","22","04:00","2.2","","-1.1","","78","","27","","16","","25.0","","100.35","","","","","","Mostly Cloudy"
"1957-12-22 05:00","1957","12","22","05:00","2.2","","-1.1","","78","","25","","13","","25.0","","100.42","","","","","","Mostly Cloudy"
"1957-12-22 06:00","1957","12","22","06:00","1.7","","-1.7","","78","","25","","13","","25.0","","100.53","","","","","","Cloudy"
"1957-12-22 07:00","1957","12","22","07:00","1.1","","-1.1","","85","","25","","11","","25.0","","100.59","","","","","","Mostly Cloudy"
"1957-12-22 08:00","1957","12","22","08:00","0.0","","-2.2","","85","","23","","13","","25.0","","100.58","","","","-4","","Mainly Clear"
"1957-12-22 09:00","1957","12","22","09:00","0.6","","-1.7","","85","","20","","11","","25.0","","100.62","","","","","","Mainly Clear"
"1957-12-22 10:00","1957","12","22","10:00","1.7","","-1.7","","78","","23","","13","","25.0","","100.67","","","","","","Mostly Cloudy"
"1957-12-22 11:00","1957","12","22","11:00","3.3","","-0.6","","76","","23","","19","","25.0","","100.65","","","","","","Mostly Cloudy"
"1957-12-22 12:00","1957","12","22","12:00","4.4","","-1.7","","65","","23","","23","","25.0","","100.55","","","","","","Mostly Cloudy"
"1957-12-22 13:00","1957","12","22","13:00","4.4","","-0.6","","67","","20","","19","","25.0","","100.50","","","","","","Mostly Cloudy"
"1957-12-22 14:00","1957","12","22","14:00","5.0","","1.1","","76","","18","","23","","25.0","","100.44","","","","","","Mainly Clear"
"1957-12-22 15:00","1957","12","22","15:00","6.1","","0.0","","65","","18","","23","","25.0","","100.44","","","","","","Mostly Cloudy"
"1957-12-22 16:00","1957","12","22","16:00","5.0","","0.6","","73","","20","","19","","25.0","","100.42","","","","","","Mostly Cloudy"
"1957-12-22 17:00","1957","12","22","17:00","5.0","","0.6","","73","","18","","19","","25.0","","100.38","","","","","","Mostly Cloudy"
"1957-12-22 18:00","1957","12","22","18:00","4.4","","0.6","","76","","16","","13","","25.0","","100.36","","","","","","Mainly Clear"
"1957-12-22 19:00","1957","12","22","19:00","3.9","","1.1","","82","","14","","16","","25.0","","100.37","","","","","","Mostly Cloudy"
"1957-12-22 20:00","1957","12","22","20:00","3.9","","0.6","","79","","14","","16","","25.0","","100.37","","","","","","Mostly Cloudy"
"1957-12-22 21:00","1957","12","22","21:00","3.9","","0.0","","76","","16","","16","","25.0","","100.32","","","","","","Mostly Cloudy"
"1957-12-22 22:00","1957","12","22","22:00","4.4","","0.0","","73","","14","","13","","24.1","","100.31","","","","","","Mostly Cloudy"
"1957-12-22 23:00","1957","12","22","23:00","4.4","","0.0","","73","","16","","13","","24.1","","100.27","","","","","","Mostly Cloudy"
"1957-12-23 00:00","1957","12","23","00:00","2.8","","0.0","","82","","18","","13","","24.1","","100.19","","","","","","Mainly Clear"
"1957-12-23 01:00","1957","12","23","01:00","2.2","","0.6","","89","","18","","14","","19.3","","100.19","","","","","","Clear"
"1957-12-23 02:00","1957","12","23","02:00","3.9","","0.0","","76","","18","","14","","16.1","","100.14","","","","","","Mainly Clear"
"1957-12-23 03:00","1957","12","23","03:00","3.9","","0.0","","76","","18","","13","","16.1","","100.13","","","","","","Mostly Cloudy"
"1957-12-23 04:00","1957","12","23","04:00","3.3","","-0.6","","76","","18","","18","","19.3","","100.05","","","","","","Mostly Cloudy"
"1957-12-23 05:00","1957","12","23","05:00","3.9","","0.0","","76","","18","","19","","19.3","","100.01","","","","","","Mostly Cloudy"
"1957-12-23 06:00","1957","12","23","06:00","3.9","","-0.6","","76","","18","","19","","19.3","","99.97","","","","","","Mostly Cloudy"
"1957-12-23 07:00","1957","12","23","07:00","3.3","","0.6","","82","","18","","8","","19.3","","99.97","","","","","","Mostly Cloudy"
"1957-12-23 08:00","1957","12","23","08:00","5.0","","0.6","","73","","23","","26","","19.3","","99.92","","","","","","Mostly Cloudy"
"1957-12-23 09:00","1957","12","23","09:00","7.8","","-1.7","","51","","23","","35","","19.3","","99.85","","","","","","Mostly Cloudy"
"1957-12-23 10:00","1957","12","23","10:00","7.8","","0.6","","60","","23","","35","","16.1","","99.88","","","","","","Mostly Cloudy"
"1957-12-23 11:00","1957","12","23","11:00","10.0","","1.7","","56","","23","","35","","16.1","","99.86","","","","","","Mostly Cloudy"
"1957-12-23 12:00","1957","12","23","12:00","11.1","","2.8","","56","","23","","39","","19.3","","99.80","","","","","","Mostly Cloudy"
"1957-12-23 13:00","1957","12","23","13:00","11.7","","2.8","","54","","23","","45","","19.3","","99.75","","","","","","Mostly Cloudy"
"1957-12-23 14:00","1957","12","23","14:00","11.7","","2.8","","54","","23","","35","","19.3","","99.77","","","","","","Mostly Cloudy"
"1957-12-23 15:00","1957","12","23","15:00","11.1","","2.8","","56","","23","","40","","19.3","","99.71","","","","","","Mostly Cloudy"
"1957-12-23 16:00","1957","12","23","16:00","10.6","","2.8","","59","","23","","39","","16.1","","99.68","","","","","","Mostly Cloudy"
"1957-12-23 17:00","1957","12","23","17:00","10.0","","4.4","","68","","23","","40","","16.1","","99.72","","","","","","Cloudy"
"1957-12-23 18:00","1957","12","23","18:00","10.6","","3.3","","61","","23","","43","","24.1","","99.74","","","","","","Cloudy"
"1957-12-23 19:00","1957","12","23","19:00","11.7","","3.3","","57","","23","","55","","24.1","","99.72","","","","","","Rain Showers"
"1957-12-23 20:00","1957","12","23","20:00","10.0","","6.7","","80","","23","","56","","24.1","","99.72","","","","","","Rain Showers"
"1957-12-23 21:00","1957","12","23","21:00","9.4","","6.7","","83","","23","","39","","19.3","","99.68","","","","","","Mostly Cloudy"
"1957-12-23 22:00","1957","12","23","22:00","8.9","","5.6","","80","","23","","32","","19.3","","99.73","","","","","","Mostly Cloudy"
"1957-12-23 23:00","1957","12","23","23:00","9.4","","5.6","","77","","23","","40","","19.3","","99.76","","","","","","Mainly Clear"
"1957-12-24 00:00","1957","12","24","00:00","9.4","","5.6","","77","","27","","32","","19.3","","99.85","","","","","","Mostly Cloudy"
"1957-12-24 01:00","1957","12","24","01:00","6.1","","-1.1","","60","","27","","32","","25.0","","99.86","","","","","","Mainly Clear"
"1957-12-24 02:00","1957","12","24","02:00","5.0","","-1.1","","65","","27","","32","","25.0","","99.91","","","","","","Clear"
"1957-12-24 03:00","1957","12","24","03:00","4.4","","-2.2","","62","","27","","40","","25.0","","99.98","","","","","","Clear"
"1957-12-24 04:00","1957","12","24","04:00","3.3","","-1.7","","70","","27","","39","","25.0","","100.00","","","","","","Clear"
"1957-12-24 05:00","1957","12","24","05:00","2.2","","-2.2","","72","","27","","40","","25.0","","100.05","","","","","","Clear"
"1957-12-24 06:00","1957","12","24","06:00","1.7","","-4.4","","64","","27","","45","","25.0","","100.16","","","","","","Mainly Clear"
"1957-12-24 07:00","1957","12","24","07:00","1.7","","-2.8","","72","","27","","40","","25.0","","100.26","","","","","","Mainly Clear"
"1957-12-24 08:00","1957","12","24","08:00","1.7","","-2.8","","72","","32","","29","","25.0","","100.49","","","","","","Mostly Cloudy"
"1957-12-24 09:00","1957","12","24","09:00","1.7","","-2.8","","72","","29","","24","","25.0","","100.58","","","","","","Mostly Cloudy"
"1957-12-24 10:00","1957","12","24","10:00","2.2","","-3.3","","67","","29","","40","","25.0","","100.68","","","","","","Mostly Cloudy"
"1957-12-24 11:00","1957","12","24","11:00","1.7","","-5.6","","59","","29","","42","","25.0","","100.76","","","","","","Mainly Clear"
"1957-12-24 12:00","1957","12","24","12:00","1.1","","-4.4","","66","","29","","48","","25.0","","100.78","","","","","","Mostly Cloudy"
"1957-12-24 13:00","1957","12","24","13:00","1.1","","-4.4","","66","","29","","48","","25.0","","100.81","","","","","","Mostly Cloudy"
"1957-12-24 14:00","1957","12","24","14:00","1.1","","-4.4","","66","","29","","40","","25.0","","100.83","","","","","","Mostly Cloudy"
"1957-12-24 15:00","1957","12","24","15:00","2.2","","-3.9","","64","","29","","40","","25.0","","100.89","","","","","","Mainly Clear"
"1957-12-24 16:00","1957","12","24","16:00","1.7","","-2.8","","72","","29","","32","","25.0","","101.10","","","","","","Mainly Clear"
"1957-12-24 17:00","1957","12","24","17:00","0.0","","-3.3","","78","","32","","19","","25.0","","101.13","","","","-5","","Mainly Clear"
"1957-12-24 18:00","1957","12","24","18:00","-0.6","","-6.1","","66","","29","","23","","25.0","","101.21","","","","-6","","Mainly Clear"
"1957-12-24 19:00","1957","12","24","19:00","-1.1","","-7.2","","63","","29","","13","","25.0","","101.25","","","","-5","","Clear"
"1957-12-24 20:00","1957","12","24","20:00","-1.7","","-6.1","","72","","29","","13","","25.0","","101.32","","","","-6","","Clear"
"1957-12-24 21:00","1957","12","24","21:00","-3.3","","-6.1","","81","","27","","13","","25.0","","101.31","","","","-8","","Clear"
"1957-12-24 22:00","1957","12","24","22:00","-3.3","","-6.1","","81","","27","","13","","25.0","","101.35","","","","-8","","Clear"
"1957-12-24 23:00","1957","12","24","23:00","-3.3","","-5.6","","85","","27","","10","","25.0","","101.37","","","","-7","","Clear"
"1957-12-25 00:00","1957","12","25","00:00","-3.3","","-5.6","","85","","25","","6","","25.0","","101.32","","","","-6","","Clear"
"1957-12-25 01:00","1957","12","25","01:00","-4.4","","-5.6","","92","","20","","6","","25.0","","101.32","","","","-7","","Clear"
"1957-12-25 02:00","1957","12","25","02:00","-5.0","","-6.1","","92","","25","","6","","25.0","","101.34","","","","-8","","Clear"
"1957-12-25 03:00","1957","12","25","03:00","-5.0","","-6.1","","92","","14","","5","","25.0","","101.37","","","","-7","","Clear"
"1957-12-25 04:00","1957","12","25","04:00","-5.0","","-6.1","","92","","29","","6","","25.0","","101.29","","","","-8","","Clear"
"1957-12-25 05:00","1957","12","25","05:00","-5.0","","-6.7","","92","","36","","5","","25.0","","101.27","","","","-7","","Clear"
"1957-12-25 06:00","1957","12","25","06:00","-6.1","","-6.7","","96","","36","","6","","25.0","","101.24","","","","-9","","Clear"
"1957-12-25 07:00","1957","12","25","07:00","-5.0","","-7.8","","81","","36","","6","","25.0","","101.24","","","","-8","","Clear"
"1957-12-25 08:00","1957","12","25","08:00","-6.1","","-6.7","","96","","5","","10","","16.1","","101.12","","","","-11","","Mostly Cloudy"
"1957-12-25 09:00","1957","12","25","09:00","-3.9","","-3.9","","96","","9","","10","","16.1","","101.03","","","","-8","","Mostly Cloudy"
"1957-12-25 10:00","1957","12","25","10:00","0.0","","-3.9","","75","","14","","35","","19.3","","101.01","","","","-7","","Mostly Cloudy"
"1957-12-25 11:00","1957","12","25","11:00","0.0","","-2.8","","82","","14","","19","","19.3","","101.03","","","","-5","","Mainly Clear"
"1957-12-25 12:00","1957","12","25","12:00","0.6","","-3.9","","72","","11","","29","","24.1","","100.86","","","","","","Mainly Clear"
"1957-12-25 13:00","1957","12","25","13:00","1.7","","-1.7","","78","","11","","29","","24.1","","100.56","","","","","","Mostly Cloudy"
"1957-12-25 14:00","1957","12","25","14:00","1.1","","-0.6","","89","","11","","29","","24.1","","100.39","","","","","","Mostly Cloudy"
"1957-12-25 15:00","1957","12","25","15:00","1.1","","0.0","","92","","11","","23","","24.1","","100.18","","","","","","Mostly Cloudy"
"1957-12-25 16:00","1957","12","25","16:00","1.7","","0.6","","92","","11","","32","","24.1","","99.97","","","","","","Mostly Cloudy"
"1957-12-25 17:00","1957","12","25","17:00","2.2","","-3.9","","64","","11","","29","","24.1","","99.87","","","","","","Cloudy"
"1957-12-25 18:00","1957","12","25","18:00","2.8","","-4.4","","59","","11","","29","","24.1","","99.71","","","","","","Cloudy"
"1957-12-25 19:00","1957","12","25","19:00","3.3","","-3.3","","62","","14","","39","","24.1","","99.59","","","","","","Rain"
"1957-12-25 20:00","1957","12","25","20:00","2.2","","-0.6","","82","","14","","24","","19.3","","99.44","","","","","","Rain"
"1957-12-25 21:00","1957","12","25","21:00","2.2","","0.0","","89","","14","","26","","19.3","","99.28","","","","","","Rain"
"1957-12-25 22:00","1957","12","25","22:00","2.2","","0.0","","89","","14","","26","","19.3","","99.04","","","","","","Rain"
"1957-12-25 23:00","1957","12","25","23:00","2.8","","1.7","","92","","14","","24","","19.3","","98.88","","","","","","Rain"
"1957-12-26 00:00","1957","12","26","00:00","2.8","","1.1","","89","","16","","24","","11.3","","98.68","","","","","","Rain"
"1957-12-26 01:00","1957","12","26","01:00","3.3","","2.2","","96","","16","","23","","11.3","","98.68","","","","","","Rain"
"1957-12-26 02:00","1957","12","26","02:00","3.9","","3.3","","96","","18","","27","","12.9","","98.49","","","","","","Rain"
"1957-12-26 03:00","1957","12","26","03:00","4.4","","3.3","","93","","18","","29","","9.7","","98.39","","","","","","Rain"
"1957-12-26 04:00","1957","12","26","04:00","4.4","","3.9","","96","","18","","29","","12.9","","98.29","","","","","","Rain"
"1957-12-26 05:00","1957","12","26","05:00","5.0","","3.9","","93","","18","","27","","12.9","","98.20","","","","","","Rain"
"1957-12-26 06:00","1957","12","26","06:00","5.0","","3.9","","93","","18","","26","","16.1","","98.11","","","","","","Rain"
"1957-12-26 07:00","1957","12","26","07:00","5.0","","4.4","","96","","18","","29","","16.1","","98.12","","","","","","Drizzle"
"1957-12-26 08:00","1957","12","26","08:00","5.0","","4.4","","96","","18","","13","","12.9","","98.08","","","","","","Cloudy"
"1957-12-26 09:00","1957","12","26","09:00","5.0","","3.9","","93","","20","","13","","12.9","","98.03","","","","","","Cloudy"
"1957-12-26 10:00","1957","12","26","10:00","4.4","","2.8","","89","","32","","16","","12.9","","98.11","","","","","","Cloudy"
"1957-12-26 11:00","1957","12","26","11:00","3.9","","2.2","","89","","32","","24","","11.3","","98.10","","","","","","Rain"
"1957-12-26 12:00","1957","12","26","12:00","3.9","","1.1","","82","","32","","23","","11.3","","98.11","","","","","","Cloudy"
"1957-12-26 13:00","1957","12","26","13:00","3.3","","0.6","","82","","32","","26","","11.3","","98.07","","","","","","Cloudy"
"1957-12-26 14:00","1957","12","26","14:00","2.8","","-0.6","","79","","32","","23","","12.9","","98.06","","","","","","Cloudy"
"1957-12-26 15:00","1957","12","26","15:00","2.2","","-0.6","","82","","32","","23","","12.9","","98.14","","","","","","Cloudy"
"1957-12-26 16:00","1957","12","26","16:00","2.2","","-1.1","","78","","29","","23","","16.1","","98.25","","","","","","Cloudy"
"1957-12-26 17:00","1957","12","26","17:00","2.2","","-2.2","","72","","29","","24","","24.1","","98.27","","","","","","Mostly Cloudy"
"1957-12-26 18:00","1957","12","26","18:00","2.2","","-1.1","","78","","27","","29","","25.0","","98.38","","","","","","Mostly Cloudy"
"1957-12-26 19:00","1957","12","26","19:00","2.2","","-1.1","","78","","27","","27","","25.0","","98.45","","","","","","Mostly Cloudy"
"1957-12-26 20:00","1957","12","26","20:00","2.2","","-0.6","","82","","27","","24","","25.0","","98.53","","","","","","Cloudy"
"1957-12-26 21:00","1957","12","26","21:00","2.2","","-0.6","","82","","27","","32","","24.1","","98.54","","","","","","Snow Showers"
"1957-12-26 22:00","1957","12","26","22:00","2.2","","-1.1","","78","","27","","32","","16.1","","98.60","","","","","","Snow Showers"
"1957-12-26 23:00","1957","12","26","23:00","1.1","","-1.7","","82","","32","","39","","24.1","","98.74","","","","","","Snow Showers"
"1957-12-27 00:00","1957","12","27","00:00","0.0","","-4.4","","72","","29","","29","","25.0","","98.87","","","","-6","","Mostly Cloudy"
"1957-12-27 01:00","1957","12","27","01:00","0.0","","-3.9","","75","","29","","32","","24.1","","98.92","","","","-7","","Snow Showers"
"1957-12-27 02:00","1957","12","27","02:00","0.0","","-2.2","","85","","29","","29","","24.1","","99.06","","","","-6","","Snow Showers"
"1957-12-27 03:00","1957","12","27","03:00","0.0","","-2.2","","85","","29","","29","","25.0","","99.17","","","","-6","","Cloudy"
"1957-12-27 04:00","1957","12","27","04:00","0.0","","-0.6","","96","","32","","23","","25.0","","99.27","","","","-6","","Cloudy"
"1957-12-27 05:00","1957","12","27","05:00","0.0","","-1.1","","92","","29","","13","","25.0","","99.39","","","","-4","","Cloudy"
"1957-12-27 06:00","1957","12","27","06:00","0.6","","-5.0","","66","","29","","24","","25.0","","99.50","","","","","","Cloudy"
"1957-12-27 07:00","1957","12","27","07:00","0.0","","-5.0","","69","","29","","24","","25.0","","99.58","","","","-6","","Cloudy"
"1957-12-27 08:00","1957","12","27","08:00","0.0","","-5.0","","69","","29","","29","","25.0","","99.69","","","","-6","","Cloudy"
"1957-12-27 09:00","1957","12","27","09:00","-0.6","","-2.2","","88","","29","","27","","25.0","","99.81","","","","-7","","Mostly Cloudy"
"1957-12-27 10:00","1957","12","27","10:00","0.0","","-3.3","","78","","29","","21","","25.0","","99.88","","","","-5","","Mostly Cloudy"
"1957-12-27 11:00","1957","12","27","11:00","1.1","","-6.1","","59","","27","","21","","25.0","","99.91","","","","","","Mainly Clear"
"1957-12-27 12:00","1957","12","27","12:00","1.1","","-6.1","","59","","27","","19","","25.0","","99.84","","","","","","Mainly Clear"
"1957-12-27 13:00","1957","12","27","13:00","1.7","","-6.1","","56","","25","","16","","25.0","","99.81","","","","","","Mainly Clear"
"1957-12-27 14:00","1957","12","27","14:00","2.8","","-1.7","","72","","27","","16","","25.0","","99.72","","","","","","Mainly Clear"
"1957-12-27 15:00","1957","12","27","15:00","3.3","","-2.8","","64","","23","","14","","25.0","","99.68","","","","","","Mainly Clear"
"1957-12-27 16:00","1957","12","27","16:00","3.9","","-5.0","","52","","18","","11","","25.0","","99.67","","","","","","Mostly Cloudy"
"1957-12-27 17:00","1957","12","27","17:00","1.7","","-3.9","","67","","18","","13","","25.0","","99.72","","","","","","Mostly Cloudy"
"1957-12-27 18:00","1957","12","27","18:00","0.6","","-2.8","","78","","18","","14","","25.0","","99.69","","","","","","Mainly Clear"
"1957-12-27 19:00","1957","12","27","19:00","0.0","","-2.8","","82","","18","","10","","25.0","","99.63","","","","-3","","Mainly Clear"
"1957-12-27 20:00","1957","12","27","20:00","0.0","","-2.8","","82","","20","","10","","25.0","","99.68","","","","-3","","Mainly Clear"
"1957-12-27 21:00","1957","12","27","21:00","-0.6","","-2.8","","85","","16","","3","","25.0","","99.60","","","","-2","","Mostly Cloudy"
"1957-12-27 22:00","1957","12","27","22:00","-0.6","","-3.3","","81","","","","0","","25.0","","99.55","","","","","","Mainly Clear"
"1957-12-27 23:00","1957","12","27","23:00","0.0","","-2.8","","82","","11","","14","","24.1","","99.41","","","","-4","","Mainly Clear"
"1957-12-28 00:00","1957","12","28","00:00","0.6","","-1.7","","85","","14","","16","","24.1","","99.28","","","","","","Mostly Cloudy"
"1957-12-28 01:00","1957","12","28","01:00","1.1","","-1.1","","85","","16","","16","","24.1","","99.21","","","","","","Mostly Cloudy"
"1957-12-28 02:00","1957","12","28","02:00","1.1","","-1.1","","85","","11","","19","","11.3","","99.01","","","","","","Mostly Cloudy"
"1957-12-28 03:00","1957","12","28","03:00","1.1","","-1.7","","82","","11","","19","","12.9","","98.90","","","","","","Mostly Cloudy"
"1957-12-28 04:00","1957","12","28","04:00","1.7","","-1.7","","78","","11","","10","","12.9","","98.87","","","","","","Mostly Cloudy"
"1957-12-28 05:00","1957","12","28","05:00","1.7","","-1.7","","78","","11","","19","","12.9","","98.61","","","","","","Mostly Cloudy"
"1957-12-28 06:00","1957","12","28","06:00","1.7","","-1.7","","78","","11","","23","","16.1","","98.53","","","","","","Mostly Cloudy"
"1957-12-28 07:00","1957","12","28","07:00","1.7","","-1.7","","78","","14","","23","","16.1","","98.52","","","","","","Mostly Cloudy"
"1957-12-28 08:00","1957","12","28","08:00","1.1","","-1.7","","82","","14","","16","","16.1","","98.37","","","","","","Mostly Cloudy"
"1957-12-28 09:00","1957","12","28","09:00","2.2","","-1.1","","78","","16","","16","","8.0","","98.40","","","","","","Haze"
"1957-12-28 10:00","1957","12","28","10:00","3.9","","-1.7","","67","","18","","24","","4.8","","98.41","","","","","","Rain Showers,Haze"
"1957-12-28 11:00","1957","12","28","11:00","3.3","","0.6","","82","","23","","27","","6.4","","98.38","","","","","","Haze"
"1957-12-28 12:00","1957","12","28","12:00","3.9","","1.1","","82","","23","","24","","8.0","","98.33","","","","","","Haze"
"1957-12-28 13:00","1957","12","28","13:00","3.9","","2.2","","89","","23","","24","","8.0","","98.30","","","","","","Drizzle,Fog"
"1957-12-28 14:00","1957","12","28","14:00","3.9","","2.8","","92","","23","","19","","6.4","","98.26","","","","","","Drizzle,Fog"
"1957-12-28 15:00","1957","12","28","15:00","3.9","","2.8","","92","","23","","21","","6.4","","98.30","","","","","","Drizzle,Fog"
"1957-12-28 16:00","1957","12","28","16:00","3.9","","2.8","","92","","23","","18","","2.8","","98.36","","","","","","Drizzle,Fog"
"1957-12-28 17:00","1957","12","28","17:00","3.3","","2.8","","96","","23","","16","","4.8","","98.40","","","","","","Drizzle,Fog"
"1957-12-28 18:00","1957","12","28","18:00","3.9","","0.6","","79","","25","","23","","16.1","","98.45","","","","","","Cloudy"
"1957-12-28 19:00","1957","12","28","19:00","3.3","","0.6","","82","","27","","29","","16.1","","98.51","","","","","","Cloudy"
"1957-12-28 20:00","1957","12","28","20:00","2.8","","0.6","","85","","27","","27","","24.1","","98.55","","","","","","Drizzle"
"1957-12-28 21:00","1957","12","28","21:00","2.2","","0.0","","85","","25","","24","","24.1","","98.61","","","","","","Mostly Cloudy"
"1957-12-28 22:00","1957","12","28","22:00","1.1","","-0.6","","89","","25","","23","","25.0","","98.70","","","","","","Mostly Cloudy"
"1957-12-28 23:00","1957","12","28","23:00","1.1","","-1.1","","85","","25","","23","","25.0","","98.75","","","","","","Mainly Clear"
"1957-12-29 00:00","1957","12","29","00:00","1.7","","-1.7","","78","","27","","21","","25.0","","98.82","","","","","","Mostly Cloudy"
"1957-12-29 01:00","1957","12","29","01:00","1.1","","-1.7","","82","","25","","24","","25.0","","98.82","","","","","","Cloudy"
"1957-12-29 02:00","1957","12","29","02:00","0.6","","-2.2","","82","","27","","37","","25.0","","98.92","","","","","","Cloudy"
"1957-12-29 03:00","1957","12","29","03:00","-0.6","","-2.8","","85","","27","","29","","25.0","","99.03","","","","-7","","Mostly Cloudy"
"1957-12-29 04:00","1957","12","29","04:00","-0.6","","-4.4","","75","","27","","43","","25.0","","99.09","","","","-8","","Cloudy"
"1957-12-29 05:00","1957","12","29","05:00","-2.2","","-6.1","","75","","27","","35","","25.0","","99.11","","","","-10","","Mainly Clear"
"1957-12-29 06:00","1957","12","29","06:00"
"1957-12-29 07:00","1957","12","29","07:00","-2.8","","-6.7","","75","","29","","26","","25.0","","99.25","","","","-10","","Mostly Cloudy"
"1957-12-29 08:00","1957","12","29","08:00","-2.2","","-5.6","","78","","20","","16","","25.0","","99.28","","","","-7","","Mostly Cloudy"
"1957-12-29 09:00","1957","12","29","09:00","-2.2","","-5.6","","78","","20","","27","","25.0","","99.30","","","","-9","","Mostly Cloudy"
"1957-12-29 10:00","1957","12","29","10:00","-1.7","","-5.0","","78","","20","","23","","24.1","","99.32","","","","-8","","Mostly Cloudy"
"1957-12-29 11:00","1957","12","29","11:00","0.6","","-3.3","","75","","23","","26","","19.3","","99.33","","","","","","Mainly Clear"
"1957-12-29 12:00","1957","12","29","12:00","1.1","","-2.2","","78","","25","","39","","19.3","","99.26","","","","","","Mainly Clear"
"1957-12-29 13:00","1957","12","29","13:00","1.7","","-3.3","","69","","25","","37","","19.3","","99.25","","","","","","Mostly Cloudy"
"1957-12-29 14:00","1957","12","29","14:00","1.1","","-3.3","","72","","25","","32","","19.3","","99.28","","","","","","Mostly Cloudy"
"1957-12-29 15:00","1957","12","29","15:00","0.0","","-3.3","","78","","29","","29","","12.9","","99.37","","","","-6","","Mostly Cloudy"
"1957-12-29 16:00","1957","12","29","16:00","0.0","","-3.3","","78","","27","","35","","12.9","","99.45","","","","-7","","Mostly Cloudy"
"1957-12-29 17:00","1957","12","29","17:00","-1.1","","-4.4","","78","","27","","26","","19.3","","99.52","","","","-7","","Mostly Cloudy"
"1957-12-29 18:00","1957","12","29","18:00","-1.7","","-3.9","","85","","32","","16","","25.0","","99.59","","","","-7","","Mostly Cloudy"
"1957-12-29 19:00","1957","12","29","19:00","-1.7","","-5.6","","75","","32","","13","","25.0","","99.68","","","","-6","","Mostly Cloudy"
"1957-12-29 20:00","1957","12","29","20:00","-2.8","","-6.7","","75","","34","","11","","25.0","","99.77","","","","-7","","Mostly Cloudy"
"1957-12-29 21:00","1957","12","29","21:00","-3.3","","-6.1","","81","","32","","14","","25.0","","99.86","","","","-8","","Mainly Clear"
"1957-12-29 22:00","1957","12","29","22:00","-3.9","","-7.2","","78","","32","","10","","25.0","","99.86","","","","-8","","Mainly Clear"
"1957-12-29 23:00","1957","12","29","23:00","-3.3","","-7.2","","74","","32","","8","","25.0","","99.87","","","","-7","","Mostly Cloudy"
"1957-12-30 00:00","1957","12","30","00:00","-3.3","","-7.2","","74","","34","","13","","25.0","","99.84","","","","-8","","Mostly Cloudy"
"1957-12-30 01:00","1957","12","30","01:00","-3.9","","-7.2","","78","","36","","6","","25.0","","99.82","","","","-7","","Mainly Clear"
"1957-12-30 02:00","1957","12","30","02:00","-2.8","","-5.0","","85","","23","","6","","25.0","","99.84","","","","-5","","Mainly Clear"
"1957-12-30 03:00","1957","12","30","03:00","-2.8","","-2.8","","96","","18","","10","","25.0","","99.88","","","","-7","","Mainly Clear"
"1957-12-30 04:00","1957","12","30","04:00","-3.3","","-5.6","","88","","18","","10","","25.0","","99.96","","","","-7","","Mainly Clear"
"1957-12-30 05:00","1957","12","30","05:00","-2.8","","-6.7","","75","","20","","6","","25.0","","99.97","","","","-5","","Mostly Cloudy"
"1957-12-30 06:00","1957","12","30","06:00","-2.2","","-6.1","","75","","23","","5","","19.3","","99.99","","","","-4","","Cloudy"
"1957-12-30 07:00","1957","12","30","07:00","-2.2","","-6.1","","75","","23","","8","","16.1","","100.06","","","","-5","","Snow"
"1957-12-30 08:00","1957","12","30","08:00","-2.8","","-6.7","","75","","16","","6","","4.8","","100.08","","","","-5","","Snow"
"1957-12-30 09:00","1957","12","30","09:00","-2.8","","-5.6","","81","","5","","6","","1.6","","100.17","","","","-5","","Snow"
"1957-12-30 10:00","1957","12","30","10:00","-2.8","","-3.9","","92","","5","","6","","1.6","","100.19","","","","-5","","Snow"
"1957-12-30 11:00","1957","12","30","11:00","-2.2","","-3.3","","92","","","","0","","2.0","","100.19","","","","","","Snow"
"1957-12-30 12:00","1957","12","30","12:00","-1.7","","-2.8","","92","","","","0","","2.0","","100.14","","","","","","Snow,Fog,Smoke"
"1957-12-30 13:00","1957","12","30","13:00","-0.6","","-1.7","","92","","20","","8","","3.2","","100.10","","","","-3","","Fog,Smoke"
"1957-12-30 14:00","1957","12","30","14:00","0.0","","-1.7","","88","","25","","6","","4.8","","100.07","","","","-2","","Fog,Smoke"
"1957-12-30 15:00","1957","12","30","15:00","1.1","","-1.1","","85","","5","","6","","8.0","","100.06","","","","","","Fog"
"1957-12-30 16:00","1957","12","30","16:00","0.6","","-1.1","","88","","9","","5","","6.4","","100.09","","","","","","Fog"
"1957-12-30 17:00","1957","12","30","17:00","0.0","","-1.7","","88","","7","","5","","4.0","","100.10","","","","-2","","Fog"
"1957-12-30 18:00","1957","12","30","18:00","0.6","","-1.1","","88","","5","","3","","6.4","","100.15","","","","","","Fog"
"1957-12-30 19:00","1957","12","30","19:00","0.0","","-1.7","","88","","5","","6","","4.8","","100.19","","","","-2","","Fog"
"1957-12-30 20:00","1957","12","30","20:00","0.0","","-1.1","","92","","5","","6","","4.8","","100.20","","","","-2","","Fog"
"1957-12-30 21:00","1957","12","30","21:00","0.0","","-2.8","","82","","34","","5","","4.8","","100.20","","","","-2","","Fog"
"1957-12-30 22:00","1957","12","30","22:00","-0.6","","-1.1","","96","","2","","6","","4.8","","100.16","","","","-3","","Fog"
"1957-12-30 23:00","1957","12","30","23:00","-0.6","","-1.1","","96","","2","","5","","4.8","","100.14","","","","-2","","Fog"
"1957-12-31 00:00","1957","12","31","00:00","-0.6","","-1.1","","96","","2","","6","","2.4","","100.12","","","","-3","","Fog"
"1957-12-31 01:00","1957","12","31","01:00","-0.6","","-1.1","","96","","36","","8","","1.6","","100.11","","","","-3","","Fog"
"1957-12-31 02:00","1957","12","31","02:00","-0.6","","-0.6","","100","","36","","6","","0.2","","100.12","","","","-3","","Fog"
"1957-12-31 03:00","1957","12","31","03:00","-0.6","","-0.6","","100","","34","","6","","0.0","","100.17","","","","-3","","Fog"
"1957-12-31 04:00","1957","12","31","04:00","-0.6","","-1.1","","96","","34","","3","","0.0","","100.22","","","","-2","","Fog"
"1957-12-31 05:00","1957","12","31","05:00","-1.1","","-1.1","","100","","2","","11","","0.2","","100.23","","","","-5","","Fog"
"1957-12-31 06:00","1957","12","31","06:00","-2.2","","-2.2","","100","","2","","10","","3.2","","100.25","","","","-6","","Fog"
"1957-12-31 07:00","1957","12","31","07:00","-2.2","","-2.8","","96","","2","","8","","4.8","","100.22","","","","-5","","Fog"
"1957-12-31 08:00","1957","12","31","08:00","-2.2","","-2.8","","96","","2","","13","","4.0","","100.22","","","","-7","","Fog"
"1957-12-31 09:00","1957","12","31","09:00","-2.2","","-2.8","","96","","2","","13","","4.0","","100.22","","","","-7","","Fog"
"1957-12-31 10:00","1957","12","31","10:00","-1.1","","-1.7","","90","","5","","13","","4.0","","100.17","","","","-5","","Fog"
"1957-12-31 11:00","1957","12","31","11:00","-0.6","","-1.1","","96","","7","","16","","6.4","","100.11","","","","-5","","Fog"
"1957-12-31 12:00","1957","12","31","12:00","-0.6","","-1.1","","96","","7","","18","","6.4","","99.98","","","","-6","","Fog"
"1957-12-31 13:00","1957","12","31","13:00","0.0","","-1.1","","92","","7","","16","","4.8","","99.83","","","","-5","","Fog"
"1957-12-31 14:00","1957","12","31","14:00","0.0","","-0.6","","96","","7","","11","","4.8","","99.74","","","","-4","","Snow,Fog"
"1957-12-31 15:00","1957","12","31","15:00","0.0","","-0.6","","96","","7","","23","","1.6","","99.55","","","","-6","","Snow,Fog"
"1957-12-31 16:00","1957","12","31","16:00","0.6","","0.0","","96","","9","","21","","1.2","","99.42","","","","","","Snow,Fog"
"1957-12-31 17:00","1957","12","31","17:00","1.1","","0.6","","96","","11","","23","","1.2","","99.31","","","","","","Rain,Fog"
"1957-12-31 18:00","1957","12","31","18:00","0.6","","0.6","","100","","11","","18","","1.6","","99.16","","","","","","Snow,Fog"
"1957-12-31 19:00","1957","12","31","19:00","1.1","","1.1","","100","","11","","19","","4.8","","99.06","","","","","","Snow,Fog"
"1957-12-31 20:00","1957","12","31","20:00","1.7","","0.6","","92","","11","","23","","11.3","","98.90","","","","","","Cloudy"
"1957-12-31 21:00","1957","12","31","21:00","2.8","","0.0","","82","","16","","26","","16.1","","98.72","","","","","","Rain"
"1957-12-31 22:00","1957","12","31","22:00","3.3","","0.0","","79","","14","","26","","11.3","","98.59","","","","","","Rain"
"1957-12-31 23:00","1957","12","31","23:00","2.2","","1.1","","92","","16","","21","","8.0","","98.48","","","","","","Rain"
