"Station Name","TORONTO LESTER B. PEARSON INT'L A"
"Province","ONTARIO"
"Latitude","43.68"
"Longitude","-79.63"
"Elevation","173.40"
"Climate Identifier","6158733"
"WMO Identifier","71624"
"TC Identifier","YYZ"
"All times are specified in Local Standard Time (LST). Add 1 hour to adjust for Daylight Saving Time where and when it is observed."

"Legend"
"E","Estimated"
"M","Missing"
"NA","Not Available"

"Date/Time","Year","Month","Day","Time","Temp (°C)","Temp Flag","Dew Point Temp (°C)","Dew Point Temp Flag","Rel Hum (%)","Rel Hum Flag","Wind Dir (10s deg)","Wind Dir Flag","Wind Spd (km/h)","Wind Spd Flag","Visibility (km)","Visibility Flag","Stn Press (kPa)","Stn Press Flag","Hmdx","Hmdx Flag","Wind Chill","Wind Chill Flag","Weather"
"1969-01-01 00:00","1969","01","01","00:00","-13.3","","-19.4","","61","","25","","29","","25.0","","98.98","","","","-24","","Mainly Clear"
"1969-01-01 01:00","1969","01","01","01:00","-15.0","","-22.2","","55","","27","","16","","25.0","","99.04","","","","-23","","Mainly Clear"
"1969-01-01 02:00","1969","01","01","02:00","-15.6","","-21.1","","62","","25","","29","","25.0","","99.06","","","","-27","","Mainly Clear"
"1969-01-01 03:00","1969","01","01","03:00","-17.2","","-22.2","","65","","25","","32","","25.0","","99.12","","","","-29","","Mainly Clear"
"1969-01-01 04:00","1969","01","01","04:00","-17.8","","-22.8","","66","","25","","37","","25.0","","99.11","","","","-31","","Mainly Clear"
"1969-01-01 05:00","1969","01","01","05:00","-18.9","","-23.3","","69","","25","","31","","19.3","","99.06","","","","-31","","Mostly Cloudy"
"1969-01-01 06:00","1969","01","01","06:00","-18.9","","-22.2","","75","","25","","21","","11.3","","99.04","","","","-29","","Snow Grains"
"1969-01-01 07:00","1969","01","01","07:00","-18.3","","-21.7","","76","","25","","19","","3.2","","99.04","","","","-28","","Snow"
"1969-01-01 08:00","1969","01","01","08:00","-17.8","","-21.7","","71","","27","","29","","12.9","","99.05","","","","-30","","Mainly Clear"
"1969-01-01 09:00","1969","01","01","09:00","-18.3","","-22.8","","68","","25","","24","","40.2","","99.00","","","","-29","","Mainly Clear"
"1969-01-01 10:00","1969","01","01","10:00","-18.3","","-21.7","","76","","23","","29","","40.2","","98.97","","","","-30","","Mainly Clear"
"1969-01-01 11:00","1969","01","01","11:00","-17.8","","-22.2","","69","","23","","35","","40.2","","98.87","","","","-30","","Mostly Cloudy"
"1969-01-01 12:00","1969","01","01","12:00","-17.2","","-20.0","","77","","25","","39","","4.8","","98.71","","","","-30","","Blowing Snow"
"1969-01-01 13:00","1969","01","01","13:00","-18.3","","-22.2","","73","","25","","48","","11.3","","98.62","","","","-33","","Cloudy"
"1969-01-01 14:00","1969","01","01","14:00","-13.3","","-16.1","","80","","25","","39","","4.8","","98.63","","","","-25","","Blowing Snow"
"1969-01-01 15:00","1969","01","01","15:00","-12.2","","-14.4","","85","","25","","27","","1.2","","98.71","","","","-22","","Snow,Blowing Snow"
"1969-01-01 16:00","1969","01","01","16:00","-10.0","","-12.2","","84","","29","","26","","1.6","","98.81","","","","-19","","Snow,Blowing Snow"
"1969-01-01 17:00","1969","01","01","17:00","-11.1","","-13.3","","85","","34","","31","","2.0","","98.93","","","","-21","","Snow,Blowing Snow"
"1969-01-01 18:00","1969","01","01","18:00","-12.2","","-16.1","","73","","32","","31","","24.1","","99.08","","","","-23","","Mainly Clear"
"1969-01-01 19:00","1969","01","01","19:00","-13.9","","-17.8","","72","","29","","19","","25.0","","99.19","","","","-23","","Clear"
"1969-01-01 20:00","1969","01","01","20:00","-15.0","","-17.8","","80","","27","","14","","25.0","","99.29","","","","-23","","Clear"
"1969-01-01 21:00","1969","01","01","21:00","-15.0","","-18.9","","74","","27","","16","","25.0","","99.34","","","","-23","","Clear"
"1969-01-01 22:00","1969","01","01","22:00","-15.0","","-18.9","","72","","27","","19","","25.0","","99.37","","","","-24","","Clear"
"1969-01-01 23:00","1969","01","01","23:00","-15.6","","-18.9","","75","","25","","19","","25.0","","99.41","","","","-25","","Clear"
"1969-01-02 00:00","1969","01","02","00:00","-16.1","","-18.9","","81","","27","","19","","25.0","","99.40","","","","-25","","Clear"
"1969-01-02 01:00","1969","01","02","01:00","-16.7","","-18.9","","83","","27","","19","","24.1","","99.41","","","","-26","","Clear"
"1969-01-02 02:00","1969","01","02","02:00","-16.7","","-20.6","","71","","27","","16","","24.1","","99.47","","","","-25","","Mainly Clear"
"1969-01-02 03:00","1969","01","02","03:00","-16.7","","-18.9","","83","","25","","14","","24.1","","99.54","","","","-25","","Mainly Clear"
"1969-01-02 04:00","1969","01","02","04:00","-13.9","","-17.8","","74","","27","","19","","24.1","","99.55","","","","-23","","Mostly Cloudy"
"1969-01-02 05:00","1969","01","02","05:00","-12.8","","-15.6","","79","","27","","16","","24.1","","99.57","","","","-20","","Mostly Cloudy"
"1969-01-02 06:00","1969","01","02","06:00","-11.7","","-15.0","","76","","27","","19","","24.1","","99.57","","","","-20","","Mostly Cloudy"
"1969-01-02 07:00","1969","01","02","07:00","-11.1","","-13.3","","85","","29","","19","","16.1","","99.59","","","","-19","","Snow"
"1969-01-02 08:00","1969","01","02","08:00","-11.1","","-12.8","","86","","27","","16","","11.3","","99.61","","","","-18","","Snow"
"1969-01-02 09:00","1969","01","02","09:00","-10.6","","-13.9","","76","","27","","14","","8.0","","99.65","","","","-17","","Snow"
"1969-01-02 10:00","1969","01","02","10:00","-10.6","","-13.9","","77","","27","","13","","8.0","","99.68","","","","-17","","Snow"
"1969-01-02 11:00","1969","01","02","11:00","-10.0","","-13.3","","77","","27","","16","","8.0","","99.67","","","","-17","","Snow"
"1969-01-02 12:00","1969","01","02","12:00","-10.0","","-14.4","","71","","27","","18","","6.4","","99.55","","","","-17","","Snow"
"1969-01-02 13:00","1969","01","02","13:00","-9.4","","-13.3","","73","","29","","14","","9.7","","99.48","","","","-16","","Snow"
"1969-01-02 14:00","1969","01","02","14:00","-8.9","","-12.8","","73","","32","","11","","9.7","","99.46","","","","-14","","Snow"
"1969-01-02 15:00","1969","01","02","15:00","-8.9","","-12.2","","76","","29","","11","","6.4","","99.48","","","","-14","","Snow"
"1969-01-02 16:00","1969","01","02","16:00","-9.4","","-13.3","","73","","32","","10","","40.2","","99.47","","","","-15","","Mostly Cloudy"
"1969-01-02 17:00","1969","01","02","17:00","-9.4","","-12.8","","76","","29","","5","","8.0","","99.48","","","","-12","","Snow Showers"
"1969-01-02 18:00","1969","01","02","18:00","-9.4","","-12.2","","79","","29","","2","","9.7","","99.50","","","","-11","","Snow Showers"
"1969-01-02 19:00","1969","01","02","19:00","-10.0","","-11.7","","86","","27","","6","","24.1","","99.49","","","","-14","","Snow Showers"
"1969-01-02 20:00","1969","01","02","20:00","-10.0","","-11.7","","86","","23","","8","","25.0","","99.50","","","","-14","","Cloudy"
"1969-01-02 21:00","1969","01","02","21:00","-7.8","","-11.7","","75","","27","","21","","25.0","","99.46","","","","-15","","Mostly Cloudy"
"1969-01-02 22:00","1969","01","02","22:00","-8.9","","-11.7","","80","","27","","19","","25.0","","99.41","","","","-16","","Mainly Clear"
"1969-01-02 23:00","1969","01","02","23:00","-8.9","","-11.1","","84","","25","","14","","25.0","","99.40","","","","-15","","Cloudy"
"1969-01-03 00:00","1969","01","03","00:00","-7.8","","-10.6","","80","","27","","14","","25.0","","99.36","","","","-14","","Cloudy"
"1969-01-03 01:00","1969","01","03","01:00","-7.8","","-10.0","","83","","27","","8","","24.1","","99.36","","","","-12","","Cloudy"
"1969-01-03 02:00","1969","01","03","02:00","-8.3","","-11.7","","77","","25","","3","","24.1","","99.31","","","","-10","","Mostly Cloudy"
"1969-01-03 03:00","1969","01","03","03:00","-8.9","","-12.2","","77","","25","","10","","24.1","","99.28","","","","-14","","Mostly Cloudy"
"1969-01-03 04:00","1969","01","03","04:00","-8.9","","-12.2","","76","","27","","11","","24.1","","99.20","","","","-14","","Mostly Cloudy"
"1969-01-03 05:00","1969","01","03","05:00","-8.3","","-10.6","","82","","25","","11","","24.1","","99.11","","","","-14","","Cloudy"
"1969-01-03 06:00","1969","01","03","06:00","-8.3","","-11.7","","77","","25","","10","","24.1","","99.02","","","","-13","","Cloudy"
"1969-01-03 07:00","1969","01","03","07:00","-8.3","","-11.7","","77","","25","","13","","24.1","","98.99","","","","-14","","Cloudy"
"1969-01-03 08:00","1969","01","03","08:00","-8.3","","-11.7","","77","","25","","16","","11.3","","98.93","","","","-15","","Cloudy"
"1969-01-03 09:00","1969","01","03","09:00","-8.3","","-10.6","","84","","25","","10","","6.4","","98.89","","","","-13","","Snow"
"1969-01-03 10:00","1969","01","03","10:00","-10.0","","-12.2","","84","","25","","10","","8.0","","98.89","","","","-15","","Haze"
"1969-01-03 11:00","1969","01","03","11:00","-7.8","","-11.1","","78","","27","","8","","8.0","","98.86","","","","-12","","Haze"
"1969-01-03 12:00","1969","01","03","12:00","-6.7","","-10.6","","74","","27","","16","","6.4","","98.75","","","","-13","","Snow"
"1969-01-03 13:00","1969","01","03","13:00","-6.1","","-10.0","","75","","29","","19","","9.7","","98.66","","","","-13","","Haze"
"1969-01-03 14:00","1969","01","03","14:00","-7.2","","-9.4","","83","","36","","13","","3.2","","98.69","","","","-13","","Snow Showers"
"1969-01-03 15:00","1969","01","03","15:00","-6.7","","-9.4","","82","","36","","16","","8.0","","98.77","","","","-13","","Snow Showers"
"1969-01-03 16:00","1969","01","03","16:00","-7.2","","-10.6","","76","","32","","11","","6.4","","98.82","","","","-12","","Snow Showers"
"1969-01-03 17:00","1969","01","03","17:00","-8.9","","-11.7","","80","","27","","5","","24.1","","98.83","","","","-12","","Mainly Clear"
"1969-01-03 18:00","1969","01","03","18:00","-12.2","","-17.2","","68","","27","","11","","25.0","","98.93","","","","-18","","Mainly Clear"
"1969-01-03 19:00","1969","01","03","19:00","-11.7","","-16.7","","67","","25","","11","","25.0","","99.00","","","","-18","","Mainly Clear"
"1969-01-03 20:00","1969","01","03","20:00","-13.3","","-16.7","","76","","25","","11","","25.0","","98.99","","","","-20","","Mainly Clear"
"1969-01-03 21:00","1969","01","03","21:00","-13.3","","-16.1","","80","","25","","19","","25.0","","99.00","","","","-22","","Mainly Clear"
"1969-01-03 22:00","1969","01","03","22:00","-13.3","","-16.1","","78","","25","","13","","25.0","","99.04","","","","-20","","Mainly Clear"
"1969-01-03 23:00","1969","01","03","23:00","-11.7","","-15.0","","77","","27","","13","","25.0","","99.06","","","","-18","","Mainly Clear"
"1969-01-04 00:00","1969","01","04","00:00","-12.2","","-15.0","","80","","23","","14","","25.0","","99.07","","","","-19","","Mainly Clear"
"1969-01-04 01:00","1969","01","04","01:00","-12.2","","-14.4","","82","","25","","16","","24.1","","99.04","","","","-20","","Mainly Clear"
"1969-01-04 02:00","1969","01","04","02:00","-10.6","","-15.0","","71","","25","","19","","24.1","","99.09","","","","-18","","Mainly Clear"
"1969-01-04 03:00","1969","01","04","03:00","-12.2","","-14.4","","83","","23","","13","","24.1","","99.16","","","","-19","","Snow Showers"
"1969-01-04 04:00","1969","01","04","04:00","-11.1","","-12.8","","86","","23","","23","","11.3","","99.17","","","","-20","","Snow Showers"
"1969-01-04 05:00","1969","01","04","05:00","-10.6","","-13.3","","81","","25","","16","","16.1","","99.16","","","","-18","","Snow"
"1969-01-04 06:00","1969","01","04","06:00","-10.0","","-13.9","","72","","25","","23","","19.3","","99.19","","","","-18","","Snow"
"1969-01-04 07:00","1969","01","04","07:00","-11.7","","-15.6","","72","","23","","23","","24.1","","99.23","","","","-21","","Mainly Clear"
"1969-01-04 08:00","1969","01","04","08:00","-13.3","","-15.6","","82","","23","","19","","40.2","","99.29","","","","-22","","Mainly Clear"
"1969-01-04 09:00","1969","01","04","09:00","-12.8","","-15.6","","81","","25","","23","","32.2","","99.38","","","","-22","","Mainly Clear"
"1969-01-04 10:00","1969","01","04","10:00","-11.1","","-14.4","","77","","23","","24","","32.2","","99.41","","","","-20","","Mainly Clear"
"1969-01-04 11:00","1969","01","04","11:00","-10.0","","-13.9","","72","","25","","31","","32.2","","99.43","","","","-20","","Mainly Clear"
"1969-01-04 12:00","1969","01","04","12:00","-10.0","","-13.9","","74","","25","","26","","40.2","","99.43","","","","-19","","Mainly Clear"
"1969-01-04 13:00","1969","01","04","13:00","-10.0","","-14.4","","69","","25","","21","","40.2","","99.42","","","","-18","","Mainly Clear"
"1969-01-04 14:00","1969","01","04","14:00","-10.0","","-13.9","","74","","25","","23","","40.2","","99.43","","","","-18","","Mainly Clear"
"1969-01-04 15:00","1969","01","04","15:00","-10.0","","-14.4","","71","","23","","29","","40.2","","99.43","","","","-19","","Mainly Clear"
"1969-01-04 16:00","1969","01","04","16:00","-10.6","","-15.0","","69","","23","","23","","40.2","","99.50","","","","-19","","Mainly Clear"
"1969-01-04 17:00","1969","01","04","17:00","-11.1","","-15.0","","72","","23","","19","","40.2","","99.56","","","","-19","","Mainly Clear"
"1969-01-04 18:00","1969","01","04","18:00","-12.2","","-17.2","","68","","25","","19","","25.0","","99.62","","","","-20","","Mainly Clear"
"1969-01-04 19:00","1969","01","04","19:00","-12.8","","-17.2","","70","","25","","19","","25.0","","99.65","","","","-21","","Mainly Clear"
"1969-01-04 20:00","1969","01","04","20:00","-12.8","","-16.7","","74","","25","","18","","25.0","","99.66","","","","-21","","Mainly Clear"
"1969-01-04 21:00","1969","01","04","21:00","-13.3","","-16.7","","76","","25","","16","","25.0","","99.65","","","","-21","","Mainly Clear"
"1969-01-04 22:00","1969","01","04","22:00","-13.3","","-16.7","","75","","25","","10","","25.0","","99.66","","","","-19","","Mostly Cloudy"
"1969-01-04 23:00","1969","01","04","23:00","-12.8","","-16.7","","74","","18","","11","","25.0","","99.72","","","","-19","","Mostly Cloudy"
"1969-01-05 00:00","1969","01","05","00:00","-13.3","","-17.2","","73","","23","","14","","25.0","","99.73","","","","-21","","Mostly Cloudy"
"1969-01-05 01:00","1969","01","05","01:00","-13.9","","-16.1","","83","","25","","19","","24.1","","99.72","","","","-23","","Mainly Clear"
"1969-01-05 02:00","1969","01","05","02:00","-14.4","","-16.7","","85","","23","","16","","24.1","","99.74","","","","-22","","Mainly Clear"
"1969-01-05 03:00","1969","01","05","03:00","-13.9","","-17.2","","76","","23","","16","","24.1","","99.80","","","","-22","","Clear"
"1969-01-05 04:00","1969","01","05","04:00","-14.4","","-17.8","","77","","23","","23","","16.1","","99.78","","","","-24","","Mainly Clear"
"1969-01-05 05:00","1969","01","05","05:00","-13.9","","-16.1","","81","","25","","23","","16.1","","99.76","","","","-23","","Mainly Clear"
"1969-01-05 06:00","1969","01","05","06:00","-13.9","","-16.7","","79","","25","","23","","19.3","","99.76","","","","-23","","Mainly Clear"
"1969-01-05 07:00","1969","01","05","07:00","-13.9","","-15.6","","85","","25","","26","","24.1","","99.86","","","","-24","","Mainly Clear"
"1969-01-05 08:00","1969","01","05","08:00","-13.3","","-15.0","","86","","23","","16","","8.0","","99.92","","","","-21","","Snow"
"1969-01-05 09:00","1969","01","05","09:00","-11.7","","-13.9","","84","","23","","16","","9.7","","99.97","","","","-19","","Haze"
"1969-01-05 10:00","1969","01","05","10:00","-12.8","","-17.2","","70","","18","","13","","16.1","","100.06","","","","-20","","Mainly Clear"
"1969-01-05 11:00","1969","01","05","11:00","-11.7","","-16.1","","69","","23","","13","","16.1","","100.03","","","","-18","","Mainly Clear"
"1969-01-05 12:00","1969","01","05","12:00","-10.6","","-15.0","","69","","23","","14","","16.1","","99.93","","","","-17","","Mainly Clear"
"1969-01-05 13:00","1969","01","05","13:00","-10.0","","-15.0","","66","","23","","19","","16.1","","99.83","","","","-18","","Mainly Clear"
"1969-01-05 14:00","1969","01","05","14:00","-9.4","","-15.0","","64","","20","","18","","16.1","","99.83","","","","-17","","Mostly Cloudy"
"1969-01-05 15:00","1969","01","05","15:00","-10.0","","-15.0","","68","","20","","16","","16.1","","99.82","","","","-17","","Mostly Cloudy"
"1969-01-05 16:00","1969","01","05","16:00","-10.6","","-14.4","","74","","20","","13","","16.1","","99.83","","","","-17","","Mostly Cloudy"
"1969-01-05 17:00","1969","01","05","17:00","-10.6","","-15.0","","71","","18","","10","","16.1","","99.78","","","","-16","","Cloudy"
"1969-01-05 18:00","1969","01","05","18:00","-11.1","","-15.0","","72","","18","","8","","24.1","","99.78","","","","-16","","Cloudy"
"1969-01-05 19:00","1969","01","05","19:00","-11.1","","-15.0","","73","","23","","14","","25.0","","99.79","","","","-18","","Cloudy"
"1969-01-05 20:00","1969","01","05","20:00","-11.1","","-14.4","","75","","20","","10","","25.0","","99.76","","","","-17","","Cloudy"
"1969-01-05 21:00","1969","01","05","21:00","-11.1","","-15.0","","73","","18","","8","","25.0","","99.67","","","","-16","","Cloudy"
"1969-01-05 22:00","1969","01","05","22:00","-11.1","","-15.0","","72","","16","","3","","25.0","","99.62","","","","-13","","Cloudy"
"1969-01-05 23:00","1969","01","05","23:00","-11.1","","-15.6","","70","","16","","5","","25.0","","99.51","","","","-14","","Cloudy"
"1969-01-06 00:00","1969","01","06","00:00","-10.0","","-13.9","","72","","16","","6","","25.0","","99.42","","","","-14","","Cloudy"
"1969-01-06 01:00","1969","01","06","01:00","-8.9","","-12.8","","73","","16","","6","","24.1","","99.32","","","","-12","","Cloudy"
"1969-01-06 02:00","1969","01","06","02:00","-8.9","","-12.8","","74","","18","","6","","16.1","","99.25","","","","-12","","Cloudy"
"1969-01-06 03:00","1969","01","06","03:00","-7.2","","-12.2","","68","","16","","6","","11.3","","99.18","","","","-10","","Snow"
"1969-01-06 04:00","1969","01","06","04:00","-6.7","","-11.7","","68","","14","","13","","16.1","","99.07","","","","-12","","Snow"
"1969-01-06 05:00","1969","01","06","05:00","-5.6","","-9.4","","73","","14","","18","","19.3","","98.92","","","","-12","","Cloudy"
"1969-01-06 06:00","1969","01","06","06:00","-5.6","","-10.0","","72","","14","","19","","16.1","","98.82","","","","-12","","Snow"
"1969-01-06 07:00","1969","01","06","07:00","-5.6","","-8.9","","79","","14","","10","","12.9","","98.69","","","","-10","","Snow"
"1969-01-06 08:00","1969","01","06","08:00","-4.4","","-10.0","","65","","14","","23","","11.3","","98.59","","","","-11","","Snow"
"1969-01-06 09:00","1969","01","06","09:00","-3.9","","-11.1","","57","","14","","27","","12.9","","98.45","","","","-11","","Cloudy"
"1969-01-06 10:00","1969","01","06","10:00","-3.3","","-10.6","","58","","16","","29","","9.7","","98.38","","","","-11","","Snow"
"1969-01-06 11:00","1969","01","06","11:00","-3.3","","-6.7","","78","","18","","31","","2.4","","98.29","","","","-11","","Snow"
"1969-01-06 12:00","1969","01","06","12:00","-3.3","","-5.0","","88","","16","","21","","2.0","","98.10","","","","-10","","Snow"
"1969-01-06 13:00","1969","01","06","13:00","-2.2","","-3.3","","90","","18","","26","","1.2","","97.96","","","","-9","","Snow"
"1969-01-06 14:00","1969","01","06","14:00","-2.2","","-3.9","","89","","16","","23","","1.2","","97.86","","","","-8","","Snow"
"1969-01-06 15:00","1969","01","06","15:00","-2.2","","-3.3","","93","","18","","26","","1.2","","97.79","","","","-9","","Snow"
"1969-01-06 16:00","1969","01","06","16:00","-1.7","","-3.3","","90","","16","","21","","1.6","","97.75","","","","-8","","Snow"
"1969-01-06 17:00","1969","01","06","17:00","-1.1","","-2.2","","94","","16","","24","","1.2","","97.66","","","","-7","","Snow"
"1969-01-06 18:00","1969","01","06","18:00","-1.7","","-2.8","","93","","16","","29","","1.6","","97.61","","","","-9","","Snow"
"1969-01-06 19:00","1969","01","06","19:00","-1.7","","-2.2","","94","","16","","27","","2.4","","97.54","","","","-8","","Snow"
"1969-01-06 20:00","1969","01","06","20:00","-1.1","","-2.2","","94","","16","","27","","2.0","","97.45","","","","-8","","Snow"
"1969-01-06 21:00","1969","01","06","21:00","-1.1","","-1.7","","96","","18","","27","","3.2","","97.34","","","","-8","","Snow"
"1969-01-06 22:00","1969","01","06","22:00","-0.6","","-2.2","","91","","18","","29","","6.4","","97.33","","","","-7","","Snow"
"1969-01-06 23:00","1969","01","06","23:00","-1.1","","-2.2","","92","","20","","39","","12.9","","97.38","","","","-9","","Snow"
"1969-01-07 00:00","1969","01","07","00:00","-2.2","","-5.0","","81","","23","","35","","24.1","","97.42","","","","-10","","Cloudy"
"1969-01-07 01:00","1969","01","07","01:00","-3.9","","-6.7","","82","","25","","23","","25.0","","97.41","","","","-11","","Mostly Cloudy"
"1969-01-07 02:00","1969","01","07","02:00","-4.4","","-6.7","","83","","25","","14","","25.0","","97.41","","","","-10","","Mostly Cloudy"
"1969-01-07 03:00","1969","01","07","03:00","-3.9","","-6.7","","80","","25","","16","","25.0","","97.41","","","","-9","","Mostly Cloudy"
"1969-01-07 04:00","1969","01","07","04:00","-3.9","","-6.7","","83","","20","","19","","12.9","","97.41","","","","-10","","Cloudy"
"1969-01-07 05:00","1969","01","07","05:00","-4.4","","-7.2","","82","","20","","14","","16.1","","97.39","","","","-10","","Cloudy"
"1969-01-07 06:00","1969","01","07","06:00","-4.4","","-8.3","","75","","20","","14","","9.7","","97.39","","","","-10","","Snow"
"1969-01-07 07:00","1969","01","07","07:00","-5.6","","-8.3","","82","","18","","13","","16.1","","97.38","","","","-11","","Mainly Clear"
"1969-01-07 08:00","1969","01","07","08:00","-6.7","","-8.3","","89","","20","","13","","16.1","","97.36","","","","-12","","Mainly Clear"
"1969-01-07 09:00","1969","01","07","09:00","-8.3","","-10.0","","87","","20","","10","","6.4","","97.37","","","","-13","","Haze"
"1969-01-07 10:00","1969","01","07","10:00","-6.1","","-8.3","","85","","20","","10","","4.8","","97.37","","","","-11","","Snow,Haze"
"1969-01-07 11:00","1969","01","07","11:00","-6.7","","-9.4","","82","","23","","6","","8.0","","97.38","","","","-10","","Haze"
"1969-01-07 12:00","1969","01","07","12:00","-6.7","","-10.6","","73","","27","","14","","9.7","","97.35","","","","-12","","Snow,Haze"
"1969-01-07 13:00","1969","01","07","13:00","-3.9","","-8.9","","69","","29","","32","","16.1","","97.39","","","","-12","","Mostly Cloudy"
"1969-01-07 14:00","1969","01","07","14:00","-4.4","","-8.3","","74","","29","","37","","6.4","","97.47","","","","-13","","Blowing Snow"
"1969-01-07 15:00","1969","01","07","15:00","-5.0","","-8.9","","74","","29","","35","","16.1","","97.58","","","","-14","","Cloudy"
"1969-01-07 16:00","1969","01","07","16:00","-5.6","","-10.0","","70","","29","","34","","16.1","","97.64","","","","-14","","Cloudy"
"1969-01-07 17:00","1969","01","07","17:00","-6.1","","-10.0","","74","","29","","32","","16.1","","97.75","","","","-15","","Cloudy"
"1969-01-07 18:00","1969","01","07","18:00","-6.7","","-10.6","","73","","29","","48","","24.1","","97.86","","","","-17","","Cloudy"
"1969-01-07 19:00","1969","01","07","19:00","-7.2","","-11.1","","73","","27","","45","","25.0","","97.96","","","","-18","","Cloudy"
"1969-01-07 20:00","1969","01","07","20:00","-7.2","","-11.7","","72","","29","","37","","25.0","","98.04","","","","-17","","Cloudy"
"1969-01-07 21:00","1969","01","07","21:00","-7.2","","-11.7","","72","","29","","35","","25.0","","98.10","","","","-16","","Cloudy"
"1969-01-07 22:00","1969","01","07","22:00","-8.3","","-12.2","","72","","29","","29","","25.0","","98.16","","","","-17","","Mostly Cloudy"
"1969-01-07 23:00","1969","01","07","23:00","-8.9","","-12.8","","74","","29","","39","","25.0","","98.22","","","","-19","","Cloudy"
"1969-01-08 00:00","1969","01","08","00:00","-8.3","","-12.8","","71","","29","","35","","25.0","","98.27","","","","-18","","Cloudy"
"1969-01-08 01:00","1969","01","08","01:00","-9.4","","-13.3","","73","","29","","27","","25.0","","98.30","","","","-18","","Mostly Cloudy"
"1969-01-08 02:00","1969","01","08","02:00","-9.4","","-13.3","","75","","27","","29","","25.0","","98.42","","","","-19","","Mostly Cloudy"
"1969-01-08 03:00","1969","01","08","03:00","-9.4","","-13.3","","75","","29","","26","","25.0","","98.54","","","","-18","","Mostly Cloudy"
"1969-01-08 04:00","1969","01","08","04:00","-10.0","","-13.3","","75","","27","","29","","25.0","","98.63","","","","-19","","Mostly Cloudy"
"1969-01-08 05:00","1969","01","08","05:00","-10.0","","-13.9","","72","","29","","29","","25.0","","98.68","","","","-19","","Mostly Cloudy"
"1969-01-08 06:00","1969","01","08","06:00","-11.1","","-15.0","","73","","29","","19","","25.0","","98.74","","","","-19","","Mainly Clear"
"1969-01-08 07:00","1969","01","08","07:00","-12.2","","-16.1","","73","","27","","18","","25.0","","98.79","","","","-20","","Mainly Clear"
"1969-01-08 08:00","1969","01","08","08:00","-12.8","","-17.2","","70","","27","","10","","32.2","","98.83","","","","-19","","Mainly Clear"
"1969-01-08 09:00","1969","01","08","09:00","-14.4","","-17.8","","75","","27","","8","","32.2","","98.93","","","","-20","","Mainly Clear"
"1969-01-08 10:00","1969","01","08","10:00","-13.9","","-16.7","","79","","34","","8","","32.2","","98.99","","","","-19","","Mainly Clear"
"1969-01-08 11:00","1969","01","08","11:00","-12.8","","-15.0","","83","","36","","8","","32.2","","99.06","","","","-18","","Mainly Clear"
"1969-01-08 12:00","1969","01","08","12:00","-12.2","","-15.0","","78","","34","","5","","32.2","","99.02","","","","-15","","Mainly Clear"
"1969-01-08 13:00","1969","01","08","13:00","-11.7","","-16.1","","71","","36","","8","","32.2","","98.90","","","","-16","","Mostly Cloudy"
"1969-01-08 14:00","1969","01","08","14:00","-10.6","","-15.0","","71","","2","","6","","32.2","","98.92","","","","-14","","Mostly Cloudy"
"1969-01-08 15:00","1969","01","08","15:00","-10.6","","-15.0","","71","","36","","5","","32.2","","98.93","","","","-14","","Mostly Cloudy"
"1969-01-08 16:00","1969","01","08","16:00","-11.1","","-15.0","","72","","36","","5","","32.2","","98.84","","","","-14","","Mostly Cloudy"
"1969-01-08 17:00","1969","01","08","17:00","-12.2","","-15.6","","76","","32","","5","","32.2","","98.82","","","","-15","","Mostly Cloudy"
"1969-01-08 18:00","1969","01","08","18:00","-12.8","","-16.1","","77","","36","","6","","25.0","","98.80","","","","-17","","Mostly Cloudy"
"1969-01-08 19:00","1969","01","08","19:00","-12.8","","-15.6","","79","","36","","10","","25.0","","98.66","","","","-19","","Cloudy"
"1969-01-08 20:00","1969","01","08","20:00","-11.7","","-15.0","","77","","2","","13","","25.0","","98.52","","","","-18","","Mostly Cloudy"
"1969-01-08 21:00","1969","01","08","21:00","-13.3","","-16.1","","78","","36","","6","","25.0","","98.50","","","","-17","","Cloudy"
"1969-01-08 22:00","1969","01","08","22:00","-12.2","","-15.0","","80","","5","","11","","25.0","","98.36","","","","-18","","Cloudy"
"1969-01-08 23:00","1969","01","08","23:00","-9.4","","-13.3","","75","","7","","18","","25.0","","98.20","","","","-17","","Cloudy"
"1969-01-09 00:00","1969","01","09","00:00","-9.4","","-12.8","","78","","7","","14","","3.6","","98.18","","","","-16","","Snow"
"1969-01-09 01:00","1969","01","09","01:00","-10.6","","-12.2","","89","","7","","21","","1.2","","98.00","","","","-19","","Snow"
"1969-01-09 02:00","1969","01","09","02:00","-10.6","","-11.7","","90","","7","","23","","1.6","","97.80","","","","-19","","Snow"
"1969-01-09 03:00","1969","01","09","03:00","-10.0","","-11.1","","91","","7","","16","","1.6","","97.61","","","","-17","","Snow"
"1969-01-09 04:00","1969","01","09","04:00","-8.9","","-10.6","","86","","7","","19","","2.0","","97.43","","","","-16","","Snow"
"1969-01-09 05:00","1969","01","09","05:00","-8.9","","-11.1","","83","","5","","19","","4.0","","97.42","","","","-16","","Snow Grains"
"1969-01-09 06:00","1969","01","09","06:00","-8.9","","-10.6","","89","","2","","19","","2.4","","97.34","","","","-16","","Snow Grains"
"1969-01-09 07:00","1969","01","09","07:00","-7.8","","-8.9","","90","","7","","14","","9.7","","97.26","","","","-14","","Fog"
"1969-01-09 08:00","1969","01","09","08:00","-7.8","","-8.9","","90","","34","","10","","8.0","","97.28","","","","-13","","Fog"
"1969-01-09 09:00","1969","01","09","09:00","-10.0","","-11.7","","88","","34","","16","","4.0","","97.34","","","","-17","","Snow Pellets"
"1969-01-09 10:00","1969","01","09","10:00","-10.6","","-12.2","","87","","32","","10","","4.0","","97.40","","","","-16","","Freezing Drizzle,Snow Pellets"
"1969-01-09 11:00","1969","01","09","11:00","-9.4","","-11.1","","88","","","","0","","8.0","","97.41","","","","","","Snow"
"1969-01-09 12:00","1969","01","09","12:00","-7.2","","-9.4","","84","","18","","6","","4.8","","97.38","","","","-10","","Snow Showers"
"1969-01-09 13:00","1969","01","09","13:00","-2.2","","-6.7","","72","","25","","29","","9.7","","97.40","","","","-9","","Haze"
"1969-01-09 14:00","1969","01","09","14:00","-3.3","","-5.6","","85","","25","","24","","9.7","","97.47","","","","-10","","Snow Showers"
"1969-01-09 15:00","1969","01","09","15:00","-5.6","","-7.2","","87","","27","","37","","11.3","","97.59","","","","-15","","Snow Showers"
"1969-01-09 16:00","1969","01","09","16:00","-6.1","","-8.3","","83","","25","","24","","11.3","","97.69","","","","-14","","Snow Showers"
"1969-01-09 17:00","1969","01","09","17:00","-7.8","","-10.6","","80","","25","","34","","9.7","","97.79","","","","-17","","Blowing Snow"
"1969-01-09 18:00","1969","01","09","18:00","-8.9","","-12.2","","76","","25","","32","","19.3","","97.86","","","","-18","","Mainly Clear"
"1969-01-09 19:00","1969","01","09","19:00","-8.9","","-13.3","","71","","25","","31","","24.1","","97.94","","","","-18","","Mainly Clear"
"1969-01-09 20:00","1969","01","09","20:00","-8.9","","-12.2","","76","","25","","31","","19.3","","97.97","","","","-18","","Mainly Clear"
"1969-01-09 21:00","1969","01","09","21:00","-10.0","","-13.3","","75","","25","","26","","24.1","","98.00","","","","-19","","Mainly Clear"
"1969-01-09 22:00","1969","01","09","22:00","-10.6","","-13.9","","76","","23","","27","","24.1","","98.00","","","","-20","","Mainly Clear"
"1969-01-09 23:00","1969","01","09","23:00","-11.1","","-13.9","","78","","23","","26","","19.3","","97.99","","","","-20","","Clear"
"1969-01-10 00:00","1969","01","10","00:00","-10.0","","-12.8","","78","","25","","27","","24.1","","97.99","","","","-19","","Snow Showers"
"1969-01-10 01:00","1969","01","10","01:00","-8.9","","-11.7","","81","","23","","24","","4.8","","98.00","","","","-17","","Snow Showers"
"1969-01-10 02:00","1969","01","10","02:00","-9.4","","-11.1","","88","","23","","26","","2.0","","98.04","","","","-18","","Snow Showers"
"1969-01-10 03:00","1969","01","10","03:00","-9.4","","-11.7","","85","","23","","19","","8.0","","98.08","","","","-17","","Snow Showers"
"1969-01-10 04:00","1969","01","10","04:00","-10.0","","-12.8","","78","","25","","13","","25.0","","98.12","","","","-16","","Mostly Cloudy"
"1969-01-10 05:00","1969","01","10","05:00","-9.4","","-11.7","","85","","27","","23","","24.1","","98.10","","","","-18","","Mostly Cloudy"
"1969-01-10 06:00","1969","01","10","06:00","-8.9","","-12.2","","76","","27","","26","","25.0","","98.11","","","","-18","","Mostly Cloudy"
"1969-01-10 07:00","1969","01","10","07:00","-8.3","","-12.8","","70","","27","","26","","24.1","","98.13","","","","-17","","Mostly Cloudy"
"1969-01-10 08:00","1969","01","10","08:00","-8.9","","-12.2","","77","","27","","29","","32.2","","98.16","","","","-18","","Mostly Cloudy"
"1969-01-10 09:00","1969","01","10","09:00","-11.7","","-14.4","","81","","34","","16","","16.1","","98.22","","","","-19","","Mostly Cloudy"
"1969-01-10 10:00","1969","01","10","10:00","-11.7","","-15.0","","77","","34","","11","","9.7","","98.27","","","","-18","","Snow Showers"
"1969-01-10 11:00","1969","01","10","11:00","-11.1","","-13.9","","78","","34","","13","","4.8","","98.33","","","","-18","","Snow Showers"
"1969-01-10 12:00","1969","01","10","12:00","-11.1","","-14.4","","77","","32","","14","","4.8","","98.33","","","","-18","","Snow Showers"
"1969-01-10 13:00","1969","01","10","13:00","-10.6","","-13.9","","77","","32","","21","","4.8","","98.34","","","","-19","","Snow Showers"
"1969-01-10 14:00","1969","01","10","14:00","-10.0","","-13.3","","75","","27","","16","","16.1","","98.35","","","","-17","","Mostly Cloudy"
"1969-01-10 15:00","1969","01","10","15:00","-9.4","","-14.4","","67","","29","","29","","12.9","","98.41","","","","-19","","Cloudy"
"1969-01-10 16:00","1969","01","10","16:00","-10.0","","-13.3","","75","","29","","19","","16.1","","98.47","","","","-18","","Mostly Cloudy"
"1969-01-10 17:00","1969","01","10","17:00","-10.0","","-13.3","","75","","27","","21","","24.1","","98.54","","","","-18","","Mostly Cloudy"
"1969-01-10 18:00","1969","01","10","18:00","-10.0","","-13.9","","72","","27","","18","","25.0","","98.59","","","","-17","","Mostly Cloudy"
"1969-01-10 19:00","1969","01","10","19:00","-10.0","","-13.9","","74","","27","","16","","25.0","","98.63","","","","-17","","Mostly Cloudy"
"1969-01-10 20:00","1969","01","10","20:00","-12.2","","-16.1","","73","","36","","11","","24.1","","98.71","","","","-18","","Mostly Cloudy"
"1969-01-10 21:00","1969","01","10","21:00","-11.7","","-15.6","","74","","34","","18","","25.0","","98.77","","","","-20","","Mostly Cloudy"
"1969-01-10 22:00","1969","01","10","22:00","-12.8","","-16.7","","72","","29","","18","","25.0","","98.85","","","","-21","","Mainly Clear"
"1969-01-10 23:00","1969","01","10","23:00","-14.4","","-18.3","","73","","2","","11","","25.0","","98.93","","","","-21","","Mainly Clear"
"1969-01-11 00:00","1969","01","11","00:00","-16.7","","-20.6","","73","","5","","6","","25.0","","98.95","","","","-21","","Mostly Cloudy"
"1969-01-11 01:00","1969","01","11","01:00","-16.1","","-18.9","","81","","","","0","","24.1","","98.96","","","","","","Snow"
"1969-01-11 02:00","1969","01","11","02:00","-13.3","","-15.0","","86","","29","","10","","24.1","","99.01","","","","-19","","Snow"
"1969-01-11 03:00","1969","01","11","03:00","-11.7","","-13.3","","89","","32","","18","","24.1","","99.07","","","","-20","","Snow"
"1969-01-11 04:00","1969","01","11","04:00","-11.7","","-15.0","","76","","29","","13","","24.1","","99.11","","","","-18","","Snow"
"1969-01-11 05:00","1969","01","11","05:00","-12.2","","-14.4","","82","","32","","6","","24.1","","99.11","","","","-16","","Mostly Cloudy"
"1969-01-11 06:00","1969","01","11","06:00","-13.9","","-15.6","","85","","27","","3","","24.1","","99.11","","","","-16","","Mostly Cloudy"
"1969-01-11 07:00","1969","01","11","07:00","-13.3","","-15.0","","86","","32","","6","","24.1","","99.20","","","","-17","","Mainly Clear"
"1969-01-11 08:00","1969","01","11","08:00","-14.4","","-16.7","","83","","29","","3","","32.2","","99.24","","","","-17","","Mainly Clear"
"1969-01-11 09:00","1969","01","11","09:00","-13.3","","-15.0","","86","","29","","6","","40.2","","99.28","","","","-17","","Mostly Cloudy"
"1969-01-11 10:00","1969","01","11","10:00","-10.6","","-12.8","","82","","32","","5","","9.7","","99.33","","","","-14","","Snow Showers"
"1969-01-11 11:00","1969","01","11","11:00","-9.4","","-12.2","","79","","","","0","","40.2","","99.33","","","","","","Mostly Cloudy"
"1969-01-11 12:00","1969","01","11","12:00","-8.3","","-12.8","","71","","","","0","","40.2","","99.32","","","","","","Snow Showers"
"1969-01-11 13:00","1969","01","11","13:00","-6.7","","-9.4","","79","","","","0","","11.3","","99.30","","","","","","Snow Showers"
"1969-01-11 14:00","1969","01","11","14:00","-3.9","","-8.3","","72","","27","","23","","40.2","","99.28","","","","-11","","Mostly Cloudy"
"1969-01-11 15:00","1969","01","11","15:00","-3.9","","-7.8","","74","","27","","19","","32.2","","99.36","","","","-10","","Mostly Cloudy"
"1969-01-11 16:00","1969","01","11","16:00","-4.4","","-7.2","","81","","27","","19","","16.1","","99.41","","","","-11","","Snow Showers"
"1969-01-11 17:00","1969","01","11","17:00","-5.0","","-7.2","","84","","27","","19","","12.9","","99.46","","","","-11","","Snow"
"1969-01-11 18:00","1969","01","11","18:00","-5.6","","-7.2","","87","","27","","32","","16.1","","99.52","","","","-14","","Mainly Clear"
"1969-01-11 19:00","1969","01","11","19:00","-5.6","","-8.3","","81","","27","","19","","16.1","","99.58","","","","-12","","Snow"
"1969-01-11 20:00","1969","01","11","20:00","-5.6","","-8.3","","80","","27","","19","","16.1","","99.65","","","","-12","","Snow"
"1969-01-11 21:00","1969","01","11","21:00","-5.6","","-8.3","","81","","27","","19","","16.1","","99.65","","","","-12","","Snow"
"1969-01-11 22:00","1969","01","11","22:00","-5.6","","-7.8","","84","","27","","26","","16.1","","99.64","","","","-13","","Snow"
"1969-01-11 23:00","1969","01","11","23:00","-5.6","","-8.3","","80","","27","","23","","19.3","","99.67","","","","-13","","Mostly Cloudy"
"1969-01-12 00:00","1969","01","12","00:00","-5.6","","-8.3","","81","","25","","23","","8.0","","99.68","","","","-13","","Snow Showers"
"1969-01-12 01:00","1969","01","12","01:00","-6.7","","-7.8","","91","","25","","26","","25.0","","99.67","","","","-15","","Mostly Cloudy"
"1969-01-12 02:00","1969","01","12","02:00","-6.1","","-8.9","","80","","25","","23","","25.0","","99.71","","","","-13","","Mostly Cloudy"
"1969-01-12 03:00","1969","01","12","03:00","-6.1","","-8.9","","82","","25","","18","","9.7","","99.76","","","","-13","","Snow"
"1969-01-12 04:00","1969","01","12","04:00","-5.6","","-8.3","","81","","27","","16","","25.0","","99.82","","","","-12","","Mostly Cloudy"
"1969-01-12 05:00","1969","01","12","05:00","-5.0","","-9.4","","72","","27","","13","","16.1","","99.86","","","","-10","","Snow"
"1969-01-12 06:00","1969","01","12","06:00","-6.1","","-8.3","","84","","27","","13","","25.0","","99.89","","","","-11","","Mostly Cloudy"
"1969-01-12 07:00","1969","01","12","07:00","-6.1","","-8.3","","84","","27","","11","","24.1","","99.95","","","","-11","","Snow"
"1969-01-12 08:00","1969","01","12","08:00","-6.1","","-8.9","","82","","25","","13","","32.2","","99.99","","","","-11","","Snow"
"1969-01-12 09:00","1969","01","12","09:00","-6.1","","-7.8","","87","","27","","10","","1.6","","100.05","","","","-11","","Snow"
"1969-01-12 10:00","1969","01","12","10:00","-5.6","","-7.8","","84","","29","","6","","11.3","","100.09","","","","-8","","Cloudy"
"1969-01-12 11:00","1969","01","12","11:00","-6.7","","-9.4","","79","","34","","3","","32.2","","100.13","","","","-8","","Mostly Cloudy"
"1969-01-12 12:00","1969","01","12","12:00","-5.6","","-8.9","","76","","27","","6","","40.2","","100.12","","","","-8","","Mostly Cloudy"
"1969-01-12 13:00","1969","01","12","13:00","-4.4","","-8.9","","71","","27","","14","","40.2","","100.10","","","","-10","","Mostly Cloudy"
"1969-01-12 14:00","1969","01","12","14:00","-4.4","","-7.8","","78","","34","","11","","40.2","","100.11","","","","-9","","Mostly Cloudy"
"1969-01-12 15:00","1969","01","12","15:00","-5.6","","-8.3","","82","","36","","10","","40.2","","100.16","","","","-10","","Mostly Cloudy"
"1969-01-12 16:00","1969","01","12","16:00","-6.1","","-9.4","","78","","36","","14","","16.1","","100.18","","","","-12","","Mostly Cloudy"
"1969-01-12 17:00","1969","01","12","17:00","-6.7","","-10.0","","77","","34","","8","","16.1","","100.23","","","","-11","","Snow"
"1969-01-12 18:00","1969","01","12","18:00","-7.2","","-9.4","","83","","34","","16","","16.1","","100.29","","","","-14","","Snow"
"1969-01-12 19:00","1969","01","12","19:00","-7.2","","-10.0","","80","","36","","16","","16.1","","100.33","","","","-14","","Mostly Cloudy"
"1969-01-12 20:00","1969","01","12","20:00","-7.2","","-10.0","","81","","34","","14","","16.1","","100.37","","","","-13","","Snow"
"1969-01-12 21:00","1969","01","12","21:00","-7.2","","-10.0","","81","","34","","19","","16.1","","100.38","","","","-14","","Snow"
"1969-01-12 22:00","1969","01","12","22:00","-8.3","","-10.6","","82","","34","","19","","19.3","","100.39","","","","-16","","Mostly Cloudy"
"1969-01-12 23:00","1969","01","12","23:00","-11.1","","-12.8","","86","","32","","14","","19.3","","100.42","","","","-18","","Mainly Clear"
"1969-01-13 00:00","1969","01","13","00:00","-10.0","","-11.7","","88","","34","","14","","19.3","","100.43","","","","-16","","Snow"
"1969-01-13 01:00","1969","01","13","01:00","-9.4","","-11.7","","85","","34","","19","","25.0","","100.43","","","","-17","","Mostly Cloudy"
"1969-01-13 02:00","1969","01","13","02:00","-9.4","","-12.2","","81","","34","","26","","25.0","","100.45","","","","-18","","Mostly Cloudy"
"1969-01-13 03:00","1969","01","13","03:00","-10.0","","-13.3","","75","","34","","19","","25.0","","100.48","","","","-18","","Mainly Clear"
"1969-01-13 04:00","1969","01","13","04:00","-12.2","","-14.4","","85","","32","","14","","25.0","","100.51","","","","-19","","Mainly Clear"
"1969-01-13 05:00","1969","01","13","05:00","-11.1","","-12.8","","86","","34","","18","","25.0","","100.51","","","","-19","","Mainly Clear"
"1969-01-13 06:00","1969","01","13","06:00","-10.0","","-11.7","","88","","34","","19","","25.0","","100.53","","","","-18","","Mainly Clear"
"1969-01-13 07:00","1969","01","13","07:00","-11.1","","-12.8","","88","","34","","19","","25.0","","100.56","","","","-19","","Mainly Clear"
"1969-01-13 08:00","1969","01","13","08:00","-10.6","","-12.8","","82","","34","","18","","40.2","","100.64","","","","-18","","Mainly Clear"
"1969-01-13 09:00","1969","01","13","09:00","-10.6","","-12.8","","82","","34","","23","","32.2","","100.71","","","","-19","","Mainly Clear"
"1969-01-13 10:00","1969","01","13","10:00","-7.2","","-10.6","","77","","34","","19","","32.2","","100.72","","","","-14","","Mainly Clear"
"1969-01-13 11:00","1969","01","13","11:00","-6.1","","-8.9","","79","","34","","19","","32.2","","100.72","","","","-13","","Mainly Clear"
"1969-01-13 12:00","1969","01","13","12:00","-4.4","","-7.8","","76","","32","","16","","32.2","","100.68","","","","-10","","Mainly Clear"
"1969-01-13 13:00","1969","01","13","13:00","-3.9","","-7.2","","77","","34","","24","","32.2","","100.63","","","","-11","","Mainly Clear"
"1969-01-13 14:00","1969","01","13","14:00","-3.3","","-6.1","","80","","34","","26","","32.2","","100.56","","","","-10","","Mainly Clear"
"1969-01-13 15:00","1969","01","13","15:00","-3.3","","-6.7","","77","","32","","16","","32.2","","100.58","","","","-9","","Mainly Clear"
"1969-01-13 16:00","1969","01","13","16:00","-2.8","","-6.7","","75","","36","","13","","32.2","","100.60","","","","-7","","Mostly Cloudy"
"1969-01-13 17:00","1969","01","13","17:00","-3.9","","-6.7","","83","","32","","16","","32.2","","100.59","","","","-9","","Mostly Cloudy"
"1969-01-13 18:00","1969","01","13","18:00","-4.4","","-7.8","","78","","32","","21","","25.0","","100.60","","","","-11","","Mostly Cloudy"
"1969-01-13 19:00","1969","01","13","19:00","-3.9","","-6.7","","82","","32","","23","","25.0","","100.62","","","","-11","","Mostly Cloudy"
"1969-01-13 20:00","1969","01","13","20:00","-5.0","","-7.8","","81","","29","","19","","25.0","","100.65","","","","-11","","Mostly Cloudy"
"1969-01-13 21:00","1969","01","13","21:00","-5.0","","-7.2","","83","","32","","23","","25.0","","100.67","","","","-12","","Mostly Cloudy"
"1969-01-13 22:00","1969","01","13","22:00","-5.6","","-7.8","","86","","32","","21","","25.0","","100.64","","","","-12","","Mostly Cloudy"
"1969-01-13 23:00","1969","01","13","23:00","-4.4","","-6.1","","90","","34","","29","","25.0","","100.63","","","","-12","","Mostly Cloudy"
"1969-01-14 00:00","1969","01","14","00:00","-3.9","","-6.1","","86","","34","","26","","25.0","","100.57","","","","-11","","Mostly Cloudy"
"1969-01-14 01:00","1969","01","14","01:00","-3.3","","-5.0","","88","","34","","31","","25.0","","100.55","","","","-11","","Cloudy"
"1969-01-14 02:00","1969","01","14","02:00","-3.3","","-5.0","","88","","32","","23","","25.0","","100.55","","","","-10","","Cloudy"
"1969-01-14 03:00","1969","01","14","03:00","-3.3","","-4.4","","90","","34","","23","","25.0","","100.56","","","","-10","","Cloudy"
"1969-01-14 04:00","1969","01","14","04:00","-2.8","","-4.4","","90","","34","","24","","25.0","","100.54","","","","-9","","Cloudy"
"1969-01-14 05:00","1969","01","14","05:00","-2.8","","-4.4","","90","","32","","26","","25.0","","100.53","","","","-10","","Cloudy"
"1969-01-14 06:00","1969","01","14","06:00","-2.8","","-4.4","","90","","32","","24","","25.0","","100.54","","","","-9","","Cloudy"
"1969-01-14 07:00","1969","01","14","07:00","-2.8","","-5.0","","84","","34","","32","","25.0","","100.55","","","","-10","","Mostly Cloudy"
"1969-01-14 08:00","1969","01","14","08:00","-3.3","","-5.6","","84","","34","","29","","32.2","","100.58","","","","-11","","Mainly Clear"
"1969-01-14 09:00","1969","01","14","09:00","-5.0","","-6.7","","88","","34","","21","","32.2","","100.67","","","","-12","","Mainly Clear"
"1969-01-14 10:00","1969","01","14","10:00","-4.4","","-6.7","","83","","34","","21","","32.2","","100.72","","","","-11","","Mostly Cloudy"
"1969-01-14 11:00","1969","01","14","11:00","-3.9","","-7.2","","78","","34","","27","","32.2","","100.70","","","","-11","","Mainly Clear"
"1969-01-14 12:00","1969","01","14","12:00","-3.3","","-6.1","","80","","34","","24","","32.2","","100.65","","","","-10","","Mainly Clear"
"1969-01-14 13:00","1969","01","14","13:00","-2.8","","-5.6","","80","","34","","23","","32.2","","100.60","","","","-9","","Clear"
"1969-01-14 14:00","1969","01","14","14:00","-2.2","","-5.6","","79","","34","","26","","32.2","","100.57","","","","-9","","Clear"
"1969-01-14 15:00","1969","01","14","15:00","-1.7","","-6.7","","70","","32","","21","","32.2","","100.58","","","","-8","","Clear"
"1969-01-14 16:00","1969","01","14","16:00","-2.8","","-7.2","","71","","32","","23","","32.2","","100.62","","","","-9","","Clear"
"1969-01-14 17:00","1969","01","14","17:00","-3.9","","-7.2","","77","","34","","21","","32.2","","100.62","","","","-10","","Mainly Clear"
"1969-01-14 18:00","1969","01","14","18:00","-5.6","","-8.3","","81","","29","","10","","32.2","","100.68","","","","-10","","Mainly Clear"
"1969-01-14 19:00","1969","01","14","19:00","-6.7","","-8.9","","83","","32","","19","","32.2","","100.72","","","","-14","","Mostly Cloudy"
"1969-01-14 20:00","1969","01","14","20:00","-5.6","","-7.8","","85","","32","","24","","32.2","","100.74","","","","-13","","Mainly Clear"
"1969-01-14 21:00","1969","01","14","21:00","-6.7","","-8.9","","86","","32","","3","","32.2","","100.82","","","","-8","","Mainly Clear"
"1969-01-14 22:00","1969","01","14","22:00","-6.7","","-8.9","","85","","23","","3","","32.2","","100.82","","","","-8","","Clear"
"1969-01-14 23:00","1969","01","14","23:00","-8.3","","-10.6","","85","","29","","10","","32.2","","100.81","","","","-13","","Clear"
"1969-01-15 00:00","1969","01","15","00:00","-10.0","","-12.2","","83","","32","","13","","32.2","","100.83","","","","-16","","Clear"
"1969-01-15 01:00","1969","01","15","01:00","-11.1","","-13.3","","83","","32","","10","","25.0","","100.86","","","","-17","","Clear"
"1969-01-15 02:00","1969","01","15","02:00","-12.8","","-14.4","","88","","34","","11","","25.0","","100.88","","","","-19","","Clear"
"1969-01-15 03:00","1969","01","15","03:00","-13.9","","-15.0","","89","","29","","13","","25.0","","100.89","","","","-21","","Clear"
"1969-01-15 04:00","1969","01","15","04:00","-15.0","","-16.7","","89","","32","","10","","25.0","","100.89","","","","-21","","Clear"
"1969-01-15 05:00","1969","01","15","05:00","-15.0","","-16.7","","89","","32","","13","","25.0","","100.89","","","","-22","","Mainly Clear"
"1969-01-15 06:00","1969","01","15","06:00","-14.4","","-16.1","","87","","32","","13","","25.0","","100.92","","","","-22","","Cloudy"
"1969-01-15 07:00","1969","01","15","07:00","-11.7","","-13.3","","89","","32","","19","","25.0","","100.93","","","","-20","","Mainly Clear"
"1969-01-15 08:00","1969","01","15","08:00","-10.0","","-11.7","","86","","32","","16","","32.2","","101.01","","","","-17","","Cloudy"
"1969-01-15 09:00","1969","01","15","09:00","-10.0","","-12.2","","84","","32","","13","","4.0","","101.10","","","","-16","","Snow"
"1969-01-15 10:00","1969","01","15","10:00","-11.1","","-13.3","","83","","32","","16","","32.2","","101.15","","","","-18","","Mainly Clear"
"1969-01-15 11:00","1969","01","15","11:00","-11.1","","-14.4","","77","","32","","10","","32.2","","101.13","","","","-17","","Mainly Clear"
"1969-01-15 12:00","1969","01","15","12:00","-10.0","","-13.9","","74","","32","","13","","32.2","","101.05","","","","-16","","Clear"
"1969-01-15 13:00","1969","01","15","13:00","-9.4","","-13.3","","73","","32","","14","","32.2","","100.98","","","","-16","","Clear"
"1969-01-15 14:00","1969","01","15","14:00","-8.9","","-12.8","","73","","32","","10","","32.2","","100.95","","","","-14","","Clear"
"1969-01-15 15:00","1969","01","15","15:00","-7.8","","-12.2","","71","","32","","5","","32.2","","100.97","","","","-10","","Clear"
"1969-01-15 16:00","1969","01","15","16:00","-8.9","","-13.3","","71","","36","","6","","32.2","","101.00","","","","-12","","Clear"
"1969-01-15 17:00","1969","01","15","17:00","-8.9","","-13.3","","71","","36","","11","","32.2","","100.99","","","","-14","","Mainly Clear"
"1969-01-15 18:00","1969","01","15","18:00","-10.6","","-13.9","","77","","36","","13","","25.0","","100.99","","","","-17","","Mainly Clear"
"1969-01-15 19:00","1969","01","15","19:00","-10.6","","-13.9","","77","","34","","8","","25.0","","101.00","","","","-15","","Clear"
"1969-01-15 20:00","1969","01","15","20:00","-11.7","","-15.0","","77","","32","","6","","25.0","","101.00","","","","-15","","Clear"
"1969-01-15 21:00","1969","01","15","21:00","-16.1","","-17.2","","90","","29","","6","","25.0","","100.99","","","","-21","","Clear"
"1969-01-15 22:00","1969","01","15","22:00","-17.8","","-18.9","","92","","29","","10","","24.1","","101.01","","","","-25","","Clear"
"1969-01-15 23:00","1969","01","15","23:00","-15.6","","-16.1","","95","","34","","10","","0.8","","100.99","","","","-22","","Fog"
"1969-01-16 00:00","1969","01","16","00:00","-17.2","","-18.3","","89","","32","","10","","9.7","","100.96","","","","-24","","Fog"
"1969-01-16 01:00","1969","01","16","01:00","-17.8","","-18.9","","92","","32","","5","","24.1","","100.97","","","","-22","","Clear"
"1969-01-16 02:00","1969","01","16","02:00","-17.8","","-18.9","","92","","36","","6","","24.1","","100.96","","","","-22","","Mainly Clear"
"1969-01-16 03:00","1969","01","16","03:00","-19.4","","-21.1","","88","","36","","8","","16.1","","100.94","","","","-26","","Mainly Clear"
"1969-01-16 04:00","1969","01","16","04:00","-17.2","","-19.4","","85","","36","","6","","9.7","","100.88","","","","-22","","Fog"
"1969-01-16 05:00","1969","01","16","05:00","-13.9","","-15.0","","91","","36","","6","","9.7","","100.87","","","","-18","","Fog"
"1969-01-16 06:00","1969","01","16","06:00","-12.8","","-14.4","","88","","32","","3","","9.7","","100.87","","","","-15","","Fog"
"1969-01-16 07:00","1969","01","16","07:00","-11.1","","-12.2","","90","","36","","6","","9.7","","100.89","","","","-15","","Fog"
"1969-01-16 08:00","1969","01","16","08:00","-10.6","","-11.7","","90","","","","0","","4.0","","100.86","","","","","","Fog"
"1969-01-16 09:00","1969","01","16","09:00","-8.9","","-10.6","","86","","","","0","","6.4","","100.88","","","","","","Fog"
"1969-01-16 10:00","1969","01","16","10:00","-4.4","","-7.2","","82","","9","","18","","9.7","","100.90","","","","-10","","Haze"
"1969-01-16 11:00","1969","01","16","11:00","-3.9","","-6.7","","82","","11","","26","","12.9","","100.82","","","","-11","","Cloudy"
"1969-01-16 12:00","1969","01","16","12:00","-3.3","","-6.1","","80","","11","","23","","12.9","","100.70","","","","-10","","Cloudy"
"1969-01-16 13:00","1969","01","16","13:00","-2.8","","-6.1","","79","","11","","24","","14.5","","100.57","","","","-9","","Cloudy"
"1969-01-16 14:00","1969","01","16","14:00","-2.8","","-6.1","","78","","11","","27","","12.9","","100.51","","","","-10","","Cloudy"
"1969-01-16 15:00","1969","01","16","15:00","-2.8","","-6.1","","78","","11","","26","","12.9","","100.43","","","","-10","","Cloudy"
"1969-01-16 16:00","1969","01","16","16:00","-2.2","","-4.4","","84","","11","","19","","11.3","","100.40","","","","-8","","Cloudy"
"1969-01-16 17:00","1969","01","16","17:00","-2.2","","-5.6","","77","","9","","23","","9.7","","100.27","","","","-8","","Snow"
"1969-01-16 18:00","1969","01","16","18:00","-1.7","","-4.4","","80","","11","","11","","8.0","","100.24","","","","-6","","Haze"
"1969-01-16 19:00","1969","01","16","19:00","-1.7","","-5.0","","77","","11","","5","","8.0","","100.25","","","","-4","","Haze"
"1969-01-16 20:00","1969","01","16","20:00","-1.1","","-4.4","","79","","9","","8","","8.0","","100.23","","","","-4","","Haze"
"1969-01-16 21:00","1969","01","16","21:00","-1.1","","-3.3","","85","","9","","24","","8.0","","100.01","","","","-7","","Fog"
"1969-01-16 22:00","1969","01","16","22:00","-0.6","","-2.2","","88","","16","","10","","8.0","","100.05","","","","-4","","Fog"
"1969-01-16 23:00","1969","01","16","23:00","0.0","","-1.7","","88","","14","","18","","8.0","","100.05","","","","-5","","Fog"
"1969-01-17 00:00","1969","01","17","00:00","0.6","","-2.2","","81","","16","","13","","9.7","","100.04","","","","","","Haze"
"1969-01-17 01:00","1969","01","17","01:00","0.6","","-2.8","","78","","18","","10","","9.7","","100.03","","","","","","Haze"
"1969-01-17 02:00","1969","01","17","02:00","0.6","","-1.7","","84","","18","","6","","8.0","","100.04","","","","","","Drizzle,Fog"
"1969-01-17 03:00","1969","01","17","03:00","0.0","","-1.1","","91","","14","","8","","6.4","","100.04","","","","-3","","Fog"
"1969-01-17 04:00","1969","01","17","04:00","0.0","","-0.6","","94","","16","","10","","4.0","","100.02","","","","-3","","Fog"
"1969-01-17 05:00","1969","01","17","05:00","1.1","","0.6","","94","","20","","5","","3.2","","100.05","","","","","","Fog"
"1969-01-17 06:00","1969","01","17","06:00","1.1","","0.6","","94","","25","","8","","3.2","","100.10","","","","","","Fog"
"1969-01-17 07:00","1969","01","17","07:00","1.1","","0.6","","94","","25","","10","","3.2","","100.14","","","","","","Fog"
"1969-01-17 08:00","1969","01","17","08:00","1.1","","0.6","","97","","23","","5","","2.0","","100.17","","","","","","Fog"
"1969-01-17 09:00","1969","01","17","09:00","1.1","","0.6","","94","","23","","5","","2.0","","100.23","","","","","","Fog"
"1969-01-17 10:00","1969","01","17","10:00","1.7","","0.6","","92","","23","","8","","2.0","","100.26","","","","","","Fog"
"1969-01-17 11:00","1969","01","17","11:00","1.7","","1.1","","94","","20","","6","","1.6","","100.28","","","","","","Fog"
"1969-01-17 12:00","1969","01","17","12:00","1.7","","1.1","","94","","23","","10","","1.6","","100.28","","","","","","Fog"
"1969-01-17 13:00","1969","01","17","13:00","2.2","","1.1","","92","","20","","5","","2.0","","100.18","","","","","","Fog"
"1969-01-17 14:00","1969","01","17","14:00","2.2","","0.6","","89","","23","","5","","3.2","","100.18","","","","","","Fog"
"1969-01-17 15:00","1969","01","17","15:00","2.8","","1.1","","90","","23","","6","","4.0","","100.18","","","","","","Fog"
"1969-01-17 16:00","1969","01","17","16:00","2.8","","1.1","","90","","11","","5","","4.0","","100.17","","","","","","Fog"
"1969-01-17 17:00","1969","01","17","17:00","2.2","","1.1","","92","","16","","5","","2.0","","100.17","","","","","","Fog"
"1969-01-17 18:00","1969","01","17","18:00","1.7","","0.6","","92","","16","","8","","1.6","","100.11","","","","","","Fog"
"1969-01-17 19:00","1969","01","17","19:00","1.7","","1.1","","97","","9","","10","","2.0","","100.03","","","","","","Fog"
"1969-01-17 20:00","1969","01","17","20:00","1.7","","1.1","","97","","14","","10","","0.0","","100.02","","","","","","Fog"
"1969-01-17 21:00","1969","01","17","21:00","1.1","","0.6","","97","","14","","6","","0.0","","99.90","","","","","","Fog"
"1969-01-17 22:00","1969","01","17","22:00","1.7","","1.1","","97","","9","","11","","0.0","","99.75","","","","","","Rain,Fog"
"1969-01-17 23:00","1969","01","17","23:00","1.7","","1.7","","100","","11","","16","","0.0","","99.65","","","","","","Rain,Fog"
"1969-01-18 00:00","1969","01","18","00:00","2.2","","1.7","","97","","9","","23","","3.2","","99.53","","","","","","Rain,Fog"
"1969-01-18 01:00","1969","01","18","01:00","1.7","","1.1","","97","","9","","21","","2.4","","99.34","","","","","","Moderate Rain,Fog"
"1969-01-18 02:00","1969","01","18","02:00","1.7","","1.7","","100","","9","","24","","2.0","","99.16","","","","","","Moderate Rain,Fog"
"1969-01-18 03:00","1969","01","18","03:00","1.7","","1.1","","97","","11","","24","","1.6","","99.05","","","","","","Rain,Fog"
"1969-01-18 04:00","1969","01","18","04:00","1.7","","1.1","","97","","11","","23","","2.0","","98.93","","","","","","Rain,Fog"
"1969-01-18 05:00","1969","01","18","05:00","1.7","","1.7","","100","","11","","23","","0.8","","98.82","","","","","","Rain,Fog"
"1969-01-18 06:00","1969","01","18","06:00","1.7","","1.7","","100","","11","","16","","0.2","","98.76","","","","","","Rain,Fog"
"1969-01-18 07:00","1969","01","18","07:00","1.7","","1.1","","97","","14","","16","","0.2","","98.73","","","","","","Rain,Drizzle,Fog"
"1969-01-18 08:00","1969","01","18","08:00","3.3","","2.8","","97","","18","","14","","0.2","","98.71","","","","","","Drizzle,Fog"
"1969-01-18 09:00","1969","01","18","09:00","4.4","","3.9","","95","","20","","19","","9.7","","98.72","","","","","","Fog"
"1969-01-18 10:00","1969","01","18","10:00","4.4","","3.3","","93","","20","","23","","9.7","","98.74","","","","","","Fog"
"1969-01-18 11:00","1969","01","18","11:00","3.9","","3.3","","95","","23","","18","","6.4","","98.79","","","","","","Fog"
"1969-01-18 12:00","1969","01","18","12:00","4.4","","3.3","","93","","25","","19","","6.4","","98.74","","","","","","Fog"
"1969-01-18 13:00","1969","01","18","13:00","3.9","","2.8","","93","","27","","19","","8.0","","98.75","","","","","","Fog"
"1969-01-18 14:00","1969","01","18","14:00","3.9","","2.2","","90","","27","","24","","9.7","","98.82","","","","","","Haze"
"1969-01-18 15:00","1969","01","18","15:00","3.3","","1.1","","85","","27","","23","","9.7","","98.92","","","","","","Haze"
"1969-01-18 16:00","1969","01","18","16:00","2.2","","1.1","","92","","27","","29","","8.0","","99.06","","","","","","Haze"
"1969-01-18 17:00","1969","01","18","17:00","2.2","","0.0","","84","","27","","21","","8.0","","99.15","","","","","","Haze"
"1969-01-18 18:00","1969","01","18","18:00","2.2","","0.0","","87","","27","","23","","24.1","","99.30","","","","","","Cloudy"
"1969-01-18 19:00","1969","01","18","19:00","2.2","","0.0","","84","","27","","19","","25.0","","99.38","","","","","","Cloudy"
"1969-01-18 20:00","1969","01","18","20:00","1.7","","-0.6","","86","","27","","26","","25.0","","99.48","","","","","","Cloudy"
"1969-01-18 21:00","1969","01","18","21:00","1.7","","-1.1","","81","","29","","23","","25.0","","99.59","","","","","","Cloudy"
"1969-01-18 22:00","1969","01","18","22:00","1.7","","-1.1","","81","","27","","23","","25.0","","99.67","","","","","","Cloudy"
"1969-01-18 23:00","1969","01","18","23:00","1.7","","-1.1","","81","","29","","29","","25.0","","99.71","","","","","","Cloudy"
"1969-01-19 00:00","1969","01","19","00:00","1.1","","-2.2","","79","","29","","29","","25.0","","99.82","","","","","","Cloudy"
"1969-01-19 01:00","1969","01","19","01:00","0.6","","-2.8","","78","","29","","23","","25.0","","99.90","","","","","","Cloudy"
"1969-01-19 02:00","1969","01","19","02:00","0.6","","-1.1","","89","","29","","23","","25.0","","99.95","","","","","","Cloudy"
"1969-01-19 03:00","1969","01","19","03:00","0.6","","0.0","","97","","27","","16","","25.0","","100.04","","","","","","Cloudy"
"1969-01-19 04:00","1969","01","19","04:00","0.6","","0.0","","97","","29","","24","","25.0","","100.07","","","","","","Cloudy"
"1969-01-19 05:00","1969","01","19","05:00","0.6","","0.0","","94","","27","","23","","25.0","","100.08","","","","","","Cloudy"
"1969-01-19 06:00","1969","01","19","06:00","0.0","","-0.6","","94","","27","","18","","25.0","","100.13","","","","-5","","Cloudy"
"1969-01-19 07:00","1969","01","19","07:00","-0.6","","-0.6","","99","","27","","16","","25.0","","100.21","","","","-5","","Cloudy"
"1969-01-19 08:00","1969","01","19","08:00","-0.6","","-4.4","","76","","27","","10","","32.2","","100.29","","","","-4","","Cloudy"
"1969-01-19 09:00","1969","01","19","09:00","-0.6","","-5.6","","70","","27","","13","","24.1","","100.38","","","","-5","","Cloudy"
"1969-01-19 10:00","1969","01","19","10:00","-0.6","","-5.6","","70","","27","","19","","24.1","","100.48","","","","-6","","Cloudy"
"1969-01-19 11:00","1969","01","19","11:00","0.0","","-3.3","","80","","25","","19","","24.1","","100.52","","","","-5","","Mostly Cloudy"
"1969-01-19 12:00","1969","01","19","12:00","0.0","","-3.3","","77","","29","","23","","24.1","","100.52","","","","-6","","Mostly Cloudy"
"1969-01-19 13:00","1969","01","19","13:00","0.6","","-3.3","","75","","29","","32","","24.1","","100.49","","","","","","Mainly Clear"
"1969-01-19 14:00","1969","01","19","14:00","1.1","","-2.8","","76","","29","","19","","24.1","","100.49","","","","","","Mainly Clear"
"1969-01-19 15:00","1969","01","19","15:00","0.6","","-1.7","","86","","29","","16","","24.1","","100.54","","","","","","Mainly Clear"
"1969-01-19 16:00","1969","01","19","16:00","0.0","","-5.0","","69","","29","","16","","24.1","","100.59","","","","-5","","Mainly Clear"
"1969-01-19 17:00","1969","01","19","17:00","-1.1","","-6.1","","70","","27","","11","","24.1","","100.70","","","","-5","","Mainly Clear"
"1969-01-19 18:00","1969","01","19","18:00","-2.2","","-6.7","","72","","27","","6","","25.0","","100.75","","","","-5","","Mainly Clear"
"1969-01-19 19:00","1969","01","19","19:00","-3.3","","-7.8","","70","","32","","5","","25.0","","100.76","","","","-5","","Clear"
"1969-01-19 20:00","1969","01","19","20:00","-3.9","","-7.8","","75","","32","","6","","25.0","","100.77","","","","-7","","Clear"
"1969-01-19 21:00","1969","01","19","21:00","-7.2","","-8.9","","88","","27","","6","","25.0","","100.80","","","","-10","","Clear"
"1969-01-19 22:00","1969","01","19","22:00","-7.8","","-10.0","","86","","32","","10","","25.0","","100.80","","","","-13","","Clear"
"1969-01-19 23:00","1969","01","19","23:00","-8.3","","-10.6","","84","","32","","6","","25.0","","100.80","","","","-12","","Clear"
"1969-01-20 00:00","1969","01","20","00:00","-9.4","","-11.1","","87","","36","","10","","25.0","","100.81","","","","-15","","Clear"
"1969-01-20 01:00","1969","01","20","01:00","-10.0","","-12.2","","84","","36","","10","","25.0","","100.76","","","","-15","","Clear"
"1969-01-20 02:00","1969","01","20","02:00","-10.6","","-12.8","","84","","34","","6","","25.0","","100.77","","","","-14","","Clear"
"1969-01-20 03:00","1969","01","20","03:00","-11.1","","-13.3","","83","","32","","6","","25.0","","100.74","","","","-15","","Mainly Clear"
"1969-01-20 04:00","1969","01","20","04:00","-11.1","","-13.9","","80","","34","","6","","25.0","","100.82","","","","-15","","Mainly Clear"
"1969-01-20 05:00","1969","01","20","05:00","-9.4","","-11.1","","88","","36","","6","","25.0","","100.74","","","","-13","","Mostly Cloudy"
"1969-01-20 06:00","1969","01","20","06:00","-7.8","","-8.9","","90","","36","","3","","25.0","","100.68","","","","-9","","Mostly Cloudy"
"1969-01-20 07:00","1969","01","20","07:00","-7.8","","-10.6","","79","","36","","3","","25.0","","100.63","","","","-9","","Mostly Cloudy"
"1969-01-20 08:00","1969","01","20","08:00","-6.7","","-8.9","","86","","2","","10","","8.0","","100.64","","","","-11","","Haze"
"1969-01-20 09:00","1969","01","20","09:00","-5.0","","-7.2","","86","","2","","11","","8.0","","100.65","","","","-10","","Haze"
"1969-01-20 10:00","1969","01","20","10:00","-1.1","","-5.0","","75","","11","","16","","8.0","","100.56","","","","-6","","Haze"
"1969-01-20 11:00","1969","01","20","11:00","-0.6","","-3.9","","79","","11","","29","","16.1","","100.52","","","","-7","","Mostly Cloudy"
"1969-01-20 12:00","1969","01","20","12:00","0.0","","-3.3","","77","","11","","26","","24.1","","100.38","","","","-6","","Mainly Clear"
"1969-01-20 13:00","1969","01","20","13:00","0.0","","-3.3","","77","","9","","19","","32.2","","100.24","","","","-5","","Mainly Clear"
"1969-01-20 14:00","1969","01","20","14:00","0.6","","-2.2","","81","","9","","29","","32.2","","100.13","","","","","","Mainly Clear"
"1969-01-20 15:00","1969","01","20","15:00","0.6","","-3.9","","73","","9","","23","","32.2","","100.09","","","","","","Mainly Clear"
"1969-01-20 16:00","1969","01","20","16:00","0.6","","-3.3","","75","","9","","21","","32.2","","100.06","","","","","","Mainly Clear"
"1969-01-20 17:00","1969","01","20","17:00","0.0","","-3.3","","80","","9","","26","","16.1","","100.01","","","","-6","","Mostly Cloudy"
"1969-01-20 18:00","1969","01","20","18:00","-1.1","","-2.8","","90","","9","","16","","24.1","","99.98","","","","-6","","Mostly Cloudy"
"1969-01-20 19:00","1969","01","20","19:00","-0.6","","-3.3","","82","","9","","16","","24.1","","99.97","","","","-5","","Mainly Clear"
"1969-01-20 20:00","1969","01","20","20:00","-1.1","","-2.8","","87","","9","","13","","24.1","","99.91","","","","-5","","Mainly Clear"
"1969-01-20 21:00","1969","01","20","21:00","-1.1","","-2.8","","87","","11","","6","","24.1","","99.91","","","","-3","","Mainly Clear"
"1969-01-20 22:00","1969","01","20","22:00","-1.1","","-2.8","","87","","11","","10","","24.1","","99.88","","","","-5","","Mainly Clear"
"1969-01-20 23:00","1969","01","20","23:00","-1.1","","-2.8","","87","","11","","11","","24.1","","99.85","","","","-5","","Mainly Clear"
"1969-01-21 00:00","1969","01","21","00:00","-1.1","","-2.8","","88","","11","","10","","24.1","","99.82","","","","-5","","Mainly Clear"
"1969-01-21 01:00","1969","01","21","01:00","-2.2","","-3.9","","89","","","","0","","16.1","","99.76","","","","","","Mainly Clear"
"1969-01-21 02:00","1969","01","21","02:00","-7.8","","-8.9","","90","","","","0","","6.4","","99.76","","","","","","Fog,Smoke"
"1969-01-21 03:00","1969","01","21","03:00","-8.9","","-10.6","","86","","","","0","","4.0","","99.77","","","","","","Fog"
"1969-01-21 04:00","1969","01","21","04:00","-5.6","","-7.2","","89","","","","0","","8.0","","99.76","","","","","","Fog"
"1969-01-21 05:00","1969","01","21","05:00","-3.9","","-5.0","","92","","","","0","","8.0","","99.71","","","","","","Fog"
"1969-01-21 06:00","1969","01","21","06:00","-2.2","","-3.3","","90","","","","0","","8.0","","99.67","","","","","","Fog"
"1969-01-21 07:00","1969","01","21","07:00","-1.7","","-3.3","","90","","36","","8","","8.0","","99.74","","","","-5","","Fog"
"1969-01-21 08:00","1969","01","21","08:00","-1.1","","-2.8","","88","","","","0","","4.8","","99.81","","","","","","Fog"
"1969-01-21 09:00","1969","01","21","09:00","-0.6","","-1.7","","91","","","","0","","4.8","","99.84","","","","","","Fog"
"1969-01-21 10:00","1969","01","21","10:00","0.6","","-1.7","","84","","","","0","","4.0","","99.90","","","","","","Fog"
"1969-01-21 11:00","1969","01","21","11:00","0.6","","-1.7","","86","","","","0","","4.0","","99.92","","","","","","Fog"
"1969-01-21 12:00","1969","01","21","12:00","1.7","","-2.8","","73","","","","0","","3.2","","99.88","","","","","","Haze"
"1969-01-21 13:00","1969","01","21","13:00","1.7","","-1.7","","78","","16","","6","","4.0","","99.85","","","","","","Haze"
"1969-01-21 14:00","1969","01","21","14:00","2.2","","-1.7","","76","","18","","5","","4.8","","99.83","","","","","","Haze"
"1969-01-21 15:00","1969","01","21","15:00","2.2","","-1.7","","76","","18","","3","","6.4","","99.83","","","","","","Haze"
"1969-01-21 16:00","1969","01","21","16:00","2.2","","-1.7","","76","","","","0","","3.2","","99.82","","","","","","Haze"
"1969-01-21 17:00","1969","01","21","17:00","2.2","","-2.2","","74","","14","","5","","4.0","","99.82","","","","","","Haze"
"1969-01-21 18:00","1969","01","21","18:00","2.2","","-1.1","","79","","11","","5","","4.0","","99.87","","","","","","Haze"
"1969-01-21 19:00","1969","01","21","19:00","2.2","","-1.1","","79","","14","","8","","6.4","","99.90","","","","","","Haze"
"1969-01-21 20:00","1969","01","21","20:00","1.7","","-0.6","","84","","","","0","","12.9","","99.92","","","","","","Mostly Cloudy"
"1969-01-21 21:00","1969","01","21","21:00","1.7","","-1.1","","81","","2","","3","","12.9","","99.93","","","","","","Mostly Cloudy"
"1969-01-21 22:00","1969","01","21","22:00","1.7","","-1.1","","81","","7","","6","","12.9","","99.94","","","","","","Mostly Cloudy"
"1969-01-21 23:00","1969","01","21","23:00","1.7","","-0.6","","84","","5","","5","","16.1","","99.94","","","","","","Mostly Cloudy"
"1969-01-22 00:00","1969","01","22","00:00","1.1","","-1.1","","86","","2","","3","","24.1","","99.93","","","","","","Mostly Cloudy"
"1969-01-22 01:00","1969","01","22","01:00","1.1","","-1.7","","83","","","","0","","25.0","","99.90","","","","","","Mainly Clear"
"1969-01-22 02:00","1969","01","22","02:00","0.0","","-2.2","","86","","34","","5","","25.0","","99.91","","","","-2","","Clear"
"1969-01-22 03:00","1969","01","22","03:00","-1.1","","-3.3","","85","","","","0","","25.0","","99.94","","","","","","Clear"
"1969-01-22 04:00","1969","01","22","04:00","-2.8","","-4.4","","88","","36","","6","","25.0","","99.93","","","","-5","","Clear"
"1969-01-22 05:00","1969","01","22","05:00","-4.4","","-6.7","","85","","36","","8","","25.0","","99.93","","","","-8","","Mainly Clear"
"1969-01-22 06:00","1969","01","22","06:00","-3.9","","-5.0","","92","","36","","5","","25.0","","99.92","","","","-6","","Mainly Clear"
"1969-01-22 07:00","1969","01","22","07:00","-5.0","","-6.7","","88","","34","","6","","25.0","","99.94","","","","-8","","Mainly Clear"
"1969-01-22 08:00","1969","01","22","08:00","-4.4","","-5.6","","91","","36","","5","","8.0","","99.95","","","","-7","","Fog"
"1969-01-22 09:00","1969","01","22","09:00","-5.0","","-6.7","","89","","32","","5","","6.4","","99.96","","","","-7","","Fog"
"1969-01-22 10:00","1969","01","22","10:00","-1.7","","-3.9","","85","","36","","6","","6.4","","99.97","","","","-4","","Fog"
"1969-01-22 11:00","1969","01","22","11:00","0.6","","-2.8","","78","","","","0","","6.4","","99.95","","","","","","Haze"
"1969-01-22 12:00","1969","01","22","12:00","1.7","","-3.3","","70","","34","","3","","4.8","","99.89","","","","","","Haze"
"1969-01-22 13:00","1969","01","22","13:00","3.3","","-2.2","","68","","","","0","","4.8","","99.80","","","","","","Haze"
"1969-01-22 14:00","1969","01","22","14:00","3.9","","-1.7","","66","","32","","3","","4.8","","99.75","","","","","","Haze"
"1969-01-22 15:00","1969","01","22","15:00","5.0","","-1.7","","63","","","","0","","6.4","","99.73","","","","","","Haze"
"1969-01-22 16:00","1969","01","22","16:00","3.9","","-2.8","","61","","16","","6","","4.8","","99.73","","","","","","Haze"
"1969-01-22 17:00","1969","01","22","17:00","2.8","","-1.7","","72","","18","","3","","4.8","","99.74","","","","","","Haze"
"1969-01-22 18:00","1969","01","22","18:00","2.8","","-2.2","","69","","7","","8","","12.9","","99.74","","","","","","Mostly Cloudy"
"1969-01-22 19:00","1969","01","22","19:00","2.2","","-3.3","","66","","9","","6","","24.1","","99.76","","","","","","Mostly Cloudy"
"1969-01-22 20:00","1969","01","22","20:00","2.2","","-3.3","","66","","11","","6","","24.1","","99.79","","","","","","Mostly Cloudy"
"1969-01-22 21:00","1969","01","22","21:00","2.2","","-3.3","","66","","5","","10","","24.1","","99.78","","","","","","Mostly Cloudy"
"1969-01-22 22:00","1969","01","22","22:00","1.1","","-2.2","","79","","","","0","","25.0","","99.77","","","","","","Mostly Cloudy"
"1969-01-22 23:00","1969","01","22","23:00","1.7","","-2.8","","72","","7","","6","","25.0","","99.72","","","","","","Mostly Cloudy"
"1969-01-23 00:00","1969","01","23","00:00","1.7","","-2.8","","72","","2","","6","","25.0","","99.66","","","","","","Mostly Cloudy"
"1969-01-23 01:00","1969","01","23","01:00","1.1","","-1.7","","82","","36","","5","","16.1","","99.64","","","","","","Mostly Cloudy"
"1969-01-23 02:00","1969","01","23","02:00","1.7","","-2.8","","73","","7","","6","","16.1","","99.59","","","","","","Mostly Cloudy"
"1969-01-23 03:00","1969","01","23","03:00","1.1","","-2.2","","79","","2","","3","","16.1","","99.62","","","","","","Mostly Cloudy"
"1969-01-23 04:00","1969","01","23","04:00","1.1","","-1.7","","82","","36","","5","","16.1","","99.55","","","","","","Mostly Cloudy"
"1969-01-23 05:00","1969","01","23","05:00","0.6","","-1.7","","84","","32","","5","","12.9","","99.54","","","","","","Mostly Cloudy"
"1969-01-23 06:00","1969","01","23","06:00","0.0","","-2.2","","86","","36","","5","","12.9","","99.51","","","","-2","","Mainly Clear"
"1969-01-23 07:00","1969","01","23","07:00","0.6","","-2.2","","81","","5","","5","","11.3","","99.50","","","","","","Mostly Cloudy"
"1969-01-23 08:00","1969","01","23","08:00","1.1","","-1.7","","83","","2","","3","","6.4","","99.51","","","","","","Haze"
"1969-01-23 09:00","1969","01","23","09:00","0.0","","-2.2","","86","","2","","5","","4.8","","99.51","","","","-2","","Haze"
"1969-01-23 10:00","1969","01","23","10:00","2.2","","-1.1","","79","","","","0","","4.8","","99.51","","","","","","Haze"
"1969-01-23 11:00","1969","01","23","11:00","3.9","","-0.6","","73","","","","0","","4.8","","99.52","","","","","","Haze"
"1969-01-23 12:00","1969","01","23","12:00","3.3","","-1.1","","72","","","","0","","4.0","","99.43","","","","","","Haze"
"1969-01-23 13:00","1969","01","23","13:00","4.4","","0.0","","74","","9","","6","","4.0","","99.33","","","","","","Haze"
"1969-01-23 14:00","1969","01","23","14:00","4.4","","-0.6","","71","","7","","8","","6.4","","99.31","","","","","","Haze"
"1969-01-23 15:00","1969","01","23","15:00","4.4","","0.6","","76","","9","","18","","8.0","","99.26","","","","","","Haze"
"1969-01-23 16:00","1969","01","23","16:00","3.9","","0.0","","75","","9","","16","","9.7","","99.25","","","","","","Haze"
"1969-01-23 17:00","1969","01","23","17:00","3.9","","0.6","","80","","7","","10","","9.7","","99.28","","","","","","Haze"
"1969-01-23 18:00","1969","01","23","18:00","3.9","","1.1","","83","","7","","10","","9.7","","99.24","","","","","","Haze"
"1969-01-23 19:00","1969","01","23","19:00","3.3","","1.7","","87","","9","","13","","9.7","","99.22","","","","","","Fog"
"1969-01-23 20:00","1969","01","23","20:00","3.9","","2.2","","88","","9","","10","","25.0","","99.21","","","","","","Mostly Cloudy"
"1969-01-23 21:00","1969","01","23","21:00","5.0","","2.8","","86","","9","","10","","25.0","","99.17","","","","","","Cloudy"
"1969-01-23 22:00","1969","01","23","22:00","4.4","","2.8","","88","","9","","19","","25.0","","99.10","","","","","","Mostly Cloudy"
"1969-01-23 23:00","1969","01","23","23:00","4.4","","2.8","","88","","9","","16","","25.0","","99.04","","","","","","Mostly Cloudy"
"1969-01-24 00:00","1969","01","24","00:00","3.9","","2.2","","90","","9","","16","","25.0","","98.99","","","","","","Mainly Clear"
"1969-01-24 01:00","1969","01","24","01:00","3.3","","2.2","","92","","9","","21","","9.7","","98.92","","","","","","Fog"
"1969-01-24 02:00","1969","01","24","02:00","3.3","","2.2","","92","","9","","21","","8.0","","98.89","","","","","","Fog"
"1969-01-24 03:00","1969","01","24","03:00","2.8","","2.2","","95","","9","","11","","6.4","","98.87","","","","","","Fog"
"1969-01-24 04:00","1969","01","24","04:00","2.8","","2.2","","95","","9","","8","","4.0","","98.82","","","","","","Rain,Fog"
"1969-01-24 05:00","1969","01","24","05:00","3.3","","2.8","","95","","9","","10","","2.8","","98.74","","","","","","Rain,Fog"
"1969-01-24 06:00","1969","01","24","06:00","2.8","","2.2","","97","","9","","18","","2.0","","98.68","","","","","","Rain,Fog"
"1969-01-24 07:00","1969","01","24","07:00","3.3","","2.8","","97","","9","","14","","0.8","","98.63","","","","","","Rain,Fog"
"1969-01-24 08:00","1969","01","24","08:00","3.3","","2.8","","97","","11","","3","","0.4","","98.61","","","","","","Fog"
"1969-01-24 09:00","1969","01","24","09:00","3.9","","3.3","","95","","9","","11","","0.4","","98.59","","","","","","Fog"
"1969-01-24 10:00","1969","01","24","10:00","3.9","","3.3","","95","","11","","13","","0.8","","98.57","","","","","","Rain,Fog"
"1969-01-24 11:00","1969","01","24","11:00","3.9","","3.3","","97","","14","","13","","0.8","","98.55","","","","","","Rain,Fog"
"1969-01-24 12:00","1969","01","24","12:00","3.9","","3.3","","95","","14","","13","","0.4","","98.45","","","","","","Rain,Fog"
"1969-01-24 13:00","1969","01","24","13:00","4.4","","3.9","","95","","18","","10","","0.4","","98.37","","","","","","Rain,Fog"
"1969-01-24 14:00","1969","01","24","14:00","4.4","","2.8","","93","","18","","10","","1.6","","98.31","","","","","","Fog"
"1969-01-24 15:00","1969","01","24","15:00","3.9","","2.2","","88","","18","","10","","8.0","","98.26","","","","","","Fog"
"1969-01-24 16:00","1969","01","24","16:00","3.9","","2.2","","88","","20","","18","","4.0","","98.28","","","","","","Rain,Fog"
"1969-01-24 17:00","1969","01","24","17:00","2.2","","0.0","","87","","20","","24","","4.8","","98.42","","","","","","Rain,Fog"
"1969-01-24 18:00","1969","01","24","18:00","0.6","","-1.1","","89","","23","","21","","25.0","","98.51","","","","","","Snow Pellets"
"1969-01-24 19:00","1969","01","24","19:00","-0.6","","-5.0","","73","","23","","35","","25.0","","98.71","","","","-8","","Mostly Cloudy"
"1969-01-24 20:00","1969","01","24","20:00","-3.3","","-7.8","","72","","25","","35","","25.0","","98.84","","","","-11","","Mostly Cloudy"
"1969-01-24 21:00","1969","01","24","21:00","-5.0","","-8.9","","73","","25","","32","","25.0","","98.98","","","","-13","","Cloudy"
"1969-01-24 22:00","1969","01","24","22:00","-6.7","","-10.0","","76","","23","","40","","25.0","","99.11","","","","-16","","Mainly Clear"
"1969-01-24 23:00","1969","01","24","23:00","-8.3","","-12.2","","72","","25","","31","","25.0","","99.23","","","","-17","","Mostly Cloudy"
"1969-01-25 00:00","1969","01","25","00:00","-8.3","","-13.3","","67","","25","","26","","25.0","","99.27","","","","-17","","Cloudy"
"1969-01-25 01:00","1969","01","25","01:00","-8.9","","-12.8","","73","","23","","31","","25.0","","99.30","","","","-18","","Mainly Clear"
"1969-01-25 02:00","1969","01","25","02:00","-10.0","","-15.6","","64","","23","","43","","25.0","","99.37","","","","-21","","Mainly Clear"
"1969-01-25 03:00","1969","01","25","03:00","-11.1","","-16.1","","67","","25","","31","","25.0","","99.42","","","","-21","","Mainly Clear"
"1969-01-25 04:00","1969","01","25","04:00","-11.1","","-16.1","","65","","25","","26","","25.0","","99.45","","","","-20","","Clear"
"1969-01-25 05:00","1969","01","25","05:00","-11.1","","-15.6","","68","","23","","19","","25.0","","99.46","","","","-19","","Clear"
"1969-01-25 06:00","1969","01","25","06:00","-11.7","","-17.2","","64","","23","","23","","25.0","","99.49","","","","-21","","Clear"
"1969-01-25 07:00","1969","01","25","07:00","-11.7","","-15.6","","74","","23","","29","","25.0","","99.54","","","","-22","","Mainly Clear"
"1969-01-25 08:00","1969","01","25","08:00","-11.7","","-15.0","","76","","23","","23","","32.2","","99.55","","","","-21","","Mainly Clear"
"1969-01-25 09:00","1969","01","25","09:00","-11.1","","-16.1","","67","","23","","19","","32.2","","99.59","","","","-19","","Mainly Clear"
"1969-01-25 10:00","1969","01","25","10:00","-10.6","","-16.7","","62","","23","","24","","32.2","","99.60","","","","-19","","Mostly Cloudy"
"1969-01-25 11:00","1969","01","25","11:00","-10.0","","-14.4","","69","","25","","19","","32.2","","99.63","","","","-18","","Mostly Cloudy"
"1969-01-25 12:00","1969","01","25","12:00","-9.4","","-15.6","","61","","25","","26","","32.2","","99.61","","","","-18","","Mostly Cloudy"
"1969-01-25 13:00","1969","01","25","13:00","-10.6","","-13.9","","77","","25","","26","","12.9","","99.56","","","","-20","","Snow Showers"
"1969-01-25 14:00","1969","01","25","14:00","-10.0","","-16.1","","60","","25","","29","","12.9","","99.56","","","","-19","","Snow Showers"
"1969-01-25 15:00","1969","01","25","15:00","-10.6","","-16.7","","60","","25","","26","","19.3","","99.64","","","","-20","","Mainly Clear"
"1969-01-25 16:00","1969","01","25","16:00","-10.6","","-15.6","","66","","25","","23","","16.1","","99.68","","","","-19","","Mostly Cloudy"
"1969-01-25 17:00","1969","01","25","17:00","-11.1","","-17.2","","62","","25","","29","","16.1","","99.73","","","","-21","","Mainly Clear"
"1969-01-25 18:00","1969","01","25","18:00","-11.7","","-16.7","","67","","27","","26","","25.0","","99.78","","","","-21","","Mainly Clear"
"1969-01-25 19:00","1969","01","25","19:00","-12.2","","-17.8","","62","","25","","16","","25.0","","99.77","","","","-20","","Mostly Cloudy"
"1969-01-25 20:00","1969","01","25","20:00","-12.2","","-16.1","","73","","25","","21","","25.0","","99.80","","","","-21","","Mostly Cloudy"
"1969-01-25 21:00","1969","01","25","21:00","-12.2","","-15.0","","80","","25","","18","","9.7","","99.81","","","","-20","","Snow Showers"
"1969-01-25 22:00","1969","01","25","22:00","-12.2","","-17.8","","62","","25","","19","","25.0","","99.84","","","","-20","","Cloudy"
"1969-01-25 23:00","1969","01","25","23:00","-12.8","","-17.2","","70","","25","","21","","25.0","","99.88","","","","-22","","Cloudy"
"1969-01-26 00:00","1969","01","26","00:00","-12.8","","-17.2","","70","","23","","19","","25.0","","99.89","","","","-21","","Cloudy"
"1969-01-26 01:00","1969","01","26","01:00","-12.2","","-16.7","","69","","25","","29","","25.0","","99.92","","","","-22","","Cloudy"
"1969-01-26 02:00","1969","01","26","02:00","-12.2","","-17.2","","66","","23","","23","","25.0","","99.96","","","","-21","","Cloudy"
"1969-01-26 03:00","1969","01","26","03:00","-12.2","","-17.8","","64","","25","","27","","25.0","","99.97","","","","-22","","Cloudy"
"1969-01-26 04:00","1969","01","26","04:00","-12.2","","-17.8","","64","","25","","24","","25.0","","99.95","","","","-21","","Cloudy"
"1969-01-26 05:00","1969","01","26","05:00","-12.2","","-17.8","","64","","25","","34","","25.0","","99.95","","","","-23","","Cloudy"
"1969-01-26 06:00","1969","01","26","06:00","-11.7","","-17.2","","62","","25","","32","","25.0","","99.98","","","","-22","","Cloudy"
"1969-01-26 07:00","1969","01","26","07:00","-11.7","","-16.1","","71","","25","","27","","25.0","","100.05","","","","-21","","Cloudy"
"1969-01-26 08:00","1969","01","26","08:00","-11.7","","-15.6","","74","","25","","29","","8.0","","100.10","","","","-22","","Snow Showers"
"1969-01-26 09:00","1969","01","26","09:00","-11.7","","-15.0","","76","","25","","27","","32.2","","100.07","","","","-21","","Mostly Cloudy"
"1969-01-26 10:00","1969","01","26","10:00","-11.1","","-15.0","","73","","25","","26","","32.2","","100.12","","","","-20","","Mainly Clear"
"1969-01-26 11:00","1969","01","26","11:00","-9.4","","-13.9","","70","","25","","26","","32.2","","100.18","","","","-18","","Mainly Clear"
"1969-01-26 12:00","1969","01","26","12:00","-8.9","","-12.8","","74","","25","","23","","9.7","","100.18","","","","-17","","Snow Showers"
"1969-01-26 13:00","1969","01","26","13:00","-7.2","","-11.7","","72","","29","","29","","32.2","","100.18","","","","-16","","Mostly Cloudy"
"1969-01-26 14:00","1969","01","26","14:00","-8.3","","-14.4","","61","","29","","26","","40.2","","100.19","","","","-17","","Mainly Clear"
"1969-01-26 15:00","1969","01","26","15:00","-8.3","","-13.9","","64","","29","","35","","40.2","","100.28","","","","-18","","Mainly Clear"
"1969-01-26 16:00","1969","01","26","16:00","-8.9","","-14.4","","63","","29","","32","","40.2","","100.35","","","","-18","","Mainly Clear"
"1969-01-26 17:00","1969","01","26","17:00","-9.4","","-14.4","","67","","27","","27","","40.2","","100.43","","","","-18","","Mainly Clear"
"1969-01-26 18:00","1969","01","26","18:00","-10.0","","-15.0","","66","","29","","16","","25.0","","100.48","","","","-17","","Mainly Clear"
"1969-01-26 19:00","1969","01","26","19:00","-10.6","","-14.4","","74","","29","","13","","25.0","","100.50","","","","-17","","Mainly Clear"
"1969-01-26 20:00","1969","01","26","20:00","-11.1","","-13.9","","80","","27","","8","","25.0","","100.54","","","","-16","","Mostly Cloudy"
"1969-01-26 21:00","1969","01","26","21:00","-11.1","","-13.9","","81","","27","","13","","25.0","","100.54","","","","-18","","Mainly Clear"
"1969-01-26 22:00","1969","01","26","22:00","-10.6","","-14.4","","74","","34","","14","","25.0","","100.62","","","","-17","","Mostly Cloudy"
"1969-01-26 23:00","1969","01","26","23:00","-11.7","","-15.0","","77","","2","","13","","11.3","","100.71","","","","-18","","Snow Showers"
"1969-01-27 00:00","1969","01","27","00:00","-12.8","","-16.1","","76","","2","","14","","25.0","","100.76","","","","-20","","Snow Showers"
"1969-01-27 01:00","1969","01","27","01:00","-12.8","","-16.7","","72","","36","","18","","25.0","","100.82","","","","-21","","Mostly Cloudy"
"1969-01-27 02:00","1969","01","27","02:00","-13.3","","-16.1","","80","","2","","19","","25.0","","100.91","","","","-22","","Mainly Clear"
"1969-01-27 03:00","1969","01","27","03:00","-15.6","","-19.4","","73","","36","","13","","25.0","","100.96","","","","-23","","Clear"
"1969-01-27 04:00","1969","01","27","04:00","-16.1","","-19.4","","74","","36","","21","","25.0","","101.00","","","","-26","","Clear"
"1969-01-27 05:00","1969","01","27","05:00","-17.2","","-20.6","","75","","36","","16","","25.0","","101.10","","","","-26","","Clear"
"1969-01-27 06:00","1969","01","27","06:00","-18.3","","-21.7","","76","","34","","23","","25.0","","101.16","","","","-29","","Clear"
"1969-01-27 07:00","1969","01","27","07:00","-18.9","","-21.7","","78","","36","","21","","25.0","","101.24","","","","-29","","Mainly Clear"
"1969-01-27 08:00","1969","01","27","08:00","-19.4","","-24.4","","66","","34","","14","","32.2","","101.35","","","","-28","","Mainly Clear"
"1969-01-27 09:00","1969","01","27","09:00","-19.4","","-23.3","","71","","36","","16","","32.2","","101.43","","","","-29","","Mainly Clear"
"1969-01-27 10:00","1969","01","27","10:00","-18.3","","-22.2","","70","","36","","18","","32.2","","101.45","","","","-28","","Mainly Clear"
"1969-01-27 11:00","1969","01","27","11:00","-17.8","","-21.7","","71","","36","","8","","32.2","","101.47","","","","-24","","Mainly Clear"
"1969-01-27 12:00","1969","01","27","12:00","-16.1","","-21.7","","63","","2","","10","","32.2","","101.44","","","","-23","","Mainly Clear"
"1969-01-27 13:00","1969","01","27","13:00","-15.6","","-21.7","","60","","36","","6","","40.2","","101.38","","","","-20","","Clear"
"1969-01-27 14:00","1969","01","27","14:00","-14.4","","-19.4","","65","","2","","3","","40.2","","101.32","","","","-17","","Clear"
"1969-01-27 15:00","1969","01","27","15:00","-13.9","","-19.4","","62","","2","","6","","40.2","","101.32","","","","-18","","Clear"
"1969-01-27 16:00","1969","01","27","16:00","-13.3","","-18.9","","63","","2","","8","","40.2","","101.35","","","","-18","","Clear"
"1969-01-27 17:00","1969","01","27","17:00","-13.3","","-17.2","","71","","36","","10","","32.2","","101.38","","","","-19","","Clear"
"1969-01-27 18:00","1969","01","27","18:00","-13.3","","-16.7","","76","","5","","10","","25.0","","101.43","","","","-19","","Mainly Clear"
"1969-01-27 19:00","1969","01","27","19:00","-13.3","","-19.4","","60","","5","","10","","25.0","","101.43","","","","-19","","Clear"
"1969-01-27 20:00","1969","01","27","20:00","-13.3","","-17.2","","73","","5","","10","","25.0","","101.43","","","","-19","","Snow Showers"
"1969-01-27 21:00","1969","01","27","21:00","-13.3","","-17.2","","71","","5","","10","","8.0","","101.40","","","","-19","","Snow Showers"
"1969-01-27 22:00","1969","01","27","22:00","-13.3","","-16.1","","78","","5","","13","","6.4","","101.40","","","","-20","","Snow Showers"
"1969-01-27 23:00","1969","01","27","23:00","-13.3","","-16.1","","80","","7","","14","","6.4","","101.40","","","","-21","","Snow Showers"
"1969-01-28 00:00","1969","01","28","00:00","-12.8","","-15.0","","85","","5","","14","","6.4","","101.38","","","","-20","","Snow Showers"
"1969-01-28 01:00","1969","01","28","01:00","-11.7","","-13.9","","82","","5","","8","","4.8","","101.36","","","","-16","","Snow"
"1969-01-28 02:00","1969","01","28","02:00","-9.4","","-11.7","","82","","9","","24","","3.2","","101.36","","","","-18","","Snow"
"1969-01-28 03:00","1969","01","28","03:00","-9.4","","-11.7","","84","","9","","29","","8.0","","101.32","","","","-19","","Snow"
"1969-01-28 04:00","1969","01","28","04:00","-9.4","","-12.8","","78","","9","","27","","8.0","","101.22","","","","-18","","Snow"
"1969-01-28 05:00","1969","01","28","05:00","-8.9","","-11.7","","81","","11","","32","","8.0","","101.12","","","","-18","","Snow"
"1969-01-28 06:00","1969","01","28","06:00","-9.4","","-11.7","","82","","9","","26","","12.9","","101.08","","","","-18","","Mostly Cloudy"
"1969-01-28 07:00","1969","01","28","07:00","-8.9","","-11.7","","81","","9","","24","","25.0","","101.12","","","","-17","","Mainly Clear"
"1969-01-28 08:00","1969","01","28","08:00","-7.8","","-10.6","","82","","9","","29","","11.3","","101.08","","","","-17","","Mostly Cloudy"
"1969-01-28 09:00","1969","01","28","09:00","-7.2","","-10.6","","77","","9","","26","","16.1","","101.09","","","","-15","","Mostly Cloudy"
"1969-01-28 10:00","1969","01","28","10:00","-6.7","","-10.0","","78","","9","","39","","8.0","","101.01","","","","-16","","Blowing Snow"
"1969-01-28 11:00","1969","01","28","11:00","-6.1","","-8.9","","79","","9","","32","","8.0","","100.93","","","","-15","","Blowing Snow"
"1969-01-28 12:00","1969","01","28","12:00","-5.0","","-8.3","","77","","9","","39","","16.1","","100.87","","","","-14","","Mostly Cloudy"
"1969-01-28 13:00","1969","01","28","13:00","-5.0","","-8.9","","75","","9","","29","","16.1","","100.66","","","","-13","","Mostly Cloudy"
"1969-01-28 14:00","1969","01","28","14:00","-4.4","","-7.2","","79","","9","","32","","16.1","","100.54","","","","-12","","Cloudy"
"1969-01-28 15:00","1969","01","28","15:00","-3.9","","-6.7","","83","","9","","32","","16.1","","100.51","","","","-12","","Cloudy"
"1969-01-28 16:00","1969","01","28","16:00","-3.3","","-7.2","","76","","9","","29","","6.4","","100.49","","","","-11","","Snow Showers"
"1969-01-28 17:00","1969","01","28","17:00","-2.8","","-5.6","","81","","9","","31","","9.7","","100.40","","","","-10","","Freezing Rain,Ice Pellets"
"1969-01-28 18:00","1969","01","28","18:00","-2.8","","-6.1","","79","","9","","24","","25.0","","100.36","","","","-9","","Freezing Rain"
"1969-01-28 19:00","1969","01","28","19:00","-2.2","","-5.0","","82","","9","","23","","25.0","","100.29","","","","-8","","Freezing Rain"
"1969-01-28 20:00","1969","01","28","20:00","-2.2","","-5.0","","80","","9","","19","","25.0","","100.28","","","","-8","","Freezing Rain"
"1969-01-28 21:00","1969","01","28","21:00","-2.2","","-3.3","","90","","9","","19","","25.0","","100.23","","","","-8","","Freezing Rain"
"1969-01-28 22:00","1969","01","28","22:00","-1.7","","-3.9","","85","","5","","5","","25.0","","100.21","","","","-4","","Cloudy"
"1969-01-28 23:00","1969","01","28","23:00","-1.7","","-2.8","","91","","9","","11","","6.4","","100.15","","","","-6","","Freezing Drizzle,Fog"
"1969-01-29 00:00","1969","01","29","00:00","-1.1","","-1.7","","97","","9","","10","","2.4","","100.15","","","","-5","","Rain,Drizzle,Fog"
"1969-01-29 01:00","1969","01","29","01:00","0.6","","-0.6","","91","","11","","16","","1.0","","100.09","","","","","","Rain,Fog"
"1969-01-29 02:00","1969","01","29","02:00","0.6","","0.0","","94","","11","","13","","0.6","","100.10","","","","","","Rain,Fog"
"1969-01-29 03:00","1969","01","29","03:00","0.6","","0.0","","97","","11","","11","","0.6","","100.12","","","","","","Rain,Fog"
"1969-01-29 04:00","1969","01","29","04:00","0.6","","0.0","","97","","14","","10","","1.0","","100.13","","","","","","Rain,Fog"
"1969-01-29 05:00","1969","01","29","05:00","0.6","","0.0","","97","","11","","13","","0.2","","100.06","","","","","","Fog"
"1969-01-29 06:00","1969","01","29","06:00","0.6","","0.6","","100","","11","","13","","0.2","","100.08","","","","","","Fog"
"1969-01-29 07:00","1969","01","29","07:00","1.1","","1.1","","100","","11","","13","","1.0","","100.08","","","","","","Rain,Fog"
"1969-01-29 08:00","1969","01","29","08:00","1.1","","0.6","","97","","11","","14","","0.6","","100.06","","","","","","Drizzle,Fog"
"1969-01-29 09:00","1969","01","29","09:00","1.1","","1.1","","100","","11","","13","","0.4","","100.10","","","","","","Drizzle,Fog"
"1969-01-29 10:00","1969","01","29","10:00","1.7","","1.1","","94","","11","","14","","0.0","","100.09","","","","","","Drizzle,Fog"
"1969-01-29 11:00","1969","01","29","11:00","1.7","","1.1","","97","","11","","8","","0.0","","100.12","","","","","","Drizzle,Fog"
"1969-01-29 12:00","1969","01","29","12:00","2.2","","1.7","","95","","11","","10","","0.2","","100.08","","","","","","Drizzle,Fog"
"1969-01-29 13:00","1969","01","29","13:00","2.2","","1.7","","97","","11","","6","","0.2","","100.04","","","","","","Drizzle,Fog"
"1969-01-29 14:00","1969","01","29","14:00","2.2","","2.2","","100","","9","","5","","0.0","","100.01","","","","","","Fog"
"1969-01-29 15:00","1969","01","29","15:00","2.8","","2.2","","97","","11","","5","","0.0","","100.00","","","","","","Fog"
"1969-01-29 16:00","1969","01","29","16:00","2.2","","2.2","","100","","14","","3","","0.0","","100.07","","","","","","Fog"
"1969-01-29 17:00","1969","01","29","17:00","2.2","","2.2","","100","","","","0","","0.0","","100.08","","","","","","Fog"
"1969-01-29 18:00","1969","01","29","18:00","2.2","","1.7","","97","","7","","3","","0.0","","100.10","","","","","","Drizzle,Fog"
"1969-01-29 19:00","1969","01","29","19:00","1.7","","1.7","","100","","5","","6","","0.0","","100.07","","","","","","Drizzle,Fog"
"1969-01-29 20:00","1969","01","29","20:00","1.1","","0.6","","97","","9","","6","","0.0","","100.05","","","","","","Drizzle,Fog"
"1969-01-29 21:00","1969","01","29","21:00","1.7","","1.1","","97","","7","","10","","0.2","","99.94","","","","","","Drizzle,Fog"
"1969-01-29 22:00","1969","01","29","22:00","1.7","","1.7","","100","","9","","10","","0.2","","99.90","","","","","","Moderate Rain,Fog"
"1969-01-29 23:00","1969","01","29","23:00","1.7","","1.1","","97","","9","","13","","1.6","","99.79","","","","","","Rain,Fog"
"1969-01-30 00:00","1969","01","30","00:00","1.7","","1.1","","97","","7","","18","","1.6","","99.62","","","","","","Rain,Fog"
"1969-01-30 01:00","1969","01","30","01:00","1.7","","1.1","","97","","9","","19","","2.8","","99.52","","","","","","Rain,Fog"
"1969-01-30 02:00","1969","01","30","02:00","1.1","","0.6","","97","","7","","19","","3.6","","99.41","","","","","","Rain,Fog"
"1969-01-30 03:00","1969","01","30","03:00","1.1","","0.6","","97","","9","","24","","3.2","","99.27","","","","","","Rain,Fog"
"1969-01-30 04:00","1969","01","30","04:00","1.1","","0.6","","94","","9","","14","","2.4","","99.15","","","","","","Drizzle,Fog"
"1969-01-30 05:00","1969","01","30","05:00","1.7","","1.1","","97","","9","","16","","2.4","","99.12","","","","","","Drizzle,Fog"
"1969-01-30 06:00","1969","01","30","06:00","1.7","","1.1","","97","","9","","13","","2.4","","99.06","","","","","","Drizzle,Fog"
"1969-01-30 07:00","1969","01","30","07:00","1.7","","1.1","","97","","7","","8","","2.0","","99.03","","","","","","Drizzle,Fog"
"1969-01-30 08:00","1969","01","30","08:00","1.7","","1.1","","97","","11","","13","","0.6","","99.03","","","","","","Drizzle,Fog"
"1969-01-30 09:00","1969","01","30","09:00","2.2","","2.2","","100","","","","0","","0.2","","98.96","","","","","","Drizzle,Fog"
"1969-01-30 10:00","1969","01","30","10:00","2.8","","2.2","","97","","11","","8","","0.0","","98.96","","","","","","Drizzle,Fog"
"1969-01-30 11:00","1969","01","30","11:00","2.8","","2.8","","100","","14","","10","","0.0","","98.93","","","","","","Drizzle,Fog"
"1969-01-30 12:00","1969","01","30","12:00","3.3","","2.8","","97","","14","","10","","0.0","","98.92","","","","","","Drizzle,Fog"
"1969-01-30 13:00","1969","01","30","13:00","4.4","","3.9","","98","","16","","6","","0.0","","98.75","","","","","","Rain,Fog"
"1969-01-30 14:00","1969","01","30","14:00","6.7","","6.1","","98","","20","","10","","6.4","","98.67","","","","","","Rain,Fog"
"1969-01-30 15:00","1969","01","30","15:00","6.7","","6.1","","98","","20","","10","","2.0","","98.63","","","","","","Rain,Fog"
"1969-01-30 16:00","1969","01","30","16:00","5.6","","5.0","","98","","23","","8","","3.6","","98.73","","","","","","Rain,Fog"
"1969-01-30 17:00","1969","01","30","17:00","5.0","","4.4","","95","","32","","13","","9.7","","98.73","","","","","","Rain,Fog"
"1969-01-30 18:00","1969","01","30","18:00","3.3","","2.8","","95","","27","","14","","9.7","","98.93","","","","","","Moderate Rain,Fog"
"1969-01-30 19:00","1969","01","30","19:00","3.3","","2.2","","92","","29","","14","","16.1","","98.90","","","","","","Rain"
"1969-01-30 20:00","1969","01","30","20:00","2.8","","2.2","","95","","29","","6","","16.1","","98.98","","","","","","Cloudy"
"1969-01-30 21:00","1969","01","30","21:00","2.8","","1.7","","92","","34","","11","","16.1","","98.89","","","","","","Cloudy"
"1969-01-30 22:00","1969","01","30","22:00","1.7","","1.1","","94","","36","","19","","9.7","","98.82","","","","","","Fog"
"1969-01-30 23:00","1969","01","30","23:00","1.1","","0.0","","92","","32","","19","","12.9","","99.08","","","","","","Cloudy"
"1969-01-31 00:00","1969","01","31","00:00","1.1","","-0.6","","89","","29","","18","","25.0","","99.11","","","","","","Cloudy"
"1969-01-31 01:00","1969","01","31","01:00","1.1","","-1.7","","83","","32","","18","","25.0","","99.17","","","","","","Cloudy"
"1969-01-31 02:00","1969","01","31","02:00","1.1","","-1.7","","82","","32","","29","","25.0","","99.32","","","","","","Cloudy"
"1969-01-31 03:00","1969","01","31","03:00","1.1","","-2.2","","79","","29","","26","","25.0","","99.44","","","","","","Cloudy"
"1969-01-31 04:00","1969","01","31","04:00","1.1","","-2.8","","76","","29","","29","","25.0","","99.55","","","","","","Cloudy"
"1969-01-31 05:00","1969","01","31","05:00","1.1","","-1.7","","83","","27","","19","","25.0","","99.68","","","","","","Cloudy"
"1969-01-31 06:00","1969","01","31","06:00","1.1","","-2.8","","74","","27","","13","","25.0","","99.84","","","","","","Cloudy"
"1969-01-31 07:00","1969","01","31","07:00","1.1","","-2.8","","76","","27","","18","","25.0","","99.97","","","","","","Cloudy"
"1969-01-31 08:00","1969","01","31","08:00","0.6","","-3.9","","73","","27","","19","","25.0","","100.07","","","","","","Cloudy"
"1969-01-31 09:00","1969","01","31","09:00","1.1","","-3.9","","68","","25","","18","","32.2","","100.13","","","","","","Cloudy"
"1969-01-31 10:00","1969","01","31","10:00","1.7","","-2.8","","72","","27","","13","","32.2","","100.17","","","","","","Mostly Cloudy"
"1969-01-31 11:00","1969","01","31","11:00","1.7","","-0.6","","86","","27","","16","","32.2","","100.20","","","","","","Mostly Cloudy"
"1969-01-31 12:00","1969","01","31","12:00","1.7","","-2.2","","76","","27","","16","","32.2","","100.18","","","","","","Mostly Cloudy"
"1969-01-31 13:00","1969","01","31","13:00","1.7","","-3.3","","70","","27","","16","","24.1","","100.09","","","","","","Mostly Cloudy"
"1969-01-31 14:00","1969","01","31","14:00","1.7","","-3.9","","67","","27","","10","","24.1","","100.05","","","","","","Mostly Cloudy"
"1969-01-31 15:00","1969","01","31","15:00","1.1","","-4.4","","66","","27","","14","","24.1","","100.05","","","","","","Mostly Cloudy"
"1969-01-31 16:00","1969","01","31","16:00","0.6","","-3.9","","73","","25","","10","","24.1","","100.05","","","","","","Cloudy"
"1969-01-31 17:00","1969","01","31","17:00","0.6","","-5.0","","67","","27","","8","","19.3","","100.07","","","","","","Mostly Cloudy"
"1969-01-31 18:00","1969","01","31","18:00","0.0","","-3.9","","74","","27","","6","","12.9","","100.06","","","","-2","","Cloudy"
"1969-01-31 19:00","1969","01","31","19:00","0.0","","-3.3","","80","","23","","5","","16.1","","100.05","","","","-2","","Cloudy"
"1969-01-31 20:00","1969","01","31","20:00","-0.6","","-3.9","","79","","23","","8","","16.1","","100.02","","","","-3","","Cloudy"
"1969-01-31 21:00","1969","01","31","21:00","-1.1","","-3.9","","80","","18","","5","","16.1","","99.88","","","","-3","","Cloudy"
"1969-01-31 22:00","1969","01","31","22:00","-0.6","","-3.9","","79","","18","","8","","16.1","","99.80","","","","-3","","Cloudy"
"1969-01-31 23:00","1969","01","31","23:00","-1.1","","-3.3","","86","","20","","21","","9.7","","99.77","","","","-7","","Fog"
