"Station Name","TORONTO LESTER B. PEARSON INT'L A"
"Province","ONTARIO"
"Latitude","43.68"
"Longitude","-79.63"
"Elevation","173.40"
"Climate Identifier","6158733"
"WMO Identifier","71624"
"TC Identifier","YYZ"
"All times are specified in Local Standard Time (LST). Add 1 hour to adjust for Daylight Saving Time where and when it is observed."

"Legend"
"E","Estimated"
"M","Missing"
"NA","Not Available"

"Date/Time","Year","Month","Day","Time","Temp (°C)","Temp Flag","Dew Point Temp (°C)","Dew Point Temp Flag","Rel Hum (%)","Rel Hum Flag","Wind Dir (10s deg)","Wind Dir Flag","Wind Spd (km/h)","Wind Spd Flag","Visibility (km)","Visibility Flag","Stn Press (kPa)","Stn Press Flag","Hmdx","Hmdx Flag","Wind Chill","Wind Chill Flag","Weather"
"1954-02-01 00:00","1954","02","01","00:00","-11.7","","-13.3","","87","","23","","5","","25.0","","100.42","","","","-15","","Mainly Clear"
"1954-02-01 01:00","1954","02","01","01:00","-12.2","","-13.9","","87","","23","","5","","25.0","","100.36","","","","-15","","Mainly Clear"
"1954-02-01 02:00","1954","02","01","02:00","-15.0","","-16.1","","91","","23","","5","","25.0","","100.32","","","","-19","","Clear"
"1954-02-01 03:00","1954","02","01","03:00","-16.1","","-17.2","","91","","25","","6","","25.0","","100.27","","","","-21","","Clear"
"1954-02-01 04:00","1954","02","01","04:00","-16.1","","-17.2","","91","","25","","6","","25.0","","100.16","","","","-21","","Clear"
"1954-02-01 05:00","1954","02","01","05:00","-16.1","","-18.3","","83","","36","","6","","12.9","","100.08","","","","-21","","Cloudy"
"1954-02-01 06:00","1954","02","01","06:00","-15.0","","-16.7","","87","","36","","6","","12.9","","100.01","","","","-19","","Cloudy"
"1954-02-01 07:00","1954","02","01","07:00","-13.3","","-14.4","","91","","9","","6","","16.1","","99.95","","","","-17","","Cloudy"
"1954-02-01 08:00","1954","02","01","08:00","-12.2","","-13.9","","87","","5","","6","","11.3","","99.85","","","","-16","","Snow"
"1954-02-01 09:00","1954","02","01","09:00","-10.6","","-12.2","","87","","5","","3","","0.8","","99.80","","","","-12","","Snow,Haze"
"1954-02-01 10:00","1954","02","01","10:00","-8.9","","-10.6","","88","","14","","5","","0.8","","99.65","","","","-12","","Snow,Haze"
"1954-02-01 11:00","1954","02","01","11:00","-6.1","","-7.2","","92","","14","","3","","0.8","","99.56","","","","-8","","Snow,Haze"
"1954-02-01 12:00","1954","02","01","12:00","-3.3","","-3.9","","96","","16","","18","","0.8","","99.40","","","","-9","","Snow,Haze"
"1954-02-01 13:00","1954","02","01","13:00","-2.2","","-3.3","","92","","14","","18","","0.8","","99.26","","","","-8","","Snow,Haze"
"1954-02-01 14:00","1954","02","01","14:00","-2.2","","-3.9","","88","","14","","23","","0.8","","99.18","","","","-8","","Snow,Haze"
"1954-02-01 15:00","1954","02","01","15:00","-1.7","","-3.3","","88","","16","","19","","2.4","","99.08","","","","-7","","Snow,Haze"
"1954-02-01 16:00","1954","02","01","16:00","-1.7","","-3.3","","88","","16","","18","","2.4","","98.93","","","","-7","","Snow,Haze"
"1954-02-01 17:00","1954","02","01","17:00","-1.1","","-1.7","","96","","16","","13","","2.4","","98.91","","","","-5","","Snow,Haze"
"1954-02-01 18:00","1954","02","01","18:00","-1.1","","-1.1","","100","","16","","19","","2.4","","98.86","","","","-6","","Snow,Haze"
"1954-02-01 19:00","1954","02","01","19:00","-1.1","","-1.1","","100","","18","","29","","2.4","","98.81","","","","-8","","Snow,Fog"
"1954-02-01 20:00","1954","02","01","20:00","-0.6","","-1.1","","96","","18","","16","","6.4","","98.71","","","","-5","","Haze"
"1954-02-01 21:00","1954","02","01","21:00","0.0","","-1.1","","92","","18","","11","","6.4","","98.68","","","","-4","","Snow,Haze"
"1954-02-01 22:00","1954","02","01","22:00","0.0","","-0.6","","96","","20","","11","","16.1","","98.63","","","","-4","","Cloudy"
"1954-02-01 23:00","1954","02","01","23:00","0.0","","-1.7","","88","","20","","16","","9.7","","98.55","","","","-5","","Haze"
"1954-02-02 00:00","1954","02","02","00:00","0.0","","-0.6","","96","","18","","19","","9.7","","98.50","","","","-5","","Haze"
"1954-02-02 01:00","1954","02","02","01:00","-0.6","","-1.1","","96","","18","","16","","11.3","","98.45","","","","-5","","Mainly Clear"
"1954-02-02 02:00","1954","02","02","02:00","-0.6","","-2.2","","88","","20","","10","","11.3","","98.47","","","","-4","","Cloudy"
"1954-02-02 03:00","1954","02","02","03:00","-1.1","","-3.3","","85","","23","","16","","11.3","","98.47","","","","-6","","Cloudy"
"1954-02-02 04:00","1954","02","02","04:00","-1.1","","-2.8","","88","","25","","26","","11.3","","98.46","","","","-7","","Cloudy"
"1954-02-02 05:00","1954","02","02","05:00","-1.1","","-2.2","","92","","23","","13","","9.7","","98.45","","","","-5","","Haze"
"1954-02-02 06:00","1954","02","02","06:00","-1.1","","-2.2","","92","","23","","23","","9.7","","98.45","","","","-7","","Haze"
"1954-02-02 07:00","1954","02","02","07:00","-1.1","","-2.8","","88","","23","","26","","8.0","","98.45","","","","-7","","Haze"
"1954-02-02 08:00","1954","02","02","08:00","-2.2","","-3.3","","92","","25","","23","","11.3","","98.43","","","","-8","","Mostly Cloudy"
"1954-02-02 09:00","1954","02","02","09:00","-2.2","","-3.3","","92","","25","","32","","4.8","","98.45","","","","-10","","Haze"
"1954-02-02 10:00","1954","02","02","10:00","-1.7","","-2.8","","92","","23","","24","","4.8","","98.45","","","","-8","","Haze"
"1954-02-02 11:00","1954","02","02","11:00","-1.7","","-2.8","","92","","23","","23","","3.2","","98.50","","","","-8","","Haze"
"1954-02-02 12:00","1954","02","02","12:00","-0.6","","-2.2","","88","","23","","18","","3.2","","98.36","","","","-6","","Haze"
"1954-02-02 13:00","1954","02","02","13:00","0.0","","-1.7","","88","","23","","21","","3.2","","98.32","","","","-5","","Haze"
"1954-02-02 14:00","1954","02","02","14:00","0.6","","-0.6","","92","","23","","18","","4.0","","98.25","","","","","","Haze"
"1954-02-02 15:00","1954","02","02","15:00","0.6","","-0.6","","92","","23","","16","","4.8","","98.26","","","","","","Haze"
"1954-02-02 16:00","1954","02","02","16:00","1.1","","-1.1","","85","","23","","14","","4.8","","98.30","","","","","","Haze"
"1954-02-02 17:00","1954","02","02","17:00","1.1","","-1.1","","85","","23","","13","","4.8","","98.32","","","","","","Haze"
"1954-02-02 18:00","1954","02","02","18:00","1.1","","-1.1","","85","","25","","23","","24.1","","98.36","","","","","","Cloudy"
"1954-02-02 19:00","1954","02","02","19:00","0.6","","-2.2","","82","","25","","26","","25.0","","98.40","","","","","","Cloudy"
"1954-02-02 20:00","1954","02","02","20:00","0.0","","-1.1","","92","","27","","21","","25.0","","98.43","","","","-5","","Cloudy"
"1954-02-02 21:00","1954","02","02","21:00","0.0","","-1.1","","92","","25","","14","","25.0","","98.42","","","","-4","","Mostly Cloudy"
"1954-02-02 22:00","1954","02","02","22:00","-1.1","","-3.9","","81","","25","","6","","25.0","","98.43","","","","-3","","Mostly Cloudy"
"1954-02-02 23:00","1954","02","02","23:00","-0.6","","-3.3","","81","","18","","11","","24.1","","98.47","","","","-4","","Cloudy"
"1954-02-03 00:00","1954","02","03","00:00","-0.6","","-3.9","","78","","18","","10","","19.3","","98.48","","","","-4","","Cloudy"
"1954-02-03 01:00","1954","02","03","01:00","-0.6","","-2.8","","85","","20","","13","","19.3","","98.47","","","","-5","","Cloudy"
"1954-02-03 02:00","1954","02","03","02:00","-1.7","","-3.9","","85","","23","","11","","24.1","","98.45","","","","-6","","Mainly Clear"
"1954-02-03 03:00","1954","02","03","03:00","-1.7","","-3.9","","85","","23","","6","","24.1","","98.46","","","","-4","","Mostly Cloudy"
"1954-02-03 04:00","1954","02","03","04:00","-1.7","","-3.9","","85","","23","","3","","24.1","","98.46","","","","-3","","Mostly Cloudy"
"1954-02-03 05:00","1954","02","03","05:00","-2.2","","-3.9","","88","","27","","5","","19.3","","98.50","","","","-4","","Cloudy"
"1954-02-03 06:00","1954","02","03","06:00","-2.2","","-3.9","","88","","27","","3","","24.1","","98.57","","","","-3","","Snow"
"1954-02-03 07:00","1954","02","03","07:00","-2.2","","-4.4","","85","","27","","3","","8.0","","98.63","","","","-3","","Snow"
"1954-02-03 08:00","1954","02","03","08:00","-1.7","","-3.9","","85","","36","","3","","6.4","","98.70","","","","-3","","Snow,Fog"
"1954-02-03 09:00","1954","02","03","09:00","-0.6","","-2.2","","88","","29","","5","","6.4","","98.84","","","","-2","","Snow,Haze"
"1954-02-03 10:00","1954","02","03","10:00","0.0","","-0.6","","96","","29","","5","","9.7","","98.80","","","","-2","","Haze"
"1954-02-03 11:00","1954","02","03","11:00","0.6","","-1.1","","88","","36","","5","","12.9","","98.84","","","","","","Cloudy"
"1954-02-03 12:00","1954","02","03","12:00","1.1","","-1.7","","82","","36","","8","","25.0","","98.80","","","","","","Mostly Cloudy"
"1954-02-03 13:00","1954","02","03","13:00","1.7","","-3.3","","75","","36","","8","","25.0","","98.73","","","","","","Mainly Clear"
"1954-02-03 14:00","1954","02","03","14:00","2.8","","0.0","","82","","29","","5","","25.0","","98.71","","","","","","Mostly Cloudy"
"1954-02-03 15:00","1954","02","03","15:00","1.7","","-3.3","","69","","32","","18","","25.0","","98.73","","","","","","Mostly Cloudy"
"1954-02-03 16:00","1954","02","03","16:00","1.1","","-4.4","","66","","29","","14","","25.0","","98.76","","","","","","Mostly Cloudy"
"1954-02-03 17:00","1954","02","03","17:00","-0.6","","-5.0","","72","","32","","26","","25.0","","98.82","","","","-7","","Mostly Cloudy"
"1954-02-03 18:00","1954","02","03","18:00","-2.8","","-6.7","","75","","29","","16","","25.0","","98.85","","","","-8","","Mainly Clear"
"1954-02-03 19:00","1954","02","03","19:00","-3.9","","-6.1","","85","","29","","14","","25.0","","98.85","","","","-9","","Mainly Clear"
"1954-02-03 20:00","1954","02","03","20:00","-5.0","","-6.1","","92","","29","","18","","25.0","","98.87","","","","-11","","Mainly Clear"
"1954-02-03 21:00","1954","02","03","21:00","-3.9","","-4.4","","96","","29","","14","","25.0","","98.79","","","","-9","","Mainly Clear"
"1954-02-03 22:00","1954","02","03","22:00","-3.9","","-4.4","","96","","29","","11","","25.0","","98.78","","","","-8","","Cloudy"
"1954-02-03 23:00","1954","02","03","23:00","-3.3","","-3.9","","96","","29","","16","","25.0","","98.75","","","","-9","","Mostly Cloudy"
"1954-02-04 00:00","1954","02","04","00:00","-3.3","","-6.1","","81","","29","","13","","25.0","","98.74","","","","-8","","Cloudy"
"1954-02-04 01:00","1954","02","04","01:00","-3.3","","-5.6","","85","","34","","8","","25.0","","98.72","","","","-7","","Cloudy"
"1954-02-04 02:00","1954","02","04","02:00","-3.9","","-5.6","","88","","27","","3","","25.0","","98.71","","","","-5","","Cloudy"
"1954-02-04 03:00","1954","02","04","03:00","-3.9","","-5.6","","88","","27","","6","","25.0","","98.68","","","","-7","","Snow"
"1954-02-04 04:00","1954","02","04","04:00","-4.4","","-5.6","","92","","23","","8","","25.0","","98.63","","","","-8","","Cloudy"
"1954-02-04 05:00","1954","02","04","05:00","-4.4","","-6.1","","88","","23","","6","","24.1","","98.62","","","","-7","","Snow"
"1954-02-04 06:00","1954","02","04","06:00","-4.4","","-5.6","","92","","23","","5","","24.1","","98.59","","","","-7","","Snow"
"1954-02-04 07:00","1954","02","04","07:00","-4.4","","-6.1","","88","","27","","8","","19.3","","98.59","","","","-8","","Mostly Cloudy"
"1954-02-04 08:00","1954","02","04","08:00","-4.4","","-7.8","","78","","27","","8","","16.1","","98.59","","","","-8","","Mostly Cloudy"
"1954-02-04 09:00","1954","02","04","09:00","-2.8","","-5.0","","85","","29","","13","","16.1","","98.58","","","","-7","","Mostly Cloudy"
"1954-02-04 10:00","1954","02","04","10:00","-2.8","","-6.1","","81","","32","","19","","16.1","","98.59","","","","-9","","Mostly Cloudy"
"1954-02-04 11:00","1954","02","04","11:00","-2.2","","-4.4","","85","","32","","16","","16.1","","98.62","","","","-7","","Mostly Cloudy"
"1954-02-04 12:00","1954","02","04","12:00","-1.1","","-5.0","","75","","36","","16","","24.1","","98.59","","","","-6","","Mostly Cloudy"
"1954-02-04 13:00","1954","02","04","13:00","-1.7","","-5.0","","78","","32","","21","","24.1","","98.56","","","","-8","","Mostly Cloudy"
"1954-02-04 14:00","1954","02","04","14:00","-2.2","","-3.9","","88","","36","","14","","4.8","","98.53","","","","-7","","Snow Showers"
"1954-02-04 15:00","1954","02","04","15:00","-1.7","","-4.4","","81","","36","","19","","16.1","","98.53","","","","-7","","Mostly Cloudy"
"1954-02-04 16:00","1954","02","04","16:00","-1.7","","-5.6","","75","","34","","29","","25.0","","98.52","","","","-9","","Mostly Cloudy"
"1954-02-04 17:00","1954","02","04","17:00","-2.2","","-4.4","","85","","36","","27","","25.0","","98.59","","","","-9","","Mostly Cloudy"
"1954-02-04 18:00","1954","02","04","18:00","-3.3","","-6.1","","81","","32","","19","","25.0","","98.61","","","","-9","","Mostly Cloudy"
"1954-02-04 19:00","1954","02","04","19:00","-3.3","","-6.1","","81","","32","","19","","25.0","","98.62","","","","-9","","Mostly Cloudy"
"1954-02-04 20:00","1954","02","04","20:00","-4.4","","-7.8","","78","","32","","21","","25.0","","98.61","","","","-11","","Mostly Cloudy"
"1954-02-04 21:00","1954","02","04","21:00","-2.8","","-6.7","","75","","34","","24","","25.0","","98.59","","","","-9","","Mostly Cloudy"
"1954-02-04 22:00","1954","02","04","22:00","-2.8","","-6.1","","78","","34","","29","","25.0","","98.57","","","","-10","","Cloudy"
"1954-02-04 23:00","1954","02","04","23:00","-2.8","","-5.6","","81","","34","","29","","25.0","","98.53","","","","-10","","Cloudy"
"1954-02-05 00:00","1954","02","05","00:00","-3.3","","-5.0","","88","","34","","24","","25.0","","98.56","","","","-10","","Mainly Clear"
"1954-02-05 01:00","1954","02","05","01:00","-3.9","","-6.7","","81","","34","","27","","25.0","","98.54","","","","-11","","Mainly Clear"
"1954-02-05 02:00","1954","02","05","02:00","-3.9","","-6.7","","81","","34","","27","","25.0","","98.51","","","","-11","","Mainly Clear"
"1954-02-05 03:00","1954","02","05","03:00","-4.4","","-7.8","","78","","32","","19","","25.0","","98.50","","","","-11","","Clear"
"1954-02-05 04:00","1954","02","05","04:00","-4.4","","-7.8","","78","","34","","26","","25.0","","98.43","","","","-12","","Mainly Clear"
"1954-02-05 05:00","1954","02","05","05:00","-4.4","","-6.7","","84","","32","","19","","25.0","","98.44","","","","-11","","Mainly Clear"
"1954-02-05 06:00","1954","02","05","06:00","-5.6","","-7.8","","84","","29","","19","","25.0","","98.48","","","","-12","","Mostly Cloudy"
"1954-02-05 07:00","1954","02","05","07:00","-6.7","","-8.9","","84","","27","","13","","25.0","","98.50","","","","-12","","Mainly Clear"
"1954-02-05 08:00","1954","02","05","08:00","-4.4","","-8.9","","71","","34","","26","","25.0","","98.52","","","","-12","","Mainly Clear"
"1954-02-05 09:00","1954","02","05","09:00","-4.4","","-7.2","","81","","29","","16","","25.0","","98.53","","","","-10","","Mainly Clear"
"1954-02-05 10:00","1954","02","05","10:00","-3.3","","-7.2","","74","","32","","23","","25.0","","98.51","","","","-10","","Mainly Clear"
"1954-02-05 11:00","1954","02","05","11:00","-2.2","","-6.1","","81","","29","","16","","25.0","","98.50","","","","-7","","Mainly Clear"
"1954-02-05 12:00","1954","02","05","12:00","-1.1","","-4.4","","78","","32","","32","","25.0","","98.44","","","","-8","","Mainly Clear"
"1954-02-05 13:00","1954","02","05","13:00","-1.1","","-4.4","","78","","32","","32","","25.0","","98.39","","","","-8","","Mainly Clear"
"1954-02-05 14:00","1954","02","05","14:00","-1.1","","-6.1","","69","","32","","23","","25.0","","98.37","","","","-7","","Mostly Cloudy"
"1954-02-05 15:00","1954","02","05","15:00","-1.1","","-3.3","","85","","32","","23","","25.0","","98.40","","","","-7","","Mostly Cloudy"
"1954-02-05 16:00","1954","02","05","16:00","-1.7","","-6.1","","72","","34","","26","","25.0","","98.38","","","","-8","","Mostly Cloudy"
"1954-02-05 17:00","1954","02","05","17:00","-2.2","","-6.1","","75","","32","","23","","25.0","","98.39","","","","-8","","Mostly Cloudy"
"1954-02-05 18:00","1954","02","05","18:00","-3.9","","-6.7","","81","","36","","16","","25.0","","98.42","","","","-9","","Cloudy"
"1954-02-05 19:00","1954","02","05","19:00","-3.9","","-6.7","","81","","34","","19","","25.0","","98.45","","","","-10","","Cloudy"
"1954-02-05 20:00","1954","02","05","20:00","-5.0","","-6.7","","88","","34","","23","","25.0","","98.48","","","","-12","","Cloudy"
"1954-02-05 21:00","1954","02","05","21:00","-3.9","","-6.1","","85","","34","","16","","25.0","","98.49","","","","-9","","Cloudy"
"1954-02-05 22:00","1954","02","05","22:00","-4.4","","-6.7","","84","","29","","26","","25.0","","98.49","","","","-12","","Cloudy"
"1954-02-05 23:00","1954","02","05","23:00","-4.4","","-6.7","","84","","34","","27","","25.0","","98.52","","","","-12","","Cloudy"
"1954-02-06 00:00","1954","02","06","00:00","-5.0","","-8.3","","77","","34","","32","","25.0","","98.54","","","","-13","","Mainly Clear"
"1954-02-06 01:00","1954","02","06","01:00","-5.6","","-8.3","","81","","34","","26","","25.0","","98.54","","","","-13","","Mainly Clear"
"1954-02-06 02:00","1954","02","06","02:00","-5.6","","-8.3","","81","","34","","35","","25.0","","98.57","","","","-14","","Mainly Clear"
"1954-02-06 03:00","1954","02","06","03:00","-5.6","","-7.2","","88","","32","","26","","25.0","","98.62","","","","-13","","Snow Showers"
"1954-02-06 04:00","1954","02","06","04:00","-6.1","","-7.8","","88","","32","","26","","19.3","","98.64","","","","-14","","Cloudy"
"1954-02-06 05:00","1954","02","06","05:00","-6.1","","-7.8","","88","","34","","37","","19.3","","98.73","","","","-15","","Snow Showers"
"1954-02-06 06:00","1954","02","06","06:00","-7.2","","-8.3","","92","","34","","19","","19.3","","98.78","","","","-14","","Snow Showers"
"1954-02-06 07:00","1954","02","06","07:00","-6.7","","-8.3","","88","","34","","26","","19.3","","98.84","","","","-15","","Cloudy"
"1954-02-06 08:00","1954","02","06","08:00","-6.7","","-7.8","","92","","34","","26","","19.3","","98.90","","","","-15","","Cloudy"
"1954-02-06 09:00","1954","02","06","09:00","-6.7","","-7.8","","92","","34","","29","","19.3","","98.93","","","","-15","","Snow Showers"
"1954-02-06 10:00","1954","02","06","10:00","-6.1","","-9.4","","77","","34","","27","","19.3","","99.00","","","","-14","","Snow Showers"
"1954-02-06 11:00","1954","02","06","11:00","-5.6","","-8.9","","77","","34","","32","","19.3","","99.08","","","","-14","","Cloudy"
"1954-02-06 12:00","1954","02","06","12:00","-5.0","","-10.6","","65","","34","","34","","19.3","","99.11","","","","-13","","Cloudy"
"1954-02-06 13:00","1954","02","06","13:00","-5.0","","-10.0","","68","","34","","29","","19.3","","99.14","","","","-13","","Snow Showers"
"1954-02-06 14:00","1954","02","06","14:00","-4.4","","-10.0","","65","","34","","35","","19.3","","99.17","","","","-13","","Mostly Cloudy"
"1954-02-06 15:00","1954","02","06","15:00","-4.4","","-10.0","","65","","34","","32","","24.1","","99.27","","","","-12","","Mostly Cloudy"
"1954-02-06 16:00","1954","02","06","16:00","-5.0","","-10.0","","68","","34","","29","","24.1","","99.35","","","","-13","","Mostly Cloudy"
"1954-02-06 17:00","1954","02","06","17:00","-6.1","","-10.0","","74","","34","","23","","24.1","","99.46","","","","-13","","Mostly Cloudy"
"1954-02-06 18:00","1954","02","06","18:00","-6.7","","-10.6","","74","","34","","23","","25.0","","99.53","","","","-14","","Mostly Cloudy"
"1954-02-06 19:00","1954","02","06","19:00","-6.7","","-10.0","","77","","34","","23","","25.0","","99.59","","","","-14","","Mostly Cloudy"
"1954-02-06 20:00","1954","02","06","20:00","-6.7","","-9.4","","81","","34","","27","","25.0","","99.62","","","","-15","","Mostly Cloudy"
"1954-02-06 21:00","1954","02","06","21:00","-6.7","","-10.0","","77","","34","","26","","25.0","","99.71","","","","-15","","Mainly Clear"
"1954-02-06 22:00","1954","02","06","22:00","-7.2","","-10.6","","77","","34","","13","","25.0","","99.81","","","","-13","","Mainly Clear"
"1954-02-06 23:00","1954","02","06","23:00","-7.8","","-11.1","","77","","34","","19","","25.0","","99.83","","","","-15","","Mainly Clear"
"1954-02-07 00:00","1954","02","07","00:00","-8.9","","-14.4","","64","","36","","29","","25.0","","99.95","","","","-18","","Clear"
"1954-02-07 01:00","1954","02","07","01:00","-10.0","","-15.0","","67","","36","","21","","25.0","","99.95","","","","-18","","Clear"
"1954-02-07 02:00","1954","02","07","02:00","-10.0","","-15.0","","67","","36","","27","","25.0","","99.94","","","","-19","","Clear"
"1954-02-07 03:00","1954","02","07","03:00","-11.1","","-15.0","","73","","36","","27","","25.0","","100.01","","","","-21","","Clear"
"1954-02-07 04:00","1954","02","07","04:00","-11.1","","-17.2","","61","","36","","24","","25.0","","100.06","","","","-20","","Clear"
"1954-02-07 05:00","1954","02","07","05:00","-12.2","","-15.6","","76","","36","","16","","25.0","","100.08","","","","-20","","Clear"
"1954-02-07 06:00","1954","02","07","06:00","-11.1","","-15.6","","70","","36","","16","","25.0","","100.15","","","","-18","","Mostly Cloudy"
"1954-02-07 07:00","1954","02","07","07:00","-10.6","","-15.0","","70","","34","","13","","25.0","","100.18","","","","-17","","Mainly Clear"
"1954-02-07 08:00","1954","02","07","08:00","-11.7","","-15.6","","73","","29","","8","","25.0","","100.20","","","","-16","","Mainly Clear"
"1954-02-07 09:00","1954","02","07","09:00","-9.4","","-13.3","","73","","29","","11","","25.0","","100.21","","","","-15","","Mostly Cloudy"
"1954-02-07 10:00","1954","02","07","10:00","-7.2","","-13.3","","62","","23","","5","","25.0","","100.12","","","","-10","","Mostly Cloudy"
"1954-02-07 11:00","1954","02","07","11:00","-2.8","","-8.3","","66","","25","","16","","25.0","","100.07","","","","-8","","Mostly Cloudy"
"1954-02-07 12:00","1954","02","07","12:00","-1.7","","-6.7","","69","","25","","31","","25.0","","99.97","","","","-9","","Mostly Cloudy"
"1954-02-07 13:00","1954","02","07","13:00","-1.7","","-6.7","","66","","25","","32","","25.0","","99.88","","","","-9","","Mostly Cloudy"
"1954-02-07 14:00","1954","02","07","14:00","-1.1","","-7.8","","61","","25","","37","","25.0","","99.66","","","","-9","","Mostly Cloudy"
"1954-02-07 15:00","1954","02","07","15:00","0.0","","-6.7","","61","","25","","27","","25.0","","99.59","","","","-6","","Mostly Cloudy"
"1954-02-07 16:00","1954","02","07","16:00","-0.6","","-7.8","","58","","25","","32","","25.0","","99.50","","","","-7","","Mostly Cloudy"
"1954-02-07 17:00","1954","02","07","17:00","-2.2","","-6.7","","72","","23","","32","","25.0","","99.40","","","","-10","","Mostly Cloudy"
"1954-02-07 18:00","1954","02","07","18:00","-2.8","","-5.0","","85","","23","","32","","25.0","","99.29","","","","-10","","Mostly Cloudy"
"1954-02-07 19:00","1954","02","07","19:00","-2.8","","-6.1","","78","","23","","29","","25.0","","99.25","","","","-10","","Mostly Cloudy"
"1954-02-07 20:00","1954","02","07","20:00","-2.2","","-4.4","","85","","23","","40","","25.0","","99.10","","","","-10","","Cloudy"
"1954-02-07 21:00","1954","02","07","21:00","-2.2","","-3.9","","88","","23","","42","","25.0","","98.82","","","","-11","","Cloudy"
"1954-02-07 22:00","1954","02","07","22:00","-2.2","","-3.9","","88","","23","","58","","25.0","","98.66","","","","-12","","Cloudy"
"1954-02-07 23:00","1954","02","07","23:00","-2.2","","-3.3","","92","","25","","58","","25.0","","98.60","","","","-12","","Cloudy"
"1954-02-08 00:00","1954","02","08","00:00","-1.7","","-2.2","","96","","23","","48","","19.3","","98.57","","","","-10","","Snow"
"1954-02-08 01:00","1954","02","08","01:00","-3.3","","-3.9","","96","","25","","51","","4.8","","98.46","","","","-13","","Snow,Blowing Snow"
"1954-02-08 02:00","1954","02","08","02:00","-2.2","","-2.8","","96","","25","","39","","16.1","","98.42","","","","-10","","Snow"
"1954-02-08 03:00","1954","02","08","03:00","-2.2","","-2.8","","96","","25","","48","","16.1","","98.30","","","","-11","","Snow"
"1954-02-08 04:00","1954","02","08","04:00","-2.2","","-3.9","","92","","23","","35","","12.9","","98.22","","","","-10","","Snow"
"1954-02-08 05:00","1954","02","08","05:00","-1.7","","-3.3","","88","","23","","40","","16.1","","98.18","","","","-10","","Cloudy"
"1954-02-08 06:00","1954","02","08","06:00","-1.7","","-3.3","","88","","23","","32","","16.1","","98.10","","","","-9","","Snow"
"1954-02-08 07:00","1954","02","08","07:00","-1.7","","-2.8","","92","","23","","19","","16.1","","98.09","","","","-7","","Snow"
"1954-02-08 08:00","1954","02","08","08:00","-1.1","","-2.8","","88","","23","","35","","16.1","","97.98","","","","-8","","Snow"
"1954-02-08 09:00","1954","02","08","09:00","-1.1","","-2.2","","92","","23","","37","","9.7","","97.89","","","","-9","","Snow"
"1954-02-08 10:00","1954","02","08","10:00","-0.6","","-1.7","","92","","23","","43","","8.0","","97.79","","","","-8","","Snow Showers"
"1954-02-08 11:00","1954","02","08","11:00","0.0","","-2.2","","85","","25","","37","","8.0","","97.74","","","","-7","","Snow Showers"
"1954-02-08 12:00","1954","02","08","12:00","0.0","","-2.2","","85","","25","","35","","8.0","","97.67","","","","-7","","Snow Showers"
"1954-02-08 13:00","1954","02","08","13:00","-0.6","","-2.2","","88","","25","","27","","12.9","","97.59","","","","-7","","Snow Showers"
"1954-02-08 14:00","1954","02","08","14:00","0.0","","-2.2","","88","","25","","11","","12.9","","97.53","","","","-4","","Snow Pellets"
"1954-02-08 15:00","1954","02","08","15:00","0.6","","-1.7","","85","","25","","10","","8.0","","97.48","","","","","","Snow"
"1954-02-08 16:00","1954","02","08","16:00","0.0","","-1.7","","88","","23","","6","","8.0","","97.49","","","","-2","","Snow,Haze"
"1954-02-08 17:00","1954","02","08","17:00","0.0","","-1.7","","88","","25","","8","","9.7","","97.49","","","","-3","","Snow,Haze"
"1954-02-08 18:00","1954","02","08","18:00","-0.6","","-1.1","","96","","23","","6","","4.0","","97.54","","","","-3","","Snow,Haze"
"1954-02-08 19:00","1954","02","08","19:00","-0.6","","-0.6","","100","","23","","8","","3.2","","97.57","","","","-3","","Snow"
"1954-02-08 20:00","1954","02","08","20:00","0.0","","-1.1","","92","","20","","5","","0.8","","97.59","","","","-2","","Fog"
"1954-02-08 21:00","1954","02","08","21:00","-1.1","","-1.1","","100","","29","","13","","0.4","","97.60","","","","-5","","Fog"
"1954-02-08 22:00","1954","02","08","22:00","-1.1","","-2.2","","92","","34","","16","","24.1","","97.65","","","","-6","","Mainly Clear"
"1954-02-08 23:00","1954","02","08","23:00","-1.1","","-2.2","","92","","34","","19","","24.1","","97.66","","","","-6","","Mainly Clear"
"1954-02-09 00:00","1954","02","09","00:00","-1.1","","-2.8","","88","","34","","13","","25.0","","97.68","","","","-5","","Clear"
"1954-02-09 01:00","1954","02","09","01:00","-1.1","","-2.8","","88","","34","","18","","25.0","","97.70","","","","-6","","Mostly Cloudy"
"1954-02-09 02:00","1954","02","09","02:00","-2.2","","-4.4","","85","","32","","19","","25.0","","97.70","","","","-8","","Mainly Clear"
"1954-02-09 03:00","1954","02","09","03:00","-3.3","","-4.4","","92","","32","","16","","25.0","","97.74","","","","-9","","Clear"
"1954-02-09 04:00","1954","02","09","04:00","-5.6","","-7.2","","88","","32","","6","","25.0","","97.77","","","","-8","","Clear"
"1954-02-09 05:00","1954","02","09","05:00","-5.6","","-7.2","","88","","34","","8","","19.3","","97.81","","","","-9","","Mostly Cloudy"
"1954-02-09 06:00","1954","02","09","06:00","-7.8","","-10.6","","81","","29","","8","","25.0","","97.83","","","","-12","","Mainly Clear"
"1954-02-09 07:00","1954","02","09","07:00","-6.1","","-7.2","","92","","34","","6","","25.0","","97.85","","","","-9","","Mainly Clear"
"1954-02-09 08:00","1954","02","09","08:00","-5.0","","-7.2","","84","","29","","13","","25.0","","97.90","","","","-10","","Mostly Cloudy"
"1954-02-09 09:00","1954","02","09","09:00","-2.2","","-3.3","","92","","29","","24","","24.1","","97.92","","","","-9","","Mostly Cloudy"
"1954-02-09 10:00","1954","02","09","10:00","0.0","","-2.2","","85","","32","","18","","24.1","","97.93","","","","-5","","Cloudy"
"1954-02-09 11:00","1954","02","09","11:00","-0.6","","-2.8","","85","","32","","21","","25.0","","97.97","","","","-6","","Mostly Cloudy"
"1954-02-09 12:00","1954","02","09","12:00","0.6","","-2.8","","78","","29","","16","","25.0","","97.99","","","","","","Mostly Cloudy"
"1954-02-09 13:00","1954","02","09","13:00","-0.6","","-2.8","","85","","36","","16","","25.0","","97.95","","","","-5","","Mostly Cloudy"
"1954-02-09 14:00","1954","02","09","14:00","0.6","","-2.8","","78","","32","","11","","25.0","","97.94","","","","","","Mostly Cloudy"
"1954-02-09 15:00","1954","02","09","15:00","-0.6","","-3.9","","78","","29","","31","","25.0","","97.97","","","","-7","","Mostly Cloudy"
"1954-02-09 16:00","1954","02","09","16:00","-1.1","","-6.1","","69","","29","","29","","25.0","","97.97","","","","-8","","Mostly Cloudy"
"1954-02-09 17:00","1954","02","09","17:00","-1.7","","-5.6","","75","","27","","32","","25.0","","97.99","","","","-9","","Cloudy"
"1954-02-09 18:00","1954","02","09","18:00","-2.2","","-5.0","","81","","27","","23","","25.0","","98.02","","","","-8","","Snow Showers"
"1954-02-09 19:00","1954","02","09","19:00","-2.2","","-5.0","","81","","32","","19","","25.0","","98.02","","","","-8","","Cloudy"
"1954-02-09 20:00","1954","02","09","20:00","-2.2","","-5.0","","81","","27","","32","","25.0","","98.06","","","","-10","","Snow Showers"
"1954-02-09 21:00","1954","02","09","21:00","-2.8","","-5.6","","81","","32","","32","","25.0","","98.09","","","","-10","","Cloudy"
"1954-02-09 22:00","1954","02","09","22:00","-2.8","","-6.1","","78","","32","","32","","25.0","","98.09","","","","-10","","Snow Showers"
"1954-02-09 23:00","1954","02","09","23:00","-3.3","","-6.7","","78","","29","","16","","25.0","","98.06","","","","-9","","Mostly Cloudy"
"1954-02-10 00:00","1954","02","10","00:00","-3.3","","-5.6","","85","","27","","16","","25.0","","98.05","","","","-9","","Cloudy"
"1954-02-10 01:00","1954","02","10","01:00","-3.9","","-5.6","","88","","23","","11","","25.0","","98.04","","","","-8","","Cloudy"
"1954-02-10 02:00","1954","02","10","02:00","-3.3","","-5.0","","88","","23","","16","","25.0","","98.02","","","","-9","","Cloudy"
"1954-02-10 03:00","1954","02","10","03:00","-3.3","","-5.6","","85","","20","","14","","25.0","","97.97","","","","-8","","Cloudy"
"1954-02-10 04:00","1954","02","10","04:00","-3.3","","-5.0","","88","","20","","8","","25.0","","97.90","","","","-7","","Cloudy"
"1954-02-10 05:00","1954","02","10","05:00","-3.3","","-5.0","","88","","18","","8","","25.0","","97.82","","","","-7","","Cloudy"
"1954-02-10 06:00","1954","02","10","06:00","-3.3","","-5.0","","88","","18","","6","","24.1","","97.74","","","","-6","","Cloudy"
"1954-02-10 07:00","1954","02","10","07:00","-2.8","","-3.9","","92","","18","","8","","16.1","","97.68","","","","-6","","Cloudy"
"1954-02-10 08:00","1954","02","10","08:00","-2.2","","-2.8","","96","","16","","11","","9.7","","97.60","","","","-6","","Haze"
"1954-02-10 09:00","1954","02","10","09:00","-1.1","","-2.2","","92","","16","","8","","8.0","","97.51","","","","-4","","Haze"
"1954-02-10 10:00","1954","02","10","10:00","-1.1","","-2.2","","92","","20","","16","","8.0","","97.45","","","","-6","","Haze"
"1954-02-10 11:00","1954","02","10","11:00","0.0","","-2.8","","82","","23","","13","","12.9","","97.45","","","","-4","","Mainly Clear"
"1954-02-10 12:00","1954","02","10","12:00","2.8","","-1.7","","72","","27","","19","","9.7","","97.41","","","","","","Haze"
"1954-02-10 13:00","1954","02","10","13:00","2.8","","-1.1","","75","","29","","32","","9.7","","97.47","","","","","","Haze"
"1954-02-10 14:00","1954","02","10","14:00","3.3","","-3.3","","62","","32","","21","","16.1","","97.54","","","","","","Mainly Clear"
"1954-02-10 15:00","1954","02","10","15:00","3.3","","-2.8","","64","","29","","13","","25.0","","97.64","","","","","","Mainly Clear"
"1954-02-10 16:00","1954","02","10","16:00","2.2","","-3.3","","67","","32","","35","","25.0","","97.74","","","","","","Mainly Clear"
"1954-02-10 17:00","1954","02","10","17:00","1.1","","-3.9","","69","","29","","31","","25.0","","97.87","","","","","","Mainly Clear"
"1954-02-10 18:00","1954","02","10","18:00","0.0","","-3.9","","75","","29","","14","","25.0","","98.00","","","","-4","","Mainly Clear"
"1954-02-10 19:00","1954","02","10","19:00","-0.6","","-4.4","","75","","29","","8","","25.0","","98.12","","","","-3","","Mainly Clear"
"1954-02-10 20:00","1954","02","10","20:00","-0.6","","-4.4","","75","","32","","10","","25.0","","98.22","","","","-4","","Mainly Clear"
"1954-02-10 21:00","1954","02","10","21:00","-0.6","","-4.4","","75","","29","","8","","25.0","","98.27","","","","-3","","Mostly Cloudy"
"1954-02-10 22:00","1954","02","10","22:00","-1.1","","-3.3","","85","","25","","8","","25.0","","98.31","","","","-4","","Snow Showers"
"1954-02-10 23:00","1954","02","10","23:00","-1.1","","-3.3","","85","","23","","10","","25.0","","98.33","","","","-5","","Cloudy"
"1954-02-11 00:00","1954","02","11","00:00","-1.1","","-1.1","","100","","25","","5","","12.9","","98.33","","","","-3","","Snow"
"1954-02-11 01:00","1954","02","11","01:00","-1.7","","-2.8","","92","","23","","10","","12.9","","98.32","","","","-5","","Mainly Clear"
"1954-02-11 02:00","1954","02","11","02:00","-3.3","","-5.0","","88","","25","","21","","25.0","","98.33","","","","-10","","Clear"
"1954-02-11 03:00","1954","02","11","03:00","-3.3","","-5.6","","85","","25","","23","","25.0","","98.32","","","","-10","","Clear"
"1954-02-11 04:00","1954","02","11","04:00","-3.3","","-5.0","","88","","25","","24","","25.0","","98.34","","","","-10","","Clear"
"1954-02-11 05:00","1954","02","11","05:00","-4.4","","-6.1","","88","","27","","19","","25.0","","98.38","","","","-11","","Clear"
"1954-02-11 06:00","1954","02","11","06:00","-4.4","","-6.7","","84","","29","","19","","25.0","","98.42","","","","-11","","Mostly Cloudy"
"1954-02-11 07:00","1954","02","11","07:00","-5.6","","-8.9","","77","","29","","14","","25.0","","98.49","","","","-11","","Mainly Clear"
"1954-02-11 08:00","1954","02","11","08:00","-5.0","","-8.3","","77","","27","","13","","25.0","","98.59","","","","-10","","Mainly Clear"
"1954-02-11 09:00","1954","02","11","09:00","-3.9","","-5.6","","88","","27","","29","","25.0","","98.62","","","","-11","","Clear"
"1954-02-11 10:00","1954","02","11","10:00","-3.3","","-7.2","","74","","27","","37","","25.0","","98.66","","","","-12","","Mainly Clear"
"1954-02-11 11:00","1954","02","11","11:00","-4.4","","-7.8","","78","","29","","39","","25.0","","98.78","","","","-13","","Mostly Cloudy"
"1954-02-11 12:00","1954","02","11","12:00","-4.4","","-7.8","","78","","29","","37","","25.0","","98.85","","","","-13","","Mainly Clear"
"1954-02-11 13:00","1954","02","11","13:00","-5.0","","-10.6","","65","","29","","42","","25.0","","98.92","","","","-14","","Mostly Cloudy"
"1954-02-11 14:00","1954","02","11","14:00","-6.1","","-8.3","","84","","32","","32","","25.0","","99.09","","","","-15","","Mostly Cloudy"
"1954-02-11 15:00","1954","02","11","15:00","-6.1","","-8.9","","81","","32","","31","","16.1","","99.21","","","","-15","","Mostly Cloudy"
"1954-02-11 16:00","1954","02","11","16:00","-7.2","","-11.1","","74","","32","","32","","19.3","","99.34","","","","-16","","Mostly Cloudy"
"1954-02-11 17:00","1954","02","11","17:00","-8.9","","-15.6","","59","","32","","42","","25.0","","99.46","","","","-20","","Mainly Clear"
"1954-02-11 18:00","1954","02","11","18:00","-10.0","","-15.6","","64","","32","","35","","25.0","","99.58","","","","-20","","Clear"
"1954-02-11 19:00","1954","02","11","19:00","-10.6","","-20.0","","46","","32","","29","","25.0","","99.70","","","","-20","","Clear"
"1954-02-11 20:00","1954","02","11","20:00","-11.7","","-17.8","","61","","32","","35","","25.0","","99.82","","","","-22","","Clear"
"1954-02-11 21:00","1954","02","11","21:00","-11.7","","-17.8","","61","","32","","29","","25.0","","99.90","","","","-22","","Clear"
"1954-02-11 22:00","1954","02","11","22:00","-11.7","","-17.8","","61","","36","","26","","25.0","","100.04","","","","-21","","Clear"
"1954-02-11 23:00","1954","02","11","23:00","-14.4","","-16.7","","83","","36","","14","","25.0","","100.15","","","","-22","","Clear"
"1954-02-12 00:00","1954","02","12","00:00","-15.6","","-18.3","","79","","36","","18","","25.0","","100.24","","","","-24","","Clear"
"1954-02-12 01:00","1954","02","12","01:00","-16.1","","-18.9","","79","","36","","13","","25.0","","100.34","","","","-24","","Clear"
"1954-02-12 02:00","1954","02","12","02:00","-17.2","","-21.1","","72","","36","","29","","25.0","","100.47","","","","-29","","Clear"
"1954-02-12 03:00","1954","02","12","03:00","-18.3","","-23.3","","65","","36","","29","","25.0","","100.55","","","","-30","","Clear"
"1954-02-12 04:00","1954","02","12","04:00","-19.4","","-24.4","","64","","36","","26","","25.0","","100.65","","","","-31","","Clear"
"1954-02-12 05:00","1954","02","12","05:00","-20.6","","-25.0","","67","","36","","23","","25.0","","100.73","","","","-32","","Clear"
"1954-02-12 06:00","1954","02","12","06:00","-21.1","","-26.1","","64","","36","","16","","25.0","","100.83","","","","-31","","Clear"
"1954-02-12 07:00","1954","02","12","07:00","-21.7","","-26.1","","67","","36","","11","","25.0","","100.89","","","","-30","","Clear"
"1954-02-12 08:00","1954","02","12","08:00","-21.7","","-26.1","","67","","29","","8","","25.0","","101.00","","","","-28","","Clear"
"1954-02-12 09:00","1954","02","12","09:00","-20.6","","-25.6","","64","","36","","10","","25.0","","101.08","","","","-28","","Clear"
"1954-02-12 10:00","1954","02","12","10:00","-19.4","","-25.0","","61","","2","","10","","25.0","","101.07","","","","-26","","Clear"
"1954-02-12 11:00","1954","02","12","11:00","-17.8","","-21.1","","75","","23","","8","","25.0","","101.09","","","","-24","","Clear"
"1954-02-12 12:00","1954","02","12","12:00","-16.1","","-18.3","","87","","18","","8","","25.0","","100.96","","","","-22","","Clear"
"1954-02-12 13:00","1954","02","12","13:00","-14.4","","-19.4","","66","","18","","16","","25.0","","100.93","","","","-22","","Clear"
"1954-02-12 14:00","1954","02","12","14:00","-11.7","","-17.2","","67","","16","","24","","25.0","","100.98","","","","-21","","Mainly Clear"
"1954-02-12 15:00","1954","02","12","15:00","-10.0","","-15.6","","64","","20","","18","","24.1","","100.86","","","","-17","","Mainly Clear"
"1954-02-12 16:00","1954","02","12","16:00","-11.1","","-14.4","","76","","23","","23","","24.1","","100.86","","","","-20","","Mainly Clear"
"1954-02-12 17:00","1954","02","12","17:00","-11.7","","-15.0","","76","","23","","26","","24.1","","100.86","","","","-21","","Mostly Cloudy"
"1954-02-12 18:00","1954","02","12","18:00","-11.7","","-15.6","","73","","25","","14","","19.3","","100.86","","","","-19","","Snow Showers"
"1954-02-12 19:00","1954","02","12","19:00","-11.7","","-15.0","","76","","23","","8","","19.3","","100.86","","","","-16","","Snow Showers"
"1954-02-12 20:00","1954","02","12","20:00","-12.8","","-16.7","","73","","23","","14","","25.0","","100.82","","","","-20","","Clear"
"1954-02-12 21:00","1954","02","12","21:00","-13.3","","-17.8","","69","","23","","14","","25.0","","100.86","","","","-21","","Mainly Clear"
"1954-02-12 22:00","1954","02","12","22:00","-13.3","","-16.7","","76","","23","","18","","25.0","","100.86","","","","-22","","Cloudy"
"1954-02-12 23:00","1954","02","12","23:00","-12.2","","-14.4","","84","","25","","18","","24.1","","100.95","","","","-20","","Cloudy"
"1954-02-13 00:00","1954","02","13","00:00","-12.2","","-15.0","","80","","25","","11","","25.0","","100.97","","","","-18","","Mostly Cloudy"
"1954-02-13 01:00","1954","02","13","01:00","-12.2","","-15.6","","76","","27","","6","","25.0","","100.97","","","","-16","","Cloudy"
"1954-02-13 02:00","1954","02","13","02:00","-11.7","","-16.1","","70","","29","","3","","25.0","","100.99","","","","-14","","Cloudy"
"1954-02-13 03:00","1954","02","13","03:00","-11.7","","-15.6","","73","","5","","3","","25.0","","100.97","","","","-14","","Mostly Cloudy"
"1954-02-13 04:00","1954","02","13","04:00","-12.2","","-15.0","","80","","5","","2","","25.0","","100.94","","","","-13","","Mainly Clear"
"1954-02-13 05:00","1954","02","13","05:00","-11.1","","-15.6","","70","","5","","5","","25.0","","100.93","","","","-14","","Mostly Cloudy"
"1954-02-13 06:00","1954","02","13","06:00","-11.1","","-15.6","","70","","16","","6","","25.0","","100.88","","","","-15","","Mostly Cloudy"
"1954-02-13 07:00","1954","02","13","07:00","-11.1","","-15.6","","70","","18","","6","","19.3","","100.89","","","","-15","","Mostly Cloudy"
"1954-02-13 08:00","1954","02","13","08:00","-10.6","","-14.4","","73","","20","","6","","12.9","","100.88","","","","-14","","Snow Showers"
"1954-02-13 09:00","1954","02","13","09:00","-10.0","","-11.7","","88","","18","","5","","4.0","","100.90","","","","-13","","Snow,Haze"
"1954-02-13 10:00","1954","02","13","10:00","-11.7","","-13.9","","84","","18","","8","","0.8","","100.85","","","","-16","","Snow,Haze"
"1954-02-13 11:00","1954","02","13","11:00","-11.1","","-13.3","","84","","18","","26","","0.8","","100.76","","","","-20","","Snow,Haze"
"1954-02-13 12:00","1954","02","13","12:00","-6.7","","-8.9","","84","","18","","29","","1.2","","100.65","","","","-15","","Snow,Haze"
"1954-02-13 13:00","1954","02","13","13:00","-6.7","","-7.8","","92","","20","","27","","1.6","","100.53","","","","-15","","Snow,Haze"
"1954-02-13 14:00","1954","02","13","14:00","-6.7","","-7.8","","92","","16","","26","","4.8","","100.42","","","","-15","","Snow,Haze"
"1954-02-13 15:00","1954","02","13","15:00","-6.1","","-7.2","","92","","25","","23","","2.0","","100.29","","","","-13","","Snow,Haze"
"1954-02-13 16:00","1954","02","13","16:00","-5.6","","-7.2","","88","","16","","24","","4.8","","100.23","","","","-13","","Snow,Haze"
"1954-02-13 17:00","1954","02","13","17:00","-5.6","","-7.2","","88","","16","","23","","8.0","","100.13","","","","-13","","Haze"
"1954-02-13 18:00","1954","02","13","18:00","-5.0","","-7.2","","84","","16","","23","","12.9","","100.06","","","","-12","","Cloudy"
"1954-02-13 19:00","1954","02","13","19:00","-4.4","","-6.1","","88","","16","","23","","19.3","","100.02","","","","-11","","Cloudy"
"1954-02-13 20:00","1954","02","13","20:00","-3.9","","-5.6","","88","","16","","23","","24.1","","99.92","","","","-11","","Cloudy"
"1954-02-13 21:00","1954","02","13","21:00","-3.3","","-5.6","","85","","16","","18","","24.1","","99.85","","","","-9","","Cloudy"
"1954-02-13 22:00","1954","02","13","22:00","-3.3","","-5.6","","85","","14","","16","","24.1","","99.85","","","","-9","","Cloudy"
"1954-02-13 23:00","1954","02","13","23:00","-2.8","","-5.6","","81","","14","","14","","24.1","","99.79","","","","-8","","Cloudy"
"1954-02-14 00:00","1954","02","14","00:00","-2.8","","-4.4","","88","","14","","16","","24.1","","99.67","","","","-8","","Cloudy"
"1954-02-14 01:00","1954","02","14","01:00","-2.8","","-5.0","","85","","14","","16","","24.1","","99.48","","","","-8","","Cloudy"
"1954-02-14 02:00","1954","02","14","02:00","-2.8","","-5.0","","85","","11","","6","","24.1","","99.38","","","","-5","","Cloudy"
"1954-02-14 03:00","1954","02","14","03:00","-2.2","","-4.4","","85","","11","","10","","24.1","","99.28","","","","-6","","Cloudy"
"1954-02-14 04:00","1954","02","14","04:00","-1.7","","-5.0","","78","","14","","10","","24.1","","99.20","","","","-5","","Cloudy"
"1954-02-14 05:00","1954","02","14","05:00","-1.1","","-5.0","","75","","14","","14","","24.1","","99.04","","","","-6","","Cloudy"
"1954-02-14 06:00","1954","02","14","06:00","0.0","","-3.9","","75","","16","","8","","24.1","","99.03","","","","-3","","Cloudy"
"1954-02-14 07:00","1954","02","14","07:00","0.0","","-2.2","","85","","14","","8","","16.1","","99.00","","","","-3","","Cloudy"
"1954-02-14 08:00","1954","02","14","08:00","0.0","","-2.2","","85","","14","","5","","16.1","","98.98","","","","-2","","Mostly Cloudy"
"1954-02-14 09:00","1954","02","14","09:00","-2.2","","-5.0","","81","","20","","5","","4.8","","98.93","","","","-4","","Smoke,Haze"
"1954-02-14 10:00","1954","02","14","10:00","2.2","","-3.3","","67","","18","","10","","6.4","","98.90","","","","","","Smoke,Haze"
"1954-02-14 11:00","1954","02","14","11:00","4.4","","-2.8","","59","","18","","10","","6.4","","98.90","","","","","","Smoke,Haze"
"1954-02-14 12:00","1954","02","14","12:00","6.1","","0.0","","65","","18","","21","","6.4","","98.80","","","","","","Smoke,Haze"
"1954-02-14 13:00","1954","02","14","13:00","7.2","","1.1","","65","","18","","21","","9.7","","98.70","","","","","","Haze"
"1954-02-14 14:00","1954","02","14","14:00","7.2","","1.1","","65","","18","","19","","12.9","","98.69","","","","","","Clear"
"1954-02-14 15:00","1954","02","14","15:00","6.7","","1.1","","68","","20","","21","","12.9","","98.67","","","","","","Mainly Clear"
"1954-02-14 16:00","1954","02","14","16:00","6.7","","1.7","","70","","20","","19","","12.9","","98.72","","","","","","Mainly Clear"
"1954-02-14 17:00","1954","02","14","17:00","6.1","","1.7","","73","","18","","10","","11.3","","98.77","","","","","","Cloudy"
"1954-02-14 18:00","1954","02","14","18:00","6.1","","2.2","","76","","14","","11","","11.3","","98.87","","","","","","Cloudy"
"1954-02-14 19:00","1954","02","14","19:00","6.1","","3.3","","82","","16","","10","","16.1","","98.83","","","","","","Cloudy"
"1954-02-14 20:00","1954","02","14","20:00","6.1","","2.8","","79","","14","","8","","16.1","","99.00","","","","","","Cloudy"
"1954-02-14 21:00","1954","02","14","21:00","6.7","","3.9","","82","","16","","8","","16.1","","99.00","","","","","","Cloudy"
"1954-02-14 22:00","1954","02","14","22:00","6.1","","3.3","","82","","16","","5","","12.9","","99.01","","","","","","Mostly Cloudy"
"1954-02-14 23:00","1954","02","14","23:00","6.1","","3.3","","82","","16","","11","","9.7","","99.03","","","","","","Haze"
"1954-02-15 00:00","1954","02","15","00:00","5.0","","3.9","","93","","18","","10","","9.7","","99.04","","","","","","Haze"
"1954-02-15 01:00","1954","02","15","01:00","6.1","","4.4","","89","","20","","8","","9.7","","99.01","","","","","","Haze"
"1954-02-15 02:00","1954","02","15","02:00","5.6","","4.4","","93","","20","","8","","9.7","","99.00","","","","","","Fog"
"1954-02-15 03:00","1954","02","15","03:00","5.6","","4.4","","93","","18","","6","","6.4","","98.97","","","","","","Rain Showers,Fog"
"1954-02-15 04:00","1954","02","15","04:00","6.1","","6.1","","100","","18","","5","","4.8","","98.96","","","","","","Rain,Fog"
"1954-02-15 05:00","1954","02","15","05:00","5.6","","5.0","","96","","18","","8","","4.8","","98.96","","","","","","Fog"
"1954-02-15 06:00","1954","02","15","06:00","5.0","","3.9","","93","","18","","10","","2.4","","98.97","","","","","","Fog"
"1954-02-15 07:00","1954","02","15","07:00","5.6","","4.4","","93","","18","","11","","2.4","","98.98","","","","","","Fog"
"1954-02-15 08:00","1954","02","15","08:00","6.7","","5.0","","89","","20","","19","","6.4","","98.98","","","","","","Fog"
"1954-02-15 09:00","1954","02","15","09:00","6.7","","5.0","","89","","20","","16","","9.7","","98.98","","","","","","Haze"
"1954-02-15 10:00","1954","02","15","10:00","7.8","","5.6","","86","","18","","8","","9.7","","98.92","","","","","","Haze"
"1954-02-15 11:00","1954","02","15","11:00","9.4","","5.0","","74","","23","","27","","9.7","","98.89","","","","","","Haze"
"1954-02-15 12:00","1954","02","15","12:00","10.6","","8.9","","89","","23","","26","","9.7","","98.85","","","","","","Haze"
"1954-02-15 13:00","1954","02","15","13:00","11.1","","8.9","","86","","25","","32","","11.3","","98.78","","","","","","Mostly Cloudy"
"1954-02-15 14:00","1954","02","15","14:00","12.2","","9.4","","83","","23","","34","","11.3","","98.72","","","","","","Mainly Clear"
"1954-02-15 15:00","1954","02","15","15:00","11.7","","9.4","","86","","25","","21","","11.3","","98.78","","","","","","Mostly Cloudy"
"1954-02-15 16:00","1954","02","15","16:00","11.7","","9.4","","86","","25","","27","","9.7","","98.81","","","","","","Haze"
"1954-02-15 17:00","1954","02","15","17:00","11.7","","8.9","","83","","23","","29","","9.7","","98.89","","","","","","Haze"
"1954-02-15 18:00","1954","02","15","18:00","11.7","","10.0","","90","","23","","19","","12.9","","99.02","","","","","","Cloudy"
"1954-02-15 19:00","1954","02","15","19:00","11.7","","10.0","","90","","20","","11","","12.9","","99.09","","","","","","Cloudy"
"1954-02-15 20:00","1954","02","15","20:00","11.1","","9.4","","90","","20","","11","","12.9","","99.17","","","","","","Cloudy"
"1954-02-15 21:00","1954","02","15","21:00","10.0","","8.9","","93","","29","","14","","4.8","","99.25","","","","","","Rain Showers"
"1954-02-15 22:00","1954","02","15","22:00","10.6","","9.4","","93","","32","","19","","4.8","","99.30","","","","","","Fog"
"1954-02-15 23:00","1954","02","15","23:00","9.4","","7.8","","89","","36","","27","","9.7","","99.38","","","","","","Fog"
"1954-02-16 00:00","1954","02","16","00:00","5.6","","3.9","","89","","36","","26","","12.9","","99.41","","","","","","Cloudy"
"1954-02-16 01:00","1954","02","16","01:00","4.4","","3.9","","96","","36","","16","","9.7","","99.50","","","","","","Fog"
"1954-02-16 02:00","1954","02","16","02:00","4.4","","3.3","","93","","36","","24","","9.7","","99.58","","","","","","Fog"
"1954-02-16 03:00","1954","02","16","03:00","3.9","","3.9","","100","","34","","19","","4.8","","99.61","","","","","","Rain,Fog"
"1954-02-16 04:00","1954","02","16","04:00","3.3","","2.8","","96","","2","","26","","12.9","","99.60","","","","","","Rain"
"1954-02-16 05:00","1954","02","16","05:00","3.3","","2.8","","96","","2","","21","","4.8","","99.56","","","","","","Moderate Rain"
"1954-02-16 06:00","1954","02","16","06:00","2.8","","1.7","","92","","5","","26","","6.4","","99.64","","","","","","Rain"
"1954-02-16 07:00","1954","02","16","07:00","1.1","","0.6","","96","","5","","23","","1.2","","99.82","","","","","","Snow"
"1954-02-16 08:00","1954","02","16","08:00","0.0","","0.0","","100","","5","","23","","0.8","","99.85","","","","-6","","Moderate Snow"
"1954-02-16 09:00","1954","02","16","09:00","0.0","","0.0","","100","","7","","19","","3.2","","99.76","","","","-5","","Snow"
"1954-02-16 10:00","1954","02","16","10:00","0.0","","0.0","","100","","7","","27","","4.8","","99.70","","","","-6","","Rain,Ice Pellets"
"1954-02-16 11:00","1954","02","16","11:00","0.0","","0.0","","100","","5","","19","","1.2","","99.66","","","","-5","","Snow"
"1954-02-16 12:00","1954","02","16","12:00","0.0","","0.0","","100","","5","","18","","1.2","","99.59","","","","-5","","Snow"
"1954-02-16 13:00","1954","02","16","13:00","0.6","","0.0","","96","","5","","16","","0.8","","99.51","","","","","","Moderate Snow"
"1954-02-16 14:00","1954","02","16","14:00","0.0","","0.0","","100","","5","","21","","1.2","","99.41","","","","-5","","Snow"
"1954-02-16 15:00","1954","02","16","15:00","0.0","","0.0","","100","","5","","24","","2.8","","99.37","","","","-6","","Snow"
"1954-02-16 16:00","1954","02","16","16:00","0.0","","0.0","","100","","5","","29","","1.6","","99.42","","","","-6","","Snow"
"1954-02-16 17:00","1954","02","16","17:00","0.0","","0.0","","100","","5","","32","","1.6","","99.34","","","","-7","","Snow"
"1954-02-16 18:00","1954","02","16","18:00","0.0","","0.0","","100","","2","","29","","1.6","","99.40","","","","-6","","Snow,Fog"
"1954-02-16 19:00","1954","02","16","19:00","0.0","","0.0","","100","","5","","29","","3.2","","99.38","","","","-6","","Snow"
"1954-02-16 20:00","1954","02","16","20:00","0.0","","0.0","","100","","5","","26","","3.2","","99.33","","","","-6","","Snow"
"1954-02-16 21:00","1954","02","16","21:00","0.0","","0.0","","100","","2","","23","","1.2","","99.36","","","","-6","","Snow"
"1954-02-16 22:00","1954","02","16","22:00","0.0","","0.0","","100","","2","","26","","1.6","","99.30","","","","-6","","Snow"
"1954-02-16 23:00","1954","02","16","23:00","0.0","","0.0","","100","","2","","21","","1.6","","99.25","","","","-5","","Snow"
"1954-02-17 00:00","1954","02","17","00:00","0.0","","0.0","","100","","2","","16","","2.4","","99.20","","","","-5","","Snow"
"1954-02-17 01:00","1954","02","17","01:00","0.0","","0.0","","100","","2","","23","","6.4","","99.21","","","","-6","","Snow"
"1954-02-17 02:00","1954","02","17","02:00","0.0","","0.0","","100","","2","","27","","16.1","","99.15","","","","-6","","Snow"
"1954-02-17 03:00","1954","02","17","03:00","0.6","","-0.6","","92","","2","","32","","24.1","","99.13","","","","","","Snow"
"1954-02-17 04:00","1954","02","17","04:00","0.0","","-0.6","","96","","2","","39","","25.0","","99.17","","","","-7","","Cloudy"
"1954-02-17 05:00","1954","02","17","05:00","0.0","","-0.6","","96","","2","","35","","25.0","","99.22","","","","-7","","Cloudy"
"1954-02-17 06:00","1954","02","17","06:00","0.6","","-1.1","","88","","2","","32","","25.0","","99.28","","","","","","Mostly Cloudy"
"1954-02-17 07:00","1954","02","17","07:00","0.6","","-1.1","","88","","2","","35","","25.0","","99.34","","","","","","Mostly Cloudy"
"1954-02-17 08:00","1954","02","17","08:00","0.6","","-1.1","","88","","2","","32","","25.0","","99.40","","","","","","Mostly Cloudy"
"1954-02-17 09:00","1954","02","17","09:00","-0.6","","-1.1","","96","","34","","24","","25.0","","99.52","","","","-7","","Mostly Cloudy"
"1954-02-17 10:00","1954","02","17","10:00","0.6","","-1.1","","88","","34","","24","","25.0","","99.63","","","","","","Mostly Cloudy"
"1954-02-17 11:00","1954","02","17","11:00","1.1","","-0.6","","89","","36","","31","","25.0","","99.69","","","","","","Mainly Clear"
"1954-02-17 12:00","1954","02","17","12:00","1.7","","-0.6","","85","","34","","27","","25.0","","99.75","","","","","","Mainly Clear"
"1954-02-17 13:00","1954","02","17","13:00","2.2","","-1.1","","78","","34","","32","","25.0","","99.76","","","","","","Mainly Clear"
"1954-02-17 14:00","1954","02","17","14:00","2.2","","-2.8","","69","","36","","39","","25.0","","99.83","","","","","","Mainly Clear"
"1954-02-17 15:00","1954","02","17","15:00","2.2","","-3.9","","64","","34","","27","","25.0","","99.94","","","","","","Clear"
"1954-02-17 16:00","1954","02","17","16:00","2.2","","-3.3","","67","","34","","26","","25.0","","100.02","","","","","","Clear"
"1954-02-17 17:00","1954","02","17","17:00","2.2","","-3.3","","67","","34","","26","","25.0","","100.06","","","","","","Clear"
"1954-02-17 18:00","1954","02","17","18:00","1.1","","-4.4","","66","","34","","16","","25.0","","100.16","","","","","","Clear"
"1954-02-17 19:00","1954","02","17","19:00","0.6","","-6.1","","61","","34","","18","","25.0","","100.20","","","","","","Clear"
"1954-02-17 20:00","1954","02","17","20:00","0.6","","-6.7","","58","","34","","19","","25.0","","100.24","","","","","","Clear"
"1954-02-17 21:00","1954","02","17","21:00","1.1","","-6.7","","56","","34","","21","","25.0","","100.24","","","","","","Clear"
"1954-02-17 22:00","1954","02","17","22:00","0.0","","-5.0","","69","","32","","19","","25.0","","100.25","","","","-5","","Clear"
"1954-02-17 23:00","1954","02","17","23:00","-0.6","","-6.7","","63","","34","","14","","25.0","","100.30","","","","-5","","Clear"
"1954-02-18 00:00","1954","02","18","00:00","0.0","","-5.0","","69","","32","","19","","25.0","","100.31","","","","-5","","Clear"
"1954-02-18 01:00","1954","02","18","01:00","0.0","","-7.2","","58","","32","","21","","25.0","","100.32","","","","-5","","Clear"
"1954-02-18 02:00","1954","02","18","02:00","0.6","","-6.7","","58","","34","","14","","25.0","","100.33","","","","","","Clear"
"1954-02-18 03:00","1954","02","18","03:00","0.6","","-7.2","","56","","32","","18","","25.0","","100.34","","","","","","Clear"
"1954-02-18 04:00","1954","02","18","04:00","1.1","","-4.4","","66","","32","","16","","25.0","","100.36","","","","","","Clear"
"1954-02-18 05:00","1954","02","18","05:00","0.0","","-6.7","","61","","34","","18","","25.0","","100.43","","","","-5","","Clear"
"1954-02-18 06:00","1954","02","18","06:00","-0.6","","-6.1","","66","","34","","8","","25.0","","100.50","","","","-3","","Clear"
"1954-02-18 07:00","1954","02","18","07:00","-1.1","","-8.9","","56","","34","","13","","25.0","","100.56","","","","-5","","Clear"
"1954-02-18 08:00","1954","02","18","08:00","-3.3","","-8.3","","68","","23","","6","","25.0","","100.69","","","","-6","","Mainly Clear"
"1954-02-18 09:00","1954","02","18","09:00","0.6","","-6.1","","61","","25","","6","","25.0","","100.72","","","","","","Mainly Clear"
"1954-02-18 10:00","1954","02","18","10:00","2.8","","-5.0","","57","","25","","5","","25.0","","100.76","","","","","","Mainly Clear"
"1954-02-18 11:00","1954","02","18","11:00","5.0","","-6.1","","44","","25","","8","","25.0","","100.79","","","","","","Mainly Clear"
"1954-02-18 12:00","1954","02","18","12:00","7.2","","-3.9","","45","","20","","3","","25.0","","100.77","","","","","","Mainly Clear"
"1954-02-18 13:00","1954","02","18","13:00","7.8","","-6.7","","35","","25","","5","","25.0","","100.70","","","","","","Mainly Clear"
"1954-02-18 14:00","1954","02","18","14:00","8.9","","-5.0","","37","","27","","3","","25.0","","100.65","","","","","","Mainly Clear"
"1954-02-18 15:00","1954","02","18","15:00","9.4","","-3.3","","40","","29","","6","","25.0","","100.66","","","","","","Mainly Clear"
"1954-02-18 16:00","1954","02","18","16:00","7.8","","-2.8","","47","","27","","14","","25.0","","100.63","","","","","","Mainly Clear"
"1954-02-18 17:00","1954","02","18","17:00","4.4","","-3.3","","57","","27","","13","","25.0","","100.65","","","","","","Mainly Clear"
"1954-02-18 18:00","1954","02","18","18:00","2.2","","-4.4","","61","","27","","10","","25.0","","100.65","","","","","","Mainly Clear"
"1954-02-18 19:00","1954","02","18","19:00","0.0","","-3.9","","75","","27","","13","","25.0","","100.67","","","","-4","","Clear"
"1954-02-18 20:00","1954","02","18","20:00","-1.7","","-1.7","","100","","27","","6","","25.0","","100.70","","","","-4","","Clear"
"1954-02-18 21:00","1954","02","18","21:00","-1.7","","-9.4","","55","","36","","3","","25.0","","100.72","","","","-3","","Clear"
"1954-02-18 22:00","1954","02","18","22:00","-2.8","","-9.4","","60","","32","","10","","25.0","","100.76","","","","-7","","Mainly Clear"
"1954-02-18 23:00","1954","02","18","23:00","-4.4","","-9.4","","68","","32","","8","","25.0","","100.75","","","","-8","","Clear"
"1954-02-19 00:00","1954","02","19","00:00","-4.4","","-9.4","","68","","32","","6","","25.0","","100.76","","","","-7","","Clear"
"1954-02-19 01:00","1954","02","19","01:00","-6.1","","-10.0","","74","","32","","8","","25.0","","100.78","","","","-10","","Clear"
"1954-02-19 02:00","1954","02","19","02:00","-7.2","","-11.1","","74","","36","","3","","25.0","","100.81","","","","-9","","Clear"
"1954-02-19 03:00","1954","02","19","03:00","-8.3","","-11.7","","77","","32","","6","","25.0","","100.82","","","","-12","","Clear"
"1954-02-19 04:00","1954","02","19","04:00","-4.4","","-8.3","","74","","32","","10","","25.0","","100.81","","","","-9","","Clear"
"1954-02-19 05:00","1954","02","19","05:00","-7.2","","-12.2","","68","","34","","6","","25.0","","100.86","","","","-10","","Clear"
"1954-02-19 06:00","1954","02","19","06:00","-8.9","","-11.7","","80","","34","","6","","25.0","","100.88","","","","-12","","Clear"
"1954-02-19 07:00","1954","02","19","07:00","-9.4","","-12.2","","80","","34","","13","","25.0","","100.91","","","","-15","","Clear"
"1954-02-19 08:00","1954","02","19","08:00","-7.2","","-12.8","","65","","34","","6","","25.0","","100.98","","","","-10","","Clear"
"1954-02-19 09:00","1954","02","19","09:00","-4.4","","-11.7","","57","","36","","13","","25.0","","101.00","","","","-9","","Clear"
"1954-02-19 10:00","1954","02","19","10:00","-1.1","","-6.1","","69","","36","","10","","25.0","","100.99","","","","-5","","Clear"
"1954-02-19 11:00","1954","02","19","11:00","2.8","","-5.6","","54","","36","","8","","24.1","","100.98","","","","","","Mainly Clear"
"1954-02-19 12:00","1954","02","19","12:00","4.4","","-4.4","","52","","36","","8","","19.3","","100.94","","","","","","Mostly Cloudy"
"1954-02-19 13:00","1954","02","19","13:00","6.1","","-5.0","","45","","27","","5","","19.3","","100.87","","","","","","Mainly Clear"
"1954-02-19 14:00","1954","02","19","14:00","6.7","","-5.6","","41","","16","","6","","8.0","","100.80","","","","","","Smoke,Haze"
"1954-02-19 15:00","1954","02","19","15:00","7.8","","-5.6","","38","","16","","6","","11.3","","100.77","","","","","","Clear"
"1954-02-19 16:00","1954","02","19","16:00","6.7","","-4.4","","45","","36","","8","","11.3","","100.76","","","","","","Clear"
"1954-02-19 17:00","1954","02","19","17:00","4.4","","-3.3","","57","","7","","10","","12.9","","100.72","","","","","","Clear"
"1954-02-19 18:00","1954","02","19","18:00","2.2","","-5.0","","59","","7","","14","","11.3","","100.69","","","","","","Clear"
"1954-02-19 19:00","1954","02","19","19:00","1.1","","-5.6","","64","","7","","16","","11.3","","100.69","","","","","","Clear"
"1954-02-19 20:00","1954","02","19","20:00","0.0","","-5.6","","66","","7","","5","","11.3","","100.69","","","","-2","","Clear"
"1954-02-19 21:00","1954","02","19","21:00","-1.1","","-4.4","","78","","36","","3","","11.3","","100.74","","","","-2","","Clear"
"1954-02-19 22:00","1954","02","19","22:00","-2.2","","-5.6","","78","","36","","8","","12.9","","100.74","","","","-5","","Clear"
"1954-02-19 23:00","1954","02","19","23:00","-2.8","","-5.0","","85","","5","","13","","12.9","","100.64","","","","-7","","Clear"
"1954-02-20 00:00","1954","02","20","00:00","-2.8","","-5.0","","85","","5","","13","","16.1","","100.51","","","","-7","","Clear"
"1954-02-20 01:00","1954","02","20","01:00","-3.3","","-5.0","","88","","5","","8","","12.9","","100.47","","","","-7","","Clear"
"1954-02-20 02:00","1954","02","20","02:00","-3.9","","-5.0","","92","","36","","8","","9.7","","100.50","","","","-7","","Fog"
"1954-02-20 03:00","1954","02","20","03:00","-4.4","","-5.6","","92","","2","","8","","8.0","","100.41","","","","-8","","Fog"
"1954-02-20 04:00","1954","02","20","04:00","-5.6","","-6.1","","96","","36","","8","","8.0","","100.39","","","","-9","","Fog"
"1954-02-20 05:00","1954","02","20","05:00","-3.9","","-4.4","","96","","36","","11","","8.0","","100.36","","","","-8","","Fog"
"1954-02-20 06:00","1954","02","20","06:00","-5.6","","-7.2","","88","","5","","14","","8.0","","100.25","","","","-11","","Fog"
"1954-02-20 07:00","1954","02","20","07:00","-5.0","","-6.7","","88","","7","","8","","4.8","","100.22","","","","-9","","Fog"
"1954-02-20 08:00","1954","02","20","08:00","-4.4","","-5.6","","92","","11","","5","","4.8","","100.23","","","","-7","","Fog"
"1954-02-20 09:00","1954","02","20","09:00","0.0","","-2.2","","85","","7","","8","","4.0","","100.14","","","","-3","","Fog,Smoke"
"1954-02-20 10:00","1954","02","20","10:00","4.4","","-0.6","","70","","11","","18","","4.8","","100.04","","","","","","Smoke,Haze"
"1954-02-20 11:00","1954","02","20","11:00","6.1","","-1.1","","60","","11","","21","","8.0","","99.95","","","","","","Haze"
"1954-02-20 12:00","1954","02","20","12:00","6.7","","-0.6","","60","","11","","19","","11.3","","99.86","","","","","","Mostly Cloudy"
"1954-02-20 13:00","1954","02","20","13:00","7.2","","-1.1","","55","","11","","19","","12.9","","99.75","","","","","","Cloudy"
"1954-02-20 14:00","1954","02","20","14:00","7.8","","0.0","","58","","11","","13","","9.7","","99.57","","","","","","Haze"
"1954-02-20 15:00","1954","02","20","15:00","5.6","","1.1","","73","","9","","11","","8.0","","99.43","","","","","","Rain Showers,Haze"
"1954-02-20 16:00","1954","02","20","16:00","5.0","","1.1","","76","","9","","11","","6.4","","99.34","","","","","","Rain,Haze"
"1954-02-20 17:00","1954","02","20","17:00","6.7","","2.2","","73","","11","","18","","4.8","","99.31","","","","","","Rain,Haze"
"1954-02-20 18:00","1954","02","20","18:00","6.1","","2.2","","76","","11","","14","","8.0","","99.25","","","","","","Rain,Haze"
"1954-02-20 19:00","1954","02","20","19:00","5.6","","3.3","","86","","11","","21","","6.4","","99.24","","","","","","Rain,Haze"
"1954-02-20 20:00","1954","02","20","20:00","6.1","","3.3","","82","","11","","24","","12.9","","99.14","","","","","","Rain"
"1954-02-20 21:00","1954","02","20","21:00","5.6","","3.3","","86","","11","","21","","12.9","","99.07","","","","","","Rain"
"1954-02-20 22:00","1954","02","20","22:00","5.6","","3.3","","86","","11","","16","","9.7","","98.96","","","","","","Rain"
"1954-02-20 23:00","1954","02","20","23:00","5.6","","3.9","","89","","14","","19","","12.9","","98.88","","","","","","Rain"
"1954-02-21 00:00","1954","02","21","00:00","5.6","","4.4","","93","","16","","21","","16.1","","98.77","","","","","","Rain"
"1954-02-21 01:00","1954","02","21","01:00","5.6","","3.9","","89","","16","","23","","25.0","","98.71","","","","","","Mostly Cloudy"
"1954-02-21 02:00","1954","02","21","02:00","6.7","","3.9","","82","","16","","26","","25.0","","98.62","","","","","","Mostly Cloudy"
"1954-02-21 03:00","1954","02","21","03:00","4.4","","2.8","","89","","25","","14","","25.0","","98.69","","","","","","Cloudy"
"1954-02-21 04:00","1954","02","21","04:00","6.1","","4.4","","89","","18","","14","","25.0","","98.62","","","","","","Rain Showers"
"1954-02-21 05:00","1954","02","21","05:00","5.6","","3.9","","89","","20","","11","","24.1","","98.60","","","","","","Rain Showers"
"1954-02-21 06:00","1954","02","21","06:00","5.6","","5.0","","96","","18","","13","","12.9","","98.64","","","","","","Rain"
"1954-02-21 07:00","1954","02","21","07:00","5.6","","4.4","","93","","16","","23","","6.4","","98.59","","","","","","Fog"
"1954-02-21 08:00","1954","02","21","08:00","5.0","","4.4","","96","","18","","26","","6.4","","98.64","","","","","","Fog"
"1954-02-21 09:00","1954","02","21","09:00","5.6","","2.8","","82","","20","","21","","11.3","","98.62","","","","","","Mostly Cloudy"
"1954-02-21 10:00","1954","02","21","10:00","6.7","","2.2","","73","","20","","27","","8.0","","98.61","","","","","","Haze"
"1954-02-21 11:00","1954","02","21","11:00","7.2","","2.2","","70","","20","","24","","6.4","","98.59","","","","","","Haze"
"1954-02-21 12:00","1954","02","21","12:00","6.7","","1.7","","70","","20","","37","","6.4","","98.55","","","","","","Dust"
"1954-02-21 13:00","1954","02","21","13:00","6.7","","1.7","","70","","20","","40","","6.4","","98.55","","","","","","Dust"
"1954-02-21 14:00","1954","02","21","14:00","5.6","","2.8","","82","","20","","35","","9.7","","98.58","","","","","","Dust"
"1954-02-21 15:00","1954","02","21","15:00","5.0","","2.2","","82","","20","","29","","11.3","","98.60","","","","","","Cloudy"
"1954-02-21 16:00","1954","02","21","16:00","5.6","","2.8","","82","","23","","34","","12.9","","98.63","","","","","","Cloudy"
"1954-02-21 17:00","1954","02","21","17:00","4.4","","2.8","","89","","23","","32","","12.9","","98.63","","","","","","Rain Showers"
"1954-02-21 18:00","1954","02","21","18:00","4.4","","2.8","","89","","20","","31","","12.9","","98.69","","","","","","Mostly Cloudy"
"1954-02-21 19:00","1954","02","21","19:00","4.4","","2.2","","85","","20","","21","","16.1","","98.73","","","","","","Cloudy"
"1954-02-21 20:00","1954","02","21","20:00","4.4","","3.3","","93","","20","","27","","16.1","","98.76","","","","","","Cloudy"
"1954-02-21 21:00","1954","02","21","21:00","4.4","","1.7","","82","","20","","24","","16.1","","98.79","","","","","","Cloudy"
"1954-02-21 22:00","1954","02","21","22:00","3.3","","1.1","","85","","23","","26","","16.1","","98.83","","","","","","Mostly Cloudy"
"1954-02-21 23:00","1954","02","21","23:00","3.3","","0.6","","82","","23","","27","","16.1","","98.86","","","","","","Cloudy"
"1954-02-22 00:00","1954","02","22","00:00","2.8","","0.6","","85","","25","","27","","25.0","","98.91","","","","","","Cloudy"
"1954-02-22 01:00","1954","02","22","01:00","2.2","","0.0","","85","","23","","27","","25.0","","98.97","","","","","","Cloudy"
"1954-02-22 02:00","1954","02","22","02:00","2.2","","-1.1","","78","","27","","31","","25.0","","99.11","","","","","","Mostly Cloudy"
"1954-02-22 03:00","1954","02","22","03:00","1.7","","-1.7","","78","","27","","32","","25.0","","99.16","","","","","","Cloudy"
"1954-02-22 04:00","1954","02","22","04:00","1.7","","-2.2","","75","","27","","31","","25.0","","99.26","","","","","","Cloudy"
"1954-02-22 05:00","1954","02","22","05:00","1.1","","-1.7","","82","","27","","29","","25.0","","99.37","","","","","","Cloudy"
"1954-02-22 06:00","1954","02","22","06:00","1.1","","-1.1","","85","","27","","24","","25.0","","99.44","","","","","","Cloudy"
"1954-02-22 07:00","1954","02","22","07:00","1.1","","-1.1","","85","","25","","40","","25.0","","99.47","","","","","","Cloudy"
"1954-02-22 08:00","1954","02","22","08:00","1.7","","-3.3","","69","","29","","32","","25.0","","99.62","","","","","","Cloudy"
"1954-02-22 09:00","1954","02","22","09:00","1.7","","-2.2","","75","","27","","26","","25.0","","99.70","","","","","","Cloudy"
"1954-02-22 10:00","1954","02","22","10:00","1.7","","-2.2","","75","","27","","19","","25.0","","99.76","","","","","","Cloudy"
"1954-02-22 11:00","1954","02","22","11:00","0.6","","-1.1","","88","","34","","23","","25.0","","99.89","","","","","","Cloudy"
"1954-02-22 12:00","1954","02","22","12:00","0.0","","-2.2","","85","","36","","24","","25.0","","99.94","","","","-6","","Cloudy"
"1954-02-22 13:00","1954","02","22","13:00","0.0","","-2.2","","85","","2","","23","","25.0","","99.95","","","","-6","","Cloudy"
"1954-02-22 14:00","1954","02","22","14:00","0.0","","-3.3","","78","","34","","19","","25.0","","99.99","","","","-5","","Cloudy"
"1954-02-22 15:00","1954","02","22","15:00","0.0","","-3.9","","75","","36","","16","","25.0","","100.17","","","","-5","","Cloudy"
"1954-02-22 16:00","1954","02","22","16:00","-0.6","","-3.9","","78","","36","","16","","25.0","","100.13","","","","-5","","Mostly Cloudy"
"1954-02-22 17:00","1954","02","22","17:00","-1.1","","-3.9","","81","","36","","19","","25.0","","100.16","","","","-6","","Mostly Cloudy"
"1954-02-22 18:00","1954","02","22","18:00","-1.7","","-5.0","","78","","36","","19","","25.0","","100.22","","","","-7","","Mostly Cloudy"
"1954-02-22 19:00","1954","02","22","19:00","-1.7","","-3.9","","85","","36","","16","","25.0","","100.28","","","","-7","","Cloudy"
"1954-02-22 20:00","1954","02","22","20:00","-2.2","","-3.9","","85","","36","","18","","25.0","","100.32","","","","-8","","Cloudy"
"1954-02-22 21:00","1954","02","22","21:00","-2.8","","-4.4","","88","","36","","16","","25.0","","100.39","","","","-8","","Mainly Clear"
"1954-02-22 22:00","1954","02","22","22:00","-3.3","","-5.6","","85","","36","","14","","25.0","","100.44","","","","-8","","Clear"
"1954-02-22 23:00","1954","02","22","23:00","-3.9","","-5.6","","88","","34","","11","","25.0","","100.42","","","","-8","","Clear"
"1954-02-23 00:00","1954","02","23","00:00","-3.9","","-6.1","","85","","2","","6","","25.0","","100.38","","","","-7","","Clear"
"1954-02-23 01:00","1954","02","23","01:00","-3.9","","-6.7","","81","","36","","6","","25.0","","100.39","","","","-7","","Clear"
"1954-02-23 02:00","1954","02","23","02:00","-3.9","","-6.7","","81","","36","","8","","25.0","","100.40","","","","-7","","Clear"
"1954-02-23 03:00","1954","02","23","03:00","-4.4","","-6.7","","84","","36","","6","","25.0","","100.38","","","","-7","","Clear"
"1954-02-23 04:00","1954","02","23","04:00","-5.0","","-6.7","","88","","36","","10","","25.0","","100.35","","","","-9","","Clear"
"1954-02-23 05:00","1954","02","23","05:00","-5.6","","-6.7","","92","","36","","6","","25.0","","100.35","","","","-8","","Clear"
"1954-02-23 06:00","1954","02","23","06:00","-5.6","","-6.7","","92","","36","","5","","25.0","","100.31","","","","-8","","Mainly Clear"
"1954-02-23 07:00","1954","02","23","07:00","-5.0","","-7.2","","84","","36","","5","","25.0","","100.29","","","","-7","","Mostly Cloudy"
"1954-02-23 08:00","1954","02","23","08:00","-3.3","","-5.6","","85","","7","","18","","25.0","","100.25","","","","-9","","Cloudy"
"1954-02-23 09:00","1954","02","23","09:00","-3.3","","-6.1","","81","","7","","19","","12.9","","100.27","","","","-9","","Cloudy"
"1954-02-23 10:00","1954","02","23","10:00","-2.2","","-5.0","","81","","11","","26","","12.9","","100.21","","","","-9","","Cloudy"
"1954-02-23 11:00","1954","02","23","11:00","-2.2","","-5.0","","81","","14","","29","","16.1","","100.14","","","","-9","","Cloudy"
"1954-02-23 12:00","1954","02","23","12:00","-2.2","","-5.0","","81","","14","","29","","19.3","","100.09","","","","-9","","Cloudy"
"1954-02-23 13:00","1954","02","23","13:00","-1.7","","-4.4","","81","","14","","26","","25.0","","99.96","","","","-8","","Cloudy"
"1954-02-23 14:00","1954","02","23","14:00","-1.1","","-4.4","","78","","11","","26","","25.0","","99.80","","","","-7","","Cloudy"
"1954-02-23 15:00","1954","02","23","15:00","-1.7","","-4.4","","81","","7","","26","","25.0","","99.72","","","","-8","","Cloudy"
"1954-02-23 16:00","1954","02","23","16:00","-2.2","","-4.4","","85","","7","","16","","24.1","","99.57","","","","-7","","Cloudy"
"1954-02-23 17:00","1954","02","23","17:00","-2.8","","-5.6","","81","","9","","23","","24.1","","99.52","","","","-9","","Cloudy"
"1954-02-23 18:00","1954","02","23","18:00","-2.2","","-4.4","","85","","9","","24","","24.1","","99.47","","","","-9","","Cloudy"
"1954-02-23 19:00","1954","02","23","19:00","-1.7","","-4.4","","81","","9","","23","","25.0","","99.40","","","","-8","","Cloudy"
"1954-02-23 20:00","1954","02","23","20:00","-1.1","","-2.8","","88","","9","","19","","25.0","","99.32","","","","-6","","Cloudy"
"1954-02-23 21:00","1954","02","23","21:00","-0.6","","-2.2","","88","","9","","23","","25.0","","99.22","","","","-6","","Cloudy"
"1954-02-23 22:00","1954","02","23","22:00","-0.6","","-1.1","","96","","7","","16","","24.1","","99.05","","","","-5","","Cloudy"
"1954-02-23 23:00","1954","02","23","23:00","-0.6","","-2.2","","88","","9","","23","","24.1","","98.94","","","","-6","","Cloudy"
"1954-02-24 00:00","1954","02","24","00:00","-1.1","","-2.2","","92","","7","","14","","24.1","","98.94","","","","-6","","Cloudy"
"1954-02-24 01:00","1954","02","24","01:00","-1.1","","-2.2","","92","","7","","19","","24.1","","98.79","","","","-6","","Mostly Cloudy"
"1954-02-24 02:00","1954","02","24","02:00","-0.6","","-0.6","","100","","9","","19","","12.9","","98.69","","","","-6","","Cloudy"
"1954-02-24 03:00","1954","02","24","03:00","-0.6","","-0.6","","100","","7","","8","","12.9","","98.61","","","","-3","","Mainly Clear"
"1954-02-24 04:00","1954","02","24","04:00","0.0","","0.0","","100","","9","","5","","12.9","","98.56","","","","-2","","Cloudy"
"1954-02-24 05:00","1954","02","24","05:00","0.0","","-0.6","","96","","","","0","","4.8","","98.52","","","","","","Rain,Haze"
"1954-02-24 06:00","1954","02","24","06:00","0.6","","0.0","","96","","14","","10","","4.8","","98.46","","","","","","Haze"
"1954-02-24 07:00","1954","02","24","07:00","0.6","","-0.6","","92","","14","","11","","4.8","","98.50","","","","","","Haze"
"1954-02-24 08:00","1954","02","24","08:00","1.7","","0.6","","92","","20","","26","","4.8","","98.44","","","","","","Haze"
"1954-02-24 09:00","1954","02","24","09:00","2.8","","0.6","","85","","20","","16","","9.7","","98.42","","","","","","Haze"
"1954-02-24 10:00","1954","02","24","10:00","2.8","","0.6","","85","","23","","23","","8.0","","98.38","","","","","","Haze"
"1954-02-24 11:00","1954","02","24","11:00","3.3","","1.1","","85","","23","","16","","9.7","","98.37","","","","","","Haze"
"1954-02-24 12:00","1954","02","24","12:00","3.9","","0.0","","76","","23","","13","","9.7","","98.35","","","","","","Haze"
"1954-02-24 13:00","1954","02","24","13:00","4.4","","1.1","","79","","23","","19","","11.3","","98.32","","","","","","Cloudy"
"1954-02-24 14:00","1954","02","24","14:00","3.9","","1.1","","82","","23","","16","","11.3","","98.26","","","","","","Cloudy"
"1954-02-24 15:00","1954","02","24","15:00","3.3","","0.6","","82","","23","","16","","6.4","","98.26","","","","","","Rain,Fog"
"1954-02-24 16:00","1954","02","24","16:00","1.1","","0.6","","96","","27","","18","","3.2","","98.26","","","","","","Rain,Snow,Fog"
"1954-02-24 17:00","1954","02","24","17:00","1.1","","0.6","","96","","20","","5","","6.4","","98.27","","","","","","Fog"
"1954-02-24 18:00","1954","02","24","18:00","1.7","","0.0","","89","","20","","5","","12.9","","98.30","","","","","","Cloudy"
"1954-02-24 19:00","1954","02","24","19:00","1.1","","0.0","","92","","23","","10","","16.1","","98.30","","","","","","Drizzle"
"1954-02-24 20:00","1954","02","24","20:00","1.1","","-1.1","","85","","23","","3","","16.1","","98.25","","","","","","Cloudy"
"1954-02-24 21:00","1954","02","24","21:00","1.1","","-0.6","","89","","18","","8","","16.1","","98.26","","","","","","Snow Showers"
"1954-02-24 22:00","1954","02","24","22:00","1.1","","0.0","","92","","18","","6","","8.0","","98.24","","","","","","Snow Showers"
"1954-02-24 23:00","1954","02","24","23:00","0.6","","0.0","","96","","18","","10","","9.7","","98.34","","","","","","Snow Showers"
"1954-02-25 00:00","1954","02","25","00:00","0.6","","0.0","","96","","18","","5","","4.8","","98.21","","","","","","Snow"
"1954-02-25 01:00","1954","02","25","01:00","0.6","","0.0","","96","","16","","6","","2.0","","98.18","","","","","","Snow"
"1954-02-25 02:00","1954","02","25","02:00","0.0","","-0.6","","96","","18","","16","","2.0","","98.17","","","","-5","","Snow"
"1954-02-25 03:00","1954","02","25","03:00","0.0","","-0.6","","96","","18","","10","","3.2","","98.15","","","","-3","","Snow,Haze"
"1954-02-25 04:00","1954","02","25","04:00","0.0","","-0.6","","96","","20","","5","","3.2","","98.12","","","","-2","","Snow,Haze"
"1954-02-25 05:00","1954","02","25","05:00","0.0","","-0.6","","96","","20","","8","","2.8","","98.13","","","","-3","","Snow"
"1954-02-25 06:00","1954","02","25","06:00","0.0","","-0.6","","96","","25","","6","","11.3","","98.13","","","","-2","","Snow"
"1954-02-25 07:00","1954","02","25","07:00","0.0","","0.0","","100","","20","","3","","4.8","","98.14","","","","-1","","Fog"
"1954-02-25 08:00","1954","02","25","08:00","0.6","","-0.6","","92","","23","","8","","4.8","","98.21","","","","","","Haze"
"1954-02-25 09:00","1954","02","25","09:00","2.2","","-1.1","","78","","27","","11","","9.7","","98.21","","","","","","Haze"
"1954-02-25 10:00","1954","02","25","10:00","2.8","","-2.8","","67","","29","","13","","12.9","","98.27","","","","","","Mostly Cloudy"
"1954-02-25 11:00","1954","02","25","11:00","2.2","","-1.7","","75","","27","","11","","19.3","","98.33","","","","","","Cloudy"
"1954-02-25 12:00","1954","02","25","12:00","2.2","","-2.2","","72","","27","","23","","25.0","","98.34","","","","","","Cloudy"
"1954-02-25 13:00","1954","02","25","13:00","2.2","","-2.8","","69","","27","","18","","25.0","","98.30","","","","","","Cloudy"
"1954-02-25 14:00","1954","02","25","14:00","3.3","","-3.3","","62","","27","","10","","25.0","","98.26","","","","","","Mostly Cloudy"
"1954-02-25 15:00","1954","02","25","15:00","2.8","","-2.8","","67","","23","","16","","25.0","","98.28","","","","","","Cloudy"
"1954-02-25 16:00","1954","02","25","16:00","2.2","","-2.8","","69","","25","","18","","25.0","","98.24","","","","","","Cloudy"
"1954-02-25 17:00","1954","02","25","17:00","1.1","","-2.8","","75","","25","","14","","25.0","","98.23","","","","","","Mostly Cloudy"
"1954-02-25 18:00","1954","02","25","18:00","1.1","","-2.8","","75","","25","","8","","25.0","","98.25","","","","","","Mostly Cloudy"
"1954-02-25 19:00","1954","02","25","19:00","0.0","","-1.1","","92","","27","","8","","25.0","","98.22","","","","-3","","Mostly Cloudy"
"1954-02-25 20:00","1954","02","25","20:00","0.0","","-3.3","","78","","29","","14","","25.0","","98.23","","","","-4","","Mostly Cloudy"
"1954-02-25 21:00","1954","02","25","21:00","0.0","","-3.9","","75","","29","","6","","25.0","","98.21","","","","-2","","Mostly Cloudy"
"1954-02-25 22:00","1954","02","25","22:00","0.0","","-4.4","","72","","32","","5","","25.0","","98.20","","","","-2","","Mostly Cloudy"
"1954-02-25 23:00","1954","02","25","23:00","0.0","","-3.9","","75","","34","","8","","25.0","","98.11","","","","-3","","Mostly Cloudy"
"1954-02-26 00:00","1954","02","26","00:00","-0.6","","-4.4","","75","","2","","13","","25.0","","98.00","","","","-5","","Cloudy"
"1954-02-26 01:00","1954","02","26","01:00","-0.6","","-5.6","","69","","2","","8","","25.0","","97.97","","","","-3","","Cloudy"
"1954-02-26 02:00","1954","02","26","02:00","-1.7","","-2.8","","92","","5","","8","","1.2","","97.94","","","","-5","","Snow"
"1954-02-26 03:00","1954","02","26","03:00","-2.2","","-2.8","","96","","2","","11","","1.2","","97.92","","","","-6","","Snow"
"1954-02-26 04:00","1954","02","26","04:00","-2.8","","-3.3","","96","","2","","13","","2.0","","97.82","","","","-7","","Snow"
"1954-02-26 05:00","1954","02","26","05:00","-2.8","","-3.9","","92","","2","","13","","4.0","","97.85","","","","-7","","Snow"
"1954-02-26 06:00","1954","02","26","06:00","-2.8","","-3.9","","92","","36","","11","","25.0","","97.85","","","","-7","","Snow"
"1954-02-26 07:00","1954","02","26","07:00","-2.2","","-4.4","","85","","36","","10","","25.0","","97.89","","","","-6","","Snow"
"1954-02-26 08:00","1954","02","26","08:00","-2.2","","-3.3","","92","","36","","10","","2.4","","98.01","","","","-6","","Snow"
"1954-02-26 09:00","1954","02","26","09:00","-1.7","","-2.8","","92","","36","","16","","6.4","","98.06","","","","-7","","Snow"
"1954-02-26 10:00","1954","02","26","10:00","-1.1","","-3.9","","81","","36","","13","","25.0","","98.10","","","","-5","","Mostly Cloudy"
"1954-02-26 11:00","1954","02","26","11:00","0.0","","-3.9","","75","","36","","23","","25.0","","98.16","","","","-6","","Mostly Cloudy"
"1954-02-26 12:00","1954","02","26","12:00","1.1","","-3.3","","72","","34","","29","","25.0","","98.24","","","","","","Mostly Cloudy"
"1954-02-26 13:00","1954","02","26","13:00","0.6","","-5.0","","66","","34","","29","","25.0","","98.26","","","","","","Mostly Cloudy"
"1954-02-26 14:00","1954","02","26","14:00","1.1","","-6.1","","59","","32","","23","","25.0","","98.35","","","","","","Mainly Clear"
"1954-02-26 15:00","1954","02","26","15:00","1.7","","-5.0","","61","","32","","19","","25.0","","98.45","","","","","","Mainly Clear"
"1954-02-26 16:00","1954","02","26","16:00","1.7","","-2.8","","72","","32","","19","","25.0","","98.50","","","","","","Mainly Clear"
"1954-02-26 17:00","1954","02","26","17:00","1.1","","-4.4","","66","","29","","18","","25.0","","98.57","","","","","","Mainly Clear"
"1954-02-26 18:00","1954","02","26","18:00","-1.1","","-4.4","","78","","29","","14","","25.0","","98.64","","","","-6","","Mainly Clear"
"1954-02-26 19:00","1954","02","26","19:00","-2.2","","-5.6","","78","","27","","13","","25.0","","98.73","","","","-7","","Clear"
"1954-02-26 20:00","1954","02","26","20:00","-3.3","","-6.1","","81","","27","","8","","25.0","","98.81","","","","-7","","Clear"
"1954-02-26 21:00","1954","02","26","21:00","-2.8","","-6.1","","78","","29","","2","","25.0","","98.84","","","","-4","","Clear"
"1954-02-26 22:00","1954","02","26","22:00","-3.3","","-6.1","","81","","23","","3","","25.0","","98.89","","","","-5","","Clear"
"1954-02-26 23:00","1954","02","26","23:00","-3.3","","-6.1","","81","","16","","3","","25.0","","98.91","","","","-5","","Clear"
"1954-02-27 00:00","1954","02","27","00:00","-3.9","","-6.7","","81","","23","","5","","25.0","","99.00","","","","-6","","Clear"
"1954-02-27 01:00","1954","02","27","01:00","-3.9","","-6.1","","85","","25","","6","","25.0","","99.06","","","","-7","","Mainly Clear"
"1954-02-27 02:00","1954","02","27","02:00","-3.3","","-5.0","","88","","23","","5","","24.1","","99.11","","","","-5","","Mainly Clear"
"1954-02-27 03:00","1954","02","27","03:00","-2.8","","-4.4","","88","","23","","5","","16.1","","99.10","","","","-5","","Cloudy"
"1954-02-27 04:00","1954","02","27","04:00","-3.3","","-5.0","","88","","18","","5","","16.1","","99.15","","","","-5","","Mostly Cloudy"
"1954-02-27 05:00","1954","02","27","05:00","-2.8","","-4.4","","88","","18","","5","","16.1","","99.14","","","","-5","","Clear"
"1954-02-27 06:00","1954","02","27","06:00","-2.8","","-4.4","","88","","18","","5","","16.1","","99.21","","","","-5","","Mostly Cloudy"
"1954-02-27 07:00","1954","02","27","07:00","-2.2","","-4.4","","85","","25","","16","","9.7","","99.19","","","","-7","","Haze"
"1954-02-27 08:00","1954","02","27","08:00","-1.1","","-3.3","","85","","14","","16","","8.0","","99.24","","","","-6","","Haze"
"1954-02-27 09:00","1954","02","27","09:00","0.6","","-1.7","","85","","16","","16","","8.0","","99.26","","","","","","Haze"
"1954-02-27 10:00","1954","02","27","10:00","1.7","","-1.7","","78","","16","","16","","8.0","","99.20","","","","","","Haze"
"1954-02-27 11:00","1954","02","27","11:00","1.1","","-1.7","","82","","14","","26","","8.0","","99.09","","","","","","Smoke,Haze"
"1954-02-27 12:00","1954","02","27","12:00","1.7","","-1.7","","78","","14","","26","","24.1","","99.04","","","","","","Cloudy"
"1954-02-27 13:00","1954","02","27","13:00","1.7","","0.6","","92","","14","","26","","24.1","","98.99","","","","","","Cloudy"
"1954-02-27 14:00","1954","02","27","14:00","2.2","","1.1","","92","","9","","26","","24.1","","98.93","","","","","","Cloudy"
"1954-02-27 15:00","1954","02","27","15:00","2.8","","1.1","","89","","9","","26","","25.0","","98.82","","","","","","Cloudy"
"1954-02-27 16:00","1954","02","27","16:00","1.7","","-2.2","","75","","9","","26","","19.3","","98.70","","","","","","Cloudy"
"1954-02-27 17:00","1954","02","27","17:00","1.1","","-2.2","","78","","9","","27","","19.3","","98.64","","","","","","Cloudy"
"1954-02-27 18:00","1954","02","27","18:00","0.6","","-1.7","","85","","9","","26","","19.3","","98.59","","","","","","Cloudy"
"1954-02-27 19:00","1954","02","27","19:00","1.1","","-1.7","","82","","7","","27","","19.3","","98.62","","","","","","Cloudy"
"1954-02-27 20:00","1954","02","27","20:00","1.1","","-1.7","","82","","9","","26","","19.3","","98.51","","","","","","Cloudy"
"1954-02-27 21:00","1954","02","27","21:00","1.7","","-1.7","","78","","7","","29","","19.3","","98.46","","","","","","Cloudy"
"1954-02-27 22:00","1954","02","27","22:00","1.7","","-1.7","","78","","9","","24","","19.3","","98.36","","","","","","Cloudy"
"1954-02-27 23:00","1954","02","27","23:00","1.7","","-1.1","","82","","9","","16","","19.3","","98.26","","","","","","Cloudy"
"1954-02-28 00:00","1954","02","28","00:00","1.7","","-0.6","","85","","7","","16","","19.3","","98.18","","","","","","Cloudy"
"1954-02-28 01:00","1954","02","28","01:00","1.7","","-0.6","","85","","9","","8","","25.0","","98.16","","","","","","Mainly Clear"
"1954-02-28 02:00","1954","02","28","02:00","1.7","","-0.6","","85","","9","","10","","25.0","","98.14","","","","","","Mostly Cloudy"
"1954-02-28 03:00","1954","02","28","03:00","1.7","","-0.6","","85","","7","","5","","25.0","","98.09","","","","","","Mainly Clear"
"1954-02-28 04:00","1954","02","28","04:00","1.7","","-0.6","","85","","9","","11","","25.0","","98.07","","","","","","Mainly Clear"
"1954-02-28 05:00","1954","02","28","05:00","1.7","","-0.6","","85","","9","","11","","25.0","","98.01","","","","","","Mainly Clear"
"1954-02-28 06:00","1954","02","28","06:00","2.2","","1.1","","92","","9","","8","","25.0","","97.98","","","","","","Mostly Cloudy"
"1954-02-28 07:00","1954","02","28","07:00","2.8","","-0.6","","79","","9","","3","","16.1","","98.01","","","","","","Mostly Cloudy"
"1954-02-28 08:00","1954","02","28","08:00","4.4","","0.0","","73","","9","","14","","12.9","","98.02","","","","","","Mostly Cloudy"
"1954-02-28 09:00","1954","02","28","09:00","7.2","","0.6","","63","","14","","19","","12.9","","98.05","","","","","","Mostly Cloudy"
"1954-02-28 10:00","1954","02","28","10:00","8.3","","1.1","","60","","14","","18","","11.3","","98.11","","","","","","Mostly Cloudy"
"1954-02-28 11:00","1954","02","28","11:00","8.9","","1.7","","61","","16","","16","","11.3","","98.19","","","","","","Cloudy"
"1954-02-28 12:00","1954","02","28","12:00","10.0","","2.8","","61","","16","","23","","12.9","","98.12","","","","","","Mostly Cloudy"
"1954-02-28 13:00","1954","02","28","13:00","11.1","","3.3","","59","","16","","26","","12.9","","98.06","","","","","","Cloudy"
"1954-02-28 14:00","1954","02","28","14:00","10.6","","3.9","","63","","16","","21","","12.9","","98.07","","","","","","Mostly Cloudy"
"1954-02-28 15:00","1954","02","28","15:00","11.1","","4.4","","64","","16","","21","","12.9","","98.12","","","","","","Cloudy"
"1954-02-28 16:00","1954","02","28","16:00","11.1","","5.0","","66","","14","","13","","12.9","","98.12","","","","","","Cloudy"
"1954-02-28 17:00","1954","02","28","17:00","10.0","","5.0","","71","","14","","13","","8.0","","98.13","","","","","","Haze"
"1954-02-28 18:00","1954","02","28","18:00","9.4","","5.0","","74","","14","","10","","4.8","","98.15","","","","","","Smoke,Haze"
"1954-02-28 19:00","1954","02","28","19:00","8.3","","5.0","","80","","16","","5","","6.4","","98.20","","","","","","Rain Showers,Haze"
"1954-02-28 20:00","1954","02","28","20:00","6.1","","4.4","","89","","36","","5","","4.8","","98.20","","","","","","Rain Showers,Haze"
"1954-02-28 21:00","1954","02","28","21:00","6.1","","4.4","","89","","36","","8","","4.8","","98.20","","","","","","Rain Showers,Fog"
"1954-02-28 22:00","1954","02","28","22:00","5.0","","3.9","","93","","2","","10","","4.0","","98.18","","","","","","Rain,Fog"
"1954-02-28 23:00","1954","02","28","23:00","5.0","","4.4","","96","","2","","11","","2.4","","98.11","","","","","","Rain,Fog"
