"Station Name","TORONTO INTL A"
"Province","ONTARIO"
"Latitude","43.68"
"Longitude","-79.63"
"Elevation","173.40"
"Climate Identifier","6158731"
"WMO Identifier","71624"
"TC Identifier","YYZ"
"All times are specified in Local Standard Time (LST). Add 1 hour to adjust for Daylight Saving Time where and when it is observed."

"Legend"
"E","Estimated"
"M","Missing"
"NA","Not Available"

"Date/Time","Year","Month","Day","Time","Temp (°C)","Temp Flag","Dew Point Temp (°C)","Dew Point Temp Flag","Rel Hum (%)","Rel Hum Flag","Wind Dir (10s deg)","Wind Dir Flag","Wind Spd (km/h)","Wind Spd Flag","Visibility (km)","Visibility Flag","Stn Press (kPa)","Stn Press Flag","Hmdx","Hmdx Flag","Wind Chill","Wind Chill Flag","Weather"
"2014-05-01 00:00","2014","05","01","00:00","6.2","","5.8","","97","","10","","3","","0.8","","98.71","","","","","","Fog"
"2014-05-01 01:00","2014","05","01","01:00","6.2","","5.8","","97","","36","","2","","0.4","","98.67","","","","","","Drizzle,Fog"
"2014-05-01 02:00","2014","05","01","02:00","6.3","","5.9","","97","","15","","3","","4.8","","98.60","","","","","","Rain,Fog"
"2014-05-01 03:00","2014","05","01","03:00","6.4","","6.0","","97","","23","","5","","2.0","","98.60","","","","","","Drizzle,Fog"
"2014-05-01 04:00","2014","05","01","04:00","6.6","","6.2","","97","","36","","3","","6.4","","98.54","","","","","","Rain,Fog"
"2014-05-01 05:00","2014","05","01","05:00","6.7","","6.3","","97","","36","","2","","4.8","","98.51","","","","","","Drizzle,Fog"
"2014-05-01 06:00","2014","05","01","06:00","7.2","","6.8","","97","","23","","3","","0.4","","98.55","","","","","","Drizzle,Fog"
"2014-05-01 07:00","2014","05","01","07:00","8.2","","7.8","","97","","18","","8","","4.8","","98.58","","","","","","Fog"
"2014-05-01 08:00","2014","05","01","08:00","8.4","","8.0","","97","","16","","10","","6.4","","98.58","","","","","","Fog"
"2014-05-01 09:00","2014","05","01","09:00","11.6","","9.4","","86","","22","","25","","9.7","","98.59","","","","","","Fog"
"2014-05-01 10:00","2014","05","01","10:00","9.8","","8.1","","89","","26","","27","","16.1","","98.63","","","","","","Rain"
"2014-05-01 11:00","2014","05","01","11:00","10.3","","6.1","","75","","26","","33","","24.1","","98.66","","","","","","NA"
"2014-05-01 12:00","2014","05","01","12:00","13.2","","5.9","","61","","24","","28","","24.1","","98.63","","","","","","NA"
"2014-05-01 13:00","2014","05","01","13:00","13.8","","4.2","","52","","26","","29","","24.1","","98.60","","","","","","Mostly Cloudy"
"2014-05-01 14:00","2014","05","01","14:00","13.6","","4.0","","52","","24","","32","","24.1","","98.59","","","","","","NA"
"2014-05-01 15:00","2014","05","01","15:00","12.3","","4.1","","57","","24","","22","","24.1","","98.61","","","","","","NA"
"2014-05-01 16:00","2014","05","01","16:00","12.1","","3.1","","54","","25","","24","","24.1","","98.61","","","","","","Mostly Cloudy"
"2014-05-01 17:00","2014","05","01","17:00","11.2","","3.5","","59","","24","","30","","24.1","","98.66","","","","","","NA"
"2014-05-01 18:00","2014","05","01","18:00","11.3","","3.9","","60","","23","","19","","24.1","","98.63","","","","","","NA"
"2014-05-01 19:00","2014","05","01","19:00","10.9","","4.0","","62","","23","","25","","24.1","","98.65","","","","","","Cloudy"
"2014-05-01 20:00","2014","05","01","20:00","10.6","","3.7","","62","","24","","20","","24.1","","98.66","","","","","","NA"
"2014-05-01 21:00","2014","05","01","21:00","10.0","","4.2","","67","","24","","17","","24.1","","98.63","","","","","","NA"
"2014-05-01 22:00","2014","05","01","22:00","9.9","","3.9","","66","","24","","19","","24.1","","98.59","","","","","","Mostly Cloudy"
"2014-05-01 23:00","2014","05","01","23:00","8.9","","3.6","","69","","24","","18","","24.1","","98.58","","","","","","NA"
"2014-05-02 00:00","2014","05","02","00:00","7.6","","3.7","","76","","23","","15","","24.1","","98.54","","","","","","NA"
"2014-05-02 01:00","2014","05","02","01:00","7.3","","3.6","","77","","22","","9","","24.1","","98.47","","","","","","Mainly Clear"
"2014-05-02 02:00","2014","05","02","02:00","7.5","","3.8","","77","","22","","10","","24.1","","98.42","","","","","","NA"
"2014-05-02 03:00","2014","05","02","03:00","7.7","","4.1","","78","","23","","13","","24.1","","98.39","","","","","","NA"
"2014-05-02 04:00","2014","05","02","04:00","7.3","","3.7","","78","","27","","17","","24.1","","98.41","","","","","","Cloudy"
"2014-05-02 05:00","2014","05","02","05:00","6.8","","3.6","","80","","26","","17","","24.1","","98.44","","","","","","NA"
"2014-05-02 06:00","2014","05","02","06:00","7.0","","3.4","","78","","25","","18","","24.1","","98.47","","","","","","NA"
"2014-05-02 07:00","2014","05","02","07:00","7.7","","3.2","","73","","25","","24","","24.1","","98.49","","","","","","Mostly Cloudy"
"2014-05-02 08:00","2014","05","02","08:00","8.5","","3.8","","72","","26","","22","","24.1","","98.53","","","","","","NA"
"2014-05-02 09:00","2014","05","02","09:00","9.6","","4.2","","69","","25","","26","","24.1","","98.56","","","","","","NA"
"2014-05-02 10:00","2014","05","02","10:00","10.2","","4.2","","66","","26","","24","","24.1","","98.58","","","","","","Cloudy"
"2014-05-02 11:00","2014","05","02","11:00","10.2","","5.0","","70","","26","","22","","24.1","","98.59","","","","","","NA"
"2014-05-02 12:00","2014","05","02","12:00","9.9","","6.6","","80","","21","","18","","24.1","","98.56","","","","","","Rain"
"2014-05-02 13:00","2014","05","02","13:00","9.9","","6.6","","80","","22","","18","","24.1","","98.56","","","","","","Rain"
"2014-05-02 14:00","2014","05","02","14:00","11.5","","6.3","","70","","26","","30","","24.1","","98.56","","","","","","NA"
"2014-05-02 15:00","2014","05","02","15:00","11.1","","6.7","","74","","25","","24","","24.1","","98.59","","","","","","NA"
"2014-05-02 16:00","2014","05","02","16:00","11.7","","6.5","","70","","27","","30","","24.1","","98.60","","","","","","Cloudy"
"2014-05-02 17:00","2014","05","02","17:00","12.4","","6.9","","69","","26","","21","","24.1","","98.63","","","","","","NA"
"2014-05-02 18:00","2014","05","02","18:00","12.0","","6.5","","69","","26","","18","","24.1","","98.65","","","","","","NA"
"2014-05-02 19:00","2014","05","02","19:00","10.8","","7.3","","79","","23","","17","","24.1","","98.69","","","","","","Rain Showers"
"2014-05-02 20:00","2014","05","02","20:00","10.2","","7.3","","82","","21","","16","","24.1","","98.77","","","","","","NA"
"2014-05-02 21:00","2014","05","02","21:00","10.2","","7.6","","84","","21","","14","","24.1","","98.77","","","","","","NA"
"2014-05-02 22:00","2014","05","02","22:00","10.0","","7.3","","83","","23","","17","","24.1","","98.77","","","","","","Cloudy"
"2014-05-02 23:00","2014","05","02","23:00","9.0","","7.0","","87","","24","","14","","24.1","","98.75","","","","","","Rain Showers"
"2014-05-03 00:00","2014","05","03","00:00","9.1","","7.1","","87","","20","","12","","24.1","","98.73","","","","","","NA"
"2014-05-03 01:00","2014","05","03","01:00","9.1","","7.2","","88","","20","","12","","24.1","","98.69","","","","","","Mostly Cloudy"
"2014-05-03 02:00","2014","05","03","02:00","8.8","","6.9","","88","","20","","14","","16.1","","98.67","","","","","","NA"
"2014-05-03 03:00","2014","05","03","03:00","8.6","","6.6","","87","","20","","10","","16.1","","98.63","","","","","","NA"
"2014-05-03 04:00","2014","05","03","04:00","8.4","","6.4","","87","","20","","10","","19.3","","98.62","","","","","","Cloudy"
"2014-05-03 05:00","2014","05","03","05:00","8.4","","6.2","","86","","19","","10","","24.1","","98.60","","","","","","NA"
"2014-05-03 06:00","2014","05","03","06:00","8.7","","5.8","","82","","20","","11","","24.1","","98.60","","","","","","NA"
"2014-05-03 07:00","2014","05","03","07:00","8.7","","6.0","","83","","21","","17","","24.1","","98.60","","","","","","Cloudy"
"2014-05-03 08:00","2014","05","03","08:00","9.1","","6.2","","82","","21","","18","","24.1","","98.60","","","","","","NA"
"2014-05-03 09:00","2014","05","03","09:00","10.2","","6.8","","79","","21","","19","","24.1","","98.57","","","","","","NA"
"2014-05-03 10:00","2014","05","03","10:00","10.6","","6.6","","76","","23","","21","","24.1","","98.53","","","","","","Cloudy"
"2014-05-03 11:00","2014","05","03","11:00","11.1","","7.3","","77","","21","","15","","24.1","","98.47","","","","","","NA"
"2014-05-03 12:00","2014","05","03","12:00","12.3","","6.6","","68","","23","","23","","24.1","","98.41","","","","","","NA"
"2014-05-03 13:00","2014","05","03","13:00","10.6","","7.0","","78","","22","","22","","16.1","","98.38","","","","","","Rain"
"2014-05-03 14:00","2014","05","03","14:00","10.6","","7.0","","78","","20","","16","","24.1","","98.36","","","","","","NA"
"2014-05-03 15:00","2014","05","03","15:00","11.5","","7.5","","76","","20","","15","","24.1","","98.24","","","","","","NA"
"2014-05-03 16:00","2014","05","03","16:00","11.1","","7.1","","76","","18","","21","","19.3","","98.17","","","","","","Rain"
"2014-05-03 17:00","2014","05","03","17:00","9.8","","8.3","","90","","15","","10","","12.9","","98.15","","","","","","Rain"
"2014-05-03 18:00","2014","05","03","18:00","11.1","","8.2","","82","","25","","22","","19.3","","98.16","","","","","","NA"
"2014-05-03 19:00","2014","05","03","19:00","10.2","","5.8","","74","","27","","29","","24.1","","98.25","","","","","","Mainly Clear"
"2014-05-03 20:00","2014","05","03","20:00","9.1","","4.4","","72","","28","","34","","24.1","","98.34","","","","","","NA"
"2014-05-03 21:00","2014","05","03","21:00","8.3","","4.3","","76","","29","","25","","24.1","","98.40","","","","","","NA"
"2014-05-03 22:00","2014","05","03","22:00","8.1","","3.8","","74","","28","","42","","24.1","","98.44","","","","","","Mostly Cloudy"
"2014-05-03 23:00","2014","05","03","23:00","7.7","","2.6","","70","","29","","37","","24.1","","98.49","","","","","","NA"
"2014-05-04 00:00","2014","05","04","00:00","7.2","","2.7","","73","","29","","27","","24.1","","98.50","","","","","","NA"
"2014-05-04 01:00","2014","05","04","01:00","6.3","","2.2","","75","","29","","32","","24.1","","98.51","","","","","","Mostly Cloudy"
"2014-05-04 02:00","2014","05","04","02:00","5.0","","1.5","","78","","29","","28","","24.1","","98.53","","","","","","NA"
"2014-05-04 03:00","2014","05","04","03:00","5.3","","1.8","","78","","29","","29","","24.1","","98.57","","","","","","NA"
"2014-05-04 04:00","2014","05","04","04:00","5.6","","1.9","","77","","29","","24","","24.1","","98.60","","","","","","Mostly Cloudy"
"2014-05-04 05:00","2014","05","04","05:00","5.7","","1.6","","75","","31","","27","","24.1","","98.64","","","","","","NA"
"2014-05-04 06:00","2014","05","04","06:00","6.2","","1.5","","72","","30","","22","","24.1","","98.72","","","","","","NA"
"2014-05-04 07:00","2014","05","04","07:00","6.7","","2.0","","72","","29","","30","","24.1","","98.73","","","","","","Mainly Clear"
"2014-05-04 08:00","2014","05","04","08:00","8.3","","1.9","","64","","29","","37","","24.1","","98.72","","","","","","NA"
"2014-05-04 09:00","2014","05","04","09:00","10.1","","1.5","","55","","31","","36","","24.1","","98.70","","","","","","NA"
"2014-05-04 10:00","2014","05","04","10:00","11.0","","1.0","","50","","30","","45","","24.1","","98.72","","","","","","Mainly Clear"
"2014-05-04 11:00","2014","05","04","11:00","11.8","","0.0","","44","","30","","44","","24.1","","98.75","","","","","","NA"
"2014-05-04 12:00","2014","05","04","12:00","12.8","","-0.4","","40","","30","","48","","24.1","","98.79","","","","","","NA"
"2014-05-04 13:00","2014","05","04","13:00","12.1","","-0.4","","42","","31","","49","","24.1","","98.86","","","","","","Mainly Clear"
"2014-05-04 14:00","2014","05","04","14:00","13.2","","0.3","","41","","29","","45","","24.1","","98.88","","","","","","NA"
"2014-05-04 15:00","2014","05","04","15:00","12.8","","-0.8","","39","","32","","49","","24.1","","98.91","","","","","","NA"
"2014-05-04 16:00","2014","05","04","16:00","12.1","","0.6","","45","","31","","41","","24.1","","99.00","","","","","","Mainly Clear"
"2014-05-04 17:00","2014","05","04","17:00","10.9","","0.1","","47","","30","","46","","24.1","","99.07","","","","","","NA"
"2014-05-04 18:00","2014","05","04","18:00","10.2","","1.1","","53","","31","","39","","24.1","","99.15","","","","","","NA"
"2014-05-04 19:00","2014","05","04","19:00","9.2","","1.4","","58","","30","","29","","24.1","","99.24","","","","","","Clear"
"2014-05-04 20:00","2014","05","04","20:00","8.3","","1.3","","61","","31","","23","","24.1","","99.35","","","","","","NA"
"2014-05-04 21:00","2014","05","04","21:00","7.2","","1.5","","67","","31","","21","","24.1","","99.46","","","","","","NA"
"2014-05-04 22:00","2014","05","04","22:00","6.6","","1.5","","70","","31","","21","","24.1","","99.50","","","","","","Clear"
"2014-05-04 23:00","2014","05","04","23:00","6.1","","1.6","","73","","30","","21","","24.1","","99.52","","","","","","NA"
"2014-05-05 00:00","2014","05","05","00:00","5.5","","1.4","","75","","31","","22","","24.1","","99.55","","","","","","NA"
"2014-05-05 01:00","2014","05","05","01:00","4.6","","1.3","","79","","31","","18","","24.1","","99.57","","","","","","Clear"
"2014-05-05 02:00","2014","05","05","02:00","4.6","","1.1","","78","","31","","19","","24.1","","99.57","","","","","","NA"
"2014-05-05 03:00","2014","05","05","03:00","4.3","","1.0","","79","","33","","23","","24.1","","99.59","","","","","","NA"
"2014-05-05 04:00","2014","05","05","04:00","2.9","","0.3","","83","","32","","13","","24.1","","99.63","","","","","","Clear"
"2014-05-05 05:00","2014","05","05","05:00","3.6","","0.3","","79","","32","","15","","24.1","","99.70","","","","","","NA"
"2014-05-05 06:00","2014","05","05","06:00","4.4","","0.4","","75","","35","","14","","24.1","","99.74","","","","","","NA"
"2014-05-05 07:00","2014","05","05","07:00","5.9","","1.3","","72","","36","","20","","24.1","","99.75","","","","","","Mostly Cloudy"
"2014-05-05 08:00","2014","05","05","08:00","8.2","","0.5","","58","","2","","16","","24.1","","99.76","","","","","","NA"
"2014-05-05 09:00","2014","05","05","09:00","9.9","","0.0","","50","","1","","13","","24.1","","99.70","","","","","","NA"
"2014-05-05 10:00","2014","05","05","10:00","11.3","","1.9","","52","","35","","6","","24.1","","99.73","","","","","","Mostly Cloudy"
"2014-05-05 11:00","2014","05","05","11:00","11.6","","-0.8","","42","","35","","8","","24.1","","99.72","","","","","","NA"
"2014-05-05 12:00","2014","05","05","12:00","12.6","","0.7","","44","","26","","5","","24.1","","99.68","","","","","","NA"
"2014-05-05 13:00","2014","05","05","13:00","13.4","","0.8","","42","","32","","16","","24.1","","99.60","","","","","","Mostly Cloudy"
"2014-05-05 14:00","2014","05","05","14:00","14.1","","1.8","","43","","35","","9","","24.1","","99.53","","","","","","NA"
"2014-05-05 15:00","2014","05","05","15:00","14.3","","1.0","","40","","33","","9","","24.1","","99.45","","","","","","NA"
"2014-05-05 16:00","2014","05","05","16:00","13.8","","0.5","","40","","5","","9","","24.1","","99.40","","","","","","Mostly Cloudy"
"2014-05-05 17:00","2014","05","05","17:00","13.7","","-0.3","","38","","22","","4","","24.1","","99.39","","","","","","NA"
"2014-05-05 18:00","2014","05","05","18:00","12.6","","1.9","","48","","9","","3","","24.1","","99.38","","","","","","NA"
"2014-05-05 19:00","2014","05","05","19:00","12.1","","-0.7","","41","","35","","21","","24.1","","99.40","","","","","","Mostly Cloudy"
"2014-05-05 20:00","2014","05","05","20:00","10.6","","-0.2","","47","","36","","15","","24.1","","99.38","","","","","","NA"
"2014-05-05 21:00","2014","05","05","21:00","9.8","","-0.7","","48","","35","","17","","24.1","","99.43","","","","","","NA"
"2014-05-05 22:00","2014","05","05","22:00","8.7","","-1.1","","50","","1","","18","","24.1","","99.42","","","","","","Mostly Cloudy"
"2014-05-05 23:00","2014","05","05","23:00","8.3","","-1.8","","49","","36","","17","","24.1","","99.42","","","","","","NA"
"2014-05-06 00:00","2014","05","06","00:00","7.4","","-2.3","","50","","36","","21","","24.1","","99.43","","","","","","NA"
"2014-05-06 01:00","2014","05","06","01:00","7.1","","-1.6","","54","","35","","21","","24.1","","99.45","","","","","","Cloudy"
"2014-05-06 02:00","2014","05","06","02:00","6.7","","-0.7","","59","","36","","24","","24.1","","99.44","","","","","","NA"
"2014-05-06 03:00","2014","05","06","03:00","6.7","","-0.5","","60","","36","","23","","24.1","","99.47","","","","","","NA"
"2014-05-06 04:00","2014","05","06","04:00","5.7","","-0.4","","65","","35","","22","","24.1","","99.47","","","","","","Mainly Clear"
"2014-05-06 05:00","2014","05","06","05:00","5.3","","-0.3","","67","","34","","20","","24.1","","99.52","","","","","","NA"
"2014-05-06 06:00","2014","05","06","06:00","5.6","","0.2","","68","","36","","23","","24.1","","99.60","","","","","","NA"
"2014-05-06 07:00","2014","05","06","07:00","6.6","","1.1","","68","","36","","15","","24.1","","99.68","","","","","","Mostly Cloudy"
"2014-05-06 08:00","2014","05","06","08:00","8.7","","0.9","","58","","1","","14","","24.1","","99.75","","","","","","NA"
"2014-05-06 09:00","2014","05","06","09:00","10.7","","0.7","","50","","2","","5","","24.1","","99.77","","","","","","NA"
"2014-05-06 10:00","2014","05","06","10:00","11.9","","0.4","","45","","31","","5","","24.1","","99.80","","","","","","Mainly Clear"
"2014-05-06 11:00","2014","05","06","11:00","13.8","","2.5","","46","","34","","14","","24.1","","99.78","","","","","","NA"
"2014-05-06 12:00","2014","05","06","12:00","13.4","","1.5","","44","","36","","14","","24.1","","99.75","","","","","","NA"
"2014-05-06 13:00","2014","05","06","13:00","14.5","","1.8","","42","","1","","18","","24.1","","99.75","","","","","","Mostly Cloudy"
"2014-05-06 14:00","2014","05","06","14:00","14.8","","1.4","","40","","33","","13","","24.1","","99.73","","","","","","NA"
"2014-05-06 15:00","2014","05","06","15:00","14.8","","-0.1","","36","","34","","18","","24.1","","99.71","","","","","","NA"
"2014-05-06 16:00","2014","05","06","16:00","14.8","","-0.8","","34","","1","","23","","24.1","","99.74","","","","","","Clear"
"2014-05-06 17:00","2014","05","06","17:00","13.9","","-1.2","","35","","1","","17","","24.1","","99.76","","","","","","NA"
"2014-05-06 18:00","2014","05","06","18:00","12.7","","-1.2","","38","","1","","17","","24.1","","99.79","","","","","","NA"
"2014-05-06 19:00","2014","05","06","19:00","11.3","","-3.6","","35","","1","","19","","24.1","","99.86","","","","","","Mainly Clear"
"2014-05-06 20:00","2014","05","06","20:00","10.0","","-0.5","","48","","36","","17","","24.1","","99.92","","","","","","NA"
"2014-05-06 21:00","2014","05","06","21:00","8.3","","-1.2","","51","","36","","23","","24.1","","99.99","","","","","","NA"
"2014-05-06 22:00","2014","05","06","22:00","7.4","","-2.1","","51","","36","","22","","24.1","","100.04","","","","","","Mainly Clear"
"2014-05-06 23:00","2014","05","06","23:00","5.9","","-2.0","","57","","2","","13","","24.1","","100.02","","","","","","NA"
"2014-05-07 00:00","2014","05","07","00:00","6.2","","-2.4","","54","","35","","10","","24.1","","100.02","","","","","","NA"
"2014-05-07 01:00","2014","05","07","01:00","5.2","","-2.4","","58","","1","","12","","24.1","","100.01","","","","","","Mostly Cloudy"
"2014-05-07 02:00","2014","05","07","02:00","5.3","","-1.8","","60","","1","","7","","24.1","","100.03","","","","","","NA"
"2014-05-07 03:00","2014","05","07","03:00","5.8","","-1.6","","59","","10","","6","","24.1","","100.00","","","","","","NA"
"2014-05-07 04:00","2014","05","07","04:00","6.5","","-2.4","","53","","9","","12","","24.1","","100.07","","","","","","Mainly Clear"
"2014-05-07 05:00","2014","05","07","05:00","6.4","","-1.7","","56","","8","","12","","24.1","","100.11","","","","","","NA"
"2014-05-07 06:00","2014","05","07","06:00","7.1","","-1.6","","54","","8","","10","","24.1","","100.21","","","","","","NA"
"2014-05-07 07:00","2014","05","07","07:00","8.3","","-1.5","","50","","8","","17","","24.1","","100.31","","","","","","Cloudy"
"2014-05-07 08:00","2014","05","07","08:00","9.1","","-2.2","","45","","8","","23","","24.1","","100.30","","","","","","NA"
"2014-05-07 09:00","2014","05","07","09:00","10.1","","-2.5","","41","","11","","19","","24.1","","100.33","","","","","","NA"
"2014-05-07 10:00","2014","05","07","10:00","12.1","","-1.7","","38","","10","","22","","24.1","","100.29","","","","","","Mostly Cloudy"
"2014-05-07 11:00","2014","05","07","11:00","11.9","","-3.0","","35","","8","","24","","24.1","","100.26","","","","","","NA"
"2014-05-07 12:00","2014","05","07","12:00","12.6","","-1.3","","38","","10","","24","","24.1","","100.16","","","","","","NA"
"2014-05-07 13:00","2014","05","07","13:00","12.6","","-2.0","","36","","1","","24","","24.1","","100.11","","","","","","Cloudy"
"2014-05-07 14:00","2014","05","07","14:00","12.6","","-2.8","","34","","7","","25","","24.1","","100.05","","","","","","NA"
"2014-05-07 15:00","2014","05","07","15:00","13.0","","-3.3","","32","","7","","28","","24.1","","100.02","","","","","","NA"
"2014-05-07 16:00","2014","05","07","16:00","12.6","","-3.2","","33","","9","","22","","24.1","","100.03","","","","","","Cloudy"
"2014-05-07 17:00","2014","05","07","17:00","12.4","","-3.4","","33","","10","","19","","24.1","","99.95","","","","","","NA"
"2014-05-07 18:00","2014","05","07","18:00","12.1","","-4.1","","32","","9","","24","","24.1","","99.91","","","","","","NA"
"2014-05-07 19:00","2014","05","07","19:00","11.7","","-4.0","","33","","9","","15","","24.1","","99.94","","","","","","Cloudy"
"2014-05-07 20:00","2014","05","07","20:00","11.7","","-5.3","","30","","8","","7","","24.1","","99.99","","","","","","NA"
"2014-05-07 21:00","2014","05","07","21:00","11.2","","-3.7","","35","","10","","14","","24.1","","99.99","","","","","","NA"
"2014-05-07 22:00","2014","05","07","22:00","10.6","","-2.1","","41","","7","","11","","24.1","","99.90","","","","","","Rain Showers"
"2014-05-07 23:00","2014","05","07","23:00","10.4","","-1.3","","44","","7","","6","","24.1","","99.89","","","","","","Rain Showers"
"2014-05-08 00:00","2014","05","08","00:00","10.5","","-0.6","","46","","8","","10","","24.1","","99.86","","","","","","Rain Showers"
"2014-05-08 01:00","2014","05","08","01:00","10.8","","-1.2","","43","","8","","13","","24.1","","99.82","","","","","","Mostly Cloudy"
"2014-05-08 02:00","2014","05","08","02:00","11.2","","-2.2","","39","","10","","16","","24.1","","99.80","","","","","","NA"
"2014-05-08 03:00","2014","05","08","03:00","10.9","","-1.8","","41","","9","","13","","24.1","","99.83","","","","","","NA"
"2014-05-08 04:00","2014","05","08","04:00","10.4","","-1.3","","44","","8","","14","","24.1","","99.79","","","","","","Mostly Cloudy"
"2014-05-08 05:00","2014","05","08","05:00","10.2","","-1.2","","45","","9","","14","","24.1","","99.78","","","","","","NA"
"2014-05-08 06:00","2014","05","08","06:00","10.8","","0.0","","47","","10","","12","","24.1","","99.83","","","","","","NA"
"2014-05-08 07:00","2014","05","08","07:00","11.5","","0.3","","46","","9","","11","","24.1","","99.88","","","","","","Cloudy"
"2014-05-08 08:00","2014","05","08","08:00","11.8","","0.6","","46","","9","","15","","24.1","","99.88","","","","","","NA"
"2014-05-08 09:00","2014","05","08","09:00","13.5","","1.6","","44","","7","","18","","24.1","","99.82","","","","","","NA"
"2014-05-08 10:00","2014","05","08","10:00","12.4","","1.2","","46","","11","","17","","24.1","","99.77","","","","","","Cloudy"
"2014-05-08 11:00","2014","05","08","11:00","13.9","","3.1","","48","","8","","14","","24.1","","99.89","","","","","","NA"
"2014-05-08 12:00","2014","05","08","12:00","16.8","","4.9","","45","","10","","18","","24.1","","99.81","","","","","","NA"
"2014-05-08 13:00","2014","05","08","13:00","17.6","","6.0","","46","","9","","23","","24.1","","99.67","","","","","","Cloudy"
"2014-05-08 14:00","2014","05","08","14:00","18.0","","6.3","","46","","11","","22","","24.1","","99.73","","","","","","NA"
"2014-05-08 15:00","2014","05","08","15:00","18.4","","6.4","","45","","11","","24","","24.1","","99.70","","","","","","NA"
"2014-05-08 16:00","2014","05","08","16:00","18.5","","3.7","","37","","9","","21","","24.1","","99.63","","","","","","Mostly Cloudy"
"2014-05-08 17:00","2014","05","08","17:00","17.1","","2.4","","37","","9","","20","","24.1","","99.59","","","","","","NA"
"2014-05-08 18:00","2014","05","08","18:00","16.0","","4.5","","46","","9","","18","","24.1","","99.57","","","","","","NA"
"2014-05-08 19:00","2014","05","08","19:00","15.5","","5.5","","51","","11","","21","","24.1","","99.53","","","","","","Cloudy"
"2014-05-08 20:00","2014","05","08","20:00","15.3","","5.9","","53","","7","","12","","24.1","","99.61","","","","","","NA"
"2014-05-08 21:00","2014","05","08","21:00","15.7","","3.6","","44","","10","","17","","24.1","","99.67","","","","","","NA"
"2014-05-08 22:00","2014","05","08","22:00","16.5","","1.1","","35","","10","","6","","24.1","","99.73","","","","","","Cloudy"
"2014-05-08 23:00","2014","05","08","23:00","16.7","","-2.3","","27","","9","","15","","24.1","","99.64","","","","","","NA"
"2014-05-09 00:00","2014","05","09","00:00","13.8","","-0.2","","38","","8","","17","","24.1","","99.48","","","","","","NA"
"2014-05-09 01:00","2014","05","09","01:00","13.5","","1.6","","44","","11","","16","","24.1","","99.47","","","","","","Mainly Clear"
"2014-05-09 02:00","2014","05","09","02:00","13.1","","2.1","","47","","10","","10","","24.1","","99.39","","","","","","NA"
"2014-05-09 03:00","2014","05","09","03:00","12.6","","2.8","","51","","9","","11","","24.1","","99.38","","","","","","NA"
"2014-05-09 04:00","2014","05","09","04:00","12.0","","3.3","","55","","9","","6","","24.1","","99.33","","","","","","Mainly Clear"
"2014-05-09 05:00","2014","05","09","05:00","11.5","","4.1","","60","","11","","11","","24.1","","99.34","","","","","","NA"
"2014-05-09 06:00","2014","05","09","06:00","11.4","","4.9","","64","","10","","17","","24.1","","99.34","","","","","","NA"
"2014-05-09 07:00","2014","05","09","07:00","11.3","","5.2","","66","","12","","7","","24.1","","99.35","","","","","","Mostly Cloudy"
"2014-05-09 08:00","2014","05","09","08:00","13.6","","6.8","","63","","15","","6","","24.1","","99.29","","","","","","NA"
"2014-05-09 09:00","2014","05","09","09:00","15.0","","8.1","","63","","16","","8","","24.1","","99.28","","","","","","NA"
"2014-05-09 10:00","2014","05","09","10:00","16.2","","8.0","","58","","13","","13","","24.1","","99.22","","","","","","Mostly Cloudy"
"2014-05-09 11:00","2014","05","09","11:00","17.8","","9.0","","56","","18","","8","","24.1","","99.14","","","","","","NA"
"2014-05-09 12:00","2014","05","09","12:00","16.8","","8.8","","59","","15","","15","","24.1","","99.07","","","","","","NA"
"2014-05-09 13:00","2014","05","09","13:00","16.2","","9.0","","62","","15","","16","","24.1","","98.98","","","","","","Mostly Cloudy"
"2014-05-09 14:00","2014","05","09","14:00","17.4","","9.4","","59","","14","","15","","24.1","","98.88","","","","","","NA"
"2014-05-09 15:00","2014","05","09","15:00","18.1","","9.6","","57","","15","","17","","24.1","","98.81","","","","","","NA"
"2014-05-09 16:00","2014","05","09","16:00","18.0","","10.9","","63","","18","","21","","19.3","","98.84","","","","","","Rain Showers"
"2014-05-09 17:00","2014","05","09","17:00","16.3","","12.9","","80","","17","","11","","24.1","","98.78","","","","","","NA"
"2014-05-09 18:00","2014","05","09","18:00","18.0","","14.7","","81","","18","","15","","24.1","","98.70","","","","","","NA"
"2014-05-09 19:00","2014","05","09","19:00","18.2","","14.4","","78","","18","","15","","24.1","","98.66","","","","","","Rain Showers"
"2014-05-09 20:00","2014","05","09","20:00","18.2","","14.9","","81","","18","","13","","24.1","","98.65","","","","","","NA"
"2014-05-09 21:00","2014","05","09","21:00","19.7","","15.0","","74","","22","","25","","24.1","","98.65","","","","","","NA"
"2014-05-09 22:00","2014","05","09","22:00","19.4","","14.9","","75","","21","","26","","24.1","","98.65","","","","","","Cloudy"
"2014-05-09 23:00","2014","05","09","23:00","19.3","","14.8","","75","","23","","23","","24.1","","98.63","","","","","","NA"
"2014-05-10 00:00","2014","05","10","00:00","19.2","","14.7","","75","","23","","18","","24.1","","98.63","","","","","","NA"
"2014-05-10 01:00","2014","05","10","01:00","19.2","","13.5","","69","","22","","21","","24.1","","98.59","","","","","","Cloudy"
"2014-05-10 02:00","2014","05","10","02:00","19.6","","10.7","","56","","26","","28","","24.1","","98.58","","","","","","NA"
"2014-05-10 03:00","2014","05","10","03:00","18.1","","10.1","","59","","25","","26","","24.1","","98.66","","","","","","NA"
"2014-05-10 04:00","2014","05","10","04:00","16.6","","11.0","","69","","25","","21","","24.1","","98.71","","","","","","Clear"
"2014-05-10 05:00","2014","05","10","05:00","15.4","","11.2","","76","","26","","19","","24.1","","98.79","","","","","","NA"
"2014-05-10 06:00","2014","05","10","06:00","15.5","","9.9","","69","","27","","24","","24.1","","98.88","","","","","","NA"
"2014-05-10 07:00","2014","05","10","07:00","16.2","","9.2","","63","","25","","24","","24.1","","98.93","","","","","","Clear"
"2014-05-10 08:00","2014","05","10","08:00","16.4","","7.4","","55","","29","","31","","24.1","","98.96","","","","","","NA"
"2014-05-10 09:00","2014","05","10","09:00","16.8","","7.3","","53","","27","","30","","24.1","","98.98","","","","","","NA"
"2014-05-10 10:00","2014","05","10","10:00","17.4","","6.4","","48","","27","","33","","24.1","","98.99","","","","","","Mostly Cloudy"
"2014-05-10 11:00","2014","05","10","11:00","18.1","","4.4","","40","","26","","35","","24.1","","99.01","","","","","","NA"
"2014-05-10 12:00","2014","05","10","12:00","18.6","","5.2","","41","","26","","31","","24.1","","99.01","","","","","","NA"
"2014-05-10 13:00","2014","05","10","13:00","18.8","","3.9","","37","","26","","31","","24.1","","98.98","","","","","","Mostly Cloudy"
"2014-05-10 14:00","2014","05","10","14:00","19.7","","3.6","","34","","25","","33","","24.1","","98.98","","","","","","NA"
"2014-05-10 15:00","2014","05","10","15:00","18.9","","4.8","","39","","28","","24","","24.1","","98.99","","","","","","NA"
"2014-05-10 16:00","2014","05","10","16:00","18.7","","4.2","","38","","27","","30","","24.1","","99.03","","","","","","Mostly Cloudy"
"2014-05-10 17:00","2014","05","10","17:00","19.1","","4.6","","38","","28","","24","","24.1","","99.04","","","","","","NA"
"2014-05-10 18:00","2014","05","10","18:00","18.3","","3.5","","37","","28","","31","","24.1","","99.03","","","","","","NA"
"2014-05-10 19:00","2014","05","10","19:00","17.4","","2.7","","37","","29","","27","","24.1","","99.08","","","","","","Mainly Clear"
"2014-05-10 20:00","2014","05","10","20:00","15.1","","3.0","","44","","28","","13","","24.1","","99.12","","","","","","NA"
"2014-05-10 21:00","2014","05","10","21:00","14.0","","3.2","","48","","25","","12","","24.1","","99.21","","","","","","NA"
"2014-05-10 22:00","2014","05","10","22:00","11.1","","4.1","","62","","35","","15","","24.1","","99.31","","","","","","Clear"
"2014-05-10 23:00","2014","05","10","23:00","10.1","","4.1","","66","","34","","12","","24.1","","99.35","","","","","","NA"
"2014-05-11 00:00","2014","05","11","00:00","9.2","","4.0","","70","","33","","12","","24.1","","99.38","","","","","","NA"
"2014-05-11 01:00","2014","05","11","01:00","9.0","","3.9","","70","","30","","5","","24.1","","99.41","","","","","","Clear"
"2014-05-11 02:00","2014","05","11","02:00","7.3","","3.7","","78","","25","","6","","24.1","","99.45","","","","","","NA"
"2014-05-11 03:00","2014","05","11","03:00","7.6","","3.3","","74","","27","","9","","24.1","","99.53","","","","","","NA"
"2014-05-11 04:00","2014","05","11","04:00","6.7","","3.0","","77","","26","","14","","24.1","","99.60","","","","","","Clear"
"2014-05-11 05:00","2014","05","11","05:00","6.9","","2.4","","73","","28","","12","","24.1","","99.65","","","","","","NA"
"2014-05-11 06:00","2014","05","11","06:00","8.6","","3.9","","72","","27","","8","","24.1","","99.73","","","","","","NA"
"2014-05-11 07:00","2014","05","11","07:00","11.5","","4.5","","62","","25","","7","","24.1","","99.77","","","","","","Clear"
"2014-05-11 08:00","2014","05","11","08:00","13.4","","4.4","","54","","19","","8","","24.1","","99.77","","","","","","NA"
"2014-05-11 09:00","2014","05","11","09:00","15.9","","4.7","","47","","18","","8","","24.1","","99.80","","","","","","NA"
"2014-05-11 10:00","2014","05","11","10:00","17.3","","6.0","","47","","18","","14","","24.1","","99.80","","","","","","Clear"
"2014-05-11 11:00","2014","05","11","11:00","18.8","","4.7","","39","","17","","17","","24.1","","99.81","","","","","","NA"
"2014-05-11 12:00","2014","05","11","12:00","19.8","","4.8","","37","","16","","23","","24.1","","99.76","","","","","","NA"
"2014-05-11 13:00","2014","05","11","13:00","20.3","","3.7","","33","","16","","26","","24.1","","99.70","","","","","","Mainly Clear"
"2014-05-11 14:00","2014","05","11","14:00","21.9","","5.5","","34","","16","","22","","24.1","","99.68","","","","","","NA"
"2014-05-11 15:00","2014","05","11","15:00","22.5","","6.0","","34","","21","","15","","24.1","","99.59","","","","","","NA"
"2014-05-11 16:00","2014","05","11","16:00","23.3","","5.0","","30","","23","","18","","24.1","","99.58","","","","","","Mainly Clear"
"2014-05-11 17:00","2014","05","11","17:00","21.5","","4.3","","32","","16","","22","","24.1","","99.61","","","","","","NA"
"2014-05-11 18:00","2014","05","11","18:00","21.8","","5.0","","33","","18","","16","","24.1","","99.59","","","","","","NA"
"2014-05-11 19:00","2014","05","11","19:00","20.5","","3.8","","33","","19","","15","","24.1","","99.56","","","","","","Mostly Cloudy"
"2014-05-11 20:00","2014","05","11","20:00","19.3","","4.8","","38","","18","","11","","24.1","","99.58","","","","","","NA"
"2014-05-11 21:00","2014","05","11","21:00","18.9","","4.8","","39","","21","","8","","24.1","","99.63","","","","","","NA"
"2014-05-11 22:00","2014","05","11","22:00","17.9","","3.5","","38","","22","","7","","24.1","","99.66","","","","","","Mostly Cloudy"
"2014-05-11 23:00","2014","05","11","23:00","17.0","","3.8","","41","","20","","4","","24.1","","99.67","","","","","","NA"
"2014-05-12 00:00","2014","05","12","00:00","16.2","","4.7","","46","","19","","3","","24.1","","99.65","","","","","","NA"
"2014-05-12 01:00","2014","05","12","01:00","14.9","","5.5","","53","","18","","5","","24.1","","99.72","","","","","","Mostly Cloudy"
"2014-05-12 02:00","2014","05","12","02:00","14.3","","5.5","","55","","35","","8","","24.1","","99.65","","","","","","NA"
"2014-05-12 03:00","2014","05","12","03:00","14.1","","5.0","","54","","26","","4","","24.1","","99.63","","","","","","NA"
"2014-05-12 04:00","2014","05","12","04:00","14.7","","5.8","","55","","9","","3","","24.1","","99.65","","","","","","Cloudy"
"2014-05-12 05:00","2014","05","12","05:00","13.8","","6.0","","59","","8","","5","","24.1","","99.61","","","","","","NA"
"2014-05-12 06:00","2014","05","12","06:00","14.7","","6.1","","56","","8","","4","","24.1","","99.69","","","","","","NA"
"2014-05-12 07:00","2014","05","12","07:00","15.8","","6.9","","55","","7","","10","","24.1","","99.75","","","","","","Mostly Cloudy"
"2014-05-12 08:00","2014","05","12","08:00","17.2","","6.2","","48","","11","","6","","24.1","","99.76","","","","","","NA"
"2014-05-12 09:00","2014","05","12","09:00","19.5","","5.3","","39","","14","","7","","24.1","","99.74","","","","","","NA"
"2014-05-12 10:00","2014","05","12","10:00","20.3","","4.9","","36","","15","","15","","24.1","","99.72","","","","","","Cloudy"
"2014-05-12 11:00","2014","05","12","11:00","19.1","","6.7","","44","","13","","15","","24.1","","99.74","","","","","","NA"
"2014-05-12 12:00","2014","05","12","12:00","18.3","","6.6","","46","","13","","14","","24.1","","99.73","","","","","","NA"
"2014-05-12 13:00","2014","05","12","13:00","20.5","","8.6","","46","","12","","12","","24.1","","99.68","","","","","","Cloudy"
"2014-05-12 14:00","2014","05","12","14:00","20.7","","9.4","","48","","15","","15","","24.1","","99.69","","","","","","NA"
"2014-05-12 15:00","2014","05","12","15:00","18.0","","6.0","","45","","13","","17","","24.1","","99.63","","","","","","NA"
"2014-05-12 16:00","2014","05","12","16:00","16.4","","4.2","","44","","15","","17","","24.1","","99.59","","","","","","Cloudy"
"2014-05-12 17:00","2014","05","12","17:00","15.9","","5.0","","48","","13","","9","","24.1","","99.67","","","","","","NA"
"2014-05-12 18:00","2014","05","12","18:00","16.6","","5.6","","48","","14","","11","","24.1","","99.56","","","","","","NA"
"2014-05-12 19:00","2014","05","12","19:00","16.1","","5.5","","49","","16","","7","","24.1","","99.59","","","","","","Cloudy"
"2014-05-12 20:00","2014","05","12","20:00","14.8","","5.1","","52","","16","","7","","24.1","","99.62","","","","","","NA"
"2014-05-12 21:00","2014","05","12","21:00","15.0","","6.9","","58","","19","","9","","24.1","","99.63","","","","","","Rain Showers"
"2014-05-12 22:00","2014","05","12","22:00","15.2","","6.8","","57","","36","","2","","24.1","","99.69","","","","","","Rain Showers"
"2014-05-12 23:00","2014","05","12","23:00","15.0","","9.6","","70","","5","","10","","24.1","","99.66","","","","","","NA"
"2014-05-13 00:00","2014","05","13","00:00","14.6","","9.7","","72","","12","","6","","24.1","","99.64","","","","","","NA"
"2014-05-13 01:00","2014","05","13","01:00","13.8","","9.9","","77","","10","","9","","24.1","","99.62","","","","","","Mostly Cloudy"
"2014-05-13 02:00","2014","05","13","02:00","13.4","","8.9","","74","","7","","9","","24.1","","99.58","","","","","","NA"
"2014-05-13 03:00","2014","05","13","03:00","13.4","","9.3","","76","","15","","11","","24.1","","99.65","","","","","","NA"
"2014-05-13 04:00","2014","05","13","04:00","13.1","","11.2","","88","","11","","9","","16.1","","99.63","","","","","","Thunderstorms,Rain Showers"
"2014-05-13 05:00","2014","05","13","05:00","12.5","","9.5","","82","","13","","13","","24.1","","99.60","","","","","","Rain Showers"
"2014-05-13 06:00","2014","05","13","06:00","13.0","","9.9","","81","","9","","9","","24.1","","99.73","","","","","","NA"
"2014-05-13 07:00","2014","05","13","07:00","13.1","","9.8","","80","","12","","14","","19.3","","99.69","","","","","","Cloudy"
"2014-05-13 08:00","2014","05","13","08:00","12.7","","9.2","","79","","5","","8","","19.3","","99.80","","","","","","Rain Showers"
"2014-05-13 09:00","2014","05","13","09:00","12.9","","9.6","","80","","10","","14","","19.3","","99.75","","","","","","NA"
"2014-05-13 10:00","2014","05","13","10:00","14.5","","10.2","","75","","10","","13","","24.1","","99.71","","","","","","Cloudy"
"2014-05-13 11:00","2014","05","13","11:00","16.4","","12.6","","78","","16","","12","","24.1","","99.69","","","","","","NA"
"2014-05-13 12:00","2014","05","13","12:00","17.9","","13.7","","76","","16","","9","","19.3","","99.64","","","","","","NA"
"2014-05-13 13:00","2014","05","13","13:00","19.5","","13.5","","68","","16","","15","","24.1","","99.58","","","","","","Mainly Clear"
"2014-05-13 14:00","2014","05","13","14:00","19.6","","12.9","","65","","14","","14","","24.1","","99.49","","","","","","NA"
"2014-05-13 15:00","2014","05","13","15:00","20.6","","13.4","","63","","13","","13","","24.1","","99.42","","","","","","NA"
"2014-05-13 16:00","2014","05","13","16:00","20.5","","12.8","","61","","15","","13","","24.1","","99.41","","","","","","Mostly Cloudy"
"2014-05-13 17:00","2014","05","13","17:00","19.9","","13.0","","64","","16","","8","","24.1","","99.42","","","","","","NA"
"2014-05-13 18:00","2014","05","13","18:00","19.0","","13.0","","68","","16","","9","","24.1","","99.46","","","","","","NA"
"2014-05-13 19:00","2014","05","13","19:00","19.2","","15.9","","81","","31","","8","","11.3","","99.65","","","","","","Rain Showers"
"2014-05-13 20:00","2014","05","13","20:00","18.5","","16.9","","90","","6","","9","","19.3","","99.45","","","","","","Rain Showers"
"2014-05-13 21:00","2014","05","13","21:00","17.8","","16.5","","92","","17","","10","","19.3","","99.51","","","","","","NA"
"2014-05-13 22:00","2014","05","13","22:00","13.1","","12.2","","94","","15","","14","","4.8","","99.58","","","","","","Rain,Fog"
"2014-05-13 23:00","2014","05","13","23:00","13.1","","12.3","","95","","17","","9","","6.4","","99.55","","","","","","Fog"
"2014-05-14 00:00","2014","05","14","00:00","13.8","","12.9","","94","","12","","3","","8.1","","99.58","","","","","","Fog"
"2014-05-14 01:00","2014","05","14","01:00","14.2","","13.4","","95","","15","","7","","8.1","","99.57","","","","","","Fog"
"2014-05-14 02:00","2014","05","14","02:00","15.1","","14.3","","95","","17","","10","","8.1","","99.62","","","","","","Fog"
"2014-05-14 03:00","2014","05","14","03:00","16.3","","15.4","","94","","22","","5","","9.7","","99.60","","","","","","Fog"
"2014-05-14 04:00","2014","05","14","04:00","15.8","","15.0","","95","","14","","10","","8.1","","99.71","","","","","","Fog"
"2014-05-14 05:00","2014","05","14","05:00","13.4","","12.8","","96","","26","","4","","2.8","","99.73","","","","","","Fog"
"2014-05-14 06:00","2014","05","14","06:00","14.4","","13.1","","92","","36","","19","","9.7","","99.78","","","","","","Fog"
"2014-05-14 07:00","2014","05","14","07:00","14.4","","12.6","","89","","36","","22","","12.9","","99.84","","","","","","Cloudy"
"2014-05-14 08:00","2014","05","14","08:00","14.7","","12.9","","89","","35","","17","","16.1","","99.83","","","","","","NA"
"2014-05-14 09:00","2014","05","14","09:00","16.1","","12.3","","78","","34","","20","","24.1","","99.89","","","","","","NA"
"2014-05-14 10:00","2014","05","14","10:00","17.0","","12.6","","75","","36","","20","","24.1","","99.88","","","","","","Cloudy"
"2014-05-14 11:00","2014","05","14","11:00","16.9","","13.1","","78","","35","","15","","24.1","","99.90","","","","","","NA"
"2014-05-14 12:00","2014","05","14","12:00","16.6","","12.6","","77","","1","","14","","24.1","","99.93","","","","","","NA"
"2014-05-14 13:00","2014","05","14","13:00","16.2","","13.0","","81","","36","","16","","24.1","","99.87","","","","","","Cloudy"
"2014-05-14 14:00","2014","05","14","14:00","17.1","","13.3","","78","","36","","15","","24.1","","99.82","","","","","","NA"
"2014-05-14 15:00","2014","05","14","15:00","17.8","","12.8","","72","","35","","12","","24.1","","99.78","","","","","","NA"
"2014-05-14 16:00","2014","05","14","16:00","18.9","","13.4","","70","","2","","18","","24.1","","99.67","","","","","","Mostly Cloudy"
"2014-05-14 17:00","2014","05","14","17:00","18.5","","12.6","","68","","36","","22","","24.1","","99.68","","","","","","Rain Showers"
"2014-05-14 18:00","2014","05","14","18:00","13.7","","12.3","","91","","4","","18","","9.7","","99.72","","","","","","Moderate Rain Showers"
"2014-05-14 19:00","2014","05","14","19:00","13.8","","12.4","","91","","4","","12","","24.1","","99.69","","","","","","Rain Showers"
"2014-05-14 20:00","2014","05","14","20:00","13.6","","11.8","","89","","36","","9","","24.1","","99.66","","","","","","NA"
"2014-05-14 21:00","2014","05","14","21:00","12.2","","10.8","","91","","33","","17","","24.1","","99.67","","","","","","NA"
"2014-05-14 22:00","2014","05","14","22:00","11.1","","9.5","","90","","34","","15","","24.1","","99.64","","","","","","Cloudy"
"2014-05-14 23:00","2014","05","14","23:00","10.7","","8.8","","88","","35","","12","","24.1","","99.61","","","","","","NA"
"2014-05-15 00:00","2014","05","15","00:00","10.5","","8.8","","89","","33","","14","","24.1","","99.56","","","","","","Rain"
"2014-05-15 01:00","2014","05","15","01:00","10.5","","8.8","","89","","36","","14","","24.1","","99.39","","","","","","Cloudy"
"2014-05-15 02:00","2014","05","15","02:00","11.1","","9.7","","91","","2","","9","","24.1","","99.31","","","","","","NA"
"2014-05-15 03:00","2014","05","15","03:00","11.5","","10.3","","92","","34","","5","","24.1","","99.26","","","","","","NA"
"2014-05-15 04:00","2014","05","15","04:00","11.5","","10.9","","96","","3","","3","","0.4","","99.15","","","","","","Fog"
"2014-05-15 05:00","2014","05","15","05:00","11.7","","11.2","","97","","29","","6","","0.2","","99.14","","","","","","Fog"
"2014-05-15 06:00","2014","05","15","06:00","12.6","","12.1","","97","","34","","5","","1.0","","99.17","","","","","","Fog"
"2014-05-15 07:00","2014","05","15","07:00","13.0","","12.5","","97","","2","","4","","3.2","","99.16","","","","","","Fog"
"2014-05-15 08:00","2014","05","15","08:00","14.4","","13.8","","96","","5","","10","","6.4","","99.06","","","","","","Fog"
"2014-05-15 09:00","2014","05","15","09:00","16.6","","14.6","","88","","11","","8","","9.7","","99.02","","","","","","Fog"
"2014-05-15 10:00","2014","05","15","10:00","18.9","","15.4","","80","","13","","13","","12.9","","98.99","","","","","","Mostly Cloudy"
"2014-05-15 11:00","2014","05","15","11:00","17.4","","15.1","","86","","15","","14","","9.7","","98.97","","","","","","Rain Showers"
"2014-05-15 12:00","2014","05","15","12:00","17.3","","15.2","","87","","12","","15","","12.9","","98.91","","","","","","NA"
"2014-05-15 13:00","2014","05","15","13:00","18.3","","15.0","","81","","16","","17","","16.1","","98.87","","","","","","Rain Showers"
"2014-05-15 14:00","2014","05","15","14:00","18.5","","15.4","","82","","15","","13","","16.1","","98.84","","","","","","NA"
"2014-05-15 15:00","2014","05","15","15:00","17.7","","15.7","","88","","17","","12","","12.9","","98.84","","","","","","Rain Showers"
"2014-05-15 16:00","2014","05","15","16:00","17.6","","16.0","","90","","21","","20","","9.7","","98.90","","","","","","Rain Showers"
"2014-05-15 17:00","2014","05","15","17:00","16.9","","15.6","","92","","15","","14","","16.1","","98.93","","","","","","Rain Showers"
"2014-05-15 18:00","2014","05","15","18:00","15.4","","13.1","","86","","19","","15","","16.1","","98.98","","","","","","Rain"
"2014-05-15 19:00","2014","05","15","19:00","14.3","","13.4","","94","","16","","11","","19.3","","99.03","","","","","","Rain"
"2014-05-15 20:00","2014","05","15","20:00","14.4","","11.6","","83","","23","","18","","19.3","","99.09","","","","","","Rain"
"2014-05-15 21:00","2014","05","15","21:00","13.4","","11.8","","90","","21","","13","","11.3","","99.16","","","","","","Rain"
"2014-05-15 22:00","2014","05","15","22:00","12.6","","11.2","","91","","20","","14","","12.9","","99.14","","","","","","Rain"
"2014-05-15 23:00","2014","05","15","23:00","12.3","","10.9","","91","","20","","17","","12.9","","99.12","","","","","","Rain"
"2014-05-16 00:00","2014","05","16","00:00","11.9","","10.8","","93","","17","","12","","16.1","","99.12","","","","","","Rain"
"2014-05-16 01:00","2014","05","16","01:00","11.0","","9.6","","91","","28","","19","","16.1","","99.15","","","","","","Rain"
"2014-05-16 02:00","2014","05","16","02:00","10.0","","8.6","","91","","29","","14","","14.5","","99.17","","","","","","Rain"
"2014-05-16 03:00","2014","05","16","03:00","9.6","","7.2","","85","","29","","18","","14.5","","99.09","","","","","","Rain"
"2014-05-16 04:00","2014","05","16","04:00","9.2","","7.5","","89","","30","","10","","24.1","","99.05","","","","","","Cloudy"
"2014-05-16 05:00","2014","05","16","05:00","8.9","","6.7","","86","","27","","13","","24.1","","99.11","","","","","","NA"
"2014-05-16 06:00","2014","05","16","06:00","8.8","","5.9","","82","","27","","15","","24.1","","99.18","","","","","","NA"
"2014-05-16 07:00","2014","05","16","07:00","8.3","","4.9","","79","","28","","23","","24.1","","99.16","","","","","","Cloudy"
"2014-05-16 08:00","2014","05","16","08:00","8.0","","4.2","","77","","27","","20","","24.1","","99.25","","","","","","NA"
"2014-05-16 09:00","2014","05","16","09:00","7.9","","3.2","","72","","28","","18","","24.1","","99.27","","","","","","NA"
"2014-05-16 10:00","2014","05","16","10:00","7.9","","3.0","","71","","27","","21","","24.1","","99.27","","","","","","Mostly Cloudy"
"2014-05-16 11:00","2014","05","16","11:00","8.7","","2.9","","67","","28","","21","","24.1","","99.26","","","","","","NA"
"2014-05-16 12:00","2014","05","16","12:00","8.9","","2.5","","64","","29","","18","","24.1","","99.30","","","","","","NA"
"2014-05-16 13:00","2014","05","16","13:00","10.0","","3.8","","65","","30","","5","","24.1","","99.26","","","","","","Mostly Cloudy"
"2014-05-16 14:00","2014","05","16","14:00","11.4","","3.5","","58","","25","","14","","24.1","","99.27","","","","","","NA"
"2014-05-16 15:00","2014","05","16","15:00","12.2","","3.5","","55","","29","","17","","24.1","","99.23","","","","","","NA"
"2014-05-16 16:00","2014","05","16","16:00","11.8","","3.1","","55","","32","","14","","24.1","","99.25","","","","","","Mostly Cloudy"
"2014-05-16 17:00","2014","05","16","17:00","11.6","","2.7","","54","","28","","14","","24.1","","99.26","","","","","","NA"
"2014-05-16 18:00","2014","05","16","18:00","11.6","","2.7","","54","","30","","17","","24.1","","99.29","","","","","","NA"
"2014-05-16 19:00","2014","05","16","19:00","9.8","","4.0","","67","","35","","18","","24.1","","99.39","","","","","","Mostly Cloudy"
"2014-05-16 20:00","2014","05","16","20:00","9.0","","3.0","","66","","32","","24","","24.1","","99.46","","","","","","NA"
"2014-05-16 21:00","2014","05","16","21:00","7.4","","0.8","","63","","31","","26","","24.1","","99.54","","","","","","NA"
"2014-05-16 22:00","2014","05","16","22:00","5.8","","1.2","","72","","34","","17","","24.1","","99.51","","","","","","Mainly Clear"
"2014-05-16 23:00","2014","05","16","23:00","5.3","","0.7","","72","","35","","16","","24.1","","99.49","","","","","","NA"
"2014-05-17 00:00","2014","05","17","00:00","4.3","","0.6","","77","","33","","13","","24.1","","99.46","","","","","","NA"
"2014-05-17 01:00","2014","05","17","01:00","4.3","","0.6","","77","","31","","15","","24.1","","99.45","","","","","","Clear"
"2014-05-17 02:00","2014","05","17","02:00","3.7","","-0.3","","75","","31","","11","","24.1","","99.48","","","","","","NA"
"2014-05-17 03:00","2014","05","17","03:00","3.1","","-0.5","","77","","28","","9","","24.1","","99.49","","","","","","NA"
"2014-05-17 04:00","2014","05","17","04:00","2.6","","-0.3","","81","","27","","13","","24.1","","99.55","","","","","","Mainly Clear"
"2014-05-17 05:00","2014","05","17","05:00","3.7","","0.1","","77","","29","","9","","24.1","","99.59","","","","","","NA"
"2014-05-17 06:00","2014","05","17","06:00","4.3","","0.1","","74","","28","","10","","24.1","","99.61","","","","","","NA"
"2014-05-17 07:00","2014","05","17","07:00","5.3","","0.3","","70","","30","","11","","24.1","","99.65","","","","","","Cloudy"
"2014-05-17 08:00","2014","05","17","08:00","5.8","","0.2","","67","","32","","12","","24.1","","99.66","","","","","","NA"
"2014-05-17 09:00","2014","05","17","09:00","7.3","","1.4","","66","","27","","6","","24.1","","99.67","","","","","","NA"
"2014-05-17 10:00","2014","05","17","10:00","7.9","","1.5","","64","","29","","13","","24.1","","99.69","","","","","","Cloudy"
"2014-05-17 11:00","2014","05","17","11:00","8.9","","2.7","","65","","25","","18","","24.1","","99.75","","","","","","NA"
"2014-05-17 12:00","2014","05","17","12:00","9.8","","2.2","","59","","25","","16","","24.1","","99.76","","","","","","NA"
"2014-05-17 13:00","2014","05","17","13:00","11.2","","2.3","","54","","25","","27","","24.1","","99.75","","","","","","Mostly Cloudy"
"2014-05-17 14:00","2014","05","17","14:00","11.0","","1.3","","51","","28","","23","","24.1","","99.77","","","","","","NA"
"2014-05-17 15:00","2014","05","17","15:00","12.0","","0.2","","44","","29","","21","","24.1","","99.77","","","","","","NA"
"2014-05-17 16:00","2014","05","17","16:00","12.2","","-0.6","","41","","28","","23","","24.1","","99.79","","","","","","Mostly Cloudy"
"2014-05-17 17:00","2014","05","17","17:00","12.2","","-1.0","","40","","29","","19","","24.1","","99.83","","","","","","NA"
"2014-05-17 18:00","2014","05","17","18:00","12.1","","-2.5","","36","","27","","10","","24.1","","99.86","","","","","","NA"
"2014-05-17 19:00","2014","05","17","19:00","10.9","","-2.1","","40","","28","","12","","24.1","","99.89","","","","","","Mainly Clear"
"2014-05-17 20:00","2014","05","17","20:00","9.8","","-1.9","","44","","28","","8","","24.1","","99.94","","","","","","NA"
"2014-05-17 21:00","2014","05","17","21:00","9.1","","-1.9","","46","","28","","7","","24.1","","99.99","","","","","","NA"
"2014-05-17 22:00","2014","05","17","22:00","8.6","","-0.9","","51","","4","","4","","24.1","","100.02","","","","","","Clear"
"2014-05-17 23:00","2014","05","17","23:00","6.7","","0.2","","63","","23","","5","","24.1","","100.05","","","","","","NA"
"2014-05-18 00:00","2014","05","18","00:00","6.2","","1.5","","72","","27","","18","","24.1","","100.08","","","","","","NA"
"2014-05-18 01:00","2014","05","18","01:00","7.1","","2.2","","71","","32","","13","","24.1","","100.09","","","","","","Mostly Cloudy"
"2014-05-18 02:00","2014","05","18","02:00","6.3","","2.0","","74","","29","","10","","24.1","","100.13","","","","","","NA"
"2014-05-18 03:00","2014","05","18","03:00","4.3","","1.8","","84","","27","","9","","24.1","","100.16","","","","","","NA"
"2014-05-18 04:00","2014","05","18","04:00","5.0","","2.0","","81","","27","","8","","24.1","","100.20","","","","","","Clear"
"2014-05-18 05:00","2014","05","18","05:00","4.2","","1.6","","83","","27","","6","","24.1","","100.23","","","","","","NA"
"2014-05-18 06:00","2014","05","18","06:00","6.4","","2.5","","76","","27","","6","","24.1","","100.28","","","","","","NA"
"2014-05-18 07:00","2014","05","18","07:00","8.2","","3.1","","70","","26","","5","","24.1","","100.30","","","","","","Clear"
"2014-05-18 08:00","2014","05","18","08:00","10.7","","4.2","","64","","24","","5","","24.1","","100.31","","","","","","NA"
"2014-05-18 09:00","2014","05","18","09:00","11.3","","3.1","","57","","17","","4","","24.1","","100.32","","","","","","NA"
"2014-05-18 10:00","2014","05","18","10:00","10.3","","3.8","","64","","15","","18","","24.1","","100.32","","","","","","Cloudy"
"2014-05-18 11:00","2014","05","18","11:00","12.4","","4.4","","58","","16","","22","","24.1","","100.32","","","","","","NA"
"2014-05-18 12:00","2014","05","18","12:00","14.4","","5.0","","53","","14","","18","","24.1","","100.26","","","","","","NA"
"2014-05-18 13:00","2014","05","18","13:00","12.7","","4.2","","56","","13","","16","","24.1","","100.19","","","","","","Rain Showers"
"2014-05-18 14:00","2014","05","18","14:00","12.0","","3.8","","57","","14","","18","","24.1","","100.16","","","","","","NA"
"2014-05-18 15:00","2014","05","18","15:00","12.0","","5.7","","65","","13","","19","","24.1","","100.11","","","","","","Rain Showers"
"2014-05-18 16:00","2014","05","18","16:00","11.3","","6.5","","72","","14","","15","","19.3","","100.17","","","","","","Rain Showers"
"2014-05-18 17:00","2014","05","18","17:00","11.6","","6.2","","69","","14","","14","","24.1","","100.17","","","","","","NA"
"2014-05-18 18:00","2014","05","18","18:00","12.1","","5.5","","64","","15","","13","","24.1","","100.13","","","","","","NA"
"2014-05-18 19:00","2014","05","18","19:00","11.6","","4.4","","61","","10","","4","","24.1","","100.17","","","","","","Mainly Clear"
"2014-05-18 20:00","2014","05","18","20:00","10.1","","4.5","","68","","7","","6","","24.1","","100.15","","","","","","NA"
"2014-05-18 21:00","2014","05","18","21:00","10.4","","4.4","","66","","36","","1","","24.1","","100.18","","","","","","NA"
"2014-05-18 22:00","2014","05","18","22:00","8.8","","4.5","","74","","27","","3","","24.1","","100.18","","","","","","Clear"
"2014-05-18 23:00","2014","05","18","23:00","7.2","","4.2","","81","","26","","10","","24.1","","100.18","","","","","","NA"
"2014-05-19 00:00","2014","05","19","00:00","6.9","","4.2","","83","","26","","12","","24.1","","100.18","","","","","","NA"
"2014-05-19 01:00","2014","05","19","01:00","8.1","","4.7","","79","","27","","9","","24.1","","100.17","","","","","","Mainly Clear"
"2014-05-19 02:00","2014","05","19","02:00","8.5","","4.4","","75","","30","","8","","24.1","","100.16","","","","","","NA"
"2014-05-19 03:00","2014","05","19","03:00","9.4","","5.0","","74","","27","","6","","24.1","","100.17","","","","","","NA"
"2014-05-19 04:00","2014","05","19","04:00","9.3","","4.7","","73","","29","","4","","24.1","","100.19","","","","","","Mostly Cloudy"
"2014-05-19 05:00","2014","05","19","05:00","9.5","","4.3","","70","","28","","10","","24.1","","100.21","","","","","","NA"
"2014-05-19 06:00","2014","05","19","06:00","10.4","","5.0","","69","","27","","9","","24.1","","100.24","","","","","","NA"
"2014-05-19 07:00","2014","05","19","07:00","12.1","","4.6","","60","","30","","8","","24.1","","100.25","","","","","","Mostly Cloudy"
"2014-05-19 08:00","2014","05","19","08:00","15.1","","5.7","","53","","31","","19","","24.1","","100.27","","","","","","NA"
"2014-05-19 09:00","2014","05","19","09:00","17.3","","5.7","","46","","32","","26","","24.1","","100.25","","","","","","NA"
"2014-05-19 10:00","2014","05","19","10:00","18.5","","5.1","","41","","30","","19","","24.1","","100.26","","","","","","Mainly Clear"
"2014-05-19 11:00","2014","05","19","11:00","19.4","","6.6","","43","","30","","13","","24.1","","100.23","","","","","","NA"
"2014-05-19 12:00","2014","05","19","12:00","20.2","","6.7","","41","","25","","7","","24.1","","100.20","","","","","","NA"
"2014-05-19 13:00","2014","05","19","13:00","19.7","","4.4","","36","","30","","13","","24.1","","100.18","","","","","","Mostly Cloudy"
"2014-05-19 14:00","2014","05","19","14:00","20.1","","4.3","","35","","33","","18","","24.1","","100.13","","","","","","NA"
"2014-05-19 15:00","2014","05","19","15:00","20.9","","6.6","","39","","20","","6","","24.1","","100.07","","","","","","NA"
"2014-05-19 16:00","2014","05","19","16:00","20.8","","5.3","","36","","29","","18","","24.1","","100.04","","","","","","Mostly Cloudy"
"2014-05-19 17:00","2014","05","19","17:00","19.3","","6.9","","44","","31","","22","","19.3","","100.05","","","","","","Thunderstorms,Rain Showers"
"2014-05-19 18:00","2014","05","19","18:00","16.9","","8.4","","57","","26","","15","","24.1","","100.04","","","","","","NA"
"2014-05-19 19:00","2014","05","19","19:00","17.4","","8.1","","54","","24","","10","","24.1","","100.00","","","","","","Mostly Cloudy"
"2014-05-19 20:00","2014","05","19","20:00","16.5","","8.0","","57","","20","","10","","24.1","","100.01","","","","","","NA"
"2014-05-19 21:00","2014","05","19","21:00","15.3","","8.1","","62","","28","","7","","24.1","","100.05","","","","","","NA"
"2014-05-19 22:00","2014","05","19","22:00","14.6","","7.9","","64","","33","","17","","24.1","","100.08","","","","","","Clear"
"2014-05-19 23:00","2014","05","19","23:00","13.8","","6.7","","62","","35","","10","","24.1","","100.10","","","","","","NA"
"2014-05-20 00:00","2014","05","20","00:00","12.2","","6.7","","69","","31","","11","","24.1","","100.12","","","","","","NA"
"2014-05-20 01:00","2014","05","20","01:00","11.0","","6.4","","73","","25","","5","","24.1","","100.13","","","","","","Cloudy"
"2014-05-20 02:00","2014","05","20","02:00","11.6","","6.8","","72","","29","","13","","24.1","","100.15","","","","","","NA"
"2014-05-20 03:00","2014","05","20","03:00","10.8","","6.6","","75","","32","","9","","24.1","","100.11","","","","","","NA"
"2014-05-20 04:00","2014","05","20","04:00","11.1","","6.3","","72","","36","","3","","24.1","","100.09","","","","","","Cloudy"
"2014-05-20 05:00","2014","05","20","05:00","11.2","","6.6","","73","","2","","7","","24.1","","100.08","","","","","","NA"
"2014-05-20 06:00","2014","05","20","06:00","11.1","","7.3","","77","","34","","3","","24.1","","100.09","","","","","","NA"
"2014-05-20 07:00","2014","05","20","07:00","15.6","","7.2","","57","","11","","9","","24.1","","100.07","","","","","","Mostly Cloudy"
"2014-05-20 08:00","2014","05","20","08:00","16.4","","8.0","","57","","17","","11","","24.1","","100.04","","","","","","NA"
"2014-05-20 09:00","2014","05","20","09:00","17.8","","7.1","","49","","17","","10","","24.1","","99.98","","","","","","NA"
"2014-05-20 10:00","2014","05","20","10:00","17.5","","6.8","","49","","14","","12","","24.1","","99.96","","","","","","Cloudy"
"2014-05-20 11:00","2014","05","20","11:00","17.2","","6.2","","48","","16","","5","","24.1","","99.98","","","","","","NA"
"2014-05-20 12:00","2014","05","20","12:00","18.3","","6.3","","45","","23","","12","","24.1","","99.93","","","","","","NA"
"2014-05-20 13:00","2014","05","20","13:00","17.6","","7.2","","50","","24","","11","","24.1","","99.86","","","","","","Cloudy"
"2014-05-20 14:00","2014","05","20","14:00","15.1","","9.9","","71","","25","","21","","24.1","","99.88","","","","","","Rain Showers"
"2014-05-20 15:00","2014","05","20","15:00","16.7","","9.2","","61","","20","","9","","24.1","","99.73","","","","","","NA"
"2014-05-20 16:00","2014","05","20","16:00","16.6","","6.8","","52","","18","","18","","24.1","","99.70","","","","","","Cloudy"
"2014-05-20 17:00","2014","05","20","17:00","15.3","","6.7","","56","","18","","10","","24.1","","99.69","","","","","","Rain Showers"
"2014-05-20 18:00","2014","05","20","18:00","14.6","","7.9","","64","","16","","9","","24.1","","99.62","","","","","","Rain Showers"
"2014-05-20 19:00","2014","05","20","19:00","14.3","","7.4","","63","","16","","8","","24.1","","99.61","","","","","","Cloudy"
"2014-05-20 20:00","2014","05","20","20:00","13.2","","9.1","","76","","20","","10","","24.1","","99.62","","","","","","Rain Showers"
"2014-05-20 21:00","2014","05","20","21:00","12.8","","9.7","","81","","14","","13","","24.1","","99.56","","","","","","NA"
"2014-05-20 22:00","2014","05","20","22:00","12.9","","9.6","","80","","15","","12","","24.1","","99.49","","","","","","Cloudy"
"2014-05-20 23:00","2014","05","20","23:00","12.3","","9.5","","83","","12","","6","","24.1","","99.43","","","","","","NA"
"2014-05-21 00:00","2014","05","21","00:00","12.5","","9.5","","82","","12","","12","","24.1","","99.35","","","","","","NA"
"2014-05-21 01:00","2014","05","21","01:00","12.1","","9.5","","84","","15","","5","","24.1","","99.34","","","","","","Cloudy"
"2014-05-21 02:00","2014","05","21","02:00","12.3","","9.5","","83","","6","","9","","24.1","","99.27","","","","","","NA"
"2014-05-21 03:00","2014","05","21","03:00","12.0","","8.9","","81","","8","","8","","24.1","","99.19","","","","","","NA"
"2014-05-21 04:00","2014","05","21","04:00","11.3","","8.2","","81","","4","","7","","24.1","","99.17","","","","","","Mostly Cloudy"
"2014-05-21 05:00","2014","05","21","05:00","11.6","","7.9","","78","","9","","7","","24.1","","99.17","","","","","","NA"
"2014-05-21 06:00","2014","05","21","06:00","11.8","","8.5","","80","","4","","11","","19.3","","99.17","","","","","","NA"
"2014-05-21 07:00","2014","05","21","07:00","12.9","","9.0","","77","","2","","6","","19.3","","99.16","","","","","","Mostly Cloudy"
"2014-05-21 08:00","2014","05","21","08:00","14.4","","9.5","","72","","12","","7","","19.3","","99.14","","","","","","NA"
"2014-05-21 09:00","2014","05","21","09:00","16.4","","11.0","","70","","7","","8","","19.3","","99.07","","","","","","NA"
"2014-05-21 10:00","2014","05","21","10:00","18.2","","10.2","","59","","8","","7","","19.3","","99.08","","","","","","Mainly Clear"
"2014-05-21 11:00","2014","05","21","11:00","16.5","","10.6","","68","","16","","17","","19.3","","99.12","","","","","","NA"
"2014-05-21 12:00","2014","05","21","12:00","17.0","","11.1","","68","","13","","16","","24.1","","99.12","","","","","","NA"
"2014-05-21 13:00","2014","05","21","13:00","18.4","","13.3","","72","","13","","6","","19.3","","99.07","","","","","","Mainly Clear"
"2014-05-21 14:00","2014","05","21","14:00","19.6","","13.6","","68","","16","","11","","19.3","","99.04","","","","","","NA"
"2014-05-21 15:00","2014","05","21","15:00","19.0","","12.6","","66","","15","","16","","19.3","","98.98","","","","","","NA"
"2014-05-21 16:00","2014","05","21","16:00","18.2","","12.5","","69","","17","","16","","19.3","","98.97","","","","","","Mainly Clear"
"2014-05-21 17:00","2014","05","21","17:00","16.6","","11.2","","70","","15","","16","","19.3","","98.95","","","","","","NA"
"2014-05-21 18:00","2014","05","21","18:00","15.6","","11.6","","77","","16","","12","","24.1","","98.94","","","","","","NA"
"2014-05-21 19:00","2014","05","21","19:00","15.9","","12.3","","79","","14","","9","","16.1","","98.96","","","","","","Mostly Cloudy"
"2014-05-21 20:00","2014","05","21","20:00","16.2","","12.6","","79","","17","","12","","19.3","","98.95","","","","","","NA"
"2014-05-21 21:00","2014","05","21","21:00","15.1","","12.1","","82","","16","","9","","19.3","","98.97","","","","","","NA"
"2014-05-21 22:00","2014","05","21","22:00","13.5","","12.4","","93","","18","","7","","19.3","","98.93","","","","","","Mostly Cloudy"
"2014-05-21 23:00","2014","05","21","23:00","13.3","","12.0","","92","","36","","2","","19.3","","98.88","","","","","","NA"
"2014-05-22 00:00","2014","05","22","00:00","14.5","","12.9","","90","","32","","13","","16.1","","98.95","","","","","","NA"
"2014-05-22 01:00","2014","05","22","01:00","14.8","","13.0","","89","","33","","3","","16.1","","98.91","","","","","","Mostly Cloudy"
"2014-05-22 02:00","2014","05","22","02:00","14.1","","12.7","","91","","28","","8","","24.1","","98.85","","","","","","NA"
"2014-05-22 03:00","2014","05","22","03:00","14.7","","12.8","","88","","17","","8","","24.1","","98.81","","","","","","NA"
"2014-05-22 04:00","2014","05","22","04:00","13.6","","12.2","","91","","11","","4","","16.1","","98.78","","","","","","Mostly Cloudy"
"2014-05-22 05:00","2014","05","22","05:00","13.3","","12.2","","93","","36","","5","","4.8","","98.86","","","","","","Fog"
"2014-05-22 06:00","2014","05","22","06:00","14.3","","12.2","","87","","36","","29","","9.7","","98.92","","","","","","Fog"
"2014-05-22 07:00","2014","05","22","07:00","14.6","","11.0","","79","","35","","23","","16.1","","98.95","","","","","","Mostly Cloudy"
"2014-05-22 08:00","2014","05","22","08:00","16.6","","11.4","","71","","33","","22","","24.1","","98.98","","","","","","NA"
"2014-05-22 09:00","2014","05","22","09:00","18.6","","12.4","","67","","36","","22","","24.1","","98.98","","","","","","NA"
"2014-05-22 10:00","2014","05","22","10:00","18.2","","12.1","","67","","36","","23","","24.1","","99.01","","","","","","Mainly Clear"
"2014-05-22 11:00","2014","05","22","11:00","19.3","","12.4","","64","","33","","18","","24.1","","99.02","","","","","","NA"
"2014-05-22 12:00","2014","05","22","12:00","20.0","","11.6","","58","","33","","23","","24.1","","99.03","","","","","","NA"
"2014-05-22 13:00","2014","05","22","13:00","20.1","","11.7","","58","","30","","22","","24.1","","99.04","","","","","","Mainly Clear"
"2014-05-22 14:00","2014","05","22","14:00","19.3","","10.4","","56","","29","","25","","24.1","","99.09","","","","","","NA"
"2014-05-22 15:00","2014","05","22","15:00","18.0","","10.0","","59","","28","","27","","24.1","","99.13","","","","","","NA"
"2014-05-22 16:00","2014","05","22","16:00","17.5","","10.0","","61","","28","","33","","24.1","","99.12","","","","","","Mainly Clear"
"2014-05-22 17:00","2014","05","22","17:00","16.5","","9.5","","63","","28","","33","","24.1","","99.17","","","","","","NA"
"2014-05-22 18:00","2014","05","22","18:00","16.2","","9.5","","64","","31","","36","","24.1","","99.20","","","","","","NA"
"2014-05-22 19:00","2014","05","22","19:00","15.0","","9.6","","70","","32","","28","","24.1","","99.23","","","","","","Clear"
"2014-05-22 20:00","2014","05","22","20:00","13.5","","9.4","","76","","31","","28","","24.1","","99.28","","","","","","NA"
"2014-05-22 21:00","2014","05","22","21:00","12.9","","9.4","","79","","31","","25","","24.1","","99.31","","","","","","NA"
"2014-05-22 22:00","2014","05","22","22:00","12.4","","8.9","","79","","30","","22","","24.1","","99.33","","","","","","Mainly Clear"
"2014-05-22 23:00","2014","05","22","23:00","12.2","","8.1","","76","","30","","27","","24.1","","99.33","","","","","","NA"
"2014-05-23 00:00","2014","05","23","00:00","11.2","","7.2","","76","","30","","29","","24.1","","99.31","","","","","","NA"
"2014-05-23 01:00","2014","05","23","01:00","10.6","","6.8","","77","","31","","22","","24.1","","99.27","","","","","","Mainly Clear"
"2014-05-23 02:00","2014","05","23","02:00","10.2","","6.6","","78","","30","","19","","24.1","","99.26","","","","","","NA"
"2014-05-23 03:00","2014","05","23","03:00","10.2","","6.8","","79","","31","","17","","24.1","","99.25","","","","","","NA"
"2014-05-23 04:00","2014","05","23","04:00","9.9","","6.6","","80","","30","","22","","24.1","","99.24","","","","","","Mainly Clear"
"2014-05-23 05:00","2014","05","23","05:00","9.4","","6.7","","83","","30","","21","","24.1","","99.25","","","","","","NA"
"2014-05-23 06:00","2014","05","23","06:00","10.0","","7.4","","84","","31","","21","","24.1","","99.31","","","","","","NA"
"2014-05-23 07:00","2014","05","23","07:00","10.5","","7.8","","83","","32","","18","","24.1","","99.37","","","","","","Cloudy"
"2014-05-23 08:00","2014","05","23","08:00","11.4","","8.5","","82","","32","","16","","24.1","","99.41","","","","","","NA"
"2014-05-23 09:00","2014","05","23","09:00","12.4","","9.3","","81","","33","","13","","24.1","","99.43","","","","","","NA"
"2014-05-23 10:00","2014","05","23","10:00","13.3","","9.8","","79","","36","","12","","24.1","","99.45","","","","","","Mostly Cloudy"
"2014-05-23 11:00","2014","05","23","11:00","16.5","","10.6","","68","","35","","22","","24.1","","99.47","","","","","","NA"
"2014-05-23 12:00","2014","05","23","12:00","15.1","","11.5","","79","","34","","23","","24.1","","99.51","","","","","","Rain"
"2014-05-23 13:00","2014","05","23","13:00","16.0","","11.2","","73","","1","","17","","24.1","","99.51","","","","","","Mostly Cloudy"
"2014-05-23 14:00","2014","05","23","14:00","16.3","","10.5","","68","","35","","25","","24.1","","99.52","","","","","","NA"
"2014-05-23 15:00","2014","05","23","15:00","16.3","","10.5","","68","","32","","22","","24.1","","99.53","","","","","","NA"
"2014-05-23 16:00","2014","05","23","16:00","16.1","","11.1","","72","","1","","23","","24.1","","99.58","","","","","","Mostly Cloudy"
"2014-05-23 17:00","2014","05","23","17:00","17.8","","11.0","","64","","36","","25","","24.1","","99.57","","","","","","NA"
"2014-05-23 18:00","2014","05","23","18:00","17.0","","10.9","","67","","34","","21","","24.1","","99.61","","","","","","NA"
"2014-05-23 19:00","2014","05","23","19:00","16.9","","10.8","","67","","34","","21","","24.1","","99.68","","","","","","Mostly Cloudy"
"2014-05-23 20:00","2014","05","23","20:00","16.4","","11.2","","71","","36","","14","","24.1","","99.75","","","","","","NA"
"2014-05-23 21:00","2014","05","23","21:00","14.7","","10.8","","77","","30","","21","","24.1","","99.68","","","","","","NA"
"2014-05-23 22:00","2014","05","23","22:00","13.9","","10.0","","77","","31","","19","","24.1","","99.72","","","","","","Clear"
"2014-05-23 23:00","2014","05","23","23:00","13.4","","8.9","","74","","31","","17","","24.1","","99.71","","","","","","NA"
"2014-05-24 00:00","2014","05","24","00:00","12.3","","8.2","","76","","31","","15","","24.1","","99.72","","","","","","NA"
"2014-05-24 01:00","2014","05","24","01:00","12.5","","7.4","","71","","31","","9","","24.1","","99.72","","","","","","Clear"
"2014-05-24 02:00","2014","05","24","02:00","11.0","","7.2","","77","","31","","11","","24.1","","99.76","","","","","","NA"
"2014-05-24 03:00","2014","05","24","03:00","10.8","","7.0","","77","","32","","9","","24.1","","99.76","","","","","","NA"
"2014-05-24 04:00","2014","05","24","04:00","10.9","","6.9","","76","","31","","15","","24.1","","99.80","","","","","","Mainly Clear"
"2014-05-24 05:00","2014","05","24","05:00","10.3","","6.5","","77","","31","","9","","24.1","","99.84","","","","","","NA"
"2014-05-24 06:00","2014","05","24","06:00","12.1","","7.0","","71","","34","","9","","24.1","","99.92","","","","","","NA"
"2014-05-24 07:00","2014","05","24","07:00","14.0","","7.6","","65","","36","","13","","24.1","","99.97","","","","","","Mainly Clear"
"2014-05-24 08:00","2014","05","24","08:00","16.4","","8.5","","59","","35","","18","","24.1","","100.00","","","","","","NA"
"2014-05-24 09:00","2014","05","24","09:00","18.8","","9.1","","53","","36","","13","","24.1","","100.01","","","","","","NA"
"2014-05-24 10:00","2014","05","24","10:00","20.6","","10.0","","50","","36","","15","","24.1","","99.99","","","","","","Mainly Clear"
"2014-05-24 11:00","2014","05","24","11:00","21.1","","9.2","","46","","4","","7","","24.1","","99.95","","","","","","NA"
"2014-05-24 12:00","2014","05","24","12:00","22.5","","8.8","","41","","34","","17","","24.1","","99.91","","","","","","NA"
"2014-05-24 13:00","2014","05","24","13:00","23.2","","6.7","","34","","36","","17","","24.1","","99.88","","","","","","Mainly Clear"
"2014-05-24 14:00","2014","05","24","14:00","23.3","","5.9","","32","","34","","5","","24.1","","99.83","","","","","","NA"
"2014-05-24 15:00","2014","05","24","15:00","23.8","","4.9","","29","","35","","15","","24.1","","99.78","","","","","","NA"
"2014-05-24 16:00","2014","05","24","16:00","24.3","","3.2","","25","","34","","21","","24.1","","99.78","","","","","","Mainly Clear"
"2014-05-24 17:00","2014","05","24","17:00","23.9","","0.5","","21","","33","","21","","24.1","","99.78","","","","","","NA"
"2014-05-24 18:00","2014","05","24","18:00","22.2","","2.0","","26","","1","","21","","24.1","","99.81","","","","","","NA"
"2014-05-24 19:00","2014","05","24","19:00","21.3","","1.2","","26","","35","","22","","24.1","","99.86","","","","","","Mainly Clear"
"2014-05-24 20:00","2014","05","24","20:00","19.5","","3.4","","34","","36","","15","","24.1","","99.87","","","","","","NA"
"2014-05-24 21:00","2014","05","24","21:00","18.1","","4.8","","41","","1","","14","","24.1","","99.92","","","","","","NA"
"2014-05-24 22:00","2014","05","24","22:00","17.3","","4.7","","43","","34","","16","","24.1","","99.93","","","","","","Clear"
"2014-05-24 23:00","2014","05","24","23:00","16.0","","4.8","","47","","33","","12","","24.1","","99.92","","","","","","NA"
"2014-05-25 00:00","2014","05","25","00:00","14.2","","5.1","","54","","33","","14","","24.1","","99.90","","","","","","NA"
"2014-05-25 01:00","2014","05","25","01:00","13.7","","4.4","","53","","33","","6","","24.1","","99.89","","","","","","Clear"
"2014-05-25 02:00","2014","05","25","02:00","11.7","","4.7","","62","","27","","5","","24.1","","99.87","","","","","","NA"
"2014-05-25 03:00","2014","05","25","03:00","12.5","","4.0","","56","","29","","3","","24.1","","99.88","","","","","","NA"
"2014-05-25 04:00","2014","05","25","04:00","11.9","","4.4","","60","","31","","8","","24.1","","99.90","","","","","","Mainly Clear"
"2014-05-25 05:00","2014","05","25","05:00","11.3","","4.3","","62","","30","","8","","24.1","","99.95","","","","","","NA"
"2014-05-25 06:00","2014","05","25","06:00","12.9","","5.6","","61","","28","","9","","24.1","","99.98","","","","","","NA"
"2014-05-25 07:00","2014","05","25","07:00","16.3","","6.8","","53","","25","","12","","24.1","","100.00","","","","","","Clear"
"2014-05-25 08:00","2014","05","25","08:00","19.3","","6.5","","43","","27","","12","","24.1","","100.00","","","","","","NA"
"2014-05-25 09:00","2014","05","25","09:00","21.6","","6.5","","37","","26","","10","","24.1","","99.98","","","","","","NA"
"2014-05-25 10:00","2014","05","25","10:00","23.6","","8.7","","38","","26","","13","","24.1","","99.96","","","","","","Clear"
"2014-05-25 11:00","2014","05","25","11:00","24.9","","8.2","","34","","27","","18","","24.1","","99.93","","25","","","","NA"
"2014-05-25 12:00","2014","05","25","12:00","25.4","","7.7","","32","","30","","18","","24.1","","99.88","","26","","","","NA"
"2014-05-25 13:00","2014","05","25","13:00","26.3","","9.4","","34","","25","","23","","24.1","","99.83","","27","","","","Mainly Clear"
"2014-05-25 14:00","2014","05","25","14:00","26.8","","9.9","","34","","26","","15","","24.1","","99.78","","28","","","","NA"
"2014-05-25 15:00","2014","05","25","15:00","27.0","","10.5","","35","","29","","20","","24.1","","99.72","","29","","","","NA"
"2014-05-25 16:00","2014","05","25","16:00","26.4","","9.5","","34","","26","","23","","24.1","","99.68","","27","","","","Mainly Clear"
"2014-05-25 17:00","2014","05","25","17:00","26.8","","8.0","","30","","28","","23","","24.1","","99.65","","27","","","","NA"
"2014-05-25 18:00","2014","05","25","18:00","26.0","","7.8","","31","","29","","24","","24.1","","99.63","","26","","","","NA"
"2014-05-25 19:00","2014","05","25","19:00","24.1","","7.9","","35","","28","","23","","24.1","","99.64","","","","","","Mainly Clear"
"2014-05-25 20:00","2014","05","25","20:00","22.4","","7.6","","38","","27","","18","","24.1","","99.65","","","","","","NA"
"2014-05-25 21:00","2014","05","25","21:00","19.2","","8.1","","48","","26","","14","","24.1","","99.67","","","","","","NA"
"2014-05-25 22:00","2014","05","25","22:00","19.6","","7.8","","46","","24","","11","","24.1","","99.67","","","","","","Mainly Clear"
"2014-05-25 23:00","2014","05","25","23:00","17.9","","9.9","","59","","24","","16","","24.1","","99.65","","","","","","NA"
"2014-05-26 00:00","2014","05","26","00:00","17.6","","9.8","","60","","24","","13","","24.1","","99.61","","","","","","NA"
"2014-05-26 01:00","2014","05","26","01:00","18.1","","8.5","","53","","25","","19","","24.1","","99.59","","","","","","Clear"
"2014-05-26 02:00","2014","05","26","02:00","18.2","","8.6","","53","","26","","22","","24.1","","99.58","","","","","","NA"
"2014-05-26 03:00","2014","05","26","03:00","17.8","","9.0","","56","","26","","19","","24.1","","99.58","","","","","","NA"
"2014-05-26 04:00","2014","05","26","04:00","17.8","","9.0","","56","","27","","16","","24.1","","99.57","","","","","","Clear"
"2014-05-26 05:00","2014","05","26","05:00","17.6","","9.6","","59","","27","","24","","24.1","","99.62","","","","","","NA"
"2014-05-26 06:00","2014","05","26","06:00","18.5","","9.9","","57","","28","","25","","24.1","","99.64","","","","","","NA"
"2014-05-26 07:00","2014","05","26","07:00","20.2","","11.0","","55","","28","","18","","24.1","","99.63","","","","","","Mostly Cloudy"
"2014-05-26 08:00","2014","05","26","08:00","22.7","","11.9","","50","","26","","20","","24.1","","99.62","","25","","","","NA"
"2014-05-26 09:00","2014","05","26","09:00","24.4","","12.5","","47","","26","","21","","24.1","","99.57","","27","","","","NA"
"2014-05-26 10:00","2014","05","26","10:00","25.6","","12.0","","42","","26","","27","","24.1","","99.53","","28","","","","Mostly Cloudy"
"2014-05-26 11:00","2014","05","26","11:00","27.3","","11.6","","37","","27","","26","","24.1","","99.52","","29","","","","NA"
"2014-05-26 12:00","2014","05","26","12:00","27.3","","11.2","","36","","27","","27","","24.1","","99.45","","29","","","","NA"
"2014-05-26 13:00","2014","05","26","13:00","28.6","","11.0","","33","","27","","26","","24.1","","99.39","","30","","","","Mostly Cloudy"
"2014-05-26 14:00","2014","05","26","14:00","28.2","","9.8","","31","","27","","36","","24.1","","99.33","","29","","","","NA"
"2014-05-26 15:00","2014","05","26","15:00","28.8","","9.3","","29","","28","","28","","24.1","","99.25","","30","","","","NA"
"2014-05-26 16:00","2014","05","26","16:00","29.2","","11.6","","33","","26","","27","","24.1","","99.21","","31","","","","Mostly Cloudy"
"2014-05-26 17:00","2014","05","26","17:00","27.6","","10.6","","34","","29","","30","","24.1","","99.22","","29","","","","NA"
"2014-05-26 18:00","2014","05","26","18:00","27.2","","10.2","","34","","28","","31","","24.1","","99.19","","29","","","","NA"
"2014-05-26 19:00","2014","05","26","19:00","26.1","","11.3","","39","","28","","20","","24.1","","99.21","","28","","","","Rain Showers"
"2014-05-26 20:00","2014","05","26","20:00","25.2","","11.9","","43","","28","","13","","24.1","","99.18","","27","","","","NA"
"2014-05-26 21:00","2014","05","26","21:00","24.1","","12.3","","47","","24","","19","","24.1","","99.18","","27","","","","NA"
"2014-05-26 22:00","2014","05","26","22:00","23.3","","12.8","","51","","24","","21","","24.1","","99.17","","26","","","","Mostly Cloudy"
"2014-05-26 23:00","2014","05","26","23:00","22.4","","12.8","","54","","24","","17","","24.1","","99.15","","25","","","","NA"
"2014-05-27 00:00","2014","05","27","00:00","21.7","","12.9","","57","","24","","16","","24.1","","99.12","","","","","","NA"
"2014-05-27 01:00","2014","05","27","01:00","20.0","","13.1","","64","","25","","12","","24.1","","99.08","","","","","","Mainly Clear"
"2014-05-27 02:00","2014","05","27","02:00","20.1","","13.2","","64","","26","","15","","24.1","","99.04","","","","","","NA"
"2014-05-27 03:00","2014","05","27","03:00","20.4","","13.5","","64","","26","","16","","24.1","","99.01","","","","","","NA"
"2014-05-27 04:00","2014","05","27","04:00","20.8","","13.6","","63","","30","","14","","24.1","","98.99","","","","","","Mostly Cloudy"
"2014-05-27 05:00","2014","05","27","05:00","19.9","","13.9","","68","","30","","14","","24.1","","99.04","","","","","","NA"
"2014-05-27 06:00","2014","05","27","06:00","20.5","","14.5","","68","","29","","17","","24.1","","99.09","","","","","","NA"
"2014-05-27 07:00","2014","05","27","07:00","21.6","","15.3","","67","","27","","20","","24.1","","99.11","","26","","","","Mostly Cloudy"
"2014-05-27 08:00","2014","05","27","08:00","23.0","","16.4","","66","","32","","15","","24.1","","99.08","","28","","","","NA"
"2014-05-27 09:00","2014","05","27","09:00","24.0","","17.1","","65","","24","","9","","24.1","","99.05","","29","","","","NA"
"2014-05-27 10:00","2014","05","27","10:00","26.1","","17.6","","59","","24","","10","","24.1","","99.03","","32","","","","Mostly Cloudy"
"2014-05-27 11:00","2014","05","27","11:00","27.2","","18.1","","57","","23","","20","","24.1","","99.02","","33","","","","NA"
"2014-05-27 12:00","2014","05","27","12:00","29.4","","19.0","","53","","26","","27","","24.1","","98.91","","36","","","","NA"
"2014-05-27 13:00","2014","05","27","13:00","27.5","","18.1","","56","","26","","32","","24.1","","98.85","","34","","","","Mostly Cloudy"
"2014-05-27 14:00","2014","05","27","14:00","28.3","","18.3","","54","","27","","31","","24.1","","98.81","","35","","","","NA"
"2014-05-27 15:00","2014","05","27","15:00","27.5","","18.1","","56","","31","","23","","24.1","","98.78","","34","","","","NA"
"2014-05-27 16:00","2014","05","27","16:00","27.8","","19.2","","59","","30","","28","","24.1","","98.76","","35","","","","Mostly Cloudy"
"2014-05-27 17:00","2014","05","27","17:00","28.1","","17.8","","53","","28","","30","","24.1","","98.77","","34","","","","NA"
"2014-05-27 18:00","2014","05","27","18:00","26.6","","17.6","","57","","32","","22","","24.1","","98.82","","32","","","","NA"
"2014-05-27 19:00","2014","05","27","19:00","23.3","","17.2","","68","","36","","28","","24.1","","98.92","","29","","","","Cloudy"
"2014-05-27 20:00","2014","05","27","20:00","22.3","","16.2","","68","","35","","18","","24.1","","98.97","","27","","","","NA"
"2014-05-27 21:00","2014","05","27","21:00","21.2","","14.7","","66","","35","","19","","24.1","","99.02","","25","","","","NA"
"2014-05-27 22:00","2014","05","27","22:00","20.6","","14.6","","68","","35","","17","","24.1","","99.03","","","","","","Mainly Clear"
"2014-05-27 23:00","2014","05","27","23:00","19.7","","14.4","","71","","35","","18","","24.1","","99.04","","","","","","NA"
"2014-05-28 00:00","2014","05","28","00:00","18.0","","12.9","","72","","34","","22","","24.1","","99.08","","","","","","NA"
"2014-05-28 01:00","2014","05","28","01:00","16.5","","12.1","","75","","35","","23","","24.1","","99.13","","","","","","Clear"
"2014-05-28 02:00","2014","05","28","02:00","15.3","","11.3","","77","","35","","18","","24.1","","99.17","","","","","","NA"
"2014-05-28 03:00","2014","05","28","03:00","13.9","","10.5","","80","","36","","22","","24.1","","99.25","","","","","","NA"
"2014-05-28 04:00","2014","05","28","04:00","13.2","","9.7","","79","","36","","21","","24.1","","99.32","","","","","","Mainly Clear"
"2014-05-28 05:00","2014","05","28","05:00","12.4","","9.1","","80","","36","","14","","24.1","","99.40","","","","","","NA"
"2014-05-28 06:00","2014","05","28","06:00","12.8","","9.1","","78","","36","","13","","24.1","","99.45","","","","","","NA"
"2014-05-28 07:00","2014","05","28","07:00","13.2","","9.1","","76","","36","","13","","24.1","","99.48","","","","","","Mostly Cloudy"
"2014-05-28 08:00","2014","05","28","08:00","14.2","","9.9","","75","","35","","10","","24.1","","99.55","","","","","","NA"
"2014-05-28 09:00","2014","05","28","09:00","15.0","","10.1","","72","","36","","9","","24.1","","99.59","","","","","","NA"
"2014-05-28 10:00","2014","05","28","10:00","15.8","","10.6","","71","","10","","9","","24.1","","99.64","","","","","","Cloudy"
"2014-05-28 11:00","2014","05","28","11:00","16.5","","11.7","","73","","15","","21","","24.1","","99.69","","","","","","NA"
"2014-05-28 12:00","2014","05","28","12:00","14.4","","11.0","","80","","13","","15","","24.1","","99.77","","","","","","NA"
"2014-05-28 13:00","2014","05","28","13:00","15.3","","11.7","","79","","15","","10","","24.1","","99.79","","","","","","Cloudy"
"2014-05-28 14:00","2014","05","28","14:00","15.2","","11.2","","77","","12","","14","","24.1","","99.84","","","","","","NA"
"2014-05-28 15:00","2014","05","28","15:00","15.0","","10.9","","76","","11","","15","","24.1","","99.85","","","","","","NA"
"2014-05-28 16:00","2014","05","28","16:00","16.3","","10.5","","68","","12","","12","","24.1","","99.84","","","","","","Mostly Cloudy"
"2014-05-28 17:00","2014","05","28","17:00","15.6","","9.8","","68","","12","","18","","24.1","","99.84","","","","","","NA"
"2014-05-28 18:00","2014","05","28","18:00","15.3","","9.7","","69","","12","","15","","24.1","","99.85","","","","","","NA"
"2014-05-28 19:00","2014","05","28","19:00","14.6","","9.2","","70","","12","","14","","24.1","","99.92","","","","","","Cloudy"
"2014-05-28 20:00","2014","05","28","20:00","14.4","","9.5","","72","","9","","10","","24.1","","99.97","","","","","","NA"
"2014-05-28 21:00","2014","05","28","21:00","14.3","","9.4","","72","","9","","12","","24.1","","100.04","","","","","","NA"
"2014-05-28 22:00","2014","05","28","22:00","13.9","","9.2","","73","","10","","8","","24.1","","100.04","","","","","","Mostly Cloudy"
"2014-05-28 23:00","2014","05","28","23:00","12.9","","9.2","","78","","12","","9","","24.1","","100.04","","","","","","NA"
"2014-05-29 00:00","2014","05","29","00:00","12.8","","8.9","","77","","13","","6","","24.1","","100.02","","","","","","NA"
"2014-05-29 01:00","2014","05","29","01:00","12.9","","9.0","","77","","8","","5","","24.1","","99.98","","","","","","Cloudy"
"2014-05-29 02:00","2014","05","29","02:00","13.1","","8.8","","75","","9","","8","","24.1","","99.93","","","","","","NA"
"2014-05-29 03:00","2014","05","29","03:00","13.5","","8.8","","73","","7","","8","","24.1","","99.95","","","","","","NA"
"2014-05-29 04:00","2014","05","29","04:00","13.4","","8.7","","73","","5","","10","","24.1","","99.98","","","","","","Cloudy"
"2014-05-29 05:00","2014","05","29","05:00","13.5","","8.8","","73","","6","","11","","24.1","","99.98","","","","","","NA"
"2014-05-29 06:00","2014","05","29","06:00","13.6","","8.9","","73","","8","","11","","24.1","","99.99","","","","","","NA"
"2014-05-29 07:00","2014","05","29","07:00","14.4","","9.3","","71","","3","","14","","24.1","","100.00","","","","","","Mostly Cloudy"
"2014-05-29 08:00","2014","05","29","08:00","14.9","","9.7","","71","","8","","14","","24.1","","100.05","","","","","","NA"
"2014-05-29 09:00","2014","05","29","09:00","16.2","","10.4","","68","","7","","14","","24.1","","100.06","","","","","","NA"
"2014-05-29 10:00","2014","05","29","10:00","16.7","","10.2","","65","","5","","11","","24.1","","100.06","","","","","","Mostly Cloudy"
"2014-05-29 11:00","2014","05","29","11:00","17.3","","10.7","","65","","4","","16","","24.1","","100.05","","","","","","NA"
"2014-05-29 12:00","2014","05","29","12:00","17.6","","11.7","","68","","15","","11","","24.1","","100.07","","","","","","NA"
"2014-05-29 13:00","2014","05","29","13:00","17.4","","11.3","","67","","16","","13","","24.1","","100.07","","","","","","Mostly Cloudy"
"2014-05-29 14:00","2014","05","29","14:00","16.7","","11.3","","70","","15","","12","","24.1","","99.98","","","","","","NA"
"2014-05-29 15:00","2014","05","29","15:00","16.6","","12.0","","74","","14","","17","","24.1","","99.97","","","","","","NA"
"2014-05-29 16:00","2014","05","29","16:00","16.6","","11.6","","72","","15","","15","","24.1","","99.93","","","","","","Mostly Cloudy"
"2014-05-29 17:00","2014","05","29","17:00","16.7","","11.1","","69","","13","","11","","24.1","","99.91","","","","","","NA"
"2014-05-29 18:00","2014","05","29","18:00","16.1","","10.9","","71","","15","","13","","24.1","","99.90","","","","","","NA"
"2014-05-29 19:00","2014","05","29","19:00","15.4","","10.6","","73","","15","","11","","24.1","","99.96","","","","","","Mostly Cloudy"
"2014-05-29 20:00","2014","05","29","20:00","14.2","","10.3","","77","","14","","8","","24.1","","99.99","","","","","","NA"
"2014-05-29 21:00","2014","05","29","21:00","13.9","","10.2","","78","","15","","5","","24.1","","100.04","","","","","","NA"
"2014-05-29 22:00","2014","05","29","22:00","13.6","","10.3","","80","","15","","6","","24.1","","100.04","","","","","","Mainly Clear"
"2014-05-29 23:00","2014","05","29","23:00","13.6","","10.3","","80","","36","","2","","24.1","","100.05","","","","","","NA"
"2014-05-30 00:00","2014","05","30","00:00","13.8","","10.1","","78","","1","","4","","24.1","","100.07","","","","","","NA"
"2014-05-30 01:00","2014","05","30","01:00","12.8","","10.0","","83","","32","","11","","24.1","","100.06","","","","","","Clear"
"2014-05-30 02:00","2014","05","30","02:00","12.1","","9.7","","85","","31","","10","","24.1","","100.03","","","","","","NA"
"2014-05-30 03:00","2014","05","30","03:00","11.9","","9.1","","83","","29","","8","","24.1","","100.01","","","","","","NA"
"2014-05-30 04:00","2014","05","30","04:00","11.8","","9.2","","84","","29","","8","","24.1","","100.00","","","","","","Clear"
"2014-05-30 05:00","2014","05","30","05:00","11.7","","8.9","","83","","30","","5","","24.1","","100.06","","","","","","NA"
"2014-05-30 06:00","2014","05","30","06:00","14.6","","10.7","","77","","31","","9","","24.1","","100.10","","","","","","NA"
"2014-05-30 07:00","2014","05","30","07:00","17.1","","10.6","","65","","34","","21","","24.1","","100.12","","","","","","Mainly Clear"
"2014-05-30 08:00","2014","05","30","08:00","18.9","","9.8","","55","","34","","20","","24.1","","100.12","","","","","","NA"
"2014-05-30 09:00","2014","05","30","09:00","20.9","","11.1","","53","","35","","17","","24.1","","100.14","","","","","","NA"
"2014-05-30 10:00","2014","05","30","10:00","21.2","","10.8","","51","","34","","14","","24.1","","100.10","","","","","","Mostly Cloudy"
"2014-05-30 11:00","2014","05","30","11:00","22.9","","10.5","","45","","35","","22","","24.1","","100.09","","","","","","NA"
"2014-05-30 12:00","2014","05","30","12:00","22.5","","10.8","","47","","1","","22","","24.1","","100.06","","","","","","NA"
"2014-05-30 13:00","2014","05","30","13:00","24.4","","9.4","","38","","1","","18","","24.1","","100.05","","25","","","","Mostly Cloudy"
"2014-05-30 14:00","2014","05","30","14:00","23.7","","9.5","","40","","1","","24","","24.1","","100.02","","25","","","","NA"
"2014-05-30 15:00","2014","05","30","15:00","25.0","","9.5","","37","","34","","18","","24.1","","100.00","","26","","","","NA"
"2014-05-30 16:00","2014","05","30","16:00","24.6","","9.9","","39","","34","","22","","24.1","","99.97","","26","","","","Mostly Cloudy"
"2014-05-30 17:00","2014","05","30","17:00","24.5","","10.6","","41","","34","","23","","24.1","","99.95","","26","","","","NA"
"2014-05-30 18:00","2014","05","30","18:00","23.7","","8.7","","38","","35","","23","","24.1","","99.95","","","","","","NA"
"2014-05-30 19:00","2014","05","30","19:00","22.7","","10.0","","44","","35","","18","","24.1","","99.96","","","","","","Mainly Clear"
"2014-05-30 20:00","2014","05","30","20:00","20.8","","10.7","","52","","36","","23","","24.1","","100.02","","","","","","NA"
"2014-05-30 21:00","2014","05","30","21:00","19.0","","10.4","","57","","35","","20","","24.1","","100.10","","","","","","NA"
"2014-05-30 22:00","2014","05","30","22:00","17.2","","10.2","","63","","35","","17","","24.1","","100.13","","","","","","Clear"
"2014-05-30 23:00","2014","05","30","23:00","16.0","","10.2","","68","","35","","17","","24.1","","100.17","","","","","","NA"
"2014-05-31 00:00","2014","05","31","00:00","15.3","","10.1","","71","","35","","21","","24.1","","100.20","","","","","","NA"
"2014-05-31 01:00","2014","05","31","01:00","14.3","","10.0","","75","","36","","19","","24.1","","100.24","","","","","","Clear"
"2014-05-31 02:00","2014","05","31","02:00","13.2","","9.3","","77","","1","","14","","24.1","","100.29","","","","","","NA"
"2014-05-31 03:00","2014","05","31","03:00","13.3","","7.8","","69","","1","","10","","24.1","","100.33","","","","","","NA"
"2014-05-31 04:00","2014","05","31","04:00","12.0","","8.3","","78","","33","","12","","24.1","","100.39","","","","","","Clear"
"2014-05-31 05:00","2014","05","31","05:00","11.6","","7.2","","74","","35","","7","","24.1","","100.45","","","","","","NA"
"2014-05-31 06:00","2014","05","31","06:00","13.8","","7.6","","66","","34","","8","","24.1","","100.50","","","","","","NA"
"2014-05-31 07:00","2014","05","31","07:00","15.9","","7.2","","56","","1","","7","","24.1","","100.51","","","","","","Mainly Clear"
"2014-05-31 08:00","2014","05","31","08:00","18.9","","7.2","","46","","6","","5","","24.1","","100.53","","","","","","NA"
"2014-05-31 09:00","2014","05","31","09:00","19.6","","3.5","","34","","13","","13","","24.1","","100.53","","","","","","NA"
"2014-05-31 10:00","2014","05","31","10:00","20.3","","3.7","","33","","15","","14","","24.1","","100.54","","","","","","Mainly Clear"
"2014-05-31 11:00","2014","05","31","11:00","20.3","","4.1","","34","","16","","13","","24.1","","100.53","","","","","","NA"
"2014-05-31 12:00","2014","05","31","12:00","20.9","","4.2","","33","","15","","22","","24.1","","100.53","","","","","","NA"
"2014-05-31 13:00","2014","05","31","13:00","21.0","","2.0","","28","","15","","16","","24.1","","100.51","","","","","","Mainly Clear"
"2014-05-31 14:00","2014","05","31","14:00","21.5","","1.4","","26","","17","","17","","24.1","","100.48","","","","","","NA"
"2014-05-31 15:00","2014","05","31","15:00","21.4","","1.8","","27","","15","","16","","24.1","","100.46","","","","","","NA"
"2014-05-31 16:00","2014","05","31","16:00","21.4","","1.8","","27","","16","","13","","24.1","","100.42","","","","","","Mainly Clear"
"2014-05-31 17:00","2014","05","31","17:00","20.8","","1.3","","27","","15","","17","","24.1","","100.40","","","","","","NA"
"2014-05-31 18:00","2014","05","31","18:00","20.6","","3.5","","32","","16","","9","","24.1","","100.41","","","","","","NA"
"2014-05-31 19:00","2014","05","31","19:00","19.7","","3.1","","33","","15","","11","","24.1","","100.39","","","","","","Mainly Clear"
"2014-05-31 20:00","2014","05","31","20:00","18.5","","2.5","","34","","14","","9","","24.1","","100.37","","","","","","NA"
"2014-05-31 21:00","2014","05","31","21:00","17.5","","2.8","","37","","13","","9","","24.1","","100.36","","","","","","NA"
"2014-05-31 22:00","2014","05","31","22:00","15.8","","3.0","","42","","12","","7","","24.1","","100.40","","","","","","Clear"
"2014-05-31 23:00","2014","05","31","23:00","15.8","","3.0","","42","","10","","7","","24.1","","100.44","","","","","","NA"
