"Station Name","TORONTO LESTER B. PEARSON INT'L A"
"Province","ONTARIO"
"Latitude","43.68"
"Longitude","-79.63"
"Elevation","173.40"
"Climate Identifier","6158733"
"WMO Identifier","71624"
"TC Identifier","YYZ"
"All times are specified in Local Standard Time (LST). Add 1 hour to adjust for Daylight Saving Time where and when it is observed."

"Legend"
"E","Estimated"
"M","Missing"
"NA","Not Available"

"Date/Time","Year","Month","Day","Time","Temp (°C)","Temp Flag","Dew Point Temp (°C)","Dew Point Temp Flag","Rel Hum (%)","Rel Hum Flag","Wind Dir (10s deg)","Wind Dir Flag","Wind Spd (km/h)","Wind Spd Flag","Visibility (km)","Visibility Flag","Stn Press (kPa)","Stn Press Flag","Hmdx","Hmdx Flag","Wind Chill","Wind Chill Flag","Weather"
"1969-03-01 00:00","1969","03","01","00:00","-2.2","","-5.0","","81","","36","","10","","25.0","","100.07","","","","-6","","Mostly Cloudy"
"1969-03-01 01:00","1969","03","01","01:00","-2.2","","-5.6","","79","","36","","8","","24.1","","100.06","","","","-5","","Mostly Cloudy"
"1969-03-01 02:00","1969","03","01","02:00","-2.2","","-6.7","","72","","36","","11","","25.0","","100.06","","","","-6","","Mostly Cloudy"
"1969-03-01 03:00","1969","03","01","03:00","-2.2","","-7.2","","70","","5","","11","","25.0","","100.03","","","","-6","","Mostly Cloudy"
"1969-03-01 04:00","1969","03","01","04:00","-2.2","","-9.4","","58","","7","","11","","25.0","","100.02","","","","-6","","Mostly Cloudy"
"1969-03-01 05:00","1969","03","01","05:00","-2.2","","-8.9","","61","","5","","13","","25.0","","100.02","","","","-7","","Cloudy"
"1969-03-01 06:00","1969","03","01","06:00","-2.8","","-8.9","","63","","5","","16","","25.0","","100.02","","","","-8","","Mainly Clear"
"1969-03-01 07:00","1969","03","01","07:00","-2.8","","-8.9","","63","","5","","16","","32.2","","100.02","","","","-8","","Cloudy"
"1969-03-01 08:00","1969","03","01","08:00","-2.8","","-7.8","","68","","7","","16","","16.1","","100.05","","","","-8","","Snow Showers"
"1969-03-01 09:00","1969","03","01","09:00","-2.2","","-6.1","","74","","5","","13","","32.2","","100.07","","","","-7","","Mostly Cloudy"
"1969-03-01 10:00","1969","03","01","10:00","-2.2","","-7.8","","67","","5","","11","","24.1","","100.10","","","","-6","","Cloudy"
"1969-03-01 11:00","1969","03","01","11:00","-1.7","","-5.6","","76","","2","","13","","24.1","","100.07","","","","-6","","Cloudy"
"1969-03-01 12:00","1969","03","01","12:00","-1.7","","-5.0","","79","","5","","13","","9.7","","100.07","","","","-6","","Snow Showers"
"1969-03-01 13:00","1969","03","01","13:00","-1.1","","-3.9","","83","","5","","13","","4.8","","100.04","","","","-5","","Snow Showers"
"1969-03-01 14:00","1969","03","01","14:00","-0.6","","-3.3","","82","","5","","10","","6.4","","100.00","","","","-4","","Snow Showers"
"1969-03-01 15:00","1969","03","01","15:00","-0.6","","-2.2","","88","","5","","14","","4.0","","99.99","","","","-5","","Snow Showers"
"1969-03-01 16:00","1969","03","01","16:00","-1.1","","-3.3","","86","","5","","13","","3.2","","99.97","","","","-5","","Snow Showers"
"1969-03-01 17:00","1969","03","01","17:00","0.0","","-3.3","","77","","5","","14","","4.8","","99.93","","","","-4","","Snow Showers"
"1969-03-01 18:00","1969","03","01","18:00","-0.6","","-4.4","","76","","7","","11","","12.9","","99.94","","","","-4","","Mostly Cloudy"
"1969-03-01 19:00","1969","03","01","19:00","-1.1","","-4.4","","79","","5","","13","","25.0","","99.94","","","","-5","","Mostly Cloudy"
"1969-03-01 20:00","1969","03","01","20:00","-1.1","","-3.9","","82","","5","","11","","25.0","","99.94","","","","-5","","Cloudy"
"1969-03-01 21:00","1969","03","01","21:00","-0.6","","-5.6","","67","","7","","10","","25.0","","99.94","","","","-4","","Cloudy"
"1969-03-01 22:00","1969","03","01","22:00","-1.1","","-5.0","","75","","5","","10","","25.0","","99.94","","","","-5","","Mostly Cloudy"
"1969-03-01 23:00","1969","03","01","23:00","-1.1","","-5.6","","72","","2","","6","","25.0","","99.92","","","","-3","","Cloudy"
"1969-03-02 00:00","1969","03","02","00:00","-1.7","","-5.0","","78","","36","","11","","25.0","","99.92","","","","-6","","Cloudy"
"1969-03-02 01:00","1969","03","02","01:00","-1.7","","-6.7","","70","","36","","10","","25.0","","99.89","","","","-5","","Cloudy"
"1969-03-02 02:00","1969","03","02","02:00","-2.2","","-6.7","","71","","36","","10","","25.0","","99.87","","","","-6","","Mainly Clear"
"1969-03-02 03:00","1969","03","02","03:00","-3.3","","-6.1","","80","","34","","8","","25.0","","99.82","","","","-7","","Mainly Clear"
"1969-03-02 04:00","1969","03","02","04:00","-3.3","","-5.6","","84","","36","","8","","25.0","","99.78","","","","-7","","Mostly Cloudy"
"1969-03-02 05:00","1969","03","02","05:00","-3.3","","-6.1","","82","","32","","11","","25.0","","99.81","","","","-8","","Mostly Cloudy"
"1969-03-02 06:00","1969","03","02","06:00","-3.9","","-6.1","","84","","32","","14","","25.0","","99.83","","","","-9","","Mostly Cloudy"
"1969-03-02 07:00","1969","03","02","07:00","-3.9","","-6.7","","82","","34","","19","","12.9","","99.84","","","","-10","","Mostly Cloudy"
"1969-03-02 08:00","1969","03","02","08:00","-4.4","","-7.8","","77","","36","","14","","19.3","","99.87","","","","-10","","Mostly Cloudy"
"1969-03-02 09:00","1969","03","02","09:00","-3.9","","-7.8","","75","","34","","16","","19.3","","99.88","","","","-9","","Mostly Cloudy"
"1969-03-02 10:00","1969","03","02","10:00","-1.7","","-6.7","","70","","36","","14","","24.1","","99.86","","","","-6","","Mainly Clear"
"1969-03-02 11:00","1969","03","02","11:00","0.0","","-5.6","","66","","2","","16","","40.2","","99.84","","","","-5","","Mainly Clear"
"1969-03-02 12:00","1969","03","02","12:00","1.1","","-3.9","","68","","34","","13","","40.2","","99.81","","","","","","Mainly Clear"
"1969-03-02 13:00","1969","03","02","13:00","1.7","","-3.9","","67","","34","","18","","40.2","","99.72","","","","","","Mostly Cloudy"
"1969-03-02 14:00","1969","03","02","14:00","2.2","","-3.3","","66","","34","","16","","40.2","","99.71","","","","","","Mostly Cloudy"
"1969-03-02 15:00","1969","03","02","15:00","2.2","","-3.3","","66","","34","","16","","40.2","","99.69","","","","","","Mostly Cloudy"
"1969-03-02 16:00","1969","03","02","16:00","2.2","","-5.0","","58","","36","","18","","40.2","","99.70","","","","","","Mostly Cloudy"
"1969-03-02 17:00","1969","03","02","17:00","1.7","","-3.9","","67","","36","","10","","40.2","","99.71","","","","","","Mostly Cloudy"
"1969-03-02 18:00","1969","03","02","18:00","0.0","","-3.3","","77","","34","","6","","32.2","","99.71","","","","-2","","Mostly Cloudy"
"1969-03-02 19:00","1969","03","02","19:00","-1.1","","-3.9","","82","","34","","11","","25.0","","99.70","","","","-5","","Mainly Clear"
"1969-03-02 20:00","1969","03","02","20:00","-1.1","","-3.9","","81","","34","","13","","25.0","","99.72","","","","-5","","Mainly Clear"
"1969-03-02 21:00","1969","03","02","21:00","-1.7","","-4.4","","80","","34","","19","","25.0","","99.73","","","","-7","","Mainly Clear"
"1969-03-02 22:00","1969","03","02","22:00","-2.2","","-5.6","","79","","36","","11","","25.0","","99.71","","","","-6","","Clear"
"1969-03-02 23:00","1969","03","02","23:00","-2.8","","-6.1","","78","","34","","13","","25.0","","99.67","","","","-7","","Clear"
"1969-03-03 00:00","1969","03","03","00:00","-2.8","","-6.1","","77","","34","","16","","25.0","","99.61","","","","-8","","Clear"
"1969-03-03 01:00","1969","03","03","01:00","-3.9","","-6.7","","79","","34","","16","","25.0","","99.57","","","","-9","","Clear"
"1969-03-03 02:00","1969","03","03","02:00","-4.4","","-7.2","","79","","34","","16","","25.0","","99.58","","","","-10","","Clear"
"1969-03-03 03:00","1969","03","03","03:00","-4.4","","-7.8","","76","","34","","16","","25.0","","99.54","","","","-10","","Clear"
"1969-03-03 04:00","1969","03","03","04:00","-4.4","","-7.8","","77","","34","","19","","25.0","","99.53","","","","-11","","Clear"
"1969-03-03 05:00","1969","03","03","05:00","-4.4","","-8.9","","71","","34","","18","","25.0","","99.54","","","","-10","","Clear"
"1969-03-03 06:00","1969","03","03","06:00","-5.0","","-10.0","","67","","34","","23","","25.0","","99.54","","","","-12","","Mainly Clear"
"1969-03-03 07:00","1969","03","03","07:00","-5.0","","-10.0","","68","","34","","19","","32.2","","99.58","","","","-11","","Mainly Clear"
"1969-03-03 08:00","1969","03","03","08:00","-3.9","","-10.0","","62","","34","","23","","32.2","","99.58","","","","-11","","Clear"
"1969-03-03 09:00","1969","03","03","09:00","-2.8","","-7.2","","71","","36","","32","","32.2","","99.60","","","","-10","","Clear"
"1969-03-03 10:00","1969","03","03","10:00","-2.2","","-7.8","","67","","36","","29","","32.2","","99.59","","","","-9","","Clear"
"1969-03-03 11:00","1969","03","03","11:00","-1.1","","-6.1","","69","","36","","29","","32.2","","99.56","","","","-8","","Clear"
"1969-03-03 12:00","1969","03","03","12:00","-1.1","","-6.1","","69","","36","","27","","32.2","","99.52","","","","-8","","Clear"
"1969-03-03 13:00","1969","03","03","13:00","-0.6","","-5.6","","67","","36","","27","","32.2","","99.50","","","","-7","","Clear"
"1969-03-03 14:00","1969","03","03","14:00","0.6","","-6.7","","59","","36","","27","","32.2","","99.44","","","","","","Clear"
"1969-03-03 15:00","1969","03","03","15:00","0.6","","-6.7","","59","","36","","27","","32.2","","99.44","","","","","","Clear"
"1969-03-03 16:00","1969","03","03","16:00","0.0","","-6.7","","60","","36","","29","","32.2","","99.44","","","","-6","","Clear"
"1969-03-03 17:00","1969","03","03","17:00","-0.6","","-6.7","","65","","34","","24","","32.2","","99.45","","","","-7","","Clear"
"1969-03-03 18:00","1969","03","03","18:00","-1.7","","-6.7","","70","","34","","24","","32.2","","99.43","","","","-8","","Clear"
"1969-03-03 19:00","1969","03","03","19:00","-3.3","","-7.8","","72","","32","","14","","25.0","","99.50","","","","-8","","Clear"
"1969-03-03 20:00","1969","03","03","20:00","-3.3","","-7.8","","72","","32","","16","","25.0","","99.49","","","","-9","","Clear"
"1969-03-03 21:00","1969","03","03","21:00","-3.9","","-8.9","","69","","34","","24","","25.0","","99.47","","","","-11","","Clear"
"1969-03-03 22:00","1969","03","03","22:00","-3.9","","-8.3","","70","","36","","19","","25.0","","99.47","","","","-10","","Clear"
"1969-03-03 23:00","1969","03","03","23:00","-4.4","","-9.4","","69","","36","","19","","25.0","","99.48","","","","-11","","Clear"
"1969-03-04 00:00","1969","03","04","00:00","-5.0","","-10.0","","68","","36","","16","","25.0","","99.45","","","","-11","","Clear"
"1969-03-04 01:00","1969","03","04","01:00","-5.6","","-11.7","","61","","34","","14","","25.0","","99.44","","","","-11","","Clear"
"1969-03-04 02:00","1969","03","04","02:00","-6.1","","-13.9","","54","","34","","18","","25.0","","99.42","","","","-13","","Clear"
"1969-03-04 03:00","1969","03","04","03:00","-6.7","","-16.1","","47","","36","","19","","25.0","","99.40","","","","-14","","Clear"
"1969-03-04 04:00","1969","03","04","04:00","-7.8","","-15.6","","55","","34","","14","","25.0","","99.42","","","","-14","","Clear"
"1969-03-04 05:00","1969","03","04","05:00","-8.3","","-16.1","","53","","29","","5","","25.0","","99.47","","","","-11","","Clear"
"1969-03-04 06:00","1969","03","04","06:00","-9.4","","-15.6","","60","","32","","11","","25.0","","99.50","","","","-15","","Mainly Clear"
"1969-03-04 07:00","1969","03","04","07:00","-10.0","","-16.7","","57","","34","","14","","32.2","","99.55","","","","-16","","Mainly Clear"
"1969-03-04 08:00","1969","03","04","08:00","-9.4","","-17.8","","51","","34","","19","","32.2","","99.60","","","","-17","","Clear"
"1969-03-04 09:00","1969","03","04","09:00","-8.3","","-15.0","","59","","36","","26","","32.2","","99.64","","","","-17","","Clear"
"1969-03-04 10:00","1969","03","04","10:00","-6.7","","-16.7","","45","","34","","21","","32.2","","99.66","","","","-14","","Clear"
"1969-03-04 11:00","1969","03","04","11:00","-6.1","","-16.1","","46","","34","","16","","32.2","","99.66","","","","-12","","Clear"
"1969-03-04 12:00","1969","03","04","12:00","-5.0","","-13.9","","50","","34","","16","","32.2","","99.64","","","","-11","","Clear"
"1969-03-04 13:00","1969","03","04","13:00","-5.0","","-13.9","","50","","34","","26","","32.2","","99.60","","","","-12","","Clear"
"1969-03-04 14:00","1969","03","04","14:00","-3.9","","-11.1","","56","","34","","26","","32.2","","99.58","","","","-11","","Clear"
"1969-03-04 15:00","1969","03","04","15:00","-3.9","","-11.1","","58","","34","","26","","32.2","","99.56","","","","-11","","Clear"
"1969-03-04 16:00","1969","03","04","16:00","-4.4","","-11.7","","58","","34","","29","","32.2","","99.57","","","","-12","","Clear"
"1969-03-04 17:00","1969","03","04","17:00","-5.0","","-11.7","","60","","34","","24","","32.2","","99.59","","","","-12","","Clear"
"1969-03-04 18:00","1969","03","04","18:00","-5.6","","-11.7","","61","","34","","23","","32.2","","99.62","","","","-13","","Clear"
"1969-03-04 19:00","1969","03","04","19:00","-6.1","","-12.2","","63","","34","","21","","25.0","","99.66","","","","-13","","Clear"
"1969-03-04 20:00","1969","03","04","20:00","-6.7","","-13.3","","59","","32","","19","","25.0","","99.67","","","","-14","","Clear"
"1969-03-04 21:00","1969","03","04","21:00","-7.2","","-12.8","","65","","32","","13","","25.0","","99.71","","","","-13","","Clear"
"1969-03-04 22:00","1969","03","04","22:00","-8.3","","-12.2","","72","","32","","11","","25.0","","99.72","","","","-14","","Clear"
"1969-03-04 23:00","1969","03","04","23:00","-8.3","","-12.2","","72","","32","","11","","25.0","","99.73","","","","-14","","Clear"
"1969-03-05 00:00","1969","03","05","00:00","-9.4","","-13.9","","69","","32","","8","","25.0","","99.74","","","","-14","","Clear"
"1969-03-05 01:00","1969","03","05","01:00","-10.0","","-13.9","","74","","27","","8","","25.0","","99.78","","","","-14","","Clear"
"1969-03-05 02:00","1969","03","05","02:00","-10.6","","-13.3","","79","","29","","3","","25.0","","99.81","","","","-12","","Clear"
"1969-03-05 03:00","1969","03","05","03:00","-11.1","","-14.4","","75","","29","","5","","25.0","","99.80","","","","-14","","Clear"
"1969-03-05 04:00","1969","03","05","04:00","-11.7","","-14.4","","79","","34","","8","","25.0","","99.83","","","","-16","","Clear"
"1969-03-05 05:00","1969","03","05","05:00","-12.2","","-16.1","","73","","32","","8","","25.0","","99.86","","","","-17","","Mainly Clear"
"1969-03-05 06:00","1969","03","05","06:00","-11.7","","-15.6","","74","","32","","5","","25.0","","99.89","","","","-15","","Mainly Clear"
"1969-03-05 07:00","1969","03","05","07:00","-12.8","","-16.1","","76","","32","","6","","32.2","","99.96","","","","-17","","Mainly Clear"
"1969-03-05 08:00","1969","03","05","08:00","-11.1","","-17.2","","62","","34","","8","","40.2","","99.99","","","","-16","","Mainly Clear"
"1969-03-05 09:00","1969","03","05","09:00","-9.4","","-17.2","","53","","36","","11","","40.2","","100.00","","","","-15","","Mainly Clear"
"1969-03-05 10:00","1969","03","05","10:00","-7.8","","-15.6","","53","","34","","13","","40.2","","99.98","","","","-14","","Mainly Clear"
"1969-03-05 11:00","1969","03","05","11:00","-6.7","","-13.9","","55","","32","","6","","40.2","","99.94","","","","-10","","Mostly Cloudy"
"1969-03-05 12:00","1969","03","05","12:00","-5.6","","-13.3","","54","","29","","5","","40.2","","99.85","","","","-8","","Mainly Clear"
"1969-03-05 13:00","1969","03","05","13:00","-3.9","","-11.7","","55","","29","","5","","40.2","","99.76","","","","-6","","Mainly Clear"
"1969-03-05 14:00","1969","03","05","14:00","-2.8","","-11.1","","53","","25","","3","","40.2","","99.65","","","","-4","","Mainly Clear"
"1969-03-05 15:00","1969","03","05","15:00","-3.3","","-10.0","","60","","32","","6","","40.2","","99.62","","","","-6","","Mainly Clear"
"1969-03-05 16:00","1969","03","05","16:00","-2.8","","-9.4","","60","","34","","8","","40.2","","99.54","","","","-6","","Mainly Clear"
"1969-03-05 17:00","1969","03","05","17:00","-3.3","","-10.0","","61","","34","","6","","40.2","","99.48","","","","-6","","Mainly Clear"
"1969-03-05 18:00","1969","03","05","18:00","-4.4","","-12.2","","56","","36","","11","","40.2","","99.47","","","","-9","","Mainly Clear"
"1969-03-05 19:00","1969","03","05","19:00","-6.7","","-14.4","","54","","36","","13","","25.0","","99.49","","","","-12","","Mostly Cloudy"
"1969-03-05 20:00","1969","03","05","20:00","-6.7","","-13.9","","55","","36","","8","","25.0","","99.45","","","","-11","","Mostly Cloudy"
"1969-03-05 21:00","1969","03","05","21:00","-7.8","","-16.1","","52","","36","","6","","25.0","","99.44","","","","-11","","Mainly Clear"
"1969-03-05 22:00","1969","03","05","22:00","-8.9","","-13.3","","70","","32","","6","","25.0","","99.40","","","","-12","","Clear"
"1969-03-05 23:00","1969","03","05","23:00","-8.3","","-14.4","","61","","36","","10","","25.0","","99.33","","","","-13","","Mostly Cloudy"
"1969-03-06 00:00","1969","03","06","00:00","-8.3","","-13.9","","64","","34","","6","","25.0","","99.32","","","","-12","","Mostly Cloudy"
"1969-03-06 01:00","1969","03","06","01:00","-8.3","","-13.9","","64","","36","","6","","25.0","","99.27","","","","-12","","Mostly Cloudy"
"1969-03-06 02:00","1969","03","06","02:00","-7.8","","-14.4","","60","","","","0","","25.0","","99.20","","","","","","Cloudy"
"1969-03-06 03:00","1969","03","06","03:00","-7.8","","-15.0","","57","","","","0","","24.1","","99.13","","","","","","Snow Showers"
"1969-03-06 04:00","1969","03","06","04:00","-7.8","","-13.9","","63","","","","0","","25.0","","99.10","","","","","","Cloudy"
"1969-03-06 05:00","1969","03","06","05:00","-7.8","","-11.1","","76","","36","","3","","4.8","","99.08","","","","-9","","Snow Showers"
"1969-03-06 06:00","1969","03","06","06:00","-7.8","","-10.0","","84","","5","","8","","4.8","","99.05","","","","-12","","Snow Showers"
"1969-03-06 07:00","1969","03","06","07:00","-7.8","","-8.9","","90","","5","","6","","1.2","","99.06","","","","-11","","Snow Showers"
"1969-03-06 08:00","1969","03","06","08:00","-7.8","","-10.0","","84","","7","","8","","3.2","","99.01","","","","-12","","Snow Showers"
"1969-03-06 09:00","1969","03","06","09:00","-7.2","","-9.4","","85","","7","","10","","3.2","","98.94","","","","-12","","Snow"
"1969-03-06 10:00","1969","03","06","10:00","-6.1","","-8.3","","84","","9","","13","","4.8","","98.92","","","","-11","","Snow"
"1969-03-06 11:00","1969","03","06","11:00","-5.6","","-7.8","","85","","9","","10","","4.8","","98.92","","","","-10","","Snow"
"1969-03-06 12:00","1969","03","06","12:00","-5.0","","-7.2","","86","","9","","10","","2.4","","98.94","","","","-9","","Snow"
"1969-03-06 13:00","1969","03","06","13:00","-4.4","","-6.7","","84","","9","","10","","2.4","","98.82","","","","-9","","Snow"
"1969-03-06 14:00","1969","03","06","14:00","-4.4","","-7.2","","81","","9","","10","","4.0","","98.70","","","","-9","","Snow,Haze"
"1969-03-06 15:00","1969","03","06","15:00","-3.9","","-6.7","","80","","14","","11","","6.4","","98.60","","","","-8","","Haze"
"1969-03-06 16:00","1969","03","06","16:00","-3.3","","-6.7","","79","","7","","6","","6.4","","98.56","","","","-6","","Haze"
"1969-03-06 17:00","1969","03","06","17:00","-3.3","","-6.1","","80","","14","","8","","6.4","","98.54","","","","-7","","Snow Showers,Haze"
"1969-03-06 18:00","1969","03","06","18:00","-3.9","","-6.1","","85","","14","","10","","4.0","","98.53","","","","-8","","Snow,Haze"
"1969-03-06 19:00","1969","03","06","19:00","-3.9","","-6.1","","86","","9","","10","","4.8","","98.54","","","","-8","","Snow,Haze"
"1969-03-06 20:00","1969","03","06","20:00","-4.4","","-6.1","","89","","7","","8","","24.1","","98.52","","","","-8","","Snow"
"1969-03-06 21:00","1969","03","06","21:00","-4.4","","-6.1","","90","","2","","11","","9.7","","98.44","","","","-9","","Snow"
"1969-03-06 22:00","1969","03","06","22:00","-5.0","","-6.1","","90","","36","","13","","12.9","","98.36","","","","-10","","Snow"
"1969-03-06 23:00","1969","03","06","23:00","-5.6","","-7.2","","89","","36","","14","","12.9","","98.33","","","","-11","","Snow"
"1969-03-07 00:00","1969","03","07","00:00","-6.7","","-9.4","","81","","36","","19","","16.1","","98.28","","","","-14","","Snow"
"1969-03-07 01:00","1969","03","07","01:00","-6.7","","-10.6","","74","","36","","16","","19.3","","98.26","","","","-13","","Snow Showers"
"1969-03-07 02:00","1969","03","07","02:00","-7.2","","-11.7","","72","","36","","13","","25.0","","98.28","","","","-13","","Cloudy"
"1969-03-07 03:00","1969","03","07","03:00","-7.8","","-13.3","","64","","36","","16","","25.0","","98.22","","","","-14","","Cloudy"
"1969-03-07 04:00","1969","03","07","04:00","-8.3","","-12.8","","70","","34","","16","","25.0","","98.21","","","","-15","","Cloudy"
"1969-03-07 05:00","1969","03","07","05:00","-9.4","","-15.6","","61","","34","","18","","25.0","","98.22","","","","-17","","Cloudy"
"1969-03-07 06:00","1969","03","07","06:00","-10.6","","-15.6","","68","","34","","16","","25.0","","98.27","","","","-18","","Mostly Cloudy"
"1969-03-07 07:00","1969","03","07","07:00","-12.8","","-18.3","","63","","34","","13","","25.0","","98.31","","","","-20","","Mainly Clear"
"1969-03-07 08:00","1969","03","07","08:00","-11.7","","-20.0","","50","","32","","10","","40.2","","98.35","","","","-17","","Mainly Clear"
"1969-03-07 09:00","1969","03","07","09:00","-8.9","","-16.7","","54","","32","","13","","32.2","","98.32","","","","-15","","Clear"
"1969-03-07 10:00","1969","03","07","10:00","-7.8","","-16.7","","48","","32","","10","","32.2","","98.32","","","","-13","","Clear"
"1969-03-07 11:00","1969","03","07","11:00","-5.0","","-13.9","","51","","32","","18","","32.2","","98.26","","","","-11","","Mainly Clear"
"1969-03-07 12:00","1969","03","07","12:00","-3.3","","-9.4","","62","","29","","27","","32.2","","98.24","","","","-10","","Mainly Clear"
"1969-03-07 13:00","1969","03","07","13:00","-3.3","","-9.4","","62","","32","","21","","32.2","","98.20","","","","-10","","Mainly Clear"
"1969-03-07 14:00","1969","03","07","14:00","-3.3","","-9.4","","62","","32","","24","","32.2","","98.20","","","","-10","","Snow Showers"
"1969-03-07 15:00","1969","03","07","15:00","-2.8","","-9.4","","61","","34","","18","","32.2","","98.26","","","","-8","","Mainly Clear"
"1969-03-07 16:00","1969","03","07","16:00","-2.8","","-9.4","","61","","29","","27","","32.2","","98.30","","","","-10","","Mainly Clear"
"1969-03-07 17:00","1969","03","07","17:00","-3.9","","-10.0","","63","","27","","24","","32.2","","98.38","","","","-11","","Mainly Clear"
"1969-03-07 18:00","1969","03","07","18:00","-5.0","","-11.7","","60","","29","","19","","32.2","","98.44","","","","-11","","Mainly Clear"
"1969-03-07 19:00","1969","03","07","19:00","-6.1","","-11.7","","64","","27","","10","","25.0","","98.49","","","","-11","","Mainly Clear"
"1969-03-07 20:00","1969","03","07","20:00","-6.7","","-12.2","","65","","27","","10","","25.0","","98.52","","","","-11","","Clear"
"1969-03-07 21:00","1969","03","07","21:00","-7.8","","-11.1","","76","","27","","10","","25.0","","98.52","","","","-13","","Clear"
"1969-03-07 22:00","1969","03","07","22:00","-8.3","","-11.7","","78","","27","","10","","25.0","","98.54","","","","-13","","Clear"
"1969-03-07 23:00","1969","03","07","23:00","-8.9","","-12.2","","77","","23","","10","","25.0","","98.56","","","","-14","","Mainly Clear"
"1969-03-08 00:00","1969","03","08","00:00","-9.4","","-12.8","","78","","25","","8","","25.0","","98.56","","","","-14","","Mainly Clear"
"1969-03-08 01:00","1969","03","08","01:00","-10.6","","-12.8","","85","","23","","10","","25.0","","98.55","","","","-16","","Mainly Clear"
"1969-03-08 02:00","1969","03","08","02:00","-10.0","","-15.0","","66","","25","","13","","25.0","","98.53","","","","-16","","Mainly Clear"
"1969-03-08 03:00","1969","03","08","03:00","-9.4","","-12.8","","76","","25","","13","","25.0","","98.53","","","","-15","","Mainly Clear"
"1969-03-08 04:00","1969","03","08","04:00","-9.4","","-12.8","","78","","27","","11","","25.0","","98.55","","","","-15","","Mainly Clear"
"1969-03-08 05:00","1969","03","08","05:00","-8.9","","-12.2","","77","","27","","16","","25.0","","98.57","","","","-16","","Mainly Clear"
"1969-03-08 06:00","1969","03","08","06:00","-8.9","","-11.1","","83","","27","","16","","25.0","","98.59","","","","-16","","Mainly Clear"
"1969-03-08 07:00","1969","03","08","07:00","-8.9","","-11.7","","80","","25","","18","","32.2","","98.64","","","","-16","","Mainly Clear"
"1969-03-08 08:00","1969","03","08","08:00","-7.8","","-11.7","","74","","25","","19","","32.2","","98.66","","","","-15","","Mainly Clear"
"1969-03-08 09:00","1969","03","08","09:00","-5.6","","-11.7","","61","","27","","24","","32.2","","98.72","","","","-13","","Clear"
"1969-03-08 10:00","1969","03","08","10:00","-3.3","","-8.3","","69","","27","","24","","32.2","","98.72","","","","-10","","Clear"
"1969-03-08 11:00","1969","03","08","11:00","-2.2","","-6.7","","71","","27","","27","","32.2","","98.72","","","","-9","","Mostly Cloudy"
"1969-03-08 12:00","1969","03","08","12:00","-2.2","","-7.8","","67","","29","","29","","32.2","","98.72","","","","-9","","Mostly Cloudy"
"1969-03-08 13:00","1969","03","08","13:00","-1.7","","-7.8","","64","","32","","26","","32.2","","98.71","","","","-8","","Mostly Cloudy"
"1969-03-08 14:00","1969","03","08","14:00","-1.1","","-6.7","","67","","29","","29","","32.2","","98.68","","","","-8","","Mainly Clear"
"1969-03-08 15:00","1969","03","08","15:00","-0.6","","-7.2","","62","","29","","31","","32.2","","98.66","","","","-7","","Mainly Clear"
"1969-03-08 16:00","1969","03","08","16:00","-0.6","","-7.2","","62","","32","","26","","32.2","","98.60","","","","-7","","Mainly Clear"
"1969-03-08 17:00","1969","03","08","17:00","-1.1","","-10.0","","50","","29","","18","","32.2","","98.65","","","","-6","","Mainly Clear"
"1969-03-08 18:00","1969","03","08","18:00","-2.8","","-10.6","","54","","29","","16","","32.2","","98.65","","","","-8","","Mainly Clear"
"1969-03-08 19:00","1969","03","08","19:00","-4.4","","-11.1","","60","","27","","14","","25.0","","98.66","","","","-10","","Mainly Clear"
"1969-03-08 20:00","1969","03","08","20:00","-5.6","","-10.6","","68","","29","","13","","25.0","","98.63","","","","-11","","Clear"
"1969-03-08 21:00","1969","03","08","21:00","-6.7","","-10.6","","73","","27","","10","","25.0","","98.66","","","","-11","","Mainly Clear"
"1969-03-08 22:00","1969","03","08","22:00","-6.7","","-9.4","","82","","36","","8","","25.0","","98.67","","","","-11","","Mainly Clear"
"1969-03-08 23:00","1969","03","08","23:00","-5.6","","-8.9","","79","","34","","10","","25.0","","98.67","","","","-10","","Mostly Cloudy"
"1969-03-09 00:00","1969","03","09","00:00","-7.2","","-9.4","","83","","27","","5","","25.0","","98.65","","","","-10","","Mainly Clear"
"1969-03-09 01:00","1969","03","09","01:00","-7.8","","-10.0","","83","","27","","5","","25.0","","98.63","","","","-10","","Mainly Clear"
"1969-03-09 02:00","1969","03","09","02:00","-8.3","","-11.7","","75","","27","","6","","25.0","","98.60","","","","-12","","Mainly Clear"
"1969-03-09 03:00","1969","03","09","03:00","-8.3","","-11.7","","77","","32","","10","","25.0","","98.55","","","","-13","","Mainly Clear"
"1969-03-09 04:00","1969","03","09","04:00","-7.2","","-11.1","","75","","34","","13","","25.0","","98.53","","","","-13","","Mainly Clear"
"1969-03-09 05:00","1969","03","09","05:00","-6.7","","-8.9","","86","","34","","10","","25.0","","98.52","","","","-11","","Mostly Cloudy"
"1969-03-09 06:00","1969","03","09","06:00","-6.1","","-8.9","","79","","36","","10","","25.0","","98.53","","","","-11","","Mostly Cloudy"
"1969-03-09 07:00","1969","03","09","07:00","-6.1","","-8.9","","80","","36","","16","","32.2","","98.55","","","","-12","","Mainly Clear"
"1969-03-09 08:00","1969","03","09","08:00","-6.1","","-8.9","","79","","36","","14","","32.2","","98.56","","","","-12","","Mainly Clear"
"1969-03-09 09:00","1969","03","09","09:00","-5.0","","-9.4","","72","","2","","10","","32.2","","98.56","","","","-9","","Mainly Clear"
"1969-03-09 10:00","1969","03","09","10:00","-3.3","","-8.9","","66","","36","","6","","32.2","","98.54","","","","-6","","Mainly Clear"
"1969-03-09 11:00","1969","03","09","11:00","-3.3","","-8.9","","64","","36","","13","","32.2","","98.52","","","","-8","","Mainly Clear"
"1969-03-09 12:00","1969","03","09","12:00","-2.2","","-7.8","","65","","32","","6","","32.2","","98.52","","","","-5","","Mainly Clear"
"1969-03-09 13:00","1969","03","09","13:00","-2.2","","-8.3","","63","","34","","13","","32.2","","98.44","","","","-7","","Mainly Clear"
"1969-03-09 14:00","1969","03","09","14:00","-2.2","","-7.8","","65","","36","","19","","32.2","","98.36","","","","-8","","Mainly Clear"
"1969-03-09 15:00","1969","03","09","15:00","-1.1","","-6.7","","65","","34","","16","","32.2","","98.31","","","","-6","","Mainly Clear"
"1969-03-09 16:00","1969","03","09","16:00","-1.7","","-7.8","","63","","34","","23","","32.2","","98.30","","","","-8","","Mainly Clear"
"1969-03-09 17:00","1969","03","09","17:00","-1.7","","-6.1","","71","","34","","21","","32.2","","98.27","","","","-8","","Mostly Cloudy"
"1969-03-09 18:00","1969","03","09","18:00","-2.8","","-7.8","","70","","34","","23","","32.2","","98.29","","","","-9","","Mostly Cloudy"
"1969-03-09 19:00","1969","03","09","19:00","-3.9","","-8.3","","72","","34","","16","","25.0","","98.33","","","","-9","","Mainly Clear"
"1969-03-09 20:00","1969","03","09","20:00","-5.0","","-8.3","","79","","29","","10","","25.0","","98.35","","","","-9","","Mainly Clear"
"1969-03-09 21:00","1969","03","09","21:00","-5.6","","-8.9","","76","","27","","13","","25.0","","98.35","","","","-11","","Clear"
"1969-03-09 22:00","1969","03","09","22:00","-5.0","","-8.3","","76","","29","","14","","25.0","","98.34","","","","-10","","Clear"
"1969-03-09 23:00","1969","03","09","23:00","-4.4","","-8.9","","71","","32","","21","","25.0","","98.32","","","","-11","","Mostly Cloudy"
"1969-03-10 00:00","1969","03","10","00:00","-3.3","","-6.7","","77","","29","","13","","25.0","","98.30","","","","-8","","Cloudy"
"1969-03-10 01:00","1969","03","10","01:00","-3.9","","-6.7","","80","","29","","14","","25.0","","98.30","","","","-9","","Mainly Clear"
"1969-03-10 02:00","1969","03","10","02:00","-3.3","","-6.7","","78","","29","","18","","25.0","","98.31","","","","-9","","Snow Showers"
"1969-03-10 03:00","1969","03","10","03:00","-5.0","","-7.8","","81","","29","","13","","25.0","","98.27","","","","-10","","Mainly Clear"
"1969-03-10 04:00","1969","03","10","04:00","-5.0","","-8.3","","76","","29","","18","","25.0","","98.26","","","","-11","","Mainly Clear"
"1969-03-10 05:00","1969","03","10","05:00","-5.6","","-8.9","","78","","29","","11","","25.0","","98.26","","","","-10","","Clear"
"1969-03-10 06:00","1969","03","10","06:00","-6.7","","-9.4","","82","","29","","8","","25.0","","98.27","","","","-11","","Mainly Clear"
"1969-03-10 07:00","1969","03","10","07:00","-7.8","","-9.4","","87","","29","","14","","32.2","","98.33","","","","-14","","Mainly Clear"
"1969-03-10 08:00","1969","03","10","08:00","-6.1","","-11.1","","67","","32","","19","","40.2","","98.35","","","","-13","","Mainly Clear"
"1969-03-10 09:00","1969","03","10","09:00","-5.6","","-10.0","","72","","32","","24","","40.2","","98.37","","","","-13","","Mainly Clear"
"1969-03-10 10:00","1969","03","10","10:00","-5.6","","-8.9","","78","","32","","26","","40.2","","98.37","","","","-13","","Mainly Clear"
"1969-03-10 11:00","1969","03","10","11:00","-4.4","","-9.4","","67","","32","","24","","40.2","","98.34","","","","-11","","Mainly Clear"
"1969-03-10 12:00","1969","03","10","12:00","-4.4","","-8.9","","70","","34","","24","","40.2","","98.32","","","","-11","","Mainly Clear"
"1969-03-10 13:00","1969","03","10","13:00","-3.3","","-8.9","","65","","34","","24","","40.2","","98.27","","","","-10","","Mainly Clear"
"1969-03-10 14:00","1969","03","10","14:00","-3.3","","-7.8","","70","","32","","26","","40.2","","98.23","","","","-10","","Mainly Clear"
"1969-03-10 15:00","1969","03","10","15:00","-3.3","","-8.3","","68","","32","","32","","40.2","","98.26","","","","-11","","Mainly Clear"
"1969-03-10 16:00","1969","03","10","16:00","-4.4","","-10.0","","65","","32","","31","","32.2","","98.30","","","","-12","","Mainly Clear"
"1969-03-10 17:00","1969","03","10","17:00","-5.6","","-10.0","","72","","32","","31","","32.2","","98.33","","","","-14","","Mainly Clear"
"1969-03-10 18:00","1969","03","10","18:00","-6.7","","-11.1","","69","","32","","27","","32.2","","98.38","","","","-15","","Mainly Clear"
"1969-03-10 19:00","1969","03","10","19:00","-7.8","","-11.7","","74","","34","","23","","25.0","","98.45","","","","-16","","Mainly Clear"
"1969-03-10 20:00","1969","03","10","20:00","-9.4","","-12.8","","78","","34","","18","","25.0","","98.49","","","","-17","","Mainly Clear"
"1969-03-10 21:00","1969","03","10","21:00","-10.0","","-13.3","","77","","32","","18","","25.0","","98.49","","","","-17","","Clear"
"1969-03-10 22:00","1969","03","10","22:00","-10.0","","-13.9","","72","","29","","23","","25.0","","98.47","","","","-18","","Clear"
"1969-03-10 23:00","1969","03","10","23:00","-10.0","","-14.4","","71","","29","","27","","25.0","","98.45","","","","-19","","Clear"
"1969-03-11 00:00","1969","03","11","00:00","-10.6","","-14.4","","74","","27","","19","","25.0","","98.44","","","","-18","","Clear"
"1969-03-11 01:00","1969","03","11","01:00","-10.6","","-13.9","","76","","27","","16","","25.0","","98.44","","","","-18","","Clear"
"1969-03-11 02:00","1969","03","11","02:00","-11.1","","-14.4","","77","","29","","13","","25.0","","98.46","","","","-18","","Mainly Clear"
"1969-03-11 03:00","1969","03","11","03:00","-12.2","","-15.0","","78","","32","","14","","25.0","","98.45","","","","-19","","Mainly Clear"
"1969-03-11 04:00","1969","03","11","04:00","-12.8","","-16.7","","74","","32","","18","","25.0","","98.43","","","","-21","","Mainly Clear"
"1969-03-11 05:00","1969","03","11","05:00","-13.9","","-18.3","","68","","32","","16","","25.0","","98.44","","","","-22","","Mainly Clear"
"1969-03-11 06:00","1969","03","11","06:00","-14.4","","-17.8","","75","","29","","14","","25.0","","98.42","","","","-22","","Mainly Clear"
"1969-03-11 07:00","1969","03","11","07:00","-14.4","","-17.8","","75","","29","","21","","25.0","","98.44","","","","-24","","Mainly Clear"
"1969-03-11 08:00","1969","03","11","08:00","-14.4","","-17.8","","75","","29","","21","","32.2","","98.43","","","","-24","","Mainly Clear"
"1969-03-11 09:00","1969","03","11","09:00","-12.8","","-17.2","","68","","32","","23","","32.2","","98.43","","","","-22","","Mainly Clear"
"1969-03-11 10:00","1969","03","11","10:00","-11.7","","-16.7","","65","","29","","23","","40.2","","98.40","","","","-21","","Mainly Clear"
"1969-03-11 11:00","1969","03","11","11:00","-10.6","","-15.6","","66","","29","","27","","40.2","","98.38","","","","-20","","Mainly Clear"
"1969-03-11 12:00","1969","03","11","12:00","-9.4","","-14.4","","67","","29","","29","","32.2","","98.35","","","","-19","","Mostly Cloudy"
"1969-03-11 13:00","1969","03","11","13:00","-8.3","","-14.4","","63","","29","","27","","32.2","","98.31","","","","-17","","Mostly Cloudy"
"1969-03-11 14:00","1969","03","11","14:00","-7.8","","-13.3","","65","","29","","29","","32.2","","98.27","","","","-17","","Mostly Cloudy"
"1969-03-11 15:00","1969","03","11","15:00","-7.8","","-12.8","","67","","27","","31","","32.2","","98.26","","","","-17","","Mostly Cloudy"
"1969-03-11 16:00","1969","03","11","16:00","-7.8","","-12.8","","68","","29","","26","","32.2","","98.29","","","","-16","","Mostly Cloudy"
"1969-03-11 17:00","1969","03","11","17:00","-8.3","","-12.8","","71","","29","","40","","24.1","","98.34","","","","-18","","Mostly Cloudy"
"1969-03-11 18:00","1969","03","11","18:00","-10.6","","-13.3","","81","","34","","21","","19.3","","98.44","","","","-19","","Mainly Clear"
"1969-03-11 19:00","1969","03","11","19:00","-11.7","","-15.0","","76","","32","","26","","19.3","","98.51","","","","-21","","Mainly Clear"
"1969-03-11 20:00","1969","03","11","20:00","-12.2","","-15.6","","76","","29","","13","","25.0","","98.54","","","","-19","","Mainly Clear"
"1969-03-11 21:00","1969","03","11","21:00","-11.7","","-15.0","","76","","27","","18","","25.0","","98.58","","","","-20","","Mainly Clear"
"1969-03-11 22:00","1969","03","11","22:00","-11.1","","-15.0","","73","","27","","19","","25.0","","98.60","","","","-19","","Cloudy"
"1969-03-11 23:00","1969","03","11","23:00","-10.6","","-13.3","","81","","29","","18","","6.4","","98.62","","","","-18","","Snow Showers"
"1969-03-12 00:00","1969","03","12","00:00","-11.1","","-13.3","","83","","32","","8","","6.4","","98.65","","","","-16","","Snow Showers"
"1969-03-12 01:00","1969","03","12","01:00","-11.1","","-13.3","","85","","29","","5","","19.3","","98.69","","","","-14","","Snow"
"1969-03-12 02:00","1969","03","12","02:00","-10.6","","-12.8","","82","","29","","11","","25.0","","98.70","","","","-16","","Mainly Clear"
"1969-03-12 03:00","1969","03","12","03:00","-10.0","","-12.8","","78","","27","","8","","25.0","","98.72","","","","-14","","Mostly Cloudy"
"1969-03-12 04:00","1969","03","12","04:00","-9.4","","-13.3","","72","","29","","13","","25.0","","98.74","","","","-15","","Mostly Cloudy"
"1969-03-12 05:00","1969","03","12","05:00","-10.6","","-13.9","","77","","29","","10","","25.0","","98.78","","","","-16","","Mainly Clear"
"1969-03-12 06:00","1969","03","12","06:00","-10.6","","-13.3","","79","","27","","8","","25.0","","98.83","","","","-15","","Mainly Clear"
"1969-03-12 07:00","1969","03","12","07:00","-11.1","","-13.9","","81","","27","","11","","24.1","","98.89","","","","-17","","Mainly Clear"
"1969-03-12 08:00","1969","03","12","08:00","-8.9","","-12.8","","74","","29","","18","","24.1","","98.93","","","","-16","","Snow Showers"
"1969-03-12 09:00","1969","03","12","09:00","-8.3","","-12.2","","72","","29","","16","","24.1","","98.95","","","","-15","","Mainly Clear"
"1969-03-12 10:00","1969","03","12","10:00","-6.7","","-11.1","","69","","29","","21","","24.1","","98.97","","","","-14","","Mainly Clear"
"1969-03-12 11:00","1969","03","12","11:00","-5.0","","-9.4","","72","","32","","27","","24.1","","98.94","","","","-13","","Snow Showers"
"1969-03-12 12:00","1969","03","12","12:00","-3.9","","-7.8","","74","","32","","24","","24.1","","98.90","","","","-11","","Mostly Cloudy"
"1969-03-12 13:00","1969","03","12","13:00","-2.2","","-6.7","","71","","32","","27","","25.0","","98.87","","","","-9","","Mostly Cloudy"
"1969-03-12 14:00","1969","03","12","14:00","-2.2","","-6.1","","76","","32","","29","","25.0","","98.84","","","","-9","","Cloudy"
"1969-03-12 15:00","1969","03","12","15:00","-2.2","","-6.1","","74","","32","","24","","25.0","","98.85","","","","-9","","Mostly Cloudy"
"1969-03-12 16:00","1969","03","12","16:00","-1.7","","-6.1","","72","","32","","27","","25.0","","98.84","","","","-8","","Mostly Cloudy"
"1969-03-12 17:00","1969","03","12","17:00","-2.2","","-5.6","","77","","29","","29","","32.2","","98.85","","","","-9","","Mostly Cloudy"
"1969-03-12 18:00","1969","03","12","18:00","-2.2","","-5.6","","77","","29","","24","","32.2","","98.88","","","","-9","","Cloudy"
"1969-03-12 19:00","1969","03","12","19:00","-2.8","","-6.1","","78","","29","","31","","25.0","","98.91","","","","-10","","Mostly Cloudy"
"1969-03-12 20:00","1969","03","12","20:00","-3.3","","-6.7","","78","","29","","29","","25.0","","98.95","","","","-11","","Cloudy"
"1969-03-12 21:00","1969","03","12","21:00","-3.3","","-6.7","","78","","29","","16","","25.0","","98.97","","","","-9","","Cloudy"
"1969-03-12 22:00","1969","03","12","22:00","-2.8","","-6.1","","78","","32","","19","","25.0","","98.95","","","","-9","","Cloudy"
"1969-03-12 23:00","1969","03","12","23:00","-2.8","","-5.6","","80","","32","","14","","25.0","","98.95","","","","-8","","Cloudy"
"1969-03-13 00:00","1969","03","13","00:00","-2.8","","-6.1","","77","","29","","11","","25.0","","98.93","","","","-7","","Cloudy"
"1969-03-13 01:00","1969","03","13","01:00","-2.8","","-5.6","","81","","29","","13","","24.1","","98.93","","","","-7","","Snow Showers"
"1969-03-13 02:00","1969","03","13","02:00","-2.8","","-5.6","","81","","29","","11","","25.0","","98.92","","","","-7","","Snow Showers"
"1969-03-13 03:00","1969","03","13","03:00","-2.8","","-5.0","","84","","27","","8","","25.0","","98.87","","","","-6","","Snow Showers"
"1969-03-13 04:00","1969","03","13","04:00","-3.3","","-5.6","","86","","25","","8","","25.0","","98.86","","","","-7","","Cloudy"
"1969-03-13 05:00","1969","03","13","05:00","-2.8","","-5.0","","83","","27","","10","","24.1","","98.89","","","","-7","","Snow Showers"
"1969-03-13 06:00","1969","03","13","06:00","-2.8","","-5.0","","83","","27","","14","","25.0","","98.89","","","","-8","","Snow Showers"
"1969-03-13 07:00","1969","03","13","07:00","-2.2","","-5.0","","82","","27","","13","","24.1","","98.92","","","","-7","","Snow"
"1969-03-13 08:00","1969","03","13","08:00","-2.2","","-5.0","","82","","36","","16","","32.2","","98.97","","","","-7","","Snow"
"1969-03-13 09:00","1969","03","13","09:00","-1.7","","-5.0","","78","","36","","18","","24.1","","98.99","","","","-7","","Cloudy"
"1969-03-13 10:00","1969","03","13","10:00","-1.1","","-5.0","","75","","32","","19","","24.1","","99.01","","","","-6","","Mostly Cloudy"
"1969-03-13 11:00","1969","03","13","11:00","-0.6","","-4.4","","76","","32","","26","","24.1","","99.04","","","","-7","","Snow Showers"
"1969-03-13 12:00","1969","03","13","12:00","1.1","","-3.3","","71","","32","","24","","24.1","","99.05","","","","","","Cloudy"
"1969-03-13 13:00","1969","03","13","13:00","1.1","","-2.8","","74","","29","","26","","24.1","","99.05","","","","","","Cloudy"
"1969-03-13 14:00","1969","03","13","14:00","1.7","","-2.8","","72","","29","","29","","24.1","","99.01","","","","","","Cloudy"
"1969-03-13 15:00","1969","03","13","15:00","1.1","","-2.8","","74","","29","","27","","24.1","","99.05","","","","","","Mostly Cloudy"
"1969-03-13 16:00","1969","03","13","16:00","1.1","","-2.8","","74","","29","","26","","24.1","","99.09","","","","","","Mostly Cloudy"
"1969-03-13 17:00","1969","03","13","17:00","0.6","","-2.8","","78","","29","","24","","32.2","","99.14","","","","","","Cloudy"
"1969-03-13 18:00","1969","03","13","18:00","0.0","","-3.3","","77","","29","","29","","32.2","","99.18","","","","-6","","Mostly Cloudy"
"1969-03-13 19:00","1969","03","13","19:00","0.0","","-3.3","","80","","29","","23","","25.0","","99.22","","","","-6","","Mostly Cloudy"
"1969-03-13 20:00","1969","03","13","20:00","-0.6","","-3.3","","82","","29","","26","","25.0","","99.26","","","","-7","","Cloudy"
"1969-03-13 21:00","1969","03","13","21:00","-0.6","","-3.3","","82","","29","","26","","25.0","","99.29","","","","-7","","Snow Showers"
"1969-03-13 22:00","1969","03","13","22:00","-0.6","","-3.3","","82","","29","","21","","25.0","","99.29","","","","-6","","Snow Showers"
"1969-03-13 23:00","1969","03","13","23:00","-1.1","","-3.9","","82","","29","","18","","25.0","","99.29","","","","-6","","Mostly Cloudy"
"1969-03-14 00:00","1969","03","14","00:00","-1.1","","-3.9","","80","","29","","16","","25.0","","99.29","","","","-6","","Mostly Cloudy"
"1969-03-14 01:00","1969","03","14","01:00","-1.1","","-4.4","","79","","29","","19","","25.0","","99.29","","","","-6","","Cloudy"
"1969-03-14 02:00","1969","03","14","02:00","-0.6","","-3.9","","79","","29","","16","","25.0","","99.31","","","","-5","","Cloudy"
"1969-03-14 03:00","1969","03","14","03:00","-0.6","","-3.3","","82","","29","","14","","16.1","","99.28","","","","-5","","Snow Showers"
"1969-03-14 04:00","1969","03","14","04:00","-1.7","","-3.3","","89","","25","","10","","24.1","","99.28","","","","-5","","Snow Showers"
"1969-03-14 05:00","1969","03","14","05:00","-1.1","","-2.8","","88","","25","","11","","25.0","","99.28","","","","-5","","Snow"
"1969-03-14 06:00","1969","03","14","06:00","-1.1","","-3.3","","86","","27","","10","","25.0","","99.30","","","","-5","","Cloudy"
"1969-03-14 07:00","1969","03","14","07:00","-1.1","","-3.3","","84","","25","","13","","19.3","","99.35","","","","-5","","Snow"
"1969-03-14 08:00","1969","03","14","08:00","-0.6","","-3.9","","79","","27","","16","","32.2","","99.37","","","","-5","","Snow"
"1969-03-14 09:00","1969","03","14","09:00","0.0","","-3.3","","77","","27","","14","","25.0","","99.39","","","","-4","","Cloudy"
"1969-03-14 10:00","1969","03","14","10:00","0.6","","-4.4","","70","","27","","23","","25.0","","99.40","","","","","","Cloudy"
"1969-03-14 11:00","1969","03","14","11:00","1.1","","-3.9","","68","","27","","29","","25.0","","99.39","","","","","","Mostly Cloudy"
"1969-03-14 12:00","1969","03","14","12:00","1.1","","-3.3","","71","","27","","26","","25.0","","99.39","","","","","","Mostly Cloudy"
"1969-03-14 13:00","1969","03","14","13:00","1.7","","-2.8","","72","","27","","27","","25.0","","99.37","","","","","","Mostly Cloudy"
"1969-03-14 14:00","1969","03","14","14:00","1.1","","-2.2","","79","","27","","26","","25.0","","99.35","","","","","","Mostly Cloudy"
"1969-03-14 15:00","1969","03","14","15:00","1.1","","-1.7","","82","","27","","26","","25.0","","99.36","","","","","","Mostly Cloudy"
"1969-03-14 16:00","1969","03","14","16:00","1.1","","-2.2","","79","","27","","29","","25.0","","99.36","","","","","","Mostly Cloudy"
"1969-03-14 17:00","1969","03","14","17:00","1.1","","-1.7","","82","","27","","23","","25.0","","99.38","","","","","","Mostly Cloudy"
"1969-03-14 18:00","1969","03","14","18:00","0.0","","-3.9","","74","","27","","23","","25.0","","99.42","","","","-6","","Mostly Cloudy"
"1969-03-14 19:00","1969","03","14","19:00","0.0","","-3.9","","74","","27","","16","","19.3","","99.47","","","","-5","","Mostly Cloudy"
"1969-03-14 20:00","1969","03","14","20:00","-0.6","","-5.0","","73","","27","","16","","16.1","","99.49","","","","-5","","Cloudy"
"1969-03-14 21:00","1969","03","14","21:00","-0.6","","-3.9","","79","","27","","18","","12.9","","99.49","","","","-6","","Cloudy"
"1969-03-14 22:00","1969","03","14","22:00","-1.1","","-3.9","","83","","27","","23","","12.9","","99.49","","","","-7","","Cloudy"
"1969-03-14 23:00","1969","03","14","23:00","-1.7","","-4.4","","80","","27","","26","","12.9","","99.50","","","","-8","","Cloudy"
"1969-03-15 00:00","1969","03","15","00:00","-1.7","","-4.4","","81","","27","","29","","12.9","","99.51","","","","-9","","Cloudy"
"1969-03-15 01:00","1969","03","15","01:00","-1.7","","-5.0","","78","","27","","29","","16.1","","99.56","","","","-9","","Mostly Cloudy"
"1969-03-15 02:00","1969","03","15","02:00","-1.7","","-4.4","","80","","27","","27","","19.3","","99.58","","","","-8","","Mostly Cloudy"
"1969-03-15 03:00","1969","03","15","03:00","-1.7","","-4.4","","80","","29","","29","","19.3","","99.58","","","","-9","","Mostly Cloudy"
"1969-03-15 04:00","1969","03","15","04:00","-1.7","","-5.0","","79","","27","","24","","24.1","","99.62","","","","-8","","Cloudy"
"1969-03-15 05:00","1969","03","15","05:00","-2.2","","-5.0","","80","","27","","26","","19.3","","99.68","","","","-9","","Mostly Cloudy"
"1969-03-15 06:00","1969","03","15","06:00","-2.8","","-5.6","","80","","27","","21","","16.1","","99.75","","","","-9","","Mostly Cloudy"
"1969-03-15 07:00","1969","03","15","07:00","-3.3","","-6.1","","81","","29","","19","","12.9","","99.82","","","","-9","","Mostly Cloudy"
"1969-03-15 08:00","1969","03","15","08:00","-3.3","","-6.1","","81","","27","","29","","11.3","","99.89","","","","-11","","Mainly Clear"
"1969-03-15 09:00","1969","03","15","09:00","-2.2","","-5.6","","79","","27","","24","","11.3","","99.97","","","","-9","","Mainly Clear"
"1969-03-15 10:00","1969","03","15","10:00","-1.7","","-5.0","","78","","27","","29","","11.3","","99.98","","","","-9","","Mainly Clear"
"1969-03-15 11:00","1969","03","15","11:00","-0.6","","-4.4","","76","","27","","24","","12.9","","99.97","","","","-7","","Mainly Clear"
"1969-03-15 12:00","1969","03","15","12:00","0.0","","-5.0","","69","","27","","23","","12.9","","99.95","","","","-6","","Mainly Clear"
"1969-03-15 13:00","1969","03","15","13:00","1.7","","-2.8","","72","","27","","21","","12.9","","99.87","","","","","","Mainly Clear"
"1969-03-15 14:00","1969","03","15","14:00","3.3","","-3.3","","63","","27","","27","","19.3","","99.80","","","","","","Mainly Clear"
"1969-03-15 15:00","1969","03","15","15:00","3.3","","-5.6","","53","","27","","27","","19.3","","99.78","","","","","","Mainly Clear"
"1969-03-15 16:00","1969","03","15","16:00","2.2","","-5.6","","56","","27","","31","","19.3","","99.75","","","","","","Mostly Cloudy"
"1969-03-15 17:00","1969","03","15","17:00","2.2","","-5.0","","58","","27","","27","","19.3","","99.74","","","","","","Mostly Cloudy"
"1969-03-15 18:00","1969","03","15","18:00","1.1","","-6.7","","55","","27","","19","","19.3","","99.78","","","","","","Cloudy"
"1969-03-15 19:00","1969","03","15","19:00","0.6","","-6.1","","62","","27","","13","","12.9","","99.78","","","","","","Mostly Cloudy"
"1969-03-15 20:00","1969","03","15","20:00","-1.1","","-5.6","","71","","25","","16","","24.1","","99.77","","","","-6","","Mainly Clear"
"1969-03-15 21:00","1969","03","15","21:00","-0.6","","-5.6","","67","","25","","16","","25.0","","99.76","","","","-5","","Mainly Clear"
"1969-03-15 22:00","1969","03","15","22:00","-1.7","","-6.7","","70","","25","","8","","25.0","","99.76","","","","-5","","Mainly Clear"
"1969-03-15 23:00","1969","03","15","23:00","-2.2","","-6.7","","71","","25","","10","","25.0","","99.76","","","","-6","","Mainly Clear"
"1969-03-16 00:00","1969","03","16","00:00","-2.8","","-6.7","","75","","27","","13","","25.0","","99.74","","","","-7","","Mainly Clear"
"1969-03-16 01:00","1969","03","16","01:00","-2.8","","-6.7","","75","","29","","19","","25.0","","99.72","","","","-9","","Clear"
"1969-03-16 02:00","1969","03","16","02:00","-3.9","","-7.8","","75","","27","","16","","25.0","","99.73","","","","-9","","Clear"
"1969-03-16 03:00","1969","03","16","03:00","-4.4","","-7.8","","78","","29","","16","","25.0","","99.71","","","","-10","","Clear"
"1969-03-16 04:00","1969","03","16","04:00","-5.0","","-7.8","","82","","27","","11","","25.0","","99.73","","","","-10","","Mainly Clear"
"1969-03-16 05:00","1969","03","16","05:00","-5.6","","-7.8","","84","","29","","11","","25.0","","99.80","","","","-10","","Mainly Clear"
"1969-03-16 06:00","1969","03","16","06:00","-5.6","","-7.8","","85","","25","","8","","24.1","","99.85","","","","-9","","Mainly Clear"
"1969-03-16 07:00","1969","03","16","07:00","-5.6","","-7.8","","84","","27","","3","","24.1","","99.92","","","","-7","","Mainly Clear"
"1969-03-16 08:00","1969","03","16","08:00","-3.9","","-6.7","","80","","32","","8","","24.1","","100.00","","","","-7","","Mainly Clear"
"1969-03-16 09:00","1969","03","16","09:00","-1.7","","-4.4","","80","","32","","18","","24.1","","100.01","","","","-7","","Mainly Clear"
"1969-03-16 10:00","1969","03","16","10:00","0.0","","-3.9","","74","","29","","21","","24.1","","100.04","","","","-5","","Mainly Clear"
"1969-03-16 11:00","1969","03","16","11:00","0.6","","-4.4","","70","","29","","23","","24.1","","100.03","","","","","","Mostly Cloudy"
"1969-03-16 12:00","1969","03","16","12:00","0.0","","-4.4","","71","","32","","21","","24.1","","100.03","","","","-5","","Mostly Cloudy"
"1969-03-16 13:00","1969","03","16","13:00","0.6","","-6.7","","59","","32","","19","","24.1","","99.99","","","","","","Mostly Cloudy"
"1969-03-16 14:00","1969","03","16","14:00","1.7","","-4.4","","64","","29","","21","","24.1","","99.93","","","","","","Mainly Clear"
"1969-03-16 15:00","1969","03","16","15:00","1.1","","-2.2","","79","","29","","19","","24.1","","99.88","","","","","","Mostly Cloudy"
"1969-03-16 16:00","1969","03","16","16:00","1.7","","-4.4","","64","","27","","21","","24.1","","99.88","","","","","","Mostly Cloudy"
"1969-03-16 17:00","1969","03","16","17:00","0.6","","-3.9","","73","","27","","19","","32.2","","99.95","","","","","","Mostly Cloudy"
"1969-03-16 18:00","1969","03","16","18:00","0.0","","-5.0","","69","","27","","10","","32.2","","99.92","","","","-3","","Mostly Cloudy"
"1969-03-16 19:00","1969","03","16","19:00","-1.1","","-5.0","","74","","25","","8","","25.0","","99.92","","","","-4","","Mostly Cloudy"
"1969-03-16 20:00","1969","03","16","20:00","-1.1","","-5.6","","71","","20","","10","","25.0","","99.93","","","","-5","","Mainly Clear"
"1969-03-16 21:00","1969","03","16","21:00","-1.1","","-5.6","","71","","20","","10","","25.0","","99.84","","","","-5","","Mostly Cloudy"
"1969-03-16 22:00","1969","03","16","22:00","-1.7","","-5.6","","74","","18","","11","","25.0","","99.75","","","","-6","","Mostly Cloudy"
"1969-03-16 23:00","1969","03","16","23:00","-1.7","","-5.0","","77","","18","","10","","25.0","","99.73","","","","-5","","Mainly Clear"
"1969-03-17 00:00","1969","03","17","00:00","-1.1","","-5.6","","73","","18","","13","","25.0","","99.63","","","","-5","","Mostly Cloudy"
"1969-03-17 01:00","1969","03","17","01:00","-0.6","","-5.0","","73","","18","","10","","19.3","","99.60","","","","-4","","Mostly Cloudy"
"1969-03-17 02:00","1969","03","17","02:00","-0.6","","-5.0","","73","","18","","11","","24.1","","99.54","","","","-4","","Mainly Clear"
"1969-03-17 03:00","1969","03","17","03:00","-1.1","","-5.0","","75","","18","","16","","25.0","","99.44","","","","-6","","Mainly Clear"
"1969-03-17 04:00","1969","03","17","04:00","-1.1","","-5.6","","72","","18","","14","","25.0","","99.41","","","","-6","","Mainly Clear"
"1969-03-17 05:00","1969","03","17","05:00","-0.6","","-5.6","","70","","23","","19","","25.0","","99.36","","","","-6","","Mostly Cloudy"
"1969-03-17 06:00","1969","03","17","06:00","-0.6","","-4.4","","76","","25","","19","","19.3","","99.34","","","","-6","","Mainly Clear"
"1969-03-17 07:00","1969","03","17","07:00","1.7","","-3.3","","70","","27","","26","","19.3","","99.42","","","","","","Clear"
"1969-03-17 08:00","1969","03","17","08:00","2.8","","-3.9","","62","","27","","19","","19.3","","99.42","","","","","","Mainly Clear"
"1969-03-17 09:00","1969","03","17","09:00","3.9","","-2.8","","61","","27","","23","","19.3","","99.47","","","","","","Mainly Clear"
"1969-03-17 10:00","1969","03","17","10:00","5.0","","-1.7","","61","","27","","27","","19.3","","99.45","","","","","","Mainly Clear"
"1969-03-17 11:00","1969","03","17","11:00","6.1","","-1.7","","58","","25","","29","","19.3","","99.43","","","","","","Mainly Clear"
"1969-03-17 12:00","1969","03","17","12:00","7.2","","-1.1","","56","","27","","23","","19.3","","99.43","","","","","","Mainly Clear"
"1969-03-17 13:00","1969","03","17","13:00","8.3","","0.0","","56","","27","","16","","19.3","","99.41","","","","","","Mainly Clear"
"1969-03-17 14:00","1969","03","17","14:00","8.9","","0.6","","55","","27","","18","","19.3","","99.35","","","","","","Mostly Cloudy"
"1969-03-17 15:00","1969","03","17","15:00","9.4","","0.0","","52","","27","","16","","19.3","","99.33","","","","","","Mainly Clear"
"1969-03-17 16:00","1969","03","17","16:00","11.1","","0.6","","48","","23","","13","","16.1","","99.30","","","","","","Mostly Cloudy"
"1969-03-17 17:00","1969","03","17","17:00","10.6","","0.6","","51","","18","","11","","16.1","","99.27","","","","","","Mostly Cloudy"
"1969-03-17 18:00","1969","03","17","18:00","8.9","","0.6","","55","","18","","14","","12.9","","99.26","","","","","","Cloudy"
"1969-03-17 19:00","1969","03","17","19:00","7.2","","-1.1","","56","","23","","18","","24.1","","99.23","","","","","","Mostly Cloudy"
"1969-03-17 20:00","1969","03","17","20:00","6.1","","-1.7","","58","","25","","14","","25.0","","99.19","","","","","","Cloudy"
"1969-03-17 21:00","1969","03","17","21:00","5.6","","-1.7","","59","","25","","13","","25.0","","99.17","","","","","","Cloudy"
"1969-03-17 22:00","1969","03","17","22:00","5.6","","-1.1","","62","","25","","19","","25.0","","99.18","","","","","","Cloudy"
"1969-03-17 23:00","1969","03","17","23:00","5.0","","-1.1","","65","","27","","13","","25.0","","99.21","","","","","","Cloudy"
"1969-03-18 00:00","1969","03","18","00:00","5.0","","-1.7","","63","","27","","16","","25.0","","99.22","","","","","","Mostly Cloudy"
"1969-03-18 01:00","1969","03","18","01:00","5.0","","-1.1","","65","","27","","19","","25.0","","99.19","","","","","","Mainly Clear"
"1969-03-18 02:00","1969","03","18","02:00","4.4","","-0.6","","69","","32","","10","","25.0","","99.22","","","","","","Mainly Clear"
"1969-03-18 03:00","1969","03","18","03:00","2.2","","-2.8","","68","","5","","8","","25.0","","99.20","","","","","","Mainly Clear"
"1969-03-18 04:00","1969","03","18","04:00","3.9","","-1.1","","71","","25","","8","","25.0","","99.20","","","","","","Mainly Clear"
"1969-03-18 05:00","1969","03","18","05:00","2.2","","-1.7","","76","","27","","14","","25.0","","99.22","","","","","","Mainly Clear"
"1969-03-18 06:00","1969","03","18","06:00","2.2","","-2.2","","71","","27","","14","","16.1","","99.22","","","","","","Clear"
"1969-03-18 07:00","1969","03","18","07:00","1.7","","-1.7","","78","","29","","11","","8.0","","99.25","","","","","","Haze"
"1969-03-18 08:00","1969","03","18","08:00","3.9","","-0.6","","73","","","","0","","8.0","","99.28","","","","","","Haze"
"1969-03-18 09:00","1969","03","18","09:00","5.6","","0.0","","68","","32","","11","","8.0","","99.25","","","","","","Haze"
"1969-03-18 10:00","1969","03","18","10:00","8.3","","1.7","","62","","34","","6","","8.0","","99.23","","","","","","Haze"
"1969-03-18 11:00","1969","03","18","11:00","10.6","","1.1","","52","","7","","6","","9.7","","99.20","","","","","","Haze"
"1969-03-18 12:00","1969","03","18","12:00","10.6","","1.7","","54","","16","","19","","8.0","","99.21","","","","","","Haze"
"1969-03-18 13:00","1969","03","18","13:00","10.6","","1.1","","52","","18","","16","","8.0","","99.22","","","","","","Haze"
"1969-03-18 14:00","1969","03","18","14:00","11.1","","-0.6","","45","","16","","13","","9.7","","99.15","","","","","","Haze"
"1969-03-18 15:00","1969","03","18","15:00","12.2","","0.0","","42","","14","","8","","9.7","","99.06","","","","","","Haze"
"1969-03-18 16:00","1969","03","18","16:00","12.8","","1.1","","45","","14","","14","","9.7","","99.04","","","","","","Haze"
"1969-03-18 17:00","1969","03","18","17:00","10.0","","1.1","","55","","14","","19","","9.7","","98.99","","","","","","Haze"
"1969-03-18 18:00","1969","03","18","18:00","6.7","","0.0","","63","","9","","16","","8.0","","99.02","","","","","","Haze"
"1969-03-18 19:00","1969","03","18","19:00","4.4","","-0.6","","71","","9","","14","","6.4","","99.04","","","","","","Haze"
"1969-03-18 20:00","1969","03","18","20:00","3.3","","-2.2","","68","","9","","11","","6.4","","99.04","","","","","","Haze"
"1969-03-18 21:00","1969","03","18","21:00","3.3","","-0.6","","75","","9","","13","","8.0","","99.04","","","","","","Haze"
"1969-03-18 22:00","1969","03","18","22:00","1.7","","-0.6","","84","","9","","11","","6.4","","99.00","","","","","","Haze"
"1969-03-18 23:00","1969","03","18","23:00","1.7","","0.0","","89","","9","","13","","4.8","","98.97","","","","","","Fog"
"1969-03-19 00:00","1969","03","19","00:00","1.7","","0.0","","89","","9","","14","","4.8","","98.93","","","","","","Fog"
"1969-03-19 01:00","1969","03","19","01:00","0.6","","-0.6","","91","","9","","13","","4.8","","98.91","","","","","","Fog"
"1969-03-19 02:00","1969","03","19","02:00","0.6","","-0.6","","91","","18","","5","","4.0","","98.89","","","","","","Fog"
"1969-03-19 03:00","1969","03","19","03:00","1.1","","0.6","","94","","14","","6","","2.0","","98.84","","","","","","Fog"
"1969-03-19 04:00","1969","03","19","04:00","0.6","","0.0","","97","","18","","6","","0.6","","98.82","","","","","","Fog"
"1969-03-19 05:00","1969","03","19","05:00","0.6","","0.6","","100","","","","0","","0.2","","98.83","","","","","","Fog"
"1969-03-19 06:00","1969","03","19","06:00","0.0","","0.0","","100","","","","0","","0.0","","98.87","","","","","","Fog"
"1969-03-19 07:00","1969","03","19","07:00","0.0","","0.0","","100","","","","0","","0.0","","98.91","","","","","","Fog"
"1969-03-19 08:00","1969","03","19","08:00","0.6","","0.6","","100","","","","0","","0.2","","98.95","","","","","","Fog"
"1969-03-19 09:00","1969","03","19","09:00","0.6","","0.0","","97","","23","","5","","0.2","","98.99","","","","","","Rain Showers,Fog"
"1969-03-19 10:00","1969","03","19","10:00","1.1","","1.1","","100","","","","0","","0.4","","99.02","","","","","","Rain Showers,Fog"
"1969-03-19 11:00","1969","03","19","11:00","1.7","","1.1","","97","","","","0","","1.6","","99.09","","","","","","Fog"
"1969-03-19 12:00","1969","03","19","12:00","3.3","","2.8","","95","","","","0","","2.4","","99.11","","","","","","Fog"
"1969-03-19 13:00","1969","03","19","13:00","6.1","","4.4","","89","","","","0","","4.0","","99.12","","","","","","Fog"
"1969-03-19 14:00","1969","03","19","14:00","7.8","","3.9","","77","","36","","11","","4.8","","99.11","","","","","","Haze"
"1969-03-19 15:00","1969","03","19","15:00","10.0","","5.6","","75","","2","","10","","4.8","","99.13","","","","","","Haze"
"1969-03-19 16:00","1969","03","19","16:00","7.2","","3.9","","81","","14","","11","","4.8","","99.23","","","","","","Haze"
"1969-03-19 17:00","1969","03","19","17:00","7.2","","3.9","","78","","14","","5","","4.0","","99.30","","","","","","Haze"
"1969-03-19 18:00","1969","03","19","18:00","7.2","","2.8","","72","","36","","18","","4.8","","99.38","","","","","","Haze"
"1969-03-19 19:00","1969","03","19","19:00","3.9","","0.6","","78","","36","","16","","4.8","","99.41","","","","","","Haze"
"1969-03-19 20:00","1969","03","19","20:00","2.8","","0.0","","82","","2","","13","","4.8","","99.46","","","","","","Haze"
"1969-03-19 21:00","1969","03","19","21:00","2.2","","0.0","","84","","2","","14","","6.4","","99.51","","","","","","Haze"
"1969-03-19 22:00","1969","03","19","22:00","0.6","","-0.6","","91","","27","","6","","4.8","","99.57","","","","","","Fog"
"1969-03-19 23:00","1969","03","19","23:00","1.7","","-0.6","","84","","2","","6","","4.8","","99.61","","","","","","Fog"
"1969-03-20 00:00","1969","03","20","00:00","-1.1","","-2.2","","91","","11","","11","","2.8","","99.63","","","","-5","","Fog"
"1969-03-20 01:00","1969","03","20","01:00","-0.6","","-1.1","","97","","14","","11","","0.0","","99.62","","","","-4","","Fog"
"1969-03-20 02:00","1969","03","20","02:00","-1.1","","-1.1","","99","","14","","10","","0.0","","99.66","","","","-5","","Fog"
"1969-03-20 03:00","1969","03","20","03:00","-0.6","","-0.6","","99","","11","","8","","0.0","","99.64","","","","-3","","Fog"
"1969-03-20 04:00","1969","03","20","04:00","-0.6","","-0.6","","99","","11","","14","","0.2","","99.63","","","","-5","","Fog"
"1969-03-20 05:00","1969","03","20","05:00","-0.6","","-0.6","","99","","11","","13","","0.2","","99.59","","","","-5","","Fog"
"1969-03-20 06:00","1969","03","20","06:00","-0.6","","-0.6","","99","","11","","14","","1.6","","99.58","","","","-5","","Fog"
"1969-03-20 07:00","1969","03","20","07:00","-0.6","","-0.6","","99","","11","","10","","0.6","","99.55","","","","-4","","Fog"
"1969-03-20 08:00","1969","03","20","08:00","0.0","","0.0","","100","","11","","19","","0.4","","99.51","","","","-5","","Fog"
"1969-03-20 09:00","1969","03","20","09:00","0.0","","-0.6","","97","","9","","19","","0.4","","99.43","","","","-5","","Fog"
"1969-03-20 10:00","1969","03","20","10:00","1.1","","0.6","","97","","9","","27","","0.6","","99.24","","","","","","Fog"
"1969-03-20 11:00","1969","03","20","11:00","1.1","","0.6","","97","","9","","27","","1.2","","99.15","","","","","","Fog"
"1969-03-20 12:00","1969","03","20","12:00","1.7","","1.1","","97","","9","","27","","1.2","","98.97","","","","","","Fog"
"1969-03-20 13:00","1969","03","20","13:00","1.7","","1.1","","97","","9","","24","","1.6","","98.80","","","","","","Fog"
"1969-03-20 14:00","1969","03","20","14:00","2.2","","1.7","","95","","9","","21","","2.0","","98.62","","","","","","Fog"
"1969-03-20 15:00","1969","03","20","15:00","2.8","","2.2","","95","","9","","19","","2.0","","98.44","","","","","","Fog"
"1969-03-20 16:00","1969","03","20","16:00","4.4","","3.3","","93","","9","","32","","3.2","","98.20","","","","","","Fog"
"1969-03-20 17:00","1969","03","20","17:00","4.4","","3.3","","93","","11","","16","","3.2","","98.26","","","","","","Rain Showers,Fog"
"1969-03-20 18:00","1969","03","20","18:00","4.4","","3.3","","93","","7","","23","","2.0","","98.17","","","","","","Rain Showers,Fog"
"1969-03-20 19:00","1969","03","20","19:00","5.0","","3.9","","93","","7","","27","","3.2","","97.95","","","","","","Rain Showers,Fog"
"1969-03-20 20:00","1969","03","20","20:00","3.9","","3.3","","95","","29","","23","","2.8","","98.26","","","","","","Thunderstorms,Rain Showers,Fog"
"1969-03-20 21:00","1969","03","20","21:00","5.0","","4.4","","95","","9","","29","","1.2","","97.88","","","","","","Rain Showers,Fog"
"1969-03-20 22:00","1969","03","20","22:00","6.7","","6.1","","96","","18","","16","","4.0","","97.93","","","","","","Fog"
"1969-03-20 23:00","1969","03","20","23:00","6.7","","6.1","","96","","18","","21","","3.2","","97.88","","","","","","Fog"
"1969-03-21 00:00","1969","03","21","00:00","6.1","","1.7","","73","","20","","24","","25.0","","97.89","","","","","","Clear"
"1969-03-21 01:00","1969","03","21","01:00","5.0","","1.7","","79","","23","","32","","25.0","","97.94","","","","","","Mostly Cloudy"
"1969-03-21 02:00","1969","03","21","02:00","5.0","","1.7","","79","","20","","31","","25.0","","97.98","","","","","","Cloudy"
"1969-03-21 03:00","1969","03","21","03:00","4.4","","1.1","","78","","20","","29","","24.1","","97.98","","","","","","Rain Showers"
"1969-03-21 04:00","1969","03","21","04:00","3.3","","1.7","","90","","20","","29","","19.3","","97.96","","","","","","Rain"
"1969-03-21 05:00","1969","03","21","05:00","3.3","","1.7","","90","","23","","32","","19.3","","97.97","","","","","","Rain"
"1969-03-21 06:00","1969","03","21","06:00","2.8","","1.7","","92","","23","","23","","8.0","","98.08","","","","","","Rain,Drizzle,Fog"
"1969-03-21 07:00","1969","03","21","07:00","3.3","","2.2","","92","","23","","21","","6.4","","98.14","","","","","","Drizzle,Fog"
"1969-03-21 08:00","1969","03","21","08:00","3.3","","0.6","","82","","25","","26","","11.3","","98.18","","","","","","Cloudy"
"1969-03-21 09:00","1969","03","21","09:00","2.8","","0.6","","84","","23","","29","","12.9","","98.28","","","","","","Rain"
"1969-03-21 10:00","1969","03","21","10:00","2.8","","0.6","","84","","25","","34","","24.1","","98.32","","","","","","Rain"
"1969-03-21 11:00","1969","03","21","11:00","3.3","","0.0","","80","","25","","32","","32.2","","98.37","","","","","","Cloudy"
"1969-03-21 12:00","1969","03","21","12:00","2.8","","-1.1","","77","","25","","34","","32.2","","98.47","","","","","","Rain"
"1969-03-21 13:00","1969","03","21","13:00","2.8","","-0.6","","79","","27","","29","","32.2","","98.52","","","","","","Cloudy"
"1969-03-21 14:00","1969","03","21","14:00","2.8","","-1.1","","74","","25","","34","","32.2","","98.54","","","","","","Cloudy"
"1969-03-21 15:00","1969","03","21","15:00","2.8","","-1.1","","74","","25","","34","","32.2","","98.61","","","","","","Cloudy"
"1969-03-21 16:00","1969","03","21","16:00","2.2","","-1.7","","76","","27","","29","","32.2","","98.69","","","","","","Cloudy"
"1969-03-21 17:00","1969","03","21","17:00","1.7","","-2.8","","73","","27","","27","","32.2","","98.80","","","","","","Cloudy"
"1969-03-21 18:00","1969","03","21","18:00","1.1","","-2.8","","76","","27","","29","","32.2","","98.88","","","","","","Cloudy"
"1969-03-21 19:00","1969","03","21","19:00","0.6","","-3.3","","75","","27","","27","","25.0","","98.96","","","","","","Cloudy"
"1969-03-21 20:00","1969","03","21","20:00","0.6","","-2.8","","78","","27","","27","","25.0","","99.02","","","","","","Mostly Cloudy"
"1969-03-21 21:00","1969","03","21","21:00","0.6","","-2.2","","81","","29","","27","","25.0","","99.11","","","","","","Mostly Cloudy"
"1969-03-21 22:00","1969","03","21","22:00","0.0","","-2.2","","86","","29","","26","","9.7","","99.26","","","","-6","","Snow"
"1969-03-21 23:00","1969","03","21","23:00","-0.6","","-2.2","","88","","32","","23","","16.1","","99.24","","","","-6","","Snow"
"1969-03-22 00:00","1969","03","22","00:00","-0.6","","-1.7","","91","","29","","16","","12.9","","99.29","","","","-5","","Snow"
"1969-03-22 01:00","1969","03","22","01:00","0.0","","-3.3","","80","","34","","14","","25.0","","99.35","","","","-4","","Cloudy"
"1969-03-22 02:00","1969","03","22","02:00","0.0","","-3.3","","80","","32","","24","","25.0","","99.37","","","","-6","","Mostly Cloudy"
"1969-03-22 03:00","1969","03","22","03:00","-0.6","","-5.6","","70","","32","","19","","25.0","","99.42","","","","-6","","Mostly Cloudy"
"1969-03-22 04:00","1969","03","22","04:00","-1.7","","-6.7","","68","","32","","24","","25.0","","99.49","","","","-8","","Mainly Clear"
"1969-03-22 05:00","1969","03","22","05:00","-3.9","","-7.8","","74","","29","","16","","25.0","","99.60","","","","-9","","Mainly Clear"
"1969-03-22 06:00","1969","03","22","06:00","-3.9","","-6.7","","79","","29","","18","","25.0","","99.70","","","","-10","","Mainly Clear"
"1969-03-22 07:00","1969","03","22","07:00","-3.9","","-7.2","","78","","29","","13","","40.2","","99.78","","","","-9","","Clear"
"1969-03-22 08:00","1969","03","22","08:00","-1.1","","-5.6","","73","","32","","18","","40.2","","99.83","","","","-6","","Clear"
"1969-03-22 09:00","1969","03","22","09:00","0.0","","-6.7","","60","","32","","27","","40.2","","99.88","","","","-6","","Mainly Clear"
"1969-03-22 10:00","1969","03","22","10:00","1.1","","-7.2","","53","","32","","21","","40.2","","99.93","","","","","","Clear"
"1969-03-22 11:00","1969","03","22","11:00","2.2","","-6.1","","53","","27","","21","","40.2","","99.94","","","","","","Clear"
"1969-03-22 12:00","1969","03","22","12:00","3.3","","-6.1","","50","","32","","16","","40.2","","99.94","","","","","","Clear"
"1969-03-22 13:00","1969","03","22","13:00","4.4","","-5.0","","51","","27","","14","","40.2","","99.92","","","","","","Clear"
"1969-03-22 14:00","1969","03","22","14:00","5.6","","-3.9","","51","","27","","21","","40.2","","99.90","","","","","","Clear"
"1969-03-22 15:00","1969","03","22","15:00","6.7","","-2.8","","51","","27","","16","","40.2","","99.85","","","","","","Clear"
"1969-03-22 16:00","1969","03","22","16:00","6.1","","-3.9","","48","","27","","18","","40.2","","99.82","","","","","","Clear"
"1969-03-22 17:00","1969","03","22","17:00","6.7","","-2.8","","51","","27","","18","","40.2","","99.83","","","","","","Clear"
"1969-03-22 18:00","1969","03","22","18:00","5.0","","-2.8","","56","","27","","16","","40.2","","99.81","","","","","","Clear"
"1969-03-22 19:00","1969","03","22","19:00","1.1","","-2.8","","76","","29","","14","","40.2","","99.83","","","","","","Clear"
"1969-03-22 20:00","1969","03","22","20:00","0.0","","-3.9","","74","","32","","10","","25.0","","99.85","","","","-3","","Clear"
"1969-03-22 21:00","1969","03","22","21:00","1.1","","-3.3","","71","","27","","3","","25.0","","99.86","","","","","","Clear"
"1969-03-22 22:00","1969","03","22","22:00","0.6","","-3.9","","73","","18","","6","","25.0","","99.86","","","","","","Clear"
"1969-03-22 23:00","1969","03","22","23:00","0.0","","-3.3","","77","","20","","11","","25.0","","99.88","","","","-4","","Clear"
"1969-03-23 00:00","1969","03","23","00:00","-0.6","","-3.3","","82","","25","","6","","25.0","","99.88","","","","-3","","Clear"
"1969-03-23 01:00","1969","03","23","01:00","-1.1","","-3.3","","85","","20","","8","","25.0","","99.85","","","","-4","","Mainly Clear"
"1969-03-23 02:00","1969","03","23","02:00","-1.7","","-3.9","","84","","18","","8","","25.0","","99.83","","","","-5","","Clear"
"1969-03-23 03:00","1969","03","23","03:00","-1.7","","-5.6","","74","","20","","6","","25.0","","99.76","","","","-4","","Clear"
"1969-03-23 04:00","1969","03","23","04:00","-1.7","","-5.0","","78","","","","0","","25.0","","99.75","","","","","","Clear"
"1969-03-23 05:00","1969","03","23","05:00","-2.2","","-5.0","","80","","","","0","","25.0","","99.80","","","","","","Clear"
"1969-03-23 06:00","1969","03","23","06:00","-2.2","","-5.6","","78","","","","0","","25.0","","99.86","","","","","","Mainly Clear"
"1969-03-23 07:00","1969","03","23","07:00","-1.1","","-5.6","","72","","20","","6","","32.2","","99.86","","","","-3","","Mostly Cloudy"
"1969-03-23 08:00","1969","03","23","08:00","0.0","","-3.3","","77","","18","","5","","24.1","","99.84","","","","-2","","Mainly Clear"
"1969-03-23 09:00","1969","03","23","09:00","2.2","","-2.8","","68","","16","","13","","16.1","","99.78","","","","","","Mainly Clear"
"1969-03-23 10:00","1969","03","23","10:00","3.3","","-3.3","","63","","16","","19","","16.1","","99.70","","","","","","Mainly Clear"
"1969-03-23 11:00","1969","03","23","11:00","5.0","","-1.7","","61","","16","","18","","19.3","","99.70","","","","","","Mainly Clear"
"1969-03-23 12:00","1969","03","23","12:00","6.7","","-0.6","","59","","16","","19","","19.3","","99.60","","","","","","Mostly Cloudy"
"1969-03-23 13:00","1969","03","23","13:00","7.2","","-1.7","","54","","16","","26","","16.1","","99.52","","","","","","Cloudy"
"1969-03-23 14:00","1969","03","23","14:00","8.3","","-1.7","","48","","16","","21","","16.1","","99.40","","","","","","Mostly Cloudy"
"1969-03-23 15:00","1969","03","23","15:00","8.9","","-1.7","","48","","16","","23","","19.3","","99.32","","","","","","Mainly Clear"
"1969-03-23 16:00","1969","03","23","16:00","8.9","","-1.1","","50","","16","","19","","19.3","","99.32","","","","","","Mainly Clear"
"1969-03-23 17:00","1969","03","23","17:00","8.3","","-0.6","","54","","14","","19","","19.3","","99.30","","","","","","Mainly Clear"
"1969-03-23 18:00","1969","03","23","18:00","6.7","","-0.6","","59","","14","","16","","19.3","","99.27","","","","","","Mainly Clear"
"1969-03-23 19:00","1969","03","23","19:00","5.0","","-1.1","","65","","14","","13","","19.3","","99.24","","","","","","Mostly Cloudy"
"1969-03-23 20:00","1969","03","23","20:00","4.4","","-2.2","","62","","16","","16","","25.0","","99.19","","","","","","Mostly Cloudy"
"1969-03-23 21:00","1969","03","23","21:00","3.3","","-2.2","","68","","18","","5","","25.0","","99.18","","","","","","Mostly Cloudy"
"1969-03-23 22:00","1969","03","23","22:00","1.1","","-1.7","","82","","36","","10","","24.1","","99.16","","","","","","Mostly Cloudy"
"1969-03-23 23:00","1969","03","23","23:00","0.6","","-0.6","","91","","34","","10","","24.1","","99.15","","","","","","Mainly Clear"
"1969-03-24 00:00","1969","03","24","00:00","-0.6","","-1.7","","91","","36","","10","","19.3","","99.09","","","","-4","","Mostly Cloudy"
"1969-03-24 01:00","1969","03","24","01:00","-0.6","","-2.2","","88","","","","0","","24.1","","99.06","","","","","","Mostly Cloudy"
"1969-03-24 02:00","1969","03","24","02:00","-1.7","","-3.3","","88","","36","","10","","19.3","","99.03","","","","-5","","Cloudy"
"1969-03-24 03:00","1969","03","24","03:00","-1.1","","-2.8","","87","","36","","10","","19.3","","98.94","","","","-5","","Cloudy"
"1969-03-24 04:00","1969","03","24","04:00","-0.6","","-1.7","","93","","34","","6","","19.3","","98.90","","","","-3","","Cloudy"
"1969-03-24 05:00","1969","03","24","05:00","-0.6","","-2.2","","88","","36","","10","","19.3","","98.88","","","","-4","","Cloudy"
"1969-03-24 06:00","1969","03","24","06:00","-0.6","","-2.2","","88","","36","","6","","9.7","","98.85","","","","-3","","Fog"
"1969-03-24 07:00","1969","03","24","07:00","0.0","","-1.7","","88","","34","","6","","8.0","","98.88","","","","-2","","Fog"
"1969-03-24 08:00","1969","03","24","08:00","1.7","","-0.6","","84","","36","","8","","8.0","","98.79","","","","","","Fog"
"1969-03-24 09:00","1969","03","24","09:00","4.4","","-1.7","","64","","9","","11","","8.0","","98.76","","","","","","Haze"
"1969-03-24 10:00","1969","03","24","10:00","6.1","","-1.7","","58","","9","","14","","8.0","","98.68","","","","","","Haze"
"1969-03-24 11:00","1969","03","24","11:00","6.7","","-1.7","","55","","9","","21","","9.7","","98.62","","","","","","Haze"
"1969-03-24 12:00","1969","03","24","12:00","7.2","","-1.7","","52","","9","","19","","9.7","","98.55","","","","","","Rain,Haze"
"1969-03-24 13:00","1969","03","24","13:00","5.6","","1.7","","75","","9","","18","","8.0","","98.45","","","","","","Rain,Haze"
"1969-03-24 14:00","1969","03","24","14:00","5.0","","3.3","","88","","9","","24","","4.8","","98.30","","","","","","Rain,Fog"
"1969-03-24 15:00","1969","03","24","15:00","5.6","","3.9","","91","","9","","29","","3.2","","98.19","","","","","","Rain,Fog"
"1969-03-24 16:00","1969","03","24","16:00","5.0","","3.9","","93","","9","","19","","3.2","","98.12","","","","","","Rain,Ice Fog"
"1969-03-24 17:00","1969","03","24","17:00","4.4","","3.9","","95","","9","","35","","4.8","","98.04","","","","","","Rain,Fog"
"1969-03-24 18:00","1969","03","24","18:00","3.3","","2.8","","97","","9","","35","","6.4","","97.99","","","","","","Rain,Fog"
"1969-03-24 19:00","1969","03","24","19:00","3.3","","2.2","","92","","9","","35","","8.0","","97.96","","","","","","Rain,Fog"
"1969-03-24 20:00","1969","03","24","20:00","3.3","","2.2","","92","","9","","40","","9.7","","97.87","","","","","","Rain,Fog"
"1969-03-24 21:00","1969","03","24","21:00","3.3","","2.2","","92","","9","","40","","9.7","","97.80","","","","","","Rain,Fog"
"1969-03-24 22:00","1969","03","24","22:00","3.3","","2.8","","95","","9","","40","","8.0","","97.71","","","","","","Rain,Fog"
"1969-03-24 23:00","1969","03","24","23:00","3.3","","2.2","","92","","9","","39","","9.7","","97.63","","","","","","Rain,Fog"
"1969-03-25 00:00","1969","03","25","00:00","2.8","","2.2","","95","","9","","39","","6.4","","97.55","","","","","","Rain,Fog"
"1969-03-25 01:00","1969","03","25","01:00","3.3","","2.8","","95","","7","","26","","4.8","","97.52","","","","","","Rain,Fog"
"1969-03-25 02:00","1969","03","25","02:00","2.8","","2.2","","97","","9","","26","","4.0","","97.43","","","","","","Rain,Fog"
"1969-03-25 03:00","1969","03","25","03:00","2.8","","2.2","","97","","7","","26","","4.8","","97.34","","","","","","Rain,Fog"
"1969-03-25 04:00","1969","03","25","04:00","2.8","","2.2","","97","","7","","19","","4.8","","97.25","","","","","","Rain,Fog"
"1969-03-25 05:00","1969","03","25","05:00","3.3","","2.8","","95","","9","","23","","4.8","","97.25","","","","","","Rain,Fog"
"1969-03-25 06:00","1969","03","25","06:00","3.3","","2.8","","95","","7","","19","","4.8","","97.23","","","","","","Rain,Fog"
"1969-03-25 07:00","1969","03","25","07:00","3.3","","2.8","","97","","7","","16","","4.0","","97.22","","","","","","Rain,Fog"
"1969-03-25 08:00","1969","03","25","08:00","3.9","","2.8","","93","","5","","14","","6.4","","97.19","","","","","","Rain,Fog"
"1969-03-25 09:00","1969","03","25","09:00","3.9","","3.3","","95","","5","","21","","4.8","","97.16","","","","","","Rain,Fog"
"1969-03-25 10:00","1969","03","25","10:00","3.9","","2.8","","93","","7","","14","","4.8","","97.16","","","","","","Rain,Fog"
"1969-03-25 11:00","1969","03","25","11:00","3.9","","2.8","","93","","7","","16","","6.4","","97.15","","","","","","Rain,Fog"
"1969-03-25 12:00","1969","03","25","12:00","3.9","","3.3","","95","","7","","13","","6.4","","97.15","","","","","","Rain,Fog"
"1969-03-25 13:00","1969","03","25","13:00","4.4","","3.9","","95","","2","","13","","6.4","","97.15","","","","","","Rain,Fog"
"1969-03-25 14:00","1969","03","25","14:00","4.4","","3.3","","93","","5","","14","","6.4","","97.14","","","","","","Rain,Fog"
"1969-03-25 15:00","1969","03","25","15:00","4.4","","3.9","","98","","36","","13","","3.2","","97.15","","","","","","Rain,Fog"
"1969-03-25 16:00","1969","03","25","16:00","4.4","","3.9","","98","","36","","13","","3.2","","97.19","","","","","","Rain,Fog"
"1969-03-25 17:00","1969","03","25","17:00","3.3","","2.2","","92","","2","","16","","6.4","","97.25","","","","","","Rain,Fog"
"1969-03-25 18:00","1969","03","25","18:00","2.2","","1.1","","92","","2","","14","","6.4","","97.30","","","","","","Rain,Fog"
"1969-03-25 19:00","1969","03","25","19:00","0.6","","0.0","","97","","36","","11","","3.2","","97.33","","","","","","Snow"
"1969-03-25 20:00","1969","03","25","20:00","0.6","","0.0","","97","","34","","11","","3.2","","97.36","","","","","","Snow"
"1969-03-25 21:00","1969","03","25","21:00","0.6","","0.0","","97","","36","","11","","4.8","","97.37","","","","","","Snow"
"1969-03-25 22:00","1969","03","25","22:00","0.6","","0.0","","97","","36","","10","","3.2","","97.37","","","","","","Snow"
"1969-03-25 23:00","1969","03","25","23:00","0.6","","0.0","","97","","36","","18","","3.2","","97.37","","","","","","Snow"
"1969-03-26 00:00","1969","03","26","00:00","0.6","","0.0","","97","","34","","23","","4.8","","97.36","","","","","","Snow"
"1969-03-26 01:00","1969","03","26","01:00","0.6","","-1.7","","86","","34","","29","","6.4","","97.38","","","","","","Snow"
"1969-03-26 02:00","1969","03","26","02:00","-1.1","","-1.7","","95","","34","","27","","6.4","","97.42","","","","-8","","Snow"
"1969-03-26 03:00","1969","03","26","03:00","-1.7","","-3.3","","90","","34","","27","","4.8","","97.45","","","","-8","","Snow"
"1969-03-26 04:00","1969","03","26","04:00","-2.2","","-3.3","","91","","34","","29","","4.8","","97.50","","","","-9","","Snow"
"1969-03-26 05:00","1969","03","26","05:00","-2.8","","-3.9","","93","","34","","24","","2.4","","97.54","","","","-9","","Snow"
"1969-03-26 06:00","1969","03","26","06:00","-3.9","","-5.6","","87","","32","","26","","6.4","","97.62","","","","-11","","Snow Showers"
"1969-03-26 07:00","1969","03","26","07:00","-3.9","","-5.6","","89","","34","","29","","1.6","","97.70","","","","-11","","Snow"
"1969-03-26 08:00","1969","03","26","08:00","-4.4","","-6.1","","89","","34","","23","","4.8","","97.70","","","","-11","","Snow Showers"
"1969-03-26 09:00","1969","03","26","09:00","-4.4","","-6.1","","88","","32","","18","","1.6","","97.75","","","","-10","","Snow"
"1969-03-26 10:00","1969","03","26","10:00","-4.4","","-6.1","","90","","34","","16","","2.4","","97.77","","","","-10","","Snow"
"1969-03-26 11:00","1969","03","26","11:00","-3.9","","-6.1","","84","","29","","19","","9.7","","97.77","","","","-10","","Snow"
"1969-03-26 12:00","1969","03","26","12:00","-3.3","","-6.1","","82","","29","","21","","19.3","","97.76","","","","-10","","Snow"
"1969-03-26 13:00","1969","03","26","13:00","-3.3","","-7.2","","76","","29","","19","","11.3","","97.77","","","","-9","","Snow,Snow Grains"
"1969-03-26 14:00","1969","03","26","14:00","-3.3","","-6.1","","80","","29","","21","","8.0","","97.76","","","","-10","","Snow"
"1969-03-26 15:00","1969","03","26","15:00","-3.9","","-6.1","","86","","27","","23","","1.6","","97.80","","","","-11","","Snow"
"1969-03-26 16:00","1969","03","26","16:00","-4.4","","-6.1","","90","","27","","24","","1.0","","97.83","","","","-11","","Snow"
"1969-03-26 17:00","1969","03","26","17:00","-4.4","","-6.7","","84","","29","","32","","2.0","","97.86","","","","-12","","Snow"
"1969-03-26 18:00","1969","03","26","18:00","-5.0","","-6.7","","88","","29","","24","","1.6","","97.92","","","","-12","","Snow"
"1969-03-26 19:00","1969","03","26","19:00","-5.0","","-6.7","","88","","29","","24","","2.0","","97.98","","","","-12","","Snow"
"1969-03-26 20:00","1969","03","26","20:00","-5.0","","-7.2","","84","","29","","19","","16.1","","98.08","","","","-11","","Snow"
"1969-03-26 21:00","1969","03","26","21:00","-5.0","","-7.2","","83","","29","","23","","24.1","","98.13","","","","-12","","Snow"
"1969-03-26 22:00","1969","03","26","22:00","-5.0","","-7.2","","83","","29","","19","","25.0","","98.13","","","","-11","","Mainly Clear"
"1969-03-26 23:00","1969","03","26","23:00","-4.4","","-7.2","","81","","32","","27","","25.0","","98.20","","","","-12","","Cloudy"
"1969-03-27 00:00","1969","03","27","00:00","-5.6","","-8.9","","78","","34","","39","","25.0","","98.29","","","","-15","","Mainly Clear"
"1969-03-27 01:00","1969","03","27","01:00","-5.6","","-10.0","","72","","32","","23","","25.0","","98.39","","","","-13","","Mainly Clear"
"1969-03-27 02:00","1969","03","27","02:00","-7.2","","-10.0","","80","","29","","18","","25.0","","98.44","","","","-14","","Mainly Clear"
"1969-03-27 03:00","1969","03","27","03:00","-6.7","","-9.4","","79","","27","","14","","25.0","","98.52","","","","-12","","Mainly Clear"
"1969-03-27 04:00","1969","03","27","04:00","-7.2","","-10.0","","81","","27","","16","","25.0","","98.58","","","","-14","","Mainly Clear"
"1969-03-27 05:00","1969","03","27","05:00","-7.2","","-9.4","","83","","27","","13","","25.0","","98.65","","","","-13","","Mainly Clear"
"1969-03-27 06:00","1969","03","27","06:00","-7.2","","-9.4","","83","","27","","13","","25.0","","98.74","","","","-13","","Mainly Clear"
"1969-03-27 07:00","1969","03","27","07:00","-7.8","","-9.4","","89","","27","","11","","32.2","","98.82","","","","-13","","Mainly Clear"
"1969-03-27 08:00","1969","03","27","08:00","-6.1","","-11.1","","67","","29","","18","","40.2","","98.93","","","","-13","","Mainly Clear"
"1969-03-27 09:00","1969","03","27","09:00","-6.1","","-11.1","","67","","29","","19","","32.2","","99.02","","","","-13","","Mainly Clear"
"1969-03-27 10:00","1969","03","27","10:00","-5.6","","-11.1","","64","","29","","23","","32.2","","99.06","","","","-13","","Mainly Clear"
"1969-03-27 11:00","1969","03","27","11:00","-3.9","","-7.8","","76","","29","","26","","32.2","","99.11","","","","-11","","Mainly Clear"
"1969-03-27 12:00","1969","03","27","12:00","-2.2","","-5.6","","79","","29","","24","","32.2","","99.13","","","","-9","","Mainly Clear"
"1969-03-27 13:00","1969","03","27","13:00","-1.7","","-5.0","","78","","27","","23","","32.2","","99.14","","","","-8","","Mostly Cloudy"
"1969-03-27 14:00","1969","03","27","14:00","-1.1","","-3.9","","80","","29","","27","","32.2","","99.14","","","","-8","","Mostly Cloudy"
"1969-03-27 15:00","1969","03","27","15:00","-0.6","","-3.9","","79","","27","","26","","32.2","","99.10","","","","-7","","Mostly Cloudy"
"1969-03-27 16:00","1969","03","27","16:00","-0.6","","-3.9","","79","","27","","26","","32.2","","99.11","","","","-7","","Mostly Cloudy"
"1969-03-27 17:00","1969","03","27","17:00","-0.6","","-2.8","","85","","29","","32","","32.2","","99.20","","","","-7","","Mainly Clear"
"1969-03-27 18:00","1969","03","27","18:00","-1.7","","-5.0","","78","","29","","27","","32.2","","99.26","","","","-8","","Mainly Clear"
"1969-03-27 19:00","1969","03","27","19:00","-2.8","","-6.7","","74","","27","","23","","32.2","","99.35","","","","-9","","Mainly Clear"
"1969-03-27 20:00","1969","03","27","20:00","-3.9","","-7.8","","75","","27","","13","","25.0","","99.42","","","","-9","","Mainly Clear"
"1969-03-27 21:00","1969","03","27","21:00","-5.6","","-9.4","","75","","23","","11","","25.0","","99.46","","","","-10","","Mainly Clear"
"1969-03-27 22:00","1969","03","27","22:00","-6.1","","-10.0","","74","","23","","6","","25.0","","99.47","","","","-9","","Clear"
"1969-03-27 23:00","1969","03","27","23:00","-5.0","","-10.6","","66","","18","","5","","25.0","","99.48","","","","-7","","Clear"
"1969-03-28 00:00","1969","03","28","00:00","-5.6","","-10.0","","70","","18","","10","","25.0","","99.50","","","","-10","","Clear"
"1969-03-28 01:00","1969","03","28","01:00","-5.6","","-11.7","","61","","20","","6","","25.0","","99.47","","","","-8","","Mainly Clear"
"1969-03-28 02:00","1969","03","28","02:00","-5.6","","-8.9","","76","","20","","10","","25.0","","99.48","","","","-10","","Clear"
"1969-03-28 03:00","1969","03","28","03:00","-5.6","","-9.4","","74","","20","","10","","25.0","","99.46","","","","-10","","Mainly Clear"
"1969-03-28 04:00","1969","03","28","04:00","-5.6","","-8.9","","78","","18","","8","","25.0","","99.48","","","","-9","","Mainly Clear"
"1969-03-28 05:00","1969","03","28","05:00","-5.6","","-9.4","","75","","18","","10","","25.0","","99.48","","","","-10","","Mostly Cloudy"
"1969-03-28 06:00","1969","03","28","06:00","-5.0","","-8.9","","75","","20","","11","","19.3","","99.50","","","","-10","","Mostly Cloudy"
"1969-03-28 07:00","1969","03","28","07:00","-3.9","","-6.1","","85","","23","","10","","16.1","","99.52","","","","-8","","Mostly Cloudy"
"1969-03-28 08:00","1969","03","28","08:00","-2.2","","-3.9","","87","","18","","13","","9.7","","99.53","","","","-7","","Smoke"
"1969-03-28 09:00","1969","03","28","09:00","0.0","","-2.8","","83","","18","","18","","6.4","","99.50","","","","-5","","Haze"
"1969-03-28 10:00","1969","03","28","10:00","2.2","","-3.3","","66","","20","","27","","6.4","","99.50","","","","","","Haze"
"1969-03-28 11:00","1969","03","28","11:00","3.3","","-2.8","","65","","18","","23","","6.4","","99.45","","","","","","Haze"
"1969-03-28 12:00","1969","03","28","12:00","4.4","","-2.8","","60","","20","","24","","9.7","","99.37","","","","","","Haze"
"1969-03-28 13:00","1969","03","28","13:00","5.6","","-2.2","","57","","20","","29","","12.9","","99.31","","","","","","Mostly Cloudy"
"1969-03-28 14:00","1969","03","28","14:00","5.6","","-2.8","","55","","18","","29","","12.9","","99.26","","","","","","Mostly Cloudy"
"1969-03-28 15:00","1969","03","28","15:00","6.7","","-1.7","","55","","18","","31","","12.9","","99.15","","","","","","Mostly Cloudy"
"1969-03-28 16:00","1969","03","28","16:00","7.8","","-1.1","","55","","18","","29","","12.9","","99.07","","","","","","Mostly Cloudy"
"1969-03-28 17:00","1969","03","28","17:00","7.2","","-1.7","","54","","18","","26","","12.9","","98.97","","","","","","Cloudy"
"1969-03-28 18:00","1969","03","28","18:00","6.7","","-1.1","","57","","20","","19","","12.9","","98.94","","","","","","Rain"
"1969-03-28 19:00","1969","03","28","19:00","5.6","","0.6","","70","","20","","32","","12.9","","98.96","","","","","","Rain"
"1969-03-28 20:00","1969","03","28","20:00","5.0","","2.2","","81","","20","","29","","16.1","","98.93","","","","","","Rain"
"1969-03-28 21:00","1969","03","28","21:00","5.0","","2.2","","81","","20","","26","","25.0","","98.87","","","","","","Cloudy"
"1969-03-28 22:00","1969","03","28","22:00","6.1","","1.1","","71","","20","","42","","25.0","","98.78","","","","","","Rain"
"1969-03-28 23:00","1969","03","28","23:00","6.1","","2.8","","80","","20","","39","","14.5","","98.73","","","","","","Rain"
"1969-03-29 00:00","1969","03","29","00:00","6.1","","3.9","","86","","20","","32","","14.5","","98.70","","","","","","Rain"
"1969-03-29 01:00","1969","03","29","01:00","6.1","","4.4","","89","","23","","32","","14.5","","98.69","","","","","","Rain"
"1969-03-29 02:00","1969","03","29","02:00","5.6","","3.3","","86","","29","","29","","25.0","","98.74","","","","","","Cloudy"
"1969-03-29 03:00","1969","03","29","03:00","2.8","","-1.1","","74","","32","","29","","25.0","","98.88","","","","","","Cloudy"
"1969-03-29 04:00","1969","03","29","04:00","0.0","","-3.9","","74","","32","","37","","25.0","","99.02","","","","-7","","Cloudy"
"1969-03-29 05:00","1969","03","29","05:00","-1.1","","-4.4","","79","","32","","32","","25.0","","99.13","","","","-8","","Mostly Cloudy"
"1969-03-29 06:00","1969","03","29","06:00","-2.2","","-5.6","","79","","32","","39","","25.0","","99.33","","","","-10","","Cloudy"
"1969-03-29 07:00","1969","03","29","07:00","-2.8","","-6.1","","78","","29","","37","","32.2","","99.52","","","","-11","","Cloudy"
"1969-03-29 08:00","1969","03","29","08:00","-3.3","","-6.7","","78","","29","","32","","32.2","","99.62","","","","-11","","Snow Showers"
"1969-03-29 09:00","1969","03","29","09:00","-2.8","","-8.3","","64","","29","","32","","40.2","","99.73","","","","-10","","Mostly Cloudy"
"1969-03-29 10:00","1969","03","29","10:00","-2.8","","-9.4","","59","","29","","32","","40.2","","99.89","","","","-10","","Mostly Cloudy"
"1969-03-29 11:00","1969","03","29","11:00","-2.2","","-7.2","","70","","36","","27","","32.2","","99.95","","","","-9","","Mostly Cloudy"
"1969-03-29 12:00","1969","03","29","12:00","-2.8","","-6.7","","74","","32","","26","","40.2","","100.04","","","","-10","","Cloudy"
"1969-03-29 13:00","1969","03","29","13:00","-2.8","","-7.8","","67","","32","","32","","40.2","","100.09","","","","-10","","Mostly Cloudy"
"1969-03-29 14:00","1969","03","29","14:00","-2.8","","-6.7","","76","","29","","19","","40.2","","100.08","","","","-9","","Mostly Cloudy"
"1969-03-29 15:00","1969","03","29","15:00","-2.8","","-6.1","","78","","29","","26","","32.2","","100.10","","","","-10","","Snow Showers"
"1969-03-29 16:00","1969","03","29","16:00","-2.8","","-6.1","","77","","29","","26","","32.2","","100.14","","","","-10","","Mostly Cloudy"
"1969-03-29 17:00","1969","03","29","17:00","-3.3","","-7.2","","75","","27","","27","","32.2","","100.23","","","","-10","","Mostly Cloudy"
"1969-03-29 18:00","1969","03","29","18:00","-3.9","","-9.4","","65","","29","","27","","32.2","","100.30","","","","-11","","Cloudy"
"1969-03-29 19:00","1969","03","29","19:00","-4.4","","-9.4","","67","","29","","26","","32.2","","100.36","","","","-12","","Mostly Cloudy"
"1969-03-29 20:00","1969","03","29","20:00","-4.4","","-10.0","","66","","27","","16","","25.0","","100.42","","","","-10","","Mainly Clear"
"1969-03-29 21:00","1969","03","29","21:00","-5.0","","-10.6","","66","","29","","19","","25.0","","100.46","","","","-11","","Mostly Cloudy"
"1969-03-29 22:00","1969","03","29","22:00","-6.1","","-10.0","","75","","29","","11","","25.0","","100.44","","","","-11","","Mainly Clear"
"1969-03-29 23:00","1969","03","29","23:00","-6.1","","-10.0","","75","","27","","8","","25.0","","100.40","","","","-10","","Mainly Clear"
"1969-03-30 00:00","1969","03","30","00:00","-6.1","","-10.0","","75","","27","","11","","25.0","","100.40","","","","-11","","Mainly Clear"
"1969-03-30 01:00","1969","03","30","01:00","-6.1","","-9.4","","78","","27","","11","","25.0","","100.38","","","","-11","","Mainly Clear"
"1969-03-30 02:00","1969","03","30","02:00","-5.6","","-9.4","","74","","27","","23","","25.0","","100.34","","","","-13","","Cloudy"
"1969-03-30 03:00","1969","03","30","03:00","-5.6","","-8.9","","79","","27","","14","","25.0","","100.32","","","","-11","","Cloudy"
"1969-03-30 04:00","1969","03","30","04:00","-5.6","","-9.4","","75","","27","","16","","25.0","","100.31","","","","-12","","Mostly Cloudy"
"1969-03-30 05:00","1969","03","30","05:00","-6.1","","-9.4","","78","","27","","21","","25.0","","100.31","","","","-13","","Mainly Clear"
"1969-03-30 06:00","1969","03","30","06:00","-6.7","","-9.4","","79","","29","","10","","40.2","","100.34","","","","-11","","Mainly Clear"
"1969-03-30 07:00","1969","03","30","07:00","-6.7","","-10.6","","74","","29","","19","","40.2","","100.37","","","","-14","","Mainly Clear"
"1969-03-30 08:00","1969","03","30","08:00","-5.0","","-9.4","","72","","27","","29","","40.2","","100.38","","","","-13","","Mainly Clear"
"1969-03-30 09:00","1969","03","30","09:00","-3.9","","-8.9","","67","","27","","16","","40.2","","100.40","","","","-9","","Mainly Clear"
"1969-03-30 10:00","1969","03","30","10:00","-3.9","","-10.0","","63","","27","","24","","40.2","","100.41","","","","-11","","Mainly Clear"
"1969-03-30 11:00","1969","03","30","11:00","-3.9","","-9.4","","65","","27","","26","","40.2","","100.40","","","","-11","","Mostly Cloudy"
"1969-03-30 12:00","1969","03","30","12:00","-2.8","","-8.3","","66","","27","","23","","40.2","","100.34","","","","-9","","Mostly Cloudy"
"1969-03-30 13:00","1969","03","30","13:00","-2.8","","-9.4","","60","","27","","21","","40.2","","100.31","","","","-9","","Mostly Cloudy"
"1969-03-30 14:00","1969","03","30","14:00","-2.2","","-7.2","","69","","27","","35","","40.2","","100.26","","","","-10","","Mostly Cloudy"
"1969-03-30 15:00","1969","03","30","15:00","-2.2","","-6.7","","72","","27","","27","","24.1","","100.24","","","","-9","","Mostly Cloudy"
"1969-03-30 16:00","1969","03","30","16:00","-3.3","","-8.3","","67","","29","","32","","24.1","","100.26","","","","-11","","Mostly Cloudy"
"1969-03-30 17:00","1969","03","30","17:00","-3.3","","-7.8","","73","","29","","35","","3.2","","100.29","","","","-11","","Snow Showers"
"1969-03-30 18:00","1969","03","30","18:00","-3.9","","-8.9","","68","","27","","26","","24.1","","100.30","","","","-11","","Mainly Clear"
"1969-03-30 19:00","1969","03","30","19:00","-4.4","","-8.3","","75","","27","","24","","24.1","","100.30","","","","-11","","Mainly Clear"
"1969-03-30 20:00","1969","03","30","20:00","-5.6","","-9.4","","74","","27","","13","","25.0","","100.33","","","","-11","","Mainly Clear"
"1969-03-30 21:00","1969","03","30","21:00","-5.0","","-9.4","","70","","27","","11","","25.0","","100.35","","","","-10","","Mainly Clear"
"1969-03-30 22:00","1969","03","30","22:00","-5.6","","-8.3","","80","","23","","13","","8.0","","100.29","","","","-11","","Snow Showers"
"1969-03-30 23:00","1969","03","30","23:00","-6.1","","-8.3","","84","","25","","10","","24.1","","100.26","","","","-11","","Mainly Clear"
"1969-03-31 00:00","1969","03","31","00:00","-6.1","","-10.0","","75","","27","","13","","25.0","","100.21","","","","-11","","Mostly Cloudy"
"1969-03-31 01:00","1969","03","31","01:00","-6.7","","-10.0","","78","","27","","24","","25.0","","100.19","","","","-14","","Mainly Clear"
"1969-03-31 02:00","1969","03","31","02:00","-7.2","","-10.6","","79","","29","","29","","6.4","","100.19","","","","-16","","Snow Showers"
"1969-03-31 03:00","1969","03","31","03:00","-7.8","","-12.2","","71","","27","","21","","25.0","","100.21","","","","-15","","Clear"
"1969-03-31 04:00","1969","03","31","04:00","-8.3","","-12.2","","72","","27","","23","","25.0","","100.21","","","","-16","","Clear"
"1969-03-31 05:00","1969","03","31","05:00","-8.3","","-11.7","","77","","27","","23","","25.0","","100.25","","","","-16","","Clear"
"1969-03-31 06:00","1969","03","31","06:00","-8.3","","-11.7","","78","","27","","23","","24.1","","100.32","","","","-16","","Mainly Clear"
"1969-03-31 07:00","1969","03","31","07:00","-7.8","","-11.7","","75","","29","","26","","24.1","","100.44","","","","-16","","Mainly Clear"
"1969-03-31 08:00","1969","03","31","08:00","-6.7","","-11.7","","67","","29","","27","","32.2","","100.53","","","","-15","","Mainly Clear"
"1969-03-31 09:00","1969","03","31","09:00","-7.8","","-11.1","","76","","32","","27","","6.4","","100.66","","","","-16","","Snow Showers"
"1969-03-31 10:00","1969","03","31","10:00","-5.0","","-11.7","","59","","32","","32","","40.2","","100.74","","","","-13","","Mainly Clear"
"1969-03-31 11:00","1969","03","31","11:00","-4.4","","-10.6","","62","","32","","29","","40.2","","100.80","","","","-12","","Mostly Cloudy"
"1969-03-31 12:00","1969","03","31","12:00","-5.0","","-11.1","","62","","32","","19","","40.2","","100.79","","","","-11","","Mostly Cloudy"
"1969-03-31 13:00","1969","03","31","13:00","-4.4","","-12.2","","55","","27","","23","","40.2","","100.76","","","","-11","","Mostly Cloudy"
"1969-03-31 14:00","1969","03","31","14:00","-3.3","","-11.1","","56","","27","","29","","24.1","","100.72","","","","-11","","Mostly Cloudy"
"1969-03-31 15:00","1969","03","31","15:00","-3.9","","-13.3","","48","","27","","27","","40.2","","100.69","","","","-11","","Mostly Cloudy"
"1969-03-31 16:00","1969","03","31","16:00","-3.3","","-13.3","","45","","25","","23","","40.2","","100.66","","","","-10","","Mostly Cloudy"
"1969-03-31 17:00","1969","03","31","17:00","-3.3","","-10.0","","59","","27","","26","","32.2","","100.65","","","","-10","","Mostly Cloudy"
"1969-03-31 18:00","1969","03","31","18:00","-4.4","","-12.8","","52","","25","","23","","32.2","","100.64","","","","-11","","Mainly Clear"
"1969-03-31 19:00","1969","03","31","19:00","-5.0","","-10.6","","64","","27","","10","","32.2","","100.59","","","","-9","","Mainly Clear"
"1969-03-31 20:00","1969","03","31","20:00","-5.6","","-10.6","","67","","","","0","","25.0","","100.58","","","","","","Mainly Clear"
"1969-03-31 21:00","1969","03","31","21:00","-5.6","","-10.6","","67","","18","","6","","25.0","","100.59","","","","-8","","Mostly Cloudy"
"1969-03-31 22:00","1969","03","31","22:00","-5.0","","-9.4","","72","","23","","11","","25.0","","100.61","","","","-10","","Clear"
"1969-03-31 23:00","1969","03","31","23:00","-5.0","","-10.0","","67","","18","","10","","25.0","","100.56","","","","-9","","Mostly Cloudy"
