"Station Name","TORONTO LESTER B. PEARSON INT'L A"
"Province","ONTARIO"
"Latitude","43.68"
"Longitude","-79.63"
"Elevation","173.40"
"Climate Identifier","6158733"
"WMO Identifier","71624"
"TC Identifier","YYZ"
"All times are specified in Local Standard Time (LST). Add 1 hour to adjust for Daylight Saving Time where and when it is observed."

"Legend"
"E","Estimated"
"M","Missing"
"NA","Not Available"

"Date/Time","Year","Month","Day","Time","Temp (°C)","Temp Flag","Dew Point Temp (°C)","Dew Point Temp Flag","Rel Hum (%)","Rel Hum Flag","Wind Dir (10s deg)","Wind Dir Flag","Wind Spd (km/h)","Wind Spd Flag","Visibility (km)","Visibility Flag","Stn Press (kPa)","Stn Press Flag","Hmdx","Hmdx Flag","Wind Chill","Wind Chill Flag","Weather"
"2003-03-01 00:00","2003","03","01","00:00","-3.9","","-10.6","","60","","","","0","","24.1","","100.06","","","","","","Cloudy"
"2003-03-01 01:00","2003","03","01","01:00","-4.4","","-9.2","","69","","","","0","","24.1","","100.05","","","","","","Cloudy"
"2003-03-01 02:00","2003","03","01","02:00","-5.7","","-10.1","","71","","3","","6","","24.1","","100.05","","","","-9","","Cloudy"
"2003-03-01 03:00","2003","03","01","03:00","-6.8","","-10.7","","74","","2","","4","","24.1","","100.01","","","","-9","","Mostly Cloudy"
"2003-03-01 04:00","2003","03","01","04:00","-8.1","","-12.1","","73","","30","","6","","24.1","","99.97","","","","-11","","Mainly Clear"
"2003-03-01 05:00","2003","03","01","05:00","-8.5","","-11.6","","78","","","","0","","24.1","","99.96","","","","","","Mainly Clear"
"2003-03-01 06:00","2003","03","01","06:00","-9.7","","-12.8","","78","","31","","4","","19.3","","99.97","","","","-12","","Clear"
"2003-03-01 07:00","2003","03","01","07:00","-8.8","","-11.8","","79","","32","","6","","16.1","","100.00","","","","-12","","Clear"
"2003-03-01 08:00","2003","03","01","08:00","-8.8","","-11.5","","81","","","","0","","12.9","","100.01","","","","","","Clear"
"2003-03-01 09:00","2003","03","01","09:00","-4.9","","-9.2","","72","","","","0","","8.0","","100.02","","","","","","Haze"
"2003-03-01 10:00","2003","03","01","10:00","-3.6","","-8.4","","69","","","","0","","6.4","","99.99","","","","","","Haze"
"2003-03-01 11:00","2003","03","01","11:00","-0.7","","-6.6","","64","","13","","4","","6.4","","99.92","","","","-2","","Haze"
"2003-03-01 12:00","2003","03","01","12:00","-0.5","","-4.5","","74","","15","","11","","8.0","","99.88","","","","-4","","Haze"
"2003-03-01 13:00","2003","03","01","13:00","0.2","","-4.5","","71","","16","","13","","9.7","","99.77","","","","","","Haze"
"2003-03-01 14:00","2003","03","01","14:00","0.6","","-4.9","","67","","14","","11","","11.3","","99.69","","","","","","Mostly Cloudy"
"2003-03-01 15:00","2003","03","01","15:00","0.9","","-4.8","","66","","14","","9","","11.3","","99.60","","","","","","Mostly Cloudy"
"2003-03-01 16:00","2003","03","01","16:00","0.3","","-4.4","","71","","15","","11","","12.9","","99.54","","","","","","Mostly Cloudy"
"2003-03-01 17:00","2003","03","01","17:00","0.0","","-4.2","","73","","15","","9","","9.7","","99.49","","","","-3","","Haze"
"2003-03-01 18:00","2003","03","01","18:00","-0.4","","-3.9","","77","","13","","13","","11.3","","99.43","","","","-5","","Mostly Cloudy"
"2003-03-01 19:00","2003","03","01","19:00","-0.2","","-2.5","","84","","13","","7","","12.9","","99.41","","","","-3","","Cloudy"
"2003-03-01 20:00","2003","03","01","20:00","-0.2","","-2.2","","86","","14","","11","","12.9","","99.34","","","","-4","","Cloudy"
"2003-03-01 21:00","2003","03","01","21:00","-0.1","","-1.7","","89","","14","","9","","12.9","","99.26","","","","-3","","Snow"
"2003-03-01 22:00","2003","03","01","22:00","0.0","","-1.4","","90","","14","","6","","11.3","","99.18","","","","-2","","Snow"
"2003-03-01 23:00","2003","03","01","23:00","0.1","","-1.1","","92","","15","","6","","8.0","","99.09","","","","","","Snow"
"2003-03-02 00:00","2003","03","02","00:00","0.1","","-1.2","","91","","14","","4","","6.4","","99.01","","","","","","Snow,Fog"
"2003-03-02 01:00","2003","03","02","01:00","-0.2","","-1.2","","93","","14","","6","","2.0","","98.90","","","","-2","","Snow"
"2003-03-02 02:00","2003","03","02","02:00","-0.2","","-0.9","","95","","14","","6","","2.0","","98.76","","","","-2","","Snow"
"2003-03-02 03:00","2003","03","02","03:00","-0.4","","-1.0","","96","","14","","6","","1.2","","98.61","","","","-2","","Snow,Fog"
"2003-03-02 04:00","2003","03","02","04:00","-0.6","","-0.9","","98","","15","","4","","1.2","","98.48","","","","-2","","Snow,Fog"
"2003-03-02 05:00","2003","03","02","05:00","-0.6","","-0.8","","99","","","","0","","1.6","","98.40","","","","","","Snow,Fog"
"2003-03-02 06:00","2003","03","02","06:00","-0.5","","-0.8","","98","","","","0","","1.6","","98.33","","","","","","Snow,Fog"
"2003-03-02 07:00","2003","03","02","07:00","-0.7","","-1.1","","97","","25","","4","","2.0","","98.27","","","","-2","","Snow,Fog"
"2003-03-02 08:00","2003","03","02","08:00","-0.5","","-1.1","","96","","25","","7","","3.2","","98.29","","","","-3","","Fog"
"2003-03-02 09:00","2003","03","02","09:00","0.3","","-1.0","","91","","27","","13","","4.8","","98.27","","","","","","Fog"
"2003-03-02 10:00","2003","03","02","10:00","0.7","","-2.2","","81","","28","","19","","6.4","","98.26","","","","","","Haze"
"2003-03-02 11:00","2003","03","02","11:00","1.0","","-3.0","","75","","27","","28","","9.7","","98.25","","","","","","Haze"
"2003-03-02 12:00","2003","03","02","12:00","1.0","","-2.6","","77","","27","","24","","9.7","","98.25","","","","","","Haze"
"2003-03-02 13:00","2003","03","02","13:00","1.2","","-2.9","","74","","28","","26","","9.7","","98.20","","","","","","Haze"
"2003-03-02 14:00","2003","03","02","14:00","-0.1","","-4.3","","73","","29","","26","","14.5","","98.18","","","","-6","","Cloudy"
"2003-03-02 15:00","2003","03","02","15:00","-3.8","","-8.8","","68","","31","","39","","24.1","","98.31","","","","-12","","Cloudy"
"2003-03-02 16:00","2003","03","02","16:00","-6.3","","-11.5","","67","","30","","41","","24.1","","98.44","","","","-16","","Mostly Cloudy"
"2003-03-02 17:00","2003","03","02","17:00","-9.9","","-14.6","","68","","34","","44","","24.1","","98.60","","","","-21","","Mainly Clear"
"2003-03-02 18:00","2003","03","02","18:00","-13.1","","-18.0","","67","","34","","43","","24.1","","98.79","","","","-25","","Mainly Clear"
"2003-03-02 19:00","2003","03","02","19:00","-15.6","","-20.0","","69","","34","","35","","24.1","","99.01","","","","-28","","Clear"
"2003-03-02 20:00","2003","03","02","20:00","-16.0","","-21.3","","64","","33","","39","","24.1","","99.12","","","","-29","","Clear"
"2003-03-02 21:00","2003","03","02","21:00","-16.3","","-20.9","","68","","32","","37","","24.1","","99.27","","","","-29","","Clear"
"2003-03-02 22:00","2003","03","02","22:00","-16.7","","-20.3","","74","","33","","28","","14.5","","99.39","","","","-28","","Snow Showers"
"2003-03-02 23:00","2003","03","02","23:00","-17.4","","-21.3","","72","","33","","30","","24.1","","99.48","","","","-29","","Mainly Clear"
"2003-03-03 00:00","2003","03","03","00:00","-18.7","","-24.0","","63","","34","","24","","24.1","","99.59","","","","-30","","Mainly Clear"
"2003-03-03 01:00","2003","03","03","01:00","-19.6","","-25.4","","60","","34","","28","","24.1","","99.69","","","","-32","","Clear"
"2003-03-03 02:00","2003","03","03","02:00","-20.6","","-25.9","","62","","34","","24","","24.1","","99.81","","","","-32","","Clear"
"2003-03-03 03:00","2003","03","03","03:00","-21.3","","-26.1","","65","","34","","20","","24.1","","99.86","","","","-32","","Clear"
"2003-03-03 04:00","2003","03","03","04:00","-22.1","","-27.6","","61","","34","","22","","24.1","","99.93","","","","-34","","Clear"
"2003-03-03 05:00","2003","03","03","05:00","-23.1","","-30.9","","49","","35","","28","","24.1","","100.03","","","","-36","","Clear"
"2003-03-03 06:00","2003","03","03","06:00","-24.0","","-31.5","","50","","36","","22","","24.1","","100.11","","","","-36","","Clear"
"2003-03-03 07:00","2003","03","03","07:00","-24.6","","-32.0","","50","","36","","19","","24.1","","100.18","","","","-36","","Clear"
"2003-03-03 08:00","2003","03","03","08:00","-24.5","","-31.6","","52","","33","","13","","24.1","","100.30","","","","-34","","Clear"
"2003-03-03 09:00","2003","03","03","09:00","-23.7","","-31.1","","51","","32","","20","","24.1","","100.36","","","","-35","","Clear"
"2003-03-03 10:00","2003","03","03","10:00","-23.0","","-30.7","","49","","31","","9","","24.1","","100.36","","","","-30","","Clear"
"2003-03-03 11:00","2003","03","03","11:00","-21.5","","-29.7","","48","","31","","7","","24.1","","100.33","","","","-27","","Mainly Clear"
"2003-03-03 12:00","2003","03","03","12:00","-19.9","","-28.8","","45","","31","","4","","24.1","","100.30","","","","-23","","Mainly Clear"
"2003-03-03 13:00","2003","03","03","13:00","-18.0","","-28.0","","41","","27","","6","","24.1","","100.21","","","","-23","","Mainly Clear"
"2003-03-03 14:00","2003","03","03","14:00","-16.4","","-28.0","","36","","26","","6","","24.1","","100.12","","","","-21","","Clear"
"2003-03-03 15:00","2003","03","03","15:00","-14.9","","-26.5","","37","","23","","6","","24.1","","100.09","","","","-19","","Clear"
"2003-03-03 16:00","2003","03","03","16:00","-14.3","","-26.2","","36","","25","","9","","24.1","","100.02","","","","-20","","Mainly Clear"
"2003-03-03 17:00","2003","03","03","17:00","-14.2","","-24.0","","43","","17","","9","","24.1","","99.99","","","","-20","","Clear"
"2003-03-03 18:00","2003","03","03","18:00","-14.3","","-24.9","","40","","21","","11","","24.1","","99.98","","","","-21","","Mainly Clear"
"2003-03-03 19:00","2003","03","03","19:00","-14.8","","-25.1","","41","","21","","15","","24.1","","99.97","","","","-23","","Mainly Clear"
"2003-03-03 20:00","2003","03","03","20:00","-14.9","","-24.8","","43","","22","","13","","24.1","","99.91","","","","-22","","Mostly Cloudy"
"2003-03-03 21:00","2003","03","03","21:00","-14.8","","-24.3","","44","","22","","7","","24.1","","99.82","","","","-20","","Mostly Cloudy"
"2003-03-03 22:00","2003","03","03","22:00","-14.6","","-23.6","","46","","18","","4","","24.1","","99.70","","","","-17","","Mostly Cloudy"
"2003-03-03 23:00","2003","03","03","23:00","-14.1","","-22.5","","49","","","","0","","24.1","","99.67","","","","","","Mostly Cloudy"
"2003-03-04 00:00","2003","03","04","00:00","-13.5","","-20.5","","56","","17","","6","","24.1","","99.61","","","","-18","","Cloudy"
"2003-03-04 01:00","2003","03","04","01:00","-12.8","","-18.1","","64","","19","","7","","16.1","","99.59","","","","-17","","Snow"
"2003-03-04 02:00","2003","03","04","02:00","-12.2","","-16.0","","73","","14","","9","","12.9","","99.51","","","","-17","","Snow"
"2003-03-04 03:00","2003","03","04","03:00","-11.2","","-13.7","","82","","16","","7","","11.3","","99.40","","","","-15","","Snow"
"2003-03-04 04:00","2003","03","04","04:00","-10.9","","-12.8","","86","","18","","9","","4.8","","99.32","","","","-16","","Snow"
"2003-03-04 05:00","2003","03","04","05:00","-10.6","","-12.2","","88","","19","","6","","4.8","","99.27","","","","-14","","Snow"
"2003-03-04 06:00","2003","03","04","06:00","-10.0","","-11.6","","88","","21","","7","","16.1","","99.22","","","","-14","","Snow"
"2003-03-04 07:00","2003","03","04","07:00","-9.2","","-10.9","","87","","20","","4","","9.7","","99.16","","","","-11","","Snow"
"2003-03-04 08:00","2003","03","04","08:00","-8.5","","-10.5","","85","","22","","9","","9.7","","99.15","","","","-13","","Snow"
"2003-03-04 09:00","2003","03","04","09:00","-6.8","","-8.9","","85","","19","","7","","9.7","","99.15","","","","-10","","Haze"
"2003-03-04 10:00","2003","03","04","10:00","-4.2","","-7.1","","80","","19","","7","","14.5","","99.13","","","","-7","","Cloudy"
"2003-03-04 11:00","2003","03","04","11:00","-2.1","","-6.0","","75","","18","","11","","16.1","","99.10","","","","-6","","Cloudy"
"2003-03-04 12:00","2003","03","04","12:00","-0.1","","-4.8","","71","","22","","13","","19.3","","99.02","","","","-4","","Cloudy"
"2003-03-04 13:00","2003","03","04","13:00","0.6","","-4.1","","71","","25","","26","","19.3","","99.07","","","","","","Cloudy"
"2003-03-04 14:00","2003","03","04","14:00","1.1","","-4.0","","69","","26","","20","","19.3","","98.98","","","","","","Cloudy"
"2003-03-04 15:00","2003","03","04","15:00","1.7","","-3.2","","70","","24","","13","","19.3","","98.96","","","","","","Cloudy"
"2003-03-04 16:00","2003","03","04","16:00","2.6","","-3.4","","65","","17","","7","","19.3","","98.96","","","","","","Cloudy"
"2003-03-04 17:00","2003","03","04","17:00","2.4","","-3.1","","67","","17","","6","","19.3","","98.91","","","","","","Cloudy"
"2003-03-04 18:00","2003","03","04","18:00","1.9","","-2.0","","75","","23","","9","","4.8","","98.96","","","","","","Snow"
"2003-03-04 19:00","2003","03","04","19:00","0.9","","-0.7","","89","","25","","11","","6.4","","98.99","","","","","","Snow"
"2003-03-04 20:00","2003","03","04","20:00","0.8","","-0.4","","92","","23","","9","","8.0","","98.98","","","","","","Snow"
"2003-03-04 21:00","2003","03","04","21:00","0.5","","-0.4","","94","","30","","7","","3.2","","98.92","","","","","","Snow,Ice Pellets"
"2003-03-04 22:00","2003","03","04","22:00","0.3","","-0.2","","96","","34","","33","","2.4","","98.98","","","","","","Snow"
"2003-03-04 23:00","2003","03","04","23:00","-4.1","","-5.4","","91","","36","","17","","2.4","","98.99","","","","-10","","Snow"
"2003-03-05 00:00","2003","03","05","00:00","-4.4","","-5.6","","91","","36","","19","","2.4","","98.92","","","","-11","","Snow"
"2003-03-05 01:00","2003","03","05","01:00","-5.0","","-6.3","","91","","1","","20","","2.0","","98.88","","","","-12","","Snow"
"2003-03-05 02:00","2003","03","05","02:00","-5.5","","-6.8","","91","","2","","24","","2.4","","98.77","","","","-13","","Snow"
"2003-03-05 03:00","2003","03","05","03:00","-5.6","","-6.8","","91","","1","","19","","2.0","","98.71","","","","-12","","Snow"
"2003-03-05 04:00","2003","03","05","04:00","-5.4","","-6.7","","91","","1","","22","","2.4","","98.59","","","","-12","","Snow"
"2003-03-05 05:00","2003","03","05","05:00","-5.3","","-6.6","","91","","1","","17","","1.6","","98.54","","","","-11","","Snow"
"2003-03-05 06:00","2003","03","05","06:00","-5.3","","-6.6","","91","","1","","22","","4.0","","98.43","","","","-12","","Snow"
"2003-03-05 07:00","2003","03","05","07:00","-5.7","","-7.0","","91","","36","","22","","2.4","","98.34","","","","-13","","Snow,Fog"
"2003-03-05 08:00","2003","03","05","08:00","-5.6","","-7.1","","89","","36","","20","","2.0","","98.33","","","","-12","","Snow"
"2003-03-05 09:00","2003","03","05","09:00","-6.2","","-7.7","","89","","35","","24","","1.0","","98.33","","","","-14","","Snow"
"2003-03-05 10:00","2003","03","05","10:00","-6.0","","-7.4","","90","","36","","32","","1.2","","98.34","","","","-15","","Snow"
"2003-03-05 11:00","2003","03","05","11:00","-5.5","","-7.2","","88","","35","","37","","2.4","","98.38","","","","-14","","Snow"
"2003-03-05 12:00","2003","03","05","12:00","-5.0","","-7.2","","85","","35","","33","","2.8","","98.45","","","","-13","","Snow"
"2003-03-05 13:00","2003","03","05","13:00","-5.1","","-7.5","","83","","35","","35","","2.8","","98.52","","","","-14","","Snow"
"2003-03-05 14:00","2003","03","05","14:00","-3.6","","-7.3","","75","","34","","30","","19.3","","98.59","","","","-11","","Mostly Cloudy"
"2003-03-05 15:00","2003","03","05","15:00","-3.9","","-7.9","","74","","36","","35","","24.1","","98.70","","","","-12","","Mostly Cloudy"
"2003-03-05 16:00","2003","03","05","16:00","-4.0","","-8.5","","71","","34","","24","","24.1","","98.85","","","","-11","","Mostly Cloudy"
"2003-03-05 17:00","2003","03","05","17:00","-5.0","","-10.0","","68","","34","","28","","24.1","","98.99","","","","-13","","Mostly Cloudy"
"2003-03-05 18:00","2003","03","05","18:00","-6.2","","-11.4","","67","","35","","24","","24.1","","99.14","","","","-14","","Mostly Cloudy"
"2003-03-05 19:00","2003","03","05","19:00","-8.0","","-12.5","","70","","36","","24","","24.1","","99.21","","","","-16","","Mainly Clear"
"2003-03-05 20:00","2003","03","05","20:00","-8.5","","-13.0","","70","","34","","17","","24.1","","99.33","","","","-15","","Mainly Clear"
"2003-03-05 21:00","2003","03","05","21:00","-9.6","","-13.3","","74","","32","","19","","24.1","","99.37","","","","-17","","Mostly Cloudy"
"2003-03-05 22:00","2003","03","05","22:00","-9.0","","-12.7","","74","","32","","22","","24.1","","99.41","","","","-17","","Mostly Cloudy"
"2003-03-05 23:00","2003","03","05","23:00","-9.5","","-13.4","","73","","32","","17","","24.1","","99.41","","","","-17","","Mostly Cloudy"
"2003-03-06 00:00","2003","03","06","00:00","-9.5","","-14.0","","70","","35","","15","","24.1","","99.41","","","","-16","","Mostly Cloudy"
"2003-03-06 01:00","2003","03","06","01:00","-10.0","","-14.4","","70","","35","","13","","24.1","","99.43","","","","-16","","Mostly Cloudy"
"2003-03-06 02:00","2003","03","06","02:00","-10.0","","-14.6","","69","","34","","17","","24.1","","99.45","","","","-17","","Mostly Cloudy"
"2003-03-06 03:00","2003","03","06","03:00","-10.2","","-14.8","","69","","35","","24","","24.1","","99.38","","","","-19","","Cloudy"
"2003-03-06 04:00","2003","03","06","04:00","-10.7","","-15.0","","71","","36","","26","","24.1","","99.33","","","","-20","","Cloudy"
"2003-03-06 05:00","2003","03","06","05:00","-11.1","","-15.2","","72","","1","","20","","24.1","","99.36","","","","-19","","Cloudy"
"2003-03-06 06:00","2003","03","06","06:00","-10.7","","-15.3","","69","","1","","19","","24.1","","99.41","","","","-19","","Cloudy"
"2003-03-06 07:00","2003","03","06","07:00","-10.6","","-14.9","","71","","2","","20","","19.3","","99.42","","","","-19","","Cloudy"
"2003-03-06 08:00","2003","03","06","08:00","-10.3","","-14.3","","72","","36","","17","","24.1","","99.49","","","","-18","","Cloudy"
"2003-03-06 09:00","2003","03","06","09:00","-9.8","","-13.9","","72","","1","","15","","24.1","","99.53","","","","-16","","Cloudy"
"2003-03-06 10:00","2003","03","06","10:00","-9.0","","-13.3","","71","","36","","13","","24.1","","99.55","","","","-15","","Cloudy"
"2003-03-06 11:00","2003","03","06","11:00","-7.9","","-13.4","","65","","3","","11","","24.1","","99.58","","","","-13","","Cloudy"
"2003-03-06 12:00","2003","03","06","12:00","-6.7","","-14.3","","55","","4","","13","","24.1","","99.59","","","","-12","","Cloudy"
"2003-03-06 13:00","2003","03","06","13:00","-6.5","","-14.1","","55","","2","","9","","24.1","","99.64","","","","-11","","Mostly Cloudy"
"2003-03-06 14:00","2003","03","06","14:00","-5.8","","-14.9","","49","","4","","4","","24.1","","99.68","","","","-8","","Mostly Cloudy"
"2003-03-06 15:00","2003","03","06","15:00","-5.7","","-13.8","","53","","36","","15","","24.1","","99.71","","","","-11","","Mostly Cloudy"
"2003-03-06 16:00","2003","03","06","16:00","-5.8","","-14.2","","51","","36","","9","","24.1","","99.80","","","","-10","","Mainly Clear"
"2003-03-06 17:00","2003","03","06","17:00","-6.0","","-13.9","","54","","30","","13","","24.1","","99.89","","","","-11","","Mainly Clear"
"2003-03-06 18:00","2003","03","06","18:00","-6.7","","-15.1","","51","","35","","7","","24.1","","99.97","","","","-10","","Clear"
"2003-03-06 19:00","2003","03","06","19:00","-7.6","","-15.0","","55","","1","","7","","24.1","","100.06","","","","-11","","Clear"
"2003-03-06 20:00","2003","03","06","20:00","-7.7","","-14.9","","56","","29","","4","","24.1","","100.09","","","","-10","","Clear"
"2003-03-06 21:00","2003","03","06","21:00","-9.6","","-15.3","","63","","27","","4","","24.1","","100.12","","","","-12","","Clear"
"2003-03-06 22:00","2003","03","06","22:00","-10.6","","-15.6","","67","","31","","6","","24.1","","100.17","","","","-14","","Mainly Clear"
"2003-03-06 23:00","2003","03","06","23:00","-10.4","","-14.6","","71","","31","","7","","24.1","","100.22","","","","-14","","Mainly Clear"
"2003-03-07 00:00","2003","03","07","00:00","-11.1","","-15.1","","72","","31","","6","","24.1","","100.22","","","","-15","","Mainly Clear"
"2003-03-07 01:00","2003","03","07","01:00","-13.5","","-16.9","","76","","","","0","","24.1","","100.19","","","","","","Clear"
"2003-03-07 02:00","2003","03","07","02:00","-15.4","","-17.4","","85","","","","0","","24.1","","100.21","","","","","","Clear"
"2003-03-07 03:00","2003","03","07","03:00","-15.3","","-17.9","","80","","31","","7","","24.1","","100.17","","","","-20","","Clear"
"2003-03-07 04:00","2003","03","07","04:00","-15.2","","-17.6","","82","","","","0","","24.1","","100.12","","","","","","Clear"
"2003-03-07 05:00","2003","03","07","05:00","-15.6","","-18.1","","81","","6","","4","","24.1","","100.15","","","","-19","","Clear"
"2003-03-07 06:00","2003","03","07","06:00","-16.9","","-19.6","","80","","31","","6","","19.3","","100.15","","","","-21","","Clear"
"2003-03-07 07:00","2003","03","07","07:00","-14.1","","-16.3","","83","","30","","4","","8.0","","100.13","","","","-17","","Haze"
"2003-03-07 08:00","2003","03","07","08:00","-14.4","","-15.4","","92","","","","0","","6.4","","100.09","","","","","","Fog"
"2003-03-07 09:00","2003","03","07","09:00","-10.0","","-13.4","","76","","28","","4","","6.4","","100.09","","","","-12","","Haze"
"2003-03-07 10:00","2003","03","07","10:00","-5.7","","-9.5","","75","","20","","11","","9.7","","100.03","","","","-10","","Haze"
"2003-03-07 11:00","2003","03","07","11:00","-4.3","","-9.5","","67","","18","","15","","14.5","","99.93","","","","-10","","Mainly Clear"
"2003-03-07 12:00","2003","03","07","12:00","-3.4","","-9.1","","65","","16","","11","","16.1","","99.83","","","","-8","","Mostly Cloudy"
"2003-03-07 13:00","2003","03","07","13:00","-2.5","","-8.4","","64","","23","","17","","19.3","","99.70","","","","-8","","Mostly Cloudy"
"2003-03-07 14:00","2003","03","07","14:00","-1.2","","-8.0","","60","","21","","22","","19.3","","99.60","","","","-7","","Cloudy"
"2003-03-07 15:00","2003","03","07","15:00","-0.3","","-7.7","","57","","20","","13","","16.1","","99.50","","","","-4","","Cloudy"
"2003-03-07 16:00","2003","03","07","16:00","-1.0","","-6.5","","66","","15","","15","","16.1","","99.48","","","","-6","","Cloudy"
"2003-03-07 17:00","2003","03","07","17:00","-0.8","","-6.0","","68","","16","","17","","19.3","","99.35","","","","-6","","Cloudy"
"2003-03-07 18:00","2003","03","07","18:00","-0.1","","-6.2","","63","","19","","13","","16.1","","99.41","","","","-4","","Mostly Cloudy"
"2003-03-07 19:00","2003","03","07","19:00","-1.7","","-4.9","","79","","25","","28","","4.0","","99.48","","","","-8","","Snow Showers"
"2003-03-07 20:00","2003","03","07","20:00","-1.9","","-3.8","","87","","26","","20","","19.3","","99.47","","","","-8","","Snow Showers"
"2003-03-07 21:00","2003","03","07","21:00","-1.4","","-4.4","","80","","27","","19","","24.1","","99.51","","","","-7","","Cloudy"
"2003-03-07 22:00","2003","03","07","22:00","-1.3","","-4.9","","76","","27","","24","","24.1","","99.53","","","","-7","","Cloudy"
"2003-03-07 23:00","2003","03","07","23:00","-1.4","","-4.8","","78","","27","","26","","24.1","","99.62","","","","-8","","Cloudy"
"2003-03-08 00:00","2003","03","08","00:00","-1.5","","-4.7","","79","","26","","20","","24.1","","99.64","","","","-7","","Cloudy"
"2003-03-08 01:00","2003","03","08","01:00","-1.3","","-4.6","","78","","27","","19","","24.1","","99.70","","","","-7","","Cloudy"
"2003-03-08 02:00","2003","03","08","02:00","-1.3","","-4.6","","78","","27","","13","","19.3","","99.75","","","","-6","","Cloudy"
"2003-03-08 03:00","2003","03","08","03:00","-1.7","","-4.8","","79","","25","","11","","19.3","","99.74","","","","-6","","Cloudy"
"2003-03-08 04:00","2003","03","08","04:00","-1.3","","-4.9","","76","","26","","17","","24.1","","99.77","","","","-6","","Cloudy"
"2003-03-08 05:00","2003","03","08","05:00","-1.1","","-4.7","","76","","26","","13","","24.1","","99.82","","","","-5","","Cloudy"
"2003-03-08 06:00","2003","03","08","06:00","-1.2","","-4.7","","77","","","","0","","19.3","","99.74","","","","","","Cloudy"
"2003-03-08 07:00","2003","03","08","07:00","-0.8","","-4.4","","77","","19","","7","","11.3","","99.72","","","","-3","","Cloudy"
"2003-03-08 08:00","2003","03","08","08:00","-0.8","","-4.3","","77","","19","","13","","8.0","","99.71","","","","-5","","Haze"
"2003-03-08 09:00","2003","03","08","09:00","-0.3","","-3.9","","77","","20","","7","","8.0","","99.72","","","","-3","","Haze"
"2003-03-08 10:00","2003","03","08","10:00","0.3","","-3.8","","74","","20","","11","","9.7","","99.64","","","","","","Haze"
"2003-03-08 11:00","2003","03","08","11:00","1.1","","-3.4","","72","","20","","9","","9.7","","99.49","","","","","","Haze"
"2003-03-08 12:00","2003","03","08","12:00","1.3","","-2.5","","76","","18","","15","","12.9","","99.33","","","","","","Cloudy"
"2003-03-08 13:00","2003","03","08","13:00","2.0","","-2.6","","72","","21","","26","","12.9","","99.19","","","","","","Cloudy"
"2003-03-08 14:00","2003","03","08","14:00","2.3","","-2.6","","70","","19","","17","","11.3","","98.96","","","","","","Cloudy"
"2003-03-08 15:00","2003","03","08","15:00","2.6","","-2.5","","69","","22","","17","","12.9","","98.81","","","","","","Cloudy"
"2003-03-08 16:00","2003","03","08","16:00","2.7","","-2.3","","70","","20","","13","","11.3","","98.67","","","","","","Snow"
"2003-03-08 17:00","2003","03","08","17:00","2.8","","-1.9","","71","","19","","6","","11.3","","98.44","","","","","","Cloudy"
"2003-03-08 18:00","2003","03","08","18:00","2.4","","-1.8","","74","","13","","6","","9.7","","98.22","","","","","","Haze"
"2003-03-08 19:00","2003","03","08","19:00","1.5","","-1.5","","80","","16","","15","","9.7","","98.18","","","","","","Rain,Haze"
"2003-03-08 20:00","2003","03","08","20:00","0.3","","-0.5","","94","","18","","4","","1.6","","98.09","","","","","","Rain,Snow"
"2003-03-08 21:00","2003","03","08","21:00","0.3","","-0.3","","96","","32","","13","","2.0","","98.07","","","","","","Rain,Snow"
"2003-03-08 22:00","2003","03","08","22:00","-2.6","","-4.1","","89","","34","","33","","16.1","","98.11","","","","-10","","Snow"
"2003-03-08 23:00","2003","03","08","23:00","-4.2","","-7.2","","80","","33","","44","","19.3","","98.26","","","","-13","","Mainly Clear"
"2003-03-09 00:00","2003","03","09","00:00","-5.2","","-8.8","","76","","33","","33","","24.1","","98.34","","","","-14","","Mostly Cloudy"
"2003-03-09 01:00","2003","03","09","01:00","-5.2","","-9.1","","74","","32","","39","","24.1","","98.53","","","","-14","","Mostly Cloudy"
"2003-03-09 02:00","2003","03","09","02:00","-6.1","","-10.4","","72","","32","","28","","24.1","","98.75","","","","-14","","Mostly Cloudy"
"2003-03-09 03:00","2003","03","09","03:00","-7.1","","-10.8","","75","","34","","30","","14.5","","98.83","","","","-16","","Snow"
"2003-03-09 04:00","2003","03","09","04:00","-9.1","","-13.2","","72","","33","","30","","12.9","","98.94","","","","-18","","Snow"
"2003-03-09 05:00","2003","03","09","05:00","-9.9","","-14.5","","69","","32","","35","","24.1","","99.14","","","","-20","","Cloudy"
"2003-03-09 06:00","2003","03","09","06:00","-11.0","","-15.2","","71","","31","","24","","24.1","","99.22","","","","-20","","Snow"
"2003-03-09 07:00","2003","03","09","07:00","-12.5","","-17.0","","69","","30","","28","","24.1","","99.34","","","","-22","","Mainly Clear"
"2003-03-09 08:00","2003","03","09","08:00","-13.2","","-17.3","","71","","31","","28","","24.1","","99.42","","","","-23","","Mostly Cloudy"
"2003-03-09 09:00","2003","03","09","09:00","-13.2","","-18.0","","67","","31","","28","","24.1","","99.54","","","","-23","","Mostly Cloudy"
"2003-03-09 10:00","2003","03","09","10:00","-13.1","","-18.1","","66","","29","","28","","24.1","","99.61","","","","-23","","Mostly Cloudy"
"2003-03-09 11:00","2003","03","09","11:00","-12.1","","-18.1","","61","","27","","28","","24.1","","99.63","","","","-22","","Mostly Cloudy"
"2003-03-09 12:00","2003","03","09","12:00","-11.6","","-17.5","","62","","27","","35","","24.1","","99.64","","","","-22","","Mostly Cloudy"
"2003-03-09 13:00","2003","03","09","13:00","-11.7","","-18.2","","58","","26","","28","","24.1","","99.61","","","","-21","","Mostly Cloudy"
"2003-03-09 14:00","2003","03","09","14:00","-11.3","","-18.1","","57","","27","","37","","24.1","","99.55","","","","-22","","Mostly Cloudy"
"2003-03-09 15:00","2003","03","09","15:00","-11.1","","-18.6","","54","","27","","32","","24.1","","99.51","","","","-21","","Clear"
"2003-03-09 16:00","2003","03","09","16:00","-11.4","","-19.2","","52","","27","","41","","24.1","","99.54","","","","-23","","Clear"
"2003-03-09 17:00","2003","03","09","17:00","-11.8","","-18.8","","56","","26","","30","","24.1","","99.52","","","","-22","","Clear"
"2003-03-09 18:00","2003","03","09","18:00","-12.3","","-18.9","","58","","27","","26","","24.1","","99.55","","","","-22","","Clear"
"2003-03-09 19:00","2003","03","09","19:00","-13.2","","-18.7","","63","","27","","19","","24.1","","99.56","","","","-22","","Clear"
"2003-03-09 20:00","2003","03","09","20:00","-13.0","","-18.8","","62","","24","","17","","24.1","","99.50","","","","-21","","Clear"
"2003-03-09 21:00","2003","03","09","21:00","-12.5","","-18.4","","61","","22","","17","","24.1","","99.45","","","","-20","","Mainly Clear"
"2003-03-09 22:00","2003","03","09","22:00","-12.8","","-17.6","","67","","23","","17","","24.1","","99.45","","","","-21","","Mainly Clear"
"2003-03-09 23:00","2003","03","09","23:00","-13.5","","-17.6","","71","","26","","19","","24.1","","99.43","","","","-22","","Clear"
"2003-03-10 00:00","2003","03","10","00:00","-13.8","","-18.8","","66","","27","","20","","24.1","","99.39","","","","-23","","Mainly Clear"
"2003-03-10 01:00","2003","03","10","01:00","-13.0","","-18.3","","64","","27","","28","","24.1","","99.36","","","","-23","","Mostly Cloudy"
"2003-03-10 02:00","2003","03","10","02:00","-12.5","","-17.7","","65","","27","","28","","24.1","","99.39","","","","-22","","Mostly Cloudy"
"2003-03-10 03:00","2003","03","10","03:00","-12.6","","-17.0","","70","","28","","28","","24.1","","99.44","","","","-23","","Mostly Cloudy"
"2003-03-10 04:00","2003","03","10","04:00","-14.5","","-18.3","","73","","35","","19","","9.7","","99.56","","","","-23","","Snow Showers"
"2003-03-10 05:00","2003","03","10","05:00","-16.0","","-19.8","","72","","26","","7","","24.1","","99.66","","","","-21","","Clear"
"2003-03-10 06:00","2003","03","10","06:00","-15.4","","-20.5","","65","","28","","17","","24.1","","99.76","","","","-24","","Clear"
"2003-03-10 07:00","2003","03","10","07:00","-16.5","","-20.8","","69","","27","","19","","24.1","","99.83","","","","-26","","Clear"
"2003-03-10 08:00","2003","03","10","08:00","-16.0","","-20.2","","70","","27","","19","","24.1","","99.93","","","","-25","","Clear"
"2003-03-10 09:00","2003","03","10","09:00","-14.6","","-20.0","","63","","27","","24","","24.1","","100.01","","","","-24","","Clear"
"2003-03-10 10:00","2003","03","10","10:00","-13.1","","-19.1","","61","","27","","26","","24.1","","100.05","","","","-23","","Mainly Clear"
"2003-03-10 11:00","2003","03","10","11:00","-12.1","","-20.0","","52","","28","","30","","24.1","","100.07","","","","-22","","Mainly Clear"
"2003-03-10 12:00","2003","03","10","12:00","-11.9","","-18.9","","56","","27","","30","","24.1","","100.07","","","","-22","","Mostly Cloudy"
"2003-03-10 13:00","2003","03","10","13:00","-11.4","","-18.4","","56","","27","","37","","19.3","","100.06","","","","-22","","Mostly Cloudy"
"2003-03-10 14:00","2003","03","10","14:00","-11.4","","-17.9","","59","","27","","39","","16.1","","100.03","","","","-23","","Mostly Cloudy"
"2003-03-10 15:00","2003","03","10","15:00","-11.2","","-18.4","","55","","27","","35","","19.3","","100.01","","","","-22","","Mainly Clear"
"2003-03-10 16:00","2003","03","10","16:00","-11.7","","-18.6","","57","","27","","41","","24.1","","100.02","","","","-23","","Mainly Clear"
"2003-03-10 17:00","2003","03","10","17:00","-11.6","","-18.7","","56","","28","","39","","24.1","","100.03","","","","-23","","Mainly Clear"
"2003-03-10 18:00","2003","03","10","18:00","-11.8","","-18.2","","59","","26","","32","","24.1","","100.04","","","","-22","","Mainly Clear"
"2003-03-10 19:00","2003","03","10","19:00","-12.5","","-18.1","","63","","24","","15","","24.1","","100.00","","","","-20","","Clear"
"2003-03-10 20:00","2003","03","10","20:00","-12.3","","-18.1","","62","","24","","19","","24.1","","99.99","","","","-21","","Clear"
"2003-03-10 21:00","2003","03","10","21:00","-12.0","","-17.7","","63","","24","","15","","24.1","","99.96","","","","-19","","Clear"
"2003-03-10 22:00","2003","03","10","22:00","-12.3","","-17.7","","64","","23","","17","","24.1","","99.93","","","","-20","","Clear"
"2003-03-10 23:00","2003","03","10","23:00","-12.8","","-17.9","","66","","24","","17","","24.1","","99.90","","","","-21","","Clear"
"2003-03-11 00:00","2003","03","11","00:00","-12.1","","-17.0","","67","","21","","9","","24.1","","99.84","","","","-17","","Clear"
"2003-03-11 01:00","2003","03","11","01:00","-12.2","","-16.5","","70","","20","","6","","24.1","","99.84","","","","-16","","Clear"
"2003-03-11 02:00","2003","03","11","02:00","-12.2","","-16.2","","72","","20","","4","","24.1","","99.81","","","","-15","","Clear"
"2003-03-11 03:00","2003","03","11","03:00","-12.5","","-16.4","","73","","24","","7","","24.1","","99.76","","","","-17","","Clear"
"2003-03-11 04:00","2003","03","11","04:00","-13.2","","-16.7","","75","","24","","4","","24.1","","99.68","","","","-16","","Mainly Clear"
"2003-03-11 05:00","2003","03","11","05:00","-12.5","","-16.6","","71","","25","","17","","24.1","","99.67","","","","-20","","Cloudy"
"2003-03-11 06:00","2003","03","11","06:00","-11.1","","-15.2","","72","","23","","13","","24.1","","99.66","","","","-18","","Cloudy"
"2003-03-11 07:00","2003","03","11","07:00","-10.5","","-14.7","","71","","24","","17","","19.3","","99.64","","","","-18","","Mostly Cloudy"
"2003-03-11 08:00","2003","03","11","08:00","-10.3","","-14.8","","70","","24","","22","","16.1","","99.65","","","","-19","","Cloudy"
"2003-03-11 09:00","2003","03","11","09:00","-9.3","","-14.8","","64","","24","","17","","16.1","","99.63","","","","-16","","Mostly Cloudy"
"2003-03-11 10:00","2003","03","11","10:00","-7.8","","-12.8","","67","","23","","19","","16.1","","99.60","","","","-15","","Cloudy"
"2003-03-11 11:00","2003","03","11","11:00","-5.8","","-11.6","","64","","22","","28","","16.1","","99.52","","","","-14","","Cloudy"
"2003-03-11 12:00","2003","03","11","12:00","-4.8","","-11.4","","60","","24","","33","","19.3","","99.47","","","","-13","","Mostly Cloudy"
"2003-03-11 13:00","2003","03","11","13:00","-3.4","","-10.1","","60","","25","","33","","19.3","","99.42","","","","-11","","Mostly Cloudy"
"2003-03-11 14:00","2003","03","11","14:00","-2.4","","-9.3","","59","","24","","35","","19.3","","99.35","","","","-10","","Mostly Cloudy"
"2003-03-11 15:00","2003","03","11","15:00","-2.1","","-9.6","","56","","24","","26","","19.3","","99.30","","","","-9","","Mostly Cloudy"
"2003-03-11 16:00","2003","03","11","16:00","-1.9","","-9.1","","58","","22","","28","","24.1","","99.27","","","","-9","","Mostly Cloudy"
"2003-03-11 17:00","2003","03","11","17:00","-1.7","","-8.8","","58","","22","","28","","19.3","","99.20","","","","-8","","Mostly Cloudy"
"2003-03-11 18:00","2003","03","11","18:00","-2.0","","-8.1","","63","","22","","19","","19.3","","99.13","","","","-8","","Cloudy"
"2003-03-11 19:00","2003","03","11","19:00","-1.7","","-8.4","","60","","22","","26","","19.3","","99.10","","","","-8","","Cloudy"
"2003-03-11 20:00","2003","03","11","20:00","-1.1","","-7.3","","63","","22","","28","","24.1","","99.04","","","","-8","","Cloudy"
"2003-03-11 21:00","2003","03","11","21:00","-1.0","","-7.0","","64","","20","","20","","24.1","","98.92","","","","-7","","Mainly Clear"
"2003-03-11 22:00","2003","03","11","22:00","-0.1","","-6.0","","64","","21","","20","","24.1","","98.92","","","","-5","","Cloudy"
"2003-03-11 23:00","2003","03","11","23:00","1.7","","-4.7","","62","","24","","43","","24.1","","98.86","","","","","","Cloudy"
"2003-03-12 00:00","2003","03","12","00:00","2.1","","-4.4","","62","","24","","33","","24.1","","98.82","","","","","","Cloudy"
"2003-03-12 01:00","2003","03","12","01:00","2.1","","-4.2","","63","","25","","28","","24.1","","98.81","","","","","","Cloudy"
"2003-03-12 02:00","2003","03","12","02:00","1.8","","-1.7","","78","","26","","32","","11.3","","98.85","","","","","","Snow"
"2003-03-12 03:00","2003","03","12","03:00","1.2","","-0.5","","88","","26","","22","","9.7","","98.90","","","","","","Snow"
"2003-03-12 04:00","2003","03","12","04:00","1.5","","-0.4","","87","","26","","20","","16.1","","98.90","","","","","","Snow"
"2003-03-12 05:00","2003","03","12","05:00","1.5","","-0.4","","87","","24","","13","","16.1","","98.96","","","","","","Cloudy"
"2003-03-12 06:00","2003","03","12","06:00","1.6","","-0.4","","87","","24","","15","","16.1","","99.01","","","","","","Cloudy"
"2003-03-12 07:00","2003","03","12","07:00","1.2","","-0.4","","89","","26","","13","","8.0","","99.06","","","","","","Snow"
"2003-03-12 08:00","2003","03","12","08:00","-2.7","","-5.0","","84","","36","","22","","2.4","","99.20","","","","-9","","Snow"
"2003-03-12 09:00","2003","03","12","09:00","-2.4","","-4.7","","84","","33","","22","","8.0","","99.31","","","","-9","","Snow"
"2003-03-12 10:00","2003","03","12","10:00","-2.8","","-7.5","","70","","33","","22","","4.8","","99.37","","","","-9","","Snow"
"2003-03-12 11:00","2003","03","12","11:00","-2.4","","-7.6","","67","","32","","19","","19.3","","99.37","","","","-8","","Cloudy"
"2003-03-12 12:00","2003","03","12","12:00","-1.7","","-8.2","","61","","31","","13","","24.1","","99.39","","","","-6","","Cloudy"
"2003-03-12 13:00","2003","03","12","13:00","-0.9","","-8.0","","59","","30","","9","","24.1","","99.40","","","","-4","","Cloudy"
"2003-03-12 14:00","2003","03","12","14:00","-0.3","","-8.3","","55","","32","","15","","24.1","","99.42","","","","-5","","Cloudy"
"2003-03-12 15:00","2003","03","12","15:00","-0.7","","-9.2","","53","","31","","20","","19.3","","99.45","","","","-6","","Snow Showers"
"2003-03-12 16:00","2003","03","12","16:00","-1.1","","-8.6","","57","","32","","22","","24.1","","99.53","","","","-7","","Cloudy"
"2003-03-12 17:00","2003","03","12","17:00","-1.9","","-7.1","","68","","30","","22","","16.1","","99.57","","","","-8","","Snow Showers"
"2003-03-12 18:00","2003","03","12","18:00","-1.8","","-8.5","","60","","30","","13","","24.1","","99.67","","","","-6","","Cloudy"
"2003-03-12 19:00","2003","03","12","19:00","-2.8","","-9.4","","60","","36","","17","","24.1","","99.78","","","","-8","","Mostly Cloudy"
"2003-03-12 20:00","2003","03","12","20:00","-4.1","","-10.1","","63","","35","","22","","24.1","","99.87","","","","-11","","Mostly Cloudy"
"2003-03-12 21:00","2003","03","12","21:00","-4.8","","-10.6","","64","","35","","22","","24.1","","99.93","","","","-12","","Mostly Cloudy"
"2003-03-12 22:00","2003","03","12","22:00","-6.2","","-11.2","","68","","36","","15","","24.1","","99.98","","","","-12","","Clear"
"2003-03-12 23:00","2003","03","12","23:00","-6.6","","-11.3","","69","","36","","15","","24.1","","100.03","","","","-13","","Clear"
"2003-03-13 00:00","2003","03","13","00:00","-7.3","","-11.7","","71","","36","","15","","24.1","","100.03","","","","-13","","Mostly Cloudy"
"2003-03-13 01:00","2003","03","13","01:00","-7.3","","-12.0","","69","","34","","13","","24.1","","100.06","","","","-13","","Mostly Cloudy"
"2003-03-13 02:00","2003","03","13","02:00","-7.8","","-12.0","","72","","34","","11","","24.1","","100.10","","","","-13","","Mostly Cloudy"
"2003-03-13 03:00","2003","03","13","03:00","-8.3","","-12.2","","73","","34","","13","","24.1","","100.04","","","","-14","","Mostly Cloudy"
"2003-03-13 04:00","2003","03","13","04:00","-8.4","","-12.1","","75","","36","","15","","24.1","","100.09","","","","-15","","Cloudy"
"2003-03-13 05:00","2003","03","13","05:00","-8.1","","-11.9","","74","","2","","13","","24.1","","100.08","","","","-14","","Cloudy"
"2003-03-13 06:00","2003","03","13","06:00","-6.9","","-12.4","","65","","5","","13","","24.1","","100.10","","","","-12","","Cloudy"
"2003-03-13 07:00","2003","03","13","07:00","-6.4","","-12.1","","64","","5","","13","","24.1","","100.19","","","","-12","","Cloudy"
"2003-03-13 08:00","2003","03","13","08:00","-6.8","","-12.9","","62","","7","","15","","24.1","","100.23","","","","-13","","Cloudy"
"2003-03-13 09:00","2003","03","13","09:00","-6.6","","-12.2","","64","","9","","20","","24.1","","100.20","","","","-14","","Cloudy"
"2003-03-13 10:00","2003","03","13","10:00","-6.2","","-11.7","","65","","7","","13","","24.1","","100.20","","","","-12","","Cloudy"
"2003-03-13 11:00","2003","03","13","11:00","-6.6","","-12.4","","63","","6","","15","","24.1","","100.23","","","","-13","","Mostly Cloudy"
"2003-03-13 12:00","2003","03","13","12:00","-5.2","","-11.5","","61","","5","","11","","24.1","","100.27","","","","-10","","Mainly Clear"
"2003-03-13 13:00","2003","03","13","13:00","-4.7","","-11.4","","59","","5","","4","","24.1","","100.18","","","","-6","","Mainly Clear"
"2003-03-13 14:00","2003","03","13","14:00","-4.3","","-11.8","","56","","36","","13","","24.1","","100.11","","","","-9","","Mainly Clear"
"2003-03-13 15:00","2003","03","13","15:00","-3.5","","-11.7","","53","","2","","15","","24.1","","100.11","","","","-9","","Mostly Cloudy"
"2003-03-13 16:00","2003","03","13","16:00","-3.3","","-11.4","","53","","35","","19","","24.1","","100.17","","","","-9","","Mostly Cloudy"
"2003-03-13 17:00","2003","03","13","17:00","-3.4","","-12.2","","51","","3","","20","","24.1","","100.21","","","","-10","","Mostly Cloudy"
"2003-03-13 18:00","2003","03","13","18:00","-3.9","","-13.1","","49","","2","","19","","24.1","","100.33","","","","-10","","Mostly Cloudy"
"2003-03-13 19:00","2003","03","13","19:00","-4.1","","-13.8","","47","","36","","13","","24.1","","100.44","","","","-9","","Mostly Cloudy"
"2003-03-13 20:00","2003","03","13","20:00","-5.3","","-13.4","","53","","34","","22","","24.1","","100.55","","","","-12","","Mostly Cloudy"
"2003-03-13 21:00","2003","03","13","21:00","-6.5","","-14.0","","55","","35","","24","","24.1","","100.59","","","","-14","","Mostly Cloudy"
"2003-03-13 22:00","2003","03","13","22:00","-7.1","","-14.2","","57","","34","","20","","24.1","","100.59","","","","-14","","Mostly Cloudy"
"2003-03-13 23:00","2003","03","13","23:00","-8.1","","-14.8","","58","","35","","15","","24.1","","100.57","","","","-14","","Mainly Clear"
"2003-03-14 00:00","2003","03","14","00:00","-8.7","","-15.2","","59","","35","","20","","24.1","","100.60","","","","-16","","Clear"
"2003-03-14 01:00","2003","03","14","01:00","-9.4","","-15.4","","62","","35","","20","","24.1","","100.62","","","","-17","","Clear"
"2003-03-14 02:00","2003","03","14","02:00","-10.5","","-15.7","","66","","30","","11","","24.1","","100.66","","","","-16","","Clear"
"2003-03-14 03:00","2003","03","14","03:00","-10.2","","-15.5","","65","","31","","9","","24.1","","100.67","","","","-15","","Mostly Cloudy"
"2003-03-14 04:00","2003","03","14","04:00","-9.4","","-15.5","","61","","34","","11","","24.1","","100.70","","","","-15","","Mostly Cloudy"
"2003-03-14 05:00","2003","03","14","05:00","-9.1","","-14.7","","64","","35","","7","","24.1","","100.74","","","","-13","","Mostly Cloudy"
"2003-03-14 06:00","2003","03","14","06:00","-8.6","","-14.4","","63","","36","","7","","24.1","","100.78","","","","-12","","Mostly Cloudy"
"2003-03-14 07:00","2003","03","14","07:00","-8.3","","-14.1","","63","","","","0","","19.3","","100.77","","","","","","Mostly Cloudy"
"2003-03-14 08:00","2003","03","14","08:00","-7.3","","-13.7","","60","","30","","6","","19.3","","100.87","","","","-10","","Mostly Cloudy"
"2003-03-14 09:00","2003","03","14","09:00","-5.6","","-12.9","","56","","","","0","","19.3","","100.82","","","","","","Mostly Cloudy"
"2003-03-14 10:00","2003","03","14","10:00","-3.9","","-10.6","","60","","17","","6","","19.3","","100.74","","","","-7","","Mostly Cloudy"
"2003-03-14 11:00","2003","03","14","11:00","-3.0","","-9.9","","59","","16","","11","","24.1","","100.71","","","","-7","","Mostly Cloudy"
"2003-03-14 12:00","2003","03","14","12:00","-2.4","","-9.5","","58","","16","","11","","24.1","","100.65","","","","-6","","Mostly Cloudy"
"2003-03-14 13:00","2003","03","14","13:00","-2.4","","-10.2","","55","","15","","11","","24.1","","100.55","","","","-6","","Mostly Cloudy"
"2003-03-14 14:00","2003","03","14","14:00","-1.9","","-11.4","","48","","15","","13","","24.1","","100.41","","","","-6","","Mostly Cloudy"
"2003-03-14 15:00","2003","03","14","15:00","-1.3","","-9.6","","53","","16","","13","","24.1","","100.32","","","","-6","","Mostly Cloudy"
"2003-03-14 16:00","2003","03","14","16:00","-1.2","","-10.3","","50","","16","","13","","24.1","","100.27","","","","-5","","Mostly Cloudy"
"2003-03-14 17:00","2003","03","14","17:00","-1.4","","-9.6","","54","","15","","15","","24.1","","100.20","","","","-6","","Mostly Cloudy"
"2003-03-14 18:00","2003","03","14","18:00","-1.7","","-8.9","","58","","14","","11","","24.1","","100.19","","","","-6","","Mostly Cloudy"
"2003-03-14 19:00","2003","03","14","19:00","-1.9","","-8.4","","61","","14","","11","","24.1","","100.16","","","","-6","","Mostly Cloudy"
"2003-03-14 20:00","2003","03","14","20:00","-1.9","","-7.9","","63","","14","","9","","24.1","","100.13","","","","-5","","Mostly Cloudy"
"2003-03-14 21:00","2003","03","14","21:00","-1.8","","-6.8","","69","","16","","11","","24.1","","100.03","","","","-6","","Mostly Cloudy"
"2003-03-14 22:00","2003","03","14","22:00","-1.4","","-6.6","","68","","14","","11","","24.1","","99.97","","","","-5","","Cloudy"
"2003-03-14 23:00","2003","03","14","23:00","-1.1","","-5.6","","71","","17","","9","","24.1","","99.89","","","","-4","","Mostly Cloudy"
"2003-03-15 00:00","2003","03","15","00:00","-1.0","","-5.2","","73","","17","","6","","24.1","","99.80","","","","-3","","Mostly Cloudy"
"2003-03-15 01:00","2003","03","15","01:00","-0.9","","-5.0","","74","","17","","4","","24.1","","99.74","","","","-2","","Mostly Cloudy"
"2003-03-15 02:00","2003","03","15","02:00","-2.0","","-6.0","","74","","9","","6","","24.1","","99.76","","","","-4","","Clear"
"2003-03-15 03:00","2003","03","15","03:00","-2.4","","-6.0","","76","","","","0","","24.1","","99.69","","","","","","Mainly Clear"
"2003-03-15 04:00","2003","03","15","04:00","-2.5","","-6.6","","73","","","","0","","24.1","","99.75","","","","","","Clear"
"2003-03-15 05:00","2003","03","15","05:00","-5.4","","-7.3","","86","","","","0","","24.1","","99.75","","","","","","Clear"
"2003-03-15 06:00","2003","03","15","06:00","-6.1","","-7.4","","90","","","","0","","24.1","","99.82","","","","","","Clear"
"2003-03-15 07:00","2003","03","15","07:00","-6.9","","-8.5","","88","","","","0","","16.1","","99.85","","","","","","Clear"
"2003-03-15 08:00","2003","03","15","08:00","-3.4","","-5.9","","83","","","","0","","14.5","","99.86","","","","","","Clear"
"2003-03-15 09:00","2003","03","15","09:00","-0.6","","-4.7","","74","","","","0","","12.9","","99.88","","","","","","Clear"
"2003-03-15 10:00","2003","03","15","10:00","2.4","","-5.7","","55","","","","0","","14.5","","99.83","","","","","","Clear"
"2003-03-15 11:00","2003","03","15","11:00","3.7","","-5.5","","51","","10","","4","","14.5","","99.81","","","","","","Clear"
"2003-03-15 12:00","2003","03","15","12:00","4.5","","-4.2","","53","","17","","7","","14.5","","99.79","","","","","","Clear"
"2003-03-15 13:00","2003","03","15","13:00","4.1","","-4.0","","56","","14","","9","","14.5","","99.76","","","","","","Mainly Clear"
"2003-03-15 14:00","2003","03","15","14:00","4.8","","-3.6","","54","","15","","7","","16.1","","99.72","","","","","","Mainly Clear"
"2003-03-15 15:00","2003","03","15","15:00","5.5","","-3.3","","53","","16","","11","","16.1","","99.72","","","","","","Clear"
"2003-03-15 16:00","2003","03","15","16:00","4.4","","-1.4","","66","","17","","11","","16.1","","99.67","","","","","","Clear"
"2003-03-15 17:00","2003","03","15","17:00","2.9","","-2.1","","70","","16","","11","","19.3","","99.67","","","","","","Clear"
"2003-03-15 18:00","2003","03","15","18:00","2.1","","-2.9","","69","","16","","7","","19.3","","99.68","","","","","","Clear"
"2003-03-15 19:00","2003","03","15","19:00","1.2","","-3.0","","74","","18","","6","","19.3","","99.68","","","","","","Clear"
"2003-03-15 20:00","2003","03","15","20:00","0.7","","-3.5","","73","","18","","4","","19.3","","99.67","","","","","","Clear"
"2003-03-15 21:00","2003","03","15","21:00","-0.1","","-4.4","","73","","","","0","","19.3","","99.67","","","","","","Clear"
"2003-03-15 22:00","2003","03","15","22:00","0.1","","-3.2","","78","","19","","4","","19.3","","99.63","","","","","","Clear"
"2003-03-15 23:00","2003","03","15","23:00","-0.6","","-2.8","","85","","25","","4","","19.3","","99.57","","","","-2","","Clear"
"2003-03-16 00:00","2003","03","16","00:00","-1.2","","-3.0","","88","","27","","4","","19.3","","99.50","","","","-3","","Clear"
"2003-03-16 01:00","2003","03","16","01:00","-1.8","","-3.4","","89","","27","","4","","19.3","","99.46","","","","-3","","Clear"
"2003-03-16 02:00","2003","03","16","02:00","-1.9","","-3.3","","90","","","","0","","24.1","","99.43","","","","","","Clear"
"2003-03-16 03:00","2003","03","16","03:00","-1.6","","-3.0","","90","","","","0","","24.1","","99.37","","","","","","Clear"
"2003-03-16 04:00","2003","03","16","04:00","-2.6","","-4.1","","89","","","","0","","24.1","","99.35","","","","","","Clear"
"2003-03-16 05:00","2003","03","16","05:00","-1.5","","-3.1","","89","","","","0","","24.1","","99.38","","","","","","Clear"
"2003-03-16 06:00","2003","03","16","06:00","-1.7","","-3.3","","89","","","","0","","19.3","","99.40","","","","","","Clear"
"2003-03-16 07:00","2003","03","16","07:00","-1.6","","-3.2","","89","","","","0","","19.3","","99.44","","","","","","Clear"
"2003-03-16 08:00","2003","03","16","08:00","-0.2","","-2.1","","87","","","","0","","19.3","","99.47","","","","","","Clear"
"2003-03-16 09:00","2003","03","16","09:00","2.5","","-1.4","","75","","16","","4","","19.3","","99.45","","","","","","Clear"
"2003-03-16 10:00","2003","03","16","10:00","3.7","","-0.5","","74","","16","","7","","24.1","","99.40","","","","","","Mainly Clear"
"2003-03-16 11:00","2003","03","16","11:00","5.3","","0.4","","71","","13","","6","","24.1","","99.36","","","","","","Mainly Clear"
"2003-03-16 12:00","2003","03","16","12:00","7.2","","1.3","","66","","16","","7","","24.1","","99.29","","","","","","Mainly Clear"
"2003-03-16 13:00","2003","03","16","13:00","7.9","","1.8","","65","","12","","9","","24.1","","99.23","","","","","","Mainly Clear"
"2003-03-16 14:00","2003","03","16","14:00","10.2","","3.1","","61","","17","","13","","19.3","","99.10","","","","","","Clear"
"2003-03-16 15:00","2003","03","16","15:00","11.1","","4.1","","62","","16","","13","","16.1","","99.04","","","","","","Clear"
"2003-03-16 16:00","2003","03","16","16:00","11.0","","4.6","","65","","17","","13","","16.1","","98.98","","","","","","Clear"
"2003-03-16 17:00","2003","03","16","17:00","11.1","","4.7","","65","","17","","6","","16.1","","98.97","","","","","","Clear"
"2003-03-16 18:00","2003","03","16","18:00","8.6","","3.1","","68","","14","","9","","16.1","","98.98","","","","","","Mainly Clear"
"2003-03-16 19:00","2003","03","16","19:00","6.6","","2.6","","76","","15","","6","","16.1","","98.99","","","","","","Mainly Clear"
"2003-03-16 20:00","2003","03","16","20:00","5.0","","2.4","","83","","5","","4","","16.1","","98.98","","","","","","Mainly Clear"
"2003-03-16 21:00","2003","03","16","21:00","7.1","","4.0","","81","","20","","6","","16.1","","98.94","","","","","","Mostly Cloudy"
"2003-03-16 22:00","2003","03","16","22:00","5.3","","2.7","","83","","12","","7","","16.1","","98.93","","","","","","Mainly Clear"
"2003-03-16 23:00","2003","03","16","23:00","4.0","","1.8","","86","","13","","4","","16.1","","98.89","","","","","","Mostly Cloudy"
"2003-03-17 00:00","2003","03","17","00:00","3.9","","2.2","","89","","14","","6","","14.5","","98.89","","","","","","Mostly Cloudy"
"2003-03-17 01:00","2003","03","17","01:00","2.4","","0.9","","90","","2","","4","","14.5","","98.88","","","","","","Mainly Clear"
"2003-03-17 02:00","2003","03","17","02:00","1.6","","0.9","","95","","","","0","","12.9","","98.89","","","","","","Clear"
"2003-03-17 03:00","2003","03","17","03:00","1.5","","0.5","","93","","","","0","","9.7","","98.88","","","","","","Fog"
"2003-03-17 04:00","2003","03","17","04:00","1.0","","0.1","","94","","","","0","","8.0","","98.85","","","","","","Fog"
"2003-03-17 05:00","2003","03","17","05:00","1.3","","0.5","","94","","25","","4","","6.4","","98.82","","","","","","Fog"
"2003-03-17 06:00","2003","03","17","06:00","2.4","","1.4","","93","","","","0","","3.2","","98.82","","","","","","Fog"
"2003-03-17 07:00","2003","03","17","07:00","1.4","","0.9","","96","","","","0","","2.4","","98.85","","","","","","Fog"
"2003-03-17 08:00","2003","03","17","08:00","3.8","","3.4","","97","","","","0","","2.4","","98.89","","","","","","Fog"
"2003-03-17 09:00","2003","03","17","09:00","6.3","","5.4","","94","","27","","4","","2.4","","98.90","","","","","","Fog"
"2003-03-17 10:00","2003","03","17","10:00","10.1","","7.6","","84","","","","0","","3.2","","98.88","","","","","","Haze"
"2003-03-17 11:00","2003","03","17","11:00","12.7","","9.8","","82","","25","","7","","4.8","","98.85","","","","","","Haze"
"2003-03-17 12:00","2003","03","17","12:00","14.9","","10.8","","76","","24","","11","","6.4","","98.81","","","","","","Haze"
"2003-03-17 13:00","2003","03","17","13:00","16.5","","11.3","","71","","23","","6","","6.4","","98.75","","","","","","Haze"
"2003-03-17 14:00","2003","03","17","14:00","15.7","","8.9","","64","","16","","7","","4.8","","98.72","","","","","","Haze"
"2003-03-17 15:00","2003","03","17","15:00","16.5","","9.2","","62","","18","","7","","4.8","","98.66","","","","","","Haze"
"2003-03-17 16:00","2003","03","17","16:00","17.4","","11.3","","67","","25","","15","","8.0","","98.67","","","","","","Haze"
"2003-03-17 17:00","2003","03","17","17:00","16.0","","10.8","","71","","28","","7","","6.4","","98.70","","","","","","Haze"
"2003-03-17 18:00","2003","03","17","18:00","12.4","","8.0","","75","","35","","28","","6.4","","98.77","","","","","","Haze"
"2003-03-17 19:00","2003","03","17","19:00","8.4","","6.4","","87","","36","","28","","6.4","","98.88","","","","","","Haze"
"2003-03-17 20:00","2003","03","17","20:00","6.1","","5.5","","96","","36","","28","","2.4","","98.98","","","","","","Fog"
"2003-03-17 21:00","2003","03","17","21:00","5.7","","5.3","","97","","35","","15","","2.4","","99.00","","","","","","Fog"
"2003-03-17 22:00","2003","03","17","22:00","6.2","","5.6","","96","","34","","22","","6.4","","99.02","","","","","","Fog"
"2003-03-17 23:00","2003","03","17","23:00","5.6","","5.1","","97","","35","","19","","1.6","","99.05","","","","","","Fog"
"2003-03-18 00:00","2003","03","18","00:00","5.1","","4.8","","98","","36","","17","","3.2","","99.07","","","","","","Fog"
"2003-03-18 01:00","2003","03","18","01:00","5.3","","5.1","","99","","36","","15","","1.2","","99.11","","","","","","Fog"
"2003-03-18 02:00","2003","03","18","02:00","4.7","","4.5","","99","","35","","19","","2.0","","99.14","","","","","","Fog"
"2003-03-18 03:00","2003","03","18","03:00","4.6","","4.1","","97","","36","","17","","6.4","","99.14","","","","","","Fog"
"2003-03-18 04:00","2003","03","18","04:00","4.8","","3.8","","93","","36","","13","","8.0","","99.19","","","","","","Fog"
"2003-03-18 05:00","2003","03","18","05:00","4.5","","3.1","","91","","36","","15","","9.7","","99.25","","","","","","Fog"
"2003-03-18 06:00","2003","03","18","06:00","4.5","","2.7","","88","","35","","13","","9.7","","99.31","","","","","","Fog"
"2003-03-18 07:00","2003","03","18","07:00","4.5","","2.5","","87","","36","","15","","6.4","","99.39","","","","","","Fog"
"2003-03-18 08:00","2003","03","18","08:00","4.9","","1.9","","81","","2","","13","","9.7","","99.47","","","","","","Haze"
"2003-03-18 09:00","2003","03","18","09:00","5.5","","1.2","","74","","3","","17","","16.1","","99.54","","","","","","Cloudy"
"2003-03-18 10:00","2003","03","18","10:00","6.6","","1.3","","69","","4","","13","","19.3","","99.60","","","","","","Mainly Clear"
"2003-03-18 11:00","2003","03","18","11:00","7.8","","1.8","","66","","3","","17","","19.3","","99.61","","","","","","Mainly Clear"
"2003-03-18 12:00","2003","03","18","12:00","9.2","","1.5","","59","","9","","13","","19.3","","99.61","","","","","","Mainly Clear"
"2003-03-18 13:00","2003","03","18","13:00","9.6","","1.2","","56","","15","","9","","19.3","","99.59","","","","","","Mainly Clear"
"2003-03-18 14:00","2003","03","18","14:00","7.2","","0.6","","63","","13","","17","","19.3","","99.60","","","","","","Mostly Cloudy"
"2003-03-18 15:00","2003","03","18","15:00","6.6","","0.1","","63","","13","","15","","19.3","","99.63","","","","","","Mostly Cloudy"
"2003-03-18 16:00","2003","03","18","16:00","6.2","","-0.4","","63","","14","","15","","19.3","","99.62","","","","","","Mostly Cloudy"
"2003-03-18 17:00","2003","03","18","17:00","6.0","","-1.4","","59","","13","","17","","24.1","","99.61","","","","","","Mostly Cloudy"
"2003-03-18 18:00","2003","03","18","18:00","5.2","","-2.2","","59","","13","","11","","24.1","","99.66","","","","","","Mainly Clear"
"2003-03-18 19:00","2003","03","18","19:00","4.7","","-2.8","","58","","10","","11","","24.1","","99.73","","","","","","Mainly Clear"
"2003-03-18 20:00","2003","03","18","20:00","3.8","","-3.7","","58","","9","","7","","24.1","","99.81","","","","","","Clear"
"2003-03-18 21:00","2003","03","18","21:00","3.4","","-5.1","","54","","9","","11","","24.1","","99.90","","","","","","Clear"
"2003-03-18 22:00","2003","03","18","22:00","2.5","","-5.2","","57","","9","","9","","24.1","","99.99","","","","","","Clear"
"2003-03-18 23:00","2003","03","18","23:00","2.2","","-4.6","","61","","6","","9","","24.1","","100.04","","","","","","Clear"
"2003-03-19 00:00","2003","03","19","00:00","2.0","","-8.5","","46","","8","","11","","24.1","","100.09","","","","","","Clear"
"2003-03-19 01:00","2003","03","19","01:00","1.6","","-10.2","","41","","8","","15","","24.1","","100.12","","","","","","Clear"
"2003-03-19 02:00","2003","03","19","02:00","0.9","","-11.1","","40","","7","","11","","24.1","","100.15","","","","","","Clear"
"2003-03-19 03:00","2003","03","19","03:00","0.6","","-12.5","","37","","8","","20","","24.1","","100.15","","","","","","Clear"
"2003-03-19 04:00","2003","03","19","04:00","0.1","","-11.4","","42","","9","","15","","24.1","","100.16","","","","","","Clear"
"2003-03-19 05:00","2003","03","19","05:00","-0.1","","-10.7","","45","","9","","17","","24.1","","100.18","","","","-5","","Clear"
"2003-03-19 06:00","2003","03","19","06:00","-0.1","","-10.4","","46","","8","","17","","24.1","","100.18","","","","-5","","Clear"
"2003-03-19 07:00","2003","03","19","07:00","-0.1","","-8.6","","53","","9","","19","","24.1","","100.22","","","","-5","","Clear"
"2003-03-19 08:00","2003","03","19","08:00","0.5","","-8.2","","52","","9","","22","","24.1","","100.28","","","","","","Mainly Clear"
"2003-03-19 09:00","2003","03","19","09:00","1.3","","-8.0","","50","","9","","28","","24.1","","100.27","","","","","","Mainly Clear"
"2003-03-19 10:00","2003","03","19","10:00","1.2","","-8.2","","49","","9","","28","","24.1","","100.27","","","","","","Mostly Cloudy"
"2003-03-19 11:00","2003","03","19","11:00","1.4","","-8.6","","47","","9","","24","","24.1","","100.24","","","","","","Mostly Cloudy"
"2003-03-19 12:00","2003","03","19","12:00","2.5","","-7.5","","48","","10","","26","","24.1","","100.19","","","","","","Mostly Cloudy"
"2003-03-19 13:00","2003","03","19","13:00","3.3","","-6.5","","49","","10","","32","","24.1","","100.15","","","","","","Mostly Cloudy"
"2003-03-19 14:00","2003","03","19","14:00","3.8","","-5.6","","50","","10","","22","","24.1","","100.11","","","","","","Mostly Cloudy"
"2003-03-19 15:00","2003","03","19","15:00","3.9","","-6.1","","48","","8","","24","","24.1","","100.05","","","","","","Mostly Cloudy"
"2003-03-19 16:00","2003","03","19","16:00","3.9","","-6.9","","45","","9","","32","","24.1","","99.93","","","","","","Mostly Cloudy"
"2003-03-19 17:00","2003","03","19","17:00","4.2","","-7.1","","44","","9","","22","","24.1","","99.92","","","","","","Mostly Cloudy"
"2003-03-19 18:00","2003","03","19","18:00","3.8","","-7.9","","42","","9","","28","","24.1","","99.81","","","","","","Mainly Clear"
"2003-03-19 19:00","2003","03","19","19:00","3.8","","-7.3","","44","","9","","28","","24.1","","99.74","","","","","","Mostly Cloudy"
"2003-03-19 20:00","2003","03","19","20:00","4.1","","-6.7","","45","","9","","35","","24.1","","99.73","","","","","","Mostly Cloudy"
"2003-03-19 21:00","2003","03","19","21:00","3.5","","-5.7","","51","","9","","26","","24.1","","99.75","","","","","","Mostly Cloudy"
"2003-03-19 22:00","2003","03","19","22:00","2.9","","-4.3","","59","","10","","24","","24.1","","99.73","","","","","","Mainly Clear"
"2003-03-19 23:00","2003","03","19","23:00","2.9","","-3.2","","64","","10","","11","","24.1","","99.72","","","","","","Mostly Cloudy"
"2003-03-20 00:00","2003","03","20","00:00","3.1","","-2.1","","69","","9","","13","","24.1","","99.66","","","","","","Cloudy"
"2003-03-20 01:00","2003","03","20","01:00","2.9","","-0.8","","77","","10","","13","","24.1","","99.64","","","","","","Rain Showers"
"2003-03-20 02:00","2003","03","20","02:00","2.8","","0.6","","85","","9","","6","","19.3","","99.62","","","","","","Rain"
"2003-03-20 03:00","2003","03","20","03:00","3.4","","2.0","","91","","11","","9","","16.1","","99.55","","","","","","Rain"
"2003-03-20 04:00","2003","03","20","04:00","3.5","","2.9","","96","","11","","9","","9.7","","99.49","","","","","","Rain,Fog"
"2003-03-20 05:00","2003","03","20","05:00","3.4","","2.6","","94","","12","","13","","6.4","","99.52","","","","","","Rain,Fog"
"2003-03-20 06:00","2003","03","20","06:00","3.5","","2.9","","96","","11","","9","","6.4","","99.45","","","","","","Fog"
"2003-03-20 07:00","2003","03","20","07:00","3.8","","3.3","","97","","11","","13","","2.0","","99.41","","","","","","Fog"
"2003-03-20 08:00","2003","03","20","08:00","3.8","","3.3","","97","","11","","15","","2.8","","99.42","","","","","","Fog"
"2003-03-20 09:00","2003","03","20","09:00","4.1","","3.5","","96","","11","","9","","3.6","","99.43","","","","","","Fog"
"2003-03-20 10:00","2003","03","20","10:00","4.6","","3.5","","93","","8","","9","","6.4","","99.38","","","","","","Fog"
"2003-03-20 11:00","2003","03","20","11:00","5.3","","3.5","","88","","10","","15","","9.7","","99.35","","","","","","Fog"
"2003-03-20 12:00","2003","03","20","12:00","6.6","","4.0","","83","","11","","11","","12.9","","99.27","","","","","","Cloudy"
"2003-03-20 13:00","2003","03","20","13:00","6.9","","3.9","","81","","13","","13","","12.9","","99.26","","","","","","Cloudy"
"2003-03-20 14:00","2003","03","20","14:00","6.8","","4.1","","83","","10","","11","","14.5","","99.14","","","","","","Cloudy"
"2003-03-20 15:00","2003","03","20","15:00","6.9","","4.0","","82","","10","","7","","11.3","","99.10","","","","","","Cloudy"
"2003-03-20 16:00","2003","03","20","16:00","6.5","","3.7","","82","","8","","11","","12.9","","99.00","","","","","","Cloudy"
"2003-03-20 17:00","2003","03","20","17:00","5.5","","3.7","","88","","9","","11","","4.8","","98.94","","","","","","Rain Showers,Fog"
"2003-03-20 18:00","2003","03","20","18:00","4.7","","3.9","","95","","10","","15","","3.2","","98.88","","","","","","Rain Showers,Fog"
"2003-03-20 19:00","2003","03","20","19:00","4.9","","4.7","","99","","5","","4","","6.4","","98.79","","","","","","Rain,Fog"
"2003-03-20 20:00","2003","03","20","20:00","5.0","","4.6","","97","","8","","13","","6.4","","98.70","","","","","","Fog"
"2003-03-20 21:00","2003","03","20","21:00","4.4","","4.0","","97","","7","","11","","3.2","","98.62","","","","","","Fog"
"2003-03-20 22:00","2003","03","20","22:00","3.9","","3.6","","98","","8","","11","","2.8","","98.61","","","","","","Fog"
"2003-03-20 23:00","2003","03","20","23:00","3.7","","3.5","","99","","5","","7","","1.0","","98.55","","","","","","Drizzle,Fog"
"2003-03-21 00:00","2003","03","21","00:00","3.5","","3.2","","98","","4","","7","","1.6","","98.54","","","","","","Drizzle,Fog"
"2003-03-21 01:00","2003","03","21","01:00","3.2","","3.0","","99","","3","","4","","2.0","","98.52","","","","","","Drizzle,Fog"
"2003-03-21 02:00","2003","03","21","02:00","3.3","","3.0","","98","","5","","7","","1.6","","98.47","","","","","","Drizzle,Fog"
"2003-03-21 03:00","2003","03","21","03:00","3.2","","3.0","","99","","9","","7","","0.8","","98.42","","","","","","Fog"
"2003-03-21 04:00","2003","03","21","04:00","3.1","","3.0","","99","","6","","6","","1.0","","98.39","","","","","","Fog"
"2003-03-21 05:00","2003","03","21","05:00","3.0","","3.0","","100","","18","","4","","0.8","","98.42","","","","","","Fog"
"2003-03-21 06:00","2003","03","21","06:00","2.6","","2.6","","100","","","","0","","0.4","","98.43","","","","","","Fog"
"2003-03-21 07:00","2003","03","21","07:00","2.6","","2.6","","100","","","","0","","0.4","","98.45","","","","","","Fog"
"2003-03-21 08:00","2003","03","21","08:00","3.4","","3.3","","99","","","","0","","2.4","","98.46","","","","","","Fog"
"2003-03-21 09:00","2003","03","21","09:00","4.8","","4.8","","100","","6","","6","","2.8","","98.45","","","","","","Fog"
"2003-03-21 10:00","2003","03","21","10:00","6.1","","6.1","","100","","10","","4","","3.2","","98.41","","","","","","Fog"
"2003-03-21 11:00","2003","03","21","11:00","6.7","","6.4","","98","","11","","7","","3.6","","98.39","","","","","","Fog"
"2003-03-21 12:00","2003","03","21","12:00","6.2","","5.6","","96","","15","","9","","3.6","","98.38","","","","","","Rain Showers,Fog"
"2003-03-21 13:00","2003","03","21","13:00","6.0","","5.8","","99","","16","","4","","2.4","","98.35","","","","","","Rain Showers,Fog"
"2003-03-21 14:00","2003","03","21","14:00","6.0","","5.6","","97","","10","","7","","3.6","","98.30","","","","","","Rain,Fog"
"2003-03-21 15:00","2003","03","21","15:00","5.8","","5.4","","97","","7","","7","","4.8","","98.30","","","","","","Rain,Fog"
"2003-03-21 16:00","2003","03","21","16:00","5.8","","5.3","","97","","6","","11","","4.0","","98.30","","","","","","Rain,Fog"
"2003-03-21 17:00","2003","03","21","17:00","5.7","","5.1","","96","","5","","9","","4.8","","98.32","","","","","","Rain,Fog"
"2003-03-21 18:00","2003","03","21","18:00","5.5","","4.9","","96","","13","","4","","6.4","","98.40","","","","","","Fog"
"2003-03-21 19:00","2003","03","21","19:00","5.7","","5.1","","96","","15","","4","","8.0","","98.43","","","","","","Fog"
"2003-03-21 20:00","2003","03","21","20:00","5.6","","5.3","","98","","","","0","","4.0","","98.47","","","","","","Fog"
"2003-03-21 21:00","2003","03","21","21:00","5.5","","5.2","","98","","","","0","","0.8","","98.52","","","","","","Fog"
"2003-03-21 22:00","2003","03","21","22:00","5.0","","5.0","","100","","","","0","","0.2","","98.47","","","","","","Fog"
"2003-03-21 23:00","2003","03","21","23:00","5.1","","5.1","","100","","26","","15","","2.0","","98.56","","","","","","Rain,Fog"
"2003-03-22 00:00","2003","03","22","00:00","4.8","","4.5","","98","","23","","9","","16.1","","98.57","","","","","","Cloudy"
"2003-03-22 01:00","2003","03","22","01:00","4.7","","4.1","","96","","28","","26","","19.3","","98.64","","","","","","Cloudy"
"2003-03-22 02:00","2003","03","22","02:00","4.1","","2.6","","90","","27","","22","","24.1","","98.70","","","","","","Cloudy"
"2003-03-22 03:00","2003","03","22","03:00","2.4","","0.5","","87","","25","","17","","24.1","","98.75","","","","","","Mainly Clear"
"2003-03-22 04:00","2003","03","22","04:00","0.7","","-0.4","","92","","26","","9","","24.1","","98.77","","","","","","Clear"
"2003-03-22 05:00","2003","03","22","05:00","1.6","","0.3","","91","","22","","4","","24.1","","98.81","","","","","","Clear"
"2003-03-22 06:00","2003","03","22","06:00","0.4","","-0.8","","92","","25","","7","","14.5","","98.82","","","","","","Mainly Clear"
"2003-03-22 07:00","2003","03","22","07:00","1.1","","-0.1","","92","","29","","13","","6.4","","98.82","","","","","","Fog"
"2003-03-22 08:00","2003","03","22","08:00","1.8","","0.3","","90","","22","","11","","6.4","","98.84","","","","","","Fog"
"2003-03-22 09:00","2003","03","22","09:00","2.9","","1.2","","89","","24","","6","","6.4","","98.81","","","","","","Fog"
"2003-03-22 10:00","2003","03","22","10:00","4.1","","1.8","","85","","28","","7","","6.4","","98.79","","","","","","Haze"
"2003-03-22 11:00","2003","03","22","11:00","5.2","","2.0","","80","","23","","7","","6.4","","98.77","","","","","","Haze"
"2003-03-22 12:00","2003","03","22","12:00","5.7","","2.0","","77","","20","","7","","8.0","","98.76","","","","","","Haze"
"2003-03-22 13:00","2003","03","22","13:00","5.9","","2.0","","76","","18","","9","","8.0","","98.72","","","","","","Haze"
"2003-03-22 14:00","2003","03","22","14:00","5.7","","1.4","","74","","23","","9","","9.7","","98.72","","","","","","Rain,Haze"
"2003-03-22 15:00","2003","03","22","15:00","5.0","","1.6","","79","","21","","11","","6.4","","98.75","","","","","","Rain,Haze"
"2003-03-22 16:00","2003","03","22","16:00","5.1","","2.3","","82","","22","","4","","8.0","","98.77","","","","","","Rain,Haze"
"2003-03-22 17:00","2003","03","22","17:00","5.5","","3.1","","85","","26","","13","","8.0","","98.81","","","","","","Rain,Haze"
"2003-03-22 18:00","2003","03","22","18:00","4.6","","2.4","","86","","26","","13","","8.0","","98.88","","","","","","Haze"
"2003-03-22 19:00","2003","03","22","19:00","4.7","","2.3","","84","","29","","15","","9.7","","98.97","","","","","","Rain"
"2003-03-22 20:00","2003","03","22","20:00","4.3","","1.7","","83","","29","","15","","12.9","","99.02","","","","","","Rain"
"2003-03-22 21:00","2003","03","22","21:00","2.5","","0.4","","86","","28","","13","","16.1","","99.10","","","","","","Clear"
"2003-03-22 22:00","2003","03","22","22:00","1.8","","-0.1","","87","","26","","17","","16.1","","99.11","","","","","","Clear"
"2003-03-22 23:00","2003","03","22","23:00","0.4","","-0.9","","91","","27","","11","","11.3","","99.13","","","","","","Mainly Clear"
"2003-03-23 00:00","2003","03","23","00:00","1.1","","-0.2","","91","","25","","13","","11.3","","99.15","","","","","","Mostly Cloudy"
"2003-03-23 01:00","2003","03","23","01:00","1.5","","0.2","","91","","27","","9","","12.9","","99.15","","","","","","Mostly Cloudy"
"2003-03-23 02:00","2003","03","23","02:00","2.4","","0.5","","87","","27","","15","","12.9","","99.16","","","","","","Cloudy"
"2003-03-23 03:00","2003","03","23","03:00","2.4","","0.5","","87","","27","","19","","12.9","","99.13","","","","","","Cloudy"
"2003-03-23 04:00","2003","03","23","04:00","2.6","","0.8","","88","","27","","15","","12.9","","99.12","","","","","","Cloudy"
"2003-03-23 05:00","2003","03","23","05:00","2.5","","0.8","","89","","27","","13","","12.9","","99.14","","","","","","Cloudy"
"2003-03-23 06:00","2003","03","23","06:00","3.0","","1.1","","87","","29","","9","","16.1","","99.18","","","","","","Cloudy"
"2003-03-23 07:00","2003","03","23","07:00","3.4","","1.3","","86","","34","","11","","16.1","","99.24","","","","","","Cloudy"
"2003-03-23 08:00","2003","03","23","08:00","4.0","","2.0","","87","","29","","7","","16.1","","99.31","","","","","","Cloudy"
"2003-03-23 09:00","2003","03","23","09:00","4.8","","1.9","","81","","32","","9","","19.3","","99.38","","","","","","Cloudy"
"2003-03-23 10:00","2003","03","23","10:00","5.8","","2.0","","77","","35","","11","","24.1","","99.38","","","","","","Mostly Cloudy"
"2003-03-23 11:00","2003","03","23","11:00","7.7","","2.6","","70","","","","0","","24.1","","99.38","","","","","","Mainly Clear"
"2003-03-23 12:00","2003","03","23","12:00","8.2","","2.3","","66","","36","","4","","24.1","","99.34","","","","","","Mainly Clear"
"2003-03-23 13:00","2003","03","23","13:00","9.6","","3.4","","65","","18","","7","","24.1","","99.31","","","","","","Mostly Cloudy"
"2003-03-23 14:00","2003","03","23","14:00","8.8","","3.5","","69","","15","","11","","24.1","","99.26","","","","","","Mostly Cloudy"
"2003-03-23 15:00","2003","03","23","15:00","9.0","","3.8","","70","","25","","22","","24.1","","99.27","","","","","","Mostly Cloudy"
"2003-03-23 16:00","2003","03","23","16:00","9.5","","3.9","","68","","24","","22","","24.1","","99.30","","","","","","Mainly Clear"
"2003-03-23 17:00","2003","03","23","17:00","9.0","","3.3","","67","","24","","20","","24.1","","99.34","","","","","","Mostly Cloudy"
"2003-03-23 18:00","2003","03","23","18:00","7.0","","2.2","","71","","27","","15","","19.3","","99.40","","","","","","Mostly Cloudy"
"2003-03-23 19:00","2003","03","23","19:00","6.5","","1.9","","72","","26","","9","","24.1","","99.43","","","","","","Mostly Cloudy"
"2003-03-23 20:00","2003","03","23","20:00","5.7","","2.3","","79","","23","","17","","19.3","","99.48","","","","","","Mostly Cloudy"
"2003-03-23 21:00","2003","03","23","21:00","4.6","","1.7","","81","","25","","17","","24.1","","99.49","","","","","","Mostly Cloudy"
"2003-03-23 22:00","2003","03","23","22:00","3.6","","1.2","","84","","26","","11","","19.3","","99.51","","","","","","Mostly Cloudy"
"2003-03-23 23:00","2003","03","23","23:00","2.9","","0.8","","86","","27","","9","","19.3","","99.49","","","","","","Mainly Clear"
"2003-03-24 00:00","2003","03","24","00:00","2.9","","0.4","","84","","25","","9","","19.3","","99.48","","","","","","Mainly Clear"
"2003-03-24 01:00","2003","03","24","01:00","2.0","","-0.1","","86","","24","","6","","19.3","","99.47","","","","","","Clear"
"2003-03-24 02:00","2003","03","24","02:00","2.6","","-0.1","","82","","21","","4","","19.3","","99.46","","","","","","Mainly Clear"
"2003-03-24 03:00","2003","03","24","03:00","2.3","","-0.3","","83","","","","0","","19.3","","99.46","","","","","","Mainly Clear"
"2003-03-24 04:00","2003","03","24","04:00","0.5","","-1.7","","85","","26","","7","","19.3","","99.51","","","","","","Mainly Clear"
"2003-03-24 05:00","2003","03","24","05:00","1.7","","-0.3","","87","","23","","6","","19.3","","99.54","","","","","","Mostly Cloudy"
"2003-03-24 06:00","2003","03","24","06:00","2.1","","-0.3","","84","","25","","6","","11.3","","99.56","","","","","","Mainly Clear"
"2003-03-24 07:00","2003","03","24","07:00","2.3","","0.0","","85","","","","0","","24.1","","99.60","","","","","","Mostly Cloudy"
"2003-03-24 08:00","2003","03","24","08:00","4.2","","0.7","","78","","15","","9","","8.0","","99.58","","","","","","Haze"
"2003-03-24 09:00","2003","03","24","09:00","5.7","","1.3","","73","","17","","7","","9.7","","99.62","","","","","","Haze"
"2003-03-24 10:00","2003","03","24","10:00","8.1","","2.1","","66","","19","","11","","19.3","","99.61","","","","","","Mainly Clear"
"2003-03-24 11:00","2003","03","24","11:00","9.4","","2.7","","63","","16","","15","","19.3","","99.57","","","","","","Mainly Clear"
"2003-03-24 12:00","2003","03","24","12:00","10.5","","2.9","","59","","17","","13","","19.3","","99.54","","","","","","Mostly Cloudy"
"2003-03-24 13:00","2003","03","24","13:00","11.4","","3.4","","58","","16","","19","","24.1","","99.45","","","","","","Mostly Cloudy"
"2003-03-24 14:00","2003","03","24","14:00","10.9","","3.9","","62","","15","","17","","24.1","","99.39","","","","","","Mostly Cloudy"
"2003-03-24 15:00","2003","03","24","15:00","11.2","","3.8","","60","","15","","19","","24.1","","99.31","","","","","","Mostly Cloudy"
"2003-03-24 16:00","2003","03","24","16:00","10.5","","3.6","","62","","14","","13","","24.1","","99.25","","","","","","Mostly Cloudy"
"2003-03-24 17:00","2003","03","24","17:00","8.1","","2.0","","65","","13","","15","","19.3","","99.24","","","","","","Cloudy"
"2003-03-24 18:00","2003","03","24","18:00","6.5","","1.3","","69","","15","","13","","19.3","","99.19","","","","","","Cloudy"
"2003-03-24 19:00","2003","03","24","19:00","6.2","","1.0","","69","","14","","11","","19.3","","99.16","","","","","","Cloudy"
"2003-03-24 20:00","2003","03","24","20:00","6.1","","1.0","","70","","11","","7","","19.3","","99.13","","","","","","Mostly Cloudy"
"2003-03-24 21:00","2003","03","24","21:00","6.7","","1.4","","69","","8","","6","","19.3","","99.11","","","","","","Mostly Cloudy"
"2003-03-24 22:00","2003","03","24","22:00","6.1","","1.5","","72","","5","","4","","19.3","","99.04","","","","","","Mostly Cloudy"
"2003-03-24 23:00","2003","03","24","23:00","6.1","","2.3","","77","","32","","4","","19.3","","98.99","","","","","","Cloudy"
"2003-03-25 00:00","2003","03","25","00:00","6.6","","2.3","","74","","13","","4","","19.3","","98.90","","","","","","Cloudy"
"2003-03-25 01:00","2003","03","25","01:00","6.4","","2.4","","76","","18","","6","","16.1","","98.83","","","","","","Cloudy"
"2003-03-25 02:00","2003","03","25","02:00","6.1","","2.4","","77","","18","","6","","16.1","","98.77","","","","","","Cloudy"
"2003-03-25 03:00","2003","03","25","03:00","5.9","","2.8","","80","","","","0","","16.1","","98.78","","","","","","Cloudy"
"2003-03-25 04:00","2003","03","25","04:00","5.6","","2.9","","83","","","","0","","16.1","","98.75","","","","","","Cloudy"
"2003-03-25 05:00","2003","03","25","05:00","6.5","","3.1","","79","","","","0","","16.1","","98.74","","","","","","Mostly Cloudy"
"2003-03-25 06:00","2003","03","25","06:00","6.8","","3.4","","79","","16","","6","","14.5","","98.76","","","","","","Mostly Cloudy"
"2003-03-25 07:00","2003","03","25","07:00","6.3","","4.0","","85","","27","","6","","12.9","","98.81","","","","","","Mostly Cloudy"
"2003-03-25 08:00","2003","03","25","08:00","9.7","","6.3","","79","","28","","15","","12.9","","98.82","","","","","","Mostly Cloudy"
"2003-03-25 09:00","2003","03","25","09:00","11.2","","6.7","","74","","31","","17","","16.1","","98.81","","","","","","Cloudy"
"2003-03-25 10:00","2003","03","25","10:00","10.0","","6.6","","79","","27","","15","","19.3","","98.84","","","","","","Rain Showers"
"2003-03-25 11:00","2003","03","25","11:00","9.7","","7.9","","89","","26","","7","","19.3","","98.84","","","","","","Cloudy"
"2003-03-25 12:00","2003","03","25","12:00","10.3","","8.0","","86","","26","","15","","24.1","","98.85","","","","","","Cloudy"
"2003-03-25 13:00","2003","03","25","13:00","12.5","","7.9","","74","","28","","22","","24.1","","98.82","","","","","","Cloudy"
"2003-03-25 14:00","2003","03","25","14:00","14.6","","6.9","","60","","28","","20","","24.1","","98.82","","","","","","Mostly Cloudy"
"2003-03-25 15:00","2003","03","25","15:00","14.6","","3.9","","49","","30","","20","","24.1","","98.81","","","","","","Mostly Cloudy"
"2003-03-25 16:00","2003","03","25","16:00","15.6","","3.5","","44","","28","","17","","24.1","","98.82","","","","","","Mostly Cloudy"
"2003-03-25 17:00","2003","03","25","17:00","14.3","","1.2","","41","","28","","22","","24.1","","98.83","","","","","","Mostly Cloudy"
"2003-03-25 18:00","2003","03","25","18:00","12.9","","0.3","","42","","30","","15","","24.1","","98.88","","","","","","Mostly Cloudy"
"2003-03-25 19:00","2003","03","25","19:00","10.5","","0.1","","48","","29","","15","","24.1","","98.93","","","","","","Mainly Clear"
"2003-03-25 20:00","2003","03","25","20:00","9.3","","1.2","","57","","32","","17","","24.1","","98.96","","","","","","Mostly Cloudy"
"2003-03-25 21:00","2003","03","25","21:00","7.5","","1.7","","67","","3","","17","","24.1","","99.01","","","","","","Mostly Cloudy"
"2003-03-25 22:00","2003","03","25","22:00","7.2","","1.1","","65","","36","","7","","24.1","","99.03","","","","","","Mostly Cloudy"
"2003-03-25 23:00","2003","03","25","23:00","6.7","","1.2","","68","","2","","6","","24.1","","99.06","","","","","","Mostly Cloudy"
"2003-03-26 00:00","2003","03","26","00:00","7.0","","0.5","","63","","","","0","","19.3","","99.15","","","","","","Rain Showers"
"2003-03-26 01:00","2003","03","26","01:00","5.8","","0.8","","70","","36","","19","","19.3","","99.16","","","","","","Rain"
"2003-03-26 02:00","2003","03","26","02:00","4.7","","0.4","","74","","34","","13","","19.3","","99.18","","","","","","Cloudy"
"2003-03-26 03:00","2003","03","26","03:00","4.4","","-0.9","","68","","35","","15","","24.1","","99.15","","","","","","Cloudy"
"2003-03-26 04:00","2003","03","26","04:00","4.3","","-1.5","","66","","34","","19","","24.1","","99.15","","","","","","Cloudy"
"2003-03-26 05:00","2003","03","26","05:00","4.4","","-2.4","","61","","35","","19","","24.1","","99.18","","","","","","Cloudy"
"2003-03-26 06:00","2003","03","26","06:00","4.1","","-2.7","","61","","34","","13","","24.1","","99.19","","","","","","Mostly Cloudy"
"2003-03-26 07:00","2003","03","26","07:00","3.8","","-1.8","","67","","31","","11","","24.1","","99.25","","","","","","Mostly Cloudy"
"2003-03-26 08:00","2003","03","26","08:00","4.8","","-2.8","","58","","30","","13","","24.1","","99.31","","","","","","Mostly Cloudy"
"2003-03-26 09:00","2003","03","26","09:00","6.2","","-2.5","","54","","30","","13","","24.1","","99.31","","","","","","Mainly Clear"
"2003-03-26 10:00","2003","03","26","10:00","7.8","","-2.6","","48","","31","","19","","24.1","","99.32","","","","","","Clear"
"2003-03-26 11:00","2003","03","26","11:00","8.7","","-3.1","","43","","31","","28","","24.1","","99.32","","","","","","Clear"
"2003-03-26 12:00","2003","03","26","12:00","8.3","","-2.7","","46","","28","","19","","24.1","","99.31","","","","","","Mainly Clear"
"2003-03-26 13:00","2003","03","26","13:00","9.7","","-1.6","","45","","28","","22","","24.1","","99.27","","","","","","Mainly Clear"
"2003-03-26 14:00","2003","03","26","14:00","9.4","","-2.1","","44","","29","","24","","24.1","","99.24","","","","","","Mainly Clear"
"2003-03-26 15:00","2003","03","26","15:00","9.8","","-2.3","","43","","32","","28","","24.1","","99.24","","","","","","Mainly Clear"
"2003-03-26 16:00","2003","03","26","16:00","9.9","","-2.5","","42","","29","","22","","24.1","","99.26","","","","","","Mainly Clear"
"2003-03-26 17:00","2003","03","26","17:00","9.5","","-2.5","","43","","30","","24","","24.1","","99.29","","","","","","Mainly Clear"
"2003-03-26 18:00","2003","03","26","18:00","7.8","","-3.2","","46","","32","","28","","24.1","","99.35","","","","","","Mainly Clear"
"2003-03-26 19:00","2003","03","26","19:00","6.1","","-3.5","","50","","32","","19","","24.1","","99.34","","","","","","Mainly Clear"
"2003-03-26 20:00","2003","03","26","20:00","5.0","","-4.0","","52","","35","","15","","24.1","","99.39","","","","","","Mainly Clear"
"2003-03-26 21:00","2003","03","26","21:00","4.2","","-3.6","","57","","1","","15","","24.1","","99.44","","","","","","Mainly Clear"
"2003-03-26 22:00","2003","03","26","22:00","3.4","","-3.5","","61","","2","","9","","24.1","","99.45","","","","","","Mostly Cloudy"
"2003-03-26 23:00","2003","03","26","23:00","3.0","","-4.3","","59","","36","","7","","24.1","","99.46","","","","","","Mostly Cloudy"
"2003-03-27 00:00","2003","03","27","00:00","3.1","","-4.6","","57","","","","0","","24.1","","99.50","","","","","","Mostly Cloudy"
"2003-03-27 01:00","2003","03","27","01:00","2.7","","-4.8","","58","","36","","11","","24.1","","99.54","","","","","","Mostly Cloudy"
"2003-03-27 02:00","2003","03","27","02:00","2.5","","-4.1","","62","","","","0","","24.1","","99.55","","","","","","Rain Showers"
"2003-03-27 03:00","2003","03","27","03:00","2.4","","-3.0","","67","","20","","6","","24.1","","99.58","","","","","","Mostly Cloudy"
"2003-03-27 04:00","2003","03","27","04:00","2.3","","-2.4","","71","","19","","4","","24.1","","99.64","","","","","","Mostly Cloudy"
"2003-03-27 05:00","2003","03","27","05:00","2.5","","-2.5","","70","","","","0","","24.1","","99.62","","","","","","Mostly Cloudy"
"2003-03-27 06:00","2003","03","27","06:00","2.4","","-2.7","","69","","","","0","","24.1","","99.69","","","","","","Mostly Cloudy"
"2003-03-27 07:00","2003","03","27","07:00","2.7","","-2.6","","68","","33","","4","","24.1","","99.77","","","","","","Mostly Cloudy"
"2003-03-27 08:00","2003","03","27","08:00","4.1","","-2.4","","63","","4","","6","","19.3","","99.82","","","","","","Mainly Clear"
"2003-03-27 09:00","2003","03","27","09:00","5.8","","-2.9","","54","","34","","6","","19.3","","99.92","","","","","","Mainly Clear"
"2003-03-27 10:00","2003","03","27","10:00","6.6","","-2.8","","51","","9","","9","","19.3","","99.90","","","","","","Clear"
"2003-03-27 11:00","2003","03","27","11:00","8.1","","-3.0","","45","","16","","9","","19.3","","99.91","","","","","","Clear"
"2003-03-27 12:00","2003","03","27","12:00","8.6","","-1.6","","49","","17","","13","","24.1","","99.93","","","","","","Mainly Clear"
"2003-03-27 13:00","2003","03","27","13:00","8.9","","-1.7","","47","","13","","13","","19.3","","99.92","","","","","","Mostly Cloudy"
"2003-03-27 14:00","2003","03","27","14:00","8.5","","-1.8","","48","","12","","15","","19.3","","99.89","","","","","","Mostly Cloudy"
"2003-03-27 15:00","2003","03","27","15:00","8.5","","-1.3","","50","","14","","13","","24.1","","99.86","","","","","","Mostly Cloudy"
"2003-03-27 16:00","2003","03","27","16:00","9.6","","-1.0","","48","","14","","11","","24.1","","99.83","","","","","","Mostly Cloudy"
"2003-03-27 17:00","2003","03","27","17:00","8.6","","-1.5","","49","","13","","11","","24.1","","99.81","","","","","","Mostly Cloudy"
"2003-03-27 18:00","2003","03","27","18:00","8.6","","-1.2","","50","","9","","9","","24.1","","99.82","","","","","","Mostly Cloudy"
"2003-03-27 19:00","2003","03","27","19:00","5.7","","-1.5","","60","","16","","15","","24.1","","99.87","","","","","","Cloudy"
"2003-03-27 20:00","2003","03","27","20:00","5.8","","-2.1","","57","","9","","15","","24.1","","99.91","","","","","","Mostly Cloudy"
"2003-03-27 21:00","2003","03","27","21:00","6.0","","-2.2","","56","","9","","15","","24.1","","99.92","","","","","","Cloudy"
"2003-03-27 22:00","2003","03","27","22:00","5.5","","-2.1","","58","","8","","15","","24.1","","99.90","","","","","","Mostly Cloudy"
"2003-03-27 23:00","2003","03","27","23:00","5.6","","-2.1","","58","","7","","11","","24.1","","99.84","","","","","","Cloudy"
"2003-03-28 00:00","2003","03","28","00:00","5.3","","-2.0","","59","","8","","7","","24.1","","99.79","","","","","","Mostly Cloudy"
"2003-03-28 01:00","2003","03","28","01:00","5.5","","-3.4","","53","","7","","13","","24.1","","99.73","","","","","","Mainly Clear"
"2003-03-28 02:00","2003","03","28","02:00","6.2","","-3.2","","51","","8","","19","","24.1","","99.62","","","","","","Cloudy"
"2003-03-28 03:00","2003","03","28","03:00","5.7","","-2.2","","57","","9","","19","","24.1","","99.56","","","","","","Cloudy"
"2003-03-28 04:00","2003","03","28","04:00","5.4","","-1.5","","61","","9","","20","","24.1","","99.53","","","","","","Cloudy"
"2003-03-28 05:00","2003","03","28","05:00","5.1","","-0.9","","65","","10","","15","","24.1","","99.44","","","","","","Cloudy"
"2003-03-28 06:00","2003","03","28","06:00","5.2","","-0.2","","68","","10","","20","","24.1","","99.39","","","","","","Cloudy"
"2003-03-28 07:00","2003","03","28","07:00","5.5","","0.3","","69","","10","","15","","19.3","","99.41","","","","","","Cloudy"
"2003-03-28 08:00","2003","03","28","08:00","5.8","","2.2","","78","","10","","11","","12.9","","99.39","","","","","","Rain Showers"
"2003-03-28 09:00","2003","03","28","09:00","5.6","","3.7","","88","","9","","11","","8.0","","99.31","","","","","","Fog"
"2003-03-28 10:00","2003","03","28","10:00","7.8","","5.1","","83","","12","","11","","12.9","","99.26","","","","","","Cloudy"
"2003-03-28 11:00","2003","03","28","11:00","11.6","","4.6","","62","","13","","15","","19.3","","99.22","","","","","","Mostly Cloudy"
"2003-03-28 12:00","2003","03","28","12:00","12.3","","3.7","","56","","14","","7","","19.3","","99.23","","","","","","Cloudy"
"2003-03-28 13:00","2003","03","28","13:00","11.6","","4.7","","63","","11","","9","","16.1","","99.15","","","","","","Rain Showers"
"2003-03-28 14:00","2003","03","28","14:00","14.9","","5.8","","54","","14","","11","","19.3","","99.01","","","","","","Mostly Cloudy"
"2003-03-28 15:00","2003","03","28","15:00","15.1","","4.2","","48","","14","","9","","19.3","","98.90","","","","","","Rain Showers"
"2003-03-28 16:00","2003","03","28","16:00","16.4","","5.1","","47","","15","","15","","24.1","","98.81","","","","","","Mostly Cloudy"
"2003-03-28 17:00","2003","03","28","17:00","16.1","","4.7","","47","","13","","19","","24.1","","98.72","","","","","","Mostly Cloudy"
"2003-03-28 18:00","2003","03","28","18:00","15.4","","4.8","","49","","13","","17","","24.1","","98.62","","","","","","Cloudy"
"2003-03-28 19:00","2003","03","28","19:00","13.6","","4.8","","55","","15","","11","","19.3","","98.59","","","","","","Cloudy"
"2003-03-28 20:00","2003","03","28","20:00","12.7","","5.9","","63","","16","","15","","19.3","","98.59","","","","","","Mostly Cloudy"
"2003-03-28 21:00","2003","03","28","21:00","14.8","","7.6","","62","","16","","37","","19.3","","98.54","","","","","","Mostly Cloudy"
"2003-03-28 22:00","2003","03","28","22:00","12.7","","7.2","","69","","16","","22","","19.3","","98.46","","","","","","Mostly Cloudy"
"2003-03-28 23:00","2003","03","28","23:00","14.9","","8.2","","64","","18","","30","","24.1","","98.40","","","","","","Mostly Cloudy"
"2003-03-29 00:00","2003","03","29","00:00","14.6","","8.1","","65","","18","","39","","19.3","","98.27","","","","","","Mostly Cloudy"
"2003-03-29 01:00","2003","03","29","01:00","14.5","","9.7","","73","","22","","15","","19.3","","98.43","","","","","","Cloudy"
"2003-03-29 02:00","2003","03","29","02:00","12.8","","9.3","","79","","26","","19","","19.3","","98.45","","","","","","Cloudy"
"2003-03-29 03:00","2003","03","29","03:00","11.8","","8.9","","82","","26","","24","","14.5","","98.48","","","","","","Rain"
"2003-03-29 04:00","2003","03","29","04:00","10.4","","8.9","","90","","23","","11","","11.3","","98.56","","","","","","Rain"
"2003-03-29 05:00","2003","03","29","05:00","9.8","","8.5","","92","","23","","13","","6.4","","98.53","","","","","","Rain"
"2003-03-29 06:00","2003","03","29","06:00","9.5","","8.5","","93","","20","","17","","8.0","","98.62","","","","","","Rain"
"2003-03-29 07:00","2003","03","29","07:00","8.3","","7.2","","93","","22","","24","","9.7","","98.70","","","","","","Rain"
"2003-03-29 08:00","2003","03","29","08:00","7.0","","5.7","","91","","23","","32","","14.5","","98.77","","","","","","Rain"
"2003-03-29 09:00","2003","03","29","09:00","6.2","","4.3","","88","","23","","28","","19.3","","98.80","","","","","","Rain"
"2003-03-29 10:00","2003","03","29","10:00","5.8","","4.1","","89","","23","","26","","19.3","","98.93","","","","","","Rain"
"2003-03-29 11:00","2003","03","29","11:00","4.4","","2.6","","88","","27","","30","","16.1","","98.98","","","","","","Rain"
"2003-03-29 12:00","2003","03","29","12:00","4.5","","2.1","","84","","27","","37","","24.1","","99.07","","","","","","Cloudy"
"2003-03-29 13:00","2003","03","29","13:00","4.9","","1.6","","79","","27","","26","","24.1","","99.13","","","","","","Cloudy"
"2003-03-29 14:00","2003","03","29","14:00","4.1","","0.7","","78","","26","","37","","24.1","","99.22","","","","","","Cloudy"
"2003-03-29 15:00","2003","03","29","15:00","4.6","","0.2","","73","","27","","30","","24.1","","99.27","","","","","","Cloudy"
"2003-03-29 16:00","2003","03","29","16:00","4.4","","-0.6","","70","","28","","30","","24.1","","99.30","","","","","","Cloudy"
"2003-03-29 17:00","2003","03","29","17:00","3.2","","-1.8","","70","","28","","32","","24.1","","99.43","","","","","","Cloudy"
"2003-03-29 18:00","2003","03","29","18:00","2.7","","-3.2","","65","","29","","20","","24.1","","99.53","","","","","","Cloudy"
"2003-03-29 19:00","2003","03","29","19:00","2.4","","-3.9","","63","","28","","20","","24.1","","99.59","","","","","","Cloudy"
"2003-03-29 20:00","2003","03","29","20:00","2.4","","-4.1","","62","","27","","30","","24.1","","99.69","","","","","","Cloudy"
"2003-03-29 21:00","2003","03","29","21:00","1.9","","-4.5","","62","","27","","24","","24.1","","99.77","","","","","","Cloudy"
"2003-03-29 22:00","2003","03","29","22:00","1.1","","-5.2","","63","","28","","22","","24.1","","99.77","","","","","","Mostly Cloudy"
"2003-03-29 23:00","2003","03","29","23:00","0.5","","-5.1","","66","","27","","19","","24.1","","99.81","","","","","","Mostly Cloudy"
"2003-03-30 00:00","2003","03","30","00:00","0.3","","-5.3","","66","","28","","20","","24.1","","99.84","","","","","","Mostly Cloudy"
"2003-03-30 01:00","2003","03","30","01:00","-0.2","","-5.9","","65","","27","","13","","24.1","","99.81","","","","-4","","Mostly Cloudy"
"2003-03-30 02:00","2003","03","30","02:00","-0.4","","-5.0","","71","","32","","24","","24.1","","99.77","","","","-6","","Mostly Cloudy"
"2003-03-30 03:00","2003","03","30","03:00","-0.9","","-8.0","","59","","29","","24","","24.1","","99.77","","","","-7","","Mostly Cloudy"
"2003-03-30 04:00","2003","03","30","04:00","-1.7","","-7.3","","66","","29","","24","","24.1","","99.77","","","","-8","","Mostly Cloudy"
"2003-03-30 05:00","2003","03","30","05:00","-2.0","","-6.8","","70","","29","","17","","24.1","","99.77","","","","-7","","Cloudy"
"2003-03-30 06:00","2003","03","30","06:00","-2.1","","-6.5","","72","","33","","24","","24.1","","99.81","","","","-8","","Snow Showers"
"2003-03-30 07:00","2003","03","30","07:00","-2.4","","-6.8","","72","","33","","20","","24.1","","99.83","","","","-8","","Mostly Cloudy"
"2003-03-30 08:00","2003","03","30","08:00","-2.0","","-6.5","","71","","34","","22","","24.1","","99.82","","","","-8","","Mostly Cloudy"
"2003-03-30 09:00","2003","03","30","09:00","-1.3","","-7.6","","62","","34","","30","","24.1","","99.84","","","","-8","","Cloudy"
"2003-03-30 10:00","2003","03","30","10:00","-1.4","","-6.9","","66","","33","","30","","24.1","","99.81","","","","-8","","Cloudy"
"2003-03-30 11:00","2003","03","30","11:00","-1.5","","-8.0","","61","","33","","28","","24.1","","99.88","","","","-8","","Mostly Cloudy"
"2003-03-30 12:00","2003","03","30","12:00","-0.9","","-8.1","","58","","33","","32","","24.1","","99.75","","","","-8","","Mostly Cloudy"
"2003-03-30 13:00","2003","03","30","13:00","-0.3","","-8.1","","56","","32","","28","","24.1","","99.77","","","","-7","","Mostly Cloudy"
"2003-03-30 14:00","2003","03","30","14:00","0.4","","-7.8","","54","","33","","26","","24.1","","99.68","","","","","","Mostly Cloudy"
"2003-03-30 15:00","2003","03","30","15:00","0.4","","-7.7","","55","","35","","26","","24.1","","99.65","","","","","","Mostly Cloudy"
"2003-03-30 16:00","2003","03","30","16:00","1.6","","-7.4","","51","","2","","28","","24.1","","99.66","","","","","","Mainly Clear"
"2003-03-30 17:00","2003","03","30","17:00","-0.2","","-9.1","","51","","35","","28","","24.1","","99.66","","","","-7","","Mainly Clear"
"2003-03-30 18:00","2003","03","30","18:00","-0.7","","-10.1","","49","","34","","28","","24.1","","99.70","","","","-7","","Clear"
"2003-03-30 19:00","2003","03","30","19:00","-1.7","","-10.8","","50","","34","","35","","24.1","","99.73","","","","-9","","Clear"
"2003-03-30 20:00","2003","03","30","20:00","-2.4","","-10.7","","53","","33","","24","","24.1","","99.78","","","","-9","","Clear"
"2003-03-30 21:00","2003","03","30","21:00","-2.9","","-10.8","","54","","34","","22","","24.1","","99.78","","","","-9","","Clear"
"2003-03-30 22:00","2003","03","30","22:00","-3.3","","-10.9","","56","","33","","26","","24.1","","99.78","","","","-10","","Clear"
"2003-03-30 23:00","2003","03","30","23:00","-3.8","","-10.6","","59","","33","","22","","24.1","","99.76","","","","-10","","Clear"
"2003-03-31 00:00","2003","03","31","00:00","-4.0","","-9.9","","63","","34","","22","","24.1","","99.75","","","","-11","","Clear"
"2003-03-31 01:00","2003","03","31","01:00","-4.3","","-10.0","","64","","33","","19","","24.1","","99.73","","","","-10","","Clear"
"2003-03-31 02:00","2003","03","31","02:00","-4.3","","-9.9","","65","","33","","20","","24.1","","99.68","","","","-11","","Mainly Clear"
"2003-03-31 03:00","2003","03","31","03:00","-5.2","","-9.9","","70","","32","","13","","24.1","","99.63","","","","-10","","Clear"
"2003-03-31 04:00","2003","03","31","04:00","-5.8","","-10.1","","72","","31","","11","","24.1","","99.57","","","","-11","","Clear"
"2003-03-31 05:00","2003","03","31","05:00","-6.9","","-10.5","","75","","29","","9","","24.1","","99.56","","","","-11","","Mainly Clear"
"2003-03-31 06:00","2003","03","31","06:00","-6.6","","-10.2","","76","","28","","6","","24.1","","99.54","","","","-10","","Clear"
"2003-03-31 07:00","2003","03","31","07:00","-5.0","","-8.8","","75","","28","","9","","24.1","","99.55","","","","-9","","Mainly Clear"
"2003-03-31 08:00","2003","03","31","08:00","-3.2","","-8.4","","67","","27","","9","","24.1","","99.54","","","","-7","","Mostly Cloudy"
"2003-03-31 09:00","2003","03","31","09:00","-2.8","","-7.9","","68","","27","","9","","19.3","","99.50","","","","-6","","Snow Showers"
"2003-03-31 10:00","2003","03","31","10:00","-1.1","","-7.3","","63","","23","","13","","24.1","","99.47","","","","-5","","Snow Showers"
"2003-03-31 11:00","2003","03","31","11:00","-1.6","","-5.0","","78","","19","","7","","12.9","","99.40","","","","-4","","Snow Showers"
"2003-03-31 12:00","2003","03","31","12:00","-0.2","","-4.2","","74","","29","","46","","24.1","","99.33","","","","-8","","Mostly Cloudy"
"2003-03-31 13:00","2003","03","31","13:00","1.6","","-9.1","","45","","29","","35","","24.1","","99.30","","","","","","Mostly Cloudy"
"2003-03-31 14:00","2003","03","31","14:00","0.3","","-7.9","","54","","35","","37","","24.1","","99.33","","","","","","Mostly Cloudy"
"2003-03-31 15:00","2003","03","31","15:00","-0.7","","-8.6","","55","","34","","43","","24.1","","99.43","","","","-9","","Mainly Clear"
"2003-03-31 16:00","2003","03","31","16:00","-1.0","","-10.9","","47","","34","","30","","24.1","","99.48","","","","-8","","Mainly Clear"
"2003-03-31 17:00","2003","03","31","17:00","-0.8","","-11.9","","43","","31","","33","","24.1","","99.48","","","","-8","","Mainly Clear"
"2003-03-31 18:00","2003","03","31","18:00","-2.0","","-12.8","","43","","30","","30","","24.1","","99.53","","","","-9","","Mainly Clear"
"2003-03-31 19:00","2003","03","31","19:00","-2.7","","-12.6","","46","","30","","26","","24.1","","99.60","","","","-10","","Mainly Clear"
"2003-03-31 20:00","2003","03","31","20:00","-3.6","","-13.2","","47","","31","","26","","24.1","","99.69","","","","-11","","Clear"
"2003-03-31 21:00","2003","03","31","21:00","-4.7","","-12.7","","54","","32","","15","","24.1","","99.71","","","","-10","","Clear"
"2003-03-31 22:00","2003","03","31","22:00","-5.7","","-13.0","","56","","29","","9","","24.1","","99.73","","","","-10","","Clear"
"2003-03-31 23:00","2003","03","31","23:00","-5.4","","-12.5","","57","","","","0","","24.1","","99.68","","","","","","Mainly Clear"
