"Station Name","TORONTO LESTER B. PEARSON INT'L A"
"Province","ONTARIO"
"Latitude","43.68"
"Longitude","-79.63"
"Elevation","173.40"
"Climate Identifier","6158733"
"WMO Identifier","71624"
"TC Identifier","YYZ"
"All times are specified in Local Standard Time (LST). Add 1 hour to adjust for Daylight Saving Time where and when it is observed."

"Legend"
"E","Estimated"
"M","Missing"
"NA","Not Available"

"Date/Time","Year","Month","Day","Time","Temp (°C)","Temp Flag","Dew Point Temp (°C)","Dew Point Temp Flag","Rel Hum (%)","Rel Hum Flag","Wind Dir (10s deg)","Wind Dir Flag","Wind Spd (km/h)","Wind Spd Flag","Visibility (km)","Visibility Flag","Stn Press (kPa)","Stn Press Flag","Hmdx","Hmdx Flag","Wind Chill","Wind Chill Flag","Weather"
"1997-03-01 00:00","1997","03","01","00:00","-0.9","","-3.3","","84","","11","","9","","24.1","","100.32","","","","-4","","Cloudy"
"1997-03-01 01:00","1997","03","01","01:00","-0.9","","-3.3","","84","","10","","4","","19.3","","100.25","","","","-2","","Cloudy"
"1997-03-01 02:00","1997","03","01","02:00","-0.1","","-3.0","","81","","9","","15","","19.3","","100.15","","","","-5","","Cloudy"
"1997-03-01 03:00","1997","03","01","03:00","0.3","","-2.6","","81","","9","","17","","19.3","","100.02","","","","","","Cloudy"
"1997-03-01 04:00","1997","03","01","04:00","0.7","","-2.0","","82","","9","","19","","19.3","","99.95","","","","","","Cloudy"
"1997-03-01 05:00","1997","03","01","05:00","0.5","","-1.9","","84","","10","","15","","16.1","","99.79","","","","","","Cloudy"
"1997-03-01 06:00","1997","03","01","06:00","0.7","","-1.7","","84","","8","","20","","12.9","","99.62","","","","","","Cloudy"
"1997-03-01 07:00","1997","03","01","07:00","0.9","","-1.3","","85","","10","","13","","9.7","","99.55","","","","","","Haze"
"1997-03-01 08:00","1997","03","01","08:00","1.1","","-1.0","","86","","9","","19","","9.7","","99.39","","","","","","Rain,Fog"
"1997-03-01 09:00","1997","03","01","09:00","1.6","","-0.5","","86","","9","","13","","11.3","","99.19","","","","","","Rain"
"1997-03-01 10:00","1997","03","01","10:00","1.9","","0.0","","87","","11","","15","","6.4","","99.09","","","","","","Rain,Fog"
"1997-03-01 11:00","1997","03","01","11:00","2.3","","1.0","","91","","","","0","","2.4","","99.02","","","","","","Rain,Fog"
"1997-03-01 12:00","1997","03","01","12:00","2.7","","1.7","","93","","15","","6","","1.2","","98.96","","","","","","Drizzle,Fog"
"1997-03-01 13:00","1997","03","01","13:00","2.8","","2.0","","94","","20","","7","","0.4","","98.89","","","","","","Drizzle,Fog"
"1997-03-01 14:00","1997","03","01","14:00","3.4","","2.7","","95","","","","0","","1.2","","98.79","","","","","","Fog"
"1997-03-01 15:00","1997","03","01","15:00","5.3","","4.4","","94","","12","","7","","1.6","","98.69","","","","","","Fog"
"1997-03-01 16:00","1997","03","01","16:00","10.6","","10.0","","96","","23","","22","","6.4","","98.69","","","","","","Fog"
"1997-03-01 17:00","1997","03","01","17:00","11.2","","10.1","","93","","23","","15","","6.4","","98.59","","","","","","Fog"
"1997-03-01 18:00","1997","03","01","18:00","11.7","","10.3","","91","","23","","15","","8.0","","98.59","","","","","","Fog"
"1997-03-01 19:00","1997","03","01","19:00","9.9","","9.2","","95","","16","","11","","6.4","","98.59","","","","","","Fog"
"1997-03-01 20:00","1997","03","01","20:00","8.3","","7.2","","93","","13","","7","","1.6","","98.52","","","","","","Fog"
"1997-03-01 21:00","1997","03","01","21:00","7.2","","6.2","","93","","12","","7","","0.4","","98.42","","","","","","Fog"
"1997-03-01 22:00","1997","03","01","22:00","7.6","","7.2","","97","","16","","4","","0.2","","98.32","","","","","","Fog"
"1997-03-01 23:00","1997","03","01","23:00","7.2","","6.5","","95","","15","","6","","0.2","","98.32","","","","","","Fog"
"1997-03-02 00:00","1997","03","02","00:00","7.7","","7.1","","96","","19","","6","","0.2","","98.29","","","","","","Fog"
"1997-03-02 01:00","1997","03","02","01:00","9.3","","8.8","","97","","20","","13","","2.4","","98.19","","","","","","Rain Showers,Fog"
"1997-03-02 02:00","1997","03","02","02:00","9.8","","9.1","","95","","24","","11","","3.2","","98.12","","","","","","Rain,Fog"
"1997-03-02 03:00","1997","03","02","03:00","8.9","","8.4","","97","","23","","4","","1.6","","98.02","","","","","","Fog"
"1997-03-02 04:00","1997","03","02","04:00","9.0","","8.0","","93","","27","","19","","8.0","","98.02","","","","","","Fog"
"1997-03-02 05:00","1997","03","02","05:00","8.5","","6.5","","87","","27","","20","","12.9","","98.02","","","","","","Cloudy"
"1997-03-02 06:00","1997","03","02","06:00","7.5","","4.6","","82","","28","","33","","12.9","","98.09","","","","","","Mostly Cloudy"
"1997-03-02 07:00","1997","03","02","07:00","5.6","","2.3","","79","","29","","35","","12.9","","98.22","","","","","","Mostly Cloudy"
"1997-03-02 08:00","1997","03","02","08:00","4.2","","-0.2","","73","","31","","35","","19.3","","98.39","","","","","","Cloudy"
"1997-03-02 09:00","1997","03","02","09:00","3.7","","-0.9","","72","","31","","35","","24.1","","98.52","","","","","","Cloudy"
"1997-03-02 10:00","1997","03","02","10:00","3.4","","-1.4","","71","","30","","35","","24.1","","98.59","","","","","","Cloudy"
"1997-03-02 11:00","1997","03","02","11:00","3.0","","-1.2","","74","","29","","26","","24.1","","98.79","","","","","","Rain"
"1997-03-02 12:00","1997","03","02","12:00","1.9","","-2.1","","75","","30","","26","","40.2","","98.86","","","","","","Cloudy"
"1997-03-02 13:00","1997","03","02","13:00","2.8","","-3.6","","63","","30","","32","","40.2","","99.02","","","","","","Cloudy"
"1997-03-02 14:00","1997","03","02","14:00","2.2","","-4.3","","62","","30","","33","","40.2","","99.02","","","","","","Snow"
"1997-03-02 15:00","1997","03","02","15:00","2.1","","-5.0","","59","","30","","32","","32.2","","99.16","","","","","","Snow"
"1997-03-02 16:00","1997","03","02","16:00","1.8","","-4.4","","63","","30","","33","","32.2","","99.29","","","","","","Snow"
"1997-03-02 17:00","1997","03","02","17:00","1.6","","-4.8","","62","","30","","33","","32.2","","99.39","","","","","","Cloudy"
"1997-03-02 18:00","1997","03","02","18:00","1.2","","-5.1","","63","","30","","30","","32.2","","99.52","","","","","","Mainly Clear"
"1997-03-02 19:00","1997","03","02","19:00","0.6","","-5.9","","62","","30","","24","","25.0","","99.62","","","","","","Mainly Clear"
"1997-03-02 20:00","1997","03","02","20:00","-0.1","","-6.0","","64","","31","","20","","25.0","","99.82","","","","-5","","Mainly Clear"
"1997-03-02 21:00","1997","03","02","21:00","-0.8","","-5.7","","69","","31","","19","","25.0","","99.89","","","","-6","","Mainly Clear"
"1997-03-02 22:00","1997","03","02","22:00","-1.4","","-6.4","","69","","30","","15","","25.0","","99.92","","","","-6","","Clear"
"1997-03-02 23:00","1997","03","02","23:00","-1.8","","-6.7","","69","","30","","11","","25.0","","99.99","","","","-6","","Clear"
"1997-03-03 00:00","1997","03","03","00:00","-2.5","","-6.6","","73","","29","","9","","25.0","","100.02","","","","-6","","Clear"
"1997-03-03 01:00","1997","03","03","01:00","-2.8","","-6.6","","75","","32","","9","","25.0","","100.02","","","","-6","","Clear"
"1997-03-03 02:00","1997","03","03","02:00","-3.7","","-6.5","","81","","35","","7","","25.0","","100.05","","","","-7","","Clear"
"1997-03-03 03:00","1997","03","03","03:00","-3.6","","-6.4","","81","","","","0","","25.0","","100.19","","","","","","Clear"
"1997-03-03 04:00","1997","03","03","04:00","-3.7","","-6.7","","80","","35","","6","","25.0","","100.09","","","","-6","","Clear"
"1997-03-03 05:00","1997","03","03","05:00","-3.6","","-6.5","","80","","5","","7","","25.0","","100.12","","","","-7","","Mostly Cloudy"
"1997-03-03 06:00","1997","03","03","06:00","-2.8","","-7.2","","72","","4","","9","","25.0","","100.19","","","","-6","","Mostly Cloudy"
"1997-03-03 07:00","1997","03","03","07:00","-2.7","","-8.0","","67","","6","","15","","24.1","","100.19","","","","-8","","Cloudy"
"1997-03-03 08:00","1997","03","03","08:00","-2.6","","-8.0","","66","","5","","13","","32.2","","100.29","","","","-7","","Cloudy"
"1997-03-03 09:00","1997","03","03","09:00","-2.0","","-7.6","","65","","4","","15","","32.2","","100.25","","","","-7","","Cloudy"
"1997-03-03 10:00","1997","03","03","10:00","-1.6","","-7.9","","62","","8","","22","","40.2","","100.22","","","","-8","","Cloudy"
"1997-03-03 11:00","1997","03","03","11:00","-1.0","","-6.6","","66","","9","","22","","40.2","","100.15","","","","-7","","Cloudy"
"1997-03-03 12:00","1997","03","03","12:00","-1.0","","-6.8","","65","","8","","22","","40.2","","100.15","","","","-7","","Cloudy"
"1997-03-03 13:00","1997","03","03","13:00","-0.9","","-7.0","","63","","11","","22","","40.2","","100.05","","","","-7","","Cloudy"
"1997-03-03 14:00","1997","03","03","14:00","-0.6","","-6.6","","64","","10","","26","","32.2","","99.92","","","","-7","","Mostly Cloudy"
"1997-03-03 15:00","1997","03","03","15:00","-0.9","","-8.0","","59","","8","","19","","32.2","","99.92","","","","-6","","Mostly Cloudy"
"1997-03-03 16:00","1997","03","03","16:00","-0.7","","-7.8","","59","","8","","24","","32.2","","99.92","","","","-7","","Mostly Cloudy"
"1997-03-03 17:00","1997","03","03","17:00","-1.1","","-8.8","","56","","9","","26","","32.2","","99.92","","","","-7","","Mostly Cloudy"
"1997-03-03 18:00","1997","03","03","18:00","-1.4","","-10.0","","52","","10","","22","","32.2","","99.95","","","","-7","","Mostly Cloudy"
"1997-03-03 19:00","1997","03","03","19:00","-1.6","","-9.5","","55","","9","","17","","25.0","","100.02","","","","-7","","Mostly Cloudy"
"1997-03-03 20:00","1997","03","03","20:00","-1.4","","-9.5","","54","","9","","19","","25.0","","99.99","","","","-7","","Mostly Cloudy"
"1997-03-03 21:00","1997","03","03","21:00","-1.5","","-9.9","","53","","8","","15","","25.0","","99.95","","","","-6","","Mostly Cloudy"
"1997-03-03 22:00","1997","03","03","22:00","-1.7","","-9.6","","55","","9","","19","","25.0","","99.89","","","","-7","","Mostly Cloudy"
"1997-03-03 23:00","1997","03","03","23:00","-2.0","","-9.9","","55","","9","","19","","25.0","","99.82","","","","-8","","Mostly Cloudy"
"1997-03-04 00:00","1997","03","04","00:00","-2.1","","-9.4","","57","","8","","19","","25.0","","99.75","","","","-8","","Mostly Cloudy"
"1997-03-04 01:00","1997","03","04","01:00","-2.1","","-9.0","","59","","8","","19","","24.1","","99.72","","","","-8","","Cloudy"
"1997-03-04 02:00","1997","03","04","02:00","-2.3","","-8.6","","62","","9","","26","","24.1","","99.69","","","","-9","","Cloudy"
"1997-03-04 03:00","1997","03","04","03:00","-2.4","","-7.1","","70","","9","","24","","14.5","","99.59","","","","-9","","Snow"
"1997-03-04 04:00","1997","03","04","04:00","-2.4","","-6.2","","75","","10","","13","","14.5","","99.55","","","","-7","","Snow"
"1997-03-04 05:00","1997","03","04","05:00","-2.1","","-5.7","","76","","9","","19","","9.7","","99.52","","","","-8","","Snow"
"1997-03-04 06:00","1997","03","04","06:00","-2.1","","-5.2","","79","","8","","15","","11.3","","99.49","","","","-7","","Snow"
"1997-03-04 07:00","1997","03","04","07:00","-1.8","","-4.4","","82","","4","","9","","12.9","","99.39","","","","-5","","Snow"
"1997-03-04 08:00","1997","03","04","08:00","-2.2","","-5.1","","80","","1","","11","","12.9","","99.49","","","","-6","","Snow,Ice Pellets"
"1997-03-04 09:00","1997","03","04","09:00","-2.3","","-5.2","","80","","1","","11","","9.7","","99.42","","","","-6","","Snow,Snow Grains"
"1997-03-04 10:00","1997","03","04","10:00","-2.1","","-4.9","","81","","32","","9","","11.3","","99.49","","","","-6","","Snow"
"1997-03-04 11:00","1997","03","04","11:00","-1.7","","-4.5","","81","","31","","6","","11.3","","99.49","","","","-4","","Snow"
"1997-03-04 12:00","1997","03","04","12:00","0.0","","-3.3","","78","","24","","7","","9.7","","99.45","","","","-2","","Haze"
"1997-03-04 13:00","1997","03","04","13:00","1.5","","-2.0","","78","","25","","13","","11.3","","99.45","","","","","","Cloudy"
"1997-03-04 14:00","1997","03","04","14:00","2.2","","-1.9","","74","","27","","15","","12.9","","99.45","","","","","","Cloudy"
"1997-03-04 15:00","1997","03","04","15:00","2.0","","-1.9","","75","","26","","20","","12.9","","99.49","","","","","","Cloudy"
"1997-03-04 16:00","1997","03","04","16:00","1.9","","-1.9","","76","","27","","15","","12.9","","99.55","","","","","","Cloudy"
"1997-03-04 17:00","1997","03","04","17:00","2.0","","-2.9","","70","","26","","15","","16.1","","99.62","","","","","","Mostly Cloudy"
"1997-03-04 18:00","1997","03","04","18:00","1.7","","-3.8","","67","","26","","11","","19.3","","99.69","","","","","","Mostly Cloudy"
"1997-03-04 19:00","1997","03","04","19:00","1.4","","-3.6","","69","","25","","11","","19.3","","99.75","","","","","","Mostly Cloudy"
"1997-03-04 20:00","1997","03","04","20:00","1.1","","-3.9","","69","","23","","6","","19.3","","99.75","","","","","","Mostly Cloudy"
"1997-03-04 21:00","1997","03","04","21:00","0.9","","-3.5","","72","","25","","4","","12.9","","99.75","","","","","","Cloudy"
"1997-03-04 22:00","1997","03","04","22:00","1.1","","-3.8","","70","","","","0","","12.9","","99.79","","","","","","Cloudy"
"1997-03-04 23:00","1997","03","04","23:00","1.2","","-3.3","","72","","","","0","","11.3","","99.79","","","","","","Ice Pellets"
"1997-03-05 00:00","1997","03","05","00:00","1.0","","-3.4","","72","","","","0","","12.9","","99.79","","","","","","Snow Grains"
"1997-03-05 01:00","1997","03","05","01:00","0.7","","-2.1","","81","","9","","7","","12.9","","99.75","","","","","","Snow"
"1997-03-05 02:00","1997","03","05","02:00","0.8","","-2.2","","80","","8","","4","","11.3","","99.79","","","","","","Cloudy"
"1997-03-05 03:00","1997","03","05","03:00","1.3","","-2.8","","74","","8","","7","","11.3","","99.72","","","","","","Cloudy"
"1997-03-05 04:00","1997","03","05","04:00","0.8","","-2.2","","80","","9","","11","","11.3","","99.69","","","","","","Cloudy"
"1997-03-05 05:00","1997","03","05","05:00","1.0","","-2.3","","79","","5","","7","","11.3","","99.69","","","","","","Cloudy"
"1997-03-05 06:00","1997","03","05","06:00","1.0","","-1.8","","82","","6","","6","","11.3","","99.69","","","","","","Cloudy"
"1997-03-05 07:00","1997","03","05","07:00","0.8","","-1.5","","85","","4","","6","","8.0","","99.75","","","","","","Haze"
"1997-03-05 08:00","1997","03","05","08:00","1.0","","-1.6","","83","","4","","11","","9.7","","99.72","","","","","","Haze"
"1997-03-05 09:00","1997","03","05","09:00","0.8","","-1.8","","83","","3","","13","","6.4","","99.79","","","","","","Haze"
"1997-03-05 10:00","1997","03","05","10:00","1.2","","-2.1","","79","","4","","9","","8.0","","99.75","","","","","","Haze"
"1997-03-05 11:00","1997","03","05","11:00","2.0","","-1.9","","75","","4","","6","","9.7","","99.75","","","","","","Haze"
"1997-03-05 12:00","1997","03","05","12:00","2.4","","-2.0","","73","","3","","4","","11.3","","99.69","","","","","","Cloudy"
"1997-03-05 13:00","1997","03","05","13:00","2.5","","-1.7","","74","","1","","15","","11.3","","99.62","","","","","","Cloudy"
"1997-03-05 14:00","1997","03","05","14:00","2.8","","-1.9","","71","","5","","15","","11.3","","99.49","","","","","","Cloudy"
"1997-03-05 15:00","1997","03","05","15:00","3.0","","-1.9","","70","","8","","11","","12.9","","99.45","","","","","","Cloudy"
"1997-03-05 16:00","1997","03","05","16:00","2.6","","-1.9","","72","","11","","13","","12.9","","99.39","","","","","","Cloudy"
"1997-03-05 17:00","1997","03","05","17:00","1.9","","-2.5","","73","","9","","20","","11.3","","99.29","","","","","","Cloudy"
"1997-03-05 18:00","1997","03","05","18:00","1.4","","-2.2","","77","","9","","19","","9.7","","99.19","","","","","","Snow,Haze"
"1997-03-05 19:00","1997","03","05","19:00","0.2","","-1.8","","86","","9","","15","","2.8","","99.16","","","","","","Snow"
"1997-03-05 20:00","1997","03","05","20:00","0.0","","-1.6","","89","","6","","9","","2.8","","99.02","","","","-3","","Snow"
"1997-03-05 21:00","1997","03","05","21:00","-0.4","","-2.0","","89","","7","","17","","2.8","","98.86","","","","-5","","Snow"
"1997-03-05 22:00","1997","03","05","22:00","-1.0","","-2.7","","88","","2","","13","","3.6","","98.82","","","","-5","","Snow"
"1997-03-05 23:00","1997","03","05","23:00","-1.1","","-2.9","","88","","1","","13","","2.8","","98.66","","","","-5","","Snow"
"1997-03-06 00:00","1997","03","06","00:00","-1.5","","-3.3","","88","","2","","15","","1.6","","98.49","","","","-6","","Snow"
"1997-03-06 01:00","1997","03","06","01:00","-1.8","","-3.6","","87","","1","","24","","1.2","","98.42","","","","-8","","Snow"
"1997-03-06 02:00","1997","03","06","02:00","-2.4","","-4.3","","87","","35","","28","","2.0","","98.46","","","","-9","","Snow"
"1997-03-06 03:00","1997","03","06","03:00","-2.3","","-4.3","","86","","33","","22","","3.2","","98.49","","","","-8","","Snow"
"1997-03-06 04:00","1997","03","06","04:00","-2.4","","-4.4","","86","","32","","20","","4.8","","98.49","","","","-8","","Snow"
"1997-03-06 05:00","1997","03","06","05:00","-1.8","","-4.5","","82","","33","","22","","9.7","","98.52","","","","-8","","Snow"
"1997-03-06 06:00","1997","03","06","06:00","-1.8","","-5.1","","78","","32","","20","","16.1","","98.62","","","","-8","","Cloudy"
"1997-03-06 07:00","1997","03","06","07:00","-2.7","","-5.5","","81","","31","","11","","19.3","","98.69","","","","-7","","Cloudy"
"1997-03-06 08:00","1997","03","06","08:00","-1.1","","-4.8","","76","","32","","22","","19.3","","98.76","","","","-7","","Cloudy"
"1997-03-06 09:00","1997","03","06","09:00","-1.0","","-4.9","","75","","32","","20","","24.1","","98.82","","","","-7","","Mostly Cloudy"
"1997-03-06 10:00","1997","03","06","10:00","-0.9","","-5.6","","70","","31","","24","","24.1","","98.86","","","","-7","","Mostly Cloudy"
"1997-03-06 11:00","1997","03","06","11:00","0.0","","-5.2","","68","","30","","30","","32.2","","98.89","","","","-6","","Mostly Cloudy"
"1997-03-06 12:00","1997","03","06","12:00","-0.3","","-4.1","","75","","29","","33","","11.3","","98.96","","","","-7","","Snow Showers"
"1997-03-06 13:00","1997","03","06","13:00","-0.1","","-6.8","","61","","29","","37","","32.2","","98.96","","","","-7","","Mainly Clear"
"1997-03-06 14:00","1997","03","06","14:00","-0.7","","-7.1","","62","","29","","41","","24.1","","98.99","","","","-8","","Mostly Cloudy"
"1997-03-06 15:00","1997","03","06","15:00","-1.3","","-8.8","","57","","29","","44","","32.2","","99.06","","","","-9","","Mainly Clear"
"1997-03-06 16:00","1997","03","06","16:00","-1.2","","-8.8","","56","","29","","37","","32.2","","99.12","","","","-9","","Mainly Clear"
"1997-03-06 17:00","1997","03","06","17:00","-1.5","","-9.0","","57","","29","","33","","32.2","","99.19","","","","-9","","Mainly Clear"
"1997-03-06 18:00","1997","03","06","18:00","-2.0","","-8.7","","60","","29","","28","","32.2","","99.26","","","","-9","","Mostly Cloudy"
"1997-03-06 19:00","1997","03","06","19:00","-2.6","","-7.9","","67","","28","","24","","24.1","","99.29","","","","-9","","Mostly Cloudy"
"1997-03-06 20:00","1997","03","06","20:00","-2.9","","-8.0","","68","","28","","22","","24.1","","99.39","","","","-9","","Mostly Cloudy"
"1997-03-06 21:00","1997","03","06","21:00","-3.3","","-6.6","","78","","27","","17","","12.9","","99.39","","","","-9","","Snow Showers"
"1997-03-06 22:00","1997","03","06","22:00","-3.4","","-6.0","","82","","28","","20","","2.4","","99.49","","","","-10","","Snow Showers"
"1997-03-06 23:00","1997","03","06","23:00","-4.0","","-8.2","","73","","29","","28","","19.3","","99.55","","","","-11","","Snow"
"1997-03-07 00:00","1997","03","07","00:00","-4.7","","-10.4","","64","","29","","37","","24.1","","99.62","","","","-13","","Mainly Clear"
"1997-03-07 01:00","1997","03","07","01:00","-5.6","","-11.4","","64","","31","","41","","12.9","","99.79","","","","-15","","Snow"
"1997-03-07 02:00","1997","03","07","02:00","-6.4","","-12.6","","61","","31","","32","","24.1","","99.89","","","","-15","","Mainly Clear"
"1997-03-07 03:00","1997","03","07","03:00","-6.9","","-12.9","","62","","31","","33","","24.1","","100.02","","","","-16","","Clear"
"1997-03-07 04:00","1997","03","07","04:00","-7.6","","-13.7","","62","","30","","26","","24.1","","100.12","","","","-16","","Mainly Clear"
"1997-03-07 05:00","1997","03","07","05:00","-8.3","","-14.5","","61","","29","","22","","24.1","","100.29","","","","-16","","Clear"
"1997-03-07 06:00","1997","03","07","06:00","-8.9","","-15.1","","61","","30","","17","","24.1","","100.39","","","","-16","","Clear"
"1997-03-07 07:00","1997","03","07","07:00","-9.5","","-15.1","","64","","27","","17","","24.1","","100.42","","","","-17","","Clear"
"1997-03-07 08:00","1997","03","07","08:00","-9.0","","-14.2","","66","","25","","17","","32.2","","100.55","","","","-16","","Mainly Clear"
"1997-03-07 09:00","1997","03","07","09:00","-7.6","","-13.2","","64","","26","","19","","24.1","","100.65","","","","-15","","Cloudy"
"1997-03-07 10:00","1997","03","07","10:00","-6.8","","-12.1","","66","","27","","6","","24.1","","100.69","","","","-10","","Snow Showers"
"1997-03-07 11:00","1997","03","07","11:00","-4.8","","-10.0","","67","","27","","15","","24.1","","100.65","","","","-10","","Mostly Cloudy"
"1997-03-07 12:00","1997","03","07","12:00","-3.6","","-11.6","","54","","26","","19","","32.2","","100.62","","","","-10","","Mainly Clear"
"1997-03-07 13:00","1997","03","07","13:00","-3.2","","-10.2","","58","","27","","28","","32.2","","100.62","","","","-10","","Mainly Clear"
"1997-03-07 14:00","1997","03","07","14:00","-3.5","","-10.5","","58","","25","","30","","32.2","","100.55","","","","-11","","Mostly Cloudy"
"1997-03-07 15:00","1997","03","07","15:00","-3.5","","-11.3","","55","","27","","24","","32.2","","100.55","","","","-10","","Mostly Cloudy"
"1997-03-07 16:00","1997","03","07","16:00","-3.4","","-11.3","","54","","26","","19","","32.2","","100.52","","","","-9","","Mainly Clear"
"1997-03-07 17:00","1997","03","07","17:00","-3.2","","-11.7","","52","","26","","19","","32.2","","100.49","","","","-9","","Clear"
"1997-03-07 18:00","1997","03","07","18:00","-4.0","","-11.5","","56","","24","","17","","32.2","","100.39","","","","-10","","Mainly Clear"
"1997-03-07 19:00","1997","03","07","19:00","-4.5","","-12.3","","54","","25","","11","","25.0","","100.45","","","","-9","","Mostly Cloudy"
"1997-03-07 20:00","1997","03","07","20:00","-4.6","","-12.1","","56","","25","","9","","25.0","","100.39","","","","-8","","Cloudy"
"1997-03-07 21:00","1997","03","07","21:00","-4.4","","-11.6","","57","","24","","9","","25.0","","100.32","","","","-8","","Cloudy"
"1997-03-07 22:00","1997","03","07","22:00","-5.1","","-8.3","","78","","26","","2","","24.1","","100.29","","","","-6","","Cloudy"
"1997-03-07 23:00","1997","03","07","23:00","-5.0","","-8.0","","79","","","","0","","12.9","","100.22","","","","","","Snow"
"1997-03-08 00:00","1997","03","08","00:00","-4.9","","-7.8","","80","","","","0","","16.1","","100.12","","","","","","Snow"
"1997-03-08 01:00","1997","03","08","01:00","-4.2","","-7.3","","79","","","","0","","12.9","","100.02","","","","","","Snow"
"1997-03-08 02:00","1997","03","08","02:00","-3.9","","-7.2","","78","","8","","4","","12.9","","99.99","","","","-6","","Snow"
"1997-03-08 03:00","1997","03","08","03:00","-4.3","","-6.6","","84","","8","","7","","4.0","","99.82","","","","-7","","Snow"
"1997-03-08 04:00","1997","03","08","04:00","-4.4","","-6.3","","87","","10","","11","","1.2","","99.69","","","","-9","","Snow"
"1997-03-08 05:00","1997","03","08","05:00","-4.1","","-6.0","","87","","5","","9","","1.2","","99.69","","","","-8","","Snow"
"1997-03-08 06:00","1997","03","08","06:00","-4.1","","-6.0","","87","","4","","11","","1.2","","99.65","","","","-9","","Snow"
"1997-03-08 07:00","1997","03","08","07:00","-4.2","","-6.3","","85","","3","","11","","2.4","","99.62","","","","-9","","Snow"
"1997-03-08 08:00","1997","03","08","08:00","-4.2","","-6.2","","86","","2","","19","","1.2","","99.69","","","","-10","","Snow"
"1997-03-08 09:00","1997","03","08","09:00","-4.4","","-6.6","","85","","2","","19","","1.6","","99.79","","","","-11","","Snow"
"1997-03-08 10:00","1997","03","08","10:00","-4.1","","-6.6","","83","","36","","19","","6.4","","99.89","","","","-10","","Snow"
"1997-03-08 11:00","1997","03","08","11:00","-3.0","","-6.9","","74","","35","","19","","24.1","","99.95","","","","-9","","Mainly Clear"
"1997-03-08 12:00","1997","03","08","12:00","-2.9","","-6.8","","74","","34","","24","","24.1","","100.09","","","","-10","","Mainly Clear"
"1997-03-08 13:00","1997","03","08","13:00","-2.4","","-7.1","","70","","33","","22","","32.2","","100.22","","","","-9","","Mainly Clear"
"1997-03-08 14:00","1997","03","08","14:00","-2.3","","-8.0","","65","","34","","15","","32.2","","100.29","","","","-7","","Mainly Clear"
"1997-03-08 15:00","1997","03","08","15:00","-2.1","","-7.6","","66","","34","","22","","19.3","","100.39","","","","-8","","Mainly Clear"
"1997-03-08 16:00","1997","03","08","16:00","-2.8","","-8.6","","64","","35","","28","","24.1","","100.55","","","","-10","","Mostly Cloudy"
"1997-03-08 17:00","1997","03","08","17:00","-3.4","","-11.2","","55","","34","","26","","32.2","","100.72","","","","-10","","Clear"
"1997-03-08 18:00","1997","03","08","18:00","-4.2","","-11.5","","57","","36","","22","","40.2","","100.82","","","","-11","","Clear"
"1997-03-08 19:00","1997","03","08","19:00","-5.6","","-11.8","","62","","33","","19","","25.0","","100.95","","","","-12","","Clear"
"1997-03-08 20:00","1997","03","08","20:00","-6.4","","-11.8","","65","","35","","15","","25.0","","101.05","","","","-12","","Clear"
"1997-03-08 21:00","1997","03","08","21:00","-8.6","","-13.1","","70","","32","","17","","25.0","","101.12","","","","-15","","Clear"
"1997-03-08 22:00","1997","03","08","22:00","-9.2","","-13.8","","69","","32","","13","","25.0","","101.19","","","","-15","","Clear"
"1997-03-08 23:00","1997","03","08","23:00","-10.3","","-14.4","","72","","33","","13","","25.0","","101.29","","","","-17","","Clear"
"1997-03-09 00:00","1997","03","09","00:00","-10.7","","-15.2","","69","","35","","11","","25.0","","101.29","","","","-16","","Clear"
"1997-03-09 01:00","1997","03","09","01:00","-9.7","","-14.5","","68","","36","","13","","25.0","","101.29","","","","-16","","Clear"
"1997-03-09 02:00","1997","03","09","02:00","-11.2","","-15.7","","69","","36","","11","","25.0","","101.32","","","","-17","","Clear"
"1997-03-09 03:00","1997","03","09","03:00","-13.0","","-16.5","","75","","34","","7","","25.0","","101.32","","","","-18","","Clear"
"1997-03-09 04:00","1997","03","09","04:00","-14.0","","-17.7","","74","","35","","7","","25.0","","101.32","","","","-19","","Clear"
"1997-03-09 05:00","1997","03","09","05:00","-10.5","","-15.6","","66","","5","","11","","25.0","","101.32","","","","-16","","Clear"
"1997-03-09 06:00","1997","03","09","06:00","-7.7","","-13.4","","64","","7","","19","","25.0","","101.29","","","","-15","","Mainly Clear"
"1997-03-09 07:00","1997","03","09","07:00","-7.3","","-12.5","","66","","6","","17","","32.2","","101.19","","","","-14","","Mostly Cloudy"
"1997-03-09 08:00","1997","03","09","08:00","-6.0","","-10.3","","72","","8","","11","","32.2","","101.15","","","","-11","","Cloudy"
"1997-03-09 09:00","1997","03","09","09:00","-3.7","","-7.5","","75","","13","","37","","32.2","","101.12","","","","-12","","Mostly Cloudy"
"1997-03-09 10:00","1997","03","09","10:00","-3.1","","-7.4","","72","","13","","30","","32.2","","101.05","","","","-11","","Mostly Cloudy"
"1997-03-09 11:00","1997","03","09","11:00","-2.4","","-7.1","","70","","12","","26","","32.2","","100.99","","","","-9","","Mostly Cloudy"
"1997-03-09 12:00","1997","03","09","12:00","-1.8","","-7.2","","67","","12","","26","","32.2","","100.89","","","","-8","","Mostly Cloudy"
"1997-03-09 13:00","1997","03","09","13:00","-1.7","","-7.0","","67","","12","","22","","32.2","","100.65","","","","-8","","Cloudy"
"1997-03-09 14:00","1997","03","09","14:00","-1.6","","-6.1","","71","","13","","26","","24.1","","100.42","","","","-8","","Cloudy"
"1997-03-09 15:00","1997","03","09","15:00","-1.5","","-7.1","","66","","12","","30","","24.1","","100.22","","","","-8","","Cloudy"
"1997-03-09 16:00","1997","03","09","16:00","-1.4","","-6.9","","66","","10","","32","","24.1","","100.05","","","","-9","","Cloudy"
"1997-03-09 17:00","1997","03","09","17:00","-1.0","","-6.4","","67","","10","","35","","24.1","","99.79","","","","-8","","Cloudy"
"1997-03-09 18:00","1997","03","09","18:00","-0.7","","-5.8","","68","","10","","32","","24.1","","99.55","","","","-8","","Cloudy"
"1997-03-09 19:00","1997","03","09","19:00","-0.4","","-5.4","","69","","10","","24","","24.1","","99.39","","","","-6","","Cloudy"
"1997-03-09 20:00","1997","03","09","20:00","0.4","","-4.1","","72","","11","","33","","19.3","","98.99","","","","","","Ice Pellets"
"1997-03-09 21:00","1997","03","09","21:00","0.9","","-2.9","","76","","13","","24","","9.7","","98.86","","","","","","Snow,Ice Pellets"
"1997-03-09 22:00","1997","03","09","22:00","0.9","","-1.8","","82","","14","","19","","4.8","","98.69","","","","","","Rain,Fog"
"1997-03-09 23:00","1997","03","09","23:00","0.8","","-0.8","","89","","16","","13","","4.8","","98.49","","","","","","Rain,Drizzle,Fog"
"1997-03-10 00:00","1997","03","10","00:00","1.1","","0.0","","92","","22","","9","","2.8","","98.42","","","","","","Drizzle,Fog"
"1997-03-10 01:00","1997","03","10","01:00","2.7","","-0.1","","82","","28","","48","","16.1","","98.49","","","","","","Rain"
"1997-03-10 02:00","1997","03","10","02:00","2.5","","-1.4","","75","","29","","37","","19.3","","98.66","","","","","","Cloudy"
"1997-03-10 03:00","1997","03","10","03:00","2.5","","-2.2","","71","","29","","30","","24.1","","98.79","","","","","","Cloudy"
"1997-03-10 04:00","1997","03","10","04:00","2.4","","-2.2","","72","","26","","22","","25.0","","98.82","","","","","","Cloudy"
"1997-03-10 05:00","1997","03","10","05:00","2.2","","-3.5","","66","","29","","33","","25.0","","98.96","","","","","","Mostly Cloudy"
"1997-03-10 06:00","1997","03","10","06:00","2.1","","-3.3","","67","","26","","19","","25.0","","99.02","","","","","","Mostly Cloudy"
"1997-03-10 07:00","1997","03","10","07:00","1.2","","-3.0","","74","","25","","26","","24.1","","99.12","","","","","","Mostly Cloudy"
"1997-03-10 08:00","1997","03","10","08:00","1.2","","-3.7","","70","","25","","24","","24.1","","99.19","","","","","","Mainly Clear"
"1997-03-10 09:00","1997","03","10","09:00","1.5","","-3.7","","68","","26","","33","","24.1","","99.22","","","","","","Mainly Clear"
"1997-03-10 10:00","1997","03","10","10:00","1.9","","-3.7","","66","","27","","32","","24.1","","99.22","","","","","","Mostly Cloudy"
"1997-03-10 11:00","1997","03","10","11:00","2.5","","-3.9","","63","","27","","28","","32.2","","99.22","","","","","","Mostly Cloudy"
"1997-03-10 12:00","1997","03","10","12:00","2.9","","-3.8","","61","","26","","32","","40.2","","99.29","","","","","","Mostly Cloudy"
"1997-03-10 13:00","1997","03","10","13:00","3.3","","-3.9","","59","","27","","33","","40.2","","99.22","","","","","","Mostly Cloudy"
"1997-03-10 14:00","1997","03","10","14:00","3.6","","-4.0","","58","","26","","37","","40.2","","99.22","","","","","","Mostly Cloudy"
"1997-03-10 15:00","1997","03","10","15:00","3.3","","-3.9","","59","","26","","37","","32.2","","99.22","","","","","","Mostly Cloudy"
"1997-03-10 16:00","1997","03","10","16:00","3.2","","-3.8","","60","","28","","33","","32.2","","99.22","","","","","","Mostly Cloudy"
"1997-03-10 17:00","1997","03","10","17:00","3.4","","-3.2","","62","","27","","26","","32.2","","99.19","","","","","","Mostly Cloudy"
"1997-03-10 18:00","1997","03","10","18:00","2.5","","-3.6","","64","","28","","13","","24.1","","99.12","","","","","","Mainly Clear"
"1997-03-10 19:00","1997","03","10","19:00","2.4","","-3.2","","66","","28","","7","","24.1","","99.06","","","","","","Cloudy"
"1997-03-10 20:00","1997","03","10","20:00","2.0","","-2.3","","73","","27","","19","","24.1","","99.12","","","","","","Cloudy"
"1997-03-10 21:00","1997","03","10","21:00","1.2","","-1.3","","83","","25","","11","","16.1","","99.16","","","","","","Cloudy"
"1997-03-10 22:00","1997","03","10","22:00","1.2","","-1.0","","85","","22","","6","","16.1","","99.12","","","","","","Snow"
"1997-03-10 23:00","1997","03","10","23:00","0.9","","-0.9","","88","","","","0","","12.9","","98.96","","","","","","Snow"
"1997-03-11 00:00","1997","03","11","00:00","0.8","","-0.9","","88","","13","","7","","6.4","","98.79","","","","","","Snow"
"1997-03-11 01:00","1997","03","11","01:00","0.2","","-1.0","","92","","9","","6","","1.2","","98.72","","","","","","Snow"
"1997-03-11 02:00","1997","03","11","02:00","0.2","","-1.1","","91","","6","","9","","2.8","","98.66","","","","","","Snow"
"1997-03-11 03:00","1997","03","11","03:00","0.3","","-0.9","","92","","2","","15","","3.2","","98.62","","","","","","Snow"
"1997-03-11 04:00","1997","03","11","04:00","0.4","","-1.0","","90","","35","","13","","8.0","","98.62","","","","","","Snow,Fog"
"1997-03-11 05:00","1997","03","11","05:00","0.7","","-1.5","","85","","35","","22","","19.3","","98.72","","","","","","Cloudy"
"1997-03-11 06:00","1997","03","11","06:00","-0.7","","-4.1","","78","","34","","22","","24.1","","98.86","","","","-6","","Cloudy"
"1997-03-11 07:00","1997","03","11","07:00","-1.7","","-4.7","","80","","34","","17","","24.1","","98.99","","","","-7","","Clear"
"1997-03-11 08:00","1997","03","11","08:00","-1.8","","-4.8","","80","","34","","15","","24.1","","99.09","","","","-7","","Mainly Clear"
"1997-03-11 09:00","1997","03","11","09:00","-1.4","","-4.3","","81","","31","","15","","24.1","","99.19","","","","-6","","Mainly Clear"
"1997-03-11 10:00","1997","03","11","10:00","-0.8","","-4.4","","77","","33","","15","","24.1","","99.26","","","","-5","","Mostly Cloudy"
"1997-03-11 11:00","1997","03","11","11:00","-1.2","","-5.4","","73","","34","","22","","24.1","","99.32","","","","-7","","Mainly Clear"
"1997-03-11 12:00","1997","03","11","12:00","-0.9","","-6.8","","64","","33","","30","","32.2","","99.42","","","","-8","","Mainly Clear"
"1997-03-11 13:00","1997","03","11","13:00","-0.5","","-6.3","","65","","33","","30","","32.2","","99.52","","","","-7","","Mostly Cloudy"
"1997-03-11 14:00","1997","03","11","14:00","-0.6","","-6.8","","63","","32","","28","","32.2","","99.55","","","","-7","","Mainly Clear"
"1997-03-11 15:00","1997","03","11","15:00","-0.4","","-7.8","","57","","32","","30","","32.2","","99.65","","","","-7","","Mainly Clear"
"1997-03-11 16:00","1997","03","11","16:00","-0.7","","-8.1","","57","","30","","30","","32.2","","99.72","","","","-7","","Mainly Clear"
"1997-03-11 17:00","1997","03","11","17:00","-0.8","","-8.2","","57","","30","","28","","32.2","","99.79","","","","-7","","Clear"
"1997-03-11 18:00","1997","03","11","18:00","-1.5","","-8.8","","57","","30","","30","","32.2","","99.85","","","","-8","","Clear"
"1997-03-11 19:00","1997","03","11","19:00","-2.4","","-10.0","","56","","30","","26","","25.0","","99.95","","","","-9","","Clear"
"1997-03-11 20:00","1997","03","11","20:00","-3.0","","-9.3","","62","","30","","24","","25.0","","99.99","","","","-10","","Clear"
"1997-03-11 21:00","1997","03","11","21:00","-3.6","","-9.3","","65","","30","","19","","25.0","","100.05","","","","-10","","Clear"
"1997-03-11 22:00","1997","03","11","22:00","-4.3","","-9.1","","69","","27","","9","","25.0","","100.09","","","","-8","","Clear"
"1997-03-11 23:00","1997","03","11","23:00","-4.9","","-9.4","","71","","27","","11","","25.0","","100.12","","","","-9","","Clear"
"1997-03-12 00:00","1997","03","12","00:00","-5.0","","-9.9","","68","","26","","15","","25.0","","100.12","","","","-11","","Clear"
"1997-03-12 01:00","1997","03","12","01:00","-5.2","","-9.9","","70","","26","","20","","25.0","","100.15","","","","-12","","Clear"
"1997-03-12 02:00","1997","03","12","02:00","-5.5","","-9.5","","73","","27","","15","","25.0","","100.19","","","","-11","","Mainly Clear"
"1997-03-12 03:00","1997","03","12","03:00","-4.9","","-9.0","","73","","27","","22","","25.0","","100.15","","","","-12","","Mainly Clear"
"1997-03-12 04:00","1997","03","12","04:00","-5.1","","-9.1","","73","","28","","19","","25.0","","100.19","","","","-12","","Mainly Clear"
"1997-03-12 05:00","1997","03","12","05:00","-5.4","","-8.8","","77","","26","","15","","25.0","","100.22","","","","-11","","Clear"
"1997-03-12 06:00","1997","03","12","06:00","-5.8","","-9.1","","77","","25","","15","","25.0","","100.25","","","","-12","","Clear"
"1997-03-12 07:00","1997","03","12","07:00","-6.1","","-9.1","","79","","25","","15","","32.2","","100.25","","","","-12","","Clear"
"1997-03-12 08:00","1997","03","12","08:00","-4.3","","-8.2","","74","","27","","22","","24.1","","100.35","","","","-11","","Clear"
"1997-03-12 09:00","1997","03","12","09:00","-2.7","","-7.3","","71","","30","","24","","32.2","","100.42","","","","-9","","Clear"
"1997-03-12 10:00","1997","03","12","10:00","-1.8","","-7.9","","63","","30","","32","","40.2","","100.42","","","","-9","","Mainly Clear"
"1997-03-12 11:00","1997","03","12","11:00","-1.9","","-11.0","","50","","32","","30","","40.2","","100.45","","","","-9","","Clear"
"1997-03-12 12:00","1997","03","12","12:00","-1.5","","-11.1","","48","","31","","33","","40.2","","100.52","","","","-9","","Clear"
"1997-03-12 13:00","1997","03","12","13:00","-1.5","","-11.3","","47","","29","","35","","40.2","","100.52","","","","-9","","Clear"
"1997-03-12 14:00","1997","03","12","14:00","-2.0","","-12.3","","45","","29","","33","","40.2","","100.45","","","","-9","","Clear"
"1997-03-12 15:00","1997","03","12","15:00","-2.1","","-10.9","","51","","30","","37","","40.2","","100.49","","","","-10","","Clear"
"1997-03-12 16:00","1997","03","12","16:00","-2.5","","-11.6","","50","","30","","37","","40.2","","100.52","","","","-10","","Clear"
"1997-03-12 17:00","1997","03","12","17:00","-3.0","","-12.0","","50","","31","","30","","40.2","","100.59","","","","-10","","Clear"
"1997-03-12 18:00","1997","03","12","18:00","-4.0","","-13.4","","48","","30","","33","","40.2","","100.72","","","","-12","","Clear"
"1997-03-12 19:00","1997","03","12","19:00","-5.2","","-13.0","","54","","30","","28","","40.2","","100.82","","","","-13","","Clear"
"1997-03-12 20:00","1997","03","12","20:00","-6.0","","-13.0","","58","","31","","20","","25.0","","100.89","","","","-13","","Clear"
"1997-03-12 21:00","1997","03","12","21:00","-6.7","","-12.7","","62","","29","","15","","25.0","","100.95","","","","-13","","Clear"
"1997-03-12 22:00","1997","03","12","22:00","-6.9","","-12.7","","63","","29","","15","","25.0","","101.02","","","","-13","","Clear"
"1997-03-12 23:00","1997","03","12","23:00","-7.2","","-13.0","","63","","31","","11","","25.0","","100.99","","","","-12","","Clear"
"1997-03-13 00:00","1997","03","13","00:00","-7.8","","-12.9","","67","","25","","6","","25.0","","101.02","","","","-11","","Clear"
"1997-03-13 01:00","1997","03","13","01:00","-8.3","","-12.8","","70","","31","","6","","25.0","","101.09","","","","-12","","Clear"
"1997-03-13 02:00","1997","03","13","02:00","-8.7","","-13.1","","70","","26","","7","","25.0","","101.15","","","","-13","","Clear"
"1997-03-13 03:00","1997","03","13","03:00","-9.4","","-13.2","","74","","32","","4","","25.0","","101.12","","","","-12","","Clear"
"1997-03-13 04:00","1997","03","13","04:00","-9.5","","-13.5","","73","","35","","6","","25.0","","101.12","","","","-13","","Clear"
"1997-03-13 05:00","1997","03","13","05:00","-10.2","","-14.2","","72","","34","","7","","25.0","","101.15","","","","-14","","Clear"
"1997-03-13 06:00","1997","03","13","06:00","-10.5","","-14.6","","72","","34","","7","","25.0","","101.22","","","","-15","","Clear"
"1997-03-13 07:00","1997","03","13","07:00","-10.6","","-14.3","","74","","35","","13","","40.2","","101.32","","","","-17","","Mostly Cloudy"
"1997-03-13 08:00","1997","03","13","08:00","-9.4","","-13.5","","72","","36","","11","","40.2","","101.35","","","","-15","","Mostly Cloudy"
"1997-03-13 09:00","1997","03","13","09:00","-7.2","","-13.5","","61","","4","","13","","40.2","","101.39","","","","-13","","Mostly Cloudy"
"1997-03-13 10:00","1997","03","13","10:00","-5.4","","-15.7","","44","","6","","13","","40.2","","101.32","","","","-11","","Mostly Cloudy"
"1997-03-13 11:00","1997","03","13","11:00","-4.9","","-15.7","","42","","13","","4","","40.2","","101.32","","","","-7","","Mostly Cloudy"
"1997-03-13 12:00","1997","03","13","12:00","-3.8","","-14.4","","44","","16","","6","","40.2","","101.29","","","","-6","","Mostly Cloudy"
"1997-03-13 13:00","1997","03","13","13:00","-3.8","","-11.7","","54","","14","","15","","40.2","","101.25","","","","-9","","Mostly Cloudy"
"1997-03-13 14:00","1997","03","13","14:00","-3.2","","-11.8","","51","","10","","9","","40.2","","101.15","","","","-7","","Cloudy"
"1997-03-13 15:00","1997","03","13","15:00","-3.6","","-11.3","","55","","11","","15","","40.2","","101.12","","","","-9","","Cloudy"
"1997-03-13 16:00","1997","03","13","16:00","-3.6","","-12.0","","52","","11","","15","","40.2","","101.05","","","","-9","","Cloudy"
"1997-03-13 17:00","1997","03","13","17:00","-3.9","","-12.0","","53","","8","","20","","32.2","","101.02","","","","-10","","Cloudy"
"1997-03-13 18:00","1997","03","13","18:00","-4.4","","-12.3","","54","","8","","24","","32.2","","100.95","","","","-11","","Cloudy"
"1997-03-13 19:00","1997","03","13","19:00","-4.6","","-12.3","","55","","8","","24","","25.0","","100.92","","","","-12","","Cloudy"
"1997-03-13 20:00","1997","03","13","20:00","-4.4","","-11.9","","56","","8","","24","","25.0","","100.85","","","","-11","","Cloudy"
"1997-03-13 21:00","1997","03","13","21:00","-4.3","","-11.9","","55","","9","","33","","25.0","","100.72","","","","-12","","Cloudy"
"1997-03-13 22:00","1997","03","13","22:00","-4.0","","-11.4","","56","","9","","32","","25.0","","100.62","","","","-12","","Cloudy"
"1997-03-13 23:00","1997","03","13","23:00","-3.8","","-9.4","","65","","10","","44","","25.0","","100.49","","","","-13","","Cloudy"
"1997-03-14 00:00","1997","03","14","00:00","-3.6","","-9.4","","64","","10","","37","","24.1","","100.39","","","","-12","","Cloudy"
"1997-03-14 01:00","1997","03","14","01:00","-3.3","","-9.3","","63","","10","","41","","24.1","","100.19","","","","-12","","Cloudy"
"1997-03-14 02:00","1997","03","14","02:00","-3.1","","-9.2","","63","","9","","44","","24.1","","100.02","","","","-12","","Cloudy"
"1997-03-14 03:00","1997","03","14","03:00","-3.2","","-8.3","","68","","9","","41","","19.3","","99.82","","","","-12","","Snow"
"1997-03-14 04:00","1997","03","14","04:00","-3.7","","-7.7","","74","","9","","48","","3.2","","99.59","","","","-13","","Snow"
"1997-03-14 05:00","1997","03","14","05:00","-4.4","","-6.4","","86","","9","","33","","1.0","","99.39","","","","-13","","Snow,Blowing Snow"
"1997-03-14 06:00","1997","03","14","06:00","-4.5","","-6.4","","87","","8","","44","","0.6","","99.12","","","","-14","","Moderate Snow,Blowing Snow"
"1997-03-14 07:00","1997","03","14","07:00","-4.2","","-6.1","","87","","9","","46","","0.4","","98.86","","","","-14","","Snow,Ice Pellets,Blowing Snow"
"1997-03-14 08:00","1997","03","14","08:00","-4.0","","-6.1","","85","","8","","46","","1.6","","98.62","","","","-13","","Ice Pellets"
"1997-03-14 09:00","1997","03","14","09:00","-2.9","","-4.8","","87","","8","","46","","1.6","","98.39","","","","-12","","Ice Pellets"
"1997-03-14 10:00","1997","03","14","10:00","-1.8","","-3.2","","90","","8","","46","","2.0","","98.16","","","","-10","","Freezing Rain,Ice Pellets,Fog"
"1997-03-14 11:00","1997","03","14","11:00","-1.5","","-2.7","","92","","8","","41","","3.2","","97.99","","","","-9","","Freezing Rain,Ice Pellets,Fog"
"1997-03-14 12:00","1997","03","14","12:00","-0.7","","-2.1","","90","","9","","28","","6.4","","97.86","","","","-7","","Freezing Rain,Fog"
"1997-03-14 13:00","1997","03","14","13:00","-0.1","","-1.4","","91","","9","","22","","2.0","","97.76","","","","-6","","Freezing Rain,Fog"
"1997-03-14 14:00","1997","03","14","14:00","0.0","","-1.2","","92","","5","","9","","2.0","","97.72","","","","-3","","Drizzle,Fog"
"1997-03-14 15:00","1997","03","14","15:00","-0.6","","-1.8","","92","","36","","6","","2.4","","97.72","","","","-3","","Freezing Drizzle,Fog"
"1997-03-14 16:00","1997","03","14","16:00","-0.7","","-1.9","","92","","33","","6","","4.0","","97.79","","","","-3","","Freezing Drizzle,Fog"
"1997-03-14 17:00","1997","03","14","17:00","-0.8","","-1.8","","93","","","","0","","2.8","","97.92","","","","","","Freezing Drizzle,Fog"
"1997-03-14 18:00","1997","03","14","18:00","1.4","","-1.0","","84","","26","","15","","16.1","","97.96","","","","","","Cloudy"
"1997-03-14 19:00","1997","03","14","19:00","1.0","","-2.1","","80","","25","","19","","16.1","","98.12","","","","","","Cloudy"
"1997-03-14 20:00","1997","03","14","20:00","1.0","","-2.7","","76","","25","","15","","16.1","","98.19","","","","","","Snow Grains"
"1997-03-14 21:00","1997","03","14","21:00","0.8","","-3.7","","72","","24","","19","","25.0","","98.26","","","","","","Mainly Clear"
"1997-03-14 22:00","1997","03","14","22:00","-0.7","","-6.2","","66","","25","","28","","19.3","","98.32","","","","-7","","Snow"
"1997-03-14 23:00","1997","03","14","23:00","-1.9","","-7.5","","65","","25","","32","","24.1","","98.39","","","","-9","","Mainly Clear"
"1997-03-15 00:00","1997","03","15","00:00","-3.5","","-7.7","","73","","25","","26","","24.1","","98.49","","","","-11","","Mainly Clear"
"1997-03-15 01:00","1997","03","15","01:00","-4.9","","-7.2","","84","","26","","26","","12.9","","98.62","","","","-12","","Snow Showers"
"1997-03-15 02:00","1997","03","15","02:00","-5.0","","-10.5","","65","","26","","22","","24.1","","98.72","","","","-12","","Mainly Clear"
"1997-03-15 03:00","1997","03","15","03:00","-5.7","","-11.6","","63","","26","","24","","24.1","","98.82","","","","-13","","Clear"
"1997-03-15 04:00","1997","03","15","04:00","-6.8","","-10.3","","76","","27","","26","","3.2","","98.92","","","","-15","","Snow Showers"
"1997-03-15 05:00","1997","03","15","05:00","-7.1","","-11.2","","72","","26","","22","","12.9","","99.09","","","","-15","","Mostly Cloudy"
"1997-03-15 06:00","1997","03","15","06:00","-7.4","","-13.2","","63","","27","","22","","24.1","","99.22","","","","-15","","Mainly Clear"
"1997-03-15 07:00","1997","03","15","07:00","-8.0","","-13.4","","65","","27","","17","","19.3","","99.32","","","","-15","","Mainly Clear"
"1997-03-15 08:00","1997","03","15","08:00","-7.4","","-13.7","","61","","27","","22","","19.3","","99.42","","","","-15","","Mainly Clear"
"1997-03-15 09:00","1997","03","15","09:00","-6.9","","-13.0","","62","","28","","32","","24.1","","99.55","","","","-16","","Mainly Clear"
"1997-03-15 10:00","1997","03","15","10:00","-6.7","","-13.5","","58","","28","","37","","24.1","","99.59","","","","-16","","Mostly Cloudy"
"1997-03-15 11:00","1997","03","15","11:00","-6.5","","-13.6","","57","","30","","37","","24.1","","99.69","","","","-16","","Snow Showers"
"1997-03-15 12:00","1997","03","15","12:00","-6.1","","-12.2","","62","","28","","32","","24.1","","99.75","","","","-15","","Mostly Cloudy"
"1997-03-15 13:00","1997","03","15","13:00","-6.8","","-9.3","","82","","26","","26","","0.2","","99.79","","","","-15","","Heavy Snow Showers"
"1997-03-15 14:00","1997","03","15","14:00","-5.6","","-12.0","","61","","26","","37","","19.3","","99.82","","","","-15","","Mostly Cloudy"
"1997-03-15 15:00","1997","03","15","15:00","-6.2","","-9.4","","78","","28","","30","","1.6","","99.92","","","","-15","","Snow Showers"
"1997-03-15 16:00","1997","03","15","16:00","-5.6","","-13.2","","55","","27","","41","","19.3","","99.95","","","","-15","","Mostly Cloudy"
"1997-03-15 17:00","1997","03","15","17:00","-6.1","","-13.9","","54","","27","","41","","24.1","","99.99","","","","-16","","Mainly Clear"
"1997-03-15 18:00","1997","03","15","18:00","-6.7","","-13.9","","57","","27","","26","","24.1","","100.02","","","","-15","","Clear"
"1997-03-15 19:00","1997","03","15","19:00","-7.7","","-14.1","","60","","26","","20","","24.1","","100.09","","","","-15","","Clear"
"1997-03-15 20:00","1997","03","15","20:00","-8.3","","-13.9","","64","","27","","20","","24.1","","100.12","","","","-16","","Snow Showers"
"1997-03-15 21:00","1997","03","15","21:00","-8.7","","-14.0","","65","","27","","17","","25.0","","100.19","","","","-16","","Mainly Clear"
"1997-03-15 22:00","1997","03","15","22:00","-8.4","","-12.7","","71","","27","","19","","19.3","","100.22","","","","-16","","Snow Showers"
"1997-03-15 23:00","1997","03","15","23:00","-8.8","","-11.8","","79","","27","","15","","8.0","","100.25","","","","-15","","Snow Showers"
"1997-03-16 00:00","1997","03","16","00:00","-8.8","","-14.2","","65","","29","","20","","24.1","","100.32","","","","-16","","Clear"
"1997-03-16 01:00","1997","03","16","01:00","-9.7","","-14.6","","67","","27","","19","","24.1","","100.35","","","","-17","","Clear"
"1997-03-16 02:00","1997","03","16","02:00","-10.8","","-15.1","","71","","27","","17","","24.1","","100.42","","","","-18","","Clear"
"1997-03-16 03:00","1997","03","16","03:00","-11.0","","-15.3","","71","","26","","15","","24.1","","100.45","","","","-18","","Clear"
"1997-03-16 04:00","1997","03","16","04:00","-11.6","","-15.5","","73","","26","","15","","24.1","","100.52","","","","-19","","Mainly Clear"
"1997-03-16 05:00","1997","03","16","05:00","-12.1","","-15.8","","74","","26","","15","","24.1","","100.59","","","","-19","","Mainly Clear"
"1997-03-16 06:00","1997","03","16","06:00","-13.4","","-16.6","","77","","29","","7","","24.1","","100.65","","","","-18","","Mainly Clear"
"1997-03-16 07:00","1997","03","16","07:00","-13.6","","-16.7","","77","","30","","7","","24.1","","100.72","","","","-18","","Mainly Clear"
"1997-03-16 08:00","1997","03","16","08:00","-12.1","","-15.6","","75","","31","","4","","24.1","","100.82","","","","-15","","Clear"
"1997-03-16 09:00","1997","03","16","09:00","-9.2","","-13.9","","69","","27","","19","","32.2","","100.85","","","","-17","","Clear"
"1997-03-16 10:00","1997","03","16","10:00","-7.2","","-13.3","","62","","28","","19","","32.2","","100.89","","","","-14","","Mainly Clear"
"1997-03-16 11:00","1997","03","16","11:00","-6.0","","-13.1","","57","","27","","22","","32.2","","100.89","","","","-13","","Mainly Clear"
"1997-03-16 12:00","1997","03","16","12:00","-5.4","","-12.6","","57","","26","","28","","32.2","","100.92","","","","-13","","Mostly Cloudy"
"1997-03-16 13:00","1997","03","16","13:00","-5.7","","-12.6","","58","","25","","28","","19.3","","100.89","","","","-14","","Mostly Cloudy"
"1997-03-16 14:00","1997","03","16","14:00","-5.3","","-13.2","","54","","28","","19","","32.2","","100.82","","","","-12","","Mostly Cloudy"
"1997-03-16 15:00","1997","03","16","15:00","-4.7","","-13.8","","49","","28","","22","","32.2","","100.79","","","","-12","","Mostly Cloudy"
"1997-03-16 16:00","1997","03","16","16:00","-4.8","","-12.6","","54","","28","","24","","32.2","","100.82","","","","-12","","Mostly Cloudy"
"1997-03-16 17:00","1997","03","16","17:00","-5.3","","-13.8","","51","","26","","26","","32.2","","100.82","","","","-13","","Mainly Clear"
"1997-03-16 18:00","1997","03","16","18:00","-6.1","","-14.1","","53","","27","","19","","32.2","","100.79","","","","-13","","Mainly Clear"
"1997-03-16 19:00","1997","03","16","19:00","-6.8","","-13.9","","57","","27","","7","","24.1","","100.79","","","","-10","","Mainly Clear"
"1997-03-16 20:00","1997","03","16","20:00","-7.3","","-13.9","","59","","26","","7","","25.0","","100.79","","","","-11","","Mainly Clear"
"1997-03-16 21:00","1997","03","16","21:00","-7.0","","-13.6","","59","","","","0","","25.0","","100.75","","","","","","Mostly Cloudy"
"1997-03-16 22:00","1997","03","16","22:00","-7.4","","-13.6","","61","","","","0","","25.0","","100.69","","","","","","Mainly Clear"
"1997-03-16 23:00","1997","03","16","23:00","-7.4","","-13.1","","64","","","","0","","25.0","","100.65","","","","","","Cloudy"
"1997-03-17 00:00","1997","03","17","00:00","-6.7","","-12.3","","64","","18","","2","","19.3","","100.59","","","","-8","","Cloudy"
"1997-03-17 01:00","1997","03","17","01:00","-5.2","","-9.7","","71","","18","","11","","19.3","","100.45","","","","-10","","Cloudy"
"1997-03-17 02:00","1997","03","17","02:00","-4.4","","-9.0","","70","","17","","13","","19.3","","100.29","","","","-9","","Cloudy"
"1997-03-17 03:00","1997","03","17","03:00","-3.8","","-8.2","","71","","19","","13","","19.3","","100.25","","","","-9","","Cloudy"
"1997-03-17 04:00","1997","03","17","04:00","-3.3","","-7.7","","72","","19","","11","","24.1","","100.15","","","","-8","","Cloudy"
"1997-03-17 05:00","1997","03","17","05:00","-2.9","","-7.0","","73","","19","","13","","24.1","","100.05","","","","-8","","Mostly Cloudy"
"1997-03-17 06:00","1997","03","17","06:00","-2.7","","-7.0","","72","","19","","11","","19.3","","99.99","","","","-7","","Cloudy"
"1997-03-17 07:00","1997","03","17","07:00","-1.9","","-7.3","","67","","18","","15","","19.3","","99.82","","","","-7","","Cloudy"
"1997-03-17 08:00","1997","03","17","08:00","-0.8","","-6.3","","66","","19","","19","","19.3","","99.72","","","","-6","","Cloudy"
"1997-03-17 09:00","1997","03","17","09:00","0.3","","-6.1","","62","","19","","20","","19.3","","99.65","","","","","","Cloudy"
"1997-03-17 10:00","1997","03","17","10:00","1.9","","-5.9","","56","","22","","26","","19.3","","99.52","","","","","","Mostly Cloudy"
"1997-03-17 11:00","1997","03","17","11:00","3.1","","-4.6","","57","","22","","24","","19.3","","99.39","","","","","","Mostly Cloudy"
"1997-03-17 12:00","1997","03","17","12:00","4.0","","-3.8","","57","","22","","26","","24.1","","99.35","","","","","","Mostly Cloudy"
"1997-03-17 13:00","1997","03","17","13:00","4.6","","-2.9","","58","","24","","26","","19.3","","99.29","","","","","","Mostly Cloudy"
"1997-03-17 14:00","1997","03","17","14:00","5.7","","-2.4","","56","","23","","26","","24.1","","99.26","","","","","","Mostly Cloudy"
"1997-03-17 15:00","1997","03","17","15:00","6.0","","-2.0","","56","","26","","37","","24.1","","99.29","","","","","","Mostly Cloudy"
"1997-03-17 16:00","1997","03","17","16:00","5.4","","-1.6","","61","","27","","28","","24.1","","99.35","","","","","","Cloudy"
"1997-03-17 17:00","1997","03","17","17:00","5.0","","-1.6","","62","","28","","30","","24.1","","99.42","","","","","","Cloudy"
"1997-03-17 18:00","1997","03","17","18:00","4.7","","-1.6","","64","","28","","15","","24.1","","99.55","","","","","","Mainly Clear"
"1997-03-17 19:00","1997","03","17","19:00","4.1","","-1.9","","65","","30","","22","","24.1","","99.69","","","","","","Mostly Cloudy"
"1997-03-17 20:00","1997","03","17","20:00","2.6","","-3.2","","66","","30","","15","","25.0","","99.85","","","","","","Mostly Cloudy"
"1997-03-17 21:00","1997","03","17","21:00","1.6","","-3.6","","68","","29","","17","","24.1","","99.95","","","","","","Mainly Clear"
"1997-03-17 22:00","1997","03","17","22:00","0.7","","-5.0","","66","","31","","15","","25.0","","100.05","","","","","","Clear"
"1997-03-17 23:00","1997","03","17","23:00","-0.6","","-4.9","","73","","29","","11","","24.1","","100.15","","","","-4","","Mainly Clear"
"1997-03-18 00:00","1997","03","18","00:00","-0.9","","-5.3","","72","","34","","15","","24.1","","100.19","","","","-6","","Mainly Clear"
"1997-03-18 01:00","1997","03","18","01:00","-0.5","","-5.1","","71","","34","","19","","24.1","","100.25","","","","-6","","Mainly Clear"
"1997-03-18 02:00","1997","03","18","02:00","-1.1","","-6.2","","68","","35","","20","","24.1","","100.35","","","","-7","","Mostly Cloudy"
"1997-03-18 03:00","1997","03","18","03:00","-2.1","","-7.7","","65","","35","","22","","24.1","","100.45","","","","-8","","Mostly Cloudy"
"1997-03-18 04:00","1997","03","18","04:00","-3.4","","-9.5","","63","","36","","20","","24.1","","100.52","","","","-10","","Cloudy"
"1997-03-18 05:00","1997","03","18","05:00","-4.0","","-9.8","","64","","36","","17","","25.0","","100.65","","","","-10","","Cloudy"
"1997-03-18 06:00","1997","03","18","06:00","-4.7","","-11.0","","61","","1","","22","","25.0","","100.79","","","","-12","","Mostly Cloudy"
"1997-03-18 07:00","1997","03","18","07:00","-5.4","","-11.0","","65","","1","","17","","32.2","","100.85","","","","-11","","Mostly Cloudy"
"1997-03-18 08:00","1997","03","18","08:00","-5.1","","-10.6","","65","","3","","15","","32.2","","100.95","","","","-11","","Mostly Cloudy"
"1997-03-18 09:00","1997","03","18","09:00","-4.3","","-10.3","","63","","4","","17","","32.2","","101.02","","","","-10","","Mostly Cloudy"
"1997-03-18 10:00","1997","03","18","10:00","-3.6","","-10.7","","58","","2","","13","","32.2","","101.09","","","","-8","","Mostly Cloudy"
"1997-03-18 11:00","1997","03","18","11:00","-3.2","","-11.9","","51","","4","","13","","40.2","","101.09","","","","-8","","Mainly Clear"
"1997-03-18 12:00","1997","03","18","12:00","-2.6","","-10.3","","55","","6","","9","","40.2","","101.09","","","","-6","","Mostly Cloudy"
"1997-03-18 13:00","1997","03","18","13:00","-2.5","","-11.9","","48","","33","","9","","40.2","","101.05","","","","-6","","Mostly Cloudy"
"1997-03-18 14:00","1997","03","18","14:00","-2.0","","-11.0","","50","","35","","9","","40.2","","100.95","","","","-5","","Mostly Cloudy"
"1997-03-18 15:00","1997","03","18","15:00","-1.6","","-10.0","","53","","33","","13","","40.2","","100.92","","","","-6","","Mostly Cloudy"
"1997-03-18 16:00","1997","03","18","16:00","-1.7","","-11.6","","47","","31","","15","","40.2","","100.92","","","","-7","","Mostly Cloudy"
"1997-03-18 17:00","1997","03","18","17:00","-1.7","","-13.2","","41","","32","","17","","40.2","","100.89","","","","-7","","Mostly Cloudy"
"1997-03-18 18:00","1997","03","18","18:00","-2.3","","-12.5","","45","","34","","11","","40.2","","100.89","","","","-6","","Mostly Cloudy"
"1997-03-18 19:00","1997","03","18","19:00","-2.6","","-12.0","","48","","35","","7","","32.2","","100.92","","","","-5","","Mostly Cloudy"
"1997-03-18 20:00","1997","03","18","20:00","-3.5","","-11.1","","56","","35","","11","","25.0","","100.92","","","","-8","","Mostly Cloudy"
"1997-03-18 21:00","1997","03","18","21:00","-4.7","","-11.2","","60","","36","","15","","25.0","","100.92","","","","-10","","Mainly Clear"
"1997-03-18 22:00","1997","03","18","22:00","-5.5","","-11.6","","62","","35","","11","","25.0","","100.92","","","","-10","","Mainly Clear"
"1997-03-18 23:00","1997","03","18","23:00","-6.3","","-12.3","","62","","34","","11","","25.0","","100.89","","","","-11","","Clear"
"1997-03-19 00:00","1997","03","19","00:00","-7.3","","-12.3","","67","","33","","11","","25.0","","100.82","","","","-12","","Clear"
"1997-03-19 01:00","1997","03","19","01:00","-7.4","","-12.4","","67","","36","","11","","25.0","","100.79","","","","-12","","Mainly Clear"
"1997-03-19 02:00","1997","03","19","02:00","-8.1","","-13.1","","67","","34","","7","","25.0","","100.79","","","","-12","","Clear"
"1997-03-19 03:00","1997","03","19","03:00","-8.9","","-13.0","","72","","34","","9","","25.0","","100.79","","","","-14","","Mainly Clear"
"1997-03-19 04:00","1997","03","19","04:00","-8.9","","-13.9","","67","","34","","11","","25.0","","100.75","","","","-14","","Mainly Clear"
"1997-03-19 05:00","1997","03","19","05:00","-9.0","","-14.1","","66","","35","","11","","25.0","","100.75","","","","-14","","Mostly Cloudy"
"1997-03-19 06:00","1997","03","19","06:00","-9.3","","-14.2","","67","","31","","7","","25.0","","100.69","","","","-13","","Mostly Cloudy"
"1997-03-19 07:00","1997","03","19","07:00","-8.9","","-13.6","","69","","30","","4","","40.2","","100.52","","","","-11","","Mostly Cloudy"
"1997-03-19 08:00","1997","03","19","08:00","-7.2","","-12.8","","64","","34","","7","","40.2","","100.52","","","","-11","","Mainly Clear"
"1997-03-19 09:00","1997","03","19","09:00","-5.0","","-11.6","","60","","34","","7","","40.2","","100.55","","","","-8","","Mainly Clear"
"1997-03-19 10:00","1997","03","19","10:00","-3.0","","-10.9","","54","","","","0","","40.2","","100.42","","","","","","Clear"
"1997-03-19 11:00","1997","03","19","11:00","-1.4","","-10.6","","50","","","","0","","40.2","","100.39","","","","","","Mainly Clear"
"1997-03-19 12:00","1997","03","19","12:00","-1.1","","-10.1","","50","","","","0","","32.2","","100.29","","","","","","Mostly Cloudy"
"1997-03-19 13:00","1997","03","19","13:00","0.8","","-9.5","","46","","","","0","","32.2","","100.19","","","","","","Mostly Cloudy"
"1997-03-19 14:00","1997","03","19","14:00","0.0","","-10.9","","44","","30","","4","","32.2","","100.09","","","","-1","","Cloudy"
"1997-03-19 15:00","1997","03","19","15:00","0.4","","-12.1","","39","","","","0","","32.2","","100.02","","","","","","Cloudy"
"1997-03-19 16:00","1997","03","19","16:00","0.6","","-13.1","","35","","","","0","","32.2","","99.92","","","","","","Cloudy"
"1997-03-19 17:00","1997","03","19","17:00","-0.3","","-7.9","","56","","15","","9","","32.2","","99.82","","","","-3","","Cloudy"
"1997-03-19 18:00","1997","03","19","18:00","-0.7","","-7.6","","60","","16","","6","","32.2","","99.75","","","","-3","","Cloudy"
"1997-03-19 19:00","1997","03","19","19:00","-0.8","","-7.9","","59","","17","","6","","24.1","","99.72","","","","-3","","Cloudy"
"1997-03-19 20:00","1997","03","19","20:00","-1.1","","-6.9","","65","","20","","7","","25.0","","99.62","","","","-4","","Mostly Cloudy"
"1997-03-19 21:00","1997","03","19","21:00","-1.0","","-7.6","","61","","19","","11","","24.1","","99.52","","","","-5","","Mostly Cloudy"
"1997-03-19 22:00","1997","03","19","22:00","-1.0","","-7.8","","60","","20","","7","","24.1","","99.45","","","","-4","","Cloudy"
"1997-03-19 23:00","1997","03","19","23:00","-1.1","","-8.3","","58","","22","","7","","24.1","","99.42","","","","-4","","Mostly Cloudy"
"1997-03-20 00:00","1997","03","20","00:00","-1.6","","-7.6","","64","","","","0","","24.1","","99.35","","","","","","Cloudy"
"1997-03-20 01:00","1997","03","20","01:00","-1.4","","-7.6","","63","","","","0","","24.1","","99.29","","","","","","Cloudy"
"1997-03-20 02:00","1997","03","20","02:00","-1.6","","-8.2","","61","","","","0","","24.1","","99.26","","","","","","Cloudy"
"1997-03-20 03:00","1997","03","20","03:00","-1.6","","-8.7","","58","","26","","4","","24.1","","99.22","","","","-3","","Cloudy"
"1997-03-20 04:00","1997","03","20","04:00","-1.8","","-7.8","","64","","28","","11","","24.1","","99.12","","","","-6","","Cloudy"
"1997-03-20 05:00","1997","03","20","05:00","-2.9","","-5.1","","85","","26","","6","","2.8","","99.09","","","","-5","","Snow"
"1997-03-20 06:00","1997","03","20","06:00","-3.0","","-5.1","","85","","25","","6","","6.4","","99.09","","","","-5","","Snow"
"1997-03-20 07:00","1997","03","20","07:00","-2.9","","-5.1","","85","","","","0","","8.0","","99.06","","","","","","Snow"
"1997-03-20 08:00","1997","03","20","08:00","-2.3","","-4.6","","84","","","","0","","9.7","","99.09","","","","","","Snow"
"1997-03-20 09:00","1997","03","20","09:00","-1.7","","-4.3","","82","","21","","4","","6.4","","99.09","","","","-3","","Snow"
"1997-03-20 10:00","1997","03","20","10:00","-0.9","","-3.8","","81","","23","","9","","8.0","","99.02","","","","-4","","Snow"
"1997-03-20 11:00","1997","03","20","11:00","-0.2","","-3.3","","80","","23","","6","","11.3","","98.96","","","","-2","","Mostly Cloudy"
"1997-03-20 12:00","1997","03","20","12:00"
"1997-03-20 13:00","1997","03","20","13:00","1.0","","-4.0","","69","","31","","19","","19.3","","98.96","","","","","","Cloudy"
"1997-03-20 14:00","1997","03","20","14:00","1.3","","-4.3","","66","","30","","19","","19.3","","98.92","","","","","","Mostly Cloudy"
"1997-03-20 15:00","1997","03","20","15:00","1.8","","-3.8","","66","","30","","19","","19.3","","98.89","","","","","","Mostly Cloudy"
"1997-03-20 16:00","1997","03","20","16:00","1.8","","-3.6","","67","","30","","19","","24.1","","98.92","","","","","","Mostly Cloudy"
"1997-03-20 17:00","1997","03","20","17:00","1.6","","-3.8","","67","","30","","19","","24.1","","98.99","","","","","","Mostly Cloudy"
"1997-03-20 18:00","1997","03","20","18:00","1.5","","-3.8","","68","","30","","13","","24.1","","99.06","","","","","","Mostly Cloudy"
"1997-03-20 19:00","1997","03","20","19:00","1.5","","-4.5","","64","","30","","22","","24.1","","99.06","","","","","","Mostly Cloudy"
"1997-03-20 20:00","1997","03","20","20:00","1.0","","-5.0","","64","","31","","15","","24.1","","99.09","","","","","","Mainly Clear"
"1997-03-20 21:00","1997","03","20","21:00","0.1","","-4.6","","71","","28","","7","","24.1","","99.09","","","","","","Mostly Cloudy"
"1997-03-20 22:00","1997","03","20","22:00","-0.6","","-4.9","","73","","25","","4","","24.1","","99.02","","","","-2","","Mainly Clear"
"1997-03-20 23:00","1997","03","20","23:00","-1.2","","-5.1","","75","","28","","7","","24.1","","99.06","","","","-4","","Mainly Clear"
"1997-03-21 00:00","1997","03","21","00:00","-1.4","","-5.0","","76","","29","","7","","24.1","","99.06","","","","-4","","Mainly Clear"
"1997-03-21 01:00","1997","03","21","01:00","-1.3","","-5.0","","76","","","","0","","24.1","","98.99","","","","","","Mostly Cloudy"
"1997-03-21 02:00","1997","03","21","02:00","-1.4","","-4.7","","78","","","","0","","19.3","","98.96","","","","","","Mostly Cloudy"
"1997-03-21 03:00","1997","03","21","03:00","-1.4","","-5.0","","76","","","","0","","16.1","","98.89","","","","","","Mostly Cloudy"
"1997-03-21 04:00","1997","03","21","04:00","-1.9","","-5.1","","79","","","","0","","19.3","","98.86","","","","","","Cloudy"
"1997-03-21 05:00","1997","03","21","05:00","-1.8","","-5.0","","79","","","","0","","16.1","","98.79","","","","","","Cloudy"
"1997-03-21 06:00","1997","03","21","06:00","-1.4","","-4.5","","79","","","","0","","16.1","","98.76","","","","","","Cloudy"
"1997-03-21 07:00","1997","03","21","07:00","-0.8","","-4.1","","78","","","","0","","9.7","","98.72","","","","","","Haze"
"1997-03-21 08:00","1997","03","21","08:00","-0.2","","-3.6","","78","","11","","4","","4.8","","98.69","","","","-1","","Snow,Haze"
"1997-03-21 09:00","1997","03","21","09:00","0.0","","-3.2","","79","","13","","6","","4.8","","98.62","","","","-2","","Snow"
"1997-03-21 10:00","1997","03","21","10:00","-0.1","","-2.0","","87","","12","","7","","1.6","","98.56","","","","-3","","Snow"
"1997-03-21 11:00","1997","03","21","11:00","0.4","","-1.2","","89","","12","","13","","2.8","","98.42","","","","","","Snow,Fog"
"1997-03-21 12:00","1997","03","21","12:00","0.5","","-1.0","","90","","12","","15","","3.2","","98.32","","","","","","Rain,Snow,Ice Pellets,Fog"
"1997-03-21 13:00","1997","03","21","13:00","0.2","","-1.2","","90","","13","","17","","2.4","","98.16","","","","","","Rain,Snow,Ice Pellets,Fog"
"1997-03-21 14:00","1997","03","21","14:00","0.3","","-1.0","","91","","11","","19","","2.0","","97.89","","","","","","Rain,Snow,Ice Pellets,Fog"
"1997-03-21 15:00","1997","03","21","15:00","0.8","","-0.5","","91","","11","","19","","4.0","","97.72","","","","","","Fog"
"1997-03-21 16:00","1997","03","21","16:00","1.1","","0.1","","93","","10","","11","","2.0","","97.59","","","","","","Fog"
"1997-03-21 17:00","1997","03","21","17:00","1.4","","0.3","","92","","9","","11","","2.0","","97.52","","","","","","Fog"
"1997-03-21 18:00","1997","03","21","18:00","1.5","","0.4","","92","","6","","9","","2.0","","97.46","","","","","","Fog"
"1997-03-21 19:00","1997","03","21","19:00","1.3","","0.2","","92","","7","","11","","2.0","","97.42","","","","","","Fog"
"1997-03-21 20:00","1997","03","21","20:00","1.1","","0.0","","92","","36","","11","","2.0","","97.49","","","","","","Fog"
"1997-03-21 21:00","1997","03","21","21:00","0.6","","-0.5","","92","","4","","11","","0.2","","97.49","","","","","","Fog"
"1997-03-21 22:00","1997","03","21","22:00","0.5","","-0.7","","92","","36","","9","","0.4","","97.52","","","","","","Fog"
"1997-03-21 23:00","1997","03","21","23:00","0.4","","-1.0","","90","","35","","15","","2.4","","97.52","","","","","","Fog"
"1997-03-22 00:00","1997","03","22","00:00","0.1","","-1.5","","89","","36","","22","","6.4","","97.62","","","","","","Fog"
"1997-03-22 01:00","1997","03","22","01:00","0.3","","-1.9","","85","","36","","19","","12.9","","97.72","","","","","","Cloudy"
"1997-03-22 02:00","1997","03","22","02:00","0.2","","-2.2","","84","","1","","19","","14.5","","97.82","","","","","","Cloudy"
"1997-03-22 03:00","1997","03","22","03:00","-0.1","","-2.6","","83","","2","","19","","12.9","","97.89","","","","-5","","Snow"
"1997-03-22 04:00","1997","03","22","04:00","-0.8","","-4.5","","76","","1","","22","","19.3","","98.02","","","","-7","","Cloudy"
"1997-03-22 05:00","1997","03","22","05:00","-1.4","","-5.9","","71","","36","","24","","19.3","","98.19","","","","-8","","Cloudy"
"1997-03-22 06:00","1997","03","22","06:00","-1.8","","-6.1","","72","","36","","17","","24.1","","98.32","","","","-7","","Cloudy"
"1997-03-22 07:00","1997","03","22","07:00","-2.9","","-8.4","","66","","35","","26","","24.1","","98.52","","","","-10","","Snow"
"1997-03-22 08:00","1997","03","22","08:00","-3.5","","-8.7","","67","","35","","32","","24.1","","98.66","","","","-11","","Snow"
"1997-03-22 09:00","1997","03","22","09:00","-4.6","","-10.0","","66","","35","","30","","32.2","","98.79","","","","-12","","Cloudy"
"1997-03-22 10:00","1997","03","22","10:00","-4.7","","-10.3","","65","","34","","32","","40.2","","98.89","","","","-13","","Cloudy"
"1997-03-22 11:00","1997","03","22","11:00","-4.5","","-10.0","","65","","33","","26","","40.2","","98.96","","","","-12","","Cloudy"
"1997-03-22 12:00","1997","03","22","12:00","-4.0","","-11.4","","56","","35","","26","","40.2","","98.99","","","","-11","","Mostly Cloudy"
"1997-03-22 13:00","1997","03","22","13:00","-3.1","","-9.6","","61","","33","","24","","40.2","","98.99","","","","-10","","Mainly Clear"
"1997-03-22 14:00","1997","03","22","14:00","-2.7","","-12.2","","48","","34","","26","","40.2","","99.06","","","","-10","","Mainly Clear"
"1997-03-22 15:00","1997","03","22","15:00","-3.1","","-12.3","","49","","34","","28","","40.2","","99.12","","","","-10","","Clear"
"1997-03-22 16:00","1997","03","22","16:00","-3.5","","-13.1","","47","","33","","22","","40.2","","99.19","","","","-10","","Clear"
"1997-03-22 17:00","1997","03","22","17:00","-3.7","","-13.0","","48","","34","","24","","40.2","","99.26","","","","-11","","Clear"
"1997-03-22 18:00","1997","03","22","18:00","-4.9","","-13.8","","50","","35","","22","","40.2","","99.32","","","","-12","","Clear"
"1997-03-22 19:00","1997","03","22","19:00","-6.0","","-14.2","","52","","34","","19","","25.0","","99.39","","","","-13","","Clear"
"1997-03-22 20:00","1997","03","22","20:00","-6.6","","-14.8","","52","","36","","15","","25.0","","99.45","","","","-13","","Mostly Cloudy"
"1997-03-22 21:00","1997","03","22","21:00","-7.2","","-14.2","","57","","34","","19","","25.0","","99.52","","","","-14","","Mostly Cloudy"
"1997-03-22 22:00","1997","03","22","22:00","-7.9","","-14.1","","61","","34","","15","","25.0","","99.55","","","","-14","","Clear"
"1997-03-22 23:00","1997","03","22","23:00","-8.3","","-14.2","","62","","33","","13","","24.1","","99.55","","","","-14","","Clear"
"1997-03-23 00:00","1997","03","23","00:00","-8.5","","-14.3","","63","","31","","9","","24.1","","99.59","","","","-13","","Mainly Clear"
"1997-03-23 01:00","1997","03","23","01:00","-8.4","","-14.2","","63","","28","","9","","24.1","","99.62","","","","-13","","Mostly Cloudy"
"1997-03-23 02:00","1997","03","23","02:00","-8.8","","-13.7","","68","","29","","7","","24.1","","99.62","","","","-13","","Clear"
"1997-03-23 03:00","1997","03","23","03:00","-9.2","","-13.7","","70","","28","","7","","24.1","","99.62","","","","-13","","Mainly Clear"
"1997-03-23 04:00","1997","03","23","04:00","-9.2","","-13.7","","70","","28","","7","","24.1","","99.59","","","","-13","","Clear"
"1997-03-23 05:00","1997","03","23","05:00","-9.2","","-13.5","","71","","","","0","","24.1","","99.62","","","","","","Clear"
"1997-03-23 06:00","1997","03","23","06:00","-10.1","","-14.5","","70","","34","","7","","24.1","","99.69","","","","-14","","Mostly Cloudy"
"1997-03-23 07:00","1997","03","23","07:00","-10.0","","-15.1","","66","","34","","13","","32.2","","99.79","","","","-16","","Mostly Cloudy"
"1997-03-23 08:00","1997","03","23","08:00","-9.3","","-14.1","","68","","36","","11","","32.2","","99.85","","","","-15","","Mostly Cloudy"
"1997-03-23 09:00","1997","03","23","09:00","-7.2","","-14.8","","55","","2","","7","","40.2","","99.89","","","","-11","","Mostly Cloudy"
"1997-03-23 10:00","1997","03","23","10:00","-5.6","","-15.1","","47","","34","","15","","40.2","","99.95","","","","-11","","Mainly Clear"
"1997-03-23 11:00","1997","03","23","11:00","-5.2","","-14.8","","47","","25","","9","","40.2","","99.95","","","","-9","","Clear"
"1997-03-23 12:00","1997","03","23","12:00","-4.4","","-14.5","","45","","29","","7","","40.2","","99.95","","","","-8","","Clear"
"1997-03-23 13:00","1997","03","23","13:00","-3.6","","-14.2","","44","","1","","7","","40.2","","99.95","","","","-7","","Clear"
"1997-03-23 14:00","1997","03","23","14:00","-3.3","","-13.4","","46","","32","","7","","40.2","","99.92","","","","-6","","Clear"
"1997-03-23 15:00","1997","03","23","15:00","-2.5","","-13.1","","44","","33","","15","","40.2","","99.92","","","","-7","","Clear"
"1997-03-23 16:00","1997","03","23","16:00","-2.7","","-14.3","","40","","1","","15","","40.2","","99.99","","","","-8","","Clear"
"1997-03-23 17:00","1997","03","23","17:00","-3.0","","-13.0","","46","","34","","15","","40.2","","99.99","","","","-8","","Clear"
"1997-03-23 18:00","1997","03","23","18:00","-3.7","","-12.8","","49","","36","","11","","40.2","","100.02","","","","-8","","Clear"
"1997-03-23 19:00","1997","03","23","19:00","-4.3","","-13.2","","50","","34","","9","","25.0","","100.12","","","","-8","","Clear"
"1997-03-23 20:00","1997","03","23","20:00","-5.1","","-13.0","","54","","34","","11","","25.0","","100.25","","","","-10","","Clear"
"1997-03-23 21:00","1997","03","23","21:00","-5.9","","-13.0","","57","","33","","11","","25.0","","100.32","","","","-11","","Clear"
"1997-03-23 22:00","1997","03","23","22:00","-6.5","","-14.0","","55","","30","","9","","25.0","","100.39","","","","-11","","Clear"
"1997-03-23 23:00","1997","03","23","23:00","-6.8","","-13.9","","57","","31","","7","","25.0","","100.45","","","","-10","","Clear"
"1997-03-24 00:00","1997","03","24","00:00","-7.6","","-12.9","","66","","27","","7","","25.0","","100.52","","","","-11","","Clear"
"1997-03-24 01:00","1997","03","24","01:00","-7.7","","-12.4","","69","","28","","4","","25.0","","100.55","","","","-10","","Clear"
"1997-03-24 02:00","1997","03","24","02:00","-7.9","","-12.2","","71","","27","","4","","25.0","","100.59","","","","-10","","Clear"
"1997-03-24 03:00","1997","03","24","03:00","-7.9","","-12.2","","71","","27","","4","","25.0","","100.62","","","","-10","","Clear"
"1997-03-24 04:00","1997","03","24","04:00","-8.2","","-12.2","","73","","","","0","","25.0","","100.65","","","","","","Clear"
"1997-03-24 05:00","1997","03","24","05:00","-8.7","","-12.2","","76","","","","0","","25.0","","100.72","","","","","","Clear"
"1997-03-24 06:00","1997","03","24","06:00","-8.9","","-12.3","","76","","30","","4","","40.2","","100.82","","","","-11","","Clear"
"1997-03-24 07:00","1997","03","24","07:00","-8.3","","-12.1","","74","","32","","6","","40.2","","100.89","","","","-12","","Clear"
"1997-03-24 08:00","1997","03","24","08:00","-5.4","","-9.3","","74","","29","","7","","40.2","","100.99","","","","-9","","Clear"
"1997-03-24 09:00","1997","03","24","09:00","-3.6","","-8.6","","68","","30","","7","","40.2","","101.05","","","","-7","","Clear"
"1997-03-24 10:00","1997","03","24","10:00","-1.7","","-8.5","","60","","28","","4","","40.2","","101.05","","","","-3","","Clear"
"1997-03-24 11:00","1997","03","24","11:00","-0.6","","-11.1","","45","","34","","4","","40.2","","101.05","","","","-2","","Clear"
"1997-03-24 12:00","1997","03","24","12:00","0.4","","-10.8","","43","","25","","13","","40.2","","100.99","","","","","","Clear"
"1997-03-24 13:00","1997","03","24","13:00","1.8","","-9.1","","44","","15","","9","","40.2","","100.95","","","","","","Mainly Clear"
"1997-03-24 14:00","1997","03","24","14:00","2.2","","-6.6","","52","","26","","7","","40.2","","100.95","","","","","","Mainly Clear"
"1997-03-24 15:00","1997","03","24","15:00","2.8","","-8.3","","44","","24","","9","","40.2","","100.92","","","","","","Mainly Clear"
"1997-03-24 16:00","1997","03","24","16:00","2.9","","-7.4","","47","","29","","7","","40.2","","100.89","","","","","","Mainly Clear"
"1997-03-24 17:00","1997","03","24","17:00","2.1","","-6.8","","52","","13","","15","","32.2","","100.85","","","","","","Mainly Clear"
"1997-03-24 18:00","1997","03","24","18:00","1.0","","-5.9","","60","","13","","13","","32.2","","100.75","","","","","","Mostly Cloudy"
"1997-03-24 19:00","1997","03","24","19:00","0.5","","-5.7","","63","","14","","9","","32.2","","100.75","","","","","","Mostly Cloudy"
"1997-03-24 20:00","1997","03","24","20:00","-0.2","","-5.5","","67","","13","","6","","25.0","","100.72","","","","-2","","Mostly Cloudy"
"1997-03-24 21:00","1997","03","24","21:00","0.1","","-5.9","","64","","13","","7","","25.0","","100.72","","","","","","Mostly Cloudy"
"1997-03-24 22:00","1997","03","24","22:00","-0.9","","-5.4","","71","","11","","7","","25.0","","100.65","","","","-3","","Cloudy"
"1997-03-24 23:00","1997","03","24","23:00","0.1","","-6.1","","63","","13","","11","","25.0","","100.69","","","","","","Cloudy"
"1997-03-25 00:00","1997","03","25","00:00","-0.5","","-5.0","","72","","12","","19","","25.0","","100.69","","","","-6","","Cloudy"
"1997-03-25 01:00","1997","03","25","01:00","-0.4","","-5.7","","67","","12","","13","","25.0","","100.62","","","","-5","","Cloudy"
"1997-03-25 02:00","1997","03","25","02:00","-0.3","","-6.5","","63","","11","","15","","25.0","","100.55","","","","-5","","Cloudy"
"1997-03-25 03:00","1997","03","25","03:00","-0.4","","-6.2","","65","","11","","15","","25.0","","100.42","","","","-5","","Cloudy"
"1997-03-25 04:00","1997","03","25","04:00","-0.4","","-5.7","","67","","11","","13","","25.0","","100.25","","","","-5","","Cloudy"
"1997-03-25 05:00","1997","03","25","05:00","-0.3","","-5.2","","69","","12","","13","","25.0","","100.22","","","","-4","","Cloudy"
"1997-03-25 06:00","1997","03","25","06:00","-1.2","","-3.5","","84","","11","","17","","6.4","","100.02","","","","-6","","Snow"
"1997-03-25 07:00","1997","03","25","07:00","-0.6","","-2.9","","84","","10","","7","","12.9","","99.85","","","","-3","","Snow"
"1997-03-25 08:00","1997","03","25","08:00","0.3","","-2.4","","82","","11","","11","","8.0","","99.69","","","","","","Rain,Haze"
"1997-03-25 09:00","1997","03","25","09:00","0.9","","-1.8","","82","","12","","15","","9.7","","99.59","","","","","","Rain,Haze"
"1997-03-25 10:00","1997","03","25","10:00","1.3","","-0.6","","87","","11","","19","","8.0","","99.39","","","","","","Rain,Fog"
"1997-03-25 11:00","1997","03","25","11:00","1.6","","0.2","","90","","12","","19","","4.8","","99.19","","","","","","Rain,Fog"
"1997-03-25 12:00","1997","03","25","12:00","2.7","","1.6","","92","","13","","22","","3.2","","99.02","","","","","","Rain,Fog"
"1997-03-25 13:00","1997","03","25","13:00","3.1","","2.0","","92","","14","","13","","2.4","","98.79","","","","","","Rain,Fog"
"1997-03-25 14:00","1997","03","25","14:00","3.8","","2.8","","93","","13","","11","","3.2","","98.59","","","","","","Rain,Fog"
"1997-03-25 15:00","1997","03","25","15:00","4.0","","2.9","","93","","14","","13","","3.2","","98.42","","","","","","Rain,Fog"
"1997-03-25 16:00","1997","03","25","16:00","4.8","","3.3","","90","","17","","13","","4.0","","98.32","","","","","","Rain,Fog"
"1997-03-25 17:00","1997","03","25","17:00","6.9","","5.7","","92","","20","","19","","4.0","","98.22","","","","","","Rain,Fog"
"1997-03-25 18:00","1997","03","25","18:00","8.0","","7.1","","94","","23","","15","","4.8","","98.22","","","","","","Rain,Fog"
"1997-03-25 19:00","1997","03","25","19:00","8.1","","7.0","","93","","26","","37","","12.9","","98.22","","","","","","Rain"
"1997-03-25 20:00","1997","03","25","20:00","5.9","","3.7","","86","","27","","33","","14.5","","98.32","","","","","","Rain"
"1997-03-25 21:00","1997","03","25","21:00","4.6","","1.6","","81","","28","","30","","12.9","","98.39","","","","","","Cloudy"
"1997-03-25 22:00","1997","03","25","22:00","4.0","","-0.2","","74","","27","","32","","16.1","","98.49","","","","","","Cloudy"
"1997-03-25 23:00","1997","03","25","23:00","3.2","","-0.8","","75","","27","","22","","24.1","","98.49","","","","","","Cloudy"
"1997-03-26 00:00","1997","03","26","00:00","2.9","","-1.5","","73","","26","","20","","24.1","","98.52","","","","","","Mostly Cloudy"
"1997-03-26 01:00","1997","03","26","01:00","2.1","","-2.0","","74","","25","","20","","24.1","","98.49","","","","","","Mostly Cloudy"
"1997-03-26 02:00","1997","03","26","02:00","2.1","","-1.7","","76","","25","","20","","24.1","","98.49","","","","","","Mostly Cloudy"
"1997-03-26 03:00","1997","03","26","03:00","2.4","","-1.6","","75","","25","","26","","24.1","","98.52","","","","","","Cloudy"
"1997-03-26 04:00","1997","03","26","04:00","2.6","","-1.6","","74","","26","","24","","24.1","","98.59","","","","","","Cloudy"
"1997-03-26 05:00","1997","03","26","05:00","2.0","","-3.7","","66","","29","","28","","25.0","","98.72","","","","","","Cloudy"
"1997-03-26 06:00","1997","03","26","06:00","1.5","","-3.0","","72","","27","","22","","24.1","","98.79","","","","","","Cloudy"
"1997-03-26 07:00","1997","03","26","07:00","1.4","","-3.3","","71","","26","","24","","19.3","","98.86","","","","","","Snow"
"1997-03-26 08:00","1997","03","26","08:00","1.2","","-4.9","","64","","29","","32","","24.1","","98.96","","","","","","Cloudy"
"1997-03-26 09:00","1997","03","26","09:00","1.1","","-4.6","","66","","27","","28","","24.1","","98.96","","","","","","Cloudy"
"1997-03-26 10:00","1997","03","26","10:00","1.3","","-4.2","","67","","28","","35","","32.2","","99.02","","","","","","Cloudy"
"1997-03-26 11:00","1997","03","26","11:00","1.2","","-4.2","","67","","28","","37","","32.2","","99.09","","","","","","Cloudy"
"1997-03-26 12:00","1997","03","26","12:00","1.9","","-4.4","","63","","28","","37","","40.2","","99.09","","","","","","Cloudy"
"1997-03-26 13:00","1997","03","26","13:00","1.9","","-4.4","","63","","29","","41","","40.2","","99.12","","","","","","Cloudy"
"1997-03-26 14:00","1997","03","26","14:00","2.2","","-4.5","","61","","29","","35","","40.2","","99.19","","","","","","Cloudy"
"1997-03-26 15:00","1997","03","26","15:00","2.7","","-4.0","","61","","28","","26","","40.2","","99.19","","","","","","Cloudy"
"1997-03-26 16:00","1997","03","26","16:00","2.7","","-4.2","","60","","27","","28","","40.2","","99.19","","","","","","Cloudy"
"1997-03-26 17:00","1997","03","26","17:00","2.8","","-3.7","","62","","26","","22","","40.2","","99.19","","","","","","Mostly Cloudy"
"1997-03-26 18:00","1997","03","26","18:00","2.7","","-4.0","","61","","26","","22","","40.2","","99.22","","","","","","Mostly Cloudy"
"1997-03-26 19:00","1997","03","26","19:00","2.3","","-3.8","","64","","26","","20","","25.0","","99.22","","","","","","Cloudy"
"1997-03-26 20:00","1997","03","26","20:00","2.2","","-3.1","","68","","23","","11","","25.0","","99.19","","","","","","Mostly Cloudy"
"1997-03-26 21:00","1997","03","26","21:00","1.9","","-2.9","","70","","20","","13","","25.0","","99.16","","","","","","Mostly Cloudy"
"1997-03-26 22:00","1997","03","26","22:00","2.1","","-2.6","","71","","21","","19","","24.1","","99.09","","","","","","Mostly Cloudy"
"1997-03-26 23:00","1997","03","26","23:00","1.6","","-2.3","","75","","21","","13","","24.1","","99.06","","","","","","Mostly Cloudy"
"1997-03-27 00:00","1997","03","27","00:00","1.5","","-2.0","","78","","17","","7","","24.1","","98.92","","","","","","Mainly Clear"
"1997-03-27 01:00","1997","03","27","01:00","1.6","","-1.9","","78","","18","","7","","19.3","","98.79","","","","","","Mainly Clear"
"1997-03-27 02:00","1997","03","27","02:00","1.9","","-1.4","","79","","19","","7","","16.1","","98.69","","","","","","Clear"
"1997-03-27 03:00","1997","03","27","03:00","2.0","","-1.3","","79","","","","0","","16.1","","98.59","","","","","","Clear"
"1997-03-27 04:00","1997","03","27","04:00","1.7","","-1.4","","80","","","","0","","12.9","","98.56","","","","","","Clear"
"1997-03-27 05:00","1997","03","27","05:00","3.6","","-0.7","","73","","25","","4","","12.9","","98.56","","","","","","Clear"
"1997-03-27 06:00","1997","03","27","06:00","4.0","","-0.5","","72","","25","","11","","16.1","","98.59","","","","","","Clear"
"1997-03-27 07:00","1997","03","27","07:00","4.5","","0.0","","73","","29","","7","","19.3","","98.69","","","","","","Clear"
"1997-03-27 08:00","1997","03","27","08:00","6.5","","1.2","","69","","26","","13","","19.3","","98.66","","","","","","Clear"
"1997-03-27 09:00","1997","03","27","09:00","8.1","","2.4","","67","","27","","19","","19.3","","98.76","","","","","","Clear"
"1997-03-27 10:00","1997","03","27","10:00","9.5","","3.2","","65","","27","","22","","19.3","","98.82","","","","","","Clear"
"1997-03-27 11:00","1997","03","27","11:00","11.1","","3.9","","61","","28","","15","","24.1","","98.82","","","","","","Clear"
"1997-03-27 12:00","1997","03","27","12:00","12.3","","4.6","","59","","25","","17","","24.1","","98.82","","","","","","Mostly Cloudy"
"1997-03-27 13:00","1997","03","27","13:00","13.1","","4.7","","57","","28","","17","","24.1","","98.86","","","","","","Mostly Cloudy"
"1997-03-27 14:00","1997","03","27","14:00","13.7","","5.4","","57","","27","","19","","24.1","","98.89","","","","","","Mostly Cloudy"
"1997-03-27 15:00","1997","03","27","15:00","13.8","","5.8","","58","","28","","20","","24.1","","98.92","","","","","","Mainly Clear"
"1997-03-27 16:00","1997","03","27","16:00","13.2","","4.6","","56","","30","","17","","24.1","","98.99","","","","","","Mainly Clear"
"1997-03-27 17:00","1997","03","27","17:00","13.1","","5.0","","58","","27","","13","","19.3","","99.02","","","","","","Mainly Clear"
"1997-03-27 18:00","1997","03","27","18:00","11.5","","5.1","","65","","26","","9","","19.3","","99.02","","","","","","Clear"
"1997-03-27 19:00","1997","03","27","19:00","8.8","","3.6","","70","","26","","13","","16.1","","99.12","","","","","","Mainly Clear"
"1997-03-27 20:00","1997","03","27","20:00","8.8","","3.3","","68","","27","","6","","24.1","","99.16","","","","","","Clear"
"1997-03-27 21:00","1997","03","27","21:00","6.3","","2.3","","76","","33","","6","","19.3","","99.19","","","","","","Clear"
"1997-03-27 22:00","1997","03","27","22:00","7.2","","3.1","","75","","","","0","","19.3","","99.26","","","","","","Mainly Clear"
"1997-03-27 23:00","1997","03","27","23:00","7.0","","2.6","","74","","36","","4","","19.3","","99.26","","","","","","Clear"
"1997-03-28 00:00","1997","03","28","00:00","3.6","","1.0","","83","","34","","4","","16.1","","99.22","","","","","","Clear"
"1997-03-28 01:00","1997","03","28","01:00","3.1","","0.4","","82","","","","0","","12.9","","99.22","","","","","","Clear"
"1997-03-28 02:00","1997","03","28","02:00","1.7","","-0.7","","84","","30","","4","","12.9","","99.19","","","","","","Mainly Clear"
"1997-03-28 03:00","1997","03","28","03:00","2.3","","-0.2","","84","","12","","4","","12.9","","99.12","","","","","","Mainly Clear"
"1997-03-28 04:00","1997","03","28","04:00","3.3","","0.4","","81","","9","","4","","12.9","","99.16","","","","","","Mostly Cloudy"
"1997-03-28 05:00","1997","03","28","05:00","1.2","","-0.9","","86","","36","","4","","11.3","","99.12","","","","","","Mostly Cloudy"
"1997-03-28 06:00","1997","03","28","06:00","0.6","","-1.3","","87","","1","","4","","8.0","","99.12","","","","","","Fog"
"1997-03-28 07:00","1997","03","28","07:00","1.4","","-0.7","","86","","","","0","","9.7","","99.12","","","","","","Haze"
"1997-03-28 08:00","1997","03","28","08:00","5.3","","1.9","","79","","","","0","","16.1","","99.09","","","","","","Mostly Cloudy"
"1997-03-28 09:00","1997","03","28","09:00","9.1","","3.3","","67","","13","","7","","12.9","","99.02","","","","","","Clear"
"1997-03-28 10:00","1997","03","28","10:00","9.0","","3.6","","69","","12","","17","","16.1","","98.96","","","","","","Mainly Clear"
"1997-03-28 11:00","1997","03","28","11:00","10.8","","4.9","","67","","14","","9","","16.1","","98.86","","","","","","Mostly Cloudy"
"1997-03-28 12:00","1997","03","28","12:00","11.7","","4.7","","62","","13","","11","","19.3","","98.79","","","","","","Mostly Cloudy"
"1997-03-28 13:00","1997","03","28","13:00","12.5","","5.0","","60","","10","","11","","19.3","","98.66","","","","","","Mostly Cloudy"
"1997-03-28 14:00","1997","03","28","14:00","12.0","","4.8","","61","","11","","11","","19.3","","98.56","","","","","","Cloudy"
"1997-03-28 15:00","1997","03","28","15:00","9.4","","3.4","","66","","18","","13","","19.3","","98.59","","","","","","Cloudy"
"1997-03-28 16:00","1997","03","28","16:00","8.8","","4.0","","72","","7","","11","","19.3","","98.46","","","","","","Mostly Cloudy"
"1997-03-28 17:00","1997","03","28","17:00","10.2","","4.4","","67","","6","","9","","19.3","","98.36","","","","","","Mostly Cloudy"
"1997-03-28 18:00","1997","03","28","18:00","9.4","","4.5","","71","","11","","9","","19.3","","98.32","","","","","","Cloudy"
"1997-03-28 19:00","1997","03","28","19:00","9.2","","3.8","","69","","13","","6","","9.7","","98.26","","","","","","Rain Showers,Haze"
"1997-03-28 20:00","1997","03","28","20:00","8.6","","4.1","","73","","","","0","","9.7","","98.22","","","","","","Rain Showers,Haze"
"1997-03-28 21:00","1997","03","28","21:00","7.6","","4.1","","78","","24","","13","","16.1","","98.29","","","","","","Rain Showers"
"1997-03-28 22:00","1997","03","28","22:00","7.7","","4.1","","78","","14","","9","","16.1","","98.19","","","","","","Rain Showers"
"1997-03-28 23:00","1997","03","28","23:00","6.6","","3.7","","82","","12","","9","","12.9","","98.06","","","","","","Rain Showers"
"1997-03-29 00:00","1997","03","29","00:00","6.4","","4.3","","86","","","","0","","12.9","","98.02","","","","","","Rain Showers"
"1997-03-29 01:00","1997","03","29","01:00","6.6","","4.2","","85","","","","0","","12.9","","97.92","","","","","","Cloudy"
"1997-03-29 02:00","1997","03","29","02:00","6.6","","4.6","","87","","","","0","","12.9","","97.89","","","","","","Cloudy"
"1997-03-29 03:00","1997","03","29","03:00","5.9","","4.4","","90","","9","","4","","9.7","","97.82","","","","","","Rain Showers,Fog"
"1997-03-29 04:00","1997","03","29","04:00","6.2","","4.8","","91","","","","0","","9.7","","97.79","","","","","","Fog"
"1997-03-29 05:00","1997","03","29","05:00","7.0","","5.2","","88","","8","","4","","9.7","","97.76","","","","","","Fog"
"1997-03-29 06:00","1997","03","29","06:00","6.6","","5.0","","90","","8","","4","","6.4","","97.72","","","","","","Fog"
"1997-03-29 07:00","1997","03","29","07:00","6.5","","5.1","","91","","","","0","","2.4","","97.76","","","","","","Rain Showers,Fog"
"1997-03-29 08:00","1997","03","29","08:00","6.8","","5.6","","92","","33","","6","","2.4","","97.72","","","","","","Rain Showers,Fog"
"1997-03-29 09:00","1997","03","29","09:00","6.3","","4.9","","91","","35","","9","","2.0","","97.69","","","","","","Rain,Fog"
"1997-03-29 10:00","1997","03","29","10:00","6.6","","5.5","","93","","","","0","","2.0","","97.69","","","","","","Fog"
"1997-03-29 11:00","1997","03","29","11:00","6.9","","5.9","","93","","","","0","","2.0","","97.76","","","","","","Drizzle,Fog"
"1997-03-29 12:00","1997","03","29","12:00","7.2","","6.3","","94","","","","0","","1.0","","97.79","","","","","","Drizzle,Fog"
"1997-03-29 13:00","1997","03","29","13:00","9.3","","8.5","","95","","","","0","","1.6","","97.79","","","","","","Fog"
"1997-03-29 14:00","1997","03","29","14:00","9.9","","8.4","","90","","33","","9","","4.8","","97.79","","","","","","Fog"
"1997-03-29 15:00","1997","03","29","15:00","9.7","","7.5","","86","","34","","20","","11.3","","97.92","","","","","","Cloudy"
"1997-03-29 16:00","1997","03","29","16:00","8.3","","6.1","","86","","34","","19","","12.9","","98.06","","","","","","Cloudy"
"1997-03-29 17:00","1997","03","29","17:00","8.5","","6.4","","87","","33","","22","","11.3","","98.19","","","","","","Cloudy"
"1997-03-29 18:00","1997","03","29","18:00","7.7","","5.8","","88","","33","","22","","11.3","","98.29","","","","","","Cloudy"
"1997-03-29 19:00","1997","03","29","19:00","7.1","","4.9","","86","","31","","15","","12.9","","98.39","","","","","","Mainly Clear"
"1997-03-29 20:00","1997","03","29","20:00","6.1","","4.0","","86","","30","","7","","12.9","","98.49","","","","","","Mainly Clear"
"1997-03-29 21:00","1997","03","29","21:00","6.1","","3.4","","83","","28","","9","","12.9","","98.62","","","","","","Cloudy"
"1997-03-29 22:00","1997","03","29","22:00","5.4","","2.4","","81","","29","","9","","12.9","","98.69","","","","","","Cloudy"
"1997-03-29 23:00","1997","03","29","23:00","4.6","","1.6","","81","","31","","15","","16.1","","98.79","","","","","","Cloudy"
"1997-03-30 00:00","1997","03","30","00:00","4.4","","1.4","","81","","31","","11","","16.1","","98.82","","","","","","Cloudy"
"1997-03-30 01:00","1997","03","30","01:00","4.0","","0.8","","80","","33","","9","","16.1","","98.89","","","","","","Cloudy"
"1997-03-30 02:00","1997","03","30","02:00","3.1","","0.2","","81","","33","","15","","16.1","","98.92","","","","","","Cloudy"
"1997-03-30 03:00","1997","03","30","03:00","2.6","","-0.6","","79","","34","","7","","19.3","","98.96","","","","","","Cloudy"
"1997-03-30 04:00","1997","03","30","04:00","1.8","","-1.4","","79","","36","","15","","19.3","","98.96","","","","","","Cloudy"
"1997-03-30 05:00","1997","03","30","05:00","0.7","","-2.3","","80","","35","","9","","19.3","","99.02","","","","","","Cloudy"
"1997-03-30 06:00","1997","03","30","06:00","0.7","","-2.3","","80","","35","","9","","19.3","","99.02","","","","","","Cloudy"
"1997-03-30 07:00","1997","03","30","07:00","0.7","","-2.4","","80","","35","","9","","19.3","","99.02","","","","","","Mostly Cloudy"
"1997-03-30 08:00","1997","03","30","08:00","0.9","","-2.3","","79","","36","","9","","19.3","","99.09","","","","","","Cloudy"
"1997-03-30 09:00","1997","03","30","09:00","0.7","","-2.2","","81","","36","","7","","19.3","","99.12","","","","","","Cloudy"
"1997-03-30 10:00","1997","03","30","10:00","1.0","","-2.1","","80","","","","0","","19.3","","99.12","","","","","","Cloudy"
"1997-03-30 11:00","1997","03","30","11:00","1.9","","-1.6","","78","","35","","9","","19.3","","99.09","","","","","","Cloudy"
"1997-03-30 12:00","1997","03","30","12:00","2.0","","-1.5","","78","","30","","6","","19.3","","99.09","","","","","","Cloudy"
"1997-03-30 13:00","1997","03","30","13:00","2.0","","-1.1","","80","","35","","11","","8.0","","98.99","","","","","","Drizzle,Fog"
"1997-03-30 14:00","1997","03","30","14:00","1.2","","-1.2","","84","","1","","13","","4.8","","98.92","","","","","","Snow"
"1997-03-30 15:00","1997","03","30","15:00","0.4","","-1.5","","87","","1","","13","","2.0","","98.89","","","","","","Snow"
"1997-03-30 16:00","1997","03","30","16:00","-0.2","","-2.0","","88","","35","","15","","2.0","","98.86","","","","-5","","Snow"
"1997-03-30 17:00","1997","03","30","17:00","-1.3","","-3.2","","87","","36","","24","","4.0","","98.79","","","","-7","","Snow,Fog"
"1997-03-30 18:00","1997","03","30","18:00","-2.1","","-5.0","","80","","36","","26","","4.0","","98.86","","","","-9","","Snow Grains"
"1997-03-30 19:00","1997","03","30","19:00","-2.8","","-5.7","","80","","36","","22","","4.0","","98.89","","","","-9","","Snow Grains"
"1997-03-30 20:00","1997","03","30","20:00","-3.6","","-6.7","","79","","35","","22","","4.8","","98.92","","","","-10","","Snow Grains"
"1997-03-30 21:00","1997","03","30","21:00","-4.1","","-7.2","","79","","34","","24","","11.3","","98.99","","","","-11","","Snow Grains"
"1997-03-30 22:00","1997","03","30","22:00","-4.1","","-8.1","","74","","33","","28","","16.1","","99.02","","","","-12","","Snow"
"1997-03-30 23:00","1997","03","30","23:00","-4.8","","-8.9","","73","","32","","24","","24.1","","98.99","","","","-12","","Mostly Cloudy"
"1997-03-31 00:00","1997","03","31","00:00","-4.7","","-8.9","","72","","32","","35","","24.1","","98.99","","","","-13","","Cloudy"
"1997-03-31 01:00","1997","03","31","01:00","-5.1","","-8.8","","75","","33","","26","","24.1","","98.99","","","","-13","","Cloudy"
"1997-03-31 02:00","1997","03","31","02:00","-5.2","","-9.0","","75","","33","","28","","24.1","","98.99","","","","-13","","Cloudy"
"1997-03-31 03:00","1997","03","31","03:00","-5.4","","-8.9","","76","","32","","30","","11.3","","98.99","","","","-14","","Snow Showers"
"1997-03-31 04:00","1997","03","31","04:00","-5.6","","-9.2","","76","","33","","32","","9.7","","98.99","","","","-14","","Snow"
"1997-03-31 05:00","1997","03","31","05:00","-5.5","","-9.1","","76","","34","","32","","12.9","","99.02","","","","-14","","Snow"
"1997-03-31 06:00","1997","03","31","06:00","-5.4","","-9.2","","75","","33","","33","","11.3","","99.09","","","","-14","","Snow"
"1997-03-31 07:00","1997","03","31","07:00","-5.4","","-9.0","","76","","34","","32","","12.9","","99.12","","","","-14","","Snow"
"1997-03-31 08:00","1997","03","31","08:00","-5.4","","-8.8","","77","","33","","28","","3.2","","99.19","","","","-13","","Snow"
"1997-03-31 09:00","1997","03","31","09:00","-5.1","","-9.0","","74","","34","","41","","16.1","","99.19","","","","-14","","Mostly Cloudy"
"1997-03-31 10:00","1997","03","31","10:00","-4.9","","-9.2","","72","","33","","37","","12.9","","99.22","","","","-14","","Mostly Cloudy"
"1997-03-31 11:00","1997","03","31","11:00","-4.6","","-8.6","","74","","34","","33","","12.9","","99.22","","","","-13","","Cloudy"
"1997-03-31 12:00","1997","03","31","12:00","-3.2","","-7.8","","70","","33","","37","","24.1","","99.26","","","","-11","","Mostly Cloudy"
"1997-03-31 13:00","1997","03","31","13:00","-2.1","","-7.5","","66","","35","","37","","24.1","","99.29","","","","-10","","Mostly Cloudy"
"1997-03-31 14:00","1997","03","31","14:00","-1.7","","-7.4","","65","","34","","37","","32.2","","99.32","","","","-9","","Mostly Cloudy"
"1997-03-31 15:00","1997","03","31","15:00","-0.5","","-8.1","","56","","33","","44","","40.2","","99.32","","","","-8","","Mostly Cloudy"
"1997-03-31 16:00","1997","03","31","16:00","0.2","","-8.7","","51","","33","","41","","40.2","","99.35","","","","","","Mostly Cloudy"
"1997-03-31 17:00","1997","03","31","17:00","0.5","","-8.7","","50","","34","","44","","40.2","","99.39","","","","","","Mainly Clear"
"1997-03-31 18:00","1997","03","31","18:00","0.7","","-10.0","","45","","33","","41","","40.2","","99.49","","","","","","Clear"
"1997-03-31 19:00","1997","03","31","19:00","0.3","","-10.2","","45","","34","","41","","40.2","","99.55","","","","","","Clear"
"1997-03-31 20:00","1997","03","31","20:00","-0.1","","-9.8","","48","","34","","28","","25.0","","99.69","","","","-6","","Clear"
"1997-03-31 21:00","1997","03","31","21:00","0.0","","-9.8","","48","","34","","32","","25.0","","99.75","","","","-7","","Clear"
"1997-03-31 22:00","1997","03","31","22:00","-0.1","","-10.7","","45","","34","","33","","25.0","","99.79","","","","-7","","Clear"
"1997-03-31 23:00","1997","03","31","23:00","-0.7","","-10.7","","47","","34","","28","","25.0","","99.85","","","","-7","","Clear"
