"Station Name","TORONTO LESTER B. PEARSON INT'L A"
"Province","ONTARIO"
"Latitude","43.68"
"Longitude","-79.63"
"Elevation","173.40"
"Climate Identifier","6158733"
"WMO Identifier","71624"
"TC Identifier","YYZ"
"All times are specified in Local Standard Time (LST). Add 1 hour to adjust for Daylight Saving Time where and when it is observed."

"Legend"
"E","Estimated"
"M","Missing"
"NA","Not Available"

"Date/Time","Year","Month","Day","Time","Temp (°C)","Temp Flag","Dew Point Temp (°C)","Dew Point Temp Flag","Rel Hum (%)","Rel Hum Flag","Wind Dir (10s deg)","Wind Dir Flag","Wind Spd (km/h)","Wind Spd Flag","Visibility (km)","Visibility Flag","Stn Press (kPa)","Stn Press Flag","Hmdx","Hmdx Flag","Wind Chill","Wind Chill Flag","Weather"
"1958-12-01 00:00","1958","12","01","00:00","-8.9","","-11.7","","80","","18","","6","","4.8","","100.72","","","","-12","","Snow"
"1958-12-01 01:00","1958","12","01","01:00","-8.9","","-11.1","","84","","20","","10","","2.4","","100.60","","","","-14","","Snow"
"1958-12-01 02:00","1958","12","01","02:00","-8.9","","-11.1","","84","","16","","6","","9.7","","100.50","","","","-12","","Snow"
"1958-12-01 03:00","1958","12","01","03:00","-8.9","","-11.1","","84","","14","","5","","24.1","","100.39","","","","-12","","Cloudy"
"1958-12-01 04:00","1958","12","01","04:00","-8.3","","-10.6","","84","","18","","10","","24.1","","100.21","","","","-13","","Cloudy"
"1958-12-01 05:00","1958","12","01","05:00","-6.7","","-10.6","","74","","20","","14","","24.1","","100.12","","","","-12","","Snow"
"1958-12-01 06:00","1958","12","01","06:00","-6.1","","-10.0","","74","","20","","16","","24.1","","99.97","","","","-12","","Cloudy"
"1958-12-01 07:00","1958","12","01","07:00","-6.1","","-10.6","","71","","23","","16","","24.1","","99.89","","","","-12","","Snow"
"1958-12-01 08:00","1958","12","01","08:00","-6.1","","-9.4","","77","","23","","13","","4.8","","99.82","","","","-11","","Snow"
"1958-12-01 09:00","1958","12","01","09:00","-6.1","","-9.4","","77","","23","","14","","12.9","","99.73","","","","-12","","Snow"
"1958-12-01 10:00","1958","12","01","10:00","-6.1","","-10.0","","74","","27","","19","","16.1","","99.76","","","","-13","","Mostly Cloudy"
"1958-12-01 11:00","1958","12","01","11:00","-6.1","","-11.1","","68","","27","","16","","16.1","","99.70","","","","-12","","Cloudy"
"1958-12-01 12:00","1958","12","01","12:00","-5.6","","-9.4","","74","","25","","23","","16.1","","99.72","","","","-13","","Cloudy"
"1958-12-01 13:00","1958","12","01","13:00","-5.6","","-7.2","","77","","27","","24","","16.1","","99.68","","","","-13","","Cloudy"
"1958-12-01 14:00","1958","12","01","14:00","-5.0","","-8.9","","74","","23","","26","","16.1","","99.60","","","","-12","","Cloudy"
"1958-12-01 15:00","1958","12","01","15:00","-3.9","","-7.8","","74","","25","","24","","16.1","","99.60","","","","-11","","Mostly Cloudy"
"1958-12-01 16:00","1958","12","01","16:00","-4.4","","-6.7","","84","","23","","21","","16.1","","99.64","","","","-11","","Mostly Cloudy"
"1958-12-01 17:00","1958","12","01","17:00","-3.9","","-6.7","","81","","23","","24","","9.7","","99.66","","","","-11","","Snow"
"1958-12-01 18:00","1958","12","01","18:00","-3.9","","-6.7","","81","","25","","19","","8.0","","99.73","","","","-10","","Snow"
"1958-12-01 19:00","1958","12","01","19:00","-4.4","","-6.1","","88","","23","","19","","16.1","","99.78","","","","-11","","Snow"
"1958-12-01 20:00","1958","12","01","20:00","-3.3","","-5.0","","88","","25","","35","","16.1","","99.77","","","","-11","","Snow"
"1958-12-01 21:00","1958","12","01","21:00","-3.9","","-6.7","","81","","25","","31","","19.3","","99.77","","","","-12","","Mainly Clear"
"1958-12-01 22:00","1958","12","01","22:00","-4.4","","-6.7","","84","","25","","21","","24.1","","99.77","","","","-11","","Mainly Clear"
"1958-12-01 23:00","1958","12","01","23:00","-3.3","","-5.6","","85","","27","","26","","25.0","","99.78","","","","-10","","Mainly Clear"
"1958-12-02 00:00","1958","12","02","00:00","-3.3","","-6.1","","81","","27","","35","","25.0","","99.83","","","","-11","","Mostly Cloudy"
"1958-12-02 01:00","1958","12","02","01:00","-2.8","","-6.1","","78","","27","","24","","16.1","","99.87","","","","-9","","Snow"
"1958-12-02 02:00","1958","12","02","02:00","-3.3","","-5.6","","85","","32","","23","","16.1","","99.94","","","","-10","","Snow"
"1958-12-02 03:00","1958","12","02","03:00","-3.9","","-5.6","","88","","29","","19","","16.1","","100.02","","","","-10","","Snow"
"1958-12-02 04:00","1958","12","02","04:00","-5.0","","-7.8","","81","","29","","26","","24.1","","100.09","","","","-12","","Mainly Clear"
"1958-12-02 05:00","1958","12","02","05:00","-6.1","","-8.3","","84","","34","","13","","25.0","","100.12","","","","-11","","Mainly Clear"
"1958-12-02 06:00","1958","12","02","06:00","-8.9","","-11.1","","84","","32","","13","","25.0","","100.21","","","","-15","","Mainly Clear"
"1958-12-02 07:00","1958","12","02","07:00","-7.2","","-9.4","","84","","34","","8","","24.1","","100.28","","","","-11","","Snow"
"1958-12-02 08:00","1958","12","02","08:00","-9.4","","-12.2","","80","","2","","8","","24.1","","100.40","","","","-14","","Snow"
"1958-12-02 09:00","1958","12","02","09:00","-9.4","","-12.2","","80","","2","","11","","19.3","","100.38","","","","-15","","Snow"
"1958-12-02 10:00","1958","12","02","10:00","-8.9","","-12.2","","77","","2","","16","","24.1","","100.38","","","","-16","","Mostly Cloudy"
"1958-12-02 11:00","1958","12","02","11:00","-8.3","","-13.3","","67","","36","","13","","25.0","","100.36","","","","-14","","Mostly Cloudy"
"1958-12-02 12:00","1958","12","02","12:00","-7.2","","-12.8","","65","","2","","8","","25.0","","100.31","","","","-11","","Mostly Cloudy"
"1958-12-02 13:00","1958","12","02","13:00","-6.7","","-13.3","","59","","5","","8","","25.0","","100.25","","","","-11","","Cloudy"
"1958-12-02 14:00","1958","12","02","14:00","-6.7","","-12.2","","65","","5","","6","","25.0","","100.23","","","","-10","","Cloudy"
"1958-12-02 15:00","1958","12","02","15:00","-6.1","","-10.0","","74","","7","","8","","25.0","","100.24","","","","-10","","Cloudy"
"1958-12-02 16:00","1958","12","02","16:00","-6.1","","-11.1","","68","","9","","5","","24.1","","100.24","","","","-9","","Cloudy"
"1958-12-02 17:00","1958","12","02","17:00","-6.1","","-10.0","","74","","5","","10","","19.3","","100.23","","","","-11","","Cloudy"
"1958-12-02 18:00","1958","12","02","18:00","-6.7","","-10.6","","74","","5","","10","","16.1","","100.22","","","","-11","","Cloudy"
"1958-12-02 19:00","1958","12","02","19:00","-6.7","","-10.6","","74","","5","","6","","8.0","","100.16","","","","-10","","Snow"
"1958-12-02 20:00","1958","12","02","20:00","-6.7","","-10.0","","77","","5","","6","","12.9","","100.08","","","","-10","","Cloudy"
"1958-12-02 21:00","1958","12","02","21:00","-6.1","","-8.9","","81","","9","","11","","12.9","","99.97","","","","-11","","Cloudy"
"1958-12-02 22:00","1958","12","02","22:00","-6.1","","-8.3","","84","","9","","11","","12.9","","99.88","","","","-11","","Cloudy"
"1958-12-02 23:00","1958","12","02","23:00","-5.0","","-7.2","","84","","9","","8","","16.1","","99.82","","","","-9","","Cloudy"
"1958-12-03 00:00","1958","12","03","00:00","-5.0","","-7.2","","84","","7","","5","","12.9","","99.76","","","","-7","","Cloudy"
"1958-12-03 01:00","1958","12","03","01:00","-4.4","","-6.7","","84","","7","","8","","6.4","","99.69","","","","-8","","Snow"
"1958-12-03 02:00","1958","12","03","02:00","-3.9","","-6.1","","85","","7","","10","","12.9","","99.62","","","","-8","","Snow"
"1958-12-03 03:00","1958","12","03","03:00","-3.9","","-6.1","","85","","5","","10","","12.9","","99.58","","","","-8","","Snow"
"1958-12-03 04:00","1958","12","03","04:00","-3.9","","-5.6","","88","","7","","10","","16.1","","99.47","","","","-8","","Snow"
"1958-12-03 05:00","1958","12","03","05:00","-3.9","","-5.0","","92","","7","","10","","16.1","","99.42","","","","-8","","Cloudy"
"1958-12-03 06:00","1958","12","03","06:00","-3.9","","-5.0","","92","","7","","10","","16.1","","99.34","","","","-8","","Cloudy"
"1958-12-03 07:00","1958","12","03","07:00","-3.3","","-5.0","","88","","7","","10","","16.1","","99.32","","","","-7","","Cloudy"
"1958-12-03 08:00","1958","12","03","08:00","-3.3","","-5.0","","88","","7","","10","","6.4","","99.24","","","","-7","","Smoke,Haze"
"1958-12-03 09:00","1958","12","03","09:00","-2.8","","-5.0","","85","","7","","11","","6.4","","99.16","","","","-7","","Smoke,Haze"
"1958-12-03 10:00","1958","12","03","10:00","-1.7","","-3.9","","85","","7","","10","","6.4","","99.11","","","","-5","","Smoke,Haze"
"1958-12-03 11:00","1958","12","03","11:00","0.6","","-3.9","","72","","14","","19","","6.4","","99.01","","","","","","Smoke,Haze"
"1958-12-03 12:00","1958","12","03","12:00","0.6","","-3.3","","75","","14","","16","","6.4","","98.92","","","","","","Smoke,Haze"
"1958-12-03 13:00","1958","12","03","13:00","0.6","","-3.3","","75","","11","","19","","6.4","","98.75","","","","","","Smoke,Haze"
"1958-12-03 14:00","1958","12","03","14:00","1.1","","-2.2","","78","","14","","16","","4.8","","98.68","","","","","","Smoke,Haze"
"1958-12-03 15:00","1958","12","03","15:00","1.1","","-2.2","","78","","14","","16","","4.8","","98.58","","","","","","Smoke,Haze"
"1958-12-03 16:00","1958","12","03","16:00","1.7","","-1.7","","78","","11","","19","","3.2","","98.52","","","","","","Snow,Smoke,Haze"
"1958-12-03 17:00","1958","12","03","17:00","1.7","","-1.1","","82","","14","","16","","3.2","","98.46","","","","","","Smoke,Haze"
"1958-12-03 18:00","1958","12","03","18:00","2.2","","1.1","","92","","14","","14","","1.2","","98.40","","","","","","Drizzle,Fog"
"1958-12-03 19:00","1958","12","03","19:00","2.2","","1.7","","96","","14","","16","","4.8","","98.32","","","","","","Drizzle,Fog"
"1958-12-03 20:00","1958","12","03","20:00","2.8","","1.1","","89","","14","","16","","4.8","","98.26","","","","","","Fog"
"1958-12-03 21:00","1958","12","03","21:00","2.8","","1.7","","92","","14","","16","","3.2","","98.17","","","","","","Rain,Drizzle,Fog"
"1958-12-03 22:00","1958","12","03","22:00","2.8","","1.7","","92","","16","","16","","1.6","","98.09","","","","","","Drizzle,Fog"
"1958-12-03 23:00","1958","12","03","23:00","2.8","","1.7","","92","","14","","16","","2.4","","98.00","","","","","","Drizzle,Fog"
"1958-12-04 00:00","1958","12","04","00:00","2.8","","2.2","","96","","16","","16","","1.0","","97.90","","","","","","Drizzle,Fog"
"1958-12-04 01:00","1958","12","04","01:00","2.8","","2.2","","96","","18","","19","","0.6","","97.84","","","","","","Drizzle,Fog"
"1958-12-04 02:00","1958","12","04","02:00","2.8","","2.2","","96","","16","","19","","0.6","","97.74","","","","","","Drizzle,Fog"
"1958-12-04 03:00","1958","12","04","03:00","2.8","","2.2","","96","","16","","19","","4.8","","97.65","","","","","","Fog"
"1958-12-04 04:00","1958","12","04","04:00","3.3","","2.2","","92","","18","","23","","1.2","","97.57","","","","","","Fog"
"1958-12-04 05:00","1958","12","04","05:00","3.3","","2.2","","92","","18","","19","","3.2","","97.47","","","","","","Drizzle,Fog"
"1958-12-04 06:00","1958","12","04","06:00","3.3","","2.8","","96","","18","","21","","3.2","","97.42","","","","","","Drizzle,Fog"
"1958-12-04 07:00","1958","12","04","07:00","3.3","","2.8","","96","","18","","24","","3.2","","97.39","","","","","","Drizzle,Fog"
"1958-12-04 08:00","1958","12","04","08:00","3.3","","2.8","","96","","20","","24","","4.0","","97.38","","","","","","Fog"
"1958-12-04 09:00","1958","12","04","09:00","3.3","","2.8","","96","","18","","23","","4.0","","97.36","","","","","","Rain,Fog"
"1958-12-04 10:00","1958","12","04","10:00","3.9","","2.8","","92","","20","","19","","4.8","","97.36","","","","","","Rain,Fog"
"1958-12-04 11:00","1958","12","04","11:00","3.9","","2.2","","89","","20","","24","","6.4","","97.35","","","","","","Rain Showers,Fog"
"1958-12-04 12:00","1958","12","04","12:00","3.3","","1.7","","89","","23","","31","","8.0","","97.31","","","","","","Fog"
"1958-12-04 13:00","1958","12","04","13:00","2.8","","1.7","","92","","25","","27","","8.0","","97.29","","","","","","Fog"
"1958-12-04 14:00","1958","12","04","14:00","2.8","","1.7","","92","","23","","24","","8.0","","97.30","","","","","","Fog"
"1958-12-04 15:00","1958","12","04","15:00","2.8","","1.1","","89","","23","","27","","8.0","","97.39","","","","","","Fog"
"1958-12-04 16:00","1958","12","04","16:00","2.8","","1.1","","89","","23","","23","","6.4","","97.49","","","","","","Fog"
"1958-12-04 17:00","1958","12","04","17:00","2.8","","0.6","","85","","23","","26","","6.4","","97.62","","","","","","Fog"
"1958-12-04 18:00","1958","12","04","18:00","2.8","","0.6","","85","","23","","21","","16.1","","97.70","","","","","","Cloudy"
"1958-12-04 19:00","1958","12","04","19:00","3.3","","0.6","","82","","23","","23","","16.1","","97.73","","","","","","Mostly Cloudy"
"1958-12-04 20:00","1958","12","04","20:00","2.2","","1.1","","92","","23","","23","","24.1","","97.81","","","","","","Mainly Clear"
"1958-12-04 21:00","1958","12","04","21:00","2.2","","0.0","","85","","25","","19","","24.1","","97.90","","","","","","Mostly Cloudy"
"1958-12-04 22:00","1958","12","04","22:00","1.7","","-0.6","","85","","20","","13","","24.1","","97.99","","","","","","Mostly Cloudy"
"1958-12-04 23:00","1958","12","04","23:00","1.7","","-0.6","","85","","20","","16","","24.1","","98.04","","","","","","Mostly Cloudy"
"1958-12-05 00:00","1958","12","05","00:00","2.2","","-1.7","","75","","23","","24","","24.1","","98.07","","","","","","Cloudy"
"1958-12-05 01:00","1958","12","05","01:00","2.2","","-1.7","","75","","23","","21","","25.0","","98.07","","","","","","Mostly Cloudy"
"1958-12-05 02:00","1958","12","05","02:00","1.7","","-2.8","","72","","23","","16","","25.0","","98.14","","","","","","Mostly Cloudy"
"1958-12-05 03:00","1958","12","05","03:00","1.1","","-3.3","","72","","27","","21","","25.0","","98.19","","","","","","Mostly Cloudy"
"1958-12-05 04:00","1958","12","05","04:00","-0.6","","-4.4","","75","","27","","11","","25.0","","98.20","","","","-4","","Mainly Clear"
"1958-12-05 05:00","1958","12","05","05:00","-1.1","","-3.3","","85","","29","","10","","25.0","","98.16","","","","-5","","Mainly Clear"
"1958-12-05 06:00","1958","12","05","06:00","-1.1","","-5.0","","75","","27","","10","","25.0","","98.23","","","","-5","","Mostly Cloudy"
"1958-12-05 07:00","1958","12","05","07:00","-1.1","","-5.6","","72","","27","","18","","25.0","","98.22","","","","-6","","Mostly Cloudy"
"1958-12-05 08:00","1958","12","05","08:00","-1.7","","-4.4","","81","","32","","11","","25.0","","98.26","","","","-6","","Cloudy"
"1958-12-05 09:00","1958","12","05","09:00","-1.7","","-5.6","","75","","29","","21","","25.0","","98.26","","","","-8","","Cloudy"
"1958-12-05 10:00","1958","12","05","10:00","-1.1","","-6.1","","69","","29","","26","","25.0","","98.26","","","","-7","","Cloudy"
"1958-12-05 11:00","1958","12","05","11:00","-0.6","","-4.4","","75","","32","","31","","25.0","","98.23","","","","-7","","Cloudy"
"1958-12-05 12:00","1958","12","05","12:00","-0.6","","-5.6","","69","","29","","29","","25.0","","98.17","","","","-7","","Cloudy"
"1958-12-05 13:00","1958","12","05","13:00","-0.6","","-4.4","","75","","29","","34","","25.0","","98.17","","","","-8","","Cloudy"
"1958-12-05 14:00","1958","12","05","14:00","-0.6","","-3.3","","81","","29","","31","","25.0","","98.24","","","","-7","","Cloudy"
"1958-12-05 15:00","1958","12","05","15:00","-0.6","","-4.4","","75","","29","","37","","25.0","","98.33","","","","-8","","Snow"
"1958-12-05 16:00","1958","12","05","16:00","-1.1","","-4.4","","78","","29","","40","","25.0","","98.45","","","","-9","","Snow"
"1958-12-05 17:00","1958","12","05","17:00","-2.2","","-6.1","","75","","27","","26","","25.0","","98.52","","","","-9","","Mostly Cloudy"
"1958-12-05 18:00","1958","12","05","18:00","-3.3","","-6.1","","81","","27","","29","","4.0","","98.57","","","","-11","","Snow Showers"
"1958-12-05 19:00","1958","12","05","19:00","-4.4","","-5.6","","92","","27","","23","","16.1","","98.60","","","","-11","","Mostly Cloudy"
"1958-12-05 20:00","1958","12","05","20:00","-4.4","","-7.8","","78","","27","","19","","16.1","","98.69","","","","-11","","Mainly Clear"
"1958-12-05 21:00","1958","12","05","21:00","-5.0","","-8.3","","77","","27","","23","","4.0","","98.72","","","","-12","","Snow Showers"
"1958-12-05 22:00","1958","12","05","22:00","-6.1","","-11.1","","68","","27","","35","","16.1","","98.74","","","","-15","","Mainly Clear"
"1958-12-05 23:00","1958","12","05","23:00","-7.2","","-12.8","","65","","27","","32","","19.3","","98.78","","","","-16","","Mainly Clear"
"1958-12-06 00:00","1958","12","06","00:00","-7.8","","-12.8","","67","","27","","32","","25.0","","98.77","","","","-17","","Clear"
"1958-12-06 01:00","1958","12","06","01:00","-7.8","","-12.8","","67","","27","","31","","25.0","","98.80","","","","-17","","Clear"
"1958-12-06 02:00","1958","12","06","02:00","-8.3","","-11.7","","77","","27","","26","","25.0","","98.86","","","","-17","","Clear"
"1958-12-06 03:00","1958","12","06","03:00","-8.3","","-12.2","","74","","27","","27","","25.0","","98.90","","","","-17","","Mainly Clear"
"1958-12-06 04:00","1958","12","06","04:00","-7.8","","-11.7","","74","","27","","34","","25.0","","98.91","","","","-17","","Mainly Clear"
"1958-12-06 05:00","1958","12","06","05:00","-8.3","","-12.2","","74","","29","","32","","25.0","","98.95","","","","-18","","Mainly Clear"
"1958-12-06 06:00","1958","12","06","06:00","-8.9","","-12.8","","73","","29","","40","","25.0","","99.01","","","","-19","","Clear"
"1958-12-06 07:00","1958","12","06","07:00","-9.4","","-14.4","","67","","27","","45","","25.0","","99.08","","","","-20","","Clear"
"1958-12-06 08:00","1958","12","06","08:00","-10.6","","-14.4","","73","","27","","40","","25.0","","99.11","","","","-22","","Clear"
"1958-12-06 09:00","1958","12","06","09:00","-10.0","","-14.4","","70","","27","","48","","25.0","","99.20","","","","-22","","Mainly Clear"
"1958-12-06 10:00","1958","12","06","10:00","-9.4","","-13.3","","73","","27","","50","","25.0","","99.30","","","","-21","","Mainly Clear"
"1958-12-06 11:00","1958","12","06","11:00","-8.3","","-12.2","","74","","27","","55","","25.0","","99.34","","","","-20","","Mainly Clear"
"1958-12-06 12:00","1958","12","06","12:00","-6.7","","-13.3","","59","","27","","55","","25.0","","99.35","","","","-18","","Mainly Clear"
"1958-12-06 13:00","1958","12","06","13:00","-7.2","","-14.4","","56","","27","","55","","25.0","","99.34","","","","-18","","Mainly Clear"
"1958-12-06 14:00","1958","12","06","14:00","-6.1","","-10.0","","74","","25","","48","","25.0","","99.36","","","","-16","","Mainly Clear"
"1958-12-06 15:00","1958","12","06","15:00","-6.1","","-11.1","","68","","25","","42","","24.1","","99.41","","","","-16","","Mainly Clear"
"1958-12-06 16:00","1958","12","06","16:00","-6.1","","-9.4","","77","","25","","34","","16.1","","99.46","","","","-15","","Mainly Clear"
"1958-12-06 17:00","1958","12","06","17:00","-5.6","","-10.0","","71","","27","","40","","12.9","","99.56","","","","-15","","Snow Showers"
"1958-12-06 18:00","1958","12","06","18:00","-5.6","","-8.9","","77","","27","","40","","6.4","","99.63","","","","-15","","Snow Showers"
"1958-12-06 19:00","1958","12","06","19:00","-6.1","","-8.3","","84","","27","","39","","4.8","","99.70","","","","-15","","Snow Showers"
"1958-12-06 20:00","1958","12","06","20:00","-6.7","","-10.0","","77","","27","","39","","16.1","","99.75","","","","-16","","Snow Showers"
"1958-12-06 21:00","1958","12","06","21:00","-6.7","","-10.0","","77","","27","","37","","9.7","","99.77","","","","-16","","Snow Showers"
"1958-12-06 22:00","1958","12","06","22:00","-6.7","","-8.9","","84","","29","","19","","1.6","","99.84","","","","-14","","Snow Showers"
"1958-12-06 23:00","1958","12","06","23:00","-7.2","","-9.4","","84","","27","","23","","4.8","","99.88","","","","-15","","Snow Showers"
"1958-12-07 00:00","1958","12","07","00:00","-7.2","","-9.4","","84","","27","","19","","4.8","","99.90","","","","-14","","Snow Showers"
"1958-12-07 01:00","1958","12","07","01:00","-7.2","","-9.4","","84","","27","","19","","4.8","","99.90","","","","-14","","Snow Showers"
"1958-12-07 02:00","1958","12","07","02:00","-7.2","","-9.4","","84","","25","","16","","12.9","","99.90","","","","-14","","Snow Showers"
"1958-12-07 03:00","1958","12","07","03:00","-6.1","","-8.9","","81","","25","","29","","25.0","","99.91","","","","-14","","Cloudy"
"1958-12-07 04:00","1958","12","07","04:00","-6.7","","-10.0","","77","","27","","32","","24.1","","99.93","","","","-15","","Cloudy"
"1958-12-07 05:00","1958","12","07","05:00","-6.7","","-10.0","","77","","25","","32","","24.1","","99.94","","","","-15","","Cloudy"
"1958-12-07 06:00","1958","12","07","06:00","-6.7","","-11.1","","71","","25","","32","","12.9","","99.98","","","","-15","","Snow Showers"
"1958-12-07 07:00","1958","12","07","07:00","-7.2","","-11.7","","71","","25","","32","","12.9","","100.00","","","","-16","","Snow Showers"
"1958-12-07 08:00","1958","12","07","08:00","-7.2","","-11.7","","71","","25","","29","","24.1","","100.01","","","","-16","","Mostly Cloudy"
"1958-12-07 09:00","1958","12","07","09:00","-8.3","","-11.7","","77","","25","","27","","16.1","","100.03","","","","-17","","Snow Showers"
"1958-12-07 10:00","1958","12","07","10:00","-8.3","","-11.7","","77","","25","","32","","19.3","","100.04","","","","-18","","Mainly Clear"
"1958-12-07 11:00","1958","12","07","11:00","-7.2","","-11.1","","74","","27","","40","","19.3","","100.02","","","","-17","","Mainly Clear"
"1958-12-07 12:00","1958","12","07","12:00","-7.2","","-11.1","","74","","27","","40","","24.1","","100.00","","","","-17","","Mostly Cloudy"
"1958-12-07 13:00","1958","12","07","13:00","-7.2","","-11.1","","74","","27","","40","","24.1","","99.87","","","","-17","","Mostly Cloudy"
"1958-12-07 14:00","1958","12","07","14:00","-6.7","","-11.7","","68","","25","","39","","24.1","","99.84","","","","-16","","Mostly Cloudy"
"1958-12-07 15:00","1958","12","07","15:00","-6.7","","-10.0","","77","","25","","42","","6.4","","99.84","","","","-17","","Snow Showers"
"1958-12-07 16:00","1958","12","07","16:00","-7.2","","-10.6","","77","","27","","37","","19.3","","99.78","","","","-17","","Mostly Cloudy"
"1958-12-07 17:00","1958","12","07","17:00","-7.2","","-11.1","","74","","27","","32","","19.3","","99.82","","","","-16","","Mostly Cloudy"
"1958-12-07 18:00","1958","12","07","18:00","-7.2","","-10.6","","77","","27","","29","","19.3","","99.80","","","","-16","","Cloudy"
"1958-12-07 19:00","1958","12","07","19:00","-7.2","","-11.7","","71","","27","","23","","19.3","","99.79","","","","-15","","Mostly Cloudy"
"1958-12-07 20:00","1958","12","07","20:00","-7.8","","-10.6","","81","","25","","19","","16.1","","99.76","","","","-15","","Snow"
"1958-12-07 21:00","1958","12","07","21:00","-7.8","","-10.6","","81","","25","","26","","16.1","","99.74","","","","-16","","Snow"
"1958-12-07 22:00","1958","12","07","22:00","-8.3","","-11.7","","77","","25","","26","","16.1","","99.70","","","","-17","","Mostly Cloudy"
"1958-12-07 23:00","1958","12","07","23:00","-8.3","","-11.7","","77","","25","","27","","16.1","","99.68","","","","-17","","Mostly Cloudy"
"1958-12-08 00:00","1958","12","08","00:00","-9.4","","-11.7","","84","","25","","19","","25.0","","99.59","","","","-17","","Mainly Clear"
"1958-12-08 01:00","1958","12","08","01:00","-8.9","","-12.8","","73","","27","","26","","25.0","","99.63","","","","-18","","Mainly Clear"
"1958-12-08 02:00","1958","12","08","02:00","-9.4","","-12.8","","77","","27","","19","","25.0","","99.66","","","","-17","","Mainly Clear"
"1958-12-08 03:00","1958","12","08","03:00","-9.4","","-13.3","","73","","27","","21","","25.0","","99.68","","","","-17","","Mainly Clear"
"1958-12-08 04:00","1958","12","08","04:00","-10.0","","-13.9","","73","","27","","26","","25.0","","99.70","","","","-19","","Mainly Clear"
"1958-12-08 05:00","1958","12","08","05:00","-10.0","","-13.3","","77","","27","","27","","25.0","","99.73","","","","-19","","Mainly Clear"
"1958-12-08 06:00","1958","12","08","06:00","-10.0","","-13.9","","73","","27","","21","","25.0","","99.73","","","","-18","","Mainly Clear"
"1958-12-08 07:00","1958","12","08","07:00","-10.0","","-12.8","","80","","23","","16","","25.0","","99.76","","","","-17","","Mainly Clear"
"1958-12-08 08:00","1958","12","08","08:00","-11.1","","-13.9","","80","","23","","13","","25.0","","99.75","","","","-18","","Mainly Clear"
"1958-12-08 09:00","1958","12","08","09:00","-10.0","","-12.2","","84","","25","","37","","25.0","","99.78","","","","-20","","Mostly Cloudy"
"1958-12-08 10:00","1958","12","08","10:00","-8.9","","-11.1","","84","","25","","24","","25.0","","99.84","","","","-17","","Mostly Cloudy"
"1958-12-08 11:00","1958","12","08","11:00","-8.3","","-11.7","","77","","25","","31","","25.0","","99.84","","","","-17","","Cloudy"
"1958-12-08 12:00","1958","12","08","12:00","-7.2","","-12.2","","68","","25","","31","","25.0","","99.78","","","","-16","","Mostly Cloudy"
"1958-12-08 13:00","1958","12","08","13:00","-7.2","","-11.1","","74","","25","","31","","25.0","","99.70","","","","-16","","Snow"
"1958-12-08 14:00","1958","12","08","14:00","-7.8","","-10.6","","81","","25","","21","","6.4","","99.61","","","","-15","","Snow"
"1958-12-08 15:00","1958","12","08","15:00","-8.3","","-10.0","","88","","25","","21","","4.0","","99.59","","","","-16","","Snow"
"1958-12-08 16:00","1958","12","08","16:00","-7.8","","-10.0","","84","","25","","14","","16.1","","99.58","","","","-14","","Cloudy"
"1958-12-08 17:00","1958","12","08","17:00","-8.3","","-11.1","","80","","27","","10","","4.8","","99.53","","","","-13","","Snow"
"1958-12-08 18:00","1958","12","08","18:00","-8.3","","-11.1","","80","","25","","6","","4.8","","99.49","","","","-12","","Snow"
"1958-12-08 19:00","1958","12","08","19:00","-8.9","","-10.0","","92","","23","","6","","9.7","","99.49","","","","-12","","Snow"
"1958-12-08 20:00","1958","12","08","20:00","-8.3","","-10.6","","84","","20","","6","","16.1","","99.42","","","","-12","","Cloudy"
"1958-12-08 21:00","1958","12","08","21:00","-8.9","","-10.0","","92","","18","","6","","9.7","","99.40","","","","-12","","Snow"
"1958-12-08 22:00","1958","12","08","22:00","-8.3","","-10.0","","88","","18","","10","","6.4","","99.38","","","","-13","","Snow"
"1958-12-08 23:00","1958","12","08","23:00","-8.9","","-10.0","","92","","18","","11","","6.4","","99.37","","","","-14","","Snow"
"1958-12-09 00:00","1958","12","09","00:00","-8.9","","-10.6","","88","","23","","11","","6.4","","99.34","","","","-14","","Snow"
"1958-12-09 01:00","1958","12","09","01:00","-9.4","","-11.1","","88","","23","","13","","12.9","","99.30","","","","-15","","Ice Crystals"
"1958-12-09 02:00","1958","12","09","02:00","-10.0","","-12.2","","84","","23","","16","","12.9","","99.29","","","","-17","","Ice Crystals"
"1958-12-09 03:00","1958","12","09","03:00","-10.6","","-12.8","","84","","23","","19","","16.1","","99.32","","","","-18","","Mainly Clear"
"1958-12-09 04:00","1958","12","09","04:00","-11.7","","-13.9","","84","","23","","16","","16.1","","99.28","","","","-19","","Mainly Clear"
"1958-12-09 05:00","1958","12","09","05:00","-11.1","","-12.2","","91","","25","","21","","16.1","","99.32","","","","-19","","Clear"
"1958-12-09 06:00","1958","12","09","06:00","-10.6","","-12.8","","84","","25","","26","","25.0","","99.34","","","","-20","","Mainly Clear"
"1958-12-09 07:00","1958","12","09","07:00","-10.6","","-13.3","","80","","25","","21","","25.0","","99.39","","","","-19","","Clear"
"1958-12-09 08:00","1958","12","09","08:00","-11.1","","-13.9","","80","","27","","27","","25.0","","99.44","","","","-21","","Mainly Clear"
"1958-12-09 09:00","1958","12","09","09:00","-9.4","","-14.4","","67","","27","","40","","25.0","","99.55","","","","-20","","Mainly Clear"
"1958-12-09 10:00","1958","12","09","10:00","-8.3","","-12.2","","74","","27","","32","","25.0","","99.71","","","","-18","","Mainly Clear"
"1958-12-09 11:00","1958","12","09","11:00","-7.2","","-11.1","","74","","27","","34","","25.0","","99.75","","","","-16","","Mainly Clear"
"1958-12-09 12:00","1958","12","09","12:00","-6.7","","-10.0","","77","","27","","27","","25.0","","99.78","","","","-15","","Mainly Clear"
"1958-12-09 13:00","1958","12","09","13:00","-6.7","","-9.4","","81","","27","","31","","25.0","","99.79","","","","-15","","Mostly Cloudy"
"1958-12-09 14:00","1958","12","09","14:00","-6.7","","-9.4","","81","","27","","21","","2.0","","99.79","","","","-14","","Snow Showers"
"1958-12-09 15:00","1958","12","09","15:00","-8.3","","-11.1","","80","","36","","10","","2.0","","99.85","","","","-13","","Snow Showers"
"1958-12-09 16:00","1958","12","09","16:00","-8.3","","-11.1","","80","","29","","6","","1.2","","99.90","","","","-12","","Snow Showers"
"1958-12-09 17:00","1958","12","09","17:00","-8.3","","-11.1","","80","","29","","23","","2.4","","99.96","","","","-16","","Snow Showers"
"1958-12-09 18:00","1958","12","09","18:00","-8.9","","-11.7","","80","","27","","13","","2.8","","100.06","","","","-15","","Snow Showers"
"1958-12-09 19:00","1958","12","09","19:00","-8.9","","-11.7","","80","","27","","24","","19.3","","100.09","","","","-17","","Snow Showers"
"1958-12-09 20:00","1958","12","09","20:00","-10.0","","-13.3","","77","","25","","21","","24.1","","100.14","","","","-18","","Snow Showers"
"1958-12-09 21:00","1958","12","09","21:00","-11.7","","-15.0","","76","","25","","23","","25.0","","100.13","","","","-21","","Mainly Clear"
"1958-12-09 22:00","1958","12","09","22:00","-12.2","","-15.0","","80","","25","","24","","25.0","","100.13","","","","-21","","Mainly Clear"
"1958-12-09 23:00","1958","12","09","23:00","-11.1","","-14.4","","76","","25","","29","","25.0","","100.16","","","","-21","","Mainly Clear"
"1958-12-10 00:00","1958","12","10","00:00","-11.1","","-13.9","","80","","25","","29","","25.0","","100.18","","","","-21","","Mostly Cloudy"
"1958-12-10 01:00","1958","12","10","01:00","-11.1","","-13.9","","80","","27","","34","","25.0","","100.18","","","","-22","","Mostly Cloudy"
"1958-12-10 02:00","1958","12","10","02:00","-11.7","","-15.0","","76","","25","","27","","25.0","","100.19","","","","-21","","Mainly Clear"
"1958-12-10 03:00","1958","12","10","03:00","-11.7","","-15.0","","76","","27","","31","","25.0","","100.26","","","","-22","","Mainly Clear"
"1958-12-10 04:00","1958","12","10","04:00","-12.2","","-15.6","","76","","27","","27","","25.0","","100.28","","","","-22","","Mainly Clear"
"1958-12-10 05:00","1958","12","10","05:00","-12.2","","-15.6","","76","","27","","23","","25.0","","100.33","","","","-21","","Mainly Clear"
"1958-12-10 06:00","1958","12","10","06:00","-12.8","","-15.6","","80","","29","","13","","25.0","","100.44","","","","-20","","Mostly Cloudy"
"1958-12-10 07:00","1958","12","10","07:00","-11.1","","-13.9","","80","","36","","13","","9.7","","100.49","","","","-18","","Snow Showers"
"1958-12-10 08:00","1958","12","10","08:00","-12.8","","-16.1","","76","","2","","8","","19.3","","100.60","","","","-18","","Snow Showers"
"1958-12-10 09:00","1958","12","10","09:00","-12.2","","-17.2","","66","","36","","8","","25.0","","100.71","","","","-17","","Mainly Clear"
"1958-12-10 10:00","1958","12","10","10:00","-12.2","","-16.1","","73","","36","","11","","25.0","","100.79","","","","-18","","Mainly Clear"
"1958-12-10 11:00","1958","12","10","11:00","-11.7","","-13.9","","84","","36","","8","","25.0","","100.80","","","","-16","","Mainly Clear"
"1958-12-10 12:00","1958","12","10","12:00","-10.6","","-16.1","","64","","36","","10","","25.0","","100.77","","","","-16","","Mainly Clear"
"1958-12-10 13:00","1958","12","10","13:00","-10.0","","-15.6","","64","","2","","6","","25.0","","100.75","","","","-14","","Mainly Clear"
"1958-12-10 14:00","1958","12","10","14:00","-8.9","","-14.4","","64","","5","","5","","25.0","","100.74","","","","-12","","Mainly Clear"
"1958-12-10 15:00","1958","12","10","15:00","-8.9","","-14.4","","64","","7","","5","","25.0","","100.72","","","","-12","","Mainly Clear"
"1958-12-10 16:00","1958","12","10","16:00","-9.4","","-14.4","","67","","36","","5","","25.0","","100.73","","","","-12","","Mainly Clear"
"1958-12-10 17:00","1958","12","10","17:00","-10.6","","-16.1","","64","","","","0","","25.0","","100.73","","","","","","Mainly Clear"
"1958-12-10 18:00","1958","12","10","18:00","-11.1","","-16.1","","67","","27","","6","","25.0","","100.73","","","","-15","","Mainly Clear"
"1958-12-10 19:00","1958","12","10","19:00","-11.1","","-15.0","","73","","23","","8","","24.1","","100.76","","","","-16","","Mostly Cloudy"
"1958-12-10 20:00","1958","12","10","20:00","-10.6","","-13.9","","76","","23","","13","","25.0","","100.76","","","","-17","","Clear"
"1958-12-10 21:00","1958","12","10","21:00","-12.8","","-16.1","","76","","23","","13","","25.0","","100.71","","","","-20","","Clear"
"1958-12-10 22:00","1958","12","10","22:00","-13.3","","-16.1","","80","","27","","16","","25.0","","100.69","","","","-21","","Clear"
"1958-12-10 23:00","1958","12","10","23:00","-13.3","","-16.1","","80","","27","","13","","25.0","","100.66","","","","-20","","Clear"
"1958-12-11 00:00","1958","12","11","00:00","-13.3","","-17.2","","73","","25","","10","","25.0","","100.62","","","","-19","","Clear"
"1958-12-11 01:00","1958","12","11","01:00","-13.3","","-16.7","","76","","23","","11","","25.0","","100.57","","","","-20","","Clear"
"1958-12-11 02:00","1958","12","11","02:00","-13.3","","-16.7","","76","","27","","16","","25.0","","100.54","","","","-21","","Clear"
"1958-12-11 03:00","1958","12","11","03:00","-13.9","","-16.7","","80","","27","","8","","25.0","","100.52","","","","-19","","Clear"
"1958-12-11 04:00","1958","12","11","04:00","-13.9","","-17.2","","76","","27","","13","","25.0","","100.47","","","","-21","","Clear"
"1958-12-11 05:00","1958","12","11","05:00","-14.4","","-17.2","","79","","25","","8","","24.1","","100.39","","","","-20","","Clear"
"1958-12-11 06:00","1958","12","11","06:00","-14.4","","-17.2","","79","","25","","10","","25.0","","100.39","","","","-21","","Clear"
"1958-12-11 07:00","1958","12","11","07:00","-14.4","","-17.2","","79","","27","","11","","25.0","","100.38","","","","-21","","Mainly Clear"
"1958-12-11 08:00","1958","12","11","08:00","-14.4","","-17.2","","79","","25","","13","","19.3","","100.38","","","","-22","","Mainly Clear"
"1958-12-11 09:00","1958","12","11","09:00","-13.3","","-16.1","","80","","27","","10","","16.1","","100.38","","","","-19","","Mainly Clear"
"1958-12-11 10:00","1958","12","11","10:00","-11.7","","-13.9","","84","","27","","10","","16.1","","100.38","","","","-17","","Mainly Clear"
"1958-12-11 11:00","1958","12","11","11:00","-8.9","","-11.1","","84","","25","","10","","16.1","","100.34","","","","-14","","Mainly Clear"
"1958-12-11 12:00","1958","12","11","12:00","-7.8","","-13.9","","62","","27","","14","","16.1","","100.32","","","","-14","","Mainly Clear"
"1958-12-11 13:00","1958","12","11","13:00","-6.1","","-12.8","","59","","25","","11","","16.1","","100.13","","","","-11","","Mainly Clear"
"1958-12-11 14:00","1958","12","11","14:00","-6.7","","-12.2","","65","","27","","8","","16.1","","100.05","","","","-11","","Mostly Cloudy"
"1958-12-11 15:00","1958","12","11","15:00","-7.2","","-12.8","","65","","2","","8","","16.1","","100.02","","","","-11","","Mostly Cloudy"
"1958-12-11 16:00","1958","12","11","16:00","-7.2","","-10.6","","77","","2","","6","","16.1","","99.99","","","","-10","","Mostly Cloudy"
"1958-12-11 17:00","1958","12","11","17:00","-8.3","","-13.9","","64","","2","","6","","16.1","","99.98","","","","-12","","Mostly Cloudy"
"1958-12-11 18:00","1958","12","11","18:00","-7.8","","-12.2","","70","","34","","6","","16.1","","100.00","","","","-11","","Cloudy"
"1958-12-11 19:00","1958","12","11","19:00","-7.8","","-13.3","","64","","32","","8","","9.7","","100.02","","","","-12","","Snow"
"1958-12-11 20:00","1958","12","11","20:00","-8.9","","-12.8","","73","","32","","6","","4.8","","99.98","","","","-12","","Snow"
"1958-12-11 21:00","1958","12","11","21:00","-9.4","","-11.7","","84","","34","","6","","6.4","","99.92","","","","-13","","Snow"
"1958-12-11 22:00","1958","12","11","22:00","-9.4","","-11.1","","88","","2","","8","","4.8","","99.85","","","","-14","","Snow"
"1958-12-11 23:00","1958","12","11","23:00","-10.0","","-11.7","","88","","36","","8","","8.0","","99.82","","","","-14","","Snow"
"1958-12-12 00:00","1958","12","12","00:00","-10.0","","-11.7","","88","","36","","10","","8.0","","99.77","","","","-15","","Snow"
"1958-12-12 01:00","1958","12","12","01:00","-10.6","","-11.7","","91","","36","","8","","4.8","","99.68","","","","-15","","Snow"
"1958-12-12 02:00","1958","12","12","02:00","-10.6","","-12.2","","87","","36","","10","","6.4","","99.65","","","","-16","","Snow"
"1958-12-12 03:00","1958","12","12","03:00","-10.6","","-12.2","","87","","36","","10","","6.4","","99.62","","","","-16","","Snow"
"1958-12-12 04:00","1958","12","12","04:00","-10.6","","-11.7","","91","","36","","10","","4.8","","99.57","","","","-16","","Snow"
"1958-12-12 05:00","1958","12","12","05:00","-10.0","","-11.7","","88","","36","","13","","4.8","","99.51","","","","-16","","Snow"
"1958-12-12 06:00","1958","12","12","06:00","-10.6","","-11.7","","91","","36","","11","","8.0","","99.48","","","","-16","","Snow"
"1958-12-12 07:00","1958","12","12","07:00","-11.1","","-12.2","","91","","36","","14","","11.3","","99.46","","","","-18","","Mostly Cloudy"
"1958-12-12 08:00","1958","12","12","08:00","-10.0","","-11.1","","92","","36","","14","","4.8","","99.45","","","","-16","","Snow,Fog"
"1958-12-12 09:00","1958","12","12","09:00","-8.9","","-10.6","","88","","36","","13","","4.0","","99.45","","","","-15","","Snow,Fog"
"1958-12-12 10:00","1958","12","12","10:00","-7.8","","-10.0","","84","","2","","13","","6.4","","99.45","","","","-14","","Haze"
"1958-12-12 11:00","1958","12","12","11:00","-6.7","","-10.6","","74","","5","","14","","8.0","","99.45","","","","-12","","Snow,Haze"
"1958-12-12 12:00","1958","12","12","12:00","-5.6","","-10.0","","71","","11","","19","","8.0","","99.38","","","","-12","","Haze"
"1958-12-12 13:00","1958","12","12","13:00","-5.6","","-9.4","","74","","11","","24","","12.9","","99.39","","","","-13","","Mostly Cloudy"
"1958-12-12 14:00","1958","12","12","14:00","-5.6","","-10.0","","71","","11","","16","","19.3","","99.34","","","","-12","","Mostly Cloudy"
"1958-12-12 15:00","1958","12","12","15:00","-6.1","","-8.9","","81","","9","","13","","2.0","","99.39","","","","-11","","Snow Showers"
"1958-12-12 16:00","1958","12","12","16:00","-7.2","","-8.9","","88","","9","","16","","1.6","","99.43","","","","-14","","Snow Showers"
"1958-12-12 17:00","1958","12","12","17:00","-8.3","","-10.0","","88","","5","","14","","1.6","","99.53","","","","-14","","Snow Showers"
"1958-12-12 18:00","1958","12","12","18:00","-8.9","","-11.1","","84","","5","","16","","4.8","","99.57","","","","-16","","Snow Showers"
"1958-12-12 19:00","1958","12","12","19:00","-9.4","","-11.1","","88","","7","","11","","2.4","","99.61","","","","-15","","Snow"
"1958-12-12 20:00","1958","12","12","20:00","-10.0","","-11.1","","92","","5","","11","","11.3","","99.63","","","","-16","","Snow"
"1958-12-12 21:00","1958","12","12","21:00","-10.6","","-12.2","","87","","2","","13","","11.3","","99.67","","","","-17","","Snow"
"1958-12-12 22:00","1958","12","12","22:00","-12.2","","-13.9","","87","","36","","10","","16.1","","99.71","","","","-18","","Snow"
"1958-12-12 23:00","1958","12","12","23:00","-12.8","","-14.4","","87","","36","","10","","12.9","","99.75","","","","-19","","Snow"
"1958-12-13 00:00","1958","12","13","00:00","-13.9","","-15.6","","87","","36","","11","","16.1","","99.74","","","","-20","","Mainly Clear"
"1958-12-13 01:00","1958","12","13","01:00","-14.4","","-16.1","","87","","36","","11","","24.1","","99.75","","","","-21","","Clear"
"1958-12-13 02:00","1958","12","13","02:00","-15.0","","-17.2","","83","","36","","13","","24.1","","99.79","","","","-22","","Clear"
"1958-12-13 03:00","1958","12","13","03:00","-15.6","","-17.8","","83","","36","","11","","25.0","","99.87","","","","-22","","Clear"
"1958-12-13 04:00","1958","12","13","04:00","-15.6","","-17.2","","87","","36","","14","","25.0","","99.89","","","","-23","","Clear"
"1958-12-13 05:00","1958","12","13","05:00","-16.7","","-19.4","","79","","36","","13","","24.1","","99.94","","","","-24","","Clear"
"1958-12-13 06:00","1958","12","13","06:00","-17.2","","-19.4","","83","","34","","10","","25.0","","100.01","","","","-24","","Mainly Clear"
"1958-12-13 07:00","1958","12","13","07:00","-18.3","","-20.6","","83","","32","","10","","25.0","","100.13","","","","-25","","Clear"
"1958-12-13 08:00","1958","12","13","08:00","-18.3","","-20.6","","83","","36","","10","","12.9","","100.21","","","","-25","","Mainly Clear"
"1958-12-13 09:00","1958","12","13","09:00","-17.2","","-19.4","","83","","32","","8","","6.4","","100.30","","","","-23","","Fog,Smoke"
"1958-12-13 10:00","1958","12","13","10:00","-13.9","","-16.1","","83","","27","","8","","6.4","","100.38","","","","-19","","Fog,Smoke"
"1958-12-13 11:00","1958","12","13","11:00","-11.1","","-13.3","","84","","27","","10","","11.3","","100.43","","","","-17","","Mainly Clear"
"1958-12-13 12:00","1958","12","13","12:00","-7.2","","-10.0","","84","","29","","16","","19.3","","100.43","","","","-14","","Clear"
"1958-12-13 13:00","1958","12","13","13:00","-6.1","","-10.0","","74","","29","","19","","25.0","","100.48","","","","-13","","Clear"
"1958-12-13 14:00","1958","12","13","14:00","-5.6","","-10.0","","71","","29","","23","","25.0","","100.52","","","","-13","","Mainly Clear"
"1958-12-13 15:00","1958","12","13","15:00","-5.6","","-11.1","","65","","27","","16","","25.0","","100.59","","","","-12","","Mainly Clear"
"1958-12-13 16:00","1958","12","13","16:00","-6.1","","-10.6","","71","","32","","13","","25.0","","100.63","","","","-11","","Snow Showers"
"1958-12-13 17:00","1958","12","13","17:00","-7.8","","-11.1","","77","","29","","5","","25.0","","100.70","","","","-10","","Mainly Clear"
"1958-12-13 18:00","1958","12","13","18:00","-9.4","","-12.8","","77","","23","","8","","25.0","","100.76","","","","-14","","Clear"
"1958-12-13 19:00","1958","12","13","19:00","-12.8","","-15.0","","84","","23","","16","","25.0","","100.78","","","","-20","","Clear"
"1958-12-13 20:00","1958","12","13","20:00","-11.7","","-13.3","","87","","27","","16","","25.0","","100.83","","","","-19","","Mainly Clear"
"1958-12-13 21:00","1958","12","13","21:00","-11.7","","-13.3","","87","","27","","16","","24.1","","100.84","","","","-19","","Mainly Clear"
"1958-12-13 22:00","1958","12","13","22:00","-11.7","","-14.4","","80","","27","","16","","19.3","","100.85","","","","-19","","Mainly Clear"
"1958-12-13 23:00","1958","12","13","23:00","-12.2","","-14.4","","84","","25","","19","","19.3","","100.88","","","","-20","","Mainly Clear"
"1958-12-14 00:00","1958","12","14","00:00","-10.0","","-11.7","","88","","23","","10","","19.3","","100.91","","","","-15","","Snow Showers"
"1958-12-14 01:00","1958","12","14","01:00","-9.4","","-11.7","","84","","23","","13","","16.1","","100.90","","","","-15","","Mostly Cloudy"
"1958-12-14 02:00","1958","12","14","02:00","-8.9","","-11.1","","84","","23","","10","","12.9","","100.89","","","","-14","","Snow Showers"
"1958-12-14 03:00","1958","12","14","03:00","-9.4","","-11.7","","84","","20","","8","","19.3","","100.89","","","","-14","","Mainly Clear"
"1958-12-14 04:00","1958","12","14","04:00","-10.0","","-11.7","","88","","20","","6","","19.3","","100.84","","","","-14","","Mainly Clear"
"1958-12-14 05:00","1958","12","14","05:00","-12.8","","-15.0","","84","","23","","10","","16.1","","100.81","","","","-19","","Mainly Clear"
"1958-12-14 06:00","1958","12","14","06:00","-12.8","","-15.0","","84","","23","","8","","16.1","","100.83","","","","-18","","Clear"
"1958-12-14 07:00","1958","12","14","07:00","-12.8","","-14.4","","87","","27","","5","","12.9","","100.78","","","","-16","","Mainly Clear"
"1958-12-14 08:00","1958","12","14","08:00","-12.8","","-14.4","","87","","29","","8","","4.8","","100.73","","","","-18","","Fog"
"1958-12-14 09:00","1958","12","14","09:00","-10.6","","-13.3","","80","","","","0","","4.8","","100.76","","","","","","Fog"
"1958-12-14 10:00","1958","12","14","10:00","-9.4","","-12.2","","80","","","","0","","4.8","","100.77","","","","","","Snow,Fog"
"1958-12-14 11:00","1958","12","14","11:00","-7.8","","-11.1","","77","","","","0","","4.8","","100.75","","","","","","Snow,Smoke,Haze"
"1958-12-14 12:00","1958","12","14","12:00","-5.6","","-8.3","","81","","","","0","","8.0","","100.61","","","","","","Haze"
"1958-12-14 13:00","1958","12","14","13:00","-5.6","","-9.4","","74","","18","","5","","11.3","","100.55","","","","-8","","Cloudy"
"1958-12-14 14:00","1958","12","14","14:00","-5.0","","-8.9","","74","","","","0","","16.1","","100.41","","","","","","Mostly Cloudy"
"1958-12-14 15:00","1958","12","14","15:00","-5.0","","-7.8","","81","","2","","8","","16.1","","100.34","","","","-9","","Mainly Clear"
"1958-12-14 16:00","1958","12","14","16:00","-4.4","","-8.3","","74","","2","","8","","4.8","","100.30","","","","-8","","Snow"
"1958-12-14 17:00","1958","12","14","17:00","-6.1","","-7.2","","92","","5","","10","","2.4","","100.28","","","","-11","","Snow Showers"
"1958-12-14 18:00","1958","12","14","18:00","-6.7","","-7.8","","92","","2","","10","","2.0","","100.27","","","","-11","","Snow"
"1958-12-14 19:00","1958","12","14","19:00","-6.7","","-7.8","","92","","36","","5","","4.0","","100.25","","","","-9","","Snow"
"1958-12-14 20:00","1958","12","14","20:00","-7.2","","-8.3","","92","","36","","6","","8.0","","100.21","","","","-10","","Fog"
"1958-12-14 21:00","1958","12","14","21:00","-7.2","","-8.9","","88","","29","","5","","9.7","","100.15","","","","-10","","Snow,Fog"
"1958-12-14 22:00","1958","12","14","22:00","-7.8","","-9.4","","88","","","","0","","8.0","","100.06","","","","","","Fog"
"1958-12-14 23:00","1958","12","14","23:00","-8.9","","-10.0","","92","","","","0","","6.4","","100.01","","","","","","Fog,Smoke"
"1958-12-15 00:00","1958","12","15","00:00","-8.9","","-10.0","","92","","27","","13","","4.8","","99.98","","","","-15","","Snow,Fog,Smoke"
"1958-12-15 01:00","1958","12","15","01:00","-7.8","","-10.0","","84","","25","","18","","12.9","","99.92","","","","-15","","Snow"
"1958-12-15 02:00","1958","12","15","02:00","-8.3","","-10.6","","84","","27","","21","","8.0","","99.90","","","","-16","","Snow"
"1958-12-15 03:00","1958","12","15","03:00","-8.9","","-11.7","","80","","25","","21","","6.4","","99.91","","","","-17","","Snow"
"1958-12-15 04:00","1958","12","15","04:00","-10.0","","-12.8","","80","","25","","29","","8.0","","99.91","","","","-19","","Snow"
"1958-12-15 05:00","1958","12","15","05:00","-10.6","","-13.3","","80","","25","","24","","16.1","","99.93","","","","-19","","Mainly Clear"
"1958-12-15 06:00","1958","12","15","06:00","-11.1","","-13.9","","80","","27","","23","","19.3","","99.96","","","","-20","","Clear"
"1958-12-15 07:00","1958","12","15","07:00","-11.1","","-13.9","","80","","25","","24","","19.3","","100.00","","","","-20","","Cloudy"
"1958-12-15 08:00","1958","12","15","08:00","-11.7","","-15.0","","76","","27","","32","","12.9","","100.00","","","","-22","","Mainly Clear"
"1958-12-15 09:00","1958","12","15","09:00","-10.6","","-13.3","","80","","27","","40","","11.3","","100.00","","","","-22","","Mainly Clear"
"1958-12-15 10:00","1958","12","15","10:00","-8.9","","-12.2","","77","","25","","40","","16.1","","100.04","","","","-19","","Mainly Clear"
"1958-12-15 11:00","1958","12","15","11:00","-7.8","","-11.7","","74","","27","","35","","24.1","","100.09","","","","-17","","Mainly Clear"
"1958-12-15 12:00","1958","12","15","12:00","-6.7","","-10.6","","74","","27","","35","","24.1","","100.08","","","","-16","","Mainly Clear"
"1958-12-15 13:00","1958","12","15","13:00","-6.1","","-10.0","","74","","27","","40","","24.1","","99.99","","","","-16","","Mainly Clear"
"1958-12-15 14:00","1958","12","15","14:00","-5.6","","-11.7","","62","","27","","39","","24.1","","99.98","","","","-15","","Mainly Clear"
"1958-12-15 15:00","1958","12","15","15:00","-5.6","","-9.4","","74","","27","","29","","24.1","","99.97","","","","-14","","Mostly Cloudy"
"1958-12-15 16:00","1958","12","15","16:00","-6.7","","-10.6","","74","","27","","35","","24.1","","99.95","","","","-16","","Mostly Cloudy"
"1958-12-15 17:00","1958","12","15","17:00","-7.8","","-11.7","","74","","25","","24","","25.0","","99.90","","","","-16","","Mainly Clear"
"1958-12-15 18:00","1958","12","15","18:00","-8.3","","-12.2","","74","","25","","27","","25.0","","99.83","","","","-17","","Mostly Cloudy"
"1958-12-15 19:00","1958","12","15","19:00","-8.3","","-12.2","","74","","25","","31","","25.0","","99.79","","","","-17","","Cloudy"
"1958-12-15 20:00","1958","12","15","20:00","-8.3","","-12.2","","74","","25","","40","","24.1","","99.71","","","","-18","","Cloudy"
"1958-12-15 21:00","1958","12","15","21:00","-8.9","","-13.9","","67","","25","","47","","24.1","","99.63","","","","-20","","Mostly Cloudy"
"1958-12-15 22:00","1958","12","15","22:00","-10.6","","-13.3","","80","","25","","40","","8.0","","99.60","","","","-22","","Snow Showers"
"1958-12-15 23:00","1958","12","15","23:00","-10.6","","-13.3","","80","","25","","40","","6.4","","99.52","","","","-22","","Snow Showers"
"1958-12-16 00:00","1958","12","16","00:00","-11.7","","-15.0","","76","","25","","32","","16.1","","99.49","","","","-22","","Snow Showers"
"1958-12-16 01:00","1958","12","16","01:00","-11.1","","-13.9","","80","","25","","40","","16.1","","99.42","","","","-22","","Snow Showers"
"1958-12-16 02:00","1958","12","16","02:00","-11.1","","-13.9","","80","","25","","35","","16.1","","99.38","","","","-22","","Cloudy"
"1958-12-16 03:00","1958","12","16","03:00","-11.1","","-13.9","","80","","25","","50","","19.3","","99.37","","","","-23","","Mainly Clear"
"1958-12-16 04:00","1958","12","16","04:00","-11.7","","-15.0","","76","","25","","50","","19.3","","99.43","","","","-24","","Mainly Clear"
"1958-12-16 05:00","1958","12","16","05:00","-11.1","","-13.9","","80","","25","","31","","19.3","","99.52","","","","-21","","Mainly Clear"
"1958-12-16 06:00","1958","12","16","06:00","-10.0","","-12.2","","84","","27","","16","","6.4","","99.66","","","","-17","","Snow Showers"
"1958-12-16 07:00","1958","12","16","07:00","-9.4","","-13.3","","73","","32","","42","","16.1","","99.85","","","","-20","","Mainly Clear"
"1958-12-16 08:00","1958","12","16","08:00","-11.1","","-15.0","","76","","29","","27","","24.1","","99.99","","","","-21","","Mainly Clear"
"1958-12-16 09:00","1958","12","16","09:00","-11.1","","-16.1","","67","","29","","32","","24.1","","100.10","","","","-21","","Mostly Cloudy"
"1958-12-16 10:00","1958","12","16","10:00","-10.0","","-14.4","","70","","32","","39","","24.1","","100.21","","","","-21","","Mainly Clear"
"1958-12-16 11:00","1958","12","16","11:00","-9.4","","-13.9","","70","","29","","31","","24.1","","100.27","","","","-19","","Mainly Clear"
"1958-12-16 12:00","1958","12","16","12:00","-9.4","","-12.8","","77","","29","","26","","25.0","","100.25","","","","-18","","Mainly Clear"
"1958-12-16 13:00","1958","12","16","13:00","-8.9","","-12.2","","77","","29","","24","","25.0","","100.23","","","","-17","","Mainly Clear"
"1958-12-16 14:00","1958","12","16","14:00","-8.3","","-11.1","","80","","27","","16","","25.0","","100.23","","","","-15","","Mostly Cloudy"
"1958-12-16 15:00","1958","12","16","15:00","-7.2","","-11.1","","74","","25","","16","","25.0","","100.26","","","","-14","","Mainly Clear"
"1958-12-16 16:00","1958","12","16","16:00","-8.3","","-11.1","","80","","23","","10","","25.0","","100.21","","","","-13","","Mainly Clear"
"1958-12-16 17:00","1958","12","16","17:00","-8.3","","-11.1","","80","","18","","13","","24.1","","100.16","","","","-14","","Mostly Cloudy"
"1958-12-16 18:00","1958","12","16","18:00","-7.8","","-11.7","","74","","18","","10","","19.3","","100.10","","","","-13","","Mostly Cloudy"
"1958-12-16 19:00","1958","12","16","19:00","-7.2","","-11.1","","74","","18","","13","","24.1","","100.04","","","","-13","","Cloudy"
"1958-12-16 20:00","1958","12","16","20:00","-6.7","","-12.2","","65","","16","","8","","24.1","","99.90","","","","-11","","Cloudy"
"1958-12-16 21:00","1958","12","16","21:00","-7.2","","-8.9","","88","","18","","18","","1.2","","99.80","","","","-14","","Snow Showers"
"1958-12-16 22:00","1958","12","16","22:00","-6.1","","-7.8","","88","","14","","13","","16.1","","99.60","","","","-11","","Snow Showers"
"1958-12-16 23:00","1958","12","16","23:00","-7.2","","-8.9","","88","","18","","26","","1.2","","99.52","","","","-15","","Snow Showers"
"1958-12-17 00:00","1958","12","17","00:00","-5.6","","-7.8","","84","","18","","19","","1.6","","99.42","","","","-12","","Snow"
"1958-12-17 01:00","1958","12","17","01:00","-5.6","","-6.7","","92","","16","","19","","1.2","","99.26","","","","-12","","Snow"
"1958-12-17 02:00","1958","12","17","02:00","-5.6","","-6.7","","92","","16","","31","","8.0","","99.11","","","","-14","","Snow"
"1958-12-17 03:00","1958","12","17","03:00","-5.0","","-6.1","","92","","14","","23","","8.0","","99.02","","","","-12","","Snow"
"1958-12-17 04:00","1958","12","17","04:00","-3.9","","-4.4","","96","","14","","21","","8.0","","98.84","","","","-10","","Snow,Fog"
"1958-12-17 05:00","1958","12","17","05:00","-2.8","","-3.9","","92","","14","","16","","8.0","","98.70","","","","-8","","Snow,Fog"
"1958-12-17 06:00","1958","12","17","06:00","-2.2","","-3.3","","92","","18","","14","","9.7","","98.62","","","","-7","","Snow,Fog"
"1958-12-17 07:00","1958","12","17","07:00","-2.2","","-3.3","","92","","18","","11","","11.3","","98.56","","","","-6","","Snow"
"1958-12-17 08:00","1958","12","17","08:00","-1.7","","-2.8","","92","","18","","14","","6.4","","98.51","","","","-6","","Snow,Fog"
"1958-12-17 09:00","1958","12","17","09:00","-1.1","","-1.7","","96","","23","","14","","6.4","","98.58","","","","-6","","Snow,Fog"
"1958-12-17 10:00","1958","12","17","10:00","0.0","","-1.7","","88","","25","","19","","2.4","","98.60","","","","-5","","Snow,Fog"
"1958-12-17 11:00","1958","12","17","11:00","0.6","","-1.1","","88","","25","","23","","1.2","","98.62","","","","","","Snow,Fog"
"1958-12-17 12:00","1958","12","17","12:00","1.1","","-1.1","","85","","27","","23","","9.7","","98.60","","","","","","Fog"
"1958-12-17 13:00","1958","12","17","13:00","0.0","","-3.9","","75","","29","","35","","24.1","","98.66","","","","-7","","Mostly Cloudy"
"1958-12-17 14:00","1958","12","17","14:00","-1.1","","-2.8","","88","","29","","39","","24.1","","98.75","","","","-9","","Mostly Cloudy"
"1958-12-17 15:00","1958","12","17","15:00","-1.1","","-5.0","","75","","29","","39","","24.1","","98.83","","","","-9","","Mostly Cloudy"
"1958-12-17 16:00","1958","12","17","16:00","-1.7","","-3.9","","85","","29","","39","","24.1","","99.02","","","","-10","","Mostly Cloudy"
"1958-12-17 17:00","1958","12","17","17:00","-3.3","","-4.4","","92","","29","","40","","24.1","","99.25","","","","-12","","Cloudy"
"1958-12-17 18:00","1958","12","17","18:00","-4.4","","-7.2","","81","","32","","32","","25.0","","99.44","","","","-12","","Cloudy"
"1958-12-17 19:00","1958","12","17","19:00","-5.0","","-7.2","","84","","32","","26","","25.0","","99.54","","","","-12","","Cloudy"
"1958-12-17 20:00","1958","12","17","20:00","-5.6","","-7.2","","88","","29","","29","","25.0","","99.66","","","","-14","","Cloudy"
"1958-12-17 21:00","1958","12","17","21:00","-5.6","","-8.3","","81","","32","","35","","25.0","","99.78","","","","-14","","Cloudy"
"1958-12-17 22:00","1958","12","17","22:00","-5.6","","-8.9","","77","","32","","34","","25.0","","99.78","","","","-14","","Mostly Cloudy"
"1958-12-17 23:00","1958","12","17","23:00","-6.7","","-9.4","","81","","29","","11","","25.0","","99.82","","","","-12","","Mostly Cloudy"
"1958-12-18 00:00","1958","12","18","00:00","-6.7","","-8.9","","84","","23","","8","","19.3","","99.82","","","","-11","","Mostly Cloudy"
"1958-12-18 01:00","1958","12","18","01:00","-6.7","","-8.9","","84","","20","","8","","19.3","","99.80","","","","-11","","Mainly Clear"
"1958-12-18 02:00","1958","12","18","02:00","-8.3","","-10.6","","84","","23","","11","","16.1","","99.82","","","","-14","","Mostly Cloudy"
"1958-12-18 03:00","1958","12","18","03:00","-7.2","","-8.9","","88","","20","","8","","12.9","","99.78","","","","-11","","Mostly Cloudy"
"1958-12-18 04:00","1958","12","18","04:00","-6.7","","-8.9","","84","","23","","16","","12.9","","99.76","","","","-13","","Mostly Cloudy"
"1958-12-18 05:00","1958","12","18","05:00","-6.7","","-8.9","","84","","23","","16","","19.3","","99.68","","","","-13","","Mainly Clear"
"1958-12-18 06:00","1958","12","18","06:00","-7.2","","-10.0","","81","","18","","16","","19.3","","99.57","","","","-14","","Mostly Cloudy"
"1958-12-18 07:00","1958","12","18","07:00","-6.7","","-8.9","","84","","18","","23","","19.3","","99.51","","","","-14","","Mostly Cloudy"
"1958-12-18 08:00","1958","12","18","08:00","-6.1","","-9.4","","77","","20","","26","","19.3","","99.43","","","","-14","","Mostly Cloudy"
"1958-12-18 09:00","1958","12","18","09:00","-5.6","","-8.3","","81","","23","","19","","16.1","","99.40","","","","-12","","Cloudy"
"1958-12-18 10:00","1958","12","18","10:00","-3.9","","-7.2","","78","","23","","24","","16.1","","99.42","","","","-11","","Cloudy"
"1958-12-18 11:00","1958","12","18","11:00","-2.8","","-5.0","","85","","23","","26","","3.2","","99.36","","","","-10","","Snow"
"1958-12-18 12:00","1958","12","18","12:00","-1.1","","-3.9","","81","","25","","40","","2.4","","99.18","","","","-9","","Snow"
"1958-12-18 13:00","1958","12","18","13:00","-1.1","","-3.9","","81","","25","","40","","12.9","","99.08","","","","-9","","Snow"
"1958-12-18 14:00","1958","12","18","14:00","-1.7","","-4.4","","81","","27","","29","","24.1","","99.16","","","","-9","","Cloudy"
"1958-12-18 15:00","1958","12","18","15:00","-1.7","","-5.0","","78","","27","","24","","24.1","","99.19","","","","-8","","Cloudy"
"1958-12-18 16:00","1958","12","18","16:00","-2.2","","-3.9","","88","","25","","23","","19.3","","99.19","","","","-8","","Mostly Cloudy"
"1958-12-18 17:00","1958","12","18","17:00","-3.9","","-7.2","","78","","23","","14","","16.1","","99.23","","","","-9","","Mainly Clear"
"1958-12-18 18:00","1958","12","18","18:00","-4.4","","-6.7","","84","","23","","16","","12.9","","99.27","","","","-10","","Clear"
"1958-12-18 19:00","1958","12","18","19:00","-4.4","","-6.1","","88","","23","","19","","12.9","","99.29","","","","-11","","Clear"
"1958-12-18 20:00","1958","12","18","20:00","-3.3","","-6.7","","78","","23","","31","","12.9","","99.33","","","","-11","","Cloudy"
"1958-12-18 21:00","1958","12","18","21:00","-2.2","","-5.0","","81","","23","","18","","12.9","","99.35","","","","-8","","Cloudy"
"1958-12-18 22:00","1958","12","18","22:00","-2.8","","-4.4","","88","","23","","18","","12.9","","99.30","","","","-8","","Cloudy"
"1958-12-18 23:00","1958","12","18","23:00","-2.2","","-5.0","","81","","23","","19","","12.9","","99.18","","","","-8","","Cloudy"
"1958-12-19 00:00","1958","12","19","00:00","-2.2","","-4.4","","85","","20","","24","","16.1","","99.09","","","","-9","","Cloudy"
"1958-12-19 01:00","1958","12","19","01:00","-2.2","","-4.4","","85","","20","","23","","16.1","","98.98","","","","-8","","Cloudy"
"1958-12-19 02:00","1958","12","19","02:00","-2.2","","-5.0","","81","","20","","18","","16.1","","98.89","","","","-8","","Cloudy"
"1958-12-19 03:00","1958","12","19","03:00","-1.7","","-3.3","","88","","18","","16","","11.3","","98.77","","","","-7","","Cloudy"
"1958-12-19 04:00","1958","12","19","04:00","-1.1","","-2.8","","88","","18","","19","","6.4","","98.61","","","","-6","","Fog"
"1958-12-19 05:00","1958","12","19","05:00","-1.1","","-2.8","","88","","20","","27","","4.8","","98.46","","","","-8","","Fog"
"1958-12-19 06:00","1958","12","19","06:00","-0.6","","-2.8","","85","","20","","26","","4.8","","98.32","","","","-7","","Snow Showers"
"1958-12-19 07:00","1958","12","19","07:00","-0.6","","-1.7","","92","","20","","18","","1.2","","98.23","","","","-6","","Snow Showers"
"1958-12-19 08:00","1958","12","19","08:00","-0.6","","-1.1","","96","","23","","32","","1.2","","98.08","","","","-7","","Snow Showers"
"1958-12-19 09:00","1958","12","19","09:00","0.0","","-0.6","","96","","23","","29","","2.4","","98.06","","","","-6","","Snow"
"1958-12-19 10:00","1958","12","19","10:00","1.1","","0.6","","96","","23","","29","","6.4","","98.06","","","","","","Snow"
"1958-12-19 11:00","1958","12","19","11:00","1.7","","0.6","","92","","25","","23","","11.3","","98.08","","","","","","Rain"
"1958-12-19 12:00","1958","12","19","12:00","2.2","","0.6","","89","","25","","21","","12.9","","98.05","","","","","","Cloudy"
"1958-12-19 13:00","1958","12","19","13:00","2.2","","0.6","","89","","27","","19","","11.3","","98.09","","","","","","Cloudy"
"1958-12-19 14:00","1958","12","19","14:00","-3.3","","-6.7","","78","","36","","42","","24.1","","98.29","","","","-12","","Snow Showers"
"1958-12-19 15:00","1958","12","19","15:00","-7.2","","-11.7","","71","","36","","40","","25.0","","98.50","","","","-17","","Cloudy"
"1958-12-19 16:00","1958","12","19","16:00","-8.9","","-12.8","","73","","36","","40","","25.0","","98.69","","","","-19","","Snow Showers"
"1958-12-19 17:00","1958","12","19","17:00","-11.7","","-20.0","","50","","36","","34","","25.0","","98.89","","","","-22","","Mostly Cloudy"
"1958-12-19 18:00","1958","12","19","18:00","-12.8","","-18.3","","63","","36","","37","","25.0","","99.06","","","","-24","","Mainly Clear"
"1958-12-19 19:00","1958","12","19","19:00","-12.8","","-18.9","","60","","36","","40","","25.0","","99.24","","","","-25","","Mainly Clear"
"1958-12-19 20:00","1958","12","19","20:00","-14.4","","-18.3","","72","","36","","32","","25.0","","99.44","","","","-26","","Mainly Clear"
"1958-12-19 21:00","1958","12","19","21:00","-15.6","","-19.4","","72","","36","","34","","25.0","","99.58","","","","-27","","Mainly Clear"
"1958-12-19 22:00","1958","12","19","22:00","-16.7","","-21.7","","65","","36","","24","","25.0","","99.73","","","","-27","","Mainly Clear"
"1958-12-19 23:00","1958","12","19","23:00","-17.8","","-23.3","","62","","36","","24","","25.0","","99.88","","","","-29","","Mainly Clear"
"1958-12-20 00:00","1958","12","20","00:00","-19.4","","-25.0","","61","","36","","18","","25.0","","99.94","","","","-29","","Mainly Clear"
"1958-12-20 01:00","1958","12","20","01:00","-20.0","","-26.1","","58","","36","","21","","25.0","","100.00","","","","-31","","Mainly Clear"
"1958-12-20 02:00","1958","12","20","02:00","-20.6","","-26.1","","61","","36","","23","","25.0","","100.06","","","","-32","","Clear"
"1958-12-20 03:00","1958","12","20","03:00","-21.1","","-26.7","","61","","36","","21","","25.0","","100.12","","","","-32","","Clear"
"1958-12-20 04:00","1958","12","20","04:00","-22.2","","-26.1","","71","","36","","18","","25.0","","100.18","","","","-33","","Clear"
"1958-12-20 05:00","1958","12","20","05:00","-22.8","","-27.2","","67","","36","","16","","25.0","","100.20","","","","-33","","Clear"
"1958-12-20 06:00","1958","12","20","06:00","-22.8","","-26.1","","74","","36","","18","","25.0","","100.26","","","","-33","","Clear"
"1958-12-20 07:00","1958","12","20","07:00","-23.3","","-26.1","","78","","36","","16","","25.0","","100.30","","","","-33","","Clear"
"1958-12-20 08:00","1958","12","20","08:00","-23.3","","-26.1","","78","","36","","19","","25.0","","100.37","","","","-34","","Clear"
"1958-12-20 09:00","1958","12","20","09:00","-21.7","","-27.8","","58","","36","","16","","25.0","","100.44","","","","-31","","Clear"
"1958-12-20 10:00","1958","12","20","10:00","-20.0","","-25.0","","64","","36","","16","","25.0","","100.48","","","","-29","","Mainly Clear"
"1958-12-20 11:00","1958","12","20","11:00","-17.8","","-23.3","","62","","2","","10","","25.0","","100.42","","","","-25","","Mostly Cloudy"
"1958-12-20 12:00","1958","12","20","12:00","-16.7","","-22.2","","62","","36","","10","","25.0","","100.39","","","","-23","","Mostly Cloudy"
"1958-12-20 13:00","1958","12","20","13:00","-16.7","","-22.2","","62","","36","","8","","25.0","","100.30","","","","-22","","Mostly Cloudy"
"1958-12-20 14:00","1958","12","20","14:00","-15.0","","-19.4","","69","","5","","10","","25.0","","100.24","","","","-21","","Mostly Cloudy"
"1958-12-20 15:00","1958","12","20","15:00","-15.0","","-18.9","","72","","11","","6","","25.0","","100.16","","","","-19","","Cloudy"
"1958-12-20 16:00","1958","12","20","16:00","-13.9","","-17.2","","76","","18","","10","","25.0","","100.14","","","","-20","","Cloudy"
"1958-12-20 17:00","1958","12","20","17:00","-12.8","","-16.1","","76","","18","","10","","25.0","","100.10","","","","-19","","Cloudy"
"1958-12-20 18:00","1958","12","20","18:00","-12.2","","-13.9","","87","","23","","14","","25.0","","100.08","","","","-19","","Cloudy"
"1958-12-20 19:00","1958","12","20","19:00","-12.8","","-14.4","","87","","23","","14","","4.0","","100.04","","","","-20","","Snow Showers"
"1958-12-20 20:00","1958","12","20","20:00","-12.8","","-16.1","","80","","23","","16","","4.0","","99.98","","","","-20","","Snow"
"1958-12-20 21:00","1958","12","20","21:00","-12.2","","-13.9","","87","","20","","10","","11.3","","99.93","","","","-18","","Snow"
"1958-12-20 22:00","1958","12","20","22:00","-11.7","","-13.9","","84","","23","","19","","19.3","","99.81","","","","-20","","Snow"
"1958-12-20 23:00","1958","12","20","23:00","-11.1","","-12.8","","87","","23","","14","","25.0","","99.77","","","","-18","","Mostly Cloudy"
"1958-12-21 00:00","1958","12","21","00:00","-11.1","","-13.3","","84","","25","","32","","25.0","","99.69","","","","-21","","Mainly Clear"
"1958-12-21 01:00","1958","12","21","01:00","-11.1","","-13.9","","80","","27","","19","","25.0","","99.73","","","","-19","","Clear"
"1958-12-21 02:00","1958","12","21","02:00","-10.6","","-13.3","","80","","32","","16","","19.3","","99.90","","","","-18","","Snow Showers"
"1958-12-21 03:00","1958","12","21","03:00","-11.7","","-13.9","","84","","32","","10","","25.0","","100.02","","","","-17","","Mainly Clear"
"1958-12-21 04:00","1958","12","21","04:00","-13.3","","-16.1","","80","","32","","16","","25.0","","100.10","","","","-21","","Clear"
"1958-12-21 05:00","1958","12","21","05:00","-13.3","","-15.0","","87","","34","","16","","25.0","","100.27","","","","-21","","Mainly Clear"
"1958-12-21 06:00","1958","12","21","06:00","-15.6","","-17.8","","83","","36","","13","","25.0","","100.42","","","","-23","","Clear"
"1958-12-21 07:00","1958","12","21","07:00","-16.1","","-18.9","","79","","36","","13","","25.0","","100.52","","","","-24","","Clear"
"1958-12-21 08:00","1958","12","21","08:00","-17.8","","-20.0","","83","","36","","13","","25.0","","100.68","","","","-26","","Clear"
"1958-12-21 09:00","1958","12","21","09:00","-17.8","","-21.1","","75","","36","","13","","25.0","","100.80","","","","-26","","Clear"
"1958-12-21 10:00","1958","12","21","10:00","-17.8","","-21.1","","75","","36","","19","","25.0","","100.86","","","","-27","","Clear"
"1958-12-21 11:00","1958","12","21","11:00","-16.7","","-22.2","","62","","36","","10","","25.0","","100.88","","","","-23","","Clear"
"1958-12-21 12:00","1958","12","21","12:00","-15.6","","-20.0","","69","","36","","11","","25.0","","100.86","","","","-22","","Clear"
"1958-12-21 13:00","1958","12","21","13:00","-15.0","","-20.0","","66","","2","","10","","25.0","","100.84","","","","-21","","Clear"
"1958-12-21 14:00","1958","12","21","14:00","-14.4","","-20.0","","63","","36","","10","","25.0","","100.80","","","","-21","","Clear"
"1958-12-21 15:00","1958","12","21","15:00","-14.4","","-19.4","","66","","36","","10","","25.0","","100.77","","","","-21","","Clear"
"1958-12-21 16:00","1958","12","21","16:00","-14.4","","-20.0","","63","","5","","6","","25.0","","100.76","","","","-19","","Clear"
"1958-12-21 17:00","1958","12","21","17:00","-15.0","","-20.6","","63","","29","","6","","25.0","","100.82","","","","-19","","Mainly Clear"
"1958-12-21 18:00","1958","12","21","18:00","-16.7","","-21.1","","72","","27","","6","","25.0","","100.87","","","","-21","","Mainly Clear"
"1958-12-21 19:00","1958","12","21","19:00","-14.4","","-17.8","","76","","27","","5","","25.0","","100.88","","","","-18","","Mainly Clear"
"1958-12-21 20:00","1958","12","21","20:00","-16.7","","-20.6","","72","","29","","5","","25.0","","100.90","","","","-21","","Mostly Cloudy"
"1958-12-21 21:00","1958","12","21","21:00","-15.6","","-18.9","","75","","27","","3","","25.0","","100.90","","","","-18","","Snow Showers"
"1958-12-21 22:00","1958","12","21","22:00","-13.9","","-17.2","","76","","27","","8","","25.0","","100.88","","","","-19","","Mostly Cloudy"
"1958-12-21 23:00","1958","12","21","23:00","-12.8","","-16.1","","76","","25","","6","","25.0","","100.86","","","","-17","","Snow Showers"
"1958-12-22 00:00","1958","12","22","00:00","-13.3","","-15.0","","87","","","","0","","25.0","","100.84","","","","","","Mainly Clear"
"1958-12-22 01:00","1958","12","22","01:00","-13.3","","-16.1","","80","","","","0","","25.0","","100.78","","","","","","Clear"
"1958-12-22 02:00","1958","12","22","02:00","-15.6","","-21.1","","62","","","","0","","25.0","","100.77","","","","","","Clear"
"1958-12-22 03:00","1958","12","22","03:00","-16.7","","-19.4","","83","","27","","11","","25.0","","100.79","","","","-24","","Mainly Clear"
"1958-12-22 04:00","1958","12","22","04:00","-18.9","","-20.0","","91","","27","","13","","25.0","","100.71","","","","-27","","Mainly Clear"
"1958-12-22 05:00","1958","12","22","05:00","-16.7","","-19.4","","79","","27","","11","","25.0","","100.70","","","","-24","","Mainly Clear"
"1958-12-22 06:00","1958","12","22","06:00","-16.7","","-20.0","","75","","27","","11","","25.0","","100.66","","","","-24","","Mainly Clear"
"1958-12-22 07:00","1958","12","22","07:00","-15.0","","-18.9","","72","","27","","13","","25.0","","100.62","","","","-22","","Mainly Clear"
"1958-12-22 08:00","1958","12","22","08:00","-13.3","","-16.1","","80","","27","","13","","24.1","","100.55","","","","-20","","Mostly Cloudy"
"1958-12-22 09:00","1958","12","22","09:00","-12.2","","-13.9","","87","","23","","10","","16.1","","100.48","","","","-18","","Cloudy"
"1958-12-22 10:00","1958","12","22","10:00","-10.0","","-14.4","","70","","23","","14","","16.1","","100.36","","","","-16","","Cloudy"
"1958-12-22 11:00","1958","12","22","11:00","-7.8","","-10.6","","81","","20","","16","","12.9","","100.22","","","","-14","","Cloudy"
"1958-12-22 12:00","1958","12","22","12:00","-6.7","","-9.4","","81","","20","","31","","12.9","","99.96","","","","-15","","Cloudy"
"1958-12-22 13:00","1958","12","22","13:00","-6.1","","-9.4","","77","","20","","24","","11.3","","99.76","","","","-14","","Cloudy"
"1958-12-22 14:00","1958","12","22","14:00","-3.9","","-7.8","","74","","20","","32","","12.9","","99.56","","","","-12","","Mostly Cloudy"
"1958-12-22 15:00","1958","12","22","15:00","-3.9","","-7.8","","74","","20","","32","","11.3","","99.40","","","","-12","","Mostly Cloudy"
"1958-12-22 16:00","1958","12","22","16:00","-2.8","","-5.6","","81","","20","","32","","4.8","","99.23","","","","-10","","Haze"
"1958-12-22 17:00","1958","12","22","17:00","-2.8","","-6.1","","78","","23","","31","","4.8","","99.05","","","","-10","","Haze"
"1958-12-22 18:00","1958","12","22","18:00","-2.8","","-6.7","","75","","23","","29","","12.9","","98.94","","","","-10","","Mostly Cloudy"
"1958-12-22 19:00","1958","12","22","19:00","-2.8","","-6.1","","78","","23","","27","","16.1","","98.85","","","","-10","","Mostly Cloudy"
"1958-12-22 20:00","1958","12","22","20:00","-2.2","","-5.0","","81","","23","","24","","16.1","","98.67","","","","-9","","Mostly Cloudy"
"1958-12-22 21:00","1958","12","22","21:00","-1.7","","-4.4","","81","","20","","21","","19.3","","98.54","","","","-8","","Mainly Clear"
"1958-12-22 22:00","1958","12","22","22:00","1.1","","-2.8","","75","","23","","34","","19.3","","98.39","","","","","","Mostly Cloudy"
"1958-12-22 23:00","1958","12","22","23:00","2.8","","-1.1","","75","","25","","32","","24.1","","98.41","","","","","","Mostly Cloudy"
"1958-12-23 00:00","1958","12","23","00:00","3.9","","-1.1","","70","","27","","29","","24.1","","98.43","","","","","","Mostly Cloudy"
"1958-12-23 01:00","1958","12","23","01:00","3.3","","-0.6","","76","","27","","32","","24.1","","98.45","","","","","","Mostly Cloudy"
"1958-12-23 02:00","1958","12","23","02:00","2.8","","-0.6","","79","","27","","16","","16.1","","98.47","","","","","","Cloudy"
"1958-12-23 03:00","1958","12","23","03:00","2.8","","0.0","","82","","27","","23","","16.1","","98.52","","","","","","Cloudy"
"1958-12-23 04:00","1958","12","23","04:00","2.8","","0.0","","82","","29","","26","","16.1","","98.52","","","","","","Cloudy"
"1958-12-23 05:00","1958","12","23","05:00","2.8","","0.0","","82","","27","","16","","16.1","","98.53","","","","","","Cloudy"
"1958-12-23 06:00","1958","12","23","06:00","2.8","","0.0","","82","","27","","13","","16.1","","98.53","","","","","","Cloudy"
"1958-12-23 07:00","1958","12","23","07:00","2.2","","1.1","","92","","27","","19","","16.1","","98.56","","","","","","Cloudy"
"1958-12-23 08:00","1958","12","23","08:00","2.2","","0.0","","85","","25","","13","","4.8","","98.53","","","","","","Fog"
"1958-12-23 09:00","1958","12","23","09:00","1.7","","0.6","","92","","23","","16","","4.8","","98.54","","","","","","Fog"
"1958-12-23 10:00","1958","12","23","10:00","1.7","","0.6","","92","","25","","16","","4.0","","98.59","","","","","","Fog"
"1958-12-23 11:00","1958","12","23","11:00","1.7","","0.6","","92","","27","","21","","2.4","","98.61","","","","","","Drizzle,Fog"
"1958-12-23 12:00","1958","12","23","12:00","1.7","","0.6","","92","","27","","16","","1.6","","98.57","","","","","","Drizzle,Fog"
"1958-12-23 13:00","1958","12","23","13:00","1.7","","1.1","","96","","25","","16","","4.0","","98.50","","","","","","Fog"
"1958-12-23 14:00","1958","12","23","14:00","2.2","","0.0","","85","","27","","19","","9.7","","98.52","","","","","","Fog"
"1958-12-23 15:00","1958","12","23","15:00","2.8","","-0.6","","79","","29","","21","","24.1","","98.56","","","","","","Mostly Cloudy"
"1958-12-23 16:00","1958","12","23","16:00","2.2","","-0.6","","82","","27","","24","","24.1","","98.61","","","","","","Cloudy"
"1958-12-23 17:00","1958","12","23","17:00","0.6","","-0.6","","92","","36","","21","","12.9","","98.71","","","","","","Snow Grains"
"1958-12-23 18:00","1958","12","23","18:00","0.0","","-1.7","","88","","36","","19","","25.0","","98.85","","","","-5","","Snow Grains"
"1958-12-23 19:00","1958","12","23","19:00","-0.6","","-3.3","","78","","36","","24","","25.0","","98.92","","","","-7","","Snow Grains"
"1958-12-23 20:00","1958","12","23","20:00","-1.1","","-4.4","","78","","36","","23","","25.0","","99.00","","","","-7","","Mostly Cloudy"
"1958-12-23 21:00","1958","12","23","21:00","-2.2","","-3.9","","88","","2","","19","","24.1","","99.08","","","","-8","","Snow Showers"
"1958-12-23 22:00","1958","12","23","22:00","-3.3","","-5.0","","88","","2","","13","","24.1","","99.09","","","","-8","","Cloudy"
"1958-12-23 23:00","1958","12","23","23:00","-4.4","","-8.3","","74","","2","","26","","25.0","","99.17","","","","-12","","Cloudy"
"1958-12-24 00:00","1958","12","24","00:00","-5.6","","-8.3","","81","","2","","23","","16.1","","99.21","","","","-13","","Snow Showers"
"1958-12-24 01:00","1958","12","24","01:00","-6.7","","-8.9","","84","","2","","18","","12.9","","99.21","","","","-13","","Snow"
"1958-12-24 02:00","1958","12","24","02:00","-7.8","","-10.6","","81","","36","","21","","9.7","","99.28","","","","-15","","Snow"
"1958-12-24 03:00","1958","12","24","03:00","-8.3","","-11.7","","77","","36","","19","","12.9","","99.30","","","","-16","","Snow"
"1958-12-24 04:00","1958","12","24","04:00","-8.3","","-11.7","","77","","36","","18","","16.1","","99.30","","","","-15","","Snow"
"1958-12-24 05:00","1958","12","24","05:00","-10.6","","-13.9","","76","","36","","26","","24.1","","99.32","","","","-20","","Cloudy"
"1958-12-24 06:00","1958","12","24","06:00","-12.2","","-15.0","","80","","36","","19","","25.0","","99.39","","","","-20","","Mostly Cloudy"
"1958-12-24 07:00","1958","12","24","07:00","-12.8","","-16.1","","76","","36","","14","","25.0","","99.49","","","","-20","","Mostly Cloudy"
"1958-12-24 08:00","1958","12","24","08:00","-14.4","","-16.7","","83","","36","","10","","25.0","","99.58","","","","-21","","Mainly Clear"
"1958-12-24 09:00","1958","12","24","09:00","-15.0","","-17.8","","79","","36","","13","","25.0","","99.63","","","","-22","","Mainly Clear"
"1958-12-24 10:00","1958","12","24","10:00","-13.9","","-18.3","","69","","2","","8","","25.0","","99.69","","","","-19","","Mostly Cloudy"
"1958-12-24 11:00","1958","12","24","11:00","-12.8","","-17.2","","69","","36","","8","","25.0","","99.70","","","","-18","","Mostly Cloudy"
"1958-12-24 12:00","1958","12","24","12:00","-11.7","","-16.7","","67","","36","","13","","25.0","","99.71","","","","-18","","Mostly Cloudy"
"1958-12-24 13:00","1958","12","24","13:00","-11.7","","-17.8","","61","","36","","19","","25.0","","99.68","","","","-20","","Mostly Cloudy"
"1958-12-24 14:00","1958","12","24","14:00","-11.1","","-15.6","","70","","36","","19","","25.0","","99.72","","","","-19","","Mainly Clear"
"1958-12-24 15:00","1958","12","24","15:00","-10.6","","-14.4","","73","","36","","24","","25.0","","99.77","","","","-19","","Clear"
"1958-12-24 16:00","1958","12","24","16:00","-11.1","","-15.0","","73","","36","","16","","25.0","","99.82","","","","-18","","Clear"
"1958-12-24 17:00","1958","12","24","17:00","-11.7","","-14.4","","80","","36","","11","","25.0","","99.87","","","","-18","","Mainly Clear"
"1958-12-24 18:00","1958","12","24","18:00","-12.2","","-15.6","","76","","36","","10","","25.0","","99.95","","","","-18","","Mainly Clear"
"1958-12-24 19:00","1958","12","24","19:00","-12.8","","-16.1","","76","","36","","6","","25.0","","100.02","","","","-17","","Clear"
"1958-12-24 20:00","1958","12","24","20:00","-13.9","","-17.2","","76","","32","","10","","25.0","","100.05","","","","-20","","Clear"
"1958-12-24 21:00","1958","12","24","21:00","-13.9","","-17.2","","76","","32","","8","","25.0","","100.11","","","","-19","","Clear"
"1958-12-24 22:00","1958","12","24","22:00","-14.4","","-18.3","","72","","34","","11","","25.0","","100.15","","","","-21","","Clear"
"1958-12-24 23:00","1958","12","24","23:00","-15.0","","-18.9","","72","","36","","11","","25.0","","100.24","","","","-22","","Mainly Clear"
"1958-12-25 00:00","1958","12","25","00:00","-15.6","","-18.9","","75","","36","","13","","25.0","","100.32","","","","-23","","Mainly Clear"
"1958-12-25 01:00","1958","12","25","01:00","-14.4","","-19.4","","66","","36","","19","","24.1","","100.32","","","","-23","","Snow Showers"
"1958-12-25 02:00","1958","12","25","02:00","-14.4","","-19.4","","66","","36","","11","","24.1","","100.36","","","","-21","","Snow Showers"
"1958-12-25 03:00","1958","12","25","03:00","-14.4","","-19.4","","66","","36","","8","","24.1","","100.48","","","","-20","","Snow"
"1958-12-25 04:00","1958","12","25","04:00","-14.4","","-18.3","","72","","36","","16","","24.1","","100.52","","","","-22","","Mostly Cloudy"
"1958-12-25 05:00","1958","12","25","05:00","-15.0","","-18.9","","72","","2","","13","","24.1","","100.55","","","","-22","","Mainly Clear"
"1958-12-25 06:00","1958","12","25","06:00","-16.1","","-19.4","","75","","32","","8","","24.1","","100.69","","","","-22","","Mainly Clear"
"1958-12-25 07:00","1958","12","25","07:00","-16.1","","-19.4","","75","","34","","16","","24.1","","100.73","","","","-25","","Mainly Clear"
"1958-12-25 08:00","1958","12","25","08:00","-16.1","","-20.0","","72","","34","","13","","24.1","","100.79","","","","-24","","Mostly Cloudy"
"1958-12-25 09:00","1958","12","25","09:00","-16.1","","-20.0","","72","","29","","8","","25.0","","100.87","","","","-22","","Mainly Clear"
"1958-12-25 10:00","1958","12","25","10:00","-15.0","","-18.3","","76","","32","","8","","25.0","","100.95","","","","-20","","Mainly Clear"
"1958-12-25 11:00","1958","12","25","11:00","-12.8","","-17.8","","66","","29","","10","","25.0","","100.97","","","","-19","","Clear"
"1958-12-25 12:00","1958","12","25","12:00","-11.1","","-15.6","","70","","36","","6","","25.0","","100.93","","","","-15","","Clear"
"1958-12-25 13:00","1958","12","25","13:00","-10.6","","-13.3","","80","","27","","6","","25.0","","100.94","","","","-14","","Clear"
"1958-12-25 14:00","1958","12","25","14:00","-8.9","","-13.3","","70","","27","","8","","25.0","","100.96","","","","-13","","Clear"
"1958-12-25 15:00","1958","12","25","15:00","-8.3","","-12.8","","70","","2","","6","","25.0","","100.97","","","","-12","","Clear"
"1958-12-25 16:00","1958","12","25","16:00","-7.8","","-12.2","","70","","34","","5","","25.0","","101.00","","","","-10","","Clear"
"1958-12-25 17:00","1958","12","25","17:00","-8.3","","-13.3","","67","","","","0","","24.1","","101.01","","","","","","Clear"
"1958-12-25 18:00","1958","12","25","18:00","-8.3","","-12.8","","70","","25","","10","","24.1","","101.04","","","","-13","","Clear"
"1958-12-25 19:00","1958","12","25","19:00","-10.6","","-14.4","","73","","25","","5","","24.1","","101.09","","","","-14","","Clear"
"1958-12-25 20:00","1958","12","25","20:00","-11.1","","-15.6","","70","","27","","11","","24.1","","101.12","","","","-17","","Clear"
"1958-12-25 21:00","1958","12","25","21:00","-11.7","","-15.0","","76","","27","","14","","24.1","","101.13","","","","-19","","Clear"
"1958-12-25 22:00","1958","12","25","22:00","-11.1","","-13.9","","80","","25","","5","","24.1","","101.12","","","","-14","","Clear"
"1958-12-25 23:00","1958","12","25","23:00","-13.3","","-16.1","","80","","","","0","","24.1","","101.13","","","","","","Clear"
"1958-12-26 00:00","1958","12","26","00:00","-12.8","","-15.0","","84","","","","0","","25.0","","101.14","","","","","","Clear"
"1958-12-26 01:00","1958","12","26","01:00","-15.0","","-17.2","","83","","","","0","","25.0","","101.11","","","","","","Clear"
"1958-12-26 02:00","1958","12","26","02:00","-15.0","","-17.2","","83","","20","","6","","25.0","","101.06","","","","-19","","Clear"
"1958-12-26 03:00","1958","12","26","03:00","-14.4","","-16.1","","87","","20","","6","","25.0","","101.10","","","","-19","","Clear"
"1958-12-26 04:00","1958","12","26","04:00","-13.3","","-16.1","","80","","","","0","","25.0","","101.04","","","","","","Clear"
"1958-12-26 05:00","1958","12","26","05:00","-13.3","","-15.6","","83","","20","","6","","16.1","","101.01","","","","-17","","Mostly Cloudy"
"1958-12-26 06:00","1958","12","26","06:00","-11.1","","-13.3","","84","","18","","10","","16.1","","100.97","","","","-17","","Mostly Cloudy"
"1958-12-26 07:00","1958","12","26","07:00","-9.4","","-11.1","","88","","18","","18","","19.3","","100.96","","","","-17","","Mainly Clear"
"1958-12-26 08:00","1958","12","26","08:00","-11.1","","-12.2","","91","","23","","6","","24.1","","100.96","","","","-15","","Mainly Clear"
"1958-12-26 09:00","1958","12","26","09:00","-10.0","","-11.7","","88","","20","","10","","12.9","","100.92","","","","-15","","Mainly Clear"
"1958-12-26 10:00","1958","12","26","10:00","-8.3","","-10.0","","88","","23","","10","","11.3","","100.92","","","","-13","","Mainly Clear"
"1958-12-26 11:00","1958","12","26","11:00","-5.6","","-10.6","","68","","23","","19","","11.3","","100.84","","","","-12","","Mainly Clear"
"1958-12-26 12:00","1958","12","26","12:00","-3.9","","-6.7","","81","","23","","16","","8.0","","100.73","","","","-9","","Smoke"
"1958-12-26 13:00","1958","12","26","13:00","-3.3","","-6.7","","78","","23","","31","","12.9","","100.62","","","","-11","","Mainly Clear"
"1958-12-26 14:00","1958","12","26","14:00","-2.8","","-6.1","","78","","23","","29","","16.1","","100.55","","","","-10","","Mainly Clear"
"1958-12-26 15:00","1958","12","26","15:00","-1.7","","-5.0","","78","","23","","23","","12.9","","100.51","","","","-8","","Mainly Clear"
"1958-12-26 16:00","1958","12","26","16:00","-2.2","","-5.0","","81","","23","","23","","12.9","","100.50","","","","-8","","Mainly Clear"
"1958-12-26 17:00","1958","12","26","17:00","-3.3","","-6.1","","81","","23","","18","","12.9","","100.46","","","","-9","","Mainly Clear"
"1958-12-26 18:00","1958","12","26","18:00","-4.4","","-6.7","","84","","18","","13","","19.3","","100.45","","","","-9","","Mainly Clear"
"1958-12-26 19:00","1958","12","26","19:00","-5.6","","-7.2","","88","","18","","10","","16.1","","100.40","","","","-10","","Mainly Clear"
"1958-12-26 20:00","1958","12","26","20:00","-5.0","","-6.7","","88","","27","","6","","16.1","","100.40","","","","-8","","Mostly Cloudy"
"1958-12-26 21:00","1958","12","26","21:00","-3.9","","-6.1","","85","","23","","13","","16.1","","100.35","","","","-9","","Mostly Cloudy"
"1958-12-26 22:00","1958","12","26","22:00","-4.4","","-6.1","","88","","23","","14","","16.1","","100.35","","","","-10","","Cloudy"
"1958-12-26 23:00","1958","12","26","23:00","-4.4","","-6.1","","88","","23","","19","","16.1","","100.33","","","","-11","","Mostly Cloudy"
"1958-12-27 00:00","1958","12","27","00:00","-4.4","","-6.7","","84","","25","","23","","19.3","","100.25","","","","-11","","Mostly Cloudy"
"1958-12-27 01:00","1958","12","27","01:00","-4.4","","-7.2","","81","","25","","16","","19.3","","100.22","","","","-10","","Mostly Cloudy"
"1958-12-27 02:00","1958","12","27","02:00","-5.0","","-7.8","","81","","18","","6","","16.1","","100.20","","","","-8","","Mostly Cloudy"
"1958-12-27 03:00","1958","12","27","03:00","-5.6","","-8.3","","81","","14","","6","","12.9","","100.22","","","","-8","","Mainly Clear"
"1958-12-27 04:00","1958","12","27","04:00","-5.6","","-8.3","","81","","18","","10","","11.3","","100.19","","","","-10","","Mainly Clear"
"1958-12-27 05:00","1958","12","27","05:00","-6.1","","-8.3","","84","","18","","13","","11.3","","100.17","","","","-11","","Mainly Clear"
"1958-12-27 06:00","1958","12","27","06:00","-6.7","","-8.3","","88","","18","","10","","11.3","","100.11","","","","-11","","Mostly Cloudy"
"1958-12-27 07:00","1958","12","27","07:00","-6.1","","-7.8","","88","","18","","10","","11.3","","100.10","","","","-11","","Mostly Cloudy"
"1958-12-27 08:00","1958","12","27","08:00","-5.6","","-7.2","","88","","18","","8","","3.6","","100.03","","","","-9","","Fog"
"1958-12-27 09:00","1958","12","27","09:00","-4.4","","-6.1","","88","","18","","5","","3.6","","99.97","","","","-7","","Fog"
"1958-12-27 10:00","1958","12","27","10:00","-3.3","","-5.6","","85","","16","","11","","3.2","","99.93","","","","-8","","Haze"
"1958-12-27 11:00","1958","12","27","11:00","-0.6","","-3.3","","81","","18","","13","","3.2","","99.87","","","","-5","","Haze"
"1958-12-27 12:00","1958","12","27","12:00","0.6","","-2.8","","78","","18","","11","","4.8","","99.79","","","","","","Haze"
"1958-12-27 13:00","1958","12","27","13:00","1.1","","-2.8","","75","","20","","23","","1.6","","99.76","","","","","","Snow"
"1958-12-27 14:00","1958","12","27","14:00","0.0","","-0.6","","96","","18","","26","","0.6","","99.67","","","","-6","","Moderate Snow"
"1958-12-27 15:00","1958","12","27","15:00","0.6","","-0.6","","92","","18","","24","","1.6","","99.56","","","","","","Snow,Fog"
"1958-12-27 16:00","1958","12","27","16:00","1.1","","-1.1","","85","","20","","13","","4.8","","99.54","","","","","","Rain,Fog"
"1958-12-27 17:00","1958","12","27","17:00","1.1","","-0.6","","89","","18","","8","","4.8","","99.54","","","","","","Fog"
"1958-12-27 18:00","1958","12","27","18:00","1.7","","-1.1","","82","","23","","13","","11.3","","99.60","","","","","","Cloudy"
"1958-12-27 19:00","1958","12","27","19:00","1.1","","-2.2","","78","","23","","13","","11.3","","99.65","","","","","","Mostly Cloudy"
"1958-12-27 20:00","1958","12","27","20:00","0.6","","-1.7","","85","","23","","16","","11.3","","99.61","","","","","","Mainly Clear"
"1958-12-27 21:00","1958","12","27","21:00","0.0","","-1.7","","88","","23","","8","","11.3","","99.67","","","","-3","","Clear"
"1958-12-27 22:00","1958","12","27","22:00","-0.6","","-2.2","","88","","","","0","","8.0","","99.71","","","","","","Fog"
"1958-12-27 23:00","1958","12","27","23:00","-3.9","","-5.6","","88","","","","0","","4.8","","99.77","","","","","","Fog,Smoke"
"1958-12-28 00:00","1958","12","28","00:00","-2.8","","-3.9","","92","","23","","8","","4.8","","99.76","","","","-6","","Fog"
"1958-12-28 01:00","1958","12","28","01:00","-1.7","","-2.8","","92","","23","","6","","9.7","","99.77","","","","-4","","Fog"
"1958-12-28 02:00","1958","12","28","02:00","-2.2","","-3.3","","92","","23","","10","","16.1","","99.84","","","","-6","","Mostly Cloudy"
"1958-12-28 03:00","1958","12","28","03:00","-0.6","","-2.2","","88","","25","","6","","16.1","","99.94","","","","-3","","Mostly Cloudy"
"1958-12-28 04:00","1958","12","28","04:00","0.0","","-1.7","","88","","27","","13","","12.9","","100.00","","","","-4","","Cloudy"
"1958-12-28 05:00","1958","12","28","05:00","0.0","","-1.7","","88","","27","","6","","12.9","","100.06","","","","-2","","Cloudy"
"1958-12-28 06:00","1958","12","28","06:00","0.0","","-1.7","","88","","25","","6","","8.0","","100.14","","","","-2","","Fog"
"1958-12-28 07:00","1958","12","28","07:00","-0.6","","-2.2","","88","","25","","6","","8.0","","100.19","","","","-3","","Fog"
"1958-12-28 08:00","1958","12","28","08:00","-2.2","","-3.3","","92","","27","","5","","4.8","","100.23","","","","-4","","Fog"
"1958-12-28 09:00","1958","12","28","09:00","-2.8","","-4.4","","88","","27","","3","","2.0","","100.29","","","","-4","","Fog"
"1958-12-28 10:00","1958","12","28","10:00","-5.0","","-6.1","","92","","23","","5","","1.2","","100.41","","","","-7","","Fog"
"1958-12-28 11:00","1958","12","28","11:00","-0.6","","-1.7","","92","","25","","5","","4.0","","100.40","","","","-2","","Fog"
"1958-12-28 12:00","1958","12","28","12:00","2.8","","-1.1","","75","","23","","8","","6.4","","100.41","","","","","","Haze"
"1958-12-28 13:00","1958","12","28","13:00","4.4","","0.0","","73","","18","","5","","12.9","","100.35","","","","","","Mainly Clear"
"1958-12-28 14:00","1958","12","28","14:00","5.6","","0.0","","67","","18","","10","","16.1","","100.33","","","","","","Mainly Clear"
"1958-12-28 15:00","1958","12","28","15:00","4.4","","-1.1","","67","","18","","8","","16.1","","100.28","","","","","","Mainly Clear"
"1958-12-28 16:00","1958","12","28","16:00","3.3","","-0.6","","76","","5","","8","","16.1","","100.23","","","","","","Mainly Clear"
"1958-12-28 17:00","1958","12","28","17:00","1.7","","-1.1","","82","","14","","10","","12.9","","100.34","","","","","","Mainly Clear"
"1958-12-28 18:00","1958","12","28","18:00","1.7","","0.6","","92","","11","","10","","4.0","","100.41","","","","","","Fog"
"1958-12-28 19:00","1958","12","28","19:00","1.1","","0.0","","92","","14","","11","","2.4","","100.40","","","","","","Fog"
"1958-12-28 20:00","1958","12","28","20:00","-1.7","","-1.7","","100","","","","0","","0.0","","100.41","","","","","","Fog"
"1958-12-28 21:00","1958","12","28","21:00","-2.8","","-2.8","","100","","36","","10","","0.0","","100.37","","","","-7","","Fog"
"1958-12-28 22:00","1958","12","28","22:00","-1.1","","-1.1","","100","","5","","8","","0.0","","100.35","","","","-4","","Fog"
"1958-12-28 23:00","1958","12","28","23:00","0.0","","-0.6","","96","","5","","10","","0.0","","100.35","","","","-3","","Fog"
"1958-12-29 00:00","1958","12","29","00:00","0.6","","0.6","","100","","9","","13","","0.2","","100.35","","","","","","Fog"
"1958-12-29 01:00","1958","12","29","01:00","0.6","","0.6","","100","","9","","6","","0.0","","100.34","","","","","","Fog"
"1958-12-29 02:00","1958","12","29","02:00","0.0","","0.0","","100","","5","","6","","0.0","","100.34","","","","-2","","Fog"
"1958-12-29 03:00","1958","12","29","03:00","0.0","","0.0","","100","","5","","8","","0.0","","100.34","","","","-3","","Fog"
"1958-12-29 04:00","1958","12","29","04:00","-0.6","","-0.6","","100","","2","","8","","0.0","","100.30","","","","-3","","Fog"
"1958-12-29 05:00","1958","12","29","05:00","-1.1","","-1.1","","100","","5","","6","","0.0","","100.31","","","","-3","","Fog"
"1958-12-29 06:00","1958","12","29","06:00","-1.1","","-1.1","","100","","36","","6","","0.0","","100.30","","","","-3","","Fog"
"1958-12-29 07:00","1958","12","29","07:00","-1.1","","-1.1","","100","","2","","8","","0.0","","100.32","","","","-4","","Fog"
"1958-12-29 08:00","1958","12","29","08:00","-1.1","","-1.1","","100","","5","","8","","0.0","","100.36","","","","-4","","Fog"
"1958-12-29 09:00","1958","12","29","09:00","-1.1","","-1.1","","100","","","","0","","0.0","","100.37","","","","","","Fog"
"1958-12-29 10:00","1958","12","29","10:00","-0.6","","-0.6","","100","","","","0","","0.0","","100.39","","","","","","Fog"
"1958-12-29 11:00","1958","12","29","11:00","0.0","","0.0","","100","","","","0","","0.0","","100.33","","","","","","Fog"
"1958-12-29 12:00","1958","12","29","12:00","0.6","","0.6","","100","","","","0","","0.0","","100.28","","","","","","Fog"
"1958-12-29 13:00","1958","12","29","13:00","0.6","","0.6","","100","","","","0","","0.0","","100.22","","","","","","Fog"
"1958-12-29 14:00","1958","12","29","14:00","0.6","","0.6","","100","","18","","3","","0.6","","100.19","","","","","","Fog"
"1958-12-29 15:00","1958","12","29","15:00","0.0","","0.0","","100","","","","0","","0.0","","100.18","","","","","","Fog"
"1958-12-29 16:00","1958","12","29","16:00","0.0","","0.0","","100","","16","","5","","0.0","","100.20","","","","-2","","Fog"
"1958-12-29 17:00","1958","12","29","17:00","-1.1","","-1.1","","100","","23","","5","","0.0","","100.22","","","","-3","","Fog"
"1958-12-29 18:00","1958","12","29","18:00","-1.1","","-1.1","","100","","25","","5","","0.2","","100.26","","","","-3","","Fog"
"1958-12-29 19:00","1958","12","29","19:00","-1.7","","-1.7","","100","","27","","5","","0.2","","100.31","","","","-4","","Fog"
"1958-12-29 20:00","1958","12","29","20:00","-2.8","","-2.8","","100","","32","","8","","0.2","","100.35","","","","-6","","Fog"
"1958-12-29 21:00","1958","12","29","21:00","-3.3","","-3.3","","100","","36","","6","","0.2","","100.32","","","","-6","","Fog"
"1958-12-29 22:00","1958","12","29","22:00","-3.9","","-3.9","","100","","36","","10","","4.8","","100.32","","","","-8","","Fog"
"1958-12-29 23:00","1958","12","29","23:00","-1.7","","-1.7","","100","","34","","10","","8.0","","100.29","","","","-5","","Fog"
"1958-12-30 00:00","1958","12","30","00:00","0.0","","0.0","","100","","34","","18","","4.8","","100.30","","","","-5","","Fog"
"1958-12-30 01:00","1958","12","30","01:00","1.7","","1.7","","100","","36","","19","","0.8","","100.27","","","","","","Fog"
"1958-12-30 02:00","1958","12","30","02:00","1.1","","1.1","","100","","36","","24","","6.4","","100.35","","","","","","Fog"
"1958-12-30 03:00","1958","12","30","03:00","0.0","","0.0","","100","","36","","24","","6.4","","100.43","","","","-6","","Snow,Fog"
"1958-12-30 04:00","1958","12","30","04:00","-1.7","","-2.2","","96","","36","","35","","12.9","","100.46","","","","-9","","Snow,Snow Grains"
"1958-12-30 05:00","1958","12","30","05:00","-2.8","","-3.9","","92","","36","","37","","12.9","","100.53","","","","-11","","Snow Grains"
"1958-12-30 06:00","1958","12","30","06:00","-3.9","","-5.0","","92","","36","","27","","12.9","","100.58","","","","-11","","Snow,Snow Grains"
"1958-12-30 07:00","1958","12","30","07:00","-3.9","","-5.6","","88","","36","","32","","19.3","","100.68","","","","-12","","Snow Grains"
"1958-12-30 08:00","1958","12","30","08:00","-5.6","","-7.2","","88","","36","","32","","24.1","","100.76","","","","-14","","Snow Grains"
"1958-12-30 09:00","1958","12","30","09:00","-6.1","","-8.3","","84","","36","","32","","25.0","","100.86","","","","-15","","Cloudy"
"1958-12-30 10:00","1958","12","30","10:00","-7.2","","-9.4","","84","","36","","32","","25.0","","100.92","","","","-16","","Mostly Cloudy"
"1958-12-30 11:00","1958","12","30","11:00","-7.8","","-11.1","","77","","36","","32","","25.0","","100.92","","","","-17","","Mostly Cloudy"
"1958-12-30 12:00","1958","12","30","12:00","-7.8","","-12.2","","70","","36","","32","","25.0","","100.92","","","","-17","","Mainly Clear"
"1958-12-30 13:00","1958","12","30","13:00","-7.8","","-12.8","","67","","36","","31","","25.0","","100.90","","","","-17","","Mainly Clear"
"1958-12-30 14:00","1958","12","30","14:00","-7.2","","-13.3","","62","","2","","24","","25.0","","100.92","","","","-15","","Mainly Clear"
"1958-12-30 15:00","1958","12","30","15:00","-7.2","","-13.9","","59","","36","","26","","25.0","","101.02","","","","-15","","Clear"
"1958-12-30 16:00","1958","12","30","16:00","-7.2","","-13.3","","62","","36","","27","","25.0","","101.06","","","","-15","","Clear"
"1958-12-30 17:00","1958","12","30","17:00","-7.8","","-10.6","","81","","36","","19","","25.0","","101.08","","","","-15","","Clear"
"1958-12-30 18:00","1958","12","30","18:00","-8.9","","-12.2","","77","","36","","13","","25.0","","101.13","","","","-15","","Clear"
"1958-12-30 19:00","1958","12","30","19:00","-8.9","","-11.7","","80","","36","","16","","25.0","","101.21","","","","-16","","Clear"
"1958-12-30 20:00","1958","12","30","20:00","-9.4","","-12.8","","77","","36","","16","","25.0","","101.28","","","","-16","","Clear"
"1958-12-30 21:00","1958","12","30","21:00","-10.0","","-12.8","","80","","36","","14","","25.0","","101.30","","","","-16","","Clear"
"1958-12-30 22:00","1958","12","30","22:00","-10.6","","-13.3","","80","","36","","13","","25.0","","101.28","","","","-17","","Clear"
"1958-12-30 23:00","1958","12","30","23:00","-11.7","","-15.6","","73","","36","","21","","25.0","","101.26","","","","-20","","Clear"
"1958-12-31 00:00","1958","12","31","00:00","-11.7","","-13.9","","84","","34","","10","","25.0","","101.22","","","","-17","","Clear"
"1958-12-31 01:00","1958","12","31","01:00","-12.2","","-14.4","","84","","34","","14","","25.0","","101.22","","","","-19","","Clear"
"1958-12-31 02:00","1958","12","31","02:00","-12.2","","-15.0","","80","","34","","10","","25.0","","101.25","","","","-18","","Clear"
"1958-12-31 03:00","1958","12","31","03:00","-12.8","","-15.0","","84","","34","","8","","25.0","","101.34","","","","-18","","Clear"
"1958-12-31 04:00","1958","12","31","04:00","-13.3","","-15.6","","83","","2","","13","","25.0","","101.32","","","","-20","","Clear"
"1958-12-31 05:00","1958","12","31","05:00","-13.9","","-15.6","","87","","36","","14","","25.0","","101.27","","","","-21","","Clear"
"1958-12-31 06:00","1958","12","31","06:00","-14.4","","-16.7","","83","","36","","13","","25.0","","101.24","","","","-22","","Mainly Clear"
"1958-12-31 07:00","1958","12","31","07:00","-13.3","","-15.6","","83","","36","","10","","25.0","","101.26","","","","-19","","Mainly Clear"
"1958-12-31 08:00","1958","12","31","08:00","-13.3","","-16.1","","80","","36","","8","","25.0","","101.26","","","","-18","","Mainly Clear"
"1958-12-31 09:00","1958","12","31","09:00","-13.3","","-16.1","","80","","2","","11","","25.0","","101.20","","","","-20","","Mostly Cloudy"
"1958-12-31 10:00","1958","12","31","10:00","-11.1","","-15.0","","73","","36","","10","","25.0","","101.38","","","","-17","","Mostly Cloudy"
"1958-12-31 11:00","1958","12","31","11:00","-7.8","","-12.2","","70","","36","","10","","24.1","","101.33","","","","-13","","Mostly Cloudy"
"1958-12-31 12:00","1958","12","31","12:00","-6.7","","-13.9","","57","","2","","10","","24.1","","101.16","","","","-11","","Mostly Cloudy"
"1958-12-31 13:00","1958","12","31","13:00","-5.0","","-10.6","","65","","5","","10","","24.1","","101.01","","","","-9","","Mostly Cloudy"
"1958-12-31 14:00","1958","12","31","14:00","-2.8","","-6.7","","75","","14","","13","","11.3","","101.03","","","","-7","","Mostly Cloudy"
"1958-12-31 15:00","1958","12","31","15:00","-3.3","","-6.7","","78","","14","","13","","12.9","","100.99","","","","-8","","Mostly Cloudy"
"1958-12-31 16:00","1958","12","31","16:00","-3.3","","-6.1","","81","","9","","11","","12.9","","100.89","","","","-8","","Cloudy"
"1958-12-31 17:00","1958","12","31","17:00","-3.3","","-6.7","","78","","11","","6","","11.3","","100.84","","","","-6","","Cloudy"
"1958-12-31 18:00","1958","12","31","18:00","-3.9","","-7.2","","78","","9","","10","","19.3","","100.80","","","","-8","","Cloudy"
"1958-12-31 19:00","1958","12","31","19:00","-3.3","","-6.7","","78","","11","","10","","19.3","","100.77","","","","-7","","Cloudy"
"1958-12-31 20:00","1958","12","31","20:00","-2.8","","-6.1","","78","","9","","13","","19.3","","100.64","","","","-7","","Cloudy"
"1958-12-31 21:00","1958","12","31","21:00","-3.3","","-3.9","","96","","9","","16","","19.3","","100.50","","","","-9","","Cloudy"
"1958-12-31 22:00","1958","12","31","22:00","-3.9","","-5.0","","92","","5","","10","","19.3","","100.39","","","","-8","","Cloudy"
"1958-12-31 23:00","1958","12","31","23:00","-4.4","","-6.1","","88","","5","","11","","19.3","","100.24","","","","-9","","Cloudy"
