"Station Name","TORONTO LESTER B. PEARSON INT'L A"
"Province","ONTARIO"
"Latitude","43.68"
"Longitude","-79.63"
"Elevation","173.40"
"Climate Identifier","6158733"
"WMO Identifier","71624"
"TC Identifier","YYZ"
"All times are specified in Local Standard Time (LST). Add 1 hour to adjust for Daylight Saving Time where and when it is observed."

"Legend"
"E","Estimated"
"M","Missing"
"NA","Not Available"

"Date/Time","Year","Month","Day","Time","Temp (°C)","Temp Flag","Dew Point Temp (°C)","Dew Point Temp Flag","Rel Hum (%)","Rel Hum Flag","Wind Dir (10s deg)","Wind Dir Flag","Wind Spd (km/h)","Wind Spd Flag","Visibility (km)","Visibility Flag","Stn Press (kPa)","Stn Press Flag","Hmdx","Hmdx Flag","Wind Chill","Wind Chill Flag","Weather"
"1967-03-01 00:00","1967","03","01","00:00","-12.2","","-15.6","","76","","34","","42","","25.0","","99.71","","","","-24","","Clear"
"1967-03-01 01:00","1967","03","01","01:00","-13.3","","-16.7","","75","","34","","40","","25.0","","99.79","","","","-25","","Clear"
"1967-03-01 02:00","1967","03","01","02:00","-13.9","","-17.8","","74","","34","","39","","25.0","","99.86","","","","-26","","Clear"
"1967-03-01 03:00","1967","03","01","03:00","-14.4","","-18.3","","73","","34","","32","","25.0","","99.94","","","","-26","","Clear"
"1967-03-01 04:00","1967","03","01","04:00","-14.4","","-17.8","","75","","34","","32","","25.0","","100.01","","","","-26","","Clear"
"1967-03-01 05:00","1967","03","01","05:00","-15.6","","-19.4","","73","","34","","29","","25.0","","100.14","","","","-27","","Clear"
"1967-03-01 06:00","1967","03","01","06:00","-16.1","","-20.0","","72","","34","","23","","25.0","","100.24","","","","-26","","Clear"
"1967-03-01 07:00","1967","03","01","07:00","-16.1","","-20.6","","70","","34","","23","","40.2","","100.31","","","","-26","","Clear"
"1967-03-01 08:00","1967","03","01","08:00","-16.1","","-20.6","","67","","32","","16","","40.2","","100.40","","","","-25","","Clear"
"1967-03-01 09:00","1967","03","01","09:00","-15.6","","-20.0","","69","","32","","16","","40.2","","100.50","","","","-24","","Clear"
"1967-03-01 10:00","1967","03","01","10:00","-13.9","","-18.9","","66","","34","","19","","40.2","","100.58","","","","-23","","Clear"
"1967-03-01 11:00","1967","03","01","11:00","-12.8","","-18.3","","63","","32","","19","","40.2","","100.57","","","","-21","","Clear"
"1967-03-01 12:00","1967","03","01","12:00","-11.7","","-17.2","","62","","32","","16","","40.2","","100.58","","","","-19","","Clear"
"1967-03-01 13:00","1967","03","01","13:00","-10.0","","-15.6","","63","","32","","14","","40.2","","100.51","","","","-16","","Clear"
"1967-03-01 14:00","1967","03","01","14:00","-8.3","","-15.0","","60","","29","","13","","40.2","","100.43","","","","-14","","Clear"
"1967-03-01 15:00","1967","03","01","15:00","-8.3","","-14.4","","61","","29","","21","","40.2","","100.36","","","","-16","","Mainly Clear"
"1967-03-01 16:00","1967","03","01","16:00","-7.2","","-13.9","","58","","27","","10","","40.2","","100.32","","","","-12","","Mainly Clear"
"1967-03-01 17:00","1967","03","01","17:00","-7.2","","-13.9","","58","","27","","11","","40.2","","100.29","","","","-12","","Mainly Clear"
"1967-03-01 18:00","1967","03","01","18:00","-8.9","","-15.6","","58","","25","","10","","40.2","","100.31","","","","-14","","Mainly Clear"
"1967-03-01 19:00","1967","03","01","19:00","-9.4","","-16.7","","57","","20","","8","","40.2","","100.26","","","","-14","","Mainly Clear"
"1967-03-01 20:00","1967","03","01","20:00","-10.6","","-16.7","","62","","20","","8","","25.0","","100.20","","","","-15","","Mainly Clear"
"1967-03-01 21:00","1967","03","01","21:00","-10.6","","-15.6","","68","","18","","6","","25.0","","100.10","","","","-14","","Mainly Clear"
"1967-03-01 22:00","1967","03","01","22:00","-10.6","","-15.0","","71","","20","","13","","25.0","","99.97","","","","-17","","Mainly Clear"
"1967-03-01 23:00","1967","03","01","23:00","-10.0","","-14.4","","71","","18","","11","","25.0","","99.85","","","","-16","","Mostly Cloudy"
"1967-03-02 00:00","1967","03","02","00:00","-8.9","","-12.8","","74","","18","","14","","25.0","","99.74","","","","-15","","Mostly Cloudy"
"1967-03-02 01:00","1967","03","02","01:00","-8.3","","-12.8","","70","","18","","10","","25.0","","99.75","","","","-13","","Mostly Cloudy"
"1967-03-02 02:00","1967","03","02","02:00","-8.3","","-11.7","","77","","16","","8","","25.0","","99.65","","","","-12","","Mostly Cloudy"
"1967-03-02 03:00","1967","03","02","03:00","-7.8","","-10.6","","82","","16","","14","","25.0","","99.41","","","","-14","","Cloudy"
"1967-03-02 04:00","1967","03","02","04:00","-6.1","","-11.1","","68","","16","","21","","24.1","","99.18","","","","-13","","Cloudy"
"1967-03-02 05:00","1967","03","02","05:00","-5.6","","-11.1","","66","","18","","23","","24.1","","99.04","","","","-13","","Mostly Cloudy"
"1967-03-02 06:00","1967","03","02","06:00","-5.0","","-11.1","","63","","18","","19","","24.1","","98.91","","","","-11","","Cloudy"
"1967-03-02 07:00","1967","03","02","07:00","-4.4","","-11.1","","60","","18","","13","","24.1","","98.83","","","","-9","","Cloudy"
"1967-03-02 08:00","1967","03","02","08:00","-4.4","","-10.6","","61","","18","","10","","24.1","","98.76","","","","-9","","Cloudy"
"1967-03-02 09:00","1967","03","02","09:00","-3.9","","-8.9","","67","","20","","13","","16.1","","98.71","","","","-9","","Cloudy"
"1967-03-02 10:00","1967","03","02","10:00","-2.8","","-7.2","","71","","20","","19","","16.1","","98.58","","","","-9","","Cloudy"
"1967-03-02 11:00","1967","03","02","11:00","-1.1","","-5.6","","73","","23","","21","","16.1","","98.47","","","","-7","","Cloudy"
"1967-03-02 12:00","1967","03","02","12:00","0.0","","-3.9","","74","","25","","16","","19.3","","98.47","","","","-5","","Cloudy"
"1967-03-02 13:00","1967","03","02","13:00","1.1","","-3.9","","68","","23","","8","","16.1","","98.41","","","","","","Cloudy"
"1967-03-02 14:00","1967","03","02","14:00","2.2","","-3.3","","66","","27","","13","","16.1","","98.37","","","","","","Cloudy"
"1967-03-02 15:00","1967","03","02","15:00","2.8","","-2.8","","67","","27","","11","","16.1","","98.38","","","","","","Cloudy"
"1967-03-02 16:00","1967","03","02","16:00","2.8","","-2.2","","69","","25","","10","","16.1","","98.41","","","","","","Mostly Cloudy"
"1967-03-02 17:00","1967","03","02","17:00","2.2","","-2.2","","74","","27","","6","","12.9","","98.44","","","","","","Cloudy"
"1967-03-02 18:00","1967","03","02","18:00","2.8","","-1.1","","74","","27","","13","","9.7","","98.52","","","","","","Haze"
"1967-03-02 19:00","1967","03","02","19:00","2.2","","-1.1","","79","","25","","14","","9.7","","98.58","","","","","","Haze"
"1967-03-02 20:00","1967","03","02","20:00","1.7","","-1.1","","81","","23","","19","","9.7","","98.57","","","","","","Haze"
"1967-03-02 21:00","1967","03","02","21:00","1.7","","-1.1","","81","","25","","14","","9.7","","98.59","","","","","","Haze"
"1967-03-02 22:00","1967","03","02","22:00","1.1","","-1.1","","86","","25","","3","","9.7","","98.63","","","","","","Haze"
"1967-03-02 23:00","1967","03","02","23:00","1.1","","-1.1","","86","","2","","5","","8.0","","98.57","","","","","","Haze"
"1967-03-03 00:00","1967","03","03","00:00","1.1","","-1.1","","86","","2","","3","","8.0","","98.56","","","","","","Haze"
"1967-03-03 01:00","1967","03","03","01:00","1.1","","-0.6","","89","","23","","5","","11.3","","98.57","","","","","","Cloudy"
"1967-03-03 02:00","1967","03","03","02:00","1.1","","-1.1","","86","","16","","8","","11.3","","98.52","","","","","","Cloudy"
"1967-03-03 03:00","1967","03","03","03:00","0.6","","0.0","","94","","5","","8","","4.8","","98.46","","","","","","Fog"
"1967-03-03 04:00","1967","03","03","04:00","0.0","","-0.6","","97","","25","","6","","3.6","","98.48","","","","-2","","Fog"
"1967-03-03 05:00","1967","03","03","05:00","0.0","","-0.6","","94","","27","","3","","3.6","","98.52","","","","-1","","Fog"
"1967-03-03 06:00","1967","03","03","06:00","0.0","","-1.1","","91","","","","0","","3.6","","98.56","","","","","","Fog"
"1967-03-03 07:00","1967","03","03","07:00","-0.6","","-1.7","","93","","","","0","","3.6","","98.57","","","","","","Fog"
"1967-03-03 08:00","1967","03","03","08:00","0.0","","-1.1","","91","","27","","6","","2.0","","98.57","","","","-2","","Fog"
"1967-03-03 09:00","1967","03","03","09:00","0.6","","-0.6","","91","","27","","10","","2.4","","98.70","","","","","","Fog"
"1967-03-03 10:00","1967","03","03","10:00","1.7","","-0.6","","86","","20","","8","","3.2","","98.69","","","","","","Fog"
"1967-03-03 11:00","1967","03","03","11:00","2.2","","-0.6","","81","","","","0","","4.8","","98.67","","","","","","Haze"
"1967-03-03 12:00","1967","03","03","12:00","2.8","","0.0","","82","","27","","13","","11.3","","98.74","","","","","","Mostly Cloudy"
"1967-03-03 13:00","1967","03","03","13:00","2.8","","-1.1","","74","","29","","27","","16.1","","98.77","","","","","","Mostly Cloudy"
"1967-03-03 14:00","1967","03","03","14:00","2.8","","-1.1","","74","","29","","21","","32.2","","98.83","","","","","","Mainly Clear"
"1967-03-03 15:00","1967","03","03","15:00","2.2","","-2.2","","74","","29","","24","","40.2","","98.91","","","","","","Mainly Clear"
"1967-03-03 16:00","1967","03","03","16:00","1.7","","-2.8","","73","","29","","34","","40.2","","99.02","","","","","","Mainly Clear"
"1967-03-03 17:00","1967","03","03","17:00","0.6","","-4.4","","70","","29","","29","","40.2","","99.16","","","","","","Mainly Clear"
"1967-03-03 18:00","1967","03","03","18:00","-0.6","","-3.3","","82","","27","","23","","40.2","","99.27","","","","-6","","Mainly Clear"
"1967-03-03 19:00","1967","03","03","19:00","-1.7","","-4.4","","80","","29","","21","","25.0","","99.38","","","","-8","","Mainly Clear"
"1967-03-03 20:00","1967","03","03","20:00","-2.2","","-5.0","","80","","32","","27","","25.0","","99.46","","","","-9","","Mainly Clear"
"1967-03-03 21:00","1967","03","03","21:00","-3.3","","-6.1","","82","","29","","26","","25.0","","99.55","","","","-10","","Mainly Clear"
"1967-03-03 22:00","1967","03","03","22:00","-4.4","","-7.2","","81","","32","","23","","25.0","","99.64","","","","-11","","Mainly Clear"
"1967-03-03 23:00","1967","03","03","23:00","-4.4","","-8.3","","75","","29","","19","","25.0","","99.72","","","","-11","","Mainly Clear"
"1967-03-04 00:00","1967","03","04","00:00","-6.1","","-8.9","","82","","29","","11","","25.0","","99.72","","","","-11","","Mainly Clear"
"1967-03-04 01:00","1967","03","04","01:00","-6.7","","-10.0","","78","","32","","10","","25.0","","99.81","","","","-11","","Mainly Clear"
"1967-03-04 02:00","1967","03","04","02:00","-5.6","","-9.4","","75","","32","","10","","25.0","","99.83","","","","-10","","Mainly Clear"
"1967-03-04 03:00","1967","03","04","03:00","-5.6","","-8.9","","78","","32","","14","","25.0","","99.82","","","","-11","","Mainly Clear"
"1967-03-04 04:00","1967","03","04","04:00","-6.7","","-9.4","","79","","32","","8","","25.0","","99.85","","","","-11","","Mainly Clear"
"1967-03-04 05:00","1967","03","04","05:00","-7.2","","-10.6","","76","","27","","8","","25.0","","99.95","","","","-11","","Mainly Clear"
"1967-03-04 06:00","1967","03","04","06:00","-7.8","","-10.0","","83","","29","","10","","25.0","","100.00","","","","-13","","Mainly Clear"
"1967-03-04 07:00","1967","03","04","07:00","-7.8","","-10.6","","80","","29","","6","","32.2","","100.01","","","","-11","","Mostly Cloudy"
"1967-03-04 08:00","1967","03","04","08:00","-7.8","","-10.0","","84","","34","","11","","32.2","","100.07","","","","-13","","Mostly Cloudy"
"1967-03-04 09:00","1967","03","04","09:00","-6.7","","-10.0","","78","","36","","13","","32.2","","100.16","","","","-12","","Mostly Cloudy"
"1967-03-04 10:00","1967","03","04","10:00","-6.1","","-9.4","","78","","36","","11","","40.2","","100.21","","","","-11","","Mostly Cloudy"
"1967-03-04 11:00","1967","03","04","11:00","-5.6","","-9.4","","75","","36","","3","","40.2","","100.23","","","","-7","","Mostly Cloudy"
"1967-03-04 12:00","1967","03","04","12:00","-4.4","","-8.3","","74","","","","0","","40.2","","100.19","","","","","","Cloudy"
"1967-03-04 13:00","1967","03","04","13:00","-3.3","","-8.9","","66","","18","","3","","40.2","","100.08","","","","-5","","Cloudy"
"1967-03-04 14:00","1967","03","04","14:00","-3.9","","-8.9","","68","","","","0","","40.2","","100.02","","","","","","Mostly Cloudy"
"1967-03-04 15:00","1967","03","04","15:00","-3.3","","-8.3","","69","","","","0","","40.2","","99.98","","","","","","Mostly Cloudy"
"1967-03-04 16:00","1967","03","04","16:00","-2.8","","-7.8","","67","","","","0","","40.2","","99.96","","","","","","Mostly Cloudy"
"1967-03-04 17:00","1967","03","04","17:00","-3.3","","-7.8","","70","","16","","8","","40.2","","99.96","","","","-7","","Mostly Cloudy"
"1967-03-04 18:00","1967","03","04","18:00","-3.9","","-6.7","","80","","14","","8","","32.2","","99.96","","","","-7","","Mostly Cloudy"
"1967-03-04 19:00","1967","03","04","19:00","-3.9","","-6.7","","79","","16","","6","","25.0","","99.96","","","","-7","","Mostly Cloudy"
"1967-03-04 20:00","1967","03","04","20:00","-4.4","","-7.2","","82","","14","","5","","25.0","","99.91","","","","-7","","Mostly Cloudy"
"1967-03-04 21:00","1967","03","04","21:00","-3.9","","-6.7","","82","","11","","6","","25.0","","99.85","","","","-7","","Cloudy"
"1967-03-04 22:00","1967","03","04","22:00","-3.9","","-6.7","","82","","11","","8","","25.0","","99.80","","","","-7","","Cloudy"
"1967-03-04 23:00","1967","03","04","23:00","-3.9","","-6.1","","84","","11","","10","","25.0","","99.76","","","","-8","","Cloudy"
"1967-03-05 00:00","1967","03","05","00:00","-3.3","","-6.1","","80","","11","","10","","25.0","","99.71","","","","-7","","Cloudy"
"1967-03-05 01:00","1967","03","05","01:00","-3.3","","-6.1","","81","","11","","13","","25.0","","99.62","","","","-8","","Cloudy"
"1967-03-05 02:00","1967","03","05","02:00","-3.3","","-6.1","","81","","9","","11","","25.0","","99.59","","","","-8","","Cloudy"
"1967-03-05 03:00","1967","03","05","03:00","-3.3","","-6.1","","80","","9","","6","","25.0","","99.57","","","","-6","","Cloudy"
"1967-03-05 04:00","1967","03","05","04:00","-2.8","","-5.6","","80","","11","","21","","25.0","","99.52","","","","-9","","Cloudy"
"1967-03-05 05:00","1967","03","05","05:00","-3.3","","-5.6","","85","","14","","16","","9.7","","99.47","","","","-9","","Snow Showers"
"1967-03-05 06:00","1967","03","05","06:00","-3.9","","-4.4","","96","","11","","14","","2.4","","99.39","","","","-9","","Snow"
"1967-03-05 07:00","1967","03","05","07:00","-3.9","","-4.4","","95","","9","","13","","4.0","","99.25","","","","-9","","Snow"
"1967-03-05 08:00","1967","03","05","08:00","-2.8","","-3.9","","91","","9","","16","","6.4","","99.16","","","","-8","","Snow"
"1967-03-05 09:00","1967","03","05","09:00","-2.2","","-3.3","","94","","9","","16","","8.0","","99.11","","","","-7","","Fog"
"1967-03-05 10:00","1967","03","05","10:00","-1.7","","-2.8","","92","","9","","19","","8.0","","99.12","","","","-7","","Fog"
"1967-03-05 11:00","1967","03","05","11:00","-1.7","","-2.8","","92","","9","","19","","4.8","","99.05","","","","-7","","Snow"
"1967-03-05 12:00","1967","03","05","12:00","-2.8","","-3.9","","92","","2","","21","","4.8","","98.95","","","","-9","","Snow,Fog"
"1967-03-05 13:00","1967","03","05","13:00","-2.8","","-5.6","","82","","2","","21","","9.7","","98.87","","","","-9","","Haze"
"1967-03-05 14:00","1967","03","05","14:00","-2.8","","-4.4","","90","","7","","14","","6.4","","98.81","","","","-8","","Snow,Fog"
"1967-03-05 15:00","1967","03","05","15:00","-3.3","","-5.0","","89","","5","","13","","8.0","","98.79","","","","-8","","Fog"
"1967-03-05 16:00","1967","03","05","16:00","-3.3","","-5.0","","88","","36","","11","","8.0","","98.80","","","","-8","","Fog"
"1967-03-05 17:00","1967","03","05","17:00","-3.3","","-5.6","","86","","36","","13","","16.1","","98.83","","","","-8","","Cloudy"
"1967-03-05 18:00","1967","03","05","18:00","-3.9","","-5.6","","87","","36","","13","","19.3","","98.79","","","","-9","","Cloudy"
"1967-03-05 19:00","1967","03","05","19:00","-3.9","","-6.1","","86","","36","","8","","16.1","","98.86","","","","-7","","Cloudy"
"1967-03-05 20:00","1967","03","05","20:00","-4.4","","-6.1","","89","","34","","5","","16.1","","98.85","","","","-7","","Cloudy"
"1967-03-05 21:00","1967","03","05","21:00","-4.4","","-6.1","","90","","32","","5","","16.1","","98.83","","","","-7","","Cloudy"
"1967-03-05 22:00","1967","03","05","22:00","-4.4","","-6.1","","90","","32","","3","","16.1","","98.80","","","","-6","","Cloudy"
"1967-03-05 23:00","1967","03","05","23:00","-4.4","","-6.1","","90","","34","","3","","12.9","","98.79","","","","-6","","Cloudy"
"1967-03-06 00:00","1967","03","06","00:00","-4.4","","-5.6","","91","","","","0","","11.3","","98.79","","","","","","Cloudy"
"1967-03-06 01:00","1967","03","06","01:00","-4.4","","-5.6","","91","","","","0","","11.3","","98.74","","","","","","Cloudy"
"1967-03-06 02:00","1967","03","06","02:00","-3.9","","-5.0","","91","","","","0","","11.3","","98.69","","","","","","Cloudy"
"1967-03-06 03:00","1967","03","06","03:00","-3.9","","-5.0","","93","","36","","3","","9.7","","98.65","","","","-5","","Snow Showers,Fog"
"1967-03-06 04:00","1967","03","06","04:00","-3.9","","-5.0","","93","","34","","5","","9.7","","98.64","","","","-6","","Snow,Fog"
"1967-03-06 05:00","1967","03","06","05:00","-4.4","","-5.6","","92","","36","","3","","9.7","","98.60","","","","-6","","Fog"
"1967-03-06 06:00","1967","03","06","06:00","-3.9","","-5.0","","93","","34","","13","","12.9","","98.73","","","","-9","","Cloudy"
"1967-03-06 07:00","1967","03","06","07:00","-2.8","","-5.0","","85","","36","","23","","11.3","","98.76","","","","-9","","Cloudy"
"1967-03-06 08:00","1967","03","06","08:00","-2.8","","-5.6","","80","","36","","21","","32.2","","98.69","","","","-9","","Cloudy"
"1967-03-06 09:00","1967","03","06","09:00","-3.3","","-6.1","","82","","36","","26","","32.2","","98.81","","","","-10","","Mostly Cloudy"
"1967-03-06 10:00","1967","03","06","10:00","-3.3","","-6.1","","80","","34","","26","","40.2","","98.91","","","","-10","","Mostly Cloudy"
"1967-03-06 11:00","1967","03","06","11:00","-3.3","","-7.2","","76","","34","","16","","40.2","","98.90","","","","-9","","Mostly Cloudy"
"1967-03-06 12:00","1967","03","06","12:00","-2.8","","-6.7","","75","","36","","13","","40.2","","98.91","","","","-7","","Mostly Cloudy"
"1967-03-06 13:00","1967","03","06","13:00","-2.2","","-7.2","","68","","36","","5","","40.2","","98.85","","","","-4","","Mostly Cloudy"
"1967-03-06 14:00","1967","03","06","14:00","-1.7","","-7.2","","65","","32","","3","","40.2","","98.86","","","","-3","","Mostly Cloudy"
"1967-03-06 15:00","1967","03","06","15:00","-1.1","","-6.1","","69","","20","","5","","40.2","","98.85","","","","-3","","Cloudy"
"1967-03-06 16:00","1967","03","06","16:00","-1.1","","-7.8","","60","","27","","11","","40.2","","98.81","","","","-5","","Mostly Cloudy"
"1967-03-06 17:00","1967","03","06","17:00","-1.7","","-5.0","","79","","27","","16","","40.2","","98.86","","","","-7","","Mostly Cloudy"
"1967-03-06 18:00","1967","03","06","18:00","-2.8","","-6.7","","74","","29","","11","","40.2","","98.86","","","","-7","","Mostly Cloudy"
"1967-03-06 19:00","1967","03","06","19:00","-2.8","","-7.2","","72","","27","","6","","25.0","","98.87","","","","-5","","Mostly Cloudy"
"1967-03-06 20:00","1967","03","06","20:00","-3.3","","-7.8","","70","","27","","3","","25.0","","98.77","","","","-5","","Mostly Cloudy"
"1967-03-06 21:00","1967","03","06","21:00","-3.9","","-8.3","","70","","27","","8","","25.0","","98.78","","","","-7","","Mostly Cloudy"
"1967-03-06 22:00","1967","03","06","22:00","-5.0","","-7.8","","80","","32","","10","","25.0","","98.82","","","","-9","","Cloudy"
"1967-03-06 23:00","1967","03","06","23:00","-5.0","","-8.9","","75","","34","","13","","25.0","","98.70","","","","-10","","Cloudy"
"1967-03-07 00:00","1967","03","07","00:00","-5.6","","-8.9","","76","","36","","11","","25.0","","98.68","","","","-10","","Cloudy"
"1967-03-07 01:00","1967","03","07","01:00","-5.6","","-10.0","","70","","36","","6","","25.0","","98.65","","","","-8","","Cloudy"
"1967-03-07 02:00","1967","03","07","02:00","-5.6","","-10.6","","69","","36","","8","","25.0","","98.56","","","","-9","","Cloudy"
"1967-03-07 03:00","1967","03","07","03:00","-6.7","","-10.6","","73","","34","","10","","25.0","","98.48","","","","-11","","Mostly Cloudy"
"1967-03-07 04:00","1967","03","07","04:00","-6.7","","-10.0","","76","","34","","10","","25.0","","98.47","","","","-11","","Mostly Cloudy"
"1967-03-07 05:00","1967","03","07","05:00","-7.2","","-9.4","","85","","34","","11","","25.0","","98.51","","","","-12","","Cloudy"
"1967-03-07 06:00","1967","03","07","06:00","-6.7","","-10.0","","76","","34","","13","","25.0","","98.53","","","","-12","","Cloudy"
"1967-03-07 07:00","1967","03","07","07:00","-6.7","","-10.0","","76","","34","","11","","40.2","","98.58","","","","-12","","Cloudy"
"1967-03-07 08:00","1967","03","07","08:00","-6.1","","-10.0","","73","","32","","8","","40.2","","98.66","","","","-10","","Mostly Cloudy"
"1967-03-07 09:00","1967","03","07","09:00","-4.4","","-7.8","","76","","32","","23","","40.2","","98.67","","","","-11","","Mostly Cloudy"
"1967-03-07 10:00","1967","03","07","10:00","-3.3","","-7.2","","76","","29","","16","","24.1","","98.67","","","","-9","","Mostly Cloudy"
"1967-03-07 11:00","1967","03","07","11:00","-2.2","","-7.2","","70","","27","","13","","24.1","","98.73","","","","-7","","Mostly Cloudy"
"1967-03-07 12:00","1967","03","07","12:00","-1.1","","-5.0","","74","","29","","26","","32.2","","98.75","","","","-7","","Cloudy"
"1967-03-07 13:00","1967","03","07","13:00","-1.1","","-6.7","","67","","27","","27","","40.2","","98.76","","","","-8","","Cloudy"
"1967-03-07 14:00","1967","03","07","14:00","-0.6","","-5.0","","73","","27","","29","","40.2","","98.79","","","","-7","","Mostly Cloudy"
"1967-03-07 15:00","1967","03","07","15:00","-0.6","","-5.0","","73","","29","","32","","32.2","","98.82","","","","-7","","Mostly Cloudy"
"1967-03-07 16:00","1967","03","07","16:00","-3.3","","-6.7","","79","","36","","26","","40.2","","98.99","","","","-10","","Mostly Cloudy"
"1967-03-07 17:00","1967","03","07","17:00","-4.4","","-8.3","","75","","36","","24","","40.2","","99.13","","","","-11","","Mostly Cloudy"
"1967-03-07 18:00","1967","03","07","18:00","-6.7","","-9.4","","79","","34","","18","","40.2","","99.23","","","","-13","","Mainly Clear"
"1967-03-07 19:00","1967","03","07","19:00","-8.9","","-11.1","","83","","36","","24","","25.0","","99.42","","","","-17","","Mainly Clear"
"1967-03-07 20:00","1967","03","07","20:00","-10.6","","-13.3","","79","","36","","19","","25.0","","99.54","","","","-18","","Mainly Clear"
"1967-03-07 21:00","1967","03","07","21:00","-11.7","","-14.4","","81","","34","","16","","25.0","","99.61","","","","-19","","Clear"
"1967-03-07 22:00","1967","03","07","22:00","-12.2","","-14.4","","82","","34","","14","","25.0","","99.74","","","","-19","","Clear"
"1967-03-07 23:00","1967","03","07","23:00","-13.9","","-16.1","","83","","32","","10","","25.0","","99.81","","","","-20","","Clear"
"1967-03-08 00:00","1967","03","08","00:00","-13.9","","-15.6","","85","","36","","14","","25.0","","99.82","","","","-21","","Clear"
"1967-03-08 01:00","1967","03","08","01:00","-14.4","","-17.2","","81","","34","","13","","25.0","","99.85","","","","-22","","Clear"
"1967-03-08 02:00","1967","03","08","02:00","-15.6","","-17.8","","82","","32","","3","","25.0","","99.93","","","","-18","","Clear"
"1967-03-08 03:00","1967","03","08","03:00","-15.0","","-17.2","","84","","","","0","","25.0","","99.95","","","","","","Mostly Cloudy"
"1967-03-08 04:00","1967","03","08","04:00","-13.9","","-16.1","","83","","16","","6","","25.0","","100.01","","","","-18","","Mostly Cloudy"
"1967-03-08 05:00","1967","03","08","05:00","-13.3","","-16.1","","78","","","","0","","25.0","","100.07","","","","","","Mostly Cloudy"
"1967-03-08 06:00","1967","03","08","06:00","-12.8","","-15.6","","81","","","","0","","25.0","","100.09","","","","","","Cloudy"
"1967-03-08 07:00","1967","03","08","07:00","-12.8","","-15.6","","81","","14","","5","","32.2","","100.16","","","","-16","","Mostly Cloudy"
"1967-03-08 08:00","1967","03","08","08:00","-12.2","","-16.1","","71","","","","0","","32.2","","100.19","","","","","","Mostly Cloudy"
"1967-03-08 09:00","1967","03","08","09:00","-11.7","","-13.9","","84","","29","","6","","32.2","","100.24","","","","-15","","Mostly Cloudy"
"1967-03-08 10:00","1967","03","08","10:00","-11.1","","-15.0","","72","","32","","5","","32.2","","100.25","","","","-14","","Mostly Cloudy"
"1967-03-08 11:00","1967","03","08","11:00","-9.4","","-14.4","","66","","25","","6","","32.2","","100.23","","","","-13","","Mainly Clear"
"1967-03-08 12:00","1967","03","08","12:00","-8.3","","-13.3","","67","","23","","8","","32.2","","100.24","","","","-12","","Mostly Cloudy"
"1967-03-08 13:00","1967","03","08","13:00","-7.2","","-12.2","","68","","23","","14","","32.2","","100.18","","","","-13","","Mostly Cloudy"
"1967-03-08 14:00","1967","03","08","14:00","-6.1","","-11.7","","64","","23","","16","","32.2","","100.11","","","","-12","","Mainly Clear"
"1967-03-08 15:00","1967","03","08","15:00","-6.1","","-11.1","","67","","20","","19","","32.2","","100.09","","","","-13","","Mainly Clear"
"1967-03-08 16:00","1967","03","08","16:00","-5.6","","-11.1","","66","","20","","13","","32.2","","100.08","","","","-11","","Mainly Clear"
"1967-03-08 17:00","1967","03","08","17:00","-5.6","","-10.6","","67","","23","","13","","32.2","","100.10","","","","-11","","Mainly Clear"
"1967-03-08 18:00","1967","03","08","18:00","-6.7","","-11.7","","68","","23","","8","","40.2","","100.09","","","","-11","","Clear"
"1967-03-08 19:00","1967","03","08","19:00","-7.8","","-12.2","","69","","20","","6","","25.0","","100.12","","","","-11","","Clear"
"1967-03-08 20:00","1967","03","08","20:00","-8.3","","-13.3","","67","","25","","5","","25.0","","100.13","","","","-11","","Clear"
"1967-03-08 21:00","1967","03","08","21:00","-8.9","","-13.3","","70","","23","","6","","25.0","","100.13","","","","-12","","Clear"
"1967-03-08 22:00","1967","03","08","22:00","-8.9","","-13.9","","68","","25","","3","","25.0","","100.13","","","","-11","","Mainly Clear"
"1967-03-08 23:00","1967","03","08","23:00","-10.6","","-13.9","","77","","27","","3","","25.0","","100.12","","","","-12","","Clear"
"1967-03-09 00:00","1967","03","09","00:00","-11.1","","-14.4","","77","","27","","3","","25.0","","100.12","","","","-13","","Clear"
"1967-03-09 01:00","1967","03","09","01:00","-11.1","","-13.9","","78","","32","","5","","25.0","","100.12","","","","-14","","Clear"
"1967-03-09 02:00","1967","03","09","02:00","-11.7","","-14.4","","81","","34","","6","","25.0","","100.09","","","","-15","","Clear"
"1967-03-09 03:00","1967","03","09","03:00","-13.9","","-15.6","","85","","34","","6","","24.1","","100.06","","","","-18","","Clear"
"1967-03-09 04:00","1967","03","09","04:00","-13.9","","-16.1","","81","","","","0","","16.1","","100.06","","","","","","Clear"
"1967-03-09 05:00","1967","03","09","05:00","-13.3","","-15.6","","82","","29","","8","","16.1","","100.11","","","","-18","","Mainly Clear"
"1967-03-09 06:00","1967","03","09","06:00","-9.4","","-12.2","","81","","23","","8","","16.1","","100.11","","","","-14","","Mainly Clear"
"1967-03-09 07:00","1967","03","09","07:00","-8.3","","-11.1","","81","","18","","11","","12.9","","100.17","","","","-14","","Mostly Cloudy"
"1967-03-09 08:00","1967","03","09","08:00","-7.8","","-10.6","","82","","18","","10","","11.3","","100.20","","","","-13","","Mostly Cloudy"
"1967-03-09 09:00","1967","03","09","09:00","-6.1","","-8.9","","80","","20","","18","","11.3","","100.18","","","","-13","","Mostly Cloudy"
"1967-03-09 10:00","1967","03","09","10:00","-5.0","","-8.3","","76","","20","","19","","11.3","","100.13","","","","-11","","Mainly Clear"
"1967-03-09 11:00","1967","03","09","11:00","-3.3","","-6.7","","79","","23","","24","","16.1","","100.13","","","","-10","","Mainly Clear"
"1967-03-09 12:00","1967","03","09","12:00","-2.8","","-6.7","","76","","20","","24","","16.1","","100.11","","","","-9","","Mostly Cloudy"
"1967-03-09 13:00","1967","03","09","13:00","-1.1","","-5.0","","75","","20","","21","","16.1","","100.05","","","","-7","","Mostly Cloudy"
"1967-03-09 14:00","1967","03","09","14:00","-1.1","","-3.9","","80","","20","","26","","16.1","","99.96","","","","-7","","Mostly Cloudy"
"1967-03-09 15:00","1967","03","09","15:00","-0.6","","-3.9","","79","","23","","29","","12.9","","99.96","","","","-7","","Mostly Cloudy"
"1967-03-09 16:00","1967","03","09","16:00","0.0","","-3.3","","80","","23","","26","","12.9","","99.86","","","","-6","","Mostly Cloudy"
"1967-03-09 17:00","1967","03","09","17:00","0.0","","-3.3","","80","","20","","24","","16.1","","99.84","","","","-6","","Mostly Cloudy"
"1967-03-09 18:00","1967","03","09","18:00","0.0","","-3.3","","77","","20","","24","","12.9","","99.81","","","","-6","","Mostly Cloudy"
"1967-03-09 19:00","1967","03","09","19:00","0.0","","-3.9","","74","","20","","16","","12.9","","99.79","","","","-5","","Mostly Cloudy"
"1967-03-09 20:00","1967","03","09","20:00","0.0","","-3.9","","74","","20","","24","","12.9","","99.76","","","","-6","","Mostly Cloudy"
"1967-03-09 21:00","1967","03","09","21:00","0.6","","-3.3","","75","","20","","27","","11.3","","99.66","","","","","","Mostly Cloudy"
"1967-03-09 22:00","1967","03","09","22:00","0.0","","-3.3","","77","","23","","24","","11.3","","99.67","","","","-6","","Mostly Cloudy"
"1967-03-09 23:00","1967","03","09","23:00","-0.6","","-3.3","","82","","23","","26","","11.3","","99.63","","","","-7","","Mainly Clear"
"1967-03-10 00:00","1967","03","10","00:00","0.0","","-3.3","","80","","25","","26","","11.3","","99.63","","","","-6","","Mainly Clear"
"1967-03-10 01:00","1967","03","10","01:00","-0.6","","-3.3","","82","","25","","23","","12.9","","99.62","","","","-6","","Mainly Clear"
"1967-03-10 02:00","1967","03","10","02:00","0.0","","-3.3","","80","","25","","21","","12.9","","99.61","","","","-5","","Clear"
"1967-03-10 03:00","1967","03","10","03:00","-1.1","","-3.9","","80","","23","","13","","12.9","","99.59","","","","-5","","Clear"
"1967-03-10 04:00","1967","03","10","04:00","-0.6","","-3.3","","82","","23","","10","","12.9","","99.50","","","","-4","","Mainly Clear"
"1967-03-10 05:00","1967","03","10","05:00","0.0","","-3.3","","77","","20","","13","","12.9","","99.49","","","","-4","","Clear"
"1967-03-10 06:00","1967","03","10","06:00","-1.1","","-3.9","","82","","23","","11","","9.7","","99.49","","","","-5","","Haze"
"1967-03-10 07:00","1967","03","10","07:00","0.0","","-2.8","","83","","23","","19","","8.0","","99.49","","","","-5","","Haze"
"1967-03-10 08:00","1967","03","10","08:00","0.6","","-1.7","","84","","25","","16","","8.0","","99.49","","","","","","Haze"
"1967-03-10 09:00","1967","03","10","09:00","1.1","","-1.7","","82","","25","","16","","8.0","","99.49","","","","","","Haze"
"1967-03-10 10:00","1967","03","10","10:00","2.8","","-1.1","","77","","23","","11","","8.0","","99.43","","","","","","Haze"
"1967-03-10 11:00","1967","03","10","11:00","3.9","","0.0","","75","","27","","6","","8.0","","99.40","","","","","","Haze"
"1967-03-10 12:00","1967","03","10","12:00","4.4","","-0.6","","69","","23","","10","","8.0","","99.33","","","","","","Haze"
"1967-03-10 13:00","1967","03","10","13:00","7.2","","1.1","","66","","20","","8","","8.0","","99.28","","","","","","Haze"
"1967-03-10 14:00","1967","03","10","14:00","7.8","","1.7","","65","","18","","10","","8.0","","99.20","","","","","","Haze"
"1967-03-10 15:00","1967","03","10","15:00","8.9","","1.7","","61","","18","","10","","8.0","","99.16","","","","","","Haze"
"1967-03-10 16:00","1967","03","10","16:00","8.3","","1.7","","64","","18","","10","","8.0","","99.15","","","","","","Haze"
"1967-03-10 17:00","1967","03","10","17:00","8.3","","2.2","","66","","20","","8","","8.0","","99.15","","","","","","Haze"
"1967-03-10 18:00","1967","03","10","18:00","7.2","","1.7","","68","","18","","13","","8.0","","99.13","","","","","","Haze"
"1967-03-10 19:00","1967","03","10","19:00","5.6","","1.7","","75","","18","","13","","8.0","","99.13","","","","","","Haze"
"1967-03-10 20:00","1967","03","10","20:00","3.9","","1.7","","85","","16","","8","","9.7","","99.06","","","","","","Haze"
"1967-03-10 21:00","1967","03","10","21:00","4.4","","1.1","","78","","23","","6","","9.7","","99.02","","","","","","Haze"
"1967-03-10 22:00","1967","03","10","22:00","5.6","","1.7","","75","","27","","10","","9.7","","99.00","","","","","","Haze"
"1967-03-10 23:00","1967","03","10","23:00","5.6","","1.7","","77","","25","","21","","11.3","","98.96","","","","","","Clear"
"1967-03-11 00:00","1967","03","11","00:00","5.0","","2.2","","81","","25","","23","","11.3","","98.90","","","","","","Clear"
"1967-03-11 01:00","1967","03","11","01:00","5.6","","2.2","","79","","25","","18","","11.3","","98.83","","","","","","Clear"
"1967-03-11 02:00","1967","03","11","02:00","6.1","","2.2","","78","","27","","14","","11.3","","98.78","","","","","","Clear"
"1967-03-11 03:00","1967","03","11","03:00","5.0","","1.7","","79","","27","","13","","9.7","","98.70","","","","","","Haze"
"1967-03-11 04:00","1967","03","11","04:00","5.0","","2.2","","81","","7","","10","","8.0","","98.67","","","","","","Haze"
"1967-03-11 05:00","1967","03","11","05:00","6.1","","3.3","","82","","","","0","","8.0","","98.67","","","","","","Haze"
"1967-03-11 06:00","1967","03","11","06:00","4.4","","2.2","","85","","23","","14","","6.4","","98.68","","","","","","Haze"
"1967-03-11 07:00","1967","03","11","07:00","3.9","","2.2","","88","","23","","5","","4.8","","98.71","","","","","","Fog"
"1967-03-11 08:00","1967","03","11","08:00","3.3","","2.2","","92","","25","","6","","4.0","","98.76","","","","","","Fog"
"1967-03-11 09:00","1967","03","11","09:00","4.4","","2.8","","90","","34","","8","","4.0","","98.83","","","","","","Fog"
"1967-03-11 10:00","1967","03","11","10:00","4.4","","2.8","","88","","34","","18","","4.0","","98.88","","","","","","Fog"
"1967-03-11 11:00","1967","03","11","11:00","4.4","","2.8","","88","","36","","26","","4.0","","98.94","","","","","","Fog"
"1967-03-11 12:00","1967","03","11","12:00","3.9","","1.1","","83","","36","","29","","6.4","","98.97","","","","","","Haze"
"1967-03-11 13:00","1967","03","11","13:00","3.9","","0.6","","80","","34","","29","","4.8","","99.07","","","","","","Haze"
"1967-03-11 14:00","1967","03","11","14:00","3.3","","0.6","","82","","34","","29","","4.8","","99.14","","","","","","Haze"
"1967-03-11 15:00","1967","03","11","15:00","2.8","","0.6","","84","","36","","29","","4.8","","99.24","","","","","","Haze"
"1967-03-11 16:00","1967","03","11","16:00","2.2","","0.0","","84","","34","","27","","8.0","","99.34","","","","","","Haze"
"1967-03-11 17:00","1967","03","11","17:00","2.2","","-1.1","","79","","34","","27","","16.1","","99.46","","","","","","Clear"
"1967-03-11 18:00","1967","03","11","18:00","1.7","","-2.8","","73","","34","","29","","24.1","","99.56","","","","","","Mainly Clear"
"1967-03-11 19:00","1967","03","11","19:00","1.1","","-2.8","","74","","34","","26","","19.3","","99.70","","","","","","Mainly Clear"
"1967-03-11 20:00","1967","03","11","20:00","0.0","","-3.9","","74","","34","","23","","19.3","","99.81","","","","-6","","Clear"
"1967-03-11 21:00","1967","03","11","21:00","-0.6","","-4.4","","76","","34","","14","","19.3","","99.94","","","","-5","","Clear"
"1967-03-11 22:00","1967","03","11","22:00","-1.1","","-3.9","","83","","34","","21","","24.1","","100.04","","","","-7","","Clear"
"1967-03-11 23:00","1967","03","11","23:00","-1.7","","-4.4","","83","","36","","27","","25.0","","100.07","","","","-8","","Clear"
"1967-03-12 00:00","1967","03","12","00:00","-2.2","","-4.4","","84","","36","","32","","25.0","","100.09","","","","-10","","Clear"
"1967-03-12 01:00","1967","03","12","01:00","-2.8","","-5.6","","81","","36","","27","","25.0","","100.11","","","","-10","","Clear"
"1967-03-12 02:00","1967","03","12","02:00","-3.9","","-6.7","","82","","36","","26","","25.0","","100.22","","","","-11","","Clear"
"1967-03-12 03:00","1967","03","12","03:00","-4.4","","-7.8","","78","","36","","19","","25.0","","100.27","","","","-11","","Clear"
"1967-03-12 04:00","1967","03","12","04:00","-5.0","","-8.3","","77","","36","","19","","25.0","","100.27","","","","-11","","Clear"
"1967-03-12 05:00","1967","03","12","05:00","-5.6","","-8.9","","78","","36","","16","","25.0","","100.34","","","","-12","","Clear"
"1967-03-12 06:00","1967","03","12","06:00","-6.1","","-9.4","","78","","36","","18","","25.0","","100.39","","","","-13","","Clear"
"1967-03-12 07:00","1967","03","12","07:00","-6.7","","-11.1","","70","","2","","18","","40.2","","100.33","","","","-13","","Mainly Clear"
"1967-03-12 08:00","1967","03","12","08:00","-5.6","","-10.6","","68","","5","","19","","40.2","","100.41","","","","-12","","Mainly Clear"
"1967-03-12 09:00","1967","03","12","09:00","-5.0","","-9.4","","72","","7","","19","","40.2","","100.47","","","","-11","","Mainly Clear"
"1967-03-12 10:00","1967","03","12","10:00","-3.9","","-8.3","","70","","9","","16","","40.2","","100.55","","","","-9","","Mostly Cloudy"
"1967-03-12 11:00","1967","03","12","11:00","-3.3","","-8.3","","69","","9","","21","","40.2","","100.55","","","","-10","","Mainly Clear"
"1967-03-12 12:00","1967","03","12","12:00","-3.3","","-7.2","","75","","9","","23","","40.2","","100.52","","","","-10","","Mostly Cloudy"
"1967-03-12 13:00","1967","03","12","13:00","-2.8","","-6.7","","76","","9","","23","","40.2","","100.48","","","","-9","","Mostly Cloudy"
"1967-03-12 14:00","1967","03","12","14:00","-3.3","","-7.2","","74","","9","","23","","40.2","","100.39","","","","-10","","Mostly Cloudy"
"1967-03-12 15:00","1967","03","12","15:00","-3.3","","-7.2","","75","","9","","26","","40.2","","100.33","","","","-10","","Mostly Cloudy"
"1967-03-12 16:00","1967","03","12","16:00","-3.3","","-7.8","","70","","9","","23","","40.2","","100.27","","","","-10","","Mostly Cloudy"
"1967-03-12 17:00","1967","03","12","17:00","-3.3","","-7.2","","74","","9","","23","","40.2","","100.26","","","","-10","","Mostly Cloudy"
"1967-03-12 18:00","1967","03","12","18:00","-3.3","","-8.3","","69","","9","","27","","40.2","","100.21","","","","-10","","Mostly Cloudy"
"1967-03-12 19:00","1967","03","12","19:00","-3.9","","-8.3","","73","","9","","24","","25.0","","100.13","","","","-11","","Mainly Clear"
"1967-03-12 20:00","1967","03","12","20:00","-3.3","","-7.2","","75","","9","","24","","25.0","","100.13","","","","-10","","Mostly Cloudy"
"1967-03-12 21:00","1967","03","12","21:00","-2.8","","-7.2","","72","","9","","23","","25.0","","100.05","","","","-9","","Mostly Cloudy"
"1967-03-12 22:00","1967","03","12","22:00","-2.8","","-6.7","","75","","9","","23","","25.0","","100.00","","","","-9","","Mostly Cloudy"
"1967-03-12 23:00","1967","03","12","23:00","-3.3","","-6.7","","78","","9","","26","","25.0","","99.90","","","","-10","","Mainly Clear"
"1967-03-13 00:00","1967","03","13","00:00","-2.8","","-6.1","","79","","9","","23","","25.0","","99.82","","","","-9","","Mostly Cloudy"
"1967-03-13 01:00","1967","03","13","01:00","-3.3","","-6.7","","79","","9","","21","","25.0","","99.73","","","","-10","","Mostly Cloudy"
"1967-03-13 02:00","1967","03","13","02:00","-3.3","","-6.1","","80","","9","","18","","25.0","","99.65","","","","-9","","Mostly Cloudy"
"1967-03-13 03:00","1967","03","13","03:00","-3.3","","-6.1","","81","","9","","13","","25.0","","99.63","","","","-8","","Cloudy"
"1967-03-13 04:00","1967","03","13","04:00","-3.3","","-6.1","","81","","9","","14","","25.0","","99.52","","","","-8","","Mainly Clear"
"1967-03-13 05:00","1967","03","13","05:00","-3.3","","-5.6","","86","","9","","13","","24.1","","99.43","","","","-8","","Cloudy"
"1967-03-13 06:00","1967","03","13","06:00","-2.8","","-3.9","","92","","9","","11","","19.3","","99.35","","","","-7","","Cloudy"
"1967-03-13 07:00","1967","03","13","07:00","-2.2","","-3.3","","91","","9","","14","","8.0","","99.25","","","","-7","","Fog"
"1967-03-13 08:00","1967","03","13","08:00","-1.1","","-2.8","","89","","11","","10","","6.4","","99.20","","","","-5","","Fog"
"1967-03-13 09:00","1967","03","13","09:00","-0.6","","-1.7","","91","","2","","3","","6.4","","99.22","","","","-2","","Fog"
"1967-03-13 10:00","1967","03","13","10:00","-1.7","","-3.9","","84","","34","","8","","8.0","","99.18","","","","-5","","Fog"
"1967-03-13 11:00","1967","03","13","11:00","-1.1","","-3.3","","86","","32","","5","","8.0","","99.15","","","","-3","","Fog"
"1967-03-13 12:00","1967","03","13","12:00","-0.6","","-2.2","","88","","","","0","","8.0","","99.13","","","","","","Drizzle,Fog"
"1967-03-13 13:00","1967","03","13","13:00","0.0","","-1.7","","88","","","","0","","3.2","","99.09","","","","","","Fog"
"1967-03-13 14:00","1967","03","13","14:00","0.6","","-0.6","","91","","36","","8","","3.2","","99.03","","","","","","Fog"
"1967-03-13 15:00","1967","03","13","15:00","1.7","","-1.7","","78","","","","0","","4.0","","98.93","","","","","","Haze"
"1967-03-13 16:00","1967","03","13","16:00","2.2","","0.0","","84","","16","","8","","4.0","","98.86","","","","","","Fog,Haze"
"1967-03-13 17:00","1967","03","13","17:00","1.7","","0.0","","89","","16","","10","","4.0","","98.89","","","","","","Fog,Haze"
"1967-03-13 18:00","1967","03","13","18:00","1.1","","0.0","","92","","34","","10","","4.0","","98.99","","","","","","Fog"
"1967-03-13 19:00","1967","03","13","19:00","1.7","","0.0","","89","","36","","10","","4.0","","98.98","","","","","","Fog"
"1967-03-13 20:00","1967","03","13","20:00","1.7","","0.6","","92","","36","","10","","4.8","","98.95","","","","","","Fog"
"1967-03-13 21:00","1967","03","13","21:00","1.7","","0.0","","89","","36","","11","","4.8","","98.97","","","","","","Fog"
"1967-03-13 22:00","1967","03","13","22:00","1.1","","0.0","","92","","36","","10","","4.8","","98.99","","","","","","Fog"
"1967-03-13 23:00","1967","03","13","23:00","1.1","","0.0","","92","","2","","10","","4.8","","98.98","","","","","","Fog"
"1967-03-14 00:00","1967","03","14","00:00","1.1","","0.0","","92","","36","","13","","4.8","","98.93","","","","","","Fog"
"1967-03-14 01:00","1967","03","14","01:00","1.1","","-0.6","","89","","36","","18","","8.0","","98.91","","","","","","Fog"
"1967-03-14 02:00","1967","03","14","02:00","0.6","","-0.6","","91","","36","","23","","8.0","","98.87","","","","","","Fog"
"1967-03-14 03:00","1967","03","14","03:00","0.6","","-0.6","","91","","36","","23","","8.0","","98.86","","","","","","Fog"
"1967-03-14 04:00","1967","03","14","04:00","0.6","","-1.1","","89","","36","","21","","9.7","","98.88","","","","","","Fog"
"1967-03-14 05:00","1967","03","14","05:00","0.6","","-0.6","","91","","36","","23","","16.1","","98.94","","","","","","Cloudy"
"1967-03-14 06:00","1967","03","14","06:00","0.6","","-0.6","","91","","36","","24","","16.1","","99.06","","","","","","Cloudy"
"1967-03-14 07:00","1967","03","14","07:00","0.6","","-1.1","","89","","36","","19","","8.0","","99.16","","","","","","Fog"
"1967-03-14 08:00","1967","03","14","08:00","0.6","","-1.7","","84","","36","","16","","9.7","","99.25","","","","","","Fog"
"1967-03-14 09:00","1967","03","14","09:00","0.6","","-2.2","","81","","36","","18","","9.7","","99.32","","","","","","Haze"
"1967-03-14 10:00","1967","03","14","10:00","1.1","","-1.7","","82","","36","","11","","9.7","","99.37","","","","","","Haze"
"1967-03-14 11:00","1967","03","14","11:00","1.7","","-1.7","","78","","36","","13","","9.7","","99.46","","","","","","Haze"
"1967-03-14 12:00","1967","03","14","12:00","1.7","","-1.7","","78","","2","","10","","9.7","","99.48","","","","","","Haze"
"1967-03-14 13:00","1967","03","14","13:00","2.2","","-2.2","","74","","36","","6","","9.7","","99.51","","","","","","Haze"
"1967-03-14 14:00","1967","03","14","14:00","2.8","","-1.1","","74","","36","","11","","11.3","","99.52","","","","","","Cloudy"
"1967-03-14 15:00","1967","03","14","15:00","2.8","","-2.2","","69","","36","","11","","11.3","","99.55","","","","","","Cloudy"
"1967-03-14 16:00","1967","03","14","16:00","3.3","","-1.7","","70","","36","","10","","11.3","","99.56","","","","","","Cloudy"
"1967-03-14 17:00","1967","03","14","17:00","3.3","","0.6","","82","","16","","3","","11.3","","99.61","","","","","","Cloudy"
"1967-03-14 18:00","1967","03","14","18:00","2.2","","0.0","","87","","16","","6","","4.8","","99.66","","","","","","Haze"
"1967-03-14 19:00","1967","03","14","19:00","1.7","","0.0","","89","","18","","6","","9.7","","99.69","","","","","","Fog,Haze"
"1967-03-14 20:00","1967","03","14","20:00","0.0","","-0.6","","94","","32","","5","","12.9","","99.70","","","","-2","","Mostly Cloudy"
"1967-03-14 21:00","1967","03","14","21:00","0.6","","-1.7","","86","","36","","11","","24.1","","99.76","","","","","","Mainly Clear"
"1967-03-14 22:00","1967","03","14","22:00","0.6","","-2.2","","81","","36","","13","","25.0","","99.79","","","","","","Mostly Cloudy"
"1967-03-14 23:00","1967","03","14","23:00","0.0","","-2.8","","83","","36","","14","","25.0","","99.73","","","","-4","","Mainly Clear"
"1967-03-15 00:00","1967","03","15","00:00","0.0","","-2.2","","86","","2","","13","","25.0","","99.64","","","","-4","","Mainly Clear"
"1967-03-15 01:00","1967","03","15","01:00","0.0","","-1.1","","91","","2","","11","","16.1","","99.65","","","","-4","","Cloudy"
"1967-03-15 02:00","1967","03","15","02:00","0.0","","-0.6","","94","","2","","8","","9.7","","99.70","","","","-3","","Fog"
"1967-03-15 03:00","1967","03","15","03:00","0.0","","-0.6","","97","","2","","10","","8.0","","99.65","","","","-3","","Fog"
"1967-03-15 04:00","1967","03","15","04:00","0.0","","-0.6","","94","","2","","13","","9.7","","99.59","","","","-4","","Fog"
"1967-03-15 05:00","1967","03","15","05:00","0.0","","-2.2","","86","","2","","18","","16.1","","99.58","","","","-5","","Mostly Cloudy"
"1967-03-15 06:00","1967","03","15","06:00","0.0","","-3.3","","80","","2","","14","","24.1","","99.61","","","","-4","","Mostly Cloudy"
"1967-03-15 07:00","1967","03","15","07:00","0.0","","-3.3","","80","","5","","21","","24.1","","99.66","","","","-5","","Mostly Cloudy"
"1967-03-15 08:00","1967","03","15","08:00","0.6","","-3.3","","75","","5","","19","","12.9","","99.70","","","","","","Cloudy"
"1967-03-15 09:00","1967","03","15","09:00","0.6","","-1.7","","86","","5","","24","","6.4","","99.72","","","","","","Snow Showers"
"1967-03-15 10:00","1967","03","15","10:00","1.1","","-1.7","","83","","5","","27","","6.4","","99.68","","","","","","Snow Showers"
"1967-03-15 11:00","1967","03","15","11:00","0.6","","-1.7","","86","","5","","32","","12.9","","99.65","","","","","","Cloudy"
"1967-03-15 12:00","1967","03","15","12:00","1.1","","-2.2","","79","","5","","29","","12.9","","99.67","","","","","","Cloudy"
"1967-03-15 13:00","1967","03","15","13:00","0.0","","-2.2","","86","","5","","27","","12.9","","99.63","","","","-6","","Cloudy"
"1967-03-15 14:00","1967","03","15","14:00","-0.6","","-1.7","","91","","36","","27","","9.7","","99.57","","","","-7","","Snow Showers"
"1967-03-15 15:00","1967","03","15","15:00","-1.1","","-3.3","","86","","36","","24","","6.4","","99.65","","","","-7","","Snow"
"1967-03-15 16:00","1967","03","15","16:00","-1.7","","-3.3","","90","","36","","23","","1.6","","99.67","","","","-8","","Snow"
"1967-03-15 17:00","1967","03","15","17:00","-2.2","","-2.8","","95","","36","","21","","1.2","","99.74","","","","-8","","Snow"
"1967-03-15 18:00","1967","03","15","18:00","-2.2","","-3.3","","94","","36","","27","","1.2","","99.76","","","","-9","","Snow"
"1967-03-15 19:00","1967","03","15","19:00","-2.8","","-3.9","","93","","36","","24","","8.0","","99.90","","","","-9","","Snow"
"1967-03-15 20:00","1967","03","15","20:00","-2.8","","-3.9","","91","","34","","16","","24.1","","99.95","","","","-8","","Snow"
"1967-03-15 21:00","1967","03","15","21:00","-2.8","","-6.7","","75","","34","","31","","25.0","","100.05","","","","-10","","Cloudy"
"1967-03-15 22:00","1967","03","15","22:00","-3.9","","-6.7","","79","","34","","39","","25.0","","100.14","","","","-13","","Mostly Cloudy"
"1967-03-15 23:00","1967","03","15","23:00","-5.0","","-8.9","","75","","34","","40","","25.0","","100.23","","","","-14","","Mostly Cloudy"
"1967-03-16 00:00","1967","03","16","00:00","-6.7","","-11.1","","70","","34","","32","","25.0","","100.30","","","","-15","","Mainly Clear"
"1967-03-16 01:00","1967","03","16","01:00","-7.8","","-12.8","","68","","34","","29","","25.0","","100.34","","","","-17","","Mainly Clear"
"1967-03-16 02:00","1967","03","16","02:00","-8.9","","-12.2","","76","","34","","29","","25.0","","100.41","","","","-18","","Mainly Clear"
"1967-03-16 03:00","1967","03","16","03:00","-9.4","","-14.4","","67","","34","","23","","25.0","","100.44","","","","-18","","Mainly Clear"
"1967-03-16 04:00","1967","03","16","04:00","-10.6","","-14.4","","73","","34","","29","","25.0","","100.49","","","","-20","","Mainly Clear"
"1967-03-16 05:00","1967","03","16","05:00","-11.7","","-16.7","","67","","34","","29","","25.0","","100.55","","","","-22","","Mainly Clear"
"1967-03-16 06:00","1967","03","16","06:00","-12.2","","-16.1","","73","","36","","26","","25.0","","100.59","","","","-22","","Mainly Clear"
"1967-03-16 07:00","1967","03","16","07:00","-13.3","","-17.8","","69","","34","","19","","25.0","","100.60","","","","-22","","Clear"
"1967-03-16 08:00","1967","03","16","08:00","-13.3","","-17.2","","73","","32","","16","","25.0","","100.64","","","","-21","","Clear"
"1967-03-16 09:00","1967","03","16","09:00","-12.2","","-17.2","","68","","34","","18","","40.2","","100.66","","","","-20","","Mainly Clear"
"1967-03-16 10:00","1967","03","16","10:00","-11.1","","-16.1","","65","","34","","16","","40.2","","100.63","","","","-18","","Mostly Cloudy"
"1967-03-16 11:00","1967","03","16","11:00","-10.6","","-16.1","","65","","27","","14","","40.2","","100.58","","","","-17","","Mostly Cloudy"
"1967-03-16 12:00","1967","03","16","12:00","-8.3","","-13.9","","64","","32","","11","","40.2","","100.51","","","","-14","","Mainly Clear"
"1967-03-16 13:00","1967","03","16","13:00","-8.3","","-14.4","","61","","32","","11","","40.2","","100.38","","","","-14","","Cloudy"
"1967-03-16 14:00","1967","03","16","14:00","-7.8","","-11.7","","74","","27","","5","","40.2","","100.25","","","","-10","","Cloudy"
"1967-03-16 15:00","1967","03","16","15:00","-7.2","","-13.9","","60","","","","0","","40.2","","100.14","","","","","","Cloudy"
"1967-03-16 16:00","1967","03","16","16:00","-7.8","","-13.9","","61","","18","","5","","40.2","","100.00","","","","-10","","Cloudy"
"1967-03-16 17:00","1967","03","16","17:00","-7.8","","-12.2","","69","","18","","6","","6.4","","99.91","","","","-11","","Snow"
"1967-03-16 18:00","1967","03","16","18:00","-8.3","","-10.6","","84","","14","","10","","2.0","","99.77","","","","-13","","Snow"
"1967-03-16 19:00","1967","03","16","19:00","-8.9","","-10.6","","89","","9","","14","","3.2","","99.65","","","","-15","","Snow"
"1967-03-16 20:00","1967","03","16","20:00","-8.9","","-10.6","","89","","11","","10","","8.0","","99.54","","","","-14","","Snow"
"1967-03-16 21:00","1967","03","16","21:00","-8.3","","-10.0","","89","","9","","5","","4.0","","99.48","","","","-11","","Snow"
"1967-03-16 22:00","1967","03","16","22:00","-8.9","","-10.0","","90","","5","","16","","3.2","","99.40","","","","-16","","Snow"
"1967-03-16 23:00","1967","03","16","23:00","-9.4","","-10.6","","91","","5","","14","","4.8","","99.32","","","","-16","","Snow"
"1967-03-17 00:00","1967","03","17","00:00","-8.9","","-10.6","","89","","5","","18","","6.4","","99.27","","","","-16","","Snow"
"1967-03-17 01:00","1967","03","17","01:00","-8.9","","-10.6","","89","","2","","19","","6.4","","99.28","","","","-16","","Snow"
"1967-03-17 02:00","1967","03","17","02:00","-9.4","","-10.6","","91","","2","","26","","4.0","","99.36","","","","-18","","Snow"
"1967-03-17 03:00","1967","03","17","03:00","-10.0","","-11.7","","86","","2","","26","","8.0","","99.46","","","","-19","","Snow"
"1967-03-17 04:00","1967","03","17","04:00","-10.0","","-11.7","","86","","36","","26","","11.3","","99.57","","","","-19","","Mainly Clear"
"1967-03-17 05:00","1967","03","17","05:00","-11.1","","-13.3","","85","","36","","26","","11.3","","99.71","","","","-20","","Mainly Clear"
"1967-03-17 06:00","1967","03","17","06:00","-10.6","","-13.3","","81","","36","","29","","12.9","","99.86","","","","-20","","Mainly Clear"
"1967-03-17 07:00","1967","03","17","07:00","-12.2","","-15.6","","76","","36","","29","","11.3","","100.04","","","","-22","","Mainly Clear"
"1967-03-17 08:00","1967","03","17","08:00","-13.3","","-16.7","","75","","36","","29","","11.3","","100.17","","","","-24","","Mainly Clear"
"1967-03-17 09:00","1967","03","17","09:00","-13.9","","-18.3","","70","","34","","32","","40.2","","100.24","","","","-25","","Mainly Clear"
"1967-03-17 10:00","1967","03","17","10:00","-13.3","","-17.8","","69","","34","","29","","40.2","","100.29","","","","-24","","Mainly Clear"
"1967-03-17 11:00","1967","03","17","11:00","-12.2","","-16.1","","71","","32","","26","","40.2","","100.32","","","","-22","","Mainly Clear"
"1967-03-17 12:00","1967","03","17","12:00","-11.7","","-16.7","","65","","32","","26","","40.2","","100.31","","","","-21","","Mainly Clear"
"1967-03-17 13:00","1967","03","17","13:00","-11.7","","-16.7","","67","","32","","29","","40.2","","100.24","","","","-22","","Mainly Clear"
"1967-03-17 14:00","1967","03","17","14:00","-11.7","","-16.7","","67","","29","","32","","40.2","","100.19","","","","-22","","Mainly Clear"
"1967-03-17 15:00","1967","03","17","15:00","-11.1","","-15.6","","68","","29","","29","","40.2","","100.14","","","","-21","","Mainly Clear"
"1967-03-17 16:00","1967","03","17","16:00","-10.0","","-15.0","","68","","27","","26","","40.2","","100.08","","","","-19","","Mainly Clear"
"1967-03-17 17:00","1967","03","17","17:00","-10.0","","-13.9","","74","","27","","29","","16.1","","99.97","","","","-19","","Mainly Clear"
"1967-03-17 18:00","1967","03","17","18:00","-10.6","","-14.4","","74","","27","","35","","3.2","","99.93","","","","-21","","Snow Showers,Blowing Snow"
"1967-03-17 19:00","1967","03","17","19:00","-11.1","","-13.9","","78","","27","","29","","16.1","","99.98","","","","-21","","Mostly Cloudy"
"1967-03-17 20:00","1967","03","17","20:00","-11.1","","-13.3","","85","","34","","16","","3.2","","100.10","","","","-18","","Snow Showers"
"1967-03-17 21:00","1967","03","17","21:00","-12.2","","-14.4","","82","","34","","42","","1.2","","100.22","","","","-24","","Snow Showers,Blowing Snow"
"1967-03-17 22:00","1967","03","17","22:00","-12.8","","-16.1","","77","","36","","40","","2.4","","100.38","","","","-25","","Blowing Snow"
"1967-03-17 23:00","1967","03","17","23:00","-12.8","","-15.6","","79","","34","","32","","19.3","","100.51","","","","-23","","Mainly Clear"
"1967-03-18 00:00","1967","03","18","00:00","-17.2","","-21.1","","72","","34","","32","","19.3","","100.59","","","","-29","","Clear"
"1967-03-18 01:00","1967","03","18","01:00","-17.8","","-21.7","","71","","34","","26","","19.3","","100.67","","","","-29","","Clear"
"1967-03-18 02:00","1967","03","18","02:00","-18.9","","-21.7","","80","","36","","23","","19.3","","100.79","","","","-30","","Clear"
"1967-03-18 03:00","1967","03","18","03:00","-19.4","","-23.9","","68","","36","","26","","19.3","","100.85","","","","-31","","Clear"
"1967-03-18 04:00","1967","03","18","04:00","-20.6","","-23.9","","76","","36","","26","","19.3","","100.93","","","","-33","","Clear"
"1967-03-18 05:00","1967","03","18","05:00","-20.6","","-26.1","","60","","36","","19","","24.1","","101.04","","","","-31","","Clear"
"1967-03-18 06:00","1967","03","18","06:00","-22.2","","-25.0","","77","","34","","16","","24.1","","101.16","","","","-32","","Clear"
"1967-03-18 07:00","1967","03","18","07:00","-22.8","","-25.6","","76","","32","","14","","24.1","","101.26","","","","-32","","Mainly Clear"
"1967-03-18 08:00","1967","03","18","08:00","-21.1","","-23.3","","81","","34","","11","","24.1","","101.34","","","","-29","","Mainly Clear"
"1967-03-18 09:00","1967","03","18","09:00","-20.0","","-23.3","","73","","32","","13","","40.2","","101.45","","","","-28","","Mainly Clear"
"1967-03-18 10:00","1967","03","18","10:00","-18.3","","-25.0","","55","","32","","13","","40.2","","101.53","","","","-26","","Clear"
"1967-03-18 11:00","1967","03","18","11:00","-17.8","","-22.8","","64","","34","","11","","40.2","","101.52","","","","-25","","Clear"
"1967-03-18 12:00","1967","03","18","12:00","-16.1","","-22.2","","61","","32","","13","","40.2","","101.54","","","","-24","","Clear"
"1967-03-18 13:00","1967","03","18","13:00","-15.0","","-21.1","","59","","32","","10","","40.2","","101.52","","","","-21","","Clear"
"1967-03-18 14:00","1967","03","18","14:00","-13.9","","-20.0","","60","","36","","6","","40.2","","101.47","","","","-18","","Clear"
"1967-03-18 15:00","1967","03","18","15:00","-12.2","","-18.9","","57","","36","","3","","40.2","","101.45","","","","-14","","Clear"
"1967-03-18 16:00","1967","03","18","16:00","-11.1","","-18.3","","55","","","","0","","40.2","","101.44","","","","","","Clear"
"1967-03-18 17:00","1967","03","18","17:00","-11.1","","-18.9","","54","","7","","6","","40.2","","101.48","","","","-15","","Clear"
"1967-03-18 18:00","1967","03","18","18:00","-10.6","","-19.4","","47","","","","0","","40.2","","101.47","","","","","","Mainly Clear"
"1967-03-18 19:00","1967","03","18","19:00","-12.2","","-17.8","","62","","25","","3","","40.2","","101.51","","","","-14","","Mainly Clear"
"1967-03-18 20:00","1967","03","18","20:00","-13.3","","-18.3","","67","","23","","6","","25.0","","101.51","","","","-17","","Clear"
"1967-03-18 21:00","1967","03","18","21:00","-15.0","","-18.9","","74","","23","","8","","25.0","","101.54","","","","-20","","Clear"
"1967-03-18 22:00","1967","03","18","22:00","-15.0","","-18.9","","72","","25","","6","","25.0","","101.57","","","","-19","","Clear"
"1967-03-18 23:00","1967","03","18","23:00","-15.0","","-18.3","","76","","23","","6","","25.0","","101.53","","","","-19","","Clear"
"1967-03-19 00:00","1967","03","19","00:00","-14.4","","-18.3","","71","","20","","5","","25.0","","101.54","","","","-18","","Clear"
"1967-03-19 01:00","1967","03","19","01:00","-15.0","","-17.2","","82","","23","","3","","25.0","","101.56","","","","-17","","Clear"
"1967-03-19 02:00","1967","03","19","02:00","-15.0","","-17.8","","78","","20","","5","","25.0","","101.54","","","","-19","","Mainly Clear"
"1967-03-19 03:00","1967","03","19","03:00","-15.6","","-18.3","","79","","18","","5","","25.0","","101.52","","","","-19","","Mainly Clear"
"1967-03-19 04:00","1967","03","19","04:00","-15.0","","-17.8","","80","","20","","5","","25.0","","101.49","","","","-19","","Mainly Clear"
"1967-03-19 05:00","1967","03","19","05:00","-15.0","","-16.7","","86","","18","","6","","25.0","","101.45","","","","-19","","Mainly Clear"
"1967-03-19 06:00","1967","03","19","06:00","-15.0","","-16.7","","86","","23","","5","","25.0","","101.49","","","","-19","","Mainly Clear"
"1967-03-19 07:00","1967","03","19","07:00","-15.0","","-16.7","","86","","23","","5","","24.1","","101.53","","","","-19","","Mostly Cloudy"
"1967-03-19 08:00","1967","03","19","08:00","-12.2","","-14.4","","83","","25","","8","","24.1","","101.56","","","","-17","","Mostly Cloudy"
"1967-03-19 09:00","1967","03","19","09:00","-10.0","","-13.3","","75","","23","","14","","32.2","","101.54","","","","-16","","Mostly Cloudy"
"1967-03-19 10:00","1967","03","19","10:00","-8.3","","-12.2","","72","","20","","16","","32.2","","101.50","","","","-15","","Mainly Clear"
"1967-03-19 11:00","1967","03","19","11:00","-7.2","","-10.6","","77","","20","","18","","40.2","","101.41","","","","-14","","Mainly Clear"
"1967-03-19 12:00","1967","03","19","12:00","-6.1","","-10.6","","72","","23","","19","","40.2","","101.33","","","","-13","","Mainly Clear"
"1967-03-19 13:00","1967","03","19","13:00","-5.6","","-9.4","","73","","20","","18","","40.2","","101.29","","","","-12","","Mainly Clear"
"1967-03-19 14:00","1967","03","19","14:00","-4.4","","-7.8","","76","","20","","14","","40.2","","101.17","","","","-10","","Mainly Clear"
"1967-03-19 15:00","1967","03","19","15:00","-3.9","","-7.2","","77","","20","","16","","32.2","","101.08","","","","-9","","Mainly Clear"
"1967-03-19 16:00","1967","03","19","16:00","-3.3","","-6.7","","79","","20","","16","","24.1","","101.00","","","","-9","","Clear"
"1967-03-19 17:00","1967","03","19","17:00","-3.3","","-5.6","","84","","20","","13","","32.2","","100.99","","","","-8","","Clear"
"1967-03-19 18:00","1967","03","19","18:00","-3.9","","-6.7","","82","","18","","13","","19.3","","100.97","","","","-9","","Clear"
"1967-03-19 19:00","1967","03","19","19:00","-5.0","","-8.9","","74","","18","","13","","12.9","","100.96","","","","-10","","Mainly Clear"
"1967-03-19 20:00","1967","03","19","20:00","-6.1","","-10.0","","75","","18","","11","","16.1","","100.93","","","","-11","","Clear"
"1967-03-19 21:00","1967","03","19","21:00","-6.1","","-10.0","","74","","18","","11","","16.1","","100.91","","","","-11","","Mostly Cloudy"
"1967-03-19 22:00","1967","03","19","22:00","-5.0","","-9.4","","72","","23","","11","","16.1","","100.89","","","","-10","","Cloudy"
"1967-03-19 23:00","1967","03","19","23:00","-5.0","","-8.3","","77","","23","","13","","16.1","","100.86","","","","-10","","Cloudy"
"1967-03-20 00:00","1967","03","20","00:00","-5.0","","-8.9","","75","","23","","8","","12.9","","100.82","","","","-9","","Cloudy"
"1967-03-20 01:00","1967","03","20","01:00","-4.4","","-7.8","","77","","20","","8","","12.9","","100.80","","","","-8","","Cloudy"
"1967-03-20 02:00","1967","03","20","02:00","-4.4","","-7.2","","81","","25","","3","","11.3","","100.78","","","","-6","","Cloudy"
"1967-03-20 03:00","1967","03","20","03:00","-3.9","","-6.1","","84","","25","","8","","11.3","","100.76","","","","-7","","Cloudy"
"1967-03-20 04:00","1967","03","20","04:00","-3.9","","-5.6","","87","","34","","6","","11.3","","100.73","","","","-7","","Mostly Cloudy"
"1967-03-20 05:00","1967","03","20","05:00","-4.4","","-6.7","","85","","18","","10","","12.9","","100.76","","","","-9","","Mostly Cloudy"
"1967-03-20 06:00","1967","03","20","06:00","-3.9","","-6.7","","82","","20","","3","","11.3","","100.77","","","","-5","","Mainly Clear"
"1967-03-20 07:00","1967","03","20","07:00","-6.1","","-7.8","","88","","20","","3","","9.7","","100.79","","","","-8","","Fog"
"1967-03-20 08:00","1967","03","20","08:00","-6.1","","-7.2","","92","","","","0","","9.7","","100.83","","","","","","Fog"
"1967-03-20 09:00","1967","03","20","09:00","-2.2","","-5.6","","79","","","","0","","8.0","","100.85","","","","","","Haze"
"1967-03-20 10:00","1967","03","20","10:00","-1.1","","-5.0","","76","","34","","3","","8.0","","100.82","","","","-2","","Haze"
"1967-03-20 11:00","1967","03","20","11:00","0.6","","-3.9","","73","","","","0","","8.0","","100.83","","","","","","Haze"
"1967-03-20 12:00","1967","03","20","12:00","1.1","","-4.4","","66","","14","","13","","6.4","","100.83","","","","","","Haze"
"1967-03-20 13:00","1967","03","20","13:00","1.7","","-3.3","","70","","14","","16","","6.4","","100.78","","","","","","Haze"
"1967-03-20 14:00","1967","03","20","14:00","1.1","","-2.8","","74","","14","","13","","9.7","","100.71","","","","","","Haze"
"1967-03-20 15:00","1967","03","20","15:00","1.7","","-1.1","","81","","14","","11","","9.7","","100.65","","","","","","Haze"
"1967-03-20 16:00","1967","03","20","16:00","1.7","","-2.8","","72","","14","","14","","4.8","","100.56","","","","","","Haze"
"1967-03-20 17:00","1967","03","20","17:00","1.1","","-2.8","","76","","11","","19","","6.4","","100.50","","","","","","Haze"
"1967-03-20 18:00","1967","03","20","18:00","0.6","","-2.2","","81","","11","","18","","4.8","","100.48","","","","","","Haze"
"1967-03-20 19:00","1967","03","20","19:00","0.0","","-2.2","","86","","9","","18","","4.8","","100.42","","","","-5","","Fog"
"1967-03-20 20:00","1967","03","20","20:00","0.0","","-2.2","","86","","9","","23","","6.4","","100.37","","","","-6","","Fog"
"1967-03-20 21:00","1967","03","20","21:00","-0.6","","-2.2","","88","","9","","27","","8.0","","100.32","","","","-7","","Fog"
"1967-03-20 22:00","1967","03","20","22:00","-0.6","","-2.2","","88","","9","","29","","8.0","","100.22","","","","-7","","Fog"
"1967-03-20 23:00","1967","03","20","23:00","0.0","","-3.3","","80","","9","","27","","8.0","","100.15","","","","-6","","Haze"
"1967-03-21 00:00","1967","03","21","00:00","0.0","","-2.8","","83","","9","","37","","8.0","","99.96","","","","-7","","Haze"
"1967-03-21 01:00","1967","03","21","01:00","-0.6","","-1.7","","91","","9","","32","","9.7","","99.87","","","","-7","","Fog"
"1967-03-21 02:00","1967","03","21","02:00","0.0","","-3.3","","77","","11","","29","","9.7","","99.82","","","","-6","","Haze"
"1967-03-21 03:00","1967","03","21","03:00","-0.6","","-2.2","","88","","11","","32","","3.2","","99.65","","","","-7","","Rain,Snow"
"1967-03-21 04:00","1967","03","21","04:00","-1.1","","-1.7","","97","","11","","32","","1.2","","99.53","","","","-8","","Snow"
"1967-03-21 05:00","1967","03","21","05:00","-1.1","","-1.7","","97","","11","","32","","0.8","","99.40","","","","-8","","Moderate Snow"
"1967-03-21 06:00","1967","03","21","06:00","-1.1","","-1.7","","98","","11","","35","","1.2","","99.31","","","","-8","","Snow"
"1967-03-21 07:00","1967","03","21","07:00","-1.1","","-1.7","","98","","9","","39","","0.8","","99.20","","","","-9","","Moderate Snow"
"1967-03-21 08:00","1967","03","21","08:00","-0.6","","-0.6","","99","","9","","39","","0.6","","99.15","","","","-8","","Rain,Moderate Snow"
"1967-03-21 09:00","1967","03","21","09:00","-0.6","","-1.7","","93","","9","","29","","1.6","","99.06","","","","-7","","Snow"
"1967-03-21 10:00","1967","03","21","10:00","0.0","","-0.6","","97","","11","","35","","1.0","","98.97","","","","-7","","Snow"
"1967-03-21 11:00","1967","03","21","11:00","0.0","","-0.6","","97","","11","","34","","1.6","","98.94","","","","-7","","Snow"
"1967-03-21 12:00","1967","03","21","12:00","0.6","","0.6","","100","","11","","32","","1.6","","98.89","","","","","","Rain,Snow"
"1967-03-21 13:00","1967","03","21","13:00","0.6","","0.6","","100","","11","","32","","0.6","","98.83","","","","","","Rain,Moderate Snow"
"1967-03-21 14:00","1967","03","21","14:00","0.6","","0.6","","100","","14","","26","","1.6","","98.82","","","","","","Rain,Snow,Fog"
"1967-03-21 15:00","1967","03","21","15:00","1.1","","1.1","","100","","18","","19","","3.6","","98.83","","","","","","Rain,Fog"
"1967-03-21 16:00","1967","03","21","16:00","1.1","","0.6","","97","","18","","19","","3.6","","98.88","","","","","","Rain,Snow,Fog"
"1967-03-21 17:00","1967","03","21","17:00","1.1","","0.6","","97","","18","","18","","3.6","","98.94","","","","","","Rain,Fog"
"1967-03-21 18:00","1967","03","21","18:00","1.1","","0.6","","97","","18","","19","","2.4","","99.00","","","","","","Drizzle,Fog"
"1967-03-21 19:00","1967","03","21","19:00","1.1","","0.6","","97","","18","","16","","2.4","","99.07","","","","","","Drizzle,Snow,Fog"
"1967-03-21 20:00","1967","03","21","20:00","1.1","","0.6","","94","","18","","18","","4.0","","99.12","","","","","","Snow,Fog"
"1967-03-21 21:00","1967","03","21","21:00","0.6","","0.0","","94","","18","","16","","4.0","","99.20","","","","","","Snow,Fog"
"1967-03-21 22:00","1967","03","21","22:00","0.6","","0.0","","94","","18","","16","","4.8","","99.22","","","","","","Snow,Fog"
"1967-03-21 23:00","1967","03","21","23:00","0.6","","0.0","","94","","18","","16","","4.8","","99.24","","","","","","Fog"
"1967-03-22 00:00","1967","03","22","00:00","0.6","","0.0","","94","","18","","16","","4.8","","99.27","","","","","","Snow,Fog"
"1967-03-22 01:00","1967","03","22","01:00","0.6","","0.0","","97","","18","","14","","8.0","","99.28","","","","","","Fog"
"1967-03-22 02:00","1967","03","22","02:00","0.0","","-0.6","","97","","18","","14","","6.4","","99.29","","","","-4","","Snow,Fog"
"1967-03-22 03:00","1967","03","22","03:00","0.0","","-0.6","","97","","18","","11","","6.4","","99.28","","","","-4","","Snow,Fog"
"1967-03-22 04:00","1967","03","22","04:00","0.0","","0.0","","100","","25","","11","","6.4","","99.32","","","","-4","","Snow,Fog"
"1967-03-22 05:00","1967","03","22","05:00","-0.6","","-1.7","","93","","25","","6","","11.3","","99.40","","","","-3","","Cloudy"
"1967-03-22 06:00","1967","03","22","06:00","-0.6","","-1.7","","91","","25","","11","","6.4","","99.48","","","","-4","","Snow,Fog"
"1967-03-22 07:00","1967","03","22","07:00","-1.1","","-1.7","","97","","23","","11","","6.4","","99.54","","","","-5","","Snow,Fog"
"1967-03-22 08:00","1967","03","22","08:00","-0.6","","-1.1","","97","","23","","13","","3.2","","99.61","","","","-5","","Snow,Fog"
"1967-03-22 09:00","1967","03","22","09:00","-0.6","","-1.7","","93","","23","","14","","2.4","","99.67","","","","-5","","Snow,Fog"
"1967-03-22 10:00","1967","03","22","10:00","0.0","","-1.1","","91","","23","","16","","4.8","","99.72","","","","-5","","Snow,Fog"
"1967-03-22 11:00","1967","03","22","11:00","0.0","","-2.2","","86","","27","","16","","6.4","","99.75","","","","-5","","Snow,Fog"
"1967-03-22 12:00","1967","03","22","12:00","0.6","","-1.1","","89","","27","","18","","4.8","","99.77","","","","","","Snow,Fog"
"1967-03-22 13:00","1967","03","22","13:00","1.1","","-2.2","","79","","27","","16","","9.7","","99.74","","","","","","Haze"
"1967-03-22 14:00","1967","03","22","14:00","0.6","","-2.2","","81","","25","","16","","12.9","","99.73","","","","","","Cloudy"
"1967-03-22 15:00","1967","03","22","15:00","1.1","","-2.8","","74","","27","","21","","16.1","","99.74","","","","","","Cloudy"
"1967-03-22 16:00","1967","03","22","16:00","0.6","","-2.2","","81","","27","","18","","16.1","","99.76","","","","","","Cloudy"
"1967-03-22 17:00","1967","03","22","17:00","0.6","","-3.3","","75","","25","","19","","16.1","","99.79","","","","","","Cloudy"
"1967-03-22 18:00","1967","03","22","18:00","0.0","","-3.3","","77","","25","","16","","16.1","","99.82","","","","-5","","Mostly Cloudy"
"1967-03-22 19:00","1967","03","22","19:00","-0.6","","-3.9","","79","","27","","13","","16.1","","99.86","","","","-5","","Cloudy"
"1967-03-22 20:00","1967","03","22","20:00","-1.1","","-4.4","","79","","27","","13","","16.1","","99.88","","","","-5","","Mostly Cloudy"
"1967-03-22 21:00","1967","03","22","21:00","-2.2","","-5.0","","81","","23","","8","","16.1","","99.90","","","","-5","","Mainly Clear"
"1967-03-22 22:00","1967","03","22","22:00","-2.2","","-5.6","","79","","18","","6","","16.1","","99.86","","","","-5","","Mainly Clear"
"1967-03-22 23:00","1967","03","22","23:00","-2.8","","-5.6","","81","","23","","13","","16.1","","99.84","","","","-7","","Mainly Clear"
"1967-03-23 00:00","1967","03","23","00:00","-3.9","","-6.7","","83","","23","","8","","16.1","","99.82","","","","-7","","Mainly Clear"
"1967-03-23 01:00","1967","03","23","01:00","-3.3","","-5.0","","89","","20","","3","","12.9","","99.81","","","","-5","","Mostly Cloudy"
"1967-03-23 02:00","1967","03","23","02:00","-2.8","","-4.4","","86","","18","","3","","12.9","","99.76","","","","-4","","Cloudy"
"1967-03-23 03:00","1967","03","23","03:00","-2.8","","-4.4","","88","","16","","5","","11.3","","99.66","","","","-5","","Cloudy"
"1967-03-23 04:00","1967","03","23","04:00","-2.8","","-4.4","","89","","14","","3","","11.3","","99.60","","","","-4","","Cloudy"
"1967-03-23 05:00","1967","03","23","05:00","-2.8","","-3.9","","93","","","","0","","9.7","","99.57","","","","","","Snow"
"1967-03-23 06:00","1967","03","23","06:00","-2.2","","-2.8","","95","","14","","3","","8.0","","99.59","","","","-3","","Fog"
"1967-03-23 07:00","1967","03","23","07:00","-2.2","","-3.3","","94","","9","","5","","4.0","","99.60","","","","-4","","Snow,Fog"
"1967-03-23 08:00","1967","03","23","08:00","-1.7","","-2.2","","96","","36","","8","","4.8","","99.63","","","","-5","","Snow,Fog"
"1967-03-23 09:00","1967","03","23","09:00","-0.6","","-1.7","","91","","36","","8","","2.4","","99.65","","","","-3","","Fog"
"1967-03-23 10:00","1967","03","23","10:00","0.6","","-1.1","","89","","36","","10","","4.8","","99.66","","","","","","Fog"
"1967-03-23 11:00","1967","03","23","11:00","0.6","","-1.7","","86","","34","","13","","6.4","","99.71","","","","","","Fog"
"1967-03-23 12:00","1967","03","23","12:00","1.1","","-1.7","","82","","36","","16","","8.0","","99.73","","","","","","Fog,Haze"
"1967-03-23 13:00","1967","03","23","13:00","1.1","","-2.2","","79","","32","","11","","9.7","","99.73","","","","","","Haze"
"1967-03-23 14:00","1967","03","23","14:00","2.2","","-2.8","","68","","34","","21","","24.1","","99.73","","","","","","Mostly Cloudy"
"1967-03-23 15:00","1967","03","23","15:00","2.2","","-1.1","","79","","34","","19","","16.1","","99.78","","","","","","Mostly Cloudy"
"1967-03-23 16:00","1967","03","23","16:00","2.2","","-3.3","","66","","34","","18","","16.1","","99.83","","","","","","Mainly Clear"
"1967-03-23 17:00","1967","03","23","17:00","1.7","","-3.3","","70","","36","","18","","16.1","","99.91","","","","","","Mostly Cloudy"
"1967-03-23 18:00","1967","03","23","18:00","1.7","","-3.3","","70","","36","","14","","16.1","","99.98","","","","","","Mainly Clear"
"1967-03-23 19:00","1967","03","23","19:00","0.6","","-3.3","","75","","36","","13","","16.1","","100.07","","","","","","Mainly Clear"
"1967-03-23 20:00","1967","03","23","20:00","-0.6","","-3.9","","79","","34","","13","","19.3","","100.13","","","","-5","","Mostly Cloudy"
"1967-03-23 21:00","1967","03","23","21:00","-1.1","","-3.9","","81","","34","","13","","24.1","","100.18","","","","-5","","Clear"
"1967-03-23 22:00","1967","03","23","22:00","-1.7","","-4.4","","82","","34","","14","","24.1","","100.22","","","","-6","","Clear"
"1967-03-23 23:00","1967","03","23","23:00","-2.2","","-4.4","","86","","34","","14","","16.1","","100.24","","","","-7","","Clear"
"1967-03-24 00:00","1967","03","24","00:00","-2.8","","-4.4","","88","","34","","13","","8.0","","100.27","","","","-7","","Fog"
"1967-03-24 01:00","1967","03","24","01:00","-1.1","","-2.8","","88","","34","","13","","9.7","","100.25","","","","-5","","Fog"
"1967-03-24 02:00","1967","03","24","02:00","-1.1","","-2.2","","94","","34","","14","","9.7","","100.27","","","","-6","","Fog"
"1967-03-24 03:00","1967","03","24","03:00","-1.1","","-2.2","","92","","34","","11","","9.7","","100.29","","","","-5","","Fog"
"1967-03-24 04:00","1967","03","24","04:00","-2.2","","-3.9","","88","","34","","13","","11.3","","100.33","","","","-7","","Clear"
"1967-03-24 05:00","1967","03","24","05:00","-2.8","","-5.0","","84","","34","","14","","11.3","","100.39","","","","-8","","Clear"
"1967-03-24 06:00","1967","03","24","06:00","-2.8","","-5.0","","84","","34","","14","","11.3","","100.47","","","","-8","","Clear"
"1967-03-24 07:00","1967","03","24","07:00","-3.3","","-5.6","","85","","34","","11","","8.0","","100.50","","","","-8","","Haze"
"1967-03-24 08:00","1967","03","24","08:00","-1.1","","-3.9","","82","","32","","11","","9.7","","100.51","","","","-5","","Haze"
"1967-03-24 09:00","1967","03","24","09:00","0.0","","-3.3","","77","","34","","16","","9.7","","100.54","","","","-5","","Haze"
"1967-03-24 10:00","1967","03","24","10:00","1.7","","-2.8","","73","","36","","13","","9.7","","100.57","","","","","","Haze"
"1967-03-24 11:00","1967","03","24","11:00","2.8","","-2.2","","69","","34","","13","","12.9","","100.58","","","","","","Mainly Clear"
"1967-03-24 12:00","1967","03","24","12:00","3.3","","-2.8","","65","","34","","14","","16.1","","100.56","","","","","","Mainly Clear"
"1967-03-24 13:00","1967","03","24","13:00","3.9","","-3.3","","59","","32","","10","","24.1","","100.51","","","","","","Mainly Clear"
"1967-03-24 14:00","1967","03","24","14:00","4.4","","-3.9","","55","","32","","10","","24.1","","100.50","","","","","","Mainly Clear"
"1967-03-24 15:00","1967","03","24","15:00","4.4","","-3.9","","55","","34","","10","","24.1","","100.50","","","","","","Mainly Clear"
"1967-03-24 16:00","1967","03","24","16:00","5.0","","-2.2","","59","","36","","11","","24.1","","100.46","","","","","","Mainly Clear"
"1967-03-24 17:00","1967","03","24","17:00","4.4","","-3.3","","58","","2","","10","","24.1","","100.45","","","","","","Mainly Clear"
"1967-03-24 18:00","1967","03","24","18:00","3.3","","-2.8","","65","","11","","6","","19.3","","100.47","","","","","","Mainly Clear"
"1967-03-24 19:00","1967","03","24","19:00","1.7","","-2.8","","72","","16","","6","","16.1","","100.51","","","","","","Mainly Clear"
"1967-03-24 20:00","1967","03","24","20:00","0.6","","-3.3","","75","","","","0","","16.1","","100.57","","","","","","Clear"
"1967-03-24 21:00","1967","03","24","21:00","1.1","","-2.8","","74","","25","","3","","16.1","","100.55","","","","","","Clear"
"1967-03-24 22:00","1967","03","24","22:00","0.6","","-3.3","","75","","2","","6","","16.1","","100.55","","","","","","Clear"
"1967-03-24 23:00","1967","03","24","23:00","-1.7","","-3.9","","85","","32","","3","","16.1","","100.53","","","","-3","","Clear"
"1967-03-25 00:00","1967","03","25","00:00","-2.8","","-4.4","","89","","32","","10","","12.9","","100.55","","","","-7","","Clear"
"1967-03-25 01:00","1967","03","25","01:00","-2.8","","-4.4","","90","","36","","8","","12.9","","100.53","","","","-6","","Clear"
"1967-03-25 02:00","1967","03","25","02:00","-3.3","","-4.4","","92","","36","","8","","12.9","","100.50","","","","-7","","Clear"
"1967-03-25 03:00","1967","03","25","03:00","-3.9","","-5.0","","93","","34","","3","","9.7","","100.43","","","","-5","","Fog"
"1967-03-25 04:00","1967","03","25","04:00","-4.4","","-5.6","","93","","34","","3","","9.7","","100.43","","","","-6","","Fog"
"1967-03-25 05:00","1967","03","25","05:00","-3.9","","-5.0","","92","","34","","3","","8.0","","100.43","","","","-5","","Fog"
"1967-03-25 06:00","1967","03","25","06:00","-3.3","","-4.4","","93","","5","","3","","6.4","","100.41","","","","-5","","Fog"
"1967-03-25 07:00","1967","03","25","07:00","-3.3","","-3.9","","95","","9","","6","","4.0","","100.44","","","","-6","","Fog"
"1967-03-25 08:00","1967","03","25","08:00","-0.6","","-1.7","","93","","16","","10","","4.0","","100.45","","","","-4","","Fog"
"1967-03-25 09:00","1967","03","25","09:00","0.0","","0.0","","100","","16","","6","","1.2","","100.50","","","","-2","","Fog"
"1967-03-25 10:00","1967","03","25","10:00","0.6","","-0.6","","91","","14","","11","","2.0","","100.43","","","","","","Fog"
"1967-03-25 11:00","1967","03","25","11:00","1.1","","-1.1","","86","","14","","11","","2.0","","100.37","","","","","","Fog"
"1967-03-25 12:00","1967","03","25","12:00","1.7","","-2.8","","73","","14","","11","","2.0","","100.33","","","","","","Fog,Haze"
"1967-03-25 13:00","1967","03","25","13:00","2.2","","-1.7","","76","","14","","14","","4.0","","100.28","","","","","","Haze"
"1967-03-25 14:00","1967","03","25","14:00","2.2","","-2.2","","74","","14","","13","","4.8","","100.19","","","","","","Haze"
"1967-03-25 15:00","1967","03","25","15:00","2.2","","-2.8","","68","","11","","16","","8.0","","100.12","","","","","","Haze"
"1967-03-25 16:00","1967","03","25","16:00","2.2","","-1.1","","79","","9","","19","","8.0","","100.10","","","","","","Haze"
"1967-03-25 17:00","1967","03","25","17:00","2.2","","-2.2","","74","","9","","19","","8.0","","100.02","","","","","","Haze"
"1967-03-25 18:00","1967","03","25","18:00","1.7","","-1.1","","81","","9","","14","","8.0","","100.09","","","","","","Haze"
"1967-03-25 19:00","1967","03","25","19:00","1.1","","-1.7","","82","","9","","16","","8.0","","100.07","","","","","","Haze"
"1967-03-25 20:00","1967","03","25","20:00","1.1","","-2.2","","79","","11","","16","","6.4","","100.08","","","","","","Haze"
"1967-03-25 21:00","1967","03","25","21:00","1.1","","-1.7","","82","","9","","16","","8.0","","100.11","","","","","","Haze"
"1967-03-25 22:00","1967","03","25","22:00","1.1","","-2.2","","79","","9","","19","","8.0","","100.09","","","","","","Haze"
"1967-03-25 23:00","1967","03","25","23:00","1.7","","-1.7","","78","","9","","18","","8.0","","100.07","","","","","","Haze"
"1967-03-26 00:00","1967","03","26","00:00","1.7","","-2.2","","76","","9","","16","","8.0","","100.08","","","","","","Haze"
"1967-03-26 01:00","1967","03","26","01:00","1.7","","-2.2","","76","","9","","14","","16.1","","100.07","","","","","","Mainly Clear"
"1967-03-26 02:00","1967","03","26","02:00","1.7","","-2.2","","76","","9","","14","","16.1","","100.01","","","","","","Mostly Cloudy"
"1967-03-26 03:00","1967","03","26","03:00","1.7","","-1.7","","78","","9","","14","","16.1","","100.00","","","","","","Mostly Cloudy"
"1967-03-26 04:00","1967","03","26","04:00","1.7","","-1.7","","78","","9","","16","","16.1","","99.99","","","","","","Mainly Clear"
"1967-03-26 05:00","1967","03","26","05:00","0.6","","-1.7","","84","","9","","11","","16.1","","100.00","","","","","","Mainly Clear"
"1967-03-26 06:00","1967","03","26","06:00","1.1","","-1.7","","82","","9","","11","","12.9","","100.00","","","","","","Mostly Cloudy"
"1967-03-26 07:00","1967","03","26","07:00","1.1","","-1.7","","82","","9","","8","","8.0","","100.09","","","","","","Haze"
"1967-03-26 08:00","1967","03","26","08:00","2.2","","-1.1","","79","","9","","10","","11.3","","100.10","","","","","","Mainly Clear"
"1967-03-26 09:00","1967","03","26","09:00","3.3","","-1.1","","72","","11","","19","","11.3","","100.10","","","","","","Mainly Clear"
"1967-03-26 10:00","1967","03","26","10:00","4.4","","-0.6","","69","","9","","19","","11.3","","100.15","","","","","","Mainly Clear"
"1967-03-26 11:00","1967","03","26","11:00","5.6","","0.6","","70","","9","","16","","12.9","","100.14","","","","","","Mainly Clear"
"1967-03-26 12:00","1967","03","26","12:00","6.1","","1.1","","69","","9","","19","","12.9","","100.09","","","","","","Mainly Clear"
"1967-03-26 13:00","1967","03","26","13:00","7.2","","1.7","","68","","9","","13","","12.9","","100.08","","","","","","Mainly Clear"
"1967-03-26 14:00","1967","03","26","14:00","7.8","","0.0","","57","","9","","13","","12.9","","99.99","","","","","","Mainly Clear"
"1967-03-26 15:00","1967","03","26","15:00","7.8","","0.0","","59","","9","","16","","12.9","","99.95","","","","","","Mainly Clear"
"1967-03-26 16:00","1967","03","26","16:00","8.3","","1.7","","62","","9","","19","","14.5","","99.92","","","","","","Mainly Clear"
"1967-03-26 17:00","1967","03","26","17:00","7.8","","-0.6","","55","","9","","23","","12.9","","99.90","","","","","","Mainly Clear"
"1967-03-26 18:00","1967","03","26","18:00","6.7","","-2.8","","51","","9","","16","","19.3","","99.90","","","","","","Mainly Clear"
"1967-03-26 19:00","1967","03","26","19:00","5.6","","-3.3","","53","","9","","23","","16.1","","99.87","","","","","","Mainly Clear"
"1967-03-26 20:00","1967","03","26","20:00","5.0","","-1.7","","61","","9","","26","","16.1","","99.88","","","","","","Mainly Clear"
"1967-03-26 21:00","1967","03","26","21:00","5.0","","-0.6","","67","","9","","23","","16.1","","99.87","","","","","","Mostly Cloudy"
"1967-03-26 22:00","1967","03","26","22:00","4.4","","-0.6","","69","","9","","13","","12.9","","99.84","","","","","","Mostly Cloudy"
"1967-03-26 23:00","1967","03","26","23:00","3.9","","-0.6","","73","","9","","13","","12.9","","99.81","","","","","","Mostly Cloudy"
"1967-03-27 00:00","1967","03","27","00:00","3.9","","0.6","","78","","9","","11","","12.9","","99.75","","","","","","Mostly Cloudy"
"1967-03-27 01:00","1967","03","27","01:00","3.9","","0.6","","78","","7","","10","","19.3","","99.67","","","","","","Mostly Cloudy"
"1967-03-27 02:00","1967","03","27","02:00","3.9","","0.0","","75","","9","","3","","19.3","","99.62","","","","","","Cloudy"
"1967-03-27 03:00","1967","03","27","03:00","3.3","","0.0","","80","","","","0","","16.1","","99.60","","","","","","Cloudy"
"1967-03-27 04:00","1967","03","27","04:00","2.8","","0.0","","82","","","","0","","12.9","","99.54","","","","","","Cloudy"
"1967-03-27 05:00","1967","03","27","05:00","2.8","","0.6","","87","","14","","3","","12.9","","99.55","","","","","","Cloudy"
"1967-03-27 06:00","1967","03","27","06:00","2.2","","0.6","","89","","29","","3","","9.7","","99.64","","","","","","Fog"
"1967-03-27 07:00","1967","03","27","07:00","3.3","","0.6","","82","","","","0","","8.0","","99.66","","","","","","Rain Showers,Haze"
"1967-03-27 08:00","1967","03","27","08:00","3.9","","1.1","","83","","18","","6","","6.4","","99.66","","","","","","Haze"
"1967-03-27 09:00","1967","03","27","09:00","4.4","","2.2","","85","","16","","10","","4.0","","99.66","","","","","","Rain Showers,Fog"
"1967-03-27 10:00","1967","03","27","10:00","4.4","","3.3","","93","","14","","13","","4.0","","99.62","","","","","","Rain Showers,Fog"
"1967-03-27 11:00","1967","03","27","11:00","3.9","","3.3","","95","","14","","6","","2.4","","99.62","","","","","","Rain Showers,Fog"
"1967-03-27 12:00","1967","03","27","12:00","5.0","","3.9","","93","","14","","3","","2.4","","99.55","","","","","","Fog"
"1967-03-27 13:00","1967","03","27","13:00","5.6","","3.9","","91","","","","0","","2.4","","99.52","","","","","","Fog"
"1967-03-27 14:00","1967","03","27","14:00","6.7","","5.0","","89","","","","0","","4.0","","99.48","","","","","","Fog"
"1967-03-27 15:00","1967","03","27","15:00","6.1","","5.6","","98","","34","","5","","0.8","","99.52","","","","","","Drizzle,Fog"
"1967-03-27 16:00","1967","03","27","16:00","7.8","","7.2","","96","","25","","3","","0.8","","99.49","","","","","","Fog"
"1967-03-27 17:00","1967","03","27","17:00","10.0","","8.3","","90","","27","","11","","4.8","","99.60","","","","","","Fog"
"1967-03-27 18:00","1967","03","27","18:00","8.9","","7.2","","90","","32","","11","","9.7","","99.67","","","","","","Fog"
"1967-03-27 19:00","1967","03","27","19:00","5.0","","4.4","","95","","36","","14","","4.0","","99.79","","","","","","Fog"
"1967-03-27 20:00","1967","03","27","20:00","4.4","","3.3","","93","","34","","10","","8.0","","99.84","","","","","","Fog"
"1967-03-27 21:00","1967","03","27","21:00","2.8","","2.2","","95","","34","","6","","9.7","","99.88","","","","","","Fog"
"1967-03-27 22:00","1967","03","27","22:00","1.7","","1.1","","97","","34","","6","","9.7","","99.91","","","","","","Fog"
"1967-03-27 23:00","1967","03","27","23:00","1.1","","0.6","","94","","32","","8","","9.7","","99.99","","","","","","Fog"
"1967-03-28 00:00","1967","03","28","00:00","1.1","","0.6","","97","","29","","5","","9.7","","100.03","","","","","","Fog"
"1967-03-28 01:00","1967","03","28","01:00","1.1","","0.0","","92","","34","","13","","11.3","","100.04","","","","","","Mostly Cloudy"
"1967-03-28 02:00","1967","03","28","02:00","1.1","","0.0","","92","","34","","11","","11.3","","100.00","","","","","","Cloudy"
"1967-03-28 03:00","1967","03","28","03:00","1.1","","0.0","","92","","36","","19","","16.1","","99.90","","","","","","Cloudy"
"1967-03-28 04:00","1967","03","28","04:00","1.7","","0.0","","89","","36","","13","","19.3","","99.98","","","","","","Cloudy"
"1967-03-28 05:00","1967","03","28","05:00","1.7","","0.0","","89","","36","","10","","24.1","","100.04","","","","","","Cloudy"
"1967-03-28 06:00","1967","03","28","06:00","1.1","","0.0","","92","","36","","11","","16.1","","100.09","","","","","","Mostly Cloudy"
"1967-03-28 07:00","1967","03","28","07:00","1.7","","-0.6","","86","","36","","8","","16.1","","100.14","","","","","","Cloudy"
"1967-03-28 08:00","1967","03","28","08:00","2.2","","0.6","","89","","2","","6","","12.9","","100.13","","","","","","Cloudy"
"1967-03-28 09:00","1967","03","28","09:00","2.8","","0.6","","87","","36","","8","","12.9","","100.16","","","","","","Cloudy"
"1967-03-28 10:00","1967","03","28","10:00","3.9","","1.7","","85","","36","","13","","16.1","","100.16","","","","","","Cloudy"
"1967-03-28 11:00","1967","03","28","11:00","4.4","","2.2","","85","","36","","13","","16.1","","100.17","","","","","","Cloudy"
"1967-03-28 12:00","1967","03","28","12:00","5.0","","2.2","","81","","36","","10","","16.1","","100.14","","","","","","Cloudy"
"1967-03-28 13:00","1967","03","28","13:00","5.0","","2.2","","83","","34","","14","","11.3","","100.12","","","","","","Cloudy"
"1967-03-28 14:00","1967","03","28","14:00","5.0","","2.2","","83","","36","","13","","9.7","","100.10","","","","","","Haze"
"1967-03-28 15:00","1967","03","28","15:00","5.0","","2.2","","81","","36","","11","","9.7","","100.09","","","","","","Haze"
"1967-03-28 16:00","1967","03","28","16:00","5.6","","2.8","","82","","2","","13","","9.7","","100.04","","","","","","Haze"
"1967-03-28 17:00","1967","03","28","17:00","5.6","","2.8","","82","","36","","13","","8.0","","100.04","","","","","","Haze"
"1967-03-28 18:00","1967","03","28","18:00","5.0","","2.2","","83","","36","","18","","9.7","","100.07","","","","","","Haze"
"1967-03-28 19:00","1967","03","28","19:00","3.3","","1.7","","90","","36","","16","","4.8","","100.11","","","","","","Fog"
"1967-03-28 20:00","1967","03","28","20:00","1.7","","0.6","","92","","36","","8","","8.0","","100.11","","","","","","Fog"
"1967-03-28 21:00","1967","03","28","21:00","0.6","","0.0","","97","","34","","16","","4.8","","100.13","","","","","","Fog"
"1967-03-28 22:00","1967","03","28","22:00","0.6","","0.0","","97","","36","","13","","1.6","","100.20","","","","","","Fog"
"1967-03-28 23:00","1967","03","28","23:00","0.6","","0.0","","97","","36","","18","","4.8","","100.20","","","","","","Fog"
"1967-03-29 00:00","1967","03","29","00:00","-0.6","","-1.1","","97","","34","","11","","6.4","","100.19","","","","-4","","Fog"
"1967-03-29 01:00","1967","03","29","01:00","-0.6","","-1.7","","91","","34","","13","","12.9","","100.19","","","","-5","","Clear"
"1967-03-29 02:00","1967","03","29","02:00","-0.6","","-1.7","","91","","36","","16","","16.1","","100.19","","","","-5","","Clear"
"1967-03-29 03:00","1967","03","29","03:00","0.0","","-1.7","","88","","36","","13","","25.0","","100.22","","","","-4","","Mostly Cloudy"
"1967-03-29 04:00","1967","03","29","04:00","0.6","","-1.7","","86","","36","","14","","25.0","","100.23","","","","","","Mostly Cloudy"
"1967-03-29 05:00","1967","03","29","05:00","0.6","","-1.7","","86","","36","","16","","25.0","","100.31","","","","","","Mainly Clear"
"1967-03-29 06:00","1967","03","29","06:00","0.0","","-2.2","","86","","36","","13","","25.0","","100.37","","","","-4","","Mainly Clear"
"1967-03-29 07:00","1967","03","29","07:00","0.6","","-1.7","","84","","36","","10","","24.1","","100.41","","","","","","Clear"
"1967-03-29 08:00","1967","03","29","08:00","2.2","","-0.6","","81","","36","","13","","24.1","","100.44","","","","","","Clear"
"1967-03-29 09:00","1967","03","29","09:00","4.4","","0.6","","76","","36","","13","","24.1","","100.48","","","","","","Clear"
"1967-03-29 10:00","1967","03","29","10:00","7.2","","1.1","","66","","36","","6","","24.1","","100.51","","","","","","Mainly Clear"
"1967-03-29 11:00","1967","03","29","11:00","8.9","","0.6","","55","","","","0","","24.1","","100.49","","","","","","Mainly Clear"
"1967-03-29 12:00","1967","03","29","12:00","11.1","","0.0","","47","","","","0","","24.1","","100.49","","","","","","Mainly Clear"
"1967-03-29 13:00","1967","03","29","13:00","11.1","","0.6","","48","","27","","6","","24.1","","100.44","","","","","","Mainly Clear"
"1967-03-29 14:00","1967","03","29","14:00","11.7","","0.6","","46","","36","","13","","24.1","","100.44","","","","","","Mainly Clear"
"1967-03-29 15:00","1967","03","29","15:00","11.7","","3.3","","57","","2","","13","","24.1","","100.44","","","","","","Mainly Clear"
"1967-03-29 16:00","1967","03","29","16:00","11.1","","1.7","","52","","36","","19","","24.1","","100.44","","","","","","Mainly Clear"
"1967-03-29 17:00","1967","03","29","17:00","10.0","","1.1","","53","","36","","18","","24.1","","100.50","","","","","","Mainly Clear"
"1967-03-29 18:00","1967","03","29","18:00","8.3","","1.7","","62","","36","","19","","24.1","","100.56","","","","","","Mainly Clear"
"1967-03-29 19:00","1967","03","29","19:00","6.1","","1.1","","69","","36","","14","","14.5","","100.58","","","","","","Mainly Clear"
"1967-03-29 20:00","1967","03","29","20:00","3.9","","1.1","","83","","36","","14","","14.5","","100.62","","","","","","Mainly Clear"
"1967-03-29 21:00","1967","03","29","21:00","2.8","","0.6","","87","","36","","13","","12.9","","100.69","","","","","","Mainly Clear"
"1967-03-29 22:00","1967","03","29","22:00","1.1","","-0.6","","89","","32","","6","","12.9","","100.65","","","","","","Mainly Clear"
"1967-03-29 23:00","1967","03","29","23:00","0.0","","-1.1","","91","","34","","10","","12.9","","100.63","","","","-3","","Clear"
"1967-03-30 00:00","1967","03","30","00:00","-0.6","","-1.7","","91","","34","","10","","25.0","","100.62","","","","-4","","Clear"
"1967-03-30 01:00","1967","03","30","01:00","-1.1","","-2.8","","89","","36","","10","","25.0","","100.62","","","","-5","","Clear"
"1967-03-30 02:00","1967","03","30","02:00","-1.1","","-2.8","","87","","","","0","","25.0","","100.57","","","","","","Clear"
"1967-03-30 03:00","1967","03","30","03:00","2.8","","-2.8","","67","","11","","16","","25.0","","100.60","","","","","","Mainly Clear"
"1967-03-30 04:00","1967","03","30","04:00","1.7","","-2.8","","72","","9","","14","","25.0","","100.62","","","","","","Mainly Clear"
"1967-03-30 05:00","1967","03","30","05:00","1.7","","-5.6","","59","","11","","14","","25.0","","100.68","","","","","","Mainly Clear"
"1967-03-30 06:00","1967","03","30","06:00","1.1","","-4.4","","66","","9","","23","","25.0","","100.70","","","","","","Mainly Clear"
"1967-03-30 07:00","1967","03","30","07:00","1.1","","-3.9","","68","","9","","21","","40.2","","100.78","","","","","","Mainly Clear"
"1967-03-30 08:00","1967","03","30","08:00","1.7","","-3.9","","67","","9","","19","","40.2","","100.86","","","","","","Mainly Clear"
"1967-03-30 09:00","1967","03","30","09:00","2.8","","-2.8","","67","","9","","19","","40.2","","100.86","","","","","","Mainly Clear"
"1967-03-30 10:00","1967","03","30","10:00","3.9","","-2.2","","64","","9","","18","","32.2","","100.78","","","","","","Mainly Clear"
"1967-03-30 11:00","1967","03","30","11:00","5.6","","-0.6","","66","","11","","24","","24.1","","100.68","","","","","","Mainly Clear"
"1967-03-30 12:00","1967","03","30","12:00","6.1","","-0.6","","62","","9","","19","","24.1","","100.64","","","","","","Mostly Cloudy"
"1967-03-30 13:00","1967","03","30","13:00","7.8","","1.1","","63","","9","","16","","24.1","","100.57","","","","","","Mostly Cloudy"
"1967-03-30 14:00","1967","03","30","14:00","7.8","","1.1","","63","","9","","18","","19.3","","100.51","","","","","","Mostly Cloudy"
"1967-03-30 15:00","1967","03","30","15:00","8.9","","1.7","","61","","9","","26","","16.1","","100.41","","","","","","Mainly Clear"
"1967-03-30 16:00","1967","03","30","16:00","7.8","","0.0","","59","","9","","29","","12.9","","100.39","","","","","","Mostly Cloudy"
"1967-03-30 17:00","1967","03","30","17:00","6.7","","-1.1","","57","","9","","27","","19.3","","100.36","","","","","","Mostly Cloudy"
"1967-03-30 18:00","1967","03","30","18:00","6.7","","-1.7","","55","","9","","23","","19.3","","100.41","","","","","","Mostly Cloudy"
"1967-03-30 19:00","1967","03","30","19:00","6.1","","-3.3","","50","","9","","19","","19.3","","100.42","","","","","","Mostly Cloudy"
"1967-03-30 20:00","1967","03","30","20:00","5.0","","-2.8","","56","","9","","19","","25.0","","100.44","","","","","","Mainly Clear"
"1967-03-30 21:00","1967","03","30","21:00","5.0","","-3.3","","54","","11","","23","","25.0","","100.35","","","","","","Mainly Clear"
"1967-03-30 22:00","1967","03","30","22:00","4.4","","-2.2","","62","","11","","16","","24.1","","100.32","","","","","","Mainly Clear"
"1967-03-30 23:00","1967","03","30","23:00","2.8","","-1.1","","74","","9","","10","","19.3","","100.30","","","","","","Mainly Clear"
"1967-03-31 00:00","1967","03","31","00:00","2.2","","-1.1","","79","","7","","8","","16.1","","100.26","","","","","","Mainly Clear"
"1967-03-31 01:00","1967","03","31","01:00","2.2","","-1.1","","79","","5","","6","","25.0","","100.24","","","","","","Mainly Clear"
"1967-03-31 02:00","1967","03","31","02:00","0.6","","-1.7","","86","","36","","3","","25.0","","100.27","","","","","","Clear"
"1967-03-31 03:00","1967","03","31","03:00","-0.6","","-2.2","","88","","36","","5","","25.0","","100.30","","","","-2","","Mainly Clear"
"1967-03-31 04:00","1967","03","31","04:00","-0.6","","-1.7","","93","","32","","3","","25.0","","100.33","","","","-2","","Mainly Clear"
"1967-03-31 05:00","1967","03","31","05:00","0.0","","-0.6","","94","","32","","5","","19.3","","100.38","","","","-2","","Cloudy"
"1967-03-31 06:00","1967","03","31","06:00","0.6","","-0.6","","91","","32","","3","","9.7","","100.43","","","","","","Fog"
"1967-03-31 07:00","1967","03","31","07:00","1.1","","0.0","","92","","","","0","","6.4","","100.47","","","","","","Fog"
"1967-03-31 08:00","1967","03","31","08:00","4.4","","-0.6","","69","","","","0","","8.0","","100.44","","","","","","Haze"
"1967-03-31 09:00","1967","03","31","09:00","7.2","","2.2","","70","","14","","10","","9.7","","100.44","","","","","","Haze"
"1967-03-31 10:00","1967","03","31","10:00","9.4","","3.3","","67","","16","","8","","9.7","","100.39","","","","","","Haze"
"1967-03-31 11:00","1967","03","31","11:00","11.1","","3.9","","60","","16","","10","","9.7","","100.35","","","","","","Haze"
"1967-03-31 12:00","1967","03","31","12:00","12.2","","5.6","","63","","16","","8","","9.7","","100.30","","","","","","Haze"
"1967-03-31 13:00","1967","03","31","13:00","12.8","","5.6","","61","","16","","14","","8.0","","100.25","","","","","","Haze"
"1967-03-31 14:00","1967","03","31","14:00","13.9","","6.1","","60","","16","","18","","8.0","","100.19","","","","","","Haze"
"1967-03-31 15:00","1967","03","31","15:00","13.9","","6.7","","62","","16","","16","","6.4","","100.18","","","","","","Haze"
"1967-03-31 16:00","1967","03","31","16:00","15.6","","7.8","","61","","18","","8","","4.8","","100.14","","","","","","Haze"
"1967-03-31 17:00","1967","03","31","17:00","14.4","","7.8","","64","","18","","10","","6.4","","100.15","","","","","","Haze"
"1967-03-31 18:00","1967","03","31","18:00","12.2","","7.8","","73","","16","","11","","9.7","","100.15","","","","","","Haze"
"1967-03-31 19:00","1967","03","31","19:00","11.7","","7.2","","75","","18","","10","","8.0","","100.13","","","","","","Haze"
"1967-03-31 20:00","1967","03","31","20:00","11.7","","7.2","","73","","20","","6","","11.3","","100.18","","","","","","Mostly Cloudy"
"1967-03-31 21:00","1967","03","31","21:00","10.0","","6.7","","79","","16","","11","","11.3","","100.18","","","","","","Mostly Cloudy"
"1967-03-31 22:00","1967","03","31","22:00","8.3","","5.6","","81","","18","","6","","8.0","","100.16","","","","","","Haze"
"1967-03-31 23:00","1967","03","31","23:00","7.8","","5.6","","85","","14","","13","","8.0","","100.16","","","","","","Fog,Haze"
