"Station Name","TORONTO LESTER B. PEARSON INT'L A"
"Province","ONTARIO"
"Latitude","43.68"
"Longitude","-79.63"
"Elevation","173.40"
"Climate Identifier","6158733"
"WMO Identifier","71624"
"TC Identifier","YYZ"
"All times are specified in Local Standard Time (LST). Add 1 hour to adjust for Daylight Saving Time where and when it is observed."

"Legend"
"E","Estimated"
"M","Missing"
"NA","Not Available"

"Date/Time","Year","Month","Day","Time","Temp (°C)","Temp Flag","Dew Point Temp (°C)","Dew Point Temp Flag","Rel Hum (%)","Rel Hum Flag","Wind Dir (10s deg)","Wind Dir Flag","Wind Spd (km/h)","Wind Spd Flag","Visibility (km)","Visibility Flag","Stn Press (kPa)","Stn Press Flag","Hmdx","Hmdx Flag","Wind Chill","Wind Chill Flag","Weather"
"2011-03-01 00:00","2011","03","01","00:00","-3.9","","-8.4","","71","","33","","24","","24.1","","99.97","","","","-11","","Clear"
"2011-03-01 01:00","2011","03","01","01:00","-4.0","","-8.6","","70","","34","","19","","24.1","","100.03","","","","-10","","Clear"
"2011-03-01 02:00","2011","03","01","02:00","-4.8","","-8.8","","74","","32","","17","","24.1","","100.16","","","","-11","","Clear"
"2011-03-01 03:00","2011","03","01","03:00","-5.8","","-9.4","","76","","29","","11","","24.1","","100.30","","","","-11","","Clear"
"2011-03-01 04:00","2011","03","01","04:00","-6.5","","-9.3","","80","","29","","15","","24.1","","100.37","","","","-12","","Clear"
"2011-03-01 05:00","2011","03","01","05:00","-6.7","","-9.5","","80","","31","","11","","24.1","","100.43","","","","-12","","Clear"
"2011-03-01 06:00","2011","03","01","06:00","-7.1","","-9.6","","82","","","","0","","24.1","","100.46","","","","","","Clear"
"2011-03-01 07:00","2011","03","01","07:00","-6.5","","-9.3","","80","","36","","4","","24.1","","100.47","","","","-8","","Mainly Clear"
"2011-03-01 08:00","2011","03","01","08:00","-5.7","","-8.1","","83","","27","","6","","24.1","","100.50","","","","-9","","Mainly Clear"
"2011-03-01 09:00","2011","03","01","09:00","-3.8","","-7.7","","74","","19","","6","","24.1","","100.50","","","","-6","","Mainly Clear"
"2011-03-01 10:00","2011","03","01","10:00","-2.2","","-7.4","","67","","22","","13","","24.1","","100.56","","","","-7","","Mostly Cloudy"
"2011-03-01 11:00","2011","03","01","11:00","-0.9","","-6.8","","64","","22","","20","","24.1","","100.48","","","","-6","","Mostly Cloudy"
"2011-03-01 12:00","2011","03","01","12:00","-0.5","","-7.4","","60","","20","","15","","24.1","","100.45","","","","-5","","Mostly Cloudy"
"2011-03-01 13:00","2011","03","01","13:00","-0.4","","-8.1","","56","","22","","19","","24.1","","100.35","","","","-6","","Mainly Clear"
"2011-03-01 14:00","2011","03","01","14:00","1.3","","-6.8","","55","","19","","15","","24.1","","100.20","","","","","","Mainly Clear"
"2011-03-01 15:00","2011","03","01","15:00","2.7","","-6.5","","51","","21","","17","","24.1","","100.11","","","","","","Clear"
"2011-03-01 16:00","2011","03","01","16:00","1.1","","-6.0","","59","","17","","24","","24.1","","99.97","","","","","","Mainly Clear"
"2011-03-01 17:00","2011","03","01","17:00","1.0","","-5.4","","62","","19","","19","","24.1","","99.97","","","","","","Mainly Clear"
"2011-03-01 18:00","2011","03","01","18:00","-0.2","","-7.4","","58","","22","","28","","24.1","","99.92","","","","-7","","Mainly Clear"
"2011-03-01 19:00","2011","03","01","19:00","-0.6","","-7.2","","61","","21","","19","","24.1","","99.87","","","","-6","","Mainly Clear"
"2011-03-01 20:00","2011","03","01","20:00","-0.9","","-7.3","","62","","19","","15","","24.1","","99.67","","","","-6","","Mainly Clear"
"2011-03-01 21:00","2011","03","01","21:00","-0.5","","-6.7","","63","","21","","17","","24.1","","99.56","","","","-5","","Mainly Clear"
"2011-03-01 22:00","2011","03","01","22:00","0.2","","-5.7","","64","","21","","13","","24.1","","99.48","","","","","","Mainly Clear"
"2011-03-01 23:00","2011","03","01","23:00","1.1","","-4.9","","64","","21","","19","","24.1","","99.31","","","","","","Mostly Cloudy"
"2011-03-02 00:00","2011","03","02","00:00","2.1","","-3.1","","68","","25","","37","","24.1","","99.26","","","","","","Mostly Cloudy"
"2011-03-02 01:00","2011","03","02","01:00","2.0","","-2.7","","71","","26","","43","","24.1","","99.18","","","","","","Mostly Cloudy"
"2011-03-02 02:00","2011","03","02","02:00","1.9","","-2.8","","71","","27","","26","","24.1","","99.17","","","","","","Mostly Cloudy"
"2011-03-02 03:00","2011","03","02","03:00","2.1","","-3.1","","68","","28","","33","","24.1","","99.18","","","","","","Mostly Cloudy"
"2011-03-02 04:00","2011","03","02","04:00","1.9","","-2.8","","71","","28","","24","","24.1","","99.20","","","","","","Mostly Cloudy"
"2011-03-02 05:00","2011","03","02","05:00","1.6","","-3.1","","71","","30","","26","","24.1","","99.26","","","","","","Mostly Cloudy"
"2011-03-02 06:00","2011","03","02","06:00","1.0","","-4.4","","67","","31","","39","","24.1","","99.38","","","","","","Mostly Cloudy"
"2011-03-02 07:00","2011","03","02","07:00","-0.3","","-7.9","","56","","31","","41","","24.1","","99.55","","","","-8","","Mostly Cloudy"
"2011-03-02 08:00","2011","03","02","08:00","-1.6","","-9.1","","57","","31","","59","","24.1","","99.71","","","","-11","","Mostly Cloudy"
"2011-03-02 09:00","2011","03","02","09:00","-3.6","","-12.2","","51","","31","","59","","19.3","","99.91","","","","-14","","Snow Showers"
"2011-03-02 10:00","2011","03","02","10:00","-4.0","","-12.9","","50","","32","","59","","24.1","","100.06","","","","-14","","Mostly Cloudy"
"2011-03-02 11:00","2011","03","02","11:00","-5.3","","-15.6","","44","","30","","54","","24.1","","100.22","","","","-16","","Mainly Clear"
"2011-03-02 12:00","2011","03","02","12:00","-4.3","","-16.0","","40","","32","","44","","24.1","","100.35","","","","-14","","Mainly Clear"
"2011-03-02 13:00","2011","03","02","13:00","-4.5","","-14.9","","44","","32","","39","","24.1","","100.43","","","","-13","","Mainly Clear"
"2011-03-02 14:00","2011","03","02","14:00","-5.6","","-17.2","","40","","30","","46","","24.1","","100.52","","","","-15","","Mainly Clear"
"2011-03-02 15:00","2011","03","02","15:00","-5.3","","-17.6","","37","","31","","35","","24.1","","100.65","","","","-14","","Mainly Clear"
"2011-03-02 16:00","2011","03","02","16:00","-5.6","","-18.1","","37","","30","","37","","24.1","","100.74","","","","-15","","Mainly Clear"
"2011-03-02 17:00","2011","03","02","17:00","-6.6","","-17.2","","43","","31","","43","","24.1","","100.87","","","","-17","","Mainly Clear"
"2011-03-02 18:00","2011","03","02","18:00","-7.7","","-16.6","","49","","31","","32","","24.1","","101.01","","","","-17","","Mainly Clear"
"2011-03-02 19:00","2011","03","02","19:00","-8.5","","-16.3","","53","","32","","32","","24.1","","101.11","","","","-18","","Mainly Clear"
"2011-03-02 20:00","2011","03","02","20:00","-9.1","","-15.9","","58","","32","","28","","24.1","","101.16","","","","-18","","Mainly Clear"
"2011-03-02 21:00","2011","03","02","21:00","-9.5","","-15.5","","62","","30","","17","","24.1","","101.22","","","","-17","","Clear"
"2011-03-02 22:00","2011","03","02","22:00","-10.1","","-15.2","","66","","28","","15","","24.1","","101.26","","","","-17","","Clear"
"2011-03-02 23:00","2011","03","02","23:00","-10.5","","-14.9","","70","","28","","13","","24.1","","101.27","","","","-17","","Mainly Clear"
"2011-03-03 00:00","2011","03","03","00:00","-10.1","","-14.4","","71","","32","","11","","24.1","","101.29","","","","-16","","Mainly Clear"
"2011-03-03 01:00","2011","03","03","01:00","-10.7","","-14.9","","71","","1","","13","","24.1","","101.30","","","","-17","","Clear"
"2011-03-03 02:00","2011","03","03","02:00","-11.1","","-15.2","","72","","","","0","","24.1","","101.40","","","","","","Clear"
"2011-03-03 03:00","2011","03","03","03:00","-12.0","","-15.3","","76","","27","","7","","24.1","","101.46","","","","-16","","Clear"
"2011-03-03 04:00","2011","03","03","04:00","-11.6","","-15.0","","76","","32","","4","","24.1","","101.51","","","","-14","","Clear"
"2011-03-03 05:00","2011","03","03","05:00","-11.6","","-14.9","","76","","29","","6","","24.1","","101.58","","","","-15","","Mainly Clear"
"2011-03-03 06:00","2011","03","03","06:00","-11.9","","-15.0","","78","","29","","4","","24.1","","101.62","","","","-14","","Mainly Clear"
"2011-03-03 07:00","2011","03","03","07:00","-11.1","","-14.6","","75","","","","0","","24.1","","101.62","","","","","","Mainly Clear"
"2011-03-03 08:00","2011","03","03","08:00","-9.0","","-12.9","","73","","33","","6","","24.1","","101.69","","","","-12","","Clear"
"2011-03-03 09:00","2011","03","03","09:00","-7.6","","-12.0","","71","","","","0","","24.1","","101.70","","","","","","Clear"
"2011-03-03 10:00","2011","03","03","10:00","-5.6","","-12.8","","57","","12","","7","","24.1","","101.72","","","","-9","","Mostly Cloudy"
"2011-03-03 11:00","2011","03","03","11:00","-3.8","","-12.7","","50","","","","0","","24.1","","101.69","","","","","","Mostly Cloudy"
"2011-03-03 12:00","2011","03","03","12:00","-4.6","","-12.4","","54","","17","","9","","24.1","","101.65","","","","-8","","Mostly Cloudy"
"2011-03-03 13:00","2011","03","03","13:00","-2.8","","-12.0","","49","","19","","11","","24.1","","101.59","","","","-7","","Mostly Cloudy"
"2011-03-03 14:00","2011","03","03","14:00","-4.1","","-11.7","","55","","15","","13","","24.1","","101.51","","","","-9","","Cloudy"
"2011-03-03 15:00","2011","03","03","15:00","-4.0","","-10.9","","59","","16","","9","","24.1","","101.48","","","","-8","","Cloudy"
"2011-03-03 16:00","2011","03","03","16:00","-4.6","","-11.9","","57","","15","","9","","24.1","","101.46","","","","-8","","Cloudy"
"2011-03-03 17:00","2011","03","03","17:00","-4.6","","-11.8","","57","","13","","9","","24.1","","101.43","","","","-8","","Cloudy"
"2011-03-03 18:00","2011","03","03","18:00","-4.8","","-11.0","","62","","10","","19","","24.1","","101.33","","","","-11","","Cloudy"
"2011-03-03 19:00","2011","03","03","19:00","-4.8","","-11.3","","60","","12","","13","","24.1","","101.35","","","","-10","","Mostly Cloudy"
"2011-03-03 20:00","2011","03","03","20:00","-4.7","","-10.5","","64","","11","","17","","24.1","","101.32","","","","-11","","Mostly Cloudy"
"2011-03-03 21:00","2011","03","03","21:00","-4.2","","-9.8","","65","","11","","20","","24.1","","101.22","","","","-11","","Mostly Cloudy"
"2011-03-03 22:00","2011","03","03","22:00","-3.8","","-8.8","","68","","11","","20","","24.1","","101.12","","","","-10","","Mostly Cloudy"
"2011-03-03 23:00","2011","03","03","23:00","-3.4","","-9.9","","61","","11","","22","","24.1","","101.03","","","","-10","","Mostly Cloudy"
"2011-03-04 00:00","2011","03","04","00:00","-2.8","","-9.4","","60","","11","","22","","24.1","","100.95","","","","-9","","Mostly Cloudy"
"2011-03-04 01:00","2011","03","04","01:00","-2.7","","-8.7","","63","","11","","15","","24.1","","100.89","","","","-8","","Cloudy"
"2011-03-04 02:00","2011","03","04","02:00","-2.6","","-8.6","","63","","10","","13","","24.1","","100.78","","","","-7","","Cloudy"
"2011-03-04 03:00","2011","03","04","03:00","-2.4","","-8.9","","61","","12","","17","","24.1","","100.69","","","","-8","","Cloudy"
"2011-03-04 04:00","2011","03","04","04:00","-2.6","","-9.0","","61","","12","","15","","24.1","","100.61","","","","-8","","Cloudy"
"2011-03-04 05:00","2011","03","04","05:00","-2.6","","-8.9","","62","","10","","11","","24.1","","100.54","","","","-7","","Mostly Cloudy"
"2011-03-04 06:00","2011","03","04","06:00","-2.4","","-8.4","","63","","9","","7","","24.1","","100.53","","","","-5","","Mainly Clear"
"2011-03-04 07:00","2011","03","04","07:00","-1.7","","-7.6","","64","","13","","9","","24.1","","100.48","","","","-5","","Mostly Cloudy"
"2011-03-04 08:00","2011","03","04","08:00","0.0","","-6.1","","63","","12","","7","","24.1","","100.52","","","","-2","","Mostly Cloudy"
"2011-03-04 09:00","2011","03","04","09:00","1.8","","-6.7","","53","","13","","13","","24.1","","100.48","","","","","","Mostly Cloudy"
"2011-03-04 10:00","2011","03","04","10:00","2.8","","-7.9","","45","","13","","9","","24.1","","100.48","","","","","","Mostly Cloudy"
"2011-03-04 11:00","2011","03","04","11:00","2.8","","-7.4","","47","","14","","13","","24.1","","100.43","","","","","","Mostly Cloudy"
"2011-03-04 12:00","2011","03","04","12:00","2.4","","-7.3","","49","","15","","13","","24.1","","100.38","","","","","","Rain Showers"
"2011-03-04 13:00","2011","03","04","13:00","3.4","","-5.4","","52","","16","","19","","24.1","","100.34","","","","","","Rain Showers"
"2011-03-04 14:00","2011","03","04","14:00","2.3","","-3.8","","64","","13","","15","","19.3","","100.25","","","","","","Rain Showers"
"2011-03-04 15:00","2011","03","04","15:00","1.6","","-2.0","","77","","11","","13","","16.1","","100.21","","","","","","Rain Showers"
"2011-03-04 16:00","2011","03","04","16:00","1.6","","-1.0","","83","","10","","9","","16.1","","100.19","","","","","","Rain Showers"
"2011-03-04 17:00","2011","03","04","17:00","2.0","","0.0","","87","","16","","7","","12.9","","100.15","","","","","","Rain"
"2011-03-04 18:00","2011","03","04","18:00","2.2","","0.7","","90","","14","","13","","6.4","","100.16","","","","","","Rain,Fog"
"2011-03-04 19:00","2011","03","04","19:00","2.3","","1.4","","94","","14","","7","","4.8","","100.16","","","","","","Rain,Fog"
"2011-03-04 20:00","2011","03","04","20:00","2.3","","1.7","","96","","16","","9","","6.4","","100.13","","","","","","Rain,Fog"
"2011-03-04 21:00","2011","03","04","21:00","2.6","","2.0","","96","","17","","7","","4.8","","100.12","","","","","","Rain,Fog"
"2011-03-04 22:00","2011","03","04","22:00","2.7","","1.9","","94","","18","","6","","9.7","","100.07","","","","","","Fog"
"2011-03-04 23:00","2011","03","04","23:00","2.6","","1.8","","94","","17","","7","","9.7","","100.04","","","","","","Drizzle,Fog"
"2011-03-05 00:00","2011","03","05","00:00","2.7","","1.7","","93","","14","","6","","9.7","","99.97","","","","","","Drizzle,Fog"
"2011-03-05 01:00","2011","03","05","01:00","2.6","","1.4","","92","","11","","9","","12.9","","99.90","","","","","","Drizzle"
"2011-03-05 02:00","2011","03","05","02:00","2.8","","1.2","","89","","14","","7","","16.1","","99.81","","","","","","Cloudy"
"2011-03-05 03:00","2011","03","05","03:00","2.6","","1.2","","90","","11","","9","","6.4","","99.69","","","","","","Rain,Fog"
"2011-03-05 04:00","2011","03","05","04:00","2.7","","1.5","","92","","12","","7","","9.7","","99.62","","","","","","Rain"
"2011-03-05 05:00","2011","03","05","05:00","2.7","","1.7","","93","","13","","7","","16.1","","99.53","","","","","","Drizzle"
"2011-03-05 06:00","2011","03","05","06:00","3.1","","1.7","","91","","14","","13","","8.0","","99.45","","","","","","Rain"
"2011-03-05 07:00","2011","03","05","07:00","3.2","","2.6","","96","","16","","9","","4.8","","99.40","","","","","","Rain,Fog"
"2011-03-05 08:00","2011","03","05","08:00","3.9","","3.5","","97","","17","","15","","4.8","","99.33","","","","","","Rain,Fog"
"2011-03-05 09:00","2011","03","05","09:00","4.0","","3.7","","98","","17","","11","","4.0","","99.30","","","","","","Rain,Fog"
"2011-03-05 10:00","2011","03","05","10:00","4.7","","4.5","","99","","17","","11","","4.8","","99.23","","","","","","Rain,Fog"
"2011-03-05 11:00","2011","03","05","11:00","7.0","","6.8","","99","","20","","22","","9.7","","99.16","","","","","","Rain,Fog"
"2011-03-05 12:00","2011","03","05","12:00","7.5","","7.1","","97","","22","","24","","9.7","","99.13","","","","","","Rain,Fog"
"2011-03-05 13:00","2011","03","05","13:00","7.8","","7.1","","95","","22","","32","","9.7","","99.09","","","","","","Rain,Fog"
"2011-03-05 14:00","2011","03","05","14:00","7.7","","7.1","","96","","22","","22","","9.7","","99.05","","","","","","Rain,Fog"
"2011-03-05 15:00","2011","03","05","15:00","7.6","","7.2","","97","","22","","13","","9.7","","99.06","","","","","","Rain,Fog"
"2011-03-05 16:00","2011","03","05","16:00","7.5","","7.2","","98","","22","","11","","4.0","","99.06","","","","","","Drizzle,Fog"
"2011-03-05 17:00","2011","03","05","17:00","7.2","","7.2","","100","","22","","6","","2.4","","99.05","","","","","","Rain,Fog"
"2011-03-05 18:00","2011","03","05","18:00","2.6","","2.1","","96","","35","","19","","4.8","","99.12","","","","","","Rain,Fog"
"2011-03-05 19:00","2011","03","05","19:00","1.5","","0.9","","96","","36","","32","","4.8","","99.18","","","","","","Rain,Fog"
"2011-03-05 20:00","2011","03","05","20:00","1.1","","0.4","","95","","35","","24","","4.8","","99.19","","","","","","Rain,Fog"
"2011-03-05 21:00","2011","03","05","21:00","1.0","","0.2","","94","","36","","26","","9.7","","99.16","","","","","","Rain,Fog"
"2011-03-05 22:00","2011","03","05","22:00","0.7","","0.0","","95","","36","","32","","9.7","","99.17","","","","","","Rain,Fog"
"2011-03-05 23:00","2011","03","05","23:00","-0.1","","-0.8","","95","","36","","33","","4.8","","99.20","","","","-7","","Freezing Rain,Snow"
"2011-03-06 00:00","2011","03","06","00:00","-1.2","","-2.0","","94","","35","","32","","2.4","","99.23","","","","-8","","Snow"
"2011-03-06 01:00","2011","03","06","01:00","-2.1","","-2.7","","96","","36","","37","","1.6","","99.33","","","","-10","","Snow"
"2011-03-06 02:00","2011","03","06","02:00","-2.9","","-3.8","","93","","36","","32","","1.2","","99.41","","","","-10","","Snow"
"2011-03-06 03:00","2011","03","06","03:00","-3.8","","-4.7","","93","","35","","39","","2.4","","99.48","","","","-12","","Snow"
"2011-03-06 04:00","2011","03","06","04:00","-5.0","","-6.2","","91","","36","","37","","2.4","","99.55","","","","-14","","Snow"
"2011-03-06 05:00","2011","03","06","05:00","-5.7","","-7.5","","87","","36","","44","","6.4","","99.72","","","","-15","","Snow"
"2011-03-06 06:00","2011","03","06","06:00","-6.1","","-8.3","","84","","35","","39","","6.4","","99.83","","","","-15","","Snow"
"2011-03-06 07:00","2011","03","06","07:00","-6.0","","-8.7","","81","","36","","32","","24.1","","99.91","","","","-15","","Cloudy"
"2011-03-06 08:00","2011","03","06","08:00","-6.2","","-8.9","","81","","35","","33","","24.1","","100.03","","","","-15","","Cloudy"
"2011-03-06 09:00","2011","03","06","09:00","-6.6","","-9.3","","81","","36","","37","","24.1","","100.07","","","","-16","","Cloudy"
"2011-03-06 10:00","2011","03","06","10:00","-6.4","","-9.4","","79","","36","","30","","24.1","","100.09","","","","-15","","Cloudy"
"2011-03-06 11:00","2011","03","06","11:00","-6.1","","-9.3","","78","","35","","35","","24.1","","100.16","","","","-15","","Mostly Cloudy"
"2011-03-06 12:00","2011","03","06","12:00","-5.8","","-9.1","","77","","36","","28","","24.1","","100.17","","","","-14","","Mostly Cloudy"
"2011-03-06 13:00","2011","03","06","13:00","-4.7","","-8.4","","75","","36","","24","","24.1","","100.08","","","","-12","","Mostly Cloudy"
"2011-03-06 14:00","2011","03","06","14:00","-4.4","","-8.6","","72","","35","","30","","24.1","","100.16","","","","-12","","Mostly Cloudy"
"2011-03-06 15:00","2011","03","06","15:00","-4.1","","-8.2","","73","","36","","26","","24.1","","100.17","","","","-11","","Mostly Cloudy"
"2011-03-06 16:00","2011","03","06","16:00","-4.3","","-8.2","","74","","35","","30","","24.1","","100.14","","","","-12","","Mostly Cloudy"
"2011-03-06 17:00","2011","03","06","17:00","-4.1","","-8.6","","71","","36","","24","","24.1","","100.19","","","","-11","","Mostly Cloudy"
"2011-03-06 18:00","2011","03","06","18:00","-4.9","","-9.3","","71","","36","","32","","24.1","","100.25","","","","-13","","Mostly Cloudy"
"2011-03-06 19:00","2011","03","06","19:00","-5.4","","-9.5","","73","","36","","30","","24.1","","100.25","","","","-14","","Mostly Cloudy"
"2011-03-06 20:00","2011","03","06","20:00","-6.1","","-10.0","","74","","36","","35","","24.1","","100.21","","","","-15","","Mostly Cloudy"
"2011-03-06 21:00","2011","03","06","21:00","-6.1","","-10.1","","73","","35","","30","","24.1","","100.23","","","","-14","","Mostly Cloudy"
"2011-03-06 22:00","2011","03","06","22:00","-6.4","","-10.2","","74","","36","","32","","24.1","","100.19","","","","-15","","Mostly Cloudy"
"2011-03-06 23:00","2011","03","06","23:00","-6.6","","-10.2","","76","","36","","24","","24.1","","100.22","","","","-14","","Mainly Clear"
"2011-03-07 00:00","2011","03","07","00:00","-7.2","","-10.6","","77","","36","","28","","24.1","","100.14","","","","-16","","Mostly Cloudy"
"2011-03-07 01:00","2011","03","07","01:00","-8.0","","-11.4","","76","","36","","33","","24.1","","100.11","","","","-17","","Mostly Cloudy"
"2011-03-07 02:00","2011","03","07","02:00","-8.9","","-12.4","","76","","35","","30","","24.1","","100.13","","","","-18","","Mainly Clear"
"2011-03-07 03:00","2011","03","07","03:00","-9.6","","-13.2","","75","","35","","19","","24.1","","100.09","","","","-17","","Mostly Cloudy"
"2011-03-07 04:00","2011","03","07","04:00","-10.4","","-13.8","","76","","35","","28","","24.1","","100.09","","","","-20","","Mostly Cloudy"
"2011-03-07 05:00","2011","03","07","05:00","-11.0","","-14.4","","76","","35","","20","","24.1","","100.15","","","","-19","","Mainly Clear"
"2011-03-07 06:00","2011","03","07","06:00","-11.4","","-14.7","","77","","35","","26","","24.1","","100.24","","","","-21","","Mostly Cloudy"
"2011-03-07 07:00","2011","03","07","07:00","-11.6","","-15.2","","75","","34","","32","","24.1","","100.26","","","","-22","","Mostly Cloudy"
"2011-03-07 08:00","2011","03","07","08:00","-10.9","","-14.8","","73","","35","","28","","24.1","","100.30","","","","-20","","Clear"
"2011-03-07 09:00","2011","03","07","09:00","-9.5","","-14.2","","69","","34","","32","","24.1","","100.31","","","","-19","","Clear"
"2011-03-07 10:00","2011","03","07","10:00","-8.6","","-15.5","","57","","35","","26","","24.1","","100.33","","","","-17","","Clear"
"2011-03-07 11:00","2011","03","07","11:00","-7.4","","-14.6","","56","","35","","15","","24.1","","100.34","","","","-14","","Mostly Cloudy"
"2011-03-07 12:00","2011","03","07","12:00","-5.4","","-13.5","","53","","33","","15","","24.1","","100.35","","","","-11","","Clear"
"2011-03-07 13:00","2011","03","07","13:00","-3.8","","-13.4","","47","","35","","19","","24.1","","100.33","","","","-10","","Clear"
"2011-03-07 14:00","2011","03","07","14:00","-2.6","","-13.9","","41","","35","","19","","24.1","","100.37","","","","-8","","Clear"
"2011-03-07 15:00","2011","03","07","15:00","-2.1","","-15.5","","35","","35","","24","","24.1","","100.41","","","","-8","","Clear"
"2011-03-07 16:00","2011","03","07","16:00","-2.1","","-14.0","","40","","1","","20","","24.1","","100.44","","","","-8","","Mostly Cloudy"
"2011-03-07 17:00","2011","03","07","17:00","-2.4","","-13.8","","41","","36","","15","","24.1","","100.49","","","","-7","","Clear"
"2011-03-07 18:00","2011","03","07","18:00","-3.6","","-14.0","","44","","2","","17","","24.1","","100.57","","","","-9","","Clear"
"2011-03-07 19:00","2011","03","07","19:00","-5.5","","-13.4","","54","","2","","11","","24.1","","100.65","","","","-10","","Clear"
"2011-03-07 20:00","2011","03","07","20:00","-5.4","","-15.1","","46","","36","","15","","24.1","","100.71","","","","-11","","Clear"
"2011-03-07 21:00","2011","03","07","21:00","-6.6","","-13.9","","56","","35","","17","","24.1","","100.75","","","","-13","","Clear"
"2011-03-07 22:00","2011","03","07","22:00","-7.3","","-13.1","","63","","36","","13","","24.1","","100.79","","","","-13","","Clear"
"2011-03-07 23:00","2011","03","07","23:00","-7.7","","-12.5","","68","","1","","13","","24.1","","100.78","","","","-13","","Clear"
"2011-03-08 00:00","2011","03","08","00:00","-7.6","","-12.3","","69","","35","","9","","24.1","","100.81","","","","-12","","Mainly Clear"
"2011-03-08 01:00","2011","03","08","01:00","-7.7","","-12.0","","71","","1","","11","","24.1","","100.85","","","","-13","","Mostly Cloudy"
"2011-03-08 02:00","2011","03","08","02:00","-7.2","","-11.5","","71","","36","","6","","24.1","","100.86","","","","-10","","Cloudy"
"2011-03-08 03:00","2011","03","08","03:00","-7.0","","-11.0","","73","","1","","6","","24.1","","100.89","","","","-10","","Cloudy"
"2011-03-08 04:00","2011","03","08","04:00","-7.2","","-11.3","","72","","35","","7","","24.1","","100.94","","","","-11","","Mostly Cloudy"
"2011-03-08 05:00","2011","03","08","05:00","-8.1","","-11.9","","74","","36","","9","","24.1","","100.98","","","","-13","","Mostly Cloudy"
"2011-03-08 06:00","2011","03","08","06:00","-6.1","","-10.3","","72","","1","","9","","24.1","","101.04","","","","-10","","Mostly Cloudy"
"2011-03-08 07:00","2011","03","08","07:00","-5.9","","-10.0","","73","","1","","7","","24.1","","101.13","","","","-9","","Mostly Cloudy"
"2011-03-08 08:00","2011","03","08","08:00","-3.7","","-8.0","","72","","7","","13","","24.1","","101.15","","","","-9","","Mostly Cloudy"
"2011-03-08 09:00","2011","03","08","09:00","-2.8","","-6.8","","74","","9","","17","","24.1","","101.19","","","","-8","","Mostly Cloudy"
"2011-03-08 10:00","2011","03","08","10:00","-1.1","","-4.8","","76","","11","","19","","24.1","","101.21","","","","-6","","Mostly Cloudy"
"2011-03-08 11:00","2011","03","08","11:00","-0.9","","-5.1","","73","","13","","19","","24.1","","101.24","","","","-6","","Mostly Cloudy"
"2011-03-08 12:00","2011","03","08","12:00","-1.1","","-5.1","","74","","9","","22","","24.1","","101.23","","","","-7","","Mostly Cloudy"
"2011-03-08 13:00","2011","03","08","13:00","-0.4","","-4.9","","72","","9","","22","","24.1","","101.17","","","","-6","","Mainly Clear"
"2011-03-08 14:00","2011","03","08","14:00","-0.2","","-4.4","","73","","9","","20","","24.1","","101.14","","","","-5","","Mainly Clear"
"2011-03-08 15:00","2011","03","08","15:00","0.0","","-5.3","","67","","9","","22","","24.1","","101.13","","","","-6","","Clear"
"2011-03-08 16:00","2011","03","08","16:00","0.2","","-5.9","","64","","10","","17","","24.1","","101.09","","","","","","Mostly Cloudy"
"2011-03-08 17:00","2011","03","08","17:00","-0.1","","-5.2","","68","","8","","15","","24.1","","101.05","","","","-5","","Mostly Cloudy"
"2011-03-08 18:00","2011","03","08","18:00","-0.5","","-6.0","","66","","9","","20","","24.1","","101.07","","","","-6","","Mostly Cloudy"
"2011-03-08 19:00","2011","03","08","19:00","-0.8","","-6.0","","68","","9","","17","","24.1","","101.03","","","","-6","","Mostly Cloudy"
"2011-03-08 20:00","2011","03","08","20:00","-0.5","","-6.2","","65","","9","","17","","24.1","","101.04","","","","-5","","Mostly Cloudy"
"2011-03-08 21:00","2011","03","08","21:00","0.0","","-6.4","","62","","9","","19","","24.1","","101.04","","","","-5","","Mostly Cloudy"
"2011-03-08 22:00","2011","03","08","22:00","-0.2","","-6.7","","62","","9","","24","","24.1","","100.99","","","","-6","","Mostly Cloudy"
"2011-03-08 23:00","2011","03","08","23:00","-0.1","","-5.4","","67","","9","","17","","24.1","","100.97","","","","-5","","Mostly Cloudy"
"2011-03-09 00:00","2011","03","09","00:00","-0.1","","-4.8","","71","","9","","20","","24.1","","100.91","","","","-5","","Mostly Cloudy"
"2011-03-09 01:00","2011","03","09","01:00","-0.3","","-4.7","","72","","9","","22","","24.1","","100.84","","","","-6","","Mostly Cloudy"
"2011-03-09 02:00","2011","03","09","02:00","-0.4","","-4.1","","76","","9","","20","","24.1","","100.77","","","","-6","","Mostly Cloudy"
"2011-03-09 03:00","2011","03","09","03:00","-0.2","","-3.6","","78","","9","","22","","24.1","","100.69","","","","-6","","Mostly Cloudy"
"2011-03-09 04:00","2011","03","09","04:00","0.2","","-2.9","","80","","9","","26","","24.1","","100.61","","","","","","Mostly Cloudy"
"2011-03-09 05:00","2011","03","09","05:00","0.2","","-2.6","","81","","11","","28","","24.1","","100.51","","","","","","Mostly Cloudy"
"2011-03-09 06:00","2011","03","09","06:00","1.1","","-1.9","","80","","10","","26","","24.1","","100.44","","","","","","Mostly Cloudy"
"2011-03-09 07:00","2011","03","09","07:00","1.5","","-2.6","","74","","10","","17","","24.1","","100.52","","","","","","Cloudy"
"2011-03-09 08:00","2011","03","09","08:00","2.0","","-3.6","","66","","11","","24","","24.1","","100.46","","","","","","Cloudy"
"2011-03-09 09:00","2011","03","09","09:00","2.4","","-4.7","","59","","11","","26","","24.1","","100.36","","","","","","Cloudy"
"2011-03-09 10:00","2011","03","09","10:00","2.6","","-4.0","","62","","10","","22","","24.1","","100.28","","","","","","Cloudy"
"2011-03-09 11:00","2011","03","09","11:00","2.8","","-3.8","","62","","11","","24","","9.7","","100.27","","","","","","Snow Showers"
"2011-03-09 12:00","2011","03","09","12:00","0.5","","-0.7","","92","","12","","19","","1.2","","100.18","","","","","","Snow"
"2011-03-09 13:00","2011","03","09","13:00","0.7","","0.1","","96","","10","","24","","1.6","","100.01","","","","","","Snow"
"2011-03-09 14:00","2011","03","09","14:00","0.5","","0.0","","96","","10","","22","","2.4","","99.87","","","","","","Snow"
"2011-03-09 15:00","2011","03","09","15:00","0.6","","0.2","","97","","11","","24","","2.4","","99.76","","","","","","Snow"
"2011-03-09 16:00","2011","03","09","16:00","0.5","","0.1","","97","","10","","20","","1.6","","99.68","","","","","","Snow"
"2011-03-09 17:00","2011","03","09","17:00","0.6","","0.2","","97","","10","","24","","2.4","","99.62","","","","","","Snow"
"2011-03-09 18:00","2011","03","09","18:00","0.6","","0.4","","99","","10","","22","","2.0","","99.54","","","","","","Snow"
"2011-03-09 19:00","2011","03","09","19:00","1.0","","0.8","","99","","11","","15","","3.2","","99.53","","","","","","Snow"
"2011-03-09 20:00","2011","03","09","20:00","1.8","","1.6","","99","","10","","17","","4.0","","99.47","","","","","","Rain,Snow"
"2011-03-09 21:00","2011","03","09","21:00","2.2","","2.0","","99","","9","","17","","4.0","","99.45","","","","","","Rain"
"2011-03-09 22:00","2011","03","09","22:00","2.5","","2.5","","100","","9","","17","","2.4","","99.40","","","","","","Rain,Fog"
"2011-03-09 23:00","2011","03","09","23:00","2.7","","2.6","","99","","11","","13","","2.4","","99.39","","","","","","Rain,Fog"
"2011-03-10 00:00","2011","03","10","00:00","2.7","","2.7","","100","","10","","9","","2.0","","99.36","","","","","","Drizzle,Fog"
"2011-03-10 01:00","2011","03","10","01:00","2.9","","2.9","","100","","11","","9","","2.0","","99.33","","","","","","Drizzle,Fog"
"2011-03-10 02:00","2011","03","10","02:00","3.4","","3.4","","100","","12","","15","","2.4","","99.31","","","","","","Drizzle,Fog"
"2011-03-10 03:00","2011","03","10","03:00","3.8","","3.7","","99","","13","","11","","4.8","","99.21","","","","","","Drizzle,Fog"
"2011-03-10 04:00","2011","03","10","04:00","4.0","","4.0","","100","","11","","15","","2.8","","99.20","","","","","","Drizzle,Fog"
"2011-03-10 05:00","2011","03","10","05:00","3.9","","3.9","","100","","10","","11","","3.2","","99.19","","","","","","Drizzle,Fog"
"2011-03-10 06:00","2011","03","10","06:00","3.7","","3.7","","100","","9","","11","","3.2","","99.17","","","","","","Fog"
"2011-03-10 07:00","2011","03","10","07:00","3.6","","3.6","","100","","9","","11","","4.8","","99.17","","","","","","Rain,Fog"
"2011-03-10 08:00","2011","03","10","08:00","3.5","","3.5","","100","","9","","13","","6.4","","99.16","","","","","","Rain,Fog"
"2011-03-10 09:00","2011","03","10","09:00","3.7","","3.7","","100","","9","","17","","4.8","","99.16","","","","","","Rain,Fog"
"2011-03-10 10:00","2011","03","10","10:00","3.8","","3.8","","100","","10","","13","","3.2","","99.09","","","","","","Rain,Fog"
"2011-03-10 11:00","2011","03","10","11:00","3.9","","3.9","","100","","9","","13","","4.0","","99.04","","","","","","Rain,Fog"
"2011-03-10 12:00","2011","03","10","12:00","4.3","","4.3","","100","","10","","13","","3.2","","99.02","","","","","","Drizzle,Fog"
"2011-03-10 13:00","2011","03","10","13:00","4.2","","4.2","","100","","9","","15","","4.8","","98.94","","","","","","Drizzle,Fog"
"2011-03-10 14:00","2011","03","10","14:00","4.3","","4.3","","100","","8","","11","","4.0","","98.84","","","","","","Drizzle,Fog"
"2011-03-10 15:00","2011","03","10","15:00","4.2","","4.2","","100","","9","","17","","4.8","","98.79","","","","","","Rain,Fog"
"2011-03-10 16:00","2011","03","10","16:00","4.8","","4.8","","100","","8","","19","","8.0","","98.69","","","","","","Rain,Fog"
"2011-03-10 17:00","2011","03","10","17:00","4.7","","4.7","","100","","8","","19","","8.0","","98.62","","","","","","Drizzle,Fog"
"2011-03-10 18:00","2011","03","10","18:00","4.9","","4.9","","100","","9","","11","","4.0","","98.63","","","","","","Rain,Fog"
"2011-03-10 19:00","2011","03","10","19:00","4.7","","4.7","","100","","3","","6","","4.0","","98.62","","","","","","Rain,Fog"
"2011-03-10 20:00","2011","03","10","20:00","4.6","","4.5","","99","","6","","17","","4.0","","98.47","","","","","","Rain,Fog"
"2011-03-10 21:00","2011","03","10","21:00","4.4","","4.4","","100","","5","","11","","3.2","","98.40","","","","","","Drizzle,Fog"
"2011-03-10 22:00","2011","03","10","22:00","4.6","","4.5","","99","","5","","15","","4.0","","98.37","","","","","","Rain,Fog"
"2011-03-10 23:00","2011","03","10","23:00","3.1","","3.1","","100","","1","","15","","4.0","","98.23","","","","","","Rain,Fog"
"2011-03-11 00:00","2011","03","11","00:00","2.9","","2.9","","100","","35","","26","","4.0","","98.09","","","","","","Rain,Fog"
"2011-03-11 01:00","2011","03","11","01:00","2.8","","2.7","","99","","33","","20","","3.2","","98.04","","","","","","Rain,Fog"
"2011-03-11 02:00","2011","03","11","02:00","2.8","","2.6","","99","","2","","20","","4.0","","97.73","","","","","","Rain,Fog"
"2011-03-11 03:00","2011","03","11","03:00","2.6","","2.5","","99","","31","","13","","2.8","","97.79","","","","","","Rain,Fog"
"2011-03-11 04:00","2011","03","11","04:00","2.7","","2.6","","99","","36","","19","","4.0","","97.64","","","","","","Rain,Fog"
"2011-03-11 05:00","2011","03","11","05:00","2.8","","2.8","","100","","2","","15","","4.0","","97.55","","","","","","Rain,Fog"
"2011-03-11 06:00","2011","03","11","06:00","2.4","","2.4","","100","","12","","6","","4.0","","97.58","","","","","","Rain,Fog"
"2011-03-11 07:00","2011","03","11","07:00","2.7","","2.4","","98","","23","","13","","9.7","","97.60","","","","","","Rain,Fog"
"2011-03-11 08:00","2011","03","11","08:00","1.9","","1.6","","98","","22","","19","","9.7","","97.68","","","","","","Rain,Fog"
"2011-03-11 09:00","2011","03","11","09:00","1.7","","1.6","","99","","18","","9","","8.0","","97.73","","","","","","Rain,Snow"
"2011-03-11 10:00","2011","03","11","10:00","2.4","","2.1","","98","","21","","13","","9.7","","97.74","","","","","","Rain,Fog"
"2011-03-11 11:00","2011","03","11","11:00","2.6","","2.2","","97","","23","","22","","9.7","","97.79","","","","","","Rain,Fog"
"2011-03-11 12:00","2011","03","11","12:00","2.8","","2.0","","94","","22","","20","","8.0","","97.85","","","","","","Rain,Fog"
"2011-03-11 13:00","2011","03","11","13:00","2.4","","1.3","","92","","23","","24","","12.9","","97.89","","","","","","Rain,Snow"
"2011-03-11 14:00","2011","03","11","14:00","2.0","","0.2","","88","","25","","26","","24.1","","97.93","","","","","","Snow Showers"
"2011-03-11 15:00","2011","03","11","15:00","1.6","","-0.4","","87","","24","","28","","16.1","","97.99","","","","","","Snow"
"2011-03-11 16:00","2011","03","11","16:00","1.6","","-0.1","","88","","26","","30","","19.3","","98.04","","","","","","Rain,Snow"
"2011-03-11 17:00","2011","03","11","17:00","1.6","","-0.5","","86","","26","","32","","24.1","","98.12","","","","","","Cloudy"
"2011-03-11 18:00","2011","03","11","18:00","1.2","","-0.5","","88","","27","","35","","19.3","","98.21","","","","","","Snow"
"2011-03-11 19:00","2011","03","11","19:00","1.3","","-1.1","","84","","28","","32","","24.1","","98.34","","","","","","Snow"
"2011-03-11 20:00","2011","03","11","20:00","1.2","","-1.5","","82","","27","","32","","24.1","","98.43","","","","","","Cloudy"
"2011-03-11 21:00","2011","03","11","21:00","1.1","","-1.6","","82","","28","","30","","24.1","","98.49","","","","","","Cloudy"
"2011-03-11 22:00","2011","03","11","22:00","0.8","","-1.7","","83","","29","","22","","24.1","","98.55","","","","","","Snow"
"2011-03-11 23:00","2011","03","11","23:00","0.9","","-2.1","","80","","27","","26","","24.1","","98.58","","","","","","Cloudy"
"2011-03-12 00:00","2011","03","12","00:00","0.5","","-2.2","","82","","28","","26","","24.1","","98.61","","","","","","Cloudy"
"2011-03-12 01:00","2011","03","12","01:00","0.4","","-2.1","","83","","28","","22","","24.1","","98.67","","","","","","Cloudy"
"2011-03-12 02:00","2011","03","12","02:00","0.4","","-2.3","","82","","29","","20","","24.1","","98.68","","","","","","Cloudy"
"2011-03-12 03:00","2011","03","12","03:00","0.4","","-2.4","","81","","28","","22","","24.1","","98.70","","","","","","Cloudy"
"2011-03-12 04:00","2011","03","12","04:00","0.5","","-2.3","","81","","28","","20","","24.1","","98.70","","","","","","Cloudy"
"2011-03-12 05:00","2011","03","12","05:00","0.2","","-2.8","","80","","29","","17","","24.1","","98.70","","","","","","Mostly Cloudy"
"2011-03-12 06:00","2011","03","12","06:00","-0.5","","-3.0","","83","","26","","13","","24.1","","98.70","","","","-5","","Mostly Cloudy"
"2011-03-12 07:00","2011","03","12","07:00","-0.4","","-2.8","","84","","25","","7","","24.1","","98.67","","","","-3","","Mostly Cloudy"
"2011-03-12 08:00","2011","03","12","08:00","0.2","","-2.2","","84","","24","","7","","24.1","","98.67","","","","","","Mostly Cloudy"
"2011-03-12 09:00","2011","03","12","09:00","0.8","","-2.0","","82","","11","","7","","24.1","","98.50","","","","","","Mostly Cloudy"
"2011-03-12 10:00","2011","03","12","10:00","1.3","","-1.7","","80","","22","","11","","24.1","","98.54","","","","","","Cloudy"
"2011-03-12 11:00","2011","03","12","11:00","1.4","","-1.5","","81","","24","","19","","24.1","","98.55","","","","","","Cloudy"
"2011-03-12 12:00","2011","03","12","12:00","2.3","","-1.7","","75","","21","","9","","19.3","","98.50","","","","","","Cloudy"
"2011-03-12 13:00","2011","03","12","13:00","1.4","","-1.0","","84","","18","","7","","19.3","","98.43","","","","","","Cloudy"
"2011-03-12 14:00","2011","03","12","14:00","1.8","","-0.2","","87","","16","","9","","19.3","","98.37","","","","","","Cloudy"
"2011-03-12 15:00","2011","03","12","15:00","3.3","","0.3","","81","","19","","11","","19.3","","98.35","","","","","","Cloudy"
"2011-03-12 16:00","2011","03","12","16:00","2.8","","0.9","","87","","17","","9","","16.1","","98.39","","","","","","Cloudy"
"2011-03-12 17:00","2011","03","12","17:00","3.0","","1.0","","87","","18","","6","","16.1","","98.46","","","","","","Cloudy"
"2011-03-12 18:00","2011","03","12","18:00","2.9","","1.3","","89","","24","","13","","16.1","","98.50","","","","","","Rain Showers"
"2011-03-12 19:00","2011","03","12","19:00","2.9","","1.6","","91","","25","","22","","16.1","","98.58","","","","","","Rain Showers"
"2011-03-12 20:00","2011","03","12","20:00","2.8","","0.9","","87","","26","","26","","19.3","","98.66","","","","","","Rain Showers"
"2011-03-12 21:00","2011","03","12","21:00","2.4","","0.3","","86","","27","","26","","24.1","","98.68","","","","","","Cloudy"
"2011-03-12 22:00","2011","03","12","22:00","2.1","","-0.4","","83","","26","","28","","24.1","","98.74","","","","","","Rain Showers"
"2011-03-12 23:00","2011","03","12","23:00","1.8","","-1.3","","80","","27","","32","","24.1","","98.79","","","","","","Rain Showers"
"2011-03-13 00:00","2011","03","13","00:00","1.1","","-1.0","","86","","26","","26","","14.5","","98.85","","","","","","Snow Showers"
"2011-03-13 01:00","2011","03","13","01:00","0.6","","-1.0","","89","","26","","22","","9.7","","98.92","","","","","","Snow Showers"
"2011-03-13 02:00","2011","03","13","02:00","0.6","","-0.8","","90","","26","","17","","19.3","","98.97","","","","","","Snow Showers"
"2011-03-13 03:00","2011","03","13","03:00","0.8","","-1.0","","88","","28","","19","","24.1","","99.03","","","","","","Cloudy"
"2011-03-13 04:00","2011","03","13","04:00","0.9","","-1.5","","84","","35","","26","","24.1","","99.18","","","","","","Cloudy"
"2011-03-13 05:00","2011","03","13","05:00","0.6","","-2.5","","80","","32","","20","","24.1","","99.30","","","","","","Cloudy"
"2011-03-13 06:00","2011","03","13","06:00","1.1","","-1.8","","81","","29","","20","","24.1","","99.44","","","","","","Cloudy"
"2011-03-13 07:00","2011","03","13","07:00","0.9","","-1.7","","83","","32","","19","","24.1","","99.52","","","","","","Cloudy"
"2011-03-13 08:00","2011","03","13","08:00","1.2","","-1.6","","82","","31","","15","","24.1","","99.65","","","","","","Cloudy"
"2011-03-13 09:00","2011","03","13","09:00","0.4","","-2.4","","81","","36","","20","","24.1","","99.73","","","","","","Cloudy"
"2011-03-13 10:00","2011","03","13","10:00","1.6","","-1.7","","79","","32","","20","","24.1","","99.81","","","","","","Cloudy"
"2011-03-13 11:00","2011","03","13","11:00","2.0","","-2.2","","74","","32","","28","","24.1","","99.87","","","","","","Cloudy"
"2011-03-13 12:00","2011","03","13","12:00","1.4","","-2.1","","77","","1","","20","","24.1","","99.92","","","","","","Cloudy"
"2011-03-13 13:00","2011","03","13","13:00","1.6","","-2.2","","76","","35","","19","","24.1","","99.98","","","","","","Cloudy"
"2011-03-13 14:00","2011","03","13","14:00","1.8","","-2.5","","73","","36","","22","","24.1","","100.01","","","","","","Cloudy"
"2011-03-13 15:00","2011","03","13","15:00","1.5","","-3.1","","71","","35","","22","","24.1","","100.06","","","","","","Cloudy"
"2011-03-13 16:00","2011","03","13","16:00","1.2","","-3.4","","71","","36","","19","","24.1","","100.14","","","","","","Cloudy"
"2011-03-13 17:00","2011","03","13","17:00","0.4","","-3.8","","73","","35","","22","","24.1","","100.24","","","","","","Cloudy"
"2011-03-13 18:00","2011","03","13","18:00","-0.1","","-4.4","","73","","34","","22","","24.1","","100.35","","","","-6","","Cloudy"
"2011-03-13 19:00","2011","03","13","19:00","-0.6","","-4.6","","74","","36","","20","","24.1","","100.40","","","","-6","","Cloudy"
"2011-03-13 20:00","2011","03","13","20:00","-1.2","","-5.3","","74","","36","","26","","24.1","","100.51","","","","-8","","Cloudy"
"2011-03-13 21:00","2011","03","13","21:00","-1.9","","-5.6","","76","","35","","26","","24.1","","100.55","","","","-8","","Cloudy"
"2011-03-13 22:00","2011","03","13","22:00","-2.5","","-6.6","","73","","34","","22","","24.1","","100.56","","","","-9","","Mostly Cloudy"
"2011-03-13 23:00","2011","03","13","23:00","-2.3","","-6.5","","73","","30","","13","","24.1","","100.58","","","","-7","","Mostly Cloudy"
"2011-03-14 00:00","2011","03","14","00:00","-2.0","","-6.4","","72","","35","","17","","24.1","","100.54","","","","-7","","Cloudy"
"2011-03-14 01:00","2011","03","14","01:00","-2.1","","-6.2","","73","","36","","19","","19.3","","100.58","","","","-8","","Snow"
"2011-03-14 02:00","2011","03","14","02:00","-2.4","","-6.9","","71","","36","","15","","24.1","","100.62","","","","-7","","Snow"
"2011-03-14 03:00","2011","03","14","03:00","-2.8","","-7.3","","71","","35","","20","","24.1","","100.64","","","","-9","","Cloudy"
"2011-03-14 04:00","2011","03","14","04:00","-3.6","","-7.9","","72","","35","","24","","24.1","","100.68","","","","-10","","Cloudy"
"2011-03-14 05:00","2011","03","14","05:00","-4.3","","-8.3","","74","","36","","24","","24.1","","100.73","","","","-11","","Mainly Clear"
"2011-03-14 06:00","2011","03","14","06:00","-4.5","","-8.3","","75","","36","","19","","24.1","","100.77","","","","-11","","Mostly Cloudy"
"2011-03-14 07:00","2011","03","14","07:00","-4.5","","-8.4","","74","","34","","17","","24.1","","100.85","","","","-10","","Mainly Clear"
"2011-03-14 08:00","2011","03","14","08:00","-3.4","","-7.9","","71","","35","","20","","24.1","","100.91","","","","-10","","Mainly Clear"
"2011-03-14 09:00","2011","03","14","09:00","-2.8","","-7.7","","69","","34","","19","","24.1","","100.95","","","","-9","","Mainly Clear"
"2011-03-14 10:00","2011","03","14","10:00","-1.8","","-6.7","","69","","36","","19","","24.1","","100.99","","","","-7","","Mainly Clear"
"2011-03-14 11:00","2011","03","14","11:00","-1.2","","-6.5","","67","","33","","11","","24.1","","101.01","","","","-5","","Mainly Clear"
"2011-03-14 12:00","2011","03","14","12:00","-0.6","","-5.6","","69","","1","","13","","24.1","","100.97","","","","-5","","Mainly Clear"
"2011-03-14 13:00","2011","03","14","13:00","0.5","","-6.0","","62","","33","","7","","24.1","","100.88","","","","","","Mainly Clear"
"2011-03-14 14:00","2011","03","14","14:00","1.4","","-6.2","","57","","","","0","","24.1","","100.79","","","","","","Mainly Clear"
"2011-03-14 15:00","2011","03","14","15:00","2.7","","-6.3","","51","","23","","9","","24.1","","100.79","","","","","","Mainly Clear"
"2011-03-14 16:00","2011","03","14","16:00","1.9","","-5.3","","59","","15","","17","","24.1","","100.75","","","","","","Mainly Clear"
"2011-03-14 17:00","2011","03","14","17:00","1.7","","-5.3","","60","","14","","15","","24.1","","100.74","","","","","","Mostly Cloudy"
"2011-03-14 18:00","2011","03","14","18:00","0.7","","-5.6","","63","","15","","13","","24.1","","100.75","","","","","","Mainly Clear"
"2011-03-14 19:00","2011","03","14","19:00","-0.1","","-5.7","","66","","16","","9","","24.1","","100.77","","","","-3","","Mainly Clear"
"2011-03-14 20:00","2011","03","14","20:00","-0.6","","-5.1","","72","","15","","4","","24.1","","100.82","","","","-2","","Mainly Clear"
"2011-03-14 21:00","2011","03","14","21:00","-0.5","","-4.4","","75","","16","","6","","24.1","","100.83","","","","-3","","Mainly Clear"
"2011-03-14 22:00","2011","03","14","22:00","-1.1","","-4.3","","79","","23","","7","","24.1","","100.85","","","","-4","","Clear"
"2011-03-14 23:00","2011","03","14","23:00","-1.4","","-4.3","","81","","23","","6","","24.1","","100.90","","","","-4","","Clear"
"2011-03-15 00:00","2011","03","15","00:00","-1.7","","-4.4","","82","","23","","4","","24.1","","100.90","","","","-3","","Clear"
"2011-03-15 01:00","2011","03","15","01:00","-2.7","","-5.0","","84","","","","0","","24.1","","100.88","","","","","","Clear"
"2011-03-15 02:00","2011","03","15","02:00","-2.8","","-5.2","","84","","","","0","","24.1","","100.84","","","","","","Mainly Clear"
"2011-03-15 03:00","2011","03","15","03:00","-3.2","","-5.5","","84","","31","","4","","24.1","","100.78","","","","-5","","Mainly Clear"
"2011-03-15 04:00","2011","03","15","04:00","-3.7","","-5.8","","85","","2","","7","","24.1","","100.70","","","","-7","","Mainly Clear"
"2011-03-15 05:00","2011","03","15","05:00","-4.5","","-6.9","","83","","2","","7","","24.1","","100.71","","","","-8","","Mainly Clear"
"2011-03-15 06:00","2011","03","15","06:00","-3.5","","-6.3","","81","","5","","4","","24.1","","100.69","","","","-5","","Mainly Clear"
"2011-03-15 07:00","2011","03","15","07:00","-2.9","","-5.5","","82","","5","","7","","19.3","","100.67","","","","-6","","Mostly Cloudy"
"2011-03-15 08:00","2011","03","15","08:00","-0.1","","-2.5","","84","","","","0","","19.3","","100.72","","","","","","Mostly Cloudy"
"2011-03-15 09:00","2011","03","15","09:00","1.1","","-3.0","","74","","10","","17","","24.1","","100.66","","","","","","Mostly Cloudy"
"2011-03-15 10:00","2011","03","15","10:00","2.7","","-3.7","","63","","12","","15","","24.1","","100.62","","","","","","Mostly Cloudy"
"2011-03-15 11:00","2011","03","15","11:00","4.5","","-3.6","","56","","15","","15","","24.1","","100.57","","","","","","Mostly Cloudy"
"2011-03-15 12:00","2011","03","15","12:00","5.1","","-5.2","","47","","14","","11","","24.1","","100.52","","","","","","Mostly Cloudy"
"2011-03-15 13:00","2011","03","15","13:00","5.7","","-4.4","","48","","13","","11","","24.1","","100.42","","","","","","Mostly Cloudy"
"2011-03-15 14:00","2011","03","15","14:00","5.5","","-4.3","","49","","9","","13","","24.1","","100.27","","","","","","Mostly Cloudy"
"2011-03-15 15:00","2011","03","15","15:00","5.5","","-3.4","","53","","11","","15","","24.1","","100.20","","","","","","Mostly Cloudy"
"2011-03-15 16:00","2011","03","15","16:00","4.6","","-3.0","","58","","9","","11","","24.1","","100.16","","","","","","Mostly Cloudy"
"2011-03-15 17:00","2011","03","15","17:00","4.6","","-2.7","","59","","8","","13","","24.1","","100.11","","","","","","Cloudy"
"2011-03-15 18:00","2011","03","15","18:00","3.8","","-2.7","","62","","9","","11","","19.3","","100.07","","","","","","Cloudy"
"2011-03-15 19:00","2011","03","15","19:00","3.9","","-2.7","","62","","9","","15","","19.3","","100.00","","","","","","Cloudy"
"2011-03-15 20:00","2011","03","15","20:00","4.1","","-2.6","","62","","12","","9","","24.1","","99.97","","","","","","Cloudy"
"2011-03-15 21:00","2011","03","15","21:00","4.0","","-2.4","","63","","9","","7","","24.1","","99.86","","","","","","Cloudy"
"2011-03-15 22:00","2011","03","15","22:00","3.7","","-1.5","","69","","17","","6","","24.1","","99.85","","","","","","Rain"
"2011-03-15 23:00","2011","03","15","23:00","3.7","","0.0","","77","","15","","6","","24.1","","99.78","","","","","","Rain"
"2011-03-16 00:00","2011","03","16","00:00","3.2","","1.2","","87","","14","","6","","12.9","","99.73","","","","","","Rain"
"2011-03-16 01:00","2011","03","16","01:00","3.1","","1.9","","92","","12","","4","","9.7","","99.67","","","","","","Rain"
"2011-03-16 02:00","2011","03","16","02:00","2.9","","2.2","","95","","11","","4","","6.4","","99.60","","","","","","Rain,Fog"
"2011-03-16 03:00","2011","03","16","03:00","2.9","","2.4","","97","","10","","6","","4.8","","99.49","","","","","","Rain,Fog"
"2011-03-16 04:00","2011","03","16","04:00","3.2","","2.7","","97","","15","","7","","2.8","","99.43","","","","","","Rain,Fog"
"2011-03-16 05:00","2011","03","16","05:00","3.4","","3.0","","97","","13","","7","","2.8","","99.41","","","","","","Rain,Fog"
"2011-03-16 06:00","2011","03","16","06:00","3.4","","3.2","","99","","15","","9","","3.2","","99.39","","","","","","Rain,Fog"
"2011-03-16 07:00","2011","03","16","07:00","3.5","","3.4","","99","","16","","6","","1.2","","99.40","","","","","","Rain,Fog"
"2011-03-16 08:00","2011","03","16","08:00","3.5","","3.4","","99","","15","","4","","0.2","","99.39","","","","","","Rain,Fog"
"2011-03-16 09:00","2011","03","16","09:00","3.8","","3.8","","100","","26","","7","","6.4","","99.43","","","","","","Rain,Fog"
"2011-03-16 10:00","2011","03","16","10:00","4.5","","4.4","","99","","27","","13","","16.1","","99.44","","","","","","Rain"
"2011-03-16 11:00","2011","03","16","11:00","5.2","","4.6","","96","","27","","17","","24.1","","99.49","","","","","","Rain"
"2011-03-16 12:00","2011","03","16","12:00","5.6","","4.0","","89","","28","","26","","24.1","","99.51","","","","","","Cloudy"
"2011-03-16 13:00","2011","03","16","13:00","5.8","","3.7","","86","","29","","20","","24.1","","99.53","","","","","","Cloudy"
"2011-03-16 14:00","2011","03","16","14:00","7.0","","4.0","","81","","29","","19","","24.1","","99.50","","","","","","Mostly Cloudy"
"2011-03-16 15:00","2011","03","16","15:00","8.0","","3.9","","75","","30","","19","","24.1","","99.49","","","","","","Mainly Clear"
"2011-03-16 16:00","2011","03","16","16:00","8.2","","2.3","","66","","27","","15","","24.1","","99.55","","","","","","Clear"
"2011-03-16 17:00","2011","03","16","17:00","8.3","","0.5","","58","","26","","20","","24.1","","99.59","","","","","","Clear"
"2011-03-16 18:00","2011","03","16","18:00","6.4","","-2.0","","55","","27","","19","","24.1","","99.69","","","","","","Clear"
"2011-03-16 19:00","2011","03","16","19:00","4.6","","-1.8","","63","","27","","15","","24.1","","99.75","","","","","","Clear"
"2011-03-16 20:00","2011","03","16","20:00","5.4","","-1.4","","62","","22","","7","","24.1","","99.78","","","","","","Clear"
"2011-03-16 21:00","2011","03","16","21:00","4.8","","-0.5","","68","","20","","7","","24.1","","99.78","","","","","","Clear"
"2011-03-16 22:00","2011","03","16","22:00","3.9","","0.0","","76","","20","","7","","24.1","","99.76","","","","","","Clear"
"2011-03-16 23:00","2011","03","16","23:00","3.7","","1.0","","82","","19","","6","","24.1","","99.75","","","","","","Clear"
"2011-03-17 00:00","2011","03","17","00:00","3.2","","1.2","","87","","17","","4","","19.3","","99.77","","","","","","Mainly Clear"
"2011-03-17 01:00","2011","03","17","01:00","2.7","","1.4","","91","","15","","6","","16.1","","99.78","","","","","","Mainly Clear"
"2011-03-17 02:00","2011","03","17","02:00","3.0","","1.4","","89","","18","","4","","16.1","","99.79","","","","","","Mostly Cloudy"
"2011-03-17 03:00","2011","03","17","03:00","2.8","","1.2","","89","","19","","6","","14.5","","99.76","","","","","","Mainly Clear"
"2011-03-17 04:00","2011","03","17","04:00","0.9","","-0.1","","93","","","","0","","14.5","","99.78","","","","","","Mainly Clear"
"2011-03-17 05:00","2011","03","17","05:00","2.8","","1.2","","89","","","","0","","14.5","","99.82","","","","","","Mainly Clear"
"2011-03-17 06:00","2011","03","17","06:00","2.4","","0.6","","88","","17","","4","","12.9","","99.84","","","","","","Mainly Clear"
"2011-03-17 07:00","2011","03","17","07:00","3.0","","1.3","","89","","17","","6","","6.4","","99.85","","","","","","Fog"
"2011-03-17 08:00","2011","03","17","08:00","4.2","","2.2","","87","","22","","11","","6.4","","99.83","","","","","","Fog"
"2011-03-17 09:00","2011","03","17","09:00","6.1","","3.0","","80","","21","","15","","19.3","","99.81","","","","","","Mostly Cloudy"
"2011-03-17 10:00","2011","03","17","10:00","8.6","","4.2","","74","","21","","13","","24.1","","99.74","","","","","","Mostly Cloudy"
"2011-03-17 11:00","2011","03","17","11:00","10.7","","4.2","","64","","22","","30","","24.1","","99.69","","","","","","Mostly Cloudy"
"2011-03-17 12:00","2011","03","17","12:00","12.8","","5.1","","59","","22","","26","","24.1","","99.59","","","","","","Mostly Cloudy"
"2011-03-17 13:00","2011","03","17","13:00","12.9","","5.1","","59","","18","","20","","24.1","","99.43","","","","","","Mostly Cloudy"
"2011-03-17 14:00","2011","03","17","14:00","13.1","","5.4","","60","","19","","13","","24.1","","99.30","","","","","","Mostly Cloudy"
"2011-03-17 15:00","2011","03","17","15:00","14.1","","4.9","","54","","22","","26","","24.1","","99.22","","","","","","Cloudy"
"2011-03-17 16:00","2011","03","17","16:00","14.6","","5.2","","53","","22","","30","","24.1","","99.14","","","","","","Mostly Cloudy"
"2011-03-17 17:00","2011","03","17","17:00","14.4","","5.2","","54","","22","","32","","24.1","","98.99","","","","","","Mostly Cloudy"
"2011-03-17 18:00","2011","03","17","18:00","13.9","","5.0","","55","","21","","20","","24.1","","98.92","","","","","","Cloudy"
"2011-03-17 19:00","2011","03","17","19:00","13.8","","4.7","","54","","21","","30","","24.1","","98.86","","","","","","Mostly Cloudy"
"2011-03-17 20:00","2011","03","17","20:00","13.9","","5.1","","55","","21","","26","","24.1","","98.80","","","","","","Cloudy"
"2011-03-17 21:00","2011","03","17","21:00","14.3","","5.4","","55","","21","","26","","24.1","","98.72","","","","","","Cloudy"
"2011-03-17 22:00","2011","03","17","22:00","14.1","","5.7","","57","","22","","22","","24.1","","98.62","","","","","","Cloudy"
"2011-03-17 23:00","2011","03","17","23:00","14.4","","6.4","","59","","23","","37","","24.1","","98.50","","","","","","Cloudy"
"2011-03-18 00:00","2011","03","18","00:00","14.8","","8.8","","67","","24","","35","","24.1","","98.44","","","","","","Cloudy"
"2011-03-18 01:00","2011","03","18","01:00","14.3","","9.5","","73","","24","","32","","24.1","","98.37","","","","","","Cloudy"
"2011-03-18 02:00","2011","03","18","02:00","15.2","","10.4","","73","","25","","30","","24.1","","98.39","","","","","","Cloudy"
"2011-03-18 03:00","2011","03","18","03:00","14.6","","10.7","","77","","28","","32","","24.1","","98.51","","","","","","Cloudy"
"2011-03-18 04:00","2011","03","18","04:00","11.2","","6.9","","75","","32","","56","","24.1","","98.72","","","","","","Mostly Cloudy"
"2011-03-18 05:00","2011","03","18","05:00","9.0","","4.1","","71","","30","","44","","24.1","","98.82","","","","","","Mainly Clear"
"2011-03-18 06:00","2011","03","18","06:00","7.3","","2.0","","69","","31","","32","","24.1","","98.96","","","","","","Mainly Clear"
"2011-03-18 07:00","2011","03","18","07:00","6.5","","1.8","","72","","30","","30","","24.1","","99.14","","","","","","Mostly Cloudy"
"2011-03-18 08:00","2011","03","18","08:00","6.9","","2.0","","71","","29","","30","","24.1","","99.21","","","","","","Mostly Cloudy"
"2011-03-18 09:00","2011","03","18","09:00","8.1","","2.2","","66","","31","","35","","24.1","","99.32","","","","","","Mostly Cloudy"
"2011-03-18 10:00","2011","03","18","10:00","9.0","","2.8","","65","","30","","35","","24.1","","99.41","","","","","","Mostly Cloudy"
"2011-03-18 11:00","2011","03","18","11:00","10.2","","3.2","","62","","30","","26","","24.1","","99.43","","","","","","Mostly Cloudy"
"2011-03-18 12:00","2011","03","18","12:00","9.9","","3.0","","62","","29","","20","","24.1","","99.46","","","","","","Mostly Cloudy"
"2011-03-18 13:00","2011","03","18","13:00","11.2","","4.3","","62","","27","","32","","24.1","","99.44","","","","","","Cloudy"
"2011-03-18 14:00","2011","03","18","14:00","11.5","","3.9","","60","","30","","30","","24.1","","99.38","","","","","","Cloudy"
"2011-03-18 15:00","2011","03","18","15:00","11.2","","3.2","","58","","28","","39","","24.1","","99.40","","","","","","Mostly Cloudy"
"2011-03-18 16:00","2011","03","18","16:00","9.2","","2.5","","63","","30","","37","","24.1","","99.46","","","","","","Mostly Cloudy"
"2011-03-18 17:00","2011","03","18","17:00","6.7","","2.3","","73","","31","","41","","24.1","","99.56","","","","","","Cloudy"
"2011-03-18 18:00","2011","03","18","18:00","5.7","","0.4","","69","","32","","37","","24.1","","99.69","","","","","","Cloudy"
"2011-03-18 19:00","2011","03","18","19:00","4.4","","-0.8","","69","","31","","39","","24.1","","99.78","","","","","","Mostly Cloudy"
"2011-03-18 20:00","2011","03","18","20:00","3.9","","-0.9","","71","","31","","32","","24.1","","99.82","","","","","","Mostly Cloudy"
"2011-03-18 21:00","2011","03","18","21:00","3.5","","-1.2","","71","","35","","28","","24.1","","99.79","","","","","","Mostly Cloudy"
"2011-03-18 22:00","2011","03","18","22:00","1.8","","-1.8","","77","","34","","17","","24.1","","99.92","","","","","","Mostly Cloudy"
"2011-03-18 23:00","2011","03","18","23:00","1.6","","-1.9","","78","","34","","17","","24.1","","100.00","","","","","","Mostly Cloudy"
"2011-03-19 00:00","2011","03","19","00:00","1.9","","-3.2","","69","","34","","20","","24.1","","100.09","","","","","","Mostly Cloudy"
"2011-03-19 01:00","2011","03","19","01:00","1.4","","-4.0","","67","","34","","22","","24.1","","100.18","","","","","","Mostly Cloudy"
"2011-03-19 02:00","2011","03","19","02:00","1.4","","-4.0","","67","","33","","19","","24.1","","100.27","","","","","","Cloudy"
"2011-03-19 03:00","2011","03","19","03:00","1.3","","-4.4","","66","","33","","20","","24.1","","100.30","","","","","","Cloudy"
"2011-03-19 04:00","2011","03","19","04:00","0.9","","-4.3","","68","","36","","15","","24.1","","100.36","","","","","","Cloudy"
"2011-03-19 05:00","2011","03","19","05:00","0.6","","-3.9","","72","","34","","15","","24.1","","100.46","","","","","","Mostly Cloudy"
"2011-03-19 06:00","2011","03","19","06:00","0.3","","-5.0","","68","","35","","19","","24.1","","100.55","","","","","","Mostly Cloudy"
"2011-03-19 07:00","2011","03","19","07:00","-0.3","","-5.5","","68","","36","","24","","24.1","","100.66","","","","-6","","Mostly Cloudy"
"2011-03-19 08:00","2011","03","19","08:00","-0.6","","-6.3","","65","","35","","24","","24.1","","100.79","","","","-7","","Mainly Clear"
"2011-03-19 09:00","2011","03","19","09:00","0.5","","-6.5","","59","","34","","24","","24.1","","100.85","","","","","","Mainly Clear"
"2011-03-19 10:00","2011","03","19","10:00","0.1","","-6.8","","60","","33","","22","","24.1","","100.94","","","","","","Mainly Clear"
"2011-03-19 11:00","2011","03","19","11:00","1.7","","-6.1","","56","","33","","22","","24.1","","100.97","","","","","","Mostly Cloudy"
"2011-03-19 12:00","2011","03","19","12:00","1.7","","-5.9","","57","","33","","17","","24.1","","100.99","","","","","","Mainly Clear"
"2011-03-19 13:00","2011","03","19","13:00","2.8","","-6.2","","52","","32","","17","","24.1","","100.98","","","","","","Mainly Clear"
"2011-03-19 14:00","2011","03","19","14:00","4.5","","-5.5","","48","","30","","22","","24.1","","100.99","","","","","","Mainly Clear"
"2011-03-19 15:00","2011","03","19","15:00","4.1","","-6.1","","47","","29","","26","","24.1","","101.02","","","","","","Mainly Clear"
"2011-03-19 16:00","2011","03","19","16:00","4.2","","-6.4","","46","","31","","22","","24.1","","101.05","","","","","","Mainly Clear"
"2011-03-19 17:00","2011","03","19","17:00","2.9","","-6.0","","52","","36","","20","","24.1","","101.08","","","","","","Mainly Clear"
"2011-03-19 18:00","2011","03","19","18:00","1.3","","-6.7","","55","","1","","19","","24.1","","101.15","","","","","","Mainly Clear"
"2011-03-19 19:00","2011","03","19","19:00","-0.1","","-6.9","","60","","36","","20","","24.1","","101.20","","","","-5","","Mainly Clear"
"2011-03-19 20:00","2011","03","19","20:00","-1.4","","-6.7","","67","","36","","17","","24.1","","101.28","","","","-7","","Clear"
"2011-03-19 21:00","2011","03","19","21:00","-1.9","","-6.8","","69","","35","","19","","24.1","","101.39","","","","-7","","Clear"
"2011-03-19 22:00","2011","03","19","22:00","-2.5","","-6.6","","73","","36","","20","","24.1","","101.45","","","","-8","","Clear"
"2011-03-19 23:00","2011","03","19","23:00","-3.1","","-6.5","","77","","2","","9","","24.1","","101.49","","","","-7","","Clear"
"2011-03-20 00:00","2011","03","20","00:00","-3.2","","-6.8","","76","","35","","17","","24.1","","101.49","","","","-9","","Clear"
"2011-03-20 01:00","2011","03","20","01:00","-3.9","","-6.9","","80","","2","","15","","24.1","","101.47","","","","-9","","Clear"
"2011-03-20 02:00","2011","03","20","02:00","-4.0","","-7.1","","79","","1","","17","","24.1","","101.49","","","","-10","","Clear"
"2011-03-20 03:00","2011","03","20","03:00","-4.3","","-7.6","","78","","36","","11","","24.1","","101.50","","","","-9","","Clear"
"2011-03-20 04:00","2011","03","20","04:00","-4.4","","-7.7","","78","","34","","11","","24.1","","101.51","","","","-9","","Clear"
"2011-03-20 05:00","2011","03","20","05:00","-6.1","","-8.3","","84","","31","","7","","24.1","","101.53","","","","-9","","Clear"
"2011-03-20 06:00","2011","03","20","06:00","-5.3","","-7.9","","82","","1","","4","","24.1","","101.54","","","","-7","","Mainly Clear"
"2011-03-20 07:00","2011","03","20","07:00","-4.9","","-7.7","","81","","","","0","","24.1","","101.56","","","","","","Mainly Clear"
"2011-03-20 08:00","2011","03","20","08:00","-2.5","","-7.5","","68","","","","0","","24.1","","101.58","","","","","","Mostly Cloudy"
"2011-03-20 09:00","2011","03","20","09:00","-0.8","","-6.9","","63","","12","","6","","24.1","","101.57","","","","-3","","Mostly Cloudy"
"2011-03-20 10:00","2011","03","20","10:00","0.8","","-6.4","","59","","17","","11","","24.1","","101.49","","","","","","Mostly Cloudy"
"2011-03-20 11:00","2011","03","20","11:00","1.8","","-5.9","","57","","15","","9","","24.1","","101.44","","","","","","Cloudy"
"2011-03-20 12:00","2011","03","20","12:00","1.7","","-6.1","","56","","13","","9","","24.1","","101.35","","","","","","Cloudy"
"2011-03-20 13:00","2011","03","20","13:00","2.3","","-6.2","","53","","13","","11","","24.1","","101.26","","","","","","Cloudy"
"2011-03-20 14:00","2011","03","20","14:00","2.9","","-6.1","","52","","15","","11","","24.1","","101.16","","","","","","Cloudy"
"2011-03-20 15:00","2011","03","20","15:00","3.5","","-6.1","","49","","13","","15","","24.1","","101.04","","","","","","Cloudy"
"2011-03-20 16:00","2011","03","20","16:00","3.8","","-5.9","","49","","10","","15","","24.1","","100.87","","","","","","Cloudy"
"2011-03-20 17:00","2011","03","20","17:00","2.7","","-7.3","","48","","8","","19","","24.1","","100.77","","","","","","Cloudy"
"2011-03-20 18:00","2011","03","20","18:00","2.1","","-7.1","","51","","9","","17","","24.1","","100.74","","","","","","Cloudy"
"2011-03-20 19:00","2011","03","20","19:00","2.1","","-7.3","","50","","9","","22","","24.1","","100.63","","","","","","Cloudy"
"2011-03-20 20:00","2011","03","20","20:00","2.4","","-6.8","","51","","9","","20","","24.1","","100.52","","","","","","Cloudy"
"2011-03-20 21:00","2011","03","20","21:00","2.4","","-5.2","","57","","10","","15","","24.1","","100.43","","","","","","Cloudy"
"2011-03-20 22:00","2011","03","20","22:00","2.8","","-4.3","","59","","9","","17","","24.1","","100.27","","","","","","Cloudy"
"2011-03-20 23:00","2011","03","20","23:00","2.8","","-3.4","","64","","11","","22","","24.1","","100.08","","","","","","Cloudy"
"2011-03-21 00:00","2011","03","21","00:00","2.4","","-1.6","","75","","11","","15","","24.1","","99.95","","","","","","Rain Showers"
"2011-03-21 01:00","2011","03","21","01:00","2.0","","0.3","","88","","11","","11","","19.3","","99.83","","","","","","Rain Showers"
"2011-03-21 02:00","2011","03","21","02:00","2.3","","1.0","","91","","9","","15","","19.3","","99.57","","","","","","Rain Showers"
"2011-03-21 03:00","2011","03","21","03:00","3.7","","2.7","","93","","12","","20","","24.1","","99.40","","","","","","Rain Showers"
"2011-03-21 04:00","2011","03","21","04:00","3.5","","2.7","","94","","12","","20","","16.1","","99.22","","","","","","Rain Showers"
"2011-03-21 05:00","2011","03","21","05:00","3.5","","2.9","","96","","10","","11","","14.5","","99.16","","","","","","Rain Showers"
"2011-03-21 06:00","2011","03","21","06:00","3.6","","3.2","","97","","13","","6","","12.9","","99.13","","","","","","Drizzle"
"2011-03-21 07:00","2011","03","21","07:00","3.7","","3.4","","98","","","","0","","4.8","","99.10","","","","","","Drizzle,Fog"
"2011-03-21 08:00","2011","03","21","08:00","3.9","","3.6","","98","","6","","4","","4.8","","99.06","","","","","","Drizzle,Fog"
"2011-03-21 09:00","2011","03","21","09:00","4.2","","3.8","","97","","19","","4","","2.0","","99.06","","","","","","Drizzle,Fog"
"2011-03-21 10:00","2011","03","21","10:00","4.8","","4.5","","98","","21","","6","","2.4","","99.05","","","","","","Fog"
"2011-03-21 11:00","2011","03","21","11:00","7.2","","6.4","","95","","25","","9","","9.7","","98.95","","","","","","Fog"
"2011-03-21 12:00","2011","03","21","12:00","8.0","","6.4","","90","","27","","22","","9.7","","99.03","","","","","","Fog"
"2011-03-21 13:00","2011","03","21","13:00","8.3","","6.0","","85","","28","","33","","11.3","","99.08","","","","","","Cloudy"
"2011-03-21 14:00","2011","03","21","14:00","8.9","","5.0","","77","","29","","43","","19.3","","99.06","","","","","","Mostly Cloudy"
"2011-03-21 15:00","2011","03","21","15:00","9.3","","4.5","","72","","29","","37","","24.1","","99.09","","","","","","Mostly Cloudy"
"2011-03-21 16:00","2011","03","21","16:00","6.8","","2.9","","76","","31","","39","","24.1","","99.18","","","","","","Mostly Cloudy"
"2011-03-21 17:00","2011","03","21","17:00","5.7","","2.1","","78","","31","","39","","24.1","","99.25","","","","","","Cloudy"
"2011-03-21 18:00","2011","03","21","18:00","5.1","","1.8","","79","","30","","32","","24.1","","99.38","","","","","","Cloudy"
"2011-03-21 19:00","2011","03","21","19:00","4.9","","1.7","","80","","31","","26","","24.1","","99.39","","","","","","Cloudy"
"2011-03-21 20:00","2011","03","21","20:00","4.8","","1.8","","81","","30","","26","","24.1","","99.42","","","","","","Cloudy"
"2011-03-21 21:00","2011","03","21","21:00","4.7","","1.8","","81","","31","","28","","24.1","","99.49","","","","","","Cloudy"
"2011-03-21 22:00","2011","03","21","22:00","3.6","","1.1","","84","","36","","24","","24.1","","99.56","","","","","","Cloudy"
"2011-03-21 23:00","2011","03","21","23:00","3.4","","0.3","","80","","36","","19","","24.1","","99.55","","","","","","Cloudy"
"2011-03-22 00:00","2011","03","22","00:00","3.4","","0.8","","83","","31","","17","","24.1","","99.60","","","","","","Cloudy"
"2011-03-22 01:00","2011","03","22","01:00","3.4","","0.9","","84","","34","","13","","24.1","","99.64","","","","","","Cloudy"
"2011-03-22 02:00","2011","03","22","02:00","3.1","","0.0","","80","","34","","20","","24.1","","99.69","","","","","","Cloudy"
"2011-03-22 03:00","2011","03","22","03:00","2.6","","-0.5","","80","","35","","20","","24.1","","99.71","","","","","","Cloudy"
"2011-03-22 04:00","2011","03","22","04:00","2.1","","-2.0","","74","","36","","30","","24.1","","99.73","","","","","","Cloudy"
"2011-03-22 05:00","2011","03","22","05:00","1.9","","-2.4","","73","","36","","20","","24.1","","99.76","","","","","","Cloudy"
"2011-03-22 06:00","2011","03","22","06:00","1.4","","-2.3","","76","","36","","20","","24.1","","99.82","","","","","","Mostly Cloudy"
"2011-03-22 07:00","2011","03","22","07:00","1.5","","-1.7","","79","","36","","15","","24.1","","99.92","","","","","","Mostly Cloudy"
"2011-03-22 08:00","2011","03","22","08:00","2.4","","-1.8","","74","","34","","15","","24.1","","99.96","","","","","","Mostly Cloudy"
"2011-03-22 09:00","2011","03","22","09:00","3.0","","-1.6","","72","","36","","17","","24.1","","99.98","","","","","","Mostly Cloudy"
"2011-03-22 10:00","2011","03","22","10:00","4.9","","-1.3","","64","","35","","22","","24.1","","99.92","","","","","","Mostly Cloudy"
"2011-03-22 11:00","2011","03","22","11:00","4.6","","-3.6","","55","","36","","22","","24.1","","99.91","","","","","","Mostly Cloudy"
"2011-03-22 12:00","2011","03","22","12:00","4.3","","-2.6","","61","","2","","17","","24.1","","99.87","","","","","","Mostly Cloudy"
"2011-03-22 13:00","2011","03","22","13:00","4.7","","-2.8","","58","","1","","19","","24.1","","99.82","","","","","","Mostly Cloudy"
"2011-03-22 14:00","2011","03","22","14:00","4.7","","-2.7","","59","","36","","17","","24.1","","99.78","","","","","","Mostly Cloudy"
"2011-03-22 15:00","2011","03","22","15:00","4.7","","-2.2","","61","","36","","19","","24.1","","99.74","","","","","","Mostly Cloudy"
"2011-03-22 16:00","2011","03","22","16:00","3.9","","-1.9","","66","","2","","19","","24.1","","99.71","","","","","","Mostly Cloudy"
"2011-03-22 17:00","2011","03","22","17:00","3.9","","-2.4","","63","","1","","15","","24.1","","99.71","","","","","","Cloudy"
"2011-03-22 18:00","2011","03","22","18:00","3.6","","-3.7","","59","","36","","19","","24.1","","99.71","","","","","","Cloudy"
"2011-03-22 19:00","2011","03","22","19:00","2.4","","-3.0","","67","","1","","19","","24.1","","99.72","","","","","","Cloudy"
"2011-03-22 20:00","2011","03","22","20:00","1.5","","-3.4","","70","","1","","20","","24.1","","99.70","","","","","","Mostly Cloudy"
"2011-03-22 21:00","2011","03","22","21:00","1.3","","-3.8","","69","","1","","19","","24.1","","99.68","","","","","","Mostly Cloudy"
"2011-03-22 22:00","2011","03","22","22:00","1.7","","-5.1","","61","","4","","15","","24.1","","99.61","","","","","","Cloudy"
"2011-03-22 23:00","2011","03","22","23:00","2.0","","-7.2","","50","","7","","17","","24.1","","99.53","","","","","","Cloudy"
"2011-03-23 00:00","2011","03","23","00:00","1.3","","-7.8","","51","","7","","19","","24.1","","99.57","","","","","","Cloudy"
"2011-03-23 01:00","2011","03","23","01:00","0.5","","-8.6","","50","","8","","26","","24.1","","99.49","","","","","","Cloudy"
"2011-03-23 02:00","2011","03","23","02:00","-0.8","","-10.8","","47","","9","","19","","24.1","","99.43","","","","-6","","Cloudy"
"2011-03-23 03:00","2011","03","23","03:00","-1.6","","-10.7","","50","","9","","19","","24.1","","99.45","","","","-7","","Cloudy"
"2011-03-23 04:00","2011","03","23","04:00","-2.1","","-10.4","","53","","11","","24","","24.1","","99.30","","","","-8","","Cloudy"
"2011-03-23 05:00","2011","03","23","05:00","-4.0","","-6.6","","82","","8","","22","","1.6","","99.23","","","","-11","","Snow Showers"
"2011-03-23 06:00","2011","03","23","06:00","-4.2","","-6.2","","86","","8","","20","","2.8","","99.24","","","","-11","","Snow"
"2011-03-23 07:00","2011","03","23","07:00","-4.3","","-6.1","","87","","8","","22","","2.0","","99.23","","","","-11","","Snow"
"2011-03-23 08:00","2011","03","23","08:00","-4.3","","-6.8","","83","","8","","26","","3.2","","99.13","","","","-12","","Snow"
"2011-03-23 09:00","2011","03","23","09:00","-4.5","","-7.1","","82","","8","","28","","2.4","","98.98","","","","-12","","Snow"
"2011-03-23 10:00","2011","03","23","10:00","-4.5","","-7.4","","80","","8","","28","","6.4","","98.94","","","","-12","","Snow"
"2011-03-23 11:00","2011","03","23","11:00","-4.6","","-7.3","","81","","8","","26","","2.4","","98.87","","","","-12","","Snow"
"2011-03-23 12:00","2011","03","23","12:00","-5.1","","-7.3","","85","","6","","22","","1.0","","98.85","","","","-12","","Snow"
"2011-03-23 13:00","2011","03","23","13:00","-5.1","","-6.6","","89","","7","","20","","0.8","","98.75","","","","-12","","Moderate Snow"
"2011-03-23 14:00","2011","03","23","14:00","-4.9","","-6.8","","87","","8","","20","","1.2","","98.68","","","","-11","","Snow"
"2011-03-23 15:00","2011","03","23","15:00","-4.9","","-6.6","","88","","7","","20","","1.2","","98.62","","","","-11","","Snow"
"2011-03-23 16:00","2011","03","23","16:00","-4.5","","-6.5","","86","","6","","26","","1.6","","98.63","","","","-12","","Snow"
"2011-03-23 17:00","2011","03","23","17:00","-4.2","","-6.1","","87","","6","","22","","1.2","","98.68","","","","-11","","Snow"
"2011-03-23 18:00","2011","03","23","18:00","-3.8","","-5.8","","86","","5","","22","","2.0","","98.59","","","","-10","","Snow"
"2011-03-23 19:00","2011","03","23","19:00","-3.2","","-7.0","","75","","6","","15","","16.1","","98.57","","","","-8","","Snow"
"2011-03-23 20:00","2011","03","23","20:00","-2.3","","-9.3","","59","","5","","11","","24.1","","98.69","","","","-6","","Mostly Cloudy"
"2011-03-23 21:00","2011","03","23","21:00","-1.7","","-9.6","","55","","4","","13","","24.1","","98.74","","","","-6","","Mostly Cloudy"
"2011-03-23 22:00","2011","03","23","22:00","-1.5","","-10.2","","51","","5","","19","","24.1","","98.70","","","","-7","","Mostly Cloudy"
"2011-03-23 23:00","2011","03","23","23:00","-1.7","","-10.3","","52","","4","","20","","24.1","","98.73","","","","-7","","Mostly Cloudy"
"2011-03-24 00:00","2011","03","24","00:00","-2.0","","-11.0","","50","","4","","20","","24.1","","98.71","","","","-8","","Mostly Cloudy"
"2011-03-24 01:00","2011","03","24","01:00","-2.7","","-10.8","","54","","3","","26","","24.1","","98.74","","","","-10","","Mostly Cloudy"
"2011-03-24 02:00","2011","03","24","02:00","-3.4","","-11.8","","52","","2","","24","","24.1","","98.78","","","","-10","","Mostly Cloudy"
"2011-03-24 03:00","2011","03","24","03:00","-5.8","","-13.0","","57","","2","","24","","24.1","","98.78","","","","-13","","Mainly Clear"
"2011-03-24 04:00","2011","03","24","04:00","-6.5","","-13.3","","58","","1","","26","","24.1","","98.82","","","","-14","","Clear"
"2011-03-24 05:00","2011","03","24","05:00","-6.9","","-13.3","","60","","36","","28","","24.1","","98.98","","","","-15","","Clear"
"2011-03-24 06:00","2011","03","24","06:00","-7.7","","-13.3","","64","","36","","24","","24.1","","99.06","","","","-16","","Clear"
"2011-03-24 07:00","2011","03","24","07:00","-8.0","","-13.4","","65","","36","","20","","24.1","","99.16","","","","-15","","Clear"
"2011-03-24 08:00","2011","03","24","08:00","-7.6","","-13.0","","65","","36","","33","","24.1","","99.23","","","","-17","","Clear"
"2011-03-24 09:00","2011","03","24","09:00","-6.9","","-12.3","","65","","35","","39","","24.1","","99.29","","","","-17","","Clear"
"2011-03-24 10:00","2011","03","24","10:00","-6.2","","-11.8","","64","","35","","32","","24.1","","99.35","","","","-15","","Clear"
"2011-03-24 11:00","2011","03","24","11:00","-5.1","","-11.4","","61","","35","","22","","24.1","","99.36","","","","-12","","Mainly Clear"
"2011-03-24 12:00","2011","03","24","12:00","-4.0","","-10.6","","60","","33","","33","","24.1","","99.36","","","","-12","","Mainly Clear"
"2011-03-24 13:00","2011","03","24","13:00","-3.6","","-10.3","","60","","35","","32","","24.1","","99.35","","","","-11","","Mainly Clear"
"2011-03-24 14:00","2011","03","24","14:00","-2.9","","-9.9","","58","","33","","28","","24.1","","99.36","","","","-10","","Mainly Clear"
"2011-03-24 15:00","2011","03","24","15:00","-2.8","","-9.8","","58","","33","","28","","24.1","","99.38","","","","-10","","Mainly Clear"
"2011-03-24 16:00","2011","03","24","16:00","-3.0","","-10.1","","58","","35","","30","","24.1","","99.42","","","","-10","","Mainly Clear"
"2011-03-24 17:00","2011","03","24","17:00","-3.2","","-10.2","","58","","35","","26","","24.1","","99.48","","","","-10","","Mainly Clear"
"2011-03-24 18:00","2011","03","24","18:00","-3.7","","-10.3","","60","","35","","26","","24.1","","99.53","","","","-11","","Mainly Clear"
"2011-03-24 19:00","2011","03","24","19:00","-4.6","","-10.6","","63","","34","","20","","24.1","","99.60","","","","-11","","Mainly Clear"
"2011-03-24 20:00","2011","03","24","20:00","-5.4","","-11.0","","65","","35","","28","","24.1","","99.65","","","","-13","","Clear"
"2011-03-24 21:00","2011","03","24","21:00","-6.7","","-11.6","","68","","32","","22","","24.1","","99.67","","","","-14","","Clear"
"2011-03-24 22:00","2011","03","24","22:00","-6.7","","-12.1","","65","","32","","20","","24.1","","99.68","","","","-14","","Clear"
"2011-03-24 23:00","2011","03","24","23:00","-8.0","","-12.9","","68","","29","","15","","24.1","","99.69","","","","-14","","Clear"
"2011-03-25 00:00","2011","03","25","00:00","-7.8","","-13.4","","64","","31","","15","","24.1","","99.65","","","","-14","","Clear"
"2011-03-25 01:00","2011","03","25","01:00","-8.7","","-13.4","","69","","32","","17","","24.1","","99.63","","","","-16","","Clear"
"2011-03-25 02:00","2011","03","25","02:00","-9.5","","-13.9","","70","","32","","15","","24.1","","99.64","","","","-16","","Clear"
"2011-03-25 03:00","2011","03","25","03:00","-9.2","","-13.5","","71","","29","","13","","24.1","","99.65","","","","-15","","Clear"
"2011-03-25 04:00","2011","03","25","04:00","-9.5","","-13.8","","71","","29","","13","","24.1","","99.70","","","","-16","","Clear"
"2011-03-25 05:00","2011","03","25","05:00","-9.9","","-14.1","","71","","1","","9","","24.1","","99.74","","","","-15","","Mainly Clear"
"2011-03-25 06:00","2011","03","25","06:00","-9.0","","-13.6","","69","","29","","13","","24.1","","99.67","","","","-15","","Clear"
"2011-03-25 07:00","2011","03","25","07:00","-8.9","","-13.5","","69","","","","0","","24.1","","99.69","","","","","","Clear"
"2011-03-25 08:00","2011","03","25","08:00","-7.4","","-13.0","","64","","28","","7","","24.1","","99.72","","","","-11","","Mostly Cloudy"
"2011-03-25 09:00","2011","03","25","09:00","-6.0","","-12.8","","59","","31","","11","","24.1","","99.72","","","","-11","","Mainly Clear"
"2011-03-25 10:00","2011","03","25","10:00","-4.4","","-12.5","","53","","32","","7","","24.1","","99.72","","","","-8","","Mostly Cloudy"
"2011-03-25 11:00","2011","03","25","11:00","-4.0","","-12.0","","54","","34","","13","","24.1","","99.67","","","","-9","","Mainly Clear"
"2011-03-25 12:00","2011","03","25","12:00","-3.6","","-13.0","","48","","33","","11","","24.1","","99.60","","","","-8","","Mainly Clear"
"2011-03-25 13:00","2011","03","25","13:00","-3.0","","-13.5","","44","","33","","9","","24.1","","99.59","","","","-7","","Mainly Clear"
"2011-03-25 14:00","2011","03","25","14:00","-2.4","","-13.4","","43","","30","","9","","24.1","","99.57","","","","-6","","Mostly Cloudy"
"2011-03-25 15:00","2011","03","25","15:00","-1.8","","-12.6","","43","","29","","20","","24.1","","99.56","","","","-8","","Mostly Cloudy"
"2011-03-25 16:00","2011","03","25","16:00","-3.2","","-12.2","","50","","1","","26","","24.1","","99.57","","","","-10","","Mostly Cloudy"
"2011-03-25 17:00","2011","03","25","17:00","-4.1","","-12.4","","52","","36","","32","","24.1","","99.60","","","","-12","","Mainly Clear"
"2011-03-25 18:00","2011","03","25","18:00","-5.0","","-12.9","","54","","1","","30","","24.1","","99.65","","","","-13","","Mainly Clear"
"2011-03-25 19:00","2011","03","25","19:00","-6.3","","-13.6","","56","","1","","26","","24.1","","99.73","","","","-14","","Mainly Clear"
"2011-03-25 20:00","2011","03","25","20:00","-7.1","","-13.6","","60","","35","","24","","24.1","","99.80","","","","-15","","Clear"
"2011-03-25 21:00","2011","03","25","21:00","-7.5","","-14.6","","57","","35","","24","","24.1","","99.83","","","","-15","","Clear"
"2011-03-25 22:00","2011","03","25","22:00","-7.5","","-15.7","","52","","33","","24","","24.1","","99.82","","","","-15","","Clear"
"2011-03-25 23:00","2011","03","25","23:00","-8.2","","-16.3","","52","","34","","24","","24.1","","99.84","","","","-16","","Clear"
"2011-03-26 00:00","2011","03","26","00:00","-9.1","","-15.8","","58","","32","","17","","24.1","","99.87","","","","-16","","Clear"
"2011-03-26 01:00","2011","03","26","01:00","-9.1","","-16.0","","57","","32","","17","","24.1","","99.89","","","","-16","","Clear"
"2011-03-26 02:00","2011","03","26","02:00","-10.3","","-16.1","","62","","31","","15","","24.1","","99.88","","","","-17","","Clear"
"2011-03-26 03:00","2011","03","26","03:00","-10.3","","-16.1","","62","","30","","15","","24.1","","99.90","","","","-17","","Clear"
"2011-03-26 04:00","2011","03","26","04:00","-10.8","","-16.1","","65","","29","","11","","24.1","","99.93","","","","-17","","Mainly Clear"
"2011-03-26 05:00","2011","03","26","05:00","-9.8","","-15.2","","65","","32","","11","","24.1","","99.97","","","","-15","","Clear"
"2011-03-26 06:00","2011","03","26","06:00","-9.8","","-15.4","","64","","31","","17","","24.1","","99.99","","","","-17","","Clear"
"2011-03-26 07:00","2011","03","26","07:00","-9.0","","-15.7","","58","","35","","22","","24.1","","100.03","","","","-17","","Clear"
"2011-03-26 08:00","2011","03","26","08:00","-7.8","","-14.7","","58","","34","","17","","24.1","","100.04","","","","-14","","Clear"
"2011-03-26 09:00","2011","03","26","09:00","-6.6","","-13.8","","57","","35","","15","","24.1","","100.05","","","","-13","","Clear"
"2011-03-26 10:00","2011","03","26","10:00","-5.7","","-13.1","","56","","33","","28","","24.1","","100.07","","","","-14","","Clear"
"2011-03-26 11:00","2011","03","26","11:00","-5.2","","-13.1","","54","","36","","24","","24.1","","100.02","","","","-12","","Clear"
"2011-03-26 12:00","2011","03","26","12:00","-4.5","","-12.1","","55","","34","","13","","24.1","","100.00","","","","-10","","Mainly Clear"
"2011-03-26 13:00","2011","03","26","13:00","-3.6","","-12.5","","50","","35","","26","","24.1","","100.00","","","","-11","","Mainly Clear"
"2011-03-26 14:00","2011","03","26","14:00","-3.6","","-12.0","","52","","36","","20","","24.1","","99.95","","","","-10","","Mainly Clear"
"2011-03-26 15:00","2011","03","26","15:00","-2.6","","-10.9","","53","","34","","22","","24.1","","99.95","","","","-9","","Mainly Clear"
"2011-03-26 16:00","2011","03","26","16:00","-3.0","","-11.7","","51","","36","","24","","24.1","","99.91","","","","-10","","Clear"
"2011-03-26 17:00","2011","03","26","17:00","-3.3","","-12.6","","49","","36","","26","","24.1","","99.95","","","","-10","","Clear"
"2011-03-26 18:00","2011","03","26","18:00","-4.1","","-11.3","","57","","1","","24","","24.1","","99.94","","","","-11","","Clear"
"2011-03-26 19:00","2011","03","26","19:00","-5.1","","-11.4","","61","","36","","24","","24.1","","99.96","","","","-12","","Mainly Clear"
"2011-03-26 20:00","2011","03","26","20:00","-5.8","","-11.6","","64","","35","","20","","24.1","","99.98","","","","-13","","Mainly Clear"
"2011-03-26 21:00","2011","03","26","21:00","-6.4","","-11.4","","68","","35","","19","","24.1","","99.97","","","","-13","","Clear"
"2011-03-26 22:00","2011","03","26","22:00","-6.6","","-11.5","","68","","35","","17","","24.1","","99.97","","","","-13","","Clear"
"2011-03-26 23:00","2011","03","26","23:00","-7.1","","-11.5","","71","","35","","19","","24.1","","99.93","","","","-14","","Clear"
"2011-03-27 00:00","2011","03","27","00:00","-7.5","","-12.0","","70","","35","","17","","24.1","","99.93","","","","-14","","Clear"
"2011-03-27 01:00","2011","03","27","01:00","-7.3","","-12.6","","66","","34","","19","","24.1","","99.91","","","","-14","","Mainly Clear"
"2011-03-27 02:00","2011","03","27","02:00","-7.1","","-12.7","","64","","34","","19","","24.1","","99.92","","","","-14","","Mainly Clear"
"2011-03-27 03:00","2011","03","27","03:00","-9.0","","-13.3","","71","","32","","15","","24.1","","99.94","","","","-16","","Mainly Clear"
"2011-03-27 04:00","2011","03","27","04:00","-8.0","","-12.9","","68","","34","","17","","24.1","","99.92","","","","-15","","Clear"
"2011-03-27 05:00","2011","03","27","05:00","-8.7","","-13.8","","67","","34","","13","","24.1","","99.95","","","","-15","","Clear"
"2011-03-27 06:00","2011","03","27","06:00","-8.7","","-14.6","","62","","35","","13","","24.1","","100.00","","","","-15","","Clear"
"2011-03-27 07:00","2011","03","27","07:00","-8.5","","-15.1","","59","","35","","19","","24.1","","100.04","","","","-16","","Clear"
"2011-03-27 08:00","2011","03","27","08:00","-7.2","","-15.5","","51","","36","","19","","24.1","","100.07","","","","-14","","Clear"
"2011-03-27 09:00","2011","03","27","09:00","-6.1","","-16.1","","45","","36","","22","","24.1","","100.07","","","","-13","","Clear"
"2011-03-27 10:00","2011","03","27","10:00","-5.1","","-15.9","","42","","32","","26","","24.1","","100.04","","","","-13","","Clear"
"2011-03-27 11:00","2011","03","27","11:00","-3.9","","-15.7","","39","","35","","26","","24.1","","100.00","","","","-11","","Clear"
"2011-03-27 12:00","2011","03","27","12:00","-3.3","","-13.8","","44","","33","","24","","24.1","","99.97","","","","-10","","Clear"
"2011-03-27 13:00","2011","03","27","13:00","-2.6","","-13.1","","44","","35","","20","","24.1","","99.92","","","","-9","","Clear"
"2011-03-27 14:00","2011","03","27","14:00","-2.2","","-11.9","","47","","36","","22","","24.1","","99.88","","","","-8","","Clear"
"2011-03-27 15:00","2011","03","27","15:00","-2.2","","-12.5","","45","","36","","22","","24.1","","99.87","","","","-8","","Clear"
"2011-03-27 16:00","2011","03","27","16:00","-1.9","","-11.9","","46","","36","","20","","24.1","","99.87","","","","-8","","Clear"
"2011-03-27 17:00","2011","03","27","17:00","-1.9","","-13.5","","41","","35","","19","","24.1","","99.84","","","","-7","","Clear"
"2011-03-27 18:00","2011","03","27","18:00","-2.8","","-12.6","","47","","1","","22","","24.1","","99.84","","","","-9","","Clear"
"2011-03-27 19:00","2011","03","27","19:00","-4.3","","-11.6","","57","","35","","13","","24.1","","99.90","","","","-9","","Clear"
"2011-03-27 20:00","2011","03","27","20:00","-4.8","","-12.1","","57","","31","","26","","24.1","","99.95","","","","-12","","Clear"
"2011-03-27 21:00","2011","03","27","21:00","-5.5","","-13.3","","54","","31","","19","","24.1","","100.00","","","","-12","","Clear"
"2011-03-27 22:00","2011","03","27","22:00","-6.2","","-13.0","","59","","31","","22","","24.1","","99.97","","","","-13","","Clear"
"2011-03-27 23:00","2011","03","27","23:00","-6.8","","-13.0","","61","","32","","19","","24.1","","99.94","","","","-14","","Clear"
"2011-03-28 00:00","2011","03","28","00:00","-7.8","","-13.4","","64","","28","","13","","24.1","","99.96","","","","-14","","Clear"
"2011-03-28 01:00","2011","03","28","01:00","-8.3","","-13.3","","67","","28","","15","","24.1","","99.97","","","","-15","","Clear"
"2011-03-28 02:00","2011","03","28","02:00","-8.5","","-13.2","","69","","28","","13","","24.1","","99.92","","","","-14","","Clear"
"2011-03-28 03:00","2011","03","28","03:00","-8.5","","-13.1","","69","","29","","13","","24.1","","99.91","","","","-14","","Clear"
"2011-03-28 04:00","2011","03","28","04:00","-8.0","","-12.4","","71","","29","","15","","24.1","","99.93","","","","-14","","Clear"
"2011-03-28 05:00","2011","03","28","05:00","-7.5","","-12.1","","70","","30","","15","","24.1","","99.93","","","","-14","","Clear"
"2011-03-28 06:00","2011","03","28","06:00","-7.3","","-12.0","","69","","32","","17","","24.1","","99.95","","","","-14","","Clear"
"2011-03-28 07:00","2011","03","28","07:00","-7.0","","-11.4","","71","","28","","11","","24.1","","100.03","","","","-12","","Clear"
"2011-03-28 08:00","2011","03","28","08:00","-4.5","","-10.5","","63","","31","","17","","24.1","","100.06","","","","-10","","Clear"
"2011-03-28 09:00","2011","03","28","09:00","-2.7","","-10.5","","55","","32","","17","","24.1","","100.06","","","","-8","","Clear"
"2011-03-28 10:00","2011","03","28","10:00","-1.8","","-11.1","","49","","34","","15","","24.1","","100.04","","","","-7","","Clear"
"2011-03-28 11:00","2011","03","28","11:00","-0.5","","-11.5","","43","","31","","24","","24.1","","100.01","","","","-6","","Clear"
"2011-03-28 12:00","2011","03","28","12:00","0.1","","-11.3","","42","","29","","30","","24.1","","99.95","","","","","","Clear"
"2011-03-28 13:00","2011","03","28","13:00","1.2","","-10.1","","43","","30","","22","","24.1","","99.91","","","","","","Clear"
"2011-03-28 14:00","2011","03","28","14:00","1.5","","-11.0","","39","","29","","28","","24.1","","99.85","","","","","","Clear"
"2011-03-28 15:00","2011","03","28","15:00","2.2","","-12.0","","34","","29","","22","","24.1","","99.85","","","","","","Clear"
"2011-03-28 16:00","2011","03","28","16:00","2.2","","-12.0","","34","","32","","32","","24.1","","99.85","","","","","","Clear"
"2011-03-28 17:00","2011","03","28","17:00","1.9","","-9.7","","42","","30","","32","","24.1","","99.86","","","","","","Clear"
"2011-03-28 18:00","2011","03","28","18:00","0.4","","-11.9","","39","","31","","33","","24.1","","99.89","","","","","","Clear"
"2011-03-28 19:00","2011","03","28","19:00","-1.1","","-11.3","","46","","29","","22","","24.1","","99.92","","","","-7","","Mainly Clear"
"2011-03-28 20:00","2011","03","28","20:00","-2.0","","-11.5","","48","","30","","19","","24.1","","99.96","","","","-8","","Mainly Clear"
"2011-03-28 21:00","2011","03","28","21:00","-2.8","","-11.3","","52","","30","","20","","24.1","","99.99","","","","-9","","Clear"
"2011-03-28 22:00","2011","03","28","22:00","-3.6","","-11.1","","56","","31","","19","","24.1","","99.99","","","","-10","","Clear"
"2011-03-28 23:00","2011","03","28","23:00","-4.1","","-11.1","","58","","32","","19","","24.1","","100.01","","","","-10","","Clear"
"2011-03-29 00:00","2011","03","29","00:00","-4.7","","-10.8","","62","","31","","13","","24.1","","100.01","","","","-10","","Clear"
"2011-03-29 01:00","2011","03","29","01:00","-4.8","","-10.4","","65","","29","","15","","24.1","","100.02","","","","-10","","Clear"
"2011-03-29 02:00","2011","03","29","02:00","-5.1","","-9.9","","69","","29","","13","","24.1","","100.01","","","","-10","","Clear"
"2011-03-29 03:00","2011","03","29","03:00","-5.6","","-9.3","","75","","28","","13","","24.1","","100.01","","","","-11","","Clear"
"2011-03-29 04:00","2011","03","29","04:00","-6.7","","-9.4","","81","","27","","13","","24.1","","100.04","","","","-12","","Clear"
"2011-03-29 05:00","2011","03","29","05:00","-6.1","","-9.2","","79","","27","","17","","24.1","","100.05","","","","-12","","Mainly Clear"
"2011-03-29 06:00","2011","03","29","06:00","-4.9","","-8.0","","79","","29","","15","","24.1","","100.15","","","","-10","","Mainly Clear"
"2011-03-29 07:00","2011","03","29","07:00","-2.9","","-7.0","","73","","32","","17","","24.1","","100.20","","","","-8","","Mainly Clear"
"2011-03-29 08:00","2011","03","29","08:00","-1.0","","-6.5","","66","","29","","19","","24.1","","100.28","","","","-6","","Mainly Clear"
"2011-03-29 09:00","2011","03","29","09:00","1.1","","-6.6","","56","","30","","19","","24.1","","100.28","","","","","","Mainly Clear"
"2011-03-29 10:00","2011","03","29","10:00","2.4","","-7.2","","49","","33","","19","","24.1","","100.27","","","","","","Mainly Clear"
"2011-03-29 11:00","2011","03","29","11:00","3.7","","-8.3","","41","","32","","19","","24.1","","100.27","","","","","","Mainly Clear"
"2011-03-29 12:00","2011","03","29","12:00","4.6","","-7.2","","42","","32","","24","","24.1","","100.26","","","","","","Mostly Cloudy"
"2011-03-29 13:00","2011","03","29","13:00","4.3","","-8.0","","40","","32","","13","","24.1","","100.26","","","","","","Mostly Cloudy"
"2011-03-29 14:00","2011","03","29","14:00","5.6","","-6.7","","41","","31","","22","","24.1","","100.20","","","","","","Mostly Cloudy"
"2011-03-29 15:00","2011","03","29","15:00","6.1","","-6.7","","39","","30","","19","","24.1","","100.17","","","","","","Mostly Cloudy"
"2011-03-29 16:00","2011","03","29","16:00","5.9","","-6.7","","40","","30","","19","","24.1","","100.14","","","","","","Mainly Clear"
"2011-03-29 17:00","2011","03","29","17:00","5.5","","-6.7","","41","","30","","20","","24.1","","100.15","","","","","","Mainly Clear"
"2011-03-29 18:00","2011","03","29","18:00","4.5","","-7.4","","42","","30","","22","","24.1","","100.16","","","","","","Mainly Clear"
"2011-03-29 19:00","2011","03","29","19:00","2.0","","-5.9","","56","","36","","22","","24.1","","100.17","","","","","","Mainly Clear"
"2011-03-29 20:00","2011","03","29","20:00","0.5","","-6.3","","60","","36","","19","","24.1","","100.25","","","","","","Mainly Clear"
"2011-03-29 21:00","2011","03","29","21:00","-0.1","","-6.3","","63","","36","","15","","24.1","","100.27","","","","-5","","Mainly Clear"
"2011-03-29 22:00","2011","03","29","22:00","-0.4","","-6.5","","63","","35","","17","","24.1","","100.23","","","","-5","","Mainly Clear"
"2011-03-29 23:00","2011","03","29","23:00","-1.1","","-6.7","","66","","36","","19","","24.1","","100.21","","","","-6","","Clear"
"2011-03-30 00:00","2011","03","30","00:00","-2.1","","-6.6","","71","","31","","11","","24.1","","100.26","","","","-6","","Clear"
"2011-03-30 01:00","2011","03","30","01:00","-2.3","","-6.7","","72","","30","","4","","24.1","","100.25","","","","-4","","Mainly Clear"
"2011-03-30 02:00","2011","03","30","02:00","-2.3","","-7.2","","69","","29","","6","","24.1","","100.22","","","","-5","","Mainly Clear"
"2011-03-30 03:00","2011","03","30","03:00","-2.9","","-7.5","","71","","30","","7","","24.1","","100.16","","","","-6","","Mainly Clear"
"2011-03-30 04:00","2011","03","30","04:00","-3.5","","-7.6","","73","","36","","7","","24.1","","100.13","","","","-6","","Mainly Clear"
"2011-03-30 05:00","2011","03","30","05:00","-4.3","","-8.2","","74","","33","","7","","24.1","","100.16","","","","-7","","Mainly Clear"
"2011-03-30 06:00","2011","03","30","06:00","-3.1","","-7.4","","72","","33","","11","","24.1","","100.20","","","","-7","","Mainly Clear"
"2011-03-30 07:00","2011","03","30","07:00","-1.5","","-6.7","","68","","34","","11","","24.1","","100.20","","","","-5","","Clear"
"2011-03-30 08:00","2011","03","30","08:00","-0.4","","-6.3","","64","","34","","7","","24.1","","100.10","","","","-3","","Clear"
"2011-03-30 09:00","2011","03","30","09:00","2.0","","-5.5","","58","","5","","6","","24.1","","100.02","","","","","","Mainly Clear"
"2011-03-30 10:00","2011","03","30","10:00","4.1","","-6.0","","48","","12","","7","","24.1","","99.99","","","","","","Mainly Clear"
"2011-03-30 11:00","2011","03","30","11:00","5.6","","-4.6","","48","","12","","6","","24.1","","99.90","","","","","","Mainly Clear"
"2011-03-30 12:00","2011","03","30","12:00","5.7","","-4.3","","49","","14","","17","","24.1","","99.82","","","","","","Mostly Cloudy"
"2011-03-30 13:00","2011","03","30","13:00","5.9","","-4.5","","47","","11","","19","","24.1","","99.68","","","","","","Mostly Cloudy"
"2011-03-30 14:00","2011","03","30","14:00","6.7","","-5.6","","41","","12","","20","","24.1","","99.53","","","","","","Mostly Cloudy"
"2011-03-30 15:00","2011","03","30","15:00","6.1","","-7.1","","38","","12","","20","","24.1","","99.50","","","","","","Mostly Cloudy"
"2011-03-30 16:00","2011","03","30","16:00","5.9","","-5.9","","42","","12","","17","","24.1","","99.41","","","","","","Mostly Cloudy"
"2011-03-30 17:00","2011","03","30","17:00","5.7","","-7.0","","40","","11","","11","","24.1","","99.39","","","","","","Cloudy"
"2011-03-30 18:00","2011","03","30","18:00","5.2","","-7.8","","38","","11","","11","","24.1","","99.35","","","","","","Mostly Cloudy"
"2011-03-30 19:00","2011","03","30","19:00","4.9","","-8.3","","38","","6","","13","","24.1","","99.31","","","","","","Mostly Cloudy"
"2011-03-30 20:00","2011","03","30","20:00","4.7","","-8.9","","37","","8","","7","","24.1","","99.34","","","","","","Cloudy"
"2011-03-30 21:00","2011","03","30","21:00","4.6","","-8.7","","37","","8","","7","","24.1","","99.34","","","","","","Cloudy"
"2011-03-30 22:00","2011","03","30","22:00","3.6","","-7.3","","45","","5","","6","","24.1","","99.29","","","","","","Cloudy"
"2011-03-30 23:00","2011","03","30","23:00","3.7","","-6.7","","47","","16","","7","","24.1","","99.26","","","","","","Cloudy"
"2011-03-31 00:00","2011","03","31","00:00","3.5","","-7.6","","44","","9","","6","","24.1","","99.19","","","","","","Cloudy"
"2011-03-31 01:00","2011","03","31","01:00","3.6","","-5.2","","53","","9","","7","","24.1","","99.14","","","","","","Cloudy"
"2011-03-31 02:00","2011","03","31","02:00","1.9","","-2.4","","73","","7","","13","","12.9","","99.09","","","","","","Rain Showers,Snow Showers"
"2011-03-31 03:00","2011","03","31","03:00","0.9","","-0.9","","88","","4","","7","","9.7","","99.05","","","","","","Snow Showers"
"2011-03-31 04:00","2011","03","31","04:00","1.3","","0.0","","91","","4","","15","","12.9","","99.02","","","","","","Snow Showers"
"2011-03-31 05:00","2011","03","31","05:00","0.5","","-0.3","","94","","4","","7","","12.9","","99.00","","","","","","Snow Showers"
"2011-03-31 06:00","2011","03","31","06:00","0.7","","0.0","","95","","1","","9","","6.4","","99.01","","","","","","Snow Showers,Fog"
"2011-03-31 07:00","2011","03","31","07:00","0.9","","0.2","","95","","4","","15","","6.4","","99.00","","","","","","Snow Showers,Fog"
"2011-03-31 08:00","2011","03","31","08:00","1.2","","0.1","","92","","4","","13","","16.1","","98.98","","","","","","Snow Showers"
"2011-03-31 09:00","2011","03","31","09:00","1.3","","0.1","","92","","1","","15","","16.1","","98.98","","","","","","Cloudy"
"2011-03-31 10:00","2011","03","31","10:00","1.6","","0.1","","90","","4","","11","","4.8","","98.96","","","","","","Snow Showers,Fog"
"2011-03-31 11:00","2011","03","31","11:00","2.2","","0.8","","90","","3","","11","","16.1","","98.92","","","","","","Rain Showers"
"2011-03-31 12:00","2011","03","31","12:00","2.6","","1.2","","90","","4","","11","","19.3","","98.83","","","","","","Drizzle"
"2011-03-31 13:00","2011","03","31","13:00","3.3","","0.8","","84","","4","","15","","24.1","","98.76","","","","","","Cloudy"
"2011-03-31 14:00","2011","03","31","14:00","3.6","","0.7","","81","","15","","6","","24.1","","98.71","","","","","","Cloudy"
"2011-03-31 15:00","2011","03","31","15:00","3.4","","1.6","","88","","16","","7","","24.1","","98.67","","","","","","Cloudy"
"2011-03-31 16:00","2011","03","31","16:00","2.7","","1.2","","90","","17","","13","","19.3","","98.67","","","","","","Cloudy"
"2011-03-31 17:00","2011","03","31","17:00","2.3","","1.0","","91","","16","","7","","19.3","","98.65","","","","","","Cloudy"
"2011-03-31 18:00","2011","03","31","18:00","2.5","","1.3","","92","","","","0","","19.3","","98.62","","","","","","Cloudy"
"2011-03-31 19:00","2011","03","31","19:00","2.4","","0.9","","90","","17","","4","","19.3","","98.59","","","","","","Cloudy"
"2011-03-31 20:00","2011","03","31","20:00","2.4","","1.0","","90","","16","","4","","19.3","","98.60","","","","","","Cloudy"
"2011-03-31 21:00","2011","03","31","21:00","1.7","","0.6","","92","","17","","7","","19.3","","98.61","","","","","","Cloudy"
"2011-03-31 22:00","2011","03","31","22:00","1.6","","0.8","","94","","18","","6","","16.1","","98.55","","","","","","Cloudy"
"2011-03-31 23:00","2011","03","31","23:00","1.7","","0.8","","94","","20","","4","","16.1","","98.53","","","","","","Cloudy"
