"Station Name","TORONTO INTL A"
"Province","ONTARIO"
"Latitude","43.68"
"Longitude","-79.63"
"Elevation","173.40"
"Climate Identifier","6158731"
"WMO Identifier","71624"
"TC Identifier","YYZ"
"All times are specified in Local Standard Time (LST). Add 1 hour to adjust for Daylight Saving Time where and when it is observed."

"Legend"
"E","Estimated"
"M","Missing"
"NA","Not Available"

"Date/Time","Year","Month","Day","Time","Temp (°C)","Temp Flag","Dew Point Temp (°C)","Dew Point Temp Flag","Rel Hum (%)","Rel Hum Flag","Wind Dir (10s deg)","Wind Dir Flag","Wind Spd (km/h)","Wind Spd Flag","Visibility (km)","Visibility Flag","Stn Press (kPa)","Stn Press Flag","Hmdx","Hmdx Flag","Wind Chill","Wind Chill Flag","Weather"
"2017-03-01 00:00","2017","03","01","00:00","8.1","","6.2","","88","","16","","12","","19.3","","98.43","","","","","","Rain Showers"
"2017-03-01 01:00","2017","03","01","01:00","7.7","","7.1","","96","","16","","8","","12.9","","98.34","","","","","","Thunderstorms,Moderate Rain Showers"
"2017-03-01 02:00","2017","03","01","02:00","9.3","","9.0","","98","","12","","13","","4.0","","98.08","","","","","","Rain,Fog"
"2017-03-01 03:00","2017","03","01","03:00","9.4","","9.1","","98","","15","","16","","4.8","","97.91","","","","","","Rain,Fog"
"2017-03-01 04:00","2017","03","01","04:00","9.3","","9.0","","98","","14","","8","","2.4","","97.68","","","","","","Rain,Fog"
"2017-03-01 05:00","2017","03","01","05:00","9.4","","9.1","","98","","15","","8","","0.4","","97.62","","","","","","Rain,Fog"
"2017-03-01 06:00","2017","03","01","06:00","9.6","","9.3","","98","","26","","5","","4.8","","97.57","","","","","","Rain,Fog"
"2017-03-01 07:00","2017","03","01","07:00","11.0","","10.7","","98","","16","","16","","12.9","","97.40","","","","","","Rain"
"2017-03-01 08:00","2017","03","01","08:00","10.7","","10.6","","99","","24","","11","","20.9","","97.32","","","","","","NA"
"2017-03-01 09:00","2017","03","01","09:00","11.5","","10.4","","93","","25","","20","","24.1","","97.42","","","","","","NA"
"2017-03-01 10:00","2017","03","01","10:00","12.8","","10.7","","87","","24","","26","","24.1","","97.30","","","","","","Mostly Cloudy"
"2017-03-01 11:00","2017","03","01","11:00","13.5","","9.6","","77","","23","","28","","24.1","","97.19","","","","","","NA"
"2017-03-01 12:00","2017","03","01","12:00","12.9","","9.2","","78","","23","","32","","24.1","","97.19","","","","","","NA"
"2017-03-01 13:00","2017","03","01","13:00","12.6","","9.5","","81","","22","","29","","24.1","","97.16","","","","","","Cloudy"
"2017-03-01 14:00","2017","03","01","14:00","11.9","","9.7","","86","","24","","37","","24.1","","97.12","","","","","","NA"
"2017-03-01 15:00","2017","03","01","15:00","13.1","","9.6","","79","","23","","32","","24.1","","97.00","","","","","","NA"
"2017-03-01 16:00","2017","03","01","16:00","13.1","","9.6","","79","","23","","41","","24.1","","96.94","","","","","","Cloudy"
"2017-03-01 17:00","2017","03","01","17:00","11.9","","10.2","","89","","23","","31","","11.3","","96.90","","","","","","Rain Showers"
"2017-03-01 18:00","2017","03","01","18:00","11.4","","9.0","","85","","22","","39","","24.1","","96.87","","","","","","NA"
"2017-03-01 19:00","2017","03","01","19:00","9.9","","6.8","","81","","26","","45","","24.1","","96.98","","","","","","Cloudy"
"2017-03-01 20:00","2017","03","01","20:00","6.0","","2.3","","77","","26","","58","","24.1","","97.19","","","","","","NA"
"2017-03-01 21:00","2017","03","01","21:00","3.7","","-0.5","","74","","27","","46","","24.1","","97.34","","","","","","NA"
"2017-03-01 22:00","2017","03","01","22:00","1.7","","-3.2","","70","","27","","56","","24.1","","97.50","","","","","","Cloudy"
"2017-03-01 23:00","2017","03","01","23:00","-0.3","","-5.1","","70","","28","","42","","24.1","","97.64","","","","-8","","NA"
"2017-03-02 00:00","2017","03","02","00:00","-1.6","","-7.4","","65","","29","","46","","24.1","","97.75","","","","-10","","Snow"
"2017-03-02 01:00","2017","03","02","01:00","-4.1","","-11.6","","56","","31","","52","","24.1","","98.00","","","","-14","","Mostly Cloudy"
"2017-03-02 02:00","2017","03","02","02:00","-6.1","","-13.1","","58","","31","","48","","24.1","","98.22","","","","-16","","NA"
"2017-03-02 03:00","2017","03","02","03:00","-6.7","","-14.1","","56","","31","","47","","24.1","","98.37","","","","-17","","NA"
"2017-03-02 04:00","2017","03","02","04:00","-6.8","","-13.8","","58","","31","","46","","24.1","","98.58","","","","-17","","Mainly Clear"
"2017-03-02 05:00","2017","03","02","05:00","-6.9","","-13.6","","59","","30","","45","","24.1","","98.77","","","","-17","","NA"
"2017-03-02 06:00","2017","03","02","06:00","-6.8","","-13.8","","58","","30","","35","","24.1","","98.93","","","","-16","","NA"
"2017-03-02 07:00","2017","03","02","07:00","-6.9","","-13.4","","60","","31","","34","","24.1","","99.09","","","","-16","","Cloudy"
"2017-03-02 08:00","2017","03","02","08:00","-7.3","","-13.6","","61","","30","","28","","24.1","","99.25","","","","-16","","NA"
"2017-03-02 09:00","2017","03","02","09:00","-6.7","","-13.7","","58","","30","","34","","24.1","","99.40","","","","-16","","NA"
"2017-03-02 10:00","2017","03","02","10:00","-6.1","","-13.8","","55","","30","","26","","24.1","","99.49","","","","-14","","Mostly Cloudy"
"2017-03-02 11:00","2017","03","02","11:00","-4.9","","-13.6","","51","","30","","27","","24.1","","99.56","","","","-12","","NA"
"2017-03-02 12:00","2017","03","02","12:00","-3.8","","-13.0","","49","","30","","30","","24.1","","99.61","","","","-11","","NA"
"2017-03-02 13:00","2017","03","02","13:00","-3.8","","-13.3","","48","","30","","31","","24.1","","99.62","","","","-12","","Mostly Cloudy"
"2017-03-02 14:00","2017","03","02","14:00","-3.2","","-12.2","","50","","27","","31","","24.1","","99.66","","","","-11","","NA"
"2017-03-02 15:00","2017","03","02","15:00","-2.9","","-13.8","","43","","30","","33","","24.1","","99.69","","","","-11","","NA"
"2017-03-02 16:00","2017","03","02","16:00","-2.8","","-13.5","","44","","29","","32","","24.1","","99.75","","","","-10","","Cloudy"
"2017-03-02 17:00","2017","03","02","17:00","-3.0","","-13.1","","46","","32","","27","","24.1","","99.81","","","","-10","","NA"
"2017-03-02 18:00","2017","03","02","18:00","-4.0","","-13.5","","48","","30","","32","","24.1","","99.90","","","","-12","","NA"
"2017-03-02 19:00","2017","03","02","19:00","-4.8","","-13.5","","51","","31","","27","","24.1","","100.03","","","","-12","","Mostly Cloudy"
"2017-03-02 20:00","2017","03","02","20:00","-5.8","","-14.4","","51","","31","","35","","24.1","","100.12","","","","-15","","NA"
"2017-03-02 21:00","2017","03","02","21:00","-6.1","","-13.3","","57","","31","","26","","24.1","","100.17","","","","-14","","NA"
"2017-03-02 22:00","2017","03","02","22:00","-6.0","","-13.2","","57","","30","","17","","24.1","","100.18","","","","-12","","Mostly Cloudy"
"2017-03-02 23:00","2017","03","02","23:00","-6.2","","-12.8","","60","","32","","16","","24.1","","100.17","","","","-12","","NA"
"2017-03-03 00:00","2017","03","03","00:00","-6.3","","-12.2","","63","","36","","10","","24.1","","100.13","","","","-11","","NA"
"2017-03-03 01:00","2017","03","03","01:00","-6.2","","-12.0","","64","","31","","6","","24.1","","100.15","","","","-9","","Cloudy"
"2017-03-03 02:00","2017","03","03","02:00","-6.7","","-12.2","","65","","36","","2","","24.1","","100.14","","","","-8","","NA"
"2017-03-03 03:00","2017","03","03","03:00","-6.2","","-11.0","","69","","23","","10","","24.1","","100.09","","","","-11","","NA"
"2017-03-03 04:00","2017","03","03","04:00","-6.1","","-11.1","","68","","24","","13","","24.1","","100.07","","","","-11","","Cloudy"
"2017-03-03 05:00","2017","03","03","05:00","-6.0","","-10.6","","70","","24","","11","","24.1","","100.08","","","","-11","","NA"
"2017-03-03 06:00","2017","03","03","06:00","-5.5","","-10.3","","69","","25","","17","","24.1","","100.10","","","","-12","","Snow"
"2017-03-03 07:00","2017","03","03","07:00","-5.8","","-9.2","","77","","28","","18","","19.3","","100.14","","","","-12","","Mostly Cloudy"
"2017-03-03 08:00","2017","03","03","08:00","-5.6","","-11.2","","65","","31","","31","","24.1","","100.24","","","","-14","","NA"
"2017-03-03 09:00","2017","03","03","09:00","-6.0","","-16.4","","44","","33","","48","","24.1","","100.35","","","","-16","","NA"
"2017-03-03 10:00","2017","03","03","10:00","-5.6","","-17.8","","38","","32","","44","","24.1","","100.46","","","","-15","","Mostly Cloudy"
"2017-03-03 11:00","2017","03","03","11:00","-5.6","","-18.1","","37","","32","","44","","24.1","","100.58","","","","-15","","NA"
"2017-03-03 12:00","2017","03","03","12:00","-6.6","","-16.2","","47","","34","","33","","24.1","","100.66","","","","-15","","NA"
"2017-03-03 13:00","2017","03","03","13:00","-7.3","","-14.4","","57","","33","","26","","24.1","","100.72","","","","-15","","Mostly Cloudy"
"2017-03-03 14:00","2017","03","03","14:00","-7.8","","-15.6","","54","","35","","30","","24.1","","100.78","","","","-17","","NA"
"2017-03-03 15:00","2017","03","03","15:00","-6.1","","-18.3","","38","","33","","35","","24.1","","100.84","","","","-15","","NA"
"2017-03-03 16:00","2017","03","03","16:00","-6.4","","-21.0","","31","","31","","36","","24.1","","100.90","","","","-16","","Mostly Cloudy"
"2017-03-03 17:00","2017","03","03","17:00","-7.0","","-20.8","","33","","32","","49","","24.1","","100.99","","","","-18","","NA"
"2017-03-03 18:00","2017","03","03","18:00","-7.9","","-19.3","","40","","33","","27","","24.1","","101.06","","","","-16","","NA"
"2017-03-03 19:00","2017","03","03","19:00","-8.2","","-17.4","","48","","32","","26","","24.1","","101.12","","","","-17","","Mostly Cloudy"
"2017-03-03 20:00","2017","03","03","20:00","-8.6","","-17.0","","51","","32","","19","","24.1","","101.13","","","","-16","","NA"
"2017-03-03 21:00","2017","03","03","21:00","-8.8","","-16.5","","54","","34","","9","","24.1","","101.16","","","","-13","","NA"
"2017-03-03 22:00","2017","03","03","22:00","-9.1","","-15.9","","58","","31","","7","","24.1","","101.17","","","","-13","","Mainly Clear"
"2017-03-03 23:00","2017","03","03","23:00","-9.5","","-14.6","","67","","27","","9","","24.1","","101.16","","","","-14","","NA"
"2017-03-04 00:00","2017","03","04","00:00","-8.7","","-13.4","","69","","27","","8","","19.3","","101.16","","","","-13","","Snow Showers"
"2017-03-04 01:00","2017","03","04","01:00","-8.2","","-12.2","","73","","27","","14","","19.3","","101.16","","","","-14","","Snow Showers"
"2017-03-04 02:00","2017","03","04","02:00","-8.2","","-11.4","","78","","31","","14","","19.3","","101.20","","","","-14","","Snow Showers"
"2017-03-04 03:00","2017","03","04","03:00","-7.9","","-14.0","","62","","31","","26","","24.1","","101.20","","","","-16","","NA"
"2017-03-04 04:00","2017","03","04","04:00","-8.0","","-13.7","","64","","31","","18","","24.1","","101.23","","","","-15","","Mostly Cloudy"
"2017-03-04 05:00","2017","03","04","05:00","-10.6","","-15.8","","66","","1","","36","","24.1","","101.37","","","","-21","","NA"
"2017-03-04 06:00","2017","03","04","06:00","-11.0","","-18.8","","53","","1","","26","","24.1","","101.46","","","","-20","","NA"
"2017-03-04 07:00","2017","03","04","07:00","-12.1","","-20.3","","51","","36","","26","","24.1","","101.59","","","","-22","","Mainly Clear"
"2017-03-04 08:00","2017","03","04","08:00","-12.1","","-20.3","","51","","36","","28","","24.1","","101.68","","","","-22","","NA"
"2017-03-04 09:00","2017","03","04","09:00","-11.9","","-22.1","","43","","35","","27","","24.1","","101.77","","","","-22","","NA"
"2017-03-04 10:00","2017","03","04","10:00","-11.8","","-23.2","","39","","34","","23","","24.1","","101.87","","","","-21","","Clear"
"2017-03-04 11:00","2017","03","04","11:00","-10.7","","-22.2","","39","","34","","24","","24.1","","101.90","","","","-19","","NA"
"2017-03-04 12:00","2017","03","04","12:00","-9.9","","-21.7","","38","","36","","18","","24.1","","101.90","","","","-17","","NA"
"2017-03-04 13:00","2017","03","04","13:00","-9.3","","-21.8","","36","","33","","14","","24.1","","101.89","","","","-16","","Clear"
"2017-03-04 14:00","2017","03","04","14:00","-8.3","","-20.9","","36","","2","","15","","24.1","","101.84","","","","-15","","NA"
"2017-03-04 15:00","2017","03","04","15:00","-7.3","","-20.0","","36","","36","","17","","24.1","","101.81","","","","-14","","NA"
"2017-03-04 16:00","2017","03","04","16:00","-7.2","","-20.6","","34","","1","","20","","24.1","","101.78","","","","-14","","Clear"
"2017-03-04 17:00","2017","03","04","17:00","-7.1","","-21.2","","32","","2","","17","","24.1","","101.75","","","","-14","","NA"
"2017-03-04 18:00","2017","03","04","18:00","-7.9","","-20.2","","37","","1","","17","","24.1","","101.79","","","","-15","","NA"
"2017-03-04 19:00","2017","03","04","19:00","-8.8","","-20.4","","39","","2","","17","","24.1","","101.83","","","","-16","","Clear"
"2017-03-04 20:00","2017","03","04","20:00","-9.8","","-21.3","","39","","1","","22","","24.1","","101.83","","","","-18","","NA"
"2017-03-04 21:00","2017","03","04","21:00","-10.3","","-20.7","","43","","2","","14","","24.1","","101.86","","","","-17","","NA"
"2017-03-04 22:00","2017","03","04","22:00","-10.6","","-19.4","","49","","2","","12","","24.1","","101.85","","","","-17","","Clear"
"2017-03-04 23:00","2017","03","04","23:00","-10.9","","-19.4","","50","","1","","8","","24.1","","101.86","","","","-16","","NA"
"2017-03-05 00:00","2017","03","05","00:00","-11.1","","-19.1","","52","","36","","5","","24.1","","101.90","","","","-14","","NA"
"2017-03-05 01:00","2017","03","05","01:00","-11.6","","-18.3","","58","","1","","7","","24.1","","101.89","","","","-16","","Clear"
"2017-03-05 02:00","2017","03","05","02:00","-11.7","","-18.4","","58","","2","","7","","24.1","","101.90","","","","-16","","NA"
"2017-03-05 03:00","2017","03","05","03:00","-12.2","","-18.1","","62","","33","","9","","24.1","","101.91","","","","-17","","NA"
"2017-03-05 04:00","2017","03","05","04:00","-12.1","","-18.2","","61","","1","","9","","24.1","","101.91","","","","-17","","Clear"
"2017-03-05 05:00","2017","03","05","05:00","-12.4","","-17.9","","64","","5","","12","","24.1","","101.84","","","","-19","","NA"
"2017-03-05 06:00","2017","03","05","06:00","-12.0","","-18.1","","61","","4","","10","","24.1","","101.82","","","","-18","","NA"
"2017-03-05 07:00","2017","03","05","07:00","-11.1","","-16.6","","64","","6","","15","","24.1","","101.82","","","","-18","","Clear"
"2017-03-05 08:00","2017","03","05","08:00","-9.1","","-14.2","","67","","7","","15","","24.1","","101.80","","","","-16","","NA"
"2017-03-05 09:00","2017","03","05","09:00","-6.8","","-13.3","","60","","8","","12","","24.1","","101.78","","","","-12","","NA"
"2017-03-05 10:00","2017","03","05","10:00","-5.8","","-12.4","","60","","13","","20","","24.1","","101.72","","","","-13","","Mostly Cloudy"
"2017-03-05 11:00","2017","03","05","11:00","-5.9","","-12.1","","62","","11","","22","","24.1","","101.69","","","","-13","","NA"
"2017-03-05 12:00","2017","03","05","12:00","-5.2","","-11.2","","63","","11","","27","","24.1","","101.61","","","","-13","","NA"
"2017-03-05 13:00","2017","03","05","13:00","-4.6","","-11.5","","59","","11","","22","","24.1","","101.53","","","","-11","","Mostly Cloudy"
"2017-03-05 14:00","2017","03","05","14:00","-3.5","","-11.3","","55","","11","","22","","24.1","","101.43","","","","-10","","NA"
"2017-03-05 15:00","2017","03","05","15:00","-3.3","","-11.8","","52","","11","","17","","24.1","","101.31","","","","-9","","NA"
"2017-03-05 16:00","2017","03","05","16:00","-3.2","","-12.0","","51","","8","","18","","24.1","","101.24","","","","-9","","Mostly Cloudy"
"2017-03-05 17:00","2017","03","05","17:00","-3.2","","-11.0","","55","","10","","18","","24.1","","101.15","","","","-9","","NA"
"2017-03-05 18:00","2017","03","05","18:00","-4.0","","-10.9","","59","","10","","16","","24.1","","101.11","","","","-10","","NA"
"2017-03-05 19:00","2017","03","05","19:00","-3.6","","-9.7","","63","","11","","19","","24.1","","101.02","","","","-10","","Mostly Cloudy"
"2017-03-05 20:00","2017","03","05","20:00","-2.7","","-9.0","","62","","11","","23","","24.1","","100.95","","","","-9","","NA"
"2017-03-05 21:00","2017","03","05","21:00","-2.6","","-8.1","","66","","11","","18","","24.1","","100.90","","","","-8","","NA"
"2017-03-05 22:00","2017","03","05","22:00","-2.2","","-8.7","","61","","11","","21","","24.1","","100.80","","","","-8","","Mainly Clear"
"2017-03-05 23:00","2017","03","05","23:00","-2.0","","-8.8","","60","","11","","14","","24.1","","100.75","","","","-7","","NA"
"2017-03-06 00:00","2017","03","06","00:00","-1.9","","-8.3","","62","","13","","5","","24.1","","100.75","","","","-4","","NA"
"2017-03-06 01:00","2017","03","06","01:00","-2.0","","-7.5","","66","","9","","9","","24.1","","100.63","","","","-5","","Mostly Cloudy"
"2017-03-06 02:00","2017","03","06","02:00","-1.3","","-6.7","","67","","10","","11","","24.1","","100.59","","","","-5","","NA"
"2017-03-06 03:00","2017","03","06","03:00","-0.9","","-6.7","","65","","11","","13","","24.1","","100.52","","","","-5","","NA"
"2017-03-06 04:00","2017","03","06","04:00","-0.3","","-6.1","","65","","11","","10","","24.1","","100.46","","","","-4","","Cloudy"
"2017-03-06 05:00","2017","03","06","05:00","0.0","","-5.8","","65","","10","","7","","24.1","","100.45","","","","-2","","NA"
"2017-03-06 06:00","2017","03","06","06:00","0.4","","-5.2","","66","","10","","13","","24.1","","100.41","","","","","","NA"
"2017-03-06 07:00","2017","03","06","07:00","0.6","","-5.2","","65","","10","","12","","24.1","","100.34","","","","","","Mostly Cloudy"
"2017-03-06 08:00","2017","03","06","08:00","1.4","","-5.3","","61","","9","","11","","24.1","","100.37","","","","","","NA"
"2017-03-06 09:00","2017","03","06","09:00","2.2","","-4.8","","60","","10","","13","","24.1","","100.33","","","","","","NA"
"2017-03-06 10:00","2017","03","06","10:00","3.1","","-3.7","","61","","11","","16","","24.1","","100.28","","","","","","Mostly Cloudy"
"2017-03-06 11:00","2017","03","06","11:00","5.6","","-3.7","","51","","13","","13","","24.1","","100.24","","","","","","NA"
"2017-03-06 12:00","2017","03","06","12:00","5.0","","-3.5","","54","","15","","10","","24.1","","100.21","","","","","","NA"
"2017-03-06 13:00","2017","03","06","13:00","4.3","","-2.8","","60","","11","","13","","24.1","","100.11","","","","","","Cloudy"
"2017-03-06 14:00","2017","03","06","14:00","5.0","","-3.5","","54","","16","","16","","24.1","","100.05","","","","","","NA"
"2017-03-06 15:00","2017","03","06","15:00","5.2","","-2.4","","58","","13","","11","","24.1","","100.01","","","","","","NA"
"2017-03-06 16:00","2017","03","06","16:00","6.1","","-0.9","","61","","15","","14","","24.1","","99.95","","","","","","Cloudy"
"2017-03-06 17:00","2017","03","06","17:00","4.5","","-1.5","","65","","14","","14","","24.1","","99.92","","","","","","NA"
"2017-03-06 18:00","2017","03","06","18:00","4.2","","-1.4","","67","","12","","6","","24.1","","99.91","","","","","","NA"
"2017-03-06 19:00","2017","03","06","19:00","3.9","","-1.1","","70","","10","","9","","24.1","","99.89","","","","","","Cloudy"
"2017-03-06 20:00","2017","03","06","20:00","4.3","","-0.9","","69","","10","","9","","24.1","","99.86","","","","","","NA"
"2017-03-06 21:00","2017","03","06","21:00","5.0","","0.2","","71","","9","","7","","24.1","","99.80","","","","","","NA"
"2017-03-06 22:00","2017","03","06","22:00","5.9","","3.2","","83","","12","","10","","9.7","","99.74","","","","","","Drizzle"
"2017-03-06 23:00","2017","03","06","23:00","5.9","","5.3","","96","","13","","9","","4.8","","99.67","","","","","","Drizzle,Fog"
"2017-03-07 00:00","2017","03","07","00:00","6.1","","5.7","","97","","14","","14","","3.2","","99.58","","","","","","Drizzle,Fog"
"2017-03-07 01:00","2017","03","07","01:00","6.3","","6.0","","98","","13","","13","","1.6","","99.52","","","","","","Drizzle,Fog"
"2017-03-07 02:00","2017","03","07","02:00","6.6","","6.3","","98","","14","","14","","0.2","","99.43","","","","","","Drizzle,Fog"
"2017-03-07 03:00","2017","03","07","03:00","6.9","","6.6","","98","","15","","13","","0.4","","99.36","","","","","","Drizzle,Fog"
"2017-03-07 04:00","2017","03","07","04:00","7.1","","6.8","","98","","15","","10","","0.8","","99.26","","","","","","Drizzle,Fog"
"2017-03-07 05:00","2017","03","07","05:00","7.4","","7.1","","98","","14","","12","","0.2","","99.20","","","","","","Drizzle,Fog"
"2017-03-07 06:00","2017","03","07","06:00","8.0","","7.7","","98","","16","","10","","0.8","","99.16","","","","","","Drizzle,Fog"
"2017-03-07 07:00","2017","03","07","07:00","8.0","","7.7","","98","","15","","10","","6.4","","99.12","","","","","","Drizzle,Fog"
"2017-03-07 08:00","2017","03","07","08:00","8.2","","7.9","","98","","15","","10","","6.4","","99.14","","","","","","Rain,Fog"
"2017-03-07 09:00","2017","03","07","09:00","8.7","","8.4","","98","","15","","13","","6.4","","99.10","","","","","","Rain,Fog"
"2017-03-07 10:00","2017","03","07","10:00","8.8","","8.5","","98","","16","","17","","12.9","","98.98","","","","","","Cloudy"
"2017-03-07 11:00","2017","03","07","11:00","11.4","","10.0","","91","","20","","28","","24.1","","98.91","","","","","","NA"
"2017-03-07 12:00","2017","03","07","12:00","12.3","","9.9","","85","","21","","31","","24.1","","98.84","","","","","","Rain Showers"
"2017-03-07 13:00","2017","03","07","13:00","12.4","","10.2","","86","","21","","28","","19.3","","98.80","","","","","","Rain Showers"
"2017-03-07 14:00","2017","03","07","14:00","12.9","","11.0","","88","","20","","18","","19.3","","98.67","","","","","","Rain Showers"
"2017-03-07 15:00","2017","03","07","15:00","13.1","","10.7","","85","","22","","27","","24.1","","98.72","","","","","","NA"
"2017-03-07 16:00","2017","03","07","16:00","13.2","","10.4","","83","","22","","24","","24.1","","98.71","","","","","","Cloudy"
"2017-03-07 17:00","2017","03","07","17:00","12.1","","10.7","","91","","21","","19","","19.3","","98.71","","","","","","NA"
"2017-03-07 18:00","2017","03","07","18:00","11.8","","9.4","","85","","20","","13","","19.3","","98.72","","","","","","NA"
"2017-03-07 19:00","2017","03","07","19:00","9.1","","5.7","","79","","27","","22","","16.1","","98.86","","","","","","Rain"
"2017-03-07 20:00","2017","03","07","20:00","8.4","","3.5","","71","","27","","19","","24.1","","98.86","","","","","","NA"
"2017-03-07 21:00","2017","03","07","21:00","7.0","","2.5","","73","","25","","16","","24.1","","98.93","","","","","","NA"
"2017-03-07 22:00","2017","03","07","22:00","6.5","","1.0","","68","","25","","20","","24.1","","99.04","","","","","","Cloudy"
"2017-03-07 23:00","2017","03","07","23:00","5.9","","0.3","","67","","26","","22","","24.1","","99.07","","","","","","NA"
"2017-03-08 00:00","2017","03","08","00:00","5.7","","-0.8","","63","","26","","22","","24.1","","99.05","","","","","","NA"
"2017-03-08 01:00","2017","03","08","01:00","5.0","","-1.2","","64","","25","","22","","24.1","","99.07","","","","","","Cloudy"
"2017-03-08 02:00","2017","03","08","02:00","3.7","","-2.1","","66","","26","","21","","24.1","","99.10","","","","","","NA"
"2017-03-08 03:00","2017","03","08","03:00","2.9","","-2.8","","66","","24","","16","","24.1","","99.11","","","","","","NA"
"2017-03-08 04:00","2017","03","08","04:00","3.3","","-4.0","","59","","23","","18","","24.1","","99.08","","","","","","Clear"
"2017-03-08 05:00","2017","03","08","05:00","3.4","","-4.1","","58","","22","","25","","24.1","","99.04","","","","","","NA"
"2017-03-08 06:00","2017","03","08","06:00","3.2","","-4.1","","59","","22","","22","","24.1","","98.99","","","","","","NA"
"2017-03-08 07:00","2017","03","08","07:00","3.6","","-3.7","","59","","22","","24","","24.1","","98.97","","","","","","Mainly Clear"
"2017-03-08 08:00","2017","03","08","08:00","4.8","","-2.5","","59","","22","","33","","24.1","","98.86","","","","","","NA"
"2017-03-08 09:00","2017","03","08","09:00","6.0","","-1.6","","58","","22","","28","","24.1","","98.72","","","","","","NA"
"2017-03-08 10:00","2017","03","08","10:00","7.6","","-2.2","","50","","23","","34","","24.1","","98.65","","","","","","Mainly Clear"
"2017-03-08 11:00","2017","03","08","11:00","8.4","","-5.1","","38","","24","","54","","24.1","","98.55","","","","","","NA"
"2017-03-08 12:00","2017","03","08","12:00","9.5","","-6.0","","33","","24","","53","","24.1","","98.45","","","","","","NA"
"2017-03-08 13:00","2017","03","08","13:00","9.5","","-4.1","","38","","25","","50","","24.1","","98.36","","","","","","Mostly Cloudy"
"2017-03-08 14:00","2017","03","08","14:00","7.9","","-5.6","","38","","25","","50","","24.1","","98.30","","","","","","NA"
"2017-03-08 15:00","2017","03","08","15:00","8.1","","-5.4","","38","","28","","48","","24.1","","98.36","","","","","","NA"
"2017-03-08 16:00","2017","03","08","16:00","8.1","","-5.4","","38","","25","","50","","24.1","","98.45","","","","","","Mostly Cloudy"
"2017-03-08 17:00","2017","03","08","17:00","6.3","","-7.4","","37","","28","","51","","24.1","","98.53","","","","","","NA"
"2017-03-08 18:00","2017","03","08","18:00","5.3","","-6.0","","44","","28","","45","","24.1","","98.66","","","","","","NA"
"2017-03-08 19:00","2017","03","08","19:00","3.9","","-5.6","","50","","27","","31","","24.1","","98.73","","","","","","Mostly Cloudy"
"2017-03-08 20:00","2017","03","08","20:00","3.6","","-6.1","","49","","27","","25","","24.1","","98.76","","","","","","NA"
"2017-03-08 21:00","2017","03","08","21:00","3.5","","-6.0","","50","","28","","36","","24.1","","98.88","","","","","","NA"
"2017-03-08 22:00","2017","03","08","22:00","2.8","","-8.6","","43","","28","","39","","24.1","","98.95","","","","","","Mainly Clear"
"2017-03-08 23:00","2017","03","08","23:00","2.3","","-9.4","","42","","27","","42","","24.1","","98.99","","","","","","NA"
"2017-03-09 00:00","2017","03","09","00:00","1.6","","-8.5","","47","","28","","30","","24.1","","99.05","","","","","","NA"
"2017-03-09 01:00","2017","03","09","01:00","0.9","","-8.9","","48","","28","","38","","24.1","","99.18","","","","","","Mostly Cloudy"
"2017-03-09 02:00","2017","03","09","02:00","0.0","","-9.8","","48","","30","","34","","24.1","","99.31","","","","-7","","NA"
"2017-03-09 03:00","2017","03","09","03:00","-1.2","","-8.5","","58","","30","","30","","24.1","","99.36","","","","-8","","NA"
"2017-03-09 04:00","2017","03","09","04:00","-1.7","","-8.1","","62","","30","","22","","24.1","","99.39","","","","-8","","Mainly Clear"
"2017-03-09 05:00","2017","03","09","05:00","-1.8","","-8.2","","62","","30","","23","","24.1","","99.46","","","","-8","","NA"
"2017-03-09 06:00","2017","03","09","06:00","-1.8","","-8.4","","61","","29","","24","","24.1","","99.53","","","","-8","","NA"
"2017-03-09 07:00","2017","03","09","07:00","-1.2","","-9.9","","52","","31","","24","","24.1","","99.60","","","","-7","","Mainly Clear"
"2017-03-09 08:00","2017","03","09","08:00","-1.0","","-9.4","","53","","29","","37","","24.1","","99.67","","","","-8","","NA"
"2017-03-09 09:00","2017","03","09","09:00","-0.6","","-10.6","","47","","29","","31","","24.1","","99.73","","","","-7","","NA"
"2017-03-09 10:00","2017","03","09","10:00","0.2","","-9.8","","47","","29","","34","","24.1","","99.75","","","","","","Mostly Cloudy"
"2017-03-09 11:00","2017","03","09","11:00","0.1","","-9.7","","48","","29","","30","","24.1","","99.84","","","","","","NA"
"2017-03-09 12:00","2017","03","09","12:00","1.1","","-9.6","","45","","28","","25","","24.1","","99.80","","","","","","NA"
"2017-03-09 13:00","2017","03","09","13:00","1.8","","-9.5","","43","","29","","25","","24.1","","99.73","","","","","","Mostly Cloudy"
"2017-03-09 14:00","2017","03","09","14:00","2.3","","-8.8","","44","","27","","32","","24.1","","99.70","","","","","","NA"
"2017-03-09 15:00","2017","03","09","15:00","2.0","","-8.7","","45","","26","","26","","24.1","","99.71","","","","","","NA"
"2017-03-09 16:00","2017","03","09","16:00","1.8","","-8.9","","45","","27","","25","","24.1","","99.72","","","","","","Mostly Cloudy"
"2017-03-09 17:00","2017","03","09","17:00","1.7","","-8.7","","46","","29","","25","","24.1","","99.70","","","","","","NA"
"2017-03-09 18:00","2017","03","09","18:00","0.5","","-9.3","","48","","28","","26","","24.1","","99.71","","","","","","NA"
"2017-03-09 19:00","2017","03","09","19:00","0.2","","-9.1","","50","","28","","17","","24.1","","99.77","","","","","","Mostly Cloudy"
"2017-03-09 20:00","2017","03","09","20:00","-0.3","","-9.0","","52","","27","","14","","24.1","","99.79","","","","-5","","NA"
"2017-03-09 21:00","2017","03","09","21:00","-0.5","","-9.5","","51","","29","","9","","24.1","","99.78","","","","-4","","NA"
"2017-03-09 22:00","2017","03","09","22:00","-0.8","","-9.0","","54","","29","","9","","24.1","","99.74","","","","-4","","Mostly Cloudy"
"2017-03-09 23:00","2017","03","09","23:00","-1.4","","-8.6","","58","","28","","9","","24.1","","99.67","","","","-5","","NA"
"2017-03-10 00:00","2017","03","10","00:00","-1.5","","-8.5","","59","","32","","13","","24.1","","99.61","","","","-6","","NA"
"2017-03-10 01:00","2017","03","10","01:00","-1.3","","-8.8","","57","","34","","18","","24.1","","99.57","","","","-7","","Mostly Cloudy"
"2017-03-10 02:00","2017","03","10","02:00","-2.0","","-8.3","","62","","34","","20","","24.1","","99.49","","","","-8","","NA"
"2017-03-10 03:00","2017","03","10","03:00","-2.2","","-9.0","","60","","36","","26","","24.1","","99.43","","","","-9","","NA"
"2017-03-10 04:00","2017","03","10","04:00","-3.2","","-9.1","","64","","35","","23","","24.1","","99.44","","","","-10","","Mostly Cloudy"
"2017-03-10 05:00","2017","03","10","05:00","-3.5","","-10.9","","57","","32","","32","","24.1","","99.50","","","","-11","","NA"
"2017-03-10 06:00","2017","03","10","06:00","-4.2","","-12.0","","55","","32","","32","","24.1","","99.58","","","","-12","","NA"
"2017-03-10 07:00","2017","03","10","07:00","-5.1","","-12.6","","56","","32","","25","","24.1","","99.62","","","","-12","","Mainly Clear"
"2017-03-10 08:00","2017","03","10","08:00","-5.4","","-12.2","","59","","34","","36","","24.1","","99.67","","","","-14","","NA"
"2017-03-10 09:00","2017","03","10","09:00","-4.8","","-13.0","","53","","33","","33","","24.1","","99.70","","","","-13","","NA"
"2017-03-10 10:00","2017","03","10","10:00","-4.9","","-13.8","","50","","33","","33","","24.1","","99.72","","","","-13","","Cloudy"
"2017-03-10 11:00","2017","03","10","11:00","-4.9","","-15.1","","45","","33","","41","","24.1","","99.73","","","","-14","","NA"
"2017-03-10 12:00","2017","03","10","12:00","-4.6","","-16.3","","40","","32","","39","","24.1","","99.74","","","","-13","","NA"
"2017-03-10 13:00","2017","03","10","13:00","-5.8","","-18.6","","36","","31","","51","","24.1","","99.76","","","","-16","","Mostly Cloudy"
"2017-03-10 14:00","2017","03","10","14:00","-5.5","","-19.1","","34","","31","","51","","24.1","","99.76","","","","-16","","NA"
"2017-03-10 15:00","2017","03","10","15:00","-7.4","","-19.8","","37","","31","","56","","24.1","","99.85","","","","-19","","NA"
"2017-03-10 16:00","2017","03","10","16:00","-8.2","","-16.9","","50","","32","","58","","9.7","","99.90","","","","-20","","Snow Showers"
"2017-03-10 17:00","2017","03","10","17:00","-9.1","","-21.0","","38","","31","","52","","24.1","","99.97","","","","-21","","NA"
"2017-03-10 18:00","2017","03","10","18:00","-9.6","","-20.0","","43","","31","","48","","24.1","","100.02","","","","-21","","NA"
"2017-03-10 19:00","2017","03","10","19:00","-9.9","","-19.5","","46","","31","","33","","24.1","","100.06","","","","-20","","Mainly Clear"
"2017-03-10 20:00","2017","03","10","20:00","-10.1","","-18.2","","52","","31","","24","","24.1","","100.09","","","","-19","","NA"
"2017-03-10 21:00","2017","03","10","21:00","-9.9","","-17.3","","55","","30","","33","","24.1","","100.10","","","","-20","","NA"
"2017-03-10 22:00","2017","03","10","22:00","-9.7","","-15.5","","63","","30","","22","","24.1","","100.09","","","","-18","","Snow"
"2017-03-10 23:00","2017","03","10","23:00","-9.6","","-14.6","","67","","30","","17","","12.9","","100.10","","","","-17","","Snow"
"2017-03-11 00:00","2017","03","11","00:00","-9.2","","-16.7","","55","","31","","30","","19.3","","100.06","","","","-18","","NA"
"2017-03-11 01:00","2017","03","11","01:00","-9.3","","-17.0","","54","","30","","27","","19.3","","100.05","","","","-18","","Mostly Cloudy"
"2017-03-11 02:00","2017","03","11","02:00","-9.2","","-17.6","","51","","30","","27","","24.1","","100.05","","","","-18","","NA"
"2017-03-11 03:00","2017","03","11","03:00","-12.1","","-16.7","","69","","4","","16","","24.1","","100.11","","","","-20","","NA"
"2017-03-11 04:00","2017","03","11","04:00","-12.5","","-16.9","","70","","6","","8","","19.3","","100.14","","","","-17","","Snow"
"2017-03-11 05:00","2017","03","11","05:00","-12.8","","-20.1","","55","","34","","10","","19.3","","100.19","","","","-19","","Snow"
"2017-03-11 06:00","2017","03","11","06:00","-12.9","","-20.4","","54","","2","","9","","24.1","","100.24","","","","-18","","NA"
"2017-03-11 07:00","2017","03","11","07:00","-13.3","","-19.5","","60","","1","","10","","24.1","","100.28","","","","-19","","Mainly Clear"
"2017-03-11 08:00","2017","03","11","08:00","-12.5","","-17.8","","65","","36","","11","","24.1","","100.34","","","","-19","","NA"
"2017-03-11 09:00","2017","03","11","09:00","-11.7","","-18.2","","59","","33","","10","","24.1","","100.34","","","","-17","","NA"
"2017-03-11 10:00","2017","03","11","10:00","-9.8","","-17.7","","53","","26","","16","","24.1","","100.33","","","","-17","","Mainly Clear"
"2017-03-11 11:00","2017","03","11","11:00","-7.3","","-20.7","","34","","30","","41","","24.1","","100.32","","","","-17","","NA"
"2017-03-11 12:00","2017","03","11","12:00","-7.0","","-19.7","","36","","31","","37","","24.1","","100.34","","","","-16","","NA"
"2017-03-11 13:00","2017","03","11","13:00","-7.1","","-17.2","","45","","31","","37","","24.1","","100.36","","","","-17","","Mostly Cloudy"
"2017-03-11 14:00","2017","03","11","14:00","-7.2","","-17.0","","46","","31","","41","","24.1","","100.34","","","","-17","","NA"
"2017-03-11 15:00","2017","03","11","15:00","-7.1","","-18.3","","41","","30","","49","","16.1","","100.35","","","","-18","","NA"
"2017-03-11 16:00","2017","03","11","16:00","-6.6","","-16.4","","46","","29","","42","","24.1","","100.37","","","","-16","","Mostly Cloudy"
"2017-03-11 17:00","2017","03","11","17:00","-7.1","","-15.4","","52","","32","","47","","24.1","","100.39","","","","-18","","Snow Showers"
"2017-03-11 18:00","2017","03","11","18:00","-7.6","","-17.1","","47","","31","","39","","24.1","","100.45","","","","-17","","NA"
"2017-03-11 19:00","2017","03","11","19:00","-8.1","","-16.3","","52","","30","","34","","24.1","","100.48","","","","-18","","Cloudy"
"2017-03-11 20:00","2017","03","11","20:00","-8.3","","-15.8","","55","","32","","26","","24.1","","100.54","","","","-17","","NA"
"2017-03-11 21:00","2017","03","11","21:00","-9.1","","-15.1","","62","","36","","13","","24.1","","100.57","","","","-15","","NA"
"2017-03-11 22:00","2017","03","11","22:00","-9.9","","-15.1","","66","","3","","14","","24.1","","100.63","","","","-16","","Cloudy"
"2017-03-11 23:00","2017","03","11","23:00","-10.7","","-15.9","","66","","5","","13","","24.1","","100.67","","","","-17","","NA"
"2017-03-12 00:00","2017","03","12","00:00","-10.7","","-16.1","","65","","5","","12","","24.1","","100.66","","","","-17","","NA"
"2017-03-12 01:00","2017","03","12","01:00","-11.0","","-16.4","","65","","3","","16","","24.1","","100.66","","","","-18","","Cloudy"
"2017-03-12 02:00","2017","03","12","02:00","-11.5","","-18.0","","59","","2","","22","","24.1","","100.71","","","","-20","","NA"
"2017-03-12 03:00","2017","03","12","03:00","-11.7","","-19.0","","55","","2","","18","","24.1","","100.71","","","","-20","","NA"
"2017-03-12 04:00","2017","03","12","04:00","-12.3","","-20.0","","53","","2","","23","","24.1","","100.75","","","","-21","","Mainly Clear"
"2017-03-12 05:00","2017","03","12","05:00","-13.1","","-23.5","","42","","2","","16","","24.1","","100.79","","","","-21","","NA"
"2017-03-12 06:00","2017","03","12","06:00","-13.4","","-23.8","","42","","36","","14","","24.1","","100.81","","","","-21","","NA"
"2017-03-12 07:00","2017","03","12","07:00","-13.1","","-23.2","","43","","35","","16","","24.1","","100.84","","","","-21","","Mostly Cloudy"
"2017-03-12 08:00","2017","03","12","08:00","-12.7","","-21.8","","47","","1","","16","","24.1","","100.87","","","","-20","","NA"
"2017-03-12 09:00","2017","03","12","09:00","-11.9","","-21.1","","47","","36","","12","","24.1","","100.91","","","","-18","","NA"
"2017-03-12 10:00","2017","03","12","10:00","-11.0","","-20.0","","48","","28","","13","","24.1","","100.86","","","","-17","","Mainly Clear"
"2017-03-12 11:00","2017","03","12","11:00","-9.1","","-19.0","","45","","26","","3","","24.1","","100.86","","","","-11","","NA"
"2017-03-12 12:00","2017","03","12","12:00","-8.1","","-18.1","","45","","31","","4","","24.1","","100.83","","","","-10","","NA"
"2017-03-12 13:00","2017","03","12","13:00","-6.7","","-15.7","","49","","29","","25","","24.1","","100.84","","","","-15","","Mostly Cloudy"
"2017-03-12 14:00","2017","03","12","14:00","-5.4","","-17.3","","39","","30","","29","","24.1","","100.78","","","","-13","","NA"
"2017-03-12 15:00","2017","03","12","15:00","-5.2","","-18.4","","35","","28","","30","","24.1","","100.78","","","","-13","","NA"
"2017-03-12 16:00","2017","03","12","16:00","-5.1","","-17.4","","38","","29","","33","","24.1","","100.78","","","","-13","","Mainly Clear"
"2017-03-12 17:00","2017","03","12","17:00","-5.6","","-17.5","","39","","29","","30","","24.1","","100.83","","","","-14","","NA"
"2017-03-12 18:00","2017","03","12","18:00","-6.8","","-17.4","","43","","28","","25","","24.1","","100.90","","","","-15","","NA"
"2017-03-12 19:00","2017","03","12","19:00","-7.5","","-17.3","","46","","30","","23","","24.1","","100.99","","","","-15","","Clear"
"2017-03-12 20:00","2017","03","12","20:00","-8.3","","-17.2","","49","","30","","28","","24.1","","100.98","","","","-17","","NA"
"2017-03-12 21:00","2017","03","12","21:00","-8.8","","-17.2","","51","","32","","14","","24.1","","100.99","","","","-15","","NA"
"2017-03-12 22:00","2017","03","12","22:00","-9.3","","-17.2","","53","","29","","16","","24.1","","101.03","","","","-16","","Clear"
"2017-03-12 23:00","2017","03","12","23:00","-10.8","","-16.9","","61","","27","","10","","24.1","","101.04","","","","-16","","NA"
"2017-03-13 00:00","2017","03","13","00:00","-10.3","","-16.5","","61","","35","","13","","24.1","","101.07","","","","-17","","NA"
"2017-03-13 01:00","2017","03","13","01:00","-11.3","","-17.0","","63","","4","","10","","24.1","","101.10","","","","-17","","Clear"
"2017-03-13 02:00","2017","03","13","02:00","-10.9","","-17.4","","59","","4","","7","","24.1","","101.13","","","","-15","","NA"
"2017-03-13 03:00","2017","03","13","03:00","-10.7","","-19.0","","51","","4","","12","","24.1","","101.07","","","","-17","","NA"
"2017-03-13 04:00","2017","03","13","04:00","-10.7","","-19.7","","48","","5","","12","","24.1","","101.03","","","","-17","","Cloudy"
"2017-03-13 05:00","2017","03","13","05:00","-10.6","","-20.9","","43","","7","","12","","24.1","","101.07","","","","-17","","NA"
"2017-03-13 06:00","2017","03","13","06:00","-10.3","","-22.4","","37","","7","","9","","24.1","","101.13","","","","-15","","NA"
"2017-03-13 07:00","2017","03","13","07:00","-10.2","","-23.0","","35","","6","","11","","24.1","","101.14","","","","-16","","Mostly Cloudy"
"2017-03-13 08:00","2017","03","13","08:00","-9.5","","-21.1","","39","","6","","10","","24.1","","101.12","","","","-15","","NA"
"2017-03-13 09:00","2017","03","13","09:00","-8.5","","-18.5","","45","","6","","15","","24.1","","101.00","","","","-15","","NA"
"2017-03-13 10:00","2017","03","13","10:00","-7.5","","-16.2","","50","","9","","18","","24.1","","100.95","","","","-14","","Cloudy"
"2017-03-13 11:00","2017","03","13","11:00","-7.0","","-13.1","","62","","7","","12","","8.1","","100.94","","","","-12","","Snow"
"2017-03-13 12:00","2017","03","13","12:00","-6.1","","-11.3","","67","","7","","17","","6.4","","100.89","","","","-12","","Snow"
"2017-03-13 13:00","2017","03","13","13:00","-6.5","","-9.6","","79","","8","","16","","1.6","","100.79","","","","-13","","Snow"
"2017-03-13 14:00","2017","03","13","14:00","-7.0","","-10.4","","77","","8","","22","","1.6","","100.72","","","","-14","","Snow"
"2017-03-13 15:00","2017","03","13","15:00","-7.5","","-11.9","","71","","4","","23","","4.8","","100.69","","","","-15","","Snow"
"2017-03-13 16:00","2017","03","13","16:00","-8.0","","-12.4","","71","","4","","22","","4.0","","100.64","","","","-16","","Snow"
"2017-03-13 17:00","2017","03","13","17:00","-8.2","","-12.2","","73","","3","","25","","4.0","","100.62","","","","-16","","Snow"
"2017-03-13 18:00","2017","03","13","18:00","-8.5","","-11.7","","78","","4","","24","","3.2","","100.58","","","","-17","","Snow"
"2017-03-13 19:00","2017","03","13","19:00","-8.8","","-12.3","","76","","5","","21","","6.4","","100.59","","","","-17","","Snow"
"2017-03-13 20:00","2017","03","13","20:00","-8.9","","-12.9","","73","","5","","21","","12.9","","100.57","","","","-17","","Snow"
"2017-03-13 21:00","2017","03","13","21:00","-8.9","","-12.7","","74","","4","","21","","9.7","","100.54","","","","-17","","Snow"
"2017-03-13 22:00","2017","03","13","22:00","-9.1","","-12.1","","79","","4","","22","","9.7","","100.47","","","","-17","","Snow"
"2017-03-13 23:00","2017","03","13","23:00","-9.0","","-12.3","","77","","4","","20","","16.1","","100.41","","","","-17","","Snow"
"2017-03-14 00:00","2017","03","14","00:00","-9.2","","-12.2","","79","","2","","22","","12.9","","100.33","","","","-17","","Snow"
"2017-03-14 01:00","2017","03","14","01:00","-9.5","","-12.8","","77","","2","","26","","19.3","","100.26","","","","-18","","Snow"
"2017-03-14 02:00","2017","03","14","02:00","-9.7","","-13.5","","74","","2","","30","","9.7","","100.22","","","","-19","","Snow"
"2017-03-14 03:00","2017","03","14","03:00","-10.0","","-13.3","","77","","2","","21","","9.7","","100.14","","","","-18","","Snow"
"2017-03-14 04:00","2017","03","14","04:00","-10.4","","-14.0","","75","","2","","27","","9.7","","100.04","","","","-20","","Snow"
"2017-03-14 05:00","2017","03","14","05:00","-10.7","","-14.3","","75","","1","","26","","9.7","","100.03","","","","-20","","Snow"
"2017-03-14 06:00","2017","03","14","06:00","-11.0","","-14.6","","75","","1","","28","","4.8","","99.99","","","","-21","","Snow"
"2017-03-14 07:00","2017","03","14","07:00","-11.3","","-14.6","","77","","1","","30","","4.0","","99.96","","","","-21","","Snow,Blowing Snow"
"2017-03-14 08:00","2017","03","14","08:00","-11.4","","-14.8","","76","","1","","32","","4.0","","99.91","","","","-22","","Snow,Blowing Snow"
"2017-03-14 09:00","2017","03","14","09:00","-11.0","","-14.9","","73","","36","","32","","8.1","","99.85","","","","-21","","Snow,Blowing Snow"
"2017-03-14 10:00","2017","03","14","10:00","-10.6","","-14.7","","72","","1","","30","","4.8","","99.76","","","","-20","","Snow,Blowing Snow"
"2017-03-14 11:00","2017","03","14","11:00","-10.1","","-14.2","","72","","36","","34","","4.8","","99.67","","","","-20","","Snow,Blowing Snow"
"2017-03-14 12:00","2017","03","14","12:00","-9.9","","-14.0","","72","","35","","36","","1.2","","99.60","","","","-20","","Snow,Blowing Snow"
"2017-03-14 13:00","2017","03","14","13:00","-9.5","","-13.8","","71","","34","","38","","1.2","","99.47","","","","-20","","Snow,Blowing Snow"
"2017-03-14 14:00","2017","03","14","14:00","-8.1","","-14.0","","63","","36","","40","","9.7","","99.39","","","","-18","","Snow,Blowing Snow"
"2017-03-14 15:00","2017","03","14","15:00","-8.1","","-15.4","","56","","36","","34","","16.1","","99.39","","","","-18","","Blowing Snow"
"2017-03-14 16:00","2017","03","14","16:00","-8.6","","-13.9","","66","","35","","33","","3.2","","99.39","","","","-18","","Snow,Blowing Snow"
"2017-03-14 17:00","2017","03","14","17:00","-8.4","","-13.1","","69","","34","","37","","4.0","","99.35","","","","-18","","Snow,Blowing Snow"
"2017-03-14 18:00","2017","03","14","18:00","-8.7","","-13.6","","68","","34","","30","","6.4","","99.35","","","","-18","","Snow,Blowing Snow"
"2017-03-14 19:00","2017","03","14","19:00","-8.6","","-14.8","","61","","35","","37","","12.9","","99.37","","","","-19","","Snow"
"2017-03-14 20:00","2017","03","14","20:00","-8.9","","-13.8","","68","","34","","35","","12.9","","99.36","","","","-19","","Snow"
"2017-03-14 21:00","2017","03","14","21:00","-8.9","","-13.4","","70","","34","","29","","16.1","","99.30","","","","-18","","Snow"
"2017-03-14 22:00","2017","03","14","22:00","-9.1","","-14.4","","66","","34","","36","","19.3","","99.22","","","","-19","","Cloudy"
"2017-03-14 23:00","2017","03","14","23:00","-9.0","","-14.6","","64","","34","","32","","19.3","","99.13","","","","-18","","Snow"
"2017-03-15 00:00","2017","03","15","00:00","-9.3","","-15.7","","60","","34","","35","","19.3","","99.04","","","","-19","","Snow,Blowing Snow"
"2017-03-15 01:00","2017","03","15","01:00","-9.6","","-16.0","","60","","34","","40","","19.3","","98.99","","","","-20","","Snow,Blowing Snow"
"2017-03-15 02:00","2017","03","15","02:00","-9.8","","-15.6","","63","","34","","43","","24.1","","98.93","","","","-21","","Blowing Snow"
"2017-03-15 03:00","2017","03","15","03:00","-9.6","","-14.5","","68","","33","","43","","24.1","","98.81","","","","-21","","NA"
"2017-03-15 04:00","2017","03","15","04:00","-9.4","","-13.7","","71","","33","","43","","16.1","","98.78","","","","-20","","Snow,Blowing Snow"
"2017-03-15 05:00","2017","03","15","05:00","-9.2","","-13.7","","70","","33","","47","","9.7","","98.77","","","","-20","","Snow,Blowing Snow"
"2017-03-15 06:00","2017","03","15","06:00","-9.2","","-13.4","","72","","33","","49","","8.1","","98.79","","","","-21","","Snow,Blowing Snow"
"2017-03-15 07:00","2017","03","15","07:00","-9.1","","-12.9","","74","","33","","40","","4.0","","98.83","","","","-20","","Snow,Blowing Snow"
"2017-03-15 08:00","2017","03","15","08:00","-8.7","","-13.2","","70","","33","","41","","8.1","","98.84","","","","-19","","Snow,Blowing Snow"
"2017-03-15 09:00","2017","03","15","09:00","-7.6","","-14.3","","59","","33","","38","","12.9","","98.86","","","","-17","","Blowing Snow"
"2017-03-15 10:00","2017","03","15","10:00","-6.4","","-13.8","","56","","32","","41","","24.1","","98.88","","","","-16","","Blowing Snow"
"2017-03-15 11:00","2017","03","15","11:00","-5.2","","-14.9","","47","","33","","48","","24.1","","98.88","","","","-15","","NA"
"2017-03-15 12:00","2017","03","15","12:00","-4.9","","-14.8","","46","","32","","45","","24.1","","98.94","","","","-14","","NA"
"2017-03-15 13:00","2017","03","15","13:00","-3.8","","-15.3","","41","","33","","42","","24.1","","98.95","","","","-13","","Mostly Cloudy"
"2017-03-15 14:00","2017","03","15","14:00","-3.6","","-14.8","","42","","32","","48","","24.1","","98.99","","","","-13","","NA"
"2017-03-15 15:00","2017","03","15","15:00","-3.0","","-15.1","","39","","31","","58","","24.1","","99.06","","","","-13","","NA"
"2017-03-15 16:00","2017","03","15","16:00","-3.1","","-14.9","","40","","34","","41","","24.1","","99.12","","","","-12","","Cloudy"
"2017-03-15 17:00","2017","03","15","17:00","-3.2","","-15.0","","40","","32","","48","","24.1","","99.17","","","","-12","","NA"
"2017-03-15 18:00","2017","03","15","18:00","-3.7","","-14.9","","42","","32","","45","","24.1","","99.27","","","","-13","","NA"
"2017-03-15 19:00","2017","03","15","19:00","-4.6","","-14.8","","45","","30","","39","","24.1","","99.36","","","","-13","","Mainly Clear"
"2017-03-15 20:00","2017","03","15","20:00","-4.8","","-14.2","","48","","30","","38","","24.1","","99.39","","","","-14","","NA"
"2017-03-15 21:00","2017","03","15","21:00","-4.8","","-14.8","","46","","30","","31","","24.1","","99.43","","","","-13","","NA"
"2017-03-15 22:00","2017","03","15","22:00","-4.8","","-14.2","","48","","30","","29","","24.1","","99.47","","","","-13","","Clear"
"2017-03-15 23:00","2017","03","15","23:00","-5.4","","-13.6","","53","","29","","27","","24.1","","99.46","","","","-13","","NA"
"2017-03-16 00:00","2017","03","16","00:00","-5.4","","-14.3","","50","","30","","23","","24.1","","99.47","","","","-13","","NA"
"2017-03-16 01:00","2017","03","16","01:00","-4.9","","-15.1","","45","","30","","31","","24.1","","99.47","","","","-13","","Clear"
"2017-03-16 02:00","2017","03","16","02:00","-5.4","","-14.8","","48","","30","","21","","24.1","","99.49","","","","-12","","NA"
"2017-03-16 03:00","2017","03","16","03:00","-6.0","","-14.6","","51","","30","","13","","24.1","","99.51","","","","-11","","NA"
"2017-03-16 04:00","2017","03","16","04:00","-6.9","","-14.5","","55","","28","","18","","24.1","","99.53","","","","-14","","Clear"
"2017-03-16 05:00","2017","03","16","05:00","-7.2","","-14.4","","57","","28","","21","","24.1","","99.58","","","","-15","","NA"
"2017-03-16 06:00","2017","03","16","06:00","-6.8","","-14.6","","54","","29","","21","","24.1","","99.64","","","","-14","","NA"
"2017-03-16 07:00","2017","03","16","07:00","-6.4","","-14.0","","55","","29","","18","","24.1","","99.72","","","","-13","","Clear"
"2017-03-16 08:00","2017","03","16","08:00","-4.9","","-13.3","","52","","29","","28","","24.1","","99.74","","","","-13","","NA"
"2017-03-16 09:00","2017","03","16","09:00","-3.8","","-12.5","","51","","32","","29","","24.1","","99.79","","","","-11","","NA"
"2017-03-16 10:00","2017","03","16","10:00","-2.6","","-12.2","","48","","30","","28","","24.1","","99.82","","","","-10","","Mainly Clear"
"2017-03-16 11:00","2017","03","16","11:00","-1.9","","-12.6","","44","","31","","30","","24.1","","99.84","","","","-9","","NA"
"2017-03-16 12:00","2017","03","16","12:00","-0.6","","-12.0","","42","","30","","31","","24.1","","99.82","","","","-7","","NA"
"2017-03-16 13:00","2017","03","16","13:00","0.3","","-12.1","","39","","29","","27","","24.1","","99.81","","","","","","Clear"
"2017-03-16 14:00","2017","03","16","14:00","1.1","","-12.1","","37","","29","","30","","24.1","","99.78","","","","","","NA"
"2017-03-16 15:00","2017","03","16","15:00","1.3","","-10.6","","41","","28","","35","","24.1","","99.80","","","","","","NA"
"2017-03-16 16:00","2017","03","16","16:00","1.2","","-11.0","","40","","29","","40","","24.1","","99.80","","","","","","Clear"
"2017-03-16 17:00","2017","03","16","17:00","1.1","","-13.1","","34","","30","","36","","24.1","","99.85","","","","","","NA"
"2017-03-16 18:00","2017","03","16","18:00","0.0","","-12.4","","39","","30","","32","","24.1","","99.92","","","","-7","","NA"
"2017-03-16 19:00","2017","03","16","19:00","-0.9","","-12.3","","42","","30","","26","","24.1","","100.01","","","","-7","","Clear"
"2017-03-16 20:00","2017","03","16","20:00","-1.4","","-11.3","","47","","30","","20","","24.1","","100.06","","","","-7","","NA"
"2017-03-16 21:00","2017","03","16","21:00","-2.6","","-10.5","","55","","28","","16","","24.1","","100.12","","","","-8","","NA"
"2017-03-16 22:00","2017","03","16","22:00","-2.9","","-9.6","","60","","28","","13","","24.1","","100.12","","","","-8","","Clear"
"2017-03-16 23:00","2017","03","16","23:00","-3.1","","-9.4","","62","","29","","13","","24.1","","100.12","","","","-8","","NA"
"2017-03-17 00:00","2017","03","17","00:00","-3.2","","-9.3","","63","","29","","12","","24.1","","100.16","","","","-8","","NA"
"2017-03-17 01:00","2017","03","17","01:00","-2.9","","-9.6","","60","","30","","12","","24.1","","100.18","","","","-7","","Clear"
"2017-03-17 02:00","2017","03","17","02:00","-4.2","","-10.0","","64","","33","","12","","24.1","","100.18","","","","-9","","NA"
"2017-03-17 03:00","2017","03","17","03:00","-6.1","","-11.3","","67","","26","","11","","24.1","","100.20","","","","-11","","NA"
"2017-03-17 04:00","2017","03","17","04:00","-5.1","","-10.1","","68","","29","","13","","24.1","","100.22","","","","-10","","Clear"
"2017-03-17 05:00","2017","03","17","05:00","-6.8","","-10.7","","74","","27","","10","","24.1","","100.27","","","","-11","","NA"
"2017-03-17 06:00","2017","03","17","06:00","-5.5","","-10.0","","71","","25","","10","","24.1","","100.32","","","","-10","","NA"
"2017-03-17 07:00","2017","03","17","07:00","-5.0","","-9.8","","69","","28","","7","","24.1","","100.34","","","","-8","","Mainly Clear"
"2017-03-17 08:00","2017","03","17","08:00","-1.7","","-8.1","","62","","33","","9","","24.1","","100.35","","","","-5","","NA"
"2017-03-17 09:00","2017","03","17","09:00","0.4","","-6.7","","59","","30","","7","","24.1","","100.37","","","","","","NA"
"2017-03-17 10:00","2017","03","17","10:00","2.2","","-8.6","","45","","36","","2","","24.1","","100.37","","","","","","Mainly Clear"
"2017-03-17 11:00","2017","03","17","11:00","4.5","","-10.4","","33","","18","","8","","24.1","","100.31","","","","","","NA"
"2017-03-17 12:00","2017","03","17","12:00","4.3","","-8.2","","40","","16","","17","","24.1","","100.25","","","","","","NA"
"2017-03-17 13:00","2017","03","17","13:00","5.0","","-6.9","","42","","16","","16","","24.1","","100.19","","","","","","Mostly Cloudy"
"2017-03-17 14:00","2017","03","17","14:00","4.8","","-7.1","","42","","16","","24","","24.1","","100.07","","","","","","NA"
"2017-03-17 15:00","2017","03","17","15:00","5.3","","-6.9","","41","","15","","21","","24.1","","100.01","","","","","","NA"
"2017-03-17 16:00","2017","03","17","16:00","4.9","","-6.7","","43","","16","","20","","24.1","","99.96","","","","","","Mostly Cloudy"
"2017-03-17 17:00","2017","03","17","17:00","4.3","","-6.3","","46","","17","","14","","24.1","","99.93","","","","","","NA"
"2017-03-17 18:00","2017","03","17","18:00","3.4","","-6.1","","50","","16","","14","","24.1","","99.94","","","","","","NA"
"2017-03-17 19:00","2017","03","17","19:00","2.4","","-6.0","","54","","15","","7","","24.1","","99.94","","","","","","Mostly Cloudy"
"2017-03-17 20:00","2017","03","17","20:00","2.0","","-5.7","","57","","14","","9","","24.1","","99.93","","","","","","NA"
"2017-03-17 21:00","2017","03","17","21:00","1.4","","-4.7","","64","","13","","9","","24.1","","99.92","","","","","","NA"
"2017-03-17 22:00","2017","03","17","22:00","1.6","","-4.7","","63","","13","","9","","24.1","","99.88","","","","","","Mostly Cloudy"
"2017-03-17 23:00","2017","03","17","23:00","1.1","","-4.4","","67","","14","","12","","24.1","","99.86","","","","","","NA"
"2017-03-18 00:00","2017","03","18","00:00","1.4","","-5.3","","61","","12","","11","","24.1","","99.81","","","","","","NA"
"2017-03-18 01:00","2017","03","18","01:00","1.9","","-5.7","","57","","12","","14","","24.1","","99.76","","","","","","Mostly Cloudy"
"2017-03-18 02:00","2017","03","18","02:00","2.1","","-7.3","","50","","10","","16","","24.1","","99.68","","","","","","NA"
"2017-03-18 03:00","2017","03","18","03:00","2.2","","-7.2","","50","","13","","17","","24.1","","99.61","","","","","","NA"
"2017-03-18 04:00","2017","03","18","04:00","1.8","","-5.6","","58","","10","","17","","24.1","","99.56","","","","","","Cloudy"
"2017-03-18 05:00","2017","03","18","05:00","1.5","","-5.4","","60","","11","","10","","24.1","","99.55","","","","","","NA"
"2017-03-18 06:00","2017","03","18","06:00","1.3","","-6.1","","58","","9","","12","","24.1","","99.55","","","","","","NA"
"2017-03-18 07:00","2017","03","18","07:00","1.5","","-4.8","","63","","8","","16","","24.1","","99.57","","","","","","Mostly Cloudy"
"2017-03-18 08:00","2017","03","18","08:00","1.8","","-4.1","","65","","8","","21","","24.1","","99.54","","","","","","NA"
"2017-03-18 09:00","2017","03","18","09:00","0.6","","-2.3","","81","","8","","14","","9.7","","99.58","","","","","","Snow"
"2017-03-18 10:00","2017","03","18","10:00","0.3","","-1.6","","87","","9","","15","","3.2","","99.59","","","","","","Snow"
"2017-03-18 11:00","2017","03","18","11:00","0.6","","-1.5","","86","","9","","21","","12.9","","99.57","","","","","","Snow"
"2017-03-18 12:00","2017","03","18","12:00","0.2","","-1.6","","88","","8","","18","","8.1","","99.59","","","","","","Snow"
"2017-03-18 13:00","2017","03","18","13:00","0.3","","-1.2","","90","","6","","17","","2.0","","99.57","","","","","","Snow"
"2017-03-18 14:00","2017","03","18","14:00","-0.3","","-1.6","","91","","6","","22","","6.4","","99.58","","","","-6","","Snow"
"2017-03-18 15:00","2017","03","18","15:00","-0.3","","-1.7","","90","","8","","18","","9.7","","99.62","","","","-5","","Snow"
"2017-03-18 16:00","2017","03","18","16:00","-0.3","","-1.7","","90","","6","","19","","9.7","","99.67","","","","-5","","Snow"
"2017-03-18 17:00","2017","03","18","17:00","-0.2","","-1.5","","91","","5","","19","","8.1","","99.72","","","","-5","","Snow Grains"
"2017-03-18 18:00","2017","03","18","18:00","0.0","","-1.3","","91","","5","","15","","9.7","","99.82","","","","-4","","Snow Grains"
"2017-03-18 19:00","2017","03","18","19:00","-0.1","","-1.2","","92","","4","","16","","8.1","","99.89","","","","-5","","Snow Grains"
"2017-03-18 20:00","2017","03","18","20:00","0.0","","-1.0","","93","","3","","15","","6.4","","99.99","","","","-4","","Snow Grains"
"2017-03-18 21:00","2017","03","18","21:00","0.0","","-0.9","","94","","5","","13","","4.0","","100.02","","","","-4","","Snow Grains"
"2017-03-18 22:00","2017","03","18","22:00","0.1","","-0.8","","94","","4","","17","","4.8","","100.06","","","","","","Snow Grains"
"2017-03-18 23:00","2017","03","18","23:00","0.2","","-0.5","","95","","4","","17","","4.8","","100.13","","","","","","Snow Grains"
"2017-03-19 00:00","2017","03","19","00:00","0.0","","-0.9","","94","","4","","17","","4.8","","100.15","","","","-5","","Snow Grains"
"2017-03-19 01:00","2017","03","19","01:00","0.3","","-4.0","","73","","4","","14","","24.1","","100.16","","","","","","Cloudy"
"2017-03-19 02:00","2017","03","19","02:00","0.1","","-4.7","","70","","4","","14","","24.1","","100.19","","","","","","NA"
"2017-03-19 03:00","2017","03","19","03:00","-0.1","","-4.0","","75","","2","","11","","24.1","","100.22","","","","-4","","NA"
"2017-03-19 04:00","2017","03","19","04:00","0.0","","-4.8","","70","","36","","13","","24.1","","100.31","","","","-4","","Cloudy"
"2017-03-19 05:00","2017","03","19","05:00","-0.3","","-4.2","","75","","36","","16","","24.1","","100.35","","","","-5","","NA"
"2017-03-19 06:00","2017","03","19","06:00","-0.2","","-4.8","","71","","1","","16","","24.1","","100.48","","","","-5","","NA"
"2017-03-19 07:00","2017","03","19","07:00","-0.1","","-5.1","","69","","1","","12","","24.1","","100.54","","","","-4","","Cloudy"
"2017-03-19 08:00","2017","03","19","08:00","0.2","","-5.4","","66","","2","","13","","24.1","","100.59","","","","","","NA"
"2017-03-19 09:00","2017","03","19","09:00","0.9","","-5.6","","62","","3","","9","","24.1","","100.64","","","","","","NA"
"2017-03-19 10:00","2017","03","19","10:00","1.6","","-5.1","","61","","2","","12","","24.1","","100.64","","","","","","Mostly Cloudy"
"2017-03-19 11:00","2017","03","19","11:00","2.9","","-4.1","","60","","3","","5","","24.1","","100.63","","","","","","NA"
"2017-03-19 12:00","2017","03","19","12:00","4.4","","-2.7","","60","","34","","7","","24.1","","100.62","","","","","","NA"
"2017-03-19 13:00","2017","03","19","13:00","5.6","","-3.5","","52","","3","","7","","24.1","","100.56","","","","","","Mainly Clear"
"2017-03-19 14:00","2017","03","19","14:00","6.3","","-3.1","","51","","16","","12","","24.1","","100.51","","","","","","NA"
"2017-03-19 15:00","2017","03","19","15:00","6.3","","-1.8","","56","","16","","16","","24.1","","100.45","","","","","","NA"
"2017-03-19 16:00","2017","03","19","16:00","6.2","","-1.9","","56","","17","","12","","24.1","","100.41","","","","","","Mainly Clear"
"2017-03-19 17:00","2017","03","19","17:00","6.3","","-2.1","","55","","18","","11","","24.1","","100.38","","","","","","NA"
"2017-03-19 18:00","2017","03","19","18:00","4.9","","-2.4","","59","","19","","13","","24.1","","100.38","","","","","","NA"
"2017-03-19 19:00","2017","03","19","19:00","3.4","","-2.8","","64","","17","","8","","24.1","","100.39","","","","","","Clear"
"2017-03-19 20:00","2017","03","19","20:00","3.2","","-2.1","","68","","20","","9","","24.1","","100.37","","","","","","NA"
"2017-03-19 21:00","2017","03","19","21:00","2.6","","-1.6","","74","","22","","10","","24.1","","100.38","","","","","","NA"
"2017-03-19 22:00","2017","03","19","22:00","1.6","","-1.5","","80","","24","","11","","24.1","","100.38","","","","","","Clear"
"2017-03-19 23:00","2017","03","19","23:00","1.5","","-1.2","","82","","20","","5","","24.1","","100.32","","","","","","NA"
"2017-03-20 00:00","2017","03","20","00:00","0.6","","-1.8","","84","","24","","9","","24.1","","100.27","","","","","","NA"
"2017-03-20 01:00","2017","03","20","01:00","-0.7","","-2.8","","86","","25","","9","","20.9","","100.28","","","","-4","","Clear"
"2017-03-20 02:00","2017","03","20","02:00","-1.0","","-2.4","","90","","26","","7","","20.9","","100.26","","","","-4","","NA"
"2017-03-20 03:00","2017","03","20","03:00","-0.5","","-2.4","","87","","26","","10","","20.9","","100.24","","","","-4","","NA"
"2017-03-20 04:00","2017","03","20","04:00","-0.4","","-2.3","","87","","26","","10","","20.9","","100.20","","","","-4","","Mostly Cloudy"
"2017-03-20 05:00","2017","03","20","05:00","0.6","","-2.0","","83","","23","","6","","24.1","","100.14","","","","","","NA"
"2017-03-20 06:00","2017","03","20","06:00","1.0","","-2.1","","80","","14","","6","","24.1","","100.07","","","","","","NA"
"2017-03-20 07:00","2017","03","20","07:00","0.5","","-1.7","","85","","17","","9","","16.1","","100.03","","","","","","Cloudy"
"2017-03-20 08:00","2017","03","20","08:00","1.0","","-1.1","","86","","18","","7","","16.1","","100.04","","","","","","NA"
"2017-03-20 09:00","2017","03","20","09:00","1.5","","-1.4","","81","","21","","9","","16.1","","100.05","","","","","","NA"
"2017-03-20 10:00","2017","03","20","10:00","2.2","","-1.2","","78","","22","","11","","16.1","","100.03","","","","","","Cloudy"
"2017-03-20 11:00","2017","03","20","11:00","3.3","","-1.1","","73","","23","","15","","19.3","","99.98","","","","","","NA"
"2017-03-20 12:00","2017","03","20","12:00","4.7","","-0.7","","68","","23","","18","","19.3","","99.93","","","","","","NA"
"2017-03-20 13:00","2017","03","20","13:00","5.8","","-0.3","","65","","22","","18","","19.3","","99.82","","","","","","Mostly Cloudy"
"2017-03-20 14:00","2017","03","20","14:00","5.8","","-0.5","","64","","22","","13","","19.3","","99.74","","","","","","NA"
"2017-03-20 15:00","2017","03","20","15:00","5.7","","-0.4","","65","","13","","14","","19.3","","99.66","","","","","","NA"
"2017-03-20 16:00","2017","03","20","16:00","6.1","","-0.6","","62","","17","","11","","19.3","","99.61","","","","","","Mostly Cloudy"
"2017-03-20 17:00","2017","03","20","17:00","5.3","","-0.3","","67","","16","","12","","24.1","","99.58","","","","","","NA"
"2017-03-20 18:00","2017","03","20","18:00","4.5","","-0.1","","72","","16","","12","","24.1","","99.57","","","","","","NA"
"2017-03-20 19:00","2017","03","20","19:00","4.3","","0.1","","74","","17","","8","","24.1","","99.56","","","","","","Cloudy"
"2017-03-20 20:00","2017","03","20","20:00","4.4","","0.4","","75","","14","","4","","24.1","","99.59","","","","","","NA"
"2017-03-20 21:00","2017","03","20","21:00","4.7","","0.7","","75","","19","","5","","24.1","","99.57","","","","","","NA"
"2017-03-20 22:00","2017","03","20","22:00","4.7","","1.0","","77","","17","","6","","19.3","","99.48","","","","","","Rain Showers"
"2017-03-20 23:00","2017","03","20","23:00","4.3","","1.0","","79","","22","","10","","24.1","","99.49","","","","","","NA"
"2017-03-21 00:00","2017","03","21","00:00","3.6","","1.0","","83","","25","","7","","24.1","","99.46","","","","","","NA"
"2017-03-21 01:00","2017","03","21","01:00","3.8","","0.9","","81","","24","","8","","24.1","","99.44","","","","","","Cloudy"
"2017-03-21 02:00","2017","03","21","02:00","3.3","","1.4","","87","","26","","8","","24.1","","99.40","","","","","","NA"
"2017-03-21 03:00","2017","03","21","03:00","3.6","","1.8","","88","","30","","4","","24.1","","99.37","","","","","","NA"
"2017-03-21 04:00","2017","03","21","04:00","3.7","","1.1","","83","","33","","10","","24.1","","99.36","","","","","","Cloudy"
"2017-03-21 05:00","2017","03","21","05:00","2.2","","0.3","","87","","31","","15","","24.1","","99.37","","","","","","NA"
"2017-03-21 06:00","2017","03","21","06:00","3.1","","0.2","","81","","29","","8","","24.1","","99.37","","","","","","NA"
"2017-03-21 07:00","2017","03","21","07:00","2.4","","0.0","","84","","28","","11","","24.1","","99.37","","","","","","Mainly Clear"
"2017-03-21 08:00","2017","03","21","08:00","4.1","","-0.7","","71","","26","","10","","24.1","","99.36","","","","","","NA"
"2017-03-21 09:00","2017","03","21","09:00","6.6","","-1.5","","56","","32","","22","","24.1","","99.36","","","","","","NA"
"2017-03-21 10:00","2017","03","21","10:00","8.6","","-3.3","","43","","30","","25","","24.1","","99.34","","","","","","Clear"
"2017-03-21 11:00","2017","03","21","11:00","10.8","","-12.6","","18","","30","","30","","24.1","","99.31","","","","","","NA"
"2017-03-21 12:00","2017","03","21","12:00","11.6","","-10.6","","20","","29","","28","","24.1","","99.27","","","","","","NA"
"2017-03-21 13:00","2017","03","21","13:00","11.4","","-12.1","","18","","31","","27","","24.1","","99.20","","","","","","Mainly Clear"
"2017-03-21 14:00","2017","03","21","14:00","11.8","","-7.1","","26","","28","","32","","24.1","","99.13","","","","","","NA"
"2017-03-21 15:00","2017","03","21","15:00","10.1","","-5.0","","34","","28","","37","","24.1","","99.09","","","","","","NA"
"2017-03-21 16:00","2017","03","21","16:00","8.2","","-3.9","","42","","31","","48","","24.1","","99.20","","","","","","Mainly Clear"
"2017-03-21 17:00","2017","03","21","17:00","5.8","","-6.5","","41","","29","","50","","24.1","","99.29","","","","","","NA"
"2017-03-21 18:00","2017","03","21","18:00","4.1","","-6.5","","46","","30","","44","","24.1","","99.39","","","","","","NA"
"2017-03-21 19:00","2017","03","21","19:00","1.9","","-6.2","","55","","30","","45","","24.1","","99.48","","","","","","Mostly Cloudy"
"2017-03-21 20:00","2017","03","21","20:00","1.2","","-4.9","","64","","30","","35","","24.1","","99.55","","","","","","NA"
"2017-03-21 21:00","2017","03","21","21:00","0.3","","-3.6","","75","","35","","36","","12.9","","99.65","","","","","","Snow"
"2017-03-21 22:00","2017","03","21","22:00","-0.3","","-7.8","","57","","33","","44","","16.1","","99.71","","","","-8","","Snow"
"2017-03-21 23:00","2017","03","21","23:00","-1.2","","-10.4","","50","","35","","37","","24.1","","99.80","","","","-9","","NA"
"2017-03-22 00:00","2017","03","22","00:00","-2.5","","-11.6","","50","","35","","48","","24.1","","99.93","","","","-11","","NA"
"2017-03-22 01:00","2017","03","22","01:00","-4.2","","-13.4","","49","","33","","47","","24.1","","100.07","","","","-14","","Mainly Clear"
"2017-03-22 02:00","2017","03","22","02:00","-5.6","","-15.5","","46","","36","","29","","24.1","","100.23","","","","-14","","NA"
"2017-03-22 03:00","2017","03","22","03:00","-6.4","","-16.8","","44","","35","","36","","24.1","","100.35","","","","-16","","NA"
"2017-03-22 04:00","2017","03","22","04:00","-7.3","","-18.8","","40","","35","","31","","24.1","","100.50","","","","-16","","Mainly Clear"
"2017-03-22 05:00","2017","03","22","05:00","-7.9","","-18.7","","42","","35","","30","","24.1","","100.62","","","","-17","","NA"
"2017-03-22 06:00","2017","03","22","06:00","-8.3","","-18.3","","45","","35","","29","","24.1","","100.77","","","","-17","","NA"
"2017-03-22 07:00","2017","03","22","07:00","-8.7","","-19.7","","41","","34","","35","","24.1","","100.90","","","","-18","","Clear"
"2017-03-22 08:00","2017","03","22","08:00","-8.5","","-19.6","","41","","35","","31","","24.1","","101.00","","","","-18","","NA"
"2017-03-22 09:00","2017","03","22","09:00","-7.7","","-20.0","","37","","36","","32","","24.1","","101.11","","","","-17","","NA"
"2017-03-22 10:00","2017","03","22","10:00","-7.0","","-19.1","","38","","34","","26","","24.1","","101.19","","","","-15","","Clear"
"2017-03-22 11:00","2017","03","22","11:00","-6.3","","-19.8","","34","","35","","31","","24.1","","101.19","","","","-15","","NA"
"2017-03-22 12:00","2017","03","22","12:00","-4.8","","-18.1","","35","","33","","28","","24.1","","101.22","","","","-12","","NA"
"2017-03-22 13:00","2017","03","22","13:00","-4.3","","-18.3","","33","","35","","30","","24.1","","101.21","","","","-12","","Clear"
"2017-03-22 14:00","2017","03","22","14:00","-3.0","","-19.1","","28","","34","","28","","24.1","","101.16","","","","-10","","NA"
"2017-03-22 15:00","2017","03","22","15:00","-2.5","","-17.5","","31","","33","","17","","24.1","","101.14","","","","-8","","NA"
"2017-03-22 16:00","2017","03","22","16:00","-2.5","","-16.0","","35","","36","","8","","24.1","","101.17","","","","-6","","Clear"
"2017-03-22 17:00","2017","03","22","17:00","-2.3","","-16.9","","32","","31","","20","","24.1","","101.19","","","","-8","","NA"
"2017-03-22 18:00","2017","03","22","18:00","-2.9","","-15.0","","39","","34","","16","","24.1","","101.18","","","","-8","","NA"
"2017-03-22 19:00","2017","03","22","19:00","-4.2","","-14.7","","44","","1","","16","","24.1","","101.22","","","","-10","","Clear"
"2017-03-22 20:00","2017","03","22","20:00","-5.1","","-13.5","","52","","2","","20","","24.1","","101.26","","","","-12","","NA"
"2017-03-22 21:00","2017","03","22","21:00","-6.2","","-13.4","","57","","35","","23","","24.1","","101.31","","","","-14","","NA"
"2017-03-22 22:00","2017","03","22","22:00","-6.5","","-12.8","","61","","34","","16","","24.1","","101.32","","","","-13","","Clear"
"2017-03-22 23:00","2017","03","22","23:00","-6.7","","-12.6","","63","","32","","13","","24.1","","101.31","","","","-12","","NA"
"2017-03-23 00:00","2017","03","23","00:00","-6.9","","-12.6","","64","","32","","12","","24.1","","101.31","","","","-12","","NA"
"2017-03-23 01:00","2017","03","23","01:00","-6.8","","-13.3","","60","","31","","13","","24.1","","101.32","","","","-12","","Clear"
"2017-03-23 02:00","2017","03","23","02:00","-7.4","","-13.1","","64","","31","","9","","24.1","","101.32","","","","-12","","NA"
"2017-03-23 03:00","2017","03","23","03:00","-8.1","","-13.0","","68","","27","","3","","24.1","","101.35","","","","-10","","NA"
"2017-03-23 04:00","2017","03","23","04:00","-7.7","","-12.6","","68","","28","","6","","24.1","","101.37","","","","-11","","Clear"
"2017-03-23 05:00","2017","03","23","05:00","-7.7","","-12.3","","70","","24","","6","","24.1","","101.40","","","","-11","","NA"
"2017-03-23 06:00","2017","03","23","06:00","-7.8","","-12.4","","70","","26","","5","","24.1","","101.42","","","","-10","","NA"
"2017-03-23 07:00","2017","03","23","07:00","-6.7","","-11.7","","68","","18","","5","","24.1","","101.46","","","","-9","","Clear"
"2017-03-23 08:00","2017","03","23","08:00","-5.1","","-11.1","","63","","20","","8","","24.1","","101.52","","","","-9","","NA"
"2017-03-23 09:00","2017","03","23","09:00","-3.5","","-10.9","","57","","0","","1","","24.1","","101.54","","","","-4","","NA"
"2017-03-23 10:00","2017","03","23","10:00","-1.8","","-12.3","","45","","17","","5","","24.1","","101.50","","","","-4","","Mainly Clear"
"2017-03-23 11:00","2017","03","23","11:00","-0.2","","-11.3","","43","","16","","8","","24.1","","101.46","","","","-3","","NA"
"2017-03-23 12:00","2017","03","23","12:00","-0.3","","-11.7","","42","","14","","10","","24.1","","101.41","","","","-4","","NA"
"2017-03-23 13:00","2017","03","23","13:00","0.8","","-13.0","","35","","14","","10","","24.1","","101.30","","","","","","Mostly Cloudy"
"2017-03-23 14:00","2017","03","23","14:00","1.3","","-15.8","","27","","15","","11","","24.1","","101.19","","","","","","NA"
"2017-03-23 15:00","2017","03","23","15:00","1.7","","-13.0","","33","","12","","14","","24.1","","101.07","","","","","","NA"
"2017-03-23 16:00","2017","03","23","16:00","2.2","","-12.9","","32","","16","","16","","24.1","","100.98","","","","","","Mainly Clear"
"2017-03-23 17:00","2017","03","23","17:00","1.3","","-10.9","","40","","15","","16","","24.1","","100.91","","","","","","NA"
"2017-03-23 18:00","2017","03","23","18:00","0.8","","-10.7","","42","","14","","14","","24.1","","100.88","","","","","","NA"
"2017-03-23 19:00","2017","03","23","19:00","0.1","","-8.4","","53","","12","","13","","24.1","","100.84","","","","","","Mostly Cloudy"
"2017-03-23 20:00","2017","03","23","20:00","0.1","","-7.7","","56","","13","","10","","24.1","","100.83","","","","","","NA"
"2017-03-23 21:00","2017","03","23","21:00","0.0","","-6.9","","60","","12","","17","","24.1","","100.73","","","","-5","","NA"
"2017-03-23 22:00","2017","03","23","22:00","0.2","","-5.0","","68","","11","","20","","24.1","","100.56","","","","","","Cloudy"
"2017-03-23 23:00","2017","03","23","23:00","1.0","","-4.7","","66","","12","","15","","24.1","","100.45","","","","","","NA"
"2017-03-24 00:00","2017","03","24","00:00","1.1","","-5.4","","62","","11","","16","","24.1","","100.33","","","","","","NA"
"2017-03-24 01:00","2017","03","24","01:00","1.4","","-6.2","","57","","8","","5","","24.1","","100.27","","","","","","Cloudy"
"2017-03-24 02:00","2017","03","24","02:00","1.4","","-5.8","","59","","12","","9","","24.1","","100.10","","","","","","NA"
"2017-03-24 03:00","2017","03","24","03:00","1.5","","-4.8","","63","","11","","6","","24.1","","99.97","","","","","","Rain Showers"
"2017-03-24 04:00","2017","03","24","04:00","1.1","","-3.0","","74","","6","","9","","19.3","","99.95","","","","","","Rain Showers"
"2017-03-24 05:00","2017","03","24","05:00","0.7","","-1.2","","87","","4","","3","","8.1","","99.95","","","","","","Moderate Rain Showers"
"2017-03-24 06:00","2017","03","24","06:00","0.7","","-0.5","","92","","13","","12","","6.4","","99.86","","","","","","Moderate Rain Showers"
"2017-03-24 07:00","2017","03","24","07:00","0.9","","0.0","","94","","14","","8","","9.7","","99.81","","","","","","Rain Showers,Fog"
"2017-03-24 08:00","2017","03","24","08:00","1.2","","0.5","","95","","15","","5","","6.4","","99.75","","","","","","Fog"
"2017-03-24 09:00","2017","03","24","09:00","2.0","","1.3","","95","","16","","7","","6.4","","99.64","","","","","","Fog"
"2017-03-24 10:00","2017","03","24","10:00","3.1","","2.2","","94","","18","","10","","9.7","","99.53","","","","","","Fog"
"2017-03-24 11:00","2017","03","24","11:00","5.7","","3.7","","87","","23","","11","","12.9","","99.49","","","","","","NA"
"2017-03-24 12:00","2017","03","24","12:00","8.2","","4.4","","77","","23","","16","","12.9","","99.41","","","","","","NA"
"2017-03-24 13:00","2017","03","24","13:00","12.4","","6.7","","68","","24","","13","","16.1","","99.29","","","","","","Cloudy"
"2017-03-24 14:00","2017","03","24","14:00","14.3","","7.6","","64","","25","","20","","19.3","","99.23","","","","","","NA"
"2017-03-24 15:00","2017","03","24","15:00","14.4","","8.4","","67","","27","","26","","19.3","","99.21","","","","","","NA"
"2017-03-24 16:00","2017","03","24","16:00","11.9","","5.8","","66","","15","","7","","19.3","","99.22","","","","","","Cloudy"
"2017-03-24 17:00","2017","03","24","17:00","12.3","","6.4","","67","","4","","8","","12.9","","99.26","","","","","","NA"
"2017-03-24 18:00","2017","03","24","18:00","9.6","","4.6","","71","","36","","35","","19.3","","99.43","","","","","","NA"
"2017-03-24 19:00","2017","03","24","19:00","7.2","","3.8","","79","","35","","27","","24.1","","99.58","","","","","","Cloudy"
"2017-03-24 20:00","2017","03","24","20:00","6.2","","3.7","","84","","36","","21","","17.7","","99.68","","","","","","NA"
"2017-03-24 21:00","2017","03","24","21:00","5.6","","3.3","","85","","35","","21","","19.3","","99.89","","","","","","Rain"
"2017-03-24 22:00","2017","03","24","22:00","4.7","","2.7","","87","","1","","16","","24.1","","99.93","","","","","","Cloudy"
"2017-03-24 23:00","2017","03","24","23:00","4.3","","2.3","","87","","3","","12","","24.1","","99.94","","","","","","Rain"
"2017-03-25 00:00","2017","03","25","00:00","4.0","","2.7","","91","","3","","14","","16.1","","99.97","","","","","","Rain"
"2017-03-25 01:00","2017","03","25","01:00","3.8","","2.8","","93","","1","","16","","16.1","","100.00","","","","","","Rain"
"2017-03-25 02:00","2017","03","25","02:00","3.6","","2.4","","92","","3","","14","","16.1","","100.03","","","","","","NA"
"2017-03-25 03:00","2017","03","25","03:00","3.6","","2.4","","92","","8","","12","","16.1","","100.02","","","","","","NA"
"2017-03-25 04:00","2017","03","25","04:00","3.2","","2.2","","93","","5","","12","","9.7","","100.04","","","","","","Rain"
"2017-03-25 05:00","2017","03","25","05:00","3.0","","1.7","","91","","7","","14","","9.7","","100.10","","","","","","Rain"
"2017-03-25 06:00","2017","03","25","06:00","2.2","","1.2","","93","","6","","18","","6.4","","100.24","","","","","","Rain"
"2017-03-25 07:00","2017","03","25","07:00","1.8","","0.9","","94","","5","","15","","11.3","","100.33","","","","","","Rain"
"2017-03-25 08:00","2017","03","25","08:00","1.9","","0.7","","92","","6","","11","","17.7","","100.39","","","","","","Rain"
"2017-03-25 09:00","2017","03","25","09:00","2.1","","0.8","","91","","5","","16","","11.3","","100.51","","","","","","Rain"
"2017-03-25 10:00","2017","03","25","10:00","2.2","","1.0","","92","","6","","11","","12.9","","100.58","","","","","","Rain"
"2017-03-25 11:00","2017","03","25","11:00","2.3","","1.1","","92","","9","","14","","19.3","","100.58","","","","","","Rain"
"2017-03-25 12:00","2017","03","25","12:00","2.6","","0.8","","88","","10","","16","","24.1","","100.63","","","","","","NA"
"2017-03-25 13:00","2017","03","25","13:00","3.2","","0.6","","83","","9","","17","","24.1","","100.68","","","","","","Cloudy"
"2017-03-25 14:00","2017","03","25","14:00","3.4","","-0.1","","78","","8","","15","","24.1","","100.66","","","","","","NA"
"2017-03-25 15:00","2017","03","25","15:00","3.8","","-0.4","","74","","10","","16","","24.1","","100.66","","","","","","NA"
"2017-03-25 16:00","2017","03","25","16:00","3.3","","0.2","","80","","12","","14","","24.1","","100.67","","","","","","Cloudy"
"2017-03-25 17:00","2017","03","25","17:00","3.6","","0.3","","79","","12","","12","","24.1","","100.66","","","","","","NA"
"2017-03-25 18:00","2017","03","25","18:00","2.9","","-0.4","","79","","10","","18","","24.1","","100.64","","","","","","NA"
"2017-03-25 19:00","2017","03","25","19:00","2.5","","-0.6","","80","","9","","15","","24.1","","100.69","","","","","","Mostly Cloudy"
"2017-03-25 20:00","2017","03","25","20:00","2.4","","-0.4","","82","","11","","10","","24.1","","100.75","","","","","","NA"
"2017-03-25 21:00","2017","03","25","21:00","2.4","","-0.7","","80","","8","","17","","24.1","","100.77","","","","","","NA"
"2017-03-25 22:00","2017","03","25","22:00","2.1","","-0.5","","83","","10","","22","","24.1","","100.68","","","","","","Cloudy"
"2017-03-25 23:00","2017","03","25","23:00","1.8","","-1.1","","81","","9","","13","","24.1","","100.71","","","","","","NA"
"2017-03-26 00:00","2017","03","26","00:00","1.5","","-2.3","","76","","8","","22","","24.1","","100.66","","","","","","NA"
"2017-03-26 01:00","2017","03","26","01:00","1.1","","-2.3","","78","","9","","23","","24.1","","100.64","","","","","","Cloudy"
"2017-03-26 02:00","2017","03","26","02:00","0.7","","-1.1","","88","","8","","16","","16.1","","100.56","","","","","","Rain"
"2017-03-26 03:00","2017","03","26","03:00","0.7","","-0.5","","92","","8","","16","","24.1","","100.46","","","","","","NA"
"2017-03-26 04:00","2017","03","26","04:00","0.9","","-0.4","","91","","9","","17","","24.1","","100.39","","","","","","Cloudy"
"2017-03-26 05:00","2017","03","26","05:00","1.0","","-0.5","","90","","10","","19","","24.1","","100.33","","","","","","NA"
"2017-03-26 06:00","2017","03","26","06:00","1.6","","0.1","","90","","9","","19","","19.3","","100.32","","","","","","NA"
"2017-03-26 07:00","2017","03","26","07:00","1.8","","0.5","","91","","9","","27","","24.1","","100.25","","","","","","Cloudy"
"2017-03-26 08:00","2017","03","26","08:00","2.2","","1.0","","92","","9","","24","","24.1","","100.20","","","","","","NA"
"2017-03-26 09:00","2017","03","26","09:00","2.4","","1.2","","92","","8","","28","","19.3","","100.15","","","","","","NA"
"2017-03-26 10:00","2017","03","26","10:00","2.9","","1.4","","90","","9","","21","","24.1","","100.15","","","","","","Cloudy"
"2017-03-26 11:00","2017","03","26","11:00","2.7","","0.8","","87","","9","","22","","24.1","","100.11","","","","","","NA"
"2017-03-26 12:00","2017","03","26","12:00","2.8","","1.3","","90","","9","","18","","24.1","","100.02","","","","","","NA"
"2017-03-26 13:00","2017","03","26","13:00","2.8","","1.6","","92","","9","","27","","24.1","","99.90","","","","","","Cloudy"
"2017-03-26 14:00","2017","03","26","14:00","3.4","","1.5","","87","","9","","24","","24.1","","99.79","","","","","","NA"
"2017-03-26 15:00","2017","03","26","15:00","4.0","","1.7","","85","","7","","16","","24.1","","99.71","","","","","","NA"
"2017-03-26 16:00","2017","03","26","16:00","4.7","","1.9","","82","","8","","16","","24.1","","99.68","","","","","","Cloudy"
"2017-03-26 17:00","2017","03","26","17:00","4.9","","1.9","","81","","8","","20","","24.1","","99.62","","","","","","NA"
"2017-03-26 18:00","2017","03","26","18:00","5.1","","2.5","","83","","10","","11","","24.1","","99.57","","","","","","NA"
"2017-03-26 19:00","2017","03","26","19:00","4.8","","2.5","","85","","8","","13","","19.3","","99.56","","","","","","Cloudy"
"2017-03-26 20:00","2017","03","26","20:00","5.0","","3.2","","88","","8","","10","","24.1","","99.49","","","","","","NA"
"2017-03-26 21:00","2017","03","26","21:00","5.4","","3.4","","87","","9","","11","","24.1","","99.47","","","","","","NA"
"2017-03-26 22:00","2017","03","26","22:00","5.3","","4.0","","91","","7","","5","","9.7","","99.41","","","","","","Rain"
"2017-03-26 23:00","2017","03","26","23:00","5.3","","4.6","","95","","12","","5","","9.7","","99.35","","","","","","Drizzle,Fog"
"2017-03-27 00:00","2017","03","27","00:00","5.6","","5.0","","96","","10","","5","","9.7","","99.28","","","","","","Fog"
"2017-03-27 01:00","2017","03","27","01:00","5.9","","5.5","","97","","8","","5","","6.4","","99.21","","","","","","Fog"
"2017-03-27 02:00","2017","03","27","02:00","6.3","","5.9","","97","","11","","4","","6.4","","99.18","","","","","","Fog"
"2017-03-27 03:00","2017","03","27","03:00","6.4","","6.0","","97","","13","","5","","4.8","","99.10","","","","","","Rain,Fog"
"2017-03-27 04:00","2017","03","27","04:00","6.7","","6.3","","97","","12","","10","","3.2","","99.04","","","","","","Rain,Fog"
"2017-03-27 05:00","2017","03","27","05:00","6.4","","6.1","","98","","15","","6","","2.8","","99.07","","","","","","Fog"
"2017-03-27 06:00","2017","03","27","06:00","6.2","","5.9","","98","","15","","5","","2.0","","99.10","","","","","","Fog"
"2017-03-27 07:00","2017","03","27","07:00","6.2","","5.9","","98","","13","","4","","1.2","","99.11","","","","","","Rain,Fog"
"2017-03-27 08:00","2017","03","27","08:00","6.6","","6.3","","98","","12","","5","","0.4","","99.09","","","","","","Fog"
"2017-03-27 09:00","2017","03","27","09:00","7.5","","7.2","","98","","16","","9","","0.4","","99.07","","","","","","Fog"
"2017-03-27 10:00","2017","03","27","10:00","9.6","","9.3","","98","","20","","6","","4.0","","99.12","","","","","","Fog"
"2017-03-27 11:00","2017","03","27","11:00","10.6","","10.2","","97","","36","","1","","6.4","","99.13","","","","","","Fog"
"2017-03-27 12:00","2017","03","27","12:00","11.9","","10.5","","91","","16","","8","","9.7","","99.12","","","","","","Fog"
"2017-03-27 13:00","2017","03","27","13:00","14.0","","10.8","","81","","14","","10","","9.7","","99.08","","","","","","Fog"
"2017-03-27 14:00","2017","03","27","14:00","15.3","","11.3","","77","","18","","3","","12.9","","99.06","","","","","","NA"
"2017-03-27 15:00","2017","03","27","15:00","15.1","","10.8","","75","","26","","21","","19.3","","99.05","","","","","","NA"
"2017-03-27 16:00","2017","03","27","16:00","14.2","","10.7","","79","","27","","18","","19.3","","99.05","","","","","","Cloudy"
"2017-03-27 17:00","2017","03","27","17:00","13.5","","11.1","","85","","27","","22","","19.3","","99.09","","","","","","NA"
"2017-03-27 18:00","2017","03","27","18:00","13.3","","11.0","","86","","26","","10","","24.1","","99.09","","","","","","NA"
"2017-03-27 19:00","2017","03","27","19:00","12.5","","10.4","","87","","27","","11","","24.1","","99.13","","","","","","Cloudy"
"2017-03-27 20:00","2017","03","27","20:00","11.9","","10.3","","90","","25","","8","","24.1","","99.16","","","","","","NA"
"2017-03-27 21:00","2017","03","27","21:00","12.1","","10.4","","89","","24","","8","","24.1","","99.15","","","","","","NA"
"2017-03-27 22:00","2017","03","27","22:00","11.7","","10.1","","90","","25","","12","","16.1","","99.17","","","","","","Cloudy"
"2017-03-27 23:00","2017","03","27","23:00","10.9","","9.8","","93","","28","","10","","16.1","","99.17","","","","","","NA"
"2017-03-28 00:00","2017","03","28","00:00","10.7","","9.5","","92","","32","","14","","16.1","","99.13","","","","","","NA"
"2017-03-28 01:00","2017","03","28","01:00","9.8","","8.7","","93","","35","","15","","16.1","","99.13","","","","","","Mostly Cloudy"
"2017-03-28 02:00","2017","03","28","02:00","8.3","","7.6","","95","","36","","14","","16.1","","99.11","","","","","","NA"
"2017-03-28 03:00","2017","03","28","03:00","6.8","","6.1","","95","","34","","18","","16.1","","99.16","","","","","","NA"
"2017-03-28 04:00","2017","03","28","04:00","5.6","","4.9","","95","","36","","12","","16.1","","99.15","","","","","","Cloudy"
"2017-03-28 05:00","2017","03","28","05:00","5.3","","4.3","","93","","36","","13","","16.1","","99.17","","","","","","NA"
"2017-03-28 06:00","2017","03","28","06:00","4.8","","3.6","","92","","35","","22","","12.9","","99.27","","","","","","NA"
"2017-03-28 07:00","2017","03","28","07:00","4.5","","2.5","","87","","35","","33","","24.1","","99.33","","","","","","Mostly Cloudy"
"2017-03-28 08:00","2017","03","28","08:00","4.5","","2.5","","87","","36","","22","","24.1","","99.38","","","","","","NA"
"2017-03-28 09:00","2017","03","28","09:00","5.1","","2.8","","85","","35","","22","","24.1","","99.44","","","","","","NA"
"2017-03-28 10:00","2017","03","28","10:00","5.5","","3.0","","84","","36","","23","","24.1","","99.50","","","","","","Cloudy"
"2017-03-28 11:00","2017","03","28","11:00","5.7","","3.1","","83","","35","","24","","24.1","","99.50","","","","","","NA"
"2017-03-28 12:00","2017","03","28","12:00","6.4","","3.2","","80","","34","","24","","24.1","","99.48","","","","","","NA"
"2017-03-28 13:00","2017","03","28","13:00","7.8","","3.9","","76","","34","","24","","24.1","","99.49","","","","","","Mostly Cloudy"
"2017-03-28 14:00","2017","03","28","14:00","7.7","","3.6","","75","","36","","29","","24.1","","99.50","","","","","","NA"
"2017-03-28 15:00","2017","03","28","15:00","7.3","","3.4","","76","","34","","23","","24.1","","99.55","","","","","","NA"
"2017-03-28 16:00","2017","03","28","16:00","6.7","","2.6","","75","","35","","28","","24.1","","99.63","","","","","","Mostly Cloudy"
"2017-03-28 17:00","2017","03","28","17:00","6.2","","2.5","","77","","36","","27","","24.1","","99.71","","","","","","NA"
"2017-03-28 18:00","2017","03","28","18:00","5.4","","1.7","","77","","36","","27","","24.1","","99.79","","","","","","NA"
"2017-03-28 19:00","2017","03","28","19:00","4.7","","1.2","","78","","35","","17","","24.1","","99.89","","","","","","Mainly Clear"
"2017-03-28 20:00","2017","03","28","20:00","4.4","","1.1","","79","","35","","17","","24.1","","99.94","","","","","","NA"
"2017-03-28 21:00","2017","03","28","21:00","3.7","","-0.5","","74","","35","","17","","24.1","","100.02","","","","","","NA"
"2017-03-28 22:00","2017","03","28","22:00","3.3","","-0.9","","74","","35","","16","","24.1","","100.06","","","","","","Clear"
"2017-03-28 23:00","2017","03","28","23:00","3.3","","-1.1","","73","","35","","21","","24.1","","100.11","","","","","","NA"
"2017-03-29 00:00","2017","03","29","00:00","2.6","","-1.4","","75","","35","","21","","24.1","","100.10","","","","","","NA"
"2017-03-29 01:00","2017","03","29","01:00","2.2","","-1.4","","77","","35","","20","","24.1","","100.17","","","","","","Clear"
"2017-03-29 02:00","2017","03","29","02:00","1.8","","-1.3","","80","","36","","17","","24.1","","100.22","","","","","","NA"
"2017-03-29 03:00","2017","03","29","03:00","0.9","","-1.5","","84","","1","","10","","24.1","","100.18","","","","","","NA"
"2017-03-29 04:00","2017","03","29","04:00","1.0","","-1.7","","82","","34","","10","","24.1","","100.18","","","","","","Clear"
"2017-03-29 05:00","2017","03","29","05:00","0.8","","-1.9","","82","","34","","9","","24.1","","100.21","","","","","","NA"
"2017-03-29 06:00","2017","03","29","06:00","1.1","","-2.1","","79","","32","","12","","24.1","","100.26","","","","","","NA"
"2017-03-29 07:00","2017","03","29","07:00","1.9","","-2.3","","74","","33","","9","","24.1","","100.33","","","","","","Mainly Clear"
"2017-03-29 08:00","2017","03","29","08:00","3.3","","-2.2","","67","","35","","12","","24.1","","100.40","","","","","","NA"
"2017-03-29 09:00","2017","03","29","09:00","5.1","","-1.6","","62","","3","","8","","24.1","","100.41","","","","","","NA"
"2017-03-29 10:00","2017","03","29","10:00","5.9","","-1.5","","59","","33","","5","","24.1","","100.46","","","","","","Mostly Cloudy"
"2017-03-29 11:00","2017","03","29","11:00","7.2","","-1.5","","54","","32","","4","","24.1","","100.47","","","","","","NA"
"2017-03-29 12:00","2017","03","29","12:00","8.2","","-1.9","","49","","4","","10","","24.1","","100.41","","","","","","NA"
"2017-03-29 13:00","2017","03","29","13:00","9.6","","-1.4","","46","","2","","10","","24.1","","100.37","","","","","","Mostly Cloudy"
"2017-03-29 14:00","2017","03","29","14:00","8.8","","-1.9","","47","","12","","10","","24.1","","100.35","","","","","","NA"
"2017-03-29 15:00","2017","03","29","15:00","7.7","","-2.9","","47","","15","","18","","24.1","","100.40","","","","","","NA"
"2017-03-29 16:00","2017","03","29","16:00","7.3","","-3.8","","45","","13","","13","","24.1","","100.42","","","","","","Mostly Cloudy"
"2017-03-29 17:00","2017","03","29","17:00","7.6","","-3.0","","47","","14","","7","","24.1","","100.44","","","","","","NA"
"2017-03-29 18:00","2017","03","29","18:00","6.7","","-3.3","","49","","12","","8","","24.1","","100.45","","","","","","NA"
"2017-03-29 19:00","2017","03","29","19:00","6.6","","-2.6","","52","","3","","20","","24.1","","100.50","","","","","","Cloudy"
"2017-03-29 20:00","2017","03","29","20:00","5.6","","-3.7","","51","","4","","17","","24.1","","100.52","","","","","","NA"
"2017-03-29 21:00","2017","03","29","21:00","5.6","","-4.6","","48","","5","","10","","24.1","","100.48","","","","","","NA"
"2017-03-29 22:00","2017","03","29","22:00","5.2","","-4.1","","51","","11","","10","","24.1","","100.41","","","","","","Cloudy"
"2017-03-29 23:00","2017","03","29","23:00","3.8","","-4.2","","56","","10","","6","","24.1","","100.37","","","","","","NA"
"2017-03-30 00:00","2017","03","30","00:00","3.9","","-4.1","","56","","36","","2","","24.1","","100.41","","","","","","NA"
"2017-03-30 01:00","2017","03","30","01:00","3.1","","-4.2","","59","","8","","17","","24.1","","100.47","","","","","","Mostly Cloudy"
"2017-03-30 02:00","2017","03","30","02:00","2.8","","-4.9","","57","","8","","17","","24.1","","100.50","","","","","","NA"
"2017-03-30 03:00","2017","03","30","03:00","2.5","","-5.2","","57","","8","","14","","24.1","","100.52","","","","","","NA"
"2017-03-30 04:00","2017","03","30","04:00","2.2","","-5.9","","55","","9","","16","","24.1","","100.37","","","","","","Mostly Cloudy"
"2017-03-30 05:00","2017","03","30","05:00","2.1","","-6.3","","54","","9","","18","","24.1","","100.40","","","","","","NA"
"2017-03-30 06:00","2017","03","30","06:00","2.1","","-5.3","","58","","10","","19","","24.1","","100.36","","","","","","NA"
"2017-03-30 07:00","2017","03","30","07:00","2.3","","-5.1","","58","","9","","21","","24.1","","100.29","","","","","","Cloudy"
"2017-03-30 08:00","2017","03","30","08:00","2.8","","-5.1","","56","","10","","27","","24.1","","100.29","","","","","","NA"
"2017-03-30 09:00","2017","03","30","09:00","3.4","","-4.6","","56","","9","","19","","24.1","","100.23","","","","","","NA"
"2017-03-30 10:00","2017","03","30","10:00","3.1","","-5.3","","54","","11","","26","","24.1","","100.27","","","","","","Cloudy"
"2017-03-30 11:00","2017","03","30","11:00","2.9","","-5.0","","56","","10","","31","","24.1","","100.16","","","","","","NA"
"2017-03-30 12:00","2017","03","30","12:00","2.8","","-6.1","","52","","10","","21","","24.1","","100.12","","","","","","NA"
"2017-03-30 13:00","2017","03","30","13:00","2.5","","-4.5","","60","","8","","27","","24.1","","100.00","","","","","","Cloudy"
"2017-03-30 14:00","2017","03","30","14:00","2.8","","-6.4","","51","","9","","31","","24.1","","99.84","","","","","","NA"
"2017-03-30 15:00","2017","03","30","15:00","2.3","","-5.1","","58","","9","","26","","6.4","","99.72","","","","","","Snow Showers"
"2017-03-30 16:00","2017","03","30","16:00","0.6","","-2.5","","80","","9","","22","","1.6","","99.76","","","","","","Snow"
"2017-03-30 17:00","2017","03","30","17:00","0.2","","-1.3","","90","","8","","24","","9.7","","99.63","","","","","","Snow"
"2017-03-30 18:00","2017","03","30","18:00","0.4","","-0.9","","91","","8","","18","","3.2","","99.62","","","","","","Snow,Ice Pellets"
"2017-03-30 19:00","2017","03","30","19:00","0.3","","-0.6","","94","","7","","20","","2.4","","99.67","","","","","","Snow"
"2017-03-30 20:00","2017","03","30","20:00","0.2","","-0.5","","95","","5","","26","","1.2","","99.54","","","","","","Snow Showers"
"2017-03-30 21:00","2017","03","30","21:00","0.6","","-0.3","","94","","9","","25","","16.1","","99.47","","","","","","Rain,Snow"
"2017-03-30 22:00","2017","03","30","22:00","0.8","","-0.1","","94","","8","","36","","16.1","","99.33","","","","","","Rain"
"2017-03-30 23:00","2017","03","30","23:00","1.0","","0.1","","94","","9","","33","","9.7","","99.24","","","","","","Rain,Fog"
"2017-03-31 00:00","2017","03","31","00:00","1.1","","0.2","","94","","9","","36","","9.7","","99.13","","","","","","Rain"
"2017-03-31 01:00","2017","03","31","01:00","1.3","","0.6","","95","","10","","38","","16.1","","99.03","","","","","","Cloudy"
"2017-03-31 02:00","2017","03","31","02:00","1.6","","0.9","","95","","8","","28","","24.1","","99.07","","","","","","NA"
"2017-03-31 03:00","2017","03","31","03:00","1.8","","1.2","","96","","8","","29","","16.1","","98.89","","","","","","Rain"
"2017-03-31 04:00","2017","03","31","04:00","2.0","","1.4","","96","","9","","24","","16.1","","98.86","","","","","","Rain"
"2017-03-31 05:00","2017","03","31","05:00","2.2","","1.6","","96","","9","","26","","9.7","","98.82","","","","","","Drizzle"
"2017-03-31 06:00","2017","03","31","06:00","2.2","","1.6","","96","","8","","25","","9.7","","98.79","","","","","","Drizzle,Fog"
"2017-03-31 07:00","2017","03","31","07:00","2.3","","1.7","","96","","8","","26","","4.0","","98.78","","","","","","Drizzle,Fog"
"2017-03-31 08:00","2017","03","31","08:00","2.5","","1.9","","96","","7","","26","","6.4","","98.76","","","","","","Drizzle,Fog"
"2017-03-31 09:00","2017","03","31","09:00","2.6","","2.0","","96","","8","","22","","6.4","","98.75","","","","","","Drizzle,Fog"
"2017-03-31 10:00","2017","03","31","10:00","2.9","","2.3","","96","","8","","22","","6.4","","98.72","","","","","","Drizzle,Fog"
"2017-03-31 11:00","2017","03","31","11:00","3.0","","2.4","","96","","7","","20","","6.4","","98.69","","","","","","Drizzle,Fog"
"2017-03-31 12:00","2017","03","31","12:00","3.0","","2.4","","96","","6","","23","","9.7","","98.64","","","","","","Drizzle,Fog"
"2017-03-31 13:00","2017","03","31","13:00","3.1","","2.5","","96","","6","","20","","9.7","","98.66","","","","","","Drizzle,Fog"
"2017-03-31 14:00","2017","03","31","14:00","3.4","","2.8","","96","","6","","21","","9.7","","98.61","","","","","","Rain,Fog"
"2017-03-31 15:00","2017","03","31","15:00","3.6","","2.9","","95","","6","","26","","9.7","","98.60","","","","","","Rain,Fog"
"2017-03-31 16:00","2017","03","31","16:00","3.7","","2.8","","94","","5","","22","","9.7","","98.61","","","","","","Rain,Fog"
"2017-03-31 17:00","2017","03","31","17:00","3.8","","2.9","","94","","6","","17","","9.7","","98.65","","","","","","Rain,Fog"
"2017-03-31 18:00","2017","03","31","18:00","3.5","","2.6","","94","","2","","21","","9.7","","98.72","","","","","","Rain,Fog"
"2017-03-31 19:00","2017","03","31","19:00","2.8","","1.9","","94","","4","","24","","9.7","","98.76","","","","","","Rain,Fog"
"2017-03-31 20:00","2017","03","31","20:00","2.4","","1.5","","94","","3","","22","","9.7","","98.81","","","","","","Rain,Fog"
"2017-03-31 21:00","2017","03","31","21:00","2.3","","1.3","","93","","3","","21","","16.1","","98.87","","","","","","Rain"
"2017-03-31 22:00","2017","03","31","22:00","2.2","","1.2","","93","","2","","19","","9.7","","98.89","","","","","","Drizzle,Fog"
"2017-03-31 23:00","2017","03","31","23:00","2.1","","1.4","","95","","1","","19","","8.1","","98.92","","","","","","Drizzle,Fog"
